{"geometry": {"coordinates": [-82.314765366, 33.536639742], "type": "Point"}, "id": "E2wktpSRR9qUg6S5dJMY5VJovEw=", "properties": {"@spider": "usps_collection_boxes", "addr:city": "APPLING", "addr:country": "US", "addr:full": "1849 APPLING HARLEM RD", "addr:postcode": "30802", "addr:state": "GA", "amenity": "post_box", "brand": "United States Postal Service", "brand:wikidata": "Q668687", "collection_times": "Mo-Fr 16:00; Sa 11:30", "name": "USPS COLLECTION BOX - BLUE BOX", "note": "ON 12/24 AND 12/31, THIS BOX MAY BE COLLECTED AS EARLY AS 12 NOON.", "nsi_id": "unitedstatespostalservice-a77078", "operator": "United States Postal Service", "operator:short": "USPS", "operator:type": "public", "operator:wikidata": "Q668687", "ref": "3080200001"}, "type": "Feature"}
{"geometry": {"coordinates": [-82.314765366, 33.536639742], "type": "Point"}, "id": "-Rh8KvM3pdt3yuSsWvlydjGcg9w=", "properties": {"@spider": "usps_collection_boxes", "addr:city": "APPLING", "addr:country": "US", "addr:full": "1849 APPLING HARLEM RD", "addr:postcode": "30802", "addr:state": "GA", "amenity": "post_box", "brand": "United States Postal Service", "brand:wikidata": "Q668687", "collection_times": "Mo-Fr 16:00; Sa 11:30", "name": "USPS COLLECTION BOX - PO LOBBY", "note": "ON 12/24 AND 12/31, THIS BOX MAY BE COLLECTED AS EARLY AS 12 NOON.", "nsi_id": "unitedstatespostalservice-a77078", "operator": "United States Postal Service", "operator:short": "USPS", "operator:type": "public", "operator:wikidata": "Q668687", "ref": "3080200002"}, "type": "Feature"}
{"geometry": {"coordinates": [-82.314765366, 33.536639742], "type": "Point"}, "id": "iQwsSQ0Ghx0wYmeVb1C-uM1Pg0Y=", "properties": {"@spider": "usps_collection_boxes", "addr:city": "APPLING", "addr:country": "US", "addr:full": "1849 APPLING HARLEM RD", "addr:postcode": "30802", "addr:state": "GA", "amenity": "post_box", "brand": "United States Postal Service", "brand:wikidata": "Q668687", "collection_times": "Mo-Fr 16:00; Sa 11:30", "name": "USPS COLLECTION BOX - BLUE BOX", "note": "ON 12/24 AND 12/31, THIS BOX MAY BE COLLECTED AS EARLY AS 12 NOON.", "nsi_id": "unitedstatespostalservice-a77078", "operator": "United States Postal Service", "operator:short": "USPS", "operator:type": "public", "operator:wikidata": "Q668687", "ref": "3080200005"}, "type": "Feature"}
{"geometry": {"coordinates": [-82.314765366, 33.536639742], "type": "Point"}, "id": "hceolEOxD3CkaVxnF8VMyYSwFpo=", "properties": {"@spider": "usps_collection_boxes", "addr:city": "APPLING", "addr:country": "US", "addr:full": "1849 APPLING HARLEM RD", "addr:postcode": "30802", "addr:state": "GA", "amenity": "post_box", "brand": "United States Postal Service", "brand:wikidata": "Q668687", "collection_times": "Mo-Fr 16:00; Sa 11:30", "name": "USPS COLLECTION BOX - PO LOBBY", "note": "ON 12/24 AND 12/31, THIS BOX MAY BE COLLECTED AS EARLY AS 12 NOON.", "nsi_id": "unitedstatespostalservice-a77078", "operator": "United States Postal Service", "operator:short": "USPS", "operator:type": "public", "operator:wikidata": "Q668687", "ref": "3080200007"}, "type": "Feature"}
{"geometry": {"coordinates": [-82.527147059, 33.194351243], "type": "Point"}, "id": "oDMJa_pkkx_tTi7cmBu8Yd0oRN0=", "properties": {"@spider": "usps_collection_boxes", "addr:city": "AVERA", "addr:country": "US", "addr:full": "9448 BROAD ST", "addr:postcode": "30803", "addr:state": "GA", "amenity": "post_box", "brand": "United States Postal Service", "brand:wikidata": "Q668687", "collection_times": "Mo-Fr 12:30; Sa 11:15", "name": "USPS COLLECTION BOX - BLUE BOX", "note": "ON 12/24 AND 12/31, THIS BOX MAY BE COLLECTED AS EARLY AS 12 NOON.", "nsi_id": "unitedstatespostalservice-a77078", "operator": "United States Postal Service", "operator:short": "USPS", "operator:type": "public", "operator:wikidata": "Q668687", "ref": "3080300001"}, "type": "Feature"}
{"geometry": {"coordinates": [-82.527147059, 33.194351243], "type": "Point"}, "id": "-Vn88H8Fi-rJw5IW26eEbE--bb8=", "properties": {"@spider": "usps_collection_boxes", "addr:city": "AVERA", "addr:country": "US", "addr:full": "9448 BROAD ST", "addr:postcode": "30803", "addr:state": "GA", "amenity": "post_box", "brand": "United States Postal Service", "brand:wikidata": "Q668687", "collection_times": "Mo-Fr 12:30; Sa 11:30", "name": "USPS COLLECTION BOX - PO LOBBY", "note": "ON 12/24 AND 12/31, THIS BOX MAY BE COLLECTED AS EARLY AS 12 NOON.", "nsi_id": "unitedstatespostalservice-a77078", "operator": "United States Postal Service", "operator:short": "USPS", "operator:type": "public", "operator:wikidata": "Q668687", "ref": "3080300002"}, "type": "Feature"}
{"geometry": {"coordinates": [-82.527147059, 33.194351243], "type": "Point"}, "id": "E67kAEWqwvthNK2P_5A22Ael0qg=", "properties": {"@spider": "usps_collection_boxes", "addr:city": "AVERA", "addr:country": "US", "addr:full": "9448 BROAD ST", "addr:postcode": "30803", "addr:state": "GA", "amenity": "post_box", "brand": "United States Postal Service", "brand:wikidata": "Q668687", "collection_times": "Mo-Fr 12:30; Sa 11:30", "name": "USPS COLLECTION BOX - PO LOBBY", "note": "ON 12/24 AND 12/31, THIS BOX MAY BE COLLECTED AS EARLY AS 12 NOON.", "nsi_id": "unitedstatespostalservice-a77078", "operator": "United States Postal Service", "operator:short": "USPS", "operator:type": "public", "operator:wikidata": "Q668687", "ref": "3080300004"}, "type": "Feature"}
{"geometry": {"coordinates": [-82.201785257, 33.293446974], "type": "Point"}, "id": "gPiMk7YAX6Xrtk7-CCmjrRyaydo=", "properties": {"@spider": "usps_collection_boxes", "addr:city": "BLYTHE", "addr:country": "US", "addr:full": "141 GIN HOUSE ST", "addr:postcode": "30805", "addr:state": "GA", "amenity": "post_box", "brand": "United States Postal Service", "brand:wikidata": "Q668687", "collection_times": "Mo-Fr 15:00; Sa 10:30", "name": "USPS COLLECTION BOX - BLUE BOX", "note": "ON 12/24 AND 12/31, THIS BOX MAY BE COLLECTED AS EARLY AS 12 NOON.", "nsi_id": "unitedstatespostalservice-a77078", "operator": "United States Postal Service", "operator:short": "USPS", "operator:type": "public", "operator:wikidata": "Q668687", "ref": "3080500001"}, "type": "Feature"}
{"geometry": {"coordinates": [-82.201785257, 33.293446974], "type": "Point"}, "id": "fDdejdF4xoXa3Aelk3pBYeesdzg=", "properties": {"@spider": "usps_collection_boxes", "addr:city": "BLYTHE", "addr:country": "US", "addr:full": "141 GIN HOUSE ST", "addr:postcode": "30805", "addr:state": "GA", "amenity": "post_box", "brand": "United States Postal Service", "brand:wikidata": "Q668687", "collection_times": "Mo-Fr 15:00; Sa 10:45", "name": "USPS COLLECTION BOX - PO LOBBY", "note": "ON 12/24 AND 12/31, THIS BOX MAY BE COLLECTED AS EARLY AS 12 NOON.", "nsi_id": "unitedstatespostalservice-a77078", "operator": "United States Postal Service", "operator:short": "USPS", "operator:type": "public", "operator:wikidata": "Q668687", "ref": "3080500002"}, "type": "Feature"}
{"geometry": {"coordinates": [-82.201785257, 33.293446974], "type": "Point"}, "id": "G6F6lRVzCsVS3ozyWqKnJqlNARY=", "properties": {"@spider": "usps_collection_boxes", "addr:city": "BLYTHE", "addr:country": "US", "addr:full": "141 GIN HOUSE ST", "addr:postcode": "30805", "addr:state": "GA", "amenity": "post_box", "brand": "United States Postal Service", "brand:wikidata": "Q668687", "collection_times": "Mo-Fr 15:00; Sa 10:45", "name": "USPS COLLECTION BOX - PO LOBBY", "note": "ON 12/24 AND 12/31, THIS BOX MAY BE COLLECTED AS EARLY AS 12 NOON.", "nsi_id": "unitedstatespostalservice-a77078", "operator": "United States Postal Service", "operator:short": "USPS", "operator:type": "public", "operator:wikidata": "Q668687", "ref": "3080500004"}, "type": "Feature"}
{"geometry": {"coordinates": [-82.647032235, 33.452172128], "type": "Point"}, "id": "I-8C39cTEo14wQC1uCWwapTF2hI=", "properties": {"@spider": "usps_collection_boxes", "addr:city": "CAMAK", "addr:country": "US", "addr:full": "3374 GA HIGHWAY 80 N", "addr:postcode": "30807", "addr:state": "GA", "amenity": "post_box", "brand": "United States Postal Service", "brand:wikidata": "Q668687", "collection_times": "Mo-Fr 12:00; Sa 11:00", "name": "USPS COLLECTION BOX - BLUE BOX", "nsi_id": "unitedstatespostalservice-a77078", "operator": "United States Postal Service", "operator:short": "USPS", "operator:type": "public", "operator:wikidata": "Q668687", "ref": "3080700001"}, "type": "Feature"}
{"geometry": {"coordinates": [-82.647032235, 33.452172128], "type": "Point"}, "id": "cNfP6cuqpFLpydYBovyr8boTWYw=", "properties": {"@spider": "usps_collection_boxes", "addr:city": "CAMAK", "addr:country": "US", "addr:full": "3374 GA HIGHWAY 80 N", "addr:postcode": "30807", "addr:state": "GA", "amenity": "post_box", "brand": "United States Postal Service", "brand:wikidata": "Q668687", "collection_times": "Mo-Fr 12:00; Sa 11:00", "name": "USPS COLLECTION BOX - PO LOBBY", "nsi_id": "unitedstatespostalservice-a77078", "operator": "United States Postal Service", "operator:short": "USPS", "operator:type": "public", "operator:wikidata": "Q668687", "ref": "3080700002"}, "type": "Feature"}
{"geometry": {"coordinates": [-82.647032235, 33.452172128], "type": "Point"}, "id": "L9mvMczz77RF6PWwNnPl8znnm2w=", "properties": {"@spider": "usps_collection_boxes", "addr:city": "CAMAK", "addr:country": "US", "addr:full": "3374 GA HIGHWAY 80 N", "addr:postcode": "30807", "addr:state": "GA", "amenity": "post_box", "brand": "United States Postal Service", "brand:wikidata": "Q668687", "collection_times": "Mo-Fr 12:00; Sa 11:00", "name": "USPS COLLECTION BOX - PO LOBBY", "nsi_id": "unitedstatespostalservice-a77078", "operator": "United States Postal Service", "operator:short": "USPS", "operator:type": "public", "operator:wikidata": "Q668687", "ref": "3080700003"}, "type": "Feature"}
{"geometry": {"coordinates": [-82.389234147, 33.413661632], "type": "Point"}, "id": "eiS06Y4h57EhHT0ttxWTaPyg050=", "properties": {"@spider": "usps_collection_boxes", "addr:city": "DEARING", "addr:country": "US", "addr:full": "4479 AUGUSTA HWY", "addr:postcode": "30808", "addr:state": "GA", "amenity": "post_box", "brand": "United States Postal Service", "brand:wikidata": "Q668687", "collection_times": "Mo-Fr 16:00; Sa 10:30", "name": "USPS COLLECTION BOX - BLUE BOX", "note": "ON 12/24 AND 12/31, THIS BOX MAY BE COLLECTED AS EARLY AS 12 NOON.", "nsi_id": "unitedstatespostalservice-a77078", "operator": "United States Postal Service", "operator:short": "USPS", "operator:type": "public", "operator:wikidata": "Q668687", "ref": "3080800001"}, "type": "Feature"}
{"geometry": {"coordinates": [-82.389234147, 33.413661632], "type": "Point"}, "id": "HqEeAMFOdq3vZgvE47UvDwtYbik=", "properties": {"@spider": "usps_collection_boxes", "addr:city": "DEARING", "addr:country": "US", "addr:full": "4479 AUGUSTA HWY", "addr:postcode": "30808", "addr:state": "GA", "amenity": "post_box", "brand": "United States Postal Service", "brand:wikidata": "Q668687", "collection_times": "Mo-Fr 16:00; Sa 10:30", "name": "USPS COLLECTION BOX - PO LOBBY", "note": "ON 12/24 AND 12/31, THIS BOX MAY BE COLLECTED AS EARLY AS 12 NOON.", "nsi_id": "unitedstatespostalservice-a77078", "operator": "United States Postal Service", "operator:short": "USPS", "operator:type": "public", "operator:wikidata": "Q668687", "ref": "3080800002"}, "type": "Feature"}
{"geometry": {"coordinates": [-82.389234147, 33.413661632], "type": "Point"}, "id": "HLAMVqQG5WF7oJ7R5rft9YG5_Fo=", "properties": {"@spider": "usps_collection_boxes", "addr:city": "DEARING", "addr:country": "US", "addr:full": "4479 AUGUSTA HWY", "addr:postcode": "30808", "addr:state": "GA", "amenity": "post_box", "brand": "United States Postal Service", "brand:wikidata": "Q668687", "collection_times": "Mo-Fr 16:00; Sa 10:30", "name": "USPS COLLECTION BOX - PO LOBBY", "note": "ON 12/24 AND 12/31, THIS BOX MAY BE COLLECTED AS EARLY AS 12 NOON.", "nsi_id": "unitedstatespostalservice-a77078", "operator": "United States Postal Service", "operator:short": "USPS", "operator:type": "public", "operator:wikidata": "Q668687", "ref": "3080800003"}, "type": "Feature"}
{"geometry": {"coordinates": [-82.134719995, 33.542283002], "type": "Point"}, "id": "RrlmACgiPV6pwXXCA4PcSgAfg9Y=", "properties": {"@spider": "usps_collection_boxes", "addr:city": "EVANS", "addr:country": "US", "addr:full": "607 RONALD REAGAN DR", "addr:postcode": "30809", "addr:state": "GA", "amenity": "post_box", "brand": "United States Postal Service", "brand:wikidata": "Q668687", "collection_times": "Mo-Fr 17:00; Sa 13:00", "name": "USPS COLLECTION BOX - BLUE BOX", "note": "ON 12/24 AND 12/31, THIS BOX MAY BE COLLECTED AS EARLY AS 12 NOON.", "nsi_id": "unitedstatespostalservice-a77078", "operator": "United States Postal Service", "operator:short": "USPS", "operator:type": "public", "operator:wikidata": "Q668687", "ref": "3080900001"}, "type": "Feature"}
{"geometry": {"coordinates": [-82.133004352, 33.540556446], "type": "Point"}, "id": "47vha2iMrIHhOd2iyhOSEzRnKdM=", "properties": {"@spider": "usps_collection_boxes", "addr:city": "EVANS", "addr:country": "US", "addr:full": "4355 WASHINGTON RD", "addr:postcode": "30809", "addr:state": "GA", "amenity": "post_box", "brand": "United States Postal Service", "brand:wikidata": "Q668687", "collection_times": "Mo-Sa 14:00", "name": "USPS COLLECTION BOX - BLUE BOX", "note": "ON 12/24 AND 12/31, THIS BOX MAY BE COLLECTED AS EARLY AS 12 NOON.", "nsi_id": "unitedstatespostalservice-a77078", "operator": "United States Postal Service", "operator:short": "USPS", "operator:type": "public", "operator:wikidata": "Q668687", "ref": "3080900004"}, "type": "Feature"}
{"geometry": {"coordinates": [-82.126078706, 33.534171329], "type": "Point"}, "id": "C93PvCYp53vu2lV0Eb9-JLW_6uU=", "properties": {"@spider": "usps_collection_boxes", "addr:city": "EVANS", "addr:country": "US", "addr:full": "4274 WASHINGTON RD", "addr:postcode": "30809", "addr:state": "GA", "amenity": "post_box", "brand": "United States Postal Service", "brand:wikidata": "Q668687", "collection_times": "Mo-Sa 09:30", "name": "USPS COLLECTION BOX - BLUE BOX", "nsi_id": "unitedstatespostalservice-a77078", "operator": "United States Postal Service", "operator:short": "USPS", "operator:type": "public", "operator:wikidata": "Q668687", "ref": "3080900005"}, "type": "Feature"}
{"geometry": {"coordinates": [-82.134719995, 33.542283002], "type": "Point"}, "id": "jvLy2NVkaqneeERy08dEvceYGxQ=", "properties": {"@spider": "usps_collection_boxes", "addr:city": "EVANS", "addr:country": "US", "addr:full": "607 RONALD REAGAN DR", "addr:postcode": "30809", "addr:state": "GA", "amenity": "post_box", "brand": "United States Postal Service", "brand:wikidata": "Q668687", "collection_times": "Mo-Fr 17:00; Sa 13:00", "name": "USPS COLLECTION BOX - PO LOBBY", "note": "ON 12/24 AND 12/31, THIS BOX MAY BE COLLECTED AS EARLY AS 12 NOON.", "nsi_id": "unitedstatespostalservice-a77078", "operator": "United States Postal Service", "operator:short": "USPS", "operator:type": "public", "operator:wikidata": "Q668687", "ref": "3080900006"}, "type": "Feature"}
{"geometry": {"coordinates": [-82.134719995, 33.542283002], "type": "Point"}, "id": "p1DgtJgJtx4A19N7RF3Y9A7s9lA=", "properties": {"@spider": "usps_collection_boxes", "addr:city": "EVANS", "addr:country": "US", "addr:full": "607 RONALD REAGAN DR", "addr:postcode": "30809", "addr:state": "GA", "amenity": "post_box", "brand": "United States Postal Service", "brand:wikidata": "Q668687", "collection_times": "Mo-Fr 17:00; Sa 13:00", "name": "USPS COLLECTION BOX - APC", "note": "ON 12/24 AND 12/31, THIS BOX MAY BE COLLECTED AS EARLY AS 12 NOON.", "nsi_id": "unitedstatespostalservice-a77078", "operator": "United States Postal Service", "operator:short": "USPS", "operator:type": "public", "operator:wikidata": "Q668687", "ref": "3080900008"}, "type": "Feature"}
{"geometry": {"coordinates": [-82.134719995, 33.542283002], "type": "Point"}, "id": "-Gk0Fbu4kmmHp0tcaPx9JUvQ2ZY=", "properties": {"@spider": "usps_collection_boxes", "addr:city": "EVANS", "addr:country": "US", "addr:full": "607 RONALD REAGAN DR", "addr:postcode": "30809", "addr:state": "GA", "amenity": "post_box", "brand": "United States Postal Service", "brand:wikidata": "Q668687", "collection_times": "Mo-Fr 17:00; Sa 13:00", "name": "USPS COLLECTION BOX - PO LOBBY", "note": "ON 12/24 AND 12/31, THIS BOX MAY BE COLLECTED AS EARLY AS 12 NOON.", "nsi_id": "unitedstatespostalservice-a77078", "operator": "United States Postal Service", "operator:short": "USPS", "operator:type": "public", "operator:wikidata": "Q668687", "ref": "3080900015"}, "type": "Feature"}
{"geometry": {"coordinates": [-82.59605353, 33.233489594], "type": "Point"}, "id": "cS8lKEiCKDGrRmz6NgoRXK9YLCU=", "properties": {"@spider": "usps_collection_boxes", "addr:city": "GIBSON", "addr:country": "US", "addr:full": "21 W MAIN ST", "addr:postcode": "30810", "addr:state": "GA", "amenity": "post_box", "brand": "United States Postal Service", "brand:wikidata": "Q668687", "collection_times": "Mo-Fr 16:15; Sa 11:00", "name": "USPS COLLECTION BOX - BLUE BOX", "note": "ON 12/24 AND 12/31, THIS BOX MAY BE COLLECTED AS EARLY AS 12 NOON.", "nsi_id": "unitedstatespostalservice-a77078", "operator": "United States Postal Service", "operator:short": "USPS", "operator:type": "public", "operator:wikidata": "Q668687", "ref": "3081000001"}, "type": "Feature"}
{"geometry": {"coordinates": [-82.59605353, 33.233489594], "type": "Point"}, "id": "kiG6n3h4oirF2h0pIzH-rQkExQA=", "properties": {"@spider": "usps_collection_boxes", "addr:city": "GIBSON", "addr:country": "US", "addr:full": "21 W MAIN ST", "addr:postcode": "30810", "addr:state": "GA", "amenity": "post_box", "brand": "United States Postal Service", "brand:wikidata": "Q668687", "collection_times": "Mo-Fr 16:30; Sa 11:00", "name": "USPS COLLECTION BOX - PO LOBBY", "note": "ON 12/24 AND 12/31, THIS BOX MAY BE COLLECTED AS EARLY AS 12 NOON.", "nsi_id": "unitedstatespostalservice-a77078", "operator": "United States Postal Service", "operator:short": "USPS", "operator:type": "public", "operator:wikidata": "Q668687", "ref": "3081000002"}, "type": "Feature"}
{"geometry": {"coordinates": [-82.59605353, 33.233489594], "type": "Point"}, "id": "uhIa145FgYgfXItZMMK3y5iupMQ=", "properties": {"@spider": "usps_collection_boxes", "addr:city": "GIBSON", "addr:country": "US", "addr:full": "21 W MAIN ST", "addr:postcode": "30810", "addr:state": "GA", "amenity": "post_box", "brand": "United States Postal Service", "brand:wikidata": "Q668687", "collection_times": "Mo-Fr 16:30; Sa 11:00", "name": "USPS COLLECTION BOX - PO LOBBY", "note": "ON 12/24 AND 12/31, THIS BOX MAY BE COLLECTED AS EARLY AS 12 NOON.", "nsi_id": "unitedstatespostalservice-a77078", "operator": "United States Postal Service", "operator:short": "USPS", "operator:type": "public", "operator:wikidata": "Q668687", "ref": "3081000004"}, "type": "Feature"}
{"geometry": {"coordinates": [-82.027476, 33.370146], "type": "Point"}, "id": "Gl2oaN1waKnn1mAy88AOUroFjDE=", "properties": {"@spider": "usps_collection_boxes", "addr:city": "GRACEWOOD", "addr:country": "US", "addr:full": "102 MYRTLE BLVD", "addr:postcode": "30812", "addr:state": "GA", "amenity": "post_box", "brand": "United States Postal Service", "brand:wikidata": "Q668687", "collection_times": "Mo-Fr 16:30; Sa 10:45", "name": "USPS COLLECTION BOX - BLUE BOX", "note": "ON 12/24 AND 12/31, THIS BOX MAY BE COLLECTED AS EARLY AS 12 NOON.", "nsi_id": "unitedstatespostalservice-a77078", "operator": "United States Postal Service", "operator:short": "USPS", "operator:type": "public", "operator:wikidata": "Q668687", "ref": "3081200001"}, "type": "Feature"}
{"geometry": {"coordinates": [-82.027476, 33.370146], "type": "Point"}, "id": "GMjfxO04OeN_KtiYS_gfxNlljv4=", "properties": {"@spider": "usps_collection_boxes", "addr:city": "GRACEWOOD", "addr:country": "US", "addr:full": "102 MYRTLE BLVD", "addr:postcode": "30812", "addr:state": "GA", "amenity": "post_box", "brand": "United States Postal Service", "brand:wikidata": "Q668687", "collection_times": "Mo-Fr 16:30; Sa 10:45", "name": "USPS COLLECTION BOX - PO LOBBY", "note": "ON 12/24 AND 12/31, THIS BOX MAY BE COLLECTED AS EARLY AS 12 NOON.", "nsi_id": "unitedstatespostalservice-a77078", "operator": "United States Postal Service", "operator:short": "USPS", "operator:type": "public", "operator:wikidata": "Q668687", "ref": "3081200002"}, "type": "Feature"}
{"geometry": {"coordinates": [-82.027476, 33.370146], "type": "Point"}, "id": "8Jmc_3xtBmP0610K_BLfojgfn2o=", "properties": {"@spider": "usps_collection_boxes", "addr:city": "GRACEWOOD", "addr:country": "US", "addr:full": "102 MYRTLE BLVD", "addr:postcode": "30812", "addr:state": "GA", "amenity": "post_box", "brand": "United States Postal Service", "brand:wikidata": "Q668687", "collection_times": "Mo-Fr 16:30; Sa 10:45", "name": "USPS COLLECTION BOX - PO LOBBY", "note": "ON 12/24 AND 12/31, THIS BOX MAY BE COLLECTED AS EARLY AS 12 NOON.", "nsi_id": "unitedstatespostalservice-a77078", "operator": "United States Postal Service", "operator:short": "USPS", "operator:type": "public", "operator:wikidata": "Q668687", "ref": "3081200003"}, "type": "Feature"}
{"geometry": {"coordinates": [-82.181676767, 33.461121805], "type": "Point"}, "id": "_ymwfTYvPMNOw74rIB92FUFHcMU=", "properties": {"@spider": "usps_collection_boxes", "addr:city": "GROVETOWN", "addr:country": "US", "addr:full": "200 JOHN DEERE PKWY", "addr:postcode": "30813", "addr:state": "GA", "amenity": "post_box", "brand": "United States Postal Service", "brand:wikidata": "Q668687", "collection_times": "Mo-Fr 17:00; Sa 14:30", "name": "USPS COLLECTION BOX - BLUE BOX", "note": "ON 12/24 AND 12/31, THIS BOX MAY BE COLLECTED AS EARLY AS 12 NOON.", "nsi_id": "unitedstatespostalservice-a77078", "operator": "United States Postal Service", "operator:short": "USPS", "operator:type": "public", "operator:wikidata": "Q668687", "ref": "3081300003"}, "type": "Feature"}
{"geometry": {"coordinates": [-82.181659752, 33.46104553], "type": "Point"}, "id": "H26X_R16nZDdcx_gvu_PasUgdG4=", "properties": {"@spider": "usps_collection_boxes", "addr:city": "GROVETOWN", "addr:country": "US", "addr:full": "200 JOHN DEERE PKWY", "addr:postcode": "30813", "addr:state": "GA", "amenity": "post_box", "brand": "United States Postal Service", "brand:wikidata": "Q668687", "collection_times": "Mo-Fr 17:00; Sa 14:30", "name": "USPS COLLECTION BOX - PO LOBBY", "note": "ON 12/24 AND 12/31, THIS BOX MAY BE COLLECTED AS EARLY AS 12 NOON.", "nsi_id": "unitedstatespostalservice-a77078", "operator": "United States Postal Service", "operator:short": "USPS", "operator:type": "public", "operator:wikidata": "Q668687", "ref": "3081300006"}, "type": "Feature"}
{"geometry": {"coordinates": [-82.181659752, 33.46104553], "type": "Point"}, "id": "AqJANu2duFwmmA72kSvYN2J5TtI=", "properties": {"@spider": "usps_collection_boxes", "addr:city": "GROVETOWN", "addr:country": "US", "addr:full": "200 JOHN DEERE PKWY", "addr:postcode": "30813", "addr:state": "GA", "amenity": "post_box", "brand": "United States Postal Service", "brand:wikidata": "Q668687", "collection_times": "Mo-Fr 17:00; Sa 14:30", "name": "USPS COLLECTION BOX - PO LOBBY", "note": "ON 12/24 AND 12/31, THIS BOX MAY BE COLLECTED AS EARLY AS 12 NOON.", "nsi_id": "unitedstatespostalservice-a77078", "operator": "United States Postal Service", "operator:short": "USPS", "operator:type": "public", "operator:wikidata": "Q668687", "ref": "3081300010"}, "type": "Feature"}
{"geometry": {"coordinates": [-82.318997162, 33.416492075], "type": "Point"}, "id": "sXvoQbQJtoptwKpok8xpzb-hFf0=", "properties": {"@spider": "usps_collection_boxes", "addr:city": "HARLEM", "addr:country": "US", "addr:full": "335 W MILLEDGEVILLE RD", "addr:postcode": "30814", "addr:state": "GA", "amenity": "post_box", "brand": "United States Postal Service", "brand:wikidata": "Q668687", "collection_times": "Mo-Fr 16:30; Sa 12:00", "name": "USPS COLLECTION BOX - BLUE BOX", "note": "ON 12/24 AND 12/31, THIS BOX MAY BE COLLECTED AS EARLY AS 12 NOON.", "nsi_id": "unitedstatespostalservice-a77078", "operator": "United States Postal Service", "operator:short": "USPS", "operator:type": "public", "operator:wikidata": "Q668687", "ref": "3081400002"}, "type": "Feature"}
{"geometry": {"coordinates": [-82.318997162, 33.416492075], "type": "Point"}, "id": "dWib3n4VT5Nx9qDz5gPk6HLHsrs=", "properties": {"@spider": "usps_collection_boxes", "addr:city": "HARLEM", "addr:country": "US", "addr:full": "335 W MILLEDGEVILLE RD", "addr:postcode": "30814", "addr:state": "GA", "amenity": "post_box", "brand": "United States Postal Service", "brand:wikidata": "Q668687", "collection_times": "Mo-Fr 16:30; Sa 12:00", "name": "USPS COLLECTION BOX - PO LOBBY", "note": "ON 12/24 AND 12/31, THIS BOX MAY BE COLLECTED AS EARLY AS 12 NOON.", "nsi_id": "unitedstatespostalservice-a77078", "operator": "United States Postal Service", "operator:short": "USPS", "operator:type": "public", "operator:wikidata": "Q668687", "ref": "3081400004"}, "type": "Feature"}
{"geometry": {"coordinates": [-82.318997162, 33.416492075], "type": "Point"}, "id": "3XGuAd4CXfR0TvmPDmX3SeDFFwk=", "properties": {"@spider": "usps_collection_boxes", "addr:city": "HARLEM", "addr:country": "US", "addr:full": "335 W MILLEDGEVILLE RD", "addr:postcode": "30814", "addr:state": "GA", "amenity": "post_box", "brand": "United States Postal Service", "brand:wikidata": "Q668687", "collection_times": "Mo-Fr 16:30; Sa 12:00", "name": "USPS COLLECTION BOX - PO LOBBY", "note": "ON 12/24 AND 12/31, THIS BOX MAY BE COLLECTED AS EARLY AS 12 NOON.", "nsi_id": "unitedstatespostalservice-a77078", "operator": "United States Postal Service", "operator:short": "USPS", "operator:type": "public", "operator:wikidata": "Q668687", "ref": "3081400006"}, "type": "Feature"}
{"geometry": {"coordinates": [-82.093799687, 33.314741344], "type": "Point"}, "id": "4YlnAgGZmr4KwmOFlKn1_BQWMq8=", "properties": {"@spider": "usps_collection_boxes", "addr:city": "HEPHZIBAH", "addr:country": "US", "addr:full": "4902 WINDSOR SPRING RD", "addr:postcode": "30815", "addr:state": "GA", "amenity": "post_box", "brand": "United States Postal Service", "brand:wikidata": "Q668687", "collection_times": "Mo-Fr 17:00; Sa 12:00", "name": "USPS COLLECTION BOX - BLUE BOX", "note": "ON 12/24 AND 12/31, THIS BOX MAY BE COLLECTED AS EARLY AS 12 NOON.", "nsi_id": "unitedstatespostalservice-a77078", "operator": "United States Postal Service", "operator:short": "USPS", "operator:type": "public", "operator:wikidata": "Q668687", "ref": "3081500001"}, "type": "Feature"}
{"geometry": {"coordinates": [-82.093799687, 33.314741344], "type": "Point"}, "id": "1ojhP3WgcAPYsKSeiD14DAJh1Sc=", "properties": {"@spider": "usps_collection_boxes", "addr:city": "HEPHZIBAH", "addr:country": "US", "addr:full": "4902 WINDSOR SPRING RD", "addr:postcode": "30815", "addr:state": "GA", "amenity": "post_box", "brand": "United States Postal Service", "brand:wikidata": "Q668687", "collection_times": "Mo-Fr 17:00; Sa 12:00", "name": "USPS COLLECTION BOX - PO LOBBY", "note": "ON 12/24 AND 12/31, THIS BOX MAY BE COLLECTED AS EARLY AS 12 NOON.", "nsi_id": "unitedstatespostalservice-a77078", "operator": "United States Postal Service", "operator:short": "USPS", "operator:type": "public", "operator:wikidata": "Q668687", "ref": "3081500002"}, "type": "Feature"}
{"geometry": {"coordinates": [-82.073573893, 33.376866675], "type": "Point"}, "id": "SllQGrMx-X3xaBMTBy8sIMksk5Q=", "properties": {"@spider": "usps_collection_boxes", "addr:city": "HEPHZIBAH", "addr:country": "US", "addr:full": "2512 TOBACCO RD", "addr:postcode": "30815", "addr:state": "GA", "amenity": "post_box", "brand": "United States Postal Service", "brand:wikidata": "Q668687", "collection_times": "Mo-Sa 11:00", "name": "USPS COLLECTION BOX - BLUE BOX", "nsi_id": "unitedstatespostalservice-a77078", "operator": "United States Postal Service", "operator:short": "USPS", "operator:type": "public", "operator:wikidata": "Q668687", "ref": "3081500004"}, "type": "Feature"}
{"geometry": {"coordinates": [-82.093799687, 33.314741344], "type": "Point"}, "id": "j_8s1RH35GQLcilyrT1YWqI0G2E=", "properties": {"@spider": "usps_collection_boxes", "addr:city": "HEPHZIBAH", "addr:country": "US", "addr:full": "4902 WINDSOR SPRING RD", "addr:postcode": "30815", "addr:state": "GA", "amenity": "post_box", "brand": "United States Postal Service", "brand:wikidata": "Q668687", "collection_times": "Mo-Fr 17:00; Sa 12:00", "name": "USPS COLLECTION BOX - PO LOBBY", "note": "ON 12/24 AND 12/31, THIS BOX MAY BE COLLECTED AS EARLY AS 12 NOON.", "nsi_id": "unitedstatespostalservice-a77078", "operator": "United States Postal Service", "operator:short": "USPS", "operator:type": "public", "operator:wikidata": "Q668687", "ref": "3081500008"}, "type": "Feature"}
{"geometry": {"coordinates": [-82.225942185, 33.236974909], "type": "Point"}, "id": "I8Osr6kfrVXmtHj95YU3sZmGmeU=", "properties": {"@spider": "usps_collection_boxes", "addr:city": "KEYSVILLE", "addr:country": "US", "addr:full": "118 OLD WAYNESBORO RD", "addr:postcode": "30816", "addr:state": "GA", "amenity": "post_box", "brand": "United States Postal Service", "brand:wikidata": "Q668687", "collection_times": "Mo-Fr 15:00; Sa 11:00", "name": "USPS COLLECTION BOX - BLUE BOX", "note": "ON 12/24 AND 12/31, THIS BOX MAY BE COLLECTED AS EARLY AS 12 NOON.", "nsi_id": "unitedstatespostalservice-a77078", "operator": "United States Postal Service", "operator:short": "USPS", "operator:type": "public", "operator:wikidata": "Q668687", "ref": "3081600001"}, "type": "Feature"}
{"geometry": {"coordinates": [-82.225942185, 33.236974909], "type": "Point"}, "id": "NOAbmWgsQpCbI0RgCAnGlMhpTKE=", "properties": {"@spider": "usps_collection_boxes", "addr:city": "KEYSVILLE", "addr:country": "US", "addr:full": "118 OLD WAYNESBORO RD", "addr:postcode": "30816", "addr:state": "GA", "amenity": "post_box", "brand": "United States Postal Service", "brand:wikidata": "Q668687", "collection_times": "Mo-Fr 15:00; Sa 11:00", "name": "USPS COLLECTION BOX - PO LOBBY", "note": "ON 12/24 AND 12/31, THIS BOX MAY BE COLLECTED AS EARLY AS 12 NOON.", "nsi_id": "unitedstatespostalservice-a77078", "operator": "United States Postal Service", "operator:short": "USPS", "operator:type": "public", "operator:wikidata": "Q668687", "ref": "3081600002"}, "type": "Feature"}
{"geometry": {"coordinates": [-82.225942185, 33.236974909], "type": "Point"}, "id": "nZp0VyrAUxSmsPH1TQzj88xTkdU=", "properties": {"@spider": "usps_collection_boxes", "addr:city": "KEYSVILLE", "addr:country": "US", "addr:full": "118 OLD WAYNESBORO RD", "addr:postcode": "30816", "addr:state": "GA", "amenity": "post_box", "brand": "United States Postal Service", "brand:wikidata": "Q668687", "collection_times": "Mo-Fr 15:00; Sa 11:00", "name": "USPS COLLECTION BOX - PO LOBBY", "note": "ON 12/24 AND 12/31, THIS BOX MAY BE COLLECTED AS EARLY AS 12 NOON.", "nsi_id": "unitedstatespostalservice-a77078", "operator": "United States Postal Service", "operator:short": "USPS", "operator:type": "public", "operator:wikidata": "Q668687", "ref": "3081600004"}, "type": "Feature"}
{"geometry": {"coordinates": [-82.476964235, 33.788953968], "type": "Point"}, "id": "9QOMA_qwUFN726bkjt2GFm0ZpuI=", "properties": {"@spider": "usps_collection_boxes", "addr:city": "LINCOLNTON", "addr:country": "US", "addr:full": "182 ELM ST", "addr:postcode": "30817", "addr:state": "GA", "amenity": "post_box", "brand": "United States Postal Service", "brand:wikidata": "Q668687", "collection_times": "Mo-Fr 15:45; Sa 12:00", "name": "USPS COLLECTION BOX - BLUE BOX", "note": "ON 12/24 AND 12/31, THIS BOX MAY BE COLLECTED AS EARLY AS 12 NOON.", "nsi_id": "unitedstatespostalservice-a77078", "operator": "United States Postal Service", "operator:short": "USPS", "operator:type": "public", "operator:wikidata": "Q668687", "ref": "3081700001"}, "type": "Feature"}
{"geometry": {"coordinates": [-82.476964235, 33.788953968], "type": "Point"}, "id": "vloUn5SizMTGlfgHODRBT9Ykt7I=", "properties": {"@spider": "usps_collection_boxes", "addr:city": "LINCOLNTON", "addr:country": "US", "addr:full": "182 ELM ST", "addr:postcode": "30817", "addr:state": "GA", "amenity": "post_box", "brand": "United States Postal Service", "brand:wikidata": "Q668687", "collection_times": "Mo-Fr 15:45; Sa 12:00", "name": "USPS COLLECTION BOX - PO LOBBY", "note": "ON 12/24 AND 12/31, THIS BOX MAY BE COLLECTED AS EARLY AS 12 NOON.", "nsi_id": "unitedstatespostalservice-a77078", "operator": "United States Postal Service", "operator:short": "USPS", "operator:type": "public", "operator:wikidata": "Q668687", "ref": "3081700003"}, "type": "Feature"}
{"geometry": {"coordinates": [-82.476964235, 33.788953968], "type": "Point"}, "id": "g-56VvAeIwSaIGG0xcyH6LF4yhc=", "properties": {"@spider": "usps_collection_boxes", "addr:city": "LINCOLNTON", "addr:country": "US", "addr:full": "182 ELM ST", "addr:postcode": "30817", "addr:state": "GA", "amenity": "post_box", "brand": "United States Postal Service", "brand:wikidata": "Q668687", "collection_times": "Mo-Fr 15:45; Sa 12:00", "name": "USPS COLLECTION BOX - PO LOBBY", "note": "ON 12/24 AND 12/31, THIS BOX MAY BE COLLECTED AS EARLY AS 12 NOON.", "nsi_id": "unitedstatespostalservice-a77078", "operator": "United States Postal Service", "operator:short": "USPS", "operator:type": "public", "operator:wikidata": "Q668687", "ref": "3081700005"}, "type": "Feature"}
{"geometry": {"coordinates": [-82.590191197, 33.459452593], "type": "Point"}, "id": "0s1SZkz87EdRe0H9W6gB5YLfKK0=", "properties": {"@spider": "usps_collection_boxes", "addr:city": "MESENA", "addr:country": "US", "addr:full": "10 E REESE RD", "addr:postcode": "30819", "addr:state": "GA", "amenity": "post_box", "brand": "United States Postal Service", "brand:wikidata": "Q668687", "collection_times": "Mo-Fr 16:15; Sa 11:15", "name": "USPS COLLECTION BOX - BLUE BOX", "note": "ON 12/24 AND 12/31, THIS BOX MAY BE COLLECTED AS EARLY AS 12 NOON.", "nsi_id": "unitedstatespostalservice-a77078", "operator": "United States Postal Service", "operator:short": "USPS", "operator:type": "public", "operator:wikidata": "Q668687", "ref": "3081900001"}, "type": "Feature"}
{"geometry": {"coordinates": [-82.590191197, 33.459452593], "type": "Point"}, "id": "l3vVWLVkSx8IYrVs1KGELzQL4hs=", "properties": {"@spider": "usps_collection_boxes", "addr:city": "MESENA", "addr:country": "US", "addr:full": "10 E REESE RD", "addr:postcode": "30819", "addr:state": "GA", "amenity": "post_box", "brand": "United States Postal Service", "brand:wikidata": "Q668687", "collection_times": "Mo-Fr 16:15; Sa 11:15", "name": "USPS COLLECTION BOX - PO LOBBY", "note": "ON 12/24 AND 12/31, THIS BOX MAY BE COLLECTED AS EARLY AS 12 NOON.", "nsi_id": "unitedstatespostalservice-a77078", "operator": "United States Postal Service", "operator:short": "USPS", "operator:type": "public", "operator:wikidata": "Q668687", "ref": "3081900002"}, "type": "Feature"}
{"geometry": {"coordinates": [-82.590191197, 33.459452593], "type": "Point"}, "id": "FG94vMio95aHzy7kQUr0gADfLpA=", "properties": {"@spider": "usps_collection_boxes", "addr:city": "MESENA", "addr:country": "US", "addr:full": "10 E REESE RD", "addr:postcode": "30819", "addr:state": "GA", "amenity": "post_box", "brand": "United States Postal Service", "brand:wikidata": "Q668687", "collection_times": "Mo-Fr 16:15; Sa 11:15", "name": "USPS COLLECTION BOX - PO LOBBY", "note": "ON 12/24 AND 12/31, THIS BOX MAY BE COLLECTED AS EARLY AS 12 NOON.", "nsi_id": "unitedstatespostalservice-a77078", "operator": "United States Postal Service", "operator:short": "USPS", "operator:type": "public", "operator:wikidata": "Q668687", "ref": "3081900003"}, "type": "Feature"}
{"geometry": {"coordinates": [-82.702785397, 33.220902885], "type": "Point"}, "id": "OjkHW7_jFZRuwgxPlThNfhM0VCg=", "properties": {"@spider": "usps_collection_boxes", "addr:city": "MITCHELL", "addr:country": "US", "addr:full": "6488 GA HIGHWAY 102 W", "addr:postcode": "30820", "addr:state": "GA", "amenity": "post_box", "brand": "United States Postal Service", "brand:wikidata": "Q668687", "collection_times": "Mo-Fr 13:00; Sa 10:30", "name": "USPS COLLECTION BOX - BLUE BOX", "note": "ON 12/24 AND 12/31, THIS BOX MAY BE COLLECTED AS EARLY AS 12 NOON.", "nsi_id": "unitedstatespostalservice-a77078", "operator": "United States Postal Service", "operator:short": "USPS", "operator:type": "public", "operator:wikidata": "Q668687", "ref": "3082000001"}, "type": "Feature"}
{"geometry": {"coordinates": [-82.702785397, 33.220902885], "type": "Point"}, "id": "A0KVCZcVQetc4EUL2t_tp39ioiw=", "properties": {"@spider": "usps_collection_boxes", "addr:city": "MITCHELL", "addr:country": "US", "addr:full": "6488 GA HIGHWAY 102 W", "addr:postcode": "30820", "addr:state": "GA", "amenity": "post_box", "brand": "United States Postal Service", "brand:wikidata": "Q668687", "collection_times": "Mo-Fr 13:00; Sa 10:30", "name": "USPS COLLECTION BOX - PO LOBBY", "note": "ON 12/24 AND 12/31, THIS BOX MAY BE COLLECTED AS EARLY AS 12 NOON.", "nsi_id": "unitedstatespostalservice-a77078", "operator": "United States Postal Service", "operator:short": "USPS", "operator:type": "public", "operator:wikidata": "Q668687", "ref": "3082000002"}, "type": "Feature"}
{"geometry": {"coordinates": [-82.702785397, 33.220902885], "type": "Point"}, "id": "4nFqezwBmOPOmEMF1wfkCESk7-w=", "properties": {"@spider": "usps_collection_boxes", "addr:city": "MITCHELL", "addr:country": "US", "addr:full": "6488 GA HIGHWAY 102 W", "addr:postcode": "30820", "addr:state": "GA", "amenity": "post_box", "brand": "United States Postal Service", "brand:wikidata": "Q668687", "collection_times": "Mo-Fr 13:00; Sa 10:30", "name": "USPS COLLECTION BOX - PO LOBBY", "note": "ON 12/24 AND 12/31, THIS BOX MAY BE COLLECTED AS EARLY AS 12 NOON.", "nsi_id": "unitedstatespostalservice-a77078", "operator": "United States Postal Service", "operator:short": "USPS", "operator:type": "public", "operator:wikidata": "Q668687", "ref": "3082000004"}, "type": "Feature"}
{"geometry": {"coordinates": [-82.705208533, 33.462677308], "type": "Point"}, "id": "yp7DIQA4fEfs9dUn5ydiLQObjjY=", "properties": {"@spider": "usps_collection_boxes", "addr:city": "NORWOOD", "addr:country": "US", "addr:full": "84 MASSENGALE ST", "addr:postcode": "30821", "addr:state": "GA", "amenity": "post_box", "brand": "United States Postal Service", "brand:wikidata": "Q668687", "collection_times": "Mo-Fr 12:00; Sa 11:15", "name": "USPS COLLECTION BOX - BLUE BOX", "nsi_id": "unitedstatespostalservice-a77078", "operator": "United States Postal Service", "operator:short": "USPS", "operator:type": "public", "operator:wikidata": "Q668687", "ref": "3082100001"}, "type": "Feature"}
{"geometry": {"coordinates": [-82.705208533, 33.462677308], "type": "Point"}, "id": "NTY-smFd4fZBfacZAR3Y8c01iZ4=", "properties": {"@spider": "usps_collection_boxes", "addr:city": "NORWOOD", "addr:country": "US", "addr:full": "84 MASSENGALE ST", "addr:postcode": "30821", "addr:state": "GA", "amenity": "post_box", "brand": "United States Postal Service", "brand:wikidata": "Q668687", "collection_times": "Mo-Fr 12:15; Sa 11:15", "name": "USPS COLLECTION BOX - PO LOBBY", "note": "ON 12/24 AND 12/31, THIS BOX MAY BE COLLECTED AS EARLY AS 12 NOON.", "nsi_id": "unitedstatespostalservice-a77078", "operator": "United States Postal Service", "operator:short": "USPS", "operator:type": "public", "operator:wikidata": "Q668687", "ref": "3082100002"}, "type": "Feature"}
{"geometry": {"coordinates": [-82.705208533, 33.462677308], "type": "Point"}, "id": "Amjtv31OHDsWkegavpjysGXhIHw=", "properties": {"@spider": "usps_collection_boxes", "addr:city": "NORWOOD", "addr:country": "US", "addr:full": "84 MASSENGALE ST", "addr:postcode": "30821", "addr:state": "GA", "amenity": "post_box", "brand": "United States Postal Service", "brand:wikidata": "Q668687", "collection_times": "Mo-Fr 12:15; Sa 11:15", "name": "USPS COLLECTION BOX - PO LOBBY", "note": "ON 12/24 AND 12/31, THIS BOX MAY BE COLLECTED AS EARLY AS 12 NOON.", "nsi_id": "unitedstatespostalservice-a77078", "operator": "United States Postal Service", "operator:short": "USPS", "operator:type": "public", "operator:wikidata": "Q668687", "ref": "3082100004"}, "type": "Feature"}
{"geometry": {"coordinates": [-81.951866346, 32.909415039], "type": "Point"}, "id": "6Pa8S43EACM-qzIHXAkrJWCg7pQ=", "properties": {"@spider": "usps_collection_boxes", "addr:city": "PERKINS", "addr:country": "US", "addr:full": "1664 PERKINS GREEN FORK RD", "addr:postcode": "30822", "addr:state": "GA", "amenity": "post_box", "brand": "United States Postal Service", "brand:wikidata": "Q668687", "collection_times": "Mo-Fr 10:30; Sa 11:30", "name": "USPS COLLECTION BOX - BLUE BOX", "nsi_id": "unitedstatespostalservice-a77078", "operator": "United States Postal Service", "operator:short": "USPS", "operator:type": "public", "operator:wikidata": "Q668687", "ref": "3082200001"}, "type": "Feature"}
{"geometry": {"coordinates": [-81.951866346, 32.909415039], "type": "Point"}, "id": "SB4pCmKvbyEHF5J4cfu23jGwKLc=", "properties": {"@spider": "usps_collection_boxes", "addr:city": "PERKINS", "addr:country": "US", "addr:full": "1664 PERKINS GREEN FORK RD", "addr:postcode": "30822", "addr:state": "GA", "amenity": "post_box", "brand": "United States Postal Service", "brand:wikidata": "Q668687", "collection_times": "Mo-Fr 10:30; Sa 11:30", "name": "USPS COLLECTION BOX - PO LOBBY", "nsi_id": "unitedstatespostalservice-a77078", "operator": "United States Postal Service", "operator:short": "USPS", "operator:type": "public", "operator:wikidata": "Q668687", "ref": "3082200002"}, "type": "Feature"}
{"geometry": {"coordinates": [-81.951866346, 32.909415039], "type": "Point"}, "id": "2HZ_vqcUzHVZfdi9BI1CdXsdrQM=", "properties": {"@spider": "usps_collection_boxes", "addr:city": "PERKINS", "addr:country": "US", "addr:full": "1664 PERKINS GREEN FORK RD", "addr:postcode": "30822", "addr:state": "GA", "amenity": "post_box", "brand": "United States Postal Service", "brand:wikidata": "Q668687", "collection_times": "Mo-Fr 10:30; Sa 11:30", "name": "USPS COLLECTION BOX - PO LOBBY", "nsi_id": "unitedstatespostalservice-a77078", "operator": "United States Postal Service", "operator:short": "USPS", "operator:type": "public", "operator:wikidata": "Q668687", "ref": "3082200003"}, "type": "Feature"}
{"geometry": {"coordinates": [-82.468136974, 33.215749657], "type": "Point"}, "id": "rC4lMul0PCnN8gfD8Wiuku9M4XE=", "properties": {"@spider": "usps_collection_boxes", "addr:city": "STAPLETON", "addr:country": "US", "addr:full": "135 E MAIN ST", "addr:postcode": "30823", "addr:state": "GA", "amenity": "post_box", "brand": "United States Postal Service", "brand:wikidata": "Q668687", "collection_times": "Mo-Fr 12:00; Sa 11:15", "name": "USPS COLLECTION BOX - BLUE BOX", "nsi_id": "unitedstatespostalservice-a77078", "operator": "United States Postal Service", "operator:short": "USPS", "operator:type": "public", "operator:wikidata": "Q668687", "ref": "3082300001"}, "type": "Feature"}
{"geometry": {"coordinates": [-82.468136974, 33.215749657], "type": "Point"}, "id": "r678ZOv0iKesunfcyHLXOrMOHM8=", "properties": {"@spider": "usps_collection_boxes", "addr:city": "STAPLETON", "addr:country": "US", "addr:full": "135 E MAIN ST", "addr:postcode": "30823", "addr:state": "GA", "amenity": "post_box", "brand": "United States Postal Service", "brand:wikidata": "Q668687", "collection_times": "Mo-Fr 12:00; Sa 11:15", "name": "USPS COLLECTION BOX - PO LOBBY", "nsi_id": "unitedstatespostalservice-a77078", "operator": "United States Postal Service", "operator:short": "USPS", "operator:type": "public", "operator:wikidata": "Q668687", "ref": "3082300002"}, "type": "Feature"}
{"geometry": {"coordinates": [-82.468136974, 33.215749657], "type": "Point"}, "id": "hC2s7vm44bJDGg5B-T_qn6cwTf0=", "properties": {"@spider": "usps_collection_boxes", "addr:city": "STAPLETON", "addr:country": "US", "addr:full": "135 E MAIN ST", "addr:postcode": "30823", "addr:state": "GA", "amenity": "post_box", "brand": "United States Postal Service", "brand:wikidata": "Q668687", "collection_times": "Mo-Fr 12:00; Sa 11:15", "name": "USPS COLLECTION BOX - PO LOBBY", "nsi_id": "unitedstatespostalservice-a77078", "operator": "United States Postal Service", "operator:short": "USPS", "operator:type": "public", "operator:wikidata": "Q668687", "ref": "3082300004"}, "type": "Feature"}
{"geometry": {"coordinates": [-82.501100733, 33.464086472], "type": "Point"}, "id": "_S8Z5gsWgWWz8iN2LBgKK6h0ADI=", "properties": {"@spider": "usps_collection_boxes", "addr:city": "THOMSON", "addr:country": "US", "addr:full": "223 JACKSON ST", "addr:postcode": "30824", "addr:state": "GA", "amenity": "post_box", "brand": "United States Postal Service", "brand:wikidata": "Q668687", "collection_times": "Mo-Fr 17:00; Sa 15:00", "name": "USPS COLLECTION BOX - BLUE BOX", "note": "ON 12/24 AND 12/31, THIS BOX MAY BE COLLECTED AS EARLY AS 12 NOON.", "nsi_id": "unitedstatespostalservice-a77078", "operator": "United States Postal Service", "operator:short": "USPS", "operator:type": "public", "operator:wikidata": "Q668687", "ref": "3082400002"}, "type": "Feature"}
{"geometry": {"coordinates": [-82.501100733, 33.464086472], "type": "Point"}, "id": "zcrygyds8rl5GnQWXVFwJj6OKNA=", "properties": {"@spider": "usps_collection_boxes", "addr:city": "THOMSON", "addr:country": "US", "addr:full": "223 JACKSON ST", "addr:postcode": "30824", "addr:state": "GA", "amenity": "post_box", "brand": "United States Postal Service", "brand:wikidata": "Q668687", "collection_times": "Mo-Fr 17:00; Sa 15:00", "name": "USPS COLLECTION BOX - PO LOBBY", "note": "ON 12/24 AND 12/31, THIS BOX MAY BE COLLECTED AS EARLY AS 12 NOON.", "nsi_id": "unitedstatespostalservice-a77078", "operator": "United States Postal Service", "operator:short": "USPS", "operator:type": "public", "operator:wikidata": "Q668687", "ref": "3082400007"}, "type": "Feature"}
{"geometry": {"coordinates": [-82.501100733, 33.464086472], "type": "Point"}, "id": "-qlWMDeGPNIrErU-mCbMSLJllJQ=", "properties": {"@spider": "usps_collection_boxes", "addr:city": "THOMSON", "addr:country": "US", "addr:full": "223 JACKSON ST", "addr:postcode": "30824", "addr:state": "GA", "amenity": "post_box", "brand": "United States Postal Service", "brand:wikidata": "Q668687", "collection_times": "Mo-Fr 17:00; Sa 15:00", "name": "USPS COLLECTION BOX - PO LOBBY", "note": "ON 12/24 AND 12/31, THIS BOX MAY BE COLLECTED AS EARLY AS 12 NOON.", "nsi_id": "unitedstatespostalservice-a77078", "operator": "United States Postal Service", "operator:short": "USPS", "operator:type": "public", "operator:wikidata": "Q668687", "ref": "3082400018"}, "type": "Feature"}
{"geometry": {"coordinates": [-82.66405072, 33.406914554], "type": "Point"}, "id": "uAGt5sqgDDj1hnyjMblyATxSbDY=", "properties": {"@spider": "usps_collection_boxes", "addr:city": "WARRENTON", "addr:country": "US", "addr:full": "615 MAIN ST", "addr:postcode": "30828", "addr:state": "GA", "amenity": "post_box", "brand": "United States Postal Service", "brand:wikidata": "Q668687", "collection_times": "Mo-Fr 16:00; Sa 12:00", "name": "USPS COLLECTION BOX - BLUE BOX", "note": "ON 12/24 AND 12/31, THIS BOX MAY BE COLLECTED AS EARLY AS 12 NOON.", "nsi_id": "unitedstatespostalservice-a77078", "operator": "United States Postal Service", "operator:short": "USPS", "operator:type": "public", "operator:wikidata": "Q668687", "ref": "3082800002"}, "type": "Feature"}
{"geometry": {"coordinates": [-82.66405072, 33.406914554], "type": "Point"}, "id": "zUNGDnGYOB9NinIz3ZdRSk91msE=", "properties": {"@spider": "usps_collection_boxes", "addr:city": "WARRENTON", "addr:country": "US", "addr:full": "615 MAIN ST", "addr:postcode": "30828", "addr:state": "GA", "amenity": "post_box", "brand": "United States Postal Service", "brand:wikidata": "Q668687", "collection_times": "Mo-Fr 16:00; Sa 12:00", "name": "USPS COLLECTION BOX - PO LOBBY", "note": "ON 12/24 AND 12/31, THIS BOX MAY BE COLLECTED AS EARLY AS 12 NOON.", "nsi_id": "unitedstatespostalservice-a77078", "operator": "United States Postal Service", "operator:short": "USPS", "operator:type": "public", "operator:wikidata": "Q668687", "ref": "3082800005"}, "type": "Feature"}
{"geometry": {"coordinates": [-82.66405072, 33.406914554], "type": "Point"}, "id": "FEjopfWXEpRpTf7PKuIc3XbuFPo=", "properties": {"@spider": "usps_collection_boxes", "addr:city": "WARRENTON", "addr:country": "US", "addr:full": "615 MAIN ST", "addr:postcode": "30828", "addr:state": "GA", "amenity": "post_box", "brand": "United States Postal Service", "brand:wikidata": "Q668687", "collection_times": "Mo-Fr 16:00; Sa 12:00", "name": "USPS COLLECTION BOX - PO LOBBY", "note": "ON 12/24 AND 12/31, THIS BOX MAY BE COLLECTED AS EARLY AS 12 NOON.", "nsi_id": "unitedstatespostalservice-a77078", "operator": "United States Postal Service", "operator:short": "USPS", "operator:type": "public", "operator:wikidata": "Q668687", "ref": "3082800008"}, "type": "Feature"}
{"geometry": {"coordinates": [-82.013049154, 33.091318857], "type": "Point"}, "id": "76qGzcOrHl3xokr7iWUabBTBfn4=", "properties": {"@spider": "usps_collection_boxes", "addr:city": "WAYNESBORO", "addr:country": "US", "addr:full": "240 E 6TH ST", "addr:postcode": "30830", "addr:state": "GA", "amenity": "post_box", "brand": "United States Postal Service", "brand:wikidata": "Q668687", "collection_times": "Mo-Fr 17:00; Sa 12:00", "name": "USPS COLLECTION BOX - BLUE BOX", "note": "ON 12/24 AND 12/31, THIS BOX MAY BE COLLECTED AS EARLY AS 12 NOON.", "nsi_id": "unitedstatespostalservice-a77078", "operator": "United States Postal Service", "operator:short": "USPS", "operator:type": "public", "operator:wikidata": "Q668687", "ref": "3083000012"}, "type": "Feature"}
{"geometry": {"coordinates": [-82.011955692, 33.08385043], "type": "Point"}, "id": "-CUfy7DH_cBfh48I5W8_3bkBpSU=", "properties": {"@spider": "usps_collection_boxes", "addr:city": "WAYNESBORO", "addr:country": "US", "addr:full": "351 S LIBERTY ST", "addr:postcode": "30830", "addr:state": "GA", "amenity": "post_box", "brand": "United States Postal Service", "brand:wikidata": "Q668687", "collection_times": "Mo-Sa 12:00", "name": "USPS COLLECTION BOX - BLUE BOX", "nsi_id": "unitedstatespostalservice-a77078", "operator": "United States Postal Service", "operator:short": "USPS", "operator:type": "public", "operator:wikidata": "Q668687", "ref": "3083000020"}, "type": "Feature"}
{"geometry": {"coordinates": [-82.016189017, 33.090550836], "type": "Point"}, "id": "rfJsanAP3Ty_qh2Ke6E3lgM3OU4=", "properties": {"@spider": "usps_collection_boxes", "addr:city": "WAYNESBORO", "addr:country": "US", "addr:full": "618 N LIBERTY ST", "addr:postcode": "30830", "addr:state": "GA", "amenity": "post_box", "brand": "United States Postal Service", "brand:wikidata": "Q668687", "collection_times": "Mo-Sa 12:00", "name": "USPS COLLECTION BOX - BLUE BOX", "nsi_id": "unitedstatespostalservice-a77078", "operator": "United States Postal Service", "operator:short": "USPS", "operator:type": "public", "operator:wikidata": "Q668687", "ref": "3083000022"}, "type": "Feature"}
{"geometry": {"coordinates": [-82.013049154, 33.091318857], "type": "Point"}, "id": "hVD56DWeuvTqlTpR9UjfqAQt0_g=", "properties": {"@spider": "usps_collection_boxes", "addr:city": "WAYNESBORO", "addr:country": "US", "addr:full": "240 E 6TH ST", "addr:postcode": "30830", "addr:state": "GA", "amenity": "post_box", "brand": "United States Postal Service", "brand:wikidata": "Q668687", "collection_times": "Mo-Fr 17:00; Sa 12:00", "name": "USPS COLLECTION BOX - PO LOBBY", "note": "ON 12/24 AND 12/31, THIS BOX MAY BE COLLECTED AS EARLY AS 12 NOON.", "nsi_id": "unitedstatespostalservice-a77078", "operator": "United States Postal Service", "operator:short": "USPS", "operator:type": "public", "operator:wikidata": "Q668687", "ref": "3083000024"}, "type": "Feature"}
{"geometry": {"coordinates": [-82.013049154, 33.091318857], "type": "Point"}, "id": "lVPV0RwEfgVhCJLohDIx-IxLl0c=", "properties": {"@spider": "usps_collection_boxes", "addr:city": "WAYNESBORO", "addr:country": "US", "addr:full": "240 E 6TH ST", "addr:postcode": "30830", "addr:state": "GA", "amenity": "post_box", "brand": "United States Postal Service", "brand:wikidata": "Q668687", "collection_times": "Mo-Fr 17:00; Sa 12:00", "name": "USPS COLLECTION BOX - PO LOBBY", "note": "ON 12/24 AND 12/31, THIS BOX MAY BE COLLECTED AS EARLY AS 12 NOON.", "nsi_id": "unitedstatespostalservice-a77078", "operator": "United States Postal Service", "operator:short": "USPS", "operator:type": "public", "operator:wikidata": "Q668687", "ref": "3083000028"}, "type": "Feature"}
{"geometry": {"coordinates": [-82.386884506, 33.20863113], "type": "Point"}, "id": "h84NMXwACsk7JJFndRqYreWeR4Y=", "properties": {"@spider": "usps_collection_boxes", "addr:city": "WRENS", "addr:country": "US", "addr:full": "101 ESTELLE ST", "addr:postcode": "30833", "addr:state": "GA", "amenity": "post_box", "brand": "United States Postal Service", "brand:wikidata": "Q668687", "collection_times": "Mo-Fr 17:00; Sa 12:30", "name": "USPS COLLECTION BOX - BLUE BOX", "note": "ON 12/24 AND 12/31, THIS BOX MAY BE COLLECTED AS EARLY AS 12 NOON.", "nsi_id": "unitedstatespostalservice-a77078", "operator": "United States Postal Service", "operator:short": "USPS", "operator:type": "public", "operator:wikidata": "Q668687", "ref": "3083300001"}, "type": "Feature"}
{"geometry": {"coordinates": [-82.386884506, 33.20863113], "type": "Point"}, "id": "SLdmXUoxvcqr6JGdgHt5hZ06-C8=", "properties": {"@spider": "usps_collection_boxes", "addr:city": "WRENS", "addr:country": "US", "addr:full": "101 ESTELLE ST", "addr:postcode": "30833", "addr:state": "GA", "amenity": "post_box", "brand": "United States Postal Service", "brand:wikidata": "Q668687", "collection_times": "Mo-Fr 17:00; Sa 12:30", "name": "USPS COLLECTION BOX - PO LOBBY", "note": "ON 12/24 AND 12/31, THIS BOX MAY BE COLLECTED AS EARLY AS 12 NOON.", "nsi_id": "unitedstatespostalservice-a77078", "operator": "United States Postal Service", "operator:short": "USPS", "operator:type": "public", "operator:wikidata": "Q668687", "ref": "3083300002"}, "type": "Feature"}
{"geometry": {"coordinates": [-82.386884506, 33.20863113], "type": "Point"}, "id": "PG9MwEdAEl-GqEie8GowN_3w1Y0=", "properties": {"@spider": "usps_collection_boxes", "addr:city": "WRENS", "addr:country": "US", "addr:full": "101 ESTELLE ST", "addr:postcode": "30833", "addr:state": "GA", "amenity": "post_box", "brand": "United States Postal Service", "brand:wikidata": "Q668687", "collection_times": "Mo-Fr 17:00; Sa 12:30", "name": "USPS COLLECTION BOX - PO LOBBY", "note": "ON 12/24 AND 12/31, THIS BOX MAY BE COLLECTED AS EARLY AS 12 NOON.", "nsi_id": "unitedstatespostalservice-a77078", "operator": "United States Postal Service", "operator:short": "USPS", "operator:type": "public", "operator:wikidata": "Q668687", "ref": "3083300005"}, "type": "Feature"}
