{"geometry": {"coordinates": [-81.967709092, 33.470778685], "type": "Point"}, "id": "LLBu94beSuu1vnHVOBseLo5NeXw=", "properties": {"@source_uri": "https://tools.usps.com/UspsToolsRestServices/rest/POLocator/findLocations", "@spider": "usps_collection_boxes", "addr:city": "AUGUSTA", "addr:country": "US", "addr:postcode": "30901", "addr:state": "GA", "addr:street_address": "525 8TH ST", "amenity": "post_box", "collection_times": "Mo-Fr 17:30; Sa 17:00", "note": "ON 12/24 AND 12/31, THIS BOX MAY BE COLLECTED AS EARLY AS 12 NOON.", "nsi_id": "unitedstatespostalservice-a77078", "operator": "United States Postal Service", "operator:short": "USPS", "operator:type": "public", "operator:wikidata": "Q668687", "ref": "3090100001"}, "type": "Feature"}
{"geometry": {"coordinates": [-81.989114131, 33.473679127], "type": "Point"}, "id": "pABebZJ4EzZ2nffOsOIgacHXHgk=", "properties": {"@source_uri": "https://tools.usps.com/UspsToolsRestServices/rest/POLocator/findLocations", "@spider": "usps_collection_boxes", "addr:city": "AUGUSTA", "addr:country": "US", "addr:postcode": "30901", "addr:state": "GA", "addr:street_address": "909 15TH ST", "amenity": "post_box", "collection_times": "Mo-Fr 13:00", "note": "ON 12/24 AND 12/31, THIS BOX MAY BE COLLECTED AS EARLY AS 12 NOON.", "nsi_id": "unitedstatespostalservice-a77078", "operator": "United States Postal Service", "operator:short": "USPS", "operator:type": "public", "operator:wikidata": "Q668687", "ref": "3090100009"}, "type": "Feature"}
{"geometry": {"coordinates": [-81.980425, 33.462595], "type": "Point"}, "id": "flzs-rrijgQRje1fi9gXBraXmHw=", "properties": {"@source_uri": "https://tools.usps.com/UspsToolsRestServices/rest/POLocator/findLocations", "@spider": "usps_collection_boxes", "addr:city": "AUGUSTA", "addr:country": "US", "addr:postcode": "30901", "addr:state": "GA", "addr:street_address": "901 BROAD ST", "amenity": "post_box", "collection_times": "Mo-Fr 16:45", "note": "ON 12/24 AND 12/31, THIS BOX MAY BE COLLECTED AS EARLY AS 12 NOON.", "nsi_id": "unitedstatespostalservice-a77078", "operator": "United States Postal Service", "operator:short": "USPS", "operator:type": "public", "operator:wikidata": "Q668687", "ref": "3090100011"}, "type": "Feature"}
{"geometry": {"coordinates": [-81.980425, 33.462595], "type": "Point"}, "id": "ymNhIMYEp9jIYe9LmVGpnPpZWtk=", "properties": {"@source_uri": "https://tools.usps.com/UspsToolsRestServices/rest/POLocator/findLocations", "@spider": "usps_collection_boxes", "addr:city": "AUGUSTA", "addr:country": "US", "addr:postcode": "30901", "addr:state": "GA", "addr:street_address": "985 BROAD ST", "amenity": "post_box", "collection_times": "Mo-Fr 17:00", "note": "ON 12/24 AND 12/31, THIS BOX MAY BE COLLECTED AS EARLY AS 12 NOON.", "nsi_id": "unitedstatespostalservice-a77078", "operator": "United States Postal Service", "operator:short": "USPS", "operator:type": "public", "operator:wikidata": "Q668687", "ref": "3090100025"}, "type": "Feature"}
{"geometry": {"coordinates": [-81.978490117, 33.465408054], "type": "Point"}, "id": "JGI8u8W2IbL3v39ZIbzxCRp5Ilk=", "properties": {"@source_uri": "https://tools.usps.com/UspsToolsRestServices/rest/POLocator/findLocations", "@spider": "usps_collection_boxes", "addr:city": "AUGUSTA", "addr:country": "US", "addr:postcode": "30901", "addr:state": "GA", "addr:street_address": "1143 LANEY WALKER BLVD", "amenity": "post_box", "collection_times": "Mo-Fr 14:30", "note": "ON 12/24 AND 12/31, THIS BOX MAY BE COLLECTED AS EARLY AS 12 NOON.", "nsi_id": "unitedstatespostalservice-a77078", "operator": "United States Postal Service", "operator:short": "USPS", "operator:type": "public", "operator:wikidata": "Q668687", "ref": "3090100049"}, "type": "Feature"}
{"geometry": {"coordinates": [-81.980425, 33.462595], "type": "Point"}, "id": "rVPmMfV4Kdt_IAdMdShFRIek_uE=", "properties": {"@source_uri": "https://tools.usps.com/UspsToolsRestServices/rest/POLocator/findLocations", "@spider": "usps_collection_boxes", "addr:city": "AUGUSTA", "addr:country": "US", "addr:postcode": "30901", "addr:state": "GA", "addr:street_address": "501 GREENE ST", "amenity": "post_box", "collection_times": "Mo-Fr 16:30", "note": "ON 12/24 AND 12/31, THIS BOX MAY BE COLLECTED AS EARLY AS 12 NOON.", "nsi_id": "unitedstatespostalservice-a77078", "operator": "United States Postal Service", "operator:short": "USPS", "operator:type": "public", "operator:wikidata": "Q668687", "ref": "3090100067"}, "type": "Feature"}
{"geometry": {"coordinates": [-81.9629672, 33.467402943], "type": "Point"}, "id": "bYyayhY0YyEkKOev06KZjr6WIUY=", "properties": {"@source_uri": "https://tools.usps.com/UspsToolsRestServices/rest/POLocator/findLocations", "@spider": "usps_collection_boxes", "addr:city": "AUGUSTA", "addr:country": "US", "addr:postcode": "30901", "addr:state": "GA", "addr:street_address": "520 FENWICK ST", "amenity": "post_box", "collection_times": "Mo-Fr 16:15", "note": "ON 12/24 AND 12/31, THIS BOX MAY BE COLLECTED AS EARLY AS 12 NOON.", "nsi_id": "unitedstatespostalservice-a77078", "operator": "United States Postal Service", "operator:short": "USPS", "operator:type": "public", "operator:wikidata": "Q668687", "ref": "3090100088"}, "type": "Feature"}
{"geometry": {"coordinates": [-81.984588411, 33.470396436], "type": "Point"}, "id": "MSTOWfeLv_M43jdTqAb9eo9nQVA=", "properties": {"@source_uri": "https://tools.usps.com/UspsToolsRestServices/rest/POLocator/findLocations", "@spider": "usps_collection_boxes", "addr:city": "AUGUSTA", "addr:country": "US", "addr:postcode": "30901", "addr:state": "GA", "addr:street_address": "1430 HARPER ST", "amenity": "post_box", "collection_times": "Mo-Fr 13:00", "note": "ON 12/24 AND 12/31, THIS BOX MAY BE COLLECTED AS EARLY AS 12 NOON.", "nsi_id": "unitedstatespostalservice-a77078", "operator": "United States Postal Service", "operator:short": "USPS", "operator:type": "public", "operator:wikidata": "Q668687", "ref": "3090100091"}, "type": "Feature"}
{"geometry": {"coordinates": [-81.980425, 33.462595], "type": "Point"}, "id": "0yDfNEckx65MyO_h-uar10s7UeA=", "properties": {"@source_uri": "https://tools.usps.com/UspsToolsRestServices/rest/POLocator/findLocations", "@spider": "usps_collection_boxes", "addr:city": "AUGUSTA", "addr:country": "US", "addr:postcode": "30901", "addr:state": "GA", "addr:street_address": "818 SAINT SEBASTIAN WAY", "amenity": "post_box", "collection_times": "Mo-Fr 15:00", "note": "ON 12/24 AND 12/31, THIS BOX MAY BE COLLECTED AS EARLY AS 12 NOON.", "nsi_id": "unitedstatespostalservice-a77078", "operator": "United States Postal Service", "operator:short": "USPS", "operator:type": "public", "operator:wikidata": "Q668687", "ref": "3090100093"}, "type": "Feature"}
{"geometry": {"coordinates": [-81.978769583, 33.471650974], "type": "Point"}, "id": "O-Mk9gZ_DUCWSE5FaYsBkJ3E1BM=", "properties": {"@source_uri": "https://tools.usps.com/UspsToolsRestServices/rest/POLocator/findLocations", "@spider": "usps_collection_boxes", "addr:city": "AUGUSTA", "addr:country": "US", "addr:postcode": "30901", "addr:state": "GA", "addr:street_address": "811 13TH ST", "amenity": "post_box", "collection_times": "Mo-Fr 15:00", "note": "ON 12/24 AND 12/31, THIS BOX MAY BE COLLECTED AS EARLY AS 12 NOON.", "nsi_id": "unitedstatespostalservice-a77078", "operator": "United States Postal Service", "operator:short": "USPS", "operator:type": "public", "operator:wikidata": "Q668687", "ref": "3090100095"}, "type": "Feature"}
{"geometry": {"coordinates": [-81.979239302, 33.46995308], "type": "Point"}, "id": "eJ7J79vMJMERrvAe4YYsgWuQfeA=", "properties": {"@source_uri": "https://tools.usps.com/UspsToolsRestServices/rest/POLocator/findLocations", "@spider": "usps_collection_boxes", "addr:city": "AUGUSTA", "addr:country": "US", "addr:postcode": "30901", "addr:state": "GA", "addr:street_address": "1303 DANTIGNAC ST", "amenity": "post_box", "collection_times": "Mo-Fr 15:00", "note": "ON 12/24 AND 12/31, THIS BOX MAY BE COLLECTED AS EARLY AS 12 NOON.", "nsi_id": "unitedstatespostalservice-a77078", "operator": "United States Postal Service", "operator:short": "USPS", "operator:type": "public", "operator:wikidata": "Q668687", "ref": "3090100096"}, "type": "Feature"}
{"geometry": {"coordinates": [-81.962632236, 33.472174481], "type": "Point"}, "id": "G1bIdG3aeHFGy8qGbaX4dPCQz9Q=", "properties": {"@source_uri": "https://tools.usps.com/UspsToolsRestServices/rest/POLocator/findLocations", "@spider": "usps_collection_boxes", "addr:city": "AUGUSTA", "addr:country": "US", "addr:postcode": "30901", "addr:state": "GA", "addr:street_address": "601 GREENE ST", "amenity": "post_box", "collection_times": "Mo-Fr 16:30", "note": "ON 12/24 AND 12/31, THIS BOX MAY BE COLLECTED AS EARLY AS 12 NOON.", "nsi_id": "unitedstatespostalservice-a77078", "operator": "United States Postal Service", "operator:short": "USPS", "operator:type": "public", "operator:wikidata": "Q668687", "ref": "3090100104"}, "type": "Feature"}
{"geometry": {"coordinates": [-81.967709092, 33.470778685], "type": "Point"}, "id": "u2GoGXlme5u-ToYeCoE8Ijr4V3M=", "properties": {"@source_uri": "https://tools.usps.com/UspsToolsRestServices/rest/POLocator/findLocations", "@spider": "usps_collection_boxes", "addr:city": "AUGUSTA", "addr:country": "US", "addr:postcode": "30901", "addr:state": "GA", "addr:street_address": "525 8TH ST", "amenity": "post_box", "collection_times": "Mo-Sa 17:00", "indoor": "yes", "note": "ON 12/24 AND 12/31, THIS BOX MAY BE COLLECTED AS EARLY AS 12 NOON.", "nsi_id": "unitedstatespostalservice-a77078", "operator": "United States Postal Service", "operator:short": "USPS", "operator:type": "public", "operator:wikidata": "Q668687", "ref": "3090100111"}, "type": "Feature"}
{"geometry": {"coordinates": [-81.982141879, 33.478422303], "type": "Point"}, "id": "3rZnCJnvCzDH594WUy2j08ASiZg=", "properties": {"@source_uri": "https://tools.usps.com/UspsToolsRestServices/rest/POLocator/findLocations", "@spider": "usps_collection_boxes", "addr:city": "AUGUSTA", "addr:country": "US", "addr:postcode": "30901", "addr:state": "GA", "addr:street_address": "1450 GREENE ST", "amenity": "post_box", "collection_times": "Mo-Fr 17:15", "note": "ON 12/24 AND 12/31, THIS BOX MAY BE COLLECTED AS EARLY AS 12 NOON.", "nsi_id": "unitedstatespostalservice-a77078", "operator": "United States Postal Service", "operator:short": "USPS", "operator:type": "public", "operator:wikidata": "Q668687", "ref": "3090100117"}, "type": "Feature"}
{"geometry": {"coordinates": [-81.980425, 33.462595], "type": "Point"}, "id": "7W3aJJWF4bLTahDQmW3xhSoeS7c=", "properties": {"@source_uri": "https://tools.usps.com/UspsToolsRestServices/rest/POLocator/findLocations", "@spider": "usps_collection_boxes", "addr:city": "AUGUSTA", "addr:country": "US", "addr:postcode": "30901", "addr:state": "GA", "addr:street_address": "699 BROAD ST", "amenity": "post_box", "collection_times": "Mo-Fr 16:30", "note": "ON 12/24 AND 12/31, THIS BOX MAY BE COLLECTED AS EARLY AS 12 NOON.", "nsi_id": "unitedstatespostalservice-a77078", "operator": "United States Postal Service", "operator:short": "USPS", "operator:type": "public", "operator:wikidata": "Q668687", "ref": "3090100119"}, "type": "Feature"}
{"geometry": {"coordinates": [-81.968496503, 33.478804085], "type": "Point"}, "id": "EYsWfhKHhBQQXi-Z6DV4LhbjLb4=", "properties": {"@source_uri": "https://tools.usps.com/UspsToolsRestServices/rest/POLocator/findLocations", "@spider": "usps_collection_boxes", "addr:city": "AUGUSTA", "addr:country": "US", "addr:postcode": "30901", "addr:state": "GA", "addr:street_address": "1 10TH ST", "amenity": "post_box", "collection_times": "Mo-Fr 17:00", "note": "ON 12/24 AND 12/31, THIS BOX MAY BE COLLECTED AS EARLY AS 12 NOON.", "nsi_id": "unitedstatespostalservice-a77078", "operator": "United States Postal Service", "operator:short": "USPS", "operator:type": "public", "operator:wikidata": "Q668687", "ref": "3090100123"}, "type": "Feature"}
{"geometry": {"coordinates": [-81.967709092, 33.470778685], "type": "Point"}, "id": "JmgML6S43fSWgpzxAG7DjkzBMjM=", "properties": {"@source_uri": "https://tools.usps.com/UspsToolsRestServices/rest/POLocator/findLocations", "@spider": "usps_collection_boxes", "addr:city": "AUGUSTA", "addr:country": "US", "addr:postcode": "30901", "addr:state": "GA", "addr:street_address": "525 8TH ST", "amenity": "post_box", "collection_times": "Mo-Fr 17:00", "indoor": "yes", "note": "ON 12/24 AND 12/31, THIS BOX MAY BE COLLECTED AS EARLY AS 12 NOON.", "nsi_id": "unitedstatespostalservice-a77078", "operator": "United States Postal Service", "operator:short": "USPS", "operator:type": "public", "operator:wikidata": "Q668687", "ref": "3090100126"}, "type": "Feature"}
{"geometry": {"coordinates": [-82.02529291, 33.468392527], "type": "Point"}, "id": "KJDYw2OoiHnmMlWepaB9wnrocC0=", "properties": {"@source_uri": "https://tools.usps.com/UspsToolsRestServices/rest/POLocator/findLocations", "@spider": "usps_collection_boxes", "addr:city": "AUGUSTA", "addr:country": "US", "addr:postcode": "30904", "addr:state": "GA", "addr:street_address": "1 FREEDOM WAY", "amenity": "post_box", "collection_times": "Mo-Fr 14:30", "note": "ON 12/24 AND 12/31, THIS BOX MAY BE COLLECTED AS EARLY AS 12 NOON.", "nsi_id": "unitedstatespostalservice-a77078", "operator": "United States Postal Service", "operator:short": "USPS", "operator:type": "public", "operator:wikidata": "Q668687", "ref": "3090400005"}, "type": "Feature"}
{"geometry": {"coordinates": [-82.017194221, 33.467575539], "type": "Point"}, "id": "wUqEHmMkR7eJsGg5SPLR0zlPq2I=", "properties": {"@source_uri": "https://tools.usps.com/UspsToolsRestServices/rest/POLocator/findLocations", "@spider": "usps_collection_boxes", "addr:city": "AUGUSTA", "addr:country": "US", "addr:postcode": "30904", "addr:state": "GA", "addr:street_address": "2260 WRIGHTSBORO RD", "amenity": "post_box", "collection_times": "Mo-Fr 13:00", "note": "ON 12/24 AND 12/31, THIS BOX MAY BE COLLECTED AS EARLY AS 12 NOON.", "nsi_id": "unitedstatespostalservice-a77078", "operator": "United States Postal Service", "operator:short": "USPS", "operator:type": "public", "operator:wikidata": "Q668687", "ref": "3090400008"}, "type": "Feature"}
{"geometry": {"coordinates": [-81.999191057, 33.478871783], "type": "Point"}, "id": "pkpwkdRQeg_She-XFSj_nxYtgOQ=", "properties": {"@source_uri": "https://tools.usps.com/UspsToolsRestServices/rest/POLocator/findLocations", "@spider": "usps_collection_boxes", "addr:city": "AUGUSTA", "addr:country": "US", "addr:postcode": "30904", "addr:state": "GA", "addr:street_address": "705 EVE ST", "amenity": "post_box", "collection_times": "Mo-Fr 13:00", "note": "ON 12/24 AND 12/31, THIS BOX MAY BE COLLECTED AS EARLY AS 12 NOON.", "nsi_id": "unitedstatespostalservice-a77078", "operator": "United States Postal Service", "operator:short": "USPS", "operator:type": "public", "operator:wikidata": "Q668687", "ref": "3090400026"}, "type": "Feature"}
{"geometry": {"coordinates": [-82.006028163, 33.488525335], "type": "Point"}, "id": "M7jX6AgciryjRDCTft4BKBMUmZ8=", "properties": {"@source_uri": "https://tools.usps.com/UspsToolsRestServices/rest/POLocator/findLocations", "@spider": "usps_collection_boxes", "addr:city": "AUGUSTA", "addr:country": "US", "addr:postcode": "30904", "addr:state": "GA", "addr:street_address": "207 MILLEDGE RD", "amenity": "post_box", "collection_times": "Mo-Fr 14:00", "note": "ON 12/24 AND 12/31, THIS BOX MAY BE COLLECTED AS EARLY AS 12 NOON.", "nsi_id": "unitedstatespostalservice-a77078", "operator": "United States Postal Service", "operator:short": "USPS", "operator:type": "public", "operator:wikidata": "Q668687", "ref": "3090400032"}, "type": "Feature"}
{"geometry": {"coordinates": [-82.020706294, 33.50747343], "type": "Point"}, "id": "mFZCd4c0vi3sTe7l07hOIhoNZQ4=", "properties": {"@source_uri": "https://tools.usps.com/UspsToolsRestServices/rest/POLocator/findLocations", "@spider": "usps_collection_boxes", "addr:city": "AUGUSTA", "addr:country": "US", "addr:postcode": "30904", "addr:state": "GA", "addr:street_address": "2623 WASHINGTON RD", "amenity": "post_box", "collection_times": "Mo-Fr 09:00", "nsi_id": "unitedstatespostalservice-a77078", "operator": "United States Postal Service", "operator:short": "USPS", "operator:type": "public", "operator:wikidata": "Q668687", "ref": "3090400034"}, "type": "Feature"}
{"geometry": {"coordinates": [-82.023802867, 33.478317563], "type": "Point"}, "id": "LXpKX0Ilg44kRHOYyRZu83C1e9k=", "properties": {"@source_uri": "https://tools.usps.com/UspsToolsRestServices/rest/POLocator/findLocations", "@spider": "usps_collection_boxes", "addr:city": "AUGUSTA", "addr:country": "US", "addr:postcode": "30904", "addr:state": "GA", "addr:street_address": "2500 WALTON WAY", "amenity": "post_box", "collection_times": "Mo-Fr 10:00", "nsi_id": "unitedstatespostalservice-a77078", "operator": "United States Postal Service", "operator:short": "USPS", "operator:type": "public", "operator:wikidata": "Q668687", "ref": "3090400045"}, "type": "Feature"}
{"geometry": {"coordinates": [-81.996735, 33.478575], "type": "Point"}, "id": "ULA5SsS4Iepvq9tpWdRB8wcAt6k=", "properties": {"@source_uri": "https://tools.usps.com/UspsToolsRestServices/rest/POLocator/findLocations", "@spider": "usps_collection_boxes", "addr:city": "AUGUSTA", "addr:country": "US", "addr:postcode": "30904", "addr:state": "GA", "addr:street_address": "1434 STOVALL ST", "amenity": "post_box", "collection_times": "Mo-Fr 16:30", "indoor": "yes", "note": "ON 12/24 AND 12/31, THIS BOX MAY BE COLLECTED AS EARLY AS 12 NOON.", "nsi_id": "unitedstatespostalservice-a77078", "operator": "United States Postal Service", "operator:short": "USPS", "operator:type": "public", "operator:wikidata": "Q668687", "ref": "3090400056"}, "type": "Feature"}
{"geometry": {"coordinates": [-82.014608348, 33.471026906], "type": "Point"}, "id": "X1RMVrPq-xKmlD7Y8sGyieGc0yM=", "properties": {"@source_uri": "https://tools.usps.com/UspsToolsRestServices/rest/POLocator/findLocations", "@spider": "usps_collection_boxes", "addr:city": "AUGUSTA", "addr:country": "US", "addr:postcode": "30904", "addr:state": "GA", "addr:street_address": "1125 TROUPE ST", "amenity": "post_box", "collection_times": "Mo-Fr 12:00", "nsi_id": "unitedstatespostalservice-a77078", "operator": "United States Postal Service", "operator:short": "USPS", "operator:type": "public", "operator:wikidata": "Q668687", "ref": "3090400057"}, "type": "Feature"}
{"geometry": {"coordinates": [-82.021448888, 33.46845073], "type": "Point"}, "id": "SU3NTCDsX1Xz6EfI2O1nFMcgrY4=", "properties": {"@source_uri": "https://tools.usps.com/UspsToolsRestServices/rest/POLocator/findLocations", "@spider": "usps_collection_boxes", "addr:city": "AUGUSTA", "addr:country": "US", "addr:postcode": "30904", "addr:state": "GA", "addr:street_address": "1434 STOVALL ST", "amenity": "post_box", "collection_times": "Mo-Fr 16:30", "indoor": "yes", "note": "ON 12/24 AND 12/31, THIS BOX MAY BE COLLECTED AS EARLY AS 12 NOON.", "nsi_id": "unitedstatespostalservice-a77078", "operator": "United States Postal Service", "operator:short": "USPS", "operator:type": "public", "operator:wikidata": "Q668687", "ref": "3090400060"}, "type": "Feature"}
{"geometry": {"coordinates": [-82.138313531, 33.411947416], "type": "Point"}, "id": "nlW-jeTly9CRk7_6eILonEUtc6Q=", "properties": {"@source_uri": "https://tools.usps.com/UspsToolsRestServices/rest/POLocator/findLocations", "@spider": "usps_collection_boxes", "addr:city": "AUGUSTA", "addr:country": "US", "addr:postcode": "30905", "addr:state": "GA", "addr:street_address": "411 36TH ST BLDG 36302", "amenity": "post_box", "collection_times": "Mo-Fr 16:30; Sa 12:30", "note": "ON 12/24 AND 12/31, THIS BOX MAY BE COLLECTED AS EARLY AS 12 NOON.", "nsi_id": "unitedstatespostalservice-a77078", "operator": "United States Postal Service", "operator:short": "USPS", "operator:type": "public", "operator:wikidata": "Q668687", "ref": "3090500000"}, "type": "Feature"}
{"geometry": {"coordinates": [-82.123195, 33.40156], "type": "Point"}, "id": "CnKnjGJomISWOki2U2pkoBj1KNM=", "properties": {"@source_uri": "https://tools.usps.com/UspsToolsRestServices/rest/POLocator/findLocations", "@spider": "usps_collection_boxes", "addr:city": "AUGUSTA", "addr:country": "US", "addr:postcode": "30905", "addr:state": "GA", "addr:street_address": "517 BRAINARD AVE", "amenity": "post_box", "collection_times": "Mo-Fr 12:00; Sa 09:45", "nsi_id": "unitedstatespostalservice-a77078", "operator": "United States Postal Service", "operator:short": "USPS", "operator:type": "public", "operator:wikidata": "Q668687", "ref": "3090500003"}, "type": "Feature"}
{"geometry": {"coordinates": [-81.973127723, 33.468708606], "type": "Point"}, "id": "nBeIVB0iwtsFYGaJAAR72z8f21w=", "properties": {"@source_uri": "https://tools.usps.com/UspsToolsRestServices/rest/POLocator/findLocations", "@spider": "usps_collection_boxes", "addr:city": "AUGUSTA", "addr:country": "US", "addr:postcode": "30905", "addr:state": "GA", "addr:street_address": "980 BARNES ST BLDG 19730", "amenity": "post_box", "collection_times": "Mo-Fr 12:00; Sa 09:45", "nsi_id": "unitedstatespostalservice-a77078", "operator": "United States Postal Service", "operator:short": "USPS", "operator:type": "public", "operator:wikidata": "Q668687", "ref": "3090500005"}, "type": "Feature"}
{"geometry": {"coordinates": [-82.122152999, 33.398347825], "type": "Point"}, "id": "tO8qJe5hYJI76e8KM1E0g_hqSxk=", "properties": {"@source_uri": "https://tools.usps.com/UspsToolsRestServices/rest/POLocator/findLocations", "@spider": "usps_collection_boxes", "addr:city": "AUGUSTA", "addr:country": "US", "addr:postcode": "30905", "addr:state": "GA", "addr:street_address": "200 AVENUE OF THE STATES DR", "amenity": "post_box", "collection_times": "Mo-Fr 12:00; Sa 09:45", "nsi_id": "unitedstatespostalservice-a77078", "operator": "United States Postal Service", "operator:short": "USPS", "operator:type": "public", "operator:wikidata": "Q668687", "ref": "3090500011"}, "type": "Feature"}
{"geometry": {"coordinates": [-82.136061225, 33.426773268], "type": "Point"}, "id": "cZCNw921SiFu3WLPmTd0WgytbCw=", "properties": {"@source_uri": "https://tools.usps.com/UspsToolsRestServices/rest/POLocator/findLocations", "@spider": "usps_collection_boxes", "addr:city": "AUGUSTA", "addr:country": "US", "addr:postcode": "30905", "addr:state": "GA", "addr:street_address": "300 W HOSPITAL RD FL 2", "amenity": "post_box", "collection_times": "Mo-Fr 12:00; Sa 09:45", "nsi_id": "unitedstatespostalservice-a77078", "operator": "United States Postal Service", "operator:short": "USPS", "operator:type": "public", "operator:wikidata": "Q668687", "ref": "3090500015"}, "type": "Feature"}
{"geometry": {"coordinates": [-82.1338438103, 33.4155564675], "type": "Point"}, "id": "lECbh8G38CaLrOlL9H9WGZywGYc=", "properties": {"@source_uri": "https://tools.usps.com/UspsToolsRestServices/rest/POLocator/findLocations", "@spider": "usps_collection_boxes", "addr:city": "AUGUSTA", "addr:country": "US", "addr:postcode": "30905", "addr:state": "GA", "addr:street_address": "BRAINARD AVE", "amenity": "post_box", "collection_times": "Mo-Fr 12:00; Sa 09:45", "nsi_id": "unitedstatespostalservice-a77078", "operator": "United States Postal Service", "operator:short": "USPS", "operator:type": "public", "operator:wikidata": "Q668687", "ref": "3090500016"}, "type": "Feature"}
{"geometry": {"coordinates": [-82.169373883, 33.425804439], "type": "Point"}, "id": "fjt7DRCDMiK5GvL3eaweK1MwyLU=", "properties": {"@source_uri": "https://tools.usps.com/UspsToolsRestServices/rest/POLocator/findLocations", "@spider": "usps_collection_boxes", "addr:city": "AUGUSTA", "addr:country": "US", "addr:postcode": "30905", "addr:state": "GA", "addr:street_address": "307 CHAMBERLAIN AVE", "amenity": "post_box", "collection_times": "Mo-Fr 12:00; Sa 09:45", "nsi_id": "unitedstatespostalservice-a77078", "operator": "United States Postal Service", "operator:short": "USPS", "operator:type": "public", "operator:wikidata": "Q668687", "ref": "3090500018"}, "type": "Feature"}
{"geometry": {"coordinates": [-82.169600462, 33.425670475], "type": "Point"}, "id": "5Y9QpCNq2UpLHI2z_GurQw0H1kQ=", "properties": {"@source_uri": "https://tools.usps.com/UspsToolsRestServices/rest/POLocator/findLocations", "@spider": "usps_collection_boxes", "addr:city": "AUGUSTA", "addr:country": "US", "addr:postcode": "30905", "addr:state": "GA", "addr:street_address": "250 CHAMBERLAIN AVE BLDG 250", "amenity": "post_box", "collection_times": "Mo-Fr 12:00; Sa 09:45", "nsi_id": "unitedstatespostalservice-a77078", "operator": "United States Postal Service", "operator:short": "USPS", "operator:type": "public", "operator:wikidata": "Q668687", "ref": "3090500019"}, "type": "Feature"}
{"geometry": {"coordinates": [-82.152562683, 33.416470464], "type": "Point"}, "id": "e7gPr9YlLT4ZgpWTN82kfYuVI4g=", "properties": {"@source_uri": "https://tools.usps.com/UspsToolsRestServices/rest/POLocator/findLocations", "@spider": "usps_collection_boxes", "addr:city": "AUGUSTA", "addr:country": "US", "addr:postcode": "30905", "addr:state": "GA", "addr:street_address": "423 25TH ST", "amenity": "post_box", "collection_times": "Mo-Fr 12:00; Sa 09:45", "nsi_id": "unitedstatespostalservice-a77078", "operator": "United States Postal Service", "operator:short": "USPS", "operator:type": "public", "operator:wikidata": "Q668687", "ref": "3090500021"}, "type": "Feature"}
{"geometry": {"coordinates": [-82.138313531, 33.411947416], "type": "Point"}, "id": "BALw1lY3Fguo8RcU8rhLo-ttxXc=", "properties": {"@source_uri": "https://tools.usps.com/UspsToolsRestServices/rest/POLocator/findLocations", "@spider": "usps_collection_boxes", "addr:city": "AUGUSTA", "addr:country": "US", "addr:postcode": "30905", "addr:state": "GA", "addr:street_address": "411 36TH ST BLDG 36302", "amenity": "post_box", "collection_times": "Mo-Fr 16:30; Sa 12:30", "indoor": "yes", "note": "ON 12/24 AND 12/31, THIS BOX MAY BE COLLECTED AS EARLY AS 12 NOON.", "nsi_id": "unitedstatespostalservice-a77078", "operator": "United States Postal Service", "operator:short": "USPS", "operator:type": "public", "operator:wikidata": "Q668687", "ref": "3090500022"}, "type": "Feature"}
{"geometry": {"coordinates": [-82.138313531, 33.411947416], "type": "Point"}, "id": "yec-Jjy2MKaFqFn9gHujh9bs-1s=", "properties": {"@source_uri": "https://tools.usps.com/UspsToolsRestServices/rest/POLocator/findLocations", "@spider": "usps_collection_boxes", "addr:city": "AUGUSTA", "addr:country": "US", "addr:postcode": "30905", "addr:state": "GA", "addr:street_address": "411 36TH ST BLDG 36302", "amenity": "post_box", "collection_times": "Mo-Fr 16:30; Sa 12:30", "indoor": "yes", "note": "ON 12/24 AND 12/31, THIS BOX MAY BE COLLECTED AS EARLY AS 12 NOON.", "nsi_id": "unitedstatespostalservice-a77078", "operator": "United States Postal Service", "operator:short": "USPS", "operator:type": "public", "operator:wikidata": "Q668687", "ref": "3090500024"}, "type": "Feature"}
{"geometry": {"coordinates": [-82.062668771, 33.42252871], "type": "Point"}, "id": "3sGVwdoL6mObVbQM4fqtw4EBy8E=", "properties": {"@source_uri": "https://tools.usps.com/UspsToolsRestServices/rest/POLocator/findLocations", "@spider": "usps_collection_boxes", "addr:city": "AUGUSTA", "addr:country": "US", "addr:postcode": "30906", "addr:state": "GA", "addr:street_address": "3209 DEANS BRIDGE RD", "amenity": "post_box", "collection_times": "Mo-Sa 09:00", "nsi_id": "unitedstatespostalservice-a77078", "operator": "United States Postal Service", "operator:short": "USPS", "operator:type": "public", "operator:wikidata": "Q668687", "ref": "3090600012"}, "type": "Feature"}
{"geometry": {"coordinates": [-82.078337633, 33.419033258], "type": "Point"}, "id": "yZEyJwsxeS-_dkdc7204k332CDg=", "properties": {"@source_uri": "https://tools.usps.com/UspsToolsRestServices/rest/POLocator/findLocations", "@spider": "usps_collection_boxes", "addr:city": "AUGUSTA", "addr:country": "US", "addr:postcode": "30906", "addr:state": "GA", "addr:street_address": "3355 DEANS BRIDGE RD", "amenity": "post_box", "collection_times": "Mo-Sa 09:00", "nsi_id": "unitedstatespostalservice-a77078", "operator": "United States Postal Service", "operator:short": "USPS", "operator:type": "public", "operator:wikidata": "Q668687", "ref": "3090600014"}, "type": "Feature"}
{"geometry": {"coordinates": [-81.988836418, 33.395246862], "type": "Point"}, "id": "iog0vYAJB1xt1zD09HSx9te-fcU=", "properties": {"@source_uri": "https://tools.usps.com/UspsToolsRestServices/rest/POLocator/findLocations", "@spider": "usps_collection_boxes", "addr:city": "AUGUSTA", "addr:country": "US", "addr:postcode": "30906", "addr:state": "GA", "addr:street_address": "1550 MARVIN GRIFFIN RD", "amenity": "post_box", "collection_times": "Mo-Sa 09:00", "nsi_id": "unitedstatespostalservice-a77078", "operator": "United States Postal Service", "operator:short": "USPS", "operator:type": "public", "operator:wikidata": "Q668687", "ref": "3090600016"}, "type": "Feature"}
{"geometry": {"coordinates": [-82.049944565, 33.398803347], "type": "Point"}, "id": "F2l21svAB6qT8V_MRNp30I3Y53k=", "properties": {"@source_uri": "https://tools.usps.com/UspsToolsRestServices/rest/POLocator/findLocations", "@spider": "usps_collection_boxes", "addr:city": "AUGUSTA", "addr:country": "US", "addr:postcode": "30906", "addr:state": "GA", "addr:street_address": "2416 WINDSOR SPRING RD", "amenity": "post_box", "collection_times": "Mo-Sa 11:00", "nsi_id": "unitedstatespostalservice-a77078", "operator": "United States Postal Service", "operator:short": "USPS", "operator:type": "public", "operator:wikidata": "Q668687", "ref": "3090600021"}, "type": "Feature"}
{"geometry": {"coordinates": [-82.019681786, 33.439206467], "type": "Point"}, "id": "paGGgf7z81HlyLcTGTcrhTTfKFI=", "properties": {"@source_uri": "https://tools.usps.com/UspsToolsRestServices/rest/POLocator/findLocations", "@spider": "usps_collection_boxes", "addr:city": "AUGUSTA", "addr:country": "US", "addr:postcode": "30906", "addr:state": "GA", "addr:street_address": "1647 GORDON HWY", "amenity": "post_box", "collection_times": "Mo-Sa 09:00", "nsi_id": "unitedstatespostalservice-a77078", "operator": "United States Postal Service", "operator:short": "USPS", "operator:type": "public", "operator:wikidata": "Q668687", "ref": "3090600034"}, "type": "Feature"}
{"geometry": {"coordinates": [-82.015341235, 33.439112504], "type": "Point"}, "id": "FUfFPGxohweICAgEOFr3bUFZmFg=", "properties": {"@source_uri": "https://tools.usps.com/UspsToolsRestServices/rest/POLocator/findLocations", "@spider": "usps_collection_boxes", "addr:city": "AUGUSTA", "addr:country": "US", "addr:postcode": "30906", "addr:state": "GA", "addr:street_address": "1631 GORDON HWY", "amenity": "post_box", "collection_times": "Mo-Sa 09:00", "nsi_id": "unitedstatespostalservice-a77078", "operator": "United States Postal Service", "operator:short": "USPS", "operator:type": "public", "operator:wikidata": "Q668687", "ref": "3090600035"}, "type": "Feature"}
{"geometry": {"coordinates": [-81.97301122, 33.372460443], "type": "Point"}, "id": "Sim0QCJhbKp3b4I6swL2PjXBG8A=", "properties": {"@source_uri": "https://tools.usps.com/UspsToolsRestServices/rest/POLocator/findLocations", "@spider": "usps_collection_boxes", "addr:city": "AUGUSTA", "addr:country": "US", "addr:postcode": "30906", "addr:state": "GA", "addr:street_address": "1501 AVIATION WAY", "amenity": "post_box", "collection_times": "Mo-Sa 09:00", "nsi_id": "unitedstatespostalservice-a77078", "operator": "United States Postal Service", "operator:short": "USPS", "operator:type": "public", "operator:wikidata": "Q668687", "ref": "3090600036"}, "type": "Feature"}
{"geometry": {"coordinates": [-82.055330223, 33.424976185], "type": "Point"}, "id": "TIbAK2kUKqZCwvUTf_sqlPdOpqI=", "properties": {"@source_uri": "https://tools.usps.com/UspsToolsRestServices/rest/POLocator/findLocations", "@spider": "usps_collection_boxes", "addr:city": "AUGUSTA", "addr:country": "US", "addr:postcode": "30906", "addr:state": "GA", "addr:street_address": "3128 DEANS BRIDGE RD", "amenity": "post_box", "collection_times": "Mo-Sa 09:00", "nsi_id": "unitedstatespostalservice-a77078", "operator": "United States Postal Service", "operator:short": "USPS", "operator:type": "public", "operator:wikidata": "Q668687", "ref": "3090600037"}, "type": "Feature"}
{"geometry": {"coordinates": [-82.025923735, 33.411684859], "type": "Point"}, "id": "Z1Rrr0JOIs7dBRkzbmw7Rw9zs0E=", "properties": {"@source_uri": "https://tools.usps.com/UspsToolsRestServices/rest/POLocator/findLocations", "@spider": "usps_collection_boxes", "addr:city": "AUGUSTA", "addr:country": "US", "addr:postcode": "30906", "addr:state": "GA", "addr:street_address": "3108 PEACH ORCHARD RD", "amenity": "post_box", "collection_times": "Mo-Fr 17:30; Sa 13:00", "indoor": "yes", "note": "ON 12/24 AND 12/31, THIS BOX MAY BE COLLECTED AS EARLY AS 12 NOON.", "nsi_id": "unitedstatespostalservice-a77078", "operator": "United States Postal Service", "operator:short": "USPS", "operator:type": "public", "operator:wikidata": "Q668687", "ref": "3090600042"}, "type": "Feature"}
{"geometry": {"coordinates": [-82.025923735, 33.411684859], "type": "Point"}, "id": "I5Snbtlks685kPl4IoknnKDfu8s=", "properties": {"@source_uri": "https://tools.usps.com/UspsToolsRestServices/rest/POLocator/findLocations", "@spider": "usps_collection_boxes", "addr:city": "AUGUSTA", "addr:country": "US", "addr:postcode": "30906", "addr:state": "GA", "addr:street_address": "3108 PEACH ORCHARD RD", "amenity": "post_box", "collection_times": "Mo-Sa 17:30", "note": "ON 12/24 AND 12/31, THIS BOX MAY BE COLLECTED AS EARLY AS 12 NOON.", "nsi_id": "unitedstatespostalservice-a77078", "operator": "United States Postal Service", "operator:short": "USPS", "operator:type": "public", "operator:wikidata": "Q668687", "ref": "3090600047"}, "type": "Feature"}
{"geometry": {"coordinates": [-82.025923735, 33.411684859], "type": "Point"}, "id": "ChO82LFaJQAaGO2jrnffYZMhtnE=", "properties": {"@source_uri": "https://tools.usps.com/UspsToolsRestServices/rest/POLocator/findLocations", "@spider": "usps_collection_boxes", "addr:city": "AUGUSTA", "addr:country": "US", "addr:postcode": "30906", "addr:state": "GA", "addr:street_address": "3108 PEACH ORCHARD RD", "amenity": "post_box", "collection_times": "Mo-Fr 17:30; Sa 13:00", "indoor": "yes", "note": "ON 12/24 AND 12/31, THIS BOX MAY BE COLLECTED AS EARLY AS 12 NOON.", "nsi_id": "unitedstatespostalservice-a77078", "operator": "United States Postal Service", "operator:short": "USPS", "operator:type": "public", "operator:wikidata": "Q668687", "ref": "3090600051"}, "type": "Feature"}
{"geometry": {"coordinates": [-82.092505367, 33.516017637], "type": "Point"}, "id": "ly_vHnaFkUiCVMFgtm2DJi40seE=", "properties": {"@source_uri": "https://tools.usps.com/UspsToolsRestServices/rest/POLocator/findLocations", "@spider": "usps_collection_boxes", "addr:city": "AUGUSTA", "addr:country": "US", "addr:postcode": "30907", "addr:state": "GA", "addr:street_address": "125 COMMERCIAL BLVD", "amenity": "post_box", "collection_times": "Mo-Fr 17:30; Sa 16:30", "note": "ON 12/24 AND 12/31, THIS BOX MAY BE COLLECTED AS EARLY AS 12 NOON.", "nsi_id": "unitedstatespostalservice-a77078", "operator": "United States Postal Service", "operator:short": "USPS", "operator:type": "public", "operator:wikidata": "Q668687", "ref": "3090700000"}, "type": "Feature"}
{"geometry": {"coordinates": [-82.108070864, 33.508117443], "type": "Point"}, "id": "wvKJn7CgtO17v5F5ZCqH21MjzZ4=", "properties": {"@source_uri": "https://tools.usps.com/UspsToolsRestServices/rest/POLocator/findLocations", "@spider": "usps_collection_boxes", "addr:city": "AUGUSTA", "addr:country": "US", "addr:postcode": "30907", "addr:state": "GA", "addr:street_address": "4115 COLUMBIA RD", "amenity": "post_box", "collection_times": "Mo-Sa 15:00", "note": "ON 12/24 AND 12/31, THIS BOX MAY BE COLLECTED AS EARLY AS 12 NOON.", "nsi_id": "unitedstatespostalservice-a77078", "operator": "United States Postal Service", "operator:short": "USPS", "operator:type": "public", "operator:wikidata": "Q668687", "ref": "3090700006"}, "type": "Feature"}
{"geometry": {"coordinates": [-82.057749718, 33.51419227], "type": "Point"}, "id": "BvuQUzbHZMramkZpR_tnGgf3a0c=", "properties": {"@source_uri": "https://tools.usps.com/UspsToolsRestServices/rest/POLocator/findLocations", "@spider": "usps_collection_boxes", "addr:city": "AUGUSTA", "addr:country": "US", "addr:postcode": "30907", "addr:state": "GA", "addr:street_address": "3137 WASHINGTON RD", "amenity": "post_box", "collection_times": "Mo-Sa 16:00", "note": "ON 12/24 AND 12/31, THIS BOX MAY BE COLLECTED AS EARLY AS 12 NOON.", "nsi_id": "unitedstatespostalservice-a77078", "operator": "United States Postal Service", "operator:short": "USPS", "operator:type": "public", "operator:wikidata": "Q668687", "ref": "3090700012"}, "type": "Feature"}
{"geometry": {"coordinates": [-82.053888909, 33.514321937], "type": "Point"}, "id": "UGTRArFQzUgOi_6UbjsDllpYxvs=", "properties": {"@source_uri": "https://tools.usps.com/UspsToolsRestServices/rest/POLocator/findLocations", "@spider": "usps_collection_boxes", "addr:city": "AUGUSTA", "addr:country": "US", "addr:postcode": "30907", "addr:state": "GA", "addr:street_address": "300 SHARTOM DR", "amenity": "post_box", "collection_times": "Mo-Sa 16:00", "note": "ON 12/24 AND 12/31, THIS BOX MAY BE COLLECTED AS EARLY AS 12 NOON.", "nsi_id": "unitedstatespostalservice-a77078", "operator": "United States Postal Service", "operator:short": "USPS", "operator:type": "public", "operator:wikidata": "Q668687", "ref": "3090700013"}, "type": "Feature"}
{"geometry": {"coordinates": [-82.082485, 33.51757], "type": "Point"}, "id": "mSOpAsBMejNnrcr_FKH3miS4LDU=", "properties": {"@source_uri": "https://tools.usps.com/UspsToolsRestServices/rest/POLocator/findLocations", "@spider": "usps_collection_boxes", "addr:city": "AUGUSTA", "addr:country": "US", "addr:postcode": "30907", "addr:state": "GA", "addr:street_address": "2922 PROFESSIONAL PKWY", "amenity": "post_box", "collection_times": "Mo-Sa 15:15", "note": "ON 12/24 AND 12/31, THIS BOX MAY BE COLLECTED AS EARLY AS 12 NOON.", "nsi_id": "unitedstatespostalservice-a77078", "operator": "United States Postal Service", "operator:short": "USPS", "operator:type": "public", "operator:wikidata": "Q668687", "ref": "3090700015"}, "type": "Feature"}
{"geometry": {"coordinates": [-82.14270079, 33.507436558], "type": "Point"}, "id": "-DwvwaJ-s-Q1AGi2C0kayAiIBrY=", "properties": {"@source_uri": "https://tools.usps.com/UspsToolsRestServices/rest/POLocator/findLocations", "@spider": "usps_collection_boxes", "addr:city": "AUGUSTA", "addr:country": "US", "addr:postcode": "30907", "addr:state": "GA", "addr:street_address": "4480 COLUMBIA RD", "amenity": "post_box", "collection_times": "Mo-Sa 15:00", "note": "ON 12/24 AND 12/31, THIS BOX MAY BE COLLECTED AS EARLY AS 12 NOON.", "nsi_id": "unitedstatespostalservice-a77078", "operator": "United States Postal Service", "operator:short": "USPS", "operator:type": "public", "operator:wikidata": "Q668687", "ref": "3090700024"}, "type": "Feature"}
{"geometry": {"coordinates": [-82.072720892, 33.527172496], "type": "Point"}, "id": "Y2W775SiLaiUkfgKqnAZ5UCRYMM=", "properties": {"@source_uri": "https://tools.usps.com/UspsToolsRestServices/rest/POLocator/findLocations", "@spider": "usps_collection_boxes", "addr:city": "AUGUSTA", "addr:country": "US", "addr:postcode": "30907", "addr:state": "GA", "addr:street_address": "374 FURYS FERRY RD", "amenity": "post_box", "collection_times": "Mo-Sa 15:45", "note": "ON 12/24 AND 12/31, THIS BOX MAY BE COLLECTED AS EARLY AS 12 NOON.", "nsi_id": "unitedstatespostalservice-a77078", "operator": "United States Postal Service", "operator:short": "USPS", "operator:type": "public", "operator:wikidata": "Q668687", "ref": "3090700035"}, "type": "Feature"}
{"geometry": {"coordinates": [-82.117254004, 33.507901513], "type": "Point"}, "id": "gx1z65zA4KxohfGTvmsGbCw6QlE=", "properties": {"@source_uri": "https://tools.usps.com/UspsToolsRestServices/rest/POLocator/findLocations", "@spider": "usps_collection_boxes", "addr:city": "AUGUSTA", "addr:country": "US", "addr:postcode": "30907", "addr:state": "GA", "addr:street_address": "4210 COLUMBIA RD", "amenity": "post_box", "collection_times": "Mo-Sa 15:00", "note": "ON 12/24 AND 12/31, THIS BOX MAY BE COLLECTED AS EARLY AS 12 NOON.", "nsi_id": "unitedstatespostalservice-a77078", "operator": "United States Postal Service", "operator:short": "USPS", "operator:type": "public", "operator:wikidata": "Q668687", "ref": "3090700038"}, "type": "Feature"}
{"geometry": {"coordinates": [-82.092505367, 33.516017637], "type": "Point"}, "id": "CafRvblSTZ3mJ3nHLNKz0-Rv3j0=", "properties": {"@source_uri": "https://tools.usps.com/UspsToolsRestServices/rest/POLocator/findLocations", "@spider": "usps_collection_boxes", "addr:city": "AUGUSTA", "addr:country": "US", "addr:postcode": "30907", "addr:state": "GA", "addr:street_address": "125 COMMERCIAL BLVD", "amenity": "post_box", "collection_times": "Mo-Fr 17:30; Sa 16:30", "indoor": "yes", "note": "ON 12/24 AND 12/31, THIS BOX MAY BE COLLECTED AS EARLY AS 12 NOON.", "nsi_id": "unitedstatespostalservice-a77078", "operator": "United States Postal Service", "operator:short": "USPS", "operator:type": "public", "operator:wikidata": "Q668687", "ref": "3090700039"}, "type": "Feature"}
{"geometry": {"coordinates": [-82.092505367, 33.516017637], "type": "Point"}, "id": "diuf4n6-S1a8UO7O0G5KKXeGbYE=", "properties": {"@source_uri": "https://tools.usps.com/UspsToolsRestServices/rest/POLocator/findLocations", "@spider": "usps_collection_boxes", "addr:city": "AUGUSTA", "addr:country": "US", "addr:postcode": "30907", "addr:state": "GA", "addr:street_address": "125 COMMERCIAL BLVD", "amenity": "post_box", "collection_times": "Mo-Fr 17:30; Sa 16:30", "name": "USPS COLLECTION BOX - APC", "note": "ON 12/24 AND 12/31, THIS BOX MAY BE COLLECTED AS EARLY AS 12 NOON.", "nsi_id": "unitedstatespostalservice-a77078", "operator": "United States Postal Service", "operator:short": "USPS", "operator:type": "public", "operator:wikidata": "Q668687", "ref": "3090700044"}, "type": "Feature"}
{"geometry": {"coordinates": [-82.084152199, 33.509476436], "type": "Point"}, "id": "JyNqJ7lyPGQZMOxlCCJnPIeY3uo=", "properties": {"@source_uri": "https://tools.usps.com/UspsToolsRestServices/rest/POLocator/findLocations", "@spider": "usps_collection_boxes", "addr:city": "AUGUSTA", "addr:country": "US", "addr:postcode": "30907", "addr:state": "GA", "addr:street_address": "119 DAVIS RD", "amenity": "post_box", "collection_times": "Mo-Sa 15:30", "note": "ON 12/24 AND 12/31, THIS BOX MAY BE COLLECTED AS EARLY AS 12 NOON.", "nsi_id": "unitedstatespostalservice-a77078", "operator": "United States Postal Service", "operator:short": "USPS", "operator:type": "public", "operator:wikidata": "Q668687", "ref": "3090700045"}, "type": "Feature"}
{"geometry": {"coordinates": [-82.092505367, 33.516017637], "type": "Point"}, "id": "p_Vq0fSWcuNw3KxJHHxfV1fk_8Q=", "properties": {"@source_uri": "https://tools.usps.com/UspsToolsRestServices/rest/POLocator/findLocations", "@spider": "usps_collection_boxes", "addr:city": "AUGUSTA", "addr:country": "US", "addr:postcode": "30907", "addr:state": "GA", "addr:street_address": "125 COMMERCIAL BLVD", "amenity": "post_box", "collection_times": "Mo-Fr 17:30; Sa 16:30", "indoor": "yes", "note": "ON 12/24 AND 12/31, THIS BOX MAY BE COLLECTED AS EARLY AS 12 NOON.", "nsi_id": "unitedstatespostalservice-a77078", "operator": "United States Postal Service", "operator:short": "USPS", "operator:type": "public", "operator:wikidata": "Q668687", "ref": "3090700052"}, "type": "Feature"}
{"geometry": {"coordinates": [-82.074235, 33.48658], "type": "Point"}, "id": "USwic3cuBMVSgV9o9aoAqe-BA1I=", "properties": {"@source_uri": "https://tools.usps.com/UspsToolsRestServices/rest/POLocator/findLocations", "@spider": "usps_collection_boxes", "addr:city": "AUGUSTA", "addr:country": "US", "addr:postcode": "30909", "addr:state": "GA", "addr:street_address": "2701 WASHINGTON RD", "amenity": "post_box", "collection_times": "Mo-Fr 16:45; Sa 13:00", "note": "ON 12/24 AND 12/31, THIS BOX MAY BE COLLECTED AS EARLY AS 12 NOON.", "nsi_id": "unitedstatespostalservice-a77078", "operator": "United States Postal Service", "operator:short": "USPS", "operator:type": "public", "operator:wikidata": "Q668687", "ref": "3090900007"}, "type": "Feature"}
{"geometry": {"coordinates": [-82.074235, 33.48658], "type": "Point"}, "id": "2kpxjUJIkM7W5PkVzeza8DSmC0E=", "properties": {"@source_uri": "https://tools.usps.com/UspsToolsRestServices/rest/POLocator/findLocations", "@spider": "usps_collection_boxes", "addr:city": "AUGUSTA", "addr:country": "US", "addr:postcode": "30909", "addr:state": "GA", "addr:street_address": "2825 WASHINGTON RD", "amenity": "post_box", "collection_times": "Mo-Fr 16:30; Sa 13:00", "note": "ON 12/24 AND 12/31, THIS BOX MAY BE COLLECTED AS EARLY AS 12 NOON.", "nsi_id": "unitedstatespostalservice-a77078", "operator": "United States Postal Service", "operator:short": "USPS", "operator:type": "public", "operator:wikidata": "Q668687", "ref": "3090900008"}, "type": "Feature"}
{"geometry": {"coordinates": [-82.029904217, 33.485319827], "type": "Point"}, "id": "--AqqTIBf-p3w6-ky8h0owCpA4Y=", "properties": {"@source_uri": "https://tools.usps.com/UspsToolsRestServices/rest/POLocator/findLocations", "@spider": "usps_collection_boxes", "addr:city": "AUGUSTA", "addr:country": "US", "addr:postcode": "30909", "addr:state": "GA", "addr:street_address": "499 HIGHLAND AVE", "amenity": "post_box", "collection_times": "Mo-Fr 16:00; Sa 13:00", "note": "ON 12/24 AND 12/31, THIS BOX MAY BE COLLECTED AS EARLY AS 12 NOON.", "nsi_id": "unitedstatespostalservice-a77078", "operator": "United States Postal Service", "operator:short": "USPS", "operator:type": "public", "operator:wikidata": "Q668687", "ref": "3090900012"}, "type": "Feature"}
{"geometry": {"coordinates": [-82.087224874, 33.483032604], "type": "Point"}, "id": "FF2y7IuFbN66LXW6gYnJm2R5qZY=", "properties": {"@source_uri": "https://tools.usps.com/UspsToolsRestServices/rest/POLocator/findLocations", "@spider": "usps_collection_boxes", "addr:city": "AUGUSTA", "addr:country": "US", "addr:postcode": "30909", "addr:state": "GA", "addr:street_address": "3602 WHEELER RD", "amenity": "post_box", "collection_times": "Mo-Fr 15:00", "note": "ON 12/24 AND 12/31, THIS BOX MAY BE COLLECTED AS EARLY AS 12 NOON.", "nsi_id": "unitedstatespostalservice-a77078", "operator": "United States Postal Service", "operator:short": "USPS", "operator:type": "public", "operator:wikidata": "Q668687", "ref": "3090900016"}, "type": "Feature"}
{"geometry": {"coordinates": [-82.040318326, 33.4871759417], "type": "Point"}, "id": "mzzyw742qKMNBohMO9OBXKYzG-4=", "properties": {"@source_uri": "https://tools.usps.com/UspsToolsRestServices/rest/POLocator/findLocations", "@spider": "usps_collection_boxes", "addr:city": "AUGUSTA", "addr:country": "US", "addr:postcode": "30909", "addr:state": "GA", "addr:street_address": "3011 WHEELER ROAD", "amenity": "post_box", "collection_times": "Mo-Fr 16:15; Sa 13:00", "note": "ON 12/24 AND 12/31, THIS BOX MAY BE COLLECTED AS EARLY AS 12 NOON.", "nsi_id": "unitedstatespostalservice-a77078", "operator": "United States Postal Service", "operator:short": "USPS", "operator:type": "public", "operator:wikidata": "Q668687", "ref": "3090900029"}, "type": "Feature"}
{"geometry": {"coordinates": [-82.0749465675, 33.4867484847], "type": "Point"}, "id": "EvOBYOR5aGFk6yM6cGCakf8Bxao=", "properties": {"@source_uri": "https://tools.usps.com/UspsToolsRestServices/rest/POLocator/findLocations", "@spider": "usps_collection_boxes", "addr:city": "AUGUSTA", "addr:country": "US", "addr:postcode": "30909", "addr:state": "GA", "addr:street_address": "3515 WHEELER ST", "amenity": "post_box", "collection_times": "Mo-Fr 16:30", "note": "ON 12/24 AND 12/31, THIS BOX MAY BE COLLECTED AS EARLY AS 12 NOON.", "nsi_id": "unitedstatespostalservice-a77078", "operator": "United States Postal Service", "operator:short": "USPS", "operator:type": "public", "operator:wikidata": "Q668687", "ref": "3090900032"}, "type": "Feature"}
{"geometry": {"coordinates": [-82.074946568, 33.486748485], "type": "Point"}, "id": "0-tvlUrDa_-_Mnrj9FEOV3aMIRs=", "properties": {"@source_uri": "https://tools.usps.com/UspsToolsRestServices/rest/POLocator/findLocations", "@spider": "usps_collection_boxes", "addr:city": "AUGUSTA", "addr:country": "US", "addr:postcode": "30909", "addr:state": "GA", "addr:street_address": "3515 WHEELER RD", "amenity": "post_box", "collection_times": "Mo-Fr 15:00; Sa 13:00", "note": "ON 12/24 AND 12/31, THIS BOX MAY BE COLLECTED AS EARLY AS 12 NOON.", "nsi_id": "unitedstatespostalservice-a77078", "operator": "United States Postal Service", "operator:short": "USPS", "operator:type": "public", "operator:wikidata": "Q668687", "ref": "3090900041"}, "type": "Feature"}
{"geometry": {"coordinates": [-82.0767550273, 33.4850709808], "type": "Point"}, "id": "kXERbsVMYBxUQxRxs-OE0en6vbw=", "properties": {"@source_uri": "https://tools.usps.com/UspsToolsRestServices/rest/POLocator/findLocations", "@spider": "usps_collection_boxes", "addr:city": "AUGUSTA", "addr:country": "US", "addr:postcode": "30909", "addr:state": "GA", "addr:street_address": "3540 WHEELER RD", "amenity": "post_box", "collection_times": "Mo-Fr 16:15; Sa 13:00", "note": "ON 12/24 AND 12/31, THIS BOX MAY BE COLLECTED AS EARLY AS 12 NOON.", "nsi_id": "unitedstatespostalservice-a77078", "operator": "United States Postal Service", "operator:short": "USPS", "operator:type": "public", "operator:wikidata": "Q668687", "ref": "3090900043"}, "type": "Feature"}
{"geometry": {"coordinates": [-82.0947890273, 33.4869279915], "type": "Point"}, "id": "Sj7GseKwZXfvVzhWAgbhsBXmRmc=", "properties": {"@source_uri": "https://tools.usps.com/UspsToolsRestServices/rest/POLocator/findLocations", "@spider": "usps_collection_boxes", "addr:city": "AUGUSTA", "addr:country": "US", "addr:postcode": "30909", "addr:state": "GA", "addr:street_address": "3623 J DEWEY GRAY CIR", "amenity": "post_box", "collection_times": "Mo-Fr 16:00; Sa 13:00", "note": "ON 12/24 AND 12/31, THIS BOX MAY BE COLLECTED AS EARLY AS 12 NOON.", "nsi_id": "unitedstatespostalservice-a77078", "operator": "United States Postal Service", "operator:short": "USPS", "operator:type": "public", "operator:wikidata": "Q668687", "ref": "3090900056"}, "type": "Feature"}
{"geometry": {"coordinates": [-82.03581043, 33.469435418], "type": "Point"}, "id": "vMWLGJEIFFghoMhCCoSMAupv9v8=", "properties": {"@source_uri": "https://tools.usps.com/UspsToolsRestServices/rest/POLocator/findLocations", "@spider": "usps_collection_boxes", "addr:city": "AUGUSTA", "addr:country": "US", "addr:postcode": "30909", "addr:state": "GA", "addr:street_address": "2803 WRIGHTSBORO RD", "amenity": "post_box", "collection_times": "Mo-Fr 16:30; Sa 13:00", "note": "ON 12/24 AND 12/31, THIS BOX MAY BE COLLECTED AS EARLY AS 12 NOON.", "nsi_id": "unitedstatespostalservice-a77078", "operator": "United States Postal Service", "operator:short": "USPS", "operator:type": "public", "operator:wikidata": "Q668687", "ref": "3090900066"}, "type": "Feature"}
{"geometry": {"coordinates": [-82.042198261, 33.509613289], "type": "Point"}, "id": "wEJiz3CD7BQ7N1mNPkVgkKQuHS0=", "properties": {"@source_uri": "https://tools.usps.com/UspsToolsRestServices/rest/POLocator/findLocations", "@spider": "usps_collection_boxes", "addr:city": "AUGUSTA", "addr:country": "US", "addr:postcode": "30909", "addr:state": "GA", "addr:street_address": "2601 COMMONS BLVD", "amenity": "post_box", "collection_times": "Mo-Fr 16:30; Sa 13:00", "note": "ON 12/24 AND 12/31, THIS BOX MAY BE COLLECTED AS EARLY AS 12 NOON.", "nsi_id": "unitedstatespostalservice-a77078", "operator": "United States Postal Service", "operator:short": "USPS", "operator:type": "public", "operator:wikidata": "Q668687", "ref": "3090900067"}, "type": "Feature"}
{"geometry": {"coordinates": [-82.0908750138, 33.4796299941], "type": "Point"}, "id": "mLkUhXdyEFXJqHs7WBCB9-U1HHI=", "properties": {"@source_uri": "https://tools.usps.com/UspsToolsRestServices/rest/POLocator/findLocations", "@spider": "usps_collection_boxes", "addr:city": "AUGUSTA", "addr:country": "US", "addr:postcode": "30909", "addr:state": "GA", "addr:street_address": "2814 HILLCREEK DR", "amenity": "post_box", "collection_times": "Mo-Fr 15:00; Sa 13:00", "note": "ON 12/24 AND 12/31, THIS BOX MAY BE COLLECTED AS EARLY AS 12 NOON.", "nsi_id": "unitedstatespostalservice-a77078", "operator": "United States Postal Service", "operator:short": "USPS", "operator:type": "public", "operator:wikidata": "Q668687", "ref": "3090900071"}, "type": "Feature"}
{"geometry": {"coordinates": [-82.067717076, 33.469362994], "type": "Point"}, "id": "MzDGzQDE2Z1LR1Z6LkSbAKa1r8w=", "properties": {"@source_uri": "https://tools.usps.com/UspsToolsRestServices/rest/POLocator/findLocations", "@spider": "usps_collection_boxes", "addr:city": "AUGUSTA", "addr:country": "US", "addr:postcode": "30909", "addr:state": "GA", "addr:street_address": "3301 WRIGHTSBORO RD", "amenity": "post_box", "collection_times": "Mo-Fr 17:00; Sa 13:00", "indoor": "yes", "note": "ON 12/24 AND 12/31, THIS BOX MAY BE COLLECTED AS EARLY AS 12 NOON.", "nsi_id": "unitedstatespostalservice-a77078", "operator": "United States Postal Service", "operator:short": "USPS", "operator:type": "public", "operator:wikidata": "Q668687", "ref": "3090900072"}, "type": "Feature"}
{"geometry": {"coordinates": [-82.08915801, 33.479930985], "type": "Point"}, "id": "kx6qoziXM3sy60MXOhsA-g8YlKk=", "properties": {"@source_uri": "https://tools.usps.com/UspsToolsRestServices/rest/POLocator/findLocations", "@spider": "usps_collection_boxes", "addr:city": "AUGUSTA", "addr:country": "US", "addr:postcode": "30909", "addr:state": "GA", "addr:street_address": "1224 AUGUSTA WEST PKWY", "amenity": "post_box", "collection_times": "Mo-Fr 15:00", "note": "ON 12/24 AND 12/31, THIS BOX MAY BE COLLECTED AS EARLY AS 12 NOON.", "nsi_id": "unitedstatespostalservice-a77078", "operator": "United States Postal Service", "operator:short": "USPS", "operator:type": "public", "operator:wikidata": "Q668687", "ref": "3090900077"}, "type": "Feature"}
{"geometry": {"coordinates": [-82.083840823, 33.486023775], "type": "Point"}, "id": "Q6dU0eZwNVWzI5qmfK6eDFLcKXc=", "properties": {"@source_uri": "https://tools.usps.com/UspsToolsRestServices/rest/POLocator/findLocations", "@spider": "usps_collection_boxes", "addr:city": "AUGUSTA", "addr:country": "US", "addr:postcode": "30909", "addr:state": "GA", "addr:street_address": "2651 PERIMETER PKWY", "amenity": "post_box", "collection_times": "Mo-Fr 15:45", "note": "ON 12/24 AND 12/31, THIS BOX MAY BE COLLECTED AS EARLY AS 12 NOON.", "nsi_id": "unitedstatespostalservice-a77078", "operator": "United States Postal Service", "operator:short": "USPS", "operator:type": "public", "operator:wikidata": "Q668687", "ref": "3090900079"}, "type": "Feature"}
{"geometry": {"coordinates": [-82.0677170756, 33.4693629935], "type": "Point"}, "id": "YFjXfSffYG5_75Mov5S6iqADLOA=", "properties": {"@source_uri": "https://tools.usps.com/UspsToolsRestServices/rest/POLocator/findLocations", "@spider": "usps_collection_boxes", "addr:city": "AUGUSTA", "addr:country": "US", "addr:postcode": "30909", "addr:state": "GA", "addr:street_address": "3301 WRIGHTSBORO RD", "amenity": "post_box", "collection_times": "Mo-Sa 17:00", "note": "ON 12/24 AND 12/31, THIS BOX MAY BE COLLECTED AS EARLY AS 12 NOON.", "nsi_id": "unitedstatespostalservice-a77078", "operator": "United States Postal Service", "operator:short": "USPS", "operator:type": "public", "operator:wikidata": "Q668687", "ref": "3090900094"}, "type": "Feature"}
{"geometry": {"coordinates": [-82.067717076, 33.469362994], "type": "Point"}, "id": "neuCvz37Nlwr2r4RD53ljQJh7BA=", "properties": {"@source_uri": "https://tools.usps.com/UspsToolsRestServices/rest/POLocator/findLocations", "@spider": "usps_collection_boxes", "addr:city": "AUGUSTA", "addr:country": "US", "addr:postcode": "30909", "addr:state": "GA", "addr:street_address": "3301 WRIGHTSBORO RD", "amenity": "post_box", "collection_times": "Mo-Fr 17:00; Sa 13:00", "indoor": "yes", "note": "ON 12/24 AND 12/31, THIS BOX MAY BE COLLECTED AS EARLY AS 12 NOON.", "nsi_id": "unitedstatespostalservice-a77078", "operator": "United States Postal Service", "operator:short": "USPS", "operator:type": "public", "operator:wikidata": "Q668687", "ref": "3090900096"}, "type": "Feature"}
