{"geometry": {"coordinates": [-83.940648258, 33.0350362], "type": "Point"}, "id": "syRzLMfoO-kDtHM7oHDbythvlDI=", "properties": {"@spider": "usps_collection_boxes", "addr:city": "FORSYTH", "addr:country": "US", "addr:full": "65 W JOHNSTON ST", "addr:postcode": "31029", "addr:state": "GA", "brand": "USPS", "collection_times": "Mo-Fr 17:00; Sa 14:00", "name": "USPS COLLECTION BOX - BLUE BOX", "note": "ON 12/24 AND 12/31, THIS BOX MAY BE COLLECTED AS EARLY AS 12 NOON.", "ref": "3102900011"}, "type": "Feature"}
{"geometry": {"coordinates": [-83.940648258, 33.0350362], "type": "Point"}, "id": "o6ze6NddOviyasm4LsCiDKZR-i4=", "properties": {"@spider": "usps_collection_boxes", "addr:city": "FORSYTH", "addr:country": "US", "addr:full": "65 W JOHNSTON ST", "addr:postcode": "31029", "addr:state": "GA", "brand": "USPS", "collection_times": "Mo-Fr 17:00; Sa 14:00", "name": "USPS COLLECTION BOX - PO LOBBY", "note": "ON 12/24 AND 12/31, THIS BOX MAY BE COLLECTED AS EARLY AS 12 NOON.", "ref": "3102900013"}, "type": "Feature"}
{"geometry": {"coordinates": [-83.940648258, 33.0350362], "type": "Point"}, "id": "IjDrQwTXxALi_fUkUt7xPmwp7AA=", "properties": {"@spider": "usps_collection_boxes", "addr:city": "FORSYTH", "addr:country": "US", "addr:full": "65 W JOHNSTON ST", "addr:postcode": "31029", "addr:state": "GA", "brand": "USPS", "collection_times": "Mo-Fr 17:00; Sa 14:00", "name": "USPS COLLECTION BOX - PO LOBBY", "note": "ON 12/24 AND 12/31, THIS BOX MAY BE COLLECTED AS EARLY AS 12 NOON.", "ref": "3102900017"}, "type": "Feature"}
{"geometry": {"coordinates": [-84.141885103, 32.912640008], "type": "Point"}, "id": "55ZlgXJAvLTF8JOug2cMTd6rA_0=", "properties": {"@spider": "usps_collection_boxes", "addr:city": "YATESVILLE", "addr:country": "US", "addr:full": "17 EMPIRE ST", "addr:postcode": "31097", "addr:state": "GA", "brand": "USPS", "collection_times": "Mo-Fr 16:30; Sa 13:00", "name": "USPS COLLECTION BOX - BLUE BOX", "note": "ON 12/24 AND 12/31, THIS BOX MAY BE COLLECTED AS EARLY AS 12 NOON.", "ref": "3109700000"}, "type": "Feature"}
{"geometry": {"coordinates": [-84.141885103, 32.912640008], "type": "Point"}, "id": "MKlZ0hIM2B5frIkTNGjv3o2VkNA=", "properties": {"@spider": "usps_collection_boxes", "addr:city": "YATESVILLE", "addr:country": "US", "addr:full": "17 EMPIRE ST", "addr:postcode": "31097", "addr:state": "GA", "brand": "USPS", "collection_times": "Mo-Fr 16:30; Sa 13:00", "name": "USPS COLLECTION BOX - PO LOBBY", "note": "ON 12/24 AND 12/31, THIS BOX MAY BE COLLECTED AS EARLY AS 12 NOON.", "ref": "3109700001"}, "type": "Feature"}
{"geometry": {"coordinates": [-84.141885103, 32.912640008], "type": "Point"}, "id": "_jAZ50sLDnGpkv3-8BgYzXOUJeY=", "properties": {"@spider": "usps_collection_boxes", "addr:city": "YATESVILLE", "addr:country": "US", "addr:full": "17 EMPIRE ST", "addr:postcode": "31097", "addr:state": "GA", "brand": "USPS", "collection_times": "Mo-Fr 16:30; Sa 13:00", "name": "USPS COLLECTION BOX - PO LOBBY", "note": "ON 12/24 AND 12/31, THIS BOX MAY BE COLLECTED AS EARLY AS 12 NOON.", "ref": "3109700004"}, "type": "Feature"}
