{"geometry": {"coordinates": [-84.3553780388, 33.7871686984], "type": "Point"}, "id": "1sGV4o36YckItkgZ9KrR8qpMAW8=", "properties": {"@source_uri": "https://tools.usps.com/UspsToolsRestServices/rest/POLocator/findLocations", "@spider": "usps_collection_boxes", "addr:city": "ATLANTA", "addr:country": "US", "addr:postcode": "31106", "addr:state": "GA", "addr:street_address": "1190 N HIGHLAND AVE", "amenity": "post_box", "brand": "United States Postal Service", "brand:wikidata": "Q668687", "collection_times": "Mo-Fr 17:00", "indoor": "yes", "note": "ON 12/24 AND 12/31, THIS BOX MAY BE COLLECTED AS EARLY AS 12 NOON.", "nsi_id": "unitedstatespostalservice-a77078", "operator": "United States Postal Service", "operator:short": "USPS", "operator:type": "public", "operator:wikidata": "Q668687", "ref": "3110600000"}, "type": "Feature"}
{"geometry": {"coordinates": [-84.349461, 33.74154], "type": "Point"}, "id": "MfMZL7iJxf2kqOfchj2p7_yrgBo=", "properties": {"@source_uri": "https://tools.usps.com/UspsToolsRestServices/rest/POLocator/findLocations", "@spider": "usps_collection_boxes", "addr:city": "ATLANTA", "addr:country": "US", "addr:postcode": "31107", "addr:state": "GA", "addr:street_address": "455 MORELAND AVE", "amenity": "post_box", "brand": "United States Postal Service", "brand:wikidata": "Q668687", "collection_times": "Mo-Fr 17:00", "indoor": "yes", "note": "ON 12/24 AND 12/31, THIS BOX MAY BE COLLECTED AS EARLY AS 12 NOON.", "nsi_id": "unitedstatespostalservice-a77078", "operator": "United States Postal Service", "operator:short": "USPS", "operator:type": "public", "operator:wikidata": "Q668687", "ref": "3110700000"}, "type": "Feature"}
{"geometry": {"coordinates": [-84.372281, 33.84983], "type": "Point"}, "id": "IDcwHK-xzYJUyfp6cuJAEIHY-fw=", "properties": {"@source_uri": "https://tools.usps.com/UspsToolsRestServices/rest/POLocator/findLocations", "@spider": "usps_collection_boxes", "addr:city": "ATLANTA", "addr:country": "US", "addr:postcode": "31126", "addr:state": "GA", "addr:street_address": "1 BUCKHEAD LOOP", "amenity": "post_box", "brand": "United States Postal Service", "brand:wikidata": "Q668687", "collection_times": "Mo-Fr 17:00", "indoor": "yes", "note": "ON 12/24 AND 12/31, THIS BOX MAY BE COLLECTED AS EARLY AS 12 NOON.", "nsi_id": "unitedstatespostalservice-a77078", "operator": "United States Postal Service", "operator:short": "USPS", "operator:type": "public", "operator:wikidata": "Q668687", "ref": "3112600000"}, "type": "Feature"}
{"geometry": {"coordinates": [-84.458745, 33.87926], "type": "Point"}, "id": "MmozQnIEDcyFHBMJXyP_fmCxkMc=", "properties": {"@source_uri": "https://tools.usps.com/UspsToolsRestServices/rest/POLocator/findLocations", "@spider": "usps_collection_boxes", "addr:city": "ATLANTA", "addr:country": "US", "addr:postcode": "31139", "addr:state": "GA", "addr:street_address": "2997 COBB PARKWAY STE 300", "amenity": "post_box", "brand": "United States Postal Service", "brand:wikidata": "Q668687", "collection_times": "Mo-Fr 17:00", "indoor": "yes", "note": "ON 12/24 AND 12/31, THIS BOX MAY BE COLLECTED AS EARLY AS 12 NOON.", "nsi_id": "unitedstatespostalservice-a77078", "operator": "United States Postal Service", "operator:short": "USPS", "operator:type": "public", "operator:wikidata": "Q668687", "ref": "3113900000"}, "type": "Feature"}
{"geometry": {"coordinates": [-84.458745, 33.87926], "type": "Point"}, "id": "I2knE7HUCqZonzcEDtz12sj6REw=", "properties": {"@source_uri": "https://tools.usps.com/UspsToolsRestServices/rest/POLocator/findLocations", "@spider": "usps_collection_boxes", "addr:city": "ATLANTA", "addr:country": "US", "addr:postcode": "31139", "addr:state": "GA", "addr:street_address": "2997 COBB PKWY SUITE 300", "amenity": "post_box", "brand": "United States Postal Service", "brand:wikidata": "Q668687", "collection_times": "Mo-Fr 17:00", "name": "USPS COLLECTION BOX - APC", "note": "ON 12/24 AND 12/31, THIS BOX MAY BE COLLECTED AS EARLY AS 12 NOON.", "nsi_id": "unitedstatespostalservice-a77078", "operator": "United States Postal Service", "operator:short": "USPS", "operator:type": "public", "operator:wikidata": "Q668687", "ref": "3113900001"}, "type": "Feature"}
{"geometry": {"coordinates": [-84.2569741709, 33.8524025617], "type": "Point"}, "id": "DyFhXhqz1fvbw8DlL7qQiu2XMeg=", "properties": {"@source_uri": "https://tools.usps.com/UspsToolsRestServices/rest/POLocator/findLocations", "@spider": "usps_collection_boxes", "addr:city": "ATLANTA", "addr:country": "US", "addr:postcode": "31145", "addr:state": "GA", "addr:street_address": "3212 NORTHLAKE PKWY", "amenity": "post_box", "brand": "United States Postal Service", "brand:wikidata": "Q668687", "collection_times": "Mo-Fr 17:00", "indoor": "yes", "note": "ON 12/24 AND 12/31, THIS BOX MAY BE COLLECTED AS EARLY AS 12 NOON.", "nsi_id": "unitedstatespostalservice-a77078", "operator": "United States Postal Service", "operator:short": "USPS", "operator:type": "public", "operator:wikidata": "Q668687", "ref": "3114500000"}, "type": "Feature"}
{"geometry": {"coordinates": [-84.337391, 33.931871], "type": "Point"}, "id": "zmm_Jeiq-4BmzLeABtbT1tTNcD0=", "properties": {"@source_uri": "https://tools.usps.com/UspsToolsRestServices/rest/POLocator/findLocations", "@spider": "usps_collection_boxes", "addr:city": "ATLANTA", "addr:country": "US", "addr:postcode": "31146", "addr:state": "GA", "addr:street_address": "4707 ASHFORD DUNWOODY RD", "amenity": "post_box", "brand": "United States Postal Service", "brand:wikidata": "Q668687", "collection_times": "Mo-Fr 17:00", "indoor": "yes", "note": "ON 12/24 AND 12/31, THIS BOX MAY BE COLLECTED AS EARLY AS 12 NOON.", "nsi_id": "unitedstatespostalservice-a77078", "operator": "United States Postal Service", "operator:short": "USPS", "operator:type": "public", "operator:wikidata": "Q668687", "ref": "3114600003"}, "type": "Feature"}
{"geometry": {"coordinates": [-84.3637230268, 33.9611099819], "type": "Point"}, "id": "zblaMP3lnWq7L4KwqsaBNaet75I=", "properties": {"@source_uri": "https://tools.usps.com/UspsToolsRestServices/rest/POLocator/findLocations", "@spider": "usps_collection_boxes", "addr:city": "ATLANTA", "addr:country": "US", "addr:postcode": "31156", "addr:state": "GA", "addr:street_address": "7527 ROSWELL RD NE", "amenity": "post_box", "brand": "United States Postal Service", "brand:wikidata": "Q668687", "collection_times": "Mo-Fr 17:00; Sa 10:30", "note": "ON 12/24 AND 12/31, THIS BOX MAY BE COLLECTED AS EARLY AS 12 NOON.", "nsi_id": "unitedstatespostalservice-a77078", "operator": "United States Postal Service", "operator:short": "USPS", "operator:type": "public", "operator:wikidata": "Q668687", "ref": "3115600000"}, "type": "Feature"}
{"geometry": {"coordinates": [-84.365558, 33.960443], "type": "Point"}, "id": "Z4sGN6JEb_2fHnKkYHsj2mj1-4M=", "properties": {"@source_uri": "https://tools.usps.com/UspsToolsRestServices/rest/POLocator/findLocations", "@spider": "usps_collection_boxes", "addr:city": "ATLANTA", "addr:country": "US", "addr:postcode": "31156", "addr:state": "GA", "addr:street_address": "7527 ROSWELL RD NE", "amenity": "post_box", "brand": "United States Postal Service", "brand:wikidata": "Q668687", "collection_times": "Mo-Fr 17:00", "indoor": "yes", "note": "ON 12/24 AND 12/31, THIS BOX MAY BE COLLECTED AS EARLY AS 12 NOON.", "nsi_id": "unitedstatespostalservice-a77078", "operator": "United States Postal Service", "operator:short": "USPS", "operator:type": "public", "operator:wikidata": "Q668687", "ref": "3115600004"}, "type": "Feature"}
