{"geometry": {"coordinates": [-83.633429168, 32.83408971], "type": "Point"}, "id": "W2MtmBb-wSavCOtltcsHrxRNe28=", "properties": {"@source_uri": "https://tools.usps.com/UspsToolsRestServices/rest/POLocator/findLocations", "@spider": "usps_collection_boxes", "addr:city": "MACON", "addr:country": "US", "addr:postcode": "31201", "addr:state": "GA", "addr:street_address": "654 1ST ST", "amenity": "post_box", "brand": "United States Postal Service", "brand:wikidata": "Q668687", "collection_times": "Mo-Sa 15:50", "note": "ON 12/24 AND 12/31, THIS BOX MAY BE COLLECTED AS EARLY AS 12 NOON.", "nsi_id": "unitedstatespostalservice-a77078", "operator": "United States Postal Service", "operator:short": "USPS", "operator:type": "public", "operator:wikidata": "Q668687", "ref": "3120100039"}, "type": "Feature"}
{"geometry": {"coordinates": [-83.625772979, 32.836908006], "type": "Point"}, "id": "PdlO3fX_9vRglWY2x_OJ15vdngk=", "properties": {"@source_uri": "https://tools.usps.com/UspsToolsRestServices/rest/POLocator/findLocations", "@spider": "usps_collection_boxes", "addr:city": "MACON", "addr:country": "US", "addr:postcode": "31201", "addr:state": "GA", "addr:street_address": "475 MULBERRY ST", "amenity": "post_box", "brand": "United States Postal Service", "brand:wikidata": "Q668687", "collection_times": "Mo-Fr 17:00", "indoor": "yes", "note": "ON 12/24 AND 12/31, THIS BOX MAY BE COLLECTED AS EARLY AS 12 NOON.", "nsi_id": "unitedstatespostalservice-a77078", "operator": "United States Postal Service", "operator:short": "USPS", "operator:type": "public", "operator:wikidata": "Q668687", "ref": "3120100072"}, "type": "Feature"}
{"geometry": {"coordinates": [-83.625787485, 32.836786447], "type": "Point"}, "id": "PWluxit1BmhMPFy0c7pfeXGZACE=", "properties": {"@source_uri": "https://tools.usps.com/UspsToolsRestServices/rest/POLocator/findLocations", "@spider": "usps_collection_boxes", "addr:city": "MACON", "addr:country": "US", "addr:postcode": "31201", "addr:state": "GA", "addr:street_address": "475 MULBERRY ST", "amenity": "post_box", "brand": "United States Postal Service", "brand:wikidata": "Q668687", "collection_times": "Mo-Sa 17:15", "note": "ON 12/24 AND 12/31, THIS BOX MAY BE COLLECTED AS EARLY AS 12 NOON.", "nsi_id": "unitedstatespostalservice-a77078", "operator": "United States Postal Service", "operator:short": "USPS", "operator:type": "public", "operator:wikidata": "Q668687", "ref": "3120100074"}, "type": "Feature"}
{"geometry": {"coordinates": [-83.636969359, 32.829772119], "type": "Point"}, "id": "9nepoSVRBxB8puQbwxg1x9QvsSg=", "properties": {"@source_uri": "https://tools.usps.com/UspsToolsRestServices/rest/POLocator/findLocations", "@spider": "usps_collection_boxes", "addr:city": "MACON", "addr:country": "US", "addr:postcode": "31201", "addr:state": "GA", "addr:street_address": "668 OGLETHORPE ST", "amenity": "post_box", "brand": "United States Postal Service", "brand:wikidata": "Q668687", "collection_times": "Mo-Sa 15:45", "note": "ON 12/24 AND 12/31, THIS BOX MAY BE COLLECTED AS EARLY AS 12 NOON.", "nsi_id": "unitedstatespostalservice-a77078", "operator": "United States Postal Service", "operator:short": "USPS", "operator:type": "public", "operator:wikidata": "Q668687", "ref": "3120100087"}, "type": "Feature"}
{"geometry": {"coordinates": [-83.629957697, 32.832713684], "type": "Point"}, "id": "ieM6cKaq0M1kJSe2KumsNuRhDnA=", "properties": {"@source_uri": "https://tools.usps.com/UspsToolsRestServices/rest/POLocator/findLocations", "@spider": "usps_collection_boxes", "addr:city": "MACON", "addr:country": "US", "addr:postcode": "31201", "addr:state": "GA", "addr:street_address": "610 3RD ST", "amenity": "post_box", "brand": "United States Postal Service", "brand:wikidata": "Q668687", "collection_times": "Mo-Sa 15:50", "note": "ON 12/24 AND 12/31, THIS BOX MAY BE COLLECTED AS EARLY AS 12 NOON.", "nsi_id": "unitedstatespostalservice-a77078", "operator": "United States Postal Service", "operator:short": "USPS", "operator:type": "public", "operator:wikidata": "Q668687", "ref": "3120100091"}, "type": "Feature"}
{"geometry": {"coordinates": [-83.628086794, 32.838226594], "type": "Point"}, "id": "sDsXHztXswT4JFSoEa2lDBgPOqg=", "properties": {"@source_uri": "https://tools.usps.com/UspsToolsRestServices/rest/POLocator/findLocations", "@spider": "usps_collection_boxes", "addr:city": "MACON", "addr:country": "US", "addr:postcode": "31201", "addr:state": "GA", "addr:street_address": "601 MULBERRY ST", "amenity": "post_box", "brand": "United States Postal Service", "brand:wikidata": "Q668687", "collection_times": "Mo-Sa 17:00", "note": "ON 12/24 AND 12/31, THIS BOX MAY BE COLLECTED AS EARLY AS 12 NOON.", "nsi_id": "unitedstatespostalservice-a77078", "operator": "United States Postal Service", "operator:short": "USPS", "operator:type": "public", "operator:wikidata": "Q668687", "ref": "3120100098"}, "type": "Feature"}
{"geometry": {"coordinates": [-83.635584907, 32.832587276], "type": "Point"}, "id": "Sn4-X8kKT6Zrsn6mGUIIHEaPVys=", "properties": {"@source_uri": "https://tools.usps.com/UspsToolsRestServices/rest/POLocator/findLocations", "@spider": "usps_collection_boxes", "addr:city": "MACON", "addr:country": "US", "addr:postcode": "31201", "addr:state": "GA", "addr:street_address": "740 HEMLOCK ST", "amenity": "post_box", "brand": "United States Postal Service", "brand:wikidata": "Q668687", "collection_times": "Mo-Sa 16:20", "note": "ON 12/24 AND 12/31, THIS BOX MAY BE COLLECTED AS EARLY AS 12 NOON.", "nsi_id": "unitedstatespostalservice-a77078", "operator": "United States Postal Service", "operator:short": "USPS", "operator:type": "public", "operator:wikidata": "Q668687", "ref": "3120100138"}, "type": "Feature"}
{"geometry": {"coordinates": [-83.635176631, 32.834349277], "type": "Point"}, "id": "3bvfk8eGqKEg2iJiClgQnzoJIwM=", "properties": {"@source_uri": "https://tools.usps.com/UspsToolsRestServices/rest/POLocator/findLocations", "@spider": "usps_collection_boxes", "addr:city": "MACON", "addr:country": "US", "addr:postcode": "31201", "addr:state": "GA", "addr:street_address": "770 PINE ST", "amenity": "post_box", "brand": "United States Postal Service", "brand:wikidata": "Q668687", "collection_times": "Mo-Sa 16:15", "note": "ON 12/24 AND 12/31, THIS BOX MAY BE COLLECTED AS EARLY AS 12 NOON.", "nsi_id": "unitedstatespostalservice-a77078", "operator": "United States Postal Service", "operator:short": "USPS", "operator:type": "public", "operator:wikidata": "Q668687", "ref": "3120100139"}, "type": "Feature"}
{"geometry": {"coordinates": [-83.623366343, 32.835634373], "type": "Point"}, "id": "4XEOueFhIvr9SPdsjFgCu0YL84A=", "properties": {"@source_uri": "https://tools.usps.com/UspsToolsRestServices/rest/POLocator/findLocations", "@spider": "usps_collection_boxes", "addr:city": "MACON", "addr:country": "US", "addr:postcode": "31201", "addr:state": "GA", "addr:street_address": "277 MARTIN LUTHER KING JR BLVD", "amenity": "post_box", "brand": "United States Postal Service", "brand:wikidata": "Q668687", "collection_times": "Mo-Sa 16:45", "note": "ON 12/24 AND 12/31, THIS BOX MAY BE COLLECTED AS EARLY AS 12 NOON.", "nsi_id": "unitedstatespostalservice-a77078", "operator": "United States Postal Service", "operator:short": "USPS", "operator:type": "public", "operator:wikidata": "Q668687", "ref": "3120100148"}, "type": "Feature"}
{"geometry": {"coordinates": [-83.641099546, 32.83974545], "type": "Point"}, "id": "VJCevBPiQT02iUxqH-ZbIzJy1oc=", "properties": {"@source_uri": "https://tools.usps.com/UspsToolsRestServices/rest/POLocator/findLocations", "@spider": "usps_collection_boxes", "addr:city": "MACON", "addr:country": "US", "addr:postcode": "31201", "addr:state": "GA", "addr:street_address": "1314 HARDEMAN AVE", "amenity": "post_box", "brand": "United States Postal Service", "brand:wikidata": "Q668687", "collection_times": "Mo-Sa 16:45", "note": "ON 12/24 AND 12/31, THIS BOX MAY BE COLLECTED AS EARLY AS 12 NOON.", "nsi_id": "unitedstatespostalservice-a77078", "operator": "United States Postal Service", "operator:short": "USPS", "operator:type": "public", "operator:wikidata": "Q668687", "ref": "3120100150"}, "type": "Feature"}
{"geometry": {"coordinates": [-83.627215574, 32.837292368], "type": "Point"}, "id": "SLEEh1fFAxYD512O0NLBHHkkxNA=", "properties": {"@source_uri": "https://tools.usps.com/UspsToolsRestServices/rest/POLocator/findLocations", "@spider": "usps_collection_boxes", "addr:city": "MACON", "addr:country": "US", "addr:postcode": "31201", "addr:state": "GA", "addr:street_address": "544 MULBERRY ST", "amenity": "post_box", "brand": "United States Postal Service", "brand:wikidata": "Q668687", "collection_times": "Mo-Sa 17:00", "note": "ON 12/24 AND 12/31, THIS BOX MAY BE COLLECTED AS EARLY AS 12 NOON.", "nsi_id": "unitedstatespostalservice-a77078", "operator": "United States Postal Service", "operator:short": "USPS", "operator:type": "public", "operator:wikidata": "Q668687", "ref": "3120100156"}, "type": "Feature"}
{"geometry": {"coordinates": [-83.629173459, 32.83661152], "type": "Point"}, "id": "WRD3qneEX9jJ2ru7Qq8-85TC8qA=", "properties": {"@source_uri": "https://tools.usps.com/UspsToolsRestServices/rest/POLocator/findLocations", "@spider": "usps_collection_boxes", "addr:city": "MACON", "addr:country": "US", "addr:postcode": "31201", "addr:state": "GA", "addr:street_address": "606 CHERRY ST", "amenity": "post_box", "brand": "United States Postal Service", "brand:wikidata": "Q668687", "collection_times": "Mo-Sa 16:45", "note": "ON 12/24 AND 12/31, THIS BOX MAY BE COLLECTED AS EARLY AS 12 NOON.", "nsi_id": "unitedstatespostalservice-a77078", "operator": "United States Postal Service", "operator:short": "USPS", "operator:type": "public", "operator:wikidata": "Q668687", "ref": "3120100157"}, "type": "Feature"}
{"geometry": {"coordinates": [-83.625772979, 32.836908006], "type": "Point"}, "id": "Q43Zoxfmt5x2EpgC_Y4syKARA4Q=", "properties": {"@source_uri": "https://tools.usps.com/UspsToolsRestServices/rest/POLocator/findLocations", "@spider": "usps_collection_boxes", "addr:city": "MACON", "addr:country": "US", "addr:postcode": "31201", "addr:state": "GA", "addr:street_address": "475 MULBERRY ST", "amenity": "post_box", "brand": "United States Postal Service", "brand:wikidata": "Q668687", "collection_times": "Mo-Fr 17:00", "indoor": "yes", "note": "ON 12/24 AND 12/31, THIS BOX MAY BE COLLECTED AS EARLY AS 12 NOON.", "nsi_id": "unitedstatespostalservice-a77078", "operator": "United States Postal Service", "operator:short": "USPS", "operator:type": "public", "operator:wikidata": "Q668687", "ref": "3120100158"}, "type": "Feature"}
{"geometry": {"coordinates": [-83.685230193, 32.852774544], "type": "Point"}, "id": "324BjLLqXakkLaYwgAx3Nesskss=", "properties": {"@source_uri": "https://tools.usps.com/UspsToolsRestServices/rest/POLocator/findLocations", "@spider": "usps_collection_boxes", "addr:city": "MACON", "addr:country": "US", "addr:postcode": "31204", "addr:state": "GA", "addr:street_address": "3600 BROOKDALE AVE", "amenity": "post_box", "brand": "United States Postal Service", "brand:wikidata": "Q668687", "collection_times": "Mo-Sa 14:55", "note": "ON 12/24 AND 12/31, THIS BOX MAY BE COLLECTED AS EARLY AS 12 NOON.", "nsi_id": "unitedstatespostalservice-a77078", "operator": "United States Postal Service", "operator:short": "USPS", "operator:type": "public", "operator:wikidata": "Q668687", "ref": "3120400005"}, "type": "Feature"}
{"geometry": {"coordinates": [-83.668495, 32.828505], "type": "Point"}, "id": "LH_Em9E3WOAx4knW59tW752d3U0=", "properties": {"@source_uri": "https://tools.usps.com/UspsToolsRestServices/rest/POLocator/findLocations", "@spider": "usps_collection_boxes", "addr:city": "MACON", "addr:country": "US", "addr:postcode": "31204", "addr:state": "GA", "addr:street_address": "3105 HILLCREST AVE", "amenity": "post_box", "brand": "United States Postal Service", "brand:wikidata": "Q668687", "collection_times": "Mo-Sa 14:50", "note": "ON 12/24 AND 12/31, THIS BOX MAY BE COLLECTED AS EARLY AS 12 NOON.", "nsi_id": "unitedstatespostalservice-a77078", "operator": "United States Postal Service", "operator:short": "USPS", "operator:type": "public", "operator:wikidata": "Q668687", "ref": "3120400016"}, "type": "Feature"}
{"geometry": {"coordinates": [-83.6990660167, 32.8374089919], "type": "Point"}, "id": "OabeUVD033yxAMz_13qpk9SPiFM=", "properties": {"@source_uri": "https://tools.usps.com/UspsToolsRestServices/rest/POLocator/findLocations", "@spider": "usps_collection_boxes", "addr:city": "MACON", "addr:country": "US", "addr:postcode": "31204", "addr:state": "GA", "addr:street_address": "3867 LOG CABIN DR", "amenity": "post_box", "brand": "United States Postal Service", "brand:wikidata": "Q668687", "collection_times": "Mo-Sa 12:00", "nsi_id": "unitedstatespostalservice-a77078", "operator": "United States Postal Service", "operator:short": "USPS", "operator:type": "public", "operator:wikidata": "Q668687", "ref": "3120400023"}, "type": "Feature"}
{"geometry": {"coordinates": [-83.662507573, 32.848943278], "type": "Point"}, "id": "pmkq4-9FcicX_qh4ahzm9u4GTVs=", "properties": {"@source_uri": "https://tools.usps.com/UspsToolsRestServices/rest/POLocator/findLocations", "@spider": "usps_collection_boxes", "addr:city": "MACON", "addr:country": "US", "addr:postcode": "31204", "addr:state": "GA", "addr:street_address": "200 PIERCE AVE", "amenity": "post_box", "brand": "United States Postal Service", "brand:wikidata": "Q668687", "collection_times": "Mo-Sa 17:10", "note": "ON 12/24 AND 12/31, THIS BOX MAY BE COLLECTED AS EARLY AS 12 NOON.", "nsi_id": "unitedstatespostalservice-a77078", "operator": "United States Postal Service", "operator:short": "USPS", "operator:type": "public", "operator:wikidata": "Q668687", "ref": "3120400037"}, "type": "Feature"}
{"geometry": {"coordinates": [-83.668495, 32.828505], "type": "Point"}, "id": "VsrDoPyEdhoimL41TRBZ725IfG4=", "properties": {"@source_uri": "https://tools.usps.com/UspsToolsRestServices/rest/POLocator/findLocations", "@spider": "usps_collection_boxes", "addr:city": "MACON", "addr:country": "US", "addr:postcode": "31204", "addr:state": "GA", "addr:street_address": "3095 VINEVILLE AVE", "amenity": "post_box", "brand": "United States Postal Service", "brand:wikidata": "Q668687", "collection_times": "Mo-Sa 15:05", "note": "ON 12/24 AND 12/31, THIS BOX MAY BE COLLECTED AS EARLY AS 12 NOON.", "nsi_id": "unitedstatespostalservice-a77078", "operator": "United States Postal Service", "operator:short": "USPS", "operator:type": "public", "operator:wikidata": "Q668687", "ref": "3120400052"}, "type": "Feature"}
{"geometry": {"coordinates": [-83.662421442, 32.837445343], "type": "Point"}, "id": "g5IZMh_v2faTGDIscamzO66H_VI=", "properties": {"@source_uri": "https://tools.usps.com/UspsToolsRestServices/rest/POLocator/findLocations", "@spider": "usps_collection_boxes", "addr:city": "MACON", "addr:country": "US", "addr:postcode": "31204", "addr:state": "GA", "addr:street_address": "1040 PIO NONO AVE", "amenity": "post_box", "brand": "United States Postal Service", "brand:wikidata": "Q668687", "collection_times": "Mo-Fr 17:00", "indoor": "yes", "note": "ON 12/24 AND 12/31, THIS BOX MAY BE COLLECTED AS EARLY AS 12 NOON.", "nsi_id": "unitedstatespostalservice-a77078", "operator": "United States Postal Service", "operator:short": "USPS", "operator:type": "public", "operator:wikidata": "Q668687", "ref": "3120400071"}, "type": "Feature"}
{"geometry": {"coordinates": [-83.662421442, 32.837445343], "type": "Point"}, "id": "R6q7ly9fsIe_j5x0qFHVsC_J7ew=", "properties": {"@source_uri": "https://tools.usps.com/UspsToolsRestServices/rest/POLocator/findLocations", "@spider": "usps_collection_boxes", "addr:city": "MACON", "addr:country": "US", "addr:postcode": "31204", "addr:state": "GA", "addr:street_address": "1040 PIO NONO AVE", "amenity": "post_box", "brand": "United States Postal Service", "brand:wikidata": "Q668687", "collection_times": "Mo-Fr 17:00", "indoor": "yes", "note": "ON 12/24 AND 12/31, THIS BOX MAY BE COLLECTED AS EARLY AS 12 NOON.", "nsi_id": "unitedstatespostalservice-a77078", "operator": "United States Postal Service", "operator:short": "USPS", "operator:type": "public", "operator:wikidata": "Q668687", "ref": "3120400083"}, "type": "Feature"}
{"geometry": {"coordinates": [-83.668495, 32.828505], "type": "Point"}, "id": "pa1hIhMCbAmK6lpYdCDI2keZdtA=", "properties": {"@source_uri": "https://tools.usps.com/UspsToolsRestServices/rest/POLocator/findLocations", "@spider": "usps_collection_boxes", "addr:city": "MACON", "addr:country": "US", "addr:postcode": "31204", "addr:state": "GA", "addr:street_address": "2976 RIVERSIDE DR", "amenity": "post_box", "brand": "United States Postal Service", "brand:wikidata": "Q668687", "collection_times": "Mo-Sa 12:00", "nsi_id": "unitedstatespostalservice-a77078", "operator": "United States Postal Service", "operator:short": "USPS", "operator:type": "public", "operator:wikidata": "Q668687", "ref": "3120400088"}, "type": "Feature"}
{"geometry": {"coordinates": [-83.6462334, 32.8131708], "type": "Point"}, "id": "K9SnQtnzBWSpCNlfn8WMU2EM13U=", "properties": {"@source_uri": "https://tools.usps.com/UspsToolsRestServices/rest/POLocator/findLocations", "@spider": "usps_collection_boxes", "addr:city": "MACON", "addr:country": "US", "addr:postcode": "31206", "addr:state": "GA", "addr:street_address": "1740 ROCKY CREEK RD", "amenity": "post_box", "brand": "United States Postal Service", "brand:wikidata": "Q668687", "collection_times": "Mo-Fr 17:00; Sa 15:00", "note": "ON 12/24 AND 12/31, THIS BOX MAY BE COLLECTED AS EARLY AS 12 NOON.", "nsi_id": "unitedstatespostalservice-a77078", "operator": "United States Postal Service", "operator:short": "USPS", "operator:type": "public", "operator:wikidata": "Q668687", "ref": "3120600027"}, "type": "Feature"}
{"geometry": {"coordinates": [-83.676520231, 32.786178886], "type": "Point"}, "id": "vm1ZG_9xd-847jpuXYA-DplbpmQ=", "properties": {"@source_uri": "https://tools.usps.com/UspsToolsRestServices/rest/POLocator/findLocations", "@spider": "usps_collection_boxes", "addr:city": "MACON", "addr:country": "US", "addr:postcode": "31206", "addr:state": "GA", "addr:street_address": "1740 ROCKY CREEK RD", "amenity": "post_box", "brand": "United States Postal Service", "brand:wikidata": "Q668687", "collection_times": "Mo-Fr 17:30; Sa 15:00", "indoor": "yes", "note": "ON 12/24 AND 12/31, THIS BOX MAY BE COLLECTED AS EARLY AS 12 NOON.", "nsi_id": "unitedstatespostalservice-a77078", "operator": "United States Postal Service", "operator:short": "USPS", "operator:type": "public", "operator:wikidata": "Q668687", "ref": "3120600101"}, "type": "Feature"}
{"geometry": {"coordinates": [-83.676520231, 32.786178886], "type": "Point"}, "id": "o7Vbz8TE37H5Sz-7reSW77Mkj8I=", "properties": {"@source_uri": "https://tools.usps.com/UspsToolsRestServices/rest/POLocator/findLocations", "@spider": "usps_collection_boxes", "addr:city": "MACON", "addr:country": "US", "addr:postcode": "31206", "addr:state": "GA", "addr:street_address": "1740 ROCKY CREEK RD", "amenity": "post_box", "brand": "United States Postal Service", "brand:wikidata": "Q668687", "collection_times": "Mo-Fr 17:30; Sa 15:00", "indoor": "yes", "note": "ON 12/24 AND 12/31, THIS BOX MAY BE COLLECTED AS EARLY AS 12 NOON.", "nsi_id": "unitedstatespostalservice-a77078", "operator": "United States Postal Service", "operator:short": "USPS", "operator:type": "public", "operator:wikidata": "Q668687", "ref": "3120600109"}, "type": "Feature"}
{"geometry": {"coordinates": [-83.6462334, 32.8131708], "type": "Point"}, "id": "DqyiI0TvKKx6l-sv7CMr0sRXV94=", "properties": {"@source_uri": "https://tools.usps.com/UspsToolsRestServices/rest/POLocator/findLocations", "@spider": "usps_collection_boxes", "addr:city": "MACON", "addr:country": "US", "addr:postcode": "31206", "addr:state": "GA", "addr:street_address": "4634 PRESIDENTIAL PKWY", "amenity": "post_box", "brand": "United States Postal Service", "brand:wikidata": "Q668687", "collection_times": "Mo-Sa 12:00", "nsi_id": "unitedstatespostalservice-a77078", "operator": "United States Postal Service", "operator:short": "USPS", "operator:type": "public", "operator:wikidata": "Q668687", "ref": "3120600112"}, "type": "Feature"}
{"geometry": {"coordinates": [-83.694012393, 32.87098907], "type": "Point"}, "id": "te3jco9FHU5UzJhzfV67vVefnaU=", "properties": {"@source_uri": "https://tools.usps.com/UspsToolsRestServices/rest/POLocator/findLocations", "@spider": "usps_collection_boxes", "addr:city": "MACON", "addr:country": "US", "addr:postcode": "31210", "addr:state": "GA", "addr:street_address": "400 CHARTER BLVD", "amenity": "post_box", "brand": "United States Postal Service", "brand:wikidata": "Q668687", "collection_times": "Mo-Sa 10:00", "nsi_id": "unitedstatespostalservice-a77078", "operator": "United States Postal Service", "operator:short": "USPS", "operator:type": "public", "operator:wikidata": "Q668687", "ref": "3121000006"}, "type": "Feature"}
{"geometry": {"coordinates": [-83.723272031, 32.8756909877], "type": "Point"}, "id": "SyfxLSMABrhzJQg6uQ9Y76NumbI=", "properties": {"@source_uri": "https://tools.usps.com/UspsToolsRestServices/rest/POLocator/findLocations", "@spider": "usps_collection_boxes", "addr:city": "MACON", "addr:country": "US", "addr:postcode": "31210", "addr:state": "GA", "addr:street_address": "100 COVINGTON PL", "amenity": "post_box", "brand": "United States Postal Service", "brand:wikidata": "Q668687", "collection_times": "Mo-Sa 11:00", "nsi_id": "unitedstatespostalservice-a77078", "operator": "United States Postal Service", "operator:short": "USPS", "operator:type": "public", "operator:wikidata": "Q668687", "ref": "3121000014"}, "type": "Feature"}
{"geometry": {"coordinates": [-83.6982, 32.8899], "type": "Point"}, "id": "4meikIWOqTvYS7lWf7Xtnu73RV4=", "properties": {"@source_uri": "https://tools.usps.com/UspsToolsRestServices/rest/POLocator/findLocations", "@spider": "usps_collection_boxes", "addr:city": "MACON", "addr:country": "US", "addr:postcode": "31210", "addr:state": "GA", "addr:street_address": "3312 NORTHSIDE DR", "amenity": "post_box", "brand": "United States Postal Service", "brand:wikidata": "Q668687", "collection_times": "Mo-Sa 15:55", "note": "ON 12/24 AND 12/31, THIS BOX MAY BE COLLECTED AS EARLY AS 12 NOON.", "nsi_id": "unitedstatespostalservice-a77078", "operator": "United States Postal Service", "operator:short": "USPS", "operator:type": "public", "operator:wikidata": "Q668687", "ref": "3121000022"}, "type": "Feature"}
{"geometry": {"coordinates": [-83.689360526, 32.898206935], "type": "Point"}, "id": "1Ipm0hRh8GZNscSi6rLrQBx3Z0g=", "properties": {"@source_uri": "https://tools.usps.com/UspsToolsRestServices/rest/POLocator/findLocations", "@spider": "usps_collection_boxes", "addr:city": "MACON", "addr:country": "US", "addr:postcode": "31210", "addr:state": "GA", "addr:street_address": "220 TOM HILL SR BLVD", "amenity": "post_box", "brand": "United States Postal Service", "brand:wikidata": "Q668687", "collection_times": "Mo-Sa 16:15", "note": "ON 12/24 AND 12/31, THIS BOX MAY BE COLLECTED AS EARLY AS 12 NOON.", "nsi_id": "unitedstatespostalservice-a77078", "operator": "United States Postal Service", "operator:short": "USPS", "operator:type": "public", "operator:wikidata": "Q668687", "ref": "3121000036"}, "type": "Feature"}
{"geometry": {"coordinates": [-83.6982, 32.8899], "type": "Point"}, "id": "DSNO90aWXXDPhIRjGeFAQfDkamg=", "properties": {"@source_uri": "https://tools.usps.com/UspsToolsRestServices/rest/POLocator/findLocations", "@spider": "usps_collection_boxes", "addr:city": "MACON", "addr:country": "US", "addr:postcode": "31210", "addr:state": "GA", "addr:street_address": "5928 ZEBULON RD", "amenity": "post_box", "brand": "United States Postal Service", "brand:wikidata": "Q668687", "collection_times": "Mo-Sa 11:00", "nsi_id": "unitedstatespostalservice-a77078", "operator": "United States Postal Service", "operator:short": "USPS", "operator:type": "public", "operator:wikidata": "Q668687", "ref": "3121000053"}, "type": "Feature"}
{"geometry": {"coordinates": [-83.764104202, 32.882626111], "type": "Point"}, "id": "U1uDVmBqy5J_UgP3KdjMsB81Txg=", "properties": {"@source_uri": "https://tools.usps.com/UspsToolsRestServices/rest/POLocator/findLocations", "@spider": "usps_collection_boxes", "addr:city": "MACON", "addr:country": "US", "addr:postcode": "31210", "addr:state": "GA", "addr:street_address": "7040 PEAKE RD N", "amenity": "post_box", "brand": "United States Postal Service", "brand:wikidata": "Q668687", "collection_times": "Mo-Fr 17:00; Sa 15:00", "note": "ON 12/24 AND 12/31, THIS BOX MAY BE COLLECTED AS EARLY AS 12 NOON.", "nsi_id": "unitedstatespostalservice-a77078", "operator": "United States Postal Service", "operator:short": "USPS", "operator:type": "public", "operator:wikidata": "Q668687", "ref": "3121000058"}, "type": "Feature"}
{"geometry": {"coordinates": [-83.764104202, 32.882626111], "type": "Point"}, "id": "GrywxQQUsoo25ckBHyKK4HlPIjc=", "properties": {"@source_uri": "https://tools.usps.com/UspsToolsRestServices/rest/POLocator/findLocations", "@spider": "usps_collection_boxes", "addr:city": "MACON", "addr:country": "US", "addr:postcode": "31210", "addr:state": "GA", "addr:street_address": "7040 PEAKE RD N", "amenity": "post_box", "brand": "United States Postal Service", "brand:wikidata": "Q668687", "collection_times": "Mo-Fr 17:00; Sa 14:00", "indoor": "yes", "note": "ON 12/24 AND 12/31, THIS BOX MAY BE COLLECTED AS EARLY AS 12 NOON.", "nsi_id": "unitedstatespostalservice-a77078", "operator": "United States Postal Service", "operator:short": "USPS", "operator:type": "public", "operator:wikidata": "Q668687", "ref": "3121000062"}, "type": "Feature"}
{"geometry": {"coordinates": [-83.6982, 32.8899], "type": "Point"}, "id": "qWGU_TCXzCVJPwx4M447SI8VdIM=", "properties": {"@source_uri": "https://tools.usps.com/UspsToolsRestServices/rest/POLocator/findLocations", "@spider": "usps_collection_boxes", "addr:city": "MACON", "addr:country": "US", "addr:postcode": "31210", "addr:state": "GA", "addr:street_address": "105 BASS PLANTATION DR", "amenity": "post_box", "brand": "United States Postal Service", "brand:wikidata": "Q668687", "collection_times": "Mo-Sa 14:00", "note": "ON 12/24 AND 12/31, THIS BOX MAY BE COLLECTED AS EARLY AS 12 NOON.", "nsi_id": "unitedstatespostalservice-a77078", "operator": "United States Postal Service", "operator:short": "USPS", "operator:type": "public", "operator:wikidata": "Q668687", "ref": "3121000063"}, "type": "Feature"}
{"geometry": {"coordinates": [-83.764104202, 32.882626111], "type": "Point"}, "id": "iPbu8lsmAr7R2eFED3f3KQP0Gdc=", "properties": {"@source_uri": "https://tools.usps.com/UspsToolsRestServices/rest/POLocator/findLocations", "@spider": "usps_collection_boxes", "addr:city": "MACON", "addr:country": "US", "addr:postcode": "31210", "addr:state": "GA", "addr:street_address": "7040 PEAKE RD N", "amenity": "post_box", "brand": "United States Postal Service", "brand:wikidata": "Q668687", "collection_times": "Mo-Fr 17:00; Sa 13:30", "name": "USPS COLLECTION BOX - APC", "note": "ON 12/24 AND 12/31, THIS BOX MAY BE COLLECTED AS EARLY AS 12 NOON.", "nsi_id": "unitedstatespostalservice-a77078", "operator": "United States Postal Service", "operator:short": "USPS", "operator:type": "public", "operator:wikidata": "Q668687", "ref": "3121000065"}, "type": "Feature"}
{"geometry": {"coordinates": [-83.764104202, 32.882626111], "type": "Point"}, "id": "v3HPI9Z03xhE_sZk_iZRtHz1SNw=", "properties": {"@source_uri": "https://tools.usps.com/UspsToolsRestServices/rest/POLocator/findLocations", "@spider": "usps_collection_boxes", "addr:city": "MACON", "addr:country": "US", "addr:postcode": "31210", "addr:state": "GA", "addr:street_address": "7040 PEAKE RD N", "amenity": "post_box", "brand": "United States Postal Service", "brand:wikidata": "Q668687", "collection_times": "Mo-Fr 17:00; Sa 13:30", "name": "USPS COLLECTION BOX - APC", "note": "ON 12/24 AND 12/31, THIS BOX MAY BE COLLECTED AS EARLY AS 12 NOON.", "nsi_id": "unitedstatespostalservice-a77078", "operator": "United States Postal Service", "operator:short": "USPS", "operator:type": "public", "operator:wikidata": "Q668687", "ref": "3121000071"}, "type": "Feature"}
{"geometry": {"coordinates": [-83.764104202, 32.882626111], "type": "Point"}, "id": "mfqxeYdj3f-uGju_Kx7rzbKRZks=", "properties": {"@source_uri": "https://tools.usps.com/UspsToolsRestServices/rest/POLocator/findLocations", "@spider": "usps_collection_boxes", "addr:city": "MACON", "addr:country": "US", "addr:postcode": "31210", "addr:state": "GA", "addr:street_address": "7040 PEAKE RD N", "amenity": "post_box", "brand": "United States Postal Service", "brand:wikidata": "Q668687", "collection_times": "Mo-Fr 17:00; Sa 14:00", "indoor": "yes", "note": "ON 12/24 AND 12/31, THIS BOX MAY BE COLLECTED AS EARLY AS 12 NOON.", "nsi_id": "unitedstatespostalservice-a77078", "operator": "United States Postal Service", "operator:short": "USPS", "operator:type": "public", "operator:wikidata": "Q668687", "ref": "3121000079"}, "type": "Feature"}
{"geometry": {"coordinates": [-83.618029412, 32.854888926], "type": "Point"}, "id": "WXDnx-Hwai5eMlQuDcvHym-M-ug=", "properties": {"@source_uri": "https://tools.usps.com/UspsToolsRestServices/rest/POLocator/findLocations", "@spider": "usps_collection_boxes", "addr:city": "MACON", "addr:country": "US", "addr:postcode": "31211", "addr:state": "GA", "addr:street_address": "1036 GRAY HWY", "amenity": "post_box", "brand": "United States Postal Service", "brand:wikidata": "Q668687", "collection_times": "Mo-Sa 16:15", "note": "ON 12/24 AND 12/31, THIS BOX MAY BE COLLECTED AS EARLY AS 12 NOON.", "nsi_id": "unitedstatespostalservice-a77078", "operator": "United States Postal Service", "operator:short": "USPS", "operator:type": "public", "operator:wikidata": "Q668687", "ref": "3121100007"}, "type": "Feature"}
{"geometry": {"coordinates": [-83.559248833, 32.872318904], "type": "Point"}, "id": "X0LwaXPpkEI-AL8za2BTqaJOUVI=", "properties": {"@source_uri": "https://tools.usps.com/UspsToolsRestServices/rest/POLocator/findLocations", "@spider": "usps_collection_boxes", "addr:city": "MACON", "addr:country": "US", "addr:postcode": "31211", "addr:state": "GA", "addr:street_address": "2901 JOYCLIFF RD", "amenity": "post_box", "brand": "United States Postal Service", "brand:wikidata": "Q668687", "collection_times": "Mo-Sa 16:00", "note": "ON 12/24 AND 12/31, THIS BOX MAY BE COLLECTED AS EARLY AS 12 NOON.", "nsi_id": "unitedstatespostalservice-a77078", "operator": "United States Postal Service", "operator:short": "USPS", "operator:type": "public", "operator:wikidata": "Q668687", "ref": "3121100024"}, "type": "Feature"}
{"geometry": {"coordinates": [-83.639113212, 32.839253585], "type": "Point"}, "id": "P02qIy14mnc3YHSwVEQqGmEb-XE=", "properties": {"@source_uri": "https://tools.usps.com/UspsToolsRestServices/rest/POLocator/findLocations", "@spider": "usps_collection_boxes", "addr:city": "MACON", "addr:country": "US", "addr:postcode": "31213", "addr:state": "GA", "addr:street_address": "1205 HARDEMAN AVE", "amenity": "post_box", "brand": "United States Postal Service", "brand:wikidata": "Q668687", "collection_times": "Mo-Fr 18:30; Sa 15:30", "note": "ON 12/24 AND 12/31, THIS BOX MAY BE COLLECTED AS EARLY AS 12 NOON.", "nsi_id": "unitedstatespostalservice-a77078", "operator": "United States Postal Service", "operator:short": "USPS", "operator:type": "public", "operator:wikidata": "Q668687", "ref": "3121300004"}, "type": "Feature"}
{"geometry": {"coordinates": [-83.6400849489, 32.8406952083], "type": "Point"}, "id": "0uVXymLcKtts93PAhqrwe-xcMQI=", "properties": {"@source_uri": "https://tools.usps.com/UspsToolsRestServices/rest/POLocator/findLocations", "@spider": "usps_collection_boxes", "addr:city": "MACON", "addr:country": "US", "addr:postcode": "31213", "addr:state": "GA", "addr:street_address": "1300 GEORGIA AVE", "amenity": "post_box", "brand": "United States Postal Service", "brand:wikidata": "Q668687", "collection_times": "Mo-Fr 18:30; Sa 15:30", "note": "ON 12/24 AND 12/31, THIS BOX MAY BE COLLECTED AS EARLY AS 12 NOON.", "nsi_id": "unitedstatespostalservice-a77078", "operator": "United States Postal Service", "operator:short": "USPS", "operator:type": "public", "operator:wikidata": "Q668687", "ref": "3121300016"}, "type": "Feature"}
{"geometry": {"coordinates": [-83.638311546, 32.840625891], "type": "Point"}, "id": "B2KGsRIEYF6ydL-6xTwJKAH4syA=", "properties": {"@source_uri": "https://tools.usps.com/UspsToolsRestServices/rest/POLocator/findLocations", "@spider": "usps_collection_boxes", "addr:city": "MACON", "addr:country": "US", "addr:postcode": "31213", "addr:state": "GA", "addr:street_address": "451 COLLEGE ST", "amenity": "post_box", "brand": "United States Postal Service", "brand:wikidata": "Q668687", "collection_times": "Mo-Fr 18:30; Sa 15:30", "indoor": "yes", "note": "ON 12/24 AND 12/31, THIS BOX MAY BE COLLECTED AS EARLY AS 12 NOON.", "nsi_id": "unitedstatespostalservice-a77078", "operator": "United States Postal Service", "operator:short": "USPS", "operator:type": "public", "operator:wikidata": "Q668687", "ref": "3121300018"}, "type": "Feature"}
{"geometry": {"coordinates": [-83.638311546, 32.840625891], "type": "Point"}, "id": "fgee0QEvxaCuNn-tMkr_oNQUZq0=", "properties": {"@source_uri": "https://tools.usps.com/UspsToolsRestServices/rest/POLocator/findLocations", "@spider": "usps_collection_boxes", "addr:city": "MACON", "addr:country": "US", "addr:postcode": "31213", "addr:state": "GA", "addr:street_address": "451 COLLEGE ST", "amenity": "post_box", "brand": "United States Postal Service", "brand:wikidata": "Q668687", "collection_times": "Mo-Fr 18:30; Sa 15:30", "indoor": "yes", "note": "ON 12/24 AND 12/31, THIS BOX MAY BE COLLECTED AS EARLY AS 12 NOON.", "nsi_id": "unitedstatespostalservice-a77078", "operator": "United States Postal Service", "operator:short": "USPS", "operator:type": "public", "operator:wikidata": "Q668687", "ref": "3121300099"}, "type": "Feature"}
{"geometry": {"coordinates": [-83.713754655, 32.742739001], "type": "Point"}, "id": "8rzXKMxjplzBuHnx0kx2G66OOHw=", "properties": {"@source_uri": "https://tools.usps.com/UspsToolsRestServices/rest/POLocator/findLocations", "@spider": "usps_collection_boxes", "addr:city": "MACON", "addr:country": "US", "addr:postcode": "31216", "addr:state": "GA", "addr:street_address": "4312 HARTLEY BRIDGE RD", "amenity": "post_box", "brand": "United States Postal Service", "brand:wikidata": "Q668687", "collection_times": "Mo-Sa 16:50", "note": "ON 12/24 AND 12/31, THIS BOX MAY BE COLLECTED AS EARLY AS 12 NOON.", "nsi_id": "unitedstatespostalservice-a77078", "operator": "United States Postal Service", "operator:short": "USPS", "operator:type": "public", "operator:wikidata": "Q668687", "ref": "3121600001"}, "type": "Feature"}
{"geometry": {"coordinates": [-83.660407031, 32.706445323], "type": "Point"}, "id": "YU0hq8peDAQ1_xWeaMGJ9SDSbuU=", "properties": {"@source_uri": "https://tools.usps.com/UspsToolsRestServices/rest/POLocator/findLocations", "@spider": "usps_collection_boxes", "addr:city": "MACON", "addr:country": "US", "addr:postcode": "31216", "addr:state": "GA", "addr:street_address": "2499 INDUSTRIAL PARK DR", "amenity": "post_box", "brand": "United States Postal Service", "brand:wikidata": "Q668687", "collection_times": "Mo-Sa 16:30", "note": "ON 12/24 AND 12/31, THIS BOX MAY BE COLLECTED AS EARLY AS 12 NOON.", "nsi_id": "unitedstatespostalservice-a77078", "operator": "United States Postal Service", "operator:short": "USPS", "operator:type": "public", "operator:wikidata": "Q668687", "ref": "3121600008"}, "type": "Feature"}
{"geometry": {"coordinates": [-83.61223, 32.849655], "type": "Point"}, "id": "4lI5Kzux9Yb6VOTgO57jbBcGNlQ=", "properties": {"@source_uri": "https://tools.usps.com/UspsToolsRestServices/rest/POLocator/findLocations", "@spider": "usps_collection_boxes", "addr:city": "MACON", "addr:country": "US", "addr:postcode": "31217", "addr:state": "GA", "addr:street_address": "171 EMERY HWY", "amenity": "post_box", "brand": "United States Postal Service", "brand:wikidata": "Q668687", "collection_times": "Mo-Sa 17:00", "note": "ON 12/24 AND 12/31, THIS BOX MAY BE COLLECTED AS EARLY AS 12 NOON.", "nsi_id": "unitedstatespostalservice-a77078", "operator": "United States Postal Service", "operator:short": "USPS", "operator:type": "public", "operator:wikidata": "Q668687", "ref": "3121700005"}, "type": "Feature"}
{"geometry": {"coordinates": [-83.619617684, 32.84590329], "type": "Point"}, "id": "qMUT4-JdTxtqzK0FYDRg724MJew=", "properties": {"@source_uri": "https://tools.usps.com/UspsToolsRestServices/rest/POLocator/findLocations", "@spider": "usps_collection_boxes", "addr:city": "MACON", "addr:country": "US", "addr:postcode": "31217", "addr:state": "GA", "addr:street_address": "330 HOSPITAL DR", "amenity": "post_box", "brand": "United States Postal Service", "brand:wikidata": "Q668687", "collection_times": "Mo-Sa 16:40", "note": "ON 12/24 AND 12/31, THIS BOX MAY BE COLLECTED AS EARLY AS 12 NOON.", "nsi_id": "unitedstatespostalservice-a77078", "operator": "United States Postal Service", "operator:short": "USPS", "operator:type": "public", "operator:wikidata": "Q668687", "ref": "3121700012"}, "type": "Feature"}
{"geometry": {"coordinates": [-83.617798765, 32.846020573], "type": "Point"}, "id": "pp3vMU364lqwZD9-GfrpwV6PQEA=", "properties": {"@source_uri": "https://tools.usps.com/UspsToolsRestServices/rest/POLocator/findLocations", "@spider": "usps_collection_boxes", "addr:city": "MACON", "addr:country": "US", "addr:postcode": "31217", "addr:state": "GA", "addr:street_address": "380 HOSPITAL DR", "amenity": "post_box", "brand": "United States Postal Service", "brand:wikidata": "Q668687", "collection_times": "Mo-Sa 16:40", "note": "ON 12/24 AND 12/31, THIS BOX MAY BE COLLECTED AS EARLY AS 12 NOON.", "nsi_id": "unitedstatespostalservice-a77078", "operator": "United States Postal Service", "operator:short": "USPS", "operator:type": "public", "operator:wikidata": "Q668687", "ref": "3121700015"}, "type": "Feature"}
{"geometry": {"coordinates": [-83.569264179, 32.809572], "type": "Point"}, "id": "WF0pHtzJX2ePYXG9P8iNp7vCNis=", "properties": {"@source_uri": "https://tools.usps.com/UspsToolsRestServices/rest/POLocator/findLocations", "@spider": "usps_collection_boxes", "addr:city": "MACON", "addr:country": "US", "addr:postcode": "31217", "addr:state": "GA", "addr:street_address": "4295 OCMULGEE EAST BLVD", "amenity": "post_box", "brand": "United States Postal Service", "brand:wikidata": "Q668687", "collection_times": "Mo-Sa 15:45", "note": "ON 12/24 AND 12/31, THIS BOX MAY BE COLLECTED AS EARLY AS 12 NOON.", "nsi_id": "unitedstatespostalservice-a77078", "operator": "United States Postal Service", "operator:short": "USPS", "operator:type": "public", "operator:wikidata": "Q668687", "ref": "3121700023"}, "type": "Feature"}
{"geometry": {"coordinates": [-83.57417986, 32.841535481], "type": "Point"}, "id": "qV-flAfJCT35dvWgS0MA2SWARu4=", "properties": {"@source_uri": "https://tools.usps.com/UspsToolsRestServices/rest/POLocator/findLocations", "@spider": "usps_collection_boxes", "addr:city": "MACON", "addr:country": "US", "addr:postcode": "31217", "addr:state": "GA", "addr:street_address": "2900 JEFFERSONVILLE RD", "amenity": "post_box", "brand": "United States Postal Service", "brand:wikidata": "Q668687", "collection_times": "Mo-Sa 15:50", "note": "ON 12/24 AND 12/31, THIS BOX MAY BE COLLECTED AS EARLY AS 12 NOON.", "nsi_id": "unitedstatespostalservice-a77078", "operator": "United States Postal Service", "operator:short": "USPS", "operator:type": "public", "operator:wikidata": "Q668687", "ref": "3121700028"}, "type": "Feature"}
{"geometry": {"coordinates": [-83.568850066, 32.807220233], "type": "Point"}, "id": "AMqjkJy-4HegYDT1B8ooxegb2Tw=", "properties": {"@source_uri": "https://tools.usps.com/UspsToolsRestServices/rest/POLocator/findLocations", "@spider": "usps_collection_boxes", "addr:city": "MACON", "addr:country": "US", "addr:postcode": "31217", "addr:state": "GA", "addr:street_address": "4400 OCMULGEE EAST BLVD", "amenity": "post_box", "brand": "United States Postal Service", "brand:wikidata": "Q668687", "collection_times": "Mo-Sa 15:45", "note": "ON 12/24 AND 12/31, THIS BOX MAY BE COLLECTED AS EARLY AS 12 NOON.", "nsi_id": "unitedstatespostalservice-a77078", "operator": "United States Postal Service", "operator:short": "USPS", "operator:type": "public", "operator:wikidata": "Q668687", "ref": "3121700029"}, "type": "Feature"}
{"geometry": {"coordinates": [-83.7441930099, 32.8324350029], "type": "Point"}, "id": "ZLrbMCyfKCc-6Vi5ByNz4q6Hn5s=", "properties": {"@source_uri": "https://tools.usps.com/UspsToolsRestServices/rest/POLocator/findLocations", "@spider": "usps_collection_boxes", "addr:city": "MACON", "addr:country": "US", "addr:postcode": "31220", "addr:state": "GA", "addr:street_address": "5580 THOMASTON RD", "amenity": "post_box", "brand": "United States Postal Service", "brand:wikidata": "Q668687", "collection_times": "Mo-Sa 14:20", "note": "ON 12/24 AND 12/31, THIS BOX MAY BE COLLECTED AS EARLY AS 12 NOON.", "nsi_id": "unitedstatespostalservice-a77078", "operator": "United States Postal Service", "operator:short": "USPS", "operator:type": "public", "operator:wikidata": "Q668687", "ref": "3122000000"}, "type": "Feature"}
