{"geometry": {"coordinates": [-81.610239407, 31.786047698], "type": "Point"}, "id": "Rbo7xivfJbomq0HI1OBIE9GAWwc=", "properties": {"@source_uri": "https://tools.usps.com/UspsToolsRestServices/rest/POLocator/findLocations", "@spider": "usps_collection_boxes", "addr:city": "ALLENHURST", "addr:country": "US", "addr:postcode": "31301", "addr:state": "GA", "addr:street_address": "4282 W OGLETHORPE HWY", "amenity": "post_box", "collection_times": "Mo-Fr 16:30; Sa 11:45", "note": "ON 12/24 AND 12/31, THIS BOX MAY BE COLLECTED AS EARLY AS 12 NOON.", "nsi_id": "unitedstatespostalservice-a77078", "operator": "United States Postal Service", "operator:short": "USPS", "operator:type": "public", "operator:wikidata": "Q668687", "ref": "3130100001"}, "type": "Feature"}
{"geometry": {"coordinates": [-81.610239407, 31.786047698], "type": "Point"}, "id": "klzAkX4Xwuw0MpmFK-zKf06MBH4=", "properties": {"@source_uri": "https://tools.usps.com/UspsToolsRestServices/rest/POLocator/findLocations", "@spider": "usps_collection_boxes", "addr:city": "ALLENHURST", "addr:country": "US", "addr:postcode": "31301", "addr:state": "GA", "addr:street_address": "4282 W OGLETHORPE HWY", "amenity": "post_box", "collection_times": "Mo-Fr 16:45; Sa 12:00", "indoor": "yes", "note": "ON 12/24 AND 12/31, THIS BOX MAY BE COLLECTED AS EARLY AS 12 NOON.", "nsi_id": "unitedstatespostalservice-a77078", "operator": "United States Postal Service", "operator:short": "USPS", "operator:type": "public", "operator:wikidata": "Q668687", "ref": "3130100002"}, "type": "Feature"}
{"geometry": {"coordinates": [-81.610239407, 31.786047698], "type": "Point"}, "id": "GdMiKCRJ5Wxit22LrjM6ViLyO1s=", "properties": {"@source_uri": "https://tools.usps.com/UspsToolsRestServices/rest/POLocator/findLocations", "@spider": "usps_collection_boxes", "addr:city": "ALLENHURST", "addr:country": "US", "addr:postcode": "31301", "addr:state": "GA", "addr:street_address": "4282 W OGLETHORPE HWY", "amenity": "post_box", "collection_times": "Mo-Fr 16:45; Sa 12:00", "indoor": "yes", "note": "ON 12/24 AND 12/31, THIS BOX MAY BE COLLECTED AS EARLY AS 12 NOON.", "nsi_id": "unitedstatespostalservice-a77078", "operator": "United States Postal Service", "operator:short": "USPS", "operator:type": "public", "operator:wikidata": "Q668687", "ref": "3130100004"}, "type": "Feature"}
{"geometry": {"coordinates": [-81.294347597, 32.130691483], "type": "Point"}, "id": "1Nb2j9T0HELa6XnISghJ5X6HjnY=", "properties": {"@source_uri": "https://tools.usps.com/UspsToolsRestServices/rest/POLocator/findLocations", "@spider": "usps_collection_boxes", "addr:city": "BLOOMINGDALE", "addr:country": "US", "addr:postcode": "31302", "addr:state": "GA", "addr:street_address": "407 E US HIGHWAY 80", "amenity": "post_box", "collection_times": "Mo-Fr 16:00; Sa 12:00", "indoor": "yes", "note": "ON 12/24 AND 12/31, THIS BOX MAY BE COLLECTED AS EARLY AS 12 NOON.", "nsi_id": "unitedstatespostalservice-a77078", "operator": "United States Postal Service", "operator:short": "USPS", "operator:type": "public", "operator:wikidata": "Q668687", "ref": "3130200002"}, "type": "Feature"}
{"geometry": {"coordinates": [-81.294347597, 32.130691483], "type": "Point"}, "id": "fVSe1lvbXDjuaueEnlJndZw33lI=", "properties": {"@source_uri": "https://tools.usps.com/UspsToolsRestServices/rest/POLocator/findLocations", "@spider": "usps_collection_boxes", "addr:city": "BLOOMINGDALE", "addr:country": "US", "addr:postcode": "31302", "addr:state": "GA", "addr:street_address": "407 E US HIGHWAY 80", "amenity": "post_box", "collection_times": "Mo-Fr 16:00; Sa 12:00", "note": "ON 12/24 AND 12/31, THIS BOX MAY BE COLLECTED AS EARLY AS 12 NOON.", "nsi_id": "unitedstatespostalservice-a77078", "operator": "United States Postal Service", "operator:short": "USPS", "operator:type": "public", "operator:wikidata": "Q668687", "ref": "3130200003"}, "type": "Feature"}
{"geometry": {"coordinates": [-81.294347597, 32.130691483], "type": "Point"}, "id": "8YJXHeESLlsr8T64b2N2aLZyGEw=", "properties": {"@source_uri": "https://tools.usps.com/UspsToolsRestServices/rest/POLocator/findLocations", "@spider": "usps_collection_boxes", "addr:city": "BLOOMINGDALE", "addr:country": "US", "addr:postcode": "31302", "addr:state": "GA", "addr:street_address": "407 E US HIGHWAY 80", "amenity": "post_box", "collection_times": "Mo-Fr 16:00; Sa 12:00", "indoor": "yes", "note": "ON 12/24 AND 12/31, THIS BOX MAY BE COLLECTED AS EARLY AS 12 NOON.", "nsi_id": "unitedstatespostalservice-a77078", "operator": "United States Postal Service", "operator:short": "USPS", "operator:type": "public", "operator:wikidata": "Q668687", "ref": "3130200005"}, "type": "Feature"}
{"geometry": {"coordinates": [-81.268616947, 32.483528989], "type": "Point"}, "id": "BO9jkKqSxCGI4_7y-2nT4eOWjcU=", "properties": {"@source_uri": "https://tools.usps.com/UspsToolsRestServices/rest/POLocator/findLocations", "@spider": "usps_collection_boxes", "addr:city": "CLYO", "addr:country": "US", "addr:postcode": "31303", "addr:state": "GA", "addr:street_address": "5662 GA HIGHWAY 119 N", "amenity": "post_box", "collection_times": "Mo-Fr 13:00; Sa 11:00", "note": "ON 12/24 AND 12/31, THIS BOX MAY BE COLLECTED AS EARLY AS 12 NOON.", "nsi_id": "unitedstatespostalservice-a77078", "operator": "United States Postal Service", "operator:short": "USPS", "operator:type": "public", "operator:wikidata": "Q668687", "ref": "3130300002"}, "type": "Feature"}
{"geometry": {"coordinates": [-81.268616947, 32.483528989], "type": "Point"}, "id": "eVVQDj2wfgm4lgT201-ldS8e2dQ=", "properties": {"@source_uri": "https://tools.usps.com/UspsToolsRestServices/rest/POLocator/findLocations", "@spider": "usps_collection_boxes", "addr:city": "CLYO", "addr:country": "US", "addr:postcode": "31303", "addr:state": "GA", "addr:street_address": "5662 GA HIGHWAY 119 N", "amenity": "post_box", "collection_times": "Mo-Fr 13:00; Sa 11:00", "indoor": "yes", "note": "ON 12/24 AND 12/31, THIS BOX MAY BE COLLECTED AS EARLY AS 12 NOON.", "nsi_id": "unitedstatespostalservice-a77078", "operator": "United States Postal Service", "operator:short": "USPS", "operator:type": "public", "operator:wikidata": "Q668687", "ref": "3130300003"}, "type": "Feature"}
{"geometry": {"coordinates": [-81.268616947, 32.483528989], "type": "Point"}, "id": "KjwVmmnVe5xvp2o1vnGTvSnGWTA=", "properties": {"@source_uri": "https://tools.usps.com/UspsToolsRestServices/rest/POLocator/findLocations", "@spider": "usps_collection_boxes", "addr:city": "CLYO", "addr:country": "US", "addr:postcode": "31303", "addr:state": "GA", "addr:street_address": "5662 GA HIGHWAY 119 N", "amenity": "post_box", "collection_times": "Mo-Fr 13:00; Sa 11:00", "indoor": "yes", "note": "ON 12/24 AND 12/31, THIS BOX MAY BE COLLECTED AS EARLY AS 12 NOON.", "nsi_id": "unitedstatespostalservice-a77078", "operator": "United States Postal Service", "operator:short": "USPS", "operator:type": "public", "operator:wikidata": "Q668687", "ref": "3130300006"}, "type": "Feature"}
{"geometry": {"coordinates": [-81.38241406, 31.506492061], "type": "Point"}, "id": "-qnRptpQ-kPX-MKR_8OrnFuvO5s=", "properties": {"@source_uri": "https://tools.usps.com/UspsToolsRestServices/rest/POLocator/findLocations", "@spider": "usps_collection_boxes", "addr:city": "CRESCENT", "addr:country": "US", "addr:postcode": "31304", "addr:state": "GA", "addr:street_address": "4236 GA HIGHWAY 99", "amenity": "post_box", "collection_times": "Mo-Fr 16:00; Sa 12:00", "note": "ON 12/24 AND 12/31, THIS BOX MAY BE COLLECTED AS EARLY AS 12 NOON.", "nsi_id": "unitedstatespostalservice-a77078", "operator": "United States Postal Service", "operator:short": "USPS", "operator:type": "public", "operator:wikidata": "Q668687", "ref": "3130400001"}, "type": "Feature"}
{"geometry": {"coordinates": [-81.38241406, 31.506492061], "type": "Point"}, "id": "ePMlvTCYlAZ6ysMpUl-VaKeYxbI=", "properties": {"@source_uri": "https://tools.usps.com/UspsToolsRestServices/rest/POLocator/findLocations", "@spider": "usps_collection_boxes", "addr:city": "CRESCENT", "addr:country": "US", "addr:postcode": "31304", "addr:state": "GA", "addr:street_address": "4236 GA HIGHWAY 99", "amenity": "post_box", "collection_times": "Mo-Fr 16:00; Sa 12:00", "indoor": "yes", "note": "ON 12/24 AND 12/31, THIS BOX MAY BE COLLECTED AS EARLY AS 12 NOON.", "nsi_id": "unitedstatespostalservice-a77078", "operator": "United States Postal Service", "operator:short": "USPS", "operator:type": "public", "operator:wikidata": "Q668687", "ref": "3130400002"}, "type": "Feature"}
{"geometry": {"coordinates": [-81.38241406, 31.506492061], "type": "Point"}, "id": "0AFC6DhFvAncowyGNvSZymFXx6I=", "properties": {"@source_uri": "https://tools.usps.com/UspsToolsRestServices/rest/POLocator/findLocations", "@spider": "usps_collection_boxes", "addr:city": "CRESCENT", "addr:country": "US", "addr:postcode": "31304", "addr:state": "GA", "addr:street_address": "4236 GA HIGHWAY 99", "amenity": "post_box", "collection_times": "Mo-Fr 16:00; Sa 12:00", "indoor": "yes", "note": "ON 12/24 AND 12/31, THIS BOX MAY BE COLLECTED AS EARLY AS 12 NOON.", "nsi_id": "unitedstatespostalservice-a77078", "operator": "United States Postal Service", "operator:short": "USPS", "operator:type": "public", "operator:wikidata": "Q668687", "ref": "3130400003"}, "type": "Feature"}
{"geometry": {"coordinates": [-81.434239988, 31.371569988], "type": "Point"}, "id": "NFz22E48T-hfKZqt4Dcw4wXJ7Es=", "properties": {"@source_uri": "https://tools.usps.com/UspsToolsRestServices/rest/POLocator/findLocations", "@spider": "usps_collection_boxes", "addr:city": "DARIEN", "addr:country": "US", "addr:postcode": "31305", "addr:state": "GA", "addr:street_address": "501 NORTH WAY", "amenity": "post_box", "collection_times": "Mo-Fr 16:15; Sa 12:00", "note": "ON 12/24 AND 12/31, THIS BOX MAY BE COLLECTED AS EARLY AS 12 NOON.", "nsi_id": "unitedstatespostalservice-a77078", "operator": "United States Postal Service", "operator:short": "USPS", "operator:type": "public", "operator:wikidata": "Q668687", "ref": "3130500006"}, "type": "Feature"}
{"geometry": {"coordinates": [-81.434239988, 31.371569988], "type": "Point"}, "id": "WP9f3Fbt3XpXPqisSBjHNshZ3hE=", "properties": {"@source_uri": "https://tools.usps.com/UspsToolsRestServices/rest/POLocator/findLocations", "@spider": "usps_collection_boxes", "addr:city": "DARIEN", "addr:country": "US", "addr:postcode": "31305", "addr:state": "GA", "addr:street_address": "501 NORTH WAY", "amenity": "post_box", "collection_times": "Mo-Fr 16:30; Sa 12:00", "indoor": "yes", "note": "ON 12/24 AND 12/31, THIS BOX MAY BE COLLECTED AS EARLY AS 12 NOON.", "nsi_id": "unitedstatespostalservice-a77078", "operator": "United States Postal Service", "operator:short": "USPS", "operator:type": "public", "operator:wikidata": "Q668687", "ref": "3130500007"}, "type": "Feature"}
{"geometry": {"coordinates": [-81.434239988, 31.371569988], "type": "Point"}, "id": "jufp7_jxsy-9G21YjfNPIZ16pv4=", "properties": {"@source_uri": "https://tools.usps.com/UspsToolsRestServices/rest/POLocator/findLocations", "@spider": "usps_collection_boxes", "addr:city": "DARIEN", "addr:country": "US", "addr:postcode": "31305", "addr:state": "GA", "addr:street_address": "501 NORTH WAY", "amenity": "post_box", "collection_times": "Mo-Fr 16:30; Sa 12:00", "indoor": "yes", "note": "ON 12/24 AND 12/31, THIS BOX MAY BE COLLECTED AS EARLY AS 12 NOON.", "nsi_id": "unitedstatespostalservice-a77078", "operator": "United States Postal Service", "operator:short": "USPS", "operator:type": "public", "operator:wikidata": "Q668687", "ref": "3130500009"}, "type": "Feature"}
{"geometry": {"coordinates": [-81.388170851, 32.170978018], "type": "Point"}, "id": "RblQllkL21A7jf1sh6IC6lvuBUE=", "properties": {"@source_uri": "https://tools.usps.com/UspsToolsRestServices/rest/POLocator/findLocations", "@spider": "usps_collection_boxes", "addr:city": "EDEN", "addr:country": "US", "addr:postcode": "31307", "addr:state": "GA", "addr:street_address": "1228 US HIGHWAY 80", "amenity": "post_box", "collection_times": "Mo-Fr 16:15; Sa 10:30", "note": "ON 12/24 AND 12/31, THIS BOX MAY BE COLLECTED AS EARLY AS 12 NOON.", "nsi_id": "unitedstatespostalservice-a77078", "operator": "United States Postal Service", "operator:short": "USPS", "operator:type": "public", "operator:wikidata": "Q668687", "ref": "3130700001"}, "type": "Feature"}
{"geometry": {"coordinates": [-81.388170851, 32.170978018], "type": "Point"}, "id": "QVoV5QSWAtXZNVjSBhg6KapJm58=", "properties": {"@source_uri": "https://tools.usps.com/UspsToolsRestServices/rest/POLocator/findLocations", "@spider": "usps_collection_boxes", "addr:city": "EDEN", "addr:country": "US", "addr:postcode": "31307", "addr:state": "GA", "addr:street_address": "1228 US HIGHWAY 80", "amenity": "post_box", "collection_times": "Mo-Fr 16:30; Sa 10:30", "indoor": "yes", "note": "ON 12/24 AND 12/31, THIS BOX MAY BE COLLECTED AS EARLY AS 12 NOON.", "nsi_id": "unitedstatespostalservice-a77078", "operator": "United States Postal Service", "operator:short": "USPS", "operator:type": "public", "operator:wikidata": "Q668687", "ref": "3130700002"}, "type": "Feature"}
{"geometry": {"coordinates": [-81.388170851, 32.170978018], "type": "Point"}, "id": "TaYoo88mcJQxW3SlobjZYG_z16c=", "properties": {"@source_uri": "https://tools.usps.com/UspsToolsRestServices/rest/POLocator/findLocations", "@spider": "usps_collection_boxes", "addr:city": "EDEN", "addr:country": "US", "addr:postcode": "31307", "addr:state": "GA", "addr:street_address": "1228 US HIGHWAY 80", "amenity": "post_box", "collection_times": "Mo-Fr 16:30; Sa 10:30", "indoor": "yes", "note": "ON 12/24 AND 12/31, THIS BOX MAY BE COLLECTED AS EARLY AS 12 NOON.", "nsi_id": "unitedstatespostalservice-a77078", "operator": "United States Postal Service", "operator:short": "USPS", "operator:type": "public", "operator:wikidata": "Q668687", "ref": "3130700003"}, "type": "Feature"}
{"geometry": {"coordinates": [-81.49231365, 32.165178336], "type": "Point"}, "id": "FjQTzJnaU37DzmD1vcFrySmWwuM=", "properties": {"@source_uri": "https://tools.usps.com/UspsToolsRestServices/rest/POLocator/findLocations", "@spider": "usps_collection_boxes", "addr:city": "ELLABELL", "addr:country": "US", "addr:postcode": "31308", "addr:state": "GA", "addr:street_address": "8745 US HIGHWAY 280 E", "amenity": "post_box", "collection_times": "Mo-Fr 16:30; Sa 11:30", "note": "ON 12/24 AND 12/31, THIS BOX MAY BE COLLECTED AS EARLY AS 12 NOON.", "nsi_id": "unitedstatespostalservice-a77078", "operator": "United States Postal Service", "operator:short": "USPS", "operator:type": "public", "operator:wikidata": "Q668687", "ref": "3130800001"}, "type": "Feature"}
{"geometry": {"coordinates": [-81.49231365, 32.165178336], "type": "Point"}, "id": "1G8JZ92Ec2kgpXOgKShAYWNJiw8=", "properties": {"@source_uri": "https://tools.usps.com/UspsToolsRestServices/rest/POLocator/findLocations", "@spider": "usps_collection_boxes", "addr:city": "ELLABELL", "addr:country": "US", "addr:postcode": "31308", "addr:state": "GA", "addr:street_address": "8745 US HIGHWAY 280 E", "amenity": "post_box", "collection_times": "Mo-Fr 16:30; Sa 11:30", "indoor": "yes", "note": "ON 12/24 AND 12/31, THIS BOX MAY BE COLLECTED AS EARLY AS 12 NOON.", "nsi_id": "unitedstatespostalservice-a77078", "operator": "United States Postal Service", "operator:short": "USPS", "operator:type": "public", "operator:wikidata": "Q668687", "ref": "3130800003"}, "type": "Feature"}
{"geometry": {"coordinates": [-81.49231365, 32.165178336], "type": "Point"}, "id": "Hk-mSz7HSNaFGFDeMyUqV3B-rQA=", "properties": {"@source_uri": "https://tools.usps.com/UspsToolsRestServices/rest/POLocator/findLocations", "@spider": "usps_collection_boxes", "addr:city": "ELLABELL", "addr:country": "US", "addr:postcode": "31308", "addr:state": "GA", "addr:street_address": "8745 US HIGHWAY 280 E", "amenity": "post_box", "collection_times": "Mo-Fr 16:30; Sa 11:30", "indoor": "yes", "note": "ON 12/24 AND 12/31, THIS BOX MAY BE COLLECTED AS EARLY AS 12 NOON.", "nsi_id": "unitedstatespostalservice-a77078", "operator": "United States Postal Service", "operator:short": "USPS", "operator:type": "public", "operator:wikidata": "Q668687", "ref": "3130800004"}, "type": "Feature"}
{"geometry": {"coordinates": [-81.396142846, 32.337315196], "type": "Point"}, "id": "5fwBMuYBPqEo6jm0wfdlpe4wrhQ=", "properties": {"@source_uri": "https://tools.usps.com/UspsToolsRestServices/rest/POLocator/findLocations", "@spider": "usps_collection_boxes", "addr:city": "GUYTON", "addr:country": "US", "addr:postcode": "31312", "addr:state": "GA", "addr:street_address": "711 W CENTRAL BLVD", "amenity": "post_box", "collection_times": "Mo-Fr 16:30; Sa 12:00", "note": "ON 12/24 AND 12/31, THIS BOX MAY BE COLLECTED AS EARLY AS 12 NOON.", "nsi_id": "unitedstatespostalservice-a77078", "operator": "United States Postal Service", "operator:short": "USPS", "operator:type": "public", "operator:wikidata": "Q668687", "ref": "3131200001"}, "type": "Feature"}
{"geometry": {"coordinates": [-81.396142846, 32.337315196], "type": "Point"}, "id": "isl_vh3IAQhn9GBUz6Zwn_cZTL8=", "properties": {"@source_uri": "https://tools.usps.com/UspsToolsRestServices/rest/POLocator/findLocations", "@spider": "usps_collection_boxes", "addr:city": "GUYTON", "addr:country": "US", "addr:postcode": "31312", "addr:state": "GA", "addr:street_address": "711 W CENTRAL BLVD", "amenity": "post_box", "collection_times": "Mo-Fr 16:30; Sa 12:00", "indoor": "yes", "note": "ON 12/24 AND 12/31, THIS BOX MAY BE COLLECTED AS EARLY AS 12 NOON.", "nsi_id": "unitedstatespostalservice-a77078", "operator": "United States Postal Service", "operator:short": "USPS", "operator:type": "public", "operator:wikidata": "Q668687", "ref": "3131200002"}, "type": "Feature"}
{"geometry": {"coordinates": [-81.396142846, 32.337315196], "type": "Point"}, "id": "5OGncXl6VeHmGQ4TeIyLcpjHEuU=", "properties": {"@source_uri": "https://tools.usps.com/UspsToolsRestServices/rest/POLocator/findLocations", "@spider": "usps_collection_boxes", "addr:city": "GUYTON", "addr:country": "US", "addr:postcode": "31312", "addr:state": "GA", "addr:street_address": "711 W CENTRAL BLVD", "amenity": "post_box", "collection_times": "Mo-Fr 16:30; Sa 12:00", "indoor": "yes", "note": "ON 12/24 AND 12/31, THIS BOX MAY BE COLLECTED AS EARLY AS 12 NOON.", "nsi_id": "unitedstatespostalservice-a77078", "operator": "United States Postal Service", "operator:short": "USPS", "operator:type": "public", "operator:wikidata": "Q668687", "ref": "3131200004"}, "type": "Feature"}
{"geometry": {"coordinates": [-81.597198632, 31.842523037], "type": "Point"}, "id": "T6LKnICAuHxlOHOYHAOqFifYaUQ=", "properties": {"@source_uri": "https://tools.usps.com/UspsToolsRestServices/rest/POLocator/findLocations", "@spider": "usps_collection_boxes", "addr:city": "HINESVILLE", "addr:country": "US", "addr:postcode": "31313", "addr:state": "GA", "addr:street_address": "406 S MAIN ST", "amenity": "post_box", "collection_times": "Mo-Fr 16:00", "note": "ON 12/24 AND 12/31, THIS BOX MAY BE COLLECTED AS EARLY AS 12 NOON.", "nsi_id": "unitedstatespostalservice-a77078", "operator": "United States Postal Service", "operator:short": "USPS", "operator:type": "public", "operator:wikidata": "Q668687", "ref": "3131300001"}, "type": "Feature"}
{"geometry": {"coordinates": [-81.595290817, 31.838206821], "type": "Point"}, "id": "2rUBQnG9wN2IsjT-xl2njMk-P5M=", "properties": {"@source_uri": "https://tools.usps.com/UspsToolsRestServices/rest/POLocator/findLocations", "@spider": "usps_collection_boxes", "addr:city": "HINESVILLE", "addr:country": "US", "addr:postcode": "31313", "addr:state": "GA", "addr:street_address": "503 W OGLETHORPE HWY", "amenity": "post_box", "collection_times": "Mo-Fr 12:00; Sa 10:00", "nsi_id": "unitedstatespostalservice-a77078", "operator": "United States Postal Service", "operator:short": "USPS", "operator:type": "public", "operator:wikidata": "Q668687", "ref": "3131300003"}, "type": "Feature"}
{"geometry": {"coordinates": [-81.598158713, 31.827313682], "type": "Point"}, "id": "RgNV7OAfdfbfQJKVD_qiq6d5CRk=", "properties": {"@source_uri": "https://tools.usps.com/UspsToolsRestServices/rest/POLocator/findLocations", "@spider": "usps_collection_boxes", "addr:city": "HINESVILLE", "addr:country": "US", "addr:postcode": "31313", "addr:state": "GA", "addr:street_address": "744 W OGLETHORPE HWY", "amenity": "post_box", "collection_times": "Mo-Fr 17:00; Sa 16:00", "note": "ON 12/24 AND 12/31, THIS BOX MAY BE COLLECTED AS EARLY AS 12 NOON.", "nsi_id": "unitedstatespostalservice-a77078", "operator": "United States Postal Service", "operator:short": "USPS", "operator:type": "public", "operator:wikidata": "Q668687", "ref": "3131300004"}, "type": "Feature"}
{"geometry": {"coordinates": [-81.596572574, 31.846418726], "type": "Point"}, "id": "dDJR6Y1rv8yaF_gDX_01dqswdJ4=", "properties": {"@source_uri": "https://tools.usps.com/UspsToolsRestServices/rest/POLocator/findLocations", "@spider": "usps_collection_boxes", "addr:city": "HINESVILLE", "addr:country": "US", "addr:postcode": "31313", "addr:state": "GA", "addr:street_address": "201 S MAIN ST", "amenity": "post_box", "collection_times": "Mo-Fr 14:00; Sa 09:30", "note": "ON 12/24 AND 12/31, THIS BOX MAY BE COLLECTED AS EARLY AS 12 NOON.", "nsi_id": "unitedstatespostalservice-a77078", "operator": "United States Postal Service", "operator:short": "USPS", "operator:type": "public", "operator:wikidata": "Q668687", "ref": "3131300008"}, "type": "Feature"}
{"geometry": {"coordinates": [-81.59815778, 31.843343022], "type": "Point"}, "id": "A0_oghQL8YHdj0cyN-YfsQKVFKU=", "properties": {"@source_uri": "https://tools.usps.com/UspsToolsRestServices/rest/POLocator/findLocations", "@spider": "usps_collection_boxes", "addr:city": "HINESVILLE", "addr:country": "US", "addr:postcode": "31313", "addr:state": "GA", "addr:street_address": "123 W HENDRY ST", "amenity": "post_box", "collection_times": "Mo-Fr 16:00", "note": "ON 12/24 AND 12/31, THIS BOX MAY BE COLLECTED AS EARLY AS 12 NOON.", "nsi_id": "unitedstatespostalservice-a77078", "operator": "United States Postal Service", "operator:short": "USPS", "operator:type": "public", "operator:wikidata": "Q668687", "ref": "3131300010"}, "type": "Feature"}
{"geometry": {"coordinates": [-81.598158713, 31.827313682], "type": "Point"}, "id": "LowRAOv9aYYqkdo5hgUJlCpfCTU=", "properties": {"@source_uri": "https://tools.usps.com/UspsToolsRestServices/rest/POLocator/findLocations", "@spider": "usps_collection_boxes", "addr:city": "HINESVILLE", "addr:country": "US", "addr:postcode": "31313", "addr:state": "GA", "addr:street_address": "744 W OGLETHORPE HWY", "amenity": "post_box", "collection_times": "Mo-Fr 17:30; Sa 14:30", "indoor": "yes", "note": "ON 12/24 AND 12/31, THIS BOX MAY BE COLLECTED AS EARLY AS 12 NOON.", "nsi_id": "unitedstatespostalservice-a77078", "operator": "United States Postal Service", "operator:short": "USPS", "operator:type": "public", "operator:wikidata": "Q668687", "ref": "3131300022"}, "type": "Feature"}
{"geometry": {"coordinates": [-81.598158713, 31.827313682], "type": "Point"}, "id": "hj9_ZXCr2WNiesGQmxIHjflCd3g=", "properties": {"@source_uri": "https://tools.usps.com/UspsToolsRestServices/rest/POLocator/findLocations", "@spider": "usps_collection_boxes", "addr:city": "HINESVILLE", "addr:country": "US", "addr:postcode": "31313", "addr:state": "GA", "addr:street_address": "744 W OGLETHORPE HWY", "amenity": "post_box", "collection_times": "Mo-Fr 17:30; Sa 14:30", "name": "USPS COLLECTION BOX - APC", "note": "ON 12/24 AND 12/31, THIS BOX MAY BE COLLECTED AS EARLY AS 12 NOON.", "nsi_id": "unitedstatespostalservice-a77078", "operator": "United States Postal Service", "operator:short": "USPS", "operator:type": "public", "operator:wikidata": "Q668687", "ref": "3131300025"}, "type": "Feature"}
{"geometry": {"coordinates": [-81.598158713, 31.827313682], "type": "Point"}, "id": "CZgVWWxAPV4t5RIx-65RxcydTAw=", "properties": {"@source_uri": "https://tools.usps.com/UspsToolsRestServices/rest/POLocator/findLocations", "@spider": "usps_collection_boxes", "addr:city": "HINESVILLE", "addr:country": "US", "addr:postcode": "31313", "addr:state": "GA", "addr:street_address": "744 W OGLETHORPE HWY", "amenity": "post_box", "collection_times": "Mo-Fr 17:30; Sa 14:30", "indoor": "yes", "note": "ON 12/24 AND 12/31, THIS BOX MAY BE COLLECTED AS EARLY AS 12 NOON.", "nsi_id": "unitedstatespostalservice-a77078", "operator": "United States Postal Service", "operator:short": "USPS", "operator:type": "public", "operator:wikidata": "Q668687", "ref": "3131300030"}, "type": "Feature"}
{"geometry": {"coordinates": [-81.599250413, 31.87081641], "type": "Point"}, "id": "smOV7HqcsZ-ua3EH463KfO_e_FM=", "properties": {"@source_uri": "https://tools.usps.com/UspsToolsRestServices/rest/POLocator/findLocations", "@spider": "usps_collection_boxes", "addr:city": "FORT STEWART", "addr:country": "US", "addr:postcode": "31315", "addr:state": "GA", "addr:street_address": "1061 HARMON AVE", "amenity": "post_box", "collection_times": "Mo-Fr 16:00; Sa 12:15", "note": "ON 12/24 AND 12/31, THIS BOX MAY BE COLLECTED AS EARLY AS 12 NOON.", "nsi_id": "unitedstatespostalservice-a77078", "operator": "United States Postal Service", "operator:short": "USPS", "operator:type": "public", "operator:wikidata": "Q668687", "ref": "3131500007"}, "type": "Feature"}
{"geometry": {"coordinates": [-81.605202546, 31.870237552], "type": "Point"}, "id": "fDbkyKtJr6W7_JgFO0nFjTvMjxU=", "properties": {"@source_uri": "https://tools.usps.com/UspsToolsRestServices/rest/POLocator/findLocations", "@spider": "usps_collection_boxes", "addr:city": "FORT STEWART", "addr:country": "US", "addr:postcode": "31315", "addr:state": "GA", "addr:street_address": "845 HASE RD STE 100", "amenity": "post_box", "collection_times": "Mo-Fr 16:45", "indoor": "yes", "note": "ON 12/24 AND 12/31, THIS BOX MAY BE COLLECTED AS EARLY AS 12 NOON.", "nsi_id": "unitedstatespostalservice-a77078", "operator": "United States Postal Service", "operator:short": "USPS", "operator:type": "public", "operator:wikidata": "Q668687", "ref": "3131500008"}, "type": "Feature"}
{"geometry": {"coordinates": [-81.605202546, 31.870237552], "type": "Point"}, "id": "1MDcnJ1OvQboanchSRafzWSwiGY=", "properties": {"@source_uri": "https://tools.usps.com/UspsToolsRestServices/rest/POLocator/findLocations", "@spider": "usps_collection_boxes", "addr:city": "FORT STEWART", "addr:country": "US", "addr:postcode": "31315", "addr:state": "GA", "addr:street_address": "845 HASE RD", "amenity": "post_box", "collection_times": "Mo-Fr 13:00; Sa 12:15", "note": "ON 12/24 AND 12/31, THIS BOX MAY BE COLLECTED AS EARLY AS 12 NOON.", "nsi_id": "unitedstatespostalservice-a77078", "operator": "United States Postal Service", "operator:short": "USPS", "operator:type": "public", "operator:wikidata": "Q668687", "ref": "3131500011"}, "type": "Feature"}
{"geometry": {"coordinates": [-81.605202546, 31.870237552], "type": "Point"}, "id": "hzNoxTJCQOaPxGS3vR2Tcunf0kA=", "properties": {"@source_uri": "https://tools.usps.com/UspsToolsRestServices/rest/POLocator/findLocations", "@spider": "usps_collection_boxes", "addr:city": "FORT STEWART", "addr:country": "US", "addr:postcode": "31315", "addr:state": "GA", "addr:street_address": "845 HASE RD STE 100", "amenity": "post_box", "collection_times": "Mo-Fr 16:45", "indoor": "yes", "note": "ON 12/24 AND 12/31, THIS BOX MAY BE COLLECTED AS EARLY AS 12 NOON.", "nsi_id": "unitedstatespostalservice-a77078", "operator": "United States Postal Service", "operator:short": "USPS", "operator:type": "public", "operator:wikidata": "Q668687", "ref": "3131500012"}, "type": "Feature"}
{"geometry": {"coordinates": [-81.743095, 31.70845], "type": "Point"}, "id": "n-Pri-jgft2PBaULs73Ehg5Pu8k=", "properties": {"@source_uri": "https://tools.usps.com/UspsToolsRestServices/rest/POLocator/findLocations", "@spider": "usps_collection_boxes", "addr:city": "LUDOWICI", "addr:country": "US", "addr:postcode": "31316", "addr:state": "GA", "addr:street_address": "9 E ACADEMY ST", "amenity": "post_box", "collection_times": "Mo-Fr 16:00; Sa 11:00", "note": "ON 12/24 AND 12/31, THIS BOX MAY BE COLLECTED AS EARLY AS 12 NOON.", "nsi_id": "unitedstatespostalservice-a77078", "operator": "United States Postal Service", "operator:short": "USPS", "operator:type": "public", "operator:wikidata": "Q668687", "ref": "3131600001"}, "type": "Feature"}
{"geometry": {"coordinates": [-81.741918483, 31.70817547], "type": "Point"}, "id": "7ivZuLTGoboW3QsDlVVbyV6tmmE=", "properties": {"@source_uri": "https://tools.usps.com/UspsToolsRestServices/rest/POLocator/findLocations", "@spider": "usps_collection_boxes", "addr:city": "LUDOWICI", "addr:country": "US", "addr:postcode": "31316", "addr:state": "GA", "addr:street_address": "9 E ACADEMY ST", "amenity": "post_box", "collection_times": "Mo-Fr 16:00; Sa 11:00", "indoor": "yes", "note": "ON 12/24 AND 12/31, THIS BOX MAY BE COLLECTED AS EARLY AS 12 NOON.", "nsi_id": "unitedstatespostalservice-a77078", "operator": "United States Postal Service", "operator:short": "USPS", "operator:type": "public", "operator:wikidata": "Q668687", "ref": "3131600002"}, "type": "Feature"}
{"geometry": {"coordinates": [-81.741918483, 31.70817547], "type": "Point"}, "id": "eFcaYyURUva6L_mm5KZrrdIjqHk=", "properties": {"@source_uri": "https://tools.usps.com/UspsToolsRestServices/rest/POLocator/findLocations", "@spider": "usps_collection_boxes", "addr:city": "LUDOWICI", "addr:country": "US", "addr:postcode": "31316", "addr:state": "GA", "addr:street_address": "9 E ACADEMY ST", "amenity": "post_box", "collection_times": "Mo-Fr 16:00; Sa 11:00", "indoor": "yes", "note": "ON 12/24 AND 12/31, THIS BOX MAY BE COLLECTED AS EARLY AS 12 NOON.", "nsi_id": "unitedstatespostalservice-a77078", "operator": "United States Postal Service", "operator:short": "USPS", "operator:type": "public", "operator:wikidata": "Q668687", "ref": "3131600004"}, "type": "Feature"}
{"geometry": {"coordinates": [-81.378258656, 32.142063922], "type": "Point"}, "id": "MKXs2LwcdHJYtSzmzcspPEcAyBk=", "properties": {"@source_uri": "https://tools.usps.com/UspsToolsRestServices/rest/POLocator/findLocations", "@spider": "usps_collection_boxes", "addr:city": "MELDRIM", "addr:country": "US", "addr:postcode": "31318", "addr:state": "GA", "addr:street_address": "318 5TH ST", "amenity": "post_box", "collection_times": "Mo-Fr 13:00; Sa 11:30", "note": "ON 12/24 AND 12/31, THIS BOX MAY BE COLLECTED AS EARLY AS 12 NOON.", "nsi_id": "unitedstatespostalservice-a77078", "operator": "United States Postal Service", "operator:short": "USPS", "operator:type": "public", "operator:wikidata": "Q668687", "ref": "3131800002"}, "type": "Feature"}
{"geometry": {"coordinates": [-81.378258656, 32.142063922], "type": "Point"}, "id": "_iJFT5uRzUB_Yareu47EbMEwvyc=", "properties": {"@source_uri": "https://tools.usps.com/UspsToolsRestServices/rest/POLocator/findLocations", "@spider": "usps_collection_boxes", "addr:city": "MELDRIM", "addr:country": "US", "addr:postcode": "31318", "addr:state": "GA", "addr:street_address": "318 5TH ST", "amenity": "post_box", "collection_times": "Mo-Fr 13:00; Sa 11:30", "indoor": "yes", "note": "ON 12/24 AND 12/31, THIS BOX MAY BE COLLECTED AS EARLY AS 12 NOON.", "nsi_id": "unitedstatespostalservice-a77078", "operator": "United States Postal Service", "operator:short": "USPS", "operator:type": "public", "operator:wikidata": "Q668687", "ref": "3131800003"}, "type": "Feature"}
{"geometry": {"coordinates": [-81.378258656, 32.142063922], "type": "Point"}, "id": "fmJxy7GbAgwvH3eB-U-j-jDJ8I4=", "properties": {"@source_uri": "https://tools.usps.com/UspsToolsRestServices/rest/POLocator/findLocations", "@spider": "usps_collection_boxes", "addr:city": "MELDRIM", "addr:country": "US", "addr:postcode": "31318", "addr:state": "GA", "addr:street_address": "318 5TH ST", "amenity": "post_box", "collection_times": "Mo-Fr 13:00; Sa 11:30", "indoor": "yes", "note": "ON 12/24 AND 12/31, THIS BOX MAY BE COLLECTED AS EARLY AS 12 NOON.", "nsi_id": "unitedstatespostalservice-a77078", "operator": "United States Postal Service", "operator:short": "USPS", "operator:type": "public", "operator:wikidata": "Q668687", "ref": "3131800004"}, "type": "Feature"}
{"geometry": {"coordinates": [-81.377041395, 31.452785622], "type": "Point"}, "id": "SwYJ2FzUB2_3XWdlJjE3OWQMBtI=", "properties": {"@source_uri": "https://tools.usps.com/UspsToolsRestServices/rest/POLocator/findLocations", "@spider": "usps_collection_boxes", "addr:city": "MERIDIAN", "addr:country": "US", "addr:postcode": "31319", "addr:state": "GA", "addr:street_address": "10034 GA HIGHWAY 99", "amenity": "post_box", "collection_times": "Mo-Fr 12:00; Sa 11:30", "nsi_id": "unitedstatespostalservice-a77078", "operator": "United States Postal Service", "operator:short": "USPS", "operator:type": "public", "operator:wikidata": "Q668687", "ref": "3131900001"}, "type": "Feature"}
{"geometry": {"coordinates": [-81.377041395, 31.452785622], "type": "Point"}, "id": "-BxCnlA7itmNf7vFRurwHbhYKp0=", "properties": {"@source_uri": "https://tools.usps.com/UspsToolsRestServices/rest/POLocator/findLocations", "@spider": "usps_collection_boxes", "addr:city": "MERIDIAN", "addr:country": "US", "addr:postcode": "31319", "addr:state": "GA", "addr:street_address": "10034 GA HIGHWAY 99", "amenity": "post_box", "collection_times": "Mo-Fr 12:15; Sa 11:30", "indoor": "yes", "note": "ON 12/24 AND 12/31, THIS BOX MAY BE COLLECTED AS EARLY AS 12 NOON.", "nsi_id": "unitedstatespostalservice-a77078", "operator": "United States Postal Service", "operator:short": "USPS", "operator:type": "public", "operator:wikidata": "Q668687", "ref": "3131900002"}, "type": "Feature"}
{"geometry": {"coordinates": [-81.377041395, 31.452785622], "type": "Point"}, "id": "Tp87LUPP-Ft4LorCkoELRdvTwrA=", "properties": {"@source_uri": "https://tools.usps.com/UspsToolsRestServices/rest/POLocator/findLocations", "@spider": "usps_collection_boxes", "addr:city": "MERIDIAN", "addr:country": "US", "addr:postcode": "31319", "addr:state": "GA", "addr:street_address": "10034 GA HIGHWAY 99", "amenity": "post_box", "collection_times": "Mo-Fr 12:15; Sa 11:30", "indoor": "yes", "note": "ON 12/24 AND 12/31, THIS BOX MAY BE COLLECTED AS EARLY AS 12 NOON.", "nsi_id": "unitedstatespostalservice-a77078", "operator": "United States Postal Service", "operator:short": "USPS", "operator:type": "public", "operator:wikidata": "Q668687", "ref": "3131900003"}, "type": "Feature"}
{"geometry": {"coordinates": [-81.420322897, 31.800020062], "type": "Point"}, "id": "PpbiIbPJXO3xtKGOR_yRLFNnxEk=", "properties": {"@source_uri": "https://tools.usps.com/UspsToolsRestServices/rest/POLocator/findLocations", "@spider": "usps_collection_boxes", "addr:city": "MIDWAY", "addr:country": "US", "addr:postcode": "31320", "addr:state": "GA", "addr:street_address": "12 BUTLER ST", "amenity": "post_box", "collection_times": "Mo-Fr 16:30; Sa 12:00", "indoor": "yes", "note": "ON 12/24 AND 12/31, THIS BOX MAY BE COLLECTED AS EARLY AS 12 NOON.", "nsi_id": "unitedstatespostalservice-a77078", "operator": "United States Postal Service", "operator:short": "USPS", "operator:type": "public", "operator:wikidata": "Q668687", "ref": "3132000002"}, "type": "Feature"}
{"geometry": {"coordinates": [-81.420322897, 31.800020062], "type": "Point"}, "id": "FMSNSwwyx5jEZQsZ2oNDFP9zkQU=", "properties": {"@source_uri": "https://tools.usps.com/UspsToolsRestServices/rest/POLocator/findLocations", "@spider": "usps_collection_boxes", "addr:city": "MIDWAY", "addr:country": "US", "addr:postcode": "31320", "addr:state": "GA", "addr:street_address": "12 BUTLER ST", "amenity": "post_box", "collection_times": "Mo-Fr 16:30; Sa 12:00", "note": "ON 12/24 AND 12/31, THIS BOX MAY BE COLLECTED AS EARLY AS 12 NOON.", "nsi_id": "unitedstatespostalservice-a77078", "operator": "United States Postal Service", "operator:short": "USPS", "operator:type": "public", "operator:wikidata": "Q668687", "ref": "3132000003"}, "type": "Feature"}
{"geometry": {"coordinates": [-81.420322897, 31.800020062], "type": "Point"}, "id": "0nN3NwFjX_5kfXDL3s04IUhyhaM=", "properties": {"@source_uri": "https://tools.usps.com/UspsToolsRestServices/rest/POLocator/findLocations", "@spider": "usps_collection_boxes", "addr:city": "MIDWAY", "addr:country": "US", "addr:postcode": "31320", "addr:state": "GA", "addr:street_address": "12 BUTLER ST", "amenity": "post_box", "collection_times": "Mo-Fr 16:30; Sa 12:00", "indoor": "yes", "note": "ON 12/24 AND 12/31, THIS BOX MAY BE COLLECTED AS EARLY AS 12 NOON.", "nsi_id": "unitedstatespostalservice-a77078", "operator": "United States Postal Service", "operator:short": "USPS", "operator:type": "public", "operator:wikidata": "Q668687", "ref": "3132000005"}, "type": "Feature"}
{"geometry": {"coordinates": [-81.624701891, 32.131708916], "type": "Point"}, "id": "AKbRw14j4qeO5JhhiYHnopOSWR8=", "properties": {"@source_uri": "https://tools.usps.com/UspsToolsRestServices/rest/POLocator/findLocations", "@spider": "usps_collection_boxes", "addr:city": "PEMBROKE", "addr:country": "US", "addr:postcode": "31321", "addr:state": "GA", "addr:street_address": "298 LEDFORD ST", "amenity": "post_box", "collection_times": "Mo-Fr 16:15; Sa 12:15", "note": "ON 12/24 AND 12/31, THIS BOX MAY BE COLLECTED AS EARLY AS 12 NOON.", "nsi_id": "unitedstatespostalservice-a77078", "operator": "United States Postal Service", "operator:short": "USPS", "operator:type": "public", "operator:wikidata": "Q668687", "ref": "3132100002"}, "type": "Feature"}
{"geometry": {"coordinates": [-81.624701891, 32.131708916], "type": "Point"}, "id": "AXD8EtwUIWdlKNOEBc_c7LTEXNk=", "properties": {"@source_uri": "https://tools.usps.com/UspsToolsRestServices/rest/POLocator/findLocations", "@spider": "usps_collection_boxes", "addr:city": "PEMBROKE", "addr:country": "US", "addr:postcode": "31321", "addr:state": "GA", "addr:street_address": "298 LEDFORD ST", "amenity": "post_box", "collection_times": "Mo-Fr 16:30; Sa 12:15", "indoor": "yes", "note": "ON 12/24 AND 12/31, THIS BOX MAY BE COLLECTED AS EARLY AS 12 NOON.", "nsi_id": "unitedstatespostalservice-a77078", "operator": "United States Postal Service", "operator:short": "USPS", "operator:type": "public", "operator:wikidata": "Q668687", "ref": "3132100003"}, "type": "Feature"}
{"geometry": {"coordinates": [-81.624701891, 32.131708916], "type": "Point"}, "id": "pT3XaqpTA8r_AqWNqlpVqzhAa1A=", "properties": {"@source_uri": "https://tools.usps.com/UspsToolsRestServices/rest/POLocator/findLocations", "@spider": "usps_collection_boxes", "addr:city": "PEMBROKE", "addr:country": "US", "addr:postcode": "31321", "addr:state": "GA", "addr:street_address": "298 LEDFORD ST", "amenity": "post_box", "collection_times": "Mo-Fr 16:30; Sa 12:15", "indoor": "yes", "note": "ON 12/24 AND 12/31, THIS BOX MAY BE COLLECTED AS EARLY AS 12 NOON.", "nsi_id": "unitedstatespostalservice-a77078", "operator": "United States Postal Service", "operator:short": "USPS", "operator:type": "public", "operator:wikidata": "Q668687", "ref": "3132100005"}, "type": "Feature"}
{"geometry": {"coordinates": [-81.263103541, 32.121009489], "type": "Point"}, "id": "RiMWLGC9DhyQbOk7vtfv5gMlrGI=", "properties": {"@source_uri": "https://tools.usps.com/UspsToolsRestServices/rest/POLocator/findLocations", "@spider": "usps_collection_boxes", "addr:city": "POOLER", "addr:country": "US", "addr:postcode": "31322", "addr:state": "GA", "addr:street_address": "1030 US HIGHWAY 80 W", "amenity": "post_box", "collection_times": "Mo-Fr 17:00; Sa 14:30", "note": "ON 12/24 AND 12/31, THIS BOX MAY BE COLLECTED AS EARLY AS 12 NOON.", "nsi_id": "unitedstatespostalservice-a77078", "operator": "United States Postal Service", "operator:short": "USPS", "operator:type": "public", "operator:wikidata": "Q668687", "ref": "3132200001"}, "type": "Feature"}
{"geometry": {"coordinates": [-81.241241161, 32.113666579], "type": "Point"}, "id": "kIa0qahCyQowPbZvHK7J4aw1diM=", "properties": {"@source_uri": "https://tools.usps.com/UspsToolsRestServices/rest/POLocator/findLocations", "@spider": "usps_collection_boxes", "addr:city": "POOLER", "addr:country": "US", "addr:postcode": "31322", "addr:state": "GA", "addr:street_address": "418 US HIGHWAY 80 E", "amenity": "post_box", "collection_times": "Mo-Sa 10:00", "nsi_id": "unitedstatespostalservice-a77078", "operator": "United States Postal Service", "operator:short": "USPS", "operator:type": "public", "operator:wikidata": "Q668687", "ref": "3132200002"}, "type": "Feature"}
{"geometry": {"coordinates": [-81.23427936, 32.109901201], "type": "Point"}, "id": "2kCiVpB_FpApsXmGtOmsSdslT-s=", "properties": {"@source_uri": "https://tools.usps.com/UspsToolsRestServices/rest/POLocator/findLocations", "@spider": "usps_collection_boxes", "addr:city": "POOLER", "addr:country": "US", "addr:postcode": "31322", "addr:state": "GA", "addr:street_address": "7 POOLER SQ", "amenity": "post_box", "collection_times": "Mo-Sa 10:30", "nsi_id": "unitedstatespostalservice-a77078", "operator": "United States Postal Service", "operator:short": "USPS", "operator:type": "public", "operator:wikidata": "Q668687", "ref": "3132200004"}, "type": "Feature"}
{"geometry": {"coordinates": [-81.263103541, 32.121009489], "type": "Point"}, "id": "LGmodAmuivCQ_D4Q5HpCYvsTdUI=", "properties": {"@source_uri": "https://tools.usps.com/UspsToolsRestServices/rest/POLocator/findLocations", "@spider": "usps_collection_boxes", "addr:city": "POOLER", "addr:country": "US", "addr:postcode": "31322", "addr:state": "GA", "addr:street_address": "1030 US HIGHWAY 80 W", "amenity": "post_box", "collection_times": "Mo-Fr 16:30; Sa 12:00", "indoor": "yes", "note": "ON 12/24 AND 12/31, THIS BOX MAY BE COLLECTED AS EARLY AS 12 NOON.", "nsi_id": "unitedstatespostalservice-a77078", "operator": "United States Postal Service", "operator:short": "USPS", "operator:type": "public", "operator:wikidata": "Q668687", "ref": "3132200005"}, "type": "Feature"}
{"geometry": {"coordinates": [-81.254172897, 32.135336047], "type": "Point"}, "id": "W-hE-1A9r50hGzpXnqPUw8RofUc=", "properties": {"@source_uri": "https://tools.usps.com/UspsToolsRestServices/rest/POLocator/findLocations", "@spider": "usps_collection_boxes", "addr:city": "POOLER", "addr:country": "US", "addr:postcode": "31322", "addr:state": "GA", "addr:street_address": "100 PARK AVE", "amenity": "post_box", "collection_times": "Mo-Sa 15:30", "note": "ON 12/24 AND 12/31, THIS BOX MAY BE COLLECTED AS EARLY AS 12 NOON.", "nsi_id": "unitedstatespostalservice-a77078", "operator": "United States Postal Service", "operator:short": "USPS", "operator:type": "public", "operator:wikidata": "Q668687", "ref": "3132200006"}, "type": "Feature"}
{"geometry": {"coordinates": [-81.252249711, 32.106293004], "type": "Point"}, "id": "tAHT9UXgxYZm2Xs0l8sV_67QKzc=", "properties": {"@source_uri": "https://tools.usps.com/UspsToolsRestServices/rest/POLocator/findLocations", "@spider": "usps_collection_boxes", "addr:city": "POOLER", "addr:country": "US", "addr:postcode": "31322", "addr:state": "GA", "addr:street_address": "1105 S ROGERS ST", "amenity": "post_box", "collection_times": "Mo-Sa 11:00", "nsi_id": "unitedstatespostalservice-a77078", "operator": "United States Postal Service", "operator:short": "USPS", "operator:type": "public", "operator:wikidata": "Q668687", "ref": "3132200007"}, "type": "Feature"}
{"geometry": {"coordinates": [-81.256997433, 32.132254137], "type": "Point"}, "id": "k3wkJ9hxAxgUqgi9LciJUYsco8g=", "properties": {"@source_uri": "https://tools.usps.com/UspsToolsRestServices/rest/POLocator/findLocations", "@spider": "usps_collection_boxes", "addr:city": "POOLER", "addr:country": "US", "addr:postcode": "31322", "addr:state": "GA", "addr:street_address": "100 GODLEY STATION BLVD", "amenity": "post_box", "collection_times": "Mo-Fr 16:00; Sa 15:30", "note": "ON 12/24 AND 12/31, THIS BOX MAY BE COLLECTED AS EARLY AS 12 NOON.", "nsi_id": "unitedstatespostalservice-a77078", "operator": "United States Postal Service", "operator:short": "USPS", "operator:type": "public", "operator:wikidata": "Q668687", "ref": "3132200009"}, "type": "Feature"}
{"geometry": {"coordinates": [-81.263103541, 32.121009489], "type": "Point"}, "id": "jpTpoS9ubfi2dBrI_gFrdm3fjA4=", "properties": {"@source_uri": "https://tools.usps.com/UspsToolsRestServices/rest/POLocator/findLocations", "@spider": "usps_collection_boxes", "addr:city": "POOLER", "addr:country": "US", "addr:postcode": "31322", "addr:state": "GA", "addr:street_address": "1030 US HIGHWAY 80 W", "amenity": "post_box", "collection_times": "Mo-Fr 16:30; Sa 12:00", "indoor": "yes", "note": "ON 12/24 AND 12/31, THIS BOX MAY BE COLLECTED AS EARLY AS 12 NOON.", "nsi_id": "unitedstatespostalservice-a77078", "operator": "United States Postal Service", "operator:short": "USPS", "operator:type": "public", "operator:wikidata": "Q668687", "ref": "3132200017"}, "type": "Feature"}
{"geometry": {"coordinates": [-81.435602789, 31.737875005], "type": "Point"}, "id": "AIh2hlCW4ZWt2H3FHhNdTQ_Zl9U=", "properties": {"@source_uri": "https://tools.usps.com/UspsToolsRestServices/rest/POLocator/findLocations", "@spider": "usps_collection_boxes", "addr:city": "RICEBORO", "addr:country": "US", "addr:postcode": "31323", "addr:state": "GA", "addr:street_address": "4705 S COASTAL HWY", "amenity": "post_box", "collection_times": "Mo-Fr 12:00; Sa 11:15", "nsi_id": "unitedstatespostalservice-a77078", "operator": "United States Postal Service", "operator:short": "USPS", "operator:type": "public", "operator:wikidata": "Q668687", "ref": "3132300001"}, "type": "Feature"}
{"geometry": {"coordinates": [-81.435602789, 31.737875005], "type": "Point"}, "id": "V3Hh_Yzhg4xgbKij3bcu_5dEhW0=", "properties": {"@source_uri": "https://tools.usps.com/UspsToolsRestServices/rest/POLocator/findLocations", "@spider": "usps_collection_boxes", "addr:city": "RICEBORO", "addr:country": "US", "addr:postcode": "31323", "addr:state": "GA", "addr:street_address": "4705 S COASTAL HWY", "amenity": "post_box", "collection_times": "Mo-Fr 12:00; Sa 11:15", "indoor": "yes", "nsi_id": "unitedstatespostalservice-a77078", "operator": "United States Postal Service", "operator:short": "USPS", "operator:type": "public", "operator:wikidata": "Q668687", "ref": "3132300002"}, "type": "Feature"}
{"geometry": {"coordinates": [-81.435602789, 31.737875005], "type": "Point"}, "id": "KP1HIcZJgbKvZiRVG28keMzkyWc=", "properties": {"@source_uri": "https://tools.usps.com/UspsToolsRestServices/rest/POLocator/findLocations", "@spider": "usps_collection_boxes", "addr:city": "RICEBORO", "addr:country": "US", "addr:postcode": "31323", "addr:state": "GA", "addr:street_address": "4705 S COASTAL HWY", "amenity": "post_box", "collection_times": "Mo-Fr 12:00; Sa 11:15", "indoor": "yes", "nsi_id": "unitedstatespostalservice-a77078", "operator": "United States Postal Service", "operator:short": "USPS", "operator:type": "public", "operator:wikidata": "Q668687", "ref": "3132300004"}, "type": "Feature"}
{"geometry": {"coordinates": [-81.314613778, 31.951513778], "type": "Point"}, "id": "7DQITZZFo6wWzNeKu61jj5emGS8=", "properties": {"@source_uri": "https://tools.usps.com/UspsToolsRestServices/rest/POLocator/findLocations", "@spider": "usps_collection_boxes", "addr:city": "RICHMOND HILL", "addr:country": "US", "addr:postcode": "31324", "addr:state": "GA", "addr:street_address": "9664 FORD AVE", "amenity": "post_box", "collection_times": "Mo-Fr 17:00; Sa 12:00", "note": "ON 12/24 AND 12/31, THIS BOX MAY BE COLLECTED AS EARLY AS 12 NOON.", "nsi_id": "unitedstatespostalservice-a77078", "operator": "United States Postal Service", "operator:short": "USPS", "operator:type": "public", "operator:wikidata": "Q668687", "ref": "3132400001"}, "type": "Feature"}
{"geometry": {"coordinates": [-81.314613778, 31.951513778], "type": "Point"}, "id": "YxTeA6WpPRZ2R6y5U_qpAjnL2Fk=", "properties": {"@source_uri": "https://tools.usps.com/UspsToolsRestServices/rest/POLocator/findLocations", "@spider": "usps_collection_boxes", "addr:city": "RICHMOND HILL", "addr:country": "US", "addr:postcode": "31324", "addr:state": "GA", "addr:street_address": "9664 FORD AVE", "amenity": "post_box", "collection_times": "Mo-Fr 17:00; Sa 12:00", "indoor": "yes", "note": "ON 12/24 AND 12/31, THIS BOX MAY BE COLLECTED AS EARLY AS 12 NOON.", "nsi_id": "unitedstatespostalservice-a77078", "operator": "United States Postal Service", "operator:short": "USPS", "operator:type": "public", "operator:wikidata": "Q668687", "ref": "3132400006"}, "type": "Feature"}
{"geometry": {"coordinates": [-81.314613778, 31.951513778], "type": "Point"}, "id": "d4WpiOcZu_PDvY4sHKoI6VTA8VE=", "properties": {"@source_uri": "https://tools.usps.com/UspsToolsRestServices/rest/POLocator/findLocations", "@spider": "usps_collection_boxes", "addr:city": "RICHMOND HILL", "addr:country": "US", "addr:postcode": "31324", "addr:state": "GA", "addr:street_address": "9664 FORD AVE", "amenity": "post_box", "collection_times": "Mo-Fr 17:00; Sa 12:00", "indoor": "yes", "note": "ON 12/24 AND 12/31, THIS BOX MAY BE COLLECTED AS EARLY AS 12 NOON.", "nsi_id": "unitedstatespostalservice-a77078", "operator": "United States Postal Service", "operator:short": "USPS", "operator:type": "public", "operator:wikidata": "Q668687", "ref": "3132400012"}, "type": "Feature"}
{"geometry": {"coordinates": [-81.227800227, 32.271208951], "type": "Point"}, "id": "FbC4Bit0B4JoUxgx1XM8dmpQ5f8=", "properties": {"@source_uri": "https://tools.usps.com/UspsToolsRestServices/rest/POLocator/findLocations", "@spider": "usps_collection_boxes", "addr:city": "RINCON", "addr:country": "US", "addr:postcode": "31326", "addr:state": "GA", "addr:street_address": "503 N RIDGE ST", "amenity": "post_box", "collection_times": "Mo-Fr 16:30; Sa 12:00", "note": "ON 12/24 AND 12/31, THIS BOX MAY BE COLLECTED AS EARLY AS 12 NOON.", "nsi_id": "unitedstatespostalservice-a77078", "operator": "United States Postal Service", "operator:short": "USPS", "operator:type": "public", "operator:wikidata": "Q668687", "ref": "3132600001"}, "type": "Feature"}
{"geometry": {"coordinates": [-81.227800227, 32.271208951], "type": "Point"}, "id": "gNTdogpuIz-Nnvg8RTzpmzTBdRA=", "properties": {"@source_uri": "https://tools.usps.com/UspsToolsRestServices/rest/POLocator/findLocations", "@spider": "usps_collection_boxes", "addr:city": "RINCON", "addr:country": "US", "addr:postcode": "31326", "addr:state": "GA", "addr:street_address": "503 N RIDGE ST", "amenity": "post_box", "collection_times": "Mo-Fr 16:30; Sa 12:00", "indoor": "yes", "note": "ON 12/24 AND 12/31, THIS BOX MAY BE COLLECTED AS EARLY AS 12 NOON.", "nsi_id": "unitedstatespostalservice-a77078", "operator": "United States Postal Service", "operator:short": "USPS", "operator:type": "public", "operator:wikidata": "Q668687", "ref": "3132600007"}, "type": "Feature"}
{"geometry": {"coordinates": [-81.227800227, 32.271208951], "type": "Point"}, "id": "Il4HhyXYXUsi3YahvHDw6e2gito=", "properties": {"@source_uri": "https://tools.usps.com/UspsToolsRestServices/rest/POLocator/findLocations", "@spider": "usps_collection_boxes", "addr:city": "RINCON", "addr:country": "US", "addr:postcode": "31326", "addr:state": "GA", "addr:street_address": "503 N RIDGE ST", "amenity": "post_box", "collection_times": "Mo-Fr 16:30; Sa 12:00", "indoor": "yes", "note": "ON 12/24 AND 12/31, THIS BOX MAY BE COLLECTED AS EARLY AS 12 NOON.", "nsi_id": "unitedstatespostalservice-a77078", "operator": "United States Postal Service", "operator:short": "USPS", "operator:type": "public", "operator:wikidata": "Q668687", "ref": "3132600010"}, "type": "Feature"}
{"geometry": {"coordinates": [-81.2620629, 31.4265476], "type": "Point"}, "id": "AIHX7uiD5Aw6i-T-RqN0brUaP-w=", "properties": {"@source_uri": "https://tools.usps.com/UspsToolsRestServices/rest/POLocator/findLocations", "@spider": "usps_collection_boxes", "addr:city": "SAPELO ISLAND", "addr:country": "US", "addr:postcode": "31327", "addr:state": "GA", "addr:street_address": "PO BOX 1", "amenity": "post_box", "collection_times": "Mo-Fr 09:30; Sa 10:00", "nsi_id": "unitedstatespostalservice-a77078", "operator": "United States Postal Service", "operator:short": "USPS", "operator:type": "public", "operator:wikidata": "Q668687", "ref": "3132700001"}, "type": "Feature"}
{"geometry": {"coordinates": [-80.854359993, 32.004780342], "type": "Point"}, "id": "46erRDQPy5Zt5bBin13zILVCOdc=", "properties": {"@source_uri": "https://tools.usps.com/UspsToolsRestServices/rest/POLocator/findLocations", "@spider": "usps_collection_boxes", "addr:city": "TYBEE ISLAND", "addr:country": "US", "addr:postcode": "31328", "addr:state": "GA", "addr:street_address": "102 S CAMPBELL AVE", "amenity": "post_box", "collection_times": "Mo-Sa 13:00", "note": "ON 12/24 AND 12/31, THIS BOX MAY BE COLLECTED AS EARLY AS 12 NOON.", "nsi_id": "unitedstatespostalservice-a77078", "operator": "United States Postal Service", "operator:short": "USPS", "operator:type": "public", "operator:wikidata": "Q668687", "ref": "3132800001"}, "type": "Feature"}
{"geometry": {"coordinates": [-80.846819904, 31.998540424], "type": "Point"}, "id": "Kk8XMGvj9BwotUUV7jHAQdCA9bQ=", "properties": {"@source_uri": "https://tools.usps.com/UspsToolsRestServices/rest/POLocator/findLocations", "@spider": "usps_collection_boxes", "addr:city": "TYBEE ISLAND", "addr:country": "US", "addr:postcode": "31328", "addr:state": "GA", "addr:street_address": "1111 BUTLER AVE", "amenity": "post_box", "collection_times": "Mo-Sa 11:00", "nsi_id": "unitedstatespostalservice-a77078", "operator": "United States Postal Service", "operator:short": "USPS", "operator:type": "public", "operator:wikidata": "Q668687", "ref": "3132800002"}, "type": "Feature"}
{"geometry": {"coordinates": [-80.854359993, 32.004780342], "type": "Point"}, "id": "ig_OccKwWmYeDErQPJ6PmMZdre8=", "properties": {"@source_uri": "https://tools.usps.com/UspsToolsRestServices/rest/POLocator/findLocations", "@spider": "usps_collection_boxes", "addr:city": "TYBEE ISLAND", "addr:country": "US", "addr:postcode": "31328", "addr:state": "GA", "addr:street_address": "102 S CAMPBELL AVE", "amenity": "post_box", "collection_times": "Mo-Sa 13:00", "indoor": "yes", "note": "ON 12/24 AND 12/31, THIS BOX MAY BE COLLECTED AS EARLY AS 12 NOON.", "nsi_id": "unitedstatespostalservice-a77078", "operator": "United States Postal Service", "operator:short": "USPS", "operator:type": "public", "operator:wikidata": "Q668687", "ref": "3132800003"}, "type": "Feature"}
{"geometry": {"coordinates": [-80.854359993, 32.004780342], "type": "Point"}, "id": "7b18LKrYersnUTKiDP9Gnuu6Rlg=", "properties": {"@source_uri": "https://tools.usps.com/UspsToolsRestServices/rest/POLocator/findLocations", "@spider": "usps_collection_boxes", "addr:city": "TYBEE ISLAND", "addr:country": "US", "addr:postcode": "31328", "addr:state": "GA", "addr:street_address": "102 S CAMPBELL AVE", "amenity": "post_box", "collection_times": "Mo-Sa 13:00", "indoor": "yes", "note": "ON 12/24 AND 12/31, THIS BOX MAY BE COLLECTED AS EARLY AS 12 NOON.", "nsi_id": "unitedstatespostalservice-a77078", "operator": "United States Postal Service", "operator:short": "USPS", "operator:type": "public", "operator:wikidata": "Q668687", "ref": "3132800005"}, "type": "Feature"}
{"geometry": {"coordinates": [-81.306705972, 32.362997156], "type": "Point"}, "id": "6Rg2bFXhHpvtgLdPdGTbaGgLxjk=", "properties": {"@source_uri": "https://tools.usps.com/UspsToolsRestServices/rest/POLocator/findLocations", "@spider": "usps_collection_boxes", "addr:city": "SPRINGFIELD", "addr:country": "US", "addr:postcode": "31329", "addr:state": "GA", "addr:street_address": "708 S LAUREL ST", "amenity": "post_box", "collection_times": "Mo-Fr 16:30; Sa 12:00", "note": "ON 12/24 AND 12/31, THIS BOX MAY BE COLLECTED AS EARLY AS 12 NOON.", "nsi_id": "unitedstatespostalservice-a77078", "operator": "United States Postal Service", "operator:short": "USPS", "operator:type": "public", "operator:wikidata": "Q668687", "ref": "3132900001"}, "type": "Feature"}
{"geometry": {"coordinates": [-81.315219397, 32.373878782], "type": "Point"}, "id": "sh6CqctYyQZlAKrgEX3JWEUsTcU=", "properties": {"@source_uri": "https://tools.usps.com/UspsToolsRestServices/rest/POLocator/findLocations", "@spider": "usps_collection_boxes", "addr:city": "SPRINGFIELD", "addr:country": "US", "addr:postcode": "31329", "addr:state": "GA", "addr:street_address": "901 N PINE ST", "amenity": "post_box", "collection_times": "Mo-Sa 11:00", "nsi_id": "unitedstatespostalservice-a77078", "operator": "United States Postal Service", "operator:short": "USPS", "operator:type": "public", "operator:wikidata": "Q668687", "ref": "3132900002"}, "type": "Feature"}
{"geometry": {"coordinates": [-81.306705972, 32.362997156], "type": "Point"}, "id": "XFJ5T_qmbeBhenXuEnuGnzmDF_c=", "properties": {"@source_uri": "https://tools.usps.com/UspsToolsRestServices/rest/POLocator/findLocations", "@spider": "usps_collection_boxes", "addr:city": "SPRINGFIELD", "addr:country": "US", "addr:postcode": "31329", "addr:state": "GA", "addr:street_address": "708 S LAUREL ST", "amenity": "post_box", "collection_times": "Mo-Fr 16:30; Sa 12:00", "indoor": "yes", "note": "ON 12/24 AND 12/31, THIS BOX MAY BE COLLECTED AS EARLY AS 12 NOON.", "nsi_id": "unitedstatespostalservice-a77078", "operator": "United States Postal Service", "operator:short": "USPS", "operator:type": "public", "operator:wikidata": "Q668687", "ref": "3132900003"}, "type": "Feature"}
{"geometry": {"coordinates": [-81.306705972, 32.362997156], "type": "Point"}, "id": "B_xXjSmqDLGBIyvSDpaOVhje8xg=", "properties": {"@source_uri": "https://tools.usps.com/UspsToolsRestServices/rest/POLocator/findLocations", "@spider": "usps_collection_boxes", "addr:city": "SPRINGFIELD", "addr:country": "US", "addr:postcode": "31329", "addr:state": "GA", "addr:street_address": "708 S LAUREL ST", "amenity": "post_box", "collection_times": "Mo-Fr 16:30; Sa 12:00", "indoor": "yes", "note": "ON 12/24 AND 12/31, THIS BOX MAY BE COLLECTED AS EARLY AS 12 NOON.", "nsi_id": "unitedstatespostalservice-a77078", "operator": "United States Postal Service", "operator:short": "USPS", "operator:type": "public", "operator:wikidata": "Q668687", "ref": "3132900007"}, "type": "Feature"}
{"geometry": {"coordinates": [-81.434323755, 31.526411941], "type": "Point"}, "id": "YpVL-9360eseMka5VazZY9LvGgU=", "properties": {"@source_uri": "https://tools.usps.com/UspsToolsRestServices/rest/POLocator/findLocations", "@spider": "usps_collection_boxes", "addr:city": "TOWNSEND", "addr:country": "US", "addr:postcode": "31331", "addr:state": "GA", "addr:street_address": "1219 GA HIGHWAY 57", "amenity": "post_box", "collection_times": "Mo-Fr 16:30; Sa 12:00", "note": "ON 12/24 AND 12/31, THIS BOX MAY BE COLLECTED AS EARLY AS 12 NOON.", "nsi_id": "unitedstatespostalservice-a77078", "operator": "United States Postal Service", "operator:short": "USPS", "operator:type": "public", "operator:wikidata": "Q668687", "ref": "3133100001"}, "type": "Feature"}
{"geometry": {"coordinates": [-81.434323755, 31.526411941], "type": "Point"}, "id": "wTruC-kiZvvcmvJ_C6EQ6OIVFsE=", "properties": {"@source_uri": "https://tools.usps.com/UspsToolsRestServices/rest/POLocator/findLocations", "@spider": "usps_collection_boxes", "addr:city": "TOWNSEND", "addr:country": "US", "addr:postcode": "31331", "addr:state": "GA", "addr:street_address": "1219 GA HIGHWAY 57", "amenity": "post_box", "collection_times": "Mo-Fr 16:30; Sa 12:00", "indoor": "yes", "note": "ON 12/24 AND 12/31, THIS BOX MAY BE COLLECTED AS EARLY AS 12 NOON.", "nsi_id": "unitedstatespostalservice-a77078", "operator": "United States Postal Service", "operator:short": "USPS", "operator:type": "public", "operator:wikidata": "Q668687", "ref": "3133100002"}, "type": "Feature"}
{"geometry": {"coordinates": [-81.434323755, 31.526411941], "type": "Point"}, "id": "vQ_LgYZt3MflfVb0lHSdZaTPvU8=", "properties": {"@source_uri": "https://tools.usps.com/UspsToolsRestServices/rest/POLocator/findLocations", "@spider": "usps_collection_boxes", "addr:city": "TOWNSEND", "addr:country": "US", "addr:postcode": "31331", "addr:state": "GA", "addr:street_address": "1219 GA HIGHWAY 57", "amenity": "post_box", "collection_times": "Mo-Fr 16:30; Sa 12:00", "indoor": "yes", "note": "ON 12/24 AND 12/31, THIS BOX MAY BE COLLECTED AS EARLY AS 12 NOON.", "nsi_id": "unitedstatespostalservice-a77078", "operator": "United States Postal Service", "operator:short": "USPS", "operator:type": "public", "operator:wikidata": "Q668687", "ref": "3133100004"}, "type": "Feature"}
{"geometry": {"coordinates": [-81.633634451, 31.772537717], "type": "Point"}, "id": "hjPXsw4Meixew3yrxU-ZOkgTqOc=", "properties": {"@source_uri": "https://tools.usps.com/UspsToolsRestServices/rest/POLocator/findLocations", "@spider": "usps_collection_boxes", "addr:city": "WALTHOURVILLE", "addr:country": "US", "addr:postcode": "31333", "addr:state": "GA", "addr:street_address": "52 TALMADGE RD", "amenity": "post_box", "collection_times": "Mo-Fr 17:00; Sa 11:30", "note": "ON 12/24 AND 12/31, THIS BOX MAY BE COLLECTED AS EARLY AS 12 NOON.", "nsi_id": "unitedstatespostalservice-a77078", "operator": "United States Postal Service", "operator:short": "USPS", "operator:type": "public", "operator:wikidata": "Q668687", "ref": "3133300001"}, "type": "Feature"}
{"geometry": {"coordinates": [-81.633634451, 31.772537717], "type": "Point"}, "id": "5ni8BgquKa5aFn2TAB2dPGc74d4=", "properties": {"@source_uri": "https://tools.usps.com/UspsToolsRestServices/rest/POLocator/findLocations", "@spider": "usps_collection_boxes", "addr:city": "WALTHOURVILLE", "addr:country": "US", "addr:postcode": "31333", "addr:state": "GA", "addr:street_address": "52 TALMADGE RD", "amenity": "post_box", "collection_times": "Mo-Fr 17:00; Sa 11:30", "indoor": "yes", "note": "ON 12/24 AND 12/31, THIS BOX MAY BE COLLECTED AS EARLY AS 12 NOON.", "nsi_id": "unitedstatespostalservice-a77078", "operator": "United States Postal Service", "operator:short": "USPS", "operator:type": "public", "operator:wikidata": "Q668687", "ref": "3133300002"}, "type": "Feature"}
{"geometry": {"coordinates": [-81.633634451, 31.772537717], "type": "Point"}, "id": "akbX9eZav6_4VcTgIjJVO6aNYdM=", "properties": {"@source_uri": "https://tools.usps.com/UspsToolsRestServices/rest/POLocator/findLocations", "@spider": "usps_collection_boxes", "addr:city": "WALTHOURVILLE", "addr:country": "US", "addr:postcode": "31333", "addr:state": "GA", "addr:street_address": "52 TALMADGE RD", "amenity": "post_box", "collection_times": "Mo-Fr 17:00; Sa 11:30", "indoor": "yes", "note": "ON 12/24 AND 12/31, THIS BOX MAY BE COLLECTED AS EARLY AS 12 NOON.", "nsi_id": "unitedstatespostalservice-a77078", "operator": "United States Postal Service", "operator:short": "USPS", "operator:type": "public", "operator:wikidata": "Q668687", "ref": "3133300003"}, "type": "Feature"}
