{"geometry": {"coordinates": [-81.219972905, 32.117318754], "type": "Point"}, "id": "D_S7sia1_gpf21T3C7yxB_akn7M=", "properties": {"@spider": "usps_collection_boxes", "addr:city": "SAVANNAH", "addr:country": "US", "addr:full": "210 BOURNE BLVD", "addr:postcode": "31408", "addr:state": "GA", "brand": "USPS", "collection_times": "Mo-Fr 13:15", "name": "USPS COLLECTION BOX - BLUE BOX", "note": "ON 12/24 AND 12/31, THIS BOX MAY BE COLLECTED AS EARLY AS 12 NOON.", "ref": "3140800029"}, "type": "Feature"}
{"geometry": {"coordinates": [-81.213836514, 31.98819213], "type": "Point"}, "id": "W3CbK0ET7pcuiklvVijSwidCB6A=", "properties": {"@spider": "usps_collection_boxes", "addr:city": "SAVANNAH", "addr:country": "US", "addr:full": "782A KING GEORGE BLVD", "addr:postcode": "31419", "addr:state": "GA", "brand": "USPS", "collection_times": "Mo-Sa 14:50", "name": "USPS COLLECTION BOX - BLUE BOX", "note": "ON 12/24 AND 12/31, THIS BOX MAY BE COLLECTED AS EARLY AS 12 NOON.", "ref": "3141900074"}, "type": "Feature"}
{"geometry": {"coordinates": [-81.22828939, 32.026337707], "type": "Point"}, "id": "_3xkQ1z2vB3ZERkq4e3k2cTS9Hs=", "properties": {"@spider": "usps_collection_boxes", "addr:city": "SAVANNAH", "addr:country": "US", "addr:full": "50 BERWICK BLVD", "addr:postcode": "31419", "addr:state": "GA", "brand": "USPS", "collection_times": "Mo-Sa 15:00", "name": "USPS COLLECTION BOX - BLUE BOX", "note": "ON 12/24 AND 12/31, THIS BOX MAY BE COLLECTED AS EARLY AS 12 NOON.", "ref": "3141900076"}, "type": "Feature"}
