{"geometry": {"coordinates": [-82.326021036, 31.199703411], "type": "Point"}, "id": "hYacnmIkfdb1MplDr0mnTKLduNA=", "properties": {"@spider": "usps_collection_boxes", "addr:city": "WAYCROSS", "addr:country": "US", "addr:full": "2215 MEMORIAL DR", "addr:postcode": "31501", "addr:state": "GA", "brand": "USPS", "collection_times": "Mo-Fr 11:00", "name": "USPS COLLECTION BOX - BLUE BOX", "ref": "3150100001"}, "type": "Feature"}
{"geometry": {"coordinates": [-82.345649744, 31.225339643], "type": "Point"}, "id": "NMUhpm1iwH3cGtO172Wf_Q6fFa4=", "properties": {"@spider": "usps_collection_boxes", "addr:city": "WAYCROSS", "addr:country": "US", "addr:full": "1921 ALICE ST", "addr:postcode": "31501", "addr:state": "GA", "brand": "USPS", "collection_times": "Mo-Fr 12:00", "name": "USPS COLLECTION BOX - BLUE BOX", "ref": "3150100003"}, "type": "Feature"}
{"geometry": {"coordinates": [-82.331622171, 31.206532665], "type": "Point"}, "id": "PtBwBJ91Uguw65algPS2W4fxvGU=", "properties": {"@spider": "usps_collection_boxes", "addr:city": "WAYCROSS", "addr:country": "US", "addr:full": "1803 KNIGHT AVE", "addr:postcode": "31501", "addr:state": "GA", "brand": "USPS", "collection_times": "Mo-Fr 12:30; Sa 12:00", "name": "USPS COLLECTION BOX - BLUE BOX", "note": "ON 12/24 AND 12/31, THIS BOX MAY BE COLLECTED AS EARLY AS 12 NOON.", "ref": "3150100013"}, "type": "Feature"}
{"geometry": {"coordinates": [-82.360669552, 31.209654519], "type": "Point"}, "id": "_8Sc6wsGuX3NJpnsyjz4IkyN9OM=", "properties": {"@spider": "usps_collection_boxes", "addr:city": "WAYCROSS", "addr:country": "US", "addr:full": "510 ELIZABETH ST", "addr:postcode": "31501", "addr:state": "GA", "brand": "USPS", "collection_times": "Mo-Fr 13:00", "name": "USPS COLLECTION BOX - BLUE BOX", "note": "ON 12/24 AND 12/31, THIS BOX MAY BE COLLECTED AS EARLY AS 12 NOON.", "ref": "3150100016"}, "type": "Feature"}
{"geometry": {"coordinates": [-82.33164333, 31.231380995], "type": "Point"}, "id": "u_Lj0JR0wzNGwz5aWh46QuvEoYc=", "properties": {"@spider": "usps_collection_boxes", "addr:city": "WAYCROSS", "addr:country": "US", "addr:full": "2503 PLANT AVE", "addr:postcode": "31501", "addr:state": "GA", "brand": "USPS", "collection_times": "Mo-Fr 13:00", "name": "USPS COLLECTION BOX - BLUE BOX", "note": "ON 12/24 AND 12/31, THIS BOX MAY BE COLLECTED AS EARLY AS 12 NOON.", "ref": "3150100020"}, "type": "Feature"}
{"geometry": {"coordinates": [-82.349638143, 31.217074585], "type": "Point"}, "id": "vRLevwb7HBXDSIxdQ8URD7dXBio=", "properties": {"@spider": "usps_collection_boxes", "addr:city": "WAYCROSS", "addr:country": "US", "addr:full": "1312 PLANT AVE", "addr:postcode": "31501", "addr:state": "GA", "brand": "USPS", "collection_times": "Mo-Fr 12:30", "name": "USPS COLLECTION BOX - BLUE BOX", "note": "ON 12/24 AND 12/31, THIS BOX MAY BE COLLECTED AS EARLY AS 12 NOON.", "ref": "3150100027"}, "type": "Feature"}
{"geometry": {"coordinates": [-82.360922572, 31.213653862], "type": "Point"}, "id": "5-B76FfhhOak6umPaAebdBB0jbA=", "properties": {"@spider": "usps_collection_boxes", "addr:city": "WAYCROSS", "addr:country": "US", "addr:full": "601 TEBEAU ST", "addr:postcode": "31501", "addr:state": "GA", "brand": "USPS", "collection_times": "Mo-Sa 17:00", "name": "USPS COLLECTION BOX - BLUE BOX", "note": "ON 12/24 AND 12/31, THIS BOX MAY BE COLLECTED AS EARLY AS 12 NOON.", "ref": "3150100039"}, "type": "Feature"}
{"geometry": {"coordinates": [-82.360922572, 31.213653862], "type": "Point"}, "id": "5fo87_VmSf8q624AwFesUO2vsxY=", "properties": {"@spider": "usps_collection_boxes", "addr:city": "WAYCROSS", "addr:country": "US", "addr:full": "601 TEBEAU ST", "addr:postcode": "31501", "addr:state": "GA", "brand": "USPS", "collection_times": "Mo-Sa 17:00", "name": "USPS COLLECTION BOX - BLUE BOX", "note": "ON 12/24 AND 12/31, THIS BOX MAY BE COLLECTED AS EARLY AS 12 NOON.", "ref": "3150100040"}, "type": "Feature"}
{"geometry": {"coordinates": [-82.355876437, 31.21335919], "type": "Point"}, "id": "D62KZRYe90wNNtp92ks4e3koHCs=", "properties": {"@spider": "usps_collection_boxes", "addr:city": "WAYCROSS", "addr:country": "US", "addr:full": "800 CHURCH ST", "addr:postcode": "31501", "addr:state": "GA", "brand": "USPS", "collection_times": "Mo-Fr 13:30", "name": "USPS COLLECTION BOX - BLUE BOX", "note": "ON 12/24 AND 12/31, THIS BOX MAY BE COLLECTED AS EARLY AS 12 NOON.", "ref": "3150100045"}, "type": "Feature"}
{"geometry": {"coordinates": [-82.360922572, 31.213653862], "type": "Point"}, "id": "RZnUarTm0Rb-s3QwZOULloyUPOU=", "properties": {"@spider": "usps_collection_boxes", "addr:city": "WAYCROSS", "addr:country": "US", "addr:full": "601 TEBEAU ST", "addr:postcode": "31501", "addr:state": "GA", "brand": "USPS", "collection_times": "Mo-Sa 17:00", "name": "USPS COLLECTION BOX - PO LOBBY", "note": "ON 12/24 AND 12/31, THIS BOX MAY BE COLLECTED AS EARLY AS 12 NOON.", "ref": "3150100058"}, "type": "Feature"}
{"geometry": {"coordinates": [-82.339759591, 31.208437911], "type": "Point"}, "id": "ZF-TISN5hKNvVrYCNj7JwISHeVI=", "properties": {"@spider": "usps_collection_boxes", "addr:city": "WAYCROSS", "addr:country": "US", "addr:full": "1600 MEMORIAL DR", "addr:postcode": "31501", "addr:state": "GA", "brand": "USPS", "collection_times": "Mo-Fr 10:00", "name": "USPS COLLECTION BOX - BLUE BOX", "ref": "3150100069"}, "type": "Feature"}
{"geometry": {"coordinates": [-82.358441948, 31.211320507], "type": "Point"}, "id": "dUPoSV9goh8e00qlqJhd58lqlgA=", "properties": {"@spider": "usps_collection_boxes", "addr:city": "WAYCROSS", "addr:country": "US", "addr:full": "303 ISABELLA ST", "addr:postcode": "31501", "addr:state": "GA", "brand": "USPS", "collection_times": "Mo-Fr 13:30", "name": "USPS COLLECTION BOX - BLUE BOX", "note": "ON 12/24 AND 12/31, THIS BOX MAY BE COLLECTED AS EARLY AS 12 NOON.", "ref": "3150100079"}, "type": "Feature"}
{"geometry": {"coordinates": [-82.360922572, 31.213653862], "type": "Point"}, "id": "20sHMrMVZjHicFrrp4f5dEo__Pg=", "properties": {"@spider": "usps_collection_boxes", "addr:city": "WAYCROSS", "addr:country": "US", "addr:full": "601 TEBEAU ST", "addr:postcode": "31501", "addr:state": "GA", "brand": "USPS", "collection_times": "Mo-Sa 17:00", "name": "USPS COLLECTION BOX - PO LOBBY", "note": "ON 12/24 AND 12/31, THIS BOX MAY BE COLLECTED AS EARLY AS 12 NOON.", "ref": "3150100082"}, "type": "Feature"}
{"geometry": {"coordinates": [-82.322231677, 31.196435592], "type": "Point"}, "id": "niug9DSaNheYI50mKiCSUDjZupY=", "properties": {"@spider": "usps_collection_boxes", "addr:city": "WAYCROSS", "addr:country": "US", "addr:full": "2425 MEMORIAL DR", "addr:postcode": "31503", "addr:state": "GA", "brand": "USPS", "collection_times": "Mo-Fr 10:00", "name": "USPS COLLECTION BOX - BLUE BOX", "ref": "3150300003"}, "type": "Feature"}
{"geometry": {"coordinates": [-82.332721541, 31.203047899], "type": "Point"}, "id": "-HV0_e-DC8-DbPz319gBoI-6k3o=", "properties": {"@spider": "usps_collection_boxes", "addr:city": "WAYCROSS", "addr:country": "US", "addr:full": "1912 MEMORIAL DR", "addr:postcode": "31503", "addr:state": "GA", "brand": "USPS", "collection_times": "Mo-Fr 10:00", "name": "USPS COLLECTION BOX - BLUE BOX", "ref": "3150300011"}, "type": "Feature"}
{"geometry": {"coordinates": [-82.320745315, 31.194659319], "type": "Point"}, "id": "PTlSBIofmzgDEP2_9hYXktMUWgM=", "properties": {"@spider": "usps_collection_boxes", "addr:city": "WAYCROSS", "addr:country": "US", "addr:full": "2496 MEMORIAL DR", "addr:postcode": "31503", "addr:state": "GA", "brand": "USPS", "collection_times": "Mo-Fr 09:45", "name": "USPS COLLECTION BOX - BLUE BOX", "ref": "3150300012"}, "type": "Feature"}
{"geometry": {"coordinates": [-82.333515163, 31.209408612], "type": "Point"}, "id": "QlhJyynNDGdDz7d5uhE9wxn5XNg=", "properties": {"@spider": "usps_collection_boxes", "addr:city": "WAYCROSS", "addr:country": "US", "addr:full": "1701 BOULEVARD SQ", "addr:postcode": "31503", "addr:state": "GA", "brand": "USPS", "collection_times": "Mo-Fr 13:30", "name": "USPS COLLECTION BOX - BLUE BOX", "note": "ON 12/24 AND 12/31, THIS BOX MAY BE COLLECTED AS EARLY AS 12 NOON.", "ref": "3150300015"}, "type": "Feature"}
{"geometry": {"coordinates": [-82.469038227, 31.542133082], "type": "Point"}, "id": "0jtNw38aBozSkN5zMbfZtUYv0AM=", "properties": {"@spider": "usps_collection_boxes", "addr:city": "ALMA", "addr:country": "US", "addr:full": "523 W 12TH ST", "addr:postcode": "31510", "addr:state": "GA", "brand": "USPS", "collection_times": "Mo-Fr 16:30; Sa 12:00", "name": "USPS COLLECTION BOX - PO LOBBY", "note": "ON 12/24 AND 12/31, THIS BOX MAY BE COLLECTED AS EARLY AS 12 NOON.", "ref": "3151000000"}, "type": "Feature"}
{"geometry": {"coordinates": [-82.469053092, 31.541999762], "type": "Point"}, "id": "OcP5sdEREqE3XB8RxbDaZV79ky0=", "properties": {"@spider": "usps_collection_boxes", "addr:city": "ALMA", "addr:country": "US", "addr:full": "522 W 12TH ST", "addr:postcode": "31510", "addr:state": "GA", "brand": "USPS", "collection_times": "Mo-Fr 16:30; Sa 12:00", "name": "USPS COLLECTION BOX - BLUE BOX", "note": "ON 12/24 AND 12/31, THIS BOX MAY BE COLLECTED AS EARLY AS 12 NOON.", "ref": "3151000004"}, "type": "Feature"}
{"geometry": {"coordinates": [-82.4690855, 31.542138353], "type": "Point"}, "id": "ZzzYM6uGYICaCf-nsNJDpgCQ6GI=", "properties": {"@spider": "usps_collection_boxes", "addr:city": "ALMA", "addr:country": "US", "addr:full": "527 W 12TH ST", "addr:postcode": "31510", "addr:state": "GA", "brand": "USPS", "collection_times": "Mo-Fr 16:30; Sa 12:00", "name": "USPS COLLECTION BOX - BLUE BOX", "note": "ON 12/24 AND 12/31, THIS BOX MAY BE COLLECTED AS EARLY AS 12 NOON.", "ref": "3151000005"}, "type": "Feature"}
{"geometry": {"coordinates": [-82.469038227, 31.542133082], "type": "Point"}, "id": "lp-Nxvz1mlwl8pU8Jvk3vy-8doI=", "properties": {"@spider": "usps_collection_boxes", "addr:city": "ALMA", "addr:country": "US", "addr:full": "523 W 12TH ST", "addr:postcode": "31510", "addr:state": "GA", "brand": "USPS", "collection_times": "Mo-Fr 16:30; Sa 12:00", "name": "USPS COLLECTION BOX - PO LOBBY", "note": "ON 12/24 AND 12/31, THIS BOX MAY BE COLLECTED AS EARLY AS 12 NOON.", "ref": "3151000010"}, "type": "Feature"}
{"geometry": {"coordinates": [-83.013233311, 31.592991836], "type": "Point"}, "id": "1e9Ci8GGLu0XoetxZBlJS3QEqX4=", "properties": {"@spider": "usps_collection_boxes", "addr:city": "AMBROSE", "addr:country": "US", "addr:full": "17 PINE ST", "addr:postcode": "31512", "addr:state": "GA", "brand": "USPS", "collection_times": "Mo-Fr 12:30; Sa 11:00", "name": "USPS COLLECTION BOX - BLUE BOX", "note": "ON 12/24 AND 12/31, THIS BOX MAY BE COLLECTED AS EARLY AS 12 NOON.", "ref": "3151200000"}, "type": "Feature"}
{"geometry": {"coordinates": [-83.013233311, 31.592991836], "type": "Point"}, "id": "zDPpk7k-WIXhpHxsqJCM5KNwF-E=", "properties": {"@spider": "usps_collection_boxes", "addr:city": "AMBROSE", "addr:country": "US", "addr:full": "17 PINE ST", "addr:postcode": "31512", "addr:state": "GA", "brand": "USPS", "collection_times": "Mo-Fr 12:30; Sa 11:00", "name": "USPS COLLECTION BOX - PO LOBBY", "note": "ON 12/24 AND 12/31, THIS BOX MAY BE COLLECTED AS EARLY AS 12 NOON.", "ref": "3151200001"}, "type": "Feature"}
{"geometry": {"coordinates": [-83.013233311, 31.592991836], "type": "Point"}, "id": "vSxaaq8n-NsWKHYNrtsRcbjEMJU=", "properties": {"@spider": "usps_collection_boxes", "addr:city": "AMBROSE", "addr:country": "US", "addr:full": "17 PINE ST", "addr:postcode": "31512", "addr:state": "GA", "brand": "USPS", "collection_times": "Mo-Fr 12:30; Sa 11:00", "name": "USPS COLLECTION BOX - PO LOBBY", "note": "ON 12/24 AND 12/31, THIS BOX MAY BE COLLECTED AS EARLY AS 12 NOON.", "ref": "3151200003"}, "type": "Feature"}
{"geometry": {"coordinates": [-82.344266403, 31.779046548], "type": "Point"}, "id": "fULhrtVKgwd3RdEGD-OpuL_zg4M=", "properties": {"@spider": "usps_collection_boxes", "addr:city": "BAXLEY", "addr:country": "US", "addr:full": "125 N OAK ST", "addr:postcode": "31513", "addr:state": "GA", "brand": "USPS", "collection_times": "Mo-Sa 16:30", "name": "USPS COLLECTION BOX - BLUE BOX", "note": "ON 12/24 AND 12/31, THIS BOX MAY BE COLLECTED AS EARLY AS 12 NOON.", "ref": "3151300005"}, "type": "Feature"}
{"geometry": {"coordinates": [-82.349707028, 31.777886505], "type": "Point"}, "id": "Q9YkXVb-TnaSr0ZoeSbBnCN6S6I=", "properties": {"@spider": "usps_collection_boxes", "addr:city": "BAXLEY", "addr:country": "US", "addr:full": "69 TIPPINS ST", "addr:postcode": "31513", "addr:state": "GA", "brand": "USPS", "collection_times": "Mo-Fr 15:45; Sa 13:15", "name": "USPS COLLECTION BOX - BLUE BOX", "note": "ON 12/24 AND 12/31, THIS BOX MAY BE COLLECTED AS EARLY AS 12 NOON.", "ref": "3151300006"}, "type": "Feature"}
{"geometry": {"coordinates": [-82.344266403, 31.779046548], "type": "Point"}, "id": "zLH6bhHnB8Lr0QwP3nIuYXBeSf8=", "properties": {"@spider": "usps_collection_boxes", "addr:city": "BAXLEY", "addr:country": "US", "addr:full": "125 N OAK ST", "addr:postcode": "31513", "addr:state": "GA", "brand": "USPS", "collection_times": "Mo-Fr 17:00; Sa 16:30", "name": "USPS COLLECTION BOX - PO LOBBY", "note": "ON 12/24 AND 12/31, THIS BOX MAY BE COLLECTED AS EARLY AS 12 NOON.", "ref": "3151300008"}, "type": "Feature"}
{"geometry": {"coordinates": [-82.344266403, 31.779046548], "type": "Point"}, "id": "H8bkegfl76A15ojbSvx2r3PBu0U=", "properties": {"@spider": "usps_collection_boxes", "addr:city": "BAXLEY", "addr:country": "US", "addr:full": "125 N OAK ST", "addr:postcode": "31513", "addr:state": "GA", "brand": "USPS", "collection_times": "Mo-Fr 17:00; Sa 16:30", "name": "USPS COLLECTION BOX - PO LOBBY", "note": "ON 12/24 AND 12/31, THIS BOX MAY BE COLLECTED AS EARLY AS 12 NOON.", "ref": "3151300015"}, "type": "Feature"}
{"geometry": {"coordinates": [-82.244318846, 31.304845942], "type": "Point"}, "id": "mSAmuL23maIue7qvMX7OgY4AX94=", "properties": {"@spider": "usps_collection_boxes", "addr:city": "BLACKSHEAR", "addr:country": "US", "addr:full": "3503 US HIGHWAY 84", "addr:postcode": "31516", "addr:state": "GA", "brand": "USPS", "collection_times": "Mo-Fr 12:00; Sa 10:00", "name": "USPS COLLECTION BOX - BLUE BOX", "ref": "3151600002"}, "type": "Feature"}
{"geometry": {"coordinates": [-82.239411879, 31.303380477], "type": "Point"}, "id": "M-lqWC2Kg393EoA5VaeUw48vXuQ=", "properties": {"@spider": "usps_collection_boxes", "addr:city": "BLACKSHEAR", "addr:country": "US", "addr:full": "327 MAIN ST", "addr:postcode": "31516", "addr:state": "GA", "brand": "USPS", "collection_times": "Mo-Fr 17:00; Sa 12:00", "name": "USPS COLLECTION BOX - BLUE BOX", "note": "ON 12/24 AND 12/31, THIS BOX MAY BE COLLECTED AS EARLY AS 12 NOON.", "ref": "3151600006"}, "type": "Feature"}
{"geometry": {"coordinates": [-82.239411879, 31.303380477], "type": "Point"}, "id": "9OXltN2Z-Pgi1vN2epEu_kIYSww=", "properties": {"@spider": "usps_collection_boxes", "addr:city": "BLACKSHEAR", "addr:country": "US", "addr:full": "327 MAIN ST", "addr:postcode": "31516", "addr:state": "GA", "brand": "USPS", "collection_times": "Mo-Fr 17:00; Sa 12:00", "name": "USPS COLLECTION BOX - PO LOBBY", "note": "ON 12/24 AND 12/31, THIS BOX MAY BE COLLECTED AS EARLY AS 12 NOON.", "ref": "3151600011"}, "type": "Feature"}
{"geometry": {"coordinates": [-82.239411879, 31.303380477], "type": "Point"}, "id": "QkQyNDiN7f-X7GSC0FrANuSpCuk=", "properties": {"@spider": "usps_collection_boxes", "addr:city": "BLACKSHEAR", "addr:country": "US", "addr:full": "327 MAIN ST", "addr:postcode": "31516", "addr:state": "GA", "brand": "USPS", "collection_times": "Mo-Fr 17:00; Sa 12:00", "name": "USPS COLLECTION BOX - PO LOBBY", "note": "ON 12/24 AND 12/31, THIS BOX MAY BE COLLECTED AS EARLY AS 12 NOON.", "ref": "3151600015"}, "type": "Feature"}
{"geometry": {"coordinates": [-82.21463213, 31.449120234], "type": "Point"}, "id": "a9UCwASf-Em2AMEPTyrzAYpGOBU=", "properties": {"@spider": "usps_collection_boxes", "addr:city": "BRISTOL", "addr:country": "US", "addr:full": "1983 GA HIGHWAY 121", "addr:postcode": "31518", "addr:state": "GA", "brand": "USPS", "collection_times": "Mo-Fr 15:30; Sa 10:45", "name": "USPS COLLECTION BOX - BLUE BOX", "note": "ON 12/24 AND 12/31, THIS BOX MAY BE COLLECTED AS EARLY AS 12 NOON.", "ref": "3151800001"}, "type": "Feature"}
{"geometry": {"coordinates": [-82.21463213, 31.449120234], "type": "Point"}, "id": "KaObaR-Iy5k4NB7-6Kx6k3j1NjY=", "properties": {"@spider": "usps_collection_boxes", "addr:city": "BRISTOL", "addr:country": "US", "addr:full": "1983 GA HIGHWAY 121", "addr:postcode": "31518", "addr:state": "GA", "brand": "USPS", "collection_times": "Mo-Fr 15:30; Sa 10:45", "name": "USPS COLLECTION BOX - PO LOBBY", "note": "ON 12/24 AND 12/31, THIS BOX MAY BE COLLECTED AS EARLY AS 12 NOON.", "ref": "3151800002"}, "type": "Feature"}
{"geometry": {"coordinates": [-82.21463213, 31.449120234], "type": "Point"}, "id": "hdEfmnSrONIMyle3RFX3qunhIp4=", "properties": {"@spider": "usps_collection_boxes", "addr:city": "BRISTOL", "addr:country": "US", "addr:full": "1983 GA HIGHWAY 121", "addr:postcode": "31518", "addr:state": "GA", "brand": "USPS", "collection_times": "Mo-Fr 15:30; Sa 10:45", "name": "USPS COLLECTION BOX - PO LOBBY", "note": "ON 12/24 AND 12/31, THIS BOX MAY BE COLLECTED AS EARLY AS 12 NOON.", "ref": "3151800004"}, "type": "Feature"}
{"geometry": {"coordinates": [-82.886131989, 31.626616077], "type": "Point"}, "id": "f9gBV-P8j-uSQ0UxuxaVvI5WcQo=", "properties": {"@spider": "usps_collection_boxes", "addr:city": "BROXTON", "addr:country": "US", "addr:full": "200 OCMULGEE ST E", "addr:postcode": "31519", "addr:state": "GA", "brand": "USPS", "collection_times": "Mo-Fr 16:00; Sa 11:30", "name": "USPS COLLECTION BOX - BLUE BOX", "note": "ON 12/24 AND 12/31, THIS BOX MAY BE COLLECTED AS EARLY AS 12 NOON.", "ref": "3151900001"}, "type": "Feature"}
{"geometry": {"coordinates": [-82.886131989, 31.626616077], "type": "Point"}, "id": "fKqETJ7IM91VmLUO17DN5zaZ7FM=", "properties": {"@spider": "usps_collection_boxes", "addr:city": "BROXTON", "addr:country": "US", "addr:full": "200 OCMULGEE ST E", "addr:postcode": "31519", "addr:state": "GA", "brand": "USPS", "collection_times": "Mo-Fr 16:00; Sa 11:30", "name": "USPS COLLECTION BOX - PO LOBBY", "note": "ON 12/24 AND 12/31, THIS BOX MAY BE COLLECTED AS EARLY AS 12 NOON.", "ref": "3151900003"}, "type": "Feature"}
{"geometry": {"coordinates": [-82.886131989, 31.626616077], "type": "Point"}, "id": "B3cATaDWkozMBKnGgV9ng2zleIs=", "properties": {"@spider": "usps_collection_boxes", "addr:city": "BROXTON", "addr:country": "US", "addr:full": "200 OCMULGEE ST E", "addr:postcode": "31519", "addr:state": "GA", "brand": "USPS", "collection_times": "Mo-Fr 16:00; Sa 11:30", "name": "USPS COLLECTION BOX - PO LOBBY", "note": "ON 12/24 AND 12/31, THIS BOX MAY BE COLLECTED AS EARLY AS 12 NOON.", "ref": "3151900005"}, "type": "Feature"}
{"geometry": {"coordinates": [-82.697857565, 31.721256387], "type": "Point"}, "id": "dSUxcfDE7573cwqINOQu2ooSnjc=", "properties": {"@spider": "usps_collection_boxes", "addr:city": "DENTON", "addr:country": "US", "addr:full": "5 E GEORGIA AVE", "addr:postcode": "31532", "addr:state": "GA", "brand": "USPS", "collection_times": "Mo-Fr 12:30; Sa 11:00", "name": "USPS COLLECTION BOX - BLUE BOX", "note": "ON 12/24 AND 12/31, THIS BOX MAY BE COLLECTED AS EARLY AS 12 NOON.", "ref": "3153200001"}, "type": "Feature"}
{"geometry": {"coordinates": [-82.861823865, 31.509298543], "type": "Point"}, "id": "PXpw94MhN8_q3UUo71Nu2FfXwdI=", "properties": {"@spider": "usps_collection_boxes", "addr:city": "DOUGLAS", "addr:country": "US", "addr:full": "1002 WARD ST W", "addr:postcode": "31533", "addr:state": "GA", "brand": "USPS", "collection_times": "Mo-Sa 12:00", "name": "USPS COLLECTION BOX - BLUE BOX", "ref": "3153300004"}, "type": "Feature"}
{"geometry": {"coordinates": [-82.850149463, 31.49167801], "type": "Point"}, "id": "AQ7LrlI7fyTxI3rRurnZYV23ZZQ=", "properties": {"@spider": "usps_collection_boxes", "addr:city": "DOUGLAS", "addr:country": "US", "addr:full": "1300 MADISON AVE S", "addr:postcode": "31533", "addr:state": "GA", "brand": "USPS", "collection_times": "Mo-Fr 11:00; Sa 10:30", "name": "USPS COLLECTION BOX - BLUE BOX", "ref": "3153300013"}, "type": "Feature"}
{"geometry": {"coordinates": [-82.84955572, 31.502421301], "type": "Point"}, "id": "BYXuIQNj8LUa1dxgLVr36dIbY0U=", "properties": {"@spider": "usps_collection_boxes", "addr:city": "DOUGLAS", "addr:country": "US", "addr:full": "600 MADISON AVE S", "addr:postcode": "31533", "addr:state": "GA", "brand": "USPS", "collection_times": "Mo-Fr 17:00; Sa 16:00", "name": "USPS COLLECTION BOX - BLUE BOX", "note": "ON 12/24 AND 12/31, THIS BOX MAY BE COLLECTED AS EARLY AS 12 NOON.", "ref": "3153300018"}, "type": "Feature"}
{"geometry": {"coordinates": [-82.84955572, 31.502421301], "type": "Point"}, "id": "mIi8GrokAAAiM7Wgtpok0wS2SW4=", "properties": {"@spider": "usps_collection_boxes", "addr:city": "DOUGLAS", "addr:country": "US", "addr:full": "600 MADISON AVE S", "addr:postcode": "31533", "addr:state": "GA", "brand": "USPS", "collection_times": "Mo-Fr 17:00; Sa 16:00", "name": "USPS COLLECTION BOX - PO LOBBY", "note": "ON 12/24 AND 12/31, THIS BOX MAY BE COLLECTED AS EARLY AS 12 NOON.", "ref": "3153300027"}, "type": "Feature"}
{"geometry": {"coordinates": [-82.84955572, 31.502421301], "type": "Point"}, "id": "1pcggchRvvzPWU3Lx5oUXl3NI7k=", "properties": {"@spider": "usps_collection_boxes", "addr:city": "DOUGLAS", "addr:country": "US", "addr:full": "600 MADISON AVE S", "addr:postcode": "31533", "addr:state": "GA", "brand": "USPS", "collection_times": "Mo-Fr 17:00; Sa 16:00", "name": "USPS COLLECTION BOX - PO LOBBY", "note": "ON 12/24 AND 12/31, THIS BOX MAY BE COLLECTED AS EARLY AS 12 NOON.", "ref": "3153300037"}, "type": "Feature"}
{"geometry": {"coordinates": [-82.600318343, 31.862759011], "type": "Point"}, "id": "W5tBN7GdwrcM1N6fXzpb3tIsdRI=", "properties": {"@spider": "usps_collection_boxes", "addr:city": "HAZLEHURST", "addr:country": "US", "addr:full": "14 JEFF DAVIS ST", "addr:postcode": "31539", "addr:state": "GA", "brand": "USPS", "collection_times": "Mo-Fr 15:30", "name": "USPS COLLECTION BOX - BLUE BOX", "note": "ON 12/24 AND 12/31, THIS BOX MAY BE COLLECTED AS EARLY AS 12 NOON.", "ref": "3153900011"}, "type": "Feature"}
{"geometry": {"coordinates": [-82.597646918, 31.864228523], "type": "Point"}, "id": "a9RboKVgQdf_9X-B1iXUxQpS3uc=", "properties": {"@spider": "usps_collection_boxes", "addr:city": "HAZLEHURST", "addr:country": "US", "addr:full": "25 S CROMARTIE ST", "addr:postcode": "31539", "addr:state": "GA", "brand": "USPS", "collection_times": "Mo-Fr 16:30; Sa 12:00", "name": "USPS COLLECTION BOX - BLUE BOX", "note": "ON 12/24 AND 12/31, THIS BOX MAY BE COLLECTED AS EARLY AS 12 NOON.", "ref": "3153900012"}, "type": "Feature"}
{"geometry": {"coordinates": [-82.597646918, 31.864228523], "type": "Point"}, "id": "vukilD26Fmnqhosd4-hDFcmmeJs=", "properties": {"@spider": "usps_collection_boxes", "addr:city": "HAZLEHURST", "addr:country": "US", "addr:full": "25 S CROMARTIE ST", "addr:postcode": "31539", "addr:state": "GA", "brand": "USPS", "collection_times": "Mo-Fr 16:30; Sa 12:00", "name": "USPS COLLECTION BOX - PO LOBBY", "note": "ON 12/24 AND 12/31, THIS BOX MAY BE COLLECTED AS EARLY AS 12 NOON.", "ref": "3153900013"}, "type": "Feature"}
{"geometry": {"coordinates": [-82.597646918, 31.864228523], "type": "Point"}, "id": "suTzk7DZHCEFkbrIV3X7i4tLseg=", "properties": {"@spider": "usps_collection_boxes", "addr:city": "HAZLEHURST", "addr:country": "US", "addr:full": "25 S CROMARTIE ST", "addr:postcode": "31539", "addr:state": "GA", "brand": "USPS", "collection_times": "Mo-Fr 16:30", "name": "USPS COLLECTION BOX - PO LOBBY", "note": "ON 12/24 AND 12/31, THIS BOX MAY BE COLLECTED AS EARLY AS 12 NOON.", "ref": "3153900018"}, "type": "Feature"}
{"geometry": {"coordinates": [-82.128465289, 31.181186793], "type": "Point"}, "id": "getGR31aebo_qPolNj-4xmkPHVU=", "properties": {"@spider": "usps_collection_boxes", "addr:city": "HOBOKEN", "addr:country": "US", "addr:full": "4850 MAIN ST E", "addr:postcode": "31542", "addr:state": "GA", "brand": "USPS", "collection_times": "Mo-Fr 15:00; Sa 10:30", "name": "USPS COLLECTION BOX - BLUE BOX", "note": "ON 12/24 AND 12/31, THIS BOX MAY BE COLLECTED AS EARLY AS 12 NOON.", "ref": "3154200001"}, "type": "Feature"}
{"geometry": {"coordinates": [-82.128465289, 31.181186793], "type": "Point"}, "id": "bBFfumzig1RkYhvQwHHhLxiZLtI=", "properties": {"@spider": "usps_collection_boxes", "addr:city": "HOBOKEN", "addr:country": "US", "addr:full": "4850 MAIN ST E", "addr:postcode": "31542", "addr:state": "GA", "brand": "USPS", "collection_times": "Mo-Fr 15:00; Sa 10:30", "name": "USPS COLLECTION BOX - PO LOBBY", "note": "ON 12/24 AND 12/31, THIS BOX MAY BE COLLECTED AS EARLY AS 12 NOON.", "ref": "3154200002"}, "type": "Feature"}
{"geometry": {"coordinates": [-82.128465289, 31.181186793], "type": "Point"}, "id": "O2PRgZXVUsqnMRkbMTqBRee4Qlw=", "properties": {"@spider": "usps_collection_boxes", "addr:city": "HOBOKEN", "addr:country": "US", "addr:full": "4850 MAIN ST E", "addr:postcode": "31542", "addr:state": "GA", "brand": "USPS", "collection_times": "Mo-Fr 15:00; Sa 10:30", "name": "USPS COLLECTION BOX - PO LOBBY", "note": "ON 12/24 AND 12/31, THIS BOX MAY BE COLLECTED AS EARLY AS 12 NOON.", "ref": "3154200004"}, "type": "Feature"}
{"geometry": {"coordinates": [-81.955816408, 31.336334581], "type": "Point"}, "id": "VUiBhKTwgZEba9M-maLoZZOMlnE=", "properties": {"@spider": "usps_collection_boxes", "addr:city": "HORTENSE", "addr:country": "US", "addr:full": "4779 HIGHWAY 32 W", "addr:postcode": "31543", "addr:state": "GA", "brand": "USPS", "collection_times": "Mo-Fr 15:00; Sa 10:00", "name": "USPS COLLECTION BOX - BLUE BOX", "note": "ON 12/24 AND 12/31, THIS BOX MAY BE COLLECTED AS EARLY AS 12 NOON.", "ref": "3154300001"}, "type": "Feature"}
{"geometry": {"coordinates": [-81.955816408, 31.336334581], "type": "Point"}, "id": "yEc28UVvo9KccQKLbwRUVj82jn0=", "properties": {"@spider": "usps_collection_boxes", "addr:city": "HORTENSE", "addr:country": "US", "addr:full": "4779 HIGHWAY 32 W", "addr:postcode": "31543", "addr:state": "GA", "brand": "USPS", "collection_times": "Mo-Fr 15:00; Sa 10:00", "name": "USPS COLLECTION BOX - PO LOBBY", "note": "ON 12/24 AND 12/31, THIS BOX MAY BE COLLECTED AS EARLY AS 12 NOON.", "ref": "3154300002"}, "type": "Feature"}
{"geometry": {"coordinates": [-81.955816408, 31.336334581], "type": "Point"}, "id": "DylsmAosOSifBkBnZeMMdhPzAGg=", "properties": {"@spider": "usps_collection_boxes", "addr:city": "HORTENSE", "addr:country": "US", "addr:full": "4779 HIGHWAY 32 W", "addr:postcode": "31543", "addr:state": "GA", "brand": "USPS", "collection_times": "Mo-Fr 15:00; Sa 10:00", "name": "USPS COLLECTION BOX - PO LOBBY", "note": "ON 12/24 AND 12/31, THIS BOX MAY BE COLLECTED AS EARLY AS 12 NOON.", "ref": "3154300004"}, "type": "Feature"}
{"geometry": {"coordinates": [-82.978148522, 31.813063233], "type": "Point"}, "id": "7PzQvU1vaOQsdXwATa3cLRCOHkE=", "properties": {"@spider": "usps_collection_boxes", "addr:city": "JACKSONVILLE", "addr:country": "US", "addr:full": "16 WATER TOWER RD", "addr:postcode": "31544", "addr:state": "GA", "brand": "USPS", "collection_times": "Mo-Fr 12:30; Sa 11:00", "name": "USPS COLLECTION BOX - BLUE BOX", "note": "ON 12/24 AND 12/31, THIS BOX MAY BE COLLECTED AS EARLY AS 12 NOON.", "ref": "3154400001"}, "type": "Feature"}
{"geometry": {"coordinates": [-82.978148522, 31.813063233], "type": "Point"}, "id": "lB7Wm2a9PihVA7InN6tel1TDgnU=", "properties": {"@spider": "usps_collection_boxes", "addr:city": "JACKSONVILLE", "addr:country": "US", "addr:full": "16 WATER TOWER RD", "addr:postcode": "31544", "addr:state": "GA", "brand": "USPS", "collection_times": "Mo-Fr 12:30; Sa 11:00", "name": "USPS COLLECTION BOX - PO LOBBY", "note": "ON 12/24 AND 12/31, THIS BOX MAY BE COLLECTED AS EARLY AS 12 NOON.", "ref": "3154400002"}, "type": "Feature"}
{"geometry": {"coordinates": [-82.978148522, 31.813063233], "type": "Point"}, "id": "mSqBfgoOBimT9voKHHnd4o_wkBA=", "properties": {"@spider": "usps_collection_boxes", "addr:city": "JACKSONVILLE", "addr:country": "US", "addr:full": "16 WATER TOWER RD", "addr:postcode": "31544", "addr:state": "GA", "brand": "USPS", "collection_times": "Mo-Fr 12:30; Sa 11:00", "name": "USPS COLLECTION BOX - PO LOBBY", "note": "ON 12/24 AND 12/31, THIS BOX MAY BE COLLECTED AS EARLY AS 12 NOON.", "ref": "3154400004"}, "type": "Feature"}
{"geometry": {"coordinates": [-81.901696753, 31.603783979], "type": "Point"}, "id": "CyPyb7em8QLkxe-ulQYmgzLS01I=", "properties": {"@spider": "usps_collection_boxes", "addr:city": "JESUP", "addr:country": "US", "addr:full": "955 S 1ST ST", "addr:postcode": "31545", "addr:state": "GA", "brand": "USPS", "collection_times": "Mo-Fr 14:00; Sa 12:00", "name": "USPS COLLECTION BOX - BLUE BOX", "note": "ON 12/24 AND 12/31, THIS BOX MAY BE COLLECTED AS EARLY AS 12 NOON.", "ref": "3154500010"}, "type": "Feature"}
{"geometry": {"coordinates": [-81.885979319, 31.606703194], "type": "Point"}, "id": "zPIOI_rrHwnyYkkme4JmLTGJlyg=", "properties": {"@spider": "usps_collection_boxes", "addr:city": "JESUP", "addr:country": "US", "addr:full": "150 S 1ST ST", "addr:postcode": "31545", "addr:state": "GA", "brand": "USPS", "collection_times": "Mo-Fr 15:00", "name": "USPS COLLECTION BOX - BLUE BOX", "note": "ON 12/24 AND 12/31, THIS BOX MAY BE COLLECTED AS EARLY AS 12 NOON.", "ref": "3154500023"}, "type": "Feature"}
{"geometry": {"coordinates": [-81.874692691, 31.616500854], "type": "Point"}, "id": "raHSfIVD9bz9N7GxlhCzLmmwCTA=", "properties": {"@spider": "usps_collection_boxes", "addr:city": "JESUP", "addr:country": "US", "addr:full": "1100 N 1ST ST", "addr:postcode": "31545", "addr:state": "GA", "brand": "USPS", "collection_times": "Mo-Sa 12:00", "name": "USPS COLLECTION BOX - BLUE BOX", "ref": "3154500028"}, "type": "Feature"}
{"geometry": {"coordinates": [-81.902027644, 31.617053868], "type": "Point"}, "id": "gy75BJjFxW2w-g1ZypRa-QTTKBU=", "properties": {"@spider": "usps_collection_boxes", "addr:city": "JESUP", "addr:country": "US", "addr:full": "1502 W ORANGE ST", "addr:postcode": "31545", "addr:state": "GA", "brand": "USPS", "collection_times": "Mo-Sa 12:00", "name": "USPS COLLECTION BOX - BLUE BOX", "ref": "3154500029"}, "type": "Feature"}
{"geometry": {"coordinates": [-81.876851997, 31.602223559], "type": "Point"}, "id": "kNl2FLsmjNcJsjChb5pK-VouThY=", "properties": {"@spider": "usps_collection_boxes", "addr:city": "JESUP", "addr:country": "US", "addr:full": "405 E WALNUT ST", "addr:postcode": "31546", "addr:state": "GA", "brand": "USPS", "collection_times": "Mo-Fr 17:00; Sa 16:00", "name": "USPS COLLECTION BOX - PO LOBBY", "note": "ON 12/24 AND 12/31, THIS BOX MAY BE COLLECTED AS EARLY AS 12 NOON.", "ref": "3154600005"}, "type": "Feature"}
{"geometry": {"coordinates": [-81.876851997, 31.602223559], "type": "Point"}, "id": "tpU2YTx8PPpcVA-Ubz_IEbzZGeQ=", "properties": {"@spider": "usps_collection_boxes", "addr:city": "JESUP", "addr:country": "US", "addr:full": "405 E WALNUT ST", "addr:postcode": "31546", "addr:state": "GA", "brand": "USPS", "collection_times": "Mo-Fr 17:00; Sa 16:00", "name": "USPS COLLECTION BOX - BLUE BOX", "note": "ON 12/24 AND 12/31, THIS BOX MAY BE COLLECTED AS EARLY AS 12 NOON.", "ref": "3154600006"}, "type": "Feature"}
{"geometry": {"coordinates": [-81.876851997, 31.602223559], "type": "Point"}, "id": "Wl_vtGbEi2HaIcJlJ3_RuUTWwq8=", "properties": {"@spider": "usps_collection_boxes", "addr:city": "JESUP", "addr:country": "US", "addr:full": "405 E WALNUT ST", "addr:postcode": "31546", "addr:state": "GA", "brand": "USPS", "collection_times": "Mo-Fr 17:00; Sa 16:00", "name": "USPS COLLECTION BOX - PO LOBBY", "note": "ON 12/24 AND 12/31, THIS BOX MAY BE COLLECTED AS EARLY AS 12 NOON.", "ref": "3154600007"}, "type": "Feature"}
{"geometry": {"coordinates": [-82.686312538, 31.936037824], "type": "Point"}, "id": "Kl64gWYLreGGyjSS2UPZ1NIrS50=", "properties": {"@spider": "usps_collection_boxes", "addr:city": "LUMBER CITY", "addr:country": "US", "addr:full": "68 N CHURCH ST", "addr:postcode": "31549", "addr:state": "GA", "brand": "USPS", "collection_times": "Mo-Fr 16:15; Sa 12:15", "name": "USPS COLLECTION BOX - BLUE BOX", "note": "ON 12/24 AND 12/31, THIS BOX MAY BE COLLECTED AS EARLY AS 12 NOON.", "ref": "3154900001"}, "type": "Feature"}
{"geometry": {"coordinates": [-82.686312538, 31.936037824], "type": "Point"}, "id": "cd6Lk04rhLMmC7Ur2Lm0wIpGaHw=", "properties": {"@spider": "usps_collection_boxes", "addr:city": "LUMBER CITY", "addr:country": "US", "addr:full": "68 N CHURCH ST", "addr:postcode": "31549", "addr:state": "GA", "brand": "USPS", "collection_times": "Mo-Fr 16:30; Sa 12:15", "name": "USPS COLLECTION BOX - PO LOBBY", "note": "ON 12/24 AND 12/31, THIS BOX MAY BE COLLECTED AS EARLY AS 12 NOON.", "ref": "3154900002"}, "type": "Feature"}
{"geometry": {"coordinates": [-82.686312538, 31.936037824], "type": "Point"}, "id": "y85PtSYsJeaf-my92BqQya03B5E=", "properties": {"@spider": "usps_collection_boxes", "addr:city": "LUMBER CITY", "addr:country": "US", "addr:full": "68 N CHURCH ST", "addr:postcode": "31549", "addr:state": "GA", "brand": "USPS", "collection_times": "Mo-Fr 16:30; Sa 12:15", "name": "USPS COLLECTION BOX - PO LOBBY", "note": "ON 12/24 AND 12/31, THIS BOX MAY BE COLLECTED AS EARLY AS 12 NOON.", "ref": "3154900004"}, "type": "Feature"}
{"geometry": {"coordinates": [-82.571420487, 31.104663504], "type": "Point"}, "id": "D-9heCYWPhgSk74pGsT30NNej2I=", "properties": {"@spider": "usps_collection_boxes", "addr:city": "MANOR", "addr:country": "US", "addr:full": "6264 VALDOSTA HWY", "addr:postcode": "31550", "addr:state": "GA", "brand": "USPS", "collection_times": "Mo-Sa 11:00", "name": "USPS COLLECTION BOX - BLUE BOX", "ref": "3155000001"}, "type": "Feature"}
{"geometry": {"coordinates": [-82.258609237, 31.464540456], "type": "Point"}, "id": "jQLMhEDDEz_WYHqfKxWEcrFB34c=", "properties": {"@spider": "usps_collection_boxes", "addr:city": "MERSHON", "addr:country": "US", "addr:full": "2547 HIGHWAY 32", "addr:postcode": "31551", "addr:state": "GA", "brand": "USPS", "collection_times": "Mo-Fr 13:00; Sa 10:45", "name": "USPS COLLECTION BOX - BLUE BOX", "note": "ON 12/24 AND 12/31, THIS BOX MAY BE COLLECTED AS EARLY AS 12 NOON.", "ref": "3155100001"}, "type": "Feature"}
{"geometry": {"coordinates": [-82.258609237, 31.464540456], "type": "Point"}, "id": "bF99uzFLD34S2x4I1ZFO7jRlUJo=", "properties": {"@spider": "usps_collection_boxes", "addr:city": "MERSHON", "addr:country": "US", "addr:full": "2547 HIGHWAY 32", "addr:postcode": "31551", "addr:state": "GA", "brand": "USPS", "collection_times": "Mo-Fr 13:00; Sa 10:45", "name": "USPS COLLECTION BOX - PO LOBBY", "note": "ON 12/24 AND 12/31, THIS BOX MAY BE COLLECTED AS EARLY AS 12 NOON.", "ref": "3155100002"}, "type": "Feature"}
{"geometry": {"coordinates": [-82.258609237, 31.464540456], "type": "Point"}, "id": "HAvNNj7_ZOC1yENIGwQCG27xAqg=", "properties": {"@spider": "usps_collection_boxes", "addr:city": "MERSHON", "addr:country": "US", "addr:full": "2547 HIGHWAY 32", "addr:postcode": "31551", "addr:state": "GA", "brand": "USPS", "collection_times": "Mo-Fr 13:00; Sa 10:45", "name": "USPS COLLECTION BOX - PO LOBBY", "note": "ON 12/24 AND 12/31, THIS BOX MAY BE COLLECTED AS EARLY AS 12 NOON.", "ref": "3155100004"}, "type": "Feature"}
{"geometry": {"coordinates": [-82.630050175, 31.266810448], "type": "Point"}, "id": "8SqccpjVvMahihhOzyrfTybI95Q=", "properties": {"@spider": "usps_collection_boxes", "addr:city": "MILLWOOD", "addr:country": "US", "addr:full": "7471 ALBANY HWY", "addr:postcode": "31552", "addr:state": "GA", "brand": "USPS", "collection_times": "Mo-Fr 11:00; Sa 10:30", "name": "USPS COLLECTION BOX - BLUE BOX", "ref": "3155200001"}, "type": "Feature"}
{"geometry": {"coordinates": [-81.982321061, 31.202454337], "type": "Point"}, "id": "DIRjP5W11uDzTooL_8Tw6QtOhu0=", "properties": {"@spider": "usps_collection_boxes", "addr:city": "NAHUNTA", "addr:country": "US", "addr:full": "119 N MAIN ST", "addr:postcode": "31553", "addr:state": "GA", "brand": "USPS", "collection_times": "Mo-Fr 16:30; Sa 11:00", "name": "USPS COLLECTION BOX - BLUE BOX", "note": "ON 12/24 AND 12/31, THIS BOX MAY BE COLLECTED AS EARLY AS 12 NOON.", "ref": "3155300001"}, "type": "Feature"}
{"geometry": {"coordinates": [-81.982321061, 31.202454337], "type": "Point"}, "id": "l0KjpL1FOAkv4gzlcU7yakGlRQs=", "properties": {"@spider": "usps_collection_boxes", "addr:city": "NAHUNTA", "addr:country": "US", "addr:full": "119 N MAIN ST", "addr:postcode": "31553", "addr:state": "GA", "brand": "USPS", "collection_times": "Mo-Fr 16:30; Sa 11:00", "name": "USPS COLLECTION BOX - PO LOBBY", "note": "ON 12/24 AND 12/31, THIS BOX MAY BE COLLECTED AS EARLY AS 12 NOON.", "ref": "3155300002"}, "type": "Feature"}
{"geometry": {"coordinates": [-81.982321061, 31.202454337], "type": "Point"}, "id": "l79ju1mY1ylCe5QzNfrlzwbxD2w=", "properties": {"@spider": "usps_collection_boxes", "addr:city": "NAHUNTA", "addr:country": "US", "addr:full": "119 N MAIN ST", "addr:postcode": "31553", "addr:state": "GA", "brand": "USPS", "collection_times": "Mo-Fr 16:30; Sa 11:00", "name": "USPS COLLECTION BOX - PO LOBBY", "note": "ON 12/24 AND 12/31, THIS BOX MAY BE COLLECTED AS EARLY AS 12 NOON.", "ref": "3155300004"}, "type": "Feature"}
{"geometry": {"coordinates": [-82.634971687, 31.515995976], "type": "Point"}, "id": "22ZOVEtDUylriPUy493RuapqICA=", "properties": {"@spider": "usps_collection_boxes", "addr:city": "NICHOLLS", "addr:country": "US", "addr:full": "103 N LIBERTY ST", "addr:postcode": "31554", "addr:state": "GA", "brand": "USPS", "collection_times": "Mo-Fr 16:00; Sa 11:00", "name": "USPS COLLECTION BOX - BLUE BOX", "note": "ON 12/24 AND 12/31, THIS BOX MAY BE COLLECTED AS EARLY AS 12 NOON.", "ref": "3155400002"}, "type": "Feature"}
{"geometry": {"coordinates": [-82.634971687, 31.515995976], "type": "Point"}, "id": "03awYkauzIR4VsmpLLsr18O9pvc=", "properties": {"@spider": "usps_collection_boxes", "addr:city": "NICHOLLS", "addr:country": "US", "addr:full": "103 N LIBERTY ST", "addr:postcode": "31554", "addr:state": "GA", "brand": "USPS", "collection_times": "Mo-Fr 16:00; Sa 11:00", "name": "USPS COLLECTION BOX - PO LOBBY", "note": "ON 12/24 AND 12/31, THIS BOX MAY BE COLLECTED AS EARLY AS 12 NOON.", "ref": "3155400003"}, "type": "Feature"}
{"geometry": {"coordinates": [-82.634971687, 31.515995976], "type": "Point"}, "id": "14Of9GU_UyY1RVjAYO8XicQ7Hvo=", "properties": {"@spider": "usps_collection_boxes", "addr:city": "NICHOLLS", "addr:country": "US", "addr:full": "103 N LIBERTY ST", "addr:postcode": "31554", "addr:state": "GA", "brand": "USPS", "collection_times": "Mo-Fr 16:00; Sa 11:00", "name": "USPS COLLECTION BOX - PO LOBBY", "note": "ON 12/24 AND 12/31, THIS BOX MAY BE COLLECTED AS EARLY AS 12 NOON.", "ref": "3155400005"}, "type": "Feature"}
{"geometry": {"coordinates": [-82.029178445, 31.663473069], "type": "Point"}, "id": "HQKSsBbchL43_TFyR5ZipmSdaVE=", "properties": {"@spider": "usps_collection_boxes", "addr:city": "ODUM", "addr:country": "US", "addr:full": "219 S CHURCH ST", "addr:postcode": "31555", "addr:state": "GA", "brand": "USPS", "collection_times": "Mo-Fr 14:45; Sa 12:00", "name": "USPS COLLECTION BOX - PO LOBBY", "note": "ON 12/24 AND 12/31, THIS BOX MAY BE COLLECTED AS EARLY AS 12 NOON.", "ref": "3155500002"}, "type": "Feature"}
{"geometry": {"coordinates": [-82.029178445, 31.663473069], "type": "Point"}, "id": "puT0wTREHYEld8qNGj2ZV_NXfCY=", "properties": {"@spider": "usps_collection_boxes", "addr:city": "ODUM", "addr:country": "US", "addr:full": "219 S CHURCH ST", "addr:postcode": "31555", "addr:state": "GA", "brand": "USPS", "collection_times": "Mo-Fr 14:45; Sa 12:00", "name": "USPS COLLECTION BOX - BLUE BOX", "note": "ON 12/24 AND 12/31, THIS BOX MAY BE COLLECTED AS EARLY AS 12 NOON.", "ref": "3155500003"}, "type": "Feature"}
{"geometry": {"coordinates": [-82.029178445, 31.663473069], "type": "Point"}, "id": "Hc61kZWTu_DeRRvRGZRG3oc1CrM=", "properties": {"@spider": "usps_collection_boxes", "addr:city": "ODUM", "addr:country": "US", "addr:full": "219 S CHURCH ST", "addr:postcode": "31555", "addr:state": "GA", "brand": "USPS", "collection_times": "Mo-Fr 14:45; Sa 12:00", "name": "USPS COLLECTION BOX - PO LOBBY", "note": "ON 12/24 AND 12/31, THIS BOX MAY BE COLLECTED AS EARLY AS 12 NOON.", "ref": "3155500005"}, "type": "Feature"}
{"geometry": {"coordinates": [-82.114770219, 31.40721304], "type": "Point"}, "id": "vpYJHxwEJMy0d44FClU7i_1gyRI=", "properties": {"@spider": "usps_collection_boxes", "addr:city": "OFFERMAN", "addr:country": "US", "addr:full": "7203 US HIGHWAY 84", "addr:postcode": "31556", "addr:state": "GA", "brand": "USPS", "collection_times": "Mo-Fr 11:00; Sa 09:45", "name": "USPS COLLECTION BOX - BLUE BOX", "ref": "3155600001"}, "type": "Feature"}
{"geometry": {"coordinates": [-82.114770219, 31.40721304], "type": "Point"}, "id": "SRKahVhrpQGpGfOzzOJzySwkA1E=", "properties": {"@spider": "usps_collection_boxes", "addr:city": "OFFERMAN", "addr:country": "US", "addr:full": "7203 US HIGHWAY 84", "addr:postcode": "31556", "addr:state": "GA", "brand": "USPS", "collection_times": "Mo-Fr 11:00; Sa 09:45", "name": "USPS COLLECTION BOX - PO LOBBY", "ref": "3155600002"}, "type": "Feature"}
{"geometry": {"coordinates": [-82.114770219, 31.40721304], "type": "Point"}, "id": "uDU-9BVo3_OLh92jFE6yQZmZjYE=", "properties": {"@spider": "usps_collection_boxes", "addr:city": "OFFERMAN", "addr:country": "US", "addr:full": "7203 US HIGHWAY 84", "addr:postcode": "31556", "addr:state": "GA", "brand": "USPS", "collection_times": "Mo-Fr 11:00; Sa 09:45", "name": "USPS COLLECTION BOX - PO LOBBY", "ref": "3155600003"}, "type": "Feature"}
{"geometry": {"coordinates": [-82.140997391, 31.386880895], "type": "Point"}, "id": "15c5WGZyPxmINpNv4EDz8Vn2Knc=", "properties": {"@spider": "usps_collection_boxes", "addr:city": "PATTERSON", "addr:country": "US", "addr:full": "6469 US HIGHWAY 84", "addr:postcode": "31557", "addr:state": "GA", "brand": "USPS", "collection_times": "Mo-Fr 16:30; Sa 09:45", "name": "USPS COLLECTION BOX - BLUE BOX", "note": "ON 12/24 AND 12/31, THIS BOX MAY BE COLLECTED AS EARLY AS 12 NOON.", "ref": "3155700001"}, "type": "Feature"}
{"geometry": {"coordinates": [-82.140997391, 31.386880895], "type": "Point"}, "id": "wpxorvgALxNm-emW3adS3mFK-_w=", "properties": {"@spider": "usps_collection_boxes", "addr:city": "PATTERSON", "addr:country": "US", "addr:full": "6469 US HIGHWAY 84", "addr:postcode": "31557", "addr:state": "GA", "brand": "USPS", "collection_times": "Mo-Fr 16:30; Sa 09:45", "name": "USPS COLLECTION BOX - PO LOBBY", "note": "ON 12/24 AND 12/31, THIS BOX MAY BE COLLECTED AS EARLY AS 12 NOON.", "ref": "3155700002"}, "type": "Feature"}
{"geometry": {"coordinates": [-82.140997391, 31.386880895], "type": "Point"}, "id": "U_uJ7yibZx5MOWVUIf4Y2Fg85iQ=", "properties": {"@spider": "usps_collection_boxes", "addr:city": "PATTERSON", "addr:country": "US", "addr:full": "6469 US HIGHWAY 84", "addr:postcode": "31557", "addr:state": "GA", "brand": "USPS", "collection_times": "Mo-Fr 16:30; Sa 09:45", "name": "USPS COLLECTION BOX - PO LOBBY", "note": "ON 12/24 AND 12/31, THIS BOX MAY BE COLLECTED AS EARLY AS 12 NOON.", "ref": "3155700004"}, "type": "Feature"}
{"geometry": {"coordinates": [-82.017411442, 31.486229222], "type": "Point"}, "id": "AFTKUl2Wq-Mw57TG5nh9FBdLW8M=", "properties": {"@spider": "usps_collection_boxes", "addr:city": "SCREVEN", "addr:country": "US", "addr:full": "117 W JL TYRE ST", "addr:postcode": "31560", "addr:state": "GA", "brand": "USPS", "collection_times": "Mo-Fr 14:45; Sa 11:15", "name": "USPS COLLECTION BOX - BLUE BOX", "note": "ON 12/24 AND 12/31, THIS BOX MAY BE COLLECTED AS EARLY AS 12 NOON.", "ref": "3156000001"}, "type": "Feature"}
{"geometry": {"coordinates": [-82.017411442, 31.486229222], "type": "Point"}, "id": "YVkiS6-jCqe_jJtHm014DUmRx1g=", "properties": {"@spider": "usps_collection_boxes", "addr:city": "SCREVEN", "addr:country": "US", "addr:full": "117 W JL TYRE ST", "addr:postcode": "31560", "addr:state": "GA", "brand": "USPS", "collection_times": "Mo-Fr 14:45; Sa 11:15", "name": "USPS COLLECTION BOX - PO LOBBY", "note": "ON 12/24 AND 12/31, THIS BOX MAY BE COLLECTED AS EARLY AS 12 NOON.", "ref": "3156000002"}, "type": "Feature"}
{"geometry": {"coordinates": [-82.017411442, 31.486229222], "type": "Point"}, "id": "JpEMQDqYNK6PVhNQGBd9q9xn9kg=", "properties": {"@spider": "usps_collection_boxes", "addr:city": "SCREVEN", "addr:country": "US", "addr:full": "117 W JL TYRE ST", "addr:postcode": "31560", "addr:state": "GA", "brand": "USPS", "collection_times": "Mo-Fr 14:45; Sa 11:15", "name": "USPS COLLECTION BOX - PO LOBBY", "note": "ON 12/24 AND 12/31, THIS BOX MAY BE COLLECTED AS EARLY AS 12 NOON.", "ref": "3156000004"}, "type": "Feature"}
{"geometry": {"coordinates": [-82.197693525, 31.723696488], "type": "Point"}, "id": "uS-_iUawDsAXxahcJCWOHy1h_f4=", "properties": {"@spider": "usps_collection_boxes", "addr:city": "SURRENCY", "addr:country": "US", "addr:full": "117 STATE HIGHWAY 121 SE", "addr:postcode": "31563", "addr:state": "GA", "brand": "USPS", "collection_times": "Mo-Fr 12:30; Sa 10:45", "name": "USPS COLLECTION BOX - BLUE BOX", "note": "ON 12/24 AND 12/31, THIS BOX MAY BE COLLECTED AS EARLY AS 12 NOON.", "ref": "3156300001"}, "type": "Feature"}
{"geometry": {"coordinates": [-82.197693525, 31.723696488], "type": "Point"}, "id": "p89Az4F880oNqBCH7cD55xH-IqM=", "properties": {"@spider": "usps_collection_boxes", "addr:city": "SURRENCY", "addr:country": "US", "addr:full": "117 STATE HIGHWAY 121 SE", "addr:postcode": "31563", "addr:state": "GA", "brand": "USPS", "collection_times": "Mo-Fr 12:30; Sa 10:45", "name": "USPS COLLECTION BOX - PO LOBBY", "note": "ON 12/24 AND 12/31, THIS BOX MAY BE COLLECTED AS EARLY AS 12 NOON.", "ref": "3156300002"}, "type": "Feature"}
{"geometry": {"coordinates": [-82.197693525, 31.723696488], "type": "Point"}, "id": "AjDovsQMDEZTbhos3Zs7xhWJQYs=", "properties": {"@spider": "usps_collection_boxes", "addr:city": "SURRENCY", "addr:country": "US", "addr:full": "117 STATE HIGHWAY 121 SE", "addr:postcode": "31563", "addr:state": "GA", "brand": "USPS", "collection_times": "Mo-Fr 12:30; Sa 10:45", "name": "USPS COLLECTION BOX - PO LOBBY", "note": "ON 12/24 AND 12/31, THIS BOX MAY BE COLLECTED AS EARLY AS 12 NOON.", "ref": "3156300004"}, "type": "Feature"}
{"geometry": {"coordinates": [-82.473960911, 31.248313825], "type": "Point"}, "id": "9jaZYtZl4q858TNxIsDLIR_f0Qo=", "properties": {"@spider": "usps_collection_boxes", "addr:city": "WARESBORO", "addr:country": "US", "addr:full": "4308 ALBANY AVE", "addr:postcode": "31564", "addr:state": "GA", "brand": "USPS", "collection_times": "Mo-Fr 17:00; Sa 11:30", "name": "USPS COLLECTION BOX - BLUE BOX", "note": "ON 12/24 AND 12/31, THIS BOX MAY BE COLLECTED AS EARLY AS 12 NOON.", "ref": "3156400001"}, "type": "Feature"}
{"geometry": {"coordinates": [-82.473960911, 31.248313825], "type": "Point"}, "id": "tTJpdNniLrCebq8qXhqZ_s1dw0c=", "properties": {"@spider": "usps_collection_boxes", "addr:city": "WARESBORO", "addr:country": "US", "addr:full": "4308 ALBANY AVE", "addr:postcode": "31564", "addr:state": "GA", "brand": "USPS", "collection_times": "Mo-Fr 17:00; Sa 11:30", "name": "USPS COLLECTION BOX - PO LOBBY", "note": "ON 12/24 AND 12/31, THIS BOX MAY BE COLLECTED AS EARLY AS 12 NOON.", "ref": "3156400002"}, "type": "Feature"}
{"geometry": {"coordinates": [-82.473960911, 31.248313825], "type": "Point"}, "id": "RI7G8lsg3tRQ6_Ko_Y7ExjPKEHE=", "properties": {"@spider": "usps_collection_boxes", "addr:city": "WARESBORO", "addr:country": "US", "addr:full": "4308 ALBANY AVE", "addr:postcode": "31564", "addr:state": "GA", "brand": "USPS", "collection_times": "Mo-Fr 17:00; Sa 11:30", "name": "USPS COLLECTION BOX - PO LOBBY", "note": "ON 12/24 AND 12/31, THIS BOX MAY BE COLLECTED AS EARLY AS 12 NOON.", "ref": "3156400003"}, "type": "Feature"}
{"geometry": {"coordinates": [-81.78708515, 31.229507638], "type": "Point"}, "id": "sC7VKeMmAICwtLVP0FCHTmGBsDo=", "properties": {"@spider": "usps_collection_boxes", "addr:city": "WAYNESVILLE", "addr:country": "US", "addr:full": "25380 HIGHWAY 82", "addr:postcode": "31566", "addr:state": "GA", "brand": "USPS", "collection_times": "Mo-Fr 16:00; Sa 10:30", "name": "USPS COLLECTION BOX - BLUE BOX", "note": "ON 12/24 AND 12/31, THIS BOX MAY BE COLLECTED AS EARLY AS 12 NOON.", "ref": "3156600001"}, "type": "Feature"}
{"geometry": {"coordinates": [-81.78708515, 31.229507638], "type": "Point"}, "id": "fC1wv_cqQdOLNKUluhZ7AJVStq4=", "properties": {"@spider": "usps_collection_boxes", "addr:city": "WAYNESVILLE", "addr:country": "US", "addr:full": "25380 HIGHWAY 82", "addr:postcode": "31566", "addr:state": "GA", "brand": "USPS", "collection_times": "Mo-Fr 16:00; Sa 10:30", "name": "USPS COLLECTION BOX - PO LOBBY", "note": "ON 12/24 AND 12/31, THIS BOX MAY BE COLLECTED AS EARLY AS 12 NOON.", "ref": "3156600002"}, "type": "Feature"}
{"geometry": {"coordinates": [-81.78708515, 31.229507638], "type": "Point"}, "id": "AmnZdYnC78y-WGYCFk_MaKQE32s=", "properties": {"@spider": "usps_collection_boxes", "addr:city": "WAYNESVILLE", "addr:country": "US", "addr:full": "25380 HIGHWAY 82", "addr:postcode": "31566", "addr:state": "GA", "brand": "USPS", "collection_times": "Mo-Fr 16:00; Sa 10:30", "name": "USPS COLLECTION BOX - PO LOBBY", "note": "ON 12/24 AND 12/31, THIS BOX MAY BE COLLECTED AS EARLY AS 12 NOON.", "ref": "3156600004"}, "type": "Feature"}
{"geometry": {"coordinates": [-82.734530335, 31.61803208], "type": "Point"}, "id": "399wGhLATS2vwRlAN92p-FcIak4=", "properties": {"@spider": "usps_collection_boxes", "addr:city": "WEST GREEN", "addr:country": "US", "addr:full": "9978 US HIGHWAY 221 N", "addr:postcode": "31567", "addr:state": "GA", "brand": "USPS", "collection_times": "Mo-Fr 13:00; Sa 11:15", "name": "USPS COLLECTION BOX - PO LOBBY", "note": "ON 12/24 AND 12/31, THIS BOX MAY BE COLLECTED AS EARLY AS 12 NOON.", "ref": "3156700001"}, "type": "Feature"}
{"geometry": {"coordinates": [-82.7345155147, 31.6180273686], "type": "Point"}, "id": "wS5vwkNtWQrvHb9hd72K7ozKeGs=", "properties": {"@spider": "usps_collection_boxes", "addr:city": "WEST GREEN", "addr:country": "US", "addr:full": "9978 US HIGHWAY 221 N", "addr:postcode": "31567", "addr:state": "GA", "brand": "USPS", "collection_times": "Mo-Fr 13:00; Sa 11:15", "name": "USPS COLLECTION BOX - BLUE BOX", "note": "ON 12/24 AND 12/31, THIS BOX MAY BE COLLECTED AS EARLY AS 12 NOON.", "ref": "3156700002"}, "type": "Feature"}
{"geometry": {"coordinates": [-82.734530335, 31.61803208], "type": "Point"}, "id": "2HawtCRwPsEI3WHtDZE8m_EjhSs=", "properties": {"@spider": "usps_collection_boxes", "addr:city": "WEST GREEN", "addr:country": "US", "addr:full": "9978 US HIGHWAY 221 N", "addr:postcode": "31567", "addr:state": "GA", "brand": "USPS", "collection_times": "Mo-Fr 13:00; Sa 11:15", "name": "USPS COLLECTION BOX - PO LOBBY", "note": "ON 12/24 AND 12/31, THIS BOX MAY BE COLLECTED AS EARLY AS 12 NOON.", "ref": "3156700005"}, "type": "Feature"}
