{"geometry": {"coordinates": [-83.419013454, 31.124834838], "type": "Point"}, "id": "npxCbNvJ0f4jr_UcWRe1sPFZBYg=", "properties": {"@spider": "usps_collection_boxes", "addr:city": "ADEL", "addr:country": "US", "addr:full": "1009 S HUTCHINSON AVE", "addr:postcode": "31620", "addr:state": "GA", "brand": "USPS", "collection_times": "Mo-Fr 17:00; Sa 12:00", "name": "USPS COLLECTION BOX - BLUE BOX", "note": "ON 12/24 AND 12/31, THIS BOX MAY BE COLLECTED AS EARLY AS 12 NOON.", "ref": "3162000005"}, "type": "Feature"}
{"geometry": {"coordinates": [-83.419013454, 31.124834838], "type": "Point"}, "id": "Yz-32irz7T4dv7-4XbOTHHB51d8=", "properties": {"@spider": "usps_collection_boxes", "addr:city": "ADEL", "addr:country": "US", "addr:full": "1009 S HUTCHINSON AVE", "addr:postcode": "31620", "addr:state": "GA", "brand": "USPS", "collection_times": "Mo-Fr 17:00; Sa 12:00", "name": "USPS COLLECTION BOX - PO LOBBY", "note": "ON 12/24 AND 12/31, THIS BOX MAY BE COLLECTED AS EARLY AS 12 NOON.", "ref": "3162000011"}, "type": "Feature"}
{"geometry": {"coordinates": [-83.424133334, 31.139178558], "type": "Point"}, "id": "vUic6hWCNE5GnyFq-2dpPlB-gR4=", "properties": {"@spider": "usps_collection_boxes", "addr:city": "ADEL", "addr:country": "US", "addr:full": "212 N HUTCHINSON AVE", "addr:postcode": "31620", "addr:state": "GA", "brand": "USPS", "collection_times": "Mo-Fr 14:00", "name": "USPS COLLECTION BOX - BLUE BOX", "note": "ON 12/24 AND 12/31, THIS BOX MAY BE COLLECTED AS EARLY AS 12 NOON.", "ref": "3162000012"}, "type": "Feature"}
{"geometry": {"coordinates": [-83.419013454, 31.124834838], "type": "Point"}, "id": "EQwE29mYjlIuLhAQAqAPSuGEeEE=", "properties": {"@spider": "usps_collection_boxes", "addr:city": "ADEL", "addr:country": "US", "addr:full": "1009 S HUTCHINSON AVE", "addr:postcode": "31620", "addr:state": "GA", "brand": "USPS", "collection_times": "Mo-Fr 17:00; Sa 12:00", "name": "USPS COLLECTION BOX - PO LOBBY", "note": "ON 12/24 AND 12/31, THIS BOX MAY BE COLLECTED AS EARLY AS 12 NOON.", "ref": "3162000014"}, "type": "Feature"}
{"geometry": {"coordinates": [-83.223994671, 31.381886367], "type": "Point"}, "id": "8WOLoxBF0R7sMZN1vXBp9RxiN-Q=", "properties": {"@spider": "usps_collection_boxes", "addr:city": "ALAPAHA", "addr:country": "US", "addr:full": "22261 MAIN ST", "addr:postcode": "31622", "addr:state": "GA", "brand": "USPS", "collection_times": "Mo-Fr 12:00; Sa 10:30", "name": "USPS COLLECTION BOX - BLUE BOX", "ref": "3162200000"}, "type": "Feature"}
{"geometry": {"coordinates": [-83.223994671, 31.381886367], "type": "Point"}, "id": "YBH-MJViETK0rXObGOz9wtLgw9U=", "properties": {"@spider": "usps_collection_boxes", "addr:city": "ALAPAHA", "addr:country": "US", "addr:full": "22261 MAIN ST", "addr:postcode": "31622", "addr:state": "GA", "brand": "USPS", "collection_times": "Mo-Fr 12:00; Sa 10:30", "name": "USPS COLLECTION BOX - PO LOBBY", "ref": "3162200001"}, "type": "Feature"}
{"geometry": {"coordinates": [-83.223994671, 31.381886367], "type": "Point"}, "id": "z9VASsR8v4knKeJIFyMvzUpAuLs=", "properties": {"@spider": "usps_collection_boxes", "addr:city": "ALAPAHA", "addr:country": "US", "addr:full": "22261 MAIN ST", "addr:postcode": "31622", "addr:state": "GA", "brand": "USPS", "collection_times": "Mo-Fr 12:00; Sa 10:30", "name": "USPS COLLECTION BOX - PO LOBBY", "ref": "3162200003"}, "type": "Feature"}
{"geometry": {"coordinates": [-82.647999553, 31.074541255], "type": "Point"}, "id": "fDxHZZVnwQ2sRZwvvOC0PP5hWQQ=", "properties": {"@spider": "usps_collection_boxes", "addr:city": "ARGYLE", "addr:country": "US", "addr:full": "6427 MAIN ST", "addr:postcode": "31623", "addr:state": "GA", "brand": "USPS", "collection_times": "Mo-Fr 14:45; Sa 14:00", "name": "USPS COLLECTION BOX - BLUE BOX", "note": "ON 12/24 AND 12/31, THIS BOX MAY BE COLLECTED AS EARLY AS 12 NOON.", "ref": "3162300000"}, "type": "Feature"}
{"geometry": {"coordinates": [-82.647999553, 31.074541255], "type": "Point"}, "id": "cHBcdWixsNtcTclq6Bxf3HRNnkM=", "properties": {"@spider": "usps_collection_boxes", "addr:city": "ARGYLE", "addr:country": "US", "addr:full": "6427 MAIN ST", "addr:postcode": "31623", "addr:state": "GA", "brand": "USPS", "collection_times": "Mo-Fr 14:45; Sa 14:00", "name": "USPS COLLECTION BOX - PO LOBBY", "note": "ON 12/24 AND 12/31, THIS BOX MAY BE COLLECTED AS EARLY AS 12 NOON.", "ref": "3162300001"}, "type": "Feature"}
{"geometry": {"coordinates": [-82.647999553, 31.074541255], "type": "Point"}, "id": "61ILIf5Me5qBqhU2GXEkprA3A-A=", "properties": {"@spider": "usps_collection_boxes", "addr:city": "ARGYLE", "addr:country": "US", "addr:full": "6427 MAIN ST", "addr:postcode": "31623", "addr:state": "GA", "brand": "USPS", "collection_times": "Mo-Fr 14:45; Sa 14:00", "name": "USPS COLLECTION BOX - PO LOBBY", "note": "ON 12/24 AND 12/31, THIS BOX MAY BE COLLECTED AS EARLY AS 12 NOON.", "ref": "3162300002"}, "type": "Feature"}
{"geometry": {"coordinates": [-82.729756215, 31.275517904], "type": "Point"}, "id": "IQ0tGg32xIaaI0gN85l1E2bVW_g=", "properties": {"@spider": "usps_collection_boxes", "addr:city": "AXSON", "addr:country": "US", "addr:full": "7400 ATKINSON BLVD E", "addr:postcode": "31624", "addr:state": "GA", "brand": "USPS", "collection_times": "Mo-Fr 11:00; Sa 10:45", "name": "USPS COLLECTION BOX - BLUE BOX", "ref": "3162400000"}, "type": "Feature"}
{"geometry": {"coordinates": [-82.729756215, 31.275517904], "type": "Point"}, "id": "o8mTvJnp3ZxYn5zvDY7a4C41IS4=", "properties": {"@spider": "usps_collection_boxes", "addr:city": "AXSON", "addr:country": "US", "addr:full": "7400 ATKINSON BLVD E", "addr:postcode": "31624", "addr:state": "GA", "brand": "USPS", "collection_times": "Mo-Fr 11:00; Sa 10:45", "name": "USPS COLLECTION BOX - PO LOBBY", "ref": "3162400001"}, "type": "Feature"}
{"geometry": {"coordinates": [-82.729756215, 31.275517904], "type": "Point"}, "id": "VTH5JmQ1pWTLW6NDVh2jrjJNhV4=", "properties": {"@spider": "usps_collection_boxes", "addr:city": "AXSON", "addr:country": "US", "addr:full": "7400 ATKINSON BLVD E", "addr:postcode": "31624", "addr:state": "GA", "brand": "USPS", "collection_times": "Mo-Fr 11:00; Sa 10:45", "name": "USPS COLLECTION BOX - PO LOBBY", "ref": "3162400002"}, "type": "Feature"}
{"geometry": {"coordinates": [-82.871271229, 30.988661561], "type": "Point"}, "id": "5oP0ZHZ_ycUgYdGC-bX4w8gxoLk=", "properties": {"@spider": "usps_collection_boxes", "addr:city": "DUPONT", "addr:country": "US", "addr:full": "8402 VALDOSTA HWY", "addr:postcode": "31630", "addr:state": "GA", "brand": "USPS", "collection_times": "Mo-Fr 12:15; Sa 10:30", "name": "USPS COLLECTION BOX - BLUE BOX", "note": "ON 12/24 AND 12/31, THIS BOX MAY BE COLLECTED AS EARLY AS 12 NOON.", "ref": "3163000000"}, "type": "Feature"}
{"geometry": {"coordinates": [-82.871271229, 30.988661561], "type": "Point"}, "id": "ftbUoyXwYuuyypv_msjWK4TtlKc=", "properties": {"@spider": "usps_collection_boxes", "addr:city": "DUPONT", "addr:country": "US", "addr:full": "8402 VALDOSTA HWY", "addr:postcode": "31630", "addr:state": "GA", "brand": "USPS", "collection_times": "Mo-Fr 12:15; Sa 10:30", "name": "USPS COLLECTION BOX - PO LOBBY", "note": "ON 12/24 AND 12/31, THIS BOX MAY BE COLLECTED AS EARLY AS 12 NOON.", "ref": "3163000001"}, "type": "Feature"}
{"geometry": {"coordinates": [-82.871271229, 30.988661561], "type": "Point"}, "id": "E8O25ARb9aKePOqWxqQt1Lfu0Zc=", "properties": {"@spider": "usps_collection_boxes", "addr:city": "DUPONT", "addr:country": "US", "addr:full": "8402 VALDOSTA HWY", "addr:postcode": "31630", "addr:state": "GA", "brand": "USPS", "collection_times": "Mo-Fr 12:15; Sa 10:30", "name": "USPS COLLECTION BOX - PO LOBBY", "note": "ON 12/24 AND 12/31, THIS BOX MAY BE COLLECTED AS EARLY AS 12 NOON.", "ref": "3163000002"}, "type": "Feature"}
{"geometry": {"coordinates": [-82.746183435, 31.037072331], "type": "Point"}, "id": "QV9DzpokIjvHXOBhJJCubJMIaqk=", "properties": {"@spider": "usps_collection_boxes", "addr:city": "HOMERVILLE", "addr:country": "US", "addr:full": "57 E DAME AVE", "addr:postcode": "31634", "addr:state": "GA", "brand": "USPS", "collection_times": "Mo-Fr 16:30; Sa 11:00", "name": "USPS COLLECTION BOX - BLUE BOX", "note": "ON 12/24 AND 12/31, THIS BOX MAY BE COLLECTED AS EARLY AS 12 NOON.", "ref": "3163400000"}, "type": "Feature"}
{"geometry": {"coordinates": [-82.746183435, 31.037072331], "type": "Point"}, "id": "8xMq0-U1KjgtCRdndYbMO5TwI3E=", "properties": {"@spider": "usps_collection_boxes", "addr:city": "HOMERVILLE", "addr:country": "US", "addr:full": "57 E DAME AVE", "addr:postcode": "31634", "addr:state": "GA", "brand": "USPS", "collection_times": "Mo-Fr 16:30; Sa 11:00", "name": "USPS COLLECTION BOX - PO LOBBY", "note": "ON 12/24 AND 12/31, THIS BOX MAY BE COLLECTED AS EARLY AS 12 NOON.", "ref": "3163400006"}, "type": "Feature"}
{"geometry": {"coordinates": [-82.746183435, 31.037072331], "type": "Point"}, "id": "i5KKZ4wuPo05UEt2QxGUROWQVD8=", "properties": {"@spider": "usps_collection_boxes", "addr:city": "HOMERVILLE", "addr:country": "US", "addr:full": "57 E DAME AVE", "addr:postcode": "31634", "addr:state": "GA", "brand": "USPS", "collection_times": "Mo-Fr 16:30; Sa 11:00", "name": "USPS COLLECTION BOX - PO LOBBY", "note": "ON 12/24 AND 12/31, THIS BOX MAY BE COLLECTED AS EARLY AS 12 NOON.", "ref": "3163400012"}, "type": "Feature"}
{"geometry": {"coordinates": [-83.0749199, 31.040205397], "type": "Point"}, "id": "JoMZBOTtVFQwD1QLgxChmbhAmQI=", "properties": {"@spider": "usps_collection_boxes", "addr:city": "LAKELAND", "addr:country": "US", "addr:full": "15 S VALDOSTA RD", "addr:postcode": "31635", "addr:state": "GA", "brand": "USPS", "collection_times": "Mo-Fr 17:00; Sa 12:00", "name": "USPS COLLECTION BOX - BLUE BOX", "note": "ON 12/24 AND 12/31, THIS BOX MAY BE COLLECTED AS EARLY AS 12 NOON.", "ref": "3163500000"}, "type": "Feature"}
{"geometry": {"coordinates": [-83.075614356, 31.041065799], "type": "Point"}, "id": "aW3u8Pt680kBXjuMQFpAKIMxEK4=", "properties": {"@spider": "usps_collection_boxes", "addr:city": "LAKELAND", "addr:country": "US", "addr:full": "56 W MAIN ST", "addr:postcode": "31635", "addr:state": "GA", "brand": "USPS", "collection_times": "Mo-Fr 14:00", "name": "USPS COLLECTION BOX - BLUE BOX", "note": "ON 12/24 AND 12/31, THIS BOX MAY BE COLLECTED AS EARLY AS 12 NOON.", "ref": "3163500001"}, "type": "Feature"}
{"geometry": {"coordinates": [-83.0749199, 31.040205397], "type": "Point"}, "id": "yoEO1Y9ZGRPQiPz_HgZ9gMKUFrQ=", "properties": {"@spider": "usps_collection_boxes", "addr:city": "LAKELAND", "addr:country": "US", "addr:full": "15 S VALDOSTA RD", "addr:postcode": "31635", "addr:state": "GA", "brand": "USPS", "collection_times": "Mo-Fr 17:00; Sa 12:00", "name": "USPS COLLECTION BOX - PO LOBBY", "note": "ON 12/24 AND 12/31, THIS BOX MAY BE COLLECTED AS EARLY AS 12 NOON.", "ref": "3163500008"}, "type": "Feature"}
{"geometry": {"coordinates": [-83.0749199, 31.040205397], "type": "Point"}, "id": "Npu7Q1-rmtZpfrHCk5xXxAN7WX8=", "properties": {"@spider": "usps_collection_boxes", "addr:city": "LAKELAND", "addr:country": "US", "addr:full": "15 S VALDOSTA RD", "addr:postcode": "31635", "addr:state": "GA", "brand": "USPS", "collection_times": "Mo-Fr 17:00; Sa 12:00", "name": "USPS COLLECTION BOX - PO LOBBY", "note": "ON 12/24 AND 12/31, THIS BOX MAY BE COLLECTED AS EARLY AS 12 NOON.", "ref": "3163500010"}, "type": "Feature"}
{"geometry": {"coordinates": [-83.464312493, 31.271623569], "type": "Point"}, "id": "ecItEYF8Ik8WZ89-P1uxeAw3hXk=", "properties": {"@spider": "usps_collection_boxes", "addr:city": "LENOX", "addr:country": "US", "addr:full": "44 S DEPOT ST", "addr:postcode": "31637", "addr:state": "GA", "brand": "USPS", "collection_times": "Mo-Fr 16:15; Sa 11:00", "name": "USPS COLLECTION BOX - BLUE BOX", "note": "ON 12/24 AND 12/31, THIS BOX MAY BE COLLECTED AS EARLY AS 12 NOON.", "ref": "3163700000"}, "type": "Feature"}
{"geometry": {"coordinates": [-83.464312493, 31.271623569], "type": "Point"}, "id": "y8SFCZfuxtkZxg24MfvfDELwysY=", "properties": {"@spider": "usps_collection_boxes", "addr:city": "LENOX", "addr:country": "US", "addr:full": "44 S DEPOT ST", "addr:postcode": "31637", "addr:state": "GA", "brand": "USPS", "collection_times": "Mo-Fr 16:15; Sa 11:00", "name": "USPS COLLECTION BOX - PO LOBBY", "note": "ON 12/24 AND 12/31, THIS BOX MAY BE COLLECTED AS EARLY AS 12 NOON.", "ref": "3163700002"}, "type": "Feature"}
{"geometry": {"coordinates": [-83.464312493, 31.271623569], "type": "Point"}, "id": "203eprqnh3WlprrdNooMUfNmvQw=", "properties": {"@spider": "usps_collection_boxes", "addr:city": "LENOX", "addr:country": "US", "addr:full": "44 S DEPOT ST", "addr:postcode": "31637", "addr:state": "GA", "brand": "USPS", "collection_times": "Mo-Fr 16:15; Sa 11:00", "name": "USPS COLLECTION BOX - PO LOBBY", "note": "ON 12/24 AND 12/31, THIS BOX MAY BE COLLECTED AS EARLY AS 12 NOON.", "ref": "3163700004"}, "type": "Feature"}
{"geometry": {"coordinates": [-83.248075136, 31.205509538], "type": "Point"}, "id": "XX73GuMZz7CqpqDjjw52XAJvkDI=", "properties": {"@spider": "usps_collection_boxes", "addr:city": "NASHVILLE", "addr:country": "US", "addr:full": "207 E MCPHERSON AVE", "addr:postcode": "31639", "addr:state": "GA", "brand": "USPS", "collection_times": "Mo-Fr 09:30", "name": "USPS COLLECTION BOX - BLUE BOX", "ref": "3163900006"}, "type": "Feature"}
{"geometry": {"coordinates": [-83.2512336023, 31.2056991235], "type": "Point"}, "id": "heDOc_PiEn53dvK7NbljhEfiKvw=", "properties": {"@spider": "usps_collection_boxes", "addr:city": "NASHVILLE", "addr:country": "US", "addr:full": "200 W MCPHERSON AVE", "addr:postcode": "31639", "addr:state": "GA", "brand": "USPS", "collection_times": "Mo-Fr 17:00; Sa 12:00", "name": "USPS COLLECTION BOX - BLUE BOX", "note": "ON 12/24 AND 12/31, THIS BOX MAY BE COLLECTED AS EARLY AS 12 NOON.", "ref": "3163900008"}, "type": "Feature"}
{"geometry": {"coordinates": [-83.2515700363, 31.2055899907], "type": "Point"}, "id": "VtTuaIvIvJvzOIZPehcC5NdCwlU=", "properties": {"@spider": "usps_collection_boxes", "addr:city": "NASHVILLE", "addr:country": "US", "addr:full": "301 S BARTOW ST", "addr:postcode": "31639", "addr:state": "GA", "brand": "USPS", "collection_times": "Mo-Fr 17:00; Sa 12:00", "name": "USPS COLLECTION BOX - PO LOBBY", "note": "ON 12/24 AND 12/31, THIS BOX MAY BE COLLECTED AS EARLY AS 12 NOON.", "ref": "3163900009"}, "type": "Feature"}
{"geometry": {"coordinates": [-83.2515700363, 31.2055899907], "type": "Point"}, "id": "GuGfGs0JQDZMPgQegfMvnMOdAuA=", "properties": {"@spider": "usps_collection_boxes", "addr:city": "NASHVILLE", "addr:country": "US", "addr:full": "301 S BARTOW ST", "addr:postcode": "31639", "addr:state": "GA", "brand": "USPS", "collection_times": "Mo-Fr 17:00; Sa 12:00", "name": "USPS COLLECTION BOX - PO LOBBY", "note": "ON 12/24 AND 12/31, THIS BOX MAY BE COLLECTED AS EARLY AS 12 NOON.", "ref": "3163900012"}, "type": "Feature"}
{"geometry": {"coordinates": [-82.85222642, 31.29604176], "type": "Point"}, "id": "WOpOufVcdLJK5gmm2xinqcczEQk=", "properties": {"@spider": "usps_collection_boxes", "addr:city": "PEARSON", "addr:country": "US", "addr:full": "102 S CHURCH ST", "addr:postcode": "31642", "addr:state": "GA", "brand": "USPS", "collection_times": "Mo-Fr 16:00; Sa 11:00", "name": "USPS COLLECTION BOX - PO LOBBY", "note": "ON 12/24 AND 12/31, THIS BOX MAY BE COLLECTED AS EARLY AS 12 NOON.", "ref": "3164200000"}, "type": "Feature"}
{"geometry": {"coordinates": [-82.8522198644, 31.2960420248], "type": "Point"}, "id": "ki2P5I5AsisPKkAaU17CqnWPa7U=", "properties": {"@spider": "usps_collection_boxes", "addr:city": "PEARSON", "addr:country": "US", "addr:full": "102 S CHURCH ST", "addr:postcode": "31642", "addr:state": "GA", "brand": "USPS", "collection_times": "Mo-Fr 16:00; Sa 11:00", "name": "USPS COLLECTION BOX - BLUE BOX", "note": "ON 12/24 AND 12/31, THIS BOX MAY BE COLLECTED AS EARLY AS 12 NOON.", "ref": "3164200001"}, "type": "Feature"}
{"geometry": {"coordinates": [-82.85222642, 31.29604176], "type": "Point"}, "id": "Ro7_hSZGso7zO6z2csWRGJIgGjM=", "properties": {"@spider": "usps_collection_boxes", "addr:city": "PEARSON", "addr:country": "US", "addr:full": "102 S CHURCH ST", "addr:postcode": "31642", "addr:state": "GA", "brand": "USPS", "collection_times": "Mo-Fr 16:00; Sa 11:00", "name": "USPS COLLECTION BOX - PO LOBBY", "note": "ON 12/24 AND 12/31, THIS BOX MAY BE COLLECTED AS EARLY AS 12 NOON.", "ref": "3164200003"}, "type": "Feature"}
{"geometry": {"coordinates": [-83.19795959, 31.074941788], "type": "Point"}, "id": "ZnI-D6KFY6NZiSzKgisEkyV80Z8=", "properties": {"@spider": "usps_collection_boxes", "addr:city": "RAY CITY", "addr:country": "US", "addr:full": "8122 MAIN ST", "addr:postcode": "31645", "addr:state": "GA", "brand": "USPS", "collection_times": "Mo-Fr 16:30; Sa 10:30", "name": "USPS COLLECTION BOX - PO LOBBY", "note": "ON 12/24 AND 12/31, THIS BOX MAY BE COLLECTED AS EARLY AS 12 NOON.", "ref": "3164500001"}, "type": "Feature"}
{"geometry": {"coordinates": [-83.19795959, 31.074941788], "type": "Point"}, "id": "ktuVgMPpn3AOufsVhFelCkNjBdg=", "properties": {"@spider": "usps_collection_boxes", "addr:city": "RAY CITY", "addr:country": "US", "addr:full": "8122 MAIN ST", "addr:postcode": "31645", "addr:state": "GA", "brand": "USPS", "collection_times": "Mo-Fr 16:30; Sa 10:30", "name": "USPS COLLECTION BOX - BLUE BOX", "note": "ON 12/24 AND 12/31, THIS BOX MAY BE COLLECTED AS EARLY AS 12 NOON.", "ref": "3164500002"}, "type": "Feature"}
{"geometry": {"coordinates": [-83.19795959, 31.074941788], "type": "Point"}, "id": "FUArgCuIgf4vQ0b9VZu-zCqn1Pw=", "properties": {"@spider": "usps_collection_boxes", "addr:city": "RAY CITY", "addr:country": "US", "addr:full": "8122 MAIN ST", "addr:postcode": "31645", "addr:state": "GA", "brand": "USPS", "collection_times": "Mo-Fr 16:30; Sa 10:30", "name": "USPS COLLECTION BOX - PO LOBBY", "note": "ON 12/24 AND 12/31, THIS BOX MAY BE COLLECTED AS EARLY AS 12 NOON.", "ref": "3164500004"}, "type": "Feature"}
{"geometry": {"coordinates": [-83.437375997, 31.166799737], "type": "Point"}, "id": "Tv6YTldI8pKtJObPyG7YFSOKX90=", "properties": {"@spider": "usps_collection_boxes", "addr:city": "SPARKS", "addr:country": "US", "addr:full": "102 S GOODMAN ST", "addr:postcode": "31647", "addr:state": "GA", "brand": "USPS", "collection_times": "Mo-Fr 16:15; Sa 11:00", "name": "USPS COLLECTION BOX - BLUE BOX", "note": "ON 12/24 AND 12/31, THIS BOX MAY BE COLLECTED AS EARLY AS 12 NOON.", "ref": "3164700000"}, "type": "Feature"}
{"geometry": {"coordinates": [-83.437375997, 31.166799737], "type": "Point"}, "id": "ZrvQZrjR5Erw_yvFzc16g-SBYU0=", "properties": {"@spider": "usps_collection_boxes", "addr:city": "SPARKS", "addr:country": "US", "addr:full": "102 S GOODMAN ST", "addr:postcode": "31647", "addr:state": "GA", "brand": "USPS", "collection_times": "Mo-Fr 16:15; Sa 11:00", "name": "USPS COLLECTION BOX - PO LOBBY", "note": "ON 12/24 AND 12/31, THIS BOX MAY BE COLLECTED AS EARLY AS 12 NOON.", "ref": "3164700001"}, "type": "Feature"}
{"geometry": {"coordinates": [-83.437375997, 31.166799737], "type": "Point"}, "id": "Q5bCIj9vz2RZ1JkJ5CqYWZFdgzE=", "properties": {"@spider": "usps_collection_boxes", "addr:city": "SPARKS", "addr:country": "US", "addr:full": "102 S GOODMAN ST", "addr:postcode": "31647", "addr:state": "GA", "brand": "USPS", "collection_times": "Mo-Fr 16:15; Sa 11:00", "name": "USPS COLLECTION BOX - PO LOBBY", "note": "ON 12/24 AND 12/31, THIS BOX MAY BE COLLECTED AS EARLY AS 12 NOON.", "ref": "3164700003"}, "type": "Feature"}
{"geometry": {"coordinates": [-83.011957518, 30.934008976], "type": "Point"}, "id": "WjlENQf_5jv79bImmR2V_gfwB4c=", "properties": {"@spider": "usps_collection_boxes", "addr:city": "STOCKTON", "addr:country": "US", "addr:full": "417 W HIGHWAY 84", "addr:postcode": "31649", "addr:state": "GA", "brand": "USPS", "collection_times": "Mo-Fr 11:30; Sa 10:30", "name": "USPS COLLECTION BOX - PO LOBBY", "ref": "3164900000"}, "type": "Feature"}
{"geometry": {"coordinates": [-83.011957518, 30.934008976], "type": "Point"}, "id": "v0KwNjWtZz6Shx92bjba8Yg3SSY=", "properties": {"@spider": "usps_collection_boxes", "addr:city": "STOCKTON", "addr:country": "US", "addr:full": "417 W HIGHWAY 84", "addr:postcode": "31649", "addr:state": "GA", "brand": "USPS", "collection_times": "Mo-Fr 11:30; Sa 10:30", "name": "USPS COLLECTION BOX - BLUE BOX", "ref": "3164900001"}, "type": "Feature"}
{"geometry": {"coordinates": [-83.011957518, 30.934008976], "type": "Point"}, "id": "u01_Jz4ZVuOPZmQfXJeUsO--vUY=", "properties": {"@spider": "usps_collection_boxes", "addr:city": "STOCKTON", "addr:country": "US", "addr:full": "417 W HIGHWAY 84", "addr:postcode": "31649", "addr:state": "GA", "brand": "USPS", "collection_times": "Mo-Fr 11:30; Sa 10:30", "name": "USPS COLLECTION BOX - PO LOBBY", "ref": "3164900002"}, "type": "Feature"}
{"geometry": {"coordinates": [-83.033535788, 31.33703332], "type": "Point"}, "id": "r1h_JkYeUK_Qzvwq2sobRzWrhuw=", "properties": {"@spider": "usps_collection_boxes", "addr:city": "WILLACOOCHEE", "addr:country": "US", "addr:full": "801 MAIN ST E", "addr:postcode": "31650", "addr:state": "GA", "brand": "USPS", "collection_times": "Mo-Fr 15:30; Sa 11:00", "name": "USPS COLLECTION BOX - BLUE BOX", "note": "ON 12/24 AND 12/31, THIS BOX MAY BE COLLECTED AS EARLY AS 12 NOON.", "ref": "3165000000"}, "type": "Feature"}
{"geometry": {"coordinates": [-83.033535788, 31.33703332], "type": "Point"}, "id": "Y85aULK7hdZ4KFoSncBng1_0Nwg=", "properties": {"@spider": "usps_collection_boxes", "addr:city": "WILLACOOCHEE", "addr:country": "US", "addr:full": "801 MAIN ST E", "addr:postcode": "31650", "addr:state": "GA", "brand": "USPS", "collection_times": "Mo-Fr 15:30; Sa 11:00", "name": "USPS COLLECTION BOX - PO LOBBY", "note": "ON 12/24 AND 12/31, THIS BOX MAY BE COLLECTED AS EARLY AS 12 NOON.", "ref": "3165000002"}, "type": "Feature"}
{"geometry": {"coordinates": [-83.033535788, 31.33703332], "type": "Point"}, "id": "uVAfqggkQyTjhp6jOwUhbDfwu9I=", "properties": {"@spider": "usps_collection_boxes", "addr:city": "WILLACOOCHEE", "addr:country": "US", "addr:full": "801 MAIN ST E", "addr:postcode": "31650", "addr:state": "GA", "brand": "USPS", "collection_times": "Mo-Fr 15:30; Sa 11:00", "name": "USPS COLLECTION BOX - PO LOBBY", "note": "ON 12/24 AND 12/31, THIS BOX MAY BE COLLECTED AS EARLY AS 12 NOON.", "ref": "3165000004"}, "type": "Feature"}
