{"geometry": {"coordinates": [-84.167497606, 31.606631338], "type": "Point"}, "id": "iLZgCN9lMsPlJX_bsQCyGHOhreE=", "properties": {"@spider": "usps_collection_boxes", "addr:city": "ALBANY", "addr:country": "US", "addr:full": "801 13TH AVE", "addr:postcode": "31701", "addr:state": "GA", "brand": "USPS", "collection_times": "Mo-Fr 15:00; Sa 10:00", "name": "USPS COLLECTION BOX - BLUE BOX", "note": "ON 12/24 AND 12/31, THIS BOX MAY BE COLLECTED AS EARLY AS 12 NOON.", "ref": "3170100006"}, "type": "Feature"}
{"geometry": {"coordinates": [-84.176462168, 31.559637939], "type": "Point"}, "id": "h-9TzXk5OHkbv54iMxBHpMnFB24=", "properties": {"@spider": "usps_collection_boxes", "addr:city": "ALBANY", "addr:country": "US", "addr:full": "1501 S SLAPPEY BLVD", "addr:postcode": "31701", "addr:state": "GA", "brand": "USPS", "collection_times": "Mo-Sa 17:00", "name": "USPS COLLECTION BOX - BLUE BOX", "note": "ON 12/24 AND 12/31, THIS BOX MAY BE COLLECTED AS EARLY AS 12 NOON.", "ref": "3170100008"}, "type": "Feature"}
{"geometry": {"coordinates": [-84.176462168, 31.559637939], "type": "Point"}, "id": "pjsnIiAfnq5NKWGOG_fLyM-FDR0=", "properties": {"@spider": "usps_collection_boxes", "addr:city": "ALBANY", "addr:country": "US", "addr:full": "1501 S SLAPPEY BLVD", "addr:postcode": "31701", "addr:state": "GA", "brand": "USPS", "collection_times": "Mo-Sa 17:00", "name": "USPS COLLECTION BOX - BLUE BOX", "note": "ON 12/24 AND 12/31, THIS BOX MAY BE COLLECTED AS EARLY AS 12 NOON.", "ref": "3170100010"}, "type": "Feature"}
{"geometry": {"coordinates": [-84.152381223, 31.575319473], "type": "Point"}, "id": "mG_OsZh1reDXN0MzZ5yAXplaCTU=", "properties": {"@spider": "usps_collection_boxes", "addr:city": "ALBANY", "addr:country": "US", "addr:full": "200 W OGLETHORPE BLVD", "addr:postcode": "31701", "addr:state": "GA", "brand": "USPS", "collection_times": "Mo-Fr 16:00; Sa 10:00", "name": "USPS COLLECTION BOX - BLUE BOX", "note": "ON 12/24 AND 12/31, THIS BOX MAY BE COLLECTED AS EARLY AS 12 NOON.", "ref": "3170100022"}, "type": "Feature"}
{"geometry": {"coordinates": [-84.175733792, 31.607360318], "type": "Point"}, "id": "Gsm2xH4mD_LHkrOXTPaHhR8omZc=", "properties": {"@spider": "usps_collection_boxes", "addr:city": "ALBANY", "addr:country": "US", "addr:full": "2310 N SLAPPEY BLVD", "addr:postcode": "31701", "addr:state": "GA", "brand": "USPS", "collection_times": "Mo-Fr 15:00; Sa 10:00", "name": "USPS COLLECTION BOX - BLUE BOX", "note": "ON 12/24 AND 12/31, THIS BOX MAY BE COLLECTED AS EARLY AS 12 NOON.", "ref": "3170100029"}, "type": "Feature"}
{"geometry": {"coordinates": [-84.175875222, 31.603507638], "type": "Point"}, "id": "2n_lGy7Hebn3y__poKxLLnKC55Q=", "properties": {"@spider": "usps_collection_boxes", "addr:city": "ALBANY", "addr:country": "US", "addr:full": "2017 N SLAPPEY BLVD", "addr:postcode": "31701", "addr:state": "GA", "brand": "USPS", "collection_times": "Mo-Fr 16:30; Sa 16:00", "name": "USPS COLLECTION BOX - BLUE BOX", "note": "ON 12/24 AND 12/31, THIS BOX MAY BE COLLECTED AS EARLY AS 12 NOON.", "ref": "3170100030"}, "type": "Feature"}
{"geometry": {"coordinates": [-84.175875222, 31.603507638], "type": "Point"}, "id": "R0xnmL0L7CTIHGJbjkmg4_1ojcI=", "properties": {"@spider": "usps_collection_boxes", "addr:city": "ALBANY", "addr:country": "US", "addr:full": "2017 N SLAPPEY BLVD", "addr:postcode": "31701", "addr:state": "GA", "brand": "USPS", "collection_times": "Mo-Fr 16:30; Sa 16:00", "name": "USPS COLLECTION BOX - BLUE BOX", "note": "ON 12/24 AND 12/31, THIS BOX MAY BE COLLECTED AS EARLY AS 12 NOON.", "ref": "3170100032"}, "type": "Feature"}
{"geometry": {"coordinates": [-84.176093236, 31.590610805], "type": "Point"}, "id": "BITPGbHITXf6LKdYGmd0fOsgl5Y=", "properties": {"@spider": "usps_collection_boxes", "addr:city": "ALBANY", "addr:country": "US", "addr:full": "1001 N SLAPPEY BLVD", "addr:postcode": "31701", "addr:state": "GA", "brand": "USPS", "collection_times": "Mo-Sa 10:00", "name": "USPS COLLECTION BOX - BLUE BOX", "ref": "3170100036"}, "type": "Feature"}
{"geometry": {"coordinates": [-84.157214018, 31.576790517], "type": "Point"}, "id": "parAWXIW7T0nUHcM1SCEGWB_kAg=", "properties": {"@spider": "usps_collection_boxes", "addr:city": "ALBANY", "addr:country": "US", "addr:full": "400 W BROAD AVE", "addr:postcode": "31701", "addr:state": "GA", "brand": "USPS", "collection_times": "Mo-Fr 17:30; Sa 16:00", "name": "USPS COLLECTION BOX - BLUE BOX", "note": "ON 12/24 AND 12/31, THIS BOX MAY BE COLLECTED AS EARLY AS 12 NOON.", "ref": "3170100060"}, "type": "Feature"}
{"geometry": {"coordinates": [-84.157214018, 31.576790517], "type": "Point"}, "id": "n4SfVoPo2uezoaQlDVg_6TIE888=", "properties": {"@spider": "usps_collection_boxes", "addr:city": "ALBANY", "addr:country": "US", "addr:full": "400 W BROAD AVE", "addr:postcode": "31701", "addr:state": "GA", "brand": "USPS", "collection_times": "Mo-Fr 17:30; Sa 16:00", "name": "USPS COLLECTION BOX - BLUE BOX", "note": "ON 12/24 AND 12/31, THIS BOX MAY BE COLLECTED AS EARLY AS 12 NOON.", "ref": "3170100065"}, "type": "Feature"}
{"geometry": {"coordinates": [-84.155661807, 31.583051532], "type": "Point"}, "id": "_6bPuonH4cAidKh2bcGuN51p3bs=", "properties": {"@spider": "usps_collection_boxes", "addr:city": "ALBANY", "addr:country": "US", "addr:full": "320 W RESIDENCE AVE", "addr:postcode": "31701", "addr:state": "GA", "brand": "USPS", "collection_times": "Mo-Fr 15:00; Sa 10:00", "name": "USPS COLLECTION BOX - BLUE BOX", "note": "ON 12/24 AND 12/31, THIS BOX MAY BE COLLECTED AS EARLY AS 12 NOON.", "ref": "3170100072"}, "type": "Feature"}
{"geometry": {"coordinates": [-84.152920584, 31.581507454], "type": "Point"}, "id": "REtDe7Bs0zGEe12GmoiuCySDq5k=", "properties": {"@spider": "usps_collection_boxes", "addr:city": "ALBANY", "addr:country": "US", "addr:full": "235 W ROOSEVELT AVE", "addr:postcode": "31701", "addr:state": "GA", "brand": "USPS", "collection_times": "Mo-Fr 15:00; Sa 10:00", "name": "USPS COLLECTION BOX - BLUE BOX", "note": "ON 12/24 AND 12/31, THIS BOX MAY BE COLLECTED AS EARLY AS 12 NOON.", "ref": "3170100080"}, "type": "Feature"}
{"geometry": {"coordinates": [-84.151347718, 31.578165], "type": "Point"}, "id": "bBqaRr4zt1Xz8Ta3zPBZ-k-jF-I=", "properties": {"@spider": "usps_collection_boxes", "addr:city": "ALBANY", "addr:country": "US", "addr:full": "126 N WASHINGTON ST", "addr:postcode": "31701", "addr:state": "GA", "brand": "USPS", "collection_times": "Mo-Fr 15:00; Sa 10:00", "name": "USPS COLLECTION BOX - BLUE BOX", "note": "ON 12/24 AND 12/31, THIS BOX MAY BE COLLECTED AS EARLY AS 12 NOON.", "ref": "3170100087"}, "type": "Feature"}
{"geometry": {"coordinates": [-84.176351753, 31.561723195], "type": "Point"}, "id": "kPAJdeFiMkeqFQ0eF5jHGuC4Wk0=", "properties": {"@spider": "usps_collection_boxes", "addr:city": "ALBANY", "addr:country": "US", "addr:full": "1306 S SLAPPEY BLVD", "addr:postcode": "31701", "addr:state": "GA", "brand": "USPS", "collection_times": "Mo-Sa 10:00", "name": "USPS COLLECTION BOX - BLUE BOX", "ref": "3170100093"}, "type": "Feature"}
{"geometry": {"coordinates": [-84.176462168, 31.559637939], "type": "Point"}, "id": "-KrpUQJsGMeu8b2_rWEkaJVwuX0=", "properties": {"@spider": "usps_collection_boxes", "addr:city": "ALBANY", "addr:country": "US", "addr:full": "1501 S SLAPPEY BLVD", "addr:postcode": "31701", "addr:state": "GA", "brand": "USPS", "collection_times": "Mo-Sa 17:00", "name": "USPS COLLECTION BOX - PO LOBBY", "note": "ON 12/24 AND 12/31, THIS BOX MAY BE COLLECTED AS EARLY AS 12 NOON.", "ref": "3170100094"}, "type": "Feature"}
{"geometry": {"coordinates": [-84.154698233, 31.576950298], "type": "Point"}, "id": "rJ4nrxWZEzVPvtrovM6up5tCQqY=", "properties": {"@spider": "usps_collection_boxes", "addr:city": "ALBANY", "addr:country": "US", "addr:full": "345 W BROAD AVE", "addr:postcode": "31701", "addr:state": "GA", "brand": "USPS", "collection_times": "Mo-Fr 16:30", "name": "USPS COLLECTION BOX - PO LOBBY", "note": "ON 12/24 AND 12/31, THIS BOX MAY BE COLLECTED AS EARLY AS 12 NOON.", "ref": "3170100096"}, "type": "Feature"}
{"geometry": {"coordinates": [-84.176462168, 31.559637939], "type": "Point"}, "id": "v7lbvDGEpi-wu85J75XMR0AnTyM=", "properties": {"@spider": "usps_collection_boxes", "addr:city": "ALBANY", "addr:country": "US", "addr:full": "1501 S SLAPPEY BLVD", "addr:postcode": "31701", "addr:state": "GA", "brand": "USPS", "collection_times": "Mo-Sa 17:00", "name": "USPS COLLECTION BOX - PO LOBBY", "note": "ON 12/24 AND 12/31, THIS BOX MAY BE COLLECTED AS EARLY AS 12 NOON.", "ref": "3170100103"}, "type": "Feature"}
{"geometry": {"coordinates": [-84.154698233, 31.576950298], "type": "Point"}, "id": "Xr4U1Rku1IVMr2qisUQZRet_2Gg=", "properties": {"@spider": "usps_collection_boxes", "addr:city": "ALBANY", "addr:country": "US", "addr:full": "345 W BROAD AVE", "addr:postcode": "31701", "addr:state": "GA", "brand": "USPS", "collection_times": "Mo-Fr 16:30", "name": "USPS COLLECTION BOX - PO LOBBY", "note": "ON 12/24 AND 12/31, THIS BOX MAY BE COLLECTED AS EARLY AS 12 NOON.", "ref": "3170100104"}, "type": "Feature"}
{"geometry": {"coordinates": [-84.085355913, 31.574912653], "type": "Point"}, "id": "H8m9Uhr5jQeXXJ5Gs5ydqeSBvE8=", "properties": {"@spider": "usps_collection_boxes", "addr:city": "ALBANY", "addr:country": "US", "addr:full": "2507 SYLVESTER RD", "addr:postcode": "31705", "addr:state": "GA", "brand": "USPS", "collection_times": "Mo-Sa 12:00", "name": "USPS COLLECTION BOX - BLUE BOX", "ref": "3170500001"}, "type": "Feature"}
{"geometry": {"coordinates": [-84.094710805, 31.567554202], "type": "Point"}, "id": "7OefPx9BT0I46CV98YW5FShgohw=", "properties": {"@spider": "usps_collection_boxes", "addr:city": "ALBANY", "addr:country": "US", "addr:full": "328 S MOCK RD", "addr:postcode": "31705", "addr:state": "GA", "brand": "USPS", "collection_times": "Mo-Fr 17:00; Sa 16:00", "name": "USPS COLLECTION BOX - BLUE BOX", "note": "ON 12/24 AND 12/31, THIS BOX MAY BE COLLECTED AS EARLY AS 12 NOON.", "ref": "3170500016"}, "type": "Feature"}
{"geometry": {"coordinates": [-84.094710805, 31.567554202], "type": "Point"}, "id": "YcinLPZMfWbrPLq7bXcvLF5m9t4=", "properties": {"@spider": "usps_collection_boxes", "addr:city": "ALBANY", "addr:country": "US", "addr:full": "328 S MOCK RD", "addr:postcode": "31705", "addr:state": "GA", "brand": "USPS", "collection_times": "Mo-Fr 17:00; Sa 16:00", "name": "USPS COLLECTION BOX - BLUE BOX", "note": "ON 12/24 AND 12/31, THIS BOX MAY BE COLLECTED AS EARLY AS 12 NOON.", "ref": "3170500021"}, "type": "Feature"}
{"geometry": {"coordinates": [-84.099951272, 31.573771575], "type": "Point"}, "id": "dkjZyHcnZaom9sgl3e9vL2uOh3g=", "properties": {"@spider": "usps_collection_boxes", "addr:city": "ALBANY", "addr:country": "US", "addr:full": "200 LOFTUS DR", "addr:postcode": "31705", "addr:state": "GA", "brand": "USPS", "collection_times": "Mo-Fr 15:00; Sa 10:00", "name": "USPS COLLECTION BOX - BLUE BOX", "note": "ON 12/24 AND 12/31, THIS BOX MAY BE COLLECTED AS EARLY AS 12 NOON.", "ref": "3170500022"}, "type": "Feature"}
{"geometry": {"coordinates": [-84.063877159, 31.550720148], "type": "Point"}, "id": "F4QXIBWLNVsLOul3oWK_osSylAY=", "properties": {"@spider": "usps_collection_boxes", "addr:city": "ALBANY", "addr:country": "US", "addr:full": "814 RADFORD BLVD BLDG 3600", "addr:postcode": "31705", "addr:state": "GA", "brand": "USPS", "collection_times": "Mo-Sa 15:00", "name": "USPS COLLECTION BOX - BLUE BOX", "note": "ON 12/24 AND 12/31, THIS BOX MAY BE COLLECTED AS EARLY AS 12 NOON.", "ref": "3170500036"}, "type": "Feature"}
{"geometry": {"coordinates": [-84.121916363, 31.596216087], "type": "Point"}, "id": "_Z1NSoOYOmPdGjd6PcZhC_QyK0g=", "properties": {"@spider": "usps_collection_boxes", "addr:city": "ALBANY", "addr:country": "US", "addr:full": "1302 EVELYN AVE", "addr:postcode": "31705", "addr:state": "GA", "brand": "USPS", "collection_times": "Mo-Sa 12:00", "name": "USPS COLLECTION BOX - BLUE BOX", "ref": "3170500048"}, "type": "Feature"}
{"geometry": {"coordinates": [-84.094710805, 31.567554202], "type": "Point"}, "id": "qTIW5G8qbtYcpxB6gxeNGqqHsK8=", "properties": {"@spider": "usps_collection_boxes", "addr:city": "ALBANY", "addr:country": "US", "addr:full": "328 S MOCK RD", "addr:postcode": "31705", "addr:state": "GA", "brand": "USPS", "collection_times": "Mo-Fr 16:00", "name": "USPS COLLECTION BOX - PO LOBBY", "note": "ON 12/24 AND 12/31, THIS BOX MAY BE COLLECTED AS EARLY AS 12 NOON.", "ref": "3170500051"}, "type": "Feature"}
{"geometry": {"coordinates": [-84.094710805, 31.567554202], "type": "Point"}, "id": "lVd95CE_V2T9vrNBu6MN8u0DloA=", "properties": {"@spider": "usps_collection_boxes", "addr:city": "ALBANY", "addr:country": "US", "addr:full": "328 S MOCK RD", "addr:postcode": "31705", "addr:state": "GA", "brand": "USPS", "collection_times": "Mo-Fr 16:00", "name": "USPS COLLECTION BOX - PO LOBBY", "note": "ON 12/24 AND 12/31, THIS BOX MAY BE COLLECTED AS EARLY AS 12 NOON.", "ref": "3170500054"}, "type": "Feature"}
{"geometry": {"coordinates": [-84.222130858, 31.606201507], "type": "Point"}, "id": "U-4h1N--huBuHYD6JFMncEyUf7I=", "properties": {"@spider": "usps_collection_boxes", "addr:city": "ALBANY", "addr:country": "US", "addr:full": "509 N WESTOVER BLVD", "addr:postcode": "31707", "addr:state": "GA", "brand": "USPS", "collection_times": "Mo-Sa 12:00", "name": "USPS COLLECTION BOX - BLUE BOX", "ref": "3170700000"}, "type": "Feature"}
{"geometry": {"coordinates": [-84.1836825, 31.604928477], "type": "Point"}, "id": "vumUdc5y7Ur_rZCSoLeCi0ksTS8=", "properties": {"@spider": "usps_collection_boxes", "addr:city": "ALBANY", "addr:country": "US", "addr:full": "1404 WHISPERING PINES RD", "addr:postcode": "31707", "addr:state": "GA", "brand": "USPS", "collection_times": "Mo-Sa 10:00", "name": "USPS COLLECTION BOX - BLUE BOX", "ref": "3170700002"}, "type": "Feature"}
{"geometry": {"coordinates": [-84.179841384, 31.614409454], "type": "Point"}, "id": "VoTmlJfL1q0WsIpYzdYrfzd9OAc=", "properties": {"@spider": "usps_collection_boxes", "addr:city": "ALBANY", "addr:country": "US", "addr:full": "2700 PALMYRA RD", "addr:postcode": "31707", "addr:state": "GA", "brand": "USPS", "collection_times": "Mo-Fr 16:30; Sa 10:00", "name": "USPS COLLECTION BOX - BLUE BOX", "note": "ON 12/24 AND 12/31, THIS BOX MAY BE COLLECTED AS EARLY AS 12 NOON.", "ref": "3170700004"}, "type": "Feature"}
{"geometry": {"coordinates": [-84.221224524, 31.610928351], "type": "Point"}, "id": "IzvaOYWfOpOxxai7BmV0vrsDCHU=", "properties": {"@spider": "usps_collection_boxes", "addr:city": "ALBANY", "addr:country": "US", "addr:full": "2823 MEREDYTH DR", "addr:postcode": "31707", "addr:state": "GA", "brand": "USPS", "collection_times": "Mo-Fr 17:30; Sa 16:30", "name": "USPS COLLECTION BOX - BLUE BOX", "note": "ON 12/24 AND 12/31, THIS BOX MAY BE COLLECTED AS EARLY AS 12 NOON.", "ref": "3170700009"}, "type": "Feature"}
{"geometry": {"coordinates": [-84.221224524, 31.610928351], "type": "Point"}, "id": "RLmuzcWpIOoQfWGpOVv-4YIR4s0=", "properties": {"@spider": "usps_collection_boxes", "addr:city": "ALBANY", "addr:country": "US", "addr:full": "2823 MEREDYTH DR", "addr:postcode": "31707", "addr:state": "GA", "brand": "USPS", "collection_times": "Mo-Fr 17:30; Sa 16:30", "name": "USPS COLLECTION BOX - BLUE BOX", "note": "ON 12/24 AND 12/31, THIS BOX MAY BE COLLECTED AS EARLY AS 12 NOON.", "ref": "3170700010"}, "type": "Feature"}
{"geometry": {"coordinates": [-84.221224524, 31.610928351], "type": "Point"}, "id": "x5HXOEaXOnsVZT14-cMuRCJyqr8=", "properties": {"@spider": "usps_collection_boxes", "addr:city": "ALBANY", "addr:country": "US", "addr:full": "2823 MEREDYTH DR", "addr:postcode": "31707", "addr:state": "GA", "brand": "USPS", "collection_times": "Mo-Fr 17:30; Sa 16:30", "name": "USPS COLLECTION BOX - BLUE BOX", "note": "ON 12/24 AND 12/31, THIS BOX MAY BE COLLECTED AS EARLY AS 12 NOON.", "ref": "3170700012"}, "type": "Feature"}
{"geometry": {"coordinates": [-84.220073277, 31.585750498], "type": "Point"}, "id": "fxWlGiGYy2CTEFNxD4xhNGAtAcE=", "properties": {"@spider": "usps_collection_boxes", "addr:city": "ALBANY", "addr:country": "US", "addr:full": "2701 GILLIONVILLE RD", "addr:postcode": "31707", "addr:state": "GA", "brand": "USPS", "collection_times": "Mo-Sa 10:00", "name": "USPS COLLECTION BOX - BLUE BOX", "ref": "3170700020"}, "type": "Feature"}
{"geometry": {"coordinates": [-84.179606078, 31.580776785], "type": "Point"}, "id": "Sf1-YSzWHvDcqM8buClLrJRPAek=", "properties": {"@spider": "usps_collection_boxes", "addr:city": "ALBANY", "addr:country": "US", "addr:full": "322 EVA ST", "addr:postcode": "31707", "addr:state": "GA", "brand": "USPS", "collection_times": "Mo-Sa 10:00", "name": "USPS COLLECTION BOX - BLUE BOX", "ref": "3170700030"}, "type": "Feature"}
{"geometry": {"coordinates": [-84.223188648, 31.61849146], "type": "Point"}, "id": "1FbzZyVteL3_SyseXlhclnq9l_c=", "properties": {"@spider": "usps_collection_boxes", "addr:city": "ALBANY", "addr:country": "US", "addr:full": "2700 DAWSON RD", "addr:postcode": "31707", "addr:state": "GA", "brand": "USPS", "collection_times": "Mo-Fr 15:00; Sa 10:00", "name": "USPS COLLECTION BOX - BLUE BOX", "note": "ON 12/24 AND 12/31, THIS BOX MAY BE COLLECTED AS EARLY AS 12 NOON.", "ref": "3170700033"}, "type": "Feature"}
{"geometry": {"coordinates": [-84.207161166, 31.606199653], "type": "Point"}, "id": "Q1XLoKIRnpV3wlD1w2n3jxaEh4A=", "properties": {"@spider": "usps_collection_boxes", "addr:city": "ALBANY", "addr:country": "US", "addr:full": "2401 DAWSON RD", "addr:postcode": "31707", "addr:state": "GA", "brand": "USPS", "collection_times": "Mo-Sa 15:00", "name": "USPS COLLECTION BOX - BLUE BOX", "note": "ON 12/24 AND 12/31, THIS BOX MAY BE COLLECTED AS EARLY AS 12 NOON.", "ref": "3170700038"}, "type": "Feature"}
{"geometry": {"coordinates": [-84.197931529, 31.597734721], "type": "Point"}, "id": "DgKIsoz4H6LJZD5lImChhlHrkio=", "properties": {"@spider": "usps_collection_boxes", "addr:city": "ALBANY", "addr:country": "US", "addr:full": "1921 DAWSON RD", "addr:postcode": "31707", "addr:state": "GA", "brand": "USPS", "collection_times": "Mo-Fr 15:00; Sa 10:00", "name": "USPS COLLECTION BOX - BLUE BOX", "note": "ON 12/24 AND 12/31, THIS BOX MAY BE COLLECTED AS EARLY AS 12 NOON.", "ref": "3170700041"}, "type": "Feature"}
{"geometry": {"coordinates": [-84.184839963, 31.587007865], "type": "Point"}, "id": "L-6Cu_gKM45JePxabaXzWbMuUIA=", "properties": {"@spider": "usps_collection_boxes", "addr:city": "ALBANY", "addr:country": "US", "addr:full": "1410 DAWSON RD", "addr:postcode": "31707", "addr:state": "GA", "brand": "USPS", "collection_times": "Mo-Fr 15:00; Sa 10:00", "name": "USPS COLLECTION BOX - BLUE BOX", "note": "ON 12/24 AND 12/31, THIS BOX MAY BE COLLECTED AS EARLY AS 12 NOON.", "ref": "3170700045"}, "type": "Feature"}
{"geometry": {"coordinates": [-84.217573102, 31.613461498], "type": "Point"}, "id": "YXcGS0hOxwg3nZK9CCu_o1bTaB4=", "properties": {"@spider": "usps_collection_boxes", "addr:city": "ALBANY", "addr:country": "US", "addr:full": "2800 OLD DAWSON RD", "addr:postcode": "31707", "addr:state": "GA", "brand": "USPS", "collection_times": "Mo-Sa 12:00", "name": "USPS COLLECTION BOX - BLUE BOX", "ref": "3170700063"}, "type": "Feature"}
{"geometry": {"coordinates": [-84.207161166, 31.606199653], "type": "Point"}, "id": "XrasX-itIYr1_SsHYP0u9-2O1JM=", "properties": {"@spider": "usps_collection_boxes", "addr:city": "ALBANY", "addr:country": "US", "addr:full": "2401 DAWSON RD", "addr:postcode": "31707", "addr:state": "GA", "brand": "USPS", "collection_times": "Mo-Sa 15:00", "name": "USPS COLLECTION BOX - BLUE BOX", "note": "ON 12/24 AND 12/31, THIS BOX MAY BE COLLECTED AS EARLY AS 12 NOON.", "ref": "3170700067"}, "type": "Feature"}
{"geometry": {"coordinates": [-84.190399776, 31.57713], "type": "Point"}, "id": "oS8232D4IvSnRFUHm4G9KR5W9_U=", "properties": {"@spider": "usps_collection_boxes", "addr:city": "ALBANY", "addr:country": "US", "addr:full": "100 N MAGNOLIA ST", "addr:postcode": "31707", "addr:state": "GA", "brand": "USPS", "collection_times": "Mo-Sa 10:00", "name": "USPS COLLECTION BOX - BLUE BOX", "ref": "3170700068"}, "type": "Feature"}
{"geometry": {"coordinates": [-84.214309672, 31.585745547], "type": "Point"}, "id": "nXlttuCjxurzcvB4G2elyR5ucrQ=", "properties": {"@spider": "usps_collection_boxes", "addr:city": "ALBANY", "addr:country": "US", "addr:full": "2400 GILLIONVILLE RD", "addr:postcode": "31707", "addr:state": "GA", "brand": "USPS", "collection_times": "Mo-Sa 15:00", "name": "USPS COLLECTION BOX - BLUE BOX", "note": "ON 12/24 AND 12/31, THIS BOX MAY BE COLLECTED AS EARLY AS 12 NOON.", "ref": "3170700070"}, "type": "Feature"}
{"geometry": {"coordinates": [-84.208440395, 31.622524525], "type": "Point"}, "id": "lemQBY2agrYNRdYoldLJRQYt7uI=", "properties": {"@spider": "usps_collection_boxes", "addr:city": "ALBANY", "addr:country": "US", "addr:full": "2724 LEDO RD", "addr:postcode": "31707", "addr:state": "GA", "brand": "USPS", "collection_times": "Mo-Sa 12:00", "name": "USPS COLLECTION BOX - BLUE BOX", "ref": "3170700073"}, "type": "Feature"}
{"geometry": {"coordinates": [-84.221224524, 31.610928351], "type": "Point"}, "id": "p3EvXIot1_eADqABO1K2bkIasg0=", "properties": {"@spider": "usps_collection_boxes", "addr:city": "ALBANY", "addr:country": "US", "addr:full": "2823 MEREDYTH DR", "addr:postcode": "31707", "addr:state": "GA", "brand": "USPS", "collection_times": "Mo-Fr 17:30", "name": "USPS COLLECTION BOX - PO LOBBY", "note": "ON 12/24 AND 12/31, THIS BOX MAY BE COLLECTED AS EARLY AS 12 NOON.", "ref": "3170700074"}, "type": "Feature"}
{"geometry": {"coordinates": [-84.221224524, 31.610928351], "type": "Point"}, "id": "1A65IS9R2p9vub2-qs3JUhIQhME=", "properties": {"@spider": "usps_collection_boxes", "addr:city": "ALBANY", "addr:country": "US", "addr:full": "2823 MEREDYTH DR", "addr:postcode": "31707", "addr:state": "GA", "brand": "USPS", "collection_times": "Mo-Fr 17:30; Sa 16:30", "name": "USPS COLLECTION BOX - BLUE BOX", "note": "ON 12/24 AND 12/31, THIS BOX MAY BE COLLECTED AS EARLY AS 12 NOON.", "ref": "3170700076"}, "type": "Feature"}
{"geometry": {"coordinates": [-84.179841384, 31.614409454], "type": "Point"}, "id": "5M_4r5hD7PZEsm0PtZB9tZ_GCPA=", "properties": {"@spider": "usps_collection_boxes", "addr:city": "ALBANY", "addr:country": "US", "addr:full": "2700 PALMYRA RD", "addr:postcode": "31707", "addr:state": "GA", "brand": "USPS", "collection_times": "Mo-Fr 16:30; Sa 10:00", "name": "USPS COLLECTION BOX - BLUE BOX", "note": "ON 12/24 AND 12/31, THIS BOX MAY BE COLLECTED AS EARLY AS 12 NOON.", "ref": "3170700078"}, "type": "Feature"}
{"geometry": {"coordinates": [-84.222352866, 31.568628392], "type": "Point"}, "id": "_5kZNFw68tkl7h2yEAxAQly84CE=", "properties": {"@spider": "usps_collection_boxes", "addr:city": "ALBANY", "addr:country": "US", "addr:full": "421 S WESTOVER BLVD", "addr:postcode": "31707", "addr:state": "GA", "brand": "USPS", "collection_times": "Mo-Sa 10:00", "name": "USPS COLLECTION BOX - BLUE BOX", "ref": "3170700079"}, "type": "Feature"}
{"geometry": {"coordinates": [-84.221224524, 31.610928351], "type": "Point"}, "id": "dg5N2AjR2YDNoeQ2TMMEr_tScUo=", "properties": {"@spider": "usps_collection_boxes", "addr:city": "ALBANY", "addr:country": "US", "addr:full": "2823 MEREDYTH DR", "addr:postcode": "31707", "addr:state": "GA", "brand": "USPS", "collection_times": "Mo-Fr 17:30; Sa 16:30", "name": "USPS COLLECTION BOX - APC", "note": "ON 12/24 AND 12/31, THIS BOX MAY BE COLLECTED AS EARLY AS 12 NOON.", "ref": "3170700080"}, "type": "Feature"}
{"geometry": {"coordinates": [-84.185522489, 31.590640573], "type": "Point"}, "id": "NAgVMBb64QamahFBTSWNUKXH8IE=", "properties": {"@spider": "usps_collection_boxes", "addr:city": "ALBANY", "addr:country": "US", "addr:full": "1522 W 3RD AVE", "addr:postcode": "31707", "addr:state": "GA", "brand": "USPS", "collection_times": "Mo-Fr 16:00", "name": "USPS COLLECTION BOX - BLUE BOX", "note": "ON 12/24 AND 12/31, THIS BOX MAY BE COLLECTED AS EARLY AS 12 NOON.", "ref": "3170700083"}, "type": "Feature"}
{"geometry": {"coordinates": [-84.221224524, 31.610928351], "type": "Point"}, "id": "p6rmGcBAOpPfptmDpaG-SDXQoXQ=", "properties": {"@spider": "usps_collection_boxes", "addr:city": "ALBANY", "addr:country": "US", "addr:full": "2823 MEREDYTH DR", "addr:postcode": "31707", "addr:state": "GA", "brand": "USPS", "collection_times": "Mo-Fr 17:30", "name": "USPS COLLECTION BOX - PO LOBBY", "note": "ON 12/24 AND 12/31, THIS BOX MAY BE COLLECTED AS EARLY AS 12 NOON.", "ref": "3170700086"}, "type": "Feature"}
{"geometry": {"coordinates": [-84.160800081, 31.376405968], "type": "Point"}, "id": "r6O2Dk68S4AI_JxTXkti2t09qLE=", "properties": {"@spider": "usps_collection_boxes", "addr:city": "BACONTON", "addr:country": "US", "addr:full": "140 E WALTON ST", "addr:postcode": "31716", "addr:state": "GA", "brand": "USPS", "collection_times": "Mo-Fr 15:30; Sa 10:30", "name": "USPS COLLECTION BOX - BLUE BOX", "note": "ON 12/24 AND 12/31, THIS BOX MAY BE COLLECTED AS EARLY AS 12 NOON.", "ref": "3171600000"}, "type": "Feature"}
{"geometry": {"coordinates": [-84.160800081, 31.376405968], "type": "Point"}, "id": "dIa8Pdlk8013LNSSMGiNUMDyhLg=", "properties": {"@spider": "usps_collection_boxes", "addr:city": "BACONTON", "addr:country": "US", "addr:full": "140 E WALTON ST", "addr:postcode": "31716", "addr:state": "GA", "brand": "USPS", "collection_times": "Mo-Fr 15:30; Sa 10:30", "name": "USPS COLLECTION BOX - PO LOBBY", "note": "ON 12/24 AND 12/31, THIS BOX MAY BE COLLECTED AS EARLY AS 12 NOON.", "ref": "3171600001"}, "type": "Feature"}
{"geometry": {"coordinates": [-84.160800081, 31.376405968], "type": "Point"}, "id": "4LAH0CY7G3CTnzt4QuG3wkAd6yg=", "properties": {"@spider": "usps_collection_boxes", "addr:city": "BACONTON", "addr:country": "US", "addr:full": "140 E WALTON ST", "addr:postcode": "31716", "addr:state": "GA", "brand": "USPS", "collection_times": "Mo-Fr 15:30; Sa 10:30", "name": "USPS COLLECTION BOX - PO LOBBY", "note": "ON 12/24 AND 12/31, THIS BOX MAY BE COLLECTED AS EARLY AS 12 NOON.", "ref": "3171600003"}, "type": "Feature"}
{"geometry": {"coordinates": [-83.738492026, 30.89308254], "type": "Point"}, "id": "ACtCZOeHs9TXimYq6Ww4FcAsxSo=", "properties": {"@spider": "usps_collection_boxes", "addr:city": "BARWICK", "addr:country": "US", "addr:full": "2032 E MAIN ST", "addr:postcode": "31720", "addr:state": "GA", "brand": "USPS", "collection_times": "Mo-Fr 13:00; Sa 11:00", "name": "USPS COLLECTION BOX - BLUE BOX", "note": "ON 12/24 AND 12/31, THIS BOX MAY BE COLLECTED AS EARLY AS 12 NOON.", "ref": "3172000000"}, "type": "Feature"}
{"geometry": {"coordinates": [-83.738492026, 30.89308254], "type": "Point"}, "id": "5dFnTHBQafT2qfRAUcAfVyGf9XM=", "properties": {"@spider": "usps_collection_boxes", "addr:city": "BARWICK", "addr:country": "US", "addr:full": "2032 E MAIN ST", "addr:postcode": "31720", "addr:state": "GA", "brand": "USPS", "collection_times": "Mo-Fr 13:00; Sa 11:00", "name": "USPS COLLECTION BOX - PO LOBBY", "note": "ON 12/24 AND 12/31, THIS BOX MAY BE COLLECTED AS EARLY AS 12 NOON.", "ref": "3172000001"}, "type": "Feature"}
{"geometry": {"coordinates": [-83.738492026, 30.89308254], "type": "Point"}, "id": "Ffd_GNionVWz-pX1IrKHgW_j4xE=", "properties": {"@spider": "usps_collection_boxes", "addr:city": "BARWICK", "addr:country": "US", "addr:full": "2032 E MAIN ST", "addr:postcode": "31720", "addr:state": "GA", "brand": "USPS", "collection_times": "Mo-Fr 13:00; Sa 11:00", "name": "USPS COLLECTION BOX - PO LOBBY", "note": "ON 12/24 AND 12/31, THIS BOX MAY BE COLLECTED AS EARLY AS 12 NOON.", "ref": "3172000002"}, "type": "Feature"}
{"geometry": {"coordinates": [-83.623811819, 31.068585165], "type": "Point"}, "id": "8kqc8euf-b0k6BvHmZXCzjs0RVw=", "properties": {"@spider": "usps_collection_boxes", "addr:city": "BERLIN", "addr:country": "US", "addr:full": "293 N LANGFORD ST", "addr:postcode": "31722", "addr:state": "GA", "brand": "USPS", "collection_times": "Mo-Fr 12:30; Sa 11:00", "name": "USPS COLLECTION BOX - BLUE BOX", "note": "ON 12/24 AND 12/31, THIS BOX MAY BE COLLECTED AS EARLY AS 12 NOON.", "ref": "3172200000"}, "type": "Feature"}
{"geometry": {"coordinates": [-83.623811819, 31.068585165], "type": "Point"}, "id": "8v4VEisR9nnE2DUZnVgJp5sNIAE=", "properties": {"@spider": "usps_collection_boxes", "addr:city": "BERLIN", "addr:country": "US", "addr:full": "293 N LANGFORD ST", "addr:postcode": "31722", "addr:state": "GA", "brand": "USPS", "collection_times": "Mo-Fr 12:30; Sa 11:00", "name": "USPS COLLECTION BOX - PO LOBBY", "note": "ON 12/24 AND 12/31, THIS BOX MAY BE COLLECTED AS EARLY AS 12 NOON.", "ref": "3172200001"}, "type": "Feature"}
{"geometry": {"coordinates": [-83.623811819, 31.068585165], "type": "Point"}, "id": "SPsqkLbcj1itcXHWT39ffejO7r8=", "properties": {"@spider": "usps_collection_boxes", "addr:city": "BERLIN", "addr:country": "US", "addr:full": "293 N LANGFORD ST", "addr:postcode": "31722", "addr:state": "GA", "brand": "USPS", "collection_times": "Mo-Fr 12:30; Sa 11:00", "name": "USPS COLLECTION BOX - PO LOBBY", "note": "ON 12/24 AND 12/31, THIS BOX MAY BE COLLECTED AS EARLY AS 12 NOON.", "ref": "3172200002"}, "type": "Feature"}
{"geometry": {"coordinates": [-84.207302026, 31.231094506], "type": "Point"}, "id": "ggeBhp4xe_ECq7fdO0LfVzA_62A=", "properties": {"@spider": "usps_collection_boxes", "addr:city": "CAMILLA", "addr:country": "US", "addr:full": "13 E BROAD ST", "addr:postcode": "31730", "addr:state": "GA", "brand": "USPS", "collection_times": "Mo-Fr 17:00; Sa 12:00", "name": "USPS COLLECTION BOX - BLUE BOX", "note": "ON 12/24 AND 12/31, THIS BOX MAY BE COLLECTED AS EARLY AS 12 NOON.", "ref": "3173000000"}, "type": "Feature"}
{"geometry": {"coordinates": [-84.207302026, 31.231094506], "type": "Point"}, "id": "cKV2b42W_Ay4lGhA9cYnGvI51Ys=", "properties": {"@spider": "usps_collection_boxes", "addr:city": "CAMILLA", "addr:country": "US", "addr:full": "13 E BROAD ST", "addr:postcode": "31730", "addr:state": "GA", "brand": "USPS", "collection_times": "Mo-Fr 17:00; Sa 12:00", "name": "USPS COLLECTION BOX - PO LOBBY", "note": "ON 12/24 AND 12/31, THIS BOX MAY BE COLLECTED AS EARLY AS 12 NOON.", "ref": "3173000008"}, "type": "Feature"}
{"geometry": {"coordinates": [-84.207302026, 31.231094506], "type": "Point"}, "id": "DsWC4qaEgVV-d7ObqhsLyMo6N1g=", "properties": {"@spider": "usps_collection_boxes", "addr:city": "CAMILLA", "addr:country": "US", "addr:full": "13 E BROAD ST", "addr:postcode": "31730", "addr:state": "GA", "brand": "USPS", "collection_times": "Mo-Fr 17:00; Sa 12:00", "name": "USPS COLLECTION BOX - PO LOBBY", "note": "ON 12/24 AND 12/31, THIS BOX MAY BE COLLECTED AS EARLY AS 12 NOON.", "ref": "3173000010"}, "type": "Feature"}
{"geometry": {"coordinates": [-83.865493195, 31.017250443], "type": "Point"}, "id": "3DO_FQMXcsXfZrLF2SxO7TDVYG4=", "properties": {"@spider": "usps_collection_boxes", "addr:city": "COOLIDGE", "addr:country": "US", "addr:full": "1020 W STETSON AVE", "addr:postcode": "31738", "addr:state": "GA", "brand": "USPS", "collection_times": "Mo-Fr 16:30; Sa 10:30", "name": "USPS COLLECTION BOX - BLUE BOX", "note": "ON 12/24 AND 12/31, THIS BOX MAY BE COLLECTED AS EARLY AS 12 NOON.", "ref": "3173800000"}, "type": "Feature"}
{"geometry": {"coordinates": [-83.865493195, 31.017250443], "type": "Point"}, "id": "Vrncodlag2dp7GCi0sBKdKW1g6A=", "properties": {"@spider": "usps_collection_boxes", "addr:city": "COOLIDGE", "addr:country": "US", "addr:full": "1020 W STETSON AVE", "addr:postcode": "31738", "addr:state": "GA", "brand": "USPS", "collection_times": "Mo-Fr 16:00; Sa 10:30", "name": "USPS COLLECTION BOX - PO LOBBY", "note": "ON 12/24 AND 12/31, THIS BOX MAY BE COLLECTED AS EARLY AS 12 NOON.", "ref": "3173800001"}, "type": "Feature"}
{"geometry": {"coordinates": [-83.865493195, 31.017250443], "type": "Point"}, "id": "Rsi-uVsM7NWncNo3Rm9zkjqZz78=", "properties": {"@spider": "usps_collection_boxes", "addr:city": "COOLIDGE", "addr:country": "US", "addr:full": "1020 W STETSON AVE", "addr:postcode": "31738", "addr:state": "GA", "brand": "USPS", "collection_times": "Mo-Fr 16:00; Sa 10:30", "name": "USPS COLLECTION BOX - PO LOBBY", "note": "ON 12/24 AND 12/31, THIS BOX MAY BE COLLECTED AS EARLY AS 12 NOON.", "ref": "3173800002"}, "type": "Feature"}
{"geometry": {"coordinates": [-83.919424448, 31.319528481], "type": "Point"}, "id": "QLrZJOdd78D-mJ9tWOTb9YR-0lo=", "properties": {"@spider": "usps_collection_boxes", "addr:city": "DOERUN", "addr:country": "US", "addr:full": "241 W BROAD AVE", "addr:postcode": "31744", "addr:state": "GA", "brand": "USPS", "collection_times": "Mo-Fr 16:30; Sa 11:00", "name": "USPS COLLECTION BOX - PO LOBBY", "note": "ON 12/24 AND 12/31, THIS BOX MAY BE COLLECTED AS EARLY AS 12 NOON.", "ref": "3174400001"}, "type": "Feature"}
{"geometry": {"coordinates": [-83.919424448, 31.319528481], "type": "Point"}, "id": "bZA-YxTGg-0Y9t8kC03j6hsMau0=", "properties": {"@spider": "usps_collection_boxes", "addr:city": "DOERUN", "addr:country": "US", "addr:full": "241 W BROAD AVE", "addr:postcode": "31744", "addr:state": "GA", "brand": "USPS", "collection_times": "Mo-Fr 16:30; Sa 11:00", "name": "USPS COLLECTION BOX - BLUE BOX", "note": "ON 12/24 AND 12/31, THIS BOX MAY BE COLLECTED AS EARLY AS 12 NOON.", "ref": "3174400002"}, "type": "Feature"}
{"geometry": {"coordinates": [-83.919424448, 31.319528481], "type": "Point"}, "id": "FB21muDM79PcLOn6RHQPxPVnhcc=", "properties": {"@spider": "usps_collection_boxes", "addr:city": "DOERUN", "addr:country": "US", "addr:full": "241 W BROAD AVE", "addr:postcode": "31744", "addr:state": "GA", "brand": "USPS", "collection_times": "Mo-Fr 16:30; Sa 11:00", "name": "USPS COLLECTION BOX - PO LOBBY", "note": "ON 12/24 AND 12/31, THIS BOX MAY BE COLLECTED AS EARLY AS 12 NOON.", "ref": "3174400004"}, "type": "Feature"}
{"geometry": {"coordinates": [-83.587641408, 31.174756743], "type": "Point"}, "id": "Zbjoc1prtvaokCXg3ixfIo-jHcE=", "properties": {"@spider": "usps_collection_boxes", "addr:city": "ELLENTON", "addr:country": "US", "addr:full": "158 BAKER ST", "addr:postcode": "31747", "addr:state": "GA", "brand": "USPS", "collection_times": "Mo-Fr 14:00; Sa 10:30", "name": "USPS COLLECTION BOX - PO LOBBY", "note": "ON 12/24 AND 12/31, THIS BOX MAY BE COLLECTED AS EARLY AS 12 NOON.", "ref": "3174700001"}, "type": "Feature"}
{"geometry": {"coordinates": [-83.587641408, 31.174756743], "type": "Point"}, "id": "VqvJzvLFus6nRePxXcccKEtkp3s=", "properties": {"@spider": "usps_collection_boxes", "addr:city": "ELLENTON", "addr:country": "US", "addr:full": "158 BAKER ST", "addr:postcode": "31747", "addr:state": "GA", "brand": "USPS", "collection_times": "Mo-Fr 14:00; Sa 10:30", "name": "USPS COLLECTION BOX - PO LOBBY", "note": "ON 12/24 AND 12/31, THIS BOX MAY BE COLLECTED AS EARLY AS 12 NOON.", "ref": "3174700002"}, "type": "Feature"}
{"geometry": {"coordinates": [-83.873008767, 31.199914391], "type": "Point"}, "id": "qTKmbtq5e4GffPqObKAU9Ra-wsU=", "properties": {"@spider": "usps_collection_boxes", "addr:city": "FUNSTON", "addr:country": "US", "addr:full": "126 W MULBERRY ST", "addr:postcode": "31753", "addr:state": "GA", "brand": "USPS", "collection_times": "Mo-Fr 13:00; Sa 10:15", "name": "USPS COLLECTION BOX - BLUE BOX", "note": "ON 12/24 AND 12/31, THIS BOX MAY BE COLLECTED AS EARLY AS 12 NOON.", "ref": "3175300000"}, "type": "Feature"}
{"geometry": {"coordinates": [-83.873008767, 31.199914391], "type": "Point"}, "id": "xCpbp2BQZ4fBK5Sb89Z5EZfwUK8=", "properties": {"@spider": "usps_collection_boxes", "addr:city": "FUNSTON", "addr:country": "US", "addr:full": "126 W MULBERRY ST", "addr:postcode": "31753", "addr:state": "GA", "brand": "USPS", "collection_times": "Mo-Fr 13:00; Sa 10:15", "name": "USPS COLLECTION BOX - PO LOBBY", "note": "ON 12/24 AND 12/31, THIS BOX MAY BE COLLECTED AS EARLY AS 12 NOON.", "ref": "3175300001"}, "type": "Feature"}
{"geometry": {"coordinates": [-83.873008767, 31.199914391], "type": "Point"}, "id": "Wj_PWZ_pTLznJ6NepunaaSzTynw=", "properties": {"@spider": "usps_collection_boxes", "addr:city": "FUNSTON", "addr:country": "US", "addr:full": "126 W MULBERRY ST", "addr:postcode": "31753", "addr:state": "GA", "brand": "USPS", "collection_times": "Mo-Fr 13:00; Sa 10:15", "name": "USPS COLLECTION BOX - PO LOBBY", "note": "ON 12/24 AND 12/31, THIS BOX MAY BE COLLECTED AS EARLY AS 12 NOON.", "ref": "3175300002"}, "type": "Feature"}
{"geometry": {"coordinates": [-83.977001803, 31.216824197], "type": "Point"}, "id": "fJLO8_9htDKV7MTQ0zipYA4MNp0=", "properties": {"@spider": "usps_collection_boxes", "addr:city": "HARTSFIELD", "addr:country": "US", "addr:full": "7226 GA HIGHWAY 37 W", "addr:postcode": "31756", "addr:state": "GA", "brand": "USPS", "collection_times": "Mo-Fr 16:15; Sa 10:15", "name": "USPS COLLECTION BOX - BLUE BOX", "note": "ON 12/24 AND 12/31, THIS BOX MAY BE COLLECTED AS EARLY AS 12 NOON.", "ref": "3175600001"}, "type": "Feature"}
{"geometry": {"coordinates": [-83.977001803, 31.216824197], "type": "Point"}, "id": "x4EFvyOvYNFmDy3NJeoTEVsrklg=", "properties": {"@spider": "usps_collection_boxes", "addr:city": "HARTSFIELD", "addr:country": "US", "addr:full": "7226 GA HIGHWAY 37 W", "addr:postcode": "31756", "addr:state": "GA", "brand": "USPS", "collection_times": "Mo-Fr 16:15; Sa 10:15", "name": "USPS COLLECTION BOX - PO LOBBY", "note": "ON 12/24 AND 12/31, THIS BOX MAY BE COLLECTED AS EARLY AS 12 NOON.", "ref": "3175600002"}, "type": "Feature"}
{"geometry": {"coordinates": [-83.977001803, 31.216824197], "type": "Point"}, "id": "vXxHUOUJKkLHrN0tMfCLSnwJbRI=", "properties": {"@spider": "usps_collection_boxes", "addr:city": "HARTSFIELD", "addr:country": "US", "addr:full": "7226 GA HIGHWAY 37 W", "addr:postcode": "31756", "addr:state": "GA", "brand": "USPS", "collection_times": "Mo-Fr 16:15; Sa 10:15", "name": "USPS COLLECTION BOX - PO LOBBY", "note": "ON 12/24 AND 12/31, THIS BOX MAY BE COLLECTED AS EARLY AS 12 NOON.", "ref": "3175600004"}, "type": "Feature"}
{"geometry": {"coordinates": [-83.943104394, 30.841658893], "type": "Point"}, "id": "dcT6sMqK5h5QywjmT4I3cNy3BXg=", "properties": {"@spider": "usps_collection_boxes", "addr:city": "THOMASVILLE", "addr:country": "US", "addr:full": "15 LIBERTY ST", "addr:postcode": "31757", "addr:state": "GA", "brand": "USPS", "collection_times": "Mo-Fr 16:30; Sa 10:00", "name": "USPS COLLECTION BOX - PO LOBBY", "note": "ON 12/24 AND 12/31, THIS BOX MAY BE COLLECTED AS EARLY AS 12 NOON.", "ref": "3175700007"}, "type": "Feature"}
{"geometry": {"coordinates": [-83.943104394, 30.841658893], "type": "Point"}, "id": "7b9mV3kUOYJ-CHxkDqTbqdQfL_A=", "properties": {"@spider": "usps_collection_boxes", "addr:city": "THOMASVILLE", "addr:country": "US", "addr:full": "15 LIBERTY ST", "addr:postcode": "31757", "addr:state": "GA", "brand": "USPS", "collection_times": "Mo-Fr 16:30; Sa 10:00", "name": "USPS COLLECTION BOX - BLUE BOX", "note": "ON 12/24 AND 12/31, THIS BOX MAY BE COLLECTED AS EARLY AS 12 NOON.", "ref": "3175700008"}, "type": "Feature"}
{"geometry": {"coordinates": [-83.947473173, 30.859030104], "type": "Point"}, "id": "J5jGkskKrQBVAy_wvqhcGm6WwLo=", "properties": {"@spider": "usps_collection_boxes", "addr:city": "THOMASVILLE", "addr:country": "US", "addr:full": "15328 US HIGHWAY 19 S", "addr:postcode": "31757", "addr:state": "GA", "brand": "USPS", "collection_times": "Mo-Fr 16:00", "name": "USPS COLLECTION BOX - BLUE BOX", "note": "ON 12/24 AND 12/31, THIS BOX MAY BE COLLECTED AS EARLY AS 12 NOON.", "ref": "3175700011"}, "type": "Feature"}
{"geometry": {"coordinates": [-83.943104394, 30.841658893], "type": "Point"}, "id": "1p__YSe5YKcWBN0cq2-OFAbLe6E=", "properties": {"@spider": "usps_collection_boxes", "addr:city": "THOMASVILLE", "addr:country": "US", "addr:full": "15 LIBERTY ST", "addr:postcode": "31757", "addr:state": "GA", "brand": "USPS", "collection_times": "Mo-Fr 16:30; Sa 10:00", "name": "USPS COLLECTION BOX - PO LOBBY", "note": "ON 12/24 AND 12/31, THIS BOX MAY BE COLLECTED AS EARLY AS 12 NOON.", "ref": "3175700013"}, "type": "Feature"}
{"geometry": {"coordinates": [-84.176722552, 31.631705255], "type": "Point"}, "id": "X0RfJzDYMU5HS48Z1RPuS-sZxPI=", "properties": {"@spider": "usps_collection_boxes", "addr:city": "LEESBURG", "addr:country": "US", "addr:full": "1553 US HIGHWAY 19 S", "addr:postcode": "31763", "addr:state": "GA", "brand": "USPS", "collection_times": "Mo-Sa 12:30", "name": "USPS COLLECTION BOX - BLUE BOX", "note": "ON 12/24 AND 12/31, THIS BOX MAY BE COLLECTED AS EARLY AS 12 NOON.", "ref": "3176300010"}, "type": "Feature"}
{"geometry": {"coordinates": [-84.089985254, 31.072293018], "type": "Point"}, "id": "Yvhiw-mkdoHS6MjUB6KCwWnR_CI=", "properties": {"@spider": "usps_collection_boxes", "addr:city": "MEIGS", "addr:country": "US", "addr:full": "2010 E DEPOT ST", "addr:postcode": "31765", "addr:state": "GA", "brand": "USPS", "collection_times": "Mo-Fr 15:00; Sa 10:30", "name": "USPS COLLECTION BOX - BLUE BOX", "note": "ON 12/24 AND 12/31, THIS BOX MAY BE COLLECTED AS EARLY AS 12 NOON.", "ref": "3176500000"}, "type": "Feature"}
{"geometry": {"coordinates": [-84.089985254, 31.072293018], "type": "Point"}, "id": "Z6jfLq5E6zZcV-ilYp1j6PPxe7Y=", "properties": {"@spider": "usps_collection_boxes", "addr:city": "MEIGS", "addr:country": "US", "addr:full": "2010 E DEPOT ST", "addr:postcode": "31765", "addr:state": "GA", "brand": "USPS", "collection_times": "Mo-Fr 15:00; Sa 10:30", "name": "USPS COLLECTION BOX - PO LOBBY", "note": "ON 12/24 AND 12/31, THIS BOX MAY BE COLLECTED AS EARLY AS 12 NOON.", "ref": "3176500001"}, "type": "Feature"}
{"geometry": {"coordinates": [-84.089985254, 31.072293018], "type": "Point"}, "id": "k7nkU47zN7VPbt_JjBpW8Cd7hak=", "properties": {"@spider": "usps_collection_boxes", "addr:city": "MEIGS", "addr:country": "US", "addr:full": "2010 E DEPOT ST", "addr:postcode": "31765", "addr:state": "GA", "brand": "USPS", "collection_times": "Mo-Fr 15:00; Sa 10:30", "name": "USPS COLLECTION BOX - PO LOBBY", "note": "ON 12/24 AND 12/31, THIS BOX MAY BE COLLECTED AS EARLY AS 12 NOON.", "ref": "3176500003"}, "type": "Feature"}
{"geometry": {"coordinates": [-83.782975582, 31.177277413], "type": "Point"}, "id": "3Pp9PVqn9uSZgZBM6i9geXJES9U=", "properties": {"@spider": "usps_collection_boxes", "addr:city": "MOULTRIE", "addr:country": "US", "addr:full": "204 5TH ST SE", "addr:postcode": "31768", "addr:state": "GA", "brand": "USPS", "collection_times": "Mo-Fr 16:45; Sa 10:00", "name": "USPS COLLECTION BOX - BLUE BOX", "note": "ON 12/24 AND 12/31, THIS BOX MAY BE COLLECTED AS EARLY AS 12 NOON.", "ref": "3176800003"}, "type": "Feature"}
{"geometry": {"coordinates": [-83.789031838, 31.161554277], "type": "Point"}, "id": "JFR0SFu3G5kP_EwHQ-MX-QfEQjI=", "properties": {"@spider": "usps_collection_boxes", "addr:city": "MOULTRIE", "addr:country": "US", "addr:full": "1401 S MAIN ST", "addr:postcode": "31768", "addr:state": "GA", "brand": "USPS", "collection_times": "Mo-Fr 17:00; Sa 10:00", "name": "USPS COLLECTION BOX - BLUE BOX", "note": "ON 12/24 AND 12/31, THIS BOX MAY BE COLLECTED AS EARLY AS 12 NOON.", "ref": "3176800015"}, "type": "Feature"}
{"geometry": {"coordinates": [-83.786894528, 31.179944501], "type": "Point"}, "id": "S1g6oz5ALLvxUSarjFX-ovqEQJI=", "properties": {"@spider": "usps_collection_boxes", "addr:city": "MOULTRIE", "addr:country": "US", "addr:full": "101 E CENTRAL AVE", "addr:postcode": "31768", "addr:state": "GA", "brand": "USPS", "collection_times": "Mo-Fr 17:00; Sa 09:30", "name": "USPS COLLECTION BOX - BLUE BOX", "note": "ON 12/24 AND 12/31, THIS BOX MAY BE COLLECTED AS EARLY AS 12 NOON.", "ref": "3176800018"}, "type": "Feature"}
{"geometry": {"coordinates": [-83.789874, 31.178975489], "type": "Point"}, "id": "6OfRk6c9JXsPnfI5gIQBhZiAyck=", "properties": {"@spider": "usps_collection_boxes", "addr:city": "MOULTRIE", "addr:country": "US", "addr:full": "28 1ST AVE SW", "addr:postcode": "31768", "addr:state": "GA", "brand": "USPS", "collection_times": "Mo-Fr 17:00; Sa 10:00", "name": "USPS COLLECTION BOX - BLUE BOX", "note": "ON 12/24 AND 12/31, THIS BOX MAY BE COLLECTED AS EARLY AS 12 NOON.", "ref": "3176800021"}, "type": "Feature"}
{"geometry": {"coordinates": [-83.788895114, 31.178034251], "type": "Point"}, "id": "c7rH083VGb3xkXnCZ52BsP5-TDk=", "properties": {"@spider": "usps_collection_boxes", "addr:city": "MOULTRIE", "addr:country": "US", "addr:full": "132 S MAIN ST", "addr:postcode": "31768", "addr:state": "GA", "brand": "USPS", "collection_times": "Mo-Fr 17:00; Sa 10:00", "name": "USPS COLLECTION BOX - BLUE BOX", "note": "ON 12/24 AND 12/31, THIS BOX MAY BE COLLECTED AS EARLY AS 12 NOON.", "ref": "3176800023"}, "type": "Feature"}
{"geometry": {"coordinates": [-83.788862597, 31.181166251], "type": "Point"}, "id": "mdG3WfrKHnJZeJl4kCLThVgPg2w=", "properties": {"@spider": "usps_collection_boxes", "addr:city": "MOULTRIE", "addr:country": "US", "addr:full": "101 N MAIN ST", "addr:postcode": "31768", "addr:state": "GA", "brand": "USPS", "collection_times": "Mo-Fr 17:00; Sa 10:00", "name": "USPS COLLECTION BOX - BLUE BOX", "note": "ON 12/24 AND 12/31, THIS BOX MAY BE COLLECTED AS EARLY AS 12 NOON.", "ref": "3176800028"}, "type": "Feature"}
{"geometry": {"coordinates": [-83.788890907, 31.172291497], "type": "Point"}, "id": "uluflGGN4A_yj_5hv-K9MXsZOlQ=", "properties": {"@spider": "usps_collection_boxes", "addr:city": "MOULTRIE", "addr:country": "US", "addr:full": "711 S MAIN ST", "addr:postcode": "31768", "addr:state": "GA", "brand": "USPS", "collection_times": "Mo-Fr 17:00; Sa 09:30", "name": "USPS COLLECTION BOX - BLUE BOX", "note": "ON 12/24 AND 12/31, THIS BOX MAY BE COLLECTED AS EARLY AS 12 NOON.", "ref": "3176800030"}, "type": "Feature"}
{"geometry": {"coordinates": [-83.783668385, 31.138966218], "type": "Point"}, "id": "DaPPWrQIivIdoS02QuiArZe3GEo=", "properties": {"@spider": "usps_collection_boxes", "addr:city": "MOULTRIE", "addr:country": "US", "addr:full": "2439 S MAIN ST", "addr:postcode": "31768", "addr:state": "GA", "brand": "USPS", "collection_times": "Mo-Fr 17:00; Sa 10:00", "name": "USPS COLLECTION BOX - BLUE BOX", "note": "ON 12/24 AND 12/31, THIS BOX MAY BE COLLECTED AS EARLY AS 12 NOON.", "ref": "3176800031"}, "type": "Feature"}
{"geometry": {"coordinates": [-83.783668385, 31.138966218], "type": "Point"}, "id": "9d9ZA8lHI0J6x2i4hFwPQbdK6ao=", "properties": {"@spider": "usps_collection_boxes", "addr:city": "MOULTRIE", "addr:country": "US", "addr:full": "2439 S MAIN ST", "addr:postcode": "31768", "addr:state": "GA", "brand": "USPS", "collection_times": "Mo-Fr 17:00; Sa 10:00", "name": "USPS COLLECTION BOX - BLUE BOX", "note": "ON 12/24 AND 12/31, THIS BOX MAY BE COLLECTED AS EARLY AS 12 NOON.", "ref": "3176800033"}, "type": "Feature"}
{"geometry": {"coordinates": [-83.765513207, 31.177545805], "type": "Point"}, "id": "hx_nEmydQdwxJpMlxKN7myDsoaA=", "properties": {"@spider": "usps_collection_boxes", "addr:city": "MOULTRIE", "addr:country": "US", "addr:full": "1707 1ST AVE SE", "addr:postcode": "31768", "addr:state": "GA", "brand": "USPS", "collection_times": "Mo-Fr 16:45; Sa 10:00", "name": "USPS COLLECTION BOX - BLUE BOX", "note": "ON 12/24 AND 12/31, THIS BOX MAY BE COLLECTED AS EARLY AS 12 NOON.", "ref": "3176800037"}, "type": "Feature"}
{"geometry": {"coordinates": [-83.788878462, 31.182156343], "type": "Point"}, "id": "X4MQvcprOG1NLbStuy-WVY-1Txg=", "properties": {"@spider": "usps_collection_boxes", "addr:city": "MOULTRIE", "addr:country": "US", "addr:full": "215 N MAIN ST", "addr:postcode": "31768", "addr:state": "GA", "brand": "USPS", "collection_times": "Mo-Fr 17:45; Sa 15:45", "name": "USPS COLLECTION BOX - PO LOBBY", "note": "ON 12/24 AND 12/31, THIS BOX MAY BE COLLECTED AS EARLY AS 12 NOON.", "ref": "3176800045"}, "type": "Feature"}
{"geometry": {"coordinates": [-83.788878462, 31.182156343], "type": "Point"}, "id": "JFOgSat5HvHlvSpzAHtdO88JiTA=", "properties": {"@spider": "usps_collection_boxes", "addr:city": "MOULTRIE", "addr:country": "US", "addr:full": "215 N MAIN ST", "addr:postcode": "31768", "addr:state": "GA", "brand": "USPS", "collection_times": "Mo-Fr 17:30; Sa 16:00", "name": "USPS COLLECTION BOX - BLUE BOX", "note": "ON 12/24 AND 12/31, THIS BOX MAY BE COLLECTED AS EARLY AS 12 NOON.", "ref": "3176800049"}, "type": "Feature"}
{"geometry": {"coordinates": [-83.762857504, 31.173554374], "type": "Point"}, "id": "BL3JjlYBIaBJOVHFCOuxJAnSx7Y=", "properties": {"@spider": "usps_collection_boxes", "addr:city": "MOULTRIE", "addr:country": "US", "addr:full": "410 LANE ST", "addr:postcode": "31768", "addr:state": "GA", "brand": "USPS", "collection_times": "Mo-Fr 16:30; Sa 10:00", "name": "USPS COLLECTION BOX - BLUE BOX", "note": "ON 12/24 AND 12/31, THIS BOX MAY BE COLLECTED AS EARLY AS 12 NOON.", "ref": "3176800055"}, "type": "Feature"}
{"geometry": {"coordinates": [-83.788878462, 31.182156343], "type": "Point"}, "id": "voT20wwjtgF0KMBGyOBd1H9iwDk=", "properties": {"@spider": "usps_collection_boxes", "addr:city": "MOULTRIE", "addr:country": "US", "addr:full": "215 N MAIN ST", "addr:postcode": "31768", "addr:state": "GA", "brand": "USPS", "collection_times": "Mo-Fr 17:45; Sa 15:45", "name": "USPS COLLECTION BOX - PO LOBBY", "note": "ON 12/24 AND 12/31, THIS BOX MAY BE COLLECTED AS EARLY AS 12 NOON.", "ref": "3176800058"}, "type": "Feature"}
{"geometry": {"coordinates": [-83.685994089, 31.270059564], "type": "Point"}, "id": "SDIVmp-rNgOaZAwAO7uKZId-BCc=", "properties": {"@spider": "usps_collection_boxes", "addr:city": "NORMAN PARK", "addr:country": "US", "addr:full": "113 E BROAD", "addr:postcode": "31771", "addr:state": "GA", "brand": "USPS", "collection_times": "Mo-Fr 16:30; Sa 11:30", "name": "USPS COLLECTION BOX - BLUE BOX", "note": "ON 12/24 AND 12/31, THIS BOX MAY BE COLLECTED AS EARLY AS 12 NOON.", "ref": "3177100000"}, "type": "Feature"}
{"geometry": {"coordinates": [-83.685994089, 31.270059564], "type": "Point"}, "id": "I2SuXvCtP6Q7ugJaF0lN9QLx3Fw=", "properties": {"@spider": "usps_collection_boxes", "addr:city": "NORMAN PARK", "addr:country": "US", "addr:full": "113 E BROAD", "addr:postcode": "31771", "addr:state": "GA", "brand": "USPS", "collection_times": "Mo-Fr 16:30; Sa 11:30", "name": "USPS COLLECTION BOX - PO LOBBY", "note": "ON 12/24 AND 12/31, THIS BOX MAY BE COLLECTED AS EARLY AS 12 NOON.", "ref": "3177100001"}, "type": "Feature"}
{"geometry": {"coordinates": [-83.685994089, 31.270059564], "type": "Point"}, "id": "hX0dvJStug5dSQ-zkSPaKVws6Wk=", "properties": {"@spider": "usps_collection_boxes", "addr:city": "NORMAN PARK", "addr:country": "US", "addr:full": "113 E BROAD", "addr:postcode": "31771", "addr:state": "GA", "brand": "USPS", "collection_times": "Mo-Fr 16:30; Sa 11:30", "name": "USPS COLLECTION BOX - PO LOBBY", "note": "ON 12/24 AND 12/31, THIS BOX MAY BE COLLECTED AS EARLY AS 12 NOON.", "ref": "3177100004"}, "type": "Feature"}
{"geometry": {"coordinates": [-84.055665337, 30.974626543], "type": "Point"}, "id": "Dfixo8vO56uLC-hBuKEp1JlkVoY=", "properties": {"@spider": "usps_collection_boxes", "addr:city": "OCHLOCKNEE", "addr:country": "US", "addr:full": "2065 SPENCE ST", "addr:postcode": "31773", "addr:state": "GA", "brand": "USPS", "collection_times": "Mo-Fr 16:30; Sa 10:30", "name": "USPS COLLECTION BOX - BLUE BOX", "note": "ON 12/24 AND 12/31, THIS BOX MAY BE COLLECTED AS EARLY AS 12 NOON.", "ref": "3177300000"}, "type": "Feature"}
{"geometry": {"coordinates": [-84.055665337, 30.974626543], "type": "Point"}, "id": "oi8vGqqe1a2-UU--wbeyRuLhRxw=", "properties": {"@spider": "usps_collection_boxes", "addr:city": "OCHLOCKNEE", "addr:country": "US", "addr:full": "2065 SPENCE ST", "addr:postcode": "31773", "addr:state": "GA", "brand": "USPS", "collection_times": "Mo-Fr 16:30; Sa 10:30", "name": "USPS COLLECTION BOX - PO LOBBY", "note": "ON 12/24 AND 12/31, THIS BOX MAY BE COLLECTED AS EARLY AS 12 NOON.", "ref": "3177300001"}, "type": "Feature"}
{"geometry": {"coordinates": [-84.055665337, 30.974626543], "type": "Point"}, "id": "YpQCCt8fXcOLyCf0wSpKhu4EAjY=", "properties": {"@spider": "usps_collection_boxes", "addr:city": "OCHLOCKNEE", "addr:country": "US", "addr:full": "2065 SPENCE ST", "addr:postcode": "31773", "addr:state": "GA", "brand": "USPS", "collection_times": "Mo-Fr 16:30; Sa 10:30", "name": "USPS COLLECTION BOX - PO LOBBY", "note": "ON 12/24 AND 12/31, THIS BOX MAY BE COLLECTED AS EARLY AS 12 NOON.", "ref": "3177300003"}, "type": "Feature"}
{"geometry": {"coordinates": [-83.740184178, 30.959871477], "type": "Point"}, "id": "rwxqQJ7bi1IznY-hkG_BPC3UsRo=", "properties": {"@spider": "usps_collection_boxes", "addr:city": "PAVO", "addr:country": "US", "addr:full": "2028 E HARRIS ST", "addr:postcode": "31778", "addr:state": "GA", "brand": "USPS", "collection_times": "Mo-Fr 16:30; Sa 10:45", "name": "USPS COLLECTION BOX - BLUE BOX", "note": "ON 12/24 AND 12/31, THIS BOX MAY BE COLLECTED AS EARLY AS 12 NOON.", "ref": "3177800000"}, "type": "Feature"}
{"geometry": {"coordinates": [-83.740184178, 30.959871477], "type": "Point"}, "id": "wPOsy7eezaXoj25eWS6Ox2-8fH4=", "properties": {"@spider": "usps_collection_boxes", "addr:city": "PAVO", "addr:country": "US", "addr:full": "2028 E HARRIS ST", "addr:postcode": "31778", "addr:state": "GA", "brand": "USPS", "collection_times": "Mo-Fr 16:15; Sa 10:45", "name": "USPS COLLECTION BOX - PO LOBBY", "note": "ON 12/24 AND 12/31, THIS BOX MAY BE COLLECTED AS EARLY AS 12 NOON.", "ref": "3177800001"}, "type": "Feature"}
{"geometry": {"coordinates": [-83.740184178, 30.959871477], "type": "Point"}, "id": "4tyW9KexfDU7T1IyO8yOqRePAbo=", "properties": {"@spider": "usps_collection_boxes", "addr:city": "PAVO", "addr:country": "US", "addr:full": "2028 E HARRIS ST", "addr:postcode": "31778", "addr:state": "GA", "brand": "USPS", "collection_times": "Mo-Fr 16:15; Sa 10:45", "name": "USPS COLLECTION BOX - PO LOBBY", "note": "ON 12/24 AND 12/31, THIS BOX MAY BE COLLECTED AS EARLY AS 12 NOON.", "ref": "3177800003"}, "type": "Feature"}
{"geometry": {"coordinates": [-84.155161568, 31.125981014], "type": "Point"}, "id": "TxAsCXtB8cXxGwvrYC41KqzPmCw=", "properties": {"@spider": "usps_collection_boxes", "addr:city": "PELHAM", "addr:country": "US", "addr:full": "100 PRIMITIVE AVE SW", "addr:postcode": "31779", "addr:state": "GA", "brand": "USPS", "collection_times": "Mo-Fr 17:00; Sa 14:00", "name": "USPS COLLECTION BOX - BLUE BOX", "note": "ON 12/24 AND 12/31, THIS BOX MAY BE COLLECTED AS EARLY AS 12 NOON.", "ref": "3177900000"}, "type": "Feature"}
{"geometry": {"coordinates": [-84.15427321, 31.125421742], "type": "Point"}, "id": "UG_yda_sufqPK9a_A6dt8QxO1_0=", "properties": {"@spider": "usps_collection_boxes", "addr:city": "PELHAM", "addr:country": "US", "addr:full": "160 MATHEWSON AVE SW", "addr:postcode": "31779", "addr:state": "GA", "brand": "USPS", "collection_times": "Mo-Fr 17:00; Sa 14:00", "name": "USPS COLLECTION BOX - PO LOBBY", "note": "ON 12/24 AND 12/31, THIS BOX MAY BE COLLECTED AS EARLY AS 12 NOON.", "ref": "3177900008"}, "type": "Feature"}
{"geometry": {"coordinates": [-84.15427321, 31.125421742], "type": "Point"}, "id": "kbEiimUyi227MHBl0ZCyUqIsDp8=", "properties": {"@spider": "usps_collection_boxes", "addr:city": "PELHAM", "addr:country": "US", "addr:full": "160 MATHEWSON AVE SW", "addr:postcode": "31779", "addr:state": "GA", "brand": "USPS", "collection_times": "Mo-Fr 17:00; Sa 14:00", "name": "USPS COLLECTION BOX - PO LOBBY", "note": "ON 12/24 AND 12/31, THIS BOX MAY BE COLLECTED AS EARLY AS 12 NOON.", "ref": "3177900012"}, "type": "Feature"}
{"geometry": {"coordinates": [-84.12933704, 31.47855854], "type": "Point"}, "id": "tgThwIynCfBmOxR4q6oJwQFu2Us=", "properties": {"@spider": "usps_collection_boxes", "addr:city": "PUTNEY", "addr:country": "US", "addr:full": "4314 RADIUM SPRINGS RD", "addr:postcode": "31782", "addr:state": "GA", "brand": "USPS", "collection_times": "Mo-Fr 16:45; Sa 10:45", "name": "USPS COLLECTION BOX - BLUE BOX", "note": "ON 12/24 AND 12/31, THIS BOX MAY BE COLLECTED AS EARLY AS 12 NOON.", "ref": "3178200000"}, "type": "Feature"}
{"geometry": {"coordinates": [-84.12933704, 31.47855854], "type": "Point"}, "id": "W4FcxN49kCxiTmWRz8Fg15_BJMw=", "properties": {"@spider": "usps_collection_boxes", "addr:city": "PUTNEY", "addr:country": "US", "addr:full": "4314 RADIUM SPRINGS RD", "addr:postcode": "31782", "addr:state": "GA", "brand": "USPS", "collection_times": "Mo-Fr 16:45; Sa 11:00", "name": "USPS COLLECTION BOX - PO LOBBY", "note": "ON 12/24 AND 12/31, THIS BOX MAY BE COLLECTED AS EARLY AS 12 NOON.", "ref": "3178200001"}, "type": "Feature"}
{"geometry": {"coordinates": [-84.12933704, 31.47855854], "type": "Point"}, "id": "rFbUxlixFRjrVUadTdlRG0KJAK0=", "properties": {"@spider": "usps_collection_boxes", "addr:city": "PUTNEY", "addr:country": "US", "addr:full": "4314 RADIUM SPRINGS RD", "addr:postcode": "31782", "addr:state": "GA", "brand": "USPS", "collection_times": "Mo-Fr 16:45; Sa 11:00", "name": "USPS COLLECTION BOX - PO LOBBY", "note": "ON 12/24 AND 12/31, THIS BOX MAY BE COLLECTED AS EARLY AS 12 NOON.", "ref": "3178200002"}, "type": "Feature"}
{"geometry": {"coordinates": [-84.021551338, 31.260356528], "type": "Point"}, "id": "bOuzAWukmoF6_lComP2Tzu0EP5k=", "properties": {"@spider": "usps_collection_boxes", "addr:city": "SALE CITY", "addr:country": "US", "addr:full": "166 S BARNES ST", "addr:postcode": "31784", "addr:state": "GA", "brand": "USPS", "collection_times": "Mo-Fr 12:00; Sa 10:30", "name": "USPS COLLECTION BOX - BLUE BOX", "ref": "3178400000"}, "type": "Feature"}
{"geometry": {"coordinates": [-84.021551338, 31.260356528], "type": "Point"}, "id": "vrKwkSg971p22CX_N5Stk0FokoU=", "properties": {"@spider": "usps_collection_boxes", "addr:city": "SALE CITY", "addr:country": "US", "addr:full": "166 S BARNES ST", "addr:postcode": "31784", "addr:state": "GA", "brand": "USPS", "collection_times": "Mo-Fr 12:00; Sa 10:30", "name": "USPS COLLECTION BOX - PO LOBBY", "ref": "3178400001"}, "type": "Feature"}
{"geometry": {"coordinates": [-84.021551338, 31.260356528], "type": "Point"}, "id": "1UHK4FP08SWnLkXZeRXlNTOJyU4=", "properties": {"@spider": "usps_collection_boxes", "addr:city": "SALE CITY", "addr:country": "US", "addr:full": "166 S BARNES ST", "addr:postcode": "31784", "addr:state": "GA", "brand": "USPS", "collection_times": "Mo-Fr 12:00; Sa 10:30", "name": "USPS COLLECTION BOX - PO LOBBY", "ref": "3178400002"}, "type": "Feature"}
{"geometry": {"coordinates": [-83.761435038, 31.170459039], "type": "Point"}, "id": "a6ou8gg4eXkw5DjT_EdzGISdR_M=", "properties": {"@spider": "usps_collection_boxes", "addr:city": "MOULTRIE", "addr:country": "US", "addr:full": "631 VETERANS PKWY S", "addr:postcode": "31788", "addr:state": "GA", "brand": "USPS", "collection_times": "Mo-Fr 16:30; Sa 09:00", "name": "USPS COLLECTION BOX - BLUE BOX", "note": "ON 12/24 AND 12/31, THIS BOX MAY BE COLLECTED AS EARLY AS 12 NOON.", "ref": "3178800001"}, "type": "Feature"}
{"geometry": {"coordinates": [-83.947640411, 30.846535512], "type": "Point"}, "id": "lYaVmIDY9qw7MOXsZGBLFH4Z6ZU=", "properties": {"@spider": "usps_collection_boxes", "addr:city": "THOMASVILLE", "addr:country": "US", "addr:full": "2243 E PINETREE BLVD", "addr:postcode": "31792", "addr:state": "GA", "brand": "USPS", "collection_times": "Mo-Fr 16:00; Sa 10:45", "name": "USPS COLLECTION BOX - BLUE BOX", "note": "ON 12/24 AND 12/31, THIS BOX MAY BE COLLECTED AS EARLY AS 12 NOON.", "ref": "3179200000"}, "type": "Feature"}
{"geometry": {"coordinates": [-83.9753636, 30.829598873], "type": "Point"}, "id": "-sp2duUZ3Q0Fvt5_EuW9Wj_wtQo=", "properties": {"@spider": "usps_collection_boxes", "addr:city": "THOMASVILLE", "addr:country": "US", "addr:full": "501 GORDON AVE", "addr:postcode": "31792", "addr:state": "GA", "brand": "USPS", "collection_times": "Mo-Fr 15:45", "name": "USPS COLLECTION BOX - BLUE BOX", "note": "ON 12/24 AND 12/31, THIS BOX MAY BE COLLECTED AS EARLY AS 12 NOON.", "ref": "3179200010"}, "type": "Feature"}
{"geometry": {"coordinates": [-83.971272412, 30.827762584], "type": "Point"}, "id": "epJI8__20t5sFJP9SknPtZ8AbyI=", "properties": {"@spider": "usps_collection_boxes", "addr:city": "THOMASVILLE", "addr:country": "US", "addr:full": "918 S BROAD ST", "addr:postcode": "31792", "addr:state": "GA", "brand": "USPS", "collection_times": "Mo-Fr 15:45", "name": "USPS COLLECTION BOX - BLUE BOX", "note": "ON 12/24 AND 12/31, THIS BOX MAY BE COLLECTED AS EARLY AS 12 NOON.", "ref": "3179200012"}, "type": "Feature"}
{"geometry": {"coordinates": [-83.946475339, 30.856202003], "type": "Point"}, "id": "BZ2JA_lwUs4BOir7LZamdl83M9Y=", "properties": {"@spider": "usps_collection_boxes", "addr:city": "THOMASVILLE", "addr:country": "US", "addr:full": "15125 US HIGHWAY 19 S", "addr:postcode": "31792", "addr:state": "GA", "brand": "USPS", "collection_times": "Mo-Fr 16:00; Sa 10:45", "name": "USPS COLLECTION BOX - BLUE BOX", "note": "ON 12/24 AND 12/31, THIS BOX MAY BE COLLECTED AS EARLY AS 12 NOON.", "ref": "3179200017"}, "type": "Feature"}
{"geometry": {"coordinates": [-83.980145069, 30.837431791], "type": "Point"}, "id": "9mqpGsVgZpDQ_BCuet8j1eCHemE=", "properties": {"@spider": "usps_collection_boxes", "addr:city": "THOMASVILLE", "addr:country": "US", "addr:full": "100 E JACKSON ST", "addr:postcode": "31792", "addr:state": "GA", "brand": "USPS", "collection_times": "Mo-Fr 15:45", "name": "USPS COLLECTION BOX - BLUE BOX", "note": "ON 12/24 AND 12/31, THIS BOX MAY BE COLLECTED AS EARLY AS 12 NOON.", "ref": "3179200020"}, "type": "Feature"}
{"geometry": {"coordinates": [-83.97631214, 30.837976511], "type": "Point"}, "id": "IIiNsn6YTlOhAhQp2eBw4jMkz4U=", "properties": {"@spider": "usps_collection_boxes", "addr:city": "THOMASVILLE", "addr:country": "US", "addr:full": "131 S DAWSON ST", "addr:postcode": "31792", "addr:state": "GA", "brand": "USPS", "collection_times": "Mo-Fr 16:15", "name": "USPS COLLECTION BOX - BLUE BOX", "note": "ON 12/24 AND 12/31, THIS BOX MAY BE COLLECTED AS EARLY AS 12 NOON.", "ref": "3179200022"}, "type": "Feature"}
{"geometry": {"coordinates": [-83.980260213, 30.839872147], "type": "Point"}, "id": "NG1O_6PhfZGdfH4Nli5bUfbqTlU=", "properties": {"@spider": "usps_collection_boxes", "addr:city": "THOMASVILLE", "addr:country": "US", "addr:full": "220 N CRAWFORD ST", "addr:postcode": "31792", "addr:state": "GA", "brand": "USPS", "collection_times": "Mo-Fr 16:15", "name": "USPS COLLECTION BOX - BLUE BOX", "note": "ON 12/24 AND 12/31, THIS BOX MAY BE COLLECTED AS EARLY AS 12 NOON.", "ref": "3179200024"}, "type": "Feature"}
{"geometry": {"coordinates": [-83.972721777, 30.835522502], "type": "Point"}, "id": "zSW4VhD1sRSqzZx2xTYnG1NVAtc=", "properties": {"@spider": "usps_collection_boxes", "addr:city": "THOMASVILLE", "addr:country": "US", "addr:full": "438 SMITH AVE", "addr:postcode": "31792", "addr:state": "GA", "brand": "USPS", "collection_times": "Mo-Fr 15:45", "name": "USPS COLLECTION BOX - BLUE BOX", "note": "ON 12/24 AND 12/31, THIS BOX MAY BE COLLECTED AS EARLY AS 12 NOON.", "ref": "3179200032"}, "type": "Feature"}
{"geometry": {"coordinates": [-83.9828579798, 30.8409539847], "type": "Point"}, "id": "E88_fztbp_XnRwcoXmn0PMUMqho=", "properties": {"@spider": "usps_collection_boxes", "addr:city": "THOMASVILLE", "addr:country": "US", "addr:full": "404 N BROAD ST", "addr:postcode": "31792", "addr:state": "GA", "brand": "USPS", "collection_times": "Mo-Fr 17:00; Sa 12:30", "name": "USPS COLLECTION BOX - BLUE BOX", "note": "ON 12/24 AND 12/31, THIS BOX MAY BE COLLECTED AS EARLY AS 12 NOON.", "ref": "3179200035"}, "type": "Feature"}
{"geometry": {"coordinates": [-83.973143916, 30.824163538], "type": "Point"}, "id": "MOkmRwxSNK0u09BMGI3ejyPVxsQ=", "properties": {"@spider": "usps_collection_boxes", "addr:city": "THOMASVILLE", "addr:country": "US", "addr:full": "915 GORDON AVE", "addr:postcode": "31792", "addr:state": "GA", "brand": "USPS", "collection_times": "Mo-Fr 15:45", "name": "USPS COLLECTION BOX - BLUE BOX", "note": "ON 12/24 AND 12/31, THIS BOX MAY BE COLLECTED AS EARLY AS 12 NOON.", "ref": "3179200043"}, "type": "Feature"}
{"geometry": {"coordinates": [-83.955531861, 30.835256546], "type": "Point"}, "id": "vhTPOyfw2a1mMtq29-nNmt6d9Yg=", "properties": {"@spider": "usps_collection_boxes", "addr:city": "THOMASVILLE", "addr:country": "US", "addr:full": "1102 SMITH AVE", "addr:postcode": "31792", "addr:state": "GA", "brand": "USPS", "collection_times": "Mo-Fr 16:00", "name": "USPS COLLECTION BOX - BLUE BOX", "note": "ON 12/24 AND 12/31, THIS BOX MAY BE COLLECTED AS EARLY AS 12 NOON.", "ref": "3179200048"}, "type": "Feature"}
{"geometry": {"coordinates": [-83.983251586, 30.840808702], "type": "Point"}, "id": "RH5V8yOnVw89qQVow_RZ35ulwa4=", "properties": {"@spider": "usps_collection_boxes", "addr:city": "THOMASVILLE", "addr:country": "US", "addr:full": "404 N BROAD ST", "addr:postcode": "31792", "addr:state": "GA", "brand": "USPS", "collection_times": "Mo-Fr 17:00; Sa 12:30", "name": "USPS COLLECTION BOX - PO LOBBY", "note": "ON 12/24 AND 12/31, THIS BOX MAY BE COLLECTED AS EARLY AS 12 NOON.", "ref": "3179200051"}, "type": "Feature"}
{"geometry": {"coordinates": [-83.983251586, 30.840808702], "type": "Point"}, "id": "s27epsORk_ya97QSV34g6DoKi1Q=", "properties": {"@spider": "usps_collection_boxes", "addr:city": "THOMASVILLE", "addr:country": "US", "addr:full": "404 N BROAD ST", "addr:postcode": "31792", "addr:state": "GA", "brand": "USPS", "collection_times": "Mo-Fr 17:00; Sa 14:00", "name": "USPS COLLECTION BOX - PO LOBBY", "note": "ON 12/24 AND 12/31, THIS BOX MAY BE COLLECTED AS EARLY AS 12 NOON.", "ref": "3179200062"}, "type": "Feature"}
