{"geometry": {"coordinates": [-85.185296074, 32.87677828], "type": "Point"}, "id": "Nep0mCA8A3QphBHEWps-we_RnGg=", "properties": {"@spider": "usps_collection_boxes", "addr:city": "WEST POINT", "addr:country": "US", "addr:full": "729 4TH AVE", "addr:postcode": "31833", "addr:state": "GA", "brand": "USPS", "collection_times": "Mo-Fr 16:30; Sa 15:45", "name": "USPS COLLECTION BOX - BLUE BOX", "note": "ON 12/24 AND 12/31, THIS BOX MAY BE COLLECTED AS EARLY AS 12 NOON.", "ref": "3183300001"}, "type": "Feature"}
{"geometry": {"coordinates": [-85.185296074, 32.87677828], "type": "Point"}, "id": "TTHMB6AhoQCpshCUwGfhmJZUdrE=", "properties": {"@spider": "usps_collection_boxes", "addr:city": "WEST POINT", "addr:country": "US", "addr:full": "729 4TH AVE", "addr:postcode": "31833", "addr:state": "GA", "brand": "USPS", "collection_times": "Mo-Fr 16:30; Sa 15:45", "name": "USPS COLLECTION BOX - PO LOBBY", "note": "ON 12/24 AND 12/31, THIS BOX MAY BE COLLECTED AS EARLY AS 12 NOON.", "ref": "3183300003"}, "type": "Feature"}
{"geometry": {"coordinates": [-85.185296074, 32.87677828], "type": "Point"}, "id": "OkHTSUSRvhZ3b3BJfWU5PszEKGg=", "properties": {"@spider": "usps_collection_boxes", "addr:city": "WEST POINT", "addr:country": "US", "addr:full": "729 4TH AVE", "addr:postcode": "31833", "addr:state": "GA", "brand": "USPS", "collection_times": "Mo-Fr 16:30; Sa 15:45", "name": "USPS COLLECTION BOX - PO LOBBY", "note": "ON 12/24 AND 12/31, THIS BOX MAY BE COLLECTED AS EARLY AS 12 NOON.", "ref": "3183300009"}, "type": "Feature"}
