{"geometry": {"coordinates": [-84.990810358, 32.468605473], "type": "Point"}, "id": "aMes0J_nKISdeadmRGlFdiQNJNE=", "properties": {"@source_uri": "https://tools.usps.com/UspsToolsRestServices/rest/POLocator/findLocations", "@spider": "usps_collection_boxes", "addr:city": "COLUMBUS", "addr:country": "US", "addr:postcode": "31901", "addr:state": "GA", "addr:street_address": "120 12TH ST", "amenity": "post_box", "collection_times": "Mo-Fr 17:00", "indoor": "yes", "note": "ON 12/24 AND 12/31, THIS BOX MAY BE COLLECTED AS EARLY AS 12 NOON.", "nsi_id": "unitedstatespostalservice-a77078", "operator": "United States Postal Service", "operator:short": "USPS", "operator:type": "public", "operator:wikidata": "Q668687", "ref": "3190100000"}, "type": "Feature"}
{"geometry": {"coordinates": [-84.994571404, 32.462298472], "type": "Point"}, "id": "zWUbRQ8Vln2ptJReen2CEXBeqjg=", "properties": {"@source_uri": "https://tools.usps.com/UspsToolsRestServices/rest/POLocator/findLocations", "@spider": "usps_collection_boxes", "addr:city": "COLUMBUS", "addr:country": "US", "addr:postcode": "31901", "addr:state": "GA", "addr:street_address": "800 FRONT AVE", "amenity": "post_box", "collection_times": "Mo-Sa 12:00", "nsi_id": "unitedstatespostalservice-a77078", "operator": "United States Postal Service", "operator:short": "USPS", "operator:type": "public", "operator:wikidata": "Q668687", "ref": "3190100020"}, "type": "Feature"}
{"geometry": {"coordinates": [-84.980042133, 32.482283962], "type": "Point"}, "id": "Udc8EjdTMsgMUu4v1ZcEe0pOsrE=", "properties": {"@source_uri": "https://tools.usps.com/UspsToolsRestServices/rest/POLocator/findLocations", "@spider": "usps_collection_boxes", "addr:city": "COLUMBUS", "addr:country": "US", "addr:postcode": "31901", "addr:state": "GA", "addr:street_address": "710 CENTER ST", "amenity": "post_box", "collection_times": "Mo-Sa 10:00", "nsi_id": "unitedstatespostalservice-a77078", "operator": "United States Postal Service", "operator:short": "USPS", "operator:type": "public", "operator:wikidata": "Q668687", "ref": "3190100023"}, "type": "Feature"}
{"geometry": {"coordinates": [-84.98902, 32.463855], "type": "Point"}, "id": "V-hztG4tkJo66uyqfurSQVa2u0I=", "properties": {"@source_uri": "https://tools.usps.com/UspsToolsRestServices/rest/POLocator/findLocations", "@spider": "usps_collection_boxes", "addr:city": "COLUMBUS", "addr:country": "US", "addr:postcode": "31901", "addr:state": "GA", "addr:street_address": "201 W 11TH ST", "amenity": "post_box", "collection_times": "Mo-Sa 10:30", "nsi_id": "unitedstatespostalservice-a77078", "operator": "United States Postal Service", "operator:short": "USPS", "operator:type": "public", "operator:wikidata": "Q668687", "ref": "3190100033"}, "type": "Feature"}
{"geometry": {"coordinates": [-84.972424388, 32.470963923], "type": "Point"}, "id": "YtdJLn1LJFAPfjUM9ZjnKCHyYF4=", "properties": {"@source_uri": "https://tools.usps.com/UspsToolsRestServices/rest/POLocator/findLocations", "@spider": "usps_collection_boxes", "addr:city": "COLUMBUS", "addr:country": "US", "addr:postcode": "31901", "addr:state": "GA", "addr:street_address": "1359 13TH ST", "amenity": "post_box", "collection_times": "Mo-Sa 10:30", "nsi_id": "unitedstatespostalservice-a77078", "operator": "United States Postal Service", "operator:short": "USPS", "operator:type": "public", "operator:wikidata": "Q668687", "ref": "3190100065"}, "type": "Feature"}
{"geometry": {"coordinates": [-84.982488848, 32.48211223], "type": "Point"}, "id": "wZmzS9g7xSi4BiPTi6NrVNkqwjY=", "properties": {"@source_uri": "https://tools.usps.com/UspsToolsRestServices/rest/POLocator/findLocations", "@spider": "usps_collection_boxes", "addr:city": "COLUMBUS", "addr:country": "US", "addr:postcode": "31901", "addr:state": "GA", "addr:street_address": "707 CENTER ST", "amenity": "post_box", "collection_times": "Mo-Sa 10:00", "nsi_id": "unitedstatespostalservice-a77078", "operator": "United States Postal Service", "operator:short": "USPS", "operator:type": "public", "operator:wikidata": "Q668687", "ref": "3190100075"}, "type": "Feature"}
{"geometry": {"coordinates": [-84.993366592, 32.467518419], "type": "Point"}, "id": "tYlBqUZY5dT1YTi6fPX7bblZBcU=", "properties": {"@source_uri": "https://tools.usps.com/UspsToolsRestServices/rest/POLocator/findLocations", "@spider": "usps_collection_boxes", "addr:city": "COLUMBUS", "addr:country": "US", "addr:postcode": "31901", "addr:state": "GA", "addr:street_address": "1121 BROADWAY", "amenity": "post_box", "collection_times": "Mo-Fr 15:00", "note": "ON 12/24 AND 12/31, THIS BOX MAY BE COLLECTED AS EARLY AS 12 NOON.", "nsi_id": "unitedstatespostalservice-a77078", "operator": "United States Postal Service", "operator:short": "USPS", "operator:type": "public", "operator:wikidata": "Q668687", "ref": "3190100086"}, "type": "Feature"}
{"geometry": {"coordinates": [-84.94450842, 32.427013201], "type": "Point"}, "id": "zAL690ShcFSU4DbhK-cKwr9gNOQ=", "properties": {"@source_uri": "https://tools.usps.com/UspsToolsRestServices/rest/POLocator/findLocations", "@spider": "usps_collection_boxes", "addr:city": "COLUMBUS", "addr:country": "US", "addr:postcode": "31903", "addr:state": "GA", "addr:street_address": "1435 BENNING DR", "amenity": "post_box", "collection_times": "Mo-Fr 17:00", "indoor": "yes", "note": "ON 12/24 AND 12/31, THIS BOX MAY BE COLLECTED AS EARLY AS 12 NOON.", "nsi_id": "unitedstatespostalservice-a77078", "operator": "United States Postal Service", "operator:short": "USPS", "operator:type": "public", "operator:wikidata": "Q668687", "ref": "3190300002"}, "type": "Feature"}
{"geometry": {"coordinates": [-84.94450842, 32.427013201], "type": "Point"}, "id": "0sCm9Y8FXnewoR0EpG2bTEQdodY=", "properties": {"@source_uri": "https://tools.usps.com/UspsToolsRestServices/rest/POLocator/findLocations", "@spider": "usps_collection_boxes", "addr:city": "COLUMBUS", "addr:country": "US", "addr:postcode": "31903", "addr:state": "GA", "addr:street_address": "1435 BENNING DR", "amenity": "post_box", "collection_times": "Mo-Fr 17:00; Sa 16:00", "note": "ON 12/24 AND 12/31, THIS BOX MAY BE COLLECTED AS EARLY AS 12 NOON.", "nsi_id": "unitedstatespostalservice-a77078", "operator": "United States Postal Service", "operator:short": "USPS", "operator:type": "public", "operator:wikidata": "Q668687", "ref": "3190300003"}, "type": "Feature"}
{"geometry": {"coordinates": [-84.952514537, 32.415145715], "type": "Point"}, "id": "pIsrvcjzvsJJ0ZYur4aIaihPqIs=", "properties": {"@source_uri": "https://tools.usps.com/UspsToolsRestServices/rest/POLocator/findLocations", "@spider": "usps_collection_boxes", "addr:city": "COLUMBUS", "addr:country": "US", "addr:postcode": "31903", "addr:state": "GA", "addr:street_address": "2067 S LUMPKIN RD", "amenity": "post_box", "collection_times": "Mo-Fr 12:00; Sa 10:00", "nsi_id": "unitedstatespostalservice-a77078", "operator": "United States Postal Service", "operator:short": "USPS", "operator:type": "public", "operator:wikidata": "Q668687", "ref": "3190300016"}, "type": "Feature"}
{"geometry": {"coordinates": [-84.955336025, 32.389209979], "type": "Point"}, "id": "INclxFVNqHX6PjKP_vQSsJfGSNM=", "properties": {"@source_uri": "https://tools.usps.com/UspsToolsRestServices/rest/POLocator/findLocations", "@spider": "usps_collection_boxes", "addr:city": "COLUMBUS", "addr:country": "US", "addr:postcode": "31903", "addr:state": "GA", "addr:street_address": "1775 LEGACY WAY", "amenity": "post_box", "collection_times": "Mo-Fr 16:30; Sa 16:00", "note": "ON 12/24 AND 12/31, THIS BOX MAY BE COLLECTED AS EARLY AS 12 NOON.", "nsi_id": "unitedstatespostalservice-a77078", "operator": "United States Postal Service", "operator:short": "USPS", "operator:type": "public", "operator:wikidata": "Q668687", "ref": "3190300031"}, "type": "Feature"}
{"geometry": {"coordinates": [-84.973688803, 32.502054511], "type": "Point"}, "id": "oiJ_vE5JomYoQOfF9NOBQnccnG8=", "properties": {"@source_uri": "https://tools.usps.com/UspsToolsRestServices/rest/POLocator/findLocations", "@spider": "usps_collection_boxes", "addr:city": "COLUMBUS", "addr:country": "US", "addr:postcode": "31904", "addr:state": "GA", "addr:street_address": "4012 HAMILTON RD", "amenity": "post_box", "collection_times": "Mo-Fr 17:00", "indoor": "yes", "note": "ON 12/24 AND 12/31, THIS BOX MAY BE COLLECTED AS EARLY AS 12 NOON.", "nsi_id": "unitedstatespostalservice-a77078", "operator": "United States Postal Service", "operator:short": "USPS", "operator:type": "public", "operator:wikidata": "Q668687", "ref": "3190400003"}, "type": "Feature"}
{"geometry": {"coordinates": [-84.969706751, 32.509405737], "type": "Point"}, "id": "udUKV2R6fbO-wteH2nPhUoP_BWE=", "properties": {"@source_uri": "https://tools.usps.com/UspsToolsRestServices/rest/POLocator/findLocations", "@spider": "usps_collection_boxes", "addr:city": "COLUMBUS", "addr:country": "US", "addr:postcode": "31904", "addr:state": "GA", "addr:street_address": "4747 HAMILTON RD", "amenity": "post_box", "collection_times": "Mo-Fr 15:00; Sa 14:00", "note": "ON 12/24 AND 12/31, THIS BOX MAY BE COLLECTED AS EARLY AS 12 NOON.", "nsi_id": "unitedstatespostalservice-a77078", "operator": "United States Postal Service", "operator:short": "USPS", "operator:type": "public", "operator:wikidata": "Q668687", "ref": "3190400016"}, "type": "Feature"}
{"geometry": {"coordinates": [-84.961001931, 32.524345397], "type": "Point"}, "id": "IprvHFnDoQg5KXyZI-nND8h9ngs=", "properties": {"@source_uri": "https://tools.usps.com/UspsToolsRestServices/rest/POLocator/findLocations", "@spider": "usps_collection_boxes", "addr:city": "COLUMBUS", "addr:country": "US", "addr:postcode": "31904", "addr:state": "GA", "addr:street_address": "5636 PRINCETON AVE", "amenity": "post_box", "collection_times": "Mo-Fr 12:00; Sa 10:00", "nsi_id": "unitedstatespostalservice-a77078", "operator": "United States Postal Service", "operator:short": "USPS", "operator:type": "public", "operator:wikidata": "Q668687", "ref": "3190400027"}, "type": "Feature"}
{"geometry": {"coordinates": [-84.961411115, 32.536183576], "type": "Point"}, "id": "EYwb2225a60V2q3ujTSHBAIaGsI=", "properties": {"@source_uri": "https://tools.usps.com/UspsToolsRestServices/rest/POLocator/findLocations", "@spider": "usps_collection_boxes", "addr:city": "COLUMBUS", "addr:country": "US", "addr:postcode": "31904", "addr:state": "GA", "addr:street_address": "5 BRADLEY PARK CT", "amenity": "post_box", "collection_times": "Mo-Fr 10:30; Sa 10:00", "nsi_id": "unitedstatespostalservice-a77078", "operator": "United States Postal Service", "operator:short": "USPS", "operator:type": "public", "operator:wikidata": "Q668687", "ref": "3190400048"}, "type": "Feature"}
{"geometry": {"coordinates": [-84.981582145, 32.532945139], "type": "Point"}, "id": "7SMrGistDHkxRLUxWRm3_VX-OFE=", "properties": {"@source_uri": "https://tools.usps.com/UspsToolsRestServices/rest/POLocator/findLocations", "@spider": "usps_collection_boxes", "addr:city": "COLUMBUS", "addr:country": "US", "addr:postcode": "31904", "addr:state": "GA", "addr:street_address": "100 BROOKSTONE CENTRE PKWY", "amenity": "post_box", "collection_times": "Mo-Sa 11:00", "nsi_id": "unitedstatespostalservice-a77078", "operator": "United States Postal Service", "operator:short": "USPS", "operator:type": "public", "operator:wikidata": "Q668687", "ref": "3190400049"}, "type": "Feature"}
{"geometry": {"coordinates": [-84.960669347, 32.525252966], "type": "Point"}, "id": "3OcyddLvqXPuj7nsqdUIiRVJ4Yw=", "properties": {"@source_uri": "https://tools.usps.com/UspsToolsRestServices/rest/POLocator/findLocations", "@spider": "usps_collection_boxes", "addr:city": "COLUMBUS", "addr:country": "US", "addr:postcode": "31904", "addr:state": "GA", "addr:street_address": "5670 WHITESVILLE RD", "amenity": "post_box", "collection_times": "Mo-Sa 10:30", "nsi_id": "unitedstatespostalservice-a77078", "operator": "United States Postal Service", "operator:short": "USPS", "operator:type": "public", "operator:wikidata": "Q668687", "ref": "3190400058"}, "type": "Feature"}
{"geometry": {"coordinates": [-84.9636210338, 32.5711080071], "type": "Point"}, "id": "QrNLrKBslkTTYdqyl6Vp-VBQfvw=", "properties": {"@source_uri": "https://tools.usps.com/UspsToolsRestServices/rest/POLocator/findLocations", "@spider": "usps_collection_boxes", "addr:city": "COLUMBUS", "addr:country": "US", "addr:postcode": "31904", "addr:state": "GA", "addr:street_address": "1751 WILLIAMS RD", "amenity": "post_box", "collection_times": "Mo-Sa 10:30", "nsi_id": "unitedstatespostalservice-a77078", "operator": "United States Postal Service", "operator:short": "USPS", "operator:type": "public", "operator:wikidata": "Q668687", "ref": "3190400059"}, "type": "Feature"}
{"geometry": {"coordinates": [-84.995852733, 32.544385857], "type": "Point"}, "id": "pMHhZOGnDl-9ZteJ81yaAjhFbQU=", "properties": {"@source_uri": "https://tools.usps.com/UspsToolsRestServices/rest/POLocator/findLocations", "@spider": "usps_collection_boxes", "addr:city": "COLUMBUS", "addr:country": "US", "addr:postcode": "31904", "addr:state": "GA", "addr:street_address": "6801 RIVER RD", "amenity": "post_box", "collection_times": "Mo-Sa 12:00", "nsi_id": "unitedstatespostalservice-a77078", "operator": "United States Postal Service", "operator:short": "USPS", "operator:type": "public", "operator:wikidata": "Q668687", "ref": "3190400063"}, "type": "Feature"}
{"geometry": {"coordinates": [-84.972332035, 32.35197827], "type": "Point"}, "id": "O4StvZgGeoB_SaZu_du6j79DEag=", "properties": {"@source_uri": "https://tools.usps.com/UspsToolsRestServices/rest/POLocator/findLocations", "@spider": "usps_collection_boxes", "addr:city": "COLUMBUS", "addr:country": "US", "addr:postcode": "31905", "addr:state": "GA", "addr:street_address": "7470 RIORDAN ST", "amenity": "post_box", "collection_times": "Mo-Fr 15:30", "note": "ON 12/24 AND 12/31, THIS BOX MAY BE COLLECTED AS EARLY AS 12 NOON.", "nsi_id": "unitedstatespostalservice-a77078", "operator": "United States Postal Service", "operator:short": "USPS", "operator:type": "public", "operator:wikidata": "Q668687", "ref": "3190500004"}, "type": "Feature"}
{"geometry": {"coordinates": [-84.91752, 32.4188], "type": "Point"}, "id": "SYje6BZ_9U5-8udiJ6CoTFW8byM=", "properties": {"@source_uri": "https://tools.usps.com/UspsToolsRestServices/rest/POLocator/findLocations", "@spider": "usps_collection_boxes", "addr:city": "COLUMBUS", "addr:country": "US", "addr:postcode": "31905", "addr:state": "GA", "addr:street_address": "13TH ARMORED REGIMENT RD", "amenity": "post_box", "collection_times": "Mo-Fr 13:15", "note": "ON 12/24 AND 12/31, THIS BOX MAY BE COLLECTED AS EARLY AS 12 NOON.", "nsi_id": "unitedstatespostalservice-a77078", "operator": "United States Postal Service", "operator:short": "USPS", "operator:type": "public", "operator:wikidata": "Q668687", "ref": "3190500011"}, "type": "Feature"}
{"geometry": {"coordinates": [-84.956971748, 32.368165297], "type": "Point"}, "id": "Ns_nU94vZRtYageuNxsy1Uf2v4k=", "properties": {"@source_uri": "https://tools.usps.com/UspsToolsRestServices/rest/POLocator/findLocations", "@spider": "usps_collection_boxes", "addr:city": "COLUMBUS", "addr:country": "US", "addr:postcode": "31905", "addr:state": "GA", "addr:street_address": "110 VIBBERT AVE", "amenity": "post_box", "collection_times": "Mo-Fr 17:00; Sa 14:00", "note": "ON 12/24 AND 12/31, THIS BOX MAY BE COLLECTED AS EARLY AS 12 NOON.", "nsi_id": "unitedstatespostalservice-a77078", "operator": "United States Postal Service", "operator:short": "USPS", "operator:type": "public", "operator:wikidata": "Q668687", "ref": "3190500013"}, "type": "Feature"}
{"geometry": {"coordinates": [-84.9703815, 32.3538435], "type": "Point"}, "id": "PwSQCraoYHYhTpWF1-Adrn-121I=", "properties": {"@source_uri": "https://tools.usps.com/UspsToolsRestServices/rest/POLocator/findLocations", "@spider": "usps_collection_boxes", "addr:city": "COLUMBUS", "addr:country": "US", "addr:postcode": "31905", "addr:state": "GA", "addr:street_address": "CHESNEY ST", "amenity": "post_box", "collection_times": "Mo-Fr 15:30", "note": "ON 12/24 AND 12/31, THIS BOX MAY BE COLLECTED AS EARLY AS 12 NOON.", "nsi_id": "unitedstatespostalservice-a77078", "operator": "United States Postal Service", "operator:short": "USPS", "operator:type": "public", "operator:wikidata": "Q668687", "ref": "3190500018"}, "type": "Feature"}
{"geometry": {"coordinates": [-84.90070206, 32.379200049], "type": "Point"}, "id": "ENUC2_bvr3CnmS6Zz9uKLloj2J4=", "properties": {"@source_uri": "https://tools.usps.com/UspsToolsRestServices/rest/POLocator/findLocations", "@spider": "usps_collection_boxes", "addr:city": "COLUMBUS", "addr:country": "US", "addr:postcode": "31905", "addr:state": "GA", "addr:street_address": "8800 WATKINS AVE", "amenity": "post_box", "collection_times": "Mo-Fr 10:30; Sa 14:30", "note": "ON 12/24 AND 12/31, THIS BOX MAY BE COLLECTED AS EARLY AS 12 NOON.", "nsi_id": "unitedstatespostalservice-a77078", "operator": "United States Postal Service", "operator:short": "USPS", "operator:type": "public", "operator:wikidata": "Q668687", "ref": "3190500020"}, "type": "Feature"}
{"geometry": {"coordinates": [-84.951649035, 32.369940768], "type": "Point"}, "id": "vo3N1Jft5CUAu82NxEkGpm4cZPE=", "properties": {"@source_uri": "https://tools.usps.com/UspsToolsRestServices/rest/POLocator/findLocations", "@spider": "usps_collection_boxes", "addr:city": "COLUMBUS", "addr:country": "US", "addr:postcode": "31905", "addr:state": "GA", "addr:street_address": "8150 MARNE RD", "amenity": "post_box", "collection_times": "Mo-Fr 16:00; Sa 15:00", "note": "ON 12/24 AND 12/31, THIS BOX MAY BE COLLECTED AS EARLY AS 12 NOON.", "nsi_id": "unitedstatespostalservice-a77078", "operator": "United States Postal Service", "operator:short": "USPS", "operator:type": "public", "operator:wikidata": "Q668687", "ref": "3190500024"}, "type": "Feature"}
{"geometry": {"coordinates": [-84.936839822, 32.406809374], "type": "Point"}, "id": "SXGVrywWw5u9fAhzl-ANB2CaYKY=", "properties": {"@source_uri": "https://tools.usps.com/UspsToolsRestServices/rest/POLocator/findLocations", "@spider": "usps_collection_boxes", "addr:city": "COLUMBUS", "addr:country": "US", "addr:postcode": "31905", "addr:state": "GA", "addr:street_address": "1 ENGINEER DR", "amenity": "post_box", "collection_times": "Mo-Fr 16:00; Sa 15:00", "note": "ON 12/24 AND 12/31, THIS BOX MAY BE COLLECTED AS EARLY AS 12 NOON.", "nsi_id": "unitedstatespostalservice-a77078", "operator": "United States Postal Service", "operator:short": "USPS", "operator:type": "public", "operator:wikidata": "Q668687", "ref": "3190500026"}, "type": "Feature"}
{"geometry": {"coordinates": [-84.91752, 32.4188], "type": "Point"}, "id": "MzfIDnW_D_pn5Woc1V9wZM3mKLI=", "properties": {"@source_uri": "https://tools.usps.com/UspsToolsRestServices/rest/POLocator/findLocations", "@spider": "usps_collection_boxes", "addr:city": "COLUMBUS", "addr:country": "US", "addr:postcode": "31905", "addr:state": "GA", "addr:street_address": "PECOM RD", "amenity": "post_box", "collection_times": "Mo-Fr 15:30", "note": "ON 12/24 AND 12/31, THIS BOX MAY BE COLLECTED AS EARLY AS 12 NOON.", "nsi_id": "unitedstatespostalservice-a77078", "operator": "United States Postal Service", "operator:short": "USPS", "operator:type": "public", "operator:wikidata": "Q668687", "ref": "3190500028"}, "type": "Feature"}
{"geometry": {"coordinates": [-84.973272231, 32.363870165], "type": "Point"}, "id": "Z-0SXb5HamvSlvTVwMC6i04T2Bg=", "properties": {"@source_uri": "https://tools.usps.com/UspsToolsRestServices/rest/POLocator/findLocations", "@spider": "usps_collection_boxes", "addr:city": "COLUMBUS", "addr:country": "US", "addr:postcode": "31905", "addr:state": "GA", "addr:street_address": "7100 DILBOY ST", "amenity": "post_box", "collection_times": "Mo-Fr 15:30", "note": "ON 12/24 AND 12/31, THIS BOX MAY BE COLLECTED AS EARLY AS 12 NOON.", "nsi_id": "unitedstatespostalservice-a77078", "operator": "United States Postal Service", "operator:short": "USPS", "operator:type": "public", "operator:wikidata": "Q668687", "ref": "3190500029"}, "type": "Feature"}
{"geometry": {"coordinates": [-84.966845893, 32.357847429], "type": "Point"}, "id": "R-npFUS4-45NovkzkKEIbSHq3U0=", "properties": {"@source_uri": "https://tools.usps.com/UspsToolsRestServices/rest/POLocator/findLocations", "@spider": "usps_collection_boxes", "addr:city": "COLUMBUS", "addr:country": "US", "addr:postcode": "31905", "addr:state": "GA", "addr:street_address": "1 EDWARDS ST", "amenity": "post_box", "collection_times": "Mo-Fr 15:30", "note": "ON 12/24 AND 12/31, THIS BOX MAY BE COLLECTED AS EARLY AS 12 NOON.", "nsi_id": "unitedstatespostalservice-a77078", "operator": "United States Postal Service", "operator:short": "USPS", "operator:type": "public", "operator:wikidata": "Q668687", "ref": "3190500030"}, "type": "Feature"}
{"geometry": {"coordinates": [-84.957335045, 32.363091839], "type": "Point"}, "id": "4T2zgzEz3qP7PxkO7WmRkpwNJz0=", "properties": {"@source_uri": "https://tools.usps.com/UspsToolsRestServices/rest/POLocator/findLocations", "@spider": "usps_collection_boxes", "addr:city": "COLUMBUS", "addr:country": "US", "addr:postcode": "31905", "addr:state": "GA", "addr:street_address": "6960 MORRISON AVE", "amenity": "post_box", "collection_times": "Mo-Fr 15:30", "note": "ON 12/24 AND 12/31, THIS BOX MAY BE COLLECTED AS EARLY AS 12 NOON.", "nsi_id": "unitedstatespostalservice-a77078", "operator": "United States Postal Service", "operator:short": "USPS", "operator:type": "public", "operator:wikidata": "Q668687", "ref": "3190500033"}, "type": "Feature"}
{"geometry": {"coordinates": [-84.939611646, 32.409488127], "type": "Point"}, "id": "T9O7fNG-NiQI1SAzS9oUclq8ztU=", "properties": {"@source_uri": "https://tools.usps.com/UspsToolsRestServices/rest/POLocator/findLocations", "@spider": "usps_collection_boxes", "addr:city": "COLUMBUS", "addr:country": "US", "addr:postcode": "31905", "addr:state": "GA", "addr:street_address": "6 INFANTRY DR", "amenity": "post_box", "collection_times": "Mo-Fr 11:15; Sa 15:15", "note": "ON 12/24 AND 12/31, THIS BOX MAY BE COLLECTED AS EARLY AS 12 NOON.", "nsi_id": "unitedstatespostalservice-a77078", "operator": "United States Postal Service", "operator:short": "USPS", "operator:type": "public", "operator:wikidata": "Q668687", "ref": "3190500034"}, "type": "Feature"}
{"geometry": {"coordinates": [-84.91752, 32.4188], "type": "Point"}, "id": "wXCwv_lGntY9v-sshyzyelqtyQ8=", "properties": {"@source_uri": "https://tools.usps.com/UspsToolsRestServices/rest/POLocator/findLocations", "@spider": "usps_collection_boxes", "addr:city": "COLUMBUS", "addr:country": "US", "addr:postcode": "31905", "addr:state": "GA", "addr:street_address": "5480 ROUSH DR BLDG 3210", "amenity": "post_box", "collection_times": "Mo-Fr 10:45; Sa 14:45", "note": "ON 12/24 AND 12/31, THIS BOX MAY BE COLLECTED AS EARLY AS 12 NOON.", "nsi_id": "unitedstatespostalservice-a77078", "operator": "United States Postal Service", "operator:short": "USPS", "operator:type": "public", "operator:wikidata": "Q668687", "ref": "3190500035"}, "type": "Feature"}
{"geometry": {"coordinates": [-84.893814018, 32.413209181], "type": "Point"}, "id": "0P3g2BIxeyXXQBz6db4ibd-YqYQ=", "properties": {"@source_uri": "https://tools.usps.com/UspsToolsRestServices/rest/POLocator/findLocations", "@spider": "usps_collection_boxes", "addr:city": "COLUMBUS", "addr:country": "US", "addr:postcode": "31905", "addr:state": "GA", "addr:street_address": "9050 KINSMAN DR BLDG 3305", "amenity": "post_box", "collection_times": "Mo-Fr 11:00; Sa 14:45", "note": "ON 12/24 AND 12/31, THIS BOX MAY BE COLLECTED AS EARLY AS 12 NOON.", "nsi_id": "unitedstatespostalservice-a77078", "operator": "United States Postal Service", "operator:short": "USPS", "operator:type": "public", "operator:wikidata": "Q668687", "ref": "3190500037"}, "type": "Feature"}
{"geometry": {"coordinates": [-84.91752, 32.4188], "type": "Point"}, "id": "eFFVGas-F8Fte8-7S1XmGJCM6ag=", "properties": {"@source_uri": "https://tools.usps.com/UspsToolsRestServices/rest/POLocator/findLocations", "@spider": "usps_collection_boxes", "addr:city": "COLUMBUS", "addr:country": "US", "addr:postcode": "31905", "addr:state": "GA", "addr:street_address": "3 SAND HILL CONTRACT STATION #107", "amenity": "post_box", "collection_times": "Mo-Fr 11:15; Sa 15:15", "note": "ON 12/24 AND 12/31, THIS BOX MAY BE COLLECTED AS EARLY AS 12 NOON.", "nsi_id": "unitedstatespostalservice-a77078", "operator": "United States Postal Service", "operator:short": "USPS", "operator:type": "public", "operator:wikidata": "Q668687", "ref": "3190500039"}, "type": "Feature"}
{"geometry": {"coordinates": [-84.902352775, 32.41403449], "type": "Point"}, "id": "48HITd9t9mv2IULFUROBZiiPm-g=", "properties": {"@source_uri": "https://tools.usps.com/UspsToolsRestServices/rest/POLocator/findLocations", "@spider": "usps_collection_boxes", "addr:city": "COLUMBUS", "addr:country": "US", "addr:postcode": "31905", "addr:state": "GA", "addr:street_address": "8775 ALBANESE DR BLDG 3240", "amenity": "post_box", "collection_times": "Mo-Fr 10:45; Sa 14:30", "note": "ON 12/24 AND 12/31, THIS BOX MAY BE COLLECTED AS EARLY AS 12 NOON.", "nsi_id": "unitedstatespostalservice-a77078", "operator": "United States Postal Service", "operator:short": "USPS", "operator:type": "public", "operator:wikidata": "Q668687", "ref": "3190500040"}, "type": "Feature"}
{"geometry": {"coordinates": [-84.891517459, 32.412119833], "type": "Point"}, "id": "OnQHQv6sh1GT5GGBtiFaR0wBcYk=", "properties": {"@source_uri": "https://tools.usps.com/UspsToolsRestServices/rest/POLocator/findLocations", "@spider": "usps_collection_boxes", "addr:city": "COLUMBUS", "addr:country": "US", "addr:postcode": "31905", "addr:state": "GA", "addr:street_address": "9747 SECOND ARMORED DIVISION RD", "amenity": "post_box", "collection_times": "Mo-Fr 11:00; Sa 15:00", "note": "ON 12/24 AND 12/31, THIS BOX MAY BE COLLECTED AS EARLY AS 12 NOON.", "nsi_id": "unitedstatespostalservice-a77078", "operator": "United States Postal Service", "operator:short": "USPS", "operator:type": "public", "operator:wikidata": "Q668687", "ref": "3190500041"}, "type": "Feature"}
{"geometry": {"coordinates": [-84.91752, 32.4188], "type": "Point"}, "id": "gQLlT5iRZB1uqI66Tl-uM_XBxHE=", "properties": {"@source_uri": "https://tools.usps.com/UspsToolsRestServices/rest/POLocator/findLocations", "@spider": "usps_collection_boxes", "addr:city": "COLUMBUS", "addr:country": "US", "addr:postcode": "31905", "addr:state": "GA", "addr:street_address": "10850 SCHNEIDER RD", "amenity": "post_box", "collection_times": "Mo-Fr 10:30", "nsi_id": "unitedstatespostalservice-a77078", "operator": "United States Postal Service", "operator:short": "USPS", "operator:type": "public", "operator:wikidata": "Q668687", "ref": "3190500047"}, "type": "Feature"}
{"geometry": {"coordinates": [-84.885784958, 32.411883349], "type": "Point"}, "id": "CrBtu9mzX6XcI9whmZ2B1jpD7ns=", "properties": {"@source_uri": "https://tools.usps.com/UspsToolsRestServices/rest/POLocator/findLocations", "@spider": "usps_collection_boxes", "addr:city": "COLUMBUS", "addr:country": "US", "addr:postcode": "31905", "addr:state": "GA", "addr:street_address": "5065 MOYE RD BLDG 3465", "amenity": "post_box", "collection_times": "Mo-Fr 11:00; Sa 15:00", "note": "ON 12/24 AND 12/31, THIS BOX MAY BE COLLECTED AS EARLY AS 12 NOON.", "nsi_id": "unitedstatespostalservice-a77078", "operator": "United States Postal Service", "operator:short": "USPS", "operator:type": "public", "operator:wikidata": "Q668687", "ref": "3190500053"}, "type": "Feature"}
{"geometry": {"coordinates": [-84.91752, 32.4188], "type": "Point"}, "id": "1QUzjnI1ygmaSvkBGcpFsZHZmfY=", "properties": {"@source_uri": "https://tools.usps.com/UspsToolsRestServices/rest/POLocator/findLocations", "@spider": "usps_collection_boxes", "addr:city": "COLUMBUS", "addr:country": "US", "addr:postcode": "31905", "addr:state": "GA", "addr:street_address": "9375 CONWAY DR BLDG 3425", "amenity": "post_box", "collection_times": "Mo-Fr 10:45; Sa 14:45", "note": "ON 12/24 AND 12/31, THIS BOX MAY BE COLLECTED AS EARLY AS 12 NOON.", "nsi_id": "unitedstatespostalservice-a77078", "operator": "United States Postal Service", "operator:short": "USPS", "operator:type": "public", "operator:wikidata": "Q668687", "ref": "3190500055"}, "type": "Feature"}
{"geometry": {"coordinates": [-84.899579352, 32.414437178], "type": "Point"}, "id": "5lQYI6_ocV1OVRcnIxYNGcMgLto=", "properties": {"@source_uri": "https://tools.usps.com/UspsToolsRestServices/rest/POLocator/findLocations", "@spider": "usps_collection_boxes", "addr:city": "COLUMBUS", "addr:country": "US", "addr:postcode": "31905", "addr:state": "GA", "addr:street_address": "5375 HANSON DR", "amenity": "post_box", "collection_times": "Mo-Fr 10:45; Sa 14:30", "note": "ON 12/24 AND 12/31, THIS BOX MAY BE COLLECTED AS EARLY AS 12 NOON.", "nsi_id": "unitedstatespostalservice-a77078", "operator": "United States Postal Service", "operator:short": "USPS", "operator:type": "public", "operator:wikidata": "Q668687", "ref": "3190500057"}, "type": "Feature"}
{"geometry": {"coordinates": [-84.886827199, 32.416017155], "type": "Point"}, "id": "BbsCyi47PpRJothOgx9XCmMxjZA=", "properties": {"@source_uri": "https://tools.usps.com/UspsToolsRestServices/rest/POLocator/findLocations", "@spider": "usps_collection_boxes", "addr:city": "COLUMBUS", "addr:country": "US", "addr:postcode": "31905", "addr:state": "GA", "addr:street_address": "9240 TREADWELL DR", "amenity": "post_box", "collection_times": "Mo-Fr 11:15; Sa 15:15", "note": "ON 12/24 AND 12/31, THIS BOX MAY BE COLLECTED AS EARLY AS 12 NOON.", "nsi_id": "unitedstatespostalservice-a77078", "operator": "United States Postal Service", "operator:short": "USPS", "operator:type": "public", "operator:wikidata": "Q668687", "ref": "3190500059"}, "type": "Feature"}
{"geometry": {"coordinates": [-84.899604216, 32.41337716], "type": "Point"}, "id": "PHLfDoFvpZ91EPJTy39VPHCbcxI=", "properties": {"@source_uri": "https://tools.usps.com/UspsToolsRestServices/rest/POLocator/findLocations", "@spider": "usps_collection_boxes", "addr:city": "COLUMBUS", "addr:country": "US", "addr:postcode": "31905", "addr:state": "GA", "addr:street_address": "HANSON DR BLDG 3245", "amenity": "post_box", "collection_times": "Mo-Fr 10:45; Sa 14:45", "note": "ON 12/24 AND 12/31, THIS BOX MAY BE COLLECTED AS EARLY AS 12 NOON.", "nsi_id": "unitedstatespostalservice-a77078", "operator": "United States Postal Service", "operator:short": "USPS", "operator:type": "public", "operator:wikidata": "Q668687", "ref": "3190500060"}, "type": "Feature"}
{"geometry": {"coordinates": [-84.91739565, 32.41875205], "type": "Point"}, "id": "Gtg1MFtSzKkzAbpaQkhRKke_8HQ=", "properties": {"@source_uri": "https://tools.usps.com/UspsToolsRestServices/rest/POLocator/findLocations", "@spider": "usps_collection_boxes", "addr:city": "COLUMBUS", "addr:country": "US", "addr:postcode": "31905", "addr:state": "GA", "addr:street_address": "110 VIBBERT AVE", "amenity": "post_box", "collection_times": "Mo-Fr 17:00; Sa 14:00", "indoor": "yes", "note": "ON 12/24 AND 12/31, THIS BOX MAY BE COLLECTED AS EARLY AS 12 NOON.", "nsi_id": "unitedstatespostalservice-a77078", "operator": "United States Postal Service", "operator:short": "USPS", "operator:type": "public", "operator:wikidata": "Q668687", "ref": "3190500069"}, "type": "Feature"}
{"geometry": {"coordinates": [-84.9584371835, 32.4698007738], "type": "Point"}, "id": "ATb4Wnk7a4N1fnlWvGY6R8B7w8M=", "properties": {"@source_uri": "https://tools.usps.com/UspsToolsRestServices/rest/POLocator/findLocations", "@spider": "usps_collection_boxes", "addr:city": "COLUMBUS", "addr:country": "US", "addr:postcode": "31906", "addr:state": "GA", "addr:street_address": "1179 HENRY AVE", "amenity": "post_box", "collection_times": "Mo-Fr 17:00", "indoor": "yes", "note": "ON 12/24 AND 12/31, THIS BOX MAY BE COLLECTED AS EARLY AS 12 NOON.", "nsi_id": "unitedstatespostalservice-a77078", "operator": "United States Postal Service", "operator:short": "USPS", "operator:type": "public", "operator:wikidata": "Q668687", "ref": "3190600032"}, "type": "Feature"}
{"geometry": {"coordinates": [-84.9378019007, 32.4842605772], "type": "Point"}, "id": "mLOhQdeFE1X8wh4qRVvEC7x0Qtk=", "properties": {"@source_uri": "https://tools.usps.com/UspsToolsRestServices/rest/POLocator/findLocations", "@spider": "usps_collection_boxes", "addr:city": "COLUMBUS", "addr:country": "US", "addr:postcode": "31907", "addr:state": "GA", "addr:street_address": "3469 MACON RD", "amenity": "post_box", "collection_times": "Mo-Fr 17:00", "indoor": "yes", "note": "ON 12/24 AND 12/31, THIS BOX MAY BE COLLECTED AS EARLY AS 12 NOON.", "nsi_id": "unitedstatespostalservice-a77078", "operator": "United States Postal Service", "operator:short": "USPS", "operator:type": "public", "operator:wikidata": "Q668687", "ref": "3190700016"}, "type": "Feature"}
{"geometry": {"coordinates": [-84.913347025, 32.467359029], "type": "Point"}, "id": "egp34NzmAfDWrowF2uMj7AIdt6k=", "properties": {"@source_uri": "https://tools.usps.com/UspsToolsRestServices/rest/POLocator/findLocations", "@spider": "usps_collection_boxes", "addr:city": "COLUMBUS", "addr:country": "US", "addr:postcode": "31907", "addr:state": "GA", "addr:street_address": "4701 BUENA VISTA RD", "amenity": "post_box", "collection_times": "Mo-Fr 11:00; Sa 10:30", "nsi_id": "unitedstatespostalservice-a77078", "operator": "United States Postal Service", "operator:short": "USPS", "operator:type": "public", "operator:wikidata": "Q668687", "ref": "3190700052"}, "type": "Feature"}
{"geometry": {"coordinates": [-84.926882865, 32.511397379], "type": "Point"}, "id": "3lOwMrnKG9JvKGMOiBN_UiYWuEk=", "properties": {"@source_uri": "https://tools.usps.com/UspsToolsRestServices/rest/POLocator/findLocations", "@spider": "usps_collection_boxes", "addr:city": "COLUMBUS", "addr:country": "US", "addr:postcode": "31907", "addr:state": "GA", "addr:street_address": "3916 MILGEN RD", "amenity": "post_box", "collection_times": "Mo-Sa 17:00", "indoor": "yes", "note": "ON 12/24 AND 12/31, THIS BOX MAY BE COLLECTED AS EARLY AS 12 NOON.", "nsi_id": "unitedstatespostalservice-a77078", "operator": "United States Postal Service", "operator:short": "USPS", "operator:type": "public", "operator:wikidata": "Q668687", "ref": "3190700065"}, "type": "Feature"}
{"geometry": {"coordinates": [-84.926882865, 32.511397379], "type": "Point"}, "id": "cDMCL52khzI8LORja70B4Qq2jT8=", "properties": {"@source_uri": "https://tools.usps.com/UspsToolsRestServices/rest/POLocator/findLocations", "@spider": "usps_collection_boxes", "addr:city": "COLUMBUS", "addr:country": "US", "addr:postcode": "31907", "addr:state": "GA", "addr:street_address": "3916 MILGEN RD", "amenity": "post_box", "collection_times": "Mo-Sa 17:00", "name": "USPS COLLECTION BOX - APC", "note": "ON 12/24 AND 12/31, THIS BOX MAY BE COLLECTED AS EARLY AS 12 NOON.", "nsi_id": "unitedstatespostalservice-a77078", "operator": "United States Postal Service", "operator:short": "USPS", "operator:type": "public", "operator:wikidata": "Q668687", "ref": "3190700067"}, "type": "Feature"}
{"geometry": {"coordinates": [-84.9347349021, 32.5559282257], "type": "Point"}, "id": "B8yeXTjT--BVHXfIixZ2y1p5p_0=", "properties": {"@source_uri": "https://tools.usps.com/UspsToolsRestServices/rest/POLocator/findLocations", "@spider": "usps_collection_boxes", "addr:city": "COLUMBUS", "addr:country": "US", "addr:postcode": "31909", "addr:state": "GA", "addr:street_address": "7482 OLD MOON RD", "amenity": "post_box", "collection_times": "Mo-Sa 12:00", "nsi_id": "unitedstatespostalservice-a77078", "operator": "United States Postal Service", "operator:short": "USPS", "operator:type": "public", "operator:wikidata": "Q668687", "ref": "3190900001"}, "type": "Feature"}
{"geometry": {"coordinates": [-84.9402909446, 32.5072361895], "type": "Point"}, "id": "_HmnJEi9YaZD0RRK6ATXnJwV0Mw=", "properties": {"@source_uri": "https://tools.usps.com/UspsToolsRestServices/rest/POLocator/findLocations", "@spider": "usps_collection_boxes", "addr:city": "COLUMBUS", "addr:country": "US", "addr:postcode": "31909", "addr:state": "GA", "addr:street_address": "3247 MANCHESTER EXPY", "amenity": "post_box", "collection_times": "Mo-Fr 10:30", "nsi_id": "unitedstatespostalservice-a77078", "operator": "United States Postal Service", "operator:short": "USPS", "operator:type": "public", "operator:wikidata": "Q668687", "ref": "3190900006"}, "type": "Feature"}
{"geometry": {"coordinates": [-84.94667603, 32.506130437], "type": "Point"}, "id": "HUeiZeFlNKxGAKqsC8EF56Q17y4=", "properties": {"@source_uri": "https://tools.usps.com/UspsToolsRestServices/rest/POLocator/findLocations", "@spider": "usps_collection_boxes", "addr:city": "COLUMBUS", "addr:country": "US", "addr:postcode": "31909", "addr:state": "GA", "addr:street_address": "3091 MANCHESTER EXPY", "amenity": "post_box", "collection_times": "Mo-Fr 10:30", "nsi_id": "unitedstatespostalservice-a77078", "operator": "United States Postal Service", "operator:short": "USPS", "operator:type": "public", "operator:wikidata": "Q668687", "ref": "3190900007"}, "type": "Feature"}
{"geometry": {"coordinates": [-84.954598428, 32.538228999], "type": "Point"}, "id": "5kywsODiAv-RFYhlx-0d1IohJl4=", "properties": {"@source_uri": "https://tools.usps.com/UspsToolsRestServices/rest/POLocator/findLocations", "@spider": "usps_collection_boxes", "addr:city": "COLUMBUS", "addr:country": "US", "addr:postcode": "31909", "addr:state": "GA", "addr:street_address": "6298 VETERANS PKWY", "amenity": "post_box", "collection_times": "Mo-Sa 12:00", "nsi_id": "unitedstatespostalservice-a77078", "operator": "United States Postal Service", "operator:short": "USPS", "operator:type": "public", "operator:wikidata": "Q668687", "ref": "3190900009"}, "type": "Feature"}
{"geometry": {"coordinates": [-84.9543949892, 32.5510659965], "type": "Point"}, "id": "bYZuEZMa6xpx31Ridg7q12iwCNU=", "properties": {"@source_uri": "https://tools.usps.com/UspsToolsRestServices/rest/POLocator/findLocations", "@spider": "usps_collection_boxes", "addr:city": "COLUMBUS", "addr:country": "US", "addr:postcode": "31909", "addr:state": "GA", "addr:street_address": "2700 DOUBLE CHURCHES RD", "amenity": "post_box", "collection_times": "Mo-Sa 14:00", "note": "ON 12/24 AND 12/31, THIS BOX MAY BE COLLECTED AS EARLY AS 12 NOON.", "nsi_id": "unitedstatespostalservice-a77078", "operator": "United States Postal Service", "operator:short": "USPS", "operator:type": "public", "operator:wikidata": "Q668687", "ref": "3190900011"}, "type": "Feature"}
{"geometry": {"coordinates": [-84.921486354, 32.516445625], "type": "Point"}, "id": "Fz11BzcrYDr5DTnfWNrnBUi6U5M=", "properties": {"@source_uri": "https://tools.usps.com/UspsToolsRestServices/rest/POLocator/findLocations", "@spider": "usps_collection_boxes", "addr:city": "COLUMBUS", "addr:country": "US", "addr:postcode": "31909", "addr:state": "GA", "addr:street_address": "4343 WARM SPRINGS RD", "amenity": "post_box", "collection_times": "Mo-Sa 15:00", "note": "ON 12/24 AND 12/31, THIS BOX MAY BE COLLECTED AS EARLY AS 12 NOON.", "nsi_id": "unitedstatespostalservice-a77078", "operator": "United States Postal Service", "operator:short": "USPS", "operator:type": "public", "operator:wikidata": "Q668687", "ref": "3190900029"}, "type": "Feature"}
{"geometry": {"coordinates": [-84.906449741, 32.534762754], "type": "Point"}, "id": "fu52u6N8nGC4U4Ab2DP52eM2uI4=", "properties": {"@source_uri": "https://tools.usps.com/UspsToolsRestServices/rest/POLocator/findLocations", "@spider": "usps_collection_boxes", "addr:city": "COLUMBUS", "addr:country": "US", "addr:postcode": "31909", "addr:state": "GA", "addr:street_address": "5120 WARM SPRINGS RD", "amenity": "post_box", "collection_times": "Mo-Sa 13:00", "note": "ON 12/24 AND 12/31, THIS BOX MAY BE COLLECTED AS EARLY AS 12 NOON.", "nsi_id": "unitedstatespostalservice-a77078", "operator": "United States Postal Service", "operator:short": "USPS", "operator:type": "public", "operator:wikidata": "Q668687", "ref": "3190900034"}, "type": "Feature"}
{"geometry": {"coordinates": [-84.8977225038, 32.5519519629], "type": "Point"}, "id": "eNloUYMuPg0LLV7IEQTmENYG6_g=", "properties": {"@source_uri": "https://tools.usps.com/UspsToolsRestServices/rest/POLocator/findLocations", "@spider": "usps_collection_boxes", "addr:city": "COLUMBUS", "addr:country": "US", "addr:postcode": "31909", "addr:state": "GA", "addr:street_address": "7401 BLACKMON RD", "amenity": "post_box", "collection_times": "Mo-Sa 10:15", "nsi_id": "unitedstatespostalservice-a77078", "operator": "United States Postal Service", "operator:short": "USPS", "operator:type": "public", "operator:wikidata": "Q668687", "ref": "3190900035"}, "type": "Feature"}
{"geometry": {"coordinates": [-84.939161596, 32.554345976], "type": "Point"}, "id": "ipWPJdUZ4cFi3dBlLNdJ4uwsKe0=", "properties": {"@source_uri": "https://tools.usps.com/UspsToolsRestServices/rest/POLocator/findLocations", "@spider": "usps_collection_boxes", "addr:city": "COLUMBUS", "addr:country": "US", "addr:postcode": "31909", "addr:state": "GA", "addr:street_address": "3706 INVERNESS PKWY", "amenity": "post_box", "collection_times": "Mo-Sa 12:00", "nsi_id": "unitedstatespostalservice-a77078", "operator": "United States Postal Service", "operator:short": "USPS", "operator:type": "public", "operator:wikidata": "Q668687", "ref": "3190900037"}, "type": "Feature"}
