{"geometry": {"coordinates": [-82.92933742, 29.959300876], "type": "Point"}, "id": "xvxByP8u3GL_XWbzzV5cvSn5U9U=", "properties": {"@spider": "usps_collection_boxes", "addr:city": "BRANFORD", "addr:country": "US", "addr:full": "104 SUWANNEE AVE NW", "addr:postcode": "32008", "addr:state": "FL", "brand": "USPS", "collection_times": "Mo-Fr 16:00; Sa 12:00", "name": "USPS COLLECTION BOX - PO LOBBY", "note": "ON 12/24 AND 12/31, THIS BOX MAY BE COLLECTED AS EARLY AS 12 NOON.", "ref": "3200800002"}, "type": "Feature"}
{"geometry": {"coordinates": [-82.929200372, 29.958966766], "type": "Point"}, "id": "WDtkcRdzB7dkrqmg5FHjDItGf34=", "properties": {"@spider": "usps_collection_boxes", "addr:city": "BRANFORD", "addr:country": "US", "addr:full": "104 SUWANNEE AVE", "addr:postcode": "32008", "addr:state": "FL", "brand": "USPS", "collection_times": "Mo-Fr 16:00; Sa 12:00", "name": "USPS COLLECTION BOX - PO LOBBY", "note": "ON 12/24 AND 12/31, THIS BOX MAY BE COLLECTED AS EARLY AS 12 NOON.", "ref": "3200800005"}, "type": "Feature"}
{"geometry": {"coordinates": [-82.929200372, 29.958966766], "type": "Point"}, "id": "eVS8onuCrVh51PMkVMyi2Due6rQ=", "properties": {"@spider": "usps_collection_boxes", "addr:city": "BRANFORD", "addr:country": "US", "addr:full": "104 SUWANNEE AVE", "addr:postcode": "32008", "addr:state": "FL", "brand": "USPS", "collection_times": "Mo-Fr 16:00; Sa 12:00", "name": "USPS COLLECTION BOX - BLUE BOX", "note": "ON 12/24 AND 12/31, THIS BOX MAY BE COLLECTED AS EARLY AS 12 NOON.", "ref": "3200800006"}, "type": "Feature"}
{"geometry": {"coordinates": [-83.32585, 30.208061891], "type": "Point"}, "id": "gn0udARXHmQdcKQks6WguohiwhA=", "properties": {"@spider": "usps_collection_boxes", "addr:city": "DAY", "addr:country": "US", "addr:full": "PO BOX 9998", "addr:postcode": "32013", "addr:state": "FL", "brand": "USPS", "collection_times": "Mo-Sa 09:45", "name": "USPS COLLECTION BOX - BLUE BOX", "ref": "3201300001"}, "type": "Feature"}
{"geometry": {"coordinates": [-83.32585, 30.208061891], "type": "Point"}, "id": "3ZCRXkXryeTvHAp-m7SyLXCXx48=", "properties": {"@spider": "usps_collection_boxes", "addr:city": "DAY", "addr:country": "US", "addr:full": "PO BOX 9998", "addr:postcode": "32013", "addr:state": "FL", "brand": "USPS", "collection_times": "Mo-Sa 09:45", "name": "USPS COLLECTION BOX - PO LOBBY", "ref": "3201300002"}, "type": "Feature"}
{"geometry": {"coordinates": [-83.32585, 30.208061891], "type": "Point"}, "id": "41HwT2fRzAwCB7rpDdMiui8foeY=", "properties": {"@spider": "usps_collection_boxes", "addr:city": "DAY", "addr:country": "US", "addr:full": "PO BOX 9998", "addr:postcode": "32013", "addr:state": "FL", "brand": "USPS", "collection_times": "Mo-Sa 09:45", "name": "USPS COLLECTION BOX - PO LOBBY", "ref": "3201300003"}, "type": "Feature"}
{"geometry": {"coordinates": [-82.660304933, 30.109471735], "type": "Point"}, "id": "kb7PXzekAXFC-44BW0zRnE7upyg=", "properties": {"@spider": "usps_collection_boxes", "addr:city": "LAKE CITY", "addr:country": "US", "addr:full": "4475 SW STATE ROAD 47", "addr:postcode": "32024", "addr:state": "FL", "brand": "USPS", "collection_times": "Mo-Sa 11:30", "name": "USPS COLLECTION BOX - BLUE BOX", "ref": "3202400001"}, "type": "Feature"}
{"geometry": {"coordinates": [-82.609999554, 30.183333499], "type": "Point"}, "id": "rw6rDaj-8fyfUDvW-U6B9iLiLI0=", "properties": {"@spider": "usps_collection_boxes", "addr:city": "LAKE CITY", "addr:country": "US", "addr:full": "1740 SE BAYA DR", "addr:postcode": "32025", "addr:state": "FL", "brand": "USPS", "collection_times": "Mo-Sa 11:45", "name": "USPS COLLECTION BOX - BLUE BOX", "ref": "3202500001"}, "type": "Feature"}
{"geometry": {"coordinates": [-82.637000244, 30.182454943], "type": "Point"}, "id": "hpCLwFDKsuuKrjvkgdGXhFq0a44=", "properties": {"@spider": "usps_collection_boxes", "addr:city": "LAKE CITY", "addr:country": "US", "addr:full": "580 S MARION AVE", "addr:postcode": "32025", "addr:state": "FL", "brand": "USPS", "collection_times": "Mo-Fr 16:00; Sa 10:00", "name": "USPS COLLECTION BOX - BLUE BOX", "note": "ON 12/24 AND 12/31, THIS BOX MAY BE COLLECTED AS EARLY AS 12 NOON.", "ref": "3202500002"}, "type": "Feature"}
{"geometry": {"coordinates": [-82.639185518, 30.178271445], "type": "Point"}, "id": "GsQPZ6e9X2S3BllB1eDC8MoYkMk=", "properties": {"@spider": "usps_collection_boxes", "addr:city": "LAKE CITY", "addr:country": "US", "addr:full": "875 SW MAIN BLVD", "addr:postcode": "32025", "addr:state": "FL", "brand": "USPS", "collection_times": "Mo-Fr 16:00; Sa 10:30", "name": "USPS COLLECTION BOX - BLUE BOX", "note": "ON 12/24 AND 12/31, THIS BOX MAY BE COLLECTED AS EARLY AS 12 NOON.", "ref": "3202500003"}, "type": "Feature"}
{"geometry": {"coordinates": [-82.63979304, 30.17499893], "type": "Point"}, "id": "jTY45gBk0SDT94DnjHSoSp8smlY=", "properties": {"@spider": "usps_collection_boxes", "addr:city": "LAKE CITY", "addr:country": "US", "addr:full": "1086 SW MAIN BLVD", "addr:postcode": "32025", "addr:state": "FL", "brand": "USPS", "collection_times": "Mo-Fr 16:00; Sa 10:00", "name": "USPS COLLECTION BOX - BLUE BOX", "note": "ON 12/24 AND 12/31, THIS BOX MAY BE COLLECTED AS EARLY AS 12 NOON.", "ref": "3202500004"}, "type": "Feature"}
{"geometry": {"coordinates": [-82.640517466, 30.17024011], "type": "Point"}, "id": "CALkQVOoCGC94atX8KCucdYP0LQ=", "properties": {"@spider": "usps_collection_boxes", "addr:city": "LAKE CITY", "addr:country": "US", "addr:full": "1445 SW MAIN BLVD", "addr:postcode": "32025", "addr:state": "FL", "brand": "USPS", "collection_times": "Mo-Sa 10:15", "name": "USPS COLLECTION BOX - BLUE BOX", "ref": "3202500005"}, "type": "Feature"}
{"geometry": {"coordinates": [-82.715572674, 29.924117801], "type": "Point"}, "id": "c0K270wz6K7cFWepA_Ute6Syprg=", "properties": {"@spider": "usps_collection_boxes", "addr:city": "FORT WHITE", "addr:country": "US", "addr:full": "318 SW HOLSTEIN AVE", "addr:postcode": "32038", "addr:state": "FL", "brand": "USPS", "collection_times": "Mo-Fr 16:00; Sa 11:30", "name": "USPS COLLECTION BOX - BLUE BOX", "note": "ON 12/24 AND 12/31, THIS BOX MAY BE COLLECTED AS EARLY AS 12 NOON.", "ref": "3203800001"}, "type": "Feature"}
{"geometry": {"coordinates": [-82.715572674, 29.924117801], "type": "Point"}, "id": "-5tWxhq3N7RZGhHhVQghOWJzX28=", "properties": {"@spider": "usps_collection_boxes", "addr:city": "FORT WHITE", "addr:country": "US", "addr:full": "318 SW HOLSTEIN AVE", "addr:postcode": "32038", "addr:state": "FL", "brand": "USPS", "collection_times": "Mo-Fr 16:00; Sa 11:30", "name": "USPS COLLECTION BOX - PO LOBBY", "note": "ON 12/24 AND 12/31, THIS BOX MAY BE COLLECTED AS EARLY AS 12 NOON.", "ref": "3203800002"}, "type": "Feature"}
{"geometry": {"coordinates": [-82.715572674, 29.924117801], "type": "Point"}, "id": "MnMHIKWKV3sY-pFrCbRSXRpMq-U=", "properties": {"@spider": "usps_collection_boxes", "addr:city": "FORT WHITE", "addr:country": "US", "addr:full": "318 SW HOLSTEIN AVE", "addr:postcode": "32038", "addr:state": "FL", "brand": "USPS", "collection_times": "Mo-Fr 16:00; Sa 11:30", "name": "USPS COLLECTION BOX - PO LOBBY", "note": "ON 12/24 AND 12/31, THIS BOX MAY BE COLLECTED AS EARLY AS 12 NOON.", "ref": "3203800004"}, "type": "Feature"}
{"geometry": {"coordinates": [-82.946645576, 30.518044922], "type": "Point"}, "id": "HWtRZc6gRoPuFSaSyak8UjAQTVA=", "properties": {"@spider": "usps_collection_boxes", "addr:city": "JASPER", "addr:country": "US", "addr:full": "100 1ST AVE SE", "addr:postcode": "32052", "addr:state": "FL", "brand": "USPS", "collection_times": "Mo-Fr 16:30; Sa 12:00", "name": "USPS COLLECTION BOX - BLUE BOX", "note": "ON 12/24 AND 12/31, THIS BOX MAY BE COLLECTED AS EARLY AS 12 NOON.", "ref": "3205200000"}, "type": "Feature"}
{"geometry": {"coordinates": [-82.946645576, 30.518044922], "type": "Point"}, "id": "IJ9twBDOadrRDfvOu3WmXDwXnn0=", "properties": {"@spider": "usps_collection_boxes", "addr:city": "JASPER", "addr:country": "US", "addr:full": "100 1ST AVE SE", "addr:postcode": "32052", "addr:state": "FL", "brand": "USPS", "collection_times": "Mo-Fr 16:30; Sa 12:00", "name": "USPS COLLECTION BOX - PO LOBBY", "note": "ON 12/24 AND 12/31, THIS BOX MAY BE COLLECTED AS EARLY AS 12 NOON.", "ref": "3205200004"}, "type": "Feature"}
{"geometry": {"coordinates": [-82.946645576, 30.518044922], "type": "Point"}, "id": "GQ3xDLPDGQFfmfE7ojtJ3tQPmrA=", "properties": {"@spider": "usps_collection_boxes", "addr:city": "JASPER", "addr:country": "US", "addr:full": "100 1ST AVE SE", "addr:postcode": "32052", "addr:state": "FL", "brand": "USPS", "collection_times": "Mo-Fr 16:30; Sa 12:00", "name": "USPS COLLECTION BOX - PO LOBBY", "note": "ON 12/24 AND 12/31, THIS BOX MAY BE COLLECTED AS EARLY AS 12 NOON.", "ref": "3205200007"}, "type": "Feature"}
{"geometry": {"coordinates": [-83.101489306, 30.60448218], "type": "Point"}, "id": "Y-9bMUURP48gj_ZJz4nsW0pcUGk=", "properties": {"@spider": "usps_collection_boxes", "addr:city": "JENNINGS", "addr:country": "US", "addr:full": "1269 PLUM ST", "addr:postcode": "32053", "addr:state": "FL", "brand": "USPS", "collection_times": "Mo-Fr 16:30; Sa 12:00", "name": "USPS COLLECTION BOX - PO LOBBY", "note": "ON 12/24 AND 12/31, THIS BOX MAY BE COLLECTED AS EARLY AS 12 NOON.", "ref": "3205300001"}, "type": "Feature"}
{"geometry": {"coordinates": [-83.101489306, 30.60448218], "type": "Point"}, "id": "Mqp81nc4pZrolT-U25nMcDyfLkk=", "properties": {"@spider": "usps_collection_boxes", "addr:city": "JENNINGS", "addr:country": "US", "addr:full": "1269 PLUM ST", "addr:postcode": "32053", "addr:state": "FL", "brand": "USPS", "collection_times": "Mo-Fr 16:30; Sa 12:00", "name": "USPS COLLECTION BOX - BLUE BOX", "note": "ON 12/24 AND 12/31, THIS BOX MAY BE COLLECTED AS EARLY AS 12 NOON.", "ref": "3205300002"}, "type": "Feature"}
{"geometry": {"coordinates": [-83.101489306, 30.60448218], "type": "Point"}, "id": "xBA0xqTtsL1VRNOcd9Jd6weiBIE=", "properties": {"@spider": "usps_collection_boxes", "addr:city": "JENNINGS", "addr:country": "US", "addr:full": "1269 PLUM ST", "addr:postcode": "32053", "addr:state": "FL", "brand": "USPS", "collection_times": "Mo-Fr 16:30; Sa 12:00", "name": "USPS COLLECTION BOX - PO LOBBY", "note": "ON 12/24 AND 12/31, THIS BOX MAY BE COLLECTED AS EARLY AS 12 NOON.", "ref": "3205300003"}, "type": "Feature"}
{"geometry": {"coordinates": [-83.101489306, 30.60448218], "type": "Point"}, "id": "1oxkeH7yEHFycG7CTCxGo5yNrI8=", "properties": {"@spider": "usps_collection_boxes", "addr:city": "JENNINGS", "addr:country": "US", "addr:full": "1269 PLUM ST", "addr:postcode": "32053", "addr:state": "FL", "brand": "USPS", "collection_times": "Mo-Fr 16:30; Sa 12:00", "name": "USPS COLLECTION BOX - PO LOBBY", "note": "ON 12/24 AND 12/31, THIS BOX MAY BE COLLECTED AS EARLY AS 12 NOON.", "ref": "3205300005"}, "type": "Feature"}
{"geometry": {"coordinates": [-82.339962243, 30.023893337], "type": "Point"}, "id": "wEb5L3zfnN6xd6YgRTIsQvqojTo=", "properties": {"@spider": "usps_collection_boxes", "addr:city": "LAKE BUTLER", "addr:country": "US", "addr:full": "215 NW 1ST ST", "addr:postcode": "32054", "addr:state": "FL", "brand": "USPS", "collection_times": "Mo-Fr 17:00; Sa 12:00", "name": "USPS COLLECTION BOX - BLUE BOX", "note": "ON 12/24 AND 12/31, THIS BOX MAY BE COLLECTED AS EARLY AS 12 NOON.", "ref": "3205400000"}, "type": "Feature"}
{"geometry": {"coordinates": [-82.339962243, 30.023893337], "type": "Point"}, "id": "zVxKSpmxAOyqm0tnZNHWqk2Yfhs=", "properties": {"@spider": "usps_collection_boxes", "addr:city": "LAKE BUTLER", "addr:country": "US", "addr:full": "215 NW 1ST ST", "addr:postcode": "32054", "addr:state": "FL", "brand": "USPS", "collection_times": "Mo-Fr 17:00; Sa 12:00", "name": "USPS COLLECTION BOX - PO LOBBY", "note": "ON 12/24 AND 12/31, THIS BOX MAY BE COLLECTED AS EARLY AS 12 NOON.", "ref": "3205400005"}, "type": "Feature"}
{"geometry": {"coordinates": [-82.339962243, 30.023893337], "type": "Point"}, "id": "ZaQknQgnMC5lF7qFD3tyKScbCBA=", "properties": {"@spider": "usps_collection_boxes", "addr:city": "LAKE BUTLER", "addr:country": "US", "addr:full": "215 NW 1ST ST", "addr:postcode": "32054", "addr:state": "FL", "brand": "USPS", "collection_times": "Mo-Fr 17:00; Sa 12:00", "name": "USPS COLLECTION BOX - PO LOBBY", "note": "ON 12/24 AND 12/31, THIS BOX MAY BE COLLECTED AS EARLY AS 12 NOON.", "ref": "3205400006"}, "type": "Feature"}
{"geometry": {"coordinates": [-82.339962243, 30.023893337], "type": "Point"}, "id": "F3fAiv-bOJScGf6OrynuPtoPiUg=", "properties": {"@spider": "usps_collection_boxes", "addr:city": "LAKE BUTLER", "addr:country": "US", "addr:full": "215 NW 1ST ST", "addr:postcode": "32054", "addr:state": "FL", "brand": "USPS", "collection_times": "Mo-Fr 17:00; Sa 12:00", "name": "USPS COLLECTION BOX - PO LOBBY", "note": "ON 12/24 AND 12/31, THIS BOX MAY BE COLLECTED AS EARLY AS 12 NOON.", "ref": "3205400007"}, "type": "Feature"}
{"geometry": {"coordinates": [-82.339962243, 30.023893337], "type": "Point"}, "id": "gStgqzyR6MA68-wXMTql6g8vz2s=", "properties": {"@spider": "usps_collection_boxes", "addr:city": "LAKE BUTLER", "addr:country": "US", "addr:full": "215 NW 1ST ST", "addr:postcode": "32054", "addr:state": "FL", "brand": "USPS", "collection_times": "Mo-Fr 17:00; Sa 12:00", "name": "USPS COLLECTION BOX - PO LOBBY", "note": "ON 12/24 AND 12/31, THIS BOX MAY BE COLLECTED AS EARLY AS 12 NOON.", "ref": "3205400012"}, "type": "Feature"}
{"geometry": {"coordinates": [-82.663701943, 30.181142168], "type": "Point"}, "id": "TgQ86ze-Rk80QMi__rlEMZgeJaA=", "properties": {"@spider": "usps_collection_boxes", "addr:city": "LAKE CITY", "addr:country": "US", "addr:full": "255 NW COMMONS LOOP", "addr:postcode": "32055", "addr:state": "FL", "brand": "USPS", "collection_times": "Mo-Fr 16:00; Sa 14:15", "name": "USPS COLLECTION BOX - BLUE BOX", "note": "ON 12/24 AND 12/31, THIS BOX MAY BE COLLECTED AS EARLY AS 12 NOON.", "ref": "3205500016"}, "type": "Feature"}
{"geometry": {"coordinates": [-82.621538922, 30.189372523], "type": "Point"}, "id": "LFio97OxIaeyd2EEwydVgv6W4uI=", "properties": {"@spider": "usps_collection_boxes", "addr:city": "LAKE CITY", "addr:country": "US", "addr:full": "1036 E DUVAL ST", "addr:postcode": "32055", "addr:state": "FL", "brand": "USPS", "collection_times": "Mo-Sa 09:00", "name": "USPS COLLECTION BOX - BLUE BOX", "ref": "3205500018"}, "type": "Feature"}
{"geometry": {"coordinates": [-82.655531513, 30.184004006], "type": "Point"}, "id": "RvBLl093PTXniS0VSk6h8oB5IaI=", "properties": {"@spider": "usps_collection_boxes", "addr:city": "LAKE CITY", "addr:country": "US", "addr:full": "1350 W US HIGHWAY 90", "addr:postcode": "32055", "addr:state": "FL", "brand": "USPS", "collection_times": "Mo-Fr 16:00; Sa 10:45", "name": "USPS COLLECTION BOX - BLUE BOX", "note": "ON 12/24 AND 12/31, THIS BOX MAY BE COLLECTED AS EARLY AS 12 NOON.", "ref": "3205500022"}, "type": "Feature"}
{"geometry": {"coordinates": [-82.639562218, 30.191605921], "type": "Point"}, "id": "U_iYKBQzBuXS3ctiqjUluy7Xxv4=", "properties": {"@spider": "usps_collection_boxes", "addr:city": "LAKE CITY", "addr:country": "US", "addr:full": "250 NW MAIN BLVD", "addr:postcode": "32055", "addr:state": "FL", "brand": "USPS", "collection_times": "Mo-Sa 17:00", "name": "USPS COLLECTION BOX - BLUE BOX", "note": "ON 12/24 AND 12/31, THIS BOX MAY BE COLLECTED AS EARLY AS 12 NOON.", "ref": "3205500026"}, "type": "Feature"}
{"geometry": {"coordinates": [-82.639562218, 30.191605921], "type": "Point"}, "id": "pGmsx2I4YeOTzVzg6TLAVkgRXPc=", "properties": {"@spider": "usps_collection_boxes", "addr:city": "LAKE CITY", "addr:country": "US", "addr:full": "250 NW MAIN BLVD", "addr:postcode": "32055", "addr:state": "FL", "brand": "USPS", "collection_times": "Mo-Sa 17:00", "name": "USPS COLLECTION BOX - BLUE BOX", "note": "ON 12/24 AND 12/31, THIS BOX MAY BE COLLECTED AS EARLY AS 12 NOON.", "ref": "3205500027"}, "type": "Feature"}
{"geometry": {"coordinates": [-82.655966496, 30.183741977], "type": "Point"}, "id": "8ZhbQrVQeG65XYIfSUz5sf9dYIk=", "properties": {"@spider": "usps_collection_boxes", "addr:city": "LAKE CITY", "addr:country": "US", "addr:full": "1389 W US HIGHWAY 90", "addr:postcode": "32055", "addr:state": "FL", "brand": "USPS", "collection_times": "Mo-Fr 16:00; Sa 09:45", "name": "USPS COLLECTION BOX - BLUE BOX", "note": "ON 12/24 AND 12/31, THIS BOX MAY BE COLLECTED AS EARLY AS 12 NOON.", "ref": "3205500035"}, "type": "Feature"}
{"geometry": {"coordinates": [-82.677045894, 30.179904431], "type": "Point"}, "id": "6g0JsXT_0CGTs1omwccsGOtkxe8=", "properties": {"@spider": "usps_collection_boxes", "addr:city": "LAKE CITY", "addr:country": "US", "addr:full": "2767 W US HIGHWAY 90", "addr:postcode": "32055", "addr:state": "FL", "brand": "USPS", "collection_times": "Mo-Fr 16:15; Sa 12:30", "name": "USPS COLLECTION BOX - BLUE BOX", "note": "ON 12/24 AND 12/31, THIS BOX MAY BE COLLECTED AS EARLY AS 12 NOON.", "ref": "3205500046"}, "type": "Feature"}
{"geometry": {"coordinates": [-82.639562218, 30.191605921], "type": "Point"}, "id": "eFycuHqQpoLft1P3VBdEAw2pQmA=", "properties": {"@spider": "usps_collection_boxes", "addr:city": "LAKE CITY", "addr:country": "US", "addr:full": "250 NW MAIN BLVD", "addr:postcode": "32055", "addr:state": "FL", "brand": "USPS", "collection_times": "Mo-Sa 17:00", "name": "USPS COLLECTION BOX - PO LOBBY", "note": "ON 12/24 AND 12/31, THIS BOX MAY BE COLLECTED AS EARLY AS 12 NOON.", "ref": "3205500054"}, "type": "Feature"}
{"geometry": {"coordinates": [-82.684963891, 30.180457443], "type": "Point"}, "id": "zx93BsdE6Of_ICA2pmHq0544WNo=", "properties": {"@spider": "usps_collection_boxes", "addr:city": "LAKE CITY", "addr:country": "US", "addr:full": "3221 W US HIGHWAY 90", "addr:postcode": "32055", "addr:state": "FL", "brand": "USPS", "collection_times": "Mo-Fr 16:30; Sa 10:00", "name": "USPS COLLECTION BOX - BLUE BOX", "note": "ON 12/24 AND 12/31, THIS BOX MAY BE COLLECTED AS EARLY AS 12 NOON.", "ref": "3205500058"}, "type": "Feature"}
{"geometry": {"coordinates": [-82.6735300356, 30.1796124025], "type": "Point"}, "id": "GasjJSRJL2plPJiZYXKv4zzlIGo=", "properties": {"@spider": "usps_collection_boxes", "addr:city": "LAKE CITY", "addr:country": "US", "addr:full": "2533 W US HIGHWAY 90", "addr:postcode": "32055", "addr:state": "FL", "brand": "USPS", "collection_times": "Mo-Fr 16:45; Sa 14:15", "name": "USPS COLLECTION BOX - BLUE BOX", "note": "ON 12/24 AND 12/31, THIS BOX MAY BE COLLECTED AS EARLY AS 12 NOON.", "ref": "3205500064"}, "type": "Feature"}
{"geometry": {"coordinates": [-82.701940748, 30.181397036], "type": "Point"}, "id": "JPgnqTi1vhzW6xR_AkjgO23fYqI=", "properties": {"@spider": "usps_collection_boxes", "addr:city": "LAKE CITY", "addr:country": "US", "addr:full": "4243 W US HIGHWAY 90", "addr:postcode": "32055", "addr:state": "FL", "brand": "USPS", "collection_times": "Mo-Sa 11:30", "name": "USPS COLLECTION BOX - BLUE BOX", "ref": "3205500066"}, "type": "Feature"}
{"geometry": {"coordinates": [-82.637126217, 30.19103978], "type": "Point"}, "id": "p_ematBvIc7aXhXo8BajZlrtDtQ=", "properties": {"@spider": "usps_collection_boxes", "addr:city": "LAKE CITY", "addr:country": "US", "addr:full": "205 N MARION AVE", "addr:postcode": "32055", "addr:state": "FL", "brand": "USPS", "collection_times": "Mo-Fr 16:45; Sa 12:00", "name": "USPS COLLECTION BOX - BLUE BOX", "note": "ON 12/24 AND 12/31, THIS BOX MAY BE COLLECTED AS EARLY AS 12 NOON.", "ref": "3205500068"}, "type": "Feature"}
{"geometry": {"coordinates": [-82.639562218, 30.191605921], "type": "Point"}, "id": "0DCDRLxd8BBuHgY6sRkfz3O2zmk=", "properties": {"@spider": "usps_collection_boxes", "addr:city": "LAKE CITY", "addr:country": "US", "addr:full": "250 NW MAIN BLVD", "addr:postcode": "32055", "addr:state": "FL", "brand": "USPS", "collection_times": "Mo-Sa 17:00", "name": "USPS COLLECTION BOX - APC", "note": "ON 12/24 AND 12/31, THIS BOX MAY BE COLLECTED AS EARLY AS 12 NOON.", "ref": "3205500069"}, "type": "Feature"}
{"geometry": {"coordinates": [-82.639562218, 30.191605921], "type": "Point"}, "id": "wiZCXr5RT0WHTrrpuFUZqo1IxrQ=", "properties": {"@spider": "usps_collection_boxes", "addr:city": "LAKE CITY", "addr:country": "US", "addr:full": "250 NW MAIN BLVD", "addr:postcode": "32055", "addr:state": "FL", "brand": "USPS", "collection_times": "Mo-Sa 17:00", "name": "USPS COLLECTION BOX - PO LOBBY", "note": "ON 12/24 AND 12/31, THIS BOX MAY BE COLLECTED AS EARLY AS 12 NOON.", "ref": "3205500070"}, "type": "Feature"}
{"geometry": {"coordinates": [-82.639562218, 30.191605921], "type": "Point"}, "id": "rslwwSRpNDT_PXaIgcZR2q8O8x8=", "properties": {"@spider": "usps_collection_boxes", "addr:city": "LAKE CITY", "addr:country": "US", "addr:full": "250 NW MAIN BLVD", "addr:postcode": "32055", "addr:state": "FL", "brand": "USPS", "collection_times": "Mo-Sa 17:00", "name": "USPS COLLECTION BOX - PO LOBBY", "note": "ON 12/24 AND 12/31, THIS BOX MAY BE COLLECTED AS EARLY AS 12 NOON.", "ref": "3205500074"}, "type": "Feature"}
{"geometry": {"coordinates": [-83.306264246, 30.423113342], "type": "Point"}, "id": "DxHCf2IMzZLSQx86V2XJpfUGXOo=", "properties": {"@spider": "usps_collection_boxes", "addr:city": "LEE", "addr:country": "US", "addr:full": "7760 E US HIGHWAY 90", "addr:postcode": "32059", "addr:state": "FL", "brand": "USPS", "collection_times": "Mo-Fr 16:15; Sa 12:00", "name": "USPS COLLECTION BOX - PO LOBBY", "note": "ON 12/24 AND 12/31, THIS BOX MAY BE COLLECTED AS EARLY AS 12 NOON.", "ref": "3205900001"}, "type": "Feature"}
{"geometry": {"coordinates": [-83.306264246, 30.423113342], "type": "Point"}, "id": "iCdvVXHCrB7aacFVPxSDpEYa5bo=", "properties": {"@spider": "usps_collection_boxes", "addr:city": "LEE", "addr:country": "US", "addr:full": "7760 E US HIGHWAY 90", "addr:postcode": "32059", "addr:state": "FL", "brand": "USPS", "collection_times": "Mo-Fr 16:30; Sa 12:00", "name": "USPS COLLECTION BOX - BLUE BOX", "note": "ON 12/24 AND 12/31, THIS BOX MAY BE COLLECTED AS EARLY AS 12 NOON.", "ref": "3205900002"}, "type": "Feature"}
{"geometry": {"coordinates": [-83.306264246, 30.423113342], "type": "Point"}, "id": "SYOS5K5_HfJZsbIlU-Zz-DBsyqY=", "properties": {"@spider": "usps_collection_boxes", "addr:city": "LEE", "addr:country": "US", "addr:full": "7760 E US HIGHWAY 90", "addr:postcode": "32059", "addr:state": "FL", "brand": "USPS", "collection_times": "Mo-Fr 16:15; Sa 12:00", "name": "USPS COLLECTION BOX - PO LOBBY", "note": "ON 12/24 AND 12/31, THIS BOX MAY BE COLLECTED AS EARLY AS 12 NOON.", "ref": "3205900003"}, "type": "Feature"}
{"geometry": {"coordinates": [-83.306264246, 30.423113342], "type": "Point"}, "id": "89b6npxcKtRnC5np3GE6pkWJ60g=", "properties": {"@spider": "usps_collection_boxes", "addr:city": "LEE", "addr:country": "US", "addr:full": "7760 E US HIGHWAY 90", "addr:postcode": "32059", "addr:state": "FL", "brand": "USPS", "collection_times": "Mo-Fr 16:15; Sa 12:00", "name": "USPS COLLECTION BOX - PO LOBBY", "note": "ON 12/24 AND 12/31, THIS BOX MAY BE COLLECTED AS EARLY AS 12 NOON.", "ref": "3205900006"}, "type": "Feature"}
{"geometry": {"coordinates": [-82.966040663, 30.325484524], "type": "Point"}, "id": "BtaM8cixQh0apKymKmn3y8Q5BfU=", "properties": {"@spider": "usps_collection_boxes", "addr:city": "LIVE OAK", "addr:country": "US", "addr:full": "6858 US HIGHWAY 129", "addr:postcode": "32060", "addr:state": "FL", "brand": "USPS", "collection_times": "Mo-Fr 13:00; Sa 12:00", "name": "USPS COLLECTION BOX - BLUE BOX", "note": "ON 12/24 AND 12/31, THIS BOX MAY BE COLLECTED AS EARLY AS 12 NOON.", "ref": "3206000041"}, "type": "Feature"}
{"geometry": {"coordinates": [-82.951748425, 30.139237069], "type": "Point"}, "id": "DK3h1ozIRCq7-EnfRyeGiZJRPf8=", "properties": {"@spider": "usps_collection_boxes", "addr:city": "MCALPIN", "addr:country": "US", "addr:full": "17054 US HIGHWAY 129", "addr:postcode": "32062", "addr:state": "FL", "brand": "USPS", "collection_times": "Mo-Fr 16:45; Sa 11:30", "name": "USPS COLLECTION BOX - BLUE BOX", "note": "ON 12/24 AND 12/31, THIS BOX MAY BE COLLECTED AS EARLY AS 12 NOON.", "ref": "3206200000"}, "type": "Feature"}
{"geometry": {"coordinates": [-82.951748425, 30.139237069], "type": "Point"}, "id": "c93qg14GcMVGwUmgaNsQk-xldx0=", "properties": {"@spider": "usps_collection_boxes", "addr:city": "MCALPIN", "addr:country": "US", "addr:full": "17054 US HIGHWAY 129", "addr:postcode": "32062", "addr:state": "FL", "brand": "USPS", "collection_times": "Mo-Fr 16:45; Sa 11:30", "name": "USPS COLLECTION BOX - PO LOBBY", "note": "ON 12/24 AND 12/31, THIS BOX MAY BE COLLECTED AS EARLY AS 12 NOON.", "ref": "3206200001"}, "type": "Feature"}
{"geometry": {"coordinates": [-82.951748425, 30.139237069], "type": "Point"}, "id": "eutNjRKYgXipSUOiFOcte225cXs=", "properties": {"@spider": "usps_collection_boxes", "addr:city": "MCALPIN", "addr:country": "US", "addr:full": "17054 US HIGHWAY 129", "addr:postcode": "32062", "addr:state": "FL", "brand": "USPS", "collection_times": "Mo-Fr 16:45; Sa 11:30", "name": "USPS COLLECTION BOX - PO LOBBY", "note": "ON 12/24 AND 12/31, THIS BOX MAY BE COLLECTED AS EARLY AS 12 NOON.", "ref": "3206200003"}, "type": "Feature"}
{"geometry": {"coordinates": [-82.985698089, 30.293980428], "type": "Point"}, "id": "fSaLtttiCUZTrJYwTUzhblYm-0k=", "properties": {"@spider": "usps_collection_boxes", "addr:city": "LIVE OAK", "addr:country": "US", "addr:full": "400 OHIO AVE S", "addr:postcode": "32064", "addr:state": "FL", "brand": "USPS", "collection_times": "Mo-Fr 17:00; Sa 12:00", "name": "USPS COLLECTION BOX - BLUE BOX", "note": "ON 12/24 AND 12/31, THIS BOX MAY BE COLLECTED AS EARLY AS 12 NOON.", "ref": "3206400002"}, "type": "Feature"}
{"geometry": {"coordinates": [-82.985698089, 30.293980428], "type": "Point"}, "id": "WRri762omttaH7Q0-mrdJ37DSs0=", "properties": {"@spider": "usps_collection_boxes", "addr:city": "LIVE OAK", "addr:country": "US", "addr:full": "400 OHIO AVE S", "addr:postcode": "32064", "addr:state": "FL", "brand": "USPS", "collection_times": "Mo-Fr 17:00; Sa 12:00", "name": "USPS COLLECTION BOX - BLUE BOX", "note": "ON 12/24 AND 12/31, THIS BOX MAY BE COLLECTED AS EARLY AS 12 NOON.", "ref": "3206400003"}, "type": "Feature"}
{"geometry": {"coordinates": [-82.985698089, 30.293980428], "type": "Point"}, "id": "XXS8X-NSBsA7wpDcURiudahMB-w=", "properties": {"@spider": "usps_collection_boxes", "addr:city": "LIVE OAK", "addr:country": "US", "addr:full": "400 OHIO AVE S", "addr:postcode": "32064", "addr:state": "FL", "brand": "USPS", "collection_times": "Mo-Fr 17:00; Sa 12:00", "name": "USPS COLLECTION BOX - PO LOBBY", "note": "ON 12/24 AND 12/31, THIS BOX MAY BE COLLECTED AS EARLY AS 12 NOON.", "ref": "3206400004"}, "type": "Feature"}
{"geometry": {"coordinates": [-82.985698089, 30.293980428], "type": "Point"}, "id": "TbtjS-gUpvgasRb8FwSH4TLorNU=", "properties": {"@spider": "usps_collection_boxes", "addr:city": "LIVE OAK", "addr:country": "US", "addr:full": "400 OHIO AVE S", "addr:postcode": "32064", "addr:state": "FL", "brand": "USPS", "collection_times": "Mo-Fr 17:00; Sa 12:00", "name": "USPS COLLECTION BOX - PO LOBBY", "note": "ON 12/24 AND 12/31, THIS BOX MAY BE COLLECTED AS EARLY AS 12 NOON.", "ref": "3206400005"}, "type": "Feature"}
{"geometry": {"coordinates": [-82.985698089, 30.293980428], "type": "Point"}, "id": "xl4Hg0dbD2kvesFFZnXJxIzeWCk=", "properties": {"@spider": "usps_collection_boxes", "addr:city": "LIVE OAK", "addr:country": "US", "addr:full": "400 OHIO AVE S", "addr:postcode": "32064", "addr:state": "FL", "brand": "USPS", "collection_times": "Mo-Fr 17:00; Sa 12:00", "name": "USPS COLLECTION BOX - PO LOBBY", "note": "ON 12/24 AND 12/31, THIS BOX MAY BE COLLECTED AS EARLY AS 12 NOON.", "ref": "3206400006"}, "type": "Feature"}
{"geometry": {"coordinates": [-82.983909866, 30.296003762], "type": "Point"}, "id": "MN7tGrdhJoLfWS4ImahjivDWG5Y=", "properties": {"@spider": "usps_collection_boxes", "addr:city": "LIVE OAK", "addr:country": "US", "addr:full": "111 HOWARD ST E", "addr:postcode": "32064", "addr:state": "FL", "brand": "USPS", "collection_times": "Mo-Fr 15:00; Sa 12:00", "name": "USPS COLLECTION BOX - BLUE BOX", "note": "ON 12/24 AND 12/31, THIS BOX MAY BE COLLECTED AS EARLY AS 12 NOON.", "ref": "3206400007"}, "type": "Feature"}
{"geometry": {"coordinates": [-82.987759809, 30.282232966], "type": "Point"}, "id": "Cp7MLjT-ykRs-8o3c3AyF-JB1go=", "properties": {"@spider": "usps_collection_boxes", "addr:city": "LIVE OAK", "addr:country": "US", "addr:full": "1522 OHIO AVE S", "addr:postcode": "32064", "addr:state": "FL", "brand": "USPS", "collection_times": "Mo-Fr 13:00; Sa 12:00", "name": "USPS COLLECTION BOX - BLUE BOX", "note": "ON 12/24 AND 12/31, THIS BOX MAY BE COLLECTED AS EARLY AS 12 NOON.", "ref": "3206400008"}, "type": "Feature"}
{"geometry": {"coordinates": [-82.993345854, 30.290124354], "type": "Point"}, "id": "V6ZwzvSxor4RsDsdmeUZlLPeuA0=", "properties": {"@spider": "usps_collection_boxes", "addr:city": "LIVE OAK", "addr:country": "US", "addr:full": "500 11TH ST SW", "addr:postcode": "32064", "addr:state": "FL", "brand": "USPS", "collection_times": "Mo-Fr 13:00; Sa 12:00", "name": "USPS COLLECTION BOX - BLUE BOX", "note": "ON 12/24 AND 12/31, THIS BOX MAY BE COLLECTED AS EARLY AS 12 NOON.", "ref": "3206400009"}, "type": "Feature"}
{"geometry": {"coordinates": [-82.976196425, 30.309887082], "type": "Point"}, "id": "tzT0Ru9zEvhkFNAxvYCyCvvTwIw=", "properties": {"@spider": "usps_collection_boxes", "addr:city": "LIVE OAK", "addr:country": "US", "addr:full": "1429 OHIO AVE N", "addr:postcode": "32064", "addr:state": "FL", "brand": "USPS", "collection_times": "Mo-Fr 13:00; Sa 12:00", "name": "USPS COLLECTION BOX - BLUE BOX", "note": "ON 12/24 AND 12/31, THIS BOX MAY BE COLLECTED AS EARLY AS 12 NOON.", "ref": "3206400010"}, "type": "Feature"}
{"geometry": {"coordinates": [-83.007845308, 30.306689161], "type": "Point"}, "id": "sA0ZACHCJj66pV1gsRkTym_7SlY=", "properties": {"@spider": "usps_collection_boxes", "addr:city": "LIVE OAK", "addr:country": "US", "addr:full": "1841 HOWARD ST W", "addr:postcode": "32064", "addr:state": "FL", "brand": "USPS", "collection_times": "Mo-Fr 13:00; Sa 12:00", "name": "USPS COLLECTION BOX - BLUE BOX", "note": "ON 12/24 AND 12/31, THIS BOX MAY BE COLLECTED AS EARLY AS 12 NOON.", "ref": "3206400011"}, "type": "Feature"}
{"geometry": {"coordinates": [-82.984796993, 30.295514535], "type": "Point"}, "id": "ibFUfFkk3G_UtJR6gxVaB1GcD8M=", "properties": {"@spider": "usps_collection_boxes", "addr:city": "LIVE OAK", "addr:country": "US", "addr:full": "200 OHIO AVE S", "addr:postcode": "32064", "addr:state": "FL", "brand": "USPS", "collection_times": "Mo-Fr 15:00; Sa 12:00", "name": "USPS COLLECTION BOX - BLUE BOX", "note": "ON 12/24 AND 12/31, THIS BOX MAY BE COLLECTED AS EARLY AS 12 NOON.", "ref": "3206400012"}, "type": "Feature"}
{"geometry": {"coordinates": [-82.985698089, 30.293980428], "type": "Point"}, "id": "kIph3vV2U1D0Unbt60_9Qupsato=", "properties": {"@spider": "usps_collection_boxes", "addr:city": "LIVE OAK", "addr:country": "US", "addr:full": "400 OHIO AVE S", "addr:postcode": "32064", "addr:state": "FL", "brand": "USPS", "collection_times": "Mo-Fr 17:00; Sa 12:00", "name": "USPS COLLECTION BOX - PO LOBBY", "note": "ON 12/24 AND 12/31, THIS BOX MAY BE COLLECTED AS EARLY AS 12 NOON.", "ref": "3206400014"}, "type": "Feature"}
{"geometry": {"coordinates": [-83.1742695, 30.053067526], "type": "Point"}, "id": "Uas8AK4Fod0Dc9CyessdkLVfDNc=", "properties": {"@spider": "usps_collection_boxes", "addr:city": "MAYO", "addr:country": "US", "addr:full": "157 E MAIN ST", "addr:postcode": "32066", "addr:state": "FL", "brand": "USPS", "collection_times": "Mo-Fr 16:30; Sa 12:00", "name": "USPS COLLECTION BOX - BLUE BOX", "note": "ON 12/24 AND 12/31, THIS BOX MAY BE COLLECTED AS EARLY AS 12 NOON.", "ref": "3206600000"}, "type": "Feature"}
{"geometry": {"coordinates": [-83.1742695, 30.053067526], "type": "Point"}, "id": "2U646-QQW5J48WxdIFPupnl9QY0=", "properties": {"@spider": "usps_collection_boxes", "addr:city": "MAYO", "addr:country": "US", "addr:full": "157 E MAIN ST", "addr:postcode": "32066", "addr:state": "FL", "brand": "USPS", "collection_times": "Mo-Fr 16:30; Sa 12:00", "name": "USPS COLLECTION BOX - PO LOBBY", "note": "ON 12/24 AND 12/31, THIS BOX MAY BE COLLECTED AS EARLY AS 12 NOON.", "ref": "3206600002"}, "type": "Feature"}
{"geometry": {"coordinates": [-83.1742695, 30.053067526], "type": "Point"}, "id": "bR_w-JjHATlI4a_O5SkzAY7Pj98=", "properties": {"@spider": "usps_collection_boxes", "addr:city": "MAYO", "addr:country": "US", "addr:full": "157 E MAIN ST", "addr:postcode": "32066", "addr:state": "FL", "brand": "USPS", "collection_times": "Mo-Fr 16:30; Sa 12:00", "name": "USPS COLLECTION BOX - PO LOBBY", "note": "ON 12/24 AND 12/31, THIS BOX MAY BE COLLECTED AS EARLY AS 12 NOON.", "ref": "3206600003"}, "type": "Feature"}
{"geometry": {"coordinates": [-83.1742695, 30.053067526], "type": "Point"}, "id": "QM4hCkM3yFzQek8iuGNt22_7lbQ=", "properties": {"@spider": "usps_collection_boxes", "addr:city": "MAYO", "addr:country": "US", "addr:full": "157 E MAIN ST", "addr:postcode": "32066", "addr:state": "FL", "brand": "USPS", "collection_times": "Mo-Fr 16:30; Sa 12:00", "name": "USPS COLLECTION BOX - PO LOBBY", "note": "ON 12/24 AND 12/31, THIS BOX MAY BE COLLECTED AS EARLY AS 12 NOON.", "ref": "3206600005"}, "type": "Feature"}
{"geometry": {"coordinates": [-82.940290019, 30.037507397], "type": "Point"}, "id": "YJh60oSBLsA9BXWM2t7YxOOKq_8=", "properties": {"@spider": "usps_collection_boxes", "addr:city": "OBRIEN", "addr:country": "US", "addr:full": "22654 US HIGHWAY 129", "addr:postcode": "32071", "addr:state": "FL", "brand": "USPS", "collection_times": "Mo-Sa 16:00", "name": "USPS COLLECTION BOX - BLUE BOX", "note": "ON 12/24 AND 12/31, THIS BOX MAY BE COLLECTED AS EARLY AS 12 NOON.", "ref": "3207100000"}, "type": "Feature"}
{"geometry": {"coordinates": [-82.940290019, 30.037507397], "type": "Point"}, "id": "bEbk2LTSoYYx_de_NziwrjJlEEE=", "properties": {"@spider": "usps_collection_boxes", "addr:city": "OBRIEN", "addr:country": "US", "addr:full": "22654 US HIGHWAY 129", "addr:postcode": "32071", "addr:state": "FL", "brand": "USPS", "collection_times": "Mo-Sa 16:00", "name": "USPS COLLECTION BOX - PO LOBBY", "note": "ON 12/24 AND 12/31, THIS BOX MAY BE COLLECTED AS EARLY AS 12 NOON.", "ref": "3207100001"}, "type": "Feature"}
{"geometry": {"coordinates": [-82.940290019, 30.037507397], "type": "Point"}, "id": "QsJO5oCPUME6KAw919wGnznj8dw=", "properties": {"@spider": "usps_collection_boxes", "addr:city": "OBRIEN", "addr:country": "US", "addr:full": "22654 US HIGHWAY 129", "addr:postcode": "32071", "addr:state": "FL", "brand": "USPS", "collection_times": "Mo-Sa 16:00", "name": "USPS COLLECTION BOX - PO LOBBY", "note": "ON 12/24 AND 12/31, THIS BOX MAY BE COLLECTED AS EARLY AS 12 NOON.", "ref": "3207100002"}, "type": "Feature"}
{"geometry": {"coordinates": [-82.940290019, 30.037507397], "type": "Point"}, "id": "IRD01EukMoALXnQVItlwmvgmHuI=", "properties": {"@spider": "usps_collection_boxes", "addr:city": "OBRIEN", "addr:country": "US", "addr:full": "22654 US HIGHWAY 129", "addr:postcode": "32071", "addr:state": "FL", "brand": "USPS", "collection_times": "Mo-Sa 16:00", "name": "USPS COLLECTION BOX - PO LOBBY", "note": "ON 12/24 AND 12/31, THIS BOX MAY BE COLLECTED AS EARLY AS 12 NOON.", "ref": "3207100004"}, "type": "Feature"}
{"geometry": {"coordinates": [-82.429106076, 30.204324547], "type": "Point"}, "id": "8rqr2Jzwq633O-0nz6-hh3V_jSg=", "properties": {"@spider": "usps_collection_boxes", "addr:city": "SANDERSON", "addr:country": "US", "addr:full": "24116 US HIGHWAY 90", "addr:postcode": "32087", "addr:state": "FL", "brand": "USPS", "collection_times": "Mo-Sa 09:30", "name": "USPS COLLECTION BOX - BLUE BOX", "ref": "3208700002"}, "type": "Feature"}
{"geometry": {"coordinates": [-82.820327722, 30.230610465], "type": "Point"}, "id": "M2xSRzkkf9_zC0d9b41hhn-lXhc=", "properties": {"@spider": "usps_collection_boxes", "addr:city": "WELLBORN", "addr:country": "US", "addr:full": "12096 COUNTY ROAD 137", "addr:postcode": "32094", "addr:state": "FL", "brand": "USPS", "collection_times": "Mo-Fr 16:30; Sa 11:30", "name": "USPS COLLECTION BOX - BLUE BOX", "note": "ON 12/24 AND 12/31, THIS BOX MAY BE COLLECTED AS EARLY AS 12 NOON.", "ref": "3209400001"}, "type": "Feature"}
{"geometry": {"coordinates": [-82.820327722, 30.230610465], "type": "Point"}, "id": "4yiDyUCQMsM66jb5U8RLYtH_TC8=", "properties": {"@spider": "usps_collection_boxes", "addr:city": "WELLBORN", "addr:country": "US", "addr:full": "12096 COUNTY ROAD 137", "addr:postcode": "32094", "addr:state": "FL", "brand": "USPS", "collection_times": "Mo-Fr 16:30; Sa 11:30", "name": "USPS COLLECTION BOX - PO LOBBY", "note": "ON 12/24 AND 12/31, THIS BOX MAY BE COLLECTED AS EARLY AS 12 NOON.", "ref": "3209400002"}, "type": "Feature"}
{"geometry": {"coordinates": [-82.820327722, 30.230610465], "type": "Point"}, "id": "W680AfW1jw5srEIFmD1JhxUjdRs=", "properties": {"@spider": "usps_collection_boxes", "addr:city": "WELLBORN", "addr:country": "US", "addr:full": "12096 COUNTY ROAD 137", "addr:postcode": "32094", "addr:state": "FL", "brand": "USPS", "collection_times": "Mo-Fr 16:30; Sa 11:30", "name": "USPS COLLECTION BOX - PO LOBBY", "note": "ON 12/24 AND 12/31, THIS BOX MAY BE COLLECTED AS EARLY AS 12 NOON.", "ref": "3209400004"}, "type": "Feature"}
{"geometry": {"coordinates": [-82.757838274, 30.329784485], "type": "Point"}, "id": "MxBQJt50_ybzJL95AbvMFTCTOBs=", "properties": {"@spider": "usps_collection_boxes", "addr:city": "WHITE SPRINGS", "addr:country": "US", "addr:full": "16555 SPRING ST", "addr:postcode": "32096", "addr:state": "FL", "brand": "USPS", "collection_times": "Mo-Fr 16:30; Sa 09:00", "name": "USPS COLLECTION BOX - BLUE BOX", "note": "ON 12/24 AND 12/31, THIS BOX MAY BE COLLECTED AS EARLY AS 12 NOON.", "ref": "3209600000"}, "type": "Feature"}
{"geometry": {"coordinates": [-82.757838274, 30.329784485], "type": "Point"}, "id": "zzoKNjkT3FVKllBYhb583fB52Sg=", "properties": {"@spider": "usps_collection_boxes", "addr:city": "WHITE SPRINGS", "addr:country": "US", "addr:full": "16555 SPRING ST", "addr:postcode": "32096", "addr:state": "FL", "brand": "USPS", "collection_times": "Mo-Fr 16:30; Sa 09:00", "name": "USPS COLLECTION BOX - PO LOBBY", "note": "ON 12/24 AND 12/31, THIS BOX MAY BE COLLECTED AS EARLY AS 12 NOON.", "ref": "3209600001"}, "type": "Feature"}
{"geometry": {"coordinates": [-82.757838274, 30.329784485], "type": "Point"}, "id": "SYFMIbgt4A0EB8oClEjzATg8jdA=", "properties": {"@spider": "usps_collection_boxes", "addr:city": "WHITE SPRINGS", "addr:country": "US", "addr:full": "16555 SPRING ST", "addr:postcode": "32096", "addr:state": "FL", "brand": "USPS", "collection_times": "Mo-Fr 16:30; Sa 09:00", "name": "USPS COLLECTION BOX - PO LOBBY", "note": "ON 12/24 AND 12/31, THIS BOX MAY BE COLLECTED AS EARLY AS 12 NOON.", "ref": "3209600003"}, "type": "Feature"}
