{"geometry": {"coordinates": [-81.5350725, 29.16288], "type": "Point"}, "id": "njFxYI9EgsBYUaylAiugadGjyAU=", "properties": {"@spider": "usps_collection_boxes", "addr:city": "ASTOR", "addr:country": "US", "addr:full": "24433 STATE ROAD 40", "addr:postcode": "32102", "addr:state": "FL", "brand": "USPS", "collection_times": "Mo-Fr 16:30; Sa 12:00", "name": "USPS COLLECTION BOX - PO LOBBY", "note": "ON 12/24 AND 12/31, THIS BOX MAY BE COLLECTED AS EARLY AS 12 NOON.", "ref": "3210200001"}, "type": "Feature"}
{"geometry": {"coordinates": [-81.5350725, 29.16288], "type": "Point"}, "id": "8z0i-c5hf1ec7G_TZkhz1y0xHq4=", "properties": {"@spider": "usps_collection_boxes", "addr:city": "ASTOR", "addr:country": "US", "addr:full": "24433 STATE ROAD 40", "addr:postcode": "32102", "addr:state": "FL", "brand": "USPS", "collection_times": "Mo-Fr 16:30; Sa 12:00", "name": "USPS COLLECTION BOX - PO LOBBY", "note": "ON 12/24 AND 12/31, THIS BOX MAY BE COLLECTED AS EARLY AS 12 NOON.", "ref": "3210200002"}, "type": "Feature"}
{"geometry": {"coordinates": [-81.535021502, 29.162536457], "type": "Point"}, "id": "qTENwgxA2ijkYfxBkX7Mo58XZHw=", "properties": {"@spider": "usps_collection_boxes", "addr:city": "ASTOR", "addr:country": "US", "addr:full": "24433 STATE ROAD 40", "addr:postcode": "32102", "addr:state": "FL", "brand": "USPS", "collection_times": "Mo-Fr 16:30; Sa 12:00", "name": "USPS COLLECTION BOX - BLUE BOX", "note": "ON 12/24 AND 12/31, THIS BOX MAY BE COLLECTED AS EARLY AS 12 NOON.", "ref": "3210200004"}, "type": "Feature"}
{"geometry": {"coordinates": [-81.5350725, 29.16288], "type": "Point"}, "id": "rAUOiZOtceq4Eg2B8PCh6EKCYfw=", "properties": {"@spider": "usps_collection_boxes", "addr:city": "ASTOR", "addr:country": "US", "addr:full": "24433 STATE ROAD 40", "addr:postcode": "32102", "addr:state": "FL", "brand": "USPS", "collection_times": "Mo-Fr 16:30; Sa 12:00", "name": "USPS COLLECTION BOX - PO LOBBY", "note": "ON 12/24 AND 12/31, THIS BOX MAY BE COLLECTED AS EARLY AS 12 NOON.", "ref": "3210200005"}, "type": "Feature"}
{"geometry": {"coordinates": [-81.421895755, 29.187264248], "type": "Point"}, "id": "hQcw8rlMi2OGjqCblCNgaXy8urI=", "properties": {"@spider": "usps_collection_boxes", "addr:city": "BARBERVILLE", "addr:country": "US", "addr:full": "1680 RAILROAD AVE", "addr:postcode": "32105", "addr:state": "FL", "brand": "USPS", "collection_times": "Mo-Fr 16:15; Sa 13:15", "name": "USPS COLLECTION BOX - PO LOBBY", "note": "ON 12/24 AND 12/31, THIS BOX MAY BE COLLECTED AS EARLY AS 12 NOON.", "ref": "3210500000"}, "type": "Feature"}
{"geometry": {"coordinates": [-81.421895755, 29.187264248], "type": "Point"}, "id": "LtT86_6HVf-0qyX8IKi7z_zu0JA=", "properties": {"@spider": "usps_collection_boxes", "addr:city": "BARBERVILLE", "addr:country": "US", "addr:full": "1680 RAILROAD AVE", "addr:postcode": "32105", "addr:state": "FL", "brand": "USPS", "collection_times": "Mo-Fr 16:15; Sa 13:15", "name": "USPS COLLECTION BOX - BLUE BOX", "note": "ON 12/24 AND 12/31, THIS BOX MAY BE COLLECTED AS EARLY AS 12 NOON.", "ref": "3210500001"}, "type": "Feature"}
{"geometry": {"coordinates": [-81.421895755, 29.187264248], "type": "Point"}, "id": "AcviIL_mN1-sqpheZnavtEUyJOE=", "properties": {"@spider": "usps_collection_boxes", "addr:city": "BARBERVILLE", "addr:country": "US", "addr:full": "1680 RAILROAD AVE", "addr:postcode": "32105", "addr:state": "FL", "brand": "USPS", "collection_times": "Mo-Fr 16:15; Sa 13:15", "name": "USPS COLLECTION BOX - PO LOBBY", "note": "ON 12/24 AND 12/31, THIS BOX MAY BE COLLECTED AS EARLY AS 12 NOON.", "ref": "3210500002"}, "type": "Feature"}
{"geometry": {"coordinates": [-81.421895755, 29.187264248], "type": "Point"}, "id": "ba_CuXwwtol1BYj4uIcMonBwTnU=", "properties": {"@spider": "usps_collection_boxes", "addr:city": "BARBERVILLE", "addr:country": "US", "addr:full": "1680 RAILROAD AVE", "addr:postcode": "32105", "addr:state": "FL", "brand": "USPS", "collection_times": "Mo-Fr 16:00", "name": "USPS COLLECTION BOX - PO LOBBY", "note": "ON 12/24 AND 12/31, THIS BOX MAY BE COLLECTED AS EARLY AS 12 NOON.", "ref": "3210500003"}, "type": "Feature"}
{"geometry": {"coordinates": [-81.96758, 29.0713], "type": "Point"}, "id": "5xSXdv9WFTnSTGgOuRI3_F5rT5M=", "properties": {"@spider": "usps_collection_boxes", "addr:city": "CANDLER", "addr:country": "US", "addr:full": "10801 SE 110TH STREET RD", "addr:postcode": "32111", "addr:state": "FL", "brand": "USPS", "collection_times": "Mo-Fr 16:30; Sa 12:00", "name": "USPS COLLECTION BOX - BLUE BOX", "note": "ON 12/24 AND 12/31, THIS BOX MAY BE COLLECTED AS EARLY AS 12 NOON.", "ref": "3211100001"}, "type": "Feature"}
{"geometry": {"coordinates": [-81.96758, 29.0713], "type": "Point"}, "id": "Ifg3CgRAYxmTsi5-VDWq8agK5Bg=", "properties": {"@spider": "usps_collection_boxes", "addr:city": "CANDLER", "addr:country": "US", "addr:full": "10801 SE 110TH STREET RD", "addr:postcode": "32111", "addr:state": "FL", "brand": "USPS", "collection_times": "Mo-Fr 16:30; Sa 12:00", "name": "USPS COLLECTION BOX - PO LOBBY", "note": "ON 12/24 AND 12/31, THIS BOX MAY BE COLLECTED AS EARLY AS 12 NOON.", "ref": "3211100003"}, "type": "Feature"}
{"geometry": {"coordinates": [-81.96758, 29.0713], "type": "Point"}, "id": "nCn1iTVjwESLQHGMstkS_UL-H_c=", "properties": {"@spider": "usps_collection_boxes", "addr:city": "CANDLER", "addr:country": "US", "addr:full": "10801 SE 110TH STREET RD", "addr:postcode": "32111", "addr:state": "FL", "brand": "USPS", "collection_times": "Mo-Fr 16:30; Sa 12:00", "name": "USPS COLLECTION BOX - PO LOBBY", "note": "ON 12/24 AND 12/31, THIS BOX MAY BE COLLECTED AS EARLY AS 12 NOON.", "ref": "3211100004"}, "type": "Feature"}
{"geometry": {"coordinates": [-81.96758, 29.0713], "type": "Point"}, "id": "PsVzBEgVfoac0RPmUhgl3Zclm3I=", "properties": {"@spider": "usps_collection_boxes", "addr:city": "CANDLER", "addr:country": "US", "addr:full": "10801 SE 110TH STREET RD", "addr:postcode": "32111", "addr:state": "FL", "brand": "USPS", "collection_times": "Mo-Fr 16:30; Sa 12:00", "name": "USPS COLLECTION BOX - PO LOBBY", "note": "ON 12/24 AND 12/31, THIS BOX MAY BE COLLECTED AS EARLY AS 12 NOON.", "ref": "3211100005"}, "type": "Feature"}
{"geometry": {"coordinates": [-82.109209804, 29.416584492], "type": "Point"}, "id": "51nEiRM-NpPBCxjCQE_PMlW6fOQ=", "properties": {"@spider": "usps_collection_boxes", "addr:city": "CITRA", "addr:country": "US", "addr:full": "2250 E HIGHWAY 318", "addr:postcode": "32113", "addr:state": "FL", "brand": "USPS", "collection_times": "Mo-Fr 16:00; Sa 12:00", "name": "USPS COLLECTION BOX - BLUE BOX", "note": "ON 12/24 AND 12/31, THIS BOX MAY BE COLLECTED AS EARLY AS 12 NOON.", "ref": "3211300000"}, "type": "Feature"}
{"geometry": {"coordinates": [-82.109209804, 29.416584492], "type": "Point"}, "id": "8Mne0H0GYItFyzGCyhHkrOu-Tuc=", "properties": {"@spider": "usps_collection_boxes", "addr:city": "CITRA", "addr:country": "US", "addr:full": "2250 E HIGHWAY 318", "addr:postcode": "32113", "addr:state": "FL", "brand": "USPS", "collection_times": "Mo-Fr 16:00; Sa 12:00", "name": "USPS COLLECTION BOX - PO LOBBY", "note": "ON 12/24 AND 12/31, THIS BOX MAY BE COLLECTED AS EARLY AS 12 NOON.", "ref": "3211300001"}, "type": "Feature"}
{"geometry": {"coordinates": [-82.109209804, 29.416584492], "type": "Point"}, "id": "Y_hHgfgFaaJOFO576jjWkXrlq-U=", "properties": {"@spider": "usps_collection_boxes", "addr:city": "CITRA", "addr:country": "US", "addr:full": "2250 E HIGHWAY 318", "addr:postcode": "32113", "addr:state": "FL", "brand": "USPS", "collection_times": "Mo-Fr 16:00; Sa 12:00", "name": "USPS COLLECTION BOX - PO LOBBY", "note": "ON 12/24 AND 12/31, THIS BOX MAY BE COLLECTED AS EARLY AS 12 NOON.", "ref": "3211300003"}, "type": "Feature"}
{"geometry": {"coordinates": [-82.109209804, 29.416584492], "type": "Point"}, "id": "DqVrFyYlQBwurUKezYeAV9KLvhU=", "properties": {"@spider": "usps_collection_boxes", "addr:city": "CITRA", "addr:country": "US", "addr:full": "2250 E HIGHWAY 318", "addr:postcode": "32113", "addr:state": "FL", "brand": "USPS", "collection_times": "Mo-Fr 16:00; Sa 12:00", "name": "USPS COLLECTION BOX - PO LOBBY", "note": "ON 12/24 AND 12/31, THIS BOX MAY BE COLLECTED AS EARLY AS 12 NOON.", "ref": "3211300005"}, "type": "Feature"}
{"geometry": {"coordinates": [-81.35311944, 29.123811658], "type": "Point"}, "id": "THpIjS4xKnaN7PGmof_UbFCshUY=", "properties": {"@spider": "usps_collection_boxes", "addr:city": "DELEON SPRINGS", "addr:country": "US", "addr:full": "155 PONCE DELEON BLVD", "addr:postcode": "32130", "addr:state": "FL", "brand": "USPS", "collection_times": "Mo-Fr 16:30; Sa 12:00", "name": "USPS COLLECTION BOX - BLUE BOX", "note": "ON 12/24 AND 12/31, THIS BOX MAY BE COLLECTED AS EARLY AS 12 NOON.", "ref": "3213000000"}, "type": "Feature"}
{"geometry": {"coordinates": [-81.35311944, 29.123811658], "type": "Point"}, "id": "yOxDhKhJuQeenKo9uEPCuazNSdg=", "properties": {"@spider": "usps_collection_boxes", "addr:city": "DELEON SPRINGS", "addr:country": "US", "addr:full": "155 PONCE DELEON BLVD", "addr:postcode": "32130", "addr:state": "FL", "brand": "USPS", "collection_times": "Mo-Fr 16:30; Sa 12:00", "name": "USPS COLLECTION BOX - PO LOBBY", "note": "ON 12/24 AND 12/31, THIS BOX MAY BE COLLECTED AS EARLY AS 12 NOON.", "ref": "3213000001"}, "type": "Feature"}
{"geometry": {"coordinates": [-81.35311944, 29.123811658], "type": "Point"}, "id": "mDpI4b9_xt7BSgir29CmOQG0c7o=", "properties": {"@spider": "usps_collection_boxes", "addr:city": "DELEON SPRINGS", "addr:country": "US", "addr:full": "155 PONCE DELEON BLVD", "addr:postcode": "32130", "addr:state": "FL", "brand": "USPS", "collection_times": "Mo-Fr 16:30; Sa 12:00", "name": "USPS COLLECTION BOX - PO LOBBY", "note": "ON 12/24 AND 12/31, THIS BOX MAY BE COLLECTED AS EARLY AS 12 NOON.", "ref": "3213000002"}, "type": "Feature"}
{"geometry": {"coordinates": [-81.35311944, 29.123811658], "type": "Point"}, "id": "oAWiNoqvVpdrZ5tb-BXJ0rK4BjY=", "properties": {"@spider": "usps_collection_boxes", "addr:city": "DELEON SPRINGS", "addr:country": "US", "addr:full": "155 PONCE DELEON BLVD", "addr:postcode": "32130", "addr:state": "FL", "brand": "USPS", "collection_times": "Mo-Fr 16:30; Sa 12:00", "name": "USPS COLLECTION BOX - PO LOBBY", "note": "ON 12/24 AND 12/31, THIS BOX MAY BE COLLECTED AS EARLY AS 12 NOON.", "ref": "3213000004"}, "type": "Feature"}
{"geometry": {"coordinates": [-81.908420586, 29.021247], "type": "Point"}, "id": "a-_gfvQ9-IMQAejvFetBZ2DPNu4=", "properties": {"@spider": "usps_collection_boxes", "addr:city": "EASTLAKE WEIR", "addr:country": "US", "addr:full": "13803 S HIGHWAY 25", "addr:postcode": "32133", "addr:state": "FL", "brand": "USPS", "collection_times": "Mo-Fr 16:15; Sa 09:00", "name": "USPS COLLECTION BOX - BLUE BOX", "note": "ON 12/24 AND 12/31, THIS BOX MAY BE COLLECTED AS EARLY AS 12 NOON.", "ref": "3213300000"}, "type": "Feature"}
{"geometry": {"coordinates": [-81.908420586, 29.021247], "type": "Point"}, "id": "ITlrfubWz5fIMRBHcXR5pxkQ5f8=", "properties": {"@spider": "usps_collection_boxes", "addr:city": "EASTLAKE WEIR", "addr:country": "US", "addr:full": "13803 S HIGHWAY 25", "addr:postcode": "32133", "addr:state": "FL", "brand": "USPS", "collection_times": "Mo-Fr 16:15; Sa 09:00", "name": "USPS COLLECTION BOX - PO LOBBY", "note": "ON 12/24 AND 12/31, THIS BOX MAY BE COLLECTED AS EARLY AS 12 NOON.", "ref": "3213300001"}, "type": "Feature"}
{"geometry": {"coordinates": [-81.908420586, 29.021247], "type": "Point"}, "id": "JzBxg3ouMci6eoRRzdq7Tktyty4=", "properties": {"@spider": "usps_collection_boxes", "addr:city": "EASTLAKE WEIR", "addr:country": "US", "addr:full": "13803 S HIGHWAY 25", "addr:postcode": "32133", "addr:state": "FL", "brand": "USPS", "collection_times": "Mo-Fr 16:30", "name": "USPS COLLECTION BOX - PO LOBBY", "note": "ON 12/24 AND 12/31, THIS BOX MAY BE COLLECTED AS EARLY AS 12 NOON.", "ref": "3213300002"}, "type": "Feature"}
{"geometry": {"coordinates": [-81.967407438, 29.366927696], "type": "Point"}, "id": "QumWuh_aqr92EU3YOrsJ6NA_L8E=", "properties": {"@spider": "usps_collection_boxes", "addr:city": "FT MC COY", "addr:country": "US", "addr:full": "14945 NE HIGHWAY 315", "addr:postcode": "32134", "addr:state": "FL", "brand": "USPS", "collection_times": "Mo-Fr 15:30; Sa 12:00", "name": "USPS COLLECTION BOX - BLUE BOX", "note": "ON 12/24 AND 12/31, THIS BOX MAY BE COLLECTED AS EARLY AS 12 NOON.", "ref": "3213400000"}, "type": "Feature"}
{"geometry": {"coordinates": [-81.967407438, 29.366927696], "type": "Point"}, "id": "fIEZV1utcihqRQk9hFhesSuUE1s=", "properties": {"@spider": "usps_collection_boxes", "addr:city": "FT MC COY", "addr:country": "US", "addr:full": "14945 NE HIGHWAY 315", "addr:postcode": "32134", "addr:state": "FL", "brand": "USPS", "collection_times": "Mo-Fr 15:30; Sa 12:00", "name": "USPS COLLECTION BOX - PO LOBBY", "note": "ON 12/24 AND 12/31, THIS BOX MAY BE COLLECTED AS EARLY AS 12 NOON.", "ref": "3213400001"}, "type": "Feature"}
{"geometry": {"coordinates": [-81.7352795, 29.358721582], "type": "Point"}, "id": "Y1zGFVRPJa1ZHjSXgLhx6XVFGfo=", "properties": {"@spider": "usps_collection_boxes", "addr:city": "FT MC COY", "addr:country": "US", "addr:full": "14100 N HIGHWAY 19", "addr:postcode": "32134", "addr:state": "FL", "brand": "USPS", "collection_times": "Mo-Fr 15:00; Sa 12:00", "name": "USPS COLLECTION BOX - BLUE BOX", "note": "ON 12/24 AND 12/31, THIS BOX MAY BE COLLECTED AS EARLY AS 12 NOON.", "ref": "3213400002"}, "type": "Feature"}
{"geometry": {"coordinates": [-81.967407438, 29.366927696], "type": "Point"}, "id": "wrsw2t3rkelJDuNGthfjb8jYs7o=", "properties": {"@spider": "usps_collection_boxes", "addr:city": "FT MC COY", "addr:country": "US", "addr:full": "14945 NE HIGHWAY 315", "addr:postcode": "32134", "addr:state": "FL", "brand": "USPS", "collection_times": "Mo-Fr 16:00; Sa 12:00", "name": "USPS COLLECTION BOX - PO LOBBY", "note": "ON 12/24 AND 12/31, THIS BOX MAY BE COLLECTED AS EARLY AS 12 NOON.", "ref": "3213400005"}, "type": "Feature"}
{"geometry": {"coordinates": [-81.638081401, 29.390098026], "type": "Point"}, "id": "DO9-VDxbA-vp5pOldIZ3d3kSW7w=", "properties": {"@spider": "usps_collection_boxes", "addr:city": "GEORGETOWN", "addr:country": "US", "addr:full": "1441 COUNTY ROAD 309", "addr:postcode": "32139", "addr:state": "FL", "brand": "USPS", "collection_times": "Mo-Fr 15:45; Sa 11:15", "name": "USPS COLLECTION BOX - BLUE BOX", "note": "ON 12/24 AND 12/31, THIS BOX MAY BE COLLECTED AS EARLY AS 12 NOON.", "ref": "3213900000"}, "type": "Feature"}
{"geometry": {"coordinates": [-81.638081401, 29.390098026], "type": "Point"}, "id": "2hJbTvgusVGN61ed4syhdYKrJB0=", "properties": {"@spider": "usps_collection_boxes", "addr:city": "GEORGETOWN", "addr:country": "US", "addr:full": "1441 COUNTY ROAD 309", "addr:postcode": "32139", "addr:state": "FL", "brand": "USPS", "collection_times": "Mo-Fr 15:45; Sa 11:15", "name": "USPS COLLECTION BOX - PO LOBBY", "note": "ON 12/24 AND 12/31, THIS BOX MAY BE COLLECTED AS EARLY AS 12 NOON.", "ref": "3213900001"}, "type": "Feature"}
{"geometry": {"coordinates": [-81.638081401, 29.390098026], "type": "Point"}, "id": "qnDhCsv_jXPyiCCKMQsD80AJokk=", "properties": {"@spider": "usps_collection_boxes", "addr:city": "GEORGETOWN", "addr:country": "US", "addr:full": "1441 COUNTY ROAD 309", "addr:postcode": "32139", "addr:state": "FL", "brand": "USPS", "collection_times": "Mo-Fr 15:45; Sa 11:15", "name": "USPS COLLECTION BOX - PO LOBBY", "note": "ON 12/24 AND 12/31, THIS BOX MAY BE COLLECTED AS EARLY AS 12 NOON.", "ref": "3213900003"}, "type": "Feature"}
{"geometry": {"coordinates": [-81.638081401, 29.390098026], "type": "Point"}, "id": "dZbSvf6sXbqHxjcAjPj5ofi6Oag=", "properties": {"@spider": "usps_collection_boxes", "addr:city": "GEORGETOWN", "addr:country": "US", "addr:full": "1441 COUNTY ROAD 309", "addr:postcode": "32139", "addr:state": "FL", "brand": "USPS", "collection_times": "Mo-Fr 16:00; Sa 11:30", "name": "USPS COLLECTION BOX - PO LOBBY", "note": "ON 12/24 AND 12/31, THIS BOX MAY BE COLLECTED AS EARLY AS 12 NOON.", "ref": "3213900005"}, "type": "Feature"}
{"geometry": {"coordinates": [-81.926651233, 28.93406154], "type": "Point"}, "id": "JoiYwqrZoPWDGROToBjRWREl8w8=", "properties": {"@spider": "usps_collection_boxes", "addr:city": "LADY LAKE", "addr:country": "US", "addr:full": "850 TEAGUE TRL", "addr:postcode": "32159", "addr:state": "FL", "brand": "USPS", "collection_times": "Mo-Fr 16:30; Sa 16:00", "name": "USPS COLLECTION BOX - BLUE BOX", "note": "ON 12/24 AND 12/31, THIS BOX MAY BE COLLECTED AS EARLY AS 12 NOON.", "ref": "3215900000"}, "type": "Feature"}
{"geometry": {"coordinates": [-81.904118521, 28.908890499], "type": "Point"}, "id": "fzvn5rxbcb3Nd29otvaEghwoLYs=", "properties": {"@spider": "usps_collection_boxes", "addr:city": "LADY LAKE", "addr:country": "US", "addr:full": "2934 GRIFFIN VIEW DR", "addr:postcode": "32159", "addr:state": "FL", "brand": "USPS", "collection_times": "Mo-Sa 11:30", "name": "USPS COLLECTION BOX - BLUE BOX", "ref": "3215900001"}, "type": "Feature"}
{"geometry": {"coordinates": [-81.943189517, 28.936476827], "type": "Point"}, "id": "xEXOnRY-eOs8KRalrW9ffAKBKu0=", "properties": {"@spider": "usps_collection_boxes", "addr:city": "LADY LAKE", "addr:country": "US", "addr:full": "903 BICHARA BLVD", "addr:postcode": "32159", "addr:state": "FL", "brand": "USPS", "collection_times": "Mo-Sa 11:30", "name": "USPS COLLECTION BOX - BLUE BOX", "ref": "3215900002"}, "type": "Feature"}
{"geometry": {"coordinates": [-81.9286391, 28.942098044], "type": "Point"}, "id": "s393Oe27keqrSJMpX1ZLfgFFnOY=", "properties": {"@spider": "usps_collection_boxes", "addr:city": "LADY LAKE", "addr:country": "US", "addr:full": "40840 COUNTY ROAD 25", "addr:postcode": "32159", "addr:state": "FL", "brand": "USPS", "collection_times": "Mo-Sa 10:30", "name": "USPS COLLECTION BOX - BLUE BOX", "ref": "3215900003"}, "type": "Feature"}
{"geometry": {"coordinates": [-81.9339885, 28.91620849], "type": "Point"}, "id": "FA6P4B-z1areiAwJuyHHxC4mMLk=", "properties": {"@spider": "usps_collection_boxes", "addr:city": "LADY LAKE", "addr:country": "US", "addr:full": "609 HIGHWAY 466", "addr:postcode": "32159", "addr:state": "FL", "brand": "USPS", "collection_times": "Mo-Sa 11:00", "name": "USPS COLLECTION BOX - BLUE BOX", "ref": "3215900004"}, "type": "Feature"}
{"geometry": {"coordinates": [-81.919161, 28.926652485], "type": "Point"}, "id": "ZYcZK0L6Wk_9-n-cyTS_BJCgKUY=", "properties": {"@spider": "usps_collection_boxes", "addr:city": "LADY LAKE", "addr:country": "US", "addr:full": "106 EVERGREEN LN", "addr:postcode": "32159", "addr:state": "FL", "brand": "USPS", "collection_times": "Mo-Sa 11:30", "name": "USPS COLLECTION BOX - BLUE BOX", "ref": "3215900005"}, "type": "Feature"}
{"geometry": {"coordinates": [-81.926651233, 28.93406154], "type": "Point"}, "id": "5Xm75YnW2CGdncRlVqqcsmu1l9M=", "properties": {"@spider": "usps_collection_boxes", "addr:city": "LADY LAKE", "addr:country": "US", "addr:full": "850 TEAGUE TRL", "addr:postcode": "32159", "addr:state": "FL", "brand": "USPS", "collection_times": "Mo-Fr 16:30; Sa 16:00", "name": "USPS COLLECTION BOX - PO LOBBY", "note": "ON 12/24 AND 12/31, THIS BOX MAY BE COLLECTED AS EARLY AS 12 NOON.", "ref": "3215900006"}, "type": "Feature"}
{"geometry": {"coordinates": [-81.926651233, 28.93406154], "type": "Point"}, "id": "3crFlVkA_wKpAdOZ-cVoy-va8Wo=", "properties": {"@spider": "usps_collection_boxes", "addr:city": "LADY LAKE", "addr:country": "US", "addr:full": "850 TEAGUE TRL", "addr:postcode": "32159", "addr:state": "FL", "brand": "USPS", "collection_times": "Mo-Fr 16:30; Sa 16:00", "name": "USPS COLLECTION BOX - PO LOBBY", "note": "ON 12/24 AND 12/31, THIS BOX MAY BE COLLECTED AS EARLY AS 12 NOON.", "ref": "3215900008"}, "type": "Feature"}
{"geometry": {"coordinates": [-81.941742001, 28.938496703], "type": "Point"}, "id": "CSeMInyN2MlsrtYvph8iApxAPlw=", "properties": {"@spider": "usps_collection_boxes", "addr:city": "LADY LAKE", "addr:country": "US", "addr:full": "23 LAGRANDE BLVD", "addr:postcode": "32159", "addr:state": "FL", "brand": "USPS", "collection_times": "Mo-Fr 16:30; Sa 12:00", "name": "USPS COLLECTION BOX - BLUE BOX", "note": "ON 12/24 AND 12/31, THIS BOX MAY BE COLLECTED AS EARLY AS 12 NOON.", "ref": "3215900012"}, "type": "Feature"}
{"geometry": {"coordinates": [-81.960739241, 28.955402311], "type": "Point"}, "id": "pDXzs1GBCp49mPYVCmfh0VTCpyw=", "properties": {"@spider": "usps_collection_boxes", "addr:city": "LADY LAKE", "addr:country": "US", "addr:full": "13700 N US HIGHWAY 441", "addr:postcode": "32159", "addr:state": "FL", "brand": "USPS", "collection_times": "Mo-Sa 15:00", "name": "USPS COLLECTION BOX - BLUE BOX", "note": "ON 12/24 AND 12/31, THIS BOX MAY BE COLLECTED AS EARLY AS 12 NOON.", "ref": "3215900013"}, "type": "Feature"}
{"geometry": {"coordinates": [-81.926651233, 28.93406154], "type": "Point"}, "id": "RtK9UnSfVtniCAZ9F_hb2-XXrmM=", "properties": {"@spider": "usps_collection_boxes", "addr:city": "LADY LAKE", "addr:country": "US", "addr:full": "850 TEAGUE TRL", "addr:postcode": "32159", "addr:state": "FL", "brand": "USPS", "collection_times": "Mo-Fr 16:30; Sa 12:00", "name": "USPS COLLECTION BOX - PO LOBBY", "note": "ON 12/24 AND 12/31, THIS BOX MAY BE COLLECTED AS EARLY AS 12 NOON.", "ref": "3215900020"}, "type": "Feature"}
{"geometry": {"coordinates": [-81.941742001, 28.938496703], "type": "Point"}, "id": "qh8AyUJev_HO7NJjNRa_Q0eWo0A=", "properties": {"@spider": "usps_collection_boxes", "addr:city": "LADY LAKE", "addr:country": "US", "addr:full": "23 LAGRANDE BLVD", "addr:postcode": "32159", "addr:state": "FL", "brand": "USPS", "collection_times": "Mo-Fr 16:30; Sa 12:00", "name": "USPS COLLECTION BOX - PO LOBBY", "note": "ON 12/24 AND 12/31, THIS BOX MAY BE COLLECTED AS EARLY AS 12 NOON.", "ref": "3215900021"}, "type": "Feature"}
{"geometry": {"coordinates": [-81.970280193, 28.920010528], "type": "Point"}, "id": "pIlEBivBesae9DQb0Zj08q2e2DE=", "properties": {"@spider": "usps_collection_boxes", "addr:city": "LADY LAKE", "addr:country": "US", "addr:full": "8033 E COUNTY ROAD 466", "addr:postcode": "32162", "addr:state": "FL", "brand": "USPS", "collection_times": "Mo-Sa 11:30", "name": "USPS COLLECTION BOX - BLUE BOX", "ref": "3216200001"}, "type": "Feature"}
{"geometry": {"coordinates": [-82.007591139, 28.981165491], "type": "Point"}, "id": "j5_n6HtMx80k94QCW5xHwUw-AUQ=", "properties": {"@spider": "usps_collection_boxes", "addr:city": "LADY LAKE", "addr:country": "US", "addr:full": "8780 SE 165TH MULBERRY LN", "addr:postcode": "32162", "addr:state": "FL", "brand": "USPS", "collection_times": "Mo-Sa 11:30", "name": "USPS COLLECTION BOX - BLUE BOX", "ref": "3216200002"}, "type": "Feature"}
{"geometry": {"coordinates": [-81.930144139, 29.042835896], "type": "Point"}, "id": "qfzscz86hqxV-P2MiwAJPhL75b0=", "properties": {"@spider": "usps_collection_boxes", "addr:city": "OCKLAWAHA", "addr:country": "US", "addr:full": "13470 E HIGHWAY 25", "addr:postcode": "32179", "addr:state": "FL", "brand": "USPS", "collection_times": "Mo-Fr 15:30; Sa 12:00", "name": "USPS COLLECTION BOX - BLUE BOX", "note": "ON 12/24 AND 12/31, THIS BOX MAY BE COLLECTED AS EARLY AS 12 NOON.", "ref": "3217900001"}, "type": "Feature"}
{"geometry": {"coordinates": [-81.930144139, 29.042835896], "type": "Point"}, "id": "mgH8e8oLPpTtTmsY0CUlZ4AGxsg=", "properties": {"@spider": "usps_collection_boxes", "addr:city": "OCKLAWAHA", "addr:country": "US", "addr:full": "13470 E HIGHWAY 25", "addr:postcode": "32179", "addr:state": "FL", "brand": "USPS", "collection_times": "Mo-Fr 15:30; Sa 12:00", "name": "USPS COLLECTION BOX - PO LOBBY", "note": "ON 12/24 AND 12/31, THIS BOX MAY BE COLLECTED AS EARLY AS 12 NOON.", "ref": "3217900002"}, "type": "Feature"}
{"geometry": {"coordinates": [-81.930144139, 29.042835896], "type": "Point"}, "id": "FP8XaF6keaWPh1GFfHDCmCs-SOg=", "properties": {"@spider": "usps_collection_boxes", "addr:city": "OCKLAWAHA", "addr:country": "US", "addr:full": "13470 E HIGHWAY 25", "addr:postcode": "32179", "addr:state": "FL", "brand": "USPS", "collection_times": "Mo-Fr 16:00; Sa 12:00", "name": "USPS COLLECTION BOX - PO LOBBY", "note": "ON 12/24 AND 12/31, THIS BOX MAY BE COLLECTED AS EARLY AS 12 NOON.", "ref": "3217900004"}, "type": "Feature"}
{"geometry": {"coordinates": [-81.467059031, 29.240504864], "type": "Point"}, "id": "fL2_K8eUC68NUiWigszhY_g51BE=", "properties": {"@spider": "usps_collection_boxes", "addr:city": "PIERSON", "addr:country": "US", "addr:full": "123 N VOLUSIA AVE", "addr:postcode": "32180", "addr:state": "FL", "brand": "USPS", "collection_times": "Mo-Fr 16:00; Sa 11:30", "name": "USPS COLLECTION BOX - BLUE BOX", "note": "ON 12/24 AND 12/31, THIS BOX MAY BE COLLECTED AS EARLY AS 12 NOON.", "ref": "3218000000"}, "type": "Feature"}
{"geometry": {"coordinates": [-81.467059031, 29.240504864], "type": "Point"}, "id": "0ARcF1YRBUc9pMasqo_NmKl4qso=", "properties": {"@spider": "usps_collection_boxes", "addr:city": "PIERSON", "addr:country": "US", "addr:full": "123 N VOLUSIA AVE", "addr:postcode": "32180", "addr:state": "FL", "brand": "USPS", "collection_times": "Mo-Fr 16:00; Sa 11:30", "name": "USPS COLLECTION BOX - PO LOBBY", "note": "ON 12/24 AND 12/31, THIS BOX MAY BE COLLECTED AS EARLY AS 12 NOON.", "ref": "3218000001"}, "type": "Feature"}
{"geometry": {"coordinates": [-81.467059031, 29.240504864], "type": "Point"}, "id": "olUhWkYFssAcmg1r78HsDIL8QdY=", "properties": {"@spider": "usps_collection_boxes", "addr:city": "PIERSON", "addr:country": "US", "addr:full": "123 N VOLUSIA AVE", "addr:postcode": "32180", "addr:state": "FL", "brand": "USPS", "collection_times": "Mo-Fr 16:00; Sa 11:30", "name": "USPS COLLECTION BOX - PO LOBBY", "note": "ON 12/24 AND 12/31, THIS BOX MAY BE COLLECTED AS EARLY AS 12 NOON.", "ref": "3218000002"}, "type": "Feature"}
{"geometry": {"coordinates": [-81.467059031, 29.240504864], "type": "Point"}, "id": "BJ7SWp6VMEwS3qNf_OQle8n1m3Q=", "properties": {"@spider": "usps_collection_boxes", "addr:city": "PIERSON", "addr:country": "US", "addr:full": "123 N VOLUSIA AVE", "addr:postcode": "32180", "addr:state": "FL", "brand": "USPS", "collection_times": "Mo-Fr 16:00; Sa 11:30", "name": "USPS COLLECTION BOX - PO LOBBY", "note": "ON 12/24 AND 12/31, THIS BOX MAY BE COLLECTED AS EARLY AS 12 NOON.", "ref": "3218000005"}, "type": "Feature"}
{"geometry": {"coordinates": [-81.945470973, 29.503863012], "type": "Point"}, "id": "k7sfIHeygP0B5zXNN0NS9rpjcic=", "properties": {"@spider": "usps_collection_boxes", "addr:city": "ORANGE SPRINGS", "addr:country": "US", "addr:full": "24282 US HIGHWAY 315", "addr:postcode": "32182", "addr:state": "FL", "brand": "USPS", "collection_times": "Mo-Fr 16:00; Sa 10:30", "name": "USPS COLLECTION BOX - PO LOBBY", "note": "ON 12/24 AND 12/31, THIS BOX MAY BE COLLECTED AS EARLY AS 12 NOON.", "ref": "3218200001"}, "type": "Feature"}
{"geometry": {"coordinates": [-81.945470973, 29.503863012], "type": "Point"}, "id": "dSgIwC176tHggg6Q2E-5cwVCrzk=", "properties": {"@spider": "usps_collection_boxes", "addr:city": "ORANGE SPRINGS", "addr:country": "US", "addr:full": "24282 US HIGHWAY 315", "addr:postcode": "32182", "addr:state": "FL", "brand": "USPS", "collection_times": "Mo-Fr 16:00; Sa 10:30", "name": "USPS COLLECTION BOX - BLUE BOX", "note": "ON 12/24 AND 12/31, THIS BOX MAY BE COLLECTED AS EARLY AS 12 NOON.", "ref": "3218200002"}, "type": "Feature"}
{"geometry": {"coordinates": [-81.945470973, 29.503863012], "type": "Point"}, "id": "BukWu6x58bnWnfKwY7f13f71JHc=", "properties": {"@spider": "usps_collection_boxes", "addr:city": "ORANGE SPRINGS", "addr:country": "US", "addr:full": "24282 US HIGHWAY 315", "addr:postcode": "32182", "addr:state": "FL", "brand": "USPS", "collection_times": "Mo-Fr 16:00; Sa 10:30", "name": "USPS COLLECTION BOX - PO LOBBY", "note": "ON 12/24 AND 12/31, THIS BOX MAY BE COLLECTED AS EARLY AS 12 NOON.", "ref": "3218200003"}, "type": "Feature"}
{"geometry": {"coordinates": [-81.945470973, 29.503863012], "type": "Point"}, "id": "Zk8MBEpaKVPj6sGDHMKeGI_poxM=", "properties": {"@spider": "usps_collection_boxes", "addr:city": "ORANGE SPRINGS", "addr:country": "US", "addr:full": "24282 US HIGHWAY 315", "addr:postcode": "32182", "addr:state": "FL", "brand": "USPS", "collection_times": "Mo-Fr 16:00", "name": "USPS COLLECTION BOX - PO LOBBY", "note": "ON 12/24 AND 12/31, THIS BOX MAY BE COLLECTED AS EARLY AS 12 NOON.", "ref": "3218200004"}, "type": "Feature"}
{"geometry": {"coordinates": [-81.492501368, 29.317110421], "type": "Point"}, "id": "ytxBlic9_drsYV81LFZMv7Rpt-w=", "properties": {"@spider": "usps_collection_boxes", "addr:city": "SEVILLE", "addr:country": "US", "addr:full": "120 COUNTY ROAD 305", "addr:postcode": "32190", "addr:state": "FL", "brand": "USPS", "collection_times": "Mo-Fr 12:45; Sa 12:00", "name": "USPS COLLECTION BOX - BLUE BOX", "note": "ON 12/24 AND 12/31, THIS BOX MAY BE COLLECTED AS EARLY AS 12 NOON.", "ref": "3219000000"}, "type": "Feature"}
{"geometry": {"coordinates": [-81.492501368, 29.317110421], "type": "Point"}, "id": "sy2_zp1MAl1-jkv0icUms4tVfrc=", "properties": {"@spider": "usps_collection_boxes", "addr:city": "SEVILLE", "addr:country": "US", "addr:full": "120 COUNTY ROAD 305", "addr:postcode": "32190", "addr:state": "FL", "brand": "USPS", "collection_times": "Mo-Fr 13:00; Sa 12:00", "name": "USPS COLLECTION BOX - PO LOBBY", "note": "ON 12/24 AND 12/31, THIS BOX MAY BE COLLECTED AS EARLY AS 12 NOON.", "ref": "3219000001"}, "type": "Feature"}
{"geometry": {"coordinates": [-81.492501368, 29.317110421], "type": "Point"}, "id": "x7TAWpt5pTFowKxYrBlFRkpj8yY=", "properties": {"@spider": "usps_collection_boxes", "addr:city": "SEVILLE", "addr:country": "US", "addr:full": "120 COUNTY ROAD 305", "addr:postcode": "32190", "addr:state": "FL", "brand": "USPS", "collection_times": "Mo-Fr 13:00; Sa 12:00", "name": "USPS COLLECTION BOX - PO LOBBY", "note": "ON 12/24 AND 12/31, THIS BOX MAY BE COLLECTED AS EARLY AS 12 NOON.", "ref": "3219000003"}, "type": "Feature"}
{"geometry": {"coordinates": [-81.492501368, 29.317110421], "type": "Point"}, "id": "GOfGdyw3VrLhnIXWZ9rke-mP64A=", "properties": {"@spider": "usps_collection_boxes", "addr:city": "SEVILLE", "addr:country": "US", "addr:full": "120 COUNTY ROAD 305", "addr:postcode": "32190", "addr:state": "FL", "brand": "USPS", "collection_times": "Mo-Fr 13:00; Sa 12:00", "name": "USPS COLLECTION BOX - PO LOBBY", "note": "ON 12/24 AND 12/31, THIS BOX MAY BE COLLECTED AS EARLY AS 12 NOON.", "ref": "3219000005"}, "type": "Feature"}
{"geometry": {"coordinates": [-82.112650494, 29.336516864], "type": "Point"}, "id": "cQUeZal5y2YKLP1lJgU92Pqd33w=", "properties": {"@spider": "usps_collection_boxes", "addr:city": "SPARR", "addr:country": "US", "addr:full": "12855 NE JACKSONVILLE RD", "addr:postcode": "32192", "addr:state": "FL", "brand": "USPS", "collection_times": "Mo-Fr 16:00; Sa 12:00", "name": "USPS COLLECTION BOX - BLUE BOX", "note": "ON 12/24 AND 12/31, THIS BOX MAY BE COLLECTED AS EARLY AS 12 NOON.", "ref": "3219200000"}, "type": "Feature"}
{"geometry": {"coordinates": [-82.112650494, 29.336516864], "type": "Point"}, "id": "9q1zofHX4YL2bS_Kx3xfSMB0_xc=", "properties": {"@spider": "usps_collection_boxes", "addr:city": "SPARR", "addr:country": "US", "addr:full": "12855 NE JACKSONVILLE RD", "addr:postcode": "32192", "addr:state": "FL", "brand": "USPS", "collection_times": "Mo-Fr 16:00; Sa 12:00", "name": "USPS COLLECTION BOX - PO LOBBY", "note": "ON 12/24 AND 12/31, THIS BOX MAY BE COLLECTED AS EARLY AS 12 NOON.", "ref": "3219200001"}, "type": "Feature"}
{"geometry": {"coordinates": [-82.112650494, 29.336516864], "type": "Point"}, "id": "u4JV8ZIh2FnD50LM0wgTfsChBqs=", "properties": {"@spider": "usps_collection_boxes", "addr:city": "SPARR", "addr:country": "US", "addr:full": "12855 NE JACKSONVILLE RD", "addr:postcode": "32192", "addr:state": "FL", "brand": "USPS", "collection_times": "Mo-Fr 16:00; Sa 12:00", "name": "USPS COLLECTION BOX - PO LOBBY", "note": "ON 12/24 AND 12/31, THIS BOX MAY BE COLLECTED AS EARLY AS 12 NOON.", "ref": "3219200003"}, "type": "Feature"}
{"geometry": {"coordinates": [-82.112650494, 29.336516864], "type": "Point"}, "id": "pEmuWCHP2-zG0puqdZm4ZKK-AcQ=", "properties": {"@spider": "usps_collection_boxes", "addr:city": "SPARR", "addr:country": "US", "addr:full": "12855 NE JACKSONVILLE RD", "addr:postcode": "32192", "addr:state": "FL", "brand": "USPS", "collection_times": "Mo-Fr 16:00; Sa 12:00", "name": "USPS COLLECTION BOX - PO LOBBY", "note": "ON 12/24 AND 12/31, THIS BOX MAY BE COLLECTED AS EARLY AS 12 NOON.", "ref": "3219200004"}, "type": "Feature"}
{"geometry": {"coordinates": [-81.671958651, 29.482984236], "type": "Point"}, "id": "Ss88NzBdcX2V61QldWIluqkJ-8U=", "properties": {"@spider": "usps_collection_boxes", "addr:city": "WELAKA", "addr:country": "US", "addr:full": "664 3RD AVE", "addr:postcode": "32193", "addr:state": "FL", "brand": "USPS", "collection_times": "Mo-Fr 16:30; Sa 12:00", "name": "USPS COLLECTION BOX - BLUE BOX", "note": "ON 12/24 AND 12/31, THIS BOX MAY BE COLLECTED AS EARLY AS 12 NOON.", "ref": "3219300000"}, "type": "Feature"}
{"geometry": {"coordinates": [-81.671958651, 29.482984236], "type": "Point"}, "id": "anqjnpLX3w6E7Jw9dkdggRYXtBo=", "properties": {"@spider": "usps_collection_boxes", "addr:city": "WELAKA", "addr:country": "US", "addr:full": "664 3RD AVE", "addr:postcode": "32193", "addr:state": "FL", "brand": "USPS", "collection_times": "Mo-Fr 16:30; Sa 12:00", "name": "USPS COLLECTION BOX - PO LOBBY", "note": "ON 12/24 AND 12/31, THIS BOX MAY BE COLLECTED AS EARLY AS 12 NOON.", "ref": "3219300001"}, "type": "Feature"}
{"geometry": {"coordinates": [-81.671958651, 29.482984236], "type": "Point"}, "id": "QP2MLdtFcjIt4HdmT3AvGYwUs3I=", "properties": {"@spider": "usps_collection_boxes", "addr:city": "WELAKA", "addr:country": "US", "addr:full": "664 3RD AVE", "addr:postcode": "32193", "addr:state": "FL", "brand": "USPS", "collection_times": "Mo-Fr 16:30; Sa 12:00", "name": "USPS COLLECTION BOX - PO LOBBY", "note": "ON 12/24 AND 12/31, THIS BOX MAY BE COLLECTED AS EARLY AS 12 NOON.", "ref": "3219300004"}, "type": "Feature"}
{"geometry": {"coordinates": [-81.671958651, 29.482984236], "type": "Point"}, "id": "3YUbV91zNqafWQgJAfj5yHhO52I=", "properties": {"@spider": "usps_collection_boxes", "addr:city": "WELAKA", "addr:country": "US", "addr:full": "664 3RD AVE", "addr:postcode": "32193", "addr:state": "FL", "brand": "USPS", "collection_times": "Mo-Fr 16:30; Sa 12:00", "name": "USPS COLLECTION BOX - PO LOBBY", "note": "ON 12/24 AND 12/31, THIS BOX MAY BE COLLECTED AS EARLY AS 12 NOON.", "ref": "3219300006"}, "type": "Feature"}
{"geometry": {"coordinates": [-81.92733093, 28.981960476], "type": "Point"}, "id": "R0U1jnrMKQGqqI_0sVbpGHkY4dw=", "properties": {"@spider": "usps_collection_boxes", "addr:city": "WEIRSDALE", "addr:country": "US", "addr:full": "13595 SE HIGHWAY 42", "addr:postcode": "32195", "addr:state": "FL", "brand": "USPS", "collection_times": "Mo-Fr 15:45; Sa 11:45", "name": "USPS COLLECTION BOX - BLUE BOX", "note": "ON 12/24 AND 12/31, THIS BOX MAY BE COLLECTED AS EARLY AS 12 NOON.", "ref": "3219500000"}, "type": "Feature"}
{"geometry": {"coordinates": [-81.92733093, 28.981960476], "type": "Point"}, "id": "pbTJHnDPZ0L1C3-CACdz96OmZUE=", "properties": {"@spider": "usps_collection_boxes", "addr:city": "WEIRSDALE", "addr:country": "US", "addr:full": "13595 SE HIGHWAY 42", "addr:postcode": "32195", "addr:state": "FL", "brand": "USPS", "collection_times": "Mo-Fr 15:45; Sa 11:45", "name": "USPS COLLECTION BOX - PO LOBBY", "note": "ON 12/24 AND 12/31, THIS BOX MAY BE COLLECTED AS EARLY AS 12 NOON.", "ref": "3219500001"}, "type": "Feature"}
{"geometry": {"coordinates": [-81.92733093, 28.981960476], "type": "Point"}, "id": "iB2A4O-CbrvYpOP9oZQdC6SrPD4=", "properties": {"@spider": "usps_collection_boxes", "addr:city": "WEIRSDALE", "addr:country": "US", "addr:full": "13595 SE HIGHWAY 42", "addr:postcode": "32195", "addr:state": "FL", "brand": "USPS", "collection_times": "Mo-Fr 16:00; Sa 12:00", "name": "USPS COLLECTION BOX - PO LOBBY", "note": "ON 12/24 AND 12/31, THIS BOX MAY BE COLLECTED AS EARLY AS 12 NOON.", "ref": "3219500004"}, "type": "Feature"}
