{"geometry": {"coordinates": [-81.661492187, 30.328542577], "type": "Point"}, "id": "IgPkyXOCTtdLzEsNrERubl4WPWY=", "properties": {"@spider": "usps_collection_boxes", "addr:city": "JACKSONVILLE", "addr:country": "US", "addr:full": "302 W ADAMS ST", "addr:postcode": "32202", "addr:state": "FL", "brand": "USPS", "collection_times": "Mo-Sa 14:55", "name": "USPS COLLECTION BOX - BLUE BOX", "note": "ON 12/24 AND 12/31, THIS BOX MAY BE COLLECTED AS EARLY AS 12 NOON.", "ref": "3220200226"}, "type": "Feature"}
{"geometry": {"coordinates": [-81.659119915, 30.32803717], "type": "Point"}, "id": "WGNsfb0H-F3QCinEDD6-Y3FVHW8=", "properties": {"@spider": "usps_collection_boxes", "addr:city": "JACKSONVILLE", "addr:country": "US", "addr:full": "102 W ADAMS ST", "addr:postcode": "32202", "addr:state": "FL", "brand": "USPS", "collection_times": "Mo-Sa 15:00", "name": "USPS COLLECTION BOX - BLUE BOX", "note": "ON 12/24 AND 12/31, THIS BOX MAY BE COLLECTED AS EARLY AS 12 NOON.", "ref": "3220200235"}, "type": "Feature"}
{"geometry": {"coordinates": [-81.655715389, 30.325696021], "type": "Point"}, "id": "-B-_BJqcp4sXns7NU8Kunf8dwhM=", "properties": {"@spider": "usps_collection_boxes", "addr:city": "JACKSONVILLE", "addr:country": "US", "addr:full": "140 E BAY ST", "addr:postcode": "32202", "addr:state": "FL", "brand": "USPS", "collection_times": "Mo-Sa 15:00", "name": "USPS COLLECTION BOX - BLUE BOX", "note": "ON 12/24 AND 12/31, THIS BOX MAY BE COLLECTED AS EARLY AS 12 NOON.", "ref": "3220200243"}, "type": "Feature"}
{"geometry": {"coordinates": [-81.660749748, 30.32773817], "type": "Point"}, "id": "ibQMIAwQUNIqY8eOk6S_-FkeQYk=", "properties": {"@spider": "usps_collection_boxes", "addr:city": "JACKSONVILLE", "addr:country": "US", "addr:full": "229 W FORSYTH ST", "addr:postcode": "32202", "addr:state": "FL", "brand": "USPS", "collection_times": "Mo-Sa 15:00", "name": "USPS COLLECTION BOX - BLUE BOX", "note": "ON 12/24 AND 12/31, THIS BOX MAY BE COLLECTED AS EARLY AS 12 NOON.", "ref": "3220200244"}, "type": "Feature"}
{"geometry": {"coordinates": [-81.660100228, 30.32871479], "type": "Point"}, "id": "FpOXr-CdGzeAwriUFf2L7Xkc9ro=", "properties": {"@spider": "usps_collection_boxes", "addr:city": "JACKSONVILLE", "addr:country": "US", "addr:full": "214 N HOGAN ST", "addr:postcode": "32202", "addr:state": "FL", "brand": "USPS", "collection_times": "Mo-Fr 14:30; Sa 15:00", "name": "USPS COLLECTION BOX - BLUE BOX", "note": "ON 12/24 AND 12/31, THIS BOX MAY BE COLLECTED AS EARLY AS 12 NOON.", "ref": "3220200262"}, "type": "Feature"}
{"geometry": {"coordinates": [-81.653779774, 30.328599754], "type": "Point"}, "id": "zJtPrzCWNTBcih4OA7J95nL02A0=", "properties": {"@spider": "usps_collection_boxes", "addr:city": "JACKSONVILLE", "addr:country": "US", "addr:full": "227 E DUVAL ST", "addr:postcode": "32202", "addr:state": "FL", "brand": "USPS", "collection_times": "Mo-Sa 15:00", "name": "USPS COLLECTION BOX - BLUE BOX", "note": "ON 12/24 AND 12/31, THIS BOX MAY BE COLLECTED AS EARLY AS 12 NOON.", "ref": "3220200263"}, "type": "Feature"}
{"geometry": {"coordinates": [-81.650752366, 30.32708907], "type": "Point"}, "id": "Jhej__pE66hWvyo1SGr8yE5TlM0=", "properties": {"@spider": "usps_collection_boxes", "addr:city": "JACKSONVILLE", "addr:country": "US", "addr:full": "503 E MONROE ST", "addr:postcode": "32202", "addr:state": "FL", "brand": "USPS", "collection_times": "Mo-Sa 15:00", "name": "USPS COLLECTION BOX - BLUE BOX", "note": "ON 12/24 AND 12/31, THIS BOX MAY BE COLLECTED AS EARLY AS 12 NOON.", "ref": "3220200264"}, "type": "Feature"}
{"geometry": {"coordinates": [-81.661759613, 30.340257715], "type": "Point"}, "id": "mBqhtdxbxOjO_Qopr1JKiWcR8xs=", "properties": {"@spider": "usps_collection_boxes", "addr:city": "JACKSONVILLE", "addr:country": "US", "addr:full": "1300 BROAD ST N", "addr:postcode": "32202", "addr:state": "FL", "brand": "USPS", "collection_times": "Mo-Sa 15:00", "name": "USPS COLLECTION BOX - BLUE BOX", "note": "ON 12/24 AND 12/31, THIS BOX MAY BE COLLECTED AS EARLY AS 12 NOON.", "ref": "3220200268"}, "type": "Feature"}
{"geometry": {"coordinates": [-81.655492899, 30.328133049], "type": "Point"}, "id": "19yUrN22FRTrebeYswMrno5S7qA=", "properties": {"@spider": "usps_collection_boxes", "addr:city": "JACKSONVILLE", "addr:country": "US", "addr:full": "105 E MONROE ST", "addr:postcode": "32202", "addr:state": "FL", "brand": "USPS", "collection_times": "Mo-Sa 14:30", "name": "USPS COLLECTION BOX - BLUE BOX", "note": "ON 12/24 AND 12/31, THIS BOX MAY BE COLLECTED AS EARLY AS 12 NOON.", "ref": "3220200274"}, "type": "Feature"}
{"geometry": {"coordinates": [-81.655015955, 30.326352006], "type": "Point"}, "id": "Jra7YbmbeIvlzy5Tsbsh0D4AUi8=", "properties": {"@spider": "usps_collection_boxes", "addr:city": "JACKSONVILLE", "addr:country": "US", "addr:full": "210 E FORSYTH ST", "addr:postcode": "32202", "addr:state": "FL", "brand": "USPS", "collection_times": "Mo-Sa 15:00", "name": "USPS COLLECTION BOX - BLUE BOX", "note": "ON 12/24 AND 12/31, THIS BOX MAY BE COLLECTED AS EARLY AS 12 NOON.", "ref": "3220200276"}, "type": "Feature"}
{"geometry": {"coordinates": [-81.657817795, 30.327788977], "type": "Point"}, "id": "2DuxBy2ohdIUrl6RAg8XyOTsF0Q=", "properties": {"@spider": "usps_collection_boxes", "addr:city": "JACKSONVILLE", "addr:country": "US", "addr:full": "10 W ADAMS ST", "addr:postcode": "32202", "addr:state": "FL", "brand": "USPS", "collection_times": "Mo-Sa 11:00", "name": "USPS COLLECTION BOX - BLUE BOX", "ref": "3220200279"}, "type": "Feature"}
{"geometry": {"coordinates": [-81.654093451, 30.326996932], "type": "Point"}, "id": "pdwDd309nGUh8r6HNcUNOqt2WOo=", "properties": {"@spider": "usps_collection_boxes", "addr:city": "JACKSONVILLE", "addr:country": "US", "addr:full": "245 E ADAMS ST", "addr:postcode": "32202", "addr:state": "FL", "brand": "USPS", "collection_times": "Mo-Sa 11:00", "name": "USPS COLLECTION BOX - BLUE BOX", "ref": "3220200280"}, "type": "Feature"}
{"geometry": {"coordinates": [-81.651195232, 30.325950054], "type": "Point"}, "id": "rj2yBKiI2Be3Hl2lRF3GEOkzF0k=", "properties": {"@spider": "usps_collection_boxes", "addr:city": "JACKSONVILLE", "addr:country": "US", "addr:full": "500 E FORSYTH ST", "addr:postcode": "32202", "addr:state": "FL", "brand": "USPS", "collection_times": "Mo-Sa 15:00", "name": "USPS COLLECTION BOX - BLUE BOX", "note": "ON 12/24 AND 12/31, THIS BOX MAY BE COLLECTED AS EARLY AS 12 NOON.", "ref": "3220200283"}, "type": "Feature"}
{"geometry": {"coordinates": [-81.658533881, 30.32724802], "type": "Point"}, "id": "JAthTSewiOCP8fcXnq_vJ6-dRJk=", "properties": {"@spider": "usps_collection_boxes", "addr:city": "JACKSONVILLE", "addr:country": "US", "addr:full": "45 W FORSYTH ST", "addr:postcode": "32202", "addr:state": "FL", "brand": "USPS", "collection_times": "Mo-Sa 15:00", "name": "USPS COLLECTION BOX - BLUE BOX", "note": "ON 12/24 AND 12/31, THIS BOX MAY BE COLLECTED AS EARLY AS 12 NOON.", "ref": "3220200300"}, "type": "Feature"}
{"geometry": {"coordinates": [-81.660042786, 30.327536932], "type": "Point"}, "id": "-XKRyD82ZFpFtws65XGL3YeXGUY=", "properties": {"@spider": "usps_collection_boxes", "addr:city": "JACKSONVILLE", "addr:country": "US", "addr:full": "121 W FORSYTH ST", "addr:postcode": "32202", "addr:state": "FL", "brand": "USPS", "collection_times": "Mo-Sa 15:00", "name": "USPS COLLECTION BOX - BLUE BOX", "note": "ON 12/24 AND 12/31, THIS BOX MAY BE COLLECTED AS EARLY AS 12 NOON.", "ref": "3220200301"}, "type": "Feature"}
{"geometry": {"coordinates": [-81.6716309924, 30.3374440085], "type": "Point"}, "id": "TQXsyC_TdJ0y2gUFAiWYHZff-d8=", "properties": {"@spider": "usps_collection_boxes", "addr:city": "JACKSONVILLE", "addr:country": "US", "addr:full": "1100 KINGS RD", "addr:postcode": "32203", "addr:state": "FL", "brand": "USPS", "collection_times": "Mo-Sa 18:30", "name": "USPS COLLECTION BOX - BLUE BOX", "note": "ON 12/24 AND 12/31, THIS BOX MAY BE COLLECTED AS EARLY AS 12 NOON.", "ref": "3220300001"}, "type": "Feature"}
{"geometry": {"coordinates": [-81.6716309924, 30.3374440085], "type": "Point"}, "id": "CjnE7ori3eeXXAYtYFjNo56K-ls=", "properties": {"@spider": "usps_collection_boxes", "addr:city": "JACKSONVILLE", "addr:country": "US", "addr:full": "1100 KINGS RD", "addr:postcode": "32203", "addr:state": "FL", "brand": "USPS", "collection_times": "Mo-Sa 18:30", "name": "USPS COLLECTION BOX - BLUE BOX", "note": "ON 12/24 AND 12/31, THIS BOX MAY BE COLLECTED AS EARLY AS 12 NOON.", "ref": "3220300003"}, "type": "Feature"}
{"geometry": {"coordinates": [-81.6716309924, 30.3374440085], "type": "Point"}, "id": "qMlQLvT8EiJckrCqf9eY5g1x5ZQ=", "properties": {"@spider": "usps_collection_boxes", "addr:city": "JACKSONVILLE", "addr:country": "US", "addr:full": "1100 KINGS RD", "addr:postcode": "32203", "addr:state": "FL", "brand": "USPS", "collection_times": "Mo-Sa 18:30", "name": "USPS COLLECTION BOX - BLUE BOX", "note": "ON 12/24 AND 12/31, THIS BOX MAY BE COLLECTED AS EARLY AS 12 NOON.", "ref": "3220300011"}, "type": "Feature"}
{"geometry": {"coordinates": [-81.6716309924, 30.3374440085], "type": "Point"}, "id": "7_ecdLM0hrztxaoVqQ9y-uFVSFA=", "properties": {"@spider": "usps_collection_boxes", "addr:city": "JACKSONVILLE", "addr:country": "US", "addr:full": "1100 KINGS RD", "addr:postcode": "32203", "addr:state": "FL", "brand": "USPS", "collection_times": "Mo-Sa 18:30", "name": "USPS COLLECTION BOX - BLUE BOX", "note": "ON 12/24 AND 12/31, THIS BOX MAY BE COLLECTED AS EARLY AS 12 NOON.", "ref": "3220300016"}, "type": "Feature"}
{"geometry": {"coordinates": [-81.675729918, 30.318093055], "type": "Point"}, "id": "4gBcPWV5ZxNCNV4zQT1NNF4Zi-M=", "properties": {"@spider": "usps_collection_boxes", "addr:city": "JACKSONVILLE", "addr:country": "US", "addr:full": "601 RIVERSIDE AVE", "addr:postcode": "32204", "addr:state": "FL", "brand": "USPS", "collection_times": "Mo-Sa 15:45", "name": "USPS COLLECTION BOX - BLUE BOX", "note": "ON 12/24 AND 12/31, THIS BOX MAY BE COLLECTED AS EARLY AS 12 NOON.", "ref": "3220400010"}, "type": "Feature"}
{"geometry": {"coordinates": [-81.680491015, 30.313586862], "type": "Point"}, "id": "r7j2A0qvm2r-E2c3S9PI3Ru3bOU=", "properties": {"@spider": "usps_collection_boxes", "addr:city": "JACKSONVILLE", "addr:country": "US", "addr:full": "800 LOMAX ST", "addr:postcode": "32204", "addr:state": "FL", "brand": "USPS", "collection_times": "Mo-Sa 15:35", "name": "USPS COLLECTION BOX - BLUE BOX", "note": "ON 12/24 AND 12/31, THIS BOX MAY BE COLLECTED AS EARLY AS 12 NOON.", "ref": "3220400012"}, "type": "Feature"}
{"geometry": {"coordinates": [-81.678359976, 30.316328422], "type": "Point"}, "id": "BnXNkwKai59idKNL0XiAiKVemY4=", "properties": {"@spider": "usps_collection_boxes", "addr:city": "JACKSONVILLE", "addr:country": "US", "addr:full": "701 RIVERSIDE PARK PL", "addr:postcode": "32204", "addr:state": "FL", "brand": "USPS", "collection_times": "Mo-Sa 15:45", "name": "USPS COLLECTION BOX - BLUE BOX", "note": "ON 12/24 AND 12/31, THIS BOX MAY BE COLLECTED AS EARLY AS 12 NOON.", "ref": "3220400014"}, "type": "Feature"}
{"geometry": {"coordinates": [-81.694302972, 30.311394412], "type": "Point"}, "id": "QZznrBt_JuUvsbA6catY8FNE8Ac=", "properties": {"@spider": "usps_collection_boxes", "addr:city": "JACKSONVILLE", "addr:country": "US", "addr:full": "1234 KING ST", "addr:postcode": "32204", "addr:state": "FL", "brand": "USPS", "collection_times": "Mo-Sa 15:25", "name": "USPS COLLECTION BOX - BLUE BOX", "note": "ON 12/24 AND 12/31, THIS BOX MAY BE COLLECTED AS EARLY AS 12 NOON.", "ref": "3220400033"}, "type": "Feature"}
{"geometry": {"coordinates": [-81.682262315, 30.317362593], "type": "Point"}, "id": "Ld5n7Ngbz-OwJVX_TNf3Gym8u7Q=", "properties": {"@spider": "usps_collection_boxes", "addr:city": "JACKSONVILLE", "addr:country": "US", "addr:full": "1107 MYRA ST", "addr:postcode": "32204", "addr:state": "FL", "brand": "USPS", "collection_times": "Mo-Sa 15:40", "name": "USPS COLLECTION BOX - BLUE BOX", "note": "ON 12/24 AND 12/31, THIS BOX MAY BE COLLECTED AS EARLY AS 12 NOON.", "ref": "3220400035"}, "type": "Feature"}
{"geometry": {"coordinates": [-81.683335928, 30.313389973], "type": "Point"}, "id": "6hjzHDMwvMkf9QbWjO_QkXJdyc8=", "properties": {"@spider": "usps_collection_boxes", "addr:city": "JACKSONVILLE", "addr:country": "US", "addr:full": "2104 PARK ST", "addr:postcode": "32204", "addr:state": "FL", "brand": "USPS", "collection_times": "Mo-Sa 15:30", "name": "USPS COLLECTION BOX - BLUE BOX", "note": "ON 12/24 AND 12/31, THIS BOX MAY BE COLLECTED AS EARLY AS 12 NOON.", "ref": "3220400047"}, "type": "Feature"}
{"geometry": {"coordinates": [-81.678329833, 30.312946906], "type": "Point"}, "id": "rHAfXe-_dpj84mSF0NH9LP-v33A=", "properties": {"@spider": "usps_collection_boxes", "addr:city": "JACKSONVILLE", "addr:country": "US", "addr:full": "601 LOMAX ST", "addr:postcode": "32204", "addr:state": "FL", "brand": "USPS", "collection_times": "Mo-Sa 15:35", "name": "USPS COLLECTION BOX - BLUE BOX", "note": "ON 12/24 AND 12/31, THIS BOX MAY BE COLLECTED AS EARLY AS 12 NOON.", "ref": "3220400062"}, "type": "Feature"}
{"geometry": {"coordinates": [-81.689088232, 30.307894256], "type": "Point"}, "id": "ymnSgxixmAIx0G7o9RWMyfqOMLg=", "properties": {"@spider": "usps_collection_boxes", "addr:city": "JACKSONVILLE", "addr:country": "US", "addr:full": "1 SHIRCLIFF WAY", "addr:postcode": "32204", "addr:state": "FL", "brand": "USPS", "collection_times": "Mo-Sa 15:25", "name": "USPS COLLECTION BOX - BLUE BOX", "note": "ON 12/24 AND 12/31, THIS BOX MAY BE COLLECTED AS EARLY AS 12 NOON.", "ref": "3220400071"}, "type": "Feature"}
{"geometry": {"coordinates": [-81.677809322, 30.313975368], "type": "Point"}, "id": "uZmpQSxwaRPbaRvn_j4aldRnUH4=", "properties": {"@spider": "usps_collection_boxes", "addr:city": "JACKSONVILLE", "addr:country": "US", "addr:full": "1000 RIVERSIDE AVE", "addr:postcode": "32204", "addr:state": "FL", "brand": "USPS", "collection_times": "Mo-Fr 15:35; Sa 15:30", "name": "USPS COLLECTION BOX - BLUE BOX", "note": "ON 12/24 AND 12/31, THIS BOX MAY BE COLLECTED AS EARLY AS 12 NOON.", "ref": "3220400073"}, "type": "Feature"}
{"geometry": {"coordinates": [-81.739550108, 30.311219625], "type": "Point"}, "id": "MyHxMMzv_0iMPtsV3oUouDbpRzE=", "properties": {"@spider": "usps_collection_boxes", "addr:city": "JACKSONVILLE", "addr:country": "US", "addr:full": "5455 VERNA BLVD", "addr:postcode": "32205", "addr:state": "FL", "brand": "USPS", "collection_times": "Mo-Fr 17:00; Sa 16:00", "name": "USPS COLLECTION BOX - BLUE BOX", "note": "ON 12/24 AND 12/31, THIS BOX MAY BE COLLECTED AS EARLY AS 12 NOON.", "ref": "3220500005"}, "type": "Feature"}
{"geometry": {"coordinates": [-81.71341721, 30.291335811], "type": "Point"}, "id": "oYu9nkjlimI5MzQxsM2Jf-6It_Q=", "properties": {"@spider": "usps_collection_boxes", "addr:city": "JACKSONVILLE", "addr:country": "US", "addr:full": "3980 HERSCHEL ST", "addr:postcode": "32205", "addr:state": "FL", "brand": "USPS", "collection_times": "Mo-Sa 15:15", "name": "USPS COLLECTION BOX - BLUE BOX", "note": "ON 12/24 AND 12/31, THIS BOX MAY BE COLLECTED AS EARLY AS 12 NOON.", "ref": "3220500036"}, "type": "Feature"}
{"geometry": {"coordinates": [-81.739550108, 30.311219625], "type": "Point"}, "id": "n5u020YtjezuaEReoodLob2RpqE=", "properties": {"@spider": "usps_collection_boxes", "addr:city": "JACKSONVILLE", "addr:country": "US", "addr:full": "5455 VERNA BLVD", "addr:postcode": "32205", "addr:state": "FL", "brand": "USPS", "collection_times": "Mo-Fr 17:00; Sa 16:00", "name": "USPS COLLECTION BOX - PO LOBBY", "note": "ON 12/24 AND 12/31, THIS BOX MAY BE COLLECTED AS EARLY AS 12 NOON.", "ref": "3220500130"}, "type": "Feature"}
{"geometry": {"coordinates": [-81.739550108, 30.311219625], "type": "Point"}, "id": "oPvCA6xNhlyaA_pOk2ir2LpbcPY=", "properties": {"@spider": "usps_collection_boxes", "addr:city": "JACKSONVILLE", "addr:country": "US", "addr:full": "5455 VERNA BLVD", "addr:postcode": "32205", "addr:state": "FL", "brand": "USPS", "collection_times": "Mo-Fr 17:00; Sa 16:00", "name": "USPS COLLECTION BOX - APC", "note": "ON 12/24 AND 12/31, THIS BOX MAY BE COLLECTED AS EARLY AS 12 NOON.", "ref": "3220500135"}, "type": "Feature"}
{"geometry": {"coordinates": [-81.739550108, 30.311219625], "type": "Point"}, "id": "cOFI40dEeSOby1-hlhfL162ft7k=", "properties": {"@spider": "usps_collection_boxes", "addr:city": "JACKSONVILLE", "addr:country": "US", "addr:full": "5455 VERNA BLVD", "addr:postcode": "32205", "addr:state": "FL", "brand": "USPS", "collection_times": "Mo-Fr 17:00; Sa 16:00", "name": "USPS COLLECTION BOX - PO LOBBY", "note": "ON 12/24 AND 12/31, THIS BOX MAY BE COLLECTED AS EARLY AS 12 NOON.", "ref": "3220500140"}, "type": "Feature"}
{"geometry": {"coordinates": [-81.7398989954, 30.3118530104], "type": "Point"}, "id": "BttZ1UNX1dwiq0NJxTHzmrESVW0=", "properties": {"@spider": "usps_collection_boxes", "addr:city": "JACKSONVILLE", "addr:country": "US", "addr:full": "5455 VERNA BLVD", "addr:postcode": "32205", "addr:state": "FL", "brand": "USPS", "collection_times": "Mo-Fr 17:00; Sa 16:00", "name": "USPS COLLECTION BOX - PO LOBBY", "note": "ON 12/24 AND 12/31, THIS BOX MAY BE COLLECTED AS EARLY AS 12 NOON.", "ref": "3220500145"}, "type": "Feature"}
{"geometry": {"coordinates": [-81.653835961, 30.343258996], "type": "Point"}, "id": "3DTrMQWfoi1D8BL0MGWui9axcao=", "properties": {"@spider": "usps_collection_boxes", "addr:city": "JACKSONVILLE", "addr:country": "US", "addr:full": "1601-1 N MAIN ST", "addr:postcode": "32206", "addr:state": "FL", "brand": "USPS", "collection_times": "Mo-Fr 16:00", "name": "USPS COLLECTION BOX - PO LOBBY", "note": "ON 12/24 AND 12/31, THIS BOX MAY BE COLLECTED AS EARLY AS 12 NOON.", "ref": "3220600047"}, "type": "Feature"}
{"geometry": {"coordinates": [-81.653835961, 30.343258996], "type": "Point"}, "id": "T1-ASGmNMT_FIgSUToxv3nxL0nE=", "properties": {"@spider": "usps_collection_boxes", "addr:city": "JACKSONVILLE", "addr:country": "US", "addr:full": "1601-1 N MAIN ST", "addr:postcode": "32206", "addr:state": "FL", "brand": "USPS", "collection_times": "Mo-Fr 16:00", "name": "USPS COLLECTION BOX - PO LOBBY", "note": "ON 12/24 AND 12/31, THIS BOX MAY BE COLLECTED AS EARLY AS 12 NOON.", "ref": "3220600048"}, "type": "Feature"}
{"geometry": {"coordinates": [-81.653835961, 30.343258996], "type": "Point"}, "id": "YRXaIoQA4fMLGK1hdC_N9nVCV64=", "properties": {"@spider": "usps_collection_boxes", "addr:city": "JACKSONVILLE", "addr:country": "US", "addr:full": "1601-1 N MAIN ST", "addr:postcode": "32206", "addr:state": "FL", "brand": "USPS", "collection_times": "Mo-Fr 16:00", "name": "USPS COLLECTION BOX - PO LOBBY", "note": "ON 12/24 AND 12/31, THIS BOX MAY BE COLLECTED AS EARLY AS 12 NOON.", "ref": "3220600050"}, "type": "Feature"}
{"geometry": {"coordinates": [-81.653835961, 30.343258996], "type": "Point"}, "id": "mtEAtEjm24JQWaCHXDwIt24c45M=", "properties": {"@spider": "usps_collection_boxes", "addr:city": "JACKSONVILLE", "addr:country": "US", "addr:full": "1601-1 N MAIN ST", "addr:postcode": "32206", "addr:state": "FL", "brand": "USPS", "collection_times": "Mo-Fr 16:20", "name": "USPS COLLECTION BOX - BLUE BOX", "note": "ON 12/24 AND 12/31, THIS BOX MAY BE COLLECTED AS EARLY AS 12 NOON.", "ref": "3220600051"}, "type": "Feature"}
{"geometry": {"coordinates": [-81.656603193, 30.318485543], "type": "Point"}, "id": "gEhLiTxytvqs3x6IHVRWJ6F-dlg=", "properties": {"@spider": "usps_collection_boxes", "addr:city": "JACKSONVILLE", "addr:country": "US", "addr:full": "1300 RIVERPLACE BLVD", "addr:postcode": "32207", "addr:state": "FL", "brand": "USPS", "collection_times": "Mo-Sa 16:30", "name": "USPS COLLECTION BOX - BLUE BOX", "note": "ON 12/24 AND 12/31, THIS BOX MAY BE COLLECTED AS EARLY AS 12 NOON.", "ref": "3220700032"}, "type": "Feature"}
{"geometry": {"coordinates": [-81.626838169, 30.293717638], "type": "Point"}, "id": "ofIciilvjI4obXZHohtBR6fCmSQ=", "properties": {"@spider": "usps_collection_boxes", "addr:city": "JACKSONVILLE", "addr:country": "US", "addr:full": "3000 SPRING PARK RD", "addr:postcode": "32207", "addr:state": "FL", "brand": "USPS", "collection_times": "Mo-Fr 17:00; Sa 16:00", "name": "USPS COLLECTION BOX - BLUE BOX", "note": "ON 12/24 AND 12/31, THIS BOX MAY BE COLLECTED AS EARLY AS 12 NOON.", "ref": "3220700142"}, "type": "Feature"}
{"geometry": {"coordinates": [-81.625158076, 30.267423023], "type": "Point"}, "id": "Vv4kxZ6Cpo8lQd2jvoxIgyeeV1g=", "properties": {"@spider": "usps_collection_boxes", "addr:city": "JACKSONVILLE", "addr:country": "US", "addr:full": "3030 POWERS AVE", "addr:postcode": "32207", "addr:state": "FL", "brand": "USPS", "collection_times": "Mo-Sa 15:10", "name": "USPS COLLECTION BOX - BLUE BOX", "note": "ON 12/24 AND 12/31, THIS BOX MAY BE COLLECTED AS EARLY AS 12 NOON.", "ref": "3220700154"}, "type": "Feature"}
{"geometry": {"coordinates": [-81.624791962, 30.30090355], "type": "Point"}, "id": "Ow6zT_riKEoRFAzIwKCJJN4givM=", "properties": {"@spider": "usps_collection_boxes", "addr:city": "JACKSONVILLE", "addr:country": "US", "addr:full": "3740 BEACH BLVD", "addr:postcode": "32207", "addr:state": "FL", "brand": "USPS", "collection_times": "Mo-Sa 15:00", "name": "USPS COLLECTION BOX - BLUE BOX", "note": "ON 12/24 AND 12/31, THIS BOX MAY BE COLLECTED AS EARLY AS 12 NOON.", "ref": "3220700159"}, "type": "Feature"}
{"geometry": {"coordinates": [-81.61989589, 30.302197629], "type": "Point"}, "id": "HbIWrrphWAgXrfFl0-Ug0MMXuZU=", "properties": {"@spider": "usps_collection_boxes", "addr:city": "JACKSONVILLE", "addr:country": "US", "addr:full": "4040 WOODCOCK DR", "addr:postcode": "32207", "addr:state": "FL", "brand": "USPS", "collection_times": "Mo-Sa 15:30", "name": "USPS COLLECTION BOX - BLUE BOX", "note": "ON 12/24 AND 12/31, THIS BOX MAY BE COLLECTED AS EARLY AS 12 NOON.", "ref": "3220700174"}, "type": "Feature"}
{"geometry": {"coordinates": [-81.609740258, 30.293782963], "type": "Point"}, "id": "c-K7vc2m5OkJ_q_IxgFrc6FDaIU=", "properties": {"@spider": "usps_collection_boxes", "addr:city": "JACKSONVILLE", "addr:country": "US", "addr:full": "3107 SPRING GLEN RD", "addr:postcode": "32207", "addr:state": "FL", "brand": "USPS", "collection_times": "Mo-Sa 15:55", "name": "USPS COLLECTION BOX - BLUE BOX", "note": "ON 12/24 AND 12/31, THIS BOX MAY BE COLLECTED AS EARLY AS 12 NOON.", "ref": "3220700185"}, "type": "Feature"}
{"geometry": {"coordinates": [-81.6148499686, 30.3097509967], "type": "Point"}, "id": "IqVP7RY5ZPPXOYFjTn8OcWyEbjk=", "properties": {"@spider": "usps_collection_boxes", "addr:city": "JACKSONVILLE", "addr:country": "US", "addr:full": "4811 ATLANTIC BLVD", "addr:postcode": "32207", "addr:state": "FL", "brand": "USPS", "collection_times": "Mo-Fr 15:45; Sa 14:00", "name": "USPS COLLECTION BOX - BLUE BOX", "note": "ON 12/24 AND 12/31, THIS BOX MAY BE COLLECTED AS EARLY AS 12 NOON.", "ref": "3220700186"}, "type": "Feature"}
{"geometry": {"coordinates": [-81.65106035, 30.316292494], "type": "Point"}, "id": "4iNqUPgqzNAsOCg3j-HBpwXGW1s=", "properties": {"@spider": "usps_collection_boxes", "addr:city": "JACKSONVILLE", "addr:country": "US", "addr:full": "1701 PRUDENTIAL DR", "addr:postcode": "32207", "addr:state": "FL", "brand": "USPS", "collection_times": "Mo-Sa 14:10", "name": "USPS COLLECTION BOX - BLUE BOX", "note": "ON 12/24 AND 12/31, THIS BOX MAY BE COLLECTED AS EARLY AS 12 NOON.", "ref": "3220700187"}, "type": "Feature"}
{"geometry": {"coordinates": [-81.626838169, 30.293717638], "type": "Point"}, "id": "k096d_PlmRM6RytYZBSvk9hb1as=", "properties": {"@spider": "usps_collection_boxes", "addr:city": "JACKSONVILLE", "addr:country": "US", "addr:full": "3000 SPRING PARK RD", "addr:postcode": "32207", "addr:state": "FL", "brand": "USPS", "collection_times": "Mo-Fr 17:00; Sa 16:00", "name": "USPS COLLECTION BOX - PO LOBBY", "note": "ON 12/24 AND 12/31, THIS BOX MAY BE COLLECTED AS EARLY AS 12 NOON.", "ref": "3220700208"}, "type": "Feature"}
{"geometry": {"coordinates": [-81.626838169, 30.293717638], "type": "Point"}, "id": "4Y-HrrtNZHuObrJg_LTJYuxOo_8=", "properties": {"@spider": "usps_collection_boxes", "addr:city": "JACKSONVILLE", "addr:country": "US", "addr:full": "3000 SPRING PARK RD", "addr:postcode": "32207", "addr:state": "FL", "brand": "USPS", "collection_times": "Mo-Fr 17:00; Sa 16:00", "name": "USPS COLLECTION BOX - PO LOBBY", "note": "ON 12/24 AND 12/31, THIS BOX MAY BE COLLECTED AS EARLY AS 12 NOON.", "ref": "3220700209"}, "type": "Feature"}
{"geometry": {"coordinates": [-81.6580215, 30.31848851], "type": "Point"}, "id": "GDTMikr3_3QAsBLDWnB_kjUBSxY=", "properties": {"@spider": "usps_collection_boxes", "addr:city": "JACKSONVILLE", "addr:country": "US", "addr:full": "1200 RIVERPLACE BLVD", "addr:postcode": "32207", "addr:state": "FL", "brand": "USPS", "collection_times": "Mo-Sa 14:25", "name": "USPS COLLECTION BOX - BLUE BOX", "note": "ON 12/24 AND 12/31, THIS BOX MAY BE COLLECTED AS EARLY AS 12 NOON.", "ref": "3220700278"}, "type": "Feature"}
{"geometry": {"coordinates": [-81.626838169, 30.293717638], "type": "Point"}, "id": "nT2v2CYxB02-OkpYJPvy4woV-v8=", "properties": {"@spider": "usps_collection_boxes", "addr:city": "JACKSONVILLE", "addr:country": "US", "addr:full": "3000 SPRING PARK RD", "addr:postcode": "32207", "addr:state": "FL", "brand": "USPS", "collection_times": "Mo-Fr 17:00; Sa 16:00", "name": "USPS COLLECTION BOX - PO LOBBY", "note": "ON 12/24 AND 12/31, THIS BOX MAY BE COLLECTED AS EARLY AS 12 NOON.", "ref": "3220700285"}, "type": "Feature"}
{"geometry": {"coordinates": [-81.656861995, 30.319190989], "type": "Point"}, "id": "9pIajBvMLETl2uwp0DVqy69PhRY=", "properties": {"@spider": "usps_collection_boxes", "addr:city": "JACKSONVILLE", "addr:country": "US", "addr:full": "1301 RIVERPLACE BLVD", "addr:postcode": "32207", "addr:state": "FL", "brand": "USPS", "collection_times": "Mo-Fr 16:30; Sa 14:15", "name": "USPS COLLECTION BOX - BLUE BOX", "note": "ON 12/24 AND 12/31, THIS BOX MAY BE COLLECTED AS EARLY AS 12 NOON.", "ref": "3220700286"}, "type": "Feature"}
{"geometry": {"coordinates": [-81.663871273, 30.371260437], "type": "Point"}, "id": "PEQrC6sln6QpHQMpF0nieCRg0JY=", "properties": {"@spider": "usps_collection_boxes", "addr:city": "JACKSONVILLE", "addr:country": "US", "addr:full": "5200 NORWOOD AVE", "addr:postcode": "32208", "addr:state": "FL", "brand": "USPS", "collection_times": "Mo-Sa 15:00", "name": "USPS COLLECTION BOX - BLUE BOX", "note": "ON 12/24 AND 12/31, THIS BOX MAY BE COLLECTED AS EARLY AS 12 NOON.", "ref": "3220800004"}, "type": "Feature"}
{"geometry": {"coordinates": [-81.681406049, 30.389628462], "type": "Point"}, "id": "hbvlEjPFyW7DlE9mry_7GRtBs5w=", "properties": {"@spider": "usps_collection_boxes", "addr:city": "JACKSONVILLE", "addr:country": "US", "addr:full": "1440 EDGEWOOD AVE W", "addr:postcode": "32208", "addr:state": "FL", "brand": "USPS", "collection_times": "Mo-Fr 17:00; Sa 16:00", "name": "USPS COLLECTION BOX - PO LOBBY", "note": "ON 12/24 AND 12/31, THIS BOX MAY BE COLLECTED AS EARLY AS 12 NOON.", "ref": "3220800047"}, "type": "Feature"}
{"geometry": {"coordinates": [-81.681406049, 30.389628462], "type": "Point"}, "id": "Qk2otlXkNZD4JpNwxN29xkz9AXU=", "properties": {"@spider": "usps_collection_boxes", "addr:city": "JACKSONVILLE", "addr:country": "US", "addr:full": "1440 EDGEWOOD AVE W", "addr:postcode": "32208", "addr:state": "FL", "brand": "USPS", "collection_times": "Mo-Fr 17:00; Sa 16:00", "name": "USPS COLLECTION BOX - PO LOBBY", "note": "ON 12/24 AND 12/31, THIS BOX MAY BE COLLECTED AS EARLY AS 12 NOON.", "ref": "3220800049"}, "type": "Feature"}
{"geometry": {"coordinates": [-81.681406049, 30.389628462], "type": "Point"}, "id": "GPHPV-QYBBaOSZ9yT5boWl1zYnY=", "properties": {"@spider": "usps_collection_boxes", "addr:city": "JACKSONVILLE", "addr:country": "US", "addr:full": "1440 EDGEWOOD AVE W", "addr:postcode": "32208", "addr:state": "FL", "brand": "USPS", "collection_times": "Mo-Fr 17:00; Sa 16:00", "name": "USPS COLLECTION BOX - BLUE BOX", "note": "ON 12/24 AND 12/31, THIS BOX MAY BE COLLECTED AS EARLY AS 12 NOON.", "ref": "3220800054"}, "type": "Feature"}
{"geometry": {"coordinates": [-81.681406049, 30.389628462], "type": "Point"}, "id": "4Eivz-EPl0LE14ASc63m5_YVirw=", "properties": {"@spider": "usps_collection_boxes", "addr:city": "JACKSONVILLE", "addr:country": "US", "addr:full": "1440 EDGEWOOD AVE W", "addr:postcode": "32208", "addr:state": "FL", "brand": "USPS", "collection_times": "Mo-Fr 17:00; Sa 16:00", "name": "USPS COLLECTION BOX - PO LOBBY", "note": "ON 12/24 AND 12/31, THIS BOX MAY BE COLLECTED AS EARLY AS 12 NOON.", "ref": "3220800055"}, "type": "Feature"}
{"geometry": {"coordinates": [-81.6669386264, 30.3375773608], "type": "Point"}, "id": "ahaB-TxRf2s3qIO8euQk-h4_RfY=", "properties": {"@spider": "usps_collection_boxes", "addr:city": "JACKSONVILLE", "addr:country": "US", "addr:full": "921 N DAVIS ST", "addr:postcode": "32209", "addr:state": "FL", "brand": "USPS", "collection_times": "Mo-Fr 10:30", "name": "USPS COLLECTION BOX - BLUE BOX", "ref": "3220900053"}, "type": "Feature"}
{"geometry": {"coordinates": [-81.664218644, 30.346800591], "type": "Point"}, "id": "IqwFWvIwKqd_DF7kyd-lKp8kVAM=", "properties": {"@spider": "usps_collection_boxes", "addr:city": "JACKSONVILLE", "addr:country": "US", "addr:full": "653 W 8TH ST", "addr:postcode": "32209", "addr:state": "FL", "brand": "USPS", "collection_times": "Mo-Sa 09:30", "name": "USPS COLLECTION BOX - BLUE BOX", "ref": "3220900058"}, "type": "Feature"}
{"geometry": {"coordinates": [-81.697293327, 30.364296632], "type": "Point"}, "id": "ZhiFKTuWIOUNyIU-1pWzDvZCngA=", "properties": {"@spider": "usps_collection_boxes", "addr:city": "JACKSONVILLE", "addr:country": "US", "addr:full": "4160 N CANAL ST", "addr:postcode": "32209", "addr:state": "FL", "brand": "USPS", "collection_times": "Mo-Fr 17:00; Sa 16:00", "name": "USPS COLLECTION BOX - PO LOBBY", "note": "ON 12/24 AND 12/31, THIS BOX MAY BE COLLECTED AS EARLY AS 12 NOON.", "ref": "3220900059"}, "type": "Feature"}
{"geometry": {"coordinates": [-81.697293327, 30.364296632], "type": "Point"}, "id": "t6_9m4WBoAGtXF1aT_pZdC_vKws=", "properties": {"@spider": "usps_collection_boxes", "addr:city": "JACKSONVILLE", "addr:country": "US", "addr:full": "4160 N CANAL ST", "addr:postcode": "32209", "addr:state": "FL", "brand": "USPS", "collection_times": "Mo-Fr 17:00; Sa 16:00", "name": "USPS COLLECTION BOX - PO LOBBY", "note": "ON 12/24 AND 12/31, THIS BOX MAY BE COLLECTED AS EARLY AS 12 NOON.", "ref": "3220900060"}, "type": "Feature"}
{"geometry": {"coordinates": [-81.697293327, 30.364296632], "type": "Point"}, "id": "uQFGsNpXxfcRxM9hX0IyKcDvVA4=", "properties": {"@spider": "usps_collection_boxes", "addr:city": "JACKSONVILLE", "addr:country": "US", "addr:full": "4160 N CANAL ST", "addr:postcode": "32209", "addr:state": "FL", "brand": "USPS", "collection_times": "Mo-Fr 17:00; Sa 16:00", "name": "USPS COLLECTION BOX - PO LOBBY", "note": "ON 12/24 AND 12/31, THIS BOX MAY BE COLLECTED AS EARLY AS 12 NOON.", "ref": "3220900062"}, "type": "Feature"}
{"geometry": {"coordinates": [-81.697709021, 30.364324018], "type": "Point"}, "id": "blgvI1MVhAZkvJFN6bHVhHiMNPc=", "properties": {"@spider": "usps_collection_boxes", "addr:city": "JACKSONVILLE", "addr:country": "US", "addr:full": "4160 N CANAL ST", "addr:postcode": "32209", "addr:state": "FL", "brand": "USPS", "collection_times": "Mo-Fr 17:00; Sa 16:00", "name": "USPS COLLECTION BOX - BLUE BOX", "note": "ON 12/24 AND 12/31, THIS BOX MAY BE COLLECTED AS EARLY AS 12 NOON.", "ref": "3220900063"}, "type": "Feature"}
{"geometry": {"coordinates": [-81.738569029, 30.246725367], "type": "Point"}, "id": "3WfpsayrzKKULoNAhuz8C2TPOak=", "properties": {"@spider": "usps_collection_boxes", "addr:city": "JACKSONVILLE", "addr:country": "US", "addr:full": "5501 WESCONNETT BLVD", "addr:postcode": "32210", "addr:state": "FL", "brand": "USPS", "collection_times": "Mo-Fr 17:00; Sa 16:00", "name": "USPS COLLECTION BOX - BLUE BOX", "note": "ON 12/24 AND 12/31, THIS BOX MAY BE COLLECTED AS EARLY AS 12 NOON.", "ref": "3221000004"}, "type": "Feature"}
{"geometry": {"coordinates": [-81.713504341, 30.285639251], "type": "Point"}, "id": "5s2HzWmY_QKX7vBNdBk8YuTWEnk=", "properties": {"@spider": "usps_collection_boxes", "addr:city": "JACKSONVILLE", "addr:country": "US", "addr:full": "4208 HERSCHEL ST", "addr:postcode": "32210", "addr:state": "FL", "brand": "USPS", "collection_times": "Mo-Sa 15:05", "name": "USPS COLLECTION BOX - BLUE BOX", "note": "ON 12/24 AND 12/31, THIS BOX MAY BE COLLECTED AS EARLY AS 12 NOON.", "ref": "3221000007"}, "type": "Feature"}
{"geometry": {"coordinates": [-81.720060826, 30.27991635], "type": "Point"}, "id": "jmf-lVlAXx_PmRMYZsfVOIiviS0=", "properties": {"@spider": "usps_collection_boxes", "addr:city": "JACKSONVILLE", "addr:country": "US", "addr:full": "4495 ROOSEVELT BLVD STE 103", "addr:postcode": "32210", "addr:state": "FL", "brand": "USPS", "collection_times": "Mo-Sa 15:05", "name": "USPS COLLECTION BOX - BLUE BOX", "note": "ON 12/24 AND 12/31, THIS BOX MAY BE COLLECTED AS EARLY AS 12 NOON.", "ref": "3221000014"}, "type": "Feature"}
{"geometry": {"coordinates": [-81.724841468, 30.283979465], "type": "Point"}, "id": "AxYjbZbJTARiA72Njv9Bf75IdKU=", "properties": {"@spider": "usps_collection_boxes", "addr:city": "JACKSONVILLE", "addr:country": "US", "addr:full": "4541 SHIRLEY AVE", "addr:postcode": "32210", "addr:state": "FL", "brand": "USPS", "collection_times": "Mo-Sa 14:55", "name": "USPS COLLECTION BOX - BLUE BOX", "note": "ON 12/24 AND 12/31, THIS BOX MAY BE COLLECTED AS EARLY AS 12 NOON.", "ref": "3221000020"}, "type": "Feature"}
{"geometry": {"coordinates": [-81.739920249, 30.262295503], "type": "Point"}, "id": "1gX2Eh_Auy6E3GVJbDUTXqFqiUA=", "properties": {"@spider": "usps_collection_boxes", "addr:city": "JACKSONVILLE", "addr:country": "US", "addr:full": "4328 BLANDING BLVD", "addr:postcode": "32210", "addr:state": "FL", "brand": "USPS", "collection_times": "Mo-Sa 13:30", "name": "USPS COLLECTION BOX - BLUE BOX", "note": "ON 12/24 AND 12/31, THIS BOX MAY BE COLLECTED AS EARLY AS 12 NOON.", "ref": "3221000024"}, "type": "Feature"}
{"geometry": {"coordinates": [-81.736945214, 30.268574124], "type": "Point"}, "id": "SVzq3rJw0k64DgrSmmo-2KnUJ1M=", "properties": {"@spider": "usps_collection_boxes", "addr:city": "JACKSONVILLE", "addr:country": "US", "addr:full": "3728 BLANDING BLVD", "addr:postcode": "32210", "addr:state": "FL", "brand": "USPS", "collection_times": "Mo-Sa 12:00", "name": "USPS COLLECTION BOX - BLUE BOX", "ref": "3221000080"}, "type": "Feature"}
{"geometry": {"coordinates": [-81.753241751, 30.248401531], "type": "Point"}, "id": "te644PYtaqdMcfson1u-JMHDWzo=", "properties": {"@spider": "usps_collection_boxes", "addr:city": "JACKSONVILLE", "addr:country": "US", "addr:full": "6677 103RD ST", "addr:postcode": "32210", "addr:state": "FL", "brand": "USPS", "collection_times": "Mo-Sa 12:00", "name": "USPS COLLECTION BOX - BLUE BOX", "ref": "3221000094"}, "type": "Feature"}
{"geometry": {"coordinates": [-81.738569029, 30.246725367], "type": "Point"}, "id": "SdtLCWFBqK6NyfDVKAs_xorO3Zs=", "properties": {"@spider": "usps_collection_boxes", "addr:city": "JACKSONVILLE", "addr:country": "US", "addr:full": "5501 WESCONNETT BLVD", "addr:postcode": "32210", "addr:state": "FL", "brand": "USPS", "collection_times": "Mo-Fr 17:00; Sa 16:00", "name": "USPS COLLECTION BOX - PO LOBBY", "note": "ON 12/24 AND 12/31, THIS BOX MAY BE COLLECTED AS EARLY AS 12 NOON.", "ref": "3221000100"}, "type": "Feature"}
{"geometry": {"coordinates": [-81.738569029, 30.246725367], "type": "Point"}, "id": "uRmELf3iyg96VUyEw0yeafpA7Y4=", "properties": {"@spider": "usps_collection_boxes", "addr:city": "JACKSONVILLE", "addr:country": "US", "addr:full": "5501 WESCONNETT BLVD", "addr:postcode": "32210", "addr:state": "FL", "brand": "USPS", "collection_times": "Mo-Fr 17:00; Sa 16:00", "name": "USPS COLLECTION BOX - PO LOBBY", "note": "ON 12/24 AND 12/31, THIS BOX MAY BE COLLECTED AS EARLY AS 12 NOON.", "ref": "3221000101"}, "type": "Feature"}
{"geometry": {"coordinates": [-81.704303303, 30.272107201], "type": "Point"}, "id": "8uMhyobGpkoae_QPFKIgW1zvhKg=", "properties": {"@spider": "usps_collection_boxes", "addr:city": "JACKSONVILLE", "addr:country": "US", "addr:full": "4208 OXFORD AVE", "addr:postcode": "32210", "addr:state": "FL", "brand": "USPS", "collection_times": "Mo-Sa 15:00", "name": "USPS COLLECTION BOX - BLUE BOX", "note": "ON 12/24 AND 12/31, THIS BOX MAY BE COLLECTED AS EARLY AS 12 NOON.", "ref": "3221000104"}, "type": "Feature"}
{"geometry": {"coordinates": [-81.738569029, 30.246725367], "type": "Point"}, "id": "angXzPyuBYdmoSF2NnPqxAyCSz4=", "properties": {"@spider": "usps_collection_boxes", "addr:city": "JACKSONVILLE", "addr:country": "US", "addr:full": "5501 WESCONNETT BLVD", "addr:postcode": "32210", "addr:state": "FL", "brand": "USPS", "collection_times": "Mo-Fr 17:00; Sa 16:00", "name": "USPS COLLECTION BOX - PO LOBBY", "note": "ON 12/24 AND 12/31, THIS BOX MAY BE COLLECTED AS EARLY AS 12 NOON.", "ref": "3221000107"}, "type": "Feature"}
{"geometry": {"coordinates": [-81.603950922, 30.328796318], "type": "Point"}, "id": "JuQ-yxeKh61q8YiF4hOW-A5V5PY=", "properties": {"@spider": "usps_collection_boxes", "addr:city": "JACKSONVILLE", "addr:country": "US", "addr:full": "840 UNIVERSITY BLVD N", "addr:postcode": "32211", "addr:state": "FL", "brand": "USPS", "collection_times": "Mo-Sa 15:00", "name": "USPS COLLECTION BOX - BLUE BOX", "note": "ON 12/24 AND 12/31, THIS BOX MAY BE COLLECTED AS EARLY AS 12 NOON.", "ref": "3221100059"}, "type": "Feature"}
{"geometry": {"coordinates": [-81.607585455, 30.333873253], "type": "Point"}, "id": "uEbBg9iXQ59STPkuHwuTmiJqbco=", "properties": {"@spider": "usps_collection_boxes", "addr:city": "JACKSONVILLE", "addr:country": "US", "addr:full": "5353 ARLINGTON EXPY", "addr:postcode": "32211", "addr:state": "FL", "brand": "USPS", "collection_times": "Mo-Sa 15:00", "name": "USPS COLLECTION BOX - BLUE BOX", "note": "ON 12/24 AND 12/31, THIS BOX MAY BE COLLECTED AS EARLY AS 12 NOON.", "ref": "3221100156"}, "type": "Feature"}
{"geometry": {"coordinates": [-81.598461631, 30.313720301], "type": "Point"}, "id": "UeNUNj6yakxDO0nLyMwF_eX4Rqw=", "properties": {"@spider": "usps_collection_boxes", "addr:city": "JACKSONVILLE", "addr:country": "US", "addr:full": "6022 ATLANTIC BLVD", "addr:postcode": "32211", "addr:state": "FL", "brand": "USPS", "collection_times": "Mo-Sa 15:15", "name": "USPS COLLECTION BOX - BLUE BOX", "note": "ON 12/24 AND 12/31, THIS BOX MAY BE COLLECTED AS EARLY AS 12 NOON.", "ref": "3221100157"}, "type": "Feature"}
{"geometry": {"coordinates": [-81.692472063, 30.222108854], "type": "Point"}, "id": "n0Pa5fCgO5EHa-K2lyiEPud0b_o=", "properties": {"@spider": "usps_collection_boxes", "addr:city": "JACKSONVILLE", "addr:country": "US", "addr:full": "569 ENTERPRISE ST", "addr:postcode": "32212", "addr:state": "FL", "brand": "USPS", "collection_times": "Mo-Fr 14:00", "name": "USPS COLLECTION BOX - BLUE BOX", "note": "ON 12/24 AND 12/31, THIS BOX MAY BE COLLECTED AS EARLY AS 12 NOON.", "ref": "3221200001"}, "type": "Feature"}
{"geometry": {"coordinates": [-81.570715036, 30.297922783], "type": "Point"}, "id": "MKJzGaT3BHrtqTAET6HIOYKNTh0=", "properties": {"@spider": "usps_collection_boxes", "addr:city": "JACKSONVILLE", "addr:country": "US", "addr:full": "8133 JAMAICA RD N", "addr:postcode": "32216", "addr:state": "FL", "brand": "USPS", "collection_times": "Mo-Sa 13:25", "name": "USPS COLLECTION BOX - BLUE BOX", "note": "ON 12/24 AND 12/31, THIS BOX MAY BE COLLECTED AS EARLY AS 12 NOON.", "ref": "3221600014"}, "type": "Feature"}
{"geometry": {"coordinates": [-81.572268698, 30.312428823], "type": "Point"}, "id": "hzBnpuSgq_oiSFqqbkW5EZHTZk0=", "properties": {"@spider": "usps_collection_boxes", "addr:city": "JACKSONVILLE", "addr:country": "US", "addr:full": "101 CENTURY 21 DR", "addr:postcode": "32216", "addr:state": "FL", "brand": "USPS", "collection_times": "Mo-Fr 10:00", "name": "USPS COLLECTION BOX - BLUE BOX", "ref": "3221600023"}, "type": "Feature"}
{"geometry": {"coordinates": [-81.572270296, 30.312379251], "type": "Point"}, "id": "cSbLobQTH8wBg0ONLOeCjg3zG7w=", "properties": {"@spider": "usps_collection_boxes", "addr:city": "JACKSONVILLE", "addr:country": "US", "addr:full": "103 CENTURY 21 DR", "addr:postcode": "32216", "addr:state": "FL", "brand": "USPS", "collection_times": "Mo-Fr 10:00", "name": "USPS COLLECTION BOX - BLUE BOX", "ref": "3221600025"}, "type": "Feature"}
{"geometry": {"coordinates": [-81.578962398, 30.312572426], "type": "Point"}, "id": "fFEXfgRZEiBDV7uWvkUExsJ-u0g=", "properties": {"@spider": "usps_collection_boxes", "addr:city": "JACKSONVILLE", "addr:country": "US", "addr:full": "29 ARLINGTON RD S", "addr:postcode": "32216", "addr:state": "FL", "brand": "USPS", "collection_times": "Mo-Sa 13:20", "name": "USPS COLLECTION BOX - BLUE BOX", "note": "ON 12/24 AND 12/31, THIS BOX MAY BE COLLECTED AS EARLY AS 12 NOON.", "ref": "3221600029"}, "type": "Feature"}
{"geometry": {"coordinates": [-81.60273385, 30.281544], "type": "Point"}, "id": "-30fAui7NSnNpFHHN31fxgTL348=", "properties": {"@spider": "usps_collection_boxes", "addr:city": "JACKSONVILLE", "addr:country": "US", "addr:full": "4140 UNIVERSITY BLVD S", "addr:postcode": "32216", "addr:state": "FL", "brand": "USPS", "collection_times": "Mo-Sa 15:20", "name": "USPS COLLECTION BOX - BLUE BOX", "note": "ON 12/24 AND 12/31, THIS BOX MAY BE COLLECTED AS EARLY AS 12 NOON.", "ref": "3221600033"}, "type": "Feature"}
{"geometry": {"coordinates": [-81.602254063, 30.28865683], "type": "Point"}, "id": "mCl3aKcu3KsiXtAKmCUBmRXVc0A=", "properties": {"@spider": "usps_collection_boxes", "addr:city": "JACKSONVILLE", "addr:country": "US", "addr:full": "3627 UNIVERSITY BLVD S", "addr:postcode": "32216", "addr:state": "FL", "brand": "USPS", "collection_times": "Mo-Sa 15:30", "name": "USPS COLLECTION BOX - BLUE BOX", "note": "ON 12/24 AND 12/31, THIS BOX MAY BE COLLECTED AS EARLY AS 12 NOON.", "ref": "3221600080"}, "type": "Feature"}
{"geometry": {"coordinates": [-81.602191895, 30.289564771], "type": "Point"}, "id": "k1R68YictTL2L_nIAXWYgJ-nJhU=", "properties": {"@spider": "usps_collection_boxes", "addr:city": "JACKSONVILLE", "addr:country": "US", "addr:full": "3599 UNIVERSITY BLVD S", "addr:postcode": "32216", "addr:state": "FL", "brand": "USPS", "collection_times": "Mo-Sa 15:35", "name": "USPS COLLECTION BOX - BLUE BOX", "note": "ON 12/24 AND 12/31, THIS BOX MAY BE COLLECTED AS EARLY AS 12 NOON.", "ref": "3221600219"}, "type": "Feature"}
{"geometry": {"coordinates": [-81.560269932, 30.30769257], "type": "Point"}, "id": "-hzJ85NlA-J-ZmuC0W8k3ZfBcRU=", "properties": {"@spider": "usps_collection_boxes", "addr:city": "JACKSONVILLE", "addr:country": "US", "addr:full": "2110 CORPORATE SQUARE BLVD", "addr:postcode": "32216", "addr:state": "FL", "brand": "USPS", "collection_times": "Mo-Fr 14:00", "name": "USPS COLLECTION BOX - BLUE BOX", "note": "ON 12/24 AND 12/31, THIS BOX MAY BE COLLECTED AS EARLY AS 12 NOON.", "ref": "3221600225"}, "type": "Feature"}
{"geometry": {"coordinates": [-81.594820558, 30.253359373], "type": "Point"}, "id": "D01n-hPqMwedaMP2GhtyKGYZjh0=", "properties": {"@spider": "usps_collection_boxes", "addr:city": "JACKSONVILLE", "addr:country": "US", "addr:full": "4237 SALISBURY RD", "addr:postcode": "32216", "addr:state": "FL", "brand": "USPS", "collection_times": "Mo-Fr 11:30", "name": "USPS COLLECTION BOX - BLUE BOX", "ref": "3221600237"}, "type": "Feature"}
{"geometry": {"coordinates": [-81.555311971, 30.256011142], "type": "Point"}, "id": "NXhoIUZ1TdjAsIO08sL3mNX71WI=", "properties": {"@spider": "usps_collection_boxes", "addr:city": "JACKSONVILLE", "addr:country": "US", "addr:full": "8711 PERIMETER PARK BLVD", "addr:postcode": "32216", "addr:state": "FL", "brand": "USPS", "collection_times": "Mo-Sa 14:00", "name": "USPS COLLECTION BOX - BLUE BOX", "note": "ON 12/24 AND 12/31, THIS BOX MAY BE COLLECTED AS EARLY AS 12 NOON.", "ref": "3221600249"}, "type": "Feature"}
{"geometry": {"coordinates": [-81.584836661, 30.259091901], "type": "Point"}, "id": "JefMWzEIXEv3AQQe0a0O0u4Kq5g=", "properties": {"@spider": "usps_collection_boxes", "addr:city": "JACKSONVILLE", "addr:country": "US", "addr:full": "6850 BELFORT OAKS PL", "addr:postcode": "32216", "addr:state": "FL", "brand": "USPS", "collection_times": "Mo-Fr 10:30", "name": "USPS COLLECTION BOX - BLUE BOX", "ref": "3221600284"}, "type": "Feature"}
{"geometry": {"coordinates": [-81.596984764, 30.257340009], "type": "Point"}, "id": "g6TP7gBpnUS7ZCKZQG0vL0zTEx4=", "properties": {"@spider": "usps_collection_boxes", "addr:city": "JACKSONVILLE", "addr:country": "US", "addr:full": "6676 CORPORATE CENTER PKWY", "addr:postcode": "32216", "addr:state": "FL", "brand": "USPS", "collection_times": "Mo-Fr 11:15", "name": "USPS COLLECTION BOX - BLUE BOX", "ref": "3221600301"}, "type": "Feature"}
{"geometry": {"coordinates": [-81.626046724, 30.252599895], "type": "Point"}, "id": "pGlRcxGFpObAME1N5evAIdiiVeo=", "properties": {"@spider": "usps_collection_boxes", "addr:city": "JACKSONVILLE", "addr:country": "US", "addr:full": "6849 SAINT AUGUSTINE RD", "addr:postcode": "32217", "addr:state": "FL", "brand": "USPS", "collection_times": "Mo-Sa 10:30", "name": "USPS COLLECTION BOX - BLUE BOX", "ref": "3221700015"}, "type": "Feature"}
{"geometry": {"coordinates": [-81.592822204, 30.22250045], "type": "Point"}, "id": "-xnyfTmfcfzxpLPhqKxgYcmQeoU=", "properties": {"@spider": "usps_collection_boxes", "addr:city": "JACKSONVILLE", "addr:country": "US", "addr:full": "8717 OLD KINGS RD S", "addr:postcode": "32217", "addr:state": "FL", "brand": "USPS", "collection_times": "Mo-Sa 15:30", "name": "USPS COLLECTION BOX - BLUE BOX", "note": "ON 12/24 AND 12/31, THIS BOX MAY BE COLLECTED AS EARLY AS 12 NOON.", "ref": "3221700027"}, "type": "Feature"}
{"geometry": {"coordinates": [-81.630819484, 30.260950517], "type": "Point"}, "id": "DxBg8pgxEGcAiEZnup0P4GdTkT8=", "properties": {"@spider": "usps_collection_boxes", "addr:city": "JACKSONVILLE", "addr:country": "US", "addr:full": "2777 UNIVERSITY BLVD W", "addr:postcode": "32217", "addr:state": "FL", "brand": "USPS", "collection_times": "Mo-Sa 10:00", "name": "USPS COLLECTION BOX - BLUE BOX", "ref": "3221700029"}, "type": "Feature"}
{"geometry": {"coordinates": [-81.61665231, 30.219549026], "type": "Point"}, "id": "685ZbIQrZkVCbW27AuZ67m896q0=", "properties": {"@spider": "usps_collection_boxes", "addr:city": "JACKSONVILLE", "addr:country": "US", "addr:full": "8823 SAN JOSE BLVD", "addr:postcode": "32217", "addr:state": "FL", "brand": "USPS", "collection_times": "Mo-Sa 12:00", "name": "USPS COLLECTION BOX - BLUE BOX", "ref": "3221700036"}, "type": "Feature"}
{"geometry": {"coordinates": [-81.610912606, 30.219108893], "type": "Point"}, "id": "ISLTNTXIKZLKFj4IW26Dd80u8RI=", "properties": {"@spider": "usps_collection_boxes", "addr:city": "JACKSONVILLE", "addr:country": "US", "addr:full": "8834 GOODBYS EXEC DR", "addr:postcode": "32217", "addr:state": "FL", "brand": "USPS", "collection_times": "Mo-Sa 11:00", "name": "USPS COLLECTION BOX - BLUE BOX", "ref": "3221700037"}, "type": "Feature"}
{"geometry": {"coordinates": [-81.626252901, 30.261157907], "type": "Point"}, "id": "9hPohf3A6eIUt68ZfsGF7sz2-1M=", "properties": {"@spider": "usps_collection_boxes", "addr:city": "JACKSONVILLE", "addr:country": "US", "addr:full": "3505 UNIVERSITY BLVD W", "addr:postcode": "32217", "addr:state": "FL", "brand": "USPS", "collection_times": "Mo-Sa 12:00", "name": "USPS COLLECTION BOX - BLUE BOX", "ref": "3221700038"}, "type": "Feature"}
{"geometry": {"coordinates": [-81.625141816, 30.261762938], "type": "Point"}, "id": "gaG6Vwn6MuC09o8GOIWa_7NPMcw=", "properties": {"@spider": "usps_collection_boxes", "addr:city": "JACKSONVILLE", "addr:country": "US", "addr:full": "3544 UNIVERSITY BLVD W", "addr:postcode": "32217", "addr:state": "FL", "brand": "USPS", "collection_times": "Mo-Sa 12:00", "name": "USPS COLLECTION BOX - BLUE BOX", "ref": "3221700039"}, "type": "Feature"}
{"geometry": {"coordinates": [-81.619827585, 30.260541493], "type": "Point"}, "id": "bFJLNr_O_oa41R2UyGWTyXwUT-Y=", "properties": {"@spider": "usps_collection_boxes", "addr:city": "JACKSONVILLE", "addr:country": "US", "addr:full": "6201 POWERS AVE", "addr:postcode": "32217", "addr:state": "FL", "brand": "USPS", "collection_times": "Mo-Sa 10:30", "name": "USPS COLLECTION BOX - BLUE BOX", "ref": "3221700045"}, "type": "Feature"}
{"geometry": {"coordinates": [-81.6246830307, 30.2628829983], "type": "Point"}, "id": "fEiRCmGA_aRySV7IbZ7tfvzFPBo=", "properties": {"@spider": "usps_collection_boxes", "addr:city": "JACKSONVILLE", "addr:country": "US", "addr:full": "3733 UNIVERSITY BLVD W", "addr:postcode": "32217", "addr:state": "FL", "brand": "USPS", "collection_times": "Mo-Sa 12:00", "name": "USPS COLLECTION BOX - BLUE BOX", "ref": "3221700111"}, "type": "Feature"}
{"geometry": {"coordinates": [-81.644128931, 30.260834237], "type": "Point"}, "id": "FHLfepfla-Yw04ItbsE4vx3rD70=", "properties": {"@spider": "usps_collection_boxes", "addr:city": "JACKSONVILLE", "addr:country": "US", "addr:full": "1520 UNIVERSITY BLVD W", "addr:postcode": "32217", "addr:state": "FL", "brand": "USPS", "collection_times": "Mo-Sa 11:00", "name": "USPS COLLECTION BOX - BLUE BOX", "ref": "3221700148"}, "type": "Feature"}
{"geometry": {"coordinates": [-81.6703065, 30.428982], "type": "Point"}, "id": "hE26pm2QNTRjWT8OzjtqCZqRibU=", "properties": {"@spider": "usps_collection_boxes", "addr:city": "JACKSONVILLE", "addr:country": "US", "addr:full": "1440 DUNN AVE", "addr:postcode": "32218", "addr:state": "FL", "brand": "USPS", "collection_times": "Mo-Sa 11:00", "name": "USPS COLLECTION BOX - BLUE BOX", "ref": "3221800026"}, "type": "Feature"}
{"geometry": {"coordinates": [-81.546593134, 30.39447244], "type": "Point"}, "id": "xy34G2mAAwcOZFbazXtY9GXy73w=", "properties": {"@spider": "usps_collection_boxes", "addr:city": "JACKSONVILLE", "addr:country": "US", "addr:full": "1 BLOUNT ISLAND BLVD", "addr:postcode": "32218", "addr:state": "FL", "brand": "USPS", "collection_times": "Mo-Sa 13:00", "name": "USPS COLLECTION BOX - BLUE BOX", "note": "ON 12/24 AND 12/31, THIS BOX MAY BE COLLECTED AS EARLY AS 12 NOON.", "ref": "3221800028"}, "type": "Feature"}
{"geometry": {"coordinates": [-81.699597967, 30.43628098], "type": "Point"}, "id": "yV1T2yB0f9Zm1s7H_uvZ3K1Y2xs=", "properties": {"@spider": "usps_collection_boxes", "addr:city": "JACKSONVILLE", "addr:country": "US", "addr:full": "3000 DUNN AVE", "addr:postcode": "32218", "addr:state": "FL", "brand": "USPS", "collection_times": "Mo-Sa 11:00", "name": "USPS COLLECTION BOX - BLUE BOX", "ref": "3221800038"}, "type": "Feature"}
{"geometry": {"coordinates": [-81.647586, 30.429198], "type": "Point"}, "id": "tMpFsLx2kl5vcXgh6518w3nMpJk=", "properties": {"@spider": "usps_collection_boxes", "addr:city": "JACKSONVILLE", "addr:country": "US", "addr:full": "150 BUSCH DR", "addr:postcode": "32218", "addr:state": "FL", "brand": "USPS", "collection_times": "Mo-Sa 17:00", "name": "USPS COLLECTION BOX - BLUE BOX", "note": "ON 12/24 AND 12/31, THIS BOX MAY BE COLLECTED AS EARLY AS 12 NOON.", "ref": "3221800046"}, "type": "Feature"}
{"geometry": {"coordinates": [-81.648249948, 30.429978526], "type": "Point"}, "id": "xJv14nlIQ2s7P82aFfzSvaU1zMc=", "properties": {"@spider": "usps_collection_boxes", "addr:city": "JACKSONVILLE", "addr:country": "US", "addr:full": "150 BUSCH DR", "addr:postcode": "32218", "addr:state": "FL", "brand": "USPS", "collection_times": "Mo-Fr 17:00; Sa 16:30", "name": "USPS COLLECTION BOX - PO LOBBY", "note": "ON 12/24 AND 12/31, THIS BOX MAY BE COLLECTED AS EARLY AS 12 NOON.", "ref": "3221800059"}, "type": "Feature"}
{"geometry": {"coordinates": [-81.648249948, 30.429978526], "type": "Point"}, "id": "v_0G7spp_DeNjNNW6zTiVvNuUEo=", "properties": {"@spider": "usps_collection_boxes", "addr:city": "JACKSONVILLE", "addr:country": "US", "addr:full": "150 BUSCH DR", "addr:postcode": "32218", "addr:state": "FL", "brand": "USPS", "collection_times": "Mo-Fr 17:00; Sa 16:30", "name": "USPS COLLECTION BOX - PO LOBBY", "note": "ON 12/24 AND 12/31, THIS BOX MAY BE COLLECTED AS EARLY AS 12 NOON.", "ref": "3221800060"}, "type": "Feature"}
{"geometry": {"coordinates": [-81.653342639, 30.478855417], "type": "Point"}, "id": "hw3n-tgipZCNFXpFO9EFGKoUSnY=", "properties": {"@spider": "usps_collection_boxes", "addr:city": "JACKSONVILLE", "addr:country": "US", "addr:full": "1350 TRADEPORT DR", "addr:postcode": "32218", "addr:state": "FL", "brand": "USPS", "collection_times": "Mo-Sa 12:00", "name": "USPS COLLECTION BOX - BLUE BOX", "ref": "3221800062"}, "type": "Feature"}
{"geometry": {"coordinates": [-81.6833081306, 30.4913809997], "type": "Point"}, "id": "r7U98uLBvEifRbWd2jxE2OIBCc4=", "properties": {"@spider": "usps_collection_boxes", "addr:city": "JACKSONVILLE", "addr:country": "US", "addr:full": "2400 YANKEE CLIPPER DR", "addr:postcode": "32218", "addr:state": "FL", "brand": "USPS", "collection_times": "Mo-Sa 11:00", "name": "USPS COLLECTION BOX - BLUE BOX", "ref": "3221800066"}, "type": "Feature"}
{"geometry": {"coordinates": [-81.648249948, 30.429978526], "type": "Point"}, "id": "LPaLG3Ik3dnTq2FTVCkrz0hzArc=", "properties": {"@spider": "usps_collection_boxes", "addr:city": "JACKSONVILLE", "addr:country": "US", "addr:full": "150 BUSCH DR", "addr:postcode": "32218", "addr:state": "FL", "brand": "USPS", "collection_times": "Mo-Fr 17:00; Sa 16:30", "name": "USPS COLLECTION BOX - PO LOBBY", "note": "ON 12/24 AND 12/31, THIS BOX MAY BE COLLECTED AS EARLY AS 12 NOON.", "ref": "3221800070"}, "type": "Feature"}
{"geometry": {"coordinates": [-81.790115383, 30.372822], "type": "Point"}, "id": "hnByII6Mzg5hPBoaoT1A1g7qevo=", "properties": {"@spider": "usps_collection_boxes", "addr:city": "JACKSONVILLE", "addr:country": "US", "addr:full": "4102 BULLS BAY HWY", "addr:postcode": "32219", "addr:state": "FL", "brand": "USPS", "collection_times": "Mo-Sa 12:00", "name": "USPS COLLECTION BOX - BLUE BOX", "ref": "3221900001"}, "type": "Feature"}
{"geometry": {"coordinates": [-81.848720319, 30.306132], "type": "Point"}, "id": "QZ2S8LxTZibd38QI5X2iPQRDAcU=", "properties": {"@spider": "usps_collection_boxes", "addr:city": "JACKSONVILLE", "addr:country": "US", "addr:full": "620 CHAFFEE RD S", "addr:postcode": "32221", "addr:state": "FL", "brand": "USPS", "collection_times": "Mo-Sa 14:15", "name": "USPS COLLECTION BOX - BLUE BOX", "note": "ON 12/24 AND 12/31, THIS BOX MAY BE COLLECTED AS EARLY AS 12 NOON.", "ref": "3222100001"}, "type": "Feature"}
{"geometry": {"coordinates": [-81.774510301, 30.29596636], "type": "Point"}, "id": "KW_koMOt2xDLIWwRMCgvQb3q6sI=", "properties": {"@spider": "usps_collection_boxes", "addr:city": "JACKSONVILLE", "addr:country": "US", "addr:full": "7749 NORMANDY BLVD", "addr:postcode": "32221", "addr:state": "FL", "brand": "USPS", "collection_times": "Mo-Sa 14:20", "name": "USPS COLLECTION BOX - BLUE BOX", "note": "ON 12/24 AND 12/31, THIS BOX MAY BE COLLECTED AS EARLY AS 12 NOON.", "ref": "3222100002"}, "type": "Feature"}
{"geometry": {"coordinates": [-81.632569244, 30.159927937], "type": "Point"}, "id": "dZi0NLA4E_-khFo5FGEnzj3PcGs=", "properties": {"@spider": "usps_collection_boxes", "addr:city": "JACKSONVILLE", "addr:country": "US", "addr:full": "11701 SAN JOSE BLVD", "addr:postcode": "32223", "addr:state": "FL", "brand": "USPS", "collection_times": "Mo-Sa 13:00", "name": "USPS COLLECTION BOX - BLUE BOX", "note": "ON 12/24 AND 12/31, THIS BOX MAY BE COLLECTED AS EARLY AS 12 NOON.", "ref": "3222300003"}, "type": "Feature"}
{"geometry": {"coordinates": [-81.63273377, 30.149291929], "type": "Point"}, "id": "MuqxaATri15BcGs82fu4Plhxpe4=", "properties": {"@spider": "usps_collection_boxes", "addr:city": "JACKSONVILLE", "addr:country": "US", "addr:full": "12200 SAN JOSE BLVD", "addr:postcode": "32223", "addr:state": "FL", "brand": "USPS", "collection_times": "Mo-Sa 12:00", "name": "USPS COLLECTION BOX - BLUE BOX", "ref": "3222300004"}, "type": "Feature"}
{"geometry": {"coordinates": [-81.632725769, 30.145364832], "type": "Point"}, "id": "s6zShStsvVVTk6ny_IZISjJOA4A=", "properties": {"@spider": "usps_collection_boxes", "addr:city": "JACKSONVILLE", "addr:country": "US", "addr:full": "12276 SAN JOSE BLVD", "addr:postcode": "32223", "addr:state": "FL", "brand": "USPS", "collection_times": "Mo-Sa 12:00", "name": "USPS COLLECTION BOX - BLUE BOX", "ref": "3222300005"}, "type": "Feature"}
{"geometry": {"coordinates": [-81.632461732, 30.138084], "type": "Point"}, "id": "cxMXzE0ASNZ88rQESXxLGtaROhg=", "properties": {"@spider": "usps_collection_boxes", "addr:city": "JACKSONVILLE", "addr:country": "US", "addr:full": "12627 SAN JOSE BLVD", "addr:postcode": "32223", "addr:state": "FL", "brand": "USPS", "collection_times": "Mo-Sa 13:00", "name": "USPS COLLECTION BOX - BLUE BOX", "note": "ON 12/24 AND 12/31, THIS BOX MAY BE COLLECTED AS EARLY AS 12 NOON.", "ref": "3222300006"}, "type": "Feature"}
{"geometry": {"coordinates": [-81.631617575, 30.167533464], "type": "Point"}, "id": "pfsgs_unP0B5esAPQoTIQvytdh4=", "properties": {"@spider": "usps_collection_boxes", "addr:city": "JACKSONVILLE", "addr:country": "US", "addr:full": "11362 SAN JOSE BLVD", "addr:postcode": "32223", "addr:state": "FL", "brand": "USPS", "collection_times": "Mo-Sa 13:00", "name": "USPS COLLECTION BOX - BLUE BOX", "note": "ON 12/24 AND 12/31, THIS BOX MAY BE COLLECTED AS EARLY AS 12 NOON.", "ref": "3222300007"}, "type": "Feature"}
{"geometry": {"coordinates": [-81.632311687, 30.165630025], "type": "Point"}, "id": "mNFRAlL57D70hv03HeO80n09jHk=", "properties": {"@spider": "usps_collection_boxes", "addr:city": "JACKSONVILLE", "addr:country": "US", "addr:full": "11457 SAN JOSE BLVD", "addr:postcode": "32223", "addr:state": "FL", "brand": "USPS", "collection_times": "Mo-Sa 13:00", "name": "USPS COLLECTION BOX - BLUE BOX", "note": "ON 12/24 AND 12/31, THIS BOX MAY BE COLLECTED AS EARLY AS 12 NOON.", "ref": "3222300008"}, "type": "Feature"}
{"geometry": {"coordinates": [-81.5094560019, 30.2840980144], "type": "Point"}, "id": "IDC4el12vOCLdu0LITaNQ6ztOiw=", "properties": {"@spider": "usps_collection_boxes", "addr:city": "JACKSONVILLE", "addr:country": "US", "addr:full": "11820 CENTRAL PKWY", "addr:postcode": "32224", "addr:state": "FL", "brand": "USPS", "collection_times": "Mo-Sa 12:00", "name": "USPS COLLECTION BOX - BLUE BOX", "ref": "3222400001"}, "type": "Feature"}
{"geometry": {"coordinates": [-81.461970124, 30.258488873], "type": "Point"}, "id": "bK41wayVQGy-1AMHTDMBmC73XsE=", "properties": {"@spider": "usps_collection_boxes", "addr:city": "JACKSONVILLE", "addr:country": "US", "addr:full": "13400 SUTTON PARK DR S", "addr:postcode": "32224", "addr:state": "FL", "brand": "USPS", "collection_times": "Mo-Sa 12:45", "name": "USPS COLLECTION BOX - BLUE BOX", "note": "ON 12/24 AND 12/31, THIS BOX MAY BE COLLECTED AS EARLY AS 12 NOON.", "ref": "3222400006"}, "type": "Feature"}
{"geometry": {"coordinates": [-81.516447, 30.358062], "type": "Point"}, "id": "wfJxUafs1H7w4wtE4k_dts2uY-Y=", "properties": {"@spider": "usps_collection_boxes", "addr:city": "JACKSONVILLE", "addr:country": "US", "addr:full": "10990 FORT CAROLINE RD", "addr:postcode": "32225", "addr:state": "FL", "brand": "USPS", "collection_times": "Mo-Fr 17:15; Sa 15:00", "name": "USPS COLLECTION BOX - BLUE BOX", "note": "ON 12/24 AND 12/31, THIS BOX MAY BE COLLECTED AS EARLY AS 12 NOON.", "ref": "3222500001"}, "type": "Feature"}
{"geometry": {"coordinates": [-81.556087769, 30.32187202], "type": "Point"}, "id": "DkeEAQ28bs_PLnu47XNLTCfwZuA=", "properties": {"@spider": "usps_collection_boxes", "addr:city": "JACKSONVILLE", "addr:country": "US", "addr:full": "9378 ARLINGTON EXPY", "addr:postcode": "32225", "addr:state": "FL", "brand": "USPS", "collection_times": "Mo-Sa 10:00", "name": "USPS COLLECTION BOX - BLUE BOX", "ref": "3222500004"}, "type": "Feature"}
{"geometry": {"coordinates": [-81.461459761, 30.31993453], "type": "Point"}, "id": "XkMCDFStktKQBRuipRk4J_rCkn8=", "properties": {"@spider": "usps_collection_boxes", "addr:city": "JACKSONVILLE", "addr:country": "US", "addr:full": "13170 ATLANTIC BLVD", "addr:postcode": "32225", "addr:state": "FL", "brand": "USPS", "collection_times": "Mo-Sa 13:00", "name": "USPS COLLECTION BOX - BLUE BOX", "note": "ON 12/24 AND 12/31, THIS BOX MAY BE COLLECTED AS EARLY AS 12 NOON.", "ref": "3222500014"}, "type": "Feature"}
{"geometry": {"coordinates": [-81.505420521, 30.374006522], "type": "Point"}, "id": "QV-G9sK3mdyGppHOzj4lTq6KEvs=", "properties": {"@spider": "usps_collection_boxes", "addr:city": "JACKSONVILLE", "addr:country": "US", "addr:full": "12261 HIDDEN HILLS DR", "addr:postcode": "32225", "addr:state": "FL", "brand": "USPS", "collection_times": "Mo-Sa 12:00", "name": "USPS COLLECTION BOX - BLUE BOX", "ref": "3222500026"}, "type": "Feature"}
{"geometry": {"coordinates": [-81.548095918, 30.352337136], "type": "Point"}, "id": "cKQzrd_Nr2MgVI-RKDsd60oTQHY=", "properties": {"@spider": "usps_collection_boxes", "addr:city": "JACKSONVILLE", "addr:country": "US", "addr:full": "9100 MERRILL RD", "addr:postcode": "32225", "addr:state": "FL", "brand": "USPS", "collection_times": "Mo-Sa 10:00", "name": "USPS COLLECTION BOX - BLUE BOX", "ref": "3222500032"}, "type": "Feature"}
{"geometry": {"coordinates": [-81.501014148, 30.370234389], "type": "Point"}, "id": "KSol6ZKQhVnTvONwWSj5g2XNljY=", "properties": {"@spider": "usps_collection_boxes", "addr:city": "JACKSONVILLE", "addr:country": "US", "addr:full": "12495 MISSION HILLS DR S", "addr:postcode": "32225", "addr:state": "FL", "brand": "USPS", "collection_times": "Mo-Sa 14:00", "name": "USPS COLLECTION BOX - BLUE BOX", "note": "ON 12/24 AND 12/31, THIS BOX MAY BE COLLECTED AS EARLY AS 12 NOON.", "ref": "3222500033"}, "type": "Feature"}
{"geometry": {"coordinates": [-81.523363309, 30.337685497], "type": "Point"}, "id": "ljo65fA8JAlE11fKmGvE7alyd98=", "properties": {"@spider": "usps_collection_boxes", "addr:city": "JACKSONVILLE", "addr:country": "US", "addr:full": "958 SAINT JOHNS BLUFF RD N", "addr:postcode": "32225", "addr:state": "FL", "brand": "USPS", "collection_times": "Mo-Sa 11:00", "name": "USPS COLLECTION BOX - BLUE BOX", "ref": "3222500035"}, "type": "Feature"}
{"geometry": {"coordinates": [-81.550030972, 30.326218517], "type": "Point"}, "id": "JRVkr1LEW3rFXEifTLbe4S9xYXs=", "properties": {"@spider": "usps_collection_boxes", "addr:city": "JACKSONVILLE", "addr:country": "US", "addr:full": "9550 REGENCY SQUARE BLVD", "addr:postcode": "32225", "addr:state": "FL", "brand": "USPS", "collection_times": "Mo-Sa 13:00", "name": "USPS COLLECTION BOX - BLUE BOX", "note": "ON 12/24 AND 12/31, THIS BOX MAY BE COLLECTED AS EARLY AS 12 NOON.", "ref": "3222500037"}, "type": "Feature"}
{"geometry": {"coordinates": [-81.548679494, 30.326256549], "type": "Point"}, "id": "iThq23PrOI35iJkGpM2KUG4CT-8=", "properties": {"@spider": "usps_collection_boxes", "addr:city": "JACKSONVILLE", "addr:country": "US", "addr:full": "9570 REGENCY SQUARE BLVD", "addr:postcode": "32225", "addr:state": "FL", "brand": "USPS", "collection_times": "Mo-Sa 13:00", "name": "USPS COLLECTION BOX - BLUE BOX", "note": "ON 12/24 AND 12/31, THIS BOX MAY BE COLLECTED AS EARLY AS 12 NOON.", "ref": "3222500039"}, "type": "Feature"}
{"geometry": {"coordinates": [-81.516504009, 30.3581289949], "type": "Point"}, "id": "tK4b1JHfhaZJheyCZU46_vVlmP4=", "properties": {"@spider": "usps_collection_boxes", "addr:city": "JACKSONVILLE", "addr:country": "US", "addr:full": "10990 FORT CAROLINE RD", "addr:postcode": "32225", "addr:state": "FL", "brand": "USPS", "collection_times": "Mo-Fr 17:15; Sa 16:30", "name": "USPS COLLECTION BOX - APC", "note": "ON 12/24 AND 12/31, THIS BOX MAY BE COLLECTED AS EARLY AS 12 NOON.", "ref": "3222500042"}, "type": "Feature"}
{"geometry": {"coordinates": [-81.553687748, 30.327244882], "type": "Point"}, "id": "TbroqVKAhCljFt8y8KkowLXp1VA=", "properties": {"@spider": "usps_collection_boxes", "addr:city": "JACKSONVILLE", "addr:country": "US", "addr:full": "9487 REGENCY SQUARE BLVD", "addr:postcode": "32225", "addr:state": "FL", "brand": "USPS", "collection_times": "Mo-Sa 13:00", "name": "USPS COLLECTION BOX - BLUE BOX", "note": "ON 12/24 AND 12/31, THIS BOX MAY BE COLLECTED AS EARLY AS 12 NOON.", "ref": "3222500045"}, "type": "Feature"}
{"geometry": {"coordinates": [-81.456719178, 30.322557064], "type": "Point"}, "id": "Oe7rEImdWMysKVXk1S5PFyzbF34=", "properties": {"@spider": "usps_collection_boxes", "addr:city": "JACKSONVILLE", "addr:country": "US", "addr:full": "241 QUEENS HARBOR BLVD", "addr:postcode": "32225", "addr:state": "FL", "brand": "USPS", "collection_times": "Mo-Sa 13:00", "name": "USPS COLLECTION BOX - BLUE BOX", "note": "ON 12/24 AND 12/31, THIS BOX MAY BE COLLECTED AS EARLY AS 12 NOON.", "ref": "3222500048"}, "type": "Feature"}
{"geometry": {"coordinates": [-81.517197955, 30.358437939], "type": "Point"}, "id": "OTe9qse4WYf50C6-JN9AdppA2bY=", "properties": {"@spider": "usps_collection_boxes", "addr:city": "JACKSONVILLE", "addr:country": "US", "addr:full": "10990 FORT CAROLINE RD", "addr:postcode": "32225", "addr:state": "FL", "brand": "USPS", "collection_times": "Mo-Fr 17:15; Sa 16:30", "name": "USPS COLLECTION BOX - PO LOBBY", "note": "ON 12/24 AND 12/31, THIS BOX MAY BE COLLECTED AS EARLY AS 12 NOON.", "ref": "3222500050"}, "type": "Feature"}
{"geometry": {"coordinates": [-81.517197955, 30.358437939], "type": "Point"}, "id": "rzBkUb705n9r2KKY2YQB9CfOdOI=", "properties": {"@spider": "usps_collection_boxes", "addr:city": "JACKSONVILLE", "addr:country": "US", "addr:full": "10990 FORT CAROLINE RD", "addr:postcode": "32225", "addr:state": "FL", "brand": "USPS", "collection_times": "Mo-Fr 17:15; Sa 16:30", "name": "USPS COLLECTION BOX - PO LOBBY", "note": "ON 12/24 AND 12/31, THIS BOX MAY BE COLLECTED AS EARLY AS 12 NOON.", "ref": "3222500051"}, "type": "Feature"}
{"geometry": {"coordinates": [-81.517197955, 30.358437939], "type": "Point"}, "id": "7gwgqhNYH2eu7fzkdaFaM4kNg8c=", "properties": {"@spider": "usps_collection_boxes", "addr:city": "JACKSONVILLE", "addr:country": "US", "addr:full": "10990 FORT CAROLINE RD", "addr:postcode": "32225", "addr:state": "FL", "brand": "USPS", "collection_times": "Mo-Fr 17:15; Sa 16:30", "name": "USPS COLLECTION BOX - PO LOBBY", "note": "ON 12/24 AND 12/31, THIS BOX MAY BE COLLECTED AS EARLY AS 12 NOON.", "ref": "3222500063"}, "type": "Feature"}
{"geometry": {"coordinates": [-81.408965395, 30.387805108], "type": "Point"}, "id": "_ZTJN9nybl8a75qt8iN0ScLMI68=", "properties": {"@spider": "usps_collection_boxes", "addr:city": "JACKSONVILLE", "addr:country": "US", "addr:full": "460 MASSEY AVE", "addr:postcode": "32228", "addr:state": "FL", "brand": "USPS", "collection_times": "Mo-Sa 14:20", "name": "USPS COLLECTION BOX - BLUE BOX", "note": "ON 12/24 AND 12/31, THIS BOX MAY BE COLLECTED AS EARLY AS 12 NOON.", "ref": "3222800001"}, "type": "Feature"}
{"geometry": {"coordinates": [-81.408965395, 30.387805108], "type": "Point"}, "id": "gKumU2KEsSeCGk4sUArpk6bIzCI=", "properties": {"@spider": "usps_collection_boxes", "addr:city": "JACKSONVILLE", "addr:country": "US", "addr:full": "460 MASSEY AVE", "addr:postcode": "32228", "addr:state": "FL", "brand": "USPS", "collection_times": "Mo-Fr 16:00", "name": "USPS COLLECTION BOX - PO LOBBY", "note": "ON 12/24 AND 12/31, THIS BOX MAY BE COLLECTED AS EARLY AS 12 NOON.", "ref": "3222800002"}, "type": "Feature"}
{"geometry": {"coordinates": [-81.408965395, 30.387805108], "type": "Point"}, "id": "9Go34jo5Qib4-EIkZmbGDUXDiVU=", "properties": {"@spider": "usps_collection_boxes", "addr:city": "JACKSONVILLE", "addr:country": "US", "addr:full": "460 MASSEY AVE", "addr:postcode": "32228", "addr:state": "FL", "brand": "USPS", "collection_times": "Mo-Fr 16:00", "name": "USPS COLLECTION BOX - PO LOBBY", "note": "ON 12/24 AND 12/31, THIS BOX MAY BE COLLECTED AS EARLY AS 12 NOON.", "ref": "3222800003"}, "type": "Feature"}
{"geometry": {"coordinates": [-81.413630312, 30.348746162], "type": "Point"}, "id": "exZjr0u0DXYJabwEOb8QxpGcvlY=", "properties": {"@spider": "usps_collection_boxes", "addr:city": "JACKSONVILLE", "addr:country": "US", "addr:full": "2292 MAYPORT RD", "addr:postcode": "32233", "addr:state": "FL", "brand": "USPS", "collection_times": "Mo-Sa 14:45", "name": "USPS COLLECTION BOX - BLUE BOX", "note": "ON 12/24 AND 12/31, THIS BOX MAY BE COLLECTED AS EARLY AS 12 NOON.", "ref": "3223300017"}, "type": "Feature"}
{"geometry": {"coordinates": [-81.416383466, 30.331699776], "type": "Point"}, "id": "luAKLaoUN_fGbC5ri0JNwnIyfPc=", "properties": {"@spider": "usps_collection_boxes", "addr:city": "JACKSONVILLE", "addr:country": "US", "addr:full": "1001 MAYPORT RD", "addr:postcode": "32233", "addr:state": "FL", "brand": "USPS", "collection_times": "Mo-Fr 17:30; Sa 15:00", "name": "USPS COLLECTION BOX - PO LOBBY", "note": "ON 12/24 AND 12/31, THIS BOX MAY BE COLLECTED AS EARLY AS 12 NOON.", "ref": "3223300028"}, "type": "Feature"}
{"geometry": {"coordinates": [-81.416383466, 30.331699776], "type": "Point"}, "id": "7P8uNw3c_OtWzKkI_alFcz9TU4E=", "properties": {"@spider": "usps_collection_boxes", "addr:city": "JACKSONVILLE", "addr:country": "US", "addr:full": "1001 MAYPORT RD", "addr:postcode": "32233", "addr:state": "FL", "brand": "USPS", "collection_times": "Mo-Fr 17:30; Sa 15:30", "name": "USPS COLLECTION BOX - BLUE BOX", "note": "ON 12/24 AND 12/31, THIS BOX MAY BE COLLECTED AS EARLY AS 12 NOON.", "ref": "3223300029"}, "type": "Feature"}
{"geometry": {"coordinates": [-81.397393903, 30.332338241], "type": "Point"}, "id": "EkDPA7RpSxz6Y7DqD2jIf13UdgM=", "properties": {"@spider": "usps_collection_boxes", "addr:city": "JACKSONVILLE", "addr:country": "US", "addr:full": "716 OCEAN BLVD", "addr:postcode": "32233", "addr:state": "FL", "brand": "USPS", "collection_times": "Mo-Sa 13:55", "name": "USPS COLLECTION BOX - BLUE BOX", "note": "ON 12/24 AND 12/31, THIS BOX MAY BE COLLECTED AS EARLY AS 12 NOON.", "ref": "3223300121"}, "type": "Feature"}
{"geometry": {"coordinates": [-81.399150397, 30.340698713], "type": "Point"}, "id": "IHt_8HYlPsQ2b1EHIjv_8Ge9uho=", "properties": {"@spider": "usps_collection_boxes", "addr:city": "JACKSONVILLE", "addr:country": "US", "addr:full": "1598 SEMINOLE RD", "addr:postcode": "32233", "addr:state": "FL", "brand": "USPS", "collection_times": "Mo-Sa 14:00", "name": "USPS COLLECTION BOX - BLUE BOX", "note": "ON 12/24 AND 12/31, THIS BOX MAY BE COLLECTED AS EARLY AS 12 NOON.", "ref": "3223300122"}, "type": "Feature"}
{"geometry": {"coordinates": [-81.416383466, 30.331699776], "type": "Point"}, "id": "4svKUurZfBknywobvDEzxfGaCu8=", "properties": {"@spider": "usps_collection_boxes", "addr:city": "JACKSONVILLE", "addr:country": "US", "addr:full": "1001 MAYPORT RD", "addr:postcode": "32233", "addr:state": "FL", "brand": "USPS", "collection_times": "Mo-Fr 17:30; Sa 15:00", "name": "USPS COLLECTION BOX - PO LOBBY", "note": "ON 12/24 AND 12/31, THIS BOX MAY BE COLLECTED AS EARLY AS 12 NOON.", "ref": "3223300127"}, "type": "Feature"}
{"geometry": {"coordinates": [-81.975548203, 30.301244026], "type": "Point"}, "id": "7aTrXMqJbjtucByKCx6C-qR-AY8=", "properties": {"@spider": "usps_collection_boxes", "addr:city": "JACKSONVILLE", "addr:country": "US", "addr:full": "199 CENTER ST S", "addr:postcode": "32234", "addr:state": "FL", "brand": "USPS", "collection_times": "Mo-Fr 16:00; Sa 14:30", "name": "USPS COLLECTION BOX - BLUE BOX", "note": "ON 12/24 AND 12/31, THIS BOX MAY BE COLLECTED AS EARLY AS 12 NOON.", "ref": "3223400000"}, "type": "Feature"}
{"geometry": {"coordinates": [-81.975548203, 30.301244026], "type": "Point"}, "id": "RsRz-Gsq0w9FjkF2BxO55XP4BCE=", "properties": {"@spider": "usps_collection_boxes", "addr:city": "JACKSONVILLE", "addr:country": "US", "addr:full": "199 CENTER ST S", "addr:postcode": "32234", "addr:state": "FL", "brand": "USPS", "collection_times": "Mo-Fr 16:00; Sa 14:30", "name": "USPS COLLECTION BOX - PO LOBBY", "note": "ON 12/24 AND 12/31, THIS BOX MAY BE COLLECTED AS EARLY AS 12 NOON.", "ref": "3223400001"}, "type": "Feature"}
{"geometry": {"coordinates": [-81.983005807, 30.285455636], "type": "Point"}, "id": "-qtBRN6XygTeuxjQ-jMAKROulCA=", "properties": {"@spider": "usps_collection_boxes", "addr:city": "JACKSONVILLE", "addr:country": "US", "addr:full": "1024 US HIGHWAY 301 S", "addr:postcode": "32234", "addr:state": "FL", "brand": "USPS", "collection_times": "Mo-Sa 09:30", "name": "USPS COLLECTION BOX - BLUE BOX", "ref": "3223400003"}, "type": "Feature"}
{"geometry": {"coordinates": [-81.975548203, 30.301244026], "type": "Point"}, "id": "edYe43WHLzASFDfnqvRqVBH2LuE=", "properties": {"@spider": "usps_collection_boxes", "addr:city": "JACKSONVILLE", "addr:country": "US", "addr:full": "199 CENTER ST S", "addr:postcode": "32234", "addr:state": "FL", "brand": "USPS", "collection_times": "Mo-Fr 16:00; Sa 14:30", "name": "USPS COLLECTION BOX - PO LOBBY", "note": "ON 12/24 AND 12/31, THIS BOX MAY BE COLLECTED AS EARLY AS 12 NOON.", "ref": "3223400006"}, "type": "Feature"}
{"geometry": {"coordinates": [-81.697337851, 30.246605106], "type": "Point"}, "id": "ORnYP9Aaqd1izQqzv_wpEwPgMhc=", "properties": {"@spider": "usps_collection_boxes", "addr:city": "JACKSONVILLE", "addr:country": "US", "addr:full": "5513 ROOSEVELT BLVD", "addr:postcode": "32244", "addr:state": "FL", "brand": "USPS", "collection_times": "Mo-Sa 12:00", "name": "USPS COLLECTION BOX - BLUE BOX", "ref": "3224400015"}, "type": "Feature"}
{"geometry": {"coordinates": [-81.736750236, 30.219763662], "type": "Point"}, "id": "Ts-sQpaauKPMChFXDDYq3256wp8=", "properties": {"@spider": "usps_collection_boxes", "addr:city": "JACKSONVILLE", "addr:country": "US", "addr:full": "7055 BLANDING BLVD", "addr:postcode": "32244", "addr:state": "FL", "brand": "USPS", "collection_times": "Mo-Fr 18:30; Sa 16:00", "name": "USPS COLLECTION BOX - BLUE BOX", "note": "ON 12/24 AND 12/31, THIS BOX MAY BE COLLECTED AS EARLY AS 12 NOON.", "ref": "3224400023"}, "type": "Feature"}
{"geometry": {"coordinates": [-81.736750236, 30.219763662], "type": "Point"}, "id": "Nn9dX8Src4HnDFSSNo5Yo_DP3-8=", "properties": {"@spider": "usps_collection_boxes", "addr:city": "JACKSONVILLE", "addr:country": "US", "addr:full": "7055 BLANDING BLVD", "addr:postcode": "32244", "addr:state": "FL", "brand": "USPS", "collection_times": "Mo-Fr 18:30; Sa 16:00", "name": "USPS COLLECTION BOX - PO LOBBY", "note": "ON 12/24 AND 12/31, THIS BOX MAY BE COLLECTED AS EARLY AS 12 NOON.", "ref": "3224400030"}, "type": "Feature"}
{"geometry": {"coordinates": [-81.736750236, 30.219763662], "type": "Point"}, "id": "YWh6X2fiI11Nig4UpuMQuLXPGAE=", "properties": {"@spider": "usps_collection_boxes", "addr:city": "JACKSONVILLE", "addr:country": "US", "addr:full": "7055 BLANDING BLVD", "addr:postcode": "32244", "addr:state": "FL", "brand": "USPS", "collection_times": "Mo-Fr 18:30; Sa 16:00", "name": "USPS COLLECTION BOX - PO LOBBY", "note": "ON 12/24 AND 12/31, THIS BOX MAY BE COLLECTED AS EARLY AS 12 NOON.", "ref": "3224400031"}, "type": "Feature"}
{"geometry": {"coordinates": [-81.736750236, 30.219763662], "type": "Point"}, "id": "zVPCIk72k9ob2FJzYSSL-L7CqMw=", "properties": {"@spider": "usps_collection_boxes", "addr:city": "JACKSONVILLE", "addr:country": "US", "addr:full": "7055 BLANDING BLVD", "addr:postcode": "32244", "addr:state": "FL", "brand": "USPS", "collection_times": "Mo-Fr 18:30; Sa 16:00", "name": "USPS COLLECTION BOX - APC", "note": "ON 12/24 AND 12/31, THIS BOX MAY BE COLLECTED AS EARLY AS 12 NOON.", "ref": "3224400033"}, "type": "Feature"}
{"geometry": {"coordinates": [-81.736750236, 30.219763662], "type": "Point"}, "id": "II1vquqmnLfv5ULJu-vMuDuLMGw=", "properties": {"@spider": "usps_collection_boxes", "addr:city": "JACKSONVILLE", "addr:country": "US", "addr:full": "7055 BLANDING BLVD", "addr:postcode": "32244", "addr:state": "FL", "brand": "USPS", "collection_times": "Mo-Fr 18:30; Sa 16:00", "name": "USPS COLLECTION BOX - PO LOBBY", "note": "ON 12/24 AND 12/31, THIS BOX MAY BE COLLECTED AS EARLY AS 12 NOON.", "ref": "3224400042"}, "type": "Feature"}
{"geometry": {"coordinates": [-81.538078022, 30.2855050006], "type": "Point"}, "id": "CZB6lb9qQ8CzS6jk-OGfgZ7cC8Y=", "properties": {"@spider": "usps_collection_boxes", "addr:city": "JACKSONVILLE", "addr:country": "US", "addr:full": "10700 BEACH BLVD", "addr:postcode": "32246", "addr:state": "FL", "brand": "USPS", "collection_times": "Mo-Fr 17:00; Sa 16:30", "name": "USPS COLLECTION BOX - BLUE BOX", "note": "ON 12/24 AND 12/31, THIS BOX MAY BE COLLECTED AS EARLY AS 12 NOON.", "ref": "3224600003"}, "type": "Feature"}
{"geometry": {"coordinates": [-81.538237781, 30.286673499], "type": "Point"}, "id": "vxEoug3I9TAS8h3F9hIa49UN_qE=", "properties": {"@spider": "usps_collection_boxes", "addr:city": "JACKSONVILLE", "addr:country": "US", "addr:full": "10700 BEACH BLVD", "addr:postcode": "32246", "addr:state": "FL", "brand": "USPS", "collection_times": "Mo-Fr 17:30; Sa 16:30", "name": "USPS COLLECTION BOX - PO LOBBY", "note": "ON 12/24 AND 12/31, THIS BOX MAY BE COLLECTED AS EARLY AS 12 NOON.", "ref": "3224600004"}, "type": "Feature"}
{"geometry": {"coordinates": [-81.538237781, 30.286673499], "type": "Point"}, "id": "CMrH7jA6phCDp_OnrrT584EY3qU=", "properties": {"@spider": "usps_collection_boxes", "addr:city": "JACKSONVILLE", "addr:country": "US", "addr:full": "10700 BEACH BLVD", "addr:postcode": "32246", "addr:state": "FL", "brand": "USPS", "collection_times": "Mo-Fr 17:30; Sa 16:30", "name": "USPS COLLECTION BOX - PO LOBBY", "note": "ON 12/24 AND 12/31, THIS BOX MAY BE COLLECTED AS EARLY AS 12 NOON.", "ref": "3224600005"}, "type": "Feature"}
{"geometry": {"coordinates": [-81.538237781, 30.286673499], "type": "Point"}, "id": "KYNpkWh0LXfvn-ej__ORJGnzxZ8=", "properties": {"@spider": "usps_collection_boxes", "addr:city": "JACKSONVILLE", "addr:country": "US", "addr:full": "10700 BEACH BLVD", "addr:postcode": "32246", "addr:state": "FL", "brand": "USPS", "collection_times": "Mo-Fr 17:30; Sa 16:30", "name": "USPS COLLECTION BOX - APC", "note": "ON 12/24 AND 12/31, THIS BOX MAY BE COLLECTED AS EARLY AS 12 NOON.", "ref": "3224600006"}, "type": "Feature"}
{"geometry": {"coordinates": [-81.525300757, 30.280895435], "type": "Point"}, "id": "p9ZPEAdLIJP50Bqphau7u2vDBn4=", "properties": {"@spider": "usps_collection_boxes", "addr:city": "JACKSONVILLE", "addr:country": "US", "addr:full": "3740 SAINT JOHNS BLUFF RD S", "addr:postcode": "32246", "addr:state": "FL", "brand": "USPS", "collection_times": "Mo-Sa 12:30", "name": "USPS COLLECTION BOX - BLUE BOX", "note": "ON 12/24 AND 12/31, THIS BOX MAY BE COLLECTED AS EARLY AS 12 NOON.", "ref": "3224600010"}, "type": "Feature"}
{"geometry": {"coordinates": [-81.527269214, 30.25586745], "type": "Point"}, "id": "XfRLLgGTkFdIJX-jm38iaA_JMV8=", "properties": {"@spider": "usps_collection_boxes", "addr:city": "JACKSONVILLE", "addr:country": "US", "addr:full": "4755 TOWN CROSSING DR", "addr:postcode": "32246", "addr:state": "FL", "brand": "USPS", "collection_times": "Mo-Sa 13:50", "name": "USPS COLLECTION BOX - BLUE BOX", "note": "ON 12/24 AND 12/31, THIS BOX MAY BE COLLECTED AS EARLY AS 12 NOON.", "ref": "3224600012"}, "type": "Feature"}
{"geometry": {"coordinates": [-81.538237781, 30.286673499], "type": "Point"}, "id": "ZNcVlUX5Z-57a9_f9WnlwXMhexA=", "properties": {"@spider": "usps_collection_boxes", "addr:city": "JACKSONVILLE", "addr:country": "US", "addr:full": "10700 BEACH BLVD", "addr:postcode": "32246", "addr:state": "FL", "brand": "USPS", "collection_times": "Mo-Fr 17:30; Sa 16:30", "name": "USPS COLLECTION BOX - PO LOBBY", "note": "ON 12/24 AND 12/31, THIS BOX MAY BE COLLECTED AS EARLY AS 12 NOON.", "ref": "3224600024"}, "type": "Feature"}
{"geometry": {"coordinates": [-81.399548302, 30.274535504], "type": "Point"}, "id": "SH7BjRI6QHo0ZWExiXPdKTdCzRw=", "properties": {"@spider": "usps_collection_boxes", "addr:city": "JACKSONVILLE", "addr:country": "US", "addr:full": "1350 13TH AVE S", "addr:postcode": "32250", "addr:state": "FL", "brand": "USPS", "collection_times": "Mo-Sa 13:10", "name": "USPS COLLECTION BOX - BLUE BOX", "note": "ON 12/24 AND 12/31, THIS BOX MAY BE COLLECTED AS EARLY AS 12 NOON.", "ref": "3225000137"}, "type": "Feature"}
{"geometry": {"coordinates": [-81.390089606, 30.291597607], "type": "Point"}, "id": "YUG_K8ytwnYqs3QMnaPgyeNi5NM=", "properties": {"@spider": "usps_collection_boxes", "addr:city": "JACKSONVILLE", "addr:country": "US", "addr:full": "305 1ST ST N", "addr:postcode": "32250", "addr:state": "FL", "brand": "USPS", "collection_times": "Mo-Sa 12:00", "name": "USPS COLLECTION BOX - BLUE BOX", "ref": "3225000148"}, "type": "Feature"}
{"geometry": {"coordinates": [-81.388002108, 30.25768517], "type": "Point"}, "id": "UiH67vsYDdVoTjXB7WnAUXOtEFE=", "properties": {"@spider": "usps_collection_boxes", "addr:city": "JACKSONVILLE", "addr:country": "US", "addr:full": "3952 3RD ST S", "addr:postcode": "32250", "addr:state": "FL", "brand": "USPS", "collection_times": "Mo-Sa 12:00", "name": "USPS COLLECTION BOX - BLUE BOX", "ref": "3225000164"}, "type": "Feature"}
{"geometry": {"coordinates": [-81.439903975, 30.285754991], "type": "Point"}, "id": "D48LIuQi_4md_YHki5uE61zuc8I=", "properties": {"@spider": "usps_collection_boxes", "addr:city": "JACKSONVILLE", "addr:country": "US", "addr:full": "14286 BEACH BLVD", "addr:postcode": "32250", "addr:state": "FL", "brand": "USPS", "collection_times": "Mo-Sa 12:00", "name": "USPS COLLECTION BOX - BLUE BOX", "ref": "3225000171"}, "type": "Feature"}
{"geometry": {"coordinates": [-81.392716032, 30.255662886], "type": "Point"}, "id": "VG9AfAKDX8ZJJSDNog-JjHs6_MM=", "properties": {"@spider": "usps_collection_boxes", "addr:city": "JACKSONVILLE", "addr:country": "US", "addr:full": "738 MARSH LANDING PKWY", "addr:postcode": "32250", "addr:state": "FL", "brand": "USPS", "collection_times": "Mo-Sa 12:30", "name": "USPS COLLECTION BOX - BLUE BOX", "note": "ON 12/24 AND 12/31, THIS BOX MAY BE COLLECTED AS EARLY AS 12 NOON.", "ref": "3225000173"}, "type": "Feature"}
{"geometry": {"coordinates": [-81.390328141, 30.267446527], "type": "Point"}, "id": "lQtgpaRmkRhzXGsNIhv2ZBHfIPE=", "properties": {"@spider": "usps_collection_boxes", "addr:city": "JACKSONVILLE", "addr:country": "US", "addr:full": "472 OSCEOLA AVE", "addr:postcode": "32250", "addr:state": "FL", "brand": "USPS", "collection_times": "Mo-Sa 13:15", "name": "USPS COLLECTION BOX - BLUE BOX", "note": "ON 12/24 AND 12/31, THIS BOX MAY BE COLLECTED AS EARLY AS 12 NOON.", "ref": "3225000174"}, "type": "Feature"}
{"geometry": {"coordinates": [-81.404387688, 30.288033332], "type": "Point"}, "id": "4g1tyu4CYVGgvGYClwrD0CVrsg8=", "properties": {"@spider": "usps_collection_boxes", "addr:city": "JACKSONVILLE", "addr:country": "US", "addr:full": "1348 BEACH BLVD", "addr:postcode": "32250", "addr:state": "FL", "brand": "USPS", "collection_times": "Mo-Fr 17:00; Sa 14:00", "name": "USPS COLLECTION BOX - APC", "note": "ON 12/24 AND 12/31, THIS BOX MAY BE COLLECTED AS EARLY AS 12 NOON.", "ref": "3225000182"}, "type": "Feature"}
{"geometry": {"coordinates": [-81.398958496, 30.274590532], "type": "Point"}, "id": "HmY37BswGWyD6YDg1XLRQtpk5e8=", "properties": {"@spider": "usps_collection_boxes", "addr:city": "JACKSONVILLE", "addr:country": "US", "addr:full": "1361 13TH AVE S", "addr:postcode": "32250", "addr:state": "FL", "brand": "USPS", "collection_times": "Mo-Sa 13:10", "name": "USPS COLLECTION BOX - BLUE BOX", "note": "ON 12/24 AND 12/31, THIS BOX MAY BE COLLECTED AS EARLY AS 12 NOON.", "ref": "3225000183"}, "type": "Feature"}
{"geometry": {"coordinates": [-81.404387688, 30.288033332], "type": "Point"}, "id": "NTR599hCE7mX3etFWzQzZ-PeNKI=", "properties": {"@spider": "usps_collection_boxes", "addr:city": "JACKSONVILLE", "addr:country": "US", "addr:full": "1348 BEACH BLVD", "addr:postcode": "32250", "addr:state": "FL", "brand": "USPS", "collection_times": "Mo-Fr 17:00; Sa 14:00", "name": "USPS COLLECTION BOX - BLUE BOX", "note": "ON 12/24 AND 12/31, THIS BOX MAY BE COLLECTED AS EARLY AS 12 NOON.", "ref": "3225000185"}, "type": "Feature"}
{"geometry": {"coordinates": [-81.404387688, 30.288033332], "type": "Point"}, "id": "kkI3Iqzp9bP5PcMv1sNfzIufHaA=", "properties": {"@spider": "usps_collection_boxes", "addr:city": "JACKSONVILLE", "addr:country": "US", "addr:full": "1348 BEACH BLVD", "addr:postcode": "32250", "addr:state": "FL", "brand": "USPS", "collection_times": "Mo-Fr 17:00; Sa 14:00", "name": "USPS COLLECTION BOX - PO LOBBY", "note": "ON 12/24 AND 12/31, THIS BOX MAY BE COLLECTED AS EARLY AS 12 NOON.", "ref": "3225000186"}, "type": "Feature"}
{"geometry": {"coordinates": [-81.404387688, 30.288033332], "type": "Point"}, "id": "UMLPvq3QORPMiw76LGVkHcfFs6E=", "properties": {"@spider": "usps_collection_boxes", "addr:city": "JACKSONVILLE", "addr:country": "US", "addr:full": "1348 BEACH BLVD", "addr:postcode": "32250", "addr:state": "FL", "brand": "USPS", "collection_times": "Mo-Fr 17:00; Sa 14:00", "name": "USPS COLLECTION BOX - PO LOBBY", "note": "ON 12/24 AND 12/31, THIS BOX MAY BE COLLECTED AS EARLY AS 12 NOON.", "ref": "3225000187"}, "type": "Feature"}
{"geometry": {"coordinates": [-81.403330409, 30.288134501], "type": "Point"}, "id": "HRdyDeuJo5xChuQQL9xcDqu-g_Y=", "properties": {"@spider": "usps_collection_boxes", "addr:city": "JACKSONVILLE", "addr:country": "US", "addr:full": "1200 BEACH BLVD", "addr:postcode": "32250", "addr:state": "FL", "brand": "USPS", "collection_times": "Mo-Sa 14:00", "name": "USPS COLLECTION BOX - BLUE BOX", "note": "ON 12/24 AND 12/31, THIS BOX MAY BE COLLECTED AS EARLY AS 12 NOON.", "ref": "3225000188"}, "type": "Feature"}
{"geometry": {"coordinates": [-81.404387688, 30.288033332], "type": "Point"}, "id": "8WzFAOf-ncgQaT3LeO_dMjIVFYk=", "properties": {"@spider": "usps_collection_boxes", "addr:city": "JACKSONVILLE", "addr:country": "US", "addr:full": "1348 BEACH BLVD", "addr:postcode": "32250", "addr:state": "FL", "brand": "USPS", "collection_times": "Mo-Fr 17:00; Sa 14:00", "name": "USPS COLLECTION BOX - PO LOBBY", "note": "ON 12/24 AND 12/31, THIS BOX MAY BE COLLECTED AS EARLY AS 12 NOON.", "ref": "3225000195"}, "type": "Feature"}
{"geometry": {"coordinates": [-81.583694719, 30.25487682], "type": "Point"}, "id": "UQFTKyU7qrDizdj6dPNeK-NbkZw=", "properties": {"@spider": "usps_collection_boxes", "addr:city": "JACKSONVILLE", "addr:country": "US", "addr:full": "4150 BELFORT RD", "addr:postcode": "32255", "addr:state": "FL", "brand": "USPS", "collection_times": "Mo-Fr 17:00; Sa 12:00", "name": "USPS COLLECTION BOX - BLUE BOX", "note": "ON 12/24 AND 12/31, THIS BOX MAY BE COLLECTED AS EARLY AS 12 NOON.", "ref": "3225500002"}, "type": "Feature"}
{"geometry": {"coordinates": [-81.583694719, 30.25487682], "type": "Point"}, "id": "rSzr_fbGdehPlR87xm3LFfsh2h8=", "properties": {"@spider": "usps_collection_boxes", "addr:city": "JACKSONVILLE", "addr:country": "US", "addr:full": "4150 BELFORT RD", "addr:postcode": "32255", "addr:state": "FL", "brand": "USPS", "collection_times": "Mo-Fr 16:30; Sa 12:00", "name": "USPS COLLECTION BOX - PO LOBBY", "note": "ON 12/24 AND 12/31, THIS BOX MAY BE COLLECTED AS EARLY AS 12 NOON.", "ref": "3225500003"}, "type": "Feature"}
{"geometry": {"coordinates": [-81.583694719, 30.25487682], "type": "Point"}, "id": "anwLTnD2o9ZQsBVbCSY_coro-aI=", "properties": {"@spider": "usps_collection_boxes", "addr:city": "JACKSONVILLE", "addr:country": "US", "addr:full": "4150 BELFORT RD", "addr:postcode": "32255", "addr:state": "FL", "brand": "USPS", "collection_times": "Mo-Fr 16:30; Sa 12:00", "name": "USPS COLLECTION BOX - APC", "note": "ON 12/24 AND 12/31, THIS BOX MAY BE COLLECTED AS EARLY AS 12 NOON.", "ref": "3225500005"}, "type": "Feature"}
{"geometry": {"coordinates": [-81.583694719, 30.25487682], "type": "Point"}, "id": "faRrkWYr5PHjWp_qa3nLrhIcFyI=", "properties": {"@spider": "usps_collection_boxes", "addr:city": "JACKSONVILLE", "addr:country": "US", "addr:full": "4150 BELFORT RD", "addr:postcode": "32255", "addr:state": "FL", "brand": "USPS", "collection_times": "Mo-Fr 16:30; Sa 12:00", "name": "USPS COLLECTION BOX - PO LOBBY", "note": "ON 12/24 AND 12/31, THIS BOX MAY BE COLLECTED AS EARLY AS 12 NOON.", "ref": "3225500006"}, "type": "Feature"}
{"geometry": {"coordinates": [-81.583694719, 30.25487682], "type": "Point"}, "id": "8Hzp2hHLqrrGVxnbGPFpfMibnGw=", "properties": {"@spider": "usps_collection_boxes", "addr:city": "JACKSONVILLE", "addr:country": "US", "addr:full": "4150 BELFORT RD", "addr:postcode": "32255", "addr:state": "FL", "brand": "USPS", "collection_times": "Mo-Fr 16:30; Sa 12:00", "name": "USPS COLLECTION BOX - PO LOBBY", "note": "ON 12/24 AND 12/31, THIS BOX MAY BE COLLECTED AS EARLY AS 12 NOON.", "ref": "3225500008"}, "type": "Feature"}
{"geometry": {"coordinates": [-81.583491693, 30.230302815], "type": "Point"}, "id": "ToojDWNZQdqgIQhy-pMfeEXUHPM=", "properties": {"@spider": "usps_collection_boxes", "addr:city": "JACKSONVILLE", "addr:country": "US", "addr:full": "7775 BAYMEADOWS WAY", "addr:postcode": "32256", "addr:state": "FL", "brand": "USPS", "collection_times": "Mo-Sa 14:00", "name": "USPS COLLECTION BOX - BLUE BOX", "note": "ON 12/24 AND 12/31, THIS BOX MAY BE COLLECTED AS EARLY AS 12 NOON.", "ref": "3225600005"}, "type": "Feature"}
{"geometry": {"coordinates": [-81.58563877, 30.22815637], "type": "Point"}, "id": "JnIXXXd_4ELa_fQJNsPvQO_DFY0=", "properties": {"@spider": "usps_collection_boxes", "addr:city": "JACKSONVILLE", "addr:country": "US", "addr:full": "7900 BAYBERRY RD", "addr:postcode": "32256", "addr:state": "FL", "brand": "USPS", "collection_times": "Mo-Sa 12:00", "name": "USPS COLLECTION BOX - BLUE BOX", "ref": "3225600019"}, "type": "Feature"}
{"geometry": {"coordinates": [-81.577576833, 30.229499381], "type": "Point"}, "id": "px2RPwUkIP_9OWrajWECglCrtRk=", "properties": {"@spider": "usps_collection_boxes", "addr:city": "JACKSONVILLE", "addr:country": "US", "addr:full": "8657 BAYPINE RD", "addr:postcode": "32256", "addr:state": "FL", "brand": "USPS", "collection_times": "Mo-Sa 12:00", "name": "USPS COLLECTION BOX - BLUE BOX", "ref": "3225600026"}, "type": "Feature"}
{"geometry": {"coordinates": [-81.577832416, 30.227666343], "type": "Point"}, "id": "6MFNDLOfJmLUe6ggxrSgMmYDC1k=", "properties": {"@spider": "usps_collection_boxes", "addr:city": "JACKSONVILLE", "addr:country": "US", "addr:full": "8659 BAYPINE RD", "addr:postcode": "32256", "addr:state": "FL", "brand": "USPS", "collection_times": "Mo-Sa 12:00", "name": "USPS COLLECTION BOX - BLUE BOX", "ref": "3225600028"}, "type": "Feature"}
{"geometry": {"coordinates": [-81.563530245, 30.22436664], "type": "Point"}, "id": "r3DOXB4Q4W9Zu-ZHTB-6QheC82M=", "properties": {"@spider": "usps_collection_boxes", "addr:city": "JACKSONVILLE", "addr:country": "US", "addr:full": "8000 BAYMEADOWS CIR E", "addr:postcode": "32256", "addr:state": "FL", "brand": "USPS", "collection_times": "Mo-Sa 14:25", "name": "USPS COLLECTION BOX - BLUE BOX", "note": "ON 12/24 AND 12/31, THIS BOX MAY BE COLLECTED AS EARLY AS 12 NOON.", "ref": "3225600032"}, "type": "Feature"}
{"geometry": {"coordinates": [-81.551777191, 30.22107278], "type": "Point"}, "id": "GZlodYdrB1lkayKyKIUTT9mIKXs=", "properties": {"@spider": "usps_collection_boxes", "addr:city": "JACKSONVILLE", "addr:country": "US", "addr:full": "8101 SOUTHSIDE BLVD", "addr:postcode": "32256", "addr:state": "FL", "brand": "USPS", "collection_times": "Mo-Sa 10:00", "name": "USPS COLLECTION BOX - BLUE BOX", "ref": "3225600038"}, "type": "Feature"}
{"geometry": {"coordinates": [-81.560477864, 30.220593311], "type": "Point"}, "id": "nECPQPJxVuE0-gLh59MYMlqZhQ4=", "properties": {"@spider": "usps_collection_boxes", "addr:city": "JACKSONVILLE", "addr:country": "US", "addr:full": "8211 PRINCETON SQ E", "addr:postcode": "32256", "addr:state": "FL", "brand": "USPS", "collection_times": "Mo-Sa 10:00", "name": "USPS COLLECTION BOX - BLUE BOX", "ref": "3225600043"}, "type": "Feature"}
{"geometry": {"coordinates": [-81.559940403, 30.204770038], "type": "Point"}, "id": "lB8SZzgNIOoJa9E3QYwradTsOH4=", "properties": {"@spider": "usps_collection_boxes", "addr:city": "JACKSONVILLE", "addr:country": "US", "addr:full": "8917 WESTERN WAY", "addr:postcode": "32256", "addr:state": "FL", "brand": "USPS", "collection_times": "Mo-Sa 14:00", "name": "USPS COLLECTION BOX - BLUE BOX", "note": "ON 12/24 AND 12/31, THIS BOX MAY BE COLLECTED AS EARLY AS 12 NOON.", "ref": "3225600049"}, "type": "Feature"}
{"geometry": {"coordinates": [-81.562238026, 30.220805501], "type": "Point"}, "id": "9iP9tgSjs4pxrCz3-HAuMsoGBcI=", "properties": {"@spider": "usps_collection_boxes", "addr:city": "JACKSONVILLE", "addr:country": "US", "addr:full": "9428 BAYMEADOWS RD", "addr:postcode": "32256", "addr:state": "FL", "brand": "USPS", "collection_times": "Mo-Sa 10:00", "name": "USPS COLLECTION BOX - BLUE BOX", "ref": "3225600056"}, "type": "Feature"}
{"geometry": {"coordinates": [-81.562828332, 30.221005531], "type": "Point"}, "id": "_svi5XsCKPTfLreI3LL6WysCVUM=", "properties": {"@spider": "usps_collection_boxes", "addr:city": "JACKSONVILLE", "addr:country": "US", "addr:full": "9471 BAYMEADOWS RD", "addr:postcode": "32256", "addr:state": "FL", "brand": "USPS", "collection_times": "Mo-Sa 14:20", "name": "USPS COLLECTION BOX - BLUE BOX", "note": "ON 12/24 AND 12/31, THIS BOX MAY BE COLLECTED AS EARLY AS 12 NOON.", "ref": "3225600058"}, "type": "Feature"}
{"geometry": {"coordinates": [-81.572840187, 30.215580299], "type": "Point"}, "id": "OZZd5CECPGuSxYWB2GMZDqnuar0=", "properties": {"@spider": "usps_collection_boxes", "addr:city": "JACKSONVILLE", "addr:country": "US", "addr:full": "8900 PROMINENCE PKWY", "addr:postcode": "32256", "addr:state": "FL", "brand": "USPS", "collection_times": "Mo-Sa 12:00", "name": "USPS COLLECTION BOX - BLUE BOX", "ref": "3225600063"}, "type": "Feature"}
{"geometry": {"coordinates": [-81.551838755, 30.182218024], "type": "Point"}, "id": "-ul2D3Yib-g9zl4FU4zv0hdM9Vo=", "properties": {"@spider": "usps_collection_boxes", "addr:city": "JACKSONVILLE", "addr:country": "US", "addr:full": "10300 SOUTHSIDE BLVD", "addr:postcode": "32256", "addr:state": "FL", "brand": "USPS", "collection_times": "Mo-Sa 15:00", "name": "USPS COLLECTION BOX - BLUE BOX", "note": "ON 12/24 AND 12/31, THIS BOX MAY BE COLLECTED AS EARLY AS 12 NOON.", "ref": "3225600067"}, "type": "Feature"}
{"geometry": {"coordinates": [-81.552202289, 30.194091639], "type": "Point"}, "id": "iEtY73m36FJ9oGutB68KwoHdWdw=", "properties": {"@spider": "usps_collection_boxes", "addr:city": "JACKSONVILLE", "addr:country": "US", "addr:full": "9000 SOUTHSIDE BLVD", "addr:postcode": "32256", "addr:state": "FL", "brand": "USPS", "collection_times": "Mo-Sa 15:00", "name": "USPS COLLECTION BOX - BLUE BOX", "note": "ON 12/24 AND 12/31, THIS BOX MAY BE COLLECTED AS EARLY AS 12 NOON.", "ref": "3225600070"}, "type": "Feature"}
{"geometry": {"coordinates": [-81.552330305, 30.235481413], "type": "Point"}, "id": "E0KzF8J6MfTgn0KRVrE9OFGAggk=", "properties": {"@spider": "usps_collection_boxes", "addr:city": "JACKSONVILLE", "addr:country": "US", "addr:full": "7632 SOUTHSIDE BLVD", "addr:postcode": "32256", "addr:state": "FL", "brand": "USPS", "collection_times": "Mo-Sa 10:00", "name": "USPS COLLECTION BOX - BLUE BOX", "ref": "3225600071"}, "type": "Feature"}
{"geometry": {"coordinates": [-81.56545165, 30.234320205], "type": "Point"}, "id": "dnE5aYqHlowPTEif18Cwk5lyMnM=", "properties": {"@spider": "usps_collection_boxes", "addr:city": "JACKSONVILLE", "addr:country": "US", "addr:full": "7623 BAYMEADOWS CIR W", "addr:postcode": "32256", "addr:state": "FL", "brand": "USPS", "collection_times": "Mo-Sa 10:00", "name": "USPS COLLECTION BOX - BLUE BOX", "ref": "3225600075"}, "type": "Feature"}
{"geometry": {"coordinates": [-81.567110117, 30.193457095], "type": "Point"}, "id": "CUvPoREXZXigfFdjGQkpop0UAZc=", "properties": {"@spider": "usps_collection_boxes", "addr:city": "JACKSONVILLE", "addr:country": "US", "addr:full": "9452 PHILIPS HWY", "addr:postcode": "32256", "addr:state": "FL", "brand": "USPS", "collection_times": "Mo-Sa 11:00", "name": "USPS COLLECTION BOX - BLUE BOX", "ref": "3225600091"}, "type": "Feature"}
{"geometry": {"coordinates": [-81.580702547, 30.226904713], "type": "Point"}, "id": "VezV1ZYPgaJnrhArFzP5yGg68m0=", "properties": {"@spider": "usps_collection_boxes", "addr:city": "JACKSONVILLE", "addr:country": "US", "addr:full": "7901 BAYMEADOWS WAY", "addr:postcode": "32256", "addr:state": "FL", "brand": "USPS", "collection_times": "Mo-Sa 13:00", "name": "USPS COLLECTION BOX - BLUE BOX", "note": "ON 12/24 AND 12/31, THIS BOX MAY BE COLLECTED AS EARLY AS 12 NOON.", "ref": "3225600102"}, "type": "Feature"}
{"geometry": {"coordinates": [-81.579339, 30.218021534], "type": "Point"}, "id": "KSmD3b9ogc1u5sNH0Fzl0JpaMT4=", "properties": {"@spider": "usps_collection_boxes", "addr:city": "JACKSONVILLE", "addr:country": "US", "addr:full": "8400 BAYMEADOWS WAY", "addr:postcode": "32256", "addr:state": "FL", "brand": "USPS", "collection_times": "Mo-Sa 10:00", "name": "USPS COLLECTION BOX - BLUE BOX", "ref": "3225600110"}, "type": "Feature"}
{"geometry": {"coordinates": [-81.566757894, 30.222478518], "type": "Point"}, "id": "4ZPXYGPeGZOKbffv7nCEw8vC1cc=", "properties": {"@spider": "usps_collection_boxes", "addr:city": "JACKSONVILLE", "addr:country": "US", "addr:full": "8130 BAYMEADOWS CIR W", "addr:postcode": "32256", "addr:state": "FL", "brand": "USPS", "collection_times": "Mo-Sa 15:00", "name": "USPS COLLECTION BOX - BLUE BOX", "note": "ON 12/24 AND 12/31, THIS BOX MAY BE COLLECTED AS EARLY AS 12 NOON.", "ref": "3225600115"}, "type": "Feature"}
{"geometry": {"coordinates": [-81.555489275, 30.220771196], "type": "Point"}, "id": "_qBZU0116UKhgXM2ChW0PHYOSHo=", "properties": {"@spider": "usps_collection_boxes", "addr:city": "JACKSONVILLE", "addr:country": "US", "addr:full": "9852 OLD BAYMEADOWS RD", "addr:postcode": "32256", "addr:state": "FL", "brand": "USPS", "collection_times": "Mo-Sa 15:00", "name": "USPS COLLECTION BOX - BLUE BOX", "note": "ON 12/24 AND 12/31, THIS BOX MAY BE COLLECTED AS EARLY AS 12 NOON.", "ref": "3225600118"}, "type": "Feature"}
{"geometry": {"coordinates": [-81.549298446, 30.240450466], "type": "Point"}, "id": "ya-InxvTCgsFr1-DKHTMkmioKK0=", "properties": {"@spider": "usps_collection_boxes", "addr:city": "JACKSONVILLE", "addr:country": "US", "addr:full": "10151 DEERWOOD PARK BLVD", "addr:postcode": "32256", "addr:state": "FL", "brand": "USPS", "collection_times": "Mo-Sa 10:00", "name": "USPS COLLECTION BOX - BLUE BOX", "ref": "3225600135"}, "type": "Feature"}
{"geometry": {"coordinates": [-81.586362523, 30.222141212], "type": "Point"}, "id": "ZHOz6q4CmpDa7-NnqJVR1swEA5Y=", "properties": {"@spider": "usps_collection_boxes", "addr:city": "JACKSONVILLE", "addr:country": "US", "addr:full": "8081 PHILIPS HWY", "addr:postcode": "32256", "addr:state": "FL", "brand": "USPS", "collection_times": "Mo-Sa 10:00", "name": "USPS COLLECTION BOX - BLUE BOX", "ref": "3225600139"}, "type": "Feature"}
{"geometry": {"coordinates": [-81.533259235, 30.166487689], "type": "Point"}, "id": "aoWbb23eteRGzQb7tcD6JALSJf0=", "properties": {"@spider": "usps_collection_boxes", "addr:city": "JACKSONVILLE", "addr:country": "US", "addr:full": "11259 PHILIPS PARKWAY DR E", "addr:postcode": "32256", "addr:state": "FL", "brand": "USPS", "collection_times": "Mo-Sa 10:00", "name": "USPS COLLECTION BOX - BLUE BOX", "ref": "3225600148"}, "type": "Feature"}
{"geometry": {"coordinates": [-81.538461997, 30.2142990149], "type": "Point"}, "id": "0abpSoZBQGRe_o-wU2s4i8FWuIY=", "properties": {"@spider": "usps_collection_boxes", "addr:city": "JACKSONVILLE", "addr:country": "US", "addr:full": "8515 HAMPTON RIDGE BLVD", "addr:postcode": "32256", "addr:state": "FL", "brand": "USPS", "collection_times": "Mo-Sa 14:45", "name": "USPS COLLECTION BOX - BLUE BOX", "note": "ON 12/24 AND 12/31, THIS BOX MAY BE COLLECTED AS EARLY AS 12 NOON.", "ref": "3225600166"}, "type": "Feature"}
{"geometry": {"coordinates": [-81.551748658, 30.211817053], "type": "Point"}, "id": "bSS0Iw9OcEEFoD8JGqaBRZW3a60=", "properties": {"@spider": "usps_collection_boxes", "addr:city": "JACKSONVILLE", "addr:country": "US", "addr:full": "8433 SOUTHSIDE BLVD", "addr:postcode": "32256", "addr:state": "FL", "brand": "USPS", "collection_times": "Mo-Sa 11:00", "name": "USPS COLLECTION BOX - BLUE BOX", "ref": "3225600168"}, "type": "Feature"}
{"geometry": {"coordinates": [-81.524262242, 30.164240085], "type": "Point"}, "id": "sRVa1qmlpgglW3qsV0Qbj1aH0EU=", "properties": {"@spider": "usps_collection_boxes", "addr:city": "JACKSONVILLE", "addr:country": "US", "addr:full": "11250 PHILIPS INDUSTRIAL BLVD E", "addr:postcode": "32256", "addr:state": "FL", "brand": "USPS", "collection_times": "Mo-Sa 17:00", "name": "USPS COLLECTION BOX - BLUE BOX", "note": "ON 12/24 AND 12/31, THIS BOX MAY BE COLLECTED AS EARLY AS 12 NOON.", "ref": "3225600171"}, "type": "Feature"}
{"geometry": {"coordinates": [-81.580429362, 30.242309506], "type": "Point"}, "id": "KzJWqtZbWHLIPdQWBwz8SnkMo1c=", "properties": {"@spider": "usps_collection_boxes", "addr:city": "JACKSONVILLE", "addr:country": "US", "addr:full": "7800 BELFORT PKWY", "addr:postcode": "32256", "addr:state": "FL", "brand": "USPS", "collection_times": "Mo-Sa 13:00", "name": "USPS COLLECTION BOX - BLUE BOX", "note": "ON 12/24 AND 12/31, THIS BOX MAY BE COLLECTED AS EARLY AS 12 NOON.", "ref": "3225600176"}, "type": "Feature"}
{"geometry": {"coordinates": [-81.578584994, 30.2484079964], "type": "Point"}, "id": "uwPQz75X967Sf1ZC1Qnl2FsF9uM=", "properties": {"@spider": "usps_collection_boxes", "addr:city": "JACKSONVILLE", "addr:country": "US", "addr:full": "7020 A C SKINNER PKWY", "addr:postcode": "32256", "addr:state": "FL", "brand": "USPS", "collection_times": "Mo-Sa 13:00", "name": "USPS COLLECTION BOX - BLUE BOX", "note": "ON 12/24 AND 12/31, THIS BOX MAY BE COLLECTED AS EARLY AS 12 NOON.", "ref": "3225600177"}, "type": "Feature"}
{"geometry": {"coordinates": [-81.572263031, 30.199360528], "type": "Point"}, "id": "-ZDtZ5QKG8UH7TUVJJECSBm6UUk=", "properties": {"@spider": "usps_collection_boxes", "addr:city": "JACKSONVILLE", "addr:country": "US", "addr:full": "9150 PHILIPS HWY", "addr:postcode": "32256", "addr:state": "FL", "brand": "USPS", "collection_times": "Mo-Sa 11:30", "name": "USPS COLLECTION BOX - BLUE BOX", "ref": "3225600195"}, "type": "Feature"}
{"geometry": {"coordinates": [-81.584466233, 30.249362724], "type": "Point"}, "id": "KR9MKjOu3caT3iTxC723tDYmMyY=", "properties": {"@spider": "usps_collection_boxes", "addr:city": "JACKSONVILLE", "addr:country": "US", "addr:full": "4887 BELFORT RD", "addr:postcode": "32256", "addr:state": "FL", "brand": "USPS", "collection_times": "Mo-Sa 10:00", "name": "USPS COLLECTION BOX - BLUE BOX", "ref": "3225600209"}, "type": "Feature"}
{"geometry": {"coordinates": [-81.538996877, 30.222722059], "type": "Point"}, "id": "zBF8VdfP6OnVZNJNb4BmRdR-Pe0=", "properties": {"@spider": "usps_collection_boxes", "addr:city": "JACKSONVILLE", "addr:country": "US", "addr:full": "8100 HUNTERS GROVE RD", "addr:postcode": "32256", "addr:state": "FL", "brand": "USPS", "collection_times": "Mo-Sa 11:00", "name": "USPS COLLECTION BOX - BLUE BOX", "ref": "3225600211"}, "type": "Feature"}
{"geometry": {"coordinates": [-81.572466306, 30.200085822], "type": "Point"}, "id": "9-l_en7OkAeos03d2BK6YHTvWPQ=", "properties": {"@spider": "usps_collection_boxes", "addr:city": "JACKSONVILLE", "addr:country": "US", "addr:full": "9143 PHILIPS HWY", "addr:postcode": "32256", "addr:state": "FL", "brand": "USPS", "collection_times": "Mo-Sa 10:00", "name": "USPS COLLECTION BOX - BLUE BOX", "ref": "3225600220"}, "type": "Feature"}
{"geometry": {"coordinates": [-81.571096671, 30.2169357], "type": "Point"}, "id": "dbZQ9rPGvi3y_21i8OUbc3eGKC0=", "properties": {"@spider": "usps_collection_boxes", "addr:city": "JACKSONVILLE", "addr:country": "US", "addr:full": "8365 DIX ELLIS TRL", "addr:postcode": "32256", "addr:state": "FL", "brand": "USPS", "collection_times": "Mo-Sa 12:00", "name": "USPS COLLECTION BOX - BLUE BOX", "ref": "3225600221"}, "type": "Feature"}
{"geometry": {"coordinates": [-81.533408857, 30.247834509], "type": "Point"}, "id": "kcekswsLzbMpZIjNulwjs0qoEr0=", "properties": {"@spider": "usps_collection_boxes", "addr:city": "JACKSONVILLE", "addr:country": "US", "addr:full": "10739 DEERWOOD PARK BLVD", "addr:postcode": "32256", "addr:state": "FL", "brand": "USPS", "collection_times": "Mo-Sa 12:00", "name": "USPS COLLECTION BOX - BLUE BOX", "ref": "3225600224"}, "type": "Feature"}
{"geometry": {"coordinates": [-81.630880023, 30.185825019], "type": "Point"}, "id": "i9x2vsHa9pYVzUB3tSG3jAAxXvA=", "properties": {"@spider": "usps_collection_boxes", "addr:city": "JACKSONVILLE", "addr:country": "US", "addr:full": "3007 HARTLEY RD", "addr:postcode": "32257", "addr:state": "FL", "brand": "USPS", "collection_times": "Mo-Sa 11:45", "name": "USPS COLLECTION BOX - BLUE BOX", "ref": "3225700002"}, "type": "Feature"}
{"geometry": {"coordinates": [-81.629688699, 30.185568509], "type": "Point"}, "id": "uScLYWNWMy2b7uPS-BVOZyzpqSQ=", "properties": {"@spider": "usps_collection_boxes", "addr:city": "JACKSONVILLE", "addr:country": "US", "addr:full": "3030 HARTLEY RD", "addr:postcode": "32257", "addr:state": "FL", "brand": "USPS", "collection_times": "Mo-Sa 14:00", "name": "USPS COLLECTION BOX - BLUE BOX", "note": "ON 12/24 AND 12/31, THIS BOX MAY BE COLLECTED AS EARLY AS 12 NOON.", "ref": "3225700003"}, "type": "Feature"}
{"geometry": {"coordinates": [-81.619728622, 30.197525192], "type": "Point"}, "id": "UwzCgdojJ1WXLdvzTG0EazbM2Xo=", "properties": {"@spider": "usps_collection_boxes", "addr:city": "JACKSONVILLE", "addr:country": "US", "addr:full": "1 SAN JOSE PL", "addr:postcode": "32257", "addr:state": "FL", "brand": "USPS", "collection_times": "Mo-Sa 13:00", "name": "USPS COLLECTION BOX - BLUE BOX", "note": "ON 12/24 AND 12/31, THIS BOX MAY BE COLLECTED AS EARLY AS 12 NOON.", "ref": "3225700004"}, "type": "Feature"}
{"geometry": {"coordinates": [-81.61652563, 30.20141688], "type": "Point"}, "id": "uOvjsMTG-Mdz7SP5rFR9FIQM5gI=", "properties": {"@spider": "usps_collection_boxes", "addr:city": "JACKSONVILLE", "addr:country": "US", "addr:full": "9714 OLD SAINT AUGUSTINE RD", "addr:postcode": "32257", "addr:state": "FL", "brand": "USPS", "collection_times": "Mo-Sa 14:25", "name": "USPS COLLECTION BOX - BLUE BOX", "note": "ON 12/24 AND 12/31, THIS BOX MAY BE COLLECTED AS EARLY AS 12 NOON.", "ref": "3225700005"}, "type": "Feature"}
{"geometry": {"coordinates": [-81.619664382, 30.199423562], "type": "Point"}, "id": "dXt_i6swXtgVfgGlwKe3Kx8MoiA=", "properties": {"@spider": "usps_collection_boxes", "addr:city": "JACKSONVILLE", "addr:country": "US", "addr:full": "9825 SAN JOSE BLVD", "addr:postcode": "32257", "addr:state": "FL", "brand": "USPS", "collection_times": "Mo-Sa 13:00", "name": "USPS COLLECTION BOX - BLUE BOX", "note": "ON 12/24 AND 12/31, THIS BOX MAY BE COLLECTED AS EARLY AS 12 NOON.", "ref": "3225700006"}, "type": "Feature"}
{"geometry": {"coordinates": [-81.627798109, 30.186844775], "type": "Point"}, "id": "yrpD47zvpR1kEsgK5zIeT1UaygI=", "properties": {"@spider": "usps_collection_boxes", "addr:city": "JACKSONVILLE", "addr:country": "US", "addr:full": "10503 SAN JOSE BLVD", "addr:postcode": "32257", "addr:state": "FL", "brand": "USPS", "collection_times": "Mo-Sa 14:00", "name": "USPS COLLECTION BOX - BLUE BOX", "note": "ON 12/24 AND 12/31, THIS BOX MAY BE COLLECTED AS EARLY AS 12 NOON.", "ref": "3225700007"}, "type": "Feature"}
{"geometry": {"coordinates": [-81.627961729, 30.186271614], "type": "Point"}, "id": "tkrt98-lm1efgHo-lRwlUiShSG4=", "properties": {"@spider": "usps_collection_boxes", "addr:city": "JACKSONVILLE", "addr:country": "US", "addr:full": "10553 SAN JOSE BLVD", "addr:postcode": "32257", "addr:state": "FL", "brand": "USPS", "collection_times": "Mo-Sa 14:00", "name": "USPS COLLECTION BOX - BLUE BOX", "note": "ON 12/24 AND 12/31, THIS BOX MAY BE COLLECTED AS EARLY AS 12 NOON.", "ref": "3225700008"}, "type": "Feature"}
{"geometry": {"coordinates": [-81.607968713, 30.187088277], "type": "Point"}, "id": "4j9qY6OADw7JYy7bXjv5FIVGXAs=", "properties": {"@spider": "usps_collection_boxes", "addr:city": "JACKSONVILLE", "addr:country": "US", "addr:full": "10405 OLD SAINT AUGUSTINE RD", "addr:postcode": "32257", "addr:state": "FL", "brand": "USPS", "collection_times": "Mo-Sa 10:30", "name": "USPS COLLECTION BOX - BLUE BOX", "ref": "3225700010"}, "type": "Feature"}
{"geometry": {"coordinates": [-81.607991234, 30.184948582], "type": "Point"}, "id": "8bSpBW9IZTY7cdXaQ14gC6jG42Y=", "properties": {"@spider": "usps_collection_boxes", "addr:city": "JACKSONVILLE", "addr:country": "US", "addr:full": "10550 OLD SAINT AUGUSTINE RD", "addr:postcode": "32257", "addr:state": "FL", "brand": "USPS", "collection_times": "Mo-Sa 10:30", "name": "USPS COLLECTION BOX - BLUE BOX", "ref": "3225700011"}, "type": "Feature"}
{"geometry": {"coordinates": [-81.603999454, 30.174750106], "type": "Point"}, "id": "1j6w12E-3VEEBh-K-a7WkULw_40=", "properties": {"@spider": "usps_collection_boxes", "addr:city": "JACKSONVILLE", "addr:country": "US", "addr:full": "11018 OLD SAINT AUGUSTINE RD", "addr:postcode": "32257", "addr:state": "FL", "brand": "USPS", "collection_times": "Mo-Sa 12:00", "name": "USPS COLLECTION BOX - BLUE BOX", "ref": "3225700012"}, "type": "Feature"}
{"geometry": {"coordinates": [-81.601011, 30.205947513], "type": "Point"}, "id": "-eQCQeLk6KOagBr-v7sTeTtas-w=", "properties": {"@spider": "usps_collection_boxes", "addr:city": "JACKSONVILLE", "addr:country": "US", "addr:full": "4411 SUNBEAM RD", "addr:postcode": "32257", "addr:state": "FL", "brand": "USPS", "collection_times": "Mo-Fr 17:00; Sa 14:15", "name": "USPS COLLECTION BOX - BLUE BOX", "note": "ON 12/24 AND 12/31, THIS BOX MAY BE COLLECTED AS EARLY AS 12 NOON.", "ref": "3225700013"}, "type": "Feature"}
{"geometry": {"coordinates": [-81.601011, 30.205947513], "type": "Point"}, "id": "7BoCWZz0yArDlL02hdSXbC-ZdCI=", "properties": {"@spider": "usps_collection_boxes", "addr:city": "JACKSONVILLE", "addr:country": "US", "addr:full": "4411 SUNBEAM RD", "addr:postcode": "32257", "addr:state": "FL", "brand": "USPS", "collection_times": "Mo-Fr 17:00; Sa 14:00", "name": "USPS COLLECTION BOX - PO LOBBY", "note": "ON 12/24 AND 12/31, THIS BOX MAY BE COLLECTED AS EARLY AS 12 NOON.", "ref": "3225700016"}, "type": "Feature"}
{"geometry": {"coordinates": [-81.601011, 30.205947513], "type": "Point"}, "id": "20twP0ToCRJu4tZgS4Nl4Jgveno=", "properties": {"@spider": "usps_collection_boxes", "addr:city": "JACKSONVILLE", "addr:country": "US", "addr:full": "4411 SUNBEAM RD", "addr:postcode": "32257", "addr:state": "FL", "brand": "USPS", "collection_times": "Mo-Fr 17:00; Sa 14:00", "name": "USPS COLLECTION BOX - APC", "note": "ON 12/24 AND 12/31, THIS BOX MAY BE COLLECTED AS EARLY AS 12 NOON.", "ref": "3225700017"}, "type": "Feature"}
{"geometry": {"coordinates": [-81.583462771, 30.208977388], "type": "Point"}, "id": "Tj5hnfr3tG2dD3ylUjDltTQc1sI=", "properties": {"@spider": "usps_collection_boxes", "addr:city": "JACKSONVILLE", "addr:country": "US", "addr:full": "9310 OLD KINGS RD S", "addr:postcode": "32257", "addr:state": "FL", "brand": "USPS", "collection_times": "Mo-Sa 11:00", "name": "USPS COLLECTION BOX - BLUE BOX", "ref": "3225700018"}, "type": "Feature"}
{"geometry": {"coordinates": [-81.601011, 30.205947513], "type": "Point"}, "id": "nkQ0TBcfdYO7CAJUWnemk4oCmr4=", "properties": {"@spider": "usps_collection_boxes", "addr:city": "JACKSONVILLE", "addr:country": "US", "addr:full": "4411 SUNBEAM RD", "addr:postcode": "32257", "addr:state": "FL", "brand": "USPS", "collection_times": "Mo-Fr 17:00; Sa 14:00", "name": "USPS COLLECTION BOX - PO LOBBY", "note": "ON 12/24 AND 12/31, THIS BOX MAY BE COLLECTED AS EARLY AS 12 NOON.", "ref": "3225700024"}, "type": "Feature"}
{"geometry": {"coordinates": [-81.6004616, 30.162830931], "type": "Point"}, "id": "OaRhw79eEInZJ0Stj1wUGRx89cc=", "properties": {"@spider": "usps_collection_boxes", "addr:city": "JACKSONVILLE", "addr:country": "US", "addr:full": "11560 OLD SAINT AUGUSTINE RD", "addr:postcode": "32258", "addr:state": "FL", "brand": "USPS", "collection_times": "Mo-Sa 12:00", "name": "USPS COLLECTION BOX - BLUE BOX", "ref": "3225800001"}, "type": "Feature"}
{"geometry": {"coordinates": [-81.533217436, 30.140903261], "type": "Point"}, "id": "nwbBH5y5BJpVZFI8v57J3Y89XZ4=", "properties": {"@spider": "usps_collection_boxes", "addr:city": "JACKSONVILLE", "addr:country": "US", "addr:full": "14546 OLD SAINT AUGUSTINE RD", "addr:postcode": "32258", "addr:state": "FL", "brand": "USPS", "collection_times": "Mo-Sa 12:00", "name": "USPS COLLECTION BOX - BLUE BOX", "ref": "3225800002"}, "type": "Feature"}
{"geometry": {"coordinates": [-81.495453645, 30.065778696], "type": "Point"}, "id": "xP-enGR54B9jWn4bzgbC8TQg4VQ=", "properties": {"@spider": "usps_collection_boxes", "addr:city": "JACKSONVILLE", "addr:country": "US", "addr:full": "1650 COUNTY ROAD 210 W", "addr:postcode": "32259", "addr:state": "FL", "brand": "USPS", "collection_times": "Mo-Sa 10:00", "name": "USPS COLLECTION BOX - BLUE BOX", "ref": "3225900001"}, "type": "Feature"}
{"geometry": {"coordinates": [-81.63968876, 30.082019069], "type": "Point"}, "id": "XZyVHPHjbS1y9IY1SSZPU91xaz4=", "properties": {"@spider": "usps_collection_boxes", "addr:city": "JACKSONVILLE", "addr:country": "US", "addr:full": "1820 STATE ROAD 13", "addr:postcode": "32259", "addr:state": "FL", "brand": "USPS", "collection_times": "Mo-Sa 10:00", "name": "USPS COLLECTION BOX - BLUE BOX", "ref": "3225900002"}, "type": "Feature"}
{"geometry": {"coordinates": [-81.6232969992, 30.1238480118], "type": "Point"}, "id": "xlRwcZZEiGTEu8dBKpVMR7Cr7qw=", "properties": {"@spider": "usps_collection_boxes", "addr:city": "JACKSONVILLE", "addr:country": "US", "addr:full": "112 BARTRAM OAKS WALK", "addr:postcode": "32260", "addr:state": "FL", "brand": "USPS", "collection_times": "Mo-Fr 17:00; Sa 13:00", "name": "USPS COLLECTION BOX - BLUE BOX", "note": "ON 12/24 AND 12/31, THIS BOX MAY BE COLLECTED AS EARLY AS 12 NOON.", "ref": "3226000004"}, "type": "Feature"}
{"geometry": {"coordinates": [-81.6232969992, 30.1238480118], "type": "Point"}, "id": "aenHkSmVl0bIJpfKZXB0U1dyWI8=", "properties": {"@spider": "usps_collection_boxes", "addr:city": "JACKSONVILLE", "addr:country": "US", "addr:full": "112 BARTRAM OAKS WALK", "addr:postcode": "32260", "addr:state": "FL", "brand": "USPS", "collection_times": "Mo-Fr 17:00; Sa 13:00", "name": "USPS COLLECTION BOX - PO LOBBY", "note": "ON 12/24 AND 12/31, THIS BOX MAY BE COLLECTED AS EARLY AS 12 NOON.", "ref": "3226000006"}, "type": "Feature"}
{"geometry": {"coordinates": [-81.6232969992, 30.1238480118], "type": "Point"}, "id": "Qg4pnDsgoWaIA5OfVUaPuGX9aZw=", "properties": {"@spider": "usps_collection_boxes", "addr:city": "JACKSONVILLE", "addr:country": "US", "addr:full": "112 BARTRAM OAKS WALK", "addr:postcode": "32260", "addr:state": "FL", "brand": "USPS", "collection_times": "Mo-Fr 17:00; Sa 13:00", "name": "USPS COLLECTION BOX - PO LOBBY", "note": "ON 12/24 AND 12/31, THIS BOX MAY BE COLLECTED AS EARLY AS 12 NOON.", "ref": "3226000007"}, "type": "Feature"}
{"geometry": {"coordinates": [-81.6232969992, 30.1238480118], "type": "Point"}, "id": "H6xwWI3CFVdfQwBJZ5LkOH0bSZI=", "properties": {"@spider": "usps_collection_boxes", "addr:city": "JACKSONVILLE", "addr:country": "US", "addr:full": "112 BARTRAM OAKS WALK", "addr:postcode": "32260", "addr:state": "FL", "brand": "USPS", "collection_times": "Mo-Fr 17:00; Sa 13:00", "name": "USPS COLLECTION BOX - PO LOBBY", "note": "ON 12/24 AND 12/31, THIS BOX MAY BE COLLECTED AS EARLY AS 12 NOON.", "ref": "3226000008"}, "type": "Feature"}
{"geometry": {"coordinates": [-81.396870978, 30.323624362], "type": "Point"}, "id": "m86FGdPcegNAXJenfc6n9Lb5Fz0=", "properties": {"@spider": "usps_collection_boxes", "addr:city": "JACKSONVILLE", "addr:country": "US", "addr:full": "200 LEMON ST", "addr:postcode": "32266", "addr:state": "FL", "brand": "USPS", "collection_times": "Mo-Sa 13:50", "name": "USPS COLLECTION BOX - BLUE BOX", "note": "ON 12/24 AND 12/31, THIS BOX MAY BE COLLECTED AS EARLY AS 12 NOON.", "ref": "3226600001"}, "type": "Feature"}
{"geometry": {"coordinates": [-81.6050244109, 30.3643631606], "type": "Point"}, "id": "oTrXIrmPH5oWmiMmb0p9ZThedno=", "properties": {"@spider": "usps_collection_boxes", "addr:city": "JACKSONVILLE", "addr:country": "US", "addr:full": "5566 FORT CAROLINE RD", "addr:postcode": "32277", "addr:state": "FL", "brand": "USPS", "collection_times": "Mo-Sa 15:00", "name": "USPS COLLECTION BOX - BLUE BOX", "note": "ON 12/24 AND 12/31, THIS BOX MAY BE COLLECTED AS EARLY AS 12 NOON.", "ref": "3227700001"}, "type": "Feature"}
{"geometry": {"coordinates": [-81.588903284, 30.366345081], "type": "Point"}, "id": "QIrl3ExFRuHiKZ68r0RYlR7kQqg=", "properties": {"@spider": "usps_collection_boxes", "addr:city": "JACKSONVILLE", "addr:country": "US", "addr:full": "6538 FORT CAROLINE RD", "addr:postcode": "32277", "addr:state": "FL", "brand": "USPS", "collection_times": "Mo-Sa 15:00", "name": "USPS COLLECTION BOX - BLUE BOX", "note": "ON 12/24 AND 12/31, THIS BOX MAY BE COLLECTED AS EARLY AS 12 NOON.", "ref": "3227700002"}, "type": "Feature"}
{"geometry": {"coordinates": [-81.568073247, 30.352209502], "type": "Point"}, "id": "jdogCrF-Mj_tya2nRcjL0UBuTyY=", "properties": {"@spider": "usps_collection_boxes", "addr:city": "JACKSONVILLE", "addr:country": "US", "addr:full": "7707 MERRILL RD", "addr:postcode": "32277", "addr:state": "FL", "brand": "USPS", "collection_times": "Mo-Fr 17:30; Sa 16:30", "name": "USPS COLLECTION BOX - APC", "note": "ON 12/24 AND 12/31, THIS BOX MAY BE COLLECTED AS EARLY AS 12 NOON.", "ref": "3227700004"}, "type": "Feature"}
{"geometry": {"coordinates": [-81.568341, 30.352788], "type": "Point"}, "id": "gw4xidOb1gZKWQCVx965XBaoFcw=", "properties": {"@spider": "usps_collection_boxes", "addr:city": "JACKSONVILLE", "addr:country": "US", "addr:full": "7707 MERRILL RD", "addr:postcode": "32277", "addr:state": "FL", "brand": "USPS", "collection_times": "Mo-Fr 17:30; Sa 16:30", "name": "USPS COLLECTION BOX - BLUE BOX", "note": "ON 12/24 AND 12/31, THIS BOX MAY BE COLLECTED AS EARLY AS 12 NOON.", "ref": "3227700005"}, "type": "Feature"}
{"geometry": {"coordinates": [-81.568073247, 30.352209502], "type": "Point"}, "id": "53N7l7JWUOFRhbTRBpCGkjOZFBY=", "properties": {"@spider": "usps_collection_boxes", "addr:city": "JACKSONVILLE", "addr:country": "US", "addr:full": "7707 MERRILL RD", "addr:postcode": "32277", "addr:state": "FL", "brand": "USPS", "collection_times": "Mo-Fr 17:30; Sa 16:30", "name": "USPS COLLECTION BOX - PO LOBBY", "note": "ON 12/24 AND 12/31, THIS BOX MAY BE COLLECTED AS EARLY AS 12 NOON.", "ref": "3227700006"}, "type": "Feature"}
{"geometry": {"coordinates": [-81.568073247, 30.352209502], "type": "Point"}, "id": "eGLgi12BlzVpivqLSeGh4Dnh5NI=", "properties": {"@spider": "usps_collection_boxes", "addr:city": "JACKSONVILLE", "addr:country": "US", "addr:full": "7707 MERRILL RD", "addr:postcode": "32277", "addr:state": "FL", "brand": "USPS", "collection_times": "Mo-Fr 17:30; Sa 16:30", "name": "USPS COLLECTION BOX - PO LOBBY", "note": "ON 12/24 AND 12/31, THIS BOX MAY BE COLLECTED AS EARLY AS 12 NOON.", "ref": "3227700013"}, "type": "Feature"}
