{"geometry": {"coordinates": [-84.983329131, 29.727427957], "type": "Point"}, "id": "mTuPeOr-I6KTy6P2JWvHD2yjl60=", "properties": {"@spider": "usps_collection_boxes", "addr:city": "APALACHICOLA", "addr:country": "US", "addr:full": "20 AVENUE D", "addr:postcode": "32320", "addr:state": "FL", "brand": "USPS", "collection_times": "Mo-Fr 16:00; Sa 12:00", "name": "USPS COLLECTION BOX - BLUE BOX", "note": "ON 12/24 AND 12/31, THIS BOX MAY BE COLLECTED AS EARLY AS 12 NOON.", "ref": "3232000002"}, "type": "Feature"}
{"geometry": {"coordinates": [-84.983329131, 29.727427957], "type": "Point"}, "id": "io3YVYeiOGpH_MCRF0X-9RrPfkM=", "properties": {"@spider": "usps_collection_boxes", "addr:city": "APALACHICOLA", "addr:country": "US", "addr:full": "20 AVENUE D", "addr:postcode": "32320", "addr:state": "FL", "brand": "USPS", "collection_times": "Mo-Fr 16:00; Sa 12:00", "name": "USPS COLLECTION BOX - PO LOBBY", "note": "ON 12/24 AND 12/31, THIS BOX MAY BE COLLECTED AS EARLY AS 12 NOON.", "ref": "3232000006"}, "type": "Feature"}
{"geometry": {"coordinates": [-84.983329131, 29.727427957], "type": "Point"}, "id": "0lKVgAaXVQwbdW3vDLDhVJ3HU8c=", "properties": {"@spider": "usps_collection_boxes", "addr:city": "APALACHICOLA", "addr:country": "US", "addr:full": "20 AVENUE D", "addr:postcode": "32320", "addr:state": "FL", "brand": "USPS", "collection_times": "Mo-Fr 16:00; Sa 12:00", "name": "USPS COLLECTION BOX - PO LOBBY", "note": "ON 12/24 AND 12/31, THIS BOX MAY BE COLLECTED AS EARLY AS 12 NOON.", "ref": "3232000010"}, "type": "Feature"}
{"geometry": {"coordinates": [-84.664821474, 29.851786681], "type": "Point"}, "id": "OYXiHJ80XouxnH8nXoKQ_0tmwbk=", "properties": {"@spider": "usps_collection_boxes", "addr:city": "CARRABELLE", "addr:country": "US", "addr:full": "93 TALLAHASSEE ST", "addr:postcode": "32322", "addr:state": "FL", "brand": "USPS", "collection_times": "Mo-Fr 16:00; Sa 12:00", "name": "USPS COLLECTION BOX - BLUE BOX", "note": "ON 12/24 AND 12/31, THIS BOX MAY BE COLLECTED AS EARLY AS 12 NOON.", "ref": "3232200000"}, "type": "Feature"}
{"geometry": {"coordinates": [-84.664821474, 29.851786681], "type": "Point"}, "id": "DVjJ6l8HWQ9MQdsyAgo_ETuvcYw=", "properties": {"@spider": "usps_collection_boxes", "addr:city": "CARRABELLE", "addr:country": "US", "addr:full": "93 TALLAHASSEE ST", "addr:postcode": "32322", "addr:state": "FL", "brand": "USPS", "collection_times": "Mo-Fr 16:00; Sa 12:00", "name": "USPS COLLECTION BOX - PO LOBBY", "note": "ON 12/24 AND 12/31, THIS BOX MAY BE COLLECTED AS EARLY AS 12 NOON.", "ref": "3232200001"}, "type": "Feature"}
{"geometry": {"coordinates": [-84.664821474, 29.851786681], "type": "Point"}, "id": "C1awziI7tRMLXSeY_IgTpA83OaU=", "properties": {"@spider": "usps_collection_boxes", "addr:city": "CARRABELLE", "addr:country": "US", "addr:full": "93 TALLAHASSEE ST", "addr:postcode": "32322", "addr:state": "FL", "brand": "USPS", "collection_times": "Mo-Fr 16:00; Sa 12:00", "name": "USPS COLLECTION BOX - PO LOBBY", "note": "ON 12/24 AND 12/31, THIS BOX MAY BE COLLECTED AS EARLY AS 12 NOON.", "ref": "3232200002"}, "type": "Feature"}
{"geometry": {"coordinates": [-84.592125336, 29.883240222], "type": "Point"}, "id": "ux0p9Y03kUxEndWeizm85yggDgo=", "properties": {"@spider": "usps_collection_boxes", "addr:city": "CARRABELLE", "addr:country": "US", "addr:full": "156B HEFFERNAN DR", "addr:postcode": "32322", "addr:state": "FL", "brand": "USPS", "collection_times": "Mo-Sa 10:30", "name": "USPS COLLECTION BOX - BLUE BOX", "ref": "3232200003"}, "type": "Feature"}
{"geometry": {"coordinates": [-84.664821474, 29.851786681], "type": "Point"}, "id": "StlIGCX6V7-jh6ZlcIzZerLybVA=", "properties": {"@spider": "usps_collection_boxes", "addr:city": "CARRABELLE", "addr:country": "US", "addr:full": "93 TALLAHASSEE ST", "addr:postcode": "32322", "addr:state": "FL", "brand": "USPS", "collection_times": "Mo-Fr 16:00; Sa 12:00", "name": "USPS COLLECTION BOX - PO LOBBY", "note": "ON 12/24 AND 12/31, THIS BOX MAY BE COLLECTED AS EARLY AS 12 NOON.", "ref": "3232200005"}, "type": "Feature"}
{"geometry": {"coordinates": [-84.878633737, 29.73676045], "type": "Point"}, "id": "r3r3oyfxIM2cFxbPC4--oEmxfc4=", "properties": {"@spider": "usps_collection_boxes", "addr:city": "EASTPOINT", "addr:country": "US", "addr:full": "353 US HIGHWAY 98", "addr:postcode": "32328", "addr:state": "FL", "brand": "USPS", "collection_times": "Mo-Fr 16:00; Sa 12:00", "name": "USPS COLLECTION BOX - BLUE BOX", "note": "ON 12/24 AND 12/31, THIS BOX MAY BE COLLECTED AS EARLY AS 12 NOON.", "ref": "3232800000"}, "type": "Feature"}
{"geometry": {"coordinates": [-84.864204417, 29.664885511], "type": "Point"}, "id": "GOgQdBJmnjCN9CBPgUTCROX0XNg=", "properties": {"@spider": "usps_collection_boxes", "addr:city": "EASTPOINT", "addr:country": "US", "addr:full": "244 FRANKLIN BLVD", "addr:postcode": "32328", "addr:state": "FL", "brand": "USPS", "collection_times": "Mo-Sa 12:30", "name": "USPS COLLECTION BOX - BLUE BOX", "note": "ON 12/24 AND 12/31, THIS BOX MAY BE COLLECTED AS EARLY AS 12 NOON.", "ref": "3232800001"}, "type": "Feature"}
{"geometry": {"coordinates": [-84.864152503, 29.663001497], "type": "Point"}, "id": "4PzZWrOh5-6QnJVMRqRck8gTW_M=", "properties": {"@spider": "usps_collection_boxes", "addr:city": "EASTPOINT", "addr:country": "US", "addr:full": "61 W GULF BEACH DR", "addr:postcode": "32328", "addr:state": "FL", "brand": "USPS", "collection_times": "Mo-Sa 12:30", "name": "USPS COLLECTION BOX - BLUE BOX", "note": "ON 12/24 AND 12/31, THIS BOX MAY BE COLLECTED AS EARLY AS 12 NOON.", "ref": "3232800002"}, "type": "Feature"}
{"geometry": {"coordinates": [-84.878633737, 29.73676045], "type": "Point"}, "id": "GIpIwvf9LEgPhPI5Ff5aTEt8uok=", "properties": {"@spider": "usps_collection_boxes", "addr:city": "EASTPOINT", "addr:country": "US", "addr:full": "353 US HIGHWAY 98", "addr:postcode": "32328", "addr:state": "FL", "brand": "USPS", "collection_times": "Mo-Fr 16:00; Sa 12:00", "name": "USPS COLLECTION BOX - PO LOBBY", "note": "ON 12/24 AND 12/31, THIS BOX MAY BE COLLECTED AS EARLY AS 12 NOON.", "ref": "3232800003"}, "type": "Feature"}
{"geometry": {"coordinates": [-84.878633737, 29.73676045], "type": "Point"}, "id": "NaaIovNPy0vkvvZDMCzbZKJOJew=", "properties": {"@spider": "usps_collection_boxes", "addr:city": "EASTPOINT", "addr:country": "US", "addr:full": "353 US HIGHWAY 98", "addr:postcode": "32328", "addr:state": "FL", "brand": "USPS", "collection_times": "Mo-Fr 16:00; Sa 12:00", "name": "USPS COLLECTION BOX - PO LOBBY", "note": "ON 12/24 AND 12/31, THIS BOX MAY BE COLLECTED AS EARLY AS 12 NOON.", "ref": "3232800004"}, "type": "Feature"}
{"geometry": {"coordinates": [-84.878633737, 29.73676045], "type": "Point"}, "id": "1Of2sg8oIJ6war2Yuzd4K8lSSDY=", "properties": {"@spider": "usps_collection_boxes", "addr:city": "EASTPOINT", "addr:country": "US", "addr:full": "353 US HIGHWAY 98", "addr:postcode": "32328", "addr:state": "FL", "brand": "USPS", "collection_times": "Mo-Sa 07:00", "name": "USPS COLLECTION BOX - PO LOBBY", "ref": "3232800005"}, "type": "Feature"}
{"geometry": {"coordinates": [-84.878633737, 29.73676045], "type": "Point"}, "id": "oY_jFAnanWMmSZqXS-8JJeYR8Mo=", "properties": {"@spider": "usps_collection_boxes", "addr:city": "EASTPOINT", "addr:country": "US", "addr:full": "353 US HIGHWAY 98", "addr:postcode": "32328", "addr:state": "FL", "brand": "USPS", "collection_times": "Mo-Fr 16:00; Sa 12:00", "name": "USPS COLLECTION BOX - PO LOBBY", "note": "ON 12/24 AND 12/31, THIS BOX MAY BE COLLECTED AS EARLY AS 12 NOON.", "ref": "3232800007"}, "type": "Feature"}
