{"geometry": {"coordinates": [-85.2976363548, 29.8021947646], "type": "Point"}, "id": "Daeqaaza158TCtHpYeo2dyL41Ek=", "properties": {"@spider": "usps_collection_boxes", "addr:city": "PORT ST JOE", "addr:country": "US", "addr:full": "625C 15TH ST", "addr:postcode": "32410", "addr:state": "FL", "brand": "USPS", "collection_times": "Mo-Fr 14:30; Sa 11:30", "name": "USPS COLLECTION BOX - BLUE BOX", "note": "ON 12/24 AND 12/31, THIS BOX MAY BE COLLECTED AS EARLY AS 12 NOON.", "ref": "3241000001"}, "type": "Feature"}
{"geometry": {"coordinates": [-85.294599784, 29.813732509], "type": "Point"}, "id": "2q82PWKWRnaDrn3Au41fgswKgjI=", "properties": {"@spider": "usps_collection_boxes", "addr:city": "PORT ST JOE", "addr:country": "US", "addr:full": "502 GARRISON AVE", "addr:postcode": "32456", "addr:state": "FL", "brand": "USPS", "collection_times": "Mo-Fr 15:30; Sa 14:30", "name": "USPS COLLECTION BOX - BLUE BOX", "note": "ON 12/24 AND 12/31, THIS BOX MAY BE COLLECTED AS EARLY AS 12 NOON.", "ref": "3245600014"}, "type": "Feature"}
{"geometry": {"coordinates": [-85.294599784, 29.813732509], "type": "Point"}, "id": "ZWcKk5dgYebFrDtbaVTLKCVd6pg=", "properties": {"@spider": "usps_collection_boxes", "addr:city": "PORT ST JOE", "addr:country": "US", "addr:full": "502 GARRISON AVE", "addr:postcode": "32456", "addr:state": "FL", "brand": "USPS", "collection_times": "Mo-Fr 15:30; Sa 14:30", "name": "USPS COLLECTION BOX - PO LOBBY", "note": "ON 12/24 AND 12/31, THIS BOX MAY BE COLLECTED AS EARLY AS 12 NOON.", "ref": "3245600016"}, "type": "Feature"}
{"geometry": {"coordinates": [-85.294599784, 29.813732509], "type": "Point"}, "id": "_dcMzccIiYdxZpyHO41gv-juNlY=", "properties": {"@spider": "usps_collection_boxes", "addr:city": "PORT ST JOE", "addr:country": "US", "addr:full": "502 GARRISON AVE", "addr:postcode": "32456", "addr:state": "FL", "brand": "USPS", "collection_times": "Mo-Fr 15:30; Sa 14:30", "name": "USPS COLLECTION BOX - PO LOBBY", "note": "ON 12/24 AND 12/31, THIS BOX MAY BE COLLECTED AS EARLY AS 12 NOON.", "ref": "3245600017"}, "type": "Feature"}
{"geometry": {"coordinates": [-85.294599784, 29.813732509], "type": "Point"}, "id": "D7tAClo2fY6UEhSugKL_kk7zk0M=", "properties": {"@spider": "usps_collection_boxes", "addr:city": "PORT ST JOE", "addr:country": "US", "addr:full": "502 GARRISON AVE", "addr:postcode": "32456", "addr:state": "FL", "brand": "USPS", "collection_times": "Mo-Fr 15:30; Sa 14:30", "name": "USPS COLLECTION BOX - PO LOBBY", "note": "ON 12/24 AND 12/31, THIS BOX MAY BE COLLECTED AS EARLY AS 12 NOON.", "ref": "3245600020"}, "type": "Feature"}
