{"geometry": {"coordinates": [-87.235740257, 30.433881513], "type": "Point"}, "id": "ut8ag7mMR46ElNXfTwWHkn3xck4=", "properties": {"@spider": "usps_collection_boxes", "addr:city": "PENSACOLA", "addr:country": "US", "addr:full": "1400 W JORDAN ST", "addr:postcode": "32501", "addr:state": "FL", "brand": "USPS", "collection_times": "Mo-Sa 18:00", "name": "USPS COLLECTION BOX - PO LOBBY", "note": "ON 12/24 AND 12/31, THIS BOX MAY BE COLLECTED AS EARLY AS 12 NOON.", "ref": "3250100000"}, "type": "Feature"}
{"geometry": {"coordinates": [-87.235740257, 30.433881513], "type": "Point"}, "id": "wqrhryRIMaSyPCA6Vmis3DC8LZI=", "properties": {"@spider": "usps_collection_boxes", "addr:city": "PENSACOLA", "addr:country": "US", "addr:full": "1400 W JORDAN ST", "addr:postcode": "32501", "addr:state": "FL", "brand": "USPS", "collection_times": "Mo-Sa 18:00", "name": "USPS COLLECTION BOX - BLUE BOX", "note": "ON 12/24 AND 12/31, THIS BOX MAY BE COLLECTED AS EARLY AS 12 NOON.", "ref": "3250100001"}, "type": "Feature"}
{"geometry": {"coordinates": [-87.235740257, 30.433881513], "type": "Point"}, "id": "ZZS-VY3gfCls1WEoX2cVMDUQWC4=", "properties": {"@spider": "usps_collection_boxes", "addr:city": "PENSACOLA", "addr:country": "US", "addr:full": "1400 W JORDAN ST", "addr:postcode": "32501", "addr:state": "FL", "brand": "USPS", "collection_times": "Mo-Sa 18:00", "name": "USPS COLLECTION BOX - BLUE BOX", "note": "ON 12/24 AND 12/31, THIS BOX MAY BE COLLECTED AS EARLY AS 12 NOON.", "ref": "3250100003"}, "type": "Feature"}
{"geometry": {"coordinates": [-87.235740257, 30.433881513], "type": "Point"}, "id": "l2fxMNixpjBuuCKoeqcZJI-fSMU=", "properties": {"@spider": "usps_collection_boxes", "addr:city": "PENSACOLA", "addr:country": "US", "addr:full": "1400 W JORDAN ST", "addr:postcode": "32501", "addr:state": "FL", "brand": "USPS", "collection_times": "Mo-Sa 18:00", "name": "USPS COLLECTION BOX - PO LOBBY", "note": "ON 12/24 AND 12/31, THIS BOX MAY BE COLLECTED AS EARLY AS 12 NOON.", "ref": "3250100007"}, "type": "Feature"}
{"geometry": {"coordinates": [-87.235740257, 30.433881513], "type": "Point"}, "id": "3DWD_-joqTBa0Txluol7vtxj4wY=", "properties": {"@spider": "usps_collection_boxes", "addr:city": "PENSACOLA", "addr:country": "US", "addr:full": "1400 W JORDAN ST", "addr:postcode": "32501", "addr:state": "FL", "brand": "USPS", "collection_times": "Mo-Sa 18:00", "name": "USPS COLLECTION BOX - PO LOBBY", "note": "ON 12/24 AND 12/31, THIS BOX MAY BE COLLECTED AS EARLY AS 12 NOON.", "ref": "3250100008"}, "type": "Feature"}
{"geometry": {"coordinates": [-87.215816186, 30.416681189], "type": "Point"}, "id": "MNZh-1m8HKWREaZsqr0VRVa1v9U=", "properties": {"@spider": "usps_collection_boxes", "addr:city": "PENSACOLA", "addr:country": "US", "addr:full": "25 E WRIGHT ST", "addr:postcode": "32501", "addr:state": "FL", "brand": "USPS", "collection_times": "Mo-Fr 10:00", "name": "USPS COLLECTION BOX - BLUE BOX", "ref": "3250100078"}, "type": "Feature"}
{"geometry": {"coordinates": [-87.221105365, 30.433473133], "type": "Point"}, "id": "wNhQN2F4kMmMxlg_VSitv90L-CM=", "properties": {"@spider": "usps_collection_boxes", "addr:city": "PENSACOLA", "addr:country": "US", "addr:full": "14 W JORDAN ST", "addr:postcode": "32501", "addr:state": "FL", "brand": "USPS", "collection_times": "Mo-Fr 10:00", "name": "USPS COLLECTION BOX - BLUE BOX", "ref": "3250100082"}, "type": "Feature"}
{"geometry": {"coordinates": [-87.229522755, 30.430259004], "type": "Point"}, "id": "W2T6dwDNwsxSuj10nTTsYHWlsKA=", "properties": {"@spider": "usps_collection_boxes", "addr:city": "PENSACOLA", "addr:country": "US", "addr:full": "1717 N E ST", "addr:postcode": "32501", "addr:state": "FL", "brand": "USPS", "collection_times": "Mo-Fr 10:00", "name": "USPS COLLECTION BOX - BLUE BOX", "ref": "3250100086"}, "type": "Feature"}
{"geometry": {"coordinates": [-87.233000838, 30.431698613], "type": "Point"}, "id": "7vSsroAU5vuV3Ptjw73mKleQ9rU=", "properties": {"@spider": "usps_collection_boxes", "addr:city": "PENSACOLA", "addr:country": "US", "addr:full": "1221 W LAKEVIEW AVE", "addr:postcode": "32501", "addr:state": "FL", "brand": "USPS", "collection_times": "Mo-Fr 10:00", "name": "USPS COLLECTION BOX - BLUE BOX", "ref": "3250100087"}, "type": "Feature"}
{"geometry": {"coordinates": [-87.233106037, 30.444998471], "type": "Point"}, "id": "rSv0RhRfm0plMNW6wZGwRISnYyw=", "properties": {"@spider": "usps_collection_boxes", "addr:city": "PENSACOLA", "addr:country": "US", "addr:full": "1295 W FAIRFIELD DR", "addr:postcode": "32501", "addr:state": "FL", "brand": "USPS", "collection_times": "Mo-Fr 10:00", "name": "USPS COLLECTION BOX - BLUE BOX", "ref": "3250100106"}, "type": "Feature"}
{"geometry": {"coordinates": [-87.235740257, 30.433881513], "type": "Point"}, "id": "2CJmYJ49bW1RB0spbc4k7TcZsws=", "properties": {"@spider": "usps_collection_boxes", "addr:city": "PENSACOLA", "addr:country": "US", "addr:full": "1400 W JORDAN ST", "addr:postcode": "32501", "addr:state": "FL", "brand": "USPS", "collection_times": "Mo-Sa 18:00", "name": "USPS COLLECTION BOX - PO LOBBY", "note": "ON 12/24 AND 12/31, THIS BOX MAY BE COLLECTED AS EARLY AS 12 NOON.", "ref": "3250100121"}, "type": "Feature"}
{"geometry": {"coordinates": [-87.215002697, 30.411064646], "type": "Point"}, "id": "EPqd01lk5ZFwUF0FZ6SyIlGYVBs=", "properties": {"@spider": "usps_collection_boxes", "addr:city": "PENSACOLA", "addr:country": "US", "addr:full": "101 PALAFOX PL", "addr:postcode": "32502", "addr:state": "FL", "brand": "USPS", "collection_times": "Mo-Fr 17:00; Sa 10:00", "name": "USPS COLLECTION BOX - PO LOBBY", "note": "ON 12/24 AND 12/31, THIS BOX MAY BE COLLECTED AS EARLY AS 12 NOON.", "ref": "3250200002"}, "type": "Feature"}
{"geometry": {"coordinates": [-87.215002697, 30.411064646], "type": "Point"}, "id": "xHJ4Z5udLm8juxR5EQGk5vpDzpM=", "properties": {"@spider": "usps_collection_boxes", "addr:city": "PENSACOLA", "addr:country": "US", "addr:full": "101 PALAFOX PL", "addr:postcode": "32502", "addr:state": "FL", "brand": "USPS", "collection_times": "Mo-Fr 17:00; Sa 10:00", "name": "USPS COLLECTION BOX - PO LOBBY", "note": "ON 12/24 AND 12/31, THIS BOX MAY BE COLLECTED AS EARLY AS 12 NOON.", "ref": "3250200003"}, "type": "Feature"}
{"geometry": {"coordinates": [-87.217217192, 30.408869158], "type": "Point"}, "id": "aA4VrOvpvgGRHSAFv-mz1CSR6jc=", "properties": {"@spider": "usps_collection_boxes", "addr:city": "PENSACOLA", "addr:country": "US", "addr:full": "160 W GOVERNMENT ST", "addr:postcode": "32502", "addr:state": "FL", "brand": "USPS", "collection_times": "Mo-Fr 10:00", "name": "USPS COLLECTION BOX - BLUE BOX", "ref": "3250200008"}, "type": "Feature"}
{"geometry": {"coordinates": [-87.21574827, 30.413063511], "type": "Point"}, "id": "liAH1sKewu4_afK9g_BcvLg1tec=", "properties": {"@spider": "usps_collection_boxes", "addr:city": "PENSACOLA", "addr:country": "US", "addr:full": "10 W GARDEN ST", "addr:postcode": "32502", "addr:state": "FL", "brand": "USPS", "collection_times": "Mo-Fr 10:00", "name": "USPS COLLECTION BOX - BLUE BOX", "ref": "3250200009"}, "type": "Feature"}
{"geometry": {"coordinates": [-87.214702274, 30.409799711], "type": "Point"}, "id": "xPJ9D-kOt74zrRvUDuzTWeUkvuQ=", "properties": {"@spider": "usps_collection_boxes", "addr:city": "PENSACOLA", "addr:country": "US", "addr:full": "223 PALAFOX PL", "addr:postcode": "32502", "addr:state": "FL", "brand": "USPS", "collection_times": "Mo-Fr 10:00", "name": "USPS COLLECTION BOX - BLUE BOX", "ref": "3250200013"}, "type": "Feature"}
{"geometry": {"coordinates": [-87.212337072, 30.413295798], "type": "Point"}, "id": "co7JrfM_bQjuMe-bGUGhTTJZ0Q4=", "properties": {"@spider": "usps_collection_boxes", "addr:city": "PENSACOLA", "addr:country": "US", "addr:full": "223 E GARDEN ST", "addr:postcode": "32502", "addr:state": "FL", "brand": "USPS", "collection_times": "Mo-Fr 10:00", "name": "USPS COLLECTION BOX - BLUE BOX", "ref": "3250200017"}, "type": "Feature"}
{"geometry": {"coordinates": [-87.215002697, 30.411064646], "type": "Point"}, "id": "ZQrljSOSYtjtIUU0atX5P3hmGJ0=", "properties": {"@spider": "usps_collection_boxes", "addr:city": "PENSACOLA", "addr:country": "US", "addr:full": "101 PALAFOX PL", "addr:postcode": "32502", "addr:state": "FL", "brand": "USPS", "collection_times": "Mo-Fr 17:00; Sa 10:00", "name": "USPS COLLECTION BOX - BLUE BOX", "note": "ON 12/24 AND 12/31, THIS BOX MAY BE COLLECTED AS EARLY AS 12 NOON.", "ref": "3250200019"}, "type": "Feature"}
{"geometry": {"coordinates": [-87.215591774, 30.41460922], "type": "Point"}, "id": "4pwHwuox9mPPXvGBSjtUymycPzM=", "properties": {"@spider": "usps_collection_boxes", "addr:city": "PENSACOLA", "addr:country": "US", "addr:full": "100 N PALAFOX ST", "addr:postcode": "32502", "addr:state": "FL", "brand": "USPS", "collection_times": "Mo-Fr 10:00", "name": "USPS COLLECTION BOX - BLUE BOX", "ref": "3250200020"}, "type": "Feature"}
{"geometry": {"coordinates": [-87.215002697, 30.411064646], "type": "Point"}, "id": "HyeCqXBeh-OAnyKXkQkTLx-HxU0=", "properties": {"@spider": "usps_collection_boxes", "addr:city": "PENSACOLA", "addr:country": "US", "addr:full": "101 PALAFOX PL", "addr:postcode": "32502", "addr:state": "FL", "brand": "USPS", "collection_times": "Mo-Fr 17:00; Sa 10:00", "name": "USPS COLLECTION BOX - BLUE BOX", "note": "ON 12/24 AND 12/31, THIS BOX MAY BE COLLECTED AS EARLY AS 12 NOON.", "ref": "3250200021"}, "type": "Feature"}
{"geometry": {"coordinates": [-87.215002697, 30.411064646], "type": "Point"}, "id": "mqz4MgGz0eyQRVTcSopdblQ-0so=", "properties": {"@spider": "usps_collection_boxes", "addr:city": "PENSACOLA", "addr:country": "US", "addr:full": "101 PALAFOX PL", "addr:postcode": "32502", "addr:state": "FL", "brand": "USPS", "collection_times": "Mo-Fr 17:00; Sa 10:00", "name": "USPS COLLECTION BOX - BLUE BOX", "note": "ON 12/24 AND 12/31, THIS BOX MAY BE COLLECTED AS EARLY AS 12 NOON.", "ref": "3250200022"}, "type": "Feature"}
{"geometry": {"coordinates": [-87.215002697, 30.411064646], "type": "Point"}, "id": "na-RWoOU5lyUzuaGVzuC6hKAGAQ=", "properties": {"@spider": "usps_collection_boxes", "addr:city": "PENSACOLA", "addr:country": "US", "addr:full": "101 PALAFOX PL", "addr:postcode": "32502", "addr:state": "FL", "brand": "USPS", "collection_times": "Mo-Fr 17:00; Sa 10:00", "name": "USPS COLLECTION BOX - PO LOBBY", "note": "ON 12/24 AND 12/31, THIS BOX MAY BE COLLECTED AS EARLY AS 12 NOON.", "ref": "3250200023"}, "type": "Feature"}
{"geometry": {"coordinates": [-87.2150714591, 30.4439374443], "type": "Point"}, "id": "d77lwiBpnED0fpgYGyU572ghFXc=", "properties": {"@spider": "usps_collection_boxes", "addr:city": "PENSACOLA", "addr:country": "US", "addr:full": "3001 N DAVIS HWY", "addr:postcode": "32503", "addr:state": "FL", "brand": "USPS", "collection_times": "Mo-Fr 17:00; Sa 16:00", "name": "USPS COLLECTION BOX - BLUE BOX", "note": "ON 12/24 AND 12/31, THIS BOX MAY BE COLLECTED AS EARLY AS 12 NOON.", "ref": "3250300003"}, "type": "Feature"}
{"geometry": {"coordinates": [-87.2150714591, 30.4439374443], "type": "Point"}, "id": "tdoq9d3b0Vou63NPOpPdurBokfg=", "properties": {"@spider": "usps_collection_boxes", "addr:city": "PENSACOLA", "addr:country": "US", "addr:full": "3001 N DAVIS HWY", "addr:postcode": "32503", "addr:state": "FL", "brand": "USPS", "collection_times": "Mo-Fr 17:00; Sa 16:00", "name": "USPS COLLECTION BOX - BLUE BOX", "note": "ON 12/24 AND 12/31, THIS BOX MAY BE COLLECTED AS EARLY AS 12 NOON.", "ref": "3250300004"}, "type": "Feature"}
{"geometry": {"coordinates": [-87.215073146, 30.44389807], "type": "Point"}, "id": "NrjagDZnVHBUO2NTTtPTMEAUzzk=", "properties": {"@spider": "usps_collection_boxes", "addr:city": "PENSACOLA", "addr:country": "US", "addr:full": "3001 N DAVIS HWY", "addr:postcode": "32503", "addr:state": "FL", "brand": "USPS", "collection_times": "Mo-Fr 17:00; Sa 16:00", "name": "USPS COLLECTION BOX - PO LOBBY", "note": "ON 12/24 AND 12/31, THIS BOX MAY BE COLLECTED AS EARLY AS 12 NOON.", "ref": "3250300007"}, "type": "Feature"}
{"geometry": {"coordinates": [-87.213685544, 30.451372271], "type": "Point"}, "id": "pBeN-z_miVk349S1hImepW_1T2k=", "properties": {"@spider": "usps_collection_boxes", "addr:city": "PENSACOLA", "addr:country": "US", "addr:full": "3881 N 9TH AVE", "addr:postcode": "32503", "addr:state": "FL", "brand": "USPS", "collection_times": "Mo-Fr 10:45", "name": "USPS COLLECTION BOX - BLUE BOX", "ref": "3250300010"}, "type": "Feature"}
{"geometry": {"coordinates": [-87.223995594, 30.462931017], "type": "Point"}, "id": "e50enBH_Ohgj_yC_4UuVDHSigSk=", "properties": {"@spider": "usps_collection_boxes", "addr:city": "PENSACOLA", "addr:country": "US", "addr:full": "4501 N DAVIS HWY", "addr:postcode": "32503", "addr:state": "FL", "brand": "USPS", "collection_times": "Mo-Fr 10:00", "name": "USPS COLLECTION BOX - BLUE BOX", "ref": "3250300027"}, "type": "Feature"}
{"geometry": {"coordinates": [-87.215073146, 30.44389807], "type": "Point"}, "id": "ib6VAS6veod41VWxbvI4R1oCl_A=", "properties": {"@spider": "usps_collection_boxes", "addr:city": "PENSACOLA", "addr:country": "US", "addr:full": "3001 N DAVIS HWY", "addr:postcode": "32503", "addr:state": "FL", "brand": "USPS", "collection_times": "Mo-Sa 16:00", "name": "USPS COLLECTION BOX - PO LOBBY", "note": "ON 12/24 AND 12/31, THIS BOX MAY BE COLLECTED AS EARLY AS 12 NOON.", "ref": "3250300062"}, "type": "Feature"}
{"geometry": {"coordinates": [-87.215073146, 30.44389807], "type": "Point"}, "id": "nvJ_Bm-h7mCDrl9SiLXENIQiqyA=", "properties": {"@spider": "usps_collection_boxes", "addr:city": "PENSACOLA", "addr:country": "US", "addr:full": "3001 N DAVIS HWY", "addr:postcode": "32503", "addr:state": "FL", "brand": "USPS", "collection_times": "Mo-Fr 17:00; Sa 16:00", "name": "USPS COLLECTION BOX - PO LOBBY", "note": "ON 12/24 AND 12/31, THIS BOX MAY BE COLLECTED AS EARLY AS 12 NOON.", "ref": "3250300080"}, "type": "Feature"}
{"geometry": {"coordinates": [-87.246829622, 30.472896088], "type": "Point"}, "id": "oASB45GbsUyCUybWMYk7NbCXgak=", "properties": {"@spider": "usps_collection_boxes", "addr:city": "PENSACOLA", "addr:country": "US", "addr:full": "5650 PENSACOLA BLVD", "addr:postcode": "32505", "addr:state": "FL", "brand": "USPS", "collection_times": "Mo-Fr 13:00", "name": "USPS COLLECTION BOX - BLUE BOX", "note": "ON 12/24 AND 12/31, THIS BOX MAY BE COLLECTED AS EARLY AS 12 NOON.", "ref": "3250500005"}, "type": "Feature"}
{"geometry": {"coordinates": [-87.256074626, 30.482470229], "type": "Point"}, "id": "Sh34ojmRHLPTY7C0S1RdTrEP0ag=", "properties": {"@spider": "usps_collection_boxes", "addr:city": "PENSACOLA", "addr:country": "US", "addr:full": "6425 PENSACOLA BLVD", "addr:postcode": "32505", "addr:state": "FL", "brand": "USPS", "collection_times": "Mo-Fr 13:30", "name": "USPS COLLECTION BOX - BLUE BOX", "note": "ON 12/24 AND 12/31, THIS BOX MAY BE COLLECTED AS EARLY AS 12 NOON.", "ref": "3250500006"}, "type": "Feature"}
{"geometry": {"coordinates": [-87.23979974, 30.446361105], "type": "Point"}, "id": "nM_iSMsfOAQ8rQ2XBTr8a-EXxlA=", "properties": {"@spider": "usps_collection_boxes", "addr:city": "PENSACOLA", "addr:country": "US", "addr:full": "3300 N PACE BLVD", "addr:postcode": "32505", "addr:state": "FL", "brand": "USPS", "collection_times": "Mo-Fr 13:45", "name": "USPS COLLECTION BOX - BLUE BOX", "note": "ON 12/24 AND 12/31, THIS BOX MAY BE COLLECTED AS EARLY AS 12 NOON.", "ref": "3250500011"}, "type": "Feature"}
{"geometry": {"coordinates": [-87.256074626, 30.482470229], "type": "Point"}, "id": "Ymi8oBkm1wWaliGuCW9DpgYlnio=", "properties": {"@spider": "usps_collection_boxes", "addr:city": "PENSACOLA", "addr:country": "US", "addr:full": "6425 PENSACOLA BLVD", "addr:postcode": "32505", "addr:state": "FL", "brand": "USPS", "collection_times": "Mo-Fr 13:30", "name": "USPS COLLECTION BOX - BLUE BOX", "note": "ON 12/24 AND 12/31, THIS BOX MAY BE COLLECTED AS EARLY AS 12 NOON.", "ref": "3250500019"}, "type": "Feature"}
{"geometry": {"coordinates": [-87.255782032, 30.474249496], "type": "Point"}, "id": "bFaiCpqk9ZQ1zmZklo92O6JVgfQ=", "properties": {"@spider": "usps_collection_boxes", "addr:city": "PENSACOLA", "addr:country": "US", "addr:full": "6200 N W ST", "addr:postcode": "32505", "addr:state": "FL", "brand": "USPS", "collection_times": "Mo-Fr 13:35", "name": "USPS COLLECTION BOX - BLUE BOX", "note": "ON 12/24 AND 12/31, THIS BOX MAY BE COLLECTED AS EARLY AS 12 NOON.", "ref": "3250500023"}, "type": "Feature"}
{"geometry": {"coordinates": [-87.255782032, 30.474249496], "type": "Point"}, "id": "gsd0IwcL-ocyXhCxbiOC8ujYudE=", "properties": {"@spider": "usps_collection_boxes", "addr:city": "PENSACOLA", "addr:country": "US", "addr:full": "6200 N W ST", "addr:postcode": "32505", "addr:state": "FL", "brand": "USPS", "collection_times": "Mo-Fr 13:35", "name": "USPS COLLECTION BOX - BLUE BOX", "note": "ON 12/24 AND 12/31, THIS BOX MAY BE COLLECTED AS EARLY AS 12 NOON.", "ref": "3250500024"}, "type": "Feature"}
{"geometry": {"coordinates": [-87.235690133, 30.447982278], "type": "Point"}, "id": "W4Ji-H7PaDEygKaq-jPKoGZPTLo=", "properties": {"@spider": "usps_collection_boxes", "addr:city": "PENSACOLA", "addr:country": "US", "addr:full": "3670 N L ST", "addr:postcode": "32505", "addr:state": "FL", "brand": "USPS", "collection_times": "Mo-Fr 13:45", "name": "USPS COLLECTION BOX - BLUE BOX", "note": "ON 12/24 AND 12/31, THIS BOX MAY BE COLLECTED AS EARLY AS 12 NOON.", "ref": "3250500033"}, "type": "Feature"}
{"geometry": {"coordinates": [-87.27572558, 30.419145848], "type": "Point"}, "id": "XrHE27ChjYOuVfgNbtc6cFP0z5A=", "properties": {"@spider": "usps_collection_boxes", "addr:city": "PENSACOLA", "addr:country": "US", "addr:full": "611 N NEW WARRINGTON RD", "addr:postcode": "32506", "addr:state": "FL", "brand": "USPS", "collection_times": "Mo-Fr 10:00", "name": "USPS COLLECTION BOX - BLUE BOX", "ref": "3250600004"}, "type": "Feature"}
{"geometry": {"coordinates": [-87.280211991, 30.409877504], "type": "Point"}, "id": "hBLh7V92Zty2TMCec1qu703OZrI=", "properties": {"@spider": "usps_collection_boxes", "addr:city": "PENSACOLA", "addr:country": "US", "addr:full": "4600 FORRESTAL ST", "addr:postcode": "32506", "addr:state": "FL", "brand": "USPS", "collection_times": "Mo-Fr 10:30", "name": "USPS COLLECTION BOX - BLUE BOX", "ref": "3250600005"}, "type": "Feature"}
{"geometry": {"coordinates": [-87.279649463, 30.437796036], "type": "Point"}, "id": "zRk1vpn7zZJRRgL2WhxONBG8h7c=", "properties": {"@spider": "usps_collection_boxes", "addr:city": "PENSACOLA", "addr:country": "US", "addr:full": "4600 MOBILE HWY", "addr:postcode": "32506", "addr:state": "FL", "brand": "USPS", "collection_times": "Mo-Fr 10:00", "name": "USPS COLLECTION BOX - BLUE BOX", "ref": "3250600026"}, "type": "Feature"}
{"geometry": {"coordinates": [-87.322204897, 30.402641848], "type": "Point"}, "id": "vUv_e4s7v_KnIeh0C93HzqPBNmc=", "properties": {"@spider": "usps_collection_boxes", "addr:city": "PENSACOLA", "addr:country": "US", "addr:full": "8200 W HIGHWAY 98", "addr:postcode": "32506", "addr:state": "FL", "brand": "USPS", "collection_times": "Mo-Sa 10:00", "name": "USPS COLLECTION BOX - BLUE BOX", "ref": "3250600029"}, "type": "Feature"}
{"geometry": {"coordinates": [-87.276109796, 30.434245963], "type": "Point"}, "id": "BwgwDSFPyoSC5EOjEsl5Xl8I40U=", "properties": {"@spider": "usps_collection_boxes", "addr:city": "PENSACOLA", "addr:country": "US", "addr:full": "4400 W FAIRFIELD DR", "addr:postcode": "32506", "addr:state": "FL", "brand": "USPS", "collection_times": "Mo-Fr 10:00", "name": "USPS COLLECTION BOX - BLUE BOX", "ref": "3250600035"}, "type": "Feature"}
{"geometry": {"coordinates": [-87.28752679, 30.42616424], "type": "Point"}, "id": "i9T8i4czCNRnpmhgz2IK1-xXXAU=", "properties": {"@spider": "usps_collection_boxes", "addr:city": "PENSACOLA", "addr:country": "US", "addr:full": "5200 LILLIAN HWY", "addr:postcode": "32506", "addr:state": "FL", "brand": "USPS", "collection_times": "Mo-Fr 17:00; Sa 16:20", "name": "USPS COLLECTION BOX - BLUE BOX", "note": "ON 12/24 AND 12/31, THIS BOX MAY BE COLLECTED AS EARLY AS 12 NOON.", "ref": "3250600036"}, "type": "Feature"}
{"geometry": {"coordinates": [-87.28752679, 30.42616424], "type": "Point"}, "id": "t8D4OCFEd5xZgcXXZNeexA5cBN0=", "properties": {"@spider": "usps_collection_boxes", "addr:city": "PENSACOLA", "addr:country": "US", "addr:full": "5200 LILLIAN HWY", "addr:postcode": "32506", "addr:state": "FL", "brand": "USPS", "collection_times": "Mo-Fr 17:00; Sa 16:20", "name": "USPS COLLECTION BOX - BLUE BOX", "note": "ON 12/24 AND 12/31, THIS BOX MAY BE COLLECTED AS EARLY AS 12 NOON.", "ref": "3250600037"}, "type": "Feature"}
{"geometry": {"coordinates": [-87.28752679, 30.42616424], "type": "Point"}, "id": "TecdM96yQRVpnw7YpJDdRm1sjXw=", "properties": {"@spider": "usps_collection_boxes", "addr:city": "PENSACOLA", "addr:country": "US", "addr:full": "5200 LILLIAN HWY", "addr:postcode": "32506", "addr:state": "FL", "brand": "USPS", "collection_times": "Mo-Fr 17:00; Sa 16:20", "name": "USPS COLLECTION BOX - PO LOBBY", "note": "ON 12/24 AND 12/31, THIS BOX MAY BE COLLECTED AS EARLY AS 12 NOON.", "ref": "3250600038"}, "type": "Feature"}
{"geometry": {"coordinates": [-87.28752679, 30.42616424], "type": "Point"}, "id": "_Z4eYl4ArJoyi3Wnvo2Efy22tBE=", "properties": {"@spider": "usps_collection_boxes", "addr:city": "PENSACOLA", "addr:country": "US", "addr:full": "5200 LILLIAN HWY", "addr:postcode": "32506", "addr:state": "FL", "brand": "USPS", "collection_times": "Mo-Fr 17:00; Sa 16:20", "name": "USPS COLLECTION BOX - PO LOBBY", "note": "ON 12/24 AND 12/31, THIS BOX MAY BE COLLECTED AS EARLY AS 12 NOON.", "ref": "3250600046"}, "type": "Feature"}
{"geometry": {"coordinates": [-87.342445716, 30.402544581], "type": "Point"}, "id": "ffvutcBJxxz-XOdjK5WzpJmXIME=", "properties": {"@spider": "usps_collection_boxes", "addr:city": "PENSACOLA", "addr:country": "US", "addr:full": "38 S BLUE ANGEL PKWY", "addr:postcode": "32506", "addr:state": "FL", "brand": "USPS", "collection_times": "Mo-Sa 10:00", "name": "USPS COLLECTION BOX - BLUE BOX", "ref": "3250600048"}, "type": "Feature"}
{"geometry": {"coordinates": [-87.28752679, 30.42616424], "type": "Point"}, "id": "_bAWfd_A9b6aSRXnwkLEAnolcmg=", "properties": {"@spider": "usps_collection_boxes", "addr:city": "PENSACOLA", "addr:country": "US", "addr:full": "5200 LILLIAN HWY", "addr:postcode": "32506", "addr:state": "FL", "brand": "USPS", "collection_times": "Mo-Fr 17:00; Sa 16:15", "name": "USPS COLLECTION BOX - PO LOBBY", "note": "ON 12/24 AND 12/31, THIS BOX MAY BE COLLECTED AS EARLY AS 12 NOON.", "ref": "3250600058"}, "type": "Feature"}
{"geometry": {"coordinates": [-87.273395698, 30.395300114], "type": "Point"}, "id": "XTFqmGEiTFzpC15abnAQVgz66o0=", "properties": {"@spider": "usps_collection_boxes", "addr:city": "PENSACOLA", "addr:country": "US", "addr:full": "901 S OLD CORRY FIELD RD", "addr:postcode": "32507", "addr:state": "FL", "brand": "USPS", "collection_times": "Mo-Sa 16:30", "name": "USPS COLLECTION BOX - PO LOBBY", "note": "ON 12/24 AND 12/31, THIS BOX MAY BE COLLECTED AS EARLY AS 12 NOON.", "ref": "3250700001"}, "type": "Feature"}
{"geometry": {"coordinates": [-87.2743095, 30.395232], "type": "Point"}, "id": "e94pMGIrAdWj-2XVxtR9JOx59RI=", "properties": {"@spider": "usps_collection_boxes", "addr:city": "PENSACOLA", "addr:country": "US", "addr:full": "901 S OLD CORRY FIELD RD", "addr:postcode": "32507", "addr:state": "FL", "brand": "USPS", "collection_times": "Mo-Sa 17:00", "name": "USPS COLLECTION BOX - BLUE BOX", "note": "ON 12/24 AND 12/31, THIS BOX MAY BE COLLECTED AS EARLY AS 12 NOON.", "ref": "3250700002"}, "type": "Feature"}
{"geometry": {"coordinates": [-87.291448345, 30.396848775], "type": "Point"}, "id": "U4VOfbGrecjBuwte_LYtTd9AjGw=", "properties": {"@spider": "usps_collection_boxes", "addr:city": "PENSACOLA", "addr:country": "US", "addr:full": "5600 W HIGHWAY 98", "addr:postcode": "32507", "addr:state": "FL", "brand": "USPS", "collection_times": "Mo-Fr 09:00", "name": "USPS COLLECTION BOX - BLUE BOX", "ref": "3250700011"}, "type": "Feature"}
{"geometry": {"coordinates": [-87.289942187, 30.405347853], "type": "Point"}, "id": "JK0HGNOns9f3AlDuIS5xWLrlxf8=", "properties": {"@spider": "usps_collection_boxes", "addr:city": "PENSACOLA", "addr:country": "US", "addr:full": "2050 CHIEFS WAY", "addr:postcode": "32507", "addr:state": "FL", "brand": "USPS", "collection_times": "Mo-Fr 12:00", "name": "USPS COLLECTION BOX - BLUE BOX", "ref": "3250700016"}, "type": "Feature"}
{"geometry": {"coordinates": [-87.274799846, 30.410556878], "type": "Point"}, "id": "OuX9pu2ChBM7uH7NCsywCGiFKZk=", "properties": {"@spider": "usps_collection_boxes", "addr:city": "PENSACOLA", "addr:country": "US", "addr:full": "190 N OLD CORRY FIELD RD", "addr:postcode": "32507", "addr:state": "FL", "brand": "USPS", "collection_times": "Mo-Fr 10:00", "name": "USPS COLLECTION BOX - BLUE BOX", "ref": "3250700018"}, "type": "Feature"}
{"geometry": {"coordinates": [-87.273984963, 30.388479409], "type": "Point"}, "id": "WxEWDLBTZCVgGfaSutTBTvyV88I=", "properties": {"@spider": "usps_collection_boxes", "addr:city": "PENSACOLA", "addr:country": "US", "addr:full": "4051 BARRANCAS AVE", "addr:postcode": "32507", "addr:state": "FL", "brand": "USPS", "collection_times": "Mo-Fr 10:00", "name": "USPS COLLECTION BOX - BLUE BOX", "ref": "3250700029"}, "type": "Feature"}
{"geometry": {"coordinates": [-87.273395698, 30.395300114], "type": "Point"}, "id": "vWIMn63K5SuaoXA4KqtfiL2VpZk=", "properties": {"@spider": "usps_collection_boxes", "addr:city": "PENSACOLA", "addr:country": "US", "addr:full": "901 S OLD CORRY FIELD RD", "addr:postcode": "32507", "addr:state": "FL", "brand": "USPS", "collection_times": "Mo-Sa 16:30", "name": "USPS COLLECTION BOX - PO LOBBY", "note": "ON 12/24 AND 12/31, THIS BOX MAY BE COLLECTED AS EARLY AS 12 NOON.", "ref": "3250700038"}, "type": "Feature"}
{"geometry": {"coordinates": [-87.290334059, 30.406208114], "type": "Point"}, "id": "mO12jcNY37ubJ0LeM9nk0OjcueI=", "properties": {"@spider": "usps_collection_boxes", "addr:city": "PENSACOLA", "addr:country": "US", "addr:full": "440 ROBERTS AVE", "addr:postcode": "32507", "addr:state": "FL", "brand": "USPS", "collection_times": "Mo-Fr 12:00", "name": "USPS COLLECTION BOX - BLUE BOX", "ref": "3250700042"}, "type": "Feature"}
{"geometry": {"coordinates": [-87.273395698, 30.395300114], "type": "Point"}, "id": "tNNUcbOAsMpTn1LWcYg-YD6opJ4=", "properties": {"@spider": "usps_collection_boxes", "addr:city": "PENSACOLA", "addr:country": "US", "addr:full": "901 S OLD CORRY FIELD RD", "addr:postcode": "32507", "addr:state": "FL", "brand": "USPS", "collection_times": "Mo-Sa 16:30", "name": "USPS COLLECTION BOX - PO LOBBY", "note": "ON 12/24 AND 12/31, THIS BOX MAY BE COLLECTED AS EARLY AS 12 NOON.", "ref": "3250700056"}, "type": "Feature"}
{"geometry": {"coordinates": [-87.274249314, 30.348824311], "type": "Point"}, "id": "jPMAP6Wjs2BGNSw-rLAS3G4ZGMo=", "properties": {"@spider": "usps_collection_boxes", "addr:city": "PENSACOLA", "addr:country": "US", "addr:full": "181 CHAMBERS AVE", "addr:postcode": "32508", "addr:state": "FL", "brand": "USPS", "collection_times": "Mo-Fr 12:00", "name": "USPS COLLECTION BOX - BLUE BOX", "ref": "3250800001"}, "type": "Feature"}
{"geometry": {"coordinates": [-87.2711536639, 30.3476795841], "type": "Point"}, "id": "G4MLhba8mJQdfAF33OCqWdInL4w=", "properties": {"@spider": "usps_collection_boxes", "addr:city": "PENSACOLA", "addr:country": "US", "addr:full": "210 WEST AVE", "addr:postcode": "32508", "addr:state": "FL", "brand": "USPS", "collection_times": "Mo-Fr 12:00", "name": "USPS COLLECTION BOX - BLUE BOX", "ref": "3250800006"}, "type": "Feature"}
{"geometry": {"coordinates": [-87.3038327716, 30.3483142909], "type": "Point"}, "id": "04K0AO0RrHag6AGdgg4Cgn6Vt9w=", "properties": {"@spider": "usps_collection_boxes", "addr:city": "PENSACOLA", "addr:country": "US", "addr:full": "1750 RADFORD BLVD", "addr:postcode": "32508", "addr:state": "FL", "brand": "USPS", "collection_times": "Mo-Fr 12:00", "name": "USPS COLLECTION BOX - BLUE BOX", "ref": "3250800008"}, "type": "Feature"}
{"geometry": {"coordinates": [-87.2725223761, 30.3502582956], "type": "Point"}, "id": "vBGBN95axY-qG4QpkscCG_hVRc0=", "properties": {"@spider": "usps_collection_boxes", "addr:city": "PENSACOLA", "addr:country": "US", "addr:full": "250 SAUFLEY ST", "addr:postcode": "32508", "addr:state": "FL", "brand": "USPS", "collection_times": "Mo-Fr 12:00", "name": "USPS COLLECTION BOX - BLUE BOX", "ref": "3250800010"}, "type": "Feature"}
{"geometry": {"coordinates": [-87.2760298811, 30.3561066278], "type": "Point"}, "id": "QLj6Z1DzjKkbd4mNPTgz-0giuBQ=", "properties": {"@spider": "usps_collection_boxes", "addr:city": "PENSACOLA", "addr:country": "US", "addr:full": "180 TAYLOR RD", "addr:postcode": "32508", "addr:state": "FL", "brand": "USPS", "collection_times": "Mo-Fr 12:00", "name": "USPS COLLECTION BOX - BLUE BOX", "ref": "3250800014"}, "type": "Feature"}
{"geometry": {"coordinates": [-87.2656148921, 30.3517405264], "type": "Point"}, "id": "szQ6u8wpDdNt3jLGA3-1b_Dz6MM=", "properties": {"@spider": "usps_collection_boxes", "addr:city": "PENSACOLA", "addr:country": "US", "addr:full": "707 EAST AVE", "addr:postcode": "32508", "addr:state": "FL", "brand": "USPS", "collection_times": "Mo-Fr 12:00", "name": "USPS COLLECTION BOX - BLUE BOX", "ref": "3250800015"}, "type": "Feature"}
{"geometry": {"coordinates": [-87.2711536639, 30.3476795841], "type": "Point"}, "id": "g6DdWocRl70zhKAX8ZWH8uCxm2s=", "properties": {"@spider": "usps_collection_boxes", "addr:city": "PENSACOLA", "addr:country": "US", "addr:full": "210 WEST AVE", "addr:postcode": "32508", "addr:state": "FL", "brand": "USPS", "collection_times": "Mo-Fr 15:30", "name": "USPS COLLECTION BOX - PO LOBBY", "note": "ON 12/24 AND 12/31, THIS BOX MAY BE COLLECTED AS EARLY AS 12 NOON.", "ref": "3250800016"}, "type": "Feature"}
{"geometry": {"coordinates": [-87.2711536639, 30.3476795841], "type": "Point"}, "id": "OPczQ9dpo-iaeUC5YxKrYoYypAA=", "properties": {"@spider": "usps_collection_boxes", "addr:city": "PENSACOLA", "addr:country": "US", "addr:full": "210 WEST AVE", "addr:postcode": "32508", "addr:state": "FL", "brand": "USPS", "collection_times": "Mo-Fr 15:30", "name": "USPS COLLECTION BOX - PO LOBBY", "note": "ON 12/24 AND 12/31, THIS BOX MAY BE COLLECTED AS EARLY AS 12 NOON.", "ref": "3250800017"}, "type": "Feature"}
{"geometry": {"coordinates": [-87.290814756, 30.460820236], "type": "Point"}, "id": "lC0xKSncwSxMZPgB3HisydTO8hg=", "properties": {"@spider": "usps_collection_boxes", "addr:city": "PENSACOLA", "addr:country": "US", "addr:full": "2869 W MICHIGAN AVE", "addr:postcode": "32526", "addr:state": "FL", "brand": "USPS", "collection_times": "Mo-Fr 10:00", "name": "USPS COLLECTION BOX - BLUE BOX", "ref": "3252600001"}, "type": "Feature"}
{"geometry": {"coordinates": [-87.3006687037, 30.4602023436], "type": "Point"}, "id": "CJWUahjYtnwWhnTNPrl12y25meo=", "properties": {"@spider": "usps_collection_boxes", "addr:city": "PENSACOLA", "addr:country": "US", "addr:full": "5975 MOBILE HWY", "addr:postcode": "32526", "addr:state": "FL", "brand": "USPS", "collection_times": "Mo-Fr 10:00", "name": "USPS COLLECTION BOX - BLUE BOX", "ref": "3252600002"}, "type": "Feature"}
{"geometry": {"coordinates": [-87.266316807, 30.970656012], "type": "Point"}, "id": "ZPnOnSXyh2G1wk4Zk6LOXmajIE0=", "properties": {"@spider": "usps_collection_boxes", "addr:city": "CENTURY", "addr:country": "US", "addr:full": "7500 N CENTURY BLVD", "addr:postcode": "32535", "addr:state": "FL", "brand": "USPS", "collection_times": "Mo-Sa 09:00", "name": "USPS COLLECTION BOX - BLUE BOX", "ref": "3253500004"}, "type": "Feature"}
{"geometry": {"coordinates": [-87.257284625, 30.982554043], "type": "Point"}, "id": "loVWt5yA-_5uMzOm8tHyPcgrIgM=", "properties": {"@spider": "usps_collection_boxes", "addr:city": "CENTURY", "addr:country": "US", "addr:full": "8450 N CENTURY BLVD", "addr:postcode": "32535", "addr:state": "FL", "brand": "USPS", "collection_times": "Mo-Fr 16:00; Sa 12:00", "name": "USPS COLLECTION BOX - PO LOBBY", "note": "ON 12/24 AND 12/31, THIS BOX MAY BE COLLECTED AS EARLY AS 12 NOON.", "ref": "3253500005"}, "type": "Feature"}
{"geometry": {"coordinates": [-87.257284625, 30.982554043], "type": "Point"}, "id": "TzUb3RQxClKjO2vtBK3sDoPZPVo=", "properties": {"@spider": "usps_collection_boxes", "addr:city": "CENTURY", "addr:country": "US", "addr:full": "8450 N CENTURY BLVD", "addr:postcode": "32535", "addr:state": "FL", "brand": "USPS", "collection_times": "Mo-Fr 16:00; Sa 12:00", "name": "USPS COLLECTION BOX - BLUE BOX", "note": "ON 12/24 AND 12/31, THIS BOX MAY BE COLLECTED AS EARLY AS 12 NOON.", "ref": "3253500007"}, "type": "Feature"}
{"geometry": {"coordinates": [-87.257284625, 30.982554043], "type": "Point"}, "id": "v5YMG7MeQevJU_cNWxtQ6mNP42s=", "properties": {"@spider": "usps_collection_boxes", "addr:city": "CENTURY", "addr:country": "US", "addr:full": "8450 N CENTURY BLVD", "addr:postcode": "32535", "addr:state": "FL", "brand": "USPS", "collection_times": "Mo-Fr 16:00; Sa 12:00", "name": "USPS COLLECTION BOX - PO LOBBY", "note": "ON 12/24 AND 12/31, THIS BOX MAY BE COLLECTED AS EARLY AS 12 NOON.", "ref": "3253500009"}, "type": "Feature"}
{"geometry": {"coordinates": [-87.257284625, 30.982554043], "type": "Point"}, "id": "uOwbhAzeQkoEk1uuD7FPELM0Ohw=", "properties": {"@spider": "usps_collection_boxes", "addr:city": "CENTURY", "addr:country": "US", "addr:full": "8450 N CENTURY BLVD", "addr:postcode": "32535", "addr:state": "FL", "brand": "USPS", "collection_times": "Mo-Fr 16:00; Sa 12:00", "name": "USPS COLLECTION BOX - PO LOBBY", "note": "ON 12/24 AND 12/31, THIS BOX MAY BE COLLECTED AS EARLY AS 12 NOON.", "ref": "3253500012"}, "type": "Feature"}
{"geometry": {"coordinates": [-87.170266954, 30.355719185], "type": "Point"}, "id": "cuJ2dG937_0FmFHQRw5_2kO52mc=", "properties": {"@spider": "usps_collection_boxes", "addr:city": "GULF BREEZE", "addr:country": "US", "addr:full": "1070 SHORELINE DR", "addr:postcode": "32561", "addr:state": "FL", "brand": "USPS", "collection_times": "Mo-Fr 11:00", "name": "USPS COLLECTION BOX - BLUE BOX", "ref": "3256100003"}, "type": "Feature"}
{"geometry": {"coordinates": [-87.139095338, 30.333631304], "type": "Point"}, "id": "g2l8eASzCfFebv8du-XyFRud-F4=", "properties": {"@spider": "usps_collection_boxes", "addr:city": "GULF BREEZE", "addr:country": "US", "addr:full": "1 VIA DE LUNA DR", "addr:postcode": "32561", "addr:state": "FL", "brand": "USPS", "collection_times": "Mo-Fr 14:00", "name": "USPS COLLECTION BOX - BLUE BOX", "note": "ON 12/24 AND 12/31, THIS BOX MAY BE COLLECTED AS EARLY AS 12 NOON.", "ref": "3256100006"}, "type": "Feature"}
{"geometry": {"coordinates": [-87.158496743, 30.357997237], "type": "Point"}, "id": "Urel9Utngk4J3Qej1cqn0Y05OeE=", "properties": {"@spider": "usps_collection_boxes", "addr:city": "GULF BREEZE", "addr:country": "US", "addr:full": "1101 GULF BREEZE PKWY", "addr:postcode": "32561", "addr:state": "FL", "brand": "USPS", "collection_times": "Mo-Fr 13:30", "name": "USPS COLLECTION BOX - BLUE BOX", "note": "ON 12/24 AND 12/31, THIS BOX MAY BE COLLECTED AS EARLY AS 12 NOON.", "ref": "3256100015"}, "type": "Feature"}
{"geometry": {"coordinates": [-87.168866205, 30.366335438], "type": "Point"}, "id": "WcT8lTVbBC6QvSrDT9UpRcbf8pM=", "properties": {"@spider": "usps_collection_boxes", "addr:city": "GULF BREEZE", "addr:country": "US", "addr:full": "100 NORTHCLIFFE DR", "addr:postcode": "32561", "addr:state": "FL", "brand": "USPS", "collection_times": "Mo-Fr 17:00; Sa 15:00", "name": "USPS COLLECTION BOX - BLUE BOX", "note": "ON 12/24 AND 12/31, THIS BOX MAY BE COLLECTED AS EARLY AS 12 NOON.", "ref": "3256100019"}, "type": "Feature"}
{"geometry": {"coordinates": [-87.16238308, 30.357326558], "type": "Point"}, "id": "DTkLGu8tm8qcfKN_GXH-oCHHosc=", "properties": {"@spider": "usps_collection_boxes", "addr:city": "GULF BREEZE", "addr:country": "US", "addr:full": "913 GULF BREEZE PKWY", "addr:postcode": "32561", "addr:state": "FL", "brand": "USPS", "collection_times": "Mo-Fr 10:30", "name": "USPS COLLECTION BOX - BLUE BOX", "ref": "3256100022"}, "type": "Feature"}
{"geometry": {"coordinates": [-87.172383762, 30.368437807], "type": "Point"}, "id": "Ol6J31AoM1AyPaaHu0tMRAuS2D4=", "properties": {"@spider": "usps_collection_boxes", "addr:city": "GULF BREEZE", "addr:country": "US", "addr:full": "91 BAY BRIDGE DR", "addr:postcode": "32561", "addr:state": "FL", "brand": "USPS", "collection_times": "Mo-Fr 10:30; Sa 10:00", "name": "USPS COLLECTION BOX - BLUE BOX", "ref": "3256100023"}, "type": "Feature"}
{"geometry": {"coordinates": [-87.168866205, 30.366335438], "type": "Point"}, "id": "JibLva2dcoNs2ag3BQTSGXxulfY=", "properties": {"@spider": "usps_collection_boxes", "addr:city": "GULF BREEZE", "addr:country": "US", "addr:full": "100 NORTHCLIFFE DR", "addr:postcode": "32561", "addr:state": "FL", "brand": "USPS", "collection_times": "Mo-Fr 17:00; Sa 15:00", "name": "USPS COLLECTION BOX - PO LOBBY", "note": "ON 12/24 AND 12/31, THIS BOX MAY BE COLLECTED AS EARLY AS 12 NOON.", "ref": "3256100036"}, "type": "Feature"}
{"geometry": {"coordinates": [-87.168866205, 30.366335438], "type": "Point"}, "id": "S3z126BVZf5BPRXjj8o-paTntNs=", "properties": {"@spider": "usps_collection_boxes", "addr:city": "GULF BREEZE", "addr:country": "US", "addr:full": "100 NORTHCLIFFE DR", "addr:postcode": "32561", "addr:state": "FL", "brand": "USPS", "collection_times": "Mo-Fr 17:00; Sa 15:00", "name": "USPS COLLECTION BOX - PO LOBBY", "note": "ON 12/24 AND 12/31, THIS BOX MAY BE COLLECTED AS EARLY AS 12 NOON.", "ref": "3256100040"}, "type": "Feature"}
{"geometry": {"coordinates": [-87.168866205, 30.366335438], "type": "Point"}, "id": "4YozOJCvw89Uors26pFVdUx_410=", "properties": {"@spider": "usps_collection_boxes", "addr:city": "GULF BREEZE", "addr:country": "US", "addr:full": "100 NORTHCLIFFE DR", "addr:postcode": "32561", "addr:state": "FL", "brand": "USPS", "collection_times": "Mo-Fr 17:00; Sa 15:00", "name": "USPS COLLECTION BOX - PO LOBBY", "note": "ON 12/24 AND 12/31, THIS BOX MAY BE COLLECTED AS EARLY AS 12 NOON.", "ref": "3256100043"}, "type": "Feature"}
{"geometry": {"coordinates": [-87.159221749, 30.953102546], "type": "Point"}, "id": "8j4JMXyykNGF9QmZv4jmdDApLj8=", "properties": {"@spider": "usps_collection_boxes", "addr:city": "JAY", "addr:country": "US", "addr:full": "3719 HIGHWAY 4", "addr:postcode": "32565", "addr:state": "FL", "brand": "USPS", "collection_times": "Mo-Fr 16:00; Sa 12:00", "name": "USPS COLLECTION BOX - PO LOBBY", "note": "ON 12/24 AND 12/31, THIS BOX MAY BE COLLECTED AS EARLY AS 12 NOON.", "ref": "3256500002"}, "type": "Feature"}
{"geometry": {"coordinates": [-87.159221749, 30.953102546], "type": "Point"}, "id": "UCyCcRZSRohmKwgx60Xazk1Ytf0=", "properties": {"@spider": "usps_collection_boxes", "addr:city": "JAY", "addr:country": "US", "addr:full": "3719 HIGHWAY 4", "addr:postcode": "32565", "addr:state": "FL", "brand": "USPS", "collection_times": "Mo-Fr 16:00; Sa 12:00", "name": "USPS COLLECTION BOX - BLUE BOX", "note": "ON 12/24 AND 12/31, THIS BOX MAY BE COLLECTED AS EARLY AS 12 NOON.", "ref": "3256500003"}, "type": "Feature"}
{"geometry": {"coordinates": [-87.159221749, 30.953102546], "type": "Point"}, "id": "2YOotHq-qC7NDBGgQepAqT0wsNU=", "properties": {"@spider": "usps_collection_boxes", "addr:city": "JAY", "addr:country": "US", "addr:full": "3719 HIGHWAY 4", "addr:postcode": "32565", "addr:state": "FL", "brand": "USPS", "collection_times": "Mo-Fr 16:00; Sa 12:00", "name": "USPS COLLECTION BOX - PO LOBBY", "note": "ON 12/24 AND 12/31, THIS BOX MAY BE COLLECTED AS EARLY AS 12 NOON.", "ref": "3256500004"}, "type": "Feature"}
{"geometry": {"coordinates": [-87.159221749, 30.953102546], "type": "Point"}, "id": "1uvegmiJqshpNC9IH6d1AA0Ulr4=", "properties": {"@spider": "usps_collection_boxes", "addr:city": "JAY", "addr:country": "US", "addr:full": "3719 HIGHWAY 4", "addr:postcode": "32565", "addr:state": "FL", "brand": "USPS", "collection_times": "Mo-Fr 16:00; Sa 12:00", "name": "USPS COLLECTION BOX - PO LOBBY", "note": "ON 12/24 AND 12/31, THIS BOX MAY BE COLLECTED AS EARLY AS 12 NOON.", "ref": "3256500006"}, "type": "Feature"}
{"geometry": {"coordinates": [-87.322782305, 30.866295513], "type": "Point"}, "id": "CI0UJ13eIeSvhPs8rqhMgfEPAfU=", "properties": {"@spider": "usps_collection_boxes", "addr:city": "MCDAVID", "addr:country": "US", "addr:full": "7 MAIN ST", "addr:postcode": "32568", "addr:state": "FL", "brand": "USPS", "collection_times": "Mo-Fr 15:45; Sa 10:00", "name": "USPS COLLECTION BOX - BLUE BOX", "note": "ON 12/24 AND 12/31, THIS BOX MAY BE COLLECTED AS EARLY AS 12 NOON.", "ref": "3256800001"}, "type": "Feature"}
{"geometry": {"coordinates": [-87.475040117, 30.897118451], "type": "Point"}, "id": "NC6eXyIrrBMPvob7cpjhFXdBe6U=", "properties": {"@spider": "usps_collection_boxes", "addr:city": "MCDAVID", "addr:country": "US", "addr:full": "4950 HIGHWAY 99A", "addr:postcode": "32568", "addr:state": "FL", "brand": "USPS", "collection_times": "Mo-Sa 10:00", "name": "USPS COLLECTION BOX - PO LOBBY", "ref": "3256800002"}, "type": "Feature"}
{"geometry": {"coordinates": [-87.322782305, 30.866295513], "type": "Point"}, "id": "g-TETGl3PL5tW0aPqb119BRlbrw=", "properties": {"@spider": "usps_collection_boxes", "addr:city": "MCDAVID", "addr:country": "US", "addr:full": "7 MAIN ST", "addr:postcode": "32568", "addr:state": "FL", "brand": "USPS", "collection_times": "Mo-Fr 15:45; Sa 10:00", "name": "USPS COLLECTION BOX - PO LOBBY", "note": "ON 12/24 AND 12/31, THIS BOX MAY BE COLLECTED AS EARLY AS 12 NOON.", "ref": "3256800003"}, "type": "Feature"}
{"geometry": {"coordinates": [-87.322782305, 30.866295513], "type": "Point"}, "id": "Z2EA-AbJHanIpJHuvHQ_2KVSBoY=", "properties": {"@spider": "usps_collection_boxes", "addr:city": "MCDAVID", "addr:country": "US", "addr:full": "7 MAIN ST", "addr:postcode": "32568", "addr:state": "FL", "brand": "USPS", "collection_times": "Mo-Fr 15:45; Sa 10:00", "name": "USPS COLLECTION BOX - PO LOBBY", "note": "ON 12/24 AND 12/31, THIS BOX MAY BE COLLECTED AS EARLY AS 12 NOON.", "ref": "3256800006"}, "type": "Feature"}
{"geometry": {"coordinates": [-87.325195809, 30.722007308], "type": "Point"}, "id": "4hXAQt6FcrRSzF1Imo8KhsvS-9s=", "properties": {"@spider": "usps_collection_boxes", "addr:city": "MOLINO", "addr:country": "US", "addr:full": "550 MOLINO RD", "addr:postcode": "32577", "addr:state": "FL", "brand": "USPS", "collection_times": "Mo-Fr 16:00; Sa 10:30", "name": "USPS COLLECTION BOX - BLUE BOX", "note": "ON 12/24 AND 12/31, THIS BOX MAY BE COLLECTED AS EARLY AS 12 NOON.", "ref": "3257700001"}, "type": "Feature"}
{"geometry": {"coordinates": [-87.325195809, 30.722007308], "type": "Point"}, "id": "0-RMtS7U7fq2osxtEO6jubNPPLc=", "properties": {"@spider": "usps_collection_boxes", "addr:city": "MOLINO", "addr:country": "US", "addr:full": "550 MOLINO RD", "addr:postcode": "32577", "addr:state": "FL", "brand": "USPS", "collection_times": "Mo-Fr 16:00; Sa 10:30", "name": "USPS COLLECTION BOX - PO LOBBY", "note": "ON 12/24 AND 12/31, THIS BOX MAY BE COLLECTED AS EARLY AS 12 NOON.", "ref": "3257700002"}, "type": "Feature"}
{"geometry": {"coordinates": [-87.325195809, 30.722007308], "type": "Point"}, "id": "hL9oYgNGMfXmCl0ydDbZQqUI32M=", "properties": {"@spider": "usps_collection_boxes", "addr:city": "MOLINO", "addr:country": "US", "addr:full": "550 MOLINO RD", "addr:postcode": "32577", "addr:state": "FL", "brand": "USPS", "collection_times": "Mo-Fr 16:00; Sa 10:30", "name": "USPS COLLECTION BOX - PO LOBBY", "note": "ON 12/24 AND 12/31, THIS BOX MAY BE COLLECTED AS EARLY AS 12 NOON.", "ref": "3257700005"}, "type": "Feature"}
