{"geometry": {"coordinates": [-82.497132138, 29.794392], "type": "Point"}, "id": "TUaktIjQN3Xd1DD_R863xB4_gRU=", "properties": {"@spider": "usps_collection_boxes", "addr:city": "ALACHUA", "addr:country": "US", "addr:full": "15200 NW 142ND TER", "addr:postcode": "32615", "addr:state": "FL", "brand": "USPS", "collection_times": "Mo-Fr 17:15; Sa 11:00", "name": "USPS COLLECTION BOX - BLUE BOX", "note": "ON 12/24 AND 12/31, THIS BOX MAY BE COLLECTED AS EARLY AS 12 NOON.", "ref": "3261500001"}, "type": "Feature"}
{"geometry": {"coordinates": [-82.497132138, 29.794392], "type": "Point"}, "id": "i4Bqt5EVnqyar-JxmQsTZLJ8DbM=", "properties": {"@spider": "usps_collection_boxes", "addr:city": "ALACHUA", "addr:country": "US", "addr:full": "15200 NW 142ND TER", "addr:postcode": "32615", "addr:state": "FL", "brand": "USPS", "collection_times": "Mo-Fr 17:15; Sa 11:00", "name": "USPS COLLECTION BOX - PO LOBBY", "note": "ON 12/24 AND 12/31, THIS BOX MAY BE COLLECTED AS EARLY AS 12 NOON.", "ref": "3261500003"}, "type": "Feature"}
{"geometry": {"coordinates": [-82.497132138, 29.794392], "type": "Point"}, "id": "Um2UClysTdXxYJouFwFjr7pJh7g=", "properties": {"@spider": "usps_collection_boxes", "addr:city": "ALACHUA", "addr:country": "US", "addr:full": "15200 NW 142ND TER", "addr:postcode": "32615", "addr:state": "FL", "brand": "USPS", "collection_times": "Mo-Fr 17:15; Sa 11:00", "name": "USPS COLLECTION BOX - PO LOBBY", "note": "ON 12/24 AND 12/31, THIS BOX MAY BE COLLECTED AS EARLY AS 12 NOON.", "ref": "3261500004"}, "type": "Feature"}
{"geometry": {"coordinates": [-82.497132138, 29.794392], "type": "Point"}, "id": "AGVUZEWcw-EURoc1a5vC9CLhZ4Q=", "properties": {"@spider": "usps_collection_boxes", "addr:city": "ALACHUA", "addr:country": "US", "addr:full": "15200 NW 142ND TER", "addr:postcode": "32615", "addr:state": "FL", "brand": "USPS", "collection_times": "Mo-Fr 17:15; Sa 11:00", "name": "USPS COLLECTION BOX - PO LOBBY", "note": "ON 12/24 AND 12/31, THIS BOX MAY BE COLLECTED AS EARLY AS 12 NOON.", "ref": "3261500005"}, "type": "Feature"}
{"geometry": {"coordinates": [-82.414881277, 29.761334758], "type": "Point"}, "id": "rumGHPNa2mrQ6q_lO4DvY67p2B8=", "properties": {"@spider": "usps_collection_boxes", "addr:city": "ALACHUA", "addr:country": "US", "addr:full": "11564 PALMETTO BLVD", "addr:postcode": "32615", "addr:state": "FL", "brand": "USPS", "collection_times": "Mo-Sa 10:00", "name": "USPS COLLECTION BOX - BLUE BOX", "ref": "3261500006"}, "type": "Feature"}
{"geometry": {"coordinates": [-82.497132138, 29.794392], "type": "Point"}, "id": "GSTQiJtuji5_VzJ_-4-DAffQQLY=", "properties": {"@spider": "usps_collection_boxes", "addr:city": "ALACHUA", "addr:country": "US", "addr:full": "15200 NW 142ND TER", "addr:postcode": "32615", "addr:state": "FL", "brand": "USPS", "collection_times": "Mo-Fr 17:15; Sa 11:00", "name": "USPS COLLECTION BOX - PO LOBBY", "note": "ON 12/24 AND 12/31, THIS BOX MAY BE COLLECTED AS EARLY AS 12 NOON.", "ref": "3261500008"}, "type": "Feature"}
{"geometry": {"coordinates": [-82.866457071, 29.768188334], "type": "Point"}, "id": "Noi0untjx-5gUheMIRakd79fRLo=", "properties": {"@spider": "usps_collection_boxes", "addr:city": "BELL", "addr:country": "US", "addr:full": "1900 N US HIGHWAY 129", "addr:postcode": "32619", "addr:state": "FL", "brand": "USPS", "collection_times": "Mo-Fr 17:00; Sa 11:30", "name": "USPS COLLECTION BOX - BLUE BOX", "note": "ON 12/24 AND 12/31, THIS BOX MAY BE COLLECTED AS EARLY AS 12 NOON.", "ref": "3261900000"}, "type": "Feature"}
{"geometry": {"coordinates": [-82.866457071, 29.768188334], "type": "Point"}, "id": "EEcT8oYPRHQvRiX-CcXGKtoSoKY=", "properties": {"@spider": "usps_collection_boxes", "addr:city": "BELL", "addr:country": "US", "addr:full": "1900 N US HIGHWAY 129", "addr:postcode": "32619", "addr:state": "FL", "brand": "USPS", "collection_times": "Mo-Fr 17:00; Sa 11:30", "name": "USPS COLLECTION BOX - PO LOBBY", "note": "ON 12/24 AND 12/31, THIS BOX MAY BE COLLECTED AS EARLY AS 12 NOON.", "ref": "3261900004"}, "type": "Feature"}
{"geometry": {"coordinates": [-82.866457071, 29.768188334], "type": "Point"}, "id": "M0hYCqGKW-2Zy90GUWYieJhYQ6c=", "properties": {"@spider": "usps_collection_boxes", "addr:city": "BELL", "addr:country": "US", "addr:full": "1900 N US HIGHWAY 129", "addr:postcode": "32619", "addr:state": "FL", "brand": "USPS", "collection_times": "Mo-Fr 17:00; Sa 11:30", "name": "USPS COLLECTION BOX - PO LOBBY", "note": "ON 12/24 AND 12/31, THIS BOX MAY BE COLLECTED AS EARLY AS 12 NOON.", "ref": "3261900005"}, "type": "Feature"}
{"geometry": {"coordinates": [-82.866457071, 29.768188334], "type": "Point"}, "id": "7x9gMHKsVSx3EsT8WFhh_ZcE5g4=", "properties": {"@spider": "usps_collection_boxes", "addr:city": "BELL", "addr:country": "US", "addr:full": "1900 N US HIGHWAY 129", "addr:postcode": "32619", "addr:state": "FL", "brand": "USPS", "collection_times": "Mo-Fr 17:00; Sa 11:30", "name": "USPS COLLECTION BOX - PO LOBBY", "note": "ON 12/24 AND 12/31, THIS BOX MAY BE COLLECTED AS EARLY AS 12 NOON.", "ref": "3261900007"}, "type": "Feature"}
{"geometry": {"coordinates": [-82.871309688, 29.502038789], "type": "Point"}, "id": "_MwDPSMoUudkr4zoEu_w-6hcAFQ=", "properties": {"@spider": "usps_collection_boxes", "addr:city": "CHIEFLAND", "addr:country": "US", "addr:full": "2202 N YOUNG BLVD", "addr:postcode": "32626", "addr:state": "FL", "brand": "USPS", "collection_times": "Mo-Fr 12:00; Sa 10:00", "name": "USPS COLLECTION BOX - BLUE BOX", "ref": "3262600001"}, "type": "Feature"}
{"geometry": {"coordinates": [-82.862582139, 29.478702475], "type": "Point"}, "id": "3B5JnqWMTDJBeMKeBFwm3nDNlzM=", "properties": {"@spider": "usps_collection_boxes", "addr:city": "CHIEFLAND", "addr:country": "US", "addr:full": "222 W PARK AVE", "addr:postcode": "32626", "addr:state": "FL", "brand": "USPS", "collection_times": "Mo-Fr 16:30; Sa 12:00", "name": "USPS COLLECTION BOX - BLUE BOX", "note": "ON 12/24 AND 12/31, THIS BOX MAY BE COLLECTED AS EARLY AS 12 NOON.", "ref": "3262600002"}, "type": "Feature"}
{"geometry": {"coordinates": [-82.862582139, 29.478702475], "type": "Point"}, "id": "LLQ_8VhJkE6R-r0JitZRYH3p8HM=", "properties": {"@spider": "usps_collection_boxes", "addr:city": "CHIEFLAND", "addr:country": "US", "addr:full": "222 W PARK AVE", "addr:postcode": "32626", "addr:state": "FL", "brand": "USPS", "collection_times": "Mo-Fr 16:30; Sa 12:00", "name": "USPS COLLECTION BOX - PO LOBBY", "note": "ON 12/24 AND 12/31, THIS BOX MAY BE COLLECTED AS EARLY AS 12 NOON.", "ref": "3262600003"}, "type": "Feature"}
{"geometry": {"coordinates": [-82.870766421, 29.501479439], "type": "Point"}, "id": "WegNb30jCXsigCWOEajKdTtchQw=", "properties": {"@spider": "usps_collection_boxes", "addr:city": "CHIEFLAND", "addr:country": "US", "addr:full": "2201 N YOUNG BLVD", "addr:postcode": "32626", "addr:state": "FL", "brand": "USPS", "collection_times": "Mo-Fr 12:00; Sa 10:00", "name": "USPS COLLECTION BOX - BLUE BOX", "ref": "3262600004"}, "type": "Feature"}
{"geometry": {"coordinates": [-82.862582139, 29.478702475], "type": "Point"}, "id": "VbUYqXxwFBu2KuK0cekdXopQlE8=", "properties": {"@spider": "usps_collection_boxes", "addr:city": "CHIEFLAND", "addr:country": "US", "addr:full": "222 W PARK AVE", "addr:postcode": "32626", "addr:state": "FL", "brand": "USPS", "collection_times": "Mo-Fr 16:30; Sa 12:00", "name": "USPS COLLECTION BOX - PO LOBBY", "note": "ON 12/24 AND 12/31, THIS BOX MAY BE COLLECTED AS EARLY AS 12 NOON.", "ref": "3262600005"}, "type": "Feature"}
{"geometry": {"coordinates": [-82.862582139, 29.478702475], "type": "Point"}, "id": "gLHnHu5592KvrMb9KcwmumJdIYU=", "properties": {"@spider": "usps_collection_boxes", "addr:city": "CHIEFLAND", "addr:country": "US", "addr:full": "222 W PARK AVE", "addr:postcode": "32626", "addr:state": "FL", "brand": "USPS", "collection_times": "Mo-Fr 16:30; Sa 12:00", "name": "USPS COLLECTION BOX - PO LOBBY", "note": "ON 12/24 AND 12/31, THIS BOX MAY BE COLLECTED AS EARLY AS 12 NOON.", "ref": "3262600008"}, "type": "Feature"}
{"geometry": {"coordinates": [-83.123275753, 29.635750818], "type": "Point"}, "id": "4Y3y-3CiCR4SDso3331mokajoo0=", "properties": {"@spider": "usps_collection_boxes", "addr:city": "CROSS CITY", "addr:country": "US", "addr:full": "151 SW CEDAR ST", "addr:postcode": "32628", "addr:state": "FL", "brand": "USPS", "collection_times": "Mo-Fr 16:00; Sa 12:00", "name": "USPS COLLECTION BOX - BLUE BOX", "note": "ON 12/24 AND 12/31, THIS BOX MAY BE COLLECTED AS EARLY AS 12 NOON.", "ref": "3262800000"}, "type": "Feature"}
{"geometry": {"coordinates": [-83.123275753, 29.635750818], "type": "Point"}, "id": "CGzm9UWeL3lq5bxaamo__M9XxC8=", "properties": {"@spider": "usps_collection_boxes", "addr:city": "CROSS CITY", "addr:country": "US", "addr:full": "151 SW CEDAR ST", "addr:postcode": "32628", "addr:state": "FL", "brand": "USPS", "collection_times": "Mo-Fr 16:00; Sa 12:00", "name": "USPS COLLECTION BOX - PO LOBBY", "note": "ON 12/24 AND 12/31, THIS BOX MAY BE COLLECTED AS EARLY AS 12 NOON.", "ref": "3262800002"}, "type": "Feature"}
{"geometry": {"coordinates": [-83.123275753, 29.635750818], "type": "Point"}, "id": "ihT3eD4PrdlAl63Ym8QpcRYJ7Mg=", "properties": {"@spider": "usps_collection_boxes", "addr:city": "CROSS CITY", "addr:country": "US", "addr:full": "151 SW CEDAR ST", "addr:postcode": "32628", "addr:state": "FL", "brand": "USPS", "collection_times": "Mo-Fr 16:00; Sa 12:00", "name": "USPS COLLECTION BOX - PO LOBBY", "note": "ON 12/24 AND 12/31, THIS BOX MAY BE COLLECTED AS EARLY AS 12 NOON.", "ref": "3262800004"}, "type": "Feature"}
{"geometry": {"coordinates": [-82.596329993, 29.830016172], "type": "Point"}, "id": "M3YP9m2tsyTvfxjULqCoUMm2fV0=", "properties": {"@spider": "usps_collection_boxes", "addr:city": "HIGH SPRINGS", "addr:country": "US", "addr:full": "23687 NW 188TH AVE", "addr:postcode": "32643", "addr:state": "FL", "brand": "USPS", "collection_times": "Mo-Fr 16:30; Sa 13:00", "name": "USPS COLLECTION BOX - BLUE BOX", "note": "ON 12/24 AND 12/31, THIS BOX MAY BE COLLECTED AS EARLY AS 12 NOON.", "ref": "3264300001"}, "type": "Feature"}
{"geometry": {"coordinates": [-82.603010192, 29.839970635], "type": "Point"}, "id": "WDb1HSQ7pRviwZ1lpuBkN0CeJws=", "properties": {"@spider": "usps_collection_boxes", "addr:city": "HIGH SPRINGS", "addr:country": "US", "addr:full": "20303 N US HIGHWAY 441 UNIT 160", "addr:postcode": "32643", "addr:state": "FL", "brand": "USPS", "collection_times": "Mo-Sa 10:30", "name": "USPS COLLECTION BOX - BLUE BOX", "ref": "3264300004"}, "type": "Feature"}
{"geometry": {"coordinates": [-82.5896299717, 29.8243627044], "type": "Point"}, "id": "G2G0UnBvQCJPfiRP-jp3hfwRNiU=", "properties": {"@spider": "usps_collection_boxes", "addr:city": "HIGH SPRINGS", "addr:country": "US", "addr:full": "18467 NW US HIGHWAY 441", "addr:postcode": "32643", "addr:state": "FL", "brand": "USPS", "collection_times": "Mo-Sa 10:00", "name": "USPS COLLECTION BOX - BLUE BOX", "ref": "3264300005"}, "type": "Feature"}
{"geometry": {"coordinates": [-82.596292831, 29.829998307], "type": "Point"}, "id": "qAkvTac2D6yuU9aFOGOUuPHeqFo=", "properties": {"@spider": "usps_collection_boxes", "addr:city": "HIGH SPRINGS", "addr:country": "US", "addr:full": "23687 NW 188TH AVE", "addr:postcode": "32643", "addr:state": "FL", "brand": "USPS", "collection_times": "Mo-Fr 17:00; Sa 13:00", "name": "USPS COLLECTION BOX - PO LOBBY", "note": "ON 12/24 AND 12/31, THIS BOX MAY BE COLLECTED AS EARLY AS 12 NOON.", "ref": "3264300006"}, "type": "Feature"}
{"geometry": {"coordinates": [-82.596292831, 29.829998307], "type": "Point"}, "id": "3j7BnsO9cCShe7BQC3K54kirm5Y=", "properties": {"@spider": "usps_collection_boxes", "addr:city": "HIGH SPRINGS", "addr:country": "US", "addr:full": "23687 NW 188TH AVE", "addr:postcode": "32643", "addr:state": "FL", "brand": "USPS", "collection_times": "Mo-Fr 17:00; Sa 13:00", "name": "USPS COLLECTION BOX - PO LOBBY", "note": "ON 12/24 AND 12/31, THIS BOX MAY BE COLLECTED AS EARLY AS 12 NOON.", "ref": "3264300007"}, "type": "Feature"}
{"geometry": {"coordinates": [-82.596749974, 29.827199996], "type": "Point"}, "id": "oIh7oCtRJ3oJqWp1C7Ua5t9cXFo=", "properties": {"@spider": "usps_collection_boxes", "addr:city": "HIGH SPRINGS", "addr:country": "US", "addr:full": "18481 HIGH SPRINGS MAIN ST", "addr:postcode": "32643", "addr:state": "FL", "brand": "USPS", "collection_times": "Mo-Sa 12:30", "name": "USPS COLLECTION BOX - BLUE BOX", "note": "ON 12/24 AND 12/31, THIS BOX MAY BE COLLECTED AS EARLY AS 12 NOON.", "ref": "3264300009"}, "type": "Feature"}
{"geometry": {"coordinates": [-82.596292831, 29.829998307], "type": "Point"}, "id": "JsmqMZU-ChTv3OVKjb8g9u24Fw0=", "properties": {"@spider": "usps_collection_boxes", "addr:city": "HIGH SPRINGS", "addr:country": "US", "addr:full": "23687 NW 188TH AVE", "addr:postcode": "32643", "addr:state": "FL", "brand": "USPS", "collection_times": "Mo-Fr 17:00; Sa 13:00", "name": "USPS COLLECTION BOX - PO LOBBY", "note": "ON 12/24 AND 12/31, THIS BOX MAY BE COLLECTED AS EARLY AS 12 NOON.", "ref": "3264300012"}, "type": "Feature"}
{"geometry": {"coordinates": [-83.286052095, 29.441526151], "type": "Point"}, "id": "0ZPF8f34Pke_PVBS5z0Sy2DijSQ=", "properties": {"@spider": "usps_collection_boxes", "addr:city": "HORSESHOE BEACH", "addr:country": "US", "addr:full": "77 5TH AVE E", "addr:postcode": "32648", "addr:state": "FL", "brand": "USPS", "collection_times": "Mo-Fr 12:00; Sa 10:00", "name": "USPS COLLECTION BOX - PO LOBBY", "ref": "3264800000"}, "type": "Feature"}
{"geometry": {"coordinates": [-83.286052095, 29.441526151], "type": "Point"}, "id": "lHRNVgZxIvb4soOQjRRF7SF63KY=", "properties": {"@spider": "usps_collection_boxes", "addr:city": "HORSESHOE BEACH", "addr:country": "US", "addr:full": "77 5TH AVE E", "addr:postcode": "32648", "addr:state": "FL", "brand": "USPS", "collection_times": "Mo-Fr 12:00; Sa 10:00", "name": "USPS COLLECTION BOX - PO LOBBY", "ref": "3264800002"}, "type": "Feature"}
{"geometry": {"coordinates": [-82.405193159, 29.841533246], "type": "Point"}, "id": "O-3eyLfa6Z4c-QsKSZmtK51OMLU=", "properties": {"@spider": "usps_collection_boxes", "addr:city": "LA CROSSE", "addr:country": "US", "addr:full": "20300 N STATE ROAD 121", "addr:postcode": "32658", "addr:state": "FL", "brand": "USPS", "collection_times": "Mo-Fr 16:50; Sa 11:30", "name": "USPS COLLECTION BOX - BLUE BOX", "note": "ON 12/24 AND 12/31, THIS BOX MAY BE COLLECTED AS EARLY AS 12 NOON.", "ref": "3265800000"}, "type": "Feature"}
{"geometry": {"coordinates": [-82.405193159, 29.841533246], "type": "Point"}, "id": "p96_xUPJOtFYVESD7ZHY9NsQnr4=", "properties": {"@spider": "usps_collection_boxes", "addr:city": "LA CROSSE", "addr:country": "US", "addr:full": "20300 N STATE ROAD 121", "addr:postcode": "32658", "addr:state": "FL", "brand": "USPS", "collection_times": "Mo-Fr 16:50; Sa 11:30", "name": "USPS COLLECTION BOX - PO LOBBY", "note": "ON 12/24 AND 12/31, THIS BOX MAY BE COLLECTED AS EARLY AS 12 NOON.", "ref": "3265800001"}, "type": "Feature"}
{"geometry": {"coordinates": [-82.405193159, 29.841533246], "type": "Point"}, "id": "ehF_gihhmy-DOoZ8LcmD0ORxbso=", "properties": {"@spider": "usps_collection_boxes", "addr:city": "LA CROSSE", "addr:country": "US", "addr:full": "20300 N STATE ROAD 121", "addr:postcode": "32658", "addr:state": "FL", "brand": "USPS", "collection_times": "Mo-Fr 16:50; Sa 11:30", "name": "USPS COLLECTION BOX - PO LOBBY", "note": "ON 12/24 AND 12/31, THIS BOX MAY BE COLLECTED AS EARLY AS 12 NOON.", "ref": "3265800002"}, "type": "Feature"}
{"geometry": {"coordinates": [-82.606754151, 29.649006], "type": "Point"}, "id": "FMEhy3hSCCtjYLuJXnIfulAG_Qc=", "properties": {"@spider": "usps_collection_boxes", "addr:city": "NEWBERRY", "addr:country": "US", "addr:full": "252 N MAIN ST", "addr:postcode": "32669", "addr:state": "FL", "brand": "USPS", "collection_times": "Mo-Fr 16:30; Sa 12:00", "name": "USPS COLLECTION BOX - BLUE BOX", "note": "ON 12/24 AND 12/31, THIS BOX MAY BE COLLECTED AS EARLY AS 12 NOON.", "ref": "3266900000"}, "type": "Feature"}
{"geometry": {"coordinates": [-82.606754151, 29.649006], "type": "Point"}, "id": "S_YWp3hqNL61m2_69OMHg49SI8Y=", "properties": {"@spider": "usps_collection_boxes", "addr:city": "NEWBERRY", "addr:country": "US", "addr:full": "252 N MAIN ST", "addr:postcode": "32669", "addr:state": "FL", "brand": "USPS", "collection_times": "Mo-Fr 16:30; Sa 12:00", "name": "USPS COLLECTION BOX - PO LOBBY", "note": "ON 12/24 AND 12/31, THIS BOX MAY BE COLLECTED AS EARLY AS 12 NOON.", "ref": "3266900001"}, "type": "Feature"}
{"geometry": {"coordinates": [-82.606754151, 29.649006], "type": "Point"}, "id": "g2h5cu3wEiAE5mjMxMdClqxY2G0=", "properties": {"@spider": "usps_collection_boxes", "addr:city": "NEWBERRY", "addr:country": "US", "addr:full": "252 N MAIN ST", "addr:postcode": "32669", "addr:state": "FL", "brand": "USPS", "collection_times": "Mo-Fr 16:30; Sa 12:00", "name": "USPS COLLECTION BOX - PO LOBBY", "note": "ON 12/24 AND 12/31, THIS BOX MAY BE COLLECTED AS EARLY AS 12 NOON.", "ref": "3266900005"}, "type": "Feature"}
{"geometry": {"coordinates": [-82.976135451, 29.599459316], "type": "Point"}, "id": "lHagnzqzOP9dNVIaqPIyVuSMP_A=", "properties": {"@spider": "usps_collection_boxes", "addr:city": "OLD TOWN", "addr:country": "US", "addr:full": "26164 SE HIGHWAY 19", "addr:postcode": "32680", "addr:state": "FL", "brand": "USPS", "collection_times": "Mo-Fr 16:15; Sa 12:00", "name": "USPS COLLECTION BOX - BLUE BOX", "note": "ON 12/24 AND 12/31, THIS BOX MAY BE COLLECTED AS EARLY AS 12 NOON.", "ref": "3268000000"}, "type": "Feature"}
{"geometry": {"coordinates": [-82.976135451, 29.599459316], "type": "Point"}, "id": "4NE5X-2UfRc5oooYuz4TSX4No-o=", "properties": {"@spider": "usps_collection_boxes", "addr:city": "OLD TOWN", "addr:country": "US", "addr:full": "26164 SE HIGHWAY 19", "addr:postcode": "32680", "addr:state": "FL", "brand": "USPS", "collection_times": "Mo-Fr 16:15; Sa 12:00", "name": "USPS COLLECTION BOX - PO LOBBY", "note": "ON 12/24 AND 12/31, THIS BOX MAY BE COLLECTED AS EARLY AS 12 NOON.", "ref": "3268000002"}, "type": "Feature"}
{"geometry": {"coordinates": [-82.976135451, 29.599459316], "type": "Point"}, "id": "JEZA9eUSvHLZYOgJ5sbnYZtSxrM=", "properties": {"@spider": "usps_collection_boxes", "addr:city": "OLD TOWN", "addr:country": "US", "addr:full": "26164 SE HIGHWAY 19", "addr:postcode": "32680", "addr:state": "FL", "brand": "USPS", "collection_times": "Mo-Fr 16:15; Sa 12:00", "name": "USPS COLLECTION BOX - PO LOBBY", "note": "ON 12/24 AND 12/31, THIS BOX MAY BE COLLECTED AS EARLY AS 12 NOON.", "ref": "3268000004"}, "type": "Feature"}
{"geometry": {"coordinates": [-82.798398256, 29.614885206], "type": "Point"}, "id": "BgNUXRUbvXzx7Q1g_OdQhk3WrW0=", "properties": {"@spider": "usps_collection_boxes", "addr:city": "TRENTON", "addr:country": "US", "addr:full": "1831 E WADE ST", "addr:postcode": "32693", "addr:state": "FL", "brand": "USPS", "collection_times": "Mo-Fr 16:00; Sa 12:00", "name": "USPS COLLECTION BOX - BLUE BOX", "note": "ON 12/24 AND 12/31, THIS BOX MAY BE COLLECTED AS EARLY AS 12 NOON.", "ref": "3269300000"}, "type": "Feature"}
{"geometry": {"coordinates": [-82.798398256, 29.614885206], "type": "Point"}, "id": "rOSzokxA9y5Nfd3XAmzQot6VszE=", "properties": {"@spider": "usps_collection_boxes", "addr:city": "TRENTON", "addr:country": "US", "addr:full": "1831 E WADE ST", "addr:postcode": "32693", "addr:state": "FL", "brand": "USPS", "collection_times": "Mo-Fr 16:00; Sa 12:00", "name": "USPS COLLECTION BOX - PO LOBBY", "note": "ON 12/24 AND 12/31, THIS BOX MAY BE COLLECTED AS EARLY AS 12 NOON.", "ref": "3269300002"}, "type": "Feature"}
{"geometry": {"coordinates": [-82.798398256, 29.614885206], "type": "Point"}, "id": "anjOqw_5SGEBX1n3l2psHa5AIrI=", "properties": {"@spider": "usps_collection_boxes", "addr:city": "TRENTON", "addr:country": "US", "addr:full": "1831 E WADE ST", "addr:postcode": "32693", "addr:state": "FL", "brand": "USPS", "collection_times": "Mo-Fr 16:00; Sa 12:00", "name": "USPS COLLECTION BOX - PO LOBBY", "note": "ON 12/24 AND 12/31, THIS BOX MAY BE COLLECTED AS EARLY AS 12 NOON.", "ref": "3269300003"}, "type": "Feature"}
{"geometry": {"coordinates": [-82.818339374, 29.615597528], "type": "Point"}, "id": "SlVV2Ef3cZX-rAKhvEul7Ztw7ns=", "properties": {"@spider": "usps_collection_boxes", "addr:city": "TRENTON", "addr:country": "US", "addr:full": "408 N MAIN ST", "addr:postcode": "32693", "addr:state": "FL", "brand": "USPS", "collection_times": "Mo-Sa 12:00", "name": "USPS COLLECTION BOX - BLUE BOX", "ref": "3269300004"}, "type": "Feature"}
{"geometry": {"coordinates": [-82.927142057, 29.590815554], "type": "Point"}, "id": "CL-MNzAaB2-FBcf7-eT_H7KcrqQ=", "properties": {"@spider": "usps_collection_boxes", "addr:city": "TRENTON", "addr:country": "US", "addr:full": "17976 NW US HIGHWAY 19", "addr:postcode": "32693", "addr:state": "FL", "brand": "USPS", "collection_times": "Mo-Sa 10:00", "name": "USPS COLLECTION BOX - BLUE BOX", "ref": "3269300005"}, "type": "Feature"}
{"geometry": {"coordinates": [-82.798398256, 29.614885206], "type": "Point"}, "id": "UZjEN66usA16SoZkzP7Lroe0CsE=", "properties": {"@spider": "usps_collection_boxes", "addr:city": "TRENTON", "addr:country": "US", "addr:full": "1831 E WADE ST", "addr:postcode": "32693", "addr:state": "FL", "brand": "USPS", "collection_times": "Mo-Fr 16:00; Sa 12:00", "name": "USPS COLLECTION BOX - PO LOBBY", "note": "ON 12/24 AND 12/31, THIS BOX MAY BE COLLECTED AS EARLY AS 12 NOON.", "ref": "3269300007"}, "type": "Feature"}
