{"geometry": {"coordinates": [-81.303567625, 29.034882031], "type": "Point"}, "id": "GlKDmvGulFVZu3PGOU_ZfEgt398=", "properties": {"@spider": "usps_collection_boxes", "addr:city": "DELAND", "addr:country": "US", "addr:full": "421 N WOODLAND BLVD", "addr:postcode": "32723", "addr:state": "FL", "brand": "USPS", "brand:wikidata": "Q668687", "collection_times": "Mo-Fr 15:45; Sa 14:00", "name": "USPS COLLECTION BOX - BLUE BOX", "note": "ON 12/24 AND 12/31, THIS BOX MAY BE COLLECTED AS EARLY AS 12 NOON.", "ref": "3272300000"}, "type": "Feature"}
{"geometry": {"coordinates": [-81.728942922, 28.881045639], "type": "Point"}, "id": "6_L9zxv-I2oJbRiPNdN6B7msANM=", "properties": {"@spider": "usps_collection_boxes", "addr:city": "GRAND ISLAND", "addr:country": "US", "addr:full": "36525 S FISH CAMP RD", "addr:postcode": "32735", "addr:state": "FL", "brand": "USPS", "brand:wikidata": "Q668687", "collection_times": "Mo-Fr 16:45; Sa 08:45", "name": "USPS COLLECTION BOX - BLUE BOX", "note": "ON 12/24 AND 12/31, THIS BOX MAY BE COLLECTED AS EARLY AS 12 NOON.", "ref": "3273500001"}, "type": "Feature"}
{"geometry": {"coordinates": [-81.728942922, 28.881045639], "type": "Point"}, "id": "UbVQonI7Vx__GfzY3KOsmtYAXLs=", "properties": {"@spider": "usps_collection_boxes", "addr:city": "GRAND ISLAND", "addr:country": "US", "addr:full": "36525 S FISH CAMP RD", "addr:postcode": "32735", "addr:state": "FL", "brand": "USPS", "brand:wikidata": "Q668687", "collection_times": "Mo-Fr 16:45; Sa 08:45", "name": "USPS COLLECTION BOX - PO LOBBY", "note": "ON 12/24 AND 12/31, THIS BOX MAY BE COLLECTED AS EARLY AS 12 NOON.", "ref": "3273500003"}, "type": "Feature"}
{"geometry": {"coordinates": [-81.728942922, 28.881045639], "type": "Point"}, "id": "mhZ02iFJJ7uB-wwSPwWnPGi221s=", "properties": {"@spider": "usps_collection_boxes", "addr:city": "GRAND ISLAND", "addr:country": "US", "addr:full": "36525 S FISH CAMP RD", "addr:postcode": "32735", "addr:state": "FL", "brand": "USPS", "brand:wikidata": "Q668687", "collection_times": "Mo-Fr 16:30", "name": "USPS COLLECTION BOX - PO LOBBY", "note": "ON 12/24 AND 12/31, THIS BOX MAY BE COLLECTED AS EARLY AS 12 NOON.", "ref": "3273500004"}, "type": "Feature"}
{"geometry": {"coordinates": [-81.30442669, 28.598075225], "type": "Point"}, "id": "qPJ-WtjeQI7b5cyw6d-uRyWlRP4=", "properties": {"@spider": "usps_collection_boxes", "addr:city": "WINTER PARK", "addr:country": "US", "addr:full": "221 DRIGGS DR", "addr:postcode": "32793", "addr:state": "FL", "brand": "USPS", "brand:wikidata": "Q668687", "collection_times": "Mo-Fr 17:00; Sa 13:00", "name": "USPS COLLECTION BOX - BLUE BOX", "note": "ON 12/24 AND 12/31, THIS BOX MAY BE COLLECTED AS EARLY AS 12 NOON.", "ref": "3279300000"}, "type": "Feature"}
{"geometry": {"coordinates": [-81.30442669, 28.598075225], "type": "Point"}, "id": "B_R9xJpiQvwELe55PDQ2chWaiCE=", "properties": {"@spider": "usps_collection_boxes", "addr:city": "WINTER PARK", "addr:country": "US", "addr:full": "221 DRIGGS DR", "addr:postcode": "32793", "addr:state": "FL", "brand": "USPS", "brand:wikidata": "Q668687", "collection_times": "Mo-Fr 17:00; Sa 13:00", "name": "USPS COLLECTION BOX - PO LOBBY", "note": "ON 12/24 AND 12/31, THIS BOX MAY BE COLLECTED AS EARLY AS 12 NOON.", "ref": "3279300002"}, "type": "Feature"}
{"geometry": {"coordinates": [-81.30442669, 28.598075225], "type": "Point"}, "id": "Wc9MhgQV3buZKbis5y1TnlOqfVw=", "properties": {"@spider": "usps_collection_boxes", "addr:city": "WINTER PARK", "addr:country": "US", "addr:full": "221 DRIGGS DR", "addr:postcode": "32793", "addr:state": "FL", "brand": "USPS", "brand:wikidata": "Q668687", "collection_times": "Mo-Fr 17:00; Sa 13:00", "name": "USPS COLLECTION BOX - APC", "note": "ON 12/24 AND 12/31, THIS BOX MAY BE COLLECTED AS EARLY AS 12 NOON.", "ref": "3279300003"}, "type": "Feature"}
