{"dataset_attributes": {"@spider": "usps_collection_boxes", "spider:collection_time": "2023-12-01T08:26:07.800476"}, "geometry": {"coordinates": [-81.3794739737, 28.5425280074], "type": "Point"}, "id": "5CYQn7ibQ8RZzDN6yjOnQqNgpdM=", "properties": {"@spider": "usps_collection_boxes", "addr:city": "ORLANDO", "addr:country": "US", "addr:full": "20 N ORANGE AVE", "addr:postcode": "32801", "addr:state": "FL", "amenity": "post_box", "brand": "United States Postal Service", "brand:wikidata": "Q668687", "collection_times": "Mo-Fr 14:40; Sa 13:00", "name": "USPS COLLECTION BOX - BLUE BOX", "note": "ON 12/24 AND 12/31, THIS BOX MAY BE COLLECTED AS EARLY AS 12 NOON.", "nsi_id": "unitedstatespostalservice-a77078", "operator": "United States Postal Service", "operator:short": "USPS", "operator:type": "public", "operator:wikidata": "Q668687", "ref": "3280100010"}, "type": "Feature"}
{"dataset_attributes": {"@spider": "usps_collection_boxes", "spider:collection_time": "2023-12-01T08:26:07.800476"}, "geometry": {"coordinates": [-81.379929852, 28.534771782], "type": "Point"}, "id": "UfuRHcosJu0MZaIk7hJNmnw69Os=", "properties": {"@spider": "usps_collection_boxes", "addr:city": "ORLANDO", "addr:country": "US", "addr:full": "100 W LUCERNE CIR", "addr:postcode": "32801", "addr:state": "FL", "amenity": "post_box", "brand": "United States Postal Service", "brand:wikidata": "Q668687", "collection_times": "Mo-Fr 14:00", "name": "USPS COLLECTION BOX - BLUE BOX", "note": "ON 12/24 AND 12/31, THIS BOX MAY BE COLLECTED AS EARLY AS 12 NOON.", "nsi_id": "unitedstatespostalservice-a77078", "operator": "United States Postal Service", "operator:short": "USPS", "operator:type": "public", "operator:wikidata": "Q668687", "ref": "3280100030"}, "type": "Feature"}
{"dataset_attributes": {"@spider": "usps_collection_boxes", "spider:collection_time": "2023-12-01T08:26:07.800476"}, "geometry": {"coordinates": [-81.384777219, 28.549447371], "type": "Point"}, "id": "ROkg4yVI1yYuPNOOFwwcGV0cZZc=", "properties": {"@spider": "usps_collection_boxes", "addr:city": "ORLANDO", "addr:country": "US", "addr:full": "445 W AMELIA ST", "addr:postcode": "32801", "addr:state": "FL", "amenity": "post_box", "brand": "United States Postal Service", "brand:wikidata": "Q668687", "collection_times": "Mo-Fr 16:00", "name": "USPS COLLECTION BOX - BLUE BOX", "note": "ON 12/24 AND 12/31, THIS BOX MAY BE COLLECTED AS EARLY AS 12 NOON.", "nsi_id": "unitedstatespostalservice-a77078", "operator": "United States Postal Service", "operator:short": "USPS", "operator:type": "public", "operator:wikidata": "Q668687", "ref": "3280100032"}, "type": "Feature"}
{"dataset_attributes": {"@spider": "usps_collection_boxes", "spider:collection_time": "2023-12-01T08:26:07.800476"}, "geometry": {"coordinates": [-81.371560332, 28.538432488], "type": "Point"}, "id": "lW9m4vJBOCPr2Rtjq-5bsfsP3y0=", "properties": {"@spider": "usps_collection_boxes", "addr:city": "ORLANDO", "addr:country": "US", "addr:full": "450 E SOUTH ST", "addr:postcode": "32801", "addr:state": "FL", "amenity": "post_box", "brand": "United States Postal Service", "brand:wikidata": "Q668687", "collection_times": "Mo-Fr 11:00", "name": "USPS COLLECTION BOX - BLUE BOX", "nsi_id": "unitedstatespostalservice-a77078", "operator": "United States Postal Service", "operator:short": "USPS", "operator:type": "public", "operator:wikidata": "Q668687", "ref": "3280100038"}, "type": "Feature"}
{"dataset_attributes": {"@spider": "usps_collection_boxes", "spider:collection_time": "2023-12-01T08:26:07.800476"}, "geometry": {"coordinates": [-81.374811449, 28.541387482], "type": "Point"}, "id": "wnZNWtD3HJ3YN1opdQG8_8wP9Ac=", "properties": {"@spider": "usps_collection_boxes", "addr:city": "ORLANDO", "addr:country": "US", "addr:full": "201 E PINE ST", "addr:postcode": "32801", "addr:state": "FL", "amenity": "post_box", "brand": "United States Postal Service", "brand:wikidata": "Q668687", "collection_times": "Mo-Fr 11:45", "name": "USPS COLLECTION BOX - BLUE BOX", "nsi_id": "unitedstatespostalservice-a77078", "operator": "United States Postal Service", "operator:short": "USPS", "operator:type": "public", "operator:wikidata": "Q668687", "ref": "3280100044"}, "type": "Feature"}
{"dataset_attributes": {"@spider": "usps_collection_boxes", "spider:collection_time": "2023-12-01T08:26:07.800476"}, "geometry": {"coordinates": [-81.376622277, 28.542177533], "type": "Point"}, "id": "DVuZaegsRZrYbMTj0ykKFfNxoVo=", "properties": {"@spider": "usps_collection_boxes", "addr:city": "ORLANDO", "addr:country": "US", "addr:full": "101 E CENTRAL BLVD", "addr:postcode": "32801", "addr:state": "FL", "amenity": "post_box", "brand": "United States Postal Service", "brand:wikidata": "Q668687", "collection_times": "Mo-Fr 09:45", "name": "USPS COLLECTION BOX - BLUE BOX", "nsi_id": "unitedstatespostalservice-a77078", "operator": "United States Postal Service", "operator:short": "USPS", "operator:type": "public", "operator:wikidata": "Q668687", "ref": "3280100051"}, "type": "Feature"}
{"dataset_attributes": {"@spider": "usps_collection_boxes", "spider:collection_time": "2023-12-01T08:26:07.800476"}, "geometry": {"coordinates": [-81.3702129765, 28.545995014], "type": "Point"}, "id": "TtF6VBfmdGPEnJXL5zpykeHqCEM=", "properties": {"@spider": "usps_collection_boxes", "addr:city": "ORLANDO", "addr:country": "US", "addr:full": "605 E ROBINSON ST", "addr:postcode": "32801", "addr:state": "FL", "amenity": "post_box", "brand": "United States Postal Service", "brand:wikidata": "Q668687", "collection_times": "Mo-Fr 13:45", "name": "USPS COLLECTION BOX - BLUE BOX", "note": "ON 12/24 AND 12/31, THIS BOX MAY BE COLLECTED AS EARLY AS 12 NOON.", "nsi_id": "unitedstatespostalservice-a77078", "operator": "United States Postal Service", "operator:short": "USPS", "operator:type": "public", "operator:wikidata": "Q668687", "ref": "3280100058"}, "type": "Feature"}
{"dataset_attributes": {"@spider": "usps_collection_boxes", "spider:collection_time": "2023-12-01T08:26:07.800476"}, "geometry": {"coordinates": [-81.369320003, 28.543650504], "type": "Point"}, "id": "zMrqiF0rxGwsUO1bJ-297fIp1js=", "properties": {"@spider": "usps_collection_boxes", "addr:city": "ORLANDO", "addr:country": "US", "addr:full": "611 E WASHINGTON ST", "addr:postcode": "32801", "addr:state": "FL", "amenity": "post_box", "brand": "United States Postal Service", "brand:wikidata": "Q668687", "collection_times": "Mo-Fr 14:45", "name": "USPS COLLECTION BOX - BLUE BOX", "note": "ON 12/24 AND 12/31, THIS BOX MAY BE COLLECTED AS EARLY AS 12 NOON.", "nsi_id": "unitedstatespostalservice-a77078", "operator": "United States Postal Service", "operator:short": "USPS", "operator:type": "public", "operator:wikidata": "Q668687", "ref": "3280100059"}, "type": "Feature"}
{"dataset_attributes": {"@spider": "usps_collection_boxes", "spider:collection_time": "2023-12-01T08:26:07.800476"}, "geometry": {"coordinates": [-81.377599761, 28.546721162], "type": "Point"}, "id": "z3vwbElKOLZLcKmQLR052gKKlDs=", "properties": {"@spider": "usps_collection_boxes", "addr:city": "ORLANDO", "addr:country": "US", "addr:full": "326 N MAGNOLIA AVE", "addr:postcode": "32801", "addr:state": "FL", "amenity": "post_box", "brand": "United States Postal Service", "brand:wikidata": "Q668687", "collection_times": "Mo-Fr 13:30", "name": "USPS COLLECTION BOX - BLUE BOX", "note": "ON 12/24 AND 12/31, THIS BOX MAY BE COLLECTED AS EARLY AS 12 NOON.", "nsi_id": "unitedstatespostalservice-a77078", "operator": "United States Postal Service", "operator:short": "USPS", "operator:type": "public", "operator:wikidata": "Q668687", "ref": "3280100065"}, "type": "Feature"}
{"dataset_attributes": {"@spider": "usps_collection_boxes", "spider:collection_time": "2023-12-01T08:26:07.800476"}, "geometry": {"coordinates": [-81.379150702, 28.551554528], "type": "Point"}, "id": "q8DOCoTHKH6i_OUM9shqtPFbb0E=", "properties": {"@spider": "usps_collection_boxes", "addr:city": "ORLANDO", "addr:country": "US", "addr:full": "633 N ORANGE AVE", "addr:postcode": "32801", "addr:state": "FL", "amenity": "post_box", "brand": "United States Postal Service", "brand:wikidata": "Q668687", "collection_times": "Mo-Fr 14:00", "name": "USPS COLLECTION BOX - BLUE BOX", "note": "ON 12/24 AND 12/31, THIS BOX MAY BE COLLECTED AS EARLY AS 12 NOON.", "nsi_id": "unitedstatespostalservice-a77078", "operator": "United States Postal Service", "operator:short": "USPS", "operator:type": "public", "operator:wikidata": "Q668687", "ref": "3280100072"}, "type": "Feature"}
{"dataset_attributes": {"@spider": "usps_collection_boxes", "spider:collection_time": "2023-12-01T08:26:07.800476"}, "geometry": {"coordinates": [-81.376442361, 28.54941546], "type": "Point"}, "id": "5hhVvayUkYCCN_jC_iHccBO1XWw=", "properties": {"@spider": "usps_collection_boxes", "addr:city": "ORLANDO", "addr:country": "US", "addr:full": "101 E AMELIA ST", "addr:postcode": "32801", "addr:state": "FL", "amenity": "post_box", "brand": "United States Postal Service", "brand:wikidata": "Q668687", "collection_times": "Mo-Fr 13:00", "name": "USPS COLLECTION BOX - BLUE BOX", "note": "ON 12/24 AND 12/31, THIS BOX MAY BE COLLECTED AS EARLY AS 12 NOON.", "nsi_id": "unitedstatespostalservice-a77078", "operator": "United States Postal Service", "operator:short": "USPS", "operator:type": "public", "operator:wikidata": "Q668687", "ref": "3280100077"}, "type": "Feature"}
{"dataset_attributes": {"@spider": "usps_collection_boxes", "spider:collection_time": "2023-12-01T08:26:07.800476"}, "geometry": {"coordinates": [-81.377151114, 28.541299507], "type": "Point"}, "id": "7qNX4VKnesN8KB6pz9hsOBU2AKM=", "properties": {"@spider": "usps_collection_boxes", "addr:city": "ORLANDO", "addr:country": "US", "addr:full": "100 E PINE ST", "addr:postcode": "32801", "addr:state": "FL", "amenity": "post_box", "brand": "United States Postal Service", "brand:wikidata": "Q668687", "collection_times": "Mo-Fr 14:30", "name": "USPS COLLECTION BOX - BLUE BOX", "note": "ON 12/24 AND 12/31, THIS BOX MAY BE COLLECTED AS EARLY AS 12 NOON.", "nsi_id": "unitedstatespostalservice-a77078", "operator": "United States Postal Service", "operator:short": "USPS", "operator:type": "public", "operator:wikidata": "Q668687", "ref": "3280100085"}, "type": "Feature"}
{"dataset_attributes": {"@spider": "usps_collection_boxes", "spider:collection_time": "2023-12-01T08:26:07.800476"}, "geometry": {"coordinates": [-81.381411283, 28.542053482], "type": "Point"}, "id": "aaN3VD69-QJd3uDW5vsbRzXXwZQ=", "properties": {"@spider": "usps_collection_boxes", "addr:city": "ORLANDO", "addr:country": "US", "addr:full": "135 W CENTRAL BLVD", "addr:postcode": "32801", "addr:state": "FL", "amenity": "post_box", "brand": "United States Postal Service", "brand:wikidata": "Q668687", "collection_times": "Mo-Fr 13:30", "name": "USPS COLLECTION BOX - BLUE BOX", "note": "ON 12/24 AND 12/31, THIS BOX MAY BE COLLECTED AS EARLY AS 12 NOON.", "nsi_id": "unitedstatespostalservice-a77078", "operator": "United States Postal Service", "operator:short": "USPS", "operator:type": "public", "operator:wikidata": "Q668687", "ref": "3280100097"}, "type": "Feature"}
{"dataset_attributes": {"@spider": "usps_collection_boxes", "spider:collection_time": "2023-12-01T08:26:07.800476"}, "geometry": {"coordinates": [-81.379312828, 28.55889], "type": "Point"}, "id": "TJNra9CKyCYRJKrEzNfVASeYlZM=", "properties": {"@spider": "usps_collection_boxes", "addr:city": "ORLANDO", "addr:country": "US", "addr:full": "1000 LEGION PL", "addr:postcode": "32801", "addr:state": "FL", "amenity": "post_box", "brand": "United States Postal Service", "brand:wikidata": "Q668687", "collection_times": "Mo-Fr 12:30", "name": "USPS COLLECTION BOX - BLUE BOX", "note": "ON 12/24 AND 12/31, THIS BOX MAY BE COLLECTED AS EARLY AS 12 NOON.", "nsi_id": "unitedstatespostalservice-a77078", "operator": "United States Postal Service", "operator:short": "USPS", "operator:type": "public", "operator:wikidata": "Q668687", "ref": "3280100098"}, "type": "Feature"}
{"dataset_attributes": {"@spider": "usps_collection_boxes", "spider:collection_time": "2023-12-01T08:26:07.800476"}, "geometry": {"coordinates": [-81.379039698, 28.543922528], "type": "Point"}, "id": "RH6wyRof3lnh6TpqaLi8ZlGDnm0=", "properties": {"@spider": "usps_collection_boxes", "addr:city": "ORLANDO", "addr:country": "US", "addr:full": "111 N ORANGE AVE", "addr:postcode": "32801", "addr:state": "FL", "amenity": "post_box", "brand": "United States Postal Service", "brand:wikidata": "Q668687", "collection_times": "Mo-Fr 15:00", "name": "USPS COLLECTION BOX - BLUE BOX", "note": "ON 12/24 AND 12/31, THIS BOX MAY BE COLLECTED AS EARLY AS 12 NOON.", "nsi_id": "unitedstatespostalservice-a77078", "operator": "United States Postal Service", "operator:short": "USPS", "operator:type": "public", "operator:wikidata": "Q668687", "ref": "3280100099"}, "type": "Feature"}
{"dataset_attributes": {"@spider": "usps_collection_boxes", "spider:collection_time": "2023-12-01T08:26:07.800476"}, "geometry": {"coordinates": [-81.379049798, 28.539998665], "type": "Point"}, "id": "noJO79QW7A-JNua9o9AnHamYCTQ=", "properties": {"@spider": "usps_collection_boxes", "addr:city": "ORLANDO", "addr:country": "US", "addr:full": "200 S ORANGE AVE", "addr:postcode": "32801", "addr:state": "FL", "amenity": "post_box", "brand": "United States Postal Service", "brand:wikidata": "Q668687", "collection_times": "Mo-Fr 12:40", "name": "USPS COLLECTION BOX - BLUE BOX", "note": "ON 12/24 AND 12/31, THIS BOX MAY BE COLLECTED AS EARLY AS 12 NOON.", "nsi_id": "unitedstatespostalservice-a77078", "operator": "United States Postal Service", "operator:short": "USPS", "operator:type": "public", "operator:wikidata": "Q668687", "ref": "3280100100"}, "type": "Feature"}
{"dataset_attributes": {"@spider": "usps_collection_boxes", "spider:collection_time": "2023-12-01T08:26:07.800476"}, "geometry": {"coordinates": [-81.3796580403, 28.5376569901], "type": "Point"}, "id": "_RhxiukC6rWnqIyE2DsW3whL5vc=", "properties": {"@spider": "usps_collection_boxes", "addr:city": "ORLANDO", "addr:country": "US", "addr:full": "400 S ORANGE AVE", "addr:postcode": "32801", "addr:state": "FL", "amenity": "post_box", "brand": "United States Postal Service", "brand:wikidata": "Q668687", "collection_times": "Mo-Fr 13:00", "name": "USPS COLLECTION BOX - BLUE BOX", "note": "ON 12/24 AND 12/31, THIS BOX MAY BE COLLECTED AS EARLY AS 12 NOON.", "nsi_id": "unitedstatespostalservice-a77078", "operator": "United States Postal Service", "operator:short": "USPS", "operator:type": "public", "operator:wikidata": "Q668687", "ref": "3280100101"}, "type": "Feature"}
{"dataset_attributes": {"@spider": "usps_collection_boxes", "spider:collection_time": "2023-12-01T08:26:07.800476"}, "geometry": {"coordinates": [-81.3744, 28.545731453], "type": "Point"}, "id": "gxC9rxGClBaFT3YHPq7FIZAr3cY=", "properties": {"@spider": "usps_collection_boxes", "addr:city": "ORLANDO", "addr:country": "US", "addr:full": "225 E ROBINSON ST", "addr:postcode": "32801", "addr:state": "FL", "amenity": "post_box", "brand": "United States Postal Service", "brand:wikidata": "Q668687", "collection_times": "Mo-Fr 13:20", "name": "USPS COLLECTION BOX - BLUE BOX", "note": "ON 12/24 AND 12/31, THIS BOX MAY BE COLLECTED AS EARLY AS 12 NOON.", "nsi_id": "unitedstatespostalservice-a77078", "operator": "United States Postal Service", "operator:short": "USPS", "operator:type": "public", "operator:wikidata": "Q668687", "ref": "3280100102"}, "type": "Feature"}
{"dataset_attributes": {"@spider": "usps_collection_boxes", "spider:collection_time": "2023-12-01T08:26:07.800476"}, "geometry": {"coordinates": [-81.384480081, 28.545665549], "type": "Point"}, "id": "RD7dQa_IMOvM9NMJ8lT9VjXD7Q0=", "properties": {"@spider": "usps_collection_boxes", "addr:city": "ORLANDO", "addr:country": "US", "addr:full": "400 W ROBINSON ST", "addr:postcode": "32801", "addr:state": "FL", "amenity": "post_box", "brand": "United States Postal Service", "brand:wikidata": "Q668687", "collection_times": "Mo-Fr 11:30", "name": "USPS COLLECTION BOX - BLUE BOX", "nsi_id": "unitedstatespostalservice-a77078", "operator": "United States Postal Service", "operator:short": "USPS", "operator:type": "public", "operator:wikidata": "Q668687", "ref": "3280100103"}, "type": "Feature"}
{"dataset_attributes": {"@spider": "usps_collection_boxes", "spider:collection_time": "2023-12-01T08:26:07.800476"}, "geometry": {"coordinates": [-81.377960753, 28.540638367], "type": "Point"}, "id": "e1GkCj5P_lnzI2BdLkgWaHdN5wc=", "properties": {"@spider": "usps_collection_boxes", "addr:city": "ORLANDO", "addr:country": "US", "addr:full": "155 COURT", "addr:postcode": "32801", "addr:state": "FL", "amenity": "post_box", "brand": "United States Postal Service", "brand:wikidata": "Q668687", "collection_times": "Mo-Sa 12:00", "name": "USPS COLLECTION BOX - BLUE BOX", "nsi_id": "unitedstatespostalservice-a77078", "operator": "United States Postal Service", "operator:short": "USPS", "operator:type": "public", "operator:wikidata": "Q668687", "ref": "3280100104"}, "type": "Feature"}
{"dataset_attributes": {"@spider": "usps_collection_boxes", "spider:collection_time": "2023-12-01T08:26:07.800476"}, "geometry": {"coordinates": [-81.379049798, 28.539998665], "type": "Point"}, "id": "TNWqwSrcqShCJFxT0RJGpVJhN2I=", "properties": {"@spider": "usps_collection_boxes", "addr:city": "ORLANDO", "addr:country": "US", "addr:full": "200 S ORANGE AVE", "addr:postcode": "32801", "addr:state": "FL", "amenity": "post_box", "brand": "United States Postal Service", "brand:wikidata": "Q668687", "collection_times": "Mo-Fr 12:40", "name": "USPS COLLECTION BOX - BLUE BOX", "note": "ON 12/24 AND 12/31, THIS BOX MAY BE COLLECTED AS EARLY AS 12 NOON.", "nsi_id": "unitedstatespostalservice-a77078", "operator": "United States Postal Service", "operator:short": "USPS", "operator:type": "public", "operator:wikidata": "Q668687", "ref": "3280100105"}, "type": "Feature"}
{"dataset_attributes": {"@spider": "usps_collection_boxes", "spider:collection_time": "2023-12-01T08:26:07.800476"}, "geometry": {"coordinates": [-81.384480081, 28.545665549], "type": "Point"}, "id": "0OZnUCofT4LSX9RK6lVd3P7j-LM=", "properties": {"@spider": "usps_collection_boxes", "addr:city": "ORLANDO", "addr:country": "US", "addr:full": "400 W ROBINSON ST", "addr:postcode": "32801", "addr:state": "FL", "amenity": "post_box", "brand": "United States Postal Service", "brand:wikidata": "Q668687", "collection_times": "Mo-Fr 11:30", "name": "USPS COLLECTION BOX - BLUE BOX", "nsi_id": "unitedstatespostalservice-a77078", "operator": "United States Postal Service", "operator:short": "USPS", "operator:type": "public", "operator:wikidata": "Q668687", "ref": "3280100106"}, "type": "Feature"}
{"dataset_attributes": {"@spider": "usps_collection_boxes", "spider:collection_time": "2023-12-01T08:26:07.800476"}, "geometry": {"coordinates": [-81.377688945, 28.544653505], "type": "Point"}, "id": "kXCys3u4qmbyFFy-Y_QNdfpzgIk=", "properties": {"@spider": "usps_collection_boxes", "addr:city": "ORLANDO", "addr:country": "US", "addr:full": "51 E JEFFERSON ST", "addr:postcode": "32801", "addr:state": "FL", "amenity": "post_box", "brand": "United States Postal Service", "brand:wikidata": "Q668687", "collection_times": "Mo-Fr 17:00", "name": "USPS COLLECTION BOX - PO LOBBY", "note": "ON 12/24 AND 12/31, THIS BOX MAY BE COLLECTED AS EARLY AS 12 NOON.", "nsi_id": "unitedstatespostalservice-a77078", "operator": "United States Postal Service", "operator:short": "USPS", "operator:type": "public", "operator:wikidata": "Q668687", "ref": "3280100108"}, "type": "Feature"}
{"dataset_attributes": {"@spider": "usps_collection_boxes", "spider:collection_time": "2023-12-01T08:26:07.800476"}, "geometry": {"coordinates": [-81.377688945, 28.544653505], "type": "Point"}, "id": "6Wd_qVQmftBTedeRJLqNqhQEfMI=", "properties": {"@spider": "usps_collection_boxes", "addr:city": "ORLANDO", "addr:country": "US", "addr:full": "51 E JEFFERSON ST", "addr:postcode": "32802", "addr:state": "FL", "amenity": "post_box", "brand": "United States Postal Service", "brand:wikidata": "Q668687", "collection_times": "Mo-Fr 17:00; Sa 15:45", "name": "USPS COLLECTION BOX - BLUE BOX", "note": "ON 12/24 AND 12/31, THIS BOX MAY BE COLLECTED AS EARLY AS 12 NOON.", "nsi_id": "unitedstatespostalservice-a77078", "operator": "United States Postal Service", "operator:short": "USPS", "operator:type": "public", "operator:wikidata": "Q668687", "ref": "3280200001"}, "type": "Feature"}
{"dataset_attributes": {"@spider": "usps_collection_boxes", "spider:collection_time": "2023-12-01T08:26:07.800476"}, "geometry": {"coordinates": [-81.377688945, 28.544653505], "type": "Point"}, "id": "psbhEO9hABhF0STZROcLxziVwDY=", "properties": {"@spider": "usps_collection_boxes", "addr:city": "ORLANDO", "addr:country": "US", "addr:full": "51 E JEFFERSON ST", "addr:postcode": "32802", "addr:state": "FL", "amenity": "post_box", "brand": "United States Postal Service", "brand:wikidata": "Q668687", "collection_times": "Mo-Fr 17:00; Sa 13:45", "name": "USPS COLLECTION BOX - PO LOBBY", "note": "ON 12/24 AND 12/31, THIS BOX MAY BE COLLECTED AS EARLY AS 12 NOON.", "nsi_id": "unitedstatespostalservice-a77078", "operator": "United States Postal Service", "operator:short": "USPS", "operator:type": "public", "operator:wikidata": "Q668687", "ref": "3280200002"}, "type": "Feature"}
{"dataset_attributes": {"@spider": "usps_collection_boxes", "spider:collection_time": "2023-12-01T08:26:07.800476"}, "geometry": {"coordinates": [-81.360849777, 28.553088532], "type": "Point"}, "id": "Sjc_2aNCteBk-zWAjZn7jyBoEng=", "properties": {"@spider": "usps_collection_boxes", "addr:city": "ORLANDO", "addr:country": "US", "addr:full": "1516 E COLONIAL DR", "addr:postcode": "32803", "addr:state": "FL", "amenity": "post_box", "brand": "United States Postal Service", "brand:wikidata": "Q668687", "collection_times": "Mo-Sa 12:00", "name": "USPS COLLECTION BOX - BLUE BOX", "nsi_id": "unitedstatespostalservice-a77078", "operator": "United States Postal Service", "operator:short": "USPS", "operator:type": "public", "operator:wikidata": "Q668687", "ref": "3280300001"}, "type": "Feature"}
{"dataset_attributes": {"@spider": "usps_collection_boxes", "spider:collection_time": "2023-12-01T08:26:07.800476"}, "geometry": {"coordinates": [-81.360260698, 28.551644696], "type": "Point"}, "id": "IFX1NQWNyBnD7N__4IxBhSfF8lU=", "properties": {"@spider": "usps_collection_boxes", "addr:city": "ORLANDO", "addr:country": "US", "addr:full": "601 N FERNCREEK AVE", "addr:postcode": "32803", "addr:state": "FL", "amenity": "post_box", "brand": "United States Postal Service", "brand:wikidata": "Q668687", "collection_times": "Mo-Sa 15:30", "name": "USPS COLLECTION BOX - BLUE BOX", "note": "ON 12/24 AND 12/31, THIS BOX MAY BE COLLECTED AS EARLY AS 12 NOON.", "nsi_id": "unitedstatespostalservice-a77078", "operator": "United States Postal Service", "operator:short": "USPS", "operator:type": "public", "operator:wikidata": "Q668687", "ref": "3280300003"}, "type": "Feature"}
{"dataset_attributes": {"@spider": "usps_collection_boxes", "spider:collection_time": "2023-12-01T08:26:07.800476"}, "geometry": {"coordinates": [-81.360271298, 28.54791], "type": "Point"}, "id": "AJ3S_ypgD2aVyT0P9hgJ44HRNfk=", "properties": {"@spider": "usps_collection_boxes", "addr:city": "ORLANDO", "addr:country": "US", "addr:full": "400 N FERNCREEK AVE", "addr:postcode": "32803", "addr:state": "FL", "amenity": "post_box", "brand": "United States Postal Service", "brand:wikidata": "Q668687", "collection_times": "Mo-Sa 14:00", "name": "USPS COLLECTION BOX - BLUE BOX", "note": "ON 12/24 AND 12/31, THIS BOX MAY BE COLLECTED AS EARLY AS 12 NOON.", "nsi_id": "unitedstatespostalservice-a77078", "operator": "United States Postal Service", "operator:short": "USPS", "operator:type": "public", "operator:wikidata": "Q668687", "ref": "3280300004"}, "type": "Feature"}
{"dataset_attributes": {"@spider": "usps_collection_boxes", "spider:collection_time": "2023-12-01T08:26:07.800476"}, "geometry": {"coordinates": [-81.351869194, 28.543419], "type": "Point"}, "id": "g4DKOlounzrT4g9gXkcv2oKXib4=", "properties": {"@spider": "usps_collection_boxes", "addr:city": "ORLANDO", "addr:country": "US", "addr:full": "51 N BUMBY AVE", "addr:postcode": "32803", "addr:state": "FL", "amenity": "post_box", "brand": "United States Postal Service", "brand:wikidata": "Q668687", "collection_times": "Mo-Sa 11:15", "name": "USPS COLLECTION BOX - BLUE BOX", "nsi_id": "unitedstatespostalservice-a77078", "operator": "United States Postal Service", "operator:short": "USPS", "operator:type": "public", "operator:wikidata": "Q668687", "ref": "3280300006"}, "type": "Feature"}
{"dataset_attributes": {"@spider": "usps_collection_boxes", "spider:collection_time": "2023-12-01T08:26:07.800476"}, "geometry": {"coordinates": [-81.355788639, 28.552203525], "type": "Point"}, "id": "U7TxJhi6Tm7ThYMXZYX5SBd7z5A=", "properties": {"@spider": "usps_collection_boxes", "addr:city": "ORLANDO", "addr:country": "US", "addr:full": "2000 HILLCREST ST", "addr:postcode": "32803", "addr:state": "FL", "amenity": "post_box", "brand": "United States Postal Service", "brand:wikidata": "Q668687", "collection_times": "Mo-Sa 12:00", "name": "USPS COLLECTION BOX - BLUE BOX", "nsi_id": "unitedstatespostalservice-a77078", "operator": "United States Postal Service", "operator:short": "USPS", "operator:type": "public", "operator:wikidata": "Q668687", "ref": "3280300013"}, "type": "Feature"}
{"dataset_attributes": {"@spider": "usps_collection_boxes", "spider:collection_time": "2023-12-01T08:26:07.800476"}, "geometry": {"coordinates": [-81.360688751, 28.552164518], "type": "Point"}, "id": "PQPXTiezPEP2y_ki7t7XlC5z2UY=", "properties": {"@spider": "usps_collection_boxes", "addr:city": "ORLANDO", "addr:country": "US", "addr:full": "1516 HILLCREST ST", "addr:postcode": "32803", "addr:state": "FL", "amenity": "post_box", "brand": "United States Postal Service", "brand:wikidata": "Q668687", "collection_times": "Mo-Sa 12:10", "name": "USPS COLLECTION BOX - BLUE BOX", "note": "ON 12/24 AND 12/31, THIS BOX MAY BE COLLECTED AS EARLY AS 12 NOON.", "nsi_id": "unitedstatespostalservice-a77078", "operator": "United States Postal Service", "operator:short": "USPS", "operator:type": "public", "operator:wikidata": "Q668687", "ref": "3280300022"}, "type": "Feature"}
{"dataset_attributes": {"@spider": "usps_collection_boxes", "spider:collection_time": "2023-12-01T08:26:07.800476"}, "geometry": {"coordinates": [-81.369558, 28.571827472], "type": "Point"}, "id": "Mqe0mspall3UOi2Ty9l2nZTIfUE=", "properties": {"@spider": "usps_collection_boxes", "addr:city": "ORLANDO", "addr:country": "US", "addr:full": "615 E PRINCETON ST", "addr:postcode": "32803", "addr:state": "FL", "amenity": "post_box", "brand": "United States Postal Service", "brand:wikidata": "Q668687", "collection_times": "Mo-Fr 14:30; Sa 13:00", "name": "USPS COLLECTION BOX - BLUE BOX", "note": "ON 12/24 AND 12/31, THIS BOX MAY BE COLLECTED AS EARLY AS 12 NOON.", "nsi_id": "unitedstatespostalservice-a77078", "operator": "United States Postal Service", "operator:short": "USPS", "operator:type": "public", "operator:wikidata": "Q668687", "ref": "3280300033"}, "type": "Feature"}
{"dataset_attributes": {"@spider": "usps_collection_boxes", "spider:collection_time": "2023-12-01T08:26:07.800476"}, "geometry": {"coordinates": [-81.364470295, 28.555506], "type": "Point"}, "id": "84xzvnZLVser6Q24kC12jRYHueI=", "properties": {"@spider": "usps_collection_boxes", "addr:city": "ORLANDO", "addr:country": "US", "addr:full": "814 N MILLS AVE", "addr:postcode": "32803", "addr:state": "FL", "amenity": "post_box", "brand": "United States Postal Service", "brand:wikidata": "Q668687", "collection_times": "Mo-Sa 10:20", "name": "USPS COLLECTION BOX - BLUE BOX", "nsi_id": "unitedstatespostalservice-a77078", "operator": "United States Postal Service", "operator:short": "USPS", "operator:type": "public", "operator:wikidata": "Q668687", "ref": "3280300036"}, "type": "Feature"}
{"dataset_attributes": {"@spider": "usps_collection_boxes", "spider:collection_time": "2023-12-01T08:26:07.800476"}, "geometry": {"coordinates": [-81.369210526, 28.553230508], "type": "Point"}, "id": "Eyq0k5rhOKWhxw8j2psbo6ICs2Q=", "properties": {"@spider": "usps_collection_boxes", "addr:city": "ORLANDO", "addr:country": "US", "addr:full": "633 E COLONIAL DR", "addr:postcode": "32803", "addr:state": "FL", "amenity": "post_box", "brand": "United States Postal Service", "brand:wikidata": "Q668687", "collection_times": "Mo-Sa 10:00", "name": "USPS COLLECTION BOX - BLUE BOX", "nsi_id": "unitedstatespostalservice-a77078", "operator": "United States Postal Service", "operator:short": "USPS", "operator:type": "public", "operator:wikidata": "Q668687", "ref": "3280300038"}, "type": "Feature"}
{"dataset_attributes": {"@spider": "usps_collection_boxes", "spider:collection_time": "2023-12-01T08:26:07.800476"}, "geometry": {"coordinates": [-81.376857195, 28.555146639], "type": "Point"}, "id": "WWKz5cusyehMw-YW8JEvub21Ycg=", "properties": {"@spider": "usps_collection_boxes", "addr:city": "ORLANDO", "addr:country": "US", "addr:full": "801 N MAGNOLIA AVE", "addr:postcode": "32803", "addr:state": "FL", "amenity": "post_box", "brand": "United States Postal Service", "brand:wikidata": "Q668687", "collection_times": "Mo-Sa 10:15", "name": "USPS COLLECTION BOX - BLUE BOX", "nsi_id": "unitedstatespostalservice-a77078", "operator": "United States Postal Service", "operator:short": "USPS", "operator:type": "public", "operator:wikidata": "Q668687", "ref": "3280300041"}, "type": "Feature"}
{"dataset_attributes": {"@spider": "usps_collection_boxes", "spider:collection_time": "2023-12-01T08:26:07.800476"}, "geometry": {"coordinates": [-81.348666958, 28.553095222], "type": "Point"}, "id": "csDeN2mqoPKWsoTN8SioR_WTYE4=", "properties": {"@spider": "usps_collection_boxes", "addr:city": "ORLANDO", "addr:country": "US", "addr:full": "2764 E COLONIAL DR", "addr:postcode": "32803", "addr:state": "FL", "amenity": "post_box", "brand": "United States Postal Service", "brand:wikidata": "Q668687", "collection_times": "Mo-Sa 15:10", "name": "USPS COLLECTION BOX - BLUE BOX", "note": "ON 12/24 AND 12/31, THIS BOX MAY BE COLLECTED AS EARLY AS 12 NOON.", "nsi_id": "unitedstatespostalservice-a77078", "operator": "United States Postal Service", "operator:short": "USPS", "operator:type": "public", "operator:wikidata": "Q668687", "ref": "3280300054"}, "type": "Feature"}
{"dataset_attributes": {"@spider": "usps_collection_boxes", "spider:collection_time": "2023-12-01T08:26:07.800476"}, "geometry": {"coordinates": [-81.3507554173, 28.553351761], "type": "Point"}, "id": "0ffsAxuZsmN1zve_ZGxEFiAKUec=", "properties": {"@spider": "usps_collection_boxes", "addr:city": "ORLANDO", "addr:country": "US", "addr:full": "2525 E COLONIAL DR", "addr:postcode": "32803", "addr:state": "FL", "amenity": "post_box", "brand": "United States Postal Service", "brand:wikidata": "Q668687", "collection_times": "Mo-Sa 11:45", "name": "USPS COLLECTION BOX - BLUE BOX", "nsi_id": "unitedstatespostalservice-a77078", "operator": "United States Postal Service", "operator:short": "USPS", "operator:type": "public", "operator:wikidata": "Q668687", "ref": "3280300057"}, "type": "Feature"}
{"dataset_attributes": {"@spider": "usps_collection_boxes", "spider:collection_time": "2023-12-01T08:26:07.800476"}, "geometry": {"coordinates": [-81.344872675, 28.55651353], "type": "Point"}, "id": "iTqOhnFXJ37ZKWmu1-8ozWEHXE4=", "properties": {"@spider": "usps_collection_boxes", "addr:city": "ORLANDO", "addr:country": "US", "addr:full": "800 WAREHOUSE RD", "addr:postcode": "32803", "addr:state": "FL", "amenity": "post_box", "brand": "United States Postal Service", "brand:wikidata": "Q668687", "collection_times": "Mo-Sa 15:40", "name": "USPS COLLECTION BOX - BLUE BOX", "note": "ON 12/24 AND 12/31, THIS BOX MAY BE COLLECTED AS EARLY AS 12 NOON.", "nsi_id": "unitedstatespostalservice-a77078", "operator": "United States Postal Service", "operator:short": "USPS", "operator:type": "public", "operator:wikidata": "Q668687", "ref": "3280300061"}, "type": "Feature"}
{"dataset_attributes": {"@spider": "usps_collection_boxes", "spider:collection_time": "2023-12-01T08:26:07.800476"}, "geometry": {"coordinates": [-81.3234749815, 28.5538250108], "type": "Point"}, "id": "OpkZV7dk-gD-X4_7gmGumai5vSs=", "properties": {"@spider": "usps_collection_boxes", "addr:city": "ORLANDO", "addr:country": "US", "addr:full": "5005 E COLONIAL DR", "addr:postcode": "32803", "addr:state": "FL", "amenity": "post_box", "brand": "United States Postal Service", "brand:wikidata": "Q668687", "collection_times": "Mo-Sa 15:00", "name": "USPS COLLECTION BOX - BLUE BOX", "note": "ON 12/24 AND 12/31, THIS BOX MAY BE COLLECTED AS EARLY AS 12 NOON.", "nsi_id": "unitedstatespostalservice-a77078", "operator": "United States Postal Service", "operator:short": "USPS", "operator:type": "public", "operator:wikidata": "Q668687", "ref": "3280300062"}, "type": "Feature"}
{"dataset_attributes": {"@spider": "usps_collection_boxes", "spider:collection_time": "2023-12-01T08:26:07.800476"}, "geometry": {"coordinates": [-81.344551165, 28.567822507], "type": "Point"}, "id": "HrS1IJI1pJ4vRHkT0Uv_7VAJhDY=", "properties": {"@spider": "usps_collection_boxes", "addr:city": "ORLANDO", "addr:country": "US", "addr:full": "3120 CORRINE DR", "addr:postcode": "32803", "addr:state": "FL", "amenity": "post_box", "brand": "United States Postal Service", "brand:wikidata": "Q668687", "collection_times": "Mo-Sa 14:30", "name": "USPS COLLECTION BOX - BLUE BOX", "note": "ON 12/24 AND 12/31, THIS BOX MAY BE COLLECTED AS EARLY AS 12 NOON.", "nsi_id": "unitedstatespostalservice-a77078", "operator": "United States Postal Service", "operator:short": "USPS", "operator:type": "public", "operator:wikidata": "Q668687", "ref": "3280300064"}, "type": "Feature"}
{"dataset_attributes": {"@spider": "usps_collection_boxes", "spider:collection_time": "2023-12-01T08:26:07.800476"}, "geometry": {"coordinates": [-81.344071298, 28.558431304], "type": "Point"}, "id": "AyFhRmNhinECD4Wi5TYIzrHemEo=", "properties": {"@spider": "usps_collection_boxes", "addr:city": "ORLANDO", "addr:country": "US", "addr:full": "1000 WOODCOCK RD", "addr:postcode": "32803", "addr:state": "FL", "amenity": "post_box", "brand": "United States Postal Service", "brand:wikidata": "Q668687", "collection_times": "Mo-Sa 15:30", "name": "USPS COLLECTION BOX - BLUE BOX", "note": "ON 12/24 AND 12/31, THIS BOX MAY BE COLLECTED AS EARLY AS 12 NOON.", "nsi_id": "unitedstatespostalservice-a77078", "operator": "United States Postal Service", "operator:short": "USPS", "operator:type": "public", "operator:wikidata": "Q668687", "ref": "3280300076"}, "type": "Feature"}
{"dataset_attributes": {"@spider": "usps_collection_boxes", "spider:collection_time": "2023-12-01T08:26:07.800476"}, "geometry": {"coordinates": [-81.343930649, 28.560189697], "type": "Point"}, "id": "ElkfubRKwny9-Zs_OPZIoayfMVQ=", "properties": {"@spider": "usps_collection_boxes", "addr:city": "ORLANDO", "addr:country": "US", "addr:full": "1080 WOODCOCK RD", "addr:postcode": "32803", "addr:state": "FL", "amenity": "post_box", "brand": "United States Postal Service", "brand:wikidata": "Q668687", "collection_times": "Mo-Sa 15:30", "name": "USPS COLLECTION BOX - BLUE BOX", "note": "ON 12/24 AND 12/31, THIS BOX MAY BE COLLECTED AS EARLY AS 12 NOON.", "nsi_id": "unitedstatespostalservice-a77078", "operator": "United States Postal Service", "operator:short": "USPS", "operator:type": "public", "operator:wikidata": "Q668687", "ref": "3280300077"}, "type": "Feature"}
{"dataset_attributes": {"@spider": "usps_collection_boxes", "spider:collection_time": "2023-12-01T08:26:07.800476"}, "geometry": {"coordinates": [-81.393540253, 28.604250702], "type": "Point"}, "id": "tgd8Lft639v3t0ssl87piq0mneE=", "properties": {"@spider": "usps_collection_boxes", "addr:city": "ORLANDO", "addr:country": "US", "addr:full": "5125 ADANSON ST", "addr:postcode": "32804", "addr:state": "FL", "amenity": "post_box", "brand": "United States Postal Service", "brand:wikidata": "Q668687", "collection_times": "Mo-Fr 12:15; Sa 12:00", "name": "USPS COLLECTION BOX - BLUE BOX", "note": "ON 12/24 AND 12/31, THIS BOX MAY BE COLLECTED AS EARLY AS 12 NOON.", "nsi_id": "unitedstatespostalservice-a77078", "operator": "United States Postal Service", "operator:short": "USPS", "operator:type": "public", "operator:wikidata": "Q668687", "ref": "3280400001"}, "type": "Feature"}
{"dataset_attributes": {"@spider": "usps_collection_boxes", "spider:collection_time": "2023-12-01T08:26:07.800476"}, "geometry": {"coordinates": [-81.373049759, 28.579311304], "type": "Point"}, "id": "xT8Rvn4MhFt3Bnuir-JN6Xm4BJY=", "properties": {"@spider": "usps_collection_boxes", "addr:city": "ORLANDO", "addr:country": "US", "addr:full": "3100 CLAY AVE", "addr:postcode": "32804", "addr:state": "FL", "amenity": "post_box", "brand": "United States Postal Service", "brand:wikidata": "Q668687", "collection_times": "Mo-Fr 15:00; Sa 14:00", "name": "USPS COLLECTION BOX - BLUE BOX", "note": "ON 12/24 AND 12/31, THIS BOX MAY BE COLLECTED AS EARLY AS 12 NOON.", "nsi_id": "unitedstatespostalservice-a77078", "operator": "United States Postal Service", "operator:short": "USPS", "operator:type": "public", "operator:wikidata": "Q668687", "ref": "3280400002"}, "type": "Feature"}
{"dataset_attributes": {"@spider": "usps_collection_boxes", "spider:collection_time": "2023-12-01T08:26:07.800476"}, "geometry": {"coordinates": [-81.387997926, 28.60304851], "type": "Point"}, "id": "XQ9XzNfbXJZ6XF_z44PCTODqCMY=", "properties": {"@spider": "usps_collection_boxes", "addr:city": "ORLANDO", "addr:country": "US", "addr:full": "602 COURTLAND ST", "addr:postcode": "32804", "addr:state": "FL", "amenity": "post_box", "brand": "United States Postal Service", "brand:wikidata": "Q668687", "collection_times": "Mo-Fr 12:15; Sa 12:00", "name": "USPS COLLECTION BOX - BLUE BOX", "note": "ON 12/24 AND 12/31, THIS BOX MAY BE COLLECTED AS EARLY AS 12 NOON.", "nsi_id": "unitedstatespostalservice-a77078", "operator": "United States Postal Service", "operator:short": "USPS", "operator:type": "public", "operator:wikidata": "Q668687", "ref": "3280400010"}, "type": "Feature"}
{"dataset_attributes": {"@spider": "usps_collection_boxes", "spider:collection_time": "2023-12-01T08:26:07.800476"}, "geometry": {"coordinates": [-81.38934982, 28.56264322], "type": "Point"}, "id": "o3xQjjbub38-I9qcmyuQM2E5Rjk=", "properties": {"@spider": "usps_collection_boxes", "addr:city": "ORLANDO", "addr:country": "US", "addr:full": "1216 EDGEWATER DR", "addr:postcode": "32804", "addr:state": "FL", "amenity": "post_box", "brand": "United States Postal Service", "brand:wikidata": "Q668687", "collection_times": "Mo-Fr 15:15; Sa 13:45", "name": "USPS COLLECTION BOX - BLUE BOX", "note": "ON 12/24 AND 12/31, THIS BOX MAY BE COLLECTED AS EARLY AS 12 NOON.", "nsi_id": "unitedstatespostalservice-a77078", "operator": "United States Postal Service", "operator:short": "USPS", "operator:type": "public", "operator:wikidata": "Q668687", "ref": "3280400014"}, "type": "Feature"}
{"dataset_attributes": {"@spider": "usps_collection_boxes", "spider:collection_time": "2023-12-01T08:26:07.800476"}, "geometry": {"coordinates": [-81.389339223, 28.566872528], "type": "Point"}, "id": "DP1f80Jkvtwn5QGumLdyYTTP7fk=", "properties": {"@spider": "usps_collection_boxes", "addr:city": "ORLANDO", "addr:country": "US", "addr:full": "1705 EDGEWATER DR", "addr:postcode": "32804", "addr:state": "FL", "amenity": "post_box", "brand": "United States Postal Service", "brand:wikidata": "Q668687", "collection_times": "Mo-Fr 17:00; Sa 15:15", "name": "USPS COLLECTION BOX - BLUE BOX", "note": "ON 12/24 AND 12/31, THIS BOX MAY BE COLLECTED AS EARLY AS 12 NOON.", "nsi_id": "unitedstatespostalservice-a77078", "operator": "United States Postal Service", "operator:short": "USPS", "operator:type": "public", "operator:wikidata": "Q668687", "ref": "3280400016"}, "type": "Feature"}
{"dataset_attributes": {"@spider": "usps_collection_boxes", "spider:collection_time": "2023-12-01T08:26:07.800476"}, "geometry": {"coordinates": [-81.389658296, 28.581183979], "type": "Point"}, "id": "UUBkRFvT2fn_VDK_os6uu0RCVio=", "properties": {"@spider": "usps_collection_boxes", "addr:city": "ORLANDO", "addr:country": "US", "addr:full": "3310 EDGEWATER DR", "addr:postcode": "32804", "addr:state": "FL", "amenity": "post_box", "brand": "United States Postal Service", "brand:wikidata": "Q668687", "collection_times": "Mo-Fr 15:15; Sa 13:45", "name": "USPS COLLECTION BOX - BLUE BOX", "note": "ON 12/24 AND 12/31, THIS BOX MAY BE COLLECTED AS EARLY AS 12 NOON.", "nsi_id": "unitedstatespostalservice-a77078", "operator": "United States Postal Service", "operator:short": "USPS", "operator:type": "public", "operator:wikidata": "Q668687", "ref": "3280400023"}, "type": "Feature"}
{"dataset_attributes": {"@spider": "usps_collection_boxes", "spider:collection_time": "2023-12-01T08:26:07.800476"}, "geometry": {"coordinates": [-81.397501452, 28.595751829], "type": "Point"}, "id": "AulKtqzXle5HCtHWXaXejWIEHcs=", "properties": {"@spider": "usps_collection_boxes", "addr:city": "ORLANDO", "addr:country": "US", "addr:full": "4353 EDGEWATER DR", "addr:postcode": "32804", "addr:state": "FL", "amenity": "post_box", "brand": "United States Postal Service", "brand:wikidata": "Q668687", "collection_times": "Mo-Fr 15:00; Sa 13:45", "name": "USPS COLLECTION BOX - BLUE BOX", "note": "ON 12/24 AND 12/31, THIS BOX MAY BE COLLECTED AS EARLY AS 12 NOON.", "nsi_id": "unitedstatespostalservice-a77078", "operator": "United States Postal Service", "operator:short": "USPS", "operator:type": "public", "operator:wikidata": "Q668687", "ref": "3280400024"}, "type": "Feature"}
{"dataset_attributes": {"@spider": "usps_collection_boxes", "spider:collection_time": "2023-12-01T08:26:07.800476"}, "geometry": {"coordinates": [-81.3743391322, 28.5741120055], "type": "Point"}, "id": "Kq_9dB0O5a0ulMTAxQpEoi5yl3Y=", "properties": {"@spider": "usps_collection_boxes", "addr:city": "ORLANDO", "addr:country": "US", "addr:full": "265 E ROLLINS ST", "addr:postcode": "32804", "addr:state": "FL", "amenity": "post_box", "brand": "United States Postal Service", "brand:wikidata": "Q668687", "collection_times": "Mo-Sa 12:00", "name": "USPS COLLECTION BOX - BLUE BOX", "nsi_id": "unitedstatespostalservice-a77078", "operator": "United States Postal Service", "operator:short": "USPS", "operator:type": "public", "operator:wikidata": "Q668687", "ref": "3280400031"}, "type": "Feature"}
{"dataset_attributes": {"@spider": "usps_collection_boxes", "spider:collection_time": "2023-12-01T08:26:07.800476"}, "geometry": {"coordinates": [-81.372877708, 28.574862999], "type": "Point"}, "id": "2xwxeV0eNSWI-8dSvy8uC_6OgrY=", "properties": {"@spider": "usps_collection_boxes", "addr:city": "ORLANDO", "addr:country": "US", "addr:full": "2501 N ORANGE AVE", "addr:postcode": "32804", "addr:state": "FL", "amenity": "post_box", "brand": "United States Postal Service", "brand:wikidata": "Q668687", "collection_times": "Mo-Sa 13:00", "name": "USPS COLLECTION BOX - BLUE BOX", "note": "ON 12/24 AND 12/31, THIS BOX MAY BE COLLECTED AS EARLY AS 12 NOON.", "nsi_id": "unitedstatespostalservice-a77078", "operator": "United States Postal Service", "operator:short": "USPS", "operator:type": "public", "operator:wikidata": "Q668687", "ref": "3280400032"}, "type": "Feature"}
{"dataset_attributes": {"@spider": "usps_collection_boxes", "spider:collection_time": "2023-12-01T08:26:07.800476"}, "geometry": {"coordinates": [-81.389339223, 28.566872528], "type": "Point"}, "id": "21-U8HFOzfcq1WviJP-jkOvwedk=", "properties": {"@spider": "usps_collection_boxes", "addr:city": "ORLANDO", "addr:country": "US", "addr:full": "1705 EDGEWATER DR", "addr:postcode": "32804", "addr:state": "FL", "amenity": "post_box", "brand": "United States Postal Service", "brand:wikidata": "Q668687", "collection_times": "Mo-Fr 17:00; Sa 15:15", "name": "USPS COLLECTION BOX - PO LOBBY", "note": "ON 12/24 AND 12/31, THIS BOX MAY BE COLLECTED AS EARLY AS 12 NOON.", "nsi_id": "unitedstatespostalservice-a77078", "operator": "United States Postal Service", "operator:short": "USPS", "operator:type": "public", "operator:wikidata": "Q668687", "ref": "3280400049"}, "type": "Feature"}
{"dataset_attributes": {"@spider": "usps_collection_boxes", "spider:collection_time": "2023-12-01T08:26:07.800476"}, "geometry": {"coordinates": [-81.389509312, 28.573812], "type": "Point"}, "id": "GwMYCvK1LAdOeQ39yoWDtStZ1OI=", "properties": {"@spider": "usps_collection_boxes", "addr:city": "ORLANDO", "addr:country": "US", "addr:full": "2424 EDGEWATER DR", "addr:postcode": "32804", "addr:state": "FL", "amenity": "post_box", "brand": "United States Postal Service", "brand:wikidata": "Q668687", "collection_times": "Mo-Fr 15:15; Sa 13:45", "name": "USPS COLLECTION BOX - BLUE BOX", "note": "ON 12/24 AND 12/31, THIS BOX MAY BE COLLECTED AS EARLY AS 12 NOON.", "nsi_id": "unitedstatespostalservice-a77078", "operator": "United States Postal Service", "operator:short": "USPS", "operator:type": "public", "operator:wikidata": "Q668687", "ref": "3280400050"}, "type": "Feature"}
{"dataset_attributes": {"@spider": "usps_collection_boxes", "spider:collection_time": "2023-12-01T08:26:07.800476"}, "geometry": {"coordinates": [-81.389339223, 28.566872528], "type": "Point"}, "id": "DKLRzau5duYL6n65P0IqLIN2jjc=", "properties": {"@spider": "usps_collection_boxes", "addr:city": "ORLANDO", "addr:country": "US", "addr:full": "1705 EDGEWATER DR", "addr:postcode": "32804", "addr:state": "FL", "amenity": "post_box", "brand": "United States Postal Service", "brand:wikidata": "Q668687", "collection_times": "Mo-Fr 17:00; Sa 15:15", "name": "USPS COLLECTION BOX - APC", "note": "ON 12/24 AND 12/31, THIS BOX MAY BE COLLECTED AS EARLY AS 12 NOON.", "nsi_id": "unitedstatespostalservice-a77078", "operator": "United States Postal Service", "operator:short": "USPS", "operator:type": "public", "operator:wikidata": "Q668687", "ref": "3280400051"}, "type": "Feature"}
{"dataset_attributes": {"@spider": "usps_collection_boxes", "spider:collection_time": "2023-12-01T08:26:07.800476"}, "geometry": {"coordinates": [-81.389339223, 28.566872528], "type": "Point"}, "id": "MPvQf8XPEMKahi6D7XlXGL2neyw=", "properties": {"@spider": "usps_collection_boxes", "addr:city": "ORLANDO", "addr:country": "US", "addr:full": "1705 EDGEWATER DR", "addr:postcode": "32804", "addr:state": "FL", "amenity": "post_box", "brand": "United States Postal Service", "brand:wikidata": "Q668687", "collection_times": "Mo-Fr 17:00; Sa 15:15", "name": "USPS COLLECTION BOX - PO LOBBY", "note": "ON 12/24 AND 12/31, THIS BOX MAY BE COLLECTED AS EARLY AS 12 NOON.", "nsi_id": "unitedstatespostalservice-a77078", "operator": "United States Postal Service", "operator:short": "USPS", "operator:type": "public", "operator:wikidata": "Q668687", "ref": "3280400052"}, "type": "Feature"}
{"dataset_attributes": {"@spider": "usps_collection_boxes", "spider:collection_time": "2023-12-01T08:26:07.800476"}, "geometry": {"coordinates": [-81.389339223, 28.566872528], "type": "Point"}, "id": "5g2Bm6zebBLkIGUWYHSYfYAyanw=", "properties": {"@spider": "usps_collection_boxes", "addr:city": "ORLANDO", "addr:country": "US", "addr:full": "1705 EDGEWATER DR", "addr:postcode": "32804", "addr:state": "FL", "amenity": "post_box", "brand": "United States Postal Service", "brand:wikidata": "Q668687", "collection_times": "Mo-Fr 17:00; Sa 12:00", "name": "USPS COLLECTION BOX - PO LOBBY", "note": "ON 12/24 AND 12/31, THIS BOX MAY BE COLLECTED AS EARLY AS 12 NOON.", "nsi_id": "unitedstatespostalservice-a77078", "operator": "United States Postal Service", "operator:short": "USPS", "operator:type": "public", "operator:wikidata": "Q668687", "ref": "3280400057"}, "type": "Feature"}
{"dataset_attributes": {"@spider": "usps_collection_boxes", "spider:collection_time": "2023-12-01T08:26:07.800476"}, "geometry": {"coordinates": [-81.397231291, 28.536840304], "type": "Point"}, "id": "ZrgNOdca45_vbEd5xCeBSlI8Iok=", "properties": {"@spider": "usps_collection_boxes", "addr:city": "ORLANDO", "addr:country": "US", "addr:full": "440 S ORANGE BLOSSOM TRL", "addr:postcode": "32805", "addr:state": "FL", "amenity": "post_box", "brand": "United States Postal Service", "brand:wikidata": "Q668687", "collection_times": "Mo-Fr 17:00; Sa 15:45", "name": "USPS COLLECTION BOX - BLUE BOX", "note": "ON 12/24 AND 12/31, THIS BOX MAY BE COLLECTED AS EARLY AS 12 NOON.", "nsi_id": "unitedstatespostalservice-a77078", "operator": "United States Postal Service", "operator:short": "USPS", "operator:type": "public", "operator:wikidata": "Q668687", "ref": "3280500019"}, "type": "Feature"}
{"dataset_attributes": {"@spider": "usps_collection_boxes", "spider:collection_time": "2023-12-01T08:26:07.800476"}, "geometry": {"coordinates": [-81.397231291, 28.536840304], "type": "Point"}, "id": "VXsFz-jAJucaNFD7P05wl3jLWrc=", "properties": {"@spider": "usps_collection_boxes", "addr:city": "ORLANDO", "addr:country": "US", "addr:full": "440 S ORANGE BLOSSOM TRL", "addr:postcode": "32805", "addr:state": "FL", "amenity": "post_box", "brand": "United States Postal Service", "brand:wikidata": "Q668687", "collection_times": "Mo-Fr 17:00", "name": "USPS COLLECTION BOX - PO LOBBY", "note": "ON 12/24 AND 12/31, THIS BOX MAY BE COLLECTED AS EARLY AS 12 NOON.", "nsi_id": "unitedstatespostalservice-a77078", "operator": "United States Postal Service", "operator:short": "USPS", "operator:type": "public", "operator:wikidata": "Q668687", "ref": "3280500026"}, "type": "Feature"}
{"dataset_attributes": {"@spider": "usps_collection_boxes", "spider:collection_time": "2023-12-01T08:26:07.800476"}, "geometry": {"coordinates": [-81.397231291, 28.536840304], "type": "Point"}, "id": "-gQIBVd_6TQP6_bWTYTJAhxWHMU=", "properties": {"@spider": "usps_collection_boxes", "addr:city": "ORLANDO", "addr:country": "US", "addr:full": "440 S ORANGE BLOSSOM TRL", "addr:postcode": "32805", "addr:state": "FL", "amenity": "post_box", "brand": "United States Postal Service", "brand:wikidata": "Q668687", "collection_times": "Mo-Fr 17:00", "name": "USPS COLLECTION BOX - PO LOBBY", "note": "ON 12/24 AND 12/31, THIS BOX MAY BE COLLECTED AS EARLY AS 12 NOON.", "nsi_id": "unitedstatespostalservice-a77078", "operator": "United States Postal Service", "operator:short": "USPS", "operator:type": "public", "operator:wikidata": "Q668687", "ref": "3280500027"}, "type": "Feature"}
{"dataset_attributes": {"@spider": "usps_collection_boxes", "spider:collection_time": "2023-12-01T08:26:07.800476"}, "geometry": {"coordinates": [-81.380108064, 28.531116509], "type": "Point"}, "id": "E-TBjC9KRd2JQLWoj5AS2uYap8g=", "properties": {"@spider": "usps_collection_boxes", "addr:city": "ORLANDO", "addr:country": "US", "addr:full": "100 W GORE ST", "addr:postcode": "32806", "addr:state": "FL", "amenity": "post_box", "brand": "United States Postal Service", "brand:wikidata": "Q668687", "collection_times": "Mo-Fr 14:30", "name": "USPS COLLECTION BOX - BLUE BOX", "note": "ON 12/24 AND 12/31, THIS BOX MAY BE COLLECTED AS EARLY AS 12 NOON.", "nsi_id": "unitedstatespostalservice-a77078", "operator": "United States Postal Service", "operator:short": "USPS", "operator:type": "public", "operator:wikidata": "Q668687", "ref": "3280600002"}, "type": "Feature"}
{"dataset_attributes": {"@spider": "usps_collection_boxes", "spider:collection_time": "2023-12-01T08:26:07.800476"}, "geometry": {"coordinates": [-81.372221303, 28.511026973], "type": "Point"}, "id": "gip0henBawMCFif69qnMeaaqmkk=", "properties": {"@spider": "usps_collection_boxes", "addr:city": "ORLANDO", "addr:country": "US", "addr:full": "2860 DELANEY AVE", "addr:postcode": "32806", "addr:state": "FL", "amenity": "post_box", "brand": "United States Postal Service", "brand:wikidata": "Q668687", "collection_times": "Mo-Fr 17:00; Sa 15:00", "name": "USPS COLLECTION BOX - PO LOBBY", "note": "ON 12/24 AND 12/31, THIS BOX MAY BE COLLECTED AS EARLY AS 12 NOON.", "nsi_id": "unitedstatespostalservice-a77078", "operator": "United States Postal Service", "operator:short": "USPS", "operator:type": "public", "operator:wikidata": "Q668687", "ref": "3280600020"}, "type": "Feature"}
{"dataset_attributes": {"@spider": "usps_collection_boxes", "spider:collection_time": "2023-12-01T08:26:07.800476"}, "geometry": {"coordinates": [-81.372221303, 28.511026973], "type": "Point"}, "id": "qrVcVUiJdvqJwU6DL6tPDUGYceQ=", "properties": {"@spider": "usps_collection_boxes", "addr:city": "ORLANDO", "addr:country": "US", "addr:full": "2860 DELANEY AVE", "addr:postcode": "32806", "addr:state": "FL", "amenity": "post_box", "brand": "United States Postal Service", "brand:wikidata": "Q668687", "collection_times": "Mo-Fr 17:00; Sa 15:00", "name": "USPS COLLECTION BOX - BLUE BOX", "note": "ON 12/24 AND 12/31, THIS BOX MAY BE COLLECTED AS EARLY AS 12 NOON.", "nsi_id": "unitedstatespostalservice-a77078", "operator": "United States Postal Service", "operator:short": "USPS", "operator:type": "public", "operator:wikidata": "Q668687", "ref": "3280600021"}, "type": "Feature"}
{"dataset_attributes": {"@spider": "usps_collection_boxes", "spider:collection_time": "2023-12-01T08:26:07.800476"}, "geometry": {"coordinates": [-81.342569415, 28.524209443], "type": "Point"}, "id": "rt6CRxT2jUodR3crGJq64ihVJyY=", "properties": {"@spider": "usps_collection_boxes", "addr:city": "ORLANDO", "addr:country": "US", "addr:full": "3219 CURRY FORD RD", "addr:postcode": "32806", "addr:state": "FL", "amenity": "post_box", "brand": "United States Postal Service", "brand:wikidata": "Q668687", "collection_times": "Mo-Fr 14:30; Sa 13:00", "name": "USPS COLLECTION BOX - BLUE BOX", "note": "ON 12/24 AND 12/31, THIS BOX MAY BE COLLECTED AS EARLY AS 12 NOON.", "nsi_id": "unitedstatespostalservice-a77078", "operator": "United States Postal Service", "operator:short": "USPS", "operator:type": "public", "operator:wikidata": "Q668687", "ref": "3280600022"}, "type": "Feature"}
{"dataset_attributes": {"@spider": "usps_collection_boxes", "spider:collection_time": "2023-12-01T08:26:07.800476"}, "geometry": {"coordinates": [-81.372221303, 28.511026973], "type": "Point"}, "id": "vHKOQf08IOOrgxJjObripeVtGv8=", "properties": {"@spider": "usps_collection_boxes", "addr:city": "ORLANDO", "addr:country": "US", "addr:full": "2860 DELANEY AVE", "addr:postcode": "32806", "addr:state": "FL", "amenity": "post_box", "brand": "United States Postal Service", "brand:wikidata": "Q668687", "collection_times": "Mo-Fr 17:00; Sa 15:00", "name": "USPS COLLECTION BOX - APC", "note": "ON 12/24 AND 12/31, THIS BOX MAY BE COLLECTED AS EARLY AS 12 NOON.", "nsi_id": "unitedstatespostalservice-a77078", "operator": "United States Postal Service", "operator:short": "USPS", "operator:type": "public", "operator:wikidata": "Q668687", "ref": "3280600040"}, "type": "Feature"}
{"dataset_attributes": {"@spider": "usps_collection_boxes", "spider:collection_time": "2023-12-01T08:26:07.800476"}, "geometry": {"coordinates": [-81.372221303, 28.511026973], "type": "Point"}, "id": "r5kw7y_dI6nnSTokYntJ65OSQYw=", "properties": {"@spider": "usps_collection_boxes", "addr:city": "ORLANDO", "addr:country": "US", "addr:full": "2860 DELANEY AVE", "addr:postcode": "32806", "addr:state": "FL", "amenity": "post_box", "brand": "United States Postal Service", "brand:wikidata": "Q668687", "collection_times": "Mo-Fr 17:00; Sa 15:00", "name": "USPS COLLECTION BOX - PO LOBBY", "note": "ON 12/24 AND 12/31, THIS BOX MAY BE COLLECTED AS EARLY AS 12 NOON.", "nsi_id": "unitedstatespostalservice-a77078", "operator": "United States Postal Service", "operator:short": "USPS", "operator:type": "public", "operator:wikidata": "Q668687", "ref": "3280600044"}, "type": "Feature"}
{"dataset_attributes": {"@spider": "usps_collection_boxes", "spider:collection_time": "2023-12-01T08:26:07.800476"}, "geometry": {"coordinates": [-81.372221303, 28.511026973], "type": "Point"}, "id": "gjgVoGBg8tCiTrDkTHy5yrkdwIw=", "properties": {"@spider": "usps_collection_boxes", "addr:city": "ORLANDO", "addr:country": "US", "addr:full": "2860 DELANEY AVE", "addr:postcode": "32806", "addr:state": "FL", "amenity": "post_box", "brand": "United States Postal Service", "brand:wikidata": "Q668687", "collection_times": "Mo-Fr 17:00; Sa 12:00", "name": "USPS COLLECTION BOX - PO LOBBY", "note": "ON 12/24 AND 12/31, THIS BOX MAY BE COLLECTED AS EARLY AS 12 NOON.", "nsi_id": "unitedstatespostalservice-a77078", "operator": "United States Postal Service", "operator:short": "USPS", "operator:type": "public", "operator:wikidata": "Q668687", "ref": "3280600051"}, "type": "Feature"}
{"dataset_attributes": {"@spider": "usps_collection_boxes", "spider:collection_time": "2023-12-01T08:26:07.800476"}, "geometry": {"coordinates": [-81.310556705, 28.54827], "type": "Point"}, "id": "eefdMympJ4ya1T9ILhORrWOZulI=", "properties": {"@spider": "usps_collection_boxes", "addr:city": "ORLANDO", "addr:country": "US", "addr:full": "501 N SEMORAN BLVD", "addr:postcode": "32807", "addr:state": "FL", "amenity": "post_box", "brand": "United States Postal Service", "brand:wikidata": "Q668687", "collection_times": "Mo-Fr 17:00; Sa 15:00", "name": "USPS COLLECTION BOX - BLUE BOX", "note": "ON 12/24 AND 12/31, THIS BOX MAY BE COLLECTED AS EARLY AS 12 NOON.", "nsi_id": "unitedstatespostalservice-a77078", "operator": "United States Postal Service", "operator:short": "USPS", "operator:type": "public", "operator:wikidata": "Q668687", "ref": "3280700001"}, "type": "Feature"}
{"dataset_attributes": {"@spider": "usps_collection_boxes", "spider:collection_time": "2023-12-01T08:26:07.800476"}, "geometry": {"coordinates": [-81.310556705, 28.54827], "type": "Point"}, "id": "CN26SPgsKpYSEnpqWwnpPj3iS0I=", "properties": {"@spider": "usps_collection_boxes", "addr:city": "ORLANDO", "addr:country": "US", "addr:full": "501 N SEMORAN BLVD", "addr:postcode": "32807", "addr:state": "FL", "amenity": "post_box", "brand": "United States Postal Service", "brand:wikidata": "Q668687", "collection_times": "Mo-Fr 17:00; Sa 15:00", "name": "USPS COLLECTION BOX - BLUE BOX", "note": "ON 12/24 AND 12/31, THIS BOX MAY BE COLLECTED AS EARLY AS 12 NOON.", "nsi_id": "unitedstatespostalservice-a77078", "operator": "United States Postal Service", "operator:short": "USPS", "operator:type": "public", "operator:wikidata": "Q668687", "ref": "3280700002"}, "type": "Feature"}
{"dataset_attributes": {"@spider": "usps_collection_boxes", "spider:collection_time": "2023-12-01T08:26:07.800476"}, "geometry": {"coordinates": [-81.310769245, 28.564947], "type": "Point"}, "id": "Y-W7YXwvk8-VQhXrEDnPn7LOx8k=", "properties": {"@spider": "usps_collection_boxes", "addr:city": "ORLANDO", "addr:country": "US", "addr:full": "1417 N SEMORAN BLVD", "addr:postcode": "32807", "addr:state": "FL", "amenity": "post_box", "brand": "United States Postal Service", "brand:wikidata": "Q668687", "collection_times": "Mo-Sa 11:00", "name": "USPS COLLECTION BOX - BLUE BOX", "nsi_id": "unitedstatespostalservice-a77078", "operator": "United States Postal Service", "operator:short": "USPS", "operator:type": "public", "operator:wikidata": "Q668687", "ref": "3280700010"}, "type": "Feature"}
{"dataset_attributes": {"@spider": "usps_collection_boxes", "spider:collection_time": "2023-12-01T08:26:07.800476"}, "geometry": {"coordinates": [-81.310922759, 28.564208497], "type": "Point"}, "id": "lO_kg4Jhf9CdaB-SCxrkgkjEKnk=", "properties": {"@spider": "usps_collection_boxes", "addr:city": "ORLANDO", "addr:country": "US", "addr:full": "1320 N SEMORAN BLVD", "addr:postcode": "32807", "addr:state": "FL", "amenity": "post_box", "brand": "United States Postal Service", "brand:wikidata": "Q668687", "collection_times": "Mo-Sa 15:15", "name": "USPS COLLECTION BOX - BLUE BOX", "note": "ON 12/24 AND 12/31, THIS BOX MAY BE COLLECTED AS EARLY AS 12 NOON.", "nsi_id": "unitedstatespostalservice-a77078", "operator": "United States Postal Service", "operator:short": "USPS", "operator:type": "public", "operator:wikidata": "Q668687", "ref": "3280700011"}, "type": "Feature"}
{"dataset_attributes": {"@spider": "usps_collection_boxes", "spider:collection_time": "2023-12-01T08:26:07.800476"}, "geometry": {"coordinates": [-81.310552763, 28.528524], "type": "Point"}, "id": "_1pLPtoRKSPbUM3DFIu7gRwXSSk=", "properties": {"@spider": "usps_collection_boxes", "addr:city": "ORLANDO", "addr:country": "US", "addr:full": "1130 S SEMORAN BLVD", "addr:postcode": "32807", "addr:state": "FL", "amenity": "post_box", "brand": "United States Postal Service", "brand:wikidata": "Q668687", "collection_times": "Mo-Sa 13:00", "name": "USPS COLLECTION BOX - BLUE BOX", "note": "ON 12/24 AND 12/31, THIS BOX MAY BE COLLECTED AS EARLY AS 12 NOON.", "nsi_id": "unitedstatespostalservice-a77078", "operator": "United States Postal Service", "operator:short": "USPS", "operator:type": "public", "operator:wikidata": "Q668687", "ref": "3280700018"}, "type": "Feature"}
{"dataset_attributes": {"@spider": "usps_collection_boxes", "spider:collection_time": "2023-12-01T08:26:07.800476"}, "geometry": {"coordinates": [-81.310839212, 28.563046722], "type": "Point"}, "id": "7YeTlLCQkPJSNlWdqOM-IAYeCvc=", "properties": {"@spider": "usps_collection_boxes", "addr:city": "ORLANDO", "addr:country": "US", "addr:full": "1277 N SEMORAN BLVD", "addr:postcode": "32807", "addr:state": "FL", "amenity": "post_box", "brand": "United States Postal Service", "brand:wikidata": "Q668687", "collection_times": "Mo-Sa 15:00", "name": "USPS COLLECTION BOX - BLUE BOX", "note": "ON 12/24 AND 12/31, THIS BOX MAY BE COLLECTED AS EARLY AS 12 NOON.", "nsi_id": "unitedstatespostalservice-a77078", "operator": "United States Postal Service", "operator:short": "USPS", "operator:type": "public", "operator:wikidata": "Q668687", "ref": "3280700020"}, "type": "Feature"}
{"dataset_attributes": {"@spider": "usps_collection_boxes", "spider:collection_time": "2023-12-01T08:26:07.800476"}, "geometry": {"coordinates": [-81.310556705, 28.54827], "type": "Point"}, "id": "MXDo6RpWW5ioKeAjXEJM-NwTg1s=", "properties": {"@spider": "usps_collection_boxes", "addr:city": "ORLANDO", "addr:country": "US", "addr:full": "501 N SEMORAN BLVD", "addr:postcode": "32807", "addr:state": "FL", "amenity": "post_box", "brand": "United States Postal Service", "brand:wikidata": "Q668687", "collection_times": "Mo-Fr 17:00; Sa 12:00", "name": "USPS COLLECTION BOX - PO LOBBY", "note": "ON 12/24 AND 12/31, THIS BOX MAY BE COLLECTED AS EARLY AS 12 NOON.", "nsi_id": "unitedstatespostalservice-a77078", "operator": "United States Postal Service", "operator:short": "USPS", "operator:type": "public", "operator:wikidata": "Q668687", "ref": "3280700028"}, "type": "Feature"}
{"dataset_attributes": {"@spider": "usps_collection_boxes", "spider:collection_time": "2023-12-01T08:26:07.800476"}, "geometry": {"coordinates": [-81.295608945, 28.579080475], "type": "Point"}, "id": "9X2CfTTd0Pk6_00-MdXd-YMQRi8=", "properties": {"@spider": "usps_collection_boxes", "addr:city": "ORLANDO", "addr:country": "US", "addr:full": "6955 HANGING MOSS RD", "addr:postcode": "32807", "addr:state": "FL", "amenity": "post_box", "brand": "United States Postal Service", "brand:wikidata": "Q668687", "collection_times": "Mo-Fr 12:00", "name": "USPS COLLECTION BOX - BLUE BOX", "nsi_id": "unitedstatespostalservice-a77078", "operator": "United States Postal Service", "operator:short": "USPS", "operator:type": "public", "operator:wikidata": "Q668687", "ref": "3280700030"}, "type": "Feature"}
{"dataset_attributes": {"@spider": "usps_collection_boxes", "spider:collection_time": "2023-12-01T08:26:07.800476"}, "geometry": {"coordinates": [-81.310742377, 28.542624822], "type": "Point"}, "id": "_Oxy4wtW9TgpTsbmjrVY5oMVK7g=", "properties": {"@spider": "usps_collection_boxes", "addr:city": "ORLANDO", "addr:country": "US", "addr:full": "142 S SEMORAN BLVD", "addr:postcode": "32807", "addr:state": "FL", "amenity": "post_box", "brand": "United States Postal Service", "brand:wikidata": "Q668687", "collection_times": "Mo-Fr 15:30; Sa 15:00", "name": "USPS COLLECTION BOX - BLUE BOX", "note": "ON 12/24 AND 12/31, THIS BOX MAY BE COLLECTED AS EARLY AS 12 NOON.", "nsi_id": "unitedstatespostalservice-a77078", "operator": "United States Postal Service", "operator:short": "USPS", "operator:type": "public", "operator:wikidata": "Q668687", "ref": "3280700031"}, "type": "Feature"}
{"dataset_attributes": {"@spider": "usps_collection_boxes", "spider:collection_time": "2023-12-01T08:26:07.800476"}, "geometry": {"coordinates": [-81.310556705, 28.54827], "type": "Point"}, "id": "FNCsRoUVci78uNPbHPmiZ02493Q=", "properties": {"@spider": "usps_collection_boxes", "addr:city": "ORLANDO", "addr:country": "US", "addr:full": "501 N SEMORAN BLVD", "addr:postcode": "32807", "addr:state": "FL", "amenity": "post_box", "brand": "United States Postal Service", "brand:wikidata": "Q668687", "collection_times": "Mo-Fr 17:00; Sa 12:00", "name": "USPS COLLECTION BOX - PO LOBBY", "note": "ON 12/24 AND 12/31, THIS BOX MAY BE COLLECTED AS EARLY AS 12 NOON.", "nsi_id": "unitedstatespostalservice-a77078", "operator": "United States Postal Service", "operator:short": "USPS", "operator:type": "public", "operator:wikidata": "Q668687", "ref": "3280700034"}, "type": "Feature"}
{"dataset_attributes": {"@spider": "usps_collection_boxes", "spider:collection_time": "2023-12-01T08:26:07.800476"}, "geometry": {"coordinates": [-81.450909, 28.596378454], "type": "Point"}, "id": "_DYRrHUqZffyg-YyzQFMqsdHyjU=", "properties": {"@spider": "usps_collection_boxes", "addr:city": "ORLANDO", "addr:country": "US", "addr:full": "5185 NORTH LN", "addr:postcode": "32808", "addr:state": "FL", "amenity": "post_box", "brand": "United States Postal Service", "brand:wikidata": "Q668687", "collection_times": "Mo-Fr 15:30; Sa 14:45", "name": "USPS COLLECTION BOX - BLUE BOX", "note": "ON 12/24 AND 12/31, THIS BOX MAY BE COLLECTED AS EARLY AS 12 NOON.", "nsi_id": "unitedstatespostalservice-a77078", "operator": "United States Postal Service", "operator:short": "USPS", "operator:type": "public", "operator:wikidata": "Q668687", "ref": "3280800005"}, "type": "Feature"}
{"dataset_attributes": {"@spider": "usps_collection_boxes", "spider:collection_time": "2023-12-01T08:26:07.800476"}, "geometry": {"coordinates": [-81.449303177, 28.554469841], "type": "Point"}, "id": "inQLTIaQDoUCPZsHx8c4LHBBcYw=", "properties": {"@spider": "usps_collection_boxes", "addr:city": "ORLANDO", "addr:country": "US", "addr:full": "811 DEAUVILLE DR", "addr:postcode": "32808", "addr:state": "FL", "amenity": "post_box", "brand": "United States Postal Service", "brand:wikidata": "Q668687", "collection_times": "Mo-Fr 17:00; Sa 14:00", "name": "USPS COLLECTION BOX - BLUE BOX", "note": "ON 12/24 AND 12/31, THIS BOX MAY BE COLLECTED AS EARLY AS 12 NOON.", "nsi_id": "unitedstatespostalservice-a77078", "operator": "United States Postal Service", "operator:short": "USPS", "operator:type": "public", "operator:wikidata": "Q668687", "ref": "3280800010"}, "type": "Feature"}
{"dataset_attributes": {"@spider": "usps_collection_boxes", "spider:collection_time": "2023-12-01T08:26:07.800476"}, "geometry": {"coordinates": [-81.488122303, 28.552107529], "type": "Point"}, "id": "t_tHGMUDkdl4SHU0hWffYg36peI=", "properties": {"@spider": "usps_collection_boxes", "addr:city": "ORLANDO", "addr:country": "US", "addr:full": "7649 W COLONIAL DR", "addr:postcode": "32808", "addr:state": "FL", "amenity": "post_box", "brand": "United States Postal Service", "brand:wikidata": "Q668687", "collection_times": "Mo-Fr 16:00; Sa 14:45", "name": "USPS COLLECTION BOX - BLUE BOX", "note": "ON 12/24 AND 12/31, THIS BOX MAY BE COLLECTED AS EARLY AS 12 NOON.", "nsi_id": "unitedstatespostalservice-a77078", "operator": "United States Postal Service", "operator:short": "USPS", "operator:type": "public", "operator:wikidata": "Q668687", "ref": "3280800016"}, "type": "Feature"}
{"dataset_attributes": {"@spider": "usps_collection_boxes", "spider:collection_time": "2023-12-01T08:26:07.800476"}, "geometry": {"coordinates": [-81.451571064, 28.578457484], "type": "Point"}, "id": "02TCVReAmZQ_gelZVESrmwU42VA=", "properties": {"@spider": "usps_collection_boxes", "addr:city": "ORLANDO", "addr:country": "US", "addr:full": "2702 N PINE HILLS RD", "addr:postcode": "32808", "addr:state": "FL", "amenity": "post_box", "brand": "United States Postal Service", "brand:wikidata": "Q668687", "collection_times": "Mo-Fr 15:30; Sa 14:45", "name": "USPS COLLECTION BOX - BLUE BOX", "note": "ON 12/24 AND 12/31, THIS BOX MAY BE COLLECTED AS EARLY AS 12 NOON.", "nsi_id": "unitedstatespostalservice-a77078", "operator": "United States Postal Service", "operator:short": "USPS", "operator:type": "public", "operator:wikidata": "Q668687", "ref": "3280800032"}, "type": "Feature"}
{"dataset_attributes": {"@spider": "usps_collection_boxes", "spider:collection_time": "2023-12-01T08:26:07.800476"}, "geometry": {"coordinates": [-81.400700241, 28.470977361], "type": "Point"}, "id": "5MFzBvsT5tNQ7VkL2QiOqVHj2W8=", "properties": {"@spider": "usps_collection_boxes", "addr:city": "ORLANDO", "addr:country": "US", "addr:full": "6021 S RIO GRANDE AVE", "addr:postcode": "32809", "addr:state": "FL", "amenity": "post_box", "brand": "United States Postal Service", "brand:wikidata": "Q668687", "collection_times": "Mo-Sa 10:00", "name": "USPS COLLECTION BOX - BLUE BOX", "nsi_id": "unitedstatespostalservice-a77078", "operator": "United States Postal Service", "operator:short": "USPS", "operator:type": "public", "operator:wikidata": "Q668687", "ref": "3280900006"}, "type": "Feature"}
{"dataset_attributes": {"@spider": "usps_collection_boxes", "spider:collection_time": "2023-12-01T08:26:07.800476"}, "geometry": {"coordinates": [-81.4106460202, 28.4709989831], "type": "Point"}, "id": "079-kF2CChdQUhWOfC__XEgMF8k=", "properties": {"@spider": "usps_collection_boxes", "addr:city": "ORLANDO", "addr:country": "US", "addr:full": "2370 W OAK RIDGE RD", "addr:postcode": "32809", "addr:state": "FL", "amenity": "post_box", "brand": "United States Postal Service", "brand:wikidata": "Q668687", "collection_times": "Mo-Sa 12:00", "name": "USPS COLLECTION BOX - BLUE BOX", "nsi_id": "unitedstatespostalservice-a77078", "operator": "United States Postal Service", "operator:short": "USPS", "operator:type": "public", "operator:wikidata": "Q668687", "ref": "3280900010"}, "type": "Feature"}
{"dataset_attributes": {"@spider": "usps_collection_boxes", "spider:collection_time": "2023-12-01T08:26:07.800476"}, "geometry": {"coordinates": [-81.364920725, 28.455846411], "type": "Point"}, "id": "yEfFPIqSzu9_IrO51dax7Ss-T1M=", "properties": {"@spider": "usps_collection_boxes", "addr:city": "ORLANDO", "addr:country": "US", "addr:full": "7707 S ORANGE AVE", "addr:postcode": "32809", "addr:state": "FL", "amenity": "post_box", "brand": "United States Postal Service", "brand:wikidata": "Q668687", "collection_times": "Mo-Fr 17:00; Sa 14:00", "name": "USPS COLLECTION BOX - BLUE BOX", "note": "ON 12/24 AND 12/31, THIS BOX MAY BE COLLECTED AS EARLY AS 12 NOON.", "nsi_id": "unitedstatespostalservice-a77078", "operator": "United States Postal Service", "operator:short": "USPS", "operator:type": "public", "operator:wikidata": "Q668687", "ref": "3280900012"}, "type": "Feature"}
{"dataset_attributes": {"@spider": "usps_collection_boxes", "spider:collection_time": "2023-12-01T08:26:07.800476"}, "geometry": {"coordinates": [-81.39691145, 28.466147776], "type": "Point"}, "id": "NpgJtbOyfBz9KA92zn0Xx8VxyQ4=", "properties": {"@spider": "usps_collection_boxes", "addr:city": "ORLANDO", "addr:country": "US", "addr:full": "6220 S ORANGE BLOSSOM TRL", "addr:postcode": "32809", "addr:state": "FL", "amenity": "post_box", "brand": "United States Postal Service", "brand:wikidata": "Q668687", "collection_times": "Mo-Sa 15:15", "name": "USPS COLLECTION BOX - BLUE BOX", "note": "ON 12/24 AND 12/31, THIS BOX MAY BE COLLECTED AS EARLY AS 12 NOON.", "nsi_id": "unitedstatespostalservice-a77078", "operator": "United States Postal Service", "operator:short": "USPS", "operator:type": "public", "operator:wikidata": "Q668687", "ref": "3280900014"}, "type": "Feature"}
{"dataset_attributes": {"@spider": "usps_collection_boxes", "spider:collection_time": "2023-12-01T08:26:07.800476"}, "geometry": {"coordinates": [-81.412252785, 28.453823916], "type": "Point"}, "id": "6Ct7EKM-uN5wh0zQhH3uceaIbCs=", "properties": {"@spider": "usps_collection_boxes", "addr:city": "ORLANDO", "addr:country": "US", "addr:full": "7594 CHANCELLOR DR", "addr:postcode": "32809", "addr:state": "FL", "amenity": "post_box", "brand": "United States Postal Service", "brand:wikidata": "Q668687", "collection_times": "Mo-Sa 12:00", "name": "USPS COLLECTION BOX - BLUE BOX", "nsi_id": "unitedstatespostalservice-a77078", "operator": "United States Postal Service", "operator:short": "USPS", "operator:type": "public", "operator:wikidata": "Q668687", "ref": "3280900021"}, "type": "Feature"}
{"dataset_attributes": {"@spider": "usps_collection_boxes", "spider:collection_time": "2023-12-01T08:26:07.800476"}, "geometry": {"coordinates": [-81.399371058, 28.406790655], "type": "Point"}, "id": "rbZ38D_U1E_mFigHA392w_Fn4ag=", "properties": {"@spider": "usps_collection_boxes", "addr:city": "ORLANDO", "addr:country": "US", "addr:full": "1747 ORL CENTRAL PKWY", "addr:postcode": "32809", "addr:state": "FL", "amenity": "post_box", "brand": "United States Postal Service", "brand:wikidata": "Q668687", "collection_times": "Mo-Fr 15:00; Sa 12:15", "name": "USPS COLLECTION BOX - BLUE BOX", "note": "ON 12/24 AND 12/31, THIS BOX MAY BE COLLECTED AS EARLY AS 12 NOON.", "nsi_id": "unitedstatespostalservice-a77078", "operator": "United States Postal Service", "operator:short": "USPS", "operator:type": "public", "operator:wikidata": "Q668687", "ref": "3280900023"}, "type": "Feature"}
{"dataset_attributes": {"@spider": "usps_collection_boxes", "spider:collection_time": "2023-12-01T08:26:07.800476"}, "geometry": {"coordinates": [-81.403003768, 28.462041269], "type": "Point"}, "id": "NwBQEpSkY8e_NucqUcEyQTV_h1w=", "properties": {"@spider": "usps_collection_boxes", "addr:city": "ORLANDO", "addr:country": "US", "addr:full": "7200 LAKE ELLENOR DR", "addr:postcode": "32809", "addr:state": "FL", "amenity": "post_box", "brand": "United States Postal Service", "brand:wikidata": "Q668687", "collection_times": "Mo-Fr 15:00; Sa 12:00", "name": "USPS COLLECTION BOX - BLUE BOX", "note": "ON 12/24 AND 12/31, THIS BOX MAY BE COLLECTED AS EARLY AS 12 NOON.", "nsi_id": "unitedstatespostalservice-a77078", "operator": "United States Postal Service", "operator:short": "USPS", "operator:type": "public", "operator:wikidata": "Q668687", "ref": "3280900027"}, "type": "Feature"}
{"dataset_attributes": {"@spider": "usps_collection_boxes", "spider:collection_time": "2023-12-01T08:26:07.800476"}, "geometry": {"coordinates": [-81.3865499764, 28.4665339852], "type": "Point"}, "id": "thJENVHjPau_KZ9aD8Mg7bSlRMs=", "properties": {"@spider": "usps_collection_boxes", "addr:city": "ORLANDO", "addr:country": "US", "addr:full": "665 W LANCASTER ROAD", "addr:postcode": "32809", "addr:state": "FL", "amenity": "post_box", "brand": "United States Postal Service", "brand:wikidata": "Q668687", "collection_times": "Mo-Sa 11:00", "name": "USPS COLLECTION BOX - BLUE BOX", "nsi_id": "unitedstatespostalservice-a77078", "operator": "United States Postal Service", "operator:short": "USPS", "operator:type": "public", "operator:wikidata": "Q668687", "ref": "3280900035"}, "type": "Feature"}
{"dataset_attributes": {"@spider": "usps_collection_boxes", "spider:collection_time": "2023-12-01T08:26:07.800476"}, "geometry": {"coordinates": [-81.399467264, 28.45462491], "type": "Point"}, "id": "_5lpNuaGVL_QNN_Ouvl23FDlYWA=", "properties": {"@spider": "usps_collection_boxes", "addr:city": "ORLANDO", "addr:country": "US", "addr:full": "7611 S ORANGE BLOSSOM TRL", "addr:postcode": "32809", "addr:state": "FL", "amenity": "post_box", "brand": "United States Postal Service", "brand:wikidata": "Q668687", "collection_times": "Mo-Sa 12:30", "name": "USPS COLLECTION BOX - BLUE BOX", "note": "ON 12/24 AND 12/31, THIS BOX MAY BE COLLECTED AS EARLY AS 12 NOON.", "nsi_id": "unitedstatespostalservice-a77078", "operator": "United States Postal Service", "operator:short": "USPS", "operator:type": "public", "operator:wikidata": "Q668687", "ref": "3280900038"}, "type": "Feature"}
{"dataset_attributes": {"@spider": "usps_collection_boxes", "spider:collection_time": "2023-12-01T08:26:07.800476"}, "geometry": {"coordinates": [-81.399770572, 28.450128406], "type": "Point"}, "id": "fKRNDcIe1FaKEuoG84DGK45dcv8=", "properties": {"@spider": "usps_collection_boxes", "addr:city": "ORLANDO", "addr:country": "US", "addr:full": "1650 SAND LAKE RD", "addr:postcode": "32809", "addr:state": "FL", "amenity": "post_box", "brand": "United States Postal Service", "brand:wikidata": "Q668687", "collection_times": "Mo-Sa 11:45", "name": "USPS COLLECTION BOX - BLUE BOX", "nsi_id": "unitedstatespostalservice-a77078", "operator": "United States Postal Service", "operator:short": "USPS", "operator:type": "public", "operator:wikidata": "Q668687", "ref": "3280900039"}, "type": "Feature"}
{"dataset_attributes": {"@spider": "usps_collection_boxes", "spider:collection_time": "2023-12-01T08:26:07.800476"}, "geometry": {"coordinates": [-81.396260097, 28.4602083616], "type": "Point"}, "id": "GrOenkAn6hdb-BrZguvjVLJIgdc=", "properties": {"@spider": "usps_collection_boxes", "addr:city": "ORLANDO", "addr:country": "US", "addr:full": "7245 CHANCERY LN", "addr:postcode": "32809", "addr:state": "FL", "amenity": "post_box", "brand": "United States Postal Service", "brand:wikidata": "Q668687", "collection_times": "Mo-Sa 13:00", "name": "USPS COLLECTION BOX - BLUE BOX", "note": "ON 12/24 AND 12/31, THIS BOX MAY BE COLLECTED AS EARLY AS 12 NOON.", "nsi_id": "unitedstatespostalservice-a77078", "operator": "United States Postal Service", "operator:short": "USPS", "operator:type": "public", "operator:wikidata": "Q668687", "ref": "3280900043"}, "type": "Feature"}
{"dataset_attributes": {"@spider": "usps_collection_boxes", "spider:collection_time": "2023-12-01T08:26:07.800476"}, "geometry": {"coordinates": [-81.364920725, 28.455846411], "type": "Point"}, "id": "G5aopE6x-8t3TP9TEayncTBEZCk=", "properties": {"@spider": "usps_collection_boxes", "addr:city": "ORLANDO", "addr:country": "US", "addr:full": "7707 S ORANGE AVE", "addr:postcode": "32809", "addr:state": "FL", "amenity": "post_box", "brand": "United States Postal Service", "brand:wikidata": "Q668687", "collection_times": "Mo-Fr 16:45; Sa 14:00", "name": "USPS COLLECTION BOX - PO LOBBY", "note": "ON 12/24 AND 12/31, THIS BOX MAY BE COLLECTED AS EARLY AS 12 NOON.", "nsi_id": "unitedstatespostalservice-a77078", "operator": "United States Postal Service", "operator:short": "USPS", "operator:type": "public", "operator:wikidata": "Q668687", "ref": "3280900047"}, "type": "Feature"}
{"dataset_attributes": {"@spider": "usps_collection_boxes", "spider:collection_time": "2023-12-01T08:26:07.800476"}, "geometry": {"coordinates": [-81.364920725, 28.455846411], "type": "Point"}, "id": "4w9liNfNoFhwYM3RUyNebLcPrJo=", "properties": {"@spider": "usps_collection_boxes", "addr:city": "ORLANDO", "addr:country": "US", "addr:full": "7707 S ORANGE AVE", "addr:postcode": "32809", "addr:state": "FL", "amenity": "post_box", "brand": "United States Postal Service", "brand:wikidata": "Q668687", "collection_times": "Mo-Fr 16:45; Sa 14:00", "name": "USPS COLLECTION BOX - APC", "note": "ON 12/24 AND 12/31, THIS BOX MAY BE COLLECTED AS EARLY AS 12 NOON.", "nsi_id": "unitedstatespostalservice-a77078", "operator": "United States Postal Service", "operator:short": "USPS", "operator:type": "public", "operator:wikidata": "Q668687", "ref": "3280900050"}, "type": "Feature"}
{"dataset_attributes": {"@spider": "usps_collection_boxes", "spider:collection_time": "2023-12-01T08:26:07.800476"}, "geometry": {"coordinates": [-81.3727260387, 28.4853229851], "type": "Point"}, "id": "H0WMG_MBVer176J8zfDr6Zl_OSM=", "properties": {"@spider": "usps_collection_boxes", "addr:city": "ORLANDO", "addr:country": "US", "addr:full": "5210 S ORANGE AVE", "addr:postcode": "32809", "addr:state": "FL", "amenity": "post_box", "brand": "United States Postal Service", "brand:wikidata": "Q668687", "collection_times": "Mo-Sa 11:00", "name": "USPS COLLECTION BOX - BLUE BOX", "nsi_id": "unitedstatespostalservice-a77078", "operator": "United States Postal Service", "operator:short": "USPS", "operator:type": "public", "operator:wikidata": "Q668687", "ref": "3280900051"}, "type": "Feature"}
{"dataset_attributes": {"@spider": "usps_collection_boxes", "spider:collection_time": "2023-12-01T08:26:07.800476"}, "geometry": {"coordinates": [-81.364920725, 28.455846411], "type": "Point"}, "id": "dZVplQx1Kka7pfl_DI3kkMMckDI=", "properties": {"@spider": "usps_collection_boxes", "addr:city": "ORLANDO", "addr:country": "US", "addr:full": "7707 S ORANGE AVE", "addr:postcode": "32809", "addr:state": "FL", "amenity": "post_box", "brand": "United States Postal Service", "brand:wikidata": "Q668687", "collection_times": "Mo-Fr 16:45; Sa 14:00", "name": "USPS COLLECTION BOX - PO LOBBY", "note": "ON 12/24 AND 12/31, THIS BOX MAY BE COLLECTED AS EARLY AS 12 NOON.", "nsi_id": "unitedstatespostalservice-a77078", "operator": "United States Postal Service", "operator:short": "USPS", "operator:type": "public", "operator:wikidata": "Q668687", "ref": "3280900052"}, "type": "Feature"}
{"dataset_attributes": {"@spider": "usps_collection_boxes", "spider:collection_time": "2023-12-01T08:26:07.800476"}, "geometry": {"coordinates": [-81.364920725, 28.455846411], "type": "Point"}, "id": "_Wo2NZ71wDjzkM7gnB9jvT2GYV8=", "properties": {"@spider": "usps_collection_boxes", "addr:city": "ORLANDO", "addr:country": "US", "addr:full": "7707 S ORANGE AVE", "addr:postcode": "32809", "addr:state": "FL", "amenity": "post_box", "brand": "United States Postal Service", "brand:wikidata": "Q668687", "collection_times": "Mo-Fr 16:45; Sa 14:00", "name": "USPS COLLECTION BOX - PO LOBBY", "note": "ON 12/24 AND 12/31, THIS BOX MAY BE COLLECTED AS EARLY AS 12 NOON.", "nsi_id": "unitedstatespostalservice-a77078", "operator": "United States Postal Service", "operator:short": "USPS", "operator:type": "public", "operator:wikidata": "Q668687", "ref": "3280900053"}, "type": "Feature"}
{"dataset_attributes": {"@spider": "usps_collection_boxes", "spider:collection_time": "2023-12-01T08:26:07.800476"}, "geometry": {"coordinates": [-81.364920725, 28.455846411], "type": "Point"}, "id": "Rc8zYxT-CScJGUU9c55NDx_g5i4=", "properties": {"@spider": "usps_collection_boxes", "addr:city": "ORLANDO", "addr:country": "US", "addr:full": "7707 S ORANGE AVE", "addr:postcode": "32809", "addr:state": "FL", "amenity": "post_box", "brand": "United States Postal Service", "brand:wikidata": "Q668687", "collection_times": "Mo-Fr 17:00; Sa 12:00", "name": "USPS COLLECTION BOX - PO LOBBY", "note": "ON 12/24 AND 12/31, THIS BOX MAY BE COLLECTED AS EARLY AS 12 NOON.", "nsi_id": "unitedstatespostalservice-a77078", "operator": "United States Postal Service", "operator:short": "USPS", "operator:type": "public", "operator:wikidata": "Q668687", "ref": "3280900060"}, "type": "Feature"}
{"dataset_attributes": {"@spider": "usps_collection_boxes", "spider:collection_time": "2023-12-01T08:26:07.800476"}, "geometry": {"coordinates": [-81.409741492, 28.605873484], "type": "Point"}, "id": "D4qOWrG6KcRn06-zT9Jcd3bIOKA=", "properties": {"@spider": "usps_collection_boxes", "addr:city": "ORLANDO", "addr:country": "US", "addr:full": "5087 EDGEWATER DR", "addr:postcode": "32810", "addr:state": "FL", "amenity": "post_box", "brand": "United States Postal Service", "brand:wikidata": "Q668687", "collection_times": "Mo-Fr 17:00; Sa 15:45", "name": "USPS COLLECTION BOX - BLUE BOX", "note": "ON 12/24 AND 12/31, THIS BOX MAY BE COLLECTED AS EARLY AS 12 NOON.", "nsi_id": "unitedstatespostalservice-a77078", "operator": "United States Postal Service", "operator:short": "USPS", "operator:type": "public", "operator:wikidata": "Q668687", "ref": "3281000001"}, "type": "Feature"}
{"dataset_attributes": {"@spider": "usps_collection_boxes", "spider:collection_time": "2023-12-01T08:26:07.800476"}, "geometry": {"coordinates": [-81.421041151, 28.604714586], "type": "Point"}, "id": "RuLblTBw6frxltYsCZRcxik8hFw=", "properties": {"@spider": "usps_collection_boxes", "addr:city": "ORLANDO", "addr:country": "US", "addr:full": "5104 N ORANGE BLOSSOM TRL", "addr:postcode": "32810", "addr:state": "FL", "amenity": "post_box", "brand": "United States Postal Service", "brand:wikidata": "Q668687", "collection_times": "Mo-Fr 14:00", "name": "USPS COLLECTION BOX - BLUE BOX", "note": "ON 12/24 AND 12/31, THIS BOX MAY BE COLLECTED AS EARLY AS 12 NOON.", "nsi_id": "unitedstatespostalservice-a77078", "operator": "United States Postal Service", "operator:short": "USPS", "operator:type": "public", "operator:wikidata": "Q668687", "ref": "3281000008"}, "type": "Feature"}
{"dataset_attributes": {"@spider": "usps_collection_boxes", "spider:collection_time": "2023-12-01T08:26:07.800476"}, "geometry": {"coordinates": [-81.432854179, 28.613214973], "type": "Point"}, "id": "e51N8jxH8JTp02LtfybQ2OwZN3U=", "properties": {"@spider": "usps_collection_boxes", "addr:city": "ORLANDO", "addr:country": "US", "addr:full": "6325 N ORANGE BLOSSOM TRL", "addr:postcode": "32810", "addr:state": "FL", "amenity": "post_box", "brand": "United States Postal Service", "brand:wikidata": "Q668687", "collection_times": "Mo-Sa 09:30", "name": "USPS COLLECTION BOX - BLUE BOX", "nsi_id": "unitedstatespostalservice-a77078", "operator": "United States Postal Service", "operator:short": "USPS", "operator:type": "public", "operator:wikidata": "Q668687", "ref": "3281000025"}, "type": "Feature"}
{"dataset_attributes": {"@spider": "usps_collection_boxes", "spider:collection_time": "2023-12-01T08:26:07.800476"}, "geometry": {"coordinates": [-81.421384302, 28.614012765], "type": "Point"}, "id": "ZGYj4IjhDfvdB9xxdlZhd4WCCWI=", "properties": {"@spider": "usps_collection_boxes", "addr:city": "ORLANDO", "addr:country": "US", "addr:full": "6239 EDGEWATER DR", "addr:postcode": "32810", "addr:state": "FL", "amenity": "post_box", "brand": "United States Postal Service", "brand:wikidata": "Q668687", "collection_times": "Mo-Sa 14:00", "name": "USPS COLLECTION BOX - BLUE BOX", "note": "ON 12/24 AND 12/31, THIS BOX MAY BE COLLECTED AS EARLY AS 12 NOON.", "nsi_id": "unitedstatespostalservice-a77078", "operator": "United States Postal Service", "operator:short": "USPS", "operator:type": "public", "operator:wikidata": "Q668687", "ref": "3281000027"}, "type": "Feature"}
{"dataset_attributes": {"@spider": "usps_collection_boxes", "spider:collection_time": "2023-12-01T08:26:07.800476"}, "geometry": {"coordinates": [-81.404602219, 28.618500465], "type": "Point"}, "id": "pw690WnNlpJXVHRlNuYlSzFOs4Q=", "properties": {"@spider": "usps_collection_boxes", "addr:city": "ORLANDO", "addr:country": "US", "addr:full": "995 KENNEDY BLVD", "addr:postcode": "32810", "addr:state": "FL", "amenity": "post_box", "brand": "United States Postal Service", "brand:wikidata": "Q668687", "collection_times": "Mo-Fr 12:00", "name": "USPS COLLECTION BOX - BLUE BOX", "nsi_id": "unitedstatespostalservice-a77078", "operator": "United States Postal Service", "operator:short": "USPS", "operator:type": "public", "operator:wikidata": "Q668687", "ref": "3281000029"}, "type": "Feature"}
{"dataset_attributes": {"@spider": "usps_collection_boxes", "spider:collection_time": "2023-12-01T08:26:07.800476"}, "geometry": {"coordinates": [-81.409741492, 28.605873484], "type": "Point"}, "id": "8d9MAmr-YgK5qoP0V8F5aMTArF0=", "properties": {"@spider": "usps_collection_boxes", "addr:city": "ORLANDO", "addr:country": "US", "addr:full": "5087 EDGEWATER DR", "addr:postcode": "32810", "addr:state": "FL", "amenity": "post_box", "brand": "United States Postal Service", "brand:wikidata": "Q668687", "collection_times": "Mo-Fr 17:00; Sa 15:45", "name": "USPS COLLECTION BOX - PO LOBBY", "note": "ON 12/24 AND 12/31, THIS BOX MAY BE COLLECTED AS EARLY AS 12 NOON.", "nsi_id": "unitedstatespostalservice-a77078", "operator": "United States Postal Service", "operator:short": "USPS", "operator:type": "public", "operator:wikidata": "Q668687", "ref": "3281000033"}, "type": "Feature"}
{"dataset_attributes": {"@spider": "usps_collection_boxes", "spider:collection_time": "2023-12-01T08:26:07.800476"}, "geometry": {"coordinates": [-81.40467866, 28.631225358], "type": "Point"}, "id": "C7k0ZqqcoWNG6hL8_N1aZnWXBl0=", "properties": {"@spider": "usps_collection_boxes", "addr:city": "ORLANDO", "addr:country": "US", "addr:full": "1939 GRAND ISLE CIR", "addr:postcode": "32810", "addr:state": "FL", "amenity": "post_box", "brand": "United States Postal Service", "brand:wikidata": "Q668687", "collection_times": "Mo-Sa 10:00", "name": "USPS COLLECTION BOX - BLUE BOX", "nsi_id": "unitedstatespostalservice-a77078", "operator": "United States Postal Service", "operator:short": "USPS", "operator:type": "public", "operator:wikidata": "Q668687", "ref": "3281000037"}, "type": "Feature"}
{"dataset_attributes": {"@spider": "usps_collection_boxes", "spider:collection_time": "2023-12-01T08:26:07.800476"}, "geometry": {"coordinates": [-81.402420167, 28.637959579], "type": "Point"}, "id": "ulJ_dmOFrC1RrkT1TybbaswB68k=", "properties": {"@spider": "usps_collection_boxes", "addr:city": "ORLANDO", "addr:country": "US", "addr:full": "1958 SUMMIT PARK DR", "addr:postcode": "32810", "addr:state": "FL", "amenity": "post_box", "brand": "United States Postal Service", "brand:wikidata": "Q668687", "collection_times": "Mo-Fr 15:45", "name": "USPS COLLECTION BOX - BLUE BOX", "note": "ON 12/24 AND 12/31, THIS BOX MAY BE COLLECTED AS EARLY AS 12 NOON.", "nsi_id": "unitedstatespostalservice-a77078", "operator": "United States Postal Service", "operator:short": "USPS", "operator:type": "public", "operator:wikidata": "Q668687", "ref": "3281000038"}, "type": "Feature"}
{"dataset_attributes": {"@spider": "usps_collection_boxes", "spider:collection_time": "2023-12-01T08:26:07.800476"}, "geometry": {"coordinates": [-81.409741492, 28.605873484], "type": "Point"}, "id": "8Baoy_3QO0dh8TJpIGD-tSlwBDw=", "properties": {"@spider": "usps_collection_boxes", "addr:city": "ORLANDO", "addr:country": "US", "addr:full": "5087 EDGEWATER DR", "addr:postcode": "32810", "addr:state": "FL", "amenity": "post_box", "brand": "United States Postal Service", "brand:wikidata": "Q668687", "collection_times": "Mo-Fr 17:00; Sa 15:45", "name": "USPS COLLECTION BOX - PO LOBBY", "note": "ON 12/24 AND 12/31, THIS BOX MAY BE COLLECTED AS EARLY AS 12 NOON.", "nsi_id": "unitedstatespostalservice-a77078", "operator": "United States Postal Service", "operator:short": "USPS", "operator:type": "public", "operator:wikidata": "Q668687", "ref": "3281000040"}, "type": "Feature"}
{"dataset_attributes": {"@spider": "usps_collection_boxes", "spider:collection_time": "2023-12-01T08:26:07.800476"}, "geometry": {"coordinates": [-81.409741492, 28.605873484], "type": "Point"}, "id": "84PCRPzz-IE-XKdnBqbBw_M-Hk8=", "properties": {"@spider": "usps_collection_boxes", "addr:city": "ORLANDO", "addr:country": "US", "addr:full": "5087 EDGEWATER DR", "addr:postcode": "32810", "addr:state": "FL", "amenity": "post_box", "brand": "United States Postal Service", "brand:wikidata": "Q668687", "collection_times": "Mo-Fr 17:00; Sa 15:45", "name": "USPS COLLECTION BOX - PO LOBBY", "note": "ON 12/24 AND 12/31, THIS BOX MAY BE COLLECTED AS EARLY AS 12 NOON.", "nsi_id": "unitedstatespostalservice-a77078", "operator": "United States Postal Service", "operator:short": "USPS", "operator:type": "public", "operator:wikidata": "Q668687", "ref": "3281000041"}, "type": "Feature"}
{"dataset_attributes": {"@spider": "usps_collection_boxes", "spider:collection_time": "2023-12-01T08:26:07.800476"}, "geometry": {"coordinates": [-81.409741492, 28.605873484], "type": "Point"}, "id": "SfL29cZ88QP9UdsHiCC50em5Tq4=", "properties": {"@spider": "usps_collection_boxes", "addr:city": "ORLANDO", "addr:country": "US", "addr:full": "5087 EDGEWATER DR", "addr:postcode": "32810", "addr:state": "FL", "amenity": "post_box", "brand": "United States Postal Service", "brand:wikidata": "Q668687", "collection_times": "Mo-Fr 17:00; Sa 12:00", "name": "USPS COLLECTION BOX - PO LOBBY", "note": "ON 12/24 AND 12/31, THIS BOX MAY BE COLLECTED AS EARLY AS 12 NOON.", "nsi_id": "unitedstatespostalservice-a77078", "operator": "United States Postal Service", "operator:short": "USPS", "operator:type": "public", "operator:wikidata": "Q668687", "ref": "3281000043"}, "type": "Feature"}
{"dataset_attributes": {"@spider": "usps_collection_boxes", "spider:collection_time": "2023-12-01T08:26:07.800476"}, "geometry": {"coordinates": [-81.459147296, 28.495409856], "type": "Point"}, "id": "MoHFhE8n0KOEX5hYyJsnGLJCqwQ=", "properties": {"@spider": "usps_collection_boxes", "addr:city": "ORLANDO", "addr:country": "US", "addr:full": "4606 S KIRKMAN RD", "addr:postcode": "32811", "addr:state": "FL", "amenity": "post_box", "brand": "United States Postal Service", "brand:wikidata": "Q668687", "collection_times": "Mo-Sa 09:30", "name": "USPS COLLECTION BOX - BLUE BOX", "nsi_id": "unitedstatespostalservice-a77078", "operator": "United States Postal Service", "operator:short": "USPS", "operator:type": "public", "operator:wikidata": "Q668687", "ref": "3281100001"}, "type": "Feature"}
{"dataset_attributes": {"@spider": "usps_collection_boxes", "spider:collection_time": "2023-12-01T08:26:07.800476"}, "geometry": {"coordinates": [-81.474251474, 28.493820487], "type": "Point"}, "id": "9WX0ntF6Q4i5DDd_aQlKCy0MVzA=", "properties": {"@spider": "usps_collection_boxes", "addr:city": "ORLANDO", "addr:country": "US", "addr:full": "6735 CONROY RD", "addr:postcode": "32811", "addr:state": "FL", "amenity": "post_box", "brand": "United States Postal Service", "brand:wikidata": "Q668687", "collection_times": "Mo-Sa 10:30", "name": "USPS COLLECTION BOX - BLUE BOX", "nsi_id": "unitedstatespostalservice-a77078", "operator": "United States Postal Service", "operator:short": "USPS", "operator:type": "public", "operator:wikidata": "Q668687", "ref": "3281100002"}, "type": "Feature"}
{"dataset_attributes": {"@spider": "usps_collection_boxes", "spider:collection_time": "2023-12-01T08:26:07.800476"}, "geometry": {"coordinates": [-81.45215485, 28.494491132], "type": "Point"}, "id": "sbCgcM6-Hhk6e9KnWCOBP2Lx1UA=", "properties": {"@spider": "usps_collection_boxes", "addr:city": "ORLANDO", "addr:country": "US", "addr:full": "5389 CONROY RD", "addr:postcode": "32811", "addr:state": "FL", "amenity": "post_box", "brand": "United States Postal Service", "brand:wikidata": "Q668687", "collection_times": "Mo-Sa 10:15", "name": "USPS COLLECTION BOX - BLUE BOX", "nsi_id": "unitedstatespostalservice-a77078", "operator": "United States Postal Service", "operator:short": "USPS", "operator:type": "public", "operator:wikidata": "Q668687", "ref": "3281100003"}, "type": "Feature"}
{"dataset_attributes": {"@spider": "usps_collection_boxes", "spider:collection_time": "2023-12-01T08:26:07.800476"}, "geometry": {"coordinates": [-81.431376851, 28.500231942], "type": "Point"}, "id": "m8c5h7EwoaSOgobVp5nSg4wssfc=", "properties": {"@spider": "usps_collection_boxes", "addr:city": "ORLANDO", "addr:country": "US", "addr:full": "4301 VINELAND RD", "addr:postcode": "32811", "addr:state": "FL", "amenity": "post_box", "brand": "United States Postal Service", "brand:wikidata": "Q668687", "collection_times": "Mo-Fr 14:45; Sa 14:00", "name": "USPS COLLECTION BOX - BLUE BOX", "note": "ON 12/24 AND 12/31, THIS BOX MAY BE COLLECTED AS EARLY AS 12 NOON.", "nsi_id": "unitedstatespostalservice-a77078", "operator": "United States Postal Service", "operator:short": "USPS", "operator:type": "public", "operator:wikidata": "Q668687", "ref": "3281100005"}, "type": "Feature"}
{"dataset_attributes": {"@spider": "usps_collection_boxes", "spider:collection_time": "2023-12-01T08:26:07.800476"}, "geometry": {"coordinates": [-81.431376851, 28.500231942], "type": "Point"}, "id": "AvuVvUdblshnv8rEHlHIkMw76GQ=", "properties": {"@spider": "usps_collection_boxes", "addr:city": "ORLANDO", "addr:country": "US", "addr:full": "4301 VINELAND RD", "addr:postcode": "32811", "addr:state": "FL", "amenity": "post_box", "brand": "United States Postal Service", "brand:wikidata": "Q668687", "collection_times": "Mo-Fr 14:45; Sa 14:00", "name": "USPS COLLECTION BOX - BLUE BOX", "note": "ON 12/24 AND 12/31, THIS BOX MAY BE COLLECTED AS EARLY AS 12 NOON.", "nsi_id": "unitedstatespostalservice-a77078", "operator": "United States Postal Service", "operator:short": "USPS", "operator:type": "public", "operator:wikidata": "Q668687", "ref": "3281100007"}, "type": "Feature"}
{"dataset_attributes": {"@spider": "usps_collection_boxes", "spider:collection_time": "2023-12-01T08:26:07.800476"}, "geometry": {"coordinates": [-81.428454206, 28.505111498], "type": "Point"}, "id": "GqeDIwa2W0vH4dLgApsY43NGHsA=", "properties": {"@spider": "usps_collection_boxes", "addr:city": "ORLANDO", "addr:country": "US", "addr:full": "4101 SW 34TH ST", "addr:postcode": "32811", "addr:state": "FL", "amenity": "post_box", "brand": "United States Postal Service", "brand:wikidata": "Q668687", "collection_times": "Mo-Fr 14:45; Sa 14:00", "name": "USPS COLLECTION BOX - BLUE BOX", "note": "ON 12/24 AND 12/31, THIS BOX MAY BE COLLECTED AS EARLY AS 12 NOON.", "nsi_id": "unitedstatespostalservice-a77078", "operator": "United States Postal Service", "operator:short": "USPS", "operator:type": "public", "operator:wikidata": "Q668687", "ref": "3281100008"}, "type": "Feature"}
{"dataset_attributes": {"@spider": "usps_collection_boxes", "spider:collection_time": "2023-12-01T08:26:07.800476"}, "geometry": {"coordinates": [-81.434110738, 28.507796277], "type": "Point"}, "id": "Aj3od08iliVUxu9S2ctYrTEe89E=", "properties": {"@spider": "usps_collection_boxes", "addr:city": "ORLANDO", "addr:country": "US", "addr:full": "3301 BARTLETT BLVD", "addr:postcode": "32811", "addr:state": "FL", "amenity": "post_box", "brand": "United States Postal Service", "brand:wikidata": "Q668687", "collection_times": "Mo-Fr 12:30; Sa 14:00", "name": "USPS COLLECTION BOX - BLUE BOX", "note": "ON 12/24 AND 12/31, THIS BOX MAY BE COLLECTED AS EARLY AS 12 NOON.", "nsi_id": "unitedstatespostalservice-a77078", "operator": "United States Postal Service", "operator:short": "USPS", "operator:type": "public", "operator:wikidata": "Q668687", "ref": "3281100010"}, "type": "Feature"}
{"dataset_attributes": {"@spider": "usps_collection_boxes", "spider:collection_time": "2023-12-01T08:26:07.800476"}, "geometry": {"coordinates": [-81.43415, 28.508055], "type": "Point"}, "id": "M8HhiqgJC2z9iQhVd9A1VUW_mc8=", "properties": {"@spider": "usps_collection_boxes", "addr:city": "ORLANDO", "addr:country": "US", "addr:full": "805 S KIRKMAN RD", "addr:postcode": "32811", "addr:state": "FL", "amenity": "post_box", "brand": "United States Postal Service", "brand:wikidata": "Q668687", "collection_times": "Mo-Sa 10:00", "name": "USPS COLLECTION BOX - BLUE BOX", "nsi_id": "unitedstatespostalservice-a77078", "operator": "United States Postal Service", "operator:short": "USPS", "operator:type": "public", "operator:wikidata": "Q668687", "ref": "3281100017"}, "type": "Feature"}
{"dataset_attributes": {"@spider": "usps_collection_boxes", "spider:collection_time": "2023-12-01T08:26:07.800476"}, "geometry": {"coordinates": [-81.43415, 28.508055], "type": "Point"}, "id": "RVJU8jLvl7YGy9mB-F8WppnCY0c=", "properties": {"@spider": "usps_collection_boxes", "addr:city": "ORLANDO", "addr:country": "US", "addr:full": "501 S KIRKMAN RD", "addr:postcode": "32811", "addr:state": "FL", "amenity": "post_box", "brand": "United States Postal Service", "brand:wikidata": "Q668687", "collection_times": "Mo-Fr 17:00; Sa 15:30", "name": "USPS COLLECTION BOX - BLUE BOX", "note": "ON 12/24 AND 12/31, THIS BOX MAY BE COLLECTED AS EARLY AS 12 NOON.", "nsi_id": "unitedstatespostalservice-a77078", "operator": "United States Postal Service", "operator:short": "USPS", "operator:type": "public", "operator:wikidata": "Q668687", "ref": "3281100018"}, "type": "Feature"}
{"dataset_attributes": {"@spider": "usps_collection_boxes", "spider:collection_time": "2023-12-01T08:26:07.800476"}, "geometry": {"coordinates": [-81.458418837, 28.534410041], "type": "Point"}, "id": "dfXohWb43g0KbXpDJygDUIA1kqA=", "properties": {"@spider": "usps_collection_boxes", "addr:city": "ORLANDO", "addr:country": "US", "addr:full": "501 S KIRKMAN RD", "addr:postcode": "32811", "addr:state": "FL", "amenity": "post_box", "brand": "United States Postal Service", "brand:wikidata": "Q668687", "collection_times": "Mo-Fr 17:00; Sa 15:30", "name": "USPS COLLECTION BOX - PO LOBBY", "note": "ON 12/24 AND 12/31, THIS BOX MAY BE COLLECTED AS EARLY AS 12 NOON.", "nsi_id": "unitedstatespostalservice-a77078", "operator": "United States Postal Service", "operator:short": "USPS", "operator:type": "public", "operator:wikidata": "Q668687", "ref": "3281100025"}, "type": "Feature"}
{"dataset_attributes": {"@spider": "usps_collection_boxes", "spider:collection_time": "2023-12-01T08:26:07.800476"}, "geometry": {"coordinates": [-81.431518165, 28.508683488], "type": "Point"}, "id": "wNxtLPGwaNBrf-guEPKA7mXDNec=", "properties": {"@spider": "usps_collection_boxes", "addr:city": "ORLANDO", "addr:country": "US", "addr:full": "4240 L B MCLEOD RD", "addr:postcode": "32811", "addr:state": "FL", "amenity": "post_box", "brand": "United States Postal Service", "brand:wikidata": "Q668687", "collection_times": "Mo-Sa 09:45", "name": "USPS COLLECTION BOX - BLUE BOX", "nsi_id": "unitedstatespostalservice-a77078", "operator": "United States Postal Service", "operator:short": "USPS", "operator:type": "public", "operator:wikidata": "Q668687", "ref": "3281100027"}, "type": "Feature"}
{"dataset_attributes": {"@spider": "usps_collection_boxes", "spider:collection_time": "2023-12-01T08:26:07.800476"}, "geometry": {"coordinates": [-81.458418837, 28.534410041], "type": "Point"}, "id": "marMZeML4oUCAsMpbL3JoB8KkXc=", "properties": {"@spider": "usps_collection_boxes", "addr:city": "ORLANDO", "addr:country": "US", "addr:full": "501 S KIRKMAN RD", "addr:postcode": "32811", "addr:state": "FL", "amenity": "post_box", "brand": "United States Postal Service", "brand:wikidata": "Q668687", "collection_times": "Mo-Fr 17:00; Sa 15:30", "name": "USPS COLLECTION BOX - APC", "note": "ON 12/24 AND 12/31, THIS BOX MAY BE COLLECTED AS EARLY AS 12 NOON.", "nsi_id": "unitedstatespostalservice-a77078", "operator": "United States Postal Service", "operator:short": "USPS", "operator:type": "public", "operator:wikidata": "Q668687", "ref": "3281100028"}, "type": "Feature"}
{"dataset_attributes": {"@spider": "usps_collection_boxes", "spider:collection_time": "2023-12-01T08:26:07.800476"}, "geometry": {"coordinates": [-81.4419990319, 28.5284679935], "type": "Point"}, "id": "ixNK92V-qs716QmAqLj6TC-FZ8w=", "properties": {"@spider": "usps_collection_boxes", "addr:city": "ORLANDO", "addr:country": "US", "addr:full": "4767 RALEIGH ST", "addr:postcode": "32811", "addr:state": "FL", "amenity": "post_box", "brand": "United States Postal Service", "brand:wikidata": "Q668687", "collection_times": "Mo-Sa 09:45", "name": "USPS COLLECTION BOX - BLUE BOX", "nsi_id": "unitedstatespostalservice-a77078", "operator": "United States Postal Service", "operator:short": "USPS", "operator:type": "public", "operator:wikidata": "Q668687", "ref": "3281100029"}, "type": "Feature"}
{"dataset_attributes": {"@spider": "usps_collection_boxes", "spider:collection_time": "2023-12-01T08:26:07.800476"}, "geometry": {"coordinates": [-81.458418837, 28.534410041], "type": "Point"}, "id": "88QLKl8dJIE2neoN2otE-M-R7wI=", "properties": {"@spider": "usps_collection_boxes", "addr:city": "ORLANDO", "addr:country": "US", "addr:full": "501 S KIRKMAN RD", "addr:postcode": "32811", "addr:state": "FL", "amenity": "post_box", "brand": "United States Postal Service", "brand:wikidata": "Q668687", "collection_times": "Mo-Fr 17:00; Sa 14:00", "name": "USPS COLLECTION BOX - PO LOBBY", "note": "ON 12/24 AND 12/31, THIS BOX MAY BE COLLECTED AS EARLY AS 12 NOON.", "nsi_id": "unitedstatespostalservice-a77078", "operator": "United States Postal Service", "operator:short": "USPS", "operator:type": "public", "operator:wikidata": "Q668687", "ref": "3281100031"}, "type": "Feature"}
{"dataset_attributes": {"@spider": "usps_collection_boxes", "spider:collection_time": "2023-12-01T08:26:07.800476"}, "geometry": {"coordinates": [-81.329409298, 28.48062047], "type": "Point"}, "id": "vb1RVoQo7TFQ7pViD9ajXmu1Xew=", "properties": {"@spider": "usps_collection_boxes", "addr:city": "ORLANDO", "addr:country": "US", "addr:full": "4501 HOFFNER AVE", "addr:postcode": "32812", "addr:state": "FL", "amenity": "post_box", "brand": "United States Postal Service", "brand:wikidata": "Q668687", "collection_times": "Mo-Sa 10:30", "name": "USPS COLLECTION BOX - BLUE BOX", "nsi_id": "unitedstatespostalservice-a77078", "operator": "United States Postal Service", "operator:short": "USPS", "operator:type": "public", "operator:wikidata": "Q668687", "ref": "3281200002"}, "type": "Feature"}
{"dataset_attributes": {"@spider": "usps_collection_boxes", "spider:collection_time": "2023-12-01T08:26:07.800476"}, "geometry": {"coordinates": [-81.330732, 28.524147789], "type": "Point"}, "id": "FONZEmBTSRatz1W3f5qRP7TxmV8=", "properties": {"@spider": "usps_collection_boxes", "addr:city": "ORLANDO", "addr:country": "US", "addr:full": "4402 CURRY FORD RD", "addr:postcode": "32812", "addr:state": "FL", "amenity": "post_box", "brand": "United States Postal Service", "brand:wikidata": "Q668687", "collection_times": "Mo-Sa 10:00", "name": "USPS COLLECTION BOX - BLUE BOX", "nsi_id": "unitedstatespostalservice-a77078", "operator": "United States Postal Service", "operator:short": "USPS", "operator:type": "public", "operator:wikidata": "Q668687", "ref": "3281200006"}, "type": "Feature"}
{"dataset_attributes": {"@spider": "usps_collection_boxes", "spider:collection_time": "2023-12-01T08:26:07.800476"}, "geometry": {"coordinates": [-81.328655379, 28.513230588], "type": "Point"}, "id": "ZXkggoyDUhemsT3ogCUuRYpI9jc=", "properties": {"@spider": "usps_collection_boxes", "addr:city": "ORLANDO", "addr:country": "US", "addr:full": "4656 E MICHIGAN ST", "addr:postcode": "32812", "addr:state": "FL", "amenity": "post_box", "brand": "United States Postal Service", "brand:wikidata": "Q668687", "collection_times": "Mo-Sa 13:30", "name": "USPS COLLECTION BOX - BLUE BOX", "note": "ON 12/24 AND 12/31, THIS BOX MAY BE COLLECTED AS EARLY AS 12 NOON.", "nsi_id": "unitedstatespostalservice-a77078", "operator": "United States Postal Service", "operator:short": "USPS", "operator:type": "public", "operator:wikidata": "Q668687", "ref": "3281200007"}, "type": "Feature"}
{"dataset_attributes": {"@spider": "usps_collection_boxes", "spider:collection_time": "2023-12-01T08:26:07.800476"}, "geometry": {"coordinates": [-81.327351315, 28.558389342], "type": "Point"}, "id": "WQFhNSEt-8_o6xW9qLjXg7B1XK0=", "properties": {"@spider": "usps_collection_boxes", "addr:city": "ORLANDO", "addr:country": "US", "addr:full": "942 LAKE BALDWIN LN", "addr:postcode": "32814", "addr:state": "FL", "amenity": "post_box", "brand": "United States Postal Service", "brand:wikidata": "Q668687", "collection_times": "Mo-Fr 14:00", "name": "USPS COLLECTION BOX - BLUE BOX", "note": "ON 12/24 AND 12/31, THIS BOX MAY BE COLLECTED AS EARLY AS 12 NOON.", "nsi_id": "unitedstatespostalservice-a77078", "operator": "United States Postal Service", "operator:short": "USPS", "operator:type": "public", "operator:wikidata": "Q668687", "ref": "3281400010"}, "type": "Feature"}
{"dataset_attributes": {"@spider": "usps_collection_boxes", "spider:collection_time": "2023-12-01T08:26:07.800476"}, "geometry": {"coordinates": [-81.328368727, 28.566136405], "type": "Point"}, "id": "CxWBzWXaRMg0qGXLzfzsenpAcZ0=", "properties": {"@spider": "usps_collection_boxes", "addr:city": "ORLANDO", "addr:country": "US", "addr:full": "4776 NEW BROAD ST", "addr:postcode": "32814", "addr:state": "FL", "amenity": "post_box", "brand": "United States Postal Service", "brand:wikidata": "Q668687", "collection_times": "Mo-Fr 14:00", "name": "USPS COLLECTION BOX - BLUE BOX", "note": "ON 12/24 AND 12/31, THIS BOX MAY BE COLLECTED AS EARLY AS 12 NOON.", "nsi_id": "unitedstatespostalservice-a77078", "operator": "United States Postal Service", "operator:short": "USPS", "operator:type": "public", "operator:wikidata": "Q668687", "ref": "3281400049"}, "type": "Feature"}
{"dataset_attributes": {"@spider": "usps_collection_boxes", "spider:collection_time": "2023-12-01T08:26:07.800476"}, "geometry": {"coordinates": [-81.3308457, 28.5653016], "type": "Point"}, "id": "lD6MQo_wtwipGbrXN82pkj22ngM=", "properties": {"@spider": "usps_collection_boxes", "addr:city": "ORLANDO", "addr:country": "US", "addr:full": "821 HERNDON AVE", "addr:postcode": "32814", "addr:state": "FL", "amenity": "post_box", "brand": "United States Postal Service", "brand:wikidata": "Q668687", "collection_times": "Mo-Fr 17:00; Sa 15:30", "name": "USPS COLLECTION BOX - BLUE BOX", "note": "ON 12/24 AND 12/31, THIS BOX MAY BE COLLECTED AS EARLY AS 12 NOON.", "nsi_id": "unitedstatespostalservice-a77078", "operator": "United States Postal Service", "operator:short": "USPS", "operator:type": "public", "operator:wikidata": "Q668687", "ref": "3281400050"}, "type": "Feature"}
{"dataset_attributes": {"@spider": "usps_collection_boxes", "spider:collection_time": "2023-12-01T08:26:07.800476"}, "geometry": {"coordinates": [-81.337437282, 28.556267499], "type": "Point"}, "id": "HCmjX9zqUeEA2FWbN1QC4cdYgOs=", "properties": {"@spider": "usps_collection_boxes", "addr:city": "ORLANDO", "addr:country": "US", "addr:full": "821 HERNDON AVE", "addr:postcode": "32814", "addr:state": "FL", "amenity": "post_box", "brand": "United States Postal Service", "brand:wikidata": "Q668687", "collection_times": "Mo-Fr 17:00", "name": "USPS COLLECTION BOX - PO LOBBY", "note": "ON 12/24 AND 12/31, THIS BOX MAY BE COLLECTED AS EARLY AS 12 NOON.", "nsi_id": "unitedstatespostalservice-a77078", "operator": "United States Postal Service", "operator:short": "USPS", "operator:type": "public", "operator:wikidata": "Q668687", "ref": "3281400051"}, "type": "Feature"}
{"dataset_attributes": {"@spider": "usps_collection_boxes", "spider:collection_time": "2023-12-01T08:26:07.800476"}, "geometry": {"coordinates": [-81.337437282, 28.556267499], "type": "Point"}, "id": "tjk7l7lPD9OxLkPAaPVKwNXvsKQ=", "properties": {"@spider": "usps_collection_boxes", "addr:city": "ORLANDO", "addr:country": "US", "addr:full": "821 HERNDON AVE", "addr:postcode": "32814", "addr:state": "FL", "amenity": "post_box", "brand": "United States Postal Service", "brand:wikidata": "Q668687", "collection_times": "Mo-Fr 17:00", "name": "USPS COLLECTION BOX - PO LOBBY", "note": "ON 12/24 AND 12/31, THIS BOX MAY BE COLLECTED AS EARLY AS 12 NOON.", "nsi_id": "unitedstatespostalservice-a77078", "operator": "United States Postal Service", "operator:short": "USPS", "operator:type": "public", "operator:wikidata": "Q668687", "ref": "3281400052"}, "type": "Feature"}
{"dataset_attributes": {"@spider": "usps_collection_boxes", "spider:collection_time": "2023-12-01T08:26:07.800476"}, "geometry": {"coordinates": [-81.223130834, 28.60171645], "type": "Point"}, "id": "ASpjgsYssWIm_VRRM-8XjHGC5qE=", "properties": {"@spider": "usps_collection_boxes", "addr:city": "ORLANDO", "addr:country": "US", "addr:full": "11301 CORPORATE BLVD", "addr:postcode": "32817", "addr:state": "FL", "amenity": "post_box", "brand": "United States Postal Service", "brand:wikidata": "Q668687", "collection_times": "Mo-Fr 15:35; Sa 14:30", "name": "USPS COLLECTION BOX - BLUE BOX", "note": "ON 12/24 AND 12/31, THIS BOX MAY BE COLLECTED AS EARLY AS 12 NOON.", "nsi_id": "unitedstatespostalservice-a77078", "operator": "United States Postal Service", "operator:short": "USPS", "operator:type": "public", "operator:wikidata": "Q668687", "ref": "3281700002"}, "type": "Feature"}
{"dataset_attributes": {"@spider": "usps_collection_boxes", "spider:collection_time": "2023-12-01T08:26:07.800476"}, "geometry": {"coordinates": [-81.242391495, 28.597639465], "type": "Point"}, "id": "V-ogjAVmP321vSVwnkwh2_52L4k=", "properties": {"@spider": "usps_collection_boxes", "addr:city": "ORLANDO", "addr:country": "US", "addr:full": "10151 UNIVERSITY BLVD", "addr:postcode": "32817", "addr:state": "FL", "amenity": "post_box", "brand": "United States Postal Service", "brand:wikidata": "Q668687", "collection_times": "Mo-Fr 15:45; Sa 14:15", "name": "USPS COLLECTION BOX - BLUE BOX", "note": "ON 12/24 AND 12/31, THIS BOX MAY BE COLLECTED AS EARLY AS 12 NOON.", "nsi_id": "unitedstatespostalservice-a77078", "operator": "United States Postal Service", "operator:short": "USPS", "operator:type": "public", "operator:wikidata": "Q668687", "ref": "3281700005"}, "type": "Feature"}
{"dataset_attributes": {"@spider": "usps_collection_boxes", "spider:collection_time": "2023-12-01T08:26:07.800476"}, "geometry": {"coordinates": [-81.253200745, 28.569049669], "type": "Point"}, "id": "ZwEa5bQsUBqgGU9PweUG6WUi6YI=", "properties": {"@spider": "usps_collection_boxes", "addr:city": "ORLANDO", "addr:country": "US", "addr:full": "1801 N ECONLOCKHATCHEE TRL", "addr:postcode": "32817", "addr:state": "FL", "amenity": "post_box", "brand": "United States Postal Service", "brand:wikidata": "Q668687", "collection_times": "Mo-Fr 17:00; Sa 15:00", "name": "USPS COLLECTION BOX - BLUE BOX", "note": "ON 12/24 AND 12/31, THIS BOX MAY BE COLLECTED AS EARLY AS 12 NOON.", "nsi_id": "unitedstatespostalservice-a77078", "operator": "United States Postal Service", "operator:short": "USPS", "operator:type": "public", "operator:wikidata": "Q668687", "ref": "3281700009"}, "type": "Feature"}
{"dataset_attributes": {"@spider": "usps_collection_boxes", "spider:collection_time": "2023-12-01T08:26:07.800476"}, "geometry": {"coordinates": [-81.253200745, 28.569049669], "type": "Point"}, "id": "zCT18ml2S5fYsir9gTRbw-qdzaY=", "properties": {"@spider": "usps_collection_boxes", "addr:city": "ORLANDO", "addr:country": "US", "addr:full": "1801 N ECONLOCKHATCHEE TRL", "addr:postcode": "32817", "addr:state": "FL", "amenity": "post_box", "brand": "United States Postal Service", "brand:wikidata": "Q668687", "collection_times": "Mo-Fr 17:00; Sa 15:00", "name": "USPS COLLECTION BOX - PO LOBBY", "note": "ON 12/24 AND 12/31, THIS BOX MAY BE COLLECTED AS EARLY AS 12 NOON.", "nsi_id": "unitedstatespostalservice-a77078", "operator": "United States Postal Service", "operator:short": "USPS", "operator:type": "public", "operator:wikidata": "Q668687", "ref": "3281700017"}, "type": "Feature"}
{"dataset_attributes": {"@spider": "usps_collection_boxes", "spider:collection_time": "2023-12-01T08:26:07.800476"}, "geometry": {"coordinates": [-81.215872627, 28.600832502], "type": "Point"}, "id": "apN8u67stAzlp5L0MfgX4lTNx7A=", "properties": {"@spider": "usps_collection_boxes", "addr:city": "ORLANDO", "addr:country": "US", "addr:full": "3501 QUADRANGLE BLVD", "addr:postcode": "32817", "addr:state": "FL", "amenity": "post_box", "brand": "United States Postal Service", "brand:wikidata": "Q668687", "collection_times": "Mo-Fr 15:40; Sa 14:30", "name": "USPS COLLECTION BOX - BLUE BOX", "note": "ON 12/24 AND 12/31, THIS BOX MAY BE COLLECTED AS EARLY AS 12 NOON.", "nsi_id": "unitedstatespostalservice-a77078", "operator": "United States Postal Service", "operator:short": "USPS", "operator:type": "public", "operator:wikidata": "Q668687", "ref": "3281700022"}, "type": "Feature"}
{"dataset_attributes": {"@spider": "usps_collection_boxes", "spider:collection_time": "2023-12-01T08:26:07.800476"}, "geometry": {"coordinates": [-81.253200745, 28.569049669], "type": "Point"}, "id": "03AZWoUFa1HqOZV50cX_3igWiDs=", "properties": {"@spider": "usps_collection_boxes", "addr:city": "ORLANDO", "addr:country": "US", "addr:full": "1801 N ECONLOCKHATCHEE TRL", "addr:postcode": "32817", "addr:state": "FL", "amenity": "post_box", "brand": "United States Postal Service", "brand:wikidata": "Q668687", "collection_times": "Mo-Fr 17:00; Sa 12:00", "name": "USPS COLLECTION BOX - PO LOBBY", "note": "ON 12/24 AND 12/31, THIS BOX MAY BE COLLECTED AS EARLY AS 12 NOON.", "nsi_id": "unitedstatespostalservice-a77078", "operator": "United States Postal Service", "operator:short": "USPS", "operator:type": "public", "operator:wikidata": "Q668687", "ref": "3281700026"}, "type": "Feature"}
{"dataset_attributes": {"@spider": "usps_collection_boxes", "spider:collection_time": "2023-12-01T08:26:07.800476"}, "geometry": {"coordinates": [-81.476090821, 28.582884], "type": "Point"}, "id": "fuPOexKZExvizk-b3SIR9OG9_CU=", "properties": {"@spider": "usps_collection_boxes", "addr:city": "ORLANDO", "addr:country": "US", "addr:full": "3200 N HIAWASSEE RD", "addr:postcode": "32818", "addr:state": "FL", "amenity": "post_box", "brand": "United States Postal Service", "brand:wikidata": "Q668687", "collection_times": "Mo-Fr 17:00; Sa 15:00", "name": "USPS COLLECTION BOX - PO LOBBY", "note": "ON 12/24 AND 12/31, THIS BOX MAY BE COLLECTED AS EARLY AS 12 NOON.", "nsi_id": "unitedstatespostalservice-a77078", "operator": "United States Postal Service", "operator:short": "USPS", "operator:type": "public", "operator:wikidata": "Q668687", "ref": "3281800006"}, "type": "Feature"}
{"dataset_attributes": {"@spider": "usps_collection_boxes", "spider:collection_time": "2023-12-01T08:26:07.800476"}, "geometry": {"coordinates": [-81.476090821, 28.582884], "type": "Point"}, "id": "L6jJSwhgt8gsrjMuHzX-BoMf18M=", "properties": {"@spider": "usps_collection_boxes", "addr:city": "ORLANDO", "addr:country": "US", "addr:full": "3200 N HIAWASSEE RD", "addr:postcode": "32818", "addr:state": "FL", "amenity": "post_box", "brand": "United States Postal Service", "brand:wikidata": "Q668687", "collection_times": "Mo-Fr 17:00; Sa 15:00", "name": "USPS COLLECTION BOX - BLUE BOX", "note": "ON 12/24 AND 12/31, THIS BOX MAY BE COLLECTED AS EARLY AS 12 NOON.", "nsi_id": "unitedstatespostalservice-a77078", "operator": "United States Postal Service", "operator:short": "USPS", "operator:type": "public", "operator:wikidata": "Q668687", "ref": "3281800008"}, "type": "Feature"}
{"dataset_attributes": {"@spider": "usps_collection_boxes", "spider:collection_time": "2023-12-01T08:26:07.800476"}, "geometry": {"coordinates": [-81.476090821, 28.582884], "type": "Point"}, "id": "T4knlht4DkBKM8x7PlS8ccppq8U=", "properties": {"@spider": "usps_collection_boxes", "addr:city": "ORLANDO", "addr:country": "US", "addr:full": "3200 N HIAWASSEE RD", "addr:postcode": "32818", "addr:state": "FL", "amenity": "post_box", "brand": "United States Postal Service", "brand:wikidata": "Q668687", "collection_times": "Mo-Fr 17:00; Sa 15:00", "name": "USPS COLLECTION BOX - PO LOBBY", "note": "ON 12/24 AND 12/31, THIS BOX MAY BE COLLECTED AS EARLY AS 12 NOON.", "nsi_id": "unitedstatespostalservice-a77078", "operator": "United States Postal Service", "operator:short": "USPS", "operator:type": "public", "operator:wikidata": "Q668687", "ref": "3281800011"}, "type": "Feature"}
{"dataset_attributes": {"@spider": "usps_collection_boxes", "spider:collection_time": "2023-12-01T08:26:07.800476"}, "geometry": {"coordinates": [-81.476090821, 28.582884], "type": "Point"}, "id": "g5u5mmJh8uYfc4HK8px-YrncRjU=", "properties": {"@spider": "usps_collection_boxes", "addr:city": "ORLANDO", "addr:country": "US", "addr:full": "3200 N HIAWASSEE RD", "addr:postcode": "32818", "addr:state": "FL", "amenity": "post_box", "brand": "United States Postal Service", "brand:wikidata": "Q668687", "collection_times": "Mo-Fr 17:00; Sa 14:00", "name": "USPS COLLECTION BOX - PO LOBBY", "note": "ON 12/24 AND 12/31, THIS BOX MAY BE COLLECTED AS EARLY AS 12 NOON.", "nsi_id": "unitedstatespostalservice-a77078", "operator": "United States Postal Service", "operator:short": "USPS", "operator:type": "public", "operator:wikidata": "Q668687", "ref": "3281800014"}, "type": "Feature"}
{"dataset_attributes": {"@spider": "usps_collection_boxes", "spider:collection_time": "2023-12-01T08:26:07.800476"}, "geometry": {"coordinates": [-81.475148689, 28.4157419], "type": "Point"}, "id": "7uHGdlCxxJgDPjOndKaKFY-nNwo=", "properties": {"@spider": "usps_collection_boxes", "addr:city": "ORLANDO", "addr:country": "US", "addr:full": "10450 TURKEY LAKE RD", "addr:postcode": "32819", "addr:state": "FL", "amenity": "post_box", "brand": "United States Postal Service", "brand:wikidata": "Q668687", "collection_times": "Mo-Sa 17:00", "name": "USPS COLLECTION BOX - PO LOBBY", "note": "ON 12/24 AND 12/31, THIS BOX MAY BE COLLECTED AS EARLY AS 12 NOON.", "nsi_id": "unitedstatespostalservice-a77078", "operator": "United States Postal Service", "operator:short": "USPS", "operator:type": "public", "operator:wikidata": "Q668687", "ref": "3281900015"}, "type": "Feature"}
{"dataset_attributes": {"@spider": "usps_collection_boxes", "spider:collection_time": "2023-12-01T08:26:07.800476"}, "geometry": {"coordinates": [-81.456063666, 28.449951834], "type": "Point"}, "id": "W-SjgJaKaMQLKZwi_oQnkhroOzo=", "properties": {"@spider": "usps_collection_boxes", "addr:city": "ORLANDO", "addr:country": "US", "addr:full": "5600 W SAND LAKE RD", "addr:postcode": "32819", "addr:state": "FL", "amenity": "post_box", "brand": "United States Postal Service", "brand:wikidata": "Q668687", "collection_times": "Mo-Fr 15:15", "name": "USPS COLLECTION BOX - BLUE BOX", "note": "ON 12/24 AND 12/31, THIS BOX MAY BE COLLECTED AS EARLY AS 12 NOON.", "nsi_id": "unitedstatespostalservice-a77078", "operator": "United States Postal Service", "operator:short": "USPS", "operator:type": "public", "operator:wikidata": "Q668687", "ref": "3281900017"}, "type": "Feature"}
{"dataset_attributes": {"@spider": "usps_collection_boxes", "spider:collection_time": "2023-12-01T08:26:07.800476"}, "geometry": {"coordinates": [-81.481279249, 28.449895531], "type": "Point"}, "id": "Qa-yrxqv1bWv4LBYnVKGyWeHYoo=", "properties": {"@spider": "usps_collection_boxes", "addr:city": "ORLANDO", "addr:country": "US", "addr:full": "7380 W SAND LAKE RD", "addr:postcode": "32819", "addr:state": "FL", "amenity": "post_box", "brand": "United States Postal Service", "brand:wikidata": "Q668687", "collection_times": "Mo-Fr 15:30", "name": "USPS COLLECTION BOX - BLUE BOX", "note": "ON 12/24 AND 12/31, THIS BOX MAY BE COLLECTED AS EARLY AS 12 NOON.", "nsi_id": "unitedstatespostalservice-a77078", "operator": "United States Postal Service", "operator:short": "USPS", "operator:type": "public", "operator:wikidata": "Q668687", "ref": "3281900018"}, "type": "Feature"}
{"dataset_attributes": {"@spider": "usps_collection_boxes", "spider:collection_time": "2023-12-01T08:26:07.800476"}, "geometry": {"coordinates": [-81.478659526, 28.449906499], "type": "Point"}, "id": "pA7sHgmNTCJDMPvDqSLMY_xwsjE=", "properties": {"@spider": "usps_collection_boxes", "addr:city": "ORLANDO", "addr:country": "US", "addr:full": "7208 W SAND LAKE RD", "addr:postcode": "32819", "addr:state": "FL", "amenity": "post_box", "brand": "United States Postal Service", "brand:wikidata": "Q668687", "collection_times": "Mo-Fr 15:30", "name": "USPS COLLECTION BOX - BLUE BOX", "note": "ON 12/24 AND 12/31, THIS BOX MAY BE COLLECTED AS EARLY AS 12 NOON.", "nsi_id": "unitedstatespostalservice-a77078", "operator": "United States Postal Service", "operator:short": "USPS", "operator:type": "public", "operator:wikidata": "Q668687", "ref": "3281900019"}, "type": "Feature"}
{"dataset_attributes": {"@spider": "usps_collection_boxes", "spider:collection_time": "2023-12-01T08:26:07.800476"}, "geometry": {"coordinates": [-81.475148689, 28.4157419], "type": "Point"}, "id": "560eH8pUu6bC6n5eFS--WU-aawQ=", "properties": {"@spider": "usps_collection_boxes", "addr:city": "ORLANDO", "addr:country": "US", "addr:full": "10450 TURKEY LAKE RD", "addr:postcode": "32819", "addr:state": "FL", "amenity": "post_box", "brand": "United States Postal Service", "brand:wikidata": "Q668687", "collection_times": "Mo-Sa 17:00", "name": "USPS COLLECTION BOX - BLUE BOX", "note": "ON 12/24 AND 12/31, THIS BOX MAY BE COLLECTED AS EARLY AS 12 NOON.", "nsi_id": "unitedstatespostalservice-a77078", "operator": "United States Postal Service", "operator:short": "USPS", "operator:type": "public", "operator:wikidata": "Q668687", "ref": "3281900024"}, "type": "Feature"}
{"dataset_attributes": {"@spider": "usps_collection_boxes", "spider:collection_time": "2023-12-01T08:26:07.800476"}, "geometry": {"coordinates": [-81.474783114, 28.477663531], "type": "Point"}, "id": "hp7vsmLFfXeRGJXE25tQdsJbKSE=", "properties": {"@spider": "usps_collection_boxes", "addr:city": "ORLANDO", "addr:country": "US", "addr:full": "1000 UNIVERSAL STUDIOS PLZ", "addr:postcode": "32819", "addr:state": "FL", "amenity": "post_box", "brand": "United States Postal Service", "brand:wikidata": "Q668687", "collection_times": "Mo-Sa 15:30", "name": "USPS COLLECTION BOX - BLUE BOX", "note": "ON 12/24 AND 12/31, THIS BOX MAY BE COLLECTED AS EARLY AS 12 NOON.", "nsi_id": "unitedstatespostalservice-a77078", "operator": "United States Postal Service", "operator:short": "USPS", "operator:type": "public", "operator:wikidata": "Q668687", "ref": "3281900026"}, "type": "Feature"}
{"dataset_attributes": {"@spider": "usps_collection_boxes", "spider:collection_time": "2023-12-01T08:26:07.800476"}, "geometry": {"coordinates": [-81.500688806, 28.462731238], "type": "Point"}, "id": "6eu_umqzK6qDMpdVCf_IBmPA6KQ=", "properties": {"@spider": "usps_collection_boxes", "addr:city": "ORLANDO", "addr:country": "US", "addr:full": "6080 S APOPKA VINELAND RD", "addr:postcode": "32819", "addr:state": "FL", "amenity": "post_box", "brand": "United States Postal Service", "brand:wikidata": "Q668687", "collection_times": "Mo-Sa 15:00", "name": "USPS COLLECTION BOX - BLUE BOX", "note": "ON 12/24 AND 12/31, THIS BOX MAY BE COLLECTED AS EARLY AS 12 NOON.", "nsi_id": "unitedstatespostalservice-a77078", "operator": "United States Postal Service", "operator:short": "USPS", "operator:type": "public", "operator:wikidata": "Q668687", "ref": "3281900029"}, "type": "Feature"}
{"dataset_attributes": {"@spider": "usps_collection_boxes", "spider:collection_time": "2023-12-01T08:26:07.800476"}, "geometry": {"coordinates": [-81.487967278, 28.453131], "type": "Point"}, "id": "2jl5KU7i1ihxpIiw76yWPKFw6M8=", "properties": {"@spider": "usps_collection_boxes", "addr:city": "ORLANDO", "addr:country": "US", "addr:full": "7575 DR PHILLIPS BLVD", "addr:postcode": "32819", "addr:state": "FL", "amenity": "post_box", "brand": "United States Postal Service", "brand:wikidata": "Q668687", "collection_times": "Mo-Fr 15:30", "name": "USPS COLLECTION BOX - BLUE BOX", "note": "ON 12/24 AND 12/31, THIS BOX MAY BE COLLECTED AS EARLY AS 12 NOON.", "nsi_id": "unitedstatespostalservice-a77078", "operator": "United States Postal Service", "operator:short": "USPS", "operator:type": "public", "operator:wikidata": "Q668687", "ref": "3281900038"}, "type": "Feature"}
{"dataset_attributes": {"@spider": "usps_collection_boxes", "spider:collection_time": "2023-12-01T08:26:07.800476"}, "geometry": {"coordinates": [-81.488150254, 28.451510066], "type": "Point"}, "id": "_t1hfHEVJwqP4z8GXjt57cpRIzA=", "properties": {"@spider": "usps_collection_boxes", "addr:city": "ORLANDO", "addr:country": "US", "addr:full": "7600 DR PHILLIPS BLVD", "addr:postcode": "32819", "addr:state": "FL", "amenity": "post_box", "brand": "United States Postal Service", "brand:wikidata": "Q668687", "collection_times": "Mo-Sa 15:30", "name": "USPS COLLECTION BOX - BLUE BOX", "note": "ON 12/24 AND 12/31, THIS BOX MAY BE COLLECTED AS EARLY AS 12 NOON.", "nsi_id": "unitedstatespostalservice-a77078", "operator": "United States Postal Service", "operator:short": "USPS", "operator:type": "public", "operator:wikidata": "Q668687", "ref": "3281900039"}, "type": "Feature"}
{"dataset_attributes": {"@spider": "usps_collection_boxes", "spider:collection_time": "2023-12-01T08:26:07.800476"}, "geometry": {"coordinates": [-81.458707717, 28.484504193], "type": "Point"}, "id": "pcL0DgEfNZf3Js2hUcjyyNNRbmw=", "properties": {"@spider": "usps_collection_boxes", "addr:city": "ORLANDO", "addr:country": "US", "addr:full": "5401 S KIRKMAN RD", "addr:postcode": "32819", "addr:state": "FL", "amenity": "post_box", "brand": "United States Postal Service", "brand:wikidata": "Q668687", "collection_times": "Mo-Fr 15:00", "name": "USPS COLLECTION BOX - BLUE BOX", "note": "ON 12/24 AND 12/31, THIS BOX MAY BE COLLECTED AS EARLY AS 12 NOON.", "nsi_id": "unitedstatespostalservice-a77078", "operator": "United States Postal Service", "operator:short": "USPS", "operator:type": "public", "operator:wikidata": "Q668687", "ref": "3281900052"}, "type": "Feature"}
{"dataset_attributes": {"@spider": "usps_collection_boxes", "spider:collection_time": "2023-12-01T08:26:07.800476"}, "geometry": {"coordinates": [-81.490032031, 28.4520959893], "type": "Point"}, "id": "NuUj5-MREbgNwROAeM4wA50Qc8U=", "properties": {"@spider": "usps_collection_boxes", "addr:city": "ORLANDO", "addr:country": "US", "addr:full": "7600 DR PHILLIPS BLVD", "addr:postcode": "32819", "addr:state": "FL", "amenity": "post_box", "brand": "United States Postal Service", "brand:wikidata": "Q668687", "collection_times": "Mo-Sa 15:30", "name": "USPS COLLECTION BOX - BLUE BOX", "note": "ON 12/24 AND 12/31, THIS BOX MAY BE COLLECTED AS EARLY AS 12 NOON.", "nsi_id": "unitedstatespostalservice-a77078", "operator": "United States Postal Service", "operator:short": "USPS", "operator:type": "public", "operator:wikidata": "Q668687", "ref": "3281900064"}, "type": "Feature"}
{"dataset_attributes": {"@spider": "usps_collection_boxes", "spider:collection_time": "2023-12-01T08:26:07.800476"}, "geometry": {"coordinates": [-81.4286090254, 28.4437240187], "type": "Point"}, "id": "tEJ30IE5aoBN4o9Kx0u2jRdZGk4=", "properties": {"@spider": "usps_collection_boxes", "addr:city": "ORLANDO", "addr:country": "US", "addr:full": "8801 COMMODITY CIR", "addr:postcode": "32819", "addr:state": "FL", "amenity": "post_box", "brand": "United States Postal Service", "brand:wikidata": "Q668687", "collection_times": "Mo-Fr 15:00", "name": "USPS COLLECTION BOX - BLUE BOX", "note": "ON 12/24 AND 12/31, THIS BOX MAY BE COLLECTED AS EARLY AS 12 NOON.", "nsi_id": "unitedstatespostalservice-a77078", "operator": "United States Postal Service", "operator:short": "USPS", "operator:type": "public", "operator:wikidata": "Q668687", "ref": "3281900077"}, "type": "Feature"}
{"dataset_attributes": {"@spider": "usps_collection_boxes", "spider:collection_time": "2023-12-01T08:26:07.800476"}, "geometry": {"coordinates": [-81.4559949662, 28.4601189794], "type": "Point"}, "id": "GaPrOpA572PlVsZcZv9NCNitzqI=", "properties": {"@spider": "usps_collection_boxes", "addr:city": "ORLANDO", "addr:country": "US", "addr:full": "7011 GRAND NATIONAL DR", "addr:postcode": "32819", "addr:state": "FL", "amenity": "post_box", "brand": "United States Postal Service", "brand:wikidata": "Q668687", "collection_times": "Mo-Fr 15:45", "name": "USPS COLLECTION BOX - BLUE BOX", "note": "ON 12/24 AND 12/31, THIS BOX MAY BE COLLECTED AS EARLY AS 12 NOON.", "nsi_id": "unitedstatespostalservice-a77078", "operator": "United States Postal Service", "operator:short": "USPS", "operator:type": "public", "operator:wikidata": "Q668687", "ref": "3281900083"}, "type": "Feature"}
{"dataset_attributes": {"@spider": "usps_collection_boxes", "spider:collection_time": "2023-12-01T08:26:07.800476"}, "geometry": {"coordinates": [-81.423563276, 28.440069476], "type": "Point"}, "id": "f8vmoT4-daZ7JoeCt4B4MT2CYy0=", "properties": {"@spider": "usps_collection_boxes", "addr:city": "ORLANDO", "addr:country": "US", "addr:full": "8517 SOUTHPARK CIR", "addr:postcode": "32819", "addr:state": "FL", "amenity": "post_box", "brand": "United States Postal Service", "brand:wikidata": "Q668687", "collection_times": "Mo-Fr 12:00", "name": "USPS COLLECTION BOX - BLUE BOX", "nsi_id": "unitedstatespostalservice-a77078", "operator": "United States Postal Service", "operator:short": "USPS", "operator:type": "public", "operator:wikidata": "Q668687", "ref": "3281900087"}, "type": "Feature"}
{"dataset_attributes": {"@spider": "usps_collection_boxes", "spider:collection_time": "2023-12-01T08:26:07.800476"}, "geometry": {"coordinates": [-81.4702710237, 28.4555199968], "type": "Point"}, "id": "thWHOwNte3FQKFfnlBgSKVuUaYo=", "properties": {"@spider": "usps_collection_boxes", "addr:city": "ORLANDO", "addr:country": "US", "addr:full": "6500 CARRIER DR", "addr:postcode": "32819", "addr:state": "FL", "amenity": "post_box", "brand": "United States Postal Service", "brand:wikidata": "Q668687", "collection_times": "Mo-Fr 15:15", "name": "USPS COLLECTION BOX - BLUE BOX", "note": "ON 12/24 AND 12/31, THIS BOX MAY BE COLLECTED AS EARLY AS 12 NOON.", "nsi_id": "unitedstatespostalservice-a77078", "operator": "United States Postal Service", "operator:short": "USPS", "operator:type": "public", "operator:wikidata": "Q668687", "ref": "3281900089"}, "type": "Feature"}
{"dataset_attributes": {"@spider": "usps_collection_boxes", "spider:collection_time": "2023-12-01T08:26:07.800476"}, "geometry": {"coordinates": [-81.475148689, 28.4157419], "type": "Point"}, "id": "ASq2v4pz0xBkX2m6PfIS_Pkc5ys=", "properties": {"@spider": "usps_collection_boxes", "addr:city": "ORLANDO", "addr:country": "US", "addr:full": "10450 TURKEY LAKE RD", "addr:postcode": "32819", "addr:state": "FL", "amenity": "post_box", "brand": "United States Postal Service", "brand:wikidata": "Q668687", "collection_times": "Mo-Sa 17:00", "name": "USPS COLLECTION BOX - APC", "note": "ON 12/24 AND 12/31, THIS BOX MAY BE COLLECTED AS EARLY AS 12 NOON.", "nsi_id": "unitedstatespostalservice-a77078", "operator": "United States Postal Service", "operator:short": "USPS", "operator:type": "public", "operator:wikidata": "Q668687", "ref": "3281900090"}, "type": "Feature"}
{"dataset_attributes": {"@spider": "usps_collection_boxes", "spider:collection_time": "2023-12-01T08:26:07.800476"}, "geometry": {"coordinates": [-81.4559949662, 28.4601189794], "type": "Point"}, "id": "BTJ9v-xk4gtSJrSWcr6s135n0cA=", "properties": {"@spider": "usps_collection_boxes", "addr:city": "ORLANDO", "addr:country": "US", "addr:full": "7011 GRAND NATIONAL DR", "addr:postcode": "32819", "addr:state": "FL", "amenity": "post_box", "brand": "United States Postal Service", "brand:wikidata": "Q668687", "collection_times": "Mo-Fr 15:45", "name": "USPS COLLECTION BOX - BLUE BOX", "note": "ON 12/24 AND 12/31, THIS BOX MAY BE COLLECTED AS EARLY AS 12 NOON.", "nsi_id": "unitedstatespostalservice-a77078", "operator": "United States Postal Service", "operator:short": "USPS", "operator:type": "public", "operator:wikidata": "Q668687", "ref": "3281900091"}, "type": "Feature"}
{"dataset_attributes": {"@spider": "usps_collection_boxes", "spider:collection_time": "2023-12-01T08:26:07.800476"}, "geometry": {"coordinates": [-81.4702314494, 28.428292773], "type": "Point"}, "id": "rrBghrxcQlf5G4uLek05nkFqnAM=", "properties": {"@spider": "usps_collection_boxes", "addr:city": "ORLANDO", "addr:country": "US", "addr:full": "9804 INTERNATIONAL DR", "addr:postcode": "32819", "addr:state": "FL", "amenity": "post_box", "brand": "United States Postal Service", "brand:wikidata": "Q668687", "collection_times": "Mo-Fr 11:00", "name": "USPS COLLECTION BOX - BLUE BOX", "nsi_id": "unitedstatespostalservice-a77078", "operator": "United States Postal Service", "operator:short": "USPS", "operator:type": "public", "operator:wikidata": "Q668687", "ref": "3281900094"}, "type": "Feature"}
{"dataset_attributes": {"@spider": "usps_collection_boxes", "spider:collection_time": "2023-12-01T08:26:07.800476"}, "geometry": {"coordinates": [-81.471244857, 28.439068948], "type": "Point"}, "id": "3JkG9sy65FP7iQ9DDIjnPhtb4wM=", "properties": {"@spider": "usps_collection_boxes", "addr:city": "ORLANDO", "addr:country": "US", "addr:full": "8723 INTERNATIONAL DR STE 109", "addr:postcode": "32819", "addr:state": "FL", "amenity": "post_box", "brand": "United States Postal Service", "brand:wikidata": "Q668687", "collection_times": "Mo-Sa 11:00", "name": "USPS COLLECTION BOX - BLUE BOX", "nsi_id": "unitedstatespostalservice-a77078", "operator": "United States Postal Service", "operator:short": "USPS", "operator:type": "public", "operator:wikidata": "Q668687", "ref": "3281900095"}, "type": "Feature"}
{"dataset_attributes": {"@spider": "usps_collection_boxes", "spider:collection_time": "2023-12-01T08:26:07.800476"}, "geometry": {"coordinates": [-81.475148689, 28.4157419], "type": "Point"}, "id": "SXBALRrpOBClmr6lbfdBo7YkkUY=", "properties": {"@spider": "usps_collection_boxes", "addr:city": "ORLANDO", "addr:country": "US", "addr:full": "10450 TURKEY LAKE RD", "addr:postcode": "32819", "addr:state": "FL", "amenity": "post_box", "brand": "United States Postal Service", "brand:wikidata": "Q668687", "collection_times": "Mo-Fr 18:00; Sa 17:00", "name": "USPS COLLECTION BOX - PO LOBBY", "note": "ON 12/24 AND 12/31, THIS BOX MAY BE COLLECTED AS EARLY AS 12 NOON.", "nsi_id": "unitedstatespostalservice-a77078", "operator": "United States Postal Service", "operator:short": "USPS", "operator:type": "public", "operator:wikidata": "Q668687", "ref": "3281900100"}, "type": "Feature"}
{"dataset_attributes": {"@spider": "usps_collection_boxes", "spider:collection_time": "2023-12-01T08:26:07.800476"}, "geometry": {"coordinates": [-81.4760230209, 28.4155379834], "type": "Point"}, "id": "omu4jnLUdsJD8UnorzlKtHWpbqY=", "properties": {"@spider": "usps_collection_boxes", "addr:city": "ORLANDO", "addr:country": "US", "addr:full": "10450 TURKEY LAKE RD", "addr:postcode": "32819", "addr:state": "FL", "amenity": "post_box", "brand": "United States Postal Service", "brand:wikidata": "Q668687", "collection_times": "Mo-Sa 17:00", "name": "USPS COLLECTION BOX - PO LOBBY", "note": "ON 12/24 AND 12/31, THIS BOX MAY BE COLLECTED AS EARLY AS 12 NOON.", "nsi_id": "unitedstatespostalservice-a77078", "operator": "United States Postal Service", "operator:short": "USPS", "operator:type": "public", "operator:wikidata": "Q668687", "ref": "3281900105"}, "type": "Feature"}
{"dataset_attributes": {"@spider": "usps_collection_boxes", "spider:collection_time": "2023-12-01T08:26:07.800476"}, "geometry": {"coordinates": [-81.447090569, 28.408330212], "type": "Point"}, "id": "m3L9_Ofrx7OYrtdpkY325IHM1hw=", "properties": {"@spider": "usps_collection_boxes", "addr:city": "ORLANDO", "addr:country": "US", "addr:full": "5334 CENTRAL FLORIDA PKWY", "addr:postcode": "32821", "addr:state": "FL", "amenity": "post_box", "brand": "United States Postal Service", "brand:wikidata": "Q668687", "collection_times": "Mo-Sa 15:00", "name": "USPS COLLECTION BOX - BLUE BOX", "note": "ON 12/24 AND 12/31, THIS BOX MAY BE COLLECTED AS EARLY AS 12 NOON.", "nsi_id": "unitedstatespostalservice-a77078", "operator": "United States Postal Service", "operator:short": "USPS", "operator:type": "public", "operator:wikidata": "Q668687", "ref": "3282100000"}, "type": "Feature"}
{"dataset_attributes": {"@spider": "usps_collection_boxes", "spider:collection_time": "2023-12-01T08:26:07.800476"}, "geometry": {"coordinates": [-81.505263087, 28.370224185], "type": "Point"}, "id": "bGElvmWlXJaG2LY26JRp9-j4xbw=", "properties": {"@spider": "usps_collection_boxes", "addr:city": "ORLANDO", "addr:country": "US", "addr:full": "13501 MEADOW CREEK DR", "addr:postcode": "32821", "addr:state": "FL", "amenity": "post_box", "brand": "United States Postal Service", "brand:wikidata": "Q668687", "collection_times": "Mo-Sa 14:15", "name": "USPS COLLECTION BOX - BLUE BOX", "note": "ON 12/24 AND 12/31, THIS BOX MAY BE COLLECTED AS EARLY AS 12 NOON.", "nsi_id": "unitedstatespostalservice-a77078", "operator": "United States Postal Service", "operator:short": "USPS", "operator:type": "public", "operator:wikidata": "Q668687", "ref": "3282100003"}, "type": "Feature"}
{"dataset_attributes": {"@spider": "usps_collection_boxes", "spider:collection_time": "2023-12-01T08:26:07.800476"}, "geometry": {"coordinates": [-81.504432562, 28.368147439], "type": "Point"}, "id": "X15ewIyEZUXNejlw74d1tvS6Seo=", "properties": {"@spider": "usps_collection_boxes", "addr:city": "ORLANDO", "addr:country": "US", "addr:full": "8800 VISTANA CENTRE DR", "addr:postcode": "32821", "addr:state": "FL", "amenity": "post_box", "brand": "United States Postal Service", "brand:wikidata": "Q668687", "collection_times": "Mo-Sa 14:15", "name": "USPS COLLECTION BOX - BLUE BOX", "note": "ON 12/24 AND 12/31, THIS BOX MAY BE COLLECTED AS EARLY AS 12 NOON.", "nsi_id": "unitedstatespostalservice-a77078", "operator": "United States Postal Service", "operator:short": "USPS", "operator:type": "public", "operator:wikidata": "Q668687", "ref": "3282100007"}, "type": "Feature"}
{"dataset_attributes": {"@spider": "usps_collection_boxes", "spider:collection_time": "2023-12-01T08:26:07.800476"}, "geometry": {"coordinates": [-81.442212443, 28.41601045], "type": "Point"}, "id": "GWTanI5nB4IwceeGJ8bPLL5Hxu8=", "properties": {"@spider": "usps_collection_boxes", "addr:city": "ORLANDO", "addr:country": "US", "addr:full": "5051 GATEWAY AVE", "addr:postcode": "32821", "addr:state": "FL", "amenity": "post_box", "brand": "United States Postal Service", "brand:wikidata": "Q668687", "collection_times": "Mo-Sa 15:30", "name": "USPS COLLECTION BOX - BLUE BOX", "note": "ON 12/24 AND 12/31, THIS BOX MAY BE COLLECTED AS EARLY AS 12 NOON.", "nsi_id": "unitedstatespostalservice-a77078", "operator": "United States Postal Service", "operator:short": "USPS", "operator:type": "public", "operator:wikidata": "Q668687", "ref": "3282100008"}, "type": "Feature"}
{"dataset_attributes": {"@spider": "usps_collection_boxes", "spider:collection_time": "2023-12-01T08:26:07.800476"}, "geometry": {"coordinates": [-81.311530444, 28.523874122], "type": "Point"}, "id": "x9tBsRxEvTARkXdbi4b0HulWkDQ=", "properties": {"@spider": "usps_collection_boxes", "addr:city": "ORLANDO", "addr:country": "US", "addr:full": "5660 CURRY FORD RD", "addr:postcode": "32822", "addr:state": "FL", "amenity": "post_box", "brand": "United States Postal Service", "brand:wikidata": "Q668687", "collection_times": "Mo-Sa 15:00", "name": "USPS COLLECTION BOX - BLUE BOX", "note": "ON 12/24 AND 12/31, THIS BOX MAY BE COLLECTED AS EARLY AS 12 NOON.", "nsi_id": "unitedstatespostalservice-a77078", "operator": "United States Postal Service", "operator:short": "USPS", "operator:type": "public", "operator:wikidata": "Q668687", "ref": "3282200001"}, "type": "Feature"}
{"dataset_attributes": {"@spider": "usps_collection_boxes", "spider:collection_time": "2023-12-01T08:26:07.800476"}, "geometry": {"coordinates": [-81.296995682, 28.459189043], "type": "Point"}, "id": "DtdSum6iquJg9K2uIkshfd3Iwa8=", "properties": {"@spider": "usps_collection_boxes", "addr:city": "ORLANDO", "addr:country": "US", "addr:full": "6301 HAZELTINE NATIONAL DR", "addr:postcode": "32822", "addr:state": "FL", "amenity": "post_box", "brand": "United States Postal Service", "brand:wikidata": "Q668687", "collection_times": "Mo-Fr 17:00; Sa 13:00", "name": "USPS COLLECTION BOX - BLUE BOX", "note": "ON 12/24 AND 12/31, THIS BOX MAY BE COLLECTED AS EARLY AS 12 NOON.", "nsi_id": "unitedstatespostalservice-a77078", "operator": "United States Postal Service", "operator:short": "USPS", "operator:type": "public", "operator:wikidata": "Q668687", "ref": "3282200008"}, "type": "Feature"}
{"dataset_attributes": {"@spider": "usps_collection_boxes", "spider:collection_time": "2023-12-01T08:26:07.800476"}, "geometry": {"coordinates": [-81.310239769, 28.478141832], "type": "Point"}, "id": "KTVWRL-wlfVMUVrUzqBB0D6_ivE=", "properties": {"@spider": "usps_collection_boxes", "addr:city": "ORLANDO", "addr:country": "US", "addr:full": "5800 S SEMORAN BLVD", "addr:postcode": "32822", "addr:state": "FL", "amenity": "post_box", "brand": "United States Postal Service", "brand:wikidata": "Q668687", "collection_times": "Mo-Sa 16:00", "name": "USPS COLLECTION BOX - BLUE BOX", "note": "ON 12/24 AND 12/31, THIS BOX MAY BE COLLECTED AS EARLY AS 12 NOON.", "nsi_id": "unitedstatespostalservice-a77078", "operator": "United States Postal Service", "operator:short": "USPS", "operator:type": "public", "operator:wikidata": "Q668687", "ref": "3282200011"}, "type": "Feature"}
{"dataset_attributes": {"@spider": "usps_collection_boxes", "spider:collection_time": "2023-12-01T08:26:07.800476"}, "geometry": {"coordinates": [-81.309989719, 28.482280386], "type": "Point"}, "id": "3ctYupXLZip_DEjsQ31t13dFH9Y=", "properties": {"@spider": "usps_collection_boxes", "addr:city": "ORLANDO", "addr:country": "US", "addr:full": "5575 S SEMORAN BLVD", "addr:postcode": "32822", "addr:state": "FL", "amenity": "post_box", "brand": "United States Postal Service", "brand:wikidata": "Q668687", "collection_times": "Mo-Sa 12:00", "name": "USPS COLLECTION BOX - BLUE BOX", "nsi_id": "unitedstatespostalservice-a77078", "operator": "United States Postal Service", "operator:short": "USPS", "operator:type": "public", "operator:wikidata": "Q668687", "ref": "3282200015"}, "type": "Feature"}
{"dataset_attributes": {"@spider": "usps_collection_boxes", "spider:collection_time": "2023-12-01T08:26:07.800476"}, "geometry": {"coordinates": [-81.310400903, 28.504764678], "type": "Point"}, "id": "qU2tdo-XhvtpEKCII8wxG1wDwLk=", "properties": {"@spider": "usps_collection_boxes", "addr:city": "ORLANDO", "addr:country": "US", "addr:full": "3936 S SEMORAN BLVD", "addr:postcode": "32822", "addr:state": "FL", "amenity": "post_box", "brand": "United States Postal Service", "brand:wikidata": "Q668687", "collection_times": "Mo-Sa 11:00", "name": "USPS COLLECTION BOX - BLUE BOX", "nsi_id": "unitedstatespostalservice-a77078", "operator": "United States Postal Service", "operator:short": "USPS", "operator:type": "public", "operator:wikidata": "Q668687", "ref": "3282200018"}, "type": "Feature"}
{"dataset_attributes": {"@spider": "usps_collection_boxes", "spider:collection_time": "2023-12-01T08:26:07.800476"}, "geometry": {"coordinates": [-81.303415281, 28.46156078], "type": "Point"}, "id": "MG4EVXDeKRfmhiM3UlDOYZKgzCE=", "properties": {"@spider": "usps_collection_boxes", "addr:city": "ORLANDO", "addr:country": "US", "addr:full": "5950 HAZELTINE NATIONAL DR", "addr:postcode": "32822", "addr:state": "FL", "amenity": "post_box", "brand": "United States Postal Service", "brand:wikidata": "Q668687", "collection_times": "Mo-Sa 13:00", "name": "USPS COLLECTION BOX - BLUE BOX", "note": "ON 12/24 AND 12/31, THIS BOX MAY BE COLLECTED AS EARLY AS 12 NOON.", "nsi_id": "unitedstatespostalservice-a77078", "operator": "United States Postal Service", "operator:short": "USPS", "operator:type": "public", "operator:wikidata": "Q668687", "ref": "3282200034"}, "type": "Feature"}
{"dataset_attributes": {"@spider": "usps_collection_boxes", "spider:collection_time": "2023-12-01T08:26:07.800476"}, "geometry": {"coordinates": [-81.305021288, 28.459120835], "type": "Point"}, "id": "TFKHKZHOORmBwI37Lw68hHhfxbQ=", "properties": {"@spider": "usps_collection_boxes", "addr:city": "ORLANDO", "addr:country": "US", "addr:full": "5850 T G LEE BLVD", "addr:postcode": "32822", "addr:state": "FL", "amenity": "post_box", "brand": "United States Postal Service", "brand:wikidata": "Q668687", "collection_times": "Mo-Sa 13:00", "name": "USPS COLLECTION BOX - BLUE BOX", "note": "ON 12/24 AND 12/31, THIS BOX MAY BE COLLECTED AS EARLY AS 12 NOON.", "nsi_id": "unitedstatespostalservice-a77078", "operator": "United States Postal Service", "operator:short": "USPS", "operator:type": "public", "operator:wikidata": "Q668687", "ref": "3282200036"}, "type": "Feature"}
{"dataset_attributes": {"@spider": "usps_collection_boxes", "spider:collection_time": "2023-12-01T08:26:07.800476"}, "geometry": {"coordinates": [-81.3119340228, 28.49776701], "type": "Point"}, "id": "PfwIBCRNAya_hP6mg6mBdwqO7xc=", "properties": {"@spider": "usps_collection_boxes", "addr:city": "ORLANDO", "addr:country": "US", "addr:full": "4530 S SEMORAN BLVD", "addr:postcode": "32822", "addr:state": "FL", "amenity": "post_box", "brand": "United States Postal Service", "brand:wikidata": "Q668687", "collection_times": "Mo-Sa 12:00", "name": "USPS COLLECTION BOX - BLUE BOX", "nsi_id": "unitedstatespostalservice-a77078", "operator": "United States Postal Service", "operator:short": "USPS", "operator:type": "public", "operator:wikidata": "Q668687", "ref": "3282200038"}, "type": "Feature"}
{"dataset_attributes": {"@spider": "usps_collection_boxes", "spider:collection_time": "2023-12-01T08:26:07.800476"}, "geometry": {"coordinates": [-81.275604961, 28.465208426], "type": "Point"}, "id": "OtEeQnar2R0WFEaldTcbgj14nJ4=", "properties": {"@spider": "usps_collection_boxes", "addr:city": "ORLANDO", "addr:country": "US", "addr:full": "7018 NARCOOSSEE RD", "addr:postcode": "32822", "addr:state": "FL", "amenity": "post_box", "brand": "United States Postal Service", "brand:wikidata": "Q668687", "collection_times": "Mo-Sa 10:30", "name": "USPS COLLECTION BOX - BLUE BOX", "nsi_id": "unitedstatespostalservice-a77078", "operator": "United States Postal Service", "operator:short": "USPS", "operator:type": "public", "operator:wikidata": "Q668687", "ref": "3282200039"}, "type": "Feature"}
{"dataset_attributes": {"@spider": "usps_collection_boxes", "spider:collection_time": "2023-12-01T08:26:07.800476"}, "geometry": {"coordinates": [-81.2870923, 28.5196959], "type": "Point"}, "id": "W8NZx7E77xLp8FYq88HsF1nGUfU=", "properties": {"@spider": "usps_collection_boxes", "addr:city": "ORLANDO", "addr:country": "US", "addr:full": "4079 S GOLDENROD RD", "addr:postcode": "32822", "addr:state": "FL", "amenity": "post_box", "brand": "United States Postal Service", "brand:wikidata": "Q668687", "collection_times": "Mo-Sa 11:30", "name": "USPS COLLECTION BOX - BLUE BOX", "nsi_id": "unitedstatespostalservice-a77078", "operator": "United States Postal Service", "operator:short": "USPS", "operator:type": "public", "operator:wikidata": "Q668687", "ref": "3282200040"}, "type": "Feature"}
{"dataset_attributes": {"@spider": "usps_collection_boxes", "spider:collection_time": "2023-12-01T08:26:07.800476"}, "geometry": {"coordinates": [-81.2255949719, 28.5433729871], "type": "Point"}, "id": "zcoiib36qP4w-nSENkDOu2xvNas=", "properties": {"@spider": "usps_collection_boxes", "addr:city": "ORLANDO", "addr:country": "US", "addr:full": "10967 LAKE UNDERHILL", "addr:postcode": "32825", "addr:state": "FL", "amenity": "post_box", "brand": "United States Postal Service", "brand:wikidata": "Q668687", "collection_times": "Mo-Fr 10:00", "name": "USPS COLLECTION BOX - BLUE BOX", "nsi_id": "unitedstatespostalservice-a77078", "operator": "United States Postal Service", "operator:short": "USPS", "operator:type": "public", "operator:wikidata": "Q668687", "ref": "3282500001"}, "type": "Feature"}
{"dataset_attributes": {"@spider": "usps_collection_boxes", "spider:collection_time": "2023-12-01T08:26:07.800476"}, "geometry": {"coordinates": [-81.269076296, 28.510631044], "type": "Point"}, "id": "mnOa86eiOtHqvKl77ze5QM_rnI4=", "properties": {"@spider": "usps_collection_boxes", "addr:city": "ORLANDO", "addr:country": "US", "addr:full": "2300 S CHICKASAW TRL", "addr:postcode": "32825", "addr:state": "FL", "amenity": "post_box", "brand": "United States Postal Service", "brand:wikidata": "Q668687", "collection_times": "Mo-Sa 15:45", "name": "USPS COLLECTION BOX - BLUE BOX", "note": "ON 12/24 AND 12/31, THIS BOX MAY BE COLLECTED AS EARLY AS 12 NOON.", "nsi_id": "unitedstatespostalservice-a77078", "operator": "United States Postal Service", "operator:short": "USPS", "operator:type": "public", "operator:wikidata": "Q668687", "ref": "3282500008"}, "type": "Feature"}
{"dataset_attributes": {"@spider": "usps_collection_boxes", "spider:collection_time": "2023-12-01T08:26:07.800476"}, "geometry": {"coordinates": [-81.238690101, 28.509963797], "type": "Point"}, "id": "yWrNfe3ghOYcRHiJcxbzmS10PZM=", "properties": {"@spider": "usps_collection_boxes", "addr:city": "ORLANDO", "addr:country": "US", "addr:full": "10250 CURRY FORD RD", "addr:postcode": "32825", "addr:state": "FL", "amenity": "post_box", "brand": "United States Postal Service", "brand:wikidata": "Q668687", "collection_times": "Mo-Sa 13:45", "name": "USPS COLLECTION BOX - BLUE BOX", "note": "ON 12/24 AND 12/31, THIS BOX MAY BE COLLECTED AS EARLY AS 12 NOON.", "nsi_id": "unitedstatespostalservice-a77078", "operator": "United States Postal Service", "operator:short": "USPS", "operator:type": "public", "operator:wikidata": "Q668687", "ref": "3282500010"}, "type": "Feature"}
{"dataset_attributes": {"@spider": "usps_collection_boxes", "spider:collection_time": "2023-12-01T08:26:07.800476"}, "geometry": {"coordinates": [-81.172949461, 28.5654335], "type": "Point"}, "id": "E6zAJQjyW4mlrj1OErLySVGy0BQ=", "properties": {"@spider": "usps_collection_boxes", "addr:city": "ORLANDO", "addr:country": "US", "addr:full": "14205 E COLONIAL DR", "addr:postcode": "32826", "addr:state": "FL", "amenity": "post_box", "brand": "United States Postal Service", "brand:wikidata": "Q668687", "collection_times": "Mo-Sa 09:45", "name": "USPS COLLECTION BOX - BLUE BOX", "nsi_id": "unitedstatespostalservice-a77078", "operator": "United States Postal Service", "operator:short": "USPS", "operator:type": "public", "operator:wikidata": "Q668687", "ref": "3282600003"}, "type": "Feature"}
{"dataset_attributes": {"@spider": "usps_collection_boxes", "spider:collection_time": "2023-12-01T08:26:07.800476"}, "geometry": {"coordinates": [-81.204264989, 28.566596751], "type": "Point"}, "id": "IilejFfdICtkbNYpGKWwWVW4RBE=", "properties": {"@spider": "usps_collection_boxes", "addr:city": "ORLANDO", "addr:country": "US", "addr:full": "11955 E COLONIAL DR", "addr:postcode": "32826", "addr:state": "FL", "amenity": "post_box", "brand": "United States Postal Service", "brand:wikidata": "Q668687", "collection_times": "Mo-Sa 12:00", "name": "USPS COLLECTION BOX - BLUE BOX", "nsi_id": "unitedstatespostalservice-a77078", "operator": "United States Postal Service", "operator:short": "USPS", "operator:type": "public", "operator:wikidata": "Q668687", "ref": "3282600004"}, "type": "Feature"}
{"dataset_attributes": {"@spider": "usps_collection_boxes", "spider:collection_time": "2023-12-01T08:26:07.800476"}, "geometry": {"coordinates": [-81.1958640261, 28.5863939852], "type": "Point"}, "id": "_cJBKX1NBrBwc7cLnSnnYs4N7xc=", "properties": {"@spider": "usps_collection_boxes", "addr:city": "ORLANDO", "addr:country": "US", "addr:full": "12424 RESEARCH PKWY", "addr:postcode": "32826", "addr:state": "FL", "amenity": "post_box", "brand": "United States Postal Service", "brand:wikidata": "Q668687", "collection_times": "Mo-Sa 10:00", "name": "USPS COLLECTION BOX - BLUE BOX", "nsi_id": "unitedstatespostalservice-a77078", "operator": "United States Postal Service", "operator:short": "USPS", "operator:type": "public", "operator:wikidata": "Q668687", "ref": "3282600006"}, "type": "Feature"}
{"dataset_attributes": {"@spider": "usps_collection_boxes", "spider:collection_time": "2023-12-01T08:26:07.800476"}, "geometry": {"coordinates": [-81.209599554, 28.593696513], "type": "Point"}, "id": "SGrYHepFfIjj1TuIjSXSNZVU3gk=", "properties": {"@spider": "usps_collection_boxes", "addr:city": "ORLANDO", "addr:country": "US", "addr:full": "12100 STERLING UNIVERSITY LN", "addr:postcode": "32826", "addr:state": "FL", "amenity": "post_box", "brand": "United States Postal Service", "brand:wikidata": "Q668687", "collection_times": "Mo-Sa 13:00", "name": "USPS COLLECTION BOX - BLUE BOX", "note": "ON 12/24 AND 12/31, THIS BOX MAY BE COLLECTED AS EARLY AS 12 NOON.", "nsi_id": "unitedstatespostalservice-a77078", "operator": "United States Postal Service", "operator:short": "USPS", "operator:type": "public", "operator:wikidata": "Q668687", "ref": "3282600012"}, "type": "Feature"}
{"dataset_attributes": {"@spider": "usps_collection_boxes", "spider:collection_time": "2023-12-01T08:26:07.800476"}, "geometry": {"coordinates": [-81.203606011, 28.596854987], "type": "Point"}, "id": "Z1Rl8i_pbwT7wlxjFJj4V8dmfx8=", "properties": {"@spider": "usps_collection_boxes", "addr:city": "ORLANDO", "addr:country": "US", "addr:full": "4000 CENTRAL FLORIDA BLVD", "addr:postcode": "32826", "addr:state": "FL", "amenity": "post_box", "brand": "United States Postal Service", "brand:wikidata": "Q668687", "collection_times": "Mo-Sa 13:00", "name": "USPS COLLECTION BOX - BLUE BOX", "note": "ON 12/24 AND 12/31, THIS BOX MAY BE COLLECTED AS EARLY AS 12 NOON.", "nsi_id": "unitedstatespostalservice-a77078", "operator": "United States Postal Service", "operator:short": "USPS", "operator:type": "public", "operator:wikidata": "Q668687", "ref": "3282600026"}, "type": "Feature"}
{"dataset_attributes": {"@spider": "usps_collection_boxes", "spider:collection_time": "2023-12-01T08:26:07.800476"}, "geometry": {"coordinates": [-81.199517792, 28.56604815], "type": "Point"}, "id": "xK9EfNv-Xobyi1Hci-0lY7_OBfA=", "properties": {"@spider": "usps_collection_boxes", "addr:city": "ORLANDO", "addr:country": "US", "addr:full": "12231 E COLONIAL DR", "addr:postcode": "32826", "addr:state": "FL", "amenity": "post_box", "brand": "United States Postal Service", "brand:wikidata": "Q668687", "collection_times": "Mo-Sa 14:15", "name": "USPS COLLECTION BOX - BLUE BOX", "note": "ON 12/24 AND 12/31, THIS BOX MAY BE COLLECTED AS EARLY AS 12 NOON.", "nsi_id": "unitedstatespostalservice-a77078", "operator": "United States Postal Service", "operator:short": "USPS", "operator:type": "public", "operator:wikidata": "Q668687", "ref": "3282600027"}, "type": "Feature"}
{"dataset_attributes": {"@spider": "usps_collection_boxes", "spider:collection_time": "2023-12-01T08:26:07.800476"}, "geometry": {"coordinates": [-81.336694861, 28.435750605], "type": "Point"}, "id": "A_J70OWXiNk1U8hxredajrU5b9I=", "properties": {"@spider": "usps_collection_boxes", "addr:city": "ORLANDO", "addr:country": "US", "addr:full": "8717 AVENUE C", "addr:postcode": "32827", "addr:state": "FL", "amenity": "post_box", "brand": "United States Postal Service", "brand:wikidata": "Q668687", "collection_times": "Mo-Sa 15:00", "name": "USPS COLLECTION BOX - BLUE BOX", "note": "ON 12/24 AND 12/31, THIS BOX MAY BE COLLECTED AS EARLY AS 12 NOON.", "nsi_id": "unitedstatespostalservice-a77078", "operator": "United States Postal Service", "operator:short": "USPS", "operator:type": "public", "operator:wikidata": "Q668687", "ref": "3282700005"}, "type": "Feature"}
{"dataset_attributes": {"@spider": "usps_collection_boxes", "spider:collection_time": "2023-12-01T08:26:07.800476"}, "geometry": {"coordinates": [-81.2089040043, 28.5573110024], "type": "Point"}, "id": "ha4A1J2clDrlOMcYxdygtHWmDxU=", "properties": {"@spider": "usps_collection_boxes", "addr:city": "ORLANDO", "addr:country": "US", "addr:full": "650 N ALAFAYA TRL", "addr:postcode": "32828", "addr:state": "FL", "amenity": "post_box", "brand": "United States Postal Service", "brand:wikidata": "Q668687", "collection_times": "Mo-Fr 17:00; Sa 15:00", "name": "USPS COLLECTION BOX - BLUE BOX", "note": "ON 12/24 AND 12/31, THIS BOX MAY BE COLLECTED AS EARLY AS 12 NOON.", "nsi_id": "unitedstatespostalservice-a77078", "operator": "United States Postal Service", "operator:short": "USPS", "operator:type": "public", "operator:wikidata": "Q668687", "ref": "3282800002"}, "type": "Feature"}
{"dataset_attributes": {"@spider": "usps_collection_boxes", "spider:collection_time": "2023-12-01T08:26:07.800476"}, "geometry": {"coordinates": [-81.194125406, 28.524709397], "type": "Point"}, "id": "6am8ZlfjdXbT6T8ej7baW1FbypY=", "properties": {"@spider": "usps_collection_boxes", "addr:city": "ORLANDO", "addr:country": "US", "addr:full": "1921 S ALAFAYA TRL", "addr:postcode": "32828", "addr:state": "FL", "amenity": "post_box", "brand": "United States Postal Service", "brand:wikidata": "Q668687", "collection_times": "Mo-Sa 10:00", "name": "USPS COLLECTION BOX - BLUE BOX", "nsi_id": "unitedstatespostalservice-a77078", "operator": "United States Postal Service", "operator:short": "USPS", "operator:type": "public", "operator:wikidata": "Q668687", "ref": "3282800008"}, "type": "Feature"}
{"dataset_attributes": {"@spider": "usps_collection_boxes", "spider:collection_time": "2023-12-01T08:26:07.800476"}, "geometry": {"coordinates": [-81.202187904, 28.546712556], "type": "Point"}, "id": "h27djxiQWKDObtaKflmhWrXR3PE=", "properties": {"@spider": "usps_collection_boxes", "addr:city": "ORLANDO", "addr:country": "US", "addr:full": "12500 LAKE UNDERHILL RD", "addr:postcode": "32828", "addr:state": "FL", "amenity": "post_box", "brand": "United States Postal Service", "brand:wikidata": "Q668687", "collection_times": "Mo-Sa 09:45", "name": "USPS COLLECTION BOX - BLUE BOX", "nsi_id": "unitedstatespostalservice-a77078", "operator": "United States Postal Service", "operator:short": "USPS", "operator:type": "public", "operator:wikidata": "Q668687", "ref": "3282800009"}, "type": "Feature"}
{"dataset_attributes": {"@spider": "usps_collection_boxes", "spider:collection_time": "2023-12-01T08:26:07.800476"}, "geometry": {"coordinates": [-81.206470021, 28.55439865], "type": "Point"}, "id": "p5k3DjiaCdKRcQrbC1y80v_3YEs=", "properties": {"@spider": "usps_collection_boxes", "addr:city": "ORLANDO", "addr:country": "US", "addr:full": "650 N ALAFAYA TRL", "addr:postcode": "32828", "addr:state": "FL", "amenity": "post_box", "brand": "United States Postal Service", "brand:wikidata": "Q668687", "collection_times": "Mo-Fr 17:00; Sa 15:00", "name": "USPS COLLECTION BOX - APC", "note": "ON 12/24 AND 12/31, THIS BOX MAY BE COLLECTED AS EARLY AS 12 NOON.", "nsi_id": "unitedstatespostalservice-a77078", "operator": "United States Postal Service", "operator:short": "USPS", "operator:type": "public", "operator:wikidata": "Q668687", "ref": "3282800011"}, "type": "Feature"}
{"dataset_attributes": {"@spider": "usps_collection_boxes", "spider:collection_time": "2023-12-01T08:26:07.800476"}, "geometry": {"coordinates": [-81.206470021, 28.55439865], "type": "Point"}, "id": "T3o5tF9itp5-9Uh7PpY61tNsVRo=", "properties": {"@spider": "usps_collection_boxes", "addr:city": "ORLANDO", "addr:country": "US", "addr:full": "650 N ALAFAYA TRL", "addr:postcode": "32828", "addr:state": "FL", "amenity": "post_box", "brand": "United States Postal Service", "brand:wikidata": "Q668687", "collection_times": "Mo-Fr 17:00; Sa 15:00", "name": "USPS COLLECTION BOX - APC", "note": "ON 12/24 AND 12/31, THIS BOX MAY BE COLLECTED AS EARLY AS 12 NOON.", "nsi_id": "unitedstatespostalservice-a77078", "operator": "United States Postal Service", "operator:short": "USPS", "operator:type": "public", "operator:wikidata": "Q668687", "ref": "3282800012"}, "type": "Feature"}
{"dataset_attributes": {"@spider": "usps_collection_boxes", "spider:collection_time": "2023-12-01T08:26:07.800476"}, "geometry": {"coordinates": [-81.206470021, 28.55439865], "type": "Point"}, "id": "bcQ_3Q_RQs8Qqk7Vj3rAKiYhYdM=", "properties": {"@spider": "usps_collection_boxes", "addr:city": "ORLANDO", "addr:country": "US", "addr:full": "650 N ALAFAYA TRL", "addr:postcode": "32828", "addr:state": "FL", "amenity": "post_box", "brand": "United States Postal Service", "brand:wikidata": "Q668687", "collection_times": "Mo-Fr 17:00; Sa 15:00", "name": "USPS COLLECTION BOX - PO LOBBY", "note": "ON 12/24 AND 12/31, THIS BOX MAY BE COLLECTED AS EARLY AS 12 NOON.", "nsi_id": "unitedstatespostalservice-a77078", "operator": "United States Postal Service", "operator:short": "USPS", "operator:type": "public", "operator:wikidata": "Q668687", "ref": "3282800013"}, "type": "Feature"}
{"dataset_attributes": {"@spider": "usps_collection_boxes", "spider:collection_time": "2023-12-01T08:26:07.800476"}, "geometry": {"coordinates": [-81.206470021, 28.55439865], "type": "Point"}, "id": "_rLXiKNxXlG3ulKWc1bBCdkJPvM=", "properties": {"@spider": "usps_collection_boxes", "addr:city": "ORLANDO", "addr:country": "US", "addr:full": "650 N ALAFAYA TRL", "addr:postcode": "32828", "addr:state": "FL", "amenity": "post_box", "brand": "United States Postal Service", "brand:wikidata": "Q668687", "collection_times": "Mo-Fr 17:00; Sa 15:00", "name": "USPS COLLECTION BOX - PO LOBBY", "note": "ON 12/24 AND 12/31, THIS BOX MAY BE COLLECTED AS EARLY AS 12 NOON.", "nsi_id": "unitedstatespostalservice-a77078", "operator": "United States Postal Service", "operator:short": "USPS", "operator:type": "public", "operator:wikidata": "Q668687", "ref": "3282800014"}, "type": "Feature"}
{"dataset_attributes": {"@spider": "usps_collection_boxes", "spider:collection_time": "2023-12-01T08:26:07.800476"}, "geometry": {"coordinates": [-81.206470021, 28.55439865], "type": "Point"}, "id": "G9P_wi5fNQfgj7v16v9F1tJKmck=", "properties": {"@spider": "usps_collection_boxes", "addr:city": "ORLANDO", "addr:country": "US", "addr:full": "650 N ALAFAYA TRL", "addr:postcode": "32828", "addr:state": "FL", "amenity": "post_box", "brand": "United States Postal Service", "brand:wikidata": "Q668687", "collection_times": "Mo-Fr 17:00; Sa 15:00", "name": "USPS COLLECTION BOX - APC", "note": "ON 12/24 AND 12/31, THIS BOX MAY BE COLLECTED AS EARLY AS 12 NOON.", "nsi_id": "unitedstatespostalservice-a77078", "operator": "United States Postal Service", "operator:short": "USPS", "operator:type": "public", "operator:wikidata": "Q668687", "ref": "3282800018"}, "type": "Feature"}
{"dataset_attributes": {"@spider": "usps_collection_boxes", "spider:collection_time": "2023-12-01T08:26:07.800476"}, "geometry": {"coordinates": [-81.512958804, 28.371387479], "type": "Point"}, "id": "SaP4SK-hL7t_x7736dwQzp_j8HU=", "properties": {"@spider": "usps_collection_boxes", "addr:city": "ORLANDO", "addr:country": "US", "addr:full": "1675 N BUENA VISTA DR", "addr:postcode": "32830", "addr:state": "FL", "amenity": "post_box", "brand": "United States Postal Service", "brand:wikidata": "Q668687", "collection_times": "Mo-Fr 10:00", "name": "USPS COLLECTION BOX - BLUE BOX", "nsi_id": "unitedstatespostalservice-a77078", "operator": "United States Postal Service", "operator:short": "USPS", "operator:type": "public", "operator:wikidata": "Q668687", "ref": "3283000001"}, "type": "Feature"}
{"dataset_attributes": {"@spider": "usps_collection_boxes", "spider:collection_time": "2023-12-01T08:26:07.800476"}, "geometry": {"coordinates": [-81.53269, 28.39362], "type": "Point"}, "id": "bSYg_P3zRuUGcjcfOEFzMRUkRXM=", "properties": {"@spider": "usps_collection_boxes", "addr:city": "ORLANDO", "addr:country": "US", "addr:full": "1410 N BUENA VISTA AVE", "addr:postcode": "32830", "addr:state": "FL", "amenity": "post_box", "brand": "United States Postal Service", "brand:wikidata": "Q668687", "collection_times": "Mo-Sa 10:00", "name": "USPS COLLECTION BOX - BLUE BOX", "nsi_id": "unitedstatespostalservice-a77078", "operator": "United States Postal Service", "operator:short": "USPS", "operator:type": "public", "operator:wikidata": "Q668687", "ref": "3283000002"}, "type": "Feature"}
{"dataset_attributes": {"@spider": "usps_collection_boxes", "spider:collection_time": "2023-12-01T08:26:07.800476"}, "geometry": {"coordinates": [-81.473911754, 28.53885438], "type": "Point"}, "id": "-JDxLrur479kyfdqc0zxhId7FGw=", "properties": {"@spider": "usps_collection_boxes", "addr:city": "ORLANDO", "addr:country": "US", "addr:full": "6600 OLD WINTER GARDEN RD", "addr:postcode": "32835", "addr:state": "FL", "amenity": "post_box", "brand": "United States Postal Service", "brand:wikidata": "Q668687", "collection_times": "Mo-Sa 11:00", "name": "USPS COLLECTION BOX - BLUE BOX", "nsi_id": "unitedstatespostalservice-a77078", "operator": "United States Postal Service", "operator:short": "USPS", "operator:type": "public", "operator:wikidata": "Q668687", "ref": "3283500002"}, "type": "Feature"}
{"dataset_attributes": {"@spider": "usps_collection_boxes", "spider:collection_time": "2023-12-01T08:26:07.800476"}, "geometry": {"coordinates": [-81.470346912, 28.5215815], "type": "Point"}, "id": "Yz-hMi6JTF1VjziBWzozFZJhvik=", "properties": {"@spider": "usps_collection_boxes", "addr:city": "ORLANDO", "addr:country": "US", "addr:full": "1700 PARK CENTER DR", "addr:postcode": "32835", "addr:state": "FL", "amenity": "post_box", "brand": "United States Postal Service", "brand:wikidata": "Q668687", "collection_times": "Mo-Sa 10:00", "name": "USPS COLLECTION BOX - BLUE BOX", "nsi_id": "unitedstatespostalservice-a77078", "operator": "United States Postal Service", "operator:short": "USPS", "operator:type": "public", "operator:wikidata": "Q668687", "ref": "3283500005"}, "type": "Feature"}
{"dataset_attributes": {"@spider": "usps_collection_boxes", "spider:collection_time": "2023-12-01T08:26:07.800476"}, "geometry": {"coordinates": [-81.482974275, 28.49382034], "type": "Point"}, "id": "wZVgb3lovbk18webTzS2HnxZjTI=", "properties": {"@spider": "usps_collection_boxes", "addr:city": "ORLANDO", "addr:country": "US", "addr:full": "7479 CONROY RD", "addr:postcode": "32835", "addr:state": "FL", "amenity": "post_box", "brand": "United States Postal Service", "brand:wikidata": "Q668687", "collection_times": "Mo-Sa 13:45", "name": "USPS COLLECTION BOX - BLUE BOX", "note": "ON 12/24 AND 12/31, THIS BOX MAY BE COLLECTED AS EARLY AS 12 NOON.", "nsi_id": "unitedstatespostalservice-a77078", "operator": "United States Postal Service", "operator:short": "USPS", "operator:type": "public", "operator:wikidata": "Q668687", "ref": "3283500007"}, "type": "Feature"}
{"dataset_attributes": {"@spider": "usps_collection_boxes", "spider:collection_time": "2023-12-01T08:26:07.800476"}, "geometry": {"coordinates": [-81.47092742, 28.493817496], "type": "Point"}, "id": "Pn-_QbZH7wiXmpYDrFFeVnpn5XE=", "properties": {"@spider": "usps_collection_boxes", "addr:city": "ORLANDO", "addr:country": "US", "addr:full": "6421 CONROY RD", "addr:postcode": "32835", "addr:state": "FL", "amenity": "post_box", "brand": "United States Postal Service", "brand:wikidata": "Q668687", "collection_times": "Mo-Sa 15:15", "name": "USPS COLLECTION BOX - BLUE BOX", "note": "ON 12/24 AND 12/31, THIS BOX MAY BE COLLECTED AS EARLY AS 12 NOON.", "nsi_id": "unitedstatespostalservice-a77078", "operator": "United States Postal Service", "operator:short": "USPS", "operator:type": "public", "operator:wikidata": "Q668687", "ref": "3283500009"}, "type": "Feature"}
{"dataset_attributes": {"@spider": "usps_collection_boxes", "spider:collection_time": "2023-12-01T08:26:07.800476"}, "geometry": {"coordinates": [-81.48540365, 28.507074267], "type": "Point"}, "id": "MZRnxgJ1Q73Yk-TXP04WK30ANpw=", "properties": {"@spider": "usps_collection_boxes", "addr:city": "ORLANDO", "addr:country": "US", "addr:full": "3300 S HIAWASSEE RD", "addr:postcode": "32835", "addr:state": "FL", "amenity": "post_box", "brand": "United States Postal Service", "brand:wikidata": "Q668687", "collection_times": "Mo-Sa 12:00", "name": "USPS COLLECTION BOX - BLUE BOX", "nsi_id": "unitedstatespostalservice-a77078", "operator": "United States Postal Service", "operator:short": "USPS", "operator:type": "public", "operator:wikidata": "Q668687", "ref": "3283500010"}, "type": "Feature"}
{"dataset_attributes": {"@spider": "usps_collection_boxes", "spider:collection_time": "2023-12-01T08:26:07.800476"}, "geometry": {"coordinates": [-81.506415, 28.38636], "type": "Point"}, "id": "_azl11xlWZNrJTqReOYLfAhWQt0=", "properties": {"@spider": "usps_collection_boxes", "addr:city": "ORLANDO", "addr:country": "US", "addr:full": "12527 STATE ROAD 535", "addr:postcode": "32836", "addr:state": "FL", "amenity": "post_box", "brand": "United States Postal Service", "brand:wikidata": "Q668687", "collection_times": "Mo-Fr 10:00", "name": "USPS COLLECTION BOX - BLUE BOX", "nsi_id": "unitedstatespostalservice-a77078", "operator": "United States Postal Service", "operator:short": "USPS", "operator:type": "public", "operator:wikidata": "Q668687", "ref": "3283600002"}, "type": "Feature"}
{"dataset_attributes": {"@spider": "usps_collection_boxes", "spider:collection_time": "2023-12-01T08:26:07.800476"}, "geometry": {"coordinates": [-81.41048, 28.405995], "type": "Point"}, "id": "zRqnY0vUAgjGpjRNOVa4_irb5EI=", "properties": {"@spider": "usps_collection_boxes", "addr:city": "ORLANDO", "addr:country": "US", "addr:full": "9404 S ORANGE BLOSSOM TRAIL", "addr:postcode": "32837", "addr:state": "FL", "amenity": "post_box", "brand": "United States Postal Service", "brand:wikidata": "Q668687", "collection_times": "Mo-Fr 14:30; Sa 14:15", "name": "USPS COLLECTION BOX - BLUE BOX", "note": "ON 12/24 AND 12/31, THIS BOX MAY BE COLLECTED AS EARLY AS 12 NOON.", "nsi_id": "unitedstatespostalservice-a77078", "operator": "United States Postal Service", "operator:short": "USPS", "operator:type": "public", "operator:wikidata": "Q668687", "ref": "3283700003"}, "type": "Feature"}
{"dataset_attributes": {"@spider": "usps_collection_boxes", "spider:collection_time": "2023-12-01T08:26:07.800476"}, "geometry": {"coordinates": [-81.404731233, 28.402614], "type": "Point"}, "id": "hX5Y1uqMQGRGAnJQ22kNDdxDs7k=", "properties": {"@spider": "usps_collection_boxes", "addr:city": "ORLANDO", "addr:country": "US", "addr:full": "11200 S ORANGE BLOSSOM TRL", "addr:postcode": "32837", "addr:state": "FL", "amenity": "post_box", "brand": "United States Postal Service", "brand:wikidata": "Q668687", "collection_times": "Mo-Sa 15:00", "name": "USPS COLLECTION BOX - BLUE BOX", "note": "ON 12/24 AND 12/31, THIS BOX MAY BE COLLECTED AS EARLY AS 12 NOON.", "nsi_id": "unitedstatespostalservice-a77078", "operator": "United States Postal Service", "operator:short": "USPS", "operator:type": "public", "operator:wikidata": "Q668687", "ref": "3283700004"}, "type": "Feature"}
{"dataset_attributes": {"@spider": "usps_collection_boxes", "spider:collection_time": "2023-12-01T08:26:07.800476"}, "geometry": {"coordinates": [-81.424871648, 28.363774309], "type": "Point"}, "id": "FOb2l7pGjhTnIibzqVP0KBIwEN0=", "properties": {"@spider": "usps_collection_boxes", "addr:city": "ORLANDO", "addr:country": "US", "addr:full": "3964 TOWN CENTER BLVD", "addr:postcode": "32837", "addr:state": "FL", "amenity": "post_box", "brand": "United States Postal Service", "brand:wikidata": "Q668687", "collection_times": "Mo-Sa 15:30", "name": "USPS COLLECTION BOX - BLUE BOX", "note": "ON 12/24 AND 12/31, THIS BOX MAY BE COLLECTED AS EARLY AS 12 NOON.", "nsi_id": "unitedstatespostalservice-a77078", "operator": "United States Postal Service", "operator:short": "USPS", "operator:type": "public", "operator:wikidata": "Q668687", "ref": "3283700007"}, "type": "Feature"}
{"dataset_attributes": {"@spider": "usps_collection_boxes", "spider:collection_time": "2023-12-01T08:26:07.800476"}, "geometry": {"coordinates": [-81.400637595, 28.387885475], "type": "Point"}, "id": "BnBrabz1octaqbSk7iZpA3NyBaA=", "properties": {"@spider": "usps_collection_boxes", "addr:city": "ORLANDO", "addr:country": "US", "addr:full": "1701 W WETHERBEE RD", "addr:postcode": "32837", "addr:state": "FL", "amenity": "post_box", "brand": "United States Postal Service", "brand:wikidata": "Q668687", "collection_times": "Mo-Fr 17:00; Sa 15:15", "name": "USPS COLLECTION BOX - PO LOBBY", "note": "ON 12/24 AND 12/31, THIS BOX MAY BE COLLECTED AS EARLY AS 12 NOON.", "nsi_id": "unitedstatespostalservice-a77078", "operator": "United States Postal Service", "operator:short": "USPS", "operator:type": "public", "operator:wikidata": "Q668687", "ref": "3283700010"}, "type": "Feature"}
{"dataset_attributes": {"@spider": "usps_collection_boxes", "spider:collection_time": "2023-12-01T08:26:07.800476"}, "geometry": {"coordinates": [-81.400637595, 28.387885475], "type": "Point"}, "id": "oFJYlQKhSR-wlyt_2dN0dl1g0LU=", "properties": {"@spider": "usps_collection_boxes", "addr:city": "ORLANDO", "addr:country": "US", "addr:full": "1701 W WETHERBEE RD", "addr:postcode": "32837", "addr:state": "FL", "amenity": "post_box", "brand": "United States Postal Service", "brand:wikidata": "Q668687", "collection_times": "Mo-Fr 17:00; Sa 15:15", "name": "USPS COLLECTION BOX - BLUE BOX", "note": "ON 12/24 AND 12/31, THIS BOX MAY BE COLLECTED AS EARLY AS 12 NOON.", "nsi_id": "unitedstatespostalservice-a77078", "operator": "United States Postal Service", "operator:short": "USPS", "operator:type": "public", "operator:wikidata": "Q668687", "ref": "3283700011"}, "type": "Feature"}
{"dataset_attributes": {"@spider": "usps_collection_boxes", "spider:collection_time": "2023-12-01T08:26:07.800476"}, "geometry": {"coordinates": [-81.400637595, 28.387885475], "type": "Point"}, "id": "xN2te4u0jHKvDkgVAWj1YVNE6Wo=", "properties": {"@spider": "usps_collection_boxes", "addr:city": "ORLANDO", "addr:country": "US", "addr:full": "1701 W WETHERBEE RD", "addr:postcode": "32837", "addr:state": "FL", "amenity": "post_box", "brand": "United States Postal Service", "brand:wikidata": "Q668687", "collection_times": "Mo-Fr 17:00; Sa 15:15", "name": "USPS COLLECTION BOX - APC", "note": "ON 12/24 AND 12/31, THIS BOX MAY BE COLLECTED AS EARLY AS 12 NOON.", "nsi_id": "unitedstatespostalservice-a77078", "operator": "United States Postal Service", "operator:short": "USPS", "operator:type": "public", "operator:wikidata": "Q668687", "ref": "3283700013"}, "type": "Feature"}
{"dataset_attributes": {"@spider": "usps_collection_boxes", "spider:collection_time": "2023-12-01T08:26:07.800476"}, "geometry": {"coordinates": [-81.400637595, 28.387885475], "type": "Point"}, "id": "HOyfsfMEkksaDcLjFG36nJLN06s=", "properties": {"@spider": "usps_collection_boxes", "addr:city": "ORLANDO", "addr:country": "US", "addr:full": "1701 W WETHERBEE RD", "addr:postcode": "32837", "addr:state": "FL", "amenity": "post_box", "brand": "United States Postal Service", "brand:wikidata": "Q668687", "collection_times": "Mo-Fr 17:00; Sa 15:00", "name": "USPS COLLECTION BOX - PO LOBBY", "note": "ON 12/24 AND 12/31, THIS BOX MAY BE COLLECTED AS EARLY AS 12 NOON.", "nsi_id": "unitedstatespostalservice-a77078", "operator": "United States Postal Service", "operator:short": "USPS", "operator:type": "public", "operator:wikidata": "Q668687", "ref": "3283700015"}, "type": "Feature"}
{"dataset_attributes": {"@spider": "usps_collection_boxes", "spider:collection_time": "2023-12-01T08:26:07.800476"}, "geometry": {"coordinates": [-81.400637595, 28.387885475], "type": "Point"}, "id": "qLvun51WokjQEKsixC8EB7mpNEU=", "properties": {"@spider": "usps_collection_boxes", "addr:city": "ORLANDO", "addr:country": "US", "addr:full": "1701 W WETHERBEE RD", "addr:postcode": "32837", "addr:state": "FL", "amenity": "post_box", "brand": "United States Postal Service", "brand:wikidata": "Q668687", "collection_times": "Mo-Fr 17:00; Sa 15:15", "name": "USPS COLLECTION BOX - PO LOBBY", "note": "ON 12/24 AND 12/31, THIS BOX MAY BE COLLECTED AS EARLY AS 12 NOON.", "nsi_id": "unitedstatespostalservice-a77078", "operator": "United States Postal Service", "operator:short": "USPS", "operator:type": "public", "operator:wikidata": "Q668687", "ref": "3283700016"}, "type": "Feature"}
{"dataset_attributes": {"@spider": "usps_collection_boxes", "spider:collection_time": "2023-12-01T08:26:07.800476"}, "geometry": {"coordinates": [-81.400637595, 28.387885475], "type": "Point"}, "id": "9F6pDV8P1LdYcIqTFPE1u7ZudD8=", "properties": {"@spider": "usps_collection_boxes", "addr:city": "ORLANDO", "addr:country": "US", "addr:full": "1701 W WETHERBEE RD", "addr:postcode": "32837", "addr:state": "FL", "amenity": "post_box", "brand": "United States Postal Service", "brand:wikidata": "Q668687", "collection_times": "Mo-Fr 18:00; Sa 16:00", "name": "USPS COLLECTION BOX - PO LOBBY", "note": "ON 12/24 AND 12/31, THIS BOX MAY BE COLLECTED AS EARLY AS 12 NOON.", "nsi_id": "unitedstatespostalservice-a77078", "operator": "United States Postal Service", "operator:short": "USPS", "operator:type": "public", "operator:wikidata": "Q668687", "ref": "3283700024"}, "type": "Feature"}
{"dataset_attributes": {"@spider": "usps_collection_boxes", "spider:collection_time": "2023-12-01T08:26:07.800476"}, "geometry": {"coordinates": [-81.396988796, 28.496617099], "type": "Point"}, "id": "3iPozcdRwOg1ZpHr_mi0sW_XNsg=", "properties": {"@spider": "usps_collection_boxes", "addr:city": "ORLANDO", "addr:country": "US", "addr:full": "4600 S ORANGE BLOSSOM TRL", "addr:postcode": "32839", "addr:state": "FL", "amenity": "post_box", "brand": "United States Postal Service", "brand:wikidata": "Q668687", "collection_times": "Mo-Sa 15:40", "name": "USPS COLLECTION BOX - BLUE BOX", "note": "ON 12/24 AND 12/31, THIS BOX MAY BE COLLECTED AS EARLY AS 12 NOON.", "nsi_id": "unitedstatespostalservice-a77078", "operator": "United States Postal Service", "operator:short": "USPS", "operator:type": "public", "operator:wikidata": "Q668687", "ref": "3283900013"}, "type": "Feature"}
{"dataset_attributes": {"@spider": "usps_collection_boxes", "spider:collection_time": "2023-12-01T08:26:07.800476"}, "geometry": {"coordinates": [-81.403469026, 28.508951496], "type": "Point"}, "id": "wXXKW2YnOOBdJmVwAudh4EnqhNw=", "properties": {"@spider": "usps_collection_boxes", "addr:city": "ORLANDO", "addr:country": "US", "addr:full": "1800 33RD ST", "addr:postcode": "32839", "addr:state": "FL", "amenity": "post_box", "brand": "United States Postal Service", "brand:wikidata": "Q668687", "collection_times": "Mo-Sa 11:00", "name": "USPS COLLECTION BOX - BLUE BOX", "nsi_id": "unitedstatespostalservice-a77078", "operator": "United States Postal Service", "operator:short": "USPS", "operator:type": "public", "operator:wikidata": "Q668687", "ref": "3283900015"}, "type": "Feature"}
{"dataset_attributes": {"@spider": "usps_collection_boxes", "spider:collection_time": "2023-12-01T08:26:07.800476"}, "geometry": {"coordinates": [-81.417309201, 28.487664], "type": "Point"}, "id": "_Qjwk_4_JQN0WLhVfvbVAg_-aIU=", "properties": {"@spider": "usps_collection_boxes", "addr:city": "ORLANDO", "addr:country": "US", "addr:full": "5265 S JOHN YOUNG PKWY", "addr:postcode": "32839", "addr:state": "FL", "amenity": "post_box", "brand": "United States Postal Service", "brand:wikidata": "Q668687", "collection_times": "Mo-Sa 15:25", "name": "USPS COLLECTION BOX - BLUE BOX", "note": "ON 12/24 AND 12/31, THIS BOX MAY BE COLLECTED AS EARLY AS 12 NOON.", "nsi_id": "unitedstatespostalservice-a77078", "operator": "United States Postal Service", "operator:short": "USPS", "operator:type": "public", "operator:wikidata": "Q668687", "ref": "3283900017"}, "type": "Feature"}
{"dataset_attributes": {"@spider": "usps_collection_boxes", "spider:collection_time": "2023-12-01T08:26:07.800476"}, "geometry": {"coordinates": [-81.364379257, 28.551680948], "type": "Point"}, "id": "CDnKSwllnz33hHxN6vuerRd6QZg=", "properties": {"@spider": "usps_collection_boxes", "addr:city": "ORLANDO", "addr:country": "US", "addr:full": "611 N MILLS AVE", "addr:postcode": "32853", "addr:state": "FL", "amenity": "post_box", "brand": "United States Postal Service", "brand:wikidata": "Q668687", "collection_times": "Mo-Fr 17:00; Sa 15:30", "name": "USPS COLLECTION BOX - BLUE BOX", "note": "ON 12/24 AND 12/31, THIS BOX MAY BE COLLECTED AS EARLY AS 12 NOON.", "nsi_id": "unitedstatespostalservice-a77078", "operator": "United States Postal Service", "operator:short": "USPS", "operator:type": "public", "operator:wikidata": "Q668687", "ref": "3285300002"}, "type": "Feature"}
{"dataset_attributes": {"@spider": "usps_collection_boxes", "spider:collection_time": "2023-12-01T08:26:07.800476"}, "geometry": {"coordinates": [-81.364379257, 28.551680948], "type": "Point"}, "id": "QzjbOwD4NOT96gsGNZ-fb5kIMe8=", "properties": {"@spider": "usps_collection_boxes", "addr:city": "ORLANDO", "addr:country": "US", "addr:full": "611 N MILLS AVE", "addr:postcode": "32853", "addr:state": "FL", "amenity": "post_box", "brand": "United States Postal Service", "brand:wikidata": "Q668687", "collection_times": "Mo-Fr 17:00; Sa 12:00", "name": "USPS COLLECTION BOX - PO LOBBY", "note": "ON 12/24 AND 12/31, THIS BOX MAY BE COLLECTED AS EARLY AS 12 NOON.", "nsi_id": "unitedstatespostalservice-a77078", "operator": "United States Postal Service", "operator:short": "USPS", "operator:type": "public", "operator:wikidata": "Q668687", "ref": "3285300003"}, "type": "Feature"}
{"dataset_attributes": {"@spider": "usps_collection_boxes", "spider:collection_time": "2023-12-01T08:26:07.800476"}, "geometry": {"coordinates": [-81.364379257, 28.551680948], "type": "Point"}, "id": "9l-YNBJbzbee1-DCFzqpEb2Mvr4=", "properties": {"@spider": "usps_collection_boxes", "addr:city": "ORLANDO", "addr:country": "US", "addr:full": "611 N MILLS AVE", "addr:postcode": "32853", "addr:state": "FL", "amenity": "post_box", "brand": "United States Postal Service", "brand:wikidata": "Q668687", "collection_times": "Mo-Fr 17:00; Sa 12:00", "name": "USPS COLLECTION BOX - PO LOBBY", "note": "ON 12/24 AND 12/31, THIS BOX MAY BE COLLECTED AS EARLY AS 12 NOON.", "nsi_id": "unitedstatespostalservice-a77078", "operator": "United States Postal Service", "operator:short": "USPS", "operator:type": "public", "operator:wikidata": "Q668687", "ref": "3285300006"}, "type": "Feature"}
{"dataset_attributes": {"@spider": "usps_collection_boxes", "spider:collection_time": "2023-12-01T08:26:07.800476"}, "geometry": {"coordinates": [-81.332503989, 28.415904061], "type": "Point"}, "id": "onWkoBnAAmLRaT-1BNodAdSpOj4=", "properties": {"@spider": "usps_collection_boxes", "addr:city": "ORLANDO", "addr:country": "US", "addr:full": "10401 POST OFFICE BLVD", "addr:postcode": "32862", "addr:state": "FL", "amenity": "post_box", "brand": "United States Postal Service", "brand:wikidata": "Q668687", "collection_times": "Mo-Sa 20:00", "name": "USPS COLLECTION BOX - PO LOBBY", "note": "ON 12/24 AND 12/31, THIS BOX MAY BE COLLECTED AS EARLY AS 12 NOON.", "nsi_id": "unitedstatespostalservice-a77078", "operator": "United States Postal Service", "operator:short": "USPS", "operator:type": "public", "operator:wikidata": "Q668687", "ref": "3286200000"}, "type": "Feature"}
{"dataset_attributes": {"@spider": "usps_collection_boxes", "spider:collection_time": "2023-12-01T08:26:07.800476"}, "geometry": {"coordinates": [-81.332503989, 28.415904061], "type": "Point"}, "id": "swCVQLmm1toK1ml8fWD4EaRHxxo=", "properties": {"@spider": "usps_collection_boxes", "addr:city": "ORLANDO", "addr:country": "US", "addr:full": "10401 POST OFFICE BLVD", "addr:postcode": "32862", "addr:state": "FL", "amenity": "post_box", "brand": "United States Postal Service", "brand:wikidata": "Q668687", "collection_times": "Mo-Sa 20:00", "name": "USPS COLLECTION BOX - BLUE BOX", "note": "ON 12/24 AND 12/31, THIS BOX MAY BE COLLECTED AS EARLY AS 12 NOON.", "nsi_id": "unitedstatespostalservice-a77078", "operator": "United States Postal Service", "operator:short": "USPS", "operator:type": "public", "operator:wikidata": "Q668687", "ref": "3286200003"}, "type": "Feature"}
{"dataset_attributes": {"@spider": "usps_collection_boxes", "spider:collection_time": "2023-12-01T08:26:07.800476"}, "geometry": {"coordinates": [-81.332503989, 28.415904061], "type": "Point"}, "id": "NbEIZAB7XH0FnluVRbeMHpdaFbk=", "properties": {"@spider": "usps_collection_boxes", "addr:city": "ORLANDO", "addr:country": "US", "addr:full": "10401 POST OFFICE BLVD", "addr:postcode": "32862", "addr:state": "FL", "amenity": "post_box", "brand": "United States Postal Service", "brand:wikidata": "Q668687", "collection_times": "Mo-Sa 20:00", "name": "USPS COLLECTION BOX - APC", "note": "ON 12/24 AND 12/31, THIS BOX MAY BE COLLECTED AS EARLY AS 12 NOON.", "nsi_id": "unitedstatespostalservice-a77078", "operator": "United States Postal Service", "operator:short": "USPS", "operator:type": "public", "operator:wikidata": "Q668687", "ref": "3286200004"}, "type": "Feature"}
{"dataset_attributes": {"@spider": "usps_collection_boxes", "spider:collection_time": "2023-12-01T08:26:07.800476"}, "geometry": {"coordinates": [-81.332503989, 28.415904061], "type": "Point"}, "id": "XeB3kt1FHZ1jlXIqX501SYWxuv8=", "properties": {"@spider": "usps_collection_boxes", "addr:city": "ORLANDO", "addr:country": "US", "addr:full": "10401 POST OFFICE BLVD", "addr:postcode": "32862", "addr:state": "FL", "amenity": "post_box", "brand": "United States Postal Service", "brand:wikidata": "Q668687", "collection_times": "Mo-Sa 20:00", "name": "USPS COLLECTION BOX - PO LOBBY", "note": "ON 12/24 AND 12/31, THIS BOX MAY BE COLLECTED AS EARLY AS 12 NOON.", "nsi_id": "unitedstatespostalservice-a77078", "operator": "United States Postal Service", "operator:short": "USPS", "operator:type": "public", "operator:wikidata": "Q668687", "ref": "3286200005"}, "type": "Feature"}
{"dataset_attributes": {"@spider": "usps_collection_boxes", "spider:collection_time": "2023-12-01T08:26:07.800476"}, "geometry": {"coordinates": [-81.288081565, 28.514542958], "type": "Point"}, "id": "dWwzr-2gXefYOpd9BptCEJAaM7w=", "properties": {"@spider": "usps_collection_boxes", "addr:city": "ORLANDO", "addr:country": "US", "addr:full": "7360 CURRY FORD RD", "addr:postcode": "32872", "addr:state": "FL", "amenity": "post_box", "brand": "United States Postal Service", "brand:wikidata": "Q668687", "collection_times": "Mo-Fr 17:00; Sa 14:00", "name": "USPS COLLECTION BOX - BLUE BOX", "note": "ON 12/24 AND 12/31, THIS BOX MAY BE COLLECTED AS EARLY AS 12 NOON.", "nsi_id": "unitedstatespostalservice-a77078", "operator": "United States Postal Service", "operator:short": "USPS", "operator:type": "public", "operator:wikidata": "Q668687", "ref": "3287200001"}, "type": "Feature"}
{"dataset_attributes": {"@spider": "usps_collection_boxes", "spider:collection_time": "2023-12-01T08:26:07.800476"}, "geometry": {"coordinates": [-81.288081565, 28.514542958], "type": "Point"}, "id": "SVlFFvpzoHZe3nFWzDPXcFJVJ0k=", "properties": {"@spider": "usps_collection_boxes", "addr:city": "ORLANDO", "addr:country": "US", "addr:full": "7360 CURRY FORD RD", "addr:postcode": "32872", "addr:state": "FL", "amenity": "post_box", "brand": "United States Postal Service", "brand:wikidata": "Q668687", "collection_times": "Mo-Fr 17:00; Sa 14:00", "name": "USPS COLLECTION BOX - PO LOBBY", "note": "ON 12/24 AND 12/31, THIS BOX MAY BE COLLECTED AS EARLY AS 12 NOON.", "nsi_id": "unitedstatespostalservice-a77078", "operator": "United States Postal Service", "operator:short": "USPS", "operator:type": "public", "operator:wikidata": "Q668687", "ref": "3287200003"}, "type": "Feature"}
{"dataset_attributes": {"@spider": "usps_collection_boxes", "spider:collection_time": "2023-12-01T08:26:07.800476"}, "geometry": {"coordinates": [-81.288081565, 28.514542958], "type": "Point"}, "id": "DqmwkUEkpTeAOR0s9FTJ_ntSTX4=", "properties": {"@spider": "usps_collection_boxes", "addr:city": "ORLANDO", "addr:country": "US", "addr:full": "7360 CURRY FORD RD", "addr:postcode": "32872", "addr:state": "FL", "amenity": "post_box", "brand": "United States Postal Service", "brand:wikidata": "Q668687", "collection_times": "Mo-Fr 17:00; Sa 12:00", "name": "USPS COLLECTION BOX - PO LOBBY", "note": "ON 12/24 AND 12/31, THIS BOX MAY BE COLLECTED AS EARLY AS 12 NOON.", "nsi_id": "unitedstatespostalservice-a77078", "operator": "United States Postal Service", "operator:short": "USPS", "operator:type": "public", "operator:wikidata": "Q668687", "ref": "3287200007"}, "type": "Feature"}
{"dataset_attributes": {"@spider": "usps_collection_boxes", "spider:collection_time": "2023-12-01T08:26:07.800476"}, "geometry": {"coordinates": [-81.206470021, 28.55439865], "type": "Point"}, "id": "1kxEPKQ-bGIv2VV3Ifcqmc4JHnI=", "properties": {"@spider": "usps_collection_boxes", "addr:city": "ORLANDO", "addr:country": "US", "addr:full": "650 N ALAFAYA TRL STE 101", "addr:postcode": "32878", "addr:state": "FL", "amenity": "post_box", "brand": "United States Postal Service", "brand:wikidata": "Q668687", "collection_times": "Mo-Fr 18:00; Sa 16:00", "name": "USPS COLLECTION BOX - PO LOBBY", "note": "ON 12/24 AND 12/31, THIS BOX MAY BE COLLECTED AS EARLY AS 12 NOON.", "nsi_id": "unitedstatespostalservice-a77078", "operator": "United States Postal Service", "operator:short": "USPS", "operator:type": "public", "operator:wikidata": "Q668687", "ref": "3287800001"}, "type": "Feature"}
