{"dataset_attributes": {"@spider": "usps_collection_boxes", "spider:collection_time": "2023-10-07T08:22:43.442925"}, "geometry": {"coordinates": [-80.610568246, 28.078509465], "type": "Point"}, "id": "D8pkgotQe8GHCF2evYnf4P4PlC4=", "properties": {"@spider": "usps_collection_boxes", "addr:city": "MELBOURNE", "addr:country": "US", "addr:full": "640 E NEW HAVEN AVE", "addr:postcode": "32901", "addr:state": "FL", "amenity": "post_box", "brand": "United States Postal Service", "brand:wikidata": "Q668687", "collection_times": "Mo-Fr 17:00; Sa 15:30", "name": "USPS COLLECTION BOX - PO LOBBY", "note": "ON 12/24 AND 12/31, THIS BOX MAY BE COLLECTED AS EARLY AS 12 NOON.", "nsi_id": "unitedstatespostalservice-a77078", "operator": "United States Postal Service", "operator:short": "USPS", "operator:type": "public", "operator:wikidata": "Q668687", "ref": "3290100001"}, "type": "Feature"}
{"dataset_attributes": {"@spider": "usps_collection_boxes", "spider:collection_time": "2023-10-07T08:22:43.442925"}, "geometry": {"coordinates": [-80.621753704, 28.088420704], "type": "Point"}, "id": "3WgxTgeeCKKvFpAMJm7PKADNT58=", "properties": {"@spider": "usps_collection_boxes", "addr:city": "MELBOURNE", "addr:country": "US", "addr:full": "1305 S BABCOCK ST", "addr:postcode": "32901", "addr:state": "FL", "amenity": "post_box", "brand": "United States Postal Service", "brand:wikidata": "Q668687", "collection_times": "Mo-Fr 13:45; Sa 10:00", "name": "USPS COLLECTION BOX - BLUE BOX", "note": "ON 12/24 AND 12/31, THIS BOX MAY BE COLLECTED AS EARLY AS 12 NOON.", "nsi_id": "unitedstatespostalservice-a77078", "operator": "United States Postal Service", "operator:short": "USPS", "operator:type": "public", "operator:wikidata": "Q668687", "ref": "3290100002"}, "type": "Feature"}
{"dataset_attributes": {"@spider": "usps_collection_boxes", "spider:collection_time": "2023-10-07T08:22:43.442925"}, "geometry": {"coordinates": [-80.621744704, 28.093675172], "type": "Point"}, "id": "02YsGHyU36N24wIXGQalcuiaP_M=", "properties": {"@spider": "usps_collection_boxes", "addr:city": "MELBOURNE", "addr:country": "US", "addr:full": "975 S BABCOCK ST", "addr:postcode": "32901", "addr:state": "FL", "amenity": "post_box", "brand": "United States Postal Service", "brand:wikidata": "Q668687", "collection_times": "Mo-Fr 13:45; Sa 10:00", "name": "USPS COLLECTION BOX - BLUE BOX", "note": "ON 12/24 AND 12/31, THIS BOX MAY BE COLLECTED AS EARLY AS 12 NOON.", "nsi_id": "unitedstatespostalservice-a77078", "operator": "United States Postal Service", "operator:short": "USPS", "operator:type": "public", "operator:wikidata": "Q668687", "ref": "3290100004"}, "type": "Feature"}
{"dataset_attributes": {"@spider": "usps_collection_boxes", "spider:collection_time": "2023-10-07T08:22:43.442925"}, "geometry": {"coordinates": [-80.6302321683, 28.0906841958], "type": "Point"}, "id": "5rvw4SPs8tBTH9KfXsa5R8zTVCc=", "properties": {"@spider": "usps_collection_boxes", "addr:city": "MELBOURNE", "addr:country": "US", "addr:full": "1205 EDDIE ALLEN RD", "addr:postcode": "32901", "addr:state": "FL", "amenity": "post_box", "brand": "United States Postal Service", "brand:wikidata": "Q668687", "collection_times": "Mo-Sa 14:00", "name": "USPS COLLECTION BOX - BLUE BOX", "note": "ON 12/24 AND 12/31, THIS BOX MAY BE COLLECTED AS EARLY AS 12 NOON.", "nsi_id": "unitedstatespostalservice-a77078", "operator": "United States Postal Service", "operator:short": "USPS", "operator:type": "public", "operator:wikidata": "Q668687", "ref": "3290100005"}, "type": "Feature"}
{"dataset_attributes": {"@spider": "usps_collection_boxes", "spider:collection_time": "2023-10-07T08:22:43.442925"}, "geometry": {"coordinates": [-80.649719378, 28.086996706], "type": "Point"}, "id": "7lsHsKSGS6hfpsIayReSS5afMqA=", "properties": {"@spider": "usps_collection_boxes", "addr:city": "MELBOURNE", "addr:country": "US", "addr:full": "1333 GATEWAY DR", "addr:postcode": "32901", "addr:state": "FL", "amenity": "post_box", "brand": "United States Postal Service", "brand:wikidata": "Q668687", "collection_times": "Mo-Fr 14:00", "name": "USPS COLLECTION BOX - BLUE BOX", "note": "ON 12/24 AND 12/31, THIS BOX MAY BE COLLECTED AS EARLY AS 12 NOON.", "nsi_id": "unitedstatespostalservice-a77078", "operator": "United States Postal Service", "operator:short": "USPS", "operator:type": "public", "operator:wikidata": "Q668687", "ref": "3290100006"}, "type": "Feature"}
{"dataset_attributes": {"@spider": "usps_collection_boxes", "spider:collection_time": "2023-10-07T08:22:43.442925"}, "geometry": {"coordinates": [-80.610759015, 28.095085132], "type": "Point"}, "id": "LuhpzcT9kH7cDoApVrGvOm-_3nk=", "properties": {"@spider": "usps_collection_boxes", "addr:city": "MELBOURNE", "addr:country": "US", "addr:full": "930 S HARBOR CITY BLVD", "addr:postcode": "32901", "addr:state": "FL", "amenity": "post_box", "brand": "United States Postal Service", "brand:wikidata": "Q668687", "collection_times": "Mo-Sa 13:30", "name": "USPS COLLECTION BOX - BLUE BOX", "note": "ON 12/24 AND 12/31, THIS BOX MAY BE COLLECTED AS EARLY AS 12 NOON.", "nsi_id": "unitedstatespostalservice-a77078", "operator": "United States Postal Service", "operator:short": "USPS", "operator:type": "public", "operator:wikidata": "Q668687", "ref": "3290100008"}, "type": "Feature"}
{"dataset_attributes": {"@spider": "usps_collection_boxes", "spider:collection_time": "2023-10-07T08:22:43.442925"}, "geometry": {"coordinates": [-80.603050507, 28.07910397], "type": "Point"}, "id": "GfoXt2VNvEVrZ2Y9RQSYRury4Uw=", "properties": {"@spider": "usps_collection_boxes", "addr:city": "MELBOURNE", "addr:country": "US", "addr:full": "1917 S HARBOR CITY BLVD", "addr:postcode": "32901", "addr:state": "FL", "amenity": "post_box", "brand": "United States Postal Service", "brand:wikidata": "Q668687", "collection_times": "Mo-Sa 14:00", "name": "USPS COLLECTION BOX - BLUE BOX", "note": "ON 12/24 AND 12/31, THIS BOX MAY BE COLLECTED AS EARLY AS 12 NOON.", "nsi_id": "unitedstatespostalservice-a77078", "operator": "United States Postal Service", "operator:short": "USPS", "operator:type": "public", "operator:wikidata": "Q668687", "ref": "3290100010"}, "type": "Feature"}
{"dataset_attributes": {"@spider": "usps_collection_boxes", "spider:collection_time": "2023-10-07T08:22:43.442925"}, "geometry": {"coordinates": [-80.611822791, 28.097540548], "type": "Point"}, "id": "xtT_DaxfwpiGHDnLCKX2WR5zd9I=", "properties": {"@spider": "usps_collection_boxes", "addr:city": "MELBOURNE", "addr:country": "US", "addr:full": "709 S HARBOR CITY BLVD", "addr:postcode": "32901", "addr:state": "FL", "amenity": "post_box", "brand": "United States Postal Service", "brand:wikidata": "Q668687", "collection_times": "Mo-Fr 13:30", "name": "USPS COLLECTION BOX - BLUE BOX", "note": "ON 12/24 AND 12/31, THIS BOX MAY BE COLLECTED AS EARLY AS 12 NOON.", "nsi_id": "unitedstatespostalservice-a77078", "operator": "United States Postal Service", "operator:short": "USPS", "operator:type": "public", "operator:wikidata": "Q668687", "ref": "3290100012"}, "type": "Feature"}
{"dataset_attributes": {"@spider": "usps_collection_boxes", "spider:collection_time": "2023-10-07T08:22:43.442925"}, "geometry": {"coordinates": [-80.626800764, 28.106283623], "type": "Point"}, "id": "daUmcEBAY-xfZ56Mc7BtS4gwKHQ=", "properties": {"@spider": "usps_collection_boxes", "addr:city": "MELBOURNE", "addr:country": "US", "addr:full": "51 NIEMAN AVE", "addr:postcode": "32901", "addr:state": "FL", "amenity": "post_box", "brand": "United States Postal Service", "brand:wikidata": "Q668687", "collection_times": "Mo-Sa 12:00", "name": "USPS COLLECTION BOX - BLUE BOX", "nsi_id": "unitedstatespostalservice-a77078", "operator": "United States Postal Service", "operator:short": "USPS", "operator:type": "public", "operator:wikidata": "Q668687", "ref": "3290100014"}, "type": "Feature"}
{"dataset_attributes": {"@spider": "usps_collection_boxes", "spider:collection_time": "2023-10-07T08:22:43.442925"}, "geometry": {"coordinates": [-80.651967942, 28.088188392], "type": "Point"}, "id": "m_F5L1zCzl2eeLyYBPGQMzkdB-0=", "properties": {"@spider": "usps_collection_boxes", "addr:city": "MELBOURNE", "addr:country": "US", "addr:full": "1800 PENN ST", "addr:postcode": "32901", "addr:state": "FL", "amenity": "post_box", "brand": "United States Postal Service", "brand:wikidata": "Q668687", "collection_times": "Mo-Fr 14:00", "name": "USPS COLLECTION BOX - BLUE BOX", "note": "ON 12/24 AND 12/31, THIS BOX MAY BE COLLECTED AS EARLY AS 12 NOON.", "nsi_id": "unitedstatespostalservice-a77078", "operator": "United States Postal Service", "operator:short": "USPS", "operator:type": "public", "operator:wikidata": "Q668687", "ref": "3290100015"}, "type": "Feature"}
{"dataset_attributes": {"@spider": "usps_collection_boxes", "spider:collection_time": "2023-10-07T08:22:43.442925"}, "geometry": {"coordinates": [-80.624052292, 28.090201056], "type": "Point"}, "id": "kLiEy0wJU3grA5VXs3s4tLKo3ys=", "properties": {"@spider": "usps_collection_boxes", "addr:city": "MELBOURNE", "addr:country": "US", "addr:full": "100 RIALTO PL", "addr:postcode": "32901", "addr:state": "FL", "amenity": "post_box", "brand": "United States Postal Service", "brand:wikidata": "Q668687", "collection_times": "Mo-Fr 12:00; Sa 11:30", "name": "USPS COLLECTION BOX - BLUE BOX", "nsi_id": "unitedstatespostalservice-a77078", "operator": "United States Postal Service", "operator:short": "USPS", "operator:type": "public", "operator:wikidata": "Q668687", "ref": "3290100016"}, "type": "Feature"}
{"dataset_attributes": {"@spider": "usps_collection_boxes", "spider:collection_time": "2023-10-07T08:22:43.442925"}, "geometry": {"coordinates": [-80.611389251, 28.088764495], "type": "Point"}, "id": "-GnwJ17uFfMpy18TXAt7Qpf7lMc=", "properties": {"@spider": "usps_collection_boxes", "addr:city": "MELBOURNE", "addr:country": "US", "addr:full": "611 SHERIDAN RD", "addr:postcode": "32901", "addr:state": "FL", "amenity": "post_box", "brand": "United States Postal Service", "brand:wikidata": "Q668687", "collection_times": "Mo-Fr 13:30; Sa 11:00", "name": "USPS COLLECTION BOX - BLUE BOX", "note": "ON 12/24 AND 12/31, THIS BOX MAY BE COLLECTED AS EARLY AS 12 NOON.", "nsi_id": "unitedstatespostalservice-a77078", "operator": "United States Postal Service", "operator:short": "USPS", "operator:type": "public", "operator:wikidata": "Q668687", "ref": "3290100017"}, "type": "Feature"}
{"dataset_attributes": {"@spider": "usps_collection_boxes", "spider:collection_time": "2023-10-07T08:22:43.442925"}, "geometry": {"coordinates": [-80.62134, 28.081945], "type": "Point"}, "id": "q0fsJfHEtvwaPobzT2-Flq54CzA=", "properties": {"@spider": "usps_collection_boxes", "addr:city": "MELBOURNE", "addr:country": "US", "addr:full": "640 E NEW HAVEN AVE", "addr:postcode": "32901", "addr:state": "FL", "amenity": "post_box", "brand": "United States Postal Service", "brand:wikidata": "Q668687", "collection_times": "Mo-Fr 17:00; Sa 15:30", "name": "USPS COLLECTION BOX - BLUE BOX", "note": "ON 12/24 AND 12/31, THIS BOX MAY BE COLLECTED AS EARLY AS 12 NOON.", "nsi_id": "unitedstatespostalservice-a77078", "operator": "United States Postal Service", "operator:short": "USPS", "operator:type": "public", "operator:wikidata": "Q668687", "ref": "3290100019"}, "type": "Feature"}
{"dataset_attributes": {"@spider": "usps_collection_boxes", "spider:collection_time": "2023-10-07T08:22:43.442925"}, "geometry": {"coordinates": [-80.610568246, 28.078509465], "type": "Point"}, "id": "ltjlbR_blxjgn7phKpg93pZ9MqI=", "properties": {"@spider": "usps_collection_boxes", "addr:city": "MELBOURNE", "addr:country": "US", "addr:full": "640 E NEW HAVEN AVE", "addr:postcode": "32901", "addr:state": "FL", "amenity": "post_box", "brand": "United States Postal Service", "brand:wikidata": "Q668687", "collection_times": "Mo-Fr 17:00; Sa 12:00", "name": "USPS COLLECTION BOX - PO LOBBY", "note": "ON 12/24 AND 12/31, THIS BOX MAY BE COLLECTED AS EARLY AS 12 NOON.", "nsi_id": "unitedstatespostalservice-a77078", "operator": "United States Postal Service", "operator:short": "USPS", "operator:type": "public", "operator:wikidata": "Q668687", "ref": "3290100023"}, "type": "Feature"}
{"dataset_attributes": {"@spider": "usps_collection_boxes", "spider:collection_time": "2023-10-07T08:22:43.442925"}, "geometry": {"coordinates": [-80.5712809, 28.091252777], "type": "Point"}, "id": "Im9wB7Yk8uxLlItvBbHEyXPUcjQ=", "properties": {"@spider": "usps_collection_boxes", "addr:city": "INDIALANTIC", "addr:country": "US", "addr:full": "200 N PALM AVE", "addr:postcode": "32903", "addr:state": "FL", "amenity": "post_box", "brand": "United States Postal Service", "brand:wikidata": "Q668687", "collection_times": "Mo-Fr 17:00; Sa 12:00", "name": "USPS COLLECTION BOX - BLUE BOX", "note": "ON 12/24 AND 12/31, THIS BOX MAY BE COLLECTED AS EARLY AS 12 NOON.", "nsi_id": "unitedstatespostalservice-a77078", "operator": "United States Postal Service", "operator:short": "USPS", "operator:type": "public", "operator:wikidata": "Q668687", "ref": "3290300006"}, "type": "Feature"}
{"dataset_attributes": {"@spider": "usps_collection_boxes", "spider:collection_time": "2023-10-07T08:22:43.442925"}, "geometry": {"coordinates": [-80.5712809, 28.091252777], "type": "Point"}, "id": "w2jZwLoCGyFiNx9b3fG8qeCSPYg=", "properties": {"@spider": "usps_collection_boxes", "addr:city": "INDIALANTIC", "addr:country": "US", "addr:full": "200 N PALM AVE", "addr:postcode": "32903", "addr:state": "FL", "amenity": "post_box", "brand": "United States Postal Service", "brand:wikidata": "Q668687", "collection_times": "Mo-Fr 17:00; Sa 12:00", "name": "USPS COLLECTION BOX - PO LOBBY", "note": "ON 12/24 AND 12/31, THIS BOX MAY BE COLLECTED AS EARLY AS 12 NOON.", "nsi_id": "unitedstatespostalservice-a77078", "operator": "United States Postal Service", "operator:short": "USPS", "operator:type": "public", "operator:wikidata": "Q668687", "ref": "3290300010"}, "type": "Feature"}
{"dataset_attributes": {"@spider": "usps_collection_boxes", "spider:collection_time": "2023-10-07T08:22:43.442925"}, "geometry": {"coordinates": [-80.5712809, 28.091252777], "type": "Point"}, "id": "_EHQfAlmNRunG-3aiF49IusARcc=", "properties": {"@spider": "usps_collection_boxes", "addr:city": "INDIALANTIC", "addr:country": "US", "addr:full": "200 N PALM AVE", "addr:postcode": "32903", "addr:state": "FL", "amenity": "post_box", "brand": "United States Postal Service", "brand:wikidata": "Q668687", "collection_times": "Mo-Fr 17:00; Sa 12:00", "name": "USPS COLLECTION BOX - PO LOBBY", "note": "ON 12/24 AND 12/31, THIS BOX MAY BE COLLECTED AS EARLY AS 12 NOON.", "nsi_id": "unitedstatespostalservice-a77078", "operator": "United States Postal Service", "operator:short": "USPS", "operator:type": "public", "operator:wikidata": "Q668687", "ref": "3290300011"}, "type": "Feature"}
{"dataset_attributes": {"@spider": "usps_collection_boxes", "spider:collection_time": "2023-10-07T08:22:43.442925"}, "geometry": {"coordinates": [-80.576659797, 28.122268873], "type": "Point"}, "id": "wKlMMx2pkqLWISWFGEjNL-f8ZAM=", "properties": {"@spider": "usps_collection_boxes", "addr:city": "INDIALANTIC", "addr:country": "US", "addr:full": "2200 N HIGHWAY A1A", "addr:postcode": "32903", "addr:state": "FL", "amenity": "post_box", "brand": "United States Postal Service", "brand:wikidata": "Q668687", "collection_times": "Mo-Fr 16:15", "name": "USPS COLLECTION BOX - BLUE BOX", "note": "ON 12/24 AND 12/31, THIS BOX MAY BE COLLECTED AS EARLY AS 12 NOON.", "nsi_id": "unitedstatespostalservice-a77078", "operator": "United States Postal Service", "operator:short": "USPS", "operator:type": "public", "operator:wikidata": "Q668687", "ref": "3290300012"}, "type": "Feature"}
{"dataset_attributes": {"@spider": "usps_collection_boxes", "spider:collection_time": "2023-10-07T08:22:43.442925"}, "geometry": {"coordinates": [-80.5712809, 28.091252777], "type": "Point"}, "id": "DYLWFYZtZa98s_CcHlPeAO3x1Ik=", "properties": {"@spider": "usps_collection_boxes", "addr:city": "INDIALANTIC", "addr:country": "US", "addr:full": "200 N PALM AVE", "addr:postcode": "32903", "addr:state": "FL", "amenity": "post_box", "brand": "United States Postal Service", "brand:wikidata": "Q668687", "collection_times": "Mo-Fr 17:00; Sa 12:00", "name": "USPS COLLECTION BOX - PO LOBBY", "note": "ON 12/24 AND 12/31, THIS BOX MAY BE COLLECTED AS EARLY AS 12 NOON.", "nsi_id": "unitedstatespostalservice-a77078", "operator": "United States Postal Service", "operator:short": "USPS", "operator:type": "public", "operator:wikidata": "Q668687", "ref": "3290300015"}, "type": "Feature"}
{"dataset_attributes": {"@spider": "usps_collection_boxes", "spider:collection_time": "2023-10-07T08:22:43.442925"}, "geometry": {"coordinates": [-80.670627328, 28.07133322], "type": "Point"}, "id": "7qXPw-s7Eo03COUUdjSf-5sfjXA=", "properties": {"@spider": "usps_collection_boxes", "addr:city": "MELBOURNE", "addr:country": "US", "addr:full": "2305 MINTON RD", "addr:postcode": "32904", "addr:state": "FL", "amenity": "post_box", "brand": "United States Postal Service", "brand:wikidata": "Q668687", "collection_times": "Mo-Sa 17:00", "name": "USPS COLLECTION BOX - BLUE BOX", "note": "ON 12/24 AND 12/31, THIS BOX MAY BE COLLECTED AS EARLY AS 12 NOON.", "nsi_id": "unitedstatespostalservice-a77078", "operator": "United States Postal Service", "operator:short": "USPS", "operator:type": "public", "operator:wikidata": "Q668687", "ref": "3290400000"}, "type": "Feature"}
{"dataset_attributes": {"@spider": "usps_collection_boxes", "spider:collection_time": "2023-10-07T08:22:43.442925"}, "geometry": {"coordinates": [-80.6721049643, 28.0794369933], "type": "Point"}, "id": "SJt4z_ltpuz1S8YUeMzSMWGk7yU=", "properties": {"@spider": "usps_collection_boxes", "addr:city": "MELBOURNE", "addr:country": "US", "addr:full": "3090 W NEW HAVEN AVE", "addr:postcode": "32904", "addr:state": "FL", "amenity": "post_box", "brand": "United States Postal Service", "brand:wikidata": "Q668687", "collection_times": "Mo-Sa 11:15", "name": "USPS COLLECTION BOX - BLUE BOX", "nsi_id": "unitedstatespostalservice-a77078", "operator": "United States Postal Service", "operator:short": "USPS", "operator:type": "public", "operator:wikidata": "Q668687", "ref": "3290400002"}, "type": "Feature"}
{"dataset_attributes": {"@spider": "usps_collection_boxes", "spider:collection_time": "2023-10-07T08:22:43.442925"}, "geometry": {"coordinates": [-80.6979679971, 28.0951020159], "type": "Point"}, "id": "ZV3DdT0ffLcPGgNKqAWJi54RKyQ=", "properties": {"@spider": "usps_collection_boxes", "addr:city": "MELBOURNE", "addr:country": "US", "addr:full": "4316 FORTUNE PL", "addr:postcode": "32904", "addr:state": "FL", "amenity": "post_box", "brand": "United States Postal Service", "brand:wikidata": "Q668687", "collection_times": "Mo-Fr 10:00", "name": "USPS COLLECTION BOX - BLUE BOX", "nsi_id": "unitedstatespostalservice-a77078", "operator": "United States Postal Service", "operator:short": "USPS", "operator:type": "public", "operator:wikidata": "Q668687", "ref": "3290400005"}, "type": "Feature"}
{"dataset_attributes": {"@spider": "usps_collection_boxes", "spider:collection_time": "2023-10-07T08:22:43.442925"}, "geometry": {"coordinates": [-80.6838510282, 28.0987939928], "type": "Point"}, "id": "DgQfIjwsIknNyoRj8qHFCy_3lxU=", "properties": {"@spider": "usps_collection_boxes", "addr:city": "MELBOURNE", "addr:country": "US", "addr:full": "7805 ELLIS RD", "addr:postcode": "32904", "addr:state": "FL", "amenity": "post_box", "brand": "United States Postal Service", "brand:wikidata": "Q668687", "collection_times": "Mo-Fr 12:00", "name": "USPS COLLECTION BOX - BLUE BOX", "nsi_id": "unitedstatespostalservice-a77078", "operator": "United States Postal Service", "operator:short": "USPS", "operator:type": "public", "operator:wikidata": "Q668687", "ref": "3290400006"}, "type": "Feature"}
{"dataset_attributes": {"@spider": "usps_collection_boxes", "spider:collection_time": "2023-10-07T08:22:43.442925"}, "geometry": {"coordinates": [-80.6385389625, 28.080677012], "type": "Point"}, "id": "CTuMqoJ1GKghTJJaEgFuaR174Qg=", "properties": {"@spider": "usps_collection_boxes", "addr:city": "MELBOURNE", "addr:country": "US", "addr:full": "1900 DAIRY RD", "addr:postcode": "32904", "addr:state": "FL", "amenity": "post_box", "brand": "United States Postal Service", "brand:wikidata": "Q668687", "collection_times": "Mo-Sa 11:15", "name": "USPS COLLECTION BOX - BLUE BOX", "nsi_id": "unitedstatespostalservice-a77078", "operator": "United States Postal Service", "operator:short": "USPS", "operator:type": "public", "operator:wikidata": "Q668687", "ref": "3290400010"}, "type": "Feature"}
{"dataset_attributes": {"@spider": "usps_collection_boxes", "spider:collection_time": "2023-10-07T08:22:43.442925"}, "geometry": {"coordinates": [-80.6478349961, 28.0379200019], "type": "Point"}, "id": "ka-JTKu_lOB9iRxsbNZDJT72Ato=", "properties": {"@spider": "usps_collection_boxes", "addr:city": "MELBOURNE", "addr:country": "US", "addr:full": "845 PALM BAY RD NE", "addr:postcode": "32904", "addr:state": "FL", "amenity": "post_box", "brand": "United States Postal Service", "brand:wikidata": "Q668687", "collection_times": "Mo-Sa 11:00", "name": "USPS COLLECTION BOX - BLUE BOX", "nsi_id": "unitedstatespostalservice-a77078", "operator": "United States Postal Service", "operator:short": "USPS", "operator:type": "public", "operator:wikidata": "Q668687", "ref": "3290400018"}, "type": "Feature"}
{"dataset_attributes": {"@spider": "usps_collection_boxes", "spider:collection_time": "2023-10-07T08:22:43.442925"}, "geometry": {"coordinates": [-80.670627328, 28.07133322], "type": "Point"}, "id": "VZ52rzbFj4TeBwSsoTpTtxjojAQ=", "properties": {"@spider": "usps_collection_boxes", "addr:city": "MELBOURNE", "addr:country": "US", "addr:full": "2305 MINTON RD", "addr:postcode": "32904", "addr:state": "FL", "amenity": "post_box", "brand": "United States Postal Service", "brand:wikidata": "Q668687", "collection_times": "Mo-Sa 17:00", "name": "USPS COLLECTION BOX - PO LOBBY", "note": "ON 12/24 AND 12/31, THIS BOX MAY BE COLLECTED AS EARLY AS 12 NOON.", "nsi_id": "unitedstatespostalservice-a77078", "operator": "United States Postal Service", "operator:short": "USPS", "operator:type": "public", "operator:wikidata": "Q668687", "ref": "3290400019"}, "type": "Feature"}
{"dataset_attributes": {"@spider": "usps_collection_boxes", "spider:collection_time": "2023-10-07T08:22:43.442925"}, "geometry": {"coordinates": [-80.670627328, 28.07133322], "type": "Point"}, "id": "11uF94mKDnSViLRc13_Z1vsuwd4=", "properties": {"@spider": "usps_collection_boxes", "addr:city": "MELBOURNE", "addr:country": "US", "addr:full": "2305 MINTON RD", "addr:postcode": "32904", "addr:state": "FL", "amenity": "post_box", "brand": "United States Postal Service", "brand:wikidata": "Q668687", "collection_times": "Mo-Sa 17:00", "name": "USPS COLLECTION BOX - APC", "note": "ON 12/24 AND 12/31, THIS BOX MAY BE COLLECTED AS EARLY AS 12 NOON.", "nsi_id": "unitedstatespostalservice-a77078", "operator": "United States Postal Service", "operator:short": "USPS", "operator:type": "public", "operator:wikidata": "Q668687", "ref": "3290400020"}, "type": "Feature"}
{"dataset_attributes": {"@spider": "usps_collection_boxes", "spider:collection_time": "2023-10-07T08:22:43.442925"}, "geometry": {"coordinates": [-80.653400445, 28.078980485], "type": "Point"}, "id": "F-Gfjl2Eyv0swbOpKqgdl-0iX4Q=", "properties": {"@spider": "usps_collection_boxes", "addr:city": "MELBOURNE", "addr:country": "US", "addr:full": "1990 W NEW HAVEN AVE", "addr:postcode": "32904", "addr:state": "FL", "amenity": "post_box", "brand": "United States Postal Service", "brand:wikidata": "Q668687", "collection_times": "Mo-Fr 15:30", "name": "USPS COLLECTION BOX - BLUE BOX", "note": "ON 12/24 AND 12/31, THIS BOX MAY BE COLLECTED AS EARLY AS 12 NOON.", "nsi_id": "unitedstatespostalservice-a77078", "operator": "United States Postal Service", "operator:short": "USPS", "operator:type": "public", "operator:wikidata": "Q668687", "ref": "3290400022"}, "type": "Feature"}
{"dataset_attributes": {"@spider": "usps_collection_boxes", "spider:collection_time": "2023-10-07T08:22:43.442925"}, "geometry": {"coordinates": [-80.6527969989, 28.0599409798], "type": "Point"}, "id": "uCtWiMDTLb2P6R3by137bSLht50=", "properties": {"@spider": "usps_collection_boxes", "addr:city": "MELBOURNE", "addr:country": "US", "addr:full": "840 HOLLYWOOD BLVD", "addr:postcode": "32904", "addr:state": "FL", "amenity": "post_box", "brand": "United States Postal Service", "brand:wikidata": "Q668687", "collection_times": "Mo-Sa 10:00", "name": "USPS COLLECTION BOX - BLUE BOX", "nsi_id": "unitedstatespostalservice-a77078", "operator": "United States Postal Service", "operator:short": "USPS", "operator:type": "public", "operator:wikidata": "Q668687", "ref": "3290400023"}, "type": "Feature"}
{"dataset_attributes": {"@spider": "usps_collection_boxes", "spider:collection_time": "2023-10-07T08:22:43.442925"}, "geometry": {"coordinates": [-80.670627328, 28.07133322], "type": "Point"}, "id": "GBdSwslM5T38X1xOtazIi2SrTFs=", "properties": {"@spider": "usps_collection_boxes", "addr:city": "MELBOURNE", "addr:country": "US", "addr:full": "2305 MINTON RD", "addr:postcode": "32904", "addr:state": "FL", "amenity": "post_box", "brand": "United States Postal Service", "brand:wikidata": "Q668687", "collection_times": "Mo-Sa 17:00", "name": "USPS COLLECTION BOX - PO LOBBY", "note": "ON 12/24 AND 12/31, THIS BOX MAY BE COLLECTED AS EARLY AS 12 NOON.", "nsi_id": "unitedstatespostalservice-a77078", "operator": "United States Postal Service", "operator:short": "USPS", "operator:type": "public", "operator:wikidata": "Q668687", "ref": "3290400024"}, "type": "Feature"}
{"dataset_attributes": {"@spider": "usps_collection_boxes", "spider:collection_time": "2023-10-07T08:22:43.442925"}, "geometry": {"coordinates": [-80.670627328, 28.07133322], "type": "Point"}, "id": "BSefueM9FhgLPkrKWPV4suXqiro=", "properties": {"@spider": "usps_collection_boxes", "addr:city": "MELBOURNE", "addr:country": "US", "addr:full": "2305 MINTON RD", "addr:postcode": "32904", "addr:state": "FL", "amenity": "post_box", "brand": "United States Postal Service", "brand:wikidata": "Q668687", "collection_times": "Mo-Sa 17:00", "name": "USPS COLLECTION BOX - PO LOBBY", "note": "ON 12/24 AND 12/31, THIS BOX MAY BE COLLECTED AS EARLY AS 12 NOON.", "nsi_id": "unitedstatespostalservice-a77078", "operator": "United States Postal Service", "operator:short": "USPS", "operator:type": "public", "operator:wikidata": "Q668687", "ref": "3290400025"}, "type": "Feature"}
{"dataset_attributes": {"@spider": "usps_collection_boxes", "spider:collection_time": "2023-10-07T08:22:43.442925"}, "geometry": {"coordinates": [-80.670627328, 28.07133322], "type": "Point"}, "id": "UYzgSrLurHKJSoGlCKjxHqcOGbw=", "properties": {"@spider": "usps_collection_boxes", "addr:city": "MELBOURNE", "addr:country": "US", "addr:full": "2305 MINTON RD", "addr:postcode": "32904", "addr:state": "FL", "amenity": "post_box", "brand": "United States Postal Service", "brand:wikidata": "Q668687", "collection_times": "Mo-Fr 17:00; Sa 12:00", "name": "USPS COLLECTION BOX - PO LOBBY", "note": "ON 12/24 AND 12/31, THIS BOX MAY BE COLLECTED AS EARLY AS 12 NOON.", "nsi_id": "unitedstatespostalservice-a77078", "operator": "United States Postal Service", "operator:short": "USPS", "operator:type": "public", "operator:wikidata": "Q668687", "ref": "3290400031"}, "type": "Feature"}
{"dataset_attributes": {"@spider": "usps_collection_boxes", "spider:collection_time": "2023-10-07T08:22:43.442925"}, "geometry": {"coordinates": [-80.5758754126, 28.0241663843], "type": "Point"}, "id": "0prB0VKyCJc7OYuC6sP6W38sdaA=", "properties": {"@spider": "usps_collection_boxes", "addr:city": "PALM BAY", "addr:country": "US", "addr:full": "2499 PORT MALABAR BLVD NE", "addr:postcode": "32905", "addr:state": "FL", "amenity": "post_box", "brand": "United States Postal Service", "brand:wikidata": "Q668687", "collection_times": "Mo-Sa 14:00", "name": "USPS COLLECTION BOX - BLUE BOX", "note": "ON 12/24 AND 12/31, THIS BOX MAY BE COLLECTED AS EARLY AS 12 NOON.", "nsi_id": "unitedstatespostalservice-a77078", "operator": "United States Postal Service", "operator:short": "USPS", "operator:type": "public", "operator:wikidata": "Q668687", "ref": "3290500001"}, "type": "Feature"}
{"dataset_attributes": {"@spider": "usps_collection_boxes", "spider:collection_time": "2023-10-07T08:22:43.442925"}, "geometry": {"coordinates": [-80.582955, 28.02014], "type": "Point"}, "id": "lxGXs-9boE67o1KQWZiH4mmjEtY=", "properties": {"@spider": "usps_collection_boxes", "addr:city": "PALM BAY", "addr:country": "US", "addr:full": "5270 BABCOCK ST NE", "addr:postcode": "32905", "addr:state": "FL", "amenity": "post_box", "brand": "United States Postal Service", "brand:wikidata": "Q668687", "collection_times": "Mo-Sa 14:00", "name": "USPS COLLECTION BOX - BLUE BOX", "note": "ON 12/24 AND 12/31, THIS BOX MAY BE COLLECTED AS EARLY AS 12 NOON.", "nsi_id": "unitedstatespostalservice-a77078", "operator": "United States Postal Service", "operator:short": "USPS", "operator:type": "public", "operator:wikidata": "Q668687", "ref": "3290500004"}, "type": "Feature"}
{"dataset_attributes": {"@spider": "usps_collection_boxes", "spider:collection_time": "2023-10-07T08:22:43.442925"}, "geometry": {"coordinates": [-80.6204300284, 28.0324459905], "type": "Point"}, "id": "TMiesQIZ8OF_tfZ1NPfbsi1PRic=", "properties": {"@spider": "usps_collection_boxes", "addr:city": "PALM BAY", "addr:country": "US", "addr:full": "4711 BABCOCK ST NE", "addr:postcode": "32905", "addr:state": "FL", "amenity": "post_box", "brand": "United States Postal Service", "brand:wikidata": "Q668687", "collection_times": "Mo-Sa 13:00", "name": "USPS COLLECTION BOX - BLUE BOX", "note": "ON 12/24 AND 12/31, THIS BOX MAY BE COLLECTED AS EARLY AS 12 NOON.", "nsi_id": "unitedstatespostalservice-a77078", "operator": "United States Postal Service", "operator:short": "USPS", "operator:type": "public", "operator:wikidata": "Q668687", "ref": "3290500008"}, "type": "Feature"}
{"dataset_attributes": {"@spider": "usps_collection_boxes", "spider:collection_time": "2023-10-07T08:22:43.442925"}, "geometry": {"coordinates": [-80.605410084, 28.036726805], "type": "Point"}, "id": "3G5Zx-uA9KUEpvsQwmoWXPVJxuU=", "properties": {"@spider": "usps_collection_boxes", "addr:city": "PALM BAY", "addr:country": "US", "addr:full": "4660 LIPSCOMB ST NE", "addr:postcode": "32905", "addr:state": "FL", "amenity": "post_box", "brand": "United States Postal Service", "brand:wikidata": "Q668687", "collection_times": "Mo-Fr 17:00; Sa 16:00", "name": "USPS COLLECTION BOX - PO LOBBY", "note": "ON 12/24 AND 12/31, THIS BOX MAY BE COLLECTED AS EARLY AS 12 NOON.", "nsi_id": "unitedstatespostalservice-a77078", "operator": "United States Postal Service", "operator:short": "USPS", "operator:type": "public", "operator:wikidata": "Q668687", "ref": "3290500016"}, "type": "Feature"}
{"dataset_attributes": {"@spider": "usps_collection_boxes", "spider:collection_time": "2023-10-07T08:22:43.442925"}, "geometry": {"coordinates": [-80.605410084, 28.036726805], "type": "Point"}, "id": "Av-2G3yKIFmV97SiBs6DPNJsvUQ=", "properties": {"@spider": "usps_collection_boxes", "addr:city": "PALM BAY", "addr:country": "US", "addr:full": "4660 LIPSCOMB ST NE", "addr:postcode": "32905", "addr:state": "FL", "amenity": "post_box", "brand": "United States Postal Service", "brand:wikidata": "Q668687", "collection_times": "Mo-Fr 17:00; Sa 16:00", "name": "USPS COLLECTION BOX - BLUE BOX", "note": "ON 12/24 AND 12/31, THIS BOX MAY BE COLLECTED AS EARLY AS 12 NOON.", "nsi_id": "unitedstatespostalservice-a77078", "operator": "United States Postal Service", "operator:short": "USPS", "operator:type": "public", "operator:wikidata": "Q668687", "ref": "3290500018"}, "type": "Feature"}
{"dataset_attributes": {"@spider": "usps_collection_boxes", "spider:collection_time": "2023-10-07T08:22:43.442925"}, "geometry": {"coordinates": [-80.605410084, 28.036726805], "type": "Point"}, "id": "z_pteIEMfvo5oSqu6wfI3-Oe2pg=", "properties": {"@spider": "usps_collection_boxes", "addr:city": "PALM BAY", "addr:country": "US", "addr:full": "4660 LIPSCOMB ST NE", "addr:postcode": "32905", "addr:state": "FL", "amenity": "post_box", "brand": "United States Postal Service", "brand:wikidata": "Q668687", "collection_times": "Mo-Fr 17:00; Sa 16:00", "name": "USPS COLLECTION BOX - PO LOBBY", "note": "ON 12/24 AND 12/31, THIS BOX MAY BE COLLECTED AS EARLY AS 12 NOON.", "nsi_id": "unitedstatespostalservice-a77078", "operator": "United States Postal Service", "operator:short": "USPS", "operator:type": "public", "operator:wikidata": "Q668687", "ref": "3290500026"}, "type": "Feature"}
{"dataset_attributes": {"@spider": "usps_collection_boxes", "spider:collection_time": "2023-10-07T08:22:43.442925"}, "geometry": {"coordinates": [-80.605410084, 28.036726805], "type": "Point"}, "id": "UuSYTXujDuELaaRZI_tGkFEBhAc=", "properties": {"@spider": "usps_collection_boxes", "addr:city": "PALM BAY", "addr:country": "US", "addr:full": "4660 LIPSCOMB ST NE", "addr:postcode": "32905", "addr:state": "FL", "amenity": "post_box", "brand": "United States Postal Service", "brand:wikidata": "Q668687", "collection_times": "Mo-Fr 17:00; Sa 12:00", "name": "USPS COLLECTION BOX - PO LOBBY", "note": "ON 12/24 AND 12/31, THIS BOX MAY BE COLLECTED AS EARLY AS 12 NOON.", "nsi_id": "unitedstatespostalservice-a77078", "operator": "United States Postal Service", "operator:short": "USPS", "operator:type": "public", "operator:wikidata": "Q668687", "ref": "3290500032"}, "type": "Feature"}
{"dataset_attributes": {"@spider": "usps_collection_boxes", "spider:collection_time": "2023-10-07T08:22:43.442925"}, "geometry": {"coordinates": [-80.674966854, 27.999075118], "type": "Point"}, "id": "l1wjrEOafRS7Z6uP6xB8eWLh_rA=", "properties": {"@spider": "usps_collection_boxes", "addr:city": "MELBOURNE", "addr:country": "US", "addr:full": "160 MALABAR RD SW", "addr:postcode": "32907", "addr:state": "FL", "amenity": "post_box", "brand": "United States Postal Service", "brand:wikidata": "Q668687", "collection_times": "Mo-Sa 10:00", "name": "USPS COLLECTION BOX - BLUE BOX", "nsi_id": "unitedstatespostalservice-a77078", "operator": "United States Postal Service", "operator:short": "USPS", "operator:type": "public", "operator:wikidata": "Q668687", "ref": "3290700003"}, "type": "Feature"}
{"dataset_attributes": {"@spider": "usps_collection_boxes", "spider:collection_time": "2023-10-07T08:22:43.442925"}, "geometry": {"coordinates": [-80.621991115, 27.998351612], "type": "Point"}, "id": "674JIPrIhbn4_cwpI0UBn7tdBF0=", "properties": {"@spider": "usps_collection_boxes", "addr:city": "MELBOURNE", "addr:country": "US", "addr:full": "6050 BABCOCK ST SE", "addr:postcode": "32907", "addr:state": "FL", "amenity": "post_box", "brand": "United States Postal Service", "brand:wikidata": "Q668687", "collection_times": "Mo-Sa 12:00", "name": "USPS COLLECTION BOX - BLUE BOX", "nsi_id": "unitedstatespostalservice-a77078", "operator": "United States Postal Service", "operator:short": "USPS", "operator:type": "public", "operator:wikidata": "Q668687", "ref": "3290700006"}, "type": "Feature"}
{"dataset_attributes": {"@spider": "usps_collection_boxes", "spider:collection_time": "2023-10-07T08:22:43.442925"}, "geometry": {"coordinates": [-80.698059, 27.998971519], "type": "Point"}, "id": "UKHSmqwv0-lQL8vmD5Pd3_Hcm_I=", "properties": {"@spider": "usps_collection_boxes", "addr:city": "MELBOURNE", "addr:country": "US", "addr:full": "950 MALABAR RD SW", "addr:postcode": "32907", "addr:state": "FL", "amenity": "post_box", "brand": "United States Postal Service", "brand:wikidata": "Q668687", "collection_times": "Mo-Sa 17:00", "name": "USPS COLLECTION BOX - BLUE BOX", "note": "ON 12/24 AND 12/31, THIS BOX MAY BE COLLECTED AS EARLY AS 12 NOON.", "nsi_id": "unitedstatespostalservice-a77078", "operator": "United States Postal Service", "operator:short": "USPS", "operator:type": "public", "operator:wikidata": "Q668687", "ref": "3290700009"}, "type": "Feature"}
{"dataset_attributes": {"@spider": "usps_collection_boxes", "spider:collection_time": "2023-10-07T08:22:43.442925"}, "geometry": {"coordinates": [-80.698059, 27.998971519], "type": "Point"}, "id": "GXR8GhbvblqBS3pSwcVRAiO0uOo=", "properties": {"@spider": "usps_collection_boxes", "addr:city": "MELBOURNE", "addr:country": "US", "addr:full": "950 MALABAR RD SW", "addr:postcode": "32907", "addr:state": "FL", "amenity": "post_box", "brand": "United States Postal Service", "brand:wikidata": "Q668687", "collection_times": "Mo-Fr 17:00; Sa 13:00", "name": "USPS COLLECTION BOX - PO LOBBY", "note": "ON 12/24 AND 12/31, THIS BOX MAY BE COLLECTED AS EARLY AS 12 NOON.", "nsi_id": "unitedstatespostalservice-a77078", "operator": "United States Postal Service", "operator:short": "USPS", "operator:type": "public", "operator:wikidata": "Q668687", "ref": "3290700010"}, "type": "Feature"}
{"dataset_attributes": {"@spider": "usps_collection_boxes", "spider:collection_time": "2023-10-07T08:22:43.442925"}, "geometry": {"coordinates": [-80.660099839, 28.030601402], "type": "Point"}, "id": "v1Snj8k7XbNbZ0iFENPnah1hHxk=", "properties": {"@spider": "usps_collection_boxes", "addr:city": "MELBOURNE", "addr:country": "US", "addr:full": "1275 CULVER DR NE", "addr:postcode": "32907", "addr:state": "FL", "amenity": "post_box", "brand": "United States Postal Service", "brand:wikidata": "Q668687", "collection_times": "Mo-Sa 12:00", "name": "USPS COLLECTION BOX - BLUE BOX", "nsi_id": "unitedstatespostalservice-a77078", "operator": "United States Postal Service", "operator:short": "USPS", "operator:type": "public", "operator:wikidata": "Q668687", "ref": "3290700011"}, "type": "Feature"}
{"dataset_attributes": {"@spider": "usps_collection_boxes", "spider:collection_time": "2023-10-07T08:22:43.442925"}, "geometry": {"coordinates": [-80.671671671, 28.030229696], "type": "Point"}, "id": "LG3STI-6mCs6_wIcJgXNB8V0asM=", "properties": {"@spider": "usps_collection_boxes", "addr:city": "MELBOURNE", "addr:country": "US", "addr:full": "5156 MINTON RD NW", "addr:postcode": "32907", "addr:state": "FL", "amenity": "post_box", "brand": "United States Postal Service", "brand:wikidata": "Q668687", "collection_times": "Mo-Sa 15:00", "name": "USPS COLLECTION BOX - BLUE BOX", "note": "ON 12/24 AND 12/31, THIS BOX MAY BE COLLECTED AS EARLY AS 12 NOON.", "nsi_id": "unitedstatespostalservice-a77078", "operator": "United States Postal Service", "operator:short": "USPS", "operator:type": "public", "operator:wikidata": "Q668687", "ref": "3290700012"}, "type": "Feature"}
{"dataset_attributes": {"@spider": "usps_collection_boxes", "spider:collection_time": "2023-10-07T08:22:43.442925"}, "geometry": {"coordinates": [-80.635080395, 27.9986185], "type": "Point"}, "id": "PvYqm9_6wTp61aUbFQn5bwYUkXY=", "properties": {"@spider": "usps_collection_boxes", "addr:city": "MELBOURNE", "addr:country": "US", "addr:full": "1155 MALABAR RD NE STE 18", "addr:postcode": "32907", "addr:state": "FL", "amenity": "post_box", "brand": "United States Postal Service", "brand:wikidata": "Q668687", "collection_times": "Mo-Fr 17:00; Sa 14:00", "name": "USPS COLLECTION BOX - PO LOBBY", "note": "ON 12/24 AND 12/31, THIS BOX MAY BE COLLECTED AS EARLY AS 12 NOON.", "nsi_id": "unitedstatespostalservice-a77078", "operator": "United States Postal Service", "operator:short": "USPS", "operator:type": "public", "operator:wikidata": "Q668687", "ref": "3290700015"}, "type": "Feature"}
{"dataset_attributes": {"@spider": "usps_collection_boxes", "spider:collection_time": "2023-10-07T08:22:43.442925"}, "geometry": {"coordinates": [-80.698059, 27.998971519], "type": "Point"}, "id": "nv2toxV3GTL0Os97ooRj9i3fUfc=", "properties": {"@spider": "usps_collection_boxes", "addr:city": "MELBOURNE", "addr:country": "US", "addr:full": "950 MALABAR RD SW", "addr:postcode": "32907", "addr:state": "FL", "amenity": "post_box", "brand": "United States Postal Service", "brand:wikidata": "Q668687", "collection_times": "Mo-Fr 17:00; Sa 13:00", "name": "USPS COLLECTION BOX - PO LOBBY", "note": "ON 12/24 AND 12/31, THIS BOX MAY BE COLLECTED AS EARLY AS 12 NOON.", "nsi_id": "unitedstatespostalservice-a77078", "operator": "United States Postal Service", "operator:short": "USPS", "operator:type": "public", "operator:wikidata": "Q668687", "ref": "3290700016"}, "type": "Feature"}
{"dataset_attributes": {"@spider": "usps_collection_boxes", "spider:collection_time": "2023-10-07T08:22:43.442925"}, "geometry": {"coordinates": [-80.635080395, 27.9986185], "type": "Point"}, "id": "WN-pcVCBN6e32-_-x5Gxpbuf5Bw=", "properties": {"@spider": "usps_collection_boxes", "addr:city": "MELBOURNE", "addr:country": "US", "addr:full": "1155 MALABAR RD NE", "addr:postcode": "32910", "addr:state": "FL", "amenity": "post_box", "brand": "United States Postal Service", "brand:wikidata": "Q668687", "collection_times": "Mo-Fr 17:00; Sa 14:30", "name": "USPS COLLECTION BOX - PO LOBBY", "note": "ON 12/24 AND 12/31, THIS BOX MAY BE COLLECTED AS EARLY AS 12 NOON.", "nsi_id": "unitedstatespostalservice-a77078", "operator": "United States Postal Service", "operator:short": "USPS", "operator:type": "public", "operator:wikidata": "Q668687", "ref": "3291000000"}, "type": "Feature"}
{"dataset_attributes": {"@spider": "usps_collection_boxes", "spider:collection_time": "2023-10-07T08:22:43.442925"}, "geometry": {"coordinates": [-80.635080395, 27.9986185], "type": "Point"}, "id": "Ddg1qMiLpxIv20_Qu6-BLubAFoQ=", "properties": {"@spider": "usps_collection_boxes", "addr:city": "MELBOURNE", "addr:country": "US", "addr:full": "1155 MALABAR RD NE", "addr:postcode": "32910", "addr:state": "FL", "amenity": "post_box", "brand": "United States Postal Service", "brand:wikidata": "Q668687", "collection_times": "Mo-Fr 17:00; Sa 14:30", "name": "USPS COLLECTION BOX - BLUE BOX", "note": "ON 12/24 AND 12/31, THIS BOX MAY BE COLLECTED AS EARLY AS 12 NOON.", "nsi_id": "unitedstatespostalservice-a77078", "operator": "United States Postal Service", "operator:short": "USPS", "operator:type": "public", "operator:wikidata": "Q668687", "ref": "3291000001"}, "type": "Feature"}
{"dataset_attributes": {"@spider": "usps_collection_boxes", "spider:collection_time": "2023-10-07T08:22:43.442925"}, "geometry": {"coordinates": [-80.635080395, 27.9986185], "type": "Point"}, "id": "78JsL228zPSMFVSroJtDZpsgY9c=", "properties": {"@spider": "usps_collection_boxes", "addr:city": "MELBOURNE", "addr:country": "US", "addr:full": "1155 MALABAR RD NE", "addr:postcode": "32910", "addr:state": "FL", "amenity": "post_box", "brand": "United States Postal Service", "brand:wikidata": "Q668687", "collection_times": "Mo-Fr 17:00; Sa 14:30", "name": "USPS COLLECTION BOX - APC", "note": "ON 12/24 AND 12/31, THIS BOX MAY BE COLLECTED AS EARLY AS 12 NOON.", "nsi_id": "unitedstatespostalservice-a77078", "operator": "United States Postal Service", "operator:short": "USPS", "operator:type": "public", "operator:wikidata": "Q668687", "ref": "3291000002"}, "type": "Feature"}
{"dataset_attributes": {"@spider": "usps_collection_boxes", "spider:collection_time": "2023-10-07T08:22:43.442925"}, "geometry": {"coordinates": [-80.612550974, 28.404365546], "type": "Point"}, "id": "m6MtLfn_ui2ax8fCyluVx4TN_N8=", "properties": {"@spider": "usps_collection_boxes", "addr:city": "CAPE CANAVERAL", "addr:country": "US", "addr:full": "445 CHALLENGER RD", "addr:postcode": "32920", "addr:state": "FL", "amenity": "post_box", "brand": "United States Postal Service", "brand:wikidata": "Q668687", "collection_times": "Mo-Sa 12:00", "name": "USPS COLLECTION BOX - BLUE BOX", "nsi_id": "unitedstatespostalservice-a77078", "operator": "United States Postal Service", "operator:short": "USPS", "operator:type": "public", "operator:wikidata": "Q668687", "ref": "3292000003"}, "type": "Feature"}
{"dataset_attributes": {"@spider": "usps_collection_boxes", "spider:collection_time": "2023-10-07T08:22:43.442925"}, "geometry": {"coordinates": [-80.6036640036, 28.3845930793], "type": "Point"}, "id": "kcoiQ_DfRXhjrOwvAbcPLw5DRG0=", "properties": {"@spider": "usps_collection_boxes", "addr:city": "CAPE CANAVERAL", "addr:country": "US", "addr:full": "201 POLK AVE", "addr:postcode": "32920", "addr:state": "FL", "amenity": "post_box", "brand": "United States Postal Service", "brand:wikidata": "Q668687", "collection_times": "Mo-Sa 10:30", "name": "USPS COLLECTION BOX - BLUE BOX", "nsi_id": "unitedstatespostalservice-a77078", "operator": "United States Postal Service", "operator:short": "USPS", "operator:type": "public", "operator:wikidata": "Q668687", "ref": "3292000004"}, "type": "Feature"}
{"dataset_attributes": {"@spider": "usps_collection_boxes", "spider:collection_time": "2023-10-07T08:22:43.442925"}, "geometry": {"coordinates": [-80.605567297, 28.386746864], "type": "Point"}, "id": "GavViWzm397idhZdI6MnR6KFuBk=", "properties": {"@spider": "usps_collection_boxes", "addr:city": "CAPE CANAVERAL", "addr:country": "US", "addr:full": "7700 N ATLANTIC AVE", "addr:postcode": "32920", "addr:state": "FL", "amenity": "post_box", "brand": "United States Postal Service", "brand:wikidata": "Q668687", "collection_times": "Mo-Sa 12:00", "name": "USPS COLLECTION BOX - BLUE BOX", "nsi_id": "unitedstatespostalservice-a77078", "operator": "United States Postal Service", "operator:short": "USPS", "operator:type": "public", "operator:wikidata": "Q668687", "ref": "3292000010"}, "type": "Feature"}
{"dataset_attributes": {"@spider": "usps_collection_boxes", "spider:collection_time": "2023-10-07T08:22:43.442925"}, "geometry": {"coordinates": [-80.605632703, 28.38123], "type": "Point"}, "id": "bcFow3p1WHfqWvVn0JRDKkl3vUU=", "properties": {"@spider": "usps_collection_boxes", "addr:city": "CAPE CANAVERAL", "addr:country": "US", "addr:full": "7077 N ATLANTIC AVE", "addr:postcode": "32920", "addr:state": "FL", "amenity": "post_box", "brand": "United States Postal Service", "brand:wikidata": "Q668687", "collection_times": "Mo-Sa 12:00", "name": "USPS COLLECTION BOX - BLUE BOX", "nsi_id": "unitedstatespostalservice-a77078", "operator": "United States Postal Service", "operator:short": "USPS", "operator:type": "public", "operator:wikidata": "Q668687", "ref": "3292000011"}, "type": "Feature"}
{"dataset_attributes": {"@spider": "usps_collection_boxes", "spider:collection_time": "2023-10-07T08:22:43.442925"}, "geometry": {"coordinates": [-80.611859739, 28.395940261], "type": "Point"}, "id": "sfu0q6CfucjD05uha1Fl2Y7BSm8=", "properties": {"@spider": "usps_collection_boxes", "addr:city": "CAPE CANAVERAL", "addr:country": "US", "addr:full": "8700 ASTRONAUT BLVD", "addr:postcode": "32920", "addr:state": "FL", "amenity": "post_box", "brand": "United States Postal Service", "brand:wikidata": "Q668687", "collection_times": "Mo-Fr 17:00; Sa 15:00", "name": "USPS COLLECTION BOX - BLUE BOX", "note": "ON 12/24 AND 12/31, THIS BOX MAY BE COLLECTED AS EARLY AS 12 NOON.", "nsi_id": "unitedstatespostalservice-a77078", "operator": "United States Postal Service", "operator:short": "USPS", "operator:type": "public", "operator:wikidata": "Q668687", "ref": "3292000013"}, "type": "Feature"}
{"dataset_attributes": {"@spider": "usps_collection_boxes", "spider:collection_time": "2023-10-07T08:22:43.442925"}, "geometry": {"coordinates": [-80.611859739, 28.395940261], "type": "Point"}, "id": "kzRcy5kpNep882pxXpKtGpCBHLw=", "properties": {"@spider": "usps_collection_boxes", "addr:city": "CAPE CANAVERAL", "addr:country": "US", "addr:full": "8700 ASTRONAUT BLVD", "addr:postcode": "32920", "addr:state": "FL", "amenity": "post_box", "brand": "United States Postal Service", "brand:wikidata": "Q668687", "collection_times": "Mo-Fr 17:00; Sa 15:00", "name": "USPS COLLECTION BOX - PO LOBBY", "note": "ON 12/24 AND 12/31, THIS BOX MAY BE COLLECTED AS EARLY AS 12 NOON.", "nsi_id": "unitedstatespostalservice-a77078", "operator": "United States Postal Service", "operator:short": "USPS", "operator:type": "public", "operator:wikidata": "Q668687", "ref": "3292000015"}, "type": "Feature"}
{"dataset_attributes": {"@spider": "usps_collection_boxes", "spider:collection_time": "2023-10-07T08:22:43.442925"}, "geometry": {"coordinates": [-80.605580215, 28.39068], "type": "Point"}, "id": "s0Q5ATjp-cmBOkECVkbEbd7vtkg=", "properties": {"@spider": "usps_collection_boxes", "addr:city": "CAPE CANAVERAL", "addr:country": "US", "addr:full": "8177 N ATLANTIC AVE", "addr:postcode": "32920", "addr:state": "FL", "amenity": "post_box", "brand": "United States Postal Service", "brand:wikidata": "Q668687", "collection_times": "Mo-Sa 14:30", "name": "USPS COLLECTION BOX - BLUE BOX", "note": "ON 12/24 AND 12/31, THIS BOX MAY BE COLLECTED AS EARLY AS 12 NOON.", "nsi_id": "unitedstatespostalservice-a77078", "operator": "United States Postal Service", "operator:short": "USPS", "operator:type": "public", "operator:wikidata": "Q668687", "ref": "3292000016"}, "type": "Feature"}
{"dataset_attributes": {"@spider": "usps_collection_boxes", "spider:collection_time": "2023-10-07T08:22:43.442925"}, "geometry": {"coordinates": [-80.611859739, 28.395940261], "type": "Point"}, "id": "z6LlKOPaYxkiC5umO6L3tKZ9L7Q=", "properties": {"@spider": "usps_collection_boxes", "addr:city": "CAPE CANAVERAL", "addr:country": "US", "addr:full": "8700 ASTRONAUT BLVD", "addr:postcode": "32920", "addr:state": "FL", "amenity": "post_box", "brand": "United States Postal Service", "brand:wikidata": "Q668687", "collection_times": "Mo-Fr 17:00; Sa 15:00", "name": "USPS COLLECTION BOX - PO LOBBY", "note": "ON 12/24 AND 12/31, THIS BOX MAY BE COLLECTED AS EARLY AS 12 NOON.", "nsi_id": "unitedstatespostalservice-a77078", "operator": "United States Postal Service", "operator:short": "USPS", "operator:type": "public", "operator:wikidata": "Q668687", "ref": "3292000018"}, "type": "Feature"}
{"dataset_attributes": {"@spider": "usps_collection_boxes", "spider:collection_time": "2023-10-07T08:22:43.442925"}, "geometry": {"coordinates": [-80.611859739, 28.395940261], "type": "Point"}, "id": "lCnIFY3DLYeVh9RNii9w3tJJ8pI=", "properties": {"@spider": "usps_collection_boxes", "addr:city": "CAPE CANAVERAL", "addr:country": "US", "addr:full": "8700 ASTRONAUT BLVD", "addr:postcode": "32920", "addr:state": "FL", "amenity": "post_box", "brand": "United States Postal Service", "brand:wikidata": "Q668687", "collection_times": "Mo-Fr 17:00; Sa 15:00", "name": "USPS COLLECTION BOX - PO LOBBY", "note": "ON 12/24 AND 12/31, THIS BOX MAY BE COLLECTED AS EARLY AS 12 NOON.", "nsi_id": "unitedstatespostalservice-a77078", "operator": "United States Postal Service", "operator:short": "USPS", "operator:type": "public", "operator:wikidata": "Q668687", "ref": "3292000019"}, "type": "Feature"}
{"dataset_attributes": {"@spider": "usps_collection_boxes", "spider:collection_time": "2023-10-07T08:22:43.442925"}, "geometry": {"coordinates": [-80.611859739, 28.395940261], "type": "Point"}, "id": "i78cZWfCOozUkrq_nBkNIhKxkAM=", "properties": {"@spider": "usps_collection_boxes", "addr:city": "CAPE CANAVERAL", "addr:country": "US", "addr:full": "8700 ASTRONAUT BLVD", "addr:postcode": "32920", "addr:state": "FL", "amenity": "post_box", "brand": "United States Postal Service", "brand:wikidata": "Q668687", "collection_times": "Mo-Fr 17:00; Sa 12:00", "name": "USPS COLLECTION BOX - PO LOBBY", "note": "ON 12/24 AND 12/31, THIS BOX MAY BE COLLECTED AS EARLY AS 12 NOON.", "nsi_id": "unitedstatespostalservice-a77078", "operator": "United States Postal Service", "operator:short": "USPS", "operator:type": "public", "operator:wikidata": "Q668687", "ref": "3292000020"}, "type": "Feature"}
{"dataset_attributes": {"@spider": "usps_collection_boxes", "spider:collection_time": "2023-10-07T08:22:43.442925"}, "geometry": {"coordinates": [-80.725340746, 28.355310754], "type": "Point"}, "id": "rsqMXN5_ROxeehh-EG4LEcPUAIE=", "properties": {"@spider": "usps_collection_boxes", "addr:city": "COCOA", "addr:country": "US", "addr:full": "318 DELANNOY AVE", "addr:postcode": "32922", "addr:state": "FL", "amenity": "post_box", "brand": "United States Postal Service", "brand:wikidata": "Q668687", "collection_times": "Mo-Sa 13:00", "name": "USPS COLLECTION BOX - BLUE BOX", "note": "ON 12/24 AND 12/31, THIS BOX MAY BE COLLECTED AS EARLY AS 12 NOON.", "nsi_id": "unitedstatespostalservice-a77078", "operator": "United States Postal Service", "operator:short": "USPS", "operator:type": "public", "operator:wikidata": "Q668687", "ref": "3292200002"}, "type": "Feature"}
{"dataset_attributes": {"@spider": "usps_collection_boxes", "spider:collection_time": "2023-10-07T08:22:43.442925"}, "geometry": {"coordinates": [-80.724671361, 28.35650946], "type": "Point"}, "id": "mzRQKj6DE3J9p48p8bpsIutOSGQ=", "properties": {"@spider": "usps_collection_boxes", "addr:city": "COCOA", "addr:country": "US", "addr:full": "96 WILLARD ST", "addr:postcode": "32922", "addr:state": "FL", "amenity": "post_box", "brand": "United States Postal Service", "brand:wikidata": "Q668687", "collection_times": "Mo-Sa 13:00", "name": "USPS COLLECTION BOX - BLUE BOX", "note": "ON 12/24 AND 12/31, THIS BOX MAY BE COLLECTED AS EARLY AS 12 NOON.", "nsi_id": "unitedstatespostalservice-a77078", "operator": "United States Postal Service", "operator:short": "USPS", "operator:type": "public", "operator:wikidata": "Q668687", "ref": "3292200003"}, "type": "Feature"}
{"dataset_attributes": {"@spider": "usps_collection_boxes", "spider:collection_time": "2023-10-07T08:22:43.442925"}, "geometry": {"coordinates": [-80.739056416, 28.377732479], "type": "Point"}, "id": "wE30-M8brbDELA3bdVWOQRAYx9I=", "properties": {"@spider": "usps_collection_boxes", "addr:city": "COCOA", "addr:country": "US", "addr:full": "801 DIXON BLVD", "addr:postcode": "32922", "addr:state": "FL", "amenity": "post_box", "brand": "United States Postal Service", "brand:wikidata": "Q668687", "collection_times": "Mo-Sa 15:00", "name": "USPS COLLECTION BOX - BLUE BOX", "note": "ON 12/24 AND 12/31, THIS BOX MAY BE COLLECTED AS EARLY AS 12 NOON.", "nsi_id": "unitedstatespostalservice-a77078", "operator": "United States Postal Service", "operator:short": "USPS", "operator:type": "public", "operator:wikidata": "Q668687", "ref": "3292200006"}, "type": "Feature"}
{"dataset_attributes": {"@spider": "usps_collection_boxes", "spider:collection_time": "2023-10-07T08:22:43.442925"}, "geometry": {"coordinates": [-80.72770926, 28.353276251], "type": "Point"}, "id": "G-uDzXJh0E_dxni1UHpJcHZSd0I=", "properties": {"@spider": "usps_collection_boxes", "addr:city": "COCOA", "addr:country": "US", "addr:full": "600 FLORIDA AVE", "addr:postcode": "32922", "addr:state": "FL", "amenity": "post_box", "brand": "United States Postal Service", "brand:wikidata": "Q668687", "collection_times": "Mo-Fr 16:00; Sa 13:00", "name": "USPS COLLECTION BOX - BLUE BOX", "note": "ON 12/24 AND 12/31, THIS BOX MAY BE COLLECTED AS EARLY AS 12 NOON.", "nsi_id": "unitedstatespostalservice-a77078", "operator": "United States Postal Service", "operator:short": "USPS", "operator:type": "public", "operator:wikidata": "Q668687", "ref": "3292200008"}, "type": "Feature"}
{"dataset_attributes": {"@spider": "usps_collection_boxes", "spider:collection_time": "2023-10-07T08:22:43.442925"}, "geometry": {"coordinates": [-80.72770926, 28.353276251], "type": "Point"}, "id": "Qt0lzqybvcWvxSiL0Xqba3H21lA=", "properties": {"@spider": "usps_collection_boxes", "addr:city": "COCOA", "addr:country": "US", "addr:full": "600 FLORIDA AVE", "addr:postcode": "32922", "addr:state": "FL", "amenity": "post_box", "brand": "United States Postal Service", "brand:wikidata": "Q668687", "collection_times": "Mo-Fr 16:00; Sa 13:00", "name": "USPS COLLECTION BOX - BLUE BOX", "note": "ON 12/24 AND 12/31, THIS BOX MAY BE COLLECTED AS EARLY AS 12 NOON.", "nsi_id": "unitedstatespostalservice-a77078", "operator": "United States Postal Service", "operator:short": "USPS", "operator:type": "public", "operator:wikidata": "Q668687", "ref": "3292200010"}, "type": "Feature"}
{"dataset_attributes": {"@spider": "usps_collection_boxes", "spider:collection_time": "2023-10-07T08:22:43.442925"}, "geometry": {"coordinates": [-80.74538096, 28.35647839], "type": "Point"}, "id": "PP0a5PnTDhl5pYOhmvh2RiH9hTY=", "properties": {"@spider": "usps_collection_boxes", "addr:city": "COCOA", "addr:country": "US", "addr:full": "1114 LAKE DR", "addr:postcode": "32922", "addr:state": "FL", "amenity": "post_box", "brand": "United States Postal Service", "brand:wikidata": "Q668687", "collection_times": "Mo-Fr 16:30; Sa 13:00", "name": "USPS COLLECTION BOX - BLUE BOX", "note": "ON 12/24 AND 12/31, THIS BOX MAY BE COLLECTED AS EARLY AS 12 NOON.", "nsi_id": "unitedstatespostalservice-a77078", "operator": "United States Postal Service", "operator:short": "USPS", "operator:type": "public", "operator:wikidata": "Q668687", "ref": "3292200024"}, "type": "Feature"}
{"dataset_attributes": {"@spider": "usps_collection_boxes", "spider:collection_time": "2023-10-07T08:22:43.442925"}, "geometry": {"coordinates": [-80.761868026, 28.396908463], "type": "Point"}, "id": "zNFd9C-v6hnL9On7bCw3jfittJM=", "properties": {"@spider": "usps_collection_boxes", "addr:city": "COCOA", "addr:country": "US", "addr:full": "2000 STATE ROAD 524", "addr:postcode": "32922", "addr:state": "FL", "amenity": "post_box", "brand": "United States Postal Service", "brand:wikidata": "Q668687", "collection_times": "Mo-Sa 17:00", "name": "USPS COLLECTION BOX - BLUE BOX", "note": "ON 12/24 AND 12/31, THIS BOX MAY BE COLLECTED AS EARLY AS 12 NOON.", "nsi_id": "unitedstatespostalservice-a77078", "operator": "United States Postal Service", "operator:short": "USPS", "operator:type": "public", "operator:wikidata": "Q668687", "ref": "3292200025"}, "type": "Feature"}
{"dataset_attributes": {"@spider": "usps_collection_boxes", "spider:collection_time": "2023-10-07T08:22:43.442925"}, "geometry": {"coordinates": [-80.761868026, 28.396908463], "type": "Point"}, "id": "mEafilTfRLo00UcP7jjZMthVBnE=", "properties": {"@spider": "usps_collection_boxes", "addr:city": "COCOA", "addr:country": "US", "addr:full": "2000 STATE ROAD 524", "addr:postcode": "32922", "addr:state": "FL", "amenity": "post_box", "brand": "United States Postal Service", "brand:wikidata": "Q668687", "collection_times": "Mo-Sa 17:00", "name": "USPS COLLECTION BOX - PO LOBBY", "note": "ON 12/24 AND 12/31, THIS BOX MAY BE COLLECTED AS EARLY AS 12 NOON.", "nsi_id": "unitedstatespostalservice-a77078", "operator": "United States Postal Service", "operator:short": "USPS", "operator:type": "public", "operator:wikidata": "Q668687", "ref": "3292200026"}, "type": "Feature"}
{"dataset_attributes": {"@spider": "usps_collection_boxes", "spider:collection_time": "2023-10-07T08:22:43.442925"}, "geometry": {"coordinates": [-80.74538096, 28.35647839], "type": "Point"}, "id": "_colAE7cLSyxjADQWi5rLZNy0zA=", "properties": {"@spider": "usps_collection_boxes", "addr:city": "COCOA", "addr:country": "US", "addr:full": "1114 LAKE DR", "addr:postcode": "32922", "addr:state": "FL", "amenity": "post_box", "brand": "United States Postal Service", "brand:wikidata": "Q668687", "collection_times": "Mo-Fr 16:30", "name": "USPS COLLECTION BOX - PO LOBBY", "note": "ON 12/24 AND 12/31, THIS BOX MAY BE COLLECTED AS EARLY AS 12 NOON.", "nsi_id": "unitedstatespostalservice-a77078", "operator": "United States Postal Service", "operator:short": "USPS", "operator:type": "public", "operator:wikidata": "Q668687", "ref": "3292200028"}, "type": "Feature"}
{"dataset_attributes": {"@spider": "usps_collection_boxes", "spider:collection_time": "2023-10-07T08:22:43.442925"}, "geometry": {"coordinates": [-80.72770926, 28.353276251], "type": "Point"}, "id": "Fr0ppfKbgagNl9j_G2kLwcP_D_g=", "properties": {"@spider": "usps_collection_boxes", "addr:city": "COCOA", "addr:country": "US", "addr:full": "600 FLORIDA AVE STE 101", "addr:postcode": "32922", "addr:state": "FL", "amenity": "post_box", "brand": "United States Postal Service", "brand:wikidata": "Q668687", "collection_times": "Mo-Fr 16:00", "name": "USPS COLLECTION BOX - PO LOBBY", "note": "ON 12/24 AND 12/31, THIS BOX MAY BE COLLECTED AS EARLY AS 12 NOON.", "nsi_id": "unitedstatespostalservice-a77078", "operator": "United States Postal Service", "operator:short": "USPS", "operator:type": "public", "operator:wikidata": "Q668687", "ref": "3292200029"}, "type": "Feature"}
{"dataset_attributes": {"@spider": "usps_collection_boxes", "spider:collection_time": "2023-10-07T08:22:43.442925"}, "geometry": {"coordinates": [-80.6071192, 28.2567844], "type": "Point"}, "id": "aTwNppKCQtaJZG3YmxQLuvbL5yQ=", "properties": {"@spider": "usps_collection_boxes", "addr:city": "PATRICK AFB", "addr:country": "US", "addr:full": "424 FALCON AVE", "addr:postcode": "32925", "addr:state": "FL", "amenity": "post_box", "brand": "United States Postal Service", "brand:wikidata": "Q668687", "collection_times": "Mo-Fr 14:00", "name": "USPS COLLECTION BOX - BLUE BOX", "note": "ON 12/24 AND 12/31, THIS BOX MAY BE COLLECTED AS EARLY AS 12 NOON.", "nsi_id": "unitedstatespostalservice-a77078", "operator": "United States Postal Service", "operator:short": "USPS", "operator:type": "public", "operator:wikidata": "Q668687", "ref": "3292500009"}, "type": "Feature"}
{"dataset_attributes": {"@spider": "usps_collection_boxes", "spider:collection_time": "2023-10-07T08:22:43.442925"}, "geometry": {"coordinates": [-80.6071192, 28.2567844], "type": "Point"}, "id": "6TPP7CKg0XxG_uZdvooCysIHV2w=", "properties": {"@spider": "usps_collection_boxes", "addr:city": "PATRICK AFB", "addr:country": "US", "addr:full": "424 FALCON AVE", "addr:postcode": "32925", "addr:state": "FL", "amenity": "post_box", "brand": "United States Postal Service", "brand:wikidata": "Q668687", "collection_times": "Mo-Fr 12:15", "name": "USPS COLLECTION BOX - PO LOBBY", "note": "ON 12/24 AND 12/31, THIS BOX MAY BE COLLECTED AS EARLY AS 12 NOON.", "nsi_id": "unitedstatespostalservice-a77078", "operator": "United States Postal Service", "operator:short": "USPS", "operator:type": "public", "operator:wikidata": "Q668687", "ref": "3292500010"}, "type": "Feature"}
{"dataset_attributes": {"@spider": "usps_collection_boxes", "spider:collection_time": "2023-10-07T08:22:43.442925"}, "geometry": {"coordinates": [-80.766171041, 28.39684248], "type": "Point"}, "id": "v_WPdCpaFsgOGAdfuZKrnqYO75M=", "properties": {"@spider": "usps_collection_boxes", "addr:city": "COCOA", "addr:country": "US", "addr:full": "2323 STATE ROAD 524", "addr:postcode": "32926", "addr:state": "FL", "amenity": "post_box", "brand": "United States Postal Service", "brand:wikidata": "Q668687", "collection_times": "Mo-Sa 16:00", "name": "USPS COLLECTION BOX - BLUE BOX", "note": "ON 12/24 AND 12/31, THIS BOX MAY BE COLLECTED AS EARLY AS 12 NOON.", "nsi_id": "unitedstatespostalservice-a77078", "operator": "United States Postal Service", "operator:short": "USPS", "operator:type": "public", "operator:wikidata": "Q668687", "ref": "3292600006"}, "type": "Feature"}
{"dataset_attributes": {"@spider": "usps_collection_boxes", "spider:collection_time": "2023-10-07T08:22:43.442925"}, "geometry": {"coordinates": [-80.79745289, 28.35905611], "type": "Point"}, "id": "RZs_vrv3MBJ9EDYd3d_cgpPSuLw=", "properties": {"@spider": "usps_collection_boxes", "addr:city": "COCOA", "addr:country": "US", "addr:full": "108 ROSEWOOD DR", "addr:postcode": "32926", "addr:state": "FL", "amenity": "post_box", "brand": "United States Postal Service", "brand:wikidata": "Q668687", "collection_times": "Mo-Sa 11:00", "name": "USPS COLLECTION BOX - BLUE BOX", "nsi_id": "unitedstatespostalservice-a77078", "operator": "United States Postal Service", "operator:short": "USPS", "operator:type": "public", "operator:wikidata": "Q668687", "ref": "3292600011"}, "type": "Feature"}
{"dataset_attributes": {"@spider": "usps_collection_boxes", "spider:collection_time": "2023-10-07T08:22:43.442925"}, "geometry": {"coordinates": [-80.761868026, 28.396908463], "type": "Point"}, "id": "hLTvWMg72f_vAtbJJUo9voPicVo=", "properties": {"@spider": "usps_collection_boxes", "addr:city": "COCOA", "addr:country": "US", "addr:full": "2000 STATE ROAD 524", "addr:postcode": "32926", "addr:state": "FL", "amenity": "post_box", "brand": "United States Postal Service", "brand:wikidata": "Q668687", "collection_times": "Mo-Fr 17:00; Sa 13:00", "name": "USPS COLLECTION BOX - PO LOBBY", "note": "ON 12/24 AND 12/31, THIS BOX MAY BE COLLECTED AS EARLY AS 12 NOON.", "nsi_id": "unitedstatespostalservice-a77078", "operator": "United States Postal Service", "operator:short": "USPS", "operator:type": "public", "operator:wikidata": "Q668687", "ref": "3292600015"}, "type": "Feature"}
{"dataset_attributes": {"@spider": "usps_collection_boxes", "spider:collection_time": "2023-10-07T08:22:43.442925"}, "geometry": {"coordinates": [-80.768305778, 28.475229332], "type": "Point"}, "id": "OpEEEDgvqaEfojpm8qOCnlsLulU=", "properties": {"@spider": "usps_collection_boxes", "addr:city": "COCOA", "addr:country": "US", "addr:full": "680 WEST AVE", "addr:postcode": "32927", "addr:state": "FL", "amenity": "post_box", "brand": "United States Postal Service", "brand:wikidata": "Q668687", "collection_times": "Mo-Fr 16:00; Sa 14:00", "name": "USPS COLLECTION BOX - BLUE BOX", "note": "ON 12/24 AND 12/31, THIS BOX MAY BE COLLECTED AS EARLY AS 12 NOON.", "nsi_id": "unitedstatespostalservice-a77078", "operator": "United States Postal Service", "operator:short": "USPS", "operator:type": "public", "operator:wikidata": "Q668687", "ref": "3292700002"}, "type": "Feature"}
{"dataset_attributes": {"@spider": "usps_collection_boxes", "spider:collection_time": "2023-10-07T08:22:43.442925"}, "geometry": {"coordinates": [-80.800438249, 28.468489488], "type": "Point"}, "id": "qjeFlFA2D35Mh-wOeEVQX260GNM=", "properties": {"@spider": "usps_collection_boxes", "addr:city": "COCOA", "addr:country": "US", "addr:full": "4795 FAY BLVD", "addr:postcode": "32927", "addr:state": "FL", "amenity": "post_box", "brand": "United States Postal Service", "brand:wikidata": "Q668687", "collection_times": "Mo-Sa 12:00", "name": "USPS COLLECTION BOX - BLUE BOX", "nsi_id": "unitedstatespostalservice-a77078", "operator": "United States Postal Service", "operator:short": "USPS", "operator:type": "public", "operator:wikidata": "Q668687", "ref": "3292700004"}, "type": "Feature"}
{"dataset_attributes": {"@spider": "usps_collection_boxes", "spider:collection_time": "2023-10-07T08:22:43.442925"}, "geometry": {"coordinates": [-80.609997313, 28.341478582], "type": "Point"}, "id": "MrjYS5DqCJ4QjwVoTIMQW6gTuGU=", "properties": {"@spider": "usps_collection_boxes", "addr:city": "COCOA BEACH", "addr:country": "US", "addr:full": "1980 N ATLANTIC AVE", "addr:postcode": "32931", "addr:state": "FL", "amenity": "post_box", "brand": "United States Postal Service", "brand:wikidata": "Q668687", "collection_times": "Mo-Sa 10:30", "name": "USPS COLLECTION BOX - BLUE BOX", "nsi_id": "unitedstatespostalservice-a77078", "operator": "United States Postal Service", "operator:short": "USPS", "operator:type": "public", "operator:wikidata": "Q668687", "ref": "3293100007"}, "type": "Feature"}
{"dataset_attributes": {"@spider": "usps_collection_boxes", "spider:collection_time": "2023-10-07T08:22:43.442925"}, "geometry": {"coordinates": [-80.611527519, 28.355328461], "type": "Point"}, "id": "d1fXr0p1h4pkcO6v6-DmAg69pJI=", "properties": {"@spider": "usps_collection_boxes", "addr:city": "COCOA BEACH", "addr:country": "US", "addr:full": "3950 S BANANA RIVER BLVD", "addr:postcode": "32931", "addr:state": "FL", "amenity": "post_box", "brand": "United States Postal Service", "brand:wikidata": "Q668687", "collection_times": "Mo-Sa 10:30", "name": "USPS COLLECTION BOX - BLUE BOX", "nsi_id": "unitedstatespostalservice-a77078", "operator": "United States Postal Service", "operator:short": "USPS", "operator:type": "public", "operator:wikidata": "Q668687", "ref": "3293100013"}, "type": "Feature"}
{"dataset_attributes": {"@spider": "usps_collection_boxes", "spider:collection_time": "2023-10-07T08:22:43.442925"}, "geometry": {"coordinates": [-80.6106223972, 28.3295204409], "type": "Point"}, "id": "hw2SGiHv60PDjUiEic60_6rIhpg=", "properties": {"@spider": "usps_collection_boxes", "addr:city": "COCOA BEACH", "addr:country": "US", "addr:full": "100 COCOA ISLES BLVD", "addr:postcode": "32931", "addr:state": "FL", "amenity": "post_box", "brand": "United States Postal Service", "brand:wikidata": "Q668687", "collection_times": "Mo-Fr 15:30; Sa 15:00", "name": "USPS COLLECTION BOX - BLUE BOX", "note": "ON 12/24 AND 12/31, THIS BOX MAY BE COLLECTED AS EARLY AS 12 NOON.", "nsi_id": "unitedstatespostalservice-a77078", "operator": "United States Postal Service", "operator:short": "USPS", "operator:type": "public", "operator:wikidata": "Q668687", "ref": "3293100019"}, "type": "Feature"}
{"dataset_attributes": {"@spider": "usps_collection_boxes", "spider:collection_time": "2023-10-07T08:22:43.442925"}, "geometry": {"coordinates": [-80.6116199776, 28.3261060102], "type": "Point"}, "id": "_1sE46gKnHEQ4ZqimOwpA0lTojM=", "properties": {"@spider": "usps_collection_boxes", "addr:city": "COCOA BEACH", "addr:country": "US", "addr:full": "500 N BREVARD AVE", "addr:postcode": "32931", "addr:state": "FL", "amenity": "post_box", "brand": "United States Postal Service", "brand:wikidata": "Q668687", "collection_times": "Mo-Fr 17:00; Sa 12:15", "name": "USPS COLLECTION BOX - BLUE BOX", "note": "ON 12/24 AND 12/31, THIS BOX MAY BE COLLECTED AS EARLY AS 12 NOON.", "nsi_id": "unitedstatespostalservice-a77078", "operator": "United States Postal Service", "operator:short": "USPS", "operator:type": "public", "operator:wikidata": "Q668687", "ref": "3293100031"}, "type": "Feature"}
{"dataset_attributes": {"@spider": "usps_collection_boxes", "spider:collection_time": "2023-10-07T08:22:43.442925"}, "geometry": {"coordinates": [-80.610920179, 28.325997838], "type": "Point"}, "id": "5VaEYMC8yhXibN7XmvwUWYEcvkQ=", "properties": {"@spider": "usps_collection_boxes", "addr:city": "COCOA BEACH", "addr:country": "US", "addr:full": "500 N BREVARD AVE", "addr:postcode": "32931", "addr:state": "FL", "amenity": "post_box", "brand": "United States Postal Service", "brand:wikidata": "Q668687", "collection_times": "Mo-Fr 16:45; Sa 12:15", "name": "USPS COLLECTION BOX - PO LOBBY", "note": "ON 12/24 AND 12/31, THIS BOX MAY BE COLLECTED AS EARLY AS 12 NOON.", "nsi_id": "unitedstatespostalservice-a77078", "operator": "United States Postal Service", "operator:short": "USPS", "operator:type": "public", "operator:wikidata": "Q668687", "ref": "3293100036"}, "type": "Feature"}
{"dataset_attributes": {"@spider": "usps_collection_boxes", "spider:collection_time": "2023-10-07T08:22:43.442925"}, "geometry": {"coordinates": [-80.610920179, 28.325997838], "type": "Point"}, "id": "5sWH8ShvgFhGUkWO7GI11vr3tPw=", "properties": {"@spider": "usps_collection_boxes", "addr:city": "COCOA BEACH", "addr:country": "US", "addr:full": "500 N BREVARD AVE", "addr:postcode": "32931", "addr:state": "FL", "amenity": "post_box", "brand": "United States Postal Service", "brand:wikidata": "Q668687", "collection_times": "Mo-Fr 17:00; Sa 12:00", "name": "USPS COLLECTION BOX - PO LOBBY", "note": "ON 12/24 AND 12/31, THIS BOX MAY BE COLLECTED AS EARLY AS 12 NOON.", "nsi_id": "unitedstatespostalservice-a77078", "operator": "United States Postal Service", "operator:short": "USPS", "operator:type": "public", "operator:wikidata": "Q668687", "ref": "3293100039"}, "type": "Feature"}
{"dataset_attributes": {"@spider": "usps_collection_boxes", "spider:collection_time": "2023-10-07T08:22:43.442925"}, "geometry": {"coordinates": [-80.699132247, 28.120776458], "type": "Point"}, "id": "e1sQDwZ0irM79Ux_9l4mJ-sV2fw=", "properties": {"@spider": "usps_collection_boxes", "addr:city": "MELBOURNE", "addr:country": "US", "addr:full": "4450 W EAU GALLIE BLVD", "addr:postcode": "32934", "addr:state": "FL", "amenity": "post_box", "brand": "United States Postal Service", "brand:wikidata": "Q668687", "collection_times": "Mo-Sa 12:45", "name": "USPS COLLECTION BOX - BLUE BOX", "note": "ON 12/24 AND 12/31, THIS BOX MAY BE COLLECTED AS EARLY AS 12 NOON.", "nsi_id": "unitedstatespostalservice-a77078", "operator": "United States Postal Service", "operator:short": "USPS", "operator:type": "public", "operator:wikidata": "Q668687", "ref": "3293400002"}, "type": "Feature"}
{"dataset_attributes": {"@spider": "usps_collection_boxes", "spider:collection_time": "2023-10-07T08:22:43.442925"}, "geometry": {"coordinates": [-80.673737774, 28.14673367], "type": "Point"}, "id": "0aGFma8kQkUbdw78FriOdFZHyhM=", "properties": {"@spider": "usps_collection_boxes", "addr:city": "MELBOURNE", "addr:country": "US", "addr:full": "3128 LAKE WASHINGTON RD", "addr:postcode": "32934", "addr:state": "FL", "amenity": "post_box", "brand": "United States Postal Service", "brand:wikidata": "Q668687", "collection_times": "Mo-Sa 12:00", "name": "USPS COLLECTION BOX - BLUE BOX", "nsi_id": "unitedstatespostalservice-a77078", "operator": "United States Postal Service", "operator:short": "USPS", "operator:type": "public", "operator:wikidata": "Q668687", "ref": "3293400004"}, "type": "Feature"}
{"dataset_attributes": {"@spider": "usps_collection_boxes", "spider:collection_time": "2023-10-07T08:22:43.442925"}, "geometry": {"coordinates": [-80.672630193, 28.118178], "type": "Point"}, "id": "-x_Tje9R-e_aLKTs9H6oEy7zTlI=", "properties": {"@spider": "usps_collection_boxes", "addr:city": "MELBOURNE", "addr:country": "US", "addr:full": "700 N WICKHAM RD", "addr:postcode": "32935", "addr:state": "FL", "amenity": "post_box", "brand": "United States Postal Service", "brand:wikidata": "Q668687", "collection_times": "Mo-Fr 14:30; Sa 13:45", "name": "USPS COLLECTION BOX - BLUE BOX", "note": "ON 12/24 AND 12/31, THIS BOX MAY BE COLLECTED AS EARLY AS 12 NOON.", "nsi_id": "unitedstatespostalservice-a77078", "operator": "United States Postal Service", "operator:short": "USPS", "operator:type": "public", "operator:wikidata": "Q668687", "ref": "3293500007"}, "type": "Feature"}
{"dataset_attributes": {"@spider": "usps_collection_boxes", "spider:collection_time": "2023-10-07T08:22:43.442925"}, "geometry": {"coordinates": [-80.641089807, 28.128819492], "type": "Point"}, "id": "a81UvJH1zpSvMi8P7wD8A6yesu0=", "properties": {"@spider": "usps_collection_boxes", "addr:city": "MELBOURNE", "addr:country": "US", "addr:full": "1301 W EAU GALLIE BLVD", "addr:postcode": "32935", "addr:state": "FL", "amenity": "post_box", "brand": "United States Postal Service", "brand:wikidata": "Q668687", "collection_times": "Mo-Sa 11:00", "name": "USPS COLLECTION BOX - BLUE BOX", "nsi_id": "unitedstatespostalservice-a77078", "operator": "United States Postal Service", "operator:short": "USPS", "operator:type": "public", "operator:wikidata": "Q668687", "ref": "3293500013"}, "type": "Feature"}
{"dataset_attributes": {"@spider": "usps_collection_boxes", "spider:collection_time": "2023-10-07T08:22:43.442925"}, "geometry": {"coordinates": [-80.644471722, 28.121580549], "type": "Point"}, "id": "MuauHw3BLouC-JJUQPtk7MaV-4w=", "properties": {"@spider": "usps_collection_boxes", "addr:city": "MELBOURNE", "addr:country": "US", "addr:full": "1515 SARNO RD", "addr:postcode": "32935", "addr:state": "FL", "amenity": "post_box", "brand": "United States Postal Service", "brand:wikidata": "Q668687", "collection_times": "Mo-Sa 11:00", "name": "USPS COLLECTION BOX - BLUE BOX", "nsi_id": "unitedstatespostalservice-a77078", "operator": "United States Postal Service", "operator:short": "USPS", "operator:type": "public", "operator:wikidata": "Q668687", "ref": "3293500018"}, "type": "Feature"}
{"dataset_attributes": {"@spider": "usps_collection_boxes", "spider:collection_time": "2023-10-07T08:22:43.442925"}, "geometry": {"coordinates": [-80.645738055, 28.121668454], "type": "Point"}, "id": "d4_pTNak-LWgITrSVU0XI__0hWc=", "properties": {"@spider": "usps_collection_boxes", "addr:city": "MELBOURNE", "addr:country": "US", "addr:full": "1600 SARNO RD", "addr:postcode": "32935", "addr:state": "FL", "amenity": "post_box", "brand": "United States Postal Service", "brand:wikidata": "Q668687", "collection_times": "Mo-Sa 11:00", "name": "USPS COLLECTION BOX - BLUE BOX", "nsi_id": "unitedstatespostalservice-a77078", "operator": "United States Postal Service", "operator:short": "USPS", "operator:type": "public", "operator:wikidata": "Q668687", "ref": "3293500019"}, "type": "Feature"}
{"dataset_attributes": {"@spider": "usps_collection_boxes", "spider:collection_time": "2023-10-07T08:22:43.442925"}, "geometry": {"coordinates": [-80.657815138, 28.12868437], "type": "Point"}, "id": "JoIYI7Fr3q_hFdWaNRHGdep1_Ms=", "properties": {"@spider": "usps_collection_boxes", "addr:city": "MELBOURNE", "addr:country": "US", "addr:full": "2290 W EAU GALLIE BLVD", "addr:postcode": "32935", "addr:state": "FL", "amenity": "post_box", "brand": "United States Postal Service", "brand:wikidata": "Q668687", "collection_times": "Mo-Sa 11:00", "name": "USPS COLLECTION BOX - BLUE BOX", "nsi_id": "unitedstatespostalservice-a77078", "operator": "United States Postal Service", "operator:short": "USPS", "operator:type": "public", "operator:wikidata": "Q668687", "ref": "3293500022"}, "type": "Feature"}
{"dataset_attributes": {"@spider": "usps_collection_boxes", "spider:collection_time": "2023-10-07T08:22:43.442925"}, "geometry": {"coordinates": [-80.647085037, 28.171578455], "type": "Point"}, "id": "wc87aR0yaWgqJ7gr_G9y6NQBLXo=", "properties": {"@spider": "usps_collection_boxes", "addr:city": "MELBOURNE", "addr:country": "US", "addr:full": "3502 N US HIGHWAY 1", "addr:postcode": "32935", "addr:state": "FL", "amenity": "post_box", "brand": "United States Postal Service", "brand:wikidata": "Q668687", "collection_times": "Mo-Sa 15:30", "name": "USPS COLLECTION BOX - BLUE BOX", "note": "ON 12/24 AND 12/31, THIS BOX MAY BE COLLECTED AS EARLY AS 12 NOON.", "nsi_id": "unitedstatespostalservice-a77078", "operator": "United States Postal Service", "operator:short": "USPS", "operator:type": "public", "operator:wikidata": "Q668687", "ref": "3293500030"}, "type": "Feature"}
{"dataset_attributes": {"@spider": "usps_collection_boxes", "spider:collection_time": "2023-10-07T08:22:43.442925"}, "geometry": {"coordinates": [-80.672655296, 28.112961296], "type": "Point"}, "id": "ACvsmGbLclqrwBcfxPn8NzbHdmw=", "properties": {"@spider": "usps_collection_boxes", "addr:city": "MELBOURNE", "addr:country": "US", "addr:full": "380 N WICKHAM RD", "addr:postcode": "32935", "addr:state": "FL", "amenity": "post_box", "brand": "United States Postal Service", "brand:wikidata": "Q668687", "collection_times": "Mo-Fr 14:30; Sa 13:45", "name": "USPS COLLECTION BOX - BLUE BOX", "note": "ON 12/24 AND 12/31, THIS BOX MAY BE COLLECTED AS EARLY AS 12 NOON.", "nsi_id": "unitedstatespostalservice-a77078", "operator": "United States Postal Service", "operator:short": "USPS", "operator:type": "public", "operator:wikidata": "Q668687", "ref": "3293500031"}, "type": "Feature"}
{"dataset_attributes": {"@spider": "usps_collection_boxes", "spider:collection_time": "2023-10-07T08:22:43.442925"}, "geometry": {"coordinates": [-80.67163116, 28.126953723], "type": "Point"}, "id": "_vutZQ0c40cmYr9D2lMRXqHkUPc=", "properties": {"@spider": "usps_collection_boxes", "addr:city": "MELBOURNE", "addr:country": "US", "addr:full": "1270 N WICKHAM RD", "addr:postcode": "32935", "addr:state": "FL", "amenity": "post_box", "brand": "United States Postal Service", "brand:wikidata": "Q668687", "collection_times": "Mo-Sa 13:45", "name": "USPS COLLECTION BOX - BLUE BOX", "note": "ON 12/24 AND 12/31, THIS BOX MAY BE COLLECTED AS EARLY AS 12 NOON.", "nsi_id": "unitedstatespostalservice-a77078", "operator": "United States Postal Service", "operator:short": "USPS", "operator:type": "public", "operator:wikidata": "Q668687", "ref": "3293500033"}, "type": "Feature"}
{"dataset_attributes": {"@spider": "usps_collection_boxes", "spider:collection_time": "2023-10-07T08:22:43.442925"}, "geometry": {"coordinates": [-80.638490856, 28.118162924], "type": "Point"}, "id": "GLJff4gqUfra0atE7S72wZDjdoY=", "properties": {"@spider": "usps_collection_boxes", "addr:city": "MELBOURNE", "addr:country": "US", "addr:full": "680 N APOLLO BLVD", "addr:postcode": "32935", "addr:state": "FL", "amenity": "post_box", "brand": "United States Postal Service", "brand:wikidata": "Q668687", "collection_times": "Mo-Fr 16:00; Sa 13:00", "name": "USPS COLLECTION BOX - BLUE BOX", "note": "ON 12/24 AND 12/31, THIS BOX MAY BE COLLECTED AS EARLY AS 12 NOON.", "nsi_id": "unitedstatespostalservice-a77078", "operator": "United States Postal Service", "operator:short": "USPS", "operator:type": "public", "operator:wikidata": "Q668687", "ref": "3293500035"}, "type": "Feature"}
{"dataset_attributes": {"@spider": "usps_collection_boxes", "spider:collection_time": "2023-10-07T08:22:43.442925"}, "geometry": {"coordinates": [-80.671622201, 28.12304042], "type": "Point"}, "id": "bE0fSLwRV4X6uvqg0IYxQ1tG7AM=", "properties": {"@spider": "usps_collection_boxes", "addr:city": "MELBOURNE", "addr:country": "US", "addr:full": "1000 N WICKHAM RD", "addr:postcode": "32935", "addr:state": "FL", "amenity": "post_box", "brand": "United States Postal Service", "brand:wikidata": "Q668687", "collection_times": "Mo-Fr 14:30; Sa 13:45", "name": "USPS COLLECTION BOX - BLUE BOX", "note": "ON 12/24 AND 12/31, THIS BOX MAY BE COLLECTED AS EARLY AS 12 NOON.", "nsi_id": "unitedstatespostalservice-a77078", "operator": "United States Postal Service", "operator:short": "USPS", "operator:type": "public", "operator:wikidata": "Q668687", "ref": "3293500037"}, "type": "Feature"}
{"dataset_attributes": {"@spider": "usps_collection_boxes", "spider:collection_time": "2023-10-07T08:22:43.442925"}, "geometry": {"coordinates": [-80.655862962, 28.121727306], "type": "Point"}, "id": "eeawAoatQ5yuqmhsQ3tL2xh-o7o=", "properties": {"@spider": "usps_collection_boxes", "addr:city": "MELBOURNE", "addr:country": "US", "addr:full": "2108 SARNO RD", "addr:postcode": "32935", "addr:state": "FL", "amenity": "post_box", "brand": "United States Postal Service", "brand:wikidata": "Q668687", "collection_times": "Mo-Sa 15:30", "name": "USPS COLLECTION BOX - BLUE BOX", "note": "ON 12/24 AND 12/31, THIS BOX MAY BE COLLECTED AS EARLY AS 12 NOON.", "nsi_id": "unitedstatespostalservice-a77078", "operator": "United States Postal Service", "operator:short": "USPS", "operator:type": "public", "operator:wikidata": "Q668687", "ref": "3293500040"}, "type": "Feature"}
{"dataset_attributes": {"@spider": "usps_collection_boxes", "spider:collection_time": "2023-10-07T08:22:43.442925"}, "geometry": {"coordinates": [-80.629457921, 28.131081289], "type": "Point"}, "id": "EN80mV_w95GN24J82P90EVtN6Zw=", "properties": {"@spider": "usps_collection_boxes", "addr:city": "MELBOURNE", "addr:country": "US", "addr:full": "681 SAINT CLAIR ST", "addr:postcode": "32935", "addr:state": "FL", "amenity": "post_box", "brand": "United States Postal Service", "brand:wikidata": "Q668687", "collection_times": "Mo-Fr 17:00; Sa 12:00", "name": "USPS COLLECTION BOX - PO LOBBY", "note": "ON 12/24 AND 12/31, THIS BOX MAY BE COLLECTED AS EARLY AS 12 NOON.", "nsi_id": "unitedstatespostalservice-a77078", "operator": "United States Postal Service", "operator:short": "USPS", "operator:type": "public", "operator:wikidata": "Q668687", "ref": "3293500045"}, "type": "Feature"}
{"dataset_attributes": {"@spider": "usps_collection_boxes", "spider:collection_time": "2023-10-07T08:22:43.442925"}, "geometry": {"coordinates": [-80.629457921, 28.131081289], "type": "Point"}, "id": "bJyb5VQiBqaGwigGkVurzwfNQB8=", "properties": {"@spider": "usps_collection_boxes", "addr:city": "MELBOURNE", "addr:country": "US", "addr:full": "681 SAINT CLAIR ST", "addr:postcode": "32936", "addr:state": "FL", "amenity": "post_box", "brand": "United States Postal Service", "brand:wikidata": "Q668687", "collection_times": "Mo-Fr 17:00; Sa 14:45", "name": "USPS COLLECTION BOX - BLUE BOX", "note": "ON 12/24 AND 12/31, THIS BOX MAY BE COLLECTED AS EARLY AS 12 NOON.", "nsi_id": "unitedstatespostalservice-a77078", "operator": "United States Postal Service", "operator:short": "USPS", "operator:type": "public", "operator:wikidata": "Q668687", "ref": "3293600001"}, "type": "Feature"}
{"dataset_attributes": {"@spider": "usps_collection_boxes", "spider:collection_time": "2023-10-07T08:22:43.442925"}, "geometry": {"coordinates": [-80.629457921, 28.131081289], "type": "Point"}, "id": "ZZ-YKHfu1f607XmMCdBbrIfhLBg=", "properties": {"@spider": "usps_collection_boxes", "addr:city": "MELBOURNE", "addr:country": "US", "addr:full": "681 SAINT CLAIR ST", "addr:postcode": "32936", "addr:state": "FL", "amenity": "post_box", "brand": "United States Postal Service", "brand:wikidata": "Q668687", "collection_times": "Mo-Fr 17:00; Sa 14:45", "name": "USPS COLLECTION BOX - PO LOBBY", "note": "ON 12/24 AND 12/31, THIS BOX MAY BE COLLECTED AS EARLY AS 12 NOON.", "nsi_id": "unitedstatespostalservice-a77078", "operator": "United States Postal Service", "operator:short": "USPS", "operator:type": "public", "operator:wikidata": "Q668687", "ref": "3293600002"}, "type": "Feature"}
{"dataset_attributes": {"@spider": "usps_collection_boxes", "spider:collection_time": "2023-10-07T08:22:43.442925"}, "geometry": {"coordinates": [-80.629457921, 28.131081289], "type": "Point"}, "id": "1Iuh4offVbdMK-wpIqJ70WElFmQ=", "properties": {"@spider": "usps_collection_boxes", "addr:city": "MELBOURNE", "addr:country": "US", "addr:full": "681 SAINT CLAIR ST", "addr:postcode": "32936", "addr:state": "FL", "amenity": "post_box", "brand": "United States Postal Service", "brand:wikidata": "Q668687", "collection_times": "Mo-Fr 17:00; Sa 14:45", "name": "USPS COLLECTION BOX - APC", "note": "ON 12/24 AND 12/31, THIS BOX MAY BE COLLECTED AS EARLY AS 12 NOON.", "nsi_id": "unitedstatespostalservice-a77078", "operator": "United States Postal Service", "operator:short": "USPS", "operator:type": "public", "operator:wikidata": "Q668687", "ref": "3293600003"}, "type": "Feature"}
{"dataset_attributes": {"@spider": "usps_collection_boxes", "spider:collection_time": "2023-10-07T08:22:43.442925"}, "geometry": {"coordinates": [-80.592838974, 28.185652291], "type": "Point"}, "id": "59y7f-mDxtQs6T9rOWvpUeloETU=", "properties": {"@spider": "usps_collection_boxes", "addr:city": "INDN HBR BCH", "addr:country": "US", "addr:full": "1024 HIGHWAY A1A", "addr:postcode": "32937", "addr:state": "FL", "amenity": "post_box", "brand": "United States Postal Service", "brand:wikidata": "Q668687", "collection_times": "Mo-Sa 12:00", "name": "USPS COLLECTION BOX - BLUE BOX", "nsi_id": "unitedstatespostalservice-a77078", "operator": "United States Postal Service", "operator:short": "USPS", "operator:type": "public", "operator:wikidata": "Q668687", "ref": "3293700002"}, "type": "Feature"}
{"dataset_attributes": {"@spider": "usps_collection_boxes", "spider:collection_time": "2023-10-07T08:22:43.442925"}, "geometry": {"coordinates": [-80.59803539, 28.138564077], "type": "Point"}, "id": "P5hmEIyiN72kp0CXVSqoLrRfZKg=", "properties": {"@spider": "usps_collection_boxes", "addr:city": "INDN HBR BCH", "addr:country": "US", "addr:full": "218 E EAU GALLIE BLVD", "addr:postcode": "32937", "addr:state": "FL", "amenity": "post_box", "brand": "United States Postal Service", "brand:wikidata": "Q668687", "collection_times": "Mo-Sa 11:30", "name": "USPS COLLECTION BOX - BLUE BOX", "nsi_id": "unitedstatespostalservice-a77078", "operator": "United States Postal Service", "operator:short": "USPS", "operator:type": "public", "operator:wikidata": "Q668687", "ref": "3293700008"}, "type": "Feature"}
{"dataset_attributes": {"@spider": "usps_collection_boxes", "spider:collection_time": "2023-10-07T08:22:43.442925"}, "geometry": {"coordinates": [-80.60610883, 28.184373], "type": "Point"}, "id": "wRn7UQIabUczFSvYJsvPjSW_ppM=", "properties": {"@spider": "usps_collection_boxes", "addr:city": "INDN HBR BCH", "addr:country": "US", "addr:full": "1071 SOUTH PATRICK DR", "addr:postcode": "32937", "addr:state": "FL", "amenity": "post_box", "brand": "United States Postal Service", "brand:wikidata": "Q668687", "collection_times": "Mo-Fr 17:00; Sa 12:00", "name": "USPS COLLECTION BOX - PO LOBBY", "note": "ON 12/24 AND 12/31, THIS BOX MAY BE COLLECTED AS EARLY AS 12 NOON.", "nsi_id": "unitedstatespostalservice-a77078", "operator": "United States Postal Service", "operator:short": "USPS", "operator:type": "public", "operator:wikidata": "Q668687", "ref": "3293700012"}, "type": "Feature"}
{"dataset_attributes": {"@spider": "usps_collection_boxes", "spider:collection_time": "2023-10-07T08:22:43.442925"}, "geometry": {"coordinates": [-80.6055629629, 28.1752910131], "type": "Point"}, "id": "rB66N7dzKzGGNWcWjN_PmT90XpQ=", "properties": {"@spider": "usps_collection_boxes", "addr:city": "INDN HBR BCH", "addr:country": "US", "addr:full": "1301 SOUTH PATRICK DR", "addr:postcode": "32937", "addr:state": "FL", "amenity": "post_box", "brand": "United States Postal Service", "brand:wikidata": "Q668687", "collection_times": "Mo-Fr 11:00", "name": "USPS COLLECTION BOX - BLUE BOX", "nsi_id": "unitedstatespostalservice-a77078", "operator": "United States Postal Service", "operator:short": "USPS", "operator:type": "public", "operator:wikidata": "Q668687", "ref": "3293700014"}, "type": "Feature"}
{"dataset_attributes": {"@spider": "usps_collection_boxes", "spider:collection_time": "2023-10-07T08:22:43.442925"}, "geometry": {"coordinates": [-80.599845858, 28.152692965], "type": "Point"}, "id": "Rq3F4rr7LTEBj32wGIAazrkxtu8=", "properties": {"@spider": "usps_collection_boxes", "addr:city": "INDN HBR BCH", "addr:country": "US", "addr:full": "1861 SOUTH PATRICK DR", "addr:postcode": "32937", "addr:state": "FL", "amenity": "post_box", "brand": "United States Postal Service", "brand:wikidata": "Q668687", "collection_times": "Mo-Fr 14:00; Sa 12:00", "name": "USPS COLLECTION BOX - BLUE BOX", "note": "ON 12/24 AND 12/31, THIS BOX MAY BE COLLECTED AS EARLY AS 12 NOON.", "nsi_id": "unitedstatespostalservice-a77078", "operator": "United States Postal Service", "operator:short": "USPS", "operator:type": "public", "operator:wikidata": "Q668687", "ref": "3293700015"}, "type": "Feature"}
{"dataset_attributes": {"@spider": "usps_collection_boxes", "spider:collection_time": "2023-10-07T08:22:43.442925"}, "geometry": {"coordinates": [-80.592446029, 28.152456443], "type": "Point"}, "id": "orpL5Z4EigsB_mMwcxp26uCSMqM=", "properties": {"@spider": "usps_collection_boxes", "addr:city": "INDN HBR BCH", "addr:country": "US", "addr:full": "1104 PINETREE DR", "addr:postcode": "32937", "addr:state": "FL", "amenity": "post_box", "brand": "United States Postal Service", "brand:wikidata": "Q668687", "collection_times": "Mo-Sa 13:30", "name": "USPS COLLECTION BOX - BLUE BOX", "note": "ON 12/24 AND 12/31, THIS BOX MAY BE COLLECTED AS EARLY AS 12 NOON.", "nsi_id": "unitedstatespostalservice-a77078", "operator": "United States Postal Service", "operator:short": "USPS", "operator:type": "public", "operator:wikidata": "Q668687", "ref": "3293700017"}, "type": "Feature"}
{"dataset_attributes": {"@spider": "usps_collection_boxes", "spider:collection_time": "2023-10-07T08:22:43.442925"}, "geometry": {"coordinates": [-80.595115, 28.166745], "type": "Point"}, "id": "o6KIWEgIl8OFslUfpyg9CUwCwvE=", "properties": {"@spider": "usps_collection_boxes", "addr:city": "INDN HBR BCH", "addr:country": "US", "addr:full": "800 HARRIER AVE", "addr:postcode": "32937", "addr:state": "FL", "amenity": "post_box", "brand": "United States Postal Service", "brand:wikidata": "Q668687", "collection_times": "Mo-Sa 13:15", "name": "USPS COLLECTION BOX - BLUE BOX", "note": "ON 12/24 AND 12/31, THIS BOX MAY BE COLLECTED AS EARLY AS 12 NOON.", "nsi_id": "unitedstatespostalservice-a77078", "operator": "United States Postal Service", "operator:short": "USPS", "operator:type": "public", "operator:wikidata": "Q668687", "ref": "3293700018"}, "type": "Feature"}
{"dataset_attributes": {"@spider": "usps_collection_boxes", "spider:collection_time": "2023-10-07T08:22:43.442925"}, "geometry": {"coordinates": [-80.606944561, 28.209120529], "type": "Point"}, "id": "p22UY2bIciKcuSQQcBhJMErPUFI=", "properties": {"@spider": "usps_collection_boxes", "addr:city": "INDN HBR BCH", "addr:country": "US", "addr:full": "400 SKYLARK BLVD", "addr:postcode": "32937", "addr:state": "FL", "amenity": "post_box", "brand": "United States Postal Service", "brand:wikidata": "Q668687", "collection_times": "Mo-Sa 13:30", "name": "USPS COLLECTION BOX - BLUE BOX", "note": "ON 12/24 AND 12/31, THIS BOX MAY BE COLLECTED AS EARLY AS 12 NOON.", "nsi_id": "unitedstatespostalservice-a77078", "operator": "United States Postal Service", "operator:short": "USPS", "operator:type": "public", "operator:wikidata": "Q668687", "ref": "3293700019"}, "type": "Feature"}
{"dataset_attributes": {"@spider": "usps_collection_boxes", "spider:collection_time": "2023-10-07T08:22:43.442925"}, "geometry": {"coordinates": [-80.60610883, 28.184373], "type": "Point"}, "id": "zGWyEUihZI5tmGKvHmUoUYaTxVU=", "properties": {"@spider": "usps_collection_boxes", "addr:city": "INDN HBR BCH", "addr:country": "US", "addr:full": "1071 SOUTH PATRICK DR", "addr:postcode": "32937", "addr:state": "FL", "amenity": "post_box", "brand": "United States Postal Service", "brand:wikidata": "Q668687", "collection_times": "Mo-Fr 17:00; Sa 16:00", "name": "USPS COLLECTION BOX - BLUE BOX", "note": "ON 12/24 AND 12/31, THIS BOX MAY BE COLLECTED AS EARLY AS 12 NOON.", "nsi_id": "unitedstatespostalservice-a77078", "operator": "United States Postal Service", "operator:short": "USPS", "operator:type": "public", "operator:wikidata": "Q668687", "ref": "3293700026"}, "type": "Feature"}
{"dataset_attributes": {"@spider": "usps_collection_boxes", "spider:collection_time": "2023-10-07T08:22:43.442925"}, "geometry": {"coordinates": [-80.582468562, 28.138578343], "type": "Point"}, "id": "gAfYdMrjJJ24_SY4qswpwaJXJSI=", "properties": {"@spider": "usps_collection_boxes", "addr:city": "INDN HBR BCH", "addr:country": "US", "addr:full": "981 E EAU GALLIE BLVD", "addr:postcode": "32937", "addr:state": "FL", "amenity": "post_box", "brand": "United States Postal Service", "brand:wikidata": "Q668687", "collection_times": "Mo-Sa 13:00", "name": "USPS COLLECTION BOX - BLUE BOX", "note": "ON 12/24 AND 12/31, THIS BOX MAY BE COLLECTED AS EARLY AS 12 NOON.", "nsi_id": "unitedstatespostalservice-a77078", "operator": "United States Postal Service", "operator:short": "USPS", "operator:type": "public", "operator:wikidata": "Q668687", "ref": "3293700027"}, "type": "Feature"}
{"dataset_attributes": {"@spider": "usps_collection_boxes", "spider:collection_time": "2023-10-07T08:22:43.442925"}, "geometry": {"coordinates": [-80.60610883, 28.184373], "type": "Point"}, "id": "2gBUrjFCO700Jhbn2N6MDJIJ-vk=", "properties": {"@spider": "usps_collection_boxes", "addr:city": "INDN HBR BCH", "addr:country": "US", "addr:full": "1071 SOUTH PATRICK DR STE 101", "addr:postcode": "32937", "addr:state": "FL", "amenity": "post_box", "brand": "United States Postal Service", "brand:wikidata": "Q668687", "collection_times": "Mo-Fr 17:00; Sa 12:00", "name": "USPS COLLECTION BOX - PO LOBBY", "note": "ON 12/24 AND 12/31, THIS BOX MAY BE COLLECTED AS EARLY AS 12 NOON.", "nsi_id": "unitedstatespostalservice-a77078", "operator": "United States Postal Service", "operator:short": "USPS", "operator:type": "public", "operator:wikidata": "Q668687", "ref": "3293700033"}, "type": "Feature"}
{"dataset_attributes": {"@spider": "usps_collection_boxes", "spider:collection_time": "2023-10-07T08:22:43.442925"}, "geometry": {"coordinates": [-80.672007831, 28.210041], "type": "Point"}, "id": "2C53pQvqP-BNcOk8VpqdnTdK7FE=", "properties": {"@spider": "usps_collection_boxes", "addr:city": "MELBOURNE", "addr:country": "US", "addr:full": "6105 N WICKHAM RD", "addr:postcode": "32940", "addr:state": "FL", "amenity": "post_box", "brand": "United States Postal Service", "brand:wikidata": "Q668687", "collection_times": "Mo-Fr 17:00; Sa 15:45", "name": "USPS COLLECTION BOX - BLUE BOX", "note": "ON 12/24 AND 12/31, THIS BOX MAY BE COLLECTED AS EARLY AS 12 NOON.", "nsi_id": "unitedstatespostalservice-a77078", "operator": "United States Postal Service", "operator:short": "USPS", "operator:type": "public", "operator:wikidata": "Q668687", "ref": "3294000001"}, "type": "Feature"}
{"dataset_attributes": {"@spider": "usps_collection_boxes", "spider:collection_time": "2023-10-07T08:22:43.442925"}, "geometry": {"coordinates": [-80.676280495, 28.221795806], "type": "Point"}, "id": "7nn-YXul1Lyxlc-TOYurVXSnzao=", "properties": {"@spider": "usps_collection_boxes", "addr:city": "MELBOURNE", "addr:country": "US", "addr:full": "6767 N WICKHAM RD", "addr:postcode": "32940", "addr:state": "FL", "amenity": "post_box", "brand": "United States Postal Service", "brand:wikidata": "Q668687", "collection_times": "Mo-Fr 10:00; Sa 09:00", "name": "USPS COLLECTION BOX - BLUE BOX", "nsi_id": "unitedstatespostalservice-a77078", "operator": "United States Postal Service", "operator:short": "USPS", "operator:type": "public", "operator:wikidata": "Q668687", "ref": "3294000006"}, "type": "Feature"}
{"dataset_attributes": {"@spider": "usps_collection_boxes", "spider:collection_time": "2023-10-07T08:22:43.442925"}, "geometry": {"coordinates": [-80.68978216, 28.209001077], "type": "Point"}, "id": "W0dewi3Nd6NH6rkDwNdIVLUL0Gw=", "properties": {"@spider": "usps_collection_boxes", "addr:city": "MELBOURNE", "addr:country": "US", "addr:full": "723 KENWOOD CIR", "addr:postcode": "32940", "addr:state": "FL", "amenity": "post_box", "brand": "United States Postal Service", "brand:wikidata": "Q668687", "collection_times": "Mo-Sa 10:30", "name": "USPS COLLECTION BOX - BLUE BOX", "nsi_id": "unitedstatespostalservice-a77078", "operator": "United States Postal Service", "operator:short": "USPS", "operator:type": "public", "operator:wikidata": "Q668687", "ref": "3294000007"}, "type": "Feature"}
{"dataset_attributes": {"@spider": "usps_collection_boxes", "spider:collection_time": "2023-10-07T08:22:43.442925"}, "geometry": {"coordinates": [-80.712941243, 28.231775247], "type": "Point"}, "id": "veNagMf9TuyVBHSvkXWQijZ9h1c=", "properties": {"@spider": "usps_collection_boxes", "addr:city": "MELBOURNE", "addr:country": "US", "addr:full": "7380 MURRELL RD", "addr:postcode": "32940", "addr:state": "FL", "amenity": "post_box", "brand": "United States Postal Service", "brand:wikidata": "Q668687", "collection_times": "Mo-Fr 10:45; Sa 09:00", "name": "USPS COLLECTION BOX - BLUE BOX", "nsi_id": "unitedstatespostalservice-a77078", "operator": "United States Postal Service", "operator:short": "USPS", "operator:type": "public", "operator:wikidata": "Q668687", "ref": "3294000008"}, "type": "Feature"}
{"dataset_attributes": {"@spider": "usps_collection_boxes", "spider:collection_time": "2023-10-07T08:22:43.442925"}, "geometry": {"coordinates": [-80.736008223, 28.247616471], "type": "Point"}, "id": "oklitgFUfuW83BPtXMYPGzI_tNI=", "properties": {"@spider": "usps_collection_boxes", "addr:city": "MELBOURNE", "addr:country": "US", "addr:full": "2725 JUDGE FRAN JAMIESON WAY", "addr:postcode": "32940", "addr:state": "FL", "amenity": "post_box", "brand": "United States Postal Service", "brand:wikidata": "Q668687", "collection_times": "Mo-Fr 10:30; Sa 10:00", "name": "USPS COLLECTION BOX - BLUE BOX", "nsi_id": "unitedstatespostalservice-a77078", "operator": "United States Postal Service", "operator:short": "USPS", "operator:type": "public", "operator:wikidata": "Q668687", "ref": "3294000009"}, "type": "Feature"}
{"dataset_attributes": {"@spider": "usps_collection_boxes", "spider:collection_time": "2023-10-07T08:22:43.442925"}, "geometry": {"coordinates": [-80.6910690203, 28.2396559828], "type": "Point"}, "id": "omPE9guy7sYmQxZs3X1wkWPVvdE=", "properties": {"@spider": "usps_collection_boxes", "addr:city": "MELBOURNE", "addr:country": "US", "addr:full": "7550 SPYGLASS HILL RD", "addr:postcode": "32940", "addr:state": "FL", "amenity": "post_box", "brand": "United States Postal Service", "brand:wikidata": "Q668687", "collection_times": "Mo-Fr 13:00; Sa 11:45", "name": "USPS COLLECTION BOX - BLUE BOX", "note": "ON 12/24 AND 12/31, THIS BOX MAY BE COLLECTED AS EARLY AS 12 NOON.", "nsi_id": "unitedstatespostalservice-a77078", "operator": "United States Postal Service", "operator:short": "USPS", "operator:type": "public", "operator:wikidata": "Q668687", "ref": "3294000010"}, "type": "Feature"}
{"dataset_attributes": {"@spider": "usps_collection_boxes", "spider:collection_time": "2023-10-07T08:22:43.442925"}, "geometry": {"coordinates": [-80.6685124, 28.203321395], "type": "Point"}, "id": "DUMz-GM6TTluGkT2JHbvsl0kj3s=", "properties": {"@spider": "usps_collection_boxes", "addr:city": "MELBOURNE", "addr:country": "US", "addr:full": "2955 PINEDA CSWY", "addr:postcode": "32940", "addr:state": "FL", "amenity": "post_box", "brand": "United States Postal Service", "brand:wikidata": "Q668687", "collection_times": "Mo-Sa 09:30", "name": "USPS COLLECTION BOX - BLUE BOX", "nsi_id": "unitedstatespostalservice-a77078", "operator": "United States Postal Service", "operator:short": "USPS", "operator:type": "public", "operator:wikidata": "Q668687", "ref": "3294000011"}, "type": "Feature"}
{"dataset_attributes": {"@spider": "usps_collection_boxes", "spider:collection_time": "2023-10-07T08:22:43.442925"}, "geometry": {"coordinates": [-80.697362432, 28.230688548], "type": "Point"}, "id": "Yq_C2SRCapiY_K2tWRaC1i0XfNQ=", "properties": {"@spider": "usps_collection_boxes", "addr:city": "MELBOURNE", "addr:country": "US", "addr:full": "7777 N WICKHAM RD", "addr:postcode": "32940", "addr:state": "FL", "amenity": "post_box", "brand": "United States Postal Service", "brand:wikidata": "Q668687", "collection_times": "Mo-Sa 10:00", "name": "USPS COLLECTION BOX - BLUE BOX", "nsi_id": "unitedstatespostalservice-a77078", "operator": "United States Postal Service", "operator:short": "USPS", "operator:type": "public", "operator:wikidata": "Q668687", "ref": "3294000019"}, "type": "Feature"}
{"dataset_attributes": {"@spider": "usps_collection_boxes", "spider:collection_time": "2023-10-07T08:22:43.442925"}, "geometry": {"coordinates": [-80.672007831, 28.210041], "type": "Point"}, "id": "jq5DyWsVqjSKv-GonRUvyhKbBoQ=", "properties": {"@spider": "usps_collection_boxes", "addr:city": "MELBOURNE", "addr:country": "US", "addr:full": "6105 N WICKHAM RD", "addr:postcode": "32940", "addr:state": "FL", "amenity": "post_box", "brand": "United States Postal Service", "brand:wikidata": "Q668687", "collection_times": "Mo-Fr 17:00; Sa 15:45", "name": "USPS COLLECTION BOX - PO LOBBY", "note": "ON 12/24 AND 12/31, THIS BOX MAY BE COLLECTED AS EARLY AS 12 NOON.", "nsi_id": "unitedstatespostalservice-a77078", "operator": "United States Postal Service", "operator:short": "USPS", "operator:type": "public", "operator:wikidata": "Q668687", "ref": "3294000024"}, "type": "Feature"}
{"dataset_attributes": {"@spider": "usps_collection_boxes", "spider:collection_time": "2023-10-07T08:22:43.442925"}, "geometry": {"coordinates": [-80.672007831, 28.210041], "type": "Point"}, "id": "IcHs0BtZUXB00WFoAXos2YG5Gb8=", "properties": {"@spider": "usps_collection_boxes", "addr:city": "MELBOURNE", "addr:country": "US", "addr:full": "6105 N WICKHAM RD", "addr:postcode": "32940", "addr:state": "FL", "amenity": "post_box", "brand": "United States Postal Service", "brand:wikidata": "Q668687", "collection_times": "Mo-Fr 17:00; Sa 15:45", "name": "USPS COLLECTION BOX - APC", "note": "ON 12/24 AND 12/31, THIS BOX MAY BE COLLECTED AS EARLY AS 12 NOON.", "nsi_id": "unitedstatespostalservice-a77078", "operator": "United States Postal Service", "operator:short": "USPS", "operator:type": "public", "operator:wikidata": "Q668687", "ref": "3294000025"}, "type": "Feature"}
{"dataset_attributes": {"@spider": "usps_collection_boxes", "spider:collection_time": "2023-10-07T08:22:43.442925"}, "geometry": {"coordinates": [-80.723434572, 28.230271043], "type": "Point"}, "id": "WuMrcUxs4CVGH0m5pf6BSutU15I=", "properties": {"@spider": "usps_collection_boxes", "addr:city": "MELBOURNE", "addr:country": "US", "addr:full": "8500 N WICKHAM RD", "addr:postcode": "32940", "addr:state": "FL", "amenity": "post_box", "brand": "United States Postal Service", "brand:wikidata": "Q668687", "collection_times": "Mo-Fr 11:00; Sa 10:00", "name": "USPS COLLECTION BOX - BLUE BOX", "nsi_id": "unitedstatespostalservice-a77078", "operator": "United States Postal Service", "operator:short": "USPS", "operator:type": "public", "operator:wikidata": "Q668687", "ref": "3294000027"}, "type": "Feature"}
{"dataset_attributes": {"@spider": "usps_collection_boxes", "spider:collection_time": "2023-10-07T08:22:43.442925"}, "geometry": {"coordinates": [-80.672007831, 28.210041], "type": "Point"}, "id": "E4MPOt7FlHla3iRDsLufebYCcDs=", "properties": {"@spider": "usps_collection_boxes", "addr:city": "MELBOURNE", "addr:country": "US", "addr:full": "6105 N WICKHAM RD", "addr:postcode": "32940", "addr:state": "FL", "amenity": "post_box", "brand": "United States Postal Service", "brand:wikidata": "Q668687", "collection_times": "Mo-Fr 17:00; Sa 15:45", "name": "USPS COLLECTION BOX - PO LOBBY", "note": "ON 12/24 AND 12/31, THIS BOX MAY BE COLLECTED AS EARLY AS 12 NOON.", "nsi_id": "unitedstatespostalservice-a77078", "operator": "United States Postal Service", "operator:short": "USPS", "operator:type": "public", "operator:wikidata": "Q668687", "ref": "3294000028"}, "type": "Feature"}
{"dataset_attributes": {"@spider": "usps_collection_boxes", "spider:collection_time": "2023-10-07T08:22:43.442925"}, "geometry": {"coordinates": [-80.672007831, 28.210041], "type": "Point"}, "id": "2ZceIXhZuACmj56_7y3f2uGQb1U=", "properties": {"@spider": "usps_collection_boxes", "addr:city": "MELBOURNE", "addr:country": "US", "addr:full": "6105 N WICKHAM RD", "addr:postcode": "32940", "addr:state": "FL", "amenity": "post_box", "brand": "United States Postal Service", "brand:wikidata": "Q668687", "collection_times": "Mo-Fr 17:00; Sa 13:00", "name": "USPS COLLECTION BOX - PO LOBBY", "note": "ON 12/24 AND 12/31, THIS BOX MAY BE COLLECTED AS EARLY AS 12 NOON.", "nsi_id": "unitedstatespostalservice-a77078", "operator": "United States Postal Service", "operator:short": "USPS", "operator:type": "public", "operator:wikidata": "Q668687", "ref": "3294000034"}, "type": "Feature"}
{"dataset_attributes": {"@spider": "usps_collection_boxes", "spider:collection_time": "2023-10-07T08:22:43.442925"}, "geometry": {"coordinates": [-80.5955699741, 27.7683160025], "type": "Point"}, "id": "GLjIJ8qPRiEZ8Bl7uaxuZZIgJuw=", "properties": {"@spider": "usps_collection_boxes", "addr:city": "FELLSMERE", "addr:country": "US", "addr:full": "15 N OAK ST", "addr:postcode": "32948", "addr:state": "FL", "amenity": "post_box", "brand": "United States Postal Service", "brand:wikidata": "Q668687", "collection_times": "Mo-Fr 17:00; Sa 12:00", "name": "USPS COLLECTION BOX - BLUE BOX", "note": "ON 12/24 AND 12/31, THIS BOX MAY BE COLLECTED AS EARLY AS 12 NOON.", "nsi_id": "unitedstatespostalservice-a77078", "operator": "United States Postal Service", "operator:short": "USPS", "operator:type": "public", "operator:wikidata": "Q668687", "ref": "3294800001"}, "type": "Feature"}
{"dataset_attributes": {"@spider": "usps_collection_boxes", "spider:collection_time": "2023-10-07T08:22:43.442925"}, "geometry": {"coordinates": [-80.596117942, 27.768213052], "type": "Point"}, "id": "bei8ZkDemccicSSQ98hqbaXwzMo=", "properties": {"@spider": "usps_collection_boxes", "addr:city": "FELLSMERE", "addr:country": "US", "addr:full": "15 N OAK ST", "addr:postcode": "32948", "addr:state": "FL", "amenity": "post_box", "brand": "United States Postal Service", "brand:wikidata": "Q668687", "collection_times": "Mo-Fr 17:00; Sa 12:00", "name": "USPS COLLECTION BOX - PO LOBBY", "note": "ON 12/24 AND 12/31, THIS BOX MAY BE COLLECTED AS EARLY AS 12 NOON.", "nsi_id": "unitedstatespostalservice-a77078", "operator": "United States Postal Service", "operator:short": "USPS", "operator:type": "public", "operator:wikidata": "Q668687", "ref": "3294800002"}, "type": "Feature"}
{"dataset_attributes": {"@spider": "usps_collection_boxes", "spider:collection_time": "2023-10-07T08:22:43.442925"}, "geometry": {"coordinates": [-80.596117942, 27.768213052], "type": "Point"}, "id": "Pudio5iOILX0G_OX-5iVbrKsTiY=", "properties": {"@spider": "usps_collection_boxes", "addr:city": "FELLSMERE", "addr:country": "US", "addr:full": "15 N OAK ST", "addr:postcode": "32948", "addr:state": "FL", "amenity": "post_box", "brand": "United States Postal Service", "brand:wikidata": "Q668687", "collection_times": "Mo-Fr 17:00; Sa 12:00", "name": "USPS COLLECTION BOX - PO LOBBY", "note": "ON 12/24 AND 12/31, THIS BOX MAY BE COLLECTED AS EARLY AS 12 NOON.", "nsi_id": "unitedstatespostalservice-a77078", "operator": "United States Postal Service", "operator:short": "USPS", "operator:type": "public", "operator:wikidata": "Q668687", "ref": "3294800003"}, "type": "Feature"}
{"dataset_attributes": {"@spider": "usps_collection_boxes", "spider:collection_time": "2023-10-07T08:22:43.442925"}, "geometry": {"coordinates": [-80.526051967, 27.92577992], "type": "Point"}, "id": "WEHUZHrYgeAdbedoJuj6ptaiODI=", "properties": {"@spider": "usps_collection_boxes", "addr:city": "GRANT", "addr:country": "US", "addr:full": "5560 OLD DIXIE HWY", "addr:postcode": "32949", "addr:state": "FL", "amenity": "post_box", "brand": "United States Postal Service", "brand:wikidata": "Q668687", "collection_times": "Mo-Fr 17:00; Sa 11:00", "name": "USPS COLLECTION BOX - PO LOBBY", "note": "ON 12/24 AND 12/31, THIS BOX MAY BE COLLECTED AS EARLY AS 12 NOON.", "nsi_id": "unitedstatespostalservice-a77078", "operator": "United States Postal Service", "operator:short": "USPS", "operator:type": "public", "operator:wikidata": "Q668687", "ref": "3294900001"}, "type": "Feature"}
{"dataset_attributes": {"@spider": "usps_collection_boxes", "spider:collection_time": "2023-10-07T08:22:43.442925"}, "geometry": {"coordinates": [-80.526051967, 27.92577992], "type": "Point"}, "id": "D03w3_kXYCRoqcRW22xWGg2DrZE=", "properties": {"@spider": "usps_collection_boxes", "addr:city": "GRANT", "addr:country": "US", "addr:full": "5560 OLD DIXIE HWY", "addr:postcode": "32949", "addr:state": "FL", "amenity": "post_box", "brand": "United States Postal Service", "brand:wikidata": "Q668687", "collection_times": "Mo-Fr 17:00; Sa 11:00", "name": "USPS COLLECTION BOX - BLUE BOX", "note": "ON 12/24 AND 12/31, THIS BOX MAY BE COLLECTED AS EARLY AS 12 NOON.", "nsi_id": "unitedstatespostalservice-a77078", "operator": "United States Postal Service", "operator:short": "USPS", "operator:type": "public", "operator:wikidata": "Q668687", "ref": "3294900002"}, "type": "Feature"}
{"dataset_attributes": {"@spider": "usps_collection_boxes", "spider:collection_time": "2023-10-07T08:22:43.442925"}, "geometry": {"coordinates": [-80.526051967, 27.92577992], "type": "Point"}, "id": "_hV0ojtzX8kp9VbCRPMbY7Qsktw=", "properties": {"@spider": "usps_collection_boxes", "addr:city": "GRANT", "addr:country": "US", "addr:full": "5560 OLD DIXIE HWY", "addr:postcode": "32949", "addr:state": "FL", "amenity": "post_box", "brand": "United States Postal Service", "brand:wikidata": "Q668687", "collection_times": "Mo-Fr 16:30; Sa 11:00", "name": "USPS COLLECTION BOX - PO LOBBY", "note": "ON 12/24 AND 12/31, THIS BOX MAY BE COLLECTED AS EARLY AS 12 NOON.", "nsi_id": "unitedstatespostalservice-a77078", "operator": "United States Postal Service", "operator:short": "USPS", "operator:type": "public", "operator:wikidata": "Q668687", "ref": "3294900003"}, "type": "Feature"}
{"dataset_attributes": {"@spider": "usps_collection_boxes", "spider:collection_time": "2023-10-07T08:22:43.442925"}, "geometry": {"coordinates": [-80.586940249, 27.998036451], "type": "Point"}, "id": "CDtt7DRNqZqjqw7Ks_9kZQXyvYU=", "properties": {"@spider": "usps_collection_boxes", "addr:city": "MALABAR", "addr:country": "US", "addr:full": "1720 MALABAR RD", "addr:postcode": "32950", "addr:state": "FL", "amenity": "post_box", "brand": "United States Postal Service", "brand:wikidata": "Q668687", "collection_times": "Mo-Fr 16:30; Sa 12:00", "name": "USPS COLLECTION BOX - BLUE BOX", "note": "ON 12/24 AND 12/31, THIS BOX MAY BE COLLECTED AS EARLY AS 12 NOON.", "nsi_id": "unitedstatespostalservice-a77078", "operator": "United States Postal Service", "operator:short": "USPS", "operator:type": "public", "operator:wikidata": "Q668687", "ref": "3295000001"}, "type": "Feature"}
{"dataset_attributes": {"@spider": "usps_collection_boxes", "spider:collection_time": "2023-10-07T08:22:43.442925"}, "geometry": {"coordinates": [-80.586940249, 27.998036451], "type": "Point"}, "id": "qpG3Ao3EAHK9QTOro9Tp91_qyJM=", "properties": {"@spider": "usps_collection_boxes", "addr:city": "MALABAR", "addr:country": "US", "addr:full": "1720 MALABAR RD", "addr:postcode": "32950", "addr:state": "FL", "amenity": "post_box", "brand": "United States Postal Service", "brand:wikidata": "Q668687", "collection_times": "Mo-Fr 16:30; Sa 12:00", "name": "USPS COLLECTION BOX - PO LOBBY", "note": "ON 12/24 AND 12/31, THIS BOX MAY BE COLLECTED AS EARLY AS 12 NOON.", "nsi_id": "unitedstatespostalservice-a77078", "operator": "United States Postal Service", "operator:short": "USPS", "operator:type": "public", "operator:wikidata": "Q668687", "ref": "3295000002"}, "type": "Feature"}
{"dataset_attributes": {"@spider": "usps_collection_boxes", "spider:collection_time": "2023-10-07T08:22:43.442925"}, "geometry": {"coordinates": [-80.586940249, 27.998036451], "type": "Point"}, "id": "v2yUY0bgtTrucapJp_puZfdo-3A=", "properties": {"@spider": "usps_collection_boxes", "addr:city": "MALABAR", "addr:country": "US", "addr:full": "1720 MALABAR RD", "addr:postcode": "32950", "addr:state": "FL", "amenity": "post_box", "brand": "United States Postal Service", "brand:wikidata": "Q668687", "collection_times": "Mo-Fr 16:30; Sa 12:00", "name": "USPS COLLECTION BOX - PO LOBBY", "note": "ON 12/24 AND 12/31, THIS BOX MAY BE COLLECTED AS EARLY AS 12 NOON.", "nsi_id": "unitedstatespostalservice-a77078", "operator": "United States Postal Service", "operator:short": "USPS", "operator:type": "public", "operator:wikidata": "Q668687", "ref": "3295000003"}, "type": "Feature"}
{"dataset_attributes": {"@spider": "usps_collection_boxes", "spider:collection_time": "2023-10-07T08:22:43.442925"}, "geometry": {"coordinates": [-80.563689, 28.068416515], "type": "Point"}, "id": "E2wfDbBsoe9ITCXX6K3jOMUszKY=", "properties": {"@spider": "usps_collection_boxes", "addr:city": "MELBOURNE BEACH", "addr:country": "US", "addr:full": "504 OCEAN AVE", "addr:postcode": "32951", "addr:state": "FL", "amenity": "post_box", "brand": "United States Postal Service", "brand:wikidata": "Q668687", "collection_times": "Mo-Fr 17:00; Sa 15:00", "name": "USPS COLLECTION BOX - BLUE BOX", "note": "ON 12/24 AND 12/31, THIS BOX MAY BE COLLECTED AS EARLY AS 12 NOON.", "nsi_id": "unitedstatespostalservice-a77078", "operator": "United States Postal Service", "operator:short": "USPS", "operator:type": "public", "operator:wikidata": "Q668687", "ref": "3295100001"}, "type": "Feature"}
{"dataset_attributes": {"@spider": "usps_collection_boxes", "spider:collection_time": "2023-10-07T08:22:43.442925"}, "geometry": {"coordinates": [-80.563689, 28.068416515], "type": "Point"}, "id": "_7XX4p7u-e3cS14J-65z4g-L4f0=", "properties": {"@spider": "usps_collection_boxes", "addr:city": "MELBOURNE BEACH", "addr:country": "US", "addr:full": "504 OCEAN AVE", "addr:postcode": "32951", "addr:state": "FL", "amenity": "post_box", "brand": "United States Postal Service", "brand:wikidata": "Q668687", "collection_times": "Mo-Fr 16:00; Sa 15:00", "name": "USPS COLLECTION BOX - PO LOBBY", "note": "ON 12/24 AND 12/31, THIS BOX MAY BE COLLECTED AS EARLY AS 12 NOON.", "nsi_id": "unitedstatespostalservice-a77078", "operator": "United States Postal Service", "operator:short": "USPS", "operator:type": "public", "operator:wikidata": "Q668687", "ref": "3295100004"}, "type": "Feature"}
{"dataset_attributes": {"@spider": "usps_collection_boxes", "spider:collection_time": "2023-10-07T08:22:43.442925"}, "geometry": {"coordinates": [-80.533037314, 28.015704797], "type": "Point"}, "id": "VXvQnAtS147SlCKIHO0bStkqLXc=", "properties": {"@spider": "usps_collection_boxes", "addr:city": "MELBOURNE BEACH", "addr:country": "US", "addr:full": "3830 S HIGHWAY A1A", "addr:postcode": "32951", "addr:state": "FL", "amenity": "post_box", "brand": "United States Postal Service", "brand:wikidata": "Q668687", "collection_times": "Mo-Sa 12:30", "name": "USPS COLLECTION BOX - BLUE BOX", "note": "ON 12/24 AND 12/31, THIS BOX MAY BE COLLECTED AS EARLY AS 12 NOON.", "nsi_id": "unitedstatespostalservice-a77078", "operator": "United States Postal Service", "operator:short": "USPS", "operator:type": "public", "operator:wikidata": "Q668687", "ref": "3295100012"}, "type": "Feature"}
{"dataset_attributes": {"@spider": "usps_collection_boxes", "spider:collection_time": "2023-10-07T08:22:43.442925"}, "geometry": {"coordinates": [-80.563689, 28.068416515], "type": "Point"}, "id": "aEUqCnJEcH0LHoEC6MaBHSpitYk=", "properties": {"@spider": "usps_collection_boxes", "addr:city": "MELBOURNE BEACH", "addr:country": "US", "addr:full": "504 OCEAN AVE", "addr:postcode": "32951", "addr:state": "FL", "amenity": "post_box", "brand": "United States Postal Service", "brand:wikidata": "Q668687", "collection_times": "Mo-Fr 16:00; Sa 15:00", "name": "USPS COLLECTION BOX - PO LOBBY", "note": "ON 12/24 AND 12/31, THIS BOX MAY BE COLLECTED AS EARLY AS 12 NOON.", "nsi_id": "unitedstatespostalservice-a77078", "operator": "United States Postal Service", "operator:short": "USPS", "operator:type": "public", "operator:wikidata": "Q668687", "ref": "3295100013"}, "type": "Feature"}
{"dataset_attributes": {"@spider": "usps_collection_boxes", "spider:collection_time": "2023-10-07T08:22:43.442925"}, "geometry": {"coordinates": [-80.563689, 28.068416515], "type": "Point"}, "id": "-useU2L3XyG8DXRdVmr_WwjU5iI=", "properties": {"@spider": "usps_collection_boxes", "addr:city": "MELBOURNE BEACH", "addr:country": "US", "addr:full": "504 OCEAN AVE", "addr:postcode": "32951", "addr:state": "FL", "amenity": "post_box", "brand": "United States Postal Service", "brand:wikidata": "Q668687", "collection_times": "Mo-Fr 16:00", "name": "USPS COLLECTION BOX - PO LOBBY", "note": "ON 12/24 AND 12/31, THIS BOX MAY BE COLLECTED AS EARLY AS 12 NOON.", "nsi_id": "unitedstatespostalservice-a77078", "operator": "United States Postal Service", "operator:short": "USPS", "operator:type": "public", "operator:wikidata": "Q668687", "ref": "3295100014"}, "type": "Feature"}
{"dataset_attributes": {"@spider": "usps_collection_boxes", "spider:collection_time": "2023-10-07T08:22:43.442925"}, "geometry": {"coordinates": [-80.68372951, 28.35707554], "type": "Point"}, "id": "uHz_E6pffuolRLXvLRVw5kRMVKw=", "properties": {"@spider": "usps_collection_boxes", "addr:city": "MERRITT ISLAND", "addr:country": "US", "addr:full": "777 E MERRITT ISLAND CSWY", "addr:postcode": "32952", "addr:state": "FL", "amenity": "post_box", "brand": "United States Postal Service", "brand:wikidata": "Q668687", "collection_times": "Mo-Fr 15:45; Sa 15:00", "name": "USPS COLLECTION BOX - BLUE BOX", "note": "ON 12/24 AND 12/31, THIS BOX MAY BE COLLECTED AS EARLY AS 12 NOON.", "nsi_id": "unitedstatespostalservice-a77078", "operator": "United States Postal Service", "operator:short": "USPS", "operator:type": "public", "operator:wikidata": "Q668687", "ref": "3295200003"}, "type": "Feature"}
{"dataset_attributes": {"@spider": "usps_collection_boxes", "spider:collection_time": "2023-10-07T08:22:43.442925"}, "geometry": {"coordinates": [-80.6883795, 28.357048546], "type": "Point"}, "id": "b3aq0LoChUleHye5Yzea2MxnZLI=", "properties": {"@spider": "usps_collection_boxes", "addr:city": "MERRITT ISLAND", "addr:country": "US", "addr:full": "775 E MERRITT ISLAND CSWY", "addr:postcode": "32952", "addr:state": "FL", "amenity": "post_box", "brand": "United States Postal Service", "brand:wikidata": "Q668687", "collection_times": "Mo-Fr 15:45; Sa 15:00", "name": "USPS COLLECTION BOX - BLUE BOX", "note": "ON 12/24 AND 12/31, THIS BOX MAY BE COLLECTED AS EARLY AS 12 NOON.", "nsi_id": "unitedstatespostalservice-a77078", "operator": "United States Postal Service", "operator:short": "USPS", "operator:type": "public", "operator:wikidata": "Q668687", "ref": "3295200005"}, "type": "Feature"}
{"dataset_attributes": {"@spider": "usps_collection_boxes", "spider:collection_time": "2023-10-07T08:22:43.442925"}, "geometry": {"coordinates": [-80.66874403, 28.371689141], "type": "Point"}, "id": "j3-zbKqYFxTIPUXT5Zt5RSVJGEA=", "properties": {"@spider": "usps_collection_boxes", "addr:city": "MERRITT ISLAND", "addr:country": "US", "addr:full": "860 N BANANA RIVER DR", "addr:postcode": "32952", "addr:state": "FL", "amenity": "post_box", "brand": "United States Postal Service", "brand:wikidata": "Q668687", "collection_times": "Mo-Fr 15:30; Sa 14:45", "name": "USPS COLLECTION BOX - BLUE BOX", "note": "ON 12/24 AND 12/31, THIS BOX MAY BE COLLECTED AS EARLY AS 12 NOON.", "nsi_id": "unitedstatespostalservice-a77078", "operator": "United States Postal Service", "operator:short": "USPS", "operator:type": "public", "operator:wikidata": "Q668687", "ref": "3295200012"}, "type": "Feature"}
{"dataset_attributes": {"@spider": "usps_collection_boxes", "spider:collection_time": "2023-10-07T08:22:43.442925"}, "geometry": {"coordinates": [-80.705632594, 28.403304737], "type": "Point"}, "id": "dTWDCnqy2fjbBrV1MZXsuDl0aNQ=", "properties": {"@spider": "usps_collection_boxes", "addr:city": "MERRITT ISLAND", "addr:country": "US", "addr:full": "2575 N COURTENAY PKWY", "addr:postcode": "32953", "addr:state": "FL", "amenity": "post_box", "brand": "United States Postal Service", "brand:wikidata": "Q668687", "collection_times": "Mo-Fr 15:15; Sa 14:30", "name": "USPS COLLECTION BOX - BLUE BOX", "note": "ON 12/24 AND 12/31, THIS BOX MAY BE COLLECTED AS EARLY AS 12 NOON.", "nsi_id": "unitedstatespostalservice-a77078", "operator": "United States Postal Service", "operator:short": "USPS", "operator:type": "public", "operator:wikidata": "Q668687", "ref": "3295300007"}, "type": "Feature"}
{"dataset_attributes": {"@spider": "usps_collection_boxes", "spider:collection_time": "2023-10-07T08:22:43.442925"}, "geometry": {"coordinates": [-80.70753205, 28.388721538], "type": "Point"}, "id": "IvIBeuhokWxKtG3No27hRXxkgJs=", "properties": {"@spider": "usps_collection_boxes", "addr:city": "MERRITT ISLAND", "addr:country": "US", "addr:full": "333 CROCKETT BLVD", "addr:postcode": "32953", "addr:state": "FL", "amenity": "post_box", "brand": "United States Postal Service", "brand:wikidata": "Q668687", "collection_times": "Mo-Fr 17:00; Sa 15:45", "name": "USPS COLLECTION BOX - BLUE BOX", "note": "ON 12/24 AND 12/31, THIS BOX MAY BE COLLECTED AS EARLY AS 12 NOON.", "nsi_id": "unitedstatespostalservice-a77078", "operator": "United States Postal Service", "operator:short": "USPS", "operator:type": "public", "operator:wikidata": "Q668687", "ref": "3295300008"}, "type": "Feature"}
{"dataset_attributes": {"@spider": "usps_collection_boxes", "spider:collection_time": "2023-10-07T08:22:43.442925"}, "geometry": {"coordinates": [-80.70753205, 28.388721538], "type": "Point"}, "id": "A7U4KM4npWiwfb1mkK9NXfYm9QI=", "properties": {"@spider": "usps_collection_boxes", "addr:city": "MERRITT ISLAND", "addr:country": "US", "addr:full": "333 CROCKETT BLVD", "addr:postcode": "32953", "addr:state": "FL", "amenity": "post_box", "brand": "United States Postal Service", "brand:wikidata": "Q668687", "collection_times": "Mo-Fr 17:00; Sa 15:45", "name": "USPS COLLECTION BOX - BLUE BOX", "note": "ON 12/24 AND 12/31, THIS BOX MAY BE COLLECTED AS EARLY AS 12 NOON.", "nsi_id": "unitedstatespostalservice-a77078", "operator": "United States Postal Service", "operator:short": "USPS", "operator:type": "public", "operator:wikidata": "Q668687", "ref": "3295300009"}, "type": "Feature"}
{"dataset_attributes": {"@spider": "usps_collection_boxes", "spider:collection_time": "2023-10-07T08:22:43.442925"}, "geometry": {"coordinates": [-80.70753205, 28.388721538], "type": "Point"}, "id": "WpK30LkmiutwLCyVh3pD9Xw8UcU=", "properties": {"@spider": "usps_collection_boxes", "addr:city": "MERRITT ISLAND", "addr:country": "US", "addr:full": "333 CROCKETT BLVD", "addr:postcode": "32953", "addr:state": "FL", "amenity": "post_box", "brand": "United States Postal Service", "brand:wikidata": "Q668687", "collection_times": "Mo-Fr 16:45; Sa 15:45", "name": "USPS COLLECTION BOX - PO LOBBY", "note": "ON 12/24 AND 12/31, THIS BOX MAY BE COLLECTED AS EARLY AS 12 NOON.", "nsi_id": "unitedstatespostalservice-a77078", "operator": "United States Postal Service", "operator:short": "USPS", "operator:type": "public", "operator:wikidata": "Q668687", "ref": "3295300011"}, "type": "Feature"}
{"dataset_attributes": {"@spider": "usps_collection_boxes", "spider:collection_time": "2023-10-07T08:22:43.442925"}, "geometry": {"coordinates": [-80.70753205, 28.388721538], "type": "Point"}, "id": "CqIyDdq8YHZyO5WEtO03XaXqKFo=", "properties": {"@spider": "usps_collection_boxes", "addr:city": "MERRITT ISLAND", "addr:country": "US", "addr:full": "333 CROCKETT BLVD", "addr:postcode": "32953", "addr:state": "FL", "amenity": "post_box", "brand": "United States Postal Service", "brand:wikidata": "Q668687", "collection_times": "Mo-Fr 16:45; Sa 15:45", "name": "USPS COLLECTION BOX - PO LOBBY", "note": "ON 12/24 AND 12/31, THIS BOX MAY BE COLLECTED AS EARLY AS 12 NOON.", "nsi_id": "unitedstatespostalservice-a77078", "operator": "United States Postal Service", "operator:short": "USPS", "operator:type": "public", "operator:wikidata": "Q668687", "ref": "3295300012"}, "type": "Feature"}
{"dataset_attributes": {"@spider": "usps_collection_boxes", "spider:collection_time": "2023-10-07T08:22:43.442925"}, "geometry": {"coordinates": [-80.70753205, 28.388721538], "type": "Point"}, "id": "fasJihMeKLURIRCPIzjVKjaG9G0=", "properties": {"@spider": "usps_collection_boxes", "addr:city": "MERRITT ISLAND", "addr:country": "US", "addr:full": "333 CROCKETT BLVD", "addr:postcode": "32953", "addr:state": "FL", "amenity": "post_box", "brand": "United States Postal Service", "brand:wikidata": "Q668687", "collection_times": "Mo-Fr 16:45; Sa 15:45", "name": "USPS COLLECTION BOX - APC", "note": "ON 12/24 AND 12/31, THIS BOX MAY BE COLLECTED AS EARLY AS 12 NOON.", "nsi_id": "unitedstatespostalservice-a77078", "operator": "United States Postal Service", "operator:short": "USPS", "operator:type": "public", "operator:wikidata": "Q668687", "ref": "3295300013"}, "type": "Feature"}
{"dataset_attributes": {"@spider": "usps_collection_boxes", "spider:collection_time": "2023-10-07T08:22:43.442925"}, "geometry": {"coordinates": [-80.70753205, 28.388721538], "type": "Point"}, "id": "5vFZNZ4fNERpqmcn8f9-ceRVw00=", "properties": {"@spider": "usps_collection_boxes", "addr:city": "MERRITT ISLAND", "addr:country": "US", "addr:full": "333 CROCKETT BLVD", "addr:postcode": "32953", "addr:state": "FL", "amenity": "post_box", "brand": "United States Postal Service", "brand:wikidata": "Q668687", "collection_times": "Mo-Fr 17:00; Sa 13:00", "name": "USPS COLLECTION BOX - PO LOBBY", "note": "ON 12/24 AND 12/31, THIS BOX MAY BE COLLECTED AS EARLY AS 12 NOON.", "nsi_id": "unitedstatespostalservice-a77078", "operator": "United States Postal Service", "operator:short": "USPS", "operator:type": "public", "operator:wikidata": "Q668687", "ref": "3295300016"}, "type": "Feature"}
{"dataset_attributes": {"@spider": "usps_collection_boxes", "spider:collection_time": "2023-10-07T08:22:43.442925"}, "geometry": {"coordinates": [-80.722120269, 28.307364747], "type": "Point"}, "id": "pl-m56qzgGXRqCDvaX9FJAGzWaY=", "properties": {"@spider": "usps_collection_boxes", "addr:city": "ROCKLEDGE", "addr:country": "US", "addr:full": "3000 MURRELL RD", "addr:postcode": "32955", "addr:state": "FL", "amenity": "post_box", "brand": "United States Postal Service", "brand:wikidata": "Q668687", "collection_times": "Mo-Fr 17:00; Sa 15:15", "name": "USPS COLLECTION BOX - BLUE BOX", "note": "ON 12/24 AND 12/31, THIS BOX MAY BE COLLECTED AS EARLY AS 12 NOON.", "nsi_id": "unitedstatespostalservice-a77078", "operator": "United States Postal Service", "operator:short": "USPS", "operator:type": "public", "operator:wikidata": "Q668687", "ref": "3295500012"}, "type": "Feature"}
{"dataset_attributes": {"@spider": "usps_collection_boxes", "spider:collection_time": "2023-10-07T08:22:43.442925"}, "geometry": {"coordinates": [-80.722120269, 28.307364747], "type": "Point"}, "id": "BWCqhdl7jmorez4GwPgTlQqGeCw=", "properties": {"@spider": "usps_collection_boxes", "addr:city": "ROCKLEDGE", "addr:country": "US", "addr:full": "3000 MURRELL RD", "addr:postcode": "32955", "addr:state": "FL", "amenity": "post_box", "brand": "United States Postal Service", "brand:wikidata": "Q668687", "collection_times": "Mo-Fr 17:00; Sa 15:15", "name": "USPS COLLECTION BOX - PO LOBBY", "note": "ON 12/24 AND 12/31, THIS BOX MAY BE COLLECTED AS EARLY AS 12 NOON.", "nsi_id": "unitedstatespostalservice-a77078", "operator": "United States Postal Service", "operator:short": "USPS", "operator:type": "public", "operator:wikidata": "Q668687", "ref": "3295500022"}, "type": "Feature"}
{"dataset_attributes": {"@spider": "usps_collection_boxes", "spider:collection_time": "2023-10-07T08:22:43.442925"}, "geometry": {"coordinates": [-80.722120269, 28.307364747], "type": "Point"}, "id": "FamzaDZnx4TpX_rysYrNLSpRv-0=", "properties": {"@spider": "usps_collection_boxes", "addr:city": "ROCKLEDGE", "addr:country": "US", "addr:full": "3000 MURRELL RD", "addr:postcode": "32955", "addr:state": "FL", "amenity": "post_box", "brand": "United States Postal Service", "brand:wikidata": "Q668687", "collection_times": "Mo-Fr 17:00; Sa 15:15", "name": "USPS COLLECTION BOX - APC", "note": "ON 12/24 AND 12/31, THIS BOX MAY BE COLLECTED AS EARLY AS 12 NOON.", "nsi_id": "unitedstatespostalservice-a77078", "operator": "United States Postal Service", "operator:short": "USPS", "operator:type": "public", "operator:wikidata": "Q668687", "ref": "3295500023"}, "type": "Feature"}
{"dataset_attributes": {"@spider": "usps_collection_boxes", "spider:collection_time": "2023-10-07T08:22:43.442925"}, "geometry": {"coordinates": [-80.722120269, 28.307364747], "type": "Point"}, "id": "YhxySWY78VkxQuXjVoW1R3E2Q1k=", "properties": {"@spider": "usps_collection_boxes", "addr:city": "ROCKLEDGE", "addr:country": "US", "addr:full": "3000 MURRELL RD", "addr:postcode": "32955", "addr:state": "FL", "amenity": "post_box", "brand": "United States Postal Service", "brand:wikidata": "Q668687", "collection_times": "Mo-Fr 17:00; Sa 13:00", "name": "USPS COLLECTION BOX - PO LOBBY", "note": "ON 12/24 AND 12/31, THIS BOX MAY BE COLLECTED AS EARLY AS 12 NOON.", "nsi_id": "unitedstatespostalservice-a77078", "operator": "United States Postal Service", "operator:short": "USPS", "operator:type": "public", "operator:wikidata": "Q668687", "ref": "3295500027"}, "type": "Feature"}
{"dataset_attributes": {"@spider": "usps_collection_boxes", "spider:collection_time": "2023-10-07T08:22:43.442925"}, "geometry": {"coordinates": [-80.492320009, 27.835803469], "type": "Point"}, "id": "7-wBLwf5QTqOrFhzQE77dJXBo7Y=", "properties": {"@spider": "usps_collection_boxes", "addr:city": "ROSELAND", "addr:country": "US", "addr:full": "13305 ROSELAND RD", "addr:postcode": "32957", "addr:state": "FL", "amenity": "post_box", "brand": "United States Postal Service", "brand:wikidata": "Q668687", "collection_times": "Mo-Fr 16:00; Sa 10:00", "name": "USPS COLLECTION BOX - PO LOBBY", "note": "ON 12/24 AND 12/31, THIS BOX MAY BE COLLECTED AS EARLY AS 12 NOON.", "nsi_id": "unitedstatespostalservice-a77078", "operator": "United States Postal Service", "operator:short": "USPS", "operator:type": "public", "operator:wikidata": "Q668687", "ref": "3295700001"}, "type": "Feature"}
{"dataset_attributes": {"@spider": "usps_collection_boxes", "spider:collection_time": "2023-10-07T08:22:43.442925"}, "geometry": {"coordinates": [-80.492320009, 27.835803469], "type": "Point"}, "id": "35tUzuJl2pC9tFGSOKI_S_7Px1Y=", "properties": {"@spider": "usps_collection_boxes", "addr:city": "ROSELAND", "addr:country": "US", "addr:full": "13305 ROSELAND RD", "addr:postcode": "32957", "addr:state": "FL", "amenity": "post_box", "brand": "United States Postal Service", "brand:wikidata": "Q668687", "collection_times": "Mo-Fr 16:00", "name": "USPS COLLECTION BOX - PO LOBBY", "note": "ON 12/24 AND 12/31, THIS BOX MAY BE COLLECTED AS EARLY AS 12 NOON.", "nsi_id": "unitedstatespostalservice-a77078", "operator": "United States Postal Service", "operator:short": "USPS", "operator:type": "public", "operator:wikidata": "Q668687", "ref": "3295700002"}, "type": "Feature"}
{"dataset_attributes": {"@spider": "usps_collection_boxes", "spider:collection_time": "2023-10-07T08:22:43.442925"}, "geometry": {"coordinates": [-80.477881588, 27.816374037], "type": "Point"}, "id": "LexhLDoJ624u3MC1mRrE9zi-GI8=", "properties": {"@spider": "usps_collection_boxes", "addr:city": "SEBASTIAN", "addr:country": "US", "addr:full": "1290 MAIN ST", "addr:postcode": "32958", "addr:state": "FL", "amenity": "post_box", "brand": "United States Postal Service", "brand:wikidata": "Q668687", "collection_times": "Mo-Fr 17:00; Sa 14:45", "name": "USPS COLLECTION BOX - BLUE BOX", "note": "ON 12/24 AND 12/31, THIS BOX MAY BE COLLECTED AS EARLY AS 12 NOON.", "nsi_id": "unitedstatespostalservice-a77078", "operator": "United States Postal Service", "operator:short": "USPS", "operator:type": "public", "operator:wikidata": "Q668687", "ref": "3295800001"}, "type": "Feature"}
{"dataset_attributes": {"@spider": "usps_collection_boxes", "spider:collection_time": "2023-10-07T08:22:43.442925"}, "geometry": {"coordinates": [-80.477881588, 27.816374037], "type": "Point"}, "id": "Mv2KoqNbq0Tyuua_TzS2G2zGnwo=", "properties": {"@spider": "usps_collection_boxes", "addr:city": "SEBASTIAN", "addr:country": "US", "addr:full": "1290 MAIN ST", "addr:postcode": "32958", "addr:state": "FL", "amenity": "post_box", "brand": "United States Postal Service", "brand:wikidata": "Q668687", "collection_times": "Mo-Fr 17:00; Sa 14:45", "name": "USPS COLLECTION BOX - PO LOBBY", "note": "ON 12/24 AND 12/31, THIS BOX MAY BE COLLECTED AS EARLY AS 12 NOON.", "nsi_id": "unitedstatespostalservice-a77078", "operator": "United States Postal Service", "operator:short": "USPS", "operator:type": "public", "operator:wikidata": "Q668687", "ref": "3295800018"}, "type": "Feature"}
{"dataset_attributes": {"@spider": "usps_collection_boxes", "spider:collection_time": "2023-10-07T08:22:43.442925"}, "geometry": {"coordinates": [-80.477881588, 27.816374037], "type": "Point"}, "id": "A-nCZgvXip6Gh87rmsMRolzmeac=", "properties": {"@spider": "usps_collection_boxes", "addr:city": "SEBASTIAN", "addr:country": "US", "addr:full": "1290 MAIN ST", "addr:postcode": "32958", "addr:state": "FL", "amenity": "post_box", "brand": "United States Postal Service", "brand:wikidata": "Q668687", "collection_times": "Mo-Fr 17:00; Sa 12:00", "name": "USPS COLLECTION BOX - PO LOBBY", "note": "ON 12/24 AND 12/31, THIS BOX MAY BE COLLECTED AS EARLY AS 12 NOON.", "nsi_id": "unitedstatespostalservice-a77078", "operator": "United States Postal Service", "operator:short": "USPS", "operator:type": "public", "operator:wikidata": "Q668687", "ref": "3295800020"}, "type": "Feature"}
{"dataset_attributes": {"@spider": "usps_collection_boxes", "spider:collection_time": "2023-10-07T08:22:43.442925"}, "geometry": {"coordinates": [-80.763210258, 28.444130361], "type": "Point"}, "id": "CNvQSdLFEirfFa2PX-O_Dc021F0=", "properties": {"@spider": "usps_collection_boxes", "addr:city": "SHARPES", "addr:country": "US", "addr:full": "4425 N COCOA BLVD", "addr:postcode": "32959", "addr:state": "FL", "amenity": "post_box", "brand": "United States Postal Service", "brand:wikidata": "Q668687", "collection_times": "Mo-Fr 16:45; Sa 11:45", "name": "USPS COLLECTION BOX - BLUE BOX", "note": "ON 12/24 AND 12/31, THIS BOX MAY BE COLLECTED AS EARLY AS 12 NOON.", "nsi_id": "unitedstatespostalservice-a77078", "operator": "United States Postal Service", "operator:short": "USPS", "operator:type": "public", "operator:wikidata": "Q668687", "ref": "3295900001"}, "type": "Feature"}
{"dataset_attributes": {"@spider": "usps_collection_boxes", "spider:collection_time": "2023-10-07T08:22:43.442925"}, "geometry": {"coordinates": [-80.763210258, 28.444130361], "type": "Point"}, "id": "gx63DN3IaLO6mb_G198T-8VBbu8=", "properties": {"@spider": "usps_collection_boxes", "addr:city": "SHARPES", "addr:country": "US", "addr:full": "4425 N COCOA BLVD", "addr:postcode": "32959", "addr:state": "FL", "amenity": "post_box", "brand": "United States Postal Service", "brand:wikidata": "Q668687", "collection_times": "Mo-Fr 16:45; Sa 11:45", "name": "USPS COLLECTION BOX - PO LOBBY", "note": "ON 12/24 AND 12/31, THIS BOX MAY BE COLLECTED AS EARLY AS 12 NOON.", "nsi_id": "unitedstatespostalservice-a77078", "operator": "United States Postal Service", "operator:short": "USPS", "operator:type": "public", "operator:wikidata": "Q668687", "ref": "3295900002"}, "type": "Feature"}
{"dataset_attributes": {"@spider": "usps_collection_boxes", "spider:collection_time": "2023-10-07T08:22:43.442925"}, "geometry": {"coordinates": [-80.763210258, 28.444130361], "type": "Point"}, "id": "BG_rbDBBLYcku8vbfwYCsMLVLHs=", "properties": {"@spider": "usps_collection_boxes", "addr:city": "SHARPES", "addr:country": "US", "addr:full": "4425 N COCOA BLVD", "addr:postcode": "32959", "addr:state": "FL", "amenity": "post_box", "brand": "United States Postal Service", "brand:wikidata": "Q668687", "collection_times": "Mo-Fr 16:30; Sa 12:00", "name": "USPS COLLECTION BOX - PO LOBBY", "note": "ON 12/24 AND 12/31, THIS BOX MAY BE COLLECTED AS EARLY AS 12 NOON.", "nsi_id": "unitedstatespostalservice-a77078", "operator": "United States Postal Service", "operator:short": "USPS", "operator:type": "public", "operator:wikidata": "Q668687", "ref": "3295900004"}, "type": "Feature"}
{"dataset_attributes": {"@spider": "usps_collection_boxes", "spider:collection_time": "2023-10-07T08:22:43.442925"}, "geometry": {"coordinates": [-80.398291037, 27.639279828], "type": "Point"}, "id": "nbNblQKH1NooAup77t8zKRNRid0=", "properties": {"@spider": "usps_collection_boxes", "addr:city": "VERO BEACH", "addr:country": "US", "addr:full": "2050 13TH AVE", "addr:postcode": "32960", "addr:state": "FL", "amenity": "post_box", "brand": "United States Postal Service", "brand:wikidata": "Q668687", "collection_times": "Mo-Sa 17:00", "name": "USPS COLLECTION BOX - BLUE BOX", "note": "ON 12/24 AND 12/31, THIS BOX MAY BE COLLECTED AS EARLY AS 12 NOON.", "nsi_id": "unitedstatespostalservice-a77078", "operator": "United States Postal Service", "operator:short": "USPS", "operator:type": "public", "operator:wikidata": "Q668687", "ref": "3296000002"}, "type": "Feature"}
{"dataset_attributes": {"@spider": "usps_collection_boxes", "spider:collection_time": "2023-10-07T08:22:43.442925"}, "geometry": {"coordinates": [-80.389302553, 27.62460747], "type": "Point"}, "id": "jQXZXtCTYWEsfVrB28oCu99hJqU=", "properties": {"@spider": "usps_collection_boxes", "addr:city": "VERO BEACH", "addr:country": "US", "addr:full": "1255 US 1", "addr:postcode": "32960", "addr:state": "FL", "amenity": "post_box", "brand": "United States Postal Service", "brand:wikidata": "Q668687", "collection_times": "Mo-Fr 15:30; Sa 14:00", "name": "USPS COLLECTION BOX - BLUE BOX", "note": "ON 12/24 AND 12/31, THIS BOX MAY BE COLLECTED AS EARLY AS 12 NOON.", "nsi_id": "unitedstatespostalservice-a77078", "operator": "United States Postal Service", "operator:short": "USPS", "operator:type": "public", "operator:wikidata": "Q668687", "ref": "3296000009"}, "type": "Feature"}
{"dataset_attributes": {"@spider": "usps_collection_boxes", "spider:collection_time": "2023-10-07T08:22:43.442925"}, "geometry": {"coordinates": [-80.382009898, 27.64745762], "type": "Point"}, "id": "UH5JQAfaq8DHHWwgpEC8m5LL5GU=", "properties": {"@spider": "usps_collection_boxes", "addr:city": "VERO BEACH", "addr:country": "US", "addr:full": "2770 INDIAN RIVER BLVD", "addr:postcode": "32960", "addr:state": "FL", "amenity": "post_box", "brand": "United States Postal Service", "brand:wikidata": "Q668687", "collection_times": "Mo-Fr 13:00", "name": "USPS COLLECTION BOX - BLUE BOX", "note": "ON 12/24 AND 12/31, THIS BOX MAY BE COLLECTED AS EARLY AS 12 NOON.", "nsi_id": "unitedstatespostalservice-a77078", "operator": "United States Postal Service", "operator:short": "USPS", "operator:type": "public", "operator:wikidata": "Q668687", "ref": "3296000017"}, "type": "Feature"}
{"dataset_attributes": {"@spider": "usps_collection_boxes", "spider:collection_time": "2023-10-07T08:22:43.442925"}, "geometry": {"coordinates": [-80.399932015, 27.659699361], "type": "Point"}, "id": "xeVqeCpSPaq9YrWJQm2NiUeugYE=", "properties": {"@spider": "usps_collection_boxes", "addr:city": "VERO BEACH", "addr:country": "US", "addr:full": "3663 15TH AVE", "addr:postcode": "32960", "addr:state": "FL", "amenity": "post_box", "brand": "United States Postal Service", "brand:wikidata": "Q668687", "collection_times": "Mo-Fr 13:00", "name": "USPS COLLECTION BOX - BLUE BOX", "note": "ON 12/24 AND 12/31, THIS BOX MAY BE COLLECTED AS EARLY AS 12 NOON.", "nsi_id": "unitedstatespostalservice-a77078", "operator": "United States Postal Service", "operator:short": "USPS", "operator:type": "public", "operator:wikidata": "Q668687", "ref": "3296000020"}, "type": "Feature"}
{"dataset_attributes": {"@spider": "usps_collection_boxes", "spider:collection_time": "2023-10-07T08:22:43.442925"}, "geometry": {"coordinates": [-80.428506963, 27.665919639], "type": "Point"}, "id": "YzcER5KLtNiko_C9p3Wgd3PclRs=", "properties": {"@spider": "usps_collection_boxes", "addr:city": "VERO BEACH", "addr:country": "US", "addr:full": "4055 41ST AVE", "addr:postcode": "32960", "addr:state": "FL", "amenity": "post_box", "brand": "United States Postal Service", "brand:wikidata": "Q668687", "collection_times": "Mo-Fr 14:00", "name": "USPS COLLECTION BOX - BLUE BOX", "note": "ON 12/24 AND 12/31, THIS BOX MAY BE COLLECTED AS EARLY AS 12 NOON.", "nsi_id": "unitedstatespostalservice-a77078", "operator": "United States Postal Service", "operator:short": "USPS", "operator:type": "public", "operator:wikidata": "Q668687", "ref": "3296000027"}, "type": "Feature"}
{"dataset_attributes": {"@spider": "usps_collection_boxes", "spider:collection_time": "2023-10-07T08:22:43.442925"}, "geometry": {"coordinates": [-80.391220493, 27.638396612], "type": "Point"}, "id": "QSM92RVCGcoEn7DuYCVksLR8DpI=", "properties": {"@spider": "usps_collection_boxes", "addr:city": "VERO BEACH", "addr:country": "US", "addr:full": "2001 9TH AVE", "addr:postcode": "32960", "addr:state": "FL", "amenity": "post_box", "brand": "United States Postal Service", "brand:wikidata": "Q668687", "collection_times": "Mo-Fr 13:00", "name": "USPS COLLECTION BOX - BLUE BOX", "note": "ON 12/24 AND 12/31, THIS BOX MAY BE COLLECTED AS EARLY AS 12 NOON.", "nsi_id": "unitedstatespostalservice-a77078", "operator": "United States Postal Service", "operator:short": "USPS", "operator:type": "public", "operator:wikidata": "Q668687", "ref": "3296000028"}, "type": "Feature"}
{"dataset_attributes": {"@spider": "usps_collection_boxes", "spider:collection_time": "2023-10-07T08:22:43.442925"}, "geometry": {"coordinates": [-80.400439402, 27.639302663], "type": "Point"}, "id": "gq-lA5F2sA8JLjmhxD4Y8rjsFJI=", "properties": {"@spider": "usps_collection_boxes", "addr:city": "VERO BEACH", "addr:country": "US", "addr:full": "2059 15TH AVE", "addr:postcode": "32960", "addr:state": "FL", "amenity": "post_box", "brand": "United States Postal Service", "brand:wikidata": "Q668687", "collection_times": "Mo-Fr 13:00", "name": "USPS COLLECTION BOX - BLUE BOX", "note": "ON 12/24 AND 12/31, THIS BOX MAY BE COLLECTED AS EARLY AS 12 NOON.", "nsi_id": "unitedstatespostalservice-a77078", "operator": "United States Postal Service", "operator:short": "USPS", "operator:type": "public", "operator:wikidata": "Q668687", "ref": "3296000041"}, "type": "Feature"}
{"dataset_attributes": {"@spider": "usps_collection_boxes", "spider:collection_time": "2023-10-07T08:22:43.442925"}, "geometry": {"coordinates": [-80.379248298, 27.633386976], "type": "Point"}, "id": "0ijHD9YH84f6aCNJUWHBwNoAFnk=", "properties": {"@spider": "usps_collection_boxes", "addr:city": "VERO BEACH", "addr:country": "US", "addr:full": "1717 INDIAN RIVER BLVD", "addr:postcode": "32960", "addr:state": "FL", "amenity": "post_box", "brand": "United States Postal Service", "brand:wikidata": "Q668687", "collection_times": "Mo-Sa 15:00", "name": "USPS COLLECTION BOX - BLUE BOX", "note": "ON 12/24 AND 12/31, THIS BOX MAY BE COLLECTED AS EARLY AS 12 NOON.", "nsi_id": "unitedstatespostalservice-a77078", "operator": "United States Postal Service", "operator:short": "USPS", "operator:type": "public", "operator:wikidata": "Q668687", "ref": "3296000056"}, "type": "Feature"}
{"dataset_attributes": {"@spider": "usps_collection_boxes", "spider:collection_time": "2023-10-07T08:22:43.442925"}, "geometry": {"coordinates": [-80.395778427, 27.628343], "type": "Point"}, "id": "ZCMMa6FtiGaD6IMXSRjYvPOHOyo=", "properties": {"@spider": "usps_collection_boxes", "addr:city": "VERO BEACH", "addr:country": "US", "addr:full": "1436 OLD DIXIE HWY", "addr:postcode": "32960", "addr:state": "FL", "amenity": "post_box", "brand": "United States Postal Service", "brand:wikidata": "Q668687", "collection_times": "Mo-Fr 11:00", "name": "USPS COLLECTION BOX - BLUE BOX", "nsi_id": "unitedstatespostalservice-a77078", "operator": "United States Postal Service", "operator:short": "USPS", "operator:type": "public", "operator:wikidata": "Q668687", "ref": "3296000058"}, "type": "Feature"}
{"dataset_attributes": {"@spider": "usps_collection_boxes", "spider:collection_time": "2023-10-07T08:22:43.442925"}, "geometry": {"coordinates": [-80.387978223, 27.660225476], "type": "Point"}, "id": "RSvayXNRLwUDzC-_3kXGepfZXhs=", "properties": {"@spider": "usps_collection_boxes", "addr:city": "VERO BEACH", "addr:country": "US", "addr:full": "777 37TH ST", "addr:postcode": "32960", "addr:state": "FL", "amenity": "post_box", "brand": "United States Postal Service", "brand:wikidata": "Q668687", "collection_times": "Mo-Fr 13:00", "name": "USPS COLLECTION BOX - BLUE BOX", "note": "ON 12/24 AND 12/31, THIS BOX MAY BE COLLECTED AS EARLY AS 12 NOON.", "nsi_id": "unitedstatespostalservice-a77078", "operator": "United States Postal Service", "operator:short": "USPS", "operator:type": "public", "operator:wikidata": "Q668687", "ref": "3296000073"}, "type": "Feature"}
{"dataset_attributes": {"@spider": "usps_collection_boxes", "spider:collection_time": "2023-10-07T08:22:43.442925"}, "geometry": {"coordinates": [-80.387978223, 27.660225476], "type": "Point"}, "id": "4QCJjSO2o_ZzKkszFAqRmy6cHIY=", "properties": {"@spider": "usps_collection_boxes", "addr:city": "VERO BEACH", "addr:country": "US", "addr:full": "777 37TH ST", "addr:postcode": "32960", "addr:state": "FL", "amenity": "post_box", "brand": "United States Postal Service", "brand:wikidata": "Q668687", "collection_times": "Mo-Fr 13:00", "name": "USPS COLLECTION BOX - BLUE BOX", "note": "ON 12/24 AND 12/31, THIS BOX MAY BE COLLECTED AS EARLY AS 12 NOON.", "nsi_id": "unitedstatespostalservice-a77078", "operator": "United States Postal Service", "operator:short": "USPS", "operator:type": "public", "operator:wikidata": "Q668687", "ref": "3296000074"}, "type": "Feature"}
{"dataset_attributes": {"@spider": "usps_collection_boxes", "spider:collection_time": "2023-10-07T08:22:43.442925"}, "geometry": {"coordinates": [-80.389276796, 27.629814296], "type": "Point"}, "id": "6ViFOAIyRMQb2hjTjwPSvHXbeOk=", "properties": {"@spider": "usps_collection_boxes", "addr:city": "VERO BEACH", "addr:country": "US", "addr:full": "1551 US 1", "addr:postcode": "32960", "addr:state": "FL", "amenity": "post_box", "brand": "United States Postal Service", "brand:wikidata": "Q668687", "collection_times": "Mo-Sa 17:00", "name": "USPS COLLECTION BOX - BLUE BOX", "note": "ON 12/24 AND 12/31, THIS BOX MAY BE COLLECTED AS EARLY AS 12 NOON.", "nsi_id": "unitedstatespostalservice-a77078", "operator": "United States Postal Service", "operator:short": "USPS", "operator:type": "public", "operator:wikidata": "Q668687", "ref": "3296000076"}, "type": "Feature"}
{"dataset_attributes": {"@spider": "usps_collection_boxes", "spider:collection_time": "2023-10-07T08:22:43.442925"}, "geometry": {"coordinates": [-80.398291037, 27.639279828], "type": "Point"}, "id": "t40ixUsQ1J_qEriL1PG9b-Abfsw=", "properties": {"@spider": "usps_collection_boxes", "addr:city": "VERO BEACH", "addr:country": "US", "addr:full": "2050 13TH AVE", "addr:postcode": "32960", "addr:state": "FL", "amenity": "post_box", "brand": "United States Postal Service", "brand:wikidata": "Q668687", "collection_times": "Mo-Sa 17:00", "name": "USPS COLLECTION BOX - APC", "note": "ON 12/24 AND 12/31, THIS BOX MAY BE COLLECTED AS EARLY AS 12 NOON.", "nsi_id": "unitedstatespostalservice-a77078", "operator": "United States Postal Service", "operator:short": "USPS", "operator:type": "public", "operator:wikidata": "Q668687", "ref": "3296000077"}, "type": "Feature"}
{"dataset_attributes": {"@spider": "usps_collection_boxes", "spider:collection_time": "2023-10-07T08:22:43.442925"}, "geometry": {"coordinates": [-80.398291037, 27.639279828], "type": "Point"}, "id": "k0SpPegl5TKrBejBEhtLktGHxqE=", "properties": {"@spider": "usps_collection_boxes", "addr:city": "VERO BEACH", "addr:country": "US", "addr:full": "2050 13TH AVE", "addr:postcode": "32960", "addr:state": "FL", "amenity": "post_box", "brand": "United States Postal Service", "brand:wikidata": "Q668687", "collection_times": "Mo-Sa 17:00", "name": "USPS COLLECTION BOX - PO LOBBY", "note": "ON 12/24 AND 12/31, THIS BOX MAY BE COLLECTED AS EARLY AS 12 NOON.", "nsi_id": "unitedstatespostalservice-a77078", "operator": "United States Postal Service", "operator:short": "USPS", "operator:type": "public", "operator:wikidata": "Q668687", "ref": "3296000078"}, "type": "Feature"}
{"dataset_attributes": {"@spider": "usps_collection_boxes", "spider:collection_time": "2023-10-07T08:22:43.442925"}, "geometry": {"coordinates": [-80.398291037, 27.639279828], "type": "Point"}, "id": "ZPCDSlMHfPRb6WVEMitDqZVXlWs=", "properties": {"@spider": "usps_collection_boxes", "addr:city": "VERO BEACH", "addr:country": "US", "addr:full": "2050 13TH AVE", "addr:postcode": "32960", "addr:state": "FL", "amenity": "post_box", "brand": "United States Postal Service", "brand:wikidata": "Q668687", "collection_times": "Mo-Sa 17:00", "name": "USPS COLLECTION BOX - PO LOBBY", "note": "ON 12/24 AND 12/31, THIS BOX MAY BE COLLECTED AS EARLY AS 12 NOON.", "nsi_id": "unitedstatespostalservice-a77078", "operator": "United States Postal Service", "operator:short": "USPS", "operator:type": "public", "operator:wikidata": "Q668687", "ref": "3296000079"}, "type": "Feature"}
{"dataset_attributes": {"@spider": "usps_collection_boxes", "spider:collection_time": "2023-10-07T08:22:43.442925"}, "geometry": {"coordinates": [-80.398291037, 27.639279828], "type": "Point"}, "id": "5sxh0PEUxu_4aNH6U5m4VUQYkIk=", "properties": {"@spider": "usps_collection_boxes", "addr:city": "VERO BEACH", "addr:country": "US", "addr:full": "2050 13TH AVE", "addr:postcode": "32960", "addr:state": "FL", "amenity": "post_box", "brand": "United States Postal Service", "brand:wikidata": "Q668687", "collection_times": "Mo-Sa 17:00", "name": "USPS COLLECTION BOX - PO LOBBY", "note": "ON 12/24 AND 12/31, THIS BOX MAY BE COLLECTED AS EARLY AS 12 NOON.", "nsi_id": "unitedstatespostalservice-a77078", "operator": "United States Postal Service", "operator:short": "USPS", "operator:type": "public", "operator:wikidata": "Q668687", "ref": "3296000080"}, "type": "Feature"}
{"dataset_attributes": {"@spider": "usps_collection_boxes", "spider:collection_time": "2023-10-07T08:22:43.442925"}, "geometry": {"coordinates": [-80.389276796, 27.629814296], "type": "Point"}, "id": "9HafiNESxpZNKoyjmsGOhh_DYtQ=", "properties": {"@spider": "usps_collection_boxes", "addr:city": "VERO BEACH", "addr:country": "US", "addr:full": "1551 US 1", "addr:postcode": "32960", "addr:state": "FL", "amenity": "post_box", "brand": "United States Postal Service", "brand:wikidata": "Q668687", "collection_times": "Mo-Sa 17:00", "name": "USPS COLLECTION BOX - PO LOBBY", "note": "ON 12/24 AND 12/31, THIS BOX MAY BE COLLECTED AS EARLY AS 12 NOON.", "nsi_id": "unitedstatespostalservice-a77078", "operator": "United States Postal Service", "operator:short": "USPS", "operator:type": "public", "operator:wikidata": "Q668687", "ref": "3296000081"}, "type": "Feature"}
{"dataset_attributes": {"@spider": "usps_collection_boxes", "spider:collection_time": "2023-10-07T08:22:43.442925"}, "geometry": {"coordinates": [-80.389276796, 27.629814296], "type": "Point"}, "id": "D5FUHrzpUQeYXt4lTIbPiQZlq40=", "properties": {"@spider": "usps_collection_boxes", "addr:city": "VERO BEACH", "addr:country": "US", "addr:full": "1551 US 1", "addr:postcode": "32960", "addr:state": "FL", "amenity": "post_box", "brand": "United States Postal Service", "brand:wikidata": "Q668687", "collection_times": "Mo-Sa 17:00", "name": "USPS COLLECTION BOX - APC", "note": "ON 12/24 AND 12/31, THIS BOX MAY BE COLLECTED AS EARLY AS 12 NOON.", "nsi_id": "unitedstatespostalservice-a77078", "operator": "United States Postal Service", "operator:short": "USPS", "operator:type": "public", "operator:wikidata": "Q668687", "ref": "3296000082"}, "type": "Feature"}
{"dataset_attributes": {"@spider": "usps_collection_boxes", "spider:collection_time": "2023-10-07T08:22:43.442925"}, "geometry": {"coordinates": [-80.398291037, 27.639279828], "type": "Point"}, "id": "phdRuY97fFjAMUlgG19lzFVwUvs=", "properties": {"@spider": "usps_collection_boxes", "addr:city": "VERO BEACH", "addr:country": "US", "addr:full": "2050 13TH AVE OFC", "addr:postcode": "32960", "addr:state": "FL", "amenity": "post_box", "brand": "United States Postal Service", "brand:wikidata": "Q668687", "collection_times": "Mo-Sa 17:00", "name": "USPS COLLECTION BOX - PO LOBBY", "note": "ON 12/24 AND 12/31, THIS BOX MAY BE COLLECTED AS EARLY AS 12 NOON.", "nsi_id": "unitedstatespostalservice-a77078", "operator": "United States Postal Service", "operator:short": "USPS", "operator:type": "public", "operator:wikidata": "Q668687", "ref": "3296000085"}, "type": "Feature"}
{"dataset_attributes": {"@spider": "usps_collection_boxes", "spider:collection_time": "2023-10-07T08:22:43.442925"}, "geometry": {"coordinates": [-80.389276796, 27.629814296], "type": "Point"}, "id": "Hk0U4q__ZFuOxrVAXltX3Un5gnA=", "properties": {"@spider": "usps_collection_boxes", "addr:city": "VERO BEACH", "addr:country": "US", "addr:full": "1551 US HIGHWAY 1", "addr:postcode": "32960", "addr:state": "FL", "amenity": "post_box", "brand": "United States Postal Service", "brand:wikidata": "Q668687", "collection_times": "Mo-Sa 17:00", "name": "USPS COLLECTION BOX - PO LOBBY", "note": "ON 12/24 AND 12/31, THIS BOX MAY BE COLLECTED AS EARLY AS 12 NOON.", "nsi_id": "unitedstatespostalservice-a77078", "operator": "United States Postal Service", "operator:short": "USPS", "operator:type": "public", "operator:wikidata": "Q668687", "ref": "3296000086"}, "type": "Feature"}
{"dataset_attributes": {"@spider": "usps_collection_boxes", "spider:collection_time": "2023-10-07T08:22:43.442925"}, "geometry": {"coordinates": [-80.385216982, 27.612111302], "type": "Point"}, "id": "xoLy4RJjRWim_VoNnBurFMDwE-I=", "properties": {"@spider": "usps_collection_boxes", "addr:city": "VERO BEACH", "addr:country": "US", "addr:full": "600 6TH AVE", "addr:postcode": "32962", "addr:state": "FL", "amenity": "post_box", "brand": "United States Postal Service", "brand:wikidata": "Q668687", "collection_times": "Mo-Fr 15:30; Sa 16:00", "name": "USPS COLLECTION BOX - BLUE BOX", "note": "ON 12/24 AND 12/31, THIS BOX MAY BE COLLECTED AS EARLY AS 12 NOON.", "nsi_id": "unitedstatespostalservice-a77078", "operator": "United States Postal Service", "operator:short": "USPS", "operator:type": "public", "operator:wikidata": "Q668687", "ref": "3296200003"}, "type": "Feature"}
{"dataset_attributes": {"@spider": "usps_collection_boxes", "spider:collection_time": "2023-10-07T08:22:43.442925"}, "geometry": {"coordinates": [-80.378188546, 27.588633924], "type": "Point"}, "id": "tEoBXldIttPJ7e-Lkr9XRADXAYE=", "properties": {"@spider": "usps_collection_boxes", "addr:city": "VERO BEACH", "addr:country": "US", "addr:full": "800 S US 1", "addr:postcode": "32962", "addr:state": "FL", "amenity": "post_box", "brand": "United States Postal Service", "brand:wikidata": "Q668687", "collection_times": "Mo-Sa 11:30", "name": "USPS COLLECTION BOX - BLUE BOX", "nsi_id": "unitedstatespostalservice-a77078", "operator": "United States Postal Service", "operator:short": "USPS", "operator:type": "public", "operator:wikidata": "Q668687", "ref": "3296200005"}, "type": "Feature"}
{"dataset_attributes": {"@spider": "usps_collection_boxes", "spider:collection_time": "2023-10-07T08:22:43.442925"}, "geometry": {"coordinates": [-80.371763256, 27.56552646], "type": "Point"}, "id": "zAQvZvfvY-Z4X8a-jtMMx1dMyII=", "properties": {"@spider": "usps_collection_boxes", "addr:city": "VERO BEACH", "addr:country": "US", "addr:full": "210 HIGHLAND DR SE", "addr:postcode": "32962", "addr:state": "FL", "amenity": "post_box", "brand": "United States Postal Service", "brand:wikidata": "Q668687", "collection_times": "Mo-Sa 12:00", "name": "USPS COLLECTION BOX - BLUE BOX", "nsi_id": "unitedstatespostalservice-a77078", "operator": "United States Postal Service", "operator:short": "USPS", "operator:type": "public", "operator:wikidata": "Q668687", "ref": "3296200008"}, "type": "Feature"}
{"dataset_attributes": {"@spider": "usps_collection_boxes", "spider:collection_time": "2023-10-07T08:22:43.442925"}, "geometry": {"coordinates": [-80.404765, 27.607285], "type": "Point"}, "id": "QYJUq_7OtacEWVQadODpJ2xA5Is=", "properties": {"@spider": "usps_collection_boxes", "addr:city": "VERO BEACH", "addr:country": "US", "addr:full": "100 VISTA ROYALE BLVD", "addr:postcode": "32962", "addr:state": "FL", "amenity": "post_box", "brand": "United States Postal Service", "brand:wikidata": "Q668687", "collection_times": "Mo-Sa 13:00", "name": "USPS COLLECTION BOX - BLUE BOX", "note": "ON 12/24 AND 12/31, THIS BOX MAY BE COLLECTED AS EARLY AS 12 NOON.", "nsi_id": "unitedstatespostalservice-a77078", "operator": "United States Postal Service", "operator:short": "USPS", "operator:type": "public", "operator:wikidata": "Q668687", "ref": "3296200010"}, "type": "Feature"}
{"dataset_attributes": {"@spider": "usps_collection_boxes", "spider:collection_time": "2023-10-07T08:22:43.442925"}, "geometry": {"coordinates": [-80.389324249, 27.614622396], "type": "Point"}, "id": "wxGZvRfAIKnqqU0MmH3wjQ7TIt0=", "properties": {"@spider": "usps_collection_boxes", "addr:city": "VERO BEACH", "addr:country": "US", "addr:full": "785 8TH CT UNIT 2", "addr:postcode": "32962", "addr:state": "FL", "amenity": "post_box", "brand": "United States Postal Service", "brand:wikidata": "Q668687", "collection_times": "Mo-Sa 15:30", "name": "USPS COLLECTION BOX - BLUE BOX", "note": "ON 12/24 AND 12/31, THIS BOX MAY BE COLLECTED AS EARLY AS 12 NOON.", "nsi_id": "unitedstatespostalservice-a77078", "operator": "United States Postal Service", "operator:short": "USPS", "operator:type": "public", "operator:wikidata": "Q668687", "ref": "3296200012"}, "type": "Feature"}
{"dataset_attributes": {"@spider": "usps_collection_boxes", "spider:collection_time": "2023-10-07T08:22:43.442925"}, "geometry": {"coordinates": [-80.357392548, 27.652454868], "type": "Point"}, "id": "EuCAGdSQ92viQsE3_oLnrWeTfjU=", "properties": {"@spider": "usps_collection_boxes", "addr:city": "VERO BEACH", "addr:country": "US", "addr:full": "3300 CARDINAL DR", "addr:postcode": "32963", "addr:state": "FL", "amenity": "post_box", "brand": "United States Postal Service", "brand:wikidata": "Q668687", "collection_times": "Mo-Fr 17:00; Sa 12:00", "name": "USPS COLLECTION BOX - BLUE BOX", "note": "ON 12/24 AND 12/31, THIS BOX MAY BE COLLECTED AS EARLY AS 12 NOON.", "nsi_id": "unitedstatespostalservice-a77078", "operator": "United States Postal Service", "operator:short": "USPS", "operator:type": "public", "operator:wikidata": "Q668687", "ref": "3296300002"}, "type": "Feature"}
{"dataset_attributes": {"@spider": "usps_collection_boxes", "spider:collection_time": "2023-10-07T08:22:43.442925"}, "geometry": {"coordinates": [-80.371318761, 27.692881776], "type": "Point"}, "id": "LijG9smAckof2YZE6rpooLrYTNk=", "properties": {"@spider": "usps_collection_boxes", "addr:city": "VERO BEACH", "addr:country": "US", "addr:full": "6001 A1A", "addr:postcode": "32963", "addr:state": "FL", "amenity": "post_box", "brand": "United States Postal Service", "brand:wikidata": "Q668687", "collection_times": "Mo-Fr 16:00; Sa 14:00", "name": "USPS COLLECTION BOX - BLUE BOX", "note": "ON 12/24 AND 12/31, THIS BOX MAY BE COLLECTED AS EARLY AS 12 NOON.", "nsi_id": "unitedstatespostalservice-a77078", "operator": "United States Postal Service", "operator:short": "USPS", "operator:type": "public", "operator:wikidata": "Q668687", "ref": "3296300006"}, "type": "Feature"}
{"dataset_attributes": {"@spider": "usps_collection_boxes", "spider:collection_time": "2023-10-07T08:22:43.442925"}, "geometry": {"coordinates": [-80.357136492, 27.632730081], "type": "Point"}, "id": "39pYyiHaP4t5_4SNebtrSBBoe3M=", "properties": {"@spider": "usps_collection_boxes", "addr:city": "VERO BEACH", "addr:country": "US", "addr:full": "1701 HIGHWAY A1A", "addr:postcode": "32963", "addr:state": "FL", "amenity": "post_box", "brand": "United States Postal Service", "brand:wikidata": "Q668687", "collection_times": "Mo-Sa 12:00", "name": "USPS COLLECTION BOX - BLUE BOX", "nsi_id": "unitedstatespostalservice-a77078", "operator": "United States Postal Service", "operator:short": "USPS", "operator:type": "public", "operator:wikidata": "Q668687", "ref": "3296300013"}, "type": "Feature"}
{"dataset_attributes": {"@spider": "usps_collection_boxes", "spider:collection_time": "2023-10-07T08:22:43.442925"}, "geometry": {"coordinates": [-80.357392548, 27.652454868], "type": "Point"}, "id": "r_VL5ud22dI7Jwluvj9kmpez_p4=", "properties": {"@spider": "usps_collection_boxes", "addr:city": "VERO BEACH", "addr:country": "US", "addr:full": "3300 CARDINAL DR", "addr:postcode": "32963", "addr:state": "FL", "amenity": "post_box", "brand": "United States Postal Service", "brand:wikidata": "Q668687", "collection_times": "Mo-Fr 17:00; Sa 12:00", "name": "USPS COLLECTION BOX - PO LOBBY", "note": "ON 12/24 AND 12/31, THIS BOX MAY BE COLLECTED AS EARLY AS 12 NOON.", "nsi_id": "unitedstatespostalservice-a77078", "operator": "United States Postal Service", "operator:short": "USPS", "operator:type": "public", "operator:wikidata": "Q668687", "ref": "3296300015"}, "type": "Feature"}
{"dataset_attributes": {"@spider": "usps_collection_boxes", "spider:collection_time": "2023-10-07T08:22:43.442925"}, "geometry": {"coordinates": [-80.357491086, 27.652676794], "type": "Point"}, "id": "yWs3MzKThy9GA_uNzAWdrgeC6HE=", "properties": {"@spider": "usps_collection_boxes", "addr:city": "VERO BEACH", "addr:country": "US", "addr:full": "3320 CARDINAL DR", "addr:postcode": "32963", "addr:state": "FL", "amenity": "post_box", "brand": "United States Postal Service", "brand:wikidata": "Q668687", "collection_times": "Mo-Fr 17:00; Sa 12:00", "name": "USPS COLLECTION BOX - PO LOBBY", "note": "ON 12/24 AND 12/31, THIS BOX MAY BE COLLECTED AS EARLY AS 12 NOON.", "nsi_id": "unitedstatespostalservice-a77078", "operator": "United States Postal Service", "operator:short": "USPS", "operator:type": "public", "operator:wikidata": "Q668687", "ref": "3296300016"}, "type": "Feature"}
{"dataset_attributes": {"@spider": "usps_collection_boxes", "spider:collection_time": "2023-10-07T08:22:43.442925"}, "geometry": {"coordinates": [-80.501988526, 27.639348499], "type": "Point"}, "id": "HXfd1JN6rv8ySCA4lKb7d-WIWIw=", "properties": {"@spider": "usps_collection_boxes", "addr:city": "VERO BEACH", "addr:country": "US", "addr:full": "8500 20TH ST", "addr:postcode": "32966", "addr:state": "FL", "amenity": "post_box", "brand": "United States Postal Service", "brand:wikidata": "Q668687", "collection_times": "Mo-Sa 17:00", "name": "USPS COLLECTION BOX - BLUE BOX", "note": "ON 12/24 AND 12/31, THIS BOX MAY BE COLLECTED AS EARLY AS 12 NOON.", "nsi_id": "unitedstatespostalservice-a77078", "operator": "United States Postal Service", "operator:short": "USPS", "operator:type": "public", "operator:wikidata": "Q668687", "ref": "3296600009"}, "type": "Feature"}
{"dataset_attributes": {"@spider": "usps_collection_boxes", "spider:collection_time": "2023-10-07T08:22:43.442925"}, "geometry": {"coordinates": [-80.446424704, 27.645340349], "type": "Point"}, "id": "_h1jFdp30ag4dFac_j44AwaRcpU=", "properties": {"@spider": "usps_collection_boxes", "addr:city": "VERO BEACH", "addr:country": "US", "addr:full": "2500 58TH AVE", "addr:postcode": "32966", "addr:state": "FL", "amenity": "post_box", "brand": "United States Postal Service", "brand:wikidata": "Q668687", "collection_times": "Mo-Sa 15:30", "name": "USPS COLLECTION BOX - BLUE BOX", "note": "ON 12/24 AND 12/31, THIS BOX MAY BE COLLECTED AS EARLY AS 12 NOON.", "nsi_id": "unitedstatespostalservice-a77078", "operator": "United States Postal Service", "operator:short": "USPS", "operator:type": "public", "operator:wikidata": "Q668687", "ref": "3296600012"}, "type": "Feature"}
{"dataset_attributes": {"@spider": "usps_collection_boxes", "spider:collection_time": "2023-10-07T08:22:43.442925"}, "geometry": {"coordinates": [-80.501988526, 27.639348499], "type": "Point"}, "id": "sl32ITPDWZ5-OzmJ96uhxKNoKNY=", "properties": {"@spider": "usps_collection_boxes", "addr:city": "VERO BEACH", "addr:country": "US", "addr:full": "8500 20TH ST", "addr:postcode": "32966", "addr:state": "FL", "amenity": "post_box", "brand": "United States Postal Service", "brand:wikidata": "Q668687", "collection_times": "Mo-Sa 17:00", "name": "USPS COLLECTION BOX - PO LOBBY", "note": "ON 12/24 AND 12/31, THIS BOX MAY BE COLLECTED AS EARLY AS 12 NOON.", "nsi_id": "unitedstatespostalservice-a77078", "operator": "United States Postal Service", "operator:short": "USPS", "operator:type": "public", "operator:wikidata": "Q668687", "ref": "3296600013"}, "type": "Feature"}
{"dataset_attributes": {"@spider": "usps_collection_boxes", "spider:collection_time": "2023-10-07T08:22:43.442925"}, "geometry": {"coordinates": [-80.501988526, 27.639348499], "type": "Point"}, "id": "I7YT4Zh5APZbNAr3kL6FaPaQgbA=", "properties": {"@spider": "usps_collection_boxes", "addr:city": "VERO BEACH", "addr:country": "US", "addr:full": "8500 20TH ST", "addr:postcode": "32966", "addr:state": "FL", "amenity": "post_box", "brand": "United States Postal Service", "brand:wikidata": "Q668687", "collection_times": "Mo-Sa 17:00", "name": "USPS COLLECTION BOX - PO LOBBY", "note": "ON 12/24 AND 12/31, THIS BOX MAY BE COLLECTED AS EARLY AS 12 NOON.", "nsi_id": "unitedstatespostalservice-a77078", "operator": "United States Postal Service", "operator:short": "USPS", "operator:type": "public", "operator:wikidata": "Q668687", "ref": "3296600014"}, "type": "Feature"}
{"dataset_attributes": {"@spider": "usps_collection_boxes", "spider:collection_time": "2023-10-07T08:22:43.442925"}, "geometry": {"coordinates": [-80.501988526, 27.639348499], "type": "Point"}, "id": "qBmOq8tXffk-1aagDLQ_mxEhF6w=", "properties": {"@spider": "usps_collection_boxes", "addr:city": "VERO BEACH", "addr:country": "US", "addr:full": "8500 20TH ST", "addr:postcode": "32966", "addr:state": "FL", "amenity": "post_box", "brand": "United States Postal Service", "brand:wikidata": "Q668687", "collection_times": "Mo-Sa 17:00", "name": "USPS COLLECTION BOX - PO LOBBY", "note": "ON 12/24 AND 12/31, THIS BOX MAY BE COLLECTED AS EARLY AS 12 NOON.", "nsi_id": "unitedstatespostalservice-a77078", "operator": "United States Postal Service", "operator:short": "USPS", "operator:type": "public", "operator:wikidata": "Q668687", "ref": "3296600015"}, "type": "Feature"}
{"dataset_attributes": {"@spider": "usps_collection_boxes", "spider:collection_time": "2023-10-07T08:22:43.442925"}, "geometry": {"coordinates": [-80.501988526, 27.639348499], "type": "Point"}, "id": "zM_OfB8DRiE5KIRY8tm8ejPqRuE=", "properties": {"@spider": "usps_collection_boxes", "addr:city": "VERO BEACH", "addr:country": "US", "addr:full": "8500 20TH ST", "addr:postcode": "32966", "addr:state": "FL", "amenity": "post_box", "brand": "United States Postal Service", "brand:wikidata": "Q668687", "collection_times": "Mo-Fr 17:00; Sa 12:00", "name": "USPS COLLECTION BOX - PO LOBBY", "note": "ON 12/24 AND 12/31, THIS BOX MAY BE COLLECTED AS EARLY AS 12 NOON.", "nsi_id": "unitedstatespostalservice-a77078", "operator": "United States Postal Service", "operator:short": "USPS", "operator:type": "public", "operator:wikidata": "Q668687", "ref": "3296600020"}, "type": "Feature"}
{"dataset_attributes": {"@spider": "usps_collection_boxes", "spider:collection_time": "2023-10-07T08:22:43.442925"}, "geometry": {"coordinates": [-80.412779893, 27.690259202], "type": "Point"}, "id": "evOwOponPAzr4QsnWcI0_c6OsCg=", "properties": {"@spider": "usps_collection_boxes", "addr:city": "VERO BEACH", "addr:country": "US", "addr:full": "5325 US HIGHWAY 1", "addr:postcode": "32967", "addr:state": "FL", "amenity": "post_box", "brand": "United States Postal Service", "brand:wikidata": "Q668687", "collection_times": "Mo-Fr 12:00", "name": "USPS COLLECTION BOX - BLUE BOX", "nsi_id": "unitedstatespostalservice-a77078", "operator": "United States Postal Service", "operator:short": "USPS", "operator:type": "public", "operator:wikidata": "Q668687", "ref": "3296700001"}, "type": "Feature"}
{"dataset_attributes": {"@spider": "usps_collection_boxes", "spider:collection_time": "2023-10-07T08:22:43.442925"}, "geometry": {"coordinates": [-80.428931232, 27.587248355], "type": "Point"}, "id": "dm3wkJdNxQQ9O8sDv7JtKyfXxfI=", "properties": {"@spider": "usps_collection_boxes", "addr:city": "VERO BEACH", "addr:country": "US", "addr:full": "4115 9TH ST SW", "addr:postcode": "32968", "addr:state": "FL", "amenity": "post_box", "brand": "United States Postal Service", "brand:wikidata": "Q668687", "collection_times": "Mo-Sa 13:00", "name": "USPS COLLECTION BOX - BLUE BOX", "note": "ON 12/24 AND 12/31, THIS BOX MAY BE COLLECTED AS EARLY AS 12 NOON.", "nsi_id": "unitedstatespostalservice-a77078", "operator": "United States Postal Service", "operator:short": "USPS", "operator:type": "public", "operator:wikidata": "Q668687", "ref": "3296800002"}, "type": "Feature"}
{"dataset_attributes": {"@spider": "usps_collection_boxes", "spider:collection_time": "2023-10-07T08:22:43.442925"}, "geometry": {"coordinates": [-80.43083214, 27.741651733], "type": "Point"}, "id": "ltQt3zI_8AeERLFhtxcQ2tEOgxA=", "properties": {"@spider": "usps_collection_boxes", "addr:city": "WABASSO", "addr:country": "US", "addr:full": "8114 US HIGHWAY 1", "addr:postcode": "32970", "addr:state": "FL", "amenity": "post_box", "brand": "United States Postal Service", "brand:wikidata": "Q668687", "collection_times": "Mo-Fr 16:30; Sa 11:00", "name": "USPS COLLECTION BOX - BLUE BOX", "note": "ON 12/24 AND 12/31, THIS BOX MAY BE COLLECTED AS EARLY AS 12 NOON.", "nsi_id": "unitedstatespostalservice-a77078", "operator": "United States Postal Service", "operator:short": "USPS", "operator:type": "public", "operator:wikidata": "Q668687", "ref": "3297000002"}, "type": "Feature"}
{"dataset_attributes": {"@spider": "usps_collection_boxes", "spider:collection_time": "2023-10-07T08:22:43.442925"}, "geometry": {"coordinates": [-80.43083214, 27.741651733], "type": "Point"}, "id": "8vMwWMUe-7owOf-QbP8bj5AuK7M=", "properties": {"@spider": "usps_collection_boxes", "addr:city": "WABASSO", "addr:country": "US", "addr:full": "8114 US HIGHWAY 1", "addr:postcode": "32970", "addr:state": "FL", "amenity": "post_box", "brand": "United States Postal Service", "brand:wikidata": "Q668687", "collection_times": "Mo-Fr 16:30; Sa 11:00", "name": "USPS COLLECTION BOX - PO LOBBY", "note": "ON 12/24 AND 12/31, THIS BOX MAY BE COLLECTED AS EARLY AS 12 NOON.", "nsi_id": "unitedstatespostalservice-a77078", "operator": "United States Postal Service", "operator:short": "USPS", "operator:type": "public", "operator:wikidata": "Q668687", "ref": "3297000003"}, "type": "Feature"}
{"dataset_attributes": {"@spider": "usps_collection_boxes", "spider:collection_time": "2023-10-07T08:22:43.442925"}, "geometry": {"coordinates": [-80.43083214, 27.741651733], "type": "Point"}, "id": "-E9acmaPW4VXP0SnOaKO_C2OCgE=", "properties": {"@spider": "usps_collection_boxes", "addr:city": "WABASSO", "addr:country": "US", "addr:full": "8114 US HIGHWAY 1", "addr:postcode": "32970", "addr:state": "FL", "amenity": "post_box", "brand": "United States Postal Service", "brand:wikidata": "Q668687", "collection_times": "Mo-Fr 16:30; Sa 11:00", "name": "USPS COLLECTION BOX - PO LOBBY", "note": "ON 12/24 AND 12/31, THIS BOX MAY BE COLLECTED AS EARLY AS 12 NOON.", "nsi_id": "unitedstatespostalservice-a77078", "operator": "United States Postal Service", "operator:short": "USPS", "operator:type": "public", "operator:wikidata": "Q668687", "ref": "3297000004"}, "type": "Feature"}
