{"geometry": {"coordinates": [-81.804406322, 24.555781564], "type": "Point"}, "id": "sUSJG-TIt1mdYKBB5Yd66800u68=", "properties": {"@spider": "usps_collection_boxes", "addr:city": "KEY WEST", "addr:country": "US", "addr:full": "400 WHITEHEAD ST", "addr:postcode": "33040", "addr:state": "FL", "brand": "USPS", "collection_times": "Mo-Fr 17:00; Sa 13:00", "name": "USPS COLLECTION BOX - BLUE BOX", "note": "ON 12/24 AND 12/31, THIS BOX MAY BE COLLECTED AS EARLY AS 12 NOON.", "ref": "3304000001"}, "type": "Feature"}
{"geometry": {"coordinates": [-81.804406322, 24.555781564], "type": "Point"}, "id": "jHX4Xco_s8F-x99m2lUPKoNq-YI=", "properties": {"@spider": "usps_collection_boxes", "addr:city": "KEY WEST", "addr:country": "US", "addr:full": "400 WHITEHEAD ST", "addr:postcode": "33040", "addr:state": "FL", "brand": "USPS", "collection_times": "Mo-Fr 17:00; Sa 13:00", "name": "USPS COLLECTION BOX - BLUE BOX", "note": "ON 12/24 AND 12/31, THIS BOX MAY BE COLLECTED AS EARLY AS 12 NOON.", "ref": "3304000002"}, "type": "Feature"}
{"geometry": {"coordinates": [-81.773990968, 24.581350585], "type": "Point"}, "id": "cbdhT7UNXsx_hisX54K1hGoEkhk=", "properties": {"@spider": "usps_collection_boxes", "addr:city": "KEY WEST", "addr:country": "US", "addr:full": "815 SIGSBEE RD", "addr:postcode": "33040", "addr:state": "FL", "brand": "USPS", "collection_times": "Mo-Sa 10:30", "name": "USPS COLLECTION BOX - BLUE BOX", "ref": "3304000012"}, "type": "Feature"}
{"geometry": {"coordinates": [-81.7669147322, 24.5692968778], "type": "Point"}, "id": "G5dRoMwp-OmpriG8kVVoDlHzEOU=", "properties": {"@spider": "usps_collection_boxes", "addr:city": "KEY WEST", "addr:country": "US", "addr:full": "3202 N ROOSEVELT BLVD", "addr:postcode": "33040", "addr:state": "FL", "brand": "USPS", "collection_times": "Mo-Sa 14:00", "name": "USPS COLLECTION BOX - BLUE BOX", "note": "ON 12/24 AND 12/31, THIS BOX MAY BE COLLECTED AS EARLY AS 12 NOON.", "ref": "3304000016"}, "type": "Feature"}
{"geometry": {"coordinates": [-81.763475512, 24.561921607], "type": "Point"}, "id": "KbAr3I24PQ2R4ksWjtdbbB6s_ZI=", "properties": {"@spider": "usps_collection_boxes", "addr:city": "KEY WEST", "addr:country": "US", "addr:full": "3216 FLAGLER AVE", "addr:postcode": "33040", "addr:state": "FL", "brand": "USPS", "collection_times": "Mo-Sa 14:30", "name": "USPS COLLECTION BOX - BLUE BOX", "note": "ON 12/24 AND 12/31, THIS BOX MAY BE COLLECTED AS EARLY AS 12 NOON.", "ref": "3304000018"}, "type": "Feature"}
{"geometry": {"coordinates": [-81.7616124774, 24.5643934342], "type": "Point"}, "id": "2YB752XowlibMROsMVFH33yx-2o=", "properties": {"@spider": "usps_collection_boxes", "addr:city": "KEY WEST", "addr:country": "US", "addr:full": "3333 DUCK AVE", "addr:postcode": "33040", "addr:state": "FL", "brand": "USPS", "collection_times": "Mo-Sa 12:00", "name": "USPS COLLECTION BOX - BLUE BOX", "ref": "3304000019"}, "type": "Feature"}
{"geometry": {"coordinates": [-81.7323885, 24.575985], "type": "Point"}, "id": "IcZdpFB8nWsGCRKTRsezTzpj2zg=", "properties": {"@spider": "usps_collection_boxes", "addr:city": "KEY WEST", "addr:country": "US", "addr:full": "5991 OVERSEAS HWY", "addr:postcode": "33040", "addr:state": "FL", "brand": "USPS", "collection_times": "Mo-Sa 15:00", "name": "USPS COLLECTION BOX - BLUE BOX", "note": "ON 12/24 AND 12/31, THIS BOX MAY BE COLLECTED AS EARLY AS 12 NOON.", "ref": "3304000024"}, "type": "Feature"}
{"geometry": {"coordinates": [-81.741149221, 24.58163049], "type": "Point"}, "id": "bMuDQQs2cM5v4cVhoay1mp7z6mw=", "properties": {"@spider": "usps_collection_boxes", "addr:city": "KEY WEST", "addr:country": "US", "addr:full": "5900 COLLEGE RD", "addr:postcode": "33040", "addr:state": "FL", "brand": "USPS", "collection_times": "Mo-Sa 12:00", "name": "USPS COLLECTION BOX - BLUE BOX", "ref": "3304000026"}, "type": "Feature"}
{"geometry": {"coordinates": [-81.753417654, 24.55228367], "type": "Point"}, "id": "x4nKH-0FWK2gd0sIkBkCZHxCoV0=", "properties": {"@spider": "usps_collection_boxes", "addr:city": "KEY WEST", "addr:country": "US", "addr:full": "3495 S ROOSEVELT BLVD", "addr:postcode": "33040", "addr:state": "FL", "brand": "USPS", "collection_times": "Mo-Sa 10:00", "name": "USPS COLLECTION BOX - BLUE BOX", "ref": "3304000030"}, "type": "Feature"}
{"geometry": {"coordinates": [-81.800925997, 24.551241142], "type": "Point"}, "id": "01zLqr-ja00M_2YuYNggFoJ7R1Y=", "properties": {"@spider": "usps_collection_boxes", "addr:city": "KEY WEST", "addr:country": "US", "addr:full": "901 WHITEHEAD ST", "addr:postcode": "33040", "addr:state": "FL", "brand": "USPS", "collection_times": "Mo-Sa 15:00", "name": "USPS COLLECTION BOX - BLUE BOX", "note": "ON 12/24 AND 12/31, THIS BOX MAY BE COLLECTED AS EARLY AS 12 NOON.", "ref": "3304000043"}, "type": "Feature"}
{"geometry": {"coordinates": [-81.785261696, 24.559247503], "type": "Point"}, "id": "m70tHfrxT9MRdgFXYDz4_OVPwPc=", "properties": {"@spider": "usps_collection_boxes", "addr:city": "KEY WEST", "addr:country": "US", "addr:full": "1720 N ROOSEVELT BLVD", "addr:postcode": "33040", "addr:state": "FL", "brand": "USPS", "collection_times": "Mo-Fr 10:00; Sa 10:30", "name": "USPS COLLECTION BOX - BLUE BOX", "ref": "3304000048"}, "type": "Feature"}
{"geometry": {"coordinates": [-81.768563882, 24.564361119], "type": "Point"}, "id": "uMBhAF2QnBcicq98bWKrP8WCz40=", "properties": {"@spider": "usps_collection_boxes", "addr:city": "KEY WEST", "addr:country": "US", "addr:full": "1111 12TH ST", "addr:postcode": "33040", "addr:state": "FL", "brand": "USPS", "collection_times": "Mo-Sa 10:30", "name": "USPS COLLECTION BOX - BLUE BOX", "ref": "3304000050"}, "type": "Feature"}
{"geometry": {"coordinates": [-81.787118256, 24.550759591], "type": "Point"}, "id": "yvSzx8m4NhmOH0qq8ys071ewgmE=", "properties": {"@spider": "usps_collection_boxes", "addr:city": "KEY WEST", "addr:country": "US", "addr:full": "1425 WHITE ST", "addr:postcode": "33040", "addr:state": "FL", "brand": "USPS", "collection_times": "Mo-Sa 11:30", "name": "USPS COLLECTION BOX - BLUE BOX", "ref": "3304000054"}, "type": "Feature"}
{"geometry": {"coordinates": [-81.7965115665, 24.5499549315], "type": "Point"}, "id": "q191Yv_--4HhbBnWDJDm9diEk4g=", "properties": {"@spider": "usps_collection_boxes", "addr:city": "KEY WEST", "addr:country": "US", "addr:full": "1200 SIMONTON ST", "addr:postcode": "33040", "addr:state": "FL", "brand": "USPS", "collection_times": "Mo-Fr 12:15; Sa 10:35", "name": "USPS COLLECTION BOX - BLUE BOX", "note": "ON 12/24 AND 12/31, THIS BOX MAY BE COLLECTED AS EARLY AS 12 NOON.", "ref": "3304000061"}, "type": "Feature"}
{"geometry": {"coordinates": [-81.798639811, 24.5503266386], "type": "Point"}, "id": "Al0P8DP8sLjrL4lLF4HNjlQ9FTE=", "properties": {"@spider": "usps_collection_boxes", "addr:city": "KEY WEST", "addr:country": "US", "addr:full": "1075 DUVAL ST", "addr:postcode": "33040", "addr:state": "FL", "brand": "USPS", "collection_times": "Mo-Sa 12:30", "name": "USPS COLLECTION BOX - BLUE BOX", "note": "ON 12/24 AND 12/31, THIS BOX MAY BE COLLECTED AS EARLY AS 12 NOON.", "ref": "3304000065"}, "type": "Feature"}
{"geometry": {"coordinates": [-81.773154311, 24.565368729], "type": "Point"}, "id": "OBXnzgi_X0SZM0lJkAEnpIik24w=", "properties": {"@spider": "usps_collection_boxes", "addr:city": "KEY WEST", "addr:country": "US", "addr:full": "2700 N ROOSEVELT BLVD", "addr:postcode": "33040", "addr:state": "FL", "brand": "USPS", "collection_times": "Mo-Sa 11:15", "name": "USPS COLLECTION BOX - BLUE BOX", "ref": "3304000070"}, "type": "Feature"}
{"geometry": {"coordinates": [-81.695468165, 24.5822632], "type": "Point"}, "id": "ze9yiAiyeq-oL9ZZbuN67oVz4rs=", "properties": {"@spider": "usps_collection_boxes", "addr:city": "KEY WEST", "addr:country": "US", "addr:full": "4069 LANGLEY AVE", "addr:postcode": "33040", "addr:state": "FL", "brand": "USPS", "collection_times": "Mo-Fr 09:30", "name": "USPS COLLECTION BOX - BLUE BOX", "ref": "3304000072"}, "type": "Feature"}
{"geometry": {"coordinates": [-81.804406322, 24.555781564], "type": "Point"}, "id": "wdw2sw9NiBv0z7x1sSr9yvv3oSk=", "properties": {"@spider": "usps_collection_boxes", "addr:city": "KEY WEST", "addr:country": "US", "addr:full": "400 WHITEHEAD ST", "addr:postcode": "33040", "addr:state": "FL", "brand": "USPS", "collection_times": "Mo-Fr 17:00; Sa 13:00", "name": "USPS COLLECTION BOX - BLUE BOX", "note": "ON 12/24 AND 12/31, THIS BOX MAY BE COLLECTED AS EARLY AS 12 NOON.", "ref": "3304000073"}, "type": "Feature"}
{"geometry": {"coordinates": [-81.791629994, 24.555820151], "type": "Point"}, "id": "8S7tnNoCKFOrjbj5tTRNDXBoxDg=", "properties": {"@spider": "usps_collection_boxes", "addr:city": "KEY WEST", "addr:country": "US", "addr:full": "1126 TRUMAN AVE", "addr:postcode": "33040", "addr:state": "FL", "brand": "USPS", "collection_times": "Mo-Sa 10:30", "name": "USPS COLLECTION BOX - BLUE BOX", "ref": "3304000075"}, "type": "Feature"}
{"geometry": {"coordinates": [-81.772385892, 24.565896798], "type": "Point"}, "id": "hUVyyKYXywe8fHKSCd_R54rOVU0=", "properties": {"@spider": "usps_collection_boxes", "addr:city": "KEY WEST", "addr:country": "US", "addr:full": "2764 N ROOSEVELT BLVD", "addr:postcode": "33040", "addr:state": "FL", "brand": "USPS", "collection_times": "Mo-Sa 11:15", "name": "USPS COLLECTION BOX - BLUE BOX", "ref": "3304000076"}, "type": "Feature"}
{"geometry": {"coordinates": [-81.772385892, 24.565896798], "type": "Point"}, "id": "LnB2cfwY1tJFbtJEeh3S1IRwvjQ=", "properties": {"@spider": "usps_collection_boxes", "addr:city": "KEY WEST", "addr:country": "US", "addr:full": "2764 N ROOSEVELT BLVD", "addr:postcode": "33040", "addr:state": "FL", "brand": "USPS", "collection_times": "Mo-Sa 11:15", "name": "USPS COLLECTION BOX - BLUE BOX", "ref": "3304000077"}, "type": "Feature"}
{"geometry": {"coordinates": [-81.804406322, 24.555781564], "type": "Point"}, "id": "Y2ZaHzmQVOn2HitHeG2JsuH6y1w=", "properties": {"@spider": "usps_collection_boxes", "addr:city": "KEY WEST", "addr:country": "US", "addr:full": "400 WHITEHEAD ST", "addr:postcode": "33040", "addr:state": "FL", "brand": "USPS", "collection_times": "Mo-Fr 17:00; Sa 13:00", "name": "USPS COLLECTION BOX - PO LOBBY", "note": "ON 12/24 AND 12/31, THIS BOX MAY BE COLLECTED AS EARLY AS 12 NOON.", "ref": "3304000078"}, "type": "Feature"}
{"geometry": {"coordinates": [-81.8044063217, 24.5557815645], "type": "Point"}, "id": "S1ZP749fPn7EH4Dn1_J8ZGV_ewk=", "properties": {"@spider": "usps_collection_boxes", "addr:city": "KEY WEST", "addr:country": "US", "addr:full": "400 WHITEHEAD ST", "addr:postcode": "33040", "addr:state": "FL", "brand": "USPS", "collection_times": "Mo-Fr 17:00; Sa 13:00", "name": "USPS COLLECTION BOX - APC", "note": "ON 12/24 AND 12/31, THIS BOX MAY BE COLLECTED AS EARLY AS 12 NOON.", "ref": "3304000081"}, "type": "Feature"}
{"geometry": {"coordinates": [-81.772500062, 24.565817302], "type": "Point"}, "id": "Vuf0aGDJTqQyoh92AwmlfjscQ70=", "properties": {"@spider": "usps_collection_boxes", "addr:city": "KEY WEST", "addr:country": "US", "addr:full": "2764 N ROOSEVELT BLVD", "addr:postcode": "33040", "addr:state": "FL", "brand": "USPS", "collection_times": "Mo-Fr 17:00; Sa 12:00", "name": "USPS COLLECTION BOX - PO LOBBY", "note": "ON 12/24 AND 12/31, THIS BOX MAY BE COLLECTED AS EARLY AS 12 NOON.", "ref": "3304000089"}, "type": "Feature"}
{"geometry": {"coordinates": [-81.804406322, 24.555781564], "type": "Point"}, "id": "8U70lfI6CnMPKzZdl9JGWFhqNoo=", "properties": {"@spider": "usps_collection_boxes", "addr:city": "KEY WEST", "addr:country": "US", "addr:full": "400 WHITEHEAD ST", "addr:postcode": "33040", "addr:state": "FL", "brand": "USPS", "collection_times": "Mo-Fr 17:00; Sa 14:00", "name": "USPS COLLECTION BOX - PO LOBBY", "note": "ON 12/24 AND 12/31, THIS BOX MAY BE COLLECTED AS EARLY AS 12 NOON.", "ref": "3304000090"}, "type": "Feature"}
{"geometry": {"coordinates": [-81.695468165, 24.5822632], "type": "Point"}, "id": "uPQCx-6M7roSNb8_DZta0JR9X9o=", "properties": {"@spider": "usps_collection_boxes", "addr:city": "KEY WEST", "addr:country": "US", "addr:full": "4069 LANGLEY AVE BLDG A", "addr:postcode": "33040", "addr:state": "FL", "brand": "USPS", "collection_times": "Mo-Fr 13:30", "name": "USPS COLLECTION BOX - PO LOBBY", "note": "ON 12/24 AND 12/31, THIS BOX MAY BE COLLECTED AS EARLY AS 12 NOON.", "ref": "3304000091"}, "type": "Feature"}
{"geometry": {"coordinates": [-81.4462254569, 24.6613719549], "type": "Point"}, "id": "0_VJIBXb7LK2oaxqg28VVkKRAXc=", "properties": {"@spider": "usps_collection_boxes", "addr:city": "SUMMERLAND KEY", "addr:country": "US", "addr:full": "24700 OVERSEAS HWY", "addr:postcode": "33042", "addr:state": "FL", "brand": "USPS", "collection_times": "Mo-Sa 14:00", "name": "USPS COLLECTION BOX - BLUE BOX", "note": "ON 12/24 AND 12/31, THIS BOX MAY BE COLLECTED AS EARLY AS 12 NOON.", "ref": "3304200000"}, "type": "Feature"}
{"geometry": {"coordinates": [-81.4462254569, 24.6613719549], "type": "Point"}, "id": "pvARvMmCEtn1a3gb1khNXmtgpYQ=", "properties": {"@spider": "usps_collection_boxes", "addr:city": "SUMMERLAND KEY", "addr:country": "US", "addr:full": "24700 OVERSEAS HWY", "addr:postcode": "33042", "addr:state": "FL", "brand": "USPS", "collection_times": "Mo-Sa 14:00", "name": "USPS COLLECTION BOX - PO LOBBY", "note": "ON 12/24 AND 12/31, THIS BOX MAY BE COLLECTED AS EARLY AS 12 NOON.", "ref": "3304200001"}, "type": "Feature"}
{"geometry": {"coordinates": [-81.446983585, 24.661478579], "type": "Point"}, "id": "0RHo_-cDcQTX6ZCYdtyedWfRXKU=", "properties": {"@spider": "usps_collection_boxes", "addr:city": "SUMMERLAND KEY", "addr:country": "US", "addr:full": "24700 OVERSEAS HWY", "addr:postcode": "33042", "addr:state": "FL", "brand": "USPS", "collection_times": "Mo-Fr 16:30; Sa 12:00", "name": "USPS COLLECTION BOX - PO LOBBY", "note": "ON 12/24 AND 12/31, THIS BOX MAY BE COLLECTED AS EARLY AS 12 NOON.", "ref": "3304200003"}, "type": "Feature"}
{"geometry": {"coordinates": [-81.3638013247, 24.6697518364], "type": "Point"}, "id": "7H9YibfmZr4CGnVgtAQfnGEy9rE=", "properties": {"@spider": "usps_collection_boxes", "addr:city": "BIG PINE KEY", "addr:country": "US", "addr:full": "29959 OVERSEAS HWY", "addr:postcode": "33043", "addr:state": "FL", "brand": "USPS", "collection_times": "Mo-Sa 14:00", "name": "USPS COLLECTION BOX - BLUE BOX", "note": "ON 12/24 AND 12/31, THIS BOX MAY BE COLLECTED AS EARLY AS 12 NOON.", "ref": "3304300000"}, "type": "Feature"}
{"geometry": {"coordinates": [-81.3638116363, 24.6697924683], "type": "Point"}, "id": "MhND6nlxxq2OTnLBG-cstCwLjas=", "properties": {"@spider": "usps_collection_boxes", "addr:city": "BIG PINE KEY", "addr:country": "US", "addr:full": "29959 OVERSEAS HWY", "addr:postcode": "33043", "addr:state": "FL", "brand": "USPS", "collection_times": "Mo-Sa 14:00", "name": "USPS COLLECTION BOX - PO LOBBY", "note": "ON 12/24 AND 12/31, THIS BOX MAY BE COLLECTED AS EARLY AS 12 NOON.", "ref": "3304300002"}, "type": "Feature"}
{"geometry": {"coordinates": [-81.363811636, 24.669792468], "type": "Point"}, "id": "Lz-xXYQ9rgEDu4AYViVohz4DlK0=", "properties": {"@spider": "usps_collection_boxes", "addr:city": "BIG PINE KEY", "addr:country": "US", "addr:full": "29959 OVERSEAS HWY", "addr:postcode": "33043", "addr:state": "FL", "brand": "USPS", "collection_times": "Mo-Fr 16:30; Sa 12:00", "name": "USPS COLLECTION BOX - PO LOBBY", "note": "ON 12/24 AND 12/31, THIS BOX MAY BE COLLECTED AS EARLY AS 12 NOON.", "ref": "3304300004"}, "type": "Feature"}
{"geometry": {"coordinates": [-81.0721675453, 24.7172057439], "type": "Point"}, "id": "f__JftEcYpKG_Tk1wTTzME1cvZk=", "properties": {"@spider": "usps_collection_boxes", "addr:city": "MARATHON", "addr:country": "US", "addr:full": "5800 OVERSEAS HWY", "addr:postcode": "33050", "addr:state": "FL", "brand": "USPS", "collection_times": "Mo-Sa 10:30", "name": "USPS COLLECTION BOX - BLUE BOX", "ref": "3305000001"}, "type": "Feature"}
{"geometry": {"coordinates": [-81.0790965744, 24.715292345], "type": "Point"}, "id": "oc3btyibREL_G4JqrrB1bsMhzTA=", "properties": {"@spider": "usps_collection_boxes", "addr:city": "MARATHON", "addr:country": "US", "addr:full": "5171 OVERSEAS HWY", "addr:postcode": "33050", "addr:state": "FL", "brand": "USPS", "collection_times": "Mo-Sa 17:00", "name": "USPS COLLECTION BOX - BLUE BOX", "note": "ON 12/24 AND 12/31, THIS BOX MAY BE COLLECTED AS EARLY AS 12 NOON.", "ref": "3305000007"}, "type": "Feature"}
{"geometry": {"coordinates": [-81.0790965744, 24.715292345], "type": "Point"}, "id": "SWnL2BA9-irLXapNRMp1h0mOrog=", "properties": {"@spider": "usps_collection_boxes", "addr:city": "MARATHON", "addr:country": "US", "addr:full": "5171 OVERSEAS HWY", "addr:postcode": "33050", "addr:state": "FL", "brand": "USPS", "collection_times": "Mo-Sa 16:00", "name": "USPS COLLECTION BOX - PO LOBBY", "note": "ON 12/24 AND 12/31, THIS BOX MAY BE COLLECTED AS EARLY AS 12 NOON.", "ref": "3305000016"}, "type": "Feature"}
{"geometry": {"coordinates": [-81.0706467578, 24.7175181659], "type": "Point"}, "id": "TzSbiCBTrvw6vVoc4MVDn2Gt0Bo=", "properties": {"@spider": "usps_collection_boxes", "addr:city": "MARATHON", "addr:country": "US", "addr:full": "6099 OVERSEAS HWY", "addr:postcode": "33050", "addr:state": "FL", "brand": "USPS", "collection_times": "Mo-Sa 09:00", "name": "USPS COLLECTION BOX - BLUE BOX", "ref": "3305000020"}, "type": "Feature"}
{"geometry": {"coordinates": [-81.079096574, 24.715292345], "type": "Point"}, "id": "TE-wOFZZyvzd_HTzoBJ9GivpdN0=", "properties": {"@spider": "usps_collection_boxes", "addr:city": "MARATHON", "addr:country": "US", "addr:full": "5171 OVERSEAS HWY", "addr:postcode": "33050", "addr:state": "FL", "brand": "USPS", "collection_times": "Mo-Fr 17:00; Sa 12:00", "name": "USPS COLLECTION BOX - PO LOBBY", "note": "ON 12/24 AND 12/31, THIS BOX MAY BE COLLECTED AS EARLY AS 12 NOON.", "ref": "3305000022"}, "type": "Feature"}
{"geometry": {"coordinates": [-81.033608261, 24.7297639], "type": "Point"}, "id": "S5YEXnc2IMz9fCZwAgZiof1VU0g=", "properties": {"@spider": "usps_collection_boxes", "addr:city": "MARATHON", "addr:country": "US", "addr:full": "11400 OVERSEAS HWY STE 120", "addr:postcode": "33050", "addr:state": "FL", "brand": "USPS", "collection_times": "Mo-Fr 12:00", "name": "USPS COLLECTION BOX - PO LOBBY", "ref": "3305000023"}, "type": "Feature"}
{"geometry": {"coordinates": [-81.018375636, 24.7210312085], "type": "Point"}, "id": "FjA-Z_uXy6cik3AjiAhUAL7iDiM=", "properties": {"@spider": "usps_collection_boxes", "addr:city": "MARATHON", "addr:country": "US", "addr:full": "600 W OCEAN DR", "addr:postcode": "33051", "addr:state": "FL", "brand": "USPS", "collection_times": "Mo-Fr 16:00; Sa 11:00", "name": "USPS COLLECTION BOX - BLUE BOX", "note": "ON 12/24 AND 12/31, THIS BOX MAY BE COLLECTED AS EARLY AS 12 NOON.", "ref": "3305100001"}, "type": "Feature"}
{"geometry": {"coordinates": [-81.018375636, 24.7210312085], "type": "Point"}, "id": "RJjwXe7e2vaPoGEK1ZmXxN2I-sQ=", "properties": {"@spider": "usps_collection_boxes", "addr:city": "MARATHON", "addr:country": "US", "addr:full": "600 W OCEAN DR", "addr:postcode": "33051", "addr:state": "FL", "brand": "USPS", "collection_times": "Mo-Fr 16:00; Sa 10:00", "name": "USPS COLLECTION BOX - PO LOBBY", "note": "ON 12/24 AND 12/31, THIS BOX MAY BE COLLECTED AS EARLY AS 12 NOON.", "ref": "3305100002"}, "type": "Feature"}
{"geometry": {"coordinates": [-81.018375636, 24.721031208], "type": "Point"}, "id": "YuSLTJyUc1u0r7jSON1dyMmrtNA=", "properties": {"@spider": "usps_collection_boxes", "addr:city": "MARATHON", "addr:country": "US", "addr:full": "600 W OCEAN DR", "addr:postcode": "33051", "addr:state": "FL", "brand": "USPS", "collection_times": "Mo-Fr 16:00", "name": "USPS COLLECTION BOX - PO LOBBY", "note": "ON 12/24 AND 12/31, THIS BOX MAY BE COLLECTED AS EARLY AS 12 NOON.", "ref": "3305100003"}, "type": "Feature"}
{"geometry": {"coordinates": [-81.0336082615, 24.7297638998], "type": "Point"}, "id": "4KFJkBG8fSZJT4VRGOUhgn6acWc=", "properties": {"@spider": "usps_collection_boxes", "addr:city": "MARATHON", "addr:country": "US", "addr:full": "11400 OVERSEAS HWY", "addr:postcode": "33052", "addr:state": "FL", "brand": "USPS", "collection_times": "Mo-Fr 12:00; Sa 11:00", "name": "USPS COLLECTION BOX - BLUE BOX", "ref": "3305200001"}, "type": "Feature"}
{"geometry": {"coordinates": [-81.033608261, 24.7297639], "type": "Point"}, "id": "2ZFPyBwqfYylK5KgRfCtujsLOJA=", "properties": {"@spider": "usps_collection_boxes", "addr:city": "MARATHON", "addr:country": "US", "addr:full": "11400 OVERSEAS HWY", "addr:postcode": "33052", "addr:state": "FL", "brand": "USPS", "collection_times": "Mo-Fr 12:00; Sa 10:00", "name": "USPS COLLECTION BOX - PO LOBBY", "ref": "3305200003"}, "type": "Feature"}
