{"dataset_attributes": {"@spider": "usps_collection_boxes"}, "geometry": {"coordinates": [-80.198415, 25.779375], "type": "Point"}, "id": "VrKmWbPq1dCdHxV_YJ9I-JotIHo=", "properties": {"@spider": "usps_collection_boxes", "addr:city": "MIAMI", "addr:country": "US", "addr:full": "500 NW 2ND AVE", "addr:postcode": "33101", "addr:state": "FL", "amenity": "post_box", "brand": "United States Postal Service", "brand:wikidata": "Q668687", "collection_times": "Mo-Fr 17:00; Sa 13:30", "name": "USPS COLLECTION BOX - PO LOBBY", "note": "ON 12/24 AND 12/31, THIS BOX MAY BE COLLECTED AS EARLY AS 12 NOON.", "nsi_id": "unitedstatespostalservice-a77078", "operator": "United States Postal Service", "operator:short": "USPS", "operator:type": "public", "operator:wikidata": "Q668687", "ref": "3310100002"}, "type": "Feature"}
{"dataset_attributes": {"@spider": "usps_collection_boxes"}, "geometry": {"coordinates": [-80.230163087, 25.779784515], "type": "Point"}, "id": "Z2to7_v5cE2hqLy4MPyxi-lOCAw=", "properties": {"@spider": "usps_collection_boxes", "addr:city": "MIAMI", "addr:country": "US", "addr:full": "2137 NW 7TH ST", "addr:postcode": "33125", "addr:state": "FL", "amenity": "post_box", "brand": "United States Postal Service", "brand:wikidata": "Q668687", "collection_times": "Mo-Fr 13:00; Sa 15:15", "name": "USPS COLLECTION BOX - BLUE BOX", "note": "ON 12/24 AND 12/31, THIS BOX MAY BE COLLECTED AS EARLY AS 12 NOON.", "nsi_id": "unitedstatespostalservice-a77078", "operator": "United States Postal Service", "operator:short": "USPS", "operator:type": "public", "operator:wikidata": "Q668687", "ref": "3312500003"}, "type": "Feature"}
{"dataset_attributes": {"@spider": "usps_collection_boxes"}, "geometry": {"coordinates": [-80.220106796, 25.786742824], "type": "Point"}, "id": "TbYddcBlhUX54LCHWZlKKDGtuoI=", "properties": {"@spider": "usps_collection_boxes", "addr:city": "MIAMI", "addr:country": "US", "addr:full": "1469 NW 13TH TER", "addr:postcode": "33125", "addr:state": "FL", "amenity": "post_box", "brand": "United States Postal Service", "brand:wikidata": "Q668687", "collection_times": "Mo-Fr 13:00; Sa 15:15", "name": "USPS COLLECTION BOX - BLUE BOX", "note": "ON 12/24 AND 12/31, THIS BOX MAY BE COLLECTED AS EARLY AS 12 NOON.", "nsi_id": "unitedstatespostalservice-a77078", "operator": "United States Postal Service", "operator:short": "USPS", "operator:type": "public", "operator:wikidata": "Q668687", "ref": "3312500009"}, "type": "Feature"}
{"dataset_attributes": {"@spider": "usps_collection_boxes"}, "geometry": {"coordinates": [-80.230992341, 25.783320448], "type": "Point"}, "id": "9TQfNgLORV5g905CMetb3DNVhdQ=", "properties": {"@spider": "usps_collection_boxes", "addr:city": "MIAMI", "addr:country": "US", "addr:full": "2185 NW 11 ST", "addr:postcode": "33125", "addr:state": "FL", "amenity": "post_box", "brand": "United States Postal Service", "brand:wikidata": "Q668687", "collection_times": "Mo-Fr 13:00; Sa 15:30", "name": "USPS COLLECTION BOX - BLUE BOX", "note": "ON 12/24 AND 12/31, THIS BOX MAY BE COLLECTED AS EARLY AS 12 NOON.", "nsi_id": "unitedstatespostalservice-a77078", "operator": "United States Postal Service", "operator:short": "USPS", "operator:type": "public", "operator:wikidata": "Q668687", "ref": "3312500016"}, "type": "Feature"}
{"dataset_attributes": {"@spider": "usps_collection_boxes"}, "geometry": {"coordinates": [-80.2164015, 25.791858], "type": "Point"}, "id": "KMiNeScR7J5RAJJNAZyK2KHi92s=", "properties": {"@spider": "usps_collection_boxes", "addr:city": "MIAMI", "addr:country": "US", "addr:full": "1201 NW 16TH ST", "addr:postcode": "33125", "addr:state": "FL", "amenity": "post_box", "brand": "United States Postal Service", "brand:wikidata": "Q668687", "collection_times": "Mo-Fr 13:00; Sa 15:00", "name": "USPS COLLECTION BOX - BLUE BOX", "note": "ON 12/24 AND 12/31, THIS BOX MAY BE COLLECTED AS EARLY AS 12 NOON.", "nsi_id": "unitedstatespostalservice-a77078", "operator": "United States Postal Service", "operator:short": "USPS", "operator:type": "public", "operator:wikidata": "Q668687", "ref": "3312500024"}, "type": "Feature"}
{"dataset_attributes": {"@spider": "usps_collection_boxes"}, "geometry": {"coordinates": [-80.217120861, 25.785480475], "type": "Point"}, "id": "X0QJZtsN_tt6g6AyNmBc5MkrIjI=", "properties": {"@spider": "usps_collection_boxes", "addr:city": "MIAMI", "addr:country": "US", "addr:full": "1351 NW 12TH ST", "addr:postcode": "33125", "addr:state": "FL", "amenity": "post_box", "brand": "United States Postal Service", "brand:wikidata": "Q668687", "collection_times": "Mo-Fr 13:00", "name": "USPS COLLECTION BOX - BLUE BOX", "note": "ON 12/24 AND 12/31, THIS BOX MAY BE COLLECTED AS EARLY AS 12 NOON.", "nsi_id": "unitedstatespostalservice-a77078", "operator": "United States Postal Service", "operator:short": "USPS", "operator:type": "public", "operator:wikidata": "Q668687", "ref": "3312500025"}, "type": "Feature"}
{"dataset_attributes": {"@spider": "usps_collection_boxes"}, "geometry": {"coordinates": [-80.2086615, 25.828875], "type": "Point"}, "id": "fmt_eKuARKN6oEoTxF6bTG-kvqI=", "properties": {"@spider": "usps_collection_boxes", "addr:city": "MIAMI", "addr:country": "US", "addr:full": "5800 NW 7TH AVE", "addr:postcode": "33127", "addr:state": "FL", "amenity": "post_box", "brand": "United States Postal Service", "brand:wikidata": "Q668687", "collection_times": "Mo-Fr 15:40; Sa 16:06", "name": "USPS COLLECTION BOX - BLUE BOX", "note": "ON 12/24 AND 12/31, THIS BOX MAY BE COLLECTED AS EARLY AS 12 NOON.", "nsi_id": "unitedstatespostalservice-a77078", "operator": "United States Postal Service", "operator:short": "USPS", "operator:type": "public", "operator:wikidata": "Q668687", "ref": "3312700019"}, "type": "Feature"}
{"dataset_attributes": {"@spider": "usps_collection_boxes"}, "geometry": {"coordinates": [-80.193904983, 25.776248], "type": "Point"}, "id": "Zn9hRHmtM9Z_V7EBwp7oxiuqkMg=", "properties": {"@spider": "usps_collection_boxes", "addr:city": "MIAMI", "addr:country": "US", "addr:full": "200 N MIAMI AVE", "addr:postcode": "33128", "addr:state": "FL", "amenity": "post_box", "brand": "United States Postal Service", "brand:wikidata": "Q668687", "collection_times": "Mo-Fr 15:55; Sa 13:45", "name": "USPS COLLECTION BOX - BLUE BOX", "note": "ON 12/24 AND 12/31, THIS BOX MAY BE COLLECTED AS EARLY AS 12 NOON.", "nsi_id": "unitedstatespostalservice-a77078", "operator": "United States Postal Service", "operator:short": "USPS", "operator:type": "public", "operator:wikidata": "Q668687", "ref": "3312800006"}, "type": "Feature"}
{"dataset_attributes": {"@spider": "usps_collection_boxes"}, "geometry": {"coordinates": [-80.198372034, 25.778149979], "type": "Point"}, "id": "eJ0LJwKrlINX7UmlwcnAH5c0yVM=", "properties": {"@spider": "usps_collection_boxes", "addr:city": "MIAMI", "addr:country": "US", "addr:full": "400 NW 2ND AVE", "addr:postcode": "33128", "addr:state": "FL", "amenity": "post_box", "brand": "United States Postal Service", "brand:wikidata": "Q668687", "collection_times": "Mo-Fr 16:20; Sa 14:15", "name": "USPS COLLECTION BOX - BLUE BOX", "note": "ON 12/24 AND 12/31, THIS BOX MAY BE COLLECTED AS EARLY AS 12 NOON.", "nsi_id": "unitedstatespostalservice-a77078", "operator": "United States Postal Service", "operator:short": "USPS", "operator:type": "public", "operator:wikidata": "Q668687", "ref": "3312800015"}, "type": "Feature"}
{"dataset_attributes": {"@spider": "usps_collection_boxes"}, "geometry": {"coordinates": [-80.198416039, 25.779379018], "type": "Point"}, "id": "Wahnso2DWEmXWqi7htNjjHo__LM=", "properties": {"@spider": "usps_collection_boxes", "addr:city": "MIAMI", "addr:country": "US", "addr:full": "500 NW 2ND AVE", "addr:postcode": "33128", "addr:state": "FL", "amenity": "post_box", "brand": "United States Postal Service", "brand:wikidata": "Q668687", "collection_times": "Mo-Fr 17:00; Sa 15:00", "name": "USPS COLLECTION BOX - BLUE BOX", "note": "ON 12/24 AND 12/31, THIS BOX MAY BE COLLECTED AS EARLY AS 12 NOON.", "nsi_id": "unitedstatespostalservice-a77078", "operator": "United States Postal Service", "operator:short": "USPS", "operator:type": "public", "operator:wikidata": "Q668687", "ref": "3312800019"}, "type": "Feature"}
{"dataset_attributes": {"@spider": "usps_collection_boxes"}, "geometry": {"coordinates": [-80.198416039, 25.779379018], "type": "Point"}, "id": "Q_zVn2B256RFYdFwdvNJv-OWg28=", "properties": {"@spider": "usps_collection_boxes", "addr:city": "MIAMI", "addr:country": "US", "addr:full": "500 NW 2ND AVE", "addr:postcode": "33128", "addr:state": "FL", "amenity": "post_box", "brand": "United States Postal Service", "brand:wikidata": "Q668687", "collection_times": "Mo-Fr 17:00; Sa 15:00", "name": "USPS COLLECTION BOX - BLUE BOX", "note": "ON 12/24 AND 12/31, THIS BOX MAY BE COLLECTED AS EARLY AS 12 NOON.", "nsi_id": "unitedstatespostalservice-a77078", "operator": "United States Postal Service", "operator:short": "USPS", "operator:type": "public", "operator:wikidata": "Q668687", "ref": "3312800021"}, "type": "Feature"}
{"dataset_attributes": {"@spider": "usps_collection_boxes"}, "geometry": {"coordinates": [-80.198416039, 25.779379018], "type": "Point"}, "id": "tDlkYPqm0-19uIdK1gX9NRJpWr4=", "properties": {"@spider": "usps_collection_boxes", "addr:city": "MIAMI", "addr:country": "US", "addr:full": "500 NW 2ND AVE", "addr:postcode": "33128", "addr:state": "FL", "amenity": "post_box", "brand": "United States Postal Service", "brand:wikidata": "Q668687", "collection_times": "Mo-Fr 18:00; Sa 17:30", "name": "USPS COLLECTION BOX - PO LOBBY", "note": "ON 12/24 AND 12/31, THIS BOX MAY BE COLLECTED AS EARLY AS 12 NOON.", "nsi_id": "unitedstatespostalservice-a77078", "operator": "United States Postal Service", "operator:short": "USPS", "operator:type": "public", "operator:wikidata": "Q668687", "ref": "3312800025"}, "type": "Feature"}
{"dataset_attributes": {"@spider": "usps_collection_boxes"}, "geometry": {"coordinates": [-80.188155, 25.772211], "type": "Point"}, "id": "JB5dZGy2wxSYcXvwIVg_8O9IDgY=", "properties": {"@spider": "usps_collection_boxes", "addr:city": "MIAMI", "addr:country": "US", "addr:full": "200 S BISCAYNE BLVD", "addr:postcode": "33128", "addr:state": "FL", "amenity": "post_box", "brand": "United States Postal Service", "brand:wikidata": "Q668687", "collection_times": "Mo-Fr 16:00", "name": "USPS COLLECTION BOX - PO LOBBY", "note": "ON 12/24 AND 12/31, THIS BOX MAY BE COLLECTED AS EARLY AS 12 NOON.", "nsi_id": "unitedstatespostalservice-a77078", "operator": "United States Postal Service", "operator:short": "USPS", "operator:type": "public", "operator:wikidata": "Q668687", "ref": "3312800027"}, "type": "Feature"}
{"dataset_attributes": {"@spider": "usps_collection_boxes"}, "geometry": {"coordinates": [-80.191308518, 25.763379895], "type": "Point"}, "id": "Ms2tUbbHLw6J3FIQY8SiAOQLZDM=", "properties": {"@spider": "usps_collection_boxes", "addr:city": "MIAMI", "addr:country": "US", "addr:full": "1101 BRICKELL AVE", "addr:postcode": "33128", "addr:state": "FL", "amenity": "post_box", "brand": "United States Postal Service", "brand:wikidata": "Q668687", "collection_times": "Mo-Fr 16:00", "name": "USPS COLLECTION BOX - PO LOBBY", "note": "ON 12/24 AND 12/31, THIS BOX MAY BE COLLECTED AS EARLY AS 12 NOON.", "nsi_id": "unitedstatespostalservice-a77078", "operator": "United States Postal Service", "operator:short": "USPS", "operator:type": "public", "operator:wikidata": "Q668687", "ref": "3312800028"}, "type": "Feature"}
{"dataset_attributes": {"@spider": "usps_collection_boxes"}, "geometry": {"coordinates": [-80.210426971, 25.753479021], "type": "Point"}, "id": "SXA4QnGDt06CrvLkUIW38L4C270=", "properties": {"@spider": "usps_collection_boxes", "addr:city": "MIAMI", "addr:country": "US", "addr:full": "2885 SW 3RD AVE", "addr:postcode": "33129", "addr:state": "FL", "amenity": "post_box", "brand": "United States Postal Service", "brand:wikidata": "Q668687", "collection_times": "Mo-Fr 17:00", "name": "USPS COLLECTION BOX - BLUE BOX", "note": "ON 12/24 AND 12/31, THIS BOX MAY BE COLLECTED AS EARLY AS 12 NOON.", "nsi_id": "unitedstatespostalservice-a77078", "operator": "United States Postal Service", "operator:short": "USPS", "operator:type": "public", "operator:wikidata": "Q668687", "ref": "3312900004"}, "type": "Feature"}
{"dataset_attributes": {"@spider": "usps_collection_boxes"}, "geometry": {"coordinates": [-80.2072570195, 25.7596400128], "type": "Point"}, "id": "FiYJiWJDnc0fEcTs5vOvr77TLjQ=", "properties": {"@spider": "usps_collection_boxes", "addr:city": "MIAMI", "addr:country": "US", "addr:full": "2279 SW 5TH AVE", "addr:postcode": "33129", "addr:state": "FL", "amenity": "post_box", "brand": "United States Postal Service", "brand:wikidata": "Q668687", "collection_times": "Mo-Fr 15:00; Sa 13:30", "name": "USPS COLLECTION BOX - BLUE BOX", "note": "ON 12/24 AND 12/31, THIS BOX MAY BE COLLECTED AS EARLY AS 12 NOON.", "nsi_id": "unitedstatespostalservice-a77078", "operator": "United States Postal Service", "operator:short": "USPS", "operator:type": "public", "operator:wikidata": "Q668687", "ref": "3312900013"}, "type": "Feature"}
{"dataset_attributes": {"@spider": "usps_collection_boxes"}, "geometry": {"coordinates": [-80.213962961, 25.758627018], "type": "Point"}, "id": "r4kjArfIQMixhMYoq-nEOatRVbI=", "properties": {"@spider": "usps_collection_boxes", "addr:city": "MIAMI", "addr:country": "US", "addr:full": "1521 SW 12TH AVE", "addr:postcode": "33129", "addr:state": "FL", "amenity": "post_box", "brand": "United States Postal Service", "brand:wikidata": "Q668687", "collection_times": "Mo-Fr 15:05; Sa 13:15", "name": "USPS COLLECTION BOX - BLUE BOX", "note": "ON 12/24 AND 12/31, THIS BOX MAY BE COLLECTED AS EARLY AS 12 NOON.", "nsi_id": "unitedstatespostalservice-a77078", "operator": "United States Postal Service", "operator:short": "USPS", "operator:type": "public", "operator:wikidata": "Q668687", "ref": "3312900014"}, "type": "Feature"}
{"dataset_attributes": {"@spider": "usps_collection_boxes"}, "geometry": {"coordinates": [-80.197553961, 25.764892993], "type": "Point"}, "id": "cw5pQiUEXUN_u7CjyBatVa8Mrlw=", "properties": {"@spider": "usps_collection_boxes", "addr:city": "MIAMI", "addr:country": "US", "addr:full": "934 SW 2ND AVE", "addr:postcode": "33130", "addr:state": "FL", "amenity": "post_box", "brand": "United States Postal Service", "brand:wikidata": "Q668687", "collection_times": "Mo-Fr 15:30; Sa 13:45", "name": "USPS COLLECTION BOX - BLUE BOX", "note": "ON 12/24 AND 12/31, THIS BOX MAY BE COLLECTED AS EARLY AS 12 NOON.", "nsi_id": "unitedstatespostalservice-a77078", "operator": "United States Postal Service", "operator:short": "USPS", "operator:type": "public", "operator:wikidata": "Q668687", "ref": "3313000015"}, "type": "Feature"}
{"dataset_attributes": {"@spider": "usps_collection_boxes"}, "geometry": {"coordinates": [-80.202611014, 25.766311002], "type": "Point"}, "id": "pX1fmruUy4S0O9NuIlwSgIm8jXo=", "properties": {"@spider": "usps_collection_boxes", "addr:city": "MIAMI", "addr:country": "US", "addr:full": "505 SW 8TH ST", "addr:postcode": "33130", "addr:state": "FL", "amenity": "post_box", "brand": "United States Postal Service", "brand:wikidata": "Q668687", "collection_times": "Mo-Fr 15:20; Sa 13:15", "name": "USPS COLLECTION BOX - BLUE BOX", "note": "ON 12/24 AND 12/31, THIS BOX MAY BE COLLECTED AS EARLY AS 12 NOON.", "nsi_id": "unitedstatespostalservice-a77078", "operator": "United States Postal Service", "operator:short": "USPS", "operator:type": "public", "operator:wikidata": "Q668687", "ref": "3313000016"}, "type": "Feature"}
{"dataset_attributes": {"@spider": "usps_collection_boxes"}, "geometry": {"coordinates": [-80.2059879993, 25.7657839897], "type": "Point"}, "id": "L_yIduCV-dEGNSVTRu2t9tGnWbk=", "properties": {"@spider": "usps_collection_boxes", "addr:city": "MIAMI", "addr:country": "US", "addr:full": "700 SW 8TH ST", "addr:postcode": "33130", "addr:state": "FL", "amenity": "post_box", "brand": "United States Postal Service", "brand:wikidata": "Q668687", "collection_times": "Mo-Fr 15:15; Sa 13:00", "name": "USPS COLLECTION BOX - BLUE BOX", "note": "ON 12/24 AND 12/31, THIS BOX MAY BE COLLECTED AS EARLY AS 12 NOON.", "nsi_id": "unitedstatespostalservice-a77078", "operator": "United States Postal Service", "operator:short": "USPS", "operator:type": "public", "operator:wikidata": "Q668687", "ref": "3313000017"}, "type": "Feature"}
{"dataset_attributes": {"@spider": "usps_collection_boxes"}, "geometry": {"coordinates": [-80.214356147, 25.765452904], "type": "Point"}, "id": "kWygZSr5wAr8tr8HGiAkQqwxfi0=", "properties": {"@spider": "usps_collection_boxes", "addr:city": "MIAMI", "addr:country": "US", "addr:full": "819 SW 12TH AVE", "addr:postcode": "33130", "addr:state": "FL", "amenity": "post_box", "brand": "United States Postal Service", "brand:wikidata": "Q668687", "collection_times": "Mo-Fr 15:10; Sa 13:00", "name": "USPS COLLECTION BOX - BLUE BOX", "note": "ON 12/24 AND 12/31, THIS BOX MAY BE COLLECTED AS EARLY AS 12 NOON.", "nsi_id": "unitedstatespostalservice-a77078", "operator": "United States Postal Service", "operator:short": "USPS", "operator:type": "public", "operator:wikidata": "Q668687", "ref": "3313000018"}, "type": "Feature"}
{"dataset_attributes": {"@spider": "usps_collection_boxes"}, "geometry": {"coordinates": [-80.196241633, 25.77398459], "type": "Point"}, "id": "m6b2-3gPS5Z0A3cjMNUd7QMcDOk=", "properties": {"@spider": "usps_collection_boxes", "addr:city": "MIAMI", "addr:country": "US", "addr:full": "100 W FLAGLER ST", "addr:postcode": "33130", "addr:state": "FL", "amenity": "post_box", "brand": "United States Postal Service", "brand:wikidata": "Q668687", "collection_times": "Mo-Fr 16:20; Sa 13:30", "name": "USPS COLLECTION BOX - BLUE BOX", "note": "ON 12/24 AND 12/31, THIS BOX MAY BE COLLECTED AS EARLY AS 12 NOON.", "nsi_id": "unitedstatespostalservice-a77078", "operator": "United States Postal Service", "operator:short": "USPS", "operator:type": "public", "operator:wikidata": "Q668687", "ref": "3313000024"}, "type": "Feature"}
{"dataset_attributes": {"@spider": "usps_collection_boxes"}, "geometry": {"coordinates": [-80.202783011, 25.763443008], "type": "Point"}, "id": "RvT7yDbIi0GQr6lrzVlzdUq23zA=", "properties": {"@spider": "usps_collection_boxes", "addr:city": "MIAMI", "addr:country": "US", "addr:full": "521 SW 11TH ST", "addr:postcode": "33130", "addr:state": "FL", "amenity": "post_box", "brand": "United States Postal Service", "brand:wikidata": "Q668687", "collection_times": "Mo-Fr 14:55; Sa 13:30", "name": "USPS COLLECTION BOX - BLUE BOX", "note": "ON 12/24 AND 12/31, THIS BOX MAY BE COLLECTED AS EARLY AS 12 NOON.", "nsi_id": "unitedstatespostalservice-a77078", "operator": "United States Postal Service", "operator:short": "USPS", "operator:type": "public", "operator:wikidata": "Q668687", "ref": "3313000046"}, "type": "Feature"}
{"dataset_attributes": {"@spider": "usps_collection_boxes"}, "geometry": {"coordinates": [-80.2129619942, 25.7628629803], "type": "Point"}, "id": "c27qniKGHRsNU5bOO4YUi2AKmDo=", "properties": {"@spider": "usps_collection_boxes", "addr:city": "MIAMI", "addr:country": "US", "addr:full": "1112 SW 11TH ST", "addr:postcode": "33130", "addr:state": "FL", "amenity": "post_box", "brand": "United States Postal Service", "brand:wikidata": "Q668687", "collection_times": "Mo-Fr 15:10; Sa 13:30", "name": "USPS COLLECTION BOX - BLUE BOX", "note": "ON 12/24 AND 12/31, THIS BOX MAY BE COLLECTED AS EARLY AS 12 NOON.", "nsi_id": "unitedstatespostalservice-a77078", "operator": "United States Postal Service", "operator:short": "USPS", "operator:type": "public", "operator:wikidata": "Q668687", "ref": "3313000047"}, "type": "Feature"}
{"dataset_attributes": {"@spider": "usps_collection_boxes"}, "geometry": {"coordinates": [-80.20693901, 25.768155984], "type": "Point"}, "id": "D5kSFivpn1OY7iuOON4Xe1TkTXs=", "properties": {"@spider": "usps_collection_boxes", "addr:city": "MIAMI", "addr:country": "US", "addr:full": "755 SW 6TH ST", "addr:postcode": "33130", "addr:state": "FL", "amenity": "post_box", "brand": "United States Postal Service", "brand:wikidata": "Q668687", "collection_times": "Mo-Fr 14:50; Sa 13:15", "name": "USPS COLLECTION BOX - BLUE BOX", "note": "ON 12/24 AND 12/31, THIS BOX MAY BE COLLECTED AS EARLY AS 12 NOON.", "nsi_id": "unitedstatespostalservice-a77078", "operator": "United States Postal Service", "operator:short": "USPS", "operator:type": "public", "operator:wikidata": "Q668687", "ref": "3313000049"}, "type": "Feature"}
{"dataset_attributes": {"@spider": "usps_collection_boxes"}, "geometry": {"coordinates": [-80.193749012, 25.773241002], "type": "Point"}, "id": "jmrQwqsS0PrVmpTUsfqpjgz0PaE=", "properties": {"@spider": "usps_collection_boxes", "addr:city": "MIAMI", "addr:country": "US", "addr:full": "10 SW 1 ST", "addr:postcode": "33130", "addr:state": "FL", "amenity": "post_box", "brand": "United States Postal Service", "brand:wikidata": "Q668687", "collection_times": "Mo-Fr 14:40; Sa 13:30", "name": "USPS COLLECTION BOX - BLUE BOX", "note": "ON 12/24 AND 12/31, THIS BOX MAY BE COLLECTED AS EARLY AS 12 NOON.", "nsi_id": "unitedstatespostalservice-a77078", "operator": "United States Postal Service", "operator:short": "USPS", "operator:type": "public", "operator:wikidata": "Q668687", "ref": "3313000057"}, "type": "Feature"}
{"dataset_attributes": {"@spider": "usps_collection_boxes"}, "geometry": {"coordinates": [-80.196829018, 25.773140914], "type": "Point"}, "id": "0us8d9HL8_kfiR346lLGJZodHzs=", "properties": {"@spider": "usps_collection_boxes", "addr:city": "MIAMI", "addr:country": "US", "addr:full": "140 SW 1ST ST", "addr:postcode": "33130", "addr:state": "FL", "amenity": "post_box", "brand": "United States Postal Service", "brand:wikidata": "Q668687", "collection_times": "Mo-Fr 16:15; Sa 14:30", "name": "USPS COLLECTION BOX - BLUE BOX", "note": "ON 12/24 AND 12/31, THIS BOX MAY BE COLLECTED AS EARLY AS 12 NOON.", "nsi_id": "unitedstatespostalservice-a77078", "operator": "United States Postal Service", "operator:short": "USPS", "operator:type": "public", "operator:wikidata": "Q668687", "ref": "3313000062"}, "type": "Feature"}
{"dataset_attributes": {"@spider": "usps_collection_boxes"}, "geometry": {"coordinates": [-80.1939199866, 25.7742880172], "type": "Point"}, "id": "eZ2AFeTAVQZ0xIbnRoSLNdg-TUw=", "properties": {"@spider": "usps_collection_boxes", "addr:city": "MIAMI", "addr:country": "US", "addr:full": "9 W FLAGLER ST", "addr:postcode": "33130", "addr:state": "FL", "amenity": "post_box", "brand": "United States Postal Service", "brand:wikidata": "Q668687", "collection_times": "Mo-Fr 14:45; Sa 14:00", "name": "USPS COLLECTION BOX - BLUE BOX", "note": "ON 12/24 AND 12/31, THIS BOX MAY BE COLLECTED AS EARLY AS 12 NOON.", "nsi_id": "unitedstatespostalservice-a77078", "operator": "United States Postal Service", "operator:short": "USPS", "operator:type": "public", "operator:wikidata": "Q668687", "ref": "3313000074"}, "type": "Feature"}
{"dataset_attributes": {"@spider": "usps_collection_boxes"}, "geometry": {"coordinates": [-80.1901580208, 25.759009987], "type": "Point"}, "id": "1CyXIUGt15Ue3cXVb4hLB-jCqg8=", "properties": {"@spider": "usps_collection_boxes", "addr:city": "MIAMI", "addr:country": "US", "addr:full": "1408 BRICKELL BAY DR", "addr:postcode": "33131", "addr:state": "FL", "amenity": "post_box", "brand": "United States Postal Service", "brand:wikidata": "Q668687", "collection_times": "Mo-Fr 15:30; Sa 14:00", "name": "USPS COLLECTION BOX - BLUE BOX", "note": "ON 12/24 AND 12/31, THIS BOX MAY BE COLLECTED AS EARLY AS 12 NOON.", "nsi_id": "unitedstatespostalservice-a77078", "operator": "United States Postal Service", "operator:short": "USPS", "operator:type": "public", "operator:wikidata": "Q668687", "ref": "3313100019"}, "type": "Feature"}
{"dataset_attributes": {"@spider": "usps_collection_boxes"}, "geometry": {"coordinates": [-80.189715959, 25.75777198], "type": "Point"}, "id": "GqkjL6jRMcUtV2B0y2pmjXHyvmE=", "properties": {"@spider": "usps_collection_boxes", "addr:city": "MIAMI", "addr:country": "US", "addr:full": "1430 BRICKELL BAY DR", "addr:postcode": "33131", "addr:state": "FL", "amenity": "post_box", "brand": "United States Postal Service", "brand:wikidata": "Q668687", "collection_times": "Mo-Fr 15:30; Sa 14:00", "name": "USPS COLLECTION BOX - BLUE BOX", "note": "ON 12/24 AND 12/31, THIS BOX MAY BE COLLECTED AS EARLY AS 12 NOON.", "nsi_id": "unitedstatespostalservice-a77078", "operator": "United States Postal Service", "operator:short": "USPS", "operator:type": "public", "operator:wikidata": "Q668687", "ref": "3313100020"}, "type": "Feature"}
{"dataset_attributes": {"@spider": "usps_collection_boxes"}, "geometry": {"coordinates": [-80.18889727, 25.773307996], "type": "Point"}, "id": "Z1-qGx7MIgZrbaY1BbwxFLkw6fE=", "properties": {"@spider": "usps_collection_boxes", "addr:city": "MIAMI", "addr:country": "US", "addr:full": "105 SE 3 AVE", "addr:postcode": "33131", "addr:state": "FL", "amenity": "post_box", "brand": "United States Postal Service", "brand:wikidata": "Q668687", "collection_times": "Mo-Fr 15:40", "name": "USPS COLLECTION BOX - BLUE BOX", "note": "ON 12/24 AND 12/31, THIS BOX MAY BE COLLECTED AS EARLY AS 12 NOON.", "nsi_id": "unitedstatespostalservice-a77078", "operator": "United States Postal Service", "operator:short": "USPS", "operator:type": "public", "operator:wikidata": "Q668687", "ref": "3313100077"}, "type": "Feature"}
{"dataset_attributes": {"@spider": "usps_collection_boxes"}, "geometry": {"coordinates": [-80.191953671, 25.774059336], "type": "Point"}, "id": "yAyalUUH7c_g1iZnq0OQTD2qGps=", "properties": {"@spider": "usps_collection_boxes", "addr:city": "MIAMI", "addr:country": "US", "addr:full": "10 SE 1 AVE", "addr:postcode": "33131", "addr:state": "FL", "amenity": "post_box", "brand": "United States Postal Service", "brand:wikidata": "Q668687", "collection_times": "Mo-Fr 14:30", "name": "USPS COLLECTION BOX - BLUE BOX", "note": "ON 12/24 AND 12/31, THIS BOX MAY BE COLLECTED AS EARLY AS 12 NOON.", "nsi_id": "unitedstatespostalservice-a77078", "operator": "United States Postal Service", "operator:short": "USPS", "operator:type": "public", "operator:wikidata": "Q668687", "ref": "3313100091"}, "type": "Feature"}
{"dataset_attributes": {"@spider": "usps_collection_boxes"}, "geometry": {"coordinates": [-80.190429008, 25.772946997], "type": "Point"}, "id": "pUJ48ZSZh2B5jfglTxVCUt8rSQQ=", "properties": {"@spider": "usps_collection_boxes", "addr:city": "MIAMI", "addr:country": "US", "addr:full": "150 SE 2ND AVE STE 103", "addr:postcode": "33131", "addr:state": "FL", "amenity": "post_box", "brand": "United States Postal Service", "brand:wikidata": "Q668687", "collection_times": "Mo-Fr 17:00", "name": "USPS COLLECTION BOX - PO LOBBY", "note": "ON 12/24 AND 12/31, THIS BOX MAY BE COLLECTED AS EARLY AS 12 NOON.", "nsi_id": "unitedstatespostalservice-a77078", "operator": "United States Postal Service", "operator:short": "USPS", "operator:type": "public", "operator:wikidata": "Q668687", "ref": "3313100108"}, "type": "Feature"}
{"dataset_attributes": {"@spider": "usps_collection_boxes"}, "geometry": {"coordinates": [-80.191024961, 25.78904901], "type": "Point"}, "id": "ZN4WM3dKwXOuwp1j6GI8tZ9YgY4=", "properties": {"@spider": "usps_collection_boxes", "addr:city": "MIAMI", "addr:country": "US", "addr:full": "1450 NE 2ND AVE", "addr:postcode": "33132", "addr:state": "FL", "amenity": "post_box", "brand": "United States Postal Service", "brand:wikidata": "Q668687", "collection_times": "Mo-Fr 16:30", "name": "USPS COLLECTION BOX - BLUE BOX", "note": "ON 12/24 AND 12/31, THIS BOX MAY BE COLLECTED AS EARLY AS 12 NOON.", "nsi_id": "unitedstatespostalservice-a77078", "operator": "United States Postal Service", "operator:short": "USPS", "operator:type": "public", "operator:wikidata": "Q668687", "ref": "3313200009"}, "type": "Feature"}
{"dataset_attributes": {"@spider": "usps_collection_boxes"}, "geometry": {"coordinates": [-80.185874842, 25.789716136], "type": "Point"}, "id": "Hc-Bt2sLtyujTr8HtJbk4ijfzKI=", "properties": {"@spider": "usps_collection_boxes", "addr:city": "MIAMI", "addr:country": "US", "addr:full": "545 NE 15TH ST", "addr:postcode": "33132", "addr:state": "FL", "amenity": "post_box", "brand": "United States Postal Service", "brand:wikidata": "Q668687", "collection_times": "Mo-Fr 16:40; Sa 14:30", "name": "USPS COLLECTION BOX - BLUE BOX", "note": "ON 12/24 AND 12/31, THIS BOX MAY BE COLLECTED AS EARLY AS 12 NOON.", "nsi_id": "unitedstatespostalservice-a77078", "operator": "United States Postal Service", "operator:short": "USPS", "operator:type": "public", "operator:wikidata": "Q668687", "ref": "3313200016"}, "type": "Feature"}
{"dataset_attributes": {"@spider": "usps_collection_boxes"}, "geometry": {"coordinates": [-80.188846001, 25.777921991], "type": "Point"}, "id": "4YnkjGOqp7jj9kU9Bg518kA4dYM=", "properties": {"@spider": "usps_collection_boxes", "addr:city": "MIAMI", "addr:country": "US", "addr:full": "340 BISCAYNE BLVD", "addr:postcode": "33132", "addr:state": "FL", "amenity": "post_box", "brand": "United States Postal Service", "brand:wikidata": "Q668687", "collection_times": "Mo-Fr 15:05", "name": "USPS COLLECTION BOX - BLUE BOX", "note": "ON 12/24 AND 12/31, THIS BOX MAY BE COLLECTED AS EARLY AS 12 NOON.", "nsi_id": "unitedstatespostalservice-a77078", "operator": "United States Postal Service", "operator:short": "USPS", "operator:type": "public", "operator:wikidata": "Q668687", "ref": "3313200040"}, "type": "Feature"}
{"dataset_attributes": {"@spider": "usps_collection_boxes"}, "geometry": {"coordinates": [-80.1888099593, 25.7753600207], "type": "Point"}, "id": "8J4BEk3wdZXGe_jWSrzs3UKfn9M=", "properties": {"@spider": "usps_collection_boxes", "addr:city": "MIAMI", "addr:country": "US", "addr:full": "279 NE 1ST ST", "addr:postcode": "33132", "addr:state": "FL", "amenity": "post_box", "brand": "United States Postal Service", "brand:wikidata": "Q668687", "collection_times": "Mo-Fr 15:10; Sa 14:45", "name": "USPS COLLECTION BOX - BLUE BOX", "note": "ON 12/24 AND 12/31, THIS BOX MAY BE COLLECTED AS EARLY AS 12 NOON.", "nsi_id": "unitedstatespostalservice-a77078", "operator": "United States Postal Service", "operator:short": "USPS", "operator:type": "public", "operator:wikidata": "Q668687", "ref": "3313200042"}, "type": "Feature"}
{"dataset_attributes": {"@spider": "usps_collection_boxes"}, "geometry": {"coordinates": [-80.192438988, 25.779335013], "type": "Point"}, "id": "8D-3WsnYjalND-jWmGdifD5-Syo=", "properties": {"@spider": "usps_collection_boxes", "addr:city": "MIAMI", "addr:country": "US", "addr:full": "500 NE 1ST AVE", "addr:postcode": "33132", "addr:state": "FL", "amenity": "post_box", "brand": "United States Postal Service", "brand:wikidata": "Q668687", "collection_times": "Mo-Fr 16:10", "name": "USPS COLLECTION BOX - BLUE BOX", "note": "ON 12/24 AND 12/31, THIS BOX MAY BE COLLECTED AS EARLY AS 12 NOON.", "nsi_id": "unitedstatespostalservice-a77078", "operator": "United States Postal Service", "operator:short": "USPS", "operator:type": "public", "operator:wikidata": "Q668687", "ref": "3313200054"}, "type": "Feature"}
{"dataset_attributes": {"@spider": "usps_collection_boxes"}, "geometry": {"coordinates": [-80.215900738, 25.743500766], "type": "Point"}, "id": "slQQVruxrLunYMopkeKGYZMLhEk=", "properties": {"@spider": "usps_collection_boxes", "addr:city": "CORAL GABLES", "addr:country": "US", "addr:full": "3659 S MIAMI AVE", "addr:postcode": "33133", "addr:state": "FL", "amenity": "post_box", "brand": "United States Postal Service", "brand:wikidata": "Q668687", "collection_times": "Mo-Fr 16:00; Sa 13:00", "name": "USPS COLLECTION BOX - BLUE BOX", "note": "ON 12/24 AND 12/31, THIS BOX MAY BE COLLECTED AS EARLY AS 12 NOON.", "nsi_id": "unitedstatespostalservice-a77078", "operator": "United States Postal Service", "operator:short": "USPS", "operator:type": "public", "operator:wikidata": "Q668687", "ref": "3313300040"}, "type": "Feature"}
{"dataset_attributes": {"@spider": "usps_collection_boxes"}, "geometry": {"coordinates": [-80.224791039, 25.765955986], "type": "Point"}, "id": "CfwG9n6lFarOHKJVvR3X0XnPrDo=", "properties": {"@spider": "usps_collection_boxes", "addr:city": "MIAMI", "addr:country": "US", "addr:full": "1801 SW 8TH ST", "addr:postcode": "33135", "addr:state": "FL", "amenity": "post_box", "brand": "United States Postal Service", "brand:wikidata": "Q668687", "collection_times": "Mo-Fr 14:00; Sa 14:45", "name": "USPS COLLECTION BOX - BLUE BOX", "note": "ON 12/24 AND 12/31, THIS BOX MAY BE COLLECTED AS EARLY AS 12 NOON.", "nsi_id": "unitedstatespostalservice-a77078", "operator": "United States Postal Service", "operator:short": "USPS", "operator:type": "public", "operator:wikidata": "Q668687", "ref": "3313500001"}, "type": "Feature"}
{"dataset_attributes": {"@spider": "usps_collection_boxes"}, "geometry": {"coordinates": [-80.230770971, 25.76847709], "type": "Point"}, "id": "AXcBRCv7V-wCeyGIBpJNN9R64fA=", "properties": {"@spider": "usps_collection_boxes", "addr:city": "MIAMI", "addr:country": "US", "addr:full": "425 SW 22ND AVE", "addr:postcode": "33135", "addr:state": "FL", "amenity": "post_box", "brand": "United States Postal Service", "brand:wikidata": "Q668687", "collection_times": "Mo-Fr 14:00; Sa 15:00", "name": "USPS COLLECTION BOX - BLUE BOX", "note": "ON 12/24 AND 12/31, THIS BOX MAY BE COLLECTED AS EARLY AS 12 NOON.", "nsi_id": "unitedstatespostalservice-a77078", "operator": "United States Postal Service", "operator:short": "USPS", "operator:type": "public", "operator:wikidata": "Q668687", "ref": "3313500009"}, "type": "Feature"}
{"dataset_attributes": {"@spider": "usps_collection_boxes"}, "geometry": {"coordinates": [-80.222692503, 25.76960978], "type": "Point"}, "id": "3p0UVywn3uUCk4n3KNxX4X72fSY=", "properties": {"@spider": "usps_collection_boxes", "addr:city": "MIAMI", "addr:country": "US", "addr:full": "300 SW 17TH AVE", "addr:postcode": "33135", "addr:state": "FL", "amenity": "post_box", "brand": "United States Postal Service", "brand:wikidata": "Q668687", "collection_times": "Mo-Fr 14:00; Sa 15:15", "name": "USPS COLLECTION BOX - BLUE BOX", "note": "ON 12/24 AND 12/31, THIS BOX MAY BE COLLECTED AS EARLY AS 12 NOON.", "nsi_id": "unitedstatespostalservice-a77078", "operator": "United States Postal Service", "operator:short": "USPS", "operator:type": "public", "operator:wikidata": "Q668687", "ref": "3313500016"}, "type": "Feature"}
{"dataset_attributes": {"@spider": "usps_collection_boxes"}, "geometry": {"coordinates": [-80.225527458, 25.771755267], "type": "Point"}, "id": "r_0Ub5XyDGZ0div81K5FWzS21rU=", "properties": {"@spider": "usps_collection_boxes", "addr:city": "MIAMI", "addr:country": "US", "addr:full": "1801 SW 1ST ST", "addr:postcode": "33135", "addr:state": "FL", "amenity": "post_box", "brand": "United States Postal Service", "brand:wikidata": "Q668687", "collection_times": "Mo-Fr 14:00; Sa 15:15", "name": "USPS COLLECTION BOX - BLUE BOX", "note": "ON 12/24 AND 12/31, THIS BOX MAY BE COLLECTED AS EARLY AS 12 NOON.", "nsi_id": "unitedstatespostalservice-a77078", "operator": "United States Postal Service", "operator:short": "USPS", "operator:type": "public", "operator:wikidata": "Q668687", "ref": "3313500019"}, "type": "Feature"}
{"dataset_attributes": {"@spider": "usps_collection_boxes"}, "geometry": {"coordinates": [-80.2264249, 25.763227], "type": "Point"}, "id": "FxWCgcM0mNS7atzuBNc_S4kQuWA=", "properties": {"@spider": "usps_collection_boxes", "addr:city": "MIAMI", "addr:country": "US", "addr:full": "1883 SW 11TH ST", "addr:postcode": "33135", "addr:state": "FL", "amenity": "post_box", "brand": "United States Postal Service", "brand:wikidata": "Q668687", "collection_times": "Mo-Fr 14:00", "name": "USPS COLLECTION BOX - BLUE BOX", "note": "ON 12/24 AND 12/31, THIS BOX MAY BE COLLECTED AS EARLY AS 12 NOON.", "nsi_id": "unitedstatespostalservice-a77078", "operator": "United States Postal Service", "operator:short": "USPS", "operator:type": "public", "operator:wikidata": "Q668687", "ref": "3313500028"}, "type": "Feature"}
{"dataset_attributes": {"@spider": "usps_collection_boxes"}, "geometry": {"coordinates": [-80.220253196, 25.76333046], "type": "Point"}, "id": "GOEZGxdnI5aX4ZwvuWL6kwe2BxU=", "properties": {"@spider": "usps_collection_boxes", "addr:city": "MIAMI", "addr:country": "US", "addr:full": "1535 SW 11TH ST", "addr:postcode": "33135", "addr:state": "FL", "amenity": "post_box", "brand": "United States Postal Service", "brand:wikidata": "Q668687", "collection_times": "Mo-Fr 14:00; Sa 15:00", "name": "USPS COLLECTION BOX - BLUE BOX", "note": "ON 12/24 AND 12/31, THIS BOX MAY BE COLLECTED AS EARLY AS 12 NOON.", "nsi_id": "unitedstatespostalservice-a77078", "operator": "United States Postal Service", "operator:short": "USPS", "operator:type": "public", "operator:wikidata": "Q668687", "ref": "3313500031"}, "type": "Feature"}
{"dataset_attributes": {"@spider": "usps_collection_boxes"}, "geometry": {"coordinates": [-80.217719162, 25.765735507], "type": "Point"}, "id": "zCHNXMeSey9rRhqjDFgsMj8s6iI=", "properties": {"@spider": "usps_collection_boxes", "addr:city": "MIAMI", "addr:country": "US", "addr:full": "1350 SW 8TH ST", "addr:postcode": "33135", "addr:state": "FL", "amenity": "post_box", "brand": "United States Postal Service", "brand:wikidata": "Q668687", "collection_times": "Mo-Fr 14:00; Sa 15:00", "name": "USPS COLLECTION BOX - BLUE BOX", "note": "ON 12/24 AND 12/31, THIS BOX MAY BE COLLECTED AS EARLY AS 12 NOON.", "nsi_id": "unitedstatespostalservice-a77078", "operator": "United States Postal Service", "operator:short": "USPS", "operator:type": "public", "operator:wikidata": "Q668687", "ref": "3313500032"}, "type": "Feature"}
{"dataset_attributes": {"@spider": "usps_collection_boxes"}, "geometry": {"coordinates": [-80.214601558, 25.787680134], "type": "Point"}, "id": "RL8FNJUomtD-oF2dnrDbX7qINec=", "properties": {"@spider": "usps_collection_boxes", "addr:city": "MIAMI", "addr:country": "US", "addr:full": "1135 NW 14TH ST", "addr:postcode": "33136", "addr:state": "FL", "amenity": "post_box", "brand": "United States Postal Service", "brand:wikidata": "Q668687", "collection_times": "Mo-Fr 15:30; Sa 13:00", "name": "USPS COLLECTION BOX - BLUE BOX", "note": "ON 12/24 AND 12/31, THIS BOX MAY BE COLLECTED AS EARLY AS 12 NOON.", "nsi_id": "unitedstatespostalservice-a77078", "operator": "United States Postal Service", "operator:short": "USPS", "operator:type": "public", "operator:wikidata": "Q668687", "ref": "3313600014"}, "type": "Feature"}
{"dataset_attributes": {"@spider": "usps_collection_boxes"}, "geometry": {"coordinates": [-80.213501993, 25.790423348], "type": "Point"}, "id": "k9Xpi50sN5Jt4oKUb9uf5gbnS94=", "properties": {"@spider": "usps_collection_boxes", "addr:city": "MIAMI", "addr:country": "US", "addr:full": "1698 NW 11 AVE", "addr:postcode": "33136", "addr:state": "FL", "amenity": "post_box", "brand": "United States Postal Service", "brand:wikidata": "Q668687", "collection_times": "Mo-Fr 15:50; Sa 13:00", "name": "USPS COLLECTION BOX - BLUE BOX", "note": "ON 12/24 AND 12/31, THIS BOX MAY BE COLLECTED AS EARLY AS 12 NOON.", "nsi_id": "unitedstatespostalservice-a77078", "operator": "United States Postal Service", "operator:short": "USPS", "operator:type": "public", "operator:wikidata": "Q668687", "ref": "3313600017"}, "type": "Feature"}
{"dataset_attributes": {"@spider": "usps_collection_boxes"}, "geometry": {"coordinates": [-80.2032557833, 25.7916913902], "type": "Point"}, "id": "axFbXG7iMJrQw8b5s3pn5uVvACE=", "properties": {"@spider": "usps_collection_boxes", "addr:city": "MIAMI", "addr:country": "US", "addr:full": "501 NW 17 ST", "addr:postcode": "33136", "addr:state": "FL", "amenity": "post_box", "brand": "United States Postal Service", "brand:wikidata": "Q668687", "collection_times": "Mo-Fr 16:20; Sa 14:15", "name": "USPS COLLECTION BOX - BLUE BOX", "note": "ON 12/24 AND 12/31, THIS BOX MAY BE COLLECTED AS EARLY AS 12 NOON.", "nsi_id": "unitedstatespostalservice-a77078", "operator": "United States Postal Service", "operator:short": "USPS", "operator:type": "public", "operator:wikidata": "Q668687", "ref": "3313600023"}, "type": "Feature"}
{"dataset_attributes": {"@spider": "usps_collection_boxes"}, "geometry": {"coordinates": [-80.21557698, 25.786655012], "type": "Point"}, "id": "gguP3qpnfu5OVs2FLwJCJeAabaE=", "properties": {"@spider": "usps_collection_boxes", "addr:city": "MIAMI", "addr:country": "US", "addr:full": "1350 NW 12TH AVE", "addr:postcode": "33136", "addr:state": "FL", "amenity": "post_box", "brand": "United States Postal Service", "brand:wikidata": "Q668687", "collection_times": "Mo-Fr 16:00; Sa 13:15", "name": "USPS COLLECTION BOX - BLUE BOX", "note": "ON 12/24 AND 12/31, THIS BOX MAY BE COLLECTED AS EARLY AS 12 NOON.", "nsi_id": "unitedstatespostalservice-a77078", "operator": "United States Postal Service", "operator:short": "USPS", "operator:type": "public", "operator:wikidata": "Q668687", "ref": "3313600024"}, "type": "Feature"}
{"dataset_attributes": {"@spider": "usps_collection_boxes"}, "geometry": {"coordinates": [-80.213612231, 25.789999271], "type": "Point"}, "id": "Cf_zNjbSrUp5ScDFsqHOVGDpvXw=", "properties": {"@spider": "usps_collection_boxes", "addr:city": "MIAMI", "addr:country": "US", "addr:full": "1611 NW 11 AVE", "addr:postcode": "33136", "addr:state": "FL", "amenity": "post_box", "brand": "United States Postal Service", "brand:wikidata": "Q668687", "collection_times": "Mo-Fr 15:50; Sa 13:00", "name": "USPS COLLECTION BOX - BLUE BOX", "note": "ON 12/24 AND 12/31, THIS BOX MAY BE COLLECTED AS EARLY AS 12 NOON.", "nsi_id": "unitedstatespostalservice-a77078", "operator": "United States Postal Service", "operator:short": "USPS", "operator:type": "public", "operator:wikidata": "Q668687", "ref": "3313600032"}, "type": "Feature"}
{"dataset_attributes": {"@spider": "usps_collection_boxes"}, "geometry": {"coordinates": [-80.1872194289, 25.8177128231], "type": "Point"}, "id": "A1DQ6xhTVLqOpdFjFuyNnTgAIJU=", "properties": {"@spider": "usps_collection_boxes", "addr:city": "MIAMI", "addr:country": "US", "addr:full": "599 GATE LN", "addr:postcode": "33137", "addr:state": "FL", "amenity": "post_box", "brand": "United States Postal Service", "brand:wikidata": "Q668687", "collection_times": "Mo-Fr 15:50; Sa 14:40", "name": "USPS COLLECTION BOX - BLUE BOX", "note": "ON 12/24 AND 12/31, THIS BOX MAY BE COLLECTED AS EARLY AS 12 NOON.", "nsi_id": "unitedstatespostalservice-a77078", "operator": "United States Postal Service", "operator:short": "USPS", "operator:type": "public", "operator:wikidata": "Q668687", "ref": "3313700005"}, "type": "Feature"}
{"dataset_attributes": {"@spider": "usps_collection_boxes"}, "geometry": {"coordinates": [-80.187114404, 25.823309775], "type": "Point"}, "id": "gQCPydOOXQPICnGc076QQ72Nb_c=", "properties": {"@spider": "usps_collection_boxes", "addr:city": "MIAMI", "addr:country": "US", "addr:full": "5126 BISCAYNE BLVD", "addr:postcode": "33137", "addr:state": "FL", "amenity": "post_box", "brand": "United States Postal Service", "brand:wikidata": "Q668687", "collection_times": "Mo-Fr 15:45; Sa 14:33", "name": "USPS COLLECTION BOX - BLUE BOX", "note": "ON 12/24 AND 12/31, THIS BOX MAY BE COLLECTED AS EARLY AS 12 NOON.", "nsi_id": "unitedstatespostalservice-a77078", "operator": "United States Postal Service", "operator:short": "USPS", "operator:type": "public", "operator:wikidata": "Q668687", "ref": "3313700007"}, "type": "Feature"}
{"dataset_attributes": {"@spider": "usps_collection_boxes"}, "geometry": {"coordinates": [-80.189495012, 25.80256399], "type": "Point"}, "id": "PXGT7Nzh4pZqUMJvUI6qcDMbwfU=", "properties": {"@spider": "usps_collection_boxes", "addr:city": "MIAMI", "addr:country": "US", "addr:full": "2650 BISCAYNE BLVD", "addr:postcode": "33137", "addr:state": "FL", "amenity": "post_box", "brand": "United States Postal Service", "brand:wikidata": "Q668687", "collection_times": "Mo-Fr 16:05; Sa 14:26", "name": "USPS COLLECTION BOX - BLUE BOX", "note": "ON 12/24 AND 12/31, THIS BOX MAY BE COLLECTED AS EARLY AS 12 NOON.", "nsi_id": "unitedstatespostalservice-a77078", "operator": "United States Postal Service", "operator:short": "USPS", "operator:type": "public", "operator:wikidata": "Q668687", "ref": "3313700009"}, "type": "Feature"}
{"dataset_attributes": {"@spider": "usps_collection_boxes"}, "geometry": {"coordinates": [-80.187936984, 25.821070017], "type": "Point"}, "id": "AwYNmOKC6pdaeCdR5vh1gmOAYWw=", "properties": {"@spider": "usps_collection_boxes", "addr:city": "MIAMI", "addr:country": "US", "addr:full": "5000 BISCAYNE BLVD", "addr:postcode": "33137", "addr:state": "FL", "amenity": "post_box", "brand": "United States Postal Service", "brand:wikidata": "Q668687", "collection_times": "Mo-Fr 16:20; Sa 14:30", "name": "USPS COLLECTION BOX - BLUE BOX", "note": "ON 12/24 AND 12/31, THIS BOX MAY BE COLLECTED AS EARLY AS 12 NOON.", "nsi_id": "unitedstatespostalservice-a77078", "operator": "United States Postal Service", "operator:short": "USPS", "operator:type": "public", "operator:wikidata": "Q668687", "ref": "3313700034"}, "type": "Feature"}
{"dataset_attributes": {"@spider": "usps_collection_boxes"}, "geometry": {"coordinates": [-80.1954620053, 25.8072430202], "type": "Point"}, "id": "-1VqoPhfPpyREYYe265YW2DeDlA=", "properties": {"@spider": "usps_collection_boxes", "addr:city": "MIAMI", "addr:country": "US", "addr:full": "3246 N MIAMI AVE STE A", "addr:postcode": "33137", "addr:state": "FL", "amenity": "post_box", "brand": "United States Postal Service", "brand:wikidata": "Q668687", "collection_times": "Mo-Fr 18:00; Sa 15:30", "name": "USPS COLLECTION BOX - PO LOBBY", "note": "ON 12/24 AND 12/31, THIS BOX MAY BE COLLECTED AS EARLY AS 12 NOON.", "nsi_id": "unitedstatespostalservice-a77078", "operator": "United States Postal Service", "operator:short": "USPS", "operator:type": "public", "operator:wikidata": "Q668687", "ref": "3313700037"}, "type": "Feature"}
{"dataset_attributes": {"@spider": "usps_collection_boxes"}, "geometry": {"coordinates": [-80.190823963, 25.814273006], "type": "Point"}, "id": "T7OKQRgOHI20pXi2KMlHwTURRRs=", "properties": {"@spider": "usps_collection_boxes", "addr:city": "MIAMI", "addr:country": "US", "addr:full": "4141 NE 2ND AVE", "addr:postcode": "33137", "addr:state": "FL", "amenity": "post_box", "brand": "United States Postal Service", "brand:wikidata": "Q668687", "collection_times": "Mo-Fr 15:55; Sa 14:09", "name": "USPS COLLECTION BOX - BLUE BOX", "note": "ON 12/24 AND 12/31, THIS BOX MAY BE COLLECTED AS EARLY AS 12 NOON.", "nsi_id": "unitedstatespostalservice-a77078", "operator": "United States Postal Service", "operator:short": "USPS", "operator:type": "public", "operator:wikidata": "Q668687", "ref": "3313700038"}, "type": "Feature"}
{"dataset_attributes": {"@spider": "usps_collection_boxes"}, "geometry": {"coordinates": [-80.1883249824, 25.8188760121], "type": "Point"}, "id": "8E9ZEL8vtB9U2hFJg9YzSw3sius=", "properties": {"@spider": "usps_collection_boxes", "addr:city": "MIAMI", "addr:country": "US", "addr:full": "4770 BISCAYNE BLVD", "addr:postcode": "33137", "addr:state": "FL", "amenity": "post_box", "brand": "United States Postal Service", "brand:wikidata": "Q668687", "collection_times": "Mo-Fr 16:25; Sa 14:35", "name": "USPS COLLECTION BOX - BLUE BOX", "note": "ON 12/24 AND 12/31, THIS BOX MAY BE COLLECTED AS EARLY AS 12 NOON.", "nsi_id": "unitedstatespostalservice-a77078", "operator": "United States Postal Service", "operator:short": "USPS", "operator:type": "public", "operator:wikidata": "Q668687", "ref": "3313700042"}, "type": "Feature"}
{"dataset_attributes": {"@spider": "usps_collection_boxes"}, "geometry": {"coordinates": [-80.188324982, 25.818876012], "type": "Point"}, "id": "2C0V8HV0vtZpdUJrKUdJm6suPno=", "properties": {"@spider": "usps_collection_boxes", "addr:city": "MIAMI", "addr:country": "US", "addr:full": "4770 BISCAYNE BLVD", "addr:postcode": "33137", "addr:state": "FL", "amenity": "post_box", "brand": "United States Postal Service", "brand:wikidata": "Q668687", "collection_times": "Mo-Fr 16:30; Sa 14:35", "name": "USPS COLLECTION BOX - BLUE BOX", "note": "ON 12/24 AND 12/31, THIS BOX MAY BE COLLECTED AS EARLY AS 12 NOON.", "nsi_id": "unitedstatespostalservice-a77078", "operator": "United States Postal Service", "operator:short": "USPS", "operator:type": "public", "operator:wikidata": "Q668687", "ref": "3313700043"}, "type": "Feature"}
{"dataset_attributes": {"@spider": "usps_collection_boxes"}, "geometry": {"coordinates": [-80.195462005, 25.80724302], "type": "Point"}, "id": "5rxBIzpX6BxEhvB-Ta0Ga8kzX9Q=", "properties": {"@spider": "usps_collection_boxes", "addr:city": "MIAMI", "addr:country": "US", "addr:full": "3246 N MIAMI AVE STE A", "addr:postcode": "33137", "addr:state": "FL", "amenity": "post_box", "brand": "United States Postal Service", "brand:wikidata": "Q668687", "collection_times": "Mo-Fr 17:00; Sa 13:30", "name": "USPS COLLECTION BOX - PO LOBBY", "note": "ON 12/24 AND 12/31, THIS BOX MAY BE COLLECTED AS EARLY AS 12 NOON.", "nsi_id": "unitedstatespostalservice-a77078", "operator": "United States Postal Service", "operator:short": "USPS", "operator:type": "public", "operator:wikidata": "Q668687", "ref": "3313700045"}, "type": "Feature"}
{"dataset_attributes": {"@spider": "usps_collection_boxes"}, "geometry": {"coordinates": [-80.18475593, 25.862006638], "type": "Point"}, "id": "Fof0kB2cSDZ3KKpn6BbAqqH7hVY=", "properties": {"@spider": "usps_collection_boxes", "addr:city": "MIAMI SHORES", "addr:country": "US", "addr:full": "9420 PARK DR", "addr:postcode": "33138", "addr:state": "FL", "amenity": "post_box", "brand": "United States Postal Service", "brand:wikidata": "Q668687", "collection_times": "Mo-Fr 16:35; Sa 15:20", "name": "USPS COLLECTION BOX - BLUE BOX", "note": "ON 12/24 AND 12/31, THIS BOX MAY BE COLLECTED AS EARLY AS 12 NOON.", "nsi_id": "unitedstatespostalservice-a77078", "operator": "United States Postal Service", "operator:short": "USPS", "operator:type": "public", "operator:wikidata": "Q668687", "ref": "3313800024"}, "type": "Feature"}
{"dataset_attributes": {"@spider": "usps_collection_boxes"}, "geometry": {"coordinates": [-80.19304999, 25.865212507], "type": "Point"}, "id": "t8w-nPCVRFgVn2PbsgTBfAJvPoY=", "properties": {"@spider": "usps_collection_boxes", "addr:city": "MIAMI SHORES", "addr:country": "US", "addr:full": "220 NE 98TH ST", "addr:postcode": "33138", "addr:state": "FL", "amenity": "post_box", "brand": "United States Postal Service", "brand:wikidata": "Q668687", "collection_times": "Mo-Fr 16:45; Sa 15:49", "name": "USPS COLLECTION BOX - BLUE BOX", "note": "ON 12/24 AND 12/31, THIS BOX MAY BE COLLECTED AS EARLY AS 12 NOON.", "nsi_id": "unitedstatespostalservice-a77078", "operator": "United States Postal Service", "operator:short": "USPS", "operator:type": "public", "operator:wikidata": "Q668687", "ref": "3313800027"}, "type": "Feature"}
{"dataset_attributes": {"@spider": "usps_collection_boxes"}, "geometry": {"coordinates": [-80.194792332, 25.852352546], "type": "Point"}, "id": "Op7wSmbIJMslyLjGfJiUutnoOPQ=", "properties": {"@spider": "usps_collection_boxes", "addr:city": "MIAMI SHORES", "addr:country": "US", "addr:full": "140 NE 84TH ST", "addr:postcode": "33138", "addr:state": "FL", "amenity": "post_box", "brand": "United States Postal Service", "brand:wikidata": "Q668687", "collection_times": "Mo-Sa 17:15", "name": "USPS COLLECTION BOX - PO LOBBY", "note": "ON 12/24 AND 12/31, THIS BOX MAY BE COLLECTED AS EARLY AS 12 NOON.", "nsi_id": "unitedstatespostalservice-a77078", "operator": "United States Postal Service", "operator:short": "USPS", "operator:type": "public", "operator:wikidata": "Q668687", "ref": "3313800051"}, "type": "Feature"}
{"dataset_attributes": {"@spider": "usps_collection_boxes"}, "geometry": {"coordinates": [-80.194792332, 25.852352546], "type": "Point"}, "id": "lFvkxQMjYJvbCs27lnW1MH10QAU=", "properties": {"@spider": "usps_collection_boxes", "addr:city": "MIAMI SHORES", "addr:country": "US", "addr:full": "140 NE 84TH ST", "addr:postcode": "33138", "addr:state": "FL", "amenity": "post_box", "brand": "United States Postal Service", "brand:wikidata": "Q668687", "collection_times": "Mo-Fr 17:00; Sa 13:30", "name": "USPS COLLECTION BOX - PO LOBBY", "note": "ON 12/24 AND 12/31, THIS BOX MAY BE COLLECTED AS EARLY AS 12 NOON.", "nsi_id": "unitedstatespostalservice-a77078", "operator": "United States Postal Service", "operator:short": "USPS", "operator:type": "public", "operator:wikidata": "Q668687", "ref": "3313800062"}, "type": "Feature"}
{"dataset_attributes": {"@spider": "usps_collection_boxes"}, "geometry": {"coordinates": [-80.14242946, 25.790886031], "type": "Point"}, "id": "73ypT3CX9e1ccOt6ctTGedA3Myg=", "properties": {"@spider": "usps_collection_boxes", "addr:city": "MIAMI BEACH", "addr:country": "US", "addr:full": "1661 WEST AVE", "addr:postcode": "33139", "addr:state": "FL", "amenity": "post_box", "brand": "United States Postal Service", "brand:wikidata": "Q668687", "collection_times": "Mo-Fr 17:00; Sa 13:00", "name": "USPS COLLECTION BOX - BLUE BOX", "note": "ON 12/24 AND 12/31, THIS BOX MAY BE COLLECTED AS EARLY AS 12 NOON.", "nsi_id": "unitedstatespostalservice-a77078", "operator": "United States Postal Service", "operator:short": "USPS", "operator:type": "public", "operator:wikidata": "Q668687", "ref": "3313900001"}, "type": "Feature"}
{"dataset_attributes": {"@spider": "usps_collection_boxes"}, "geometry": {"coordinates": [-80.141763473, 25.795609457], "type": "Point"}, "id": "v8FQVTZsfb3UAShaE_-u1ioH468=", "properties": {"@spider": "usps_collection_boxes", "addr:city": "MIAMI BEACH", "addr:country": "US", "addr:full": "1201 20TH ST", "addr:postcode": "33139", "addr:state": "FL", "amenity": "post_box", "brand": "United States Postal Service", "brand:wikidata": "Q668687", "collection_times": "Mo-Sa 11:00", "name": "USPS COLLECTION BOX - BLUE BOX", "nsi_id": "unitedstatespostalservice-a77078", "operator": "United States Postal Service", "operator:short": "USPS", "operator:type": "public", "operator:wikidata": "Q668687", "ref": "3313900003"}, "type": "Feature"}
{"dataset_attributes": {"@spider": "usps_collection_boxes"}, "geometry": {"coordinates": [-80.173549111, 25.790200495], "type": "Point"}, "id": "2PyIxfZYHEZwFIyz2DrIYyWJKMo=", "properties": {"@spider": "usps_collection_boxes", "addr:city": "MIAMI BEACH", "addr:country": "US", "addr:full": "1000 VENETIAN WAY", "addr:postcode": "33139", "addr:state": "FL", "amenity": "post_box", "brand": "United States Postal Service", "brand:wikidata": "Q668687", "collection_times": "Mo-Sa 13:00", "name": "USPS COLLECTION BOX - BLUE BOX", "note": "ON 12/24 AND 12/31, THIS BOX MAY BE COLLECTED AS EARLY AS 12 NOON.", "nsi_id": "unitedstatespostalservice-a77078", "operator": "United States Postal Service", "operator:short": "USPS", "operator:type": "public", "operator:wikidata": "Q668687", "ref": "3313900005"}, "type": "Feature"}
{"dataset_attributes": {"@spider": "usps_collection_boxes"}, "geometry": {"coordinates": [-80.141055585, 25.787380584], "type": "Point"}, "id": "TqQ1IrlRyt1-qpN6fUj34Dky_6s=", "properties": {"@spider": "usps_collection_boxes", "addr:city": "MIAMI BEACH", "addr:country": "US", "addr:full": "1501 ALTON RD", "addr:postcode": "33139", "addr:state": "FL", "amenity": "post_box", "brand": "United States Postal Service", "brand:wikidata": "Q668687", "collection_times": "Mo-Sa 10:30", "name": "USPS COLLECTION BOX - BLUE BOX", "nsi_id": "unitedstatespostalservice-a77078", "operator": "United States Postal Service", "operator:short": "USPS", "operator:type": "public", "operator:wikidata": "Q668687", "ref": "3313900008"}, "type": "Feature"}
{"dataset_attributes": {"@spider": "usps_collection_boxes"}, "geometry": {"coordinates": [-80.1402111618, 25.7873185434], "type": "Point"}, "id": "8Y3DS3FHjiJAvlfi1dLgwFcIoN8=", "properties": {"@spider": "usps_collection_boxes", "addr:city": "MIAMI BEACH", "addr:country": "US", "addr:full": "1100 15TH ST", "addr:postcode": "33139", "addr:state": "FL", "amenity": "post_box", "brand": "United States Postal Service", "brand:wikidata": "Q668687", "collection_times": "Mo-Sa 13:00", "name": "USPS COLLECTION BOX - BLUE BOX", "note": "ON 12/24 AND 12/31, THIS BOX MAY BE COLLECTED AS EARLY AS 12 NOON.", "nsi_id": "unitedstatespostalservice-a77078", "operator": "United States Postal Service", "operator:short": "USPS", "operator:type": "public", "operator:wikidata": "Q668687", "ref": "3313900009"}, "type": "Feature"}
{"dataset_attributes": {"@spider": "usps_collection_boxes"}, "geometry": {"coordinates": [-80.142122552, 25.779241111], "type": "Point"}, "id": "A3JFC7dvtuN77lh-U7z9HZI37u8=", "properties": {"@spider": "usps_collection_boxes", "addr:city": "MIAMI BEACH", "addr:country": "US", "addr:full": "900 WEST AVE", "addr:postcode": "33139", "addr:state": "FL", "amenity": "post_box", "brand": "United States Postal Service", "brand:wikidata": "Q668687", "collection_times": "Mo-Sa 13:00", "name": "USPS COLLECTION BOX - BLUE BOX", "note": "ON 12/24 AND 12/31, THIS BOX MAY BE COLLECTED AS EARLY AS 12 NOON.", "nsi_id": "unitedstatespostalservice-a77078", "operator": "United States Postal Service", "operator:short": "USPS", "operator:type": "public", "operator:wikidata": "Q668687", "ref": "3313900011"}, "type": "Feature"}
{"dataset_attributes": {"@spider": "usps_collection_boxes"}, "geometry": {"coordinates": [-80.142011003, 25.777898727], "type": "Point"}, "id": "QGad8YRfMAKGxHDMBxfkpv87O4s=", "properties": {"@spider": "usps_collection_boxes", "addr:city": "MIAMI BEACH", "addr:country": "US", "addr:full": "757 WEST AVE", "addr:postcode": "33139", "addr:state": "FL", "amenity": "post_box", "brand": "United States Postal Service", "brand:wikidata": "Q668687", "collection_times": "Mo-Sa 12:00", "name": "USPS COLLECTION BOX - BLUE BOX", "nsi_id": "unitedstatespostalservice-a77078", "operator": "United States Postal Service", "operator:short": "USPS", "operator:type": "public", "operator:wikidata": "Q668687", "ref": "3313900012"}, "type": "Feature"}
{"dataset_attributes": {"@spider": "usps_collection_boxes"}, "geometry": {"coordinates": [-80.150480367, 25.775095404], "type": "Point"}, "id": "9LjVcqujPEGx5Nc1ElXb4mN2Viw=", "properties": {"@spider": "usps_collection_boxes", "addr:city": "MIAMI BEACH", "addr:country": "US", "addr:full": "1 STAR ISLAND DR", "addr:postcode": "33139", "addr:state": "FL", "amenity": "post_box", "brand": "United States Postal Service", "brand:wikidata": "Q668687", "collection_times": "Mo-Sa 11:00", "name": "USPS COLLECTION BOX - BLUE BOX", "nsi_id": "unitedstatespostalservice-a77078", "operator": "United States Postal Service", "operator:short": "USPS", "operator:type": "public", "operator:wikidata": "Q668687", "ref": "3313900013"}, "type": "Feature"}
{"dataset_attributes": {"@spider": "usps_collection_boxes"}, "geometry": {"coordinates": [-80.133011165, 25.76985344], "type": "Point"}, "id": "HbR5vwHG_lzWKySKBu3R8nQTAd0=", "properties": {"@spider": "usps_collection_boxes", "addr:city": "MIAMI BEACH", "addr:country": "US", "addr:full": "112 OCEAN DR", "addr:postcode": "33139", "addr:state": "FL", "amenity": "post_box", "brand": "United States Postal Service", "brand:wikidata": "Q668687", "collection_times": "Mo-Sa 13:00", "name": "USPS COLLECTION BOX - BLUE BOX", "note": "ON 12/24 AND 12/31, THIS BOX MAY BE COLLECTED AS EARLY AS 12 NOON.", "nsi_id": "unitedstatespostalservice-a77078", "operator": "United States Postal Service", "operator:short": "USPS", "operator:type": "public", "operator:wikidata": "Q668687", "ref": "3313900016"}, "type": "Feature"}
{"dataset_attributes": {"@spider": "usps_collection_boxes"}, "geometry": {"coordinates": [-80.134590611, 25.771999059], "type": "Point"}, "id": "5s-Z38W6vMm-3WrhtQ47I6hQG2s=", "properties": {"@spider": "usps_collection_boxes", "addr:city": "MIAMI BEACH", "addr:country": "US", "addr:full": "255 WASHINGTON AVE", "addr:postcode": "33139", "addr:state": "FL", "amenity": "post_box", "brand": "United States Postal Service", "brand:wikidata": "Q668687", "collection_times": "Mo-Sa 13:00", "name": "USPS COLLECTION BOX - BLUE BOX", "note": "ON 12/24 AND 12/31, THIS BOX MAY BE COLLECTED AS EARLY AS 12 NOON.", "nsi_id": "unitedstatespostalservice-a77078", "operator": "United States Postal Service", "operator:short": "USPS", "operator:type": "public", "operator:wikidata": "Q668687", "ref": "3313900017"}, "type": "Feature"}
{"dataset_attributes": {"@spider": "usps_collection_boxes"}, "geometry": {"coordinates": [-80.138511, 25.790922], "type": "Point"}, "id": "TXlxsgsVB1SDDETmbvu0NAKPpxY=", "properties": {"@spider": "usps_collection_boxes", "addr:city": "MIAMI BEACH", "addr:country": "US", "addr:full": "947 LINCOLN RD", "addr:postcode": "33139", "addr:state": "FL", "amenity": "post_box", "brand": "United States Postal Service", "brand:wikidata": "Q668687", "collection_times": "Mo-Sa 12:00", "name": "USPS COLLECTION BOX - BLUE BOX", "nsi_id": "unitedstatespostalservice-a77078", "operator": "United States Postal Service", "operator:short": "USPS", "operator:type": "public", "operator:wikidata": "Q668687", "ref": "3313900018"}, "type": "Feature"}
{"dataset_attributes": {"@spider": "usps_collection_boxes"}, "geometry": {"coordinates": [-80.1387912903, 25.7913393003], "type": "Point"}, "id": "kwtbez8tUlBTBgilFZnbcjsqFmo=", "properties": {"@spider": "usps_collection_boxes", "addr:city": "MIAMI BEACH", "addr:country": "US", "addr:full": "1691 MICHIGAN AVE", "addr:postcode": "33139", "addr:state": "FL", "amenity": "post_box", "brand": "United States Postal Service", "brand:wikidata": "Q668687", "collection_times": "Mo-Sa 12:00", "name": "USPS COLLECTION BOX - BLUE BOX", "nsi_id": "unitedstatespostalservice-a77078", "operator": "United States Postal Service", "operator:short": "USPS", "operator:type": "public", "operator:wikidata": "Q668687", "ref": "3313900019"}, "type": "Feature"}
{"dataset_attributes": {"@spider": "usps_collection_boxes"}, "geometry": {"coordinates": [-80.1362026516, 25.7746121937], "type": "Point"}, "id": "w9kcuFTMlYXF1LpVlCkk86PE53Y=", "properties": {"@spider": "usps_collection_boxes", "addr:city": "MIAMI BEACH", "addr:country": "US", "addr:full": "805 5TH ST", "addr:postcode": "33139", "addr:state": "FL", "amenity": "post_box", "brand": "United States Postal Service", "brand:wikidata": "Q668687", "collection_times": "Mo-Sa 14:00", "name": "USPS COLLECTION BOX - BLUE BOX", "note": "ON 12/24 AND 12/31, THIS BOX MAY BE COLLECTED AS EARLY AS 12 NOON.", "nsi_id": "unitedstatespostalservice-a77078", "operator": "United States Postal Service", "operator:short": "USPS", "operator:type": "public", "operator:wikidata": "Q668687", "ref": "3313900020"}, "type": "Feature"}
{"dataset_attributes": {"@spider": "usps_collection_boxes"}, "geometry": {"coordinates": [-80.138804171, 25.779347475], "type": "Point"}, "id": "papLvflke7G4thr95qo_QJ1Gdxo=", "properties": {"@spider": "usps_collection_boxes", "addr:city": "MIAMI BEACH", "addr:country": "US", "addr:full": "1005 9TH ST", "addr:postcode": "33139", "addr:state": "FL", "amenity": "post_box", "brand": "United States Postal Service", "brand:wikidata": "Q668687", "collection_times": "Mo-Sa 13:00", "name": "USPS COLLECTION BOX - BLUE BOX", "note": "ON 12/24 AND 12/31, THIS BOX MAY BE COLLECTED AS EARLY AS 12 NOON.", "nsi_id": "unitedstatespostalservice-a77078", "operator": "United States Postal Service", "operator:short": "USPS", "operator:type": "public", "operator:wikidata": "Q668687", "ref": "3313900021"}, "type": "Feature"}
{"dataset_attributes": {"@spider": "usps_collection_boxes"}, "geometry": {"coordinates": [-80.1354360115, 25.7803669925], "type": "Point"}, "id": "uWeUVhO7y_dnfzLISzYpKVGcdEo=", "properties": {"@spider": "usps_collection_boxes", "addr:city": "MIAMI BEACH", "addr:country": "US", "addr:full": "950 EUCLID AVE", "addr:postcode": "33139", "addr:state": "FL", "amenity": "post_box", "brand": "United States Postal Service", "brand:wikidata": "Q668687", "collection_times": "Mo-Sa 13:00", "name": "USPS COLLECTION BOX - BLUE BOX", "note": "ON 12/24 AND 12/31, THIS BOX MAY BE COLLECTED AS EARLY AS 12 NOON.", "nsi_id": "unitedstatespostalservice-a77078", "operator": "United States Postal Service", "operator:short": "USPS", "operator:type": "public", "operator:wikidata": "Q668687", "ref": "3313900024"}, "type": "Feature"}
{"dataset_attributes": {"@spider": "usps_collection_boxes"}, "geometry": {"coordinates": [-80.132250386, 25.773009444], "type": "Point"}, "id": "RFNdixgIaXUDPCz_w4_JBvocdK0=", "properties": {"@spider": "usps_collection_boxes", "addr:city": "MIAMI BEACH", "addr:country": "US", "addr:full": "345 OCEAN DR", "addr:postcode": "33139", "addr:state": "FL", "amenity": "post_box", "brand": "United States Postal Service", "brand:wikidata": "Q668687", "collection_times": "Mo-Sa 13:00", "name": "USPS COLLECTION BOX - BLUE BOX", "note": "ON 12/24 AND 12/31, THIS BOX MAY BE COLLECTED AS EARLY AS 12 NOON.", "nsi_id": "unitedstatespostalservice-a77078", "operator": "United States Postal Service", "operator:short": "USPS", "operator:type": "public", "operator:wikidata": "Q668687", "ref": "3313900026"}, "type": "Feature"}
{"dataset_attributes": {"@spider": "usps_collection_boxes"}, "geometry": {"coordinates": [-80.132958841, 25.774455308], "type": "Point"}, "id": "_u4B2isKVuqPvJW-uhpYVQ6CSEk=", "properties": {"@spider": "usps_collection_boxes", "addr:city": "MIAMI BEACH", "addr:country": "US", "addr:full": "499 COLLINS AVE", "addr:postcode": "33139", "addr:state": "FL", "amenity": "post_box", "brand": "United States Postal Service", "brand:wikidata": "Q668687", "collection_times": "Mo-Sa 12:30", "name": "USPS COLLECTION BOX - BLUE BOX", "note": "ON 12/24 AND 12/31, THIS BOX MAY BE COLLECTED AS EARLY AS 12 NOON.", "nsi_id": "unitedstatespostalservice-a77078", "operator": "United States Postal Service", "operator:short": "USPS", "operator:type": "public", "operator:wikidata": "Q668687", "ref": "3313900027"}, "type": "Feature"}
{"dataset_attributes": {"@spider": "usps_collection_boxes"}, "geometry": {"coordinates": [-80.1327555, 25.777134], "type": "Point"}, "id": "AXMJ2TwmI4BZqK5y_XnTI4SLmV0=", "properties": {"@spider": "usps_collection_boxes", "addr:city": "MIAMI BEACH", "addr:country": "US", "addr:full": "700 COLLINS AVE", "addr:postcode": "33139", "addr:state": "FL", "amenity": "post_box", "brand": "United States Postal Service", "brand:wikidata": "Q668687", "collection_times": "Mo-Sa 13:00", "name": "USPS COLLECTION BOX - BLUE BOX", "note": "ON 12/24 AND 12/31, THIS BOX MAY BE COLLECTED AS EARLY AS 12 NOON.", "nsi_id": "unitedstatespostalservice-a77078", "operator": "United States Postal Service", "operator:short": "USPS", "operator:type": "public", "operator:wikidata": "Q668687", "ref": "3313900028"}, "type": "Feature"}
{"dataset_attributes": {"@spider": "usps_collection_boxes"}, "geometry": {"coordinates": [-80.1288969416, 25.7977763947], "type": "Point"}, "id": "An4dja0M_Zb_Ad93ChHF63GUIY8=", "properties": {"@spider": "usps_collection_boxes", "addr:city": "MIAMI BEACH", "addr:country": "US", "addr:full": "227 22ND ST", "addr:postcode": "33139", "addr:state": "FL", "amenity": "post_box", "brand": "United States Postal Service", "brand:wikidata": "Q668687", "collection_times": "Mo-Sa 15:00", "name": "USPS COLLECTION BOX - BLUE BOX", "note": "ON 12/24 AND 12/31, THIS BOX MAY BE COLLECTED AS EARLY AS 12 NOON.", "nsi_id": "unitedstatespostalservice-a77078", "operator": "United States Postal Service", "operator:short": "USPS", "operator:type": "public", "operator:wikidata": "Q668687", "ref": "3313900033"}, "type": "Feature"}
{"dataset_attributes": {"@spider": "usps_collection_boxes"}, "geometry": {"coordinates": [-80.1376148018, 25.7907454183], "type": "Point"}, "id": "Td9wUdmi0GeB5PxVEWCD5F6RA2g=", "properties": {"@spider": "usps_collection_boxes", "addr:city": "MIAMI BEACH", "addr:country": "US", "addr:full": "1647 JEFFERSON AVE", "addr:postcode": "33139", "addr:state": "FL", "amenity": "post_box", "brand": "United States Postal Service", "brand:wikidata": "Q668687", "collection_times": "Mo-Sa 13:00", "name": "USPS COLLECTION BOX - BLUE BOX", "note": "ON 12/24 AND 12/31, THIS BOX MAY BE COLLECTED AS EARLY AS 12 NOON.", "nsi_id": "unitedstatespostalservice-a77078", "operator": "United States Postal Service", "operator:short": "USPS", "operator:type": "public", "operator:wikidata": "Q668687", "ref": "3313900034"}, "type": "Feature"}
{"dataset_attributes": {"@spider": "usps_collection_boxes"}, "geometry": {"coordinates": [-80.1342237043, 25.790199806], "type": "Point"}, "id": "f-TikKiY2rZbziR8kNCmGpDLlW0=", "properties": {"@spider": "usps_collection_boxes", "addr:city": "MIAMI BEACH", "addr:country": "US", "addr:full": "1641 PENNSYLVANIA AVE", "addr:postcode": "33139", "addr:state": "FL", "amenity": "post_box", "brand": "United States Postal Service", "brand:wikidata": "Q668687", "collection_times": "Mo-Sa 15:00", "name": "USPS COLLECTION BOX - BLUE BOX", "note": "ON 12/24 AND 12/31, THIS BOX MAY BE COLLECTED AS EARLY AS 12 NOON.", "nsi_id": "unitedstatespostalservice-a77078", "operator": "United States Postal Service", "operator:short": "USPS", "operator:type": "public", "operator:wikidata": "Q668687", "ref": "3313900035"}, "type": "Feature"}
{"dataset_attributes": {"@spider": "usps_collection_boxes"}, "geometry": {"coordinates": [-80.1321829366, 25.7911083292], "type": "Point"}, "id": "zRLSzc9PU0uZzwt_kBYKogIdbgU=", "properties": {"@spider": "usps_collection_boxes", "addr:city": "MIAMI BEACH", "addr:country": "US", "addr:full": "401 LINCOLN RD", "addr:postcode": "33139", "addr:state": "FL", "amenity": "post_box", "brand": "United States Postal Service", "brand:wikidata": "Q668687", "collection_times": "Mo-Fr 14:00; Sa 13:00", "name": "USPS COLLECTION BOX - BLUE BOX", "note": "ON 12/24 AND 12/31, THIS BOX MAY BE COLLECTED AS EARLY AS 12 NOON.", "nsi_id": "unitedstatespostalservice-a77078", "operator": "United States Postal Service", "operator:short": "USPS", "operator:type": "public", "operator:wikidata": "Q668687", "ref": "3313900037"}, "type": "Feature"}
{"dataset_attributes": {"@spider": "usps_collection_boxes"}, "geometry": {"coordinates": [-80.1549724402, 25.7910685795], "type": "Point"}, "id": "Tn6SpgFHpzjsPE-ckE4K_LuqsX0=", "properties": {"@spider": "usps_collection_boxes", "addr:city": "MIAMI BEACH", "addr:country": "US", "addr:full": "110 VENETIAN WAY DILIDO IS", "addr:postcode": "33139", "addr:state": "FL", "amenity": "post_box", "brand": "United States Postal Service", "brand:wikidata": "Q668687", "collection_times": "Mo-Sa 13:00", "name": "USPS COLLECTION BOX - BLUE BOX", "note": "ON 12/24 AND 12/31, THIS BOX MAY BE COLLECTED AS EARLY AS 12 NOON.", "nsi_id": "unitedstatespostalservice-a77078", "operator": "United States Postal Service", "operator:short": "USPS", "operator:type": "public", "operator:wikidata": "Q668687", "ref": "3313900047"}, "type": "Feature"}
{"dataset_attributes": {"@spider": "usps_collection_boxes"}, "geometry": {"coordinates": [-80.162680593, 25.779907019], "type": "Point"}, "id": "GQhCNglc9Ner8q_6yu252Gm-0Ao=", "properties": {"@spider": "usps_collection_boxes", "addr:city": "MIAMI BEACH", "addr:country": "US", "addr:full": "160 PALM AVE", "addr:postcode": "33139", "addr:state": "FL", "amenity": "post_box", "brand": "United States Postal Service", "brand:wikidata": "Q668687", "collection_times": "Mo-Sa 13:00", "name": "USPS COLLECTION BOX - BLUE BOX", "note": "ON 12/24 AND 12/31, THIS BOX MAY BE COLLECTED AS EARLY AS 12 NOON.", "nsi_id": "unitedstatespostalservice-a77078", "operator": "United States Postal Service", "operator:short": "USPS", "operator:type": "public", "operator:wikidata": "Q668687", "ref": "3313900050"}, "type": "Feature"}
{"dataset_attributes": {"@spider": "usps_collection_boxes"}, "geometry": {"coordinates": [-80.135353518, 25.787267413], "type": "Point"}, "id": "qQa2PBpiLPgH5RniXJLH7OAP-r0=", "properties": {"@spider": "usps_collection_boxes", "addr:city": "MIAMI BEACH", "addr:country": "US", "addr:full": "1480 EUCLID AVE", "addr:postcode": "33139", "addr:state": "FL", "amenity": "post_box", "brand": "United States Postal Service", "brand:wikidata": "Q668687", "collection_times": "Mo-Sa 11:30", "name": "USPS COLLECTION BOX - BLUE BOX", "nsi_id": "unitedstatespostalservice-a77078", "operator": "United States Postal Service", "operator:short": "USPS", "operator:type": "public", "operator:wikidata": "Q668687", "ref": "3313900051"}, "type": "Feature"}
{"dataset_attributes": {"@spider": "usps_collection_boxes"}, "geometry": {"coordinates": [-80.136494528, 25.778299515], "type": "Point"}, "id": "owxVe3TqXHu3tpoWzm7sF1_0RE8=", "properties": {"@spider": "usps_collection_boxes", "addr:city": "MIAMI BEACH", "addr:country": "US", "addr:full": "801 8TH ST", "addr:postcode": "33139", "addr:state": "FL", "amenity": "post_box", "brand": "United States Postal Service", "brand:wikidata": "Q668687", "collection_times": "Mo-Sa 13:00", "name": "USPS COLLECTION BOX - BLUE BOX", "note": "ON 12/24 AND 12/31, THIS BOX MAY BE COLLECTED AS EARLY AS 12 NOON.", "nsi_id": "unitedstatespostalservice-a77078", "operator": "United States Postal Service", "operator:short": "USPS", "operator:type": "public", "operator:wikidata": "Q668687", "ref": "3313900052"}, "type": "Feature"}
{"dataset_attributes": {"@spider": "usps_collection_boxes"}, "geometry": {"coordinates": [-80.1364185, 25.79238], "type": "Point"}, "id": "Osl9F1i5pCNVVWf6pUF_Szy3590=", "properties": {"@spider": "usps_collection_boxes", "addr:city": "MIAMI BEACH", "addr:country": "US", "addr:full": "777 17TH ST", "addr:postcode": "33139", "addr:state": "FL", "amenity": "post_box", "brand": "United States Postal Service", "brand:wikidata": "Q668687", "collection_times": "Mo-Sa 13:30", "name": "USPS COLLECTION BOX - BLUE BOX", "note": "ON 12/24 AND 12/31, THIS BOX MAY BE COLLECTED AS EARLY AS 12 NOON.", "nsi_id": "unitedstatespostalservice-a77078", "operator": "United States Postal Service", "operator:short": "USPS", "operator:type": "public", "operator:wikidata": "Q668687", "ref": "3313900055"}, "type": "Feature"}
{"dataset_attributes": {"@spider": "usps_collection_boxes"}, "geometry": {"coordinates": [-80.133272103, 25.779099614], "type": "Point"}, "id": "Yp-j9a55fpNBu4iuu4eI4d8XV9w=", "properties": {"@spider": "usps_collection_boxes", "addr:city": "MIAMI BEACH", "addr:country": "US", "addr:full": "890 WASHINGTON AVE", "addr:postcode": "33139", "addr:state": "FL", "amenity": "post_box", "brand": "United States Postal Service", "brand:wikidata": "Q668687", "collection_times": "Mo-Sa 13:00", "name": "USPS COLLECTION BOX - BLUE BOX", "note": "ON 12/24 AND 12/31, THIS BOX MAY BE COLLECTED AS EARLY AS 12 NOON.", "nsi_id": "unitedstatespostalservice-a77078", "operator": "United States Postal Service", "operator:short": "USPS", "operator:type": "public", "operator:wikidata": "Q668687", "ref": "3313900061"}, "type": "Feature"}
{"dataset_attributes": {"@spider": "usps_collection_boxes"}, "geometry": {"coordinates": [-80.137264047, 25.77605422], "type": "Point"}, "id": "Pc-d90WGYLDyhy31kUv3jKsAY4w=", "properties": {"@spider": "usps_collection_boxes", "addr:city": "MIAMI BEACH", "addr:country": "US", "addr:full": "610 JEFFERSON AVE", "addr:postcode": "33139", "addr:state": "FL", "amenity": "post_box", "brand": "United States Postal Service", "brand:wikidata": "Q668687", "collection_times": "Mo-Sa 15:00", "name": "USPS COLLECTION BOX - BLUE BOX", "note": "ON 12/24 AND 12/31, THIS BOX MAY BE COLLECTED AS EARLY AS 12 NOON.", "nsi_id": "unitedstatespostalservice-a77078", "operator": "United States Postal Service", "operator:short": "USPS", "operator:type": "public", "operator:wikidata": "Q668687", "ref": "3313900063"}, "type": "Feature"}
{"dataset_attributes": {"@spider": "usps_collection_boxes"}, "geometry": {"coordinates": [-80.135939485, 25.77153578], "type": "Point"}, "id": "kszmeE1J7dddPKXSXv1h4Y2ixxE=", "properties": {"@spider": "usps_collection_boxes", "addr:city": "MIAMI BEACH", "addr:country": "US", "addr:full": "221 MERIDIAN AVE", "addr:postcode": "33139", "addr:state": "FL", "amenity": "post_box", "brand": "United States Postal Service", "brand:wikidata": "Q668687", "collection_times": "Mo-Sa 13:00", "name": "USPS COLLECTION BOX - BLUE BOX", "note": "ON 12/24 AND 12/31, THIS BOX MAY BE COLLECTED AS EARLY AS 12 NOON.", "nsi_id": "unitedstatespostalservice-a77078", "operator": "United States Postal Service", "operator:short": "USPS", "operator:type": "public", "operator:wikidata": "Q668687", "ref": "3313900064"}, "type": "Feature"}
{"dataset_attributes": {"@spider": "usps_collection_boxes"}, "geometry": {"coordinates": [-80.1317397043, 25.7906217043], "type": "Point"}, "id": "nIlq7G-RQkXNmhlx2HjuLiheMys=", "properties": {"@spider": "usps_collection_boxes", "addr:city": "MIAMI BEACH", "addr:country": "US", "addr:full": "1649 WASHINGTON AVE", "addr:postcode": "33139", "addr:state": "FL", "amenity": "post_box", "brand": "United States Postal Service", "brand:wikidata": "Q668687", "collection_times": "Mo-Sa 12:45", "name": "USPS COLLECTION BOX - BLUE BOX", "note": "ON 12/24 AND 12/31, THIS BOX MAY BE COLLECTED AS EARLY AS 12 NOON.", "nsi_id": "unitedstatespostalservice-a77078", "operator": "United States Postal Service", "operator:short": "USPS", "operator:type": "public", "operator:wikidata": "Q668687", "ref": "3313900068"}, "type": "Feature"}
{"dataset_attributes": {"@spider": "usps_collection_boxes"}, "geometry": {"coordinates": [-80.136280341, 25.791149044], "type": "Point"}, "id": "gIS-UXaBiJUSkQ9O-swxJmRIluk=", "properties": {"@spider": "usps_collection_boxes", "addr:city": "MIAMI BEACH", "addr:country": "US", "addr:full": "749 LINCOLN RD", "addr:postcode": "33139", "addr:state": "FL", "amenity": "post_box", "brand": "United States Postal Service", "brand:wikidata": "Q668687", "collection_times": "Mo-Sa 12:00", "name": "USPS COLLECTION BOX - BLUE BOX", "nsi_id": "unitedstatespostalservice-a77078", "operator": "United States Postal Service", "operator:short": "USPS", "operator:type": "public", "operator:wikidata": "Q668687", "ref": "3313900070"}, "type": "Feature"}
{"dataset_attributes": {"@spider": "usps_collection_boxes"}, "geometry": {"coordinates": [-80.13963301, 25.772468809], "type": "Point"}, "id": "8KH5BOKsmjPqMiDxA0-2ZwN-HI0=", "properties": {"@spider": "usps_collection_boxes", "addr:city": "MIAMI BEACH", "addr:country": "US", "addr:full": "300 ALTON RD", "addr:postcode": "33139", "addr:state": "FL", "amenity": "post_box", "brand": "United States Postal Service", "brand:wikidata": "Q668687", "collection_times": "Mo-Sa 11:00", "name": "USPS COLLECTION BOX - BLUE BOX", "nsi_id": "unitedstatespostalservice-a77078", "operator": "United States Postal Service", "operator:short": "USPS", "operator:type": "public", "operator:wikidata": "Q668687", "ref": "3313900089"}, "type": "Feature"}
{"dataset_attributes": {"@spider": "usps_collection_boxes"}, "geometry": {"coordinates": [-80.140972026, 25.78195075], "type": "Point"}, "id": "5-6llB9TKcj7i3E2eqdzrTsBSXw=", "properties": {"@spider": "usps_collection_boxes", "addr:city": "MIAMI BEACH", "addr:country": "US", "addr:full": "1100 ALTON RD", "addr:postcode": "33139", "addr:state": "FL", "amenity": "post_box", "brand": "United States Postal Service", "brand:wikidata": "Q668687", "collection_times": "Mo-Sa 13:00", "name": "USPS COLLECTION BOX - BLUE BOX", "note": "ON 12/24 AND 12/31, THIS BOX MAY BE COLLECTED AS EARLY AS 12 NOON.", "nsi_id": "unitedstatespostalservice-a77078", "operator": "United States Postal Service", "operator:short": "USPS", "operator:type": "public", "operator:wikidata": "Q668687", "ref": "3313900092"}, "type": "Feature"}
{"dataset_attributes": {"@spider": "usps_collection_boxes"}, "geometry": {"coordinates": [-80.132171639, 25.784486319], "type": "Point"}, "id": "SngeQH5gONdG__TG7XpjIRs0UiY=", "properties": {"@spider": "usps_collection_boxes", "addr:city": "MIAMI BEACH", "addr:country": "US", "addr:full": "1300 WASHINGTON AVE", "addr:postcode": "33139", "addr:state": "FL", "amenity": "post_box", "brand": "United States Postal Service", "brand:wikidata": "Q668687", "collection_times": "Mo-Fr 18:00; Sa 17:00", "name": "USPS COLLECTION BOX - PO LOBBY", "note": "ON 12/24 AND 12/31, THIS BOX MAY BE COLLECTED AS EARLY AS 12 NOON.", "nsi_id": "unitedstatespostalservice-a77078", "operator": "United States Postal Service", "operator:short": "USPS", "operator:type": "public", "operator:wikidata": "Q668687", "ref": "3313900093"}, "type": "Feature"}
{"dataset_attributes": {"@spider": "usps_collection_boxes"}, "geometry": {"coordinates": [-80.14242946, 25.790886031], "type": "Point"}, "id": "ZaPqQRsZiKDwvnp_gl9oDz0LQhI=", "properties": {"@spider": "usps_collection_boxes", "addr:city": "MIAMI BEACH", "addr:country": "US", "addr:full": "1661 WEST AVE", "addr:postcode": "33139", "addr:state": "FL", "amenity": "post_box", "brand": "United States Postal Service", "brand:wikidata": "Q668687", "collection_times": "Mo-Fr 17:00", "name": "USPS COLLECTION BOX - PO LOBBY", "note": "ON 12/24 AND 12/31, THIS BOX MAY BE COLLECTED AS EARLY AS 12 NOON.", "nsi_id": "unitedstatespostalservice-a77078", "operator": "United States Postal Service", "operator:short": "USPS", "operator:type": "public", "operator:wikidata": "Q668687", "ref": "3313900094"}, "type": "Feature"}
{"dataset_attributes": {"@spider": "usps_collection_boxes"}, "geometry": {"coordinates": [-80.132171639, 25.784486319], "type": "Point"}, "id": "YBhX6KCg7_J5k7DB2HGdsl3ZGB4=", "properties": {"@spider": "usps_collection_boxes", "addr:city": "MIAMI BEACH", "addr:country": "US", "addr:full": "1300 WASHINGTON AVE", "addr:postcode": "33139", "addr:state": "FL", "amenity": "post_box", "brand": "United States Postal Service", "brand:wikidata": "Q668687", "collection_times": "Mo-Fr 18:00; Sa 17:00", "name": "USPS COLLECTION BOX - BLUE BOX", "note": "ON 12/24 AND 12/31, THIS BOX MAY BE COLLECTED AS EARLY AS 12 NOON.", "nsi_id": "unitedstatespostalservice-a77078", "operator": "United States Postal Service", "operator:short": "USPS", "operator:type": "public", "operator:wikidata": "Q668687", "ref": "3313900096"}, "type": "Feature"}
{"dataset_attributes": {"@spider": "usps_collection_boxes"}, "geometry": {"coordinates": [-80.1288855, 25.793775], "type": "Point"}, "id": "CmzBK0wVoblohnpejn5xNFXRAPs=", "properties": {"@spider": "usps_collection_boxes", "addr:city": "MIAMI BEACH", "addr:country": "US", "addr:full": "1775 COLLINS AVE", "addr:postcode": "33139", "addr:state": "FL", "amenity": "post_box", "brand": "United States Postal Service", "brand:wikidata": "Q668687", "collection_times": "Mo-Sa 12:30", "name": "USPS COLLECTION BOX - BLUE BOX", "note": "ON 12/24 AND 12/31, THIS BOX MAY BE COLLECTED AS EARLY AS 12 NOON.", "nsi_id": "unitedstatespostalservice-a77078", "operator": "United States Postal Service", "operator:short": "USPS", "operator:type": "public", "operator:wikidata": "Q668687", "ref": "3313900097"}, "type": "Feature"}
{"dataset_attributes": {"@spider": "usps_collection_boxes"}, "geometry": {"coordinates": [-80.1367127318, 25.7953280291], "type": "Point"}, "id": "p3Et9h3gqgoEYHe2_XrkJMXoQRo=", "properties": {"@spider": "usps_collection_boxes", "addr:city": "MIAMI BEACH", "addr:country": "US", "addr:full": "1920 MERIDIAN AVE", "addr:postcode": "33139", "addr:state": "FL", "amenity": "post_box", "brand": "United States Postal Service", "brand:wikidata": "Q668687", "collection_times": "Mo-Fr 13:00", "name": "USPS COLLECTION BOX - BLUE BOX", "note": "ON 12/24 AND 12/31, THIS BOX MAY BE COLLECTED AS EARLY AS 12 NOON.", "nsi_id": "unitedstatespostalservice-a77078", "operator": "United States Postal Service", "operator:short": "USPS", "operator:type": "public", "operator:wikidata": "Q668687", "ref": "3313900100"}, "type": "Feature"}
{"dataset_attributes": {"@spider": "usps_collection_boxes"}, "geometry": {"coordinates": [-80.132171639, 25.784486319], "type": "Point"}, "id": "EVhC83Akt8s3rs2CrcZoXXh-D_k=", "properties": {"@spider": "usps_collection_boxes", "addr:city": "MIAMI BEACH", "addr:country": "US", "addr:full": "1300 WASHINGTON AVE", "addr:postcode": "33139", "addr:state": "FL", "amenity": "post_box", "brand": "United States Postal Service", "brand:wikidata": "Q668687", "collection_times": "Mo-Fr 17:00; Sa 14:00", "name": "USPS COLLECTION BOX - PO LOBBY", "note": "ON 12/24 AND 12/31, THIS BOX MAY BE COLLECTED AS EARLY AS 12 NOON.", "nsi_id": "unitedstatespostalservice-a77078", "operator": "United States Postal Service", "operator:short": "USPS", "operator:type": "public", "operator:wikidata": "Q668687", "ref": "3313900119"}, "type": "Feature"}
{"dataset_attributes": {"@spider": "usps_collection_boxes"}, "geometry": {"coordinates": [-80.14242946, 25.790886031], "type": "Point"}, "id": "T3NdlQRqmP4zNoMaVdGJRiof6n4=", "properties": {"@spider": "usps_collection_boxes", "addr:city": "MIAMI BEACH", "addr:country": "US", "addr:full": "1661 WEST AVE", "addr:postcode": "33139", "addr:state": "FL", "amenity": "post_box", "brand": "United States Postal Service", "brand:wikidata": "Q668687", "collection_times": "Mo-Fr 17:30", "name": "USPS COLLECTION BOX - PO LOBBY", "note": "ON 12/24 AND 12/31, THIS BOX MAY BE COLLECTED AS EARLY AS 12 NOON.", "nsi_id": "unitedstatespostalservice-a77078", "operator": "United States Postal Service", "operator:short": "USPS", "operator:type": "public", "operator:wikidata": "Q668687", "ref": "3313900120"}, "type": "Feature"}
{"dataset_attributes": {"@spider": "usps_collection_boxes"}, "geometry": {"coordinates": [-80.128557797, 25.812866355], "type": "Point"}, "id": "jEPow7RYabqmUC37c14hm-PcD4o=", "properties": {"@spider": "usps_collection_boxes", "addr:city": "MIAMI BEACH", "addr:country": "US", "addr:full": "445 W 40TH ST", "addr:postcode": "33140", "addr:state": "FL", "amenity": "post_box", "brand": "United States Postal Service", "brand:wikidata": "Q668687", "collection_times": "Mo-Fr 17:00; Sa 15:00", "name": "USPS COLLECTION BOX - BLUE BOX", "note": "ON 12/24 AND 12/31, THIS BOX MAY BE COLLECTED AS EARLY AS 12 NOON.", "nsi_id": "unitedstatespostalservice-a77078", "operator": "United States Postal Service", "operator:short": "USPS", "operator:type": "public", "operator:wikidata": "Q668687", "ref": "3314000001"}, "type": "Feature"}
{"dataset_attributes": {"@spider": "usps_collection_boxes"}, "geometry": {"coordinates": [-80.1321133754, 25.8256199045], "type": "Point"}, "id": "GVkvVHpPKwQJzsRXbJkRcldUOok=", "properties": {"@spider": "usps_collection_boxes", "addr:city": "MIAMI BEACH", "addr:country": "US", "addr:full": "880 LAKEVIEW DR", "addr:postcode": "33140", "addr:state": "FL", "amenity": "post_box", "brand": "United States Postal Service", "brand:wikidata": "Q668687", "collection_times": "Mo-Fr 13:00; Sa 10:30", "name": "USPS COLLECTION BOX - BLUE BOX", "note": "ON 12/24 AND 12/31, THIS BOX MAY BE COLLECTED AS EARLY AS 12 NOON.", "nsi_id": "unitedstatespostalservice-a77078", "operator": "United States Postal Service", "operator:short": "USPS", "operator:type": "public", "operator:wikidata": "Q668687", "ref": "3314000005"}, "type": "Feature"}
{"dataset_attributes": {"@spider": "usps_collection_boxes"}, "geometry": {"coordinates": [-80.12602854, 25.82193654], "type": "Point"}, "id": "ImeRKTP6_c78uiZx_o7CDrYX4Ww=", "properties": {"@spider": "usps_collection_boxes", "addr:city": "MIAMI BEACH", "addr:country": "US", "addr:full": "301 W 47TH ST", "addr:postcode": "33140", "addr:state": "FL", "amenity": "post_box", "brand": "United States Postal Service", "brand:wikidata": "Q668687", "collection_times": "Mo-Sa 13:00", "name": "USPS COLLECTION BOX - BLUE BOX", "note": "ON 12/24 AND 12/31, THIS BOX MAY BE COLLECTED AS EARLY AS 12 NOON.", "nsi_id": "unitedstatespostalservice-a77078", "operator": "United States Postal Service", "operator:short": "USPS", "operator:type": "public", "operator:wikidata": "Q668687", "ref": "3314000006"}, "type": "Feature"}
{"dataset_attributes": {"@spider": "usps_collection_boxes"}, "geometry": {"coordinates": [-80.1243817419, 25.8318733303], "type": "Point"}, "id": "bDGSQBB444VVRhcNeUVsQ9C_3CU=", "properties": {"@spider": "usps_collection_boxes", "addr:city": "MIAMI BEACH", "addr:country": "US", "addr:full": "5400 PINE TREE DR", "addr:postcode": "33140", "addr:state": "FL", "amenity": "post_box", "brand": "United States Postal Service", "brand:wikidata": "Q668687", "collection_times": "Mo-Sa 13:00", "name": "USPS COLLECTION BOX - BLUE BOX", "note": "ON 12/24 AND 12/31, THIS BOX MAY BE COLLECTED AS EARLY AS 12 NOON.", "nsi_id": "unitedstatespostalservice-a77078", "operator": "United States Postal Service", "operator:short": "USPS", "operator:type": "public", "operator:wikidata": "Q668687", "ref": "3314000007"}, "type": "Feature"}
{"dataset_attributes": {"@spider": "usps_collection_boxes"}, "geometry": {"coordinates": [-80.138844522, 25.805528644], "type": "Point"}, "id": "eHjQdyNM75uo9wH7FrU5o7USoGU=", "properties": {"@spider": "usps_collection_boxes", "addr:city": "MIAMI BEACH", "addr:country": "US", "addr:full": "2902 ALTON RD", "addr:postcode": "33140", "addr:state": "FL", "amenity": "post_box", "brand": "United States Postal Service", "brand:wikidata": "Q668687", "collection_times": "Mo-Sa 15:00", "name": "USPS COLLECTION BOX - BLUE BOX", "note": "ON 12/24 AND 12/31, THIS BOX MAY BE COLLECTED AS EARLY AS 12 NOON.", "nsi_id": "unitedstatespostalservice-a77078", "operator": "United States Postal Service", "operator:short": "USPS", "operator:type": "public", "operator:wikidata": "Q668687", "ref": "3314000011"}, "type": "Feature"}
{"dataset_attributes": {"@spider": "usps_collection_boxes"}, "geometry": {"coordinates": [-80.124963997, 25.8040830008], "type": "Point"}, "id": "QoOza6gdP1_Te5uEksMXRyS635I=", "properties": {"@spider": "usps_collection_boxes", "addr:city": "MIAMI BEACH", "addr:country": "US", "addr:full": "2897 COLLINS AVE", "addr:postcode": "33140", "addr:state": "FL", "amenity": "post_box", "brand": "United States Postal Service", "brand:wikidata": "Q668687", "collection_times": "Mo-Sa 13:00", "name": "USPS COLLECTION BOX - BLUE BOX", "note": "ON 12/24 AND 12/31, THIS BOX MAY BE COLLECTED AS EARLY AS 12 NOON.", "nsi_id": "unitedstatespostalservice-a77078", "operator": "United States Postal Service", "operator:short": "USPS", "operator:type": "public", "operator:wikidata": "Q668687", "ref": "3314000015"}, "type": "Feature"}
{"dataset_attributes": {"@spider": "usps_collection_boxes"}, "geometry": {"coordinates": [-80.122790057, 25.814298741], "type": "Point"}, "id": "7e_-lCrWBHYmSkn0VADCxX_dBU4=", "properties": {"@spider": "usps_collection_boxes", "addr:city": "MIAMI BEACH", "addr:country": "US", "addr:full": "4299 COLLINS AVE", "addr:postcode": "33140", "addr:state": "FL", "amenity": "post_box", "brand": "United States Postal Service", "brand:wikidata": "Q668687", "collection_times": "Mo-Sa 10:30", "name": "USPS COLLECTION BOX - BLUE BOX", "nsi_id": "unitedstatespostalservice-a77078", "operator": "United States Postal Service", "operator:short": "USPS", "operator:type": "public", "operator:wikidata": "Q668687", "ref": "3314000020"}, "type": "Feature"}
{"dataset_attributes": {"@spider": "usps_collection_boxes"}, "geometry": {"coordinates": [-80.12743502, 25.813726121], "type": "Point"}, "id": "3E8l6RzhKQTRh7easLkWfIgraBU=", "properties": {"@spider": "usps_collection_boxes", "addr:city": "MIAMI BEACH", "addr:country": "US", "addr:full": "360 ARTHUR GODFREY RD", "addr:postcode": "33140", "addr:state": "FL", "amenity": "post_box", "brand": "United States Postal Service", "brand:wikidata": "Q668687", "collection_times": "Mo-Fr 17:00; Sa 13:00", "name": "USPS COLLECTION BOX - BLUE BOX", "note": "ON 12/24 AND 12/31, THIS BOX MAY BE COLLECTED AS EARLY AS 12 NOON.", "nsi_id": "unitedstatespostalservice-a77078", "operator": "United States Postal Service", "operator:short": "USPS", "operator:type": "public", "operator:wikidata": "Q668687", "ref": "3314000021"}, "type": "Feature"}
{"dataset_attributes": {"@spider": "usps_collection_boxes"}, "geometry": {"coordinates": [-80.1314741637, 25.8138285023], "type": "Point"}, "id": "JKnGQSpb_3W7LnCz2fxmlA8sfj4=", "properties": {"@spider": "usps_collection_boxes", "addr:city": "MIAMI BEACH", "addr:country": "US", "addr:full": "700 ARTHUR GODFREY RD", "addr:postcode": "33140", "addr:state": "FL", "amenity": "post_box", "brand": "United States Postal Service", "brand:wikidata": "Q668687", "collection_times": "Mo-Sa 10:00", "name": "USPS COLLECTION BOX - BLUE BOX", "nsi_id": "unitedstatespostalservice-a77078", "operator": "United States Postal Service", "operator:short": "USPS", "operator:type": "public", "operator:wikidata": "Q668687", "ref": "3314000022"}, "type": "Feature"}
{"dataset_attributes": {"@spider": "usps_collection_boxes"}, "geometry": {"coordinates": [-80.135369429, 25.813181628], "type": "Point"}, "id": "IIpWP-ieXS1-UZhsDWcp-WSN-4s=", "properties": {"@spider": "usps_collection_boxes", "addr:city": "MIAMI BEACH", "addr:country": "US", "addr:full": "975 ARTHUR GODFREY RD", "addr:postcode": "33140", "addr:state": "FL", "amenity": "post_box", "brand": "United States Postal Service", "brand:wikidata": "Q668687", "collection_times": "Mo-Fr 17:00; Sa 13:00", "name": "USPS COLLECTION BOX - BLUE BOX", "note": "ON 12/24 AND 12/31, THIS BOX MAY BE COLLECTED AS EARLY AS 12 NOON.", "nsi_id": "unitedstatespostalservice-a77078", "operator": "United States Postal Service", "operator:short": "USPS", "operator:type": "public", "operator:wikidata": "Q668687", "ref": "3314000030"}, "type": "Feature"}
{"dataset_attributes": {"@spider": "usps_collection_boxes"}, "geometry": {"coordinates": [-80.139522457, 25.814280657], "type": "Point"}, "id": "OxrPD4nFROyXf8ndEE6S67wDnM0=", "properties": {"@spider": "usps_collection_boxes", "addr:city": "MIAMI BEACH", "addr:country": "US", "addr:full": "4302 ALTON RD", "addr:postcode": "33140", "addr:state": "FL", "amenity": "post_box", "brand": "United States Postal Service", "brand:wikidata": "Q668687", "collection_times": "Mo-Sa 13:00", "name": "USPS COLLECTION BOX - BLUE BOX", "note": "ON 12/24 AND 12/31, THIS BOX MAY BE COLLECTED AS EARLY AS 12 NOON.", "nsi_id": "unitedstatespostalservice-a77078", "operator": "United States Postal Service", "operator:short": "USPS", "operator:type": "public", "operator:wikidata": "Q668687", "ref": "3314000031"}, "type": "Feature"}
{"dataset_attributes": {"@spider": "usps_collection_boxes"}, "geometry": {"coordinates": [-80.1258219686, 25.8024929957], "type": "Point"}, "id": "Do-jD1mqy2O4bBnH6xl6Q31skIs=", "properties": {"@spider": "usps_collection_boxes", "addr:city": "MIAMI BEACH", "addr:country": "US", "addr:full": "2601 COLLINS AVE", "addr:postcode": "33140", "addr:state": "FL", "amenity": "post_box", "brand": "United States Postal Service", "brand:wikidata": "Q668687", "collection_times": "Mo-Sa 13:00", "name": "USPS COLLECTION BOX - BLUE BOX", "note": "ON 12/24 AND 12/31, THIS BOX MAY BE COLLECTED AS EARLY AS 12 NOON.", "nsi_id": "unitedstatespostalservice-a77078", "operator": "United States Postal Service", "operator:short": "USPS", "operator:type": "public", "operator:wikidata": "Q668687", "ref": "3314000034"}, "type": "Feature"}
{"dataset_attributes": {"@spider": "usps_collection_boxes"}, "geometry": {"coordinates": [-80.1289201938, 25.8333576814], "type": "Point"}, "id": "AZm9C3caupNfrnHAMA339XxCpk8=", "properties": {"@spider": "usps_collection_boxes", "addr:city": "MIAMI BEACH", "addr:country": "US", "addr:full": "5400 ALTON RD", "addr:postcode": "33140", "addr:state": "FL", "amenity": "post_box", "brand": "United States Postal Service", "brand:wikidata": "Q668687", "collection_times": "Mo-Sa 13:00", "name": "USPS COLLECTION BOX - BLUE BOX", "note": "ON 12/24 AND 12/31, THIS BOX MAY BE COLLECTED AS EARLY AS 12 NOON.", "nsi_id": "unitedstatespostalservice-a77078", "operator": "United States Postal Service", "operator:short": "USPS", "operator:type": "public", "operator:wikidata": "Q668687", "ref": "3314000036"}, "type": "Feature"}
{"dataset_attributes": {"@spider": "usps_collection_boxes"}, "geometry": {"coordinates": [-80.128557797, 25.812866355], "type": "Point"}, "id": "8ZQlrQ_TKgexmmHBwPa8CL9Cdd8=", "properties": {"@spider": "usps_collection_boxes", "addr:city": "MIAMI BEACH", "addr:country": "US", "addr:full": "445 W 40TH ST", "addr:postcode": "33140", "addr:state": "FL", "amenity": "post_box", "brand": "United States Postal Service", "brand:wikidata": "Q668687", "collection_times": "Mo-Fr 17:00; Sa 14:00", "name": "USPS COLLECTION BOX - PO LOBBY", "note": "ON 12/24 AND 12/31, THIS BOX MAY BE COLLECTED AS EARLY AS 12 NOON.", "nsi_id": "unitedstatespostalservice-a77078", "operator": "United States Postal Service", "operator:short": "USPS", "operator:type": "public", "operator:wikidata": "Q668687", "ref": "3314000076"}, "type": "Feature"}
{"dataset_attributes": {"@spider": "usps_collection_boxes"}, "geometry": {"coordinates": [-80.1285577966, 25.812866355], "type": "Point"}, "id": "UoJucXgD0mTghSRXV0nGywhQjVc=", "properties": {"@spider": "usps_collection_boxes", "addr:city": "MIAMI BEACH", "addr:country": "US", "addr:full": "445 W 40TH ST", "addr:postcode": "33140", "addr:state": "FL", "amenity": "post_box", "brand": "United States Postal Service", "brand:wikidata": "Q668687", "collection_times": "Mo-Fr 17:00; Sa 15:00", "name": "USPS COLLECTION BOX - PO LOBBY", "note": "ON 12/24 AND 12/31, THIS BOX MAY BE COLLECTED AS EARLY AS 12 NOON.", "nsi_id": "unitedstatespostalservice-a77078", "operator": "United States Postal Service", "operator:short": "USPS", "operator:type": "public", "operator:wikidata": "Q668687", "ref": "3314000077"}, "type": "Feature"}
{"dataset_attributes": {"@spider": "usps_collection_boxes"}, "geometry": {"coordinates": [-80.120880687, 25.858976033], "type": "Point"}, "id": "AfmjuyAq9kHitN-Y9n0IIjOphes=", "properties": {"@spider": "usps_collection_boxes", "addr:city": "NORTH BAY VLG", "addr:country": "US", "addr:full": "7349 COLLINS AVE", "addr:postcode": "33141", "addr:state": "FL", "amenity": "post_box", "brand": "United States Postal Service", "brand:wikidata": "Q668687", "collection_times": "Mo-Sa 13:00", "name": "USPS COLLECTION BOX - BLUE BOX", "note": "ON 12/24 AND 12/31, THIS BOX MAY BE COLLECTED AS EARLY AS 12 NOON.", "nsi_id": "unitedstatespostalservice-a77078", "operator": "United States Postal Service", "operator:short": "USPS", "operator:type": "public", "operator:wikidata": "Q668687", "ref": "3314100005"}, "type": "Feature"}
{"dataset_attributes": {"@spider": "usps_collection_boxes"}, "geometry": {"coordinates": [-80.122312062, 25.867818388], "type": "Point"}, "id": "tSlXfrudNagc8QPhvkULz9qi-SI=", "properties": {"@spider": "usps_collection_boxes", "addr:city": "NORTH BAY VLG", "addr:country": "US", "addr:full": "8250 HARDING AVE", "addr:postcode": "33141", "addr:state": "FL", "amenity": "post_box", "brand": "United States Postal Service", "brand:wikidata": "Q668687", "collection_times": "Mo-Sa 13:00", "name": "USPS COLLECTION BOX - BLUE BOX", "note": "ON 12/24 AND 12/31, THIS BOX MAY BE COLLECTED AS EARLY AS 12 NOON.", "nsi_id": "unitedstatespostalservice-a77078", "operator": "United States Postal Service", "operator:short": "USPS", "operator:type": "public", "operator:wikidata": "Q668687", "ref": "3314100013"}, "type": "Feature"}
{"dataset_attributes": {"@spider": "usps_collection_boxes"}, "geometry": {"coordinates": [-80.12683748, 25.85840793], "type": "Point"}, "id": "4VS0pA-mVol60DdgPyyEnvPfCG4=", "properties": {"@spider": "usps_collection_boxes", "addr:city": "NORTH BAY VLG", "addr:country": "US", "addr:full": "7300 WAYNE AVE", "addr:postcode": "33141", "addr:state": "FL", "amenity": "post_box", "brand": "United States Postal Service", "brand:wikidata": "Q668687", "collection_times": "Mo-Sa 13:00", "name": "USPS COLLECTION BOX - BLUE BOX", "note": "ON 12/24 AND 12/31, THIS BOX MAY BE COLLECTED AS EARLY AS 12 NOON.", "nsi_id": "unitedstatespostalservice-a77078", "operator": "United States Postal Service", "operator:short": "USPS", "operator:type": "public", "operator:wikidata": "Q668687", "ref": "3314100021"}, "type": "Feature"}
{"dataset_attributes": {"@spider": "usps_collection_boxes"}, "geometry": {"coordinates": [-80.121431456, 25.854280586], "type": "Point"}, "id": "EC1y00EAXMKK1rT5cnQxjjUEYM0=", "properties": {"@spider": "usps_collection_boxes", "addr:city": "NORTH BAY VLG", "addr:country": "US", "addr:full": "301 69TH ST", "addr:postcode": "33141", "addr:state": "FL", "amenity": "post_box", "brand": "United States Postal Service", "brand:wikidata": "Q668687", "collection_times": "Mo-Sa 13:00", "name": "USPS COLLECTION BOX - BLUE BOX", "note": "ON 12/24 AND 12/31, THIS BOX MAY BE COLLECTED AS EARLY AS 12 NOON.", "nsi_id": "unitedstatespostalservice-a77078", "operator": "United States Postal Service", "operator:short": "USPS", "operator:type": "public", "operator:wikidata": "Q668687", "ref": "3314100022"}, "type": "Feature"}
{"dataset_attributes": {"@spider": "usps_collection_boxes"}, "geometry": {"coordinates": [-80.12744239, 25.847002687], "type": "Point"}, "id": "j4AUZ7fJ8gG5ngN38VzaW-03dX8=", "properties": {"@spider": "usps_collection_boxes", "addr:city": "NORTH BAY VLG", "addr:country": "US", "addr:full": "6595 PINETREE LN", "addr:postcode": "33141", "addr:state": "FL", "amenity": "post_box", "brand": "United States Postal Service", "brand:wikidata": "Q668687", "collection_times": "Mo-Sa 13:00", "name": "USPS COLLECTION BOX - BLUE BOX", "note": "ON 12/24 AND 12/31, THIS BOX MAY BE COLLECTED AS EARLY AS 12 NOON.", "nsi_id": "unitedstatespostalservice-a77078", "operator": "United States Postal Service", "operator:short": "USPS", "operator:type": "public", "operator:wikidata": "Q668687", "ref": "3314100027"}, "type": "Feature"}
{"dataset_attributes": {"@spider": "usps_collection_boxes"}, "geometry": {"coordinates": [-80.129626965, 25.858254016], "type": "Point"}, "id": "q118GhoxS8_8s6HBjzYp5JuTM3w=", "properties": {"@spider": "usps_collection_boxes", "addr:city": "NORTH BAY VLG", "addr:country": "US", "addr:full": "105 N SHORE DR", "addr:postcode": "33141", "addr:state": "FL", "amenity": "post_box", "brand": "United States Postal Service", "brand:wikidata": "Q668687", "collection_times": "Mo-Sa 13:00", "name": "USPS COLLECTION BOX - BLUE BOX", "note": "ON 12/24 AND 12/31, THIS BOX MAY BE COLLECTED AS EARLY AS 12 NOON.", "nsi_id": "unitedstatespostalservice-a77078", "operator": "United States Postal Service", "operator:short": "USPS", "operator:type": "public", "operator:wikidata": "Q668687", "ref": "3314100032"}, "type": "Feature"}
{"dataset_attributes": {"@spider": "usps_collection_boxes"}, "geometry": {"coordinates": [-80.14397608, 25.853069338], "type": "Point"}, "id": "d9VaQEPXsjUHrn6JwZ2ULpgssGc=", "properties": {"@spider": "usps_collection_boxes", "addr:city": "NORTH BAY VLG", "addr:country": "US", "addr:full": "2200 CALAIS DR", "addr:postcode": "33141", "addr:state": "FL", "amenity": "post_box", "brand": "United States Postal Service", "brand:wikidata": "Q668687", "collection_times": "Mo-Sa 13:00", "name": "USPS COLLECTION BOX - BLUE BOX", "note": "ON 12/24 AND 12/31, THIS BOX MAY BE COLLECTED AS EARLY AS 12 NOON.", "nsi_id": "unitedstatespostalservice-a77078", "operator": "United States Postal Service", "operator:short": "USPS", "operator:type": "public", "operator:wikidata": "Q668687", "ref": "3314100036"}, "type": "Feature"}
{"dataset_attributes": {"@spider": "usps_collection_boxes"}, "geometry": {"coordinates": [-80.140333081, 25.851310536], "type": "Point"}, "id": "ctyBs_Hg5NctxhkF1Mc1MExOQe0=", "properties": {"@spider": "usps_collection_boxes", "addr:city": "NORTH BAY VLG", "addr:country": "US", "addr:full": "1930 71ST ST", "addr:postcode": "33141", "addr:state": "FL", "amenity": "post_box", "brand": "United States Postal Service", "brand:wikidata": "Q668687", "collection_times": "Mo-Sa 13:00", "name": "USPS COLLECTION BOX - BLUE BOX", "note": "ON 12/24 AND 12/31, THIS BOX MAY BE COLLECTED AS EARLY AS 12 NOON.", "nsi_id": "unitedstatespostalservice-a77078", "operator": "United States Postal Service", "operator:short": "USPS", "operator:type": "public", "operator:wikidata": "Q668687", "ref": "3314100037"}, "type": "Feature"}
{"dataset_attributes": {"@spider": "usps_collection_boxes"}, "geometry": {"coordinates": [-80.128064872, 25.855766111], "type": "Point"}, "id": "wRk7_86QxzbDuIWIuLVhSIpA30Y=", "properties": {"@spider": "usps_collection_boxes", "addr:city": "NORTH BAY VLG", "addr:country": "US", "addr:full": "904 71ST ST", "addr:postcode": "33141", "addr:state": "FL", "amenity": "post_box", "brand": "United States Postal Service", "brand:wikidata": "Q668687", "collection_times": "Mo-Sa 13:00", "name": "USPS COLLECTION BOX - BLUE BOX", "note": "ON 12/24 AND 12/31, THIS BOX MAY BE COLLECTED AS EARLY AS 12 NOON.", "nsi_id": "unitedstatespostalservice-a77078", "operator": "United States Postal Service", "operator:short": "USPS", "operator:type": "public", "operator:wikidata": "Q668687", "ref": "3314100040"}, "type": "Feature"}
{"dataset_attributes": {"@spider": "usps_collection_boxes"}, "geometry": {"coordinates": [-80.130383256, 25.855711395], "type": "Point"}, "id": "pJZCmG9L58D3Iqi_3DNnIUIUys4=", "properties": {"@spider": "usps_collection_boxes", "addr:city": "NORTH BAY VLG", "addr:country": "US", "addr:full": "1133 NORMANDY DR", "addr:postcode": "33141", "addr:state": "FL", "amenity": "post_box", "brand": "United States Postal Service", "brand:wikidata": "Q668687", "collection_times": "Mo-Sa 13:00", "name": "USPS COLLECTION BOX - BLUE BOX", "note": "ON 12/24 AND 12/31, THIS BOX MAY BE COLLECTED AS EARLY AS 12 NOON.", "nsi_id": "unitedstatespostalservice-a77078", "operator": "United States Postal Service", "operator:short": "USPS", "operator:type": "public", "operator:wikidata": "Q668687", "ref": "3314100042"}, "type": "Feature"}
{"dataset_attributes": {"@spider": "usps_collection_boxes"}, "geometry": {"coordinates": [-80.158142464, 25.848027199], "type": "Point"}, "id": "8IBiqolCo7VWm7E9r5O4etm8KhM=", "properties": {"@spider": "usps_collection_boxes", "addr:city": "NORTH BAY VLG", "addr:country": "US", "addr:full": "7821 COQUINA DR", "addr:postcode": "33141", "addr:state": "FL", "amenity": "post_box", "brand": "United States Postal Service", "brand:wikidata": "Q668687", "collection_times": "Mo-Sa 13:00", "name": "USPS COLLECTION BOX - BLUE BOX", "note": "ON 12/24 AND 12/31, THIS BOX MAY BE COLLECTED AS EARLY AS 12 NOON.", "nsi_id": "unitedstatespostalservice-a77078", "operator": "United States Postal Service", "operator:short": "USPS", "operator:type": "public", "operator:wikidata": "Q668687", "ref": "3314100045"}, "type": "Feature"}
{"dataset_attributes": {"@spider": "usps_collection_boxes"}, "geometry": {"coordinates": [-80.155300689, 25.848502598], "type": "Point"}, "id": "h-O9DK7Y4KfdWio_egBilJN8IvE=", "properties": {"@spider": "usps_collection_boxes", "addr:city": "NORTH BAY VLG", "addr:country": "US", "addr:full": "1440 79TH STREET CSWY", "addr:postcode": "33141", "addr:state": "FL", "amenity": "post_box", "brand": "United States Postal Service", "brand:wikidata": "Q668687", "collection_times": "Mo-Sa 13:00", "name": "USPS COLLECTION BOX - BLUE BOX", "note": "ON 12/24 AND 12/31, THIS BOX MAY BE COLLECTED AS EARLY AS 12 NOON.", "nsi_id": "unitedstatespostalservice-a77078", "operator": "United States Postal Service", "operator:short": "USPS", "operator:type": "public", "operator:wikidata": "Q668687", "ref": "3314100047"}, "type": "Feature"}
{"dataset_attributes": {"@spider": "usps_collection_boxes"}, "geometry": {"coordinates": [-80.1548459847, 25.8474230142], "type": "Point"}, "id": "E7qqQavTjjmr4NZiraOVYuOo0-s=", "properties": {"@spider": "usps_collection_boxes", "addr:city": "NORTH BAY VLG", "addr:country": "US", "addr:full": "1455 N TREASURE DR", "addr:postcode": "33141", "addr:state": "FL", "amenity": "post_box", "brand": "United States Postal Service", "brand:wikidata": "Q668687", "collection_times": "Mo-Sa 13:00", "name": "USPS COLLECTION BOX - BLUE BOX", "note": "ON 12/24 AND 12/31, THIS BOX MAY BE COLLECTED AS EARLY AS 12 NOON.", "nsi_id": "unitedstatespostalservice-a77078", "operator": "United States Postal Service", "operator:short": "USPS", "operator:type": "public", "operator:wikidata": "Q668687", "ref": "3314100048"}, "type": "Feature"}
{"dataset_attributes": {"@spider": "usps_collection_boxes"}, "geometry": {"coordinates": [-80.1477405, 25.845465457], "type": "Point"}, "id": "DDZifIGnT84Ep2yUHeYI08tHGuE=", "properties": {"@spider": "usps_collection_boxes", "addr:city": "NORTH BAY VLG", "addr:country": "US", "addr:full": "1841 GALLEON ST", "addr:postcode": "33141", "addr:state": "FL", "amenity": "post_box", "brand": "United States Postal Service", "brand:wikidata": "Q668687", "collection_times": "Mo-Sa 13:00", "name": "USPS COLLECTION BOX - BLUE BOX", "note": "ON 12/24 AND 12/31, THIS BOX MAY BE COLLECTED AS EARLY AS 12 NOON.", "nsi_id": "unitedstatespostalservice-a77078", "operator": "United States Postal Service", "operator:short": "USPS", "operator:type": "public", "operator:wikidata": "Q668687", "ref": "3314100052"}, "type": "Feature"}
{"dataset_attributes": {"@spider": "usps_collection_boxes"}, "geometry": {"coordinates": [-80.146219585, 25.846664426], "type": "Point"}, "id": "LkB8s3xXeZfG2Vpx0VGJTNa3LgU=", "properties": {"@spider": "usps_collection_boxes", "addr:city": "NORTH BAY VLG", "addr:country": "US", "addr:full": "7575 E TREASURE DR", "addr:postcode": "33141", "addr:state": "FL", "amenity": "post_box", "brand": "United States Postal Service", "brand:wikidata": "Q668687", "collection_times": "Mo-Sa 13:00", "name": "USPS COLLECTION BOX - BLUE BOX", "note": "ON 12/24 AND 12/31, THIS BOX MAY BE COLLECTED AS EARLY AS 12 NOON.", "nsi_id": "unitedstatespostalservice-a77078", "operator": "United States Postal Service", "operator:short": "USPS", "operator:type": "public", "operator:wikidata": "Q668687", "ref": "3314100053"}, "type": "Feature"}
{"dataset_attributes": {"@spider": "usps_collection_boxes"}, "geometry": {"coordinates": [-80.123641005, 25.856089535], "type": "Point"}, "id": "xOCxo8zfGNhaUsRiUPYeVk0Sj2Y=", "properties": {"@spider": "usps_collection_boxes", "addr:city": "NORTH BAY VLG", "addr:country": "US", "addr:full": "525 71ST ST", "addr:postcode": "33141", "addr:state": "FL", "amenity": "post_box", "brand": "United States Postal Service", "brand:wikidata": "Q668687", "collection_times": "Mo-Fr 17:00; Sa 13:00", "name": "USPS COLLECTION BOX - BLUE BOX", "note": "ON 12/24 AND 12/31, THIS BOX MAY BE COLLECTED AS EARLY AS 12 NOON.", "nsi_id": "unitedstatespostalservice-a77078", "operator": "United States Postal Service", "operator:short": "USPS", "operator:type": "public", "operator:wikidata": "Q668687", "ref": "3314100054"}, "type": "Feature"}
{"dataset_attributes": {"@spider": "usps_collection_boxes"}, "geometry": {"coordinates": [-80.12859404, 25.867161136], "type": "Point"}, "id": "U_xQmrDtHpDOeZXp-6PQYkNgbSM=", "properties": {"@spider": "usps_collection_boxes", "addr:city": "NORTH BAY VLG", "addr:country": "US", "addr:full": "1345 79TH STREET CSWY", "addr:postcode": "33141", "addr:state": "FL", "amenity": "post_box", "brand": "United States Postal Service", "brand:wikidata": "Q668687", "collection_times": "Mo-Sa 13:00", "name": "USPS COLLECTION BOX - BLUE BOX", "note": "ON 12/24 AND 12/31, THIS BOX MAY BE COLLECTED AS EARLY AS 12 NOON.", "nsi_id": "unitedstatespostalservice-a77078", "operator": "United States Postal Service", "operator:short": "USPS", "operator:type": "public", "operator:wikidata": "Q668687", "ref": "3314100060"}, "type": "Feature"}
{"dataset_attributes": {"@spider": "usps_collection_boxes"}, "geometry": {"coordinates": [-80.123641005, 25.856089535], "type": "Point"}, "id": "UbqoI56bX6_RAGF8DIR1V0S8dG8=", "properties": {"@spider": "usps_collection_boxes", "addr:city": "NORTH BAY VLG", "addr:country": "US", "addr:full": "525 71ST ST", "addr:postcode": "33141", "addr:state": "FL", "amenity": "post_box", "brand": "United States Postal Service", "brand:wikidata": "Q668687", "collection_times": "Mo-Fr 17:00; Sa 16:00", "name": "USPS COLLECTION BOX - PO LOBBY", "note": "ON 12/24 AND 12/31, THIS BOX MAY BE COLLECTED AS EARLY AS 12 NOON.", "nsi_id": "unitedstatespostalservice-a77078", "operator": "United States Postal Service", "operator:short": "USPS", "operator:type": "public", "operator:wikidata": "Q668687", "ref": "3314100069"}, "type": "Feature"}
{"dataset_attributes": {"@spider": "usps_collection_boxes"}, "geometry": {"coordinates": [-80.120362047, 25.851059329], "type": "Point"}, "id": "G6dm9lBt13UnFjlILYJhoniXhAA=", "properties": {"@spider": "usps_collection_boxes", "addr:city": "NORTH BAY VLG", "addr:country": "US", "addr:full": "6700 COLLINS AVE", "addr:postcode": "33141", "addr:state": "FL", "amenity": "post_box", "brand": "United States Postal Service", "brand:wikidata": "Q668687", "collection_times": "Mo-Sa 13:00", "name": "USPS COLLECTION BOX - BLUE BOX", "note": "ON 12/24 AND 12/31, THIS BOX MAY BE COLLECTED AS EARLY AS 12 NOON.", "nsi_id": "unitedstatespostalservice-a77078", "operator": "United States Postal Service", "operator:short": "USPS", "operator:type": "public", "operator:wikidata": "Q668687", "ref": "3314100071"}, "type": "Feature"}
{"dataset_attributes": {"@spider": "usps_collection_boxes"}, "geometry": {"coordinates": [-80.123641005, 25.856089535], "type": "Point"}, "id": "UBlW72by4F24xFCvjTDmKzt5i-8=", "properties": {"@spider": "usps_collection_boxes", "addr:city": "NORTH BAY VLG", "addr:country": "US", "addr:full": "525 71ST ST", "addr:postcode": "33141", "addr:state": "FL", "amenity": "post_box", "brand": "United States Postal Service", "brand:wikidata": "Q668687", "collection_times": "Mo-Fr 17:00; Sa 13:00", "name": "USPS COLLECTION BOX - BLUE BOX", "note": "ON 12/24 AND 12/31, THIS BOX MAY BE COLLECTED AS EARLY AS 12 NOON.", "nsi_id": "unitedstatespostalservice-a77078", "operator": "United States Postal Service", "operator:short": "USPS", "operator:type": "public", "operator:wikidata": "Q668687", "ref": "3314100072"}, "type": "Feature"}
{"dataset_attributes": {"@spider": "usps_collection_boxes"}, "geometry": {"coordinates": [-80.123641005, 25.856089535], "type": "Point"}, "id": "xP772CsukwdTCRRGTY225JhfhlM=", "properties": {"@spider": "usps_collection_boxes", "addr:city": "NORTH BAY VLG", "addr:country": "US", "addr:full": "525 71ST ST", "addr:postcode": "33141", "addr:state": "FL", "amenity": "post_box", "brand": "United States Postal Service", "brand:wikidata": "Q668687", "collection_times": "Mo-Fr 17:00; Sa 13:30", "name": "USPS COLLECTION BOX - PO LOBBY", "note": "ON 12/24 AND 12/31, THIS BOX MAY BE COLLECTED AS EARLY AS 12 NOON.", "nsi_id": "unitedstatespostalservice-a77078", "operator": "United States Postal Service", "operator:short": "USPS", "operator:type": "public", "operator:wikidata": "Q668687", "ref": "3314100093"}, "type": "Feature"}
{"dataset_attributes": {"@spider": "usps_collection_boxes"}, "geometry": {"coordinates": [-80.223916369, 25.809040263], "type": "Point"}, "id": "FJcQelaR0kZNYPwEoLqyjedUzTo=", "properties": {"@spider": "usps_collection_boxes", "addr:city": "MIAMI", "addr:country": "US", "addr:full": "3520 NW 17TH AVE", "addr:postcode": "33142", "addr:state": "FL", "amenity": "post_box", "brand": "United States Postal Service", "brand:wikidata": "Q668687", "collection_times": "Mo-Fr 14:00; Sa 13:00", "name": "USPS COLLECTION BOX - BLUE BOX", "note": "ON 12/24 AND 12/31, THIS BOX MAY BE COLLECTED AS EARLY AS 12 NOON.", "nsi_id": "unitedstatespostalservice-a77078", "operator": "United States Postal Service", "operator:short": "USPS", "operator:type": "public", "operator:wikidata": "Q668687", "ref": "3314200022"}, "type": "Feature"}
{"dataset_attributes": {"@spider": "usps_collection_boxes"}, "geometry": {"coordinates": [-80.224137958, 25.817014546], "type": "Point"}, "id": "Oo_rmcYBLLgZK-Vxkb21b5E_mek=", "properties": {"@spider": "usps_collection_boxes", "addr:city": "MIAMI", "addr:country": "US", "addr:full": "1690 NW 46TH ST", "addr:postcode": "33142", "addr:state": "FL", "amenity": "post_box", "brand": "United States Postal Service", "brand:wikidata": "Q668687", "collection_times": "Mo-Fr 14:00; Sa 13:00", "name": "USPS COLLECTION BOX - BLUE BOX", "note": "ON 12/24 AND 12/31, THIS BOX MAY BE COLLECTED AS EARLY AS 12 NOON.", "nsi_id": "unitedstatespostalservice-a77078", "operator": "United States Postal Service", "operator:short": "USPS", "operator:type": "public", "operator:wikidata": "Q668687", "ref": "3314200023"}, "type": "Feature"}
{"dataset_attributes": {"@spider": "usps_collection_boxes"}, "geometry": {"coordinates": [-80.219871052, 25.806996525], "type": "Point"}, "id": "OMTBF_Hjs9rmAeF9B9j29doC_v4=", "properties": {"@spider": "usps_collection_boxes", "addr:city": "MIAMI", "addr:country": "US", "addr:full": "1400 NW 33RD ST", "addr:postcode": "33142", "addr:state": "FL", "amenity": "post_box", "brand": "United States Postal Service", "brand:wikidata": "Q668687", "collection_times": "Mo-Fr 14:00; Sa 13:00", "name": "USPS COLLECTION BOX - BLUE BOX", "note": "ON 12/24 AND 12/31, THIS BOX MAY BE COLLECTED AS EARLY AS 12 NOON.", "nsi_id": "unitedstatespostalservice-a77078", "operator": "United States Postal Service", "operator:short": "USPS", "operator:type": "public", "operator:wikidata": "Q668687", "ref": "3314200025"}, "type": "Feature"}
{"dataset_attributes": {"@spider": "usps_collection_boxes"}, "geometry": {"coordinates": [-80.256276538, 25.823520148], "type": "Point"}, "id": "teTEvGnAH-S1djNdV1Ug4mno6gY=", "properties": {"@spider": "usps_collection_boxes", "addr:city": "MIAMI", "addr:country": "US", "addr:full": "3623 NW 54TH ST", "addr:postcode": "33142", "addr:state": "FL", "amenity": "post_box", "brand": "United States Postal Service", "brand:wikidata": "Q668687", "collection_times": "Mo-Fr 14:00; Sa 13:00", "name": "USPS COLLECTION BOX - BLUE BOX", "note": "ON 12/24 AND 12/31, THIS BOX MAY BE COLLECTED AS EARLY AS 12 NOON.", "nsi_id": "unitedstatespostalservice-a77078", "operator": "United States Postal Service", "operator:short": "USPS", "operator:type": "public", "operator:wikidata": "Q668687", "ref": "3314200031"}, "type": "Feature"}
{"dataset_attributes": {"@spider": "usps_collection_boxes"}, "geometry": {"coordinates": [-80.230064317, 25.795499462], "type": "Point"}, "id": "BD_21vedNrwWkT-3pJcOlH7s7V0=", "properties": {"@spider": "usps_collection_boxes", "addr:city": "MIAMI", "addr:country": "US", "addr:full": "2121 NW 21ST ST", "addr:postcode": "33142", "addr:state": "FL", "amenity": "post_box", "brand": "United States Postal Service", "brand:wikidata": "Q668687", "collection_times": "Mo-Fr 14:00; Sa 13:00", "name": "USPS COLLECTION BOX - BLUE BOX", "note": "ON 12/24 AND 12/31, THIS BOX MAY BE COLLECTED AS EARLY AS 12 NOON.", "nsi_id": "unitedstatespostalservice-a77078", "operator": "United States Postal Service", "operator:short": "USPS", "operator:type": "public", "operator:wikidata": "Q668687", "ref": "3314200032"}, "type": "Feature"}
{"dataset_attributes": {"@spider": "usps_collection_boxes"}, "geometry": {"coordinates": [-80.225713971, 25.803522859], "type": "Point"}, "id": "xe334Z5ls0EAtUGpLcnDVrUXghA=", "properties": {"@spider": "usps_collection_boxes", "addr:city": "MIAMI", "addr:country": "US", "addr:full": "2920 NW 18TH AVE", "addr:postcode": "33142", "addr:state": "FL", "amenity": "post_box", "brand": "United States Postal Service", "brand:wikidata": "Q668687", "collection_times": "Mo-Fr 14:00; Sa 13:00", "name": "USPS COLLECTION BOX - BLUE BOX", "note": "ON 12/24 AND 12/31, THIS BOX MAY BE COLLECTED AS EARLY AS 12 NOON.", "nsi_id": "unitedstatespostalservice-a77078", "operator": "United States Postal Service", "operator:short": "USPS", "operator:type": "public", "operator:wikidata": "Q668687", "ref": "3314200043"}, "type": "Feature"}
{"dataset_attributes": {"@spider": "usps_collection_boxes"}, "geometry": {"coordinates": [-80.225315057, 25.802117494], "type": "Point"}, "id": "Rxcds-P0mexNWUMfsphtgRV4Lzw=", "properties": {"@spider": "usps_collection_boxes", "addr:city": "MIAMI", "addr:country": "US", "addr:full": "1799 NW 28TH ST", "addr:postcode": "33142", "addr:state": "FL", "amenity": "post_box", "brand": "United States Postal Service", "brand:wikidata": "Q668687", "collection_times": "Mo-Fr 17:30; Sa 14:00", "name": "USPS COLLECTION BOX - PO LOBBY", "note": "ON 12/24 AND 12/31, THIS BOX MAY BE COLLECTED AS EARLY AS 12 NOON.", "nsi_id": "unitedstatespostalservice-a77078", "operator": "United States Postal Service", "operator:short": "USPS", "operator:type": "public", "operator:wikidata": "Q668687", "ref": "3314200051"}, "type": "Feature"}
{"dataset_attributes": {"@spider": "usps_collection_boxes"}, "geometry": {"coordinates": [-80.225315057, 25.802117494], "type": "Point"}, "id": "8MHoEWsh3mpzt_ClEN4kRUZ4CIY=", "properties": {"@spider": "usps_collection_boxes", "addr:city": "MIAMI", "addr:country": "US", "addr:full": "1799 NW 28TH ST", "addr:postcode": "33142", "addr:state": "FL", "amenity": "post_box", "brand": "United States Postal Service", "brand:wikidata": "Q668687", "collection_times": "Mo-Fr 17:00; Sa 13:30", "name": "USPS COLLECTION BOX - PO LOBBY", "note": "ON 12/24 AND 12/31, THIS BOX MAY BE COLLECTED AS EARLY AS 12 NOON.", "nsi_id": "unitedstatespostalservice-a77078", "operator": "United States Postal Service", "operator:short": "USPS", "operator:type": "public", "operator:wikidata": "Q668687", "ref": "3314200056"}, "type": "Feature"}
{"dataset_attributes": {"@spider": "usps_collection_boxes"}, "geometry": {"coordinates": [-80.216169964, 25.755147], "type": "Point"}, "id": "Msgof39lRFVSgYmDCYk7CI06Hc0=", "properties": {"@spider": "usps_collection_boxes", "addr:city": "MIAMI", "addr:country": "US", "addr:full": "1801 SW 13TH AVE", "addr:postcode": "33145", "addr:state": "FL", "amenity": "post_box", "brand": "United States Postal Service", "brand:wikidata": "Q668687", "collection_times": "Mo-Fr 15:00; Sa 13:30", "name": "USPS COLLECTION BOX - BLUE BOX", "note": "ON 12/24 AND 12/31, THIS BOX MAY BE COLLECTED AS EARLY AS 12 NOON.", "nsi_id": "unitedstatespostalservice-a77078", "operator": "United States Postal Service", "operator:short": "USPS", "operator:type": "public", "operator:wikidata": "Q668687", "ref": "3314500027"}, "type": "Feature"}
{"dataset_attributes": {"@spider": "usps_collection_boxes"}, "geometry": {"coordinates": [-80.2161257, 25.760677], "type": "Point"}, "id": "FR_RZMaE8Ap91MY-Vq7moALJ21I=", "properties": {"@spider": "usps_collection_boxes", "addr:city": "MIAMI", "addr:country": "US", "addr:full": "1301 SW 13TH AVE", "addr:postcode": "33145", "addr:state": "FL", "amenity": "post_box", "brand": "United States Postal Service", "brand:wikidata": "Q668687", "collection_times": "Mo-Fr 15:00", "name": "USPS COLLECTION BOX - BLUE BOX", "note": "ON 12/24 AND 12/31, THIS BOX MAY BE COLLECTED AS EARLY AS 12 NOON.", "nsi_id": "unitedstatespostalservice-a77078", "operator": "United States Postal Service", "operator:short": "USPS", "operator:type": "public", "operator:wikidata": "Q668687", "ref": "3314500028"}, "type": "Feature"}
{"dataset_attributes": {"@spider": "usps_collection_boxes"}, "geometry": {"coordinates": [-80.215248573, 25.750446224], "type": "Point"}, "id": "172gs_dhwtK24m4VMaB22-GjTcM=", "properties": {"@spider": "usps_collection_boxes", "addr:city": "MIAMI", "addr:country": "US", "addr:full": "3399 SW 3RD AVE", "addr:postcode": "33145", "addr:state": "FL", "amenity": "post_box", "brand": "United States Postal Service", "brand:wikidata": "Q668687", "collection_times": "Mo-Fr 15:00; Sa 13:30", "name": "USPS COLLECTION BOX - BLUE BOX", "note": "ON 12/24 AND 12/31, THIS BOX MAY BE COLLECTED AS EARLY AS 12 NOON.", "nsi_id": "unitedstatespostalservice-a77078", "operator": "United States Postal Service", "operator:short": "USPS", "operator:type": "public", "operator:wikidata": "Q668687", "ref": "3314500032"}, "type": "Feature"}
{"dataset_attributes": {"@spider": "usps_collection_boxes"}, "geometry": {"coordinates": [-80.220442636, 25.750820558], "type": "Point"}, "id": "f49jiaVZm15PsuV-73E9-AOz5xw=", "properties": {"@spider": "usps_collection_boxes", "addr:city": "MIAMI", "addr:country": "US", "addr:full": "1600 CORAL WAY", "addr:postcode": "33145", "addr:state": "FL", "amenity": "post_box", "brand": "United States Postal Service", "brand:wikidata": "Q668687", "collection_times": "Mo-Fr 15:00; Sa 13:30", "name": "USPS COLLECTION BOX - BLUE BOX", "note": "ON 12/24 AND 12/31, THIS BOX MAY BE COLLECTED AS EARLY AS 12 NOON.", "nsi_id": "unitedstatespostalservice-a77078", "operator": "United States Postal Service", "operator:short": "USPS", "operator:type": "public", "operator:wikidata": "Q668687", "ref": "3314500034"}, "type": "Feature"}
{"dataset_attributes": {"@spider": "usps_collection_boxes"}, "geometry": {"coordinates": [-80.221661612, 25.750962468], "type": "Point"}, "id": "lql37iQguNhzI6ZVGvmP5VqxCTU=", "properties": {"@spider": "usps_collection_boxes", "addr:city": "MIAMI", "addr:country": "US", "addr:full": "1699 CORAL WAY", "addr:postcode": "33145", "addr:state": "FL", "amenity": "post_box", "brand": "United States Postal Service", "brand:wikidata": "Q668687", "collection_times": "Mo-Fr 15:00; Sa 14:00", "name": "USPS COLLECTION BOX - BLUE BOX", "note": "ON 12/24 AND 12/31, THIS BOX MAY BE COLLECTED AS EARLY AS 12 NOON.", "nsi_id": "unitedstatespostalservice-a77078", "operator": "United States Postal Service", "operator:short": "USPS", "operator:type": "public", "operator:wikidata": "Q668687", "ref": "3314500042"}, "type": "Feature"}
{"dataset_attributes": {"@spider": "usps_collection_boxes"}, "geometry": {"coordinates": [-80.224311578, 25.750694558], "type": "Point"}, "id": "KdNhSCTgCyogOiv4CTe6qWoXrtQ=", "properties": {"@spider": "usps_collection_boxes", "addr:city": "MIAMI", "addr:country": "US", "addr:full": "1800 CORAL WAY", "addr:postcode": "33145", "addr:state": "FL", "amenity": "post_box", "brand": "United States Postal Service", "brand:wikidata": "Q668687", "collection_times": "Mo-Fr 17:00; Sa 14:00", "name": "USPS COLLECTION BOX - PO LOBBY", "note": "ON 12/24 AND 12/31, THIS BOX MAY BE COLLECTED AS EARLY AS 12 NOON.", "nsi_id": "unitedstatespostalservice-a77078", "operator": "United States Postal Service", "operator:short": "USPS", "operator:type": "public", "operator:wikidata": "Q668687", "ref": "3314500049"}, "type": "Feature"}
{"dataset_attributes": {"@spider": "usps_collection_boxes"}, "geometry": {"coordinates": [-80.224311578, 25.750694558], "type": "Point"}, "id": "rtCZN7efEbLfy7mHgiznV29nRAQ=", "properties": {"@spider": "usps_collection_boxes", "addr:city": "MIAMI", "addr:country": "US", "addr:full": "1800 CORAL WAY", "addr:postcode": "33145", "addr:state": "FL", "amenity": "post_box", "brand": "United States Postal Service", "brand:wikidata": "Q668687", "collection_times": "Mo-Fr 17:00; Sa 13:30", "name": "USPS COLLECTION BOX - BLUE BOX", "note": "ON 12/24 AND 12/31, THIS BOX MAY BE COLLECTED AS EARLY AS 12 NOON.", "nsi_id": "unitedstatespostalservice-a77078", "operator": "United States Postal Service", "operator:short": "USPS", "operator:type": "public", "operator:wikidata": "Q668687", "ref": "3314500050"}, "type": "Feature"}
{"dataset_attributes": {"@spider": "usps_collection_boxes"}, "geometry": {"coordinates": [-80.224311578, 25.750694558], "type": "Point"}, "id": "fV_aUo4XP6vZbGp1zbjVXzHvsEQ=", "properties": {"@spider": "usps_collection_boxes", "addr:city": "MIAMI", "addr:country": "US", "addr:full": "1800 CORAL WAY", "addr:postcode": "33145", "addr:state": "FL", "amenity": "post_box", "brand": "United States Postal Service", "brand:wikidata": "Q668687", "collection_times": "Mo-Fr 17:00", "name": "USPS COLLECTION BOX - PO LOBBY", "note": "ON 12/24 AND 12/31, THIS BOX MAY BE COLLECTED AS EARLY AS 12 NOON.", "nsi_id": "unitedstatespostalservice-a77078", "operator": "United States Postal Service", "operator:short": "USPS", "operator:type": "public", "operator:wikidata": "Q668687", "ref": "3314500068"}, "type": "Feature"}
{"dataset_attributes": {"@spider": "usps_collection_boxes"}, "geometry": {"coordinates": [-80.24146196, 25.835742273], "type": "Point"}, "id": "vVNypc2HpZEcE8fP8zgVUnEoCGI=", "properties": {"@spider": "usps_collection_boxes", "addr:city": "MIAMI", "addr:country": "US", "addr:full": "6700 NW 27TH AVE", "addr:postcode": "33147", "addr:state": "FL", "amenity": "post_box", "brand": "United States Postal Service", "brand:wikidata": "Q668687", "collection_times": "Mo-Sa 17:00", "name": "USPS COLLECTION BOX - PO LOBBY", "note": "ON 12/24 AND 12/31, THIS BOX MAY BE COLLECTED AS EARLY AS 12 NOON.", "nsi_id": "unitedstatespostalservice-a77078", "operator": "United States Postal Service", "operator:short": "USPS", "operator:type": "public", "operator:wikidata": "Q668687", "ref": "3314700037"}, "type": "Feature"}
{"dataset_attributes": {"@spider": "usps_collection_boxes"}, "geometry": {"coordinates": [-80.24187054, 25.846623743], "type": "Point"}, "id": "hkI0Nxjr5vLvzRQt9bVmfxpFZJU=", "properties": {"@spider": "usps_collection_boxes", "addr:city": "MIAMI", "addr:country": "US", "addr:full": "7900 NW 27TH AVE", "addr:postcode": "33147", "addr:state": "FL", "amenity": "post_box", "brand": "United States Postal Service", "brand:wikidata": "Q668687", "collection_times": "Mo-Fr 17:00; Sa 16:46", "name": "USPS COLLECTION BOX - BLUE BOX", "note": "ON 12/24 AND 12/31, THIS BOX MAY BE COLLECTED AS EARLY AS 12 NOON.", "nsi_id": "unitedstatespostalservice-a77078", "operator": "United States Postal Service", "operator:short": "USPS", "operator:type": "public", "operator:wikidata": "Q668687", "ref": "3314700039"}, "type": "Feature"}
{"dataset_attributes": {"@spider": "usps_collection_boxes"}, "geometry": {"coordinates": [-80.24146196, 25.835742273], "type": "Point"}, "id": "IyFl4IdPCHrYZM08huWW79r4TLo=", "properties": {"@spider": "usps_collection_boxes", "addr:city": "MIAMI", "addr:country": "US", "addr:full": "6700 NW 27TH AVE", "addr:postcode": "33147", "addr:state": "FL", "amenity": "post_box", "brand": "United States Postal Service", "brand:wikidata": "Q668687", "collection_times": "Mo-Fr 17:00; Sa 15:00", "name": "USPS COLLECTION BOX - PO LOBBY", "note": "ON 12/24 AND 12/31, THIS BOX MAY BE COLLECTED AS EARLY AS 12 NOON.", "nsi_id": "unitedstatespostalservice-a77078", "operator": "United States Postal Service", "operator:short": "USPS", "operator:type": "public", "operator:wikidata": "Q668687", "ref": "3314700042"}, "type": "Feature"}
{"dataset_attributes": {"@spider": "usps_collection_boxes"}, "geometry": {"coordinates": [-80.166042581, 25.691093419], "type": "Point"}, "id": "EGQKGgGZPEzphECEZ9pyZ58U5kw=", "properties": {"@spider": "usps_collection_boxes", "addr:city": "MIAMI", "addr:country": "US", "addr:full": "90 W MCINTYRE ST", "addr:postcode": "33149", "addr:state": "FL", "amenity": "post_box", "brand": "United States Postal Service", "brand:wikidata": "Q668687", "collection_times": "Mo-Sa 13:00", "name": "USPS COLLECTION BOX - BLUE BOX", "note": "ON 12/24 AND 12/31, THIS BOX MAY BE COLLECTED AS EARLY AS 12 NOON.", "nsi_id": "unitedstatespostalservice-a77078", "operator": "United States Postal Service", "operator:short": "USPS", "operator:type": "public", "operator:wikidata": "Q668687", "ref": "3314900001"}, "type": "Feature"}
{"dataset_attributes": {"@spider": "usps_collection_boxes"}, "geometry": {"coordinates": [-80.161444208, 25.685559474], "type": "Point"}, "id": "mRMm0gLyGj1HLmL8wHwuT1LLvq8=", "properties": {"@spider": "usps_collection_boxes", "addr:city": "MIAMI", "addr:country": "US", "addr:full": "951 CRANDON BLVD", "addr:postcode": "33149", "addr:state": "FL", "amenity": "post_box", "brand": "United States Postal Service", "brand:wikidata": "Q668687", "collection_times": "Mo-Fr 17:30; Sa 14:30", "name": "USPS COLLECTION BOX - BLUE BOX", "note": "ON 12/24 AND 12/31, THIS BOX MAY BE COLLECTED AS EARLY AS 12 NOON.", "nsi_id": "unitedstatespostalservice-a77078", "operator": "United States Postal Service", "operator:short": "USPS", "operator:type": "public", "operator:wikidata": "Q668687", "ref": "3314900002"}, "type": "Feature"}
{"dataset_attributes": {"@spider": "usps_collection_boxes"}, "geometry": {"coordinates": [-80.162859588, 25.69803853], "type": "Point"}, "id": "eFlJzNiG6VoxWKNhAmoGi3zwzuQ=", "properties": {"@spider": "usps_collection_boxes", "addr:city": "MIAMI", "addr:country": "US", "addr:full": "104 CRANDON BLVD", "addr:postcode": "33149", "addr:state": "FL", "amenity": "post_box", "brand": "United States Postal Service", "brand:wikidata": "Q668687", "collection_times": "Mo-Sa 13:00", "name": "USPS COLLECTION BOX - BLUE BOX", "note": "ON 12/24 AND 12/31, THIS BOX MAY BE COLLECTED AS EARLY AS 12 NOON.", "nsi_id": "unitedstatespostalservice-a77078", "operator": "United States Postal Service", "operator:short": "USPS", "operator:type": "public", "operator:wikidata": "Q668687", "ref": "3314900004"}, "type": "Feature"}
{"dataset_attributes": {"@spider": "usps_collection_boxes"}, "geometry": {"coordinates": [-80.163072184, 25.695587966], "type": "Point"}, "id": "CmC-35w-_KIvGyCYDP_PPKNHavQ=", "properties": {"@spider": "usps_collection_boxes", "addr:city": "MIAMI", "addr:country": "US", "addr:full": "328 CRANDON BLVD", "addr:postcode": "33149", "addr:state": "FL", "amenity": "post_box", "brand": "United States Postal Service", "brand:wikidata": "Q668687", "collection_times": "Mo-Sa 13:00", "name": "USPS COLLECTION BOX - BLUE BOX", "note": "ON 12/24 AND 12/31, THIS BOX MAY BE COLLECTED AS EARLY AS 12 NOON.", "nsi_id": "unitedstatespostalservice-a77078", "operator": "United States Postal Service", "operator:short": "USPS", "operator:type": "public", "operator:wikidata": "Q668687", "ref": "3314900006"}, "type": "Feature"}
{"dataset_attributes": {"@spider": "usps_collection_boxes"}, "geometry": {"coordinates": [-80.16386954, 25.68852], "type": "Point"}, "id": "-At2HE40QLEGrRiW8GGf5S6IAj8=", "properties": {"@spider": "usps_collection_boxes", "addr:city": "MIAMI", "addr:country": "US", "addr:full": "658 CRANDON BLVD", "addr:postcode": "33149", "addr:state": "FL", "amenity": "post_box", "brand": "United States Postal Service", "brand:wikidata": "Q668687", "collection_times": "Mo-Sa 13:00", "name": "USPS COLLECTION BOX - BLUE BOX", "note": "ON 12/24 AND 12/31, THIS BOX MAY BE COLLECTED AS EARLY AS 12 NOON.", "nsi_id": "unitedstatespostalservice-a77078", "operator": "United States Postal Service", "operator:short": "USPS", "operator:type": "public", "operator:wikidata": "Q668687", "ref": "3314900007"}, "type": "Feature"}
{"dataset_attributes": {"@spider": "usps_collection_boxes"}, "geometry": {"coordinates": [-80.161444461, 25.685554751], "type": "Point"}, "id": "4nYO5qgDk6N38VCh-3iUpKScH68=", "properties": {"@spider": "usps_collection_boxes", "addr:city": "MIAMI", "addr:country": "US", "addr:full": "951 CRANDON BLVD", "addr:postcode": "33149", "addr:state": "FL", "amenity": "post_box", "brand": "United States Postal Service", "brand:wikidata": "Q668687", "collection_times": "Mo-Fr 17:30; Sa 14:30", "name": "USPS COLLECTION BOX - PO LOBBY", "note": "ON 12/24 AND 12/31, THIS BOX MAY BE COLLECTED AS EARLY AS 12 NOON.", "nsi_id": "unitedstatespostalservice-a77078", "operator": "United States Postal Service", "operator:short": "USPS", "operator:type": "public", "operator:wikidata": "Q668687", "ref": "3314900012"}, "type": "Feature"}
{"dataset_attributes": {"@spider": "usps_collection_boxes"}, "geometry": {"coordinates": [-80.161444461, 25.685554751], "type": "Point"}, "id": "UUvdrRVZQ-d_J5E1YGgjwPrH3U4=", "properties": {"@spider": "usps_collection_boxes", "addr:city": "MIAMI", "addr:country": "US", "addr:full": "951 CRANDON BLVD", "addr:postcode": "33149", "addr:state": "FL", "amenity": "post_box", "brand": "United States Postal Service", "brand:wikidata": "Q668687", "collection_times": "Mo-Fr 17:00; Sa 14:00", "name": "USPS COLLECTION BOX - PO LOBBY", "note": "ON 12/24 AND 12/31, THIS BOX MAY BE COLLECTED AS EARLY AS 12 NOON.", "nsi_id": "unitedstatespostalservice-a77078", "operator": "United States Postal Service", "operator:short": "USPS", "operator:type": "public", "operator:wikidata": "Q668687", "ref": "3314900021"}, "type": "Feature"}
{"dataset_attributes": {"@spider": "usps_collection_boxes"}, "geometry": {"coordinates": [-80.21458695, 25.861602324], "type": "Point"}, "id": "zuT-nXc0DqdWStMg6CFxOnvln6o=", "properties": {"@spider": "usps_collection_boxes", "addr:city": "MIAMI", "addr:country": "US", "addr:full": "1190 NW 95TH ST", "addr:postcode": "33150", "addr:state": "FL", "amenity": "post_box", "brand": "United States Postal Service", "brand:wikidata": "Q668687", "collection_times": "Mo-Fr 16:45; Sa 16:30", "name": "USPS COLLECTION BOX - BLUE BOX", "note": "ON 12/24 AND 12/31, THIS BOX MAY BE COLLECTED AS EARLY AS 12 NOON.", "nsi_id": "unitedstatespostalservice-a77078", "operator": "United States Postal Service", "operator:short": "USPS", "operator:type": "public", "operator:wikidata": "Q668687", "ref": "3315000011"}, "type": "Feature"}
{"dataset_attributes": {"@spider": "usps_collection_boxes"}, "geometry": {"coordinates": [-80.12794768, 25.895843703], "type": "Point"}, "id": "YjC2amGcT-k_32NzFaISB0UsoLA=", "properties": {"@spider": "usps_collection_boxes", "addr:city": "BAY HARBOR IS", "addr:country": "US", "addr:full": "200 BAL BAY DR", "addr:postcode": "33154", "addr:state": "FL", "amenity": "post_box", "brand": "United States Postal Service", "brand:wikidata": "Q668687", "collection_times": "Mo-Sa 13:00", "name": "USPS COLLECTION BOX - BLUE BOX", "note": "ON 12/24 AND 12/31, THIS BOX MAY BE COLLECTED AS EARLY AS 12 NOON.", "nsi_id": "unitedstatespostalservice-a77078", "operator": "United States Postal Service", "operator:short": "USPS", "operator:type": "public", "operator:wikidata": "Q668687", "ref": "3315400001"}, "type": "Feature"}
{"dataset_attributes": {"@spider": "usps_collection_boxes"}, "geometry": {"coordinates": [-80.123210836, 25.881766931], "type": "Point"}, "id": "Oo4wFSSZKCIm-G9n4kMRhPmg4VI=", "properties": {"@spider": "usps_collection_boxes", "addr:city": "BAY HARBOR IS", "addr:country": "US", "addr:full": "9300 HARDING AVE", "addr:postcode": "33154", "addr:state": "FL", "amenity": "post_box", "brand": "United States Postal Service", "brand:wikidata": "Q668687", "collection_times": "Mo-Sa 13:00", "name": "USPS COLLECTION BOX - BLUE BOX", "note": "ON 12/24 AND 12/31, THIS BOX MAY BE COLLECTED AS EARLY AS 12 NOON.", "nsi_id": "unitedstatespostalservice-a77078", "operator": "United States Postal Service", "operator:short": "USPS", "operator:type": "public", "operator:wikidata": "Q668687", "ref": "3315400006"}, "type": "Feature"}
{"dataset_attributes": {"@spider": "usps_collection_boxes"}, "geometry": {"coordinates": [-80.12635529, 25.877877442], "type": "Point"}, "id": "2no-seo8oUZgAsToAyJGIBE6E4w=", "properties": {"@spider": "usps_collection_boxes", "addr:city": "BAY HARBOR IS", "addr:country": "US", "addr:full": "701 91ST ST", "addr:postcode": "33154", "addr:state": "FL", "amenity": "post_box", "brand": "United States Postal Service", "brand:wikidata": "Q668687", "collection_times": "Mo-Sa 13:00", "name": "USPS COLLECTION BOX - BLUE BOX", "note": "ON 12/24 AND 12/31, THIS BOX MAY BE COLLECTED AS EARLY AS 12 NOON.", "nsi_id": "unitedstatespostalservice-a77078", "operator": "United States Postal Service", "operator:short": "USPS", "operator:type": "public", "operator:wikidata": "Q668687", "ref": "3315400007"}, "type": "Feature"}
{"dataset_attributes": {"@spider": "usps_collection_boxes"}, "geometry": {"coordinates": [-80.1258929686, 25.8729995612], "type": "Point"}, "id": "IPV1XTk_vx4a7EwkJh6XZZevDo4=", "properties": {"@spider": "usps_collection_boxes", "addr:city": "BAY HARBOR IS", "addr:country": "US", "addr:full": "700 88TH ST", "addr:postcode": "33154", "addr:state": "FL", "amenity": "post_box", "brand": "United States Postal Service", "brand:wikidata": "Q668687", "collection_times": "Mo-Sa 13:00", "name": "USPS COLLECTION BOX - BLUE BOX", "note": "ON 12/24 AND 12/31, THIS BOX MAY BE COLLECTED AS EARLY AS 12 NOON.", "nsi_id": "unitedstatespostalservice-a77078", "operator": "United States Postal Service", "operator:short": "USPS", "operator:type": "public", "operator:wikidata": "Q668687", "ref": "3315400010"}, "type": "Feature"}
{"dataset_attributes": {"@spider": "usps_collection_boxes"}, "geometry": {"coordinates": [-80.1309105497, 25.8903284466], "type": "Point"}, "id": "b4KdPw8AsXZ3gFVV3z8aGk8gST0=", "properties": {"@spider": "usps_collection_boxes", "addr:city": "BAY HARBOR IS", "addr:country": "US", "addr:full": "9976 E BAY HARBOR DR", "addr:postcode": "33154", "addr:state": "FL", "amenity": "post_box", "brand": "United States Postal Service", "brand:wikidata": "Q668687", "collection_times": "Mo-Sa 13:00", "name": "USPS COLLECTION BOX - BLUE BOX", "note": "ON 12/24 AND 12/31, THIS BOX MAY BE COLLECTED AS EARLY AS 12 NOON.", "nsi_id": "unitedstatespostalservice-a77078", "operator": "United States Postal Service", "operator:short": "USPS", "operator:type": "public", "operator:wikidata": "Q668687", "ref": "3315400020"}, "type": "Feature"}
{"dataset_attributes": {"@spider": "usps_collection_boxes"}, "geometry": {"coordinates": [-80.128981329, 25.885124822], "type": "Point"}, "id": "zsuVFXY_xEsaPhfWDTTFBevtIXM=", "properties": {"@spider": "usps_collection_boxes", "addr:city": "BAY HARBOR IS", "addr:country": "US", "addr:full": "9400 E BAY HARBOR DR", "addr:postcode": "33154", "addr:state": "FL", "amenity": "post_box", "brand": "United States Postal Service", "brand:wikidata": "Q668687", "collection_times": "Mo-Fr 15:30; Sa 13:00", "name": "USPS COLLECTION BOX - BLUE BOX", "note": "ON 12/24 AND 12/31, THIS BOX MAY BE COLLECTED AS EARLY AS 12 NOON.", "nsi_id": "unitedstatespostalservice-a77078", "operator": "United States Postal Service", "operator:short": "USPS", "operator:type": "public", "operator:wikidata": "Q668687", "ref": "3315400022"}, "type": "Feature"}
{"dataset_attributes": {"@spider": "usps_collection_boxes"}, "geometry": {"coordinates": [-80.130811615, 25.885766482], "type": "Point"}, "id": "t9vYvCNOOOmD2W-T7QenyYIzsjc=", "properties": {"@spider": "usps_collection_boxes", "addr:city": "BAY HARBOR IS", "addr:country": "US", "addr:full": "1077 95TH ST", "addr:postcode": "33154", "addr:state": "FL", "amenity": "post_box", "brand": "United States Postal Service", "brand:wikidata": "Q668687", "collection_times": "Mo-Sa 13:00", "name": "USPS COLLECTION BOX - BLUE BOX", "note": "ON 12/24 AND 12/31, THIS BOX MAY BE COLLECTED AS EARLY AS 12 NOON.", "nsi_id": "unitedstatespostalservice-a77078", "operator": "United States Postal Service", "operator:short": "USPS", "operator:type": "public", "operator:wikidata": "Q668687", "ref": "3315400024"}, "type": "Feature"}
{"dataset_attributes": {"@spider": "usps_collection_boxes"}, "geometry": {"coordinates": [-80.131635367, 25.886777446], "type": "Point"}, "id": "IldUyHBAvDMW2Ok7-693JGibBao=", "properties": {"@spider": "usps_collection_boxes", "addr:city": "BAY HARBOR IS", "addr:country": "US", "addr:full": "1111 KANE CONCOURSE", "addr:postcode": "33154", "addr:state": "FL", "amenity": "post_box", "brand": "United States Postal Service", "brand:wikidata": "Q668687", "collection_times": "Mo-Fr 17:00; Sa 13:00", "name": "USPS COLLECTION BOX - BLUE BOX", "note": "ON 12/24 AND 12/31, THIS BOX MAY BE COLLECTED AS EARLY AS 12 NOON.", "nsi_id": "unitedstatespostalservice-a77078", "operator": "United States Postal Service", "operator:short": "USPS", "operator:type": "public", "operator:wikidata": "Q668687", "ref": "3315400028"}, "type": "Feature"}
{"dataset_attributes": {"@spider": "usps_collection_boxes"}, "geometry": {"coordinates": [-80.135158194, 25.892474793], "type": "Point"}, "id": "1uVw2_CUHsTKcjWRrsxv8t4oqTw=", "properties": {"@spider": "usps_collection_boxes", "addr:city": "BAY HARBOR IS", "addr:country": "US", "addr:full": "10301 E BROADVIEW DR", "addr:postcode": "33154", "addr:state": "FL", "amenity": "post_box", "brand": "United States Postal Service", "brand:wikidata": "Q668687", "collection_times": "Mo-Sa 13:00", "name": "USPS COLLECTION BOX - BLUE BOX", "note": "ON 12/24 AND 12/31, THIS BOX MAY BE COLLECTED AS EARLY AS 12 NOON.", "nsi_id": "unitedstatespostalservice-a77078", "operator": "United States Postal Service", "operator:short": "USPS", "operator:type": "public", "operator:wikidata": "Q668687", "ref": "3315400030"}, "type": "Feature"}
{"dataset_attributes": {"@spider": "usps_collection_boxes"}, "geometry": {"coordinates": [-80.1229533214, 25.8852178515], "type": "Point"}, "id": "ocnTol7s6cpJ4tYq5l8gp2eD5aY=", "properties": {"@spider": "usps_collection_boxes", "addr:city": "BAY HARBOR IS", "addr:country": "US", "addr:full": "250 95TH ST", "addr:postcode": "33154", "addr:state": "FL", "amenity": "post_box", "brand": "United States Postal Service", "brand:wikidata": "Q668687", "collection_times": "Mo-Fr 17:30; Sa 15:00", "name": "USPS COLLECTION BOX - BLUE BOX", "note": "ON 12/24 AND 12/31, THIS BOX MAY BE COLLECTED AS EARLY AS 12 NOON.", "nsi_id": "unitedstatespostalservice-a77078", "operator": "United States Postal Service", "operator:short": "USPS", "operator:type": "public", "operator:wikidata": "Q668687", "ref": "3315400034"}, "type": "Feature"}
{"dataset_attributes": {"@spider": "usps_collection_boxes"}, "geometry": {"coordinates": [-80.12292255, 25.885217579], "type": "Point"}, "id": "QrC3ZviX77HYEKCO4MUmJ4Fh0SE=", "properties": {"@spider": "usps_collection_boxes", "addr:city": "BAY HARBOR IS", "addr:country": "US", "addr:full": "250 95TH ST", "addr:postcode": "33154", "addr:state": "FL", "amenity": "post_box", "brand": "United States Postal Service", "brand:wikidata": "Q668687", "collection_times": "Mo-Fr 17:30; Sa 15:00", "name": "USPS COLLECTION BOX - PO LOBBY", "note": "ON 12/24 AND 12/31, THIS BOX MAY BE COLLECTED AS EARLY AS 12 NOON.", "nsi_id": "unitedstatespostalservice-a77078", "operator": "United States Postal Service", "operator:short": "USPS", "operator:type": "public", "operator:wikidata": "Q668687", "ref": "3315400037"}, "type": "Feature"}
{"dataset_attributes": {"@spider": "usps_collection_boxes"}, "geometry": {"coordinates": [-80.12292255, 25.885217579], "type": "Point"}, "id": "_rGjNREJsIqWOU6ZlA4lIpLVews=", "properties": {"@spider": "usps_collection_boxes", "addr:city": "BAY HARBOR IS", "addr:country": "US", "addr:full": "250 95TH ST", "addr:postcode": "33154", "addr:state": "FL", "amenity": "post_box", "brand": "United States Postal Service", "brand:wikidata": "Q668687", "collection_times": "Mo-Fr 18:00; Sa 14:30", "name": "USPS COLLECTION BOX - PO LOBBY", "note": "ON 12/24 AND 12/31, THIS BOX MAY BE COLLECTED AS EARLY AS 12 NOON.", "nsi_id": "unitedstatespostalservice-a77078", "operator": "United States Postal Service", "operator:short": "USPS", "operator:type": "public", "operator:wikidata": "Q668687", "ref": "3315400050"}, "type": "Feature"}
{"dataset_attributes": {"@spider": "usps_collection_boxes"}, "geometry": {"coordinates": [-80.1219760161, 25.9346080087], "type": "Point"}, "id": "lUEmXRY0Dpt9Yfp2qng3tUlKhAU=", "properties": {"@spider": "usps_collection_boxes", "addr:city": "AVENTURA", "addr:country": "US", "addr:full": "17100 COLLINS AVE", "addr:postcode": "33160", "addr:state": "FL", "amenity": "post_box", "brand": "United States Postal Service", "brand:wikidata": "Q668687", "collection_times": "Mo-Fr 14:50; Sa 15:10", "name": "USPS COLLECTION BOX - BLUE BOX", "note": "ON 12/24 AND 12/31, THIS BOX MAY BE COLLECTED AS EARLY AS 12 NOON.", "nsi_id": "unitedstatespostalservice-a77078", "operator": "United States Postal Service", "operator:short": "USPS", "operator:type": "public", "operator:wikidata": "Q668687", "ref": "3316000040"}, "type": "Feature"}
{"dataset_attributes": {"@spider": "usps_collection_boxes"}, "geometry": {"coordinates": [-80.145754406, 25.939944786], "type": "Point"}, "id": "jbIr7GmH79gtuyKrUeTlsteKjWk=", "properties": {"@spider": "usps_collection_boxes", "addr:city": "AVENTURA", "addr:country": "US", "addr:full": "2909 POINT EAST DR", "addr:postcode": "33160", "addr:state": "FL", "amenity": "post_box", "brand": "United States Postal Service", "brand:wikidata": "Q668687", "collection_times": "Mo-Fr 15:30; Sa 15:34", "name": "USPS COLLECTION BOX - BLUE BOX", "note": "ON 12/24 AND 12/31, THIS BOX MAY BE COLLECTED AS EARLY AS 12 NOON.", "nsi_id": "unitedstatespostalservice-a77078", "operator": "United States Postal Service", "operator:short": "USPS", "operator:type": "public", "operator:wikidata": "Q668687", "ref": "3316000046"}, "type": "Feature"}
{"dataset_attributes": {"@spider": "usps_collection_boxes"}, "geometry": {"coordinates": [-80.1475031, 25.943839], "type": "Point"}, "id": "1u3zUyBkOUwwGF2e9VDSMNCj_I8=", "properties": {"@spider": "usps_collection_boxes", "addr:city": "AVENTURA", "addr:country": "US", "addr:full": "18235 BISCAYNE BLVD", "addr:postcode": "33160", "addr:state": "FL", "amenity": "post_box", "brand": "United States Postal Service", "brand:wikidata": "Q668687", "collection_times": "Mo-Fr 15:40; Sa 15:51", "name": "USPS COLLECTION BOX - BLUE BOX", "note": "ON 12/24 AND 12/31, THIS BOX MAY BE COLLECTED AS EARLY AS 12 NOON.", "nsi_id": "unitedstatespostalservice-a77078", "operator": "United States Postal Service", "operator:short": "USPS", "operator:type": "public", "operator:wikidata": "Q668687", "ref": "3316000059"}, "type": "Feature"}
{"dataset_attributes": {"@spider": "usps_collection_boxes"}, "geometry": {"coordinates": [-80.1350455101, 25.9289304221], "type": "Point"}, "id": "3cddwKBC0HQcv00f4tEDhGKeMqQ=", "properties": {"@spider": "usps_collection_boxes", "addr:city": "AVENTURA", "addr:country": "US", "addr:full": "3495 NE 163RD ST", "addr:postcode": "33160", "addr:state": "FL", "amenity": "post_box", "brand": "United States Postal Service", "brand:wikidata": "Q668687", "collection_times": "Mo-Fr 15:00; Sa 15:24", "name": "USPS COLLECTION BOX - BLUE BOX", "note": "ON 12/24 AND 12/31, THIS BOX MAY BE COLLECTED AS EARLY AS 12 NOON.", "nsi_id": "unitedstatespostalservice-a77078", "operator": "United States Postal Service", "operator:short": "USPS", "operator:type": "public", "operator:wikidata": "Q668687", "ref": "3316000066"}, "type": "Feature"}
{"dataset_attributes": {"@spider": "usps_collection_boxes"}, "geometry": {"coordinates": [-80.156052273, 25.927238218], "type": "Point"}, "id": "RXxy_4IIO9fVIEBfZ5sRNJlyVwo=", "properties": {"@spider": "usps_collection_boxes", "addr:city": "AVENTURA", "addr:country": "US", "addr:full": "16400 W DIXIE HWY", "addr:postcode": "33160", "addr:state": "FL", "amenity": "post_box", "brand": "United States Postal Service", "brand:wikidata": "Q668687", "collection_times": "Mo-Fr 18:00; Sa 16:00", "name": "USPS COLLECTION BOX - PO LOBBY", "note": "ON 12/24 AND 12/31, THIS BOX MAY BE COLLECTED AS EARLY AS 12 NOON.", "nsi_id": "unitedstatespostalservice-a77078", "operator": "United States Postal Service", "operator:short": "USPS", "operator:type": "public", "operator:wikidata": "Q668687", "ref": "3316000067"}, "type": "Feature"}
{"dataset_attributes": {"@spider": "usps_collection_boxes"}, "geometry": {"coordinates": [-80.1218590048, 25.942617001], "type": "Point"}, "id": "1fF7jMZCZot4g2U-9yXQAxE6iDI=", "properties": {"@spider": "usps_collection_boxes", "addr:city": "AVENTURA", "addr:country": "US", "addr:full": "18070 COLLINS AVE", "addr:postcode": "33160", "addr:state": "FL", "amenity": "post_box", "brand": "United States Postal Service", "brand:wikidata": "Q668687", "collection_times": "Mo-Fr 16:00; Sa 15:10", "name": "USPS COLLECTION BOX - BLUE BOX", "note": "ON 12/24 AND 12/31, THIS BOX MAY BE COLLECTED AS EARLY AS 12 NOON.", "nsi_id": "unitedstatespostalservice-a77078", "operator": "United States Postal Service", "operator:short": "USPS", "operator:type": "public", "operator:wikidata": "Q668687", "ref": "3316000070"}, "type": "Feature"}
{"dataset_attributes": {"@spider": "usps_collection_boxes"}, "geometry": {"coordinates": [-80.152026489, 25.934461384], "type": "Point"}, "id": "ch6z3HzLHzk532N3TVpi22ELo0Y=", "properties": {"@spider": "usps_collection_boxes", "addr:city": "AVENTURA", "addr:country": "US", "addr:full": "18901 W DIXIE HWY", "addr:postcode": "33160", "addr:state": "FL", "amenity": "post_box", "brand": "United States Postal Service", "brand:wikidata": "Q668687", "collection_times": "Mo-Fr 17:00", "name": "USPS COLLECTION BOX - PO LOBBY", "note": "ON 12/24 AND 12/31, THIS BOX MAY BE COLLECTED AS EARLY AS 12 NOON.", "nsi_id": "unitedstatespostalservice-a77078", "operator": "United States Postal Service", "operator:short": "USPS", "operator:type": "public", "operator:wikidata": "Q668687", "ref": "3316000073"}, "type": "Feature"}
{"dataset_attributes": {"@spider": "usps_collection_boxes"}, "geometry": {"coordinates": [-80.156052273, 25.927238218], "type": "Point"}, "id": "VYYiIsRQUK-kYL4fi9k_KRcAt2M=", "properties": {"@spider": "usps_collection_boxes", "addr:city": "AVENTURA", "addr:country": "US", "addr:full": "16400 W DIXIE HWY", "addr:postcode": "33160", "addr:state": "FL", "amenity": "post_box", "brand": "United States Postal Service", "brand:wikidata": "Q668687", "collection_times": "Mo-Fr 17:00; Sa 15:00", "name": "USPS COLLECTION BOX - BLUE BOX", "note": "ON 12/24 AND 12/31, THIS BOX MAY BE COLLECTED AS EARLY AS 12 NOON.", "nsi_id": "unitedstatespostalservice-a77078", "operator": "United States Postal Service", "operator:short": "USPS", "operator:type": "public", "operator:wikidata": "Q668687", "ref": "3316000079"}, "type": "Feature"}
{"dataset_attributes": {"@spider": "usps_collection_boxes"}, "geometry": {"coordinates": [-80.121334457, 25.942506139], "type": "Point"}, "id": "tVl0NMKGcXFjM2uVkX1sA8slT0c=", "properties": {"@spider": "usps_collection_boxes", "addr:city": "AVENTURA", "addr:country": "US", "addr:full": "18070 COLLINS AVE", "addr:postcode": "33160", "addr:state": "FL", "amenity": "post_box", "brand": "United States Postal Service", "brand:wikidata": "Q668687", "collection_times": "Mo-Fr 16:00", "name": "USPS COLLECTION BOX - PO LOBBY", "note": "ON 12/24 AND 12/31, THIS BOX MAY BE COLLECTED AS EARLY AS 12 NOON.", "nsi_id": "unitedstatespostalservice-a77078", "operator": "United States Postal Service", "operator:short": "USPS", "operator:type": "public", "operator:wikidata": "Q668687", "ref": "3316000083"}, "type": "Feature"}
{"dataset_attributes": {"@spider": "usps_collection_boxes"}, "geometry": {"coordinates": [-80.156052273, 25.927238218], "type": "Point"}, "id": "M2yR4O3PhIjQVYJxtt9PSwxJkE8=", "properties": {"@spider": "usps_collection_boxes", "addr:city": "AVENTURA", "addr:country": "US", "addr:full": "16400 W DIXIE HWY", "addr:postcode": "33160", "addr:state": "FL", "amenity": "post_box", "brand": "United States Postal Service", "brand:wikidata": "Q668687", "collection_times": "Mo-Fr 18:00; Sa 13:30", "name": "USPS COLLECTION BOX - PO LOBBY", "note": "ON 12/24 AND 12/31, THIS BOX MAY BE COLLECTED AS EARLY AS 12 NOON.", "nsi_id": "unitedstatespostalservice-a77078", "operator": "United States Postal Service", "operator:short": "USPS", "operator:type": "public", "operator:wikidata": "Q668687", "ref": "3316000084"}, "type": "Feature"}
{"dataset_attributes": {"@spider": "usps_collection_boxes"}, "geometry": {"coordinates": [-80.181896519, 25.896145506], "type": "Point"}, "id": "eXW3jDyeJPYnBCMgGdfGLe9KAMg=", "properties": {"@spider": "usps_collection_boxes", "addr:city": "NORTH MIAMI", "addr:country": "US", "addr:full": "13100 W DIXIE HWY", "addr:postcode": "33161", "addr:state": "FL", "amenity": "post_box", "brand": "United States Postal Service", "brand:wikidata": "Q668687", "collection_times": "Mo-Fr 15:35", "name": "USPS COLLECTION BOX - BLUE BOX", "note": "ON 12/24 AND 12/31, THIS BOX MAY BE COLLECTED AS EARLY AS 12 NOON.", "nsi_id": "unitedstatespostalservice-a77078", "operator": "United States Postal Service", "operator:short": "USPS", "operator:type": "public", "operator:wikidata": "Q668687", "ref": "3316100045"}, "type": "Feature"}
{"dataset_attributes": {"@spider": "usps_collection_boxes"}, "geometry": {"coordinates": [-80.172393, 25.932336], "type": "Point"}, "id": "U7f0IVFaKI_L4YK1eFTfg_wPzy4=", "properties": {"@spider": "usps_collection_boxes", "addr:city": "N MIAMI BEACH", "addr:country": "US", "addr:full": "16964 NE 14TH AVE", "addr:postcode": "33162", "addr:state": "FL", "amenity": "post_box", "brand": "United States Postal Service", "brand:wikidata": "Q668687", "collection_times": "Mo-Fr 15:50; Sa 15:17", "name": "USPS COLLECTION BOX - BLUE BOX", "note": "ON 12/24 AND 12/31, THIS BOX MAY BE COLLECTED AS EARLY AS 12 NOON.", "nsi_id": "unitedstatespostalservice-a77078", "operator": "United States Postal Service", "operator:short": "USPS", "operator:type": "public", "operator:wikidata": "Q668687", "ref": "3316200004"}, "type": "Feature"}
{"dataset_attributes": {"@spider": "usps_collection_boxes"}, "geometry": {"coordinates": [-80.180369801, 25.939149518], "type": "Point"}, "id": "IRqSsH2bMBP8BNIDKTWhEXtt3oQ=", "properties": {"@spider": "usps_collection_boxes", "addr:city": "N MIAMI BEACH", "addr:country": "US", "addr:full": "1000 NE 178TH TER", "addr:postcode": "33162", "addr:state": "FL", "amenity": "post_box", "brand": "United States Postal Service", "brand:wikidata": "Q668687", "collection_times": "Mo-Fr 16:00; Sa 15:21", "name": "USPS COLLECTION BOX - BLUE BOX", "note": "ON 12/24 AND 12/31, THIS BOX MAY BE COLLECTED AS EARLY AS 12 NOON.", "nsi_id": "unitedstatespostalservice-a77078", "operator": "United States Postal Service", "operator:short": "USPS", "operator:type": "public", "operator:wikidata": "Q668687", "ref": "3316200008"}, "type": "Feature"}
{"dataset_attributes": {"@spider": "usps_collection_boxes"}, "geometry": {"coordinates": [-80.184224156, 25.928881788], "type": "Point"}, "id": "G8dGisfyVQotb2Od-X3TJwY1Ttw=", "properties": {"@spider": "usps_collection_boxes", "addr:city": "N MIAMI BEACH", "addr:country": "US", "addr:full": "801 NE 167TH ST", "addr:postcode": "33162", "addr:state": "FL", "amenity": "post_box", "brand": "United States Postal Service", "brand:wikidata": "Q668687", "collection_times": "Mo-Fr 16:25; Sa 15:25", "name": "USPS COLLECTION BOX - BLUE BOX", "note": "ON 12/24 AND 12/31, THIS BOX MAY BE COLLECTED AS EARLY AS 12 NOON.", "nsi_id": "unitedstatespostalservice-a77078", "operator": "United States Postal Service", "operator:short": "USPS", "operator:type": "public", "operator:wikidata": "Q668687", "ref": "3316200010"}, "type": "Feature"}
{"dataset_attributes": {"@spider": "usps_collection_boxes"}, "geometry": {"coordinates": [-80.196341452, 25.929647644], "type": "Point"}, "id": "BGIG2Az63HMd3fwIyCzzSGK26Qg=", "properties": {"@spider": "usps_collection_boxes", "addr:city": "N MIAMI BEACH", "addr:country": "US", "addr:full": "16855 NE 2ND AVE", "addr:postcode": "33162", "addr:state": "FL", "amenity": "post_box", "brand": "United States Postal Service", "brand:wikidata": "Q668687", "collection_times": "Mo-Fr 16:35; Sa 15:37", "name": "USPS COLLECTION BOX - BLUE BOX", "note": "ON 12/24 AND 12/31, THIS BOX MAY BE COLLECTED AS EARLY AS 12 NOON.", "nsi_id": "unitedstatespostalservice-a77078", "operator": "United States Postal Service", "operator:short": "USPS", "operator:type": "public", "operator:wikidata": "Q668687", "ref": "3316200017"}, "type": "Feature"}
{"dataset_attributes": {"@spider": "usps_collection_boxes"}, "geometry": {"coordinates": [-80.176895371, 25.925345656], "type": "Point"}, "id": "pz1wcZF4_4ECva4nMx_rtPgNdEM=", "properties": {"@spider": "usps_collection_boxes", "addr:city": "N MIAMI BEACH", "addr:country": "US", "addr:full": "1140 NE 163RD ST", "addr:postcode": "33162", "addr:state": "FL", "amenity": "post_box", "brand": "United States Postal Service", "brand:wikidata": "Q668687", "collection_times": "Mo-Fr 16:10; Sa 15:46", "name": "USPS COLLECTION BOX - BLUE BOX", "note": "ON 12/24 AND 12/31, THIS BOX MAY BE COLLECTED AS EARLY AS 12 NOON.", "nsi_id": "unitedstatespostalservice-a77078", "operator": "United States Postal Service", "operator:short": "USPS", "operator:type": "public", "operator:wikidata": "Q668687", "ref": "3316200025"}, "type": "Feature"}
{"dataset_attributes": {"@spider": "usps_collection_boxes"}, "geometry": {"coordinates": [-80.155733493, 25.9233435], "type": "Point"}, "id": "bHcjtb6vx9rX6z0ygHsUFoGaNgA=", "properties": {"@spider": "usps_collection_boxes", "addr:city": "N MIAMI BEACH", "addr:country": "US", "addr:full": "16051 W DIXIE HWY", "addr:postcode": "33162", "addr:state": "FL", "amenity": "post_box", "brand": "United States Postal Service", "brand:wikidata": "Q668687", "collection_times": "Mo-Fr 15:20; Sa 15:53", "name": "USPS COLLECTION BOX - BLUE BOX", "note": "ON 12/24 AND 12/31, THIS BOX MAY BE COLLECTED AS EARLY AS 12 NOON.", "nsi_id": "unitedstatespostalservice-a77078", "operator": "United States Postal Service", "operator:short": "USPS", "operator:type": "public", "operator:wikidata": "Q668687", "ref": "3316200028"}, "type": "Feature"}
{"dataset_attributes": {"@spider": "usps_collection_boxes"}, "geometry": {"coordinates": [-80.190884492, 25.928945633], "type": "Point"}, "id": "bM1FpvipdGnbUaOZYC0R2pH0kPY=", "properties": {"@spider": "usps_collection_boxes", "addr:city": "N MIAMI BEACH", "addr:country": "US", "addr:full": "16750 NE 4TH PL", "addr:postcode": "33162", "addr:state": "FL", "amenity": "post_box", "brand": "United States Postal Service", "brand:wikidata": "Q668687", "collection_times": "Mo-Fr 17:00", "name": "USPS COLLECTION BOX - PO LOBBY", "note": "ON 12/24 AND 12/31, THIS BOX MAY BE COLLECTED AS EARLY AS 12 NOON.", "nsi_id": "unitedstatespostalservice-a77078", "operator": "United States Postal Service", "operator:short": "USPS", "operator:type": "public", "operator:wikidata": "Q668687", "ref": "3316200051"}, "type": "Feature"}
{"dataset_attributes": {"@spider": "usps_collection_boxes"}, "geometry": {"coordinates": [-80.2141233054, 25.8836894499], "type": "Point"}, "id": "K-XyWa5nTb8Wls9JCWQKIdKIsIk=", "properties": {"@spider": "usps_collection_boxes", "addr:city": "MIAMI", "addr:country": "US", "addr:full": "995 NW 119TH ST", "addr:postcode": "33168", "addr:state": "FL", "amenity": "post_box", "brand": "United States Postal Service", "brand:wikidata": "Q668687", "collection_times": "Mo-Fr 17:00; Sa 16:00", "name": "USPS COLLECTION BOX - BLUE BOX", "note": "ON 12/24 AND 12/31, THIS BOX MAY BE COLLECTED AS EARLY AS 12 NOON.", "nsi_id": "unitedstatespostalservice-a77078", "operator": "United States Postal Service", "operator:short": "USPS", "operator:type": "public", "operator:wikidata": "Q668687", "ref": "3316800016"}, "type": "Feature"}
{"dataset_attributes": {"@spider": "usps_collection_boxes"}, "geometry": {"coordinates": [-80.214123473, 25.883699508], "type": "Point"}, "id": "oJ-AMYNd1I97n2QmrmQwXjOi-ng=", "properties": {"@spider": "usps_collection_boxes", "addr:city": "MIAMI", "addr:country": "US", "addr:full": "995 NW 119TH ST", "addr:postcode": "33168", "addr:state": "FL", "amenity": "post_box", "brand": "United States Postal Service", "brand:wikidata": "Q668687", "collection_times": "Mo-Fr 17:00; Sa 16:00", "name": "USPS COLLECTION BOX - PO LOBBY", "note": "ON 12/24 AND 12/31, THIS BOX MAY BE COLLECTED AS EARLY AS 12 NOON.", "nsi_id": "unitedstatespostalservice-a77078", "operator": "United States Postal Service", "operator:short": "USPS", "operator:type": "public", "operator:wikidata": "Q668687", "ref": "3316800021"}, "type": "Feature"}
{"dataset_attributes": {"@spider": "usps_collection_boxes"}, "geometry": {"coordinates": [-80.214123473, 25.883699508], "type": "Point"}, "id": "tgFW6AS73XIfxjv92B_nYZrfaiQ=", "properties": {"@spider": "usps_collection_boxes", "addr:city": "MIAMI", "addr:country": "US", "addr:full": "995 NW 119TH ST", "addr:postcode": "33168", "addr:state": "FL", "amenity": "post_box", "brand": "United States Postal Service", "brand:wikidata": "Q668687", "collection_times": "Mo-Fr 17:00; Sa 13:30", "name": "USPS COLLECTION BOX - PO LOBBY", "note": "ON 12/24 AND 12/31, THIS BOX MAY BE COLLECTED AS EARLY AS 12 NOON.", "nsi_id": "unitedstatespostalservice-a77078", "operator": "United States Postal Service", "operator:short": "USPS", "operator:type": "public", "operator:wikidata": "Q668687", "ref": "3316800026"}, "type": "Feature"}
{"dataset_attributes": {"@spider": "usps_collection_boxes"}, "geometry": {"coordinates": [-80.202581141, 25.942727501], "type": "Point"}, "id": "OUUGypWZ7DaeAef6gJimONsgF5Q=", "properties": {"@spider": "usps_collection_boxes", "addr:city": "MIAMI", "addr:country": "US", "addr:full": "99 NW 183RD ST", "addr:postcode": "33169", "addr:state": "FL", "amenity": "post_box", "brand": "United States Postal Service", "brand:wikidata": "Q668687", "collection_times": "Mo-Fr 16:10; Sa 14:36", "name": "USPS COLLECTION BOX - BLUE BOX", "note": "ON 12/24 AND 12/31, THIS BOX MAY BE COLLECTED AS EARLY AS 12 NOON.", "nsi_id": "unitedstatespostalservice-a77078", "operator": "United States Postal Service", "operator:short": "USPS", "operator:type": "public", "operator:wikidata": "Q668687", "ref": "3316900004"}, "type": "Feature"}
{"dataset_attributes": {"@spider": "usps_collection_boxes"}, "geometry": {"coordinates": [-80.220008919, 25.929194213], "type": "Point"}, "id": "za6Ri3jWIp5do4IVeNwuppv4hZY=", "properties": {"@spider": "usps_collection_boxes", "addr:city": "MIAMI", "addr:country": "US", "addr:full": "1111 PARK CENTRE BLVD", "addr:postcode": "33169", "addr:state": "FL", "amenity": "post_box", "brand": "United States Postal Service", "brand:wikidata": "Q668687", "collection_times": "Mo-Fr 16:45; Sa 14:47", "name": "USPS COLLECTION BOX - BLUE BOX", "note": "ON 12/24 AND 12/31, THIS BOX MAY BE COLLECTED AS EARLY AS 12 NOON.", "nsi_id": "unitedstatespostalservice-a77078", "operator": "United States Postal Service", "operator:short": "USPS", "operator:type": "public", "operator:wikidata": "Q668687", "ref": "3316900024"}, "type": "Feature"}
{"dataset_attributes": {"@spider": "usps_collection_boxes"}, "geometry": {"coordinates": [-80.2214419, 25.924173], "type": "Point"}, "id": "8S27XYSOQMVmUkisevVXVWCnGdc=", "properties": {"@spider": "usps_collection_boxes", "addr:city": "MIAMI", "addr:country": "US", "addr:full": "16490 NW 13TH AVE", "addr:postcode": "33169", "addr:state": "FL", "amenity": "post_box", "brand": "United States Postal Service", "brand:wikidata": "Q668687", "collection_times": "Mo-Fr 16:50; Sa 15:00", "name": "USPS COLLECTION BOX - BLUE BOX", "note": "ON 12/24 AND 12/31, THIS BOX MAY BE COLLECTED AS EARLY AS 12 NOON.", "nsi_id": "unitedstatespostalservice-a77078", "operator": "United States Postal Service", "operator:short": "USPS", "operator:type": "public", "operator:wikidata": "Q668687", "ref": "3316900032"}, "type": "Feature"}
{"dataset_attributes": {"@spider": "usps_collection_boxes"}, "geometry": {"coordinates": [-80.208932726, 25.923879979], "type": "Point"}, "id": "nmP3v6AtELl8p9XhvBmFGR2Kn5k=", "properties": {"@spider": "usps_collection_boxes", "addr:city": "MIAMI", "addr:country": "US", "addr:full": "500 NW 165TH STREET RD", "addr:postcode": "33169", "addr:state": "FL", "amenity": "post_box", "brand": "United States Postal Service", "brand:wikidata": "Q668687", "collection_times": "Mo-Fr 16:00; Sa 15:05", "name": "USPS COLLECTION BOX - BLUE BOX", "note": "ON 12/24 AND 12/31, THIS BOX MAY BE COLLECTED AS EARLY AS 12 NOON.", "nsi_id": "unitedstatespostalservice-a77078", "operator": "United States Postal Service", "operator:short": "USPS", "operator:type": "public", "operator:wikidata": "Q668687", "ref": "3316900034"}, "type": "Feature"}
{"dataset_attributes": {"@spider": "usps_collection_boxes"}, "geometry": {"coordinates": [-80.2031999, 25.930628], "type": "Point"}, "id": "8RsGgBJeDDBT7ndalHAvnSQuePY=", "properties": {"@spider": "usps_collection_boxes", "addr:city": "MIAMI", "addr:country": "US", "addr:full": "16800 NW 2ND AVE", "addr:postcode": "33169", "addr:state": "FL", "amenity": "post_box", "brand": "United States Postal Service", "brand:wikidata": "Q668687", "collection_times": "Mo-Fr 16:05", "name": "USPS COLLECTION BOX - BLUE BOX", "note": "ON 12/24 AND 12/31, THIS BOX MAY BE COLLECTED AS EARLY AS 12 NOON.", "nsi_id": "unitedstatespostalservice-a77078", "operator": "United States Postal Service", "operator:short": "USPS", "operator:type": "public", "operator:wikidata": "Q668687", "ref": "3316900042"}, "type": "Feature"}
{"dataset_attributes": {"@spider": "usps_collection_boxes"}, "geometry": {"coordinates": [-80.205402049, 25.945435834], "type": "Point"}, "id": "EdOPCF_TTWS9JZmFHJqSphLKTMQ=", "properties": {"@spider": "usps_collection_boxes", "addr:city": "MIAMI", "addr:country": "US", "addr:full": "18640 NW 2ND AVE", "addr:postcode": "33169", "addr:state": "FL", "amenity": "post_box", "brand": "United States Postal Service", "brand:wikidata": "Q668687", "collection_times": "Mo-Fr 17:00; Sa 16:00", "name": "USPS COLLECTION BOX - BLUE BOX", "note": "ON 12/24 AND 12/31, THIS BOX MAY BE COLLECTED AS EARLY AS 12 NOON.", "nsi_id": "unitedstatespostalservice-a77078", "operator": "United States Postal Service", "operator:short": "USPS", "operator:type": "public", "operator:wikidata": "Q668687", "ref": "3316900045"}, "type": "Feature"}
{"dataset_attributes": {"@spider": "usps_collection_boxes"}, "geometry": {"coordinates": [-80.205402049, 25.945435834], "type": "Point"}, "id": "046wpBlr_AGovun0SWuyI6joL4s=", "properties": {"@spider": "usps_collection_boxes", "addr:city": "MIAMI", "addr:country": "US", "addr:full": "18640 NW 2ND AVE", "addr:postcode": "33169", "addr:state": "FL", "amenity": "post_box", "brand": "United States Postal Service", "brand:wikidata": "Q668687", "collection_times": "Mo-Fr 17:00; Sa 16:00", "name": "USPS COLLECTION BOX - BLUE BOX", "note": "ON 12/24 AND 12/31, THIS BOX MAY BE COLLECTED AS EARLY AS 12 NOON.", "nsi_id": "unitedstatespostalservice-a77078", "operator": "United States Postal Service", "operator:short": "USPS", "operator:type": "public", "operator:wikidata": "Q668687", "ref": "3316900048"}, "type": "Feature"}
{"dataset_attributes": {"@spider": "usps_collection_boxes"}, "geometry": {"coordinates": [-80.205402049, 25.945435834], "type": "Point"}, "id": "VUGF3eMFWyahUKQuUbqeK-y6Ioc=", "properties": {"@spider": "usps_collection_boxes", "addr:city": "MIAMI", "addr:country": "US", "addr:full": "18640 NW 2ND AVE", "addr:postcode": "33169", "addr:state": "FL", "amenity": "post_box", "brand": "United States Postal Service", "brand:wikidata": "Q668687", "collection_times": "Mo-Sa 17:00", "name": "USPS COLLECTION BOX - PO LOBBY", "note": "ON 12/24 AND 12/31, THIS BOX MAY BE COLLECTED AS EARLY AS 12 NOON.", "nsi_id": "unitedstatespostalservice-a77078", "operator": "United States Postal Service", "operator:short": "USPS", "operator:type": "public", "operator:wikidata": "Q668687", "ref": "3316900056"}, "type": "Feature"}
{"dataset_attributes": {"@spider": "usps_collection_boxes"}, "geometry": {"coordinates": [-80.2059308593, 25.9259855278], "type": "Point"}, "id": "dULA3cqSjc63GtAUGsmoI--ZkhU=", "properties": {"@spider": "usps_collection_boxes", "addr:city": "MIAMI", "addr:country": "US", "addr:full": "290 NW 165TH ST", "addr:postcode": "33169", "addr:state": "FL", "amenity": "post_box", "brand": "United States Postal Service", "brand:wikidata": "Q668687", "collection_times": "Mo-Fr 16:00", "name": "USPS COLLECTION BOX - BLUE BOX", "note": "ON 12/24 AND 12/31, THIS BOX MAY BE COLLECTED AS EARLY AS 12 NOON.", "nsi_id": "unitedstatespostalservice-a77078", "operator": "United States Postal Service", "operator:short": "USPS", "operator:type": "public", "operator:wikidata": "Q668687", "ref": "3316900062"}, "type": "Feature"}
{"dataset_attributes": {"@spider": "usps_collection_boxes"}, "geometry": {"coordinates": [-80.205402049, 25.945435834], "type": "Point"}, "id": "RBRLjtyy2JD3krrfho4ywNnLDSc=", "properties": {"@spider": "usps_collection_boxes", "addr:city": "MIAMI", "addr:country": "US", "addr:full": "18640 NW 2ND AVE", "addr:postcode": "33169", "addr:state": "FL", "amenity": "post_box", "brand": "United States Postal Service", "brand:wikidata": "Q668687", "collection_times": "Mo-Fr 17:30; Sa 13:30", "name": "USPS COLLECTION BOX - PO LOBBY", "note": "ON 12/24 AND 12/31, THIS BOX MAY BE COLLECTED AS EARLY AS 12 NOON.", "nsi_id": "unitedstatespostalservice-a77078", "operator": "United States Postal Service", "operator:short": "USPS", "operator:type": "public", "operator:wikidata": "Q668687", "ref": "3316900064"}, "type": "Feature"}
{"dataset_attributes": {"@spider": "usps_collection_boxes"}, "geometry": {"coordinates": [-80.344647, 25.869339], "type": "Point"}, "id": "TJklKHfpruLondrh7X0D4ReGESo=", "properties": {"@spider": "usps_collection_boxes", "addr:city": "MIAMI", "addr:country": "US", "addr:full": "10598 NW SOUTH RIVER DR", "addr:postcode": "33178", "addr:state": "FL", "amenity": "post_box", "brand": "United States Postal Service", "brand:wikidata": "Q668687", "collection_times": "Mo-Fr 13:45; Sa 15:00", "name": "USPS COLLECTION BOX - BLUE BOX", "note": "ON 12/24 AND 12/31, THIS BOX MAY BE COLLECTED AS EARLY AS 12 NOON.", "nsi_id": "unitedstatespostalservice-a77078", "operator": "United States Postal Service", "operator:short": "USPS", "operator:type": "public", "operator:wikidata": "Q668687", "ref": "3317800000"}, "type": "Feature"}
{"dataset_attributes": {"@spider": "usps_collection_boxes"}, "geometry": {"coordinates": [-80.162678356, 25.94445892], "type": "Point"}, "id": "X5gZGCVAcPIUcBfsaIDdpP5D5yQ=", "properties": {"@spider": "usps_collection_boxes", "addr:city": "MIAMI", "addr:country": "US", "addr:full": "18345 NE 19TH AVE", "addr:postcode": "33179", "addr:state": "FL", "amenity": "post_box", "brand": "United States Postal Service", "brand:wikidata": "Q668687", "collection_times": "Mo-Fr 16:30; Sa 14:26", "name": "USPS COLLECTION BOX - BLUE BOX", "note": "ON 12/24 AND 12/31, THIS BOX MAY BE COLLECTED AS EARLY AS 12 NOON.", "nsi_id": "unitedstatespostalservice-a77078", "operator": "United States Postal Service", "operator:short": "USPS", "operator:type": "public", "operator:wikidata": "Q668687", "ref": "3317900007"}, "type": "Feature"}
{"dataset_attributes": {"@spider": "usps_collection_boxes"}, "geometry": {"coordinates": [-80.182037069, 25.964762027], "type": "Point"}, "id": "FUkokvl575RkL2DjoZX7gHLHX5M=", "properties": {"@spider": "usps_collection_boxes", "addr:city": "MIAMI", "addr:country": "US", "addr:full": "1001 IVES DAIRY RD", "addr:postcode": "33179", "addr:state": "FL", "amenity": "post_box", "brand": "United States Postal Service", "brand:wikidata": "Q668687", "collection_times": "Mo-Fr 16:20; Sa 14:16", "name": "USPS COLLECTION BOX - BLUE BOX", "note": "ON 12/24 AND 12/31, THIS BOX MAY BE COLLECTED AS EARLY AS 12 NOON.", "nsi_id": "unitedstatespostalservice-a77078", "operator": "United States Postal Service", "operator:short": "USPS", "operator:type": "public", "operator:wikidata": "Q668687", "ref": "3317900013"}, "type": "Feature"}
{"dataset_attributes": {"@spider": "usps_collection_boxes"}, "geometry": {"coordinates": [-80.186994384, 25.961815858], "type": "Point"}, "id": "9eMfIaPGYzoup_3dinc5xDsElZA=", "properties": {"@spider": "usps_collection_boxes", "addr:city": "MIAMI", "addr:country": "US", "addr:full": "850 IVES DAIRY RD", "addr:postcode": "33179", "addr:state": "FL", "amenity": "post_box", "brand": "United States Postal Service", "brand:wikidata": "Q668687", "collection_times": "Mo-Fr 16:15; Sa 14:00", "name": "USPS COLLECTION BOX - BLUE BOX", "note": "ON 12/24 AND 12/31, THIS BOX MAY BE COLLECTED AS EARLY AS 12 NOON.", "nsi_id": "unitedstatespostalservice-a77078", "operator": "United States Postal Service", "operator:short": "USPS", "operator:type": "public", "operator:wikidata": "Q668687", "ref": "3317900015"}, "type": "Feature"}
{"dataset_attributes": {"@spider": "usps_collection_boxes"}, "geometry": {"coordinates": [-80.147892526, 25.968592666], "type": "Point"}, "id": "2SI0omRuxCqUM0_2fCY9SaWFyB4=", "properties": {"@spider": "usps_collection_boxes", "addr:city": "MIAMI", "addr:country": "US", "addr:full": "20880 W DIXIE HWY", "addr:postcode": "33180", "addr:state": "FL", "amenity": "post_box", "brand": "United States Postal Service", "brand:wikidata": "Q668687", "collection_times": "Mo-Fr 16:40", "name": "USPS COLLECTION BOX - BLUE BOX", "note": "ON 12/24 AND 12/31, THIS BOX MAY BE COLLECTED AS EARLY AS 12 NOON.", "nsi_id": "unitedstatespostalservice-a77078", "operator": "United States Postal Service", "operator:short": "USPS", "operator:type": "public", "operator:wikidata": "Q668687", "ref": "3318000002"}, "type": "Feature"}
{"dataset_attributes": {"@spider": "usps_collection_boxes"}, "geometry": {"coordinates": [-80.1463005, 25.956135], "type": "Point"}, "id": "8OMex0ECYle2cjsezy356i8Zsls=", "properties": {"@spider": "usps_collection_boxes", "addr:city": "MIAMI", "addr:country": "US", "addr:full": "19495 BISCAYNE BLVD", "addr:postcode": "33180", "addr:state": "FL", "amenity": "post_box", "brand": "United States Postal Service", "brand:wikidata": "Q668687", "collection_times": "Mo-Fr 16:00; Sa 16:20", "name": "USPS COLLECTION BOX - BLUE BOX", "note": "ON 12/24 AND 12/31, THIS BOX MAY BE COLLECTED AS EARLY AS 12 NOON.", "nsi_id": "unitedstatespostalservice-a77078", "operator": "United States Postal Service", "operator:short": "USPS", "operator:type": "public", "operator:wikidata": "Q668687", "ref": "3318000010"}, "type": "Feature"}
{"dataset_attributes": {"@spider": "usps_collection_boxes"}, "geometry": {"coordinates": [-80.146541735, 25.9645010878], "type": "Point"}, "id": "CIa7R-CVIbI2F3_NRMiu7KzhoQo=", "properties": {"@spider": "usps_collection_boxes", "addr:city": "MIAMI", "addr:country": "US", "addr:full": "20355 BISCAYNE BLVD", "addr:postcode": "33180", "addr:state": "FL", "amenity": "post_box", "brand": "United States Postal Service", "brand:wikidata": "Q668687", "collection_times": "Mo-Fr 16:05; Sa 16:30", "name": "USPS COLLECTION BOX - BLUE BOX", "note": "ON 12/24 AND 12/31, THIS BOX MAY BE COLLECTED AS EARLY AS 12 NOON.", "nsi_id": "unitedstatespostalservice-a77078", "operator": "United States Postal Service", "operator:short": "USPS", "operator:type": "public", "operator:wikidata": "Q668687", "ref": "3318000015"}, "type": "Feature"}
{"dataset_attributes": {"@spider": "usps_collection_boxes"}, "geometry": {"coordinates": [-80.129768735, 25.967889603], "type": "Point"}, "id": "WPGF_S1ZyKwwGkGh5iQCDtfRF4o=", "properties": {"@spider": "usps_collection_boxes", "addr:city": "MIAMI", "addr:country": "US", "addr:full": "3585 NE 207TH ST", "addr:postcode": "33180", "addr:state": "FL", "amenity": "post_box", "brand": "United States Postal Service", "brand:wikidata": "Q668687", "collection_times": "Mo-Sa 17:00", "name": "USPS COLLECTION BOX - BLUE BOX", "note": "ON 12/24 AND 12/31, THIS BOX MAY BE COLLECTED AS EARLY AS 12 NOON.", "nsi_id": "unitedstatespostalservice-a77078", "operator": "United States Postal Service", "operator:short": "USPS", "operator:type": "public", "operator:wikidata": "Q668687", "ref": "3318000017"}, "type": "Feature"}
{"dataset_attributes": {"@spider": "usps_collection_boxes"}, "geometry": {"coordinates": [-80.144676431, 25.968462153], "type": "Point"}, "id": "CHoCrDH51toHFpSjXTtjy2U-zH8=", "properties": {"@spider": "usps_collection_boxes", "addr:city": "MIAMI", "addr:country": "US", "addr:full": "20803 BISCAYNE BLVD", "addr:postcode": "33180", "addr:state": "FL", "amenity": "post_box", "brand": "United States Postal Service", "brand:wikidata": "Q668687", "collection_times": "Mo-Fr 16:10; Sa 16:45", "name": "USPS COLLECTION BOX - BLUE BOX", "note": "ON 12/24 AND 12/31, THIS BOX MAY BE COLLECTED AS EARLY AS 12 NOON.", "nsi_id": "unitedstatespostalservice-a77078", "operator": "United States Postal Service", "operator:short": "USPS", "operator:type": "public", "operator:wikidata": "Q668687", "ref": "3318000018"}, "type": "Feature"}
{"dataset_attributes": {"@spider": "usps_collection_boxes"}, "geometry": {"coordinates": [-80.14456499, 25.968705153], "type": "Point"}, "id": "r7S8pJlAGF6lRl2vHI9gyjZ5o10=", "properties": {"@spider": "usps_collection_boxes", "addr:city": "MIAMI", "addr:country": "US", "addr:full": "20801 BISCAYNE BLVD", "addr:postcode": "33180", "addr:state": "FL", "amenity": "post_box", "brand": "United States Postal Service", "brand:wikidata": "Q668687", "collection_times": "Mo-Fr 16:10; Sa 16:40", "name": "USPS COLLECTION BOX - BLUE BOX", "note": "ON 12/24 AND 12/31, THIS BOX MAY BE COLLECTED AS EARLY AS 12 NOON.", "nsi_id": "unitedstatespostalservice-a77078", "operator": "United States Postal Service", "operator:short": "USPS", "operator:type": "public", "operator:wikidata": "Q668687", "ref": "3318000019"}, "type": "Feature"}
{"dataset_attributes": {"@spider": "usps_collection_boxes"}, "geometry": {"coordinates": [-80.143899356, 25.970670271], "type": "Point"}, "id": "Mc5MIm0hFMZcCI7uzq9Ojo1FbPc=", "properties": {"@spider": "usps_collection_boxes", "addr:city": "MIAMI", "addr:country": "US", "addr:full": "21150 BISCAYNE BLVD", "addr:postcode": "33180", "addr:state": "FL", "amenity": "post_box", "brand": "United States Postal Service", "brand:wikidata": "Q668687", "collection_times": "Mo-Fr 16:20; Sa 17:10", "name": "USPS COLLECTION BOX - BLUE BOX", "note": "ON 12/24 AND 12/31, THIS BOX MAY BE COLLECTED AS EARLY AS 12 NOON.", "nsi_id": "unitedstatespostalservice-a77078", "operator": "United States Postal Service", "operator:short": "USPS", "operator:type": "public", "operator:wikidata": "Q668687", "ref": "3318000027"}, "type": "Feature"}
{"dataset_attributes": {"@spider": "usps_collection_boxes"}, "geometry": {"coordinates": [-80.1283962, 25.9679884], "type": "Point"}, "id": "tY9Yr8WfCLqp2M0OwpXxme9vE5g=", "properties": {"@spider": "usps_collection_boxes", "addr:city": "MIAMI", "addr:country": "US", "addr:full": "101 SE 1ST ST", "addr:postcode": "33180", "addr:state": "FL", "amenity": "post_box", "brand": "United States Postal Service", "brand:wikidata": "Q668687", "collection_times": "Mo-Fr 16:00; Sa 12:00", "name": "USPS COLLECTION BOX - PO LOBBY", "note": "ON 12/24 AND 12/31, THIS BOX MAY BE COLLECTED AS EARLY AS 12 NOON.", "nsi_id": "unitedstatespostalservice-a77078", "operator": "United States Postal Service", "operator:short": "USPS", "operator:type": "public", "operator:wikidata": "Q668687", "ref": "3318000028"}, "type": "Feature"}
{"dataset_attributes": {"@spider": "usps_collection_boxes"}, "geometry": {"coordinates": [-80.142601003, 25.949877779], "type": "Point"}, "id": "BMMUNV7j7HjbiB9dEBAPl_bf8PY=", "properties": {"@spider": "usps_collection_boxes", "addr:city": "MIAMI", "addr:country": "US", "addr:full": "18851 NE 29TH AVE", "addr:postcode": "33180", "addr:state": "FL", "amenity": "post_box", "brand": "United States Postal Service", "brand:wikidata": "Q668687", "collection_times": "Mo-Fr 16:35", "name": "USPS COLLECTION BOX - BLUE BOX", "note": "ON 12/24 AND 12/31, THIS BOX MAY BE COLLECTED AS EARLY AS 12 NOON.", "nsi_id": "unitedstatespostalservice-a77078", "operator": "United States Postal Service", "operator:short": "USPS", "operator:type": "public", "operator:wikidata": "Q668687", "ref": "3318000030"}, "type": "Feature"}
{"dataset_attributes": {"@spider": "usps_collection_boxes"}, "geometry": {"coordinates": [-80.129768735, 25.967889603], "type": "Point"}, "id": "6K9--GjcCBewbveZ2Jb14zpO4lg=", "properties": {"@spider": "usps_collection_boxes", "addr:city": "MIAMI", "addr:country": "US", "addr:full": "3585 NE 207TH ST", "addr:postcode": "33180", "addr:state": "FL", "amenity": "post_box", "brand": "United States Postal Service", "brand:wikidata": "Q668687", "collection_times": "Mo-Fr 17:00; Sa 13:30", "name": "USPS COLLECTION BOX - PO LOBBY", "note": "ON 12/24 AND 12/31, THIS BOX MAY BE COLLECTED AS EARLY AS 12 NOON.", "nsi_id": "unitedstatespostalservice-a77078", "operator": "United States Postal Service", "operator:short": "USPS", "operator:type": "public", "operator:wikidata": "Q668687", "ref": "3318000038"}, "type": "Feature"}
{"dataset_attributes": {"@spider": "usps_collection_boxes"}, "geometry": {"coordinates": [-80.129768735, 25.967889603], "type": "Point"}, "id": "fkzJu6QeyVn0LVsRa5xR5KP7oYc=", "properties": {"@spider": "usps_collection_boxes", "addr:city": "MIAMI", "addr:country": "US", "addr:full": "3585 NE 207TH ST", "addr:postcode": "33180", "addr:state": "FL", "amenity": "post_box", "brand": "United States Postal Service", "brand:wikidata": "Q668687", "collection_times": "Mo-Fr 17:00; Sa 13:30", "name": "USPS COLLECTION BOX - PO LOBBY", "note": "ON 12/24 AND 12/31, THIS BOX MAY BE COLLECTED AS EARLY AS 12 NOON.", "nsi_id": "unitedstatespostalservice-a77078", "operator": "United States Postal Service", "operator:short": "USPS", "operator:type": "public", "operator:wikidata": "Q668687", "ref": "3318000039"}, "type": "Feature"}
{"dataset_attributes": {"@spider": "usps_collection_boxes"}, "geometry": {"coordinates": [-80.129768735, 25.967889603], "type": "Point"}, "id": "B0AwhHljraZbFTeXTX1lXjRN4JM=", "properties": {"@spider": "usps_collection_boxes", "addr:city": "MIAMI", "addr:country": "US", "addr:full": "3585 NE 207TH ST STE C9", "addr:postcode": "33180", "addr:state": "FL", "amenity": "post_box", "brand": "United States Postal Service", "brand:wikidata": "Q668687", "collection_times": "Mo-Fr 17:00; Sa 14:00", "name": "USPS COLLECTION BOX - PO LOBBY", "note": "ON 12/24 AND 12/31, THIS BOX MAY BE COLLECTED AS EARLY AS 12 NOON.", "nsi_id": "unitedstatespostalservice-a77078", "operator": "United States Postal Service", "operator:short": "USPS", "operator:type": "public", "operator:wikidata": "Q668687", "ref": "3318000044"}, "type": "Feature"}
{"dataset_attributes": {"@spider": "usps_collection_boxes"}, "geometry": {"coordinates": [-80.148851459, 25.950580585], "type": "Point"}, "id": "GD_QxZJm3FCioyglSpwTGkqYSck=", "properties": {"@spider": "usps_collection_boxes", "addr:city": "MIAMI", "addr:country": "US", "addr:full": "18901 W DIXIE HWY", "addr:postcode": "33180", "addr:state": "FL", "amenity": "post_box", "brand": "United States Postal Service", "brand:wikidata": "Q668687", "collection_times": "Mo-Fr 17:00", "name": "USPS COLLECTION BOX - PO LOBBY", "note": "ON 12/24 AND 12/31, THIS BOX MAY BE COLLECTED AS EARLY AS 12 NOON.", "nsi_id": "unitedstatespostalservice-a77078", "operator": "United States Postal Service", "operator:short": "USPS", "operator:type": "public", "operator:wikidata": "Q668687", "ref": "3318000045"}, "type": "Feature"}
{"dataset_attributes": {"@spider": "usps_collection_boxes"}, "geometry": {"coordinates": [-80.165175611, 25.893441425], "type": "Point"}, "id": "yagAPuwiL56dSe_ux2Sh1hotI-8=", "properties": {"@spider": "usps_collection_boxes", "addr:city": "MIAMI", "addr:country": "US", "addr:full": "1701 NE 127TH ST", "addr:postcode": "33181", "addr:state": "FL", "amenity": "post_box", "brand": "United States Postal Service", "brand:wikidata": "Q668687", "collection_times": "Mo-Fr 15:45; Sa 16:00", "name": "USPS COLLECTION BOX - BLUE BOX", "note": "ON 12/24 AND 12/31, THIS BOX MAY BE COLLECTED AS EARLY AS 12 NOON.", "nsi_id": "unitedstatespostalservice-a77078", "operator": "United States Postal Service", "operator:short": "USPS", "operator:type": "public", "operator:wikidata": "Q668687", "ref": "3318100001"}, "type": "Feature"}
{"dataset_attributes": {"@spider": "usps_collection_boxes"}, "geometry": {"coordinates": [-80.1646009887, 25.8869147833], "type": "Point"}, "id": "89ewf4puSDatB8TDo71HspxIGwA=", "properties": {"@spider": "usps_collection_boxes", "addr:city": "MIAMI", "addr:country": "US", "addr:full": "12000 BISCAYNE BLVD", "addr:postcode": "33181", "addr:state": "FL", "amenity": "post_box", "brand": "United States Postal Service", "brand:wikidata": "Q668687", "collection_times": "Mo-Fr 15:55; Sa 16:19", "name": "USPS COLLECTION BOX - BLUE BOX", "note": "ON 12/24 AND 12/31, THIS BOX MAY BE COLLECTED AS EARLY AS 12 NOON.", "nsi_id": "unitedstatespostalservice-a77078", "operator": "United States Postal Service", "operator:short": "USPS", "operator:type": "public", "operator:wikidata": "Q668687", "ref": "3318100005"}, "type": "Feature"}
{"dataset_attributes": {"@spider": "usps_collection_boxes"}, "geometry": {"coordinates": [-80.1648599154, 25.8860558232], "type": "Point"}, "id": "JHlzxlhQkRCEicd14M6GSsZbtas=", "properties": {"@spider": "usps_collection_boxes", "addr:city": "MIAMI", "addr:country": "US", "addr:full": "11900 BISCAYNE BLVD", "addr:postcode": "33181", "addr:state": "FL", "amenity": "post_box", "brand": "United States Postal Service", "brand:wikidata": "Q668687", "collection_times": "Mo-Fr 15:50; Sa 16:12", "name": "USPS COLLECTION BOX - BLUE BOX", "note": "ON 12/24 AND 12/31, THIS BOX MAY BE COLLECTED AS EARLY AS 12 NOON.", "nsi_id": "unitedstatespostalservice-a77078", "operator": "United States Postal Service", "operator:short": "USPS", "operator:type": "public", "operator:wikidata": "Q668687", "ref": "3318100008"}, "type": "Feature"}
{"dataset_attributes": {"@spider": "usps_collection_boxes"}, "geometry": {"coordinates": [-80.1525970363, 25.8934299815], "type": "Point"}, "id": "OQKkAblgGAaJacfSRBYdkgjNxBo=", "properties": {"@spider": "usps_collection_boxes", "addr:city": "MIAMI", "addr:country": "US", "addr:full": "2243 KEYSTONE BLVD", "addr:postcode": "33181", "addr:state": "FL", "amenity": "post_box", "brand": "United States Postal Service", "brand:wikidata": "Q668687", "collection_times": "Mo-Fr 16:05; Sa 16:26", "name": "USPS COLLECTION BOX - BLUE BOX", "note": "ON 12/24 AND 12/31, THIS BOX MAY BE COLLECTED AS EARLY AS 12 NOON.", "nsi_id": "unitedstatespostalservice-a77078", "operator": "United States Postal Service", "operator:short": "USPS", "operator:type": "public", "operator:wikidata": "Q668687", "ref": "3318100018"}, "type": "Feature"}
{"dataset_attributes": {"@spider": "usps_collection_boxes"}, "geometry": {"coordinates": [-80.1579327755, 25.908148791], "type": "Point"}, "id": "6KfR_BJtnz3q-SP4P511ZiXKwGk=", "properties": {"@spider": "usps_collection_boxes", "addr:city": "MIAMI", "addr:country": "US", "addr:full": "14311 BISCAYNE BLVD", "addr:postcode": "33181", "addr:state": "FL", "amenity": "post_box", "brand": "United States Postal Service", "brand:wikidata": "Q668687", "collection_times": "Mo-Fr 17:00; Sa 15:00", "name": "USPS COLLECTION BOX - BLUE BOX", "note": "ON 12/24 AND 12/31, THIS BOX MAY BE COLLECTED AS EARLY AS 12 NOON.", "nsi_id": "unitedstatespostalservice-a77078", "operator": "United States Postal Service", "operator:short": "USPS", "operator:type": "public", "operator:wikidata": "Q668687", "ref": "3318100028"}, "type": "Feature"}
{"dataset_attributes": {"@spider": "usps_collection_boxes"}, "geometry": {"coordinates": [-80.157992622, 25.907968999], "type": "Point"}, "id": "cZo7vs0DWpS33BFLoDCtNb4Dq_w=", "properties": {"@spider": "usps_collection_boxes", "addr:city": "MIAMI", "addr:country": "US", "addr:full": "14311 BISCAYNE BLVD", "addr:postcode": "33181", "addr:state": "FL", "amenity": "post_box", "brand": "United States Postal Service", "brand:wikidata": "Q668687", "collection_times": "Mo-Fr 17:45; Sa 17:15", "name": "USPS COLLECTION BOX - PO LOBBY", "note": "ON 12/24 AND 12/31, THIS BOX MAY BE COLLECTED AS EARLY AS 12 NOON.", "nsi_id": "unitedstatespostalservice-a77078", "operator": "United States Postal Service", "operator:short": "USPS", "operator:type": "public", "operator:wikidata": "Q668687", "ref": "3318100031"}, "type": "Feature"}
{"dataset_attributes": {"@spider": "usps_collection_boxes"}, "geometry": {"coordinates": [-80.157992622, 25.907968999], "type": "Point"}, "id": "BuB5dJTUJw9hpDUOHwlNf1GtKq0=", "properties": {"@spider": "usps_collection_boxes", "addr:city": "MIAMI", "addr:country": "US", "addr:full": "14311 BISCAYNE BLVD", "addr:postcode": "33181", "addr:state": "FL", "amenity": "post_box", "brand": "United States Postal Service", "brand:wikidata": "Q668687", "collection_times": "Mo-Fr 17:00; Sa 15:00", "name": "USPS COLLECTION BOX - APC", "note": "ON 12/24 AND 12/31, THIS BOX MAY BE COLLECTED AS EARLY AS 12 NOON.", "nsi_id": "unitedstatespostalservice-a77078", "operator": "United States Postal Service", "operator:short": "USPS", "operator:type": "public", "operator:wikidata": "Q668687", "ref": "3318100033"}, "type": "Feature"}
{"dataset_attributes": {"@spider": "usps_collection_boxes"}, "geometry": {"coordinates": [-80.19348196, 25.86546505], "type": "Point"}, "id": "Q4zraH-2FyEb504WxvGjjqGXA9Y=", "properties": {"@spider": "usps_collection_boxes", "addr:city": "MIAMI", "addr:country": "US", "addr:full": "9825 NE 2ND AVE", "addr:postcode": "33181", "addr:state": "FL", "amenity": "post_box", "brand": "United States Postal Service", "brand:wikidata": "Q668687", "collection_times": "Mo-Fr 16:45", "name": "USPS COLLECTION BOX - PO LOBBY", "note": "ON 12/24 AND 12/31, THIS BOX MAY BE COLLECTED AS EARLY AS 12 NOON.", "nsi_id": "unitedstatespostalservice-a77078", "operator": "United States Postal Service", "operator:short": "USPS", "operator:type": "public", "operator:wikidata": "Q668687", "ref": "3318100036"}, "type": "Feature"}
{"dataset_attributes": {"@spider": "usps_collection_boxes"}, "geometry": {"coordinates": [-80.190904158, 25.928907152], "type": "Point"}, "id": "lcsgkJMnWtOF9DBSqBbis3Gsu60=", "properties": {"@spider": "usps_collection_boxes", "addr:city": "MIAMI", "addr:country": "US", "addr:full": "16752 NE 4TH PL", "addr:postcode": "33181", "addr:state": "FL", "amenity": "post_box", "brand": "United States Postal Service", "brand:wikidata": "Q668687", "collection_times": "Mo-Fr 17:00", "name": "USPS COLLECTION BOX - PO LOBBY", "note": "ON 12/24 AND 12/31, THIS BOX MAY BE COLLECTED AS EARLY AS 12 NOON.", "nsi_id": "unitedstatespostalservice-a77078", "operator": "United States Postal Service", "operator:short": "USPS", "operator:type": "public", "operator:wikidata": "Q668687", "ref": "3318100037"}, "type": "Feature"}
{"dataset_attributes": {"@spider": "usps_collection_boxes"}, "geometry": {"coordinates": [-80.19348196, 25.86546505], "type": "Point"}, "id": "Q8e-Tr2izL88n1_-MspZVNRkHt8=", "properties": {"@spider": "usps_collection_boxes", "addr:city": "MIAMI", "addr:country": "US", "addr:full": "9825 NE 2ND AVE", "addr:postcode": "33181", "addr:state": "FL", "amenity": "post_box", "brand": "United States Postal Service", "brand:wikidata": "Q668687", "collection_times": "Mo-Fr 17:00", "name": "USPS COLLECTION BOX - PO LOBBY", "note": "ON 12/24 AND 12/31, THIS BOX MAY BE COLLECTED AS EARLY AS 12 NOON.", "nsi_id": "unitedstatespostalservice-a77078", "operator": "United States Postal Service", "operator:short": "USPS", "operator:type": "public", "operator:wikidata": "Q668687", "ref": "3318100046"}, "type": "Feature"}
{"dataset_attributes": {"@spider": "usps_collection_boxes"}, "geometry": {"coordinates": [-80.157992622, 25.907968999], "type": "Point"}, "id": "D7MMggh7Qrvfshd_fTHBo2oiFNc=", "properties": {"@spider": "usps_collection_boxes", "addr:city": "MIAMI", "addr:country": "US", "addr:full": "14311 BISCAYNE BLVD", "addr:postcode": "33181", "addr:state": "FL", "amenity": "post_box", "brand": "United States Postal Service", "brand:wikidata": "Q668687", "collection_times": "Mo-Fr 19:00; Sa 13:30", "name": "USPS COLLECTION BOX - PO LOBBY", "note": "ON 12/24 AND 12/31, THIS BOX MAY BE COLLECTED AS EARLY AS 12 NOON.", "nsi_id": "unitedstatespostalservice-a77078", "operator": "United States Postal Service", "operator:short": "USPS", "operator:type": "public", "operator:wikidata": "Q668687", "ref": "3318100047"}, "type": "Feature"}
