{"geometry": {"coordinates": [-80.13251618, 26.119172842], "type": "Point"}, "id": "V_0shjAM2pIan1lV2H8QfrhD4cw=", "properties": {"@spider": "usps_collection_boxes", "addr:city": "FT LAUDERDALE", "addr:country": "US", "addr:full": "1038 E LAS OLAS BLVD", "addr:postcode": "33301", "addr:state": "FL", "brand": "USPS", "brand:wikidata": "Q668687", "collection_times": "Mo-Fr 17:15; Sa 13:00", "name": "USPS COLLECTION BOX - BLUE BOX", "note": "ON 12/24 AND 12/31, THIS BOX MAY BE COLLECTED AS EARLY AS 12 NOON.", "ref": "3330100006"}, "type": "Feature"}
{"geometry": {"coordinates": [-80.140558912, 26.124856889], "type": "Point"}, "id": "sfl4xVM2fbQggh8WvEDcPfGe2tc=", "properties": {"@spider": "usps_collection_boxes", "addr:city": "FT LAUDERDALE", "addr:country": "US", "addr:full": "290 NE 3RD AVE", "addr:postcode": "33301", "addr:state": "FL", "brand": "USPS", "brand:wikidata": "Q668687", "collection_times": "Mo-Fr 17:25; Sa 13:00", "name": "USPS COLLECTION BOX - BLUE BOX", "note": "ON 12/24 AND 12/31, THIS BOX MAY BE COLLECTED AS EARLY AS 12 NOON.", "ref": "3330100010"}, "type": "Feature"}
{"geometry": {"coordinates": [-80.131503259, 26.122643475], "type": "Point"}, "id": "NY2JCiB6bEMjj5F7K3iIQmgsMLI=", "properties": {"@spider": "usps_collection_boxes", "addr:city": "FT LAUDERDALE", "addr:country": "US", "addr:full": "1121 E BROWARD BLVD", "addr:postcode": "33301", "addr:state": "FL", "brand": "USPS", "brand:wikidata": "Q668687", "collection_times": "Mo-Sa 10:30", "name": "USPS COLLECTION BOX - BLUE BOX", "ref": "3330100014"}, "type": "Feature"}
{"geometry": {"coordinates": [-80.133691112, 26.119321457], "type": "Point"}, "id": "Buz8a2SWJXGcBBBkWXa14lNpy5A=", "properties": {"@spider": "usps_collection_boxes", "addr:city": "FT LAUDERDALE", "addr:country": "US", "addr:full": "901 E LAS OLAS BLVD", "addr:postcode": "33301", "addr:state": "FL", "brand": "USPS", "brand:wikidata": "Q668687", "collection_times": "Mo-Sa 14:30", "name": "USPS COLLECTION BOX - BLUE BOX", "note": "ON 12/24 AND 12/31, THIS BOX MAY BE COLLECTED AS EARLY AS 12 NOON.", "ref": "3330100017"}, "type": "Feature"}
{"geometry": {"coordinates": [-80.112562876, 26.118269665], "type": "Point"}, "id": "HJkQVH6F21EMCAozx2CBNGUTYeY=", "properties": {"@spider": "usps_collection_boxes", "addr:city": "FT LAUDERDALE", "addr:country": "US", "addr:full": "350 SE 25TH AVE", "addr:postcode": "33301", "addr:state": "FL", "brand": "USPS", "brand:wikidata": "Q668687", "collection_times": "Mo-Sa 14:30", "name": "USPS COLLECTION BOX - BLUE BOX", "note": "ON 12/24 AND 12/31, THIS BOX MAY BE COLLECTED AS EARLY AS 12 NOON.", "ref": "3330100018"}, "type": "Feature"}
{"geometry": {"coordinates": [-80.140347281, 26.119216882], "type": "Point"}, "id": "wttvcB7BvMSzl6-g5BbxFIlsDvw=", "properties": {"@spider": "usps_collection_boxes", "addr:city": "FT LAUDERDALE", "addr:country": "US", "addr:full": "301 E LAS OLAS BLVD", "addr:postcode": "33301", "addr:state": "FL", "brand": "USPS", "brand:wikidata": "Q668687", "collection_times": "Mo-Fr 17:00; Sa 13:00", "name": "USPS COLLECTION BOX - BLUE BOX", "note": "ON 12/24 AND 12/31, THIS BOX MAY BE COLLECTED AS EARLY AS 12 NOON.", "ref": "3330100024"}, "type": "Feature"}
{"geometry": {"coordinates": [-80.1358927333, 26.1224953878], "type": "Point"}, "id": "38O7gr6Vn_pfO8xp8ib2sncTCac=", "properties": {"@spider": "usps_collection_boxes", "addr:city": "FT LAUDERDALE", "addr:country": "US", "addr:full": "701 E BROWARD BLVD", "addr:postcode": "33301", "addr:state": "FL", "brand": "USPS", "brand:wikidata": "Q668687", "collection_times": "Mo-Sa 10:30", "name": "USPS COLLECTION BOX - BLUE BOX", "ref": "3330100027"}, "type": "Feature"}
{"geometry": {"coordinates": [-80.135270242, 26.122492543], "type": "Point"}, "id": "VhH81k0q7Ec4rtedKvHQNFdjFoA=", "properties": {"@spider": "usps_collection_boxes", "addr:city": "FT LAUDERDALE", "addr:country": "US", "addr:full": "800 E BROWARD BLVD", "addr:postcode": "33301", "addr:state": "FL", "brand": "USPS", "brand:wikidata": "Q668687", "collection_times": "Mo-Fr 17:20; Sa 13:00", "name": "USPS COLLECTION BOX - BLUE BOX", "note": "ON 12/24 AND 12/31, THIS BOX MAY BE COLLECTED AS EARLY AS 12 NOON.", "ref": "3330100030"}, "type": "Feature"}
{"geometry": {"coordinates": [-80.129011165, 26.119295488], "type": "Point"}, "id": "FbuASQC9wMRQd_9GL9zM-scUXTA=", "properties": {"@spider": "usps_collection_boxes", "addr:city": "FT LAUDERDALE", "addr:country": "US", "addr:full": "1404 E LAS OLAS BLVD", "addr:postcode": "33301", "addr:state": "FL", "brand": "USPS", "brand:wikidata": "Q668687", "collection_times": "Mo-Fr 17:00; Sa 13:00", "name": "USPS COLLECTION BOX - BLUE BOX", "note": "ON 12/24 AND 12/31, THIS BOX MAY BE COLLECTED AS EARLY AS 12 NOON.", "ref": "3330100034"}, "type": "Feature"}
{"geometry": {"coordinates": [-80.140242051, 26.113482608], "type": "Point"}, "id": "RxuFz0KZxehLYqnEpFhsBNQZQe4=", "properties": {"@spider": "usps_collection_boxes", "addr:city": "FT LAUDERDALE", "addr:country": "US", "addr:full": "633 SE 3RD AVE", "addr:postcode": "33301", "addr:state": "FL", "brand": "USPS", "brand:wikidata": "Q668687", "collection_times": "Mo-Fr 17:10; Sa 13:00", "name": "USPS COLLECTION BOX - BLUE BOX", "note": "ON 12/24 AND 12/31, THIS BOX MAY BE COLLECTED AS EARLY AS 12 NOON.", "ref": "3330100039"}, "type": "Feature"}
{"geometry": {"coordinates": [-80.141081695, 26.114780539], "type": "Point"}, "id": "VHaKSXFCRyxL0or1JrXxGBGwvRA=", "properties": {"@spider": "usps_collection_boxes", "addr:city": "FT LAUDERDALE", "addr:country": "US", "addr:full": "200 SE 6TH ST", "addr:postcode": "33301", "addr:state": "FL", "brand": "USPS", "brand:wikidata": "Q668687", "collection_times": "Mo-Fr 17:05; Sa 13:00", "name": "USPS COLLECTION BOX - BLUE BOX", "note": "ON 12/24 AND 12/31, THIS BOX MAY BE COLLECTED AS EARLY AS 12 NOON.", "ref": "3330100046"}, "type": "Feature"}
{"geometry": {"coordinates": [-80.143311073, 26.115074969], "type": "Point"}, "id": "EBqHR7QaMU6CCm9eOmPuUVV__qI=", "properties": {"@spider": "usps_collection_boxes", "addr:city": "FT LAUDERDALE", "addr:country": "US", "addr:full": "529 S ANDREWS AVE", "addr:postcode": "33301", "addr:state": "FL", "brand": "USPS", "brand:wikidata": "Q668687", "collection_times": "Mo-Sa 13:30", "name": "USPS COLLECTION BOX - BLUE BOX", "note": "ON 12/24 AND 12/31, THIS BOX MAY BE COLLECTED AS EARLY AS 12 NOON.", "ref": "3330100075"}, "type": "Feature"}
{"geometry": {"coordinates": [-80.136326593, 26.126276068], "type": "Point"}, "id": "tVqqH6JNQFAL8JkvNqNn88pYGB4=", "properties": {"@spider": "usps_collection_boxes", "addr:city": "FT LAUDERDALE", "addr:country": "US", "addr:full": "400 NW 7 AVE", "addr:postcode": "33301", "addr:state": "FL", "brand": "USPS", "brand:wikidata": "Q668687", "collection_times": "Mo-Fr 17:45; Sa 16:30", "name": "USPS COLLECTION BOX - PO LOBBY", "note": "ON 12/24 AND 12/31, THIS BOX MAY BE COLLECTED AS EARLY AS 12 NOON.", "ref": "3330100084"}, "type": "Feature"}
{"geometry": {"coordinates": [-80.129287433, 26.12270696], "type": "Point"}, "id": "LXyYu0Sb6Nh4IFnsFDXQyjOzqLI=", "properties": {"@spider": "usps_collection_boxes", "addr:city": "FT LAUDERDALE", "addr:country": "US", "addr:full": "1401 E BROWARD BLVD", "addr:postcode": "33301", "addr:state": "FL", "brand": "USPS", "brand:wikidata": "Q668687", "collection_times": "Mo-Sa 10:00", "name": "USPS COLLECTION BOX - BLUE BOX", "ref": "3330100087"}, "type": "Feature"}
{"geometry": {"coordinates": [-80.1363265934, 26.1262760684], "type": "Point"}, "id": "pOYhfesWXQFDbHHVQEV1AdfT0Ng=", "properties": {"@spider": "usps_collection_boxes", "addr:city": "FT LAUDERDALE", "addr:country": "US", "addr:full": "400 NW 7 AVE", "addr:postcode": "33301", "addr:state": "FL", "brand": "USPS", "brand:wikidata": "Q668687", "collection_times": "Mo-Fr 17:30; Sa 15:00", "name": "USPS COLLECTION BOX - BLUE BOX", "note": "ON 12/24 AND 12/31, THIS BOX MAY BE COLLECTED AS EARLY AS 12 NOON.", "ref": "3330100093"}, "type": "Feature"}
{"geometry": {"coordinates": [-80.150601419, 26.126747864], "type": "Point"}, "id": "C3iFQ7A5HqqMBHd6eiKXAYpbbdo=", "properties": {"@spider": "usps_collection_boxes", "addr:city": "FT LAUDERDALE", "addr:country": "US", "addr:full": "400 NW 7TH AVE", "addr:postcode": "33301", "addr:state": "FL", "brand": "USPS", "brand:wikidata": "Q668687", "collection_times": "Mo-Fr 18:00", "name": "USPS COLLECTION BOX - PO LOBBY", "note": "ON 12/24 AND 12/31, THIS BOX MAY BE COLLECTED AS EARLY AS 12 NOON.", "ref": "3330100106"}, "type": "Feature"}
{"geometry": {"coordinates": [-80.129011165, 26.119295488], "type": "Point"}, "id": "hiX5UIpW-PJDzv0VYLj1PjdY7q4=", "properties": {"@spider": "usps_collection_boxes", "addr:city": "FT LAUDERDALE", "addr:country": "US", "addr:full": "1404 E LAS OLAS BLVD STE B", "addr:postcode": "33301", "addr:state": "FL", "brand": "USPS", "brand:wikidata": "Q668687", "collection_times": "Mo-Fr 17:00", "name": "USPS COLLECTION BOX - PO LOBBY", "note": "ON 12/24 AND 12/31, THIS BOX MAY BE COLLECTED AS EARLY AS 12 NOON.", "ref": "3330100107"}, "type": "Feature"}
{"geometry": {"coordinates": [-80.1384311107, 26.1223234918], "type": "Point"}, "id": "PeFNe9Y8aZ21EDpvk7kzziZ5Mt4=", "properties": {"@spider": "usps_collection_boxes", "addr:city": "FT LAUDERDALE", "addr:country": "US", "addr:full": "500 E BROWARD BLVD", "addr:postcode": "33301", "addr:state": "FL", "brand": "USPS", "brand:wikidata": "Q668687", "collection_times": "Mo-Sa 11:00", "name": "USPS COLLECTION BOX - BLUE BOX", "ref": "3330100108"}, "type": "Feature"}
{"geometry": {"coordinates": [-80.136512497, 26.142356558], "type": "Point"}, "id": "NsNEVFcoBDK1_wDvQ9KlinhlHIM=", "properties": {"@spider": "usps_collection_boxes", "addr:city": "OAKLAND PARK", "addr:country": "US", "addr:full": "700 NE 13TH ST", "addr:postcode": "33304", "addr:state": "FL", "brand": "USPS", "brand:wikidata": "Q668687", "collection_times": "Mo-Fr 15:40; Sa 13:00", "name": "USPS COLLECTION BOX - BLUE BOX", "note": "ON 12/24 AND 12/31, THIS BOX MAY BE COLLECTED AS EARLY AS 12 NOON.", "ref": "3330400001"}, "type": "Feature"}
{"geometry": {"coordinates": [-80.125929864, 26.142734242], "type": "Point"}, "id": "LlJfyWdra_CQJmvk8lNtwV_OChk=", "properties": {"@spider": "usps_collection_boxes", "addr:city": "OAKLAND PARK", "addr:country": "US", "addr:full": "1701 NE 13TH ST", "addr:postcode": "33304", "addr:state": "FL", "brand": "USPS", "brand:wikidata": "Q668687", "collection_times": "Mo-Fr 11:00", "name": "USPS COLLECTION BOX - BLUE BOX", "ref": "3330400005"}, "type": "Feature"}
{"geometry": {"coordinates": [-80.1265047799, 26.1374114572], "type": "Point"}, "id": "s463fHeDZuOkLQrhU1H5SonMidc=", "properties": {"@spider": "usps_collection_boxes", "addr:city": "OAKLAND PARK", "addr:country": "US", "addr:full": "1631 E SUNRISE BLVD", "addr:postcode": "33304", "addr:state": "FL", "brand": "USPS", "brand:wikidata": "Q668687", "collection_times": "Mo-Fr 12:30; Sa 13:00", "name": "USPS COLLECTION BOX - BLUE BOX", "note": "ON 12/24 AND 12/31, THIS BOX MAY BE COLLECTED AS EARLY AS 12 NOON.", "ref": "3330400006"}, "type": "Feature"}
{"geometry": {"coordinates": [-80.128736522, 26.13712313], "type": "Point"}, "id": "YzZzWs-pHzegplkLAnHwGAsMKas=", "properties": {"@spider": "usps_collection_boxes", "addr:city": "OAKLAND PARK", "addr:country": "US", "addr:full": "1498 E SUNRISE BLVD", "addr:postcode": "33304", "addr:state": "FL", "brand": "USPS", "brand:wikidata": "Q668687", "collection_times": "Mo-Fr 15:00; Sa 13:00", "name": "USPS COLLECTION BOX - BLUE BOX", "note": "ON 12/24 AND 12/31, THIS BOX MAY BE COLLECTED AS EARLY AS 12 NOON.", "ref": "3330400008"}, "type": "Feature"}
{"geometry": {"coordinates": [-80.134032513, 26.136963726], "type": "Point"}, "id": "IG6sqICoUb9q4VQnqWFwpH3OhR8=", "properties": {"@spider": "usps_collection_boxes", "addr:city": "OAKLAND PARK", "addr:country": "US", "addr:full": "930 N FEDERAL HWY", "addr:postcode": "33304", "addr:state": "FL", "brand": "USPS", "brand:wikidata": "Q668687", "collection_times": "Mo-Fr 15:15; Sa 13:00", "name": "USPS COLLECTION BOX - BLUE BOX", "note": "ON 12/24 AND 12/31, THIS BOX MAY BE COLLECTED AS EARLY AS 12 NOON.", "ref": "3330400011"}, "type": "Feature"}
{"geometry": {"coordinates": [-80.135977799, 26.130016691], "type": "Point"}, "id": "BeNXodcfPcG4Q-VwIBKaZ_R-VWw=", "properties": {"@spider": "usps_collection_boxes", "addr:city": "OAKLAND PARK", "addr:country": "US", "addr:full": "701 NE 6TH ST", "addr:postcode": "33304", "addr:state": "FL", "brand": "USPS", "brand:wikidata": "Q668687", "collection_times": "Mo-Fr 15:20; Sa 13:00", "name": "USPS COLLECTION BOX - BLUE BOX", "note": "ON 12/24 AND 12/31, THIS BOX MAY BE COLLECTED AS EARLY AS 12 NOON.", "ref": "3330400012"}, "type": "Feature"}
{"geometry": {"coordinates": [-80.119949105, 26.132034075], "type": "Point"}, "id": "ocNnliG6AQSUekzd0LVOscddNko=", "properties": {"@spider": "usps_collection_boxes", "addr:city": "OAKLAND PARK", "addr:country": "US", "addr:full": "1950 NE 7 ST", "addr:postcode": "33304", "addr:state": "FL", "brand": "USPS", "brand:wikidata": "Q668687", "collection_times": "Mo-Sa 16:00", "name": "USPS COLLECTION BOX - BLUE BOX", "note": "ON 12/24 AND 12/31, THIS BOX MAY BE COLLECTED AS EARLY AS 12 NOON.", "ref": "3330400019"}, "type": "Feature"}
{"geometry": {"coordinates": [-80.113183142, 26.137826497], "type": "Point"}, "id": "b6iGUI6ZwwWJqUtXTdue-BmyHD0=", "properties": {"@spider": "usps_collection_boxes", "addr:city": "OAKLAND PARK", "addr:country": "US", "addr:full": "2400 E SUNRISE BLVD", "addr:postcode": "33304", "addr:state": "FL", "brand": "USPS", "brand:wikidata": "Q668687", "collection_times": "Mo-Fr 13:30", "name": "USPS COLLECTION BOX - BLUE BOX", "note": "ON 12/24 AND 12/31, THIS BOX MAY BE COLLECTED AS EARLY AS 12 NOON.", "ref": "3330400023"}, "type": "Feature"}
{"geometry": {"coordinates": [-80.110953484, 26.135147788], "type": "Point"}, "id": "l061_7CvyrsqlXaps0zeCgxsaGk=", "properties": {"@spider": "usps_collection_boxes", "addr:city": "OAKLAND PARK", "addr:country": "US", "addr:full": "900 NE 26TH AVE", "addr:postcode": "33304", "addr:state": "FL", "brand": "USPS", "brand:wikidata": "Q668687", "collection_times": "Mo-Fr 11:15; Sa 13:00", "name": "USPS COLLECTION BOX - BLUE BOX", "note": "ON 12/24 AND 12/31, THIS BOX MAY BE COLLECTED AS EARLY AS 12 NOON.", "ref": "3330400024"}, "type": "Feature"}
{"geometry": {"coordinates": [-80.1068424232, 26.1332635284], "type": "Point"}, "id": "InPt-kKGB-PCUnMl-if7mKF1hv8=", "properties": {"@spider": "usps_collection_boxes", "addr:city": "OAKLAND PARK", "addr:country": "US", "addr:full": "720 ORTON AVE", "addr:postcode": "33304", "addr:state": "FL", "brand": "USPS", "brand:wikidata": "Q668687", "collection_times": "Mo-Sa 15:00", "name": "USPS COLLECTION BOX - BLUE BOX", "note": "ON 12/24 AND 12/31, THIS BOX MAY BE COLLECTED AS EARLY AS 12 NOON.", "ref": "3330400028"}, "type": "Feature"}
{"geometry": {"coordinates": [-80.105961505, 26.131197505], "type": "Point"}, "id": "pky2JMzeQkRmhr2BtHNS7WBHaDk=", "properties": {"@spider": "usps_collection_boxes", "addr:city": "OAKLAND PARK", "addr:country": "US", "addr:full": "601 N BIRCH RD", "addr:postcode": "33304", "addr:state": "FL", "brand": "USPS", "brand:wikidata": "Q668687", "collection_times": "Mo-Fr 12:00; Sa 13:00", "name": "USPS COLLECTION BOX - BLUE BOX", "note": "ON 12/24 AND 12/31, THIS BOX MAY BE COLLECTED AS EARLY AS 12 NOON.", "ref": "3330400029"}, "type": "Feature"}
{"geometry": {"coordinates": [-80.11204361, 26.138106232], "type": "Point"}, "id": "-bP8iYXEE4GTXYE321sNbolWNIQ=", "properties": {"@spider": "usps_collection_boxes", "addr:city": "OAKLAND PARK", "addr:country": "US", "addr:full": "2549 E SUNRISE BLVD", "addr:postcode": "33304", "addr:state": "FL", "brand": "USPS", "brand:wikidata": "Q668687", "collection_times": "Mo-Sa 10:00", "name": "USPS COLLECTION BOX - BLUE BOX", "ref": "3330400032"}, "type": "Feature"}
{"geometry": {"coordinates": [-80.110872671, 26.140832475], "type": "Point"}, "id": "PeQbdpsFm0AeDnOalRuxC2bcSOc=", "properties": {"@spider": "usps_collection_boxes", "addr:city": "OAKLAND PARK", "addr:country": "US", "addr:full": "2701 YACHT CLUB BLVD", "addr:postcode": "33304", "addr:state": "FL", "brand": "USPS", "brand:wikidata": "Q668687", "collection_times": "Mo-Fr 15:00; Sa 13:00", "name": "USPS COLLECTION BOX - BLUE BOX", "note": "ON 12/24 AND 12/31, THIS BOX MAY BE COLLECTED AS EARLY AS 12 NOON.", "ref": "3330400034"}, "type": "Feature"}
{"geometry": {"coordinates": [-80.113601415, 26.138022502], "type": "Point"}, "id": "tRja6_-d_2vjBpPIUhllXG9b5lY=", "properties": {"@spider": "usps_collection_boxes", "addr:city": "OAKLAND PARK", "addr:country": "US", "addr:full": "2455 E SUNRISE BLVD", "addr:postcode": "33304", "addr:state": "FL", "brand": "USPS", "brand:wikidata": "Q668687", "collection_times": "Mo-Fr 17:20; Sa 13:00", "name": "USPS COLLECTION BOX - BLUE BOX", "note": "ON 12/24 AND 12/31, THIS BOX MAY BE COLLECTED AS EARLY AS 12 NOON.", "ref": "3330400035"}, "type": "Feature"}
{"geometry": {"coordinates": [-80.140791419, 26.130905057], "type": "Point"}, "id": "2duLSwadC972lgWiYit62FCHGuw=", "properties": {"@spider": "usps_collection_boxes", "addr:city": "OAKLAND PARK", "addr:country": "US", "addr:full": "634 NE 3RD AVE", "addr:postcode": "33304", "addr:state": "FL", "brand": "USPS", "brand:wikidata": "Q668687", "collection_times": "Mo-Sa 14:00", "name": "USPS COLLECTION BOX - BLUE BOX", "note": "ON 12/24 AND 12/31, THIS BOX MAY BE COLLECTED AS EARLY AS 12 NOON.", "ref": "3330400042"}, "type": "Feature"}
{"geometry": {"coordinates": [-80.113601415, 26.138022502], "type": "Point"}, "id": "IcKBeAFylgXU9waqNm_XrI0qUto=", "properties": {"@spider": "usps_collection_boxes", "addr:city": "OAKLAND PARK", "addr:country": "US", "addr:full": "2455 E SUNRISE BLVD", "addr:postcode": "33304", "addr:state": "FL", "brand": "USPS", "brand:wikidata": "Q668687", "collection_times": "Mo-Fr 17:20; Sa 13:00", "name": "USPS COLLECTION BOX - BLUE BOX", "note": "ON 12/24 AND 12/31, THIS BOX MAY BE COLLECTED AS EARLY AS 12 NOON.", "ref": "3330400044"}, "type": "Feature"}
{"geometry": {"coordinates": [-80.131282889, 26.137273469], "type": "Point"}, "id": "2C7y1WmNxzllPlbX9WvAdWrsc4g=", "properties": {"@spider": "usps_collection_boxes", "addr:city": "OAKLAND PARK", "addr:country": "US", "addr:full": "1201 N FEDERAL HWY STE 2A", "addr:postcode": "33304", "addr:state": "FL", "brand": "USPS", "brand:wikidata": "Q668687", "collection_times": "Mo-Fr 17:00; Sa 12:00", "name": "USPS COLLECTION BOX - PO LOBBY", "note": "ON 12/24 AND 12/31, THIS BOX MAY BE COLLECTED AS EARLY AS 12 NOON.", "ref": "3330400051"}, "type": "Feature"}
{"geometry": {"coordinates": [-80.129487152, 26.159480913], "type": "Point"}, "id": "UjMsiWo5kqtdQ7Nlo2fIxfRCo7U=", "properties": {"@spider": "usps_collection_boxes", "addr:city": "WILTON MANORS", "addr:country": "US", "addr:full": "1408 NE 26TH ST", "addr:postcode": "33305", "addr:state": "FL", "brand": "USPS", "brand:wikidata": "Q668687", "collection_times": "Mo-Sa 13:00", "name": "USPS COLLECTION BOX - BLUE BOX", "note": "ON 12/24 AND 12/31, THIS BOX MAY BE COLLECTED AS EARLY AS 12 NOON.", "ref": "3330500000"}, "type": "Feature"}
{"geometry": {"coordinates": [-80.139991636, 26.15927855], "type": "Point"}, "id": "cOtiG2ljZtGvkGHYbogNy5Zx8j0=", "properties": {"@spider": "usps_collection_boxes", "addr:city": "WILTON MANORS", "addr:country": "US", "addr:full": "500 NE 26TH ST", "addr:postcode": "33305", "addr:state": "FL", "brand": "USPS", "brand:wikidata": "Q668687", "collection_times": "Mo-Fr 17:00; Sa 13:00", "name": "USPS COLLECTION BOX - BLUE BOX", "note": "ON 12/24 AND 12/31, THIS BOX MAY BE COLLECTED AS EARLY AS 12 NOON.", "ref": "3330500001"}, "type": "Feature"}
{"geometry": {"coordinates": [-80.140225866, 26.153950182], "type": "Point"}, "id": "0xC4n9nEs2mocjmBM9YlxUGqP90=", "properties": {"@spider": "usps_collection_boxes", "addr:city": "WILTON MANORS", "addr:country": "US", "addr:full": "2020 WILTON DR", "addr:postcode": "33305", "addr:state": "FL", "brand": "USPS", "brand:wikidata": "Q668687", "collection_times": "Mo-Sa 12:00", "name": "USPS COLLECTION BOX - BLUE BOX", "ref": "3330500002"}, "type": "Feature"}
{"geometry": {"coordinates": [-80.122333112, 26.159722457], "type": "Point"}, "id": "preuXYACEwBln1-0N2IkqMWN1Xc=", "properties": {"@spider": "usps_collection_boxes", "addr:city": "WILTON MANORS", "addr:country": "US", "addr:full": "1881 NE 26TH ST", "addr:postcode": "33305", "addr:state": "FL", "brand": "USPS", "brand:wikidata": "Q668687", "collection_times": "Mo-Fr 17:05; Sa 13:00", "name": "USPS COLLECTION BOX - BLUE BOX", "note": "ON 12/24 AND 12/31, THIS BOX MAY BE COLLECTED AS EARLY AS 12 NOON.", "ref": "3330500003"}, "type": "Feature"}
{"geometry": {"coordinates": [-80.134294858, 26.147658745], "type": "Point"}, "id": "fqJXXZDe-Z9bKffFtGm9z4ESrJU=", "properties": {"@spider": "usps_collection_boxes", "addr:city": "WILTON MANORS", "addr:country": "US", "addr:full": "1601 N DIXIE HWY", "addr:postcode": "33305", "addr:state": "FL", "brand": "USPS", "brand:wikidata": "Q668687", "collection_times": "Mo-Fr 15:00; Sa 13:00", "name": "USPS COLLECTION BOX - BLUE BOX", "note": "ON 12/24 AND 12/31, THIS BOX MAY BE COLLECTED AS EARLY AS 12 NOON.", "ref": "3330500007"}, "type": "Feature"}
{"geometry": {"coordinates": [-80.113766967, 26.151979958], "type": "Point"}, "id": "RfuzovnH1VbmubN7dzsHaFXueSY=", "properties": {"@spider": "usps_collection_boxes", "addr:city": "WILTON MANORS", "addr:country": "US", "addr:full": "1881 MIDDLE RIVER DR", "addr:postcode": "33305", "addr:state": "FL", "brand": "USPS", "brand:wikidata": "Q668687", "collection_times": "Mo-Fr 17:10; Sa 13:00", "name": "USPS COLLECTION BOX - BLUE BOX", "note": "ON 12/24 AND 12/31, THIS BOX MAY BE COLLECTED AS EARLY AS 12 NOON.", "ref": "3330500008"}, "type": "Feature"}
{"geometry": {"coordinates": [-80.128071506, 26.14969991], "type": "Point"}, "id": "GBztUqaEJk8glTab03iDw9b44HE=", "properties": {"@spider": "usps_collection_boxes", "addr:city": "WILTON MANORS", "addr:country": "US", "addr:full": "1601 NE 17TH ST", "addr:postcode": "33305", "addr:state": "FL", "brand": "USPS", "brand:wikidata": "Q668687", "collection_times": "Mo-Sa 12:00", "name": "USPS COLLECTION BOX - BLUE BOX", "ref": "3330500009"}, "type": "Feature"}
{"geometry": {"coordinates": [-80.125919325, 26.159569206], "type": "Point"}, "id": "QD0m5CfQgT_YRA3uHI481c5Q-yc=", "properties": {"@spider": "usps_collection_boxes", "addr:city": "WILTON MANORS", "addr:country": "US", "addr:full": "2608 NE 16TH AVE", "addr:postcode": "33305", "addr:state": "FL", "brand": "USPS", "brand:wikidata": "Q668687", "collection_times": "Mo-Sa 11:00", "name": "USPS COLLECTION BOX - BLUE BOX", "ref": "3330500011"}, "type": "Feature"}
{"geometry": {"coordinates": [-80.116771326, 26.160141981], "type": "Point"}, "id": "R6zWQrDj1MqZXc1ToZgtHJxEL9I=", "properties": {"@spider": "usps_collection_boxes", "addr:city": "FT LAUDERDALE", "addr:country": "US", "addr:full": "2621 N FEDERAL HWY", "addr:postcode": "33306", "addr:state": "FL", "brand": "USPS", "brand:wikidata": "Q668687", "collection_times": "Mo-Fr 14:30; Sa 13:00", "name": "USPS COLLECTION BOX - BLUE BOX", "note": "ON 12/24 AND 12/31, THIS BOX MAY BE COLLECTED AS EARLY AS 12 NOON.", "ref": "3330600000"}, "type": "Feature"}
{"geometry": {"coordinates": [-80.1126941313, 26.1671562028], "type": "Point"}, "id": "16NgrGOyVqcRsj3f0D1AzZvGX8Y=", "properties": {"@spider": "usps_collection_boxes", "addr:city": "FT LAUDERDALE", "addr:country": "US", "addr:full": "2644 E OAKLAND PARK BLVD", "addr:postcode": "33306", "addr:state": "FL", "brand": "USPS", "brand:wikidata": "Q668687", "collection_times": "Mo-Fr 14:15; Sa 13:00", "name": "USPS COLLECTION BOX - BLUE BOX", "note": "ON 12/24 AND 12/31, THIS BOX MAY BE COLLECTED AS EARLY AS 12 NOON.", "ref": "3330600002"}, "type": "Feature"}
{"geometry": {"coordinates": [-80.108401112, 26.167425461], "type": "Point"}, "id": "W5A0JpOMJB1PbfvivrOjd8ooUm8=", "properties": {"@spider": "usps_collection_boxes", "addr:city": "FT LAUDERDALE", "addr:country": "US", "addr:full": "2801 E OAKLAND PARK BLVD", "addr:postcode": "33306", "addr:state": "FL", "brand": "USPS", "brand:wikidata": "Q668687", "collection_times": "Mo-Fr 14:20; Sa 13:00", "name": "USPS COLLECTION BOX - BLUE BOX", "note": "ON 12/24 AND 12/31, THIS BOX MAY BE COLLECTED AS EARLY AS 12 NOON.", "ref": "3330600009"}, "type": "Feature"}
{"geometry": {"coordinates": [-80.1139625569, 26.1673604499], "type": "Point"}, "id": "fyVtUjYAMHzE6NXMqA5lZR8I7hM=", "properties": {"@spider": "usps_collection_boxes", "addr:city": "FT LAUDERDALE", "addr:country": "US", "addr:full": "2601 E OAKLAND PARK BLVD", "addr:postcode": "33306", "addr:state": "FL", "brand": "USPS", "brand:wikidata": "Q668687", "collection_times": "Mo-Fr 14:25; Sa 13:00", "name": "USPS COLLECTION BOX - BLUE BOX", "note": "ON 12/24 AND 12/31, THIS BOX MAY BE COLLECTED AS EARLY AS 12 NOON.", "ref": "3330600011"}, "type": "Feature"}
{"geometry": {"coordinates": [-80.117224503, 26.167457021], "type": "Point"}, "id": "v4UCHjhUsFGxigCvV9Bm-7HL97g=", "properties": {"@spider": "usps_collection_boxes", "addr:city": "FT LAUDERDALE", "addr:country": "US", "addr:full": "3101 N FEDERAL HWY", "addr:postcode": "33306", "addr:state": "FL", "brand": "USPS", "brand:wikidata": "Q668687", "collection_times": "Mo-Fr 14:10; Sa 13:00", "name": "USPS COLLECTION BOX - BLUE BOX", "note": "ON 12/24 AND 12/31, THIS BOX MAY BE COLLECTED AS EARLY AS 12 NOON.", "ref": "3330600023"}, "type": "Feature"}
{"geometry": {"coordinates": [-80.117543623, 26.168304399], "type": "Point"}, "id": "CYvP3GrecV_ObHzC8twO2-VMBVs=", "properties": {"@spider": "usps_collection_boxes", "addr:city": "FT LAUDERDALE", "addr:country": "US", "addr:full": "3296 N FEDERAL HWY", "addr:postcode": "33306", "addr:state": "FL", "brand": "USPS", "brand:wikidata": "Q668687", "collection_times": "Mo-Fr 17:20; Sa 13:00", "name": "USPS COLLECTION BOX - BLUE BOX", "note": "ON 12/24 AND 12/31, THIS BOX MAY BE COLLECTED AS EARLY AS 12 NOON.", "ref": "3330600024"}, "type": "Feature"}
{"geometry": {"coordinates": [-80.117543623, 26.168304399], "type": "Point"}, "id": "xn8F8U7SOWtHbhOgvfIKQgm9-Dg=", "properties": {"@spider": "usps_collection_boxes", "addr:city": "FT LAUDERDALE", "addr:country": "US", "addr:full": "3296 N FEDERAL HWY", "addr:postcode": "33306", "addr:state": "FL", "brand": "USPS", "brand:wikidata": "Q668687", "collection_times": "Mo-Fr 17:00", "name": "USPS COLLECTION BOX - PO LOBBY", "note": "ON 12/24 AND 12/31, THIS BOX MAY BE COLLECTED AS EARLY AS 12 NOON.", "ref": "3330600037"}, "type": "Feature"}
{"geometry": {"coordinates": [-80.10951211, 26.201356898], "type": "Point"}, "id": "RRr5TEZb0CmqYUdJbX9Pr2BIUsw=", "properties": {"@spider": "usps_collection_boxes", "addr:city": "FORT LAUDERDALE", "addr:country": "US", "addr:full": "5975 N FEDERAL HWY", "addr:postcode": "33308", "addr:state": "FL", "brand": "USPS", "brand:wikidata": "Q668687", "collection_times": "Mo-Fr 17:10; Sa 13:00", "name": "USPS COLLECTION BOX - BLUE BOX", "note": "ON 12/24 AND 12/31, THIS BOX MAY BE COLLECTED AS EARLY AS 12 NOON.", "ref": "3330800000"}, "type": "Feature"}
{"geometry": {"coordinates": [-80.114436627, 26.196721989], "type": "Point"}, "id": "JZiD21hVzae97mJwKbCENAzsm1g=", "properties": {"@spider": "usps_collection_boxes", "addr:city": "FORT LAUDERDALE", "addr:country": "US", "addr:full": "2161 NE 56TH ST", "addr:postcode": "33308", "addr:state": "FL", "brand": "USPS", "brand:wikidata": "Q668687", "collection_times": "Mo-Fr 15:45; Sa 13:00", "name": "USPS COLLECTION BOX - BLUE BOX", "note": "ON 12/24 AND 12/31, THIS BOX MAY BE COLLECTED AS EARLY AS 12 NOON.", "ref": "3330800001"}, "type": "Feature"}
{"geometry": {"coordinates": [-80.113880082, 26.191827941], "type": "Point"}, "id": "9MPKC54zJ7MwBWhj3JCMojHiTZY=", "properties": {"@spider": "usps_collection_boxes", "addr:city": "FORT LAUDERDALE", "addr:country": "US", "addr:full": "5353 N FEDERAL HWY", "addr:postcode": "33308", "addr:state": "FL", "brand": "USPS", "brand:wikidata": "Q668687", "collection_times": "Mo-Fr 15:50; Sa 13:00", "name": "USPS COLLECTION BOX - BLUE BOX", "note": "ON 12/24 AND 12/31, THIS BOX MAY BE COLLECTED AS EARLY AS 12 NOON.", "ref": "3330800002"}, "type": "Feature"}
{"geometry": {"coordinates": [-80.108098008, 26.205857186], "type": "Point"}, "id": "2BF76F7ykuES6gQVAP-qoBzAnA8=", "properties": {"@spider": "usps_collection_boxes", "addr:city": "FORT LAUDERDALE", "addr:country": "US", "addr:full": "6256 N FEDERAL HWY", "addr:postcode": "33308", "addr:state": "FL", "brand": "USPS", "brand:wikidata": "Q668687", "collection_times": "Mo-Fr 15:40; Sa 13:00", "name": "USPS COLLECTION BOX - BLUE BOX", "note": "ON 12/24 AND 12/31, THIS BOX MAY BE COLLECTED AS EARLY AS 12 NOON.", "ref": "3330800008"}, "type": "Feature"}
{"geometry": {"coordinates": [-80.10752094, 26.208346653], "type": "Point"}, "id": "Tnzk1zp9fXtWESpdWrSwsCotP0Y=", "properties": {"@spider": "usps_collection_boxes", "addr:city": "FORT LAUDERDALE", "addr:country": "US", "addr:full": "6550 N FEDERAL HWY", "addr:postcode": "33308", "addr:state": "FL", "brand": "USPS", "brand:wikidata": "Q668687", "collection_times": "Mo-Fr 17:05; Sa 13:00", "name": "USPS COLLECTION BOX - BLUE BOX", "note": "ON 12/24 AND 12/31, THIS BOX MAY BE COLLECTED AS EARLY AS 12 NOON.", "ref": "3330800009"}, "type": "Feature"}
{"geometry": {"coordinates": [-80.108102588, 26.206832109], "type": "Point"}, "id": "zGK7jkzwFJdvzUAxZRupaihdoH0=", "properties": {"@spider": "usps_collection_boxes", "addr:city": "FORT LAUDERDALE", "addr:country": "US", "addr:full": "6405 N FEDERAL HWY", "addr:postcode": "33308", "addr:state": "FL", "brand": "USPS", "brand:wikidata": "Q668687", "collection_times": "Mo-Fr 17:05; Sa 13:00", "name": "USPS COLLECTION BOX - BLUE BOX", "note": "ON 12/24 AND 12/31, THIS BOX MAY BE COLLECTED AS EARLY AS 12 NOON.", "ref": "3330800013"}, "type": "Feature"}
{"geometry": {"coordinates": [-80.108671716, 26.204646544], "type": "Point"}, "id": "imqcgU9-q4OOPa3cuwKI8Cv8VnQ=", "properties": {"@spider": "usps_collection_boxes", "addr:city": "FORT LAUDERDALE", "addr:country": "US", "addr:full": "6215 N FEDERAL HWY", "addr:postcode": "33308", "addr:state": "FL", "brand": "USPS", "brand:wikidata": "Q668687", "collection_times": "Mo-Fr 15:40; Sa 13:00", "name": "USPS COLLECTION BOX - BLUE BOX", "note": "ON 12/24 AND 12/31, THIS BOX MAY BE COLLECTED AS EARLY AS 12 NOON.", "ref": "3330800015"}, "type": "Feature"}
{"geometry": {"coordinates": [-80.107062831, 26.189891469], "type": "Point"}, "id": "5zrvDm1YsGZg5Xi_zYL2z7BeTs4=", "properties": {"@spider": "usps_collection_boxes", "addr:city": "FORT LAUDERDALE", "addr:country": "US", "addr:full": "2929 E COMMERCIAL BLVD", "addr:postcode": "33308", "addr:state": "FL", "brand": "USPS", "brand:wikidata": "Q668687", "collection_times": "Mo-Fr 17:25; Sa 13:00", "name": "USPS COLLECTION BOX - BLUE BOX", "note": "ON 12/24 AND 12/31, THIS BOX MAY BE COLLECTED AS EARLY AS 12 NOON.", "ref": "3330800018"}, "type": "Feature"}
{"geometry": {"coordinates": [-80.111214503, 26.189796497], "type": "Point"}, "id": "rgqTcZ8VpiXSpiPEFV_0zv6fKwo=", "properties": {"@spider": "usps_collection_boxes", "addr:city": "FORT LAUDERDALE", "addr:country": "US", "addr:full": "2501 E COMMERCIAL BLVD", "addr:postcode": "33308", "addr:state": "FL", "brand": "USPS", "brand:wikidata": "Q668687", "collection_times": "Mo-Fr 17:30", "name": "USPS COLLECTION BOX - BLUE BOX", "note": "ON 12/24 AND 12/31, THIS BOX MAY BE COLLECTED AS EARLY AS 12 NOON.", "ref": "3330800019"}, "type": "Feature"}
{"geometry": {"coordinates": [-80.119713073, 26.179343246], "type": "Point"}, "id": "PoLs2HLxR3ggFblCiD0-EHuh7OQ=", "properties": {"@spider": "usps_collection_boxes", "addr:city": "FORT LAUDERDALE", "addr:country": "US", "addr:full": "4201 N FEDERAL HWY", "addr:postcode": "33308", "addr:state": "FL", "brand": "USPS", "brand:wikidata": "Q668687", "collection_times": "Mo-Fr 16:05; Sa 13:00", "name": "USPS COLLECTION BOX - BLUE BOX", "note": "ON 12/24 AND 12/31, THIS BOX MAY BE COLLECTED AS EARLY AS 12 NOON.", "ref": "3330800022"}, "type": "Feature"}
{"geometry": {"coordinates": [-80.117614499, 26.185076497], "type": "Point"}, "id": "el9UMmUlKiZ736XhJnJh55-HqtM=", "properties": {"@spider": "usps_collection_boxes", "addr:city": "FORT LAUDERDALE", "addr:country": "US", "addr:full": "4606 N FEDERAL HWY", "addr:postcode": "33308", "addr:state": "FL", "brand": "USPS", "brand:wikidata": "Q668687", "collection_times": "Mo-Fr 15:00; Sa 13:00", "name": "USPS COLLECTION BOX - BLUE BOX", "note": "ON 12/24 AND 12/31, THIS BOX MAY BE COLLECTED AS EARLY AS 12 NOON.", "ref": "3330800023"}, "type": "Feature"}
{"geometry": {"coordinates": [-80.116225649, 26.188399202], "type": "Point"}, "id": "2MosEsA9qPkMZ5-67Jcuz7qq_Vo=", "properties": {"@spider": "usps_collection_boxes", "addr:city": "FORT LAUDERDALE", "addr:country": "US", "addr:full": "2070 NE 49TH ST", "addr:postcode": "33308", "addr:state": "FL", "brand": "USPS", "brand:wikidata": "Q668687", "collection_times": "Mo-Fr 15:55; Sa 13:00", "name": "USPS COLLECTION BOX - BLUE BOX", "note": "ON 12/24 AND 12/31, THIS BOX MAY BE COLLECTED AS EARLY AS 12 NOON.", "ref": "3330800024"}, "type": "Feature"}
{"geometry": {"coordinates": [-80.11717599, 26.186678229], "type": "Point"}, "id": "x0rA0nQIm9fkcEFipxcUlKsILJA=", "properties": {"@spider": "usps_collection_boxes", "addr:city": "FORT LAUDERDALE", "addr:country": "US", "addr:full": "2075 NE 48TH ST", "addr:postcode": "33308", "addr:state": "FL", "brand": "USPS", "brand:wikidata": "Q668687", "collection_times": "Mo-Fr 15:55; Sa 13:00", "name": "USPS COLLECTION BOX - BLUE BOX", "note": "ON 12/24 AND 12/31, THIS BOX MAY BE COLLECTED AS EARLY AS 12 NOON.", "ref": "3330800026"}, "type": "Feature"}
{"geometry": {"coordinates": [-80.117715479, 26.185405679], "type": "Point"}, "id": "89IGMEvtUrQT2zgnK26U7VjSOlg=", "properties": {"@spider": "usps_collection_boxes", "addr:city": "FORT LAUDERDALE", "addr:country": "US", "addr:full": "4725 N FEDERAL HWY", "addr:postcode": "33308", "addr:state": "FL", "brand": "USPS", "brand:wikidata": "Q668687", "collection_times": "Mo-Fr 17:35; Sa 13:00", "name": "USPS COLLECTION BOX - BLUE BOX", "note": "ON 12/24 AND 12/31, THIS BOX MAY BE COLLECTED AS EARLY AS 12 NOON.", "ref": "3330800028"}, "type": "Feature"}
{"geometry": {"coordinates": [-80.117707462, 26.185369977], "type": "Point"}, "id": "4-mUjxfi56v2Kp2GjhglUyf9X60=", "properties": {"@spider": "usps_collection_boxes", "addr:city": "FORT LAUDERDALE", "addr:country": "US", "addr:full": "4701 N FEDERAL HWY", "addr:postcode": "33308", "addr:state": "FL", "brand": "USPS", "brand:wikidata": "Q668687", "collection_times": "Mo-Fr 16:00; Sa 13:00", "name": "USPS COLLECTION BOX - BLUE BOX", "note": "ON 12/24 AND 12/31, THIS BOX MAY BE COLLECTED AS EARLY AS 12 NOON.", "ref": "3330800029"}, "type": "Feature"}
{"geometry": {"coordinates": [-80.112770246, 26.189548536], "type": "Point"}, "id": "D9bx2yV8fHYwHJIsAhYeJG9-Zjs=", "properties": {"@spider": "usps_collection_boxes", "addr:city": "FORT LAUDERDALE", "addr:country": "US", "addr:full": "2428 E COMMERCIAL BLVD", "addr:postcode": "33308", "addr:state": "FL", "brand": "USPS", "brand:wikidata": "Q668687", "collection_times": "Mo-Fr 15:05; Sa 13:00", "name": "USPS COLLECTION BOX - BLUE BOX", "note": "ON 12/24 AND 12/31, THIS BOX MAY BE COLLECTED AS EARLY AS 12 NOON.", "ref": "3330800034"}, "type": "Feature"}
{"geometry": {"coordinates": [-80.0988525, 26.189829547], "type": "Point"}, "id": "P3nXtxOzFWUi8JxdE-tCBfxtWCA=", "properties": {"@spider": "usps_collection_boxes", "addr:city": "FORT LAUDERDALE", "addr:country": "US", "addr:full": "224 COMMERCIAL BLVD", "addr:postcode": "33308", "addr:state": "FL", "brand": "USPS", "brand:wikidata": "Q668687", "collection_times": "Mo-Fr 15:10; Sa 13:00", "name": "USPS COLLECTION BOX - BLUE BOX", "note": "ON 12/24 AND 12/31, THIS BOX MAY BE COLLECTED AS EARLY AS 12 NOON.", "ref": "3330800036"}, "type": "Feature"}
{"geometry": {"coordinates": [-80.101691463, 26.169872997], "type": "Point"}, "id": "85xgh0nakGyFDnvYfeKWm_85k8w=", "properties": {"@spider": "usps_collection_boxes", "addr:city": "FORT LAUDERDALE", "addr:country": "US", "addr:full": "3324 NE 34TH ST", "addr:postcode": "33308", "addr:state": "FL", "brand": "USPS", "brand:wikidata": "Q668687", "collection_times": "Mo-Fr 17:45; Sa 13:00", "name": "USPS COLLECTION BOX - BLUE BOX", "note": "ON 12/24 AND 12/31, THIS BOX MAY BE COLLECTED AS EARLY AS 12 NOON.", "ref": "3330800038"}, "type": "Feature"}
{"geometry": {"coordinates": [-80.100515195, 26.167598872], "type": "Point"}, "id": "isI0jlQXGdw7vlSnOkUCyocmxhE=", "properties": {"@spider": "usps_collection_boxes", "addr:city": "FORT LAUDERDALE", "addr:country": "US", "addr:full": "3101 N OCEAN BLVD", "addr:postcode": "33308", "addr:state": "FL", "brand": "USPS", "brand:wikidata": "Q668687", "collection_times": "Mo-Fr 15:15; Sa 13:00", "name": "USPS COLLECTION BOX - BLUE BOX", "note": "ON 12/24 AND 12/31, THIS BOX MAY BE COLLECTED AS EARLY AS 12 NOON.", "ref": "3330800040"}, "type": "Feature"}
{"geometry": {"coordinates": [-80.1305780281, 26.1691419995], "type": "Point"}, "id": "GmS2EHmesN5inQq02xKpo5xn0tc=", "properties": {"@spider": "usps_collection_boxes", "addr:city": "FORT LAUDERDALE", "addr:country": "US", "addr:full": "3350 NE 12TH AVE", "addr:postcode": "33308", "addr:state": "FL", "brand": "USPS", "brand:wikidata": "Q668687", "collection_times": "Mo-Fr 17:45; Sa 17:00", "name": "USPS COLLECTION BOX - BLUE BOX", "note": "ON 12/24 AND 12/31, THIS BOX MAY BE COLLECTED AS EARLY AS 12 NOON.", "ref": "3330800049"}, "type": "Feature"}
{"geometry": {"coordinates": [-80.095910601, 26.197659089], "type": "Point"}, "id": "JLbk9q6V0FxSt1sXqVW6WEIDM5M=", "properties": {"@spider": "usps_collection_boxes", "addr:city": "FORT LAUDERDALE", "addr:country": "US", "addr:full": "4735 N OCEAN DR", "addr:postcode": "33308", "addr:state": "FL", "brand": "USPS", "brand:wikidata": "Q668687", "collection_times": "Mo-Fr 17:20; Sa 13:00", "name": "USPS COLLECTION BOX - BLUE BOX", "note": "ON 12/24 AND 12/31, THIS BOX MAY BE COLLECTED AS EARLY AS 12 NOON.", "ref": "3330800051"}, "type": "Feature"}
{"geometry": {"coordinates": [-80.096451344, 26.192430169], "type": "Point"}, "id": "lnZq8V9_6ey1kj9lyuYqES5qoec=", "properties": {"@spider": "usps_collection_boxes", "addr:city": "FORT LAUDERDALE", "addr:country": "US", "addr:full": "4501 N OCEAN DR", "addr:postcode": "33308", "addr:state": "FL", "brand": "USPS", "brand:wikidata": "Q668687", "collection_times": "Mo-Fr 15:25; Sa 13:00", "name": "USPS COLLECTION BOX - BLUE BOX", "note": "ON 12/24 AND 12/31, THIS BOX MAY BE COLLECTED AS EARLY AS 12 NOON.", "ref": "3330800052"}, "type": "Feature"}
{"geometry": {"coordinates": [-80.098992922, 26.189992464], "type": "Point"}, "id": "pkQ82QRUfMMC3rgOChjBzbzN0Jo=", "properties": {"@spider": "usps_collection_boxes", "addr:city": "FORT LAUDERDALE", "addr:country": "US", "addr:full": "227 E COMMERCIAL BLVD", "addr:postcode": "33308", "addr:state": "FL", "brand": "USPS", "brand:wikidata": "Q668687", "collection_times": "Mo-Fr 15:35; Sa 13:00", "name": "USPS COLLECTION BOX - BLUE BOX", "note": "ON 12/24 AND 12/31, THIS BOX MAY BE COLLECTED AS EARLY AS 12 NOON.", "ref": "3330800053"}, "type": "Feature"}
{"geometry": {"coordinates": [-80.1040635, 26.189934461], "type": "Point"}, "id": "GJvljPtY3NQfblSbV2IpQ9vg42A=", "properties": {"@spider": "usps_collection_boxes", "addr:city": "FORT LAUDERDALE", "addr:country": "US", "addr:full": "3099 E COMMERCIAL BLVD", "addr:postcode": "33308", "addr:state": "FL", "brand": "USPS", "brand:wikidata": "Q668687", "collection_times": "Mo-Fr 17:25; Sa 13:00", "name": "USPS COLLECTION BOX - BLUE BOX", "note": "ON 12/24 AND 12/31, THIS BOX MAY BE COLLECTED AS EARLY AS 12 NOON.", "ref": "3330800055"}, "type": "Feature"}
{"geometry": {"coordinates": [-80.105701165, 26.189718477], "type": "Point"}, "id": "43ropJN_Yu79iQwYZkRQdrMhfIg=", "properties": {"@spider": "usps_collection_boxes", "addr:city": "FORT LAUDERDALE", "addr:country": "US", "addr:full": "3032 E COMMERCIAL BLVD", "addr:postcode": "33308", "addr:state": "FL", "brand": "USPS", "brand:wikidata": "Q668687", "collection_times": "Mo-Fr 17:15; Sa 13:00", "name": "USPS COLLECTION BOX - BLUE BOX", "note": "ON 12/24 AND 12/31, THIS BOX MAY BE COLLECTED AS EARLY AS 12 NOON.", "ref": "3330800061"}, "type": "Feature"}
{"geometry": {"coordinates": [-80.096179071, 26.201686326], "type": "Point"}, "id": "yiFFrQ633KIBGqC3hfvnKqb4MNo=", "properties": {"@spider": "usps_collection_boxes", "addr:city": "FORT LAUDERDALE", "addr:country": "US", "addr:full": "3 GATEHOUSE RD", "addr:postcode": "33308", "addr:state": "FL", "brand": "USPS", "brand:wikidata": "Q668687", "collection_times": "Mo-Fr 15:30; Sa 13:00", "name": "USPS COLLECTION BOX - BLUE BOX", "note": "ON 12/24 AND 12/31, THIS BOX MAY BE COLLECTED AS EARLY AS 12 NOON.", "ref": "3330800063"}, "type": "Feature"}
{"geometry": {"coordinates": [-80.131060256, 26.169111885], "type": "Point"}, "id": "u5u540iTXs_XPai9Yot_il1NTY4=", "properties": {"@spider": "usps_collection_boxes", "addr:city": "FORT LAUDERDALE", "addr:country": "US", "addr:full": "3350 NE 12 AVE", "addr:postcode": "33308", "addr:state": "FL", "brand": "USPS", "brand:wikidata": "Q668687", "collection_times": "Mo-Fr 17:55; Sa 17:00", "name": "USPS COLLECTION BOX - BLUE BOX", "note": "ON 12/24 AND 12/31, THIS BOX MAY BE COLLECTED AS EARLY AS 12 NOON.", "ref": "3330800064"}, "type": "Feature"}
{"geometry": {"coordinates": [-80.113880082, 26.191827941], "type": "Point"}, "id": "XM-sUMu6seyOvIy2AzwBfboe7w8=", "properties": {"@spider": "usps_collection_boxes", "addr:city": "FORT LAUDERDALE", "addr:country": "US", "addr:full": "5353 N FEDERAL HWY", "addr:postcode": "33308", "addr:state": "FL", "brand": "USPS", "brand:wikidata": "Q668687", "collection_times": "Mo-Fr 15:50; Sa 13:00", "name": "USPS COLLECTION BOX - BLUE BOX", "note": "ON 12/24 AND 12/31, THIS BOX MAY BE COLLECTED AS EARLY AS 12 NOON.", "ref": "3330800070"}, "type": "Feature"}
{"geometry": {"coordinates": [-80.131060256, 26.169111885], "type": "Point"}, "id": "8xJ-MFPKWF4hWpzt76cQDRXgHtE=", "properties": {"@spider": "usps_collection_boxes", "addr:city": "FORT LAUDERDALE", "addr:country": "US", "addr:full": "3350 NE 12 AVE", "addr:postcode": "33308", "addr:state": "FL", "brand": "USPS", "brand:wikidata": "Q668687", "collection_times": "Mo-Sa 17:00", "name": "USPS COLLECTION BOX - PO LOBBY", "note": "ON 12/24 AND 12/31, THIS BOX MAY BE COLLECTED AS EARLY AS 12 NOON.", "ref": "3330800076"}, "type": "Feature"}
{"geometry": {"coordinates": [-80.107478775, 26.208656118], "type": "Point"}, "id": "4llNHVw86FJSY6_GshG9ABgGOew=", "properties": {"@spider": "usps_collection_boxes", "addr:city": "FORT LAUDERDALE", "addr:country": "US", "addr:full": "3296 N FEDERAL HWY", "addr:postcode": "33308", "addr:state": "FL", "brand": "USPS", "brand:wikidata": "Q668687", "collection_times": "Mo-Fr 16:00", "name": "USPS COLLECTION BOX - PO LOBBY", "note": "ON 12/24 AND 12/31, THIS BOX MAY BE COLLECTED AS EARLY AS 12 NOON.", "ref": "3330800077"}, "type": "Feature"}
{"geometry": {"coordinates": [-80.101691463, 26.169872997], "type": "Point"}, "id": "iCOgP9DKbaeXt5gyZJzfeieRSs0=", "properties": {"@spider": "usps_collection_boxes", "addr:city": "FORT LAUDERDALE", "addr:country": "US", "addr:full": "3324 NE 34TH ST", "addr:postcode": "33308", "addr:state": "FL", "brand": "USPS", "brand:wikidata": "Q668687", "collection_times": "Mo-Fr 17:00", "name": "USPS COLLECTION BOX - PO LOBBY", "note": "ON 12/24 AND 12/31, THIS BOX MAY BE COLLECTED AS EARLY AS 12 NOON.", "ref": "3330800078"}, "type": "Feature"}
{"geometry": {"coordinates": [-80.107478775, 26.208656118], "type": "Point"}, "id": "1qd7JmzMx9QWWgSzJyewrx4H1HY=", "properties": {"@spider": "usps_collection_boxes", "addr:city": "FORT LAUDERDALE", "addr:country": "US", "addr:full": "1201 N FEDERAL HWY", "addr:postcode": "33308", "addr:state": "FL", "brand": "USPS", "brand:wikidata": "Q668687", "collection_times": "Mo-Fr 16:00", "name": "USPS COLLECTION BOX - PO LOBBY", "note": "ON 12/24 AND 12/31, THIS BOX MAY BE COLLECTED AS EARLY AS 12 NOON.", "ref": "3330800079"}, "type": "Feature"}
{"geometry": {"coordinates": [-80.131091868, 26.169209057], "type": "Point"}, "id": "XuZiQ7km8lGP9aM0cd2XOmM-ftg=", "properties": {"@spider": "usps_collection_boxes", "addr:city": "FORT LAUDERDALE", "addr:country": "US", "addr:full": "3350 NE 12TH AVE", "addr:postcode": "33308", "addr:state": "FL", "brand": "USPS", "brand:wikidata": "Q668687", "collection_times": "Mo-Fr 17:30; Sa 14:00", "name": "USPS COLLECTION BOX - PO LOBBY", "note": "ON 12/24 AND 12/31, THIS BOX MAY BE COLLECTED AS EARLY AS 12 NOON.", "ref": "3330800092"}, "type": "Feature"}
{"geometry": {"coordinates": [-80.164707644, 26.18682823], "type": "Point"}, "id": "OkdfIu2iaeSslWu3hTbPOmaIJ4k=", "properties": {"@spider": "usps_collection_boxes", "addr:city": "OAKLAND PARK", "addr:country": "US", "addr:full": "4901 NW 17TH WAY", "addr:postcode": "33309", "addr:state": "FL", "brand": "USPS", "brand:wikidata": "Q668687", "collection_times": "Mo-Fr 17:25; Sa 13:00", "name": "USPS COLLECTION BOX - BLUE BOX", "note": "ON 12/24 AND 12/31, THIS BOX MAY BE COLLECTED AS EARLY AS 12 NOON.", "ref": "3330900001"}, "type": "Feature"}
{"geometry": {"coordinates": [-80.178062087, 26.19177546], "type": "Point"}, "id": "hEXWaw1hTtykTw5QHkqdiGFqRKY=", "properties": {"@spider": "usps_collection_boxes", "addr:city": "OAKLAND PARK", "addr:country": "US", "addr:full": "2611 NW 53RD ST", "addr:postcode": "33309", "addr:state": "FL", "brand": "USPS", "brand:wikidata": "Q668687", "collection_times": "Mo-Sa 16:00", "name": "USPS COLLECTION BOX - BLUE BOX", "note": "ON 12/24 AND 12/31, THIS BOX MAY BE COLLECTED AS EARLY AS 12 NOON.", "ref": "3330900009"}, "type": "Feature"}
{"geometry": {"coordinates": [-80.146529856, 26.170558805], "type": "Point"}, "id": "4SV0e7GQOpSzOU4HvooNYHqQUZE=", "properties": {"@spider": "usps_collection_boxes", "addr:city": "OAKLAND PARK", "addr:country": "US", "addr:full": "3400 N ANDREWS AVE", "addr:postcode": "33309", "addr:state": "FL", "brand": "USPS", "brand:wikidata": "Q668687", "collection_times": "Mo-Fr 15:10; Sa 13:00", "name": "USPS COLLECTION BOX - BLUE BOX", "note": "ON 12/24 AND 12/31, THIS BOX MAY BE COLLECTED AS EARLY AS 12 NOON.", "ref": "3330900010"}, "type": "Feature"}
{"geometry": {"coordinates": [-80.171353006, 26.188269464], "type": "Point"}, "id": "gGE-MUDJVXcGuiEaEYtKjGOsiiY=", "properties": {"@spider": "usps_collection_boxes", "addr:city": "OAKLAND PARK", "addr:country": "US", "addr:full": "2101 W COMMERCIAL BLVD", "addr:postcode": "33309", "addr:state": "FL", "brand": "USPS", "brand:wikidata": "Q668687", "collection_times": "Mo-Fr 15:00; Sa 13:00", "name": "USPS COLLECTION BOX - BLUE BOX", "note": "ON 12/24 AND 12/31, THIS BOX MAY BE COLLECTED AS EARLY AS 12 NOON.", "ref": "3330900014"}, "type": "Feature"}
{"geometry": {"coordinates": [-80.18823212, 26.186224466], "type": "Point"}, "id": "LE5fm13xOImRqWPT6bDqdcu8ges=", "properties": {"@spider": "usps_collection_boxes", "addr:city": "OAKLAND PARK", "addr:country": "US", "addr:full": "3102 W COMMERCIAL BLVD", "addr:postcode": "33309", "addr:state": "FL", "brand": "USPS", "brand:wikidata": "Q668687", "collection_times": "Mo-Fr 14:25; Sa 13:00", "name": "USPS COLLECTION BOX - BLUE BOX", "note": "ON 12/24 AND 12/31, THIS BOX MAY BE COLLECTED AS EARLY AS 12 NOON.", "ref": "3330900017"}, "type": "Feature"}
{"geometry": {"coordinates": [-80.17946358, 26.187030244], "type": "Point"}, "id": "FMRbfd-3y3fDpUOp7UNa-pXq_O8=", "properties": {"@spider": "usps_collection_boxes", "addr:city": "OAKLAND PARK", "addr:country": "US", "addr:full": "2800 NW 49TH COURT", "addr:postcode": "33309", "addr:state": "FL", "brand": "USPS", "brand:wikidata": "Q668687", "collection_times": "Mo-Fr 14:45; Sa 13:00", "name": "USPS COLLECTION BOX - BLUE BOX", "note": "ON 12/24 AND 12/31, THIS BOX MAY BE COLLECTED AS EARLY AS 12 NOON.", "ref": "3330900019"}, "type": "Feature"}
{"geometry": {"coordinates": [-80.1900990122, 26.187198002], "type": "Point"}, "id": "_2w-LvFpXh2UB2cZ6FINYpeiXZg=", "properties": {"@spider": "usps_collection_boxes", "addr:city": "OAKLAND PARK", "addr:country": "US", "addr:full": "3201 WEST COMMERCIAL BLVD", "addr:postcode": "33309", "addr:state": "FL", "brand": "USPS", "brand:wikidata": "Q668687", "collection_times": "Mo-Fr 17:30", "name": "USPS COLLECTION BOX - BLUE BOX", "note": "ON 12/24 AND 12/31, THIS BOX MAY BE COLLECTED AS EARLY AS 12 NOON.", "ref": "3330900021"}, "type": "Feature"}
{"geometry": {"coordinates": [-80.1933023, 26.187612], "type": "Point"}, "id": "-raH2kABCDsfspTj79iG5ZvZxPA=", "properties": {"@spider": "usps_collection_boxes", "addr:city": "OAKLAND PARK", "addr:country": "US", "addr:full": "3323 W COMMERCIAL BLVD", "addr:postcode": "33309", "addr:state": "FL", "brand": "USPS", "brand:wikidata": "Q668687", "collection_times": "Mo-Fr 14:25; Sa 13:00", "name": "USPS COLLECTION BOX - BLUE BOX", "note": "ON 12/24 AND 12/31, THIS BOX MAY BE COLLECTED AS EARLY AS 12 NOON.", "ref": "3330900023"}, "type": "Feature"}
{"geometry": {"coordinates": [-80.191233995, 26.18887562], "type": "Point"}, "id": "DGNVLUicjpnUO2DdNZH2CI0bmK0=", "properties": {"@spider": "usps_collection_boxes", "addr:city": "OAKLAND PARK", "addr:country": "US", "addr:full": "5200 NW 33RD AVE", "addr:postcode": "33309", "addr:state": "FL", "brand": "USPS", "brand:wikidata": "Q668687", "collection_times": "Mo-Fr 14:30", "name": "USPS COLLECTION BOX - BLUE BOX", "note": "ON 12/24 AND 12/31, THIS BOX MAY BE COLLECTED AS EARLY AS 12 NOON.", "ref": "3330900027"}, "type": "Feature"}
{"geometry": {"coordinates": [-80.191349005, 26.188536249], "type": "Point"}, "id": "VKIRU8u8WfyWJMWsOgDtyZBrSoo=", "properties": {"@spider": "usps_collection_boxes", "addr:city": "OAKLAND PARK", "addr:country": "US", "addr:full": "5233 NW 33RD AVE", "addr:postcode": "33309", "addr:state": "FL", "brand": "USPS", "brand:wikidata": "Q668687", "collection_times": "Mo-Fr 14:30; Sa 13:00", "name": "USPS COLLECTION BOX - BLUE BOX", "note": "ON 12/24 AND 12/31, THIS BOX MAY BE COLLECTED AS EARLY AS 12 NOON.", "ref": "3330900031"}, "type": "Feature"}
{"geometry": {"coordinates": [-80.191876651, 26.189999037], "type": "Point"}, "id": "ShRFKORYk-obaclmNX1G6lxWRps=", "properties": {"@spider": "usps_collection_boxes", "addr:city": "OAKLAND PARK", "addr:country": "US", "addr:full": "5310 NW 33RD AVE", "addr:postcode": "33309", "addr:state": "FL", "brand": "USPS", "brand:wikidata": "Q668687", "collection_times": "Mo-Fr 14:35; Sa 13:00", "name": "USPS COLLECTION BOX - BLUE BOX", "note": "ON 12/24 AND 12/31, THIS BOX MAY BE COLLECTED AS EARLY AS 12 NOON.", "ref": "3330900033"}, "type": "Feature"}
{"geometry": {"coordinates": [-80.202450945, 26.17626253], "type": "Point"}, "id": "nqocUHdIq-PWFY3CXFh5TUmxwPc=", "properties": {"@spider": "usps_collection_boxes", "addr:city": "OAKLAND PARK", "addr:country": "US", "addr:full": "3991 NW 41ST ST", "addr:postcode": "33309", "addr:state": "FL", "brand": "USPS", "brand:wikidata": "Q668687", "collection_times": "Mo-Fr 14:15; Sa 13:00", "name": "USPS COLLECTION BOX - BLUE BOX", "note": "ON 12/24 AND 12/31, THIS BOX MAY BE COLLECTED AS EARLY AS 12 NOON.", "ref": "3330900036"}, "type": "Feature"}
{"geometry": {"coordinates": [-80.1952994, 26.194945], "type": "Point"}, "id": "pCHW5OT0FiojwJPIM-IDtgwWTcE=", "properties": {"@spider": "usps_collection_boxes", "addr:city": "OAKLAND PARK", "addr:country": "US", "addr:full": "3453 PROSPECT RD", "addr:postcode": "33309", "addr:state": "FL", "brand": "USPS", "brand:wikidata": "Q668687", "collection_times": "Mo-Fr 14:40", "name": "USPS COLLECTION BOX - BLUE BOX", "note": "ON 12/24 AND 12/31, THIS BOX MAY BE COLLECTED AS EARLY AS 12 NOON.", "ref": "3330900037"}, "type": "Feature"}
{"geometry": {"coordinates": [-80.18742115, 26.182458052], "type": "Point"}, "id": "kfHZVMD8HktqMDfjD6e2hTGU1s8=", "properties": {"@spider": "usps_collection_boxes", "addr:city": "OAKLAND PARK", "addr:country": "US", "addr:full": "4501 NW 31ST AVE", "addr:postcode": "33309", "addr:state": "FL", "brand": "USPS", "brand:wikidata": "Q668687", "collection_times": "Mo-Fr 14:20; Sa 13:00", "name": "USPS COLLECTION BOX - BLUE BOX", "note": "ON 12/24 AND 12/31, THIS BOX MAY BE COLLECTED AS EARLY AS 12 NOON.", "ref": "3330900040"}, "type": "Feature"}
{"geometry": {"coordinates": [-80.180068844, 26.173892483], "type": "Point"}, "id": "WFJPlV1NZvIp9YHCihVtyXddBDw=", "properties": {"@spider": "usps_collection_boxes", "addr:city": "OAKLAND PARK", "addr:country": "US", "addr:full": "114 LAKE EMERALD DR", "addr:postcode": "33309", "addr:state": "FL", "brand": "USPS", "brand:wikidata": "Q668687", "collection_times": "Mo-Fr 16:00", "name": "USPS COLLECTION BOX - BLUE BOX", "note": "ON 12/24 AND 12/31, THIS BOX MAY BE COLLECTED AS EARLY AS 12 NOON.", "ref": "3330900041"}, "type": "Feature"}
{"geometry": {"coordinates": [-80.1791319, 26.168458], "type": "Point"}, "id": "AJkz7BqJHCgWAI8LW241lhdTtZ4=", "properties": {"@spider": "usps_collection_boxes", "addr:city": "OAKLAND PARK", "addr:country": "US", "addr:full": "2829 S OAKLAND FOREST DR", "addr:postcode": "33309", "addr:state": "FL", "brand": "USPS", "brand:wikidata": "Q668687", "collection_times": "Mo-Fr 14:05; Sa 13:00", "name": "USPS COLLECTION BOX - BLUE BOX", "note": "ON 12/24 AND 12/31, THIS BOX MAY BE COLLECTED AS EARLY AS 12 NOON.", "ref": "3330900042"}, "type": "Feature"}
{"geometry": {"coordinates": [-80.183545763, 26.167389331], "type": "Point"}, "id": "_Upqop8jcVh3bW62PnmwbObnDPs=", "properties": {"@spider": "usps_collection_boxes", "addr:city": "OAKLAND PARK", "addr:country": "US", "addr:full": "3127 OAKLAND SHORES DR", "addr:postcode": "33309", "addr:state": "FL", "brand": "USPS", "brand:wikidata": "Q668687", "collection_times": "Mo-Sa 16:00", "name": "USPS COLLECTION BOX - BLUE BOX", "note": "ON 12/24 AND 12/31, THIS BOX MAY BE COLLECTED AS EARLY AS 12 NOON.", "ref": "3330900043"}, "type": "Feature"}
{"geometry": {"coordinates": [-80.148416778, 26.181329959], "type": "Point"}, "id": "9Y5OIeNqpf6xN3c_CboI5OjKeoY=", "properties": {"@spider": "usps_collection_boxes", "addr:city": "OAKLAND PARK", "addr:country": "US", "addr:full": "221 PROSPECT ROAD", "addr:postcode": "33309", "addr:state": "FL", "brand": "USPS", "brand:wikidata": "Q668687", "collection_times": "Mo-Fr 17:30; Sa 13:00", "name": "USPS COLLECTION BOX - BLUE BOX", "note": "ON 12/24 AND 12/31, THIS BOX MAY BE COLLECTED AS EARLY AS 12 NOON.", "ref": "3330900046"}, "type": "Feature"}
{"geometry": {"coordinates": [-80.149349804, 26.203193255], "type": "Point"}, "id": "Unyp0i6ZRq2QMBGTqZ8lPJw0fPo=", "properties": {"@spider": "usps_collection_boxes", "addr:city": "OAKLAND PARK", "addr:country": "US", "addr:full": "100 W CYPRESS CREEK RD", "addr:postcode": "33309", "addr:state": "FL", "brand": "USPS", "brand:wikidata": "Q668687", "collection_times": "Mo-Fr 17:25; Sa 13:00", "name": "USPS COLLECTION BOX - BLUE BOX", "note": "ON 12/24 AND 12/31, THIS BOX MAY BE COLLECTED AS EARLY AS 12 NOON.", "ref": "3330900050"}, "type": "Feature"}
{"geometry": {"coordinates": [-80.151559643, 26.203165479], "type": "Point"}, "id": "9hoqxESzbamtF9q96pAsAneN43k=", "properties": {"@spider": "usps_collection_boxes", "addr:city": "OAKLAND PARK", "addr:country": "US", "addr:full": "500 W CYPRESS CREEK RD", "addr:postcode": "33309", "addr:state": "FL", "brand": "USPS", "brand:wikidata": "Q668687", "collection_times": "Mo-Fr 17:10; Sa 13:00", "name": "USPS COLLECTION BOX - BLUE BOX", "note": "ON 12/24 AND 12/31, THIS BOX MAY BE COLLECTED AS EARLY AS 12 NOON.", "ref": "3330900051"}, "type": "Feature"}
{"geometry": {"coordinates": [-80.151559643, 26.203165479], "type": "Point"}, "id": "4d4n9tDyunIvUUS88bZQ_uglxj0=", "properties": {"@spider": "usps_collection_boxes", "addr:city": "OAKLAND PARK", "addr:country": "US", "addr:full": "500 W CYPRESS CREEK RD", "addr:postcode": "33309", "addr:state": "FL", "brand": "USPS", "brand:wikidata": "Q668687", "collection_times": "Mo-Fr 17:10; Sa 13:00", "name": "USPS COLLECTION BOX - BLUE BOX", "note": "ON 12/24 AND 12/31, THIS BOX MAY BE COLLECTED AS EARLY AS 12 NOON.", "ref": "3330900052"}, "type": "Feature"}
{"geometry": {"coordinates": [-80.145851223, 26.209809547], "type": "Point"}, "id": "pAetpZOtnQWO8qzpuOPCoJB3zMk=", "properties": {"@spider": "usps_collection_boxes", "addr:city": "OAKLAND PARK", "addr:country": "US", "addr:full": "150 NW 68TH ST", "addr:postcode": "33309", "addr:state": "FL", "brand": "USPS", "brand:wikidata": "Q668687", "collection_times": "Mo-Fr 16:00; Sa 13:00", "name": "USPS COLLECTION BOX - BLUE BOX", "note": "ON 12/24 AND 12/31, THIS BOX MAY BE COLLECTED AS EARLY AS 12 NOON.", "ref": "3330900055"}, "type": "Feature"}
{"geometry": {"coordinates": [-80.1522495479, 26.2047980504], "type": "Point"}, "id": "Z6rg-k0tSqeRFmvt9F1PB0WjDh4=", "properties": {"@spider": "usps_collection_boxes", "addr:city": "OAKLAND PARK", "addr:country": "US", "addr:full": "6301 NW 6TH WAY", "addr:postcode": "33309", "addr:state": "FL", "brand": "USPS", "brand:wikidata": "Q668687", "collection_times": "Mo-Fr 15:55; Sa 13:00", "name": "USPS COLLECTION BOX - BLUE BOX", "note": "ON 12/24 AND 12/31, THIS BOX MAY BE COLLECTED AS EARLY AS 12 NOON.", "ref": "3330900058"}, "type": "Feature"}
{"geometry": {"coordinates": [-80.155121055, 26.203104506], "type": "Point"}, "id": "b6HFq_rfs3Z755Svx4PV6fnBHcU=", "properties": {"@spider": "usps_collection_boxes", "addr:city": "OAKLAND PARK", "addr:country": "US", "addr:full": "888 NW 62ND ST", "addr:postcode": "33309", "addr:state": "FL", "brand": "USPS", "brand:wikidata": "Q668687", "collection_times": "Mo-Fr 15:40; Sa 13:00", "name": "USPS COLLECTION BOX - BLUE BOX", "note": "ON 12/24 AND 12/31, THIS BOX MAY BE COLLECTED AS EARLY AS 12 NOON.", "ref": "3330900064"}, "type": "Feature"}
{"geometry": {"coordinates": [-80.155981121, 26.20652575], "type": "Point"}, "id": "Hnz-8N54n6a1KppBmwEXyBP4uqo=", "properties": {"@spider": "usps_collection_boxes", "addr:city": "OAKLAND PARK", "addr:country": "US", "addr:full": "6499 POWERLINE RD", "addr:postcode": "33309", "addr:state": "FL", "brand": "USPS", "brand:wikidata": "Q668687", "collection_times": "Mo-Fr 16:00; Sa 13:00", "name": "USPS COLLECTION BOX - BLUE BOX", "note": "ON 12/24 AND 12/31, THIS BOX MAY BE COLLECTED AS EARLY AS 12 NOON.", "ref": "3330900067"}, "type": "Feature"}
{"geometry": {"coordinates": [-80.158591875, 26.203237454], "type": "Point"}, "id": "7690LfUBkFCypm8mgWR28MVUUBM=", "properties": {"@spider": "usps_collection_boxes", "addr:city": "OAKLAND PARK", "addr:country": "US", "addr:full": "1001 NW 62ND ST", "addr:postcode": "33309", "addr:state": "FL", "brand": "USPS", "brand:wikidata": "Q668687", "collection_times": "Mo-Fr 16:00; Sa 13:00", "name": "USPS COLLECTION BOX - BLUE BOX", "note": "ON 12/24 AND 12/31, THIS BOX MAY BE COLLECTED AS EARLY AS 12 NOON.", "ref": "3330900068"}, "type": "Feature"}
{"geometry": {"coordinates": [-80.163690418, 26.202892553], "type": "Point"}, "id": "B088WTBEi7jZEXYBu7mU7lVmoD8=", "properties": {"@spider": "usps_collection_boxes", "addr:city": "OAKLAND PARK", "addr:country": "US", "addr:full": "1500 NW 62ND ST", "addr:postcode": "33309", "addr:state": "FL", "brand": "USPS", "brand:wikidata": "Q668687", "collection_times": "Mo-Fr 17:00; Sa 13:00", "name": "USPS COLLECTION BOX - BLUE BOX", "note": "ON 12/24 AND 12/31, THIS BOX MAY BE COLLECTED AS EARLY AS 12 NOON.", "ref": "3330900071"}, "type": "Feature"}
{"geometry": {"coordinates": [-80.167691744, 26.202955466], "type": "Point"}, "id": "bPjUDZt9Xacq6yoEB2VBxo_F0qY=", "properties": {"@spider": "usps_collection_boxes", "addr:city": "OAKLAND PARK", "addr:country": "US", "addr:full": "1901 NW 62ND ST", "addr:postcode": "33309", "addr:state": "FL", "brand": "USPS", "brand:wikidata": "Q668687", "collection_times": "Mo-Fr 17:00; Sa 13:00", "name": "USPS COLLECTION BOX - BLUE BOX", "note": "ON 12/24 AND 12/31, THIS BOX MAY BE COLLECTED AS EARLY AS 12 NOON.", "ref": "3330900075"}, "type": "Feature"}
{"geometry": {"coordinates": [-80.169171747, 26.202910447], "type": "Point"}, "id": "AAc6N7uwbrrQEn6s_QCcTIUWNXU=", "properties": {"@spider": "usps_collection_boxes", "addr:city": "OAKLAND PARK", "addr:country": "US", "addr:full": "2001 NW 62ND ST", "addr:postcode": "33309", "addr:state": "FL", "brand": "USPS", "brand:wikidata": "Q668687", "collection_times": "Mo-Fr 16:05; Sa 13:00", "name": "USPS COLLECTION BOX - BLUE BOX", "note": "ON 12/24 AND 12/31, THIS BOX MAY BE COLLECTED AS EARLY AS 12 NOON.", "ref": "3330900076"}, "type": "Feature"}
{"geometry": {"coordinates": [-80.18224047, 26.204560476], "type": "Point"}, "id": "GOOJJUQ8asQQLLsbYjxKbzzXFF0=", "properties": {"@spider": "usps_collection_boxes", "addr:city": "OAKLAND PARK", "addr:country": "US", "addr:full": "2755 NW 63RD CT", "addr:postcode": "33309", "addr:state": "FL", "brand": "USPS", "brand:wikidata": "Q668687", "collection_times": "Mo-Fr 16:15; Sa 13:00", "name": "USPS COLLECTION BOX - BLUE BOX", "note": "ON 12/24 AND 12/31, THIS BOX MAY BE COLLECTED AS EARLY AS 12 NOON.", "ref": "3330900080"}, "type": "Feature"}
{"geometry": {"coordinates": [-80.1595525495, 26.2105045173], "type": "Point"}, "id": "xp3b9opQpxgwzErzHVf73NacvGA=", "properties": {"@spider": "usps_collection_boxes", "addr:city": "OAKLAND PARK", "addr:country": "US", "addr:full": "1170 W MCNAB RD", "addr:postcode": "33309", "addr:state": "FL", "brand": "USPS", "brand:wikidata": "Q668687", "collection_times": "Mo-Fr 17:05; Sa 13:00", "name": "USPS COLLECTION BOX - BLUE BOX", "note": "ON 12/24 AND 12/31, THIS BOX MAY BE COLLECTED AS EARLY AS 12 NOON.", "ref": "3330900083"}, "type": "Feature"}
{"geometry": {"coordinates": [-80.155179377, 26.192040999], "type": "Point"}, "id": "CbLwiJgoMA2lTDpnm6rfjXMC14E=", "properties": {"@spider": "usps_collection_boxes", "addr:city": "OAKLAND PARK", "addr:country": "US", "addr:full": "5300 POWERLINE RD", "addr:postcode": "33309", "addr:state": "FL", "brand": "USPS", "brand:wikidata": "Q668687", "collection_times": "Mo-Fr 15:30; Sa 13:00", "name": "USPS COLLECTION BOX - BLUE BOX", "note": "ON 12/24 AND 12/31, THIS BOX MAY BE COLLECTED AS EARLY AS 12 NOON.", "ref": "3330900087"}, "type": "Feature"}
{"geometry": {"coordinates": [-80.147983875, 26.192145922], "type": "Point"}, "id": "L2F2WO41VCc7YPFRcLbzaJ5usoE=", "properties": {"@spider": "usps_collection_boxes", "addr:city": "OAKLAND PARK", "addr:country": "US", "addr:full": "6300 NE 1ST AVE", "addr:postcode": "33309", "addr:state": "FL", "brand": "USPS", "brand:wikidata": "Q668687", "collection_times": "Mo-Fr 15:45; Sa 13:00", "name": "USPS COLLECTION BOX - BLUE BOX", "note": "ON 12/24 AND 12/31, THIS BOX MAY BE COLLECTED AS EARLY AS 12 NOON.", "ref": "3330900090"}, "type": "Feature"}
{"geometry": {"coordinates": [-80.147983875, 26.192145922], "type": "Point"}, "id": "TDT-NLbKC1Z8zWLH3ZClKb5xGMQ=", "properties": {"@spider": "usps_collection_boxes", "addr:city": "OAKLAND PARK", "addr:country": "US", "addr:full": "6300 NE 1ST AVE", "addr:postcode": "33309", "addr:state": "FL", "brand": "USPS", "brand:wikidata": "Q668687", "collection_times": "Mo-Fr 15:45; Sa 13:00", "name": "USPS COLLECTION BOX - BLUE BOX", "note": "ON 12/24 AND 12/31, THIS BOX MAY BE COLLECTED AS EARLY AS 12 NOON.", "ref": "3330900091"}, "type": "Feature"}
{"geometry": {"coordinates": [-80.149609362, 26.203224516], "type": "Point"}, "id": "cjICLkH00SJS8CnK3PZOsPmtlBA=", "properties": {"@spider": "usps_collection_boxes", "addr:city": "OAKLAND PARK", "addr:country": "US", "addr:full": "200 W CYPRESS CREEK RD", "addr:postcode": "33309", "addr:state": "FL", "brand": "USPS", "brand:wikidata": "Q668687", "collection_times": "Mo-Fr 17:20; Sa 13:00", "name": "USPS COLLECTION BOX - BLUE BOX", "note": "ON 12/24 AND 12/31, THIS BOX MAY BE COLLECTED AS EARLY AS 12 NOON.", "ref": "3330900106"}, "type": "Feature"}
{"geometry": {"coordinates": [-80.1631359952, 26.1734274952], "type": "Point"}, "id": "fBbrlopNbIB91sn25M9BLRwqw04=", "properties": {"@spider": "usps_collection_boxes", "addr:city": "OAKLAND PARK", "addr:country": "US", "addr:full": "101 ROYAL PARK DR", "addr:postcode": "33309", "addr:state": "FL", "brand": "USPS", "brand:wikidata": "Q668687", "collection_times": "Mo-Sa 16:00", "name": "USPS COLLECTION BOX - BLUE BOX", "note": "ON 12/24 AND 12/31, THIS BOX MAY BE COLLECTED AS EARLY AS 12 NOON.", "ref": "3330900112"}, "type": "Feature"}
{"geometry": {"coordinates": [-80.168590164, 26.165535569], "type": "Point"}, "id": "ZAmCEXE8D6wgqhbxnysDKhiNQ8Q=", "properties": {"@spider": "usps_collection_boxes", "addr:city": "FT LAUDERDALE", "addr:country": "US", "addr:full": "1900 W OAKLAND PARK BLVD", "addr:postcode": "33310", "addr:state": "FL", "brand": "USPS", "brand:wikidata": "Q668687", "collection_times": "Mo-Sa 18:00", "name": "USPS COLLECTION BOX - BLUE BOX", "note": "ON 12/24 AND 12/31, THIS BOX MAY BE COLLECTED AS EARLY AS 12 NOON.", "ref": "3331000001"}, "type": "Feature"}
{"geometry": {"coordinates": [-80.168590164, 26.165535569], "type": "Point"}, "id": "RwMS-2MrbAK_YCdWslJ0UfXlh9g=", "properties": {"@spider": "usps_collection_boxes", "addr:city": "FT LAUDERDALE", "addr:country": "US", "addr:full": "1900 W OAKLAND PARK BLVD", "addr:postcode": "33310", "addr:state": "FL", "brand": "USPS", "brand:wikidata": "Q668687", "collection_times": "Mo-Sa 18:00", "name": "USPS COLLECTION BOX - PO LOBBY", "note": "ON 12/24 AND 12/31, THIS BOX MAY BE COLLECTED AS EARLY AS 12 NOON.", "ref": "3331000002"}, "type": "Feature"}
{"geometry": {"coordinates": [-80.168590164, 26.165535569], "type": "Point"}, "id": "ILFzJUmh_N2ZbysWspfCv-yIrRY=", "properties": {"@spider": "usps_collection_boxes", "addr:city": "FT LAUDERDALE", "addr:country": "US", "addr:full": "1900 W OAKLAND PARK BLVD", "addr:postcode": "33310", "addr:state": "FL", "brand": "USPS", "brand:wikidata": "Q668687", "collection_times": "Mo-Fr 18:00; Sa 14:00", "name": "USPS COLLECTION BOX - APC", "note": "ON 12/24 AND 12/31, THIS BOX MAY BE COLLECTED AS EARLY AS 12 NOON.", "ref": "3331000004"}, "type": "Feature"}
{"geometry": {"coordinates": [-80.168590164, 26.165535569], "type": "Point"}, "id": "8pqogoI_wyBcthD1VbqZz1xE1Gs=", "properties": {"@spider": "usps_collection_boxes", "addr:city": "FT LAUDERDALE", "addr:country": "US", "addr:full": "1900 W OAKLAND PARK BLVD", "addr:postcode": "33310", "addr:state": "FL", "brand": "USPS", "brand:wikidata": "Q668687", "collection_times": "Mo-Sa 18:00", "name": "USPS COLLECTION BOX - APC", "note": "ON 12/24 AND 12/31, THIS BOX MAY BE COLLECTED AS EARLY AS 12 NOON.", "ref": "3331000007"}, "type": "Feature"}
{"geometry": {"coordinates": [-80.101691463, 26.169872997], "type": "Point"}, "id": "gSFuSzfk1EkXjujdSpL07mzqCt4=", "properties": {"@spider": "usps_collection_boxes", "addr:city": "FT LAUDERDALE", "addr:country": "US", "addr:full": "3324 NE 34TH ST", "addr:postcode": "33310", "addr:state": "FL", "brand": "USPS", "brand:wikidata": "Q668687", "collection_times": "Mo-Fr 17:00", "name": "USPS COLLECTION BOX - PO LOBBY", "note": "ON 12/24 AND 12/31, THIS BOX MAY BE COLLECTED AS EARLY AS 12 NOON.", "ref": "3331000008"}, "type": "Feature"}
{"geometry": {"coordinates": [-80.168590164, 26.165535569], "type": "Point"}, "id": "DyfBkV3Ye8wBK5glt9fpKlW_L_0=", "properties": {"@spider": "usps_collection_boxes", "addr:city": "FT LAUDERDALE", "addr:country": "US", "addr:full": "1900 W OAKLAND PARK BLVD STE 100", "addr:postcode": "33310", "addr:state": "FL", "brand": "USPS", "brand:wikidata": "Q668687", "collection_times": "Mo-Fr 19:30; Sa 14:30", "name": "USPS COLLECTION BOX - PO LOBBY", "note": "ON 12/24 AND 12/31, THIS BOX MAY BE COLLECTED AS EARLY AS 12 NOON.", "ref": "3331000009"}, "type": "Feature"}
{"geometry": {"coordinates": [-80.147451251, 26.166341198], "type": "Point"}, "id": "-SvZCQAOOqB3IGJrGL_hGKRZl98=", "properties": {"@spider": "usps_collection_boxes", "addr:city": "FORT LAUDERDALE", "addr:country": "US", "addr:full": "80 W OAKLAND PARK BLVD", "addr:postcode": "33311", "addr:state": "FL", "brand": "USPS", "brand:wikidata": "Q668687", "collection_times": "Mo-Fr 17:00; Sa 13:00", "name": "USPS COLLECTION BOX - BLUE BOX", "note": "ON 12/24 AND 12/31, THIS BOX MAY BE COLLECTED AS EARLY AS 12 NOON.", "ref": "3331100002"}, "type": "Feature"}
{"geometry": {"coordinates": [-80.146352098, 26.154836665], "type": "Point"}, "id": "179CEdRD8bFeWpPHxfUDFju1-9E=", "properties": {"@spider": "usps_collection_boxes", "addr:city": "FORT LAUDERDALE", "addr:country": "US", "addr:full": "2101 N ANDREWS AVE", "addr:postcode": "33311", "addr:state": "FL", "brand": "USPS", "brand:wikidata": "Q668687", "collection_times": "Mo-Fr 17:05; Sa 13:00", "name": "USPS COLLECTION BOX - BLUE BOX", "note": "ON 12/24 AND 12/31, THIS BOX MAY BE COLLECTED AS EARLY AS 12 NOON.", "ref": "3331100004"}, "type": "Feature"}
{"geometry": {"coordinates": [-80.14618346, 26.149481267], "type": "Point"}, "id": "ROK415Bqgu7CJppz6_KXPcoFrec=", "properties": {"@spider": "usps_collection_boxes", "addr:city": "FORT LAUDERDALE", "addr:country": "US", "addr:full": "1701 N ANDREWS AVENUE EXT", "addr:postcode": "33311", "addr:state": "FL", "brand": "USPS", "brand:wikidata": "Q668687", "collection_times": "Mo-Fr 17:10; Sa 13:00", "name": "USPS COLLECTION BOX - BLUE BOX", "note": "ON 12/24 AND 12/31, THIS BOX MAY BE COLLECTED AS EARLY AS 12 NOON.", "ref": "3331100007"}, "type": "Feature"}
{"geometry": {"coordinates": [-80.1545753205, 26.1530624073], "type": "Point"}, "id": "oeas31Tw77zqQ_siWJVNrUBCeNI=", "properties": {"@spider": "usps_collection_boxes", "addr:city": "FORT LAUDERDALE", "addr:country": "US", "addr:full": "1941 NW 9TH AVE", "addr:postcode": "33311", "addr:state": "FL", "brand": "USPS", "brand:wikidata": "Q668687", "collection_times": "Mo-Fr 17:15; Sa 13:00", "name": "USPS COLLECTION BOX - BLUE BOX", "note": "ON 12/24 AND 12/31, THIS BOX MAY BE COLLECTED AS EARLY AS 12 NOON.", "ref": "3331100010"}, "type": "Feature"}
{"geometry": {"coordinates": [-80.162364073, 26.146630918], "type": "Point"}, "id": "tVa_uyko2Gk0ugzyMtwLva5HzU8=", "properties": {"@spider": "usps_collection_boxes", "addr:city": "FORT LAUDERDALE", "addr:country": "US", "addr:full": "1541 NW 15TH AVE", "addr:postcode": "33311", "addr:state": "FL", "brand": "USPS", "brand:wikidata": "Q668687", "collection_times": "Mo-Fr 15:15; Sa 13:00", "name": "USPS COLLECTION BOX - BLUE BOX", "note": "ON 12/24 AND 12/31, THIS BOX MAY BE COLLECTED AS EARLY AS 12 NOON.", "ref": "3331100011"}, "type": "Feature"}
{"geometry": {"coordinates": [-80.165226802, 26.129139929], "type": "Point"}, "id": "QwNY6XQGjj9T43e2IRk8takcRCs=", "properties": {"@spider": "usps_collection_boxes", "addr:city": "FORT LAUDERDALE", "addr:country": "US", "addr:full": "1700 NW 6TH ST", "addr:postcode": "33311", "addr:state": "FL", "brand": "USPS", "brand:wikidata": "Q668687", "collection_times": "Mo-Fr 15:35; Sa 13:00", "name": "USPS COLLECTION BOX - BLUE BOX", "note": "ON 12/24 AND 12/31, THIS BOX MAY BE COLLECTED AS EARLY AS 12 NOON.", "ref": "3331100015"}, "type": "Feature"}
{"geometry": {"coordinates": [-80.189994224, 26.136319485], "type": "Point"}, "id": "P_hOEdm9J-XTrB-0Q_zJIToJnFA=", "properties": {"@spider": "usps_collection_boxes", "addr:city": "FORT LAUDERDALE", "addr:country": "US", "addr:full": "3291 W SUNRISE BLVD", "addr:postcode": "33311", "addr:state": "FL", "brand": "USPS", "brand:wikidata": "Q668687", "collection_times": "Mo-Fr 15:45; Sa 13:00", "name": "USPS COLLECTION BOX - BLUE BOX", "note": "ON 12/24 AND 12/31, THIS BOX MAY BE COLLECTED AS EARLY AS 12 NOON.", "ref": "3331100018"}, "type": "Feature"}
{"geometry": {"coordinates": [-80.197556368, 26.15069529], "type": "Point"}, "id": "IlJ1eZxiHop6HJ-MfRVP-MfwXUg=", "properties": {"@spider": "usps_collection_boxes", "addr:city": "FORT LAUDERDALE", "addr:country": "US", "addr:full": "3653 NW 19TH ST", "addr:postcode": "33311", "addr:state": "FL", "brand": "USPS", "brand:wikidata": "Q668687", "collection_times": "Mo-Fr 15:55; Sa 13:00", "name": "USPS COLLECTION BOX - BLUE BOX", "note": "ON 12/24 AND 12/31, THIS BOX MAY BE COLLECTED AS EARLY AS 12 NOON.", "ref": "3331100020"}, "type": "Feature"}
{"geometry": {"coordinates": [-80.179672888, 26.165314481], "type": "Point"}, "id": "5Mz-zTFjHbJZJ00LesERgBW2RMU=", "properties": {"@spider": "usps_collection_boxes", "addr:city": "FORT LAUDERDALE", "addr:country": "US", "addr:full": "2700 W OAKLAND PARK BLVD", "addr:postcode": "33311", "addr:state": "FL", "brand": "USPS", "brand:wikidata": "Q668687", "collection_times": "Mo-Fr 17:40; Sa 13:00", "name": "USPS COLLECTION BOX - BLUE BOX", "note": "ON 12/24 AND 12/31, THIS BOX MAY BE COLLECTED AS EARLY AS 12 NOON.", "ref": "3331100025"}, "type": "Feature"}
{"geometry": {"coordinates": [-80.174492063, 26.16541151], "type": "Point"}, "id": "G1oRK5JjVWGApwIEx7vYLpLUZZo=", "properties": {"@spider": "usps_collection_boxes", "addr:city": "FORT LAUDERDALE", "addr:country": "US", "addr:full": "2360 W OAKLAND PARK BLVD", "addr:postcode": "33311", "addr:state": "FL", "brand": "USPS", "brand:wikidata": "Q668687", "collection_times": "Mo-Fr 17:45; Sa 13:00", "name": "USPS COLLECTION BOX - BLUE BOX", "note": "ON 12/24 AND 12/31, THIS BOX MAY BE COLLECTED AS EARLY AS 12 NOON.", "ref": "3331100028"}, "type": "Feature"}
{"geometry": {"coordinates": [-80.198379366, 26.14613406], "type": "Point"}, "id": "kAgWDA-lfdQAliySFCRSUsej06E=", "properties": {"@spider": "usps_collection_boxes", "addr:city": "FORT LAUDERDALE", "addr:country": "US", "addr:full": "3700 NW 16TH ST", "addr:postcode": "33311", "addr:state": "FL", "brand": "USPS", "brand:wikidata": "Q668687", "collection_times": "Mo-Fr 15:50", "name": "USPS COLLECTION BOX - BLUE BOX", "note": "ON 12/24 AND 12/31, THIS BOX MAY BE COLLECTED AS EARLY AS 12 NOON.", "ref": "3331100031"}, "type": "Feature"}
{"geometry": {"coordinates": [-80.191623945, 26.126682526], "type": "Point"}, "id": "B-jWEcDwUshG4rcXE9arsfLYPmI=", "properties": {"@spider": "usps_collection_boxes", "addr:city": "FORT LAUDERDALE", "addr:country": "US", "addr:full": "3401 NW 5TH ST", "addr:postcode": "33311", "addr:state": "FL", "brand": "USPS", "brand:wikidata": "Q668687", "collection_times": "Mo-Fr 15:40", "name": "USPS COLLECTION BOX - BLUE BOX", "note": "ON 12/24 AND 12/31, THIS BOX MAY BE COLLECTED AS EARLY AS 12 NOON.", "ref": "3331100032"}, "type": "Feature"}
{"geometry": {"coordinates": [-80.161672391, 26.124373729], "type": "Point"}, "id": "HBT6jYzn43E1TzFVO4FhffMWeVQ=", "properties": {"@spider": "usps_collection_boxes", "addr:city": "FORT LAUDERDALE", "addr:country": "US", "addr:full": "300 NW 15TH AVE", "addr:postcode": "33311", "addr:state": "FL", "brand": "USPS", "brand:wikidata": "Q668687", "collection_times": "Mo-Fr 15:30", "name": "USPS COLLECTION BOX - BLUE BOX", "note": "ON 12/24 AND 12/31, THIS BOX MAY BE COLLECTED AS EARLY AS 12 NOON.", "ref": "3331100033"}, "type": "Feature"}
{"geometry": {"coordinates": [-80.177002517, 26.121687515], "type": "Point"}, "id": "JMDYSscKt21buV18oMmL6K5-qUs=", "properties": {"@spider": "usps_collection_boxes", "addr:city": "FT LAUDERDALE", "addr:country": "US", "addr:full": "2601 W BROWARD BLVD", "addr:postcode": "33312", "addr:state": "FL", "brand": "USPS", "brand:wikidata": "Q668687", "collection_times": "Mo-Fr 11:00", "name": "USPS COLLECTION BOX - BLUE BOX", "ref": "3331200000"}, "type": "Feature"}
{"geometry": {"coordinates": [-80.20137779, 26.121137319], "type": "Point"}, "id": "qq3ASuIXlujthVD772OMBCxrVAo=", "properties": {"@spider": "usps_collection_boxes", "addr:city": "FT LAUDERDALE", "addr:country": "US", "addr:full": "3901 W BROWARD BLVD", "addr:postcode": "33312", "addr:state": "FL", "brand": "USPS", "brand:wikidata": "Q668687", "collection_times": "Mo-Fr 17:20; Sa 13:00", "name": "USPS COLLECTION BOX - BLUE BOX", "note": "ON 12/24 AND 12/31, THIS BOX MAY BE COLLECTED AS EARLY AS 12 NOON.", "ref": "3331200005"}, "type": "Feature"}
{"geometry": {"coordinates": [-80.1949642175, 26.1209871868], "type": "Point"}, "id": "OeOoNAmF5bmBbnp0V9h9CekY1ck=", "properties": {"@spider": "usps_collection_boxes", "addr:city": "FT LAUDERDALE", "addr:country": "US", "addr:full": "3520 W BROWARD BLVD", "addr:postcode": "33312", "addr:state": "FL", "brand": "USPS", "brand:wikidata": "Q668687", "collection_times": "Mo-Sa 11:15", "name": "USPS COLLECTION BOX - BLUE BOX", "ref": "3331200010"}, "type": "Feature"}
{"geometry": {"coordinates": [-80.158408024, 26.121842181], "type": "Point"}, "id": "VZUMBfjdUhSaVmC-hQfH1KqWJbE=", "properties": {"@spider": "usps_collection_boxes", "addr:city": "FT LAUDERDALE", "addr:country": "US", "addr:full": "1300 W BROWARD BLVD", "addr:postcode": "33312", "addr:state": "FL", "brand": "USPS", "brand:wikidata": "Q668687", "collection_times": "Mo-Sa 10:45", "name": "USPS COLLECTION BOX - BLUE BOX", "ref": "3331200014"}, "type": "Feature"}
{"geometry": {"coordinates": [-80.16432156, 26.103416487], "type": "Point"}, "id": "EqCSDqVLa6l3FSKgPTYzVvF4_d0=", "properties": {"@spider": "usps_collection_boxes", "addr:city": "FT LAUDERDALE", "addr:country": "US", "addr:full": "1700 SW 14TH CT", "addr:postcode": "33312", "addr:state": "FL", "brand": "USPS", "brand:wikidata": "Q668687", "collection_times": "Mo-Sa 14:00", "name": "USPS COLLECTION BOX - BLUE BOX", "note": "ON 12/24 AND 12/31, THIS BOX MAY BE COLLECTED AS EARLY AS 12 NOON.", "ref": "3331200016"}, "type": "Feature"}
{"geometry": {"coordinates": [-80.176712131, 26.106535895], "type": "Point"}, "id": "Uz350tqMWp0WhmiI9zx1NXaeRZg=", "properties": {"@spider": "usps_collection_boxes", "addr:city": "FT LAUDERDALE", "addr:country": "US", "addr:full": "2629 DAVIE BLVD", "addr:postcode": "33312", "addr:state": "FL", "brand": "USPS", "brand:wikidata": "Q668687", "collection_times": "Mo-Fr 16:30; Sa 16:00", "name": "USPS COLLECTION BOX - BLUE BOX", "note": "ON 12/24 AND 12/31, THIS BOX MAY BE COLLECTED AS EARLY AS 12 NOON.", "ref": "3331200017"}, "type": "Feature"}
{"geometry": {"coordinates": [-80.178736701, 26.106397292], "type": "Point"}, "id": "mtWctfFOyau8_crsO_qqLkP8DX0=", "properties": {"@spider": "usps_collection_boxes", "addr:city": "FT LAUDERDALE", "addr:country": "US", "addr:full": "2787 DAVIE BLVD", "addr:postcode": "33312", "addr:state": "FL", "brand": "USPS", "brand:wikidata": "Q668687", "collection_times": "Mo-Sa 12:45", "name": "USPS COLLECTION BOX - BLUE BOX", "note": "ON 12/24 AND 12/31, THIS BOX MAY BE COLLECTED AS EARLY AS 12 NOON.", "ref": "3331200019"}, "type": "Feature"}
{"geometry": {"coordinates": [-80.18881639, 26.105046861], "type": "Point"}, "id": "Um0o9jGKRJAI57fbtlhXJ80ZZ5I=", "properties": {"@spider": "usps_collection_boxes", "addr:city": "FT LAUDERDALE", "addr:country": "US", "addr:full": "3200 DAVIE BLVD", "addr:postcode": "33312", "addr:state": "FL", "brand": "USPS", "brand:wikidata": "Q668687", "collection_times": "Mo-Sa 16:00", "name": "USPS COLLECTION BOX - BLUE BOX", "note": "ON 12/24 AND 12/31, THIS BOX MAY BE COLLECTED AS EARLY AS 12 NOON.", "ref": "3331200022"}, "type": "Feature"}
{"geometry": {"coordinates": [-80.1887154436, 26.0920720921], "type": "Point"}, "id": "AS8UVDwFvz6gKT2znUsQG3cBjak=", "properties": {"@spider": "usps_collection_boxes", "addr:city": "FT LAUDERDALE", "addr:country": "US", "addr:full": "3277 RIVERLAND RD", "addr:postcode": "33312", "addr:state": "FL", "brand": "USPS", "brand:wikidata": "Q668687", "collection_times": "Mo-Sa 14:00", "name": "USPS COLLECTION BOX - BLUE BOX", "note": "ON 12/24 AND 12/31, THIS BOX MAY BE COLLECTED AS EARLY AS 12 NOON.", "ref": "3331200023"}, "type": "Feature"}
{"geometry": {"coordinates": [-80.185228062, 26.105695828], "type": "Point"}, "id": "krsCJ0cMNc2_vvibZ3jpvCco2AY=", "properties": {"@spider": "usps_collection_boxes", "addr:city": "FT LAUDERDALE", "addr:country": "US", "addr:full": "3030 DAVIE BLVD", "addr:postcode": "33312", "addr:state": "FL", "brand": "USPS", "brand:wikidata": "Q668687", "collection_times": "Mo-Sa 11:30", "name": "USPS COLLECTION BOX - BLUE BOX", "ref": "3331200024"}, "type": "Feature"}
{"geometry": {"coordinates": [-80.179533012, 26.106195599], "type": "Point"}, "id": "fVnPIbZroeybnjoicuayC2M2eYY=", "properties": {"@spider": "usps_collection_boxes", "addr:city": "FT LAUDERDALE", "addr:country": "US", "addr:full": "2790 DAVIE BLVD", "addr:postcode": "33312", "addr:state": "FL", "brand": "USPS", "brand:wikidata": "Q668687", "collection_times": "Mo-Sa 12:00", "name": "USPS COLLECTION BOX - BLUE BOX", "ref": "3331200025"}, "type": "Feature"}
{"geometry": {"coordinates": [-80.168772067, 26.071524639], "type": "Point"}, "id": "CJ2HyPO3EmYb4rNqP4QVpf9qTdQ=", "properties": {"@spider": "usps_collection_boxes", "addr:city": "FT LAUDERDALE", "addr:country": "US", "addr:full": "4101 ANGLERS AVE", "addr:postcode": "33312", "addr:state": "FL", "brand": "USPS", "brand:wikidata": "Q668687", "collection_times": "Mo-Fr 15:30; Sa 15:00", "name": "USPS COLLECTION BOX - BLUE BOX", "note": "ON 12/24 AND 12/31, THIS BOX MAY BE COLLECTED AS EARLY AS 12 NOON.", "ref": "3331200027"}, "type": "Feature"}
{"geometry": {"coordinates": [-80.168401453, 26.056727686], "type": "Point"}, "id": "j3kjedVAGtH2NU_9qcnLYRw_C04=", "properties": {"@spider": "usps_collection_boxes", "addr:city": "FT LAUDERDALE", "addr:country": "US", "addr:full": "5201 ANGLERS AVE", "addr:postcode": "33312", "addr:state": "FL", "brand": "USPS", "brand:wikidata": "Q668687", "collection_times": "Mo-Sa 13:30", "name": "USPS COLLECTION BOX - BLUE BOX", "note": "ON 12/24 AND 12/31, THIS BOX MAY BE COLLECTED AS EARLY AS 12 NOON.", "ref": "3331200028"}, "type": "Feature"}
{"geometry": {"coordinates": [-80.174603721, 26.086775208], "type": "Point"}, "id": "ORAGxAzA2ig4ZIH-3aQs7CM976E=", "properties": {"@spider": "usps_collection_boxes", "addr:city": "FT LAUDERDALE", "addr:country": "US", "addr:full": "2460 W STATE ROAD 84", "addr:postcode": "33312", "addr:state": "FL", "brand": "USPS", "brand:wikidata": "Q668687", "collection_times": "Mo-Sa 12:00", "name": "USPS COLLECTION BOX - BLUE BOX", "ref": "3331200030"}, "type": "Feature"}
{"geometry": {"coordinates": [-80.187739743, 26.062450479], "type": "Point"}, "id": "_NFvO7NapDRKWU8cXGfncshzf34=", "properties": {"@spider": "usps_collection_boxes", "addr:city": "FT LAUDERDALE", "addr:country": "US", "addr:full": "3325 GRIFFIN RD", "addr:postcode": "33312", "addr:state": "FL", "brand": "USPS", "brand:wikidata": "Q668687", "collection_times": "Mo-Sa 11:30", "name": "USPS COLLECTION BOX - BLUE BOX", "ref": "3331200031"}, "type": "Feature"}
{"geometry": {"coordinates": [-80.175931973, 26.047726498], "type": "Point"}, "id": "3gP6DyGrsgOZl-RZOGvkx848Qws=", "properties": {"@spider": "usps_collection_boxes", "addr:city": "FT LAUDERDALE", "addr:country": "US", "addr:full": "2699 STIRLING RD", "addr:postcode": "33312", "addr:state": "FL", "brand": "USPS", "brand:wikidata": "Q668687", "collection_times": "Mo-Sa 14:00", "name": "USPS COLLECTION BOX - BLUE BOX", "note": "ON 12/24 AND 12/31, THIS BOX MAY BE COLLECTED AS EARLY AS 12 NOON.", "ref": "3331200032"}, "type": "Feature"}
{"geometry": {"coordinates": [-80.180143805, 26.047595458], "type": "Point"}, "id": "HDxC5HlutUtorHWlz0ZawkDxCiw=", "properties": {"@spider": "usps_collection_boxes", "addr:city": "FT LAUDERDALE", "addr:country": "US", "addr:full": "2855 STIRLING RD", "addr:postcode": "33312", "addr:state": "FL", "brand": "USPS", "brand:wikidata": "Q668687", "collection_times": "Mo-Sa 14:20", "name": "USPS COLLECTION BOX - BLUE BOX", "note": "ON 12/24 AND 12/31, THIS BOX MAY BE COLLECTED AS EARLY AS 12 NOON.", "ref": "3331200035"}, "type": "Feature"}
{"geometry": {"coordinates": [-80.181431206, 26.04756551], "type": "Point"}, "id": "ss5fsqfqABREOiwJMZxk6OWuN6w=", "properties": {"@spider": "usps_collection_boxes", "addr:city": "FT LAUDERDALE", "addr:country": "US", "addr:full": "2901 STIRLING RD", "addr:postcode": "33312", "addr:state": "FL", "brand": "USPS", "brand:wikidata": "Q668687", "collection_times": "Mo-Sa 14:25", "name": "USPS COLLECTION BOX - BLUE BOX", "note": "ON 12/24 AND 12/31, THIS BOX MAY BE COLLECTED AS EARLY AS 12 NOON.", "ref": "3331200036"}, "type": "Feature"}
{"geometry": {"coordinates": [-80.20137779, 26.121137319], "type": "Point"}, "id": "lQYwtvdM8Alz1qo9tl7yd31-VJ0=", "properties": {"@spider": "usps_collection_boxes", "addr:city": "FT LAUDERDALE", "addr:country": "US", "addr:full": "3901 W BROWARD BLVD", "addr:postcode": "33312", "addr:state": "FL", "brand": "USPS", "brand:wikidata": "Q668687", "collection_times": "Mo-Fr 18:00; Sa 17:30", "name": "USPS COLLECTION BOX - PO LOBBY", "note": "ON 12/24 AND 12/31, THIS BOX MAY BE COLLECTED AS EARLY AS 12 NOON.", "ref": "3331200038"}, "type": "Feature"}
{"geometry": {"coordinates": [-80.20137779, 26.121137319], "type": "Point"}, "id": "wGA2c1nHQpz7G7bklR9UtxNhsTM=", "properties": {"@spider": "usps_collection_boxes", "addr:city": "FT LAUDERDALE", "addr:country": "US", "addr:full": "3901 W BROWARD BLVD", "addr:postcode": "33312", "addr:state": "FL", "brand": "USPS", "brand:wikidata": "Q668687", "collection_times": "Mo-Fr 17:00", "name": "USPS COLLECTION BOX - PO LOBBY", "note": "ON 12/24 AND 12/31, THIS BOX MAY BE COLLECTED AS EARLY AS 12 NOON.", "ref": "3331200051"}, "type": "Feature"}
{"geometry": {"coordinates": [-80.206825762, 26.146066326], "type": "Point"}, "id": "B66Dhpolpx757BDYL1j-64OvEMw=", "properties": {"@spider": "usps_collection_boxes", "addr:city": "SUNRISE", "addr:country": "US", "addr:full": "4299 NW 16TH ST", "addr:postcode": "33313", "addr:state": "FL", "brand": "USPS", "brand:wikidata": "Q668687", "collection_times": "Mo-Fr 17:25; Sa 13:00", "name": "USPS COLLECTION BOX - BLUE BOX", "note": "ON 12/24 AND 12/31, THIS BOX MAY BE COLLECTED AS EARLY AS 12 NOON.", "ref": "3331300001"}, "type": "Feature"}
{"geometry": {"coordinates": [-80.247381114, 26.147005538], "type": "Point"}, "id": "v36NIsUzCT9fVBNvpSJzAUZ_pQ8=", "properties": {"@spider": "usps_collection_boxes", "addr:city": "SUNRISE", "addr:country": "US", "addr:full": "7200 NW 17TH ST", "addr:postcode": "33313", "addr:state": "FL", "brand": "USPS", "brand:wikidata": "Q668687", "collection_times": "Mo-Fr 16:10; Sa 13:00", "name": "USPS COLLECTION BOX - BLUE BOX", "note": "ON 12/24 AND 12/31, THIS BOX MAY BE COLLECTED AS EARLY AS 12 NOON.", "ref": "3331300006"}, "type": "Feature"}
{"geometry": {"coordinates": [-80.230982409, 26.146907696], "type": "Point"}, "id": "tidH6gHGmm2HErd8q2JJtVCloMc=", "properties": {"@spider": "usps_collection_boxes", "addr:city": "SUNRISE", "addr:country": "US", "addr:full": "1720 NW 60TH AVE", "addr:postcode": "33313", "addr:state": "FL", "brand": "USPS", "brand:wikidata": "Q668687", "collection_times": "Mo-Fr 16:15; Sa 13:00", "name": "USPS COLLECTION BOX - BLUE BOX", "note": "ON 12/24 AND 12/31, THIS BOX MAY BE COLLECTED AS EARLY AS 12 NOON.", "ref": "3331300010"}, "type": "Feature"}
{"geometry": {"coordinates": [-80.239202323, 26.154941786], "type": "Point"}, "id": "lDAnaN_cUq50EwjYTpq2Quufy4Y=", "properties": {"@spider": "usps_collection_boxes", "addr:city": "SUNRISE", "addr:country": "US", "addr:full": "6800 SUNSET STRIP", "addr:postcode": "33313", "addr:state": "FL", "brand": "USPS", "brand:wikidata": "Q668687", "collection_times": "Mo-Fr 16:15; Sa 13:00", "name": "USPS COLLECTION BOX - BLUE BOX", "note": "ON 12/24 AND 12/31, THIS BOX MAY BE COLLECTED AS EARLY AS 12 NOON.", "ref": "3331300011"}, "type": "Feature"}
{"geometry": {"coordinates": [-80.233741726, 26.164605537], "type": "Point"}, "id": "P41uIU0hRRocLGMtcvPbNPP_ZF0=", "properties": {"@spider": "usps_collection_boxes", "addr:city": "SUNRISE", "addr:country": "US", "addr:full": "6210 W OAKLAND PARK BLVD", "addr:postcode": "33313", "addr:state": "FL", "brand": "USPS", "brand:wikidata": "Q668687", "collection_times": "Mo-Fr 16:20; Sa 13:00", "name": "USPS COLLECTION BOX - BLUE BOX", "note": "ON 12/24 AND 12/31, THIS BOX MAY BE COLLECTED AS EARLY AS 12 NOON.", "ref": "3331300014"}, "type": "Feature"}
{"geometry": {"coordinates": [-80.225425193, 26.164601276], "type": "Point"}, "id": "dAXkCjovhVHPyggjiKCWBTjEUuc=", "properties": {"@spider": "usps_collection_boxes", "addr:city": "SUNRISE", "addr:country": "US", "addr:full": "5546 W OAKLAND PARK BLVD", "addr:postcode": "33313", "addr:state": "FL", "brand": "USPS", "brand:wikidata": "Q668687", "collection_times": "Mo-Fr 17:05; Sa 13:00", "name": "USPS COLLECTION BOX - BLUE BOX", "note": "ON 12/24 AND 12/31, THIS BOX MAY BE COLLECTED AS EARLY AS 12 NOON.", "ref": "3331300018"}, "type": "Feature"}
{"geometry": {"coordinates": [-80.218261905, 26.164275591], "type": "Point"}, "id": "NXTPHJCE3rQ_MHi7HvXMBW7oTYU=", "properties": {"@spider": "usps_collection_boxes", "addr:city": "SUNRISE", "addr:country": "US", "addr:full": "5000 W OAKLAND PARK BLVD", "addr:postcode": "33313", "addr:state": "FL", "brand": "USPS", "brand:wikidata": "Q668687", "collection_times": "Mo-Fr 17:10; Sa 13:00", "name": "USPS COLLECTION BOX - BLUE BOX", "note": "ON 12/24 AND 12/31, THIS BOX MAY BE COLLECTED AS EARLY AS 12 NOON.", "ref": "3331300025"}, "type": "Feature"}
{"geometry": {"coordinates": [-80.216152455, 26.164218519], "type": "Point"}, "id": "nYmG1G3Uz_7PRwgAFiAxMgdpHzA=", "properties": {"@spider": "usps_collection_boxes", "addr:city": "SUNRISE", "addr:country": "US", "addr:full": "4850 W OAKLAND PARK BLVD", "addr:postcode": "33313", "addr:state": "FL", "brand": "USPS", "brand:wikidata": "Q668687", "collection_times": "Mo-Fr 17:10; Sa 13:00", "name": "USPS COLLECTION BOX - BLUE BOX", "note": "ON 12/24 AND 12/31, THIS BOX MAY BE COLLECTED AS EARLY AS 12 NOON.", "ref": "3331300026"}, "type": "Feature"}
{"geometry": {"coordinates": [-80.23738164, 26.148032749], "type": "Point"}, "id": "DDrWCM7UcC759G4bRO3_Q3n4Zj0=", "properties": {"@spider": "usps_collection_boxes", "addr:city": "SUNRISE", "addr:country": "US", "addr:full": "1801 NW 66TH AVE", "addr:postcode": "33313", "addr:state": "FL", "brand": "USPS", "brand:wikidata": "Q668687", "collection_times": "Mo-Fr 16:10; Sa 13:00", "name": "USPS COLLECTION BOX - BLUE BOX", "note": "ON 12/24 AND 12/31, THIS BOX MAY BE COLLECTED AS EARLY AS 12 NOON.", "ref": "3331300041"}, "type": "Feature"}
{"geometry": {"coordinates": [-80.20278627, 26.142109731], "type": "Point"}, "id": "u4rb6gHzNwKQ4sQ0WQAm2TbDUQc=", "properties": {"@spider": "usps_collection_boxes", "addr:city": "SUNRISE", "addr:country": "US", "addr:full": "1297 N STATE ROAD 7", "addr:postcode": "33313", "addr:state": "FL", "brand": "USPS", "brand:wikidata": "Q668687", "collection_times": "Mo-Fr 17:30; Sa 13:00", "name": "USPS COLLECTION BOX - BLUE BOX", "note": "ON 12/24 AND 12/31, THIS BOX MAY BE COLLECTED AS EARLY AS 12 NOON.", "ref": "3331300043"}, "type": "Feature"}
{"geometry": {"coordinates": [-80.2255005, 26.164882462], "type": "Point"}, "id": "hBt46pKPLScyzvzL1GNdu7B8DTg=", "properties": {"@spider": "usps_collection_boxes", "addr:city": "SUNRISE", "addr:country": "US", "addr:full": "5581 W OAKLAND PARK BLVD", "addr:postcode": "33313", "addr:state": "FL", "brand": "USPS", "brand:wikidata": "Q668687", "collection_times": "Mo-Fr 17:00", "name": "USPS COLLECTION BOX - BLUE BOX", "note": "ON 12/24 AND 12/31, THIS BOX MAY BE COLLECTED AS EARLY AS 12 NOON.", "ref": "3331300044"}, "type": "Feature"}
{"geometry": {"coordinates": [-80.231534247, 26.069894723], "type": "Point"}, "id": "mQyeCJvtlDX-gL26Zjsm8j-RCWE=", "properties": {"@spider": "usps_collection_boxes", "addr:city": "DAVIE", "addr:country": "US", "addr:full": "6351 SW 41ST CT", "addr:postcode": "33314", "addr:state": "FL", "brand": "USPS", "brand:wikidata": "Q668687", "collection_times": "Mo-Fr 17:00; Sa 13:00", "name": "USPS COLLECTION BOX - BLUE BOX", "note": "ON 12/24 AND 12/31, THIS BOX MAY BE COLLECTED AS EARLY AS 12 NOON.", "ref": "3331400001"}, "type": "Feature"}
{"geometry": {"coordinates": [-80.208104581, 26.066937684], "type": "Point"}, "id": "S7-PAdDTP5saJHLjqCDtokMXbII=", "properties": {"@spider": "usps_collection_boxes", "addr:city": "DAVIE", "addr:country": "US", "addr:full": "4491 S STATE ROAD 7", "addr:postcode": "33314", "addr:state": "FL", "brand": "USPS", "brand:wikidata": "Q668687", "collection_times": "Mo-Fr 17:00; Sa 13:00", "name": "USPS COLLECTION BOX - BLUE BOX", "note": "ON 12/24 AND 12/31, THIS BOX MAY BE COLLECTED AS EARLY AS 12 NOON.", "ref": "3331400002"}, "type": "Feature"}
{"geometry": {"coordinates": [-80.2125815867, 26.0590305004], "type": "Point"}, "id": "qXT9JHHuyj4cxfAHClrNe23pcA0=", "properties": {"@spider": "usps_collection_boxes", "addr:city": "DAVIE", "addr:country": "US", "addr:full": "5001 SW 51ST ST", "addr:postcode": "33314", "addr:state": "FL", "brand": "USPS", "brand:wikidata": "Q668687", "collection_times": "Mo-Fr 17:00; Sa 13:00", "name": "USPS COLLECTION BOX - BLUE BOX", "note": "ON 12/24 AND 12/31, THIS BOX MAY BE COLLECTED AS EARLY AS 12 NOON.", "ref": "3331400005"}, "type": "Feature"}
{"geometry": {"coordinates": [-80.200591715, 26.058178823], "type": "Point"}, "id": "ugbGEwRLDS5vUQdsDqs8GQ62g-o=", "properties": {"@spider": "usps_collection_boxes", "addr:city": "DAVIE", "addr:country": "US", "addr:full": "5120 SW 40TH AVE", "addr:postcode": "33314", "addr:state": "FL", "brand": "USPS", "brand:wikidata": "Q668687", "collection_times": "Mo-Fr 17:00; Sa 13:00", "name": "USPS COLLECTION BOX - BLUE BOX", "note": "ON 12/24 AND 12/31, THIS BOX MAY BE COLLECTED AS EARLY AS 12 NOON.", "ref": "3331400006"}, "type": "Feature"}
{"geometry": {"coordinates": [-80.210261117, 26.07419372], "type": "Point"}, "id": "imdgj6EBscw9fnpHEGiG5X85wIE=", "properties": {"@spider": "usps_collection_boxes", "addr:city": "DAVIE", "addr:country": "US", "addr:full": "3901 SW 47TH AVE", "addr:postcode": "33314", "addr:state": "FL", "brand": "USPS", "brand:wikidata": "Q668687", "collection_times": "Mo-Fr 17:00; Sa 13:00", "name": "USPS COLLECTION BOX - BLUE BOX", "note": "ON 12/24 AND 12/31, THIS BOX MAY BE COLLECTED AS EARLY AS 12 NOON.", "ref": "3331400012"}, "type": "Feature"}
{"geometry": {"coordinates": [-80.210261117, 26.07419372], "type": "Point"}, "id": "DEphRgvPDCA0803Wbe5u_6dO4Q8=", "properties": {"@spider": "usps_collection_boxes", "addr:city": "DAVIE", "addr:country": "US", "addr:full": "3901 SW 47TH AVE", "addr:postcode": "33314", "addr:state": "FL", "brand": "USPS", "brand:wikidata": "Q668687", "collection_times": "Mo-Fr 17:00; Sa 13:00", "name": "USPS COLLECTION BOX - BLUE BOX", "note": "ON 12/24 AND 12/31, THIS BOX MAY BE COLLECTED AS EARLY AS 12 NOON.", "ref": "3331400014"}, "type": "Feature"}
{"geometry": {"coordinates": [-80.1560923, 26.069559], "type": "Point"}, "id": "799ejAsReKkr_Fp0yHY5vA9KhEc=", "properties": {"@spider": "usps_collection_boxes", "addr:city": "FT LAUDERDALE", "addr:country": "US", "addr:full": "1100 LEE WAGENER BLVD", "addr:postcode": "33315", "addr:state": "FL", "brand": "USPS", "brand:wikidata": "Q668687", "collection_times": "Mo-Fr 16:20; Sa 13:00", "name": "USPS COLLECTION BOX - BLUE BOX", "note": "ON 12/24 AND 12/31, THIS BOX MAY BE COLLECTED AS EARLY AS 12 NOON.", "ref": "3331500000"}, "type": "Feature"}
{"geometry": {"coordinates": [-80.149210187, 26.081557662], "type": "Point"}, "id": "IwzR8BDyoQzBGkBz_7_FQMk95Rk=", "properties": {"@spider": "usps_collection_boxes", "addr:city": "FT LAUDERDALE", "addr:country": "US", "addr:full": "600 SW 34TH ST", "addr:postcode": "33315", "addr:state": "FL", "brand": "USPS", "brand:wikidata": "Q668687", "collection_times": "Mo-Fr 16:15; Sa 13:00", "name": "USPS COLLECTION BOX - BLUE BOX", "note": "ON 12/24 AND 12/31, THIS BOX MAY BE COLLECTED AS EARLY AS 12 NOON.", "ref": "3331500007"}, "type": "Feature"}
{"geometry": {"coordinates": [-80.148783632, 26.091603168], "type": "Point"}, "id": "bPZzAZOA0mvMbncerel6nXuP3-4=", "properties": {"@spider": "usps_collection_boxes", "addr:city": "FT LAUDERDALE", "addr:country": "US", "addr:full": "2421 SW 6TH AVE", "addr:postcode": "33315", "addr:state": "FL", "brand": "USPS", "brand:wikidata": "Q668687", "collection_times": "Mo-Fr 16:00; Sa 13:00", "name": "USPS COLLECTION BOX - BLUE BOX", "note": "ON 12/24 AND 12/31, THIS BOX MAY BE COLLECTED AS EARLY AS 12 NOON.", "ref": "3331500012"}, "type": "Feature"}
{"geometry": {"coordinates": [-80.160764494, 26.088089494], "type": "Point"}, "id": "W943UfM_ZDwAIfBpfm-Iy8K9GyY=", "properties": {"@spider": "usps_collection_boxes", "addr:city": "FT LAUDERDALE", "addr:country": "US", "addr:full": "2900 SW 15TH AVE", "addr:postcode": "33315", "addr:state": "FL", "brand": "USPS", "brand:wikidata": "Q668687", "collection_times": "Mo-Fr 15:00; Sa 13:00", "name": "USPS COLLECTION BOX - BLUE BOX", "note": "ON 12/24 AND 12/31, THIS BOX MAY BE COLLECTED AS EARLY AS 12 NOON.", "ref": "3331500014"}, "type": "Feature"}
{"geometry": {"coordinates": [-80.153852487, 26.092531621], "type": "Point"}, "id": "82IhHHfa_AwtDgKrZjxCsIo7RNY=", "properties": {"@spider": "usps_collection_boxes", "addr:city": "FT LAUDERDALE", "addr:country": "US", "addr:full": "1001 W STATE ROAD 84", "addr:postcode": "33315", "addr:state": "FL", "brand": "USPS", "brand:wikidata": "Q668687", "collection_times": "Mo-Fr 17:41; Sa 13:00", "name": "USPS COLLECTION BOX - BLUE BOX", "note": "ON 12/24 AND 12/31, THIS BOX MAY BE COLLECTED AS EARLY AS 12 NOON.", "ref": "3331500016"}, "type": "Feature"}
{"geometry": {"coordinates": [-80.153001453, 26.097021115], "type": "Point"}, "id": "RYda1BuY4GnuQ5n9fPNAQ6BjYwA=", "properties": {"@spider": "usps_collection_boxes", "addr:city": "FT LAUDERDALE", "addr:country": "US", "addr:full": "1900 SW 9TH AVE", "addr:postcode": "33315", "addr:state": "FL", "brand": "USPS", "brand:wikidata": "Q668687", "collection_times": "Mo-Fr 15:50; Sa 13:00", "name": "USPS COLLECTION BOX - BLUE BOX", "note": "ON 12/24 AND 12/31, THIS BOX MAY BE COLLECTED AS EARLY AS 12 NOON.", "ref": "3331500018"}, "type": "Feature"}
{"geometry": {"coordinates": [-80.1533357128, 26.1128355007], "type": "Point"}, "id": "YEDlPJxT2QpzxqgJX5_O6B2oJBo=", "properties": {"@spider": "usps_collection_boxes", "addr:city": "FT LAUDERDALE", "addr:country": "US", "addr:full": "901 SW 7TH ST", "addr:postcode": "33315", "addr:state": "FL", "brand": "USPS", "brand:wikidata": "Q668687", "collection_times": "Mo-Fr 15:40; Sa 13:00", "name": "USPS COLLECTION BOX - BLUE BOX", "note": "ON 12/24 AND 12/31, THIS BOX MAY BE COLLECTED AS EARLY AS 12 NOON.", "ref": "3331500019"}, "type": "Feature"}
{"geometry": {"coordinates": [-80.152346335, 26.103585889], "type": "Point"}, "id": "E_pKHDCOO6sDrMlg-USZ9p8Ww38=", "properties": {"@spider": "usps_collection_boxes", "addr:city": "FT LAUDERDALE", "addr:country": "US", "addr:full": "840 SW 14TH CT", "addr:postcode": "33315", "addr:state": "FL", "brand": "USPS", "brand:wikidata": "Q668687", "collection_times": "Mo-Fr 15:45; Sa 13:00", "name": "USPS COLLECTION BOX - BLUE BOX", "note": "ON 12/24 AND 12/31, THIS BOX MAY BE COLLECTED AS EARLY AS 12 NOON.", "ref": "3331500021"}, "type": "Feature"}
{"geometry": {"coordinates": [-80.105681392, 26.112420956], "type": "Point"}, "id": "KjPvjIMkj23I488pVz7WoheXwwM=", "properties": {"@spider": "usps_collection_boxes", "addr:city": "FT LAUDERDALE", "addr:country": "US", "addr:full": "801 SEABREEZE BLVD", "addr:postcode": "33316", "addr:state": "FL", "brand": "USPS", "brand:wikidata": "Q668687", "collection_times": "Mo-Sa 16:00", "name": "USPS COLLECTION BOX - BLUE BOX", "note": "ON 12/24 AND 12/31, THIS BOX MAY BE COLLECTED AS EARLY AS 12 NOON.", "ref": "3331600005"}, "type": "Feature"}
{"geometry": {"coordinates": [-80.139872888, 26.100807107], "type": "Point"}, "id": "jLEACQrirC85hiAmyp813BUknxg=", "properties": {"@spider": "usps_collection_boxes", "addr:city": "FT LAUDERDALE", "addr:country": "US", "addr:full": "298 SE 17TH AVE", "addr:postcode": "33316", "addr:state": "FL", "brand": "USPS", "brand:wikidata": "Q668687", "collection_times": "Mo-Fr 15:30; Sa 13:00", "name": "USPS COLLECTION BOX - BLUE BOX", "note": "ON 12/24 AND 12/31, THIS BOX MAY BE COLLECTED AS EARLY AS 12 NOON.", "ref": "3331600008"}, "type": "Feature"}
{"geometry": {"coordinates": [-80.143072138, 26.106356337], "type": "Point"}, "id": "Fc2FBi-ULCvZZmRqn01KS2XPlKs=", "properties": {"@spider": "usps_collection_boxes", "addr:city": "FT LAUDERDALE", "addr:country": "US", "addr:full": "1299 S ANDREWS AVE", "addr:postcode": "33316", "addr:state": "FL", "brand": "USPS", "brand:wikidata": "Q668687", "collection_times": "Mo-Fr 17:34; Sa 13:00", "name": "USPS COLLECTION BOX - BLUE BOX", "note": "ON 12/24 AND 12/31, THIS BOX MAY BE COLLECTED AS EARLY AS 12 NOON.", "ref": "3331600009"}, "type": "Feature"}
{"geometry": {"coordinates": [-80.130332337, 26.100281501], "type": "Point"}, "id": "kOffVhB6XK8cSsYlUllVasaBqvs=", "properties": {"@spider": "usps_collection_boxes", "addr:city": "FT LAUDERDALE", "addr:country": "US", "addr:full": "1300 SE 17TH ST", "addr:postcode": "33316", "addr:state": "FL", "brand": "USPS", "brand:wikidata": "Q668687", "collection_times": "Mo-Fr 14:40; Sa 13:00", "name": "USPS COLLECTION BOX - BLUE BOX", "note": "ON 12/24 AND 12/31, THIS BOX MAY BE COLLECTED AS EARLY AS 12 NOON.", "ref": "3331600015"}, "type": "Feature"}
{"geometry": {"coordinates": [-80.127842351, 26.10055991], "type": "Point"}, "id": "NIOohcUFjlDsG5QCv-AKLHDUS8k=", "properties": {"@spider": "usps_collection_boxes", "addr:city": "FT LAUDERDALE", "addr:country": "US", "addr:full": "1483 SE 17TH ST", "addr:postcode": "33316", "addr:state": "FL", "brand": "USPS", "brand:wikidata": "Q668687", "collection_times": "Mo-Fr 15:10; Sa 13:00", "name": "USPS COLLECTION BOX - BLUE BOX", "note": "ON 12/24 AND 12/31, THIS BOX MAY BE COLLECTED AS EARLY AS 12 NOON.", "ref": "3331600020"}, "type": "Feature"}
{"geometry": {"coordinates": [-80.125920388, 26.100379481], "type": "Point"}, "id": "cu68ghc_wkQEh8dlGCGAMRe2Ol4=", "properties": {"@spider": "usps_collection_boxes", "addr:city": "FT LAUDERDALE", "addr:country": "US", "addr:full": "1600 SE 17TH ST", "addr:postcode": "33316", "addr:state": "FL", "brand": "USPS", "brand:wikidata": "Q668687", "collection_times": "Mo-Fr 14:45; Sa 13:00", "name": "USPS COLLECTION BOX - BLUE BOX", "note": "ON 12/24 AND 12/31, THIS BOX MAY BE COLLECTED AS EARLY AS 12 NOON.", "ref": "3331600031"}, "type": "Feature"}
{"geometry": {"coordinates": [-80.141700586, 26.099217437], "type": "Point"}, "id": "LknkplRuUSfW3qa50hlgKgPwoHM=", "properties": {"@spider": "usps_collection_boxes", "addr:city": "FT LAUDERDALE", "addr:country": "US", "addr:full": "1800 S ANDREWS AVE.", "addr:postcode": "33316", "addr:state": "FL", "brand": "USPS", "brand:wikidata": "Q668687", "collection_times": "Mo-Fr 15:40; Sa 13:00", "name": "USPS COLLECTION BOX - BLUE BOX", "note": "ON 12/24 AND 12/31, THIS BOX MAY BE COLLECTED AS EARLY AS 12 NOON.", "ref": "3331600035"}, "type": "Feature"}
{"geometry": {"coordinates": [-80.1374979597, 26.0886250185], "type": "Point"}, "id": "22MGqiUZbDNUTdZ-r4AmvlDm-KQ=", "properties": {"@spider": "usps_collection_boxes", "addr:city": "FT LAUDERDALE", "addr:country": "US", "addr:full": "2801 S FEDERAL HWY", "addr:postcode": "33316", "addr:state": "FL", "brand": "USPS", "brand:wikidata": "Q668687", "collection_times": "Mo-Fr 15:15; Sa 13:00", "name": "USPS COLLECTION BOX - BLUE BOX", "note": "ON 12/24 AND 12/31, THIS BOX MAY BE COLLECTED AS EARLY AS 12 NOON.", "ref": "3331600042"}, "type": "Feature"}
{"geometry": {"coordinates": [-80.136539944, 26.089009265], "type": "Point"}, "id": "biDc71Yfsj_owT8a2c_euONM_QM=", "properties": {"@spider": "usps_collection_boxes", "addr:city": "FT LAUDERDALE", "addr:country": "US", "addr:full": "2801 S FEDERAL HWY", "addr:postcode": "33316", "addr:state": "FL", "brand": "USPS", "brand:wikidata": "Q668687", "collection_times": "Mo-Fr 18:30; Sa 17:00", "name": "USPS COLLECTION BOX - PO LOBBY", "note": "ON 12/24 AND 12/31, THIS BOX MAY BE COLLECTED AS EARLY AS 12 NOON.", "ref": "3331600044"}, "type": "Feature"}
{"geometry": {"coordinates": [-80.136539944, 26.089009265], "type": "Point"}, "id": "bzjr2RXarz_yVw2wSRIr_yjsRvw=", "properties": {"@spider": "usps_collection_boxes", "addr:city": "FT LAUDERDALE", "addr:country": "US", "addr:full": "2801 S FEDERAL HWY", "addr:postcode": "33316", "addr:state": "FL", "brand": "USPS", "brand:wikidata": "Q668687", "collection_times": "Mo-Fr 17:30; Sa 14:00", "name": "USPS COLLECTION BOX - APC", "note": "ON 12/24 AND 12/31, THIS BOX MAY BE COLLECTED AS EARLY AS 12 NOON.", "ref": "3331600045"}, "type": "Feature"}
{"geometry": {"coordinates": [-80.126273163, 26.100557448], "type": "Point"}, "id": "Rdz15WhUEcH9Ii7aUbrU7MpR-tM=", "properties": {"@spider": "usps_collection_boxes", "addr:city": "FT LAUDERDALE", "addr:country": "US", "addr:full": "1515 SE 17TH ST", "addr:postcode": "33316", "addr:state": "FL", "brand": "USPS", "brand:wikidata": "Q668687", "collection_times": "Mo-Fr 17:00", "name": "USPS COLLECTION BOX - PO LOBBY", "note": "ON 12/24 AND 12/31, THIS BOX MAY BE COLLECTED AS EARLY AS 12 NOON.", "ref": "3331600047"}, "type": "Feature"}
{"geometry": {"coordinates": [-80.126273163, 26.100557448], "type": "Point"}, "id": "kL1oxRn8sig8YKySGLE6sYGXdTE=", "properties": {"@spider": "usps_collection_boxes", "addr:city": "FT LAUDERDALE", "addr:country": "US", "addr:full": "1515 SE 17TH ST STE 121", "addr:postcode": "33316", "addr:state": "FL", "brand": "USPS", "brand:wikidata": "Q668687", "collection_times": "Mo-Fr 18:00", "name": "USPS COLLECTION BOX - PO LOBBY", "note": "ON 12/24 AND 12/31, THIS BOX MAY BE COLLECTED AS EARLY AS 12 NOON.", "ref": "3331600060"}, "type": "Feature"}
{"geometry": {"coordinates": [-80.136472722, 26.088722812], "type": "Point"}, "id": "WTzCXY2bKLQ4TeOJ_BPx74KoQEc=", "properties": {"@spider": "usps_collection_boxes", "addr:city": "FT LAUDERDALE", "addr:country": "US", "addr:full": "2801 S FEDERAL HWY", "addr:postcode": "33316", "addr:state": "FL", "brand": "USPS", "brand:wikidata": "Q668687", "collection_times": "Mo-Fr 19:00; Sa 14:00", "name": "USPS COLLECTION BOX - PO LOBBY", "note": "ON 12/24 AND 12/31, THIS BOX MAY BE COLLECTED AS EARLY AS 12 NOON.", "ref": "3331600061"}, "type": "Feature"}
{"geometry": {"coordinates": [-80.241894, 26.120944497], "type": "Point"}, "id": "hx_DxmTy2Mxgltw0v1Bjx7AxW50=", "properties": {"@spider": "usps_collection_boxes", "addr:city": "PLANTATION", "addr:country": "US", "addr:full": "7001 W BROWARD BLVD", "addr:postcode": "33317", "addr:state": "FL", "brand": "USPS", "brand:wikidata": "Q668687", "collection_times": "Mo-Sa 12:00", "name": "USPS COLLECTION BOX - BLUE BOX", "ref": "3331700004"}, "type": "Feature"}
{"geometry": {"coordinates": [-80.230131945, 26.132152644], "type": "Point"}, "id": "AFvCw_oewLf55yZTmpMOuvwvXdY=", "properties": {"@spider": "usps_collection_boxes", "addr:city": "PLANTATION", "addr:country": "US", "addr:full": "6101 PLANTATION RD", "addr:postcode": "33317", "addr:state": "FL", "brand": "USPS", "brand:wikidata": "Q668687", "collection_times": "Mo-Sa 14:30", "name": "USPS COLLECTION BOX - BLUE BOX", "note": "ON 12/24 AND 12/31, THIS BOX MAY BE COLLECTED AS EARLY AS 12 NOON.", "ref": "3331700005"}, "type": "Feature"}
{"geometry": {"coordinates": [-80.21892447, 26.120990474], "type": "Point"}, "id": "qm-y49noyk0JPMeEKbw6w5jXsKA=", "properties": {"@spider": "usps_collection_boxes", "addr:city": "PLANTATION", "addr:country": "US", "addr:full": "5225 W BROWARD BLVD", "addr:postcode": "33317", "addr:state": "FL", "brand": "USPS", "brand:wikidata": "Q668687", "collection_times": "Mo-Sa 15:30", "name": "USPS COLLECTION BOX - BLUE BOX", "note": "ON 12/24 AND 12/31, THIS BOX MAY BE COLLECTED AS EARLY AS 12 NOON.", "ref": "3331700006"}, "type": "Feature"}
{"geometry": {"coordinates": [-80.2276923261, 26.1054105179], "type": "Point"}, "id": "_OSd6kA7UQLgUjaJlbr3yfvGS2s=", "properties": {"@spider": "usps_collection_boxes", "addr:city": "PLANTATION", "addr:country": "US", "addr:full": "1250 SW 59TH TER", "addr:postcode": "33317", "addr:state": "FL", "brand": "USPS", "brand:wikidata": "Q668687", "collection_times": "Mo-Sa 13:30", "name": "USPS COLLECTION BOX - BLUE BOX", "note": "ON 12/24 AND 12/31, THIS BOX MAY BE COLLECTED AS EARLY AS 12 NOON.", "ref": "3331700007"}, "type": "Feature"}
{"geometry": {"coordinates": [-80.202142482, 26.122779037], "type": "Point"}, "id": "8bmnsEW84c9dDnXrC1x-gNYbMs8=", "properties": {"@spider": "usps_collection_boxes", "addr:city": "PLANTATION", "addr:country": "US", "addr:full": "199 N STATE ROAD 7", "addr:postcode": "33317", "addr:state": "FL", "brand": "USPS", "brand:wikidata": "Q668687", "collection_times": "Mo-Sa 12:00", "name": "USPS COLLECTION BOX - BLUE BOX", "ref": "3331700014"}, "type": "Feature"}
{"geometry": {"coordinates": [-80.240593954, 26.128116906], "type": "Point"}, "id": "rNcxuToVo9QQYUzevu3ANVKzfQM=", "properties": {"@spider": "usps_collection_boxes", "addr:city": "PLANTATION", "addr:country": "US", "addr:full": "499 NW 70TH AVE", "addr:postcode": "33317", "addr:state": "FL", "brand": "USPS", "brand:wikidata": "Q668687", "collection_times": "Mo-Sa 11:00", "name": "USPS COLLECTION BOX - BLUE BOX", "ref": "3331700015"}, "type": "Feature"}
{"geometry": {"coordinates": [-80.2498479841, 26.1277219868], "type": "Point"}, "id": "dcpRuVH9AqmSuJCa0E9gR6C9_v4=", "properties": {"@spider": "usps_collection_boxes", "addr:city": "PLANTATION", "addr:country": "US", "addr:full": "7580 NW 5TH ST", "addr:postcode": "33317", "addr:state": "FL", "brand": "USPS", "brand:wikidata": "Q668687", "collection_times": "Mo-Fr 17:05; Sa 15:00", "name": "USPS COLLECTION BOX - BLUE BOX", "note": "ON 12/24 AND 12/31, THIS BOX MAY BE COLLECTED AS EARLY AS 12 NOON.", "ref": "3331700018"}, "type": "Feature"}
{"geometry": {"coordinates": [-80.249993026, 26.128222538], "type": "Point"}, "id": "10eEPNJIA_kixlZoTzyRpcltP1w=", "properties": {"@spider": "usps_collection_boxes", "addr:city": "PLANTATION", "addr:country": "US", "addr:full": "7580 NW 5TH ST", "addr:postcode": "33317", "addr:state": "FL", "brand": "USPS", "brand:wikidata": "Q668687", "collection_times": "Mo-Fr 17:05; Sa 15:00", "name": "USPS COLLECTION BOX - BLUE BOX", "note": "ON 12/24 AND 12/31, THIS BOX MAY BE COLLECTED AS EARLY AS 12 NOON.", "ref": "3331700019"}, "type": "Feature"}
{"geometry": {"coordinates": [-80.206345773, 26.115086369], "type": "Point"}, "id": "lv8Ge5nux8Y_hWHSos4ghHNr2mw=", "properties": {"@spider": "usps_collection_boxes", "addr:city": "PLANTATION", "addr:country": "US", "addr:full": "500 E COUNTRY CLUB CIR", "addr:postcode": "33317", "addr:state": "FL", "brand": "USPS", "brand:wikidata": "Q668687", "collection_times": "Mo-Sa 15:30", "name": "USPS COLLECTION BOX - BLUE BOX", "note": "ON 12/24 AND 12/31, THIS BOX MAY BE COLLECTED AS EARLY AS 12 NOON.", "ref": "3331700023"}, "type": "Feature"}
{"geometry": {"coordinates": [-80.249993026, 26.128222538], "type": "Point"}, "id": "BE6_2A4Zs3bIRh6ctWyo0U8H3gM=", "properties": {"@spider": "usps_collection_boxes", "addr:city": "PLANTATION", "addr:country": "US", "addr:full": "7580 NW 5TH ST", "addr:postcode": "33317", "addr:state": "FL", "brand": "USPS", "brand:wikidata": "Q668687", "collection_times": "Mo-Fr 18:30; Sa 18:00", "name": "USPS COLLECTION BOX - PO LOBBY", "note": "ON 12/24 AND 12/31, THIS BOX MAY BE COLLECTED AS EARLY AS 12 NOON.", "ref": "3331700024"}, "type": "Feature"}
{"geometry": {"coordinates": [-80.249993026, 26.128222538], "type": "Point"}, "id": "TrSX55IjFeIIX-ib9Khc0Re9KV8=", "properties": {"@spider": "usps_collection_boxes", "addr:city": "PLANTATION", "addr:country": "US", "addr:full": "7580 NW 5TH ST", "addr:postcode": "33317", "addr:state": "FL", "brand": "USPS", "brand:wikidata": "Q668687", "collection_times": "Mo-Fr 17:00; Sa 15:00", "name": "USPS COLLECTION BOX - APC", "note": "ON 12/24 AND 12/31, THIS BOX MAY BE COLLECTED AS EARLY AS 12 NOON.", "ref": "3331700025"}, "type": "Feature"}
{"geometry": {"coordinates": [-80.249993026, 26.128222538], "type": "Point"}, "id": "ifQHPqUhA652LG-t0vKf7xHWhGM=", "properties": {"@spider": "usps_collection_boxes", "addr:city": "PLANTATION", "addr:country": "US", "addr:full": "7580 NW 5TH ST", "addr:postcode": "33317", "addr:state": "FL", "brand": "USPS", "brand:wikidata": "Q668687", "collection_times": "Mo-Fr 19:00; Sa 14:00", "name": "USPS COLLECTION BOX - PO LOBBY", "note": "ON 12/24 AND 12/31, THIS BOX MAY BE COLLECTED AS EARLY AS 12 NOON.", "ref": "3331700038"}, "type": "Feature"}
{"geometry": {"coordinates": [-80.248206977, 26.166255166], "type": "Point"}, "id": "uLH7pRIkFi-0SzUk5mWT9q9w9Z4=", "properties": {"@spider": "usps_collection_boxes", "addr:city": "TAMARAC", "addr:country": "US", "addr:full": "7501 W OAKLAND PARK BLVD", "addr:postcode": "33319", "addr:state": "FL", "brand": "USPS", "brand:wikidata": "Q668687", "collection_times": "Mo-Fr 17:00; Sa 13:00", "name": "USPS COLLECTION BOX - BLUE BOX", "note": "ON 12/24 AND 12/31, THIS BOX MAY BE COLLECTED AS EARLY AS 12 NOON.", "ref": "3331900000"}, "type": "Feature"}
{"geometry": {"coordinates": [-80.2356320248, 26.1715359968], "type": "Point"}, "id": "rjF1m75bv6Jku-nlAA9R6wsAuco=", "properties": {"@spider": "usps_collection_boxes", "addr:city": "TAMARAC", "addr:country": "US", "addr:full": "3800 INVERRARY BLVD", "addr:postcode": "33319", "addr:state": "FL", "brand": "USPS", "brand:wikidata": "Q668687", "collection_times": "Mo-Fr 17:00; Sa 13:00", "name": "USPS COLLECTION BOX - BLUE BOX", "note": "ON 12/24 AND 12/31, THIS BOX MAY BE COLLECTED AS EARLY AS 12 NOON.", "ref": "3331900005"}, "type": "Feature"}
{"geometry": {"coordinates": [-80.239831876, 26.179605], "type": "Point"}, "id": "-aoG5kr9jj6BFysfr5lIOn_8aLs=", "properties": {"@spider": "usps_collection_boxes", "addr:city": "TAMARAC", "addr:country": "US", "addr:full": "4400 INVERRARY BLVD", "addr:postcode": "33319", "addr:state": "FL", "brand": "USPS", "brand:wikidata": "Q668687", "collection_times": "Mo-Fr 17:00; Sa 13:00", "name": "USPS COLLECTION BOX - BLUE BOX", "note": "ON 12/24 AND 12/31, THIS BOX MAY BE COLLECTED AS EARLY AS 12 NOON.", "ref": "3331900007"}, "type": "Feature"}
{"geometry": {"coordinates": [-80.246241, 26.193684513], "type": "Point"}, "id": "98snbrqG_Qea-MCRECJ_a3ObkEc=", "properties": {"@spider": "usps_collection_boxes", "addr:city": "TAMARAC", "addr:country": "US", "addr:full": "7100 W COMMERCIAL BLVD", "addr:postcode": "33319", "addr:state": "FL", "brand": "USPS", "brand:wikidata": "Q668687", "collection_times": "Mo-Fr 16:30; Sa 13:00", "name": "USPS COLLECTION BOX - BLUE BOX", "note": "ON 12/24 AND 12/31, THIS BOX MAY BE COLLECTED AS EARLY AS 12 NOON.", "ref": "3331900010"}, "type": "Feature"}
{"geometry": {"coordinates": [-80.234470542, 26.195042927], "type": "Point"}, "id": "_q1GjDxXd4N3DliC85piomn5UGM=", "properties": {"@spider": "usps_collection_boxes", "addr:city": "TAMARAC", "addr:country": "US", "addr:full": "6299 NW 57TH ST", "addr:postcode": "33319", "addr:state": "FL", "brand": "USPS", "brand:wikidata": "Q668687", "collection_times": "Mo-Fr 16:20; Sa 13:00", "name": "USPS COLLECTION BOX - BLUE BOX", "note": "ON 12/24 AND 12/31, THIS BOX MAY BE COLLECTED AS EARLY AS 12 NOON.", "ref": "3331900012"}, "type": "Feature"}
{"geometry": {"coordinates": [-80.232143081, 26.199361278], "type": "Point"}, "id": "c11i9FmlMi0rNyNxx_DwoLJfd5E=", "properties": {"@spider": "usps_collection_boxes", "addr:city": "TAMARAC", "addr:country": "US", "addr:full": "6051 NW 61ST AVE", "addr:postcode": "33319", "addr:state": "FL", "brand": "USPS", "brand:wikidata": "Q668687", "collection_times": "Mo-Fr 16:30; Sa 13:00", "name": "USPS COLLECTION BOX - BLUE BOX", "note": "ON 12/24 AND 12/31, THIS BOX MAY BE COLLECTED AS EARLY AS 12 NOON.", "ref": "3331900013"}, "type": "Feature"}
{"geometry": {"coordinates": [-80.229938849, 26.182293374], "type": "Point"}, "id": "jzTfjprQivLzPgGggiv_wD5wSfA=", "properties": {"@spider": "usps_collection_boxes", "addr:city": "TAMARAC", "addr:country": "US", "addr:full": "4600 WOODLANDS BLVD", "addr:postcode": "33319", "addr:state": "FL", "brand": "USPS", "brand:wikidata": "Q668687", "collection_times": "Mo-Fr 16:15; Sa 13:00", "name": "USPS COLLECTION BOX - BLUE BOX", "note": "ON 12/24 AND 12/31, THIS BOX MAY BE COLLECTED AS EARLY AS 12 NOON.", "ref": "3331900014"}, "type": "Feature"}
{"geometry": {"coordinates": [-80.2173904, 26.188706], "type": "Point"}, "id": "Mp7Wu4gYRWXMQJk6lQ70OmWCgD4=", "properties": {"@spider": "usps_collection_boxes", "addr:city": "TAMARAC", "addr:country": "US", "addr:full": "4920 NW 51ST CT", "addr:postcode": "33319", "addr:state": "FL", "brand": "USPS", "brand:wikidata": "Q668687", "collection_times": "Mo-Fr 16:35; Sa 13:00", "name": "USPS COLLECTION BOX - BLUE BOX", "note": "ON 12/24 AND 12/31, THIS BOX MAY BE COLLECTED AS EARLY AS 12 NOON.", "ref": "3331900016"}, "type": "Feature"}
{"geometry": {"coordinates": [-80.2077435, 26.184390461], "type": "Point"}, "id": "QCOavh0JlXYjQTEYLTSk-Q9KlEA=", "properties": {"@spider": "usps_collection_boxes", "addr:city": "TAMARAC", "addr:country": "US", "addr:full": "4301 MAINLAND DR", "addr:postcode": "33319", "addr:state": "FL", "brand": "USPS", "brand:wikidata": "Q668687", "collection_times": "Mo-Fr 16:40; Sa 13:00", "name": "USPS COLLECTION BOX - BLUE BOX", "note": "ON 12/24 AND 12/31, THIS BOX MAY BE COLLECTED AS EARLY AS 12 NOON.", "ref": "3331900019"}, "type": "Feature"}
{"geometry": {"coordinates": [-80.20347146, 26.183316542], "type": "Point"}, "id": "3wGU2iUtBQlpQ_Cj5kaj6dvyWFg=", "properties": {"@spider": "usps_collection_boxes", "addr:city": "TAMARAC", "addr:country": "US", "addr:full": "4780 N STATE ROAD 7", "addr:postcode": "33319", "addr:state": "FL", "brand": "USPS", "brand:wikidata": "Q668687", "collection_times": "Mo-Fr 17:00; Sa 13:00", "name": "USPS COLLECTION BOX - BLUE BOX", "note": "ON 12/24 AND 12/31, THIS BOX MAY BE COLLECTED AS EARLY AS 12 NOON.", "ref": "3331900022"}, "type": "Feature"}
{"geometry": {"coordinates": [-80.20554816, 26.186732453], "type": "Point"}, "id": "vlk8lehSOSFbl6FV0cCkw52AtqQ=", "properties": {"@spider": "usps_collection_boxes", "addr:city": "TAMARAC", "addr:country": "US", "addr:full": "4101 W COMMERCIAL BLVD", "addr:postcode": "33319", "addr:state": "FL", "brand": "USPS", "brand:wikidata": "Q668687", "collection_times": "Mo-Fr 17:00; Sa 13:00", "name": "USPS COLLECTION BOX - BLUE BOX", "note": "ON 12/24 AND 12/31, THIS BOX MAY BE COLLECTED AS EARLY AS 12 NOON.", "ref": "3331900028"}, "type": "Feature"}
{"geometry": {"coordinates": [-80.20360401, 26.177554563], "type": "Point"}, "id": "y9D7IczJceUg3jCu-3trdVgaopM=", "properties": {"@spider": "usps_collection_boxes", "addr:city": "TAMARAC", "addr:country": "US", "addr:full": "4217 N STATE ROAD 7", "addr:postcode": "33319", "addr:state": "FL", "brand": "USPS", "brand:wikidata": "Q668687", "collection_times": "Mo-Fr 17:00; Sa 13:00", "name": "USPS COLLECTION BOX - BLUE BOX", "note": "ON 12/24 AND 12/31, THIS BOX MAY BE COLLECTED AS EARLY AS 12 NOON.", "ref": "3331900031"}, "type": "Feature"}
{"geometry": {"coordinates": [-80.202958066, 26.164922042], "type": "Point"}, "id": "CdcXVu8fiNsO7fBZsJTtcblM7UQ=", "properties": {"@spider": "usps_collection_boxes", "addr:city": "TAMARAC", "addr:country": "US", "addr:full": "3100 N STATE ROAD 7", "addr:postcode": "33319", "addr:state": "FL", "brand": "USPS", "brand:wikidata": "Q668687", "collection_times": "Mo-Fr 17:00; Sa 13:00", "name": "USPS COLLECTION BOX - BLUE BOX", "note": "ON 12/24 AND 12/31, THIS BOX MAY BE COLLECTED AS EARLY AS 12 NOON.", "ref": "3331900038"}, "type": "Feature"}
{"geometry": {"coordinates": [-80.206314134, 26.170464001], "type": "Point"}, "id": "fP2i48ctPbCF-Fa_tP2ad6TkinE=", "properties": {"@spider": "usps_collection_boxes", "addr:city": "TAMARAC", "addr:country": "US", "addr:full": "4300 NW 36TH ST", "addr:postcode": "33319", "addr:state": "FL", "brand": "USPS", "brand:wikidata": "Q668687", "collection_times": "Mo-Fr 16:45; Sa 13:00", "name": "USPS COLLECTION BOX - BLUE BOX", "note": "ON 12/24 AND 12/31, THIS BOX MAY BE COLLECTED AS EARLY AS 12 NOON.", "ref": "3331900040"}, "type": "Feature"}
{"geometry": {"coordinates": [-80.239755468, 26.194806962], "type": "Point"}, "id": "Qo0psftp6snXPllMFTdRBqhHWeg=", "properties": {"@spider": "usps_collection_boxes", "addr:city": "TAMARAC", "addr:country": "US", "addr:full": "6636 NW 57TH ST", "addr:postcode": "33319", "addr:state": "FL", "brand": "USPS", "brand:wikidata": "Q668687", "collection_times": "Mo-Fr 17:00; Sa 13:00", "name": "USPS COLLECTION BOX - BLUE BOX", "note": "ON 12/24 AND 12/31, THIS BOX MAY BE COLLECTED AS EARLY AS 12 NOON.", "ref": "3331900044"}, "type": "Feature"}
{"geometry": {"coordinates": [-80.241974989, 26.165191923], "type": "Point"}, "id": "gfoFZ-TaII6OdsSKkfLmhyX9E2Y=", "properties": {"@spider": "usps_collection_boxes", "addr:city": "TAMARAC", "addr:country": "US", "addr:full": "6240 W OAKLAND PARK BLVD", "addr:postcode": "33319", "addr:state": "FL", "brand": "USPS", "brand:wikidata": "Q668687", "collection_times": "Mo-Fr 18:30; Sa 17:00", "name": "USPS COLLECTION BOX - PO LOBBY", "note": "ON 12/24 AND 12/31, THIS BOX MAY BE COLLECTED AS EARLY AS 12 NOON.", "ref": "3331900045"}, "type": "Feature"}
{"geometry": {"coordinates": [-80.203882267, 26.193926734], "type": "Point"}, "id": "B4XveV4k1k9b5HlGHHEqKw8PzAs=", "properties": {"@spider": "usps_collection_boxes", "addr:city": "TAMARAC", "addr:country": "US", "addr:full": "5451 N STATE ROAD 7", "addr:postcode": "33319", "addr:state": "FL", "brand": "USPS", "brand:wikidata": "Q668687", "collection_times": "Mo-Fr 17:00", "name": "USPS COLLECTION BOX - PO LOBBY", "note": "ON 12/24 AND 12/31, THIS BOX MAY BE COLLECTED AS EARLY AS 12 NOON.", "ref": "3331900048"}, "type": "Feature"}
{"geometry": {"coordinates": [-80.233973966, 26.164604886], "type": "Point"}, "id": "OMVPtDn14N2DGDXyxj-boQO8Jf4=", "properties": {"@spider": "usps_collection_boxes", "addr:city": "TAMARAC", "addr:country": "US", "addr:full": "6240 W OAKLAND PARK BLVD", "addr:postcode": "33319", "addr:state": "FL", "brand": "USPS", "brand:wikidata": "Q668687", "collection_times": "Mo-Fr 18:00; Sa 14:00", "name": "USPS COLLECTION BOX - PO LOBBY", "note": "ON 12/24 AND 12/31, THIS BOX MAY BE COLLECTED AS EARLY AS 12 NOON.", "ref": "3331900063"}, "type": "Feature"}
{"geometry": {"coordinates": [-80.203882267, 26.193926734], "type": "Point"}, "id": "RDrDLZdNX7EsabedpGFzsJN4k60=", "properties": {"@spider": "usps_collection_boxes", "addr:city": "TAMARAC", "addr:country": "US", "addr:full": "5451 N STATE ROAD 7", "addr:postcode": "33319", "addr:state": "FL", "brand": "USPS", "brand:wikidata": "Q668687", "collection_times": "Mo-Fr 17:00", "name": "USPS COLLECTION BOX - PO LOBBY", "note": "ON 12/24 AND 12/31, THIS BOX MAY BE COLLECTED AS EARLY AS 12 NOON.", "ref": "3331900064"}, "type": "Feature"}
{"geometry": {"coordinates": [-80.25714, 26.208391512], "type": "Point"}, "id": "MFZehQB8sUEeoOB0BwsVZMC6Bp0=", "properties": {"@spider": "usps_collection_boxes", "addr:city": "FT LAUDERDALE", "addr:country": "US", "addr:full": "7901 W MCNAB RD", "addr:postcode": "33321", "addr:state": "FL", "brand": "USPS", "brand:wikidata": "Q668687", "collection_times": "Mo-Sa 12:00", "name": "USPS COLLECTION BOX - BLUE BOX", "ref": "3332100002"}, "type": "Feature"}
{"geometry": {"coordinates": [-80.269825561, 26.226542789], "type": "Point"}, "id": "IP8rxusqHmrmvqS_eMjdVg1vDJY=", "properties": {"@spider": "usps_collection_boxes", "addr:city": "FT LAUDERDALE", "addr:country": "US", "addr:full": "8233 NW 88TH AVE", "addr:postcode": "33321", "addr:state": "FL", "brand": "USPS", "brand:wikidata": "Q668687", "collection_times": "Mo-Fr 14:55; Sa 13:00", "name": "USPS COLLECTION BOX - BLUE BOX", "note": "ON 12/24 AND 12/31, THIS BOX MAY BE COLLECTED AS EARLY AS 12 NOON.", "ref": "3332100005"}, "type": "Feature"}
{"geometry": {"coordinates": [-80.271702758, 26.213960981], "type": "Point"}, "id": "FjqrKjkwwOMT54RhLbz_-_riIJE=", "properties": {"@spider": "usps_collection_boxes", "addr:city": "FT LAUDERDALE", "addr:country": "US", "addr:full": "7525 NW 88TH AVE", "addr:postcode": "33321", "addr:state": "FL", "brand": "USPS", "brand:wikidata": "Q668687", "collection_times": "Mo-Sa 13:00", "name": "USPS COLLECTION BOX - BLUE BOX", "note": "ON 12/24 AND 12/31, THIS BOX MAY BE COLLECTED AS EARLY AS 12 NOON.", "ref": "3332100008"}, "type": "Feature"}
{"geometry": {"coordinates": [-80.26326796, 26.204974115], "type": "Point"}, "id": "IeT16kIWffLJpjd5nTUfTYQiL0Q=", "properties": {"@spider": "usps_collection_boxes", "addr:city": "FT LAUDERDALE", "addr:country": "US", "addr:full": "8300 SANDS POINT BLVD", "addr:postcode": "33321", "addr:state": "FL", "brand": "USPS", "brand:wikidata": "Q668687", "collection_times": "Mo-Sa 14:45", "name": "USPS COLLECTION BOX - BLUE BOX", "note": "ON 12/24 AND 12/31, THIS BOX MAY BE COLLECTED AS EARLY AS 12 NOON.", "ref": "3332100010"}, "type": "Feature"}
{"geometry": {"coordinates": [-80.285041209, 26.210861179], "type": "Point"}, "id": "BRsjvGTrDlt6EKHM-SdQgbY7cT4=", "properties": {"@spider": "usps_collection_boxes", "addr:city": "FT LAUDERDALE", "addr:country": "US", "addr:full": "7130 N NOB HILL RD", "addr:postcode": "33321", "addr:state": "FL", "brand": "USPS", "brand:wikidata": "Q668687", "collection_times": "Mo-Fr 15:10; Sa 13:00", "name": "USPS COLLECTION BOX - BLUE BOX", "note": "ON 12/24 AND 12/31, THIS BOX MAY BE COLLECTED AS EARLY AS 12 NOON.", "ref": "3332100013"}, "type": "Feature"}
{"geometry": {"coordinates": [-80.287705219, 26.215122435], "type": "Point"}, "id": "yPuFsb3pWwLhZb6vd87FR2WeSEQ=", "properties": {"@spider": "usps_collection_boxes", "addr:city": "FT LAUDERDALE", "addr:country": "US", "addr:full": "7600 N NOB HILL RD", "addr:postcode": "33321", "addr:state": "FL", "brand": "USPS", "brand:wikidata": "Q668687", "collection_times": "Mo-Fr 15:15; Sa 13:00", "name": "USPS COLLECTION BOX - BLUE BOX", "note": "ON 12/24 AND 12/31, THIS BOX MAY BE COLLECTED AS EARLY AS 12 NOON.", "ref": "3332100014"}, "type": "Feature"}
{"geometry": {"coordinates": [-80.244398065, 26.211467987], "type": "Point"}, "id": "WKPzGD7hhkHKuN9ZzCgFLQ5Hie8=", "properties": {"@spider": "usps_collection_boxes", "addr:city": "FT LAUDERDALE", "addr:country": "US", "addr:full": "7100 NW 70TH AVE", "addr:postcode": "33321", "addr:state": "FL", "brand": "USPS", "brand:wikidata": "Q668687", "collection_times": "Mo-Sa 14:20", "name": "USPS COLLECTION BOX - BLUE BOX", "note": "ON 12/24 AND 12/31, THIS BOX MAY BE COLLECTED AS EARLY AS 12 NOON.", "ref": "3332100022"}, "type": "Feature"}
{"geometry": {"coordinates": [-80.247837318, 26.203763376], "type": "Point"}, "id": "s6FszxqDZZVUfnvXSJwgtlneK8Q=", "properties": {"@spider": "usps_collection_boxes", "addr:city": "FT LAUDERDALE", "addr:country": "US", "addr:full": "6320 BROOKWOOD BLVD", "addr:postcode": "33321", "addr:state": "FL", "brand": "USPS", "brand:wikidata": "Q668687", "collection_times": "Mo-Sa 14:15", "name": "USPS COLLECTION BOX - BLUE BOX", "note": "ON 12/24 AND 12/31, THIS BOX MAY BE COLLECTED AS EARLY AS 12 NOON.", "ref": "3332100023"}, "type": "Feature"}
{"geometry": {"coordinates": [-80.2527040807, 26.2175393294], "type": "Point"}, "id": "rtjlWJgxPMUOIyhBwUsxd9HN-u4=", "properties": {"@spider": "usps_collection_boxes", "addr:city": "FT LAUDERDALE", "addr:country": "US", "addr:full": "7707 N UNIVERSITY DR", "addr:postcode": "33321", "addr:state": "FL", "brand": "USPS", "brand:wikidata": "Q668687", "collection_times": "Mo-Fr 15:30; Sa 13:00", "name": "USPS COLLECTION BOX - BLUE BOX", "note": "ON 12/24 AND 12/31, THIS BOX MAY BE COLLECTED AS EARLY AS 12 NOON.", "ref": "3332100025"}, "type": "Feature"}
{"geometry": {"coordinates": [-80.256221078, 26.157539558], "type": "Point"}, "id": "vEt57T_aivPvVeTXguagj7BX0SY=", "properties": {"@spider": "usps_collection_boxes", "addr:city": "SUNRISE", "addr:country": "US", "addr:full": "8150 NW 26TH ST", "addr:postcode": "33322", "addr:state": "FL", "brand": "USPS", "brand:wikidata": "Q668687", "collection_times": "Mo-Fr 15:10; Sa 13:00", "name": "USPS COLLECTION BOX - BLUE BOX", "note": "ON 12/24 AND 12/31, THIS BOX MAY BE COLLECTED AS EARLY AS 12 NOON.", "ref": "3332200008"}, "type": "Feature"}
{"geometry": {"coordinates": [-80.25705039, 26.15332851], "type": "Point"}, "id": "7WmcCcV-sMmjxjrTXyZ8MbCpTDI=", "properties": {"@spider": "usps_collection_boxes", "addr:city": "SUNRISE", "addr:country": "US", "addr:full": "2300 N UNIVERSITY DR", "addr:postcode": "33322", "addr:state": "FL", "brand": "USPS", "brand:wikidata": "Q668687", "collection_times": "Mo-Fr 14:55; Sa 13:00", "name": "USPS COLLECTION BOX - BLUE BOX", "note": "ON 12/24 AND 12/31, THIS BOX MAY BE COLLECTED AS EARLY AS 12 NOON.", "ref": "3332200009"}, "type": "Feature"}
{"geometry": {"coordinates": [-80.255290454, 26.152783529], "type": "Point"}, "id": "B25ZCEpLCmXih4p0ibJEnNLQiss=", "properties": {"@spider": "usps_collection_boxes", "addr:city": "SUNRISE", "addr:country": "US", "addr:full": "8260 SUNSET STRIP", "addr:postcode": "33322", "addr:state": "FL", "brand": "USPS", "brand:wikidata": "Q668687", "collection_times": "Mo-Fr 15:25; Sa 13:00", "name": "USPS COLLECTION BOX - BLUE BOX", "note": "ON 12/24 AND 12/31, THIS BOX MAY BE COLLECTED AS EARLY AS 12 NOON.", "ref": "3332200011"}, "type": "Feature"}
{"geometry": {"coordinates": [-80.257213171, 26.147972723], "type": "Point"}, "id": "D65BSfPhk-x12X-BcwfaidwuWPw=", "properties": {"@spider": "usps_collection_boxes", "addr:city": "SUNRISE", "addr:country": "US", "addr:full": "1797 N UNIVERSITY DR", "addr:postcode": "33322", "addr:state": "FL", "brand": "USPS", "brand:wikidata": "Q668687", "collection_times": "Mo-Fr 17:20; Sa 13:00", "name": "USPS COLLECTION BOX - BLUE BOX", "note": "ON 12/24 AND 12/31, THIS BOX MAY BE COLLECTED AS EARLY AS 12 NOON.", "ref": "3332200012"}, "type": "Feature"}
{"geometry": {"coordinates": [-80.256928926, 26.148924607], "type": "Point"}, "id": "ySzlzKI5GPUhD-zFl6Fcf3Jt1xY=", "properties": {"@spider": "usps_collection_boxes", "addr:city": "SUNRISE", "addr:country": "US", "addr:full": "1836 N UNIVERSITY DR", "addr:postcode": "33322", "addr:state": "FL", "brand": "USPS", "brand:wikidata": "Q668687", "collection_times": "Mo-Fr 15:30; Sa 13:00", "name": "USPS COLLECTION BOX - BLUE BOX", "note": "ON 12/24 AND 12/31, THIS BOX MAY BE COLLECTED AS EARLY AS 12 NOON.", "ref": "3332200013"}, "type": "Feature"}
{"geometry": {"coordinates": [-80.261978132, 26.138397776], "type": "Point"}, "id": "keVIUXEbPSysAp-kHfHm8ybSd7s=", "properties": {"@spider": "usps_collection_boxes", "addr:city": "SUNRISE", "addr:country": "US", "addr:full": "1141 NW 85TH AVE", "addr:postcode": "33322", "addr:state": "FL", "brand": "USPS", "brand:wikidata": "Q668687", "collection_times": "Mo-Fr 14:50; Sa 13:00", "name": "USPS COLLECTION BOX - BLUE BOX", "note": "ON 12/24 AND 12/31, THIS BOX MAY BE COLLECTED AS EARLY AS 12 NOON.", "ref": "3332200016"}, "type": "Feature"}
{"geometry": {"coordinates": [-80.268787828, 26.145601797], "type": "Point"}, "id": "anDZHFutQgDT5RcOjByvdE_-Nhw=", "properties": {"@spider": "usps_collection_boxes", "addr:city": "SUNRISE", "addr:country": "US", "addr:full": "1776 N PINE ISLAND RD", "addr:postcode": "33322", "addr:state": "FL", "brand": "USPS", "brand:wikidata": "Q668687", "collection_times": "Mo-Fr 17:10; Sa 13:00", "name": "USPS COLLECTION BOX - BLUE BOX", "note": "ON 12/24 AND 12/31, THIS BOX MAY BE COLLECTED AS EARLY AS 12 NOON.", "ref": "3332200017"}, "type": "Feature"}
{"geometry": {"coordinates": [-80.268787828, 26.145601797], "type": "Point"}, "id": "Mdhfj6y54JP0NktGMHsL7BISUHA=", "properties": {"@spider": "usps_collection_boxes", "addr:city": "SUNRISE", "addr:country": "US", "addr:full": "1776 N PINE ISLAND RD", "addr:postcode": "33322", "addr:state": "FL", "brand": "USPS", "brand:wikidata": "Q668687", "collection_times": "Mo-Fr 17:10; Sa 13:00", "name": "USPS COLLECTION BOX - BLUE BOX", "note": "ON 12/24 AND 12/31, THIS BOX MAY BE COLLECTED AS EARLY AS 12 NOON.", "ref": "3332200018"}, "type": "Feature"}
{"geometry": {"coordinates": [-80.315612563, 26.145704482], "type": "Point"}, "id": "KIKPF32d61LxfzrqOH3hP018QnQ=", "properties": {"@spider": "usps_collection_boxes", "addr:city": "SUNRISE", "addr:country": "US", "addr:full": "12500 W SUNRISE BLVD", "addr:postcode": "33323", "addr:state": "FL", "brand": "USPS", "brand:wikidata": "Q668687", "collection_times": "Mo-Fr 14:45; Sa 13:00", "name": "USPS COLLECTION BOX - BLUE BOX", "note": "ON 12/24 AND 12/31, THIS BOX MAY BE COLLECTED AS EARLY AS 12 NOON.", "ref": "3332300006"}, "type": "Feature"}
{"geometry": {"coordinates": [-80.2974825, 26.15491396], "type": "Point"}, "id": "-o64tJlmxRAKMbnYDQVzs0-Qbok=", "properties": {"@spider": "usps_collection_boxes", "addr:city": "SUNRISE", "addr:country": "US", "addr:full": "3225 N HIATUS RD", "addr:postcode": "33323", "addr:state": "FL", "brand": "USPS", "brand:wikidata": "Q668687", "collection_times": "Mo-Sa 18:30", "name": "USPS COLLECTION BOX - PO LOBBY", "note": "ON 12/24 AND 12/31, THIS BOX MAY BE COLLECTED AS EARLY AS 12 NOON.", "ref": "3332300007"}, "type": "Feature"}
{"geometry": {"coordinates": [-80.2974825, 26.15491396], "type": "Point"}, "id": "k9aMoRSHWCfpNI_518BL7U5Zwlw=", "properties": {"@spider": "usps_collection_boxes", "addr:city": "SUNRISE", "addr:country": "US", "addr:full": "3225 N HIATUS RD", "addr:postcode": "33323", "addr:state": "FL", "brand": "USPS", "brand:wikidata": "Q668687", "collection_times": "Mo-Sa 17:00", "name": "USPS COLLECTION BOX - APC", "note": "ON 12/24 AND 12/31, THIS BOX MAY BE COLLECTED AS EARLY AS 12 NOON.", "ref": "3332300008"}, "type": "Feature"}
{"geometry": {"coordinates": [-80.325142348, 26.145311421], "type": "Point"}, "id": "SvtEjyPpNsiqNvXE-cFPxf-nVfU=", "properties": {"@spider": "usps_collection_boxes", "addr:city": "SUNRISE", "addr:country": "US", "addr:full": "12801 W SUNRISE BLVD", "addr:postcode": "33323", "addr:state": "FL", "brand": "USPS", "brand:wikidata": "Q668687", "collection_times": "Mo-Fr 14:40; Sa 13:00", "name": "USPS COLLECTION BOX - BLUE BOX", "note": "ON 12/24 AND 12/31, THIS BOX MAY BE COLLECTED AS EARLY AS 12 NOON.", "ref": "3332300010"}, "type": "Feature"}
{"geometry": {"coordinates": [-80.325137848, 26.145311421], "type": "Point"}, "id": "xEbz0BC7LzLJ15X2S80rli_9wlc=", "properties": {"@spider": "usps_collection_boxes", "addr:city": "SUNRISE", "addr:country": "US", "addr:full": "12801 W SUNRISE BLVD STE 967", "addr:postcode": "33323", "addr:state": "FL", "brand": "USPS", "brand:wikidata": "Q668687", "collection_times": "Mo-Sa 19:00", "name": "USPS COLLECTION BOX - PO LOBBY", "note": "ON 12/24 AND 12/31, THIS BOX MAY BE COLLECTED AS EARLY AS 12 NOON.", "ref": "3332300018"}, "type": "Feature"}
{"geometry": {"coordinates": [-80.264711026, 26.101825007], "type": "Point"}, "id": "78-P-dg4TSlNQmlE5C3ir0h_qAY=", "properties": {"@spider": "usps_collection_boxes", "addr:city": "SUNRISE", "addr:country": "US", "addr:full": "8600 W STATE ROAD 84", "addr:postcode": "33324", "addr:state": "FL", "brand": "USPS", "brand:wikidata": "Q668687", "collection_times": "Mo-Sa 15:30", "name": "USPS COLLECTION BOX - BLUE BOX", "note": "ON 12/24 AND 12/31, THIS BOX MAY BE COLLECTED AS EARLY AS 12 NOON.", "ref": "3332400000"}, "type": "Feature"}
{"geometry": {"coordinates": [-80.269832492, 26.094474482], "type": "Point"}, "id": "SO0ZXCAGECL9UtFBHnYe5gIXp4U=", "properties": {"@spider": "usps_collection_boxes", "addr:city": "SUNRISE", "addr:country": "US", "addr:full": "1708 WHITEHALL DR", "addr:postcode": "33324", "addr:state": "FL", "brand": "USPS", "brand:wikidata": "Q668687", "collection_times": "Mo-Sa 12:00", "name": "USPS COLLECTION BOX - BLUE BOX", "ref": "3332400001"}, "type": "Feature"}
{"geometry": {"coordinates": [-80.271181657, 26.100122228], "type": "Point"}, "id": "ebZ7pXvHAymMK4_HIaNdDRgI3LU=", "properties": {"@spider": "usps_collection_boxes", "addr:city": "SUNRISE", "addr:country": "US", "addr:full": "1502 WHITEHALL DR", "addr:postcode": "33324", "addr:state": "FL", "brand": "USPS", "brand:wikidata": "Q668687", "collection_times": "Mo-Sa 15:30", "name": "USPS COLLECTION BOX - BLUE BOX", "note": "ON 12/24 AND 12/31, THIS BOX MAY BE COLLECTED AS EARLY AS 12 NOON.", "ref": "3332400003"}, "type": "Feature"}
{"geometry": {"coordinates": [-80.252145999, 26.193402938], "type": "Point"}, "id": "tUN7ZF0T8u097x-9jdYXsigDlTs=", "properties": {"@spider": "usps_collection_boxes", "addr:city": "SUNRISE", "addr:country": "US", "addr:full": "2 S UNIVERSITY DR", "addr:postcode": "33324", "addr:state": "FL", "brand": "USPS", "brand:wikidata": "Q668687", "collection_times": "Mo-Sa 12:00", "name": "USPS COLLECTION BOX - BLUE BOX", "ref": "3332400006"}, "type": "Feature"}
{"geometry": {"coordinates": [-80.252337808, 26.105309308], "type": "Point"}, "id": "h4NDrOSW-Kf65vYPq3UDap4I01Q=", "properties": {"@spider": "usps_collection_boxes", "addr:city": "SUNRISE", "addr:country": "US", "addr:full": "7700 PETERS RD", "addr:postcode": "33324", "addr:state": "FL", "brand": "USPS", "brand:wikidata": "Q668687", "collection_times": "Mo-Sa 12:35", "name": "USPS COLLECTION BOX - BLUE BOX", "note": "ON 12/24 AND 12/31, THIS BOX MAY BE COLLECTED AS EARLY AS 12 NOON.", "ref": "3332400007"}, "type": "Feature"}
{"geometry": {"coordinates": [-80.257073689, 26.142534722], "type": "Point"}, "id": "QTFGU0peUxUUJTc4LsLUfRAjAEI=", "properties": {"@spider": "usps_collection_boxes", "addr:city": "SUNRISE", "addr:country": "US", "addr:full": "1347 S UNIVERSITY DR", "addr:postcode": "33324", "addr:state": "FL", "brand": "USPS", "brand:wikidata": "Q668687", "collection_times": "Mo-Sa 12:45", "name": "USPS COLLECTION BOX - BLUE BOX", "note": "ON 12/24 AND 12/31, THIS BOX MAY BE COLLECTED AS EARLY AS 12 NOON.", "ref": "3332400008"}, "type": "Feature"}
{"geometry": {"coordinates": [-80.258691777, 26.116830528], "type": "Point"}, "id": "9CgnnyPil4NUIh2uqBc4BBJFWzY=", "properties": {"@spider": "usps_collection_boxes", "addr:city": "SUNRISE", "addr:country": "US", "addr:full": "8201 FEDERATED WEST ROADWAY", "addr:postcode": "33324", "addr:state": "FL", "brand": "USPS", "brand:wikidata": "Q668687", "collection_times": "Mo-Fr 16:00; Sa 15:00", "name": "USPS COLLECTION BOX - BLUE BOX", "note": "ON 12/24 AND 12/31, THIS BOX MAY BE COLLECTED AS EARLY AS 12 NOON.", "ref": "3332400014"}, "type": "Feature"}
{"geometry": {"coordinates": [-80.268016399, 26.182568153], "type": "Point"}, "id": "eBK9cOfUG668dyLaUSONGkfiUYw=", "properties": {"@spider": "usps_collection_boxes", "addr:city": "SUNRISE", "addr:country": "US", "addr:full": "300 S PINE ISLAND RD", "addr:postcode": "33324", "addr:state": "FL", "brand": "USPS", "brand:wikidata": "Q668687", "collection_times": "Mo-Fr 17:25; Sa 13:00", "name": "USPS COLLECTION BOX - BLUE BOX", "note": "ON 12/24 AND 12/31, THIS BOX MAY BE COLLECTED AS EARLY AS 12 NOON.", "ref": "3332400015"}, "type": "Feature"}
{"geometry": {"coordinates": [-80.2622879857, 26.1172799795], "type": "Point"}, "id": "0Tx9QNRj2GVNXrY36z805kymUfE=", "properties": {"@spider": "usps_collection_boxes", "addr:city": "SUNRISE", "addr:country": "US", "addr:full": "200 S PINE ISLAND RD", "addr:postcode": "33324", "addr:state": "FL", "brand": "USPS", "brand:wikidata": "Q668687", "collection_times": "Mo-Sa 11:00", "name": "USPS COLLECTION BOX - BLUE BOX", "ref": "3332400016"}, "type": "Feature"}
{"geometry": {"coordinates": [-80.302061187, 26.121177602], "type": "Point"}, "id": "4gzTdU0pCT_1lF_foTu8pSnvD-4=", "properties": {"@spider": "usps_collection_boxes", "addr:city": "SUNRISE", "addr:country": "US", "addr:full": "9779 W BROWARD BLVD", "addr:postcode": "33324", "addr:state": "FL", "brand": "USPS", "brand:wikidata": "Q668687", "collection_times": "Mo-Sa 11:00", "name": "USPS COLLECTION BOX - BLUE BOX", "ref": "3332400020"}, "type": "Feature"}
{"geometry": {"coordinates": [-80.276294471, 26.123262452], "type": "Point"}, "id": "cw4760juIE5GPm5LS1zFfSRgL80=", "properties": {"@spider": "usps_collection_boxes", "addr:city": "SUNRISE", "addr:country": "US", "addr:full": "9451 CHELSEA DR SOUTH", "addr:postcode": "33324", "addr:state": "FL", "brand": "USPS", "brand:wikidata": "Q668687", "collection_times": "Mo-Sa 12:30", "name": "USPS COLLECTION BOX - BLUE BOX", "note": "ON 12/24 AND 12/31, THIS BOX MAY BE COLLECTED AS EARLY AS 12 NOON.", "ref": "3332400021"}, "type": "Feature"}
{"geometry": {"coordinates": [-80.261203757, 26.144131252], "type": "Point"}, "id": "WcQZoNg2tQ3O9ldToYX_vlncxK8=", "properties": {"@spider": "usps_collection_boxes", "addr:city": "SUNRISE", "addr:country": "US", "addr:full": "201 NW 82ND AVE", "addr:postcode": "33324", "addr:state": "FL", "brand": "USPS", "brand:wikidata": "Q668687", "collection_times": "Mo-Fr 17:15; Sa 13:00", "name": "USPS COLLECTION BOX - BLUE BOX", "note": "ON 12/24 AND 12/31, THIS BOX MAY BE COLLECTED AS EARLY AS 12 NOON.", "ref": "3332400023"}, "type": "Feature"}
{"geometry": {"coordinates": [-80.302061187, 26.121177602], "type": "Point"}, "id": "Emd8oHK8uow-OwVhipSSH8szq8Y=", "properties": {"@spider": "usps_collection_boxes", "addr:city": "SUNRISE", "addr:country": "US", "addr:full": "8201 W BROWARD BLVD", "addr:postcode": "33324", "addr:state": "FL", "brand": "USPS", "brand:wikidata": "Q668687", "collection_times": "Mo-Sa 14:00", "name": "USPS COLLECTION BOX - BLUE BOX", "note": "ON 12/24 AND 12/31, THIS BOX MAY BE COLLECTED AS EARLY AS 12 NOON.", "ref": "3332400024"}, "type": "Feature"}
{"geometry": {"coordinates": [-80.252866205, 26.1215535], "type": "Point"}, "id": "c9fabRO6VcDTU55aDjx0nS4Fr3k=", "properties": {"@spider": "usps_collection_boxes", "addr:city": "SUNRISE", "addr:country": "US", "addr:full": "1 N UNIVERSITY DR", "addr:postcode": "33324", "addr:state": "FL", "brand": "USPS", "brand:wikidata": "Q668687", "collection_times": "Mo-Sa 11:30", "name": "USPS COLLECTION BOX - BLUE BOX", "ref": "3332400025"}, "type": "Feature"}
{"geometry": {"coordinates": [-80.2952319664, 26.1321009864], "type": "Point"}, "id": "DLNXkhtdqUfCT-HZKHO6Y5VGLuo=", "properties": {"@spider": "usps_collection_boxes", "addr:city": "SUNRISE", "addr:country": "US", "addr:full": "10063 CLEARY BLVD", "addr:postcode": "33324", "addr:state": "FL", "brand": "USPS", "brand:wikidata": "Q668687", "collection_times": "Mo-Fr 17:30; Sa 13:00", "name": "USPS COLLECTION BOX - BLUE BOX", "note": "ON 12/24 AND 12/31, THIS BOX MAY BE COLLECTED AS EARLY AS 12 NOON.", "ref": "3332400028"}, "type": "Feature"}
{"geometry": {"coordinates": [-80.3335412515, 26.125520484], "type": "Point"}, "id": "Uzmco_TO27tCYZuMkuDyAwX81Kg=", "properties": {"@spider": "usps_collection_boxes", "addr:city": "DAVIE", "addr:country": "US", "addr:full": "13790 NW 4TH ST", "addr:postcode": "33325", "addr:state": "FL", "brand": "USPS", "brand:wikidata": "Q668687", "collection_times": "Mo-Fr 17:40; Sa 13:00", "name": "USPS COLLECTION BOX - BLUE BOX", "note": "ON 12/24 AND 12/31, THIS BOX MAY BE COLLECTED AS EARLY AS 12 NOON.", "ref": "3332500012"}, "type": "Feature"}
{"geometry": {"coordinates": [-80.331663182, 26.117813551], "type": "Point"}, "id": "ID_yWXfjp56GmoISXYCXjWPJ1lo=", "properties": {"@spider": "usps_collection_boxes", "addr:city": "DAVIE", "addr:country": "US", "addr:full": "13730 W STATE ROAD 84", "addr:postcode": "33325", "addr:state": "FL", "brand": "USPS", "brand:wikidata": "Q668687", "collection_times": "Mo-Fr 17:50; Sa 13:00", "name": "USPS COLLECTION BOX - BLUE BOX", "note": "ON 12/24 AND 12/31, THIS BOX MAY BE COLLECTED AS EARLY AS 12 NOON.", "ref": "3332500013"}, "type": "Feature"}
{"geometry": {"coordinates": [-80.302505496, 26.111250469], "type": "Point"}, "id": "3U-gNV1BglTj9u4XrSq4RgaeNlA=", "properties": {"@spider": "usps_collection_boxes", "addr:city": "DAVIE", "addr:country": "US", "addr:full": "11528 W STATE ROAD 84", "addr:postcode": "33325", "addr:state": "FL", "brand": "USPS", "brand:wikidata": "Q668687", "collection_times": "Mo-Fr 17:00; Sa 13:30", "name": "USPS COLLECTION BOX - PO LOBBY", "note": "ON 12/24 AND 12/31, THIS BOX MAY BE COLLECTED AS EARLY AS 12 NOON.", "ref": "3332500020"}, "type": "Feature"}
{"geometry": {"coordinates": [-80.302505496, 26.111250469], "type": "Point"}, "id": "3FstnBAZVY-7H_LNuYzEzlkFuDM=", "properties": {"@spider": "usps_collection_boxes", "addr:city": "DAVIE", "addr:country": "US", "addr:full": "11528 W STATE ROAD 84", "addr:postcode": "33325", "addr:state": "FL", "brand": "USPS", "brand:wikidata": "Q668687", "collection_times": "Mo-Fr 18:00; Sa 14:00", "name": "USPS COLLECTION BOX - PO LOBBY", "note": "ON 12/24 AND 12/31, THIS BOX MAY BE COLLECTED AS EARLY AS 12 NOON.", "ref": "3332500022"}, "type": "Feature"}
{"geometry": {"coordinates": [-80.388597876, 26.130658008], "type": "Point"}, "id": "sMmh6vr1l75EMlEYC_EPukNXBrM=", "properties": {"@spider": "usps_collection_boxes", "addr:city": "WESTON", "addr:country": "US", "addr:full": "1870 N CORP LAKES BLVD", "addr:postcode": "33326", "addr:state": "FL", "brand": "USPS", "brand:wikidata": "Q668687", "collection_times": "Mo-Fr 17:30; Sa 15:00", "name": "USPS COLLECTION BOX - APC", "note": "ON 12/24 AND 12/31, THIS BOX MAY BE COLLECTED AS EARLY AS 12 NOON.", "ref": "3332600027"}, "type": "Feature"}
{"geometry": {"coordinates": [-80.365126556, 26.105118339], "type": "Point"}, "id": "hV-JDuAsSYu4TmrrGOpsTLwSuj0=", "properties": {"@spider": "usps_collection_boxes", "addr:city": "WESTON", "addr:country": "US", "addr:full": "1170 WESTON RD", "addr:postcode": "33326", "addr:state": "FL", "brand": "USPS", "brand:wikidata": "Q668687", "collection_times": "Mo-Fr 16:45; Sa 13:00", "name": "USPS COLLECTION BOX - BLUE BOX", "note": "ON 12/24 AND 12/31, THIS BOX MAY BE COLLECTED AS EARLY AS 12 NOON.", "ref": "3332600031"}, "type": "Feature"}
{"geometry": {"coordinates": [-80.3526220193, 26.1079290025], "type": "Point"}, "id": "N5o72vPuT5G3qOIqWu8QnmPm9_Y=", "properties": {"@spider": "usps_collection_boxes", "addr:city": "WESTON", "addr:country": "US", "addr:full": "1055 SHOTGUN RD", "addr:postcode": "33326", "addr:state": "FL", "brand": "USPS", "brand:wikidata": "Q668687", "collection_times": "Mo-Fr 17:00; Sa 13:00", "name": "USPS COLLECTION BOX - BLUE BOX", "note": "ON 12/24 AND 12/31, THIS BOX MAY BE COLLECTED AS EARLY AS 12 NOON.", "ref": "3332600033"}, "type": "Feature"}
{"geometry": {"coordinates": [-80.349756944, 26.108079739], "type": "Point"}, "id": "se_oQRLCDsGxU0xS2zSEamvD2mU=", "properties": {"@spider": "usps_collection_boxes", "addr:city": "WESTON", "addr:country": "US", "addr:full": "905 SHOTGUN RD", "addr:postcode": "33326", "addr:state": "FL", "brand": "USPS", "brand:wikidata": "Q668687", "collection_times": "Mo-Fr 17:00; Sa 13:00", "name": "USPS COLLECTION BOX - BLUE BOX", "note": "ON 12/24 AND 12/31, THIS BOX MAY BE COLLECTED AS EARLY AS 12 NOON.", "ref": "3332600034"}, "type": "Feature"}
{"geometry": {"coordinates": [-80.385578992, 26.09705298], "type": "Point"}, "id": "cnN56oJSuQ9neBCeA-SPz-yxHWs=", "properties": {"@spider": "usps_collection_boxes", "addr:city": "WESTON", "addr:country": "US", "addr:full": "1605 TOWN CENTER CIR", "addr:postcode": "33326", "addr:state": "FL", "brand": "USPS", "brand:wikidata": "Q668687", "collection_times": "Mo-Fr 16:45; Sa 13:00", "name": "USPS COLLECTION BOX - BLUE BOX", "note": "ON 12/24 AND 12/31, THIS BOX MAY BE COLLECTED AS EARLY AS 12 NOON.", "ref": "3332600036"}, "type": "Feature"}
{"geometry": {"coordinates": [-80.4009712743, 26.1337779074], "type": "Point"}, "id": "1XgzhGWzjn8RbJwJpynDeJq8X6Q=", "properties": {"@spider": "usps_collection_boxes", "addr:city": "WESTON", "addr:country": "US", "addr:full": "20 INDIAN TRCE", "addr:postcode": "33326", "addr:state": "FL", "brand": "USPS", "brand:wikidata": "Q668687", "collection_times": "Mo-Fr 16:50; Sa 13:00", "name": "USPS COLLECTION BOX - BLUE BOX", "note": "ON 12/24 AND 12/31, THIS BOX MAY BE COLLECTED AS EARLY AS 12 NOON.", "ref": "3332600039"}, "type": "Feature"}
{"geometry": {"coordinates": [-80.3515290191, 26.1081320122], "type": "Point"}, "id": "BZZlA7noQTTweeUVWgvTigakOvk=", "properties": {"@spider": "usps_collection_boxes", "addr:city": "WESTON", "addr:country": "US", "addr:full": "1011 SHOTGUN RD", "addr:postcode": "33326", "addr:state": "FL", "brand": "USPS", "brand:wikidata": "Q668687", "collection_times": "Mo-Fr 17:10; Sa 13:00", "name": "USPS COLLECTION BOX - BLUE BOX", "note": "ON 12/24 AND 12/31, THIS BOX MAY BE COLLECTED AS EARLY AS 12 NOON.", "ref": "3332600040"}, "type": "Feature"}
{"geometry": {"coordinates": [-80.367421019, 26.095240527], "type": "Point"}, "id": "goL6bgUbgdSLanT1zF3D1Qz4Rdg=", "properties": {"@spider": "usps_collection_boxes", "addr:city": "WESTON", "addr:country": "US", "addr:full": "1870 N CORPORATE LAKES BLVD", "addr:postcode": "33326", "addr:state": "FL", "brand": "USPS", "brand:wikidata": "Q668687", "collection_times": "Mo-Fr 17:30; Sa 15:00", "name": "USPS COLLECTION BOX - APC", "note": "ON 12/24 AND 12/31, THIS BOX MAY BE COLLECTED AS EARLY AS 12 NOON.", "ref": "3332600043"}, "type": "Feature"}
{"geometry": {"coordinates": [-80.367421019, 26.095240527], "type": "Point"}, "id": "2m84XciV7fF63I6i_VucOtziR0o=", "properties": {"@spider": "usps_collection_boxes", "addr:city": "WESTON", "addr:country": "US", "addr:full": "1870 N CORPORATE LAKES BLVD", "addr:postcode": "33326", "addr:state": "FL", "brand": "USPS", "brand:wikidata": "Q668687", "collection_times": "Mo-Sa 18:30", "name": "USPS COLLECTION BOX - PO LOBBY", "note": "ON 12/24 AND 12/31, THIS BOX MAY BE COLLECTED AS EARLY AS 12 NOON.", "ref": "3332600044"}, "type": "Feature"}
{"geometry": {"coordinates": [-80.367421019, 26.095240527], "type": "Point"}, "id": "L9gzNylkFXlIVOB2-JsL8pvVXQ0=", "properties": {"@spider": "usps_collection_boxes", "addr:city": "WESTON", "addr:country": "US", "addr:full": "1870 N CORPORATE LAKES BLVD", "addr:postcode": "33326", "addr:state": "FL", "brand": "USPS", "brand:wikidata": "Q668687", "collection_times": "Mo-Fr 19:00; Sa 14:00", "name": "USPS COLLECTION BOX - PO LOBBY", "note": "ON 12/24 AND 12/31, THIS BOX MAY BE COLLECTED AS EARLY AS 12 NOON.", "ref": "3332600050"}, "type": "Feature"}
{"geometry": {"coordinates": [-80.252264093, 26.06121306], "type": "Point"}, "id": "ugC4ewMA_H8sKs-_eloBicyXi04=", "properties": {"@spider": "usps_collection_boxes", "addr:city": "COOPER CITY", "addr:country": "US", "addr:full": "4801 S UNIVERSITY DR", "addr:postcode": "33328", "addr:state": "FL", "brand": "USPS", "brand:wikidata": "Q668687", "collection_times": "Mo-Fr 17:00; Sa 13:00", "name": "USPS COLLECTION BOX - BLUE BOX", "note": "ON 12/24 AND 12/31, THIS BOX MAY BE COLLECTED AS EARLY AS 12 NOON.", "ref": "3332800000"}, "type": "Feature"}
{"geometry": {"coordinates": [-80.279062385, 26.064014161], "type": "Point"}, "id": "K71HJ_lNfKheGR_elnSGfW9bClU=", "properties": {"@spider": "usps_collection_boxes", "addr:city": "COOPER CITY", "addr:country": "US", "addr:full": "9820 GRIFFIN RD", "addr:postcode": "33328", "addr:state": "FL", "brand": "USPS", "brand:wikidata": "Q668687", "collection_times": "Mo-Fr 17:00; Sa 13:00", "name": "USPS COLLECTION BOX - BLUE BOX", "note": "ON 12/24 AND 12/31, THIS BOX MAY BE COLLECTED AS EARLY AS 12 NOON.", "ref": "3332800005"}, "type": "Feature"}
{"geometry": {"coordinates": [-80.2856615554, 26.0639245029], "type": "Point"}, "id": "TGU9o1bNWFPW4JYG3wt5X7WKTxI=", "properties": {"@spider": "usps_collection_boxes", "addr:city": "COOPER CITY", "addr:country": "US", "addr:full": "10400 GRIFFIN RD", "addr:postcode": "33328", "addr:state": "FL", "brand": "USPS", "brand:wikidata": "Q668687", "collection_times": "Mo-Fr 17:00; Sa 13:00", "name": "USPS COLLECTION BOX - BLUE BOX", "note": "ON 12/24 AND 12/31, THIS BOX MAY BE COLLECTED AS EARLY AS 12 NOON.", "ref": "3332800007"}, "type": "Feature"}
{"geometry": {"coordinates": [-80.252419459, 26.073423775], "type": "Point"}, "id": "P_Imvs5IWF5gB9LgLFxic0bDlZs=", "properties": {"@spider": "usps_collection_boxes", "addr:city": "COOPER CITY", "addr:country": "US", "addr:full": "3850 S UNIVERSITY DR", "addr:postcode": "33328", "addr:state": "FL", "brand": "USPS", "brand:wikidata": "Q668687", "collection_times": "Mo-Fr 17:00; Sa 14:00", "name": "USPS COLLECTION BOX - BLUE BOX", "note": "ON 12/24 AND 12/31, THIS BOX MAY BE COLLECTED AS EARLY AS 12 NOON.", "ref": "3332800010"}, "type": "Feature"}
{"geometry": {"coordinates": [-80.2517060005, 26.073380013], "type": "Point"}, "id": "g6DzfDzKkPsXspxTY_xMcHnAB8s=", "properties": {"@spider": "usps_collection_boxes", "addr:city": "COOPER CITY", "addr:country": "US", "addr:full": "3850 S UNIVERSITY DR", "addr:postcode": "33328", "addr:state": "FL", "brand": "USPS", "brand:wikidata": "Q668687", "collection_times": "Mo-Fr 17:00; Sa 14:00", "name": "USPS COLLECTION BOX - BLUE BOX", "note": "ON 12/24 AND 12/31, THIS BOX MAY BE COLLECTED AS EARLY AS 12 NOON.", "ref": "3332800011"}, "type": "Feature"}
{"geometry": {"coordinates": [-80.252419459, 26.073423775], "type": "Point"}, "id": "5A-QsTFkPheBwCebLivGX3hga64=", "properties": {"@spider": "usps_collection_boxes", "addr:city": "COOPER CITY", "addr:country": "US", "addr:full": "3850 S UNIVERSITY DR", "addr:postcode": "33328", "addr:state": "FL", "brand": "USPS", "brand:wikidata": "Q668687", "collection_times": "Mo-Fr 17:00; Sa 14:00", "name": "USPS COLLECTION BOX - BLUE BOX", "note": "ON 12/24 AND 12/31, THIS BOX MAY BE COLLECTED AS EARLY AS 12 NOON.", "ref": "3332800012"}, "type": "Feature"}
{"geometry": {"coordinates": [-80.252419459, 26.073423775], "type": "Point"}, "id": "HeYX-yOXl6xt9YJClS4wBj0Zd7A=", "properties": {"@spider": "usps_collection_boxes", "addr:city": "COOPER CITY", "addr:country": "US", "addr:full": "3850 S UNIVERSITY DR", "addr:postcode": "33328", "addr:state": "FL", "brand": "USPS", "brand:wikidata": "Q668687", "collection_times": "Mo-Fr 17:00; Sa 14:00", "name": "USPS COLLECTION BOX - BLUE BOX", "note": "ON 12/24 AND 12/31, THIS BOX MAY BE COLLECTED AS EARLY AS 12 NOON.", "ref": "3332800013"}, "type": "Feature"}
{"geometry": {"coordinates": [-80.252419459, 26.073423775], "type": "Point"}, "id": "paeb0Q5Own2I_COQqu7ab4bNy0M=", "properties": {"@spider": "usps_collection_boxes", "addr:city": "COOPER CITY", "addr:country": "US", "addr:full": "3850 S UNIVERSITY DR", "addr:postcode": "33328", "addr:state": "FL", "brand": "USPS", "brand:wikidata": "Q668687", "collection_times": "Mo-Fr 17:00; Sa 14:00", "name": "USPS COLLECTION BOX - BLUE BOX", "note": "ON 12/24 AND 12/31, THIS BOX MAY BE COLLECTED AS EARLY AS 12 NOON.", "ref": "3332800014"}, "type": "Feature"}
{"geometry": {"coordinates": [-80.252336108, 26.062624027], "type": "Point"}, "id": "VSFnVqXcKFO9JaqiqQfUHuhSpos=", "properties": {"@spider": "usps_collection_boxes", "addr:city": "COOPER CITY", "addr:country": "US", "addr:full": "4741 S UNIVERSITY DR", "addr:postcode": "33328", "addr:state": "FL", "brand": "USPS", "brand:wikidata": "Q668687", "collection_times": "Mo-Fr 17:00; Sa 13:00", "name": "USPS COLLECTION BOX - BLUE BOX", "note": "ON 12/24 AND 12/31, THIS BOX MAY BE COLLECTED AS EARLY AS 12 NOON.", "ref": "3332800015"}, "type": "Feature"}
{"geometry": {"coordinates": [-80.252419459, 26.073423775], "type": "Point"}, "id": "C4tIILPlATH43FXk21PeNj6Fg8E=", "properties": {"@spider": "usps_collection_boxes", "addr:city": "COOPER CITY", "addr:country": "US", "addr:full": "3850 S UNIVERSITY DR", "addr:postcode": "33328", "addr:state": "FL", "brand": "USPS", "brand:wikidata": "Q668687", "collection_times": "Mo-Fr 17:00; Sa 14:00", "name": "USPS COLLECTION BOX - PO LOBBY", "note": "ON 12/24 AND 12/31, THIS BOX MAY BE COLLECTED AS EARLY AS 12 NOON.", "ref": "3332800016"}, "type": "Feature"}
{"geometry": {"coordinates": [-80.252419459, 26.073423775], "type": "Point"}, "id": "-SDFHyTW2Oq7rqNUG243VNkNApU=", "properties": {"@spider": "usps_collection_boxes", "addr:city": "COOPER CITY", "addr:country": "US", "addr:full": "3850 S UNIVERSITY DR", "addr:postcode": "33328", "addr:state": "FL", "brand": "USPS", "brand:wikidata": "Q668687", "collection_times": "Mo-Fr 17:00; Sa 14:00", "name": "USPS COLLECTION BOX - APC", "note": "ON 12/24 AND 12/31, THIS BOX MAY BE COLLECTED AS EARLY AS 12 NOON.", "ref": "3332800017"}, "type": "Feature"}
{"geometry": {"coordinates": [-80.252419459, 26.073423775], "type": "Point"}, "id": "hGI1x_NR4PiCEHa1Pv9ODiuRI1w=", "properties": {"@spider": "usps_collection_boxes", "addr:city": "COOPER CITY", "addr:country": "US", "addr:full": "3850 S UNIVERSITY DR", "addr:postcode": "33328", "addr:state": "FL", "brand": "USPS", "brand:wikidata": "Q668687", "collection_times": "Mo-Fr 17:00; Sa 14:00", "name": "USPS COLLECTION BOX - APC", "note": "ON 12/24 AND 12/31, THIS BOX MAY BE COLLECTED AS EARLY AS 12 NOON.", "ref": "3332800020"}, "type": "Feature"}
{"geometry": {"coordinates": [-80.272565746, 26.044830544], "type": "Point"}, "id": "Qd2d9GmhQhGDaSrK8XEN1LExVhQ=", "properties": {"@spider": "usps_collection_boxes", "addr:city": "COOPER CITY", "addr:country": "US", "addr:full": "6300 STIRLING RD", "addr:postcode": "33328", "addr:state": "FL", "brand": "USPS", "brand:wikidata": "Q668687", "collection_times": "Mo-Sa 11:00", "name": "USPS COLLECTION BOX - BLUE BOX", "ref": "3332800024"}, "type": "Feature"}
{"geometry": {"coordinates": [-80.25242043, 26.073189], "type": "Point"}, "id": "BOhlxmj4zabZ1_En5XjM12MJDHc=", "properties": {"@spider": "usps_collection_boxes", "addr:city": "COOPER CITY", "addr:country": "US", "addr:full": "3850 S UNIVERSITY DR", "addr:postcode": "33328", "addr:state": "FL", "brand": "USPS", "brand:wikidata": "Q668687", "collection_times": "Mo-Fr 18:00; Sa 14:00", "name": "USPS COLLECTION BOX - PO LOBBY", "note": "ON 12/24 AND 12/31, THIS BOX MAY BE COLLECTED AS EARLY AS 12 NOON.", "ref": "3332800026"}, "type": "Feature"}
{"geometry": {"coordinates": [-80.346082831, 26.059475725], "type": "Point"}, "id": "9jxwuggeHCAtuqYVwQ-oPtzjfEw=", "properties": {"@spider": "usps_collection_boxes", "addr:city": "DAVIE", "addr:country": "US", "addr:full": "4901 VOLUNTEER RD", "addr:postcode": "33330", "addr:state": "FL", "brand": "USPS", "brand:wikidata": "Q668687", "collection_times": "Mo-Sa 10:15", "name": "USPS COLLECTION BOX - BLUE BOX", "ref": "3333000002"}, "type": "Feature"}
{"geometry": {"coordinates": [-80.3271299695, 26.0622050083], "type": "Point"}, "id": "9MPs6wTufiwSd5bVdFvg2Rh9xrM=", "properties": {"@spider": "usps_collection_boxes", "addr:city": "DAVIE", "addr:country": "US", "addr:full": "13400 GRIFFIN RD", "addr:postcode": "33330", "addr:state": "FL", "brand": "USPS", "brand:wikidata": "Q668687", "collection_times": "Mo-Sa 11:00", "name": "USPS COLLECTION BOX - BLUE BOX", "ref": "3333000007"}, "type": "Feature"}
{"geometry": {"coordinates": [-80.4095930929, 26.0343549431], "type": "Point"}, "id": "Nxj_pA5uAgL9UKJ2Nan4msUfjUk=", "properties": {"@spider": "usps_collection_boxes", "addr:city": "FT. LAUDERDALE", "addr:country": "US", "addr:full": "6759 SW 196TH AVE", "addr:postcode": "33332", "addr:state": "FL", "brand": "USPS", "brand:wikidata": "Q668687", "collection_times": "Mo-Sa 17:45", "name": "USPS COLLECTION BOX - BLUE BOX", "note": "ON 12/24 AND 12/31, THIS BOX MAY BE COLLECTED AS EARLY AS 12 NOON.", "ref": "3333200001"}, "type": "Feature"}
{"geometry": {"coordinates": [-80.409593093, 26.034354943], "type": "Point"}, "id": "ClFyHiHoEmWzer_pTs6-5AkRqwo=", "properties": {"@spider": "usps_collection_boxes", "addr:city": "FT. LAUDERDALE", "addr:country": "US", "addr:full": "6759 SW 196TH AVE", "addr:postcode": "33332", "addr:state": "FL", "brand": "USPS", "brand:wikidata": "Q668687", "collection_times": "Mo-Sa 17:45", "name": "USPS COLLECTION BOX - PO LOBBY", "note": "ON 12/24 AND 12/31, THIS BOX MAY BE COLLECTED AS EARLY AS 12 NOON.", "ref": "3333200003"}, "type": "Feature"}
{"geometry": {"coordinates": [-80.409593093, 26.034354943], "type": "Point"}, "id": "OGu71T8hCN2gS4XVnYvxxfB0EXo=", "properties": {"@spider": "usps_collection_boxes", "addr:city": "FT. LAUDERDALE", "addr:country": "US", "addr:full": "6759 SW 196TH AVE", "addr:postcode": "33332", "addr:state": "FL", "brand": "USPS", "brand:wikidata": "Q668687", "collection_times": "Mo-Fr 17:00", "name": "USPS COLLECTION BOX - PO LOBBY", "note": "ON 12/24 AND 12/31, THIS BOX MAY BE COLLECTED AS EARLY AS 12 NOON.", "ref": "3333200004"}, "type": "Feature"}
{"geometry": {"coordinates": [-80.131154495, 26.172354505], "type": "Point"}, "id": "NDDdd1Le-ecWmabbTY1pgzTAUQY=", "properties": {"@spider": "usps_collection_boxes", "addr:city": "FT LAUDERDALE", "addr:country": "US", "addr:full": "3600 NE 12TH AVE", "addr:postcode": "33334", "addr:state": "FL", "brand": "USPS", "brand:wikidata": "Q668687", "collection_times": "Mo-Fr 14:05; Sa 13:00", "name": "USPS COLLECTION BOX - BLUE BOX", "note": "ON 12/24 AND 12/31, THIS BOX MAY BE COLLECTED AS EARLY AS 12 NOON.", "ref": "3333400005"}, "type": "Feature"}
{"geometry": {"coordinates": [-80.137921869, 26.205065026], "type": "Point"}, "id": "a61VTt-vI8BWuxarv7yOdCa88q8=", "properties": {"@spider": "usps_collection_boxes", "addr:city": "FT LAUDERDALE", "addr:country": "US", "addr:full": "600 CORPORATE DR", "addr:postcode": "33334", "addr:state": "FL", "brand": "USPS", "brand:wikidata": "Q668687", "collection_times": "Mo-Fr 17:05; Sa 13:00", "name": "USPS COLLECTION BOX - BLUE BOX", "note": "ON 12/24 AND 12/31, THIS BOX MAY BE COLLECTED AS EARLY AS 12 NOON.", "ref": "3333400015"}, "type": "Feature"}
{"geometry": {"coordinates": [-80.137921869, 26.205065026], "type": "Point"}, "id": "eo3GN8bDp5B7T23qUrpdbbC97Xg=", "properties": {"@spider": "usps_collection_boxes", "addr:city": "FT LAUDERDALE", "addr:country": "US", "addr:full": "600 CORPORATE DR", "addr:postcode": "33334", "addr:state": "FL", "brand": "USPS", "brand:wikidata": "Q668687", "collection_times": "Mo-Fr 17:08; Sa 13:00", "name": "USPS COLLECTION BOX - BLUE BOX", "note": "ON 12/24 AND 12/31, THIS BOX MAY BE COLLECTED AS EARLY AS 12 NOON.", "ref": "3333400016"}, "type": "Feature"}
{"geometry": {"coordinates": [-80.132432643, 26.194537084], "type": "Point"}, "id": "tuRdzKeg_Wk_tYqLIn2n8PpGbnI=", "properties": {"@spider": "usps_collection_boxes", "addr:city": "FT LAUDERDALE", "addr:country": "US", "addr:full": "5599 N DIXIE HWY", "addr:postcode": "33334", "addr:state": "FL", "brand": "USPS", "brand:wikidata": "Q668687", "collection_times": "Mo-Fr 17:12; Sa 13:00", "name": "USPS COLLECTION BOX - BLUE BOX", "note": "ON 12/24 AND 12/31, THIS BOX MAY BE COLLECTED AS EARLY AS 12 NOON.", "ref": "3333400025"}, "type": "Feature"}
{"geometry": {"coordinates": [-80.138343613, 26.164547078], "type": "Point"}, "id": "VejV7oy3wThuHvlREViX6czS5pI=", "properties": {"@spider": "usps_collection_boxes", "addr:city": "FT LAUDERDALE", "addr:country": "US", "addr:full": "2905 NE 6TH AVE", "addr:postcode": "33334", "addr:state": "FL", "brand": "USPS", "brand:wikidata": "Q668687", "collection_times": "Mo-Fr 14:35", "name": "USPS COLLECTION BOX - BLUE BOX", "note": "ON 12/24 AND 12/31, THIS BOX MAY BE COLLECTED AS EARLY AS 12 NOON.", "ref": "3333400032"}, "type": "Feature"}
{"geometry": {"coordinates": [-80.14614322, 26.181137517], "type": "Point"}, "id": "60uImZQmJ-3jJItQqCjHlBt9OSA=", "properties": {"@spider": "usps_collection_boxes", "addr:city": "FT LAUDERDALE", "addr:country": "US", "addr:full": "110 NE 44TH ST", "addr:postcode": "33334", "addr:state": "FL", "brand": "USPS", "brand:wikidata": "Q668687", "collection_times": "Mo-Fr 17:00; Sa 13:00", "name": "USPS COLLECTION BOX - BLUE BOX", "note": "ON 12/24 AND 12/31, THIS BOX MAY BE COLLECTED AS EARLY AS 12 NOON.", "ref": "3333400036"}, "type": "Feature"}
{"geometry": {"coordinates": [-80.296212356, 26.166389748], "type": "Point"}, "id": "TZ1uDJC7PTUREpxZaUinPeCbL3g=", "properties": {"@spider": "usps_collection_boxes", "addr:city": "SUNRISE", "addr:country": "US", "addr:full": "3225 N HIATUS RD", "addr:postcode": "33345", "addr:state": "FL", "brand": "USPS", "brand:wikidata": "Q668687", "collection_times": "Mo-Fr 19:00; Sa 14:00", "name": "USPS COLLECTION BOX - PO LOBBY", "note": "ON 12/24 AND 12/31, THIS BOX MAY BE COLLECTED AS EARLY AS 12 NOON.", "ref": "3334500002"}, "type": "Feature"}
{"geometry": {"coordinates": [-80.256932033, 26.171928018], "type": "Point"}, "id": "offIx5FFswEyA9GqysfVg_gfx-o=", "properties": {"@spider": "usps_collection_boxes", "addr:city": "TAMARAC", "addr:country": "US", "addr:full": "3801 N UNIVERSITY DR", "addr:postcode": "33351", "addr:state": "FL", "brand": "USPS", "brand:wikidata": "Q668687", "collection_times": "Mo-Fr 15:45; Sa 13:00", "name": "USPS COLLECTION BOX - BLUE BOX", "note": "ON 12/24 AND 12/31, THIS BOX MAY BE COLLECTED AS EARLY AS 12 NOON.", "ref": "3335100007"}, "type": "Feature"}
{"geometry": {"coordinates": [-80.253412198, 26.166582571], "type": "Point"}, "id": "r60yXeE0FNofVRDT9mECFv2K0-E=", "properties": {"@spider": "usps_collection_boxes", "addr:city": "TAMARAC", "addr:country": "US", "addr:full": "7770 W OAKLAND PARK BLVD", "addr:postcode": "33351", "addr:state": "FL", "brand": "USPS", "brand:wikidata": "Q668687", "collection_times": "Mo-Fr 16:05; Sa 13:00", "name": "USPS COLLECTION BOX - BLUE BOX", "note": "ON 12/24 AND 12/31, THIS BOX MAY BE COLLECTED AS EARLY AS 12 NOON.", "ref": "3335100010"}, "type": "Feature"}
{"geometry": {"coordinates": [-80.252270956, 26.166700453], "type": "Point"}, "id": "4tK7lnOXzVW4z_xv4fLi_Bs83eY=", "properties": {"@spider": "usps_collection_boxes", "addr:city": "TAMARAC", "addr:country": "US", "addr:full": "7771 W OAKLAND PARK BLVD", "addr:postcode": "33351", "addr:state": "FL", "brand": "USPS", "brand:wikidata": "Q668687", "collection_times": "Mo-Fr 16:00; Sa 13:00", "name": "USPS COLLECTION BOX - BLUE BOX", "note": "ON 12/24 AND 12/31, THIS BOX MAY BE COLLECTED AS EARLY AS 12 NOON.", "ref": "3335100014"}, "type": "Feature"}
{"geometry": {"coordinates": [-80.254734714, 26.179091268], "type": "Point"}, "id": "_3qWPKjjacZNDLqUaoe6puUrHUE=", "properties": {"@spider": "usps_collection_boxes", "addr:city": "TAMARAC", "addr:country": "US", "addr:full": "7800 NW 44TH ST", "addr:postcode": "33351", "addr:state": "FL", "brand": "USPS", "brand:wikidata": "Q668687", "collection_times": "Mo-Fr 15:35; Sa 13:00", "name": "USPS COLLECTION BOX - BLUE BOX", "note": "ON 12/24 AND 12/31, THIS BOX MAY BE COLLECTED AS EARLY AS 12 NOON.", "ref": "3335100017"}, "type": "Feature"}
{"geometry": {"coordinates": [-80.251600256, 26.180034756], "type": "Point"}, "id": "Mel1lOUjQb6hlAUgX_stuHUCyds=", "properties": {"@spider": "usps_collection_boxes", "addr:city": "TAMARAC", "addr:country": "US", "addr:full": "4528 N UNIVERSITY DR", "addr:postcode": "33351", "addr:state": "FL", "brand": "USPS", "brand:wikidata": "Q668687", "collection_times": "Mo-Fr 15:40; Sa 13:00", "name": "USPS COLLECTION BOX - BLUE BOX", "note": "ON 12/24 AND 12/31, THIS BOX MAY BE COLLECTED AS EARLY AS 12 NOON.", "ref": "3335100018"}, "type": "Feature"}
{"geometry": {"coordinates": [-80.285865513, 26.170111123], "type": "Point"}, "id": "9DDnGVjj00MTr2CvrQSeY24HLgQ=", "properties": {"@spider": "usps_collection_boxes", "addr:city": "TAMARAC", "addr:country": "US", "addr:full": "10077 W OAKLAND PARK BLVD", "addr:postcode": "33351", "addr:state": "FL", "brand": "USPS", "brand:wikidata": "Q668687", "collection_times": "Mo-Fr 15:30; Sa 13:00", "name": "USPS COLLECTION BOX - BLUE BOX", "note": "ON 12/24 AND 12/31, THIS BOX MAY BE COLLECTED AS EARLY AS 12 NOON.", "ref": "3335100021"}, "type": "Feature"}
{"geometry": {"coordinates": [-80.290719393, 26.184177251], "type": "Point"}, "id": "LlBZsZNfIOGnV7xB6Egy3aJi4r4=", "properties": {"@spider": "usps_collection_boxes", "addr:city": "TAMARAC", "addr:country": "US", "addr:full": "4700 N HIATUS RD", "addr:postcode": "33351", "addr:state": "FL", "brand": "USPS", "brand:wikidata": "Q668687", "collection_times": "Mo-Fr 15:25; Sa 13:00", "name": "USPS COLLECTION BOX - BLUE BOX", "note": "ON 12/24 AND 12/31, THIS BOX MAY BE COLLECTED AS EARLY AS 12 NOON.", "ref": "3335100024"}, "type": "Feature"}
{"geometry": {"coordinates": [-80.286397554, 26.186252304], "type": "Point"}, "id": "VaEP58t7iEvn39WEQOvhZAsZxFs=", "properties": {"@spider": "usps_collection_boxes", "addr:city": "TAMARAC", "addr:country": "US", "addr:full": "10200 NW 50TH ST", "addr:postcode": "33351", "addr:state": "FL", "brand": "USPS", "brand:wikidata": "Q668687", "collection_times": "Mo-Fr 15:20; Sa 13:00", "name": "USPS COLLECTION BOX - BLUE BOX", "note": "ON 12/24 AND 12/31, THIS BOX MAY BE COLLECTED AS EARLY AS 12 NOON.", "ref": "3335100025"}, "type": "Feature"}
{"geometry": {"coordinates": [-80.254842956, 26.195014294], "type": "Point"}, "id": "P1p2gcZ8U1sF8fN91-ZUgwmfWxA=", "properties": {"@spider": "usps_collection_boxes", "addr:city": "TAMARAC", "addr:country": "US", "addr:full": "7875 NW 57TH ST", "addr:postcode": "33351", "addr:state": "FL", "brand": "USPS", "brand:wikidata": "Q668687", "collection_times": "Mo-Sa 18:00", "name": "USPS COLLECTION BOX - APC", "note": "ON 12/24 AND 12/31, THIS BOX MAY BE COLLECTED AS EARLY AS 12 NOON.", "ref": "3335100028"}, "type": "Feature"}
{"geometry": {"coordinates": [-80.292383609, 26.169680405], "type": "Point"}, "id": "eFQC3NwrOMA1NaCSTqxGsjnRzCI=", "properties": {"@spider": "usps_collection_boxes", "addr:city": "TAMARAC", "addr:country": "US", "addr:full": "10770 W OAKLAND PARK BLVD", "addr:postcode": "33351", "addr:state": "FL", "brand": "USPS", "brand:wikidata": "Q668687", "collection_times": "Mo-Fr 15:30", "name": "USPS COLLECTION BOX - BLUE BOX", "note": "ON 12/24 AND 12/31, THIS BOX MAY BE COLLECTED AS EARLY AS 12 NOON.", "ref": "3335100030"}, "type": "Feature"}
{"geometry": {"coordinates": [-80.254842956, 26.195014294], "type": "Point"}, "id": "rbIe0_m-J6via1I3bGesbZOWYXg=", "properties": {"@spider": "usps_collection_boxes", "addr:city": "TAMARAC", "addr:country": "US", "addr:full": "7875 NW 57TH ST", "addr:postcode": "33351", "addr:state": "FL", "brand": "USPS", "brand:wikidata": "Q668687", "collection_times": "Mo-Sa 18:00", "name": "USPS COLLECTION BOX - BLUE BOX", "note": "ON 12/24 AND 12/31, THIS BOX MAY BE COLLECTED AS EARLY AS 12 NOON.", "ref": "3335100031"}, "type": "Feature"}
{"geometry": {"coordinates": [-80.254842956, 26.195014294], "type": "Point"}, "id": "bummy1HKi6fv2hK1JIsPcbTdQYE=", "properties": {"@spider": "usps_collection_boxes", "addr:city": "TAMARAC", "addr:country": "US", "addr:full": "7875 NW 57TH ST", "addr:postcode": "33351", "addr:state": "FL", "brand": "USPS", "brand:wikidata": "Q668687", "collection_times": "Mo-Fr 19:00; Sa 13:00", "name": "USPS COLLECTION BOX - PO LOBBY", "note": "ON 12/24 AND 12/31, THIS BOX MAY BE COLLECTED AS EARLY AS 12 NOON.", "ref": "3335100040"}, "type": "Feature"}
{"geometry": {"coordinates": [-80.254842956, 26.195014294], "type": "Point"}, "id": "v532l18ZXwht384bK9_FIrB85kk=", "properties": {"@spider": "usps_collection_boxes", "addr:city": "TAMARAC", "addr:country": "US", "addr:full": "7875 NW 57TH ST", "addr:postcode": "33351", "addr:state": "FL", "brand": "USPS", "brand:wikidata": "Q668687", "collection_times": "Mo-Sa 18:00", "name": "USPS COLLECTION BOX - PO LOBBY", "note": "ON 12/24 AND 12/31, THIS BOX MAY BE COLLECTED AS EARLY AS 12 NOON.", "ref": "3335100041"}, "type": "Feature"}
{"geometry": {"coordinates": [-80.254842956, 26.195014294], "type": "Point"}, "id": "KTnfGkBdi9SZTiXVnZA7PC7kkog=", "properties": {"@spider": "usps_collection_boxes", "addr:city": "TAMARAC", "addr:country": "US", "addr:full": "7875 NW 57TH ST", "addr:postcode": "33351", "addr:state": "FL", "brand": "USPS", "brand:wikidata": "Q668687", "collection_times": "Mo-Sa 18:00", "name": "USPS COLLECTION BOX - BLUE BOX", "note": "ON 12/24 AND 12/31, THIS BOX MAY BE COLLECTED AS EARLY AS 12 NOON.", "ref": "3335100042"}, "type": "Feature"}
