{"geometry": {"coordinates": [-82.2851670265, 27.9324350077], "type": "Point"}, "id": "Fgu5dmwKGIZEIZnPunDvhT5V48g=", "properties": {"@spider": "usps_collection_boxes", "addr:city": "BRANDON", "addr:country": "US", "addr:full": "427 S PARSONS AVE", "addr:postcode": "33511", "addr:state": "FL", "amenity": "post_box", "brand": "United States Postal Service", "brand:wikidata": "Q668687", "collection_times": "Mo-Fr 16:05; Sa 15:30", "name": "USPS COLLECTION BOX - BLUE BOX", "note": "ON 12/24 AND 12/31, THIS BOX MAY BE COLLECTED AS EARLY AS 12 NOON.", "nsi_id": "unitedstatespostalservice-a77078", "operator": "United States Postal Service", "operator:short": "USPS", "operator:type": "public", "operator:wikidata": "Q668687", "ref": "3351100004"}, "type": "Feature"}
{"geometry": {"coordinates": [-82.2954579919, 27.9247609982], "type": "Point"}, "id": "0Gi31rr-KmblNBySwLV3PiwAOH0=", "properties": {"@spider": "usps_collection_boxes", "addr:city": "BRANDON", "addr:country": "US", "addr:full": "798 W LUMSDEN RD", "addr:postcode": "33511", "addr:state": "FL", "amenity": "post_box", "brand": "United States Postal Service", "brand:wikidata": "Q668687", "collection_times": "Mo-Sa 15:00", "name": "USPS COLLECTION BOX - BLUE BOX", "note": "ON 12/24 AND 12/31, THIS BOX MAY BE COLLECTED AS EARLY AS 12 NOON.", "nsi_id": "unitedstatespostalservice-a77078", "operator": "United States Postal Service", "operator:short": "USPS", "operator:type": "public", "operator:wikidata": "Q668687", "ref": "3351100015"}, "type": "Feature"}
{"geometry": {"coordinates": [-82.3030929837, 27.9332920154], "type": "Point"}, "id": "sQ_NqlTBUL0Sl30UA0BrBV7nUoI=", "properties": {"@spider": "usps_collection_boxes", "addr:city": "BRANDON", "addr:country": "US", "addr:full": "1315 OAKFIELD DR", "addr:postcode": "33511", "addr:state": "FL", "amenity": "post_box", "brand": "United States Postal Service", "brand:wikidata": "Q668687", "collection_times": "Mo-Fr 17:00; Sa 16:30", "name": "USPS COLLECTION BOX - BLUE BOX", "note": "ON 12/24 AND 12/31, THIS BOX MAY BE COLLECTED AS EARLY AS 12 NOON.", "nsi_id": "unitedstatespostalservice-a77078", "operator": "United States Postal Service", "operator:short": "USPS", "operator:type": "public", "operator:wikidata": "Q668687", "ref": "3351100017"}, "type": "Feature"}
{"geometry": {"coordinates": [-82.3155929997, 27.9326029811], "type": "Point"}, "id": "AEnTZoizTUMxUFwG4Zt400ydRac=", "properties": {"@spider": "usps_collection_boxes", "addr:city": "BRANDON", "addr:country": "US", "addr:full": "1918 PLANTATION KEY CIR", "addr:postcode": "33511", "addr:state": "FL", "amenity": "post_box", "brand": "United States Postal Service", "brand:wikidata": "Q668687", "collection_times": "Mo-Sa 14:15", "name": "USPS COLLECTION BOX - BLUE BOX", "note": "ON 12/24 AND 12/31, THIS BOX MAY BE COLLECTED AS EARLY AS 12 NOON.", "nsi_id": "unitedstatespostalservice-a77078", "operator": "United States Postal Service", "operator:short": "USPS", "operator:type": "public", "operator:wikidata": "Q668687", "ref": "3351100024"}, "type": "Feature"}
{"geometry": {"coordinates": [-82.287729039, 27.9326839922], "type": "Point"}, "id": "Fo9caMOWsdX40ELhbtU7uigSIdg=", "properties": {"@spider": "usps_collection_boxes", "addr:city": "BRANDON", "addr:country": "US", "addr:full": "119 OAKFIELD DR", "addr:postcode": "33511", "addr:state": "FL", "amenity": "post_box", "brand": "United States Postal Service", "brand:wikidata": "Q668687", "collection_times": "Mo-Sa 16:05", "name": "USPS COLLECTION BOX - BLUE BOX", "note": "ON 12/24 AND 12/31, THIS BOX MAY BE COLLECTED AS EARLY AS 12 NOON.", "nsi_id": "unitedstatespostalservice-a77078", "operator": "United States Postal Service", "operator:short": "USPS", "operator:type": "public", "operator:wikidata": "Q668687", "ref": "3351100025"}, "type": "Feature"}
{"geometry": {"coordinates": [-82.2951290022, 27.9348870078], "type": "Point"}, "id": "5Z6S5dGHLAp2O1blNKZ48I91mfs=", "properties": {"@spider": "usps_collection_boxes", "addr:city": "BRANDON", "addr:country": "US", "addr:full": "710 OAKFIELD DR", "addr:postcode": "33511", "addr:state": "FL", "amenity": "post_box", "brand": "United States Postal Service", "brand:wikidata": "Q668687", "collection_times": "Mo-Sa 16:20", "name": "USPS COLLECTION BOX - BLUE BOX", "note": "ON 12/24 AND 12/31, THIS BOX MAY BE COLLECTED AS EARLY AS 12 NOON.", "nsi_id": "unitedstatespostalservice-a77078", "operator": "United States Postal Service", "operator:short": "USPS", "operator:type": "public", "operator:wikidata": "Q668687", "ref": "3351100026"}, "type": "Feature"}
{"geometry": {"coordinates": [-82.2892309922, 27.9306520093], "type": "Point"}, "id": "1XHUnyW0flneSo1mh_ZdBOkIKOo=", "properties": {"@spider": "usps_collection_boxes", "addr:city": "BRANDON", "addr:country": "US", "addr:full": "510 VONDERBURG DR", "addr:postcode": "33511", "addr:state": "FL", "amenity": "post_box", "brand": "United States Postal Service", "brand:wikidata": "Q668687", "collection_times": "Mo-Sa 16:15", "name": "USPS COLLECTION BOX - BLUE BOX", "note": "ON 12/24 AND 12/31, THIS BOX MAY BE COLLECTED AS EARLY AS 12 NOON.", "nsi_id": "unitedstatespostalservice-a77078", "operator": "United States Postal Service", "operator:short": "USPS", "operator:type": "public", "operator:wikidata": "Q668687", "ref": "3351100032"}, "type": "Feature"}
{"geometry": {"coordinates": [-82.2841199591, 27.8920859927], "type": "Point"}, "id": "H-82hPt5ObSoKbj-XrA8HageLPw=", "properties": {"@spider": "usps_collection_boxes", "addr:city": "BRANDON", "addr:country": "US", "addr:full": "179 E BLOOMINGDALE AVE", "addr:postcode": "33511", "addr:state": "FL", "amenity": "post_box", "brand": "United States Postal Service", "brand:wikidata": "Q668687", "collection_times": "Mo-Sa 15:15", "name": "USPS COLLECTION BOX - BLUE BOX", "note": "ON 12/24 AND 12/31, THIS BOX MAY BE COLLECTED AS EARLY AS 12 NOON.", "nsi_id": "unitedstatespostalservice-a77078", "operator": "United States Postal Service", "operator:short": "USPS", "operator:type": "public", "operator:wikidata": "Q668687", "ref": "3351100042"}, "type": "Feature"}
{"geometry": {"coordinates": [-82.326003994, 27.9323609955], "type": "Point"}, "id": "WMbzg1WppasoCYZepCKjlF6GP5E=", "properties": {"@spider": "usps_collection_boxes", "addr:city": "BRANDON", "addr:country": "US", "addr:full": "605 BRANDON TOWN CENTER MALL", "addr:postcode": "33511", "addr:state": "FL", "amenity": "post_box", "brand": "United States Postal Service", "brand:wikidata": "Q668687", "collection_times": "Mo-Sa 14:35", "name": "USPS COLLECTION BOX - BLUE BOX", "note": "ON 12/24 AND 12/31, THIS BOX MAY BE COLLECTED AS EARLY AS 12 NOON.", "nsi_id": "unitedstatespostalservice-a77078", "operator": "United States Postal Service", "operator:short": "USPS", "operator:type": "public", "operator:wikidata": "Q668687", "ref": "3351100044"}, "type": "Feature"}
{"geometry": {"coordinates": [-82.2920349903, 27.9215029943], "type": "Point"}, "id": "21YPxHbo7GMV6v_WWPGk0LYr-2E=", "properties": {"@spider": "usps_collection_boxes", "addr:city": "BRANDON", "addr:country": "US", "addr:full": "625 W LUMSDEN RD", "addr:postcode": "33511", "addr:state": "FL", "amenity": "post_box", "brand": "United States Postal Service", "brand:wikidata": "Q668687", "collection_times": "Mo-Sa 15:05", "name": "USPS COLLECTION BOX - BLUE BOX", "note": "ON 12/24 AND 12/31, THIS BOX MAY BE COLLECTED AS EARLY AS 12 NOON.", "nsi_id": "unitedstatespostalservice-a77078", "operator": "United States Postal Service", "operator:short": "USPS", "operator:type": "public", "operator:wikidata": "Q668687", "ref": "3351100046"}, "type": "Feature"}
{"geometry": {"coordinates": [-82.3254239663, 27.9253800017], "type": "Point"}, "id": "PP9kc2fDYNEChrqc6X4z6EvL5dU=", "properties": {"@spider": "usps_collection_boxes", "addr:city": "BRANDON", "addr:country": "US", "addr:full": "11110 CAUSEWAY BLVD", "addr:postcode": "33511", "addr:state": "FL", "amenity": "post_box", "brand": "United States Postal Service", "brand:wikidata": "Q668687", "collection_times": "Mo-Sa 14:45", "name": "USPS COLLECTION BOX - BLUE BOX", "note": "ON 12/24 AND 12/31, THIS BOX MAY BE COLLECTED AS EARLY AS 12 NOON.", "nsi_id": "unitedstatespostalservice-a77078", "operator": "United States Postal Service", "operator:short": "USPS", "operator:type": "public", "operator:wikidata": "Q668687", "ref": "3351100049"}, "type": "Feature"}
{"geometry": {"coordinates": [-82.3248410049, 27.9212929858], "type": "Point"}, "id": "LmgXNtOC25U-tQ4iYABU3eJYkEM=", "properties": {"@spider": "usps_collection_boxes", "addr:city": "BRANDON", "addr:country": "US", "addr:full": "11255 CAUSEWAY BLVD", "addr:postcode": "33511", "addr:state": "FL", "amenity": "post_box", "brand": "United States Postal Service", "brand:wikidata": "Q668687", "collection_times": "Mo-Sa 14:50", "name": "USPS COLLECTION BOX - BLUE BOX", "note": "ON 12/24 AND 12/31, THIS BOX MAY BE COLLECTED AS EARLY AS 12 NOON.", "nsi_id": "unitedstatespostalservice-a77078", "operator": "United States Postal Service", "operator:short": "USPS", "operator:type": "public", "operator:wikidata": "Q668687", "ref": "3351100055"}, "type": "Feature"}
{"geometry": {"coordinates": [-82.3030929837, 27.9332920154], "type": "Point"}, "id": "ekFyOJWlCiPiKN0-IB4JpDSDMW4=", "properties": {"@spider": "usps_collection_boxes", "addr:city": "BRANDON", "addr:country": "US", "addr:full": "1315 OAKFIELD DR", "addr:postcode": "33511", "addr:state": "FL", "amenity": "post_box", "brand": "United States Postal Service", "brand:wikidata": "Q668687", "collection_times": "Mo-Fr 17:00; Sa 16:30", "name": "USPS COLLECTION BOX - APC", "note": "ON 12/24 AND 12/31, THIS BOX MAY BE COLLECTED AS EARLY AS 12 NOON.", "nsi_id": "unitedstatespostalservice-a77078", "operator": "United States Postal Service", "operator:short": "USPS", "operator:type": "public", "operator:wikidata": "Q668687", "ref": "3351100063"}, "type": "Feature"}
{"geometry": {"coordinates": [-82.3030929837, 27.9332920154], "type": "Point"}, "id": "ZRb8ojKhzYcsjJRO6Cay4n8sHfk=", "properties": {"@spider": "usps_collection_boxes", "addr:city": "BRANDON", "addr:country": "US", "addr:full": "1315 OAKFIELD DR", "addr:postcode": "33511", "addr:state": "FL", "amenity": "post_box", "brand": "United States Postal Service", "brand:wikidata": "Q668687", "collection_times": "Mo-Fr 17:00; Sa 12:30", "name": "USPS COLLECTION BOX - PO LOBBY", "note": "ON 12/24 AND 12/31, THIS BOX MAY BE COLLECTED AS EARLY AS 12 NOON.", "nsi_id": "unitedstatespostalservice-a77078", "operator": "United States Postal Service", "operator:short": "USPS", "operator:type": "public", "operator:wikidata": "Q668687", "ref": "3351100076"}, "type": "Feature"}
{"geometry": {"coordinates": [-82.2955320041, 27.8927619932], "type": "Point"}, "id": "lAcNBZ0Vgl-dxumYqs7p6XBwb_g=", "properties": {"@spider": "usps_collection_boxes", "addr:city": "BRANDON", "addr:country": "US", "addr:full": "867 W BLOOMINGDALE AVE", "addr:postcode": "33511", "addr:state": "FL", "amenity": "post_box", "brand": "United States Postal Service", "brand:wikidata": "Q668687", "collection_times": "Mo-Fr 17:00", "name": "USPS COLLECTION BOX - PO LOBBY", "note": "ON 12/24 AND 12/31, THIS BOX MAY BE COLLECTED AS EARLY AS 12 NOON.", "nsi_id": "unitedstatespostalservice-a77078", "operator": "United States Postal Service", "operator:short": "USPS", "operator:type": "public", "operator:wikidata": "Q668687", "ref": "3351100078"}, "type": "Feature"}
{"geometry": {"coordinates": [-82.111763059, 28.674383783], "type": "Point"}, "id": "WVU0ISvLv4ZQKMnclwS4fOZl1us=", "properties": {"@spider": "usps_collection_boxes", "addr:city": "BUSHNELL", "addr:country": "US", "addr:full": "800 N MAIN ST", "addr:postcode": "33513", "addr:state": "FL", "amenity": "post_box", "brand": "United States Postal Service", "brand:wikidata": "Q668687", "collection_times": "Mo-Fr 16:30; Sa 10:30", "name": "USPS COLLECTION BOX - BLUE BOX", "note": "ON 12/24 AND 12/31, THIS BOX MAY BE COLLECTED AS EARLY AS 12 NOON.", "nsi_id": "unitedstatespostalservice-a77078", "operator": "United States Postal Service", "operator:short": "USPS", "operator:type": "public", "operator:wikidata": "Q668687", "ref": "3351300001"}, "type": "Feature"}
{"geometry": {"coordinates": [-82.111763059, 28.674383783], "type": "Point"}, "id": "IinLwLpl7hKiPEMrEm3WLoe3dkg=", "properties": {"@spider": "usps_collection_boxes", "addr:city": "BUSHNELL", "addr:country": "US", "addr:full": "800 N MAIN ST", "addr:postcode": "33513", "addr:state": "FL", "amenity": "post_box", "brand": "United States Postal Service", "brand:wikidata": "Q668687", "collection_times": "Mo-Fr 16:30; Sa 10:30", "name": "USPS COLLECTION BOX - BLUE BOX", "note": "ON 12/24 AND 12/31, THIS BOX MAY BE COLLECTED AS EARLY AS 12 NOON.", "nsi_id": "unitedstatespostalservice-a77078", "operator": "United States Postal Service", "operator:short": "USPS", "operator:type": "public", "operator:wikidata": "Q668687", "ref": "3351300002"}, "type": "Feature"}
{"geometry": {"coordinates": [-82.111763059, 28.674383783], "type": "Point"}, "id": "YmaZ3EhrHd2e6g3NISwCBESB40U=", "properties": {"@spider": "usps_collection_boxes", "addr:city": "BUSHNELL", "addr:country": "US", "addr:full": "800 N MAIN ST", "addr:postcode": "33513", "addr:state": "FL", "amenity": "post_box", "brand": "United States Postal Service", "brand:wikidata": "Q668687", "collection_times": "Mo-Fr 16:30; Sa 10:30", "name": "USPS COLLECTION BOX - PO LOBBY", "note": "ON 12/24 AND 12/31, THIS BOX MAY BE COLLECTED AS EARLY AS 12 NOON.", "nsi_id": "unitedstatespostalservice-a77078", "operator": "United States Postal Service", "operator:short": "USPS", "operator:type": "public", "operator:wikidata": "Q668687", "ref": "3351300003"}, "type": "Feature"}
{"geometry": {"coordinates": [-82.111763059, 28.674383783], "type": "Point"}, "id": "WBInR72h9Uufjdy4m2NSwyO9I6o=", "properties": {"@spider": "usps_collection_boxes", "addr:city": "BUSHNELL", "addr:country": "US", "addr:full": "800 N MAIN ST", "addr:postcode": "33513", "addr:state": "FL", "amenity": "post_box", "brand": "United States Postal Service", "brand:wikidata": "Q668687", "collection_times": "Mo-Fr 16:30; Sa 10:30", "name": "USPS COLLECTION BOX - PO LOBBY", "note": "ON 12/24 AND 12/31, THIS BOX MAY BE COLLECTED AS EARLY AS 12 NOON.", "nsi_id": "unitedstatespostalservice-a77078", "operator": "United States Postal Service", "operator:short": "USPS", "operator:type": "public", "operator:wikidata": "Q668687", "ref": "3351300004"}, "type": "Feature"}
{"geometry": {"coordinates": [-82.111763059, 28.674383783], "type": "Point"}, "id": "n3vcd8UtBgK0EqFdi_j8GZhCEXk=", "properties": {"@spider": "usps_collection_boxes", "addr:city": "BUSHNELL", "addr:country": "US", "addr:full": "800 N MAIN ST", "addr:postcode": "33513", "addr:state": "FL", "amenity": "post_box", "brand": "United States Postal Service", "brand:wikidata": "Q668687", "collection_times": "Mo-Fr 16:30; Sa 10:30", "name": "USPS COLLECTION BOX - PO LOBBY", "note": "ON 12/24 AND 12/31, THIS BOX MAY BE COLLECTED AS EARLY AS 12 NOON.", "nsi_id": "unitedstatespostalservice-a77078", "operator": "United States Postal Service", "operator:short": "USPS", "operator:type": "public", "operator:wikidata": "Q668687", "ref": "3351300006"}, "type": "Feature"}
{"geometry": {"coordinates": [-81.995001, 28.649872], "type": "Point"}, "id": "mM1eS-LxmJaxwPHKkfMD7bOCbOY=", "properties": {"@spider": "usps_collection_boxes", "addr:city": "CENTER HILL", "addr:country": "US", "addr:full": "89 E KINGS HWY", "addr:postcode": "33514", "addr:state": "FL", "amenity": "post_box", "brand": "United States Postal Service", "brand:wikidata": "Q668687", "collection_times": "Mo-Fr 16:00; Sa 09:00", "name": "USPS COLLECTION BOX - BLUE BOX", "note": "ON 12/24 AND 12/31, THIS BOX MAY BE COLLECTED AS EARLY AS 12 NOON.", "nsi_id": "unitedstatespostalservice-a77078", "operator": "United States Postal Service", "operator:short": "USPS", "operator:type": "public", "operator:wikidata": "Q668687", "ref": "3351400001"}, "type": "Feature"}
{"geometry": {"coordinates": [-81.995004251, 28.649870488], "type": "Point"}, "id": "g8m5SP48aG2zcytLw8ahtNOk8eQ=", "properties": {"@spider": "usps_collection_boxes", "addr:city": "CENTER HILL", "addr:country": "US", "addr:full": "89 E KINGS HWY", "addr:postcode": "33514", "addr:state": "FL", "amenity": "post_box", "brand": "United States Postal Service", "brand:wikidata": "Q668687", "collection_times": "Mo-Fr 16:00", "name": "USPS COLLECTION BOX - PO LOBBY", "note": "ON 12/24 AND 12/31, THIS BOX MAY BE COLLECTED AS EARLY AS 12 NOON.", "nsi_id": "unitedstatespostalservice-a77078", "operator": "United States Postal Service", "operator:short": "USPS", "operator:type": "public", "operator:wikidata": "Q668687", "ref": "3351400004"}, "type": "Feature"}
{"geometry": {"coordinates": [-82.158191, 28.17804], "type": "Point"}, "id": "PIg3VOinKfvk9-TqG5tAMGB0dK0=", "properties": {"@spider": "usps_collection_boxes", "addr:city": "CRYSTAL SPRINGS", "addr:country": "US", "addr:full": "1425 PAUL S BUCHMAN HWY", "addr:postcode": "33524", "addr:state": "FL", "amenity": "post_box", "brand": "United States Postal Service", "brand:wikidata": "Q668687", "collection_times": "Mo-Fr 15:15; Sa 08:15", "name": "USPS COLLECTION BOX - BLUE BOX", "note": "ON 12/24 AND 12/31, THIS BOX MAY BE COLLECTED AS EARLY AS 12 NOON.", "nsi_id": "unitedstatespostalservice-a77078", "operator": "United States Postal Service", "operator:short": "USPS", "operator:type": "public", "operator:wikidata": "Q668687", "ref": "3352400001"}, "type": "Feature"}
{"geometry": {"coordinates": [-82.1574036723, 28.1784108831], "type": "Point"}, "id": "FZUxQIZsoOLwyx_pkSh-cdqkXCw=", "properties": {"@spider": "usps_collection_boxes", "addr:city": "CRYSTAL SPRINGS", "addr:country": "US", "addr:full": "1425 PAUL S BUCHMAN HWY", "addr:postcode": "33524", "addr:state": "FL", "amenity": "post_box", "brand": "United States Postal Service", "brand:wikidata": "Q668687", "collection_times": "Mo-Fr 15:15; Sa 08:15", "name": "USPS COLLECTION BOX - PO LOBBY", "note": "ON 12/24 AND 12/31, THIS BOX MAY BE COLLECTED AS EARLY AS 12 NOON.", "nsi_id": "unitedstatespostalservice-a77078", "operator": "United States Postal Service", "operator:short": "USPS", "operator:type": "public", "operator:wikidata": "Q668687", "ref": "3352400002"}, "type": "Feature"}
{"geometry": {"coordinates": [-82.1574036723, 28.1784108831], "type": "Point"}, "id": "UoODRIiKnPQGQQnwJrFpirRlpw0=", "properties": {"@spider": "usps_collection_boxes", "addr:city": "CRYSTAL SPRINGS", "addr:country": "US", "addr:full": "1425 PAUL S BUCHMAN HWY", "addr:postcode": "33524", "addr:state": "FL", "amenity": "post_box", "brand": "United States Postal Service", "brand:wikidata": "Q668687", "collection_times": "Mo-Fr 15:15; Sa 08:15", "name": "USPS COLLECTION BOX - PO LOBBY", "note": "ON 12/24 AND 12/31, THIS BOX MAY BE COLLECTED AS EARLY AS 12 NOON.", "nsi_id": "unitedstatespostalservice-a77078", "operator": "United States Postal Service", "operator:short": "USPS", "operator:type": "public", "operator:wikidata": "Q668687", "ref": "3352400004"}, "type": "Feature"}
{"geometry": {"coordinates": [-82.157403672, 28.178410883], "type": "Point"}, "id": "eHk9fRyuKu6vfiz5uPdsBvzDtQ4=", "properties": {"@spider": "usps_collection_boxes", "addr:city": "CRYSTAL SPRINGS", "addr:country": "US", "addr:full": "1425 PAUL S BUCHMAN HWY", "addr:postcode": "33524", "addr:state": "FL", "amenity": "post_box", "brand": "United States Postal Service", "brand:wikidata": "Q668687", "collection_times": "Mo-Fr 16:00", "name": "USPS COLLECTION BOX - PO LOBBY", "note": "ON 12/24 AND 12/31, THIS BOX MAY BE COLLECTED AS EARLY AS 12 NOON.", "nsi_id": "unitedstatespostalservice-a77078", "operator": "United States Postal Service", "operator:short": "USPS", "operator:type": "public", "operator:wikidata": "Q668687", "ref": "3352400005"}, "type": "Feature"}
{"geometry": {"coordinates": [-82.2014059, 28.348969], "type": "Point"}, "id": "qpelVMWd__PZrSH7qrWeQKtF0JQ=", "properties": {"@spider": "usps_collection_boxes", "addr:city": "DADE CITY", "addr:country": "US", "addr:full": "13100 FORT KING RD", "addr:postcode": "33525", "addr:state": "FL", "amenity": "post_box", "brand": "United States Postal Service", "brand:wikidata": "Q668687", "collection_times": "Mo-Sa 14:00", "name": "USPS COLLECTION BOX - BLUE BOX", "note": "ON 12/24 AND 12/31, THIS BOX MAY BE COLLECTED AS EARLY AS 12 NOON.", "nsi_id": "unitedstatespostalservice-a77078", "operator": "United States Postal Service", "operator:short": "USPS", "operator:type": "public", "operator:wikidata": "Q668687", "ref": "3352500007"}, "type": "Feature"}
{"geometry": {"coordinates": [-82.188323, 28.362953], "type": "Point"}, "id": "a3q9H08eeUT6SffI6yu8QCdeSh8=", "properties": {"@spider": "usps_collection_boxes", "addr:city": "DADE CITY", "addr:country": "US", "addr:full": "37926 CHURCH AVE", "addr:postcode": "33525", "addr:state": "FL", "amenity": "post_box", "brand": "United States Postal Service", "brand:wikidata": "Q668687", "collection_times": "Mo-Sa 17:00", "name": "USPS COLLECTION BOX - BLUE BOX", "note": "ON 12/24 AND 12/31, THIS BOX MAY BE COLLECTED AS EARLY AS 12 NOON.", "nsi_id": "unitedstatespostalservice-a77078", "operator": "United States Postal Service", "operator:short": "USPS", "operator:type": "public", "operator:wikidata": "Q668687", "ref": "3352500011"}, "type": "Feature"}
{"geometry": {"coordinates": [-82.188221, 28.362981], "type": "Point"}, "id": "e4bnEt9ZHeae8MseuPhDLHx4gAg=", "properties": {"@spider": "usps_collection_boxes", "addr:city": "DADE CITY", "addr:country": "US", "addr:full": "37926 CHURCH AVE", "addr:postcode": "33525", "addr:state": "FL", "amenity": "post_box", "brand": "United States Postal Service", "brand:wikidata": "Q668687", "collection_times": "Mo-Sa 17:00", "name": "USPS COLLECTION BOX - BLUE BOX", "note": "ON 12/24 AND 12/31, THIS BOX MAY BE COLLECTED AS EARLY AS 12 NOON.", "nsi_id": "unitedstatespostalservice-a77078", "operator": "United States Postal Service", "operator:short": "USPS", "operator:type": "public", "operator:wikidata": "Q668687", "ref": "3352500012"}, "type": "Feature"}
{"geometry": {"coordinates": [-82.1861105, 28.365659], "type": "Point"}, "id": "x4xjdIYPD8a_1cbKryOZgObPNIE=", "properties": {"@spider": "usps_collection_boxes", "addr:city": "DADE CITY", "addr:country": "US", "addr:full": "38053 LIVE OAK AVE", "addr:postcode": "33525", "addr:state": "FL", "amenity": "post_box", "brand": "United States Postal Service", "brand:wikidata": "Q668687", "collection_times": "Mo-Fr 15:30", "name": "USPS COLLECTION BOX - BLUE BOX", "note": "ON 12/24 AND 12/31, THIS BOX MAY BE COLLECTED AS EARLY AS 12 NOON.", "nsi_id": "unitedstatespostalservice-a77078", "operator": "United States Postal Service", "operator:short": "USPS", "operator:type": "public", "operator:wikidata": "Q668687", "ref": "3352500026"}, "type": "Feature"}
{"geometry": {"coordinates": [-82.1874309, 28.365675], "type": "Point"}, "id": "A-D6g5pZUs1XaRvVl9gRUgBPX6o=", "properties": {"@spider": "usps_collection_boxes", "addr:city": "DADE CITY", "addr:country": "US", "addr:full": "14234 6TH ST", "addr:postcode": "33525", "addr:state": "FL", "amenity": "post_box", "brand": "United States Postal Service", "brand:wikidata": "Q668687", "collection_times": "Mo-Fr 15:30", "name": "USPS COLLECTION BOX - BLUE BOX", "note": "ON 12/24 AND 12/31, THIS BOX MAY BE COLLECTED AS EARLY AS 12 NOON.", "nsi_id": "unitedstatespostalservice-a77078", "operator": "United States Postal Service", "operator:short": "USPS", "operator:type": "public", "operator:wikidata": "Q668687", "ref": "3352500027"}, "type": "Feature"}
{"geometry": {"coordinates": [-82.1874279, 28.365674], "type": "Point"}, "id": "FV7nLPPSabc-zTs3w4q_Eb9tKYY=", "properties": {"@spider": "usps_collection_boxes", "addr:city": "DADE CITY", "addr:country": "US", "addr:full": "14234 6TH ST", "addr:postcode": "33525", "addr:state": "FL", "amenity": "post_box", "brand": "United States Postal Service", "brand:wikidata": "Q668687", "collection_times": "Mo-Fr 15:30", "name": "USPS COLLECTION BOX - BLUE BOX", "note": "ON 12/24 AND 12/31, THIS BOX MAY BE COLLECTED AS EARLY AS 12 NOON.", "nsi_id": "unitedstatespostalservice-a77078", "operator": "United States Postal Service", "operator:short": "USPS", "operator:type": "public", "operator:wikidata": "Q668687", "ref": "3352500028"}, "type": "Feature"}
{"geometry": {"coordinates": [-82.188419679, 28.362946488], "type": "Point"}, "id": "SY-RgVXNFbRBpPGNCF4Hg3fXR4Q=", "properties": {"@spider": "usps_collection_boxes", "addr:city": "DADE CITY", "addr:country": "US", "addr:full": "37926 CHURCH AVE", "addr:postcode": "33525", "addr:state": "FL", "amenity": "post_box", "brand": "United States Postal Service", "brand:wikidata": "Q668687", "collection_times": "Mo-Fr 17:00; Sa 12:30", "name": "USPS COLLECTION BOX - PO LOBBY", "note": "ON 12/24 AND 12/31, THIS BOX MAY BE COLLECTED AS EARLY AS 12 NOON.", "nsi_id": "unitedstatespostalservice-a77078", "operator": "United States Postal Service", "operator:short": "USPS", "operator:type": "public", "operator:wikidata": "Q668687", "ref": "3352500030"}, "type": "Feature"}
{"geometry": {"coordinates": [-82.219960209, 27.994216859], "type": "Point"}, "id": "6Kww-NV-IFEN5NQdB_okxRpN5g0=", "properties": {"@spider": "usps_collection_boxes", "addr:city": "DOVER", "addr:country": "US", "addr:full": "14170 DR MARTIN LUTHER KING JR BLVD", "addr:postcode": "33527", "addr:state": "FL", "amenity": "post_box", "brand": "United States Postal Service", "brand:wikidata": "Q668687", "collection_times": "Mo-Fr 16:30", "name": "USPS COLLECTION BOX - PO LOBBY", "note": "ON 12/24 AND 12/31, THIS BOX MAY BE COLLECTED AS EARLY AS 12 NOON.", "nsi_id": "unitedstatespostalservice-a77078", "operator": "United States Postal Service", "operator:short": "USPS", "operator:type": "public", "operator:wikidata": "Q668687", "ref": "3352700003"}, "type": "Feature"}
{"geometry": {"coordinates": [-82.170429377, 27.905022168], "type": "Point"}, "id": "ECLbVwv47rvvjJPH-2z-eMBt2PE=", "properties": {"@spider": "usps_collection_boxes", "addr:city": "DURANT", "addr:country": "US", "addr:full": "7202 TURKEY CREEK RD", "addr:postcode": "33530", "addr:state": "FL", "amenity": "post_box", "brand": "United States Postal Service", "brand:wikidata": "Q668687", "collection_times": "Mo-Fr 16:00; Sa 09:00", "name": "USPS COLLECTION BOX - BLUE BOX", "note": "ON 12/24 AND 12/31, THIS BOX MAY BE COLLECTED AS EARLY AS 12 NOON.", "nsi_id": "unitedstatespostalservice-a77078", "operator": "United States Postal Service", "operator:short": "USPS", "operator:type": "public", "operator:wikidata": "Q668687", "ref": "3353000001"}, "type": "Feature"}
{"geometry": {"coordinates": [-82.170429377, 27.905022168], "type": "Point"}, "id": "xhR82p8JBYjdHNCiHvNjb7iEaEI=", "properties": {"@spider": "usps_collection_boxes", "addr:city": "DURANT", "addr:country": "US", "addr:full": "7202 TURKEY CREEK RD", "addr:postcode": "33530", "addr:state": "FL", "amenity": "post_box", "brand": "United States Postal Service", "brand:wikidata": "Q668687", "collection_times": "Mo-Fr 16:30", "name": "USPS COLLECTION BOX - PO LOBBY", "note": "ON 12/24 AND 12/31, THIS BOX MAY BE COLLECTED AS EARLY AS 12 NOON.", "nsi_id": "unitedstatespostalservice-a77078", "operator": "United States Postal Service", "operator:short": "USPS", "operator:type": "public", "operator:wikidata": "Q668687", "ref": "3353000004"}, "type": "Feature"}
{"geometry": {"coordinates": [-82.38158, 27.840123], "type": "Point"}, "id": "TS5pocmpJfWKR1_Ugsy3nRAwykk=", "properties": {"@spider": "usps_collection_boxes", "addr:city": "GIBSONTON", "addr:country": "US", "addr:full": "11126 S US HIGHWAY 41", "addr:postcode": "33534", "addr:state": "FL", "amenity": "post_box", "brand": "United States Postal Service", "brand:wikidata": "Q668687", "collection_times": "Mo-Fr 16:30; Sa 09:45", "name": "USPS COLLECTION BOX - BLUE BOX", "note": "ON 12/24 AND 12/31, THIS BOX MAY BE COLLECTED AS EARLY AS 12 NOON.", "nsi_id": "unitedstatespostalservice-a77078", "operator": "United States Postal Service", "operator:short": "USPS", "operator:type": "public", "operator:wikidata": "Q668687", "ref": "3353400004"}, "type": "Feature"}
{"geometry": {"coordinates": [-82.381558364, 27.840082721], "type": "Point"}, "id": "dfRbvvRiMKJBAPqhCe0KTBJ72D4=", "properties": {"@spider": "usps_collection_boxes", "addr:city": "GIBSONTON", "addr:country": "US", "addr:full": "11126 S US HIGHWAY 41", "addr:postcode": "33534", "addr:state": "FL", "amenity": "post_box", "brand": "United States Postal Service", "brand:wikidata": "Q668687", "collection_times": "Mo-Fr 16:30", "name": "USPS COLLECTION BOX - PO LOBBY", "note": "ON 12/24 AND 12/31, THIS BOX MAY BE COLLECTED AS EARLY AS 12 NOON.", "nsi_id": "unitedstatespostalservice-a77078", "operator": "United States Postal Service", "operator:short": "USPS", "operator:type": "public", "operator:wikidata": "Q668687", "ref": "3353400007"}, "type": "Feature"}
{"geometry": {"coordinates": [-82.172091, 28.46625], "type": "Point"}, "id": "BsItnE0tIErg5p2r1eWvoi85BXA=", "properties": {"@spider": "usps_collection_boxes", "addr:city": "LACOOCHEE", "addr:country": "US", "addr:full": "38915 HWY 575", "addr:postcode": "33537", "addr:state": "FL", "amenity": "post_box", "brand": "United States Postal Service", "brand:wikidata": "Q668687", "collection_times": "Mo-Fr 15:30; Sa 08:30", "name": "USPS COLLECTION BOX - BLUE BOX", "note": "ON 12/24 AND 12/31, THIS BOX MAY BE COLLECTED AS EARLY AS 12 NOON.", "nsi_id": "unitedstatespostalservice-a77078", "operator": "United States Postal Service", "operator:short": "USPS", "operator:type": "public", "operator:wikidata": "Q668687", "ref": "3353700001"}, "type": "Feature"}
{"geometry": {"coordinates": [-82.127596905, 28.786959892], "type": "Point"}, "id": "jF-p1CtGfzu3Ral0fIXv_2rj_s4=", "properties": {"@spider": "usps_collection_boxes", "addr:city": "LK PANASOFFKE", "addr:country": "US", "addr:full": "1397 CR 437", "addr:postcode": "33538", "addr:state": "FL", "amenity": "post_box", "brand": "United States Postal Service", "brand:wikidata": "Q668687", "collection_times": "Mo-Fr 16:00; Sa 10:00", "name": "USPS COLLECTION BOX - BLUE BOX", "note": "ON 12/24 AND 12/31, THIS BOX MAY BE COLLECTED AS EARLY AS 12 NOON.", "nsi_id": "unitedstatespostalservice-a77078", "operator": "United States Postal Service", "operator:short": "USPS", "operator:type": "public", "operator:wikidata": "Q668687", "ref": "3353800001"}, "type": "Feature"}
{"geometry": {"coordinates": [-82.127596905, 28.786959892], "type": "Point"}, "id": "oll_791hfe6fq-wJjJc1N44ol8w=", "properties": {"@spider": "usps_collection_boxes", "addr:city": "LK PANASOFFKE", "addr:country": "US", "addr:full": "1397 CR 437", "addr:postcode": "33538", "addr:state": "FL", "amenity": "post_box", "brand": "United States Postal Service", "brand:wikidata": "Q668687", "collection_times": "Mo-Fr 16:00", "name": "USPS COLLECTION BOX - PO LOBBY", "note": "ON 12/24 AND 12/31, THIS BOX MAY BE COLLECTED AS EARLY AS 12 NOON.", "nsi_id": "unitedstatespostalservice-a77078", "operator": "United States Postal Service", "operator:short": "USPS", "operator:type": "public", "operator:wikidata": "Q668687", "ref": "3353800004"}, "type": "Feature"}
{"geometry": {"coordinates": [-82.18647329, 28.245540573], "type": "Point"}, "id": "4hux1fCeoJyyqqR8gQ22wyiofPE=", "properties": {"@spider": "usps_collection_boxes", "addr:city": "ZEPHYRHILLS", "addr:country": "US", "addr:full": "38032 POSTAL DR", "addr:postcode": "33540", "addr:state": "FL", "amenity": "post_box", "brand": "United States Postal Service", "brand:wikidata": "Q668687", "collection_times": "Mo-Fr 17:00; Sa 15:00", "name": "USPS COLLECTION BOX - BLUE BOX", "note": "ON 12/24 AND 12/31, THIS BOX MAY BE COLLECTED AS EARLY AS 12 NOON.", "nsi_id": "unitedstatespostalservice-a77078", "operator": "United States Postal Service", "operator:short": "USPS", "operator:type": "public", "operator:wikidata": "Q668687", "ref": "3354000028"}, "type": "Feature"}
{"geometry": {"coordinates": [-82.18647329, 28.245540573], "type": "Point"}, "id": "sGxye2WrYTblkeKD69TMtXiFe3A=", "properties": {"@spider": "usps_collection_boxes", "addr:city": "ZEPHYRHILLS", "addr:country": "US", "addr:full": "38032 POSTAL DR", "addr:postcode": "33540", "addr:state": "FL", "amenity": "post_box", "brand": "United States Postal Service", "brand:wikidata": "Q668687", "collection_times": "Mo-Fr 17:00; Sa 15:00", "name": "USPS COLLECTION BOX - PO LOBBY", "note": "ON 12/24 AND 12/31, THIS BOX MAY BE COLLECTED AS EARLY AS 12 NOON.", "nsi_id": "unitedstatespostalservice-a77078", "operator": "United States Postal Service", "operator:short": "USPS", "operator:type": "public", "operator:wikidata": "Q668687", "ref": "3354000052"}, "type": "Feature"}
{"geometry": {"coordinates": [-82.18647329, 28.245540573], "type": "Point"}, "id": "J1NmTtU-sH37DAo1oBXLdna-rWc=", "properties": {"@spider": "usps_collection_boxes", "addr:city": "ZEPHYRHILLS", "addr:country": "US", "addr:full": "38032 POSTAL DR", "addr:postcode": "33540", "addr:state": "FL", "amenity": "post_box", "brand": "United States Postal Service", "brand:wikidata": "Q668687", "collection_times": "Mo-Fr 17:00; Sa 15:00", "name": "USPS COLLECTION BOX - APC", "note": "ON 12/24 AND 12/31, THIS BOX MAY BE COLLECTED AS EARLY AS 12 NOON.", "nsi_id": "unitedstatespostalservice-a77078", "operator": "United States Postal Service", "operator:short": "USPS", "operator:type": "public", "operator:wikidata": "Q668687", "ref": "3354000054"}, "type": "Feature"}
{"geometry": {"coordinates": [-82.18647329, 28.245540573], "type": "Point"}, "id": "qk7i_rPfxx7nzSzxl_eZV_W2PJA=", "properties": {"@spider": "usps_collection_boxes", "addr:city": "ZEPHYRHILLS", "addr:country": "US", "addr:full": "38032 POSTAL DR", "addr:postcode": "33542", "addr:state": "FL", "amenity": "post_box", "brand": "United States Postal Service", "brand:wikidata": "Q668687", "collection_times": "Mo-Fr 17:00; Sa 12:00", "name": "USPS COLLECTION BOX - PO LOBBY", "note": "ON 12/24 AND 12/31, THIS BOX MAY BE COLLECTED AS EARLY AS 12 NOON.", "nsi_id": "unitedstatespostalservice-a77078", "operator": "United States Postal Service", "operator:short": "USPS", "operator:type": "public", "operator:wikidata": "Q668687", "ref": "3354200010"}, "type": "Feature"}
{"geometry": {"coordinates": [-82.1498129475, 27.8502674427], "type": "Point"}, "id": "50PgF1lJ-YR_diyj1IXR5a7Fb4s=", "properties": {"@spider": "usps_collection_boxes", "addr:city": "LITHIA", "addr:country": "US", "addr:full": "7825 LITHIA PINECREST RD", "addr:postcode": "33547", "addr:state": "FL", "amenity": "post_box", "brand": "United States Postal Service", "brand:wikidata": "Q668687", "collection_times": "Mo-Fr 16:00; Sa 12:00", "name": "USPS COLLECTION BOX - BLUE BOX", "note": "ON 12/24 AND 12/31, THIS BOX MAY BE COLLECTED AS EARLY AS 12 NOON.", "nsi_id": "unitedstatespostalservice-a77078", "operator": "United States Postal Service", "operator:short": "USPS", "operator:type": "public", "operator:wikidata": "Q668687", "ref": "3354700001"}, "type": "Feature"}
{"geometry": {"coordinates": [-82.149812948, 27.850267443], "type": "Point"}, "id": "DUdJWR0jIwEPUn6KRl5JjXIdtOM=", "properties": {"@spider": "usps_collection_boxes", "addr:city": "LITHIA", "addr:country": "US", "addr:full": "7825 LITHIA PINECREST RD", "addr:postcode": "33547", "addr:state": "FL", "amenity": "post_box", "brand": "United States Postal Service", "brand:wikidata": "Q668687", "collection_times": "Mo-Fr 16:30; Sa 12:00", "name": "USPS COLLECTION BOX - PO LOBBY", "note": "ON 12/24 AND 12/31, THIS BOX MAY BE COLLECTED AS EARLY AS 12 NOON.", "nsi_id": "unitedstatespostalservice-a77078", "operator": "United States Postal Service", "operator:short": "USPS", "operator:type": "public", "operator:wikidata": "Q668687", "ref": "3354700005"}, "type": "Feature"}
{"geometry": {"coordinates": [-82.5424366, 28.135742], "type": "Point"}, "id": "wCYy-qB8NdfRKVZy_UVBv5RvxLI=", "properties": {"@spider": "usps_collection_boxes", "addr:city": "LUTZ", "addr:country": "US", "addr:full": "17815 JAMESTOWN WAY", "addr:postcode": "33549", "addr:state": "FL", "amenity": "post_box", "brand": "United States Postal Service", "brand:wikidata": "Q668687", "collection_times": "Mo-Sa 12:00", "name": "USPS COLLECTION BOX - BLUE BOX", "nsi_id": "unitedstatespostalservice-a77078", "operator": "United States Postal Service", "operator:short": "USPS", "operator:type": "public", "operator:wikidata": "Q668687", "ref": "3354900002"}, "type": "Feature"}
{"geometry": {"coordinates": [-82.462381, 28.142104], "type": "Point"}, "id": "aCsZgUYE2yj7OZIOECerukc2GMs=", "properties": {"@spider": "usps_collection_boxes", "addr:city": "LUTZ", "addr:country": "US", "addr:full": "18489 N US HIGHWAY 41", "addr:postcode": "33549", "addr:state": "FL", "amenity": "post_box", "brand": "United States Postal Service", "brand:wikidata": "Q668687", "collection_times": "Mo-Sa 17:00", "name": "USPS COLLECTION BOX - BLUE BOX", "note": "ON 12/24 AND 12/31, THIS BOX MAY BE COLLECTED AS EARLY AS 12 NOON.", "nsi_id": "unitedstatespostalservice-a77078", "operator": "United States Postal Service", "operator:short": "USPS", "operator:type": "public", "operator:wikidata": "Q668687", "ref": "3354900004"}, "type": "Feature"}
{"geometry": {"coordinates": [-82.4350182, 28.185358], "type": "Point"}, "id": "4_pieGQe2xmvU3W0OAE5IZLWWrs=", "properties": {"@spider": "usps_collection_boxes", "addr:city": "LUTZ", "addr:country": "US", "addr:full": "23108 STATE ROAD 54", "addr:postcode": "33549", "addr:state": "FL", "amenity": "post_box", "brand": "United States Postal Service", "brand:wikidata": "Q668687", "collection_times": "Mo-Sa 11:00", "name": "USPS COLLECTION BOX - BLUE BOX", "nsi_id": "unitedstatespostalservice-a77078", "operator": "United States Postal Service", "operator:short": "USPS", "operator:type": "public", "operator:wikidata": "Q668687", "ref": "3354900008"}, "type": "Feature"}
{"geometry": {"coordinates": [-82.462405, 28.142159], "type": "Point"}, "id": "r9NE7ge_MS9v5PzLskUMrxkq5ls=", "properties": {"@spider": "usps_collection_boxes", "addr:city": "LUTZ", "addr:country": "US", "addr:full": "18489 N US HIGHWAY 41", "addr:postcode": "33549", "addr:state": "FL", "amenity": "post_box", "brand": "United States Postal Service", "brand:wikidata": "Q668687", "collection_times": "Mo-Sa 17:00", "name": "USPS COLLECTION BOX - APC", "note": "ON 12/24 AND 12/31, THIS BOX MAY BE COLLECTED AS EARLY AS 12 NOON.", "nsi_id": "unitedstatespostalservice-a77078", "operator": "United States Postal Service", "operator:short": "USPS", "operator:type": "public", "operator:wikidata": "Q668687", "ref": "3354900014"}, "type": "Feature"}
{"geometry": {"coordinates": [-82.4623544491, 28.142109337], "type": "Point"}, "id": "Z1ld_KO5RUFsx118KIOhz0qBlQc=", "properties": {"@spider": "usps_collection_boxes", "addr:city": "LUTZ", "addr:country": "US", "addr:full": "18489 N US HIGHWAY 41", "addr:postcode": "33549", "addr:state": "FL", "amenity": "post_box", "brand": "United States Postal Service", "brand:wikidata": "Q668687", "collection_times": "Mo-Fr 18:00; Sa 14:00", "name": "USPS COLLECTION BOX - PO LOBBY", "note": "ON 12/24 AND 12/31, THIS BOX MAY BE COLLECTED AS EARLY AS 12 NOON.", "nsi_id": "unitedstatespostalservice-a77078", "operator": "United States Postal Service", "operator:short": "USPS", "operator:type": "public", "operator:wikidata": "Q668687", "ref": "3354900020"}, "type": "Feature"}
{"geometry": {"coordinates": [-82.305949, 27.981477], "type": "Point"}, "id": "IzeJg6yUr-wO8caLwAuA9EHGcR4=", "properties": {"@spider": "usps_collection_boxes", "addr:city": "MANGO", "addr:country": "US", "addr:full": "11507 MLK BLVD", "addr:postcode": "33550", "addr:state": "FL", "amenity": "post_box", "brand": "United States Postal Service", "brand:wikidata": "Q668687", "collection_times": "Mo-Fr 16:00; Sa 09:00", "name": "USPS COLLECTION BOX - BLUE BOX", "note": "ON 12/24 AND 12/31, THIS BOX MAY BE COLLECTED AS EARLY AS 12 NOON.", "nsi_id": "unitedstatespostalservice-a77078", "operator": "United States Postal Service", "operator:short": "USPS", "operator:type": "public", "operator:wikidata": "Q668687", "ref": "3355000001"}, "type": "Feature"}
{"geometry": {"coordinates": [-82.305987905, 27.98143024], "type": "Point"}, "id": "775jpMK66JpHzu9VUz0cV9QxvO8=", "properties": {"@spider": "usps_collection_boxes", "addr:city": "MANGO", "addr:country": "US", "addr:full": "11507 DR MARTIN LUTHER KING JR BLVD", "addr:postcode": "33550", "addr:state": "FL", "amenity": "post_box", "brand": "United States Postal Service", "brand:wikidata": "Q668687", "collection_times": "Mo-Fr 16:00", "name": "USPS COLLECTION BOX - PO LOBBY", "note": "ON 12/24 AND 12/31, THIS BOX MAY BE COLLECTED AS EARLY AS 12 NOON.", "nsi_id": "unitedstatespostalservice-a77078", "operator": "United States Postal Service", "operator:short": "USPS", "operator:type": "public", "operator:wikidata": "Q668687", "ref": "3355000005"}, "type": "Feature"}
{"geometry": {"coordinates": [-82.5955560257, 28.1746989992], "type": "Point"}, "id": "13vPM_H4WEggD67qLpEqYhcl0Kc=", "properties": {"@spider": "usps_collection_boxes", "addr:city": "ODESSA", "addr:country": "US", "addr:full": "13266 BYRD DR STE 100", "addr:postcode": "33556", "addr:state": "FL", "amenity": "post_box", "brand": "United States Postal Service", "brand:wikidata": "Q668687", "collection_times": "Mo-Fr 16:30; Sa 12:00", "name": "USPS COLLECTION BOX - BLUE BOX", "note": "ON 12/24 AND 12/31, THIS BOX MAY BE COLLECTED AS EARLY AS 12 NOON.", "nsi_id": "unitedstatespostalservice-a77078", "operator": "United States Postal Service", "operator:short": "USPS", "operator:type": "public", "operator:wikidata": "Q668687", "ref": "3355600001"}, "type": "Feature"}
{"geometry": {"coordinates": [-82.581039, 28.114252], "type": "Point"}, "id": "oP4BIFWSn-iE6CPDCdsDI-G3zhI=", "properties": {"@spider": "usps_collection_boxes", "addr:city": "ODESSA", "addr:country": "US", "addr:full": "8702 NORTH MOBLEY RD", "addr:postcode": "33556", "addr:state": "FL", "amenity": "post_box", "brand": "United States Postal Service", "brand:wikidata": "Q668687", "collection_times": "Mo-Sa 11:15", "name": "USPS COLLECTION BOX - BLUE BOX", "nsi_id": "unitedstatespostalservice-a77078", "operator": "United States Postal Service", "operator:short": "USPS", "operator:type": "public", "operator:wikidata": "Q668687", "ref": "3355600003"}, "type": "Feature"}
{"geometry": {"coordinates": [-82.5958115, 28.174985], "type": "Point"}, "id": "e-jT-yuGJLiFrlcvXa_ujoCYemw=", "properties": {"@spider": "usps_collection_boxes", "addr:city": "ODESSA", "addr:country": "US", "addr:full": "13266 BYRD DR STE 100", "addr:postcode": "33556", "addr:state": "FL", "amenity": "post_box", "brand": "United States Postal Service", "brand:wikidata": "Q668687", "collection_times": "Mo-Fr 16:30; Sa 12:00", "name": "USPS COLLECTION BOX - PO LOBBY", "note": "ON 12/24 AND 12/31, THIS BOX MAY BE COLLECTED AS EARLY AS 12 NOON.", "nsi_id": "unitedstatespostalservice-a77078", "operator": "United States Postal Service", "operator:short": "USPS", "operator:type": "public", "operator:wikidata": "Q668687", "ref": "3355600005"}, "type": "Feature"}
{"geometry": {"coordinates": [-82.596340507, 28.17478138], "type": "Point"}, "id": "q3HMaUneIoaLODXdXzLB1p9rsFA=", "properties": {"@spider": "usps_collection_boxes", "addr:city": "ODESSA", "addr:country": "US", "addr:full": "13266 BYRD DR STE 100", "addr:postcode": "33556", "addr:state": "FL", "amenity": "post_box", "brand": "United States Postal Service", "brand:wikidata": "Q668687", "collection_times": "Mo-Fr 16:30; Sa 12:00", "name": "USPS COLLECTION BOX - PO LOBBY", "note": "ON 12/24 AND 12/31, THIS BOX MAY BE COLLECTED AS EARLY AS 12 NOON.", "nsi_id": "unitedstatespostalservice-a77078", "operator": "United States Postal Service", "operator:short": "USPS", "operator:type": "public", "operator:wikidata": "Q668687", "ref": "3355600007"}, "type": "Feature"}
{"geometry": {"coordinates": [-82.1166959, 28.051591], "type": "Point"}, "id": "Qxe8fABQuvug5JLUIZcA0UvB3sU=", "properties": {"@spider": "usps_collection_boxes", "addr:city": "PLANT CITY", "addr:country": "US", "addr:full": "750 COUNTRY MEADOWS BLVD", "addr:postcode": "33565", "addr:state": "FL", "amenity": "post_box", "brand": "United States Postal Service", "brand:wikidata": "Q668687", "collection_times": "Mo-Sa 13:00", "name": "USPS COLLECTION BOX - BLUE BOX", "note": "ON 12/24 AND 12/31, THIS BOX MAY BE COLLECTED AS EARLY AS 12 NOON.", "nsi_id": "unitedstatespostalservice-a77078", "operator": "United States Postal Service", "operator:short": "USPS", "operator:type": "public", "operator:wikidata": "Q668687", "ref": "3356500001"}, "type": "Feature"}
{"geometry": {"coordinates": [-82.1249219, 28.016135], "type": "Point"}, "id": "hiPpSj3o1m9l3Ro_B261VOefrzE=", "properties": {"@spider": "usps_collection_boxes", "addr:city": "PLANT CITY", "addr:country": "US", "addr:full": "202 W REYNOLDS ST", "addr:postcode": "33566", "addr:state": "FL", "amenity": "post_box", "brand": "United States Postal Service", "brand:wikidata": "Q668687", "collection_times": "Mo-Fr 15:30; Sa 12:00", "name": "USPS COLLECTION BOX - BLUE BOX", "note": "ON 12/24 AND 12/31, THIS BOX MAY BE COLLECTED AS EARLY AS 12 NOON.", "nsi_id": "unitedstatespostalservice-a77078", "operator": "United States Postal Service", "operator:short": "USPS", "operator:type": "public", "operator:wikidata": "Q668687", "ref": "3356600010"}, "type": "Feature"}
{"geometry": {"coordinates": [-82.115829, 27.987743], "type": "Point"}, "id": "mJ2HWvARKsT9S5r01yhXA0stpZo=", "properties": {"@spider": "usps_collection_boxes", "addr:city": "PLANT CITY", "addr:country": "US", "addr:full": "2501 WALDEN WOODS DR", "addr:postcode": "33566", "addr:state": "FL", "amenity": "post_box", "brand": "United States Postal Service", "brand:wikidata": "Q668687", "collection_times": "Mo-Sa 17:00", "name": "USPS COLLECTION BOX - APC", "note": "ON 12/24 AND 12/31, THIS BOX MAY BE COLLECTED AS EARLY AS 12 NOON.", "nsi_id": "unitedstatespostalservice-a77078", "operator": "United States Postal Service", "operator:short": "USPS", "operator:type": "public", "operator:wikidata": "Q668687", "ref": "3356600026"}, "type": "Feature"}
{"geometry": {"coordinates": [-82.115829, 27.987743], "type": "Point"}, "id": "FacWRTnnggOMz9fjUHGCdw2wyhw=", "properties": {"@spider": "usps_collection_boxes", "addr:city": "PLANT CITY", "addr:country": "US", "addr:full": "2501 WALDEN WOODS DR", "addr:postcode": "33566", "addr:state": "FL", "amenity": "post_box", "brand": "United States Postal Service", "brand:wikidata": "Q668687", "collection_times": "Mo-Sa 17:00", "name": "USPS COLLECTION BOX - BLUE BOX", "note": "ON 12/24 AND 12/31, THIS BOX MAY BE COLLECTED AS EARLY AS 12 NOON.", "nsi_id": "unitedstatespostalservice-a77078", "operator": "United States Postal Service", "operator:short": "USPS", "operator:type": "public", "operator:wikidata": "Q668687", "ref": "3356600031"}, "type": "Feature"}
{"geometry": {"coordinates": [-82.1391699, 27.996635], "type": "Point"}, "id": "LX-B2_g6VF9dTgmz2-aZP2FosSw=", "properties": {"@spider": "usps_collection_boxes", "addr:city": "PLANT CITY", "addr:country": "US", "addr:full": "1601 W TIMBERLANE DR", "addr:postcode": "33566", "addr:state": "FL", "amenity": "post_box", "brand": "United States Postal Service", "brand:wikidata": "Q668687", "collection_times": "Mo-Fr 14:00; Sa 13:00", "name": "USPS COLLECTION BOX - BLUE BOX", "note": "ON 12/24 AND 12/31, THIS BOX MAY BE COLLECTED AS EARLY AS 12 NOON.", "nsi_id": "unitedstatespostalservice-a77078", "operator": "United States Postal Service", "operator:short": "USPS", "operator:type": "public", "operator:wikidata": "Q668687", "ref": "3356600032"}, "type": "Feature"}
{"geometry": {"coordinates": [-82.115855135, 27.987047832], "type": "Point"}, "id": "cr_g9zPiZ3yR38lzeVaYHCGNBMI=", "properties": {"@spider": "usps_collection_boxes", "addr:city": "PLANT CITY", "addr:country": "US", "addr:full": "2501 WALDEN WOODS DR", "addr:postcode": "33566", "addr:state": "FL", "amenity": "post_box", "brand": "United States Postal Service", "brand:wikidata": "Q668687", "collection_times": "Mo-Fr 16:30; Sa 12:00", "name": "USPS COLLECTION BOX - PO LOBBY", "note": "ON 12/24 AND 12/31, THIS BOX MAY BE COLLECTED AS EARLY AS 12 NOON.", "nsi_id": "unitedstatespostalservice-a77078", "operator": "United States Postal Service", "operator:short": "USPS", "operator:type": "public", "operator:wikidata": "Q668687", "ref": "3356600033"}, "type": "Feature"}
{"geometry": {"coordinates": [-82.3233015, 27.8572314722], "type": "Point"}, "id": "GD7Kputx1cBnAtfh0nQtCREKv7Q=", "properties": {"@spider": "usps_collection_boxes", "addr:city": "RIVERVIEW", "addr:country": "US", "addr:full": "10810 BOYETTE RD", "addr:postcode": "33569", "addr:state": "FL", "amenity": "post_box", "brand": "United States Postal Service", "brand:wikidata": "Q668687", "collection_times": "Mo-Fr 16:30; Sa 15:00", "name": "USPS COLLECTION BOX - BLUE BOX", "note": "ON 12/24 AND 12/31, THIS BOX MAY BE COLLECTED AS EARLY AS 12 NOON.", "nsi_id": "unitedstatespostalservice-a77078", "operator": "United States Postal Service", "operator:short": "USPS", "operator:type": "public", "operator:wikidata": "Q668687", "ref": "3356900004"}, "type": "Feature"}
{"geometry": {"coordinates": [-82.3280192, 27.880435], "type": "Point"}, "id": "MChAotcTYk6Q5JRtL7NGqS541jA=", "properties": {"@spider": "usps_collection_boxes", "addr:city": "RIVERVIEW", "addr:country": "US", "addr:full": "6929 US HIGHWAY 301 S", "addr:postcode": "33569", "addr:state": "FL", "amenity": "post_box", "brand": "United States Postal Service", "brand:wikidata": "Q668687", "collection_times": "Mo-Fr 13:00; Sa 12:00", "name": "USPS COLLECTION BOX - BLUE BOX", "note": "ON 12/24 AND 12/31, THIS BOX MAY BE COLLECTED AS EARLY AS 12 NOON.", "nsi_id": "unitedstatespostalservice-a77078", "operator": "United States Postal Service", "operator:short": "USPS", "operator:type": "public", "operator:wikidata": "Q668687", "ref": "3356900006"}, "type": "Feature"}
{"geometry": {"coordinates": [-82.325099, 27.857202], "type": "Point"}, "id": "617EPkLuY2aceubvEhRtZk-Um8E=", "properties": {"@spider": "usps_collection_boxes", "addr:city": "RIVERVIEW", "addr:country": "US", "addr:full": "10810 BOYETTE RD", "addr:postcode": "33569", "addr:state": "FL", "amenity": "post_box", "brand": "United States Postal Service", "brand:wikidata": "Q668687", "collection_times": "Mo-Fr 16:30; Sa 15:00", "name": "USPS COLLECTION BOX - APC", "note": "ON 12/24 AND 12/31, THIS BOX MAY BE COLLECTED AS EARLY AS 12 NOON.", "nsi_id": "unitedstatespostalservice-a77078", "operator": "United States Postal Service", "operator:short": "USPS", "operator:type": "public", "operator:wikidata": "Q668687", "ref": "3356900011"}, "type": "Feature"}
{"geometry": {"coordinates": [-82.3233015, 27.857222472], "type": "Point"}, "id": "tXThkJewqrKmo_ZJSv_XWGQ_jaA=", "properties": {"@spider": "usps_collection_boxes", "addr:city": "RIVERVIEW", "addr:country": "US", "addr:full": "10810 BOYETTE RD", "addr:postcode": "33569", "addr:state": "FL", "amenity": "post_box", "brand": "United States Postal Service", "brand:wikidata": "Q668687", "collection_times": "Mo-Fr 17:00; Sa 12:00", "name": "USPS COLLECTION BOX - PO LOBBY", "note": "ON 12/24 AND 12/31, THIS BOX MAY BE COLLECTED AS EARLY AS 12 NOON.", "nsi_id": "unitedstatespostalservice-a77078", "operator": "United States Postal Service", "operator:short": "USPS", "operator:type": "public", "operator:wikidata": "Q668687", "ref": "3356900020"}, "type": "Feature"}
{"geometry": {"coordinates": [-82.4328603, 27.722749], "type": "Point"}, "id": "v3NMpBP0w3k7h8SgApgmdRmx2wg=", "properties": {"@spider": "usps_collection_boxes", "addr:city": "RUSKIN", "addr:country": "US", "addr:full": "455 N US HIGHWAY 41", "addr:postcode": "33570", "addr:state": "FL", "amenity": "post_box", "brand": "United States Postal Service", "brand:wikidata": "Q668687", "collection_times": "Mo-Fr 17:00; Sa 13:00", "name": "USPS COLLECTION BOX - BLUE BOX", "note": "ON 12/24 AND 12/31, THIS BOX MAY BE COLLECTED AS EARLY AS 12 NOON.", "nsi_id": "unitedstatespostalservice-a77078", "operator": "United States Postal Service", "operator:short": "USPS", "operator:type": "public", "operator:wikidata": "Q668687", "ref": "3357000001"}, "type": "Feature"}
{"geometry": {"coordinates": [-82.433801725, 27.722355045], "type": "Point"}, "id": "VtgeMKMXa7aBqqSAuYqVtvR0gLQ=", "properties": {"@spider": "usps_collection_boxes", "addr:city": "RUSKIN", "addr:country": "US", "addr:full": "455 N US HIGHWAY 41", "addr:postcode": "33570", "addr:state": "FL", "amenity": "post_box", "brand": "United States Postal Service", "brand:wikidata": "Q668687", "collection_times": "Mo-Fr 16:30; Sa 12:00", "name": "USPS COLLECTION BOX - PO LOBBY", "note": "ON 12/24 AND 12/31, THIS BOX MAY BE COLLECTED AS EARLY AS 12 NOON.", "nsi_id": "unitedstatespostalservice-a77078", "operator": "United States Postal Service", "operator:short": "USPS", "operator:type": "public", "operator:wikidata": "Q668687", "ref": "3357000011"}, "type": "Feature"}
{"geometry": {"coordinates": [-82.3944844, 27.77127], "type": "Point"}, "id": "I0azWbm41dUvOeGp2gb5V3ejGQE=", "properties": {"@spider": "usps_collection_boxes", "addr:city": "RUSKIN", "addr:country": "US", "addr:full": "246 APOLLO BEACH BLVD", "addr:postcode": "33572", "addr:state": "FL", "amenity": "post_box", "brand": "United States Postal Service", "brand:wikidata": "Q668687", "collection_times": "Mo-Sa 14:00", "name": "USPS COLLECTION BOX - BLUE BOX", "note": "ON 12/24 AND 12/31, THIS BOX MAY BE COLLECTED AS EARLY AS 12 NOON.", "nsi_id": "unitedstatespostalservice-a77078", "operator": "United States Postal Service", "operator:short": "USPS", "operator:type": "public", "operator:wikidata": "Q668687", "ref": "3357200001"}, "type": "Feature"}
{"geometry": {"coordinates": [-82.3966523, 27.7657], "type": "Point"}, "id": "2F-a6I8HOXWrowqZEGB-uTTupKY=", "properties": {"@spider": "usps_collection_boxes", "addr:city": "RUSKIN", "addr:country": "US", "addr:full": "219 FLAMINGO DR", "addr:postcode": "33572", "addr:state": "FL", "amenity": "post_box", "brand": "United States Postal Service", "brand:wikidata": "Q668687", "collection_times": "Mo-Sa 15:00", "name": "USPS COLLECTION BOX - BLUE BOX", "note": "ON 12/24 AND 12/31, THIS BOX MAY BE COLLECTED AS EARLY AS 12 NOON.", "nsi_id": "unitedstatespostalservice-a77078", "operator": "United States Postal Service", "operator:short": "USPS", "operator:type": "public", "operator:wikidata": "Q668687", "ref": "3357200007"}, "type": "Feature"}
{"geometry": {"coordinates": [-82.3635204, 27.706559], "type": "Point"}, "id": "Xp0JQY1EBq6MVx3DE97iPkXfwCA=", "properties": {"@spider": "usps_collection_boxes", "addr:city": "RUSKIN", "addr:country": "US", "addr:full": "301 KINGS BLVD", "addr:postcode": "33573", "addr:state": "FL", "amenity": "post_box", "brand": "United States Postal Service", "brand:wikidata": "Q668687", "collection_times": "Mo-Sa 16:00", "name": "USPS COLLECTION BOX - BLUE BOX", "note": "ON 12/24 AND 12/31, THIS BOX MAY BE COLLECTED AS EARLY AS 12 NOON.", "nsi_id": "unitedstatespostalservice-a77078", "operator": "United States Postal Service", "operator:short": "USPS", "operator:type": "public", "operator:wikidata": "Q668687", "ref": "3357300004"}, "type": "Feature"}
{"geometry": {"coordinates": [-82.355772576, 27.714072634], "type": "Point"}, "id": "pgPFRllKCQBjCmmFuLh-u98Kqc0=", "properties": {"@spider": "usps_collection_boxes", "addr:city": "RUSKIN", "addr:country": "US", "addr:full": "1645 SUN CITY CENTER PLZ", "addr:postcode": "33573", "addr:state": "FL", "amenity": "post_box", "brand": "United States Postal Service", "brand:wikidata": "Q668687", "collection_times": "Mo-Fr 17:00; Sa 15:00", "name": "USPS COLLECTION BOX - BLUE BOX", "note": "ON 12/24 AND 12/31, THIS BOX MAY BE COLLECTED AS EARLY AS 12 NOON.", "nsi_id": "unitedstatespostalservice-a77078", "operator": "United States Postal Service", "operator:short": "USPS", "operator:type": "public", "operator:wikidata": "Q668687", "ref": "3357300005"}, "type": "Feature"}
{"geometry": {"coordinates": [-82.355772576, 27.714072634], "type": "Point"}, "id": "argno4gtk7N7q1Cs9BXbvW7iYd8=", "properties": {"@spider": "usps_collection_boxes", "addr:city": "RUSKIN", "addr:country": "US", "addr:full": "1645 SUN CITY CENTER PLZ", "addr:postcode": "33573", "addr:state": "FL", "amenity": "post_box", "brand": "United States Postal Service", "brand:wikidata": "Q668687", "collection_times": "Mo-Fr 17:00; Sa 15:00", "name": "USPS COLLECTION BOX - PO LOBBY", "note": "ON 12/24 AND 12/31, THIS BOX MAY BE COLLECTED AS EARLY AS 12 NOON.", "nsi_id": "unitedstatespostalservice-a77078", "operator": "United States Postal Service", "operator:short": "USPS", "operator:type": "public", "operator:wikidata": "Q668687", "ref": "3357300009"}, "type": "Feature"}
{"geometry": {"coordinates": [-82.355772576, 27.714072634], "type": "Point"}, "id": "HdRuVhlsozYMZTho4H5R37FOvwQ=", "properties": {"@spider": "usps_collection_boxes", "addr:city": "RUSKIN", "addr:country": "US", "addr:full": "1645 SUN CITY CENTER PLZ", "addr:postcode": "33573", "addr:state": "FL", "amenity": "post_box", "brand": "United States Postal Service", "brand:wikidata": "Q668687", "collection_times": "Mo-Fr 17:00; Sa 15:00", "name": "USPS COLLECTION BOX - PO LOBBY", "note": "ON 12/24 AND 12/31, THIS BOX MAY BE COLLECTED AS EARLY AS 12 NOON.", "nsi_id": "unitedstatespostalservice-a77078", "operator": "United States Postal Service", "operator:short": "USPS", "operator:type": "public", "operator:wikidata": "Q668687", "ref": "3357300010"}, "type": "Feature"}
{"geometry": {"coordinates": [-82.355772576, 27.714072634], "type": "Point"}, "id": "NtI3AKqyKYci1sP6HlWgZcgZemE=", "properties": {"@spider": "usps_collection_boxes", "addr:city": "RUSKIN", "addr:country": "US", "addr:full": "1645 SUN CITY CENTER PLZ", "addr:postcode": "33573", "addr:state": "FL", "amenity": "post_box", "brand": "United States Postal Service", "brand:wikidata": "Q668687", "collection_times": "Mo-Fr 17:00; Sa 15:00", "name": "USPS COLLECTION BOX - APC", "note": "ON 12/24 AND 12/31, THIS BOX MAY BE COLLECTED AS EARLY AS 12 NOON.", "nsi_id": "unitedstatespostalservice-a77078", "operator": "United States Postal Service", "operator:short": "USPS", "operator:type": "public", "operator:wikidata": "Q668687", "ref": "3357300014"}, "type": "Feature"}
{"geometry": {"coordinates": [-82.355772576, 27.714072634], "type": "Point"}, "id": "4EhxRPEOkLuguOEPudP2LoACNc8=", "properties": {"@spider": "usps_collection_boxes", "addr:city": "RUSKIN", "addr:country": "US", "addr:full": "1645 SUN CITY CENTER PLZ", "addr:postcode": "33573", "addr:state": "FL", "amenity": "post_box", "brand": "United States Postal Service", "brand:wikidata": "Q668687", "collection_times": "Mo-Fr 17:00; Sa 12:00", "name": "USPS COLLECTION BOX - PO LOBBY", "note": "ON 12/24 AND 12/31, THIS BOX MAY BE COLLECTED AS EARLY AS 12 NOON.", "nsi_id": "unitedstatespostalservice-a77078", "operator": "United States Postal Service", "operator:short": "USPS", "operator:type": "public", "operator:wikidata": "Q668687", "ref": "3357300017"}, "type": "Feature"}
{"geometry": {"coordinates": [-82.257158527, 28.335709973], "type": "Point"}, "id": "lJDU4sCN80FpjoPPzjbHdNBR9MM=", "properties": {"@spider": "usps_collection_boxes", "addr:city": "ST LEO", "addr:country": "US", "addr:full": "33601 STATE ROAD 52", "addr:postcode": "33574", "addr:state": "FL", "amenity": "post_box", "brand": "United States Postal Service", "brand:wikidata": "Q668687", "collection_times": "Mo-Fr 16:00", "name": "USPS COLLECTION BOX - PO LOBBY", "note": "ON 12/24 AND 12/31, THIS BOX MAY BE COLLECTED AS EARLY AS 12 NOON.", "nsi_id": "unitedstatespostalservice-a77078", "operator": "United States Postal Service", "operator:short": "USPS", "operator:type": "public", "operator:wikidata": "Q668687", "ref": "3357400004"}, "type": "Feature"}
{"geometry": {"coordinates": [-82.273142, 28.335914], "type": "Point"}, "id": "UmmGxUG_sJPPLX5VotY-Y8fQI9c=", "properties": {"@spider": "usps_collection_boxes", "addr:city": "SAN ANTONIO", "addr:country": "US", "addr:full": "12231 MAIN ST", "addr:postcode": "33576", "addr:state": "FL", "amenity": "post_box", "brand": "United States Postal Service", "brand:wikidata": "Q668687", "collection_times": "Mo-Fr 16:00; Sa 09:00", "name": "USPS COLLECTION BOX - BLUE BOX", "note": "ON 12/24 AND 12/31, THIS BOX MAY BE COLLECTED AS EARLY AS 12 NOON.", "nsi_id": "unitedstatespostalservice-a77078", "operator": "United States Postal Service", "operator:short": "USPS", "operator:type": "public", "operator:wikidata": "Q668687", "ref": "3357600003"}, "type": "Feature"}
{"geometry": {"coordinates": [-82.272971251, 28.335915472], "type": "Point"}, "id": "73NyEIL8a_lws0qVQ7AGa5MXHrc=", "properties": {"@spider": "usps_collection_boxes", "addr:city": "SAN ANTONIO", "addr:country": "US", "addr:full": "12231 MAIN ST", "addr:postcode": "33576", "addr:state": "FL", "amenity": "post_box", "brand": "United States Postal Service", "brand:wikidata": "Q668687", "collection_times": "Mo-Fr 16:00", "name": "USPS COLLECTION BOX - PO LOBBY", "note": "ON 12/24 AND 12/31, THIS BOX MAY BE COLLECTED AS EARLY AS 12 NOON.", "nsi_id": "unitedstatespostalservice-a77078", "operator": "United States Postal Service", "operator:short": "USPS", "operator:type": "public", "operator:wikidata": "Q668687", "ref": "3357600006"}, "type": "Feature"}
{"geometry": {"coordinates": [-82.277686, 27.983808], "type": "Point"}, "id": "Lc5tGupodqVHHNQ-e7FQfnvoZE4=", "properties": {"@spider": "usps_collection_boxes", "addr:city": "SEFFNER", "addr:country": "US", "addr:full": "1431 S KINGSWAY RD", "addr:postcode": "33584", "addr:state": "FL", "amenity": "post_box", "brand": "United States Postal Service", "brand:wikidata": "Q668687", "collection_times": "Mo-Fr 16:15; Sa 14:45", "name": "USPS COLLECTION BOX - BLUE BOX", "note": "ON 12/24 AND 12/31, THIS BOX MAY BE COLLECTED AS EARLY AS 12 NOON.", "nsi_id": "unitedstatespostalservice-a77078", "operator": "United States Postal Service", "operator:short": "USPS", "operator:type": "public", "operator:wikidata": "Q668687", "ref": "3358400001"}, "type": "Feature"}
{"geometry": {"coordinates": [-82.3008388, 27.983754], "type": "Point"}, "id": "oZ6WSTXS5l0AVt0Rjdxpnsk9Vcw=", "properties": {"@spider": "usps_collection_boxes", "addr:city": "SEFFNER", "addr:country": "US", "addr:full": "11720 E DR MARTIN LUTHER KING JR BLVD", "addr:postcode": "33584", "addr:state": "FL", "amenity": "post_box", "brand": "United States Postal Service", "brand:wikidata": "Q668687", "collection_times": "Mo-Fr 10:00; Sa 09:30", "name": "USPS COLLECTION BOX - BLUE BOX", "nsi_id": "unitedstatespostalservice-a77078", "operator": "United States Postal Service", "operator:short": "USPS", "operator:type": "public", "operator:wikidata": "Q668687", "ref": "3358400005"}, "type": "Feature"}
{"geometry": {"coordinates": [-82.277703091, 27.983007], "type": "Point"}, "id": "cl-ZP5N_5B66pJvR-b499y4XnZE=", "properties": {"@spider": "usps_collection_boxes", "addr:city": "SEFFNER", "addr:country": "US", "addr:full": "1431 S KINGSWAY RD", "addr:postcode": "33584", "addr:state": "FL", "amenity": "post_box", "brand": "United States Postal Service", "brand:wikidata": "Q668687", "collection_times": "Mo-Fr 16:00; Sa 11:00", "name": "USPS COLLECTION BOX - PO LOBBY", "note": "ON 12/24 AND 12/31, THIS BOX MAY BE COLLECTED AS EARLY AS 12 NOON.", "nsi_id": "unitedstatespostalservice-a77078", "operator": "United States Postal Service", "operator:short": "USPS", "operator:type": "public", "operator:wikidata": "Q668687", "ref": "3358400014"}, "type": "Feature"}
{"geometry": {"coordinates": [-82.062172778, 28.749482016], "type": "Point"}, "id": "6MhLMan72_RtnN7hXp1_l7NiI7s=", "properties": {"@spider": "usps_collection_boxes", "addr:city": "SUMTERVILLE", "addr:country": "US", "addr:full": "445 S US 301", "addr:postcode": "33585", "addr:state": "FL", "amenity": "post_box", "brand": "United States Postal Service", "brand:wikidata": "Q668687", "collection_times": "Mo-Fr 15:00; Sa 09:15", "name": "USPS COLLECTION BOX - BLUE BOX", "note": "ON 12/24 AND 12/31, THIS BOX MAY BE COLLECTED AS EARLY AS 12 NOON.", "nsi_id": "unitedstatespostalservice-a77078", "operator": "United States Postal Service", "operator:short": "USPS", "operator:type": "public", "operator:wikidata": "Q668687", "ref": "3358500001"}, "type": "Feature"}
{"geometry": {"coordinates": [-82.062172778, 28.749482016], "type": "Point"}, "id": "DM1v_7WiJyzVze_T3lmGFcsxOZM=", "properties": {"@spider": "usps_collection_boxes", "addr:city": "SUMTERVILLE", "addr:country": "US", "addr:full": "445 S US 301", "addr:postcode": "33585", "addr:state": "FL", "amenity": "post_box", "brand": "United States Postal Service", "brand:wikidata": "Q668687", "collection_times": "Mo-Fr 16:00", "name": "USPS COLLECTION BOX - PO LOBBY", "note": "ON 12/24 AND 12/31, THIS BOX MAY BE COLLECTED AS EARLY AS 12 NOON.", "nsi_id": "unitedstatespostalservice-a77078", "operator": "United States Postal Service", "operator:short": "USPS", "operator:type": "public", "operator:wikidata": "Q668687", "ref": "3358500004"}, "type": "Feature"}
{"geometry": {"coordinates": [-82.480908205, 27.675095123], "type": "Point"}, "id": "nEX8PT2IBN5SHS7_93vYzBKHlWQ=", "properties": {"@spider": "usps_collection_boxes", "addr:city": "SUN CITY", "addr:country": "US", "addr:full": "4449 OLD HIGHWAY 41 S", "addr:postcode": "33586", "addr:state": "FL", "amenity": "post_box", "brand": "United States Postal Service", "brand:wikidata": "Q668687", "collection_times": "Mo-Fr 16:00", "name": "USPS COLLECTION BOX - PO LOBBY", "note": "ON 12/24 AND 12/31, THIS BOX MAY BE COLLECTED AS EARLY AS 12 NOON.", "nsi_id": "unitedstatespostalservice-a77078", "operator": "United States Postal Service", "operator:short": "USPS", "operator:type": "public", "operator:wikidata": "Q668687", "ref": "3358600004"}, "type": "Feature"}
{"geometry": {"coordinates": [-82.207334623, 27.966428749], "type": "Point"}, "id": "U_tzX2kCE_6EiZVPHKBGDAX9hY4=", "properties": {"@spider": "usps_collection_boxes", "addr:city": "SYDNEY", "addr:country": "US", "addr:full": "1620 SYDNEY DOVER RD", "addr:postcode": "33587", "addr:state": "FL", "amenity": "post_box", "brand": "United States Postal Service", "brand:wikidata": "Q668687", "collection_times": "Mo-Fr 16:00", "name": "USPS COLLECTION BOX - PO LOBBY", "note": "ON 12/24 AND 12/31, THIS BOX MAY BE COLLECTED AS EARLY AS 12 NOON.", "nsi_id": "unitedstatespostalservice-a77078", "operator": "United States Postal Service", "operator:short": "USPS", "operator:type": "public", "operator:wikidata": "Q668687", "ref": "3358700004"}, "type": "Feature"}
{"geometry": {"coordinates": [-82.293635, 28.058018], "type": "Point"}, "id": "RsZQo2_6FL3-vrJl5gJ2l6Rexmc=", "properties": {"@spider": "usps_collection_boxes", "addr:city": "THONOTOSASSA", "addr:country": "US", "addr:full": "10806 MAIN ST", "addr:postcode": "33592", "addr:state": "FL", "amenity": "post_box", "brand": "United States Postal Service", "brand:wikidata": "Q668687", "collection_times": "Mo-Fr 16:30; Sa 12:00", "name": "USPS COLLECTION BOX - BLUE BOX", "note": "ON 12/24 AND 12/31, THIS BOX MAY BE COLLECTED AS EARLY AS 12 NOON.", "nsi_id": "unitedstatespostalservice-a77078", "operator": "United States Postal Service", "operator:short": "USPS", "operator:type": "public", "operator:wikidata": "Q668687", "ref": "3359200001"}, "type": "Feature"}
{"geometry": {"coordinates": [-82.293534, 28.058017472], "type": "Point"}, "id": "1GqGuKnKl1RFdOoBhIBleF7MayY=", "properties": {"@spider": "usps_collection_boxes", "addr:city": "THONOTOSASSA", "addr:country": "US", "addr:full": "10806 MAIN ST", "addr:postcode": "33592", "addr:state": "FL", "amenity": "post_box", "brand": "United States Postal Service", "brand:wikidata": "Q668687", "collection_times": "Mo-Fr 16:30", "name": "USPS COLLECTION BOX - PO LOBBY", "note": "ON 12/24 AND 12/31, THIS BOX MAY BE COLLECTED AS EARLY AS 12 NOON.", "nsi_id": "unitedstatespostalservice-a77078", "operator": "United States Postal Service", "operator:short": "USPS", "operator:type": "public", "operator:wikidata": "Q668687", "ref": "3359200005"}, "type": "Feature"}
{"geometry": {"coordinates": [-82.196987, 28.462139], "type": "Point"}, "id": "BTiWAeecd3m9HlPitOzujVTgGps=", "properties": {"@spider": "usps_collection_boxes", "addr:city": "TRILBY", "addr:country": "US", "addr:full": "37451 TRILBY RD", "addr:postcode": "33593", "addr:state": "FL", "amenity": "post_box", "brand": "United States Postal Service", "brand:wikidata": "Q668687", "collection_times": "Mo-Fr 16:00; Sa 09:00", "name": "USPS COLLECTION BOX - BLUE BOX", "note": "ON 12/24 AND 12/31, THIS BOX MAY BE COLLECTED AS EARLY AS 12 NOON.", "nsi_id": "unitedstatespostalservice-a77078", "operator": "United States Postal Service", "operator:short": "USPS", "operator:type": "public", "operator:wikidata": "Q668687", "ref": "3359300001"}, "type": "Feature"}
{"geometry": {"coordinates": [-82.195747173, 28.462630479], "type": "Point"}, "id": "-qqH1IhLDbggFsTgH4AfGk3pW5A=", "properties": {"@spider": "usps_collection_boxes", "addr:city": "TRILBY", "addr:country": "US", "addr:full": "37451 TRILBY RD", "addr:postcode": "33593", "addr:state": "FL", "amenity": "post_box", "brand": "United States Postal Service", "brand:wikidata": "Q668687", "collection_times": "Mo-Fr 16:00", "name": "USPS COLLECTION BOX - PO LOBBY", "note": "ON 12/24 AND 12/31, THIS BOX MAY BE COLLECTED AS EARLY AS 12 NOON.", "nsi_id": "unitedstatespostalservice-a77078", "operator": "United States Postal Service", "operator:short": "USPS", "operator:type": "public", "operator:wikidata": "Q668687", "ref": "3359300004"}, "type": "Feature"}
{"geometry": {"coordinates": [-82.247057, 27.937991], "type": "Point"}, "id": "GNE5ZkYmNS0O9hTBEzB1uN1oFbE=", "properties": {"@spider": "usps_collection_boxes", "addr:city": "VALRICO", "addr:country": "US", "addr:full": "2406 E STATE ROAD 60", "addr:postcode": "33594", "addr:state": "FL", "amenity": "post_box", "brand": "United States Postal Service", "brand:wikidata": "Q668687", "collection_times": "Mo-Fr 17:00; Sa 15:00", "name": "USPS COLLECTION BOX - BLUE BOX", "note": "ON 12/24 AND 12/31, THIS BOX MAY BE COLLECTED AS EARLY AS 12 NOON.", "nsi_id": "unitedstatespostalservice-a77078", "operator": "United States Postal Service", "operator:short": "USPS", "operator:type": "public", "operator:wikidata": "Q668687", "ref": "3359400001"}, "type": "Feature"}
{"geometry": {"coordinates": [-82.246969, 27.937964], "type": "Point"}, "id": "zOtWBTmQ9nLWZgyg4pbk1ysY4LQ=", "properties": {"@spider": "usps_collection_boxes", "addr:city": "VALRICO", "addr:country": "US", "addr:full": "2406 E STATE ROAD 60", "addr:postcode": "33594", "addr:state": "FL", "amenity": "post_box", "brand": "United States Postal Service", "brand:wikidata": "Q668687", "collection_times": "Mo-Fr 17:00; Sa 15:00", "name": "USPS COLLECTION BOX - APC", "note": "ON 12/24 AND 12/31, THIS BOX MAY BE COLLECTED AS EARLY AS 12 NOON.", "nsi_id": "unitedstatespostalservice-a77078", "operator": "United States Postal Service", "operator:short": "USPS", "operator:type": "public", "operator:wikidata": "Q668687", "ref": "3359400007"}, "type": "Feature"}
{"geometry": {"coordinates": [-82.245142278, 27.937972524], "type": "Point"}, "id": "DoIFsCpJeEGPdJjDrik9pTXc09E=", "properties": {"@spider": "usps_collection_boxes", "addr:city": "VALRICO", "addr:country": "US", "addr:full": "2406 E STATE ROAD 60", "addr:postcode": "33594", "addr:state": "FL", "amenity": "post_box", "brand": "United States Postal Service", "brand:wikidata": "Q668687", "collection_times": "Mo-Fr 16:30; Sa 12:00", "name": "USPS COLLECTION BOX - PO LOBBY", "note": "ON 12/24 AND 12/31, THIS BOX MAY BE COLLECTED AS EARLY AS 12 NOON.", "nsi_id": "unitedstatespostalservice-a77078", "operator": "United States Postal Service", "operator:short": "USPS", "operator:type": "public", "operator:wikidata": "Q668687", "ref": "3359400011"}, "type": "Feature"}
{"geometry": {"coordinates": [-82.05335, 28.609425], "type": "Point"}, "id": "0IKev_iduwiT7Fdal08GwB-An8k=", "properties": {"@spider": "usps_collection_boxes", "addr:city": "WEBSTER", "addr:country": "US", "addr:full": "40 SE 1ST ST", "addr:postcode": "33597", "addr:state": "FL", "amenity": "post_box", "brand": "United States Postal Service", "brand:wikidata": "Q668687", "collection_times": "Mo-Fr 16:30; Sa 12:00", "name": "USPS COLLECTION BOX - BLUE BOX", "note": "ON 12/24 AND 12/31, THIS BOX MAY BE COLLECTED AS EARLY AS 12 NOON.", "nsi_id": "unitedstatespostalservice-a77078", "operator": "United States Postal Service", "operator:short": "USPS", "operator:type": "public", "operator:wikidata": "Q668687", "ref": "3359700001"}, "type": "Feature"}
{"geometry": {"coordinates": [-82.053391305, 28.609505277], "type": "Point"}, "id": "uq8jQUMqFqNjnDDw3Hwm8lFlr-s=", "properties": {"@spider": "usps_collection_boxes", "addr:city": "WEBSTER", "addr:country": "US", "addr:full": "40 SE 1ST ST", "addr:postcode": "33597", "addr:state": "FL", "amenity": "post_box", "brand": "United States Postal Service", "brand:wikidata": "Q668687", "collection_times": "Mo-Fr 16:30; Sa 12:00", "name": "USPS COLLECTION BOX - PO LOBBY", "note": "ON 12/24 AND 12/31, THIS BOX MAY BE COLLECTED AS EARLY AS 12 NOON.", "nsi_id": "unitedstatespostalservice-a77078", "operator": "United States Postal Service", "operator:short": "USPS", "operator:type": "public", "operator:wikidata": "Q668687", "ref": "3359700008"}, "type": "Feature"}
{"geometry": {"coordinates": [-82.305392055, 27.712526508], "type": "Point"}, "id": "xEyVixsrx7GueP1oecUQJbj4Jrg=", "properties": {"@spider": "usps_collection_boxes", "addr:city": "WIMAUMA", "addr:country": "US", "addr:full": "5608 STATE ROAD 674", "addr:postcode": "33598", "addr:state": "FL", "amenity": "post_box", "brand": "United States Postal Service", "brand:wikidata": "Q668687", "collection_times": "Mo-Fr 16:00", "name": "USPS COLLECTION BOX - PO LOBBY", "note": "ON 12/24 AND 12/31, THIS BOX MAY BE COLLECTED AS EARLY AS 12 NOON.", "nsi_id": "unitedstatespostalservice-a77078", "operator": "United States Postal Service", "operator:short": "USPS", "operator:type": "public", "operator:wikidata": "Q668687", "ref": "3359800004"}, "type": "Feature"}
