{"geometry": {"coordinates": [-82.457604773, 27.949199562], "type": "Point"}, "id": "vU9cQcwH_AzQcPlfYdBUR_xe64A=", "properties": {"@source_uri": "https://tools.usps.com/UspsToolsRestServices/rest/POLocator/findLocations", "@spider": "usps_collection_boxes", "addr:city": "TAMPA", "addr:country": "US", "addr:postcode": "33602", "addr:state": "FL", "addr:street_address": "509 N FLORIDA AVE", "amenity": "post_box", "collection_times": "Mo-Sa 11:00", "nsi_id": "unitedstatespostalservice-a77078", "operator": "United States Postal Service", "operator:short": "USPS", "operator:type": "public", "operator:wikidata": "Q668687", "ref": "3360200016"}, "type": "Feature"}
{"geometry": {"coordinates": [-82.45723213, 27.948748684], "type": "Point"}, "id": "XAZGRS_3pFD0HpjyPuQks04G3_8=", "properties": {"@source_uri": "https://tools.usps.com/UspsToolsRestServices/rest/POLocator/findLocations", "@spider": "usps_collection_boxes", "addr:city": "TAMPA", "addr:country": "US", "addr:postcode": "33602", "addr:state": "FL", "addr:street_address": "403 E MADISON ST", "amenity": "post_box", "collection_times": "Mo-Fr 10:00", "nsi_id": "unitedstatespostalservice-a77078", "operator": "United States Postal Service", "operator:short": "USPS", "operator:type": "public", "operator:wikidata": "Q668687", "ref": "3360200074"}, "type": "Feature"}
{"geometry": {"coordinates": [-82.4553012986, 27.9476615019], "type": "Point"}, "id": "jyl2uP4FB7H-l3ZBnOt6gm2yW98=", "properties": {"@source_uri": "https://tools.usps.com/UspsToolsRestServices/rest/POLocator/findLocations", "@spider": "usps_collection_boxes", "addr:city": "TAMPA", "addr:country": "US", "addr:postcode": "33602", "addr:state": "FL", "addr:street_address": "513 E JACKSON ST", "amenity": "post_box", "collection_times": "Mo-Sa 12:00", "nsi_id": "unitedstatespostalservice-a77078", "operator": "United States Postal Service", "operator:short": "USPS", "operator:type": "public", "operator:wikidata": "Q668687", "ref": "3360200083"}, "type": "Feature"}
{"geometry": {"coordinates": [-82.459130896, 27.9502752059], "type": "Point"}, "id": "O6fF5TS6fhCCwVvqgHkkHFw3YIk=", "properties": {"@source_uri": "https://tools.usps.com/UspsToolsRestServices/rest/POLocator/findLocations", "@spider": "usps_collection_boxes", "addr:city": "TAMPA", "addr:country": "US", "addr:postcode": "33602", "addr:state": "FL", "addr:street_address": "702 N FRANKLIN ST", "amenity": "post_box", "collection_times": "Sa 08:00", "nsi_id": "unitedstatespostalservice-a77078", "operator": "United States Postal Service", "operator:short": "USPS", "operator:type": "public", "operator:wikidata": "Q668687", "ref": "3360200092"}, "type": "Feature"}
{"geometry": {"coordinates": [-82.454802998, 27.95051132], "type": "Point"}, "id": "LYt0wHSUR9vXInR3xGGa2MxqMbc=", "properties": {"@source_uri": "https://tools.usps.com/UspsToolsRestServices/rest/POLocator/findLocations", "@spider": "usps_collection_boxes", "addr:city": "TAMPA", "addr:country": "US", "addr:postcode": "33602", "addr:state": "FL", "addr:street_address": "700 E TWIGGS ST", "amenity": "post_box", "collection_times": "Mo-Sa 10:25", "nsi_id": "unitedstatespostalservice-a77078", "operator": "United States Postal Service", "operator:short": "USPS", "operator:type": "public", "operator:wikidata": "Q668687", "ref": "3360200099"}, "type": "Feature"}
{"geometry": {"coordinates": [-82.454818004, 27.948335981], "type": "Point"}, "id": "ivwD8-mqhzHFrasaNlEa7t79k_w=", "properties": {"@source_uri": "https://tools.usps.com/UspsToolsRestServices/rest/POLocator/findLocations", "@spider": "usps_collection_boxes", "addr:city": "TAMPA", "addr:country": "US", "addr:postcode": "33602", "addr:state": "FL", "addr:street_address": "601 E KENNEDY BLVD", "amenity": "post_box", "collection_times": "Mo-Fr 11:00", "nsi_id": "unitedstatespostalservice-a77078", "operator": "United States Postal Service", "operator:short": "USPS", "operator:type": "public", "operator:wikidata": "Q668687", "ref": "3360200158"}, "type": "Feature"}
{"geometry": {"coordinates": [-82.459556, 27.947244], "type": "Point"}, "id": "pAHKWCpdG5pNQXWaP3FH8qcCjbk=", "properties": {"@source_uri": "https://tools.usps.com/UspsToolsRestServices/rest/POLocator/findLocations", "@spider": "usps_collection_boxes", "addr:city": "TAMPA", "addr:country": "US", "addr:postcode": "33602", "addr:state": "FL", "addr:street_address": "401 N ASHLEY DR", "amenity": "post_box", "collection_times": "Mo-Fr 17:00", "indoor": "yes", "note": "ON 12/24 AND 12/31, THIS BOX MAY BE COLLECTED AS EARLY AS 12 NOON.", "nsi_id": "unitedstatespostalservice-a77078", "operator": "United States Postal Service", "operator:short": "USPS", "operator:type": "public", "operator:wikidata": "Q668687", "ref": "3360200159"}, "type": "Feature"}
{"geometry": {"coordinates": [-82.459595735, 27.947304796], "type": "Point"}, "id": "b7ooC32muXHJEOusXBCPzEmwVyY=", "properties": {"@source_uri": "https://tools.usps.com/UspsToolsRestServices/rest/POLocator/findLocations", "@spider": "usps_collection_boxes", "addr:city": "TAMPA", "addr:country": "US", "addr:postcode": "33602", "addr:state": "FL", "addr:street_address": "401 N ASHLEY DR", "amenity": "post_box", "collection_times": "Mo-Fr 17:30", "indoor": "yes", "note": "ON 12/24 AND 12/31, THIS BOX MAY BE COLLECTED AS EARLY AS 12 NOON.", "nsi_id": "unitedstatespostalservice-a77078", "operator": "United States Postal Service", "operator:short": "USPS", "operator:type": "public", "operator:wikidata": "Q668687", "ref": "3360200160"}, "type": "Feature"}
{"geometry": {"coordinates": [-82.4520465, 28.008603], "type": "Point"}, "id": "IkKQSzDe6r030d9drTf41Gfn7xk=", "properties": {"@source_uri": "https://tools.usps.com/UspsToolsRestServices/rest/POLocator/findLocations", "@spider": "usps_collection_boxes", "addr:city": "TAMPA", "addr:country": "US", "addr:postcode": "33604", "addr:state": "FL", "addr:street_address": "6706 N NEBRASKA AVE", "amenity": "post_box", "collection_times": "Mo-Fr 17:00; Sa 15:00", "note": "ON 12/24 AND 12/31, THIS BOX MAY BE COLLECTED AS EARLY AS 12 NOON.", "nsi_id": "unitedstatespostalservice-a77078", "operator": "United States Postal Service", "operator:short": "USPS", "operator:type": "public", "operator:wikidata": "Q668687", "ref": "3360400022"}, "type": "Feature"}
{"geometry": {"coordinates": [-82.451354627, 28.008355044], "type": "Point"}, "id": "M5vTS45skzSZpLmg99m2CGJskqQ=", "properties": {"@source_uri": "https://tools.usps.com/UspsToolsRestServices/rest/POLocator/findLocations", "@spider": "usps_collection_boxes", "addr:city": "TAMPA", "addr:country": "US", "addr:postcode": "33604", "addr:state": "FL", "addr:street_address": "6706 N NEBRASKA AVE", "amenity": "post_box", "collection_times": "Mo-Fr 17:00; Sa 12:00", "indoor": "yes", "note": "ON 12/24 AND 12/31, THIS BOX MAY BE COLLECTED AS EARLY AS 12 NOON.", "nsi_id": "unitedstatespostalservice-a77078", "operator": "United States Postal Service", "operator:short": "USPS", "operator:type": "public", "operator:wikidata": "Q668687", "ref": "3360400032"}, "type": "Feature"}
{"geometry": {"coordinates": [-82.4027963, 27.951212], "type": "Point"}, "id": "21PsJCUq7BTxmpJV54i4H8X_Wj4=", "properties": {"@source_uri": "https://tools.usps.com/UspsToolsRestServices/rest/POLocator/findLocations", "@spider": "usps_collection_boxes", "addr:city": "TAMPA", "addr:country": "US", "addr:postcode": "33605", "addr:state": "FL", "addr:street_address": "4951 E ADAMO DR", "amenity": "post_box", "collection_times": "Mo-Fr 15:00; Sa 13:00", "note": "ON 12/24 AND 12/31, THIS BOX MAY BE COLLECTED AS EARLY AS 12 NOON.", "nsi_id": "unitedstatespostalservice-a77078", "operator": "United States Postal Service", "operator:short": "USPS", "operator:type": "public", "operator:wikidata": "Q668687", "ref": "3360500040"}, "type": "Feature"}
{"geometry": {"coordinates": [-82.436730697, 27.963867497], "type": "Point"}, "id": "skkXmLyrl5bNbO3FGl9AmYFGslI=", "properties": {"@source_uri": "https://tools.usps.com/UspsToolsRestServices/rest/POLocator/findLocations", "@spider": "usps_collection_boxes", "addr:city": "TAMPA", "addr:country": "US", "addr:postcode": "33605", "addr:state": "FL", "addr:street_address": "2000 E 12TH AVE", "amenity": "post_box", "collection_times": "Mo-Fr 17:00; Sa 13:00", "indoor": "yes", "note": "ON 12/24 AND 12/31, THIS BOX MAY BE COLLECTED AS EARLY AS 12 NOON.", "nsi_id": "unitedstatespostalservice-a77078", "operator": "United States Postal Service", "operator:short": "USPS", "operator:type": "public", "operator:wikidata": "Q668687", "ref": "3360500045"}, "type": "Feature"}
{"geometry": {"coordinates": [-82.436730697, 27.963867497], "type": "Point"}, "id": "wukOTQg73j2FurmpemaUAldTJdw=", "properties": {"@source_uri": "https://tools.usps.com/UspsToolsRestServices/rest/POLocator/findLocations", "@spider": "usps_collection_boxes", "addr:city": "TAMPA", "addr:country": "US", "addr:postcode": "33605", "addr:state": "FL", "addr:street_address": "2000 E 12TH AVE", "amenity": "post_box", "collection_times": "Mo-Fr 17:00; Sa 13:00", "indoor": "yes", "note": "ON 12/24 AND 12/31, THIS BOX MAY BE COLLECTED AS EARLY AS 12 NOON.", "nsi_id": "unitedstatespostalservice-a77078", "operator": "United States Postal Service", "operator:short": "USPS", "operator:type": "public", "operator:wikidata": "Q668687", "ref": "3360500046"}, "type": "Feature"}
{"geometry": {"coordinates": [-82.436730697, 27.963867497], "type": "Point"}, "id": "EoJ3_ouOAw_f_ifRTW0qV6s7Sos=", "properties": {"@source_uri": "https://tools.usps.com/UspsToolsRestServices/rest/POLocator/findLocations", "@spider": "usps_collection_boxes", "addr:city": "TAMPA", "addr:country": "US", "addr:postcode": "33605", "addr:state": "FL", "addr:street_address": "2000 E 12TH AVE", "amenity": "post_box", "collection_times": "Mo-Fr 17:00; Sa 16:00", "note": "ON 12/24 AND 12/31, THIS BOX MAY BE COLLECTED AS EARLY AS 12 NOON.", "nsi_id": "unitedstatespostalservice-a77078", "operator": "United States Postal Service", "operator:short": "USPS", "operator:type": "public", "operator:wikidata": "Q668687", "ref": "3360500047"}, "type": "Feature"}
{"geometry": {"coordinates": [-82.436730697, 27.963867497], "type": "Point"}, "id": "MwYtNKRyu92riJ_ZBQDuQ96VotM=", "properties": {"@source_uri": "https://tools.usps.com/UspsToolsRestServices/rest/POLocator/findLocations", "@spider": "usps_collection_boxes", "addr:city": "TAMPA", "addr:country": "US", "addr:postcode": "33605", "addr:state": "FL", "addr:street_address": "2000 E 12TH AVE", "amenity": "post_box", "collection_times": "Mo-Fr 17:00; Sa 12:00", "indoor": "yes", "note": "ON 12/24 AND 12/31, THIS BOX MAY BE COLLECTED AS EARLY AS 12 NOON.", "nsi_id": "unitedstatespostalservice-a77078", "operator": "United States Postal Service", "operator:short": "USPS", "operator:type": "public", "operator:wikidata": "Q668687", "ref": "3360500048"}, "type": "Feature"}
{"geometry": {"coordinates": [-82.4647437187, 27.9380605154], "type": "Point"}, "id": "wGRgWbFTxxSmKXolpfzfNhDMoHA=", "properties": {"@source_uri": "https://tools.usps.com/UspsToolsRestServices/rest/POLocator/findLocations", "@spider": "usps_collection_boxes", "addr:city": "TAMPA", "addr:country": "US", "addr:postcode": "33606", "addr:state": "FL", "addr:street_address": "511 W BAY ST", "amenity": "post_box", "collection_times": "Mo-Sa 12:30", "note": "ON 12/24 AND 12/31, THIS BOX MAY BE COLLECTED AS EARLY AS 12 NOON.", "nsi_id": "unitedstatespostalservice-a77078", "operator": "United States Postal Service", "operator:short": "USPS", "operator:type": "public", "operator:wikidata": "Q668687", "ref": "3360600055"}, "type": "Feature"}
{"geometry": {"coordinates": [-82.469785, 27.943175], "type": "Point"}, "id": "kme_Dso6Bh3i8Dog5SNiMKQSkek=", "properties": {"@source_uri": "https://tools.usps.com/UspsToolsRestServices/rest/POLocator/findLocations", "@spider": "usps_collection_boxes", "addr:city": "TAMPA", "addr:country": "US", "addr:postcode": "33606", "addr:state": "FL", "addr:street_address": "4 COLUMBIA DR", "amenity": "post_box", "collection_times": "Mo-Sa 10:30", "nsi_id": "unitedstatespostalservice-a77078", "operator": "United States Postal Service", "operator:short": "USPS", "operator:type": "public", "operator:wikidata": "Q668687", "ref": "3360600056"}, "type": "Feature"}
{"geometry": {"coordinates": [-82.469785, 27.943175], "type": "Point"}, "id": "ddfaTHbmRruMkiJpP5DfbdVZOJ0=", "properties": {"@source_uri": "https://tools.usps.com/UspsToolsRestServices/rest/POLocator/findLocations", "@spider": "usps_collection_boxes", "addr:city": "TAMPA", "addr:country": "US", "addr:postcode": "33606", "addr:state": "FL", "addr:street_address": "232 E DAVIS BLVD", "amenity": "post_box", "collection_times": "Mo-Sa 12:00", "nsi_id": "unitedstatespostalservice-a77078", "operator": "United States Postal Service", "operator:short": "USPS", "operator:type": "public", "operator:wikidata": "Q668687", "ref": "3360600057"}, "type": "Feature"}
{"geometry": {"coordinates": [-82.483008168, 27.928835999], "type": "Point"}, "id": "q7ju6sB88bZb5jewvf1jP9x_m-E=", "properties": {"@source_uri": "https://tools.usps.com/UspsToolsRestServices/rest/POLocator/findLocations", "@spider": "usps_collection_boxes", "addr:city": "TAMPA", "addr:country": "US", "addr:postcode": "33606", "addr:state": "FL", "addr:street_address": "1304 S DE SOTO AVE", "amenity": "post_box", "collection_times": "Mo-Fr 11:00; Sa 10:30", "nsi_id": "unitedstatespostalservice-a77078", "operator": "United States Postal Service", "operator:short": "USPS", "operator:type": "public", "operator:wikidata": "Q668687", "ref": "3360600058"}, "type": "Feature"}
{"geometry": {"coordinates": [-82.483010958, 27.94481351], "type": "Point"}, "id": "VdaPbAI69jOuPfteme_DQT-XBZE=", "properties": {"@source_uri": "https://tools.usps.com/UspsToolsRestServices/rest/POLocator/findLocations", "@spider": "usps_collection_boxes", "addr:city": "TAMPA", "addr:country": "US", "addr:postcode": "33606", "addr:state": "FL", "addr:street_address": "100 N HOWARD AVE", "amenity": "post_box", "collection_times": "Mo-Fr 12:00; Sa 11:45", "nsi_id": "unitedstatespostalservice-a77078", "operator": "United States Postal Service", "operator:short": "USPS", "operator:type": "public", "operator:wikidata": "Q668687", "ref": "3360600059"}, "type": "Feature"}
{"geometry": {"coordinates": [-82.4639413308, 27.9448243451], "type": "Point"}, "id": "7qdTrv0FbuzfCp6qQMXxuyhcx1g=", "properties": {"@source_uri": "https://tools.usps.com/UspsToolsRestServices/rest/POLocator/findLocations", "@spider": "usps_collection_boxes", "addr:city": "TAMPA", "addr:country": "US", "addr:postcode": "33606", "addr:state": "FL", "addr:street_address": "123 S HYDE PARK AVE", "amenity": "post_box", "collection_times": "Mo-Fr 11:30; Sa 13:00", "note": "ON 12/24 AND 12/31, THIS BOX MAY BE COLLECTED AS EARLY AS 12 NOON.", "nsi_id": "unitedstatespostalservice-a77078", "operator": "United States Postal Service", "operator:short": "USPS", "operator:type": "public", "operator:wikidata": "Q668687", "ref": "3360600060"}, "type": "Feature"}
{"geometry": {"coordinates": [-82.4639008803, 27.941463], "type": "Point"}, "id": "yQ3B4HzrBXT-ltt1MsZJM6jIuek=", "properties": {"@source_uri": "https://tools.usps.com/UspsToolsRestServices/rest/POLocator/findLocations", "@spider": "usps_collection_boxes", "addr:city": "TAMPA", "addr:country": "US", "addr:postcode": "33606", "addr:state": "FL", "addr:street_address": "300 S HYDE PARK AVE", "amenity": "post_box", "collection_times": "Mo-Fr 13:00; Sa 12:00", "note": "ON 12/24 AND 12/31, THIS BOX MAY BE COLLECTED AS EARLY AS 12 NOON.", "nsi_id": "unitedstatespostalservice-a77078", "operator": "United States Postal Service", "operator:short": "USPS", "operator:type": "public", "operator:wikidata": "Q668687", "ref": "3360600061"}, "type": "Feature"}
{"geometry": {"coordinates": [-82.4658835752, 27.9382953353], "type": "Point"}, "id": "gOEhu6zHUtthauQwpNYVskVm0Vc=", "properties": {"@source_uri": "https://tools.usps.com/UspsToolsRestServices/rest/POLocator/findLocations", "@spider": "usps_collection_boxes", "addr:city": "TAMPA", "addr:country": "US", "addr:postcode": "33606", "addr:state": "FL", "addr:street_address": "607 S MAGNOLIA AVE", "amenity": "post_box", "collection_times": "Mo-Sa 12:00", "nsi_id": "unitedstatespostalservice-a77078", "operator": "United States Postal Service", "operator:short": "USPS", "operator:type": "public", "operator:wikidata": "Q668687", "ref": "3360600062"}, "type": "Feature"}
{"geometry": {"coordinates": [-82.4689430196, 27.9386099977], "type": "Point"}, "id": "0vJhHwEzbbmMAEcAiqDu_e_C_VM=", "properties": {"@source_uri": "https://tools.usps.com/UspsToolsRestServices/rest/POLocator/findLocations", "@spider": "usps_collection_boxes", "addr:city": "TAMPA", "addr:country": "US", "addr:postcode": "33606", "addr:state": "FL", "addr:street_address": "601 S BOULEVARD", "amenity": "post_box", "collection_times": "Mo-Fr 14:00; Sa 10:00", "note": "ON 12/24 AND 12/31, THIS BOX MAY BE COLLECTED AS EARLY AS 12 NOON.", "nsi_id": "unitedstatespostalservice-a77078", "operator": "United States Postal Service", "operator:short": "USPS", "operator:type": "public", "operator:wikidata": "Q668687", "ref": "3360600063"}, "type": "Feature"}
{"geometry": {"coordinates": [-82.5056356, 27.9608089], "type": "Point"}, "id": "24H8vSGOESa8EKZLd0Dhe7VWSaA=", "properties": {"@source_uri": "https://tools.usps.com/UspsToolsRestServices/rest/POLocator/findLocations", "@spider": "usps_collection_boxes", "addr:city": "TAMPA", "addr:country": "US", "addr:postcode": "33607", "addr:state": "FL", "addr:street_address": "3434 W COLUMBUS DR", "amenity": "post_box", "collection_times": "Mo-Sa 10:00", "nsi_id": "unitedstatespostalservice-a77078", "operator": "United States Postal Service", "operator:short": "USPS", "operator:type": "public", "operator:wikidata": "Q668687", "ref": "3360700019"}, "type": "Feature"}
{"geometry": {"coordinates": [-82.482855, 27.961155], "type": "Point"}, "id": "K9BSqV3LO-Mx3j2Vjhy6GnWgcYg=", "properties": {"@source_uri": "https://tools.usps.com/UspsToolsRestServices/rest/POLocator/findLocations", "@spider": "usps_collection_boxes", "addr:city": "TAMPA", "addr:country": "US", "addr:postcode": "33607", "addr:state": "FL", "addr:street_address": "3000 BAYPORT DR", "amenity": "post_box", "collection_times": "Mo-Fr 10:00", "nsi_id": "unitedstatespostalservice-a77078", "operator": "United States Postal Service", "operator:short": "USPS", "operator:type": "public", "operator:wikidata": "Q668687", "ref": "3360700040"}, "type": "Feature"}
{"geometry": {"coordinates": [-82.5056356, 27.9608089], "type": "Point"}, "id": "_ic1kjRBnkvWa3K9kdlxJImtwVg=", "properties": {"@source_uri": "https://tools.usps.com/UspsToolsRestServices/rest/POLocator/findLocations", "@spider": "usps_collection_boxes", "addr:city": "TAMPA", "addr:country": "US", "addr:postcode": "33607", "addr:state": "FL", "addr:street_address": "5680 W CYPRESS ST", "amenity": "post_box", "collection_times": "Mo-Fr 10:45", "nsi_id": "unitedstatespostalservice-a77078", "operator": "United States Postal Service", "operator:short": "USPS", "operator:type": "public", "operator:wikidata": "Q668687", "ref": "3360700051"}, "type": "Feature"}
{"geometry": {"coordinates": [-82.483101, 27.958012], "type": "Point"}, "id": "EZl1LS9IFf68KLW5__91mjqPf6E=", "properties": {"@source_uri": "https://tools.usps.com/UspsToolsRestServices/rest/POLocator/findLocations", "@spider": "usps_collection_boxes", "addr:city": "TAMPA", "addr:country": "US", "addr:postcode": "33607", "addr:state": "FL", "addr:street_address": "1802 N HOWARD AVE", "amenity": "post_box", "collection_times": "Mo-Fr 17:30; Sa 12:00", "note": "ON 12/24 AND 12/31, THIS BOX MAY BE COLLECTED AS EARLY AS 12 NOON.", "nsi_id": "unitedstatespostalservice-a77078", "operator": "United States Postal Service", "operator:short": "USPS", "operator:type": "public", "operator:wikidata": "Q668687", "ref": "3360700059"}, "type": "Feature"}
{"geometry": {"coordinates": [-82.5229591, 27.957008], "type": "Point"}, "id": "deOwEykIRIwvoGmB5_iSmj7Xoxk=", "properties": {"@source_uri": "https://tools.usps.com/UspsToolsRestServices/rest/POLocator/findLocations", "@spider": "usps_collection_boxes", "addr:city": "TAMPA", "addr:country": "US", "addr:postcode": "33607", "addr:state": "FL", "addr:street_address": "1715 N WEST SHORE BLVD", "amenity": "post_box", "collection_times": "Mo-Fr 15:00", "note": "ON 12/24 AND 12/31, THIS BOX MAY BE COLLECTED AS EARLY AS 12 NOON.", "nsi_id": "unitedstatespostalservice-a77078", "operator": "United States Postal Service", "operator:short": "USPS", "operator:type": "public", "operator:wikidata": "Q668687", "ref": "3360700071"}, "type": "Feature"}
{"geometry": {"coordinates": [-82.5233450078, 27.9548690039], "type": "Point"}, "id": "Hf6YUzbZ7oDjrMlOOBwMfIVpwPI=", "properties": {"@source_uri": "https://tools.usps.com/UspsToolsRestServices/rest/POLocator/findLocations", "@spider": "usps_collection_boxes", "addr:city": "TAMPA", "addr:country": "US", "addr:postcode": "33607", "addr:state": "FL", "addr:street_address": "1311 N WEST SHORE BLVD", "amenity": "post_box", "collection_times": "Mo-Fr 12:30", "note": "ON 12/24 AND 12/31, THIS BOX MAY BE COLLECTED AS EARLY AS 12 NOON.", "nsi_id": "unitedstatespostalservice-a77078", "operator": "United States Postal Service", "operator:short": "USPS", "operator:type": "public", "operator:wikidata": "Q668687", "ref": "3360700089"}, "type": "Feature"}
{"geometry": {"coordinates": [-82.5253549, 27.955952], "type": "Point"}, "id": "V1GyeB8pA6btDcPVlzkQ3EtO5QQ=", "properties": {"@source_uri": "https://tools.usps.com/UspsToolsRestServices/rest/POLocator/findLocations", "@spider": "usps_collection_boxes", "addr:city": "TAMPA", "addr:country": "US", "addr:postcode": "33607", "addr:state": "FL", "addr:street_address": "1410 N WEST SHORE BLVD", "amenity": "post_box", "collection_times": "Mo-Fr 10:30", "nsi_id": "unitedstatespostalservice-a77078", "operator": "United States Postal Service", "operator:short": "USPS", "operator:type": "public", "operator:wikidata": "Q668687", "ref": "3360700097"}, "type": "Feature"}
{"geometry": {"coordinates": [-82.4857223, 27.975438], "type": "Point"}, "id": "pz0ZuWzHIORCOILNk8PR_bR4DDo=", "properties": {"@source_uri": "https://tools.usps.com/UspsToolsRestServices/rest/POLocator/findLocations", "@spider": "usps_collection_boxes", "addr:city": "TAMPA", "addr:country": "US", "addr:postcode": "33607", "addr:state": "FL", "addr:street_address": "4056 FIESTA PLZ", "amenity": "post_box", "collection_times": "Mo-Sa 10:30", "nsi_id": "unitedstatespostalservice-a77078", "operator": "United States Postal Service", "operator:short": "USPS", "operator:type": "public", "operator:wikidata": "Q668687", "ref": "3360700111"}, "type": "Feature"}
{"geometry": {"coordinates": [-82.5129649, 27.96111], "type": "Point"}, "id": "cLBd_diDgC_xyj7GDmMoeAXzNhg=", "properties": {"@source_uri": "https://tools.usps.com/UspsToolsRestServices/rest/POLocator/findLocations", "@spider": "usps_collection_boxes", "addr:city": "TAMPA", "addr:country": "US", "addr:postcode": "33607", "addr:state": "FL", "addr:street_address": "2203 N LOIS AVE", "amenity": "post_box", "collection_times": "Mo-Fr 10:30", "nsi_id": "unitedstatespostalservice-a77078", "operator": "United States Postal Service", "operator:short": "USPS", "operator:type": "public", "operator:wikidata": "Q668687", "ref": "3360700120"}, "type": "Feature"}
{"geometry": {"coordinates": [-82.4871618, 27.982296], "type": "Point"}, "id": "8YWvaI_6tQSNiUsUXQaT2ZNbwyI=", "properties": {"@source_uri": "https://tools.usps.com/UspsToolsRestServices/rest/POLocator/findLocations", "@spider": "usps_collection_boxes", "addr:city": "TAMPA", "addr:country": "US", "addr:postcode": "33607", "addr:state": "FL", "addr:street_address": "2727 W DR MARTIN LUTHER KING JR BLVD", "amenity": "post_box", "collection_times": "Mo-Fr 10:30", "nsi_id": "unitedstatespostalservice-a77078", "operator": "United States Postal Service", "operator:short": "USPS", "operator:type": "public", "operator:wikidata": "Q668687", "ref": "3360700147"}, "type": "Feature"}
{"geometry": {"coordinates": [-82.5155607, 27.96539], "type": "Point"}, "id": "1HeauJQxq60XUlRVtRgJbtf2KPg=", "properties": {"@source_uri": "https://tools.usps.com/UspsToolsRestServices/rest/POLocator/findLocations", "@spider": "usps_collection_boxes", "addr:city": "TAMPA", "addr:country": "US", "addr:postcode": "33607", "addr:state": "FL", "addr:street_address": "4211 W BOY SCOUT BLVD", "amenity": "post_box", "collection_times": "Mo-Fr 10:00", "nsi_id": "unitedstatespostalservice-a77078", "operator": "United States Postal Service", "operator:short": "USPS", "operator:type": "public", "operator:wikidata": "Q668687", "ref": "3360700152"}, "type": "Feature"}
{"geometry": {"coordinates": [-82.482855, 27.961155], "type": "Point"}, "id": "ityWe4C6w_1AhD6LxV1LNcTwGOI=", "properties": {"@source_uri": "https://tools.usps.com/UspsToolsRestServices/rest/POLocator/findLocations", "@spider": "usps_collection_boxes", "addr:city": "TAMPA", "addr:country": "US", "addr:postcode": "33607", "addr:state": "FL", "addr:street_address": "3031 N ROCKY POINT DR W", "amenity": "post_box", "collection_times": "Mo-Fr 10:00", "nsi_id": "unitedstatespostalservice-a77078", "operator": "United States Postal Service", "operator:short": "USPS", "operator:type": "public", "operator:wikidata": "Q668687", "ref": "3360700157"}, "type": "Feature"}
{"geometry": {"coordinates": [-82.5145153, 27.960607], "type": "Point"}, "id": "Q7tOtSFr91hJVfdNd_Q9SVyG4yk=", "properties": {"@source_uri": "https://tools.usps.com/UspsToolsRestServices/rest/POLocator/findLocations", "@spider": "usps_collection_boxes", "addr:city": "TAMPA", "addr:country": "US", "addr:postcode": "33607", "addr:state": "FL", "addr:street_address": "2002 N LOIS AVE", "amenity": "post_box", "collection_times": "Mo-Fr 10:00", "nsi_id": "unitedstatespostalservice-a77078", "operator": "United States Postal Service", "operator:short": "USPS", "operator:type": "public", "operator:wikidata": "Q668687", "ref": "3360700161"}, "type": "Feature"}
{"geometry": {"coordinates": [-82.482945149, 27.958113419], "type": "Point"}, "id": "lCV8f0Zl0CSkzolSDLTG55Pf6lc=", "properties": {"@source_uri": "https://tools.usps.com/UspsToolsRestServices/rest/POLocator/findLocations", "@spider": "usps_collection_boxes", "addr:city": "TAMPA", "addr:country": "US", "addr:postcode": "33607", "addr:state": "FL", "addr:street_address": "1802 N HOWARD AVE", "amenity": "post_box", "collection_times": "Mo-Fr 17:30; Sa 12:00", "indoor": "yes", "note": "ON 12/24 AND 12/31, THIS BOX MAY BE COLLECTED AS EARLY AS 12 NOON.", "nsi_id": "unitedstatespostalservice-a77078", "operator": "United States Postal Service", "operator:short": "USPS", "operator:type": "public", "operator:wikidata": "Q668687", "ref": "3360700175"}, "type": "Feature"}
{"geometry": {"coordinates": [-82.45927, 27.94653], "type": "Point"}, "id": "jSaSQ5cyp-c53c0hZZBwSLNBAI0=", "properties": {"@source_uri": "https://tools.usps.com/UspsToolsRestServices/rest/POLocator/findLocations", "@spider": "usps_collection_boxes", "addr:city": "TAMPA", "addr:country": "US", "addr:postcode": "33608", "addr:state": "FL", "addr:street_address": "3108 N BOUNDARY BLVD", "amenity": "post_box", "collection_times": "Mo-Fr 15:00", "note": "ON 12/24 AND 12/31, THIS BOX MAY BE COLLECTED AS EARLY AS 12 NOON.", "nsi_id": "unitedstatespostalservice-a77078", "operator": "United States Postal Service", "operator:short": "USPS", "operator:type": "public", "operator:wikidata": "Q668687", "ref": "3360800001"}, "type": "Feature"}
{"geometry": {"coordinates": [-82.45927, 27.94653], "type": "Point"}, "id": "Ul2N-51hBg9rBBkM5vPwvnJzIf8=", "properties": {"@source_uri": "https://tools.usps.com/UspsToolsRestServices/rest/POLocator/findLocations", "@spider": "usps_collection_boxes", "addr:city": "TAMPA", "addr:country": "US", "addr:postcode": "33608", "addr:state": "FL", "addr:street_address": "8106 CONDOR ST", "amenity": "post_box", "collection_times": "Mo-Fr 16:30", "note": "ON 12/24 AND 12/31, THIS BOX MAY BE COLLECTED AS EARLY AS 12 NOON.", "nsi_id": "unitedstatespostalservice-a77078", "operator": "United States Postal Service", "operator:short": "USPS", "operator:type": "public", "operator:wikidata": "Q668687", "ref": "3360800002"}, "type": "Feature"}
{"geometry": {"coordinates": [-82.45927, 27.94653], "type": "Point"}, "id": "ULSDhpqzR6ZQzld4X5oegcR8WnY=", "properties": {"@source_uri": "https://tools.usps.com/UspsToolsRestServices/rest/POLocator/findLocations", "@spider": "usps_collection_boxes", "addr:city": "TAMPA", "addr:country": "US", "addr:postcode": "33608", "addr:state": "FL", "addr:street_address": "8106 CONDOR ST", "amenity": "post_box", "collection_times": "Mo-Fr 12:00", "nsi_id": "unitedstatespostalservice-a77078", "operator": "United States Postal Service", "operator:short": "USPS", "operator:type": "public", "operator:wikidata": "Q668687", "ref": "3360800004"}, "type": "Feature"}
{"geometry": {"coordinates": [-82.45927, 27.94653], "type": "Point"}, "id": "uQK14f3bJS6fdITnqL0S3dujMSY=", "properties": {"@source_uri": "https://tools.usps.com/UspsToolsRestServices/rest/POLocator/findLocations", "@spider": "usps_collection_boxes", "addr:city": "TAMPA", "addr:country": "US", "addr:postcode": "33608", "addr:state": "FL", "addr:street_address": "3250 ZEMKE AVE", "amenity": "post_box", "collection_times": "Mo-Fr 15:00", "note": "ON 12/24 AND 12/31, THIS BOX MAY BE COLLECTED AS EARLY AS 12 NOON.", "nsi_id": "unitedstatespostalservice-a77078", "operator": "United States Postal Service", "operator:short": "USPS", "operator:type": "public", "operator:wikidata": "Q668687", "ref": "3360800006"}, "type": "Feature"}
{"geometry": {"coordinates": [-82.493275, 27.944025], "type": "Point"}, "id": "Gqg93OjDck6UVA5Ego8FGBKenmY=", "properties": {"@source_uri": "https://tools.usps.com/UspsToolsRestServices/rest/POLocator/findLocations", "@spider": "usps_collection_boxes", "addr:city": "TAMPA", "addr:country": "US", "addr:postcode": "33609", "addr:state": "FL", "addr:street_address": "5420 BAY CENTER DR", "amenity": "post_box", "collection_times": "Mo-Fr 12:00", "nsi_id": "unitedstatespostalservice-a77078", "operator": "United States Postal Service", "operator:short": "USPS", "operator:type": "public", "operator:wikidata": "Q668687", "ref": "3360900006"}, "type": "Feature"}
{"geometry": {"coordinates": [-82.5046269, 27.945461], "type": "Point"}, "id": "RrBFh4i0zc6kmskLNgEGdlHawn0=", "properties": {"@source_uri": "https://tools.usps.com/UspsToolsRestServices/rest/POLocator/findLocations", "@spider": "usps_collection_boxes", "addr:city": "TAMPA", "addr:country": "US", "addr:postcode": "33609", "addr:state": "FL", "addr:street_address": "1 N DALE MABRY HWY", "amenity": "post_box", "collection_times": "Mo-Fr 10:00", "nsi_id": "unitedstatespostalservice-a77078", "operator": "United States Postal Service", "operator:short": "USPS", "operator:type": "public", "operator:wikidata": "Q668687", "ref": "3360900014"}, "type": "Feature"}
{"geometry": {"coordinates": [-82.4983999, 27.94104], "type": "Point"}, "id": "7Qjt9irvSmfhAT9PHEqdUUMMb9Q=", "properties": {"@source_uri": "https://tools.usps.com/UspsToolsRestServices/rest/POLocator/findLocations", "@spider": "usps_collection_boxes", "addr:city": "TAMPA", "addr:country": "US", "addr:postcode": "33609", "addr:state": "FL", "addr:street_address": "3314 HENDERSON BLVD", "amenity": "post_box", "collection_times": "Mo-Fr 14:00", "note": "ON 12/24 AND 12/31, THIS BOX MAY BE COLLECTED AS EARLY AS 12 NOON.", "nsi_id": "unitedstatespostalservice-a77078", "operator": "United States Postal Service", "operator:short": "USPS", "operator:type": "public", "operator:wikidata": "Q668687", "ref": "3360900023"}, "type": "Feature"}
{"geometry": {"coordinates": [-82.5118719, 27.944631], "type": "Point"}, "id": "gfAR4cAhj6sUEylz2NP2EF5pN-U=", "properties": {"@source_uri": "https://tools.usps.com/UspsToolsRestServices/rest/POLocator/findLocations", "@spider": "usps_collection_boxes", "addr:city": "TAMPA", "addr:country": "US", "addr:postcode": "33609", "addr:state": "FL", "addr:street_address": "4050 W KENNEDY BLVD", "amenity": "post_box", "collection_times": "Mo-Sa 10:00", "nsi_id": "unitedstatespostalservice-a77078", "operator": "United States Postal Service", "operator:short": "USPS", "operator:type": "public", "operator:wikidata": "Q668687", "ref": "3360900033"}, "type": "Feature"}
{"geometry": {"coordinates": [-82.524188, 27.943665], "type": "Point"}, "id": "d7O8byXUe1a_ZXrT7yxMe09pnoA=", "properties": {"@source_uri": "https://tools.usps.com/UspsToolsRestServices/rest/POLocator/findLocations", "@spider": "usps_collection_boxes", "addr:city": "TAMPA", "addr:country": "US", "addr:postcode": "33609", "addr:state": "FL", "addr:street_address": "4830 W KENNEDY BLVD", "amenity": "post_box", "collection_times": "Mo-Fr 10:00", "nsi_id": "unitedstatespostalservice-a77078", "operator": "United States Postal Service", "operator:short": "USPS", "operator:type": "public", "operator:wikidata": "Q668687", "ref": "3360900040"}, "type": "Feature"}
{"geometry": {"coordinates": [-82.5294077, 27.944218], "type": "Point"}, "id": "zDeAcez8JrxblY41wYk8z1B2X_E=", "properties": {"@source_uri": "https://tools.usps.com/UspsToolsRestServices/rest/POLocator/findLocations", "@spider": "usps_collection_boxes", "addr:city": "TAMPA", "addr:country": "US", "addr:postcode": "33609", "addr:state": "FL", "addr:street_address": "5100 W KENNEDY BLVD", "amenity": "post_box", "collection_times": "Mo-Fr 11:30", "nsi_id": "unitedstatespostalservice-a77078", "operator": "United States Postal Service", "operator:short": "USPS", "operator:type": "public", "operator:wikidata": "Q668687", "ref": "3360900051"}, "type": "Feature"}
{"geometry": {"coordinates": [-82.493275, 27.944025], "type": "Point"}, "id": "e2L5KVs2kSfdCfnlmrnARpT8bmI=", "properties": {"@source_uri": "https://tools.usps.com/UspsToolsRestServices/rest/POLocator/findLocations", "@spider": "usps_collection_boxes", "addr:city": "TAMPA", "addr:country": "US", "addr:postcode": "33609", "addr:state": "FL", "addr:street_address": "5401 W KENNEDY BLVD", "amenity": "post_box", "collection_times": "Mo-Fr 11:00", "nsi_id": "unitedstatespostalservice-a77078", "operator": "United States Postal Service", "operator:short": "USPS", "operator:type": "public", "operator:wikidata": "Q668687", "ref": "3360900052"}, "type": "Feature"}
{"geometry": {"coordinates": [-82.5222694, 27.945025], "type": "Point"}, "id": "AFrVQxIFgGfHZnedYDDv4hC3Z-I=", "properties": {"@source_uri": "https://tools.usps.com/UspsToolsRestServices/rest/POLocator/findLocations", "@spider": "usps_collection_boxes", "addr:city": "TAMPA", "addr:country": "US", "addr:postcode": "33609", "addr:state": "FL", "addr:street_address": "4601 W KENNEDY BLVD", "amenity": "post_box", "collection_times": "Mo-Sa 10:00", "nsi_id": "unitedstatespostalservice-a77078", "operator": "United States Postal Service", "operator:short": "USPS", "operator:type": "public", "operator:wikidata": "Q668687", "ref": "3360900059"}, "type": "Feature"}
{"geometry": {"coordinates": [-82.5249590271, 27.9508490013], "type": "Point"}, "id": "FTAaaNOUmzZ8hsDJ3RKhcL6jQm4=", "properties": {"@source_uri": "https://tools.usps.com/UspsToolsRestServices/rest/POLocator/findLocations", "@spider": "usps_collection_boxes", "addr:city": "TAMPA", "addr:country": "US", "addr:postcode": "33609", "addr:state": "FL", "addr:street_address": "600 WEST SHORE", "amenity": "post_box", "collection_times": "Mo-Fr 11:00", "nsi_id": "unitedstatespostalservice-a77078", "operator": "United States Postal Service", "operator:short": "USPS", "operator:type": "public", "operator:wikidata": "Q668687", "ref": "3360900083"}, "type": "Feature"}
{"geometry": {"coordinates": [-82.5250935, 27.948656], "type": "Point"}, "id": "6G8Aw-QuVKdZ5O9E1B-j2ml71PM=", "properties": {"@source_uri": "https://tools.usps.com/UspsToolsRestServices/rest/POLocator/findLocations", "@spider": "usps_collection_boxes", "addr:city": "TAMPA", "addr:country": "US", "addr:postcode": "33609", "addr:state": "FL", "addr:street_address": "500 WESTSHORE PLZ", "amenity": "post_box", "collection_times": "Mo-Fr 10:30", "nsi_id": "unitedstatespostalservice-a77078", "operator": "United States Postal Service", "operator:short": "USPS", "operator:type": "public", "operator:wikidata": "Q668687", "ref": "3360900086"}, "type": "Feature"}
{"geometry": {"coordinates": [-82.5248557, 27.9509], "type": "Point"}, "id": "i-y8eUiCyM0eBXtZvoCg3riOdic=", "properties": {"@source_uri": "https://tools.usps.com/UspsToolsRestServices/rest/POLocator/findLocations", "@spider": "usps_collection_boxes", "addr:city": "TAMPA", "addr:country": "US", "addr:postcode": "33609", "addr:state": "FL", "addr:street_address": "600 N WEST SHORE BLVD", "amenity": "post_box", "collection_times": "Mo-Fr 11:00", "nsi_id": "unitedstatespostalservice-a77078", "operator": "United States Postal Service", "operator:short": "USPS", "operator:type": "public", "operator:wikidata": "Q668687", "ref": "3360900090"}, "type": "Feature"}
{"geometry": {"coordinates": [-82.524186, 27.948561], "type": "Point"}, "id": "n5ciuN1MxhC1EGnT5nxHZR5DdOg=", "properties": {"@source_uri": "https://tools.usps.com/UspsToolsRestServices/rest/POLocator/findLocations", "@spider": "usps_collection_boxes", "addr:city": "TAMPA", "addr:country": "US", "addr:postcode": "33609", "addr:state": "FL", "addr:street_address": "600 N WEST SHORE BLVD", "amenity": "post_box", "collection_times": "Mo-Fr 11:00", "nsi_id": "unitedstatespostalservice-a77078", "operator": "United States Postal Service", "operator:short": "USPS", "operator:type": "public", "operator:wikidata": "Q668687", "ref": "3360900091"}, "type": "Feature"}
{"geometry": {"coordinates": [-82.527575879, 27.944938858], "type": "Point"}, "id": "LgUbxPAPXiUXdggRgmQvGT2bSSI=", "properties": {"@source_uri": "https://tools.usps.com/UspsToolsRestServices/rest/POLocator/findLocations", "@spider": "usps_collection_boxes", "addr:city": "TAMPA", "addr:country": "US", "addr:postcode": "33609", "addr:state": "FL", "addr:street_address": "225 WESTSHORE PLZ", "amenity": "post_box", "collection_times": "Mo-Sa 10:15", "nsi_id": "unitedstatespostalservice-a77078", "operator": "United States Postal Service", "operator:short": "USPS", "operator:type": "public", "operator:wikidata": "Q668687", "ref": "3360900094"}, "type": "Feature"}
{"geometry": {"coordinates": [-82.493275, 27.944025], "type": "Point"}, "id": "CWa05EPXar7eymx_Wdy_EUlBTmg=", "properties": {"@source_uri": "https://tools.usps.com/UspsToolsRestServices/rest/POLocator/findLocations", "@spider": "usps_collection_boxes", "addr:city": "TAMPA", "addr:country": "US", "addr:postcode": "33609", "addr:state": "FL", "addr:street_address": "5404 CYPRESS CENTER DR", "amenity": "post_box", "collection_times": "Mo-Fr 12:30", "note": "ON 12/24 AND 12/31, THIS BOX MAY BE COLLECTED AS EARLY AS 12 NOON.", "nsi_id": "unitedstatespostalservice-a77078", "operator": "United States Postal Service", "operator:short": "USPS", "operator:type": "public", "operator:wikidata": "Q668687", "ref": "3360900098"}, "type": "Feature"}
{"geometry": {"coordinates": [-82.493275, 27.944025], "type": "Point"}, "id": "Jm0mNd08vwNPNt05kVGKHcLNR1A=", "properties": {"@source_uri": "https://tools.usps.com/UspsToolsRestServices/rest/POLocator/findLocations", "@spider": "usps_collection_boxes", "addr:city": "TAMPA", "addr:country": "US", "addr:postcode": "33609", "addr:state": "FL", "addr:street_address": "5201 W KENNEDY BLVD", "amenity": "post_box", "collection_times": "Mo-Fr 10:30", "nsi_id": "unitedstatespostalservice-a77078", "operator": "United States Postal Service", "operator:short": "USPS", "operator:type": "public", "operator:wikidata": "Q668687", "ref": "3360900102"}, "type": "Feature"}
{"geometry": {"coordinates": [-82.5272784, 27.944423], "type": "Point"}, "id": "N289PRjXOOBv1S79A5TmITmZDXc=", "properties": {"@source_uri": "https://tools.usps.com/UspsToolsRestServices/rest/POLocator/findLocations", "@spider": "usps_collection_boxes", "addr:city": "TAMPA", "addr:country": "US", "addr:postcode": "33609", "addr:state": "FL", "addr:street_address": "4950 W KENNEDY BLVD", "amenity": "post_box", "collection_times": "Mo-Fr 11:00", "nsi_id": "unitedstatespostalservice-a77078", "operator": "United States Postal Service", "operator:short": "USPS", "operator:type": "public", "operator:wikidata": "Q668687", "ref": "3360900129"}, "type": "Feature"}
{"geometry": {"coordinates": [-82.3939099, 27.993786], "type": "Point"}, "id": "XeUSGaFnaKQ38WKj50oquU6C22w=", "properties": {"@source_uri": "https://tools.usps.com/UspsToolsRestServices/rest/POLocator/findLocations", "@spider": "usps_collection_boxes", "addr:city": "TAMPA", "addr:country": "US", "addr:postcode": "33610", "addr:state": "FL", "addr:street_address": "5118 N 56TH ST", "amenity": "post_box", "collection_times": "Mo-Fr 15:00", "note": "ON 12/24 AND 12/31, THIS BOX MAY BE COLLECTED AS EARLY AS 12 NOON.", "nsi_id": "unitedstatespostalservice-a77078", "operator": "United States Postal Service", "operator:short": "USPS", "operator:type": "public", "operator:wikidata": "Q668687", "ref": "3361000008"}, "type": "Feature"}
{"geometry": {"coordinates": [-82.3606124598, 27.9970748471], "type": "Point"}, "id": "hQF8SyIemk9T5X7-vZUUdvbhigw=", "properties": {"@source_uri": "https://tools.usps.com/UspsToolsRestServices/rest/POLocator/findLocations", "@spider": "usps_collection_boxes", "addr:city": "TAMPA", "addr:country": "US", "addr:postcode": "33610", "addr:state": "FL", "addr:street_address": "5600 BRECKENRIDGE PARK DR", "amenity": "post_box", "collection_times": "Mo-Fr 10:00", "nsi_id": "unitedstatespostalservice-a77078", "operator": "United States Postal Service", "operator:short": "USPS", "operator:type": "public", "operator:wikidata": "Q668687", "ref": "3361000011"}, "type": "Feature"}
{"geometry": {"coordinates": [-82.419995, 27.98695], "type": "Point"}, "id": "aEc69TwkH3tIEyMtqK1W6ldF94o=", "properties": {"@source_uri": "https://tools.usps.com/UspsToolsRestServices/rest/POLocator/findLocations", "@spider": "usps_collection_boxes", "addr:city": "TAMPA", "addr:country": "US", "addr:postcode": "33610", "addr:state": "FL", "addr:street_address": "2810 E HILLSBOROUGH AVE", "amenity": "post_box", "collection_times": "Mo-Fr 17:00; Sa 15:00", "note": "ON 12/24 AND 12/31, THIS BOX MAY BE COLLECTED AS EARLY AS 12 NOON.", "nsi_id": "unitedstatespostalservice-a77078", "operator": "United States Postal Service", "operator:short": "USPS", "operator:type": "public", "operator:wikidata": "Q668687", "ref": "3361000022"}, "type": "Feature"}
{"geometry": {"coordinates": [-82.357897, 27.987254], "type": "Point"}, "id": "hHjSt2eynb1TpMv1M5qoyEO9t3o=", "properties": {"@source_uri": "https://tools.usps.com/UspsToolsRestServices/rest/POLocator/findLocations", "@spider": "usps_collection_boxes", "addr:city": "TAMPA", "addr:country": "US", "addr:postcode": "33610", "addr:state": "FL", "addr:street_address": "4508 OAK FAIR BLVD", "amenity": "post_box", "collection_times": "Mo-Fr 11:00", "nsi_id": "unitedstatespostalservice-a77078", "operator": "United States Postal Service", "operator:short": "USPS", "operator:type": "public", "operator:wikidata": "Q668687", "ref": "3361000024"}, "type": "Feature"}
{"geometry": {"coordinates": [-82.3323935, 27.983425], "type": "Point"}, "id": "F-vMlT3z7Lew7lDzIqSmts_9REE=", "properties": {"@source_uri": "https://tools.usps.com/UspsToolsRestServices/rest/POLocator/findLocations", "@spider": "usps_collection_boxes", "addr:city": "TAMPA", "addr:country": "US", "addr:postcode": "33610", "addr:state": "FL", "addr:street_address": "10150 HIGHLAND MANOR DR", "amenity": "post_box", "collection_times": "Mo-Fr 10:00", "nsi_id": "unitedstatespostalservice-a77078", "operator": "United States Postal Service", "operator:short": "USPS", "operator:type": "public", "operator:wikidata": "Q668687", "ref": "3361000040"}, "type": "Feature"}
{"geometry": {"coordinates": [-82.3911099, 27.992248], "type": "Point"}, "id": "GCaCVLEQB0CXgzi5EgfVn86aCWA=", "properties": {"@source_uri": "https://tools.usps.com/UspsToolsRestServices/rest/POLocator/findLocations", "@spider": "usps_collection_boxes", "addr:city": "TAMPA", "addr:country": "US", "addr:postcode": "33610", "addr:state": "FL", "addr:street_address": "5701 E HILLSBOROUGH AVE", "amenity": "post_box", "collection_times": "Mo-Fr 15:00", "note": "ON 12/24 AND 12/31, THIS BOX MAY BE COLLECTED AS EARLY AS 12 NOON.", "nsi_id": "unitedstatespostalservice-a77078", "operator": "United States Postal Service", "operator:short": "USPS", "operator:type": "public", "operator:wikidata": "Q668687", "ref": "3361000045"}, "type": "Feature"}
{"geometry": {"coordinates": [-82.4286915, 27.996113523], "type": "Point"}, "id": "dQXy-ItlJMdsEIyKFYBdGZZ-Y_8=", "properties": {"@source_uri": "https://tools.usps.com/UspsToolsRestServices/rest/POLocator/findLocations", "@spider": "usps_collection_boxes", "addr:city": "TAMPA", "addr:country": "US", "addr:postcode": "33610", "addr:state": "FL", "addr:street_address": "2810 E HILLSBOROUGH AVE", "amenity": "post_box", "collection_times": "Mo-Fr 17:00", "indoor": "yes", "note": "ON 12/24 AND 12/31, THIS BOX MAY BE COLLECTED AS EARLY AS 12 NOON.", "nsi_id": "unitedstatespostalservice-a77078", "operator": "United States Postal Service", "operator:short": "USPS", "operator:type": "public", "operator:wikidata": "Q668687", "ref": "3361000049"}, "type": "Feature"}
{"geometry": {"coordinates": [-82.503022, 27.906097], "type": "Point"}, "id": "JEJ35mhjeJIpys367wBsvt8DyTU=", "properties": {"@source_uri": "https://tools.usps.com/UspsToolsRestServices/rest/POLocator/findLocations", "@spider": "usps_collection_boxes", "addr:city": "TAMPA", "addr:country": "US", "addr:postcode": "33611", "addr:state": "FL", "addr:street_address": "3902 BRITTON PLZ", "amenity": "post_box", "collection_times": "Mo-Fr 14:30; Sa 14:00", "note": "ON 12/24 AND 12/31, THIS BOX MAY BE COLLECTED AS EARLY AS 12 NOON.", "nsi_id": "unitedstatespostalservice-a77078", "operator": "United States Postal Service", "operator:short": "USPS", "operator:type": "public", "operator:wikidata": "Q668687", "ref": "3361100004"}, "type": "Feature"}
{"geometry": {"coordinates": [-82.521395, 27.8934], "type": "Point"}, "id": "D7UG4igwlRiSzLnmzTNQqVb41jU=", "properties": {"@source_uri": "https://tools.usps.com/UspsToolsRestServices/rest/POLocator/findLocations", "@spider": "usps_collection_boxes", "addr:city": "TAMPA", "addr:country": "US", "addr:postcode": "33611", "addr:state": "FL", "addr:street_address": "4802 W GANDY BLVD", "amenity": "post_box", "collection_times": "Mo-Fr 10:00", "nsi_id": "unitedstatespostalservice-a77078", "operator": "United States Postal Service", "operator:short": "USPS", "operator:type": "public", "operator:wikidata": "Q668687", "ref": "3361100011"}, "type": "Feature"}
{"geometry": {"coordinates": [-82.521395, 27.8934], "type": "Point"}, "id": "b9LwnERiKEh-OLhx9USzVFD3iM8=", "properties": {"@source_uri": "https://tools.usps.com/UspsToolsRestServices/rest/POLocator/findLocations", "@spider": "usps_collection_boxes", "addr:city": "TAMPA", "addr:country": "US", "addr:postcode": "33611", "addr:state": "FL", "addr:street_address": "4851 W GANDY BLVD", "amenity": "post_box", "collection_times": "Mo-Fr 14:00; Sa 12:00", "note": "ON 12/24 AND 12/31, THIS BOX MAY BE COLLECTED AS EARLY AS 12 NOON.", "nsi_id": "unitedstatespostalservice-a77078", "operator": "United States Postal Service", "operator:short": "USPS", "operator:type": "public", "operator:wikidata": "Q668687", "ref": "3361100012"}, "type": "Feature"}
{"geometry": {"coordinates": [-82.521395, 27.8934], "type": "Point"}, "id": "YGczfCzHicj9S9utlGLaJpqn-nw=", "properties": {"@source_uri": "https://tools.usps.com/UspsToolsRestServices/rest/POLocator/findLocations", "@spider": "usps_collection_boxes", "addr:city": "TAMPA", "addr:country": "US", "addr:postcode": "33611", "addr:state": "FL", "addr:street_address": "4003 S WEST SHORE BLVD", "amenity": "post_box", "collection_times": "Mo-Fr 15:00; Sa 12:00", "note": "ON 12/24 AND 12/31, THIS BOX MAY BE COLLECTED AS EARLY AS 12 NOON.", "nsi_id": "unitedstatespostalservice-a77078", "operator": "United States Postal Service", "operator:short": "USPS", "operator:type": "public", "operator:wikidata": "Q668687", "ref": "3361100022"}, "type": "Feature"}
{"geometry": {"coordinates": [-82.522221, 27.896292], "type": "Point"}, "id": "YlfRfktZey5ZNrIJuFWheE_OQ9k=", "properties": {"@source_uri": "https://tools.usps.com/UspsToolsRestServices/rest/POLocator/findLocations", "@spider": "usps_collection_boxes", "addr:city": "TAMPA", "addr:country": "US", "addr:postcode": "33611", "addr:state": "FL", "addr:street_address": "4520 W OAKELLAR AVE", "amenity": "post_box", "collection_times": "Mo-Fr 17:00; Sa 15:30", "note": "ON 12/24 AND 12/31, THIS BOX MAY BE COLLECTED AS EARLY AS 12 NOON.", "nsi_id": "unitedstatespostalservice-a77078", "operator": "United States Postal Service", "operator:short": "USPS", "operator:type": "public", "operator:wikidata": "Q668687", "ref": "3361100027"}, "type": "Feature"}
{"geometry": {"coordinates": [-82.522592407, 27.896267517], "type": "Point"}, "id": "Flqj01GlV9KxIbzQm1bV1YO8Pck=", "properties": {"@source_uri": "https://tools.usps.com/UspsToolsRestServices/rest/POLocator/findLocations", "@spider": "usps_collection_boxes", "addr:city": "TAMPA", "addr:country": "US", "addr:postcode": "33611", "addr:state": "FL", "addr:street_address": "4520 W OAKELLAR AVE", "amenity": "post_box", "collection_times": "Mo-Fr 17:00; Sa 12:00", "indoor": "yes", "note": "ON 12/24 AND 12/31, THIS BOX MAY BE COLLECTED AS EARLY AS 12 NOON.", "nsi_id": "unitedstatespostalservice-a77078", "operator": "United States Postal Service", "operator:short": "USPS", "operator:type": "public", "operator:wikidata": "Q668687", "ref": "3361100038"}, "type": "Feature"}
{"geometry": {"coordinates": [-82.521395, 27.8934], "type": "Point"}, "id": "vW8ix0WStHKarWChM4I4TZEa3Hc=", "properties": {"@source_uri": "https://tools.usps.com/UspsToolsRestServices/rest/POLocator/findLocations", "@spider": "usps_collection_boxes", "addr:city": "TAMPA", "addr:country": "US", "addr:postcode": "33611", "addr:state": "FL", "addr:street_address": "8106 CONDOR ST", "amenity": "post_box", "collection_times": "Mo-Fr 16:30", "indoor": "yes", "note": "ON 12/24 AND 12/31, THIS BOX MAY BE COLLECTED AS EARLY AS 12 NOON.", "nsi_id": "unitedstatespostalservice-a77078", "operator": "United States Postal Service", "operator:short": "USPS", "operator:type": "public", "operator:wikidata": "Q668687", "ref": "3361100039"}, "type": "Feature"}
{"geometry": {"coordinates": [-82.4578594, 28.033652], "type": "Point"}, "id": "UOaNL8E2Ggigto9CGvUtyOcuG_8=", "properties": {"@source_uri": "https://tools.usps.com/UspsToolsRestServices/rest/POLocator/findLocations", "@spider": "usps_collection_boxes", "addr:city": "TAMPA", "addr:country": "US", "addr:postcode": "33612", "addr:state": "FL", "addr:street_address": "9215 N FLORIDA AVE", "amenity": "post_box", "collection_times": "Mo-Fr 08:30", "nsi_id": "unitedstatespostalservice-a77078", "operator": "United States Postal Service", "operator:short": "USPS", "operator:type": "public", "operator:wikidata": "Q668687", "ref": "3361200009"}, "type": "Feature"}
{"geometry": {"coordinates": [-82.4391356, 28.054076], "type": "Point"}, "id": "ZRtq6g-jTbV9z_W60xcpiSFUVAA=", "properties": {"@source_uri": "https://tools.usps.com/UspsToolsRestServices/rest/POLocator/findLocations", "@spider": "usps_collection_boxes", "addr:city": "TAMPA", "addr:country": "US", "addr:postcode": "33612", "addr:state": "FL", "addr:street_address": "1715 E FOWLER AVE", "amenity": "post_box", "collection_times": "Mo-Sa 13:00", "note": "ON 12/24 AND 12/31, THIS BOX MAY BE COLLECTED AS EARLY AS 12 NOON.", "nsi_id": "unitedstatespostalservice-a77078", "operator": "United States Postal Service", "operator:short": "USPS", "operator:type": "public", "operator:wikidata": "Q668687", "ref": "3361200010"}, "type": "Feature"}
{"geometry": {"coordinates": [-82.4365173, 28.056355], "type": "Point"}, "id": "KQ3Q8kWYncu7NgEJwpXphZA2GF0=", "properties": {"@source_uri": "https://tools.usps.com/UspsToolsRestServices/rest/POLocator/findLocations", "@spider": "usps_collection_boxes", "addr:city": "TAMPA", "addr:country": "US", "addr:postcode": "33612", "addr:state": "FL", "addr:street_address": "2200 E FOWLER AVE", "amenity": "post_box", "collection_times": "Mo-Sa 13:00", "note": "ON 12/24 AND 12/31, THIS BOX MAY BE COLLECTED AS EARLY AS 12 NOON.", "nsi_id": "unitedstatespostalservice-a77078", "operator": "United States Postal Service", "operator:short": "USPS", "operator:type": "public", "operator:wikidata": "Q668687", "ref": "3361200012"}, "type": "Feature"}
{"geometry": {"coordinates": [-82.4683293, 28.040071], "type": "Point"}, "id": "NnTNltJ2IKDYbX8ZcSCapY3DYhA=", "properties": {"@source_uri": "https://tools.usps.com/UspsToolsRestServices/rest/POLocator/findLocations", "@spider": "usps_collection_boxes", "addr:city": "TAMPA", "addr:country": "US", "addr:postcode": "33612", "addr:state": "FL", "addr:street_address": "905 W LINEBAUGH AVE", "amenity": "post_box", "collection_times": "Mo-Fr 10:00", "nsi_id": "unitedstatespostalservice-a77078", "operator": "United States Postal Service", "operator:short": "USPS", "operator:type": "public", "operator:wikidata": "Q668687", "ref": "3361200013"}, "type": "Feature"}
{"geometry": {"coordinates": [-82.459612, 28.057311], "type": "Point"}, "id": "r9nJTMhaPjMcUPMNxLNKu8-LTOw=", "properties": {"@source_uri": "https://tools.usps.com/UspsToolsRestServices/rest/POLocator/findLocations", "@spider": "usps_collection_boxes", "addr:city": "TAMPA", "addr:country": "US", "addr:postcode": "33612", "addr:state": "FL", "addr:street_address": "11800 N FLORIDA AVE", "amenity": "post_box", "collection_times": "Mo-Fr 18:00; Sa 16:00", "note": "ON 12/24 AND 12/31, THIS BOX MAY BE COLLECTED AS EARLY AS 12 NOON.", "nsi_id": "unitedstatespostalservice-a77078", "operator": "United States Postal Service", "operator:short": "USPS", "operator:type": "public", "operator:wikidata": "Q668687", "ref": "3361200019"}, "type": "Feature"}
{"geometry": {"coordinates": [-82.4599015, 28.056931], "type": "Point"}, "id": "V6gCn2xLRzBwoqWk80dMESYtnj8=", "properties": {"@source_uri": "https://tools.usps.com/UspsToolsRestServices/rest/POLocator/findLocations", "@spider": "usps_collection_boxes", "addr:city": "TAMPA", "addr:country": "US", "addr:postcode": "33612", "addr:state": "FL", "addr:street_address": "11800 N FLORIDA AVE", "amenity": "post_box", "collection_times": "Mo-Fr 18:00; Sa 16:00", "name": "USPS COLLECTION BOX - APC", "note": "ON 12/24 AND 12/31, THIS BOX MAY BE COLLECTED AS EARLY AS 12 NOON.", "nsi_id": "unitedstatespostalservice-a77078", "operator": "United States Postal Service", "operator:short": "USPS", "operator:type": "public", "operator:wikidata": "Q668687", "ref": "3361200040"}, "type": "Feature"}
{"geometry": {"coordinates": [-82.45939264, 28.056888795], "type": "Point"}, "id": "i4x0rM4fg7VkQ9fYj9mxFE8hQJY=", "properties": {"@source_uri": "https://tools.usps.com/UspsToolsRestServices/rest/POLocator/findLocations", "@spider": "usps_collection_boxes", "addr:city": "TAMPA", "addr:country": "US", "addr:postcode": "33612", "addr:state": "FL", "addr:street_address": "11800 N FLORIDA AVE", "amenity": "post_box", "collection_times": "Mo-Fr 18:00; Sa 12:00", "indoor": "yes", "note": "ON 12/24 AND 12/31, THIS BOX MAY BE COLLECTED AS EARLY AS 12 NOON.", "nsi_id": "unitedstatespostalservice-a77078", "operator": "United States Postal Service", "operator:short": "USPS", "operator:type": "public", "operator:wikidata": "Q668687", "ref": "3361200045"}, "type": "Feature"}
{"geometry": {"coordinates": [-82.4248976, 28.073322], "type": "Point"}, "id": "GSgXr0FPZjItuaEmQEGoALtDm7A=", "properties": {"@source_uri": "https://tools.usps.com/UspsToolsRestServices/rest/POLocator/findLocations", "@spider": "usps_collection_boxes", "addr:city": "TAMPA", "addr:country": "US", "addr:postcode": "33613", "addr:state": "FL", "addr:street_address": "13801 BRUCE B DOWNS BLVD", "amenity": "post_box", "collection_times": "Mo-Sa 13:00", "note": "ON 12/24 AND 12/31, THIS BOX MAY BE COLLECTED AS EARLY AS 12 NOON.", "nsi_id": "unitedstatespostalservice-a77078", "operator": "United States Postal Service", "operator:short": "USPS", "operator:type": "public", "operator:wikidata": "Q668687", "ref": "3361300001"}, "type": "Feature"}
{"geometry": {"coordinates": [-82.458927, 28.089293], "type": "Point"}, "id": "0x4ABU5n2mbrj_CEP-yi3vqPdj4=", "properties": {"@source_uri": "https://tools.usps.com/UspsToolsRestServices/rest/POLocator/findLocations", "@spider": "usps_collection_boxes", "addr:city": "TAMPA", "addr:country": "US", "addr:postcode": "33613", "addr:state": "FL", "addr:street_address": "218 E BEARSS AVE", "amenity": "post_box", "collection_times": "Mo-Sa 13:00", "note": "ON 12/24 AND 12/31, THIS BOX MAY BE COLLECTED AS EARLY AS 12 NOON.", "nsi_id": "unitedstatespostalservice-a77078", "operator": "United States Postal Service", "operator:short": "USPS", "operator:type": "public", "operator:wikidata": "Q668687", "ref": "3361300011"}, "type": "Feature"}
{"geometry": {"coordinates": [-82.4614071, 28.094852], "type": "Point"}, "id": "VPKEpYmGZEtt0rylr5KA9oZOfEg=", "properties": {"@source_uri": "https://tools.usps.com/UspsToolsRestServices/rest/POLocator/findLocations", "@spider": "usps_collection_boxes", "addr:city": "TAMPA", "addr:country": "US", "addr:postcode": "33613", "addr:state": "FL", "addr:street_address": "15526 N FLORIDA AVE", "amenity": "post_box", "collection_times": "Mo-Sa 13:00", "note": "ON 12/24 AND 12/31, THIS BOX MAY BE COLLECTED AS EARLY AS 12 NOON.", "nsi_id": "unitedstatespostalservice-a77078", "operator": "United States Postal Service", "operator:short": "USPS", "operator:type": "public", "operator:wikidata": "Q668687", "ref": "3361300013"}, "type": "Feature"}
{"geometry": {"coordinates": [-82.42366, 28.069237], "type": "Point"}, "id": "yY8lkR57s94o9Fl_KNlt0d8jPh8=", "properties": {"@source_uri": "https://tools.usps.com/UspsToolsRestServices/rest/POLocator/findLocations", "@spider": "usps_collection_boxes", "addr:city": "TAMPA", "addr:country": "US", "addr:postcode": "33613", "addr:state": "FL", "addr:street_address": "3100 E FLETCHER AVE", "amenity": "post_box", "collection_times": "Mo-Fr 12:15", "note": "ON 12/24 AND 12/31, THIS BOX MAY BE COLLECTED AS EARLY AS 12 NOON.", "nsi_id": "unitedstatespostalservice-a77078", "operator": "United States Postal Service", "operator:short": "USPS", "operator:type": "public", "operator:wikidata": "Q668687", "ref": "3361300016"}, "type": "Feature"}
{"geometry": {"coordinates": [-82.41959, 28.069217], "type": "Point"}, "id": "5pHwNfiFUihlbMetFiQH7v7kL7c=", "properties": {"@source_uri": "https://tools.usps.com/UspsToolsRestServices/rest/POLocator/findLocations", "@spider": "usps_collection_boxes", "addr:city": "TAMPA", "addr:country": "US", "addr:postcode": "33613", "addr:state": "FL", "addr:street_address": "3500 E FLETCHER AVE", "amenity": "post_box", "collection_times": "Mo-Fr 12:00", "nsi_id": "unitedstatespostalservice-a77078", "operator": "United States Postal Service", "operator:short": "USPS", "operator:type": "public", "operator:wikidata": "Q668687", "ref": "3361300026"}, "type": "Feature"}
{"geometry": {"coordinates": [-82.4210555, 28.080246], "type": "Point"}, "id": "07dspzmHckS1HtZ4GHy8vMJkoN4=", "properties": {"@source_uri": "https://tools.usps.com/UspsToolsRestServices/rest/POLocator/findLocations", "@spider": "usps_collection_boxes", "addr:city": "TAMPA", "addr:country": "US", "addr:postcode": "33613", "addr:state": "FL", "addr:street_address": "14529 BRUCE B DOWNS BLVD", "amenity": "post_box", "collection_times": "Mo-Sa 12:00", "nsi_id": "unitedstatespostalservice-a77078", "operator": "United States Postal Service", "operator:short": "USPS", "operator:type": "public", "operator:wikidata": "Q668687", "ref": "3361300028"}, "type": "Feature"}
{"geometry": {"coordinates": [-82.5039578, 28.014002], "type": "Point"}, "id": "WZEWXuzitNBBWlbz9S59zddzakU=", "properties": {"@source_uri": "https://tools.usps.com/UspsToolsRestServices/rest/POLocator/findLocations", "@spider": "usps_collection_boxes", "addr:city": "TAMPA", "addr:country": "US", "addr:postcode": "33614", "addr:state": "FL", "addr:street_address": "7171 N DALE MABRY HWY", "amenity": "post_box", "collection_times": "Mo-Fr 12:00; Sa 09:30", "nsi_id": "unitedstatespostalservice-a77078", "operator": "United States Postal Service", "operator:short": "USPS", "operator:type": "public", "operator:wikidata": "Q668687", "ref": "3361400005"}, "type": "Feature"}
{"geometry": {"coordinates": [-82.5055627, 28.032214], "type": "Point"}, "id": "_rndNGogLKI5V4kriKj-H3Do9LE=", "properties": {"@source_uri": "https://tools.usps.com/UspsToolsRestServices/rest/POLocator/findLocations", "@spider": "usps_collection_boxes", "addr:city": "TAMPA", "addr:country": "US", "addr:postcode": "33614", "addr:state": "FL", "addr:street_address": "8902 N DALE MABRY HWY", "amenity": "post_box", "collection_times": "Mo-Fr 11:00; Sa 10:00", "nsi_id": "unitedstatespostalservice-a77078", "operator": "United States Postal Service", "operator:short": "USPS", "operator:type": "public", "operator:wikidata": "Q668687", "ref": "3361400009"}, "type": "Feature"}
{"geometry": {"coordinates": [-82.5022416, 28.0088202], "type": "Point"}, "id": "BWy8FJBLGLJuS3m746ezPjUrUtE=", "properties": {"@source_uri": "https://tools.usps.com/UspsToolsRestServices/rest/POLocator/findLocations", "@spider": "usps_collection_boxes", "addr:city": "TAMPA", "addr:country": "US", "addr:postcode": "33614", "addr:state": "FL", "addr:street_address": "4600 N HABANA AVE", "amenity": "post_box", "collection_times": "Mo-Fr 12:00; Sa 10:00", "nsi_id": "unitedstatespostalservice-a77078", "operator": "United States Postal Service", "operator:short": "USPS", "operator:type": "public", "operator:wikidata": "Q668687", "ref": "3361400011"}, "type": "Feature"}
{"geometry": {"coordinates": [-82.4945704, 27.99681], "type": "Point"}, "id": "ghxHTWc9SDtUMJwD8wC--4MTMlw=", "properties": {"@source_uri": "https://tools.usps.com/UspsToolsRestServices/rest/POLocator/findLocations", "@spider": "usps_collection_boxes", "addr:city": "TAMPA", "addr:country": "US", "addr:postcode": "33614", "addr:state": "FL", "addr:street_address": "3201 W HILLSBOROUGH AVE", "amenity": "post_box", "collection_times": "Mo-Fr 17:00; Sa 16:00", "note": "ON 12/24 AND 12/31, THIS BOX MAY BE COLLECTED AS EARLY AS 12 NOON.", "nsi_id": "unitedstatespostalservice-a77078", "operator": "United States Postal Service", "operator:short": "USPS", "operator:type": "public", "operator:wikidata": "Q668687", "ref": "3361400016"}, "type": "Feature"}
{"geometry": {"coordinates": [-82.5013537, 28.025641], "type": "Point"}, "id": "ZcZuL0dQ3fx3yBti3evEBbVnScQ=", "properties": {"@source_uri": "https://tools.usps.com/UspsToolsRestServices/rest/POLocator/findLocations", "@spider": "usps_collection_boxes", "addr:city": "TAMPA", "addr:country": "US", "addr:postcode": "33614", "addr:state": "FL", "addr:street_address": "3601 W WATERS AVE", "amenity": "post_box", "collection_times": "Mo-Fr 11:00; Sa 09:30", "nsi_id": "unitedstatespostalservice-a77078", "operator": "United States Postal Service", "operator:short": "USPS", "operator:type": "public", "operator:wikidata": "Q668687", "ref": "3361400032"}, "type": "Feature"}
{"geometry": {"coordinates": [-82.5212129869, 28.0223579928], "type": "Point"}, "id": "SjjCOrWD1F9eFWQp6_uK2Z5aeE0=", "properties": {"@source_uri": "https://tools.usps.com/UspsToolsRestServices/rest/POLocator/findLocations", "@spider": "usps_collection_boxes", "addr:city": "TAMPA", "addr:country": "US", "addr:postcode": "33614", "addr:state": "FL", "addr:street_address": "4620 WOODLAND CORPORATE BLVD", "amenity": "post_box", "collection_times": "Mo-Fr 11:00", "nsi_id": "unitedstatespostalservice-a77078", "operator": "United States Postal Service", "operator:short": "USPS", "operator:type": "public", "operator:wikidata": "Q668687", "ref": "3361400037"}, "type": "Feature"}
{"geometry": {"coordinates": [-82.4943704, 28.025068], "type": "Point"}, "id": "Yxkztzg8hVmrBXCHDO2EzBdZAsA=", "properties": {"@source_uri": "https://tools.usps.com/UspsToolsRestServices/rest/POLocator/findLocations", "@spider": "usps_collection_boxes", "addr:city": "TAMPA", "addr:country": "US", "addr:postcode": "33614", "addr:state": "FL", "addr:street_address": "3202 W WATERS AVE", "amenity": "post_box", "collection_times": "Mo-Fr 11:30; Sa 10:00", "nsi_id": "unitedstatespostalservice-a77078", "operator": "United States Postal Service", "operator:short": "USPS", "operator:type": "public", "operator:wikidata": "Q668687", "ref": "3361400042"}, "type": "Feature"}
{"geometry": {"coordinates": [-82.494568769, 27.996346769], "type": "Point"}, "id": "Hws_JoyRom7SwfhcwqGTRc3CLNw=", "properties": {"@source_uri": "https://tools.usps.com/UspsToolsRestServices/rest/POLocator/findLocations", "@spider": "usps_collection_boxes", "addr:city": "TAMPA", "addr:country": "US", "addr:postcode": "33614", "addr:state": "FL", "addr:street_address": "3201 W HILLSBOROUGH AVE", "amenity": "post_box", "collection_times": "Mo-Fr 18:00; Sa 14:00", "indoor": "yes", "note": "ON 12/24 AND 12/31, THIS BOX MAY BE COLLECTED AS EARLY AS 12 NOON.", "nsi_id": "unitedstatespostalservice-a77078", "operator": "United States Postal Service", "operator:short": "USPS", "operator:type": "public", "operator:wikidata": "Q668687", "ref": "3361400053"}, "type": "Feature"}
{"geometry": {"coordinates": [-82.569803, 27.985236], "type": "Point"}, "id": "ppzSfXwtouFrJ_OOHNW4v4jmJto=", "properties": {"@source_uri": "https://tools.usps.com/UspsToolsRestServices/rest/POLocator/findLocations", "@spider": "usps_collection_boxes", "addr:city": "TAMPA", "addr:country": "US", "addr:postcode": "33615", "addr:state": "FL", "addr:street_address": "5901 MEMORIAL HWY", "amenity": "post_box", "collection_times": "Mo-Sa 09:45", "nsi_id": "unitedstatespostalservice-a77078", "operator": "United States Postal Service", "operator:short": "USPS", "operator:type": "public", "operator:wikidata": "Q668687", "ref": "3361500004"}, "type": "Feature"}
{"geometry": {"coordinates": [-82.5744049636, 28.0036469866], "type": "Point"}, "id": "gt91gqUhC0HBwMhoUvuXJv1VQwg=", "properties": {"@source_uri": "https://tools.usps.com/UspsToolsRestServices/rest/POLocator/findLocations", "@spider": "usps_collection_boxes", "addr:city": "TAMPA", "addr:country": "US", "addr:postcode": "33615", "addr:state": "FL", "addr:street_address": "6101 WEBB RD", "amenity": "post_box", "collection_times": "Mo-Sa 11:00", "nsi_id": "unitedstatespostalservice-a77078", "operator": "United States Postal Service", "operator:short": "USPS", "operator:type": "public", "operator:wikidata": "Q668687", "ref": "3361500013"}, "type": "Feature"}
{"geometry": {"coordinates": [-82.57066, 27.99309], "type": "Point"}, "id": "GG4yPo0_hZCaibTcKgUd8zKJE_s=", "properties": {"@source_uri": "https://tools.usps.com/UspsToolsRestServices/rest/POLocator/findLocations", "@spider": "usps_collection_boxes", "addr:city": "TAMPA", "addr:country": "US", "addr:postcode": "33615", "addr:state": "FL", "addr:street_address": "7521 PAULA DR", "amenity": "post_box", "collection_times": "Mo-Fr 17:00; Sa 16:00", "note": "ON 12/24 AND 12/31, THIS BOX MAY BE COLLECTED AS EARLY AS 12 NOON.", "nsi_id": "unitedstatespostalservice-a77078", "operator": "United States Postal Service", "operator:short": "USPS", "operator:type": "public", "operator:wikidata": "Q668687", "ref": "3361500014"}, "type": "Feature"}
{"geometry": {"coordinates": [-82.57066, 27.99309], "type": "Point"}, "id": "L1A9VHuucFPaYaOlXtdpGGGb-Iw=", "properties": {"@source_uri": "https://tools.usps.com/UspsToolsRestServices/rest/POLocator/findLocations", "@spider": "usps_collection_boxes", "addr:city": "TAMPA", "addr:country": "US", "addr:postcode": "33615", "addr:state": "FL", "addr:street_address": "5537 SHELDON RD", "amenity": "post_box", "collection_times": "Mo-Sa 11:00", "nsi_id": "unitedstatespostalservice-a77078", "operator": "United States Postal Service", "operator:short": "USPS", "operator:type": "public", "operator:wikidata": "Q668687", "ref": "3361500029"}, "type": "Feature"}
{"geometry": {"coordinates": [-82.5633034, 27.996961], "type": "Point"}, "id": "uenqyxTt8zLhJUNw0g_VujWacPM=", "properties": {"@source_uri": "https://tools.usps.com/UspsToolsRestServices/rest/POLocator/findLocations", "@spider": "usps_collection_boxes", "addr:city": "TAMPA", "addr:country": "US", "addr:postcode": "33615", "addr:state": "FL", "addr:street_address": "7501 W HILLSBOROUGH AVE", "amenity": "post_box", "collection_times": "Mo-Sa 10:30", "nsi_id": "unitedstatespostalservice-a77078", "operator": "United States Postal Service", "operator:short": "USPS", "operator:type": "public", "operator:wikidata": "Q668687", "ref": "3361500030"}, "type": "Feature"}
{"geometry": {"coordinates": [-82.581107, 28.005296], "type": "Point"}, "id": "GVdxwkN63UjpH1h6PdDuXr8G4fs=", "properties": {"@source_uri": "https://tools.usps.com/UspsToolsRestServices/rest/POLocator/findLocations", "@spider": "usps_collection_boxes", "addr:city": "TAMPA", "addr:country": "US", "addr:postcode": "33615", "addr:state": "FL", "addr:street_address": "7521 PAULA DR", "amenity": "post_box", "collection_times": "Mo-Fr 17:00; Sa 16:00", "name": "USPS COLLECTION BOX - APC", "note": "ON 12/24 AND 12/31, THIS BOX MAY BE COLLECTED AS EARLY AS 12 NOON.", "nsi_id": "unitedstatespostalservice-a77078", "operator": "United States Postal Service", "operator:short": "USPS", "operator:type": "public", "operator:wikidata": "Q668687", "ref": "3361500034"}, "type": "Feature"}
{"geometry": {"coordinates": [-82.581107, 28.005296], "type": "Point"}, "id": "Fk94sYtI2ruK77l8ojiQmXHxyW0=", "properties": {"@source_uri": "https://tools.usps.com/UspsToolsRestServices/rest/POLocator/findLocations", "@spider": "usps_collection_boxes", "addr:city": "TAMPA", "addr:country": "US", "addr:postcode": "33615", "addr:state": "FL", "addr:street_address": "7521 PAULA DR", "amenity": "post_box", "collection_times": "Mo-Fr 18:00; Sa 13:00", "indoor": "yes", "note": "ON 12/24 AND 12/31, THIS BOX MAY BE COLLECTED AS EARLY AS 12 NOON.", "nsi_id": "unitedstatespostalservice-a77078", "operator": "United States Postal Service", "operator:short": "USPS", "operator:type": "public", "operator:wikidata": "Q668687", "ref": "3361500038"}, "type": "Feature"}
{"geometry": {"coordinates": [-82.5278339, 27.864206], "type": "Point"}, "id": "5LBIVxQo49R4cgafeA7aeEsqNRQ=", "properties": {"@source_uri": "https://tools.usps.com/UspsToolsRestServices/rest/POLocator/findLocations", "@spider": "usps_collection_boxes", "addr:city": "TAMPA", "addr:country": "US", "addr:postcode": "33616", "addr:state": "FL", "addr:street_address": "4902 W COMMERCE ST", "amenity": "post_box", "collection_times": "Mo-Sa 10:45", "nsi_id": "unitedstatespostalservice-a77078", "operator": "United States Postal Service", "operator:short": "USPS", "operator:type": "public", "operator:wikidata": "Q668687", "ref": "3361600001"}, "type": "Feature"}
{"geometry": {"coordinates": [-82.3939606, 28.057164], "type": "Point"}, "id": "Kev3qn2FPuqfFvNMDdO6dP29wXs=", "properties": {"@source_uri": "https://tools.usps.com/UspsToolsRestServices/rest/POLocator/findLocations", "@spider": "usps_collection_boxes", "addr:city": "TEMPLE TERRACE", "addr:country": "US", "addr:postcode": "33617", "addr:state": "FL", "addr:street_address": "11816 N 56TH ST", "amenity": "post_box", "collection_times": "Mo-Fr 14:35; Sa 13:30", "note": "ON 12/24 AND 12/31, THIS BOX MAY BE COLLECTED AS EARLY AS 12 NOON.", "nsi_id": "unitedstatespostalservice-a77078", "operator": "United States Postal Service", "operator:short": "USPS", "operator:type": "public", "operator:wikidata": "Q668687", "ref": "3361700017"}, "type": "Feature"}
{"geometry": {"coordinates": [-82.3818007, 28.054604], "type": "Point"}, "id": "anYhxShCWoItrvsvp8cfFP3ojsA=", "properties": {"@source_uri": "https://tools.usps.com/UspsToolsRestServices/rest/POLocator/findLocations", "@spider": "usps_collection_boxes", "addr:city": "TEMPLE TERRACE", "addr:country": "US", "addr:postcode": "33617", "addr:state": "FL", "addr:street_address": "6314 E FOWLER AVE", "amenity": "post_box", "collection_times": "Mo-Sa 12:00", "nsi_id": "unitedstatespostalservice-a77078", "operator": "United States Postal Service", "operator:short": "USPS", "operator:type": "public", "operator:wikidata": "Q668687", "ref": "3361700018"}, "type": "Feature"}
{"geometry": {"coordinates": [-82.3842589, 28.034441], "type": "Point"}, "id": "3f4uYodw_bj3uhY8eMlULcgRq_k=", "properties": {"@source_uri": "https://tools.usps.com/UspsToolsRestServices/rest/POLocator/findLocations", "@spider": "usps_collection_boxes", "addr:city": "TEMPLE TERRACE", "addr:country": "US", "addr:postcode": "33617", "addr:state": "FL", "addr:street_address": "119 N GLEN ARVEN AVE", "amenity": "post_box", "collection_times": "Mo-Sa 10:30", "nsi_id": "unitedstatespostalservice-a77078", "operator": "United States Postal Service", "operator:short": "USPS", "operator:type": "public", "operator:wikidata": "Q668687", "ref": "3361700021"}, "type": "Feature"}
{"geometry": {"coordinates": [-82.3942229629, 28.0504480135], "type": "Point"}, "id": "bltdMYik-pzOJilPV-0bvsYPgh8=", "properties": {"@source_uri": "https://tools.usps.com/UspsToolsRestServices/rest/POLocator/findLocations", "@spider": "usps_collection_boxes", "addr:city": "TEMPLE TERRACE", "addr:country": "US", "addr:postcode": "33617", "addr:state": "FL", "addr:street_address": "11250 N 56TH ST", "amenity": "post_box", "collection_times": "Mo-Sa 11:30", "nsi_id": "unitedstatespostalservice-a77078", "operator": "United States Postal Service", "operator:short": "USPS", "operator:type": "public", "operator:wikidata": "Q668687", "ref": "3361700041"}, "type": "Feature"}
{"geometry": {"coordinates": [-82.3918908, 28.028364], "type": "Point"}, "id": "w_G1GcBLxyfndOJjfA-o4aARqpc=", "properties": {"@source_uri": "https://tools.usps.com/UspsToolsRestServices/rest/POLocator/findLocations", "@spider": "usps_collection_boxes", "addr:city": "TEMPLE TERRACE", "addr:country": "US", "addr:postcode": "33617", "addr:state": "FL", "addr:street_address": "8761 N 56TH ST", "amenity": "post_box", "collection_times": "Mo-Fr 17:00; Sa 14:30", "name": "USPS COLLECTION BOX - APC", "note": "ON 12/24 AND 12/31, THIS BOX MAY BE COLLECTED AS EARLY AS 12 NOON.", "nsi_id": "unitedstatespostalservice-a77078", "operator": "United States Postal Service", "operator:short": "USPS", "operator:type": "public", "operator:wikidata": "Q668687", "ref": "3361700042"}, "type": "Feature"}
{"geometry": {"coordinates": [-82.3975675567, 28.0488441613], "type": "Point"}, "id": "-RnfYrOYl3QkNiVIIJCWdGiR_wo=", "properties": {"@source_uri": "https://tools.usps.com/UspsToolsRestServices/rest/POLocator/findLocations", "@spider": "usps_collection_boxes", "addr:city": "TEMPLE TERRACE", "addr:country": "US", "addr:postcode": "33617", "addr:state": "FL", "addr:street_address": "8761 N 56TH ST", "amenity": "post_box", "collection_times": "Mo-Fr 17:00; Sa 14:30", "note": "ON 12/24 AND 12/31, THIS BOX MAY BE COLLECTED AS EARLY AS 12 NOON.", "nsi_id": "unitedstatespostalservice-a77078", "operator": "United States Postal Service", "operator:short": "USPS", "operator:type": "public", "operator:wikidata": "Q668687", "ref": "3361700044"}, "type": "Feature"}
{"geometry": {"coordinates": [-82.39341251, 28.028737797], "type": "Point"}, "id": "aWr4Sbgv-Ml3mKLqK_lIUrSnTCQ=", "properties": {"@source_uri": "https://tools.usps.com/UspsToolsRestServices/rest/POLocator/findLocations", "@spider": "usps_collection_boxes", "addr:city": "TEMPLE TERRACE", "addr:country": "US", "addr:postcode": "33617", "addr:state": "FL", "addr:street_address": "8761 N 56TH ST", "amenity": "post_box", "collection_times": "Mo-Fr 18:00; Sa 14:30", "indoor": "yes", "note": "ON 12/24 AND 12/31, THIS BOX MAY BE COLLECTED AS EARLY AS 12 NOON.", "nsi_id": "unitedstatespostalservice-a77078", "operator": "United States Postal Service", "operator:short": "USPS", "operator:type": "public", "operator:wikidata": "Q668687", "ref": "3361700050"}, "type": "Feature"}
{"geometry": {"coordinates": [-82.4922599655, 28.0367410034], "type": "Point"}, "id": "rHcrFBz-sdzn88n0nEL9W7tnOgc=", "properties": {"@source_uri": "https://tools.usps.com/UspsToolsRestServices/rest/POLocator/findLocations", "@spider": "usps_collection_boxes", "addr:city": "TAMPA", "addr:country": "US", "addr:postcode": "33618", "addr:state": "FL", "addr:street_address": "2901 W BUSCH BLVD", "amenity": "post_box", "collection_times": "Mo-Sa 11:00", "nsi_id": "unitedstatespostalservice-a77078", "operator": "United States Postal Service", "operator:short": "USPS", "operator:type": "public", "operator:wikidata": "Q668687", "ref": "3361800003"}, "type": "Feature"}
{"geometry": {"coordinates": [-82.5001831, 28.035325], "type": "Point"}, "id": "KLuQEh1LwqmT6KIIRigAGw6crzE=", "properties": {"@source_uri": "https://tools.usps.com/UspsToolsRestServices/rest/POLocator/findLocations", "@spider": "usps_collection_boxes", "addr:city": "TAMPA", "addr:country": "US", "addr:postcode": "33618", "addr:state": "FL", "addr:street_address": "3550 BUSCHWOOD PARK DR", "amenity": "post_box", "collection_times": "Mo-Sa 11:45", "nsi_id": "unitedstatespostalservice-a77078", "operator": "United States Postal Service", "operator:short": "USPS", "operator:type": "public", "operator:wikidata": "Q668687", "ref": "3361800008"}, "type": "Feature"}
{"geometry": {"coordinates": [-82.508087, 28.072457], "type": "Point"}, "id": "95CgOno_BVcBVENFDmZJ5OVFZ9o=", "properties": {"@source_uri": "https://tools.usps.com/UspsToolsRestServices/rest/POLocator/findLocations", "@spider": "usps_collection_boxes", "addr:city": "TAMPA", "addr:country": "US", "addr:postcode": "33618", "addr:state": "FL", "addr:street_address": "13902 N DALE MABRY HWY", "amenity": "post_box", "collection_times": "Mo-Sa 14:00", "note": "ON 12/24 AND 12/31, THIS BOX MAY BE COLLECTED AS EARLY AS 12 NOON.", "nsi_id": "unitedstatespostalservice-a77078", "operator": "United States Postal Service", "operator:short": "USPS", "operator:type": "public", "operator:wikidata": "Q668687", "ref": "3361800016"}, "type": "Feature"}
{"geometry": {"coordinates": [-82.5055172, 28.041172], "type": "Point"}, "id": "4HRkEb0G2VgrB6sdFP0AH8g0m3Y=", "properties": {"@source_uri": "https://tools.usps.com/UspsToolsRestServices/rest/POLocator/findLocations", "@spider": "usps_collection_boxes", "addr:city": "TAMPA", "addr:country": "US", "addr:postcode": "33618", "addr:state": "FL", "addr:street_address": "10008 N DALE MABRY HWY", "amenity": "post_box", "collection_times": "Mo-Sa 10:00", "nsi_id": "unitedstatespostalservice-a77078", "operator": "United States Postal Service", "operator:short": "USPS", "operator:type": "public", "operator:wikidata": "Q668687", "ref": "3361800018"}, "type": "Feature"}
{"geometry": {"coordinates": [-82.5057394, 28.078682], "type": "Point"}, "id": "L1TBuW9ZYNtu5NfcGJkYhPy98vo=", "properties": {"@source_uri": "https://tools.usps.com/UspsToolsRestServices/rest/POLocator/findLocations", "@spider": "usps_collection_boxes", "addr:city": "TAMPA", "addr:country": "US", "addr:postcode": "33618", "addr:state": "FL", "addr:street_address": "14499 N DALE MABRY HWY", "amenity": "post_box", "collection_times": "Mo-Sa 10:00", "nsi_id": "unitedstatespostalservice-a77078", "operator": "United States Postal Service", "operator:short": "USPS", "operator:type": "public", "operator:wikidata": "Q668687", "ref": "3361800022"}, "type": "Feature"}
{"geometry": {"coordinates": [-82.5005449, 28.102306], "type": "Point"}, "id": "Q8nQ0Iz3BvzjJAN9tHCmlpmxvUE=", "properties": {"@source_uri": "https://tools.usps.com/UspsToolsRestServices/rest/POLocator/findLocations", "@spider": "usps_collection_boxes", "addr:city": "TAMPA", "addr:country": "US", "addr:postcode": "33618", "addr:state": "FL", "addr:street_address": "16313 N DALE MABRY HWY", "amenity": "post_box", "collection_times": "Mo-Fr 10:00", "nsi_id": "unitedstatespostalservice-a77078", "operator": "United States Postal Service", "operator:short": "USPS", "operator:type": "public", "operator:wikidata": "Q668687", "ref": "3361800026"}, "type": "Feature"}
{"geometry": {"coordinates": [-82.5020746, 28.062006], "type": "Point"}, "id": "EhGJO93qz90dIIXgqJc1q7KA-XE=", "properties": {"@source_uri": "https://tools.usps.com/UspsToolsRestServices/rest/POLocator/findLocations", "@spider": "usps_collection_boxes", "addr:city": "TAMPA", "addr:country": "US", "addr:postcode": "33618", "addr:state": "FL", "addr:street_address": "12651 N DALE MABRY HWY", "amenity": "post_box", "collection_times": "Mo-Fr 17:00; Sa 16:00", "note": "ON 12/24 AND 12/31, THIS BOX MAY BE COLLECTED AS EARLY AS 12 NOON.", "nsi_id": "unitedstatespostalservice-a77078", "operator": "United States Postal Service", "operator:short": "USPS", "operator:type": "public", "operator:wikidata": "Q668687", "ref": "3361800030"}, "type": "Feature"}
{"geometry": {"coordinates": [-82.5020243, 28.062013], "type": "Point"}, "id": "HJVY9mKLNn7COYS8aZynFwdtfaE=", "properties": {"@source_uri": "https://tools.usps.com/UspsToolsRestServices/rest/POLocator/findLocations", "@spider": "usps_collection_boxes", "addr:city": "TAMPA", "addr:country": "US", "addr:postcode": "33618", "addr:state": "FL", "addr:street_address": "12651 N DALE MABRY HWY", "amenity": "post_box", "collection_times": "Mo-Fr 17:00; Sa 16:00", "note": "ON 12/24 AND 12/31, THIS BOX MAY BE COLLECTED AS EARLY AS 12 NOON.", "nsi_id": "unitedstatespostalservice-a77078", "operator": "United States Postal Service", "operator:short": "USPS", "operator:type": "public", "operator:wikidata": "Q668687", "ref": "3361800031"}, "type": "Feature"}
{"geometry": {"coordinates": [-82.50475, 28.045105], "type": "Point"}, "id": "qn2WRae3dZm0z4smJ7ZQOcSJ4n8=", "properties": {"@source_uri": "https://tools.usps.com/UspsToolsRestServices/rest/POLocator/findLocations", "@spider": "usps_collection_boxes", "addr:city": "TAMPA", "addr:country": "US", "addr:postcode": "33618", "addr:state": "FL", "addr:street_address": "14502 N DALE MABRY HWY", "amenity": "post_box", "collection_times": "Mo-Fr 13:00; Sa 14:00", "note": "ON 12/24 AND 12/31, THIS BOX MAY BE COLLECTED AS EARLY AS 12 NOON.", "nsi_id": "unitedstatespostalservice-a77078", "operator": "United States Postal Service", "operator:short": "USPS", "operator:type": "public", "operator:wikidata": "Q668687", "ref": "3361800042"}, "type": "Feature"}
{"geometry": {"coordinates": [-82.5045237, 28.108616], "type": "Point"}, "id": "htxKduvLMQAYULt0X-hLPsy5fpc=", "properties": {"@source_uri": "https://tools.usps.com/UspsToolsRestServices/rest/POLocator/findLocations", "@spider": "usps_collection_boxes", "addr:city": "TAMPA", "addr:country": "US", "addr:postcode": "33618", "addr:state": "FL", "addr:street_address": "16562 N DALE MABRY HWY", "amenity": "post_box", "collection_times": "Mo-Sa 10:30", "nsi_id": "unitedstatespostalservice-a77078", "operator": "United States Postal Service", "operator:short": "USPS", "operator:type": "public", "operator:wikidata": "Q668687", "ref": "3361800044"}, "type": "Feature"}
{"geometry": {"coordinates": [-82.5029354, 28.094184], "type": "Point"}, "id": "H58u4l_y0cjQLf6neD6m6CNCbn0=", "properties": {"@source_uri": "https://tools.usps.com/UspsToolsRestServices/rest/POLocator/findLocations", "@spider": "usps_collection_boxes", "addr:city": "TAMPA", "addr:country": "US", "addr:postcode": "33618", "addr:state": "FL", "addr:street_address": "15602 N DALE MABRY HWY", "amenity": "post_box", "collection_times": "Mo-Sa 11:30", "nsi_id": "unitedstatespostalservice-a77078", "operator": "United States Postal Service", "operator:short": "USPS", "operator:type": "public", "operator:wikidata": "Q668687", "ref": "3361800047"}, "type": "Feature"}
{"geometry": {"coordinates": [-82.5043591, 28.040526], "type": "Point"}, "id": "vXT2qhJ5Ph0F8uvsBRtLtBuEtbU=", "properties": {"@source_uri": "https://tools.usps.com/UspsToolsRestServices/rest/POLocator/findLocations", "@spider": "usps_collection_boxes", "addr:city": "TAMPA", "addr:country": "US", "addr:postcode": "33618", "addr:state": "FL", "addr:street_address": "10001 N DALE MABRY HWY", "amenity": "post_box", "collection_times": "Mo-Fr 16:00; Sa 13:00", "note": "ON 12/24 AND 12/31, THIS BOX MAY BE COLLECTED AS EARLY AS 12 NOON.", "nsi_id": "unitedstatespostalservice-a77078", "operator": "United States Postal Service", "operator:short": "USPS", "operator:type": "public", "operator:wikidata": "Q668687", "ref": "3361800048"}, "type": "Feature"}
{"geometry": {"coordinates": [-82.5089537, 28.039604], "type": "Point"}, "id": "FPtQxA6BKQpRF5-RKG_k7kDjG9o=", "properties": {"@source_uri": "https://tools.usps.com/UspsToolsRestServices/rest/POLocator/findLocations", "@spider": "usps_collection_boxes", "addr:city": "TAMPA", "addr:country": "US", "addr:postcode": "33618", "addr:state": "FL", "addr:street_address": "4012 GUNN HWY", "amenity": "post_box", "collection_times": "Mo-Sa 11:00", "nsi_id": "unitedstatespostalservice-a77078", "operator": "United States Postal Service", "operator:short": "USPS", "operator:type": "public", "operator:wikidata": "Q668687", "ref": "3361800050"}, "type": "Feature"}
{"geometry": {"coordinates": [-82.506443, 28.03991], "type": "Point"}, "id": "1hz-Y6O4ADw2MhJx0GNYUoKMKMI=", "properties": {"@source_uri": "https://tools.usps.com/UspsToolsRestServices/rest/POLocator/findLocations", "@spider": "usps_collection_boxes", "addr:city": "TAMPA", "addr:country": "US", "addr:postcode": "33618", "addr:state": "FL", "addr:street_address": "3816 W LINEBAUGH AVE", "amenity": "post_box", "collection_times": "Mo-Sa 12:00", "nsi_id": "unitedstatespostalservice-a77078", "operator": "United States Postal Service", "operator:short": "USPS", "operator:type": "public", "operator:wikidata": "Q668687", "ref": "3361800052"}, "type": "Feature"}
{"geometry": {"coordinates": [-82.5029328, 28.06163], "type": "Point"}, "id": "omfqA3EO_YW59u6Tev8EoIcCDoo=", "properties": {"@source_uri": "https://tools.usps.com/UspsToolsRestServices/rest/POLocator/findLocations", "@spider": "usps_collection_boxes", "addr:city": "TAMPA", "addr:country": "US", "addr:postcode": "33618", "addr:state": "FL", "addr:street_address": "12651 N DALE MABRY HWY", "amenity": "post_box", "collection_times": "Mo-Fr 17:00; Sa 16:00", "name": "USPS COLLECTION BOX - APC", "note": "ON 12/24 AND 12/31, THIS BOX MAY BE COLLECTED AS EARLY AS 12 NOON.", "nsi_id": "unitedstatespostalservice-a77078", "operator": "United States Postal Service", "operator:short": "USPS", "operator:type": "public", "operator:wikidata": "Q668687", "ref": "3361800054"}, "type": "Feature"}
{"geometry": {"coordinates": [-82.5040866, 28.043109], "type": "Point"}, "id": "YTtjafTX2KeEi9GqEFJeO1CXwYE=", "properties": {"@source_uri": "https://tools.usps.com/UspsToolsRestServices/rest/POLocator/findLocations", "@spider": "usps_collection_boxes", "addr:city": "TAMPA", "addr:country": "US", "addr:postcode": "33618", "addr:state": "FL", "addr:street_address": "10205 LAKE CARROLL WAY", "amenity": "post_box", "collection_times": "Mo-Sa 10:30", "nsi_id": "unitedstatespostalservice-a77078", "operator": "United States Postal Service", "operator:short": "USPS", "operator:type": "public", "operator:wikidata": "Q668687", "ref": "3361800056"}, "type": "Feature"}
{"geometry": {"coordinates": [-82.503609529, 28.061491945], "type": "Point"}, "id": "KAc3Rk4KNQaxS8wX4Ss1GGhb9MQ=", "properties": {"@source_uri": "https://tools.usps.com/UspsToolsRestServices/rest/POLocator/findLocations", "@spider": "usps_collection_boxes", "addr:city": "TAMPA", "addr:country": "US", "addr:postcode": "33618", "addr:state": "FL", "addr:street_address": "12651 N DALE MABRY HWY", "amenity": "post_box", "collection_times": "Mo-Fr 17:00; Sa 16:00", "indoor": "yes", "note": "ON 12/24 AND 12/31, THIS BOX MAY BE COLLECTED AS EARLY AS 12 NOON.", "nsi_id": "unitedstatespostalservice-a77078", "operator": "United States Postal Service", "operator:short": "USPS", "operator:type": "public", "operator:wikidata": "Q668687", "ref": "3361800063"}, "type": "Feature"}
{"geometry": {"coordinates": [-82.4021468, 27.977986], "type": "Point"}, "id": "Hcoq2IZBLq10Q4lnc2P9YYz1D5Y=", "properties": {"@source_uri": "https://tools.usps.com/UspsToolsRestServices/rest/POLocator/findLocations", "@spider": "usps_collection_boxes", "addr:city": "TAMPA", "addr:country": "US", "addr:postcode": "33619", "addr:state": "FL", "addr:street_address": "3710 N 50TH ST", "amenity": "post_box", "collection_times": "Mo-Fr 10:00", "nsi_id": "unitedstatespostalservice-a77078", "operator": "United States Postal Service", "operator:short": "USPS", "operator:type": "public", "operator:wikidata": "Q668687", "ref": "3361900002"}, "type": "Feature"}
{"geometry": {"coordinates": [-82.3485645, 27.946123], "type": "Point"}, "id": "tq5w-skvDds-Dq1mLz5iTGJ8pZA=", "properties": {"@source_uri": "https://tools.usps.com/UspsToolsRestServices/rest/POLocator/findLocations", "@spider": "usps_collection_boxes", "addr:city": "TAMPA", "addr:country": "US", "addr:postcode": "33619", "addr:state": "FL", "addr:street_address": "9350 BAY PLAZA BLVD", "amenity": "post_box", "collection_times": "Mo-Fr 14:00", "note": "ON 12/24 AND 12/31, THIS BOX MAY BE COLLECTED AS EARLY AS 12 NOON.", "nsi_id": "unitedstatespostalservice-a77078", "operator": "United States Postal Service", "operator:short": "USPS", "operator:type": "public", "operator:wikidata": "Q668687", "ref": "3361900004"}, "type": "Feature"}
{"geometry": {"coordinates": [-82.372265, 27.944539], "type": "Point"}, "id": "oHr-rNCwQQqkBiStriG6b53VsZg=", "properties": {"@source_uri": "https://tools.usps.com/UspsToolsRestServices/rest/POLocator/findLocations", "@spider": "usps_collection_boxes", "addr:city": "TAMPA", "addr:country": "US", "addr:postcode": "33619", "addr:state": "FL", "addr:street_address": "5016 E 10TH AVE", "amenity": "post_box", "collection_times": "Mo-Fr 10:00", "nsi_id": "unitedstatespostalservice-a77078", "operator": "United States Postal Service", "operator:short": "USPS", "operator:type": "public", "operator:wikidata": "Q668687", "ref": "3361900006"}, "type": "Feature"}
{"geometry": {"coordinates": [-82.3790468, 27.979908], "type": "Point"}, "id": "-dB2CiRkp7LjBp92KcCviTuvy2o=", "properties": {"@source_uri": "https://tools.usps.com/UspsToolsRestServices/rest/POLocator/findLocations", "@spider": "usps_collection_boxes", "addr:city": "TAMPA", "addr:country": "US", "addr:postcode": "33619", "addr:state": "FL", "addr:street_address": "3904 CORPOREX PARK DR", "amenity": "post_box", "collection_times": "Mo-Fr 13:15", "note": "ON 12/24 AND 12/31, THIS BOX MAY BE COLLECTED AS EARLY AS 12 NOON.", "nsi_id": "unitedstatespostalservice-a77078", "operator": "United States Postal Service", "operator:short": "USPS", "operator:type": "public", "operator:wikidata": "Q668687", "ref": "3361900015"}, "type": "Feature"}
{"geometry": {"coordinates": [-82.3566749, 27.958013], "type": "Point"}, "id": "VYSp2vKlzyclHqz1_k4jHQyoCaI=", "properties": {"@source_uri": "https://tools.usps.com/UspsToolsRestServices/rest/POLocator/findLocations", "@spider": "usps_collection_boxes", "addr:city": "TAMPA", "addr:country": "US", "addr:postcode": "33619", "addr:state": "FL", "addr:street_address": "1221 N US HIGHWAY 301", "amenity": "post_box", "collection_times": "Mo-Fr 09:45", "nsi_id": "unitedstatespostalservice-a77078", "operator": "United States Postal Service", "operator:short": "USPS", "operator:type": "public", "operator:wikidata": "Q668687", "ref": "3361900021"}, "type": "Feature"}
{"geometry": {"coordinates": [-82.3358883, 27.979131], "type": "Point"}, "id": "FS1QfrU-7KUxcj4321l6HdozC00=", "properties": {"@source_uri": "https://tools.usps.com/UspsToolsRestServices/rest/POLocator/findLocations", "@spider": "usps_collection_boxes", "addr:city": "TAMPA", "addr:country": "US", "addr:postcode": "33619", "addr:state": "FL", "addr:street_address": "10002 PRINCESS PALM AVE", "amenity": "post_box", "collection_times": "Mo-Fr 14:05", "note": "ON 12/24 AND 12/31, THIS BOX MAY BE COLLECTED AS EARLY AS 12 NOON.", "nsi_id": "unitedstatespostalservice-a77078", "operator": "United States Postal Service", "operator:short": "USPS", "operator:type": "public", "operator:wikidata": "Q668687", "ref": "3361900028"}, "type": "Feature"}
{"geometry": {"coordinates": [-82.3672596, 27.940656], "type": "Point"}, "id": "H-NU-jlfIahbi0JJFx3BbeuRHKM=", "properties": {"@source_uri": "https://tools.usps.com/UspsToolsRestServices/rest/POLocator/findLocations", "@spider": "usps_collection_boxes", "addr:city": "TAMPA", "addr:country": "US", "addr:postcode": "33619", "addr:state": "FL", "addr:street_address": "7867 PALM RIVER RD", "amenity": "post_box", "collection_times": "Mo-Fr 10:00", "nsi_id": "unitedstatespostalservice-a77078", "operator": "United States Postal Service", "operator:short": "USPS", "operator:type": "public", "operator:wikidata": "Q668687", "ref": "3361900030"}, "type": "Feature"}
{"geometry": {"coordinates": [-82.3326421, 27.961435], "type": "Point"}, "id": "pIU5zZxz0egyWsUigATwWJve9Uo=", "properties": {"@source_uri": "https://tools.usps.com/UspsToolsRestServices/rest/POLocator/findLocations", "@spider": "usps_collection_boxes", "addr:city": "TAMPA", "addr:country": "US", "addr:postcode": "33619", "addr:state": "FL", "addr:street_address": "1211 TECH BLVD", "amenity": "post_box", "collection_times": "Mo-Fr 14:15", "note": "ON 12/24 AND 12/31, THIS BOX MAY BE COLLECTED AS EARLY AS 12 NOON.", "nsi_id": "unitedstatespostalservice-a77078", "operator": "United States Postal Service", "operator:short": "USPS", "operator:type": "public", "operator:wikidata": "Q668687", "ref": "3361900034"}, "type": "Feature"}
{"geometry": {"coordinates": [-82.3465499, 27.946653], "type": "Point"}, "id": "jVOiXbe5IxnJoTeCM73ZUsaIrA0=", "properties": {"@source_uri": "https://tools.usps.com/UspsToolsRestServices/rest/POLocator/findLocations", "@spider": "usps_collection_boxes", "addr:city": "TAMPA", "addr:country": "US", "addr:postcode": "33619", "addr:state": "FL", "addr:street_address": "410 S WARE BLVD", "amenity": "post_box", "collection_times": "Mo-Fr 14:25", "note": "ON 12/24 AND 12/31, THIS BOX MAY BE COLLECTED AS EARLY AS 12 NOON.", "nsi_id": "unitedstatespostalservice-a77078", "operator": "United States Postal Service", "operator:short": "USPS", "operator:type": "public", "operator:wikidata": "Q668687", "ref": "3361900037"}, "type": "Feature"}
{"geometry": {"coordinates": [-82.3876706, 27.982678], "type": "Point"}, "id": "PLYW8OjqODo7UzC_JTUfiFtK5ys=", "properties": {"@source_uri": "https://tools.usps.com/UspsToolsRestServices/rest/POLocator/findLocations", "@spider": "usps_collection_boxes", "addr:city": "TAMPA", "addr:country": "US", "addr:postcode": "33619", "addr:state": "FL", "addr:street_address": "6302 E MLK BLVD", "amenity": "post_box", "collection_times": "Mo-Fr 10:00", "nsi_id": "unitedstatespostalservice-a77078", "operator": "United States Postal Service", "operator:short": "USPS", "operator:type": "public", "operator:wikidata": "Q668687", "ref": "3361900057"}, "type": "Feature"}
{"geometry": {"coordinates": [-82.335873, 27.944058], "type": "Point"}, "id": "5mt1KwtK4yR9j5goimu6Bs-8rb4=", "properties": {"@source_uri": "https://tools.usps.com/UspsToolsRestServices/rest/POLocator/findLocations", "@spider": "usps_collection_boxes", "addr:city": "TAMPA", "addr:country": "US", "addr:postcode": "33619", "addr:state": "FL", "addr:street_address": "10121 E ADAMO DR", "amenity": "post_box", "collection_times": "Mo-Fr 16:45; Sa 11:45", "note": "ON 12/24 AND 12/31, THIS BOX MAY BE COLLECTED AS EARLY AS 12 NOON.", "nsi_id": "unitedstatespostalservice-a77078", "operator": "United States Postal Service", "operator:short": "USPS", "operator:type": "public", "operator:wikidata": "Q668687", "ref": "3361900059"}, "type": "Feature"}
{"geometry": {"coordinates": [-82.3594985, 27.944556], "type": "Point"}, "id": "t9dX9CH84YNfxNBsOtFPmuQ5dbY=", "properties": {"@source_uri": "https://tools.usps.com/UspsToolsRestServices/rest/POLocator/findLocations", "@spider": "usps_collection_boxes", "addr:city": "TAMPA", "addr:country": "US", "addr:postcode": "33619", "addr:state": "FL", "addr:street_address": "201 KELSEY LN", "amenity": "post_box", "collection_times": "Mo-Fr 13:00", "note": "ON 12/24 AND 12/31, THIS BOX MAY BE COLLECTED AS EARLY AS 12 NOON.", "nsi_id": "unitedstatespostalservice-a77078", "operator": "United States Postal Service", "operator:short": "USPS", "operator:type": "public", "operator:wikidata": "Q668687", "ref": "3361900062"}, "type": "Feature"}
{"geometry": {"coordinates": [-82.335897484, 27.944021487], "type": "Point"}, "id": "s1nCeTNKbJV6pAIzlO_MdWqByK4=", "properties": {"@source_uri": "https://tools.usps.com/UspsToolsRestServices/rest/POLocator/findLocations", "@spider": "usps_collection_boxes", "addr:city": "TAMPA", "addr:country": "US", "addr:postcode": "33619", "addr:state": "FL", "addr:street_address": "10121 E ADAMO DR", "amenity": "post_box", "collection_times": "Mo-Fr 17:00; Sa 12:00", "indoor": "yes", "note": "ON 12/24 AND 12/31, THIS BOX MAY BE COLLECTED AS EARLY AS 12 NOON.", "nsi_id": "unitedstatespostalservice-a77078", "operator": "United States Postal Service", "operator:short": "USPS", "operator:type": "public", "operator:wikidata": "Q668687", "ref": "3361900069"}, "type": "Feature"}
{"geometry": {"coordinates": [-82.37279, 27.94054], "type": "Point"}, "id": "RwiLDpsSvwOfx3xIfUjQr7C_joI=", "properties": {"@source_uri": "https://tools.usps.com/UspsToolsRestServices/rest/POLocator/findLocations", "@spider": "usps_collection_boxes", "addr:city": "TAMPA", "addr:country": "US", "addr:postcode": "33619", "addr:state": "FL", "addr:street_address": "3925 COCONUT PALM DR", "amenity": "post_box", "collection_times": "Mo-Fr 12:00", "nsi_id": "unitedstatespostalservice-a77078", "operator": "United States Postal Service", "operator:short": "USPS", "operator:type": "public", "operator:wikidata": "Q668687", "ref": "3361900071"}, "type": "Feature"}
{"geometry": {"coordinates": [-82.4147309654, 28.0655219863], "type": "Point"}, "id": "pOJHyUG0IPxXqy1GWL6MERMqGc4=", "properties": {"@source_uri": "https://tools.usps.com/UspsToolsRestServices/rest/POLocator/findLocations", "@spider": "usps_collection_boxes", "addr:city": "TAMPA", "addr:country": "US", "addr:postcode": "33620", "addr:state": "FL", "addr:street_address": "3846 USF HOLLY DR", "amenity": "post_box", "collection_times": "Mo-Fr 11:30", "nsi_id": "unitedstatespostalservice-a77078", "operator": "United States Postal Service", "operator:short": "USPS", "operator:type": "public", "operator:wikidata": "Q668687", "ref": "3362000011"}, "type": "Feature"}
{"geometry": {"coordinates": [-82.4081779195, 28.063000881], "type": "Point"}, "id": "hsqpo_nrr_MNz4Xu9cz1j8bl_zU=", "properties": {"@source_uri": "https://tools.usps.com/UspsToolsRestServices/rest/POLocator/findLocations", "@spider": "usps_collection_boxes", "addr:city": "TAMPA", "addr:country": "US", "addr:postcode": "33620", "addr:state": "FL", "addr:street_address": "12316 USF MAPLE DR", "amenity": "post_box", "collection_times": "Mo-Fr 11:30", "nsi_id": "unitedstatespostalservice-a77078", "operator": "United States Postal Service", "operator:short": "USPS", "operator:type": "public", "operator:wikidata": "Q668687", "ref": "3362000012"}, "type": "Feature"}
{"geometry": {"coordinates": [-82.4148329731, 28.0597619843], "type": "Point"}, "id": "IkKWIhDTDzpWSr-WfZL7wKoghGM=", "properties": {"@source_uri": "https://tools.usps.com/UspsToolsRestServices/rest/POLocator/findLocations", "@spider": "usps_collection_boxes", "addr:city": "TAMPA", "addr:country": "US", "addr:postcode": "33620", "addr:state": "FL", "addr:street_address": "12010 USF CHERRY DR", "amenity": "post_box", "collection_times": "Mo-Sa 11:30", "nsi_id": "unitedstatespostalservice-a77078", "operator": "United States Postal Service", "operator:short": "USPS", "operator:type": "public", "operator:wikidata": "Q668687", "ref": "3362000013"}, "type": "Feature"}
{"geometry": {"coordinates": [-82.4186729744, 28.0597489924], "type": "Point"}, "id": "7oZQJDY6sv_Gy9yhamoKUG2tDP8=", "properties": {"@source_uri": "https://tools.usps.com/UspsToolsRestServices/rest/POLocator/findLocations", "@spider": "usps_collection_boxes", "addr:city": "TAMPA", "addr:country": "US", "addr:postcode": "33620", "addr:state": "FL", "addr:street_address": "12030 USF BEARD DR", "amenity": "post_box", "collection_times": "Mo-Fr 11:30", "nsi_id": "unitedstatespostalservice-a77078", "operator": "United States Postal Service", "operator:short": "USPS", "operator:type": "public", "operator:wikidata": "Q668687", "ref": "3362000015"}, "type": "Feature"}
{"geometry": {"coordinates": [-82.512163189, 28.040052519], "type": "Point"}, "id": "fh2mPwRlNCA_BlBHsL4fP1-OLis=", "properties": {"@source_uri": "https://tools.usps.com/UspsToolsRestServices/rest/POLocator/findLocations", "@spider": "usps_collection_boxes", "addr:city": "TAMPA", "addr:country": "US", "addr:postcode": "33624", "addr:state": "FL", "addr:street_address": "4202 W LINEBAUGH AVE", "amenity": "post_box", "collection_times": "Mo-Fr 14:00; Sa 13:00", "note": "ON 12/24 AND 12/31, THIS BOX MAY BE COLLECTED AS EARLY AS 12 NOON.", "nsi_id": "unitedstatespostalservice-a77078", "operator": "United States Postal Service", "operator:short": "USPS", "operator:type": "public", "operator:wikidata": "Q668687", "ref": "3362400007"}, "type": "Feature"}
{"geometry": {"coordinates": [-82.51271, 28.095475], "type": "Point"}, "id": "fhDTbdIBwwGcDnF3o7bq0H9JV1g=", "properties": {"@source_uri": "https://tools.usps.com/UspsToolsRestServices/rest/POLocator/findLocations", "@spider": "usps_collection_boxes", "addr:city": "TAMPA", "addr:country": "US", "addr:postcode": "33624", "addr:state": "FL", "addr:street_address": "5121 EHRLICH RD", "amenity": "post_box", "collection_times": "Mo-Sa 13:30", "note": "ON 12/24 AND 12/31, THIS BOX MAY BE COLLECTED AS EARLY AS 12 NOON.", "nsi_id": "unitedstatespostalservice-a77078", "operator": "United States Postal Service", "operator:short": "USPS", "operator:type": "public", "operator:wikidata": "Q668687", "ref": "3362400014"}, "type": "Feature"}
{"geometry": {"coordinates": [-82.5432753, 28.060839], "type": "Point"}, "id": "axJRRzCjhVA0lKC2JGhG-VWBbMA=", "properties": {"@source_uri": "https://tools.usps.com/UspsToolsRestServices/rest/POLocator/findLocations", "@spider": "usps_collection_boxes", "addr:city": "TAMPA", "addr:country": "US", "addr:postcode": "33625", "addr:state": "FL", "addr:street_address": "12088 ANDERSON RD", "amenity": "post_box", "collection_times": "Mo-Fr 15:00; Sa 12:00", "note": "ON 12/24 AND 12/31, THIS BOX MAY BE COLLECTED AS EARLY AS 12 NOON.", "nsi_id": "unitedstatespostalservice-a77078", "operator": "United States Postal Service", "operator:short": "USPS", "operator:type": "public", "operator:wikidata": "Q668687", "ref": "3362500004"}, "type": "Feature"}
{"geometry": {"coordinates": [-82.505162, 28.084981], "type": "Point"}, "id": "JydVOfV2W2SFDCOwfi4UiJY1S1A=", "properties": {"@source_uri": "https://tools.usps.com/UspsToolsRestServices/rest/POLocator/findLocations", "@spider": "usps_collection_boxes", "addr:city": "TAMPA", "addr:country": "US", "addr:postcode": "33625", "addr:state": "FL", "addr:street_address": "14910 N DALE MABRY HWY", "amenity": "post_box", "collection_times": "Mo-Fr 16:30; Sa 13:00", "note": "ON 12/24 AND 12/31, THIS BOX MAY BE COLLECTED AS EARLY AS 12 NOON.", "nsi_id": "unitedstatespostalservice-a77078", "operator": "United States Postal Service", "operator:short": "USPS", "operator:type": "public", "operator:wikidata": "Q668687", "ref": "3362500006"}, "type": "Feature"}
{"geometry": {"coordinates": [-82.5601171125, 28.0652955374], "type": "Point"}, "id": "rxyj5L7ZsOQScFEZ4nSErLG4Tyg=", "properties": {"@source_uri": "https://tools.usps.com/UspsToolsRestServices/rest/POLocator/findLocations", "@spider": "usps_collection_boxes", "addr:city": "TAMPA", "addr:country": "US", "addr:postcode": "33625", "addr:state": "FL", "addr:street_address": "6550 GUNN HWY", "amenity": "post_box", "collection_times": "Mo-Fr 13:00", "note": "ON 12/24 AND 12/31, THIS BOX MAY BE COLLECTED AS EARLY AS 12 NOON.", "nsi_id": "unitedstatespostalservice-a77078", "operator": "United States Postal Service", "operator:short": "USPS", "operator:type": "public", "operator:wikidata": "Q668687", "ref": "3362500011"}, "type": "Feature"}
{"geometry": {"coordinates": [-82.505162, 28.084981], "type": "Point"}, "id": "6k9K-8ky4p3HMghLvt2zsui3OqU=", "properties": {"@source_uri": "https://tools.usps.com/UspsToolsRestServices/rest/POLocator/findLocations", "@spider": "usps_collection_boxes", "addr:city": "TAMPA", "addr:country": "US", "addr:postcode": "33625", "addr:state": "FL", "addr:street_address": "14910 N DALE MABRY HWY", "amenity": "post_box", "collection_times": "Mo-Fr 16:30; Sa 13:00", "name": "USPS COLLECTION BOX - APC", "note": "ON 12/24 AND 12/31, THIS BOX MAY BE COLLECTED AS EARLY AS 12 NOON.", "nsi_id": "unitedstatespostalservice-a77078", "operator": "United States Postal Service", "operator:short": "USPS", "operator:type": "public", "operator:wikidata": "Q668687", "ref": "3362500012"}, "type": "Feature"}
{"geometry": {"coordinates": [-82.505061677, 28.085216655], "type": "Point"}, "id": "FHuPMn114MEred45okl3pYLigcg=", "properties": {"@source_uri": "https://tools.usps.com/UspsToolsRestServices/rest/POLocator/findLocations", "@spider": "usps_collection_boxes", "addr:city": "TAMPA", "addr:country": "US", "addr:postcode": "33625", "addr:state": "FL", "addr:street_address": "14910 N DALE MABRY HWY", "amenity": "post_box", "collection_times": "Mo-Fr 16:00; Sa 14:00", "indoor": "yes", "note": "ON 12/24 AND 12/31, THIS BOX MAY BE COLLECTED AS EARLY AS 12 NOON.", "nsi_id": "unitedstatespostalservice-a77078", "operator": "United States Postal Service", "operator:short": "USPS", "operator:type": "public", "operator:wikidata": "Q668687", "ref": "3362500018"}, "type": "Feature"}
{"geometry": {"coordinates": [-82.641928, 28.062552], "type": "Point"}, "id": "oFF-tv426lhtfb4CoJLub4UmCeM=", "properties": {"@source_uri": "https://tools.usps.com/UspsToolsRestServices/rest/POLocator/findLocations", "@spider": "usps_collection_boxes", "addr:city": "TAMPA", "addr:country": "US", "addr:postcode": "33626", "addr:state": "FL", "addr:street_address": "12320 RACE TRACK RD", "amenity": "post_box", "collection_times": "Mo-Sa 12:00", "nsi_id": "unitedstatespostalservice-a77078", "operator": "United States Postal Service", "operator:short": "USPS", "operator:type": "public", "operator:wikidata": "Q668687", "ref": "3362600001"}, "type": "Feature"}
{"geometry": {"coordinates": [-82.6463642, 28.060607], "type": "Point"}, "id": "RkbJK1pOCoqYijmghFZ8EuuTqLc=", "properties": {"@source_uri": "https://tools.usps.com/UspsToolsRestServices/rest/POLocator/findLocations", "@spider": "usps_collection_boxes", "addr:city": "TAMPA", "addr:country": "US", "addr:postcode": "33626", "addr:state": "FL", "addr:street_address": "13300 MCCORMICK DR", "amenity": "post_box", "collection_times": "Mo-Sa 12:00", "nsi_id": "unitedstatespostalservice-a77078", "operator": "United States Postal Service", "operator:short": "USPS", "operator:type": "public", "operator:wikidata": "Q668687", "ref": "3362600002"}, "type": "Feature"}
{"geometry": {"coordinates": [-82.6476727, 28.058839], "type": "Point"}, "id": "LvjHC_bCiM2KN8gD1djisryQoNQ=", "properties": {"@source_uri": "https://tools.usps.com/UspsToolsRestServices/rest/POLocator/findLocations", "@spider": "usps_collection_boxes", "addr:city": "TAMPA", "addr:country": "US", "addr:postcode": "33626", "addr:state": "FL", "addr:street_address": "12900 DUPONT CIR", "amenity": "post_box", "collection_times": "Mo-Sa 12:00", "nsi_id": "unitedstatespostalservice-a77078", "operator": "United States Postal Service", "operator:short": "USPS", "operator:type": "public", "operator:wikidata": "Q668687", "ref": "3362600004"}, "type": "Feature"}
{"geometry": {"coordinates": [-82.6250213, 28.056758], "type": "Point"}, "id": "3khNmJYjoNdYXAyUj7gtrV15ToE=", "properties": {"@source_uri": "https://tools.usps.com/UspsToolsRestServices/rest/POLocator/findLocations", "@spider": "usps_collection_boxes", "addr:city": "TAMPA", "addr:country": "US", "addr:postcode": "33626", "addr:state": "FL", "addr:street_address": "12139 W LINEBAUGH AVE", "amenity": "post_box", "collection_times": "Mo-Sa 12:30", "note": "ON 12/24 AND 12/31, THIS BOX MAY BE COLLECTED AS EARLY AS 12 NOON.", "nsi_id": "unitedstatespostalservice-a77078", "operator": "United States Postal Service", "operator:short": "USPS", "operator:type": "public", "operator:wikidata": "Q668687", "ref": "3362600005"}, "type": "Feature"}
{"geometry": {"coordinates": [-82.5821309, 28.051472], "type": "Point"}, "id": "rLhsIuSVKiGGAw2v5g3dgNDf48I=", "properties": {"@source_uri": "https://tools.usps.com/UspsToolsRestServices/rest/POLocator/findLocations", "@spider": "usps_collection_boxes", "addr:city": "TAMPA", "addr:country": "US", "addr:postcode": "33626", "addr:state": "FL", "addr:street_address": "11203 SHELDON RD", "amenity": "post_box", "collection_times": "Mo-Fr 15:00; Sa 14:00", "note": "ON 12/24 AND 12/31, THIS BOX MAY BE COLLECTED AS EARLY AS 12 NOON.", "nsi_id": "unitedstatespostalservice-a77078", "operator": "United States Postal Service", "operator:short": "USPS", "operator:type": "public", "operator:wikidata": "Q668687", "ref": "3362600006"}, "type": "Feature"}
{"geometry": {"coordinates": [-82.5166343, 27.924253], "type": "Point"}, "id": "lncsyZVmnvH5m8m8Chd4hFmtU9M=", "properties": {"@source_uri": "https://tools.usps.com/UspsToolsRestServices/rest/POLocator/findLocations", "@spider": "usps_collection_boxes", "addr:city": "TAMPA", "addr:country": "US", "addr:postcode": "33629", "addr:state": "FL", "addr:street_address": "4302 HENDERSON BLVD", "amenity": "post_box", "collection_times": "Mo-Sa 13:30", "note": "ON 12/24 AND 12/31, THIS BOX MAY BE COLLECTED AS EARLY AS 12 NOON.", "nsi_id": "unitedstatespostalservice-a77078", "operator": "United States Postal Service", "operator:short": "USPS", "operator:type": "public", "operator:wikidata": "Q668687", "ref": "3362900013"}, "type": "Feature"}
{"geometry": {"coordinates": [-82.4934117, 27.926693], "type": "Point"}, "id": "upRzlf5CWlUkJXy5Y5Z4XJ8XSDA=", "properties": {"@source_uri": "https://tools.usps.com/UspsToolsRestServices/rest/POLocator/findLocations", "@spider": "usps_collection_boxes", "addr:city": "TAMPA", "addr:country": "US", "addr:postcode": "33629", "addr:state": "FL", "addr:street_address": "1906 S MACDILL AVE", "amenity": "post_box", "collection_times": "Mo-Sa 12:00", "nsi_id": "unitedstatespostalservice-a77078", "operator": "United States Postal Service", "operator:short": "USPS", "operator:type": "public", "operator:wikidata": "Q668687", "ref": "3362900018"}, "type": "Feature"}
{"geometry": {"coordinates": [-82.5116436, 27.9267655], "type": "Point"}, "id": "eFKrrNaTFkefYUBL1KDXTuesc3g=", "properties": {"@source_uri": "https://tools.usps.com/UspsToolsRestServices/rest/POLocator/findLocations", "@spider": "usps_collection_boxes", "addr:city": "TAMPA", "addr:country": "US", "addr:postcode": "33629", "addr:state": "FL", "addr:street_address": "3206 S WEST SHORE BLVD", "amenity": "post_box", "collection_times": "Mo-Sa 12:00", "nsi_id": "unitedstatespostalservice-a77078", "operator": "United States Postal Service", "operator:short": "USPS", "operator:type": "public", "operator:wikidata": "Q668687", "ref": "3362900020"}, "type": "Feature"}
{"geometry": {"coordinates": [-82.507318, 27.933671], "type": "Point"}, "id": "NJs8a-DBJ4zixH1kSPcu2Nz-oyk=", "properties": {"@source_uri": "https://tools.usps.com/UspsToolsRestServices/rest/POLocator/findLocations", "@spider": "usps_collection_boxes", "addr:city": "TAMPA", "addr:country": "US", "addr:postcode": "33629", "addr:state": "FL", "addr:street_address": "1002 S CHURCH AVE", "amenity": "post_box", "collection_times": "Mo-Fr 18:00; Sa 13:00", "note": "ON 12/24 AND 12/31, THIS BOX MAY BE COLLECTED AS EARLY AS 12 NOON.", "nsi_id": "unitedstatespostalservice-a77078", "operator": "United States Postal Service", "operator:short": "USPS", "operator:type": "public", "operator:wikidata": "Q668687", "ref": "3362900022"}, "type": "Feature"}
{"geometry": {"coordinates": [-82.5062587, 27.919143], "type": "Point"}, "id": "nhcVMVIZh0ZP7Rjb90D4bvCGwLU=", "properties": {"@source_uri": "https://tools.usps.com/UspsToolsRestServices/rest/POLocator/findLocations", "@spider": "usps_collection_boxes", "addr:city": "TAMPA", "addr:country": "US", "addr:postcode": "33629", "addr:state": "FL", "addr:street_address": "3802 W SANTIAGO ST", "amenity": "post_box", "collection_times": "Mo-Fr 14:30; Sa 12:00", "note": "ON 12/24 AND 12/31, THIS BOX MAY BE COLLECTED AS EARLY AS 12 NOON.", "nsi_id": "unitedstatespostalservice-a77078", "operator": "United States Postal Service", "operator:short": "USPS", "operator:type": "public", "operator:wikidata": "Q668687", "ref": "3362900030"}, "type": "Feature"}
{"geometry": {"coordinates": [-82.507318, 27.933671], "type": "Point"}, "id": "h_4OM-mOS-b7wBeex5L9IzbekYo=", "properties": {"@source_uri": "https://tools.usps.com/UspsToolsRestServices/rest/POLocator/findLocations", "@spider": "usps_collection_boxes", "addr:city": "TAMPA", "addr:country": "US", "addr:postcode": "33629", "addr:state": "FL", "addr:street_address": "1002 S CHURCH AVE", "amenity": "post_box", "collection_times": "Mo-Fr 18:00; Sa 13:00", "name": "USPS COLLECTION BOX - APC", "note": "ON 12/24 AND 12/31, THIS BOX MAY BE COLLECTED AS EARLY AS 12 NOON.", "nsi_id": "unitedstatespostalservice-a77078", "operator": "United States Postal Service", "operator:short": "USPS", "operator:type": "public", "operator:wikidata": "Q668687", "ref": "3362900035"}, "type": "Feature"}
{"geometry": {"coordinates": [-82.507804225, 27.933812155], "type": "Point"}, "id": "a2WqwY8Ul_jI-CatQNkFFRCxWl8=", "properties": {"@source_uri": "https://tools.usps.com/UspsToolsRestServices/rest/POLocator/findLocations", "@spider": "usps_collection_boxes", "addr:city": "TAMPA", "addr:country": "US", "addr:postcode": "33629", "addr:state": "FL", "addr:street_address": "1002B S CHURCH AVE", "amenity": "post_box", "collection_times": "Mo-Fr 18:00; Sa 13:00", "indoor": "yes", "note": "ON 12/24 AND 12/31, THIS BOX MAY BE COLLECTED AS EARLY AS 12 NOON.", "nsi_id": "unitedstatespostalservice-a77078", "operator": "United States Postal Service", "operator:short": "USPS", "operator:type": "public", "operator:wikidata": "Q668687", "ref": "3362900039"}, "type": "Feature"}
{"geometry": {"coordinates": [-82.538580356, 27.967842], "type": "Point"}, "id": "fMXyeR57PG1_soehW3B-x7SDaR8=", "properties": {"@source_uri": "https://tools.usps.com/UspsToolsRestServices/rest/POLocator/findLocations", "@spider": "usps_collection_boxes", "addr:city": "TAMPA", "addr:country": "US", "addr:postcode": "33630", "addr:state": "FL", "addr:street_address": "3501 BESSIE COLEMAN BLVD", "amenity": "post_box", "collection_times": "Mo-Sa 18:30", "note": "ON 12/24 AND 12/31, THIS BOX MAY BE COLLECTED AS EARLY AS 12 NOON.", "nsi_id": "unitedstatespostalservice-a77078", "operator": "United States Postal Service", "operator:short": "USPS", "operator:type": "public", "operator:wikidata": "Q668687", "ref": "3363000000"}, "type": "Feature"}
{"geometry": {"coordinates": [-82.538580356, 27.967842], "type": "Point"}, "id": "ykHYGz9mz-94hcLio-CSAtWLa-E=", "properties": {"@source_uri": "https://tools.usps.com/UspsToolsRestServices/rest/POLocator/findLocations", "@spider": "usps_collection_boxes", "addr:city": "TAMPA", "addr:country": "US", "addr:postcode": "33630", "addr:state": "FL", "addr:street_address": "3501 BESSIE COLEMAN BLVD", "amenity": "post_box", "collection_times": "Mo-Sa 19:30", "indoor": "yes", "note": "ON 12/24 AND 12/31, THIS BOX MAY BE COLLECTED AS EARLY AS 12 NOON.", "nsi_id": "unitedstatespostalservice-a77078", "operator": "United States Postal Service", "operator:short": "USPS", "operator:type": "public", "operator:wikidata": "Q668687", "ref": "3363000002"}, "type": "Feature"}
{"geometry": {"coordinates": [-82.538580356, 27.967842], "type": "Point"}, "id": "MSfs5ZzZcIPD19yYhfSEpj-eqyo=", "properties": {"@source_uri": "https://tools.usps.com/UspsToolsRestServices/rest/POLocator/findLocations", "@spider": "usps_collection_boxes", "addr:city": "TAMPA", "addr:country": "US", "addr:postcode": "33630", "addr:state": "FL", "addr:street_address": "3501 BESSIE COLEMAN BLVD", "amenity": "post_box", "collection_times": "Mo-Sa 19:30", "indoor": "yes", "note": "ON 12/24 AND 12/31, THIS BOX MAY BE COLLECTED AS EARLY AS 12 NOON.", "nsi_id": "unitedstatespostalservice-a77078", "operator": "United States Postal Service", "operator:short": "USPS", "operator:type": "public", "operator:wikidata": "Q668687", "ref": "3363000003"}, "type": "Feature"}
{"geometry": {"coordinates": [-82.538580356, 27.967842], "type": "Point"}, "id": "m5x5CLjG6WTGxjPM55O6QEbQUs4=", "properties": {"@source_uri": "https://tools.usps.com/UspsToolsRestServices/rest/POLocator/findLocations", "@spider": "usps_collection_boxes", "addr:city": "TAMPA", "addr:country": "US", "addr:postcode": "33630", "addr:state": "FL", "addr:street_address": "3501 BESSIE COLEMAN BLVD", "amenity": "post_box", "collection_times": "Mo-Sa 19:30", "name": "USPS COLLECTION BOX - APC", "note": "ON 12/24 AND 12/31, THIS BOX MAY BE COLLECTED AS EARLY AS 12 NOON.", "nsi_id": "unitedstatespostalservice-a77078", "operator": "United States Postal Service", "operator:short": "USPS", "operator:type": "public", "operator:wikidata": "Q668687", "ref": "3363000004"}, "type": "Feature"}
{"geometry": {"coordinates": [-82.538580356, 27.967842], "type": "Point"}, "id": "p8fVLNea6BEpyhyXWGRYBIuSAw4=", "properties": {"@source_uri": "https://tools.usps.com/UspsToolsRestServices/rest/POLocator/findLocations", "@spider": "usps_collection_boxes", "addr:city": "TAMPA", "addr:country": "US", "addr:postcode": "33630", "addr:state": "FL", "addr:street_address": "3501 BESSIE COLEMAN BLVD", "amenity": "post_box", "collection_times": "Mo-Sa 19:30", "indoor": "yes", "note": "ON 12/24 AND 12/31, THIS BOX MAY BE COLLECTED AS EARLY AS 12 NOON.", "nsi_id": "unitedstatespostalservice-a77078", "operator": "United States Postal Service", "operator:short": "USPS", "operator:type": "public", "operator:wikidata": "Q668687", "ref": "3363000005"}, "type": "Feature"}
{"geometry": {"coordinates": [-82.5475854, 27.997992], "type": "Point"}, "id": "Zp1nWSiAWFcUeQhZkao4AnO6SZs=", "properties": {"@source_uri": "https://tools.usps.com/UspsToolsRestServices/rest/POLocator/findLocations", "@spider": "usps_collection_boxes", "addr:city": "TAMPA", "addr:country": "US", "addr:postcode": "33634", "addr:state": "FL", "addr:street_address": "5421 BEAUMONT CENTER BLVD", "amenity": "post_box", "collection_times": "Mo-Fr 14:00", "note": "ON 12/24 AND 12/31, THIS BOX MAY BE COLLECTED AS EARLY AS 12 NOON.", "nsi_id": "unitedstatespostalservice-a77078", "operator": "United States Postal Service", "operator:short": "USPS", "operator:type": "public", "operator:wikidata": "Q668687", "ref": "3363400003"}, "type": "Feature"}
{"geometry": {"coordinates": [-82.5402414, 28.006319], "type": "Point"}, "id": "ttMNIgXT6itffd97aJErtnkcXFU=", "properties": {"@source_uri": "https://tools.usps.com/UspsToolsRestServices/rest/POLocator/findLocations", "@spider": "usps_collection_boxes", "addr:city": "TAMPA", "addr:country": "US", "addr:postcode": "33634", "addr:state": "FL", "addr:street_address": "5910 BENJAMIN CENTER DR", "amenity": "post_box", "collection_times": "Mo-Fr 14:45", "note": "ON 12/24 AND 12/31, THIS BOX MAY BE COLLECTED AS EARLY AS 12 NOON.", "nsi_id": "unitedstatespostalservice-a77078", "operator": "United States Postal Service", "operator:short": "USPS", "operator:type": "public", "operator:wikidata": "Q668687", "ref": "3363400006"}, "type": "Feature"}
{"geometry": {"coordinates": [-82.5430333, 28.00182], "type": "Point"}, "id": "I43hvp7F1_rCnY1_jY5cMK2qoWo=", "properties": {"@source_uri": "https://tools.usps.com/UspsToolsRestServices/rest/POLocator/findLocations", "@spider": "usps_collection_boxes", "addr:city": "TAMPA", "addr:country": "US", "addr:postcode": "33634", "addr:state": "FL", "addr:street_address": "6002 BENJAMIN RD", "amenity": "post_box", "collection_times": "Mo-Fr 14:30", "note": "ON 12/24 AND 12/31, THIS BOX MAY BE COLLECTED AS EARLY AS 12 NOON.", "nsi_id": "unitedstatespostalservice-a77078", "operator": "United States Postal Service", "operator:short": "USPS", "operator:type": "public", "operator:wikidata": "Q668687", "ref": "3363400008"}, "type": "Feature"}
{"geometry": {"coordinates": [-82.5421849, 28.008434], "type": "Point"}, "id": "ISJvDMzvEzl-cRqvDPr6AK0o8_Y=", "properties": {"@source_uri": "https://tools.usps.com/UspsToolsRestServices/rest/POLocator/findLocations", "@spider": "usps_collection_boxes", "addr:city": "TAMPA", "addr:country": "US", "addr:postcode": "33634", "addr:state": "FL", "addr:street_address": "6708 BENJAMIN RD", "amenity": "post_box", "collection_times": "Mo-Fr 14:45", "note": "ON 12/24 AND 12/31, THIS BOX MAY BE COLLECTED AS EARLY AS 12 NOON.", "nsi_id": "unitedstatespostalservice-a77078", "operator": "United States Postal Service", "operator:short": "USPS", "operator:type": "public", "operator:wikidata": "Q668687", "ref": "3363400011"}, "type": "Feature"}
{"geometry": {"coordinates": [-82.541721888, 28.026746497], "type": "Point"}, "id": "ajfsDTFu5KZGdjve6GdaJzjBz5M=", "properties": {"@source_uri": "https://tools.usps.com/UspsToolsRestServices/rest/POLocator/findLocations", "@spider": "usps_collection_boxes", "addr:city": "TAMPA", "addr:country": "US", "addr:postcode": "33634", "addr:state": "FL", "addr:street_address": "8403 BENJAMIN RD", "amenity": "post_box", "collection_times": "Mo-Fr 12:00", "nsi_id": "unitedstatespostalservice-a77078", "operator": "United States Postal Service", "operator:short": "USPS", "operator:type": "public", "operator:wikidata": "Q668687", "ref": "3363400013"}, "type": "Feature"}
{"geometry": {"coordinates": [-82.546581, 27.987358], "type": "Point"}, "id": "KahSaOJMf5jV_yW5QIqWR9Ls1k8=", "properties": {"@source_uri": "https://tools.usps.com/UspsToolsRestServices/rest/POLocator/findLocations", "@spider": "usps_collection_boxes", "addr:city": "TAMPA", "addr:country": "US", "addr:postcode": "33634", "addr:state": "FL", "addr:street_address": "4710 EISENHOWER BLVD", "amenity": "post_box", "collection_times": "Mo-Fr 14:00", "note": "ON 12/24 AND 12/31, THIS BOX MAY BE COLLECTED AS EARLY AS 12 NOON.", "nsi_id": "unitedstatespostalservice-a77078", "operator": "United States Postal Service", "operator:short": "USPS", "operator:type": "public", "operator:wikidata": "Q668687", "ref": "3363400015"}, "type": "Feature"}
{"geometry": {"coordinates": [-82.5467639, 27.990561], "type": "Point"}, "id": "QPTI5f7uNjnLURjippSC-RWvQ7E=", "properties": {"@source_uri": "https://tools.usps.com/UspsToolsRestServices/rest/POLocator/findLocations", "@spider": "usps_collection_boxes", "addr:city": "TAMPA", "addr:country": "US", "addr:postcode": "33634", "addr:state": "FL", "addr:street_address": "4902 EISENHOWER BLVD", "amenity": "post_box", "collection_times": "Mo-Fr 14:00", "note": "ON 12/24 AND 12/31, THIS BOX MAY BE COLLECTED AS EARLY AS 12 NOON.", "nsi_id": "unitedstatespostalservice-a77078", "operator": "United States Postal Service", "operator:short": "USPS", "operator:type": "public", "operator:wikidata": "Q668687", "ref": "3363400017"}, "type": "Feature"}
{"geometry": {"coordinates": [-82.5489671, 27.985445], "type": "Point"}, "id": "Sg9qEPNn0KVm6cwF4HhwLwh2KaI=", "properties": {"@source_uri": "https://tools.usps.com/UspsToolsRestServices/rest/POLocator/findLocations", "@spider": "usps_collection_boxes", "addr:city": "TAMPA", "addr:country": "US", "addr:postcode": "33634", "addr:state": "FL", "addr:street_address": "4519 GEORGE RD", "amenity": "post_box", "collection_times": "Mo-Fr 14:00", "note": "ON 12/24 AND 12/31, THIS BOX MAY BE COLLECTED AS EARLY AS 12 NOON.", "nsi_id": "unitedstatespostalservice-a77078", "operator": "United States Postal Service", "operator:short": "USPS", "operator:type": "public", "operator:wikidata": "Q668687", "ref": "3363400028"}, "type": "Feature"}
{"geometry": {"coordinates": [-82.5341778, 27.997631], "type": "Point"}, "id": "8lZE7KBCjpBYUJcAfimN01rU9XA=", "properties": {"@source_uri": "https://tools.usps.com/UspsToolsRestServices/rest/POLocator/findLocations", "@spider": "usps_collection_boxes", "addr:city": "TAMPA", "addr:country": "US", "addr:postcode": "33634", "addr:state": "FL", "addr:street_address": "5406 HOOVER BLVD", "amenity": "post_box", "collection_times": "Mo-Fr 11:00", "nsi_id": "unitedstatespostalservice-a77078", "operator": "United States Postal Service", "operator:short": "USPS", "operator:type": "public", "operator:wikidata": "Q668687", "ref": "3363400030"}, "type": "Feature"}
{"geometry": {"coordinates": [-82.5485148958, 28.0074618958], "type": "Point"}, "id": "6ik8MKEbhUIYVOpKvhYl56w_DJw=", "properties": {"@source_uri": "https://tools.usps.com/UspsToolsRestServices/rest/POLocator/findLocations", "@spider": "usps_collection_boxes", "addr:city": "TAMPA", "addr:country": "US", "addr:postcode": "33634", "addr:state": "FL", "addr:street_address": "6201 JOHNS RD", "amenity": "post_box", "collection_times": "Mo-Fr 15:00", "note": "ON 12/24 AND 12/31, THIS BOX MAY BE COLLECTED AS EARLY AS 12 NOON.", "nsi_id": "unitedstatespostalservice-a77078", "operator": "United States Postal Service", "operator:short": "USPS", "operator:type": "public", "operator:wikidata": "Q668687", "ref": "3363400033"}, "type": "Feature"}
{"geometry": {"coordinates": [-82.5322470558, 28.0193247968], "type": "Point"}, "id": "NpALNQ_y_I4eeVxJCZEExWRiCYo=", "properties": {"@source_uri": "https://tools.usps.com/UspsToolsRestServices/rest/POLocator/findLocations", "@spider": "usps_collection_boxes", "addr:city": "TAMPA", "addr:country": "US", "addr:postcode": "33634", "addr:state": "FL", "addr:street_address": "5200 TAMPA WEST BLVD", "amenity": "post_box", "collection_times": "Mo-Fr 12:15", "note": "ON 12/24 AND 12/31, THIS BOX MAY BE COLLECTED AS EARLY AS 12 NOON.", "nsi_id": "unitedstatespostalservice-a77078", "operator": "United States Postal Service", "operator:short": "USPS", "operator:type": "public", "operator:wikidata": "Q668687", "ref": "3363400034"}, "type": "Feature"}
{"geometry": {"coordinates": [-82.5492726, 27.982994], "type": "Point"}, "id": "aNOB9Oix6OztU4IF3RAKd-xNNiY=", "properties": {"@source_uri": "https://tools.usps.com/UspsToolsRestServices/rest/POLocator/findLocations", "@spider": "usps_collection_boxes", "addr:city": "TAMPA", "addr:country": "US", "addr:postcode": "33634", "addr:state": "FL", "addr:street_address": "4919 MEMORIAL HWY", "amenity": "post_box", "collection_times": "Mo-Fr 14:00", "note": "ON 12/24 AND 12/31, THIS BOX MAY BE COLLECTED AS EARLY AS 12 NOON.", "nsi_id": "unitedstatespostalservice-a77078", "operator": "United States Postal Service", "operator:short": "USPS", "operator:type": "public", "operator:wikidata": "Q668687", "ref": "3363400039"}, "type": "Feature"}
{"geometry": {"coordinates": [-82.5473557, 27.99435], "type": "Point"}, "id": "KkOGxVIUsOeB1cYMQzo8LfmHzRs=", "properties": {"@source_uri": "https://tools.usps.com/UspsToolsRestServices/rest/POLocator/findLocations", "@spider": "usps_collection_boxes", "addr:city": "TAMPA", "addr:country": "US", "addr:postcode": "33634", "addr:state": "FL", "addr:street_address": "5130 EISENHOWER BLVD", "amenity": "post_box", "collection_times": "Mo-Fr 13:30", "note": "ON 12/24 AND 12/31, THIS BOX MAY BE COLLECTED AS EARLY AS 12 NOON.", "nsi_id": "unitedstatespostalservice-a77078", "operator": "United States Postal Service", "operator:short": "USPS", "operator:type": "public", "operator:wikidata": "Q668687", "ref": "3363400046"}, "type": "Feature"}
{"geometry": {"coordinates": [-82.5466706, 27.992758], "type": "Point"}, "id": "EFWPTj-NtZIdEuqrjBk4C-Vm970=", "properties": {"@source_uri": "https://tools.usps.com/UspsToolsRestServices/rest/POLocator/findLocations", "@spider": "usps_collection_boxes", "addr:city": "TAMPA", "addr:country": "US", "addr:postcode": "33634", "addr:state": "FL", "addr:street_address": "5110 EISENHOWER BLVD", "amenity": "post_box", "collection_times": "Mo-Fr 13:45", "note": "ON 12/24 AND 12/31, THIS BOX MAY BE COLLECTED AS EARLY AS 12 NOON.", "nsi_id": "unitedstatespostalservice-a77078", "operator": "United States Postal Service", "operator:short": "USPS", "operator:type": "public", "operator:wikidata": "Q668687", "ref": "3363400047"}, "type": "Feature"}
{"geometry": {"coordinates": [-82.5503921, 27.979646], "type": "Point"}, "id": "j0mDjR0paU1W4U7Gfrt-QrLZxJg=", "properties": {"@source_uri": "https://tools.usps.com/UspsToolsRestServices/rest/POLocator/findLocations", "@spider": "usps_collection_boxes", "addr:city": "TAMPA", "addr:country": "US", "addr:postcode": "33634", "addr:state": "FL", "addr:street_address": "4900 MEMORIAL HWY", "amenity": "post_box", "collection_times": "Mo-Fr 14:00", "note": "ON 12/24 AND 12/31, THIS BOX MAY BE COLLECTED AS EARLY AS 12 NOON.", "nsi_id": "unitedstatespostalservice-a77078", "operator": "United States Postal Service", "operator:short": "USPS", "operator:type": "public", "operator:wikidata": "Q668687", "ref": "3363400050"}, "type": "Feature"}
{"geometry": {"coordinates": [-82.5359247, 28.026248], "type": "Point"}, "id": "dZdZhMYZ41B15lJIo2lIaVWoWvA=", "properties": {"@source_uri": "https://tools.usps.com/UspsToolsRestServices/rest/POLocator/findLocations", "@spider": "usps_collection_boxes", "addr:city": "TAMPA", "addr:country": "US", "addr:postcode": "33634", "addr:state": "FL", "addr:street_address": "5455 W WATERS AVE", "amenity": "post_box", "collection_times": "Mo-Fr 12:00", "nsi_id": "unitedstatespostalservice-a77078", "operator": "United States Postal Service", "operator:short": "USPS", "operator:type": "public", "operator:wikidata": "Q668687", "ref": "3363400066"}, "type": "Feature"}
{"geometry": {"coordinates": [-82.3634536, 28.075161], "type": "Point"}, "id": "GXXWkAgrfFGb_v4wm2Xy_cbaxx4=", "properties": {"@source_uri": "https://tools.usps.com/UspsToolsRestServices/rest/POLocator/findLocations", "@spider": "usps_collection_boxes", "addr:city": "TAMPA", "addr:country": "US", "addr:postcode": "33637", "addr:state": "FL", "addr:street_address": "8600 PALM LN", "amenity": "post_box", "collection_times": "Mo-Fr 11:00; Sa 10:00", "nsi_id": "unitedstatespostalservice-a77078", "operator": "United States Postal Service", "operator:short": "USPS", "operator:type": "public", "operator:wikidata": "Q668687", "ref": "3363700002"}, "type": "Feature"}
{"geometry": {"coordinates": [-82.3556549, 28.073349], "type": "Point"}, "id": "bwWLVpo0pvxEmeQLsSQhS4gwiLg=", "properties": {"@source_uri": "https://tools.usps.com/UspsToolsRestServices/rest/POLocator/findLocations", "@spider": "usps_collection_boxes", "addr:city": "TAMPA", "addr:country": "US", "addr:postcode": "33637", "addr:state": "FL", "addr:street_address": "8800 GRAND OAK CIR", "amenity": "post_box", "collection_times": "Mo-Fr 10:30; Sa 10:00", "nsi_id": "unitedstatespostalservice-a77078", "operator": "United States Postal Service", "operator:short": "USPS", "operator:type": "public", "operator:wikidata": "Q668687", "ref": "3363700013"}, "type": "Feature"}
{"geometry": {"coordinates": [-82.4038706, 28.091249], "type": "Point"}, "id": "6pg_fwn9unTzf2okzTmF_jv6SKY=", "properties": {"@source_uri": "https://tools.usps.com/UspsToolsRestServices/rest/POLocator/findLocations", "@spider": "usps_collection_boxes", "addr:city": "TAMPA", "addr:country": "US", "addr:postcode": "33647", "addr:state": "FL", "addr:street_address": "15310 AMBERLY DR", "amenity": "post_box", "collection_times": "Mo-Fr 13:00", "note": "ON 12/24 AND 12/31, THIS BOX MAY BE COLLECTED AS EARLY AS 12 NOON.", "nsi_id": "unitedstatespostalservice-a77078", "operator": "United States Postal Service", "operator:short": "USPS", "operator:type": "public", "operator:wikidata": "Q668687", "ref": "3364700003"}, "type": "Feature"}
{"geometry": {"coordinates": [-82.3996844, 28.099773], "type": "Point"}, "id": "ho852QKMlSz1mF6FoWJf3-WrSVs=", "properties": {"@source_uri": "https://tools.usps.com/UspsToolsRestServices/rest/POLocator/findLocations", "@spider": "usps_collection_boxes", "addr:city": "TAMPA", "addr:country": "US", "addr:postcode": "33647", "addr:state": "FL", "addr:street_address": "16057 TAMPA PALMS BLVD W", "amenity": "post_box", "collection_times": "Mo-Sa 12:00", "nsi_id": "unitedstatespostalservice-a77078", "operator": "United States Postal Service", "operator:short": "USPS", "operator:type": "public", "operator:wikidata": "Q668687", "ref": "3364700004"}, "type": "Feature"}
{"geometry": {"coordinates": [-82.3522474, 28.152157], "type": "Point"}, "id": "ZB4MXyQwlbhQZT7PbCxKB6p3koI=", "properties": {"@source_uri": "https://tools.usps.com/UspsToolsRestServices/rest/POLocator/findLocations", "@spider": "usps_collection_boxes", "addr:city": "TAMPA", "addr:country": "US", "addr:postcode": "33647", "addr:state": "FL", "addr:street_address": "19651 BRUCE B DOWNS BLVD", "amenity": "post_box", "collection_times": "Mo-Sa 10:00", "nsi_id": "unitedstatespostalservice-a77078", "operator": "United States Postal Service", "operator:short": "USPS", "operator:type": "public", "operator:wikidata": "Q668687", "ref": "3364700006"}, "type": "Feature"}
{"geometry": {"coordinates": [-82.3546833, 28.145818], "type": "Point"}, "id": "CM-iC8V1QlROwgUob1O4p5QsVj8=", "properties": {"@source_uri": "https://tools.usps.com/UspsToolsRestServices/rest/POLocator/findLocations", "@spider": "usps_collection_boxes", "addr:city": "TAMPA", "addr:country": "US", "addr:postcode": "33647", "addr:state": "FL", "addr:street_address": "19046 BRUCE B DOWNS BLVD", "amenity": "post_box", "collection_times": "Mo-Sa 13:00", "note": "ON 12/24 AND 12/31, THIS BOX MAY BE COLLECTED AS EARLY AS 12 NOON.", "nsi_id": "unitedstatespostalservice-a77078", "operator": "United States Postal Service", "operator:short": "USPS", "operator:type": "public", "operator:wikidata": "Q668687", "ref": "3364700012"}, "type": "Feature"}
{"geometry": {"coordinates": [-82.3268727, 28.142455], "type": "Point"}, "id": "twzBJks2hKFEMndY4V1WUzwM3Us=", "properties": {"@source_uri": "https://tools.usps.com/UspsToolsRestServices/rest/POLocator/findLocations", "@spider": "usps_collection_boxes", "addr:city": "TAMPA", "addr:country": "US", "addr:postcode": "33647", "addr:state": "FL", "addr:street_address": "10052 CROSS CREEK BLVD", "amenity": "post_box", "collection_times": "Mo-Sa 13:00", "note": "ON 12/24 AND 12/31, THIS BOX MAY BE COLLECTED AS EARLY AS 12 NOON.", "nsi_id": "unitedstatespostalservice-a77078", "operator": "United States Postal Service", "operator:short": "USPS", "operator:type": "public", "operator:wikidata": "Q668687", "ref": "3364700014"}, "type": "Feature"}
{"geometry": {"coordinates": [-82.3850716, 28.112433], "type": "Point"}, "id": "8OuFNRvpevlkmpZ3euuDqbDY2cw=", "properties": {"@source_uri": "https://tools.usps.com/UspsToolsRestServices/rest/POLocator/findLocations", "@spider": "usps_collection_boxes", "addr:city": "TAMPA", "addr:country": "US", "addr:postcode": "33647", "addr:state": "FL", "addr:street_address": "16350 BRUCE B DOWNS BLVD", "amenity": "post_box", "collection_times": "Mo-Sa 17:00", "name": "USPS COLLECTION BOX - APC", "note": "ON 12/24 AND 12/31, THIS BOX MAY BE COLLECTED AS EARLY AS 12 NOON.", "nsi_id": "unitedstatespostalservice-a77078", "operator": "United States Postal Service", "operator:short": "USPS", "operator:type": "public", "operator:wikidata": "Q668687", "ref": "3364700016"}, "type": "Feature"}
{"geometry": {"coordinates": [-82.3853409953, 28.1124839876], "type": "Point"}, "id": "y69gVZ3eoJYU0A05qu-KXNKSrqU=", "properties": {"@source_uri": "https://tools.usps.com/UspsToolsRestServices/rest/POLocator/findLocations", "@spider": "usps_collection_boxes", "addr:city": "TAMPA", "addr:country": "US", "addr:postcode": "33647", "addr:state": "FL", "addr:street_address": "16350 BRUCE B DOWNS BLVD", "amenity": "post_box", "collection_times": "Mo-Sa 17:00", "note": "ON 12/24 AND 12/31, THIS BOX MAY BE COLLECTED AS EARLY AS 12 NOON.", "nsi_id": "unitedstatespostalservice-a77078", "operator": "United States Postal Service", "operator:short": "USPS", "operator:type": "public", "operator:wikidata": "Q668687", "ref": "3364700017"}, "type": "Feature"}
{"geometry": {"coordinates": [-82.384702611, 28.111750654], "type": "Point"}, "id": "4VqZw0L5goq-A_INOlX8Wmp-Vns=", "properties": {"@source_uri": "https://tools.usps.com/UspsToolsRestServices/rest/POLocator/findLocations", "@spider": "usps_collection_boxes", "addr:city": "TAMPA", "addr:country": "US", "addr:postcode": "33647", "addr:state": "FL", "addr:street_address": "16350 BRUCE B DOWNS BLVD", "amenity": "post_box", "collection_times": "Mo-Fr 17:30; Sa 13:00", "indoor": "yes", "note": "ON 12/24 AND 12/31, THIS BOX MAY BE COLLECTED AS EARLY AS 12 NOON.", "nsi_id": "unitedstatespostalservice-a77078", "operator": "United States Postal Service", "operator:short": "USPS", "operator:type": "public", "operator:wikidata": "Q668687", "ref": "3364700024"}, "type": "Feature"}
