{"geometry": {"coordinates": [-82.6394657, 27.774975], "type": "Point"}, "id": "OAbfdWGP_rwVwyGQFu6Cj1oxIbc=", "properties": {"@source_uri": "https://tools.usps.com/UspsToolsRestServices/rest/POLocator/findLocations", "@spider": "usps_collection_boxes", "addr:city": "ST PETERSBURG", "addr:country": "US", "addr:postcode": "33701", "addr:state": "FL", "addr:street_address": "411 1ST AVE N", "amenity": "post_box", "collection_times": "Mo-Fr 16:35; Sa 13:45", "note": "ON 12/24 AND 12/31, THIS BOX MAY BE COLLECTED AS EARLY AS 12 NOON.", "nsi_id": "unitedstatespostalservice-a77078", "operator": "United States Postal Service", "operator:short": "USPS", "operator:type": "public", "operator:wikidata": "Q668687", "ref": "3370100003"}, "type": "Feature"}
{"geometry": {"coordinates": [-82.6394657, 27.774975], "type": "Point"}, "id": "_TF323j2xrmXOMuy_pFV21LoJek=", "properties": {"@source_uri": "https://tools.usps.com/UspsToolsRestServices/rest/POLocator/findLocations", "@spider": "usps_collection_boxes", "addr:city": "ST PETERSBURG", "addr:country": "US", "addr:postcode": "33701", "addr:state": "FL", "addr:street_address": "527 1ST AVE N", "amenity": "post_box", "collection_times": "Mo-Fr 16:40; Sa 13:50", "note": "ON 12/24 AND 12/31, THIS BOX MAY BE COLLECTED AS EARLY AS 12 NOON.", "nsi_id": "unitedstatespostalservice-a77078", "operator": "United States Postal Service", "operator:short": "USPS", "operator:type": "public", "operator:wikidata": "Q668687", "ref": "3370100005"}, "type": "Feature"}
{"geometry": {"coordinates": [-82.6394657, 27.774975], "type": "Point"}, "id": "bdaMXPWy95lmDPUs0uoBtcj_TXA=", "properties": {"@source_uri": "https://tools.usps.com/UspsToolsRestServices/rest/POLocator/findLocations", "@spider": "usps_collection_boxes", "addr:city": "ST PETERSBURG", "addr:country": "US", "addr:postcode": "33701", "addr:state": "FL", "addr:street_address": "600 1ST AVE N", "amenity": "post_box", "collection_times": "Mo-Fr 16:45", "note": "ON 12/24 AND 12/31, THIS BOX MAY BE COLLECTED AS EARLY AS 12 NOON.", "nsi_id": "unitedstatespostalservice-a77078", "operator": "United States Postal Service", "operator:short": "USPS", "operator:type": "public", "operator:wikidata": "Q668687", "ref": "3370100008"}, "type": "Feature"}
{"geometry": {"coordinates": [-82.6394657, 27.774975], "type": "Point"}, "id": "nf8p4lozyBPTmJDlGukXN5EF7Rw=", "properties": {"@source_uri": "https://tools.usps.com/UspsToolsRestServices/rest/POLocator/findLocations", "@spider": "usps_collection_boxes", "addr:city": "ST PETERSBURG", "addr:country": "US", "addr:postcode": "33701", "addr:state": "FL", "addr:street_address": "701 1ST AVE N", "amenity": "post_box", "collection_times": "Mo-Fr 16:30", "note": "ON 12/24 AND 12/31, THIS BOX MAY BE COLLECTED AS EARLY AS 12 NOON.", "nsi_id": "unitedstatespostalservice-a77078", "operator": "United States Postal Service", "operator:short": "USPS", "operator:type": "public", "operator:wikidata": "Q668687", "ref": "3370100010"}, "type": "Feature"}
{"geometry": {"coordinates": [-82.6394657, 27.774975], "type": "Point"}, "id": "GGmStISNOzHq1WTCbNomLRsESho=", "properties": {"@source_uri": "https://tools.usps.com/UspsToolsRestServices/rest/POLocator/findLocations", "@spider": "usps_collection_boxes", "addr:city": "ST PETERSBURG", "addr:country": "US", "addr:postcode": "33701", "addr:state": "FL", "addr:street_address": "150 2ND AVE N", "amenity": "post_box", "collection_times": "Mo-Fr 16:00", "note": "ON 12/24 AND 12/31, THIS BOX MAY BE COLLECTED AS EARLY AS 12 NOON.", "nsi_id": "unitedstatespostalservice-a77078", "operator": "United States Postal Service", "operator:short": "USPS", "operator:type": "public", "operator:wikidata": "Q668687", "ref": "3370100021"}, "type": "Feature"}
{"geometry": {"coordinates": [-82.6394657, 27.774975], "type": "Point"}, "id": "fiyxs5_Wrg9BVH8GfeW7_Kl-VQ8=", "properties": {"@source_uri": "https://tools.usps.com/UspsToolsRestServices/rest/POLocator/findLocations", "@spider": "usps_collection_boxes", "addr:city": "ST PETERSBURG", "addr:country": "US", "addr:postcode": "33701", "addr:state": "FL", "addr:street_address": "166 5TH AVE NE", "amenity": "post_box", "collection_times": "Mo-Fr 16:10", "note": "ON 12/24 AND 12/31, THIS BOX MAY BE COLLECTED AS EARLY AS 12 NOON.", "nsi_id": "unitedstatespostalservice-a77078", "operator": "United States Postal Service", "operator:short": "USPS", "operator:type": "public", "operator:wikidata": "Q668687", "ref": "3370100022"}, "type": "Feature"}
{"geometry": {"coordinates": [-82.6394657, 27.774975], "type": "Point"}, "id": "SkllUW93j7VVtYWZ7OrR9eIP_d0=", "properties": {"@source_uri": "https://tools.usps.com/UspsToolsRestServices/rest/POLocator/findLocations", "@spider": "usps_collection_boxes", "addr:city": "ST PETERSBURG", "addr:country": "US", "addr:postcode": "33701", "addr:state": "FL", "addr:street_address": "501 6TH ST N", "amenity": "post_box", "collection_times": "Mo-Fr 16:15", "note": "ON 12/24 AND 12/31, THIS BOX MAY BE COLLECTED AS EARLY AS 12 NOON.", "nsi_id": "unitedstatespostalservice-a77078", "operator": "United States Postal Service", "operator:short": "USPS", "operator:type": "public", "operator:wikidata": "Q668687", "ref": "3370100024"}, "type": "Feature"}
{"geometry": {"coordinates": [-82.6394657, 27.774975], "type": "Point"}, "id": "X5inXieAC_gUeVHJHvuzAYncefc=", "properties": {"@source_uri": "https://tools.usps.com/UspsToolsRestServices/rest/POLocator/findLocations", "@spider": "usps_collection_boxes", "addr:city": "ST PETERSBURG", "addr:country": "US", "addr:postcode": "33701", "addr:state": "FL", "addr:street_address": "356 14TH AVE NE", "amenity": "post_box", "collection_times": "Mo-Fr 16:05", "note": "ON 12/24 AND 12/31, THIS BOX MAY BE COLLECTED AS EARLY AS 12 NOON.", "nsi_id": "unitedstatespostalservice-a77078", "operator": "United States Postal Service", "operator:short": "USPS", "operator:type": "public", "operator:wikidata": "Q668687", "ref": "3370100031"}, "type": "Feature"}
{"geometry": {"coordinates": [-82.6394657, 27.774975], "type": "Point"}, "id": "8M_XnT-c1DyyT6E4l7rydrWeCXo=", "properties": {"@source_uri": "https://tools.usps.com/UspsToolsRestServices/rest/POLocator/findLocations", "@spider": "usps_collection_boxes", "addr:city": "ST PETERSBURG", "addr:country": "US", "addr:postcode": "33701", "addr:state": "FL", "addr:street_address": "111 2ND AVE NE", "amenity": "post_box", "collection_times": "Mo-Fr 16:55; Sa 13:40", "note": "ON 12/24 AND 12/31, THIS BOX MAY BE COLLECTED AS EARLY AS 12 NOON.", "nsi_id": "unitedstatespostalservice-a77078", "operator": "United States Postal Service", "operator:short": "USPS", "operator:type": "public", "operator:wikidata": "Q668687", "ref": "3370100039"}, "type": "Feature"}
{"geometry": {"coordinates": [-82.6394657, 27.774975], "type": "Point"}, "id": "mJH_lxJS0hJd3Q3Cq329SzwgsP8=", "properties": {"@source_uri": "https://tools.usps.com/UspsToolsRestServices/rest/POLocator/findLocations", "@spider": "usps_collection_boxes", "addr:city": "ST PETERSBURG", "addr:country": "US", "addr:postcode": "33701", "addr:state": "FL", "addr:street_address": "1 PROGRESS PLZ", "amenity": "post_box", "collection_times": "Mo-Fr 17:00", "note": "ON 12/24 AND 12/31, THIS BOX MAY BE COLLECTED AS EARLY AS 12 NOON.", "nsi_id": "unitedstatespostalservice-a77078", "operator": "United States Postal Service", "operator:short": "USPS", "operator:type": "public", "operator:wikidata": "Q668687", "ref": "3370100044"}, "type": "Feature"}
{"geometry": {"coordinates": [-82.6394657, 27.774975], "type": "Point"}, "id": "q8NXCrTS7ThW2Lt-1Vup2s9ifbc=", "properties": {"@source_uri": "https://tools.usps.com/UspsToolsRestServices/rest/POLocator/findLocations", "@spider": "usps_collection_boxes", "addr:city": "ST PETERSBURG", "addr:country": "US", "addr:postcode": "33701", "addr:state": "FL", "addr:street_address": "125 5TH ST S", "amenity": "post_box", "collection_times": "Mo-Fr 15:00", "note": "ON 12/24 AND 12/31, THIS BOX MAY BE COLLECTED AS EARLY AS 12 NOON.", "nsi_id": "unitedstatespostalservice-a77078", "operator": "United States Postal Service", "operator:short": "USPS", "operator:type": "public", "operator:wikidata": "Q668687", "ref": "3370100048"}, "type": "Feature"}
{"geometry": {"coordinates": [-82.6394657, 27.774975], "type": "Point"}, "id": "8Ljc12YiSLFZr7Sqw0QL3Nu2XlI=", "properties": {"@source_uri": "https://tools.usps.com/UspsToolsRestServices/rest/POLocator/findLocations", "@spider": "usps_collection_boxes", "addr:city": "ST PETERSBURG", "addr:country": "US", "addr:postcode": "33701", "addr:state": "FL", "addr:street_address": "700 6TH ST S", "amenity": "post_box", "collection_times": "Mo-Fr 12:15", "note": "ON 12/24 AND 12/31, THIS BOX MAY BE COLLECTED AS EARLY AS 12 NOON.", "nsi_id": "unitedstatespostalservice-a77078", "operator": "United States Postal Service", "operator:short": "USPS", "operator:type": "public", "operator:wikidata": "Q668687", "ref": "3370100055"}, "type": "Feature"}
{"geometry": {"coordinates": [-82.6394657, 27.774975], "type": "Point"}, "id": "dCoWm9Mxr2dJSZ_D1fnySrVEqkc=", "properties": {"@source_uri": "https://tools.usps.com/UspsToolsRestServices/rest/POLocator/findLocations", "@spider": "usps_collection_boxes", "addr:city": "ST PETERSBURG", "addr:country": "US", "addr:postcode": "33701", "addr:state": "FL", "addr:street_address": "501 6TH AVE S", "amenity": "post_box", "collection_times": "Mo-Fr 15:00", "note": "ON 12/24 AND 12/31, THIS BOX MAY BE COLLECTED AS EARLY AS 12 NOON.", "nsi_id": "unitedstatespostalservice-a77078", "operator": "United States Postal Service", "operator:short": "USPS", "operator:type": "public", "operator:wikidata": "Q668687", "ref": "3370100070"}, "type": "Feature"}
{"geometry": {"coordinates": [-82.6394657, 27.774975], "type": "Point"}, "id": "1ZREGCVrTbBqtSnErP9pQ4p4ZhY=", "properties": {"@source_uri": "https://tools.usps.com/UspsToolsRestServices/rest/POLocator/findLocations", "@spider": "usps_collection_boxes", "addr:city": "ST PETERSBURG", "addr:country": "US", "addr:postcode": "33701", "addr:state": "FL", "addr:street_address": "100 3RD ST S", "amenity": "post_box", "collection_times": "Mo-Fr 16:20", "note": "ON 12/24 AND 12/31, THIS BOX MAY BE COLLECTED AS EARLY AS 12 NOON.", "nsi_id": "unitedstatespostalservice-a77078", "operator": "United States Postal Service", "operator:short": "USPS", "operator:type": "public", "operator:wikidata": "Q668687", "ref": "3370100079"}, "type": "Feature"}
{"geometry": {"coordinates": [-82.6394657, 27.774975], "type": "Point"}, "id": "lCtoJigDLhj3CVj3X-9IsMDc43c=", "properties": {"@source_uri": "https://tools.usps.com/UspsToolsRestServices/rest/POLocator/findLocations", "@spider": "usps_collection_boxes", "addr:city": "ST PETERSBURG", "addr:country": "US", "addr:postcode": "33701", "addr:state": "FL", "addr:street_address": "111 7TH AVE S", "amenity": "post_box", "collection_times": "Mo-Fr 15:00", "note": "ON 12/24 AND 12/31, THIS BOX MAY BE COLLECTED AS EARLY AS 12 NOON.", "nsi_id": "unitedstatespostalservice-a77078", "operator": "United States Postal Service", "operator:short": "USPS", "operator:type": "public", "operator:wikidata": "Q668687", "ref": "3370100083"}, "type": "Feature"}
{"geometry": {"coordinates": [-82.6394657, 27.774975], "type": "Point"}, "id": "8S2Av9oJipppowDRkivBUohU0VQ=", "properties": {"@source_uri": "https://tools.usps.com/UspsToolsRestServices/rest/POLocator/findLocations", "@spider": "usps_collection_boxes", "addr:city": "ST PETERSBURG", "addr:country": "US", "addr:postcode": "33701", "addr:state": "FL", "addr:street_address": "300 5TH ST N", "amenity": "post_box", "collection_times": "Mo-Fr 16:35", "note": "ON 12/24 AND 12/31, THIS BOX MAY BE COLLECTED AS EARLY AS 12 NOON.", "nsi_id": "unitedstatespostalservice-a77078", "operator": "United States Postal Service", "operator:short": "USPS", "operator:type": "public", "operator:wikidata": "Q668687", "ref": "3370100092"}, "type": "Feature"}
{"geometry": {"coordinates": [-82.6394657, 27.774975], "type": "Point"}, "id": "hcenSRc34KMgAd53_oDG985S6ns=", "properties": {"@source_uri": "https://tools.usps.com/UspsToolsRestServices/rest/POLocator/findLocations", "@spider": "usps_collection_boxes", "addr:city": "ST PETERSBURG", "addr:country": "US", "addr:postcode": "33701", "addr:state": "FL", "addr:street_address": "800 2ND AVE S", "amenity": "post_box", "collection_times": "Mo-Fr 14:00", "note": "ON 12/24 AND 12/31, THIS BOX MAY BE COLLECTED AS EARLY AS 12 NOON.", "nsi_id": "unitedstatespostalservice-a77078", "operator": "United States Postal Service", "operator:short": "USPS", "operator:type": "public", "operator:wikidata": "Q668687", "ref": "3370100098"}, "type": "Feature"}
{"geometry": {"coordinates": [-82.6394657, 27.774975], "type": "Point"}, "id": "rMAvfTy0MGe4b3oXL4EPSTwsCTo=", "properties": {"@source_uri": "https://tools.usps.com/UspsToolsRestServices/rest/POLocator/findLocations", "@spider": "usps_collection_boxes", "addr:city": "ST PETERSBURG", "addr:country": "US", "addr:postcode": "33701", "addr:state": "FL", "addr:street_address": "125 5TH ST S", "amenity": "post_box", "collection_times": "Mo-Fr 15:00", "note": "ON 12/24 AND 12/31, THIS BOX MAY BE COLLECTED AS EARLY AS 12 NOON.", "nsi_id": "unitedstatespostalservice-a77078", "operator": "United States Postal Service", "operator:short": "USPS", "operator:type": "public", "operator:wikidata": "Q668687", "ref": "3370100102"}, "type": "Feature"}
{"geometry": {"coordinates": [-82.6394657, 27.774975], "type": "Point"}, "id": "Nzxj83HxCxZoQ-AeLBpNKbLSUNg=", "properties": {"@source_uri": "https://tools.usps.com/UspsToolsRestServices/rest/POLocator/findLocations", "@spider": "usps_collection_boxes", "addr:city": "ST PETERSBURG", "addr:country": "US", "addr:postcode": "33701", "addr:state": "FL", "addr:street_address": "205 9TH ST N", "amenity": "post_box", "collection_times": "Mo-Fr 16:15", "note": "ON 12/24 AND 12/31, THIS BOX MAY BE COLLECTED AS EARLY AS 12 NOON.", "nsi_id": "unitedstatespostalservice-a77078", "operator": "United States Postal Service", "operator:short": "USPS", "operator:type": "public", "operator:wikidata": "Q668687", "ref": "3370100108"}, "type": "Feature"}
{"geometry": {"coordinates": [-82.6394657, 27.774975], "type": "Point"}, "id": "YgeaU1QB66SIFWSGZJJajSEahQY=", "properties": {"@source_uri": "https://tools.usps.com/UspsToolsRestServices/rest/POLocator/findLocations", "@spider": "usps_collection_boxes", "addr:city": "ST PETERSBURG", "addr:country": "US", "addr:postcode": "33701", "addr:state": "FL", "addr:street_address": "700 CENTRAL AVE", "amenity": "post_box", "collection_times": "Mo-Fr 16:40", "note": "ON 12/24 AND 12/31, THIS BOX MAY BE COLLECTED AS EARLY AS 12 NOON.", "nsi_id": "unitedstatespostalservice-a77078", "operator": "United States Postal Service", "operator:short": "USPS", "operator:type": "public", "operator:wikidata": "Q668687", "ref": "3370100109"}, "type": "Feature"}
{"geometry": {"coordinates": [-82.6394657, 27.774975], "type": "Point"}, "id": "EXvyNeGKhNcATntBK-PRQQ9OnBU=", "properties": {"@source_uri": "https://tools.usps.com/UspsToolsRestServices/rest/POLocator/findLocations", "@spider": "usps_collection_boxes", "addr:city": "ST PETERSBURG", "addr:country": "US", "addr:postcode": "33701", "addr:state": "FL", "addr:street_address": "525 MIRROR LAKE DR N", "amenity": "post_box", "collection_times": "Mo-Fr 16:50; Sa 13:55", "note": "ON 12/24 AND 12/31, THIS BOX MAY BE COLLECTED AS EARLY AS 12 NOON.", "nsi_id": "unitedstatespostalservice-a77078", "operator": "United States Postal Service", "operator:short": "USPS", "operator:type": "public", "operator:wikidata": "Q668687", "ref": "3370100113"}, "type": "Feature"}
{"geometry": {"coordinates": [-82.6394657, 27.774975], "type": "Point"}, "id": "PFgs9meL6RvcoF5qKpwpsAfPUXA=", "properties": {"@source_uri": "https://tools.usps.com/UspsToolsRestServices/rest/POLocator/findLocations", "@spider": "usps_collection_boxes", "addr:city": "ST PETERSBURG", "addr:country": "US", "addr:postcode": "33701", "addr:state": "FL", "addr:street_address": "263 13TH AVE S", "amenity": "post_box", "collection_times": "Mo-Fr 16:15", "note": "ON 12/24 AND 12/31, THIS BOX MAY BE COLLECTED AS EARLY AS 12 NOON.", "nsi_id": "unitedstatespostalservice-a77078", "operator": "United States Postal Service", "operator:short": "USPS", "operator:type": "public", "operator:wikidata": "Q668687", "ref": "3370100114"}, "type": "Feature"}
{"geometry": {"coordinates": [-82.6394657, 27.774975], "type": "Point"}, "id": "6O7_gBYiFNrL8C5RWrQVTnkB1JY=", "properties": {"@source_uri": "https://tools.usps.com/UspsToolsRestServices/rest/POLocator/findLocations", "@spider": "usps_collection_boxes", "addr:city": "ST PETERSBURG", "addr:country": "US", "addr:postcode": "33701", "addr:state": "FL", "addr:street_address": "76 4TH ST N", "amenity": "post_box", "collection_times": "Mo-Fr 17:00", "indoor": "yes", "note": "ON 12/24 AND 12/31, THIS BOX MAY BE COLLECTED AS EARLY AS 12 NOON.", "nsi_id": "unitedstatespostalservice-a77078", "operator": "United States Postal Service", "operator:short": "USPS", "operator:type": "public", "operator:wikidata": "Q668687", "ref": "3370100121"}, "type": "Feature"}
{"geometry": {"coordinates": [-82.6407685, 27.8352972], "type": "Point"}, "id": "7ufgx-41qe7gDqowS7TsML9HJXQ=", "properties": {"@source_uri": "https://tools.usps.com/UspsToolsRestServices/rest/POLocator/findLocations", "@spider": "usps_collection_boxes", "addr:city": "ST PETERSBURG", "addr:country": "US", "addr:postcode": "33702", "addr:state": "FL", "addr:street_address": "7901 4TH ST N", "amenity": "post_box", "collection_times": "Mo-Fr 15:00", "note": "ON 12/24 AND 12/31, THIS BOX MAY BE COLLECTED AS EARLY AS 12 NOON.", "nsi_id": "unitedstatespostalservice-a77078", "operator": "United States Postal Service", "operator:short": "USPS", "operator:type": "public", "operator:wikidata": "Q668687", "ref": "3370200002"}, "type": "Feature"}
{"geometry": {"coordinates": [-82.6407685, 27.8352972], "type": "Point"}, "id": "hKcpsbJ20evD1zQVoz6jZPJvGls=", "properties": {"@source_uri": "https://tools.usps.com/UspsToolsRestServices/rest/POLocator/findLocations", "@spider": "usps_collection_boxes", "addr:city": "ST PETERSBURG", "addr:country": "US", "addr:postcode": "33702", "addr:state": "FL", "addr:street_address": "7491 4TH ST N", "amenity": "post_box", "collection_times": "Mo-Fr 15:00", "note": "ON 12/24 AND 12/31, THIS BOX MAY BE COLLECTED AS EARLY AS 12 NOON.", "nsi_id": "unitedstatespostalservice-a77078", "operator": "United States Postal Service", "operator:short": "USPS", "operator:type": "public", "operator:wikidata": "Q668687", "ref": "3370200003"}, "type": "Feature"}
{"geometry": {"coordinates": [-82.6407685, 27.8352972], "type": "Point"}, "id": "cteCXWnGuNROYD5n8HzXvLhSpUU=", "properties": {"@source_uri": "https://tools.usps.com/UspsToolsRestServices/rest/POLocator/findLocations", "@spider": "usps_collection_boxes", "addr:city": "ST PETERSBURG", "addr:country": "US", "addr:postcode": "33702", "addr:state": "FL", "addr:street_address": "701 77TH AVE N", "amenity": "post_box", "collection_times": "Mo-Fr 17:00; Sa 13:20", "note": "ON 12/24 AND 12/31, THIS BOX MAY BE COLLECTED AS EARLY AS 12 NOON.", "nsi_id": "unitedstatespostalservice-a77078", "operator": "United States Postal Service", "operator:short": "USPS", "operator:type": "public", "operator:wikidata": "Q668687", "ref": "3370200010"}, "type": "Feature"}
{"geometry": {"coordinates": [-82.6407685, 27.8352972], "type": "Point"}, "id": "jJTRqjLasU6KYGb2DzaQOaI7Gvs=", "properties": {"@source_uri": "https://tools.usps.com/UspsToolsRestServices/rest/POLocator/findLocations", "@spider": "usps_collection_boxes", "addr:city": "ST PETERSBURG", "addr:country": "US", "addr:postcode": "33702", "addr:state": "FL", "addr:street_address": "9887 4TH ST N", "amenity": "post_box", "collection_times": "Mo-Fr 15:30", "note": "ON 12/24 AND 12/31, THIS BOX MAY BE COLLECTED AS EARLY AS 12 NOON.", "nsi_id": "unitedstatespostalservice-a77078", "operator": "United States Postal Service", "operator:short": "USPS", "operator:type": "public", "operator:wikidata": "Q668687", "ref": "3370200020"}, "type": "Feature"}
{"geometry": {"coordinates": [-82.6407685, 27.8352972], "type": "Point"}, "id": "pGDrUcVZadtvdm6BzGyMCGOXC08=", "properties": {"@source_uri": "https://tools.usps.com/UspsToolsRestServices/rest/POLocator/findLocations", "@spider": "usps_collection_boxes", "addr:city": "ST PETERSBURG", "addr:country": "US", "addr:postcode": "33702", "addr:state": "FL", "addr:street_address": "9450 KOGER BLVD N", "amenity": "post_box", "collection_times": "Mo-Fr 15:15", "note": "ON 12/24 AND 12/31, THIS BOX MAY BE COLLECTED AS EARLY AS 12 NOON.", "nsi_id": "unitedstatespostalservice-a77078", "operator": "United States Postal Service", "operator:short": "USPS", "operator:type": "public", "operator:wikidata": "Q668687", "ref": "3370200023"}, "type": "Feature"}
{"geometry": {"coordinates": [-82.6407685, 27.8352972], "type": "Point"}, "id": "0q_JgD8S8DogwdYSZwlXyFuye-I=", "properties": {"@source_uri": "https://tools.usps.com/UspsToolsRestServices/rest/POLocator/findLocations", "@spider": "usps_collection_boxes", "addr:city": "ST PETERSBURG", "addr:country": "US", "addr:postcode": "33702", "addr:state": "FL", "addr:street_address": "9720 EXECUTIVE CENTER DR N", "amenity": "post_box", "collection_times": "Mo-Fr 15:20", "note": "ON 12/24 AND 12/31, THIS BOX MAY BE COLLECTED AS EARLY AS 12 NOON.", "nsi_id": "unitedstatespostalservice-a77078", "operator": "United States Postal Service", "operator:short": "USPS", "operator:type": "public", "operator:wikidata": "Q668687", "ref": "3370200037"}, "type": "Feature"}
{"geometry": {"coordinates": [-82.6407685, 27.8352972], "type": "Point"}, "id": "zroKhYdzZ34PLulv0z0dF_5DqkY=", "properties": {"@source_uri": "https://tools.usps.com/UspsToolsRestServices/rest/POLocator/findLocations", "@spider": "usps_collection_boxes", "addr:city": "ST PETERSBURG", "addr:country": "US", "addr:postcode": "33702", "addr:state": "FL", "addr:street_address": "9549 KOGER BLVD N", "amenity": "post_box", "collection_times": "Mo-Fr 15:20", "note": "ON 12/24 AND 12/31, THIS BOX MAY BE COLLECTED AS EARLY AS 12 NOON.", "nsi_id": "unitedstatespostalservice-a77078", "operator": "United States Postal Service", "operator:short": "USPS", "operator:type": "public", "operator:wikidata": "Q668687", "ref": "3370200063"}, "type": "Feature"}
{"geometry": {"coordinates": [-82.6407685, 27.8352972], "type": "Point"}, "id": "vMSwOhaYgTqnth6MILbYhruaKz0=", "properties": {"@source_uri": "https://tools.usps.com/UspsToolsRestServices/rest/POLocator/findLocations", "@spider": "usps_collection_boxes", "addr:city": "ST PETERSBURG", "addr:country": "US", "addr:postcode": "33702", "addr:state": "FL", "addr:street_address": "701 94TH AVE N", "amenity": "post_box", "collection_times": "Mo-Fr 15:15", "note": "ON 12/24 AND 12/31, THIS BOX MAY BE COLLECTED AS EARLY AS 12 NOON.", "nsi_id": "unitedstatespostalservice-a77078", "operator": "United States Postal Service", "operator:short": "USPS", "operator:type": "public", "operator:wikidata": "Q668687", "ref": "3370200071"}, "type": "Feature"}
{"geometry": {"coordinates": [-82.6407685, 27.8352972], "type": "Point"}, "id": "mo02vYiehYytLwBF1oSJXBjSslQ=", "properties": {"@source_uri": "https://tools.usps.com/UspsToolsRestServices/rest/POLocator/findLocations", "@spider": "usps_collection_boxes", "addr:city": "ST PETERSBURG", "addr:country": "US", "addr:postcode": "33702", "addr:state": "FL", "addr:street_address": "701 77TH AVE N", "amenity": "post_box", "collection_times": "Mo-Fr 17:00; Sa 13:20", "name": "USPS COLLECTION BOX - APC", "note": "ON 12/24 AND 12/31, THIS BOX MAY BE COLLECTED AS EARLY AS 12 NOON.", "nsi_id": "unitedstatespostalservice-a77078", "operator": "United States Postal Service", "operator:short": "USPS", "operator:type": "public", "operator:wikidata": "Q668687", "ref": "3370200092"}, "type": "Feature"}
{"geometry": {"coordinates": [-82.6407685, 27.8352972], "type": "Point"}, "id": "1_wNrY4bJqFHWnz8N6evH_tDjws=", "properties": {"@source_uri": "https://tools.usps.com/UspsToolsRestServices/rest/POLocator/findLocations", "@spider": "usps_collection_boxes", "addr:city": "ST PETERSBURG", "addr:country": "US", "addr:postcode": "33702", "addr:state": "FL", "addr:street_address": "701 77TH AVE N", "amenity": "post_box", "collection_times": "Mo-Fr 17:30; Sa 12:00", "indoor": "yes", "note": "ON 12/24 AND 12/31, THIS BOX MAY BE COLLECTED AS EARLY AS 12 NOON.", "nsi_id": "unitedstatespostalservice-a77078", "operator": "United States Postal Service", "operator:short": "USPS", "operator:type": "public", "operator:wikidata": "Q668687", "ref": "3370200111"}, "type": "Feature"}
{"geometry": {"coordinates": [-82.6407685, 27.8352972], "type": "Point"}, "id": "_Lblzr_nxmjMiZfJfceawkogfhw=", "properties": {"@source_uri": "https://tools.usps.com/UspsToolsRestServices/rest/POLocator/findLocations", "@spider": "usps_collection_boxes", "addr:city": "ST PETERSBURG", "addr:country": "US", "addr:postcode": "33702", "addr:state": "FL", "addr:street_address": "1201 GANDY BLVD N", "amenity": "post_box", "collection_times": "Mo-Fr 17:00; Sa 12:00", "indoor": "yes", "note": "ON 12/24 AND 12/31, THIS BOX MAY BE COLLECTED AS EARLY AS 12 NOON.", "nsi_id": "unitedstatespostalservice-a77078", "operator": "United States Postal Service", "operator:short": "USPS", "operator:type": "public", "operator:wikidata": "Q668687", "ref": "3370200112"}, "type": "Feature"}
{"geometry": {"coordinates": [-82.6401051, 27.820326], "type": "Point"}, "id": "SvB6DRwx83VYrPY6L1piMbKobqc=", "properties": {"@source_uri": "https://tools.usps.com/UspsToolsRestServices/rest/POLocator/findLocations", "@spider": "usps_collection_boxes", "addr:city": "ST PETERSBURG", "addr:country": "US", "addr:postcode": "33703", "addr:state": "FL", "addr:street_address": "5300 9TH ST N", "amenity": "post_box", "collection_times": "Mo-Sa 13:00", "note": "ON 12/24 AND 12/31, THIS BOX MAY BE COLLECTED AS EARLY AS 12 NOON.", "nsi_id": "unitedstatespostalservice-a77078", "operator": "United States Postal Service", "operator:short": "USPS", "operator:type": "public", "operator:wikidata": "Q668687", "ref": "3370300010"}, "type": "Feature"}
{"geometry": {"coordinates": [-82.6426198, 27.7989301], "type": "Point"}, "id": "3GObYtEMkYNX_AzwuqwPPtalltU=", "properties": {"@source_uri": "https://tools.usps.com/UspsToolsRestServices/rest/POLocator/findLocations", "@spider": "usps_collection_boxes", "addr:city": "ST PETERSBURG", "addr:country": "US", "addr:postcode": "33704", "addr:state": "FL", "addr:street_address": "3637 4TH ST N", "amenity": "post_box", "collection_times": "Mo-Sa 15:00", "note": "ON 12/24 AND 12/31, THIS BOX MAY BE COLLECTED AS EARLY AS 12 NOON.", "nsi_id": "unitedstatespostalservice-a77078", "operator": "United States Postal Service", "operator:short": "USPS", "operator:type": "public", "operator:wikidata": "Q668687", "ref": "3370400002"}, "type": "Feature"}
{"geometry": {"coordinates": [-82.6426198, 27.7989301], "type": "Point"}, "id": "gJFeVh8qMsCVPhlGpOUhAl-4XK4=", "properties": {"@source_uri": "https://tools.usps.com/UspsToolsRestServices/rest/POLocator/findLocations", "@spider": "usps_collection_boxes", "addr:city": "ST PETERSBURG", "addr:country": "US", "addr:postcode": "33704", "addr:state": "FL", "addr:street_address": "901 34TH AVE N", "amenity": "post_box", "collection_times": "Mo-Fr 17:00; Sa 12:20", "note": "ON 12/24 AND 12/31, THIS BOX MAY BE COLLECTED AS EARLY AS 12 NOON.", "nsi_id": "unitedstatespostalservice-a77078", "operator": "United States Postal Service", "operator:short": "USPS", "operator:type": "public", "operator:wikidata": "Q668687", "ref": "3370400011"}, "type": "Feature"}
{"geometry": {"coordinates": [-82.6426198, 27.7989301], "type": "Point"}, "id": "UBQ2oh7Y7TPKxcY6fBW5MfZPQTA=", "properties": {"@source_uri": "https://tools.usps.com/UspsToolsRestServices/rest/POLocator/findLocations", "@spider": "usps_collection_boxes", "addr:city": "ST PETERSBURG", "addr:country": "US", "addr:postcode": "33704", "addr:state": "FL", "addr:street_address": "1365 SNELL ISLE BLVD NE", "amenity": "post_box", "collection_times": "Mo-Fr 14:00; Sa 13:30", "note": "ON 12/24 AND 12/31, THIS BOX MAY BE COLLECTED AS EARLY AS 12 NOON.", "nsi_id": "unitedstatespostalservice-a77078", "operator": "United States Postal Service", "operator:short": "USPS", "operator:type": "public", "operator:wikidata": "Q668687", "ref": "3370400019"}, "type": "Feature"}
{"geometry": {"coordinates": [-82.6426198, 27.7989301], "type": "Point"}, "id": "5uq_Ky08uqkSXHETGEKjGDtChwg=", "properties": {"@source_uri": "https://tools.usps.com/UspsToolsRestServices/rest/POLocator/findLocations", "@spider": "usps_collection_boxes", "addr:city": "ST PETERSBURG", "addr:country": "US", "addr:postcode": "33704", "addr:state": "FL", "addr:street_address": "2600 9TH ST N", "amenity": "post_box", "collection_times": "Mo-Fr 15:00; Sa 13:45", "note": "ON 12/24 AND 12/31, THIS BOX MAY BE COLLECTED AS EARLY AS 12 NOON.", "nsi_id": "unitedstatespostalservice-a77078", "operator": "United States Postal Service", "operator:short": "USPS", "operator:type": "public", "operator:wikidata": "Q668687", "ref": "3370400024"}, "type": "Feature"}
{"geometry": {"coordinates": [-82.6426198, 27.7989301], "type": "Point"}, "id": "Ot_OoOHwBkbHMjdOoyPaiq8k1jE=", "properties": {"@source_uri": "https://tools.usps.com/UspsToolsRestServices/rest/POLocator/findLocations", "@spider": "usps_collection_boxes", "addr:city": "ST PETERSBURG", "addr:country": "US", "addr:postcode": "33704", "addr:state": "FL", "addr:street_address": "300 38TH AVE N", "amenity": "post_box", "collection_times": "Mo-Sa 15:00", "note": "ON 12/24 AND 12/31, THIS BOX MAY BE COLLECTED AS EARLY AS 12 NOON.", "nsi_id": "unitedstatespostalservice-a77078", "operator": "United States Postal Service", "operator:short": "USPS", "operator:type": "public", "operator:wikidata": "Q668687", "ref": "3370400033"}, "type": "Feature"}
{"geometry": {"coordinates": [-82.6426198, 27.7989301], "type": "Point"}, "id": "hqAmjHgu0ERWjmgpVG5h48GsNeo=", "properties": {"@source_uri": "https://tools.usps.com/UspsToolsRestServices/rest/POLocator/findLocations", "@spider": "usps_collection_boxes", "addr:city": "ST PETERSBURG", "addr:country": "US", "addr:postcode": "33704", "addr:state": "FL", "addr:street_address": "901 34TH AVE N", "amenity": "post_box", "collection_times": "Mo-Fr 17:00; Sa 12:00", "indoor": "yes", "note": "ON 12/24 AND 12/31, THIS BOX MAY BE COLLECTED AS EARLY AS 12 NOON.", "nsi_id": "unitedstatespostalservice-a77078", "operator": "United States Postal Service", "operator:short": "USPS", "operator:type": "public", "operator:wikidata": "Q668687", "ref": "3370400048"}, "type": "Feature"}
{"geometry": {"coordinates": [-82.642785, 27.7461], "type": "Point"}, "id": "OfBGhSLva-6TaVrKrxwdUOKEa2k=", "properties": {"@source_uri": "https://tools.usps.com/UspsToolsRestServices/rest/POLocator/findLocations", "@spider": "usps_collection_boxes", "addr:city": "ST PETERSBURG", "addr:country": "US", "addr:postcode": "33705", "addr:state": "FL", "addr:street_address": "1750 16TH ST S", "amenity": "post_box", "collection_times": "Mo-Fr 17:00; Sa 13:40", "note": "ON 12/24 AND 12/31, THIS BOX MAY BE COLLECTED AS EARLY AS 12 NOON.", "nsi_id": "unitedstatespostalservice-a77078", "operator": "United States Postal Service", "operator:short": "USPS", "operator:type": "public", "operator:wikidata": "Q668687", "ref": "3370500014"}, "type": "Feature"}
{"geometry": {"coordinates": [-82.642785, 27.7461], "type": "Point"}, "id": "RwzStAvelXGAI-dcbswHgS6ObdI=", "properties": {"@source_uri": "https://tools.usps.com/UspsToolsRestServices/rest/POLocator/findLocations", "@spider": "usps_collection_boxes", "addr:city": "ST PETERSBURG", "addr:country": "US", "addr:postcode": "33705", "addr:state": "FL", "addr:street_address": "4200 BLUEFISH DR SE", "amenity": "post_box", "collection_times": "Mo-Fr 14:00", "note": "ON 12/24 AND 12/31, THIS BOX MAY BE COLLECTED AS EARLY AS 12 NOON.", "nsi_id": "unitedstatespostalservice-a77078", "operator": "United States Postal Service", "operator:short": "USPS", "operator:type": "public", "operator:wikidata": "Q668687", "ref": "3370500024"}, "type": "Feature"}
{"geometry": {"coordinates": [-82.642785, 27.7461], "type": "Point"}, "id": "_g-d66grx5x4jKzFm4cbFmk1DeE=", "properties": {"@source_uri": "https://tools.usps.com/UspsToolsRestServices/rest/POLocator/findLocations", "@spider": "usps_collection_boxes", "addr:city": "ST PETERSBURG", "addr:country": "US", "addr:postcode": "33705", "addr:state": "FL", "addr:street_address": "1035 ARLINGTON AVE N", "amenity": "post_box", "collection_times": "Mo-Fr 15:30", "note": "ON 12/24 AND 12/31, THIS BOX MAY BE COLLECTED AS EARLY AS 12 NOON.", "nsi_id": "unitedstatespostalservice-a77078", "operator": "United States Postal Service", "operator:short": "USPS", "operator:type": "public", "operator:wikidata": "Q668687", "ref": "3370500032"}, "type": "Feature"}
{"geometry": {"coordinates": [-82.642785, 27.7461], "type": "Point"}, "id": "KRgBRnAWoKyTH1PfI6GtYqKXAL8=", "properties": {"@source_uri": "https://tools.usps.com/UspsToolsRestServices/rest/POLocator/findLocations", "@spider": "usps_collection_boxes", "addr:city": "ST PETERSBURG", "addr:country": "US", "addr:postcode": "33705", "addr:state": "FL", "addr:street_address": "977 62ND AVE S", "amenity": "post_box", "collection_times": "Mo-Fr 14:00; Sa 13:30", "note": "ON 12/24 AND 12/31, THIS BOX MAY BE COLLECTED AS EARLY AS 12 NOON.", "nsi_id": "unitedstatespostalservice-a77078", "operator": "United States Postal Service", "operator:short": "USPS", "operator:type": "public", "operator:wikidata": "Q668687", "ref": "3370500036"}, "type": "Feature"}
{"geometry": {"coordinates": [-82.642785, 27.7461], "type": "Point"}, "id": "FhdDYhCoBC8wwvKONdAnUJZEEpU=", "properties": {"@source_uri": "https://tools.usps.com/UspsToolsRestServices/rest/POLocator/findLocations", "@spider": "usps_collection_boxes", "addr:city": "ST PETERSBURG", "addr:country": "US", "addr:postcode": "33705", "addr:state": "FL", "addr:street_address": "560 JACKSON ST N", "amenity": "post_box", "collection_times": "Mo-Fr 12:30", "note": "ON 12/24 AND 12/31, THIS BOX MAY BE COLLECTED AS EARLY AS 12 NOON.", "nsi_id": "unitedstatespostalservice-a77078", "operator": "United States Postal Service", "operator:short": "USPS", "operator:type": "public", "operator:wikidata": "Q668687", "ref": "3370500039"}, "type": "Feature"}
{"geometry": {"coordinates": [-82.642785, 27.7461], "type": "Point"}, "id": "BKWuE4cZtKN8UH1HMEswjscgNzQ=", "properties": {"@source_uri": "https://tools.usps.com/UspsToolsRestServices/rest/POLocator/findLocations", "@spider": "usps_collection_boxes", "addr:city": "ST PETERSBURG", "addr:country": "US", "addr:postcode": "33705", "addr:state": "FL", "addr:street_address": "1750 16TH ST S", "amenity": "post_box", "collection_times": "Mo-Fr 17:00", "indoor": "yes", "note": "ON 12/24 AND 12/31, THIS BOX MAY BE COLLECTED AS EARLY AS 12 NOON.", "nsi_id": "unitedstatespostalservice-a77078", "operator": "United States Postal Service", "operator:short": "USPS", "operator:type": "public", "operator:wikidata": "Q668687", "ref": "3370500046"}, "type": "Feature"}
{"geometry": {"coordinates": [-82.739614664, 27.722016077], "type": "Point"}, "id": "Br0Oz8UmxhOpTVYFvQR1wf63Cxc=", "properties": {"@source_uri": "https://tools.usps.com/UspsToolsRestServices/rest/POLocator/findLocations", "@spider": "usps_collection_boxes", "addr:city": "ST PETE BEACH", "addr:country": "US", "addr:postcode": "33706", "addr:state": "FL", "addr:street_address": "130 8TH AVE", "amenity": "post_box", "collection_times": "Mo-Sa 14:00", "note": "ON 12/24 AND 12/31, THIS BOX MAY BE COLLECTED AS EARLY AS 12 NOON.", "nsi_id": "unitedstatespostalservice-a77078", "operator": "United States Postal Service", "operator:short": "USPS", "operator:type": "public", "operator:wikidata": "Q668687", "ref": "3370600002"}, "type": "Feature"}
{"geometry": {"coordinates": [-82.739614664, 27.722016077], "type": "Point"}, "id": "tgk-J9IMzdD5pvy7y09FpjG8Nuc=", "properties": {"@source_uri": "https://tools.usps.com/UspsToolsRestServices/rest/POLocator/findLocations", "@spider": "usps_collection_boxes", "addr:city": "ST PETE BEACH", "addr:country": "US", "addr:postcode": "33706", "addr:state": "FL", "addr:street_address": "120 108TH AVE", "amenity": "post_box", "collection_times": "Mo-Fr 17:00; Sa 10:30", "note": "ON 12/24 AND 12/31, THIS BOX MAY BE COLLECTED AS EARLY AS 12 NOON.", "nsi_id": "unitedstatespostalservice-a77078", "operator": "United States Postal Service", "operator:short": "USPS", "operator:type": "public", "operator:wikidata": "Q668687", "ref": "3370600005"}, "type": "Feature"}
{"geometry": {"coordinates": [-82.739614664, 27.722016077], "type": "Point"}, "id": "V4QaApvfIDbSwKYSEkrkeje1ht4=", "properties": {"@source_uri": "https://tools.usps.com/UspsToolsRestServices/rest/POLocator/findLocations", "@spider": "usps_collection_boxes", "addr:city": "ST PETE BEACH", "addr:country": "US", "addr:postcode": "33706", "addr:state": "FL", "addr:street_address": "250 COREY AVE", "amenity": "post_box", "collection_times": "Mo-Fr 17:00; Sa 13:45", "note": "ON 12/24 AND 12/31, THIS BOX MAY BE COLLECTED AS EARLY AS 12 NOON.", "nsi_id": "unitedstatespostalservice-a77078", "operator": "United States Postal Service", "operator:short": "USPS", "operator:type": "public", "operator:wikidata": "Q668687", "ref": "3370600010"}, "type": "Feature"}
{"geometry": {"coordinates": [-82.739614664, 27.722016077], "type": "Point"}, "id": "_DiX7OrV66Y__0V2Gb2w4SsYAhI=", "properties": {"@source_uri": "https://tools.usps.com/UspsToolsRestServices/rest/POLocator/findLocations", "@spider": "usps_collection_boxes", "addr:city": "ST PETE BEACH", "addr:country": "US", "addr:postcode": "33706", "addr:state": "FL", "addr:street_address": "4685 GULF BLVD", "amenity": "post_box", "collection_times": "Mo-Fr 16:00; Sa 15:00", "note": "ON 12/24 AND 12/31, THIS BOX MAY BE COLLECTED AS EARLY AS 12 NOON.", "nsi_id": "unitedstatespostalservice-a77078", "operator": "United States Postal Service", "operator:short": "USPS", "operator:type": "public", "operator:wikidata": "Q668687", "ref": "3370600015"}, "type": "Feature"}
{"geometry": {"coordinates": [-82.739614664, 27.722016077], "type": "Point"}, "id": "fY4prPFEkfisV87YQBMUscPFTVE=", "properties": {"@source_uri": "https://tools.usps.com/UspsToolsRestServices/rest/POLocator/findLocations", "@spider": "usps_collection_boxes", "addr:city": "ST PETE BEACH", "addr:country": "US", "addr:postcode": "33706", "addr:state": "FL", "addr:street_address": "138 107TH AVE", "amenity": "post_box", "collection_times": "Mo-Fr 17:00; Sa 12:00", "note": "ON 12/24 AND 12/31, THIS BOX MAY BE COLLECTED AS EARLY AS 12 NOON.", "nsi_id": "unitedstatespostalservice-a77078", "operator": "United States Postal Service", "operator:short": "USPS", "operator:type": "public", "operator:wikidata": "Q668687", "ref": "3370600040"}, "type": "Feature"}
{"geometry": {"coordinates": [-82.7352619, 27.760649431], "type": "Point"}, "id": "VKehTm0-Mhbr1vrnBk--dKRelXk=", "properties": {"@source_uri": "https://tools.usps.com/UspsToolsRestServices/rest/POLocator/findLocations", "@spider": "usps_collection_boxes", "addr:city": "SOUTH PASADENA", "addr:country": "US", "addr:postcode": "33707", "addr:state": "FL", "addr:street_address": "2401 53RD ST S", "amenity": "post_box", "collection_times": "Mo-Sa 14:30", "note": "ON 12/24 AND 12/31, THIS BOX MAY BE COLLECTED AS EARLY AS 12 NOON.", "nsi_id": "unitedstatespostalservice-a77078", "operator": "United States Postal Service", "operator:short": "USPS", "operator:type": "public", "operator:wikidata": "Q668687", "ref": "3370700008"}, "type": "Feature"}
{"geometry": {"coordinates": [-82.7352619, 27.760649431], "type": "Point"}, "id": "a7XmuAHmP94LkhnNDiaCjhR5tGo=", "properties": {"@source_uri": "https://tools.usps.com/UspsToolsRestServices/rest/POLocator/findLocations", "@spider": "usps_collection_boxes", "addr:city": "SOUTH PASADENA", "addr:country": "US", "addr:postcode": "33707", "addr:state": "FL", "addr:street_address": "1135 PASADENA AVE S", "amenity": "post_box", "collection_times": "Mo-Fr 14:45", "note": "ON 12/24 AND 12/31, THIS BOX MAY BE COLLECTED AS EARLY AS 12 NOON.", "nsi_id": "unitedstatespostalservice-a77078", "operator": "United States Postal Service", "operator:short": "USPS", "operator:type": "public", "operator:wikidata": "Q668687", "ref": "3370700021"}, "type": "Feature"}
{"geometry": {"coordinates": [-82.7352619, 27.760649431], "type": "Point"}, "id": "Z41QZutu9YSKGVfjmrKtWZokHck=", "properties": {"@source_uri": "https://tools.usps.com/UspsToolsRestServices/rest/POLocator/findLocations", "@spider": "usps_collection_boxes", "addr:city": "SOUTH PASADENA", "addr:country": "US", "addr:postcode": "33707", "addr:state": "FL", "addr:street_address": "6727 1ST AVE S", "amenity": "post_box", "collection_times": "Mo-Sa 15:15", "note": "ON 12/24 AND 12/31, THIS BOX MAY BE COLLECTED AS EARLY AS 12 NOON.", "nsi_id": "unitedstatespostalservice-a77078", "operator": "United States Postal Service", "operator:short": "USPS", "operator:type": "public", "operator:wikidata": "Q668687", "ref": "3370700028"}, "type": "Feature"}
{"geometry": {"coordinates": [-82.7352619, 27.760649431], "type": "Point"}, "id": "6eOTBSOmoxM9KIKvPNVUPMlL-mE=", "properties": {"@source_uri": "https://tools.usps.com/UspsToolsRestServices/rest/POLocator/findLocations", "@spider": "usps_collection_boxes", "addr:city": "SOUTH PASADENA", "addr:country": "US", "addr:postcode": "33707", "addr:state": "FL", "addr:street_address": "3115 BEACH BLVD S", "amenity": "post_box", "collection_times": "Mo-Sa 15:35", "note": "ON 12/24 AND 12/31, THIS BOX MAY BE COLLECTED AS EARLY AS 12 NOON.", "nsi_id": "unitedstatespostalservice-a77078", "operator": "United States Postal Service", "operator:short": "USPS", "operator:type": "public", "operator:wikidata": "Q668687", "ref": "3370700039"}, "type": "Feature"}
{"geometry": {"coordinates": [-82.7352619, 27.760649431], "type": "Point"}, "id": "0j_51Q1Pjyob2M2f8DV4VmW6Bq8=", "properties": {"@source_uri": "https://tools.usps.com/UspsToolsRestServices/rest/POLocator/findLocations", "@spider": "usps_collection_boxes", "addr:city": "SOUTH PASADENA", "addr:country": "US", "addr:postcode": "33707", "addr:state": "FL", "addr:street_address": "6850 GULFPORT BLVD S", "amenity": "post_box", "collection_times": "Mo-Fr 16:00; Sa 15:00", "note": "ON 12/24 AND 12/31, THIS BOX MAY BE COLLECTED AS EARLY AS 12 NOON.", "nsi_id": "unitedstatespostalservice-a77078", "operator": "United States Postal Service", "operator:short": "USPS", "operator:type": "public", "operator:wikidata": "Q668687", "ref": "3370700040"}, "type": "Feature"}
{"geometry": {"coordinates": [-82.7352619, 27.760649431], "type": "Point"}, "id": "FSf7v9FKW_UmLPVBVM1ArSpbmJQ=", "properties": {"@source_uri": "https://tools.usps.com/UspsToolsRestServices/rest/POLocator/findLocations", "@spider": "usps_collection_boxes", "addr:city": "SOUTH PASADENA", "addr:country": "US", "addr:postcode": "33707", "addr:state": "FL", "addr:street_address": "1609 PASADENA AVE S", "amenity": "post_box", "collection_times": "Mo-Fr 14:30", "note": "ON 12/24 AND 12/31, THIS BOX MAY BE COLLECTED AS EARLY AS 12 NOON.", "nsi_id": "unitedstatespostalservice-a77078", "operator": "United States Postal Service", "operator:short": "USPS", "operator:type": "public", "operator:wikidata": "Q668687", "ref": "3370700041"}, "type": "Feature"}
{"geometry": {"coordinates": [-82.8258846, 27.8234999], "type": "Point"}, "id": "6vFcuL0dNu1Y_Ioy-9QhcjIJ9w4=", "properties": {"@source_uri": "https://tools.usps.com/UspsToolsRestServices/rest/POLocator/findLocations", "@spider": "usps_collection_boxes", "addr:city": "REDINGTN SHOR", "addr:country": "US", "addr:postcode": "33708", "addr:state": "FL", "addr:street_address": "5150 DUHME RD", "amenity": "post_box", "collection_times": "Mo-Fr 15:00; Sa 12:55", "note": "ON 12/24 AND 12/31, THIS BOX MAY BE COLLECTED AS EARLY AS 12 NOON.", "nsi_id": "unitedstatespostalservice-a77078", "operator": "United States Postal Service", "operator:short": "USPS", "operator:type": "public", "operator:wikidata": "Q668687", "ref": "3370800005"}, "type": "Feature"}
{"geometry": {"coordinates": [-82.8258846, 27.8234999], "type": "Point"}, "id": "BsCX0Pp5F2LMjYAkwbykJ4dhmGE=", "properties": {"@source_uri": "https://tools.usps.com/UspsToolsRestServices/rest/POLocator/findLocations", "@spider": "usps_collection_boxes", "addr:city": "REDINGTN SHOR", "addr:country": "US", "addr:postcode": "33708", "addr:state": "FL", "addr:street_address": "12850 VILLAGE BLVD", "amenity": "post_box", "collection_times": "Mo-Fr 15:00; Sa 13:05", "note": "ON 12/24 AND 12/31, THIS BOX MAY BE COLLECTED AS EARLY AS 12 NOON.", "nsi_id": "unitedstatespostalservice-a77078", "operator": "United States Postal Service", "operator:short": "USPS", "operator:type": "public", "operator:wikidata": "Q668687", "ref": "3370800006"}, "type": "Feature"}
{"geometry": {"coordinates": [-82.8258846, 27.8234999], "type": "Point"}, "id": "yI8DZ4IrAlNwtB2VZLrJUgrI5CY=", "properties": {"@source_uri": "https://tools.usps.com/UspsToolsRestServices/rest/POLocator/findLocations", "@spider": "usps_collection_boxes", "addr:city": "REDINGTN SHOR", "addr:country": "US", "addr:postcode": "33708", "addr:state": "FL", "addr:street_address": "17425 GULF BLVD", "amenity": "post_box", "collection_times": "Mo-Fr 15:00", "note": "ON 12/24 AND 12/31, THIS BOX MAY BE COLLECTED AS EARLY AS 12 NOON.", "nsi_id": "unitedstatespostalservice-a77078", "operator": "United States Postal Service", "operator:short": "USPS", "operator:type": "public", "operator:wikidata": "Q668687", "ref": "3370800013"}, "type": "Feature"}
{"geometry": {"coordinates": [-82.8258846, 27.8234999], "type": "Point"}, "id": "QdrBhzl5kf-3TqGULAusrIoGvDI=", "properties": {"@source_uri": "https://tools.usps.com/UspsToolsRestServices/rest/POLocator/findLocations", "@spider": "usps_collection_boxes", "addr:city": "REDINGTN SHOR", "addr:country": "US", "addr:postcode": "33708", "addr:state": "FL", "addr:street_address": "15019 MADEIRA WAY", "amenity": "post_box", "collection_times": "Mo-Fr 17:00; Sa 12:30", "note": "ON 12/24 AND 12/31, THIS BOX MAY BE COLLECTED AS EARLY AS 12 NOON.", "nsi_id": "unitedstatespostalservice-a77078", "operator": "United States Postal Service", "operator:short": "USPS", "operator:type": "public", "operator:wikidata": "Q668687", "ref": "3370800015"}, "type": "Feature"}
{"geometry": {"coordinates": [-82.8258846, 27.8234999], "type": "Point"}, "id": "U1FjNa4tdPAHZGgx8K3HgGO5LTk=", "properties": {"@source_uri": "https://tools.usps.com/UspsToolsRestServices/rest/POLocator/findLocations", "@spider": "usps_collection_boxes", "addr:city": "REDINGTN SHOR", "addr:country": "US", "addr:postcode": "33708", "addr:state": "FL", "addr:street_address": "662 WELCH CSWY", "amenity": "post_box", "collection_times": "Mo-Fr 15:00", "note": "ON 12/24 AND 12/31, THIS BOX MAY BE COLLECTED AS EARLY AS 12 NOON.", "nsi_id": "unitedstatespostalservice-a77078", "operator": "United States Postal Service", "operator:short": "USPS", "operator:type": "public", "operator:wikidata": "Q668687", "ref": "3370800021"}, "type": "Feature"}
{"geometry": {"coordinates": [-82.8258846, 27.8234999], "type": "Point"}, "id": "gGu3n2ENzt2qqEJeBcTC4p_FnF8=", "properties": {"@source_uri": "https://tools.usps.com/UspsToolsRestServices/rest/POLocator/findLocations", "@spider": "usps_collection_boxes", "addr:city": "REDINGTN SHOR", "addr:country": "US", "addr:postcode": "33708", "addr:state": "FL", "addr:street_address": "16919 GULF BLVD", "amenity": "post_box", "collection_times": "Mo-Fr 15:00; Sa 12:45", "note": "ON 12/24 AND 12/31, THIS BOX MAY BE COLLECTED AS EARLY AS 12 NOON.", "nsi_id": "unitedstatespostalservice-a77078", "operator": "United States Postal Service", "operator:short": "USPS", "operator:type": "public", "operator:wikidata": "Q668687", "ref": "3370800027"}, "type": "Feature"}
{"geometry": {"coordinates": [-82.8258846, 27.8234999], "type": "Point"}, "id": "PN97VnkwkY6HnSkafSQnFzOuA3Y=", "properties": {"@source_uri": "https://tools.usps.com/UspsToolsRestServices/rest/POLocator/findLocations", "@spider": "usps_collection_boxes", "addr:city": "REDINGTN SHOR", "addr:country": "US", "addr:postcode": "33708", "addr:state": "FL", "addr:street_address": "9501 BAY PINES BLVD", "amenity": "post_box", "collection_times": "Mo-Fr 15:00", "note": "ON 12/24 AND 12/31, THIS BOX MAY BE COLLECTED AS EARLY AS 12 NOON.", "nsi_id": "unitedstatespostalservice-a77078", "operator": "United States Postal Service", "operator:short": "USPS", "operator:type": "public", "operator:wikidata": "Q668687", "ref": "3370800032"}, "type": "Feature"}
{"geometry": {"coordinates": [-82.716383807, 27.815611128], "type": "Point"}, "id": "DP3gy--hYJUtsJmewERyccwYi-M=", "properties": {"@source_uri": "https://tools.usps.com/UspsToolsRestServices/rest/POLocator/findLocations", "@spider": "usps_collection_boxes", "addr:city": "KENNETH CITY", "addr:country": "US", "addr:postcode": "33709", "addr:state": "FL", "addr:street_address": "5880 49TH ST N", "amenity": "post_box", "collection_times": "Mo-Fr 10:30", "nsi_id": "unitedstatespostalservice-a77078", "operator": "United States Postal Service", "operator:short": "USPS", "operator:type": "public", "operator:wikidata": "Q668687", "ref": "3370900007"}, "type": "Feature"}
{"geometry": {"coordinates": [-82.716383807, 27.815611128], "type": "Point"}, "id": "za9MXRRiixNgrBrYoEPA_93sHTY=", "properties": {"@source_uri": "https://tools.usps.com/UspsToolsRestServices/rest/POLocator/findLocations", "@spider": "usps_collection_boxes", "addr:city": "KENNETH CITY", "addr:country": "US", "addr:postcode": "33709", "addr:state": "FL", "addr:street_address": "5480 58TH ST N", "amenity": "post_box", "collection_times": "Mo-Fr 16:00; Sa 12:00", "note": "ON 12/24 AND 12/31, THIS BOX MAY BE COLLECTED AS EARLY AS 12 NOON.", "nsi_id": "unitedstatespostalservice-a77078", "operator": "United States Postal Service", "operator:short": "USPS", "operator:type": "public", "operator:wikidata": "Q668687", "ref": "3370900011"}, "type": "Feature"}
{"geometry": {"coordinates": [-82.716383807, 27.815611128], "type": "Point"}, "id": "RCm_4S0puLoiATxBsaeEDqXwdzA=", "properties": {"@source_uri": "https://tools.usps.com/UspsToolsRestServices/rest/POLocator/findLocations", "@spider": "usps_collection_boxes", "addr:city": "KENNETH CITY", "addr:country": "US", "addr:postcode": "33709", "addr:state": "FL", "addr:street_address": "5051 66TH ST N", "amenity": "post_box", "collection_times": "Mo-Fr 13:00", "note": "ON 12/24 AND 12/31, THIS BOX MAY BE COLLECTED AS EARLY AS 12 NOON.", "nsi_id": "unitedstatespostalservice-a77078", "operator": "United States Postal Service", "operator:short": "USPS", "operator:type": "public", "operator:wikidata": "Q668687", "ref": "3370900015"}, "type": "Feature"}
{"geometry": {"coordinates": [-82.716383807, 27.815611128], "type": "Point"}, "id": "TJVwYG--xZALyNTd4Jqec-OpErQ=", "properties": {"@source_uri": "https://tools.usps.com/UspsToolsRestServices/rest/POLocator/findLocations", "@spider": "usps_collection_boxes", "addr:city": "KENNETH CITY", "addr:country": "US", "addr:postcode": "33709", "addr:state": "FL", "addr:street_address": "3993 TYRONE BLVD N", "amenity": "post_box", "collection_times": "Mo-Sa 11:15", "nsi_id": "unitedstatespostalservice-a77078", "operator": "United States Postal Service", "operator:short": "USPS", "operator:type": "public", "operator:wikidata": "Q668687", "ref": "3370900021"}, "type": "Feature"}
{"geometry": {"coordinates": [-82.716383807, 27.815611128], "type": "Point"}, "id": "M0amjujIFn8HyvsTc7IFAsxvXtM=", "properties": {"@source_uri": "https://tools.usps.com/UspsToolsRestServices/rest/POLocator/findLocations", "@spider": "usps_collection_boxes", "addr:city": "KENNETH CITY", "addr:country": "US", "addr:postcode": "33709", "addr:state": "FL", "addr:street_address": "3999 58TH ST N", "amenity": "post_box", "collection_times": "Mo-Sa 15:00", "note": "ON 12/24 AND 12/31, THIS BOX MAY BE COLLECTED AS EARLY AS 12 NOON.", "nsi_id": "unitedstatespostalservice-a77078", "operator": "United States Postal Service", "operator:short": "USPS", "operator:type": "public", "operator:wikidata": "Q668687", "ref": "3370900025"}, "type": "Feature"}
{"geometry": {"coordinates": [-82.716383807, 27.815611128], "type": "Point"}, "id": "KROe_kI7kZPRAajfG1vh3sWLc1o=", "properties": {"@source_uri": "https://tools.usps.com/UspsToolsRestServices/rest/POLocator/findLocations", "@spider": "usps_collection_boxes", "addr:city": "KENNETH CITY", "addr:country": "US", "addr:postcode": "33709", "addr:state": "FL", "addr:street_address": "6449 38TH AVE N", "amenity": "post_box", "collection_times": "Mo-Sa 10:30", "nsi_id": "unitedstatespostalservice-a77078", "operator": "United States Postal Service", "operator:short": "USPS", "operator:type": "public", "operator:wikidata": "Q668687", "ref": "3370900034"}, "type": "Feature"}
{"geometry": {"coordinates": [-82.716383807, 27.815611128], "type": "Point"}, "id": "7iyAJpMz_AKcMQk_NffpO0ppmZA=", "properties": {"@source_uri": "https://tools.usps.com/UspsToolsRestServices/rest/POLocator/findLocations", "@spider": "usps_collection_boxes", "addr:city": "KENNETH CITY", "addr:country": "US", "addr:postcode": "33709", "addr:state": "FL", "addr:street_address": "4859 PARK ST N", "amenity": "post_box", "collection_times": "Mo-Sa 10:45", "nsi_id": "unitedstatespostalservice-a77078", "operator": "United States Postal Service", "operator:short": "USPS", "operator:type": "public", "operator:wikidata": "Q668687", "ref": "3370900036"}, "type": "Feature"}
{"geometry": {"coordinates": [-82.716383807, 27.815611128], "type": "Point"}, "id": "ZYMQ1l-L_3F8lxUNH-ZOc2Fquxk=", "properties": {"@source_uri": "https://tools.usps.com/UspsToolsRestServices/rest/POLocator/findLocations", "@spider": "usps_collection_boxes", "addr:city": "KENNETH CITY", "addr:country": "US", "addr:postcode": "33709", "addr:state": "FL", "addr:street_address": "5669 PARK ST N", "amenity": "post_box", "collection_times": "Mo-Sa 15:00", "note": "ON 12/24 AND 12/31, THIS BOX MAY BE COLLECTED AS EARLY AS 12 NOON.", "nsi_id": "unitedstatespostalservice-a77078", "operator": "United States Postal Service", "operator:short": "USPS", "operator:type": "public", "operator:wikidata": "Q668687", "ref": "3370900037"}, "type": "Feature"}
{"geometry": {"coordinates": [-82.70785, 27.77727], "type": "Point"}, "id": "BxHzMbDkO2b2pZzyrbnBa9yFgmY=", "properties": {"@source_uri": "https://tools.usps.com/UspsToolsRestServices/rest/POLocator/findLocations", "@spider": "usps_collection_boxes", "addr:city": "ST PETERSBURG", "addr:country": "US", "addr:postcode": "33710", "addr:state": "FL", "addr:street_address": "7044 22ND AVE N", "amenity": "post_box", "collection_times": "Mo-Fr 15:00; Sa 11:45", "note": "ON 12/24 AND 12/31, THIS BOX MAY BE COLLECTED AS EARLY AS 12 NOON.", "nsi_id": "unitedstatespostalservice-a77078", "operator": "United States Postal Service", "operator:short": "USPS", "operator:type": "public", "operator:wikidata": "Q668687", "ref": "3371000015"}, "type": "Feature"}
{"geometry": {"coordinates": [-82.70785, 27.77727], "type": "Point"}, "id": "3XRao-aAwHDmMO43yVoflSYHTww=", "properties": {"@source_uri": "https://tools.usps.com/UspsToolsRestServices/rest/POLocator/findLocations", "@spider": "usps_collection_boxes", "addr:city": "ST PETERSBURG", "addr:country": "US", "addr:postcode": "33710", "addr:state": "FL", "addr:street_address": "6500 38TH AVE N", "amenity": "post_box", "collection_times": "Mo-Sa 10:30", "nsi_id": "unitedstatespostalservice-a77078", "operator": "United States Postal Service", "operator:short": "USPS", "operator:type": "public", "operator:wikidata": "Q668687", "ref": "3371000026"}, "type": "Feature"}
{"geometry": {"coordinates": [-82.70785, 27.77727], "type": "Point"}, "id": "j0kstErH3Bwptt0_tdV6jObbTeU=", "properties": {"@source_uri": "https://tools.usps.com/UspsToolsRestServices/rest/POLocator/findLocations", "@spider": "usps_collection_boxes", "addr:city": "ST PETERSBURG", "addr:country": "US", "addr:postcode": "33710", "addr:state": "FL", "addr:street_address": "904 58TH ST N", "amenity": "post_box", "collection_times": "Mo-Sa 15:00", "note": "ON 12/24 AND 12/31, THIS BOX MAY BE COLLECTED AS EARLY AS 12 NOON.", "nsi_id": "unitedstatespostalservice-a77078", "operator": "United States Postal Service", "operator:short": "USPS", "operator:type": "public", "operator:wikidata": "Q668687", "ref": "3371000031"}, "type": "Feature"}
{"geometry": {"coordinates": [-82.70785, 27.77727], "type": "Point"}, "id": "wsx7zw2Bi3VUOl_plH-Xd7vv8T0=", "properties": {"@source_uri": "https://tools.usps.com/UspsToolsRestServices/rest/POLocator/findLocations", "@spider": "usps_collection_boxes", "addr:city": "ST PETERSBURG", "addr:country": "US", "addr:postcode": "33710", "addr:state": "FL", "addr:street_address": "1275 66TH ST N", "amenity": "post_box", "collection_times": "Mo-Fr 17:00; Sa 13:00", "note": "ON 12/24 AND 12/31, THIS BOX MAY BE COLLECTED AS EARLY AS 12 NOON.", "nsi_id": "unitedstatespostalservice-a77078", "operator": "United States Postal Service", "operator:short": "USPS", "operator:type": "public", "operator:wikidata": "Q668687", "ref": "3371000033"}, "type": "Feature"}
{"geometry": {"coordinates": [-82.70785, 27.77727], "type": "Point"}, "id": "5qltYuRcDTC-JvUlpc8LioF5iVk=", "properties": {"@source_uri": "https://tools.usps.com/UspsToolsRestServices/rest/POLocator/findLocations", "@spider": "usps_collection_boxes", "addr:city": "ST PETERSBURG", "addr:country": "US", "addr:postcode": "33710", "addr:state": "FL", "addr:street_address": "5999 CENTRAL AVE", "amenity": "post_box", "collection_times": "Mo-Fr 16:00", "note": "ON 12/24 AND 12/31, THIS BOX MAY BE COLLECTED AS EARLY AS 12 NOON.", "nsi_id": "unitedstatespostalservice-a77078", "operator": "United States Postal Service", "operator:short": "USPS", "operator:type": "public", "operator:wikidata": "Q668687", "ref": "3371000043"}, "type": "Feature"}
{"geometry": {"coordinates": [-82.70785, 27.77727], "type": "Point"}, "id": "M8loNOL0yNJi-L-tMMP3yZffpLA=", "properties": {"@source_uri": "https://tools.usps.com/UspsToolsRestServices/rest/POLocator/findLocations", "@spider": "usps_collection_boxes", "addr:city": "ST PETERSBURG", "addr:country": "US", "addr:postcode": "33710", "addr:state": "FL", "addr:street_address": "6133 CENTRAL AVE", "amenity": "post_box", "collection_times": "Mo-Fr 10:00", "nsi_id": "unitedstatespostalservice-a77078", "operator": "United States Postal Service", "operator:short": "USPS", "operator:type": "public", "operator:wikidata": "Q668687", "ref": "3371000045"}, "type": "Feature"}
{"geometry": {"coordinates": [-82.70785, 27.77727], "type": "Point"}, "id": "ScAYGQvciSDEeA4bCWpaS4DDIZA=", "properties": {"@source_uri": "https://tools.usps.com/UspsToolsRestServices/rest/POLocator/findLocations", "@spider": "usps_collection_boxes", "addr:city": "ST PETERSBURG", "addr:country": "US", "addr:postcode": "33710", "addr:state": "FL", "addr:street_address": "3131 66TH ST N", "amenity": "post_box", "collection_times": "Mo-Sa 10:00", "nsi_id": "unitedstatespostalservice-a77078", "operator": "United States Postal Service", "operator:short": "USPS", "operator:type": "public", "operator:wikidata": "Q668687", "ref": "3371000052"}, "type": "Feature"}
{"geometry": {"coordinates": [-82.70785, 27.77727], "type": "Point"}, "id": "pZx_OqdqRvmRw1eA1GQOihCOaXY=", "properties": {"@source_uri": "https://tools.usps.com/UspsToolsRestServices/rest/POLocator/findLocations", "@spider": "usps_collection_boxes", "addr:city": "ST PETERSBURG", "addr:country": "US", "addr:postcode": "33710", "addr:state": "FL", "addr:street_address": "4020 PARK ST N", "amenity": "post_box", "collection_times": "Mo-Fr 12:00", "nsi_id": "unitedstatespostalservice-a77078", "operator": "United States Postal Service", "operator:short": "USPS", "operator:type": "public", "operator:wikidata": "Q668687", "ref": "3371000054"}, "type": "Feature"}
{"geometry": {"coordinates": [-82.70785, 27.77727], "type": "Point"}, "id": "ZfvJcJUyrRzjoEvA1NKgEuzR3ZU=", "properties": {"@source_uri": "https://tools.usps.com/UspsToolsRestServices/rest/POLocator/findLocations", "@spider": "usps_collection_boxes", "addr:city": "ST PETERSBURG", "addr:country": "US", "addr:postcode": "33710", "addr:state": "FL", "addr:street_address": "6671 13TH AVE N", "amenity": "post_box", "collection_times": "Mo-Fr 16:00", "note": "ON 12/24 AND 12/31, THIS BOX MAY BE COLLECTED AS EARLY AS 12 NOON.", "nsi_id": "unitedstatespostalservice-a77078", "operator": "United States Postal Service", "operator:short": "USPS", "operator:type": "public", "operator:wikidata": "Q668687", "ref": "3371000059"}, "type": "Feature"}
{"geometry": {"coordinates": [-82.70785, 27.77727], "type": "Point"}, "id": "9Vog0AORBp_YVC9rpLTC3dn9sSw=", "properties": {"@source_uri": "https://tools.usps.com/UspsToolsRestServices/rest/POLocator/findLocations", "@spider": "usps_collection_boxes", "addr:city": "ST PETERSBURG", "addr:country": "US", "addr:postcode": "33710", "addr:state": "FL", "addr:street_address": "3100 75TH ST N", "amenity": "post_box", "collection_times": "Mo-Fr 10:00", "nsi_id": "unitedstatespostalservice-a77078", "operator": "United States Postal Service", "operator:short": "USPS", "operator:type": "public", "operator:wikidata": "Q668687", "ref": "3371000063"}, "type": "Feature"}
{"geometry": {"coordinates": [-82.70785, 27.77727], "type": "Point"}, "id": "iYqsJtJyxQKyOAuileIQHk5UAj8=", "properties": {"@source_uri": "https://tools.usps.com/UspsToolsRestServices/rest/POLocator/findLocations", "@spider": "usps_collection_boxes", "addr:city": "ST PETERSBURG", "addr:country": "US", "addr:postcode": "33710", "addr:state": "FL", "addr:street_address": "6775 CROSSWINDS DR N", "amenity": "post_box", "collection_times": "Mo-Fr 15:00", "note": "ON 12/24 AND 12/31, THIS BOX MAY BE COLLECTED AS EARLY AS 12 NOON.", "nsi_id": "unitedstatespostalservice-a77078", "operator": "United States Postal Service", "operator:short": "USPS", "operator:type": "public", "operator:wikidata": "Q668687", "ref": "3371000079"}, "type": "Feature"}
{"geometry": {"coordinates": [-82.70785, 27.77727], "type": "Point"}, "id": "DZxXnCVk2pMUVUrRhVqWuxIJJSs=", "properties": {"@source_uri": "https://tools.usps.com/UspsToolsRestServices/rest/POLocator/findLocations", "@spider": "usps_collection_boxes", "addr:city": "ST PETERSBURG", "addr:country": "US", "addr:postcode": "33710", "addr:state": "FL", "addr:street_address": "6450 38TH AVE N", "amenity": "post_box", "collection_times": "Mo-Sa 10:30", "nsi_id": "unitedstatespostalservice-a77078", "operator": "United States Postal Service", "operator:short": "USPS", "operator:type": "public", "operator:wikidata": "Q668687", "ref": "3371000080"}, "type": "Feature"}
{"geometry": {"coordinates": [-82.70785, 27.77727], "type": "Point"}, "id": "i48MnGR6TGV5uQXXa7mcur7MeRs=", "properties": {"@source_uri": "https://tools.usps.com/UspsToolsRestServices/rest/POLocator/findLocations", "@spider": "usps_collection_boxes", "addr:city": "ST PETERSBURG", "addr:country": "US", "addr:postcode": "33710", "addr:state": "FL", "addr:street_address": "1275 66TH ST N", "amenity": "post_box", "collection_times": "Mo-Fr 17:30", "indoor": "yes", "note": "ON 12/24 AND 12/31, THIS BOX MAY BE COLLECTED AS EARLY AS 12 NOON.", "nsi_id": "unitedstatespostalservice-a77078", "operator": "United States Postal Service", "operator:short": "USPS", "operator:type": "public", "operator:wikidata": "Q668687", "ref": "3371000098"}, "type": "Feature"}
{"geometry": {"coordinates": [-82.6858834, 27.7651695], "type": "Point"}, "id": "OeE3-c93dL4udbqxC2Ym9LS3tFY=", "properties": {"@source_uri": "https://tools.usps.com/UspsToolsRestServices/rest/POLocator/findLocations", "@spider": "usps_collection_boxes", "addr:city": "ST PETERSBURG", "addr:country": "US", "addr:postcode": "33711", "addr:state": "FL", "addr:street_address": "4500 54TH AVE S", "amenity": "post_box", "collection_times": "Mo-Sa 09:00", "nsi_id": "unitedstatespostalservice-a77078", "operator": "United States Postal Service", "operator:short": "USPS", "operator:type": "public", "operator:wikidata": "Q668687", "ref": "3371100014"}, "type": "Feature"}
{"geometry": {"coordinates": [-82.6858834, 27.7651695], "type": "Point"}, "id": "2TByHmkZGPfzobPtMpQboRKD7r4=", "properties": {"@source_uri": "https://tools.usps.com/UspsToolsRestServices/rest/POLocator/findLocations", "@spider": "usps_collection_boxes", "addr:city": "ST PETERSBURG", "addr:country": "US", "addr:postcode": "33711", "addr:state": "FL", "addr:street_address": "4222 22ND AVE S", "amenity": "post_box", "collection_times": "Mo-Fr 17:00; Sa 13:30", "note": "ON 12/24 AND 12/31, THIS BOX MAY BE COLLECTED AS EARLY AS 12 NOON.", "nsi_id": "unitedstatespostalservice-a77078", "operator": "United States Postal Service", "operator:short": "USPS", "operator:type": "public", "operator:wikidata": "Q668687", "ref": "3371100023"}, "type": "Feature"}
{"geometry": {"coordinates": [-82.6858834, 27.7651695], "type": "Point"}, "id": "bKKQrIDZfkLkcjUmPzziHsTcxAw=", "properties": {"@source_uri": "https://tools.usps.com/UspsToolsRestServices/rest/POLocator/findLocations", "@spider": "usps_collection_boxes", "addr:city": "ST PETERSBURG", "addr:country": "US", "addr:postcode": "33711", "addr:state": "FL", "addr:street_address": "4222 22ND AVE S", "amenity": "post_box", "collection_times": "Mo-Fr 17:00", "indoor": "yes", "note": "ON 12/24 AND 12/31, THIS BOX MAY BE COLLECTED AS EARLY AS 12 NOON.", "nsi_id": "unitedstatespostalservice-a77078", "operator": "United States Postal Service", "operator:short": "USPS", "operator:type": "public", "operator:wikidata": "Q668687", "ref": "3371100039"}, "type": "Feature"}
{"geometry": {"coordinates": [-82.68035, 27.77726], "type": "Point"}, "id": "f7tJTI2LHYN7iFzuCwlEcOkQEYA=", "properties": {"@source_uri": "https://tools.usps.com/UspsToolsRestServices/rest/POLocator/findLocations", "@spider": "usps_collection_boxes", "addr:city": "ST PETERSBURG", "addr:country": "US", "addr:postcode": "33713", "addr:state": "FL", "addr:street_address": "3135 1ST AVE N", "amenity": "post_box", "collection_times": "Mo-Fr 19:00; Sa 17:00", "indoor": "yes", "note": "ON 12/24 AND 12/31, THIS BOX MAY BE COLLECTED AS EARLY AS 12 NOON.", "nsi_id": "unitedstatespostalservice-a77078", "operator": "United States Postal Service", "operator:short": "USPS", "operator:type": "public", "operator:wikidata": "Q668687", "ref": "3371300022"}, "type": "Feature"}
{"geometry": {"coordinates": [-82.68035, 27.77726], "type": "Point"}, "id": "9iTDITR1WrEvet6DIDODyPT8i54=", "properties": {"@source_uri": "https://tools.usps.com/UspsToolsRestServices/rest/POLocator/findLocations", "@spider": "usps_collection_boxes", "addr:city": "ST PETERSBURG", "addr:country": "US", "addr:postcode": "33713", "addr:state": "FL", "addr:street_address": "3135 1ST AVE N", "amenity": "post_box", "collection_times": "Mo-Fr 19:00; Sa 17:00", "indoor": "yes", "note": "ON 12/24 AND 12/31, THIS BOX MAY BE COLLECTED AS EARLY AS 12 NOON.", "nsi_id": "unitedstatespostalservice-a77078", "operator": "United States Postal Service", "operator:short": "USPS", "operator:type": "public", "operator:wikidata": "Q668687", "ref": "3371300024"}, "type": "Feature"}
{"geometry": {"coordinates": [-82.68035, 27.77726], "type": "Point"}, "id": "nNofhIEnmc_lLlGnaNAD3RbQz-s=", "properties": {"@source_uri": "https://tools.usps.com/UspsToolsRestServices/rest/POLocator/findLocations", "@spider": "usps_collection_boxes", "addr:city": "ST PETERSBURG", "addr:country": "US", "addr:postcode": "33713", "addr:state": "FL", "addr:street_address": "3114 1ST AVE N", "amenity": "post_box", "collection_times": "Mo-Sa 17:00", "note": "ON 12/24 AND 12/31, THIS BOX MAY BE COLLECTED AS EARLY AS 12 NOON.", "nsi_id": "unitedstatespostalservice-a77078", "operator": "United States Postal Service", "operator:short": "USPS", "operator:type": "public", "operator:wikidata": "Q668687", "ref": "3371300027"}, "type": "Feature"}
{"geometry": {"coordinates": [-82.68035, 27.77726], "type": "Point"}, "id": "B0jMmYP1g4QYzB7mrb6ybvJ3RgQ=", "properties": {"@source_uri": "https://tools.usps.com/UspsToolsRestServices/rest/POLocator/findLocations", "@spider": "usps_collection_boxes", "addr:city": "ST PETERSBURG", "addr:country": "US", "addr:postcode": "33713", "addr:state": "FL", "addr:street_address": "3201 9TH ST AVE N", "amenity": "post_box", "collection_times": "Mo-Fr 16:00", "note": "ON 12/24 AND 12/31, THIS BOX MAY BE COLLECTED AS EARLY AS 12 NOON.", "nsi_id": "unitedstatespostalservice-a77078", "operator": "United States Postal Service", "operator:short": "USPS", "operator:type": "public", "operator:wikidata": "Q668687", "ref": "3371300038"}, "type": "Feature"}
{"geometry": {"coordinates": [-82.68035, 27.77726], "type": "Point"}, "id": "elLHiEARADrrNtv3v1mCCRcqKNw=", "properties": {"@source_uri": "https://tools.usps.com/UspsToolsRestServices/rest/POLocator/findLocations", "@spider": "usps_collection_boxes", "addr:city": "ST PETERSBURG", "addr:country": "US", "addr:postcode": "33713", "addr:state": "FL", "addr:street_address": "4601 CENTRAL AVE", "amenity": "post_box", "collection_times": "Mo-Fr 16:00", "note": "ON 12/24 AND 12/31, THIS BOX MAY BE COLLECTED AS EARLY AS 12 NOON.", "nsi_id": "unitedstatespostalservice-a77078", "operator": "United States Postal Service", "operator:short": "USPS", "operator:type": "public", "operator:wikidata": "Q668687", "ref": "3371300055"}, "type": "Feature"}
{"geometry": {"coordinates": [-82.68035, 27.77726], "type": "Point"}, "id": "Y9WT_HtuK--CRf2O2-dQwG2L5QU=", "properties": {"@source_uri": "https://tools.usps.com/UspsToolsRestServices/rest/POLocator/findLocations", "@spider": "usps_collection_boxes", "addr:city": "ST PETERSBURG", "addr:country": "US", "addr:postcode": "33713", "addr:state": "FL", "addr:street_address": "2763 1ST AVE N", "amenity": "post_box", "collection_times": "Mo-Fr 16:00; Sa 13:40", "note": "ON 12/24 AND 12/31, THIS BOX MAY BE COLLECTED AS EARLY AS 12 NOON.", "nsi_id": "unitedstatespostalservice-a77078", "operator": "United States Postal Service", "operator:short": "USPS", "operator:type": "public", "operator:wikidata": "Q668687", "ref": "3371300070"}, "type": "Feature"}
{"geometry": {"coordinates": [-82.68035, 27.77726], "type": "Point"}, "id": "MiTG3_oM6P07aUOyQpr6B8eHAvo=", "properties": {"@source_uri": "https://tools.usps.com/UspsToolsRestServices/rest/POLocator/findLocations", "@spider": "usps_collection_boxes", "addr:city": "ST PETERSBURG", "addr:country": "US", "addr:postcode": "33713", "addr:state": "FL", "addr:street_address": "3725 49TH ST N", "amenity": "post_box", "collection_times": "Mo-Sa 13:15", "note": "ON 12/24 AND 12/31, THIS BOX MAY BE COLLECTED AS EARLY AS 12 NOON.", "nsi_id": "unitedstatespostalservice-a77078", "operator": "United States Postal Service", "operator:short": "USPS", "operator:type": "public", "operator:wikidata": "Q668687", "ref": "3371300075"}, "type": "Feature"}
{"geometry": {"coordinates": [-82.68035, 27.77726], "type": "Point"}, "id": "nHdq6hu7Iuh_czfC42HUf8DwL3s=", "properties": {"@source_uri": "https://tools.usps.com/UspsToolsRestServices/rest/POLocator/findLocations", "@spider": "usps_collection_boxes", "addr:city": "ST PETERSBURG", "addr:country": "US", "addr:postcode": "33713", "addr:state": "FL", "addr:street_address": "2850 34TH ST N", "amenity": "post_box", "collection_times": "Mo-Fr 16:00; Sa 13:15", "note": "ON 12/24 AND 12/31, THIS BOX MAY BE COLLECTED AS EARLY AS 12 NOON.", "nsi_id": "unitedstatespostalservice-a77078", "operator": "United States Postal Service", "operator:short": "USPS", "operator:type": "public", "operator:wikidata": "Q668687", "ref": "3371300080"}, "type": "Feature"}
{"geometry": {"coordinates": [-82.67675, 27.820645], "type": "Point"}, "id": "U8EHiCyAROq702zxt8eHt80DLqU=", "properties": {"@source_uri": "https://tools.usps.com/UspsToolsRestServices/rest/POLocator/findLocations", "@spider": "usps_collection_boxes", "addr:city": "ST PETERSBURG", "addr:country": "US", "addr:postcode": "33714", "addr:state": "FL", "addr:street_address": "5944 34TH ST N", "amenity": "post_box", "collection_times": "Mo-Fr 16:00", "note": "ON 12/24 AND 12/31, THIS BOX MAY BE COLLECTED AS EARLY AS 12 NOON.", "nsi_id": "unitedstatespostalservice-a77078", "operator": "United States Postal Service", "operator:short": "USPS", "operator:type": "public", "operator:wikidata": "Q668687", "ref": "3371400016"}, "type": "Feature"}
{"geometry": {"coordinates": [-82.7236812, 27.6848823], "type": "Point"}, "id": "t4fKHJNLHdGcRM8YkKrF45WOApY=", "properties": {"@source_uri": "https://tools.usps.com/UspsToolsRestServices/rest/POLocator/findLocations", "@spider": "usps_collection_boxes", "addr:city": "ST PETERSBURG", "addr:country": "US", "addr:postcode": "33715", "addr:state": "FL", "addr:street_address": "5901 SUN BLVD", "amenity": "post_box", "collection_times": "Mo-Sa 13:00", "note": "ON 12/24 AND 12/31, THIS BOX MAY BE COLLECTED AS EARLY AS 12 NOON.", "nsi_id": "unitedstatespostalservice-a77078", "operator": "United States Postal Service", "operator:short": "USPS", "operator:type": "public", "operator:wikidata": "Q668687", "ref": "3371500002"}, "type": "Feature"}
{"geometry": {"coordinates": [-82.7236812, 27.6848823], "type": "Point"}, "id": "1ccc6_Bb2T76ka-WBePwzSdZPL0=", "properties": {"@source_uri": "https://tools.usps.com/UspsToolsRestServices/rest/POLocator/findLocations", "@spider": "usps_collection_boxes", "addr:city": "ST PETERSBURG", "addr:country": "US", "addr:postcode": "33715", "addr:state": "FL", "addr:street_address": "104 PINELLAS BAYWAY S", "amenity": "post_box", "collection_times": "Mo-Sa 13:00", "note": "ON 12/24 AND 12/31, THIS BOX MAY BE COLLECTED AS EARLY AS 12 NOON.", "nsi_id": "unitedstatespostalservice-a77078", "operator": "United States Postal Service", "operator:short": "USPS", "operator:type": "public", "operator:wikidata": "Q668687", "ref": "3371500004"}, "type": "Feature"}
{"geometry": {"coordinates": [-82.7236812, 27.6848823], "type": "Point"}, "id": "h31KHtxvZeg6_O4VmUaImT0DoJ4=", "properties": {"@source_uri": "https://tools.usps.com/UspsToolsRestServices/rest/POLocator/findLocations", "@spider": "usps_collection_boxes", "addr:city": "ST PETERSBURG", "addr:country": "US", "addr:postcode": "33715", "addr:state": "FL", "addr:street_address": "1110 PINELLAS BAYWAY S", "amenity": "post_box", "collection_times": "Mo-Sa 13:00", "note": "ON 12/24 AND 12/31, THIS BOX MAY BE COLLECTED AS EARLY AS 12 NOON.", "nsi_id": "unitedstatespostalservice-a77078", "operator": "United States Postal Service", "operator:short": "USPS", "operator:type": "public", "operator:wikidata": "Q668687", "ref": "3371500005"}, "type": "Feature"}
{"geometry": {"coordinates": [-82.6709341, 27.8841772], "type": "Point"}, "id": "2jtN9gIwKBK_STFvlnGPpbNbfCI=", "properties": {"@source_uri": "https://tools.usps.com/UspsToolsRestServices/rest/POLocator/findLocations", "@spider": "usps_collection_boxes", "addr:city": "ST PETERSBURG", "addr:country": "US", "addr:postcode": "33716", "addr:state": "FL", "addr:street_address": "12425 28TH ST N", "amenity": "post_box", "collection_times": "Mo-Fr 16:35", "note": "ON 12/24 AND 12/31, THIS BOX MAY BE COLLECTED AS EARLY AS 12 NOON.", "nsi_id": "unitedstatespostalservice-a77078", "operator": "United States Postal Service", "operator:short": "USPS", "operator:type": "public", "operator:wikidata": "Q668687", "ref": "3371600004"}, "type": "Feature"}
{"geometry": {"coordinates": [-82.6709341, 27.8841772], "type": "Point"}, "id": "K_SN78j9Dkn3Yz-XBGUqNxANPVU=", "properties": {"@source_uri": "https://tools.usps.com/UspsToolsRestServices/rest/POLocator/findLocations", "@spider": "usps_collection_boxes", "addr:city": "ST PETERSBURG", "addr:country": "US", "addr:postcode": "33716", "addr:state": "FL", "addr:street_address": "776 116TH AVE N", "amenity": "post_box", "collection_times": "Mo-Fr 15:50", "note": "ON 12/24 AND 12/31, THIS BOX MAY BE COLLECTED AS EARLY AS 12 NOON.", "nsi_id": "unitedstatespostalservice-a77078", "operator": "United States Postal Service", "operator:short": "USPS", "operator:type": "public", "operator:wikidata": "Q668687", "ref": "3371600008"}, "type": "Feature"}
{"geometry": {"coordinates": [-82.6709341, 27.8841772], "type": "Point"}, "id": "UyvOl1CzMGnjI2dN9iGnHoUxpAQ=", "properties": {"@source_uri": "https://tools.usps.com/UspsToolsRestServices/rest/POLocator/findLocations", "@spider": "usps_collection_boxes", "addr:city": "ST PETERSBURG", "addr:country": "US", "addr:postcode": "33716", "addr:state": "FL", "addr:street_address": "11801 28TH ST N", "amenity": "post_box", "collection_times": "Mo-Fr 16:30", "note": "ON 12/24 AND 12/31, THIS BOX MAY BE COLLECTED AS EARLY AS 12 NOON.", "nsi_id": "unitedstatespostalservice-a77078", "operator": "United States Postal Service", "operator:short": "USPS", "operator:type": "public", "operator:wikidata": "Q668687", "ref": "3371600009"}, "type": "Feature"}
{"geometry": {"coordinates": [-82.6709341, 27.8841772], "type": "Point"}, "id": "MSE0uYiNA4bMf4yMFQMH6wVhMh4=", "properties": {"@source_uri": "https://tools.usps.com/UspsToolsRestServices/rest/POLocator/findLocations", "@spider": "usps_collection_boxes", "addr:city": "ST PETERSBURG", "addr:country": "US", "addr:postcode": "33716", "addr:state": "FL", "addr:street_address": "11001 ROOSEVELT BLVD N", "amenity": "post_box", "collection_times": "Mo-Fr 15:55", "note": "ON 12/24 AND 12/31, THIS BOX MAY BE COLLECTED AS EARLY AS 12 NOON.", "nsi_id": "unitedstatespostalservice-a77078", "operator": "United States Postal Service", "operator:short": "USPS", "operator:type": "public", "operator:wikidata": "Q668687", "ref": "3371600013"}, "type": "Feature"}
{"geometry": {"coordinates": [-82.6709341, 27.8841772], "type": "Point"}, "id": "xg37OOXN4Q50aGJeNDFsng0AHEA=", "properties": {"@source_uri": "https://tools.usps.com/UspsToolsRestServices/rest/POLocator/findLocations", "@spider": "usps_collection_boxes", "addr:city": "ST PETERSBURG", "addr:country": "US", "addr:postcode": "33716", "addr:state": "FL", "addr:street_address": "2505 118TH AVE N", "amenity": "post_box", "collection_times": "Mo-Fr 16:20", "note": "ON 12/24 AND 12/31, THIS BOX MAY BE COLLECTED AS EARLY AS 12 NOON.", "nsi_id": "unitedstatespostalservice-a77078", "operator": "United States Postal Service", "operator:short": "USPS", "operator:type": "public", "operator:wikidata": "Q668687", "ref": "3371600031"}, "type": "Feature"}
{"geometry": {"coordinates": [-82.6709341, 27.8841772], "type": "Point"}, "id": "6kHIXQ54iUPvnF4SA37Rsbt678I=", "properties": {"@source_uri": "https://tools.usps.com/UspsToolsRestServices/rest/POLocator/findLocations", "@spider": "usps_collection_boxes", "addr:city": "ST PETERSBURG", "addr:country": "US", "addr:postcode": "33716", "addr:state": "FL", "addr:street_address": "11601 ROOSEVELT BLVD N", "amenity": "post_box", "collection_times": "Mo-Fr 16:00", "note": "ON 12/24 AND 12/31, THIS BOX MAY BE COLLECTED AS EARLY AS 12 NOON.", "nsi_id": "unitedstatespostalservice-a77078", "operator": "United States Postal Service", "operator:short": "USPS", "operator:type": "public", "operator:wikidata": "Q668687", "ref": "3371600035"}, "type": "Feature"}
{"geometry": {"coordinates": [-82.6709341, 27.8841772], "type": "Point"}, "id": "70dPf6Utg_whQtVOtXEmPqxwjtE=", "properties": {"@source_uri": "https://tools.usps.com/UspsToolsRestServices/rest/POLocator/findLocations", "@spider": "usps_collection_boxes", "addr:city": "ST PETERSBURG", "addr:country": "US", "addr:postcode": "33716", "addr:state": "FL", "addr:street_address": "1201 GANDY BLVD N", "amenity": "post_box", "collection_times": "Mo-Fr 17:00; Sa 13:05", "note": "ON 12/24 AND 12/31, THIS BOX MAY BE COLLECTED AS EARLY AS 12 NOON.", "nsi_id": "unitedstatespostalservice-a77078", "operator": "United States Postal Service", "operator:short": "USPS", "operator:type": "public", "operator:wikidata": "Q668687", "ref": "3371600040"}, "type": "Feature"}
{"geometry": {"coordinates": [-82.6709341, 27.8841772], "type": "Point"}, "id": "uxucdFvWDsWyUlaIDAXV56dWKXg=", "properties": {"@source_uri": "https://tools.usps.com/UspsToolsRestServices/rest/POLocator/findLocations", "@spider": "usps_collection_boxes", "addr:city": "ST PETERSBURG", "addr:country": "US", "addr:postcode": "33716", "addr:state": "FL", "addr:street_address": "10496 ROOSEVELT BLVD N", "amenity": "post_box", "collection_times": "Mo-Fr 15:45; Sa 14:10", "note": "ON 12/24 AND 12/31, THIS BOX MAY BE COLLECTED AS EARLY AS 12 NOON.", "nsi_id": "unitedstatespostalservice-a77078", "operator": "United States Postal Service", "operator:short": "USPS", "operator:type": "public", "operator:wikidata": "Q668687", "ref": "3371600044"}, "type": "Feature"}
{"geometry": {"coordinates": [-82.6709341, 27.8841772], "type": "Point"}, "id": "xfSFvgZTd9gDHmPRow84yCOwm8I=", "properties": {"@source_uri": "https://tools.usps.com/UspsToolsRestServices/rest/POLocator/findLocations", "@spider": "usps_collection_boxes", "addr:city": "ST PETERSBURG", "addr:country": "US", "addr:postcode": "33716", "addr:state": "FL", "addr:street_address": "450 CARILLON PKWY", "amenity": "post_box", "collection_times": "Mo-Fr 16:00", "note": "ON 12/24 AND 12/31, THIS BOX MAY BE COLLECTED AS EARLY AS 12 NOON.", "nsi_id": "unitedstatespostalservice-a77078", "operator": "United States Postal Service", "operator:short": "USPS", "operator:type": "public", "operator:wikidata": "Q668687", "ref": "3371600045"}, "type": "Feature"}
{"geometry": {"coordinates": [-82.67612, 27.77188], "type": "Point"}, "id": "OTBeCBwapE8MkBDyGBWA0YZG3hQ=", "properties": {"@source_uri": "https://tools.usps.com/UspsToolsRestServices/rest/POLocator/findLocations", "@spider": "usps_collection_boxes", "addr:city": "ST PETERSBURG", "addr:country": "US", "addr:postcode": "33730", "addr:state": "FL", "addr:street_address": "3135 1ST AVE N", "amenity": "post_box", "collection_times": "Mo-Fr 19:00; Sa 15:00", "indoor": "yes", "note": "ON 12/24 AND 12/31, THIS BOX MAY BE COLLECTED AS EARLY AS 12 NOON.", "nsi_id": "unitedstatespostalservice-a77078", "operator": "United States Postal Service", "operator:short": "USPS", "operator:type": "public", "operator:wikidata": "Q668687", "ref": "3373000001"}, "type": "Feature"}
{"geometry": {"coordinates": [-82.77734, 27.81273], "type": "Point"}, "id": "W9Md1cc7Oqpj1uCsvcg1n1GP-6w=", "properties": {"@source_uri": "https://tools.usps.com/UspsToolsRestServices/rest/POLocator/findLocations", "@spider": "usps_collection_boxes", "addr:city": "BAY PINES", "addr:country": "US", "addr:postcode": "33744", "addr:state": "FL", "addr:street_address": "10000 BAY PINES BLVD", "amenity": "post_box", "collection_times": "Mo-Fr 16:00", "note": "ON 12/24 AND 12/31, THIS BOX MAY BE COLLECTED AS EARLY AS 12 NOON.", "nsi_id": "unitedstatespostalservice-a77078", "operator": "United States Postal Service", "operator:short": "USPS", "operator:type": "public", "operator:wikidata": "Q668687", "ref": "3374400000"}, "type": "Feature"}
{"geometry": {"coordinates": [-82.77734, 27.81273], "type": "Point"}, "id": "22iMqnIQeT8kTJUiMJanxG6KoaM=", "properties": {"@source_uri": "https://tools.usps.com/UspsToolsRestServices/rest/POLocator/findLocations", "@spider": "usps_collection_boxes", "addr:city": "BAY PINES", "addr:country": "US", "addr:postcode": "33744", "addr:state": "FL", "addr:street_address": "10000 BAY PINES BLVD BLDG 20", "amenity": "post_box", "collection_times": "Mo-Fr 16:00", "indoor": "yes", "note": "ON 12/24 AND 12/31, THIS BOX MAY BE COLLECTED AS EARLY AS 12 NOON.", "nsi_id": "unitedstatespostalservice-a77078", "operator": "United States Postal Service", "operator:short": "USPS", "operator:type": "public", "operator:wikidata": "Q668687", "ref": "3374400002"}, "type": "Feature"}
{"geometry": {"coordinates": [-82.79406, 27.97261], "type": "Point"}, "id": "Bel96ueY8bq9hsG3bbuMqzXIhQI=", "properties": {"@source_uri": "https://tools.usps.com/UspsToolsRestServices/rest/POLocator/findLocations", "@spider": "usps_collection_boxes", "addr:city": "CLEARWATER", "addr:country": "US", "addr:postcode": "33755", "addr:state": "FL", "addr:street_address": "650 CLEVELAND ST", "amenity": "post_box", "collection_times": "Mo-Fr 17:00; Sa 16:00", "note": "ON 12/24 AND 12/31, THIS BOX MAY BE COLLECTED AS EARLY AS 12 NOON.", "nsi_id": "unitedstatespostalservice-a77078", "operator": "United States Postal Service", "operator:short": "USPS", "operator:type": "public", "operator:wikidata": "Q668687", "ref": "3375500011"}, "type": "Feature"}
{"geometry": {"coordinates": [-82.79406, 27.97261], "type": "Point"}, "id": "ktvN1gMAm0n9ncbmdXQCS86Mw00=", "properties": {"@source_uri": "https://tools.usps.com/UspsToolsRestServices/rest/POLocator/findLocations", "@spider": "usps_collection_boxes", "addr:city": "CLEARWATER", "addr:country": "US", "addr:postcode": "33755", "addr:state": "FL", "addr:street_address": "650 CLEVELAND ST", "amenity": "post_box", "collection_times": "Mo-Fr 17:00; Sa 16:00", "note": "ON 12/24 AND 12/31, THIS BOX MAY BE COLLECTED AS EARLY AS 12 NOON.", "nsi_id": "unitedstatespostalservice-a77078", "operator": "United States Postal Service", "operator:short": "USPS", "operator:type": "public", "operator:wikidata": "Q668687", "ref": "3375500012"}, "type": "Feature"}
{"geometry": {"coordinates": [-82.79406, 27.97261], "type": "Point"}, "id": "TFUGdPJa-OfLQd1nqSUNvT1Oi0M=", "properties": {"@source_uri": "https://tools.usps.com/UspsToolsRestServices/rest/POLocator/findLocations", "@spider": "usps_collection_boxes", "addr:city": "CLEARWATER", "addr:country": "US", "addr:postcode": "33755", "addr:state": "FL", "addr:street_address": "650 CLEVELAND ST", "amenity": "post_box", "collection_times": "Mo-Fr 16:30", "indoor": "yes", "note": "ON 12/24 AND 12/31, THIS BOX MAY BE COLLECTED AS EARLY AS 12 NOON.", "nsi_id": "unitedstatespostalservice-a77078", "operator": "United States Postal Service", "operator:short": "USPS", "operator:type": "public", "operator:wikidata": "Q668687", "ref": "3375500026"}, "type": "Feature"}
{"geometry": {"coordinates": [-82.79302, 27.95837], "type": "Point"}, "id": "Vk7uYCHgTlWwnLkJNH2YgCVnNJM=", "properties": {"@source_uri": "https://tools.usps.com/UspsToolsRestServices/rest/POLocator/findLocations", "@spider": "usps_collection_boxes", "addr:city": "CLEARWATER", "addr:country": "US", "addr:postcode": "33756", "addr:state": "FL", "addr:street_address": "315 COURT ST", "amenity": "post_box", "collection_times": "Mo-Fr 14:30", "note": "ON 12/24 AND 12/31, THIS BOX MAY BE COLLECTED AS EARLY AS 12 NOON.", "nsi_id": "unitedstatespostalservice-a77078", "operator": "United States Postal Service", "operator:short": "USPS", "operator:type": "public", "operator:wikidata": "Q668687", "ref": "3375600001"}, "type": "Feature"}
{"geometry": {"coordinates": [-82.79302, 27.95837], "type": "Point"}, "id": "vcXpLm4U_6Oa1rN_KawUMEk0vIY=", "properties": {"@source_uri": "https://tools.usps.com/UspsToolsRestServices/rest/POLocator/findLocations", "@spider": "usps_collection_boxes", "addr:city": "CLEARWATER", "addr:country": "US", "addr:postcode": "33756", "addr:state": "FL", "addr:street_address": "611 DRUID RD E", "amenity": "post_box", "collection_times": "Mo-Fr 11:45", "nsi_id": "unitedstatespostalservice-a77078", "operator": "United States Postal Service", "operator:short": "USPS", "operator:type": "public", "operator:wikidata": "Q668687", "ref": "3375600003"}, "type": "Feature"}
{"geometry": {"coordinates": [-82.79302, 27.95837], "type": "Point"}, "id": "L4FIbpd2UZ5zPfhOLtWXF4OSB8E=", "properties": {"@source_uri": "https://tools.usps.com/UspsToolsRestServices/rest/POLocator/findLocations", "@spider": "usps_collection_boxes", "addr:city": "CLEARWATER", "addr:country": "US", "addr:postcode": "33756", "addr:state": "FL", "addr:street_address": "1487 S FORT HARRISON AVE", "amenity": "post_box", "collection_times": "Mo-Sa 10:00", "nsi_id": "unitedstatespostalservice-a77078", "operator": "United States Postal Service", "operator:short": "USPS", "operator:type": "public", "operator:wikidata": "Q668687", "ref": "3375600007"}, "type": "Feature"}
{"geometry": {"coordinates": [-82.79302, 27.95837], "type": "Point"}, "id": "4AU21-1yvfTGrJKR8I7TXtq2fm4=", "properties": {"@source_uri": "https://tools.usps.com/UspsToolsRestServices/rest/POLocator/findLocations", "@spider": "usps_collection_boxes", "addr:city": "CLEARWATER", "addr:country": "US", "addr:postcode": "33756", "addr:state": "FL", "addr:street_address": "1240 S HIGHLAND AVE", "amenity": "post_box", "collection_times": "Mo-Sa 15:30", "note": "ON 12/24 AND 12/31, THIS BOX MAY BE COLLECTED AS EARLY AS 12 NOON.", "nsi_id": "unitedstatespostalservice-a77078", "operator": "United States Postal Service", "operator:short": "USPS", "operator:type": "public", "operator:wikidata": "Q668687", "ref": "3375600011"}, "type": "Feature"}
{"geometry": {"coordinates": [-82.79302, 27.95837], "type": "Point"}, "id": "IWgBmBrirowRn0uP_HCiLxLLXgQ=", "properties": {"@source_uri": "https://tools.usps.com/UspsToolsRestServices/rest/POLocator/findLocations", "@spider": "usps_collection_boxes", "addr:city": "CLEARWATER", "addr:country": "US", "addr:postcode": "33756", "addr:state": "FL", "addr:street_address": "1105 THE MALL", "amenity": "post_box", "collection_times": "Mo-Fr 11:00", "nsi_id": "unitedstatespostalservice-a77078", "operator": "United States Postal Service", "operator:short": "USPS", "operator:type": "public", "operator:wikidata": "Q668687", "ref": "3375600021"}, "type": "Feature"}
{"geometry": {"coordinates": [-82.79302, 27.95837], "type": "Point"}, "id": "VvGuW4VOzgbiFOfI-hjZW-xzCnQ=", "properties": {"@source_uri": "https://tools.usps.com/UspsToolsRestServices/rest/POLocator/findLocations", "@spider": "usps_collection_boxes", "addr:city": "CLEARWATER", "addr:country": "US", "addr:postcode": "33756", "addr:state": "FL", "addr:street_address": "711 GRAND CENTRAL ST", "amenity": "post_box", "collection_times": "Mo-Fr 11:45", "nsi_id": "unitedstatespostalservice-a77078", "operator": "United States Postal Service", "operator:short": "USPS", "operator:type": "public", "operator:wikidata": "Q668687", "ref": "3375600030"}, "type": "Feature"}
{"geometry": {"coordinates": [-82.746145, 27.96277], "type": "Point"}, "id": "i2jv3rrVxWdwBZgbZVU4UjCFkS0=", "properties": {"@source_uri": "https://tools.usps.com/UspsToolsRestServices/rest/POLocator/findLocations", "@spider": "usps_collection_boxes", "addr:city": "CLEARWATER", "addr:country": "US", "addr:postcode": "33758", "addr:state": "FL", "addr:street_address": "100 S BELCHER RD", "amenity": "post_box", "collection_times": "Mo-Fr 17:00; Sa 16:00", "note": "ON 12/24 AND 12/31, THIS BOX MAY BE COLLECTED AS EARLY AS 12 NOON.", "nsi_id": "unitedstatespostalservice-a77078", "operator": "United States Postal Service", "operator:short": "USPS", "operator:type": "public", "operator:wikidata": "Q668687", "ref": "3375800001"}, "type": "Feature"}
{"geometry": {"coordinates": [-82.746145, 27.96277], "type": "Point"}, "id": "nu_EZD38Hpqc_LeKFqHW8Sxr0D0=", "properties": {"@source_uri": "https://tools.usps.com/UspsToolsRestServices/rest/POLocator/findLocations", "@spider": "usps_collection_boxes", "addr:city": "CLEARWATER", "addr:country": "US", "addr:postcode": "33758", "addr:state": "FL", "addr:street_address": "100 S BELCHER RD", "amenity": "post_box", "collection_times": "Mo-Fr 17:00; Sa 16:00", "indoor": "yes", "note": "ON 12/24 AND 12/31, THIS BOX MAY BE COLLECTED AS EARLY AS 12 NOON.", "nsi_id": "unitedstatespostalservice-a77078", "operator": "United States Postal Service", "operator:short": "USPS", "operator:type": "public", "operator:wikidata": "Q668687", "ref": "3375800005"}, "type": "Feature"}
{"geometry": {"coordinates": [-82.746145, 27.96277], "type": "Point"}, "id": "zAyjmAaCgra9Bf3Px-lRIWii3Dk=", "properties": {"@source_uri": "https://tools.usps.com/UspsToolsRestServices/rest/POLocator/findLocations", "@spider": "usps_collection_boxes", "addr:city": "CLEARWATER", "addr:country": "US", "addr:postcode": "33758", "addr:state": "FL", "addr:street_address": "100 S BELCHER RD", "amenity": "post_box", "collection_times": "Mo-Fr 17:00; Sa 16:00", "indoor": "yes", "note": "ON 12/24 AND 12/31, THIS BOX MAY BE COLLECTED AS EARLY AS 12 NOON.", "nsi_id": "unitedstatespostalservice-a77078", "operator": "United States Postal Service", "operator:short": "USPS", "operator:type": "public", "operator:wikidata": "Q668687", "ref": "3375800006"}, "type": "Feature"}
{"geometry": {"coordinates": [-82.746145, 27.96277], "type": "Point"}, "id": "p9uhME8v2BxB_0x0_qkpfl5RTHE=", "properties": {"@source_uri": "https://tools.usps.com/UspsToolsRestServices/rest/POLocator/findLocations", "@spider": "usps_collection_boxes", "addr:city": "CLEARWATER", "addr:country": "US", "addr:postcode": "33758", "addr:state": "FL", "addr:street_address": "100 S BELCHER RD", "amenity": "post_box", "collection_times": "Mo-Fr 17:00; Sa 16:00", "name": "USPS COLLECTION BOX - APC", "note": "ON 12/24 AND 12/31, THIS BOX MAY BE COLLECTED AS EARLY AS 12 NOON.", "nsi_id": "unitedstatespostalservice-a77078", "operator": "United States Postal Service", "operator:short": "USPS", "operator:type": "public", "operator:wikidata": "Q668687", "ref": "3375800007"}, "type": "Feature"}
{"geometry": {"coordinates": [-82.7195051, 27.9846381], "type": "Point"}, "id": "ubX-8SJyau5HUJZAv29Mm914brI=", "properties": {"@source_uri": "https://tools.usps.com/UspsToolsRestServices/rest/POLocator/findLocations", "@spider": "usps_collection_boxes", "addr:city": "CLEARWATER", "addr:country": "US", "addr:postcode": "33759", "addr:state": "FL", "addr:street_address": "2963 GULF TO BAY BLVD", "amenity": "post_box", "collection_times": "Mo-Fr 14:00", "note": "ON 12/24 AND 12/31, THIS BOX MAY BE COLLECTED AS EARLY AS 12 NOON.", "nsi_id": "unitedstatespostalservice-a77078", "operator": "United States Postal Service", "operator:short": "USPS", "operator:type": "public", "operator:wikidata": "Q668687", "ref": "3375900010"}, "type": "Feature"}
{"geometry": {"coordinates": [-82.7195051, 27.9846381], "type": "Point"}, "id": "qEonev3wIiFRGkx54tCgiqUG7DI=", "properties": {"@source_uri": "https://tools.usps.com/UspsToolsRestServices/rest/POLocator/findLocations", "@spider": "usps_collection_boxes", "addr:city": "CLEARWATER", "addr:country": "US", "addr:postcode": "33759", "addr:state": "FL", "addr:street_address": "2635 MCCORMICK DR", "amenity": "post_box", "collection_times": "Mo-Fr 10:00", "nsi_id": "unitedstatespostalservice-a77078", "operator": "United States Postal Service", "operator:short": "USPS", "operator:type": "public", "operator:wikidata": "Q668687", "ref": "3375900011"}, "type": "Feature"}
{"geometry": {"coordinates": [-82.7195051, 27.9846381], "type": "Point"}, "id": "GEJo0FubLBnpruB0dvY9typNwmk=", "properties": {"@source_uri": "https://tools.usps.com/UspsToolsRestServices/rest/POLocator/findLocations", "@spider": "usps_collection_boxes", "addr:city": "CLEARWATER", "addr:country": "US", "addr:postcode": "33759", "addr:state": "FL", "addr:street_address": "107 HAMPTON RD", "amenity": "post_box", "collection_times": "Mo-Fr 10:00", "nsi_id": "unitedstatespostalservice-a77078", "operator": "United States Postal Service", "operator:short": "USPS", "operator:type": "public", "operator:wikidata": "Q668687", "ref": "3375900021"}, "type": "Feature"}
{"geometry": {"coordinates": [-82.7195051, 27.9846381], "type": "Point"}, "id": "PgDRj5q_tO-Qkauj-9p0Y8Ao7eM=", "properties": {"@source_uri": "https://tools.usps.com/UspsToolsRestServices/rest/POLocator/findLocations", "@spider": "usps_collection_boxes", "addr:city": "CLEARWATER", "addr:country": "US", "addr:postcode": "33759", "addr:state": "FL", "addr:street_address": "380 PARK PLACE BLVD", "amenity": "post_box", "collection_times": "Mo-Fr 09:45", "nsi_id": "unitedstatespostalservice-a77078", "operator": "United States Postal Service", "operator:short": "USPS", "operator:type": "public", "operator:wikidata": "Q668687", "ref": "3375900024"}, "type": "Feature"}
{"geometry": {"coordinates": [-82.7195051, 27.9846381], "type": "Point"}, "id": "zWOeSjBtQxS1AvFfKVvBWcFl-JU=", "properties": {"@source_uri": "https://tools.usps.com/UspsToolsRestServices/rest/POLocator/findLocations", "@spider": "usps_collection_boxes", "addr:city": "CLEARWATER", "addr:country": "US", "addr:postcode": "33759", "addr:state": "FL", "addr:street_address": "1700 N MCMULLEN BOOTH RD", "amenity": "post_box", "collection_times": "Mo-Fr 11:00", "nsi_id": "unitedstatespostalservice-a77078", "operator": "United States Postal Service", "operator:short": "USPS", "operator:type": "public", "operator:wikidata": "Q668687", "ref": "3375900025"}, "type": "Feature"}
{"geometry": {"coordinates": [-82.7195051, 27.9846381], "type": "Point"}, "id": "oZa3hD6Vma2kwZFYXJ45OrXOCu4=", "properties": {"@source_uri": "https://tools.usps.com/UspsToolsRestServices/rest/POLocator/findLocations", "@spider": "usps_collection_boxes", "addr:city": "CLEARWATER", "addr:country": "US", "addr:postcode": "33759", "addr:state": "FL", "addr:street_address": "2650 MCCORMICK DR", "amenity": "post_box", "collection_times": "Mo-Fr 09:30", "nsi_id": "unitedstatespostalservice-a77078", "operator": "United States Postal Service", "operator:short": "USPS", "operator:type": "public", "operator:wikidata": "Q668687", "ref": "3375900026"}, "type": "Feature"}
{"geometry": {"coordinates": [-82.712475, 27.91564], "type": "Point"}, "id": "egldULYZaUv3RbKNgmetY4ZZjeo=", "properties": {"@source_uri": "https://tools.usps.com/UspsToolsRestServices/rest/POLocator/findLocations", "@spider": "usps_collection_boxes", "addr:city": "CLEARWATER", "addr:country": "US", "addr:postcode": "33760", "addr:state": "FL", "addr:street_address": "13825 ICOT BLVD", "amenity": "post_box", "collection_times": "Mo-Fr 13:30", "note": "ON 12/24 AND 12/31, THIS BOX MAY BE COLLECTED AS EARLY AS 12 NOON.", "nsi_id": "unitedstatespostalservice-a77078", "operator": "United States Postal Service", "operator:short": "USPS", "operator:type": "public", "operator:wikidata": "Q668687", "ref": "3376000021"}, "type": "Feature"}
{"geometry": {"coordinates": [-82.712475, 27.91564], "type": "Point"}, "id": "0qY-pDA4SeZ9g5k4O6oxjK0noBw=", "properties": {"@source_uri": "https://tools.usps.com/UspsToolsRestServices/rest/POLocator/findLocations", "@spider": "usps_collection_boxes", "addr:city": "CLEARWATER", "addr:country": "US", "addr:postcode": "33760", "addr:state": "FL", "addr:street_address": "13191 56TH CT", "amenity": "post_box", "collection_times": "Mo-Fr 12:00", "nsi_id": "unitedstatespostalservice-a77078", "operator": "United States Postal Service", "operator:short": "USPS", "operator:type": "public", "operator:wikidata": "Q668687", "ref": "3376000026"}, "type": "Feature"}
{"geometry": {"coordinates": [-82.7333496, 28.0438752], "type": "Point"}, "id": "sbxqOCc0IsQtovDZbeaSOfM-Tzc=", "properties": {"@source_uri": "https://tools.usps.com/UspsToolsRestServices/rest/POLocator/findLocations", "@spider": "usps_collection_boxes", "addr:city": "CLEARWATER", "addr:country": "US", "addr:postcode": "33761", "addr:state": "FL", "addr:street_address": "3000 EASTLAND BLVD", "amenity": "post_box", "collection_times": "Mo-Fr 15:00", "note": "ON 12/24 AND 12/31, THIS BOX MAY BE COLLECTED AS EARLY AS 12 NOON.", "nsi_id": "unitedstatespostalservice-a77078", "operator": "United States Postal Service", "operator:short": "USPS", "operator:type": "public", "operator:wikidata": "Q668687", "ref": "3376100002"}, "type": "Feature"}
{"geometry": {"coordinates": [-82.7333496, 28.0438752], "type": "Point"}, "id": "wYK1D7r6jRyyxdPU3QHAaBIj-eA=", "properties": {"@source_uri": "https://tools.usps.com/UspsToolsRestServices/rest/POLocator/findLocations", "@spider": "usps_collection_boxes", "addr:city": "CLEARWATER", "addr:country": "US", "addr:postcode": "33761", "addr:state": "FL", "addr:street_address": "29605 US HIGHWAY 19 N", "amenity": "post_box", "collection_times": "Mo-Fr 15:00", "note": "ON 12/24 AND 12/31, THIS BOX MAY BE COLLECTED AS EARLY AS 12 NOON.", "nsi_id": "unitedstatespostalservice-a77078", "operator": "United States Postal Service", "operator:short": "USPS", "operator:type": "public", "operator:wikidata": "Q668687", "ref": "3376100004"}, "type": "Feature"}
{"geometry": {"coordinates": [-82.7333496, 28.0438752], "type": "Point"}, "id": "zFSZrfm98KS7BOwC0CSWDEhOWD8=", "properties": {"@source_uri": "https://tools.usps.com/UspsToolsRestServices/rest/POLocator/findLocations", "@spider": "usps_collection_boxes", "addr:city": "CLEARWATER", "addr:country": "US", "addr:postcode": "33761", "addr:state": "FL", "addr:street_address": "28100 US HIGHWAY 19 N", "amenity": "post_box", "collection_times": "Mo-Fr 15:00", "note": "ON 12/24 AND 12/31, THIS BOX MAY BE COLLECTED AS EARLY AS 12 NOON.", "nsi_id": "unitedstatespostalservice-a77078", "operator": "United States Postal Service", "operator:short": "USPS", "operator:type": "public", "operator:wikidata": "Q668687", "ref": "3376100006"}, "type": "Feature"}
{"geometry": {"coordinates": [-82.7333496, 28.0438752], "type": "Point"}, "id": "i4Wwnw-j-UmrB3_i3ilnTilQX7I=", "properties": {"@source_uri": "https://tools.usps.com/UspsToolsRestServices/rest/POLocator/findLocations", "@spider": "usps_collection_boxes", "addr:city": "CLEARWATER", "addr:country": "US", "addr:postcode": "33761", "addr:state": "FL", "addr:street_address": "28059 US HIGHWAY 19 N", "amenity": "post_box", "collection_times": "Mo-Fr 13:00", "note": "ON 12/24 AND 12/31, THIS BOX MAY BE COLLECTED AS EARLY AS 12 NOON.", "nsi_id": "unitedstatespostalservice-a77078", "operator": "United States Postal Service", "operator:short": "USPS", "operator:type": "public", "operator:wikidata": "Q668687", "ref": "3376100012"}, "type": "Feature"}
{"geometry": {"coordinates": [-82.7333496, 28.0438752], "type": "Point"}, "id": "lWJYzJ0fGbzyXXDcL5zu22MI368=", "properties": {"@source_uri": "https://tools.usps.com/UspsToolsRestServices/rest/POLocator/findLocations", "@spider": "usps_collection_boxes", "addr:city": "CLEARWATER", "addr:country": "US", "addr:postcode": "33761", "addr:state": "FL", "addr:street_address": "28050 US HIGHWAY 19 N", "amenity": "post_box", "collection_times": "Mo-Fr 16:05", "note": "ON 12/24 AND 12/31, THIS BOX MAY BE COLLECTED AS EARLY AS 12 NOON.", "nsi_id": "unitedstatespostalservice-a77078", "operator": "United States Postal Service", "operator:short": "USPS", "operator:type": "public", "operator:wikidata": "Q668687", "ref": "3376100015"}, "type": "Feature"}
{"geometry": {"coordinates": [-82.7333496, 28.0438752], "type": "Point"}, "id": "zewzQg_TVQ4PbjsxOvVNaeLFBhc=", "properties": {"@source_uri": "https://tools.usps.com/UspsToolsRestServices/rest/POLocator/findLocations", "@spider": "usps_collection_boxes", "addr:city": "CLEARWATER", "addr:country": "US", "addr:postcode": "33761", "addr:state": "FL", "addr:street_address": "30043 US HIGHWAY 19 N", "amenity": "post_box", "collection_times": "Mo-Fr 15:45; Sa 12:00", "note": "ON 12/24 AND 12/31, THIS BOX MAY BE COLLECTED AS EARLY AS 12 NOON.", "nsi_id": "unitedstatespostalservice-a77078", "operator": "United States Postal Service", "operator:short": "USPS", "operator:type": "public", "operator:wikidata": "Q668687", "ref": "3376100019"}, "type": "Feature"}
{"geometry": {"coordinates": [-82.7333496, 28.0438752], "type": "Point"}, "id": "11kAeMioLjY-ElvNHzhkDmu9OD8=", "properties": {"@source_uri": "https://tools.usps.com/UspsToolsRestServices/rest/POLocator/findLocations", "@spider": "usps_collection_boxes", "addr:city": "CLEARWATER", "addr:country": "US", "addr:postcode": "33761", "addr:state": "FL", "addr:street_address": "2519 N MCMULLEN BOOTH RD", "amenity": "post_box", "collection_times": "Mo-Fr 15:10; Sa 11:00", "note": "ON 12/24 AND 12/31, THIS BOX MAY BE COLLECTED AS EARLY AS 12 NOON.", "nsi_id": "unitedstatespostalservice-a77078", "operator": "United States Postal Service", "operator:short": "USPS", "operator:type": "public", "operator:wikidata": "Q668687", "ref": "3376100020"}, "type": "Feature"}
{"geometry": {"coordinates": [-82.7333496, 28.0438752], "type": "Point"}, "id": "gAuLl6ryEsRNiPcWL_E1p7ivc0Q=", "properties": {"@source_uri": "https://tools.usps.com/UspsToolsRestServices/rest/POLocator/findLocations", "@spider": "usps_collection_boxes", "addr:city": "CLEARWATER", "addr:country": "US", "addr:postcode": "33761", "addr:state": "FL", "addr:street_address": "28163 US HIGHWAY 19 N", "amenity": "post_box", "collection_times": "Mo-Fr 15:00", "note": "ON 12/24 AND 12/31, THIS BOX MAY BE COLLECTED AS EARLY AS 12 NOON.", "nsi_id": "unitedstatespostalservice-a77078", "operator": "United States Postal Service", "operator:short": "USPS", "operator:type": "public", "operator:wikidata": "Q668687", "ref": "3376100021"}, "type": "Feature"}
{"geometry": {"coordinates": [-82.7333496, 28.0438752], "type": "Point"}, "id": "XKcgeoklOLb3ajYNEZ7m-hTgJsg=", "properties": {"@source_uri": "https://tools.usps.com/UspsToolsRestServices/rest/POLocator/findLocations", "@spider": "usps_collection_boxes", "addr:city": "CLEARWATER", "addr:country": "US", "addr:postcode": "33761", "addr:state": "FL", "addr:street_address": "26750 US HIGHWAY 19 N", "amenity": "post_box", "collection_times": "Mo-Fr 16:10", "note": "ON 12/24 AND 12/31, THIS BOX MAY BE COLLECTED AS EARLY AS 12 NOON.", "nsi_id": "unitedstatespostalservice-a77078", "operator": "United States Postal Service", "operator:short": "USPS", "operator:type": "public", "operator:wikidata": "Q668687", "ref": "3376100033"}, "type": "Feature"}
{"geometry": {"coordinates": [-82.6962501, 27.88385], "type": "Point"}, "id": "J0WljKymOtObIIi1LdxRKRLKvMg=", "properties": {"@source_uri": "https://tools.usps.com/UspsToolsRestServices/rest/POLocator/findLocations", "@spider": "usps_collection_boxes", "addr:city": "CLEARWATER", "addr:country": "US", "addr:postcode": "33762", "addr:state": "FL", "addr:street_address": "4600 140TH AVE N", "amenity": "post_box", "collection_times": "Mo-Fr 16:30; Sa 15:00", "note": "ON 12/24 AND 12/31, THIS BOX MAY BE COLLECTED AS EARLY AS 12 NOON.", "nsi_id": "unitedstatespostalservice-a77078", "operator": "United States Postal Service", "operator:short": "USPS", "operator:type": "public", "operator:wikidata": "Q668687", "ref": "3376200001"}, "type": "Feature"}
{"geometry": {"coordinates": [-82.6962501, 27.88385], "type": "Point"}, "id": "QoOgTVHp6DK8KuAkdArkMHrMDwo=", "properties": {"@source_uri": "https://tools.usps.com/UspsToolsRestServices/rest/POLocator/findLocations", "@spider": "usps_collection_boxes", "addr:city": "CLEARWATER", "addr:country": "US", "addr:postcode": "33762", "addr:state": "FL", "addr:street_address": "13535 FEATHER SOUND DR", "amenity": "post_box", "collection_times": "Mo-Fr 13:30", "note": "ON 12/24 AND 12/31, THIS BOX MAY BE COLLECTED AS EARLY AS 12 NOON.", "nsi_id": "unitedstatespostalservice-a77078", "operator": "United States Postal Service", "operator:short": "USPS", "operator:type": "public", "operator:wikidata": "Q668687", "ref": "3376200007"}, "type": "Feature"}
{"geometry": {"coordinates": [-82.6962501, 27.88385], "type": "Point"}, "id": "TunNtGn8NJrfubJZ1wQlN_rPPQ8=", "properties": {"@source_uri": "https://tools.usps.com/UspsToolsRestServices/rest/POLocator/findLocations", "@spider": "usps_collection_boxes", "addr:city": "CLEARWATER", "addr:country": "US", "addr:postcode": "33762", "addr:state": "FL", "addr:street_address": "14250 49TH ST N", "amenity": "post_box", "collection_times": "Mo-Fr 12:30", "note": "ON 12/24 AND 12/31, THIS BOX MAY BE COLLECTED AS EARLY AS 12 NOON.", "nsi_id": "unitedstatespostalservice-a77078", "operator": "United States Postal Service", "operator:short": "USPS", "operator:type": "public", "operator:wikidata": "Q668687", "ref": "3376200022"}, "type": "Feature"}
{"geometry": {"coordinates": [-82.6962501, 27.88385], "type": "Point"}, "id": "--aMOyVw__TCw5X_CnCwS6Vcvpo=", "properties": {"@source_uri": "https://tools.usps.com/UspsToolsRestServices/rest/POLocator/findLocations", "@spider": "usps_collection_boxes", "addr:city": "CLEARWATER", "addr:country": "US", "addr:postcode": "33762", "addr:state": "FL", "addr:street_address": "4600 140TH AVE N STE 100", "amenity": "post_box", "collection_times": "Mo-Fr 16:30", "indoor": "yes", "note": "ON 12/24 AND 12/31, THIS BOX MAY BE COLLECTED AS EARLY AS 12 NOON.", "nsi_id": "unitedstatespostalservice-a77078", "operator": "United States Postal Service", "operator:short": "USPS", "operator:type": "public", "operator:wikidata": "Q668687", "ref": "3376200027"}, "type": "Feature"}
{"geometry": {"coordinates": [-82.754805, 27.997995], "type": "Point"}, "id": "pSheE2CmOMAYeXprWxdF2Ks2ewI=", "properties": {"@source_uri": "https://tools.usps.com/UspsToolsRestServices/rest/POLocator/findLocations", "@spider": "usps_collection_boxes", "addr:city": "CLEARWATER", "addr:country": "US", "addr:postcode": "33763", "addr:state": "FL", "addr:street_address": "25400 US HIGHWAY 19 N", "amenity": "post_box", "collection_times": "Mo-Fr 14:00", "note": "ON 12/24 AND 12/31, THIS BOX MAY BE COLLECTED AS EARLY AS 12 NOON.", "nsi_id": "unitedstatespostalservice-a77078", "operator": "United States Postal Service", "operator:short": "USPS", "operator:type": "public", "operator:wikidata": "Q668687", "ref": "3376300001"}, "type": "Feature"}
{"geometry": {"coordinates": [-82.754805, 27.997995], "type": "Point"}, "id": "DSL-yyz4YYIdPyOcy-N2AJnvWnw=", "properties": {"@source_uri": "https://tools.usps.com/UspsToolsRestServices/rest/POLocator/findLocations", "@spider": "usps_collection_boxes", "addr:city": "CLEARWATER", "addr:country": "US", "addr:postcode": "33763", "addr:state": "FL", "addr:street_address": "25941 US HIGHWAY 19 N", "amenity": "post_box", "collection_times": "Mo-Fr 17:00; Sa 13:00", "note": "ON 12/24 AND 12/31, THIS BOX MAY BE COLLECTED AS EARLY AS 12 NOON.", "nsi_id": "unitedstatespostalservice-a77078", "operator": "United States Postal Service", "operator:short": "USPS", "operator:type": "public", "operator:wikidata": "Q668687", "ref": "3376300009"}, "type": "Feature"}
{"geometry": {"coordinates": [-82.754805, 27.997995], "type": "Point"}, "id": "dDyel9nxMfczxmJ9OfaUaDpQGB0=", "properties": {"@source_uri": "https://tools.usps.com/UspsToolsRestServices/rest/POLocator/findLocations", "@spider": "usps_collection_boxes", "addr:city": "CLEARWATER", "addr:country": "US", "addr:postcode": "33763", "addr:state": "FL", "addr:street_address": "25941 US HIGHWAY 19 N", "amenity": "post_box", "collection_times": "Mo-Fr 17:00; Sa 13:00", "indoor": "yes", "note": "ON 12/24 AND 12/31, THIS BOX MAY BE COLLECTED AS EARLY AS 12 NOON.", "nsi_id": "unitedstatespostalservice-a77078", "operator": "United States Postal Service", "operator:short": "USPS", "operator:type": "public", "operator:wikidata": "Q668687", "ref": "3376300010"}, "type": "Feature"}
{"geometry": {"coordinates": [-82.754805, 27.997995], "type": "Point"}, "id": "A7fogxoeb5gYVEKXm1HDzwCUYZc=", "properties": {"@source_uri": "https://tools.usps.com/UspsToolsRestServices/rest/POLocator/findLocations", "@spider": "usps_collection_boxes", "addr:city": "CLEARWATER", "addr:country": "US", "addr:postcode": "33763", "addr:state": "FL", "addr:street_address": "25941 US HIGHWAY 19 N", "amenity": "post_box", "collection_times": "Mo-Fr 17:00; Sa 13:00", "indoor": "yes", "note": "ON 12/24 AND 12/31, THIS BOX MAY BE COLLECTED AS EARLY AS 12 NOON.", "nsi_id": "unitedstatespostalservice-a77078", "operator": "United States Postal Service", "operator:short": "USPS", "operator:type": "public", "operator:wikidata": "Q668687", "ref": "3376300011"}, "type": "Feature"}
{"geometry": {"coordinates": [-82.754805, 27.997995], "type": "Point"}, "id": "adoeaQ-BJumFUDAM-pKzlSmZtKM=", "properties": {"@source_uri": "https://tools.usps.com/UspsToolsRestServices/rest/POLocator/findLocations", "@spider": "usps_collection_boxes", "addr:city": "CLEARWATER", "addr:country": "US", "addr:postcode": "33763", "addr:state": "FL", "addr:street_address": "25941 US HIGHWAY 19 N", "amenity": "post_box", "collection_times": "Mo-Fr 17:00; Sa 13:00", "indoor": "yes", "note": "ON 12/24 AND 12/31, THIS BOX MAY BE COLLECTED AS EARLY AS 12 NOON.", "nsi_id": "unitedstatespostalservice-a77078", "operator": "United States Postal Service", "operator:short": "USPS", "operator:type": "public", "operator:wikidata": "Q668687", "ref": "3376300012"}, "type": "Feature"}
{"geometry": {"coordinates": [-82.754805, 27.997995], "type": "Point"}, "id": "4_RGz72zOvvg85MzOY-68vwA1hA=", "properties": {"@source_uri": "https://tools.usps.com/UspsToolsRestServices/rest/POLocator/findLocations", "@spider": "usps_collection_boxes", "addr:city": "CLEARWATER", "addr:country": "US", "addr:postcode": "33763", "addr:state": "FL", "addr:street_address": "25941 US HIGHWAY 19 N", "amenity": "post_box", "collection_times": "Mo-Fr 16:30; Sa 13:00", "indoor": "yes", "note": "ON 12/24 AND 12/31, THIS BOX MAY BE COLLECTED AS EARLY AS 12 NOON.", "nsi_id": "unitedstatespostalservice-a77078", "operator": "United States Postal Service", "operator:short": "USPS", "operator:type": "public", "operator:wikidata": "Q668687", "ref": "3376300014"}, "type": "Feature"}
{"geometry": {"coordinates": [-82.747865, 27.9518], "type": "Point"}, "id": "mnJsjIvTqr65Gn0RDrKcowDohlc=", "properties": {"@source_uri": "https://tools.usps.com/UspsToolsRestServices/rest/POLocator/findLocations", "@spider": "usps_collection_boxes", "addr:city": "CLEARWATER", "addr:country": "US", "addr:postcode": "33764", "addr:state": "FL", "addr:street_address": "18167 US HIGHWAY 19 N", "amenity": "post_box", "collection_times": "Mo-Fr 15:00", "note": "ON 12/24 AND 12/31, THIS BOX MAY BE COLLECTED AS EARLY AS 12 NOON.", "nsi_id": "unitedstatespostalservice-a77078", "operator": "United States Postal Service", "operator:short": "USPS", "operator:type": "public", "operator:wikidata": "Q668687", "ref": "3376400013"}, "type": "Feature"}
{"geometry": {"coordinates": [-82.747865, 27.9518], "type": "Point"}, "id": "M4tq8FVqI97tSdjDLpp_Owbahxs=", "properties": {"@source_uri": "https://tools.usps.com/UspsToolsRestServices/rest/POLocator/findLocations", "@spider": "usps_collection_boxes", "addr:city": "CLEARWATER", "addr:country": "US", "addr:postcode": "33764", "addr:state": "FL", "addr:street_address": "5000 E BAY DR", "amenity": "post_box", "collection_times": "Mo-Sa 15:00", "note": "ON 12/24 AND 12/31, THIS BOX MAY BE COLLECTED AS EARLY AS 12 NOON.", "nsi_id": "unitedstatespostalservice-a77078", "operator": "United States Postal Service", "operator:short": "USPS", "operator:type": "public", "operator:wikidata": "Q668687", "ref": "3376400015"}, "type": "Feature"}
{"geometry": {"coordinates": [-82.747865, 27.9518], "type": "Point"}, "id": "Y1C5WXHjsBgAftAhJEjjWL-_IJQ=", "properties": {"@source_uri": "https://tools.usps.com/UspsToolsRestServices/rest/POLocator/findLocations", "@spider": "usps_collection_boxes", "addr:city": "CLEARWATER", "addr:country": "US", "addr:postcode": "33764", "addr:state": "FL", "addr:street_address": "2240 BELLEAIR RD", "amenity": "post_box", "collection_times": "Mo-Sa 09:30", "nsi_id": "unitedstatespostalservice-a77078", "operator": "United States Postal Service", "operator:short": "USPS", "operator:type": "public", "operator:wikidata": "Q668687", "ref": "3376400022"}, "type": "Feature"}
{"geometry": {"coordinates": [-82.747865, 27.9518], "type": "Point"}, "id": "AiImcq0STP36c7UaPMziNCJLPEo=", "properties": {"@source_uri": "https://tools.usps.com/UspsToolsRestServices/rest/POLocator/findLocations", "@spider": "usps_collection_boxes", "addr:city": "CLEARWATER", "addr:country": "US", "addr:postcode": "33764", "addr:state": "FL", "addr:street_address": "1444 S BELCHER RD", "amenity": "post_box", "collection_times": "Mo-Sa 13:00", "note": "ON 12/24 AND 12/31, THIS BOX MAY BE COLLECTED AS EARLY AS 12 NOON.", "nsi_id": "unitedstatespostalservice-a77078", "operator": "United States Postal Service", "operator:short": "USPS", "operator:type": "public", "operator:wikidata": "Q668687", "ref": "3376400040"}, "type": "Feature"}
{"geometry": {"coordinates": [-82.752815, 27.966455], "type": "Point"}, "id": "8sF0Lp0n2Kz_xIikPe600aq6ePI=", "properties": {"@source_uri": "https://tools.usps.com/UspsToolsRestServices/rest/POLocator/findLocations", "@spider": "usps_collection_boxes", "addr:city": "CLEARWATER", "addr:country": "US", "addr:postcode": "33765", "addr:state": "FL", "addr:street_address": "100 S BELCHER RD", "amenity": "post_box", "collection_times": "Mo-Fr 17:00", "indoor": "yes", "note": "ON 12/24 AND 12/31, THIS BOX MAY BE COLLECTED AS EARLY AS 12 NOON.", "nsi_id": "unitedstatespostalservice-a77078", "operator": "United States Postal Service", "operator:short": "USPS", "operator:type": "public", "operator:wikidata": "Q668687", "ref": "3376500031"}, "type": "Feature"}
{"geometry": {"coordinates": [-82.752815, 27.966455], "type": "Point"}, "id": "rnjOcmTuNKQuMgS9y_NxuKgRJNE=", "properties": {"@source_uri": "https://tools.usps.com/UspsToolsRestServices/rest/POLocator/findLocations", "@spider": "usps_collection_boxes", "addr:city": "CLEARWATER", "addr:country": "US", "addr:postcode": "33765", "addr:state": "FL", "addr:street_address": "1851 N HERCULES AVE", "amenity": "post_box", "collection_times": "Mo-Fr 16:30", "indoor": "yes", "note": "ON 12/24 AND 12/31, THIS BOX MAY BE COLLECTED AS EARLY AS 12 NOON.", "nsi_id": "unitedstatespostalservice-a77078", "operator": "United States Postal Service", "operator:short": "USPS", "operator:type": "public", "operator:wikidata": "Q668687", "ref": "3376500032"}, "type": "Feature"}
{"geometry": {"coordinates": [-82.817330011, 27.983010837], "type": "Point"}, "id": "fT-x5lal267zw5E7X1TjzKhrmAg=", "properties": {"@source_uri": "https://tools.usps.com/UspsToolsRestServices/rest/POLocator/findLocations", "@spider": "usps_collection_boxes", "addr:city": "CLEARWATER", "addr:country": "US", "addr:postcode": "33767", "addr:state": "FL", "addr:street_address": "601 MANDALAY AVE", "amenity": "post_box", "collection_times": "Mo-Sa 14:00", "note": "ON 12/24 AND 12/31, THIS BOX MAY BE COLLECTED AS EARLY AS 12 NOON.", "nsi_id": "unitedstatespostalservice-a77078", "operator": "United States Postal Service", "operator:short": "USPS", "operator:type": "public", "operator:wikidata": "Q668687", "ref": "3376700014"}, "type": "Feature"}
{"geometry": {"coordinates": [-82.817330011, 27.983010837], "type": "Point"}, "id": "lUdgPINclPHT6amBPOWGvWoQSFk=", "properties": {"@source_uri": "https://tools.usps.com/UspsToolsRestServices/rest/POLocator/findLocations", "@spider": "usps_collection_boxes", "addr:city": "CLEARWATER", "addr:country": "US", "addr:postcode": "33767", "addr:state": "FL", "addr:street_address": "294 WINDWARD PASSAGE", "amenity": "post_box", "collection_times": "Mo-Sa 11:15", "nsi_id": "unitedstatespostalservice-a77078", "operator": "United States Postal Service", "operator:short": "USPS", "operator:type": "public", "operator:wikidata": "Q668687", "ref": "3376700015"}, "type": "Feature"}
{"geometry": {"coordinates": [-82.817330011, 27.983010837], "type": "Point"}, "id": "Pz_gH0WMTpBvnZiSB79gRO1xI6E=", "properties": {"@source_uri": "https://tools.usps.com/UspsToolsRestServices/rest/POLocator/findLocations", "@spider": "usps_collection_boxes", "addr:city": "CLEARWATER", "addr:country": "US", "addr:postcode": "33767", "addr:state": "FL", "addr:street_address": "45 CAUSEWAY BLVD", "amenity": "post_box", "collection_times": "Mo-Fr 10:00", "nsi_id": "unitedstatespostalservice-a77078", "operator": "United States Postal Service", "operator:short": "USPS", "operator:type": "public", "operator:wikidata": "Q668687", "ref": "3376700016"}, "type": "Feature"}
{"geometry": {"coordinates": [-82.79311, 27.92221], "type": "Point"}, "id": "z7fqnTlAtOdi4-sxwv_DO4gn36s=", "properties": {"@source_uri": "https://tools.usps.com/UspsToolsRestServices/rest/POLocator/findLocations", "@spider": "usps_collection_boxes", "addr:city": "LARGO", "addr:country": "US", "addr:postcode": "33770", "addr:state": "FL", "addr:street_address": "2770 WEST BAY DR", "amenity": "post_box", "collection_times": "Mo-Fr 09:00", "nsi_id": "unitedstatespostalservice-a77078", "operator": "United States Postal Service", "operator:short": "USPS", "operator:type": "public", "operator:wikidata": "Q668687", "ref": "3377000011"}, "type": "Feature"}
{"geometry": {"coordinates": [-82.79311, 27.92221], "type": "Point"}, "id": "JyG16rOzj9LeCW1NdOxc8BWJl4k=", "properties": {"@source_uri": "https://tools.usps.com/UspsToolsRestServices/rest/POLocator/findLocations", "@spider": "usps_collection_boxes", "addr:city": "LARGO", "addr:country": "US", "addr:postcode": "33770", "addr:state": "FL", "addr:street_address": "2819 WEST BAY DR", "amenity": "post_box", "collection_times": "Mo-Sa 10:00", "nsi_id": "unitedstatespostalservice-a77078", "operator": "United States Postal Service", "operator:short": "USPS", "operator:type": "public", "operator:wikidata": "Q668687", "ref": "3377000019"}, "type": "Feature"}
{"geometry": {"coordinates": [-82.79311, 27.92221], "type": "Point"}, "id": "pRCkw6q8WJOZosfN2JXp3SdgPLc=", "properties": {"@source_uri": "https://tools.usps.com/UspsToolsRestServices/rest/POLocator/findLocations", "@spider": "usps_collection_boxes", "addr:city": "LARGO", "addr:country": "US", "addr:postcode": "33770", "addr:state": "FL", "addr:street_address": "2840 WEST BAY DR", "amenity": "post_box", "collection_times": "Mo-Sa 10:00", "nsi_id": "unitedstatespostalservice-a77078", "operator": "United States Postal Service", "operator:short": "USPS", "operator:type": "public", "operator:wikidata": "Q668687", "ref": "3377000022"}, "type": "Feature"}
{"geometry": {"coordinates": [-82.79311, 27.92221], "type": "Point"}, "id": "XvZrjVGAhAab2Z32McHTCTnl77c=", "properties": {"@source_uri": "https://tools.usps.com/UspsToolsRestServices/rest/POLocator/findLocations", "@spider": "usps_collection_boxes", "addr:city": "LARGO", "addr:country": "US", "addr:postcode": "33770", "addr:state": "FL", "addr:street_address": "1301 MISSOURI AVE N", "amenity": "post_box", "collection_times": "Mo-Sa 10:00", "nsi_id": "unitedstatespostalservice-a77078", "operator": "United States Postal Service", "operator:short": "USPS", "operator:type": "public", "operator:wikidata": "Q668687", "ref": "3377000037"}, "type": "Feature"}
{"geometry": {"coordinates": [-82.79311, 27.92221], "type": "Point"}, "id": "9-YMmArR92xscg12kV0x2rIPegw=", "properties": {"@source_uri": "https://tools.usps.com/UspsToolsRestServices/rest/POLocator/findLocations", "@spider": "usps_collection_boxes", "addr:city": "LARGO", "addr:country": "US", "addr:postcode": "33770", "addr:state": "FL", "addr:street_address": "50 8TH AVE SW", "amenity": "post_box", "collection_times": "Mo-Fr 17:00; Sa 16:00", "note": "ON 12/24 AND 12/31, THIS BOX MAY BE COLLECTED AS EARLY AS 12 NOON.", "nsi_id": "unitedstatespostalservice-a77078", "operator": "United States Postal Service", "operator:short": "USPS", "operator:type": "public", "operator:wikidata": "Q668687", "ref": "3377000042"}, "type": "Feature"}
{"geometry": {"coordinates": [-82.79311, 27.92221], "type": "Point"}, "id": "5LbeYN5CAJjNAsjAyk1bNcZdF8g=", "properties": {"@source_uri": "https://tools.usps.com/UspsToolsRestServices/rest/POLocator/findLocations", "@spider": "usps_collection_boxes", "addr:city": "LARGO", "addr:country": "US", "addr:postcode": "33770", "addr:state": "FL", "addr:street_address": "2401 WEST BAY DR", "amenity": "post_box", "collection_times": "Mo-Fr 14:00", "note": "ON 12/24 AND 12/31, THIS BOX MAY BE COLLECTED AS EARLY AS 12 NOON.", "nsi_id": "unitedstatespostalservice-a77078", "operator": "United States Postal Service", "operator:short": "USPS", "operator:type": "public", "operator:wikidata": "Q668687", "ref": "3377000048"}, "type": "Feature"}
{"geometry": {"coordinates": [-82.79311, 27.92221], "type": "Point"}, "id": "Y0nwoe3_-aSIP-Wm6_XYaSeJWWA=", "properties": {"@source_uri": "https://tools.usps.com/UspsToolsRestServices/rest/POLocator/findLocations", "@spider": "usps_collection_boxes", "addr:city": "LARGO", "addr:country": "US", "addr:postcode": "33770", "addr:state": "FL", "addr:street_address": "50 8TH AVE SW", "amenity": "post_box", "collection_times": "Mo-Fr 17:00; Sa 16:00", "name": "USPS COLLECTION BOX - APC", "note": "ON 12/24 AND 12/31, THIS BOX MAY BE COLLECTED AS EARLY AS 12 NOON.", "nsi_id": "unitedstatespostalservice-a77078", "operator": "United States Postal Service", "operator:short": "USPS", "operator:type": "public", "operator:wikidata": "Q668687", "ref": "3377000050"}, "type": "Feature"}
{"geometry": {"coordinates": [-82.79311, 27.92221], "type": "Point"}, "id": "_1pVMI-vtZbI81t9_XJuB_ybRM0=", "properties": {"@source_uri": "https://tools.usps.com/UspsToolsRestServices/rest/POLocator/findLocations", "@spider": "usps_collection_boxes", "addr:city": "LARGO", "addr:country": "US", "addr:postcode": "33770", "addr:state": "FL", "addr:street_address": "801 WEST BAY DR", "amenity": "post_box", "collection_times": "Mo-Fr 10:00", "nsi_id": "unitedstatespostalservice-a77078", "operator": "United States Postal Service", "operator:short": "USPS", "operator:type": "public", "operator:wikidata": "Q668687", "ref": "3377000053"}, "type": "Feature"}
{"geometry": {"coordinates": [-82.79311, 27.92221], "type": "Point"}, "id": "lsFNpmKHnl8AaHXLet6wi6o40pA=", "properties": {"@source_uri": "https://tools.usps.com/UspsToolsRestServices/rest/POLocator/findLocations", "@spider": "usps_collection_boxes", "addr:city": "LARGO", "addr:country": "US", "addr:postcode": "33770", "addr:state": "FL", "addr:street_address": "50 8TH AVE SW", "amenity": "post_box", "collection_times": "Mo-Fr 17:30", "indoor": "yes", "note": "ON 12/24 AND 12/31, THIS BOX MAY BE COLLECTED AS EARLY AS 12 NOON.", "nsi_id": "unitedstatespostalservice-a77078", "operator": "United States Postal Service", "operator:short": "USPS", "operator:type": "public", "operator:wikidata": "Q668687", "ref": "3377000060"}, "type": "Feature"}
{"geometry": {"coordinates": [-82.7525, 27.915235], "type": "Point"}, "id": "mdXxMjSTHbHHMHh0gx53Vf0T_jI=", "properties": {"@source_uri": "https://tools.usps.com/UspsToolsRestServices/rest/POLocator/findLocations", "@spider": "usps_collection_boxes", "addr:city": "LARGO", "addr:country": "US", "addr:postcode": "33771", "addr:state": "FL", "addr:street_address": "3825 E BAY DR", "amenity": "post_box", "collection_times": "Mo-Fr 10:00", "nsi_id": "unitedstatespostalservice-a77078", "operator": "United States Postal Service", "operator:short": "USPS", "operator:type": "public", "operator:wikidata": "Q668687", "ref": "3377100002"}, "type": "Feature"}
{"geometry": {"coordinates": [-82.7525, 27.915235], "type": "Point"}, "id": "UCTOwLfYv4knZKeqdyL2piWNDAs=", "properties": {"@source_uri": "https://tools.usps.com/UspsToolsRestServices/rest/POLocator/findLocations", "@spider": "usps_collection_boxes", "addr:city": "LARGO", "addr:country": "US", "addr:postcode": "33771", "addr:state": "FL", "addr:street_address": "7500 ULMERTON RD", "amenity": "post_box", "collection_times": "Mo-Fr 10:30", "nsi_id": "unitedstatespostalservice-a77078", "operator": "United States Postal Service", "operator:short": "USPS", "operator:type": "public", "operator:wikidata": "Q668687", "ref": "3377100018"}, "type": "Feature"}
{"geometry": {"coordinates": [-82.7525, 27.915235], "type": "Point"}, "id": "eM_-9wtlka1AtKHvY2vnBOwz-iQ=", "properties": {"@source_uri": "https://tools.usps.com/UspsToolsRestServices/rest/POLocator/findLocations", "@spider": "usps_collection_boxes", "addr:city": "LARGO", "addr:country": "US", "addr:postcode": "33771", "addr:state": "FL", "addr:street_address": "1101 BELCHER RD S", "amenity": "post_box", "collection_times": "Mo-Fr 11:00", "nsi_id": "unitedstatespostalservice-a77078", "operator": "United States Postal Service", "operator:short": "USPS", "operator:type": "public", "operator:wikidata": "Q668687", "ref": "3377100026"}, "type": "Feature"}
{"geometry": {"coordinates": [-82.7525, 27.915235], "type": "Point"}, "id": "zIMXH1TlnC2J_1gw-AjwKV8bMdk=", "properties": {"@source_uri": "https://tools.usps.com/UspsToolsRestServices/rest/POLocator/findLocations", "@spider": "usps_collection_boxes", "addr:city": "LARGO", "addr:country": "US", "addr:postcode": "33771", "addr:state": "FL", "addr:street_address": "1901 TALL PINES DR", "amenity": "post_box", "collection_times": "Mo-Fr 11:00", "nsi_id": "unitedstatespostalservice-a77078", "operator": "United States Postal Service", "operator:short": "USPS", "operator:type": "public", "operator:wikidata": "Q668687", "ref": "3377100029"}, "type": "Feature"}
{"geometry": {"coordinates": [-82.7525, 27.915235], "type": "Point"}, "id": "CFNI7aheUfQ-Vz2HZfocYimxJDc=", "properties": {"@source_uri": "https://tools.usps.com/UspsToolsRestServices/rest/POLocator/findLocations", "@spider": "usps_collection_boxes", "addr:city": "LARGO", "addr:country": "US", "addr:postcode": "33771", "addr:state": "FL", "addr:street_address": "10225 ULMERTON RD", "amenity": "post_box", "collection_times": "Mo-Fr 14:30", "note": "ON 12/24 AND 12/31, THIS BOX MAY BE COLLECTED AS EARLY AS 12 NOON.", "nsi_id": "unitedstatespostalservice-a77078", "operator": "United States Postal Service", "operator:short": "USPS", "operator:type": "public", "operator:wikidata": "Q668687", "ref": "3377100031"}, "type": "Feature"}
{"geometry": {"coordinates": [-82.7525, 27.915235], "type": "Point"}, "id": "ORJ26tQ4cLJWW0-OxYJHiMvzBHE=", "properties": {"@source_uri": "https://tools.usps.com/UspsToolsRestServices/rest/POLocator/findLocations", "@spider": "usps_collection_boxes", "addr:city": "LARGO", "addr:country": "US", "addr:postcode": "33771", "addr:state": "FL", "addr:street_address": "2101 STARKEY RD", "amenity": "post_box", "collection_times": "Mo-Fr 12:00", "nsi_id": "unitedstatespostalservice-a77078", "operator": "United States Postal Service", "operator:short": "USPS", "operator:type": "public", "operator:wikidata": "Q668687", "ref": "3377100033"}, "type": "Feature"}
{"geometry": {"coordinates": [-82.7525, 27.915235], "type": "Point"}, "id": "F3n5LBQSwTB0mhZUF8xjoujQ7JY=", "properties": {"@source_uri": "https://tools.usps.com/UspsToolsRestServices/rest/POLocator/findLocations", "@spider": "usps_collection_boxes", "addr:city": "LARGO", "addr:country": "US", "addr:postcode": "33771", "addr:state": "FL", "addr:street_address": "10500 ULMERTON RD", "amenity": "post_box", "collection_times": "Mo-Fr 09:30", "nsi_id": "unitedstatespostalservice-a77078", "operator": "United States Postal Service", "operator:short": "USPS", "operator:type": "public", "operator:wikidata": "Q668687", "ref": "3377100035"}, "type": "Feature"}
{"geometry": {"coordinates": [-82.7525, 27.915235], "type": "Point"}, "id": "6-5OzpjPj6706fh-pM35aYN0OTo=", "properties": {"@source_uri": "https://tools.usps.com/UspsToolsRestServices/rest/POLocator/findLocations", "@spider": "usps_collection_boxes", "addr:city": "LARGO", "addr:country": "US", "addr:postcode": "33771", "addr:state": "FL", "addr:street_address": "8550 ULMERTON RD", "amenity": "post_box", "collection_times": "Mo-Fr 09:45", "nsi_id": "unitedstatespostalservice-a77078", "operator": "United States Postal Service", "operator:short": "USPS", "operator:type": "public", "operator:wikidata": "Q668687", "ref": "3377100036"}, "type": "Feature"}
{"geometry": {"coordinates": [-82.7525, 27.915235], "type": "Point"}, "id": "2sG2Mu6DfvFFrUPg3y9DbafGLj4=", "properties": {"@source_uri": "https://tools.usps.com/UspsToolsRestServices/rest/POLocator/findLocations", "@spider": "usps_collection_boxes", "addr:city": "LARGO", "addr:country": "US", "addr:postcode": "33771", "addr:state": "FL", "addr:street_address": "2200 TALL PINES DR", "amenity": "post_box", "collection_times": "Mo-Fr 11:00", "nsi_id": "unitedstatespostalservice-a77078", "operator": "United States Postal Service", "operator:short": "USPS", "operator:type": "public", "operator:wikidata": "Q668687", "ref": "3377100042"}, "type": "Feature"}
{"geometry": {"coordinates": [-82.79254, 27.839995], "type": "Point"}, "id": "zV06gw6C838AT8FEz9g82WUMVzo=", "properties": {"@source_uri": "https://tools.usps.com/UspsToolsRestServices/rest/POLocator/findLocations", "@spider": "usps_collection_boxes", "addr:city": "SEMINOLE", "addr:country": "US", "addr:postcode": "33772", "addr:state": "FL", "addr:street_address": "7695 113TH ST", "amenity": "post_box", "collection_times": "Mo-Sa 10:30", "nsi_id": "unitedstatespostalservice-a77078", "operator": "United States Postal Service", "operator:short": "USPS", "operator:type": "public", "operator:wikidata": "Q668687", "ref": "3377200001"}, "type": "Feature"}
{"geometry": {"coordinates": [-82.79254, 27.839995], "type": "Point"}, "id": "W6kdJRwUBXSYeyELjdIWcrR_95U=", "properties": {"@source_uri": "https://tools.usps.com/UspsToolsRestServices/rest/POLocator/findLocations", "@spider": "usps_collection_boxes", "addr:city": "SEMINOLE", "addr:country": "US", "addr:postcode": "33772", "addr:state": "FL", "addr:street_address": "9355 113TH ST", "amenity": "post_box", "collection_times": "Mo-Fr 17:00; Sa 16:00", "note": "ON 12/24 AND 12/31, THIS BOX MAY BE COLLECTED AS EARLY AS 12 NOON.", "nsi_id": "unitedstatespostalservice-a77078", "operator": "United States Postal Service", "operator:short": "USPS", "operator:type": "public", "operator:wikidata": "Q668687", "ref": "3377200003"}, "type": "Feature"}
{"geometry": {"coordinates": [-82.79254, 27.839995], "type": "Point"}, "id": "8m5zRglQpdqfAYuEJHszZqOebbE=", "properties": {"@source_uri": "https://tools.usps.com/UspsToolsRestServices/rest/POLocator/findLocations", "@spider": "usps_collection_boxes", "addr:city": "SEMINOLE", "addr:country": "US", "addr:postcode": "33772", "addr:state": "FL", "addr:street_address": "11212 PARK BLVD", "amenity": "post_box", "collection_times": "Mo-Sa 10:30", "nsi_id": "unitedstatespostalservice-a77078", "operator": "United States Postal Service", "operator:short": "USPS", "operator:type": "public", "operator:wikidata": "Q668687", "ref": "3377200013"}, "type": "Feature"}
{"geometry": {"coordinates": [-82.79254, 27.839995], "type": "Point"}, "id": "12H2OkZCnCBWvQcXWQzHigGfG08=", "properties": {"@source_uri": "https://tools.usps.com/UspsToolsRestServices/rest/POLocator/findLocations", "@spider": "usps_collection_boxes", "addr:city": "SEMINOLE", "addr:country": "US", "addr:postcode": "33772", "addr:state": "FL", "addr:street_address": "6801 SEMINOLE BLVD", "amenity": "post_box", "collection_times": "Mo-Sa 09:30", "nsi_id": "unitedstatespostalservice-a77078", "operator": "United States Postal Service", "operator:short": "USPS", "operator:type": "public", "operator:wikidata": "Q668687", "ref": "3377200021"}, "type": "Feature"}
{"geometry": {"coordinates": [-82.79254, 27.839995], "type": "Point"}, "id": "F2uw2IIgMheo9ALSVmcb1ia0Da8=", "properties": {"@source_uri": "https://tools.usps.com/UspsToolsRestServices/rest/POLocator/findLocations", "@spider": "usps_collection_boxes", "addr:city": "SEMINOLE", "addr:country": "US", "addr:postcode": "33772", "addr:state": "FL", "addr:street_address": "8900 SEMINOLE BLVD", "amenity": "post_box", "collection_times": "Mo-Sa 15:00", "note": "ON 12/24 AND 12/31, THIS BOX MAY BE COLLECTED AS EARLY AS 12 NOON.", "nsi_id": "unitedstatespostalservice-a77078", "operator": "United States Postal Service", "operator:short": "USPS", "operator:type": "public", "operator:wikidata": "Q668687", "ref": "3377200024"}, "type": "Feature"}
{"geometry": {"coordinates": [-82.79254, 27.839995], "type": "Point"}, "id": "LvcDhHqIj9Vvu9tPdB40NVxj8VM=", "properties": {"@source_uri": "https://tools.usps.com/UspsToolsRestServices/rest/POLocator/findLocations", "@spider": "usps_collection_boxes", "addr:city": "SEMINOLE", "addr:country": "US", "addr:postcode": "33772", "addr:state": "FL", "addr:street_address": "7122 SEMINOLE BLVD", "amenity": "post_box", "collection_times": "Mo-Sa 09:00", "nsi_id": "unitedstatespostalservice-a77078", "operator": "United States Postal Service", "operator:short": "USPS", "operator:type": "public", "operator:wikidata": "Q668687", "ref": "3377200029"}, "type": "Feature"}
{"geometry": {"coordinates": [-82.79254, 27.839995], "type": "Point"}, "id": "jHgTa5xiVqefEmja4238hdHE1O4=", "properties": {"@source_uri": "https://tools.usps.com/UspsToolsRestServices/rest/POLocator/findLocations", "@spider": "usps_collection_boxes", "addr:city": "SEMINOLE", "addr:country": "US", "addr:postcode": "33772", "addr:state": "FL", "addr:street_address": "9355 113TH ST", "amenity": "post_box", "collection_times": "Mo-Fr 17:00; Sa 16:00", "name": "USPS COLLECTION BOX - APC", "note": "ON 12/24 AND 12/31, THIS BOX MAY BE COLLECTED AS EARLY AS 12 NOON.", "nsi_id": "unitedstatespostalservice-a77078", "operator": "United States Postal Service", "operator:short": "USPS", "operator:type": "public", "operator:wikidata": "Q668687", "ref": "3377200033"}, "type": "Feature"}
{"geometry": {"coordinates": [-82.79254, 27.839995], "type": "Point"}, "id": "9DkZqUFwk2sgkG5sQC0P7rpzYEQ=", "properties": {"@source_uri": "https://tools.usps.com/UspsToolsRestServices/rest/POLocator/findLocations", "@spider": "usps_collection_boxes", "addr:city": "SEMINOLE", "addr:country": "US", "addr:postcode": "33772", "addr:state": "FL", "addr:street_address": "9355 113TH ST", "amenity": "post_box", "collection_times": "Mo-Fr 17:00", "indoor": "yes", "note": "ON 12/24 AND 12/31, THIS BOX MAY BE COLLECTED AS EARLY AS 12 NOON.", "nsi_id": "unitedstatespostalservice-a77078", "operator": "United States Postal Service", "operator:short": "USPS", "operator:type": "public", "operator:wikidata": "Q668687", "ref": "3377200035"}, "type": "Feature"}
{"geometry": {"coordinates": [-82.73424, 27.88099], "type": "Point"}, "id": "aIusfKdwnQGwWs9C6uc1UcXDeC0=", "properties": {"@source_uri": "https://tools.usps.com/UspsToolsRestServices/rest/POLocator/findLocations", "@spider": "usps_collection_boxes", "addr:city": "LARGO", "addr:country": "US", "addr:postcode": "33773", "addr:state": "FL", "addr:street_address": "7441 114TH AVE", "amenity": "post_box", "collection_times": "Mo-Fr 13:00", "note": "ON 12/24 AND 12/31, THIS BOX MAY BE COLLECTED AS EARLY AS 12 NOON.", "nsi_id": "unitedstatespostalservice-a77078", "operator": "United States Postal Service", "operator:short": "USPS", "operator:type": "public", "operator:wikidata": "Q668687", "ref": "3377300001"}, "type": "Feature"}
{"geometry": {"coordinates": [-82.73424, 27.88099], "type": "Point"}, "id": "jwEPNd5XFMUTsqQ1IcVZoXYv4cM=", "properties": {"@source_uri": "https://tools.usps.com/UspsToolsRestServices/rest/POLocator/findLocations", "@spider": "usps_collection_boxes", "addr:city": "LARGO", "addr:country": "US", "addr:postcode": "33773", "addr:state": "FL", "addr:street_address": "7425 124TH AVE", "amenity": "post_box", "collection_times": "Mo-Fr 12:30", "note": "ON 12/24 AND 12/31, THIS BOX MAY BE COLLECTED AS EARLY AS 12 NOON.", "nsi_id": "unitedstatespostalservice-a77078", "operator": "United States Postal Service", "operator:short": "USPS", "operator:type": "public", "operator:wikidata": "Q668687", "ref": "3377300007"}, "type": "Feature"}
{"geometry": {"coordinates": [-82.73424, 27.88099], "type": "Point"}, "id": "f119Xgzvl7D_HbKV7vZPFLsc0Og=", "properties": {"@source_uri": "https://tools.usps.com/UspsToolsRestServices/rest/POLocator/findLocations", "@spider": "usps_collection_boxes", "addr:city": "LARGO", "addr:country": "US", "addr:postcode": "33773", "addr:state": "FL", "addr:street_address": "11321 STARKEY RD", "amenity": "post_box", "collection_times": "Mo-Fr 17:00; Sa 14:00", "note": "ON 12/24 AND 12/31, THIS BOX MAY BE COLLECTED AS EARLY AS 12 NOON.", "nsi_id": "unitedstatespostalservice-a77078", "operator": "United States Postal Service", "operator:short": "USPS", "operator:type": "public", "operator:wikidata": "Q668687", "ref": "3377300016"}, "type": "Feature"}
{"geometry": {"coordinates": [-82.73424, 27.88099], "type": "Point"}, "id": "h8lkc8ZmSzvsquTiuddqT9S5608=", "properties": {"@source_uri": "https://tools.usps.com/UspsToolsRestServices/rest/POLocator/findLocations", "@spider": "usps_collection_boxes", "addr:city": "LARGO", "addr:country": "US", "addr:postcode": "33773", "addr:state": "FL", "addr:street_address": "12345 STARKEY RD", "amenity": "post_box", "collection_times": "Mo-Fr 10:30", "nsi_id": "unitedstatespostalservice-a77078", "operator": "United States Postal Service", "operator:short": "USPS", "operator:type": "public", "operator:wikidata": "Q668687", "ref": "3377300021"}, "type": "Feature"}
{"geometry": {"coordinates": [-82.73424, 27.88099], "type": "Point"}, "id": "B5_227OHysvKMaLP6KKeVzZNcY8=", "properties": {"@source_uri": "https://tools.usps.com/UspsToolsRestServices/rest/POLocator/findLocations", "@spider": "usps_collection_boxes", "addr:city": "LARGO", "addr:country": "US", "addr:postcode": "33773", "addr:state": "FL", "addr:street_address": "13191 STARKEY RD", "amenity": "post_box", "collection_times": "Mo-Fr 11:00", "nsi_id": "unitedstatespostalservice-a77078", "operator": "United States Postal Service", "operator:short": "USPS", "operator:type": "public", "operator:wikidata": "Q668687", "ref": "3377300022"}, "type": "Feature"}
{"geometry": {"coordinates": [-82.73424, 27.88099], "type": "Point"}, "id": "ZGKWszrWEIzs_xIzAZTw5CMRRdA=", "properties": {"@source_uri": "https://tools.usps.com/UspsToolsRestServices/rest/POLocator/findLocations", "@spider": "usps_collection_boxes", "addr:city": "LARGO", "addr:country": "US", "addr:postcode": "33773", "addr:state": "FL", "addr:street_address": "9003 130TH AVE", "amenity": "post_box", "collection_times": "Mo-Fr 10:00", "nsi_id": "unitedstatespostalservice-a77078", "operator": "United States Postal Service", "operator:short": "USPS", "operator:type": "public", "operator:wikidata": "Q668687", "ref": "3377300024"}, "type": "Feature"}
{"geometry": {"coordinates": [-82.73424, 27.88099], "type": "Point"}, "id": "1degAljKtPNKU6iGJ1lKiy_tGY4=", "properties": {"@source_uri": "https://tools.usps.com/UspsToolsRestServices/rest/POLocator/findLocations", "@spider": "usps_collection_boxes", "addr:city": "LARGO", "addr:country": "US", "addr:postcode": "33773", "addr:state": "FL", "addr:street_address": "8656 115TH AVE", "amenity": "post_box", "collection_times": "Mo-Fr 10:30", "nsi_id": "unitedstatespostalservice-a77078", "operator": "United States Postal Service", "operator:short": "USPS", "operator:type": "public", "operator:wikidata": "Q668687", "ref": "3377300025"}, "type": "Feature"}
{"geometry": {"coordinates": [-82.83362, 27.88049], "type": "Point"}, "id": "vIZeKSLZ_hxwG0ZVSYNzwrWC8h4=", "properties": {"@source_uri": "https://tools.usps.com/UspsToolsRestServices/rest/POLocator/findLocations", "@spider": "usps_collection_boxes", "addr:city": "LARGO", "addr:country": "US", "addr:postcode": "33774", "addr:state": "FL", "addr:street_address": "13870 WALSINGHAM RD", "amenity": "post_box", "collection_times": "Mo-Sa 14:45", "note": "ON 12/24 AND 12/31, THIS BOX MAY BE COLLECTED AS EARLY AS 12 NOON.", "nsi_id": "unitedstatespostalservice-a77078", "operator": "United States Postal Service", "operator:short": "USPS", "operator:type": "public", "operator:wikidata": "Q668687", "ref": "3377400005"}, "type": "Feature"}
{"geometry": {"coordinates": [-82.83362, 27.88049], "type": "Point"}, "id": "RhlkhR4K35Qlm0QUkwhx1FrzAOQ=", "properties": {"@source_uri": "https://tools.usps.com/UspsToolsRestServices/rest/POLocator/findLocations", "@spider": "usps_collection_boxes", "addr:city": "LARGO", "addr:country": "US", "addr:postcode": "33774", "addr:state": "FL", "addr:street_address": "12935 WALSINGHAM RD", "amenity": "post_box", "collection_times": "Mo-Sa 15:30", "note": "ON 12/24 AND 12/31, THIS BOX MAY BE COLLECTED AS EARLY AS 12 NOON.", "nsi_id": "unitedstatespostalservice-a77078", "operator": "United States Postal Service", "operator:short": "USPS", "operator:type": "public", "operator:wikidata": "Q668687", "ref": "3377400008"}, "type": "Feature"}
{"geometry": {"coordinates": [-82.83362, 27.88049], "type": "Point"}, "id": "wK506WZwHNp-vUVKpXKqfIOtGaw=", "properties": {"@source_uri": "https://tools.usps.com/UspsToolsRestServices/rest/POLocator/findLocations", "@spider": "usps_collection_boxes", "addr:city": "LARGO", "addr:country": "US", "addr:postcode": "33774", "addr:state": "FL", "addr:street_address": "13819 WALSINGHAM RD", "amenity": "post_box", "collection_times": "Mo-Sa 09:30", "nsi_id": "unitedstatespostalservice-a77078", "operator": "United States Postal Service", "operator:short": "USPS", "operator:type": "public", "operator:wikidata": "Q668687", "ref": "3377400009"}, "type": "Feature"}
{"geometry": {"coordinates": [-82.83362, 27.88049], "type": "Point"}, "id": "lpzQhPlDEACikwsoXIWIVY5LLr4=", "properties": {"@source_uri": "https://tools.usps.com/UspsToolsRestServices/rest/POLocator/findLocations", "@spider": "usps_collection_boxes", "addr:city": "LARGO", "addr:country": "US", "addr:postcode": "33774", "addr:state": "FL", "addr:street_address": "14100 WALSINGHAM RD", "amenity": "post_box", "collection_times": "Mo-Sa 14:15", "note": "ON 12/24 AND 12/31, THIS BOX MAY BE COLLECTED AS EARLY AS 12 NOON.", "nsi_id": "unitedstatespostalservice-a77078", "operator": "United States Postal Service", "operator:short": "USPS", "operator:type": "public", "operator:wikidata": "Q668687", "ref": "3377400010"}, "type": "Feature"}
{"geometry": {"coordinates": [-82.83362, 27.88049], "type": "Point"}, "id": "NPe7tOgmTjL4cCcw9ZVxQDa7tGs=", "properties": {"@source_uri": "https://tools.usps.com/UspsToolsRestServices/rest/POLocator/findLocations", "@spider": "usps_collection_boxes", "addr:city": "LARGO", "addr:country": "US", "addr:postcode": "33774", "addr:state": "FL", "addr:street_address": "12071 INDIAN ROCKS RD", "amenity": "post_box", "collection_times": "Mo-Sa 09:30", "nsi_id": "unitedstatespostalservice-a77078", "operator": "United States Postal Service", "operator:short": "USPS", "operator:type": "public", "operator:wikidata": "Q668687", "ref": "3377400011"}, "type": "Feature"}
{"geometry": {"coordinates": [-82.83362, 27.88049], "type": "Point"}, "id": "ZUDQ3vfZXWReuWLcjfZ0EFVq7ec=", "properties": {"@source_uri": "https://tools.usps.com/UspsToolsRestServices/rest/POLocator/findLocations", "@spider": "usps_collection_boxes", "addr:city": "LARGO", "addr:country": "US", "addr:postcode": "33774", "addr:state": "FL", "addr:street_address": "12490 ULMERTON RD", "amenity": "post_box", "collection_times": "Mo-Sa 10:15", "nsi_id": "unitedstatespostalservice-a77078", "operator": "United States Postal Service", "operator:short": "USPS", "operator:type": "public", "operator:wikidata": "Q668687", "ref": "3377400013"}, "type": "Feature"}
{"geometry": {"coordinates": [-82.8297602, 27.8559547], "type": "Point"}, "id": "2TRzL7iJw8nyNHNz1uTsc-HRmfA=", "properties": {"@source_uri": "https://tools.usps.com/UspsToolsRestServices/rest/POLocator/findLocations", "@spider": "usps_collection_boxes", "addr:city": "LARGO", "addr:country": "US", "addr:postcode": "33776", "addr:state": "FL", "addr:street_address": "9330 OAKHURST RD", "amenity": "post_box", "collection_times": "Mo-Sa 10:30", "nsi_id": "unitedstatespostalservice-a77078", "operator": "United States Postal Service", "operator:short": "USPS", "operator:type": "public", "operator:wikidata": "Q668687", "ref": "3377600003"}, "type": "Feature"}
{"geometry": {"coordinates": [-82.8297602, 27.8559547], "type": "Point"}, "id": "Ho4irBkU2k9y5xcDtl1_YCgAmgo=", "properties": {"@source_uri": "https://tools.usps.com/UspsToolsRestServices/rest/POLocator/findLocations", "@spider": "usps_collection_boxes", "addr:city": "LARGO", "addr:country": "US", "addr:postcode": "33776", "addr:state": "FL", "addr:street_address": "13099 PARK BLVD", "amenity": "post_box", "collection_times": "Mo-Sa 09:30", "nsi_id": "unitedstatespostalservice-a77078", "operator": "United States Postal Service", "operator:short": "USPS", "operator:type": "public", "operator:wikidata": "Q668687", "ref": "3377600005"}, "type": "Feature"}
{"geometry": {"coordinates": [-82.75594, 27.854755], "type": "Point"}, "id": "0ja8yXFF-IT_yNzTrUKUXqXcdl0=", "properties": {"@source_uri": "https://tools.usps.com/UspsToolsRestServices/rest/POLocator/findLocations", "@spider": "usps_collection_boxes", "addr:city": "LARGO", "addr:country": "US", "addr:postcode": "33777", "addr:state": "FL", "addr:street_address": "10326 72ND ST", "amenity": "post_box", "collection_times": "Mo-Fr 11:00", "nsi_id": "unitedstatespostalservice-a77078", "operator": "United States Postal Service", "operator:short": "USPS", "operator:type": "public", "operator:wikidata": "Q668687", "ref": "3377700000"}, "type": "Feature"}
{"geometry": {"coordinates": [-82.75594, 27.854755], "type": "Point"}, "id": "VYEj_UqTMwA4469YRew9xFVNHvs=", "properties": {"@source_uri": "https://tools.usps.com/UspsToolsRestServices/rest/POLocator/findLocations", "@spider": "usps_collection_boxes", "addr:city": "LARGO", "addr:country": "US", "addr:postcode": "33777", "addr:state": "FL", "addr:street_address": "10801 STARKEY RD", "amenity": "post_box", "collection_times": "Mo-Fr 15:30; Sa 14:30", "note": "ON 12/24 AND 12/31, THIS BOX MAY BE COLLECTED AS EARLY AS 12 NOON.", "nsi_id": "unitedstatespostalservice-a77078", "operator": "United States Postal Service", "operator:short": "USPS", "operator:type": "public", "operator:wikidata": "Q668687", "ref": "3377700006"}, "type": "Feature"}
{"geometry": {"coordinates": [-82.75594, 27.854755], "type": "Point"}, "id": "qE_5ViS6EC7Y26Wb07KaQqU8l2k=", "properties": {"@source_uri": "https://tools.usps.com/UspsToolsRestServices/rest/POLocator/findLocations", "@spider": "usps_collection_boxes", "addr:city": "LARGO", "addr:country": "US", "addr:postcode": "33777", "addr:state": "FL", "addr:street_address": "8740 PARK BLVD", "amenity": "post_box", "collection_times": "Mo-Sa 09:00", "nsi_id": "unitedstatespostalservice-a77078", "operator": "United States Postal Service", "operator:short": "USPS", "operator:type": "public", "operator:wikidata": "Q668687", "ref": "3377700008"}, "type": "Feature"}
{"geometry": {"coordinates": [-82.7920131, 27.87101], "type": "Point"}, "id": "-hbcYllJpIqMCYcuByk7e8dz1co=", "properties": {"@source_uri": "https://tools.usps.com/UspsToolsRestServices/rest/POLocator/findLocations", "@spider": "usps_collection_boxes", "addr:city": "LARGO", "addr:country": "US", "addr:postcode": "33778", "addr:state": "FL", "addr:street_address": "12487 SEMINOLE BLVD", "amenity": "post_box", "collection_times": "Mo-Sa 09:15", "nsi_id": "unitedstatespostalservice-a77078", "operator": "United States Postal Service", "operator:short": "USPS", "operator:type": "public", "operator:wikidata": "Q668687", "ref": "3377800003"}, "type": "Feature"}
{"geometry": {"coordinates": [-82.7920131, 27.87101], "type": "Point"}, "id": "yinFdSL3rTGK1vSYEQu--SFLPSg=", "properties": {"@source_uri": "https://tools.usps.com/UspsToolsRestServices/rest/POLocator/findLocations", "@spider": "usps_collection_boxes", "addr:city": "LARGO", "addr:country": "US", "addr:postcode": "33778", "addr:state": "FL", "addr:street_address": "11351 ULMERTON RD", "amenity": "post_box", "collection_times": "Mo-Sa 10:30", "nsi_id": "unitedstatespostalservice-a77078", "operator": "United States Postal Service", "operator:short": "USPS", "operator:type": "public", "operator:wikidata": "Q668687", "ref": "3377800006"}, "type": "Feature"}
{"geometry": {"coordinates": [-82.70295, 27.839295], "type": "Point"}, "id": "BQ6pK35vkrsA0cn5-4bsXzWBe24=", "properties": {"@source_uri": "https://tools.usps.com/UspsToolsRestServices/rest/POLocator/findLocations", "@spider": "usps_collection_boxes", "addr:city": "PINELLAS PARK", "addr:country": "US", "addr:postcode": "33781", "addr:state": "FL", "addr:street_address": "8201 40TH ST N", "amenity": "post_box", "collection_times": "Mo-Sa 15:15", "note": "ON 12/24 AND 12/31, THIS BOX MAY BE COLLECTED AS EARLY AS 12 NOON.", "nsi_id": "unitedstatespostalservice-a77078", "operator": "United States Postal Service", "operator:short": "USPS", "operator:type": "public", "operator:wikidata": "Q668687", "ref": "3378100000"}, "type": "Feature"}
{"geometry": {"coordinates": [-82.70295, 27.839295], "type": "Point"}, "id": "n4CoNBKgQkQQlCN3J1m0f-lfmFY=", "properties": {"@source_uri": "https://tools.usps.com/UspsToolsRestServices/rest/POLocator/findLocations", "@spider": "usps_collection_boxes", "addr:city": "PINELLAS PARK", "addr:country": "US", "addr:postcode": "33781", "addr:state": "FL", "addr:street_address": "6401 46TH ST.", "amenity": "post_box", "collection_times": "Mo-Fr 15:45", "note": "ON 12/24 AND 12/31, THIS BOX MAY BE COLLECTED AS EARLY AS 12 NOON.", "nsi_id": "unitedstatespostalservice-a77078", "operator": "United States Postal Service", "operator:short": "USPS", "operator:type": "public", "operator:wikidata": "Q668687", "ref": "3378100001"}, "type": "Feature"}
{"geometry": {"coordinates": [-82.70295, 27.839295], "type": "Point"}, "id": "mR4fnZiS6PSPYljX7bBsJYSPH2g=", "properties": {"@source_uri": "https://tools.usps.com/UspsToolsRestServices/rest/POLocator/findLocations", "@spider": "usps_collection_boxes", "addr:city": "PINELLAS PARK", "addr:country": "US", "addr:postcode": "33781", "addr:state": "FL", "addr:street_address": "7520 49TH ST N", "amenity": "post_box", "collection_times": "Mo-Sa 16:00", "note": "ON 12/24 AND 12/31, THIS BOX MAY BE COLLECTED AS EARLY AS 12 NOON.", "nsi_id": "unitedstatespostalservice-a77078", "operator": "United States Postal Service", "operator:short": "USPS", "operator:type": "public", "operator:wikidata": "Q668687", "ref": "3378100002"}, "type": "Feature"}
{"geometry": {"coordinates": [-82.70295, 27.839295], "type": "Point"}, "id": "H62f7I-z993m9DWmZlFzg86tTWk=", "properties": {"@source_uri": "https://tools.usps.com/UspsToolsRestServices/rest/POLocator/findLocations", "@spider": "usps_collection_boxes", "addr:city": "PINELLAS PARK", "addr:country": "US", "addr:postcode": "33781", "addr:state": "FL", "addr:street_address": "6595 66TH ST N", "amenity": "post_box", "collection_times": "Mo-Sa 15:15", "note": "ON 12/24 AND 12/31, THIS BOX MAY BE COLLECTED AS EARLY AS 12 NOON.", "nsi_id": "unitedstatespostalservice-a77078", "operator": "United States Postal Service", "operator:short": "USPS", "operator:type": "public", "operator:wikidata": "Q668687", "ref": "3378100011"}, "type": "Feature"}
{"geometry": {"coordinates": [-82.70295, 27.839295], "type": "Point"}, "id": "RpVcwSd5lXAHnWfyoFnXOcr5BHY=", "properties": {"@source_uri": "https://tools.usps.com/UspsToolsRestServices/rest/POLocator/findLocations", "@spider": "usps_collection_boxes", "addr:city": "PINELLAS PARK", "addr:country": "US", "addr:postcode": "33781", "addr:state": "FL", "addr:street_address": "5193 73RD AVE N", "amenity": "post_box", "collection_times": "Mo-Sa 15:15", "note": "ON 12/24 AND 12/31, THIS BOX MAY BE COLLECTED AS EARLY AS 12 NOON.", "nsi_id": "unitedstatespostalservice-a77078", "operator": "United States Postal Service", "operator:short": "USPS", "operator:type": "public", "operator:wikidata": "Q668687", "ref": "3378100013"}, "type": "Feature"}
{"geometry": {"coordinates": [-82.70295, 27.839295], "type": "Point"}, "id": "xmtIHm6f2w8O8ghbHMfU3ns94vg=", "properties": {"@source_uri": "https://tools.usps.com/UspsToolsRestServices/rest/POLocator/findLocations", "@spider": "usps_collection_boxes", "addr:city": "PINELLAS PARK", "addr:country": "US", "addr:postcode": "33781", "addr:state": "FL", "addr:street_address": "5141 78TH AVE N", "amenity": "post_box", "collection_times": "Mo-Sa 15:15", "note": "ON 12/24 AND 12/31, THIS BOX MAY BE COLLECTED AS EARLY AS 12 NOON.", "nsi_id": "unitedstatespostalservice-a77078", "operator": "United States Postal Service", "operator:short": "USPS", "operator:type": "public", "operator:wikidata": "Q668687", "ref": "3378100014"}, "type": "Feature"}
{"geometry": {"coordinates": [-82.70295, 27.839295], "type": "Point"}, "id": "BdIWAhjw8VTTZUV214mqvrk0l1Q=", "properties": {"@source_uri": "https://tools.usps.com/UspsToolsRestServices/rest/POLocator/findLocations", "@spider": "usps_collection_boxes", "addr:city": "PINELLAS PARK", "addr:country": "US", "addr:postcode": "33781", "addr:state": "FL", "addr:street_address": "3401 GANDY BLVD", "amenity": "post_box", "collection_times": "Mo-Sa 13:00", "note": "ON 12/24 AND 12/31, THIS BOX MAY BE COLLECTED AS EARLY AS 12 NOON.", "nsi_id": "unitedstatespostalservice-a77078", "operator": "United States Postal Service", "operator:short": "USPS", "operator:type": "public", "operator:wikidata": "Q668687", "ref": "3378100016"}, "type": "Feature"}
{"geometry": {"coordinates": [-82.70295, 27.839295], "type": "Point"}, "id": "p5X2dIO0NMBLVLbh3buxUmbCCpM=", "properties": {"@source_uri": "https://tools.usps.com/UspsToolsRestServices/rest/POLocator/findLocations", "@spider": "usps_collection_boxes", "addr:city": "PINELLAS PARK", "addr:country": "US", "addr:postcode": "33781", "addr:state": "FL", "addr:street_address": "3491 GANDY BLVD N", "amenity": "post_box", "collection_times": "Mo-Sa 13:15", "note": "ON 12/24 AND 12/31, THIS BOX MAY BE COLLECTED AS EARLY AS 12 NOON.", "nsi_id": "unitedstatespostalservice-a77078", "operator": "United States Postal Service", "operator:short": "USPS", "operator:type": "public", "operator:wikidata": "Q668687", "ref": "3378100017"}, "type": "Feature"}
{"geometry": {"coordinates": [-82.70295, 27.839295], "type": "Point"}, "id": "-Tz_b0HJOmDhHCqFiQnaCSRx_ok=", "properties": {"@source_uri": "https://tools.usps.com/UspsToolsRestServices/rest/POLocator/findLocations", "@spider": "usps_collection_boxes", "addr:city": "PINELLAS PARK", "addr:country": "US", "addr:postcode": "33781", "addr:state": "FL", "addr:street_address": "5260 78TH AVE N", "amenity": "post_box", "collection_times": "Mo-Fr 17:00; Sa 15:00", "name": "USPS COLLECTION BOX - APC", "note": "ON 12/24 AND 12/31, THIS BOX MAY BE COLLECTED AS EARLY AS 12 NOON.", "nsi_id": "unitedstatespostalservice-a77078", "operator": "United States Postal Service", "operator:short": "USPS", "operator:type": "public", "operator:wikidata": "Q668687", "ref": "3378100018"}, "type": "Feature"}
{"geometry": {"coordinates": [-82.70295, 27.839295], "type": "Point"}, "id": "FjSMTixzLyaMzPNuGWeOIS3DVMU=", "properties": {"@source_uri": "https://tools.usps.com/UspsToolsRestServices/rest/POLocator/findLocations", "@spider": "usps_collection_boxes", "addr:city": "PINELLAS PARK", "addr:country": "US", "addr:postcode": "33781", "addr:state": "FL", "addr:street_address": "10595 66TH ST N", "amenity": "post_box", "collection_times": "Mo-Sa 10:00", "nsi_id": "unitedstatespostalservice-a77078", "operator": "United States Postal Service", "operator:short": "USPS", "operator:type": "public", "operator:wikidata": "Q668687", "ref": "3378100019"}, "type": "Feature"}
{"geometry": {"coordinates": [-82.70295, 27.839295], "type": "Point"}, "id": "yvnsYDzIbSo6A-ImeOIMiSFWPi0=", "properties": {"@source_uri": "https://tools.usps.com/UspsToolsRestServices/rest/POLocator/findLocations", "@spider": "usps_collection_boxes", "addr:city": "PINELLAS PARK", "addr:country": "US", "addr:postcode": "33781", "addr:state": "FL", "addr:street_address": "5260 78TH AVE N", "amenity": "post_box", "collection_times": "Mo-Fr 17:00; Sa 15:00", "note": "ON 12/24 AND 12/31, THIS BOX MAY BE COLLECTED AS EARLY AS 12 NOON.", "nsi_id": "unitedstatespostalservice-a77078", "operator": "United States Postal Service", "operator:short": "USPS", "operator:type": "public", "operator:wikidata": "Q668687", "ref": "3378100020"}, "type": "Feature"}
{"geometry": {"coordinates": [-82.70295, 27.839295], "type": "Point"}, "id": "mepVFS697Wg96MdxRvckPhsNQPM=", "properties": {"@source_uri": "https://tools.usps.com/UspsToolsRestServices/rest/POLocator/findLocations", "@spider": "usps_collection_boxes", "addr:city": "PINELLAS PARK", "addr:country": "US", "addr:postcode": "33781", "addr:state": "FL", "addr:street_address": "5260 78TH AVE N", "amenity": "post_box", "collection_times": "Mo-Fr 18:00", "indoor": "yes", "note": "ON 12/24 AND 12/31, THIS BOX MAY BE COLLECTED AS EARLY AS 12 NOON.", "nsi_id": "unitedstatespostalservice-a77078", "operator": "United States Postal Service", "operator:short": "USPS", "operator:type": "public", "operator:wikidata": "Q668687", "ref": "3378100025"}, "type": "Feature"}
{"geometry": {"coordinates": [-82.7072, 27.85809], "type": "Point"}, "id": "H46dnK-b_lnes12xHJVjhLy9zlg=", "properties": {"@source_uri": "https://tools.usps.com/UspsToolsRestServices/rest/POLocator/findLocations", "@spider": "usps_collection_boxes", "addr:city": "PINELLAS PARK", "addr:country": "US", "addr:postcode": "33782", "addr:state": "FL", "addr:street_address": "6501 102ND AVE N", "amenity": "post_box", "collection_times": "Mo-Sa 10:00", "nsi_id": "unitedstatespostalservice-a77078", "operator": "United States Postal Service", "operator:short": "USPS", "operator:type": "public", "operator:wikidata": "Q668687", "ref": "3378200000"}, "type": "Feature"}
{"geometry": {"coordinates": [-82.7072, 27.85809], "type": "Point"}, "id": "8hcelVlRYvSbfD2STq2HKpJJNLU=", "properties": {"@source_uri": "https://tools.usps.com/UspsToolsRestServices/rest/POLocator/findLocations", "@spider": "usps_collection_boxes", "addr:city": "PINELLAS PARK", "addr:country": "US", "addr:postcode": "33782", "addr:state": "FL", "addr:street_address": "7900 US HWY 19 N", "amenity": "post_box", "collection_times": "Mo-Fr 10:00", "nsi_id": "unitedstatespostalservice-a77078", "operator": "United States Postal Service", "operator:short": "USPS", "operator:type": "public", "operator:wikidata": "Q668687", "ref": "3378200002"}, "type": "Feature"}
{"geometry": {"coordinates": [-82.7072, 27.85809], "type": "Point"}, "id": "5NXzNU8z2ghacN60Wi4bVfvw7DA=", "properties": {"@source_uri": "https://tools.usps.com/UspsToolsRestServices/rest/POLocator/findLocations", "@spider": "usps_collection_boxes", "addr:city": "PINELLAS PARK", "addr:country": "US", "addr:postcode": "33782", "addr:state": "FL", "addr:street_address": "9375 US HIGHWAY 19 N", "amenity": "post_box", "collection_times": "Mo-Fr 10:00", "nsi_id": "unitedstatespostalservice-a77078", "operator": "United States Postal Service", "operator:short": "USPS", "operator:type": "public", "operator:wikidata": "Q668687", "ref": "3378200008"}, "type": "Feature"}
{"geometry": {"coordinates": [-82.7072, 27.85809], "type": "Point"}, "id": "pWAaNT2edVquRkybSYM-PUm7v78=", "properties": {"@source_uri": "https://tools.usps.com/UspsToolsRestServices/rest/POLocator/findLocations", "@spider": "usps_collection_boxes", "addr:city": "PINELLAS PARK", "addr:country": "US", "addr:postcode": "33782", "addr:state": "FL", "addr:street_address": "4551 MAINLANDS BLVD W STE A", "amenity": "post_box", "collection_times": "Mo-Sa 10:00", "nsi_id": "unitedstatespostalservice-a77078", "operator": "United States Postal Service", "operator:short": "USPS", "operator:type": "public", "operator:wikidata": "Q668687", "ref": "3378200012"}, "type": "Feature"}
{"geometry": {"coordinates": [-82.846085, 27.90078], "type": "Point"}, "id": "Lm-b7cPWI1cnofQoo67R-KohmUQ=", "properties": {"@source_uri": "https://tools.usps.com/UspsToolsRestServices/rest/POLocator/findLocations", "@spider": "usps_collection_boxes", "addr:city": "INDIAN RK BCH", "addr:country": "US", "addr:postcode": "33785", "addr:state": "FL", "addr:street_address": "1211 GULF BLVD", "amenity": "post_box", "collection_times": "Mo-Sa 11:00", "nsi_id": "unitedstatespostalservice-a77078", "operator": "United States Postal Service", "operator:short": "USPS", "operator:type": "public", "operator:wikidata": "Q668687", "ref": "3378500004"}, "type": "Feature"}
{"geometry": {"coordinates": [-82.846085, 27.90078], "type": "Point"}, "id": "aa6me6Xf-tVaKkuBg-X6HLxkGts=", "properties": {"@source_uri": "https://tools.usps.com/UspsToolsRestServices/rest/POLocator/findLocations", "@spider": "usps_collection_boxes", "addr:city": "INDIAN RK BCH", "addr:country": "US", "addr:postcode": "33785", "addr:state": "FL", "addr:street_address": "19823 GULF BLVD STE B", "amenity": "post_box", "collection_times": "Mo-Sa 12:30", "note": "ON 12/24 AND 12/31, THIS BOX MAY BE COLLECTED AS EARLY AS 12 NOON.", "nsi_id": "unitedstatespostalservice-a77078", "operator": "United States Postal Service", "operator:short": "USPS", "operator:type": "public", "operator:wikidata": "Q668687", "ref": "3378500009"}, "type": "Feature"}
