{"geometry": {"coordinates": [-81.9182789, 28.030968], "type": "Point"}, "id": "Cds5WRsmQqKEVYv4cpUscJjKFNM=", "properties": {"@source_uri": "https://tools.usps.com/UspsToolsRestServices/rest/POLocator/findLocations", "@spider": "usps_collection_boxes", "addr:city": "LAKELAND", "addr:country": "US", "addr:postcode": "33801", "addr:state": "FL", "addr:street_address": "1000 LONGFELLOW BLVD", "amenity": "post_box", "collection_times": "Mo-Fr 09:15", "nsi_id": "unitedstatespostalservice-a77078", "operator": "United States Postal Service", "operator:short": "USPS", "operator:type": "public", "operator:wikidata": "Q668687", "ref": "3380100019"}, "type": "Feature"}
{"geometry": {"coordinates": [-81.9531942, 28.042172], "type": "Point"}, "id": "gO7TWLQVw4LKE7HEcZ5s2HLbrTE=", "properties": {"@source_uri": "https://tools.usps.com/UspsToolsRestServices/rest/POLocator/findLocations", "@spider": "usps_collection_boxes", "addr:city": "LAKELAND", "addr:country": "US", "addr:postcode": "33801", "addr:state": "FL", "addr:street_address": "425 E ORANGE ST", "amenity": "post_box", "collection_times": "Mo-Fr 09:45", "nsi_id": "unitedstatespostalservice-a77078", "operator": "United States Postal Service", "operator:short": "USPS", "operator:type": "public", "operator:wikidata": "Q668687", "ref": "3380100036"}, "type": "Feature"}
{"geometry": {"coordinates": [-81.9490969, 28.037457], "type": "Point"}, "id": "f7I70bAJP9dP31erUX4T8jas-N0=", "properties": {"@source_uri": "https://tools.usps.com/UspsToolsRestServices/rest/POLocator/findLocations", "@spider": "usps_collection_boxes", "addr:city": "LAKELAND", "addr:country": "US", "addr:postcode": "33801", "addr:state": "FL", "addr:street_address": "100 LAKE MORTON DR", "amenity": "post_box", "collection_times": "Mo-Fr 15:00", "note": "ON 12/24 AND 12/31, THIS BOX MAY BE COLLECTED AS EARLY AS 12 NOON.", "nsi_id": "unitedstatespostalservice-a77078", "operator": "United States Postal Service", "operator:short": "USPS", "operator:type": "public", "operator:wikidata": "Q668687", "ref": "3380100040"}, "type": "Feature"}
{"geometry": {"coordinates": [-81.8905060375, 28.024935009], "type": "Point"}, "id": "XMETmoRP12jwptc4zu-m9Od1cOI=", "properties": {"@source_uri": "https://tools.usps.com/UspsToolsRestServices/rest/POLocator/findLocations", "@spider": "usps_collection_boxes", "addr:city": "LAKELAND", "addr:country": "US", "addr:postcode": "33801", "addr:state": "FL", "addr:street_address": "1610 REYNOLDS RD", "amenity": "post_box", "collection_times": "Mo-Sa 12:30", "note": "ON 12/24 AND 12/31, THIS BOX MAY BE COLLECTED AS EARLY AS 12 NOON.", "nsi_id": "unitedstatespostalservice-a77078", "operator": "United States Postal Service", "operator:short": "USPS", "operator:type": "public", "operator:wikidata": "Q668687", "ref": "3380100041"}, "type": "Feature"}
{"geometry": {"coordinates": [-81.9561395, 28.043026], "type": "Point"}, "id": "-RqvmsIjqiZZyP2NVq048xsgwCk=", "properties": {"@source_uri": "https://tools.usps.com/UspsToolsRestServices/rest/POLocator/findLocations", "@spider": "usps_collection_boxes", "addr:city": "LAKELAND", "addr:country": "US", "addr:postcode": "33801", "addr:state": "FL", "addr:street_address": "124 S TENNESSEE AVE", "amenity": "post_box", "collection_times": "Mo-Fr 09:45", "nsi_id": "unitedstatespostalservice-a77078", "operator": "United States Postal Service", "operator:short": "USPS", "operator:type": "public", "operator:wikidata": "Q668687", "ref": "3380100043"}, "type": "Feature"}
{"geometry": {"coordinates": [-81.9561749, 28.045597], "type": "Point"}, "id": "rCK78daEVhx_2yYyZp7Ymgj02FI=", "properties": {"@source_uri": "https://tools.usps.com/UspsToolsRestServices/rest/POLocator/findLocations", "@spider": "usps_collection_boxes", "addr:city": "LAKELAND", "addr:country": "US", "addr:postcode": "33801", "addr:state": "FL", "addr:street_address": "200 N KENTUCKY AVE", "amenity": "post_box", "collection_times": "Mo-Fr 09:30", "nsi_id": "unitedstatespostalservice-a77078", "operator": "United States Postal Service", "operator:short": "USPS", "operator:type": "public", "operator:wikidata": "Q668687", "ref": "3380100056"}, "type": "Feature"}
{"geometry": {"coordinates": [-81.9565899, 28.038324], "type": "Point"}, "id": "VUpj9lwwKhPOQzwzu4GhuWZdHhE=", "properties": {"@source_uri": "https://tools.usps.com/UspsToolsRestServices/rest/POLocator/findLocations", "@spider": "usps_collection_boxes", "addr:city": "LAKELAND", "addr:country": "US", "addr:postcode": "33801", "addr:state": "FL", "addr:street_address": "500 S FLORIDA AVE", "amenity": "post_box", "collection_times": "Mo-Fr 09:15", "nsi_id": "unitedstatespostalservice-a77078", "operator": "United States Postal Service", "operator:short": "USPS", "operator:type": "public", "operator:wikidata": "Q668687", "ref": "3380100065"}, "type": "Feature"}
{"geometry": {"coordinates": [-81.9531746, 28.040151], "type": "Point"}, "id": "0EoV41zxpZRH9vXrAc_Q5H-a0pI=", "properties": {"@source_uri": "https://tools.usps.com/UspsToolsRestServices/rest/POLocator/findLocations", "@spider": "usps_collection_boxes", "addr:city": "LAKELAND", "addr:country": "US", "addr:postcode": "33801", "addr:state": "FL", "addr:street_address": "39 LAKE MORTON DR", "amenity": "post_box", "collection_times": "Mo-Fr 09:45", "nsi_id": "unitedstatespostalservice-a77078", "operator": "United States Postal Service", "operator:short": "USPS", "operator:type": "public", "operator:wikidata": "Q668687", "ref": "3380100068"}, "type": "Feature"}
{"geometry": {"coordinates": [-81.9720219737, 27.998079014], "type": "Point"}, "id": "WUeJL9ougLPQNCFYIJv67qH2t7k=", "properties": {"@source_uri": "https://tools.usps.com/UspsToolsRestServices/rest/POLocator/findLocations", "@spider": "usps_collection_boxes", "addr:city": "LAKELAND", "addr:country": "US", "addr:postcode": "33803", "addr:state": "FL", "addr:street_address": "3616 HARDEN BLVD", "amenity": "post_box", "collection_times": "Mo-Fr 15:00; Sa 14:00", "note": "ON 12/24 AND 12/31, THIS BOX MAY BE COLLECTED AS EARLY AS 12 NOON.", "nsi_id": "unitedstatespostalservice-a77078", "operator": "United States Postal Service", "operator:short": "USPS", "operator:type": "public", "operator:wikidata": "Q668687", "ref": "3380300003"}, "type": "Feature"}
{"geometry": {"coordinates": [-81.9782433, 28.020855], "type": "Point"}, "id": "e689IkE_UdQ4y3tFFSQ3KOOcimE=", "properties": {"@source_uri": "https://tools.usps.com/UspsToolsRestServices/rest/POLocator/findLocations", "@spider": "usps_collection_boxes", "addr:city": "LAKELAND", "addr:country": "US", "addr:postcode": "33803", "addr:state": "FL", "addr:street_address": "1510 ARIANA ST", "amenity": "post_box", "collection_times": "Mo-Sa 15:00", "note": "ON 12/24 AND 12/31, THIS BOX MAY BE COLLECTED AS EARLY AS 12 NOON.", "nsi_id": "unitedstatespostalservice-a77078", "operator": "United States Postal Service", "operator:short": "USPS", "operator:type": "public", "operator:wikidata": "Q668687", "ref": "3380300006"}, "type": "Feature"}
{"geometry": {"coordinates": [-81.9830166, 28.028714], "type": "Point"}, "id": "VrI9qF1G-kulHiJEzr1gL6ZJaZI=", "properties": {"@source_uri": "https://tools.usps.com/UspsToolsRestServices/rest/POLocator/findLocations", "@spider": "usps_collection_boxes", "addr:city": "LAKELAND", "addr:country": "US", "addr:postcode": "33803", "addr:state": "FL", "addr:street_address": "1625 ARIANA ST", "amenity": "post_box", "collection_times": "Mo-Sa 12:00", "nsi_id": "unitedstatespostalservice-a77078", "operator": "United States Postal Service", "operator:short": "USPS", "operator:type": "public", "operator:wikidata": "Q668687", "ref": "3380300008"}, "type": "Feature"}
{"geometry": {"coordinates": [-81.949315985, 28.001734991], "type": "Point"}, "id": "RVJ04l4kDxyE1ZtNbS4BtKmP4fU=", "properties": {"@source_uri": "https://tools.usps.com/UspsToolsRestServices/rest/POLocator/findLocations", "@spider": "usps_collection_boxes", "addr:city": "LAKELAND", "addr:country": "US", "addr:postcode": "33803", "addr:state": "FL", "addr:street_address": "3405 CLEVELAND HEIGHTS BLVD", "amenity": "post_box", "collection_times": "Mo-Sa 11:00", "nsi_id": "unitedstatespostalservice-a77078", "operator": "United States Postal Service", "operator:short": "USPS", "operator:type": "public", "operator:wikidata": "Q668687", "ref": "3380300014"}, "type": "Feature"}
{"geometry": {"coordinates": [-81.9576319, 28.029246], "type": "Point"}, "id": "bLwspRyinrj0fGat_KBwLxd3Zbw=", "properties": {"@source_uri": "https://tools.usps.com/UspsToolsRestServices/rest/POLocator/findLocations", "@spider": "usps_collection_boxes", "addr:city": "LAKELAND", "addr:country": "US", "addr:postcode": "33803", "addr:state": "FL", "addr:street_address": "1057 S FLORIDA AVE", "amenity": "post_box", "collection_times": "Mo-Fr 16:15; Sa 15:00", "note": "ON 12/24 AND 12/31, THIS BOX MAY BE COLLECTED AS EARLY AS 12 NOON.", "nsi_id": "unitedstatespostalservice-a77078", "operator": "United States Postal Service", "operator:short": "USPS", "operator:type": "public", "operator:wikidata": "Q668687", "ref": "3380300025"}, "type": "Feature"}
{"geometry": {"coordinates": [-81.976007, 28.02067], "type": "Point"}, "id": "nSS5NUmSio81eZ9e_eSgfuht0mo=", "properties": {"@source_uri": "https://tools.usps.com/UspsToolsRestServices/rest/POLocator/findLocations", "@spider": "usps_collection_boxes", "addr:city": "LAKELAND", "addr:country": "US", "addr:postcode": "33803", "addr:state": "FL", "addr:street_address": "1925 HARDEN BLVD", "amenity": "post_box", "collection_times": "Mo-Sa 11:00", "nsi_id": "unitedstatespostalservice-a77078", "operator": "United States Postal Service", "operator:short": "USPS", "operator:type": "public", "operator:wikidata": "Q668687", "ref": "3380300030"}, "type": "Feature"}
{"geometry": {"coordinates": [-81.9766476, 28.017579], "type": "Point"}, "id": "Xu8bc0F7WeKGu5Xfqs-ijeYFjJg=", "properties": {"@source_uri": "https://tools.usps.com/UspsToolsRestServices/rest/POLocator/findLocations", "@spider": "usps_collection_boxes", "addr:city": "LAKELAND", "addr:country": "US", "addr:postcode": "33803", "addr:state": "FL", "addr:street_address": "2425 HARDEN BLVD", "amenity": "post_box", "collection_times": "Mo-Sa 09:30", "nsi_id": "unitedstatespostalservice-a77078", "operator": "United States Postal Service", "operator:short": "USPS", "operator:type": "public", "operator:wikidata": "Q668687", "ref": "3380300031"}, "type": "Feature"}
{"geometry": {"coordinates": [-81.9228345, 28.010095], "type": "Point"}, "id": "yUhGjtJbdOgCvZgTiMAcTQKMnTM=", "properties": {"@source_uri": "https://tools.usps.com/UspsToolsRestServices/rest/POLocator/findLocations", "@spider": "usps_collection_boxes", "addr:city": "LAKELAND", "addr:country": "US", "addr:postcode": "33803", "addr:state": "FL", "addr:street_address": "2838 LAKELAND HIGHLANDS RD", "amenity": "post_box", "collection_times": "Mo-Sa 10:00", "nsi_id": "unitedstatespostalservice-a77078", "operator": "United States Postal Service", "operator:short": "USPS", "operator:type": "public", "operator:wikidata": "Q668687", "ref": "3380300035"}, "type": "Feature"}
{"geometry": {"coordinates": [-81.9589621, 28.0189772], "type": "Point"}, "id": "-mMNnx2ydZLnrrluiOfPdQjW-H8=", "properties": {"@source_uri": "https://tools.usps.com/UspsToolsRestServices/rest/POLocator/findLocations", "@spider": "usps_collection_boxes", "addr:city": "LAKELAND", "addr:country": "US", "addr:postcode": "33803", "addr:state": "FL", "addr:street_address": "1311 ARIANA ST", "amenity": "post_box", "collection_times": "Mo-Sa 11:30", "nsi_id": "unitedstatespostalservice-a77078", "operator": "United States Postal Service", "operator:short": "USPS", "operator:type": "public", "operator:wikidata": "Q668687", "ref": "3380300037"}, "type": "Feature"}
{"geometry": {"coordinates": [-81.8895726, 27.99025], "type": "Point"}, "id": "G0KEzH22X6gbkP8f6Ysbr5c4v4w=", "properties": {"@source_uri": "https://tools.usps.com/UspsToolsRestServices/rest/POLocator/findLocations", "@spider": "usps_collection_boxes", "addr:city": "LAKELAND", "addr:country": "US", "addr:postcode": "33803", "addr:state": "FL", "addr:street_address": "3433 WINTER LAKE RD", "amenity": "post_box", "collection_times": "Mo-Fr 14:00", "note": "ON 12/24 AND 12/31, THIS BOX MAY BE COLLECTED AS EARLY AS 12 NOON.", "nsi_id": "unitedstatespostalservice-a77078", "operator": "United States Postal Service", "operator:short": "USPS", "operator:type": "public", "operator:wikidata": "Q668687", "ref": "3380300039"}, "type": "Feature"}
{"geometry": {"coordinates": [-81.9713256, 28.017181], "type": "Point"}, "id": "Zb-Yv4GF9KdiLvrFVaUmMUVB__Q=", "properties": {"@source_uri": "https://tools.usps.com/UspsToolsRestServices/rest/POLocator/findLocations", "@spider": "usps_collection_boxes", "addr:city": "LAKELAND", "addr:country": "US", "addr:postcode": "33803", "addr:state": "FL", "addr:street_address": "1112 W BEACON RD", "amenity": "post_box", "collection_times": "Mo-Sa 10:30", "nsi_id": "unitedstatespostalservice-a77078", "operator": "United States Postal Service", "operator:short": "USPS", "operator:type": "public", "operator:wikidata": "Q668687", "ref": "3380300042"}, "type": "Feature"}
{"geometry": {"coordinates": [-81.9620167, 28.032026], "type": "Point"}, "id": "xlsYYSRdldLKld8MPBZ_2Dcz5Is=", "properties": {"@source_uri": "https://tools.usps.com/UspsToolsRestServices/rest/POLocator/findLocations", "@spider": "usps_collection_boxes", "addr:city": "LAKELAND", "addr:country": "US", "addr:postcode": "33803", "addr:state": "FL", "addr:street_address": "16 LAKE HUNTER DR", "amenity": "post_box", "collection_times": "Mo-Sa 10:00", "nsi_id": "unitedstatespostalservice-a77078", "operator": "United States Postal Service", "operator:short": "USPS", "operator:type": "public", "operator:wikidata": "Q668687", "ref": "3380300044"}, "type": "Feature"}
{"geometry": {"coordinates": [-81.957114156, 28.029294], "type": "Point"}, "id": "n7WH98n2hBYyWmNV40YpeFdo4KQ=", "properties": {"@source_uri": "https://tools.usps.com/UspsToolsRestServices/rest/POLocator/findLocations", "@spider": "usps_collection_boxes", "addr:city": "LAKELAND", "addr:country": "US", "addr:postcode": "33803", "addr:state": "FL", "addr:street_address": "1057 S FLORIDA AVE", "amenity": "post_box", "collection_times": "Mo-Fr 16:30", "indoor": "yes", "note": "ON 12/24 AND 12/31, THIS BOX MAY BE COLLECTED AS EARLY AS 12 NOON.", "nsi_id": "unitedstatespostalservice-a77078", "operator": "United States Postal Service", "operator:short": "USPS", "operator:type": "public", "operator:wikidata": "Q668687", "ref": "3380300051"}, "type": "Feature"}
{"geometry": {"coordinates": [-81.9441096, 28.102716], "type": "Point"}, "id": "p-KqpyPsOsjWfo6sIrzsq4kt27E=", "properties": {"@source_uri": "https://tools.usps.com/UspsToolsRestServices/rest/POLocator/findLocations", "@spider": "usps_collection_boxes", "addr:city": "LAKELAND", "addr:country": "US", "addr:postcode": "33805", "addr:state": "FL", "addr:street_address": "4747 STATE ROAD 33 N", "amenity": "post_box", "collection_times": "Mo-Sa 14:00", "note": "ON 12/24 AND 12/31, THIS BOX MAY BE COLLECTED AS EARLY AS 12 NOON.", "nsi_id": "unitedstatespostalservice-a77078", "operator": "United States Postal Service", "operator:short": "USPS", "operator:type": "public", "operator:wikidata": "Q668687", "ref": "3380500011"}, "type": "Feature"}
{"geometry": {"coordinates": [-81.95331466, 28.077849084], "type": "Point"}, "id": "Ml0Boy0AtVAylY70vHKRMDY-r8U=", "properties": {"@source_uri": "https://tools.usps.com/UspsToolsRestServices/rest/POLocator/findLocations", "@spider": "usps_collection_boxes", "addr:city": "LAKELAND", "addr:country": "US", "addr:postcode": "33805", "addr:state": "FL", "addr:street_address": "2800 LAKELAND HILLS BLVD", "amenity": "post_box", "collection_times": "Mo-Sa 17:00", "indoor": "yes", "note": "ON 12/24 AND 12/31, THIS BOX MAY BE COLLECTED AS EARLY AS 12 NOON.", "nsi_id": "unitedstatespostalservice-a77078", "operator": "United States Postal Service", "operator:short": "USPS", "operator:type": "public", "operator:wikidata": "Q668687", "ref": "3380500018"}, "type": "Feature"}
{"geometry": {"coordinates": [-81.95331466, 28.077849084], "type": "Point"}, "id": "0mG3tNWkJZ4xf1L2yVEnLiF0d5U=", "properties": {"@source_uri": "https://tools.usps.com/UspsToolsRestServices/rest/POLocator/findLocations", "@spider": "usps_collection_boxes", "addr:city": "LAKELAND", "addr:country": "US", "addr:postcode": "33805", "addr:state": "FL", "addr:street_address": "2800 LAKELAND HILLS BLVD", "amenity": "post_box", "collection_times": "Mo-Sa 17:00", "note": "ON 12/24 AND 12/31, THIS BOX MAY BE COLLECTED AS EARLY AS 12 NOON.", "nsi_id": "unitedstatespostalservice-a77078", "operator": "United States Postal Service", "operator:short": "USPS", "operator:type": "public", "operator:wikidata": "Q668687", "ref": "3380500022"}, "type": "Feature"}
{"geometry": {"coordinates": [-81.95331466, 28.077849084], "type": "Point"}, "id": "d0f73HopLwqZqYb_ruolOxmQ_Us=", "properties": {"@source_uri": "https://tools.usps.com/UspsToolsRestServices/rest/POLocator/findLocations", "@spider": "usps_collection_boxes", "addr:city": "LAKELAND", "addr:country": "US", "addr:postcode": "33805", "addr:state": "FL", "addr:street_address": "2800 LAKELAND HILLS BLVD", "amenity": "post_box", "collection_times": "Mo-Sa 17:00", "name": "USPS COLLECTION BOX - APC", "note": "ON 12/24 AND 12/31, THIS BOX MAY BE COLLECTED AS EARLY AS 12 NOON.", "nsi_id": "unitedstatespostalservice-a77078", "operator": "United States Postal Service", "operator:short": "USPS", "operator:type": "public", "operator:wikidata": "Q668687", "ref": "3380500027"}, "type": "Feature"}
{"geometry": {"coordinates": [-81.95331466, 28.077849084], "type": "Point"}, "id": "kuEYhDY2sY3c7S9w7D5GeK6A1p4=", "properties": {"@source_uri": "https://tools.usps.com/UspsToolsRestServices/rest/POLocator/findLocations", "@spider": "usps_collection_boxes", "addr:city": "LAKELAND", "addr:country": "US", "addr:postcode": "33805", "addr:state": "FL", "addr:street_address": "2800 LAKELAND HILLS BLVD", "amenity": "post_box", "collection_times": "Mo-Fr 17:30", "indoor": "yes", "note": "ON 12/24 AND 12/31, THIS BOX MAY BE COLLECTED AS EARLY AS 12 NOON.", "nsi_id": "unitedstatespostalservice-a77078", "operator": "United States Postal Service", "operator:short": "USPS", "operator:type": "public", "operator:wikidata": "Q668687", "ref": "3380500034"}, "type": "Feature"}
{"geometry": {"coordinates": [-81.980142, 28.103811], "type": "Point"}, "id": "1udV8a0ZiUGPYsIe87wsS4uw8YU=", "properties": {"@source_uri": "https://tools.usps.com/UspsToolsRestServices/rest/POLocator/findLocations", "@spider": "usps_collection_boxes", "addr:city": "LAKELAND", "addr:country": "US", "addr:postcode": "33809", "addr:state": "FL", "addr:street_address": "4700 FOXWOOD BLVD", "amenity": "post_box", "collection_times": "Mo-Sa 10:30", "nsi_id": "unitedstatespostalservice-a77078", "operator": "United States Postal Service", "operator:short": "USPS", "operator:type": "public", "operator:wikidata": "Q668687", "ref": "3380900005"}, "type": "Feature"}
{"geometry": {"coordinates": [-81.973553511, 28.105311489], "type": "Point"}, "id": "mgZwBTcARxqPeXB0dRH7-Bb9fRA=", "properties": {"@source_uri": "https://tools.usps.com/UspsToolsRestServices/rest/POLocator/findLocations", "@spider": "usps_collection_boxes", "addr:city": "LAKELAND", "addr:country": "US", "addr:postcode": "33809", "addr:state": "FL", "addr:street_address": "4969 US HIGHWAY 98 N", "amenity": "post_box", "collection_times": "Mo-Sa 10:30", "nsi_id": "unitedstatespostalservice-a77078", "operator": "United States Postal Service", "operator:short": "USPS", "operator:type": "public", "operator:wikidata": "Q668687", "ref": "3380900007"}, "type": "Feature"}
{"geometry": {"coordinates": [-81.9732282, 28.129181], "type": "Point"}, "id": "2ECtoNbmhNzgtBNXKsJ7fZErTcY=", "properties": {"@source_uri": "https://tools.usps.com/UspsToolsRestServices/rest/POLocator/findLocations", "@spider": "usps_collection_boxes", "addr:city": "LAKELAND", "addr:country": "US", "addr:postcode": "33809", "addr:state": "FL", "addr:street_address": "6701 US HIGHWAY 98 N", "amenity": "post_box", "collection_times": "Mo-Sa 11:00", "nsi_id": "unitedstatespostalservice-a77078", "operator": "United States Postal Service", "operator:short": "USPS", "operator:type": "public", "operator:wikidata": "Q668687", "ref": "3380900008"}, "type": "Feature"}
{"geometry": {"coordinates": [-81.9561399, 28.136791], "type": "Point"}, "id": "6Cw4U6YIDX0T4TlzppzwlcFaA7w=", "properties": {"@source_uri": "https://tools.usps.com/UspsToolsRestServices/rest/POLocator/findLocations", "@spider": "usps_collection_boxes", "addr:city": "LAKELAND", "addr:country": "US", "addr:postcode": "33809", "addr:state": "FL", "addr:street_address": "7405 N SOCRUM LOOP RD", "amenity": "post_box", "collection_times": "Mo-Sa 13:00", "note": "ON 12/24 AND 12/31, THIS BOX MAY BE COLLECTED AS EARLY AS 12 NOON.", "nsi_id": "unitedstatespostalservice-a77078", "operator": "United States Postal Service", "operator:short": "USPS", "operator:type": "public", "operator:wikidata": "Q668687", "ref": "3380900009"}, "type": "Feature"}
{"geometry": {"coordinates": [-82.0020762, 28.178054], "type": "Point"}, "id": "Nj1uFNE_yLAbgrJoE_BOwm65Al0=", "properties": {"@source_uri": "https://tools.usps.com/UspsToolsRestServices/rest/POLocator/findLocations", "@spider": "usps_collection_boxes", "addr:city": "LAKELAND", "addr:country": "US", "addr:postcode": "33809", "addr:state": "FL", "addr:street_address": "10000 US HIGHWAY 98 N", "amenity": "post_box", "collection_times": "Mo-Sa 14:00", "note": "ON 12/24 AND 12/31, THIS BOX MAY BE COLLECTED AS EARLY AS 12 NOON.", "nsi_id": "unitedstatespostalservice-a77078", "operator": "United States Postal Service", "operator:short": "USPS", "operator:type": "public", "operator:wikidata": "Q668687", "ref": "3380900013"}, "type": "Feature"}
{"geometry": {"coordinates": [-81.9454269, 28.111832], "type": "Point"}, "id": "6KEYhtwzYDpYeqW180M0KfTZXng=", "properties": {"@source_uri": "https://tools.usps.com/UspsToolsRestServices/rest/POLocator/findLocations", "@spider": "usps_collection_boxes", "addr:city": "LAKELAND", "addr:country": "US", "addr:postcode": "33809", "addr:state": "FL", "addr:street_address": "5375 N SOCRUM LOOP RD", "amenity": "post_box", "collection_times": "Mo-Sa 11:45", "nsi_id": "unitedstatespostalservice-a77078", "operator": "United States Postal Service", "operator:short": "USPS", "operator:type": "public", "operator:wikidata": "Q668687", "ref": "3380900014"}, "type": "Feature"}
{"geometry": {"coordinates": [-81.9982095, 28.186121], "type": "Point"}, "id": "BN31ktKaLGiLMz0f-oz3R-gtkHA=", "properties": {"@source_uri": "https://tools.usps.com/UspsToolsRestServices/rest/POLocator/findLocations", "@spider": "usps_collection_boxes", "addr:city": "LAKELAND", "addr:country": "US", "addr:postcode": "33809", "addr:state": "FL", "addr:street_address": "10300 US HIGHWAY 98 N", "amenity": "post_box", "collection_times": "Mo-Sa 11:30", "nsi_id": "unitedstatespostalservice-a77078", "operator": "United States Postal Service", "operator:short": "USPS", "operator:type": "public", "operator:wikidata": "Q668687", "ref": "3380900016"}, "type": "Feature"}
{"geometry": {"coordinates": [-81.9787177, 28.108383], "type": "Point"}, "id": "5xV6wGw_OG3J42vrF7MzwHcLzoY=", "properties": {"@source_uri": "https://tools.usps.com/UspsToolsRestServices/rest/POLocator/findLocations", "@spider": "usps_collection_boxes", "addr:city": "LAKELAND", "addr:country": "US", "addr:postcode": "33809", "addr:state": "FL", "addr:street_address": "4848 FOXWOOD BLVD", "amenity": "post_box", "collection_times": "Mo-Sa 15:00", "note": "ON 12/24 AND 12/31, THIS BOX MAY BE COLLECTED AS EARLY AS 12 NOON.", "nsi_id": "unitedstatespostalservice-a77078", "operator": "United States Postal Service", "operator:short": "USPS", "operator:type": "public", "operator:wikidata": "Q668687", "ref": "3380900017"}, "type": "Feature"}
{"geometry": {"coordinates": [-81.9914476, 28.083338], "type": "Point"}, "id": "wxSNkGZps49PA-WYuMQxQe-zGKk=", "properties": {"@source_uri": "https://tools.usps.com/UspsToolsRestServices/rest/POLocator/findLocations", "@spider": "usps_collection_boxes", "addr:city": "LAKELAND", "addr:country": "US", "addr:postcode": "33810", "addr:state": "FL", "addr:street_address": "3173 SAND TRAP CT", "amenity": "post_box", "collection_times": "Mo-Sa 11:30", "nsi_id": "unitedstatespostalservice-a77078", "operator": "United States Postal Service", "operator:short": "USPS", "operator:type": "public", "operator:wikidata": "Q668687", "ref": "3381000000"}, "type": "Feature"}
{"geometry": {"coordinates": [-81.9814926, 28.099336], "type": "Point"}, "id": "deiNXMQjZbaiFLGRTEfICGyDI3I=", "properties": {"@source_uri": "https://tools.usps.com/UspsToolsRestServices/rest/POLocator/findLocations", "@spider": "usps_collection_boxes", "addr:city": "LAKELAND", "addr:country": "US", "addr:postcode": "33810", "addr:state": "FL", "addr:street_address": "4500 WILLIAMSTOWN BLVD", "amenity": "post_box", "collection_times": "Mo-Sa 10:30", "nsi_id": "unitedstatespostalservice-a77078", "operator": "United States Postal Service", "operator:short": "USPS", "operator:type": "public", "operator:wikidata": "Q668687", "ref": "3381000001"}, "type": "Feature"}
{"geometry": {"coordinates": [-81.9926742, 28.079412], "type": "Point"}, "id": "yXk_Obi1fnCFWiIjAi3kLH4mbFc=", "properties": {"@source_uri": "https://tools.usps.com/UspsToolsRestServices/rest/POLocator/findLocations", "@spider": "usps_collection_boxes", "addr:city": "LAKELAND", "addr:country": "US", "addr:postcode": "33810", "addr:state": "FL", "addr:street_address": "2300 GRIFFIN RD", "amenity": "post_box", "collection_times": "Mo-Sa 11:30", "nsi_id": "unitedstatespostalservice-a77078", "operator": "United States Postal Service", "operator:short": "USPS", "operator:type": "public", "operator:wikidata": "Q668687", "ref": "3381000002"}, "type": "Feature"}
{"geometry": {"coordinates": [-81.9872504, 27.977745], "type": "Point"}, "id": "Dac4JIAq8KVosNgggOhJIjDm7_k=", "properties": {"@source_uri": "https://tools.usps.com/UspsToolsRestServices/rest/POLocator/findLocations", "@spider": "usps_collection_boxes", "addr:city": "LAKELAND", "addr:country": "US", "addr:postcode": "33811", "addr:state": "FL", "addr:street_address": "1548 COLONNADES CIR N", "amenity": "post_box", "collection_times": "Mo-Sa 10:30", "nsi_id": "unitedstatespostalservice-a77078", "operator": "United States Postal Service", "operator:short": "USPS", "operator:type": "public", "operator:wikidata": "Q668687", "ref": "3381100005"}, "type": "Feature"}
{"geometry": {"coordinates": [-82.0029046, 27.996281], "type": "Point"}, "id": "KDu_520SVoIRJjUvHh-l5HHX3qw=", "properties": {"@source_uri": "https://tools.usps.com/UspsToolsRestServices/rest/POLocator/findLocations", "@spider": "usps_collection_boxes", "addr:city": "LAKELAND", "addr:country": "US", "addr:postcode": "33811", "addr:state": "FL", "addr:street_address": "3816 INDUSTRY BLVD", "amenity": "post_box", "collection_times": "Mo-Fr 09:45", "nsi_id": "unitedstatespostalservice-a77078", "operator": "United States Postal Service", "operator:short": "USPS", "operator:type": "public", "operator:wikidata": "Q668687", "ref": "3381100009"}, "type": "Feature"}
{"geometry": {"coordinates": [-82.0128441, 27.981606], "type": "Point"}, "id": "BI4lUs0l8R5UqcQh7tv80fMGl7M=", "properties": {"@source_uri": "https://tools.usps.com/UspsToolsRestServices/rest/POLocator/findLocations", "@spider": "usps_collection_boxes", "addr:city": "LAKELAND", "addr:country": "US", "addr:postcode": "33811", "addr:state": "FL", "addr:street_address": "3200 FLIGHTLINE DR", "amenity": "post_box", "collection_times": "Mo-Fr 10:30", "nsi_id": "unitedstatespostalservice-a77078", "operator": "United States Postal Service", "operator:short": "USPS", "operator:type": "public", "operator:wikidata": "Q668687", "ref": "3381100010"}, "type": "Feature"}
{"geometry": {"coordinates": [-81.9653, 27.958543], "type": "Point"}, "id": "6veUU2NEVWDScgeVETrFvzLRLoo=", "properties": {"@source_uri": "https://tools.usps.com/UspsToolsRestServices/rest/POLocator/findLocations", "@spider": "usps_collection_boxes", "addr:city": "LAKELAND", "addr:country": "US", "addr:postcode": "33813", "addr:state": "FL", "addr:street_address": "6000 S FLORIDA AVE", "amenity": "post_box", "collection_times": "Mo-Fr 17:00; Sa 14:30", "note": "ON 12/24 AND 12/31, THIS BOX MAY BE COLLECTED AS EARLY AS 12 NOON.", "nsi_id": "unitedstatespostalservice-a77078", "operator": "United States Postal Service", "operator:short": "USPS", "operator:type": "public", "operator:wikidata": "Q668687", "ref": "3381300006"}, "type": "Feature"}
{"geometry": {"coordinates": [-81.9615066, 27.973687], "type": "Point"}, "id": "XiDFsQupnj7vURI5MlvpHuYoiRQ=", "properties": {"@source_uri": "https://tools.usps.com/UspsToolsRestServices/rest/POLocator/findLocations", "@spider": "usps_collection_boxes", "addr:city": "LAKELAND", "addr:country": "US", "addr:postcode": "33813", "addr:state": "FL", "addr:street_address": "5015 S FLORIDA AVE", "amenity": "post_box", "collection_times": "Mo-Fr 14:45", "note": "ON 12/24 AND 12/31, THIS BOX MAY BE COLLECTED AS EARLY AS 12 NOON.", "nsi_id": "unitedstatespostalservice-a77078", "operator": "United States Postal Service", "operator:short": "USPS", "operator:type": "public", "operator:wikidata": "Q668687", "ref": "3381300017"}, "type": "Feature"}
{"geometry": {"coordinates": [-81.9566421, 27.985287], "type": "Point"}, "id": "XKY7VWl4TCI4vn2u4ezynYOw8og=", "properties": {"@source_uri": "https://tools.usps.com/UspsToolsRestServices/rest/POLocator/findLocations", "@spider": "usps_collection_boxes", "addr:city": "LAKELAND", "addr:country": "US", "addr:postcode": "33813", "addr:state": "FL", "addr:street_address": "4404 S FLORIDA AVE", "amenity": "post_box", "collection_times": "Mo-Fr 15:00", "note": "ON 12/24 AND 12/31, THIS BOX MAY BE COLLECTED AS EARLY AS 12 NOON.", "nsi_id": "unitedstatespostalservice-a77078", "operator": "United States Postal Service", "operator:short": "USPS", "operator:type": "public", "operator:wikidata": "Q668687", "ref": "3381300021"}, "type": "Feature"}
{"geometry": {"coordinates": [-81.9614242, 27.992006], "type": "Point"}, "id": "a8JPcXCccNp2r1ct2vVZ4OnNx8A=", "properties": {"@source_uri": "https://tools.usps.com/UspsToolsRestServices/rest/POLocator/findLocations", "@spider": "usps_collection_boxes", "addr:city": "LAKELAND", "addr:country": "US", "addr:postcode": "33813", "addr:state": "FL", "addr:street_address": "3929 OLD ROAD 37", "amenity": "post_box", "collection_times": "Mo-Sa 14:30", "note": "ON 12/24 AND 12/31, THIS BOX MAY BE COLLECTED AS EARLY AS 12 NOON.", "nsi_id": "unitedstatespostalservice-a77078", "operator": "United States Postal Service", "operator:short": "USPS", "operator:type": "public", "operator:wikidata": "Q668687", "ref": "3381300022"}, "type": "Feature"}
{"geometry": {"coordinates": [-81.9248531, 27.951973], "type": "Point"}, "id": "ShJuRAnxP2jGdNW2pd74mrj8yuw=", "properties": {"@source_uri": "https://tools.usps.com/UspsToolsRestServices/rest/POLocator/findLocations", "@spider": "usps_collection_boxes", "addr:city": "LAKELAND", "addr:country": "US", "addr:postcode": "33813", "addr:state": "FL", "addr:street_address": "2161 E COUNTY ROAD 540A", "amenity": "post_box", "collection_times": "Mo-Sa 09:45", "nsi_id": "unitedstatespostalservice-a77078", "operator": "United States Postal Service", "operator:short": "USPS", "operator:type": "public", "operator:wikidata": "Q668687", "ref": "3381300025"}, "type": "Feature"}
{"geometry": {"coordinates": [-81.9653, 27.958543], "type": "Point"}, "id": "g5kVSsm8x_2F0jwKY_KH8LeBj2Y=", "properties": {"@source_uri": "https://tools.usps.com/UspsToolsRestServices/rest/POLocator/findLocations", "@spider": "usps_collection_boxes", "addr:city": "LAKELAND", "addr:country": "US", "addr:postcode": "33813", "addr:state": "FL", "addr:street_address": "6000 S FLORIDA AVE", "amenity": "post_box", "collection_times": "Mo-Fr 17:00; Sa 16:10", "name": "USPS COLLECTION BOX - APC", "note": "ON 12/24 AND 12/31, THIS BOX MAY BE COLLECTED AS EARLY AS 12 NOON.", "nsi_id": "unitedstatespostalservice-a77078", "operator": "United States Postal Service", "operator:short": "USPS", "operator:type": "public", "operator:wikidata": "Q668687", "ref": "3381300029"}, "type": "Feature"}
{"geometry": {"coordinates": [-81.9668735561, 27.958496093], "type": "Point"}, "id": "_bUXTNbGl-MBoo-ktOLW2jPaIpI=", "properties": {"@source_uri": "https://tools.usps.com/UspsToolsRestServices/rest/POLocator/findLocations", "@spider": "usps_collection_boxes", "addr:city": "LAKELAND", "addr:country": "US", "addr:postcode": "33813", "addr:state": "FL", "addr:street_address": "6000 S FLORIDA AVE", "amenity": "post_box", "collection_times": "Mo-Fr 17:30", "indoor": "yes", "note": "ON 12/24 AND 12/31, THIS BOX MAY BE COLLECTED AS EARLY AS 12 NOON.", "nsi_id": "unitedstatespostalservice-a77078", "operator": "United States Postal Service", "operator:short": "USPS", "operator:type": "public", "operator:wikidata": "Q668687", "ref": "3381300034"}, "type": "Feature"}
{"geometry": {"coordinates": [-82.0126272, 28.038451], "type": "Point"}, "id": "Km0x9qJxF1QelkNQVHWdBM7l3Ck=", "properties": {"@source_uri": "https://tools.usps.com/UspsToolsRestServices/rest/POLocator/findLocations", "@spider": "usps_collection_boxes", "addr:city": "LAKELAND", "addr:country": "US", "addr:postcode": "33815", "addr:state": "FL", "addr:street_address": "3801 NEW TAMPA HWY", "amenity": "post_box", "collection_times": "Mo-Sa 11:00", "nsi_id": "unitedstatespostalservice-a77078", "operator": "United States Postal Service", "operator:short": "USPS", "operator:type": "public", "operator:wikidata": "Q668687", "ref": "3381500015"}, "type": "Feature"}
{"geometry": {"coordinates": [-81.958303, 28.045271], "type": "Point"}, "id": "BIHxya13k3WOpgfskBTV5NQ4ikA=", "properties": {"@source_uri": "https://tools.usps.com/UspsToolsRestServices/rest/POLocator/findLocations", "@spider": "usps_collection_boxes", "addr:city": "LAKELAND", "addr:country": "US", "addr:postcode": "33815", "addr:state": "FL", "addr:street_address": "210 N MISSOURI AVE", "amenity": "post_box", "collection_times": "Mo-Sa 09:30", "nsi_id": "unitedstatespostalservice-a77078", "operator": "United States Postal Service", "operator:short": "USPS", "operator:type": "public", "operator:wikidata": "Q668687", "ref": "3381500019"}, "type": "Feature"}
{"geometry": {"coordinates": [-81.958301616, 28.045287251], "type": "Point"}, "id": "DQsQ-8BoHA8WQO6057pOruw4XHs=", "properties": {"@source_uri": "https://tools.usps.com/UspsToolsRestServices/rest/POLocator/findLocations", "@spider": "usps_collection_boxes", "addr:city": "LAKELAND", "addr:country": "US", "addr:postcode": "33815", "addr:state": "FL", "addr:street_address": "210 N MISSOURI AVE", "amenity": "post_box", "collection_times": "Mo-Fr 17:00; Sa 13:00", "indoor": "yes", "note": "ON 12/24 AND 12/31, THIS BOX MAY BE COLLECTED AS EARLY AS 12 NOON.", "nsi_id": "unitedstatespostalservice-a77078", "operator": "United States Postal Service", "operator:short": "USPS", "operator:type": "public", "operator:wikidata": "Q668687", "ref": "3381500021"}, "type": "Feature"}
{"geometry": {"coordinates": [-81.7871018, 28.065816], "type": "Point"}, "id": "Oga7VDdOHx-BGTSKBmbgpdC6u5A=", "properties": {"@source_uri": "https://tools.usps.com/UspsToolsRestServices/rest/POLocator/findLocations", "@spider": "usps_collection_boxes", "addr:city": "AUBURNDALE", "addr:country": "US", "addr:postcode": "33823", "addr:state": "FL", "addr:street_address": "307 PONTOTOC ST", "amenity": "post_box", "collection_times": "Mo-Fr 17:00; Sa 15:00", "note": "ON 12/24 AND 12/31, THIS BOX MAY BE COLLECTED AS EARLY AS 12 NOON.", "nsi_id": "unitedstatespostalservice-a77078", "operator": "United States Postal Service", "operator:short": "USPS", "operator:type": "public", "operator:wikidata": "Q668687", "ref": "3382300016"}, "type": "Feature"}
{"geometry": {"coordinates": [-81.787243941, 28.065104454], "type": "Point"}, "id": "JnlzC0bX2jey9xOYN0HyXzKzOKM=", "properties": {"@source_uri": "https://tools.usps.com/UspsToolsRestServices/rest/POLocator/findLocations", "@spider": "usps_collection_boxes", "addr:city": "AUBURNDALE", "addr:country": "US", "addr:postcode": "33823", "addr:state": "FL", "addr:street_address": "201 E LAKE AVE", "amenity": "post_box", "collection_times": "Mo-Fr 16:30", "indoor": "yes", "note": "ON 12/24 AND 12/31, THIS BOX MAY BE COLLECTED AS EARLY AS 12 NOON.", "nsi_id": "unitedstatespostalservice-a77078", "operator": "United States Postal Service", "operator:short": "USPS", "operator:type": "public", "operator:wikidata": "Q668687", "ref": "3382300022"}, "type": "Feature"}
{"geometry": {"coordinates": [-81.510275, 27.59329], "type": "Point"}, "id": "_3EUZ5LXjrdPqcJuPlqWE7BuAW0=", "properties": {"@source_uri": "https://tools.usps.com/UspsToolsRestServices/rest/POLocator/findLocations", "@spider": "usps_collection_boxes", "addr:city": "AVON PARK", "addr:country": "US", "addr:postcode": "33825", "addr:state": "FL", "addr:street_address": "60 E MAIN ST", "amenity": "post_box", "collection_times": "Mo-Fr 16:30; Sa 15:30", "note": "ON 12/24 AND 12/31, THIS BOX MAY BE COLLECTED AS EARLY AS 12 NOON.", "nsi_id": "unitedstatespostalservice-a77078", "operator": "United States Postal Service", "operator:short": "USPS", "operator:type": "public", "operator:wikidata": "Q668687", "ref": "3382500008"}, "type": "Feature"}
{"geometry": {"coordinates": [-81.510275, 27.59329], "type": "Point"}, "id": "QFqnDQvNdiV7j4FsI5sjerjUZxk=", "properties": {"@source_uri": "https://tools.usps.com/UspsToolsRestServices/rest/POLocator/findLocations", "@spider": "usps_collection_boxes", "addr:city": "AVON PARK", "addr:country": "US", "addr:postcode": "33825", "addr:state": "FL", "addr:street_address": "100 S VERONA AVE", "amenity": "post_box", "collection_times": "Mo-Fr 17:00; Sa 16:00", "note": "ON 12/24 AND 12/31, THIS BOX MAY BE COLLECTED AS EARLY AS 12 NOON.", "nsi_id": "unitedstatespostalservice-a77078", "operator": "United States Postal Service", "operator:short": "USPS", "operator:type": "public", "operator:wikidata": "Q668687", "ref": "3382500012"}, "type": "Feature"}
{"geometry": {"coordinates": [-81.500671013, 27.5943429803], "type": "Point"}, "id": "RQMPDZxfYmIDsmmyrA5nuSF31fY=", "properties": {"@source_uri": "https://tools.usps.com/UspsToolsRestServices/rest/POLocator/findLocations", "@spider": "usps_collection_boxes", "addr:city": "AVON PARK", "addr:country": "US", "addr:postcode": "33825", "addr:state": "FL", "addr:street_address": "100 S VERONA AVE", "amenity": "post_box", "collection_times": "Mo-Fr 16:30", "indoor": "yes", "note": "ON 12/24 AND 12/31, THIS BOX MAY BE COLLECTED AS EARLY AS 12 NOON.", "nsi_id": "unitedstatespostalservice-a77078", "operator": "United States Postal Service", "operator:short": "USPS", "operator:type": "public", "operator:wikidata": "Q668687", "ref": "3382500019"}, "type": "Feature"}
{"geometry": {"coordinates": [-81.52995453, 27.837958493], "type": "Point"}, "id": "s3jOgUsWbaOfiYSio-aezG9aKVA=", "properties": {"@source_uri": "https://tools.usps.com/UspsToolsRestServices/rest/POLocator/findLocations", "@spider": "usps_collection_boxes", "addr:city": "BABSON PARK", "addr:country": "US", "addr:postcode": "33827", "addr:state": "FL", "addr:street_address": "1200 N SCENIC HWY", "amenity": "post_box", "collection_times": "Mo-Fr 15:45; Sa 12:00", "note": "ON 12/24 AND 12/31, THIS BOX MAY BE COLLECTED AS EARLY AS 12 NOON.", "nsi_id": "unitedstatespostalservice-a77078", "operator": "United States Postal Service", "operator:short": "USPS", "operator:type": "public", "operator:wikidata": "Q668687", "ref": "3382700003"}, "type": "Feature"}
{"geometry": {"coordinates": [-81.52995453, 27.837958493], "type": "Point"}, "id": "UbVtKyotrTbVrNqh9ZL2Fl7u6e4=", "properties": {"@source_uri": "https://tools.usps.com/UspsToolsRestServices/rest/POLocator/findLocations", "@spider": "usps_collection_boxes", "addr:city": "BABSON PARK", "addr:country": "US", "addr:postcode": "33827", "addr:state": "FL", "addr:street_address": "1200 N SCENIC HWY", "amenity": "post_box", "collection_times": "Mo-Fr 16:00", "indoor": "yes", "note": "ON 12/24 AND 12/31, THIS BOX MAY BE COLLECTED AS EARLY AS 12 NOON.", "nsi_id": "unitedstatespostalservice-a77078", "operator": "United States Postal Service", "operator:short": "USPS", "operator:type": "public", "operator:wikidata": "Q668687", "ref": "3382700004"}, "type": "Feature"}
{"geometry": {"coordinates": [-81.8419935, 27.895079], "type": "Point"}, "id": "glHaYN36_N--peme1z-nFUy1J34=", "properties": {"@source_uri": "https://tools.usps.com/UspsToolsRestServices/rest/POLocator/findLocations", "@spider": "usps_collection_boxes", "addr:city": "BARTOW", "addr:country": "US", "addr:postcode": "33830", "addr:state": "FL", "addr:street_address": "220 S CENTRAL AVE", "amenity": "post_box", "collection_times": "Mo-Fr 17:00; Sa 16:00", "note": "ON 12/24 AND 12/31, THIS BOX MAY BE COLLECTED AS EARLY AS 12 NOON.", "nsi_id": "unitedstatespostalservice-a77078", "operator": "United States Postal Service", "operator:short": "USPS", "operator:type": "public", "operator:wikidata": "Q668687", "ref": "3383000004"}, "type": "Feature"}
{"geometry": {"coordinates": [-81.8452883, 27.89904], "type": "Point"}, "id": "Lb4CwA10R5Qr6Pzl8Goh3tQ6l4w=", "properties": {"@source_uri": "https://tools.usps.com/UspsToolsRestServices/rest/POLocator/findLocations", "@spider": "usps_collection_boxes", "addr:city": "BARTOW", "addr:country": "US", "addr:postcode": "33830", "addr:state": "FL", "addr:street_address": "330 W CHURCH ST", "amenity": "post_box", "collection_times": "Mo-Fr 16:00", "note": "ON 12/24 AND 12/31, THIS BOX MAY BE COLLECTED AS EARLY AS 12 NOON.", "nsi_id": "unitedstatespostalservice-a77078", "operator": "United States Postal Service", "operator:short": "USPS", "operator:type": "public", "operator:wikidata": "Q668687", "ref": "3383000014"}, "type": "Feature"}
{"geometry": {"coordinates": [-81.8223468, 27.882211], "type": "Point"}, "id": "AC_hAEAVtqM9LriAMcP05a_09aM=", "properties": {"@source_uri": "https://tools.usps.com/UspsToolsRestServices/rest/POLocator/findLocations", "@spider": "usps_collection_boxes", "addr:city": "BARTOW", "addr:country": "US", "addr:postcode": "33830", "addr:state": "FL", "addr:street_address": "1290 GOLFVIEW AVE", "amenity": "post_box", "collection_times": "Mo-Fr 16:50", "note": "ON 12/24 AND 12/31, THIS BOX MAY BE COLLECTED AS EARLY AS 12 NOON.", "nsi_id": "unitedstatespostalservice-a77078", "operator": "United States Postal Service", "operator:short": "USPS", "operator:type": "public", "operator:wikidata": "Q668687", "ref": "3383000015"}, "type": "Feature"}
{"geometry": {"coordinates": [-81.7824179, 27.949359], "type": "Point"}, "id": "njRmyXRsHQTX4UG8P62FZmbjQLQ=", "properties": {"@source_uri": "https://tools.usps.com/UspsToolsRestServices/rest/POLocator/findLocations", "@spider": "usps_collection_boxes", "addr:city": "BARTOW", "addr:country": "US", "addr:postcode": "33830", "addr:state": "FL", "addr:street_address": "3233 DELTA AVE", "amenity": "post_box", "collection_times": "Mo-Fr 16:30", "note": "ON 12/24 AND 12/31, THIS BOX MAY BE COLLECTED AS EARLY AS 12 NOON.", "nsi_id": "unitedstatespostalservice-a77078", "operator": "United States Postal Service", "operator:short": "USPS", "operator:type": "public", "operator:wikidata": "Q668687", "ref": "3383000016"}, "type": "Feature"}
{"geometry": {"coordinates": [-81.8442978, 27.918503], "type": "Point"}, "id": "qdVjEpwtb5tFcEsXQn-jRNFmVb8=", "properties": {"@source_uri": "https://tools.usps.com/UspsToolsRestServices/rest/POLocator/findLocations", "@spider": "usps_collection_boxes", "addr:city": "BARTOW", "addr:country": "US", "addr:postcode": "33830", "addr:state": "FL", "addr:street_address": "2200 OSPREY BLVD", "amenity": "post_box", "collection_times": "Mo-Fr 16:20", "note": "ON 12/24 AND 12/31, THIS BOX MAY BE COLLECTED AS EARLY AS 12 NOON.", "nsi_id": "unitedstatespostalservice-a77078", "operator": "United States Postal Service", "operator:short": "USPS", "operator:type": "public", "operator:wikidata": "Q668687", "ref": "3383000017"}, "type": "Feature"}
{"geometry": {"coordinates": [-81.8336941, 27.896924], "type": "Point"}, "id": "JQVKSCCS3zKckByZTOf_pFK19t8=", "properties": {"@source_uri": "https://tools.usps.com/UspsToolsRestServices/rest/POLocator/findLocations", "@spider": "usps_collection_boxes", "addr:city": "BARTOW", "addr:country": "US", "addr:postcode": "33830", "addr:state": "FL", "addr:street_address": "970 E MAIN ST", "amenity": "post_box", "collection_times": "Mo-Fr 17:15", "note": "ON 12/24 AND 12/31, THIS BOX MAY BE COLLECTED AS EARLY AS 12 NOON.", "nsi_id": "unitedstatespostalservice-a77078", "operator": "United States Postal Service", "operator:short": "USPS", "operator:type": "public", "operator:wikidata": "Q668687", "ref": "3383000018"}, "type": "Feature"}
{"geometry": {"coordinates": [-81.8283853, 27.878599], "type": "Point"}, "id": "kCJqgprbulKa9y1Nf5CzbbcA2WU=", "properties": {"@source_uri": "https://tools.usps.com/UspsToolsRestServices/rest/POLocator/findLocations", "@spider": "usps_collection_boxes", "addr:city": "BARTOW", "addr:country": "US", "addr:postcode": "33830", "addr:state": "FL", "addr:street_address": "1702 US HIGHWAY 17 S", "amenity": "post_box", "collection_times": "Mo-Fr 16:50", "note": "ON 12/24 AND 12/31, THIS BOX MAY BE COLLECTED AS EARLY AS 12 NOON.", "nsi_id": "unitedstatespostalservice-a77078", "operator": "United States Postal Service", "operator:short": "USPS", "operator:type": "public", "operator:wikidata": "Q668687", "ref": "3383000032"}, "type": "Feature"}
{"geometry": {"coordinates": [-81.8294712, 27.86777], "type": "Point"}, "id": "T6Xjqjtqiy1oVD5UZ0bLGAaAgTY=", "properties": {"@source_uri": "https://tools.usps.com/UspsToolsRestServices/rest/POLocator/findLocations", "@spider": "usps_collection_boxes", "addr:city": "BARTOW", "addr:country": "US", "addr:postcode": "33830", "addr:state": "FL", "addr:street_address": "2455 US HIGHWAY 17 S", "amenity": "post_box", "collection_times": "Mo-Fr 16:45", "note": "ON 12/24 AND 12/31, THIS BOX MAY BE COLLECTED AS EARLY AS 12 NOON.", "nsi_id": "unitedstatespostalservice-a77078", "operator": "United States Postal Service", "operator:short": "USPS", "operator:type": "public", "operator:wikidata": "Q668687", "ref": "3383000035"}, "type": "Feature"}
{"geometry": {"coordinates": [-81.8453463, 27.897649], "type": "Point"}, "id": "qdluZzNze51AGptL9c9tJPatp5g=", "properties": {"@source_uri": "https://tools.usps.com/UspsToolsRestServices/rest/POLocator/findLocations", "@spider": "usps_collection_boxes", "addr:city": "BARTOW", "addr:country": "US", "addr:postcode": "33830", "addr:state": "FL", "addr:street_address": "255 N BROADWAY AVE", "amenity": "post_box", "collection_times": "Mo-Fr 16:00", "note": "ON 12/24 AND 12/31, THIS BOX MAY BE COLLECTED AS EARLY AS 12 NOON.", "nsi_id": "unitedstatespostalservice-a77078", "operator": "United States Postal Service", "operator:short": "USPS", "operator:type": "public", "operator:wikidata": "Q668687", "ref": "3383000038"}, "type": "Feature"}
{"geometry": {"coordinates": [-81.738241, 27.916232], "type": "Point"}, "id": "iqLMEY1Ot21FZKFRztb4-J7qwFw=", "properties": {"@source_uri": "https://tools.usps.com/UspsToolsRestServices/rest/POLocator/findLocations", "@spider": "usps_collection_boxes", "addr:city": "BARTOW", "addr:country": "US", "addr:postcode": "33830", "addr:state": "FL", "addr:street_address": "6815 STATE ROAD 60 E", "amenity": "post_box", "collection_times": "Mo-Sa 11:15", "nsi_id": "unitedstatespostalservice-a77078", "operator": "United States Postal Service", "operator:short": "USPS", "operator:type": "public", "operator:wikidata": "Q668687", "ref": "3383000039"}, "type": "Feature"}
{"geometry": {"coordinates": [-81.8478236, 27.873116], "type": "Point"}, "id": "PqDADMqt4Fp2M3AlJ_PutlxkDK4=", "properties": {"@source_uri": "https://tools.usps.com/UspsToolsRestServices/rest/POLocator/findLocations", "@spider": "usps_collection_boxes", "addr:city": "BARTOW", "addr:country": "US", "addr:postcode": "33830", "addr:state": "FL", "addr:street_address": "2055 S FLORAL AVE", "amenity": "post_box", "collection_times": "Mo-Sa 14:00", "note": "ON 12/24 AND 12/31, THIS BOX MAY BE COLLECTED AS EARLY AS 12 NOON.", "nsi_id": "unitedstatespostalservice-a77078", "operator": "United States Postal Service", "operator:short": "USPS", "operator:type": "public", "operator:wikidata": "Q668687", "ref": "3383000040"}, "type": "Feature"}
{"geometry": {"coordinates": [-81.8429788, 27.902818], "type": "Point"}, "id": "x27Ypn2VEeOI4ZTEtPtlFDK3uUs=", "properties": {"@source_uri": "https://tools.usps.com/UspsToolsRestServices/rest/POLocator/findLocations", "@spider": "usps_collection_boxes", "addr:city": "BARTOW", "addr:country": "US", "addr:postcode": "33830", "addr:state": "FL", "addr:street_address": "115 E VAN FLEET DR", "amenity": "post_box", "collection_times": "Mo-Fr 16:10", "note": "ON 12/24 AND 12/31, THIS BOX MAY BE COLLECTED AS EARLY AS 12 NOON.", "nsi_id": "unitedstatespostalservice-a77078", "operator": "United States Postal Service", "operator:short": "USPS", "operator:type": "public", "operator:wikidata": "Q668687", "ref": "3383000041"}, "type": "Feature"}
{"geometry": {"coordinates": [-81.8297799, 27.898008], "type": "Point"}, "id": "dPb2rx6CZYG7dGwGxgbqhNiA27U=", "properties": {"@source_uri": "https://tools.usps.com/UspsToolsRestServices/rest/POLocator/findLocations", "@spider": "usps_collection_boxes", "addr:city": "BARTOW", "addr:country": "US", "addr:postcode": "33830", "addr:state": "FL", "addr:street_address": "1350 E MAIN ST", "amenity": "post_box", "collection_times": "Mo-Fr 17:15", "note": "ON 12/24 AND 12/31, THIS BOX MAY BE COLLECTED AS EARLY AS 12 NOON.", "nsi_id": "unitedstatespostalservice-a77078", "operator": "United States Postal Service", "operator:short": "USPS", "operator:type": "public", "operator:wikidata": "Q668687", "ref": "3383000042"}, "type": "Feature"}
{"geometry": {"coordinates": [-81.842371414, 27.895419], "type": "Point"}, "id": "oT4ZwTXd1K4JjD9QDu75XcExPm8=", "properties": {"@source_uri": "https://tools.usps.com/UspsToolsRestServices/rest/POLocator/findLocations", "@spider": "usps_collection_boxes", "addr:city": "BARTOW", "addr:country": "US", "addr:postcode": "33830", "addr:state": "FL", "addr:street_address": "220 S CENTRAL AVE", "amenity": "post_box", "collection_times": "Mo-Fr 16:30; Sa 12:00", "indoor": "yes", "note": "ON 12/24 AND 12/31, THIS BOX MAY BE COLLECTED AS EARLY AS 12 NOON.", "nsi_id": "unitedstatespostalservice-a77078", "operator": "United States Postal Service", "operator:short": "USPS", "operator:type": "public", "operator:wikidata": "Q668687", "ref": "3383000046"}, "type": "Feature"}
{"geometry": {"coordinates": [-81.822332197, 27.638342173], "type": "Point"}, "id": "drX0WLqbe6wmrz37ltTAvs01cmA=", "properties": {"@source_uri": "https://tools.usps.com/UspsToolsRestServices/rest/POLocator/findLocations", "@spider": "usps_collection_boxes", "addr:city": "BOWLING GREEN", "addr:country": "US", "addr:postcode": "33834", "addr:state": "FL", "addr:street_address": "4702 CENTRAL AVE", "amenity": "post_box", "collection_times": "Mo-Fr 16:30; Sa 11:45", "note": "ON 12/24 AND 12/31, THIS BOX MAY BE COLLECTED AS EARLY AS 12 NOON.", "nsi_id": "unitedstatespostalservice-a77078", "operator": "United States Postal Service", "operator:short": "USPS", "operator:type": "public", "operator:wikidata": "Q668687", "ref": "3383400001"}, "type": "Feature"}
{"geometry": {"coordinates": [-81.822332197, 27.638342173], "type": "Point"}, "id": "qmohwlLIeplewcYsy8AOgHP0G68=", "properties": {"@source_uri": "https://tools.usps.com/UspsToolsRestServices/rest/POLocator/findLocations", "@spider": "usps_collection_boxes", "addr:city": "BOWLING GREEN", "addr:country": "US", "addr:postcode": "33834", "addr:state": "FL", "addr:street_address": "4702 CENTRAL AVE", "amenity": "post_box", "collection_times": "Mo-Fr 16:30; Sa 11:45", "indoor": "yes", "note": "ON 12/24 AND 12/31, THIS BOX MAY BE COLLECTED AS EARLY AS 12 NOON.", "nsi_id": "unitedstatespostalservice-a77078", "operator": "United States Postal Service", "operator:short": "USPS", "operator:type": "public", "operator:wikidata": "Q668687", "ref": "3383400003"}, "type": "Feature"}
{"geometry": {"coordinates": [-81.63372, 28.21429], "type": "Point"}, "id": "qzH1oc1KbwQ2b8KySkFsoV6eZls=", "properties": {"@source_uri": "https://tools.usps.com/UspsToolsRestServices/rest/POLocator/findLocations", "@spider": "usps_collection_boxes", "addr:city": "DAVENPORT", "addr:country": "US", "addr:postcode": "33837", "addr:state": "FL", "addr:street_address": "1 SOUTH BLVD E", "amenity": "post_box", "collection_times": "Mo-Fr 17:00; Sa 15:00", "note": "ON 12/24 AND 12/31, THIS BOX MAY BE COLLECTED AS EARLY AS 12 NOON.", "nsi_id": "unitedstatespostalservice-a77078", "operator": "United States Postal Service", "operator:short": "USPS", "operator:type": "public", "operator:wikidata": "Q668687", "ref": "3383700003"}, "type": "Feature"}
{"geometry": {"coordinates": [-81.640441347, 28.216670897], "type": "Point"}, "id": "_rirr52gOehu8jdpUhH-6TDK1Sc=", "properties": {"@source_uri": "https://tools.usps.com/UspsToolsRestServices/rest/POLocator/findLocations", "@spider": "usps_collection_boxes", "addr:city": "DAVENPORT", "addr:country": "US", "addr:postcode": "33837", "addr:state": "FL", "addr:street_address": "42621 HIGHWAY 27", "amenity": "post_box", "collection_times": "Mo-Sa 13:15", "note": "ON 12/24 AND 12/31, THIS BOX MAY BE COLLECTED AS EARLY AS 12 NOON.", "nsi_id": "unitedstatespostalservice-a77078", "operator": "United States Postal Service", "operator:short": "USPS", "operator:type": "public", "operator:wikidata": "Q668687", "ref": "3383700005"}, "type": "Feature"}
{"geometry": {"coordinates": [-81.646433036, 28.255734344], "type": "Point"}, "id": "2ZKSo4Egb7i2gKhAfF_3yfPGqwc=", "properties": {"@source_uri": "https://tools.usps.com/UspsToolsRestServices/rest/POLocator/findLocations", "@spider": "usps_collection_boxes", "addr:city": "DAVENPORT", "addr:country": "US", "addr:postcode": "33837", "addr:state": "FL", "addr:street_address": "5604 LOMA VISTA DR W", "amenity": "post_box", "collection_times": "Mo-Sa 12:00", "nsi_id": "unitedstatespostalservice-a77078", "operator": "United States Postal Service", "operator:short": "USPS", "operator:type": "public", "operator:wikidata": "Q668687", "ref": "3383700011"}, "type": "Feature"}
{"geometry": {"coordinates": [-81.599659774, 28.153918478], "type": "Point"}, "id": "Xtq7uUlmkgDcIQ07ia_aSY-nPz0=", "properties": {"@source_uri": "https://tools.usps.com/UspsToolsRestServices/rest/POLocator/findLocations", "@spider": "usps_collection_boxes", "addr:city": "DAVENPORT", "addr:country": "US", "addr:postcode": "33837", "addr:state": "FL", "addr:street_address": "1 SOUTH BLVD E", "amenity": "post_box", "collection_times": "Mo-Fr 16:30; Sa 12:00", "indoor": "yes", "note": "ON 12/24 AND 12/31, THIS BOX MAY BE COLLECTED AS EARLY AS 12 NOON.", "nsi_id": "unitedstatespostalservice-a77078", "operator": "United States Postal Service", "operator:short": "USPS", "operator:type": "public", "operator:wikidata": "Q668687", "ref": "3383700017"}, "type": "Feature"}
{"geometry": {"coordinates": [-81.6232020322, 28.021413981], "type": "Point"}, "id": "VgySUphHyLU-Bc7W6f7nffC93Ic=", "properties": {"@source_uri": "https://tools.usps.com/UspsToolsRestServices/rest/POLocator/findLocations", "@spider": "usps_collection_boxes", "addr:city": "DUNDEE", "addr:country": "US", "addr:postcode": "33838", "addr:state": "FL", "addr:street_address": "103 ATLANTIC AVE", "amenity": "post_box", "collection_times": "Mo-Fr 16:15; Sa 12:00", "note": "ON 12/24 AND 12/31, THIS BOX MAY BE COLLECTED AS EARLY AS 12 NOON.", "nsi_id": "unitedstatespostalservice-a77078", "operator": "United States Postal Service", "operator:short": "USPS", "operator:type": "public", "operator:wikidata": "Q668687", "ref": "3383800001"}, "type": "Feature"}
{"geometry": {"coordinates": [-81.6232020322, 28.021413981], "type": "Point"}, "id": "xe7X5teU36vQcu6hdCUW1HXf2pE=", "properties": {"@source_uri": "https://tools.usps.com/UspsToolsRestServices/rest/POLocator/findLocations", "@spider": "usps_collection_boxes", "addr:city": "DUNDEE", "addr:country": "US", "addr:postcode": "33838", "addr:state": "FL", "addr:street_address": "103 ATLANTIC AVE", "amenity": "post_box", "collection_times": "Mo-Fr 16:00", "indoor": "yes", "note": "ON 12/24 AND 12/31, THIS BOX MAY BE COLLECTED AS EARLY AS 12 NOON.", "nsi_id": "unitedstatespostalservice-a77078", "operator": "United States Postal Service", "operator:short": "USPS", "operator:type": "public", "operator:wikidata": "Q668687", "ref": "3383800004"}, "type": "Feature"}
{"geometry": {"coordinates": [-81.751718063, 27.982916011], "type": "Point"}, "id": "TG7ecJihfqZpKxVQ4MWSTdnxbic=", "properties": {"@source_uri": "https://tools.usps.com/UspsToolsRestServices/rest/POLocator/findLocations", "@spider": "usps_collection_boxes", "addr:city": "EAGLE LAKE", "addr:country": "US", "addr:postcode": "33839", "addr:state": "FL", "addr:street_address": "665 N US HIGHWAY 17", "amenity": "post_box", "collection_times": "Mo-Fr 16:30; Sa 08:45", "note": "ON 12/24 AND 12/31, THIS BOX MAY BE COLLECTED AS EARLY AS 12 NOON.", "nsi_id": "unitedstatespostalservice-a77078", "operator": "United States Postal Service", "operator:short": "USPS", "operator:type": "public", "operator:wikidata": "Q668687", "ref": "3383900000"}, "type": "Feature"}
{"geometry": {"coordinates": [-81.751718063, 27.982916011], "type": "Point"}, "id": "TTLty1IZAkd2znYJzZ6JSsudJvY=", "properties": {"@source_uri": "https://tools.usps.com/UspsToolsRestServices/rest/POLocator/findLocations", "@spider": "usps_collection_boxes", "addr:city": "EAGLE LAKE", "addr:country": "US", "addr:postcode": "33839", "addr:state": "FL", "addr:street_address": "665 N US HIGHWAY 17", "amenity": "post_box", "collection_times": "Mo-Fr 16:30", "indoor": "yes", "note": "ON 12/24 AND 12/31, THIS BOX MAY BE COLLECTED AS EARLY AS 12 NOON.", "nsi_id": "unitedstatespostalservice-a77078", "operator": "United States Postal Service", "operator:short": "USPS", "operator:type": "public", "operator:wikidata": "Q668687", "ref": "3383900002"}, "type": "Feature"}
{"geometry": {"coordinates": [-81.9069599649, 28.0102619845], "type": "Point"}, "id": "iPnZkI6ENcDdOFTiALkUVUjOTtk=", "properties": {"@source_uri": "https://tools.usps.com/UspsToolsRestServices/rest/POLocator/findLocations", "@spider": "usps_collection_boxes", "addr:city": "EATON PARK", "addr:country": "US", "addr:postcode": "33840", "addr:state": "FL", "addr:street_address": "2615 ELLIS AVE", "amenity": "post_box", "collection_times": "Mo-Fr 15:45; Sa 09:00", "note": "ON 12/24 AND 12/31, THIS BOX MAY BE COLLECTED AS EARLY AS 12 NOON.", "nsi_id": "unitedstatespostalservice-a77078", "operator": "United States Postal Service", "operator:short": "USPS", "operator:type": "public", "operator:wikidata": "Q668687", "ref": "3384000001"}, "type": "Feature"}
{"geometry": {"coordinates": [-81.906952249, 28.010417543], "type": "Point"}, "id": "ODcBBo0dSy3JyM4u-KPeyLwyYw4=", "properties": {"@source_uri": "https://tools.usps.com/UspsToolsRestServices/rest/POLocator/findLocations", "@spider": "usps_collection_boxes", "addr:city": "EATON PARK", "addr:country": "US", "addr:postcode": "33840", "addr:state": "FL", "addr:street_address": "2615 ELLIS AVE", "amenity": "post_box", "collection_times": "Mo-Fr 16:30", "indoor": "yes", "note": "ON 12/24 AND 12/31, THIS BOX MAY BE COLLECTED AS EARLY AS 12 NOON.", "nsi_id": "unitedstatespostalservice-a77078", "operator": "United States Postal Service", "operator:short": "USPS", "operator:type": "public", "operator:wikidata": "Q668687", "ref": "3384000007"}, "type": "Feature"}
{"geometry": {"coordinates": [-81.80305, 27.752611], "type": "Point"}, "id": "mC9htP6zjuHE1KurIoVYc925x5g=", "properties": {"@source_uri": "https://tools.usps.com/UspsToolsRestServices/rest/POLocator/findLocations", "@spider": "usps_collection_boxes", "addr:city": "FORT MEADE", "addr:country": "US", "addr:postcode": "33841", "addr:state": "FL", "addr:street_address": "21 N SEMINOLE AVE", "amenity": "post_box", "collection_times": "Mo-Fr 17:00; Sa 12:00", "note": "ON 12/24 AND 12/31, THIS BOX MAY BE COLLECTED AS EARLY AS 12 NOON.", "nsi_id": "unitedstatespostalservice-a77078", "operator": "United States Postal Service", "operator:short": "USPS", "operator:type": "public", "operator:wikidata": "Q668687", "ref": "3384100001"}, "type": "Feature"}
{"geometry": {"coordinates": [-81.803054601, 27.752634], "type": "Point"}, "id": "UZoAPYwdp9YemKGQ6BQQYf5E6wM=", "properties": {"@source_uri": "https://tools.usps.com/UspsToolsRestServices/rest/POLocator/findLocations", "@spider": "usps_collection_boxes", "addr:city": "FORT MEADE", "addr:country": "US", "addr:postcode": "33841", "addr:state": "FL", "addr:street_address": "21 N SEMINOLE AVE", "amenity": "post_box", "collection_times": "Mo-Fr 16:00; Sa 12:00", "indoor": "yes", "note": "ON 12/24 AND 12/31, THIS BOX MAY BE COLLECTED AS EARLY AS 12 NOON.", "nsi_id": "unitedstatespostalservice-a77078", "operator": "United States Postal Service", "operator:short": "USPS", "operator:type": "public", "operator:wikidata": "Q668687", "ref": "3384100003"}, "type": "Feature"}
{"geometry": {"coordinates": [-81.59735255, 27.77634], "type": "Point"}, "id": "qx7jq9s3PKI8_i9UhR-rMihPY4U=", "properties": {"@source_uri": "https://tools.usps.com/UspsToolsRestServices/rest/POLocator/findLocations", "@spider": "usps_collection_boxes", "addr:city": "FROSTPROOF", "addr:country": "US", "addr:postcode": "33843", "addr:state": "FL", "addr:street_address": "10400 HWY 27", "amenity": "post_box", "collection_times": "Mo-Sa 09:30", "nsi_id": "unitedstatespostalservice-a77078", "operator": "United States Postal Service", "operator:short": "USPS", "operator:type": "public", "operator:wikidata": "Q668687", "ref": "3384300001"}, "type": "Feature"}
{"geometry": {"coordinates": [-81.530878332, 27.744790528], "type": "Point"}, "id": "21pu2wbm6Y8aIKqTPJC-cDHDJ9o=", "properties": {"@source_uri": "https://tools.usps.com/UspsToolsRestServices/rest/POLocator/findLocations", "@spider": "usps_collection_boxes", "addr:city": "FROSTPROOF", "addr:country": "US", "addr:postcode": "33843", "addr:state": "FL", "addr:street_address": "1 W 1ST ST", "amenity": "post_box", "collection_times": "Mo-Fr 17:00; Sa 12:00", "note": "ON 12/24 AND 12/31, THIS BOX MAY BE COLLECTED AS EARLY AS 12 NOON.", "nsi_id": "unitedstatespostalservice-a77078", "operator": "United States Postal Service", "operator:short": "USPS", "operator:type": "public", "operator:wikidata": "Q668687", "ref": "3384300004"}, "type": "Feature"}
{"geometry": {"coordinates": [-81.530878332, 27.744790528], "type": "Point"}, "id": "f8d4jS2pvijwaC9FEjNZHtYHX7Y=", "properties": {"@source_uri": "https://tools.usps.com/UspsToolsRestServices/rest/POLocator/findLocations", "@spider": "usps_collection_boxes", "addr:city": "FROSTPROOF", "addr:country": "US", "addr:postcode": "33843", "addr:state": "FL", "addr:street_address": "1 W 1ST ST", "amenity": "post_box", "collection_times": "Mo-Fr 16:30", "indoor": "yes", "note": "ON 12/24 AND 12/31, THIS BOX MAY BE COLLECTED AS EARLY AS 12 NOON.", "nsi_id": "unitedstatespostalservice-a77078", "operator": "United States Postal Service", "operator:short": "USPS", "operator:type": "public", "operator:wikidata": "Q668687", "ref": "3384300006"}, "type": "Feature"}
{"geometry": {"coordinates": [-81.639558835, 28.126062639], "type": "Point"}, "id": "pMlfTPsMLj5QYuuN-2PAT80ppys=", "properties": {"@source_uri": "https://tools.usps.com/UspsToolsRestServices/rest/POLocator/findLocations", "@spider": "usps_collection_boxes", "addr:city": "HAINES CITY", "addr:country": "US", "addr:postcode": "33844", "addr:state": "FL", "addr:street_address": "36205 HWY 27", "amenity": "post_box", "collection_times": "Mo-Sa 10:00", "nsi_id": "unitedstatespostalservice-a77078", "operator": "United States Postal Service", "operator:short": "USPS", "operator:type": "public", "operator:wikidata": "Q668687", "ref": "3384400002"}, "type": "Feature"}
{"geometry": {"coordinates": [-81.6318495, 28.143114542], "type": "Point"}, "id": "SD7RcL-YesAr76kfVw5AbeSae1s=", "properties": {"@source_uri": "https://tools.usps.com/UspsToolsRestServices/rest/POLocator/findLocations", "@spider": "usps_collection_boxes", "addr:city": "HAINES CITY", "addr:country": "US", "addr:postcode": "33844", "addr:state": "FL", "addr:street_address": "251 PATTERSON RD", "amenity": "post_box", "collection_times": "Mo-Sa 11:00", "nsi_id": "unitedstatespostalservice-a77078", "operator": "United States Postal Service", "operator:short": "USPS", "operator:type": "public", "operator:wikidata": "Q668687", "ref": "3384400006"}, "type": "Feature"}
{"geometry": {"coordinates": [-81.621539493, 28.084462058], "type": "Point"}, "id": "mZNz3shdG-GWm0nYJSJ0BvZ6QUo=", "properties": {"@source_uri": "https://tools.usps.com/UspsToolsRestServices/rest/POLocator/findLocations", "@spider": "usps_collection_boxes", "addr:city": "HAINES CITY", "addr:country": "US", "addr:postcode": "33844", "addr:state": "FL", "addr:street_address": "1051 STATE ROAD 544 E", "amenity": "post_box", "collection_times": "Mo-Fr 16:00", "indoor": "yes", "note": "ON 12/24 AND 12/31, THIS BOX MAY BE COLLECTED AS EARLY AS 12 NOON.", "nsi_id": "unitedstatespostalservice-a77078", "operator": "United States Postal Service", "operator:short": "USPS", "operator:type": "public", "operator:wikidata": "Q668687", "ref": "3384400029"}, "type": "Feature"}
{"geometry": {"coordinates": [-81.88236, 27.967591464], "type": "Point"}, "id": "XCj3HLL8WWV89WuC8ilyQh0Bql8=", "properties": {"@source_uri": "https://tools.usps.com/UspsToolsRestServices/rest/POLocator/findLocations", "@spider": "usps_collection_boxes", "addr:city": "HIGHLAND CITY", "addr:country": "US", "addr:postcode": "33846", "addr:state": "FL", "addr:street_address": "4114 CLUBHOUSE RD", "amenity": "post_box", "collection_times": "Mo-Fr 16:00", "indoor": "yes", "note": "ON 12/24 AND 12/31, THIS BOX MAY BE COLLECTED AS EARLY AS 12 NOON.", "nsi_id": "unitedstatespostalservice-a77078", "operator": "United States Postal Service", "operator:short": "USPS", "operator:type": "public", "operator:wikidata": "Q668687", "ref": "3384600004"}, "type": "Feature"}
{"geometry": {"coordinates": [-81.825162213, 27.817794085], "type": "Point"}, "id": "bApxABLrjhGvj__IIcZcVMTyaB8=", "properties": {"@source_uri": "https://tools.usps.com/UspsToolsRestServices/rest/POLocator/findLocations", "@spider": "usps_collection_boxes", "addr:city": "HOMELAND", "addr:country": "US", "addr:postcode": "33847", "addr:state": "FL", "addr:street_address": "339 4TH ST", "amenity": "post_box", "collection_times": "Mo-Fr 12:00; Sa 11:30", "indoor": "yes", "nsi_id": "unitedstatespostalservice-a77078", "operator": "United States Postal Service", "operator:short": "USPS", "operator:type": "public", "operator:wikidata": "Q668687", "ref": "3384700003"}, "type": "Feature"}
{"geometry": {"coordinates": [-81.5085700348, 28.2623489798], "type": "Point"}, "id": "7YnQ4iEKlIXXw57U1WSqir0mGLs=", "properties": {"@source_uri": "https://tools.usps.com/UspsToolsRestServices/rest/POLocator/findLocations", "@spider": "usps_collection_boxes", "addr:city": "INTERCESSION CTY", "addr:country": "US", "addr:postcode": "33848", "addr:state": "FL", "addr:street_address": "1538 TALLAHASSEE BLVD", "amenity": "post_box", "collection_times": "Mo-Fr 16:00", "indoor": "yes", "note": "ON 12/24 AND 12/31, THIS BOX MAY BE COLLECTED AS EARLY AS 12 NOON.", "nsi_id": "unitedstatespostalservice-a77078", "operator": "United States Postal Service", "operator:short": "USPS", "operator:type": "public", "operator:wikidata": "Q668687", "ref": "3384800003"}, "type": "Feature"}
{"geometry": {"coordinates": [-82.0729365, 28.253133], "type": "Point"}, "id": "__KP0EO4C7Cw0GoSbrDYKhkdZ-c=", "properties": {"@source_uri": "https://tools.usps.com/UspsToolsRestServices/rest/POLocator/findLocations", "@spider": "usps_collection_boxes", "addr:city": "KATHLEEN", "addr:country": "US", "addr:postcode": "33849", "addr:state": "FL", "addr:street_address": "6136 KATHLEEN RD", "amenity": "post_box", "collection_times": "Mo-Fr 16:00", "indoor": "yes", "note": "ON 12/24 AND 12/31, THIS BOX MAY BE COLLECTED AS EARLY AS 12 NOON.", "nsi_id": "unitedstatespostalservice-a77078", "operator": "United States Postal Service", "operator:short": "USPS", "operator:type": "public", "operator:wikidata": "Q668687", "ref": "3384900003"}, "type": "Feature"}
{"geometry": {"coordinates": [-81.7307869, 28.091934], "type": "Point"}, "id": "Ir3vIHCnQ91eZUaEB71pD3E7dww=", "properties": {"@source_uri": "https://tools.usps.com/UspsToolsRestServices/rest/POLocator/findLocations", "@spider": "usps_collection_boxes", "addr:city": "LAKE ALFRED", "addr:country": "US", "addr:postcode": "33850", "addr:state": "FL", "addr:street_address": "195 W HAINES BLVD", "amenity": "post_box", "collection_times": "Mo-Fr 17:00; Sa 11:00", "note": "ON 12/24 AND 12/31, THIS BOX MAY BE COLLECTED AS EARLY AS 12 NOON.", "nsi_id": "unitedstatespostalservice-a77078", "operator": "United States Postal Service", "operator:short": "USPS", "operator:type": "public", "operator:wikidata": "Q668687", "ref": "3385000002"}, "type": "Feature"}
{"geometry": {"coordinates": [-81.7197836, 28.108537], "type": "Point"}, "id": "TdZfctoNvgKcJAKWQFRYO0bQv1Y=", "properties": {"@source_uri": "https://tools.usps.com/UspsToolsRestServices/rest/POLocator/findLocations", "@spider": "usps_collection_boxes", "addr:city": "LAKE ALFRED", "addr:country": "US", "addr:postcode": "33850", "addr:state": "FL", "addr:street_address": "1000 CYPRESS CREEK BLVD", "amenity": "post_box", "collection_times": "Mo-Sa 11:00", "nsi_id": "unitedstatespostalservice-a77078", "operator": "United States Postal Service", "operator:short": "USPS", "operator:type": "public", "operator:wikidata": "Q668687", "ref": "3385000004"}, "type": "Feature"}
{"geometry": {"coordinates": [-81.730570332, 28.091886504], "type": "Point"}, "id": "rigYLUvo2_hQnleVOD_6wujcSA8=", "properties": {"@source_uri": "https://tools.usps.com/UspsToolsRestServices/rest/POLocator/findLocations", "@spider": "usps_collection_boxes", "addr:city": "LAKE ALFRED", "addr:country": "US", "addr:postcode": "33850", "addr:state": "FL", "addr:street_address": "195 W HAINES BLVD", "amenity": "post_box", "collection_times": "Mo-Fr 16:30; Sa 11:00", "indoor": "yes", "note": "ON 12/24 AND 12/31, THIS BOX MAY BE COLLECTED AS EARLY AS 12 NOON.", "nsi_id": "unitedstatespostalservice-a77078", "operator": "United States Postal Service", "operator:short": "USPS", "operator:type": "public", "operator:wikidata": "Q668687", "ref": "3385000005"}, "type": "Feature"}
{"geometry": {"coordinates": [-81.6223034099, 28.0442686229], "type": "Point"}, "id": "ZGj6uSa5RxboEdsFvy3QFGREmFc=", "properties": {"@source_uri": "https://tools.usps.com/UspsToolsRestServices/rest/POLocator/findLocations", "@spider": "usps_collection_boxes", "addr:city": "LAKE HAMILTON", "addr:country": "US", "addr:postcode": "33851", "addr:state": "FL", "addr:street_address": "201 MAIN ST", "amenity": "post_box", "collection_times": "Mo-Fr 15:45; Sa 10:15", "note": "ON 12/24 AND 12/31, THIS BOX MAY BE COLLECTED AS EARLY AS 12 NOON.", "nsi_id": "unitedstatespostalservice-a77078", "operator": "United States Postal Service", "operator:short": "USPS", "operator:type": "public", "operator:wikidata": "Q668687", "ref": "3385100001"}, "type": "Feature"}
{"geometry": {"coordinates": [-81.3242655, 27.208258576], "type": "Point"}, "id": "gGm-YGtrncvNYJVANT0Epo63Jno=", "properties": {"@source_uri": "https://tools.usps.com/UspsToolsRestServices/rest/POLocator/findLocations", "@spider": "usps_collection_boxes", "addr:city": "LAKE PLACID", "addr:country": "US", "addr:postcode": "33852", "addr:state": "FL", "addr:street_address": "303 SR 70 E", "amenity": "post_box", "collection_times": "Mo-Sa 10:00", "nsi_id": "unitedstatespostalservice-a77078", "operator": "United States Postal Service", "operator:short": "USPS", "operator:type": "public", "operator:wikidata": "Q668687", "ref": "3385200005"}, "type": "Feature"}
{"geometry": {"coordinates": [-81.362778569, 27.303942948], "type": "Point"}, "id": "eDOTsaFr4mTCNGVmXj0c2yH3W1g=", "properties": {"@source_uri": "https://tools.usps.com/UspsToolsRestServices/rest/POLocator/findLocations", "@spider": "usps_collection_boxes", "addr:city": "LAKE PLACID", "addr:country": "US", "addr:postcode": "33852", "addr:state": "FL", "addr:street_address": "901 HILLCREST AVE", "amenity": "post_box", "collection_times": "Mo-Fr 17:00; Sa 16:00", "note": "ON 12/24 AND 12/31, THIS BOX MAY BE COLLECTED AS EARLY AS 12 NOON.", "nsi_id": "unitedstatespostalservice-a77078", "operator": "United States Postal Service", "operator:short": "USPS", "operator:type": "public", "operator:wikidata": "Q668687", "ref": "3385200006"}, "type": "Feature"}
{"geometry": {"coordinates": [-81.362778569, 27.303942948], "type": "Point"}, "id": "V-jFSauzhqbWIMSWtHbkXK32_h0=", "properties": {"@source_uri": "https://tools.usps.com/UspsToolsRestServices/rest/POLocator/findLocations", "@spider": "usps_collection_boxes", "addr:city": "LAKE PLACID", "addr:country": "US", "addr:postcode": "33852", "addr:state": "FL", "addr:street_address": "901 HILLCREST AVE", "amenity": "post_box", "collection_times": "Mo-Fr 16:30", "indoor": "yes", "note": "ON 12/24 AND 12/31, THIS BOX MAY BE COLLECTED AS EARLY AS 12 NOON.", "nsi_id": "unitedstatespostalservice-a77078", "operator": "United States Postal Service", "operator:short": "USPS", "operator:type": "public", "operator:wikidata": "Q668687", "ref": "3385200012"}, "type": "Feature"}
{"geometry": {"coordinates": [-81.586988465, 27.893155005], "type": "Point"}, "id": "9ivXCRuFGCwjxVBBl9PFIVkcL2Q=", "properties": {"@source_uri": "https://tools.usps.com/UspsToolsRestServices/rest/POLocator/findLocations", "@spider": "usps_collection_boxes", "addr:city": "LAKE WALES", "addr:country": "US", "addr:postcode": "33853", "addr:state": "FL", "addr:street_address": "223 DOMARIS AVE", "amenity": "post_box", "collection_times": "Mo-Fr 16:00; Sa 11:50", "note": "ON 12/24 AND 12/31, THIS BOX MAY BE COLLECTED AS EARLY AS 12 NOON.", "nsi_id": "unitedstatespostalservice-a77078", "operator": "United States Postal Service", "operator:short": "USPS", "operator:type": "public", "operator:wikidata": "Q668687", "ref": "3385300003"}, "type": "Feature"}
{"geometry": {"coordinates": [-81.588051168, 27.901989533], "type": "Point"}, "id": "mIrPSJb3vAhH7CaempIkqIkXHW0=", "properties": {"@source_uri": "https://tools.usps.com/UspsToolsRestServices/rest/POLocator/findLocations", "@spider": "usps_collection_boxes", "addr:city": "LAKE WALES", "addr:country": "US", "addr:postcode": "33853", "addr:state": "FL", "addr:street_address": "201 E STUART AVE", "amenity": "post_box", "collection_times": "Mo-Fr 16:05; Sa 11:55", "note": "ON 12/24 AND 12/31, THIS BOX MAY BE COLLECTED AS EARLY AS 12 NOON.", "nsi_id": "unitedstatespostalservice-a77078", "operator": "United States Postal Service", "operator:short": "USPS", "operator:type": "public", "operator:wikidata": "Q668687", "ref": "3385300006"}, "type": "Feature"}
{"geometry": {"coordinates": [-81.56515987, 27.906504031], "type": "Point"}, "id": "vqyqje_OokFcVCVaAoHdNC-7x1A=", "properties": {"@source_uri": "https://tools.usps.com/UspsToolsRestServices/rest/POLocator/findLocations", "@spider": "usps_collection_boxes", "addr:city": "LAKE WALES", "addr:country": "US", "addr:postcode": "33853", "addr:state": "FL", "addr:street_address": "1080 N LAKESHORE BLVD", "amenity": "post_box", "collection_times": "Mo-Sa 11:30", "nsi_id": "unitedstatespostalservice-a77078", "operator": "United States Postal Service", "operator:short": "USPS", "operator:type": "public", "operator:wikidata": "Q668687", "ref": "3385300033"}, "type": "Feature"}
{"geometry": {"coordinates": [-81.557930337, 27.893992493], "type": "Point"}, "id": "7NhK9wgq6kQCAKqbROuogVwtbv4=", "properties": {"@source_uri": "https://tools.usps.com/UspsToolsRestServices/rest/POLocator/findLocations", "@spider": "usps_collection_boxes", "addr:city": "LAKE WALES", "addr:country": "US", "addr:postcode": "33853", "addr:state": "FL", "addr:street_address": "1960 STATE ROAD 60 E", "amenity": "post_box", "collection_times": "Mo-Fr 14:00; Sa 10:30", "note": "ON 12/24 AND 12/31, THIS BOX MAY BE COLLECTED AS EARLY AS 12 NOON.", "nsi_id": "unitedstatespostalservice-a77078", "operator": "United States Postal Service", "operator:short": "USPS", "operator:type": "public", "operator:wikidata": "Q668687", "ref": "3385300035"}, "type": "Feature"}
{"geometry": {"coordinates": [-81.594161026, 27.901230545], "type": "Point"}, "id": "AvQZ8L35PCvV7sdrP-giMwQ_WkA=", "properties": {"@source_uri": "https://tools.usps.com/UspsToolsRestServices/rest/POLocator/findLocations", "@spider": "usps_collection_boxes", "addr:city": "LAKE WALES", "addr:country": "US", "addr:postcode": "33853", "addr:state": "FL", "addr:street_address": "201 W CENTRAL AVE", "amenity": "post_box", "collection_times": "Mo-Fr 16:00; Sa 12:00", "note": "ON 12/24 AND 12/31, THIS BOX MAY BE COLLECTED AS EARLY AS 12 NOON.", "nsi_id": "unitedstatespostalservice-a77078", "operator": "United States Postal Service", "operator:short": "USPS", "operator:type": "public", "operator:wikidata": "Q668687", "ref": "3385300045"}, "type": "Feature"}
{"geometry": {"coordinates": [-81.564711583, 27.895428419], "type": "Point"}, "id": "lvcF_Bj6uAMxqKFtSCq-BoH9LgM=", "properties": {"@source_uri": "https://tools.usps.com/UspsToolsRestServices/rest/POLocator/findLocations", "@spider": "usps_collection_boxes", "addr:city": "LAKE WALES", "addr:country": "US", "addr:postcode": "33853", "addr:state": "FL", "addr:street_address": "414 S 11TH ST", "amenity": "post_box", "collection_times": "Mo-Fr 14:40; Sa 11:40", "note": "ON 12/24 AND 12/31, THIS BOX MAY BE COLLECTED AS EARLY AS 12 NOON.", "nsi_id": "unitedstatespostalservice-a77078", "operator": "United States Postal Service", "operator:short": "USPS", "operator:type": "public", "operator:wikidata": "Q668687", "ref": "3385300046"}, "type": "Feature"}
{"geometry": {"coordinates": [-81.589828249, 27.902691533], "type": "Point"}, "id": "q9FtB0oCW7Da5gPQwz4UBMR01qI=", "properties": {"@source_uri": "https://tools.usps.com/UspsToolsRestServices/rest/POLocator/findLocations", "@spider": "usps_collection_boxes", "addr:city": "LAKE WALES", "addr:country": "US", "addr:postcode": "33853", "addr:state": "FL", "addr:street_address": "6 W PARK AVE", "amenity": "post_box", "collection_times": "Mo-Fr 16:00", "indoor": "yes", "note": "ON 12/24 AND 12/31, THIS BOX MAY BE COLLECTED AS EARLY AS 12 NOON.", "nsi_id": "unitedstatespostalservice-a77078", "operator": "United States Postal Service", "operator:short": "USPS", "operator:type": "public", "operator:wikidata": "Q668687", "ref": "3385300050"}, "type": "Feature"}
{"geometry": {"coordinates": [-81.589605, 27.89754], "type": "Point"}, "id": "YAKNCbrZPSesGxF7EmrWwU6OYKo=", "properties": {"@source_uri": "https://tools.usps.com/UspsToolsRestServices/rest/POLocator/findLocations", "@spider": "usps_collection_boxes", "addr:city": "LAKE WALES", "addr:country": "US", "addr:postcode": "33853", "addr:state": "FL", "addr:street_address": "6 W PARK AVE", "amenity": "post_box", "collection_times": "Mo-Fr 17:00", "note": "ON 12/24 AND 12/31, THIS BOX MAY BE COLLECTED AS EARLY AS 12 NOON.", "nsi_id": "unitedstatespostalservice-a77078", "operator": "United States Postal Service", "operator:short": "USPS", "operator:type": "public", "operator:wikidata": "Q668687", "ref": "3385300053"}, "type": "Feature"}
{"geometry": {"coordinates": [-81.2554939749, 27.4442220048], "type": "Point"}, "id": "0xoesk3eXl4TB-rNuitWUTKJ474=", "properties": {"@source_uri": "https://tools.usps.com/UspsToolsRestServices/rest/POLocator/findLocations", "@spider": "usps_collection_boxes", "addr:city": "LORIDA", "addr:country": "US", "addr:postcode": "33857", "addr:state": "FL", "addr:street_address": "1665 US HIGHWAY 98", "amenity": "post_box", "collection_times": "Mo-Fr 15:45; Sa 12:15", "note": "ON 12/24 AND 12/31, THIS BOX MAY BE COLLECTED AS EARLY AS 12 NOON.", "nsi_id": "unitedstatespostalservice-a77078", "operator": "United States Postal Service", "operator:short": "USPS", "operator:type": "public", "operator:wikidata": "Q668687", "ref": "3385700001"}, "type": "Feature"}
{"geometry": {"coordinates": [-81.2554939749, 27.4442220048], "type": "Point"}, "id": "izKuNwbRc62jbfWiNJ_V8CsDmIg=", "properties": {"@source_uri": "https://tools.usps.com/UspsToolsRestServices/rest/POLocator/findLocations", "@spider": "usps_collection_boxes", "addr:city": "LORIDA", "addr:country": "US", "addr:postcode": "33857", "addr:state": "FL", "addr:street_address": "1665 US HIGHWAY 98", "amenity": "post_box", "collection_times": "Mo-Fr 16:00; Sa 12:15", "indoor": "yes", "note": "ON 12/24 AND 12/31, THIS BOX MAY BE COLLECTED AS EARLY AS 12 NOON.", "nsi_id": "unitedstatespostalservice-a77078", "operator": "United States Postal Service", "operator:short": "USPS", "operator:type": "public", "operator:wikidata": "Q668687", "ref": "3385700003"}, "type": "Feature"}
{"geometry": {"coordinates": [-81.565250437, 28.240988103], "type": "Point"}, "id": "Qthd5gDU_APzLG76R86bifh48TM=", "properties": {"@source_uri": "https://tools.usps.com/UspsToolsRestServices/rest/POLocator/findLocations", "@spider": "usps_collection_boxes", "addr:city": "LOUGHMAN", "addr:country": "US", "addr:postcode": "33858", "addr:state": "FL", "addr:street_address": "511 RONALD REAGAN PKWY", "amenity": "post_box", "collection_times": "Mo-Fr 16:00", "indoor": "yes", "note": "ON 12/24 AND 12/31, THIS BOX MAY BE COLLECTED AS EARLY AS 12 NOON.", "nsi_id": "unitedstatespostalservice-a77078", "operator": "United States Postal Service", "operator:short": "USPS", "operator:type": "public", "operator:wikidata": "Q668687", "ref": "3385800003"}, "type": "Feature"}
{"geometry": {"coordinates": [-81.9747579945, 27.9119589822], "type": "Point"}, "id": "wwYm2azZ0kdleTjrEqc5LPENXSg=", "properties": {"@source_uri": "https://tools.usps.com/UspsToolsRestServices/rest/POLocator/findLocations", "@spider": "usps_collection_boxes", "addr:city": "MULBERRY", "addr:country": "US", "addr:postcode": "33860", "addr:state": "FL", "addr:street_address": "2000 MULFORD RD", "amenity": "post_box", "collection_times": "Mo-Fr 16:30; Sa 12:00", "note": "ON 12/24 AND 12/31, THIS BOX MAY BE COLLECTED AS EARLY AS 12 NOON.", "nsi_id": "unitedstatespostalservice-a77078", "operator": "United States Postal Service", "operator:short": "USPS", "operator:type": "public", "operator:wikidata": "Q668687", "ref": "3386000006"}, "type": "Feature"}
{"geometry": {"coordinates": [-81.9747579945, 27.9119589822], "type": "Point"}, "id": "jZ03UFWRRTIyDbXPiTwf_li6alg=", "properties": {"@source_uri": "https://tools.usps.com/UspsToolsRestServices/rest/POLocator/findLocations", "@spider": "usps_collection_boxes", "addr:city": "MULBERRY", "addr:country": "US", "addr:postcode": "33860", "addr:state": "FL", "addr:street_address": "2000 MULFORD RD", "amenity": "post_box", "collection_times": "Mo-Fr 16:30; Sa 11:00", "indoor": "yes", "note": "ON 12/24 AND 12/31, THIS BOX MAY BE COLLECTED AS EARLY AS 12 NOON.", "nsi_id": "unitedstatespostalservice-a77078", "operator": "United States Postal Service", "operator:short": "USPS", "operator:type": "public", "operator:wikidata": "Q668687", "ref": "3386000011"}, "type": "Feature"}
{"geometry": {"coordinates": [-82.0223620078, 27.887632017], "type": "Point"}, "id": "hcjzSd6Fm1f-354aBcWcPmAUk00=", "properties": {"@source_uri": "https://tools.usps.com/UspsToolsRestServices/rest/POLocator/findLocations", "@spider": "usps_collection_boxes", "addr:city": "NICHOLS", "addr:country": "US", "addr:postcode": "33863", "addr:state": "FL", "addr:street_address": "4805 NICHOLS RD", "amenity": "post_box", "collection_times": "Mo-Fr 12:00", "indoor": "yes", "nsi_id": "unitedstatespostalservice-a77078", "operator": "United States Postal Service", "operator:short": "USPS", "operator:type": "public", "operator:wikidata": "Q668687", "ref": "3386300003"}, "type": "Feature"}
{"geometry": {"coordinates": [-81.917531832, 27.482137536], "type": "Point"}, "id": "Q9WuyTsDqZgZVFQY7csu8NhhnfI=", "properties": {"@source_uri": "https://tools.usps.com/UspsToolsRestServices/rest/POLocator/findLocations", "@spider": "usps_collection_boxes", "addr:city": "ONA", "addr:country": "US", "addr:postcode": "33865", "addr:state": "FL", "addr:street_address": "5155 STATE ROAD 64 W", "amenity": "post_box", "collection_times": "Mo-Fr 11:30", "indoor": "yes", "nsi_id": "unitedstatespostalservice-a77078", "operator": "United States Postal Service", "operator:short": "USPS", "operator:type": "public", "operator:wikidata": "Q668687", "ref": "3386500003"}, "type": "Feature"}
{"geometry": {"coordinates": [-81.8301149, 28.178355], "type": "Point"}, "id": "Nt-IQAFnWip1v-7h-fiYjEfHk_I=", "properties": {"@source_uri": "https://tools.usps.com/UspsToolsRestServices/rest/POLocator/findLocations", "@spider": "usps_collection_boxes", "addr:city": "POLK CITY", "addr:country": "US", "addr:postcode": "33868", "addr:state": "FL", "addr:street_address": "112 CARTER BLVD", "amenity": "post_box", "collection_times": "Mo-Fr 16:30; Sa 09:00", "note": "ON 12/24 AND 12/31, THIS BOX MAY BE COLLECTED AS EARLY AS 12 NOON.", "nsi_id": "unitedstatespostalservice-a77078", "operator": "United States Postal Service", "operator:short": "USPS", "operator:type": "public", "operator:wikidata": "Q668687", "ref": "3386800001"}, "type": "Feature"}
{"geometry": {"coordinates": [-81.830034196, 28.178099832], "type": "Point"}, "id": "0_BqPzYMWu6V0qbr25NHdF2f-Og=", "properties": {"@source_uri": "https://tools.usps.com/UspsToolsRestServices/rest/POLocator/findLocations", "@spider": "usps_collection_boxes", "addr:city": "POLK CITY", "addr:country": "US", "addr:postcode": "33868", "addr:state": "FL", "addr:street_address": "112 CARTER BLVD", "amenity": "post_box", "collection_times": "Mo-Fr 16:30", "indoor": "yes", "note": "ON 12/24 AND 12/31, THIS BOX MAY BE COLLECTED AS EARLY AS 12 NOON.", "nsi_id": "unitedstatespostalservice-a77078", "operator": "United States Postal Service", "operator:short": "USPS", "operator:type": "public", "operator:wikidata": "Q668687", "ref": "3386800004"}, "type": "Feature"}
{"geometry": {"coordinates": [-81.4879549954, 27.4792710168], "type": "Point"}, "id": "SOGulsqLg7X8mo9jgWjf1j7HG3c=", "properties": {"@source_uri": "https://tools.usps.com/UspsToolsRestServices/rest/POLocator/findLocations", "@spider": "usps_collection_boxes", "addr:city": "SEBRING", "addr:country": "US", "addr:postcode": "33870", "addr:state": "FL", "addr:street_address": "2122 JACARANDA WAY", "amenity": "post_box", "collection_times": "Mo-Sa 11:00", "nsi_id": "unitedstatespostalservice-a77078", "operator": "United States Postal Service", "operator:short": "USPS", "operator:type": "public", "operator:wikidata": "Q668687", "ref": "3387000002"}, "type": "Feature"}
{"geometry": {"coordinates": [-81.4498330101, 27.4717000208], "type": "Point"}, "id": "7Rv0USAA1-FBuZtYS00d-Xe1Vhs=", "properties": {"@source_uri": "https://tools.usps.com/UspsToolsRestServices/rest/POLocator/findLocations", "@spider": "usps_collection_boxes", "addr:city": "SEBRING", "addr:country": "US", "addr:postcode": "33870", "addr:state": "FL", "addr:street_address": "2617 US HIGHWAY 27 S", "amenity": "post_box", "collection_times": "Mo-Fr 16:15", "note": "ON 12/24 AND 12/31, THIS BOX MAY BE COLLECTED AS EARLY AS 12 NOON.", "nsi_id": "unitedstatespostalservice-a77078", "operator": "United States Postal Service", "operator:short": "USPS", "operator:type": "public", "operator:wikidata": "Q668687", "ref": "3387000005"}, "type": "Feature"}
{"geometry": {"coordinates": [-81.4450428155, 27.4723936106], "type": "Point"}, "id": "FsksFtWLjkvhXyk-HjS96DYXqaY=", "properties": {"@source_uri": "https://tools.usps.com/UspsToolsRestServices/rest/POLocator/findLocations", "@spider": "usps_collection_boxes", "addr:city": "SEBRING", "addr:country": "US", "addr:postcode": "33870", "addr:state": "FL", "addr:street_address": "2838 US HIGHWAY 27 S", "amenity": "post_box", "collection_times": "Mo-Fr 16:30; Sa 12:30", "note": "ON 12/24 AND 12/31, THIS BOX MAY BE COLLECTED AS EARLY AS 12 NOON.", "nsi_id": "unitedstatespostalservice-a77078", "operator": "United States Postal Service", "operator:short": "USPS", "operator:type": "public", "operator:wikidata": "Q668687", "ref": "3387000006"}, "type": "Feature"}
{"geometry": {"coordinates": [-81.4419459745, 27.4938950071], "type": "Point"}, "id": "2rnNxSNv4JEFpiFf-Lfg99AGjdo=", "properties": {"@source_uri": "https://tools.usps.com/UspsToolsRestServices/rest/POLocator/findLocations", "@spider": "usps_collection_boxes", "addr:city": "SEBRING", "addr:country": "US", "addr:postcode": "33870", "addr:state": "FL", "addr:street_address": "231 S RIDGEWOOD DR", "amenity": "post_box", "collection_times": "Mo-Fr 16:45", "note": "ON 12/24 AND 12/31, THIS BOX MAY BE COLLECTED AS EARLY AS 12 NOON.", "nsi_id": "unitedstatespostalservice-a77078", "operator": "United States Postal Service", "operator:short": "USPS", "operator:type": "public", "operator:wikidata": "Q668687", "ref": "3387000007"}, "type": "Feature"}
{"geometry": {"coordinates": [-81.4354950103, 27.4917579989], "type": "Point"}, "id": "ggyo4CsXhgmzNlJ5CoL9Tl8WdCE=", "properties": {"@source_uri": "https://tools.usps.com/UspsToolsRestServices/rest/POLocator/findLocations", "@spider": "usps_collection_boxes", "addr:city": "SEBRING", "addr:country": "US", "addr:postcode": "33870", "addr:state": "FL", "addr:street_address": "600 S COMMERCE AVE", "amenity": "post_box", "collection_times": "Mo-Fr 16:30", "note": "ON 12/24 AND 12/31, THIS BOX MAY BE COLLECTED AS EARLY AS 12 NOON.", "nsi_id": "unitedstatespostalservice-a77078", "operator": "United States Postal Service", "operator:short": "USPS", "operator:type": "public", "operator:wikidata": "Q668687", "ref": "3387000009"}, "type": "Feature"}
{"geometry": {"coordinates": [-81.438062493, 27.493224053], "type": "Point"}, "id": "qlLGVAIJS0-ElKmj3QJCj5OFvIs=", "properties": {"@source_uri": "https://tools.usps.com/UspsToolsRestServices/rest/POLocator/findLocations", "@spider": "usps_collection_boxes", "addr:city": "SEBRING", "addr:country": "US", "addr:postcode": "33870", "addr:state": "FL", "addr:street_address": "368 S COMMERCE AVE", "amenity": "post_box", "collection_times": "Mo-Fr 16:45", "note": "ON 12/24 AND 12/31, THIS BOX MAY BE COLLECTED AS EARLY AS 12 NOON.", "nsi_id": "unitedstatespostalservice-a77078", "operator": "United States Postal Service", "operator:short": "USPS", "operator:type": "public", "operator:wikidata": "Q668687", "ref": "3387000012"}, "type": "Feature"}
{"geometry": {"coordinates": [-81.435938744, 27.465673791], "type": "Point"}, "id": "0P2KDxVIbBUL7yzWt88IgCDz-es=", "properties": {"@source_uri": "https://tools.usps.com/UspsToolsRestServices/rest/POLocator/findLocations", "@spider": "usps_collection_boxes", "addr:city": "SEBRING", "addr:country": "US", "addr:postcode": "33870", "addr:state": "FL", "addr:street_address": "3651 US HIGHWAY 27 S", "amenity": "post_box", "collection_times": "Mo-Sa 13:00", "note": "ON 12/24 AND 12/31, THIS BOX MAY BE COLLECTED AS EARLY AS 12 NOON.", "nsi_id": "unitedstatespostalservice-a77078", "operator": "United States Postal Service", "operator:short": "USPS", "operator:type": "public", "operator:wikidata": "Q668687", "ref": "3387000015"}, "type": "Feature"}
{"geometry": {"coordinates": [-81.433700021, 27.465399388], "type": "Point"}, "id": "RW_0k1NoQlTXGMsLO05tr1K-guY=", "properties": {"@source_uri": "https://tools.usps.com/UspsToolsRestServices/rest/POLocator/findLocations", "@spider": "usps_collection_boxes", "addr:city": "SEBRING", "addr:country": "US", "addr:postcode": "33870", "addr:state": "FL", "addr:street_address": "3600 S HIGHLANDS AVE", "amenity": "post_box", "collection_times": "Mo-Sa 16:00", "note": "ON 12/24 AND 12/31, THIS BOX MAY BE COLLECTED AS EARLY AS 12 NOON.", "nsi_id": "unitedstatespostalservice-a77078", "operator": "United States Postal Service", "operator:short": "USPS", "operator:type": "public", "operator:wikidata": "Q668687", "ref": "3387000016"}, "type": "Feature"}
{"geometry": {"coordinates": [-81.5090120125, 27.5103340147], "type": "Point"}, "id": "bAZZvKEKJSyoX7VhLluxjI0B0bU=", "properties": {"@source_uri": "https://tools.usps.com/UspsToolsRestServices/rest/POLocator/findLocations", "@spider": "usps_collection_boxes", "addr:city": "SEBRING", "addr:country": "US", "addr:postcode": "33870", "addr:state": "FL", "addr:street_address": "4343 SCHUMACHER RD", "amenity": "post_box", "collection_times": "Mo-Sa 11:00", "nsi_id": "unitedstatespostalservice-a77078", "operator": "United States Postal Service", "operator:short": "USPS", "operator:type": "public", "operator:wikidata": "Q668687", "ref": "3387000023"}, "type": "Feature"}
{"geometry": {"coordinates": [-81.506030832, 27.543650785], "type": "Point"}, "id": "eQmCOWexbfTcTt1xc-cQVAxi9KQ=", "properties": {"@source_uri": "https://tools.usps.com/UspsToolsRestServices/rest/POLocator/findLocations", "@spider": "usps_collection_boxes", "addr:city": "SEBRING", "addr:country": "US", "addr:postcode": "33870", "addr:state": "FL", "addr:street_address": "6801 US HIGHWAY 27 N", "amenity": "post_box", "collection_times": "Mo-Fr 15:30", "note": "ON 12/24 AND 12/31, THIS BOX MAY BE COLLECTED AS EARLY AS 12 NOON.", "nsi_id": "unitedstatespostalservice-a77078", "operator": "United States Postal Service", "operator:short": "USPS", "operator:type": "public", "operator:wikidata": "Q668687", "ref": "3387000025"}, "type": "Feature"}
{"geometry": {"coordinates": [-81.439619552, 27.500081229], "type": "Point"}, "id": "CdHgfWbTpEeLsBJYzU7wWaa9MvY=", "properties": {"@source_uri": "https://tools.usps.com/UspsToolsRestServices/rest/POLocator/findLocations", "@spider": "usps_collection_boxes", "addr:city": "SEBRING", "addr:country": "US", "addr:postcode": "33870", "addr:state": "FL", "addr:street_address": "518 N RIDGEWOOD DR", "amenity": "post_box", "collection_times": "Mo-Fr 17:00; Sa 16:00", "note": "ON 12/24 AND 12/31, THIS BOX MAY BE COLLECTED AS EARLY AS 12 NOON.", "nsi_id": "unitedstatespostalservice-a77078", "operator": "United States Postal Service", "operator:short": "USPS", "operator:type": "public", "operator:wikidata": "Q668687", "ref": "3387000028"}, "type": "Feature"}
{"geometry": {"coordinates": [-81.439475, 27.500605], "type": "Point"}, "id": "eyTciVDbGgVpjOsXDXOrVsMtWMI=", "properties": {"@source_uri": "https://tools.usps.com/UspsToolsRestServices/rest/POLocator/findLocations", "@spider": "usps_collection_boxes", "addr:city": "SEBRING", "addr:country": "US", "addr:postcode": "33870", "addr:state": "FL", "addr:street_address": "6750 US HIGHWAY 27 N", "amenity": "post_box", "collection_times": "Mo-Sa 12:00", "nsi_id": "unitedstatespostalservice-a77078", "operator": "United States Postal Service", "operator:short": "USPS", "operator:type": "public", "operator:wikidata": "Q668687", "ref": "3387000032"}, "type": "Feature"}
{"geometry": {"coordinates": [-81.495701335, 27.517810503], "type": "Point"}, "id": "tl18W-RKY861Sk63ZbbB0f_1s_M=", "properties": {"@source_uri": "https://tools.usps.com/UspsToolsRestServices/rest/POLocator/findLocations", "@spider": "usps_collection_boxes", "addr:city": "SEBRING", "addr:country": "US", "addr:postcode": "33870", "addr:state": "FL", "addr:street_address": "3750 US HIGHWAY 27 N", "amenity": "post_box", "collection_times": "Mo-Fr 15:30; Sa 12:20", "note": "ON 12/24 AND 12/31, THIS BOX MAY BE COLLECTED AS EARLY AS 12 NOON.", "nsi_id": "unitedstatespostalservice-a77078", "operator": "United States Postal Service", "operator:short": "USPS", "operator:type": "public", "operator:wikidata": "Q668687", "ref": "3387000033"}, "type": "Feature"}
{"geometry": {"coordinates": [-81.492478016, 27.513526862], "type": "Point"}, "id": "IZgNjSINIioP7Els6sWocst8_GM=", "properties": {"@source_uri": "https://tools.usps.com/UspsToolsRestServices/rest/POLocator/findLocations", "@spider": "usps_collection_boxes", "addr:city": "SEBRING", "addr:country": "US", "addr:postcode": "33870", "addr:state": "FL", "addr:street_address": "800 SEBRING SQ", "amenity": "post_box", "collection_times": "Mo-Fr 15:30; Sa 12:15", "note": "ON 12/24 AND 12/31, THIS BOX MAY BE COLLECTED AS EARLY AS 12 NOON.", "nsi_id": "unitedstatespostalservice-a77078", "operator": "United States Postal Service", "operator:short": "USPS", "operator:type": "public", "operator:wikidata": "Q668687", "ref": "3387000037"}, "type": "Feature"}
{"geometry": {"coordinates": [-81.43957, 27.50009], "type": "Point"}, "id": "_YE7Gxo09IRXo05CoU6mmQPEty4=", "properties": {"@source_uri": "https://tools.usps.com/UspsToolsRestServices/rest/POLocator/findLocations", "@spider": "usps_collection_boxes", "addr:city": "SEBRING", "addr:country": "US", "addr:postcode": "33870", "addr:state": "FL", "addr:street_address": "10000 ASH LN", "amenity": "post_box", "collection_times": "Mo-Sa 12:00", "nsi_id": "unitedstatespostalservice-a77078", "operator": "United States Postal Service", "operator:short": "USPS", "operator:type": "public", "operator:wikidata": "Q668687", "ref": "3387000038"}, "type": "Feature"}
{"geometry": {"coordinates": [-81.507220411, 27.517504063], "type": "Point"}, "id": "Y0vvfUlf9fst7AiPiFEkspmcQRc=", "properties": {"@source_uri": "https://tools.usps.com/UspsToolsRestServices/rest/POLocator/findLocations", "@spider": "usps_collection_boxes", "addr:city": "SEBRING", "addr:country": "US", "addr:postcode": "33870", "addr:state": "FL", "addr:street_address": "3000 TANGLEWOOD PKWY", "amenity": "post_box", "collection_times": "Mo-Sa 11:00", "nsi_id": "unitedstatespostalservice-a77078", "operator": "United States Postal Service", "operator:short": "USPS", "operator:type": "public", "operator:wikidata": "Q668687", "ref": "3387000044"}, "type": "Feature"}
{"geometry": {"coordinates": [-81.488340066, 27.488551418], "type": "Point"}, "id": "GIlorqAgL781KjEbk0EfH7Lp7sc=", "properties": {"@source_uri": "https://tools.usps.com/UspsToolsRestServices/rest/POLocator/findLocations", "@spider": "usps_collection_boxes", "addr:city": "SEBRING", "addr:country": "US", "addr:postcode": "33870", "addr:state": "FL", "addr:street_address": "829 MALL RING RD", "amenity": "post_box", "collection_times": "Mo-Fr 17:00; Sa 16:30", "note": "ON 12/24 AND 12/31, THIS BOX MAY BE COLLECTED AS EARLY AS 12 NOON.", "nsi_id": "unitedstatespostalservice-a77078", "operator": "United States Postal Service", "operator:short": "USPS", "operator:type": "public", "operator:wikidata": "Q668687", "ref": "3387000046"}, "type": "Feature"}
{"geometry": {"coordinates": [-81.439619552, 27.500081229], "type": "Point"}, "id": "WK_JamqwTTnLXsELsnJY7WreL44=", "properties": {"@source_uri": "https://tools.usps.com/UspsToolsRestServices/rest/POLocator/findLocations", "@spider": "usps_collection_boxes", "addr:city": "SEBRING", "addr:country": "US", "addr:postcode": "33870", "addr:state": "FL", "addr:street_address": "518 N RIDGEWOOD DR", "amenity": "post_box", "collection_times": "Mo-Fr 16:30; Sa 16:00", "indoor": "yes", "note": "ON 12/24 AND 12/31, THIS BOX MAY BE COLLECTED AS EARLY AS 12 NOON.", "nsi_id": "unitedstatespostalservice-a77078", "operator": "United States Postal Service", "operator:short": "USPS", "operator:type": "public", "operator:wikidata": "Q668687", "ref": "3387000048"}, "type": "Feature"}
{"geometry": {"coordinates": [-81.439619552, 27.500081229], "type": "Point"}, "id": "RYot9qVG4s0suB6FTU8cLXZfhOc=", "properties": {"@source_uri": "https://tools.usps.com/UspsToolsRestServices/rest/POLocator/findLocations", "@spider": "usps_collection_boxes", "addr:city": "SEBRING", "addr:country": "US", "addr:postcode": "33870", "addr:state": "FL", "addr:street_address": "518 N RIDGEWOOD DR", "amenity": "post_box", "collection_times": "Mo-Fr 16:30; Sa 16:00", "indoor": "yes", "note": "ON 12/24 AND 12/31, THIS BOX MAY BE COLLECTED AS EARLY AS 12 NOON.", "nsi_id": "unitedstatespostalservice-a77078", "operator": "United States Postal Service", "operator:short": "USPS", "operator:type": "public", "operator:wikidata": "Q668687", "ref": "3387000049"}, "type": "Feature"}
{"geometry": {"coordinates": [-81.488340066, 27.488551418], "type": "Point"}, "id": "HWlSc4U69A4dJEJZOt2Lw-gqVdk=", "properties": {"@source_uri": "https://tools.usps.com/UspsToolsRestServices/rest/POLocator/findLocations", "@spider": "usps_collection_boxes", "addr:city": "SEBRING", "addr:country": "US", "addr:postcode": "33870", "addr:state": "FL", "addr:street_address": "829 MALL RING RD", "amenity": "post_box", "collection_times": "Mo-Fr 16:30", "indoor": "yes", "note": "ON 12/24 AND 12/31, THIS BOX MAY BE COLLECTED AS EARLY AS 12 NOON.", "nsi_id": "unitedstatespostalservice-a77078", "operator": "United States Postal Service", "operator:short": "USPS", "operator:type": "public", "operator:wikidata": "Q668687", "ref": "3387000052"}, "type": "Feature"}
{"geometry": {"coordinates": [-81.439619552, 27.500081229], "type": "Point"}, "id": "U03xVRsUDQYJUm2MisEYZttTpDQ=", "properties": {"@source_uri": "https://tools.usps.com/UspsToolsRestServices/rest/POLocator/findLocations", "@spider": "usps_collection_boxes", "addr:city": "SEBRING", "addr:country": "US", "addr:postcode": "33870", "addr:state": "FL", "addr:street_address": "518 N RIDGEWOOD DR", "amenity": "post_box", "collection_times": "Mo-Fr 16:30", "indoor": "yes", "note": "ON 12/24 AND 12/31, THIS BOX MAY BE COLLECTED AS EARLY AS 12 NOON.", "nsi_id": "unitedstatespostalservice-a77078", "operator": "United States Postal Service", "operator:short": "USPS", "operator:type": "public", "operator:wikidata": "Q668687", "ref": "3387000053"}, "type": "Feature"}
{"geometry": {"coordinates": [-81.813655, 27.550405], "type": "Point"}, "id": "alvDjASS29GeK1-p3R9SyO5HezQ=", "properties": {"@source_uri": "https://tools.usps.com/UspsToolsRestServices/rest/POLocator/findLocations", "@spider": "usps_collection_boxes", "addr:city": "WAUCHULA", "addr:country": "US", "addr:postcode": "33873", "addr:state": "FL", "addr:street_address": "300 E MAIN ST", "amenity": "post_box", "collection_times": "Mo-Fr 17:00; Sa 15:15", "note": "ON 12/24 AND 12/31, THIS BOX MAY BE COLLECTED AS EARLY AS 12 NOON.", "nsi_id": "unitedstatespostalservice-a77078", "operator": "United States Postal Service", "operator:short": "USPS", "operator:type": "public", "operator:wikidata": "Q668687", "ref": "3387300005"}, "type": "Feature"}
{"geometry": {"coordinates": [-81.813655, 27.550405], "type": "Point"}, "id": "Q-SX_bbM4VW6Qdd6-oVoUORj27w=", "properties": {"@source_uri": "https://tools.usps.com/UspsToolsRestServices/rest/POLocator/findLocations", "@spider": "usps_collection_boxes", "addr:city": "WAUCHULA", "addr:country": "US", "addr:postcode": "33873", "addr:state": "FL", "addr:street_address": "300 E MAIN ST", "amenity": "post_box", "collection_times": "Mo-Fr 16:15; Sa 15:15", "indoor": "yes", "note": "ON 12/24 AND 12/31, THIS BOX MAY BE COLLECTED AS EARLY AS 12 NOON.", "nsi_id": "unitedstatespostalservice-a77078", "operator": "United States Postal Service", "operator:short": "USPS", "operator:type": "public", "operator:wikidata": "Q668687", "ref": "3387300006"}, "type": "Feature"}
{"geometry": {"coordinates": [-81.813655, 27.550405], "type": "Point"}, "id": "HR_4QFvfB71h60fJuwtTannbCxw=", "properties": {"@source_uri": "https://tools.usps.com/UspsToolsRestServices/rest/POLocator/findLocations", "@spider": "usps_collection_boxes", "addr:city": "WAUCHULA", "addr:country": "US", "addr:postcode": "33873", "addr:state": "FL", "addr:street_address": "300 E MAIN ST", "amenity": "post_box", "collection_times": "Mo-Fr 16:00", "indoor": "yes", "note": "ON 12/24 AND 12/31, THIS BOX MAY BE COLLECTED AS EARLY AS 12 NOON.", "nsi_id": "unitedstatespostalservice-a77078", "operator": "United States Postal Service", "operator:short": "USPS", "operator:type": "public", "operator:wikidata": "Q668687", "ref": "3387300012"}, "type": "Feature"}
{"geometry": {"coordinates": [-81.7277457, 28.022685], "type": "Point"}, "id": "huBtyyQAckf83p16dKyT2B4Kj38=", "properties": {"@source_uri": "https://tools.usps.com/UspsToolsRestServices/rest/POLocator/findLocations", "@spider": "usps_collection_boxes", "addr:city": "WINTER HAVEN", "addr:country": "US", "addr:postcode": "33880", "addr:state": "FL", "addr:street_address": "111 W CENTRAL AVE", "amenity": "post_box", "collection_times": "Mo-Fr 17:00; Sa 16:30", "note": "ON 12/24 AND 12/31, THIS BOX MAY BE COLLECTED AS EARLY AS 12 NOON.", "nsi_id": "unitedstatespostalservice-a77078", "operator": "United States Postal Service", "operator:short": "USPS", "operator:type": "public", "operator:wikidata": "Q668687", "ref": "3388000044"}, "type": "Feature"}
{"geometry": {"coordinates": [-81.7273016, 28.022514], "type": "Point"}, "id": "nj-YCDUwulgR32WN-5H17xbx0E0=", "properties": {"@source_uri": "https://tools.usps.com/UspsToolsRestServices/rest/POLocator/findLocations", "@spider": "usps_collection_boxes", "addr:city": "WINTER HAVEN", "addr:country": "US", "addr:postcode": "33880", "addr:state": "FL", "addr:street_address": "111 W CENTRAL AVE", "amenity": "post_box", "collection_times": "Mo-Fr 17:00; Sa 16:30", "name": "USPS COLLECTION BOX - APC", "note": "ON 12/24 AND 12/31, THIS BOX MAY BE COLLECTED AS EARLY AS 12 NOON.", "nsi_id": "unitedstatespostalservice-a77078", "operator": "United States Postal Service", "operator:short": "USPS", "operator:type": "public", "operator:wikidata": "Q668687", "ref": "3388000070"}, "type": "Feature"}
{"geometry": {"coordinates": [-81.72732896, 28.022136421], "type": "Point"}, "id": "lI44F1CNYAGV2uPxCn7p4hRxcm0=", "properties": {"@source_uri": "https://tools.usps.com/UspsToolsRestServices/rest/POLocator/findLocations", "@spider": "usps_collection_boxes", "addr:city": "WINTER HAVEN", "addr:country": "US", "addr:postcode": "33880", "addr:state": "FL", "addr:street_address": "111 W CENTRAL AVE", "amenity": "post_box", "collection_times": "Mo-Fr 18:00", "indoor": "yes", "note": "ON 12/24 AND 12/31, THIS BOX MAY BE COLLECTED AS EARLY AS 12 NOON.", "nsi_id": "unitedstatespostalservice-a77078", "operator": "United States Postal Service", "operator:short": "USPS", "operator:type": "public", "operator:wikidata": "Q668687", "ref": "3388000074"}, "type": "Feature"}
{"geometry": {"coordinates": [-81.7259923, 28.027336], "type": "Point"}, "id": "9Qjrw2OLj01mNRtsTv0KpE2e0KA=", "properties": {"@source_uri": "https://tools.usps.com/UspsToolsRestServices/rest/POLocator/findLocations", "@spider": "usps_collection_boxes", "addr:city": "WINTER HAVEN", "addr:country": "US", "addr:postcode": "33881", "addr:state": "FL", "addr:street_address": "200 AVENUE F NE", "amenity": "post_box", "collection_times": "Mo-Sa 11:00", "nsi_id": "unitedstatespostalservice-a77078", "operator": "United States Postal Service", "operator:short": "USPS", "operator:type": "public", "operator:wikidata": "Q668687", "ref": "3388100002"}, "type": "Feature"}
{"geometry": {"coordinates": [-81.72321, 28.04271], "type": "Point"}, "id": "riAHgolsL8f6HpMRaK4ZJZUQIjQ=", "properties": {"@source_uri": "https://tools.usps.com/UspsToolsRestServices/rest/POLocator/findLocations", "@spider": "usps_collection_boxes", "addr:city": "WINTER HAVEN", "addr:country": "US", "addr:postcode": "33881", "addr:state": "FL", "addr:street_address": "1080 HAVENDALE BLVD NW", "amenity": "post_box", "collection_times": "Mo-Sa 10:00", "nsi_id": "unitedstatespostalservice-a77078", "operator": "United States Postal Service", "operator:short": "USPS", "operator:type": "public", "operator:wikidata": "Q668687", "ref": "3388100007"}, "type": "Feature"}
{"geometry": {"coordinates": [-81.72693366, 28.036134], "type": "Point"}, "id": "WRe34rUbawan5kdx4-UHiGGkjIU=", "properties": {"@source_uri": "https://tools.usps.com/UspsToolsRestServices/rest/POLocator/findLocations", "@spider": "usps_collection_boxes", "addr:city": "WINTER HAVEN", "addr:country": "US", "addr:postcode": "33881", "addr:state": "FL", "addr:street_address": "1401 1ST ST N", "amenity": "post_box", "collection_times": "Mo-Fr 17:00; Sa 16:30", "note": "ON 12/24 AND 12/31, THIS BOX MAY BE COLLECTED AS EARLY AS 12 NOON.", "nsi_id": "unitedstatespostalservice-a77078", "operator": "United States Postal Service", "operator:short": "USPS", "operator:type": "public", "operator:wikidata": "Q668687", "ref": "3388100015"}, "type": "Feature"}
{"geometry": {"coordinates": [-81.72693366, 28.036134], "type": "Point"}, "id": "nuuDcFY-cqh9Pxoj4gJ3Ev09WpM=", "properties": {"@source_uri": "https://tools.usps.com/UspsToolsRestServices/rest/POLocator/findLocations", "@spider": "usps_collection_boxes", "addr:city": "WINTER HAVEN", "addr:country": "US", "addr:postcode": "33881", "addr:state": "FL", "addr:street_address": "1401 1ST ST N", "amenity": "post_box", "collection_times": "Mo-Fr 17:00; Sa 16:30", "indoor": "yes", "note": "ON 12/24 AND 12/31, THIS BOX MAY BE COLLECTED AS EARLY AS 12 NOON.", "nsi_id": "unitedstatespostalservice-a77078", "operator": "United States Postal Service", "operator:short": "USPS", "operator:type": "public", "operator:wikidata": "Q668687", "ref": "3388100021"}, "type": "Feature"}
{"geometry": {"coordinates": [-81.72693366, 28.036134], "type": "Point"}, "id": "rCKXJoE6VhxmZfJDN4jx5WSFmfg=", "properties": {"@source_uri": "https://tools.usps.com/UspsToolsRestServices/rest/POLocator/findLocations", "@spider": "usps_collection_boxes", "addr:city": "WINTER HAVEN", "addr:country": "US", "addr:postcode": "33881", "addr:state": "FL", "addr:street_address": "1401 1ST ST N", "amenity": "post_box", "collection_times": "Mo-Fr 17:00; Sa 16:30", "indoor": "yes", "note": "ON 12/24 AND 12/31, THIS BOX MAY BE COLLECTED AS EARLY AS 12 NOON.", "nsi_id": "unitedstatespostalservice-a77078", "operator": "United States Postal Service", "operator:short": "USPS", "operator:type": "public", "operator:wikidata": "Q668687", "ref": "3388100031"}, "type": "Feature"}
{"geometry": {"coordinates": [-81.72693366, 28.036134], "type": "Point"}, "id": "sJfdU92DrMTt2YWwYjCRUqC4lFQ=", "properties": {"@source_uri": "https://tools.usps.com/UspsToolsRestServices/rest/POLocator/findLocations", "@spider": "usps_collection_boxes", "addr:city": "WINTER HAVEN", "addr:country": "US", "addr:postcode": "33881", "addr:state": "FL", "addr:street_address": "1401 1ST ST N", "amenity": "post_box", "collection_times": "Mo-Fr 16:30", "indoor": "yes", "note": "ON 12/24 AND 12/31, THIS BOX MAY BE COLLECTED AS EARLY AS 12 NOON.", "nsi_id": "unitedstatespostalservice-a77078", "operator": "United States Postal Service", "operator:short": "USPS", "operator:type": "public", "operator:wikidata": "Q668687", "ref": "3388100033"}, "type": "Feature"}
{"geometry": {"coordinates": [-81.796337, 27.496062], "type": "Point"}, "id": "Q-yE_MNvpCSbKJd2ydBdizoAPPY=", "properties": {"@source_uri": "https://tools.usps.com/UspsToolsRestServices/rest/POLocator/findLocations", "@spider": "usps_collection_boxes", "addr:city": "ZOLFO SPRINGS", "addr:country": "US", "addr:postcode": "33890", "addr:state": "FL", "addr:street_address": "3141 US HIGHWAY 17 S", "amenity": "post_box", "collection_times": "Mo-Fr 16:15; Sa 12:00", "note": "ON 12/24 AND 12/31, THIS BOX MAY BE COLLECTED AS EARLY AS 12 NOON.", "nsi_id": "unitedstatespostalservice-a77078", "operator": "United States Postal Service", "operator:short": "USPS", "operator:type": "public", "operator:wikidata": "Q668687", "ref": "3389000001"}, "type": "Feature"}
{"geometry": {"coordinates": [-81.796341497, 27.496017], "type": "Point"}, "id": "GgeO_jBnUg4nHVdHOEIe2vLXvGs=", "properties": {"@source_uri": "https://tools.usps.com/UspsToolsRestServices/rest/POLocator/findLocations", "@spider": "usps_collection_boxes", "addr:city": "ZOLFO SPRINGS", "addr:country": "US", "addr:postcode": "33890", "addr:state": "FL", "addr:street_address": "3141 US HIGHWAY 17 S", "amenity": "post_box", "collection_times": "Mo-Fr 16:15", "indoor": "yes", "note": "ON 12/24 AND 12/31, THIS BOX MAY BE COLLECTED AS EARLY AS 12 NOON.", "nsi_id": "unitedstatespostalservice-a77078", "operator": "United States Postal Service", "operator:short": "USPS", "operator:type": "public", "operator:wikidata": "Q668687", "ref": "3389000006"}, "type": "Feature"}
