{"geometry": {"coordinates": [-81.8698312, 26.641792], "type": "Point"}, "id": "CFrNRkRDq3oa6vFsj_R9BE-Z31k=", "properties": {"@spider": "usps_collection_boxes", "addr:city": "FORT MYERS", "addr:country": "US", "addr:full": "2115 SECOND ST", "addr:postcode": "33901", "addr:state": "FL", "brand": "USPS", "brand:wikidata": "Q668687", "collection_times": "Mo-Fr 11:00; Sa 10:00", "name": "USPS COLLECTION BOX - BLUE BOX", "ref": "3390100010"}, "type": "Feature"}
{"geometry": {"coordinates": [-81.8680841, 26.645242], "type": "Point"}, "id": "g5EhClKBw9sTAlQlYIyeBw4G6jw=", "properties": {"@spider": "usps_collection_boxes", "addr:city": "FORT MYERS", "addr:country": "US", "addr:full": "2400 FIRST ST", "addr:postcode": "33901", "addr:state": "FL", "brand": "USPS", "brand:wikidata": "Q668687", "collection_times": "Mo-Fr 13:00; Sa 11:00", "name": "USPS COLLECTION BOX - BLUE BOX", "note": "ON 12/24 AND 12/31, THIS BOX MAY BE COLLECTED AS EARLY AS 12 NOON.", "ref": "3390100011"}, "type": "Feature"}
{"geometry": {"coordinates": [-81.8680441, 26.645252], "type": "Point"}, "id": "wnrSrvgXSXI6oaF0p3FPaeocZ8o=", "properties": {"@spider": "usps_collection_boxes", "addr:city": "FORT MYERS", "addr:country": "US", "addr:full": "2400 FIRST ST", "addr:postcode": "33901", "addr:state": "FL", "brand": "USPS", "brand:wikidata": "Q668687", "collection_times": "Mo-Fr 13:00; Sa 11:00", "name": "USPS COLLECTION BOX - BLUE BOX", "note": "ON 12/24 AND 12/31, THIS BOX MAY BE COLLECTED AS EARLY AS 12 NOON.", "ref": "3390100012"}, "type": "Feature"}
{"geometry": {"coordinates": [-81.8717095, 26.641683], "type": "Point"}, "id": "ni4MMMXMOvLP1yRwiL3FG7chJZw=", "properties": {"@spider": "usps_collection_boxes", "addr:city": "FORT MYERS", "addr:country": "US", "addr:full": "2000 MAIN ST", "addr:postcode": "33901", "addr:state": "FL", "brand": "USPS", "brand:wikidata": "Q668687", "collection_times": "Mo-Sa 12:00", "name": "USPS COLLECTION BOX - BLUE BOX", "ref": "3390100013"}, "type": "Feature"}
{"geometry": {"coordinates": [-81.8724242436, 26.6441075323], "type": "Point"}, "id": "MmnjaBAqcjAnv1XXr0ij_FQfYgk=", "properties": {"@spider": "usps_collection_boxes", "addr:city": "FORT MYERS", "addr:country": "US", "addr:full": "1350 MONROE ST", "addr:postcode": "33901", "addr:state": "FL", "brand": "USPS", "brand:wikidata": "Q668687", "collection_times": "Mo-Fr 17:00; Sa 14:00", "name": "USPS COLLECTION BOX - BLUE BOX", "note": "ON 12/24 AND 12/31, THIS BOX MAY BE COLLECTED AS EARLY AS 12 NOON.", "ref": "3390100039"}, "type": "Feature"}
{"geometry": {"coordinates": [-81.8633876, 26.641671], "type": "Point"}, "id": "3qLcS9WT7vum8WW00Gc2_clNI8U=", "properties": {"@spider": "usps_collection_boxes", "addr:city": "FORT MYERS", "addr:country": "US", "addr:full": "2480 THOMPSON ST", "addr:postcode": "33901", "addr:state": "FL", "brand": "USPS", "brand:wikidata": "Q668687", "collection_times": "Mo-Sa 13:00", "name": "USPS COLLECTION BOX - BLUE BOX", "note": "ON 12/24 AND 12/31, THIS BOX MAY BE COLLECTED AS EARLY AS 12 NOON.", "ref": "3390100052"}, "type": "Feature"}
{"geometry": {"coordinates": [-81.8675154, 26.637376], "type": "Point"}, "id": "mLJ5i045vIrrq9lKkU-13bYhczA=", "properties": {"@spider": "usps_collection_boxes", "addr:city": "FORT MYERS", "addr:country": "US", "addr:full": "2295 VICTORIA AVE", "addr:postcode": "33901", "addr:state": "FL", "brand": "USPS", "brand:wikidata": "Q668687", "collection_times": "Mo-Sa 10:00", "name": "USPS COLLECTION BOX - BLUE BOX", "ref": "3390100058"}, "type": "Feature"}
{"geometry": {"coordinates": [-81.8675091, 26.637357], "type": "Point"}, "id": "rjoCRv6Z9wgYkQgdETea7UawH2A=", "properties": {"@spider": "usps_collection_boxes", "addr:city": "FORT MYERS", "addr:country": "US", "addr:full": "2295 VICTORIA AVE", "addr:postcode": "33901", "addr:state": "FL", "brand": "USPS", "brand:wikidata": "Q668687", "collection_times": "Mo-Sa 10:00", "name": "USPS COLLECTION BOX - BLUE BOX", "ref": "3390100059"}, "type": "Feature"}
{"geometry": {"coordinates": [-81.8633255, 26.641605], "type": "Point"}, "id": "o0TK8KmmTFg5XKvdb0VbiMXRw6U=", "properties": {"@spider": "usps_collection_boxes", "addr:city": "FORT MYERS", "addr:country": "US", "addr:full": "2480 THOMPSON ST", "addr:postcode": "33901", "addr:state": "FL", "brand": "USPS", "brand:wikidata": "Q668687", "collection_times": "Mo-Sa 13:00", "name": "USPS COLLECTION BOX - BLUE BOX", "note": "ON 12/24 AND 12/31, THIS BOX MAY BE COLLECTED AS EARLY AS 12 NOON.", "ref": "3390100061"}, "type": "Feature"}
{"geometry": {"coordinates": [-81.8698587, 26.64176], "type": "Point"}, "id": "w9oVXvo-2Ya_rDy-KnQO05xRyEw=", "properties": {"@spider": "usps_collection_boxes", "addr:city": "FORT MYERS", "addr:country": "US", "addr:full": "2115 SECOND ST", "addr:postcode": "33901", "addr:state": "FL", "brand": "USPS", "brand:wikidata": "Q668687", "collection_times": "Mo-Fr 11:00; Sa 10:00", "name": "USPS COLLECTION BOX - BLUE BOX", "ref": "3390100069"}, "type": "Feature"}
{"geometry": {"coordinates": [-81.8717199, 26.641681], "type": "Point"}, "id": "2XhwI1avr6CktLlpVdBcy67bsJI=", "properties": {"@spider": "usps_collection_boxes", "addr:city": "FORT MYERS", "addr:country": "US", "addr:full": "2000 MAIN ST", "addr:postcode": "33901", "addr:state": "FL", "brand": "USPS", "brand:wikidata": "Q668687", "collection_times": "Mo-Sa 12:00", "name": "USPS COLLECTION BOX - BLUE BOX", "ref": "3390100070"}, "type": "Feature"}
{"geometry": {"coordinates": [-81.8567313, 26.633558], "type": "Point"}, "id": "XE6HDy7X3XGy7fEB1QGWmnJBGUc=", "properties": {"@spider": "usps_collection_boxes", "addr:city": "FORT MYERS", "addr:country": "US", "addr:full": "2736 EDISON AVE", "addr:postcode": "33901", "addr:state": "FL", "brand": "USPS", "brand:wikidata": "Q668687", "collection_times": "Mo-Sa 13:30", "name": "USPS COLLECTION BOX - BLUE BOX", "note": "ON 12/24 AND 12/31, THIS BOX MAY BE COLLECTED AS EARLY AS 12 NOON.", "ref": "3390100077"}, "type": "Feature"}
{"geometry": {"coordinates": [-81.872424244, 26.644107532], "type": "Point"}, "id": "ZcPyKRAWhP9UDSXCo4L7y9agvbU=", "properties": {"@spider": "usps_collection_boxes", "addr:city": "FORT MYERS", "addr:country": "US", "addr:full": "1350 MONROE ST", "addr:postcode": "33901", "addr:state": "FL", "brand": "USPS", "brand:wikidata": "Q668687", "collection_times": "Mo-Fr 17:00", "name": "USPS COLLECTION BOX - PO LOBBY", "note": "ON 12/24 AND 12/31, THIS BOX MAY BE COLLECTED AS EARLY AS 12 NOON.", "ref": "3390100081"}, "type": "Feature"}
{"geometry": {"coordinates": [-81.8837505, 26.684883], "type": "Point"}, "id": "zQFddcqYtI9nvry9wvHihHKi4Tc=", "properties": {"@spider": "usps_collection_boxes", "addr:city": "N FT MYERS", "addr:country": "US", "addr:full": "1882 N TAMIAMI TRL", "addr:postcode": "33903", "addr:state": "FL", "brand": "USPS", "brand:wikidata": "Q668687", "collection_times": "Mo-Fr 17:00; Sa 15:00", "name": "USPS COLLECTION BOX - BLUE BOX", "note": "ON 12/24 AND 12/31, THIS BOX MAY BE COLLECTED AS EARLY AS 12 NOON.", "ref": "3390300007"}, "type": "Feature"}
{"geometry": {"coordinates": [-81.8891999, 26.661357], "type": "Point"}, "id": "Amm7Hj-T3_9MSX9lJi7deMu8cOA=", "properties": {"@spider": "usps_collection_boxes", "addr:city": "N FT MYERS", "addr:country": "US", "addr:full": "3434 HANCOCK BRIDGE PKWY", "addr:postcode": "33903", "addr:state": "FL", "brand": "USPS", "brand:wikidata": "Q668687", "collection_times": "Mo-Fr 15:00; Sa 13:00", "name": "USPS COLLECTION BOX - BLUE BOX", "note": "ON 12/24 AND 12/31, THIS BOX MAY BE COLLECTED AS EARLY AS 12 NOON.", "ref": "3390300016"}, "type": "Feature"}
{"geometry": {"coordinates": [-81.884284336, 26.684762603], "type": "Point"}, "id": "N6_adEr5qwx7q_560gxoVsp5sz8=", "properties": {"@spider": "usps_collection_boxes", "addr:city": "N FT MYERS", "addr:country": "US", "addr:full": "1882 N TAMIAMI TRL", "addr:postcode": "33903", "addr:state": "FL", "brand": "USPS", "brand:wikidata": "Q668687", "collection_times": "Mo-Fr 17:00", "name": "USPS COLLECTION BOX - PO LOBBY", "note": "ON 12/24 AND 12/31, THIS BOX MAY BE COLLECTED AS EARLY AS 12 NOON.", "ref": "3390300032"}, "type": "Feature"}
{"geometry": {"coordinates": [-81.9480110634, 26.5637956587], "type": "Point"}, "id": "ZmeNMtHcD0VQXSs2Ja6XT_8cCBY=", "properties": {"@spider": "usps_collection_boxes", "addr:city": "CAPE CORAL", "addr:country": "US", "addr:full": "1327 SE 47TH TER", "addr:postcode": "33904", "addr:state": "FL", "brand": "USPS", "brand:wikidata": "Q668687", "collection_times": "Mo-Sa 13:00", "name": "USPS COLLECTION BOX - BLUE BOX", "note": "ON 12/24 AND 12/31, THIS BOX MAY BE COLLECTED AS EARLY AS 12 NOON.", "ref": "3390400001"}, "type": "Feature"}
{"geometry": {"coordinates": [-81.941747, 26.563463], "type": "Point"}, "id": "jIqxB-AEtWDcu_UMj6zm8CdmqZI=", "properties": {"@spider": "usps_collection_boxes", "addr:city": "CAPE CORAL", "addr:country": "US", "addr:full": "4722 SE 17TH AVE", "addr:postcode": "33904", "addr:state": "FL", "brand": "USPS", "brand:wikidata": "Q668687", "collection_times": "Mo-Fr 17:00; Sa 13:00", "name": "USPS COLLECTION BOX - BLUE BOX", "note": "ON 12/24 AND 12/31, THIS BOX MAY BE COLLECTED AS EARLY AS 12 NOON.", "ref": "3390400006"}, "type": "Feature"}
{"geometry": {"coordinates": [-81.9412298277, 26.6059546661], "type": "Point"}, "id": "Ku_N39sKb_0dReYQQrJtcXVrosA=", "properties": {"@spider": "usps_collection_boxes", "addr:city": "CAPE CORAL", "addr:country": "US", "addr:full": "2503 DEL PRADO BLVD S", "addr:postcode": "33904", "addr:state": "FL", "brand": "USPS", "brand:wikidata": "Q668687", "collection_times": "Mo-Sa 15:45", "name": "USPS COLLECTION BOX - BLUE BOX", "note": "ON 12/24 AND 12/31, THIS BOX MAY BE COLLECTED AS EARLY AS 12 NOON.", "ref": "3390400013"}, "type": "Feature"}
{"geometry": {"coordinates": [-81.941751752, 26.563428], "type": "Point"}, "id": "zPfMqC0OQAFo6UDStYHdLvZgT5s=", "properties": {"@spider": "usps_collection_boxes", "addr:city": "CAPE CORAL", "addr:country": "US", "addr:full": "4722 SE 17TH AVE", "addr:postcode": "33904", "addr:state": "FL", "brand": "USPS", "brand:wikidata": "Q668687", "collection_times": "Mo-Fr 17:30", "name": "USPS COLLECTION BOX - PO LOBBY", "note": "ON 12/24 AND 12/31, THIS BOX MAY BE COLLECTED AS EARLY AS 12 NOON.", "ref": "3390400021"}, "type": "Feature"}
{"geometry": {"coordinates": [-81.818495331, 26.673007626], "type": "Point"}, "id": "EwH7hClxq8ntzFbU-jBMai13RLY=", "properties": {"@spider": "usps_collection_boxes", "addr:city": "FORT MYERS", "addr:country": "US", "addr:full": "4585 PALM BEACH BLVD", "addr:postcode": "33905", "addr:state": "FL", "brand": "USPS", "brand:wikidata": "Q668687", "collection_times": "Mo-Fr 17:00; Sa 12:00", "name": "USPS COLLECTION BOX - BLUE BOX", "note": "ON 12/24 AND 12/31, THIS BOX MAY BE COLLECTED AS EARLY AS 12 NOON.", "ref": "3390500002"}, "type": "Feature"}
{"geometry": {"coordinates": [-81.7204369706, 26.7080192904], "type": "Point"}, "id": "ACxLKm2nIifkGME8ht4ZLtgftT8=", "properties": {"@spider": "usps_collection_boxes", "addr:city": "FORT MYERS", "addr:country": "US", "addr:full": "14561 PALM BEACH BLVD", "addr:postcode": "33905", "addr:state": "FL", "brand": "USPS", "brand:wikidata": "Q668687", "collection_times": "Mo-Sa 12:00", "name": "USPS COLLECTION BOX - BLUE BOX", "ref": "3390500008"}, "type": "Feature"}
{"geometry": {"coordinates": [-81.800818532, 26.6553109198], "type": "Point"}, "id": "tpX_T72tKgc-Lis78P99XAO09P0=", "properties": {"@spider": "usps_collection_boxes", "addr:city": "FORT MYERS", "addr:country": "US", "addr:full": "6050 PLAZA DR", "addr:postcode": "33905", "addr:state": "FL", "brand": "USPS", "brand:wikidata": "Q668687", "collection_times": "Mo-Fr 15:00; Sa 12:00", "name": "USPS COLLECTION BOX - BLUE BOX", "note": "ON 12/24 AND 12/31, THIS BOX MAY BE COLLECTED AS EARLY AS 12 NOON.", "ref": "3390500013"}, "type": "Feature"}
{"geometry": {"coordinates": [-81.7204369706, 26.7080192904], "type": "Point"}, "id": "kdJ7lcBSGz1JpE7SxkseVlPY7Y4=", "properties": {"@spider": "usps_collection_boxes", "addr:city": "FORT MYERS", "addr:country": "US", "addr:full": "14561 PALM BEACH BLVD", "addr:postcode": "33905", "addr:state": "FL", "brand": "USPS", "brand:wikidata": "Q668687", "collection_times": "Mo-Sa 12:00", "name": "USPS COLLECTION BOX - BLUE BOX", "ref": "3390500021"}, "type": "Feature"}
{"geometry": {"coordinates": [-81.818495331, 26.673007626], "type": "Point"}, "id": "_w31vS1ShtyOhT0e_Dq13AjVe0g=", "properties": {"@spider": "usps_collection_boxes", "addr:city": "FORT MYERS", "addr:country": "US", "addr:full": "4585 PALM BEACH BLVD", "addr:postcode": "33905", "addr:state": "FL", "brand": "USPS", "brand:wikidata": "Q668687", "collection_times": "Mo-Fr 17:00", "name": "USPS COLLECTION BOX - PO LOBBY", "note": "ON 12/24 AND 12/31, THIS BOX MAY BE COLLECTED AS EARLY AS 12 NOON.", "ref": "3390500025"}, "type": "Feature"}
{"geometry": {"coordinates": [-81.8756868, 26.554634], "type": "Point"}, "id": "0QPKDR2hjkJlMuATbtgyduu7bZk=", "properties": {"@spider": "usps_collection_boxes", "addr:city": "FORT MYERS", "addr:country": "US", "addr:full": "12734 KENWOOD LN", "addr:postcode": "33907", "addr:state": "FL", "brand": "USPS", "brand:wikidata": "Q668687", "collection_times": "Mo-Fr 15:30; Sa 13:00", "name": "USPS COLLECTION BOX - BLUE BOX", "note": "ON 12/24 AND 12/31, THIS BOX MAY BE COLLECTED AS EARLY AS 12 NOON.", "ref": "3390700001"}, "type": "Feature"}
{"geometry": {"coordinates": [-81.882671781, 26.588672413], "type": "Point"}, "id": "VqGStyB0mI5tlqdL-ADOuEmuluI=", "properties": {"@spider": "usps_collection_boxes", "addr:city": "FORT MYERS", "addr:country": "US", "addr:full": "23 BARKLEY CIR", "addr:postcode": "33907", "addr:state": "FL", "brand": "USPS", "brand:wikidata": "Q668687", "collection_times": "Mo-Sa 13:00", "name": "USPS COLLECTION BOX - BLUE BOX", "note": "ON 12/24 AND 12/31, THIS BOX MAY BE COLLECTED AS EARLY AS 12 NOON.", "ref": "3390700002"}, "type": "Feature"}
{"geometry": {"coordinates": [-81.8580236, 26.593938], "type": "Point"}, "id": "CVusmi1MBPM9GXe93rKqUwbdQbA=", "properties": {"@spider": "usps_collection_boxes", "addr:city": "FORT MYERS", "addr:country": "US", "addr:full": "2655 N AIRPORT RD", "addr:postcode": "33907", "addr:state": "FL", "brand": "USPS", "brand:wikidata": "Q668687", "collection_times": "Mo-Fr 17:00; Sa 14:00", "name": "USPS COLLECTION BOX - BLUE BOX", "note": "ON 12/24 AND 12/31, THIS BOX MAY BE COLLECTED AS EARLY AS 12 NOON.", "ref": "3390700017"}, "type": "Feature"}
{"geometry": {"coordinates": [-81.8711089, 26.551811], "type": "Point"}, "id": "E8RnPbucpkCBXsJSPSnQ1DcMj2w=", "properties": {"@spider": "usps_collection_boxes", "addr:city": "FORT MYERS", "addr:country": "US", "addr:full": "13099 S CLEVELAND AVE", "addr:postcode": "33907", "addr:state": "FL", "brand": "USPS", "brand:wikidata": "Q668687", "collection_times": "Mo-Sa 10:00", "name": "USPS COLLECTION BOX - BLUE BOX", "ref": "3390700022"}, "type": "Feature"}
{"geometry": {"coordinates": [-81.8868101819, 26.5965824027], "type": "Point"}, "id": "e4KmuEpSNDrOrqCr15UIwff8BA8=", "properties": {"@spider": "usps_collection_boxes", "addr:city": "FORT MYERS", "addr:country": "US", "addr:full": "1400 COLONIAL BLVD", "addr:postcode": "33907", "addr:state": "FL", "brand": "USPS", "brand:wikidata": "Q668687", "collection_times": "Mo-Sa 12:00", "name": "USPS COLLECTION BOX - BLUE BOX", "ref": "3390700026"}, "type": "Feature"}
{"geometry": {"coordinates": [-81.8756731, 26.554626], "type": "Point"}, "id": "tbtLF67RFFqW_2vJG5-QWijoEG0=", "properties": {"@spider": "usps_collection_boxes", "addr:city": "FORT MYERS", "addr:country": "US", "addr:full": "12734 KENWOOD LN", "addr:postcode": "33907", "addr:state": "FL", "brand": "USPS", "brand:wikidata": "Q668687", "collection_times": "Mo-Fr 15:30; Sa 13:00", "name": "USPS COLLECTION BOX - BLUE BOX", "note": "ON 12/24 AND 12/31, THIS BOX MAY BE COLLECTED AS EARLY AS 12 NOON.", "ref": "3390700031"}, "type": "Feature"}
{"geometry": {"coordinates": [-81.8799433, 26.558091], "type": "Point"}, "id": "BpqBpAglUtArd1-6PP6DPxcBbP8=", "properties": {"@spider": "usps_collection_boxes", "addr:city": "FORT MYERS", "addr:country": "US", "addr:full": "12681 NEW BRITTANY BLVD", "addr:postcode": "33907", "addr:state": "FL", "brand": "USPS", "brand:wikidata": "Q668687", "collection_times": "Mo-Fr 15:30; Sa 13:00", "name": "USPS COLLECTION BOX - BLUE BOX", "note": "ON 12/24 AND 12/31, THIS BOX MAY BE COLLECTED AS EARLY AS 12 NOON.", "ref": "3390700036"}, "type": "Feature"}
{"geometry": {"coordinates": [-81.8799454, 26.558099], "type": "Point"}, "id": "5mf53JNdE6YDARcR-q2xyAjuj-g=", "properties": {"@spider": "usps_collection_boxes", "addr:city": "FORT MYERS", "addr:country": "US", "addr:full": "12681 NEW BRITTANY BLVD", "addr:postcode": "33907", "addr:state": "FL", "brand": "USPS", "brand:wikidata": "Q668687", "collection_times": "Mo-Fr 15:30; Sa 13:00", "name": "USPS COLLECTION BOX - BLUE BOX", "note": "ON 12/24 AND 12/31, THIS BOX MAY BE COLLECTED AS EARLY AS 12 NOON.", "ref": "3390700037"}, "type": "Feature"}
{"geometry": {"coordinates": [-81.858681, 26.593454], "type": "Point"}, "id": "zpLTcsXoFoqxPyEUsCxpnag6jS0=", "properties": {"@spider": "usps_collection_boxes", "addr:city": "FORT MYERS", "addr:country": "US", "addr:full": "2655 N AIRPORT RD", "addr:postcode": "33907", "addr:state": "FL", "brand": "USPS", "brand:wikidata": "Q668687", "collection_times": "Mo-Fr 17:00; Sa 14:00", "name": "USPS COLLECTION BOX - APC", "note": "ON 12/24 AND 12/31, THIS BOX MAY BE COLLECTED AS EARLY AS 12 NOON.", "ref": "3390700068"}, "type": "Feature"}
{"geometry": {"coordinates": [-81.858713307, 26.59346951], "type": "Point"}, "id": "La8oygnwbcquakJeLa0cpGxuerI=", "properties": {"@spider": "usps_collection_boxes", "addr:city": "FORT MYERS", "addr:country": "US", "addr:full": "2655 N AIRPORT RD", "addr:postcode": "33907", "addr:state": "FL", "brand": "USPS", "brand:wikidata": "Q668687", "collection_times": "Mo-Fr 17:30", "name": "USPS COLLECTION BOX - PO LOBBY", "note": "ON 12/24 AND 12/31, THIS BOX MAY BE COLLECTED AS EARLY AS 12 NOON.", "ref": "3390700076"}, "type": "Feature"}
{"geometry": {"coordinates": [-81.912991, 26.504681], "type": "Point"}, "id": "WUxoWlVQ3VsRX2hpp2sTuW_RVkY=", "properties": {"@spider": "usps_collection_boxes", "addr:city": "FORT MYERS", "addr:country": "US", "addr:full": "9981 S HEALTHPARK DR", "addr:postcode": "33908", "addr:state": "FL", "brand": "USPS", "brand:wikidata": "Q668687", "collection_times": "Mo-Fr 17:00; Sa 14:30", "name": "USPS COLLECTION BOX - BLUE BOX", "note": "ON 12/24 AND 12/31, THIS BOX MAY BE COLLECTED AS EARLY AS 12 NOON.", "ref": "3390800020"}, "type": "Feature"}
{"geometry": {"coordinates": [-81.942111, 26.516098], "type": "Point"}, "id": "xIUyLoBiW_m-WFu2GmvBVyLJ4YQ=", "properties": {"@spider": "usps_collection_boxes", "addr:city": "FORT MYERS", "addr:country": "US", "addr:full": "11600 GLADIOLUS DR", "addr:postcode": "33908", "addr:state": "FL", "brand": "USPS", "brand:wikidata": "Q668687", "collection_times": "Mo-Fr 17:00; Sa 14:30", "name": "USPS COLLECTION BOX - BLUE BOX", "note": "ON 12/24 AND 12/31, THIS BOX MAY BE COLLECTED AS EARLY AS 12 NOON.", "ref": "3390800026"}, "type": "Feature"}
{"geometry": {"coordinates": [-81.8572519, 26.500676], "type": "Point"}, "id": "LqVtPipYcvc4u34BhKnGcKWKcAE=", "properties": {"@spider": "usps_collection_boxes", "addr:city": "FORT MYERS", "addr:country": "US", "addr:full": "16520 S TAMIAMI TRL", "addr:postcode": "33908", "addr:state": "FL", "brand": "USPS", "brand:wikidata": "Q668687", "collection_times": "Mo-Fr 13:00; Sa 10:00", "name": "USPS COLLECTION BOX - BLUE BOX", "note": "ON 12/24 AND 12/31, THIS BOX MAY BE COLLECTED AS EARLY AS 12 NOON.", "ref": "3390800029"}, "type": "Feature"}
{"geometry": {"coordinates": [-81.8420869679, 26.5447000026], "type": "Point"}, "id": "uJhNVF2FVQxgsdZxiLOnpUqWrDw=", "properties": {"@spider": "usps_collection_boxes", "addr:city": "FT MYERS", "addr:country": "US", "addr:full": "6900 DANIELS PKWY", "addr:postcode": "33912", "addr:state": "FL", "brand": "USPS", "brand:wikidata": "Q668687", "collection_times": "Mo-Fr 15:00; Sa 14:00", "name": "USPS COLLECTION BOX - BLUE BOX", "note": "ON 12/24 AND 12/31, THIS BOX MAY BE COLLECTED AS EARLY AS 12 NOON.", "ref": "3391200028"}, "type": "Feature"}
{"geometry": {"coordinates": [-81.858271126, 26.527937859], "type": "Point"}, "id": "EUB72wJgOc7W4cV0VuxF9uSRD4w=", "properties": {"@spider": "usps_collection_boxes", "addr:city": "FT MYERS", "addr:country": "US", "addr:full": "14651 SIX MILE CYPRESS PKWY", "addr:postcode": "33912", "addr:state": "FL", "brand": "USPS", "brand:wikidata": "Q668687", "collection_times": "Mo-Fr 16:00; Sa 15:00", "name": "USPS COLLECTION BOX - BLUE BOX", "note": "ON 12/24 AND 12/31, THIS BOX MAY BE COLLECTED AS EARLY AS 12 NOON.", "ref": "3391200032"}, "type": "Feature"}
{"geometry": {"coordinates": [-81.791585, 26.538157], "type": "Point"}, "id": "82d_tooj9tDHOHyDxnnZq4Nvj8g=", "properties": {"@spider": "usps_collection_boxes", "addr:city": "FORT MYERS", "addr:country": "US", "addr:full": "14080 JETPORT LOOP", "addr:postcode": "33913", "addr:state": "FL", "brand": "USPS", "brand:wikidata": "Q668687", "collection_times": "Mo-Fr 19:30; Sa 18:00", "name": "USPS COLLECTION BOX - BLUE BOX", "note": "ON 12/24 AND 12/31, THIS BOX MAY BE COLLECTED AS EARLY AS 12 NOON.", "ref": "3391300002"}, "type": "Feature"}
{"geometry": {"coordinates": [-81.791582, 26.53788], "type": "Point"}, "id": "qYKCe7naJbjRJ0zCQUg60OWAGs0=", "properties": {"@spider": "usps_collection_boxes", "addr:city": "FORT MYERS", "addr:country": "US", "addr:full": "14080 JETPORT LOOP", "addr:postcode": "33913", "addr:state": "FL", "brand": "USPS", "brand:wikidata": "Q668687", "collection_times": "Mo-Fr 19:30; Sa 18:00", "name": "USPS COLLECTION BOX - BLUE BOX", "note": "ON 12/24 AND 12/31, THIS BOX MAY BE COLLECTED AS EARLY AS 12 NOON.", "ref": "3391300003"}, "type": "Feature"}
{"geometry": {"coordinates": [-81.749645477, 26.571829231], "type": "Point"}, "id": "HX-RZ1ZGxtTA6_OU7_iaFRkygkQ=", "properties": {"@spider": "usps_collection_boxes", "addr:city": "FORT MYERS", "addr:country": "US", "addr:full": "11900 FAIRWAY LAKES DR", "addr:postcode": "33913", "addr:state": "FL", "brand": "USPS", "brand:wikidata": "Q668687", "collection_times": "Mo-Sa 13:00", "name": "USPS COLLECTION BOX - BLUE BOX", "note": "ON 12/24 AND 12/31, THIS BOX MAY BE COLLECTED AS EARLY AS 12 NOON.", "ref": "3391300006"}, "type": "Feature"}
{"geometry": {"coordinates": [-82.0077799, 26.560436], "type": "Point"}, "id": "01mGSZ67Y4e0qM41eCDoxAWNeqc=", "properties": {"@spider": "usps_collection_boxes", "addr:city": "CAPE CORAL", "addr:country": "US", "addr:full": "1616 CAPE CORAL PKWY W", "addr:postcode": "33914", "addr:state": "FL", "brand": "USPS", "brand:wikidata": "Q668687", "collection_times": "Mo-Sa 13:00", "name": "USPS COLLECTION BOX - BLUE BOX", "note": "ON 12/24 AND 12/31, THIS BOX MAY BE COLLECTED AS EARLY AS 12 NOON.", "ref": "3391400001"}, "type": "Feature"}
{"geometry": {"coordinates": [-82.0077804, 26.560433], "type": "Point"}, "id": "25ifTMBg5YAwhh5fEoj5MGVBFCE=", "properties": {"@spider": "usps_collection_boxes", "addr:city": "CAPE CORAL", "addr:country": "US", "addr:full": "1616 CAPE CORAL PKWY W", "addr:postcode": "33914", "addr:state": "FL", "brand": "USPS", "brand:wikidata": "Q668687", "collection_times": "Mo-Sa 13:00", "name": "USPS COLLECTION BOX - BLUE BOX", "note": "ON 12/24 AND 12/31, THIS BOX MAY BE COLLECTED AS EARLY AS 12 NOON.", "ref": "3391400002"}, "type": "Feature"}
{"geometry": {"coordinates": [-81.9744197323, 26.6064947288], "type": "Point"}, "id": "qjuCUpryA2z1TywTZnnyKGgO3ns=", "properties": {"@spider": "usps_collection_boxes", "addr:city": "CAPE CORAL", "addr:country": "US", "addr:full": "2430 SANTA BARBARA BLVD", "addr:postcode": "33914", "addr:state": "FL", "brand": "USPS", "brand:wikidata": "Q668687", "collection_times": "Mo-Sa 11:00", "name": "USPS COLLECTION BOX - BLUE BOX", "ref": "3391400003"}, "type": "Feature"}
{"geometry": {"coordinates": [-81.888712773, 26.557325445], "type": "Point"}, "id": "BeBQr20yHwyCZ8zCEYljbmCwTXw=", "properties": {"@spider": "usps_collection_boxes", "addr:city": "FORT MYERS", "addr:country": "US", "addr:full": "6360 WHISKEY CREEK DR", "addr:postcode": "33919", "addr:state": "FL", "brand": "USPS", "brand:wikidata": "Q668687", "collection_times": "Mo-Fr 15:30; Sa 13:00", "name": "USPS COLLECTION BOX - BLUE BOX", "note": "ON 12/24 AND 12/31, THIS BOX MAY BE COLLECTED AS EARLY AS 12 NOON.", "ref": "3391900013"}, "type": "Feature"}
{"geometry": {"coordinates": [-81.8921273, 26.557822], "type": "Point"}, "id": "FdnKB3wvXWeZoWyDu-Hn-FsFP_A=", "properties": {"@spider": "usps_collection_boxes", "addr:city": "FORT MYERS", "addr:country": "US", "addr:full": "8250 COLLEGE PKWY", "addr:postcode": "33919", "addr:state": "FL", "brand": "USPS", "brand:wikidata": "Q668687", "collection_times": "Mo-Fr 15:30; Sa 13:00", "name": "USPS COLLECTION BOX - BLUE BOX", "note": "ON 12/24 AND 12/31, THIS BOX MAY BE COLLECTED AS EARLY AS 12 NOON.", "ref": "3391900025"}, "type": "Feature"}
{"geometry": {"coordinates": [-81.610111307, 26.714684127], "type": "Point"}, "id": "OeuviJVn8NDTolI6VO_MkknZTlk=", "properties": {"@spider": "usps_collection_boxes", "addr:city": "ALVA", "addr:country": "US", "addr:full": "17301 BROADWAY ST", "addr:postcode": "33920", "addr:state": "FL", "brand": "USPS", "brand:wikidata": "Q668687", "collection_times": "Mo-Fr 16:30; Sa 11:00", "name": "USPS COLLECTION BOX - BLUE BOX", "note": "ON 12/24 AND 12/31, THIS BOX MAY BE COLLECTED AS EARLY AS 12 NOON.", "ref": "3392000001"}, "type": "Feature"}
{"geometry": {"coordinates": [-81.610111307, 26.714684127], "type": "Point"}, "id": "YLDFetUQL59duHz3aPr5uUWJFno=", "properties": {"@spider": "usps_collection_boxes", "addr:city": "ALVA", "addr:country": "US", "addr:full": "17301 BROADWAY ST", "addr:postcode": "33920", "addr:state": "FL", "brand": "USPS", "brand:wikidata": "Q668687", "collection_times": "Mo-Fr 16:30", "name": "USPS COLLECTION BOX - PO LOBBY", "note": "ON 12/24 AND 12/31, THIS BOX MAY BE COLLECTED AS EARLY AS 12 NOON.", "ref": "3392000004"}, "type": "Feature"}
{"geometry": {"coordinates": [-82.262689, 26.750499], "type": "Point"}, "id": "V6TvnWSVujY6F3ziwvG9nUUWklg=", "properties": {"@spider": "usps_collection_boxes", "addr:city": "BOCA GRANDE", "addr:country": "US", "addr:full": "434 4TH ST", "addr:postcode": "33921", "addr:state": "FL", "brand": "USPS", "brand:wikidata": "Q668687", "collection_times": "Mo-Fr 15:45; Sa 12:00", "name": "USPS COLLECTION BOX - BLUE BOX", "note": "ON 12/24 AND 12/31, THIS BOX MAY BE COLLECTED AS EARLY AS 12 NOON.", "ref": "3392100003"}, "type": "Feature"}
{"geometry": {"coordinates": [-82.2759300015, 26.8024470037], "type": "Point"}, "id": "UdNch4cd1ZC_eDNp95ujTE2B0SA=", "properties": {"@spider": "usps_collection_boxes", "addr:city": "BOCA GRANDE", "addr:country": "US", "addr:full": "5800 GASPARILLA RD", "addr:postcode": "33921", "addr:state": "FL", "brand": "USPS", "brand:wikidata": "Q668687", "collection_times": "Mo-Fr 16:00; Sa 12:00", "name": "USPS COLLECTION BOX - BLUE BOX", "note": "ON 12/24 AND 12/31, THIS BOX MAY BE COLLECTED AS EARLY AS 12 NOON.", "ref": "3392100006"}, "type": "Feature"}
{"geometry": {"coordinates": [-82.262702141, 26.750459125], "type": "Point"}, "id": "DexmTIxY8JVxdu7Zfk1c7YVCz18=", "properties": {"@spider": "usps_collection_boxes", "addr:city": "BOCA GRANDE", "addr:country": "US", "addr:full": "434 4TH ST", "addr:postcode": "33921", "addr:state": "FL", "brand": "USPS", "brand:wikidata": "Q668687", "collection_times": "Mo-Fr 16:00", "name": "USPS COLLECTION BOX - PO LOBBY", "note": "ON 12/24 AND 12/31, THIS BOX MAY BE COLLECTED AS EARLY AS 12 NOON.", "ref": "3392100007"}, "type": "Feature"}
{"geometry": {"coordinates": [-82.150714, 26.69339], "type": "Point"}, "id": "ODh-5rwp8UTtkDNktSRFpefK378=", "properties": {"@spider": "usps_collection_boxes", "addr:city": "BOKEELIA", "addr:country": "US", "addr:full": "15980 STRINGFELLOW RD", "addr:postcode": "33922", "addr:state": "FL", "brand": "USPS", "brand:wikidata": "Q668687", "collection_times": "Mo-Fr 16:15; Sa 09:15", "name": "USPS COLLECTION BOX - BLUE BOX", "note": "ON 12/24 AND 12/31, THIS BOX MAY BE COLLECTED AS EARLY AS 12 NOON.", "ref": "3392200001"}, "type": "Feature"}
{"geometry": {"coordinates": [-82.116069, 26.616803], "type": "Point"}, "id": "F_4Im-8aIdA6MIZal2EYALqBIX0=", "properties": {"@spider": "usps_collection_boxes", "addr:city": "BOKEELIA", "addr:country": "US", "addr:full": "5460 AVE \"A\"", "addr:postcode": "33922", "addr:state": "FL", "brand": "USPS", "brand:wikidata": "Q668687", "collection_times": "Mo-Sa 17:00", "name": "USPS COLLECTION BOX - BLUE BOX", "note": "ON 12/24 AND 12/31, THIS BOX MAY BE COLLECTED AS EARLY AS 12 NOON.", "ref": "3392200004"}, "type": "Feature"}
{"geometry": {"coordinates": [-82.150595789, 26.693152689], "type": "Point"}, "id": "BIyDK8KdU6IdhGnI2UtLN994QBg=", "properties": {"@spider": "usps_collection_boxes", "addr:city": "BOKEELIA", "addr:country": "US", "addr:full": "15980 STRINGFELLOW RD", "addr:postcode": "33922", "addr:state": "FL", "brand": "USPS", "brand:wikidata": "Q668687", "collection_times": "Mo-Fr 16:30", "name": "USPS COLLECTION BOX - PO LOBBY", "note": "ON 12/24 AND 12/31, THIS BOX MAY BE COLLECTED AS EARLY AS 12 NOON.", "ref": "3392200006"}, "type": "Feature"}
{"geometry": {"coordinates": [-82.192126934, 26.525340031], "type": "Point"}, "id": "1ZUb1_1ptr4iWQ4sIN2QqC1084Q=", "properties": {"@spider": "usps_collection_boxes", "addr:city": "CAPTIVA", "addr:country": "US", "addr:full": "14812 CAPTIVA DR SW", "addr:postcode": "33924", "addr:state": "FL", "brand": "USPS", "brand:wikidata": "Q668687", "collection_times": "Mo-Fr 14:00; Sa 10:30", "name": "USPS COLLECTION BOX - BLUE BOX", "note": "ON 12/24 AND 12/31, THIS BOX MAY BE COLLECTED AS EARLY AS 12 NOON.", "ref": "3392400001"}, "type": "Feature"}
{"geometry": {"coordinates": [-82.192126934, 26.525340031], "type": "Point"}, "id": "jyeIuB-ZPAf8p6wvNs6hMYDFgAU=", "properties": {"@spider": "usps_collection_boxes", "addr:city": "CAPTIVA", "addr:country": "US", "addr:full": "14812 CAPTIVA DR SW", "addr:postcode": "33924", "addr:state": "FL", "brand": "USPS", "brand:wikidata": "Q668687", "collection_times": "Mo-Fr 14:00; Sa 09:30", "name": "USPS COLLECTION BOX - PO LOBBY", "note": "ON 12/24 AND 12/31, THIS BOX MAY BE COLLECTED AS EARLY AS 12 NOON.", "ref": "3392400003"}, "type": "Feature"}
{"geometry": {"coordinates": [-82.192126934, 26.525340031], "type": "Point"}, "id": "yOiDZUh8LYuZcuvPxAlYSYBOEzw=", "properties": {"@spider": "usps_collection_boxes", "addr:city": "CAPTIVA", "addr:country": "US", "addr:full": "14812 CAPTIVA DR SW", "addr:postcode": "33924", "addr:state": "FL", "brand": "USPS", "brand:wikidata": "Q668687", "collection_times": "Mo-Fr 14:00; Sa 09:30", "name": "USPS COLLECTION BOX - PO LOBBY", "note": "ON 12/24 AND 12/31, THIS BOX MAY BE COLLECTED AS EARLY AS 12 NOON.", "ref": "3392400005"}, "type": "Feature"}
{"geometry": {"coordinates": [-82.192126934, 26.525340031], "type": "Point"}, "id": "YVf7h2oLqfKw2VaPWJ_A5rrFNfM=", "properties": {"@spider": "usps_collection_boxes", "addr:city": "CAPTIVA", "addr:country": "US", "addr:full": "14812 CAPTIVA DR SW", "addr:postcode": "33924", "addr:state": "FL", "brand": "USPS", "brand:wikidata": "Q668687", "collection_times": "Mo-Fr 14:00", "name": "USPS COLLECTION BOX - PO LOBBY", "note": "ON 12/24 AND 12/31, THIS BOX MAY BE COLLECTED AS EARLY AS 12 NOON.", "ref": "3392400006"}, "type": "Feature"}
{"geometry": {"coordinates": [-81.788391298, 26.436493324], "type": "Point"}, "id": "ZdFxkAJyIPQ6hI2YAaQsUicBdUg=", "properties": {"@spider": "usps_collection_boxes", "addr:city": "ESTERO", "addr:country": "US", "addr:full": "20791 THREE OAKS PKWY", "addr:postcode": "33928", "addr:state": "FL", "brand": "USPS", "brand:wikidata": "Q668687", "collection_times": "Mo-Fr 16:30; Sa 12:00", "name": "USPS COLLECTION BOX - BLUE BOX", "note": "ON 12/24 AND 12/31, THIS BOX MAY BE COLLECTED AS EARLY AS 12 NOON.", "ref": "3392800001"}, "type": "Feature"}
{"geometry": {"coordinates": [-81.8084641, 26.429678], "type": "Point"}, "id": "4Wew6fTJzIh2loGX2qihTKke1vA=", "properties": {"@spider": "usps_collection_boxes", "addr:city": "ESTERO", "addr:country": "US", "addr:full": "21301 S TAMIAMI TRL STE 320", "addr:postcode": "33928", "addr:state": "FL", "brand": "USPS", "brand:wikidata": "Q668687", "collection_times": "Mo-Sa 14:00", "name": "USPS COLLECTION BOX - BLUE BOX", "note": "ON 12/24 AND 12/31, THIS BOX MAY BE COLLECTED AS EARLY AS 12 NOON.", "ref": "3392800018"}, "type": "Feature"}
{"geometry": {"coordinates": [-81.788391298, 26.436493324], "type": "Point"}, "id": "5yK9ZlojpWF1W7qnPwS0vDVSpi4=", "properties": {"@spider": "usps_collection_boxes", "addr:city": "ESTERO", "addr:country": "US", "addr:full": "20791 THREE OAKS PKWY", "addr:postcode": "33928", "addr:state": "FL", "brand": "USPS", "brand:wikidata": "Q668687", "collection_times": "Mo-Fr 16:30; Sa 12:00", "name": "USPS COLLECTION BOX - PO LOBBY", "note": "ON 12/24 AND 12/31, THIS BOX MAY BE COLLECTED AS EARLY AS 12 NOON.", "ref": "3392800021"}, "type": "Feature"}
{"geometry": {"coordinates": [-81.788391298, 26.436493324], "type": "Point"}, "id": "H8G39HFDiB1tS6ZXw_j5rEkQgbY=", "properties": {"@spider": "usps_collection_boxes", "addr:city": "ESTERO", "addr:country": "US", "addr:full": "20791 THREE OAKS PKWY", "addr:postcode": "33928", "addr:state": "FL", "brand": "USPS", "brand:wikidata": "Q668687", "collection_times": "Mo-Fr 16:30", "name": "USPS COLLECTION BOX - PO LOBBY", "note": "ON 12/24 AND 12/31, THIS BOX MAY BE COLLECTED AS EARLY AS 12 NOON.", "ref": "3392800030"}, "type": "Feature"}
{"geometry": {"coordinates": [-81.435569803, 26.54705678], "type": "Point"}, "id": "XxlMKQm3Socbwk5zKB8Fbe634NA=", "properties": {"@spider": "usps_collection_boxes", "addr:city": "FELDA", "addr:country": "US", "addr:full": "14815 S STATE ROAD 29", "addr:postcode": "33930", "addr:state": "FL", "brand": "USPS", "brand:wikidata": "Q668687", "collection_times": "Mo-Fr 15:00", "name": "USPS COLLECTION BOX - PO LOBBY", "note": "ON 12/24 AND 12/31, THIS BOX MAY BE COLLECTED AS EARLY AS 12 NOON.", "ref": "3393000003"}, "type": "Feature"}
{"geometry": {"coordinates": [-81.9446854, 26.489942], "type": "Point"}, "id": "OURztK9lmv99_jW3TCiRGBKx1Tc=", "properties": {"@spider": "usps_collection_boxes", "addr:city": "FT MYERS BCH", "addr:country": "US", "addr:full": "17264 SAN CARLOS BLVD", "addr:postcode": "33931", "addr:state": "FL", "brand": "USPS", "brand:wikidata": "Q668687", "collection_times": "Mo-Fr 15:00; Sa 14:00", "name": "USPS COLLECTION BOX - BLUE BOX", "note": "ON 12/24 AND 12/31, THIS BOX MAY BE COLLECTED AS EARLY AS 12 NOON.", "ref": "3393100002"}, "type": "Feature"}
{"geometry": {"coordinates": [-81.9447361, 26.487448], "type": "Point"}, "id": "l1sWyvmS_PKl-QS9hHnfkWT8VQw=", "properties": {"@spider": "usps_collection_boxes", "addr:city": "FT MYERS BCH", "addr:country": "US", "addr:full": "17340 SAN CARLOS BLVD", "addr:postcode": "33931", "addr:state": "FL", "brand": "USPS", "brand:wikidata": "Q668687", "collection_times": "Mo-Fr 15:00; Sa 14:00", "name": "USPS COLLECTION BOX - BLUE BOX", "note": "ON 12/24 AND 12/31, THIS BOX MAY BE COLLECTED AS EARLY AS 12 NOON.", "ref": "3393100004"}, "type": "Feature"}
{"geometry": {"coordinates": [-81.9000033, 26.41441], "type": "Point"}, "id": "SYJOrPXWYyxffZpM4xI-nfrUI3g=", "properties": {"@spider": "usps_collection_boxes", "addr:city": "FT MYERS BCH", "addr:country": "US", "addr:full": "7205 ESTERO BLVD", "addr:postcode": "33931", "addr:state": "FL", "brand": "USPS", "brand:wikidata": "Q668687", "collection_times": "Mo-Fr 15:00; Sa 14:00", "name": "USPS COLLECTION BOX - BLUE BOX", "note": "ON 12/24 AND 12/31, THIS BOX MAY BE COLLECTED AS EARLY AS 12 NOON.", "ref": "3393100006"}, "type": "Feature"}
{"geometry": {"coordinates": [-81.8998194, 26.413941], "type": "Point"}, "id": "5-dmEQeGyL8SGdPtKEaIJzlfUDU=", "properties": {"@spider": "usps_collection_boxes", "addr:city": "FT MYERS BCH", "addr:country": "US", "addr:full": "7205 ESTERO BLVD", "addr:postcode": "33931", "addr:state": "FL", "brand": "USPS", "brand:wikidata": "Q668687", "collection_times": "Mo-Fr 15:00; Sa 14:00", "name": "USPS COLLECTION BOX - BLUE BOX", "note": "ON 12/24 AND 12/31, THIS BOX MAY BE COLLECTED AS EARLY AS 12 NOON.", "ref": "3393100007"}, "type": "Feature"}
{"geometry": {"coordinates": [-81.9361766, 26.445476], "type": "Point"}, "id": "UgRy7HR_xPWoyOJwyKZx0tL_bOs=", "properties": {"@spider": "usps_collection_boxes", "addr:city": "FT MYERS BCH", "addr:country": "US", "addr:full": "3001 ESTERO BLVD", "addr:postcode": "33931", "addr:state": "FL", "brand": "USPS", "brand:wikidata": "Q668687", "collection_times": "Mo-Fr 15:00; Sa 14:00", "name": "USPS COLLECTION BOX - BLUE BOX", "note": "ON 12/24 AND 12/31, THIS BOX MAY BE COLLECTED AS EARLY AS 12 NOON.", "ref": "3393100010"}, "type": "Feature"}
{"geometry": {"coordinates": [-81.9384199, 26.447409], "type": "Point"}, "id": "P028IuHcAqUENJ0ZMWwmS0vPdtE=", "properties": {"@spider": "usps_collection_boxes", "addr:city": "FT MYERS BCH", "addr:country": "US", "addr:full": "2801 ESTERO BLVD", "addr:postcode": "33931", "addr:state": "FL", "brand": "USPS", "brand:wikidata": "Q668687", "collection_times": "Mo-Fr 15:00; Sa 14:00", "name": "USPS COLLECTION BOX - BLUE BOX", "note": "ON 12/24 AND 12/31, THIS BOX MAY BE COLLECTED AS EARLY AS 12 NOON.", "ref": "3393100011"}, "type": "Feature"}
{"geometry": {"coordinates": [-81.9419338, 26.448461], "type": "Point"}, "id": "hk5Guy6rss1k7Hx95kEw2YvmF9g=", "properties": {"@spider": "usps_collection_boxes", "addr:city": "FT MYERS BCH", "addr:country": "US", "addr:full": "2555 ESTERO BLVD", "addr:postcode": "33931", "addr:state": "FL", "brand": "USPS", "brand:wikidata": "Q668687", "collection_times": "Mo-Fr 15:00; Sa 14:00", "name": "USPS COLLECTION BOX - BLUE BOX", "note": "ON 12/24 AND 12/31, THIS BOX MAY BE COLLECTED AS EARLY AS 12 NOON.", "ref": "3393100012"}, "type": "Feature"}
{"geometry": {"coordinates": [-81.9495903067, 26.452539], "type": "Point"}, "id": "vDdAfciE1viigffuDH-KVFQH_x4=", "properties": {"@spider": "usps_collection_boxes", "addr:city": "FT MYERS BCH", "addr:country": "US", "addr:full": "200 CAROLINA AVE", "addr:postcode": "33931", "addr:state": "FL", "brand": "USPS", "brand:wikidata": "Q668687", "collection_times": "Mo-Fr 17:00; Sa 15:00", "name": "USPS COLLECTION BOX - BLUE BOX", "note": "ON 12/24 AND 12/31, THIS BOX MAY BE COLLECTED AS EARLY AS 12 NOON.", "ref": "3393100013"}, "type": "Feature"}
{"geometry": {"coordinates": [-81.949590307, 26.452539], "type": "Point"}, "id": "MGPG9KzAIZ0d5xDinOSd0Kr9XFs=", "properties": {"@spider": "usps_collection_boxes", "addr:city": "FT MYERS BCH", "addr:country": "US", "addr:full": "200 CAROLINA AVE", "addr:postcode": "33931", "addr:state": "FL", "brand": "USPS", "brand:wikidata": "Q668687", "collection_times": "Mo-Fr 16:30", "name": "USPS COLLECTION BOX - PO LOBBY", "note": "ON 12/24 AND 12/31, THIS BOX MAY BE COLLECTED AS EARLY AS 12 NOON.", "ref": "3393100021"}, "type": "Feature"}
{"geometry": {"coordinates": [-81.437989385, 26.764876521], "type": "Point"}, "id": "1W1U9_YGRZCqnAhjaeKUHlxM_Rg=", "properties": {"@spider": "usps_collection_boxes", "addr:city": "LABELLE", "addr:country": "US", "addr:full": "35 W WASHINGTON AVE", "addr:postcode": "33935", "addr:state": "FL", "brand": "USPS", "brand:wikidata": "Q668687", "collection_times": "Mo-Fr 17:00; Sa 13:00", "name": "USPS COLLECTION BOX - BLUE BOX", "note": "ON 12/24 AND 12/31, THIS BOX MAY BE COLLECTED AS EARLY AS 12 NOON.", "ref": "3393500001"}, "type": "Feature"}
{"geometry": {"coordinates": [-81.4521569, 26.76483], "type": "Point"}, "id": "YWzLaAyMwUqMVJlY7W9EyBUvY9Q=", "properties": {"@spider": "usps_collection_boxes", "addr:city": "LABELLE", "addr:country": "US", "addr:full": "900 AQUA ISLES BLVD", "addr:postcode": "33935", "addr:state": "FL", "brand": "USPS", "brand:wikidata": "Q668687", "collection_times": "Mo-Sa 11:00", "name": "USPS COLLECTION BOX - BLUE BOX", "ref": "3393500011"}, "type": "Feature"}
{"geometry": {"coordinates": [-81.437989385, 26.764876521], "type": "Point"}, "id": "n9NLArmW5MHkaKAHWXNH0ZveJuY=", "properties": {"@spider": "usps_collection_boxes", "addr:city": "LABELLE", "addr:country": "US", "addr:full": "35 W WASHINGTON AVE", "addr:postcode": "33935", "addr:state": "FL", "brand": "USPS", "brand:wikidata": "Q668687", "collection_times": "Mo-Fr 17:00", "name": "USPS COLLECTION BOX - PO LOBBY", "note": "ON 12/24 AND 12/31, THIS BOX MAY BE COLLECTED AS EARLY AS 12 NOON.", "ref": "3393500014"}, "type": "Feature"}
{"geometry": {"coordinates": [-81.6440304, 26.60123], "type": "Point"}, "id": "2w9xDtVrxq7L4pb2T1b36gtUQzA=", "properties": {"@spider": "usps_collection_boxes", "addr:city": "LEHIGH ACRES", "addr:country": "US", "addr:full": "25 HOMESTEAD RD N", "addr:postcode": "33936", "addr:state": "FL", "brand": "USPS", "brand:wikidata": "Q668687", "collection_times": "Mo-Sa 14:30", "name": "USPS COLLECTION BOX - BLUE BOX", "note": "ON 12/24 AND 12/31, THIS BOX MAY BE COLLECTED AS EARLY AS 12 NOON.", "ref": "3393600001"}, "type": "Feature"}
{"geometry": {"coordinates": [-81.6484886, 26.604087], "type": "Point"}, "id": "mfBZmBH54d62MYq7Lq7YN3dSIFE=", "properties": {"@spider": "usps_collection_boxes", "addr:city": "LEHIGH ACRES", "addr:country": "US", "addr:full": "1145 HOMESTEAD RD N", "addr:postcode": "33936", "addr:state": "FL", "brand": "USPS", "brand:wikidata": "Q668687", "collection_times": "Mo-Sa 14:30", "name": "USPS COLLECTION BOX - BLUE BOX", "note": "ON 12/24 AND 12/31, THIS BOX MAY BE COLLECTED AS EARLY AS 12 NOON.", "ref": "3393600002"}, "type": "Feature"}
{"geometry": {"coordinates": [-81.6516738, 26.609967], "type": "Point"}, "id": "rOraHQWxCTR4ZVHNXaFiSrgaWGU=", "properties": {"@spider": "usps_collection_boxes", "addr:city": "LEHIGH ACRES", "addr:country": "US", "addr:full": "1324 HOMESTEAD RD N", "addr:postcode": "33936", "addr:state": "FL", "brand": "USPS", "brand:wikidata": "Q668687", "collection_times": "Mo-Sa 15:00", "name": "USPS COLLECTION BOX - BLUE BOX", "note": "ON 12/24 AND 12/31, THIS BOX MAY BE COLLECTED AS EARLY AS 12 NOON.", "ref": "3393600010"}, "type": "Feature"}
{"geometry": {"coordinates": [-81.6513195011, 26.6047923419], "type": "Point"}, "id": "7p8aQgbBaXnrEVWES8XCBCZOw6c=", "properties": {"@spider": "usps_collection_boxes", "addr:city": "LEHIGH ACRES", "addr:country": "US", "addr:full": "1201 BUSINESS WAY", "addr:postcode": "33936", "addr:state": "FL", "brand": "USPS", "brand:wikidata": "Q668687", "collection_times": "Mo-Fr 17:00; Sa 13:00", "name": "USPS COLLECTION BOX - BLUE BOX", "note": "ON 12/24 AND 12/31, THIS BOX MAY BE COLLECTED AS EARLY AS 12 NOON.", "ref": "3393600013"}, "type": "Feature"}
{"geometry": {"coordinates": [-81.6601917, 26.61544], "type": "Point"}, "id": "gdkGoRgpGBLCq2aso6c-mCGvlXU=", "properties": {"@spider": "usps_collection_boxes", "addr:city": "LEHIGH ACRES", "addr:country": "US", "addr:full": "1530 LEE BLVD", "addr:postcode": "33936", "addr:state": "FL", "brand": "USPS", "brand:wikidata": "Q668687", "collection_times": "Mo-Sa 12:00", "name": "USPS COLLECTION BOX - BLUE BOX", "ref": "3393600018"}, "type": "Feature"}
{"geometry": {"coordinates": [-81.652029, 26.605372], "type": "Point"}, "id": "_2UZ4xRTatzfaNQ-Y2yIrv8cHwM=", "properties": {"@spider": "usps_collection_boxes", "addr:city": "LEHIGH ACRES", "addr:country": "US", "addr:full": "1201 BUSINESS WAY", "addr:postcode": "33936", "addr:state": "FL", "brand": "USPS", "brand:wikidata": "Q668687", "collection_times": "Mo-Fr 17:00; Sa 13:00", "name": "USPS COLLECTION BOX - APC", "note": "ON 12/24 AND 12/31, THIS BOX MAY BE COLLECTED AS EARLY AS 12 NOON.", "ref": "3393600019"}, "type": "Feature"}
{"geometry": {"coordinates": [-81.652392196, 26.605648501], "type": "Point"}, "id": "J06wyqJKgLeiV8LOEnN711uCsqE=", "properties": {"@spider": "usps_collection_boxes", "addr:city": "LEHIGH ACRES", "addr:country": "US", "addr:full": "1201 BUSINESS WAY", "addr:postcode": "33936", "addr:state": "FL", "brand": "USPS", "brand:wikidata": "Q668687", "collection_times": "Mo-Fr 17:00", "name": "USPS COLLECTION BOX - PO LOBBY", "note": "ON 12/24 AND 12/31, THIS BOX MAY BE COLLECTED AS EARLY AS 12 NOON.", "ref": "3393600022"}, "type": "Feature"}
{"geometry": {"coordinates": [-81.313960416, 26.945399474], "type": "Point"}, "id": "usPxRXhEVFAirJ68Izm0JC6MfPc=", "properties": {"@spider": "usps_collection_boxes", "addr:city": "PALMDALE", "addr:country": "US", "addr:full": "1134 BROADWAY ST NW", "addr:postcode": "33944", "addr:state": "FL", "brand": "USPS", "brand:wikidata": "Q668687", "collection_times": "Mo-Fr 12:00", "name": "USPS COLLECTION BOX - PO LOBBY", "ref": "3394400004"}, "type": "Feature"}
{"geometry": {"coordinates": [-82.147318, 26.656924], "type": "Point"}, "id": "h5ZAZKEpNwO3sEif3WT33WMPvz0=", "properties": {"@spider": "usps_collection_boxes", "addr:city": "PINELAND", "addr:country": "US", "addr:full": "7450 PINELAND RD", "addr:postcode": "33945", "addr:state": "FL", "brand": "USPS", "brand:wikidata": "Q668687", "collection_times": "Mo-Fr 16:00; Sa 12:00", "name": "USPS COLLECTION BOX - BLUE BOX", "note": "ON 12/24 AND 12/31, THIS BOX MAY BE COLLECTED AS EARLY AS 12 NOON.", "ref": "3394500001"}, "type": "Feature"}
{"geometry": {"coordinates": [-82.148474599, 26.657985834], "type": "Point"}, "id": "0mSmfSrCvkm8AsZf6SqqJ2gyYgo=", "properties": {"@spider": "usps_collection_boxes", "addr:city": "PINELAND", "addr:country": "US", "addr:full": "7450 PINELAND RD", "addr:postcode": "33945", "addr:state": "FL", "brand": "USPS", "brand:wikidata": "Q668687", "collection_times": "Mo-Fr 16:00", "name": "USPS COLLECTION BOX - PO LOBBY", "note": "ON 12/24 AND 12/31, THIS BOX MAY BE COLLECTED AS EARLY AS 12 NOON.", "ref": "3394500004"}, "type": "Feature"}
{"geometry": {"coordinates": [-82.293639, 26.85519], "type": "Point"}, "id": "wLcL_Pv0IvlwD2ewcWT4RJWPI7s=", "properties": {"@spider": "usps_collection_boxes", "addr:city": "PLACIDA", "addr:country": "US", "addr:full": "8601 PLACIDA RD", "addr:postcode": "33946", "addr:state": "FL", "brand": "USPS", "brand:wikidata": "Q668687", "collection_times": "Mo-Fr 16:00; Sa 12:00", "name": "USPS COLLECTION BOX - BLUE BOX", "note": "ON 12/24 AND 12/31, THIS BOX MAY BE COLLECTED AS EARLY AS 12 NOON.", "ref": "3394600004"}, "type": "Feature"}
{"geometry": {"coordinates": [-82.293737, 26.855224], "type": "Point"}, "id": "0bN2ZMSNuSvN0NU9NMATLiRFg4w=", "properties": {"@spider": "usps_collection_boxes", "addr:city": "PLACIDA", "addr:country": "US", "addr:full": "8601 PLACIDA RD", "addr:postcode": "33946", "addr:state": "FL", "brand": "USPS", "brand:wikidata": "Q668687", "collection_times": "Mo-Fr 16:00; Sa 12:00", "name": "USPS COLLECTION BOX - BLUE BOX", "note": "ON 12/24 AND 12/31, THIS BOX MAY BE COLLECTED AS EARLY AS 12 NOON.", "ref": "3394600005"}, "type": "Feature"}
{"geometry": {"coordinates": [-82.293265099, 26.854922311], "type": "Point"}, "id": "t9I6daoG6Rva99dDWWhKI08807E=", "properties": {"@spider": "usps_collection_boxes", "addr:city": "PLACIDA", "addr:country": "US", "addr:full": "8601 PLACIDA RD", "addr:postcode": "33946", "addr:state": "FL", "brand": "USPS", "brand:wikidata": "Q668687", "collection_times": "Mo-Fr 16:30", "name": "USPS COLLECTION BOX - PO LOBBY", "note": "ON 12/24 AND 12/31, THIS BOX MAY BE COLLECTED AS EARLY AS 12 NOON.", "ref": "3394600009"}, "type": "Feature"}
{"geometry": {"coordinates": [-82.0856475, 26.525772], "type": "Point"}, "id": "fOA07TO-rVXNWlm-1_haYQnY26k=", "properties": {"@spider": "usps_collection_boxes", "addr:city": "ST JAMES CITY", "addr:country": "US", "addr:full": "4480 STRINGFELLOW RD", "addr:postcode": "33956", "addr:state": "FL", "brand": "USPS", "brand:wikidata": "Q668687", "collection_times": "Mo-Fr 15:30; Sa 11:00", "name": "USPS COLLECTION BOX - BLUE BOX", "note": "ON 12/24 AND 12/31, THIS BOX MAY BE COLLECTED AS EARLY AS 12 NOON.", "ref": "3395600001"}, "type": "Feature"}
{"geometry": {"coordinates": [-82.086452528, 26.525594199], "type": "Point"}, "id": "jbclrv5XWhnpG1_QfjFHANadmys=", "properties": {"@spider": "usps_collection_boxes", "addr:city": "ST JAMES CITY", "addr:country": "US", "addr:full": "4480 STRINGFELLOW RD", "addr:postcode": "33956", "addr:state": "FL", "brand": "USPS", "brand:wikidata": "Q668687", "collection_times": "Mo-Fr 16:00", "name": "USPS COLLECTION BOX - PO LOBBY", "note": "ON 12/24 AND 12/31, THIS BOX MAY BE COLLECTED AS EARLY AS 12 NOON.", "ref": "3395600008"}, "type": "Feature"}
{"geometry": {"coordinates": [-82.0428499, 26.443205], "type": "Point"}, "id": "7GW_uE5YpHSeT6ZVZI3cSdRtp9c=", "properties": {"@spider": "usps_collection_boxes", "addr:city": "SANIBEL", "addr:country": "US", "addr:full": "1119 PERIWINKLE WAY", "addr:postcode": "33957", "addr:state": "FL", "brand": "USPS", "brand:wikidata": "Q668687", "collection_times": "Mo-Sa 10:30", "name": "USPS COLLECTION BOX - BLUE BOX", "ref": "3395700002"}, "type": "Feature"}
{"geometry": {"coordinates": [-82.0580314, 26.441438], "type": "Point"}, "id": "p_2wUdX-2DgB27-QCVCXNR7ODHE=", "properties": {"@spider": "usps_collection_boxes", "addr:city": "SANIBEL", "addr:country": "US", "addr:full": "1699 PERIWINKLE WAY", "addr:postcode": "33957", "addr:state": "FL", "brand": "USPS", "brand:wikidata": "Q668687", "collection_times": "Mo-Sa 10:30", "name": "USPS COLLECTION BOX - BLUE BOX", "ref": "3395700003"}, "type": "Feature"}
{"geometry": {"coordinates": [-82.0362582414, 26.4520300065], "type": "Point"}, "id": "vz5XLrwva-kVLZ6vjTK9kLCKHhU=", "properties": {"@spider": "usps_collection_boxes", "addr:city": "SANIBEL", "addr:country": "US", "addr:full": "888 SEXTANT DR", "addr:postcode": "33957", "addr:state": "FL", "brand": "USPS", "brand:wikidata": "Q668687", "collection_times": "Mo-Sa 09:30", "name": "USPS COLLECTION BOX - BLUE BOX", "ref": "3395700006"}, "type": "Feature"}
{"geometry": {"coordinates": [-82.0285429908, 26.4495500207], "type": "Point"}, "id": "kEHdbPcMT_0bhzWjLjXjeLSE_vE=", "properties": {"@spider": "usps_collection_boxes", "addr:city": "SANIBEL", "addr:country": "US", "addr:full": "561 PERIWINKLE WAY", "addr:postcode": "33957", "addr:state": "FL", "brand": "USPS", "brand:wikidata": "Q668687", "collection_times": "Mo-Sa 12:30", "name": "USPS COLLECTION BOX - BLUE BOX", "note": "ON 12/24 AND 12/31, THIS BOX MAY BE COLLECTED AS EARLY AS 12 NOON.", "ref": "3395700007"}, "type": "Feature"}
{"geometry": {"coordinates": [-82.0569842, 26.44219], "type": "Point"}, "id": "ORq-l199pfnxxhH2amHo7ritVOM=", "properties": {"@spider": "usps_collection_boxes", "addr:city": "SANIBEL", "addr:country": "US", "addr:full": "1626 PERIWINKLE WAY", "addr:postcode": "33957", "addr:state": "FL", "brand": "USPS", "brand:wikidata": "Q668687", "collection_times": "Mo-Sa 12:30", "name": "USPS COLLECTION BOX - BLUE BOX", "note": "ON 12/24 AND 12/31, THIS BOX MAY BE COLLECTED AS EARLY AS 12 NOON.", "ref": "3395700012"}, "type": "Feature"}
{"geometry": {"coordinates": [-82.0794539, 26.434277], "type": "Point"}, "id": "4go6CcZj7j8DSS6mVwBOsWR_bZQ=", "properties": {"@spider": "usps_collection_boxes", "addr:city": "SANIBEL", "addr:country": "US", "addr:full": "2477 PERIWINKLE WAY", "addr:postcode": "33957", "addr:state": "FL", "brand": "USPS", "brand:wikidata": "Q668687", "collection_times": "Mo-Sa 09:30", "name": "USPS COLLECTION BOX - BLUE BOX", "ref": "3395700018"}, "type": "Feature"}
{"geometry": {"coordinates": [-82.0807614094, 26.4364476392], "type": "Point"}, "id": "YErwjffVAuampMQzq0lIyF_ZdP0=", "properties": {"@spider": "usps_collection_boxes", "addr:city": "SANIBEL", "addr:country": "US", "addr:full": "650 TARPON BAY RD", "addr:postcode": "33957", "addr:state": "FL", "brand": "USPS", "brand:wikidata": "Q668687", "collection_times": "Mo-Fr 17:00; Sa 14:00", "name": "USPS COLLECTION BOX - BLUE BOX", "note": "ON 12/24 AND 12/31, THIS BOX MAY BE COLLECTED AS EARLY AS 12 NOON.", "ref": "3395700023"}, "type": "Feature"}
{"geometry": {"coordinates": [-82.0807614094, 26.4364476392], "type": "Point"}, "id": "M1DKj7C4UAeabvC-hxrdkZEpXIE=", "properties": {"@spider": "usps_collection_boxes", "addr:city": "SANIBEL", "addr:country": "US", "addr:full": "650 TARPON BAY RD", "addr:postcode": "33957", "addr:state": "FL", "brand": "USPS", "brand:wikidata": "Q668687", "collection_times": "Mo-Fr 17:00; Sa 12:00", "name": "USPS COLLECTION BOX - PO LOBBY", "note": "ON 12/24 AND 12/31, THIS BOX MAY BE COLLECTED AS EARLY AS 12 NOON.", "ref": "3395700025"}, "type": "Feature"}
{"geometry": {"coordinates": [-81.8535711, 26.580973], "type": "Point"}, "id": "hA8N6X6jBR7_BlkooqOYfRe9TmE=", "properties": {"@spider": "usps_collection_boxes", "addr:city": "FORT MYERS", "addr:country": "US", "addr:full": "11000 METRO PKWY", "addr:postcode": "33966", "addr:state": "FL", "brand": "USPS", "brand:wikidata": "Q668687", "collection_times": "Mo-Sa 11:00", "name": "USPS COLLECTION BOX - BLUE BOX", "ref": "3396600001"}, "type": "Feature"}
{"geometry": {"coordinates": [-81.7487719, 26.619987], "type": "Point"}, "id": "ymZgjNMKXSwHdMyUGRm0-uWz2zg=", "properties": {"@spider": "usps_collection_boxes", "addr:city": "LEHIGH ACRES", "addr:country": "US", "addr:full": "5551 LEE BLVD", "addr:postcode": "33971", "addr:state": "FL", "brand": "USPS", "brand:wikidata": "Q668687", "collection_times": "Mo-Sa 11:00", "name": "USPS COLLECTION BOX - BLUE BOX", "ref": "3397100000"}, "type": "Feature"}
{"geometry": {"coordinates": [-81.6664799, 26.61458], "type": "Point"}, "id": "Q6Vfi0aYDh5qYXr_Mqe72mtz9x4=", "properties": {"@spider": "usps_collection_boxes", "addr:city": "LEHIGH ACRES", "addr:country": "US", "addr:full": "2523 LEE BLVD", "addr:postcode": "33971", "addr:state": "FL", "brand": "USPS", "brand:wikidata": "Q668687", "collection_times": "Mo-Sa 11:00", "name": "USPS COLLECTION BOX - BLUE BOX", "ref": "3397100001"}, "type": "Feature"}
{"geometry": {"coordinates": [-81.5976126, 26.619591], "type": "Point"}, "id": "9FY2zJz-p6vjFMTX5rI7QV0VRTY=", "properties": {"@spider": "usps_collection_boxes", "addr:city": "LEHIGH ACRES", "addr:country": "US", "addr:full": "510 JOEL BLVD", "addr:postcode": "33972", "addr:state": "FL", "brand": "USPS", "brand:wikidata": "Q668687", "collection_times": "Mo-Sa 13:30", "name": "USPS COLLECTION BOX - BLUE BOX", "note": "ON 12/24 AND 12/31, THIS BOX MAY BE COLLECTED AS EARLY AS 12 NOON.", "ref": "3397200001"}, "type": "Feature"}
{"geometry": {"coordinates": [-81.9381641, 26.608885], "type": "Point"}, "id": "uByWbY_ci8DzbDlZ3scJMN2Xdus=", "properties": {"@spider": "usps_collection_boxes", "addr:city": "CAPE CORAL", "addr:country": "US", "addr:full": "2301 DEL PRADO BLVD S", "addr:postcode": "33990", "addr:state": "FL", "brand": "USPS", "brand:wikidata": "Q668687", "collection_times": "Mo-Sa 15:45", "name": "USPS COLLECTION BOX - BLUE BOX", "note": "ON 12/24 AND 12/31, THIS BOX MAY BE COLLECTED AS EARLY AS 12 NOON.", "ref": "3399000001"}, "type": "Feature"}
{"geometry": {"coordinates": [-81.9425076, 26.640073], "type": "Point"}, "id": "RwdR9nDZwlsnkvlA2VRzBUlff7c=", "properties": {"@spider": "usps_collection_boxes", "addr:city": "CAPE CORAL", "addr:country": "US", "addr:full": "636 DEL PRADO BLVD S", "addr:postcode": "33990", "addr:state": "FL", "brand": "USPS", "brand:wikidata": "Q668687", "collection_times": "Mo-Sa 16:00", "name": "USPS COLLECTION BOX - BLUE BOX", "note": "ON 12/24 AND 12/31, THIS BOX MAY BE COLLECTED AS EARLY AS 12 NOON.", "ref": "3399000004"}, "type": "Feature"}
{"geometry": {"coordinates": [-81.955524, 26.633499], "type": "Point"}, "id": "irY5AyrxnVmlSNftIeD4x9n5I60=", "properties": {"@spider": "usps_collection_boxes", "addr:city": "CAPE CORAL", "addr:country": "US", "addr:full": "1030 SE 9TH AVE", "addr:postcode": "33990", "addr:state": "FL", "brand": "USPS", "brand:wikidata": "Q668687", "collection_times": "Mo-Fr 17:00; Sa 14:00", "name": "USPS COLLECTION BOX - BLUE BOX", "note": "ON 12/24 AND 12/31, THIS BOX MAY BE COLLECTED AS EARLY AS 12 NOON.", "ref": "3399000006"}, "type": "Feature"}
{"geometry": {"coordinates": [-81.9406327, 26.634978], "type": "Point"}, "id": "oFTBgX2wcQvjkHCZJvJXOztLCvc=", "properties": {"@spider": "usps_collection_boxes", "addr:city": "CAPE CORAL", "addr:country": "US", "addr:full": "909 DEL PRADO BLVD S", "addr:postcode": "33990", "addr:state": "FL", "brand": "USPS", "brand:wikidata": "Q668687", "collection_times": "Mo-Sa 16:00", "name": "USPS COLLECTION BOX - BLUE BOX", "note": "ON 12/24 AND 12/31, THIS BOX MAY BE COLLECTED AS EARLY AS 12 NOON.", "ref": "3399000012"}, "type": "Feature"}
{"geometry": {"coordinates": [-81.955453, 26.633525], "type": "Point"}, "id": "vLrqrKWGEZzios2j_0Ee68Yk4Kc=", "properties": {"@spider": "usps_collection_boxes", "addr:city": "CAPE CORAL", "addr:country": "US", "addr:full": "1030 SE 9TH AVE", "addr:postcode": "33990", "addr:state": "FL", "brand": "USPS", "brand:wikidata": "Q668687", "collection_times": "Mo-Fr 17:00; Sa 14:00", "name": "USPS COLLECTION BOX - APC", "note": "ON 12/24 AND 12/31, THIS BOX MAY BE COLLECTED AS EARLY AS 12 NOON.", "ref": "3399000021"}, "type": "Feature"}
{"geometry": {"coordinates": [-81.956451433, 26.632649291], "type": "Point"}, "id": "Z2f5s6qviLkFXLjmFtZkfFHeTOY=", "properties": {"@spider": "usps_collection_boxes", "addr:city": "CAPE CORAL", "addr:country": "US", "addr:full": "1030 SE 9TH AVE", "addr:postcode": "33990", "addr:state": "FL", "brand": "USPS", "brand:wikidata": "Q668687", "collection_times": "Mo-Fr 18:30", "name": "USPS COLLECTION BOX - PO LOBBY", "note": "ON 12/24 AND 12/31, THIS BOX MAY BE COLLECTED AS EARLY AS 12 NOON.", "ref": "3399000024"}, "type": "Feature"}
{"geometry": {"coordinates": [-81.9775542, 26.648766], "type": "Point"}, "id": "dAx2ORenwdohLjf8hjZuySh2Gmw=", "properties": {"@spider": "usps_collection_boxes", "addr:city": "FT MYERS", "addr:country": "US", "addr:full": "106 HANCOCK BRIDGE PKWY W", "addr:postcode": "33991", "addr:state": "FL", "brand": "USPS", "brand:wikidata": "Q668687", "collection_times": "Mo-Sa 13:00", "name": "USPS COLLECTION BOX - BLUE BOX", "note": "ON 12/24 AND 12/31, THIS BOX MAY BE COLLECTED AS EARLY AS 12 NOON.", "ref": "3399100004"}, "type": "Feature"}
{"geometry": {"coordinates": [-82.069637, 26.630554], "type": "Point"}, "id": "SU6160f7sd4PrC8QLFkclEBreOY=", "properties": {"@spider": "usps_collection_boxes", "addr:city": "FT MYERS", "addr:country": "US", "addr:full": "4547 PINE ISLAND RD NW", "addr:postcode": "33993", "addr:state": "FL", "brand": "USPS", "brand:wikidata": "Q668687", "collection_times": "Mo-Sa 17:00", "name": "USPS COLLECTION BOX - BLUE BOX", "note": "ON 12/24 AND 12/31, THIS BOX MAY BE COLLECTED AS EARLY AS 12 NOON.", "ref": "3399300003"}, "type": "Feature"}
