{"dataset_attributes": {"@spider": "usps_collection_boxes"}, "geometry": {"coordinates": [-81.8025077, 26.131008], "type": "Point"}, "id": "Aw8rn3mNm4BFaLwugCWQfyMxLZQ=", "properties": {"@spider": "usps_collection_boxes", "addr:city": "NAPLES", "addr:country": "US", "addr:full": "255 13TH AVE S", "addr:postcode": "34102", "addr:state": "FL", "amenity": "post_box", "brand": "United States Postal Service", "brand:wikidata": "Q668687", "collection_times": "Mo-Fr 15:30; Sa 15:55", "name": "USPS COLLECTION BOX - BLUE BOX", "note": "ON 12/24 AND 12/31, THIS BOX MAY BE COLLECTED AS EARLY AS 12 NOON.", "nsi_id": "unitedstatespostalservice-a77078", "operator": "United States Postal Service", "operator:short": "USPS", "operator:type": "public", "operator:wikidata": "Q668687", "ref": "3410200004"}, "type": "Feature"}
{"dataset_attributes": {"@spider": "usps_collection_boxes"}, "geometry": {"coordinates": [-81.8027152966, 26.1409446378], "type": "Point"}, "id": "DzPJORIAf7-PBFQ2ZSSkbImXWRw=", "properties": {"@spider": "usps_collection_boxes", "addr:city": "NAPLES", "addr:country": "US", "addr:full": "300 5TH AVE S", "addr:postcode": "34102", "addr:state": "FL", "amenity": "post_box", "brand": "United States Postal Service", "brand:wikidata": "Q668687", "collection_times": "Mo-Fr 15:05; Sa 16:05", "name": "USPS COLLECTION BOX - BLUE BOX", "note": "ON 12/24 AND 12/31, THIS BOX MAY BE COLLECTED AS EARLY AS 12 NOON.", "nsi_id": "unitedstatespostalservice-a77078", "operator": "United States Postal Service", "operator:short": "USPS", "operator:type": "public", "operator:wikidata": "Q668687", "ref": "3410200010"}, "type": "Feature"}
{"dataset_attributes": {"@spider": "usps_collection_boxes"}, "geometry": {"coordinates": [-81.7995795, 26.141159], "type": "Point"}, "id": "Wh3qPZwRnclR49iUHA7oq8TYMgQ=", "properties": {"@spider": "usps_collection_boxes", "addr:city": "NAPLES", "addr:country": "US", "addr:full": "550 5TH AVE S", "addr:postcode": "34102", "addr:state": "FL", "amenity": "post_box", "brand": "United States Postal Service", "brand:wikidata": "Q668687", "collection_times": "Mo-Fr 15:10; Sa 16:10", "name": "USPS COLLECTION BOX - BLUE BOX", "note": "ON 12/24 AND 12/31, THIS BOX MAY BE COLLECTED AS EARLY AS 12 NOON.", "nsi_id": "unitedstatespostalservice-a77078", "operator": "United States Postal Service", "operator:short": "USPS", "operator:type": "public", "operator:wikidata": "Q668687", "ref": "3410200013"}, "type": "Feature"}
{"dataset_attributes": {"@spider": "usps_collection_boxes"}, "geometry": {"coordinates": [-81.7950124, 26.140299], "type": "Point"}, "id": "-PEEeyGFB96zNYnVO0dXLQIutKI=", "properties": {"@spider": "usps_collection_boxes", "addr:city": "NAPLES", "addr:country": "US", "addr:full": "860 6TH AVE S", "addr:postcode": "34102", "addr:state": "FL", "amenity": "post_box", "brand": "United States Postal Service", "brand:wikidata": "Q668687", "collection_times": "Mo-Fr 15:30; Sa 16:15", "name": "USPS COLLECTION BOX - BLUE BOX", "note": "ON 12/24 AND 12/31, THIS BOX MAY BE COLLECTED AS EARLY AS 12 NOON.", "nsi_id": "unitedstatespostalservice-a77078", "operator": "United States Postal Service", "operator:short": "USPS", "operator:type": "public", "operator:wikidata": "Q668687", "ref": "3410200041"}, "type": "Feature"}
{"dataset_attributes": {"@spider": "usps_collection_boxes"}, "geometry": {"coordinates": [-81.8006614, 26.172254], "type": "Point"}, "id": "KgyzwO7z5_fLAMWc3pzD9JJjk3s=", "properties": {"@spider": "usps_collection_boxes", "addr:city": "NAPLES", "addr:country": "US", "addr:full": "2095 TAMIAMI TRL N", "addr:postcode": "34102", "addr:state": "FL", "amenity": "post_box", "brand": "United States Postal Service", "brand:wikidata": "Q668687", "collection_times": "Mo-Fr 15:15; Sa 16:15", "name": "USPS COLLECTION BOX - BLUE BOX", "note": "ON 12/24 AND 12/31, THIS BOX MAY BE COLLECTED AS EARLY AS 12 NOON.", "nsi_id": "unitedstatespostalservice-a77078", "operator": "United States Postal Service", "operator:short": "USPS", "operator:type": "public", "operator:wikidata": "Q668687", "ref": "3410200044"}, "type": "Feature"}
{"dataset_attributes": {"@spider": "usps_collection_boxes"}, "geometry": {"coordinates": [-81.79104, 26.162783], "type": "Point"}, "id": "xKKMoUOQdqeMLvLG-HJ13Iz7Ba8=", "properties": {"@spider": "usps_collection_boxes", "addr:city": "NAPLES", "addr:country": "US", "addr:full": "1200 GOODLETTE RD N", "addr:postcode": "34102", "addr:state": "FL", "amenity": "post_box", "brand": "United States Postal Service", "brand:wikidata": "Q668687", "collection_times": "Mo-Sa 17:00", "name": "USPS COLLECTION BOX - BLUE BOX", "note": "ON 12/24 AND 12/31, THIS BOX MAY BE COLLECTED AS EARLY AS 12 NOON.", "nsi_id": "unitedstatespostalservice-a77078", "operator": "United States Postal Service", "operator:short": "USPS", "operator:type": "public", "operator:wikidata": "Q668687", "ref": "3410200046"}, "type": "Feature"}
{"dataset_attributes": {"@spider": "usps_collection_boxes"}, "geometry": {"coordinates": [-81.79104, 26.162783], "type": "Point"}, "id": "rNOeXbZaeQL90yptk-hFl9JVvaI=", "properties": {"@spider": "usps_collection_boxes", "addr:city": "NAPLES", "addr:country": "US", "addr:full": "1200 GOODLETTE RD N", "addr:postcode": "34102", "addr:state": "FL", "amenity": "post_box", "brand": "United States Postal Service", "brand:wikidata": "Q668687", "collection_times": "Mo-Sa 17:00", "name": "USPS COLLECTION BOX - APC", "note": "ON 12/24 AND 12/31, THIS BOX MAY BE COLLECTED AS EARLY AS 12 NOON.", "nsi_id": "unitedstatespostalservice-a77078", "operator": "United States Postal Service", "operator:short": "USPS", "operator:type": "public", "operator:wikidata": "Q668687", "ref": "3410200049"}, "type": "Feature"}
{"dataset_attributes": {"@spider": "usps_collection_boxes"}, "geometry": {"coordinates": [-81.791009357, 26.163142805], "type": "Point"}, "id": "sDnnwGrnkcw1xVszPwM0Y2tNvVY=", "properties": {"@spider": "usps_collection_boxes", "addr:city": "NAPLES", "addr:country": "US", "addr:full": "1200 GOODLETTE RD N", "addr:postcode": "34102", "addr:state": "FL", "amenity": "post_box", "brand": "United States Postal Service", "brand:wikidata": "Q668687", "collection_times": "Mo-Fr 17:00", "name": "USPS COLLECTION BOX - PO LOBBY", "note": "ON 12/24 AND 12/31, THIS BOX MAY BE COLLECTED AS EARLY AS 12 NOON.", "nsi_id": "unitedstatespostalservice-a77078", "operator": "United States Postal Service", "operator:short": "USPS", "operator:type": "public", "operator:wikidata": "Q668687", "ref": "3410200059"}, "type": "Feature"}
{"dataset_attributes": {"@spider": "usps_collection_boxes"}, "geometry": {"coordinates": [-81.7984473, 26.208063], "type": "Point"}, "id": "6WOe-In3IGQUdIyiJMkDMsxOgOc=", "properties": {"@spider": "usps_collection_boxes", "addr:city": "NAPLES", "addr:country": "US", "addr:full": "5051 CASTELLO DR", "addr:postcode": "34103", "addr:state": "FL", "amenity": "post_box", "brand": "United States Postal Service", "brand:wikidata": "Q668687", "collection_times": "Mo-Fr 14:50; Sa 15:50", "name": "USPS COLLECTION BOX - BLUE BOX", "note": "ON 12/24 AND 12/31, THIS BOX MAY BE COLLECTED AS EARLY AS 12 NOON.", "nsi_id": "unitedstatespostalservice-a77078", "operator": "United States Postal Service", "operator:short": "USPS", "operator:type": "public", "operator:wikidata": "Q668687", "ref": "3410300000"}, "type": "Feature"}
{"dataset_attributes": {"@spider": "usps_collection_boxes"}, "geometry": {"coordinates": [-81.8018595, 26.202418], "type": "Point"}, "id": "WgclFNxFXH2RdQThwbMC90Zrqz0=", "properties": {"@spider": "usps_collection_boxes", "addr:city": "NAPLES", "addr:country": "US", "addr:full": "838 NEAPOLITAN WAY", "addr:postcode": "34103", "addr:state": "FL", "amenity": "post_box", "brand": "United States Postal Service", "brand:wikidata": "Q668687", "collection_times": "Mo-Fr 15:00; Sa 16:00", "name": "USPS COLLECTION BOX - BLUE BOX", "note": "ON 12/24 AND 12/31, THIS BOX MAY BE COLLECTED AS EARLY AS 12 NOON.", "nsi_id": "unitedstatespostalservice-a77078", "operator": "United States Postal Service", "operator:short": "USPS", "operator:type": "public", "operator:wikidata": "Q668687", "ref": "3410300003"}, "type": "Feature"}
{"dataset_attributes": {"@spider": "usps_collection_boxes"}, "geometry": {"coordinates": [-81.8015695, 26.19274], "type": "Point"}, "id": "Hg3xZ2N7wCTtYbS1zfDhG705kRY=", "properties": {"@spider": "usps_collection_boxes", "addr:city": "NAPLES", "addr:country": "US", "addr:full": "4001 TAMIAMI TRL N", "addr:postcode": "34103", "addr:state": "FL", "amenity": "post_box", "brand": "United States Postal Service", "brand:wikidata": "Q668687", "collection_times": "Mo-Fr 15:15; Sa 16:15", "name": "USPS COLLECTION BOX - BLUE BOX", "note": "ON 12/24 AND 12/31, THIS BOX MAY BE COLLECTED AS EARLY AS 12 NOON.", "nsi_id": "unitedstatespostalservice-a77078", "operator": "United States Postal Service", "operator:short": "USPS", "operator:type": "public", "operator:wikidata": "Q668687", "ref": "3410300007"}, "type": "Feature"}
{"dataset_attributes": {"@spider": "usps_collection_boxes"}, "geometry": {"coordinates": [-81.8004494, 26.181452], "type": "Point"}, "id": "zR3Dwh3y8yP-Z4U-t4AluvaYAOQ=", "properties": {"@spider": "usps_collection_boxes", "addr:city": "NAPLES", "addr:country": "US", "addr:full": "3003 TAMIAMI TRL N", "addr:postcode": "34103", "addr:state": "FL", "amenity": "post_box", "brand": "United States Postal Service", "brand:wikidata": "Q668687", "collection_times": "Mo-Fr 15:10; Sa 16:10", "name": "USPS COLLECTION BOX - BLUE BOX", "note": "ON 12/24 AND 12/31, THIS BOX MAY BE COLLECTED AS EARLY AS 12 NOON.", "nsi_id": "unitedstatespostalservice-a77078", "operator": "United States Postal Service", "operator:short": "USPS", "operator:type": "public", "operator:wikidata": "Q668687", "ref": "3410300009"}, "type": "Feature"}
{"dataset_attributes": {"@spider": "usps_collection_boxes"}, "geometry": {"coordinates": [-81.8007235, 26.188285], "type": "Point"}, "id": "CKZHxwG39LYh_c8h9w64NzlwHiY=", "properties": {"@spider": "usps_collection_boxes", "addr:city": "NAPLES", "addr:country": "US", "addr:full": "3391 TAMIAMI TRL N", "addr:postcode": "34103", "addr:state": "FL", "amenity": "post_box", "brand": "United States Postal Service", "brand:wikidata": "Q668687", "collection_times": "Mo-Fr 15:05; Sa 16:05", "name": "USPS COLLECTION BOX - BLUE BOX", "note": "ON 12/24 AND 12/31, THIS BOX MAY BE COLLECTED AS EARLY AS 12 NOON.", "nsi_id": "unitedstatespostalservice-a77078", "operator": "United States Postal Service", "operator:short": "USPS", "operator:type": "public", "operator:wikidata": "Q668687", "ref": "3410300015"}, "type": "Feature"}
{"dataset_attributes": {"@spider": "usps_collection_boxes"}, "geometry": {"coordinates": [-81.8008754, 26.201936], "type": "Point"}, "id": "EnmT8ZjZx57OZeKeUWg5v9Fj5CU=", "properties": {"@spider": "usps_collection_boxes", "addr:city": "NAPLES", "addr:country": "US", "addr:full": "4501 TAMIAMI TRL N", "addr:postcode": "34103", "addr:state": "FL", "amenity": "post_box", "brand": "United States Postal Service", "brand:wikidata": "Q668687", "collection_times": "Mo-Fr 15:05; Sa 16:05", "name": "USPS COLLECTION BOX - BLUE BOX", "note": "ON 12/24 AND 12/31, THIS BOX MAY BE COLLECTED AS EARLY AS 12 NOON.", "nsi_id": "unitedstatespostalservice-a77078", "operator": "United States Postal Service", "operator:short": "USPS", "operator:type": "public", "operator:wikidata": "Q668687", "ref": "3410300023"}, "type": "Feature"}
{"dataset_attributes": {"@spider": "usps_collection_boxes"}, "geometry": {"coordinates": [-81.7991875, 26.20708], "type": "Point"}, "id": "rF2nZnsMOgrmU43ME8_GIMtIVMk=", "properties": {"@spider": "usps_collection_boxes", "addr:city": "NAPLES", "addr:country": "US", "addr:full": "4910 TAMIAMI TRL N", "addr:postcode": "34103", "addr:state": "FL", "amenity": "post_box", "brand": "United States Postal Service", "brand:wikidata": "Q668687", "collection_times": "Mo-Fr 14:45; Sa 15:45", "name": "USPS COLLECTION BOX - BLUE BOX", "note": "ON 12/24 AND 12/31, THIS BOX MAY BE COLLECTED AS EARLY AS 12 NOON.", "nsi_id": "unitedstatespostalservice-a77078", "operator": "United States Postal Service", "operator:short": "USPS", "operator:type": "public", "operator:wikidata": "Q668687", "ref": "3410300027"}, "type": "Feature"}
{"dataset_attributes": {"@spider": "usps_collection_boxes"}, "geometry": {"coordinates": [-81.8010296, 26.205445], "type": "Point"}, "id": "dwohe7tLb5BemlgUi3Sea-fg5KE=", "properties": {"@spider": "usps_collection_boxes", "addr:city": "NAPLES", "addr:country": "US", "addr:full": "4851 TAMIAMI TRL N", "addr:postcode": "34103", "addr:state": "FL", "amenity": "post_box", "brand": "United States Postal Service", "brand:wikidata": "Q668687", "collection_times": "Mo-Fr 14:55; Sa 15:55", "name": "USPS COLLECTION BOX - BLUE BOX", "note": "ON 12/24 AND 12/31, THIS BOX MAY BE COLLECTED AS EARLY AS 12 NOON.", "nsi_id": "unitedstatespostalservice-a77078", "operator": "United States Postal Service", "operator:short": "USPS", "operator:type": "public", "operator:wikidata": "Q668687", "ref": "3410300028"}, "type": "Feature"}
{"dataset_attributes": {"@spider": "usps_collection_boxes"}, "geometry": {"coordinates": [-81.7989988, 26.176874], "type": "Point"}, "id": "oycmzRD-8N64AeI5FDv4ZScEiWk=", "properties": {"@spider": "usps_collection_boxes", "addr:city": "NAPLES", "addr:country": "US", "addr:full": "2500 TAMIAMI TRL N", "addr:postcode": "34103", "addr:state": "FL", "amenity": "post_box", "brand": "United States Postal Service", "brand:wikidata": "Q668687", "collection_times": "Mo-Fr 15:50; Sa 16:00", "name": "USPS COLLECTION BOX - BLUE BOX", "note": "ON 12/24 AND 12/31, THIS BOX MAY BE COLLECTED AS EARLY AS 12 NOON.", "nsi_id": "unitedstatespostalservice-a77078", "operator": "United States Postal Service", "operator:short": "USPS", "operator:type": "public", "operator:wikidata": "Q668687", "ref": "3410300031"}, "type": "Feature"}
{"dataset_attributes": {"@spider": "usps_collection_boxes"}, "geometry": {"coordinates": [-81.8003006167, 26.1971640525], "type": "Point"}, "id": "SLP0OCRpFm966iKEDhGYaft6g7M=", "properties": {"@spider": "usps_collection_boxes", "addr:city": "NAPLES", "addr:country": "US", "addr:full": "4099 TAMIAMI TRL N", "addr:postcode": "34103", "addr:state": "FL", "amenity": "post_box", "brand": "United States Postal Service", "brand:wikidata": "Q668687", "collection_times": "Mo-Fr 15:10; Sa 16:10", "name": "USPS COLLECTION BOX - BLUE BOX", "note": "ON 12/24 AND 12/31, THIS BOX MAY BE COLLECTED AS EARLY AS 12 NOON.", "nsi_id": "unitedstatespostalservice-a77078", "operator": "United States Postal Service", "operator:short": "USPS", "operator:type": "public", "operator:wikidata": "Q668687", "ref": "3410300032"}, "type": "Feature"}
{"dataset_attributes": {"@spider": "usps_collection_boxes"}, "geometry": {"coordinates": [-81.7665599, 26.155559], "type": "Point"}, "id": "5boVDikjtLzBjc-1mMPqxeDjw7c=", "properties": {"@spider": "usps_collection_boxes", "addr:city": "NAPLES", "addr:country": "US", "addr:full": "333 AIRPORT RD N", "addr:postcode": "34104", "addr:state": "FL", "amenity": "post_box", "brand": "United States Postal Service", "brand:wikidata": "Q668687", "collection_times": "Sa 16:30", "name": "USPS COLLECTION BOX - BLUE BOX", "note": "ON 12/24 AND 12/31, THIS BOX MAY BE COLLECTED AS EARLY AS 12 NOON.", "nsi_id": "unitedstatespostalservice-a77078", "operator": "United States Postal Service", "operator:short": "USPS", "operator:type": "public", "operator:wikidata": "Q668687", "ref": "3410400001"}, "type": "Feature"}
{"dataset_attributes": {"@spider": "usps_collection_boxes"}, "geometry": {"coordinates": [-81.749281332, 26.138550497], "type": "Point"}, "id": "yyDwPqyVXI-uiK1J80TeBSQV-rs=", "properties": {"@spider": "usps_collection_boxes", "addr:city": "NAPLES", "addr:country": "US", "addr:full": "4840 DAVIS BLVD", "addr:postcode": "34104", "addr:state": "FL", "amenity": "post_box", "brand": "United States Postal Service", "brand:wikidata": "Q668687", "collection_times": "Mo-Fr 10:00; Sa 16:10", "name": "USPS COLLECTION BOX - BLUE BOX", "note": "ON 12/24 AND 12/31, THIS BOX MAY BE COLLECTED AS EARLY AS 12 NOON.", "nsi_id": "unitedstatespostalservice-a77078", "operator": "United States Postal Service", "operator:short": "USPS", "operator:type": "public", "operator:wikidata": "Q668687", "ref": "3410400005"}, "type": "Feature"}
{"dataset_attributes": {"@spider": "usps_collection_boxes"}, "geometry": {"coordinates": [-81.7678636, 26.16104], "type": "Point"}, "id": "0S8Y2hN0ybXEMkeR420naH5CwXY=", "properties": {"@spider": "usps_collection_boxes", "addr:city": "NAPLES", "addr:country": "US", "addr:full": "3170 HORSESHOE DR S", "addr:postcode": "34104", "addr:state": "FL", "amenity": "post_box", "brand": "United States Postal Service", "brand:wikidata": "Q668687", "collection_times": "Mo-Sa 12:30", "name": "USPS COLLECTION BOX - BLUE BOX", "note": "ON 12/24 AND 12/31, THIS BOX MAY BE COLLECTED AS EARLY AS 12 NOON.", "nsi_id": "unitedstatespostalservice-a77078", "operator": "United States Postal Service", "operator:short": "USPS", "operator:type": "public", "operator:wikidata": "Q668687", "ref": "3410400007"}, "type": "Feature"}
{"dataset_attributes": {"@spider": "usps_collection_boxes"}, "geometry": {"coordinates": [-81.7212765, 26.156469], "type": "Point"}, "id": "GNUPartqcWxNjQC8nPATLplIVLM=", "properties": {"@spider": "usps_collection_boxes", "addr:city": "NAPLES", "addr:country": "US", "addr:full": "7231 RADIO RD", "addr:postcode": "34104", "addr:state": "FL", "amenity": "post_box", "brand": "United States Postal Service", "brand:wikidata": "Q668687", "collection_times": "Mo-Sa 11:30", "name": "USPS COLLECTION BOX - BLUE BOX", "nsi_id": "unitedstatespostalservice-a77078", "operator": "United States Postal Service", "operator:short": "USPS", "operator:type": "public", "operator:wikidata": "Q668687", "ref": "3410400014"}, "type": "Feature"}
{"dataset_attributes": {"@spider": "usps_collection_boxes"}, "geometry": {"coordinates": [-81.7661293, 26.15294], "type": "Point"}, "id": "cFmLnz1FGqVnR851xb8g0D9PzPA=", "properties": {"@spider": "usps_collection_boxes", "addr:city": "NAPLES", "addr:country": "US", "addr:full": "151 AIRPORT RD S", "addr:postcode": "34104", "addr:state": "FL", "amenity": "post_box", "brand": "United States Postal Service", "brand:wikidata": "Q668687", "collection_times": "Mo-Sa 11:00", "name": "USPS COLLECTION BOX - BLUE BOX", "nsi_id": "unitedstatespostalservice-a77078", "operator": "United States Postal Service", "operator:short": "USPS", "operator:type": "public", "operator:wikidata": "Q668687", "ref": "3410400015"}, "type": "Feature"}
{"dataset_attributes": {"@spider": "usps_collection_boxes"}, "geometry": {"coordinates": [-81.7644483, 26.164415], "type": "Point"}, "id": "LTQAFfuTGSmu1edB3fU4LNyrVBo=", "properties": {"@spider": "usps_collection_boxes", "addr:city": "NAPLES", "addr:country": "US", "addr:full": "3573 PROGRESS AVE", "addr:postcode": "34104", "addr:state": "FL", "amenity": "post_box", "brand": "United States Postal Service", "brand:wikidata": "Q668687", "collection_times": "Mo-Fr 17:00; Sa 16:35", "name": "USPS COLLECTION BOX - BLUE BOX", "note": "ON 12/24 AND 12/31, THIS BOX MAY BE COLLECTED AS EARLY AS 12 NOON.", "nsi_id": "unitedstatespostalservice-a77078", "operator": "United States Postal Service", "operator:short": "USPS", "operator:type": "public", "operator:wikidata": "Q668687", "ref": "3410400021"}, "type": "Feature"}
{"dataset_attributes": {"@spider": "usps_collection_boxes"}, "geometry": {"coordinates": [-81.7696816778, 26.191599545], "type": "Point"}, "id": "kScrUJUBtYsfwB_u3Xj_fdjPppI=", "properties": {"@spider": "usps_collection_boxes", "addr:city": "NAPLES", "addr:country": "US", "addr:full": "3200 BAILEY LN", "addr:postcode": "34105", "addr:state": "FL", "amenity": "post_box", "brand": "United States Postal Service", "brand:wikidata": "Q668687", "collection_times": "Mo-Fr 15:15; Sa 15:50", "name": "USPS COLLECTION BOX - BLUE BOX", "note": "ON 12/24 AND 12/31, THIS BOX MAY BE COLLECTED AS EARLY AS 12 NOON.", "nsi_id": "unitedstatespostalservice-a77078", "operator": "United States Postal Service", "operator:short": "USPS", "operator:type": "public", "operator:wikidata": "Q668687", "ref": "3410500003"}, "type": "Feature"}
{"dataset_attributes": {"@spider": "usps_collection_boxes"}, "geometry": {"coordinates": [-81.8025079, 26.215452], "type": "Point"}, "id": "ThX2O2tOgZm_NDSxP4yxPZOw0wQ=", "properties": {"@spider": "usps_collection_boxes", "addr:city": "NAPLES", "addr:country": "US", "addr:full": "801 LAUREL OAK DR", "addr:postcode": "34108", "addr:state": "FL", "amenity": "post_box", "brand": "United States Postal Service", "brand:wikidata": "Q668687", "collection_times": "Mo-Sa 15:40", "name": "USPS COLLECTION BOX - BLUE BOX", "note": "ON 12/24 AND 12/31, THIS BOX MAY BE COLLECTED AS EARLY AS 12 NOON.", "nsi_id": "unitedstatespostalservice-a77078", "operator": "United States Postal Service", "operator:short": "USPS", "operator:type": "public", "operator:wikidata": "Q668687", "ref": "3410800001"}, "type": "Feature"}
{"dataset_attributes": {"@spider": "usps_collection_boxes"}, "geometry": {"coordinates": [-81.8026195, 26.247932], "type": "Point"}, "id": "O2q4fMQGqHR5z8kB8PI4USIXJMw=", "properties": {"@spider": "usps_collection_boxes", "addr:city": "NAPLES", "addr:country": "US", "addr:full": "8805 TAMIAMI TRL N", "addr:postcode": "34108", "addr:state": "FL", "amenity": "post_box", "brand": "United States Postal Service", "brand:wikidata": "Q668687", "collection_times": "Mo-Sa 15:30", "name": "USPS COLLECTION BOX - BLUE BOX", "note": "ON 12/24 AND 12/31, THIS BOX MAY BE COLLECTED AS EARLY AS 12 NOON.", "nsi_id": "unitedstatespostalservice-a77078", "operator": "United States Postal Service", "operator:short": "USPS", "operator:type": "public", "operator:wikidata": "Q668687", "ref": "3410800010"}, "type": "Feature"}
{"dataset_attributes": {"@spider": "usps_collection_boxes"}, "geometry": {"coordinates": [-81.8044277, 26.251929], "type": "Point"}, "id": "14IaVBS-tNUpCoq1dafbliXXh5U=", "properties": {"@spider": "usps_collection_boxes", "addr:city": "NAPLES", "addr:country": "US", "addr:full": "851 VANDERBILT BEACH RD", "addr:postcode": "34108", "addr:state": "FL", "amenity": "post_box", "brand": "United States Postal Service", "brand:wikidata": "Q668687", "collection_times": "Mo-Fr 15:00; Sa 12:00", "name": "USPS COLLECTION BOX - BLUE BOX", "note": "ON 12/24 AND 12/31, THIS BOX MAY BE COLLECTED AS EARLY AS 12 NOON.", "nsi_id": "unitedstatespostalservice-a77078", "operator": "United States Postal Service", "operator:short": "USPS", "operator:type": "public", "operator:wikidata": "Q668687", "ref": "3410800017"}, "type": "Feature"}
{"dataset_attributes": {"@spider": "usps_collection_boxes"}, "geometry": {"coordinates": [-81.79554, 26.271878], "type": "Point"}, "id": "YjJ4-5vsAYQvdnw-ya1a75oLspQ=", "properties": {"@spider": "usps_collection_boxes", "addr:city": "NAPLES", "addr:country": "US", "addr:full": "1130 CREEKSIDE WAY", "addr:postcode": "34108", "addr:state": "FL", "amenity": "post_box", "brand": "United States Postal Service", "brand:wikidata": "Q668687", "collection_times": "Mo-Sa 17:00", "name": "USPS COLLECTION BOX - APC", "note": "ON 12/24 AND 12/31, THIS BOX MAY BE COLLECTED AS EARLY AS 12 NOON.", "nsi_id": "unitedstatespostalservice-a77078", "operator": "United States Postal Service", "operator:short": "USPS", "operator:type": "public", "operator:wikidata": "Q668687", "ref": "3410800024"}, "type": "Feature"}
{"dataset_attributes": {"@spider": "usps_collection_boxes"}, "geometry": {"coordinates": [-81.8025113, 26.215446], "type": "Point"}, "id": "AmYmtJ6aFHfl6K6B2Rps_rcI8wA=", "properties": {"@spider": "usps_collection_boxes", "addr:city": "NAPLES", "addr:country": "US", "addr:full": "801 LAUREL OAK DR", "addr:postcode": "34108", "addr:state": "FL", "amenity": "post_box", "brand": "United States Postal Service", "brand:wikidata": "Q668687", "collection_times": "Mo-Sa 15:40", "name": "USPS COLLECTION BOX - BLUE BOX", "note": "ON 12/24 AND 12/31, THIS BOX MAY BE COLLECTED AS EARLY AS 12 NOON.", "nsi_id": "unitedstatespostalservice-a77078", "operator": "United States Postal Service", "operator:short": "USPS", "operator:type": "public", "operator:wikidata": "Q668687", "ref": "3410800026"}, "type": "Feature"}
{"dataset_attributes": {"@spider": "usps_collection_boxes"}, "geometry": {"coordinates": [-81.7943450497, 26.2711355306], "type": "Point"}, "id": "YI2kAdUNbjnhYR3lvWQ4xnpZWtQ=", "properties": {"@spider": "usps_collection_boxes", "addr:city": "NAPLES", "addr:country": "US", "addr:full": "1130 CREEKSIDE PKWY", "addr:postcode": "34108", "addr:state": "FL", "amenity": "post_box", "brand": "United States Postal Service", "brand:wikidata": "Q668687", "collection_times": "Mo-Sa 17:00", "name": "USPS COLLECTION BOX - BLUE BOX", "note": "ON 12/24 AND 12/31, THIS BOX MAY BE COLLECTED AS EARLY AS 12 NOON.", "nsi_id": "unitedstatespostalservice-a77078", "operator": "United States Postal Service", "operator:short": "USPS", "operator:type": "public", "operator:wikidata": "Q668687", "ref": "3410800028"}, "type": "Feature"}
{"dataset_attributes": {"@spider": "usps_collection_boxes"}, "geometry": {"coordinates": [-81.7943450497, 26.2711355306], "type": "Point"}, "id": "mH0xcuEBK6DjXIpqHPBn-krPKc0=", "properties": {"@spider": "usps_collection_boxes", "addr:city": "NAPLES", "addr:country": "US", "addr:full": "1130 CREEKSIDE PKWY", "addr:postcode": "34108", "addr:state": "FL", "amenity": "post_box", "brand": "United States Postal Service", "brand:wikidata": "Q668687", "collection_times": "Mo-Fr 17:00", "name": "USPS COLLECTION BOX - PO LOBBY", "note": "ON 12/24 AND 12/31, THIS BOX MAY BE COLLECTED AS EARLY AS 12 NOON.", "nsi_id": "unitedstatespostalservice-a77078", "operator": "United States Postal Service", "operator:short": "USPS", "operator:type": "public", "operator:wikidata": "Q668687", "ref": "3410800032"}, "type": "Feature"}
{"dataset_attributes": {"@spider": "usps_collection_boxes"}, "geometry": {"coordinates": [-81.7700907, 26.213782], "type": "Point"}, "id": "NyYrNgV5C2dW3pO5IvTfJWo9FT0=", "properties": {"@spider": "usps_collection_boxes", "addr:city": "NAPLES", "addr:country": "US", "addr:full": "5401 AIRPORT RD N", "addr:postcode": "34109", "addr:state": "FL", "amenity": "post_box", "brand": "United States Postal Service", "brand:wikidata": "Q668687", "collection_times": "Mo-Sa 15:35", "name": "USPS COLLECTION BOX - BLUE BOX", "note": "ON 12/24 AND 12/31, THIS BOX MAY BE COLLECTED AS EARLY AS 12 NOON.", "nsi_id": "unitedstatespostalservice-a77078", "operator": "United States Postal Service", "operator:short": "USPS", "operator:type": "public", "operator:wikidata": "Q668687", "ref": "3410900000"}, "type": "Feature"}
{"dataset_attributes": {"@spider": "usps_collection_boxes"}, "geometry": {"coordinates": [-81.7838546, 26.223628], "type": "Point"}, "id": "oCoIlyRGogUj_hAR3S803j80FDw=", "properties": {"@spider": "usps_collection_boxes", "addr:city": "NAPLES", "addr:country": "US", "addr:full": "1718 J AND C BLVD", "addr:postcode": "34109", "addr:state": "FL", "amenity": "post_box", "brand": "United States Postal Service", "brand:wikidata": "Q668687", "collection_times": "Mo-Sa 15:40", "name": "USPS COLLECTION BOX - BLUE BOX", "note": "ON 12/24 AND 12/31, THIS BOX MAY BE COLLECTED AS EARLY AS 12 NOON.", "nsi_id": "unitedstatespostalservice-a77078", "operator": "United States Postal Service", "operator:short": "USPS", "operator:type": "public", "operator:wikidata": "Q668687", "ref": "3410900005"}, "type": "Feature"}
{"dataset_attributes": {"@spider": "usps_collection_boxes"}, "geometry": {"coordinates": [-81.7749581, 26.244494], "type": "Point"}, "id": "RPP3y4EAGPmeYfp6mWzTZyJHyGU=", "properties": {"@spider": "usps_collection_boxes", "addr:city": "NAPLES", "addr:country": "US", "addr:full": "8950 FONTANA DEL SOL WAY", "addr:postcode": "34109", "addr:state": "FL", "amenity": "post_box", "brand": "United States Postal Service", "brand:wikidata": "Q668687", "collection_times": "Mo-Sa 15:50", "name": "USPS COLLECTION BOX - BLUE BOX", "note": "ON 12/24 AND 12/31, THIS BOX MAY BE COLLECTED AS EARLY AS 12 NOON.", "nsi_id": "unitedstatespostalservice-a77078", "operator": "United States Postal Service", "operator:short": "USPS", "operator:type": "public", "operator:wikidata": "Q668687", "ref": "3410900009"}, "type": "Feature"}
{"dataset_attributes": {"@spider": "usps_collection_boxes"}, "geometry": {"coordinates": [-81.7685391, 26.241902], "type": "Point"}, "id": "Vc611c13arM-g2jDTwdkELFU3qw=", "properties": {"@spider": "usps_collection_boxes", "addr:city": "NAPLES", "addr:country": "US", "addr:full": "2430 VANDERBILT BEACH RD", "addr:postcode": "34109", "addr:state": "FL", "amenity": "post_box", "brand": "United States Postal Service", "brand:wikidata": "Q668687", "collection_times": "Mo-Sa 15:45", "name": "USPS COLLECTION BOX - BLUE BOX", "note": "ON 12/24 AND 12/31, THIS BOX MAY BE COLLECTED AS EARLY AS 12 NOON.", "nsi_id": "unitedstatespostalservice-a77078", "operator": "United States Postal Service", "operator:short": "USPS", "operator:type": "public", "operator:wikidata": "Q668687", "ref": "3410900010"}, "type": "Feature"}
{"dataset_attributes": {"@spider": "usps_collection_boxes"}, "geometry": {"coordinates": [-81.8005619, 26.289544], "type": "Point"}, "id": "ChdSkNqph6m81JiAc-6HZeRaxv4=", "properties": {"@spider": "usps_collection_boxes", "addr:city": "NAPLES", "addr:country": "US", "addr:full": "975 IMPERIAL GOLF COURSE BLVD", "addr:postcode": "34110", "addr:state": "FL", "amenity": "post_box", "brand": "United States Postal Service", "brand:wikidata": "Q668687", "collection_times": "Mo-Sa 15:50", "name": "USPS COLLECTION BOX - BLUE BOX", "note": "ON 12/24 AND 12/31, THIS BOX MAY BE COLLECTED AS EARLY AS 12 NOON.", "nsi_id": "unitedstatespostalservice-a77078", "operator": "United States Postal Service", "operator:short": "USPS", "operator:type": "public", "operator:wikidata": "Q668687", "ref": "3411000002"}, "type": "Feature"}
{"dataset_attributes": {"@spider": "usps_collection_boxes"}, "geometry": {"coordinates": [-81.7712016, 26.273556], "type": "Point"}, "id": "bLVidG7LR2vIqNOZZ_dL4Pwncdw=", "properties": {"@spider": "usps_collection_boxes", "addr:city": "NAPLES", "addr:country": "US", "addr:full": "90 CYPRESS WAY E", "addr:postcode": "34110", "addr:state": "FL", "amenity": "post_box", "brand": "United States Postal Service", "brand:wikidata": "Q668687", "collection_times": "Mo-Sa 16:00", "name": "USPS COLLECTION BOX - BLUE BOX", "note": "ON 12/24 AND 12/31, THIS BOX MAY BE COLLECTED AS EARLY AS 12 NOON.", "nsi_id": "unitedstatespostalservice-a77078", "operator": "United States Postal Service", "operator:short": "USPS", "operator:type": "public", "operator:wikidata": "Q668687", "ref": "3411000007"}, "type": "Feature"}
{"dataset_attributes": {"@spider": "usps_collection_boxes"}, "geometry": {"coordinates": [-81.7731380192, 26.271002994], "type": "Point"}, "id": "mQyQ1xQoo-A3ghJJxz0HqwO0I7Q=", "properties": {"@spider": "usps_collection_boxes", "addr:city": "NAPLES", "addr:country": "US", "addr:full": "2338 IMMOKALEE RD", "addr:postcode": "34110", "addr:state": "FL", "amenity": "post_box", "brand": "United States Postal Service", "brand:wikidata": "Q668687", "collection_times": "Mo-Sa 12:00", "name": "USPS COLLECTION BOX - BLUE BOX", "nsi_id": "unitedstatespostalservice-a77078", "operator": "United States Postal Service", "operator:short": "USPS", "operator:type": "public", "operator:wikidata": "Q668687", "ref": "3411000010"}, "type": "Feature"}
{"dataset_attributes": {"@spider": "usps_collection_boxes"}, "geometry": {"coordinates": [-81.8013847, 26.292827], "type": "Point"}, "id": "lD1e15kWSWxeDPWkMAq859o1mdU=", "properties": {"@spider": "usps_collection_boxes", "addr:city": "NAPLES", "addr:country": "US", "addr:full": "13500 TAMIAMI TRL N", "addr:postcode": "34110", "addr:state": "FL", "amenity": "post_box", "brand": "United States Postal Service", "brand:wikidata": "Q668687", "collection_times": "Mo-Sa 15:55", "name": "USPS COLLECTION BOX - BLUE BOX", "note": "ON 12/24 AND 12/31, THIS BOX MAY BE COLLECTED AS EARLY AS 12 NOON.", "nsi_id": "unitedstatespostalservice-a77078", "operator": "United States Postal Service", "operator:short": "USPS", "operator:type": "public", "operator:wikidata": "Q668687", "ref": "3411000012"}, "type": "Feature"}
{"dataset_attributes": {"@spider": "usps_collection_boxes"}, "geometry": {"coordinates": [-81.7652057, 26.128399], "type": "Point"}, "id": "bq0Tze9tGkq0q4sG9Hhz2eqy3gM=", "properties": {"@spider": "usps_collection_boxes", "addr:city": "NAPLES", "addr:country": "US", "addr:full": "3301 TAMIAMI TRL E", "addr:postcode": "34112", "addr:state": "FL", "amenity": "post_box", "brand": "United States Postal Service", "brand:wikidata": "Q668687", "collection_times": "Mo-Sa 16:10", "name": "USPS COLLECTION BOX - BLUE BOX", "note": "ON 12/24 AND 12/31, THIS BOX MAY BE COLLECTED AS EARLY AS 12 NOON.", "nsi_id": "unitedstatespostalservice-a77078", "operator": "United States Postal Service", "operator:short": "USPS", "operator:type": "public", "operator:wikidata": "Q668687", "ref": "3411200006"}, "type": "Feature"}
{"dataset_attributes": {"@spider": "usps_collection_boxes"}, "geometry": {"coordinates": [-81.7600366, 26.122631], "type": "Point"}, "id": "RderuCqnXbxTmiAAgY32lh8Wwd4=", "properties": {"@spider": "usps_collection_boxes", "addr:city": "NAPLES", "addr:country": "US", "addr:full": "3701 TAMIAMI TRL E", "addr:postcode": "34112", "addr:state": "FL", "amenity": "post_box", "brand": "United States Postal Service", "brand:wikidata": "Q668687", "collection_times": "Mo-Sa 16:05", "name": "USPS COLLECTION BOX - BLUE BOX", "note": "ON 12/24 AND 12/31, THIS BOX MAY BE COLLECTED AS EARLY AS 12 NOON.", "nsi_id": "unitedstatespostalservice-a77078", "operator": "United States Postal Service", "operator:short": "USPS", "operator:type": "public", "operator:wikidata": "Q668687", "ref": "3411200011"}, "type": "Feature"}
{"dataset_attributes": {"@spider": "usps_collection_boxes"}, "geometry": {"coordinates": [-81.7652184, 26.128406], "type": "Point"}, "id": "fyHQUY5Rug0jGMizG57RgqhiJCA=", "properties": {"@spider": "usps_collection_boxes", "addr:city": "NAPLES", "addr:country": "US", "addr:full": "3301 TAMIAMI TRL E", "addr:postcode": "34112", "addr:state": "FL", "amenity": "post_box", "brand": "United States Postal Service", "brand:wikidata": "Q668687", "collection_times": "Mo-Sa 16:10", "name": "USPS COLLECTION BOX - BLUE BOX", "note": "ON 12/24 AND 12/31, THIS BOX MAY BE COLLECTED AS EARLY AS 12 NOON.", "nsi_id": "unitedstatespostalservice-a77078", "operator": "United States Postal Service", "operator:short": "USPS", "operator:type": "public", "operator:wikidata": "Q668687", "ref": "3411200016"}, "type": "Feature"}
{"dataset_attributes": {"@spider": "usps_collection_boxes"}, "geometry": {"coordinates": [-81.7464793, 26.106854], "type": "Point"}, "id": "wnz1v1FzHqhkLoJpF9WkwhKQMcM=", "properties": {"@spider": "usps_collection_boxes", "addr:city": "NAPLES", "addr:country": "US", "addr:full": "5091 TAMIAMI TRL E", "addr:postcode": "34113", "addr:state": "FL", "amenity": "post_box", "brand": "United States Postal Service", "brand:wikidata": "Q668687", "collection_times": "Sa 16:00", "name": "USPS COLLECTION BOX - BLUE BOX", "note": "ON 12/24 AND 12/31, THIS BOX MAY BE COLLECTED AS EARLY AS 12 NOON.", "nsi_id": "unitedstatespostalservice-a77078", "operator": "United States Postal Service", "operator:short": "USPS", "operator:type": "public", "operator:wikidata": "Q668687", "ref": "3411300007"}, "type": "Feature"}
{"dataset_attributes": {"@spider": "usps_collection_boxes"}, "geometry": {"coordinates": [-81.7372727, 26.109805], "type": "Point"}, "id": "mqVufZF8E5NVD2TQNy4pzpRyK9Y=", "properties": {"@spider": "usps_collection_boxes", "addr:city": "NAPLES", "addr:country": "US", "addr:full": "5482 RATTLESNAKE HAMMOCK RD", "addr:postcode": "34113", "addr:state": "FL", "amenity": "post_box", "brand": "United States Postal Service", "brand:wikidata": "Q668687", "collection_times": "Sa 15:15", "name": "USPS COLLECTION BOX - BLUE BOX", "note": "ON 12/24 AND 12/31, THIS BOX MAY BE COLLECTED AS EARLY AS 12 NOON.", "nsi_id": "unitedstatespostalservice-a77078", "operator": "United States Postal Service", "operator:short": "USPS", "operator:type": "public", "operator:wikidata": "Q668687", "ref": "3411300010"}, "type": "Feature"}
{"dataset_attributes": {"@spider": "usps_collection_boxes"}, "geometry": {"coordinates": [-81.6882084, 26.184781], "type": "Point"}, "id": "dfWBbECoe6dh5RTYyFVE0OYwOg0=", "properties": {"@spider": "usps_collection_boxes", "addr:city": "NAPLES", "addr:country": "US", "addr:full": "11665 COLLIER BLVD", "addr:postcode": "34116", "addr:state": "FL", "amenity": "post_box", "brand": "United States Postal Service", "brand:wikidata": "Q668687", "collection_times": "Mo-Sa 13:45", "name": "USPS COLLECTION BOX - BLUE BOX", "note": "ON 12/24 AND 12/31, THIS BOX MAY BE COLLECTED AS EARLY AS 12 NOON.", "nsi_id": "unitedstatespostalservice-a77078", "operator": "United States Postal Service", "operator:short": "USPS", "operator:type": "public", "operator:wikidata": "Q668687", "ref": "3411600003"}, "type": "Feature"}
{"dataset_attributes": {"@spider": "usps_collection_boxes"}, "geometry": {"coordinates": [-81.7070241, 26.181012], "type": "Point"}, "id": "hYopSoB-WitiupgdwsJI5VpW9LA=", "properties": {"@spider": "usps_collection_boxes", "addr:city": "NAPLES", "addr:country": "US", "addr:full": "4875 GOLDEN GATE PKWY", "addr:postcode": "34116", "addr:state": "FL", "amenity": "post_box", "brand": "United States Postal Service", "brand:wikidata": "Q668687", "collection_times": "Mo-Sa 10:45", "name": "USPS COLLECTION BOX - BLUE BOX", "nsi_id": "unitedstatespostalservice-a77078", "operator": "United States Postal Service", "operator:short": "USPS", "operator:type": "public", "operator:wikidata": "Q668687", "ref": "3411600006"}, "type": "Feature"}
{"dataset_attributes": {"@spider": "usps_collection_boxes"}, "geometry": {"coordinates": [-81.6890429713, 26.2007999868], "type": "Point"}, "id": "zS5FWFwG-AhD9FgsaU4_ykZFdfQ=", "properties": {"@spider": "usps_collection_boxes", "addr:city": "NAPLES", "addr:country": "US", "addr:full": "4080 15TH AVE SW", "addr:postcode": "34116", "addr:state": "FL", "amenity": "post_box", "brand": "United States Postal Service", "brand:wikidata": "Q668687", "collection_times": "Mo-Sa 15:00", "name": "USPS COLLECTION BOX - BLUE BOX", "note": "ON 12/24 AND 12/31, THIS BOX MAY BE COLLECTED AS EARLY AS 12 NOON.", "nsi_id": "unitedstatespostalservice-a77078", "operator": "United States Postal Service", "operator:short": "USPS", "operator:type": "public", "operator:wikidata": "Q668687", "ref": "3411600009"}, "type": "Feature"}
{"dataset_attributes": {"@spider": "usps_collection_boxes"}, "geometry": {"coordinates": [-81.687200597, 26.184834], "type": "Point"}, "id": "ix98Vh1e0n_dJ6Gwjjd_uz_28oc=", "properties": {"@spider": "usps_collection_boxes", "addr:city": "NAPLES", "addr:country": "US", "addr:full": "11665 COLLIER BLVD", "addr:postcode": "34116", "addr:state": "FL", "amenity": "post_box", "brand": "United States Postal Service", "brand:wikidata": "Q668687", "collection_times": "Mo-Fr 16:00", "name": "USPS COLLECTION BOX - PO LOBBY", "note": "ON 12/24 AND 12/31, THIS BOX MAY BE COLLECTED AS EARLY AS 12 NOON.", "nsi_id": "unitedstatespostalservice-a77078", "operator": "United States Postal Service", "operator:short": "USPS", "operator:type": "public", "operator:wikidata": "Q668687", "ref": "3411600012"}, "type": "Feature"}
{"dataset_attributes": {"@spider": "usps_collection_boxes"}, "geometry": {"coordinates": [-81.8094863, 26.380802], "type": "Point"}, "id": "tPWQ67hAXNIp6KY1Lh0-Kp4dXVA=", "properties": {"@spider": "usps_collection_boxes", "addr:city": "BONITA SPRINGS", "addr:country": "US", "addr:full": "24600 TAMIAMI TRL", "addr:postcode": "34134", "addr:state": "FL", "amenity": "post_box", "brand": "United States Postal Service", "brand:wikidata": "Q668687", "collection_times": "Sa 13:00", "name": "USPS COLLECTION BOX - BLUE BOX", "note": "ON 12/24 AND 12/31, THIS BOX MAY BE COLLECTED AS EARLY AS 12 NOON.", "nsi_id": "unitedstatespostalservice-a77078", "operator": "United States Postal Service", "operator:short": "USPS", "operator:type": "public", "operator:wikidata": "Q668687", "ref": "3413400012"}, "type": "Feature"}
{"dataset_attributes": {"@spider": "usps_collection_boxes"}, "geometry": {"coordinates": [-81.801911, 26.330563], "type": "Point"}, "id": "HwNLV_aDEcif14IPqjdZs4P8GDI=", "properties": {"@spider": "usps_collection_boxes", "addr:city": "BONITA SPRINGS", "addr:country": "US", "addr:full": "9071 BONITA BEACH RD SE", "addr:postcode": "34135", "addr:state": "FL", "amenity": "post_box", "brand": "United States Postal Service", "brand:wikidata": "Q668687", "collection_times": "Mo-Fr 17:00; Sa 13:00", "name": "USPS COLLECTION BOX - BLUE BOX", "note": "ON 12/24 AND 12/31, THIS BOX MAY BE COLLECTED AS EARLY AS 12 NOON.", "nsi_id": "unitedstatespostalservice-a77078", "operator": "United States Postal Service", "operator:short": "USPS", "operator:type": "public", "operator:wikidata": "Q668687", "ref": "3413500002"}, "type": "Feature"}
{"dataset_attributes": {"@spider": "usps_collection_boxes"}, "geometry": {"coordinates": [-81.786811, 26.358758], "type": "Point"}, "id": "--QmYmNZNhfbibArl-tG0fjhxHg=", "properties": {"@spider": "usps_collection_boxes", "addr:city": "BONITA SPRINGS", "addr:country": "US", "addr:full": "26150 OLD 41 RD", "addr:postcode": "34135", "addr:state": "FL", "amenity": "post_box", "brand": "United States Postal Service", "brand:wikidata": "Q668687", "collection_times": "Mo-Sa 17:00", "name": "USPS COLLECTION BOX - BLUE BOX", "note": "ON 12/24 AND 12/31, THIS BOX MAY BE COLLECTED AS EARLY AS 12 NOON.", "nsi_id": "unitedstatespostalservice-a77078", "operator": "United States Postal Service", "operator:short": "USPS", "operator:type": "public", "operator:wikidata": "Q668687", "ref": "3413500018"}, "type": "Feature"}
{"dataset_attributes": {"@spider": "usps_collection_boxes"}, "geometry": {"coordinates": [-81.786718, 26.358714], "type": "Point"}, "id": "txSiZ98lEn8PX8NgpFEWnbY6_jw=", "properties": {"@spider": "usps_collection_boxes", "addr:city": "BONITA SPRINGS", "addr:country": "US", "addr:full": "26150 OLD 41 RD", "addr:postcode": "34135", "addr:state": "FL", "amenity": "post_box", "brand": "United States Postal Service", "brand:wikidata": "Q668687", "collection_times": "Mo-Fr 17:00; Sa 12:00", "name": "USPS COLLECTION BOX - APC", "note": "ON 12/24 AND 12/31, THIS BOX MAY BE COLLECTED AS EARLY AS 12 NOON.", "nsi_id": "unitedstatespostalservice-a77078", "operator": "United States Postal Service", "operator:short": "USPS", "operator:type": "public", "operator:wikidata": "Q668687", "ref": "3413500021"}, "type": "Feature"}
{"dataset_attributes": {"@spider": "usps_collection_boxes"}, "geometry": {"coordinates": [-81.787440551, 26.359306475], "type": "Point"}, "id": "0a5aTqfLgmUiZszNxrfCjKJATao=", "properties": {"@spider": "usps_collection_boxes", "addr:city": "BONITA SPRINGS", "addr:country": "US", "addr:full": "26150 OLD 41 RD", "addr:postcode": "34135", "addr:state": "FL", "amenity": "post_box", "brand": "United States Postal Service", "brand:wikidata": "Q668687", "collection_times": "Mo-Fr 16:30", "name": "USPS COLLECTION BOX - PO LOBBY", "note": "ON 12/24 AND 12/31, THIS BOX MAY BE COLLECTED AS EARLY AS 12 NOON.", "nsi_id": "unitedstatespostalservice-a77078", "operator": "United States Postal Service", "operator:short": "USPS", "operator:type": "public", "operator:wikidata": "Q668687", "ref": "3413500026"}, "type": "Feature"}
{"dataset_attributes": {"@spider": "usps_collection_boxes"}, "geometry": {"coordinates": [-81.801913081, 26.330559542], "type": "Point"}, "id": "fNQ2j7sANHZ_aBAXJWmeKBwkQbc=", "properties": {"@spider": "usps_collection_boxes", "addr:city": "BONITA SPRINGS", "addr:country": "US", "addr:full": "9071 BONITA BEACH RD SE", "addr:postcode": "34135", "addr:state": "FL", "amenity": "post_box", "brand": "United States Postal Service", "brand:wikidata": "Q668687", "collection_times": "Mo-Fr 16:30", "name": "USPS COLLECTION BOX - PO LOBBY", "note": "ON 12/24 AND 12/31, THIS BOX MAY BE COLLECTED AS EARLY AS 12 NOON.", "nsi_id": "unitedstatespostalservice-a77078", "operator": "United States Postal Service", "operator:short": "USPS", "operator:type": "public", "operator:wikidata": "Q668687", "ref": "3413500027"}, "type": "Feature"}
{"dataset_attributes": {"@spider": "usps_collection_boxes"}, "geometry": {"coordinates": [-81.3593335473, 25.8151405284], "type": "Point"}, "id": "j74EnxV1myugn5n3CVCN3Wtl-BM=", "properties": {"@spider": "usps_collection_boxes", "addr:city": "CHOKOLOSKEE", "addr:country": "US", "addr:full": "195 SMALLWOOD DR", "addr:postcode": "34138", "addr:state": "FL", "amenity": "post_box", "brand": "United States Postal Service", "brand:wikidata": "Q668687", "collection_times": "Mo-Fr 16:00; Sa 15:30", "name": "USPS COLLECTION BOX - BLUE BOX", "note": "ON 12/24 AND 12/31, THIS BOX MAY BE COLLECTED AS EARLY AS 12 NOON.", "nsi_id": "unitedstatespostalservice-a77078", "operator": "United States Postal Service", "operator:short": "USPS", "operator:type": "public", "operator:wikidata": "Q668687", "ref": "3413800000"}, "type": "Feature"}
{"dataset_attributes": {"@spider": "usps_collection_boxes"}, "geometry": {"coordinates": [-81.6470705579, 25.925364199], "type": "Point"}, "id": "uumoZWJMeT4bxIYsDDHdnLmLGGc=", "properties": {"@spider": "usps_collection_boxes", "addr:city": "GOODLAND", "addr:country": "US", "addr:full": "427 PAPAYA ST", "addr:postcode": "34140", "addr:state": "FL", "amenity": "post_box", "brand": "United States Postal Service", "brand:wikidata": "Q668687", "collection_times": "Mo-Sa 15:15", "name": "USPS COLLECTION BOX - BLUE BOX", "note": "ON 12/24 AND 12/31, THIS BOX MAY BE COLLECTED AS EARLY AS 12 NOON.", "nsi_id": "unitedstatespostalservice-a77078", "operator": "United States Postal Service", "operator:short": "USPS", "operator:type": "public", "operator:wikidata": "Q668687", "ref": "3414000000"}, "type": "Feature"}
{"dataset_attributes": {"@spider": "usps_collection_boxes"}, "geometry": {"coordinates": [-81.6470987645, 25.9255746989], "type": "Point"}, "id": "-WgNBixm3sAY9yHu7gtRQE1VQn0=", "properties": {"@spider": "usps_collection_boxes", "addr:city": "GOODLAND", "addr:country": "US", "addr:full": "427 PAPAYA ST", "addr:postcode": "34140", "addr:state": "FL", "amenity": "post_box", "brand": "United States Postal Service", "brand:wikidata": "Q668687", "collection_times": "Mo-Fr 15:15", "name": "USPS COLLECTION BOX - PO LOBBY", "note": "ON 12/24 AND 12/31, THIS BOX MAY BE COLLECTED AS EARLY AS 12 NOON.", "nsi_id": "unitedstatespostalservice-a77078", "operator": "United States Postal Service", "operator:short": "USPS", "operator:type": "public", "operator:wikidata": "Q668687", "ref": "3414000003"}, "type": "Feature"}
{"dataset_attributes": {"@spider": "usps_collection_boxes"}, "geometry": {"coordinates": [-81.647070558, 25.925364199], "type": "Point"}, "id": "FlC3l-DZgRlnaIBIcWiSjCVcGdg=", "properties": {"@spider": "usps_collection_boxes", "addr:city": "GOODLAND", "addr:country": "US", "addr:full": "427 PAPAYA ST", "addr:postcode": "34140", "addr:state": "FL", "amenity": "post_box", "brand": "United States Postal Service", "brand:wikidata": "Q668687", "collection_times": "Mo-Fr 16:00", "name": "USPS COLLECTION BOX - PO LOBBY", "note": "ON 12/24 AND 12/31, THIS BOX MAY BE COLLECTED AS EARLY AS 12 NOON.", "nsi_id": "unitedstatespostalservice-a77078", "operator": "United States Postal Service", "operator:short": "USPS", "operator:type": "public", "operator:wikidata": "Q668687", "ref": "3414000004"}, "type": "Feature"}
{"dataset_attributes": {"@spider": "usps_collection_boxes"}, "geometry": {"coordinates": [-81.2973143922, 25.9015155212], "type": "Point"}, "id": "T6DdCmxXrkb5yu_PtfyKsdy6H0Q=", "properties": {"@spider": "usps_collection_boxes", "addr:city": "OCHOPEE", "addr:country": "US", "addr:full": "38000 TAMIAMI TRL E", "addr:postcode": "34141", "addr:state": "FL", "amenity": "post_box", "brand": "United States Postal Service", "brand:wikidata": "Q668687", "collection_times": "Mo-Fr 15:45; Sa 11:00", "name": "USPS COLLECTION BOX - BLUE BOX", "note": "ON 12/24 AND 12/31, THIS BOX MAY BE COLLECTED AS EARLY AS 12 NOON.", "nsi_id": "unitedstatespostalservice-a77078", "operator": "United States Postal Service", "operator:short": "USPS", "operator:type": "public", "operator:wikidata": "Q668687", "ref": "3414100000"}, "type": "Feature"}
{"dataset_attributes": {"@spider": "usps_collection_boxes"}, "geometry": {"coordinates": [-81.297303359, 25.901521538], "type": "Point"}, "id": "yDVo_XU29RfRf48OL2iM6sfVEWQ=", "properties": {"@spider": "usps_collection_boxes", "addr:city": "OCHOPEE", "addr:country": "US", "addr:full": "38000 TAMIAMI TRL E", "addr:postcode": "34141", "addr:state": "FL", "amenity": "post_box", "brand": "United States Postal Service", "brand:wikidata": "Q668687", "collection_times": "Mo-Fr 16:00", "name": "USPS COLLECTION BOX - PO LOBBY", "note": "ON 12/24 AND 12/31, THIS BOX MAY BE COLLECTED AS EARLY AS 12 NOON.", "nsi_id": "unitedstatespostalservice-a77078", "operator": "United States Postal Service", "operator:short": "USPS", "operator:type": "public", "operator:wikidata": "Q668687", "ref": "3414100002"}, "type": "Feature"}
{"dataset_attributes": {"@spider": "usps_collection_boxes"}, "geometry": {"coordinates": [-81.4329110372, 26.4290340135], "type": "Point"}, "id": "O9siwxpFvHB2MnHHOUlppH3wnsk=", "properties": {"@spider": "usps_collection_boxes", "addr:city": "IMMOKALEE", "addr:country": "US", "addr:full": "810 N 15TH ST", "addr:postcode": "34142", "addr:state": "FL", "amenity": "post_box", "brand": "United States Postal Service", "brand:wikidata": "Q668687", "collection_times": "Mo-Fr 17:00; Sa 15:00", "name": "USPS COLLECTION BOX - BLUE BOX", "note": "ON 12/24 AND 12/31, THIS BOX MAY BE COLLECTED AS EARLY AS 12 NOON.", "nsi_id": "unitedstatespostalservice-a77078", "operator": "United States Postal Service", "operator:short": "USPS", "operator:type": "public", "operator:wikidata": "Q668687", "ref": "3414200015"}, "type": "Feature"}
{"dataset_attributes": {"@spider": "usps_collection_boxes"}, "geometry": {"coordinates": [-81.433723291, 26.429003361], "type": "Point"}, "id": "GYmbXCsfw0mJoh-4IL5Bgj1sFgg=", "properties": {"@spider": "usps_collection_boxes", "addr:city": "IMMOKALEE", "addr:country": "US", "addr:full": "810 N 15TH ST", "addr:postcode": "34142", "addr:state": "FL", "amenity": "post_box", "brand": "United States Postal Service", "brand:wikidata": "Q668687", "collection_times": "Mo-Fr 17:00", "name": "USPS COLLECTION BOX - PO LOBBY", "note": "ON 12/24 AND 12/31, THIS BOX MAY BE COLLECTED AS EARLY AS 12 NOON.", "nsi_id": "unitedstatespostalservice-a77078", "operator": "United States Postal Service", "operator:short": "USPS", "operator:type": "public", "operator:wikidata": "Q668687", "ref": "3414200021"}, "type": "Feature"}
{"dataset_attributes": {"@spider": "usps_collection_boxes"}, "geometry": {"coordinates": [-81.725071866, 25.955074731], "type": "Point"}, "id": "DLGlWt0a93ZS3OuU8sfesePcXqo=", "properties": {"@spider": "usps_collection_boxes", "addr:city": "MARCO ISLAND", "addr:country": "US", "addr:full": "682 BALD EAGLE DR", "addr:postcode": "34145", "addr:state": "FL", "amenity": "post_box", "brand": "United States Postal Service", "brand:wikidata": "Q668687", "collection_times": "Mo-Sa 11:45", "name": "USPS COLLECTION BOX - BLUE BOX", "nsi_id": "unitedstatespostalservice-a77078", "operator": "United States Postal Service", "operator:short": "USPS", "operator:type": "public", "operator:wikidata": "Q668687", "ref": "3414500001"}, "type": "Feature"}
{"dataset_attributes": {"@spider": "usps_collection_boxes"}, "geometry": {"coordinates": [-81.6997256623, 25.9331931431], "type": "Point"}, "id": "YdPvd-dIfUFdYaKKH25LS1L3e_g=", "properties": {"@spider": "usps_collection_boxes", "addr:city": "MARCO ISLAND", "addr:country": "US", "addr:full": "135 S BARFIELD DR", "addr:postcode": "34145", "addr:state": "FL", "amenity": "post_box", "brand": "United States Postal Service", "brand:wikidata": "Q668687", "collection_times": "Mo-Fr 16:15; Sa 12:15", "name": "USPS COLLECTION BOX - BLUE BOX", "note": "ON 12/24 AND 12/31, THIS BOX MAY BE COLLECTED AS EARLY AS 12 NOON.", "nsi_id": "unitedstatespostalservice-a77078", "operator": "United States Postal Service", "operator:short": "USPS", "operator:type": "public", "operator:wikidata": "Q668687", "ref": "3414500003"}, "type": "Feature"}
{"dataset_attributes": {"@spider": "usps_collection_boxes"}, "geometry": {"coordinates": [-81.7208287, 25.955911], "type": "Point"}, "id": "oLMBtN_9CH2u4ZyHCw6COzHVjtA=", "properties": {"@spider": "usps_collection_boxes", "addr:city": "MARCO ISLAND", "addr:country": "US", "addr:full": "1102 N COLLIER BLVD", "addr:postcode": "34145", "addr:state": "FL", "amenity": "post_box", "brand": "United States Postal Service", "brand:wikidata": "Q668687", "collection_times": "Mo-Fr 16:25; Sa 12:25", "name": "USPS COLLECTION BOX - BLUE BOX", "note": "ON 12/24 AND 12/31, THIS BOX MAY BE COLLECTED AS EARLY AS 12 NOON.", "nsi_id": "unitedstatespostalservice-a77078", "operator": "United States Postal Service", "operator:short": "USPS", "operator:type": "public", "operator:wikidata": "Q668687", "ref": "3414500006"}, "type": "Feature"}
{"dataset_attributes": {"@spider": "usps_collection_boxes"}, "geometry": {"coordinates": [-81.7218461685, 25.9528110328], "type": "Point"}, "id": "_Fl6nrmkfXoZevq5wFjhOt8JdfY=", "properties": {"@spider": "usps_collection_boxes", "addr:city": "MARCO ISLAND", "addr:country": "US", "addr:full": "600 E ELKCAM CIR", "addr:postcode": "34145", "addr:state": "FL", "amenity": "post_box", "brand": "United States Postal Service", "brand:wikidata": "Q668687", "collection_times": "Mo-Fr 17:00; Sa 15:45", "name": "USPS COLLECTION BOX - BLUE BOX", "note": "ON 12/24 AND 12/31, THIS BOX MAY BE COLLECTED AS EARLY AS 12 NOON.", "nsi_id": "unitedstatespostalservice-a77078", "operator": "United States Postal Service", "operator:short": "USPS", "operator:type": "public", "operator:wikidata": "Q668687", "ref": "3414500009"}, "type": "Feature"}
{"dataset_attributes": {"@spider": "usps_collection_boxes"}, "geometry": {"coordinates": [-81.7234749914, 25.9553549792], "type": "Point"}, "id": "wj5wYBJayiIDpwC1rxpVBh3nyJ0=", "properties": {"@spider": "usps_collection_boxes", "addr:city": "MARCO ISLAND", "addr:country": "US", "addr:full": "1000 N. COLLIER BLVD", "addr:postcode": "34145", "addr:state": "FL", "amenity": "post_box", "brand": "United States Postal Service", "brand:wikidata": "Q668687", "collection_times": "Mo-Sa 11:30", "name": "USPS COLLECTION BOX - BLUE BOX", "nsi_id": "unitedstatespostalservice-a77078", "operator": "United States Postal Service", "operator:short": "USPS", "operator:type": "public", "operator:wikidata": "Q668687", "ref": "3414500014"}, "type": "Feature"}
{"dataset_attributes": {"@spider": "usps_collection_boxes"}, "geometry": {"coordinates": [-81.7226076, 25.921928], "type": "Point"}, "id": "Y9Q1U54NFayotM7XC04KuwLrp-w=", "properties": {"@spider": "usps_collection_boxes", "addr:city": "MARCO ISLAND", "addr:country": "US", "addr:full": "1040 WINTERBERRY DR", "addr:postcode": "34145", "addr:state": "FL", "amenity": "post_box", "brand": "United States Postal Service", "brand:wikidata": "Q668687", "collection_times": "Mo-Fr 16:10; Sa 12:10", "name": "USPS COLLECTION BOX - BLUE BOX", "note": "ON 12/24 AND 12/31, THIS BOX MAY BE COLLECTED AS EARLY AS 12 NOON.", "nsi_id": "unitedstatespostalservice-a77078", "operator": "United States Postal Service", "operator:short": "USPS", "operator:type": "public", "operator:wikidata": "Q668687", "ref": "3414500015"}, "type": "Feature"}
{"dataset_attributes": {"@spider": "usps_collection_boxes"}, "geometry": {"coordinates": [-81.7258662, 25.919644], "type": "Point"}, "id": "CYMsL0GyNYBIqiemEyd1MfX39VE=", "properties": {"@spider": "usps_collection_boxes", "addr:city": "MARCO ISLAND", "addr:country": "US", "addr:full": "677 S COLLIER BLVD", "addr:postcode": "34145", "addr:state": "FL", "amenity": "post_box", "brand": "United States Postal Service", "brand:wikidata": "Q668687", "collection_times": "Mo-Fr 16:00; Sa 12:00", "name": "USPS COLLECTION BOX - BLUE BOX", "note": "ON 12/24 AND 12/31, THIS BOX MAY BE COLLECTED AS EARLY AS 12 NOON.", "nsi_id": "unitedstatespostalservice-a77078", "operator": "United States Postal Service", "operator:short": "USPS", "operator:type": "public", "operator:wikidata": "Q668687", "ref": "3414500016"}, "type": "Feature"}
{"dataset_attributes": {"@spider": "usps_collection_boxes"}, "geometry": {"coordinates": [-81.7006239, 25.934814], "type": "Point"}, "id": "KCUXssvuuuu4nWCk61O7_RF0COY=", "properties": {"@spider": "usps_collection_boxes", "addr:city": "MARCO ISLAND", "addr:country": "US", "addr:full": "1770 SAN MARCO RD", "addr:postcode": "34145", "addr:state": "FL", "amenity": "post_box", "brand": "United States Postal Service", "brand:wikidata": "Q668687", "collection_times": "Mo-Sa 12:00", "name": "USPS COLLECTION BOX - BLUE BOX", "nsi_id": "unitedstatespostalservice-a77078", "operator": "United States Postal Service", "operator:short": "USPS", "operator:type": "public", "operator:wikidata": "Q668687", "ref": "3414500019"}, "type": "Feature"}
{"dataset_attributes": {"@spider": "usps_collection_boxes"}, "geometry": {"coordinates": [-81.721846169, 25.952811033], "type": "Point"}, "id": "_YSvOinfOVtS5irb1F9Ubj9qrdw=", "properties": {"@spider": "usps_collection_boxes", "addr:city": "MARCO ISLAND", "addr:country": "US", "addr:full": "600 E ELKCAM CIR", "addr:postcode": "34145", "addr:state": "FL", "amenity": "post_box", "brand": "United States Postal Service", "brand:wikidata": "Q668687", "collection_times": "Mo-Fr 17:00", "name": "USPS COLLECTION BOX - PO LOBBY", "note": "ON 12/24 AND 12/31, THIS BOX MAY BE COLLECTED AS EARLY AS 12 NOON.", "nsi_id": "unitedstatespostalservice-a77078", "operator": "United States Postal Service", "operator:short": "USPS", "operator:type": "public", "operator:wikidata": "Q668687", "ref": "3414500022"}, "type": "Feature"}
