{"geometry": {"coordinates": [-82.4435030215, 27.390503016], "type": "Point"}, "id": "z_P6JDgGG89-oPSJGt0EKKhM714=", "properties": {"@source_uri": "https://tools.usps.com/UspsToolsRestServices/rest/POLocator/findLocations", "@spider": "usps_collection_boxes", "addr:city": "LAKEWOOD RANCH", "addr:country": "US", "addr:postcode": "34202", "addr:state": "FL", "addr:street_address": "8306 MARKET ST", "amenity": "post_box", "collection_times": "Mo-Fr 13:45; Sa 11:45", "note": "ON 12/24 AND 12/31, THIS BOX MAY BE COLLECTED AS EARLY AS 12 NOON.", "nsi_id": "unitedstatespostalservice-a77078", "operator": "United States Postal Service", "operator:short": "USPS", "operator:type": "public", "operator:wikidata": "Q668687", "ref": "3420200002"}, "type": "Feature"}
{"geometry": {"coordinates": [-82.4467800103, 27.4359349848], "type": "Point"}, "id": "KPhY8IixTUyqPdtquNY5e1t-Q3k=", "properties": {"@source_uri": "https://tools.usps.com/UspsToolsRestServices/rest/POLocator/findLocations", "@spider": "usps_collection_boxes", "addr:city": "LAKEWOOD RANCH", "addr:country": "US", "addr:postcode": "34202", "addr:state": "FL", "addr:street_address": "9135 58TH DR E", "amenity": "post_box", "collection_times": "Mo-Sa 12:00", "nsi_id": "unitedstatespostalservice-a77078", "operator": "United States Postal Service", "operator:short": "USPS", "operator:type": "public", "operator:wikidata": "Q668687", "ref": "3420200004"}, "type": "Feature"}
{"geometry": {"coordinates": [-82.5101460249, 27.4456569866], "type": "Point"}, "id": "Okfo0bXL6jeulEjzLKc0aAlCAKc=", "properties": {"@source_uri": "https://tools.usps.com/UspsToolsRestServices/rest/POLocator/findLocations", "@spider": "usps_collection_boxes", "addr:city": "UNIVERSITY PARK", "addr:country": "US", "addr:postcode": "34203", "addr:state": "FL", "addr:street_address": "4112 53RD AVE E", "amenity": "post_box", "collection_times": "Mo-Fr 17:00; Sa 16:30", "note": "ON 12/24 AND 12/31, THIS BOX MAY BE COLLECTED AS EARLY AS 12 NOON.", "nsi_id": "unitedstatespostalservice-a77078", "operator": "United States Postal Service", "operator:short": "USPS", "operator:type": "public", "operator:wikidata": "Q668687", "ref": "3420300001"}, "type": "Feature"}
{"geometry": {"coordinates": [-82.5101460249, 27.4456569866], "type": "Point"}, "id": "KYBBFYfvxRL0dWOV64q52DsIZ_U=", "properties": {"@source_uri": "https://tools.usps.com/UspsToolsRestServices/rest/POLocator/findLocations", "@spider": "usps_collection_boxes", "addr:city": "UNIVERSITY PARK", "addr:country": "US", "addr:postcode": "34203", "addr:state": "FL", "addr:street_address": "4112 53RD AVE E", "amenity": "post_box", "collection_times": "Mo-Fr 17:00; Sa 16:30", "name": "USPS COLLECTION BOX - APC", "note": "ON 12/24 AND 12/31, THIS BOX MAY BE COLLECTED AS EARLY AS 12 NOON.", "nsi_id": "unitedstatespostalservice-a77078", "operator": "United States Postal Service", "operator:short": "USPS", "operator:type": "public", "operator:wikidata": "Q668687", "ref": "3420300003"}, "type": "Feature"}
{"geometry": {"coordinates": [-82.5269146446, 27.4291667235], "type": "Point"}, "id": "ojh6LqncefkUu2kjSY6x3TO4O2I=", "properties": {"@source_uri": "https://tools.usps.com/UspsToolsRestServices/rest/POLocator/findLocations", "@spider": "usps_collection_boxes", "addr:city": "UNIVERSITY PARK", "addr:country": "US", "addr:postcode": "34203", "addr:state": "FL", "addr:street_address": "2901 63RD AVE E", "amenity": "post_box", "collection_times": "Mo-Sa 10:00", "nsi_id": "unitedstatespostalservice-a77078", "operator": "United States Postal Service", "operator:short": "USPS", "operator:type": "public", "operator:wikidata": "Q668687", "ref": "3420300005"}, "type": "Feature"}
{"geometry": {"coordinates": [-82.4650069617, 27.4415379937], "type": "Point"}, "id": "xWpIjCZDVw0IJlO_o2hviXNtBko=", "properties": {"@source_uri": "https://tools.usps.com/UspsToolsRestServices/rest/POLocator/findLocations", "@spider": "usps_collection_boxes", "addr:city": "UNIVERSITY PARK", "addr:country": "US", "addr:postcode": "34203", "addr:state": "FL", "addr:street_address": "7254 55TH AVE E", "amenity": "post_box", "collection_times": "Mo-Fr 14:00; Sa 13:00", "note": "ON 12/24 AND 12/31, THIS BOX MAY BE COLLECTED AS EARLY AS 12 NOON.", "nsi_id": "unitedstatespostalservice-a77078", "operator": "United States Postal Service", "operator:short": "USPS", "operator:type": "public", "operator:wikidata": "Q668687", "ref": "3420300010"}, "type": "Feature"}
{"geometry": {"coordinates": [-82.4821239815, 27.4453510053], "type": "Point"}, "id": "BUqvlwY4-kZkqqRZmCNM0b3C9ZE=", "properties": {"@source_uri": "https://tools.usps.com/UspsToolsRestServices/rest/POLocator/findLocations", "@spider": "usps_collection_boxes", "addr:city": "UNIVERSITY PARK", "addr:country": "US", "addr:postcode": "34203", "addr:state": "FL", "addr:street_address": "6156 STATE ROAD 70 E", "amenity": "post_box", "collection_times": "Mo-Sa 13:00", "note": "ON 12/24 AND 12/31, THIS BOX MAY BE COLLECTED AS EARLY AS 12 NOON.", "nsi_id": "unitedstatespostalservice-a77078", "operator": "United States Postal Service", "operator:short": "USPS", "operator:type": "public", "operator:wikidata": "Q668687", "ref": "3420300017"}, "type": "Feature"}
{"geometry": {"coordinates": [-82.5059880142, 27.449660016], "type": "Point"}, "id": "xfRPudv_nUV1NSS0yht0ChJJkMc=", "properties": {"@source_uri": "https://tools.usps.com/UspsToolsRestServices/rest/POLocator/findLocations", "@spider": "usps_collection_boxes", "addr:city": "UNIVERSITY PARK", "addr:country": "US", "addr:postcode": "34203", "addr:state": "FL", "addr:street_address": "4478 PRO AM AVE E", "amenity": "post_box", "collection_times": "Mo-Sa 12:00", "nsi_id": "unitedstatespostalservice-a77078", "operator": "United States Postal Service", "operator:short": "USPS", "operator:type": "public", "operator:wikidata": "Q668687", "ref": "3420300019"}, "type": "Feature"}
{"geometry": {"coordinates": [-82.4780794494, 27.3934795305], "type": "Point"}, "id": "rPzQeeficsgGHDAO9Arjtu9mv7A=", "properties": {"@source_uri": "https://tools.usps.com/UspsToolsRestServices/rest/POLocator/findLocations", "@spider": "usps_collection_boxes", "addr:city": "UNIVERSITY PARK", "addr:country": "US", "addr:postcode": "34203", "addr:state": "FL", "addr:street_address": "8301 PARK BLVD", "amenity": "post_box", "collection_times": "Mo-Sa 12:00", "nsi_id": "unitedstatespostalservice-a77078", "operator": "United States Postal Service", "operator:short": "USPS", "operator:type": "public", "operator:wikidata": "Q668687", "ref": "3420300026"}, "type": "Feature"}
{"geometry": {"coordinates": [-82.5101460249, 27.4456569866], "type": "Point"}, "id": "9PGa3jj60Ky_a36G1NVdoZjCpaU=", "properties": {"@source_uri": "https://tools.usps.com/UspsToolsRestServices/rest/POLocator/findLocations", "@spider": "usps_collection_boxes", "addr:city": "UNIVERSITY PARK", "addr:country": "US", "addr:postcode": "34203", "addr:state": "FL", "addr:street_address": "4112 53RD AVE E", "amenity": "post_box", "collection_times": "Mo-Fr 18:00", "indoor": "yes", "note": "ON 12/24 AND 12/31, THIS BOX MAY BE COLLECTED AS EARLY AS 12 NOON.", "nsi_id": "unitedstatespostalservice-a77078", "operator": "United States Postal Service", "operator:short": "USPS", "operator:type": "public", "operator:wikidata": "Q668687", "ref": "3420300033"}, "type": "Feature"}
{"geometry": {"coordinates": [-82.6007310127, 27.4923280103], "type": "Point"}, "id": "SMBTXDhbxI9Fn94keh2Ye4nn1ZI=", "properties": {"@source_uri": "https://tools.usps.com/UspsToolsRestServices/rest/POLocator/findLocations", "@spider": "usps_collection_boxes", "addr:city": "BRADENTON", "addr:country": "US", "addr:postcode": "34205", "addr:state": "FL", "addr:street_address": "3924 9TH AVE W", "amenity": "post_box", "collection_times": "Mo-Sa 10:00", "nsi_id": "unitedstatespostalservice-a77078", "operator": "United States Postal Service", "operator:short": "USPS", "operator:type": "public", "operator:wikidata": "Q668687", "ref": "3420500010"}, "type": "Feature"}
{"geometry": {"coordinates": [-82.5877262805, 27.4800143318], "type": "Point"}, "id": "HDmIy5-qfPwW48zrDk-f6n0Nq84=", "properties": {"@source_uri": "https://tools.usps.com/UspsToolsRestServices/rest/POLocator/findLocations", "@spider": "usps_collection_boxes", "addr:city": "BRADENTON", "addr:country": "US", "addr:postcode": "34205", "addr:state": "FL", "addr:street_address": "2500 26TH ST W", "amenity": "post_box", "collection_times": "Mo-Sa 14:00", "note": "ON 12/24 AND 12/31, THIS BOX MAY BE COLLECTED AS EARLY AS 12 NOON.", "nsi_id": "unitedstatespostalservice-a77078", "operator": "United States Postal Service", "operator:short": "USPS", "operator:type": "public", "operator:wikidata": "Q668687", "ref": "3420500015"}, "type": "Feature"}
{"geometry": {"coordinates": [-82.5721959968, 27.4975719803], "type": "Point"}, "id": "h_Sj8cbBM1GBUuZxfELu-bPDrvM=", "properties": {"@source_uri": "https://tools.usps.com/UspsToolsRestServices/rest/POLocator/findLocations", "@spider": "usps_collection_boxes", "addr:city": "BRADENTON", "addr:country": "US", "addr:postcode": "34205", "addr:state": "FL", "addr:street_address": "222 10TH ST W", "amenity": "post_box", "collection_times": "Mo-Sa 09:00", "nsi_id": "unitedstatespostalservice-a77078", "operator": "United States Postal Service", "operator:short": "USPS", "operator:type": "public", "operator:wikidata": "Q668687", "ref": "3420500018"}, "type": "Feature"}
{"geometry": {"coordinates": [-82.5752504272, 27.4952643742], "type": "Point"}, "id": "xUd9IvW4JBACTfYPwcB1UJ3bOR4=", "properties": {"@source_uri": "https://tools.usps.com/UspsToolsRestServices/rest/POLocator/findLocations", "@spider": "usps_collection_boxes", "addr:city": "BRADENTON", "addr:country": "US", "addr:postcode": "34205", "addr:state": "FL", "addr:street_address": "514 14TH ST W", "amenity": "post_box", "collection_times": "Mo-Sa 09:45", "nsi_id": "unitedstatespostalservice-a77078", "operator": "United States Postal Service", "operator:short": "USPS", "operator:type": "public", "operator:wikidata": "Q668687", "ref": "3420500021"}, "type": "Feature"}
{"geometry": {"coordinates": [-82.5856160105, 27.4958800094], "type": "Point"}, "id": "FrUIjX2Pokl1HWHdQT1Ps9dpo6g=", "properties": {"@source_uri": "https://tools.usps.com/UspsToolsRestServices/rest/POLocator/findLocations", "@spider": "usps_collection_boxes", "addr:city": "BRADENTON", "addr:country": "US", "addr:postcode": "34205", "addr:state": "FL", "addr:street_address": "2424 MANATEE AVE W", "amenity": "post_box", "collection_times": "Mo-Sa 11:00", "nsi_id": "unitedstatespostalservice-a77078", "operator": "United States Postal Service", "operator:short": "USPS", "operator:type": "public", "operator:wikidata": "Q668687", "ref": "3420500031"}, "type": "Feature"}
{"geometry": {"coordinates": [-82.5954319735, 27.4959810113], "type": "Point"}, "id": "8qOX4zMeSI4ZhMlzHKUwb0aWtrU=", "properties": {"@source_uri": "https://tools.usps.com/UspsToolsRestServices/rest/POLocator/findLocations", "@spider": "usps_collection_boxes", "addr:city": "BRADENTON", "addr:country": "US", "addr:postcode": "34205", "addr:state": "FL", "addr:street_address": "3332 MANATEE AVE W", "amenity": "post_box", "collection_times": "Mo-Fr 14:35; Sa 14:05", "note": "ON 12/24 AND 12/31, THIS BOX MAY BE COLLECTED AS EARLY AS 12 NOON.", "nsi_id": "unitedstatespostalservice-a77078", "operator": "United States Postal Service", "operator:short": "USPS", "operator:type": "public", "operator:wikidata": "Q668687", "ref": "3420500035"}, "type": "Feature"}
{"geometry": {"coordinates": [-82.6008859941, 27.494473987], "type": "Point"}, "id": "YvJK4KRvD-e49lVgtzpqfL-OipY=", "properties": {"@source_uri": "https://tools.usps.com/UspsToolsRestServices/rest/POLocator/findLocations", "@spider": "usps_collection_boxes", "addr:city": "BRADENTON", "addr:country": "US", "addr:postcode": "34205", "addr:state": "FL", "addr:street_address": "3901 MANATEE AVE W", "amenity": "post_box", "collection_times": "Mo-Sa 10:00", "nsi_id": "unitedstatespostalservice-a77078", "operator": "United States Postal Service", "operator:short": "USPS", "operator:type": "public", "operator:wikidata": "Q668687", "ref": "3420500038"}, "type": "Feature"}
{"geometry": {"coordinates": [-82.5732, 27.49135], "type": "Point"}, "id": "6w-TjJEgjb5mXI-5bw5r3cH3PSM=", "properties": {"@source_uri": "https://tools.usps.com/UspsToolsRestServices/rest/POLocator/findLocations", "@spider": "usps_collection_boxes", "addr:city": "BRADENTON", "addr:country": "US", "addr:postcode": "34205", "addr:state": "FL", "addr:street_address": "824 MANATEE AVE W", "amenity": "post_box", "collection_times": "Mo-Fr 16:45; Sa 11:45", "note": "ON 12/24 AND 12/31, THIS BOX MAY BE COLLECTED AS EARLY AS 12 NOON.", "nsi_id": "unitedstatespostalservice-a77078", "operator": "United States Postal Service", "operator:short": "USPS", "operator:type": "public", "operator:wikidata": "Q668687", "ref": "3420500040"}, "type": "Feature"}
{"geometry": {"coordinates": [-82.5734269329, 27.4928713504], "type": "Point"}, "id": "mWzjDfX74mvRpxpJ8rfEruCERsc=", "properties": {"@source_uri": "https://tools.usps.com/UspsToolsRestServices/rest/POLocator/findLocations", "@spider": "usps_collection_boxes", "addr:city": "BRADENTON", "addr:country": "US", "addr:postcode": "34205", "addr:state": "FL", "addr:street_address": "801 12TH ST W", "amenity": "post_box", "collection_times": "Mo-Sa 09:30", "nsi_id": "unitedstatespostalservice-a77078", "operator": "United States Postal Service", "operator:short": "USPS", "operator:type": "public", "operator:wikidata": "Q668687", "ref": "3420500045"}, "type": "Feature"}
{"geometry": {"coordinates": [-82.5727577572, 27.4942273549], "type": "Point"}, "id": "hZcTs-760tOH59pa3daCtdeJsto=", "properties": {"@source_uri": "https://tools.usps.com/UspsToolsRestServices/rest/POLocator/findLocations", "@spider": "usps_collection_boxes", "addr:city": "BRADENTON", "addr:country": "US", "addr:postcode": "34205", "addr:state": "FL", "addr:street_address": "1102 6TH AVE W", "amenity": "post_box", "collection_times": "Mo-Sa 09:30", "nsi_id": "unitedstatespostalservice-a77078", "operator": "United States Postal Service", "operator:short": "USPS", "operator:type": "public", "operator:wikidata": "Q668687", "ref": "3420500046"}, "type": "Feature"}
{"geometry": {"coordinates": [-82.5730800361, 27.4946099834], "type": "Point"}, "id": "qLoBUZoTxf1JgFF84VGhSU1POno=", "properties": {"@source_uri": "https://tools.usps.com/UspsToolsRestServices/rest/POLocator/findLocations", "@spider": "usps_collection_boxes", "addr:city": "BRADENTON", "addr:country": "US", "addr:postcode": "34205", "addr:state": "FL", "addr:street_address": "1115 MANATEE AVE W", "amenity": "post_box", "collection_times": "Mo-Sa 09:30", "nsi_id": "unitedstatespostalservice-a77078", "operator": "United States Postal Service", "operator:short": "USPS", "operator:type": "public", "operator:wikidata": "Q668687", "ref": "3420500048"}, "type": "Feature"}
{"geometry": {"coordinates": [-82.5730210275, 27.4964630126], "type": "Point"}, "id": "8uy2Cl7Fhxhgb7wxOKdO8Ofzt5s=", "properties": {"@source_uri": "https://tools.usps.com/UspsToolsRestServices/rest/POLocator/findLocations", "@spider": "usps_collection_boxes", "addr:city": "BRADENTON", "addr:country": "US", "addr:postcode": "34205", "addr:state": "FL", "addr:street_address": "1017 4TH AVE W", "amenity": "post_box", "collection_times": "Mo-Sa 09:30", "nsi_id": "unitedstatespostalservice-a77078", "operator": "United States Postal Service", "operator:short": "USPS", "operator:type": "public", "operator:wikidata": "Q668687", "ref": "3420500050"}, "type": "Feature"}
{"geometry": {"coordinates": [-82.5708859891, 27.4956599844], "type": "Point"}, "id": "5grobjWF1Uzx3nLHy3sDj6vgUws=", "properties": {"@source_uri": "https://tools.usps.com/UspsToolsRestServices/rest/POLocator/findLocations", "@spider": "usps_collection_boxes", "addr:city": "BRADENTON", "addr:country": "US", "addr:postcode": "34205", "addr:state": "FL", "addr:street_address": "824 MANATEE AVE W", "amenity": "post_box", "collection_times": "Mo-Fr 17:00", "indoor": "yes", "note": "ON 12/24 AND 12/31, THIS BOX MAY BE COLLECTED AS EARLY AS 12 NOON.", "nsi_id": "unitedstatespostalservice-a77078", "operator": "United States Postal Service", "operator:short": "USPS", "operator:type": "public", "operator:wikidata": "Q668687", "ref": "3420500061"}, "type": "Feature"}
{"geometry": {"coordinates": [-82.5733459939, 27.4608120124], "type": "Point"}, "id": "0sIMlQ6p2-n5vgUGukcep77rdRM=", "properties": {"@source_uri": "https://tools.usps.com/UspsToolsRestServices/rest/POLocator/findLocations", "@spider": "usps_collection_boxes", "addr:city": "BRADENTON", "addr:country": "US", "addr:postcode": "34207", "addr:state": "FL", "addr:street_address": "4533 14TH ST W", "amenity": "post_box", "collection_times": "Mo-Sa 10:30", "nsi_id": "unitedstatespostalservice-a77078", "operator": "United States Postal Service", "operator:short": "USPS", "operator:type": "public", "operator:wikidata": "Q668687", "ref": "3420700002"}, "type": "Feature"}
{"geometry": {"coordinates": [-82.5754894561, 27.4346462677], "type": "Point"}, "id": "BZUZe5sdJy81QUUIszgBhln7HvU=", "properties": {"@source_uri": "https://tools.usps.com/UspsToolsRestServices/rest/POLocator/findLocations", "@spider": "usps_collection_boxes", "addr:city": "BRADENTON", "addr:country": "US", "addr:postcode": "34207", "addr:state": "FL", "addr:street_address": "6000 14TH ST W", "amenity": "post_box", "collection_times": "Mo-Sa 10:00", "nsi_id": "unitedstatespostalservice-a77078", "operator": "United States Postal Service", "operator:short": "USPS", "operator:type": "public", "operator:wikidata": "Q668687", "ref": "3420700007"}, "type": "Feature"}
{"geometry": {"coordinates": [-82.57021, 27.451455], "type": "Point"}, "id": "E-TK-nxnvyQKykrY0qu56hdA1eg=", "properties": {"@source_uri": "https://tools.usps.com/UspsToolsRestServices/rest/POLocator/findLocations", "@spider": "usps_collection_boxes", "addr:city": "BRADENTON", "addr:country": "US", "addr:postcode": "34207", "addr:state": "FL", "addr:street_address": "3500 53RD AVE W", "amenity": "post_box", "collection_times": "Mo-Sa 11:45", "nsi_id": "unitedstatespostalservice-a77078", "operator": "United States Postal Service", "operator:short": "USPS", "operator:type": "public", "operator:wikidata": "Q668687", "ref": "3420700008"}, "type": "Feature"}
{"geometry": {"coordinates": [-82.5821340003, 27.441052011], "type": "Point"}, "id": "h2gUl2ggUPGTojLcLseVpfrfGQQ=", "properties": {"@source_uri": "https://tools.usps.com/UspsToolsRestServices/rest/POLocator/findLocations", "@spider": "usps_collection_boxes", "addr:city": "BRADENTON", "addr:country": "US", "addr:postcode": "34207", "addr:state": "FL", "addr:street_address": "2005 57TH AVE W", "amenity": "post_box", "collection_times": "Mo-Fr 17:00; Sa 16:00", "note": "ON 12/24 AND 12/31, THIS BOX MAY BE COLLECTED AS EARLY AS 12 NOON.", "nsi_id": "unitedstatespostalservice-a77078", "operator": "United States Postal Service", "operator:short": "USPS", "operator:type": "public", "operator:wikidata": "Q668687", "ref": "3420700010"}, "type": "Feature"}
{"geometry": {"coordinates": [-82.580808989, 27.4199379969], "type": "Point"}, "id": "2zmI-7PegNOIFn8y-6vp5DdtBWU=", "properties": {"@source_uri": "https://tools.usps.com/UspsToolsRestServices/rest/POLocator/findLocations", "@spider": "usps_collection_boxes", "addr:city": "BRADENTON", "addr:country": "US", "addr:postcode": "34207", "addr:state": "FL", "addr:street_address": "6814 CANADA BLVD", "amenity": "post_box", "collection_times": "Mo-Sa 10:00", "nsi_id": "unitedstatespostalservice-a77078", "operator": "United States Postal Service", "operator:short": "USPS", "operator:type": "public", "operator:wikidata": "Q668687", "ref": "3420700016"}, "type": "Feature"}
{"geometry": {"coordinates": [-82.5684109808, 27.4614220054], "type": "Point"}, "id": "PlkeGwlvHYBKjMblF3Wk66UMX8g=", "properties": {"@source_uri": "https://tools.usps.com/UspsToolsRestServices/rest/POLocator/findLocations", "@spider": "usps_collection_boxes", "addr:city": "BRADENTON", "addr:country": "US", "addr:postcode": "34207", "addr:state": "FL", "addr:street_address": "641 CORTEZ RD W", "amenity": "post_box", "collection_times": "Mo-Sa 13:45", "note": "ON 12/24 AND 12/31, THIS BOX MAY BE COLLECTED AS EARLY AS 12 NOON.", "nsi_id": "unitedstatespostalservice-a77078", "operator": "United States Postal Service", "operator:short": "USPS", "operator:type": "public", "operator:wikidata": "Q668687", "ref": "3420700019"}, "type": "Feature"}
{"geometry": {"coordinates": [-82.5821340003, 27.441052011], "type": "Point"}, "id": "QsfdGSVhxbTKlRkDTuNrRMOHFhw=", "properties": {"@source_uri": "https://tools.usps.com/UspsToolsRestServices/rest/POLocator/findLocations", "@spider": "usps_collection_boxes", "addr:city": "BRADENTON", "addr:country": "US", "addr:postcode": "34207", "addr:state": "FL", "addr:street_address": "2005 57TH AVE W", "amenity": "post_box", "collection_times": "Mo-Fr 17:00; Sa 16:00", "name": "USPS COLLECTION BOX - APC", "note": "ON 12/24 AND 12/31, THIS BOX MAY BE COLLECTED AS EARLY AS 12 NOON.", "nsi_id": "unitedstatespostalservice-a77078", "operator": "United States Postal Service", "operator:short": "USPS", "operator:type": "public", "operator:wikidata": "Q668687", "ref": "3420700021"}, "type": "Feature"}
{"geometry": {"coordinates": [-82.6070630376, 27.4611870188], "type": "Point"}, "id": "9zGOdRetjn0wg2W4XYOVdmRSoRE=", "properties": {"@source_uri": "https://tools.usps.com/UspsToolsRestServices/rest/POLocator/findLocations", "@spider": "usps_collection_boxes", "addr:city": "BRADENTON", "addr:country": "US", "addr:postcode": "34207", "addr:state": "FL", "addr:street_address": "4651 CORTEZ RD W", "amenity": "post_box", "collection_times": "Mo-Sa 13:00", "note": "ON 12/24 AND 12/31, THIS BOX MAY BE COLLECTED AS EARLY AS 12 NOON.", "nsi_id": "unitedstatespostalservice-a77078", "operator": "United States Postal Service", "operator:short": "USPS", "operator:type": "public", "operator:wikidata": "Q668687", "ref": "3420700024"}, "type": "Feature"}
{"geometry": {"coordinates": [-82.5821340003, 27.441052011], "type": "Point"}, "id": "EfgTUSSU0GE3LGR8DFoJ6zsyaWg=", "properties": {"@source_uri": "https://tools.usps.com/UspsToolsRestServices/rest/POLocator/findLocations", "@spider": "usps_collection_boxes", "addr:city": "BRADENTON", "addr:country": "US", "addr:postcode": "34207", "addr:state": "FL", "addr:street_address": "2005 57TH AVE W", "amenity": "post_box", "collection_times": "Mo-Fr 17:00", "indoor": "yes", "note": "ON 12/24 AND 12/31, THIS BOX MAY BE COLLECTED AS EARLY AS 12 NOON.", "nsi_id": "unitedstatespostalservice-a77078", "operator": "United States Postal Service", "operator:short": "USPS", "operator:type": "public", "operator:wikidata": "Q668687", "ref": "3420700026"}, "type": "Feature"}
{"geometry": {"coordinates": [-82.5602385486, 27.497392728], "type": "Point"}, "id": "f9Bj_VFTySVlUAO6T0vAjQoOLjc=", "properties": {"@source_uri": "https://tools.usps.com/UspsToolsRestServices/rest/POLocator/findLocations", "@spider": "usps_collection_boxes", "addr:city": "BRADENTON", "addr:country": "US", "addr:postcode": "34208", "addr:state": "FL", "addr:street_address": "250 2ND AVE E", "amenity": "post_box", "collection_times": "Mo-Sa 09:30", "nsi_id": "unitedstatespostalservice-a77078", "operator": "United States Postal Service", "operator:short": "USPS", "operator:type": "public", "operator:wikidata": "Q668687", "ref": "3420800011"}, "type": "Feature"}
{"geometry": {"coordinates": [-82.546118974, 27.4725690146], "type": "Point"}, "id": "XlbTlYbMhKjNKXnb0y56Qx9-P7g=", "properties": {"@source_uri": "https://tools.usps.com/UspsToolsRestServices/rest/POLocator/findLocations", "@spider": "usps_collection_boxes", "addr:city": "BRADENTON", "addr:country": "US", "addr:postcode": "34208", "addr:state": "FL", "addr:street_address": "3011 15TH ST E", "amenity": "post_box", "collection_times": "Mo-Sa 15:00", "note": "ON 12/24 AND 12/31, THIS BOX MAY BE COLLECTED AS EARLY AS 12 NOON.", "nsi_id": "unitedstatespostalservice-a77078", "operator": "United States Postal Service", "operator:short": "USPS", "operator:type": "public", "operator:wikidata": "Q668687", "ref": "3420800014"}, "type": "Feature"}
{"geometry": {"coordinates": [-82.535095, 27.496205], "type": "Point"}, "id": "rtMNPoovo2gb4EPxW-vGuRcyqog=", "properties": {"@source_uri": "https://tools.usps.com/UspsToolsRestServices/rest/POLocator/findLocations", "@spider": "usps_collection_boxes", "addr:city": "BRADENTON", "addr:country": "US", "addr:postcode": "34208", "addr:state": "FL", "addr:street_address": "1040 CARLTON ARMS BLVD", "amenity": "post_box", "collection_times": "Mo-Sa 09:30", "nsi_id": "unitedstatespostalservice-a77078", "operator": "United States Postal Service", "operator:short": "USPS", "operator:type": "public", "operator:wikidata": "Q668687", "ref": "3420800017"}, "type": "Feature"}
{"geometry": {"coordinates": [-82.524837, 27.488716], "type": "Point"}, "id": "1kzabpLLJ7CKMcP3lxWZ8hKJDc8=", "properties": {"@source_uri": "https://tools.usps.com/UspsToolsRestServices/rest/POLocator/findLocations", "@spider": "usps_collection_boxes", "addr:city": "BRADENTON", "addr:country": "US", "addr:postcode": "34208", "addr:state": "FL", "addr:street_address": "2925 1ST ST", "amenity": "post_box", "collection_times": "Mo-Sa 11:00", "nsi_id": "unitedstatespostalservice-a77078", "operator": "United States Postal Service", "operator:short": "USPS", "operator:type": "public", "operator:wikidata": "Q668687", "ref": "3420800019"}, "type": "Feature"}
{"geometry": {"coordinates": [-82.5058079709, 27.4965219793], "type": "Point"}, "id": "7oIq23pQcXjUrzRH51JyNH_NE9Y=", "properties": {"@source_uri": "https://tools.usps.com/UspsToolsRestServices/rest/POLocator/findLocations", "@spider": "usps_collection_boxes", "addr:city": "BRADENTON", "addr:country": "US", "addr:postcode": "34208", "addr:state": "FL", "addr:street_address": "4502 E STATE ROAD 64", "amenity": "post_box", "collection_times": "Mo-Sa 09:45", "nsi_id": "unitedstatespostalservice-a77078", "operator": "United States Postal Service", "operator:short": "USPS", "operator:type": "public", "operator:wikidata": "Q668687", "ref": "3420800022"}, "type": "Feature"}
{"geometry": {"coordinates": [-82.5010039669, 27.4979430053], "type": "Point"}, "id": "tWtFM99Ka0SDKMIAVzw74qwUMIA=", "properties": {"@source_uri": "https://tools.usps.com/UspsToolsRestServices/rest/POLocator/findLocations", "@spider": "usps_collection_boxes", "addr:city": "BRADENTON", "addr:country": "US", "addr:postcode": "34208", "addr:state": "FL", "addr:street_address": "4915 E STATE ROAD 64", "amenity": "post_box", "collection_times": "Mo-Sa 09:45", "nsi_id": "unitedstatespostalservice-a77078", "operator": "United States Postal Service", "operator:short": "USPS", "operator:type": "public", "operator:wikidata": "Q668687", "ref": "3420800025"}, "type": "Feature"}
{"geometry": {"coordinates": [-82.5017147196, 27.497312141], "type": "Point"}, "id": "DYem1War441xT-lgOTSabH3Iey4=", "properties": {"@source_uri": "https://tools.usps.com/UspsToolsRestServices/rest/POLocator/findLocations", "@spider": "usps_collection_boxes", "addr:city": "BRADENTON", "addr:country": "US", "addr:postcode": "34208", "addr:state": "FL", "addr:street_address": "4800 E STATE ROAD 64", "amenity": "post_box", "collection_times": "Mo-Sa 09:45", "nsi_id": "unitedstatespostalservice-a77078", "operator": "United States Postal Service", "operator:short": "USPS", "operator:type": "public", "operator:wikidata": "Q668687", "ref": "3420800026"}, "type": "Feature"}
{"geometry": {"coordinates": [-82.6360149694, 27.4994020013], "type": "Point"}, "id": "w55wGfZ1zoY73Ovar3Q2qUbuNZ8=", "properties": {"@source_uri": "https://tools.usps.com/UspsToolsRestServices/rest/POLocator/findLocations", "@spider": "usps_collection_boxes", "addr:city": "BRADENTON", "addr:country": "US", "addr:postcode": "34209", "addr:state": "FL", "addr:street_address": "115 75TH ST W", "amenity": "post_box", "collection_times": "Mo-Fr 16:30; Sa 11:45", "note": "ON 12/24 AND 12/31, THIS BOX MAY BE COLLECTED AS EARLY AS 12 NOON.", "nsi_id": "unitedstatespostalservice-a77078", "operator": "United States Postal Service", "operator:short": "USPS", "operator:type": "public", "operator:wikidata": "Q668687", "ref": "3420900002"}, "type": "Feature"}
{"geometry": {"coordinates": [-82.6042710257, 27.4971919868], "type": "Point"}, "id": "BwM0h-ZrQIyVfG5DWmf3dv3nFlw=", "properties": {"@source_uri": "https://tools.usps.com/UspsToolsRestServices/rest/POLocator/findLocations", "@spider": "usps_collection_boxes", "addr:city": "BRADENTON", "addr:country": "US", "addr:postcode": "34209", "addr:state": "FL", "addr:street_address": "406 43RD ST W", "amenity": "post_box", "collection_times": "Mo-Sa 10:00", "nsi_id": "unitedstatespostalservice-a77078", "operator": "United States Postal Service", "operator:short": "USPS", "operator:type": "public", "operator:wikidata": "Q668687", "ref": "3420900012"}, "type": "Feature"}
{"geometry": {"coordinates": [-82.6251350076, 27.4965459935], "type": "Point"}, "id": "E1iD_P-PzrZwapA4YV8wot2FtR4=", "properties": {"@source_uri": "https://tools.usps.com/UspsToolsRestServices/rest/POLocator/findLocations", "@spider": "usps_collection_boxes", "addr:city": "BRADENTON", "addr:country": "US", "addr:postcode": "34209", "addr:state": "FL", "addr:street_address": "6400 MANATEE AVE W", "amenity": "post_box", "collection_times": "Mo-Sa 14:00", "note": "ON 12/24 AND 12/31, THIS BOX MAY BE COLLECTED AS EARLY AS 12 NOON.", "nsi_id": "unitedstatespostalservice-a77078", "operator": "United States Postal Service", "operator:short": "USPS", "operator:type": "public", "operator:wikidata": "Q668687", "ref": "3420900016"}, "type": "Feature"}
{"geometry": {"coordinates": [-82.6343649917, 27.4946440139], "type": "Point"}, "id": "kLHLnqE2aSxdc5flzpZ-sSNQg34=", "properties": {"@source_uri": "https://tools.usps.com/UspsToolsRestServices/rest/POLocator/findLocations", "@spider": "usps_collection_boxes", "addr:city": "BRADENTON", "addr:country": "US", "addr:postcode": "34209", "addr:state": "FL", "addr:street_address": "7461 MANATEE AVE W", "amenity": "post_box", "collection_times": "Mo-Sa 09:30", "nsi_id": "unitedstatespostalservice-a77078", "operator": "United States Postal Service", "operator:short": "USPS", "operator:type": "public", "operator:wikidata": "Q668687", "ref": "3420900017"}, "type": "Feature"}
{"geometry": {"coordinates": [-82.6191570343, 27.4946210056], "type": "Point"}, "id": "Gv2KHEGl3VRBaFVFs_3fBOc9s-M=", "properties": {"@source_uri": "https://tools.usps.com/UspsToolsRestServices/rest/POLocator/findLocations", "@spider": "usps_collection_boxes", "addr:city": "BRADENTON", "addr:country": "US", "addr:postcode": "34209", "addr:state": "FL", "addr:street_address": "5767 MANATEE AVE W", "amenity": "post_box", "collection_times": "Mo-Sa 11:15", "nsi_id": "unitedstatespostalservice-a77078", "operator": "United States Postal Service", "operator:short": "USPS", "operator:type": "public", "operator:wikidata": "Q668687", "ref": "3420900018"}, "type": "Feature"}
{"geometry": {"coordinates": [-82.6131639735, 27.4952990178], "type": "Point"}, "id": "cOacOidN4SKW9BXR6afgZ1a67l8=", "properties": {"@source_uri": "https://tools.usps.com/UspsToolsRestServices/rest/POLocator/findLocations", "@spider": "usps_collection_boxes", "addr:city": "BRADENTON", "addr:country": "US", "addr:postcode": "34209", "addr:state": "FL", "addr:street_address": "5139 MANATEE AVE W", "amenity": "post_box", "collection_times": "Mo-Sa 10:00", "nsi_id": "unitedstatespostalservice-a77078", "operator": "United States Postal Service", "operator:short": "USPS", "operator:type": "public", "operator:wikidata": "Q668687", "ref": "3420900020"}, "type": "Feature"}
{"geometry": {"coordinates": [-82.6247249649, 27.4891780072], "type": "Point"}, "id": "QMPpx1bQHZTidzaKQUogiftWfyY=", "properties": {"@source_uri": "https://tools.usps.com/UspsToolsRestServices/rest/POLocator/findLocations", "@spider": "usps_collection_boxes", "addr:city": "BRADENTON", "addr:country": "US", "addr:postcode": "34209", "addr:state": "FL", "addr:street_address": "1109 63RD ST W", "amenity": "post_box", "collection_times": "Mo-Sa 14:30", "note": "ON 12/24 AND 12/31, THIS BOX MAY BE COLLECTED AS EARLY AS 12 NOON.", "nsi_id": "unitedstatespostalservice-a77078", "operator": "United States Postal Service", "operator:short": "USPS", "operator:type": "public", "operator:wikidata": "Q668687", "ref": "3420900029"}, "type": "Feature"}
{"geometry": {"coordinates": [-82.6207137525, 27.4683492883], "type": "Point"}, "id": "IyBtKVjBjfx1Wt20WFBiZxzEnJ0=", "properties": {"@source_uri": "https://tools.usps.com/UspsToolsRestServices/rest/POLocator/findLocations", "@spider": "usps_collection_boxes", "addr:city": "BRADENTON", "addr:country": "US", "addr:postcode": "34209", "addr:state": "FL", "addr:street_address": "3700 59TH STREET DR W", "amenity": "post_box", "collection_times": "Mo-Sa 11:00", "nsi_id": "unitedstatespostalservice-a77078", "operator": "United States Postal Service", "operator:short": "USPS", "operator:type": "public", "operator:wikidata": "Q668687", "ref": "3420900030"}, "type": "Feature"}
{"geometry": {"coordinates": [-82.6360149694, 27.4994020013], "type": "Point"}, "id": "O-rqTens0Fq7WU4Hpxr40Tn7RCk=", "properties": {"@source_uri": "https://tools.usps.com/UspsToolsRestServices/rest/POLocator/findLocations", "@spider": "usps_collection_boxes", "addr:city": "BRADENTON", "addr:country": "US", "addr:postcode": "34209", "addr:state": "FL", "addr:street_address": "115 75TH ST W", "amenity": "post_box", "collection_times": "Mo-Fr 17:00; Sa 15:30", "name": "USPS COLLECTION BOX - APC", "note": "ON 12/24 AND 12/31, THIS BOX MAY BE COLLECTED AS EARLY AS 12 NOON.", "nsi_id": "unitedstatespostalservice-a77078", "operator": "United States Postal Service", "operator:short": "USPS", "operator:type": "public", "operator:wikidata": "Q668687", "ref": "3420900031"}, "type": "Feature"}
{"geometry": {"coordinates": [-82.6360149694, 27.4994020013], "type": "Point"}, "id": "KvN62d_IpbobTVSe1ISjUthgTJo=", "properties": {"@source_uri": "https://tools.usps.com/UspsToolsRestServices/rest/POLocator/findLocations", "@spider": "usps_collection_boxes", "addr:city": "BRADENTON", "addr:country": "US", "addr:postcode": "34209", "addr:state": "FL", "addr:street_address": "115 75TH ST W", "amenity": "post_box", "collection_times": "Mo-Fr 17:30", "indoor": "yes", "note": "ON 12/24 AND 12/31, THIS BOX MAY BE COLLECTED AS EARLY AS 12 NOON.", "nsi_id": "unitedstatespostalservice-a77078", "operator": "United States Postal Service", "operator:short": "USPS", "operator:type": "public", "operator:wikidata": "Q668687", "ref": "3420900034"}, "type": "Feature"}
{"geometry": {"coordinates": [-82.5960334014, 27.4294182869], "type": "Point"}, "id": "N9h45pbRoxc_QqfDXKdNKDRoTrM=", "properties": {"@source_uri": "https://tools.usps.com/UspsToolsRestServices/rest/POLocator/findLocations", "@spider": "usps_collection_boxes", "addr:city": "BRADENTON", "addr:country": "US", "addr:postcode": "34210", "addr:state": "FL", "addr:street_address": "3400 EL CONQUISTADOR PKWY", "amenity": "post_box", "collection_times": "Mo-Sa 14:30", "note": "ON 12/24 AND 12/31, THIS BOX MAY BE COLLECTED AS EARLY AS 12 NOON.", "nsi_id": "unitedstatespostalservice-a77078", "operator": "United States Postal Service", "operator:short": "USPS", "operator:type": "public", "operator:wikidata": "Q668687", "ref": "3421000005"}, "type": "Feature"}
{"geometry": {"coordinates": [-82.6180200291, 27.4638929905], "type": "Point"}, "id": "jjAKqZ1IADgDIyNCupUOazDaaK0=", "properties": {"@source_uri": "https://tools.usps.com/UspsToolsRestServices/rest/POLocator/findLocations", "@spider": "usps_collection_boxes", "addr:city": "BRADENTON", "addr:country": "US", "addr:postcode": "34210", "addr:state": "FL", "addr:street_address": "5602 CORTEZ RD W", "amenity": "post_box", "collection_times": "Mo-Sa 12:00", "nsi_id": "unitedstatespostalservice-a77078", "operator": "United States Postal Service", "operator:short": "USPS", "operator:type": "public", "operator:wikidata": "Q668687", "ref": "3421000007"}, "type": "Feature"}
{"geometry": {"coordinates": [-82.4318459734, 27.4832970125], "type": "Point"}, "id": "ZA4hxZPsB73Nx6OK2hcFz4por04=", "properties": {"@source_uri": "https://tools.usps.com/UspsToolsRestServices/rest/POLocator/findLocations", "@spider": "usps_collection_boxes", "addr:city": "BRADENTON", "addr:country": "US", "addr:postcode": "34211", "addr:state": "FL", "addr:street_address": "1767 LAKEWOOD RANCH BLVD", "amenity": "post_box", "collection_times": "Mo-Sa 13:00", "note": "ON 12/24 AND 12/31, THIS BOX MAY BE COLLECTED AS EARLY AS 12 NOON.", "nsi_id": "unitedstatespostalservice-a77078", "operator": "United States Postal Service", "operator:short": "USPS", "operator:type": "public", "operator:wikidata": "Q668687", "ref": "3421100001"}, "type": "Feature"}
{"geometry": {"coordinates": [-82.3851499718, 27.4345209996], "type": "Point"}, "id": "_ccpaIuXJJWRT0zTR9DWb2euL3Q=", "properties": {"@source_uri": "https://tools.usps.com/UspsToolsRestServices/rest/POLocator/findLocations", "@spider": "usps_collection_boxes", "addr:city": "BRADENTON", "addr:country": "US", "addr:postcode": "34211", "addr:state": "FL", "addr:street_address": "5910 POST BLVD", "amenity": "post_box", "collection_times": "Mo-Fr 16:30; Sa 11:45", "note": "ON 12/24 AND 12/31, THIS BOX MAY BE COLLECTED AS EARLY AS 12 NOON.", "nsi_id": "unitedstatespostalservice-a77078", "operator": "United States Postal Service", "operator:short": "USPS", "operator:type": "public", "operator:wikidata": "Q668687", "ref": "3421100002"}, "type": "Feature"}
{"geometry": {"coordinates": [-82.3851499718, 27.4345209996], "type": "Point"}, "id": "TP6ZtJN2U4qMnbqVpU-AVr47ZhE=", "properties": {"@source_uri": "https://tools.usps.com/UspsToolsRestServices/rest/POLocator/findLocations", "@spider": "usps_collection_boxes", "addr:city": "BRADENTON", "addr:country": "US", "addr:postcode": "34211", "addr:state": "FL", "addr:street_address": "5910 POST BLVD", "amenity": "post_box", "collection_times": "Mo-Fr 17:00; Sa 12:00", "indoor": "yes", "note": "ON 12/24 AND 12/31, THIS BOX MAY BE COLLECTED AS EARLY AS 12 NOON.", "nsi_id": "unitedstatespostalservice-a77078", "operator": "United States Postal Service", "operator:short": "USPS", "operator:type": "public", "operator:wikidata": "Q668687", "ref": "3421100006"}, "type": "Feature"}
{"geometry": {"coordinates": [-82.683100981, 27.4687420053], "type": "Point"}, "id": "IsgZNKlVq5kHuP0EPIDwENirYVg=", "properties": {"@source_uri": "https://tools.usps.com/UspsToolsRestServices/rest/POLocator/findLocations", "@spider": "usps_collection_boxes", "addr:city": "CORTEZ", "addr:country": "US", "addr:postcode": "34215", "addr:state": "FL", "addr:street_address": "12112 44TH AVE W", "amenity": "post_box", "collection_times": "Mo-Fr 16:15; Sa 13:00", "note": "ON 12/24 AND 12/31, THIS BOX MAY BE COLLECTED AS EARLY AS 12 NOON.", "nsi_id": "unitedstatespostalservice-a77078", "operator": "United States Postal Service", "operator:short": "USPS", "operator:type": "public", "operator:wikidata": "Q668687", "ref": "3421500001"}, "type": "Feature"}
{"geometry": {"coordinates": [-82.683100981, 27.4687420053], "type": "Point"}, "id": "1waf5in59UnmbhkPmpWWEcDL-8M=", "properties": {"@source_uri": "https://tools.usps.com/UspsToolsRestServices/rest/POLocator/findLocations", "@spider": "usps_collection_boxes", "addr:city": "CORTEZ", "addr:country": "US", "addr:postcode": "34215", "addr:state": "FL", "addr:street_address": "12112 44TH AVE W", "amenity": "post_box", "collection_times": "Mo-Fr 16:00", "indoor": "yes", "note": "ON 12/24 AND 12/31, THIS BOX MAY BE COLLECTED AS EARLY AS 12 NOON.", "nsi_id": "unitedstatespostalservice-a77078", "operator": "United States Postal Service", "operator:short": "USPS", "operator:type": "public", "operator:wikidata": "Q668687", "ref": "3421500003"}, "type": "Feature"}
{"geometry": {"coordinates": [-82.73189, 27.532713], "type": "Point"}, "id": "f-Ie5cChnIsG0n8xzCEewvXHx7s=", "properties": {"@source_uri": "https://tools.usps.com/UspsToolsRestServices/rest/POLocator/findLocations", "@spider": "usps_collection_boxes", "addr:city": "ANNA MARIA", "addr:country": "US", "addr:postcode": "34216", "addr:state": "FL", "addr:street_address": "101B S BAY BLVD", "amenity": "post_box", "collection_times": "Mo-Fr 16:15; Sa 12:00", "note": "ON 12/24 AND 12/31, THIS BOX MAY BE COLLECTED AS EARLY AS 12 NOON.", "nsi_id": "unitedstatespostalservice-a77078", "operator": "United States Postal Service", "operator:short": "USPS", "operator:type": "public", "operator:wikidata": "Q668687", "ref": "3421600004"}, "type": "Feature"}
{"geometry": {"coordinates": [-82.73189, 27.532713], "type": "Point"}, "id": "Rwas2AcIZa9buEE0UvCKh2eVqUE=", "properties": {"@source_uri": "https://tools.usps.com/UspsToolsRestServices/rest/POLocator/findLocations", "@spider": "usps_collection_boxes", "addr:city": "ANNA MARIA", "addr:country": "US", "addr:postcode": "34216", "addr:state": "FL", "addr:street_address": "101B S BAY BLVD", "amenity": "post_box", "collection_times": "Mo-Fr 16:30; Sa 12:00", "indoor": "yes", "note": "ON 12/24 AND 12/31, THIS BOX MAY BE COLLECTED AS EARLY AS 12 NOON.", "nsi_id": "unitedstatespostalservice-a77078", "operator": "United States Postal Service", "operator:short": "USPS", "operator:type": "public", "operator:wikidata": "Q668687", "ref": "3421600005"}, "type": "Feature"}
{"geometry": {"coordinates": [-82.712408635, 27.522358808], "type": "Point"}, "id": "ABfQpbgcr284LD0_1AvItXGjB4E=", "properties": {"@source_uri": "https://tools.usps.com/UspsToolsRestServices/rest/POLocator/findLocations", "@spider": "usps_collection_boxes", "addr:city": "HOLMES BEACH", "addr:country": "US", "addr:postcode": "34217", "addr:state": "FL", "addr:street_address": "3230 E BAY DR", "amenity": "post_box", "collection_times": "Mo-Sa 14:45", "note": "ON 12/24 AND 12/31, THIS BOX MAY BE COLLECTED AS EARLY AS 12 NOON.", "nsi_id": "unitedstatespostalservice-a77078", "operator": "United States Postal Service", "operator:short": "USPS", "operator:type": "public", "operator:wikidata": "Q668687", "ref": "3421700002"}, "type": "Feature"}
{"geometry": {"coordinates": [-82.712408635, 27.522358808], "type": "Point"}, "id": "yGiyTg4YwHPkLozWEjdXkdMYQLI=", "properties": {"@source_uri": "https://tools.usps.com/UspsToolsRestServices/rest/POLocator/findLocations", "@spider": "usps_collection_boxes", "addr:city": "HOLMES BEACH", "addr:country": "US", "addr:postcode": "34217", "addr:state": "FL", "addr:street_address": "5354 GULF DR", "amenity": "post_box", "collection_times": "Mo-Sa 15:00", "note": "ON 12/24 AND 12/31, THIS BOX MAY BE COLLECTED AS EARLY AS 12 NOON.", "nsi_id": "unitedstatespostalservice-a77078", "operator": "United States Postal Service", "operator:short": "USPS", "operator:type": "public", "operator:wikidata": "Q668687", "ref": "3421700003"}, "type": "Feature"}
{"geometry": {"coordinates": [-82.712408635, 27.522358808], "type": "Point"}, "id": "4q9ltUvg-E0sIZ8THSf4kqbpuMY=", "properties": {"@source_uri": "https://tools.usps.com/UspsToolsRestServices/rest/POLocator/findLocations", "@spider": "usps_collection_boxes", "addr:city": "HOLMES BEACH", "addr:country": "US", "addr:postcode": "34217", "addr:state": "FL", "addr:street_address": "116 BRIDGE ST", "amenity": "post_box", "collection_times": "Mo-Fr 17:00; Sa 13:00", "note": "ON 12/24 AND 12/31, THIS BOX MAY BE COLLECTED AS EARLY AS 12 NOON.", "nsi_id": "unitedstatespostalservice-a77078", "operator": "United States Postal Service", "operator:short": "USPS", "operator:type": "public", "operator:wikidata": "Q668687", "ref": "3421700007"}, "type": "Feature"}
{"geometry": {"coordinates": [-82.4265010014, 27.5721780013], "type": "Point"}, "id": "hYEvs1xfM-QYnDKWJ5fr0Do8Kjo=", "properties": {"@source_uri": "https://tools.usps.com/UspsToolsRestServices/rest/POLocator/findLocations", "@spider": "usps_collection_boxes", "addr:city": "PARRISH", "addr:country": "US", "addr:postcode": "34219", "addr:state": "FL", "addr:street_address": "12144 US HIGHWAY 301 N", "amenity": "post_box", "collection_times": "Mo-Fr 17:00; Sa 13:00", "note": "ON 12/24 AND 12/31, THIS BOX MAY BE COLLECTED AS EARLY AS 12 NOON.", "nsi_id": "unitedstatespostalservice-a77078", "operator": "United States Postal Service", "operator:short": "USPS", "operator:type": "public", "operator:wikidata": "Q668687", "ref": "3421900001"}, "type": "Feature"}
{"geometry": {"coordinates": [-82.4265010014, 27.5721780013], "type": "Point"}, "id": "2JXHEqPy9hDTr-lR8GLK5FL7F7g=", "properties": {"@source_uri": "https://tools.usps.com/UspsToolsRestServices/rest/POLocator/findLocations", "@spider": "usps_collection_boxes", "addr:city": "PARRISH", "addr:country": "US", "addr:postcode": "34219", "addr:state": "FL", "addr:street_address": "12144 US HIGHWAY 301 N", "amenity": "post_box", "collection_times": "Mo-Fr 17:00; Sa 13:00", "indoor": "yes", "note": "ON 12/24 AND 12/31, THIS BOX MAY BE COLLECTED AS EARLY AS 12 NOON.", "nsi_id": "unitedstatespostalservice-a77078", "operator": "United States Postal Service", "operator:short": "USPS", "operator:type": "public", "operator:wikidata": "Q668687", "ref": "3421900002"}, "type": "Feature"}
{"geometry": {"coordinates": [-82.4265010014, 27.5721780013], "type": "Point"}, "id": "tJ-9abTvb7a7kkCbc14ogd3orKY=", "properties": {"@source_uri": "https://tools.usps.com/UspsToolsRestServices/rest/POLocator/findLocations", "@spider": "usps_collection_boxes", "addr:city": "PARRISH", "addr:country": "US", "addr:postcode": "34219", "addr:state": "FL", "addr:street_address": "12144 US HIGHWAY 301 N", "amenity": "post_box", "collection_times": "Mo-Fr 17:00; Sa 13:00", "indoor": "yes", "note": "ON 12/24 AND 12/31, THIS BOX MAY BE COLLECTED AS EARLY AS 12 NOON.", "nsi_id": "unitedstatespostalservice-a77078", "operator": "United States Postal Service", "operator:short": "USPS", "operator:type": "public", "operator:wikidata": "Q668687", "ref": "3421900004"}, "type": "Feature"}
{"geometry": {"coordinates": [-82.4265010014, 27.5721780013], "type": "Point"}, "id": "REceidlwe1u_bMr1RaOqazlUHpQ=", "properties": {"@source_uri": "https://tools.usps.com/UspsToolsRestServices/rest/POLocator/findLocations", "@spider": "usps_collection_boxes", "addr:city": "PARRISH", "addr:country": "US", "addr:postcode": "34219", "addr:state": "FL", "addr:street_address": "12144 US HIGHWAY 301 N", "amenity": "post_box", "collection_times": "Mo-Fr 16:30", "indoor": "yes", "note": "ON 12/24 AND 12/31, THIS BOX MAY BE COLLECTED AS EARLY AS 12 NOON.", "nsi_id": "unitedstatespostalservice-a77078", "operator": "United States Postal Service", "operator:short": "USPS", "operator:type": "public", "operator:wikidata": "Q668687", "ref": "3421900007"}, "type": "Feature"}
{"geometry": {"coordinates": [-82.5726720051, 27.5159790169], "type": "Point"}, "id": "Q__MIoHtPnH00DHQ-iHhU9Lmffw=", "properties": {"@source_uri": "https://tools.usps.com/UspsToolsRestServices/rest/POLocator/findLocations", "@spider": "usps_collection_boxes", "addr:city": "PALMETTO", "addr:country": "US", "addr:postcode": "34221", "addr:state": "FL", "addr:street_address": "516 8TH AVE W", "amenity": "post_box", "collection_times": "Mo-Sa 15:00", "note": "ON 12/24 AND 12/31, THIS BOX MAY BE COLLECTED AS EARLY AS 12 NOON.", "nsi_id": "unitedstatespostalservice-a77078", "operator": "United States Postal Service", "operator:short": "USPS", "operator:type": "public", "operator:wikidata": "Q668687", "ref": "3422100003"}, "type": "Feature"}
{"geometry": {"coordinates": [-82.5756159809, 27.5099660072], "type": "Point"}, "id": "HEDFAEQoQGyBkr61ZizqI-6UaS0=", "properties": {"@source_uri": "https://tools.usps.com/UspsToolsRestServices/rest/POLocator/findLocations", "@spider": "usps_collection_boxes", "addr:city": "PALMETTO", "addr:country": "US", "addr:postcode": "34221", "addr:state": "FL", "addr:street_address": "995 RIVERSIDE DR", "amenity": "post_box", "collection_times": "Mo-Fr 11:00", "nsi_id": "unitedstatespostalservice-a77078", "operator": "United States Postal Service", "operator:short": "USPS", "operator:type": "public", "operator:wikidata": "Q668687", "ref": "3422100007"}, "type": "Feature"}
{"geometry": {"coordinates": [-82.5343009934, 27.5919659983], "type": "Point"}, "id": "2UED0E3pW9TMRmTyJ-H65eDDp_c=", "properties": {"@source_uri": "https://tools.usps.com/UspsToolsRestServices/rest/POLocator/findLocations", "@spider": "usps_collection_boxes", "addr:city": "PALMETTO", "addr:country": "US", "addr:postcode": "34221", "addr:state": "FL", "addr:street_address": "8600 29TH AVE E", "amenity": "post_box", "collection_times": "Mo-Sa 11:00", "nsi_id": "unitedstatespostalservice-a77078", "operator": "United States Postal Service", "operator:short": "USPS", "operator:type": "public", "operator:wikidata": "Q668687", "ref": "3422100009"}, "type": "Feature"}
{"geometry": {"coordinates": [-82.5971749903, 27.5220419827], "type": "Point"}, "id": "-0jHQLLVKcZC1oR81_w12k_sse4=", "properties": {"@source_uri": "https://tools.usps.com/UspsToolsRestServices/rest/POLocator/findLocations", "@spider": "usps_collection_boxes", "addr:city": "PALMETTO", "addr:country": "US", "addr:postcode": "34221", "addr:state": "FL", "addr:street_address": "1006 28TH AVE W", "amenity": "post_box", "collection_times": "Mo-Sa 13:00", "note": "ON 12/24 AND 12/31, THIS BOX MAY BE COLLECTED AS EARLY AS 12 NOON.", "nsi_id": "unitedstatespostalservice-a77078", "operator": "United States Postal Service", "operator:short": "USPS", "operator:type": "public", "operator:wikidata": "Q668687", "ref": "3422100012"}, "type": "Feature"}
{"geometry": {"coordinates": [-82.5498146, 27.5397072], "type": "Point"}, "id": "HhancqhE-9wAhzR_6wbPM2T7M60=", "properties": {"@source_uri": "https://tools.usps.com/UspsToolsRestServices/rest/POLocator/findLocations", "@spider": "usps_collection_boxes", "addr:city": "PALMETTO", "addr:country": "US", "addr:postcode": "34221", "addr:state": "FL", "addr:street_address": "820 10TH AVE WEST", "amenity": "post_box", "collection_times": "Mo-Sa 11:00", "nsi_id": "unitedstatespostalservice-a77078", "operator": "United States Postal Service", "operator:short": "USPS", "operator:type": "public", "operator:wikidata": "Q668687", "ref": "3422100016"}, "type": "Feature"}
{"geometry": {"coordinates": [-82.5567779888, 27.5648829795], "type": "Point"}, "id": "Lculx_QwHgUU6_Ue5D5WIlP0C-A=", "properties": {"@source_uri": "https://tools.usps.com/UspsToolsRestServices/rest/POLocator/findLocations", "@spider": "usps_collection_boxes", "addr:city": "PALMETTO", "addr:country": "US", "addr:postcode": "34221", "addr:state": "FL", "addr:street_address": "5619 BAYSHORE RD", "amenity": "post_box", "collection_times": "Mo-Sa 11:00", "nsi_id": "unitedstatespostalservice-a77078", "operator": "United States Postal Service", "operator:short": "USPS", "operator:type": "public", "operator:wikidata": "Q668687", "ref": "3422100021"}, "type": "Feature"}
{"geometry": {"coordinates": [-82.5540719752, 27.5661989802], "type": "Point"}, "id": "6WgAW4jB9PNpDuW10-iOIWaZv9Y=", "properties": {"@source_uri": "https://tools.usps.com/UspsToolsRestServices/rest/POLocator/findLocations", "@spider": "usps_collection_boxes", "addr:city": "PALMETTO", "addr:country": "US", "addr:postcode": "34221", "addr:state": "FL", "addr:street_address": "5700 BAYSHORE RD", "amenity": "post_box", "collection_times": "Mo-Sa 11:00", "nsi_id": "unitedstatespostalservice-a77078", "operator": "United States Postal Service", "operator:short": "USPS", "operator:type": "public", "operator:wikidata": "Q668687", "ref": "3422100022"}, "type": "Feature"}
{"geometry": {"coordinates": [-82.5466130034, 27.5910159934], "type": "Point"}, "id": "bP4T_rO1k5D_6eJ0dETEtskoKkw=", "properties": {"@source_uri": "https://tools.usps.com/UspsToolsRestServices/rest/POLocator/findLocations", "@spider": "usps_collection_boxes", "addr:city": "PALMETTO", "addr:country": "US", "addr:postcode": "34221", "addr:state": "FL", "addr:street_address": "8515 BAYSHORE RD", "amenity": "post_box", "collection_times": "Mo-Sa 11:00", "nsi_id": "unitedstatespostalservice-a77078", "operator": "United States Postal Service", "operator:short": "USPS", "operator:type": "public", "operator:wikidata": "Q668687", "ref": "3422100027"}, "type": "Feature"}
{"geometry": {"coordinates": [-82.5397305714, 27.596912874], "type": "Point"}, "id": "aO9Msr6BTOJ1spJakWz7snzeovo=", "properties": {"@source_uri": "https://tools.usps.com/UspsToolsRestServices/rest/POLocator/findLocations", "@spider": "usps_collection_boxes", "addr:city": "PALMETTO", "addr:country": "US", "addr:postcode": "34221", "addr:state": "FL", "addr:street_address": "9303 US HIGHWAY 41 N", "amenity": "post_box", "collection_times": "Mo-Sa 11:00", "nsi_id": "unitedstatespostalservice-a77078", "operator": "United States Postal Service", "operator:short": "USPS", "operator:type": "public", "operator:wikidata": "Q668687", "ref": "3422100029"}, "type": "Feature"}
{"geometry": {"coordinates": [-82.5706740108, 27.5178449962], "type": "Point"}, "id": "PGp6LMSUkE6IRY-hD3FAZin8yAU=", "properties": {"@source_uri": "https://tools.usps.com/UspsToolsRestServices/rest/POLocator/findLocations", "@spider": "usps_collection_boxes", "addr:city": "PALMETTO", "addr:country": "US", "addr:postcode": "34221", "addr:state": "FL", "addr:street_address": "520 7TH ST W", "amenity": "post_box", "collection_times": "Mo-Fr 17:00; Sa 16:00", "note": "ON 12/24 AND 12/31, THIS BOX MAY BE COLLECTED AS EARLY AS 12 NOON.", "nsi_id": "unitedstatespostalservice-a77078", "operator": "United States Postal Service", "operator:short": "USPS", "operator:type": "public", "operator:wikidata": "Q668687", "ref": "3422100033"}, "type": "Feature"}
{"geometry": {"coordinates": [-82.5443349697, 27.571714985], "type": "Point"}, "id": "smjpWzAH_2UbxSCfGELpTpvNUYo=", "properties": {"@source_uri": "https://tools.usps.com/UspsToolsRestServices/rest/POLocator/findLocations", "@spider": "usps_collection_boxes", "addr:city": "PALMETTO", "addr:country": "US", "addr:postcode": "34221", "addr:state": "FL", "addr:street_address": "6201 US HIGHWAY 41 N", "amenity": "post_box", "collection_times": "Mo-Sa 12:30", "note": "ON 12/24 AND 12/31, THIS BOX MAY BE COLLECTED AS EARLY AS 12 NOON.", "nsi_id": "unitedstatespostalservice-a77078", "operator": "United States Postal Service", "operator:short": "USPS", "operator:type": "public", "operator:wikidata": "Q668687", "ref": "3422100037"}, "type": "Feature"}
{"geometry": {"coordinates": [-82.5706740108, 27.5178449962], "type": "Point"}, "id": "SUd9jPgOPYvJWldq0Lnmrla2chk=", "properties": {"@source_uri": "https://tools.usps.com/UspsToolsRestServices/rest/POLocator/findLocations", "@spider": "usps_collection_boxes", "addr:city": "PALMETTO", "addr:country": "US", "addr:postcode": "34221", "addr:state": "FL", "addr:street_address": "520 7TH ST W", "amenity": "post_box", "collection_times": "Mo-Fr 17:30", "indoor": "yes", "note": "ON 12/24 AND 12/31, THIS BOX MAY BE COLLECTED AS EARLY AS 12 NOON.", "nsi_id": "unitedstatespostalservice-a77078", "operator": "United States Postal Service", "operator:short": "USPS", "operator:type": "public", "operator:wikidata": "Q668687", "ref": "3422100038"}, "type": "Feature"}
{"geometry": {"coordinates": [-82.5242220063, 27.5214990031], "type": "Point"}, "id": "O36d_KNm4yTTq0ISu41GJBbt8I8=", "properties": {"@source_uri": "https://tools.usps.com/UspsToolsRestServices/rest/POLocator/findLocations", "@spider": "usps_collection_boxes", "addr:city": "ELLENTON", "addr:country": "US", "addr:postcode": "34222", "addr:state": "FL", "addr:street_address": "3911 US HIGHWAY 301 N", "amenity": "post_box", "collection_times": "Mo-Sa 14:00", "note": "ON 12/24 AND 12/31, THIS BOX MAY BE COLLECTED AS EARLY AS 12 NOON.", "nsi_id": "unitedstatespostalservice-a77078", "operator": "United States Postal Service", "operator:short": "USPS", "operator:type": "public", "operator:wikidata": "Q668687", "ref": "3422200009"}, "type": "Feature"}
{"geometry": {"coordinates": [-82.5014069688, 27.5337429939], "type": "Point"}, "id": "RB2BxQitUHQ5qWGGNCe_pwoF_xE=", "properties": {"@source_uri": "https://tools.usps.com/UspsToolsRestServices/rest/POLocator/findLocations", "@spider": "usps_collection_boxes", "addr:city": "ELLENTON", "addr:country": "US", "addr:postcode": "34222", "addr:state": "FL", "addr:street_address": "6202 US HIGHWAY 301 N", "amenity": "post_box", "collection_times": "Mo-Sa 09:00", "nsi_id": "unitedstatespostalservice-a77078", "operator": "United States Postal Service", "operator:short": "USPS", "operator:type": "public", "operator:wikidata": "Q668687", "ref": "3422200010"}, "type": "Feature"}
{"geometry": {"coordinates": [-82.4889040191, 27.5495819829], "type": "Point"}, "id": "QMZqxMvlYNkbLQ0urPH_8SdIIi0=", "properties": {"@source_uri": "https://tools.usps.com/UspsToolsRestServices/rest/POLocator/findLocations", "@spider": "usps_collection_boxes", "addr:city": "ELLENTON", "addr:country": "US", "addr:postcode": "34222", "addr:state": "FL", "addr:street_address": "7615 LAKESHORE DR", "amenity": "post_box", "collection_times": "Mo-Sa 13:00", "note": "ON 12/24 AND 12/31, THIS BOX MAY BE COLLECTED AS EARLY AS 12 NOON.", "nsi_id": "unitedstatespostalservice-a77078", "operator": "United States Postal Service", "operator:short": "USPS", "operator:type": "public", "operator:wikidata": "Q668687", "ref": "3422200015"}, "type": "Feature"}
{"geometry": {"coordinates": [-82.492388963, 27.5365270011], "type": "Point"}, "id": "31GXz4dlaVs8w_d2XIyLh5vZaso=", "properties": {"@source_uri": "https://tools.usps.com/UspsToolsRestServices/rest/POLocator/findLocations", "@spider": "usps_collection_boxes", "addr:city": "ELLENTON", "addr:country": "US", "addr:postcode": "34222", "addr:state": "FL", "addr:street_address": "2605 72ND AVE E", "amenity": "post_box", "collection_times": "Mo-Fr 17:00; Sa 16:00", "note": "ON 12/24 AND 12/31, THIS BOX MAY BE COLLECTED AS EARLY AS 12 NOON.", "nsi_id": "unitedstatespostalservice-a77078", "operator": "United States Postal Service", "operator:short": "USPS", "operator:type": "public", "operator:wikidata": "Q668687", "ref": "3422200016"}, "type": "Feature"}
{"geometry": {"coordinates": [-82.492388963, 27.5365270011], "type": "Point"}, "id": "i0-b5EoRNbj-nh8ZDf3PKiFLw88=", "properties": {"@source_uri": "https://tools.usps.com/UspsToolsRestServices/rest/POLocator/findLocations", "@spider": "usps_collection_boxes", "addr:city": "ELLENTON", "addr:country": "US", "addr:postcode": "34222", "addr:state": "FL", "addr:street_address": "2605 72ND AVE E", "amenity": "post_box", "collection_times": "Mo-Fr 17:00; Sa 16:00", "indoor": "yes", "note": "ON 12/24 AND 12/31, THIS BOX MAY BE COLLECTED AS EARLY AS 12 NOON.", "nsi_id": "unitedstatespostalservice-a77078", "operator": "United States Postal Service", "operator:short": "USPS", "operator:type": "public", "operator:wikidata": "Q668687", "ref": "3422200018"}, "type": "Feature"}
{"geometry": {"coordinates": [-82.5306879741, 27.5229559874], "type": "Point"}, "id": "nfmEJZZVKM4OR-UhqizLstHUB1o=", "properties": {"@source_uri": "https://tools.usps.com/UspsToolsRestServices/rest/POLocator/findLocations", "@spider": "usps_collection_boxes", "addr:city": "ELLENTON", "addr:country": "US", "addr:postcode": "34222", "addr:state": "FL", "addr:street_address": "3314 US HIGHWAY 301 N", "amenity": "post_box", "collection_times": "Mo-Sa 10:00", "nsi_id": "unitedstatespostalservice-a77078", "operator": "United States Postal Service", "operator:short": "USPS", "operator:type": "public", "operator:wikidata": "Q668687", "ref": "3422200020"}, "type": "Feature"}
{"geometry": {"coordinates": [-82.492388963, 27.5365270011], "type": "Point"}, "id": "dH2dH-5Ynw4TPNQOdlAy79DvhiE=", "properties": {"@source_uri": "https://tools.usps.com/UspsToolsRestServices/rest/POLocator/findLocations", "@spider": "usps_collection_boxes", "addr:city": "ELLENTON", "addr:country": "US", "addr:postcode": "34222", "addr:state": "FL", "addr:street_address": "2605 72ND AVE E", "amenity": "post_box", "collection_times": "Mo-Fr 17:00; Sa 16:00", "indoor": "yes", "note": "ON 12/24 AND 12/31, THIS BOX MAY BE COLLECTED AS EARLY AS 12 NOON.", "nsi_id": "unitedstatespostalservice-a77078", "operator": "United States Postal Service", "operator:short": "USPS", "operator:type": "public", "operator:wikidata": "Q668687", "ref": "3422200023"}, "type": "Feature"}
{"geometry": {"coordinates": [-82.492388963, 27.5365270011], "type": "Point"}, "id": "zQ7iw577hWOjTvjnCf8_ovEBLvs=", "properties": {"@source_uri": "https://tools.usps.com/UspsToolsRestServices/rest/POLocator/findLocations", "@spider": "usps_collection_boxes", "addr:city": "ELLENTON", "addr:country": "US", "addr:postcode": "34222", "addr:state": "FL", "addr:street_address": "2605 72ND AVE E", "amenity": "post_box", "collection_times": "Mo-Fr 17:00; Sa 14:00", "indoor": "yes", "note": "ON 12/24 AND 12/31, THIS BOX MAY BE COLLECTED AS EARLY AS 12 NOON.", "nsi_id": "unitedstatespostalservice-a77078", "operator": "United States Postal Service", "operator:short": "USPS", "operator:type": "public", "operator:wikidata": "Q668687", "ref": "3422200024"}, "type": "Feature"}
{"geometry": {"coordinates": [-82.3725623648, 26.9950568941], "type": "Point"}, "id": "G8B6XrlH4WJGKg9X8oR-k-VmIWk=", "properties": {"@source_uri": "https://tools.usps.com/UspsToolsRestServices/rest/POLocator/findLocations", "@spider": "usps_collection_boxes", "addr:city": "ENGLEWOOD", "addr:country": "US", "addr:postcode": "34223", "addr:state": "FL", "addr:street_address": "1600 ENGLEWOOD RD", "amenity": "post_box", "collection_times": "Mo-Sa 15:00", "note": "ON 12/24 AND 12/31, THIS BOX MAY BE COLLECTED AS EARLY AS 12 NOON.", "nsi_id": "unitedstatespostalservice-a77078", "operator": "United States Postal Service", "operator:short": "USPS", "operator:type": "public", "operator:wikidata": "Q668687", "ref": "3422300001"}, "type": "Feature"}
{"geometry": {"coordinates": [-82.3585448603, 26.9241073581], "type": "Point"}, "id": "UV5y3w2ezxg_vhu5sSZi2622C-Y=", "properties": {"@source_uri": "https://tools.usps.com/UspsToolsRestServices/rest/POLocator/findLocations", "@spider": "usps_collection_boxes", "addr:city": "ENGLEWOOD", "addr:country": "US", "addr:postcode": "34223", "addr:state": "FL", "addr:street_address": "1962 BEACH RD", "amenity": "post_box", "collection_times": "Mo-Sa 11:00", "nsi_id": "unitedstatespostalservice-a77078", "operator": "United States Postal Service", "operator:short": "USPS", "operator:type": "public", "operator:wikidata": "Q668687", "ref": "3422300002"}, "type": "Feature"}
{"geometry": {"coordinates": [-82.3755885575, 26.9993004573], "type": "Point"}, "id": "3sKn9wARFojUZ2FkFb1rcHpHZmM=", "properties": {"@source_uri": "https://tools.usps.com/UspsToolsRestServices/rest/POLocator/findLocations", "@spider": "usps_collection_boxes", "addr:city": "ENGLEWOOD", "addr:country": "US", "addr:postcode": "34223", "addr:state": "FL", "addr:street_address": "1851 ENGLEWOOD RD", "amenity": "post_box", "collection_times": "Mo-Sa 15:00", "note": "ON 12/24 AND 12/31, THIS BOX MAY BE COLLECTED AS EARLY AS 12 NOON.", "nsi_id": "unitedstatespostalservice-a77078", "operator": "United States Postal Service", "operator:short": "USPS", "operator:type": "public", "operator:wikidata": "Q668687", "ref": "3422300005"}, "type": "Feature"}
{"geometry": {"coordinates": [-82.3517480876, 26.9545527301], "type": "Point"}, "id": "WhnWpy1HmZv7IU1AFVkw7O9Xd8c=", "properties": {"@source_uri": "https://tools.usps.com/UspsToolsRestServices/rest/POLocator/findLocations", "@spider": "usps_collection_boxes", "addr:city": "ENGLEWOOD", "addr:country": "US", "addr:postcode": "34223", "addr:state": "FL", "addr:street_address": "451 S INDIANA AVE", "amenity": "post_box", "collection_times": "Mo-Sa 11:30", "nsi_id": "unitedstatespostalservice-a77078", "operator": "United States Postal Service", "operator:short": "USPS", "operator:type": "public", "operator:wikidata": "Q668687", "ref": "3422300008"}, "type": "Feature"}
{"geometry": {"coordinates": [-82.338900977, 26.9368149885], "type": "Point"}, "id": "7XZYhg6Q07jWGu0emMzmknNeHxQ=", "properties": {"@source_uri": "https://tools.usps.com/UspsToolsRestServices/rest/POLocator/findLocations", "@spider": "usps_collection_boxes", "addr:city": "ENGLEWOOD", "addr:country": "US", "addr:postcode": "34223", "addr:state": "FL", "addr:street_address": "1500 PLACIDA RD", "amenity": "post_box", "collection_times": "Mo-Sa 13:00", "note": "ON 12/24 AND 12/31, THIS BOX MAY BE COLLECTED AS EARLY AS 12 NOON.", "nsi_id": "unitedstatespostalservice-a77078", "operator": "United States Postal Service", "operator:short": "USPS", "operator:type": "public", "operator:wikidata": "Q668687", "ref": "3422300014"}, "type": "Feature"}
{"geometry": {"coordinates": [-82.3518631711, 26.963147785], "type": "Point"}, "id": "QCY2Ph51ZhkCQ79meY7NVk5xjp4=", "properties": {"@source_uri": "https://tools.usps.com/UspsToolsRestServices/rest/POLocator/findLocations", "@spider": "usps_collection_boxes", "addr:city": "ENGLEWOOD", "addr:country": "US", "addr:postcode": "34223", "addr:state": "FL", "addr:street_address": "55 N INDIANA AVE", "amenity": "post_box", "collection_times": "Mo-Sa 13:00", "note": "ON 12/24 AND 12/31, THIS BOX MAY BE COLLECTED AS EARLY AS 12 NOON.", "nsi_id": "unitedstatespostalservice-a77078", "operator": "United States Postal Service", "operator:short": "USPS", "operator:type": "public", "operator:wikidata": "Q668687", "ref": "3422300017"}, "type": "Feature"}
{"geometry": {"coordinates": [-82.3326593928, 26.9666053201], "type": "Point"}, "id": "xFjfGFXS8GnvMBsXOvEiieUuEdc=", "properties": {"@source_uri": "https://tools.usps.com/UspsToolsRestServices/rest/POLocator/findLocations", "@spider": "usps_collection_boxes", "addr:city": "ENGLEWOOD", "addr:country": "US", "addr:postcode": "34223", "addr:state": "FL", "addr:street_address": "950 S RIVER RD", "amenity": "post_box", "collection_times": "Mo-Fr 17:00; Sa 15:00", "note": "ON 12/24 AND 12/31, THIS BOX MAY BE COLLECTED AS EARLY AS 12 NOON.", "nsi_id": "unitedstatespostalservice-a77078", "operator": "United States Postal Service", "operator:short": "USPS", "operator:type": "public", "operator:wikidata": "Q668687", "ref": "3422300018"}, "type": "Feature"}
{"geometry": {"coordinates": [-82.3541593935, 26.9816554044], "type": "Point"}, "id": "S7qGkxPDZd9ALYlhvo5Zgh-U4xE=", "properties": {"@source_uri": "https://tools.usps.com/UspsToolsRestServices/rest/POLocator/findLocations", "@spider": "usps_collection_boxes", "addr:city": "ENGLEWOOD", "addr:country": "US", "addr:postcode": "34223", "addr:state": "FL", "addr:street_address": "756 TANGERINE WOODS BLVD", "amenity": "post_box", "collection_times": "Mo-Sa 14:00", "note": "ON 12/24 AND 12/31, THIS BOX MAY BE COLLECTED AS EARLY AS 12 NOON.", "nsi_id": "unitedstatespostalservice-a77078", "operator": "United States Postal Service", "operator:short": "USPS", "operator:type": "public", "operator:wikidata": "Q668687", "ref": "3422300022"}, "type": "Feature"}
{"geometry": {"coordinates": [-82.3326593928, 26.9666053201], "type": "Point"}, "id": "Gj0ApQmj4aJ-JwlNVxFZnr7_dQc=", "properties": {"@source_uri": "https://tools.usps.com/UspsToolsRestServices/rest/POLocator/findLocations", "@spider": "usps_collection_boxes", "addr:city": "ENGLEWOOD", "addr:country": "US", "addr:postcode": "34223", "addr:state": "FL", "addr:street_address": "950 S RIVER RD", "amenity": "post_box", "collection_times": "Mo-Fr 17:00; Sa 15:00", "name": "USPS COLLECTION BOX - APC", "note": "ON 12/24 AND 12/31, THIS BOX MAY BE COLLECTED AS EARLY AS 12 NOON.", "nsi_id": "unitedstatespostalservice-a77078", "operator": "United States Postal Service", "operator:short": "USPS", "operator:type": "public", "operator:wikidata": "Q668687", "ref": "3422300023"}, "type": "Feature"}
{"geometry": {"coordinates": [-82.3326593928, 26.9666053201], "type": "Point"}, "id": "GQI_px5Swmy778-qFrk89NQ4pJE=", "properties": {"@source_uri": "https://tools.usps.com/UspsToolsRestServices/rest/POLocator/findLocations", "@spider": "usps_collection_boxes", "addr:city": "ENGLEWOOD", "addr:country": "US", "addr:postcode": "34223", "addr:state": "FL", "addr:street_address": "950 S RIVER RD", "amenity": "post_box", "collection_times": "Mo-Fr 16:30", "indoor": "yes", "note": "ON 12/24 AND 12/31, THIS BOX MAY BE COLLECTED AS EARLY AS 12 NOON.", "nsi_id": "unitedstatespostalservice-a77078", "operator": "United States Postal Service", "operator:short": "USPS", "operator:type": "public", "operator:wikidata": "Q668687", "ref": "3422300026"}, "type": "Feature"}
{"geometry": {"coordinates": [-82.3128569789, 26.9350860114], "type": "Point"}, "id": "NLXbzgNln0Ej0ux8Z2ydokKTKSk=", "properties": {"@source_uri": "https://tools.usps.com/UspsToolsRestServices/rest/POLocator/findLocations", "@spider": "usps_collection_boxes", "addr:city": "ENGLEWOOD", "addr:country": "US", "addr:postcode": "34224", "addr:state": "FL", "addr:street_address": "2828 S MCCALL RD", "amenity": "post_box", "collection_times": "Mo-Sa 14:00", "note": "ON 12/24 AND 12/31, THIS BOX MAY BE COLLECTED AS EARLY AS 12 NOON.", "nsi_id": "unitedstatespostalservice-a77078", "operator": "United States Postal Service", "operator:short": "USPS", "operator:type": "public", "operator:wikidata": "Q668687", "ref": "3422400000"}, "type": "Feature"}
{"geometry": {"coordinates": [-82.2896059986, 26.9343170137], "type": "Point"}, "id": "DzsGc1_czpKROTkj5m_CkX0MBRY=", "properties": {"@source_uri": "https://tools.usps.com/UspsToolsRestServices/rest/POLocator/findLocations", "@spider": "usps_collection_boxes", "addr:city": "ENGLEWOOD", "addr:country": "US", "addr:postcode": "34224", "addr:state": "FL", "addr:street_address": "3542 N ACCESS RD", "amenity": "post_box", "collection_times": "Mo-Sa 13:00", "note": "ON 12/24 AND 12/31, THIS BOX MAY BE COLLECTED AS EARLY AS 12 NOON.", "nsi_id": "unitedstatespostalservice-a77078", "operator": "United States Postal Service", "operator:short": "USPS", "operator:type": "public", "operator:wikidata": "Q668687", "ref": "3422400001"}, "type": "Feature"}
{"geometry": {"coordinates": [-82.3247300285, 26.9099949938], "type": "Point"}, "id": "thVdxkA-c0NRogC_mjZLgiVdEmo=", "properties": {"@source_uri": "https://tools.usps.com/UspsToolsRestServices/rest/POLocator/findLocations", "@spider": "usps_collection_boxes", "addr:city": "ENGLEWOOD", "addr:country": "US", "addr:postcode": "34224", "addr:state": "FL", "addr:street_address": "3031 PLACIDA RD", "amenity": "post_box", "collection_times": "Mo-Fr 14:00; Sa 12:00", "note": "ON 12/24 AND 12/31, THIS BOX MAY BE COLLECTED AS EARLY AS 12 NOON.", "nsi_id": "unitedstatespostalservice-a77078", "operator": "United States Postal Service", "operator:short": "USPS", "operator:type": "public", "operator:wikidata": "Q668687", "ref": "3422400002"}, "type": "Feature"}
{"geometry": {"coordinates": [-82.62486, 27.373995], "type": "Point"}, "id": "KvJyEkZ3dcDbCfxjKN9Nnf_xOtI=", "properties": {"@source_uri": "https://tools.usps.com/UspsToolsRestServices/rest/POLocator/findLocations", "@spider": "usps_collection_boxes", "addr:city": "LONGBOAT KEY", "addr:country": "US", "addr:postcode": "34228", "addr:state": "FL", "addr:street_address": "560 BAY ISLES RD", "amenity": "post_box", "collection_times": "Mo-Fr 17:00; Sa 14:00", "note": "ON 12/24 AND 12/31, THIS BOX MAY BE COLLECTED AS EARLY AS 12 NOON.", "nsi_id": "unitedstatespostalservice-a77078", "operator": "United States Postal Service", "operator:short": "USPS", "operator:type": "public", "operator:wikidata": "Q668687", "ref": "3422800004"}, "type": "Feature"}
{"geometry": {"coordinates": [-82.62486, 27.373995], "type": "Point"}, "id": "7qGthC3D_5kg0yfdj2fS5CK2UVI=", "properties": {"@source_uri": "https://tools.usps.com/UspsToolsRestServices/rest/POLocator/findLocations", "@spider": "usps_collection_boxes", "addr:city": "LONGBOAT KEY", "addr:country": "US", "addr:postcode": "34228", "addr:state": "FL", "addr:street_address": "5380 GULF OF MEXICO DR", "amenity": "post_box", "collection_times": "Mo-Fr 15:00; Sa 14:00", "note": "ON 12/24 AND 12/31, THIS BOX MAY BE COLLECTED AS EARLY AS 12 NOON.", "nsi_id": "unitedstatespostalservice-a77078", "operator": "United States Postal Service", "operator:short": "USPS", "operator:type": "public", "operator:wikidata": "Q668687", "ref": "3422800011"}, "type": "Feature"}
{"geometry": {"coordinates": [-82.62486, 27.373995], "type": "Point"}, "id": "e3P0AIRk3brcTS56LYKFGOYKuvE=", "properties": {"@source_uri": "https://tools.usps.com/UspsToolsRestServices/rest/POLocator/findLocations", "@spider": "usps_collection_boxes", "addr:city": "LONGBOAT KEY", "addr:country": "US", "addr:postcode": "34228", "addr:state": "FL", "addr:street_address": "560 BAY ISLES RD", "amenity": "post_box", "collection_times": "Mo-Fr 17:00; Sa 14:00", "indoor": "yes", "note": "ON 12/24 AND 12/31, THIS BOX MAY BE COLLECTED AS EARLY AS 12 NOON.", "nsi_id": "unitedstatespostalservice-a77078", "operator": "United States Postal Service", "operator:short": "USPS", "operator:type": "public", "operator:wikidata": "Q668687", "ref": "3422800015"}, "type": "Feature"}
{"geometry": {"coordinates": [-82.4867181026, 27.1912293449], "type": "Point"}, "id": "uzOYUJSgYqT3SRXRHMdZjMvfnVo=", "properties": {"@source_uri": "https://tools.usps.com/UspsToolsRestServices/rest/POLocator/findLocations", "@spider": "usps_collection_boxes", "addr:city": "OSPREY", "addr:country": "US", "addr:postcode": "34229", "addr:state": "FL", "addr:street_address": "333 S TAMIAMI TRL", "amenity": "post_box", "collection_times": "Mo-Fr 17:00; Sa 15:00", "name": "USPS COLLECTION BOX - APC", "note": "ON 12/24 AND 12/31, THIS BOX MAY BE COLLECTED AS EARLY AS 12 NOON.", "nsi_id": "unitedstatespostalservice-a77078", "operator": "United States Postal Service", "operator:short": "USPS", "operator:type": "public", "operator:wikidata": "Q668687", "ref": "3422900004"}, "type": "Feature"}
{"geometry": {"coordinates": [-82.4867181026, 27.1912293449], "type": "Point"}, "id": "jwE4jWdLWd_XILOTtwjHmL_fvvs=", "properties": {"@source_uri": "https://tools.usps.com/UspsToolsRestServices/rest/POLocator/findLocations", "@spider": "usps_collection_boxes", "addr:city": "OSPREY", "addr:country": "US", "addr:postcode": "34229", "addr:state": "FL", "addr:street_address": "333 S TAMIAMI TRL", "amenity": "post_box", "collection_times": "Mo-Fr 17:00; Sa 15:00", "note": "ON 12/24 AND 12/31, THIS BOX MAY BE COLLECTED AS EARLY AS 12 NOON.", "nsi_id": "unitedstatespostalservice-a77078", "operator": "United States Postal Service", "operator:short": "USPS", "operator:type": "public", "operator:wikidata": "Q668687", "ref": "3422900005"}, "type": "Feature"}
{"geometry": {"coordinates": [-82.4867181026, 27.1912293449], "type": "Point"}, "id": "dcXVQXvISnev_RCuAktaqVn37oY=", "properties": {"@source_uri": "https://tools.usps.com/UspsToolsRestServices/rest/POLocator/findLocations", "@spider": "usps_collection_boxes", "addr:city": "OSPREY", "addr:country": "US", "addr:postcode": "34229", "addr:state": "FL", "addr:street_address": "333 S TAMIAMI TRL", "amenity": "post_box", "collection_times": "Mo-Fr 16:30", "indoor": "yes", "note": "ON 12/24 AND 12/31, THIS BOX MAY BE COLLECTED AS EARLY AS 12 NOON.", "nsi_id": "unitedstatespostalservice-a77078", "operator": "United States Postal Service", "operator:short": "USPS", "operator:type": "public", "operator:wikidata": "Q668687", "ref": "3422900007"}, "type": "Feature"}
{"geometry": {"coordinates": [-82.537244277, 27.335027458], "type": "Point"}, "id": "SQa5NSuLFu3mPWn827SdF80X9Vc=", "properties": {"@source_uri": "https://tools.usps.com/UspsToolsRestServices/rest/POLocator/findLocations", "@spider": "usps_collection_boxes", "addr:city": "SARASOTA", "addr:country": "US", "addr:postcode": "34230", "addr:state": "FL", "addr:street_address": "1661 RINGLING BLVD", "amenity": "post_box", "collection_times": "Mo-Fr 17:30; Sa 12:00", "indoor": "yes", "note": "ON 12/24 AND 12/31, THIS BOX MAY BE COLLECTED AS EARLY AS 12 NOON.", "nsi_id": "unitedstatespostalservice-a77078", "operator": "United States Postal Service", "operator:short": "USPS", "operator:type": "public", "operator:wikidata": "Q668687", "ref": "3423000001"}, "type": "Feature"}
{"geometry": {"coordinates": [-82.4997590028, 27.2680601325], "type": "Point"}, "id": "g23dcLWG-mzw6PSDYBKEQmSN2Bg=", "properties": {"@source_uri": "https://tools.usps.com/UspsToolsRestServices/rest/POLocator/findLocations", "@spider": "usps_collection_boxes", "addr:city": "SARASOTA", "addr:country": "US", "addr:postcode": "34231", "addr:state": "FL", "addr:street_address": "3506 CLARK RD STE 300", "amenity": "post_box", "collection_times": "Mo-Sa 09:00", "nsi_id": "unitedstatespostalservice-a77078", "operator": "United States Postal Service", "operator:short": "USPS", "operator:type": "public", "operator:wikidata": "Q668687", "ref": "3423100000"}, "type": "Feature"}
{"geometry": {"coordinates": [-82.5207037025, 27.2591579227], "type": "Point"}, "id": "P3W-KX46e6vnordY8SFUYvSWmus=", "properties": {"@source_uri": "https://tools.usps.com/UspsToolsRestServices/rest/POLocator/findLocations", "@spider": "usps_collection_boxes", "addr:city": "SARASOTA", "addr:country": "US", "addr:postcode": "34231", "addr:state": "FL", "addr:street_address": "6525 S TAMIAMI TRL", "amenity": "post_box", "collection_times": "Mo-Sa 11:30", "nsi_id": "unitedstatespostalservice-a77078", "operator": "United States Postal Service", "operator:short": "USPS", "operator:type": "public", "operator:wikidata": "Q668687", "ref": "3423100008"}, "type": "Feature"}
{"geometry": {"coordinates": [-82.5318392285, 27.2797022608], "type": "Point"}, "id": "OqPGlPekqP5sSgvM4c7wVc-kunY=", "properties": {"@source_uri": "https://tools.usps.com/UspsToolsRestServices/rest/POLocator/findLocations", "@spider": "usps_collection_boxes", "addr:city": "SARASOTA", "addr:country": "US", "addr:postcode": "34231", "addr:state": "FL", "addr:street_address": "1950 LANDINGS BLVD", "amenity": "post_box", "collection_times": "Mo-Sa 14:15", "note": "ON 12/24 AND 12/31, THIS BOX MAY BE COLLECTED AS EARLY AS 12 NOON.", "nsi_id": "unitedstatespostalservice-a77078", "operator": "United States Postal Service", "operator:short": "USPS", "operator:type": "public", "operator:wikidata": "Q668687", "ref": "3423100013"}, "type": "Feature"}
{"geometry": {"coordinates": [-82.52135, 27.25894], "type": "Point"}, "id": "Ncm4R0nWA7VLBlKOJe52xbynzXY=", "properties": {"@source_uri": "https://tools.usps.com/UspsToolsRestServices/rest/POLocator/findLocations", "@spider": "usps_collection_boxes", "addr:city": "SARASOTA", "addr:country": "US", "addr:postcode": "34231", "addr:state": "FL", "addr:street_address": "2875 ASHTON RD", "amenity": "post_box", "collection_times": "Mo-Sa 17:00", "note": "ON 12/24 AND 12/31, THIS BOX MAY BE COLLECTED AS EARLY AS 12 NOON.", "nsi_id": "unitedstatespostalservice-a77078", "operator": "United States Postal Service", "operator:short": "USPS", "operator:type": "public", "operator:wikidata": "Q668687", "ref": "3423100021"}, "type": "Feature"}
{"geometry": {"coordinates": [-82.5187042833, 27.2651029552], "type": "Point"}, "id": "5kr4XqvizjNRtUqlUY7XCKoZQcY=", "properties": {"@source_uri": "https://tools.usps.com/UspsToolsRestServices/rest/POLocator/findLocations", "@spider": "usps_collection_boxes", "addr:city": "SARASOTA", "addr:country": "US", "addr:postcode": "34231", "addr:state": "FL", "addr:street_address": "2477 STICKNEY POINT RD", "amenity": "post_box", "collection_times": "Mo-Sa 10:45", "nsi_id": "unitedstatespostalservice-a77078", "operator": "United States Postal Service", "operator:short": "USPS", "operator:type": "public", "operator:wikidata": "Q668687", "ref": "3423100038"}, "type": "Feature"}
{"geometry": {"coordinates": [-82.5148324308, 27.2539476479], "type": "Point"}, "id": "fzGd83y8cMHEW_53jGcDHV1SaAU=", "properties": {"@source_uri": "https://tools.usps.com/UspsToolsRestServices/rest/POLocator/findLocations", "@spider": "usps_collection_boxes", "addr:city": "SARASOTA", "addr:country": "US", "addr:postcode": "34231", "addr:state": "FL", "addr:street_address": "7045 S TAMIAMI TRL", "amenity": "post_box", "collection_times": "Mo-Sa 12:15", "note": "ON 12/24 AND 12/31, THIS BOX MAY BE COLLECTED AS EARLY AS 12 NOON.", "nsi_id": "unitedstatespostalservice-a77078", "operator": "United States Postal Service", "operator:short": "USPS", "operator:type": "public", "operator:wikidata": "Q668687", "ref": "3423100039"}, "type": "Feature"}
{"geometry": {"coordinates": [-82.5134515122, 27.2776496165], "type": "Point"}, "id": "8VBYGXL71H9cRN32aXRPu2DHaPU=", "properties": {"@source_uri": "https://tools.usps.com/UspsToolsRestServices/rest/POLocator/findLocations", "@spider": "usps_collection_boxes", "addr:city": "SARASOTA", "addr:country": "US", "addr:postcode": "34231", "addr:state": "FL", "addr:street_address": "2875 ASHTON RD", "amenity": "post_box", "collection_times": "Mo-Sa 17:00", "name": "USPS COLLECTION BOX - APC", "note": "ON 12/24 AND 12/31, THIS BOX MAY BE COLLECTED AS EARLY AS 12 NOON.", "nsi_id": "unitedstatespostalservice-a77078", "operator": "United States Postal Service", "operator:short": "USPS", "operator:type": "public", "operator:wikidata": "Q668687", "ref": "3423100040"}, "type": "Feature"}
{"geometry": {"coordinates": [-82.5134515122, 27.2776496165], "type": "Point"}, "id": "j6mNeeekg6pQDmIOBlcD0uBddxM=", "properties": {"@source_uri": "https://tools.usps.com/UspsToolsRestServices/rest/POLocator/findLocations", "@spider": "usps_collection_boxes", "addr:city": "SARASOTA", "addr:country": "US", "addr:postcode": "34231", "addr:state": "FL", "addr:street_address": "2875 ASHTON RD", "amenity": "post_box", "collection_times": "Mo-Sa 17:00", "name": "USPS COLLECTION BOX - APC", "note": "ON 12/24 AND 12/31, THIS BOX MAY BE COLLECTED AS EARLY AS 12 NOON.", "nsi_id": "unitedstatespostalservice-a77078", "operator": "United States Postal Service", "operator:short": "USPS", "operator:type": "public", "operator:wikidata": "Q668687", "ref": "3423100041"}, "type": "Feature"}
{"geometry": {"coordinates": [-82.5134515122, 27.2776496165], "type": "Point"}, "id": "jxiKg4HuC7BxQS3qEG1R0aFNKsg=", "properties": {"@source_uri": "https://tools.usps.com/UspsToolsRestServices/rest/POLocator/findLocations", "@spider": "usps_collection_boxes", "addr:city": "SARASOTA", "addr:country": "US", "addr:postcode": "34231", "addr:state": "FL", "addr:street_address": "2875 ASHTON RD", "amenity": "post_box", "collection_times": "Mo-Fr 17:30; Sa 15:00", "indoor": "yes", "note": "ON 12/24 AND 12/31, THIS BOX MAY BE COLLECTED AS EARLY AS 12 NOON.", "nsi_id": "unitedstatespostalservice-a77078", "operator": "United States Postal Service", "operator:short": "USPS", "operator:type": "public", "operator:wikidata": "Q668687", "ref": "3423100045"}, "type": "Feature"}
{"geometry": {"coordinates": [-82.4620801589, 27.3119775617], "type": "Point"}, "id": "1A6L1AGpXjWrYdEj4blpNI84O-w=", "properties": {"@source_uri": "https://tools.usps.com/UspsToolsRestServices/rest/POLocator/findLocations", "@spider": "usps_collection_boxes", "addr:city": "SARASOTA", "addr:country": "US", "addr:postcode": "34232", "addr:state": "FL", "addr:street_address": "5300 COLONIAL OAKS BLVD", "amenity": "post_box", "collection_times": "Mo-Sa 10:00", "nsi_id": "unitedstatespostalservice-a77078", "operator": "United States Postal Service", "operator:short": "USPS", "operator:type": "public", "operator:wikidata": "Q668687", "ref": "3423200012"}, "type": "Feature"}
{"geometry": {"coordinates": [-82.496618, 27.307446], "type": "Point"}, "id": "oRjmUOoJweesm7P58cBhN-DofTc=", "properties": {"@source_uri": "https://tools.usps.com/UspsToolsRestServices/rest/POLocator/findLocations", "@spider": "usps_collection_boxes", "addr:city": "SARASOTA", "addr:country": "US", "addr:postcode": "34232", "addr:state": "FL", "addr:street_address": "3644 WEBBER ST", "amenity": "post_box", "collection_times": "Mo-Sa 11:30", "nsi_id": "unitedstatespostalservice-a77078", "operator": "United States Postal Service", "operator:short": "USPS", "operator:type": "public", "operator:wikidata": "Q668687", "ref": "3423200013"}, "type": "Feature"}
{"geometry": {"coordinates": [-82.4571753, 27.336526], "type": "Point"}, "id": "AKzS7fGjLUUCJfF9ZmpBrITdDds=", "properties": {"@source_uri": "https://tools.usps.com/UspsToolsRestServices/rest/POLocator/findLocations", "@spider": "usps_collection_boxes", "addr:city": "SARASOTA", "addr:country": "US", "addr:postcode": "34232", "addr:state": "FL", "addr:street_address": "5550 FRUITVILLE RD", "amenity": "post_box", "collection_times": "Mo-Fr 14:00; Sa 13:00", "note": "ON 12/24 AND 12/31, THIS BOX MAY BE COLLECTED AS EARLY AS 12 NOON.", "nsi_id": "unitedstatespostalservice-a77078", "operator": "United States Postal Service", "operator:short": "USPS", "operator:type": "public", "operator:wikidata": "Q668687", "ref": "3423200018"}, "type": "Feature"}
{"geometry": {"coordinates": [-82.4974114631, 27.34263], "type": "Point"}, "id": "ogEbUhpda4_vrNjo7Qw9HGqgZ9w=", "properties": {"@source_uri": "https://tools.usps.com/UspsToolsRestServices/rest/POLocator/findLocations", "@spider": "usps_collection_boxes", "addr:city": "SARASOTA", "addr:country": "US", "addr:postcode": "34232", "addr:state": "FL", "addr:street_address": "935 N BENEVA RD", "amenity": "post_box", "collection_times": "Mo-Fr 17:00; Sa 15:30", "note": "ON 12/24 AND 12/31, THIS BOX MAY BE COLLECTED AS EARLY AS 12 NOON.", "nsi_id": "unitedstatespostalservice-a77078", "operator": "United States Postal Service", "operator:short": "USPS", "operator:type": "public", "operator:wikidata": "Q668687", "ref": "3423200022"}, "type": "Feature"}
{"geometry": {"coordinates": [-82.497412, 27.34263], "type": "Point"}, "id": "kzResCuomOo-a-eQFn0VEuji_HA=", "properties": {"@source_uri": "https://tools.usps.com/UspsToolsRestServices/rest/POLocator/findLocations", "@spider": "usps_collection_boxes", "addr:city": "SARASOTA", "addr:country": "US", "addr:postcode": "34232", "addr:state": "FL", "addr:street_address": "935 N BENEVA RD", "amenity": "post_box", "collection_times": "Mo-Fr 17:00; Sa 15:30", "name": "USPS COLLECTION BOX - APC", "note": "ON 12/24 AND 12/31, THIS BOX MAY BE COLLECTED AS EARLY AS 12 NOON.", "nsi_id": "unitedstatespostalservice-a77078", "operator": "United States Postal Service", "operator:short": "USPS", "operator:type": "public", "operator:wikidata": "Q668687", "ref": "3423200023"}, "type": "Feature"}
{"geometry": {"coordinates": [-82.497411463, 27.34263], "type": "Point"}, "id": "7bSh4PYBwRrLoMJ-tQB5xLUek5k=", "properties": {"@source_uri": "https://tools.usps.com/UspsToolsRestServices/rest/POLocator/findLocations", "@spider": "usps_collection_boxes", "addr:city": "SARASOTA", "addr:country": "US", "addr:postcode": "34232", "addr:state": "FL", "addr:street_address": "935 N BENEVA RD STE 801", "amenity": "post_box", "collection_times": "Mo-Fr 17:30; Sa 13:00", "indoor": "yes", "note": "ON 12/24 AND 12/31, THIS BOX MAY BE COLLECTED AS EARLY AS 12 NOON.", "nsi_id": "unitedstatespostalservice-a77078", "operator": "United States Postal Service", "operator:short": "USPS", "operator:type": "public", "operator:wikidata": "Q668687", "ref": "3423200027"}, "type": "Feature"}
{"geometry": {"coordinates": [-82.4811364, 27.297747], "type": "Point"}, "id": "M2CILDsfAXIHqoA7u22EYdA0g90=", "properties": {"@source_uri": "https://tools.usps.com/UspsToolsRestServices/rest/POLocator/findLocations", "@spider": "usps_collection_boxes", "addr:city": "SARASOTA", "addr:country": "US", "addr:postcode": "34233", "addr:state": "FL", "addr:street_address": "4398 BEE RIDGE RD", "amenity": "post_box", "collection_times": "Mo-Sa 10:30", "nsi_id": "unitedstatespostalservice-a77078", "operator": "United States Postal Service", "operator:short": "USPS", "operator:type": "public", "operator:wikidata": "Q668687", "ref": "3423300000"}, "type": "Feature"}
{"geometry": {"coordinates": [-82.4584815, 27.298700529], "type": "Point"}, "id": "VGJqOEvUABj1Dxtll9Fji88ZKHg=", "properties": {"@source_uri": "https://tools.usps.com/UspsToolsRestServices/rest/POLocator/findLocations", "@spider": "usps_collection_boxes", "addr:city": "SARASOTA", "addr:country": "US", "addr:postcode": "34233", "addr:state": "FL", "addr:street_address": "5580 BEE RIDGE RD", "amenity": "post_box", "collection_times": "Mo-Sa 11:00", "nsi_id": "unitedstatespostalservice-a77078", "operator": "United States Postal Service", "operator:short": "USPS", "operator:type": "public", "operator:wikidata": "Q668687", "ref": "3423300001"}, "type": "Feature"}
{"geometry": {"coordinates": [-82.4534343, 27.297754], "type": "Point"}, "id": "aV9Xh7grJvIzJD9h4Bgb3UwGjmw=", "properties": {"@source_uri": "https://tools.usps.com/UspsToolsRestServices/rest/POLocator/findLocations", "@spider": "usps_collection_boxes", "addr:city": "SARASOTA", "addr:country": "US", "addr:postcode": "34233", "addr:state": "FL", "addr:street_address": "5824 BEE RIDGE RD", "amenity": "post_box", "collection_times": "Mo-Sa 12:00", "nsi_id": "unitedstatespostalservice-a77078", "operator": "United States Postal Service", "operator:short": "USPS", "operator:type": "public", "operator:wikidata": "Q668687", "ref": "3423300002"}, "type": "Feature"}
{"geometry": {"coordinates": [-82.4523073, 27.301365], "type": "Point"}, "id": "8b-Ib_S1Llzl6wvoAhAUf0Oxsvg=", "properties": {"@source_uri": "https://tools.usps.com/UspsToolsRestServices/rest/POLocator/findLocations", "@spider": "usps_collection_boxes", "addr:city": "SARASOTA", "addr:country": "US", "addr:postcode": "34233", "addr:state": "FL", "addr:street_address": "5741 BEE RIDGE RD", "amenity": "post_box", "collection_times": "Mo-Sa 11:00", "nsi_id": "unitedstatespostalservice-a77078", "operator": "United States Postal Service", "operator:short": "USPS", "operator:type": "public", "operator:wikidata": "Q668687", "ref": "3423300004"}, "type": "Feature"}
{"geometry": {"coordinates": [-82.4962137092, 27.29736511], "type": "Point"}, "id": "3ZPOsJuUAGsIuw81X69kAWwZqYc=", "properties": {"@source_uri": "https://tools.usps.com/UspsToolsRestServices/rest/POLocator/findLocations", "@spider": "usps_collection_boxes", "addr:city": "SARASOTA", "addr:country": "US", "addr:postcode": "34233", "addr:state": "FL", "addr:street_address": "3690 BEE RIDGE RD", "amenity": "post_box", "collection_times": "Mo-Sa 12:00", "nsi_id": "unitedstatespostalservice-a77078", "operator": "United States Postal Service", "operator:short": "USPS", "operator:type": "public", "operator:wikidata": "Q668687", "ref": "3423300007"}, "type": "Feature"}
{"geometry": {"coordinates": [-82.4778864, 27.299099], "type": "Point"}, "id": "1wNZrWVgkghnqU3phTF9DCxwu54=", "properties": {"@source_uri": "https://tools.usps.com/UspsToolsRestServices/rest/POLocator/findLocations", "@spider": "usps_collection_boxes", "addr:city": "SARASOTA", "addr:country": "US", "addr:postcode": "34233", "addr:state": "FL", "addr:street_address": "4525 BEE RIDGE RD", "amenity": "post_box", "collection_times": "Mo-Sa 10:00", "nsi_id": "unitedstatespostalservice-a77078", "operator": "United States Postal Service", "operator:short": "USPS", "operator:type": "public", "operator:wikidata": "Q668687", "ref": "3423300014"}, "type": "Feature"}
{"geometry": {"coordinates": [-82.5327606, 27.372103], "type": "Point"}, "id": "zFMFR11VisXglQMGCuM2tSbP-aM=", "properties": {"@source_uri": "https://tools.usps.com/UspsToolsRestServices/rest/POLocator/findLocations", "@spider": "usps_collection_boxes", "addr:city": "SARASOTA", "addr:country": "US", "addr:postcode": "34234", "addr:state": "FL", "addr:street_address": "1920 NORTHGATE BLVD", "amenity": "post_box", "collection_times": "Mo-Sa 12:00", "nsi_id": "unitedstatespostalservice-a77078", "operator": "United States Postal Service", "operator:short": "USPS", "operator:type": "public", "operator:wikidata": "Q668687", "ref": "3423400009"}, "type": "Feature"}
{"geometry": {"coordinates": [-82.5133758, 27.370015], "type": "Point"}, "id": "LGgqSnuxtUx0KEZ8FNcQiKYY-bM=", "properties": {"@source_uri": "https://tools.usps.com/UspsToolsRestServices/rest/POLocator/findLocations", "@spider": "usps_collection_boxes", "addr:city": "SARASOTA", "addr:country": "US", "addr:postcode": "34234", "addr:state": "FL", "addr:street_address": "4000 N TUTTLE AVE", "amenity": "post_box", "collection_times": "Mo-Sa 12:30", "note": "ON 12/24 AND 12/31, THIS BOX MAY BE COLLECTED AS EARLY AS 12 NOON.", "nsi_id": "unitedstatespostalservice-a77078", "operator": "United States Postal Service", "operator:short": "USPS", "operator:type": "public", "operator:wikidata": "Q668687", "ref": "3423400019"}, "type": "Feature"}
{"geometry": {"coordinates": [-82.5512661, 27.36701], "type": "Point"}, "id": "DGc9FKEmpxGeqtkokwslvQqlAo0=", "properties": {"@source_uri": "https://tools.usps.com/UspsToolsRestServices/rest/POLocator/findLocations", "@spider": "usps_collection_boxes", "addr:city": "SARASOTA", "addr:country": "US", "addr:postcode": "34234", "addr:state": "FL", "addr:street_address": "3530 N TAMIAMI TRL", "amenity": "post_box", "collection_times": "Mo-Fr 10:30", "nsi_id": "unitedstatespostalservice-a77078", "operator": "United States Postal Service", "operator:short": "USPS", "operator:type": "public", "operator:wikidata": "Q668687", "ref": "3423400021"}, "type": "Feature"}
{"geometry": {"coordinates": [-82.4650299, 27.351428], "type": "Point"}, "id": "ASfBIWj5EevQj6Jqal7_TsNLhrU=", "properties": {"@source_uri": "https://tools.usps.com/UspsToolsRestServices/rest/POLocator/findLocations", "@spider": "usps_collection_boxes", "addr:city": "SARASOTA", "addr:country": "US", "addr:postcode": "34235", "addr:state": "FL", "addr:street_address": "5250 17TH ST", "amenity": "post_box", "collection_times": "Mo-Sa 10:00", "nsi_id": "unitedstatespostalservice-a77078", "operator": "United States Postal Service", "operator:short": "USPS", "operator:type": "public", "operator:wikidata": "Q668687", "ref": "3423500000"}, "type": "Feature"}
{"geometry": {"coordinates": [-82.49605, 27.359715], "type": "Point"}, "id": "my90-ORj4YOygfhIqkPp8K88MB4=", "properties": {"@source_uri": "https://tools.usps.com/UspsToolsRestServices/rest/POLocator/findLocations", "@spider": "usps_collection_boxes", "addr:city": "SARASOTA", "addr:country": "US", "addr:postcode": "34235", "addr:state": "FL", "addr:street_address": "3251 17TH ST", "amenity": "post_box", "collection_times": "Mo-Fr 16:15; Sa 15:00", "note": "ON 12/24 AND 12/31, THIS BOX MAY BE COLLECTED AS EARLY AS 12 NOON.", "nsi_id": "unitedstatespostalservice-a77078", "operator": "United States Postal Service", "operator:short": "USPS", "operator:type": "public", "operator:wikidata": "Q668687", "ref": "3423500005"}, "type": "Feature"}
{"geometry": {"coordinates": [-82.4664573088, 27.3628481136], "type": "Point"}, "id": "7FHfENN-9JvxnY09H5zvzuP_0a4=", "properties": {"@source_uri": "https://tools.usps.com/UspsToolsRestServices/rest/POLocator/findLocations", "@spider": "usps_collection_boxes", "addr:city": "SARASOTA", "addr:country": "US", "addr:postcode": "34235", "addr:state": "FL", "addr:street_address": "4951 RINGWOOD MDW", "amenity": "post_box", "collection_times": "Mo-Sa 12:00", "nsi_id": "unitedstatespostalservice-a77078", "operator": "United States Postal Service", "operator:short": "USPS", "operator:type": "public", "operator:wikidata": "Q668687", "ref": "3423500009"}, "type": "Feature"}
{"geometry": {"coordinates": [-82.53751, 27.33497], "type": "Point"}, "id": "YYXfQBiH1mQ3E8kx-jHlVkC9CkA=", "properties": {"@source_uri": "https://tools.usps.com/UspsToolsRestServices/rest/POLocator/findLocations", "@spider": "usps_collection_boxes", "addr:city": "SARASOTA", "addr:country": "US", "addr:postcode": "34236", "addr:state": "FL", "addr:street_address": "1800 2ND ST", "amenity": "post_box", "collection_times": "Mo-Fr 10:30", "nsi_id": "unitedstatespostalservice-a77078", "operator": "United States Postal Service", "operator:short": "USPS", "operator:type": "public", "operator:wikidata": "Q668687", "ref": "3423600005"}, "type": "Feature"}
{"geometry": {"coordinates": [-82.53751, 27.33497], "type": "Point"}, "id": "9L2ODjLY0BmauDr6oH50_DGfs8o=", "properties": {"@source_uri": "https://tools.usps.com/UspsToolsRestServices/rest/POLocator/findLocations", "@spider": "usps_collection_boxes", "addr:city": "SARASOTA", "addr:country": "US", "addr:postcode": "34236", "addr:state": "FL", "addr:street_address": "500 JOHN RINGLING BLVD", "amenity": "post_box", "collection_times": "Mo-Sa 15:30", "note": "ON 12/24 AND 12/31, THIS BOX MAY BE COLLECTED AS EARLY AS 12 NOON.", "nsi_id": "unitedstatespostalservice-a77078", "operator": "United States Postal Service", "operator:short": "USPS", "operator:type": "public", "operator:wikidata": "Q668687", "ref": "3423600007"}, "type": "Feature"}
{"geometry": {"coordinates": [-82.53751, 27.33497], "type": "Point"}, "id": "tzi4MEsfsS55esZ3lkDpZcqmxbY=", "properties": {"@source_uri": "https://tools.usps.com/UspsToolsRestServices/rest/POLocator/findLocations", "@spider": "usps_collection_boxes", "addr:city": "SARASOTA", "addr:country": "US", "addr:postcode": "34236", "addr:state": "FL", "addr:street_address": "1661 RINGLING BLVD", "amenity": "post_box", "collection_times": "Mo-Fr 17:00; Sa 16:30", "note": "ON 12/24 AND 12/31, THIS BOX MAY BE COLLECTED AS EARLY AS 12 NOON.", "nsi_id": "unitedstatespostalservice-a77078", "operator": "United States Postal Service", "operator:short": "USPS", "operator:type": "public", "operator:wikidata": "Q668687", "ref": "3423600020"}, "type": "Feature"}
{"geometry": {"coordinates": [-82.53751, 27.33497], "type": "Point"}, "id": "nae8NaZDeZVhy7fFjpzqDMjoT3E=", "properties": {"@source_uri": "https://tools.usps.com/UspsToolsRestServices/rest/POLocator/findLocations", "@spider": "usps_collection_boxes", "addr:city": "SARASOTA", "addr:country": "US", "addr:postcode": "34236", "addr:state": "FL", "addr:street_address": "1661 RINGLING BLVD", "amenity": "post_box", "collection_times": "Mo-Fr 17:00; Sa 16:30", "indoor": "yes", "note": "ON 12/24 AND 12/31, THIS BOX MAY BE COLLECTED AS EARLY AS 12 NOON.", "nsi_id": "unitedstatespostalservice-a77078", "operator": "United States Postal Service", "operator:short": "USPS", "operator:type": "public", "operator:wikidata": "Q668687", "ref": "3423600023"}, "type": "Feature"}
{"geometry": {"coordinates": [-82.53751, 27.33497], "type": "Point"}, "id": "CvWEaLxIdVFjWl48G7v8FYUsYU8=", "properties": {"@source_uri": "https://tools.usps.com/UspsToolsRestServices/rest/POLocator/findLocations", "@spider": "usps_collection_boxes", "addr:city": "SARASOTA", "addr:country": "US", "addr:postcode": "34236", "addr:state": "FL", "addr:street_address": "100 BIRD KEY DR", "amenity": "post_box", "collection_times": "Mo-Sa 14:30", "note": "ON 12/24 AND 12/31, THIS BOX MAY BE COLLECTED AS EARLY AS 12 NOON.", "nsi_id": "unitedstatespostalservice-a77078", "operator": "United States Postal Service", "operator:short": "USPS", "operator:type": "public", "operator:wikidata": "Q668687", "ref": "3423600033"}, "type": "Feature"}
{"geometry": {"coordinates": [-82.53751, 27.33497], "type": "Point"}, "id": "0ZSyzLW5tFqnooL7wF0dL7aWVaI=", "properties": {"@source_uri": "https://tools.usps.com/UspsToolsRestServices/rest/POLocator/findLocations", "@spider": "usps_collection_boxes", "addr:city": "SARASOTA", "addr:country": "US", "addr:postcode": "34236", "addr:state": "FL", "addr:street_address": "1605 MAIN ST", "amenity": "post_box", "collection_times": "Mo-Fr 10:30", "nsi_id": "unitedstatespostalservice-a77078", "operator": "United States Postal Service", "operator:short": "USPS", "operator:type": "public", "operator:wikidata": "Q668687", "ref": "3423600037"}, "type": "Feature"}
{"geometry": {"coordinates": [-82.53751, 27.33497], "type": "Point"}, "id": "DW5hzurZPgrMG7uV6BQVM1aZFCQ=", "properties": {"@source_uri": "https://tools.usps.com/UspsToolsRestServices/rest/POLocator/findLocations", "@spider": "usps_collection_boxes", "addr:city": "SARASOTA", "addr:country": "US", "addr:postcode": "34236", "addr:state": "FL", "addr:street_address": "1661 RINGLING BLVD", "amenity": "post_box", "collection_times": "Mo-Fr 17:00; Sa 16:30", "indoor": "yes", "note": "ON 12/24 AND 12/31, THIS BOX MAY BE COLLECTED AS EARLY AS 12 NOON.", "nsi_id": "unitedstatespostalservice-a77078", "operator": "United States Postal Service", "operator:short": "USPS", "operator:type": "public", "operator:wikidata": "Q668687", "ref": "3423600042"}, "type": "Feature"}
{"geometry": {"coordinates": [-82.53751, 27.33497], "type": "Point"}, "id": "tXswU1X0SVIcN6Jyx7IMlu3Vhtk=", "properties": {"@source_uri": "https://tools.usps.com/UspsToolsRestServices/rest/POLocator/findLocations", "@spider": "usps_collection_boxes", "addr:city": "SARASOTA", "addr:country": "US", "addr:postcode": "34236", "addr:state": "FL", "addr:street_address": "1661 RINGLING BLVD", "amenity": "post_box", "collection_times": "Mo-Fr 17:00; Sa 16:30", "name": "USPS COLLECTION BOX - APC", "note": "ON 12/24 AND 12/31, THIS BOX MAY BE COLLECTED AS EARLY AS 12 NOON.", "nsi_id": "unitedstatespostalservice-a77078", "operator": "United States Postal Service", "operator:short": "USPS", "operator:type": "public", "operator:wikidata": "Q668687", "ref": "3423600047"}, "type": "Feature"}
{"geometry": {"coordinates": [-82.53751, 27.33497], "type": "Point"}, "id": "8Qw3GDHdoV4s77U_S58MHVkyGkY=", "properties": {"@source_uri": "https://tools.usps.com/UspsToolsRestServices/rest/POLocator/findLocations", "@spider": "usps_collection_boxes", "addr:city": "SARASOTA", "addr:country": "US", "addr:postcode": "34236", "addr:state": "FL", "addr:street_address": "1819 MAIN ST", "amenity": "post_box", "collection_times": "Mo-Fr 10:30", "nsi_id": "unitedstatespostalservice-a77078", "operator": "United States Postal Service", "operator:short": "USPS", "operator:type": "public", "operator:wikidata": "Q668687", "ref": "3423600052"}, "type": "Feature"}
{"geometry": {"coordinates": [-82.53751, 27.33497], "type": "Point"}, "id": "cbb3-AWKx-NgUTA4ktSXFZB_tJc=", "properties": {"@source_uri": "https://tools.usps.com/UspsToolsRestServices/rest/POLocator/findLocations", "@spider": "usps_collection_boxes", "addr:city": "SARASOTA", "addr:country": "US", "addr:postcode": "34236", "addr:state": "FL", "addr:street_address": "1782 DR MARTIN LUTHER KING WAY", "amenity": "post_box", "collection_times": "Mo-Sa 14:00", "note": "ON 12/24 AND 12/31, THIS BOX MAY BE COLLECTED AS EARLY AS 12 NOON.", "nsi_id": "unitedstatespostalservice-a77078", "operator": "United States Postal Service", "operator:short": "USPS", "operator:type": "public", "operator:wikidata": "Q668687", "ref": "3423600056"}, "type": "Feature"}
{"geometry": {"coordinates": [-82.5290838, 27.336556], "type": "Point"}, "id": "ws69gXWWHswrdZ4AfCDu7Jm7b6Q=", "properties": {"@source_uri": "https://tools.usps.com/UspsToolsRestServices/rest/POLocator/findLocations", "@spider": "usps_collection_boxes", "addr:city": "SARASOTA", "addr:country": "US", "addr:postcode": "34237", "addr:state": "FL", "addr:street_address": "2075 MAIN ST", "amenity": "post_box", "collection_times": "Mo-Fr 12:00", "nsi_id": "unitedstatespostalservice-a77078", "operator": "United States Postal Service", "operator:short": "USPS", "operator:type": "public", "operator:wikidata": "Q668687", "ref": "3423700007"}, "type": "Feature"}
{"geometry": {"coordinates": [-82.5134504, 27.336283], "type": "Point"}, "id": "3n25ep8Booje2WrSHf2oK0lTlWo=", "properties": {"@source_uri": "https://tools.usps.com/UspsToolsRestServices/rest/POLocator/findLocations", "@spider": "usps_collection_boxes", "addr:city": "SARASOTA", "addr:country": "US", "addr:postcode": "34237", "addr:state": "FL", "addr:street_address": "75 S TUTTLE AVE", "amenity": "post_box", "collection_times": "Mo-Sa 14:00", "note": "ON 12/24 AND 12/31, THIS BOX MAY BE COLLECTED AS EARLY AS 12 NOON.", "nsi_id": "unitedstatespostalservice-a77078", "operator": "United States Postal Service", "operator:short": "USPS", "operator:type": "public", "operator:wikidata": "Q668687", "ref": "3423700020"}, "type": "Feature"}
{"geometry": {"coordinates": [-82.5303714117, 27.338796619], "type": "Point"}, "id": "xkxaAVVsVFlhfMDVvsgHWNgrk3o=", "properties": {"@source_uri": "https://tools.usps.com/UspsToolsRestServices/rest/POLocator/findLocations", "@spider": "usps_collection_boxes", "addr:city": "SARASOTA", "addr:country": "US", "addr:postcode": "34237", "addr:state": "FL", "addr:street_address": "2010 FRUITVILLE RD", "amenity": "post_box", "collection_times": "Mo-Fr 11:30", "nsi_id": "unitedstatespostalservice-a77078", "operator": "United States Postal Service", "operator:short": "USPS", "operator:type": "public", "operator:wikidata": "Q668687", "ref": "3423700024"}, "type": "Feature"}
{"geometry": {"coordinates": [-82.5287073, 27.328473], "type": "Point"}, "id": "6RU8YxGHQ01FufWgAuvN5W7hLwo=", "properties": {"@source_uri": "https://tools.usps.com/UspsToolsRestServices/rest/POLocator/findLocations", "@spider": "usps_collection_boxes", "addr:city": "SARASOTA", "addr:country": "US", "addr:postcode": "34237", "addr:state": "FL", "addr:street_address": "2055 WOOD ST", "amenity": "post_box", "collection_times": "Mo-Fr 11:30", "nsi_id": "unitedstatespostalservice-a77078", "operator": "United States Postal Service", "operator:short": "USPS", "operator:type": "public", "operator:wikidata": "Q668687", "ref": "3423700025"}, "type": "Feature"}
{"geometry": {"coordinates": [-82.5284335, 27.347812], "type": "Point"}, "id": "D_ZAMOk0jLL2UqQgL7GIoANJD8M=", "properties": {"@source_uri": "https://tools.usps.com/UspsToolsRestServices/rest/POLocator/findLocations", "@spider": "usps_collection_boxes", "addr:city": "SARASOTA", "addr:country": "US", "addr:postcode": "34237", "addr:state": "FL", "addr:street_address": "1197 N EAST AVE", "amenity": "post_box", "collection_times": "Mo-Sa 10:30", "nsi_id": "unitedstatespostalservice-a77078", "operator": "United States Postal Service", "operator:short": "USPS", "operator:type": "public", "operator:wikidata": "Q668687", "ref": "3423700026"}, "type": "Feature"}
{"geometry": {"coordinates": [-82.493964677, 27.2513741521], "type": "Point"}, "id": "9n8yVRUX9KjTnPdP_gHN2SCVc0E=", "properties": {"@source_uri": "https://tools.usps.com/UspsToolsRestServices/rest/POLocator/findLocations", "@spider": "usps_collection_boxes", "addr:city": "SARASOTA", "addr:country": "US", "addr:postcode": "34238", "addr:state": "FL", "addr:street_address": "3781 MIRA LAGO DR", "amenity": "post_box", "collection_times": "Mo-Sa 13:55", "note": "ON 12/24 AND 12/31, THIS BOX MAY BE COLLECTED AS EARLY AS 12 NOON.", "nsi_id": "unitedstatespostalservice-a77078", "operator": "United States Postal Service", "operator:short": "USPS", "operator:type": "public", "operator:wikidata": "Q668687", "ref": "3423800007"}, "type": "Feature"}
{"geometry": {"coordinates": [-82.4912464, 27.227441], "type": "Point"}, "id": "lDn0lqX1RcCp8dP9FUtJokNwqsg=", "properties": {"@source_uri": "https://tools.usps.com/UspsToolsRestServices/rest/POLocator/findLocations", "@spider": "usps_collection_boxes", "addr:city": "SARASOTA", "addr:country": "US", "addr:postcode": "34238", "addr:state": "FL", "addr:street_address": "8499 S TAMIAMI TRL", "amenity": "post_box", "collection_times": "Mo-Sa 13:45", "note": "ON 12/24 AND 12/31, THIS BOX MAY BE COLLECTED AS EARLY AS 12 NOON.", "nsi_id": "unitedstatespostalservice-a77078", "operator": "United States Postal Service", "operator:short": "USPS", "operator:type": "public", "operator:wikidata": "Q668687", "ref": "3423800009"}, "type": "Feature"}
{"geometry": {"coordinates": [-82.479264, 27.259737], "type": "Point"}, "id": "PUxSExaoIdt8Jz6DV3WVNIEM_vc=", "properties": {"@source_uri": "https://tools.usps.com/UspsToolsRestServices/rest/POLocator/findLocations", "@spider": "usps_collection_boxes", "addr:city": "SARASOTA", "addr:country": "US", "addr:postcode": "34238", "addr:state": "FL", "addr:street_address": "6552 PALMER PARK CIR", "amenity": "post_box", "collection_times": "Mo-Sa 16:00", "note": "ON 12/24 AND 12/31, THIS BOX MAY BE COLLECTED AS EARLY AS 12 NOON.", "nsi_id": "unitedstatespostalservice-a77078", "operator": "United States Postal Service", "operator:short": "USPS", "operator:type": "public", "operator:wikidata": "Q668687", "ref": "3423800010"}, "type": "Feature"}
{"geometry": {"coordinates": [-82.5305938826, 27.2991426706], "type": "Point"}, "id": "VysQgvD7YFpsjwXPOyyBg_cIok8=", "properties": {"@source_uri": "https://tools.usps.com/UspsToolsRestServices/rest/POLocator/findLocations", "@spider": "usps_collection_boxes", "addr:city": "SARASOTA", "addr:country": "US", "addr:postcode": "34239", "addr:state": "FL", "addr:street_address": "3800 S TAMIAMI TRL", "amenity": "post_box", "collection_times": "Mo-Sa 15:15", "note": "ON 12/24 AND 12/31, THIS BOX MAY BE COLLECTED AS EARLY AS 12 NOON.", "nsi_id": "unitedstatespostalservice-a77078", "operator": "United States Postal Service", "operator:short": "USPS", "operator:type": "public", "operator:wikidata": "Q668687", "ref": "3423900007"}, "type": "Feature"}
{"geometry": {"coordinates": [-82.528956519, 27.302919996], "type": "Point"}, "id": "W0lFfapwQ0F2kfQ9SJx3V46mOAU=", "properties": {"@source_uri": "https://tools.usps.com/UspsToolsRestServices/rest/POLocator/findLocations", "@spider": "usps_collection_boxes", "addr:city": "SARASOTA", "addr:country": "US", "addr:postcode": "34239", "addr:state": "FL", "addr:street_address": "2055 SIESTA DR", "amenity": "post_box", "collection_times": "Mo-Fr 17:00; Sa 14:00", "indoor": "yes", "note": "ON 12/24 AND 12/31, THIS BOX MAY BE COLLECTED AS EARLY AS 12 NOON.", "nsi_id": "unitedstatespostalservice-a77078", "operator": "United States Postal Service", "operator:short": "USPS", "operator:type": "public", "operator:wikidata": "Q668687", "ref": "3423900020"}, "type": "Feature"}
{"geometry": {"coordinates": [-82.5021494, 27.322642], "type": "Point"}, "id": "JkJ_8lWc6DKhJIS-wdXZMLPCj6I=", "properties": {"@source_uri": "https://tools.usps.com/UspsToolsRestServices/rest/POLocator/findLocations", "@spider": "usps_collection_boxes", "addr:city": "SARASOTA", "addr:country": "US", "addr:postcode": "34239", "addr:state": "FL", "addr:street_address": "1240 YODER AVE", "amenity": "post_box", "collection_times": "Mo-Sa 12:00", "nsi_id": "unitedstatespostalservice-a77078", "operator": "United States Postal Service", "operator:short": "USPS", "operator:type": "public", "operator:wikidata": "Q668687", "ref": "3423900024"}, "type": "Feature"}
{"geometry": {"coordinates": [-82.5288694, 27.322354], "type": "Point"}, "id": "6iqnQkxcRbNDm70azc-ovH65L9s=", "properties": {"@source_uri": "https://tools.usps.com/UspsToolsRestServices/rest/POLocator/findLocations", "@spider": "usps_collection_boxes", "addr:city": "SARASOTA", "addr:country": "US", "addr:postcode": "34239", "addr:state": "FL", "addr:street_address": "1311 S TAMIAMI TRL", "amenity": "post_box", "collection_times": "Mo-Fr 15:00; Sa 12:00", "note": "ON 12/24 AND 12/31, THIS BOX MAY BE COLLECTED AS EARLY AS 12 NOON.", "nsi_id": "unitedstatespostalservice-a77078", "operator": "United States Postal Service", "operator:short": "USPS", "operator:type": "public", "operator:wikidata": "Q668687", "ref": "3423900025"}, "type": "Feature"}
{"geometry": {"coordinates": [-82.5317576, 27.31941], "type": "Point"}, "id": "JwXdaHSbVSzhp06PDESmkBYpdfs=", "properties": {"@source_uri": "https://tools.usps.com/UspsToolsRestServices/rest/POLocator/findLocations", "@spider": "usps_collection_boxes", "addr:city": "SARASOTA", "addr:country": "US", "addr:postcode": "34239", "addr:state": "FL", "addr:street_address": "1921 WALDEMERE ST", "amenity": "post_box", "collection_times": "Mo-Fr 15:00", "note": "ON 12/24 AND 12/31, THIS BOX MAY BE COLLECTED AS EARLY AS 12 NOON.", "nsi_id": "unitedstatespostalservice-a77078", "operator": "United States Postal Service", "operator:short": "USPS", "operator:type": "public", "operator:wikidata": "Q668687", "ref": "3423900026"}, "type": "Feature"}
{"geometry": {"coordinates": [-82.5291456201, 27.3031766607], "type": "Point"}, "id": "8oXkHkEgN3656CkS4v-y71JLBOs=", "properties": {"@source_uri": "https://tools.usps.com/UspsToolsRestServices/rest/POLocator/findLocations", "@spider": "usps_collection_boxes", "addr:city": "SARASOTA", "addr:country": "US", "addr:postcode": "34239", "addr:state": "FL", "addr:street_address": "2055 SIESTA DR", "amenity": "post_box", "collection_times": "Mo-Fr 17:00; Sa 14:00", "note": "ON 12/24 AND 12/31, THIS BOX MAY BE COLLECTED AS EARLY AS 12 NOON.", "nsi_id": "unitedstatespostalservice-a77078", "operator": "United States Postal Service", "operator:short": "USPS", "operator:type": "public", "operator:wikidata": "Q668687", "ref": "3423900032"}, "type": "Feature"}
{"geometry": {"coordinates": [-82.513472676, 27.305441402], "type": "Point"}, "id": "_H4rES5FVaMORrHJFAK1NzIAj2A=", "properties": {"@source_uri": "https://tools.usps.com/UspsToolsRestServices/rest/POLocator/findLocations", "@spider": "usps_collection_boxes", "addr:city": "SARASOTA", "addr:country": "US", "addr:postcode": "34239", "addr:state": "FL", "addr:street_address": "3137 SOUTHGATE CIR", "amenity": "post_box", "collection_times": "Mo-Fr 15:30", "note": "ON 12/24 AND 12/31, THIS BOX MAY BE COLLECTED AS EARLY AS 12 NOON.", "nsi_id": "unitedstatespostalservice-a77078", "operator": "United States Postal Service", "operator:short": "USPS", "operator:type": "public", "operator:wikidata": "Q668687", "ref": "3423900034"}, "type": "Feature"}
{"geometry": {"coordinates": [-82.528956519, 27.302919996], "type": "Point"}, "id": "LtxqxAAFMssgEAn97Xbtw7ylzvQ=", "properties": {"@source_uri": "https://tools.usps.com/UspsToolsRestServices/rest/POLocator/findLocations", "@spider": "usps_collection_boxes", "addr:city": "SARASOTA", "addr:country": "US", "addr:postcode": "34239", "addr:state": "FL", "addr:street_address": "2055 SIESTA DR", "amenity": "post_box", "collection_times": "Mo-Fr 17:00; Sa 14:00", "indoor": "yes", "note": "ON 12/24 AND 12/31, THIS BOX MAY BE COLLECTED AS EARLY AS 12 NOON.", "nsi_id": "unitedstatespostalservice-a77078", "operator": "United States Postal Service", "operator:short": "USPS", "operator:type": "public", "operator:wikidata": "Q668687", "ref": "3423900037"}, "type": "Feature"}
{"geometry": {"coordinates": [-82.528956519, 27.302919996], "type": "Point"}, "id": "R6E1U4NW0lMLZRDonfpGYlUMuh0=", "properties": {"@source_uri": "https://tools.usps.com/UspsToolsRestServices/rest/POLocator/findLocations", "@spider": "usps_collection_boxes", "addr:city": "SARASOTA", "addr:country": "US", "addr:postcode": "34239", "addr:state": "FL", "addr:street_address": "2055 SIESTA DR", "amenity": "post_box", "collection_times": "Mo-Fr 17:00; Sa 14:00", "name": "USPS COLLECTION BOX - APC", "note": "ON 12/24 AND 12/31, THIS BOX MAY BE COLLECTED AS EARLY AS 12 NOON.", "nsi_id": "unitedstatespostalservice-a77078", "operator": "United States Postal Service", "operator:short": "USPS", "operator:type": "public", "operator:wikidata": "Q668687", "ref": "3423900038"}, "type": "Feature"}
{"geometry": {"coordinates": [-82.528956519, 27.302919996], "type": "Point"}, "id": "Pisnw7DwK0w2FtK--IgL6jMx8Ts=", "properties": {"@source_uri": "https://tools.usps.com/UspsToolsRestServices/rest/POLocator/findLocations", "@spider": "usps_collection_boxes", "addr:city": "SARASOTA", "addr:country": "US", "addr:postcode": "34239", "addr:state": "FL", "addr:street_address": "2055 SIESTA DR", "amenity": "post_box", "collection_times": "Mo-Fr 17:30", "indoor": "yes", "note": "ON 12/24 AND 12/31, THIS BOX MAY BE COLLECTED AS EARLY AS 12 NOON.", "nsi_id": "unitedstatespostalservice-a77078", "operator": "United States Postal Service", "operator:short": "USPS", "operator:type": "public", "operator:wikidata": "Q668687", "ref": "3423900043"}, "type": "Feature"}
{"geometry": {"coordinates": [-82.4374902, 27.3131112], "type": "Point"}, "id": "lj1wGZh6U95_SonakgBZGBTp0Lc=", "properties": {"@source_uri": "https://tools.usps.com/UspsToolsRestServices/rest/POLocator/findLocations", "@spider": "usps_collection_boxes", "addr:city": "SARASOTA", "addr:country": "US", "addr:postcode": "34240", "addr:state": "FL", "addr:street_address": "241 INTERSTATE CT", "amenity": "post_box", "collection_times": "Mo-Fr 13:30", "note": "ON 12/24 AND 12/31, THIS BOX MAY BE COLLECTED AS EARLY AS 12 NOON.", "nsi_id": "unitedstatespostalservice-a77078", "operator": "United States Postal Service", "operator:short": "USPS", "operator:type": "public", "operator:wikidata": "Q668687", "ref": "3424000006"}, "type": "Feature"}
{"geometry": {"coordinates": [-82.4374902, 27.3131112], "type": "Point"}, "id": "JMg_XuLKuAUtE33y3jihHEJIyig=", "properties": {"@source_uri": "https://tools.usps.com/UspsToolsRestServices/rest/POLocator/findLocations", "@spider": "usps_collection_boxes", "addr:city": "SARASOTA", "addr:country": "US", "addr:postcode": "34240", "addr:state": "FL", "addr:street_address": "1540 APEX RD", "amenity": "post_box", "collection_times": "Mo-Fr 11:00", "nsi_id": "unitedstatespostalservice-a77078", "operator": "United States Postal Service", "operator:short": "USPS", "operator:type": "public", "operator:wikidata": "Q668687", "ref": "3424000007"}, "type": "Feature"}
{"geometry": {"coordinates": [-82.4374902, 27.3131112], "type": "Point"}, "id": "jqbuc3oToY-0NEE_umV_LlWWBvQ=", "properties": {"@source_uri": "https://tools.usps.com/UspsToolsRestServices/rest/POLocator/findLocations", "@spider": "usps_collection_boxes", "addr:city": "SARASOTA", "addr:country": "US", "addr:postcode": "34240", "addr:state": "FL", "addr:street_address": "31 SARASOTA CENTER BLVD", "amenity": "post_box", "collection_times": "Mo-Fr 12:00", "nsi_id": "unitedstatespostalservice-a77078", "operator": "United States Postal Service", "operator:short": "USPS", "operator:type": "public", "operator:wikidata": "Q668687", "ref": "3424000008"}, "type": "Feature"}
{"geometry": {"coordinates": [-82.4374902, 27.3131112], "type": "Point"}, "id": "1_-QWRyRr7vbic7zPnuDBBctJbI=", "properties": {"@source_uri": "https://tools.usps.com/UspsToolsRestServices/rest/POLocator/findLocations", "@spider": "usps_collection_boxes", "addr:city": "SARASOTA", "addr:country": "US", "addr:postcode": "34240", "addr:state": "FL", "addr:street_address": "5800 LAKEWOOD RANCH BLVD N", "amenity": "post_box", "collection_times": "Mo-Sa 10:45", "nsi_id": "unitedstatespostalservice-a77078", "operator": "United States Postal Service", "operator:short": "USPS", "operator:type": "public", "operator:wikidata": "Q668687", "ref": "3424000011"}, "type": "Feature"}
{"geometry": {"coordinates": [-82.5057999, 27.40424], "type": "Point"}, "id": "FNT3TVFTO1Q1P1BFd574eU3sdJA=", "properties": {"@source_uri": "https://tools.usps.com/UspsToolsRestServices/rest/POLocator/findLocations", "@spider": "usps_collection_boxes", "addr:city": "SARASOTA", "addr:country": "US", "addr:postcode": "34243", "addr:state": "FL", "addr:street_address": "7606 LOCKWOOD RIDGE RD", "amenity": "post_box", "collection_times": "Mo-Fr 12:00", "nsi_id": "unitedstatespostalservice-a77078", "operator": "United States Postal Service", "operator:short": "USPS", "operator:type": "public", "operator:wikidata": "Q668687", "ref": "3424300001"}, "type": "Feature"}
{"geometry": {"coordinates": [-82.4857909, 27.38915], "type": "Point"}, "id": "hdT9-Ffhbcutl9Ap04PKq-5lhz8=", "properties": {"@source_uri": "https://tools.usps.com/UspsToolsRestServices/rest/POLocator/findLocations", "@spider": "usps_collection_boxes", "addr:city": "SARASOTA", "addr:country": "US", "addr:postcode": "34243", "addr:state": "FL", "addr:street_address": "5897 WHITFIELD AVE", "amenity": "post_box", "collection_times": "Mo-Fr 12:00", "nsi_id": "unitedstatespostalservice-a77078", "operator": "United States Postal Service", "operator:short": "USPS", "operator:type": "public", "operator:wikidata": "Q668687", "ref": "3424300002"}, "type": "Feature"}
{"geometry": {"coordinates": [-82.5089233, 27.389735], "type": "Point"}, "id": "bYoqyTXRxTgaQuhbo82F0zWaDsM=", "properties": {"@source_uri": "https://tools.usps.com/UspsToolsRestServices/rest/POLocator/findLocations", "@spider": "usps_collection_boxes", "addr:city": "SARASOTA", "addr:country": "US", "addr:postcode": "34243", "addr:state": "FL", "addr:street_address": "8440 LOCKWOOD RIDGE RD", "amenity": "post_box", "collection_times": "Mo-Fr 12:00", "nsi_id": "unitedstatespostalservice-a77078", "operator": "United States Postal Service", "operator:short": "USPS", "operator:type": "public", "operator:wikidata": "Q668687", "ref": "3424300006"}, "type": "Feature"}
{"geometry": {"coordinates": [-82.5326882, 27.427553], "type": "Point"}, "id": "1vJV3SeknZjQClrcoMRFGCLumY0=", "properties": {"@source_uri": "https://tools.usps.com/UspsToolsRestServices/rest/POLocator/findLocations", "@spider": "usps_collection_boxes", "addr:city": "SARASOTA", "addr:country": "US", "addr:postcode": "34243", "addr:state": "FL", "addr:street_address": "6497 PARKLAND DR", "amenity": "post_box", "collection_times": "Mo-Fr 12:00", "nsi_id": "unitedstatespostalservice-a77078", "operator": "United States Postal Service", "operator:short": "USPS", "operator:type": "public", "operator:wikidata": "Q668687", "ref": "3424300010"}, "type": "Feature"}
{"geometry": {"coordinates": [-82.5044868, 27.388365], "type": "Point"}, "id": "2Tymm3BMm8uNc6NHObog9vT9dbY=", "properties": {"@source_uri": "https://tools.usps.com/UspsToolsRestServices/rest/POLocator/findLocations", "@spider": "usps_collection_boxes", "addr:city": "SARASOTA", "addr:country": "US", "addr:postcode": "34243", "addr:state": "FL", "addr:street_address": "6200 N LOCKWOOD RIDGE RD", "amenity": "post_box", "collection_times": "Mo-Fr 13:00; Sa 12:45", "note": "ON 12/24 AND 12/31, THIS BOX MAY BE COLLECTED AS EARLY AS 12 NOON.", "nsi_id": "unitedstatespostalservice-a77078", "operator": "United States Postal Service", "operator:short": "USPS", "operator:type": "public", "operator:wikidata": "Q668687", "ref": "3424300016"}, "type": "Feature"}
{"geometry": {"coordinates": [-82.5809146, 27.5785458], "type": "Point"}, "id": "te8M_j1ih6A9K1VfOkhgCiG2Z-g=", "properties": {"@source_uri": "https://tools.usps.com/UspsToolsRestServices/rest/POLocator/findLocations", "@spider": "usps_collection_boxes", "addr:city": "TERRA CEIA", "addr:country": "US", "addr:postcode": "34250", "addr:state": "FL", "addr:street_address": "1891 CENTER RD", "amenity": "post_box", "collection_times": "Mo-Fr 15:00; Sa 09:00", "note": "ON 12/24 AND 12/31, THIS BOX MAY BE COLLECTED AS EARLY AS 12 NOON.", "nsi_id": "unitedstatespostalservice-a77078", "operator": "United States Postal Service", "operator:short": "USPS", "operator:type": "public", "operator:wikidata": "Q668687", "ref": "3425000001"}, "type": "Feature"}
{"geometry": {"coordinates": [-82.5809146, 27.5785458], "type": "Point"}, "id": "hGKimk3M3zJMz6RvUeMs4lNTNcg=", "properties": {"@source_uri": "https://tools.usps.com/UspsToolsRestServices/rest/POLocator/findLocations", "@spider": "usps_collection_boxes", "addr:city": "TERRA CEIA", "addr:country": "US", "addr:postcode": "34250", "addr:state": "FL", "addr:street_address": "1891 CENTER RD", "amenity": "post_box", "collection_times": "Mo-Fr 15:00", "indoor": "yes", "note": "ON 12/24 AND 12/31, THIS BOX MAY BE COLLECTED AS EARLY AS 12 NOON.", "nsi_id": "unitedstatespostalservice-a77078", "operator": "United States Postal Service", "operator:short": "USPS", "operator:type": "public", "operator:wikidata": "Q668687", "ref": "3425000003"}, "type": "Feature"}
{"geometry": {"coordinates": [-82.1648800104, 27.3504759918], "type": "Point"}, "id": "ikEklwQGO7sSyxEZavufdTLP0a8=", "properties": {"@source_uri": "https://tools.usps.com/UspsToolsRestServices/rest/POLocator/findLocations", "@spider": "usps_collection_boxes", "addr:city": "MYAKKA CITY", "addr:country": "US", "addr:postcode": "34251", "addr:state": "FL", "addr:street_address": "10490 CARLTON AVE", "amenity": "post_box", "collection_times": "Mo-Fr 16:00; Sa 12:00", "note": "ON 12/24 AND 12/31, THIS BOX MAY BE COLLECTED AS EARLY AS 12 NOON.", "nsi_id": "unitedstatespostalservice-a77078", "operator": "United States Postal Service", "operator:short": "USPS", "operator:type": "public", "operator:wikidata": "Q668687", "ref": "3425100003"}, "type": "Feature"}
{"geometry": {"coordinates": [-82.55727, 27.40552], "type": "Point"}, "id": "M9BdgQz4ZvpGbqPa7rk7C3FYYW0=", "properties": {"@source_uri": "https://tools.usps.com/UspsToolsRestServices/rest/POLocator/findLocations", "@spider": "usps_collection_boxes", "addr:city": "MANASOTA", "addr:country": "US", "addr:postcode": "34260", "addr:state": "FL", "addr:street_address": "850 TALLEVAST RD", "amenity": "post_box", "collection_times": "Mo-Sa 18:30", "note": "ON 12/24 AND 12/31, THIS BOX MAY BE COLLECTED AS EARLY AS 12 NOON.", "nsi_id": "unitedstatespostalservice-a77078", "operator": "United States Postal Service", "operator:short": "USPS", "operator:type": "public", "operator:wikidata": "Q668687", "ref": "3426000001"}, "type": "Feature"}
{"geometry": {"coordinates": [-82.5344699726, 27.4482299795], "type": "Point"}, "id": "Fowla4vsoh85Y8Lhy-3jbM1NkZE=", "properties": {"@source_uri": "https://tools.usps.com/UspsToolsRestServices/rest/POLocator/findLocations", "@spider": "usps_collection_boxes", "addr:city": "ONECO", "addr:country": "US", "addr:postcode": "34264", "addr:state": "FL", "addr:street_address": "2333 53RD AVE E", "amenity": "post_box", "collection_times": "Mo-Fr 16:30; Sa 11:30", "note": "ON 12/24 AND 12/31, THIS BOX MAY BE COLLECTED AS EARLY AS 12 NOON.", "nsi_id": "unitedstatespostalservice-a77078", "operator": "United States Postal Service", "operator:short": "USPS", "operator:type": "public", "operator:wikidata": "Q668687", "ref": "3426400004"}, "type": "Feature"}
{"geometry": {"coordinates": [-82.5344699726, 27.4482299795], "type": "Point"}, "id": "wtAe_lqTTpaOucgBhfkM34zX7qk=", "properties": {"@source_uri": "https://tools.usps.com/UspsToolsRestServices/rest/POLocator/findLocations", "@spider": "usps_collection_boxes", "addr:city": "ONECO", "addr:country": "US", "addr:postcode": "34264", "addr:state": "FL", "addr:street_address": "2333 53RD AVE E", "amenity": "post_box", "collection_times": "Mo-Fr 16:30; Sa 11:30", "indoor": "yes", "note": "ON 12/24 AND 12/31, THIS BOX MAY BE COLLECTED AS EARLY AS 12 NOON.", "nsi_id": "unitedstatespostalservice-a77078", "operator": "United States Postal Service", "operator:short": "USPS", "operator:type": "public", "operator:wikidata": "Q668687", "ref": "3426400006"}, "type": "Feature"}
{"geometry": {"coordinates": [-81.8613739786, 27.2172979858], "type": "Point"}, "id": "WrDRTl-djlFjdr4-VJ0irI6zQ3Y=", "properties": {"@source_uri": "https://tools.usps.com/UspsToolsRestServices/rest/POLocator/findLocations", "@spider": "usps_collection_boxes", "addr:city": "ARCADIA", "addr:country": "US", "addr:postcode": "34266", "addr:state": "FL", "addr:street_address": "109 N POLK AVE", "amenity": "post_box", "collection_times": "Mo-Fr 17:00; Sa 13:00", "note": "ON 12/24 AND 12/31, THIS BOX MAY BE COLLECTED AS EARLY AS 12 NOON.", "nsi_id": "unitedstatespostalservice-a77078", "operator": "United States Postal Service", "operator:short": "USPS", "operator:type": "public", "operator:wikidata": "Q668687", "ref": "3426600009"}, "type": "Feature"}
{"geometry": {"coordinates": [-81.8613739786, 27.2172979858], "type": "Point"}, "id": "roAQGH5P0VHblmFnv63aK68Wns8=", "properties": {"@source_uri": "https://tools.usps.com/UspsToolsRestServices/rest/POLocator/findLocations", "@spider": "usps_collection_boxes", "addr:city": "ARCADIA", "addr:country": "US", "addr:postcode": "34266", "addr:state": "FL", "addr:street_address": "109 N POLK AVE", "amenity": "post_box", "collection_times": "Mo-Fr 16:30; Sa 12:00", "note": "ON 12/24 AND 12/31, THIS BOX MAY BE COLLECTED AS EARLY AS 12 NOON.", "nsi_id": "unitedstatespostalservice-a77078", "operator": "United States Postal Service", "operator:short": "USPS", "operator:type": "public", "operator:wikidata": "Q668687", "ref": "3426600022"}, "type": "Feature"}
{"geometry": {"coordinates": [-81.8613739786, 27.2172979858], "type": "Point"}, "id": "fhZwjfCUdSPqLTJ6I6CSkoIQTHc=", "properties": {"@source_uri": "https://tools.usps.com/UspsToolsRestServices/rest/POLocator/findLocations", "@spider": "usps_collection_boxes", "addr:city": "ARCADIA", "addr:country": "US", "addr:postcode": "34266", "addr:state": "FL", "addr:street_address": "109 N POLK AVE", "amenity": "post_box", "collection_times": "Mo-Fr 16:30; Sa 12:00", "indoor": "yes", "note": "ON 12/24 AND 12/31, THIS BOX MAY BE COLLECTED AS EARLY AS 12 NOON.", "nsi_id": "unitedstatespostalservice-a77078", "operator": "United States Postal Service", "operator:short": "USPS", "operator:type": "public", "operator:wikidata": "Q668687", "ref": "3426600024"}, "type": "Feature"}
{"geometry": {"coordinates": [-81.9562710365, 27.0836839951], "type": "Point"}, "id": "azeR0SQTg5h_U7IQBij_eiiBoqk=", "properties": {"@source_uri": "https://tools.usps.com/UspsToolsRestServices/rest/POLocator/findLocations", "@spider": "usps_collection_boxes", "addr:city": "FT OGDEN", "addr:country": "US", "addr:postcode": "34267", "addr:state": "FL", "addr:street_address": "9693 SW HIGHWAY 17", "amenity": "post_box", "collection_times": "Mo-Fr 16:00; Sa 11:30", "note": "ON 12/24 AND 12/31, THIS BOX MAY BE COLLECTED AS EARLY AS 12 NOON.", "nsi_id": "unitedstatespostalservice-a77078", "operator": "United States Postal Service", "operator:short": "USPS", "operator:type": "public", "operator:wikidata": "Q668687", "ref": "3426700000"}, "type": "Feature"}
{"geometry": {"coordinates": [-81.9562710365, 27.0836839951], "type": "Point"}, "id": "duQhOzNVX9pCGq11KgiUkW-P418=", "properties": {"@source_uri": "https://tools.usps.com/UspsToolsRestServices/rest/POLocator/findLocations", "@spider": "usps_collection_boxes", "addr:city": "FT OGDEN", "addr:country": "US", "addr:postcode": "34267", "addr:state": "FL", "addr:street_address": "9693 SW HIGHWAY 17", "amenity": "post_box", "collection_times": "Mo-Fr 16:00; Sa 11:30", "indoor": "yes", "note": "ON 12/24 AND 12/31, THIS BOX MAY BE COLLECTED AS EARLY AS 12 NOON.", "nsi_id": "unitedstatespostalservice-a77078", "operator": "United States Postal Service", "operator:short": "USPS", "operator:type": "public", "operator:wikidata": "Q668687", "ref": "3426700002"}, "type": "Feature"}
{"geometry": {"coordinates": [-81.8843220369, 27.1598109962], "type": "Point"}, "id": "wgHs1mlJPXucBVfY4xhtWs5coBs=", "properties": {"@source_uri": "https://tools.usps.com/UspsToolsRestServices/rest/POLocator/findLocations", "@spider": "usps_collection_boxes", "addr:city": "NOCATEE", "addr:country": "US", "addr:postcode": "34268", "addr:state": "FL", "addr:street_address": "2509 SW COUNTY ROAD 760", "amenity": "post_box", "collection_times": "Mo-Fr 15:45; Sa 09:00", "note": "ON 12/24 AND 12/31, THIS BOX MAY BE COLLECTED AS EARLY AS 12 NOON.", "nsi_id": "unitedstatespostalservice-a77078", "operator": "United States Postal Service", "operator:short": "USPS", "operator:type": "public", "operator:wikidata": "Q668687", "ref": "3426800000"}, "type": "Feature"}
{"geometry": {"coordinates": [-81.8843220369, 27.1598109962], "type": "Point"}, "id": "EHTMI_kx6td4vBext4fxrye4pww=", "properties": {"@source_uri": "https://tools.usps.com/UspsToolsRestServices/rest/POLocator/findLocations", "@spider": "usps_collection_boxes", "addr:city": "NOCATEE", "addr:country": "US", "addr:postcode": "34268", "addr:state": "FL", "addr:street_address": "2509 SW COUNTY ROAD 760", "amenity": "post_box", "collection_times": "Mo-Fr 16:00", "indoor": "yes", "note": "ON 12/24 AND 12/31, THIS BOX MAY BE COLLECTED AS EARLY AS 12 NOON.", "nsi_id": "unitedstatespostalservice-a77078", "operator": "United States Postal Service", "operator:short": "USPS", "operator:type": "public", "operator:wikidata": "Q668687", "ref": "3426800002"}, "type": "Feature"}
{"geometry": {"coordinates": [-82.5372501857, 27.4036273216], "type": "Point"}, "id": "A0sH41S5OSZx9xBh9rhZJ_hDn7k=", "properties": {"@source_uri": "https://tools.usps.com/UspsToolsRestServices/rest/POLocator/findLocations", "@spider": "usps_collection_boxes", "addr:city": "TALLEVAST", "addr:country": "US", "addr:postcode": "34270", "addr:state": "FL", "addr:street_address": "2205 TALLEVAST RD", "amenity": "post_box", "collection_times": "Mo-Fr 16:30", "indoor": "yes", "note": "ON 12/24 AND 12/31, THIS BOX MAY BE COLLECTED AS EARLY AS 12 NOON.", "nsi_id": "unitedstatespostalservice-a77078", "operator": "United States Postal Service", "operator:short": "USPS", "operator:type": "public", "operator:wikidata": "Q668687", "ref": "3427000002"}, "type": "Feature"}
{"geometry": {"coordinates": [-82.4532583833, 27.1381587801], "type": "Point"}, "id": "919pKbmb6t5F79iCmL8XEnYrIBU=", "properties": {"@source_uri": "https://tools.usps.com/UspsToolsRestServices/rest/POLocator/findLocations", "@spider": "usps_collection_boxes", "addr:city": "LAUREL", "addr:country": "US", "addr:postcode": "34272", "addr:state": "FL", "addr:street_address": "302 LAUREL RD E", "amenity": "post_box", "collection_times": "Mo-Fr 16:45; Sa 12:15", "note": "ON 12/24 AND 12/31, THIS BOX MAY BE COLLECTED AS EARLY AS 12 NOON.", "nsi_id": "unitedstatespostalservice-a77078", "operator": "United States Postal Service", "operator:short": "USPS", "operator:type": "public", "operator:wikidata": "Q668687", "ref": "3427200001"}, "type": "Feature"}
{"geometry": {"coordinates": [-82.4532583833, 27.1381587801], "type": "Point"}, "id": "l_QF4XlDZd5EHF7oVQFQm1h5sCQ=", "properties": {"@source_uri": "https://tools.usps.com/UspsToolsRestServices/rest/POLocator/findLocations", "@spider": "usps_collection_boxes", "addr:city": "LAUREL", "addr:country": "US", "addr:postcode": "34272", "addr:state": "FL", "addr:street_address": "302 LAUREL RD E", "amenity": "post_box", "collection_times": "Mo-Fr 16:00; Sa 12:00", "indoor": "yes", "note": "ON 12/24 AND 12/31, THIS BOX MAY BE COLLECTED AS EARLY AS 12 NOON.", "nsi_id": "unitedstatespostalservice-a77078", "operator": "United States Postal Service", "operator:short": "USPS", "operator:type": "public", "operator:wikidata": "Q668687", "ref": "3427200003"}, "type": "Feature"}
{"geometry": {"coordinates": [-82.4609469063, 27.1382909756], "type": "Point"}, "id": "kBq_T9EFEPEbNUCY-IjT4V3jWRI=", "properties": {"@source_uri": "https://tools.usps.com/UspsToolsRestServices/rest/POLocator/findLocations", "@spider": "usps_collection_boxes", "addr:city": "NOKOMIS", "addr:country": "US", "addr:postcode": "34275", "addr:state": "FL", "addr:street_address": "303 LAUREL RD W", "amenity": "post_box", "collection_times": "Mo-Fr 16:45; Sa 13:00", "note": "ON 12/24 AND 12/31, THIS BOX MAY BE COLLECTED AS EARLY AS 12 NOON.", "nsi_id": "unitedstatespostalservice-a77078", "operator": "United States Postal Service", "operator:short": "USPS", "operator:type": "public", "operator:wikidata": "Q668687", "ref": "3427500003"}, "type": "Feature"}
{"geometry": {"coordinates": [-82.4609469063, 27.1382909756], "type": "Point"}, "id": "hlOUy5Xyin8UWmk4h7p_Tcf_tDY=", "properties": {"@source_uri": "https://tools.usps.com/UspsToolsRestServices/rest/POLocator/findLocations", "@spider": "usps_collection_boxes", "addr:city": "NOKOMIS", "addr:country": "US", "addr:postcode": "34275", "addr:state": "FL", "addr:street_address": "303 LAUREL RD W", "amenity": "post_box", "collection_times": "Mo-Fr 16:45; Sa 13:00", "indoor": "yes", "note": "ON 12/24 AND 12/31, THIS BOX MAY BE COLLECTED AS EARLY AS 12 NOON.", "nsi_id": "unitedstatespostalservice-a77078", "operator": "United States Postal Service", "operator:short": "USPS", "operator:type": "public", "operator:wikidata": "Q668687", "ref": "3427500008"}, "type": "Feature"}
{"geometry": {"coordinates": [-82.4609469063, 27.1382909756], "type": "Point"}, "id": "DSjuOeR8qiv5jwZKMWdeFrE7yxQ=", "properties": {"@source_uri": "https://tools.usps.com/UspsToolsRestServices/rest/POLocator/findLocations", "@spider": "usps_collection_boxes", "addr:city": "NOKOMIS", "addr:country": "US", "addr:postcode": "34275", "addr:state": "FL", "addr:street_address": "303 LAUREL RD W", "amenity": "post_box", "collection_times": "Mo-Fr 16:00", "indoor": "yes", "note": "ON 12/24 AND 12/31, THIS BOX MAY BE COLLECTED AS EARLY AS 12 NOON.", "nsi_id": "unitedstatespostalservice-a77078", "operator": "United States Postal Service", "operator:short": "USPS", "operator:type": "public", "operator:wikidata": "Q668687", "ref": "3427500012"}, "type": "Feature"}
{"geometry": {"coordinates": [-82.4402175823, 27.0907237174], "type": "Point"}, "id": "bjEV7vurSJ2pZ3i29iTeu6wCcog=", "properties": {"@source_uri": "https://tools.usps.com/UspsToolsRestServices/rest/POLocator/findLocations", "@spider": "usps_collection_boxes", "addr:city": "VENICE", "addr:country": "US", "addr:postcode": "34285", "addr:state": "FL", "addr:street_address": "609 S WATERWAY", "amenity": "post_box", "collection_times": "Mo-Sa 11:00", "nsi_id": "unitedstatespostalservice-a77078", "operator": "United States Postal Service", "operator:short": "USPS", "operator:type": "public", "operator:wikidata": "Q668687", "ref": "3428500006"}, "type": "Feature"}
{"geometry": {"coordinates": [-82.4505043414, 27.0991315074], "type": "Point"}, "id": "1fUmuYWixQV9PRTlJQRQSEFYLqA=", "properties": {"@source_uri": "https://tools.usps.com/UspsToolsRestServices/rest/POLocator/findLocations", "@spider": "usps_collection_boxes", "addr:city": "VENICE", "addr:country": "US", "addr:postcode": "34285", "addr:state": "FL", "addr:street_address": "100 HARBOR DR S", "amenity": "post_box", "collection_times": "Mo-Fr 17:00; Sa 16:45", "note": "ON 12/24 AND 12/31, THIS BOX MAY BE COLLECTED AS EARLY AS 12 NOON.", "nsi_id": "unitedstatespostalservice-a77078", "operator": "United States Postal Service", "operator:short": "USPS", "operator:type": "public", "operator:wikidata": "Q668687", "ref": "3428500010"}, "type": "Feature"}
{"geometry": {"coordinates": [-82.4439113878, 27.0876338832], "type": "Point"}, "id": "fAtmDWq-NqqM7TH9c4yaWwSdUxs=", "properties": {"@source_uri": "https://tools.usps.com/UspsToolsRestServices/rest/POLocator/findLocations", "@spider": "usps_collection_boxes", "addr:city": "VENICE", "addr:country": "US", "addr:postcode": "34285", "addr:state": "FL", "addr:street_address": "650 TAMIAMI TRL S", "amenity": "post_box", "collection_times": "Mo-Sa 10:00", "nsi_id": "unitedstatespostalservice-a77078", "operator": "United States Postal Service", "operator:short": "USPS", "operator:type": "public", "operator:wikidata": "Q668687", "ref": "3428500015"}, "type": "Feature"}
{"geometry": {"coordinates": [-82.4408258416, 27.0845847563], "type": "Point"}, "id": "ZCSxuKQrK3OKC25bztnFAdtCDAs=", "properties": {"@source_uri": "https://tools.usps.com/UspsToolsRestServices/rest/POLocator/findLocations", "@spider": "usps_collection_boxes", "addr:city": "VENICE", "addr:country": "US", "addr:postcode": "34285", "addr:state": "FL", "addr:street_address": "780 TAMIAMI TRL S", "amenity": "post_box", "collection_times": "Mo-Sa 10:00", "nsi_id": "unitedstatespostalservice-a77078", "operator": "United States Postal Service", "operator:short": "USPS", "operator:type": "public", "operator:wikidata": "Q668687", "ref": "3428500022"}, "type": "Feature"}
{"geometry": {"coordinates": [-82.4365600396, 27.0950259674], "type": "Point"}, "id": "QzevPD_Dl9eoHiqMMO9U38tsLtE=", "properties": {"@source_uri": "https://tools.usps.com/UspsToolsRestServices/rest/POLocator/findLocations", "@spider": "usps_collection_boxes", "addr:city": "VENICE", "addr:country": "US", "addr:postcode": "34285", "addr:state": "FL", "addr:street_address": "314 SEABOARD AVE", "amenity": "post_box", "collection_times": "Mo-Sa 16:45", "note": "ON 12/24 AND 12/31, THIS BOX MAY BE COLLECTED AS EARLY AS 12 NOON.", "nsi_id": "unitedstatespostalservice-a77078", "operator": "United States Postal Service", "operator:short": "USPS", "operator:type": "public", "operator:wikidata": "Q668687", "ref": "3428500023"}, "type": "Feature"}
{"geometry": {"coordinates": [-82.4426063255, 27.0927699362], "type": "Point"}, "id": "ajoaxQxkw3kM_isXYWsvjz0eYQA=", "properties": {"@source_uri": "https://tools.usps.com/UspsToolsRestServices/rest/POLocator/findLocations", "@spider": "usps_collection_boxes", "addr:city": "VENICE", "addr:country": "US", "addr:postcode": "34285", "addr:state": "FL", "addr:street_address": "515 TAMIAMI TRL S", "amenity": "post_box", "collection_times": "Mo-Sa 11:00", "nsi_id": "unitedstatespostalservice-a77078", "operator": "United States Postal Service", "operator:short": "USPS", "operator:type": "public", "operator:wikidata": "Q668687", "ref": "3428500030"}, "type": "Feature"}
{"geometry": {"coordinates": [-82.4434822343, 27.0947827246], "type": "Point"}, "id": "XxOEurNL6yn-f34TKPLAGGCVP5A=", "properties": {"@source_uri": "https://tools.usps.com/UspsToolsRestServices/rest/POLocator/findLocations", "@spider": "usps_collection_boxes", "addr:city": "VENICE", "addr:country": "US", "addr:postcode": "34285", "addr:state": "FL", "addr:street_address": "333 TAMIAMI TRL S", "amenity": "post_box", "collection_times": "Mo-Sa 11:00", "nsi_id": "unitedstatespostalservice-a77078", "operator": "United States Postal Service", "operator:short": "USPS", "operator:type": "public", "operator:wikidata": "Q668687", "ref": "3428500031"}, "type": "Feature"}
{"geometry": {"coordinates": [-82.4454840005, 27.1121433224], "type": "Point"}, "id": "G8bTf8i24DVS0KMx_EUqcEyIa1E=", "properties": {"@source_uri": "https://tools.usps.com/UspsToolsRestServices/rest/POLocator/findLocations", "@spider": "usps_collection_boxes", "addr:city": "VENICE", "addr:country": "US", "addr:postcode": "34285", "addr:state": "FL", "addr:street_address": "901 VENETIA BAY BLVD", "amenity": "post_box", "collection_times": "Mo-Sa 11:00", "nsi_id": "unitedstatespostalservice-a77078", "operator": "United States Postal Service", "operator:short": "USPS", "operator:type": "public", "operator:wikidata": "Q668687", "ref": "3428500045"}, "type": "Feature"}
{"geometry": {"coordinates": [-82.43089, 27.09985], "type": "Point"}, "id": "9bFHXFAgl5DUcAwWfR33PIA0Tes=", "properties": {"@source_uri": "https://tools.usps.com/UspsToolsRestServices/rest/POLocator/findLocations", "@spider": "usps_collection_boxes", "addr:city": "VENICE", "addr:country": "US", "addr:postcode": "34285", "addr:state": "FL", "addr:street_address": "231 NOKOMIS AVE S", "amenity": "post_box", "collection_times": "Mo-Sa 11:00", "nsi_id": "unitedstatespostalservice-a77078", "operator": "United States Postal Service", "operator:short": "USPS", "operator:type": "public", "operator:wikidata": "Q668687", "ref": "3428500047"}, "type": "Feature"}
{"geometry": {"coordinates": [-82.431225, 27.09985], "type": "Point"}, "id": "IUaOq3Y8luiQ8XST2Ov7dP5mElk=", "properties": {"@source_uri": "https://tools.usps.com/UspsToolsRestServices/rest/POLocator/findLocations", "@spider": "usps_collection_boxes", "addr:city": "VENICE", "addr:country": "US", "addr:postcode": "34285", "addr:state": "FL", "addr:street_address": "450 VENICE BYP N", "amenity": "post_box", "collection_times": "Mo-Sa 11:00", "nsi_id": "unitedstatespostalservice-a77078", "operator": "United States Postal Service", "operator:short": "USPS", "operator:type": "public", "operator:wikidata": "Q668687", "ref": "3428500048"}, "type": "Feature"}
{"geometry": {"coordinates": [-82.4173542386, 27.10043504], "type": "Point"}, "id": "f7GbEl_g1j9Bg0aq5Nf1KkRfRsY=", "properties": {"@source_uri": "https://tools.usps.com/UspsToolsRestServices/rest/POLocator/findLocations", "@spider": "usps_collection_boxes", "addr:city": "VENICE", "addr:country": "US", "addr:postcode": "34285", "addr:state": "FL", "addr:street_address": "800 PINEBROOK RD", "amenity": "post_box", "collection_times": "Mo-Sa 15:00", "note": "ON 12/24 AND 12/31, THIS BOX MAY BE COLLECTED AS EARLY AS 12 NOON.", "nsi_id": "unitedstatespostalservice-a77078", "operator": "United States Postal Service", "operator:short": "USPS", "operator:type": "public", "operator:wikidata": "Q668687", "ref": "3428500052"}, "type": "Feature"}
{"geometry": {"coordinates": [-82.4279711872, 27.0779701774], "type": "Point"}, "id": "yW6zojoVRouIBRgPFlSIb3aqNB8=", "properties": {"@source_uri": "https://tools.usps.com/UspsToolsRestServices/rest/POLocator/findLocations", "@spider": "usps_collection_boxes", "addr:city": "VENICE", "addr:country": "US", "addr:postcode": "34285", "addr:state": "FL", "addr:street_address": "1515 TAMIAMI TRL S", "amenity": "post_box", "collection_times": "Mo-Sa 13:00", "note": "ON 12/24 AND 12/31, THIS BOX MAY BE COLLECTED AS EARLY AS 12 NOON.", "nsi_id": "unitedstatespostalservice-a77078", "operator": "United States Postal Service", "operator:short": "USPS", "operator:type": "public", "operator:wikidata": "Q668687", "ref": "3428500053"}, "type": "Feature"}
{"geometry": {"coordinates": [-82.4493366584, 27.1002611365], "type": "Point"}, "id": "WfugEaqJc49UHFQkZWOUnYOB00M=", "properties": {"@source_uri": "https://tools.usps.com/UspsToolsRestServices/rest/POLocator/findLocations", "@spider": "usps_collection_boxes", "addr:city": "VENICE", "addr:country": "US", "addr:postcode": "34285", "addr:state": "FL", "addr:street_address": "350 W VENICE AVE", "amenity": "post_box", "collection_times": "Mo-Sa 17:00", "name": "USPS COLLECTION BOX - APC", "note": "ON 12/24 AND 12/31, THIS BOX MAY BE COLLECTED AS EARLY AS 12 NOON.", "nsi_id": "unitedstatespostalservice-a77078", "operator": "United States Postal Service", "operator:short": "USPS", "operator:type": "public", "operator:wikidata": "Q668687", "ref": "3428500055"}, "type": "Feature"}
{"geometry": {"coordinates": [-82.4505043414, 27.0991315074], "type": "Point"}, "id": "WSZdhRGRMAXhsowmbvoIOiBMMKk=", "properties": {"@source_uri": "https://tools.usps.com/UspsToolsRestServices/rest/POLocator/findLocations", "@spider": "usps_collection_boxes", "addr:city": "VENICE", "addr:country": "US", "addr:postcode": "34285", "addr:state": "FL", "addr:street_address": "100 HARBOR DR S", "amenity": "post_box", "collection_times": "Mo-Fr 17:00; Sa 16:45", "note": "ON 12/24 AND 12/31, THIS BOX MAY BE COLLECTED AS EARLY AS 12 NOON.", "nsi_id": "unitedstatespostalservice-a77078", "operator": "United States Postal Service", "operator:short": "USPS", "operator:type": "public", "operator:wikidata": "Q668687", "ref": "3428500056"}, "type": "Feature"}
{"geometry": {"coordinates": [-82.4493366584, 27.1002611365], "type": "Point"}, "id": "P74tk4m9Gf7bBgfhPtkHs9Nyw14=", "properties": {"@source_uri": "https://tools.usps.com/UspsToolsRestServices/rest/POLocator/findLocations", "@spider": "usps_collection_boxes", "addr:city": "VENICE", "addr:country": "US", "addr:postcode": "34285", "addr:state": "FL", "addr:street_address": "350 W VENICE AVE", "amenity": "post_box", "collection_times": "Mo-Fr 17:30", "indoor": "yes", "note": "ON 12/24 AND 12/31, THIS BOX MAY BE COLLECTED AS EARLY AS 12 NOON.", "nsi_id": "unitedstatespostalservice-a77078", "operator": "United States Postal Service", "operator:short": "USPS", "operator:type": "public", "operator:wikidata": "Q668687", "ref": "3428500057"}, "type": "Feature"}
{"geometry": {"coordinates": [-82.2073803666, 27.0747384089], "type": "Point"}, "id": "ZOZ8GyPIakIonIuNJdGQ_uJTYdQ=", "properties": {"@source_uri": "https://tools.usps.com/UspsToolsRestServices/rest/POLocator/findLocations", "@spider": "usps_collection_boxes", "addr:city": "VENICE", "addr:country": "US", "addr:postcode": "34286", "addr:state": "FL", "addr:street_address": "4975 CITY HALL BLVD", "amenity": "post_box", "collection_times": "Mo-Fr 16:30; Sa 12:00", "note": "ON 12/24 AND 12/31, THIS BOX MAY BE COLLECTED AS EARLY AS 12 NOON.", "nsi_id": "unitedstatespostalservice-a77078", "operator": "United States Postal Service", "operator:short": "USPS", "operator:type": "public", "operator:wikidata": "Q668687", "ref": "3428600001"}, "type": "Feature"}
{"geometry": {"coordinates": [-82.2073803666, 27.0747384089], "type": "Point"}, "id": "OMt3FbE4h_XantV5WA8q3rz0Hlk=", "properties": {"@source_uri": "https://tools.usps.com/UspsToolsRestServices/rest/POLocator/findLocations", "@spider": "usps_collection_boxes", "addr:city": "VENICE", "addr:country": "US", "addr:postcode": "34286", "addr:state": "FL", "addr:street_address": "4975 CITY HALL BLVD", "amenity": "post_box", "collection_times": "Mo-Fr 16:30; Sa 12:00", "name": "USPS COLLECTION BOX - APC", "note": "ON 12/24 AND 12/31, THIS BOX MAY BE COLLECTED AS EARLY AS 12 NOON.", "nsi_id": "unitedstatespostalservice-a77078", "operator": "United States Postal Service", "operator:short": "USPS", "operator:type": "public", "operator:wikidata": "Q668687", "ref": "3428600004"}, "type": "Feature"}
{"geometry": {"coordinates": [-82.2073803666, 27.0747384089], "type": "Point"}, "id": "A9K8bMhiAnmil31ahnfJNufvNCE=", "properties": {"@source_uri": "https://tools.usps.com/UspsToolsRestServices/rest/POLocator/findLocations", "@spider": "usps_collection_boxes", "addr:city": "VENICE", "addr:country": "US", "addr:postcode": "34286", "addr:state": "FL", "addr:street_address": "4975 CITY HALL BLVD", "amenity": "post_box", "collection_times": "Mo-Fr 16:00; Sa 12:00", "indoor": "yes", "note": "ON 12/24 AND 12/31, THIS BOX MAY BE COLLECTED AS EARLY AS 12 NOON.", "nsi_id": "unitedstatespostalservice-a77078", "operator": "United States Postal Service", "operator:short": "USPS", "operator:type": "public", "operator:wikidata": "Q668687", "ref": "3428600005"}, "type": "Feature"}
{"geometry": {"coordinates": [-82.230916, 27.053462], "type": "Point"}, "id": "0yEjv7l2kz7CwZNRHv2kdXCDIec=", "properties": {"@source_uri": "https://tools.usps.com/UspsToolsRestServices/rest/POLocator/findLocations", "@spider": "usps_collection_boxes", "addr:city": "NORTH PORT", "addr:country": "US", "addr:postcode": "34287", "addr:state": "FL", "addr:street_address": "13750 TAMIAMI TRL", "amenity": "post_box", "collection_times": "Mo-Sa 15:00", "note": "ON 12/24 AND 12/31, THIS BOX MAY BE COLLECTED AS EARLY AS 12 NOON.", "nsi_id": "unitedstatespostalservice-a77078", "operator": "United States Postal Service", "operator:short": "USPS", "operator:type": "public", "operator:wikidata": "Q668687", "ref": "3428700001"}, "type": "Feature"}
{"geometry": {"coordinates": [-82.252895, 27.052265], "type": "Point"}, "id": "fAdwwVfaaJZBltJRUXv7B2cLlgc=", "properties": {"@source_uri": "https://tools.usps.com/UspsToolsRestServices/rest/POLocator/findLocations", "@spider": "usps_collection_boxes", "addr:city": "NORTH PORT", "addr:country": "US", "addr:postcode": "34287", "addr:state": "FL", "addr:street_address": "17179 TAMIAMI TRL", "amenity": "post_box", "collection_times": "Mo-Sa 13:00", "note": "ON 12/24 AND 12/31, THIS BOX MAY BE COLLECTED AS EARLY AS 12 NOON.", "nsi_id": "unitedstatespostalservice-a77078", "operator": "United States Postal Service", "operator:short": "USPS", "operator:type": "public", "operator:wikidata": "Q668687", "ref": "3428700002"}, "type": "Feature"}
{"geometry": {"coordinates": [-82.2502241294, 27.04665962], "type": "Point"}, "id": "GJhfS-sV1LZbC9eSXmM9oofnJJ4=", "properties": {"@source_uri": "https://tools.usps.com/UspsToolsRestServices/rest/POLocator/findLocations", "@spider": "usps_collection_boxes", "addr:city": "NORTH PORT", "addr:country": "US", "addr:postcode": "34287", "addr:state": "FL", "addr:street_address": "13611 TAMIAMI TRL", "amenity": "post_box", "collection_times": "Mo-Fr 17:00; Sa 15:00", "note": "ON 12/24 AND 12/31, THIS BOX MAY BE COLLECTED AS EARLY AS 12 NOON.", "nsi_id": "unitedstatespostalservice-a77078", "operator": "United States Postal Service", "operator:short": "USPS", "operator:type": "public", "operator:wikidata": "Q668687", "ref": "3428700007"}, "type": "Feature"}
{"geometry": {"coordinates": [-82.252895, 27.052265], "type": "Point"}, "id": "T6z8qv7f7MbtMndpcI1eOW_VTdE=", "properties": {"@source_uri": "https://tools.usps.com/UspsToolsRestServices/rest/POLocator/findLocations", "@spider": "usps_collection_boxes", "addr:city": "NORTH PORT", "addr:country": "US", "addr:postcode": "34287", "addr:state": "FL", "addr:street_address": "1251 S TOLEDO BLADE BLVD", "amenity": "post_box", "collection_times": "Mo-Sa 13:00", "note": "ON 12/24 AND 12/31, THIS BOX MAY BE COLLECTED AS EARLY AS 12 NOON.", "nsi_id": "unitedstatespostalservice-a77078", "operator": "United States Postal Service", "operator:short": "USPS", "operator:type": "public", "operator:wikidata": "Q668687", "ref": "3428700009"}, "type": "Feature"}
{"geometry": {"coordinates": [-82.406235, 27.10077], "type": "Point"}, "id": "pmbAOY37_6736PHfQthRNvp7Sn8=", "properties": {"@source_uri": "https://tools.usps.com/UspsToolsRestServices/rest/POLocator/findLocations", "@spider": "usps_collection_boxes", "addr:city": "VENICE", "addr:country": "US", "addr:postcode": "34292", "addr:state": "FL", "addr:street_address": "1276 JACARANDA BLVD", "amenity": "post_box", "collection_times": "Mo-Fr 14:00; Sa 13:00", "note": "ON 12/24 AND 12/31, THIS BOX MAY BE COLLECTED AS EARLY AS 12 NOON.", "nsi_id": "unitedstatespostalservice-a77078", "operator": "United States Postal Service", "operator:short": "USPS", "operator:type": "public", "operator:wikidata": "Q668687", "ref": "3429200013"}, "type": "Feature"}
{"geometry": {"coordinates": [-82.409375, 27.04791], "type": "Point"}, "id": "udRVip5WhkYzNnA_8dXMoZyHVdE=", "properties": {"@source_uri": "https://tools.usps.com/UspsToolsRestServices/rest/POLocator/findLocations", "@spider": "usps_collection_boxes", "addr:city": "VENICE", "addr:country": "US", "addr:postcode": "34293", "addr:state": "FL", "addr:street_address": "742 SHAMROCK BLVD", "amenity": "post_box", "collection_times": "Mo-Sa 13:30", "note": "ON 12/24 AND 12/31, THIS BOX MAY BE COLLECTED AS EARLY AS 12 NOON.", "nsi_id": "unitedstatespostalservice-a77078", "operator": "United States Postal Service", "operator:short": "USPS", "operator:type": "public", "operator:wikidata": "Q668687", "ref": "3429300000"}, "type": "Feature"}
{"geometry": {"coordinates": [-82.4259304453, 27.0786395981], "type": "Point"}, "id": "AETwTMFfUaigMl8tRxjOWulP48I=", "properties": {"@source_uri": "https://tools.usps.com/UspsToolsRestServices/rest/POLocator/findLocations", "@spider": "usps_collection_boxes", "addr:city": "VENICE", "addr:country": "US", "addr:postcode": "34293", "addr:state": "FL", "addr:street_address": "1532 US HIGHWAY 41 BYP S", "amenity": "post_box", "collection_times": "Mo-Fr 14:00; Sa 13:00", "note": "ON 12/24 AND 12/31, THIS BOX MAY BE COLLECTED AS EARLY AS 12 NOON.", "nsi_id": "unitedstatespostalservice-a77078", "operator": "United States Postal Service", "operator:short": "USPS", "operator:type": "public", "operator:wikidata": "Q668687", "ref": "3429300003"}, "type": "Feature"}
{"geometry": {"coordinates": [-82.4113272421, 27.0568243121], "type": "Point"}, "id": "dCY4jUNYyiQqtVXDf1Qik_k2XrY=", "properties": {"@source_uri": "https://tools.usps.com/UspsToolsRestServices/rest/POLocator/findLocations", "@spider": "usps_collection_boxes", "addr:city": "VENICE", "addr:country": "US", "addr:postcode": "34293", "addr:state": "FL", "addr:street_address": "2065 TAMIAMI TRL S", "amenity": "post_box", "collection_times": "Mo-Fr 15:00; Sa 13:00", "note": "ON 12/24 AND 12/31, THIS BOX MAY BE COLLECTED AS EARLY AS 12 NOON.", "nsi_id": "unitedstatespostalservice-a77078", "operator": "United States Postal Service", "operator:short": "USPS", "operator:type": "public", "operator:wikidata": "Q668687", "ref": "3429300004"}, "type": "Feature"}
{"geometry": {"coordinates": [-82.3816231, 27.0564704], "type": "Point"}, "id": "sXBvfdbWz41T3FMOyY3EzfQAzOU=", "properties": {"@source_uri": "https://tools.usps.com/UspsToolsRestServices/rest/POLocator/findLocations", "@spider": "usps_collection_boxes", "addr:city": "VENICE", "addr:country": "US", "addr:postcode": "34293", "addr:state": "FL", "addr:street_address": "4150 TAMIAMI TRL S", "amenity": "post_box", "collection_times": "Mo-Sa 15:00", "note": "ON 12/24 AND 12/31, THIS BOX MAY BE COLLECTED AS EARLY AS 12 NOON.", "nsi_id": "unitedstatespostalservice-a77078", "operator": "United States Postal Service", "operator:short": "USPS", "operator:type": "public", "operator:wikidata": "Q668687", "ref": "3429300005"}, "type": "Feature"}
{"geometry": {"coordinates": [-82.4062641535, 27.0506260204], "type": "Point"}, "id": "ys06KUlBuHAO1BkiOfIk71hrcEw=", "properties": {"@source_uri": "https://tools.usps.com/UspsToolsRestServices/rest/POLocator/findLocations", "@spider": "usps_collection_boxes", "addr:city": "VENICE", "addr:country": "US", "addr:postcode": "34293", "addr:state": "FL", "addr:street_address": "2357 TAMIAMI TRL S", "amenity": "post_box", "collection_times": "Mo-Fr 15:00; Sa 13:00", "note": "ON 12/24 AND 12/31, THIS BOX MAY BE COLLECTED AS EARLY AS 12 NOON.", "nsi_id": "unitedstatespostalservice-a77078", "operator": "United States Postal Service", "operator:short": "USPS", "operator:type": "public", "operator:wikidata": "Q668687", "ref": "3429300007"}, "type": "Feature"}
{"geometry": {"coordinates": [-82.3950423777, 27.0512487539], "type": "Point"}, "id": "qrfyVuw4u7ibBtfEdw2Qkng4G8k=", "properties": {"@source_uri": "https://tools.usps.com/UspsToolsRestServices/rest/POLocator/findLocations", "@spider": "usps_collection_boxes", "addr:city": "VENICE", "addr:country": "US", "addr:postcode": "34293", "addr:state": "FL", "addr:street_address": "4145 TAMIAMI TRL S", "amenity": "post_box", "collection_times": "Mo-Sa 15:00", "note": "ON 12/24 AND 12/31, THIS BOX MAY BE COLLECTED AS EARLY AS 12 NOON.", "nsi_id": "unitedstatespostalservice-a77078", "operator": "United States Postal Service", "operator:short": "USPS", "operator:type": "public", "operator:wikidata": "Q668687", "ref": "3429300008"}, "type": "Feature"}
{"geometry": {"coordinates": [-82.4249786975, 27.0754034737], "type": "Point"}, "id": "MuQJh1CoREt3iCnj71DT3ml12z0=", "properties": {"@source_uri": "https://tools.usps.com/UspsToolsRestServices/rest/POLocator/findLocations", "@spider": "usps_collection_boxes", "addr:city": "VENICE", "addr:country": "US", "addr:postcode": "34293", "addr:state": "FL", "addr:street_address": "1649 US HIGHWAY 41 BYP S", "amenity": "post_box", "collection_times": "Mo-Sa 14:00", "note": "ON 12/24 AND 12/31, THIS BOX MAY BE COLLECTED AS EARLY AS 12 NOON.", "nsi_id": "unitedstatespostalservice-a77078", "operator": "United States Postal Service", "operator:short": "USPS", "operator:type": "public", "operator:wikidata": "Q668687", "ref": "3429300009"}, "type": "Feature"}
