{"geometry": {"coordinates": [-82.6593898, 29.007370707], "type": "Point"}, "id": "FQkhaTZIPtwSEAx3maCkGBAhk7E=", "properties": {"@spider": "usps_collection_boxes", "addr:city": "CRYSTAL RIVER", "addr:country": "US", "addr:full": "10173 N SUNCOAST BLVD", "addr:postcode": "34428", "addr:state": "FL", "brand": "USPS", "collection_times": "Mo-Fr 13:00; Sa 12:00", "name": "USPS COLLECTION BOX - BLUE BOX", "note": "ON 12/24 AND 12/31, THIS BOX MAY BE COLLECTED AS EARLY AS 12 NOON.", "ref": "3442800001"}, "type": "Feature"}
{"geometry": {"coordinates": [-82.587513868, 28.894919595], "type": "Point"}, "id": "rrmBvcGtskoI5Vzt_dCkHCo3u7g=", "properties": {"@spider": "usps_collection_boxes", "addr:city": "CRYSTAL RIVER", "addr:country": "US", "addr:full": "18 NE 4TH AVE", "addr:postcode": "34429", "addr:state": "FL", "brand": "USPS", "collection_times": "Mo-Fr 17:00; Sa 16:45", "name": "USPS COLLECTION BOX - PO LOBBY", "note": "ON 12/24 AND 12/31, THIS BOX MAY BE COLLECTED AS EARLY AS 12 NOON.", "ref": "3442900001"}, "type": "Feature"}
{"geometry": {"coordinates": [-82.587513868, 28.894919595], "type": "Point"}, "id": "0pp7m6GyaYWQKq0q1_S8o7LfK48=", "properties": {"@spider": "usps_collection_boxes", "addr:city": "CRYSTAL RIVER", "addr:country": "US", "addr:full": "18 NE 4TH AVE", "addr:postcode": "34429", "addr:state": "FL", "brand": "USPS", "collection_times": "Mo-Fr 17:00; Sa 16:45", "name": "USPS COLLECTION BOX - BLUE BOX", "note": "ON 12/24 AND 12/31, THIS BOX MAY BE COLLECTED AS EARLY AS 12 NOON.", "ref": "3442900002"}, "type": "Feature"}
{"geometry": {"coordinates": [-82.562023133, 28.896680848], "type": "Point"}, "id": "r0iiB-QjgtbTbEKy-OPUt31S8lw=", "properties": {"@spider": "usps_collection_boxes", "addr:city": "CRYSTAL RIVER", "addr:country": "US", "addr:full": "7647 W GULF TO LAKE HWY", "addr:postcode": "34429", "addr:state": "FL", "brand": "USPS", "collection_times": "Mo-Sa 13:30", "name": "USPS COLLECTION BOX - BLUE BOX", "note": "ON 12/24 AND 12/31, THIS BOX MAY BE COLLECTED AS EARLY AS 12 NOON.", "ref": "3442900007"}, "type": "Feature"}
{"geometry": {"coordinates": [-82.54010698, 28.880595722], "type": "Point"}, "id": "TgW6yq0KMx1u6VSzEHuqamy9DpM=", "properties": {"@spider": "usps_collection_boxes", "addr:city": "CRYSTAL RIVER", "addr:country": "US", "addr:full": "1570 N MEADOWCREST BLVD", "addr:postcode": "34429", "addr:state": "FL", "brand": "USPS", "collection_times": "Mo-Sa 13:30", "name": "USPS COLLECTION BOX - BLUE BOX", "note": "ON 12/24 AND 12/31, THIS BOX MAY BE COLLECTED AS EARLY AS 12 NOON.", "ref": "3442900008"}, "type": "Feature"}
{"geometry": {"coordinates": [-82.535549973, 28.878921905], "type": "Point"}, "id": "wqjXUfBALOKqb7uzybc4AsMltBM=", "properties": {"@spider": "usps_collection_boxes", "addr:city": "CRYSTAL RIVER", "addr:country": "US", "addr:full": "6000 W CORPORATE OAKS DR", "addr:postcode": "34429", "addr:state": "FL", "brand": "USPS", "collection_times": "Mo-Sa 13:30", "name": "USPS COLLECTION BOX - BLUE BOX", "note": "ON 12/24 AND 12/31, THIS BOX MAY BE COLLECTED AS EARLY AS 12 NOON.", "ref": "3442900009"}, "type": "Feature"}
{"geometry": {"coordinates": [-82.551330291, 28.893290482], "type": "Point"}, "id": "LIntmk1yBdjw9TJYNNZDbYIfWKM=", "properties": {"@spider": "usps_collection_boxes", "addr:city": "CRYSTAL RIVER", "addr:country": "US", "addr:full": "7056 W GULF TO LAKE HWY", "addr:postcode": "34429", "addr:state": "FL", "brand": "USPS", "collection_times": "Mo-Sa 14:00", "name": "USPS COLLECTION BOX - BLUE BOX", "note": "ON 12/24 AND 12/31, THIS BOX MAY BE COLLECTED AS EARLY AS 12 NOON.", "ref": "3442900012"}, "type": "Feature"}
{"geometry": {"coordinates": [-82.56837426, 28.897705773], "type": "Point"}, "id": "N3SKR_a4iF-r94yurlXt92Ploqw=", "properties": {"@spider": "usps_collection_boxes", "addr:city": "CRYSTAL RIVER", "addr:country": "US", "addr:full": "8030 W GULF TO LAKE HWY", "addr:postcode": "34429", "addr:state": "FL", "brand": "USPS", "collection_times": "Mo-Sa 14:00", "name": "USPS COLLECTION BOX - BLUE BOX", "note": "ON 12/24 AND 12/31, THIS BOX MAY BE COLLECTED AS EARLY AS 12 NOON.", "ref": "3442900015"}, "type": "Feature"}
{"geometry": {"coordinates": [-82.585505769, 28.881061044], "type": "Point"}, "id": "Uv3tUfh1dD0nzMgFJsve0uqgEjE=", "properties": {"@spider": "usps_collection_boxes", "addr:city": "CRYSTAL RIVER", "addr:country": "US", "addr:full": "9030 W FORT ISLAND TRL", "addr:postcode": "34429", "addr:state": "FL", "brand": "USPS", "collection_times": "Mo-Sa 12:00", "name": "USPS COLLECTION BOX - BLUE BOX", "ref": "3442900016"}, "type": "Feature"}
{"geometry": {"coordinates": [-82.576300888, 28.898541485], "type": "Point"}, "id": "hBuMtOiMpNhKxTNTBX57FeyVZT0=", "properties": {"@spider": "usps_collection_boxes", "addr:city": "CRYSTAL RIVER", "addr:country": "US", "addr:full": "1020 NE 5TH ST", "addr:postcode": "34429", "addr:state": "FL", "brand": "USPS", "collection_times": "Mo-Sa 14:00", "name": "USPS COLLECTION BOX - BLUE BOX", "note": "ON 12/24 AND 12/31, THIS BOX MAY BE COLLECTED AS EARLY AS 12 NOON.", "ref": "3442900019"}, "type": "Feature"}
{"geometry": {"coordinates": [-82.580124387, 28.87522112], "type": "Point"}, "id": "aB1QrWfxRFMmKNfwvIDF79llKpo=", "properties": {"@spider": "usps_collection_boxes", "addr:city": "CRYSTAL RIVER", "addr:country": "US", "addr:full": "900 N SUNCOAST BLVD", "addr:postcode": "34429", "addr:state": "FL", "brand": "USPS", "collection_times": "Mo-Sa 14:00", "name": "USPS COLLECTION BOX - BLUE BOX", "note": "ON 12/24 AND 12/31, THIS BOX MAY BE COLLECTED AS EARLY AS 12 NOON.", "ref": "3442900020"}, "type": "Feature"}
{"geometry": {"coordinates": [-82.587513868, 28.894919595], "type": "Point"}, "id": "7mdAaZW6CzU3o0pIHerz5a7cGAo=", "properties": {"@spider": "usps_collection_boxes", "addr:city": "CRYSTAL RIVER", "addr:country": "US", "addr:full": "18 NE 4TH AVE", "addr:postcode": "34429", "addr:state": "FL", "brand": "USPS", "collection_times": "Mo-Fr 17:00; Sa 16:45", "name": "USPS COLLECTION BOX - PO LOBBY", "note": "ON 12/24 AND 12/31, THIS BOX MAY BE COLLECTED AS EARLY AS 12 NOON.", "ref": "3442900021"}, "type": "Feature"}
{"geometry": {"coordinates": [-82.5875138678, 28.8949195953], "type": "Point"}, "id": "owMrgxhTtsxEdZK8V5NkukZ1VJs=", "properties": {"@spider": "usps_collection_boxes", "addr:city": "CRYSTAL RIVER", "addr:country": "US", "addr:full": "18 NE 4TH AVE", "addr:postcode": "34429", "addr:state": "FL", "brand": "USPS", "collection_times": "Mo-Fr 17:00; Sa 16:45", "name": "USPS COLLECTION BOX - PO LOBBY", "note": "ON 12/24 AND 12/31, THIS BOX MAY BE COLLECTED AS EARLY AS 12 NOON.", "ref": "3442900026"}, "type": "Feature"}
{"geometry": {"coordinates": [-82.550077487, 28.743104994], "type": "Point"}, "id": "bgZ7mQweamQ1u1eh4aPUzqY-y68=", "properties": {"@spider": "usps_collection_boxes", "addr:city": "HOMOSASSA SPG", "addr:country": "US", "addr:full": "100 CYPRESS BLVD W", "addr:postcode": "34446", "addr:state": "FL", "brand": "USPS", "collection_times": "Mo-Sa 11:30", "name": "USPS COLLECTION BOX - BLUE BOX", "ref": "3444600001"}, "type": "Feature"}
{"geometry": {"coordinates": [-82.574401817, 28.795790592], "type": "Point"}, "id": "ugWKgOGIyfq4z1u23wIBphqZsFc=", "properties": {"@spider": "usps_collection_boxes", "addr:city": "HOMOSASSA SPG", "addr:country": "US", "addr:full": "4548 S SUNCOAST BLVD", "addr:postcode": "34446", "addr:state": "FL", "brand": "USPS", "collection_times": "Mo-Sa 12:00", "name": "USPS COLLECTION BOX - BLUE BOX", "ref": "3444600003"}, "type": "Feature"}
{"geometry": {"coordinates": [-82.560410944, 28.783694057], "type": "Point"}, "id": "i6B4L8kejpOJEUPrnV5W9DlZAPY=", "properties": {"@spider": "usps_collection_boxes", "addr:city": "HOMOSASSA SPG", "addr:country": "US", "addr:full": "5386 S SUNCOAST BLVD", "addr:postcode": "34446", "addr:state": "FL", "brand": "USPS", "collection_times": "Mo-Sa 10:00", "name": "USPS COLLECTION BOX - BLUE BOX", "ref": "3444600004"}, "type": "Feature"}
{"geometry": {"coordinates": [-82.573471021, 28.79503014], "type": "Point"}, "id": "I2D9RNyIx5Wxf6RyqCL-0esCcxc=", "properties": {"@spider": "usps_collection_boxes", "addr:city": "HOMOSASSA SPG", "addr:country": "US", "addr:full": "4610 S SUNCOAST BLVD", "addr:postcode": "34446", "addr:state": "FL", "brand": "USPS", "collection_times": "Mo-Fr 16:00; Sa 15:15", "name": "USPS COLLECTION BOX - PO LOBBY", "note": "ON 12/24 AND 12/31, THIS BOX MAY BE COLLECTED AS EARLY AS 12 NOON.", "ref": "3444600007"}, "type": "Feature"}
{"geometry": {"coordinates": [-82.573471021, 28.79503014], "type": "Point"}, "id": "dhFjgZGfOVesgIhpxPNFHn0iB_k=", "properties": {"@spider": "usps_collection_boxes", "addr:city": "HOMOSASSA SPG", "addr:country": "US", "addr:full": "4610 S SUNCOAST BLVD", "addr:postcode": "34446", "addr:state": "FL", "brand": "USPS", "collection_times": "Mo-Fr 16:15; Sa 15:15", "name": "USPS COLLECTION BOX - PO LOBBY", "note": "ON 12/24 AND 12/31, THIS BOX MAY BE COLLECTED AS EARLY AS 12 NOON.", "ref": "3444600008"}, "type": "Feature"}
{"geometry": {"coordinates": [-82.573471021, 28.79503014], "type": "Point"}, "id": "agrmj6ew3Kn02MsN5WJpE5gCsbM=", "properties": {"@spider": "usps_collection_boxes", "addr:city": "HOMOSASSA SPG", "addr:country": "US", "addr:full": "4610 S SUNCOAST BLVD", "addr:postcode": "34446", "addr:state": "FL", "brand": "USPS", "collection_times": "Mo-Fr 16:15; Sa 15:15", "name": "USPS COLLECTION BOX - BLUE BOX", "note": "ON 12/24 AND 12/31, THIS BOX MAY BE COLLECTED AS EARLY AS 12 NOON.", "ref": "3444600010"}, "type": "Feature"}
{"geometry": {"coordinates": [-82.573471021, 28.79503014], "type": "Point"}, "id": "zwguKkEeFLw5eenFrP6WV_28sMY=", "properties": {"@spider": "usps_collection_boxes", "addr:city": "HOMOSASSA SPG", "addr:country": "US", "addr:full": "4610 S SUNCOAST BLVD", "addr:postcode": "34446", "addr:state": "FL", "brand": "USPS", "collection_times": "Mo-Fr 16:00; Sa 11:00", "name": "USPS COLLECTION BOX - PO LOBBY", "note": "ON 12/24 AND 12/31, THIS BOX MAY BE COLLECTED AS EARLY AS 12 NOON.", "ref": "3444600011"}, "type": "Feature"}
{"geometry": {"coordinates": [-82.576484854, 28.807065723], "type": "Point"}, "id": "DKyTLIjUm9HnxNpEWv4_ogwNGzM=", "properties": {"@spider": "usps_collection_boxes", "addr:city": "HOMOSASSA SPG", "addr:country": "US", "addr:full": "3792 S SUNCOAST BLVD", "addr:postcode": "34448", "addr:state": "FL", "brand": "USPS", "collection_times": "Mo-Sa 12:00", "name": "USPS COLLECTION BOX - BLUE BOX", "ref": "3444800001"}, "type": "Feature"}
{"geometry": {"coordinates": [-82.670808733, 29.032537399], "type": "Point"}, "id": "MnX1iHjfzd5yhxijZAZuwdx2XX0=", "properties": {"@spider": "usps_collection_boxes", "addr:city": "INGLIS", "addr:country": "US", "addr:full": "70 N INGLIS AVE", "addr:postcode": "34449", "addr:state": "FL", "brand": "USPS", "collection_times": "Mo-Fr 15:45; Sa 12:00", "name": "USPS COLLECTION BOX - BLUE BOX", "note": "ON 12/24 AND 12/31, THIS BOX MAY BE COLLECTED AS EARLY AS 12 NOON.", "ref": "3444900000"}, "type": "Feature"}
{"geometry": {"coordinates": [-82.670808733, 29.032537399], "type": "Point"}, "id": "wnviiW7xT03RSF5aEF4bVoYT6K8=", "properties": {"@spider": "usps_collection_boxes", "addr:city": "INGLIS", "addr:country": "US", "addr:full": "70 N INGLIS AVE", "addr:postcode": "34449", "addr:state": "FL", "brand": "USPS", "collection_times": "Mo-Fr 15:45; Sa 12:00", "name": "USPS COLLECTION BOX - PO LOBBY", "note": "ON 12/24 AND 12/31, THIS BOX MAY BE COLLECTED AS EARLY AS 12 NOON.", "ref": "3444900001"}, "type": "Feature"}
{"geometry": {"coordinates": [-82.670808733, 29.032537399], "type": "Point"}, "id": "mZX_AnMoQwiuWSFxh_GctBJxZ5A=", "properties": {"@spider": "usps_collection_boxes", "addr:city": "INGLIS", "addr:country": "US", "addr:full": "70 N INGLIS AVE", "addr:postcode": "34449", "addr:state": "FL", "brand": "USPS", "collection_times": "Mo-Fr 15:45; Sa 12:00", "name": "USPS COLLECTION BOX - PO LOBBY", "note": "ON 12/24 AND 12/31, THIS BOX MAY BE COLLECTED AS EARLY AS 12 NOON.", "ref": "3444900003"}, "type": "Feature"}
{"geometry": {"coordinates": [-82.6127385509, 28.7822075684], "type": "Point"}, "id": "PbJryCC0N9qpnIa5cfc87F3PxYU=", "properties": {"@spider": "usps_collection_boxes", "addr:city": "HOMOSASSA", "addr:country": "US", "addr:full": "10780 W YULEE DR", "addr:postcode": "34487", "addr:state": "FL", "brand": "USPS", "collection_times": "Mo-Fr 15:30; Sa 11:45", "name": "USPS COLLECTION BOX - BLUE BOX", "note": "ON 12/24 AND 12/31, THIS BOX MAY BE COLLECTED AS EARLY AS 12 NOON.", "ref": "3448700000"}, "type": "Feature"}
{"geometry": {"coordinates": [-82.612738551, 28.782207568], "type": "Point"}, "id": "PbnORFv4zvK9dfvkh_fWrXCh6Bk=", "properties": {"@spider": "usps_collection_boxes", "addr:city": "HOMOSASSA", "addr:country": "US", "addr:full": "10780 W YULEE DR", "addr:postcode": "34487", "addr:state": "FL", "brand": "USPS", "collection_times": "Mo-Fr 15:30; Sa 11:45", "name": "USPS COLLECTION BOX - PO LOBBY", "note": "ON 12/24 AND 12/31, THIS BOX MAY BE COLLECTED AS EARLY AS 12 NOON.", "ref": "3448700001"}, "type": "Feature"}
{"geometry": {"coordinates": [-82.612738551, 28.782207568], "type": "Point"}, "id": "7xYeGw5p36a_2UdZRfcB-ZZxrg4=", "properties": {"@spider": "usps_collection_boxes", "addr:city": "HOMOSASSA", "addr:country": "US", "addr:full": "10780 W YULEE DR", "addr:postcode": "34487", "addr:state": "FL", "brand": "USPS", "collection_times": "Mo-Fr 15:30; Sa 11:45", "name": "USPS COLLECTION BOX - PO LOBBY", "note": "ON 12/24 AND 12/31, THIS BOX MAY BE COLLECTED AS EARLY AS 12 NOON.", "ref": "3448700002"}, "type": "Feature"}
{"geometry": {"coordinates": [-82.709534518, 29.033602649], "type": "Point"}, "id": "HmnS32qUI9j4KFJg7jnVbs-Kxm4=", "properties": {"@spider": "usps_collection_boxes", "addr:city": "YANKEETOWN", "addr:country": "US", "addr:full": "17 56TH ST", "addr:postcode": "34498", "addr:state": "FL", "brand": "USPS", "collection_times": "Mo-Fr 13:00; Sa 09:30", "name": "USPS COLLECTION BOX - BLUE BOX", "note": "ON 12/24 AND 12/31, THIS BOX MAY BE COLLECTED AS EARLY AS 12 NOON.", "ref": "3449800000"}, "type": "Feature"}
{"geometry": {"coordinates": [-82.709534518, 29.033602649], "type": "Point"}, "id": "e3hX9yN1Yt6HjzL-7pmw7v3aFNk=", "properties": {"@spider": "usps_collection_boxes", "addr:city": "YANKEETOWN", "addr:country": "US", "addr:full": "17 56TH ST", "addr:postcode": "34498", "addr:state": "FL", "brand": "USPS", "collection_times": "Mo-Fr 12:45; Sa 09:30", "name": "USPS COLLECTION BOX - PO LOBBY", "note": "ON 12/24 AND 12/31, THIS BOX MAY BE COLLECTED AS EARLY AS 12 NOON.", "ref": "3449800003"}, "type": "Feature"}
{"geometry": {"coordinates": [-82.709534518, 29.033602649], "type": "Point"}, "id": "lsvT4xPetxXAfBkmJBWjPxzsCYk=", "properties": {"@spider": "usps_collection_boxes", "addr:city": "YANKEETOWN", "addr:country": "US", "addr:full": "17 56TH ST", "addr:postcode": "34498", "addr:state": "FL", "brand": "USPS", "collection_times": "Mo-Fr 12:45; Sa 09:30", "name": "USPS COLLECTION BOX - PO LOBBY", "note": "ON 12/24 AND 12/31, THIS BOX MAY BE COLLECTED AS EARLY AS 12 NOON.", "ref": "3449800005"}, "type": "Feature"}
