{"geometry": {"coordinates": [-82.39328, 28.55446], "type": "Point"}, "id": "P01SQHyxCF7yus9m9s7mM6u-NXk=", "properties": {"@source_uri": "https://tools.usps.com/UspsToolsRestServices/rest/POLocator/findLocations", "@spider": "usps_collection_boxes", "addr:city": "BROOKSVILLE", "addr:country": "US", "addr:postcode": "34601", "addr:state": "FL", "addr:street_address": "19514 CORTEZ BLVD", "amenity": "post_box", "collection_times": "Mo-Sa 10:30", "nsi_id": "unitedstatespostalservice-a77078", "operator": "United States Postal Service", "operator:short": "USPS", "operator:type": "public", "operator:wikidata": "Q668687", "ref": "3460100001"}, "type": "Feature"}
{"geometry": {"coordinates": [-82.39328, 28.55446], "type": "Point"}, "id": "lJDmjFjEXCS_nmNsLx1m2sMJ44o=", "properties": {"@source_uri": "https://tools.usps.com/UspsToolsRestServices/rest/POLocator/findLocations", "@spider": "usps_collection_boxes", "addr:city": "BROOKSVILLE", "addr:country": "US", "addr:postcode": "34601", "addr:state": "FL", "addr:street_address": "1234 S BROAD ST", "amenity": "post_box", "collection_times": "Mo-Sa 09:00", "nsi_id": "unitedstatespostalservice-a77078", "operator": "United States Postal Service", "operator:short": "USPS", "operator:type": "public", "operator:wikidata": "Q668687", "ref": "3460100003"}, "type": "Feature"}
{"geometry": {"coordinates": [-82.39328, 28.55446], "type": "Point"}, "id": "Hi0Af-r1FNl-NzCjY0Eq2OVnXY4=", "properties": {"@source_uri": "https://tools.usps.com/UspsToolsRestServices/rest/POLocator/findLocations", "@spider": "usps_collection_boxes", "addr:city": "BROOKSVILLE", "addr:country": "US", "addr:postcode": "34601", "addr:state": "FL", "addr:street_address": "10 W JEFFERSON ST", "amenity": "post_box", "collection_times": "Mo-Fr 09:00", "nsi_id": "unitedstatespostalservice-a77078", "operator": "United States Postal Service", "operator:short": "USPS", "operator:type": "public", "operator:wikidata": "Q668687", "ref": "3460100007"}, "type": "Feature"}
{"geometry": {"coordinates": [-82.39328, 28.55446], "type": "Point"}, "id": "T7lbP1aU9p6-jVFSL3tv1PrUc3Q=", "properties": {"@source_uri": "https://tools.usps.com/UspsToolsRestServices/rest/POLocator/findLocations", "@spider": "usps_collection_boxes", "addr:city": "BROOKSVILLE", "addr:country": "US", "addr:postcode": "34601", "addr:state": "FL", "addr:street_address": "10 S BROAD ST", "amenity": "post_box", "collection_times": "Mo-Fr 09:00", "nsi_id": "unitedstatespostalservice-a77078", "operator": "United States Postal Service", "operator:short": "USPS", "operator:type": "public", "operator:wikidata": "Q668687", "ref": "3460100008"}, "type": "Feature"}
{"geometry": {"coordinates": [-82.39328, 28.55446], "type": "Point"}, "id": "qxcZM9L7L64vt8oFlX0bkHPsQIs=", "properties": {"@source_uri": "https://tools.usps.com/UspsToolsRestServices/rest/POLocator/findLocations", "@spider": "usps_collection_boxes", "addr:city": "BROOKSVILLE", "addr:country": "US", "addr:postcode": "34601", "addr:state": "FL", "addr:street_address": "201 HOWELL AVE", "amenity": "post_box", "collection_times": "Mo-Fr 09:00", "nsi_id": "unitedstatespostalservice-a77078", "operator": "United States Postal Service", "operator:short": "USPS", "operator:type": "public", "operator:wikidata": "Q668687", "ref": "3460100009"}, "type": "Feature"}
{"geometry": {"coordinates": [-82.39328, 28.55446], "type": "Point"}, "id": "VhmYTCN-4Gp7ebHSykMK1MxveIk=", "properties": {"@source_uri": "https://tools.usps.com/UspsToolsRestServices/rest/POLocator/findLocations", "@spider": "usps_collection_boxes", "addr:city": "BROOKSVILLE", "addr:country": "US", "addr:postcode": "34601", "addr:state": "FL", "addr:street_address": "19101 CORTEZ BLVD", "amenity": "post_box", "collection_times": "Mo-Fr 17:00; Sa 13:00", "note": "ON 12/24 AND 12/31, THIS BOX MAY BE COLLECTED AS EARLY AS 12 NOON.", "nsi_id": "unitedstatespostalservice-a77078", "operator": "United States Postal Service", "operator:short": "USPS", "operator:type": "public", "operator:wikidata": "Q668687", "ref": "3460100013"}, "type": "Feature"}
{"geometry": {"coordinates": [-82.39328, 28.55446], "type": "Point"}, "id": "2kv36jQOLvsLqC5Mgo4mTGf12sA=", "properties": {"@source_uri": "https://tools.usps.com/UspsToolsRestServices/rest/POLocator/findLocations", "@spider": "usps_collection_boxes", "addr:city": "BROOKSVILLE", "addr:country": "US", "addr:postcode": "34601", "addr:state": "FL", "addr:street_address": "207 E FORT DADE AVE", "amenity": "post_box", "collection_times": "Mo-Fr 17:00; Sa 12:00", "note": "ON 12/24 AND 12/31, THIS BOX MAY BE COLLECTED AS EARLY AS 12 NOON.", "nsi_id": "unitedstatespostalservice-a77078", "operator": "United States Postal Service", "operator:short": "USPS", "operator:type": "public", "operator:wikidata": "Q668687", "ref": "3460100017"}, "type": "Feature"}
{"geometry": {"coordinates": [-82.39328, 28.55446], "type": "Point"}, "id": "7DSgN3Cf1RzTFWws0XoS_oZ5avA=", "properties": {"@source_uri": "https://tools.usps.com/UspsToolsRestServices/rest/POLocator/findLocations", "@spider": "usps_collection_boxes", "addr:city": "BROOKSVILLE", "addr:country": "US", "addr:postcode": "34601", "addr:state": "FL", "addr:street_address": "31 S MAIN ST", "amenity": "post_box", "collection_times": "Mo-Fr 09:00", "nsi_id": "unitedstatespostalservice-a77078", "operator": "United States Postal Service", "operator:short": "USPS", "operator:type": "public", "operator:wikidata": "Q668687", "ref": "3460100021"}, "type": "Feature"}
{"geometry": {"coordinates": [-82.39328, 28.55446], "type": "Point"}, "id": "qAK_foQVwkXN1d1u3PGfi3xc3XI=", "properties": {"@source_uri": "https://tools.usps.com/UspsToolsRestServices/rest/POLocator/findLocations", "@spider": "usps_collection_boxes", "addr:city": "BROOKSVILLE", "addr:country": "US", "addr:postcode": "34601", "addr:state": "FL", "addr:street_address": "19101 CORTEZ BLVD", "amenity": "post_box", "collection_times": "Mo-Fr 17:00; Sa 13:00", "name": "USPS COLLECTION BOX - APC", "note": "ON 12/24 AND 12/31, THIS BOX MAY BE COLLECTED AS EARLY AS 12 NOON.", "nsi_id": "unitedstatespostalservice-a77078", "operator": "United States Postal Service", "operator:short": "USPS", "operator:type": "public", "operator:wikidata": "Q668687", "ref": "3460100030"}, "type": "Feature"}
{"geometry": {"coordinates": [-82.39328, 28.55446], "type": "Point"}, "id": "Xyd2aHkA5XcU7zCHXNXpNT9GOj8=", "properties": {"@source_uri": "https://tools.usps.com/UspsToolsRestServices/rest/POLocator/findLocations", "@spider": "usps_collection_boxes", "addr:city": "BROOKSVILLE", "addr:country": "US", "addr:postcode": "34601", "addr:state": "FL", "addr:street_address": "207 E FORT DADE AVE", "amenity": "post_box", "collection_times": "Mo-Fr 16:30", "indoor": "yes", "note": "ON 12/24 AND 12/31, THIS BOX MAY BE COLLECTED AS EARLY AS 12 NOON.", "nsi_id": "unitedstatespostalservice-a77078", "operator": "United States Postal Service", "operator:short": "USPS", "operator:type": "public", "operator:wikidata": "Q668687", "ref": "3460100034"}, "type": "Feature"}
{"geometry": {"coordinates": [-82.39328, 28.55446], "type": "Point"}, "id": "5IRnh9tn4rUKdlhend1M5oAP2xE=", "properties": {"@source_uri": "https://tools.usps.com/UspsToolsRestServices/rest/POLocator/findLocations", "@spider": "usps_collection_boxes", "addr:city": "BROOKSVILLE", "addr:country": "US", "addr:postcode": "34601", "addr:state": "FL", "addr:street_address": "19101 CORTEZ BLVD", "amenity": "post_box", "collection_times": "Mo-Fr 17:00", "indoor": "yes", "note": "ON 12/24 AND 12/31, THIS BOX MAY BE COLLECTED AS EARLY AS 12 NOON.", "nsi_id": "unitedstatespostalservice-a77078", "operator": "United States Postal Service", "operator:short": "USPS", "operator:type": "public", "operator:wikidata": "Q668687", "ref": "3460100035"}, "type": "Feature"}
{"geometry": {"coordinates": [-82.29101, 28.52491], "type": "Point"}, "id": "AgFw65jkw8C-6YI79QHEvi1nluo=", "properties": {"@source_uri": "https://tools.usps.com/UspsToolsRestServices/rest/POLocator/findLocations", "@spider": "usps_collection_boxes", "addr:city": "BROOKSVILLE", "addr:country": "US", "addr:postcode": "34602", "addr:state": "FL", "addr:street_address": "31138 CORTEZ BLVD", "amenity": "post_box", "collection_times": "Mo-Sa 11:00", "nsi_id": "unitedstatespostalservice-a77078", "operator": "United States Postal Service", "operator:short": "USPS", "operator:type": "public", "operator:wikidata": "Q668687", "ref": "3460200001"}, "type": "Feature"}
{"geometry": {"coordinates": [-82.5973586, 28.4489586], "type": "Point"}, "id": "v5bNj3PDz6p320pxjAVeIG1cv58=", "properties": {"@source_uri": "https://tools.usps.com/UspsToolsRestServices/rest/POLocator/findLocations", "@spider": "usps_collection_boxes", "addr:city": "BROOKSVILLE", "addr:country": "US", "addr:postcode": "34606", "addr:state": "FL", "addr:street_address": "4343 COMMERCIAL WAY", "amenity": "post_box", "collection_times": "Mo-Sa 10:00", "nsi_id": "unitedstatespostalservice-a77078", "operator": "United States Postal Service", "operator:short": "USPS", "operator:type": "public", "operator:wikidata": "Q668687", "ref": "3460600001"}, "type": "Feature"}
{"geometry": {"coordinates": [-82.5973586, 28.4489586], "type": "Point"}, "id": "JRUCZix2OyQ-iull6-P2b1SaZoA=", "properties": {"@source_uri": "https://tools.usps.com/UspsToolsRestServices/rest/POLocator/findLocations", "@spider": "usps_collection_boxes", "addr:city": "BROOKSVILLE", "addr:country": "US", "addr:postcode": "34606", "addr:state": "FL", "addr:street_address": "7331 SPRING HILL DR", "amenity": "post_box", "collection_times": "Mo-Sa 13:00", "note": "ON 12/24 AND 12/31, THIS BOX MAY BE COLLECTED AS EARLY AS 12 NOON.", "nsi_id": "unitedstatespostalservice-a77078", "operator": "United States Postal Service", "operator:short": "USPS", "operator:type": "public", "operator:wikidata": "Q668687", "ref": "3460600010"}, "type": "Feature"}
{"geometry": {"coordinates": [-82.5973586, 28.4489586], "type": "Point"}, "id": "2cgy7aTftzyFranYUZkQV0bgAeM=", "properties": {"@source_uri": "https://tools.usps.com/UspsToolsRestServices/rest/POLocator/findLocations", "@spider": "usps_collection_boxes", "addr:city": "BROOKSVILLE", "addr:country": "US", "addr:postcode": "34606", "addr:state": "FL", "addr:street_address": "8501 PHILATELIC DR", "amenity": "post_box", "collection_times": "Mo-Fr 17:00; Sa 16:00", "indoor": "yes", "note": "ON 12/24 AND 12/31, THIS BOX MAY BE COLLECTED AS EARLY AS 12 NOON.", "nsi_id": "unitedstatespostalservice-a77078", "operator": "United States Postal Service", "operator:short": "USPS", "operator:type": "public", "operator:wikidata": "Q668687", "ref": "3460600011"}, "type": "Feature"}
{"geometry": {"coordinates": [-82.5973586, 28.4489586], "type": "Point"}, "id": "O2FHzhBJNnPvpjNgKk7z7Ajhz5E=", "properties": {"@source_uri": "https://tools.usps.com/UspsToolsRestServices/rest/POLocator/findLocations", "@spider": "usps_collection_boxes", "addr:city": "BROOKSVILLE", "addr:country": "US", "addr:postcode": "34606", "addr:state": "FL", "addr:street_address": "8501 PHILATELIC DR", "amenity": "post_box", "collection_times": "Mo-Fr 17:00; Sa 16:00", "note": "ON 12/24 AND 12/31, THIS BOX MAY BE COLLECTED AS EARLY AS 12 NOON.", "nsi_id": "unitedstatespostalservice-a77078", "operator": "United States Postal Service", "operator:short": "USPS", "operator:type": "public", "operator:wikidata": "Q668687", "ref": "3460600013"}, "type": "Feature"}
{"geometry": {"coordinates": [-82.5973586, 28.4489586], "type": "Point"}, "id": "31CZzPh_dCmEsCnlob9eBh2OFXg=", "properties": {"@source_uri": "https://tools.usps.com/UspsToolsRestServices/rest/POLocator/findLocations", "@spider": "usps_collection_boxes", "addr:city": "BROOKSVILLE", "addr:country": "US", "addr:postcode": "34606", "addr:state": "FL", "addr:street_address": "5327 COMMERCIAL WAY", "amenity": "post_box", "collection_times": "Mo-Sa 10:00", "nsi_id": "unitedstatespostalservice-a77078", "operator": "United States Postal Service", "operator:short": "USPS", "operator:type": "public", "operator:wikidata": "Q668687", "ref": "3460600018"}, "type": "Feature"}
{"geometry": {"coordinates": [-82.5973586, 28.4489586], "type": "Point"}, "id": "3CaaRHXSJgcZGH4BO_q_0stwkvk=", "properties": {"@source_uri": "https://tools.usps.com/UspsToolsRestServices/rest/POLocator/findLocations", "@spider": "usps_collection_boxes", "addr:city": "BROOKSVILLE", "addr:country": "US", "addr:postcode": "34606", "addr:state": "FL", "addr:street_address": "5433 COMMERCIAL WAY", "amenity": "post_box", "collection_times": "Mo-Sa 10:00", "nsi_id": "unitedstatespostalservice-a77078", "operator": "United States Postal Service", "operator:short": "USPS", "operator:type": "public", "operator:wikidata": "Q668687", "ref": "3460600019"}, "type": "Feature"}
{"geometry": {"coordinates": [-82.5973586, 28.4489586], "type": "Point"}, "id": "tU2PxhEoDZ-zvSmOVpkC2BbaniU=", "properties": {"@source_uri": "https://tools.usps.com/UspsToolsRestServices/rest/POLocator/findLocations", "@spider": "usps_collection_boxes", "addr:city": "BROOKSVILLE", "addr:country": "US", "addr:postcode": "34606", "addr:state": "FL", "addr:street_address": "8417 NORTHCLIFFE BLVD", "amenity": "post_box", "collection_times": "Mo-Sa 10:00", "nsi_id": "unitedstatespostalservice-a77078", "operator": "United States Postal Service", "operator:short": "USPS", "operator:type": "public", "operator:wikidata": "Q668687", "ref": "3460600020"}, "type": "Feature"}
{"geometry": {"coordinates": [-82.5973586, 28.4489586], "type": "Point"}, "id": "0n4z0lu0wEQuvFwenYzCoYQCLY8=", "properties": {"@source_uri": "https://tools.usps.com/UspsToolsRestServices/rest/POLocator/findLocations", "@spider": "usps_collection_boxes", "addr:city": "BROOKSVILLE", "addr:country": "US", "addr:postcode": "34606", "addr:state": "FL", "addr:street_address": "8501 PHILATELIC DR", "amenity": "post_box", "collection_times": "Mo-Fr 17:00; Sa 16:00", "indoor": "yes", "note": "ON 12/24 AND 12/31, THIS BOX MAY BE COLLECTED AS EARLY AS 12 NOON.", "nsi_id": "unitedstatespostalservice-a77078", "operator": "United States Postal Service", "operator:short": "USPS", "operator:type": "public", "operator:wikidata": "Q668687", "ref": "3460600022"}, "type": "Feature"}
{"geometry": {"coordinates": [-82.5973586, 28.4489586], "type": "Point"}, "id": "j7QyE7HKMhG2aL67npFuFoRbuZ0=", "properties": {"@source_uri": "https://tools.usps.com/UspsToolsRestServices/rest/POLocator/findLocations", "@spider": "usps_collection_boxes", "addr:city": "BROOKSVILLE", "addr:country": "US", "addr:postcode": "34606", "addr:state": "FL", "addr:street_address": "8501 PHILATELIC DR", "amenity": "post_box", "collection_times": "Mo-Fr 17:00; Sa 16:00", "name": "USPS COLLECTION BOX - APC", "note": "ON 12/24 AND 12/31, THIS BOX MAY BE COLLECTED AS EARLY AS 12 NOON.", "nsi_id": "unitedstatespostalservice-a77078", "operator": "United States Postal Service", "operator:short": "USPS", "operator:type": "public", "operator:wikidata": "Q668687", "ref": "3460600023"}, "type": "Feature"}
{"geometry": {"coordinates": [-82.5973586, 28.4489586], "type": "Point"}, "id": "bjPYYMB-oy47luHSevmjZ9iRP4A=", "properties": {"@source_uri": "https://tools.usps.com/UspsToolsRestServices/rest/POLocator/findLocations", "@spider": "usps_collection_boxes", "addr:city": "BROOKSVILLE", "addr:country": "US", "addr:postcode": "34606", "addr:state": "FL", "addr:street_address": "7341 SPRING HILL DR", "amenity": "post_box", "collection_times": "Mo-Fr 16:00", "indoor": "yes", "note": "ON 12/24 AND 12/31, THIS BOX MAY BE COLLECTED AS EARLY AS 12 NOON.", "nsi_id": "unitedstatespostalservice-a77078", "operator": "United States Postal Service", "operator:short": "USPS", "operator:type": "public", "operator:wikidata": "Q668687", "ref": "3460600028"}, "type": "Feature"}
{"geometry": {"coordinates": [-82.5973586, 28.4489586], "type": "Point"}, "id": "qkG5uTUVGfE1nTtqRwNBSuberOQ=", "properties": {"@source_uri": "https://tools.usps.com/UspsToolsRestServices/rest/POLocator/findLocations", "@spider": "usps_collection_boxes", "addr:city": "BROOKSVILLE", "addr:country": "US", "addr:postcode": "34606", "addr:state": "FL", "addr:street_address": "8501 PHILATELIC DR", "amenity": "post_box", "collection_times": "Mo-Fr 17:00", "indoor": "yes", "note": "ON 12/24 AND 12/31, THIS BOX MAY BE COLLECTED AS EARLY AS 12 NOON.", "nsi_id": "unitedstatespostalservice-a77078", "operator": "United States Postal Service", "operator:short": "USPS", "operator:type": "public", "operator:wikidata": "Q668687", "ref": "3460600029"}, "type": "Feature"}
{"geometry": {"coordinates": [-82.5467148, 28.4967264], "type": "Point"}, "id": "II7BGlL2i1-Vky9YSb5wiRcX3II=", "properties": {"@source_uri": "https://tools.usps.com/UspsToolsRestServices/rest/POLocator/findLocations", "@spider": "usps_collection_boxes", "addr:city": "BROOKSVILLE", "addr:country": "US", "addr:postcode": "34608", "addr:state": "FL", "addr:street_address": "11072 SPRING HILL DR", "amenity": "post_box", "collection_times": "Mo-Sa 10:00", "nsi_id": "unitedstatespostalservice-a77078", "operator": "United States Postal Service", "operator:short": "USPS", "operator:type": "public", "operator:wikidata": "Q668687", "ref": "3460800001"}, "type": "Feature"}
{"geometry": {"coordinates": [-82.4569, 28.4428], "type": "Point"}, "id": "ZIIFClSy8FYiP33jWiigoVH7WFc=", "properties": {"@source_uri": "https://tools.usps.com/UspsToolsRestServices/rest/POLocator/findLocations", "@spider": "usps_collection_boxes", "addr:city": "MASARYKTOWN", "addr:country": "US", "addr:postcode": "34609", "addr:state": "FL", "addr:street_address": "11186 SPRING HILL DR", "amenity": "post_box", "collection_times": "Mo-Sa 14:00", "note": "ON 12/24 AND 12/31, THIS BOX MAY BE COLLECTED AS EARLY AS 12 NOON.", "nsi_id": "unitedstatespostalservice-a77078", "operator": "United States Postal Service", "operator:short": "USPS", "operator:type": "public", "operator:wikidata": "Q668687", "ref": "3460900002"}, "type": "Feature"}
{"geometry": {"coordinates": [-82.4569, 28.4428], "type": "Point"}, "id": "SwD47O_bJjQz9AF_J9AydiFZN7k=", "properties": {"@source_uri": "https://tools.usps.com/UspsToolsRestServices/rest/POLocator/findLocations", "@spider": "usps_collection_boxes", "addr:city": "MASARYKTOWN", "addr:country": "US", "addr:postcode": "34609", "addr:state": "FL", "addr:street_address": "160 MARINER BLVD", "amenity": "post_box", "collection_times": "Mo-Sa 11:00", "nsi_id": "unitedstatespostalservice-a77078", "operator": "United States Postal Service", "operator:short": "USPS", "operator:type": "public", "operator:wikidata": "Q668687", "ref": "3460900003"}, "type": "Feature"}
{"geometry": {"coordinates": [-82.4569, 28.4428], "type": "Point"}, "id": "y82rjZTzz2hIHZV-YTUtBGMufQw=", "properties": {"@source_uri": "https://tools.usps.com/UspsToolsRestServices/rest/POLocator/findLocations", "@spider": "usps_collection_boxes", "addr:city": "MASARYKTOWN", "addr:country": "US", "addr:postcode": "34609", "addr:state": "FL", "addr:street_address": "379 BROAD ST", "amenity": "post_box", "collection_times": "Mo-Sa 12:00", "nsi_id": "unitedstatespostalservice-a77078", "operator": "United States Postal Service", "operator:short": "USPS", "operator:type": "public", "operator:wikidata": "Q668687", "ref": "3460900004"}, "type": "Feature"}
{"geometry": {"coordinates": [-82.4569, 28.4428], "type": "Point"}, "id": "8qao6pdoYNgsz1Rrp9OMkEWkvcw=", "properties": {"@source_uri": "https://tools.usps.com/UspsToolsRestServices/rest/POLocator/findLocations", "@spider": "usps_collection_boxes", "addr:city": "MASARYKTOWN", "addr:country": "US", "addr:postcode": "34609", "addr:state": "FL", "addr:street_address": "16150 AVIATION LOOP DR", "amenity": "post_box", "collection_times": "Mo-Sa 16:45", "note": "ON 12/24 AND 12/31, THIS BOX MAY BE COLLECTED AS EARLY AS 12 NOON.", "nsi_id": "unitedstatespostalservice-a77078", "operator": "United States Postal Service", "operator:short": "USPS", "operator:type": "public", "operator:wikidata": "Q668687", "ref": "3460900007"}, "type": "Feature"}
{"geometry": {"coordinates": [-82.4569, 28.4428], "type": "Point"}, "id": "iG13Ry2W5k742vdlCPcSoBcJGxY=", "properties": {"@source_uri": "https://tools.usps.com/UspsToolsRestServices/rest/POLocator/findLocations", "@spider": "usps_collection_boxes", "addr:city": "MASARYKTOWN", "addr:country": "US", "addr:postcode": "34609", "addr:state": "FL", "addr:street_address": "4221 MARINER BLVD", "amenity": "post_box", "collection_times": "Mo-Sa 13:00", "note": "ON 12/24 AND 12/31, THIS BOX MAY BE COLLECTED AS EARLY AS 12 NOON.", "nsi_id": "unitedstatespostalservice-a77078", "operator": "United States Postal Service", "operator:short": "USPS", "operator:type": "public", "operator:wikidata": "Q668687", "ref": "3460900008"}, "type": "Feature"}
{"geometry": {"coordinates": [-82.4569, 28.4428], "type": "Point"}, "id": "5nD6SY9t7GhQntKo-F_Mujtc6UE=", "properties": {"@source_uri": "https://tools.usps.com/UspsToolsRestServices/rest/POLocator/findLocations", "@spider": "usps_collection_boxes", "addr:city": "MASARYKTOWN", "addr:country": "US", "addr:postcode": "34609", "addr:state": "FL", "addr:street_address": "4158 MARINER BLVD", "amenity": "post_box", "collection_times": "Mo-Sa 13:00", "note": "ON 12/24 AND 12/31, THIS BOX MAY BE COLLECTED AS EARLY AS 12 NOON.", "nsi_id": "unitedstatespostalservice-a77078", "operator": "United States Postal Service", "operator:short": "USPS", "operator:type": "public", "operator:wikidata": "Q668687", "ref": "3460900010"}, "type": "Feature"}
{"geometry": {"coordinates": [-82.4569, 28.4428], "type": "Point"}, "id": "2nCvt5BHOojLAzNth4CxRS0yfzE=", "properties": {"@source_uri": "https://tools.usps.com/UspsToolsRestServices/rest/POLocator/findLocations", "@spider": "usps_collection_boxes", "addr:city": "MASARYKTOWN", "addr:country": "US", "addr:postcode": "34609", "addr:state": "FL", "addr:street_address": "16150 AVIATION LOOP DR", "amenity": "post_box", "collection_times": "Mo-Sa 16:45", "name": "USPS COLLECTION BOX - APC", "note": "ON 12/24 AND 12/31, THIS BOX MAY BE COLLECTED AS EARLY AS 12 NOON.", "nsi_id": "unitedstatespostalservice-a77078", "operator": "United States Postal Service", "operator:short": "USPS", "operator:type": "public", "operator:wikidata": "Q668687", "ref": "3460900011"}, "type": "Feature"}
{"geometry": {"coordinates": [-82.4569, 28.4428], "type": "Point"}, "id": "5SqxHp2_DYSkZKIaf23qDTF7Rd8=", "properties": {"@source_uri": "https://tools.usps.com/UspsToolsRestServices/rest/POLocator/findLocations", "@spider": "usps_collection_boxes", "addr:city": "MASARYKTOWN", "addr:country": "US", "addr:postcode": "34609", "addr:state": "FL", "addr:street_address": "16150 AVIATION LOOP DR", "amenity": "post_box", "collection_times": "Mo-Fr 16:00; Sa 13:00", "indoor": "yes", "note": "ON 12/24 AND 12/31, THIS BOX MAY BE COLLECTED AS EARLY AS 12 NOON.", "nsi_id": "unitedstatespostalservice-a77078", "operator": "United States Postal Service", "operator:short": "USPS", "operator:type": "public", "operator:wikidata": "Q668687", "ref": "3460900014"}, "type": "Feature"}
{"geometry": {"coordinates": [-82.545175, 28.4187], "type": "Point"}, "id": "RV_pyllISQ9nqJNQV--ujUu6fao=", "properties": {"@source_uri": "https://tools.usps.com/UspsToolsRestServices/rest/POLocator/findLocations", "@spider": "usps_collection_boxes", "addr:city": "BROOKSVILLE", "addr:country": "US", "addr:postcode": "34610", "addr:state": "FL", "addr:street_address": "17030 SHADY HILLS RD", "amenity": "post_box", "collection_times": "Mo-Fr 15:00; Sa 12:00", "note": "ON 12/24 AND 12/31, THIS BOX MAY BE COLLECTED AS EARLY AS 12 NOON.", "nsi_id": "unitedstatespostalservice-a77078", "operator": "United States Postal Service", "operator:short": "USPS", "operator:type": "public", "operator:wikidata": "Q668687", "ref": "3461000001"}, "type": "Feature"}
{"geometry": {"coordinates": [-82.569252447, 28.520551193], "type": "Point"}, "id": "AC-G25vfgZrycew6vUv5-iv60co=", "properties": {"@source_uri": "https://tools.usps.com/UspsToolsRestServices/rest/POLocator/findLocations", "@spider": "usps_collection_boxes", "addr:city": "WEEKI WACHEE", "addr:country": "US", "addr:postcode": "34613", "addr:state": "FL", "addr:street_address": "7254 HIGHPOINT BLVD", "amenity": "post_box", "collection_times": "Mo-Sa 12:00", "nsi_id": "unitedstatespostalservice-a77078", "operator": "United States Postal Service", "operator:short": "USPS", "operator:type": "public", "operator:wikidata": "Q668687", "ref": "3461300003"}, "type": "Feature"}
{"geometry": {"coordinates": [-82.569252447, 28.520551193], "type": "Point"}, "id": "WRQfRqbZEJzJbl6tnm5y-G90uq4=", "properties": {"@source_uri": "https://tools.usps.com/UspsToolsRestServices/rest/POLocator/findLocations", "@spider": "usps_collection_boxes", "addr:city": "WEEKI WACHEE", "addr:country": "US", "addr:postcode": "34613", "addr:state": "FL", "addr:street_address": "13300 CORTEZ BLVD", "amenity": "post_box", "collection_times": "Mo-Sa 12:30", "note": "ON 12/24 AND 12/31, THIS BOX MAY BE COLLECTED AS EARLY AS 12 NOON.", "nsi_id": "unitedstatespostalservice-a77078", "operator": "United States Postal Service", "operator:short": "USPS", "operator:type": "public", "operator:wikidata": "Q668687", "ref": "3461300011"}, "type": "Feature"}
{"geometry": {"coordinates": [-82.5692524466, 28.5205511927], "type": "Point"}, "id": "NL4ok-LG0FUvEaYwPsonISshLco=", "properties": {"@source_uri": "https://tools.usps.com/UspsToolsRestServices/rest/POLocator/findLocations", "@spider": "usps_collection_boxes", "addr:city": "WEEKI WACHEE", "addr:country": "US", "addr:postcode": "34613", "addr:state": "FL", "addr:street_address": "12190 CORTEZ BLVD", "amenity": "post_box", "collection_times": "Mo-Sa 12:00", "nsi_id": "unitedstatespostalservice-a77078", "operator": "United States Postal Service", "operator:short": "USPS", "operator:type": "public", "operator:wikidata": "Q668687", "ref": "3461300013"}, "type": "Feature"}
{"geometry": {"coordinates": [-82.5692524466, 28.5205511927], "type": "Point"}, "id": "LeXprNX5T9mqqWU0dttUwChYvFk=", "properties": {"@source_uri": "https://tools.usps.com/UspsToolsRestServices/rest/POLocator/findLocations", "@spider": "usps_collection_boxes", "addr:city": "WEEKI WACHEE", "addr:country": "US", "addr:postcode": "34613", "addr:state": "FL", "addr:street_address": "6254 COMMERCIAL WAY", "amenity": "post_box", "collection_times": "Mo-Sa 11:00", "nsi_id": "unitedstatespostalservice-a77078", "operator": "United States Postal Service", "operator:short": "USPS", "operator:type": "public", "operator:wikidata": "Q668687", "ref": "3461300014"}, "type": "Feature"}
{"geometry": {"coordinates": [-82.569252447, 28.520551193], "type": "Point"}, "id": "zof-XLw29-v-WjXpLfoJKt-QlVI=", "properties": {"@source_uri": "https://tools.usps.com/UspsToolsRestServices/rest/POLocator/findLocations", "@spider": "usps_collection_boxes", "addr:city": "WEEKI WACHEE", "addr:country": "US", "addr:postcode": "34613", "addr:state": "FL", "addr:street_address": "7300 BROOKRIDGE CENTRAL BLVD", "amenity": "post_box", "collection_times": "Mo-Sa 09:00", "nsi_id": "unitedstatespostalservice-a77078", "operator": "United States Postal Service", "operator:short": "USPS", "operator:type": "public", "operator:wikidata": "Q668687", "ref": "3461300016"}, "type": "Feature"}
{"geometry": {"coordinates": [-82.5694, 28.5203], "type": "Point"}, "id": "Gs-HUlCEJsTwD_M2qFRryUv2KtY=", "properties": {"@source_uri": "https://tools.usps.com/UspsToolsRestServices/rest/POLocator/findLocations", "@spider": "usps_collection_boxes", "addr:city": "WEEKI WACHEE", "addr:country": "US", "addr:postcode": "34613", "addr:state": "FL", "addr:street_address": "10246 WOODLAND WATERS BLVD", "amenity": "post_box", "collection_times": "Mo-Sa 09:00", "nsi_id": "unitedstatespostalservice-a77078", "operator": "United States Postal Service", "operator:short": "USPS", "operator:type": "public", "operator:wikidata": "Q668687", "ref": "3461300017"}, "type": "Feature"}
{"geometry": {"coordinates": [-82.27741, 28.65916], "type": "Point"}, "id": "1oH5WzbO3Fvo4fxeaFsUPr9SHHY=", "properties": {"@source_uri": "https://tools.usps.com/UspsToolsRestServices/rest/POLocator/findLocations", "@spider": "usps_collection_boxes", "addr:city": "ISTACHATTA", "addr:country": "US", "addr:postcode": "34636", "addr:state": "FL", "addr:street_address": "28199 MAGNON DR", "amenity": "post_box", "collection_times": "Mo-Fr 16:00; Sa 10:30", "note": "ON 12/24 AND 12/31, THIS BOX MAY BE COLLECTED AS EARLY AS 12 NOON.", "nsi_id": "unitedstatespostalservice-a77078", "operator": "United States Postal Service", "operator:short": "USPS", "operator:type": "public", "operator:wikidata": "Q668687", "ref": "3463600001"}, "type": "Feature"}
{"geometry": {"coordinates": [-82.27741, 28.65916], "type": "Point"}, "id": "9_4_RdW7igkZqIHsKMVNWK9SBGc=", "properties": {"@source_uri": "https://tools.usps.com/UspsToolsRestServices/rest/POLocator/findLocations", "@spider": "usps_collection_boxes", "addr:city": "ISTACHATTA", "addr:country": "US", "addr:postcode": "34636", "addr:state": "FL", "addr:street_address": "28199 MAGNON DR", "amenity": "post_box", "collection_times": "Mo-Fr 16:00", "indoor": "yes", "note": "ON 12/24 AND 12/31, THIS BOX MAY BE COLLECTED AS EARLY AS 12 NOON.", "nsi_id": "unitedstatespostalservice-a77078", "operator": "United States Postal Service", "operator:short": "USPS", "operator:type": "public", "operator:wikidata": "Q668687", "ref": "3463600004"}, "type": "Feature"}
{"geometry": {"coordinates": [-82.4334872, 28.2234886], "type": "Point"}, "id": "COUMFWTpGkkQcu9h4tCE9rheAGc=", "properties": {"@source_uri": "https://tools.usps.com/UspsToolsRestServices/rest/POLocator/findLocations", "@spider": "usps_collection_boxes", "addr:city": "LAND O LAKES", "addr:country": "US", "addr:postcode": "34639", "addr:state": "FL", "addr:street_address": "21529 VILLAGE LAKES SHOPPING CTR DR", "amenity": "post_box", "collection_times": "Mo-Sa 11:15", "nsi_id": "unitedstatespostalservice-a77078", "operator": "United States Postal Service", "operator:short": "USPS", "operator:type": "public", "operator:wikidata": "Q668687", "ref": "3463900001"}, "type": "Feature"}
{"geometry": {"coordinates": [-82.4334872, 28.2234886], "type": "Point"}, "id": "AeD_JwfJXpT45OTnOVJu9usM9bs=", "properties": {"@source_uri": "https://tools.usps.com/UspsToolsRestServices/rest/POLocator/findLocations", "@spider": "usps_collection_boxes", "addr:city": "LAND O LAKES", "addr:country": "US", "addr:postcode": "34639", "addr:state": "FL", "addr:street_address": "5230 LAND O LAKES BLVD", "amenity": "post_box", "collection_times": "Mo-Sa 17:00", "note": "ON 12/24 AND 12/31, THIS BOX MAY BE COLLECTED AS EARLY AS 12 NOON.", "nsi_id": "unitedstatespostalservice-a77078", "operator": "United States Postal Service", "operator:short": "USPS", "operator:type": "public", "operator:wikidata": "Q668687", "ref": "3463900005"}, "type": "Feature"}
{"geometry": {"coordinates": [-82.4334872, 28.2234886], "type": "Point"}, "id": "wniB0uUzFDJid8nPuBDKv71P684=", "properties": {"@source_uri": "https://tools.usps.com/UspsToolsRestServices/rest/POLocator/findLocations", "@spider": "usps_collection_boxes", "addr:city": "LAND O LAKES", "addr:country": "US", "addr:postcode": "34639", "addr:state": "FL", "addr:street_address": "5230 LAND O LAKES BLVD", "amenity": "post_box", "collection_times": "Mo-Sa 17:00", "name": "USPS COLLECTION BOX - APC", "note": "ON 12/24 AND 12/31, THIS BOX MAY BE COLLECTED AS EARLY AS 12 NOON.", "nsi_id": "unitedstatespostalservice-a77078", "operator": "United States Postal Service", "operator:short": "USPS", "operator:type": "public", "operator:wikidata": "Q668687", "ref": "3463900010"}, "type": "Feature"}
{"geometry": {"coordinates": [-82.4334872, 28.2234886], "type": "Point"}, "id": "1uwdi3HnD4kU2WRhIYjsCVjJrcs=", "properties": {"@source_uri": "https://tools.usps.com/UspsToolsRestServices/rest/POLocator/findLocations", "@spider": "usps_collection_boxes", "addr:city": "LAND O LAKES", "addr:country": "US", "addr:postcode": "34639", "addr:state": "FL", "addr:street_address": "5230 LAND O LAKES BLVD", "amenity": "post_box", "collection_times": "Mo-Fr 17:00", "indoor": "yes", "note": "ON 12/24 AND 12/31, THIS BOX MAY BE COLLECTED AS EARLY AS 12 NOON.", "nsi_id": "unitedstatespostalservice-a77078", "operator": "United States Postal Service", "operator:short": "USPS", "operator:type": "public", "operator:wikidata": "Q668687", "ref": "3463900011"}, "type": "Feature"}
{"geometry": {"coordinates": [-82.7082939, 28.255713], "type": "Point"}, "id": "JtXH78eOPkRcLQwqxjYiO-1G0Xg=", "properties": {"@source_uri": "https://tools.usps.com/UspsToolsRestServices/rest/POLocator/findLocations", "@spider": "usps_collection_boxes", "addr:city": "NEW PORT RICHEY", "addr:country": "US", "addr:postcode": "34653", "addr:state": "FL", "addr:street_address": "6550 MAIN ST", "amenity": "post_box", "collection_times": "Mo-Fr 17:00; Sa 16:00", "name": "USPS COLLECTION BOX - APC", "note": "ON 12/24 AND 12/31, THIS BOX MAY BE COLLECTED AS EARLY AS 12 NOON.", "nsi_id": "unitedstatespostalservice-a77078", "operator": "United States Postal Service", "operator:short": "USPS", "operator:type": "public", "operator:wikidata": "Q668687", "ref": "3465300037"}, "type": "Feature"}
{"geometry": {"coordinates": [-82.7082939, 28.255713], "type": "Point"}, "id": "sXY26W_aET4lZMrjYsmpVkkFVW0=", "properties": {"@source_uri": "https://tools.usps.com/UspsToolsRestServices/rest/POLocator/findLocations", "@spider": "usps_collection_boxes", "addr:city": "NEW PORT RICHEY", "addr:country": "US", "addr:postcode": "34653", "addr:state": "FL", "addr:street_address": "6550 MAIN ST", "amenity": "post_box", "collection_times": "Mo-Fr 17:00; Sa 16:00", "note": "ON 12/24 AND 12/31, THIS BOX MAY BE COLLECTED AS EARLY AS 12 NOON.", "nsi_id": "unitedstatespostalservice-a77078", "operator": "United States Postal Service", "operator:short": "USPS", "operator:type": "public", "operator:wikidata": "Q668687", "ref": "3465300039"}, "type": "Feature"}
{"geometry": {"coordinates": [-82.7082939, 28.255713], "type": "Point"}, "id": "-p0YQEPq0UvuWZeBm0EYadyaZI8=", "properties": {"@source_uri": "https://tools.usps.com/UspsToolsRestServices/rest/POLocator/findLocations", "@spider": "usps_collection_boxes", "addr:city": "NEW PORT RICHEY", "addr:country": "US", "addr:postcode": "34653", "addr:state": "FL", "addr:street_address": "6550 MAIN ST", "amenity": "post_box", "collection_times": "Mo-Fr 16:30; Sa 12:00", "indoor": "yes", "note": "ON 12/24 AND 12/31, THIS BOX MAY BE COLLECTED AS EARLY AS 12 NOON.", "nsi_id": "unitedstatespostalservice-a77078", "operator": "United States Postal Service", "operator:short": "USPS", "operator:type": "public", "operator:wikidata": "Q668687", "ref": "3465300042"}, "type": "Feature"}
{"geometry": {"coordinates": [-82.63841, 28.27107], "type": "Point"}, "id": "CQlAh0Vt7M1wV0WK9TUPd6vopQg=", "properties": {"@source_uri": "https://tools.usps.com/UspsToolsRestServices/rest/POLocator/findLocations", "@spider": "usps_collection_boxes", "addr:city": "NEW PORT RICHEY", "addr:country": "US", "addr:postcode": "34654", "addr:state": "FL", "addr:street_address": "7619 LITTLE RD", "amenity": "post_box", "collection_times": "Mo-Sa 11:30", "nsi_id": "unitedstatespostalservice-a77078", "operator": "United States Postal Service", "operator:short": "USPS", "operator:type": "public", "operator:wikidata": "Q668687", "ref": "3465400009"}, "type": "Feature"}
{"geometry": {"coordinates": [-82.6600048, 28.2251617], "type": "Point"}, "id": "-dLUAzHcHfG2stcVGeWfmC8iMMk=", "properties": {"@source_uri": "https://tools.usps.com/UspsToolsRestServices/rest/POLocator/findLocations", "@spider": "usps_collection_boxes", "addr:city": "NEW PORT RICHEY", "addr:country": "US", "addr:postcode": "34655", "addr:state": "FL", "addr:street_address": "4022 LITTLE RD", "amenity": "post_box", "collection_times": "Mo-Fr 17:00; Sa 16:00", "note": "ON 12/24 AND 12/31, THIS BOX MAY BE COLLECTED AS EARLY AS 12 NOON.", "nsi_id": "unitedstatespostalservice-a77078", "operator": "United States Postal Service", "operator:short": "USPS", "operator:type": "public", "operator:wikidata": "Q668687", "ref": "3465500011"}, "type": "Feature"}
{"geometry": {"coordinates": [-82.77619, 28.06952], "type": "Point"}, "id": "jonHTeyhP4irfCe3jPV2GCxtF8U=", "properties": {"@source_uri": "https://tools.usps.com/UspsToolsRestServices/rest/POLocator/findLocations", "@spider": "usps_collection_boxes", "addr:city": "OZONA", "addr:country": "US", "addr:postcode": "34660", "addr:state": "FL", "addr:street_address": "310 ORANGE ST", "amenity": "post_box", "collection_times": "Mo-Fr 16:00", "indoor": "yes", "note": "ON 12/24 AND 12/31, THIS BOX MAY BE COLLECTED AS EARLY AS 12 NOON.", "nsi_id": "unitedstatespostalservice-a77078", "operator": "United States Postal Service", "operator:short": "USPS", "operator:type": "public", "operator:wikidata": "Q668687", "ref": "3466000004"}, "type": "Feature"}
{"geometry": {"coordinates": [-82.26246, 28.644485], "type": "Point"}, "id": "tNyxxgPSiFJAFCG-Kpw7cOytUjc=", "properties": {"@source_uri": "https://tools.usps.com/UspsToolsRestServices/rest/POLocator/findLocations", "@spider": "usps_collection_boxes", "addr:city": "NOBLETON", "addr:country": "US", "addr:postcode": "34661", "addr:state": "FL", "addr:street_address": "29095 FORBES ST", "amenity": "post_box", "collection_times": "Mo-Fr 11:30", "indoor": "yes", "nsi_id": "unitedstatespostalservice-a77078", "operator": "United States Postal Service", "operator:short": "USPS", "operator:type": "public", "operator:wikidata": "Q668687", "ref": "3466100004"}, "type": "Feature"}
{"geometry": {"coordinates": [-82.6951865, 28.3383413], "type": "Point"}, "id": "KNX8QteU-t-7ZEhGkn899f7D9UM=", "properties": {"@source_uri": "https://tools.usps.com/UspsToolsRestServices/rest/POLocator/findLocations", "@spider": "usps_collection_boxes", "addr:city": "PORT RICHEY", "addr:country": "US", "addr:postcode": "34667", "addr:state": "FL", "addr:street_address": "14000 FIVAY RD", "amenity": "post_box", "collection_times": "Mo-Sa 09:45", "nsi_id": "unitedstatespostalservice-a77078", "operator": "United States Postal Service", "operator:short": "USPS", "operator:type": "public", "operator:wikidata": "Q668687", "ref": "3466700001"}, "type": "Feature"}
{"geometry": {"coordinates": [-82.6951865, 28.3383413], "type": "Point"}, "id": "NPPjKSyUHupJVjnCpf522xS5HsA=", "properties": {"@source_uri": "https://tools.usps.com/UspsToolsRestServices/rest/POLocator/findLocations", "@spider": "usps_collection_boxes", "addr:city": "PORT RICHEY", "addr:country": "US", "addr:postcode": "34667", "addr:state": "FL", "addr:street_address": "7031 STATE ROAD 52", "amenity": "post_box", "collection_times": "Mo-Fr 11:00; Sa 10:30", "nsi_id": "unitedstatespostalservice-a77078", "operator": "United States Postal Service", "operator:short": "USPS", "operator:type": "public", "operator:wikidata": "Q668687", "ref": "3466700003"}, "type": "Feature"}
{"geometry": {"coordinates": [-82.6951865, 28.3383413], "type": "Point"}, "id": "FMYq87s9bgw2ydMM0hID5kkOcTk=", "properties": {"@source_uri": "https://tools.usps.com/UspsToolsRestServices/rest/POLocator/findLocations", "@spider": "usps_collection_boxes", "addr:city": "PORT RICHEY", "addr:country": "US", "addr:postcode": "34667", "addr:state": "FL", "addr:street_address": "13610 BIG BEND DR", "amenity": "post_box", "collection_times": "Mo-Fr 17:00; Sa 16:30", "indoor": "yes", "note": "ON 12/24 AND 12/31, THIS BOX MAY BE COLLECTED AS EARLY AS 12 NOON.", "nsi_id": "unitedstatespostalservice-a77078", "operator": "United States Postal Service", "operator:short": "USPS", "operator:type": "public", "operator:wikidata": "Q668687", "ref": "3466700006"}, "type": "Feature"}
{"geometry": {"coordinates": [-82.664801, 28.375122], "type": "Point"}, "id": "shLdoKWzhsYQzNjz79PNKOnNvxA=", "properties": {"@source_uri": "https://tools.usps.com/UspsToolsRestServices/rest/POLocator/findLocations", "@spider": "usps_collection_boxes", "addr:city": "PORT RICHEY", "addr:country": "US", "addr:postcode": "34667", "addr:state": "FL", "addr:street_address": "12417 CLOCK TOWER PKWY", "amenity": "post_box", "collection_times": "Mo-Sa 13:30", "note": "ON 12/24 AND 12/31, THIS BOX MAY BE COLLECTED AS EARLY AS 12 NOON.", "nsi_id": "unitedstatespostalservice-a77078", "operator": "United States Postal Service", "operator:short": "USPS", "operator:type": "public", "operator:wikidata": "Q668687", "ref": "3466700008"}, "type": "Feature"}
{"geometry": {"coordinates": [-82.6951865, 28.3383413], "type": "Point"}, "id": "_vKhx6I9J-lGVTbxh36jLQVGArM=", "properties": {"@source_uri": "https://tools.usps.com/UspsToolsRestServices/rest/POLocator/findLocations", "@spider": "usps_collection_boxes", "addr:city": "PORT RICHEY", "addr:country": "US", "addr:postcode": "34667", "addr:state": "FL", "addr:street_address": "8912 STATE ROAD 52", "amenity": "post_box", "collection_times": "Mo-Sa 11:30", "nsi_id": "unitedstatespostalservice-a77078", "operator": "United States Postal Service", "operator:short": "USPS", "operator:type": "public", "operator:wikidata": "Q668687", "ref": "3466700015"}, "type": "Feature"}
{"geometry": {"coordinates": [-82.6951865, 28.3383413], "type": "Point"}, "id": "hCF6zxM8nw0p_pwL6mzGy0d9e3c=", "properties": {"@source_uri": "https://tools.usps.com/UspsToolsRestServices/rest/POLocator/findLocations", "@spider": "usps_collection_boxes", "addr:city": "PORT RICHEY", "addr:country": "US", "addr:postcode": "34667", "addr:state": "FL", "addr:street_address": "13806 LITTLE RD", "amenity": "post_box", "collection_times": "Mo-Fr 10:00; Sa 10:30", "nsi_id": "unitedstatespostalservice-a77078", "operator": "United States Postal Service", "operator:short": "USPS", "operator:type": "public", "operator:wikidata": "Q668687", "ref": "3466700016"}, "type": "Feature"}
{"geometry": {"coordinates": [-82.6951865, 28.3383413], "type": "Point"}, "id": "OltyCibI6yGgfLjVnHkOzNCQa9I=", "properties": {"@source_uri": "https://tools.usps.com/UspsToolsRestServices/rest/POLocator/findLocations", "@spider": "usps_collection_boxes", "addr:city": "PORT RICHEY", "addr:country": "US", "addr:postcode": "34667", "addr:state": "FL", "addr:street_address": "10114 STATE ROAD 52", "amenity": "post_box", "collection_times": "Mo-Sa 10:30", "nsi_id": "unitedstatespostalservice-a77078", "operator": "United States Postal Service", "operator:short": "USPS", "operator:type": "public", "operator:wikidata": "Q668687", "ref": "3466700025"}, "type": "Feature"}
{"geometry": {"coordinates": [-82.6951865, 28.3383413], "type": "Point"}, "id": "VKYUg5wqqQgCpQjBMnRPW3jJefc=", "properties": {"@source_uri": "https://tools.usps.com/UspsToolsRestServices/rest/POLocator/findLocations", "@spider": "usps_collection_boxes", "addr:city": "PORT RICHEY", "addr:country": "US", "addr:postcode": "34667", "addr:state": "FL", "addr:street_address": "13610 BIG BEND DR", "amenity": "post_box", "collection_times": "Mo-Fr 17:00; Sa 16:30", "indoor": "yes", "note": "ON 12/24 AND 12/31, THIS BOX MAY BE COLLECTED AS EARLY AS 12 NOON.", "nsi_id": "unitedstatespostalservice-a77078", "operator": "United States Postal Service", "operator:short": "USPS", "operator:type": "public", "operator:wikidata": "Q668687", "ref": "3466700026"}, "type": "Feature"}
{"geometry": {"coordinates": [-82.6951865, 28.3383413], "type": "Point"}, "id": "xMUB7wRsXI1h6JAQZhFKnqccKx0=", "properties": {"@source_uri": "https://tools.usps.com/UspsToolsRestServices/rest/POLocator/findLocations", "@spider": "usps_collection_boxes", "addr:city": "PORT RICHEY", "addr:country": "US", "addr:postcode": "34667", "addr:state": "FL", "addr:street_address": "13610 BIG BEND DR", "amenity": "post_box", "collection_times": "Mo-Fr 17:00; Sa 16:30", "note": "ON 12/24 AND 12/31, THIS BOX MAY BE COLLECTED AS EARLY AS 12 NOON.", "nsi_id": "unitedstatespostalservice-a77078", "operator": "United States Postal Service", "operator:short": "USPS", "operator:type": "public", "operator:wikidata": "Q668687", "ref": "3466700027"}, "type": "Feature"}
{"geometry": {"coordinates": [-82.6951865, 28.3383413], "type": "Point"}, "id": "0nDDFP57j0g0jB0PE2nHRkyzlyk=", "properties": {"@source_uri": "https://tools.usps.com/UspsToolsRestServices/rest/POLocator/findLocations", "@spider": "usps_collection_boxes", "addr:city": "PORT RICHEY", "addr:country": "US", "addr:postcode": "34667", "addr:state": "FL", "addr:street_address": "13610 BIG BEND DR", "amenity": "post_box", "collection_times": "Mo-Fr 17:00", "indoor": "yes", "note": "ON 12/24 AND 12/31, THIS BOX MAY BE COLLECTED AS EARLY AS 12 NOON.", "nsi_id": "unitedstatespostalservice-a77078", "operator": "United States Postal Service", "operator:short": "USPS", "operator:type": "public", "operator:wikidata": "Q668687", "ref": "3466700032"}, "type": "Feature"}
{"geometry": {"coordinates": [-82.69541, 28.314975], "type": "Point"}, "id": "yiCnUTdAJIFVWzWGFB8XhacizRA=", "properties": {"@source_uri": "https://tools.usps.com/UspsToolsRestServices/rest/POLocator/findLocations", "@spider": "usps_collection_boxes", "addr:city": "PORT RICHEY", "addr:country": "US", "addr:postcode": "34668", "addr:state": "FL", "addr:street_address": "10521 SCENIC DR", "amenity": "post_box", "collection_times": "Mo-Sa 14:00", "note": "ON 12/24 AND 12/31, THIS BOX MAY BE COLLECTED AS EARLY AS 12 NOON.", "nsi_id": "unitedstatespostalservice-a77078", "operator": "United States Postal Service", "operator:short": "USPS", "operator:type": "public", "operator:wikidata": "Q668687", "ref": "3466800019"}, "type": "Feature"}
{"geometry": {"coordinates": [-82.69541, 28.314975], "type": "Point"}, "id": "WYGIuCpmJWVl0SxoR_Ey2x6ewiQ=", "properties": {"@source_uri": "https://tools.usps.com/UspsToolsRestServices/rest/POLocator/findLocations", "@spider": "usps_collection_boxes", "addr:city": "PORT RICHEY", "addr:country": "US", "addr:postcode": "34668", "addr:state": "FL", "addr:street_address": "8101 WASHINGTON ST", "amenity": "post_box", "collection_times": "Mo-Fr 17:00; Sa 16:30", "note": "ON 12/24 AND 12/31, THIS BOX MAY BE COLLECTED AS EARLY AS 12 NOON.", "nsi_id": "unitedstatespostalservice-a77078", "operator": "United States Postal Service", "operator:short": "USPS", "operator:type": "public", "operator:wikidata": "Q668687", "ref": "3466800020"}, "type": "Feature"}
{"geometry": {"coordinates": [-82.69541, 28.314975], "type": "Point"}, "id": "BGep31TW-uIr5GJm6z6AuXrHEso=", "properties": {"@source_uri": "https://tools.usps.com/UspsToolsRestServices/rest/POLocator/findLocations", "@spider": "usps_collection_boxes", "addr:city": "PORT RICHEY", "addr:country": "US", "addr:postcode": "34668", "addr:state": "FL", "addr:street_address": "9302 BINNACLE DR", "amenity": "post_box", "collection_times": "Mo-Sa 15:00", "note": "ON 12/24 AND 12/31, THIS BOX MAY BE COLLECTED AS EARLY AS 12 NOON.", "nsi_id": "unitedstatespostalservice-a77078", "operator": "United States Postal Service", "operator:short": "USPS", "operator:type": "public", "operator:wikidata": "Q668687", "ref": "3466800026"}, "type": "Feature"}
{"geometry": {"coordinates": [-82.69541, 28.314975], "type": "Point"}, "id": "DUSMqsmlBSViPqDqVanLtr2PSH8=", "properties": {"@source_uri": "https://tools.usps.com/UspsToolsRestServices/rest/POLocator/findLocations", "@spider": "usps_collection_boxes", "addr:city": "PORT RICHEY", "addr:country": "US", "addr:postcode": "34668", "addr:state": "FL", "addr:street_address": "7037 RIDGE RD", "amenity": "post_box", "collection_times": "Mo-Sa 14:00", "note": "ON 12/24 AND 12/31, THIS BOX MAY BE COLLECTED AS EARLY AS 12 NOON.", "nsi_id": "unitedstatespostalservice-a77078", "operator": "United States Postal Service", "operator:short": "USPS", "operator:type": "public", "operator:wikidata": "Q668687", "ref": "3466800033"}, "type": "Feature"}
{"geometry": {"coordinates": [-82.69541, 28.314975], "type": "Point"}, "id": "4nI9M4_4o5gpqtC6pbTga0O8lRQ=", "properties": {"@source_uri": "https://tools.usps.com/UspsToolsRestServices/rest/POLocator/findLocations", "@spider": "usps_collection_boxes", "addr:city": "PORT RICHEY", "addr:country": "US", "addr:postcode": "34668", "addr:state": "FL", "addr:street_address": "9602 US HIGHWAY 19", "amenity": "post_box", "collection_times": "Mo-Fr 16:30; Sa 12:30", "indoor": "yes", "note": "ON 12/24 AND 12/31, THIS BOX MAY BE COLLECTED AS EARLY AS 12 NOON.", "nsi_id": "unitedstatespostalservice-a77078", "operator": "United States Postal Service", "operator:short": "USPS", "operator:type": "public", "operator:wikidata": "Q668687", "ref": "3466800035"}, "type": "Feature"}
{"geometry": {"coordinates": [-82.69541, 28.314975], "type": "Point"}, "id": "HkROfSF4XPsgJK9r6EosJCXPiuc=", "properties": {"@source_uri": "https://tools.usps.com/UspsToolsRestServices/rest/POLocator/findLocations", "@spider": "usps_collection_boxes", "addr:city": "PORT RICHEY", "addr:country": "US", "addr:postcode": "34668", "addr:state": "FL", "addr:street_address": "9602 US HIGHWAY 19", "amenity": "post_box", "collection_times": "Mo-Fr 16:15; Sa 12:15", "indoor": "yes", "note": "ON 12/24 AND 12/31, THIS BOX MAY BE COLLECTED AS EARLY AS 12 NOON.", "nsi_id": "unitedstatespostalservice-a77078", "operator": "United States Postal Service", "operator:short": "USPS", "operator:type": "public", "operator:wikidata": "Q668687", "ref": "3466800039"}, "type": "Feature"}
{"geometry": {"coordinates": [-82.69541, 28.314975], "type": "Point"}, "id": "n_08yYVZo5xCI4FX6pEmk97fK3A=", "properties": {"@source_uri": "https://tools.usps.com/UspsToolsRestServices/rest/POLocator/findLocations", "@spider": "usps_collection_boxes", "addr:city": "PORT RICHEY", "addr:country": "US", "addr:postcode": "34668", "addr:state": "FL", "addr:street_address": "9602 US HIGHWAY 19", "amenity": "post_box", "collection_times": "Mo-Fr 16:15; Sa 12:15", "indoor": "yes", "note": "ON 12/24 AND 12/31, THIS BOX MAY BE COLLECTED AS EARLY AS 12 NOON.", "nsi_id": "unitedstatespostalservice-a77078", "operator": "United States Postal Service", "operator:short": "USPS", "operator:type": "public", "operator:wikidata": "Q668687", "ref": "3466800040"}, "type": "Feature"}
{"geometry": {"coordinates": [-82.69541, 28.314975], "type": "Point"}, "id": "zxnGl1XpZYe66wKdx4Fw5roTw3U=", "properties": {"@source_uri": "https://tools.usps.com/UspsToolsRestServices/rest/POLocator/findLocations", "@spider": "usps_collection_boxes", "addr:city": "PORT RICHEY", "addr:country": "US", "addr:postcode": "34668", "addr:state": "FL", "addr:street_address": "9602 US HIGHWAY 19", "amenity": "post_box", "collection_times": "Mo-Fr 16:15; Sa 12:15", "note": "ON 12/24 AND 12/31, THIS BOX MAY BE COLLECTED AS EARLY AS 12 NOON.", "nsi_id": "unitedstatespostalservice-a77078", "operator": "United States Postal Service", "operator:short": "USPS", "operator:type": "public", "operator:wikidata": "Q668687", "ref": "3466800041"}, "type": "Feature"}
{"geometry": {"coordinates": [-82.69541, 28.314975], "type": "Point"}, "id": "haHL_I-Ca7K9a4x-Pefl-vYfdCE=", "properties": {"@source_uri": "https://tools.usps.com/UspsToolsRestServices/rest/POLocator/findLocations", "@spider": "usps_collection_boxes", "addr:city": "PORT RICHEY", "addr:country": "US", "addr:postcode": "34668", "addr:state": "FL", "addr:street_address": "4740 BAY BLVD", "amenity": "post_box", "collection_times": "Mo-Sa 14:00", "note": "ON 12/24 AND 12/31, THIS BOX MAY BE COLLECTED AS EARLY AS 12 NOON.", "nsi_id": "unitedstatespostalservice-a77078", "operator": "United States Postal Service", "operator:short": "USPS", "operator:type": "public", "operator:wikidata": "Q668687", "ref": "3466800042"}, "type": "Feature"}
{"geometry": {"coordinates": [-82.69541, 28.314975], "type": "Point"}, "id": "_WTILr7foW4cC6Qtrwbpjpk-8MU=", "properties": {"@source_uri": "https://tools.usps.com/UspsToolsRestServices/rest/POLocator/findLocations", "@spider": "usps_collection_boxes", "addr:city": "PORT RICHEY", "addr:country": "US", "addr:postcode": "34668", "addr:state": "FL", "addr:street_address": "9602 US HIGHWAY 19", "amenity": "post_box", "collection_times": "Mo-Fr 16:30", "indoor": "yes", "note": "ON 12/24 AND 12/31, THIS BOX MAY BE COLLECTED AS EARLY AS 12 NOON.", "nsi_id": "unitedstatespostalservice-a77078", "operator": "United States Postal Service", "operator:short": "USPS", "operator:type": "public", "operator:wikidata": "Q668687", "ref": "3466800048"}, "type": "Feature"}
{"geometry": {"coordinates": [-82.66942, 28.03685], "type": "Point"}, "id": "DFYMmSQpDvVwhshnbkeUMdIoLQQ=", "properties": {"@source_uri": "https://tools.usps.com/UspsToolsRestServices/rest/POLocator/findLocations", "@spider": "usps_collection_boxes", "addr:city": "OLDSMAR", "addr:country": "US", "addr:postcode": "34677", "addr:state": "FL", "addr:street_address": "3905 TAMPA RD", "amenity": "post_box", "collection_times": "Mo-Fr 17:00; Sa 14:30", "note": "ON 12/24 AND 12/31, THIS BOX MAY BE COLLECTED AS EARLY AS 12 NOON.", "nsi_id": "unitedstatespostalservice-a77078", "operator": "United States Postal Service", "operator:short": "USPS", "operator:type": "public", "operator:wikidata": "Q668687", "ref": "3467700002"}, "type": "Feature"}
{"geometry": {"coordinates": [-82.66942, 28.03685], "type": "Point"}, "id": "Hs_OP24lgbkwKdq3lw7yH6cc6e8=", "properties": {"@source_uri": "https://tools.usps.com/UspsToolsRestServices/rest/POLocator/findLocations", "@spider": "usps_collection_boxes", "addr:city": "OLDSMAR", "addr:country": "US", "addr:postcode": "34677", "addr:state": "FL", "addr:street_address": "3146 TAMPA RD", "amenity": "post_box", "collection_times": "Mo-Sa 11:00", "nsi_id": "unitedstatespostalservice-a77078", "operator": "United States Postal Service", "operator:short": "USPS", "operator:type": "public", "operator:wikidata": "Q668687", "ref": "3467700003"}, "type": "Feature"}
{"geometry": {"coordinates": [-82.66942, 28.03685], "type": "Point"}, "id": "wND36QwFCDvFsXksm0fM_2Wqz8A=", "properties": {"@source_uri": "https://tools.usps.com/UspsToolsRestServices/rest/POLocator/findLocations", "@spider": "usps_collection_boxes", "addr:city": "OLDSMAR", "addr:country": "US", "addr:postcode": "34677", "addr:state": "FL", "addr:street_address": "4025 TAMPA RD", "amenity": "post_box", "collection_times": "Mo-Fr 10:00", "nsi_id": "unitedstatespostalservice-a77078", "operator": "United States Postal Service", "operator:short": "USPS", "operator:type": "public", "operator:wikidata": "Q668687", "ref": "3467700006"}, "type": "Feature"}
{"geometry": {"coordinates": [-82.66942, 28.03685], "type": "Point"}, "id": "W3lNOgJVhyppiLKo0Vgi6wpxk00=", "properties": {"@source_uri": "https://tools.usps.com/UspsToolsRestServices/rest/POLocator/findLocations", "@spider": "usps_collection_boxes", "addr:city": "OLDSMAR", "addr:country": "US", "addr:postcode": "34677", "addr:state": "FL", "addr:street_address": "100 STATE ST W", "amenity": "post_box", "collection_times": "Mo-Sa 11:00", "nsi_id": "unitedstatespostalservice-a77078", "operator": "United States Postal Service", "operator:short": "USPS", "operator:type": "public", "operator:wikidata": "Q668687", "ref": "3467700009"}, "type": "Feature"}
{"geometry": {"coordinates": [-82.66942, 28.03685], "type": "Point"}, "id": "_EjzZpvE_O74P5mR3gEIwoABuV8=", "properties": {"@source_uri": "https://tools.usps.com/UspsToolsRestServices/rest/POLocator/findLocations", "@spider": "usps_collection_boxes", "addr:city": "OLDSMAR", "addr:country": "US", "addr:postcode": "34677", "addr:state": "FL", "addr:street_address": "3687 TAMPA RD", "amenity": "post_box", "collection_times": "Mo-Sa 11:30", "nsi_id": "unitedstatespostalservice-a77078", "operator": "United States Postal Service", "operator:short": "USPS", "operator:type": "public", "operator:wikidata": "Q668687", "ref": "3467700011"}, "type": "Feature"}
{"geometry": {"coordinates": [-82.66942, 28.03685], "type": "Point"}, "id": "dBfkgrIR9GAc_5opgMGDqm5h4ak=", "properties": {"@source_uri": "https://tools.usps.com/UspsToolsRestServices/rest/POLocator/findLocations", "@spider": "usps_collection_boxes", "addr:city": "OLDSMAR", "addr:country": "US", "addr:postcode": "34677", "addr:state": "FL", "addr:street_address": "4023 TAMPA RD", "amenity": "post_box", "collection_times": "Mo-Sa 10:00", "nsi_id": "unitedstatespostalservice-a77078", "operator": "United States Postal Service", "operator:short": "USPS", "operator:type": "public", "operator:wikidata": "Q668687", "ref": "3467700016"}, "type": "Feature"}
{"geometry": {"coordinates": [-82.66942, 28.03685], "type": "Point"}, "id": "DUZRfv6_FAS-eJUwYYyTQSVVIus=", "properties": {"@source_uri": "https://tools.usps.com/UspsToolsRestServices/rest/POLocator/findLocations", "@spider": "usps_collection_boxes", "addr:city": "OLDSMAR", "addr:country": "US", "addr:postcode": "34677", "addr:state": "FL", "addr:street_address": "3905 TAMPA RD", "amenity": "post_box", "collection_times": "Mo-Fr 17:00; Sa 14:30", "name": "USPS COLLECTION BOX - APC", "note": "ON 12/24 AND 12/31, THIS BOX MAY BE COLLECTED AS EARLY AS 12 NOON.", "nsi_id": "unitedstatespostalservice-a77078", "operator": "United States Postal Service", "operator:short": "USPS", "operator:type": "public", "operator:wikidata": "Q668687", "ref": "3467700017"}, "type": "Feature"}
{"geometry": {"coordinates": [-82.66942, 28.03685], "type": "Point"}, "id": "-ryNKQmdxHNcUlTJRpD3UHOntLk=", "properties": {"@source_uri": "https://tools.usps.com/UspsToolsRestServices/rest/POLocator/findLocations", "@spider": "usps_collection_boxes", "addr:city": "OLDSMAR", "addr:country": "US", "addr:postcode": "34677", "addr:state": "FL", "addr:street_address": "3905 TAMPA RD", "amenity": "post_box", "collection_times": "Mo-Fr 17:00; Sa 13:00", "indoor": "yes", "note": "ON 12/24 AND 12/31, THIS BOX MAY BE COLLECTED AS EARLY AS 12 NOON.", "nsi_id": "unitedstatespostalservice-a77078", "operator": "United States Postal Service", "operator:short": "USPS", "operator:type": "public", "operator:wikidata": "Q668687", "ref": "3467700020"}, "type": "Feature"}
{"geometry": {"coordinates": [-82.71534, 28.21907], "type": "Point"}, "id": "cwB2LEgHciRHu88x419wiPBdoYs=", "properties": {"@source_uri": "https://tools.usps.com/UspsToolsRestServices/rest/POLocator/findLocations", "@spider": "usps_collection_boxes", "addr:city": "ELFERS", "addr:country": "US", "addr:postcode": "34680", "addr:state": "FL", "addr:street_address": "4122 MADISON ST", "amenity": "post_box", "collection_times": "Mo-Fr 16:15; Sa 11:45", "note": "ON 12/24 AND 12/31, THIS BOX MAY BE COLLECTED AS EARLY AS 12 NOON.", "nsi_id": "unitedstatespostalservice-a77078", "operator": "United States Postal Service", "operator:short": "USPS", "operator:type": "public", "operator:wikidata": "Q668687", "ref": "3468000003"}, "type": "Feature"}
{"geometry": {"coordinates": [-82.71534, 28.21907], "type": "Point"}, "id": "CpW6JQ0jbgUNXz74Fvcc34hN4-k=", "properties": {"@source_uri": "https://tools.usps.com/UspsToolsRestServices/rest/POLocator/findLocations", "@spider": "usps_collection_boxes", "addr:city": "ELFERS", "addr:country": "US", "addr:postcode": "34680", "addr:state": "FL", "addr:street_address": "4122 MADISON ST", "amenity": "post_box", "collection_times": "Mo-Fr 16:15; Sa 11:45", "name": "USPS COLLECTION BOX - APC", "note": "ON 12/24 AND 12/31, THIS BOX MAY BE COLLECTED AS EARLY AS 12 NOON.", "nsi_id": "unitedstatespostalservice-a77078", "operator": "United States Postal Service", "operator:short": "USPS", "operator:type": "public", "operator:wikidata": "Q668687", "ref": "3468000006"}, "type": "Feature"}
{"geometry": {"coordinates": [-82.71534, 28.21907], "type": "Point"}, "id": "WCc3yLzq4aUhzyEzRnIdxQtGxCA=", "properties": {"@source_uri": "https://tools.usps.com/UspsToolsRestServices/rest/POLocator/findLocations", "@spider": "usps_collection_boxes", "addr:city": "ELFERS", "addr:country": "US", "addr:postcode": "34680", "addr:state": "FL", "addr:street_address": "4122 MADISON ST", "amenity": "post_box", "collection_times": "Mo-Fr 16:45; Sa 12:00", "indoor": "yes", "note": "ON 12/24 AND 12/31, THIS BOX MAY BE COLLECTED AS EARLY AS 12 NOON.", "nsi_id": "unitedstatespostalservice-a77078", "operator": "United States Postal Service", "operator:short": "USPS", "operator:type": "public", "operator:wikidata": "Q668687", "ref": "3468000007"}, "type": "Feature"}
{"geometry": {"coordinates": [-82.777865, 28.0912083], "type": "Point"}, "id": "WVgVDPBfXn8QR7wBIldWx0xWTSc=", "properties": {"@source_uri": "https://tools.usps.com/UspsToolsRestServices/rest/POLocator/findLocations", "@spider": "usps_collection_boxes", "addr:city": "CRYSTAL BEACH", "addr:country": "US", "addr:postcode": "34681", "addr:state": "FL", "addr:street_address": "420 CRYSTAL BEACH AVE", "amenity": "post_box", "collection_times": "Mo-Fr 16:00; Sa 11:00", "note": "ON 12/24 AND 12/31, THIS BOX MAY BE COLLECTED AS EARLY AS 12 NOON.", "nsi_id": "unitedstatespostalservice-a77078", "operator": "United States Postal Service", "operator:short": "USPS", "operator:type": "public", "operator:wikidata": "Q668687", "ref": "3468100001"}, "type": "Feature"}
{"geometry": {"coordinates": [-82.777865, 28.0912083], "type": "Point"}, "id": "vdIQHsgsPal8mZDDHAT6U0bv3os=", "properties": {"@source_uri": "https://tools.usps.com/UspsToolsRestServices/rest/POLocator/findLocations", "@spider": "usps_collection_boxes", "addr:city": "CRYSTAL BEACH", "addr:country": "US", "addr:postcode": "34681", "addr:state": "FL", "addr:street_address": "420 CRYSTAL BEACH AVE", "amenity": "post_box", "collection_times": "Mo-Fr 16:00", "indoor": "yes", "note": "ON 12/24 AND 12/31, THIS BOX MAY BE COLLECTED AS EARLY AS 12 NOON.", "nsi_id": "unitedstatespostalservice-a77078", "operator": "United States Postal Service", "operator:short": "USPS", "operator:type": "public", "operator:wikidata": "Q668687", "ref": "3468100004"}, "type": "Feature"}
{"geometry": {"coordinates": [-82.764015, 28.076725], "type": "Point"}, "id": "Frj2oKvmvOVde5QBmNy_fUZ_3lU=", "properties": {"@source_uri": "https://tools.usps.com/UspsToolsRestServices/rest/POLocator/findLocations", "@spider": "usps_collection_boxes", "addr:city": "PALM HARBOR", "addr:country": "US", "addr:postcode": "34683", "addr:state": "FL", "addr:street_address": "495 ALT 19", "amenity": "post_box", "collection_times": "Mo-Fr 17:00; Sa 15:00", "note": "ON 12/24 AND 12/31, THIS BOX MAY BE COLLECTED AS EARLY AS 12 NOON.", "nsi_id": "unitedstatespostalservice-a77078", "operator": "United States Postal Service", "operator:short": "USPS", "operator:type": "public", "operator:wikidata": "Q668687", "ref": "3468300001"}, "type": "Feature"}
{"geometry": {"coordinates": [-82.764015, 28.076725], "type": "Point"}, "id": "qwDx530a4Yk8v_dijCcd_KaSWvI=", "properties": {"@source_uri": "https://tools.usps.com/UspsToolsRestServices/rest/POLocator/findLocations", "@spider": "usps_collection_boxes", "addr:city": "PALM HARBOR", "addr:country": "US", "addr:postcode": "34683", "addr:state": "FL", "addr:street_address": "2710 ALT 19", "amenity": "post_box", "collection_times": "Mo-Sa 12:00", "nsi_id": "unitedstatespostalservice-a77078", "operator": "United States Postal Service", "operator:short": "USPS", "operator:type": "public", "operator:wikidata": "Q668687", "ref": "3468300035"}, "type": "Feature"}
{"geometry": {"coordinates": [-82.764015, 28.076725], "type": "Point"}, "id": "YpCGQUjnkO8SsQMptUyJGRjjnrE=", "properties": {"@source_uri": "https://tools.usps.com/UspsToolsRestServices/rest/POLocator/findLocations", "@spider": "usps_collection_boxes", "addr:city": "PALM HARBOR", "addr:country": "US", "addr:postcode": "34683", "addr:state": "FL", "addr:street_address": "495 ALT 19", "amenity": "post_box", "collection_times": "Mo-Fr 17:00; Sa 15:00", "name": "USPS COLLECTION BOX - APC", "note": "ON 12/24 AND 12/31, THIS BOX MAY BE COLLECTED AS EARLY AS 12 NOON.", "nsi_id": "unitedstatespostalservice-a77078", "operator": "United States Postal Service", "operator:short": "USPS", "operator:type": "public", "operator:wikidata": "Q668687", "ref": "3468300039"}, "type": "Feature"}
{"geometry": {"coordinates": [-82.764015, 28.076725], "type": "Point"}, "id": "UekysbGLkkp6HoseViy-61Ad3xE=", "properties": {"@source_uri": "https://tools.usps.com/UspsToolsRestServices/rest/POLocator/findLocations", "@spider": "usps_collection_boxes", "addr:city": "PALM HARBOR", "addr:country": "US", "addr:postcode": "34683", "addr:state": "FL", "addr:street_address": "495 ALT 19", "amenity": "post_box", "collection_times": "Mo-Fr 17:00", "indoor": "yes", "note": "ON 12/24 AND 12/31, THIS BOX MAY BE COLLECTED AS EARLY AS 12 NOON.", "nsi_id": "unitedstatespostalservice-a77078", "operator": "United States Postal Service", "operator:short": "USPS", "operator:type": "public", "operator:wikidata": "Q668687", "ref": "3468300041"}, "type": "Feature"}
{"geometry": {"coordinates": [-82.73189, 28.060485], "type": "Point"}, "id": "Xqe6V-IZJHnOldnP64jHphFYg7c=", "properties": {"@source_uri": "https://tools.usps.com/UspsToolsRestServices/rest/POLocator/findLocations", "@spider": "usps_collection_boxes", "addr:city": "PALM HARBOR", "addr:country": "US", "addr:postcode": "34684", "addr:state": "FL", "addr:street_address": "3382 TAMPA RD", "amenity": "post_box", "collection_times": "Mo-Sa 12:00", "nsi_id": "unitedstatespostalservice-a77078", "operator": "United States Postal Service", "operator:short": "USPS", "operator:type": "public", "operator:wikidata": "Q668687", "ref": "3468400001"}, "type": "Feature"}
{"geometry": {"coordinates": [-82.73189, 28.060485], "type": "Point"}, "id": "8-MJsTr1aoLXZZRHu1QFEUm6KH0=", "properties": {"@source_uri": "https://tools.usps.com/UspsToolsRestServices/rest/POLocator/findLocations", "@spider": "usps_collection_boxes", "addr:city": "PALM HARBOR", "addr:country": "US", "addr:postcode": "34684", "addr:state": "FL", "addr:street_address": "33195 US HIGHWAY 19 N", "amenity": "post_box", "collection_times": "Mo-Fr 14:00", "note": "ON 12/24 AND 12/31, THIS BOX MAY BE COLLECTED AS EARLY AS 12 NOON.", "nsi_id": "unitedstatespostalservice-a77078", "operator": "United States Postal Service", "operator:short": "USPS", "operator:type": "public", "operator:wikidata": "Q668687", "ref": "3468400005"}, "type": "Feature"}
{"geometry": {"coordinates": [-82.73189, 28.060485], "type": "Point"}, "id": "k2MhYqj9HGPYR5ZTm1Iot7b38pI=", "properties": {"@source_uri": "https://tools.usps.com/UspsToolsRestServices/rest/POLocator/findLocations", "@spider": "usps_collection_boxes", "addr:city": "PALM HARBOR", "addr:country": "US", "addr:postcode": "34684", "addr:state": "FL", "addr:street_address": "34650 US HIGHWAY 19 N", "amenity": "post_box", "collection_times": "Mo-Fr 12:30", "note": "ON 12/24 AND 12/31, THIS BOX MAY BE COLLECTED AS EARLY AS 12 NOON.", "nsi_id": "unitedstatespostalservice-a77078", "operator": "United States Postal Service", "operator:short": "USPS", "operator:type": "public", "operator:wikidata": "Q668687", "ref": "3468400008"}, "type": "Feature"}
{"geometry": {"coordinates": [-82.73189, 28.060485], "type": "Point"}, "id": "xmb6l7H6bGM9WE1P3chxIudLpRo=", "properties": {"@source_uri": "https://tools.usps.com/UspsToolsRestServices/rest/POLocator/findLocations", "@spider": "usps_collection_boxes", "addr:city": "PALM HARBOR", "addr:country": "US", "addr:postcode": "34684", "addr:state": "FL", "addr:street_address": "35176 US HIGHWAY 19 N", "amenity": "post_box", "collection_times": "Mo-Fr 12:30", "note": "ON 12/24 AND 12/31, THIS BOX MAY BE COLLECTED AS EARLY AS 12 NOON.", "nsi_id": "unitedstatespostalservice-a77078", "operator": "United States Postal Service", "operator:short": "USPS", "operator:type": "public", "operator:wikidata": "Q668687", "ref": "3468400010"}, "type": "Feature"}
{"geometry": {"coordinates": [-82.69412, 28.103235], "type": "Point"}, "id": "UpxlYhZQ9_4Yjwvs_mZM-MD_qEg=", "properties": {"@source_uri": "https://tools.usps.com/UspsToolsRestServices/rest/POLocator/findLocations", "@spider": "usps_collection_boxes", "addr:city": "PALM HARBOR", "addr:country": "US", "addr:postcode": "34685", "addr:state": "FL", "addr:street_address": "3438 EAST LAKE STE 14 RD", "amenity": "post_box", "collection_times": "Mo-Fr 13:30; Sa 12:00", "note": "ON 12/24 AND 12/31, THIS BOX MAY BE COLLECTED AS EARLY AS 12 NOON.", "nsi_id": "unitedstatespostalservice-a77078", "operator": "United States Postal Service", "operator:short": "USPS", "operator:type": "public", "operator:wikidata": "Q668687", "ref": "3468500000"}, "type": "Feature"}
{"geometry": {"coordinates": [-82.69412, 28.103235], "type": "Point"}, "id": "KGSpKJj4F_2CAOQJFaHMC9nZGWA=", "properties": {"@source_uri": "https://tools.usps.com/UspsToolsRestServices/rest/POLocator/findLocations", "@spider": "usps_collection_boxes", "addr:city": "PALM HARBOR", "addr:country": "US", "addr:postcode": "34685", "addr:state": "FL", "addr:street_address": "4114 WOODLANDS PKWY", "amenity": "post_box", "collection_times": "Mo-Fr 12:00", "nsi_id": "unitedstatespostalservice-a77078", "operator": "United States Postal Service", "operator:short": "USPS", "operator:type": "public", "operator:wikidata": "Q668687", "ref": "3468500001"}, "type": "Feature"}
{"geometry": {"coordinates": [-82.69412, 28.103235], "type": "Point"}, "id": "TPka_hyH1SXHTI-30Tr_abW48kY=", "properties": {"@source_uri": "https://tools.usps.com/UspsToolsRestServices/rest/POLocator/findLocations", "@spider": "usps_collection_boxes", "addr:city": "PALM HARBOR", "addr:country": "US", "addr:postcode": "34685", "addr:state": "FL", "addr:street_address": "3450 E LAKE RD", "amenity": "post_box", "collection_times": "Mo-Fr 13:30; Sa 12:00", "note": "ON 12/24 AND 12/31, THIS BOX MAY BE COLLECTED AS EARLY AS 12 NOON.", "nsi_id": "unitedstatespostalservice-a77078", "operator": "United States Postal Service", "operator:short": "USPS", "operator:type": "public", "operator:wikidata": "Q668687", "ref": "3468500003"}, "type": "Feature"}
{"geometry": {"coordinates": [-82.69412, 28.103235], "type": "Point"}, "id": "UiiVfhGI7LpHhwz5o46PtbSGxOk=", "properties": {"@source_uri": "https://tools.usps.com/UspsToolsRestServices/rest/POLocator/findLocations", "@spider": "usps_collection_boxes", "addr:city": "PALM HARBOR", "addr:country": "US", "addr:postcode": "34685", "addr:state": "FL", "addr:street_address": "36301 E LAKE RD", "amenity": "post_box", "collection_times": "Mo-Fr 12:30; Sa 12:00", "note": "ON 12/24 AND 12/31, THIS BOX MAY BE COLLECTED AS EARLY AS 12 NOON.", "nsi_id": "unitedstatespostalservice-a77078", "operator": "United States Postal Service", "operator:short": "USPS", "operator:type": "public", "operator:wikidata": "Q668687", "ref": "3468500007"}, "type": "Feature"}
{"geometry": {"coordinates": [-82.69412, 28.103235], "type": "Point"}, "id": "V-cd4PQDyGNRS_m57iSzWgLwIjs=", "properties": {"@source_uri": "https://tools.usps.com/UspsToolsRestServices/rest/POLocator/findLocations", "@spider": "usps_collection_boxes", "addr:city": "PALM HARBOR", "addr:country": "US", "addr:postcode": "34685", "addr:state": "FL", "addr:street_address": "334 E LAKE RD", "amenity": "post_box", "collection_times": "Mo-Fr 13:30; Sa 12:00", "note": "ON 12/24 AND 12/31, THIS BOX MAY BE COLLECTED AS EARLY AS 12 NOON.", "nsi_id": "unitedstatespostalservice-a77078", "operator": "United States Postal Service", "operator:short": "USPS", "operator:type": "public", "operator:wikidata": "Q668687", "ref": "3468500009"}, "type": "Feature"}
{"geometry": {"coordinates": [-82.753225, 28.14625], "type": "Point"}, "id": "VVCmKugatxJ5pWKFI_ICdg0NcLY=", "properties": {"@source_uri": "https://tools.usps.com/UspsToolsRestServices/rest/POLocator/findLocations", "@spider": "usps_collection_boxes", "addr:city": "TARPON SPRINGS", "addr:country": "US", "addr:postcode": "34689", "addr:state": "FL", "addr:street_address": "1 N PINELLAS AVE", "amenity": "post_box", "collection_times": "Mo-Fr 09:30", "nsi_id": "unitedstatespostalservice-a77078", "operator": "United States Postal Service", "operator:short": "USPS", "operator:type": "public", "operator:wikidata": "Q668687", "ref": "3468900002"}, "type": "Feature"}
{"geometry": {"coordinates": [-82.753225, 28.14625], "type": "Point"}, "id": "xnQMhBACjSx3nCjIqYc053DylUQ=", "properties": {"@source_uri": "https://tools.usps.com/UspsToolsRestServices/rest/POLocator/findLocations", "@spider": "usps_collection_boxes", "addr:city": "TARPON SPRINGS", "addr:country": "US", "addr:postcode": "34689", "addr:state": "FL", "addr:street_address": "850 E LIME ST", "amenity": "post_box", "collection_times": "Mo-Fr 17:00; Sa 16:30", "note": "ON 12/24 AND 12/31, THIS BOX MAY BE COLLECTED AS EARLY AS 12 NOON.", "nsi_id": "unitedstatespostalservice-a77078", "operator": "United States Postal Service", "operator:short": "USPS", "operator:type": "public", "operator:wikidata": "Q668687", "ref": "3468900006"}, "type": "Feature"}
{"geometry": {"coordinates": [-82.753225, 28.14625], "type": "Point"}, "id": "R-nkZ2fWc-rmPs_ZGddnx3RH_KM=", "properties": {"@source_uri": "https://tools.usps.com/UspsToolsRestServices/rest/POLocator/findLocations", "@spider": "usps_collection_boxes", "addr:city": "TARPON SPRINGS", "addr:country": "US", "addr:postcode": "34689", "addr:state": "FL", "addr:street_address": "850 E LIME ST", "amenity": "post_box", "collection_times": "Mo-Fr 17:00; Sa 16:30", "name": "USPS COLLECTION BOX - APC", "note": "ON 12/24 AND 12/31, THIS BOX MAY BE COLLECTED AS EARLY AS 12 NOON.", "nsi_id": "unitedstatespostalservice-a77078", "operator": "United States Postal Service", "operator:short": "USPS", "operator:type": "public", "operator:wikidata": "Q668687", "ref": "3468900046"}, "type": "Feature"}
{"geometry": {"coordinates": [-82.753225, 28.14625], "type": "Point"}, "id": "-dR3QAn87eYmmJVurxutnczJJVw=", "properties": {"@source_uri": "https://tools.usps.com/UspsToolsRestServices/rest/POLocator/findLocations", "@spider": "usps_collection_boxes", "addr:city": "TARPON SPRINGS", "addr:country": "US", "addr:postcode": "34689", "addr:state": "FL", "addr:street_address": "850 E LIME ST", "amenity": "post_box", "collection_times": "Mo-Fr 17:00", "indoor": "yes", "note": "ON 12/24 AND 12/31, THIS BOX MAY BE COLLECTED AS EARLY AS 12 NOON.", "nsi_id": "unitedstatespostalservice-a77078", "operator": "United States Postal Service", "operator:short": "USPS", "operator:type": "public", "operator:wikidata": "Q668687", "ref": "3468900050"}, "type": "Feature"}
{"geometry": {"coordinates": [-82.729625, 28.182625], "type": "Point"}, "id": "HHXi-gBSpMxpgI-gh8RexOU0iH4=", "properties": {"@source_uri": "https://tools.usps.com/UspsToolsRestServices/rest/POLocator/findLocations", "@spider": "usps_collection_boxes", "addr:city": "TARPON SPRINGS", "addr:country": "US", "addr:postcode": "34690", "addr:state": "FL", "addr:street_address": "4737 MILE STRETCH DR", "amenity": "post_box", "collection_times": "Mo-Fr 16:15; Sa 13:00", "note": "ON 12/24 AND 12/31, THIS BOX MAY BE COLLECTED AS EARLY AS 12 NOON.", "nsi_id": "unitedstatespostalservice-a77078", "operator": "United States Postal Service", "operator:short": "USPS", "operator:type": "public", "operator:wikidata": "Q668687", "ref": "3469000011"}, "type": "Feature"}
{"geometry": {"coordinates": [-82.729625, 28.182625], "type": "Point"}, "id": "eTHPc0L3gqFCE8pebablRcJevqY=", "properties": {"@source_uri": "https://tools.usps.com/UspsToolsRestServices/rest/POLocator/findLocations", "@spider": "usps_collection_boxes", "addr:city": "TARPON SPRINGS", "addr:country": "US", "addr:postcode": "34690", "addr:state": "FL", "addr:street_address": "4737 MILE STRETCH DR", "amenity": "post_box", "collection_times": "Mo-Fr 16:30", "indoor": "yes", "note": "ON 12/24 AND 12/31, THIS BOX MAY BE COLLECTED AS EARLY AS 12 NOON.", "nsi_id": "unitedstatespostalservice-a77078", "operator": "United States Postal Service", "operator:short": "USPS", "operator:type": "public", "operator:wikidata": "Q668687", "ref": "3469000029"}, "type": "Feature"}
{"geometry": {"coordinates": [-82.694775, 27.992655], "type": "Point"}, "id": "JP1Xf67XazcszmF714wyfCRF3_M=", "properties": {"@source_uri": "https://tools.usps.com/UspsToolsRestServices/rest/POLocator/findLocations", "@spider": "usps_collection_boxes", "addr:city": "SAFETY HARBOR", "addr:country": "US", "addr:postcode": "34695", "addr:state": "FL", "addr:street_address": "1703 N MCMULLEN BOOTH RD", "amenity": "post_box", "collection_times": "Mo-Fr 16:45; Sa 13:00", "indoor": "yes", "note": "ON 12/24 AND 12/31, THIS BOX MAY BE COLLECTED AS EARLY AS 12 NOON.", "nsi_id": "unitedstatespostalservice-a77078", "operator": "United States Postal Service", "operator:short": "USPS", "operator:type": "public", "operator:wikidata": "Q668687", "ref": "3469500010"}, "type": "Feature"}
{"geometry": {"coordinates": [-82.694775, 27.992655], "type": "Point"}, "id": "4gL5MCpanY9DXjeuIQHixdEStf0=", "properties": {"@source_uri": "https://tools.usps.com/UspsToolsRestServices/rest/POLocator/findLocations", "@spider": "usps_collection_boxes", "addr:city": "SAFETY HARBOR", "addr:country": "US", "addr:postcode": "34695", "addr:state": "FL", "addr:street_address": "690 MAIN STREET", "amenity": "post_box", "collection_times": "Mo-Sa 10:30", "nsi_id": "unitedstatespostalservice-a77078", "operator": "United States Postal Service", "operator:short": "USPS", "operator:type": "public", "operator:wikidata": "Q668687", "ref": "3469500012"}, "type": "Feature"}
{"geometry": {"coordinates": [-82.694775, 27.992655], "type": "Point"}, "id": "Q26bTU0n_kSKqKM_jhbppyIGW2A=", "properties": {"@source_uri": "https://tools.usps.com/UspsToolsRestServices/rest/POLocator/findLocations", "@spider": "usps_collection_boxes", "addr:city": "SAFETY HARBOR", "addr:country": "US", "addr:postcode": "34695", "addr:state": "FL", "addr:street_address": "737 MAIN ST", "amenity": "post_box", "collection_times": "Mo-Fr 12:30; Sa 11:30", "note": "ON 12/24 AND 12/31, THIS BOX MAY BE COLLECTED AS EARLY AS 12 NOON.", "nsi_id": "unitedstatespostalservice-a77078", "operator": "United States Postal Service", "operator:short": "USPS", "operator:type": "public", "operator:wikidata": "Q668687", "ref": "3469500013"}, "type": "Feature"}
{"geometry": {"coordinates": [-82.694775, 27.992655], "type": "Point"}, "id": "2zeiZKL-3qflzvSzSrAPLgP460Q=", "properties": {"@source_uri": "https://tools.usps.com/UspsToolsRestServices/rest/POLocator/findLocations", "@spider": "usps_collection_boxes", "addr:city": "SAFETY HARBOR", "addr:country": "US", "addr:postcode": "34695", "addr:state": "FL", "addr:street_address": "1703 N MCMULLEN BOOTH RD", "amenity": "post_box", "collection_times": "Mo-Fr 16:45", "indoor": "yes", "note": "ON 12/24 AND 12/31, THIS BOX MAY BE COLLECTED AS EARLY AS 12 NOON.", "nsi_id": "unitedstatespostalservice-a77078", "operator": "United States Postal Service", "operator:short": "USPS", "operator:type": "public", "operator:wikidata": "Q668687", "ref": "3469500014"}, "type": "Feature"}
{"geometry": {"coordinates": [-82.78528, 28.01137], "type": "Point"}, "id": "9SmRAe4ysex74p7IP_Gc2gR6nIc=", "properties": {"@source_uri": "https://tools.usps.com/UspsToolsRestServices/rest/POLocator/findLocations", "@spider": "usps_collection_boxes", "addr:city": "DUNEDIN", "addr:country": "US", "addr:postcode": "34698", "addr:state": "FL", "addr:street_address": "735 RAILROAD AVE E", "amenity": "post_box", "collection_times": "Mo-Sa 11:00", "nsi_id": "unitedstatespostalservice-a77078", "operator": "United States Postal Service", "operator:short": "USPS", "operator:type": "public", "operator:wikidata": "Q668687", "ref": "3469800004"}, "type": "Feature"}
{"geometry": {"coordinates": [-82.78528, 28.01137], "type": "Point"}, "id": "5RvdFiyjwT9EqEJvabIkt1d15u4=", "properties": {"@source_uri": "https://tools.usps.com/UspsToolsRestServices/rest/POLocator/findLocations", "@spider": "usps_collection_boxes", "addr:city": "DUNEDIN", "addr:country": "US", "addr:postcode": "34698", "addr:state": "FL", "addr:street_address": "1350 COUNTY ROAD 1", "amenity": "post_box", "collection_times": "Mo-Fr 17:00; Sa 15:00", "note": "ON 12/24 AND 12/31, THIS BOX MAY BE COLLECTED AS EARLY AS 12 NOON.", "nsi_id": "unitedstatespostalservice-a77078", "operator": "United States Postal Service", "operator:short": "USPS", "operator:type": "public", "operator:wikidata": "Q668687", "ref": "3469800011"}, "type": "Feature"}
{"geometry": {"coordinates": [-82.78528, 28.01137], "type": "Point"}, "id": "gg4IKQcFe2zZ-W5OZhEoo_k63hE=", "properties": {"@source_uri": "https://tools.usps.com/UspsToolsRestServices/rest/POLocator/findLocations", "@spider": "usps_collection_boxes", "addr:city": "DUNEDIN", "addr:country": "US", "addr:postcode": "34698", "addr:state": "FL", "addr:street_address": "1022 MAIN ST", "amenity": "post_box", "collection_times": "Mo-Fr 14:00; Sa 11:00", "note": "ON 12/24 AND 12/31, THIS BOX MAY BE COLLECTED AS EARLY AS 12 NOON.", "nsi_id": "unitedstatespostalservice-a77078", "operator": "United States Postal Service", "operator:short": "USPS", "operator:type": "public", "operator:wikidata": "Q668687", "ref": "3469800042"}, "type": "Feature"}
{"geometry": {"coordinates": [-82.78528, 28.01137], "type": "Point"}, "id": "rfnX3HFtmdTDPtMNgS1LmND7_1Y=", "properties": {"@source_uri": "https://tools.usps.com/UspsToolsRestServices/rest/POLocator/findLocations", "@spider": "usps_collection_boxes", "addr:city": "DUNEDIN", "addr:country": "US", "addr:postcode": "34698", "addr:state": "FL", "addr:street_address": "938 PATRICIA AVE", "amenity": "post_box", "collection_times": "Mo-Sa 11:00", "nsi_id": "unitedstatespostalservice-a77078", "operator": "United States Postal Service", "operator:short": "USPS", "operator:type": "public", "operator:wikidata": "Q668687", "ref": "3469800049"}, "type": "Feature"}
{"geometry": {"coordinates": [-82.78528, 28.01137], "type": "Point"}, "id": "LenqOyRFpFx_IN37O8mHtol0JRM=", "properties": {"@source_uri": "https://tools.usps.com/UspsToolsRestServices/rest/POLocator/findLocations", "@spider": "usps_collection_boxes", "addr:city": "DUNEDIN", "addr:country": "US", "addr:postcode": "34698", "addr:state": "FL", "addr:street_address": "542 MAIN ST", "amenity": "post_box", "collection_times": "Mo-Sa 11:00", "nsi_id": "unitedstatespostalservice-a77078", "operator": "United States Postal Service", "operator:short": "USPS", "operator:type": "public", "operator:wikidata": "Q668687", "ref": "3469800053"}, "type": "Feature"}
{"geometry": {"coordinates": [-82.78528, 28.01137], "type": "Point"}, "id": "_qMF_nLJShz-nTb0Pws8QNVnPn8=", "properties": {"@source_uri": "https://tools.usps.com/UspsToolsRestServices/rest/POLocator/findLocations", "@spider": "usps_collection_boxes", "addr:city": "DUNEDIN", "addr:country": "US", "addr:postcode": "34698", "addr:state": "FL", "addr:street_address": "1750 MAIN ST", "amenity": "post_box", "collection_times": "Mo-Sa 10:00", "nsi_id": "unitedstatespostalservice-a77078", "operator": "United States Postal Service", "operator:short": "USPS", "operator:type": "public", "operator:wikidata": "Q668687", "ref": "3469800054"}, "type": "Feature"}
{"geometry": {"coordinates": [-82.78528, 28.01137], "type": "Point"}, "id": "T55utdVCk0gOU9OlSdmPJk_NZ1U=", "properties": {"@source_uri": "https://tools.usps.com/UspsToolsRestServices/rest/POLocator/findLocations", "@spider": "usps_collection_boxes", "addr:city": "DUNEDIN", "addr:country": "US", "addr:postcode": "34698", "addr:state": "FL", "addr:street_address": "2323 CURLEW RD STE 7E", "amenity": "post_box", "collection_times": "Mo-Sa 11:00", "nsi_id": "unitedstatespostalservice-a77078", "operator": "United States Postal Service", "operator:short": "USPS", "operator:type": "public", "operator:wikidata": "Q668687", "ref": "3469800056"}, "type": "Feature"}
{"geometry": {"coordinates": [-82.78528, 28.01137], "type": "Point"}, "id": "Y6Gdtwbz2ZGG3j-2sjZsqhp8IMw=", "properties": {"@source_uri": "https://tools.usps.com/UspsToolsRestServices/rest/POLocator/findLocations", "@spider": "usps_collection_boxes", "addr:city": "DUNEDIN", "addr:country": "US", "addr:postcode": "34698", "addr:state": "FL", "addr:street_address": "1350 COUNTY ROAD 1", "amenity": "post_box", "collection_times": "Mo-Fr 17:00; Sa 15:00", "name": "USPS COLLECTION BOX - APC", "note": "ON 12/24 AND 12/31, THIS BOX MAY BE COLLECTED AS EARLY AS 12 NOON.", "nsi_id": "unitedstatespostalservice-a77078", "operator": "United States Postal Service", "operator:short": "USPS", "operator:type": "public", "operator:wikidata": "Q668687", "ref": "3469800057"}, "type": "Feature"}
{"geometry": {"coordinates": [-82.78528, 28.01137], "type": "Point"}, "id": "4joQGSYSBPu4nprLa2Fe66ldOrY=", "properties": {"@source_uri": "https://tools.usps.com/UspsToolsRestServices/rest/POLocator/findLocations", "@spider": "usps_collection_boxes", "addr:city": "DUNEDIN", "addr:country": "US", "addr:postcode": "34698", "addr:state": "FL", "addr:street_address": "1350 COUNTY ROAD 1", "amenity": "post_box", "collection_times": "Mo-Fr 17:00", "indoor": "yes", "note": "ON 12/24 AND 12/31, THIS BOX MAY BE COLLECTED AS EARLY AS 12 NOON.", "nsi_id": "unitedstatespostalservice-a77078", "operator": "United States Postal Service", "operator:short": "USPS", "operator:type": "public", "operator:wikidata": "Q668687", "ref": "3469800061"}, "type": "Feature"}
