{"geometry": {"coordinates": [-81.73312282, 28.720520361], "type": "Point"}, "id": "GjiXpajnCH4txG4cI_fopjmX9o0=", "properties": {"@source_uri": "https://tools.usps.com/UspsToolsRestServices/rest/POLocator/findLocations", "@spider": "usps_collection_boxes", "addr:city": "ASTATULA", "addr:country": "US", "addr:postcode": "34705", "addr:state": "FL", "addr:street_address": "25711 MONROE ST", "amenity": "post_box", "collection_times": "Mo-Fr 16:30; Sa 12:00", "note": "ON 12/24 AND 12/31, THIS BOX MAY BE COLLECTED AS EARLY AS 12 NOON.", "nsi_id": "unitedstatespostalservice-a77078", "operator": "United States Postal Service", "operator:short": "USPS", "operator:type": "public", "operator:wikidata": "Q668687", "ref": "3470500001"}, "type": "Feature"}
{"geometry": {"coordinates": [-81.73312282, 28.720520361], "type": "Point"}, "id": "BnyV7x59FfwmwGLdNFS_rzzXfog=", "properties": {"@source_uri": "https://tools.usps.com/UspsToolsRestServices/rest/POLocator/findLocations", "@spider": "usps_collection_boxes", "addr:city": "ASTATULA", "addr:country": "US", "addr:postcode": "34705", "addr:state": "FL", "addr:street_address": "25711 MONROE ST", "amenity": "post_box", "collection_times": "Mo-Fr 16:30; Sa 12:00", "indoor": "yes", "note": "ON 12/24 AND 12/31, THIS BOX MAY BE COLLECTED AS EARLY AS 12 NOON.", "nsi_id": "unitedstatespostalservice-a77078", "operator": "United States Postal Service", "operator:short": "USPS", "operator:type": "public", "operator:wikidata": "Q668687", "ref": "3470500004"}, "type": "Feature"}
{"geometry": {"coordinates": [-81.73312282, 28.720520361], "type": "Point"}, "id": "1GSmsGaIRNlCx-9aU1Pb00bGHWU=", "properties": {"@source_uri": "https://tools.usps.com/UspsToolsRestServices/rest/POLocator/findLocations", "@spider": "usps_collection_boxes", "addr:city": "ASTATULA", "addr:country": "US", "addr:postcode": "34705", "addr:state": "FL", "addr:street_address": "25711 MONROE ST", "amenity": "post_box", "collection_times": "Mo-Fr 16:30; Sa 12:00", "indoor": "yes", "note": "ON 12/24 AND 12/31, THIS BOX MAY BE COLLECTED AS EARLY AS 12 NOON.", "nsi_id": "unitedstatespostalservice-a77078", "operator": "United States Postal Service", "operator:short": "USPS", "operator:type": "public", "operator:wikidata": "Q668687", "ref": "3470500005"}, "type": "Feature"}
{"geometry": {"coordinates": [-81.7474115, 28.548967487], "type": "Point"}, "id": "3jH2rp-fpx2bZw4_PY8GTXzaYvI=", "properties": {"@source_uri": "https://tools.usps.com/UspsToolsRestServices/rest/POLocator/findLocations", "@spider": "usps_collection_boxes", "addr:city": "CLERMONT", "addr:country": "US", "addr:postcode": "34711", "addr:state": "FL", "addr:street_address": "660 E HIGHWAY 50", "amenity": "post_box", "collection_times": "Mo-Fr 16:30; Sa 13:00", "note": "ON 12/24 AND 12/31, THIS BOX MAY BE COLLECTED AS EARLY AS 12 NOON.", "nsi_id": "unitedstatespostalservice-a77078", "operator": "United States Postal Service", "operator:short": "USPS", "operator:type": "public", "operator:wikidata": "Q668687", "ref": "3471100002"}, "type": "Feature"}
{"geometry": {"coordinates": [-81.745216345, 28.547964303], "type": "Point"}, "id": "8UBt8QsXXHW1lGbyFlMLbLMFsrg=", "properties": {"@source_uri": "https://tools.usps.com/UspsToolsRestServices/rest/POLocator/findLocations", "@spider": "usps_collection_boxes", "addr:city": "CLERMONT", "addr:country": "US", "addr:postcode": "34711", "addr:state": "FL", "addr:street_address": "701 E HIGHWAY 50", "amenity": "post_box", "collection_times": "Mo-Fr 16:30; Sa 13:00", "note": "ON 12/24 AND 12/31, THIS BOX MAY BE COLLECTED AS EARLY AS 12 NOON.", "nsi_id": "unitedstatespostalservice-a77078", "operator": "United States Postal Service", "operator:short": "USPS", "operator:type": "public", "operator:wikidata": "Q668687", "ref": "3471100003"}, "type": "Feature"}
{"geometry": {"coordinates": [-81.676482052, 28.3542538104], "type": "Point"}, "id": "OYGvpzwIDIqImjoZ75f3pvhfzcg=", "properties": {"@source_uri": "https://tools.usps.com/UspsToolsRestServices/rest/POLocator/findLocations", "@spider": "usps_collection_boxes", "addr:city": "CLERMONT", "addr:country": "US", "addr:postcode": "34711", "addr:state": "FL", "addr:street_address": "550 US HIGHWAY 27", "amenity": "post_box", "collection_times": "Mo-Sa 12:00", "nsi_id": "unitedstatespostalservice-a77078", "operator": "United States Postal Service", "operator:short": "USPS", "operator:type": "public", "operator:wikidata": "Q668687", "ref": "3471100007"}, "type": "Feature"}
{"geometry": {"coordinates": [-81.657529048, 28.346913528], "type": "Point"}, "id": "EyxgvkCDy8wCV8g6dEmsnirfPlU=", "properties": {"@source_uri": "https://tools.usps.com/UspsToolsRestServices/rest/POLocator/findLocations", "@spider": "usps_collection_boxes", "addr:city": "CLERMONT", "addr:country": "US", "addr:postcode": "34711", "addr:state": "FL", "addr:street_address": "9000 US HIGHWAY 192", "amenity": "post_box", "collection_times": "Mo-Sa 10:30", "nsi_id": "unitedstatespostalservice-a77078", "operator": "United States Postal Service", "operator:short": "USPS", "operator:type": "public", "operator:wikidata": "Q668687", "ref": "3471100009"}, "type": "Feature"}
{"geometry": {"coordinates": [-81.744100773, 28.563869305], "type": "Point"}, "id": "hM62_CsOIi4P5NZ_0qOSzxARxrg=", "properties": {"@source_uri": "https://tools.usps.com/UspsToolsRestServices/rest/POLocator/findLocations", "@spider": "usps_collection_boxes", "addr:city": "CLERMONT", "addr:country": "US", "addr:postcode": "34711", "addr:state": "FL", "addr:street_address": "141 N HIGHWAY 27", "amenity": "post_box", "collection_times": "Mo-Fr 16:30; Sa 13:15", "note": "ON 12/24 AND 12/31, THIS BOX MAY BE COLLECTED AS EARLY AS 12 NOON.", "nsi_id": "unitedstatespostalservice-a77078", "operator": "United States Postal Service", "operator:short": "USPS", "operator:type": "public", "operator:wikidata": "Q668687", "ref": "3471100011"}, "type": "Feature"}
{"geometry": {"coordinates": [-81.77596246, 28.560111528], "type": "Point"}, "id": "Q1bvSUoKQwgksGBnWF2YrtmpV1o=", "properties": {"@source_uri": "https://tools.usps.com/UspsToolsRestServices/rest/POLocator/findLocations", "@spider": "usps_collection_boxes", "addr:city": "CLERMONT", "addr:country": "US", "addr:postcode": "34711", "addr:state": "FL", "addr:street_address": "200 12TH ST", "amenity": "post_box", "collection_times": "Mo-Sa 15:45", "note": "ON 12/24 AND 12/31, THIS BOX MAY BE COLLECTED AS EARLY AS 12 NOON.", "nsi_id": "unitedstatespostalservice-a77078", "operator": "United States Postal Service", "operator:short": "USPS", "operator:type": "public", "operator:wikidata": "Q668687", "ref": "3471100014"}, "type": "Feature"}
{"geometry": {"coordinates": [-81.7699905, 28.556275466], "type": "Point"}, "id": "XE3hxsB4N7jIwD6mOcQB6EkMKZU=", "properties": {"@source_uri": "https://tools.usps.com/UspsToolsRestServices/rest/POLocator/findLocations", "@spider": "usps_collection_boxes", "addr:city": "CLERMONT", "addr:country": "US", "addr:postcode": "34711", "addr:state": "FL", "addr:street_address": "877 W MINNEOLA AVE", "amenity": "post_box", "collection_times": "Mo-Fr 17:00; Sa 13:30", "note": "ON 12/24 AND 12/31, THIS BOX MAY BE COLLECTED AS EARLY AS 12 NOON.", "nsi_id": "unitedstatespostalservice-a77078", "operator": "United States Postal Service", "operator:short": "USPS", "operator:type": "public", "operator:wikidata": "Q668687", "ref": "3471100015"}, "type": "Feature"}
{"geometry": {"coordinates": [-81.738017288, 28.546876418], "type": "Point"}, "id": "3YRg4xTXoUPJXB4QfRXxqAUbCI0=", "properties": {"@source_uri": "https://tools.usps.com/UspsToolsRestServices/rest/POLocator/findLocations", "@spider": "usps_collection_boxes", "addr:city": "CLERMONT", "addr:country": "US", "addr:postcode": "34711", "addr:state": "FL", "addr:street_address": "1050 E HIGHWAY 50", "amenity": "post_box", "collection_times": "Mo-Fr 16:30; Sa 13:00", "note": "ON 12/24 AND 12/31, THIS BOX MAY BE COLLECTED AS EARLY AS 12 NOON.", "nsi_id": "unitedstatespostalservice-a77078", "operator": "United States Postal Service", "operator:short": "USPS", "operator:type": "public", "operator:wikidata": "Q668687", "ref": "3471100018"}, "type": "Feature"}
{"geometry": {"coordinates": [-81.680901726, 28.357142836], "type": "Point"}, "id": "PLNUBVygAqwBzTTtvas-smN1liQ=", "properties": {"@source_uri": "https://tools.usps.com/UspsToolsRestServices/rest/POLocator/findLocations", "@spider": "usps_collection_boxes", "addr:city": "CLERMONT", "addr:country": "US", "addr:postcode": "34711", "addr:state": "FL", "addr:street_address": "721 AVENIDA CUARTA", "amenity": "post_box", "collection_times": "Mo-Sa 11:30", "nsi_id": "unitedstatespostalservice-a77078", "operator": "United States Postal Service", "operator:short": "USPS", "operator:type": "public", "operator:wikidata": "Q668687", "ref": "3471100019"}, "type": "Feature"}
{"geometry": {"coordinates": [-81.7699905, 28.556275466], "type": "Point"}, "id": "hCCqaRX-czhTPwzfAfvH9F3peRA=", "properties": {"@source_uri": "https://tools.usps.com/UspsToolsRestServices/rest/POLocator/findLocations", "@spider": "usps_collection_boxes", "addr:city": "CLERMONT", "addr:country": "US", "addr:postcode": "34711", "addr:state": "FL", "addr:street_address": "877 W MINNEOLA AVE", "amenity": "post_box", "collection_times": "Mo-Fr 17:00; Sa 13:30", "indoor": "yes", "note": "ON 12/24 AND 12/31, THIS BOX MAY BE COLLECTED AS EARLY AS 12 NOON.", "nsi_id": "unitedstatespostalservice-a77078", "operator": "United States Postal Service", "operator:short": "USPS", "operator:type": "public", "operator:wikidata": "Q668687", "ref": "3471100020"}, "type": "Feature"}
{"geometry": {"coordinates": [-81.687860945, 28.375663141], "type": "Point"}, "id": "rvgbEKjz25bH6XF7GvLynIIfJ9k=", "properties": {"@source_uri": "https://tools.usps.com/UspsToolsRestServices/rest/POLocator/findLocations", "@spider": "usps_collection_boxes", "addr:city": "CLERMONT", "addr:country": "US", "addr:postcode": "34711", "addr:state": "FL", "addr:street_address": "16000 DORCHESTER BLVD", "amenity": "post_box", "collection_times": "Mo-Sa 12:00", "nsi_id": "unitedstatespostalservice-a77078", "operator": "United States Postal Service", "operator:short": "USPS", "operator:type": "public", "operator:wikidata": "Q668687", "ref": "3471100021"}, "type": "Feature"}
{"geometry": {"coordinates": [-81.745968296, 28.563161704], "type": "Point"}, "id": "mWXdLFq1jNu1KqiKZEVeamvaSPE=", "properties": {"@source_uri": "https://tools.usps.com/UspsToolsRestServices/rest/POLocator/findLocations", "@spider": "usps_collection_boxes", "addr:city": "CLERMONT", "addr:country": "US", "addr:postcode": "34711", "addr:state": "FL", "addr:street_address": "200 S BLOXAM AVE", "amenity": "post_box", "collection_times": "Mo-Fr 16:45; Sa 13:15", "note": "ON 12/24 AND 12/31, THIS BOX MAY BE COLLECTED AS EARLY AS 12 NOON.", "nsi_id": "unitedstatespostalservice-a77078", "operator": "United States Postal Service", "operator:short": "USPS", "operator:type": "public", "operator:wikidata": "Q668687", "ref": "3471100022"}, "type": "Feature"}
{"geometry": {"coordinates": [-81.718271721, 28.498889876], "type": "Point"}, "id": "Iav7zEq9CvaQRH7r3dHWrxk683U=", "properties": {"@source_uri": "https://tools.usps.com/UspsToolsRestServices/rest/POLocator/findLocations", "@spider": "usps_collection_boxes", "addr:city": "CLERMONT", "addr:country": "US", "addr:postcode": "34711", "addr:state": "FL", "addr:street_address": "4415 S HIGHWAY 27", "amenity": "post_box", "collection_times": "Mo-Sa 10:00", "nsi_id": "unitedstatespostalservice-a77078", "operator": "United States Postal Service", "operator:short": "USPS", "operator:type": "public", "operator:wikidata": "Q668687", "ref": "3471100024"}, "type": "Feature"}
{"geometry": {"coordinates": [-81.695160238, 28.547469], "type": "Point"}, "id": "OmxODLJ4YSVk3vIxYyjRgkMNlAc=", "properties": {"@source_uri": "https://tools.usps.com/UspsToolsRestServices/rest/POLocator/findLocations", "@spider": "usps_collection_boxes", "addr:city": "CLERMONT", "addr:country": "US", "addr:postcode": "34711", "addr:state": "FL", "addr:street_address": "13800 S GREATER HILLS BLVD", "amenity": "post_box", "collection_times": "Mo-Sa 14:00", "note": "ON 12/24 AND 12/31, THIS BOX MAY BE COLLECTED AS EARLY AS 12 NOON.", "nsi_id": "unitedstatespostalservice-a77078", "operator": "United States Postal Service", "operator:short": "USPS", "operator:type": "public", "operator:wikidata": "Q668687", "ref": "3471100025"}, "type": "Feature"}
{"geometry": {"coordinates": [-81.763384889, 28.514971286], "type": "Point"}, "id": "gHAgEajiaim-ohpUAtNkgGampwE=", "properties": {"@source_uri": "https://tools.usps.com/UspsToolsRestServices/rest/POLocator/findLocations", "@spider": "usps_collection_boxes", "addr:city": "CLERMONT", "addr:country": "US", "addr:postcode": "34711", "addr:state": "FL", "addr:street_address": "11525 KINGFISHER DR", "amenity": "post_box", "collection_times": "Mo-Sa 13:00", "note": "ON 12/24 AND 12/31, THIS BOX MAY BE COLLECTED AS EARLY AS 12 NOON.", "nsi_id": "unitedstatespostalservice-a77078", "operator": "United States Postal Service", "operator:short": "USPS", "operator:type": "public", "operator:wikidata": "Q668687", "ref": "3471100026"}, "type": "Feature"}
{"geometry": {"coordinates": [-81.742557916, 28.55107533], "type": "Point"}, "id": "yEVhIAzgwvU0iUM1jnnveehsIIU=", "properties": {"@source_uri": "https://tools.usps.com/UspsToolsRestServices/rest/POLocator/findLocations", "@spider": "usps_collection_boxes", "addr:city": "CLERMONT", "addr:country": "US", "addr:postcode": "34711", "addr:state": "FL", "addr:street_address": "1100 US HIGHWAY 27 STE F", "amenity": "post_box", "collection_times": "Mo-Fr 16:45; Sa 13:30", "indoor": "yes", "note": "ON 12/24 AND 12/31, THIS BOX MAY BE COLLECTED AS EARLY AS 12 NOON.", "nsi_id": "unitedstatespostalservice-a77078", "operator": "United States Postal Service", "operator:short": "USPS", "operator:type": "public", "operator:wikidata": "Q668687", "ref": "3471100027"}, "type": "Feature"}
{"geometry": {"coordinates": [-81.742557916, 28.55107533], "type": "Point"}, "id": "O3TM0z2PmfzfaFslybEjsN0b5Jg=", "properties": {"@source_uri": "https://tools.usps.com/UspsToolsRestServices/rest/POLocator/findLocations", "@spider": "usps_collection_boxes", "addr:city": "CLERMONT", "addr:country": "US", "addr:postcode": "34711", "addr:state": "FL", "addr:street_address": "1100 US HIGHWAY 27 STE F", "amenity": "post_box", "collection_times": "Mo-Fr 16:45; Sa 13:30", "indoor": "yes", "note": "ON 12/24 AND 12/31, THIS BOX MAY BE COLLECTED AS EARLY AS 12 NOON.", "nsi_id": "unitedstatespostalservice-a77078", "operator": "United States Postal Service", "operator:short": "USPS", "operator:type": "public", "operator:wikidata": "Q668687", "ref": "3471100029"}, "type": "Feature"}
{"geometry": {"coordinates": [-81.7699905, 28.556275466], "type": "Point"}, "id": "rPBtf1yqGCPLGycij92S3OCjM38=", "properties": {"@source_uri": "https://tools.usps.com/UspsToolsRestServices/rest/POLocator/findLocations", "@spider": "usps_collection_boxes", "addr:city": "CLERMONT", "addr:country": "US", "addr:postcode": "34711", "addr:state": "FL", "addr:street_address": "877 W MINNEOLA AVE", "amenity": "post_box", "collection_times": "Mo-Fr 17:00", "indoor": "yes", "note": "ON 12/24 AND 12/31, THIS BOX MAY BE COLLECTED AS EARLY AS 12 NOON.", "nsi_id": "unitedstatespostalservice-a77078", "operator": "United States Postal Service", "operator:short": "USPS", "operator:type": "public", "operator:wikidata": "Q668687", "ref": "3471100038"}, "type": "Feature"}
{"geometry": {"coordinates": [-81.742557916, 28.55107533], "type": "Point"}, "id": "2oOvZkHxWMSoD70SqlLKHU7n8SM=", "properties": {"@source_uri": "https://tools.usps.com/UspsToolsRestServices/rest/POLocator/findLocations", "@spider": "usps_collection_boxes", "addr:city": "CLERMONT", "addr:country": "US", "addr:postcode": "34711", "addr:state": "FL", "addr:street_address": "1100 US HIGHWAY 27 STE F", "amenity": "post_box", "collection_times": "Mo-Fr 18:00; Sa 14:00", "indoor": "yes", "note": "ON 12/24 AND 12/31, THIS BOX MAY BE COLLECTED AS EARLY AS 12 NOON.", "nsi_id": "unitedstatespostalservice-a77078", "operator": "United States Postal Service", "operator:short": "USPS", "operator:type": "public", "operator:wikidata": "Q668687", "ref": "3471100039"}, "type": "Feature"}
{"geometry": {"coordinates": [-81.907758168, 28.861481501], "type": "Point"}, "id": "_083_AOE6LsdULF6i5ZnDD9_Q0o=", "properties": {"@source_uri": "https://tools.usps.com/UspsToolsRestServices/rest/POLocator/findLocations", "@spider": "usps_collection_boxes", "addr:city": "FRUITLAND PARK", "addr:country": "US", "addr:postcode": "34731", "addr:state": "FL", "addr:street_address": "104 W MILLER ST", "amenity": "post_box", "collection_times": "Mo-Fr 17:00; Sa 14:15", "note": "ON 12/24 AND 12/31, THIS BOX MAY BE COLLECTED AS EARLY AS 12 NOON.", "nsi_id": "unitedstatespostalservice-a77078", "operator": "United States Postal Service", "operator:short": "USPS", "operator:type": "public", "operator:wikidata": "Q668687", "ref": "3473100002"}, "type": "Feature"}
{"geometry": {"coordinates": [-81.907758168, 28.861481501], "type": "Point"}, "id": "uaBlPTCXuD56RMl5xXJfd4l6V5s=", "properties": {"@source_uri": "https://tools.usps.com/UspsToolsRestServices/rest/POLocator/findLocations", "@spider": "usps_collection_boxes", "addr:city": "FRUITLAND PARK", "addr:country": "US", "addr:postcode": "34731", "addr:state": "FL", "addr:street_address": "104 W MILLER ST", "amenity": "post_box", "collection_times": "Mo-Fr 17:00; Sa 14:15", "indoor": "yes", "note": "ON 12/24 AND 12/31, THIS BOX MAY BE COLLECTED AS EARLY AS 12 NOON.", "nsi_id": "unitedstatespostalservice-a77078", "operator": "United States Postal Service", "operator:short": "USPS", "operator:type": "public", "operator:wikidata": "Q668687", "ref": "3473100003"}, "type": "Feature"}
{"geometry": {"coordinates": [-81.907758168, 28.861481501], "type": "Point"}, "id": "ia2zHz0HGdsA09QiWSs0xAmtNyc=", "properties": {"@source_uri": "https://tools.usps.com/UspsToolsRestServices/rest/POLocator/findLocations", "@spider": "usps_collection_boxes", "addr:city": "FRUITLAND PARK", "addr:country": "US", "addr:postcode": "34731", "addr:state": "FL", "addr:street_address": "104 W MILLER ST", "amenity": "post_box", "collection_times": "Mo-Fr 16:30", "indoor": "yes", "note": "ON 12/24 AND 12/31, THIS BOX MAY BE COLLECTED AS EARLY AS 12 NOON.", "nsi_id": "unitedstatespostalservice-a77078", "operator": "United States Postal Service", "operator:short": "USPS", "operator:type": "public", "operator:wikidata": "Q668687", "ref": "3473100007"}, "type": "Feature"}
{"geometry": {"coordinates": [-81.523488777, 28.52996953], "type": "Point"}, "id": "aMn0W6a5Jx0NOSCWuNqE-rVkOjE=", "properties": {"@source_uri": "https://tools.usps.com/UspsToolsRestServices/rest/POLocator/findLocations", "@spider": "usps_collection_boxes", "addr:city": "GOTHA", "addr:country": "US", "addr:postcode": "34734", "addr:state": "FL", "addr:street_address": "9907 8TH ST", "amenity": "post_box", "collection_times": "Mo-Fr 17:00; Sa 12:00", "note": "ON 12/24 AND 12/31, THIS BOX MAY BE COLLECTED AS EARLY AS 12 NOON.", "nsi_id": "unitedstatespostalservice-a77078", "operator": "United States Postal Service", "operator:short": "USPS", "operator:type": "public", "operator:wikidata": "Q668687", "ref": "3473400001"}, "type": "Feature"}
{"geometry": {"coordinates": [-81.517319921, 28.548668153], "type": "Point"}, "id": "gH9Pyd5ZT6NPUeeUAI9PQL4TJQI=", "properties": {"@source_uri": "https://tools.usps.com/UspsToolsRestServices/rest/POLocator/findLocations", "@spider": "usps_collection_boxes", "addr:city": "GOTHA", "addr:country": "US", "addr:postcode": "34734", "addr:state": "FL", "addr:street_address": "1450 CITRUS OAKS AVE", "amenity": "post_box", "collection_times": "Mo-Sa 11:00", "nsi_id": "unitedstatespostalservice-a77078", "operator": "United States Postal Service", "operator:short": "USPS", "operator:type": "public", "operator:wikidata": "Q668687", "ref": "3473400002"}, "type": "Feature"}
{"geometry": {"coordinates": [-81.523488777, 28.52996953], "type": "Point"}, "id": "Qurj74x9U6R9S7zMCeFMIOfKEjw=", "properties": {"@source_uri": "https://tools.usps.com/UspsToolsRestServices/rest/POLocator/findLocations", "@spider": "usps_collection_boxes", "addr:city": "GOTHA", "addr:country": "US", "addr:postcode": "34734", "addr:state": "FL", "addr:street_address": "9907 8TH ST", "amenity": "post_box", "collection_times": "Mo-Fr 17:00; Sa 12:00", "indoor": "yes", "note": "ON 12/24 AND 12/31, THIS BOX MAY BE COLLECTED AS EARLY AS 12 NOON.", "nsi_id": "unitedstatespostalservice-a77078", "operator": "United States Postal Service", "operator:short": "USPS", "operator:type": "public", "operator:wikidata": "Q668687", "ref": "3473400003"}, "type": "Feature"}
{"geometry": {"coordinates": [-81.523488777, 28.52996953], "type": "Point"}, "id": "bhcnUNQiJKflXrYyZccBsBknFIg=", "properties": {"@source_uri": "https://tools.usps.com/UspsToolsRestServices/rest/POLocator/findLocations", "@spider": "usps_collection_boxes", "addr:city": "GOTHA", "addr:country": "US", "addr:postcode": "34734", "addr:state": "FL", "addr:street_address": "9907 8TH ST", "amenity": "post_box", "collection_times": "Mo-Fr 17:00", "indoor": "yes", "note": "ON 12/24 AND 12/31, THIS BOX MAY BE COLLECTED AS EARLY AS 12 NOON.", "nsi_id": "unitedstatespostalservice-a77078", "operator": "United States Postal Service", "operator:short": "USPS", "operator:type": "public", "operator:wikidata": "Q668687", "ref": "3473400005"}, "type": "Feature"}
{"geometry": {"coordinates": [-81.857302506, 28.561377397], "type": "Point"}, "id": "L94JY8jWe9dnsBXcPuRLx4IFZIc=", "properties": {"@source_uri": "https://tools.usps.com/UspsToolsRestServices/rest/POLocator/findLocations", "@spider": "usps_collection_boxes", "addr:city": "GROVELAND", "addr:country": "US", "addr:postcode": "34736", "addr:state": "FL", "addr:street_address": "304 W BROAD ST", "amenity": "post_box", "collection_times": "Mo-Fr 17:00; Sa 16:30", "note": "ON 12/24 AND 12/31, THIS BOX MAY BE COLLECTED AS EARLY AS 12 NOON.", "nsi_id": "unitedstatespostalservice-a77078", "operator": "United States Postal Service", "operator:short": "USPS", "operator:type": "public", "operator:wikidata": "Q668687", "ref": "3473600001"}, "type": "Feature"}
{"geometry": {"coordinates": [-81.857763792, 28.560684851], "type": "Point"}, "id": "mFsJjVUP9YzXRghdzBLehBhN-CA=", "properties": {"@source_uri": "https://tools.usps.com/UspsToolsRestServices/rest/POLocator/findLocations", "@spider": "usps_collection_boxes", "addr:city": "GROVELAND", "addr:country": "US", "addr:postcode": "34736", "addr:state": "FL", "addr:street_address": "304 W ORANGE ST", "amenity": "post_box", "collection_times": "Mo-Fr 17:00; Sa 16:30", "note": "ON 12/24 AND 12/31, THIS BOX MAY BE COLLECTED AS EARLY AS 12 NOON.", "nsi_id": "unitedstatespostalservice-a77078", "operator": "United States Postal Service", "operator:short": "USPS", "operator:type": "public", "operator:wikidata": "Q668687", "ref": "3473600003"}, "type": "Feature"}
{"geometry": {"coordinates": [-81.857302506, 28.561377397], "type": "Point"}, "id": "AumQk-_weAiDEg9GniHfs34M0IU=", "properties": {"@source_uri": "https://tools.usps.com/UspsToolsRestServices/rest/POLocator/findLocations", "@spider": "usps_collection_boxes", "addr:city": "GROVELAND", "addr:country": "US", "addr:postcode": "34736", "addr:state": "FL", "addr:street_address": "304 W BROAD ST", "amenity": "post_box", "collection_times": "Mo-Fr 17:00; Sa 16:30", "indoor": "yes", "note": "ON 12/24 AND 12/31, THIS BOX MAY BE COLLECTED AS EARLY AS 12 NOON.", "nsi_id": "unitedstatespostalservice-a77078", "operator": "United States Postal Service", "operator:short": "USPS", "operator:type": "public", "operator:wikidata": "Q668687", "ref": "3473600005"}, "type": "Feature"}
{"geometry": {"coordinates": [-81.857302506, 28.561377397], "type": "Point"}, "id": "6DOY8RW64Tnk8KLlgosuHQyH714=", "properties": {"@source_uri": "https://tools.usps.com/UspsToolsRestServices/rest/POLocator/findLocations", "@spider": "usps_collection_boxes", "addr:city": "GROVELAND", "addr:country": "US", "addr:postcode": "34736", "addr:state": "FL", "addr:street_address": "304 W BROAD ST", "amenity": "post_box", "collection_times": "Mo-Fr 16:30", "indoor": "yes", "note": "ON 12/24 AND 12/31, THIS BOX MAY BE COLLECTED AS EARLY AS 12 NOON.", "nsi_id": "unitedstatespostalservice-a77078", "operator": "United States Postal Service", "operator:short": "USPS", "operator:type": "public", "operator:wikidata": "Q668687", "ref": "3473600007"}, "type": "Feature"}
{"geometry": {"coordinates": [-81.77481859, 28.71265669], "type": "Point"}, "id": "ptZSTBO9w8RagcLpHzBGH6gDqfU=", "properties": {"@source_uri": "https://tools.usps.com/UspsToolsRestServices/rest/POLocator/findLocations", "@spider": "usps_collection_boxes", "addr:city": "HOWEY IN HLS", "addr:country": "US", "addr:postcode": "34737", "addr:state": "FL", "addr:street_address": "105 S FLORIDA AVE", "amenity": "post_box", "collection_times": "Mo-Fr 17:00; Sa 11:00", "note": "ON 12/24 AND 12/31, THIS BOX MAY BE COLLECTED AS EARLY AS 12 NOON.", "nsi_id": "unitedstatespostalservice-a77078", "operator": "United States Postal Service", "operator:short": "USPS", "operator:type": "public", "operator:wikidata": "Q668687", "ref": "3473700001"}, "type": "Feature"}
{"geometry": {"coordinates": [-81.77481859, 28.71265669], "type": "Point"}, "id": "SP_53zwCvsqxh_ojE3BhsQB9W1U=", "properties": {"@source_uri": "https://tools.usps.com/UspsToolsRestServices/rest/POLocator/findLocations", "@spider": "usps_collection_boxes", "addr:city": "HOWEY IN HLS", "addr:country": "US", "addr:postcode": "34737", "addr:state": "FL", "addr:street_address": "105 S FLORIDA AVE", "amenity": "post_box", "collection_times": "Mo-Fr 16:15; Sa 11:00", "indoor": "yes", "note": "ON 12/24 AND 12/31, THIS BOX MAY BE COLLECTED AS EARLY AS 12 NOON.", "nsi_id": "unitedstatespostalservice-a77078", "operator": "United States Postal Service", "operator:short": "USPS", "operator:type": "public", "operator:wikidata": "Q668687", "ref": "3473700002"}, "type": "Feature"}
{"geometry": {"coordinates": [-81.77481859, 28.71265669], "type": "Point"}, "id": "AQccjKH62gj7qspuNSs5oGDqnVw=", "properties": {"@source_uri": "https://tools.usps.com/UspsToolsRestServices/rest/POLocator/findLocations", "@spider": "usps_collection_boxes", "addr:city": "HOWEY IN HLS", "addr:country": "US", "addr:postcode": "34737", "addr:state": "FL", "addr:street_address": "105 S FLORIDA AVE", "amenity": "post_box", "collection_times": "Mo-Fr 16:15; Sa 11:00", "indoor": "yes", "note": "ON 12/24 AND 12/31, THIS BOX MAY BE COLLECTED AS EARLY AS 12 NOON.", "nsi_id": "unitedstatespostalservice-a77078", "operator": "United States Postal Service", "operator:short": "USPS", "operator:type": "public", "operator:wikidata": "Q668687", "ref": "3473700003"}, "type": "Feature"}
{"geometry": {"coordinates": [-81.77481859, 28.71265669], "type": "Point"}, "id": "2b29NHEoyMrwKD76M7L65mpTtf4=", "properties": {"@source_uri": "https://tools.usps.com/UspsToolsRestServices/rest/POLocator/findLocations", "@spider": "usps_collection_boxes", "addr:city": "HOWEY IN HLS", "addr:country": "US", "addr:postcode": "34737", "addr:state": "FL", "addr:street_address": "105 S FLORIDA AVE", "amenity": "post_box", "collection_times": "Mo-Fr 16:30; Sa 11:00", "indoor": "yes", "note": "ON 12/24 AND 12/31, THIS BOX MAY BE COLLECTED AS EARLY AS 12 NOON.", "nsi_id": "unitedstatespostalservice-a77078", "operator": "United States Postal Service", "operator:short": "USPS", "operator:type": "public", "operator:wikidata": "Q668687", "ref": "3473700004"}, "type": "Feature"}
{"geometry": {"coordinates": [-81.04123, 27.87507], "type": "Point"}, "id": "CTHG3DIBoS8bFIPmqPT_WpqYB8M=", "properties": {"@source_uri": "https://tools.usps.com/UspsToolsRestServices/rest/POLocator/findLocations", "@spider": "usps_collection_boxes", "addr:city": "KENANSVILLE", "addr:country": "US", "addr:postcode": "34739", "addr:state": "FL", "addr:street_address": "140 N KENANSVILLE RD", "amenity": "post_box", "collection_times": "Mo-Fr 13:00; Sa 11:00", "note": "ON 12/24 AND 12/31, THIS BOX MAY BE COLLECTED AS EARLY AS 12 NOON.", "nsi_id": "unitedstatespostalservice-a77078", "operator": "United States Postal Service", "operator:short": "USPS", "operator:type": "public", "operator:wikidata": "Q668687", "ref": "3473900001"}, "type": "Feature"}
{"geometry": {"coordinates": [-81.04123, 27.87507], "type": "Point"}, "id": "NCTiqKdnQ7_6BOXd-8JtahZNASY=", "properties": {"@source_uri": "https://tools.usps.com/UspsToolsRestServices/rest/POLocator/findLocations", "@spider": "usps_collection_boxes", "addr:city": "KENANSVILLE", "addr:country": "US", "addr:postcode": "34739", "addr:state": "FL", "addr:street_address": "140 N KENANSVILLE RD", "amenity": "post_box", "collection_times": "Mo-Fr 13:00; Sa 11:00", "indoor": "yes", "note": "ON 12/24 AND 12/31, THIS BOX MAY BE COLLECTED AS EARLY AS 12 NOON.", "nsi_id": "unitedstatespostalservice-a77078", "operator": "United States Postal Service", "operator:short": "USPS", "operator:type": "public", "operator:wikidata": "Q668687", "ref": "3473900002"}, "type": "Feature"}
{"geometry": {"coordinates": [-81.04123, 27.87507], "type": "Point"}, "id": "cVcOhcS1cj7soI-S1isra2N_TFc=", "properties": {"@source_uri": "https://tools.usps.com/UspsToolsRestServices/rest/POLocator/findLocations", "@spider": "usps_collection_boxes", "addr:city": "KENANSVILLE", "addr:country": "US", "addr:postcode": "34739", "addr:state": "FL", "addr:street_address": "140 N KENANSVILLE RD", "amenity": "post_box", "collection_times": "Mo-Fr 13:00", "indoor": "yes", "note": "ON 12/24 AND 12/31, THIS BOX MAY BE COLLECTED AS EARLY AS 12 NOON.", "nsi_id": "unitedstatespostalservice-a77078", "operator": "United States Postal Service", "operator:short": "USPS", "operator:type": "public", "operator:wikidata": "Q668687", "ref": "3473900004"}, "type": "Feature"}
{"geometry": {"coordinates": [-81.410859723, 28.290795521], "type": "Point"}, "id": "Q1yArqxIN8vsCJFdOe7IiZ7ZwmU=", "properties": {"@source_uri": "https://tools.usps.com/UspsToolsRestServices/rest/POLocator/findLocations", "@spider": "usps_collection_boxes", "addr:city": "KISSIMMEE", "addr:country": "US", "addr:postcode": "34741", "addr:state": "FL", "addr:street_address": "2 COURTHOUSE SQ", "amenity": "post_box", "collection_times": "Mo-Fr 15:15; Sa 14:00", "note": "ON 12/24 AND 12/31, THIS BOX MAY BE COLLECTED AS EARLY AS 12 NOON.", "nsi_id": "unitedstatespostalservice-a77078", "operator": "United States Postal Service", "operator:short": "USPS", "operator:type": "public", "operator:wikidata": "Q668687", "ref": "3474100006"}, "type": "Feature"}
{"geometry": {"coordinates": [-81.437409, 28.304591519], "type": "Point"}, "id": "CABE-0l8sW7ojOWh4lZ4MpB5Nd8=", "properties": {"@source_uri": "https://tools.usps.com/UspsToolsRestServices/rest/POLocator/findLocations", "@spider": "usps_collection_boxes", "addr:city": "KISSIMMEE", "addr:country": "US", "addr:postcode": "34741", "addr:state": "FL", "addr:street_address": "3357 W VINE ST", "amenity": "post_box", "collection_times": "Mo-Sa 13:30", "note": "ON 12/24 AND 12/31, THIS BOX MAY BE COLLECTED AS EARLY AS 12 NOON.", "nsi_id": "unitedstatespostalservice-a77078", "operator": "United States Postal Service", "operator:short": "USPS", "operator:type": "public", "operator:wikidata": "Q668687", "ref": "3474100015"}, "type": "Feature"}
{"geometry": {"coordinates": [-81.406021332, 28.317570461], "type": "Point"}, "id": "yyygDZzAhzM9OuswOlHQfr0WO5A=", "properties": {"@source_uri": "https://tools.usps.com/UspsToolsRestServices/rest/POLocator/findLocations", "@spider": "usps_collection_boxes", "addr:city": "KISSIMMEE", "addr:country": "US", "addr:postcode": "34741", "addr:state": "FL", "addr:street_address": "201 HILDA ST", "amenity": "post_box", "collection_times": "Mo-Sa 12:00", "nsi_id": "unitedstatespostalservice-a77078", "operator": "United States Postal Service", "operator:short": "USPS", "operator:type": "public", "operator:wikidata": "Q668687", "ref": "3474100016"}, "type": "Feature"}
{"geometry": {"coordinates": [-81.406870694, 28.294346974], "type": "Point"}, "id": "C-3XRXWLk-0MzSZNg9xHZ5UIJoc=", "properties": {"@source_uri": "https://tools.usps.com/UspsToolsRestServices/rest/POLocator/findLocations", "@spider": "usps_collection_boxes", "addr:city": "KISSIMMEE", "addr:country": "US", "addr:postcode": "34741", "addr:state": "FL", "addr:street_address": "101 CHURCH ST", "amenity": "post_box", "collection_times": "Mo-Fr 15:30; Sa 12:00", "note": "ON 12/24 AND 12/31, THIS BOX MAY BE COLLECTED AS EARLY AS 12 NOON.", "nsi_id": "unitedstatespostalservice-a77078", "operator": "United States Postal Service", "operator:short": "USPS", "operator:type": "public", "operator:wikidata": "Q668687", "ref": "3474100020"}, "type": "Feature"}
{"geometry": {"coordinates": [-81.43817073, 28.31022154], "type": "Point"}, "id": "hJD7JZWksyfGkO7JwDIZSwHAyeQ=", "properties": {"@source_uri": "https://tools.usps.com/UspsToolsRestServices/rest/POLocator/findLocations", "@spider": "usps_collection_boxes", "addr:city": "KISSIMMEE", "addr:country": "US", "addr:postcode": "34741", "addr:state": "FL", "addr:street_address": "3503 BONAIRE BLVD", "amenity": "post_box", "collection_times": "Mo-Sa 15:00", "note": "ON 12/24 AND 12/31, THIS BOX MAY BE COLLECTED AS EARLY AS 12 NOON.", "nsi_id": "unitedstatespostalservice-a77078", "operator": "United States Postal Service", "operator:short": "USPS", "operator:type": "public", "operator:wikidata": "Q668687", "ref": "3474100027"}, "type": "Feature"}
{"geometry": {"coordinates": [-81.416191718, 28.295199251], "type": "Point"}, "id": "6Ux3Vt1vidkwvzzao4YXUhK1c7Y=", "properties": {"@source_uri": "https://tools.usps.com/UspsToolsRestServices/rest/POLocator/findLocations", "@spider": "usps_collection_boxes", "addr:city": "KISSIMMEE", "addr:country": "US", "addr:postcode": "34741", "addr:state": "FL", "addr:street_address": "316 N JOHN YOUNG PKWY", "amenity": "post_box", "collection_times": "Mo-Sa 12:00", "nsi_id": "unitedstatespostalservice-a77078", "operator": "United States Postal Service", "operator:short": "USPS", "operator:type": "public", "operator:wikidata": "Q668687", "ref": "3474100028"}, "type": "Feature"}
{"geometry": {"coordinates": [-81.410372277, 28.300858519], "type": "Point"}, "id": "DBDsh0m0ryP8K8HdWW7FsZnreIw=", "properties": {"@source_uri": "https://tools.usps.com/UspsToolsRestServices/rest/POLocator/findLocations", "@spider": "usps_collection_boxes", "addr:city": "KISSIMMEE", "addr:country": "US", "addr:postcode": "34741", "addr:state": "FL", "addr:street_address": "720 W OAK ST", "amenity": "post_box", "collection_times": "Mo-Fr 13:30; Sa 11:00", "note": "ON 12/24 AND 12/31, THIS BOX MAY BE COLLECTED AS EARLY AS 12 NOON.", "nsi_id": "unitedstatespostalservice-a77078", "operator": "United States Postal Service", "operator:short": "USPS", "operator:type": "public", "operator:wikidata": "Q668687", "ref": "3474100029"}, "type": "Feature"}
{"geometry": {"coordinates": [-81.436619224, 28.280421639], "type": "Point"}, "id": "Wrmdp9U8DB5cHdyFyarhMAIyRaI=", "properties": {"@source_uri": "https://tools.usps.com/UspsToolsRestServices/rest/POLocator/findLocations", "@spider": "usps_collection_boxes", "addr:city": "KISSIMMEE", "addr:country": "US", "addr:postcode": "34741", "addr:state": "FL", "addr:street_address": "1080 S HOAGLAND BLVD", "amenity": "post_box", "collection_times": "Mo-Sa 13:00", "note": "ON 12/24 AND 12/31, THIS BOX MAY BE COLLECTED AS EARLY AS 12 NOON.", "nsi_id": "unitedstatespostalservice-a77078", "operator": "United States Postal Service", "operator:short": "USPS", "operator:type": "public", "operator:wikidata": "Q668687", "ref": "3474100030"}, "type": "Feature"}
{"geometry": {"coordinates": [-81.405634315, 28.314040989], "type": "Point"}, "id": "PiCeFqkkVlQcx8zdk-mUbiLLXLQ=", "properties": {"@source_uri": "https://tools.usps.com/UspsToolsRestServices/rest/POLocator/findLocations", "@spider": "usps_collection_boxes", "addr:city": "KISSIMMEE", "addr:country": "US", "addr:postcode": "34741", "addr:state": "FL", "addr:street_address": "102 PARK PLACE BLVD", "amenity": "post_box", "collection_times": "Mo-Fr 13:30; Sa 10:00", "note": "ON 12/24 AND 12/31, THIS BOX MAY BE COLLECTED AS EARLY AS 12 NOON.", "nsi_id": "unitedstatespostalservice-a77078", "operator": "United States Postal Service", "operator:short": "USPS", "operator:type": "public", "operator:wikidata": "Q668687", "ref": "3474100032"}, "type": "Feature"}
{"geometry": {"coordinates": [-81.418539777, 28.300871479], "type": "Point"}, "id": "b-_uYJZf3XWYc4ItetaKY7G4KEY=", "properties": {"@source_uri": "https://tools.usps.com/UspsToolsRestServices/rest/POLocator/findLocations", "@spider": "usps_collection_boxes", "addr:city": "KISSIMMEE", "addr:country": "US", "addr:postcode": "34741", "addr:state": "FL", "addr:street_address": "1415 W OAK ST", "amenity": "post_box", "collection_times": "Mo-Fr 17:00; Sa 16:00", "indoor": "yes", "note": "ON 12/24 AND 12/31, THIS BOX MAY BE COLLECTED AS EARLY AS 12 NOON.", "nsi_id": "unitedstatespostalservice-a77078", "operator": "United States Postal Service", "operator:short": "USPS", "operator:type": "public", "operator:wikidata": "Q668687", "ref": "3474100035"}, "type": "Feature"}
{"geometry": {"coordinates": [-81.418539777, 28.300871479], "type": "Point"}, "id": "XuWbharpPhqQgxeL0_rm_OaBMy4=", "properties": {"@source_uri": "https://tools.usps.com/UspsToolsRestServices/rest/POLocator/findLocations", "@spider": "usps_collection_boxes", "addr:city": "KISSIMMEE", "addr:country": "US", "addr:postcode": "34741", "addr:state": "FL", "addr:street_address": "1415 W OAK ST", "amenity": "post_box", "collection_times": "Mo-Fr 17:00; Sa 16:00", "note": "ON 12/24 AND 12/31, THIS BOX MAY BE COLLECTED AS EARLY AS 12 NOON.", "nsi_id": "unitedstatespostalservice-a77078", "operator": "United States Postal Service", "operator:short": "USPS", "operator:type": "public", "operator:wikidata": "Q668687", "ref": "3474100039"}, "type": "Feature"}
{"geometry": {"coordinates": [-81.404809764, 28.289984464], "type": "Point"}, "id": "1eGohy0lJYs7b69MhXG3rtzJcpI=", "properties": {"@source_uri": "https://tools.usps.com/UspsToolsRestServices/rest/POLocator/findLocations", "@spider": "usps_collection_boxes", "addr:city": "KISSIMMEE", "addr:country": "US", "addr:postcode": "34741", "addr:state": "FL", "addr:street_address": "220 LAKESHORE BLVD", "amenity": "post_box", "collection_times": "Mo-Fr 13:00; Sa 12:00", "note": "ON 12/24 AND 12/31, THIS BOX MAY BE COLLECTED AS EARLY AS 12 NOON.", "nsi_id": "unitedstatespostalservice-a77078", "operator": "United States Postal Service", "operator:short": "USPS", "operator:type": "public", "operator:wikidata": "Q668687", "ref": "3474100041"}, "type": "Feature"}
{"geometry": {"coordinates": [-81.406620562, 28.292940797], "type": "Point"}, "id": "w4hHmLbwQ20QQUqEImwJzFTbmTE=", "properties": {"@source_uri": "https://tools.usps.com/UspsToolsRestServices/rest/POLocator/findLocations", "@spider": "usps_collection_boxes", "addr:city": "KISSIMMEE", "addr:country": "US", "addr:postcode": "34741", "addr:state": "FL", "addr:street_address": "114 BROADWAY", "amenity": "post_box", "collection_times": "Mo-Fr 13:00; Sa 12:00", "note": "ON 12/24 AND 12/31, THIS BOX MAY BE COLLECTED AS EARLY AS 12 NOON.", "nsi_id": "unitedstatespostalservice-a77078", "operator": "United States Postal Service", "operator:short": "USPS", "operator:type": "public", "operator:wikidata": "Q668687", "ref": "3474100042"}, "type": "Feature"}
{"geometry": {"coordinates": [-81.418539777, 28.300871479], "type": "Point"}, "id": "LqFg6w_a7BcBKUruHeU1oLKTcQw=", "properties": {"@source_uri": "https://tools.usps.com/UspsToolsRestServices/rest/POLocator/findLocations", "@spider": "usps_collection_boxes", "addr:city": "KISSIMMEE", "addr:country": "US", "addr:postcode": "34741", "addr:state": "FL", "addr:street_address": "1415 W OAK ST", "amenity": "post_box", "collection_times": "Mo-Fr 17:00; Sa 16:00", "indoor": "yes", "note": "ON 12/24 AND 12/31, THIS BOX MAY BE COLLECTED AS EARLY AS 12 NOON.", "nsi_id": "unitedstatespostalservice-a77078", "operator": "United States Postal Service", "operator:short": "USPS", "operator:type": "public", "operator:wikidata": "Q668687", "ref": "3474100044"}, "type": "Feature"}
{"geometry": {"coordinates": [-81.418539777, 28.300871479], "type": "Point"}, "id": "xfm2MRoJVzIOAOTG_EnjODfilaE=", "properties": {"@source_uri": "https://tools.usps.com/UspsToolsRestServices/rest/POLocator/findLocations", "@spider": "usps_collection_boxes", "addr:city": "KISSIMMEE", "addr:country": "US", "addr:postcode": "34741", "addr:state": "FL", "addr:street_address": "1415 W OAK ST", "amenity": "post_box", "collection_times": "Mo-Fr 17:00; Sa 16:00", "name": "USPS COLLECTION BOX - APC", "note": "ON 12/24 AND 12/31, THIS BOX MAY BE COLLECTED AS EARLY AS 12 NOON.", "nsi_id": "unitedstatespostalservice-a77078", "operator": "United States Postal Service", "operator:short": "USPS", "operator:type": "public", "operator:wikidata": "Q668687", "ref": "3474100045"}, "type": "Feature"}
{"geometry": {"coordinates": [-81.418539777, 28.300871479], "type": "Point"}, "id": "JuIKZHc7MNGxwUM2_sqtgN2pkVc=", "properties": {"@source_uri": "https://tools.usps.com/UspsToolsRestServices/rest/POLocator/findLocations", "@spider": "usps_collection_boxes", "addr:city": "KISSIMMEE", "addr:country": "US", "addr:postcode": "34741", "addr:state": "FL", "addr:street_address": "1415 W OAK ST", "amenity": "post_box", "collection_times": "Mo-Fr 17:00", "indoor": "yes", "note": "ON 12/24 AND 12/31, THIS BOX MAY BE COLLECTED AS EARLY AS 12 NOON.", "nsi_id": "unitedstatespostalservice-a77078", "operator": "United States Postal Service", "operator:short": "USPS", "operator:type": "public", "operator:wikidata": "Q668687", "ref": "3474100050"}, "type": "Feature"}
{"geometry": {"coordinates": [-81.352605077, 28.327377093], "type": "Point"}, "id": "AaMgTE4Eltfc21t47tArtlXTDWw=", "properties": {"@source_uri": "https://tools.usps.com/UspsToolsRestServices/rest/POLocator/findLocations", "@spider": "usps_collection_boxes", "addr:city": "KISSIMMEE", "addr:country": "US", "addr:postcode": "34743", "addr:state": "FL", "addr:street_address": "503 FLORIDA PKWY", "amenity": "post_box", "collection_times": "Mo-Fr 14:45; Sa 13:45", "note": "ON 12/24 AND 12/31, THIS BOX MAY BE COLLECTED AS EARLY AS 12 NOON.", "nsi_id": "unitedstatespostalservice-a77078", "operator": "United States Postal Service", "operator:short": "USPS", "operator:type": "public", "operator:wikidata": "Q668687", "ref": "3474300006"}, "type": "Feature"}
{"geometry": {"coordinates": [-81.352605077, 28.327377093], "type": "Point"}, "id": "GUXT0diRau8x_gC1Y32EXj3Eo-s=", "properties": {"@source_uri": "https://tools.usps.com/UspsToolsRestServices/rest/POLocator/findLocations", "@spider": "usps_collection_boxes", "addr:city": "KISSIMMEE", "addr:country": "US", "addr:postcode": "34743", "addr:state": "FL", "addr:street_address": "503 FLORIDA PKWY", "amenity": "post_box", "collection_times": "Mo-Fr 15:00", "indoor": "yes", "note": "ON 12/24 AND 12/31, THIS BOX MAY BE COLLECTED AS EARLY AS 12 NOON.", "nsi_id": "unitedstatespostalservice-a77078", "operator": "United States Postal Service", "operator:short": "USPS", "operator:type": "public", "operator:wikidata": "Q668687", "ref": "3474300008"}, "type": "Feature"}
{"geometry": {"coordinates": [-81.377647875, 28.302717161], "type": "Point"}, "id": "3oDo5yqQaLTcNGcwKtP0MmA4Tlc=", "properties": {"@source_uri": "https://tools.usps.com/UspsToolsRestServices/rest/POLocator/findLocations", "@spider": "usps_collection_boxes", "addr:city": "KISSIMMEE", "addr:country": "US", "addr:postcode": "34744", "addr:state": "FL", "addr:street_address": "1633 E VINE ST", "amenity": "post_box", "collection_times": "Mo-Fr 15:30; Sa 14:00", "note": "ON 12/24 AND 12/31, THIS BOX MAY BE COLLECTED AS EARLY AS 12 NOON.", "nsi_id": "unitedstatespostalservice-a77078", "operator": "United States Postal Service", "operator:short": "USPS", "operator:type": "public", "operator:wikidata": "Q668687", "ref": "3474400003"}, "type": "Feature"}
{"geometry": {"coordinates": [-81.399277138, 28.300765261], "type": "Point"}, "id": "K98OF-5ce-_RsDuYVGPSUTyMUqg=", "properties": {"@source_uri": "https://tools.usps.com/UspsToolsRestServices/rest/POLocator/findLocations", "@spider": "usps_collection_boxes", "addr:city": "KISSIMMEE", "addr:country": "US", "addr:postcode": "34744", "addr:state": "FL", "addr:street_address": "601 E OAK ST", "amenity": "post_box", "collection_times": "Mo-Fr 15:30; Sa 14:00", "note": "ON 12/24 AND 12/31, THIS BOX MAY BE COLLECTED AS EARLY AS 12 NOON.", "nsi_id": "unitedstatespostalservice-a77078", "operator": "United States Postal Service", "operator:short": "USPS", "operator:type": "public", "operator:wikidata": "Q668687", "ref": "3474400005"}, "type": "Feature"}
{"geometry": {"coordinates": [-81.391321746, 28.323252], "type": "Point"}, "id": "Wlua9Monotly3UqrwpY34kyE9pE=", "properties": {"@source_uri": "https://tools.usps.com/UspsToolsRestServices/rest/POLocator/findLocations", "@spider": "usps_collection_boxes", "addr:city": "KISSIMMEE", "addr:country": "US", "addr:postcode": "34744", "addr:state": "FL", "addr:street_address": "2600 MICHIGAN AVE", "amenity": "post_box", "collection_times": "Mo-Fr 17:00; Sa 15:15", "note": "ON 12/24 AND 12/31, THIS BOX MAY BE COLLECTED AS EARLY AS 12 NOON.", "nsi_id": "unitedstatespostalservice-a77078", "operator": "United States Postal Service", "operator:short": "USPS", "operator:type": "public", "operator:wikidata": "Q668687", "ref": "3474400010"}, "type": "Feature"}
{"geometry": {"coordinates": [-81.391321746, 28.323252], "type": "Point"}, "id": "_LXizB9Cnd0TYQg30eUh6-Rk3zw=", "properties": {"@source_uri": "https://tools.usps.com/UspsToolsRestServices/rest/POLocator/findLocations", "@spider": "usps_collection_boxes", "addr:city": "KISSIMMEE", "addr:country": "US", "addr:postcode": "34744", "addr:state": "FL", "addr:street_address": "2600 MICHIGAN AVE", "amenity": "post_box", "collection_times": "Mo-Fr 16:45; Sa 15:15", "indoor": "yes", "note": "ON 12/24 AND 12/31, THIS BOX MAY BE COLLECTED AS EARLY AS 12 NOON.", "nsi_id": "unitedstatespostalservice-a77078", "operator": "United States Postal Service", "operator:short": "USPS", "operator:type": "public", "operator:wikidata": "Q668687", "ref": "3474400020"}, "type": "Feature"}
{"geometry": {"coordinates": [-81.391321746, 28.323252], "type": "Point"}, "id": "ieOXybEOlcXgv1VtgtQ4Khzh8EE=", "properties": {"@source_uri": "https://tools.usps.com/UspsToolsRestServices/rest/POLocator/findLocations", "@spider": "usps_collection_boxes", "addr:city": "KISSIMMEE", "addr:country": "US", "addr:postcode": "34744", "addr:state": "FL", "addr:street_address": "2600 MICHIGAN AVE", "amenity": "post_box", "collection_times": "Mo-Fr 16:45; Sa 15:15", "indoor": "yes", "note": "ON 12/24 AND 12/31, THIS BOX MAY BE COLLECTED AS EARLY AS 12 NOON.", "nsi_id": "unitedstatespostalservice-a77078", "operator": "United States Postal Service", "operator:short": "USPS", "operator:type": "public", "operator:wikidata": "Q668687", "ref": "3474400021"}, "type": "Feature"}
{"geometry": {"coordinates": [-81.391321746, 28.323252], "type": "Point"}, "id": "lYU1A82vjnDQa-EjlIl_b4twR2g=", "properties": {"@source_uri": "https://tools.usps.com/UspsToolsRestServices/rest/POLocator/findLocations", "@spider": "usps_collection_boxes", "addr:city": "KISSIMMEE", "addr:country": "US", "addr:postcode": "34744", "addr:state": "FL", "addr:street_address": "2600 MICHIGAN AVE", "amenity": "post_box", "collection_times": "Mo-Fr 16:45; Sa 15:15", "name": "USPS COLLECTION BOX - APC", "note": "ON 12/24 AND 12/31, THIS BOX MAY BE COLLECTED AS EARLY AS 12 NOON.", "nsi_id": "unitedstatespostalservice-a77078", "operator": "United States Postal Service", "operator:short": "USPS", "operator:type": "public", "operator:wikidata": "Q668687", "ref": "3474400026"}, "type": "Feature"}
{"geometry": {"coordinates": [-81.342461121, 28.278303781], "type": "Point"}, "id": "PWpHqn6-bI1HuVjTcG7m_2QWM1Y=", "properties": {"@source_uri": "https://tools.usps.com/UspsToolsRestServices/rest/POLocator/findLocations", "@spider": "usps_collection_boxes", "addr:city": "KISSIMMEE", "addr:country": "US", "addr:postcode": "34744", "addr:state": "FL", "addr:street_address": "2501 E IRLO BRONSON HWY", "amenity": "post_box", "collection_times": "Mo-Sa 11:00", "nsi_id": "unitedstatespostalservice-a77078", "operator": "United States Postal Service", "operator:short": "USPS", "operator:type": "public", "operator:wikidata": "Q668687", "ref": "3474400027"}, "type": "Feature"}
{"geometry": {"coordinates": [-81.391321746, 28.323252], "type": "Point"}, "id": "rP8tzTIlcsWjceL8Hirdai2xoPQ=", "properties": {"@source_uri": "https://tools.usps.com/UspsToolsRestServices/rest/POLocator/findLocations", "@spider": "usps_collection_boxes", "addr:city": "KISSIMMEE", "addr:country": "US", "addr:postcode": "34744", "addr:state": "FL", "addr:street_address": "2600 MICHIGAN AVE", "amenity": "post_box", "collection_times": "Mo-Fr 18:30", "indoor": "yes", "note": "ON 12/24 AND 12/31, THIS BOX MAY BE COLLECTED AS EARLY AS 12 NOON.", "nsi_id": "unitedstatespostalservice-a77078", "operator": "United States Postal Service", "operator:short": "USPS", "operator:type": "public", "operator:wikidata": "Q668687", "ref": "3474400032"}, "type": "Feature"}
{"geometry": {"coordinates": [-81.52687302, 28.331383654], "type": "Point"}, "id": "oVVyp51cbGQ63yw9qO5TuCXTCzk=", "properties": {"@source_uri": "https://tools.usps.com/UspsToolsRestServices/rest/POLocator/findLocations", "@spider": "usps_collection_boxes", "addr:city": "KISSIMMEE", "addr:country": "US", "addr:postcode": "34746", "addr:state": "FL", "addr:street_address": "29 BLAKE BLVD", "amenity": "post_box", "collection_times": "Mo-Fr 12:00; Sa 14:30", "note": "ON 12/24 AND 12/31, THIS BOX MAY BE COLLECTED AS EARLY AS 12 NOON.", "nsi_id": "unitedstatespostalservice-a77078", "operator": "United States Postal Service", "operator:short": "USPS", "operator:type": "public", "operator:wikidata": "Q668687", "ref": "3474600003"}, "type": "Feature"}
{"geometry": {"coordinates": [-81.434556461, 28.261764116], "type": "Point"}, "id": "zbiJlCjxo8PEsHRfyqzqQXCMTSY=", "properties": {"@source_uri": "https://tools.usps.com/UspsToolsRestServices/rest/POLocator/findLocations", "@spider": "usps_collection_boxes", "addr:city": "KISSIMMEE", "addr:country": "US", "addr:postcode": "34746", "addr:state": "FL", "addr:street_address": "3275 S JOHN YOUNG PKWY", "amenity": "post_box", "collection_times": "Mo-Sa 14:30", "note": "ON 12/24 AND 12/31, THIS BOX MAY BE COLLECTED AS EARLY AS 12 NOON.", "nsi_id": "unitedstatespostalservice-a77078", "operator": "United States Postal Service", "operator:short": "USPS", "operator:type": "public", "operator:wikidata": "Q668687", "ref": "3474600008"}, "type": "Feature"}
{"geometry": {"coordinates": [-81.459604566, 28.303813163], "type": "Point"}, "id": "JYnywKmJ6UDGmwHNAdfs0mbsqWM=", "properties": {"@source_uri": "https://tools.usps.com/UspsToolsRestServices/rest/POLocator/findLocations", "@spider": "usps_collection_boxes", "addr:city": "KISSIMMEE", "addr:country": "US", "addr:postcode": "34746", "addr:state": "FL", "addr:street_address": "4444 W VINE ST", "amenity": "post_box", "collection_times": "Mo-Sa 13:00", "note": "ON 12/24 AND 12/31, THIS BOX MAY BE COLLECTED AS EARLY AS 12 NOON.", "nsi_id": "unitedstatespostalservice-a77078", "operator": "United States Postal Service", "operator:short": "USPS", "operator:type": "public", "operator:wikidata": "Q668687", "ref": "3474600011"}, "type": "Feature"}
{"geometry": {"coordinates": [-81.59932739, 28.342001809], "type": "Point"}, "id": "qtAiPrYs6blo6bPB0v_DsaYCYbs=", "properties": {"@source_uri": "https://tools.usps.com/UspsToolsRestServices/rest/POLocator/findLocations", "@spider": "usps_collection_boxes", "addr:city": "KISSIMMEE", "addr:country": "US", "addr:postcode": "34747", "addr:state": "FL", "addr:street_address": "7840 W IRLO BRONSON HWY", "amenity": "post_box", "collection_times": "Mo-Sa 14:30", "note": "ON 12/24 AND 12/31, THIS BOX MAY BE COLLECTED AS EARLY AS 12 NOON.", "nsi_id": "unitedstatespostalservice-a77078", "operator": "United States Postal Service", "operator:short": "USPS", "operator:type": "public", "operator:wikidata": "Q668687", "ref": "3474700002"}, "type": "Feature"}
{"geometry": {"coordinates": [-81.608435352, 28.364448148], "type": "Point"}, "id": "5bTPtPt3pIp7afHWr2UI7p0l2Vw=", "properties": {"@source_uri": "https://tools.usps.com/UspsToolsRestServices/rest/POLocator/findLocations", "@spider": "usps_collection_boxes", "addr:city": "KISSIMMEE", "addr:country": "US", "addr:postcode": "34747", "addr:state": "FL", "addr:street_address": "14900 E ORANGE LAKE BLVD", "amenity": "post_box", "collection_times": "Mo-Sa 12:00", "nsi_id": "unitedstatespostalservice-a77078", "operator": "United States Postal Service", "operator:short": "USPS", "operator:type": "public", "operator:wikidata": "Q668687", "ref": "3474700005"}, "type": "Feature"}
{"geometry": {"coordinates": [-81.540630347, 28.318928406], "type": "Point"}, "id": "UxyJRfGr7kxlLufdlvlSDx1Wxyg=", "properties": {"@source_uri": "https://tools.usps.com/UspsToolsRestServices/rest/POLocator/findLocations", "@spider": "usps_collection_boxes", "addr:city": "KISSIMMEE", "addr:country": "US", "addr:postcode": "34747", "addr:state": "FL", "addr:street_address": "601 MARKET ST", "amenity": "post_box", "collection_times": "Mo-Fr 16:30; Sa 14:00", "note": "ON 12/24 AND 12/31, THIS BOX MAY BE COLLECTED AS EARLY AS 12 NOON.", "nsi_id": "unitedstatespostalservice-a77078", "operator": "United States Postal Service", "operator:short": "USPS", "operator:type": "public", "operator:wikidata": "Q668687", "ref": "3474700006"}, "type": "Feature"}
{"geometry": {"coordinates": [-81.63492075, 28.347077102], "type": "Point"}, "id": "fO1H6w5obPFj6AmAA2258qHkV-w=", "properties": {"@source_uri": "https://tools.usps.com/UspsToolsRestServices/rest/POLocator/findLocations", "@spider": "usps_collection_boxes", "addr:city": "KISSIMMEE", "addr:country": "US", "addr:postcode": "34747", "addr:state": "FL", "addr:street_address": "8687 W IRLO BRONSON HWY", "amenity": "post_box", "collection_times": "Mo-Sa 12:00", "nsi_id": "unitedstatespostalservice-a77078", "operator": "United States Postal Service", "operator:short": "USPS", "operator:type": "public", "operator:wikidata": "Q668687", "ref": "3474700007"}, "type": "Feature"}
{"geometry": {"coordinates": [-81.540630347, 28.318928406], "type": "Point"}, "id": "ens-qvOf6K2ESchZcD2hab-g8gk=", "properties": {"@source_uri": "https://tools.usps.com/UspsToolsRestServices/rest/POLocator/findLocations", "@spider": "usps_collection_boxes", "addr:city": "KISSIMMEE", "addr:country": "US", "addr:postcode": "34747", "addr:state": "FL", "addr:street_address": "601 MARKET ST", "amenity": "post_box", "collection_times": "Mo-Fr 16:30", "indoor": "yes", "note": "ON 12/24 AND 12/31, THIS BOX MAY BE COLLECTED AS EARLY AS 12 NOON.", "nsi_id": "unitedstatespostalservice-a77078", "operator": "United States Postal Service", "operator:short": "USPS", "operator:type": "public", "operator:wikidata": "Q668687", "ref": "3474700010"}, "type": "Feature"}
{"geometry": {"coordinates": [-81.8876813912, 28.7988107216], "type": "Point"}, "id": "wuyY_8YJTikg7F2IurEMd8vFm2s=", "properties": {"@source_uri": "https://tools.usps.com/UspsToolsRestServices/rest/POLocator/findLocations", "@spider": "usps_collection_boxes", "addr:city": "LEESBURG", "addr:country": "US", "addr:postcode": "34748", "addr:state": "FL", "addr:street_address": "1201 S 14TH ST", "amenity": "post_box", "collection_times": "Mo-Fr 17:00; Sa 16:30", "note": "ON 12/24 AND 12/31, THIS BOX MAY BE COLLECTED AS EARLY AS 12 NOON.", "nsi_id": "unitedstatespostalservice-a77078", "operator": "United States Postal Service", "operator:short": "USPS", "operator:type": "public", "operator:wikidata": "Q668687", "ref": "3474800002"}, "type": "Feature"}
{"geometry": {"coordinates": [-81.876340604, 28.819052581], "type": "Point"}, "id": "imbLwN7pds4LN4drjqATuqdaZ90=", "properties": {"@source_uri": "https://tools.usps.com/UspsToolsRestServices/rest/POLocator/findLocations", "@spider": "usps_collection_boxes", "addr:city": "LEESBURG", "addr:country": "US", "addr:postcode": "34748", "addr:state": "FL", "addr:street_address": "734 N 3RD ST", "amenity": "post_box", "collection_times": "Mo-Sa 13:00", "note": "ON 12/24 AND 12/31, THIS BOX MAY BE COLLECTED AS EARLY AS 12 NOON.", "nsi_id": "unitedstatespostalservice-a77078", "operator": "United States Postal Service", "operator:short": "USPS", "operator:type": "public", "operator:wikidata": "Q668687", "ref": "3474800008"}, "type": "Feature"}
{"geometry": {"coordinates": [-81.877538391, 28.812750609], "type": "Point"}, "id": "V4k4giJ8AHaiM8cEC6-neo4LjJs=", "properties": {"@source_uri": "https://tools.usps.com/UspsToolsRestServices/rest/POLocator/findLocations", "@spider": "usps_collection_boxes", "addr:city": "LEESBURG", "addr:country": "US", "addr:postcode": "34748", "addr:state": "FL", "addr:street_address": "501 W MEADOW ST", "amenity": "post_box", "collection_times": "Mo-Sa 13:00", "note": "ON 12/24 AND 12/31, THIS BOX MAY BE COLLECTED AS EARLY AS 12 NOON.", "nsi_id": "unitedstatespostalservice-a77078", "operator": "United States Postal Service", "operator:short": "USPS", "operator:type": "public", "operator:wikidata": "Q668687", "ref": "3474800009"}, "type": "Feature"}
{"geometry": {"coordinates": [-81.945871993, 28.823055113], "type": "Point"}, "id": "L88W-yzuvMwcRvmYG_9bAjWJ2s4=", "properties": {"@source_uri": "https://tools.usps.com/UspsToolsRestServices/rest/POLocator/findLocations", "@spider": "usps_collection_boxes", "addr:city": "LEESBURG", "addr:country": "US", "addr:postcode": "34748", "addr:state": "FL", "addr:street_address": "32503 COUNTRYSIDE BLVD", "amenity": "post_box", "collection_times": "Mo-Sa 12:30", "note": "ON 12/24 AND 12/31, THIS BOX MAY BE COLLECTED AS EARLY AS 12 NOON.", "nsi_id": "unitedstatespostalservice-a77078", "operator": "United States Postal Service", "operator:short": "USPS", "operator:type": "public", "operator:wikidata": "Q668687", "ref": "3474800011"}, "type": "Feature"}
{"geometry": {"coordinates": [-81.8975136206, 28.8127758426], "type": "Point"}, "id": "53K2jx8o0ReBDngELa9cs8VFNKU=", "properties": {"@source_uri": "https://tools.usps.com/UspsToolsRestServices/rest/POLocator/findLocations", "@spider": "usps_collection_boxes", "addr:city": "LEESBURG", "addr:country": "US", "addr:postcode": "34748", "addr:state": "FL", "addr:street_address": "2101 W MAIN ST", "amenity": "post_box", "collection_times": "Mo-Sa 13:00", "note": "ON 12/24 AND 12/31, THIS BOX MAY BE COLLECTED AS EARLY AS 12 NOON.", "nsi_id": "unitedstatespostalservice-a77078", "operator": "United States Postal Service", "operator:short": "USPS", "operator:type": "public", "operator:wikidata": "Q668687", "ref": "3474800015"}, "type": "Feature"}
{"geometry": {"coordinates": [-81.860473485, 28.712496159], "type": "Point"}, "id": "e2CaWlztLB9RlW7Qqx3ONr9sN-8=", "properties": {"@source_uri": "https://tools.usps.com/UspsToolsRestServices/rest/POLocator/findLocations", "@spider": "usps_collection_boxes", "addr:city": "LEESBURG", "addr:country": "US", "addr:postcode": "34748", "addr:state": "FL", "addr:street_address": "25201 US HIGHWAY 27", "amenity": "post_box", "collection_times": "Mo-Sa 11:00", "nsi_id": "unitedstatespostalservice-a77078", "operator": "United States Postal Service", "operator:short": "USPS", "operator:type": "public", "operator:wikidata": "Q668687", "ref": "3474800016"}, "type": "Feature"}
{"geometry": {"coordinates": [-81.8876813912, 28.7988107216], "type": "Point"}, "id": "cDk0kjnqoii-NcV-DQ8uFTwbY5c=", "properties": {"@source_uri": "https://tools.usps.com/UspsToolsRestServices/rest/POLocator/findLocations", "@spider": "usps_collection_boxes", "addr:city": "LEESBURG", "addr:country": "US", "addr:postcode": "34748", "addr:state": "FL", "addr:street_address": "1201 S 14TH ST", "amenity": "post_box", "collection_times": "Mo-Fr 17:00; Sa 16:30", "indoor": "yes", "note": "ON 12/24 AND 12/31, THIS BOX MAY BE COLLECTED AS EARLY AS 12 NOON.", "nsi_id": "unitedstatespostalservice-a77078", "operator": "United States Postal Service", "operator:short": "USPS", "operator:type": "public", "operator:wikidata": "Q668687", "ref": "3474800019"}, "type": "Feature"}
{"geometry": {"coordinates": [-81.883290302, 28.758679027], "type": "Point"}, "id": "0SvKevVYO_f4JIMciE1wvHQobeE=", "properties": {"@source_uri": "https://tools.usps.com/UspsToolsRestServices/rest/POLocator/findLocations", "@spider": "usps_collection_boxes", "addr:city": "LEESBURG", "addr:country": "US", "addr:postcode": "34748", "addr:state": "FL", "addr:street_address": "28229 COUNTY ROAD 33", "amenity": "post_box", "collection_times": "Mo-Sa 11:15", "nsi_id": "unitedstatespostalservice-a77078", "operator": "United States Postal Service", "operator:short": "USPS", "operator:type": "public", "operator:wikidata": "Q668687", "ref": "3474800020"}, "type": "Feature"}
{"geometry": {"coordinates": [-81.884125377, 28.822565199], "type": "Point"}, "id": "e-18Zzs7HBiTHf2PxJdjQkz3VoY=", "properties": {"@source_uri": "https://tools.usps.com/UspsToolsRestServices/rest/POLocator/findLocations", "@spider": "usps_collection_boxes", "addr:city": "LEESBURG", "addr:country": "US", "addr:postcode": "34748", "addr:state": "FL", "addr:street_address": "1300 CITIZENS BLVD", "amenity": "post_box", "collection_times": "Mo-Sa 13:00", "note": "ON 12/24 AND 12/31, THIS BOX MAY BE COLLECTED AS EARLY AS 12 NOON.", "nsi_id": "unitedstatespostalservice-a77078", "operator": "United States Postal Service", "operator:short": "USPS", "operator:type": "public", "operator:wikidata": "Q668687", "ref": "3474800022"}, "type": "Feature"}
{"geometry": {"coordinates": [-81.887681391, 28.798810722], "type": "Point"}, "id": "2D-FNlTjKP2xMz7yfcRpGGH6Mjk=", "properties": {"@source_uri": "https://tools.usps.com/UspsToolsRestServices/rest/POLocator/findLocations", "@spider": "usps_collection_boxes", "addr:city": "LEESBURG", "addr:country": "US", "addr:postcode": "34748", "addr:state": "FL", "addr:street_address": "1201 S 14TH ST", "amenity": "post_box", "collection_times": "Mo-Fr 17:00; Sa 16:30", "name": "USPS COLLECTION BOX - APC", "note": "ON 12/24 AND 12/31, THIS BOX MAY BE COLLECTED AS EARLY AS 12 NOON.", "nsi_id": "unitedstatespostalservice-a77078", "operator": "United States Postal Service", "operator:short": "USPS", "operator:type": "public", "operator:wikidata": "Q668687", "ref": "3474800023"}, "type": "Feature"}
{"geometry": {"coordinates": [-81.887681391, 28.798810722], "type": "Point"}, "id": "jIhUrs5Lybr2sAG0MTxkVCJ0O9E=", "properties": {"@source_uri": "https://tools.usps.com/UspsToolsRestServices/rest/POLocator/findLocations", "@spider": "usps_collection_boxes", "addr:city": "LEESBURG", "addr:country": "US", "addr:postcode": "34748", "addr:state": "FL", "addr:street_address": "1201 S 14TH ST", "amenity": "post_box", "collection_times": "Mo-Fr 17:00; Sa 16:30", "indoor": "yes", "note": "ON 12/24 AND 12/31, THIS BOX MAY BE COLLECTED AS EARLY AS 12 NOON.", "nsi_id": "unitedstatespostalservice-a77078", "operator": "United States Postal Service", "operator:short": "USPS", "operator:type": "public", "operator:wikidata": "Q668687", "ref": "3474800024"}, "type": "Feature"}
{"geometry": {"coordinates": [-81.8876813912, 28.7988107216], "type": "Point"}, "id": "pQ-Jjqm-pLTNWPgIFy_iguisDkA=", "properties": {"@source_uri": "https://tools.usps.com/UspsToolsRestServices/rest/POLocator/findLocations", "@spider": "usps_collection_boxes", "addr:city": "LEESBURG", "addr:country": "US", "addr:postcode": "34748", "addr:state": "FL", "addr:street_address": "1201 S 14TH ST", "amenity": "post_box", "collection_times": "Mo-Fr 17:00", "indoor": "yes", "note": "ON 12/24 AND 12/31, THIS BOX MAY BE COLLECTED AS EARLY AS 12 NOON.", "nsi_id": "unitedstatespostalservice-a77078", "operator": "United States Postal Service", "operator:short": "USPS", "operator:type": "public", "operator:wikidata": "Q668687", "ref": "3474800027"}, "type": "Feature"}
{"geometry": {"coordinates": [-81.884590724, 28.573091749], "type": "Point"}, "id": "gGDw60EK_sXbMB2vOFnYgJDeIiM=", "properties": {"@source_uri": "https://tools.usps.com/UspsToolsRestServices/rest/POLocator/findLocations", "@spider": "usps_collection_boxes", "addr:city": "MASCOTTE", "addr:country": "US", "addr:postcode": "34753", "addr:state": "FL", "addr:street_address": "411 MIDWAY AVE", "amenity": "post_box", "collection_times": "Mo-Fr 16:30; Sa 11:30", "note": "ON 12/24 AND 12/31, THIS BOX MAY BE COLLECTED AS EARLY AS 12 NOON.", "nsi_id": "unitedstatespostalservice-a77078", "operator": "United States Postal Service", "operator:short": "USPS", "operator:type": "public", "operator:wikidata": "Q668687", "ref": "3475300001"}, "type": "Feature"}
{"geometry": {"coordinates": [-81.884590724, 28.573091749], "type": "Point"}, "id": "6sa_2LqEfpvmDw2WuDDkcIfCwZU=", "properties": {"@source_uri": "https://tools.usps.com/UspsToolsRestServices/rest/POLocator/findLocations", "@spider": "usps_collection_boxes", "addr:city": "MASCOTTE", "addr:country": "US", "addr:postcode": "34753", "addr:state": "FL", "addr:street_address": "411 MIDWAY AVE", "amenity": "post_box", "collection_times": "Mo-Fr 16:30; Sa 11:30", "indoor": "yes", "note": "ON 12/24 AND 12/31, THIS BOX MAY BE COLLECTED AS EARLY AS 12 NOON.", "nsi_id": "unitedstatespostalservice-a77078", "operator": "United States Postal Service", "operator:short": "USPS", "operator:type": "public", "operator:wikidata": "Q668687", "ref": "3475300002"}, "type": "Feature"}
{"geometry": {"coordinates": [-81.884590724, 28.573091749], "type": "Point"}, "id": "lQNBK0sHQbiHjILF-ZkTYexIPFY=", "properties": {"@source_uri": "https://tools.usps.com/UspsToolsRestServices/rest/POLocator/findLocations", "@spider": "usps_collection_boxes", "addr:city": "MASCOTTE", "addr:country": "US", "addr:postcode": "34753", "addr:state": "FL", "addr:street_address": "411 MIDWAY AVE", "amenity": "post_box", "collection_times": "Mo-Fr 16:15; Sa 11:30", "indoor": "yes", "note": "ON 12/24 AND 12/31, THIS BOX MAY BE COLLECTED AS EARLY AS 12 NOON.", "nsi_id": "unitedstatespostalservice-a77078", "operator": "United States Postal Service", "operator:short": "USPS", "operator:type": "public", "operator:wikidata": "Q668687", "ref": "3475300003"}, "type": "Feature"}
{"geometry": {"coordinates": [-81.7497805284, 28.5756264812], "type": "Point"}, "id": "rTN3qck87s-ji-U7nSahpDjWjTs=", "properties": {"@source_uri": "https://tools.usps.com/UspsToolsRestServices/rest/POLocator/findLocations", "@spider": "usps_collection_boxes", "addr:city": "MINNEOLA", "addr:country": "US", "addr:postcode": "34755", "addr:state": "FL", "addr:street_address": "131 W WASHINGTON ST", "amenity": "post_box", "collection_times": "Mo-Fr 16:30; Sa 12:00", "note": "ON 12/24 AND 12/31, THIS BOX MAY BE COLLECTED AS EARLY AS 12 NOON.", "nsi_id": "unitedstatespostalservice-a77078", "operator": "United States Postal Service", "operator:short": "USPS", "operator:type": "public", "operator:wikidata": "Q668687", "ref": "3475500001"}, "type": "Feature"}
{"geometry": {"coordinates": [-81.749780528, 28.575626481], "type": "Point"}, "id": "nH8Hmycf-ILIm_7ga6hZmTKxdlQ=", "properties": {"@source_uri": "https://tools.usps.com/UspsToolsRestServices/rest/POLocator/findLocations", "@spider": "usps_collection_boxes", "addr:city": "MINNEOLA", "addr:country": "US", "addr:postcode": "34755", "addr:state": "FL", "addr:street_address": "131 W WASHINGTON ST", "amenity": "post_box", "collection_times": "Mo-Fr 16:30; Sa 12:00", "indoor": "yes", "note": "ON 12/24 AND 12/31, THIS BOX MAY BE COLLECTED AS EARLY AS 12 NOON.", "nsi_id": "unitedstatespostalservice-a77078", "operator": "United States Postal Service", "operator:short": "USPS", "operator:type": "public", "operator:wikidata": "Q668687", "ref": "3475500002"}, "type": "Feature"}
{"geometry": {"coordinates": [-81.749780528, 28.575626481], "type": "Point"}, "id": "mDFI4Qq4t4oau466sIx-DPxPNJ4=", "properties": {"@source_uri": "https://tools.usps.com/UspsToolsRestServices/rest/POLocator/findLocations", "@spider": "usps_collection_boxes", "addr:city": "MINNEOLA", "addr:country": "US", "addr:postcode": "34755", "addr:state": "FL", "addr:street_address": "131 W WASHINGTON ST", "amenity": "post_box", "collection_times": "Mo-Fr 16:30; Sa 12:00", "indoor": "yes", "note": "ON 12/24 AND 12/31, THIS BOX MAY BE COLLECTED AS EARLY AS 12 NOON.", "nsi_id": "unitedstatespostalservice-a77078", "operator": "United States Postal Service", "operator:short": "USPS", "operator:type": "public", "operator:wikidata": "Q668687", "ref": "3475500003"}, "type": "Feature"}
{"geometry": {"coordinates": [-81.749780528, 28.575626481], "type": "Point"}, "id": "KXzE90_pLBMkKZOjjriXyKyx8WU=", "properties": {"@source_uri": "https://tools.usps.com/UspsToolsRestServices/rest/POLocator/findLocations", "@spider": "usps_collection_boxes", "addr:city": "MINNEOLA", "addr:country": "US", "addr:postcode": "34755", "addr:state": "FL", "addr:street_address": "131 W WASHINGTON ST", "amenity": "post_box", "collection_times": "Mo-Fr 16:30; Sa 12:00", "indoor": "yes", "note": "ON 12/24 AND 12/31, THIS BOX MAY BE COLLECTED AS EARLY AS 12 NOON.", "nsi_id": "unitedstatespostalservice-a77078", "operator": "United States Postal Service", "operator:short": "USPS", "operator:type": "public", "operator:wikidata": "Q668687", "ref": "3475500004"}, "type": "Feature"}
{"geometry": {"coordinates": [-81.672603742, 28.599131258], "type": "Point"}, "id": "dZi2p_QiGPM8AISUho7-UonqYBw=", "properties": {"@source_uri": "https://tools.usps.com/UspsToolsRestServices/rest/POLocator/findLocations", "@spider": "usps_collection_boxes", "addr:city": "MONTVERDE", "addr:country": "US", "addr:postcode": "34756", "addr:state": "FL", "addr:street_address": "17101 PORTER AVE", "amenity": "post_box", "collection_times": "Mo-Fr 16:30; Sa 11:15", "note": "ON 12/24 AND 12/31, THIS BOX MAY BE COLLECTED AS EARLY AS 12 NOON.", "nsi_id": "unitedstatespostalservice-a77078", "operator": "United States Postal Service", "operator:short": "USPS", "operator:type": "public", "operator:wikidata": "Q668687", "ref": "3475600001"}, "type": "Feature"}
{"geometry": {"coordinates": [-81.672603742, 28.599131258], "type": "Point"}, "id": "JrybLj80Oy8ulpIhSSZwCByXVao=", "properties": {"@source_uri": "https://tools.usps.com/UspsToolsRestServices/rest/POLocator/findLocations", "@spider": "usps_collection_boxes", "addr:city": "MONTVERDE", "addr:country": "US", "addr:postcode": "34756", "addr:state": "FL", "addr:street_address": "17101 PORTER AVE", "amenity": "post_box", "collection_times": "Mo-Fr 16:30; Sa 11:15", "indoor": "yes", "note": "ON 12/24 AND 12/31, THIS BOX MAY BE COLLECTED AS EARLY AS 12 NOON.", "nsi_id": "unitedstatespostalservice-a77078", "operator": "United States Postal Service", "operator:short": "USPS", "operator:type": "public", "operator:wikidata": "Q668687", "ref": "3475600002"}, "type": "Feature"}
{"geometry": {"coordinates": [-81.672603742, 28.599131258], "type": "Point"}, "id": "u6NIxGaUueGW4S6hXqlr_aQxrMI=", "properties": {"@source_uri": "https://tools.usps.com/UspsToolsRestServices/rest/POLocator/findLocations", "@spider": "usps_collection_boxes", "addr:city": "MONTVERDE", "addr:country": "US", "addr:postcode": "34756", "addr:state": "FL", "addr:street_address": "17101 PORTER AVE", "amenity": "post_box", "collection_times": "Mo-Fr 16:30", "indoor": "yes", "note": "ON 12/24 AND 12/31, THIS BOX MAY BE COLLECTED AS EARLY AS 12 NOON.", "nsi_id": "unitedstatespostalservice-a77078", "operator": "United States Postal Service", "operator:short": "USPS", "operator:type": "public", "operator:wikidata": "Q668687", "ref": "3475600004"}, "type": "Feature"}
{"geometry": {"coordinates": [-81.452280222, 28.150571539], "type": "Point"}, "id": "89kLuO4th903Nixf-9hAipkAXUA=", "properties": {"@source_uri": "https://tools.usps.com/UspsToolsRestServices/rest/POLocator/findLocations", "@spider": "usps_collection_boxes", "addr:city": "KISSIMMEE", "addr:country": "US", "addr:postcode": "34758", "addr:state": "FL", "addr:street_address": "4774 SAN REMO RD", "amenity": "post_box", "collection_times": "Mo-Fr 15:45; Sa 12:00", "note": "ON 12/24 AND 12/31, THIS BOX MAY BE COLLECTED AS EARLY AS 12 NOON.", "nsi_id": "unitedstatespostalservice-a77078", "operator": "United States Postal Service", "operator:short": "USPS", "operator:type": "public", "operator:wikidata": "Q668687", "ref": "3475800001"}, "type": "Feature"}
{"geometry": {"coordinates": [-81.452280222, 28.150571539], "type": "Point"}, "id": "7HBvXcfdpbYdqgxn7e6FM0c9M0U=", "properties": {"@source_uri": "https://tools.usps.com/UspsToolsRestServices/rest/POLocator/findLocations", "@spider": "usps_collection_boxes", "addr:city": "KISSIMMEE", "addr:country": "US", "addr:postcode": "34758", "addr:state": "FL", "addr:street_address": "4774 SAN REMO RD", "amenity": "post_box", "collection_times": "Mo-Fr 15:45; Sa 12:00", "indoor": "yes", "note": "ON 12/24 AND 12/31, THIS BOX MAY BE COLLECTED AS EARLY AS 12 NOON.", "nsi_id": "unitedstatespostalservice-a77078", "operator": "United States Postal Service", "operator:short": "USPS", "operator:type": "public", "operator:wikidata": "Q668687", "ref": "3475800002"}, "type": "Feature"}
{"geometry": {"coordinates": [-81.4522802216, 28.150571539], "type": "Point"}, "id": "VHqgbtDTymyckNwh7Xm23SutrFA=", "properties": {"@source_uri": "https://tools.usps.com/UspsToolsRestServices/rest/POLocator/findLocations", "@spider": "usps_collection_boxes", "addr:city": "KISSIMMEE", "addr:country": "US", "addr:postcode": "34758", "addr:state": "FL", "addr:street_address": "4774 SAN REMO RD", "amenity": "post_box", "collection_times": "Mo-Fr 15:45; Sa 12:00", "indoor": "yes", "note": "ON 12/24 AND 12/31, THIS BOX MAY BE COLLECTED AS EARLY AS 12 NOON.", "nsi_id": "unitedstatespostalservice-a77078", "operator": "United States Postal Service", "operator:short": "USPS", "operator:type": "public", "operator:wikidata": "Q668687", "ref": "3475800003"}, "type": "Feature"}
{"geometry": {"coordinates": [-81.452280222, 28.150571539], "type": "Point"}, "id": "UbIdHAzFgc1FShzzIVhPK5zxl48=", "properties": {"@source_uri": "https://tools.usps.com/UspsToolsRestServices/rest/POLocator/findLocations", "@spider": "usps_collection_boxes", "addr:city": "KISSIMMEE", "addr:country": "US", "addr:postcode": "34758", "addr:state": "FL", "addr:street_address": "4774 SAN REMO RD", "amenity": "post_box", "collection_times": "Mo-Fr 15:45; Sa 12:00", "indoor": "yes", "note": "ON 12/24 AND 12/31, THIS BOX MAY BE COLLECTED AS EARLY AS 12 NOON.", "nsi_id": "unitedstatespostalservice-a77078", "operator": "United States Postal Service", "operator:short": "USPS", "operator:type": "public", "operator:wikidata": "Q668687", "ref": "3475800004"}, "type": "Feature"}
{"geometry": {"coordinates": [-81.452280222, 28.150571539], "type": "Point"}, "id": "M8lsR7D2TPc1njFnrrliBK8se8Q=", "properties": {"@source_uri": "https://tools.usps.com/UspsToolsRestServices/rest/POLocator/findLocations", "@spider": "usps_collection_boxes", "addr:city": "KISSIMMEE", "addr:country": "US", "addr:postcode": "34758", "addr:state": "FL", "addr:street_address": "4774 SAN REMO RD", "amenity": "post_box", "collection_times": "Mo-Fr 15:45; Sa 12:15", "indoor": "yes", "note": "ON 12/24 AND 12/31, THIS BOX MAY BE COLLECTED AS EARLY AS 12 NOON.", "nsi_id": "unitedstatespostalservice-a77078", "operator": "United States Postal Service", "operator:short": "USPS", "operator:type": "public", "operator:wikidata": "Q668687", "ref": "3475800005"}, "type": "Feature"}
{"geometry": {"coordinates": [-81.4498388098, 28.1449505324], "type": "Point"}, "id": "EFTeUOtGTkleKM7mrI5ST08TFYg=", "properties": {"@source_uri": "https://tools.usps.com/UspsToolsRestServices/rest/POLocator/findLocations", "@spider": "usps_collection_boxes", "addr:city": "KISSIMMEE", "addr:country": "US", "addr:postcode": "34759", "addr:state": "FL", "addr:street_address": "909 TOWNE CENTER DR", "amenity": "post_box", "collection_times": "Mo-Sa 12:00", "nsi_id": "unitedstatespostalservice-a77078", "operator": "United States Postal Service", "operator:short": "USPS", "operator:type": "public", "operator:wikidata": "Q668687", "ref": "3475900001"}, "type": "Feature"}
{"geometry": {"coordinates": [-81.479954499, 28.135573804], "type": "Point"}, "id": "ucGNQ4U77ubMeYdR8dAN5QOcWeE=", "properties": {"@source_uri": "https://tools.usps.com/UspsToolsRestServices/rest/POLocator/findLocations", "@spider": "usps_collection_boxes", "addr:city": "KISSIMMEE", "addr:country": "US", "addr:postcode": "34759", "addr:state": "FL", "addr:street_address": "385 VILLAGE DR", "amenity": "post_box", "collection_times": "Mo-Sa 13:00", "note": "ON 12/24 AND 12/31, THIS BOX MAY BE COLLECTED AS EARLY AS 12 NOON.", "nsi_id": "unitedstatespostalservice-a77078", "operator": "United States Postal Service", "operator:short": "USPS", "operator:type": "public", "operator:wikidata": "Q668687", "ref": "3475900004"}, "type": "Feature"}
{"geometry": {"coordinates": [-81.628027702, 28.556943077], "type": "Point"}, "id": "Ns7q5s1PrZt1-_PhzEIk1s8VDvU=", "properties": {"@source_uri": "https://tools.usps.com/UspsToolsRestServices/rest/POLocator/findLocations", "@spider": "usps_collection_boxes", "addr:city": "OAKLAND", "addr:country": "US", "addr:postcode": "34760", "addr:state": "FL", "addr:street_address": "210 N TUBB ST", "amenity": "post_box", "collection_times": "Mo-Fr 16:30; Sa 11:00", "note": "ON 12/24 AND 12/31, THIS BOX MAY BE COLLECTED AS EARLY AS 12 NOON.", "nsi_id": "unitedstatespostalservice-a77078", "operator": "United States Postal Service", "operator:short": "USPS", "operator:type": "public", "operator:wikidata": "Q668687", "ref": "3476000001"}, "type": "Feature"}
{"geometry": {"coordinates": [-81.628027702, 28.556943077], "type": "Point"}, "id": "laP6NQQ232U5NBGVUz8MwEw79ps=", "properties": {"@source_uri": "https://tools.usps.com/UspsToolsRestServices/rest/POLocator/findLocations", "@spider": "usps_collection_boxes", "addr:city": "OAKLAND", "addr:country": "US", "addr:postcode": "34760", "addr:state": "FL", "addr:street_address": "210 N TUBB ST", "amenity": "post_box", "collection_times": "Mo-Fr 16:30; Sa 11:00", "indoor": "yes", "note": "ON 12/24 AND 12/31, THIS BOX MAY BE COLLECTED AS EARLY AS 12 NOON.", "nsi_id": "unitedstatespostalservice-a77078", "operator": "United States Postal Service", "operator:short": "USPS", "operator:type": "public", "operator:wikidata": "Q668687", "ref": "3476000002"}, "type": "Feature"}
{"geometry": {"coordinates": [-81.628027702, 28.556943077], "type": "Point"}, "id": "7cLWU9azVFRNPbl2xJ_heS1waTk=", "properties": {"@source_uri": "https://tools.usps.com/UspsToolsRestServices/rest/POLocator/findLocations", "@spider": "usps_collection_boxes", "addr:city": "OAKLAND", "addr:country": "US", "addr:postcode": "34760", "addr:state": "FL", "addr:street_address": "210 N TUBB ST", "amenity": "post_box", "collection_times": "Mo-Fr 16:30", "indoor": "yes", "note": "ON 12/24 AND 12/31, THIS BOX MAY BE COLLECTED AS EARLY AS 12 NOON.", "nsi_id": "unitedstatespostalservice-a77078", "operator": "United States Postal Service", "operator:short": "USPS", "operator:type": "public", "operator:wikidata": "Q668687", "ref": "3476000003"}, "type": "Feature"}
{"geometry": {"coordinates": [-81.516415496, 28.573868242], "type": "Point"}, "id": "uNI7THEvOlVEwO3WWJd2V9MHiWM=", "properties": {"@source_uri": "https://tools.usps.com/UspsToolsRestServices/rest/POLocator/findLocations", "@spider": "usps_collection_boxes", "addr:city": "OCOEE", "addr:country": "US", "addr:postcode": "34761", "addr:state": "FL", "addr:street_address": "1746 E SILVER STAR RD", "amenity": "post_box", "collection_times": "Mo-Sa 16:00", "note": "ON 12/24 AND 12/31, THIS BOX MAY BE COLLECTED AS EARLY AS 12 NOON.", "nsi_id": "unitedstatespostalservice-a77078", "operator": "United States Postal Service", "operator:short": "USPS", "operator:type": "public", "operator:wikidata": "Q668687", "ref": "3476100001"}, "type": "Feature"}
{"geometry": {"coordinates": [-81.506819357, 28.552030511], "type": "Point"}, "id": "10FaDY2JtP5T33QXDeAFDZwPkmI=", "properties": {"@source_uri": "https://tools.usps.com/UspsToolsRestServices/rest/POLocator/findLocations", "@spider": "usps_collection_boxes", "addr:city": "OCOEE", "addr:country": "US", "addr:postcode": "34761", "addr:state": "FL", "addr:street_address": "8891 W COLONIAL DR", "amenity": "post_box", "collection_times": "Mo-Sa 10:00", "nsi_id": "unitedstatespostalservice-a77078", "operator": "United States Postal Service", "operator:short": "USPS", "operator:type": "public", "operator:wikidata": "Q668687", "ref": "3476100004"}, "type": "Feature"}
{"geometry": {"coordinates": [-81.5506885095, 28.5736484788], "type": "Point"}, "id": "GO3eI2KLYH5owthOeGtfN6lfHWc=", "properties": {"@source_uri": "https://tools.usps.com/UspsToolsRestServices/rest/POLocator/findLocations", "@spider": "usps_collection_boxes", "addr:city": "OCOEE", "addr:country": "US", "addr:postcode": "34761", "addr:state": "FL", "addr:street_address": "449 W SILVER STAR RD", "amenity": "post_box", "collection_times": "Mo-Fr 17:00; Sa 15:00", "note": "ON 12/24 AND 12/31, THIS BOX MAY BE COLLECTED AS EARLY AS 12 NOON.", "nsi_id": "unitedstatespostalservice-a77078", "operator": "United States Postal Service", "operator:short": "USPS", "operator:type": "public", "operator:wikidata": "Q668687", "ref": "3476100006"}, "type": "Feature"}
{"geometry": {"coordinates": [-81.55068851, 28.573648479], "type": "Point"}, "id": "dxu3DSzWoM_yy2H6575l7kY-I7Q=", "properties": {"@source_uri": "https://tools.usps.com/UspsToolsRestServices/rest/POLocator/findLocations", "@spider": "usps_collection_boxes", "addr:city": "OCOEE", "addr:country": "US", "addr:postcode": "34761", "addr:state": "FL", "addr:street_address": "449 W SILVER STAR RD", "amenity": "post_box", "collection_times": "Mo-Fr 16:45; Sa 12:30", "indoor": "yes", "note": "ON 12/24 AND 12/31, THIS BOX MAY BE COLLECTED AS EARLY AS 12 NOON.", "nsi_id": "unitedstatespostalservice-a77078", "operator": "United States Postal Service", "operator:short": "USPS", "operator:type": "public", "operator:wikidata": "Q668687", "ref": "3476100011"}, "type": "Feature"}
{"geometry": {"coordinates": [-81.5427065451, 28.5719407582], "type": "Point"}, "id": "3ne-3_RJXTGc5eD02kVRY0tM5r0=", "properties": {"@source_uri": "https://tools.usps.com/UspsToolsRestServices/rest/POLocator/findLocations", "@spider": "usps_collection_boxes", "addr:city": "OCOEE", "addr:country": "US", "addr:postcode": "34761", "addr:state": "FL", "addr:street_address": "150 N LAKESHORE DR", "amenity": "post_box", "collection_times": "Mo-Fr 16:00; Sa 14:00", "note": "ON 12/24 AND 12/31, THIS BOX MAY BE COLLECTED AS EARLY AS 12 NOON.", "nsi_id": "unitedstatespostalservice-a77078", "operator": "United States Postal Service", "operator:short": "USPS", "operator:type": "public", "operator:wikidata": "Q668687", "ref": "3476100019"}, "type": "Feature"}
{"geometry": {"coordinates": [-81.5260618025, 28.5518674772], "type": "Point"}, "id": "_aN3pSKsKLjtDeor4IY-dm_422Q=", "properties": {"@source_uri": "https://tools.usps.com/UspsToolsRestServices/rest/POLocator/findLocations", "@spider": "usps_collection_boxes", "addr:city": "OCOEE", "addr:country": "US", "addr:postcode": "34761", "addr:state": "FL", "addr:street_address": "10125 W COLONIAL DR", "amenity": "post_box", "collection_times": "Mo-Fr 12:30; Sa 12:00", "note": "ON 12/24 AND 12/31, THIS BOX MAY BE COLLECTED AS EARLY AS 12 NOON.", "nsi_id": "unitedstatespostalservice-a77078", "operator": "United States Postal Service", "operator:short": "USPS", "operator:type": "public", "operator:wikidata": "Q668687", "ref": "3476100020"}, "type": "Feature"}
{"geometry": {"coordinates": [-81.53109, 28.582695], "type": "Point"}, "id": "Z7EffCXu-3Bx-r45v0o2lB2qPHs=", "properties": {"@source_uri": "https://tools.usps.com/UspsToolsRestServices/rest/POLocator/findLocations", "@spider": "usps_collection_boxes", "addr:city": "OCOEE", "addr:country": "US", "addr:postcode": "34761", "addr:state": "FL", "addr:street_address": "2731 MAGUIRE RD", "amenity": "post_box", "collection_times": "Mo-Sa 11:00", "nsi_id": "unitedstatespostalservice-a77078", "operator": "United States Postal Service", "operator:short": "USPS", "operator:type": "public", "operator:wikidata": "Q668687", "ref": "3476100022"}, "type": "Feature"}
{"geometry": {"coordinates": [-81.54400309, 28.551743151], "type": "Point"}, "id": "1KHa0cDStwZkjSpaZdX77g43Vc0=", "properties": {"@source_uri": "https://tools.usps.com/UspsToolsRestServices/rest/POLocator/findLocations", "@spider": "usps_collection_boxes", "addr:city": "OCOEE", "addr:country": "US", "addr:postcode": "34761", "addr:state": "FL", "addr:street_address": "11119 W COLONIAL DR", "amenity": "post_box", "collection_times": "Mo-Sa 13:30", "note": "ON 12/24 AND 12/31, THIS BOX MAY BE COLLECTED AS EARLY AS 12 NOON.", "nsi_id": "unitedstatespostalservice-a77078", "operator": "United States Postal Service", "operator:short": "USPS", "operator:type": "public", "operator:wikidata": "Q668687", "ref": "3476100025"}, "type": "Feature"}
{"geometry": {"coordinates": [-81.526968, 28.551623511], "type": "Point"}, "id": "En0af_ND2vAyPvcr4Ci38zsE88c=", "properties": {"@source_uri": "https://tools.usps.com/UspsToolsRestServices/rest/POLocator/findLocations", "@spider": "usps_collection_boxes", "addr:city": "OCOEE", "addr:country": "US", "addr:postcode": "34761", "addr:state": "FL", "addr:street_address": "10000 W COLONIAL DR", "amenity": "post_box", "collection_times": "Mo-Sa 13:00", "note": "ON 12/24 AND 12/31, THIS BOX MAY BE COLLECTED AS EARLY AS 12 NOON.", "nsi_id": "unitedstatespostalservice-a77078", "operator": "United States Postal Service", "operator:short": "USPS", "operator:type": "public", "operator:wikidata": "Q668687", "ref": "3476100028"}, "type": "Feature"}
{"geometry": {"coordinates": [-81.55068851, 28.573648479], "type": "Point"}, "id": "PkaS06tEXOwz8BnAM4TZ3ohZthE=", "properties": {"@source_uri": "https://tools.usps.com/UspsToolsRestServices/rest/POLocator/findLocations", "@spider": "usps_collection_boxes", "addr:city": "OCOEE", "addr:country": "US", "addr:postcode": "34761", "addr:state": "FL", "addr:street_address": "449 W SILVER STAR RD", "amenity": "post_box", "collection_times": "Mo-Fr 17:00", "indoor": "yes", "note": "ON 12/24 AND 12/31, THIS BOX MAY BE COLLECTED AS EARLY AS 12 NOON.", "nsi_id": "unitedstatespostalservice-a77078", "operator": "United States Postal Service", "operator:short": "USPS", "operator:type": "public", "operator:wikidata": "Q668687", "ref": "3476100032"}, "type": "Feature"}
{"geometry": {"coordinates": [-81.8966879162, 28.7477575226], "type": "Point"}, "id": "SGrqvg85Z1KTrNHMTcS4Xr6Ohqc=", "properties": {"@source_uri": "https://tools.usps.com/UspsToolsRestServices/rest/POLocator/findLocations", "@spider": "usps_collection_boxes", "addr:city": "OKAHUMPKA", "addr:country": "US", "addr:postcode": "34762", "addr:state": "FL", "addr:street_address": "3441 COUNTY ROAD 470", "amenity": "post_box", "collection_times": "Mo-Fr 16:00; Sa 11:00", "note": "ON 12/24 AND 12/31, THIS BOX MAY BE COLLECTED AS EARLY AS 12 NOON.", "nsi_id": "unitedstatespostalservice-a77078", "operator": "United States Postal Service", "operator:short": "USPS", "operator:type": "public", "operator:wikidata": "Q668687", "ref": "3476200001"}, "type": "Feature"}
{"geometry": {"coordinates": [-81.8966879162, 28.7477575226], "type": "Point"}, "id": "HfmaIzViCAVbNoRQjkCsvYcm6ow=", "properties": {"@source_uri": "https://tools.usps.com/UspsToolsRestServices/rest/POLocator/findLocations", "@spider": "usps_collection_boxes", "addr:city": "OKAHUMPKA", "addr:country": "US", "addr:postcode": "34762", "addr:state": "FL", "addr:street_address": "3441 COUNTY ROAD 470", "amenity": "post_box", "collection_times": "Mo-Fr 16:00; Sa 11:00", "indoor": "yes", "note": "ON 12/24 AND 12/31, THIS BOX MAY BE COLLECTED AS EARLY AS 12 NOON.", "nsi_id": "unitedstatespostalservice-a77078", "operator": "United States Postal Service", "operator:short": "USPS", "operator:type": "public", "operator:wikidata": "Q668687", "ref": "3476200003"}, "type": "Feature"}
{"geometry": {"coordinates": [-81.896687916, 28.747757523], "type": "Point"}, "id": "jlWjdTnXTxdDfF_uNFrMuyWHBVs=", "properties": {"@source_uri": "https://tools.usps.com/UspsToolsRestServices/rest/POLocator/findLocations", "@spider": "usps_collection_boxes", "addr:city": "OKAHUMPKA", "addr:country": "US", "addr:postcode": "34762", "addr:state": "FL", "addr:street_address": "3441 COUNTY ROAD 470", "amenity": "post_box", "collection_times": "Mo-Fr 16:00; Sa 11:00", "indoor": "yes", "note": "ON 12/24 AND 12/31, THIS BOX MAY BE COLLECTED AS EARLY AS 12 NOON.", "nsi_id": "unitedstatespostalservice-a77078", "operator": "United States Postal Service", "operator:short": "USPS", "operator:type": "public", "operator:wikidata": "Q668687", "ref": "3476200004"}, "type": "Feature"}
{"geometry": {"coordinates": [-81.3159075677, 28.2527942072], "type": "Point"}, "id": "Dllpoadct3UM3DwiXYZaw2d0F2Q=", "properties": {"@source_uri": "https://tools.usps.com/UspsToolsRestServices/rest/POLocator/findLocations", "@spider": "usps_collection_boxes", "addr:city": "SAINT CLOUD", "addr:country": "US", "addr:postcode": "34769", "addr:state": "FL", "addr:street_address": "4405 13TH ST", "amenity": "post_box", "collection_times": "Mo-Sa 11:00", "nsi_id": "unitedstatespostalservice-a77078", "operator": "United States Postal Service", "operator:short": "USPS", "operator:type": "public", "operator:wikidata": "Q668687", "ref": "3476900003"}, "type": "Feature"}
{"geometry": {"coordinates": [-81.313497949, 28.2512243868], "type": "Point"}, "id": "xIw1OWIWmDftoUbbq9ehHqyKih8=", "properties": {"@source_uri": "https://tools.usps.com/UspsToolsRestServices/rest/POLocator/findLocations", "@spider": "usps_collection_boxes", "addr:city": "SAINT CLOUD", "addr:country": "US", "addr:postcode": "34769", "addr:state": "FL", "addr:street_address": "4211 13TH ST", "amenity": "post_box", "collection_times": "Mo-Sa 13:00", "note": "ON 12/24 AND 12/31, THIS BOX MAY BE COLLECTED AS EARLY AS 12 NOON.", "nsi_id": "unitedstatespostalservice-a77078", "operator": "United States Postal Service", "operator:short": "USPS", "operator:type": "public", "operator:wikidata": "Q668687", "ref": "3476900005"}, "type": "Feature"}
{"geometry": {"coordinates": [-81.306752468, 28.247246848], "type": "Point"}, "id": "ZO_g-w-HOAbmK0rUBpsuC5owe2E=", "properties": {"@source_uri": "https://tools.usps.com/UspsToolsRestServices/rest/POLocator/findLocations", "@spider": "usps_collection_boxes", "addr:city": "SAINT CLOUD", "addr:country": "US", "addr:postcode": "34769", "addr:state": "FL", "addr:street_address": "3351 13TH ST", "amenity": "post_box", "collection_times": "Mo-Sa 13:00", "note": "ON 12/24 AND 12/31, THIS BOX MAY BE COLLECTED AS EARLY AS 12 NOON.", "nsi_id": "unitedstatespostalservice-a77078", "operator": "United States Postal Service", "operator:short": "USPS", "operator:type": "public", "operator:wikidata": "Q668687", "ref": "3476900006"}, "type": "Feature"}
{"geometry": {"coordinates": [-81.313874052, 28.256204647], "type": "Point"}, "id": "fUBtt2DB6tR4Ie93dLfNVaPxzho=", "properties": {"@source_uri": "https://tools.usps.com/UspsToolsRestServices/rest/POLocator/findLocations", "@spider": "usps_collection_boxes", "addr:city": "SAINT CLOUD", "addr:country": "US", "addr:postcode": "34769", "addr:state": "FL", "addr:street_address": "4701 OLD CANOE CREEK RD", "amenity": "post_box", "collection_times": "Mo-Fr 17:00; Sa 16:15", "note": "ON 12/24 AND 12/31, THIS BOX MAY BE COLLECTED AS EARLY AS 12 NOON.", "nsi_id": "unitedstatespostalservice-a77078", "operator": "United States Postal Service", "operator:short": "USPS", "operator:type": "public", "operator:wikidata": "Q668687", "ref": "3476900010"}, "type": "Feature"}
{"geometry": {"coordinates": [-81.2829418324, 28.2489454638], "type": "Point"}, "id": "wbvULQnHdTtdyvbe7mCF9ra5ask=", "properties": {"@source_uri": "https://tools.usps.com/UspsToolsRestServices/rest/POLocator/findLocations", "@spider": "usps_collection_boxes", "addr:city": "SAINT CLOUD", "addr:country": "US", "addr:postcode": "34769", "addr:state": "FL", "addr:street_address": "1222 10TH ST", "amenity": "post_box", "collection_times": "Mo-Sa 15:00", "note": "ON 12/24 AND 12/31, THIS BOX MAY BE COLLECTED AS EARLY AS 12 NOON.", "nsi_id": "unitedstatespostalservice-a77078", "operator": "United States Postal Service", "operator:short": "USPS", "operator:type": "public", "operator:wikidata": "Q668687", "ref": "3476900014"}, "type": "Feature"}
{"geometry": {"coordinates": [-81.279279, 28.246038526], "type": "Point"}, "id": "VLtLS25IkI7sQ0rVBYoBlodZ-L8=", "properties": {"@source_uri": "https://tools.usps.com/UspsToolsRestServices/rest/POLocator/findLocations", "@spider": "usps_collection_boxes", "addr:city": "SAINT CLOUD", "addr:country": "US", "addr:postcode": "34769", "addr:state": "FL", "addr:street_address": "900 13TH ST", "amenity": "post_box", "collection_times": "Mo-Sa 15:00", "note": "ON 12/24 AND 12/31, THIS BOX MAY BE COLLECTED AS EARLY AS 12 NOON.", "nsi_id": "unitedstatespostalservice-a77078", "operator": "United States Postal Service", "operator:short": "USPS", "operator:type": "public", "operator:wikidata": "Q668687", "ref": "3476900015"}, "type": "Feature"}
{"geometry": {"coordinates": [-81.313874052, 28.256204647], "type": "Point"}, "id": "yD3dN7NIEeWigBk5mMgD60QAkCY=", "properties": {"@source_uri": "https://tools.usps.com/UspsToolsRestServices/rest/POLocator/findLocations", "@spider": "usps_collection_boxes", "addr:city": "SAINT CLOUD", "addr:country": "US", "addr:postcode": "34769", "addr:state": "FL", "addr:street_address": "4701 OLD CANOE CREEK RD", "amenity": "post_box", "collection_times": "Mo-Fr 16:45; Sa 16:15", "indoor": "yes", "note": "ON 12/24 AND 12/31, THIS BOX MAY BE COLLECTED AS EARLY AS 12 NOON.", "nsi_id": "unitedstatespostalservice-a77078", "operator": "United States Postal Service", "operator:short": "USPS", "operator:type": "public", "operator:wikidata": "Q668687", "ref": "3476900017"}, "type": "Feature"}
{"geometry": {"coordinates": [-81.313874052, 28.256204647], "type": "Point"}, "id": "Z2Bb1yTmfA4Ds2W33ut2_NXVQW8=", "properties": {"@source_uri": "https://tools.usps.com/UspsToolsRestServices/rest/POLocator/findLocations", "@spider": "usps_collection_boxes", "addr:city": "SAINT CLOUD", "addr:country": "US", "addr:postcode": "34769", "addr:state": "FL", "addr:street_address": "4701 OLD CANOE CREEK RD", "amenity": "post_box", "collection_times": "Mo-Fr 16:45; Sa 16:15", "name": "USPS COLLECTION BOX - APC", "note": "ON 12/24 AND 12/31, THIS BOX MAY BE COLLECTED AS EARLY AS 12 NOON.", "nsi_id": "unitedstatespostalservice-a77078", "operator": "United States Postal Service", "operator:short": "USPS", "operator:type": "public", "operator:wikidata": "Q668687", "ref": "3476900018"}, "type": "Feature"}
{"geometry": {"coordinates": [-81.313874052, 28.256204647], "type": "Point"}, "id": "D8bZhohqTD2dau9V1S5m7iu0944=", "properties": {"@source_uri": "https://tools.usps.com/UspsToolsRestServices/rest/POLocator/findLocations", "@spider": "usps_collection_boxes", "addr:city": "SAINT CLOUD", "addr:country": "US", "addr:postcode": "34769", "addr:state": "FL", "addr:street_address": "4701 OLD CANOE CREEK RD", "amenity": "post_box", "collection_times": "Mo-Fr 18:00", "indoor": "yes", "note": "ON 12/24 AND 12/31, THIS BOX MAY BE COLLECTED AS EARLY AS 12 NOON.", "nsi_id": "unitedstatespostalservice-a77078", "operator": "United States Postal Service", "operator:short": "USPS", "operator:type": "public", "operator:wikidata": "Q668687", "ref": "3476900022"}, "type": "Feature"}
{"geometry": {"coordinates": [-82.040697651, 28.860012], "type": "Point"}, "id": "uewU--SMLHn-IFYWDg3dfhAXSsw=", "properties": {"@source_uri": "https://tools.usps.com/UspsToolsRestServices/rest/POLocator/findLocations", "@spider": "usps_collection_boxes", "addr:city": "WILDWOOD", "addr:country": "US", "addr:postcode": "34785", "addr:state": "FL", "addr:street_address": "316 SHOPPING CENTER DR", "amenity": "post_box", "collection_times": "Mo-Fr 16:45; Sa 14:00", "indoor": "yes", "note": "ON 12/24 AND 12/31, THIS BOX MAY BE COLLECTED AS EARLY AS 12 NOON.", "nsi_id": "unitedstatespostalservice-a77078", "operator": "United States Postal Service", "operator:short": "USPS", "operator:type": "public", "operator:wikidata": "Q668687", "ref": "3478500001"}, "type": "Feature"}
{"geometry": {"coordinates": [-82.0406976511, 28.860012], "type": "Point"}, "id": "ZCLGREGZcE8qT8-9RQU12HfaRYI=", "properties": {"@source_uri": "https://tools.usps.com/UspsToolsRestServices/rest/POLocator/findLocations", "@spider": "usps_collection_boxes", "addr:city": "WILDWOOD", "addr:country": "US", "addr:postcode": "34785", "addr:state": "FL", "addr:street_address": "316 SHOPPING CENTER DR", "amenity": "post_box", "collection_times": "Mo-Fr 17:00; Sa 14:00", "note": "ON 12/24 AND 12/31, THIS BOX MAY BE COLLECTED AS EARLY AS 12 NOON.", "nsi_id": "unitedstatespostalservice-a77078", "operator": "United States Postal Service", "operator:short": "USPS", "operator:type": "public", "operator:wikidata": "Q668687", "ref": "3478500013"}, "type": "Feature"}
{"geometry": {"coordinates": [-82.040697651, 28.860012], "type": "Point"}, "id": "PW6ZRspyxv0onjOnmN0dBpP7cQY=", "properties": {"@source_uri": "https://tools.usps.com/UspsToolsRestServices/rest/POLocator/findLocations", "@spider": "usps_collection_boxes", "addr:city": "WILDWOOD", "addr:country": "US", "addr:postcode": "34785", "addr:state": "FL", "addr:street_address": "316 SHOPPING CENTER DR", "amenity": "post_box", "collection_times": "Mo-Fr 16:30", "indoor": "yes", "note": "ON 12/24 AND 12/31, THIS BOX MAY BE COLLECTED AS EARLY AS 12 NOON.", "nsi_id": "unitedstatespostalservice-a77078", "operator": "United States Postal Service", "operator:short": "USPS", "operator:type": "public", "operator:wikidata": "Q668687", "ref": "3478500017"}, "type": "Feature"}
{"geometry": {"coordinates": [-81.5131485, 28.49355252], "type": "Point"}, "id": "qye5GVf5mf7mKfuQGyIJmT2FRnE=", "properties": {"@source_uri": "https://tools.usps.com/UspsToolsRestServices/rest/POLocator/findLocations", "@spider": "usps_collection_boxes", "addr:city": "WINDERMERE", "addr:country": "US", "addr:postcode": "34786", "addr:state": "FL", "addr:street_address": "9300 CONROY WINDERMERE RD", "amenity": "post_box", "collection_times": "Mo-Fr 16:45; Sa 14:00", "note": "ON 12/24 AND 12/31, THIS BOX MAY BE COLLECTED AS EARLY AS 12 NOON.", "nsi_id": "unitedstatespostalservice-a77078", "operator": "United States Postal Service", "operator:short": "USPS", "operator:type": "public", "operator:wikidata": "Q668687", "ref": "3478600001"}, "type": "Feature"}
{"geometry": {"coordinates": [-81.5131485, 28.4935525201], "type": "Point"}, "id": "EJrJnh6jXt1gnYNuGE4ycZthXK8=", "properties": {"@source_uri": "https://tools.usps.com/UspsToolsRestServices/rest/POLocator/findLocations", "@spider": "usps_collection_boxes", "addr:city": "WINDERMERE", "addr:country": "US", "addr:postcode": "34786", "addr:state": "FL", "addr:street_address": "9300 CONROY WINDERMERE RD", "amenity": "post_box", "collection_times": "Mo-Fr 16:45; Sa 14:00", "indoor": "yes", "note": "ON 12/24 AND 12/31, THIS BOX MAY BE COLLECTED AS EARLY AS 12 NOON.", "nsi_id": "unitedstatespostalservice-a77078", "operator": "United States Postal Service", "operator:short": "USPS", "operator:type": "public", "operator:wikidata": "Q668687", "ref": "3478600002"}, "type": "Feature"}
{"geometry": {"coordinates": [-81.5131485, 28.49355252], "type": "Point"}, "id": "PuVEmk3eyZJug4ZwqzHvWhj8e3I=", "properties": {"@source_uri": "https://tools.usps.com/UspsToolsRestServices/rest/POLocator/findLocations", "@spider": "usps_collection_boxes", "addr:city": "WINDERMERE", "addr:country": "US", "addr:postcode": "34786", "addr:state": "FL", "addr:street_address": "9300 CONROY WINDERMERE RD", "amenity": "post_box", "collection_times": "Mo-Fr 16:45; Sa 14:00", "indoor": "yes", "note": "ON 12/24 AND 12/31, THIS BOX MAY BE COLLECTED AS EARLY AS 12 NOON.", "nsi_id": "unitedstatespostalservice-a77078", "operator": "United States Postal Service", "operator:short": "USPS", "operator:type": "public", "operator:wikidata": "Q668687", "ref": "3478600007"}, "type": "Feature"}
{"geometry": {"coordinates": [-81.5131485, 28.4935525201], "type": "Point"}, "id": "5vpwxH4u_JiTRpFOPH318ywQNtM=", "properties": {"@source_uri": "https://tools.usps.com/UspsToolsRestServices/rest/POLocator/findLocations", "@spider": "usps_collection_boxes", "addr:city": "WINDERMERE", "addr:country": "US", "addr:postcode": "34786", "addr:state": "FL", "addr:street_address": "9300 CONROY WINDERMERE RD", "amenity": "post_box", "collection_times": "Mo-Fr 18:30", "indoor": "yes", "note": "ON 12/24 AND 12/31, THIS BOX MAY BE COLLECTED AS EARLY AS 12 NOON.", "nsi_id": "unitedstatespostalservice-a77078", "operator": "United States Postal Service", "operator:short": "USPS", "operator:type": "public", "operator:wikidata": "Q668687", "ref": "3478600010"}, "type": "Feature"}
{"geometry": {"coordinates": [-81.589295825, 28.565001255], "type": "Point"}, "id": "Zz3TzW5vLMtXFafES_oMpf8lA18=", "properties": {"@source_uri": "https://tools.usps.com/UspsToolsRestServices/rest/POLocator/findLocations", "@spider": "usps_collection_boxes", "addr:city": "WINTER GARDEN", "addr:country": "US", "addr:postcode": "34787", "addr:state": "FL", "addr:street_address": "300 W PLANT ST", "amenity": "post_box", "collection_times": "Mo-Sa 14:45", "note": "ON 12/24 AND 12/31, THIS BOX MAY BE COLLECTED AS EARLY AS 12 NOON.", "nsi_id": "unitedstatespostalservice-a77078", "operator": "United States Postal Service", "operator:short": "USPS", "operator:type": "public", "operator:wikidata": "Q668687", "ref": "3478700002"}, "type": "Feature"}
{"geometry": {"coordinates": [-81.588252819, 28.565391267], "type": "Point"}, "id": "NvTBy6XqzuAppsgN4mZoV2ZMmtA=", "properties": {"@source_uri": "https://tools.usps.com/UspsToolsRestServices/rest/POLocator/findLocations", "@spider": "usps_collection_boxes", "addr:city": "WINTER GARDEN", "addr:country": "US", "addr:postcode": "34787", "addr:state": "FL", "addr:street_address": "207 W PLANT ST", "amenity": "post_box", "collection_times": "Mo-Fr 15:00", "indoor": "yes", "note": "ON 12/24 AND 12/31, THIS BOX MAY BE COLLECTED AS EARLY AS 12 NOON.", "nsi_id": "unitedstatespostalservice-a77078", "operator": "United States Postal Service", "operator:short": "USPS", "operator:type": "public", "operator:wikidata": "Q668687", "ref": "3478700015"}, "type": "Feature"}
{"geometry": {"coordinates": [-81.6095285255, 28.5511794983], "type": "Point"}, "id": "FxpTg8pPfQgAgpq8B_R6Zf0ixcg=", "properties": {"@source_uri": "https://tools.usps.com/UspsToolsRestServices/rest/POLocator/findLocations", "@spider": "usps_collection_boxes", "addr:city": "WINTER GARDEN", "addr:country": "US", "addr:postcode": "34787", "addr:state": "FL", "addr:street_address": "15155 W COLONIAL DR", "amenity": "post_box", "collection_times": "Mo-Fr 17:00; Sa 15:00", "note": "ON 12/24 AND 12/31, THIS BOX MAY BE COLLECTED AS EARLY AS 12 NOON.", "nsi_id": "unitedstatespostalservice-a77078", "operator": "United States Postal Service", "operator:short": "USPS", "operator:type": "public", "operator:wikidata": "Q668687", "ref": "3478700016"}, "type": "Feature"}
{"geometry": {"coordinates": [-81.609528526, 28.551179498], "type": "Point"}, "id": "Z8gC6FSYiOig0JNQTvhlN0lu6sw=", "properties": {"@source_uri": "https://tools.usps.com/UspsToolsRestServices/rest/POLocator/findLocations", "@spider": "usps_collection_boxes", "addr:city": "WINTER GARDEN", "addr:country": "US", "addr:postcode": "34787", "addr:state": "FL", "addr:street_address": "15155 W COLONIAL DR", "amenity": "post_box", "collection_times": "Mo-Fr 17:00; Sa 15:00", "indoor": "yes", "note": "ON 12/24 AND 12/31, THIS BOX MAY BE COLLECTED AS EARLY AS 12 NOON.", "nsi_id": "unitedstatespostalservice-a77078", "operator": "United States Postal Service", "operator:short": "USPS", "operator:type": "public", "operator:wikidata": "Q668687", "ref": "3478700018"}, "type": "Feature"}
{"geometry": {"coordinates": [-81.6095285255, 28.5511794983], "type": "Point"}, "id": "bhO2NNVDriqvKoNibugZ8-Gx7Kc=", "properties": {"@source_uri": "https://tools.usps.com/UspsToolsRestServices/rest/POLocator/findLocations", "@spider": "usps_collection_boxes", "addr:city": "WINTER GARDEN", "addr:country": "US", "addr:postcode": "34787", "addr:state": "FL", "addr:street_address": "15155 W COLONIAL DR", "amenity": "post_box", "collection_times": "Mo-Fr 17:00; Sa 15:00", "name": "USPS COLLECTION BOX - APC", "note": "ON 12/24 AND 12/31, THIS BOX MAY BE COLLECTED AS EARLY AS 12 NOON.", "nsi_id": "unitedstatespostalservice-a77078", "operator": "United States Postal Service", "operator:short": "USPS", "operator:type": "public", "operator:wikidata": "Q668687", "ref": "3478700019"}, "type": "Feature"}
{"geometry": {"coordinates": [-81.6095285255, 28.5511794983], "type": "Point"}, "id": "toDQmCPO4UsyGvZXkT6iTrDfN80=", "properties": {"@source_uri": "https://tools.usps.com/UspsToolsRestServices/rest/POLocator/findLocations", "@spider": "usps_collection_boxes", "addr:city": "WINTER GARDEN", "addr:country": "US", "addr:postcode": "34787", "addr:state": "FL", "addr:street_address": "15155 W COLONIAL DR", "amenity": "post_box", "collection_times": "Mo-Fr 17:00; Sa 15:00", "indoor": "yes", "note": "ON 12/24 AND 12/31, THIS BOX MAY BE COLLECTED AS EARLY AS 12 NOON.", "nsi_id": "unitedstatespostalservice-a77078", "operator": "United States Postal Service", "operator:short": "USPS", "operator:type": "public", "operator:wikidata": "Q668687", "ref": "3478700020"}, "type": "Feature"}
{"geometry": {"coordinates": [-81.6095285255, 28.5511794983], "type": "Point"}, "id": "3tGpMgjK3KbObMyd8Jl2IcXyfzg=", "properties": {"@source_uri": "https://tools.usps.com/UspsToolsRestServices/rest/POLocator/findLocations", "@spider": "usps_collection_boxes", "addr:city": "WINTER GARDEN", "addr:country": "US", "addr:postcode": "34787", "addr:state": "FL", "addr:street_address": "15155 W COLONIAL DR", "amenity": "post_box", "collection_times": "Mo-Fr 17:00", "indoor": "yes", "note": "ON 12/24 AND 12/31, THIS BOX MAY BE COLLECTED AS EARLY AS 12 NOON.", "nsi_id": "unitedstatespostalservice-a77078", "operator": "United States Postal Service", "operator:short": "USPS", "operator:type": "public", "operator:wikidata": "Q668687", "ref": "3478700025"}, "type": "Feature"}
{"geometry": {"coordinates": [-81.5882528186, 28.5653912673], "type": "Point"}, "id": "o52zY-x45pxYxsAnBYnpp8Jd3nU=", "properties": {"@source_uri": "https://tools.usps.com/UspsToolsRestServices/rest/POLocator/findLocations", "@spider": "usps_collection_boxes", "addr:city": "WINTER GARDEN", "addr:country": "US", "addr:postcode": "34787", "addr:state": "FL", "addr:street_address": "207 W PLANT ST", "amenity": "post_box", "collection_times": "Mo-Fr 14:30", "indoor": "yes", "note": "ON 12/24 AND 12/31, THIS BOX MAY BE COLLECTED AS EARLY AS 12 NOON.", "nsi_id": "unitedstatespostalservice-a77078", "operator": "United States Postal Service", "operator:short": "USPS", "operator:type": "public", "operator:wikidata": "Q668687", "ref": "3478700026"}, "type": "Feature"}
{"geometry": {"coordinates": [-81.7733220491, 28.8709628851], "type": "Point"}, "id": "AIgzuWIWrhhGw35jviE_ZwcV68s=", "properties": {"@source_uri": "https://tools.usps.com/UspsToolsRestServices/rest/POLocator/findLocations", "@spider": "usps_collection_boxes", "addr:city": "LEESBURG", "addr:country": "US", "addr:postcode": "34788", "addr:state": "FL", "addr:street_address": "188 FOREST DR", "amenity": "post_box", "collection_times": "Mo-Sa 11:00", "nsi_id": "unitedstatespostalservice-a77078", "operator": "United States Postal Service", "operator:short": "USPS", "operator:type": "public", "operator:wikidata": "Q668687", "ref": "3478800003"}, "type": "Feature"}
{"geometry": {"coordinates": [-81.7735003645, 28.8202046961], "type": "Point"}, "id": "evG1i3EQoh9TH85ljrH7V-gZYZE=", "properties": {"@source_uri": "https://tools.usps.com/UspsToolsRestServices/rest/POLocator/findLocations", "@spider": "usps_collection_boxes", "addr:city": "LEESBURG", "addr:country": "US", "addr:postcode": "34788", "addr:state": "FL", "addr:street_address": "32327 COUNTY ROAD 473", "amenity": "post_box", "collection_times": "Mo-Fr 16:30; Sa 12:00", "note": "ON 12/24 AND 12/31, THIS BOX MAY BE COLLECTED AS EARLY AS 12 NOON.", "nsi_id": "unitedstatespostalservice-a77078", "operator": "United States Postal Service", "operator:short": "USPS", "operator:type": "public", "operator:wikidata": "Q668687", "ref": "3478800004"}, "type": "Feature"}
{"geometry": {"coordinates": [-81.7802068651, 28.8210747983], "type": "Point"}, "id": "suH_4geRjh_WQfsWY4ukG8w-GqU=", "properties": {"@source_uri": "https://tools.usps.com/UspsToolsRestServices/rest/POLocator/findLocations", "@spider": "usps_collection_boxes", "addr:city": "LEESBURG", "addr:country": "US", "addr:postcode": "34788", "addr:state": "FL", "addr:street_address": "10701 US HIGHWAY 441", "amenity": "post_box", "collection_times": "Mo-Sa 12:00", "nsi_id": "unitedstatespostalservice-a77078", "operator": "United States Postal Service", "operator:short": "USPS", "operator:type": "public", "operator:wikidata": "Q668687", "ref": "3478800006"}, "type": "Feature"}
{"geometry": {"coordinates": [-81.7853030477, 28.822825579], "type": "Point"}, "id": "P8E_iyMlpnGCr99FdhoNapea2h8=", "properties": {"@source_uri": "https://tools.usps.com/UspsToolsRestServices/rest/POLocator/findLocations", "@spider": "usps_collection_boxes", "addr:city": "LEESBURG", "addr:country": "US", "addr:postcode": "34788", "addr:state": "FL", "addr:street_address": "10401 US HIGHWAY 441", "amenity": "post_box", "collection_times": "Mo-Sa 12:00", "nsi_id": "unitedstatespostalservice-a77078", "operator": "United States Postal Service", "operator:short": "USPS", "operator:type": "public", "operator:wikidata": "Q668687", "ref": "3478800008"}, "type": "Feature"}
{"geometry": {"coordinates": [-81.773500364, 28.820204696], "type": "Point"}, "id": "zCnpHORQKesPDU7aL-8rAz4FMuc=", "properties": {"@source_uri": "https://tools.usps.com/UspsToolsRestServices/rest/POLocator/findLocations", "@spider": "usps_collection_boxes", "addr:city": "LEESBURG", "addr:country": "US", "addr:postcode": "34788", "addr:state": "FL", "addr:street_address": "32327 COUNTY ROAD 473", "amenity": "post_box", "collection_times": "Mo-Fr 16:30; Sa 12:00", "indoor": "yes", "note": "ON 12/24 AND 12/31, THIS BOX MAY BE COLLECTED AS EARLY AS 12 NOON.", "nsi_id": "unitedstatespostalservice-a77078", "operator": "United States Postal Service", "operator:short": "USPS", "operator:type": "public", "operator:wikidata": "Q668687", "ref": "3478800009"}, "type": "Feature"}
{"geometry": {"coordinates": [-81.7735003645, 28.8202046961], "type": "Point"}, "id": "8YVO07dVXxrPJanLsSFL08ycO1g=", "properties": {"@source_uri": "https://tools.usps.com/UspsToolsRestServices/rest/POLocator/findLocations", "@spider": "usps_collection_boxes", "addr:city": "LEESBURG", "addr:country": "US", "addr:postcode": "34788", "addr:state": "FL", "addr:street_address": "32327 COUNTY ROAD 473", "amenity": "post_box", "collection_times": "Mo-Fr 16:30", "indoor": "yes", "note": "ON 12/24 AND 12/31, THIS BOX MAY BE COLLECTED AS EARLY AS 12 NOON.", "nsi_id": "unitedstatespostalservice-a77078", "operator": "United States Postal Service", "operator:short": "USPS", "operator:type": "public", "operator:wikidata": "Q668687", "ref": "3478800010"}, "type": "Feature"}
{"geometry": {"coordinates": [-81.809410302, 28.742024673], "type": "Point"}, "id": "cI1z4G1GC7I9ukYUGWmJGtljDfw=", "properties": {"@source_uri": "https://tools.usps.com/UspsToolsRestServices/rest/POLocator/findLocations", "@spider": "usps_collection_boxes", "addr:city": "YALAHA", "addr:country": "US", "addr:postcode": "34797", "addr:state": "FL", "addr:street_address": "8712 COUNTY ROAD 48", "amenity": "post_box", "collection_times": "Mo-Fr 16:00; Sa 11:00", "note": "ON 12/24 AND 12/31, THIS BOX MAY BE COLLECTED AS EARLY AS 12 NOON.", "nsi_id": "unitedstatespostalservice-a77078", "operator": "United States Postal Service", "operator:short": "USPS", "operator:type": "public", "operator:wikidata": "Q668687", "ref": "3479700001"}, "type": "Feature"}
{"geometry": {"coordinates": [-81.8094103015, 28.742024673], "type": "Point"}, "id": "xKCpNs_JAr6XEQg8Jm_eJZUuF3Q=", "properties": {"@source_uri": "https://tools.usps.com/UspsToolsRestServices/rest/POLocator/findLocations", "@spider": "usps_collection_boxes", "addr:city": "YALAHA", "addr:country": "US", "addr:postcode": "34797", "addr:state": "FL", "addr:street_address": "8712 COUNTY ROAD 48", "amenity": "post_box", "collection_times": "Mo-Fr 16:00; Sa 11:00", "indoor": "yes", "note": "ON 12/24 AND 12/31, THIS BOX MAY BE COLLECTED AS EARLY AS 12 NOON.", "nsi_id": "unitedstatespostalservice-a77078", "operator": "United States Postal Service", "operator:short": "USPS", "operator:type": "public", "operator:wikidata": "Q668687", "ref": "3479700002"}, "type": "Feature"}
{"geometry": {"coordinates": [-81.809410302, 28.742024673], "type": "Point"}, "id": "nYT5lvmKS-ITL1pPAPB0P4YSDGY=", "properties": {"@source_uri": "https://tools.usps.com/UspsToolsRestServices/rest/POLocator/findLocations", "@spider": "usps_collection_boxes", "addr:city": "YALAHA", "addr:country": "US", "addr:postcode": "34797", "addr:state": "FL", "addr:street_address": "8712 COUNTY ROAD 48", "amenity": "post_box", "collection_times": "Mo-Fr 16:00; Sa 11:00", "indoor": "yes", "note": "ON 12/24 AND 12/31, THIS BOX MAY BE COLLECTED AS EARLY AS 12 NOON.", "nsi_id": "unitedstatespostalservice-a77078", "operator": "United States Postal Service", "operator:short": "USPS", "operator:type": "public", "operator:wikidata": "Q668687", "ref": "3479700003"}, "type": "Feature"}
{"geometry": {"coordinates": [-81.8094103015, 28.742024673], "type": "Point"}, "id": "hVnD0Fa5NlrLPHxORRpjXvuGI3U=", "properties": {"@source_uri": "https://tools.usps.com/UspsToolsRestServices/rest/POLocator/findLocations", "@spider": "usps_collection_boxes", "addr:city": "YALAHA", "addr:country": "US", "addr:postcode": "34797", "addr:state": "FL", "addr:street_address": "8712 COUNTY ROAD 48", "amenity": "post_box", "collection_times": "Mo-Fr 16:30", "indoor": "yes", "note": "ON 12/24 AND 12/31, THIS BOX MAY BE COLLECTED AS EARLY AS 12 NOON.", "nsi_id": "unitedstatespostalservice-a77078", "operator": "United States Postal Service", "operator:short": "USPS", "operator:type": "public", "operator:wikidata": "Q668687", "ref": "3479700004"}, "type": "Feature"}
