{"geometry": {"coordinates": [-80.34731907, 27.431772402], "type": "Point"}, "id": "YZzAZKVvqKvTVHNd-1k0GYrN_0A=", "properties": {"@spider": "usps_collection_boxes", "addr:city": "FORT PIERCE", "addr:country": "US", "addr:full": "1700 S 23RD ST", "addr:postcode": "34950", "addr:state": "FL", "brand": "USPS", "collection_times": "Mo-Sa 12:00", "name": "USPS COLLECTION BOX - BLUE BOX", "ref": "3495000001"}, "type": "Feature"}
{"geometry": {"coordinates": [-80.323561099, 27.4468045], "type": "Point"}, "id": "0sDOGjLjV1CdPPcYzyn8c3XzKkE=", "properties": {"@spider": "usps_collection_boxes", "addr:city": "FORT PIERCE", "addr:country": "US", "addr:full": "218 S 2ND ST", "addr:postcode": "34950", "addr:state": "FL", "brand": "USPS", "collection_times": "Mo-Sa 11:30", "name": "USPS COLLECTION BOX - BLUE BOX", "ref": "3495000006"}, "type": "Feature"}
{"geometry": {"coordinates": [-80.346658779, 27.433118549], "type": "Point"}, "id": "3xMAK8WGhP7EdhIR57mYJjcqKXI=", "properties": {"@spider": "usps_collection_boxes", "addr:city": "FORT PIERCE", "addr:country": "US", "addr:full": "2215 NEBRASKA AVE", "addr:postcode": "34950", "addr:state": "FL", "brand": "USPS", "collection_times": "Mo-Sa 12:00", "name": "USPS COLLECTION BOX - BLUE BOX", "ref": "3495000016"}, "type": "Feature"}
{"geometry": {"coordinates": [-80.341674438, 27.447176664], "type": "Point"}, "id": "1A7A60ANAADx30ZFV3z0ghmNT0E=", "properties": {"@spider": "usps_collection_boxes", "addr:city": "FORT PIERCE", "addr:country": "US", "addr:full": "1717 ORANGE AVE", "addr:postcode": "34950", "addr:state": "FL", "brand": "USPS", "collection_times": "Mo-Sa 17:00", "name": "USPS COLLECTION BOX - PO LOBBY", "note": "ON 12/24 AND 12/31, THIS BOX MAY BE COLLECTED AS EARLY AS 12 NOON.", "ref": "3495000021"}, "type": "Feature"}
{"geometry": {"coordinates": [-80.326917034, 27.44388], "type": "Point"}, "id": "VTo7PQUf6nvzbTfbDeHKWVV_3ME=", "properties": {"@spider": "usps_collection_boxes", "addr:city": "FORT PIERCE", "addr:country": "US", "addr:full": "402 S 5TH ST", "addr:postcode": "34950", "addr:state": "FL", "brand": "USPS", "collection_times": "Mo-Fr 16:30; Sa 13:00", "name": "USPS COLLECTION BOX - BLUE BOX", "note": "ON 12/24 AND 12/31, THIS BOX MAY BE COLLECTED AS EARLY AS 12 NOON.", "ref": "3495000037"}, "type": "Feature"}
{"geometry": {"coordinates": [-80.37026795, 27.424186521], "type": "Point"}, "id": "5XJbXEKIjK4pjoIYoi150K5OMf4=", "properties": {"@spider": "usps_collection_boxes", "addr:city": "FORT PIERCE", "addr:country": "US", "addr:full": "4300 OKEECHOBEE RD", "addr:postcode": "34950", "addr:state": "FL", "brand": "USPS", "collection_times": "Mo-Sa 11:00", "name": "USPS COLLECTION BOX - BLUE BOX", "ref": "3495000039"}, "type": "Feature"}
{"geometry": {"coordinates": [-80.341674438, 27.447176664], "type": "Point"}, "id": "FJZZ0qhN6qbZppfZM-cBOhJijP4=", "properties": {"@spider": "usps_collection_boxes", "addr:city": "FORT PIERCE", "addr:country": "US", "addr:full": "1717 ORANGE AVE", "addr:postcode": "34950", "addr:state": "FL", "brand": "USPS", "collection_times": "Mo-Fr 17:00; Sa 13:00", "name": "USPS COLLECTION BOX - PO LOBBY", "note": "ON 12/24 AND 12/31, THIS BOX MAY BE COLLECTED AS EARLY AS 12 NOON.", "ref": "3495000044"}, "type": "Feature"}
{"geometry": {"coordinates": [-80.398261204, 27.522608704], "type": "Point"}, "id": "YiclsdqzMVNImxmYIhWoOp6QkhM=", "properties": {"@spider": "usps_collection_boxes", "addr:city": "FORT PIERCE", "addr:country": "US", "addr:full": "4888 N KINGS HIGHWAY", "addr:postcode": "34951", "addr:state": "FL", "brand": "USPS", "collection_times": "Mo-Sa 13:00", "name": "USPS COLLECTION BOX - BLUE BOX", "note": "ON 12/24 AND 12/31, THIS BOX MAY BE COLLECTED AS EARLY AS 12 NOON.", "ref": "3495100000"}, "type": "Feature"}
{"geometry": {"coordinates": [-80.322864143, 27.330358095], "type": "Point"}, "id": "olN84-6qQYuJVOjBFJYeqhyo1Hk=", "properties": {"@spider": "usps_collection_boxes", "addr:city": "PORT ST LUCIE", "addr:country": "US", "addr:full": "7410 S FEDERAL HWY", "addr:postcode": "34952", "addr:state": "FL", "brand": "USPS", "collection_times": "Mo-Fr 11:00; Sa 11:30", "name": "USPS COLLECTION BOX - BLUE BOX", "ref": "3495200005"}, "type": "Feature"}
{"geometry": {"coordinates": [-80.316312745, 27.319218296], "type": "Point"}, "id": "BX7jYgpVrkeb8MPMiKnyT4bb8CA=", "properties": {"@spider": "usps_collection_boxes", "addr:city": "PORT ST LUCIE", "addr:country": "US", "addr:full": "8000 S FEDERAL HWY", "addr:postcode": "34952", "addr:state": "FL", "brand": "USPS", "collection_times": "Mo-Sa 11:15", "name": "USPS COLLECTION BOX - BLUE BOX", "ref": "3495200007"}, "type": "Feature"}
{"geometry": {"coordinates": [-80.292997366, 27.278826328], "type": "Point"}, "id": "wikF3IDBaoxorQmRX01Bhxz6mrc=", "properties": {"@spider": "usps_collection_boxes", "addr:city": "PORT ST LUCIE", "addr:country": "US", "addr:full": "10135 S FEDERAL HWY", "addr:postcode": "34952", "addr:state": "FL", "brand": "USPS", "collection_times": "Mo-Sa 11:00", "name": "USPS COLLECTION BOX - BLUE BOX", "ref": "3495200012"}, "type": "Feature"}
{"geometry": {"coordinates": [-80.295376795, 27.287334141], "type": "Point"}, "id": "0Ht8Mh0C2GJnAYtYktteNYfJvoU=", "properties": {"@spider": "usps_collection_boxes", "addr:city": "PORT ST LUCIE", "addr:country": "US", "addr:full": "1700 SE HILLMOOR DR", "addr:postcode": "34952", "addr:state": "FL", "brand": "USPS", "collection_times": "Mo-Fr 14:15; Sa 11:00", "name": "USPS COLLECTION BOX - BLUE BOX", "note": "ON 12/24 AND 12/31, THIS BOX MAY BE COLLECTED AS EARLY AS 12 NOON.", "ref": "3495200014"}, "type": "Feature"}
{"geometry": {"coordinates": [-80.292737395, 27.284553403], "type": "Point"}, "id": "DO2OrRNaNSfObWhD6wn0xkkVhSw=", "properties": {"@spider": "usps_collection_boxes", "addr:city": "PORT ST LUCIE", "addr:country": "US", "addr:full": "1801 SE HILLMOOR DR", "addr:postcode": "34952", "addr:state": "FL", "brand": "USPS", "collection_times": "Mo-Fr 14:15; Sa 12:00", "name": "USPS COLLECTION BOX - BLUE BOX", "note": "ON 12/24 AND 12/31, THIS BOX MAY BE COLLECTED AS EARLY AS 12 NOON.", "ref": "3495200016"}, "type": "Feature"}
{"geometry": {"coordinates": [-80.321882197, 27.326645391], "type": "Point"}, "id": "7OygPI7JOlpLOLNkr3QdAPLxCgE=", "properties": {"@spider": "usps_collection_boxes", "addr:city": "PORT ST LUCIE", "addr:country": "US", "addr:full": "891 E PRIMA VISTA BLVD", "addr:postcode": "34952", "addr:state": "FL", "brand": "USPS", "collection_times": "Mo-Sa 10:45", "name": "USPS COLLECTION BOX - BLUE BOX", "ref": "3495200024"}, "type": "Feature"}
{"geometry": {"coordinates": [-80.295521101, 27.288932189], "type": "Point"}, "id": "-IFog05x8ik-1QFhKkrx4x21rTw=", "properties": {"@spider": "usps_collection_boxes", "addr:city": "PORT ST LUCIE", "addr:country": "US", "addr:full": "1800 SE TIFFANY AVE", "addr:postcode": "34952", "addr:state": "FL", "brand": "USPS", "collection_times": "Mo-Fr 14:15; Sa 12:15", "name": "USPS COLLECTION BOX - BLUE BOX", "note": "ON 12/24 AND 12/31, THIS BOX MAY BE COLLECTED AS EARLY AS 12 NOON.", "ref": "3495200028"}, "type": "Feature"}
{"geometry": {"coordinates": [-80.317820529, 27.274114686], "type": "Point"}, "id": "ze1Ehsabnhq9ETs0Ph2laEM9mSc=", "properties": {"@spider": "usps_collection_boxes", "addr:city": "PORT ST LUCIE", "addr:country": "US", "addr:full": "2255 SE VETERANS MEMORIAL PKWY", "addr:postcode": "34952", "addr:state": "FL", "brand": "USPS", "collection_times": "Mo-Fr 17:00; Sa 16:00", "name": "USPS COLLECTION BOX - BLUE BOX", "note": "ON 12/24 AND 12/31, THIS BOX MAY BE COLLECTED AS EARLY AS 12 NOON.", "ref": "3495200030"}, "type": "Feature"}
{"geometry": {"coordinates": [-80.305059508, 27.29999858], "type": "Point"}, "id": "suXp8EeDexrMxetc2zwxr1CTn0g=", "properties": {"@spider": "usps_collection_boxes", "addr:city": "PORT ST LUCIE", "addr:country": "US", "addr:full": "9122 S FEDERAL HWY", "addr:postcode": "34952", "addr:state": "FL", "brand": "USPS", "collection_times": "Mo-Sa 11:15", "name": "USPS COLLECTION BOX - BLUE BOX", "ref": "3495200032"}, "type": "Feature"}
{"geometry": {"coordinates": [-80.317820529, 27.274114686], "type": "Point"}, "id": "JmzEYFmXU7U-rT27OZsmPu4_lco=", "properties": {"@spider": "usps_collection_boxes", "addr:city": "PORT ST LUCIE", "addr:country": "US", "addr:full": "2255 SE VETERANS MEMORIAL PKWY", "addr:postcode": "34952", "addr:state": "FL", "brand": "USPS", "collection_times": "Mo-Fr 17:00; Sa 16:00", "name": "USPS COLLECTION BOX - APC", "note": "ON 12/24 AND 12/31, THIS BOX MAY BE COLLECTED AS EARLY AS 12 NOON.", "ref": "3495200033"}, "type": "Feature"}
{"geometry": {"coordinates": [-80.298980445, 27.298914477], "type": "Point"}, "id": "lMMDkBlAlHOkuGTzxy6eqcRBW7U=", "properties": {"@spider": "usps_collection_boxes", "addr:city": "PORT ST LUCIE", "addr:country": "US", "addr:full": "1664 SE WALTON RD", "addr:postcode": "34952", "addr:state": "FL", "brand": "USPS", "collection_times": "Mo-Sa 11:00", "name": "USPS COLLECTION BOX - BLUE BOX", "ref": "3495200034"}, "type": "Feature"}
{"geometry": {"coordinates": [-80.317820529, 27.274114686], "type": "Point"}, "id": "Ja0vN7KmrBWUpEr-CBtBbq8DgVU=", "properties": {"@spider": "usps_collection_boxes", "addr:city": "PORT ST LUCIE", "addr:country": "US", "addr:full": "2255 SE VETERANS MEMORIAL PKWY", "addr:postcode": "34952", "addr:state": "FL", "brand": "USPS", "collection_times": "Mo-Fr 17:00; Sa 16:00", "name": "USPS COLLECTION BOX - BLUE BOX", "note": "ON 12/24 AND 12/31, THIS BOX MAY BE COLLECTED AS EARLY AS 12 NOON.", "ref": "3495200037"}, "type": "Feature"}
{"geometry": {"coordinates": [-80.317820529, 27.274114686], "type": "Point"}, "id": "HE5ZI6kbgFDjg54pWliQRJlEUa8=", "properties": {"@spider": "usps_collection_boxes", "addr:city": "PORT ST LUCIE", "addr:country": "US", "addr:full": "2255 SE VETERANS MEMORIAL PKWY", "addr:postcode": "34952", "addr:state": "FL", "brand": "USPS", "collection_times": "Mo-Fr 17:00; Sa 16:00", "name": "USPS COLLECTION BOX - BLUE BOX", "note": "ON 12/24 AND 12/31, THIS BOX MAY BE COLLECTED AS EARLY AS 12 NOON.", "ref": "3495200038"}, "type": "Feature"}
{"geometry": {"coordinates": [-80.317820529, 27.274114686], "type": "Point"}, "id": "_nuJ1-aI2La_udod0uPJytr8CWE=", "properties": {"@spider": "usps_collection_boxes", "addr:city": "PORT ST LUCIE", "addr:country": "US", "addr:full": "2255 SE VETERANS MEMORIAL PKWY", "addr:postcode": "34952", "addr:state": "FL", "brand": "USPS", "collection_times": "Mo-Fr 17:00; Sa 13:00", "name": "USPS COLLECTION BOX - PO LOBBY", "note": "ON 12/24 AND 12/31, THIS BOX MAY BE COLLECTED AS EARLY AS 12 NOON.", "ref": "3495200045"}, "type": "Feature"}
{"geometry": {"coordinates": [-80.376793254, 27.24886546], "type": "Point"}, "id": "NExysHdsbYcUuwv_TtQwVSA_3zI=", "properties": {"@spider": "usps_collection_boxes", "addr:city": "FORT PIERCE", "addr:country": "US", "addr:full": "3205 SW PORT ST LUCIE BLVD", "addr:postcode": "34953", "addr:state": "FL", "brand": "USPS", "collection_times": "Mo-Sa 15:30", "name": "USPS COLLECTION BOX - BLUE BOX", "note": "ON 12/24 AND 12/31, THIS BOX MAY BE COLLECTED AS EARLY AS 12 NOON.", "ref": "3495300001"}, "type": "Feature"}
{"geometry": {"coordinates": [-80.467440348, 27.020197958], "type": "Point"}, "id": "xWKFA-yY5hxgHI2XuWDGSXlAudw=", "properties": {"@spider": "usps_collection_boxes", "addr:city": "INDIANTOWN", "addr:country": "US", "addr:full": "15300 SW ADAMS AVE", "addr:postcode": "34956", "addr:state": "FL", "brand": "USPS", "collection_times": "Mo-Fr 14:00; Sa 11:00", "name": "USPS COLLECTION BOX - BLUE BOX", "note": "ON 12/24 AND 12/31, THIS BOX MAY BE COLLECTED AS EARLY AS 12 NOON.", "ref": "3495600001"}, "type": "Feature"}
{"geometry": {"coordinates": [-80.473350519, 27.030400818], "type": "Point"}, "id": "gIZWBQEJhgDHJF4yepnrvCsAQv0=", "properties": {"@spider": "usps_collection_boxes", "addr:city": "INDIANTOWN", "addr:country": "US", "addr:full": "14574 SW RAKE DR", "addr:postcode": "34956", "addr:state": "FL", "brand": "USPS", "collection_times": "Mo-Sa 12:00", "name": "USPS COLLECTION BOX - BLUE BOX", "ref": "3495600002"}, "type": "Feature"}
{"geometry": {"coordinates": [-80.467440348, 27.020197958], "type": "Point"}, "id": "k0BVWKNFzOlwDhXWTkAs1qnjtps=", "properties": {"@spider": "usps_collection_boxes", "addr:city": "INDIANTOWN", "addr:country": "US", "addr:full": "15300 SW ADAMS AVE", "addr:postcode": "34956", "addr:state": "FL", "brand": "USPS", "collection_times": "Mo-Fr 14:00; Sa 11:00", "name": "USPS COLLECTION BOX - PO LOBBY", "note": "ON 12/24 AND 12/31, THIS BOX MAY BE COLLECTED AS EARLY AS 12 NOON.", "ref": "3495600004"}, "type": "Feature"}
{"geometry": {"coordinates": [-80.467440348, 27.020197958], "type": "Point"}, "id": "fA6G2ACJjVV85KOt-Tm_ApXQI4o=", "properties": {"@spider": "usps_collection_boxes", "addr:city": "INDIANTOWN", "addr:country": "US", "addr:full": "15300 SW ADAMS AVE", "addr:postcode": "34956", "addr:state": "FL", "brand": "USPS", "collection_times": "Mo-Fr 14:00", "name": "USPS COLLECTION BOX - PO LOBBY", "note": "ON 12/24 AND 12/31, THIS BOX MAY BE COLLECTED AS EARLY AS 12 NOON.", "ref": "3495600006"}, "type": "Feature"}
{"geometry": {"coordinates": [-80.237232, 27.24509952], "type": "Point"}, "id": "LRw6CP2jVvksCt-3vQbQe1rUM4A=", "properties": {"@spider": "usps_collection_boxes", "addr:city": "JENSEN BEACH", "addr:country": "US", "addr:full": "1105 NE JENSEN BEACH BLVD", "addr:postcode": "34957", "addr:state": "FL", "brand": "USPS", "collection_times": "Mo-Sa 11:00", "name": "USPS COLLECTION BOX - BLUE BOX", "ref": "3495700001"}, "type": "Feature"}
{"geometry": {"coordinates": [-80.228090964, 27.243591548], "type": "Point"}, "id": "Cil8iSCk_ObWC-O-J0qREvdJYNY=", "properties": {"@spider": "usps_collection_boxes", "addr:city": "JENSEN BEACH", "addr:country": "US", "addr:full": "1816 NE JENSEN BEACH BLVD", "addr:postcode": "34957", "addr:state": "FL", "brand": "USPS", "collection_times": "Mo-Sa 11:00", "name": "USPS COLLECTION BOX - BLUE BOX", "ref": "3495700006"}, "type": "Feature"}
{"geometry": {"coordinates": [-80.212617473, 27.286697605], "type": "Point"}, "id": "vQfOpKR-YmRI--cA5_RsSo-FdYA=", "properties": {"@spider": "usps_collection_boxes", "addr:city": "JENSEN BEACH", "addr:country": "US", "addr:full": "9801 S OCEAN DR", "addr:postcode": "34957", "addr:state": "FL", "brand": "USPS", "collection_times": "Mo-Fr 12:30; Sa 11:00", "name": "USPS COLLECTION BOX - BLUE BOX", "note": "ON 12/24 AND 12/31, THIS BOX MAY BE COLLECTED AS EARLY AS 12 NOON.", "ref": "3495700011"}, "type": "Feature"}
{"geometry": {"coordinates": [-80.227094705, 27.244709991], "type": "Point"}, "id": "9a6LoDrdzI_g36e0Tcj_3SFq83Q=", "properties": {"@spider": "usps_collection_boxes", "addr:city": "JENSEN BEACH", "addr:country": "US", "addr:full": "1900 NE RICOU TER", "addr:postcode": "34957", "addr:state": "FL", "brand": "USPS", "collection_times": "Mo-Sa 11:00", "name": "USPS COLLECTION BOX - BLUE BOX", "ref": "3495700013"}, "type": "Feature"}
{"geometry": {"coordinates": [-80.223176994, 27.24174479], "type": "Point"}, "id": "yYd4nUXUkUnJTscM3v-p_QNPfkE=", "properties": {"@spider": "usps_collection_boxes", "addr:city": "JENSEN BEACH", "addr:country": "US", "addr:full": "3000 NE INDIAN RIVER DR", "addr:postcode": "34957", "addr:state": "FL", "brand": "USPS", "collection_times": "Mo-Sa 12:00", "name": "USPS COLLECTION BOX - BLUE BOX", "ref": "3495700014"}, "type": "Feature"}
{"geometry": {"coordinates": [-80.236285638, 27.23403218], "type": "Point"}, "id": "mOFSx-ADOyCzC1dc2k4mIUpbNbM=", "properties": {"@spider": "usps_collection_boxes", "addr:city": "JENSEN BEACH", "addr:country": "US", "addr:full": "2301 NE SAVANNAH RD", "addr:postcode": "34957", "addr:state": "FL", "brand": "USPS", "collection_times": "Mo-Fr 17:00; Sa 16:00", "name": "USPS COLLECTION BOX - PO LOBBY", "note": "ON 12/24 AND 12/31, THIS BOX MAY BE COLLECTED AS EARLY AS 12 NOON.", "ref": "3495700023"}, "type": "Feature"}
{"geometry": {"coordinates": [-80.236285638, 27.23403218], "type": "Point"}, "id": "0y-zvCmMH28vJhJFIRdY4VeoZSw=", "properties": {"@spider": "usps_collection_boxes", "addr:city": "JENSEN BEACH", "addr:country": "US", "addr:full": "2301 NE SAVANNAH RD", "addr:postcode": "34957", "addr:state": "FL", "brand": "USPS", "collection_times": "Mo-Fr 17:00; Sa 16:00", "name": "USPS COLLECTION BOX - PO LOBBY", "note": "ON 12/24 AND 12/31, THIS BOX MAY BE COLLECTED AS EARLY AS 12 NOON.", "ref": "3495700024"}, "type": "Feature"}
{"geometry": {"coordinates": [-80.236285638, 27.23403218], "type": "Point"}, "id": "YeIg7e1zlAeDYjKFQ91UDlzQbLI=", "properties": {"@spider": "usps_collection_boxes", "addr:city": "JENSEN BEACH", "addr:country": "US", "addr:full": "2301 NE SAVANNAH RD", "addr:postcode": "34957", "addr:state": "FL", "brand": "USPS", "collection_times": "Mo-Fr 17:00; Sa 16:00", "name": "USPS COLLECTION BOX - PO LOBBY", "note": "ON 12/24 AND 12/31, THIS BOX MAY BE COLLECTED AS EARLY AS 12 NOON.", "ref": "3495700025"}, "type": "Feature"}
{"geometry": {"coordinates": [-80.201756185, 27.264055822], "type": "Point"}, "id": "RDrG0Tfzva3WTzpJKQPyDPuWCj8=", "properties": {"@spider": "usps_collection_boxes", "addr:city": "JENSEN BEACH", "addr:country": "US", "addr:full": "11007 S OCEAN DR", "addr:postcode": "34957", "addr:state": "FL", "brand": "USPS", "collection_times": "Mo-Fr 16:00; Sa 12:00", "name": "USPS COLLECTION BOX - BLUE BOX", "note": "ON 12/24 AND 12/31, THIS BOX MAY BE COLLECTED AS EARLY AS 12 NOON.", "ref": "3495700033"}, "type": "Feature"}
{"geometry": {"coordinates": [-80.201756185, 27.264055822], "type": "Point"}, "id": "9HkwqiDK9Mnq6BTrkBYlE79HdeA=", "properties": {"@spider": "usps_collection_boxes", "addr:city": "JENSEN BEACH", "addr:country": "US", "addr:full": "11007 S OCEAN DR", "addr:postcode": "34957", "addr:state": "FL", "brand": "USPS", "collection_times": "Mo-Fr 16:00", "name": "USPS COLLECTION BOX - PO LOBBY", "note": "ON 12/24 AND 12/31, THIS BOX MAY BE COLLECTED AS EARLY AS 12 NOON.", "ref": "3495700034"}, "type": "Feature"}
{"geometry": {"coordinates": [-80.236285638, 27.23403218], "type": "Point"}, "id": "CGCSxKIYq4RnN5GOCsVXZSsmqPA=", "properties": {"@spider": "usps_collection_boxes", "addr:city": "JENSEN BEACH", "addr:country": "US", "addr:full": "2301 NE SAVANNAH RD", "addr:postcode": "34957", "addr:state": "FL", "brand": "USPS", "collection_times": "Mo-Fr 17:00; Sa 16:00", "name": "USPS COLLECTION BOX - APC", "note": "ON 12/24 AND 12/31, THIS BOX MAY BE COLLECTED AS EARLY AS 12 NOON.", "ref": "3495700037"}, "type": "Feature"}
{"geometry": {"coordinates": [-80.235624984, 27.2328659879], "type": "Point"}, "id": "Sid50bzay98DSSIFq1e6RvEDrko=", "properties": {"@spider": "usps_collection_boxes", "addr:city": "JENSEN BEACH", "addr:country": "US", "addr:full": "2301 NE SAVANNAH RD", "addr:postcode": "34957", "addr:state": "FL", "brand": "USPS", "collection_times": "Mo-Fr 17:00; Sa 15:00", "name": "USPS COLLECTION BOX - PO LOBBY", "note": "ON 12/24 AND 12/31, THIS BOX MAY BE COLLECTED AS EARLY AS 12 NOON.", "ref": "3495700042"}, "type": "Feature"}
{"geometry": {"coordinates": [-80.201756185, 27.264055822], "type": "Point"}, "id": "jYqjpAhEC_dW9wjT5vIkOay0XY8=", "properties": {"@spider": "usps_collection_boxes", "addr:city": "JENSEN BEACH", "addr:country": "US", "addr:full": "11007 S OCEAN DR", "addr:postcode": "34957", "addr:state": "FL", "brand": "USPS", "collection_times": "Mo-Fr 16:00", "name": "USPS COLLECTION BOX - PO LOBBY", "note": "ON 12/24 AND 12/31, THIS BOX MAY BE COLLECTED AS EARLY AS 12 NOON.", "ref": "3495700043"}, "type": "Feature"}
{"geometry": {"coordinates": [-80.841476746, 27.243792109], "type": "Point"}, "id": "fP5tGcKbhaYSNcvD-yRSp1wzSGE=", "properties": {"@spider": "usps_collection_boxes", "addr:city": "OKEECHOBEE", "addr:country": "US", "addr:full": "1000 HIGHWAY 70", "addr:postcode": "34972", "addr:state": "FL", "brand": "USPS", "collection_times": "Mo-Sa 17:00", "name": "USPS COLLECTION BOX - PO LOBBY", "note": "ON 12/24 AND 12/31, THIS BOX MAY BE COLLECTED AS EARLY AS 12 NOON.", "ref": "3497200001"}, "type": "Feature"}
{"geometry": {"coordinates": [-80.832275038, 27.244707885], "type": "Point"}, "id": "An6sAswQRlYqNczWFnDGVzi9-u4=", "properties": {"@spider": "usps_collection_boxes", "addr:city": "OKEECHOBEE", "addr:country": "US", "addr:full": "303 NW 2ND ST", "addr:postcode": "34972", "addr:state": "FL", "brand": "USPS", "collection_times": "Mo-Sa 14:00", "name": "USPS COLLECTION BOX - BLUE BOX", "note": "ON 12/24 AND 12/31, THIS BOX MAY BE COLLECTED AS EARLY AS 12 NOON.", "ref": "3497200004"}, "type": "Feature"}
{"geometry": {"coordinates": [-80.841476746, 27.243792109], "type": "Point"}, "id": "AJevM--KmhvuxLf-u5emc9P_FKk=", "properties": {"@spider": "usps_collection_boxes", "addr:city": "OKEECHOBEE", "addr:country": "US", "addr:full": "1000 HIGHWAY 70", "addr:postcode": "34972", "addr:state": "FL", "brand": "USPS", "collection_times": "Mo-Sa 17:00", "name": "USPS COLLECTION BOX - BLUE BOX", "note": "ON 12/24 AND 12/31, THIS BOX MAY BE COLLECTED AS EARLY AS 12 NOON.", "ref": "3497200007"}, "type": "Feature"}
{"geometry": {"coordinates": [-80.8299101, 27.25980147], "type": "Point"}, "id": "-YkXqTUFNNoGREVksBKf_Fl-nFg=", "properties": {"@spider": "usps_collection_boxes", "addr:city": "OKEECHOBEE", "addr:country": "US", "addr:full": "1796 US HIGHWAY 441 N", "addr:postcode": "34972", "addr:state": "FL", "brand": "USPS", "collection_times": "Mo-Sa 13:00", "name": "USPS COLLECTION BOX - BLUE BOX", "note": "ON 12/24 AND 12/31, THIS BOX MAY BE COLLECTED AS EARLY AS 12 NOON.", "ref": "3497200008"}, "type": "Feature"}
{"geometry": {"coordinates": [-80.841476746, 27.243792109], "type": "Point"}, "id": "ynLKU_zmBiSBGNXIqptO6H_tfp4=", "properties": {"@spider": "usps_collection_boxes", "addr:city": "OKEECHOBEE", "addr:country": "US", "addr:full": "1000 HIGHWAY 70", "addr:postcode": "34972", "addr:state": "FL", "brand": "USPS", "collection_times": "Mo-Sa 17:00", "name": "USPS COLLECTION BOX - PO LOBBY", "note": "ON 12/24 AND 12/31, THIS BOX MAY BE COLLECTED AS EARLY AS 12 NOON.", "ref": "3497200009"}, "type": "Feature"}
{"geometry": {"coordinates": [-80.841476746, 27.243792109], "type": "Point"}, "id": "8UDwknY8g3W2A1I7J4OkskqQEPE=", "properties": {"@spider": "usps_collection_boxes", "addr:city": "OKEECHOBEE", "addr:country": "US", "addr:full": "1000 HIGHWAY 70", "addr:postcode": "34972", "addr:state": "FL", "brand": "USPS", "collection_times": "Mo-Sa 17:00", "name": "USPS COLLECTION BOX - PO LOBBY", "note": "ON 12/24 AND 12/31, THIS BOX MAY BE COLLECTED AS EARLY AS 12 NOON.", "ref": "3497200010"}, "type": "Feature"}
{"geometry": {"coordinates": [-80.818321332, 27.243668501], "type": "Point"}, "id": "5_B3VITby5VGnA3Q8UjerosdUgY=", "properties": {"@spider": "usps_collection_boxes", "addr:city": "OKEECHOBEE", "addr:country": "US", "addr:full": "1000 STATE ROAD 70 E", "addr:postcode": "34972", "addr:state": "FL", "brand": "USPS", "collection_times": "Mo-Fr 17:00; Sa 12:00", "name": "USPS COLLECTION BOX - PO LOBBY", "note": "ON 12/24 AND 12/31, THIS BOX MAY BE COLLECTED AS EARLY AS 12 NOON.", "ref": "3497200017"}, "type": "Feature"}
{"geometry": {"coordinates": [-80.829961881, 27.209441011], "type": "Point"}, "id": "JArtyX0CQliQ18qaceI4R_4JMno=", "properties": {"@spider": "usps_collection_boxes", "addr:city": "OKEECHOBEE", "addr:country": "US", "addr:full": "3603 US HIGHWAY 441 S", "addr:postcode": "34974", "addr:state": "FL", "brand": "USPS", "collection_times": "Mo-Sa 13:30", "name": "USPS COLLECTION BOX - BLUE BOX", "note": "ON 12/24 AND 12/31, THIS BOX MAY BE COLLECTED AS EARLY AS 12 NOON.", "ref": "3497400002"}, "type": "Feature"}
{"geometry": {"coordinates": [-80.829688091, 27.204914011], "type": "Point"}, "id": "knNk1L9Xqb1wKQ-Pbusal8Exxw0=", "properties": {"@spider": "usps_collection_boxes", "addr:city": "OKEECHOBEE", "addr:country": "US", "addr:full": "4276 US HIGHWAY 441 S", "addr:postcode": "34974", "addr:state": "FL", "brand": "USPS", "collection_times": "Mo-Sa 13:30", "name": "USPS COLLECTION BOX - BLUE BOX", "note": "ON 12/24 AND 12/31, THIS BOX MAY BE COLLECTED AS EARLY AS 12 NOON.", "ref": "3497400003"}, "type": "Feature"}
{"geometry": {"coordinates": [-80.829694204, 27.213825104], "type": "Point"}, "id": "kXJrz0IWcF2V9NkJr_yMgdNIRtw=", "properties": {"@spider": "usps_collection_boxes", "addr:city": "OKEECHOBEE", "addr:country": "US", "addr:full": "3246 US HIGHWAY 441 S", "addr:postcode": "34974", "addr:state": "FL", "brand": "USPS", "collection_times": "Mo-Sa 13:30", "name": "USPS COLLECTION BOX - BLUE BOX", "note": "ON 12/24 AND 12/31, THIS BOX MAY BE COLLECTED AS EARLY AS 12 NOON.", "ref": "3497400004"}, "type": "Feature"}
{"geometry": {"coordinates": [-80.829758047, 27.235151445], "type": "Point"}, "id": "eMEaXIlEe3dKA5GKhyrQyAwsEhs=", "properties": {"@spider": "usps_collection_boxes", "addr:city": "OKEECHOBEE", "addr:country": "US", "addr:full": "815 S PARROTT AVE", "addr:postcode": "34974", "addr:state": "FL", "brand": "USPS", "collection_times": "Mo-Sa 14:00", "name": "USPS COLLECTION BOX - BLUE BOX", "note": "ON 12/24 AND 12/31, THIS BOX MAY BE COLLECTED AS EARLY AS 12 NOON.", "ref": "3497400006"}, "type": "Feature"}
{"geometry": {"coordinates": [-80.829737094, 27.222918994], "type": "Point"}, "id": "U02HwGc03v7GjKXFfNfYnhTvyIQ=", "properties": {"@spider": "usps_collection_boxes", "addr:city": "OKEECHOBEE", "addr:country": "US", "addr:full": "2101 S PARROTT AVE", "addr:postcode": "34974", "addr:state": "FL", "brand": "USPS", "collection_times": "Mo-Sa 14:00", "name": "USPS COLLECTION BOX - BLUE BOX", "note": "ON 12/24 AND 12/31, THIS BOX MAY BE COLLECTED AS EARLY AS 12 NOON.", "ref": "3497400007"}, "type": "Feature"}
{"geometry": {"coordinates": [-80.375528504, 27.374480504], "type": "Point"}, "id": "2xwWs5JEWjvZqXVpxBXelpt8YWw=", "properties": {"@spider": "usps_collection_boxes", "addr:city": "FORT PIERCE", "addr:country": "US", "addr:full": "5000 W MIDWAY RD", "addr:postcode": "34981", "addr:state": "FL", "brand": "USPS", "collection_times": "Mo-Sa 17:00", "name": "USPS COLLECTION BOX - PO LOBBY", "note": "ON 12/24 AND 12/31, THIS BOX MAY BE COLLECTED AS EARLY AS 12 NOON.", "ref": "3498100006"}, "type": "Feature"}
{"geometry": {"coordinates": [-80.375528504, 27.374480504], "type": "Point"}, "id": "E5K2cByJf5t6kJLBh9UhWYJp4HE=", "properties": {"@spider": "usps_collection_boxes", "addr:city": "FORT PIERCE", "addr:country": "US", "addr:full": "5000 W MIDWAY RD", "addr:postcode": "34981", "addr:state": "FL", "brand": "USPS", "collection_times": "Mo-Sa 17:00", "name": "USPS COLLECTION BOX - APC", "note": "ON 12/24 AND 12/31, THIS BOX MAY BE COLLECTED AS EARLY AS 12 NOON.", "ref": "3498100007"}, "type": "Feature"}
{"geometry": {"coordinates": [-80.375528504, 27.374480504], "type": "Point"}, "id": "9ndDi7l9EvmGQkWA5K6exOyPmys=", "properties": {"@spider": "usps_collection_boxes", "addr:city": "FORT PIERCE", "addr:country": "US", "addr:full": "5000 W MIDWAY RD", "addr:postcode": "34981", "addr:state": "FL", "brand": "USPS", "collection_times": "Mo-Sa 17:00", "name": "USPS COLLECTION BOX - PO LOBBY", "note": "ON 12/24 AND 12/31, THIS BOX MAY BE COLLECTED AS EARLY AS 12 NOON.", "ref": "3498100010"}, "type": "Feature"}
{"geometry": {"coordinates": [-80.32597046, 27.423384496], "type": "Point"}, "id": "-rDyWhYkLCh1n5exEzJnYYtC1-g=", "properties": {"@spider": "usps_collection_boxes", "addr:city": "FORT PIERCE", "addr:country": "US", "addr:full": "2503 S FEDERAL HWY", "addr:postcode": "34982", "addr:state": "FL", "brand": "USPS", "collection_times": "Mo-Sa 12:30", "name": "USPS COLLECTION BOX - BLUE BOX", "note": "ON 12/24 AND 12/31, THIS BOX MAY BE COLLECTED AS EARLY AS 12 NOON.", "ref": "3498200001"}, "type": "Feature"}
{"geometry": {"coordinates": [-80.326043479, 27.375403733], "type": "Point"}, "id": "cEiRkoyWXp8pjwp5c9CjhKeTpr0=", "properties": {"@spider": "usps_collection_boxes", "addr:city": "FORT PIERCE", "addr:country": "US", "addr:full": "4937 S FEDERAL HWY", "addr:postcode": "34982", "addr:state": "FL", "brand": "USPS", "collection_times": "Mo-Sa 12:30", "name": "USPS COLLECTION BOX - BLUE BOX", "note": "ON 12/24 AND 12/31, THIS BOX MAY BE COLLECTED AS EARLY AS 12 NOON.", "ref": "3498200008"}, "type": "Feature"}
{"geometry": {"coordinates": [-80.329329, 27.425427464], "type": "Point"}, "id": "9BbaC4GQD4eCcHr9Le2DvrssW6A=", "properties": {"@spider": "usps_collection_boxes", "addr:city": "FORT PIERCE", "addr:country": "US", "addr:full": "700 VIRGINIA AVE", "addr:postcode": "34982", "addr:state": "FL", "brand": "USPS", "collection_times": "Mo-Fr 12:00; Sa 11:15", "name": "USPS COLLECTION BOX - BLUE BOX", "ref": "3498200011"}, "type": "Feature"}
{"geometry": {"coordinates": [-80.343195172, 27.273417396], "type": "Point"}, "id": "hKzXMEJ-mNH2MEpwG-wiHQAscZY=", "properties": {"@spider": "usps_collection_boxes", "addr:city": "PORT ST LUCIE", "addr:country": "US", "addr:full": "121 SW PORT ST LUCIE BLVD", "addr:postcode": "34984", "addr:state": "FL", "brand": "USPS", "collection_times": "Mo-Sa 12:00", "name": "USPS COLLECTION BOX - BLUE BOX", "ref": "3498400003"}, "type": "Feature"}
{"geometry": {"coordinates": [-80.354603875, 27.274368695], "type": "Point"}, "id": "TlECwMZ6jBFonvoLUTCuexWjpjc=", "properties": {"@spider": "usps_collection_boxes", "addr:city": "PORT ST LUCIE", "addr:country": "US", "addr:full": "265 SW PORT ST LUCIE BLVD", "addr:postcode": "34984", "addr:state": "FL", "brand": "USPS", "collection_times": "Mo-Fr 12:29; Sa 12:00", "name": "USPS COLLECTION BOX - BLUE BOX", "note": "ON 12/24 AND 12/31, THIS BOX MAY BE COLLECTED AS EARLY AS 12 NOON.", "ref": "3498400007"}, "type": "Feature"}
{"geometry": {"coordinates": [-80.387818237, 27.316476038], "type": "Point"}, "id": "bsVQ-omg0lppCm-B1r9LDuwmio8=", "properties": {"@spider": "usps_collection_boxes", "addr:city": "FORT PIERCE", "addr:country": "US", "addr:full": "1337 NW SAINT LUCIE WEST BLVD", "addr:postcode": "34986", "addr:state": "FL", "brand": "USPS", "collection_times": "Mo-Sa 10:15", "name": "USPS COLLECTION BOX - BLUE BOX", "ref": "3498600001"}, "type": "Feature"}
{"geometry": {"coordinates": [-80.385523927, 27.316798957], "type": "Point"}, "id": "BKIHzJBKlCA16HuNHKCeiujhCNU=", "properties": {"@spider": "usps_collection_boxes", "addr:city": "FORT PIERCE", "addr:country": "US", "addr:full": "1100 SW SAINT LUCIE WEST BLVD", "addr:postcode": "34986", "addr:state": "FL", "brand": "USPS", "collection_times": "Mo-Sa 11:00", "name": "USPS COLLECTION BOX - BLUE BOX", "ref": "3498600004"}, "type": "Feature"}
{"geometry": {"coordinates": [-80.406941929, 27.317403555], "type": "Point"}, "id": "52g7sZAVspwhANebCjOQmP84mSw=", "properties": {"@spider": "usps_collection_boxes", "addr:city": "FORT PIERCE", "addr:country": "US", "addr:full": "290 NW PEACOCK BLVD", "addr:postcode": "34986", "addr:state": "FL", "brand": "USPS", "collection_times": "Mo-Sa 17:00", "name": "USPS COLLECTION BOX - APC", "note": "ON 12/24 AND 12/31, THIS BOX MAY BE COLLECTED AS EARLY AS 12 NOON.", "ref": "3498600006"}, "type": "Feature"}
{"geometry": {"coordinates": [-80.4252709916, 27.31331298], "type": "Point"}, "id": "2-g7AEvFszFudGWIPgmfSc407TQ=", "properties": {"@spider": "usps_collection_boxes", "addr:city": "FORT PIERCE", "addr:country": "US", "addr:full": "9701 RESERVE BLVD", "addr:postcode": "34986", "addr:state": "FL", "brand": "USPS", "collection_times": "Mo-Sa 13:00", "name": "USPS COLLECTION BOX - BLUE BOX", "note": "ON 12/24 AND 12/31, THIS BOX MAY BE COLLECTED AS EARLY AS 12 NOON.", "ref": "3498600007"}, "type": "Feature"}
{"geometry": {"coordinates": [-80.406941929, 27.317403555], "type": "Point"}, "id": "w-hNT0u_H8mUQWKZfoMm2mMOkwg=", "properties": {"@spider": "usps_collection_boxes", "addr:city": "FORT PIERCE", "addr:country": "US", "addr:full": "290 NW PEACOCK BLVD", "addr:postcode": "34986", "addr:state": "FL", "brand": "USPS", "collection_times": "Mo-Sa 17:00", "name": "USPS COLLECTION BOX - PO LOBBY", "note": "ON 12/24 AND 12/31, THIS BOX MAY BE COLLECTED AS EARLY AS 12 NOON.", "ref": "3498600008"}, "type": "Feature"}
{"geometry": {"coordinates": [-80.406941929, 27.317403555], "type": "Point"}, "id": "AButUU7_t-ptoLuyW2EQPCT-jZQ=", "properties": {"@spider": "usps_collection_boxes", "addr:city": "FORT PIERCE", "addr:country": "US", "addr:full": "290 NW PEACOCK BLVD", "addr:postcode": "34986", "addr:state": "FL", "brand": "USPS", "collection_times": "Mo-Sa 17:00", "name": "USPS COLLECTION BOX - PO LOBBY", "note": "ON 12/24 AND 12/31, THIS BOX MAY BE COLLECTED AS EARLY AS 12 NOON.", "ref": "3498600009"}, "type": "Feature"}
{"geometry": {"coordinates": [-80.406941929, 27.317403555], "type": "Point"}, "id": "FXFpkfOFCngX5Effetn_TlBEfuk=", "properties": {"@spider": "usps_collection_boxes", "addr:city": "FORT PIERCE", "addr:country": "US", "addr:full": "290 NW PEACOCK BLVD", "addr:postcode": "34986", "addr:state": "FL", "brand": "USPS", "collection_times": "Mo-Sa 17:00", "name": "USPS COLLECTION BOX - PO LOBBY", "note": "ON 12/24 AND 12/31, THIS BOX MAY BE COLLECTED AS EARLY AS 12 NOON.", "ref": "3498600010"}, "type": "Feature"}
{"geometry": {"coordinates": [-80.379159091, 27.316501502], "type": "Point"}, "id": "JyuX7xiXQjJQzOnFAbHNd2FO0m8=", "properties": {"@spider": "usps_collection_boxes", "addr:city": "FORT PIERCE", "addr:country": "US", "addr:full": "119 SW CASHMERE BLVD", "addr:postcode": "34986", "addr:state": "FL", "brand": "USPS", "collection_times": "Mo-Sa 11:30", "name": "USPS COLLECTION BOX - BLUE BOX", "ref": "3498600011"}, "type": "Feature"}
{"geometry": {"coordinates": [-80.406941929, 27.317403555], "type": "Point"}, "id": "o18AFeEqtsEyjgZK7iojiYoPLxY=", "properties": {"@spider": "usps_collection_boxes", "addr:city": "FORT PIERCE", "addr:country": "US", "addr:full": "290 NW PEACOCK BLVD", "addr:postcode": "34986", "addr:state": "FL", "brand": "USPS", "collection_times": "Mo-Fr 18:00; Sa 15:00", "name": "USPS COLLECTION BOX - PO LOBBY", "note": "ON 12/24 AND 12/31, THIS BOX MAY BE COLLECTED AS EARLY AS 12 NOON.", "ref": "3498600019"}, "type": "Feature"}
{"geometry": {"coordinates": [-80.296598022, 27.171997278], "type": "Point"}, "id": "UroFY_Qze_RJVZarl-PfHSznhuo=", "properties": {"@spider": "usps_collection_boxes", "addr:city": "PALM CITY", "addr:country": "US", "addr:full": "3120 SW MARTIN DOWNS BLVD", "addr:postcode": "34990", "addr:state": "FL", "brand": "USPS", "collection_times": "Mo-Sa 12:00", "name": "USPS COLLECTION BOX - BLUE BOX", "ref": "3499000001"}, "type": "Feature"}
{"geometry": {"coordinates": [-80.269987804, 27.161223461], "type": "Point"}, "id": "hg0k4L2k8UXdFOCZXUuB85lpnJQ=", "properties": {"@spider": "usps_collection_boxes", "addr:city": "PALM CITY", "addr:country": "US", "addr:full": "1257 SW MARTIN HWY", "addr:postcode": "34990", "addr:state": "FL", "brand": "USPS", "collection_times": "Mo-Fr 17:00; Sa 12:30", "name": "USPS COLLECTION BOX - PO LOBBY", "note": "ON 12/24 AND 12/31, THIS BOX MAY BE COLLECTED AS EARLY AS 12 NOON.", "ref": "3499000005"}, "type": "Feature"}
{"geometry": {"coordinates": [-80.294880936, 27.172626328], "type": "Point"}, "id": "Bomk5x8rAd02xgJZwIfA1S3iyMU=", "properties": {"@spider": "usps_collection_boxes", "addr:city": "PALM CITY", "addr:country": "US", "addr:full": "3035 SW MARTIN DOWNS BLVD", "addr:postcode": "34990", "addr:state": "FL", "brand": "USPS", "collection_times": "Mo-Sa 12:00", "name": "USPS COLLECTION BOX - BLUE BOX", "ref": "3499000006"}, "type": "Feature"}
{"geometry": {"coordinates": [-80.290874399, 27.172306315], "type": "Point"}, "id": "8k2AEEGniV6Nn8zq-C6K54p58VQ=", "properties": {"@spider": "usps_collection_boxes", "addr:city": "PALM CITY", "addr:country": "US", "addr:full": "2750 SW MARTIN DOWNS BLVD", "addr:postcode": "34990", "addr:state": "FL", "brand": "USPS", "collection_times": "Mo-Sa 12:00", "name": "USPS COLLECTION BOX - BLUE BOX", "ref": "3499000007"}, "type": "Feature"}
{"geometry": {"coordinates": [-80.269987804, 27.161223461], "type": "Point"}, "id": "m0NzhimLO2nxacGK9j7LqUcuIUA=", "properties": {"@spider": "usps_collection_boxes", "addr:city": "PALM CITY", "addr:country": "US", "addr:full": "1257 SW MARTIN HWY", "addr:postcode": "34990", "addr:state": "FL", "brand": "USPS", "collection_times": "Mo-Fr 17:00; Sa 12:30", "name": "USPS COLLECTION BOX - APC", "note": "ON 12/24 AND 12/31, THIS BOX MAY BE COLLECTED AS EARLY AS 12 NOON.", "ref": "3499000008"}, "type": "Feature"}
{"geometry": {"coordinates": [-80.2699878039, 27.161223461], "type": "Point"}, "id": "VHDTB1pJOeiLuNMD4cQle1AO21I=", "properties": {"@spider": "usps_collection_boxes", "addr:city": "PALM CITY", "addr:country": "US", "addr:full": "1257 SW MARTIN HWY", "addr:postcode": "34990", "addr:state": "FL", "brand": "USPS", "collection_times": "Mo-Fr 17:00; Sa 12:30", "name": "USPS COLLECTION BOX - PO LOBBY", "note": "ON 12/24 AND 12/31, THIS BOX MAY BE COLLECTED AS EARLY AS 12 NOON.", "ref": "3499000009"}, "type": "Feature"}
{"geometry": {"coordinates": [-80.269987804, 27.161223461], "type": "Point"}, "id": "A82LdylYDuabSJCBfYl9kgXnJ5w=", "properties": {"@spider": "usps_collection_boxes", "addr:city": "PALM CITY", "addr:country": "US", "addr:full": "1257 SW MARTIN HWY", "addr:postcode": "34990", "addr:state": "FL", "brand": "USPS", "collection_times": "Mo-Fr 17:00; Sa 12:00", "name": "USPS COLLECTION BOX - PO LOBBY", "note": "ON 12/24 AND 12/31, THIS BOX MAY BE COLLECTED AS EARLY AS 12 NOON.", "ref": "3499000013"}, "type": "Feature"}
{"geometry": {"coordinates": [-80.198163075, 27.146476025], "type": "Point"}, "id": "1Eg1GrLJ1tDaiPqIcDCQwJLE3Lc=", "properties": {"@spider": "usps_collection_boxes", "addr:city": "PORT SALERNO", "addr:country": "US", "addr:full": "4755 SE DIXIE HWY", "addr:postcode": "34992", "addr:state": "FL", "brand": "USPS", "collection_times": "Mo-Fr 17:00; Sa 09:00", "name": "USPS COLLECTION BOX - BLUE BOX", "note": "ON 12/24 AND 12/31, THIS BOX MAY BE COLLECTED AS EARLY AS 12 NOON.", "ref": "3499200001"}, "type": "Feature"}
{"geometry": {"coordinates": [-80.198163075, 27.146476025], "type": "Point"}, "id": "viDS2_fXNdMDtdvAy87YIeuxVSI=", "properties": {"@spider": "usps_collection_boxes", "addr:city": "PORT SALERNO", "addr:country": "US", "addr:full": "4755 SE DIXIE HWY", "addr:postcode": "34992", "addr:state": "FL", "brand": "USPS", "collection_times": "Mo-Fr 17:00; Sa 09:00", "name": "USPS COLLECTION BOX - PO LOBBY", "note": "ON 12/24 AND 12/31, THIS BOX MAY BE COLLECTED AS EARLY AS 12 NOON.", "ref": "3499200002"}, "type": "Feature"}
{"geometry": {"coordinates": [-80.198163075, 27.146476025], "type": "Point"}, "id": "NoI05NtRDC2y2J5PbCdJE7PP48I=", "properties": {"@spider": "usps_collection_boxes", "addr:city": "PORT SALERNO", "addr:country": "US", "addr:full": "4755 SE DIXIE HWY", "addr:postcode": "34992", "addr:state": "FL", "brand": "USPS", "collection_times": "Mo-Fr 17:00; Sa 09:00", "name": "USPS COLLECTION BOX - PO LOBBY", "note": "ON 12/24 AND 12/31, THIS BOX MAY BE COLLECTED AS EARLY AS 12 NOON.", "ref": "3499200003"}, "type": "Feature"}
{"geometry": {"coordinates": [-80.198163075, 27.146476025], "type": "Point"}, "id": "tJxRpmfU6Wtq3ezC7Es0q_9ZiS0=", "properties": {"@spider": "usps_collection_boxes", "addr:city": "PORT SALERNO", "addr:country": "US", "addr:full": "4755 SE DIXIE HWY", "addr:postcode": "34992", "addr:state": "FL", "brand": "USPS", "collection_times": "Mo-Fr 17:00", "name": "USPS COLLECTION BOX - PO LOBBY", "note": "ON 12/24 AND 12/31, THIS BOX MAY BE COLLECTED AS EARLY AS 12 NOON.", "ref": "3499200004"}, "type": "Feature"}
{"geometry": {"coordinates": [-80.2519170106, 27.1787164929], "type": "Point"}, "id": "e9L_SNMP_34b6njlvHCr2qGM7pk=", "properties": {"@spider": "usps_collection_boxes", "addr:city": "STUART", "addr:country": "US", "addr:full": "10 SE CENTRAL PKWY", "addr:postcode": "34994", "addr:state": "FL", "brand": "USPS", "collection_times": "Mo-Sa 09:30", "name": "USPS COLLECTION BOX - BLUE BOX", "ref": "3499400009"}, "type": "Feature"}
{"geometry": {"coordinates": [-80.2552192612, 27.1922496148], "type": "Point"}, "id": "PkEBW-vTPq5qyp451pLuZDN_YSc=", "properties": {"@spider": "usps_collection_boxes", "addr:city": "STUART", "addr:country": "US", "addr:full": "789 SW FEDERAL HWY", "addr:postcode": "34994", "addr:state": "FL", "brand": "USPS", "collection_times": "Mo-Fr 13:30; Sa 11:00", "name": "USPS COLLECTION BOX - BLUE BOX", "note": "ON 12/24 AND 12/31, THIS BOX MAY BE COLLECTED AS EARLY AS 12 NOON.", "ref": "3499400012"}, "type": "Feature"}
{"geometry": {"coordinates": [-80.23771001, 27.178700552], "type": "Point"}, "id": "0BSluhFZWeq3twkdLqOBhPPmaVY=", "properties": {"@spider": "usps_collection_boxes", "addr:city": "STUART", "addr:country": "US", "addr:full": "2160 SE FEDERAL HWY", "addr:postcode": "34994", "addr:state": "FL", "brand": "USPS", "collection_times": "Mo-Sa 14:00", "name": "USPS COLLECTION BOX - BLUE BOX", "note": "ON 12/24 AND 12/31, THIS BOX MAY BE COLLECTED AS EARLY AS 12 NOON.", "ref": "3499400014"}, "type": "Feature"}
{"geometry": {"coordinates": [-80.252820879, 27.198187029], "type": "Point"}, "id": "EufWKTNwfFIgJ8M3rSqaQSOymyQ=", "properties": {"@spider": "usps_collection_boxes", "addr:city": "STUART", "addr:country": "US", "addr:full": "300 COLORADO AVE", "addr:postcode": "34994", "addr:state": "FL", "brand": "USPS", "collection_times": "Mo-Sa 13:00", "name": "USPS COLLECTION BOX - BLUE BOX", "note": "ON 12/24 AND 12/31, THIS BOX MAY BE COLLECTED AS EARLY AS 12 NOON.", "ref": "3499400024"}, "type": "Feature"}
{"geometry": {"coordinates": [-80.2505318751, 27.197476582], "type": "Point"}, "id": "zueaWNVZ9SCPQhYgoGGRoV5PnXY=", "properties": {"@spider": "usps_collection_boxes", "addr:city": "STUART", "addr:country": "US", "addr:full": "120 SE OCEAN BLVD", "addr:postcode": "34994", "addr:state": "FL", "brand": "USPS", "collection_times": "Mo-Sa 11:00", "name": "USPS COLLECTION BOX - BLUE BOX", "ref": "3499400026"}, "type": "Feature"}
{"geometry": {"coordinates": [-80.25002047, 27.192195], "type": "Point"}, "id": "6mbQbADEP7M1XJrlJzTrjoLftHk=", "properties": {"@spider": "usps_collection_boxes", "addr:city": "STUART", "addr:country": "US", "addr:full": "801 SE JOHNSON AVE", "addr:postcode": "34994", "addr:state": "FL", "brand": "USPS", "collection_times": "Mo-Sa 17:00", "name": "USPS COLLECTION BOX - BLUE BOX", "note": "ON 12/24 AND 12/31, THIS BOX MAY BE COLLECTED AS EARLY AS 12 NOON.", "ref": "3499400029"}, "type": "Feature"}
{"geometry": {"coordinates": [-80.236805023, 27.167323552], "type": "Point"}, "id": "weuUFt5fkYvvKSEN4zsdkr4Djhc=", "properties": {"@spider": "usps_collection_boxes", "addr:city": "STUART", "addr:country": "US", "addr:full": "3100 SE ASTER LN", "addr:postcode": "34994", "addr:state": "FL", "brand": "USPS", "collection_times": "Mo-Sa 12:00", "name": "USPS COLLECTION BOX - BLUE BOX", "ref": "3499400036"}, "type": "Feature"}
{"geometry": {"coordinates": [-80.2419893076, 27.1755944991], "type": "Point"}, "id": "Rr91UK8_XZlAiO83nqHXmWaO1Ng=", "properties": {"@spider": "usps_collection_boxes", "addr:city": "STUART", "addr:country": "US", "addr:full": "800 SE MONTEREY RD", "addr:postcode": "34994", "addr:state": "FL", "brand": "USPS", "collection_times": "Mo-Sa 10:00", "name": "USPS COLLECTION BOX - BLUE BOX", "ref": "3499400043"}, "type": "Feature"}
{"geometry": {"coordinates": [-80.2322384737, 27.1713240842], "type": "Point"}, "id": "1MBzim2G96QDq2oZ9Pkk4EF0LSc=", "properties": {"@spider": "usps_collection_boxes", "addr:city": "STUART", "addr:country": "US", "addr:full": "1250 SE GLENWOOD DR", "addr:postcode": "34994", "addr:state": "FL", "brand": "USPS", "collection_times": "Mo-Sa 15:00", "name": "USPS COLLECTION BOX - BLUE BOX", "note": "ON 12/24 AND 12/31, THIS BOX MAY BE COLLECTED AS EARLY AS 12 NOON.", "ref": "3499400045"}, "type": "Feature"}
{"geometry": {"coordinates": [-80.237928526, 27.197468532], "type": "Point"}, "id": "xixS5sTHayX7wUIzw2TQOpE2Wnk=", "properties": {"@spider": "usps_collection_boxes", "addr:city": "STUART", "addr:country": "US", "addr:full": "900 SE OCEAN BLVD", "addr:postcode": "34994", "addr:state": "FL", "brand": "USPS", "collection_times": "Mo-Sa 14:30", "name": "USPS COLLECTION BOX - BLUE BOX", "note": "ON 12/24 AND 12/31, THIS BOX MAY BE COLLECTED AS EARLY AS 12 NOON.", "ref": "3499400047"}, "type": "Feature"}
{"geometry": {"coordinates": [-80.25002047, 27.192195], "type": "Point"}, "id": "6JNRDXvIJGaes2XHvZlMl00I9WI=", "properties": {"@spider": "usps_collection_boxes", "addr:city": "STUART", "addr:country": "US", "addr:full": "801 SE JOHNSON AVE", "addr:postcode": "34994", "addr:state": "FL", "brand": "USPS", "collection_times": "Mo-Sa 17:00", "name": "USPS COLLECTION BOX - PO LOBBY", "note": "ON 12/24 AND 12/31, THIS BOX MAY BE COLLECTED AS EARLY AS 12 NOON.", "ref": "3499400049"}, "type": "Feature"}
{"geometry": {"coordinates": [-80.250531875, 27.197476582], "type": "Point"}, "id": "QJeebTDBwWmhmTMAbAEpu2Rbulo=", "properties": {"@spider": "usps_collection_boxes", "addr:city": "STUART", "addr:country": "US", "addr:full": "120 SE OCEAN BLVD", "addr:postcode": "34994", "addr:state": "FL", "brand": "USPS", "collection_times": "Mo-Sa 11:00", "name": "USPS COLLECTION BOX - BLUE BOX", "ref": "3499400052"}, "type": "Feature"}
{"geometry": {"coordinates": [-80.25002047, 27.192195], "type": "Point"}, "id": "4reMf6lWMjkJfr9gr8IjgIVyoBY=", "properties": {"@spider": "usps_collection_boxes", "addr:city": "STUART", "addr:country": "US", "addr:full": "801 SE JOHNSON AVE", "addr:postcode": "34994", "addr:state": "FL", "brand": "USPS", "collection_times": "Mo-Sa 17:00", "name": "USPS COLLECTION BOX - APC", "note": "ON 12/24 AND 12/31, THIS BOX MAY BE COLLECTED AS EARLY AS 12 NOON.", "ref": "3499400054"}, "type": "Feature"}
{"geometry": {"coordinates": [-80.25002047, 27.192195], "type": "Point"}, "id": "M5SPOObi8Mr6AWgU-HGvIl5nHZw=", "properties": {"@spider": "usps_collection_boxes", "addr:city": "STUART", "addr:country": "US", "addr:full": "801 SE JOHNSON AVE", "addr:postcode": "34994", "addr:state": "FL", "brand": "USPS", "collection_times": "Mo-Sa 17:00", "name": "USPS COLLECTION BOX - PO LOBBY", "note": "ON 12/24 AND 12/31, THIS BOX MAY BE COLLECTED AS EARLY AS 12 NOON.", "ref": "3499400055"}, "type": "Feature"}
{"geometry": {"coordinates": [-80.260709868, 27.215193278], "type": "Point"}, "id": "t5mcpi8IBHfFcXWFVcb3w-hnjZI=", "properties": {"@spider": "usps_collection_boxes", "addr:city": "STUART", "addr:country": "US", "addr:full": "837 NW FEDERAL HWY", "addr:postcode": "34994", "addr:state": "FL", "brand": "USPS", "collection_times": "Mo-Sa 12:00", "name": "USPS COLLECTION BOX - BLUE BOX", "ref": "3499400056"}, "type": "Feature"}
{"geometry": {"coordinates": [-80.25002047, 27.192195], "type": "Point"}, "id": "fhBXxipz9djC1niD_hfK_mejq94=", "properties": {"@spider": "usps_collection_boxes", "addr:city": "STUART", "addr:country": "US", "addr:full": "801 SE JOHNSON AVE", "addr:postcode": "34994", "addr:state": "FL", "brand": "USPS", "collection_times": "Mo-Fr 17:00; Sa 13:00", "name": "USPS COLLECTION BOX - PO LOBBY", "note": "ON 12/24 AND 12/31, THIS BOX MAY BE COLLECTED AS EARLY AS 12 NOON.", "ref": "3499400062"}, "type": "Feature"}
{"geometry": {"coordinates": [-80.200306119, 27.202397218], "type": "Point"}, "id": "Bt6QsJlSMl2AtIMcw0H59CI4ouY=", "properties": {"@spider": "usps_collection_boxes", "addr:city": "STUART", "addr:country": "US", "addr:full": "1 S SEWALLS POINT RD", "addr:postcode": "34996", "addr:state": "FL", "brand": "USPS", "collection_times": "Mo-Sa 12:30", "name": "USPS COLLECTION BOX - BLUE BOX", "note": "ON 12/24 AND 12/31, THIS BOX MAY BE COLLECTED AS EARLY AS 12 NOON.", "ref": "3499600004"}, "type": "Feature"}
{"geometry": {"coordinates": [-80.1815671698, 27.2117876161], "type": "Point"}, "id": "FLKy5mNai5Lm79r8MQO5kAwCvvs=", "properties": {"@spider": "usps_collection_boxes", "addr:city": "STUART", "addr:country": "US", "addr:full": "595 NE OCEAN BLVD", "addr:postcode": "34996", "addr:state": "FL", "brand": "USPS", "collection_times": "Mo-Sa 10:00", "name": "USPS COLLECTION BOX - BLUE BOX", "ref": "3499600005"}, "type": "Feature"}
{"geometry": {"coordinates": [-80.224207208, 27.197384406], "type": "Point"}, "id": "ECWPLB6Z4hl8aFuCD_MM-AOYkBQ=", "properties": {"@spider": "usps_collection_boxes", "addr:city": "STUART", "addr:country": "US", "addr:full": "2081 SE OCEAN BLVD", "addr:postcode": "34996", "addr:state": "FL", "brand": "USPS", "collection_times": "Mo-Sa 10:00", "name": "USPS COLLECTION BOX - BLUE BOX", "ref": "3499600015"}, "type": "Feature"}
{"geometry": {"coordinates": [-80.221264668, 27.196769008], "type": "Point"}, "id": "PzGViCbaDFJIgmksOI4JoQznNuI=", "properties": {"@spider": "usps_collection_boxes", "addr:city": "STUART", "addr:country": "US", "addr:full": "2336 SE OCEAN BLVD", "addr:postcode": "34996", "addr:state": "FL", "brand": "USPS", "collection_times": "Mo-Sa 11:15", "name": "USPS COLLECTION BOX - BLUE BOX", "ref": "3499600018"}, "type": "Feature"}
{"geometry": {"coordinates": [-80.224138084, 27.194661723], "type": "Point"}, "id": "EezsHFeEbUbWqiUwaj24wB9ikic=", "properties": {"@spider": "usps_collection_boxes", "addr:city": "STUART", "addr:country": "US", "addr:full": "2401 SE MONTEREY RD", "addr:postcode": "34996", "addr:state": "FL", "brand": "USPS", "collection_times": "Mo-Sa 11:00", "name": "USPS COLLECTION BOX - BLUE BOX", "ref": "3499600021"}, "type": "Feature"}
{"geometry": {"coordinates": [-80.209578057, 27.138159214], "type": "Point"}, "id": "0sBwPXhBji8kZc6D36_tR1-04FA=", "properties": {"@spider": "usps_collection_boxes", "addr:city": "STUART", "addr:country": "US", "addr:full": "5561 SE FEDERAL HWY", "addr:postcode": "34997", "addr:state": "FL", "brand": "USPS", "collection_times": "Mo-Sa 12:00", "name": "USPS COLLECTION BOX - BLUE BOX", "ref": "3499700004"}, "type": "Feature"}
{"geometry": {"coordinates": [-80.205343243, 27.132715199], "type": "Point"}, "id": "M4LqcuOxzMfB2tfqhvjaO48DtEU=", "properties": {"@spider": "usps_collection_boxes", "addr:city": "STUART", "addr:country": "US", "addr:full": "5929 SE FEDERAL HWY", "addr:postcode": "34997", "addr:state": "FL", "brand": "USPS", "collection_times": "Mo-Sa 12:45", "name": "USPS COLLECTION BOX - BLUE BOX", "note": "ON 12/24 AND 12/31, THIS BOX MAY BE COLLECTED AS EARLY AS 12 NOON.", "ref": "3499700012"}, "type": "Feature"}
{"geometry": {"coordinates": [-80.225964204, 27.163875258], "type": "Point"}, "id": "x70o2l81JRzktFa8pepTNy7zqoU=", "properties": {"@spider": "usps_collection_boxes", "addr:city": "STUART", "addr:country": "US", "addr:full": "3400 SE FEDERAL HWY", "addr:postcode": "34997", "addr:state": "FL", "brand": "USPS", "collection_times": "Mo-Fr 11:30; Sa 12:00", "name": "USPS COLLECTION BOX - BLUE BOX", "ref": "3499700013"}, "type": "Feature"}
{"geometry": {"coordinates": [-80.252515405, 27.124532543], "type": "Point"}, "id": "qD7mu4dwLOJzwRlZQIeBfzKaeZg=", "properties": {"@spider": "usps_collection_boxes", "addr:city": "STUART", "addr:country": "US", "addr:full": "6550 S KANNER HWY", "addr:postcode": "34997", "addr:state": "FL", "brand": "USPS", "collection_times": "Mo-Sa 11:00", "name": "USPS COLLECTION BOX - BLUE BOX", "ref": "3499700017"}, "type": "Feature"}
{"geometry": {"coordinates": [-80.2187621446, 27.1515216931], "type": "Point"}, "id": "TO_RLieWYdFALdGoa2laHECEQc8=", "properties": {"@spider": "usps_collection_boxes", "addr:city": "STUART", "addr:country": "US", "addr:full": "2587 SE MONROE STREET", "addr:postcode": "34997", "addr:state": "FL", "brand": "USPS", "collection_times": "Mo-Sa 15:30", "name": "USPS COLLECTION BOX - BLUE BOX", "note": "ON 12/24 AND 12/31, THIS BOX MAY BE COLLECTED AS EARLY AS 12 NOON.", "ref": "3499700018"}, "type": "Feature"}
{"geometry": {"coordinates": [-80.2636295994, 27.1068819872], "type": "Point"}, "id": "VK_WNA3E3xD_Xw03Yx42CxrVK5M=", "properties": {"@spider": "usps_collection_boxes", "addr:city": "STUART", "addr:country": "US", "addr:full": "8062 SW JACK JAMES DR", "addr:postcode": "34997", "addr:state": "FL", "brand": "USPS", "collection_times": "Mo-Sa 11:30", "name": "USPS COLLECTION BOX - BLUE BOX", "ref": "3499700021"}, "type": "Feature"}
