{"geometry": {"coordinates": [-87.088423, 33.378512], "type": "Point"}, "id": "t2yZuplcDNXXl_fMsz2Di9Fh3Kc=", "properties": {"@spider": "usps_collection_boxes", "addr:city": "ADGER", "addr:country": "US", "addr:full": "7313 JOHNS RD", "addr:postcode": "35006", "addr:state": "AL", "brand": "USPS", "collection_times": "Mo-Fr 16:00; Sa 10:00", "name": "USPS COLLECTION BOX - BLUE BOX", "note": "ON 12/24 AND 12/31, THIS BOX MAY BE COLLECTED AS EARLY AS 12 NOON.", "ref": "3500600000"}, "type": "Feature"}
{"geometry": {"coordinates": [-87.088423, 33.378512], "type": "Point"}, "id": "gSzabitRS2BA6alr9Jw04d8pOc8=", "properties": {"@spider": "usps_collection_boxes", "addr:city": "ADGER", "addr:country": "US", "addr:full": "7313 JOHNS RD", "addr:postcode": "35006", "addr:state": "AL", "brand": "USPS", "collection_times": "Mo-Fr 16:00; Sa 10:00", "name": "USPS COLLECTION BOX - PO LOBBY", "note": "ON 12/24 AND 12/31, THIS BOX MAY BE COLLECTED AS EARLY AS 12 NOON.", "ref": "3500600001"}, "type": "Feature"}
{"geometry": {"coordinates": [-87.1486595, 33.450806], "type": "Point"}, "id": "7fUeeD_T2UzTcK5GDz2nW5tTluU=", "properties": {"@spider": "usps_collection_boxes", "addr:city": "ADGER", "addr:country": "US", "addr:full": "9101 LOCK 17 RD", "addr:postcode": "35006", "addr:state": "AL", "brand": "USPS", "collection_times": "Mo-Sa 13:00", "name": "USPS COLLECTION BOX - BLUE BOX", "note": "ON 12/24 AND 12/31, THIS BOX MAY BE COLLECTED AS EARLY AS 12 NOON.", "ref": "3500600003"}, "type": "Feature"}
{"geometry": {"coordinates": [-87.0884353374, 33.3785310247], "type": "Point"}, "id": "x2cjmAYxa53F1kefrW21o-sGqk4=", "properties": {"@spider": "usps_collection_boxes", "addr:city": "ADGER", "addr:country": "US", "addr:full": "7313 JOHNS RD", "addr:postcode": "35006", "addr:state": "AL", "brand": "USPS", "collection_times": "Mo-Fr 16:00; Sa 10:00", "name": "USPS COLLECTION BOX - PO LOBBY", "note": "ON 12/24 AND 12/31, THIS BOX MAY BE COLLECTED AS EARLY AS 12 NOON.", "ref": "3500600004"}, "type": "Feature"}
{"geometry": {"coordinates": [-86.8238854, 33.217379], "type": "Point"}, "id": "8yQYbAdb8MR590mg6MkVSJeoMS4=", "properties": {"@spider": "usps_collection_boxes", "addr:city": "ALABASTER", "addr:country": "US", "addr:full": "50 KENT STONE WAY", "addr:postcode": "35007", "addr:state": "AL", "brand": "USPS", "collection_times": "Mo-Fr 16:30; Sa 12:00", "name": "USPS COLLECTION BOX - BLUE BOX", "note": "ON 12/24 AND 12/31, THIS BOX MAY BE COLLECTED AS EARLY AS 12 NOON.", "ref": "3500700000"}, "type": "Feature"}
{"geometry": {"coordinates": [-86.8238899, 33.217374], "type": "Point"}, "id": "DZ5q7uaMG5XVUvnzPwl9NHpg7_g=", "properties": {"@spider": "usps_collection_boxes", "addr:city": "ALABASTER", "addr:country": "US", "addr:full": "50 KENT STONE WAY", "addr:postcode": "35007", "addr:state": "AL", "brand": "USPS", "collection_times": "Mo-Fr 16:30; Sa 12:00", "name": "USPS COLLECTION BOX - BLUE BOX", "note": "ON 12/24 AND 12/31, THIS BOX MAY BE COLLECTED AS EARLY AS 12 NOON.", "ref": "3500700001"}, "type": "Feature"}
{"geometry": {"coordinates": [-86.8238829, 33.217375], "type": "Point"}, "id": "PIAIfY9CwX7iCR1-rVMLYde06ao=", "properties": {"@spider": "usps_collection_boxes", "addr:city": "ALABASTER", "addr:country": "US", "addr:full": "50 KENT STONE WAY", "addr:postcode": "35007", "addr:state": "AL", "brand": "USPS", "collection_times": "Mo-Fr 16:30; Sa 12:00", "name": "USPS COLLECTION BOX - BLUE BOX", "note": "ON 12/24 AND 12/31, THIS BOX MAY BE COLLECTED AS EARLY AS 12 NOON.", "ref": "3500700002"}, "type": "Feature"}
{"geometry": {"coordinates": [-86.8238733, 33.217368], "type": "Point"}, "id": "1BaNphSEAVkGZrRxMgyHbIWOpaI=", "properties": {"@spider": "usps_collection_boxes", "addr:city": "ALABASTER", "addr:country": "US", "addr:full": "50 KENT STONE WAY", "addr:postcode": "35007", "addr:state": "AL", "brand": "USPS", "collection_times": "Mo-Fr 16:30; Sa 12:00", "name": "USPS COLLECTION BOX - BLUE BOX", "note": "ON 12/24 AND 12/31, THIS BOX MAY BE COLLECTED AS EARLY AS 12 NOON.", "ref": "3500700003"}, "type": "Feature"}
{"geometry": {"coordinates": [-86.8243538, 33.217393], "type": "Point"}, "id": "3mowVvJh7OGwmdOTJhAiOE-WFQw=", "properties": {"@spider": "usps_collection_boxes", "addr:city": "ALABASTER", "addr:country": "US", "addr:full": "50 KENT STONE WAY", "addr:postcode": "35007", "addr:state": "AL", "brand": "USPS", "collection_times": "Mo-Fr 16:30; Sa 12:00", "name": "USPS COLLECTION BOX - PO LOBBY", "note": "ON 12/24 AND 12/31, THIS BOX MAY BE COLLECTED AS EARLY AS 12 NOON.", "ref": "3500700011"}, "type": "Feature"}
{"geometry": {"coordinates": [-86.823852887, 33.217632957], "type": "Point"}, "id": "8kuVNngk86sI37Jy-IPNonGZSkg=", "properties": {"@spider": "usps_collection_boxes", "addr:city": "ALABASTER", "addr:country": "US", "addr:full": "50 KENT STONE WAY", "addr:postcode": "35007", "addr:state": "AL", "brand": "USPS", "collection_times": "Mo-Fr 16:30; Sa 12:00", "name": "USPS COLLECTION BOX - PO LOBBY", "note": "ON 12/24 AND 12/31, THIS BOX MAY BE COLLECTED AS EARLY AS 12 NOON.", "ref": "3500700015"}, "type": "Feature"}
{"geometry": {"coordinates": [-85.956894, 32.942583], "type": "Point"}, "id": "N9dgdoBv5V79tMk75D3kF1W3SN0=", "properties": {"@spider": "usps_collection_boxes", "addr:city": "ALEXANDER CITY", "addr:country": "US", "addr:full": "233 LEE ST", "addr:postcode": "35010", "addr:state": "AL", "brand": "USPS", "collection_times": "Mo-Fr 16:30; Sa 12:00", "name": "USPS COLLECTION BOX - BLUE BOX", "note": "ON 12/24 AND 12/31, THIS BOX MAY BE COLLECTED AS EARLY AS 12 NOON.", "ref": "3501000001"}, "type": "Feature"}
{"geometry": {"coordinates": [-85.9535305, 32.945333], "type": "Point"}, "id": "tb9NBAxUSonpBg0KmaZ7RLrbpfY=", "properties": {"@spider": "usps_collection_boxes", "addr:city": "ALEXANDER CITY", "addr:country": "US", "addr:full": "8 BROAD ST", "addr:postcode": "35010", "addr:state": "AL", "brand": "USPS", "collection_times": "Mo-Fr 10:00", "name": "USPS COLLECTION BOX - BLUE BOX", "ref": "3501000002"}, "type": "Feature"}
{"geometry": {"coordinates": [-85.9529322, 32.939318], "type": "Point"}, "id": "3fr2U7n2vlS1eeW4qpFS2hHS47Q=", "properties": {"@spider": "usps_collection_boxes", "addr:city": "ALEXANDER CITY", "addr:country": "US", "addr:full": "428 MADISON ST", "addr:postcode": "35010", "addr:state": "AL", "brand": "USPS", "collection_times": "Mo-Fr 09:00", "name": "USPS COLLECTION BOX - BLUE BOX", "ref": "3501000006"}, "type": "Feature"}
{"geometry": {"coordinates": [-85.952221, 32.936384], "type": "Point"}, "id": "EnCNoV0_DRFyxBX-_iH90MBASvQ=", "properties": {"@spider": "usps_collection_boxes", "addr:city": "ALEXANDER CITY", "addr:country": "US", "addr:full": "823 CHEROKEE RD", "addr:postcode": "35010", "addr:state": "AL", "brand": "USPS", "collection_times": "Mo-Fr 10:00", "name": "USPS COLLECTION BOX - BLUE BOX", "ref": "3501000007"}, "type": "Feature"}
{"geometry": {"coordinates": [-85.9709384, 32.932996], "type": "Point"}, "id": "r5QgDUmjs-gv6LmMnJC5ghT3EMk=", "properties": {"@spider": "usps_collection_boxes", "addr:city": "ALEXANDER CITY", "addr:country": "US", "addr:full": "3146 HIGHWAY 280", "addr:postcode": "35010", "addr:state": "AL", "brand": "USPS", "collection_times": "Mo-Fr 09:00", "name": "USPS COLLECTION BOX - BLUE BOX", "ref": "3501000008"}, "type": "Feature"}
{"geometry": {"coordinates": [-85.9459999, 32.93005], "type": "Point"}, "id": "nbii5ntjGAngZmiJXcbGwNwarqA=", "properties": {"@spider": "usps_collection_boxes", "addr:city": "ALEXANDER CITY", "addr:country": "US", "addr:full": "1397 DADEVILLE RD", "addr:postcode": "35010", "addr:state": "AL", "brand": "USPS", "collection_times": "Mo-Fr 09:00", "name": "USPS COLLECTION BOX - BLUE BOX", "ref": "3501000010"}, "type": "Feature"}
{"geometry": {"coordinates": [-85.9688431, 32.936575], "type": "Point"}, "id": "A8rb98E68KAKfORTEqYm7RTVawI=", "properties": {"@spider": "usps_collection_boxes", "addr:city": "ALEXANDER CITY", "addr:country": "US", "addr:full": "1154 LEE ST", "addr:postcode": "35010", "addr:state": "AL", "brand": "USPS", "collection_times": "Mo-Fr 09:00", "name": "USPS COLLECTION BOX - BLUE BOX", "ref": "3501000011"}, "type": "Feature"}
{"geometry": {"coordinates": [-85.9522593, 32.946168], "type": "Point"}, "id": "myeBVbmqCr4TUHWHbhxf_DFPAa0=", "properties": {"@spider": "usps_collection_boxes", "addr:city": "ALEXANDER CITY", "addr:country": "US", "addr:full": "61 JEFFERSON ST", "addr:postcode": "35010", "addr:state": "AL", "brand": "USPS", "collection_times": "Mo-Fr 10:00", "name": "USPS COLLECTION BOX - BLUE BOX", "ref": "3501000012"}, "type": "Feature"}
{"geometry": {"coordinates": [-85.9600024, 32.920857], "type": "Point"}, "id": "1Ttn9HXPLURmP8QsdBmM1pHhNoM=", "properties": {"@spider": "usps_collection_boxes", "addr:city": "ALEXANDER CITY", "addr:country": "US", "addr:full": "981 MARKET PL", "addr:postcode": "35010", "addr:state": "AL", "brand": "USPS", "collection_times": "Mo-Fr 10:00", "name": "USPS COLLECTION BOX - BLUE BOX", "ref": "3501000013"}, "type": "Feature"}
{"geometry": {"coordinates": [-85.9834893, 32.936946], "type": "Point"}, "id": "8jkqWszbXsXDsVp1LX0jqpyE_aY=", "properties": {"@spider": "usps_collection_boxes", "addr:city": "ALEXANDER CITY", "addr:country": "US", "addr:full": "2110 COUNTY RD", "addr:postcode": "35010", "addr:state": "AL", "brand": "USPS", "collection_times": "Mo-Fr 12:00", "name": "USPS COLLECTION BOX - BLUE BOX", "ref": "3501000014"}, "type": "Feature"}
{"geometry": {"coordinates": [-85.9719158, 32.930732], "type": "Point"}, "id": "Eb5niN22ZKq6eX_eXk22cP8r5qc=", "properties": {"@spider": "usps_collection_boxes", "addr:city": "ALEXANDER CITY", "addr:country": "US", "addr:full": "115 ALISON DR", "addr:postcode": "35010", "addr:state": "AL", "brand": "USPS", "collection_times": "Mo-Fr 09:00", "name": "USPS COLLECTION BOX - BLUE BOX", "ref": "3501000015"}, "type": "Feature"}
{"geometry": {"coordinates": [-85.9714033, 32.935363], "type": "Point"}, "id": "9w-GNYYCZHA4M5vXPyaKsWEorZg=", "properties": {"@spider": "usps_collection_boxes", "addr:city": "ALEXANDER CITY", "addr:country": "US", "addr:full": "1612 MILL SQ", "addr:postcode": "35010", "addr:state": "AL", "brand": "USPS", "collection_times": "Mo-Fr 10:00", "name": "USPS COLLECTION BOX - BLUE BOX", "ref": "3501000016"}, "type": "Feature"}
{"geometry": {"coordinates": [-85.956894, 32.942583], "type": "Point"}, "id": "SAWh3PWwFvlFAK6Q7pnMIhFSyTE=", "properties": {"@spider": "usps_collection_boxes", "addr:city": "ALEXANDER CITY", "addr:country": "US", "addr:full": "233 LEE ST", "addr:postcode": "35010", "addr:state": "AL", "brand": "USPS", "collection_times": "Mo-Fr 16:30; Sa 12:00", "name": "USPS COLLECTION BOX - BLUE BOX", "note": "ON 12/24 AND 12/31, THIS BOX MAY BE COLLECTED AS EARLY AS 12 NOON.", "ref": "3501000017"}, "type": "Feature"}
{"geometry": {"coordinates": [-85.9765555, 32.941148], "type": "Point"}, "id": "ZwKnE5IsB5J8eILvyIq4HOX7YOE=", "properties": {"@spider": "usps_collection_boxes", "addr:city": "ALEXANDER CITY", "addr:country": "US", "addr:full": "2643 HIGHWAY 280", "addr:postcode": "35010", "addr:state": "AL", "brand": "USPS", "collection_times": "Mo-Fr 11:00", "name": "USPS COLLECTION BOX - BLUE BOX", "ref": "3501000018"}, "type": "Feature"}
{"geometry": {"coordinates": [-85.9607382, 32.921971], "type": "Point"}, "id": "JF7EjMn2SNRt617XoxX_61Ea90w=", "properties": {"@spider": "usps_collection_boxes", "addr:city": "ALEXANDER CITY", "addr:country": "US", "addr:full": "1061 HIGHWAY 280", "addr:postcode": "35010", "addr:state": "AL", "brand": "USPS", "collection_times": "Mo-Fr 10:00", "name": "USPS COLLECTION BOX - BLUE BOX", "ref": "3501000019"}, "type": "Feature"}
{"geometry": {"coordinates": [-85.956894, 32.942583], "type": "Point"}, "id": "U9KXzfCnM_tcrKn23n0LiQAty5Y=", "properties": {"@spider": "usps_collection_boxes", "addr:city": "ALEXANDER CITY", "addr:country": "US", "addr:full": "233 LEE ST", "addr:postcode": "35010", "addr:state": "AL", "brand": "USPS", "collection_times": "Mo-Fr 16:30; Sa 12:00", "name": "USPS COLLECTION BOX - PO LOBBY", "note": "ON 12/24 AND 12/31, THIS BOX MAY BE COLLECTED AS EARLY AS 12 NOON.", "ref": "3501000020"}, "type": "Feature"}
{"geometry": {"coordinates": [-85.9495968, 32.919837], "type": "Point"}, "id": "LaEGw23ak6hSaBhsyz-Ot2ZO0qo=", "properties": {"@spider": "usps_collection_boxes", "addr:city": "ALEXANDER CITY", "addr:country": "US", "addr:full": "2020 CHEROKEE RD", "addr:postcode": "35010", "addr:state": "AL", "brand": "USPS", "collection_times": "Mo-Fr 10:00", "name": "USPS COLLECTION BOX - BLUE BOX", "ref": "3501000021"}, "type": "Feature"}
{"geometry": {"coordinates": [-85.956870723, 32.94255264], "type": "Point"}, "id": "FiybC52a2LNUDTlg7VpULDTM1ng=", "properties": {"@spider": "usps_collection_boxes", "addr:city": "ALEXANDER CITY", "addr:country": "US", "addr:full": "233 LEE ST", "addr:postcode": "35010", "addr:state": "AL", "brand": "USPS", "collection_times": "Mo-Fr 16:30; Sa 11:00", "name": "USPS COLLECTION BOX - PO LOBBY", "note": "ON 12/24 AND 12/31, THIS BOX MAY BE COLLECTED AS EARLY AS 12 NOON.", "ref": "3501000023"}, "type": "Feature"}
{"geometry": {"coordinates": [-86.9886994, 33.371348], "type": "Point"}, "id": "5B-SN_SOVPXWYYA5xktgu98j9Gw=", "properties": {"@spider": "usps_collection_boxes", "addr:city": "BESSEMER", "addr:country": "US", "addr:full": "91 TIMBERLINE W", "addr:postcode": "35020", "addr:state": "AL", "brand": "USPS", "collection_times": "Mo-Fr 10:00", "name": "USPS COLLECTION BOX - BLUE BOX", "ref": "3502000021"}, "type": "Feature"}
{"geometry": {"coordinates": [-86.9914855, 33.372396], "type": "Point"}, "id": "H5sfrGPm7MlmPlaY0lxkEYkbZ-Q=", "properties": {"@spider": "usps_collection_boxes", "addr:city": "BESSEMER", "addr:country": "US", "addr:full": "985 9TH AVE SW", "addr:postcode": "35020", "addr:state": "AL", "brand": "USPS", "collection_times": "Mo-Fr 11:00", "name": "USPS COLLECTION BOX - BLUE BOX", "ref": "3502000022"}, "type": "Feature"}
{"geometry": {"coordinates": [-86.9186609, 33.336742], "type": "Point"}, "id": "Ixhvk-BG9bhw_MFbNVAhEjYfSuE=", "properties": {"@spider": "usps_collection_boxes", "addr:city": "BESSEMER", "addr:country": "US", "addr:full": "2910 MORGAN RD", "addr:postcode": "35020", "addr:state": "AL", "brand": "USPS", "collection_times": "Mo-Fr 11:00", "name": "USPS COLLECTION BOX - BLUE BOX", "ref": "3502000028"}, "type": "Feature"}
{"geometry": {"coordinates": [-87.0012259, 33.361491], "type": "Point"}, "id": "sxd-ORjPRDUaysq8xgMcy7ao4LI=", "properties": {"@spider": "usps_collection_boxes", "addr:city": "BESSEMER", "addr:country": "US", "addr:full": "750 ACADEMY DR", "addr:postcode": "35020", "addr:state": "AL", "brand": "USPS", "collection_times": "Mo-Fr 11:00", "name": "USPS COLLECTION BOX - BLUE BOX", "ref": "3502000031"}, "type": "Feature"}
{"geometry": {"coordinates": [-86.9179249, 33.334094], "type": "Point"}, "id": "Pw5hayPZkEtymgJV-JJPHhKkJ3o=", "properties": {"@spider": "usps_collection_boxes", "addr:city": "BESSEMER", "addr:country": "US", "addr:full": "1209 LAKE DR SE", "addr:postcode": "35020", "addr:state": "AL", "brand": "USPS", "collection_times": "Mo-Fr 11:00", "name": "USPS COLLECTION BOX - BLUE BOX", "ref": "3502000033"}, "type": "Feature"}
{"geometry": {"coordinates": [-87.165502, 32.936261], "type": "Point"}, "id": "ECqc0ITcxkKO8k3XBRRBW3FIl6I=", "properties": {"@spider": "usps_collection_boxes", "addr:city": "BRENT", "addr:country": "US", "addr:full": "2150 MAIN ST", "addr:postcode": "35034", "addr:state": "AL", "brand": "USPS", "collection_times": "Mo-Fr 12:30; Sa 10:30", "name": "USPS COLLECTION BOX - BLUE BOX", "note": "ON 12/24 AND 12/31, THIS BOX MAY BE COLLECTED AS EARLY AS 12 NOON.", "ref": "3503400000"}, "type": "Feature"}
{"geometry": {"coordinates": [-87.165502, 32.936261], "type": "Point"}, "id": "TnDLSD26DoZBz5YW6tBi_Xd92bU=", "properties": {"@spider": "usps_collection_boxes", "addr:city": "BRENT", "addr:country": "US", "addr:full": "2150 MAIN ST", "addr:postcode": "35034", "addr:state": "AL", "brand": "USPS", "collection_times": "Mo-Fr 12:30; Sa 10:30", "name": "USPS COLLECTION BOX - PO LOBBY", "note": "ON 12/24 AND 12/31, THIS BOX MAY BE COLLECTED AS EARLY AS 12 NOON.", "ref": "3503400001"}, "type": "Feature"}
{"geometry": {"coordinates": [-87.165500419, 32.93620883], "type": "Point"}, "id": "D9k8yTzLuXk7oq3UkElC9qftIKE=", "properties": {"@spider": "usps_collection_boxes", "addr:city": "BRENT", "addr:country": "US", "addr:full": "2150 MAIN ST", "addr:postcode": "35034", "addr:state": "AL", "brand": "USPS", "collection_times": "Mo-Fr 16:00; Sa 10:30", "name": "USPS COLLECTION BOX - PO LOBBY", "note": "ON 12/24 AND 12/31, THIS BOX MAY BE COLLECTED AS EARLY AS 12 NOON.", "ref": "3503400003"}, "type": "Feature"}
{"geometry": {"coordinates": [-86.9123, 33.033833], "type": "Point"}, "id": "EcLxCyjZ0nf2HCM7s75KxytwS2U=", "properties": {"@spider": "usps_collection_boxes", "addr:city": "BRIERFIELD", "addr:country": "US", "addr:full": "18323 HIGHWAY 139", "addr:postcode": "35035", "addr:state": "AL", "brand": "USPS", "collection_times": "Mo-Fr 12:00; Sa 09:15", "name": "USPS COLLECTION BOX - BLUE BOX", "ref": "3503500000"}, "type": "Feature"}
{"geometry": {"coordinates": [-86.9123, 33.033833], "type": "Point"}, "id": "1edKidwfjPgiVAjmsOecdlnjUQM=", "properties": {"@spider": "usps_collection_boxes", "addr:city": "BRIERFIELD", "addr:country": "US", "addr:full": "18323 HIGHWAY 139", "addr:postcode": "35035", "addr:state": "AL", "brand": "USPS", "collection_times": "Mo-Fr 12:00; Sa 09:15", "name": "USPS COLLECTION BOX - PO LOBBY", "ref": "3503500001"}, "type": "Feature"}
{"geometry": {"coordinates": [-86.9123256231, 33.0338504806], "type": "Point"}, "id": "M0hcL4pZr0gQHeqDCNtGzqoPhY8=", "properties": {"@spider": "usps_collection_boxes", "addr:city": "BRIERFIELD", "addr:country": "US", "addr:full": "18323 HIGHWAY 139", "addr:postcode": "35035", "addr:state": "AL", "brand": "USPS", "collection_times": "Mo-Fr 12:00; Sa 09:45", "name": "USPS COLLECTION BOX - PO LOBBY", "ref": "3503500003"}, "type": "Feature"}
{"geometry": {"coordinates": [-86.752862, 33.105151], "type": "Point"}, "id": "8loXulVswBdwcID7pYq5z5s0MQ0=", "properties": {"@spider": "usps_collection_boxes", "addr:city": "CALERA", "addr:country": "US", "addr:full": "8088 HIGHWAY 31", "addr:postcode": "35040", "addr:state": "AL", "brand": "USPS", "collection_times": "Mo-Fr 16:00; Sa 11:00", "name": "USPS COLLECTION BOX - BLUE BOX", "note": "ON 12/24 AND 12/31, THIS BOX MAY BE COLLECTED AS EARLY AS 12 NOON.", "ref": "3504000000"}, "type": "Feature"}
{"geometry": {"coordinates": [-86.752826, 33.105183], "type": "Point"}, "id": "cFgCo5yAFuoBRADk5Tk7u9YHyLM=", "properties": {"@spider": "usps_collection_boxes", "addr:city": "CALERA", "addr:country": "US", "addr:full": "8088 HIGHWAY 31", "addr:postcode": "35040", "addr:state": "AL", "brand": "USPS", "collection_times": "Mo-Fr 16:00; Sa 11:00", "name": "USPS COLLECTION BOX - PO LOBBY", "note": "ON 12/24 AND 12/31, THIS BOX MAY BE COLLECTED AS EARLY AS 12 NOON.", "ref": "3504000001"}, "type": "Feature"}
{"geometry": {"coordinates": [-86.752826, 33.105183], "type": "Point"}, "id": "Oaij5c6e5AH9prho2EGp5vSneOI=", "properties": {"@spider": "usps_collection_boxes", "addr:city": "CALERA", "addr:country": "US", "addr:full": "8088 HIGHWAY 31", "addr:postcode": "35040", "addr:state": "AL", "brand": "USPS", "collection_times": "Mo-Fr 16:00; Sa 11:00", "name": "USPS COLLECTION BOX - BLUE BOX", "note": "ON 12/24 AND 12/31, THIS BOX MAY BE COLLECTED AS EARLY AS 12 NOON.", "ref": "3504000002"}, "type": "Feature"}
{"geometry": {"coordinates": [-86.752826, 33.105183], "type": "Point"}, "id": "kBA9RTQMTxEkPLmypoxlyTqZar4=", "properties": {"@spider": "usps_collection_boxes", "addr:city": "CALERA", "addr:country": "US", "addr:full": "8088 HIGHWAY 31", "addr:postcode": "35040", "addr:state": "AL", "brand": "USPS", "collection_times": "Mo-Fr 16:00; Sa 11:00", "name": "USPS COLLECTION BOX - PO LOBBY", "note": "ON 12/24 AND 12/31, THIS BOX MAY BE COLLECTED AS EARLY AS 12 NOON.", "ref": "3504000003"}, "type": "Feature"}
{"geometry": {"coordinates": [-86.75288352, 33.105190968], "type": "Point"}, "id": "p4nFcNWD5wHLH7aKVM0kshNf7GA=", "properties": {"@spider": "usps_collection_boxes", "addr:city": "CALERA", "addr:country": "US", "addr:full": "8088 HIGHWAY 31", "addr:postcode": "35040", "addr:state": "AL", "brand": "USPS", "collection_times": "Mo-Fr 16:00; Sa 11:00", "name": "USPS COLLECTION BOX - PO LOBBY", "note": "ON 12/24 AND 12/31, THIS BOX MAY BE COLLECTED AS EARLY AS 12 NOON.", "ref": "3504000007"}, "type": "Feature"}
{"geometry": {"coordinates": [-87.143795, 32.94559], "type": "Point"}, "id": "mv1TOE3UG_9yZku-3k7JQFuS_OQ=", "properties": {"@spider": "usps_collection_boxes", "addr:city": "CENTREVILLE", "addr:country": "US", "addr:full": "155 BIRMINGHAM RD STE 100", "addr:postcode": "35042", "addr:state": "AL", "brand": "USPS", "collection_times": "Mo-Fr 15:00; Sa 11:30", "name": "USPS COLLECTION BOX - BLUE BOX", "note": "ON 12/24 AND 12/31, THIS BOX MAY BE COLLECTED AS EARLY AS 12 NOON.", "ref": "3504200000"}, "type": "Feature"}
{"geometry": {"coordinates": [-87.1356699, 32.944962], "type": "Point"}, "id": "M9VeLH0T4YOR2fpR1LTpDnrM17k=", "properties": {"@spider": "usps_collection_boxes", "addr:city": "CENTREVILLE", "addr:country": "US", "addr:full": "1 WALNUT ST", "addr:postcode": "35042", "addr:state": "AL", "brand": "USPS", "collection_times": "Mo-Sa 13:00", "name": "USPS COLLECTION BOX - BLUE BOX", "note": "ON 12/24 AND 12/31, THIS BOX MAY BE COLLECTED AS EARLY AS 12 NOON.", "ref": "3504200002"}, "type": "Feature"}
{"geometry": {"coordinates": [-87.143795, 32.94559], "type": "Point"}, "id": "PiPBYAFSFsVBlzdXIMLPtb9GHfI=", "properties": {"@spider": "usps_collection_boxes", "addr:city": "CENTREVILLE", "addr:country": "US", "addr:full": "155 BIRMINGHAM RD STE 100", "addr:postcode": "35042", "addr:state": "AL", "brand": "USPS", "collection_times": "Mo-Fr 15:00; Sa 11:30", "name": "USPS COLLECTION BOX - PO LOBBY", "note": "ON 12/24 AND 12/31, THIS BOX MAY BE COLLECTED AS EARLY AS 12 NOON.", "ref": "3504200004"}, "type": "Feature"}
{"geometry": {"coordinates": [-87.14369428, 32.945150878], "type": "Point"}, "id": "SxH_LJ1jrNySy4b-UKDGRPXpVPs=", "properties": {"@spider": "usps_collection_boxes", "addr:city": "CENTREVILLE", "addr:country": "US", "addr:full": "155 BIRMINGHAM RD STE 100", "addr:postcode": "35042", "addr:state": "AL", "brand": "USPS", "collection_times": "Mo-Fr 16:30; Sa 11:30", "name": "USPS COLLECTION BOX - PO LOBBY", "note": "ON 12/24 AND 12/31, THIS BOX MAY BE COLLECTED AS EARLY AS 12 NOON.", "ref": "3504200007"}, "type": "Feature"}
{"geometry": {"coordinates": [-86.627553058, 32.8329573756], "type": "Point"}, "id": "UAF7Cqun3VpeizMWzw_HHi16SVA=", "properties": {"@spider": "usps_collection_boxes", "addr:city": "CLANTON", "addr:country": "US", "addr:full": "608 6TH ST S", "addr:postcode": "35045", "addr:state": "AL", "brand": "USPS", "collection_times": "Mo-Fr 16:00; Sa 13:00", "name": "USPS COLLECTION BOX - BLUE BOX", "note": "ON 12/24 AND 12/31, THIS BOX MAY BE COLLECTED AS EARLY AS 12 NOON.", "ref": "3504500000"}, "type": "Feature"}
{"geometry": {"coordinates": [-86.627553058, 32.8329573756], "type": "Point"}, "id": "T_8G9aMc6K6Big7afAyPNboUlRE=", "properties": {"@spider": "usps_collection_boxes", "addr:city": "CLANTON", "addr:country": "US", "addr:full": "608 6TH ST S", "addr:postcode": "35045", "addr:state": "AL", "brand": "USPS", "collection_times": "Mo-Fr 16:00; Sa 15:00", "name": "USPS COLLECTION BOX - BLUE BOX", "note": "ON 12/24 AND 12/31, THIS BOX MAY BE COLLECTED AS EARLY AS 12 NOON.", "ref": "3504500001"}, "type": "Feature"}
{"geometry": {"coordinates": [-86.6293736, 32.839995], "type": "Point"}, "id": "rtMxilwRhhf35VPQLQ0we42KDKw=", "properties": {"@spider": "usps_collection_boxes", "addr:city": "CLANTON", "addr:country": "US", "addr:full": "500 2ND AVE N", "addr:postcode": "35045", "addr:state": "AL", "brand": "USPS", "collection_times": "Mo-Fr 15:00; Sa 09:00", "name": "USPS COLLECTION BOX - BLUE BOX", "note": "ON 12/24 AND 12/31, THIS BOX MAY BE COLLECTED AS EARLY AS 12 NOON.", "ref": "3504500005"}, "type": "Feature"}
{"geometry": {"coordinates": [-86.627573, 32.832923], "type": "Point"}, "id": "pO6ALtxYf5H3SAwl36Fhvg0KiQg=", "properties": {"@spider": "usps_collection_boxes", "addr:city": "CLANTON", "addr:country": "US", "addr:full": "608 6TH ST S", "addr:postcode": "35045", "addr:state": "AL", "brand": "USPS", "collection_times": "Mo-Fr 16:00; Sa 13:00", "name": "USPS COLLECTION BOX - PO LOBBY", "note": "ON 12/24 AND 12/31, THIS BOX MAY BE COLLECTED AS EARLY AS 12 NOON.", "ref": "3504500024"}, "type": "Feature"}
{"geometry": {"coordinates": [-86.627557471, 32.832948198], "type": "Point"}, "id": "Adq-fk8xPDhytsq2PALNM0Zo5Sw=", "properties": {"@spider": "usps_collection_boxes", "addr:city": "CLANTON", "addr:country": "US", "addr:full": "608 6TH ST S", "addr:postcode": "35045", "addr:state": "AL", "brand": "USPS", "collection_times": "Mo-Fr 16:00; Sa 12:00", "name": "USPS COLLECTION BOX - PO LOBBY", "note": "ON 12/24 AND 12/31, THIS BOX MAY BE COLLECTED AS EARLY AS 12 NOON.", "ref": "3504500029"}, "type": "Feature"}
{"geometry": {"coordinates": [-86.6117159, 33.180659], "type": "Point"}, "id": "FRuqVkcauWffyW1qxR1exWElxlk=", "properties": {"@spider": "usps_collection_boxes", "addr:city": "COLUMBIANA", "addr:country": "US", "addr:full": "210 W COLLEGE ST", "addr:postcode": "35051", "addr:state": "AL", "brand": "USPS", "collection_times": "Mo-Fr 16:30; Sa 12:00", "name": "USPS COLLECTION BOX - BLUE BOX", "note": "ON 12/24 AND 12/31, THIS BOX MAY BE COLLECTED AS EARLY AS 12 NOON.", "ref": "3505100000"}, "type": "Feature"}
{"geometry": {"coordinates": [-86.6116847, 33.180636], "type": "Point"}, "id": "ZjfZYb1ITC48rfeIC_nRGmyOlg0=", "properties": {"@spider": "usps_collection_boxes", "addr:city": "COLUMBIANA", "addr:country": "US", "addr:full": "210 W COLLEGE ST", "addr:postcode": "35051", "addr:state": "AL", "brand": "USPS", "collection_times": "Mo-Fr 16:30; Sa 12:00", "name": "USPS COLLECTION BOX - BLUE BOX", "note": "ON 12/24 AND 12/31, THIS BOX MAY BE COLLECTED AS EARLY AS 12 NOON.", "ref": "3505100001"}, "type": "Feature"}
{"geometry": {"coordinates": [-86.6081094, 33.178665], "type": "Point"}, "id": "3B02nr8Sry4135lFZcjFjkytEeM=", "properties": {"@spider": "usps_collection_boxes", "addr:city": "COLUMBIANA", "addr:country": "US", "addr:full": "108 N MAIN ST", "addr:postcode": "35051", "addr:state": "AL", "brand": "USPS", "collection_times": "Mo-Fr 13:30; Sa 12:30", "name": "USPS COLLECTION BOX - BLUE BOX", "note": "ON 12/24 AND 12/31, THIS BOX MAY BE COLLECTED AS EARLY AS 12 NOON.", "ref": "3505100003"}, "type": "Feature"}
{"geometry": {"coordinates": [-86.6117524, 33.18029], "type": "Point"}, "id": "h-1PzWIayRT21vuUxtF6dXoZEgI=", "properties": {"@spider": "usps_collection_boxes", "addr:city": "COLUMBIANA", "addr:country": "US", "addr:full": "210 W COLLEGE ST", "addr:postcode": "35051", "addr:state": "AL", "brand": "USPS", "collection_times": "Mo-Fr 16:30; Sa 12:00", "name": "USPS COLLECTION BOX - PO LOBBY", "note": "ON 12/24 AND 12/31, THIS BOX MAY BE COLLECTED AS EARLY AS 12 NOON.", "ref": "3505100004"}, "type": "Feature"}
{"geometry": {"coordinates": [-86.610612173, 33.179393485], "type": "Point"}, "id": "bDrolSzw0dHwptZjHpiUwWiWlt8=", "properties": {"@spider": "usps_collection_boxes", "addr:city": "COLUMBIANA", "addr:country": "US", "addr:full": "210 W COLLEGE ST", "addr:postcode": "35051", "addr:state": "AL", "brand": "USPS", "collection_times": "Mo-Fr 16:30; Sa 12:00", "name": "USPS COLLECTION BOX - PO LOBBY", "note": "ON 12/24 AND 12/31, THIS BOX MAY BE COLLECTED AS EARLY AS 12 NOON.", "ref": "3505100006"}, "type": "Feature"}
{"geometry": {"coordinates": [-86.054254, 33.063707], "type": "Point"}, "id": "R_54bv-3W5-UfMH5XnnEM4IOp9E=", "properties": {"@spider": "usps_collection_boxes", "addr:city": "GOODWATER", "addr:country": "US", "addr:full": "64 COOSA COUNTY ROAD 66", "addr:postcode": "35072", "addr:state": "AL", "brand": "USPS", "collection_times": "Mo-Fr 12:00; Sa 10:30", "name": "USPS COLLECTION BOX - BLUE BOX", "ref": "3507200000"}, "type": "Feature"}
{"geometry": {"coordinates": [-86.0548839, 33.063752], "type": "Point"}, "id": "HzgfkeWil2SPGNCFtrAcXTse9Wc=", "properties": {"@spider": "usps_collection_boxes", "addr:city": "GOODWATER", "addr:country": "US", "addr:full": "64 COOSA COUNTY ROAD 66", "addr:postcode": "35072", "addr:state": "AL", "brand": "USPS", "collection_times": "Mo-Fr 12:00; Sa 10:30", "name": "USPS COLLECTION BOX - PO LOBBY", "ref": "3507200001"}, "type": "Feature"}
{"geometry": {"coordinates": [-86.054994773, 33.063668262], "type": "Point"}, "id": "ajrrfQuemuPM6t5F7JhD2cLym3k=", "properties": {"@spider": "usps_collection_boxes", "addr:city": "GOODWATER", "addr:country": "US", "addr:full": "64 COOSA COUNTY ROAD 66", "addr:postcode": "35072", "addr:state": "AL", "brand": "USPS", "collection_times": "Mo-Fr 15:30; Sa 10:30", "name": "USPS COLLECTION BOX - PO LOBBY", "note": "ON 12/24 AND 12/31, THIS BOX MAY BE COLLECTED AS EARLY AS 12 NOON.", "ref": "3507200003"}, "type": "Feature"}
{"geometry": {"coordinates": [-87.125189, 33.224411], "type": "Point"}, "id": "mRSMthfap4a0JhkC9OtHkopGrFA=", "properties": {"@spider": "usps_collection_boxes", "addr:city": "GREEN POND", "addr:country": "US", "addr:full": "20607 EASTERN VALLEY RD", "addr:postcode": "35074", "addr:state": "AL", "brand": "USPS", "collection_times": "Mo-Fr 12:00; Sa 09:15", "name": "USPS COLLECTION BOX - BLUE BOX", "ref": "3507400000"}, "type": "Feature"}
{"geometry": {"coordinates": [-87.125216, 33.224323], "type": "Point"}, "id": "4REXDZCePWeTFbgOSKEI1PFw4bU=", "properties": {"@spider": "usps_collection_boxes", "addr:city": "GREEN POND", "addr:country": "US", "addr:full": "20607 EASTERN VALLEY RD", "addr:postcode": "35074", "addr:state": "AL", "brand": "USPS", "collection_times": "Mo-Fr 12:00; Sa 09:15", "name": "USPS COLLECTION BOX - PO LOBBY", "ref": "3507400001"}, "type": "Feature"}
{"geometry": {"coordinates": [-87.12623276, 33.222811106], "type": "Point"}, "id": "mZvLl-e2icQExBOH2Y1WDfdFEak=", "properties": {"@spider": "usps_collection_boxes", "addr:city": "GREEN POND", "addr:country": "US", "addr:full": "20607 EASTERN VALLEY RD", "addr:postcode": "35074", "addr:state": "AL", "brand": "USPS", "collection_times": "Mo-Fr 12:30; Sa 09:30", "name": "USPS COLLECTION BOX - PO LOBBY", "note": "ON 12/24 AND 12/31, THIS BOX MAY BE COLLECTED AS EARLY AS 12 NOON.", "ref": "3507400002"}, "type": "Feature"}
{"geometry": {"coordinates": [-86.843891, 33.28999], "type": "Point"}, "id": "2dIf0W0ouKbEi-pbnEho-7odfgA=", "properties": {"@spider": "usps_collection_boxes", "addr:city": "HELENA", "addr:country": "US", "addr:full": "800 HIGHWAY 52", "addr:postcode": "35080", "addr:state": "AL", "brand": "USPS", "collection_times": "Mo-Fr 16:30; Sa 12:00", "name": "USPS COLLECTION BOX - BLUE BOX", "note": "ON 12/24 AND 12/31, THIS BOX MAY BE COLLECTED AS EARLY AS 12 NOON.", "ref": "3508000000"}, "type": "Feature"}
{"geometry": {"coordinates": [-86.843891, 33.28999], "type": "Point"}, "id": "2cZn9pUTW5GeKOMj-OVedPsQRPQ=", "properties": {"@spider": "usps_collection_boxes", "addr:city": "HELENA", "addr:country": "US", "addr:full": "800 HIGHWAY 52", "addr:postcode": "35080", "addr:state": "AL", "brand": "USPS", "collection_times": "Mo-Fr 16:30; Sa 12:00", "name": "USPS COLLECTION BOX - BLUE BOX", "note": "ON 12/24 AND 12/31, THIS BOX MAY BE COLLECTED AS EARLY AS 12 NOON.", "ref": "3508000001"}, "type": "Feature"}
{"geometry": {"coordinates": [-86.843891, 33.28999], "type": "Point"}, "id": "VFfm88YJxvh_GrYjFx1I4JTz84s=", "properties": {"@spider": "usps_collection_boxes", "addr:city": "HELENA", "addr:country": "US", "addr:full": "800 HIGHWAY 52", "addr:postcode": "35080", "addr:state": "AL", "brand": "USPS", "collection_times": "Mo-Fr 16:30; Sa 12:00", "name": "USPS COLLECTION BOX - PO LOBBY", "note": "ON 12/24 AND 12/31, THIS BOX MAY BE COLLECTED AS EARLY AS 12 NOON.", "ref": "3508000002"}, "type": "Feature"}
{"geometry": {"coordinates": [-86.90116153, 33.298017565], "type": "Point"}, "id": "mS9lhBjXgTXEEdgZQnSwgzhsaJU=", "properties": {"@spider": "usps_collection_boxes", "addr:city": "HELENA", "addr:country": "US", "addr:full": "800 HIGHWAY 52", "addr:postcode": "35080", "addr:state": "AL", "brand": "USPS", "collection_times": "Mo-Fr 16:30; Sa 12:00", "name": "USPS COLLECTION BOX - PO LOBBY", "note": "ON 12/24 AND 12/31, THIS BOX MAY BE COLLECTED AS EARLY AS 12 NOON.", "ref": "3508000005"}, "type": "Feature"}
{"geometry": {"coordinates": [-86.743853, 32.959927], "type": "Point"}, "id": "zrkMAFf2dPLfe0n6FIe1p2-h3dw=", "properties": {"@spider": "usps_collection_boxes", "addr:city": "JEMISON", "addr:country": "US", "addr:full": "24760 US HIGHWAY 31", "addr:postcode": "35085", "addr:state": "AL", "brand": "USPS", "collection_times": "Mo-Fr 16:00; Sa 12:00", "name": "USPS COLLECTION BOX - BLUE BOX", "note": "ON 12/24 AND 12/31, THIS BOX MAY BE COLLECTED AS EARLY AS 12 NOON.", "ref": "3508500000"}, "type": "Feature"}
{"geometry": {"coordinates": [-86.743853, 32.959927], "type": "Point"}, "id": "11xXadoFAR4bPhTQXTPplBnG7yo=", "properties": {"@spider": "usps_collection_boxes", "addr:city": "JEMISON", "addr:country": "US", "addr:full": "24760 US HIGHWAY 31", "addr:postcode": "35085", "addr:state": "AL", "brand": "USPS", "collection_times": "Mo-Fr 16:00", "name": "USPS COLLECTION BOX - PO LOBBY", "note": "ON 12/24 AND 12/31, THIS BOX MAY BE COLLECTED AS EARLY AS 12 NOON.", "ref": "3508500001"}, "type": "Feature"}
{"geometry": {"coordinates": [-86.743845177, 32.959957185], "type": "Point"}, "id": "p01MK-u_k9G-rUBC-NA7bvLOddM=", "properties": {"@spider": "usps_collection_boxes", "addr:city": "JEMISON", "addr:country": "US", "addr:full": "24760 US HIGHWAY 31", "addr:postcode": "35085", "addr:state": "AL", "brand": "USPS", "collection_times": "Mo-Fr 16:00", "name": "USPS COLLECTION BOX - PO LOBBY", "note": "ON 12/24 AND 12/31, THIS BOX MAY BE COLLECTED AS EARLY AS 12 NOON.", "ref": "3508500005"}, "type": "Feature"}
{"geometry": {"coordinates": [-86.033327401, 32.979549298], "type": "Point"}, "id": "8CMmwgRXzDhX_w-z6KrMKqKF-TE=", "properties": {"@spider": "usps_collection_boxes", "addr:city": "KELLYTON", "addr:country": "US", "addr:full": "338 FIREHOUSE RD", "addr:postcode": "35089", "addr:state": "AL", "brand": "USPS", "collection_times": "Mo-Fr 11:45; Sa 10:00", "name": "USPS COLLECTION BOX - BLUE BOX", "ref": "3508900000"}, "type": "Feature"}
{"geometry": {"coordinates": [-86.036094, 32.97545], "type": "Point"}, "id": "Kf-iptMwFvxnv6_UXnqd9BkBciA=", "properties": {"@spider": "usps_collection_boxes", "addr:city": "KELLYTON", "addr:country": "US", "addr:full": "338 FIREHOUSE RD", "addr:postcode": "35089", "addr:state": "AL", "brand": "USPS", "collection_times": "Mo-Fr 11:45; Sa 10:00", "name": "USPS COLLECTION BOX - PO LOBBY", "ref": "3508900001"}, "type": "Feature"}
{"geometry": {"coordinates": [-86.03333488, 32.979544035], "type": "Point"}, "id": "uztJP7vnTqxFjCXX85ZA4cFgm9Y=", "properties": {"@spider": "usps_collection_boxes", "addr:city": "KELLYTON", "addr:country": "US", "addr:full": "338 FIREHOUSE RD", "addr:postcode": "35089", "addr:state": "AL", "brand": "USPS", "collection_times": "Mo-Fr 12:00; Sa 10:00", "name": "USPS COLLECTION BOX - PO LOBBY", "ref": "3508900003"}, "type": "Feature"}
