{"geometry": {"coordinates": [-87.028462, 33.325679], "type": "Point"}, "id": "q5SB-IUj98WakOVhGO3o4BxBUQE=", "properties": {"@spider": "usps_collection_boxes", "addr:city": "MCCALLA", "addr:country": "US", "addr:full": "6301 OLD TUSCALOOSA HWY", "addr:postcode": "35111", "addr:state": "AL", "brand": "USPS", "collection_times": "Mo-Fr 16:00; Sa 09:00", "name": "USPS COLLECTION BOX - BLUE BOX", "note": "ON 12/24 AND 12/31, THIS BOX MAY BE COLLECTED AS EARLY AS 12 NOON.", "ref": "3511100000"}, "type": "Feature"}
{"geometry": {"coordinates": [-87.028462, 33.325679], "type": "Point"}, "id": "62nFkMabp9cqupppGzBcjaztiT0=", "properties": {"@spider": "usps_collection_boxes", "addr:city": "MCCALLA", "addr:country": "US", "addr:full": "6301 OLD TUSCALOOSA HWY", "addr:postcode": "35111", "addr:state": "AL", "brand": "USPS", "collection_times": "Mo-Fr 16:00; Sa 09:00", "name": "USPS COLLECTION BOX - PO LOBBY", "note": "ON 12/24 AND 12/31, THIS BOX MAY BE COLLECTED AS EARLY AS 12 NOON.", "ref": "3511100002"}, "type": "Feature"}
{"geometry": {"coordinates": [-87.091667, 33.278748], "type": "Point"}, "id": "lMaKQVT794hcCN8IDLiEseNbxTc=", "properties": {"@spider": "usps_collection_boxes", "addr:city": "MCCALLA", "addr:country": "US", "addr:full": "22526 HIGHWAY 216", "addr:postcode": "35111", "addr:state": "AL", "brand": "USPS", "collection_times": "Mo-Sa 11:45", "name": "USPS COLLECTION BOX - BLUE BOX", "ref": "3511100004"}, "type": "Feature"}
{"geometry": {"coordinates": [-87.027638132, 33.326183429], "type": "Point"}, "id": "U7TO41zGgyMOBDyxlVBitbgcM2o=", "properties": {"@spider": "usps_collection_boxes", "addr:city": "MCCALLA", "addr:country": "US", "addr:full": "6301 OLD TUSCALOOSA HWY", "addr:postcode": "35111", "addr:state": "AL", "brand": "USPS", "collection_times": "Mo-Fr 16:00; Sa 09:00", "name": "USPS COLLECTION BOX - PO LOBBY", "note": "ON 12/24 AND 12/31, THIS BOX MAY BE COLLECTED AS EARLY AS 12 NOON.", "ref": "3511100006"}, "type": "Feature"}
{"geometry": {"coordinates": [-86.862874, 33.204493], "type": "Point"}, "id": "g_gqrSPu26ddivToTwEo1ISEKKo=", "properties": {"@spider": "usps_collection_boxes", "addr:city": "MAYLENE", "addr:country": "US", "addr:full": "10011 HIGHWAY 17", "addr:postcode": "35114", "addr:state": "AL", "brand": "USPS", "collection_times": "Mo-Fr 13:45; Sa 09:30", "name": "USPS COLLECTION BOX - BLUE BOX", "note": "ON 12/24 AND 12/31, THIS BOX MAY BE COLLECTED AS EARLY AS 12 NOON.", "ref": "3511400000"}, "type": "Feature"}
{"geometry": {"coordinates": [-86.862874, 33.204493], "type": "Point"}, "id": "MFYuVmrx4dHikk9I0_LOqugqxQA=", "properties": {"@spider": "usps_collection_boxes", "addr:city": "MAYLENE", "addr:country": "US", "addr:full": "10011 HIGHWAY 17", "addr:postcode": "35114", "addr:state": "AL", "brand": "USPS", "collection_times": "Mo-Fr 13:45; Sa 09:30", "name": "USPS COLLECTION BOX - PO LOBBY", "note": "ON 12/24 AND 12/31, THIS BOX MAY BE COLLECTED AS EARLY AS 12 NOON.", "ref": "3511400001"}, "type": "Feature"}
{"geometry": {"coordinates": [-86.862848873, 33.20448777], "type": "Point"}, "id": "9Qap64v67ZIt-FAv-456EnxpY04=", "properties": {"@spider": "usps_collection_boxes", "addr:city": "MAYLENE", "addr:country": "US", "addr:full": "10011 HIGHWAY 17", "addr:postcode": "35114", "addr:state": "AL", "brand": "USPS", "collection_times": "Mo-Fr 14:00; Sa 10:00", "name": "USPS COLLECTION BOX - PO LOBBY", "note": "ON 12/24 AND 12/31, THIS BOX MAY BE COLLECTED AS EARLY AS 12 NOON.", "ref": "3511400003"}, "type": "Feature"}
{"geometry": {"coordinates": [-86.8622770403, 33.101137212], "type": "Point"}, "id": "3HxSab_gyTXrMrK_-hqS6Xbpuy0=", "properties": {"@spider": "usps_collection_boxes", "addr:city": "MONTEVALLO", "addr:country": "US", "addr:full": "720 VINE ST", "addr:postcode": "35115", "addr:state": "AL", "brand": "USPS", "collection_times": "Mo-Fr 16:00; Sa 12:00", "name": "USPS COLLECTION BOX - BLUE BOX", "note": "ON 12/24 AND 12/31, THIS BOX MAY BE COLLECTED AS EARLY AS 12 NOON.", "ref": "3511500001"}, "type": "Feature"}
{"geometry": {"coordinates": [-86.8622770403, 33.101137212], "type": "Point"}, "id": "B0dl5yvrgWAdGybBppJg9WwkVl4=", "properties": {"@spider": "usps_collection_boxes", "addr:city": "MONTEVALLO", "addr:country": "US", "addr:full": "720 VINE ST", "addr:postcode": "35115", "addr:state": "AL", "brand": "USPS", "collection_times": "Mo-Fr 16:00; Sa 12:00", "name": "USPS COLLECTION BOX - BLUE BOX", "note": "ON 12/24 AND 12/31, THIS BOX MAY BE COLLECTED AS EARLY AS 12 NOON.", "ref": "3511500002"}, "type": "Feature"}
{"geometry": {"coordinates": [-86.862311, 33.101128], "type": "Point"}, "id": "Ivdu2hoJAxvwAJgCmmOiwxMbFB0=", "properties": {"@spider": "usps_collection_boxes", "addr:city": "MONTEVALLO", "addr:country": "US", "addr:full": "720 VINE ST", "addr:postcode": "35115", "addr:state": "AL", "brand": "USPS", "collection_times": "Mo-Fr 16:00; Sa 12:00", "name": "USPS COLLECTION BOX - PO LOBBY", "note": "ON 12/24 AND 12/31, THIS BOX MAY BE COLLECTED AS EARLY AS 12 NOON.", "ref": "3511500007"}, "type": "Feature"}
{"geometry": {"coordinates": [-86.862277021, 33.101128274], "type": "Point"}, "id": "nG2A6UpM2UJ5tYfk_xZJu6_2mVo=", "properties": {"@spider": "usps_collection_boxes", "addr:city": "MONTEVALLO", "addr:country": "US", "addr:full": "720 VINE ST", "addr:postcode": "35115", "addr:state": "AL", "brand": "USPS", "collection_times": "Mo-Fr 16:30; Sa 12:00", "name": "USPS COLLECTION BOX - PO LOBBY", "note": "ON 12/24 AND 12/31, THIS BOX MAY BE COLLECTED AS EARLY AS 12 NOON.", "ref": "3511500010"}, "type": "Feature"}
{"geometry": {"coordinates": [-86.8107930238, 33.298126956], "type": "Point"}, "id": "-IxADsHZaiWRqU5BDX17loZ5WDQ=", "properties": {"@spider": "usps_collection_boxes", "addr:city": "PELHAM", "addr:country": "US", "addr:full": "2960 HIGHWAY 31 S", "addr:postcode": "35124", "addr:state": "AL", "brand": "USPS", "collection_times": "Mo-Fr 16:30; Sa 12:00", "name": "USPS COLLECTION BOX - BLUE BOX", "note": "ON 12/24 AND 12/31, THIS BOX MAY BE COLLECTED AS EARLY AS 12 NOON.", "ref": "3512400000"}, "type": "Feature"}
{"geometry": {"coordinates": [-86.810788, 33.298085], "type": "Point"}, "id": "pdVTvWFDaQBPBRKf-rieQawxHKM=", "properties": {"@spider": "usps_collection_boxes", "addr:city": "PELHAM", "addr:country": "US", "addr:full": "2960 HIGHWAY 31 S", "addr:postcode": "35124", "addr:state": "AL", "brand": "USPS", "collection_times": "Mo-Fr 16:30; Sa 12:00", "name": "USPS COLLECTION BOX - BLUE BOX", "note": "ON 12/24 AND 12/31, THIS BOX MAY BE COLLECTED AS EARLY AS 12 NOON.", "ref": "3512400001"}, "type": "Feature"}
{"geometry": {"coordinates": [-86.810788, 33.298085], "type": "Point"}, "id": "p3UQ_a3X5WHKoTdgDuXEmmPR7Mw=", "properties": {"@spider": "usps_collection_boxes", "addr:city": "PELHAM", "addr:country": "US", "addr:full": "2960 HIGHWAY 31 S", "addr:postcode": "35124", "addr:state": "AL", "brand": "USPS", "collection_times": "Mo-Fr 16:30; Sa 12:00", "name": "USPS COLLECTION BOX - PO LOBBY", "note": "ON 12/24 AND 12/31, THIS BOX MAY BE COLLECTED AS EARLY AS 12 NOON.", "ref": "3512400010"}, "type": "Feature"}
{"geometry": {"coordinates": [-86.810788, 33.298085], "type": "Point"}, "id": "rGPqWEvJAfcQ9I5uuddY8qY3KZg=", "properties": {"@spider": "usps_collection_boxes", "addr:city": "PELHAM", "addr:country": "US", "addr:full": "2960 HIGHWAY 31 S", "addr:postcode": "35124", "addr:state": "AL", "brand": "USPS", "collection_times": "Mo-Fr 16:30; Sa 12:00", "name": "USPS COLLECTION BOX - PO LOBBY", "note": "ON 12/24 AND 12/31, THIS BOX MAY BE COLLECTED AS EARLY AS 12 NOON.", "ref": "3512400011"}, "type": "Feature"}
{"geometry": {"coordinates": [-86.810793153, 33.298126926], "type": "Point"}, "id": "QdHouVB9fFv3Q_2QvNzZW3lUD0Q=", "properties": {"@spider": "usps_collection_boxes", "addr:city": "PELHAM", "addr:country": "US", "addr:full": "2960 PELHAM PKWY", "addr:postcode": "35124", "addr:state": "AL", "brand": "USPS", "collection_times": "Mo-Fr 16:30; Sa 12:00", "name": "USPS COLLECTION BOX - PO LOBBY", "note": "ON 12/24 AND 12/31, THIS BOX MAY BE COLLECTED AS EARLY AS 12 NOON.", "ref": "3512400017"}, "type": "Feature"}
{"geometry": {"coordinates": [-86.2206267, 32.889456], "type": "Point"}, "id": "Ml0W3XDCSJcHu5YEJOtnHJgKxeQ=", "properties": {"@spider": "usps_collection_boxes", "addr:city": "ROCKFORD", "addr:country": "US", "addr:full": "329 JACKSON ST", "addr:postcode": "35136", "addr:state": "AL", "brand": "USPS", "collection_times": "Mo-Fr 15:30; Sa 09:30", "name": "USPS COLLECTION BOX - BLUE BOX", "note": "ON 12/24 AND 12/31, THIS BOX MAY BE COLLECTED AS EARLY AS 12 NOON.", "ref": "3513600000"}, "type": "Feature"}
{"geometry": {"coordinates": [-86.2206987, 32.88956], "type": "Point"}, "id": "EzSFE-te5kqktbF28pxVkmuP8rc=", "properties": {"@spider": "usps_collection_boxes", "addr:city": "ROCKFORD", "addr:country": "US", "addr:full": "329 JACKSON ST", "addr:postcode": "35136", "addr:state": "AL", "brand": "USPS", "collection_times": "Mo-Fr 15:30; Sa 09:30", "name": "USPS COLLECTION BOX - PO LOBBY", "note": "ON 12/24 AND 12/31, THIS BOX MAY BE COLLECTED AS EARLY AS 12 NOON.", "ref": "3513600001"}, "type": "Feature"}
{"geometry": {"coordinates": [-86.220554147, 32.889560616], "type": "Point"}, "id": "mQ4Kh21DQmVYShwv99RmEdddN5c=", "properties": {"@spider": "usps_collection_boxes", "addr:city": "ROCKFORD", "addr:country": "US", "addr:full": "329 JACKSON ST", "addr:postcode": "35136", "addr:state": "AL", "brand": "USPS", "collection_times": "Mo-Fr 16:00; Sa 09:30", "name": "USPS COLLECTION BOX - PO LOBBY", "note": "ON 12/24 AND 12/31, THIS BOX MAY BE COLLECTED AS EARLY AS 12 NOON.", "ref": "3513600003"}, "type": "Feature"}
{"geometry": {"coordinates": [-86.781923, 33.207478], "type": "Point"}, "id": "v1KXKOjXh9rkLG8JvONQgy2XokM=", "properties": {"@spider": "usps_collection_boxes", "addr:city": "SAGINAW", "addr:country": "US", "addr:full": "858 HIGHWAY 31", "addr:postcode": "35137", "addr:state": "AL", "brand": "USPS", "collection_times": "Mo-Fr 15:30; Sa 08:00", "name": "USPS COLLECTION BOX - BLUE BOX", "note": "ON 12/24 AND 12/31, THIS BOX MAY BE COLLECTED AS EARLY AS 12 NOON.", "ref": "3513700000"}, "type": "Feature"}
{"geometry": {"coordinates": [-86.781941, 33.207545], "type": "Point"}, "id": "Wtoqz-V3HkOpO9f2VEDg7oVG22E=", "properties": {"@spider": "usps_collection_boxes", "addr:city": "SAGINAW", "addr:country": "US", "addr:full": "858 HIGHWAY 31", "addr:postcode": "35137", "addr:state": "AL", "brand": "USPS", "collection_times": "Mo-Fr 15:30; Sa 08:00", "name": "USPS COLLECTION BOX - PO LOBBY", "note": "ON 12/24 AND 12/31, THIS BOX MAY BE COLLECTED AS EARLY AS 12 NOON.", "ref": "3513700001"}, "type": "Feature"}
{"geometry": {"coordinates": [-86.783074614, 33.208704865], "type": "Point"}, "id": "RFVzKq70eIyoEgCmi4LbmSnHdo0=", "properties": {"@spider": "usps_collection_boxes", "addr:city": "SAGINAW", "addr:country": "US", "addr:full": "858 HIGHWAY 31", "addr:postcode": "35137", "addr:state": "AL", "brand": "USPS", "collection_times": "Mo-Fr 16:00", "name": "USPS COLLECTION BOX - PO LOBBY", "note": "ON 12/24 AND 12/31, THIS BOX MAY BE COLLECTED AS EARLY AS 12 NOON.", "ref": "3513700003"}, "type": "Feature"}
{"geometry": {"coordinates": [-86.5848206, 33.120677], "type": "Point"}, "id": "Hl_h20T-b8ihM3R4ODo6cTstiQ8=", "properties": {"@spider": "usps_collection_boxes", "addr:city": "SHELBY", "addr:country": "US", "addr:full": "3788 HIGHWAY 47", "addr:postcode": "35143", "addr:state": "AL", "brand": "USPS", "collection_times": "Mo-Fr 15:30; Sa 09:00", "name": "USPS COLLECTION BOX - BLUE BOX", "note": "ON 12/24 AND 12/31, THIS BOX MAY BE COLLECTED AS EARLY AS 12 NOON.", "ref": "3514300000"}, "type": "Feature"}
{"geometry": {"coordinates": [-86.5848477, 33.120907], "type": "Point"}, "id": "6GSU5DWEH2Qodi56MvscZy6EHuY=", "properties": {"@spider": "usps_collection_boxes", "addr:city": "SHELBY", "addr:country": "US", "addr:full": "3788 HIGHWAY 47", "addr:postcode": "35143", "addr:state": "AL", "brand": "USPS", "collection_times": "Mo-Fr 15:30; Sa 09:00", "name": "USPS COLLECTION BOX - PO LOBBY", "note": "ON 12/24 AND 12/31, THIS BOX MAY BE COLLECTED AS EARLY AS 12 NOON.", "ref": "3514300001"}, "type": "Feature"}
{"geometry": {"coordinates": [-86.584660946, 33.121399545], "type": "Point"}, "id": "K1tUmSicdvUuLd-_NlAMQnHau9o=", "properties": {"@spider": "usps_collection_boxes", "addr:city": "SHELBY", "addr:country": "US", "addr:full": "3788 HIGHWAY 47", "addr:postcode": "35143", "addr:state": "AL", "brand": "USPS", "collection_times": "Mo-Fr 16:00; Sa 10:00", "name": "USPS COLLECTION BOX - PO LOBBY", "note": "ON 12/24 AND 12/31, THIS BOX MAY BE COLLECTED AS EARLY AS 12 NOON.", "ref": "3514300003"}, "type": "Feature"}
{"geometry": {"coordinates": [-86.251107, 33.166831], "type": "Point"}, "id": "rGc5br_bMva0kSVoexXzGOKKyrw=", "properties": {"@spider": "usps_collection_boxes", "addr:city": "SYCAMORE", "addr:country": "US", "addr:full": "479 MAIN ST", "addr:postcode": "35149", "addr:state": "AL", "brand": "USPS", "collection_times": "Mo-Fr 12:00; Sa 10:00", "name": "USPS COLLECTION BOX - BLUE BOX", "ref": "3514900000"}, "type": "Feature"}
{"geometry": {"coordinates": [-86.204969, 33.254351], "type": "Point"}, "id": "00-sFknntaozVTc-x68FJJUXCVc=", "properties": {"@spider": "usps_collection_boxes", "addr:city": "SYCAMORE", "addr:country": "US", "addr:full": "479 MAIN ST", "addr:postcode": "35149", "addr:state": "AL", "brand": "USPS", "collection_times": "Mo-Fr 12:00; Sa 10:00", "name": "USPS COLLECTION BOX - PO LOBBY", "ref": "3514900001"}, "type": "Feature"}
{"geometry": {"coordinates": [-86.204883459, 33.254336227], "type": "Point"}, "id": "GetWKSF0Y_sfhp8-bwH8VMa-Azs=", "properties": {"@spider": "usps_collection_boxes", "addr:city": "SYCAMORE", "addr:country": "US", "addr:full": "479 MAIN ST", "addr:postcode": "35149", "addr:state": "AL", "brand": "USPS", "collection_times": "Mo-Fr 12:30; Sa 10:00", "name": "USPS COLLECTION BOX - PO LOBBY", "note": "ON 12/24 AND 12/31, THIS BOX MAY BE COLLECTED AS EARLY AS 12 NOON.", "ref": "3514900002"}, "type": "Feature"}
{"geometry": {"coordinates": [-86.2514033, 33.166724], "type": "Point"}, "id": "-Tfg4gDjx_NTWLnonzJzJxBrWVk=", "properties": {"@spider": "usps_collection_boxes", "addr:city": "SYLACAUGA", "addr:country": "US", "addr:full": "1 S BROADWAY AVE", "addr:postcode": "35150", "addr:state": "AL", "brand": "USPS", "collection_times": "Mo-Fr 17:00; Sa 12:00", "name": "USPS COLLECTION BOX - BLUE BOX", "note": "ON 12/24 AND 12/31, THIS BOX MAY BE COLLECTED AS EARLY AS 12 NOON.", "ref": "3515000000"}, "type": "Feature"}
{"geometry": {"coordinates": [-86.2508582155, 33.1672637701], "type": "Point"}, "id": "9URA6c8zOdeTHPC7GrKXem4_3iY=", "properties": {"@spider": "usps_collection_boxes", "addr:city": "SYLACAUGA", "addr:country": "US", "addr:full": "1 S BROADWAY AVE", "addr:postcode": "35150", "addr:state": "AL", "brand": "USPS", "collection_times": "Mo-Fr 17:00; Sa 12:00", "name": "USPS COLLECTION BOX - BLUE BOX", "note": "ON 12/24 AND 12/31, THIS BOX MAY BE COLLECTED AS EARLY AS 12 NOON.", "ref": "3515000001"}, "type": "Feature"}
{"geometry": {"coordinates": [-86.2519533, 33.173251], "type": "Point"}, "id": "fLC6iYQOZ7HQMOVJav7MOKcty4I=", "properties": {"@spider": "usps_collection_boxes", "addr:city": "SYLACAUGA", "addr:country": "US", "addr:full": "400 N NORTON AVE", "addr:postcode": "35150", "addr:state": "AL", "brand": "USPS", "collection_times": "Mo-Sa 09:30", "name": "USPS COLLECTION BOX - BLUE BOX", "ref": "3515000011"}, "type": "Feature"}
{"geometry": {"coordinates": [-86.2514176, 33.177922], "type": "Point"}, "id": "-NRg4ofwbyWpyYohJK0Q5LpUxNU=", "properties": {"@spider": "usps_collection_boxes", "addr:city": "SYLACAUGA", "addr:country": "US", "addr:full": "2 W 8TH ST", "addr:postcode": "35150", "addr:state": "AL", "brand": "USPS", "collection_times": "Mo-Sa 09:30", "name": "USPS COLLECTION BOX - BLUE BOX", "ref": "3515000014"}, "type": "Feature"}
{"geometry": {"coordinates": [-86.2511639, 33.166984], "type": "Point"}, "id": "OncjZqCZxh00JH5z5jmZQ65ob2E=", "properties": {"@spider": "usps_collection_boxes", "addr:city": "SYLACAUGA", "addr:country": "US", "addr:full": "1 S BROADWAY AVE", "addr:postcode": "35150", "addr:state": "AL", "brand": "USPS", "collection_times": "Mo-Fr 17:00; Sa 12:00", "name": "USPS COLLECTION BOX - PO LOBBY", "note": "ON 12/24 AND 12/31, THIS BOX MAY BE COLLECTED AS EARLY AS 12 NOON.", "ref": "3515000017"}, "type": "Feature"}
{"geometry": {"coordinates": [-86.251411, 33.166713], "type": "Point"}, "id": "yQeXniB0QLQlGhZwlI6oTlRQESE=", "properties": {"@spider": "usps_collection_boxes", "addr:city": "SYLACAUGA", "addr:country": "US", "addr:full": "1 S BROADWAY AVE", "addr:postcode": "35150", "addr:state": "AL", "brand": "USPS", "collection_times": "Mo-Fr 17:00; Sa 12:00", "name": "USPS COLLECTION BOX - BLUE BOX", "note": "ON 12/24 AND 12/31, THIS BOX MAY BE COLLECTED AS EARLY AS 12 NOON.", "ref": "3515000019"}, "type": "Feature"}
{"geometry": {"coordinates": [-86.250860865, 33.167256487], "type": "Point"}, "id": "Rd7cwdTQ4a6XG7weggcvi_uE4j8=", "properties": {"@spider": "usps_collection_boxes", "addr:city": "SYLACAUGA", "addr:country": "US", "addr:full": "1 S BROADWAY AVE", "addr:postcode": "35150", "addr:state": "AL", "brand": "USPS", "collection_times": "Mo-Fr 17:00; Sa 12:00", "name": "USPS COLLECTION BOX - PO LOBBY", "note": "ON 12/24 AND 12/31, THIS BOX MAY BE COLLECTED AS EARLY AS 12 NOON.", "ref": "3515000021"}, "type": "Feature"}
{"geometry": {"coordinates": [-86.711124, 32.910595], "type": "Point"}, "id": "qS9d1gXOcH05plWnxs5_QTeF7bY=", "properties": {"@spider": "usps_collection_boxes", "addr:city": "THORSBY", "addr:country": "US", "addr:full": "20650 US HIGHWAY 31", "addr:postcode": "35171", "addr:state": "AL", "brand": "USPS", "collection_times": "Mo-Sa 12:00", "name": "USPS COLLECTION BOX - BLUE BOX", "ref": "3517100000"}, "type": "Feature"}
{"geometry": {"coordinates": [-86.711124, 32.910595], "type": "Point"}, "id": "upNU1f3nTDHrZSXduiObHAz8CFA=", "properties": {"@spider": "usps_collection_boxes", "addr:city": "THORSBY", "addr:country": "US", "addr:full": "20650 US HIGHWAY 31", "addr:postcode": "35171", "addr:state": "AL", "brand": "USPS", "collection_times": "Mo-Sa 12:00", "name": "USPS COLLECTION BOX - PO LOBBY", "ref": "3517100002"}, "type": "Feature"}
{"geometry": {"coordinates": [-86.711107213, 32.910563975], "type": "Point"}, "id": "xZ3maQFQBOPzfnBynriUwG-n4v4=", "properties": {"@spider": "usps_collection_boxes", "addr:city": "THORSBY", "addr:country": "US", "addr:full": "20650 US HIGHWAY 31", "addr:postcode": "35171", "addr:state": "AL", "brand": "USPS", "collection_times": "Mo-Fr 16:00; Sa 12:00", "name": "USPS COLLECTION BOX - PO LOBBY", "note": "ON 12/24 AND 12/31, THIS BOX MAY BE COLLECTED AS EARLY AS 12 NOON.", "ref": "3517100004"}, "type": "Feature"}
{"geometry": {"coordinates": [-86.338309, 32.863343], "type": "Point"}, "id": "ziNPNy0KJjNES0WHG7fuhnyc5TQ=", "properties": {"@spider": "usps_collection_boxes", "addr:city": "WEOGUFKA", "addr:country": "US", "addr:full": "20312 COOSA COUNTY ROAD 29", "addr:postcode": "35183", "addr:state": "AL", "brand": "USPS", "collection_times": "Mo-Fr 12:00; Sa 09:30", "name": "USPS COLLECTION BOX - BLUE BOX", "ref": "3518300000"}, "type": "Feature"}
{"geometry": {"coordinates": [-86.338309, 32.863343], "type": "Point"}, "id": "TQkN0E4mrEra_L2t5dg4177V14g=", "properties": {"@spider": "usps_collection_boxes", "addr:city": "WEOGUFKA", "addr:country": "US", "addr:full": "20312 COOSA COUNTY ROAD 29", "addr:postcode": "35183", "addr:state": "AL", "brand": "USPS", "collection_times": "Mo-Fr 12:00; Sa 09:30", "name": "USPS COLLECTION BOX - PO LOBBY", "ref": "3518300001"}, "type": "Feature"}
{"geometry": {"coordinates": [-86.311953051, 33.019381509], "type": "Point"}, "id": "TZonFD7UWCDgGCaTUvx8BNYISBo=", "properties": {"@spider": "usps_collection_boxes", "addr:city": "WEOGUFKA", "addr:country": "US", "addr:full": "20312 COOSA COUNTY ROAD 29", "addr:postcode": "35183", "addr:state": "AL", "brand": "USPS", "collection_times": "Mo-Fr 12:00; Sa 10:30", "name": "USPS COLLECTION BOX - PO LOBBY", "ref": "3518300003"}, "type": "Feature"}
{"geometry": {"coordinates": [-87.1166, 33.121662], "type": "Point"}, "id": "OIRG2RxLNeCmcnU17aqEdCK8xU8=", "properties": {"@spider": "usps_collection_boxes", "addr:city": "WEST BLOCTON", "addr:country": "US", "addr:full": "106 FLORIDA ST", "addr:postcode": "35184", "addr:state": "AL", "brand": "USPS", "collection_times": "Mo-Fr 12:00; Sa 11:30", "name": "USPS COLLECTION BOX - BLUE BOX", "ref": "3518400000"}, "type": "Feature"}
{"geometry": {"coordinates": [-87.1166, 33.121662], "type": "Point"}, "id": "L6IPEF5uDo38jiF0JxEkdakgwDE=", "properties": {"@spider": "usps_collection_boxes", "addr:city": "WEST BLOCTON", "addr:country": "US", "addr:full": "106 FLORIDA ST", "addr:postcode": "35184", "addr:state": "AL", "brand": "USPS", "collection_times": "Mo-Fr 12:00; Sa 11:30", "name": "USPS COLLECTION BOX - PO LOBBY", "ref": "3518400002"}, "type": "Feature"}
{"geometry": {"coordinates": [-87.116628445, 33.121651803], "type": "Point"}, "id": "RFO9YJCIvIGWKpPc781EOu9DWxg=", "properties": {"@spider": "usps_collection_boxes", "addr:city": "WEST BLOCTON", "addr:country": "US", "addr:full": "106 FLORIDA ST", "addr:postcode": "35184", "addr:state": "AL", "brand": "USPS", "collection_times": "Mo-Fr 16:30; Sa 11:30", "name": "USPS COLLECTION BOX - PO LOBBY", "note": "ON 12/24 AND 12/31, THIS BOX MAY BE COLLECTED AS EARLY AS 12 NOON.", "ref": "3518400004"}, "type": "Feature"}
{"geometry": {"coordinates": [-86.88447, 33.075553], "type": "Point"}, "id": "kjBN8eekRpZW5jpAy9QO3nayq5I=", "properties": {"@spider": "usps_collection_boxes", "addr:city": "WILTON", "addr:country": "US", "addr:full": "2324 HIGHWAY 25", "addr:postcode": "35187", "addr:state": "AL", "brand": "USPS", "collection_times": "Mo-Fr 11:50; Sa 08:00", "name": "USPS COLLECTION BOX - BLUE BOX", "ref": "3518700000"}, "type": "Feature"}
{"geometry": {"coordinates": [-86.88447, 33.075553], "type": "Point"}, "id": "PzpqUjb3sVgif__wp0We81VKa1I=", "properties": {"@spider": "usps_collection_boxes", "addr:city": "WILTON", "addr:country": "US", "addr:full": "2324 HIGHWAY 25", "addr:postcode": "35187", "addr:state": "AL", "brand": "USPS", "collection_times": "Mo-Fr 11:50; Sa 08:00", "name": "USPS COLLECTION BOX - PO LOBBY", "ref": "3518700002"}, "type": "Feature"}
{"geometry": {"coordinates": [-86.885112869, 33.074590649], "type": "Point"}, "id": "cCL_wChIyptjrfn16mB8fpMNDLg=", "properties": {"@spider": "usps_collection_boxes", "addr:city": "WILTON", "addr:country": "US", "addr:full": "2324 HIGHWAY 25", "addr:postcode": "35187", "addr:state": "AL", "brand": "USPS", "collection_times": "Mo-Fr 12:00", "name": "USPS COLLECTION BOX - PO LOBBY", "ref": "3518700003"}, "type": "Feature"}
{"geometry": {"coordinates": [-87.1622934184, 33.2130493842], "type": "Point"}, "id": "KEE9Eav7gi0MoWYIrMn-VCIengU=", "properties": {"@spider": "usps_collection_boxes", "addr:city": "WOODSTOCK", "addr:country": "US", "addr:full": "28770 HIGHWAY 5", "addr:postcode": "35188", "addr:state": "AL", "brand": "USPS", "collection_times": "Mo-Fr 15:45; Sa 09:45", "name": "USPS COLLECTION BOX - BLUE BOX", "note": "ON 12/24 AND 12/31, THIS BOX MAY BE COLLECTED AS EARLY AS 12 NOON.", "ref": "3518800000"}, "type": "Feature"}
{"geometry": {"coordinates": [-87.162374, 33.213093], "type": "Point"}, "id": "BBt6LHd3YArqOyfcPs_XlcJJMxc=", "properties": {"@spider": "usps_collection_boxes", "addr:city": "WOODSTOCK", "addr:country": "US", "addr:full": "28770 HIGHWAY 5", "addr:postcode": "35188", "addr:state": "AL", "brand": "USPS", "collection_times": "Mo-Fr 15:45; Sa 09:45", "name": "USPS COLLECTION BOX - PO LOBBY", "note": "ON 12/24 AND 12/31, THIS BOX MAY BE COLLECTED AS EARLY AS 12 NOON.", "ref": "3518800001"}, "type": "Feature"}
{"geometry": {"coordinates": [-87.162254057, 33.213015993], "type": "Point"}, "id": "WQWabqqDlXY0y0sD300bsTv8JXo=", "properties": {"@spider": "usps_collection_boxes", "addr:city": "WOODSTOCK", "addr:country": "US", "addr:full": "28770 HIGHWAY 5", "addr:postcode": "35188", "addr:state": "AL", "brand": "USPS", "collection_times": "Mo-Fr 16:00; Sa 10:00", "name": "USPS COLLECTION BOX - PO LOBBY", "note": "ON 12/24 AND 12/31, THIS BOX MAY BE COLLECTED AS EARLY AS 12 NOON.", "ref": "3518800003"}, "type": "Feature"}
