{"geometry": {"coordinates": [-86.8020753, 33.520223], "type": "Point"}, "id": "_sp5HlR9sLk0a5JU4x5LBqOa79g=", "properties": {"@source_uri": "https://tools.usps.com/UspsToolsRestServices/rest/POLocator/findLocations", "@spider": "usps_collection_boxes", "addr:city": "BIRMINGHAM", "addr:country": "US", "addr:postcode": "35203", "addr:state": "AL", "addr:street_address": "351 24TH ST N", "amenity": "post_box", "collection_times": "Mo-Sa 17:30", "note": "ON 12/24 AND 12/31, THIS BOX MAY BE COLLECTED AS EARLY AS 12 NOON.", "nsi_id": "unitedstatespostalservice-a77078", "operator": "United States Postal Service", "operator:short": "USPS", "operator:type": "public", "operator:wikidata": "Q668687", "ref": "3520300001"}, "type": "Feature"}
{"geometry": {"coordinates": [-86.8018499, 33.520972], "type": "Point"}, "id": "FPL0u0qZwFhCxkIVLoTTb32pcjA=", "properties": {"@source_uri": "https://tools.usps.com/UspsToolsRestServices/rest/POLocator/findLocations", "@spider": "usps_collection_boxes", "addr:city": "BIRMINGHAM", "addr:country": "US", "addr:postcode": "35203", "addr:state": "AL", "addr:street_address": "2451 5TH AVE N", "amenity": "post_box", "collection_times": "Mo-Sa 17:00", "note": "ON 12/24 AND 12/31, THIS BOX MAY BE COLLECTED AS EARLY AS 12 NOON.", "nsi_id": "unitedstatespostalservice-a77078", "operator": "United States Postal Service", "operator:short": "USPS", "operator:type": "public", "operator:wikidata": "Q668687", "ref": "3520300003"}, "type": "Feature"}
{"geometry": {"coordinates": [-86.8181151925, 33.5096905887], "type": "Point"}, "id": "N6e14QYRS_q9PqNVvTIBd_ReItg=", "properties": {"@source_uri": "https://tools.usps.com/UspsToolsRestServices/rest/POLocator/findLocations", "@spider": "usps_collection_boxes", "addr:city": "BIRMINGHAM", "addr:country": "US", "addr:postcode": "35203", "addr:state": "AL", "addr:street_address": "1125 2ND AVE N", "amenity": "post_box", "collection_times": "Mo-Fr 10:30", "nsi_id": "unitedstatespostalservice-a77078", "operator": "United States Postal Service", "operator:short": "USPS", "operator:type": "public", "operator:wikidata": "Q668687", "ref": "3520300006"}, "type": "Feature"}
{"geometry": {"coordinates": [-86.80715, 33.519345], "type": "Point"}, "id": "aktueMLZ_TGH4EyCDTRa-67XEZE=", "properties": {"@source_uri": "https://tools.usps.com/UspsToolsRestServices/rest/POLocator/findLocations", "@spider": "usps_collection_boxes", "addr:city": "BIRMINGHAM", "addr:country": "US", "addr:postcode": "35203", "addr:state": "AL", "addr:street_address": "1225 5TH AVE N", "amenity": "post_box", "collection_times": "Mo-Fr 10:00", "nsi_id": "unitedstatespostalservice-a77078", "operator": "United States Postal Service", "operator:short": "USPS", "operator:type": "public", "operator:wikidata": "Q668687", "ref": "3520300008"}, "type": "Feature"}
{"geometry": {"coordinates": [-86.8113740379, 33.518521019], "type": "Point"}, "id": "pg3hIXromyg41sOpOdl2CxxO4oY=", "properties": {"@source_uri": "https://tools.usps.com/UspsToolsRestServices/rest/POLocator/findLocations", "@spider": "usps_collection_boxes", "addr:city": "BIRMINGHAM", "addr:country": "US", "addr:postcode": "35203", "addr:state": "AL", "addr:street_address": "600 19TH ST N", "amenity": "post_box", "collection_times": "Mo-Fr 10:00", "nsi_id": "unitedstatespostalservice-a77078", "operator": "United States Postal Service", "operator:short": "USPS", "operator:type": "public", "operator:wikidata": "Q668687", "ref": "3520300020"}, "type": "Feature"}
{"geometry": {"coordinates": [-86.8139623723, 33.5156017076], "type": "Point"}, "id": "S6azps7P0S2fwiyB35sbHAyRdmg=", "properties": {"@source_uri": "https://tools.usps.com/UspsToolsRestServices/rest/POLocator/findLocations", "@spider": "usps_collection_boxes", "addr:city": "BIRMINGHAM", "addr:country": "US", "addr:postcode": "35203", "addr:state": "AL", "addr:street_address": "520 16TH ST N", "amenity": "post_box", "collection_times": "Mo-Fr 10:00", "nsi_id": "unitedstatespostalservice-a77078", "operator": "United States Postal Service", "operator:short": "USPS", "operator:type": "public", "operator:wikidata": "Q668687", "ref": "3520300034"}, "type": "Feature"}
{"geometry": {"coordinates": [-86.8062047, 33.515489], "type": "Point"}, "id": "jF-Pd_BUMeO8GX_F0fvkMXntUSA=", "properties": {"@source_uri": "https://tools.usps.com/UspsToolsRestServices/rest/POLocator/findLocations", "@spider": "usps_collection_boxes", "addr:city": "BIRMINGHAM", "addr:country": "US", "addr:postcode": "35203", "addr:state": "AL", "addr:street_address": "2000 2ND AVE N", "amenity": "post_box", "collection_times": "Mo-Fr 11:00", "nsi_id": "unitedstatespostalservice-a77078", "operator": "United States Postal Service", "operator:short": "USPS", "operator:type": "public", "operator:wikidata": "Q668687", "ref": "3520300041"}, "type": "Feature"}
{"geometry": {"coordinates": [-86.8112339763, 33.5218749957], "type": "Point"}, "id": "4JsIzUb3osdzVx6hIh8HW2a4-FY=", "properties": {"@source_uri": "https://tools.usps.com/UspsToolsRestServices/rest/POLocator/findLocations", "@spider": "usps_collection_boxes", "addr:city": "BIRMINGHAM", "addr:country": "US", "addr:postcode": "35203", "addr:state": "AL", "addr:street_address": "1930 REVEREND ABRAHAM WOODS JR BLVD", "amenity": "post_box", "collection_times": "Mo-Fr 10:00", "nsi_id": "unitedstatespostalservice-a77078", "operator": "United States Postal Service", "operator:short": "USPS", "operator:type": "public", "operator:wikidata": "Q668687", "ref": "3520300045"}, "type": "Feature"}
{"geometry": {"coordinates": [-86.8097849967, 33.5193030087], "type": "Point"}, "id": "V6ITnT7k3B2TERdlnNUoIfXbC9Q=", "properties": {"@source_uri": "https://tools.usps.com/UspsToolsRestServices/rest/POLocator/findLocations", "@spider": "usps_collection_boxes", "addr:city": "BIRMINGHAM", "addr:country": "US", "addr:postcode": "35203", "addr:state": "AL", "addr:street_address": "2001 PARK PL", "amenity": "post_box", "collection_times": "Mo-Fr 10:00", "nsi_id": "unitedstatespostalservice-a77078", "operator": "United States Postal Service", "operator:short": "USPS", "operator:type": "public", "operator:wikidata": "Q668687", "ref": "3520300046"}, "type": "Feature"}
{"geometry": {"coordinates": [-86.8043499, 33.51438], "type": "Point"}, "id": "FZoIGz3d1ZPSnT340jO2WPR-MMg=", "properties": {"@source_uri": "https://tools.usps.com/UspsToolsRestServices/rest/POLocator/findLocations", "@spider": "usps_collection_boxes", "addr:city": "BIRMINGHAM", "addr:country": "US", "addr:postcode": "35203", "addr:state": "AL", "addr:street_address": "2021 MORRIS AVE", "amenity": "post_box", "collection_times": "Mo-Fr 10:00", "nsi_id": "unitedstatespostalservice-a77078", "operator": "United States Postal Service", "operator:short": "USPS", "operator:type": "public", "operator:wikidata": "Q668687", "ref": "3520300049"}, "type": "Feature"}
{"geometry": {"coordinates": [-86.8060394, 33.517701], "type": "Point"}, "id": "xaqIGn-_Ri06nZxb32o6PRdAHqM=", "properties": {"@source_uri": "https://tools.usps.com/UspsToolsRestServices/rest/POLocator/findLocations", "@spider": "usps_collection_boxes", "addr:city": "BIRMINGHAM", "addr:country": "US", "addr:postcode": "35203", "addr:state": "AL", "addr:street_address": "324 21ST ST N", "amenity": "post_box", "collection_times": "Mo-Fr 12:00", "nsi_id": "unitedstatespostalservice-a77078", "operator": "United States Postal Service", "operator:short": "USPS", "operator:type": "public", "operator:wikidata": "Q668687", "ref": "3520300059"}, "type": "Feature"}
{"geometry": {"coordinates": [-86.805316, 33.516597], "type": "Point"}, "id": "xOfwjD93BNSeicMfhVFN06esLmg=", "properties": {"@source_uri": "https://tools.usps.com/UspsToolsRestServices/rest/POLocator/findLocations", "@spider": "usps_collection_boxes", "addr:city": "BIRMINGHAM", "addr:country": "US", "addr:postcode": "35203", "addr:state": "AL", "addr:street_address": "215 21ST ST N", "amenity": "post_box", "collection_times": "Mo-Fr 12:00", "nsi_id": "unitedstatespostalservice-a77078", "operator": "United States Postal Service", "operator:short": "USPS", "operator:type": "public", "operator:wikidata": "Q668687", "ref": "3520300064"}, "type": "Feature"}
{"geometry": {"coordinates": [-86.8068513161, 33.5139945435], "type": "Point"}, "id": "7DXfz3KE19mAP1leUw60Sz2QHD0=", "properties": {"@source_uri": "https://tools.usps.com/UspsToolsRestServices/rest/POLocator/findLocations", "@spider": "usps_collection_boxes", "addr:city": "BIRMINGHAM", "addr:country": "US", "addr:postcode": "35203", "addr:state": "AL", "addr:street_address": "2201 1ST AVE N", "amenity": "post_box", "collection_times": "Mo-Fr 13:00", "note": "ON 12/24 AND 12/31, THIS BOX MAY BE COLLECTED AS EARLY AS 12 NOON.", "nsi_id": "unitedstatespostalservice-a77078", "operator": "United States Postal Service", "operator:short": "USPS", "operator:type": "public", "operator:wikidata": "Q668687", "ref": "3520300071"}, "type": "Feature"}
{"geometry": {"coordinates": [-86.8033721, 33.516714], "type": "Point"}, "id": "9jq-DvmJDgp925aS1u5tSSAds1s=", "properties": {"@source_uri": "https://tools.usps.com/UspsToolsRestServices/rest/POLocator/findLocations", "@spider": "usps_collection_boxes", "addr:city": "BIRMINGHAM", "addr:country": "US", "addr:postcode": "35203", "addr:state": "AL", "addr:street_address": "2201 2ND AVE N", "amenity": "post_box", "collection_times": "Mo-Fr 10:00", "nsi_id": "unitedstatespostalservice-a77078", "operator": "United States Postal Service", "operator:short": "USPS", "operator:type": "public", "operator:wikidata": "Q668687", "ref": "3520300072"}, "type": "Feature"}
{"geometry": {"coordinates": [-86.8014046, 33.516472], "type": "Point"}, "id": "Kd5aQLsOIuQtcZ3r4ns93BxTMwA=", "properties": {"@source_uri": "https://tools.usps.com/UspsToolsRestServices/rest/POLocator/findLocations", "@spider": "usps_collection_boxes", "addr:city": "BIRMINGHAM", "addr:country": "US", "addr:postcode": "35203", "addr:state": "AL", "addr:street_address": "2301 1ST AVE N", "amenity": "post_box", "collection_times": "Mo-Fr 13:15", "note": "ON 12/24 AND 12/31, THIS BOX MAY BE COLLECTED AS EARLY AS 12 NOON.", "nsi_id": "unitedstatespostalservice-a77078", "operator": "United States Postal Service", "operator:short": "USPS", "operator:type": "public", "operator:wikidata": "Q668687", "ref": "3520300076"}, "type": "Feature"}
{"geometry": {"coordinates": [-86.8011026, 33.517952], "type": "Point"}, "id": "kDxJ1J6WGvyNtkM1qvef_n9Ph4s=", "properties": {"@source_uri": "https://tools.usps.com/UspsToolsRestServices/rest/POLocator/findLocations", "@spider": "usps_collection_boxes", "addr:city": "BIRMINGHAM", "addr:country": "US", "addr:postcode": "35203", "addr:state": "AL", "addr:street_address": "2330 2ND AVE N", "amenity": "post_box", "collection_times": "Mo-Fr 10:00", "nsi_id": "unitedstatespostalservice-a77078", "operator": "United States Postal Service", "operator:short": "USPS", "operator:type": "public", "operator:wikidata": "Q668687", "ref": "3520300078"}, "type": "Feature"}
{"geometry": {"coordinates": [-86.7955779, 33.528742], "type": "Point"}, "id": "YJU9jlR7iimLdojsDqscJSvGoHk=", "properties": {"@source_uri": "https://tools.usps.com/UspsToolsRestServices/rest/POLocator/findLocations", "@spider": "usps_collection_boxes", "addr:city": "BIRMINGHAM", "addr:country": "US", "addr:postcode": "35203", "addr:state": "AL", "addr:street_address": "3016 REVEREND ABRAHAM WOODS JR BLVD", "amenity": "post_box", "collection_times": "Mo-Fr 13:30", "note": "ON 12/24 AND 12/31, THIS BOX MAY BE COLLECTED AS EARLY AS 12 NOON.", "nsi_id": "unitedstatespostalservice-a77078", "operator": "United States Postal Service", "operator:short": "USPS", "operator:type": "public", "operator:wikidata": "Q668687", "ref": "3520300079"}, "type": "Feature"}
{"geometry": {"coordinates": [-86.8091079904, 33.5254160145], "type": "Point"}, "id": "ZNIdfVcu5drqTes31Yqt1NWK_Y4=", "properties": {"@source_uri": "https://tools.usps.com/UspsToolsRestServices/rest/POLocator/findLocations", "@spider": "usps_collection_boxes", "addr:city": "BIRMINGHAM", "addr:country": "US", "addr:postcode": "35203", "addr:state": "AL", "addr:street_address": "2201 RICHARD ARRINGTON JR BLVD N", "amenity": "post_box", "collection_times": "Mo-Fr 12:00", "nsi_id": "unitedstatespostalservice-a77078", "operator": "United States Postal Service", "operator:short": "USPS", "operator:type": "public", "operator:wikidata": "Q668687", "ref": "3520300091"}, "type": "Feature"}
{"geometry": {"coordinates": [-86.8039674, 33.51762], "type": "Point"}, "id": "ZOabA9mbRdELX7Hq9G0AD3ArZ6M=", "properties": {"@source_uri": "https://tools.usps.com/UspsToolsRestServices/rest/POLocator/findLocations", "@spider": "usps_collection_boxes", "addr:city": "BIRMINGHAM", "addr:country": "US", "addr:postcode": "35203", "addr:state": "AL", "addr:street_address": "2201 3RD AVE N", "amenity": "post_box", "collection_times": "Mo-Fr 12:00", "nsi_id": "unitedstatespostalservice-a77078", "operator": "United States Postal Service", "operator:short": "USPS", "operator:type": "public", "operator:wikidata": "Q668687", "ref": "3520300093"}, "type": "Feature"}
{"geometry": {"coordinates": [-86.8124780184, 33.5181240102], "type": "Point"}, "id": "9PoZL-I3frVwP6JN2iYLccjMjJk=", "properties": {"@source_uri": "https://tools.usps.com/UspsToolsRestServices/rest/POLocator/findLocations", "@spider": "usps_collection_boxes", "addr:city": "BIRMINGHAM", "addr:country": "US", "addr:postcode": "35203", "addr:state": "AL", "addr:street_address": "600 18TH ST N", "amenity": "post_box", "collection_times": "Mo-Fr 10:30", "nsi_id": "unitedstatespostalservice-a77078", "operator": "United States Postal Service", "operator:short": "USPS", "operator:type": "public", "operator:wikidata": "Q668687", "ref": "3520300095"}, "type": "Feature"}
{"geometry": {"coordinates": [-86.8115039, 33.515794], "type": "Point"}, "id": "xp20FFrMhOAi5RsA8xyxi6HOAGA=", "properties": {"@source_uri": "https://tools.usps.com/UspsToolsRestServices/rest/POLocator/findLocations", "@spider": "usps_collection_boxes", "addr:city": "BIRMINGHAM", "addr:country": "US", "addr:postcode": "35203", "addr:state": "AL", "addr:street_address": "1729 5TH AVE N", "amenity": "post_box", "collection_times": "Mo-Fr 10:00", "nsi_id": "unitedstatespostalservice-a77078", "operator": "United States Postal Service", "operator:short": "USPS", "operator:type": "public", "operator:wikidata": "Q668687", "ref": "3520300112"}, "type": "Feature"}
{"geometry": {"coordinates": [-86.8020349, 33.519905], "type": "Point"}, "id": "iSh3Pahn8WBj53AXtp0g3gLFtng=", "properties": {"@source_uri": "https://tools.usps.com/UspsToolsRestServices/rest/POLocator/findLocations", "@spider": "usps_collection_boxes", "addr:city": "BIRMINGHAM", "addr:country": "US", "addr:postcode": "35203", "addr:state": "AL", "addr:street_address": "351 24TH ST N", "amenity": "post_box", "collection_times": "Mo-Sa 20:00", "indoor": "yes", "note": "ON 12/24 AND 12/31, THIS BOX MAY BE COLLECTED AS EARLY AS 12 NOON.", "nsi_id": "unitedstatespostalservice-a77078", "operator": "United States Postal Service", "operator:short": "USPS", "operator:type": "public", "operator:wikidata": "Q668687", "ref": "3520300115"}, "type": "Feature"}
{"geometry": {"coordinates": [-86.8016549, 33.520032], "type": "Point"}, "id": "g0bp_segXLo56MKVoN6xywtLWZ8=", "properties": {"@source_uri": "https://tools.usps.com/UspsToolsRestServices/rest/POLocator/findLocations", "@spider": "usps_collection_boxes", "addr:city": "BIRMINGHAM", "addr:country": "US", "addr:postcode": "35203", "addr:state": "AL", "addr:street_address": "351 24TH ST N", "amenity": "post_box", "collection_times": "Mo-Sa 20:00", "indoor": "yes", "note": "ON 12/24 AND 12/31, THIS BOX MAY BE COLLECTED AS EARLY AS 12 NOON.", "nsi_id": "unitedstatespostalservice-a77078", "operator": "United States Postal Service", "operator:short": "USPS", "operator:type": "public", "operator:wikidata": "Q668687", "ref": "3520300116"}, "type": "Feature"}
{"geometry": {"coordinates": [-86.8074489603, 33.5131949901], "type": "Point"}, "id": "RgeBV-9MvjAbF6aeT2ZItCOXTDM=", "properties": {"@source_uri": "https://tools.usps.com/UspsToolsRestServices/rest/POLocator/findLocations", "@spider": "usps_collection_boxes", "addr:city": "BIRMINGHAM", "addr:country": "US", "addr:postcode": "35203", "addr:state": "AL", "addr:street_address": "1827 1ST AVE N", "amenity": "post_box", "collection_times": "Mo-Fr 10:00", "nsi_id": "unitedstatespostalservice-a77078", "operator": "United States Postal Service", "operator:short": "USPS", "operator:type": "public", "operator:wikidata": "Q668687", "ref": "3520300134"}, "type": "Feature"}
{"geometry": {"coordinates": [-86.8015077, 33.520036], "type": "Point"}, "id": "AdyHQiFcmqBEm_6-6qemu9AXecI=", "properties": {"@source_uri": "https://tools.usps.com/UspsToolsRestServices/rest/POLocator/findLocations", "@spider": "usps_collection_boxes", "addr:city": "BIRMINGHAM", "addr:country": "US", "addr:postcode": "35203", "addr:state": "AL", "addr:street_address": "351 24TH ST N", "amenity": "post_box", "collection_times": "Mo-Sa 20:00", "name": "USPS COLLECTION BOX - APC", "note": "ON 12/24 AND 12/31, THIS BOX MAY BE COLLECTED AS EARLY AS 12 NOON.", "nsi_id": "unitedstatespostalservice-a77078", "operator": "United States Postal Service", "operator:short": "USPS", "operator:type": "public", "operator:wikidata": "Q668687", "ref": "3520300135"}, "type": "Feature"}
{"geometry": {"coordinates": [-86.8085909946, 33.5126269904], "type": "Point"}, "id": "WhxGfYP2CRx035nzAzkVtu93neM=", "properties": {"@source_uri": "https://tools.usps.com/UspsToolsRestServices/rest/POLocator/findLocations", "@spider": "usps_collection_boxes", "addr:city": "BIRMINGHAM", "addr:country": "US", "addr:postcode": "35203", "addr:state": "AL", "addr:street_address": "1731 1ST AVE N", "amenity": "post_box", "collection_times": "Mo-Fr 10:00", "nsi_id": "unitedstatespostalservice-a77078", "operator": "United States Postal Service", "operator:short": "USPS", "operator:type": "public", "operator:wikidata": "Q668687", "ref": "3520300139"}, "type": "Feature"}
{"geometry": {"coordinates": [-86.8123439917, 33.5119200188], "type": "Point"}, "id": "7zNW73KYepsF0XLTufzlWP6F3uI=", "properties": {"@source_uri": "https://tools.usps.com/UspsToolsRestServices/rest/POLocator/findLocations", "@spider": "usps_collection_boxes", "addr:city": "BIRMINGHAM", "addr:country": "US", "addr:postcode": "35203", "addr:state": "AL", "addr:street_address": "1500 1ST AVE N", "amenity": "post_box", "collection_times": "Mo-Fr 10:00", "nsi_id": "unitedstatespostalservice-a77078", "operator": "United States Postal Service", "operator:short": "USPS", "operator:type": "public", "operator:wikidata": "Q668687", "ref": "3520300142"}, "type": "Feature"}
{"geometry": {"coordinates": [-86.8196228, 33.518579], "type": "Point"}, "id": "_mtJJMY35nuP4h2KguUGVJpjl8o=", "properties": {"@source_uri": "https://tools.usps.com/UspsToolsRestServices/rest/POLocator/findLocations", "@spider": "usps_collection_boxes", "addr:city": "BIRMINGHAM", "addr:country": "US", "addr:postcode": "35203", "addr:state": "AL", "addr:street_address": "1200 REVEREND ABRAHAM WOODS JR BLVD", "amenity": "post_box", "collection_times": "Mo-Fr 10:00", "nsi_id": "unitedstatespostalservice-a77078", "operator": "United States Postal Service", "operator:short": "USPS", "operator:type": "public", "operator:wikidata": "Q668687", "ref": "3520300143"}, "type": "Feature"}
{"geometry": {"coordinates": [-86.8018073746, 33.5194932751], "type": "Point"}, "id": "6UVupjJ0eDswnJqSiJi8fLlvGUI=", "properties": {"@source_uri": "https://tools.usps.com/UspsToolsRestServices/rest/POLocator/findLocations", "@spider": "usps_collection_boxes", "addr:city": "BIRMINGHAM", "addr:country": "US", "addr:postcode": "35203", "addr:state": "AL", "addr:street_address": "351 24TH ST N", "amenity": "post_box", "collection_times": "Mo-Sa 17:30", "note": "ON 12/24 AND 12/31, THIS BOX MAY BE COLLECTED AS EARLY AS 12 NOON.", "nsi_id": "unitedstatespostalservice-a77078", "operator": "United States Postal Service", "operator:short": "USPS", "operator:type": "public", "operator:wikidata": "Q668687", "ref": "3520300146"}, "type": "Feature"}
{"geometry": {"coordinates": [-86.801807375, 33.519493275], "type": "Point"}, "id": "CQvc7rwdTpfUqVAGl26q4EuvbvU=", "properties": {"@source_uri": "https://tools.usps.com/UspsToolsRestServices/rest/POLocator/findLocations", "@spider": "usps_collection_boxes", "addr:city": "BIRMINGHAM", "addr:country": "US", "addr:postcode": "35203", "addr:state": "AL", "addr:street_address": "351 24TH ST N", "amenity": "post_box", "collection_times": "Mo-Fr 20:00", "indoor": "yes", "note": "ON 12/24 AND 12/31, THIS BOX MAY BE COLLECTED AS EARLY AS 12 NOON.", "nsi_id": "unitedstatespostalservice-a77078", "operator": "United States Postal Service", "operator:short": "USPS", "operator:type": "public", "operator:wikidata": "Q668687", "ref": "3520300147"}, "type": "Feature"}
{"geometry": {"coordinates": [-86.8335964, 33.514061], "type": "Point"}, "id": "iuI-V-gC-oOQvHlkiUfBz_Ut2nE=", "properties": {"@source_uri": "https://tools.usps.com/UspsToolsRestServices/rest/POLocator/findLocations", "@spider": "usps_collection_boxes", "addr:city": "BIRMINGHAM", "addr:country": "US", "addr:postcode": "35204", "addr:state": "AL", "addr:street_address": "150 REVEREND ABRAHAM WOODS JR BLVD", "amenity": "post_box", "collection_times": "Mo-Fr 10:00", "nsi_id": "unitedstatespostalservice-a77078", "operator": "United States Postal Service", "operator:short": "USPS", "operator:type": "public", "operator:wikidata": "Q668687", "ref": "3520400001"}, "type": "Feature"}
{"geometry": {"coordinates": [-86.8332039, 33.516623], "type": "Point"}, "id": "4fG9bawgykhRiEezis9M5yysbIQ=", "properties": {"@source_uri": "https://tools.usps.com/UspsToolsRestServices/rest/POLocator/findLocations", "@spider": "usps_collection_boxes", "addr:city": "BIRMINGHAM", "addr:country": "US", "addr:postcode": "35204", "addr:state": "AL", "addr:street_address": "171 9TH CT N", "amenity": "post_box", "collection_times": "Mo-Fr 10:30", "nsi_id": "unitedstatespostalservice-a77078", "operator": "United States Postal Service", "operator:short": "USPS", "operator:type": "public", "operator:wikidata": "Q668687", "ref": "3520400004"}, "type": "Feature"}
{"geometry": {"coordinates": [-86.8407399, 33.535989], "type": "Point"}, "id": "ZXug3wkMwSzg1ddBmdj0vRnF0xc=", "properties": {"@source_uri": "https://tools.usps.com/UspsToolsRestServices/rest/POLocator/findLocations", "@spider": "usps_collection_boxes", "addr:city": "BIRMINGHAM", "addr:country": "US", "addr:postcode": "35204", "addr:state": "AL", "addr:street_address": "232 FINLEY AVE W", "amenity": "post_box", "collection_times": "Mo-Fr 13:00", "note": "ON 12/24 AND 12/31, THIS BOX MAY BE COLLECTED AS EARLY AS 12 NOON.", "nsi_id": "unitedstatespostalservice-a77078", "operator": "United States Postal Service", "operator:short": "USPS", "operator:type": "public", "operator:wikidata": "Q668687", "ref": "3520400006"}, "type": "Feature"}
{"geometry": {"coordinates": [-86.8316235, 33.511188], "type": "Point"}, "id": "BCHDRGDTmVo-JtW6yuMTnKeHW28=", "properties": {"@source_uri": "https://tools.usps.com/UspsToolsRestServices/rest/POLocator/findLocations", "@spider": "usps_collection_boxes", "addr:city": "BIRMINGHAM", "addr:country": "US", "addr:postcode": "35204", "addr:state": "AL", "addr:street_address": "237 GRAYMONT AVE N", "amenity": "post_box", "collection_times": "Mo-Fr 11:45", "nsi_id": "unitedstatespostalservice-a77078", "operator": "United States Postal Service", "operator:short": "USPS", "operator:type": "public", "operator:wikidata": "Q668687", "ref": "3520400007"}, "type": "Feature"}
{"geometry": {"coordinates": [-86.8560914, 33.531162], "type": "Point"}, "id": "e9WqGMrzhzSEVcs5sF2jsotY7x4=", "properties": {"@source_uri": "https://tools.usps.com/UspsToolsRestServices/rest/POLocator/findLocations", "@spider": "usps_collection_boxes", "addr:city": "BIRMINGHAM", "addr:country": "US", "addr:postcode": "35204", "addr:state": "AL", "addr:street_address": "1 BANKHEAD HWY W", "amenity": "post_box", "collection_times": "Mo-Fr 14:30", "note": "ON 12/24 AND 12/31, THIS BOX MAY BE COLLECTED AS EARLY AS 12 NOON.", "nsi_id": "unitedstatespostalservice-a77078", "operator": "United States Postal Service", "operator:short": "USPS", "operator:type": "public", "operator:wikidata": "Q668687", "ref": "3520400011"}, "type": "Feature"}
{"geometry": {"coordinates": [-86.835812307, 33.5222535], "type": "Point"}, "id": "kTQ0h3aRZSX1Inw7AIh40q7QfzM=", "properties": {"@source_uri": "https://tools.usps.com/UspsToolsRestServices/rest/POLocator/findLocations", "@spider": "usps_collection_boxes", "addr:city": "BIRMINGHAM", "addr:country": "US", "addr:postcode": "35204", "addr:state": "AL", "addr:street_address": "2 11TH CT N", "amenity": "post_box", "collection_times": "Mo-Fr 14:00", "note": "ON 12/24 AND 12/31, THIS BOX MAY BE COLLECTED AS EARLY AS 12 NOON.", "nsi_id": "unitedstatespostalservice-a77078", "operator": "United States Postal Service", "operator:short": "USPS", "operator:type": "public", "operator:wikidata": "Q668687", "ref": "3520400014"}, "type": "Feature"}
{"geometry": {"coordinates": [-86.8513277, 33.529525], "type": "Point"}, "id": "d7ou6zM6GGaGinLWee0kGUmKjAg=", "properties": {"@source_uri": "https://tools.usps.com/UspsToolsRestServices/rest/POLocator/findLocations", "@spider": "usps_collection_boxes", "addr:city": "BIRMINGHAM", "addr:country": "US", "addr:postcode": "35204", "addr:state": "AL", "addr:street_address": "901 BANKHEAD HWY W", "amenity": "post_box", "collection_times": "Mo-Fr 15:00", "note": "ON 12/24 AND 12/31, THIS BOX MAY BE COLLECTED AS EARLY AS 12 NOON.", "nsi_id": "unitedstatespostalservice-a77078", "operator": "United States Postal Service", "operator:short": "USPS", "operator:type": "public", "operator:wikidata": "Q668687", "ref": "3520400016"}, "type": "Feature"}
{"geometry": {"coordinates": [-86.7978809, 33.499793], "type": "Point"}, "id": "aMBb3KpA33z52kt3rrrqxIlejPQ=", "properties": {"@source_uri": "https://tools.usps.com/UspsToolsRestServices/rest/POLocator/findLocations", "@spider": "usps_collection_boxes", "addr:city": "BIRMINGHAM", "addr:country": "US", "addr:postcode": "35205", "addr:state": "AL", "addr:street_address": "1821 11TH AVE S", "amenity": "post_box", "collection_times": "Mo-Fr 17:00; Sa 11:30", "note": "ON 12/24 AND 12/31, THIS BOX MAY BE COLLECTED AS EARLY AS 12 NOON.", "nsi_id": "unitedstatespostalservice-a77078", "operator": "United States Postal Service", "operator:short": "USPS", "operator:type": "public", "operator:wikidata": "Q668687", "ref": "3520500002"}, "type": "Feature"}
{"geometry": {"coordinates": [-86.7968156, 33.50135], "type": "Point"}, "id": "6rUiNCxw4CJRIIUkHJr1SjxL1Jg=", "properties": {"@source_uri": "https://tools.usps.com/UspsToolsRestServices/rest/POLocator/findLocations", "@spider": "usps_collection_boxes", "addr:city": "BIRMINGHAM", "addr:country": "US", "addr:postcode": "35205", "addr:state": "AL", "addr:street_address": "1015 20TH ST S", "amenity": "post_box", "collection_times": "Mo-Fr 10:00", "nsi_id": "unitedstatespostalservice-a77078", "operator": "United States Postal Service", "operator:short": "USPS", "operator:type": "public", "operator:wikidata": "Q668687", "ref": "3520500006"}, "type": "Feature"}
{"geometry": {"coordinates": [-86.8075066, 33.495404], "type": "Point"}, "id": "Mj5IP3O9PkViPypS2zhiydAHPeQ=", "properties": {"@source_uri": "https://tools.usps.com/UspsToolsRestServices/rest/POLocator/findLocations", "@spider": "usps_collection_boxes", "addr:city": "BIRMINGHAM", "addr:country": "US", "addr:postcode": "35205", "addr:state": "AL", "addr:street_address": "1180 11TH AVE S", "amenity": "post_box", "collection_times": "Mo-Fr 10:00", "nsi_id": "unitedstatespostalservice-a77078", "operator": "United States Postal Service", "operator:short": "USPS", "operator:type": "public", "operator:wikidata": "Q668687", "ref": "3520500008"}, "type": "Feature"}
{"geometry": {"coordinates": [-86.8069784, 33.491062], "type": "Point"}, "id": "_B3-kZLm95jSk7svmYuSErEaWrY=", "properties": {"@source_uri": "https://tools.usps.com/UspsToolsRestServices/rest/POLocator/findLocations", "@spider": "usps_collection_boxes", "addr:city": "BIRMINGHAM", "addr:country": "US", "addr:postcode": "35205", "addr:state": "AL", "addr:street_address": "1200 16TH AVE S", "amenity": "post_box", "collection_times": "Mo-Fr 10:00", "nsi_id": "unitedstatespostalservice-a77078", "operator": "United States Postal Service", "operator:short": "USPS", "operator:type": "public", "operator:wikidata": "Q668687", "ref": "3520500009"}, "type": "Feature"}
{"geometry": {"coordinates": [-86.8056743, 33.493721], "type": "Point"}, "id": "d-6xINAvcJ454BlzwHVI_57fu6c=", "properties": {"@source_uri": "https://tools.usps.com/UspsToolsRestServices/rest/POLocator/findLocations", "@spider": "usps_collection_boxes", "addr:city": "BIRMINGHAM", "addr:country": "US", "addr:postcode": "35205", "addr:state": "AL", "addr:street_address": "1222 14TH AVE S", "amenity": "post_box", "collection_times": "Mo-Fr 10:00", "nsi_id": "unitedstatespostalservice-a77078", "operator": "United States Postal Service", "operator:short": "USPS", "operator:type": "public", "operator:wikidata": "Q668687", "ref": "3520500010"}, "type": "Feature"}
{"geometry": {"coordinates": [-86.8033486, 33.492446], "type": "Point"}, "id": "kQ3iNteuFTsbVoTKdL0nMvZBw4o=", "properties": {"@source_uri": "https://tools.usps.com/UspsToolsRestServices/rest/POLocator/findLocations", "@spider": "usps_collection_boxes", "addr:city": "BIRMINGHAM", "addr:country": "US", "addr:postcode": "35205", "addr:state": "AL", "addr:street_address": "1340 15TH AVE S", "amenity": "post_box", "collection_times": "Mo-Fr 13:30", "note": "ON 12/24 AND 12/31, THIS BOX MAY BE COLLECTED AS EARLY AS 12 NOON.", "nsi_id": "unitedstatespostalservice-a77078", "operator": "United States Postal Service", "operator:short": "USPS", "operator:type": "public", "operator:wikidata": "Q668687", "ref": "3520500011"}, "type": "Feature"}
{"geometry": {"coordinates": [-86.8026194, 33.49799], "type": "Point"}, "id": "hZJ3RCptIiTCo80c41X2DqomnRU=", "properties": {"@source_uri": "https://tools.usps.com/UspsToolsRestServices/rest/POLocator/findLocations", "@spider": "usps_collection_boxes", "addr:city": "BIRMINGHAM", "addr:country": "US", "addr:postcode": "35205", "addr:state": "AL", "addr:street_address": "1530 11TH AVE S", "amenity": "post_box", "collection_times": "Mo-Fr 10:00", "nsi_id": "unitedstatespostalservice-a77078", "operator": "United States Postal Service", "operator:short": "USPS", "operator:type": "public", "operator:wikidata": "Q668687", "ref": "3520500013"}, "type": "Feature"}
{"geometry": {"coordinates": [-86.7992795, 33.499321], "type": "Point"}, "id": "zdGm-dv2xkQRuNCQsln2Y6grz3s=", "properties": {"@source_uri": "https://tools.usps.com/UspsToolsRestServices/rest/POLocator/findLocations", "@spider": "usps_collection_boxes", "addr:city": "BIRMINGHAM", "addr:country": "US", "addr:postcode": "35205", "addr:state": "AL", "addr:street_address": "1032 18TH ST S", "amenity": "post_box", "collection_times": "Mo-Fr 10:00", "nsi_id": "unitedstatespostalservice-a77078", "operator": "United States Postal Service", "operator:short": "USPS", "operator:type": "public", "operator:wikidata": "Q668687", "ref": "3520500018"}, "type": "Feature"}
{"geometry": {"coordinates": [-86.7957249, 33.496869], "type": "Point"}, "id": "lK_mdm2nAfQ4T_P6bWKSIEj4BLY=", "properties": {"@source_uri": "https://tools.usps.com/UspsToolsRestServices/rest/POLocator/findLocations", "@spider": "usps_collection_boxes", "addr:city": "BIRMINGHAM", "addr:country": "US", "addr:postcode": "35205", "addr:state": "AL", "addr:street_address": "1320 19TH ST S", "amenity": "post_box", "collection_times": "Mo-Fr 09:00", "nsi_id": "unitedstatespostalservice-a77078", "operator": "United States Postal Service", "operator:short": "USPS", "operator:type": "public", "operator:wikidata": "Q668687", "ref": "3520500019"}, "type": "Feature"}
{"geometry": {"coordinates": [-86.7996449, 33.502872], "type": "Point"}, "id": "nk8dPz_gFo6SBN1lOLoP6pijsXw=", "properties": {"@source_uri": "https://tools.usps.com/UspsToolsRestServices/rest/POLocator/findLocations", "@spider": "usps_collection_boxes", "addr:city": "BIRMINGHAM", "addr:country": "US", "addr:postcode": "35205", "addr:state": "AL", "addr:street_address": "900 19TH ST S", "amenity": "post_box", "collection_times": "Mo-Fr 10:00", "nsi_id": "unitedstatespostalservice-a77078", "operator": "United States Postal Service", "operator:short": "USPS", "operator:type": "public", "operator:wikidata": "Q668687", "ref": "3520500020"}, "type": "Feature"}
{"geometry": {"coordinates": [-86.7958099, 33.499354], "type": "Point"}, "id": "9vdcdJzJoa7xor0KkSCu-buzl4U=", "properties": {"@source_uri": "https://tools.usps.com/UspsToolsRestServices/rest/POLocator/findLocations", "@spider": "usps_collection_boxes", "addr:city": "BIRMINGHAM", "addr:country": "US", "addr:postcode": "35205", "addr:state": "AL", "addr:street_address": "1200 20TH ST S", "amenity": "post_box", "collection_times": "Mo-Fr 10:00", "nsi_id": "unitedstatespostalservice-a77078", "operator": "United States Postal Service", "operator:short": "USPS", "operator:type": "public", "operator:wikidata": "Q668687", "ref": "3520500023"}, "type": "Feature"}
{"geometry": {"coordinates": [-86.7941936, 33.499863], "type": "Point"}, "id": "lsouT4IhKW3Gk3AfMtaypIbCVGo=", "properties": {"@source_uri": "https://tools.usps.com/UspsToolsRestServices/rest/POLocator/findLocations", "@spider": "usps_collection_boxes", "addr:city": "BIRMINGHAM", "addr:country": "US", "addr:postcode": "35205", "addr:state": "AL", "addr:street_address": "2040 HIGHLAND AVE S", "amenity": "post_box", "collection_times": "Mo-Fr 10:00", "nsi_id": "unitedstatespostalservice-a77078", "operator": "United States Postal Service", "operator:short": "USPS", "operator:type": "public", "operator:wikidata": "Q668687", "ref": "3520500029"}, "type": "Feature"}
{"geometry": {"coordinates": [-86.7925761, 33.49721], "type": "Point"}, "id": "dXeW9oHYeZ_YqXj1haTay1m4YSc=", "properties": {"@source_uri": "https://tools.usps.com/UspsToolsRestServices/rest/POLocator/findLocations", "@spider": "usps_collection_boxes", "addr:city": "BIRMINGHAM", "addr:country": "US", "addr:postcode": "35205", "addr:state": "AL", "addr:street_address": "2100 16TH AVE S", "amenity": "post_box", "collection_times": "Mo-Fr 11:00", "nsi_id": "unitedstatespostalservice-a77078", "operator": "United States Postal Service", "operator:short": "USPS", "operator:type": "public", "operator:wikidata": "Q668687", "ref": "3520500030"}, "type": "Feature"}
{"geometry": {"coordinates": [-86.793723, 33.499758], "type": "Point"}, "id": "p5h8_mrr5-TW-LFjbbFLHhUdKl0=", "properties": {"@source_uri": "https://tools.usps.com/UspsToolsRestServices/rest/POLocator/findLocations", "@spider": "usps_collection_boxes", "addr:city": "BIRMINGHAM", "addr:country": "US", "addr:postcode": "35205", "addr:state": "AL", "addr:street_address": "2101 HIGHLAND AVE S", "amenity": "post_box", "collection_times": "Mo-Fr 12:00", "nsi_id": "unitedstatespostalservice-a77078", "operator": "United States Postal Service", "operator:short": "USPS", "operator:type": "public", "operator:wikidata": "Q668687", "ref": "3520500033"}, "type": "Feature"}
{"geometry": {"coordinates": [-86.7943341, 33.503377], "type": "Point"}, "id": "vRYcnWilbUan4Wr43jT86Is9erc=", "properties": {"@source_uri": "https://tools.usps.com/UspsToolsRestServices/rest/POLocator/findLocations", "@spider": "usps_collection_boxes", "addr:city": "BIRMINGHAM", "addr:country": "US", "addr:postcode": "35205", "addr:state": "AL", "addr:street_address": "2117 MAGNOLIA AVE S", "amenity": "post_box", "collection_times": "Mo-Fr 12:00", "nsi_id": "unitedstatespostalservice-a77078", "operator": "United States Postal Service", "operator:short": "USPS", "operator:type": "public", "operator:wikidata": "Q668687", "ref": "3520500041"}, "type": "Feature"}
{"geometry": {"coordinates": [-86.7893389, 33.50284], "type": "Point"}, "id": "TvXQGKh9QVTrEgSSQuRYQMgQ4l4=", "properties": {"@source_uri": "https://tools.usps.com/UspsToolsRestServices/rest/POLocator/findLocations", "@spider": "usps_collection_boxes", "addr:city": "BIRMINGHAM", "addr:country": "US", "addr:postcode": "35205", "addr:state": "AL", "addr:street_address": "2253 HIGHLAND AVE S", "amenity": "post_box", "collection_times": "Mo-Fr 12:00", "nsi_id": "unitedstatespostalservice-a77078", "operator": "United States Postal Service", "operator:short": "USPS", "operator:type": "public", "operator:wikidata": "Q668687", "ref": "3520500043"}, "type": "Feature"}
{"geometry": {"coordinates": [-86.7851493, 33.503931], "type": "Point"}, "id": "X5Vnlb5Zss31a-QP7yjbcwXcpwo=", "properties": {"@source_uri": "https://tools.usps.com/UspsToolsRestServices/rest/POLocator/findLocations", "@spider": "usps_collection_boxes", "addr:city": "BIRMINGHAM", "addr:country": "US", "addr:postcode": "35205", "addr:state": "AL", "addr:street_address": "2625 HIGHLAND AVE S", "amenity": "post_box", "collection_times": "Mo-Fr 13:00", "note": "ON 12/24 AND 12/31, THIS BOX MAY BE COLLECTED AS EARLY AS 12 NOON.", "nsi_id": "unitedstatespostalservice-a77078", "operator": "United States Postal Service", "operator:short": "USPS", "operator:type": "public", "operator:wikidata": "Q668687", "ref": "3520500047"}, "type": "Feature"}
{"geometry": {"coordinates": [-86.7844999, 33.511218], "type": "Point"}, "id": "kn2526wpBWk3Geik23BRVmUuhYE=", "properties": {"@source_uri": "https://tools.usps.com/UspsToolsRestServices/rest/POLocator/findLocations", "@spider": "usps_collection_boxes", "addr:city": "BIRMINGHAM", "addr:country": "US", "addr:postcode": "35205", "addr:state": "AL", "addr:street_address": "2940 CLAIRMONT AVE S", "amenity": "post_box", "collection_times": "Mo-Fr 09:00", "nsi_id": "unitedstatespostalservice-a77078", "operator": "United States Postal Service", "operator:short": "USPS", "operator:type": "public", "operator:wikidata": "Q668687", "ref": "3520500052"}, "type": "Feature"}
{"geometry": {"coordinates": [-86.7782742, 33.508265], "type": "Point"}, "id": "RjrS1yljG9MLab7K3uOocSk3DmI=", "properties": {"@source_uri": "https://tools.usps.com/UspsToolsRestServices/rest/POLocator/findLocations", "@spider": "usps_collection_boxes", "addr:city": "BIRMINGHAM", "addr:country": "US", "addr:postcode": "35205", "addr:state": "AL", "addr:street_address": "3117 HIGHLAND AVE S", "amenity": "post_box", "collection_times": "Mo-Fr 10:00", "nsi_id": "unitedstatespostalservice-a77078", "operator": "United States Postal Service", "operator:short": "USPS", "operator:type": "public", "operator:wikidata": "Q668687", "ref": "3520500053"}, "type": "Feature"}
{"geometry": {"coordinates": [-86.8006491, 33.501228], "type": "Point"}, "id": "6380gnkPbM46jrpy7h-E2vntsTA=", "properties": {"@source_uri": "https://tools.usps.com/UspsToolsRestServices/rest/POLocator/findLocations", "@spider": "usps_collection_boxes", "addr:city": "BIRMINGHAM", "addr:country": "US", "addr:postcode": "35205", "addr:state": "AL", "addr:street_address": "924 18TH ST S", "amenity": "post_box", "collection_times": "Mo-Fr 12:00", "nsi_id": "unitedstatespostalservice-a77078", "operator": "United States Postal Service", "operator:short": "USPS", "operator:type": "public", "operator:wikidata": "Q668687", "ref": "3520500058"}, "type": "Feature"}
{"geometry": {"coordinates": [-86.8231047, 33.496424], "type": "Point"}, "id": "G0-o6FmTlMO1HWQeT824pPxoxi4=", "properties": {"@source_uri": "https://tools.usps.com/UspsToolsRestServices/rest/POLocator/findLocations", "@spider": "usps_collection_boxes", "addr:city": "BIRMINGHAM", "addr:country": "US", "addr:postcode": "35205", "addr:state": "AL", "addr:street_address": "400 BETA ST S", "amenity": "post_box", "collection_times": "Mo-Fr 10:00", "nsi_id": "unitedstatespostalservice-a77078", "operator": "United States Postal Service", "operator:short": "USPS", "operator:type": "public", "operator:wikidata": "Q668687", "ref": "3520500060"}, "type": "Feature"}
{"geometry": {"coordinates": [-86.8138249902, 33.4946240035], "type": "Point"}, "id": "6Z0lKo8AjZlcV00pG1xFqjMfdLk=", "properties": {"@source_uri": "https://tools.usps.com/UspsToolsRestServices/rest/POLocator/findLocations", "@spider": "usps_collection_boxes", "addr:city": "BIRMINGHAM", "addr:country": "US", "addr:postcode": "35205", "addr:state": "AL", "addr:street_address": "801 9TH CT S", "amenity": "post_box", "collection_times": "Mo-Fr 09:30", "nsi_id": "unitedstatespostalservice-a77078", "operator": "United States Postal Service", "operator:short": "USPS", "operator:type": "public", "operator:wikidata": "Q668687", "ref": "3520500061"}, "type": "Feature"}
{"geometry": {"coordinates": [-86.8220409, 33.495535], "type": "Point"}, "id": "mZC_6vWQnG6OZENOtMkM-Qh3Nqs=", "properties": {"@source_uri": "https://tools.usps.com/UspsToolsRestServices/rest/POLocator/findLocations", "@spider": "usps_collection_boxes", "addr:city": "BIRMINGHAM", "addr:country": "US", "addr:postcode": "35205", "addr:state": "AL", "addr:street_address": "425 6TH AVE S", "amenity": "post_box", "collection_times": "Mo-Fr 10:00", "nsi_id": "unitedstatespostalservice-a77078", "operator": "United States Postal Service", "operator:short": "USPS", "operator:type": "public", "operator:wikidata": "Q668687", "ref": "3520500065"}, "type": "Feature"}
{"geometry": {"coordinates": [-86.7900952, 33.500745], "type": "Point"}, "id": "8ZIzX_v6fIJAtC9mvjC8GwXvtf8=", "properties": {"@source_uri": "https://tools.usps.com/UspsToolsRestServices/rest/POLocator/findLocations", "@spider": "usps_collection_boxes", "addr:city": "BIRMINGHAM", "addr:country": "US", "addr:postcode": "35205", "addr:state": "AL", "addr:street_address": "2201 HIGHLAND AVE S", "amenity": "post_box", "collection_times": "Mo-Fr 12:00", "nsi_id": "unitedstatespostalservice-a77078", "operator": "United States Postal Service", "operator:short": "USPS", "operator:type": "public", "operator:wikidata": "Q668687", "ref": "3520500066"}, "type": "Feature"}
{"geometry": {"coordinates": [-86.7944799, 33.501585], "type": "Point"}, "id": "ewII8nxe5CNWdIM02WxGGAH1uBA=", "properties": {"@source_uri": "https://tools.usps.com/UspsToolsRestServices/rest/POLocator/findLocations", "@spider": "usps_collection_boxes", "addr:city": "BIRMINGHAM", "addr:country": "US", "addr:postcode": "35205", "addr:state": "AL", "addr:street_address": "2112 11TH AVE S", "amenity": "post_box", "collection_times": "Mo-Fr 13:00", "note": "ON 12/24 AND 12/31, THIS BOX MAY BE COLLECTED AS EARLY AS 12 NOON.", "nsi_id": "unitedstatespostalservice-a77078", "operator": "United States Postal Service", "operator:short": "USPS", "operator:type": "public", "operator:wikidata": "Q668687", "ref": "3520500069"}, "type": "Feature"}
{"geometry": {"coordinates": [-86.79813, 33.499715], "type": "Point"}, "id": "N5j165dXIlGQlhhahgq9ZZ2R1XA=", "properties": {"@source_uri": "https://tools.usps.com/UspsToolsRestServices/rest/POLocator/findLocations", "@spider": "usps_collection_boxes", "addr:city": "BIRMINGHAM", "addr:country": "US", "addr:postcode": "35205", "addr:state": "AL", "addr:street_address": "1821 11TH AVE S", "amenity": "post_box", "collection_times": "Mo-Fr 17:00; Sa 11:30", "indoor": "yes", "note": "ON 12/24 AND 12/31, THIS BOX MAY BE COLLECTED AS EARLY AS 12 NOON.", "nsi_id": "unitedstatespostalservice-a77078", "operator": "United States Postal Service", "operator:short": "USPS", "operator:type": "public", "operator:wikidata": "Q668687", "ref": "3520500073"}, "type": "Feature"}
{"geometry": {"coordinates": [-86.7983305, 33.50821], "type": "Point"}, "id": "NJIq_9wkzLWN6klI7AJr8B5Tjgg=", "properties": {"@source_uri": "https://tools.usps.com/UspsToolsRestServices/rest/POLocator/findLocations", "@spider": "usps_collection_boxes", "addr:city": "BIRMINGHAM", "addr:country": "US", "addr:postcode": "35205", "addr:state": "AL", "addr:street_address": "2100 6TH AVE S", "amenity": "post_box", "collection_times": "Mo-Fr 10:00", "nsi_id": "unitedstatespostalservice-a77078", "operator": "United States Postal Service", "operator:short": "USPS", "operator:type": "public", "operator:wikidata": "Q668687", "ref": "3520500077"}, "type": "Feature"}
{"geometry": {"coordinates": [-86.7879416, 33.50363], "type": "Point"}, "id": "7NyubhYHXfQzqk0GxFCgrJgUfiA=", "properties": {"@source_uri": "https://tools.usps.com/UspsToolsRestServices/rest/POLocator/findLocations", "@spider": "usps_collection_boxes", "addr:city": "BIRMINGHAM", "addr:country": "US", "addr:postcode": "35205", "addr:state": "AL", "addr:street_address": "1112 26TH ST S", "amenity": "post_box", "collection_times": "Mo-Fr 10:00", "nsi_id": "unitedstatespostalservice-a77078", "operator": "United States Postal Service", "operator:short": "USPS", "operator:type": "public", "operator:wikidata": "Q668687", "ref": "3520500079"}, "type": "Feature"}
{"geometry": {"coordinates": [-86.80001, 33.49727], "type": "Point"}, "id": "szOo6Wz7Rl16gWyqC1tyzEc9TkA=", "properties": {"@source_uri": "https://tools.usps.com/UspsToolsRestServices/rest/POLocator/findLocations", "@spider": "usps_collection_boxes", "addr:city": "BIRMINGHAM", "addr:country": "US", "addr:postcode": "35205", "addr:state": "AL", "addr:street_address": "2101 MAGNOLIA AVE S", "amenity": "post_box", "collection_times": "Mo-Fr 12:00", "nsi_id": "unitedstatespostalservice-a77078", "operator": "United States Postal Service", "operator:short": "USPS", "operator:type": "public", "operator:wikidata": "Q668687", "ref": "3520500084"}, "type": "Feature"}
{"geometry": {"coordinates": [-86.798131838, 33.499712475], "type": "Point"}, "id": "9lrTGfT4EL6RWvROdvqW0YGMBsE=", "properties": {"@source_uri": "https://tools.usps.com/UspsToolsRestServices/rest/POLocator/findLocations", "@spider": "usps_collection_boxes", "addr:city": "BIRMINGHAM", "addr:country": "US", "addr:postcode": "35205", "addr:state": "AL", "addr:street_address": "1821 11TH AVE S", "amenity": "post_box", "collection_times": "Mo-Fr 17:00; Sa 12:00", "indoor": "yes", "note": "ON 12/24 AND 12/31, THIS BOX MAY BE COLLECTED AS EARLY AS 12 NOON.", "nsi_id": "unitedstatespostalservice-a77078", "operator": "United States Postal Service", "operator:short": "USPS", "operator:type": "public", "operator:wikidata": "Q668687", "ref": "3520500085"}, "type": "Feature"}
{"geometry": {"coordinates": [-86.7053625, 33.58509], "type": "Point"}, "id": "JWeBp0GKoILch1Iy95kjt4nKdOg=", "properties": {"@source_uri": "https://tools.usps.com/UspsToolsRestServices/rest/POLocator/findLocations", "@spider": "usps_collection_boxes", "addr:city": "BIRMINGHAM", "addr:country": "US", "addr:postcode": "35206", "addr:state": "AL", "addr:street_address": "9150 PARKWAY E STE 200", "amenity": "post_box", "collection_times": "Mo-Fr 17:00; Sa 14:00", "note": "ON 12/24 AND 12/31, THIS BOX MAY BE COLLECTED AS EARLY AS 12 NOON.", "nsi_id": "unitedstatespostalservice-a77078", "operator": "United States Postal Service", "operator:short": "USPS", "operator:type": "public", "operator:wikidata": "Q668687", "ref": "3520600001"}, "type": "Feature"}
{"geometry": {"coordinates": [-86.7054075, 33.585466], "type": "Point"}, "id": "9Qq-dVuBtBzhr1XsBTeJUVySnOY=", "properties": {"@source_uri": "https://tools.usps.com/UspsToolsRestServices/rest/POLocator/findLocations", "@spider": "usps_collection_boxes", "addr:city": "BIRMINGHAM", "addr:country": "US", "addr:postcode": "35206", "addr:state": "AL", "addr:street_address": "9150 PARKWAY E STE 200", "amenity": "post_box", "collection_times": "Mo-Fr 17:00; Sa 14:00", "indoor": "yes", "note": "ON 12/24 AND 12/31, THIS BOX MAY BE COLLECTED AS EARLY AS 12 NOON.", "nsi_id": "unitedstatespostalservice-a77078", "operator": "United States Postal Service", "operator:short": "USPS", "operator:type": "public", "operator:wikidata": "Q668687", "ref": "3520600019"}, "type": "Feature"}
{"geometry": {"coordinates": [-86.704516042, 33.584598549], "type": "Point"}, "id": "0FuI4S2mauIGwfLq1LXm1_4J-jA=", "properties": {"@source_uri": "https://tools.usps.com/UspsToolsRestServices/rest/POLocator/findLocations", "@spider": "usps_collection_boxes", "addr:city": "BIRMINGHAM", "addr:country": "US", "addr:postcode": "35206", "addr:state": "AL", "addr:street_address": "9150 PARKWAY E STE 200", "amenity": "post_box", "collection_times": "Mo-Fr 17:00; Sa 14:00", "indoor": "yes", "note": "ON 12/24 AND 12/31, THIS BOX MAY BE COLLECTED AS EARLY AS 12 NOON.", "nsi_id": "unitedstatespostalservice-a77078", "operator": "United States Postal Service", "operator:short": "USPS", "operator:type": "public", "operator:wikidata": "Q668687", "ref": "3520600021"}, "type": "Feature"}
{"geometry": {"coordinates": [-86.816916, 33.554606], "type": "Point"}, "id": "FJnG_Bmm0xuHvR_zhWjEbv8KHqU=", "properties": {"@source_uri": "https://tools.usps.com/UspsToolsRestServices/rest/POLocator/findLocations", "@spider": "usps_collection_boxes", "addr:city": "BIRMINGHAM", "addr:country": "US", "addr:postcode": "35207", "addr:state": "AL", "addr:street_address": "2708 32ND AVE N", "amenity": "post_box", "collection_times": "Mo-Fr 15:00", "note": "ON 12/24 AND 12/31, THIS BOX MAY BE COLLECTED AS EARLY AS 12 NOON.", "nsi_id": "unitedstatespostalservice-a77078", "operator": "United States Postal Service", "operator:short": "USPS", "operator:type": "public", "operator:wikidata": "Q668687", "ref": "3520700000"}, "type": "Feature"}
{"geometry": {"coordinates": [-86.816916, 33.554606], "type": "Point"}, "id": "kYRsN3h9S--jfmJvEzNPJ2Ij6Ns=", "properties": {"@source_uri": "https://tools.usps.com/UspsToolsRestServices/rest/POLocator/findLocations", "@spider": "usps_collection_boxes", "addr:city": "BIRMINGHAM", "addr:country": "US", "addr:postcode": "35207", "addr:state": "AL", "addr:street_address": "2708 32ND AVE N", "amenity": "post_box", "collection_times": "Mo-Fr 15:00", "indoor": "yes", "note": "ON 12/24 AND 12/31, THIS BOX MAY BE COLLECTED AS EARLY AS 12 NOON.", "nsi_id": "unitedstatespostalservice-a77078", "operator": "United States Postal Service", "operator:short": "USPS", "operator:type": "public", "operator:wikidata": "Q668687", "ref": "3520700005"}, "type": "Feature"}
{"geometry": {"coordinates": [-86.816916, 33.554606], "type": "Point"}, "id": "ECF2xaiSJXkD6p4yCmIIa3zc4J4=", "properties": {"@source_uri": "https://tools.usps.com/UspsToolsRestServices/rest/POLocator/findLocations", "@spider": "usps_collection_boxes", "addr:city": "BIRMINGHAM", "addr:country": "US", "addr:postcode": "35207", "addr:state": "AL", "addr:street_address": "2708 32ND AVE N", "amenity": "post_box", "collection_times": "Mo-Fr 15:00", "indoor": "yes", "note": "ON 12/24 AND 12/31, THIS BOX MAY BE COLLECTED AS EARLY AS 12 NOON.", "nsi_id": "unitedstatespostalservice-a77078", "operator": "United States Postal Service", "operator:short": "USPS", "operator:type": "public", "operator:wikidata": "Q668687", "ref": "3520700007"}, "type": "Feature"}
{"geometry": {"coordinates": [-86.816957657, 33.5543017244], "type": "Point"}, "id": "tGqhf9aeC0ijPRK23_rPgcklxXM=", "properties": {"@source_uri": "https://tools.usps.com/UspsToolsRestServices/rest/POLocator/findLocations", "@spider": "usps_collection_boxes", "addr:city": "BIRMINGHAM", "addr:country": "US", "addr:postcode": "35207", "addr:state": "AL", "addr:street_address": "2708 32ND AVE N", "amenity": "post_box", "collection_times": "Mo-Fr 15:00", "indoor": "yes", "note": "ON 12/24 AND 12/31, THIS BOX MAY BE COLLECTED AS EARLY AS 12 NOON.", "nsi_id": "unitedstatespostalservice-a77078", "operator": "United States Postal Service", "operator:short": "USPS", "operator:type": "public", "operator:wikidata": "Q668687", "ref": "3520700008"}, "type": "Feature"}
{"geometry": {"coordinates": [-86.869916, 33.499915], "type": "Point"}, "id": "2J76dqXNoTyc4cXBBtBaj8cDSPA=", "properties": {"@source_uri": "https://tools.usps.com/UspsToolsRestServices/rest/POLocator/findLocations", "@spider": "usps_collection_boxes", "addr:city": "BIRMINGHAM", "addr:country": "US", "addr:postcode": "35208", "addr:state": "AL", "addr:street_address": "2801 LOMB AVE", "amenity": "post_box", "collection_times": "Mo-Fr 17:00; Sa 13:30", "note": "ON 12/24 AND 12/31, THIS BOX MAY BE COLLECTED AS EARLY AS 12 NOON.", "nsi_id": "unitedstatespostalservice-a77078", "operator": "United States Postal Service", "operator:short": "USPS", "operator:type": "public", "operator:wikidata": "Q668687", "ref": "3520800000"}, "type": "Feature"}
{"geometry": {"coordinates": [-86.869916, 33.499915], "type": "Point"}, "id": "Zdj3baHLel7-KnvBXQsmF4PA5KU=", "properties": {"@source_uri": "https://tools.usps.com/UspsToolsRestServices/rest/POLocator/findLocations", "@spider": "usps_collection_boxes", "addr:city": "BIRMINGHAM", "addr:country": "US", "addr:postcode": "35208", "addr:state": "AL", "addr:street_address": "2801 LOMB AVE", "amenity": "post_box", "collection_times": "Mo-Fr 17:00; Sa 13:30", "indoor": "yes", "note": "ON 12/24 AND 12/31, THIS BOX MAY BE COLLECTED AS EARLY AS 12 NOON.", "nsi_id": "unitedstatespostalservice-a77078", "operator": "United States Postal Service", "operator:short": "USPS", "operator:type": "public", "operator:wikidata": "Q668687", "ref": "3520800010"}, "type": "Feature"}
{"geometry": {"coordinates": [-86.869506781, 33.500531623], "type": "Point"}, "id": "_uKSH2HU_WAfMgZTIQLYdZjFO-k=", "properties": {"@source_uri": "https://tools.usps.com/UspsToolsRestServices/rest/POLocator/findLocations", "@spider": "usps_collection_boxes", "addr:city": "BIRMINGHAM", "addr:country": "US", "addr:postcode": "35208", "addr:state": "AL", "addr:street_address": "2801 LOMB AVE", "amenity": "post_box", "collection_times": "Mo-Fr 17:00; Sa 14:00", "indoor": "yes", "note": "ON 12/24 AND 12/31, THIS BOX MAY BE COLLECTED AS EARLY AS 12 NOON.", "nsi_id": "unitedstatespostalservice-a77078", "operator": "United States Postal Service", "operator:short": "USPS", "operator:type": "public", "operator:wikidata": "Q668687", "ref": "3520800012"}, "type": "Feature"}
{"geometry": {"coordinates": [-86.791824, 33.482182], "type": "Point"}, "id": "2BiP-sUO-cxzO_t_ex4jv-_0YZA=", "properties": {"@source_uri": "https://tools.usps.com/UspsToolsRestServices/rest/POLocator/findLocations", "@spider": "usps_collection_boxes", "addr:city": "BIRMINGHAM", "addr:country": "US", "addr:postcode": "35209", "addr:state": "AL", "addr:street_address": "2710 18TH ST S", "amenity": "post_box", "collection_times": "Mo-Fr 17:00; Sa 13:30", "note": "ON 12/24 AND 12/31, THIS BOX MAY BE COLLECTED AS EARLY AS 12 NOON.", "nsi_id": "unitedstatespostalservice-a77078", "operator": "United States Postal Service", "operator:short": "USPS", "operator:type": "public", "operator:wikidata": "Q668687", "ref": "3520900000"}, "type": "Feature"}
{"geometry": {"coordinates": [-86.791824, 33.482182], "type": "Point"}, "id": "p1FAfzDrx9gt-VK-_oT44ffoQVI=", "properties": {"@source_uri": "https://tools.usps.com/UspsToolsRestServices/rest/POLocator/findLocations", "@spider": "usps_collection_boxes", "addr:city": "BIRMINGHAM", "addr:country": "US", "addr:postcode": "35209", "addr:state": "AL", "addr:street_address": "2710 18TH ST S", "amenity": "post_box", "collection_times": "Mo-Fr 17:00; Sa 13:30", "note": "ON 12/24 AND 12/31, THIS BOX MAY BE COLLECTED AS EARLY AS 12 NOON.", "nsi_id": "unitedstatespostalservice-a77078", "operator": "United States Postal Service", "operator:short": "USPS", "operator:type": "public", "operator:wikidata": "Q668687", "ref": "3520900002"}, "type": "Feature"}
{"geometry": {"coordinates": [-86.817701, 33.460467], "type": "Point"}, "id": "u7f6nkSVC2LpGhsNNyvOyBFL_PQ=", "properties": {"@source_uri": "https://tools.usps.com/UspsToolsRestServices/rest/POLocator/findLocations", "@spider": "usps_collection_boxes", "addr:city": "BIRMINGHAM", "addr:country": "US", "addr:postcode": "35209", "addr:state": "AL", "addr:street_address": "813 GREEN SPRINGS HWY", "amenity": "post_box", "collection_times": "Mo-Fr 17:00; Sa 14:00", "note": "ON 12/24 AND 12/31, THIS BOX MAY BE COLLECTED AS EARLY AS 12 NOON.", "nsi_id": "unitedstatespostalservice-a77078", "operator": "United States Postal Service", "operator:short": "USPS", "operator:type": "public", "operator:wikidata": "Q668687", "ref": "3520900004"}, "type": "Feature"}
{"geometry": {"coordinates": [-86.8352643, 33.460473], "type": "Point"}, "id": "YhfaYmZRrzml1ioFAtRxCyCLdMQ=", "properties": {"@source_uri": "https://tools.usps.com/UspsToolsRestServices/rest/POLocator/findLocations", "@spider": "usps_collection_boxes", "addr:city": "BIRMINGHAM", "addr:country": "US", "addr:postcode": "35209", "addr:state": "AL", "addr:street_address": "100 OXMOOR BLVD", "amenity": "post_box", "collection_times": "Mo-Fr 10:30", "nsi_id": "unitedstatespostalservice-a77078", "operator": "United States Postal Service", "operator:short": "USPS", "operator:type": "public", "operator:wikidata": "Q668687", "ref": "3520900009"}, "type": "Feature"}
{"geometry": {"coordinates": [-86.8357615, 33.464401], "type": "Point"}, "id": "_3w7ppMRiSaqK3V0FwZ3j7tXMOY=", "properties": {"@source_uri": "https://tools.usps.com/UspsToolsRestServices/rest/POLocator/findLocations", "@spider": "usps_collection_boxes", "addr:city": "BIRMINGHAM", "addr:country": "US", "addr:postcode": "35209", "addr:state": "AL", "addr:street_address": "75 ASPEN RDG", "amenity": "post_box", "collection_times": "Mo-Fr 10:30", "nsi_id": "unitedstatespostalservice-a77078", "operator": "United States Postal Service", "operator:short": "USPS", "operator:type": "public", "operator:wikidata": "Q668687", "ref": "3520900014"}, "type": "Feature"}
{"geometry": {"coordinates": [-86.802677, 33.475031], "type": "Point"}, "id": "wjmifesF70x_1OFFZWBHCdHFntI=", "properties": {"@source_uri": "https://tools.usps.com/UspsToolsRestServices/rest/POLocator/findLocations", "@spider": "usps_collection_boxes", "addr:city": "BIRMINGHAM", "addr:country": "US", "addr:postcode": "35209", "addr:state": "AL", "addr:street_address": "1430 OXMOOR RD", "amenity": "post_box", "collection_times": "Mo-Fr 12:00", "nsi_id": "unitedstatespostalservice-a77078", "operator": "United States Postal Service", "operator:short": "USPS", "operator:type": "public", "operator:wikidata": "Q668687", "ref": "3520900016"}, "type": "Feature"}
{"geometry": {"coordinates": [-86.7717416, 33.466109], "type": "Point"}, "id": "owarJDqiq28OY5-S3JQA85gMnXY=", "properties": {"@source_uri": "https://tools.usps.com/UspsToolsRestServices/rest/POLocator/findLocations", "@spider": "usps_collection_boxes", "addr:city": "BIRMINGHAM", "addr:country": "US", "addr:postcode": "35209", "addr:state": "AL", "addr:street_address": "2 METROPLEX DR", "amenity": "post_box", "collection_times": "Mo-Fr 12:00", "nsi_id": "unitedstatespostalservice-a77078", "operator": "United States Postal Service", "operator:short": "USPS", "operator:type": "public", "operator:wikidata": "Q668687", "ref": "3520900020"}, "type": "Feature"}
{"geometry": {"coordinates": [-86.8399731, 33.457269], "type": "Point"}, "id": "VeV1pBRZ1NKGk_Kpvdfmi-7DZfk=", "properties": {"@source_uri": "https://tools.usps.com/UspsToolsRestServices/rest/POLocator/findLocations", "@spider": "usps_collection_boxes", "addr:city": "BIRMINGHAM", "addr:country": "US", "addr:postcode": "35209", "addr:state": "AL", "addr:street_address": "25 W OXMOOR RD", "amenity": "post_box", "collection_times": "Mo-Fr 10:30", "nsi_id": "unitedstatespostalservice-a77078", "operator": "United States Postal Service", "operator:short": "USPS", "operator:type": "public", "operator:wikidata": "Q668687", "ref": "3520900024"}, "type": "Feature"}
{"geometry": {"coordinates": [-86.8222337, 33.473076], "type": "Point"}, "id": "mKdmrqhecssMMj8JawhA4O2kpXA=", "properties": {"@source_uri": "https://tools.usps.com/UspsToolsRestServices/rest/POLocator/findLocations", "@spider": "usps_collection_boxes", "addr:city": "BIRMINGHAM", "addr:country": "US", "addr:postcode": "35209", "addr:state": "AL", "addr:street_address": "200 BEACON PKWY W", "amenity": "post_box", "collection_times": "Mo-Fr 11:00", "nsi_id": "unitedstatespostalservice-a77078", "operator": "United States Postal Service", "operator:short": "USPS", "operator:type": "public", "operator:wikidata": "Q668687", "ref": "3520900026"}, "type": "Feature"}
{"geometry": {"coordinates": [-86.8240269, 33.466515], "type": "Point"}, "id": "BJdmf07UMHYeP-hapzirVnuIv_o=", "properties": {"@source_uri": "https://tools.usps.com/UspsToolsRestServices/rest/POLocator/findLocations", "@spider": "usps_collection_boxes", "addr:city": "BIRMINGHAM", "addr:country": "US", "addr:postcode": "35209", "addr:state": "AL", "addr:street_address": "216 GREEN SPRINGS HWY", "amenity": "post_box", "collection_times": "Mo-Fr 11:00", "nsi_id": "unitedstatespostalservice-a77078", "operator": "United States Postal Service", "operator:short": "USPS", "operator:type": "public", "operator:wikidata": "Q668687", "ref": "3520900028"}, "type": "Feature"}
{"geometry": {"coordinates": [-86.8368226, 33.461342], "type": "Point"}, "id": "Mk58tuoNlz-HRV8RmOgNH2-Cb_E=", "properties": {"@source_uri": "https://tools.usps.com/UspsToolsRestServices/rest/POLocator/findLocations", "@spider": "usps_collection_boxes", "addr:city": "BIRMINGHAM", "addr:country": "US", "addr:postcode": "35209", "addr:state": "AL", "addr:street_address": "234 AQUARIUS DR", "amenity": "post_box", "collection_times": "Mo-Fr 10:30", "nsi_id": "unitedstatespostalservice-a77078", "operator": "United States Postal Service", "operator:short": "USPS", "operator:type": "public", "operator:wikidata": "Q668687", "ref": "3520900029"}, "type": "Feature"}
{"geometry": {"coordinates": [-86.8391668, 33.453821], "type": "Point"}, "id": "rh6bzqmwQv52akHxtWIs_7M8OFA=", "properties": {"@source_uri": "https://tools.usps.com/UspsToolsRestServices/rest/POLocator/findLocations", "@spider": "usps_collection_boxes", "addr:city": "BIRMINGHAM", "addr:country": "US", "addr:postcode": "35209", "addr:state": "AL", "addr:street_address": "237 OXMOOR CIR", "amenity": "post_box", "collection_times": "Mo-Fr 10:30", "nsi_id": "unitedstatespostalservice-a77078", "operator": "United States Postal Service", "operator:short": "USPS", "operator:type": "public", "operator:wikidata": "Q668687", "ref": "3520900030"}, "type": "Feature"}
{"geometry": {"coordinates": [-86.8331778, 33.471889], "type": "Point"}, "id": "7wvs6xdetqwpywyKTJEd76nDnbQ=", "properties": {"@source_uri": "https://tools.usps.com/UspsToolsRestServices/rest/POLocator/findLocations", "@spider": "usps_collection_boxes", "addr:city": "BIRMINGHAM", "addr:country": "US", "addr:postcode": "35209", "addr:state": "AL", "addr:street_address": "244 GOODWIN CREST DR", "amenity": "post_box", "collection_times": "Mo-Fr 11:00", "nsi_id": "unitedstatespostalservice-a77078", "operator": "United States Postal Service", "operator:short": "USPS", "operator:type": "public", "operator:wikidata": "Q668687", "ref": "3520900033"}, "type": "Feature"}
{"geometry": {"coordinates": [-86.7768749, 33.46369], "type": "Point"}, "id": "LBxd7k_TCuMBL6AEdbava-0GKrs=", "properties": {"@source_uri": "https://tools.usps.com/UspsToolsRestServices/rest/POLocator/findLocations", "@spider": "usps_collection_boxes", "addr:city": "BIRMINGHAM", "addr:country": "US", "addr:postcode": "35209", "addr:state": "AL", "addr:street_address": "2010 BROOKWOOD MED CENTER DR", "amenity": "post_box", "collection_times": "Mo-Fr 12:00", "nsi_id": "unitedstatespostalservice-a77078", "operator": "United States Postal Service", "operator:short": "USPS", "operator:type": "public", "operator:wikidata": "Q668687", "ref": "3520900038"}, "type": "Feature"}
{"geometry": {"coordinates": [-86.7916392, 33.478023], "type": "Point"}, "id": "3uleo3xxBdwdtkFkn--4DzXvM0k=", "properties": {"@source_uri": "https://tools.usps.com/UspsToolsRestServices/rest/POLocator/findLocations", "@spider": "usps_collection_boxes", "addr:city": "BIRMINGHAM", "addr:country": "US", "addr:postcode": "35209", "addr:state": "AL", "addr:street_address": "2949 18TH ST S", "amenity": "post_box", "collection_times": "Mo-Fr 12:00", "nsi_id": "unitedstatespostalservice-a77078", "operator": "United States Postal Service", "operator:short": "USPS", "operator:type": "public", "operator:wikidata": "Q668687", "ref": "3520900045"}, "type": "Feature"}
{"geometry": {"coordinates": [-86.8117386, 33.450866], "type": "Point"}, "id": "1St7JSQBzmmQE2sn0D75eAU2PVQ=", "properties": {"@source_uri": "https://tools.usps.com/UspsToolsRestServices/rest/POLocator/findLocations", "@spider": "usps_collection_boxes", "addr:city": "BIRMINGHAM", "addr:country": "US", "addr:postcode": "35209", "addr:state": "AL", "addr:street_address": "1 W LAKESHORE DR", "amenity": "post_box", "collection_times": "Mo-Fr 12:30", "note": "ON 12/24 AND 12/31, THIS BOX MAY BE COLLECTED AS EARLY AS 12 NOON.", "nsi_id": "unitedstatespostalservice-a77078", "operator": "United States Postal Service", "operator:short": "USPS", "operator:type": "public", "operator:wikidata": "Q668687", "ref": "3520900047"}, "type": "Feature"}
{"geometry": {"coordinates": [-86.7876494, 33.47771], "type": "Point"}, "id": "TF-vdbrN_ZPMGQC7TV-CZxBffdY=", "properties": {"@source_uri": "https://tools.usps.com/UspsToolsRestServices/rest/POLocator/findLocations", "@spider": "usps_collection_boxes", "addr:city": "BIRMINGHAM", "addr:country": "US", "addr:postcode": "35209", "addr:state": "AL", "addr:street_address": "3030 INDEPENDENCE DR", "amenity": "post_box", "collection_times": "Mo-Fr 12:00", "nsi_id": "unitedstatespostalservice-a77078", "operator": "United States Postal Service", "operator:short": "USPS", "operator:type": "public", "operator:wikidata": "Q668687", "ref": "3520900049"}, "type": "Feature"}
{"geometry": {"coordinates": [-86.7871007, 33.475682], "type": "Point"}, "id": "5nqUpARz6W32iUEBt89id15UJWM=", "properties": {"@source_uri": "https://tools.usps.com/UspsToolsRestServices/rest/POLocator/findLocations", "@spider": "usps_collection_boxes", "addr:city": "BIRMINGHAM", "addr:country": "US", "addr:postcode": "35209", "addr:state": "AL", "addr:street_address": "3055 INDEPENDENCE DR", "amenity": "post_box", "collection_times": "Mo-Fr 12:00", "nsi_id": "unitedstatespostalservice-a77078", "operator": "United States Postal Service", "operator:short": "USPS", "operator:type": "public", "operator:wikidata": "Q668687", "ref": "3520900050"}, "type": "Feature"}
{"geometry": {"coordinates": [-86.7864126, 33.47376], "type": "Point"}, "id": "PyECO0-vwqI9ji9YhwlG31rglqM=", "properties": {"@source_uri": "https://tools.usps.com/UspsToolsRestServices/rest/POLocator/findLocations", "@spider": "usps_collection_boxes", "addr:city": "BIRMINGHAM", "addr:country": "US", "addr:postcode": "35209", "addr:state": "AL", "addr:street_address": "3349 INDEPENDENCE DR", "amenity": "post_box", "collection_times": "Mo-Fr 12:00", "nsi_id": "unitedstatespostalservice-a77078", "operator": "United States Postal Service", "operator:short": "USPS", "operator:type": "public", "operator:wikidata": "Q668687", "ref": "3520900055"}, "type": "Feature"}
{"geometry": {"coordinates": [-86.7847907, 33.473272], "type": "Point"}, "id": "OIXw-yXpl6vH10llDgy1juYI2Gw=", "properties": {"@source_uri": "https://tools.usps.com/UspsToolsRestServices/rest/POLocator/findLocations", "@spider": "usps_collection_boxes", "addr:city": "BIRMINGHAM", "addr:country": "US", "addr:postcode": "35209", "addr:state": "AL", "addr:street_address": "3401 INDEPENDENCE DR", "amenity": "post_box", "collection_times": "Mo-Fr 12:00", "nsi_id": "unitedstatespostalservice-a77078", "operator": "United States Postal Service", "operator:short": "USPS", "operator:type": "public", "operator:wikidata": "Q668687", "ref": "3520900056"}, "type": "Feature"}
{"geometry": {"coordinates": [-86.8263314, 33.473327], "type": "Point"}, "id": "WKYggCHreA9ZMoWfvTJW5kPyuXY=", "properties": {"@source_uri": "https://tools.usps.com/UspsToolsRestServices/rest/POLocator/findLocations", "@spider": "usps_collection_boxes", "addr:city": "BIRMINGHAM", "addr:country": "US", "addr:postcode": "35209", "addr:state": "AL", "addr:street_address": "48 GREEN SPRINGS HWY", "amenity": "post_box", "collection_times": "Mo-Fr 11:00", "nsi_id": "unitedstatespostalservice-a77078", "operator": "United States Postal Service", "operator:short": "USPS", "operator:type": "public", "operator:wikidata": "Q668687", "ref": "3520900058"}, "type": "Feature"}
{"geometry": {"coordinates": [-86.8202326, 33.471882], "type": "Point"}, "id": "lJyXY3z6ymS2V9hj0u5oJDfziAs=", "properties": {"@source_uri": "https://tools.usps.com/UspsToolsRestServices/rest/POLocator/findLocations", "@spider": "usps_collection_boxes", "addr:city": "BIRMINGHAM", "addr:country": "US", "addr:postcode": "35209", "addr:state": "AL", "addr:street_address": "401 VALLEY AVE", "amenity": "post_box", "collection_times": "Mo-Fr 11:00", "nsi_id": "unitedstatespostalservice-a77078", "operator": "United States Postal Service", "operator:short": "USPS", "operator:type": "public", "operator:wikidata": "Q668687", "ref": "3520900059"}, "type": "Feature"}
{"geometry": {"coordinates": [-86.831283, 33.471176], "type": "Point"}, "id": "YMw9yUnIt1kUoyhFt9TSBaCiyaA=", "properties": {"@source_uri": "https://tools.usps.com/UspsToolsRestServices/rest/POLocator/findLocations", "@spider": "usps_collection_boxes", "addr:city": "BIRMINGHAM", "addr:country": "US", "addr:postcode": "35209", "addr:state": "AL", "addr:street_address": "55 BAGBY DR", "amenity": "post_box", "collection_times": "Mo-Fr 11:00", "nsi_id": "unitedstatespostalservice-a77078", "operator": "United States Postal Service", "operator:short": "USPS", "operator:type": "public", "operator:wikidata": "Q668687", "ref": "3520900067"}, "type": "Feature"}
{"geometry": {"coordinates": [-86.8155847, 33.475164], "type": "Point"}, "id": "B5I4ATRpiJZ_zahGSWzj98A5PfM=", "properties": {"@source_uri": "https://tools.usps.com/UspsToolsRestServices/rest/POLocator/findLocations", "@spider": "usps_collection_boxes", "addr:city": "BIRMINGHAM", "addr:country": "US", "addr:postcode": "35209", "addr:state": "AL", "addr:street_address": "741 BARCELONA CT", "amenity": "post_box", "collection_times": "Mo-Fr 10:30", "nsi_id": "unitedstatespostalservice-a77078", "operator": "United States Postal Service", "operator:short": "USPS", "operator:type": "public", "operator:wikidata": "Q668687", "ref": "3520900068"}, "type": "Feature"}
{"geometry": {"coordinates": [-86.8297505, 33.469933], "type": "Point"}, "id": "rnQr5UqpbsJKoKJvPkbkaemBV6Q=", "properties": {"@source_uri": "https://tools.usps.com/UspsToolsRestServices/rest/POLocator/findLocations", "@spider": "usps_collection_boxes", "addr:city": "BIRMINGHAM", "addr:country": "US", "addr:postcode": "35209", "addr:state": "AL", "addr:street_address": "85 BAGBY DR", "amenity": "post_box", "collection_times": "Mo-Fr 11:00", "nsi_id": "unitedstatespostalservice-a77078", "operator": "United States Postal Service", "operator:short": "USPS", "operator:type": "public", "operator:wikidata": "Q668687", "ref": "3520900069"}, "type": "Feature"}
{"geometry": {"coordinates": [-86.7646658, 33.475048], "type": "Point"}, "id": "P9aU4t9OM4dw76ApVaL1To20Ml8=", "properties": {"@source_uri": "https://tools.usps.com/UspsToolsRestServices/rest/POLocator/findLocations", "@spider": "usps_collection_boxes", "addr:city": "BIRMINGHAM", "addr:country": "US", "addr:postcode": "35209", "addr:state": "AL", "addr:street_address": "813 SHADES CREEK PKWY", "amenity": "post_box", "collection_times": "Mo-Fr 14:30", "note": "ON 12/24 AND 12/31, THIS BOX MAY BE COLLECTED AS EARLY AS 12 NOON.", "nsi_id": "unitedstatespostalservice-a77078", "operator": "United States Postal Service", "operator:short": "USPS", "operator:type": "public", "operator:wikidata": "Q668687", "ref": "3520900071"}, "type": "Feature"}
{"geometry": {"coordinates": [-86.8083031, 33.473665], "type": "Point"}, "id": "yksLZEBmo5uxqlg_iITuHFLdeVg=", "properties": {"@source_uri": "https://tools.usps.com/UspsToolsRestServices/rest/POLocator/findLocations", "@spider": "usps_collection_boxes", "addr:city": "BIRMINGHAM", "addr:country": "US", "addr:postcode": "35209", "addr:state": "AL", "addr:street_address": "1001 OXMOOR RD & BROADWAY", "amenity": "post_box", "collection_times": "Mo-Fr 12:00", "nsi_id": "unitedstatespostalservice-a77078", "operator": "United States Postal Service", "operator:short": "USPS", "operator:type": "public", "operator:wikidata": "Q668687", "ref": "3520900077"}, "type": "Feature"}
{"geometry": {"coordinates": [-86.8352506, 33.4764], "type": "Point"}, "id": "9mIGBtMlilTNo0cVdG9Js5x1v-E=", "properties": {"@source_uri": "https://tools.usps.com/UspsToolsRestServices/rest/POLocator/findLocations", "@spider": "usps_collection_boxes", "addr:city": "BIRMINGHAM", "addr:country": "US", "addr:postcode": "35209", "addr:state": "AL", "addr:street_address": "1528 STONERIDGE RD", "amenity": "post_box", "collection_times": "Mo-Fr 10:30", "nsi_id": "unitedstatespostalservice-a77078", "operator": "United States Postal Service", "operator:short": "USPS", "operator:type": "public", "operator:wikidata": "Q668687", "ref": "3520900078"}, "type": "Feature"}
{"geometry": {"coordinates": [-86.8262609, 33.458735], "type": "Point"}, "id": "8PJ5TWg6lCojMCX-u2dYJL9ygEw=", "properties": {"@source_uri": "https://tools.usps.com/UspsToolsRestServices/rest/POLocator/findLocations", "@spider": "usps_collection_boxes", "addr:city": "BIRMINGHAM", "addr:country": "US", "addr:postcode": "35209", "addr:state": "AL", "addr:street_address": "700 COBB ST", "amenity": "post_box", "collection_times": "Mo-Fr 10:30", "nsi_id": "unitedstatespostalservice-a77078", "operator": "United States Postal Service", "operator:short": "USPS", "operator:type": "public", "operator:wikidata": "Q668687", "ref": "3520900080"}, "type": "Feature"}
{"geometry": {"coordinates": [-86.8140227, 33.448783], "type": "Point"}, "id": "oQ9qxh7cbzD90UcDhqy6jk_C93Y=", "properties": {"@source_uri": "https://tools.usps.com/UspsToolsRestServices/rest/POLocator/findLocations", "@spider": "usps_collection_boxes", "addr:city": "BIRMINGHAM", "addr:country": "US", "addr:postcode": "35209", "addr:state": "AL", "addr:street_address": "1 COURTS AT WILDWOOD APTS", "amenity": "post_box", "collection_times": "Mo-Fr 10:30", "nsi_id": "unitedstatespostalservice-a77078", "operator": "United States Postal Service", "operator:short": "USPS", "operator:type": "public", "operator:wikidata": "Q668687", "ref": "3520900081"}, "type": "Feature"}
{"geometry": {"coordinates": [-86.8414634, 33.44448], "type": "Point"}, "id": "v1xi31DFqGwsw9ZcdZ92WRznFlc=", "properties": {"@source_uri": "https://tools.usps.com/UspsToolsRestServices/rest/POLocator/findLocations", "@spider": "usps_collection_boxes", "addr:city": "BIRMINGHAM", "addr:country": "US", "addr:postcode": "35209", "addr:state": "AL", "addr:street_address": "100 DISTRIBUTION DR & W OXMOOR RD", "amenity": "post_box", "collection_times": "Mo-Fr 10:30", "nsi_id": "unitedstatespostalservice-a77078", "operator": "United States Postal Service", "operator:short": "USPS", "operator:type": "public", "operator:wikidata": "Q668687", "ref": "3520900082"}, "type": "Feature"}
{"geometry": {"coordinates": [-86.8375153, 33.471586], "type": "Point"}, "id": "FVTvXXb0hBA8gDfyf5zcB8NRNqo=", "properties": {"@source_uri": "https://tools.usps.com/UspsToolsRestServices/rest/POLocator/findLocations", "@spider": "usps_collection_boxes", "addr:city": "BIRMINGHAM", "addr:country": "US", "addr:postcode": "35209", "addr:state": "AL", "addr:street_address": "280 ROBERT JEMISON RD", "amenity": "post_box", "collection_times": "Mo-Fr 10:30", "nsi_id": "unitedstatespostalservice-a77078", "operator": "United States Postal Service", "operator:short": "USPS", "operator:type": "public", "operator:wikidata": "Q668687", "ref": "3520900085"}, "type": "Feature"}
{"geometry": {"coordinates": [-86.8194406, 33.469415], "type": "Point"}, "id": "U4jxUHHmuTsYBGMehDBKv_J2Ro8=", "properties": {"@source_uri": "https://tools.usps.com/UspsToolsRestServices/rest/POLocator/findLocations", "@spider": "usps_collection_boxes", "addr:city": "BIRMINGHAM", "addr:country": "US", "addr:postcode": "35209", "addr:state": "AL", "addr:street_address": "300 PALISADES BLVD", "amenity": "post_box", "collection_times": "Mo-Fr 11:00", "nsi_id": "unitedstatespostalservice-a77078", "operator": "United States Postal Service", "operator:short": "USPS", "operator:type": "public", "operator:wikidata": "Q668687", "ref": "3520900087"}, "type": "Feature"}
{"geometry": {"coordinates": [-86.7940991, 33.465008], "type": "Point"}, "id": "AMQyy8CpaGv0XUrTP1IVXkCvamo=", "properties": {"@source_uri": "https://tools.usps.com/UspsToolsRestServices/rest/POLocator/findLocations", "@spider": "usps_collection_boxes", "addr:city": "BIRMINGHAM", "addr:country": "US", "addr:postcode": "35209", "addr:state": "AL", "addr:street_address": "800 LAKESHORE DR", "amenity": "post_box", "collection_times": "Mo-Fr 11:00", "nsi_id": "unitedstatespostalservice-a77078", "operator": "United States Postal Service", "operator:short": "USPS", "operator:type": "public", "operator:wikidata": "Q668687", "ref": "3520900088"}, "type": "Feature"}
{"geometry": {"coordinates": [-86.8112729, 33.479466], "type": "Point"}, "id": "Qrc7zPYHBg16s8hbwcBtGKukFsY=", "properties": {"@source_uri": "https://tools.usps.com/UspsToolsRestServices/rest/POLocator/findLocations", "@spider": "usps_collection_boxes", "addr:city": "BIRMINGHAM", "addr:country": "US", "addr:postcode": "35209", "addr:state": "AL", "addr:street_address": "915 VALLEY RIDGE DR", "amenity": "post_box", "collection_times": "Mo-Fr 10:30", "nsi_id": "unitedstatespostalservice-a77078", "operator": "United States Postal Service", "operator:short": "USPS", "operator:type": "public", "operator:wikidata": "Q668687", "ref": "3520900090"}, "type": "Feature"}
{"geometry": {"coordinates": [-86.8298953, 33.468806], "type": "Point"}, "id": "Ye9InvPu0hNk_tm8IKLOw44zknQ=", "properties": {"@source_uri": "https://tools.usps.com/UspsToolsRestServices/rest/POLocator/findLocations", "@spider": "usps_collection_boxes", "addr:city": "BIRMINGHAM", "addr:country": "US", "addr:postcode": "35209", "addr:state": "AL", "addr:street_address": "325 W VALLEY AVE", "amenity": "post_box", "collection_times": "Mo-Fr 11:00", "nsi_id": "unitedstatespostalservice-a77078", "operator": "United States Postal Service", "operator:short": "USPS", "operator:type": "public", "operator:wikidata": "Q668687", "ref": "3520900093"}, "type": "Feature"}
{"geometry": {"coordinates": [-86.7880964, 33.489443], "type": "Point"}, "id": "fl7YzbDgqmvhQW2ZWdNLVJ4ftr0=", "properties": {"@source_uri": "https://tools.usps.com/UspsToolsRestServices/rest/POLocator/findLocations", "@spider": "usps_collection_boxes", "addr:city": "BIRMINGHAM", "addr:country": "US", "addr:postcode": "35209", "addr:state": "AL", "addr:street_address": "2200 WOODCREST PL", "amenity": "post_box", "collection_times": "Mo-Fr 12:00", "nsi_id": "unitedstatespostalservice-a77078", "operator": "United States Postal Service", "operator:short": "USPS", "operator:type": "public", "operator:wikidata": "Q668687", "ref": "3520900095"}, "type": "Feature"}
{"geometry": {"coordinates": [-86.780317, 33.482934], "type": "Point"}, "id": "5kvzujxKqXE1UMHEqkyY5FgCcAg=", "properties": {"@source_uri": "https://tools.usps.com/UspsToolsRestServices/rest/POLocator/findLocations", "@spider": "usps_collection_boxes", "addr:city": "BIRMINGHAM", "addr:country": "US", "addr:postcode": "35209", "addr:state": "AL", "addr:street_address": "400 UNION HILL DR", "amenity": "post_box", "collection_times": "Mo-Fr 12:00", "nsi_id": "unitedstatespostalservice-a77078", "operator": "United States Postal Service", "operator:short": "USPS", "operator:type": "public", "operator:wikidata": "Q668687", "ref": "3520900097"}, "type": "Feature"}
{"geometry": {"coordinates": [-86.7883568, 33.487929], "type": "Point"}, "id": "-ETe1l8JXPHfskEOD6AiPgFCN9s=", "properties": {"@source_uri": "https://tools.usps.com/UspsToolsRestServices/rest/POLocator/findLocations", "@spider": "usps_collection_boxes", "addr:city": "BIRMINGHAM", "addr:country": "US", "addr:postcode": "35209", "addr:state": "AL", "addr:street_address": "2340 WOODCREST PL", "amenity": "post_box", "collection_times": "Mo-Fr 12:00", "nsi_id": "unitedstatespostalservice-a77078", "operator": "United States Postal Service", "operator:short": "USPS", "operator:type": "public", "operator:wikidata": "Q668687", "ref": "3520900099"}, "type": "Feature"}
{"geometry": {"coordinates": [-86.8266061, 33.448782], "type": "Point"}, "id": "TqvU2_37KXwC99bNfYxAfxh4r5U=", "properties": {"@source_uri": "https://tools.usps.com/UspsToolsRestServices/rest/POLocator/findLocations", "@spider": "usps_collection_boxes", "addr:city": "BIRMINGHAM", "addr:country": "US", "addr:postcode": "35209", "addr:state": "AL", "addr:street_address": "126 WILDWOOD PKWY", "amenity": "post_box", "collection_times": "Mo-Fr 12:30", "note": "ON 12/24 AND 12/31, THIS BOX MAY BE COLLECTED AS EARLY AS 12 NOON.", "nsi_id": "unitedstatespostalservice-a77078", "operator": "United States Postal Service", "operator:short": "USPS", "operator:type": "public", "operator:wikidata": "Q668687", "ref": "3520900105"}, "type": "Feature"}
{"geometry": {"coordinates": [-86.817701, 33.460467], "type": "Point"}, "id": "x2pBT0GNzfRmBvuQGsZczQ6A8XY=", "properties": {"@source_uri": "https://tools.usps.com/UspsToolsRestServices/rest/POLocator/findLocations", "@spider": "usps_collection_boxes", "addr:city": "BIRMINGHAM", "addr:country": "US", "addr:postcode": "35209", "addr:state": "AL", "addr:street_address": "813 GREEN SPRINGS HWY", "amenity": "post_box", "collection_times": "Mo-Fr 17:00; Sa 13:00", "indoor": "yes", "note": "ON 12/24 AND 12/31, THIS BOX MAY BE COLLECTED AS EARLY AS 12 NOON.", "nsi_id": "unitedstatespostalservice-a77078", "operator": "United States Postal Service", "operator:short": "USPS", "operator:type": "public", "operator:wikidata": "Q668687", "ref": "3520900106"}, "type": "Feature"}
{"geometry": {"coordinates": [-86.791824, 33.482182], "type": "Point"}, "id": "ckApGv1SuaCVzwm43Ujdk-kUDe8=", "properties": {"@source_uri": "https://tools.usps.com/UspsToolsRestServices/rest/POLocator/findLocations", "@spider": "usps_collection_boxes", "addr:city": "BIRMINGHAM", "addr:country": "US", "addr:postcode": "35209", "addr:state": "AL", "addr:street_address": "2710 18TH ST S", "amenity": "post_box", "collection_times": "Mo-Fr 17:00; Sa 13:30", "indoor": "yes", "note": "ON 12/24 AND 12/31, THIS BOX MAY BE COLLECTED AS EARLY AS 12 NOON.", "nsi_id": "unitedstatespostalservice-a77078", "operator": "United States Postal Service", "operator:short": "USPS", "operator:type": "public", "operator:wikidata": "Q668687", "ref": "3520900107"}, "type": "Feature"}
{"geometry": {"coordinates": [-86.817702545, 33.46050169], "type": "Point"}, "id": "BhX24DOoyx8Kl9yU9OQFkvYytZo=", "properties": {"@source_uri": "https://tools.usps.com/UspsToolsRestServices/rest/POLocator/findLocations", "@spider": "usps_collection_boxes", "addr:city": "BIRMINGHAM", "addr:country": "US", "addr:postcode": "35209", "addr:state": "AL", "addr:street_address": "813 GREEN SPRINGS HWY", "amenity": "post_box", "collection_times": "Mo-Fr 17:00; Sa 14:00", "indoor": "yes", "note": "ON 12/24 AND 12/31, THIS BOX MAY BE COLLECTED AS EARLY AS 12 NOON.", "nsi_id": "unitedstatespostalservice-a77078", "operator": "United States Postal Service", "operator:short": "USPS", "operator:type": "public", "operator:wikidata": "Q668687", "ref": "3520900121"}, "type": "Feature"}
{"geometry": {"coordinates": [-86.791826869, 33.482180902], "type": "Point"}, "id": "UersDC_viBd1OcsgvUHwREIUBEQ=", "properties": {"@source_uri": "https://tools.usps.com/UspsToolsRestServices/rest/POLocator/findLocations", "@spider": "usps_collection_boxes", "addr:city": "BIRMINGHAM", "addr:country": "US", "addr:postcode": "35209", "addr:state": "AL", "addr:street_address": "2710 18TH ST S", "amenity": "post_box", "collection_times": "Mo-Fr 17:00; Sa 14:00", "indoor": "yes", "note": "ON 12/24 AND 12/31, THIS BOX MAY BE COLLECTED AS EARLY AS 12 NOON.", "nsi_id": "unitedstatespostalservice-a77078", "operator": "United States Postal Service", "operator:short": "USPS", "operator:type": "public", "operator:wikidata": "Q668687", "ref": "3520900122"}, "type": "Feature"}
{"geometry": {"coordinates": [-86.690241, 33.540948], "type": "Point"}, "id": "GFD9Aq-vn1TwtSbLqyZGfU0bbkU=", "properties": {"@source_uri": "https://tools.usps.com/UspsToolsRestServices/rest/POLocator/findLocations", "@spider": "usps_collection_boxes", "addr:city": "IRONDALE", "addr:country": "US", "addr:postcode": "35210", "addr:state": "AL", "addr:street_address": "2730 CRESTWOOD BLVD", "amenity": "post_box", "collection_times": "Mo-Fr 17:00; Sa 14:00", "note": "ON 12/24 AND 12/31, THIS BOX MAY BE COLLECTED AS EARLY AS 12 NOON.", "nsi_id": "unitedstatespostalservice-a77078", "operator": "United States Postal Service", "operator:short": "USPS", "operator:type": "public", "operator:wikidata": "Q668687", "ref": "3521000002"}, "type": "Feature"}
{"geometry": {"coordinates": [-86.7307783, 33.521304], "type": "Point"}, "id": "7HiItDCcRk_Abymh-pwPu5td2fs=", "properties": {"@source_uri": "https://tools.usps.com/UspsToolsRestServices/rest/POLocator/findLocations", "@spider": "usps_collection_boxes", "addr:city": "IRONDALE", "addr:country": "US", "addr:postcode": "35210", "addr:state": "AL", "addr:street_address": "1325 MONTCLAIR RD", "amenity": "post_box", "collection_times": "Mo-Fr 13:00", "note": "ON 12/24 AND 12/31, THIS BOX MAY BE COLLECTED AS EARLY AS 12 NOON.", "nsi_id": "unitedstatespostalservice-a77078", "operator": "United States Postal Service", "operator:short": "USPS", "operator:type": "public", "operator:wikidata": "Q668687", "ref": "3521000005"}, "type": "Feature"}
{"geometry": {"coordinates": [-86.7025129, 33.534593], "type": "Point"}, "id": "de5bfFijFsa5k6QLnp1vYNvc2xk=", "properties": {"@source_uri": "https://tools.usps.com/UspsToolsRestServices/rest/POLocator/findLocations", "@spider": "usps_collection_boxes", "addr:city": "IRONDALE", "addr:country": "US", "addr:postcode": "35210", "addr:state": "AL", "addr:street_address": "1900 CRESTWOOD BLVD", "amenity": "post_box", "collection_times": "Mo-Fr 15:00", "note": "ON 12/24 AND 12/31, THIS BOX MAY BE COLLECTED AS EARLY AS 12 NOON.", "nsi_id": "unitedstatespostalservice-a77078", "operator": "United States Postal Service", "operator:short": "USPS", "operator:type": "public", "operator:wikidata": "Q668687", "ref": "3521000008"}, "type": "Feature"}
{"geometry": {"coordinates": [-86.690241, 33.540948], "type": "Point"}, "id": "DZlF3RF_fzjc9-nVVHcz3rshIpQ=", "properties": {"@source_uri": "https://tools.usps.com/UspsToolsRestServices/rest/POLocator/findLocations", "@spider": "usps_collection_boxes", "addr:city": "IRONDALE", "addr:country": "US", "addr:postcode": "35210", "addr:state": "AL", "addr:street_address": "2730 CRESTWOOD BLVD", "amenity": "post_box", "collection_times": "Mo-Fr 17:00; Sa 14:00", "indoor": "yes", "note": "ON 12/24 AND 12/31, THIS BOX MAY BE COLLECTED AS EARLY AS 12 NOON.", "nsi_id": "unitedstatespostalservice-a77078", "operator": "United States Postal Service", "operator:short": "USPS", "operator:type": "public", "operator:wikidata": "Q668687", "ref": "3521000025"}, "type": "Feature"}
{"geometry": {"coordinates": [-86.690241, 33.540948], "type": "Point"}, "id": "vZ5cEscDFTSl1ZLVvJtN_PnTDaM=", "properties": {"@source_uri": "https://tools.usps.com/UspsToolsRestServices/rest/POLocator/findLocations", "@spider": "usps_collection_boxes", "addr:city": "IRONDALE", "addr:country": "US", "addr:postcode": "35210", "addr:state": "AL", "addr:street_address": "2730 CRESTWOOD BLVD", "amenity": "post_box", "collection_times": "Mo-Fr 17:00; Sa 14:00", "indoor": "yes", "note": "ON 12/24 AND 12/31, THIS BOX MAY BE COLLECTED AS EARLY AS 12 NOON.", "nsi_id": "unitedstatespostalservice-a77078", "operator": "United States Postal Service", "operator:short": "USPS", "operator:type": "public", "operator:wikidata": "Q668687", "ref": "3521000026"}, "type": "Feature"}
{"geometry": {"coordinates": [-86.690241108, 33.540993959], "type": "Point"}, "id": "KDB26oRYtltsGW_fQhtTNk0fUlQ=", "properties": {"@source_uri": "https://tools.usps.com/UspsToolsRestServices/rest/POLocator/findLocations", "@spider": "usps_collection_boxes", "addr:city": "IRONDALE", "addr:country": "US", "addr:postcode": "35210", "addr:state": "AL", "addr:street_address": "2730 CRESTWOOD BLVD", "amenity": "post_box", "collection_times": "Mo-Fr 16:30; Sa 12:00", "indoor": "yes", "note": "ON 12/24 AND 12/31, THIS BOX MAY BE COLLECTED AS EARLY AS 12 NOON.", "nsi_id": "unitedstatespostalservice-a77078", "operator": "United States Postal Service", "operator:short": "USPS", "operator:type": "public", "operator:wikidata": "Q668687", "ref": "3521000029"}, "type": "Feature"}
{"geometry": {"coordinates": [-86.854595, 33.492065], "type": "Point"}, "id": "kisEYquewI66Yn6EX6-6E4RJtIs=", "properties": {"@source_uri": "https://tools.usps.com/UspsToolsRestServices/rest/POLocator/findLocations", "@spider": "usps_collection_boxes", "addr:city": "BIRMINGHAM", "addr:country": "US", "addr:postcode": "35211", "addr:state": "AL", "addr:street_address": "1337 TUSCALOOSA AVE SW", "amenity": "post_box", "collection_times": "Mo-Fr 17:00; Sa 16:00", "note": "ON 12/24 AND 12/31, THIS BOX MAY BE COLLECTED AS EARLY AS 12 NOON.", "nsi_id": "unitedstatespostalservice-a77078", "operator": "United States Postal Service", "operator:short": "USPS", "operator:type": "public", "operator:wikidata": "Q668687", "ref": "3521100000"}, "type": "Feature"}
{"geometry": {"coordinates": [-86.8447578, 33.460478], "type": "Point"}, "id": "6DUEtwmN67lZPkVe12IhvftyvaM=", "properties": {"@source_uri": "https://tools.usps.com/UspsToolsRestServices/rest/POLocator/findLocations", "@spider": "usps_collection_boxes", "addr:city": "BIRMINGHAM", "addr:country": "US", "addr:postcode": "35211", "addr:state": "AL", "addr:street_address": "1 W PARK DR", "amenity": "post_box", "collection_times": "Mo-Fr 12:00", "nsi_id": "unitedstatespostalservice-a77078", "operator": "United States Postal Service", "operator:short": "USPS", "operator:type": "public", "operator:wikidata": "Q668687", "ref": "3521100018"}, "type": "Feature"}
{"geometry": {"coordinates": [-86.8547312, 33.492168], "type": "Point"}, "id": "cjsnrVXP5ifwO4KBN17x0NWb8qU=", "properties": {"@source_uri": "https://tools.usps.com/UspsToolsRestServices/rest/POLocator/findLocations", "@spider": "usps_collection_boxes", "addr:city": "BIRMINGHAM", "addr:country": "US", "addr:postcode": "35211", "addr:state": "AL", "addr:street_address": "1337 TUSCALOOSA AVE SW", "amenity": "post_box", "collection_times": "Mo-Fr 17:00; Sa 16:00", "indoor": "yes", "note": "ON 12/24 AND 12/31, THIS BOX MAY BE COLLECTED AS EARLY AS 12 NOON.", "nsi_id": "unitedstatespostalservice-a77078", "operator": "United States Postal Service", "operator:short": "USPS", "operator:type": "public", "operator:wikidata": "Q668687", "ref": "3521100024"}, "type": "Feature"}
{"geometry": {"coordinates": [-86.8489429, 33.432858], "type": "Point"}, "id": "0N9obKfNEV1ImIHRpy28ETnjAyM=", "properties": {"@source_uri": "https://tools.usps.com/UspsToolsRestServices/rest/POLocator/findLocations", "@spider": "usps_collection_boxes", "addr:city": "BIRMINGHAM", "addr:country": "US", "addr:postcode": "35211", "addr:state": "AL", "addr:street_address": "801 TOM MARTIN DR", "amenity": "post_box", "collection_times": "Mo-Fr 12:00", "nsi_id": "unitedstatespostalservice-a77078", "operator": "United States Postal Service", "operator:short": "USPS", "operator:type": "public", "operator:wikidata": "Q668687", "ref": "3521100025"}, "type": "Feature"}
{"geometry": {"coordinates": [-86.8509346, 33.452153], "type": "Point"}, "id": "GNsCwIfscOw09Vq4r0p21rO_-ic=", "properties": {"@source_uri": "https://tools.usps.com/UspsToolsRestServices/rest/POLocator/findLocations", "@spider": "usps_collection_boxes", "addr:city": "BIRMINGHAM", "addr:country": "US", "addr:postcode": "35211", "addr:state": "AL", "addr:street_address": "136 INDUSTRIAL DR", "amenity": "post_box", "collection_times": "Mo-Fr 12:00", "nsi_id": "unitedstatespostalservice-a77078", "operator": "United States Postal Service", "operator:short": "USPS", "operator:type": "public", "operator:wikidata": "Q668687", "ref": "3521100026"}, "type": "Feature"}
{"geometry": {"coordinates": [-86.854724967, 33.492419731], "type": "Point"}, "id": "J26s8RqH9q8_-jYCtiOIM2ukhtw=", "properties": {"@source_uri": "https://tools.usps.com/UspsToolsRestServices/rest/POLocator/findLocations", "@spider": "usps_collection_boxes", "addr:city": "BIRMINGHAM", "addr:country": "US", "addr:postcode": "35211", "addr:state": "AL", "addr:street_address": "1337 TUSCALOOSA AVE SW", "amenity": "post_box", "collection_times": "Mo-Fr 17:00; Sa 12:00", "indoor": "yes", "note": "ON 12/24 AND 12/31, THIS BOX MAY BE COLLECTED AS EARLY AS 12 NOON.", "nsi_id": "unitedstatespostalservice-a77078", "operator": "United States Postal Service", "operator:short": "USPS", "operator:type": "public", "operator:wikidata": "Q668687", "ref": "3521100035"}, "type": "Feature"}
{"geometry": {"coordinates": [-86.7567029, 33.538426], "type": "Point"}, "id": "vLxbjjseZresQbfK0p4CV1ro-4Y=", "properties": {"@source_uri": "https://tools.usps.com/UspsToolsRestServices/rest/POLocator/findLocations", "@spider": "usps_collection_boxes", "addr:city": "BIRMINGHAM", "addr:country": "US", "addr:postcode": "35212", "addr:state": "AL", "addr:street_address": "5310 1ST AVE N", "amenity": "post_box", "collection_times": "Mo-Fr 17:00; Sa 16:00", "note": "ON 12/24 AND 12/31, THIS BOX MAY BE COLLECTED AS EARLY AS 12 NOON.", "nsi_id": "unitedstatespostalservice-a77078", "operator": "United States Postal Service", "operator:short": "USPS", "operator:type": "public", "operator:wikidata": "Q668687", "ref": "3521200000"}, "type": "Feature"}
{"geometry": {"coordinates": [-86.7472293, 33.529813], "type": "Point"}, "id": "L1G3F15EtT1bC06mXfX0v_fHinc=", "properties": {"@source_uri": "https://tools.usps.com/UspsToolsRestServices/rest/POLocator/findLocations", "@spider": "usps_collection_boxes", "addr:city": "BIRMINGHAM", "addr:country": "US", "addr:postcode": "35212", "addr:state": "AL", "addr:street_address": "5504 CRESTWOOD BLVD", "amenity": "post_box", "collection_times": "Mo-Fr 10:30", "nsi_id": "unitedstatespostalservice-a77078", "operator": "United States Postal Service", "operator:short": "USPS", "operator:type": "public", "operator:wikidata": "Q668687", "ref": "3521200007"}, "type": "Feature"}
{"geometry": {"coordinates": [-86.7560589, 33.538427], "type": "Point"}, "id": "JcXMIntWOtkhSHvxNWIOPYJGDNw=", "properties": {"@source_uri": "https://tools.usps.com/UspsToolsRestServices/rest/POLocator/findLocations", "@spider": "usps_collection_boxes", "addr:city": "BIRMINGHAM", "addr:country": "US", "addr:postcode": "35212", "addr:state": "AL", "addr:street_address": "5310 1ST AVE N", "amenity": "post_box", "collection_times": "Mo-Fr 17:00; Sa 16:00", "indoor": "yes", "note": "ON 12/24 AND 12/31, THIS BOX MAY BE COLLECTED AS EARLY AS 12 NOON.", "nsi_id": "unitedstatespostalservice-a77078", "operator": "United States Postal Service", "operator:short": "USPS", "operator:type": "public", "operator:wikidata": "Q668687", "ref": "3521200021"}, "type": "Feature"}
{"geometry": {"coordinates": [-86.755735041, 33.538165394], "type": "Point"}, "id": "4ckiaQ_WLWrS3M8PfjEIsqKnwZ4=", "properties": {"@source_uri": "https://tools.usps.com/UspsToolsRestServices/rest/POLocator/findLocations", "@spider": "usps_collection_boxes", "addr:city": "BIRMINGHAM", "addr:country": "US", "addr:postcode": "35212", "addr:state": "AL", "addr:street_address": "5310 1ST AVE N", "amenity": "post_box", "collection_times": "Mo-Fr 17:00; Sa 12:00", "indoor": "yes", "note": "ON 12/24 AND 12/31, THIS BOX MAY BE COLLECTED AS EARLY AS 12 NOON.", "nsi_id": "unitedstatespostalservice-a77078", "operator": "United States Postal Service", "operator:short": "USPS", "operator:type": "public", "operator:wikidata": "Q668687", "ref": "3521200027"}, "type": "Feature"}
{"geometry": {"coordinates": [-86.762026, 33.506441], "type": "Point"}, "id": "Uj9bjxkqeyrrs7p1RUxV4NUjbfw=", "properties": {"@source_uri": "https://tools.usps.com/UspsToolsRestServices/rest/POLocator/findLocations", "@spider": "usps_collection_boxes", "addr:city": "MOUNTAIN BRK", "addr:country": "US", "addr:postcode": "35213", "addr:state": "AL", "addr:street_address": "3900 MONTCLAIR RD", "amenity": "post_box", "collection_times": "Mo-Fr 17:00; Sa 14:15", "note": "ON 12/24 AND 12/31, THIS BOX MAY BE COLLECTED AS EARLY AS 12 NOON.", "nsi_id": "unitedstatespostalservice-a77078", "operator": "United States Postal Service", "operator:short": "USPS", "operator:type": "public", "operator:wikidata": "Q668687", "ref": "3521300000"}, "type": "Feature"}
{"geometry": {"coordinates": [-86.7574879, 33.509045], "type": "Point"}, "id": "lVLWZSuH3_6_Y-BGmQsKsj3zSW4=", "properties": {"@source_uri": "https://tools.usps.com/UspsToolsRestServices/rest/POLocator/findLocations", "@spider": "usps_collection_boxes", "addr:city": "MOUNTAIN BRK", "addr:country": "US", "addr:postcode": "35213", "addr:state": "AL", "addr:street_address": "3940 MONTCLAIR RD", "amenity": "post_box", "collection_times": "Mo-Fr 13:30", "note": "ON 12/24 AND 12/31, THIS BOX MAY BE COLLECTED AS EARLY AS 12 NOON.", "nsi_id": "unitedstatespostalservice-a77078", "operator": "United States Postal Service", "operator:short": "USPS", "operator:type": "public", "operator:wikidata": "Q668687", "ref": "3521300004"}, "type": "Feature"}
{"geometry": {"coordinates": [-86.7551008, 33.501893], "type": "Point"}, "id": "QPJorTqsdfR4RVNoPsvkhA9VNQ0=", "properties": {"@source_uri": "https://tools.usps.com/UspsToolsRestServices/rest/POLocator/findLocations", "@spider": "usps_collection_boxes", "addr:city": "MOUNTAIN BRK", "addr:country": "US", "addr:postcode": "35213", "addr:state": "AL", "addr:street_address": "49 CHURCH ST", "amenity": "post_box", "collection_times": "Mo-Fr 10:30", "nsi_id": "unitedstatespostalservice-a77078", "operator": "United States Postal Service", "operator:short": "USPS", "operator:type": "public", "operator:wikidata": "Q668687", "ref": "3521300005"}, "type": "Feature"}
{"geometry": {"coordinates": [-86.7429722, 33.518168], "type": "Point"}, "id": "dv7cNft4TnZgsFv0KCiI-LmoMno=", "properties": {"@source_uri": "https://tools.usps.com/UspsToolsRestServices/rest/POLocator/findLocations", "@spider": "usps_collection_boxes", "addr:city": "MOUNTAIN BRK", "addr:country": "US", "addr:postcode": "35213", "addr:state": "AL", "addr:street_address": "924 MONTCLAIR RD", "amenity": "post_box", "collection_times": "Mo-Fr 13:30", "note": "ON 12/24 AND 12/31, THIS BOX MAY BE COLLECTED AS EARLY AS 12 NOON.", "nsi_id": "unitedstatespostalservice-a77078", "operator": "United States Postal Service", "operator:short": "USPS", "operator:type": "public", "operator:wikidata": "Q668687", "ref": "3521300013"}, "type": "Feature"}
{"geometry": {"coordinates": [-86.762026, 33.506441], "type": "Point"}, "id": "nV5Aad6KHlYiAFq3bqnIl_JnDaA=", "properties": {"@source_uri": "https://tools.usps.com/UspsToolsRestServices/rest/POLocator/findLocations", "@spider": "usps_collection_boxes", "addr:city": "MOUNTAIN BRK", "addr:country": "US", "addr:postcode": "35213", "addr:state": "AL", "addr:street_address": "3900 MONTCLAIR RD", "amenity": "post_box", "collection_times": "Mo-Fr 17:00; Sa 14:15", "indoor": "yes", "note": "ON 12/24 AND 12/31, THIS BOX MAY BE COLLECTED AS EARLY AS 12 NOON.", "nsi_id": "unitedstatespostalservice-a77078", "operator": "United States Postal Service", "operator:short": "USPS", "operator:type": "public", "operator:wikidata": "Q668687", "ref": "3521300019"}, "type": "Feature"}
{"geometry": {"coordinates": [-86.762026, 33.506441], "type": "Point"}, "id": "UVna7caCoEcvfmtImHWt0xwOj2Q=", "properties": {"@source_uri": "https://tools.usps.com/UspsToolsRestServices/rest/POLocator/findLocations", "@spider": "usps_collection_boxes", "addr:city": "MOUNTAIN BRK", "addr:country": "US", "addr:postcode": "35213", "addr:state": "AL", "addr:street_address": "3900 MONTCLAIR RD", "amenity": "post_box", "collection_times": "Mo-Fr 17:00; Sa 14:15", "indoor": "yes", "note": "ON 12/24 AND 12/31, THIS BOX MAY BE COLLECTED AS EARLY AS 12 NOON.", "nsi_id": "unitedstatespostalservice-a77078", "operator": "United States Postal Service", "operator:short": "USPS", "operator:type": "public", "operator:wikidata": "Q668687", "ref": "3521300021"}, "type": "Feature"}
{"geometry": {"coordinates": [-86.761708278, 33.506277586], "type": "Point"}, "id": "wkqhRReGybtuvn4CZpVN3OxjBtM=", "properties": {"@source_uri": "https://tools.usps.com/UspsToolsRestServices/rest/POLocator/findLocations", "@spider": "usps_collection_boxes", "addr:city": "MOUNTAIN BRK", "addr:country": "US", "addr:postcode": "35213", "addr:state": "AL", "addr:street_address": "3900 MONTCLAIR RD FL 1", "amenity": "post_box", "collection_times": "Mo-Fr 17:00; Sa 14:00", "indoor": "yes", "note": "ON 12/24 AND 12/31, THIS BOX MAY BE COLLECTED AS EARLY AS 12 NOON.", "nsi_id": "unitedstatespostalservice-a77078", "operator": "United States Postal Service", "operator:short": "USPS", "operator:type": "public", "operator:wikidata": "Q668687", "ref": "3521300023"}, "type": "Feature"}
{"geometry": {"coordinates": [-86.88082, 33.5363418], "type": "Point"}, "id": "88sW1vw0J-1zQTmPhuL880HZK04=", "properties": {"@source_uri": "https://tools.usps.com/UspsToolsRestServices/rest/POLocator/findLocations", "@spider": "usps_collection_boxes", "addr:city": "BIRMINGHAM", "addr:country": "US", "addr:postcode": "35214", "addr:state": "AL", "addr:street_address": "1450 FORESTDALE BLVD", "amenity": "post_box", "collection_times": "Mo-Fr 17:00; Sa 16:15", "note": "ON 12/24 AND 12/31, THIS BOX MAY BE COLLECTED AS EARLY AS 12 NOON.", "nsi_id": "unitedstatespostalservice-a77078", "operator": "United States Postal Service", "operator:short": "USPS", "operator:type": "public", "operator:wikidata": "Q668687", "ref": "3521400000"}, "type": "Feature"}
{"geometry": {"coordinates": [-86.895245, 33.564261], "type": "Point"}, "id": "T8pNMwD3z2ZlspdV_5Od4OxOQLg=", "properties": {"@source_uri": "https://tools.usps.com/UspsToolsRestServices/rest/POLocator/findLocations", "@spider": "usps_collection_boxes", "addr:city": "BIRMINGHAM", "addr:country": "US", "addr:postcode": "35214", "addr:state": "AL", "addr:street_address": "1450 FORESTDALE BLVD", "amenity": "post_box", "collection_times": "Mo-Fr 17:00; Sa 16:15", "indoor": "yes", "note": "ON 12/24 AND 12/31, THIS BOX MAY BE COLLECTED AS EARLY AS 12 NOON.", "nsi_id": "unitedstatespostalservice-a77078", "operator": "United States Postal Service", "operator:short": "USPS", "operator:type": "public", "operator:wikidata": "Q668687", "ref": "3521400018"}, "type": "Feature"}
{"geometry": {"coordinates": [-86.895224844, 33.564226971], "type": "Point"}, "id": "WOYTA23wFvmGr32UeJ2T6EHuyKM=", "properties": {"@source_uri": "https://tools.usps.com/UspsToolsRestServices/rest/POLocator/findLocations", "@spider": "usps_collection_boxes", "addr:city": "BIRMINGHAM", "addr:country": "US", "addr:postcode": "35214", "addr:state": "AL", "addr:street_address": "1450 FORESTDALE BLVD", "amenity": "post_box", "collection_times": "Mo-Fr 17:00; Sa 14:00", "indoor": "yes", "note": "ON 12/24 AND 12/31, THIS BOX MAY BE COLLECTED AS EARLY AS 12 NOON.", "nsi_id": "unitedstatespostalservice-a77078", "operator": "United States Postal Service", "operator:short": "USPS", "operator:type": "public", "operator:wikidata": "Q668687", "ref": "3521400020"}, "type": "Feature"}
{"geometry": {"coordinates": [-86.6827928, 33.648277], "type": "Point"}, "id": "mwQJaABhqxNl0n_yRv6h5b0R09Q=", "properties": {"@source_uri": "https://tools.usps.com/UspsToolsRestServices/rest/POLocator/findLocations", "@spider": "usps_collection_boxes", "addr:city": "CENTER POINT", "addr:country": "US", "addr:postcode": "35215", "addr:state": "AL", "addr:street_address": "2365 1ST ST NE", "amenity": "post_box", "collection_times": "Mo-Fr 17:00; Sa 15:30", "note": "ON 12/24 AND 12/31, THIS BOX MAY BE COLLECTED AS EARLY AS 12 NOON.", "nsi_id": "unitedstatespostalservice-a77078", "operator": "United States Postal Service", "operator:short": "USPS", "operator:type": "public", "operator:wikidata": "Q668687", "ref": "3521500001"}, "type": "Feature"}
{"geometry": {"coordinates": [-86.6809889, 33.587412], "type": "Point"}, "id": "qAHD6TcCLQDjGJOT2ulgJAngz28=", "properties": {"@source_uri": "https://tools.usps.com/UspsToolsRestServices/rest/POLocator/findLocations", "@spider": "usps_collection_boxes", "addr:city": "CENTER POINT", "addr:country": "US", "addr:postcode": "35215", "addr:state": "AL", "addr:street_address": "1100 EAST PARK DR", "amenity": "post_box", "collection_times": "Mo-Fr 12:00", "nsi_id": "unitedstatespostalservice-a77078", "operator": "United States Postal Service", "operator:short": "USPS", "operator:type": "public", "operator:wikidata": "Q668687", "ref": "3521500006"}, "type": "Feature"}
{"geometry": {"coordinates": [-86.6982927, 33.587335], "type": "Point"}, "id": "HisHFxsxstcDRakF_pzNQkc27eE=", "properties": {"@source_uri": "https://tools.usps.com/UspsToolsRestServices/rest/POLocator/findLocations", "@spider": "usps_collection_boxes", "addr:city": "CENTER POINT", "addr:country": "US", "addr:postcode": "35215", "addr:state": "AL", "addr:street_address": "213 GADSDEN HWY", "amenity": "post_box", "collection_times": "Mo-Fr 11:00", "nsi_id": "unitedstatespostalservice-a77078", "operator": "United States Postal Service", "operator:short": "USPS", "operator:type": "public", "operator:wikidata": "Q668687", "ref": "3521500013"}, "type": "Feature"}
{"geometry": {"coordinates": [-86.6675572, 33.595045], "type": "Point"}, "id": "yxkvJJI-1f8cg-P7g7o5p3EvwaY=", "properties": {"@source_uri": "https://tools.usps.com/UspsToolsRestServices/rest/POLocator/findLocations", "@spider": "usps_collection_boxes", "addr:city": "CENTER POINT", "addr:country": "US", "addr:postcode": "35215", "addr:state": "AL", "addr:street_address": "48 MEDICAL PARK DR E", "amenity": "post_box", "collection_times": "Mo-Fr 11:00", "nsi_id": "unitedstatespostalservice-a77078", "operator": "United States Postal Service", "operator:short": "USPS", "operator:type": "public", "operator:wikidata": "Q668687", "ref": "3521500026"}, "type": "Feature"}
{"geometry": {"coordinates": [-86.6230233134, 33.6406784328], "type": "Point"}, "id": "SFD2Wo275q1g0xepnIRDE6P7-qo=", "properties": {"@source_uri": "https://tools.usps.com/UspsToolsRestServices/rest/POLocator/findLocations", "@spider": "usps_collection_boxes", "addr:city": "CENTER POINT", "addr:country": "US", "addr:postcode": "35215", "addr:state": "AL", "addr:street_address": "5980 CHALKVILLE MOUNTAIN RD", "amenity": "post_box", "collection_times": "Mo-Fr 11:00", "nsi_id": "unitedstatespostalservice-a77078", "operator": "United States Postal Service", "operator:short": "USPS", "operator:type": "public", "operator:wikidata": "Q668687", "ref": "3521500030"}, "type": "Feature"}
{"geometry": {"coordinates": [-86.681873, 33.64584], "type": "Point"}, "id": "y-DbZxdZKoxVhdIwryB-RqX8zN0=", "properties": {"@source_uri": "https://tools.usps.com/UspsToolsRestServices/rest/POLocator/findLocations", "@spider": "usps_collection_boxes", "addr:city": "CENTER POINT", "addr:country": "US", "addr:postcode": "35215", "addr:state": "AL", "addr:street_address": "2365 1ST ST NE", "amenity": "post_box", "collection_times": "Mo-Fr 17:00; Sa 15:30", "indoor": "yes", "note": "ON 12/24 AND 12/31, THIS BOX MAY BE COLLECTED AS EARLY AS 12 NOON.", "nsi_id": "unitedstatespostalservice-a77078", "operator": "United States Postal Service", "operator:short": "USPS", "operator:type": "public", "operator:wikidata": "Q668687", "ref": "3521500032"}, "type": "Feature"}
{"geometry": {"coordinates": [-86.6338877, 33.606403], "type": "Point"}, "id": "-66mL6u1iv7_T137erzCStvxRa0=", "properties": {"@source_uri": "https://tools.usps.com/UspsToolsRestServices/rest/POLocator/findLocations", "@spider": "usps_collection_boxes", "addr:city": "CENTER POINT", "addr:country": "US", "addr:postcode": "35215", "addr:state": "AL", "addr:street_address": "3504 VANN RD", "amenity": "post_box", "collection_times": "Mo-Fr 12:00", "nsi_id": "unitedstatespostalservice-a77078", "operator": "United States Postal Service", "operator:short": "USPS", "operator:type": "public", "operator:wikidata": "Q668687", "ref": "3521500034"}, "type": "Feature"}
{"geometry": {"coordinates": [-86.6663853, 33.596772], "type": "Point"}, "id": "86HCQiJUT6-J3EO4daBBetlsPWE=", "properties": {"@source_uri": "https://tools.usps.com/UspsToolsRestServices/rest/POLocator/findLocations", "@spider": "usps_collection_boxes", "addr:city": "CENTER POINT", "addr:country": "US", "addr:postcode": "35215", "addr:state": "AL", "addr:street_address": "52 MEDICAL PARK DR E", "amenity": "post_box", "collection_times": "Mo-Fr 11:00", "nsi_id": "unitedstatespostalservice-a77078", "operator": "United States Postal Service", "operator:short": "USPS", "operator:type": "public", "operator:wikidata": "Q668687", "ref": "3521500036"}, "type": "Feature"}
{"geometry": {"coordinates": [-86.681850719, 33.645815873], "type": "Point"}, "id": "PPFJzthRc8vAFZkh3_iF6PtuZcM=", "properties": {"@source_uri": "https://tools.usps.com/UspsToolsRestServices/rest/POLocator/findLocations", "@spider": "usps_collection_boxes", "addr:city": "CENTER POINT", "addr:country": "US", "addr:postcode": "35215", "addr:state": "AL", "addr:street_address": "2365 1ST ST NE", "amenity": "post_box", "collection_times": "Mo-Fr 17:00; Sa 14:00", "indoor": "yes", "note": "ON 12/24 AND 12/31, THIS BOX MAY BE COLLECTED AS EARLY AS 12 NOON.", "nsi_id": "unitedstatespostalservice-a77078", "operator": "United States Postal Service", "operator:short": "USPS", "operator:type": "public", "operator:wikidata": "Q668687", "ref": "3521500041"}, "type": "Feature"}
{"geometry": {"coordinates": [-86.7964873, 33.415093], "type": "Point"}, "id": "84qa1od3i-UGy5AlGiuc4KkxA00=", "properties": {"@source_uri": "https://tools.usps.com/UspsToolsRestServices/rest/POLocator/findLocations", "@spider": "usps_collection_boxes", "addr:city": "VESTAVIA", "addr:country": "US", "addr:postcode": "35216", "addr:state": "AL", "addr:street_address": "100 CENTERVIEW DR", "amenity": "post_box", "collection_times": "Mo-Fr 11:00", "nsi_id": "unitedstatespostalservice-a77078", "operator": "United States Postal Service", "operator:short": "USPS", "operator:type": "public", "operator:wikidata": "Q668687", "ref": "3521600008"}, "type": "Feature"}
{"geometry": {"coordinates": [-86.8081039, 33.408496], "type": "Point"}, "id": "p1HPPSCWlZdQFw2ZE7wdIj8SMbE=", "properties": {"@source_uri": "https://tools.usps.com/UspsToolsRestServices/rest/POLocator/findLocations", "@spider": "usps_collection_boxes", "addr:city": "VESTAVIA", "addr:country": "US", "addr:postcode": "35216", "addr:state": "AL", "addr:street_address": "1550 MONTGOMERY HWY", "amenity": "post_box", "collection_times": "Mo-Fr 11:30", "nsi_id": "unitedstatespostalservice-a77078", "operator": "United States Postal Service", "operator:short": "USPS", "operator:type": "public", "operator:wikidata": "Q668687", "ref": "3521600011"}, "type": "Feature"}
{"geometry": {"coordinates": [-86.8076441, 33.40568], "type": "Point"}, "id": "xrDGGtQLq-5IB5mnh_mPIhha1Ik=", "properties": {"@source_uri": "https://tools.usps.com/UspsToolsRestServices/rest/POLocator/findLocations", "@spider": "usps_collection_boxes", "addr:city": "VESTAVIA", "addr:country": "US", "addr:postcode": "35216", "addr:state": "AL", "addr:street_address": "1572 MONTGOMERY HWY", "amenity": "post_box", "collection_times": "Mo-Fr 11:30", "nsi_id": "unitedstatespostalservice-a77078", "operator": "United States Postal Service", "operator:short": "USPS", "operator:type": "public", "operator:wikidata": "Q668687", "ref": "3521600014"}, "type": "Feature"}
{"geometry": {"coordinates": [-86.8067477, 33.396425], "type": "Point"}, "id": "iZMKVR0hQ1KLoCq7CC5AxAvme5U=", "properties": {"@source_uri": "https://tools.usps.com/UspsToolsRestServices/rest/POLocator/findLocations", "@spider": "usps_collection_boxes", "addr:city": "VESTAVIA", "addr:country": "US", "addr:postcode": "35216", "addr:state": "AL", "addr:street_address": "1634A MONTGOMERY HWY", "amenity": "post_box", "collection_times": "Mo-Fr 14:30", "note": "ON 12/24 AND 12/31, THIS BOX MAY BE COLLECTED AS EARLY AS 12 NOON.", "nsi_id": "unitedstatespostalservice-a77078", "operator": "United States Postal Service", "operator:short": "USPS", "operator:type": "public", "operator:wikidata": "Q668687", "ref": "3521600017"}, "type": "Feature"}
{"geometry": {"coordinates": [-86.8023294, 33.397657], "type": "Point"}, "id": "-pGVwBdCqWVNRzpeNE60F-9HOm0=", "properties": {"@source_uri": "https://tools.usps.com/UspsToolsRestServices/rest/POLocator/findLocations", "@spider": "usps_collection_boxes", "addr:city": "VESTAVIA", "addr:country": "US", "addr:postcode": "35216", "addr:state": "AL", "addr:street_address": "210 LORNA SQ", "amenity": "post_box", "collection_times": "Mo-Fr 14:30", "note": "ON 12/24 AND 12/31, THIS BOX MAY BE COLLECTED AS EARLY AS 12 NOON.", "nsi_id": "unitedstatespostalservice-a77078", "operator": "United States Postal Service", "operator:short": "USPS", "operator:type": "public", "operator:wikidata": "Q668687", "ref": "3521600023"}, "type": "Feature"}
{"geometry": {"coordinates": [-86.7908899, 33.400386], "type": "Point"}, "id": "gxtBva_z0Ioqap7-ZjYcs7MZTDA=", "properties": {"@source_uri": "https://tools.usps.com/UspsToolsRestServices/rest/POLocator/findLocations", "@spider": "usps_collection_boxes", "addr:city": "VESTAVIA", "addr:country": "US", "addr:postcode": "35216", "addr:state": "AL", "addr:street_address": "2228 ROCKY RIDGE RD", "amenity": "post_box", "collection_times": "Mo-Fr 12:00", "nsi_id": "unitedstatespostalservice-a77078", "operator": "United States Postal Service", "operator:short": "USPS", "operator:type": "public", "operator:wikidata": "Q668687", "ref": "3521600025"}, "type": "Feature"}
{"geometry": {"coordinates": [-86.8070778, 33.419501], "type": "Point"}, "id": "LiYfIGOT_QMqEars7-cXOYXd_Ag=", "properties": {"@source_uri": "https://tools.usps.com/UspsToolsRestServices/rest/POLocator/findLocations", "@spider": "usps_collection_boxes", "addr:city": "VESTAVIA", "addr:country": "US", "addr:postcode": "35216", "addr:state": "AL", "addr:street_address": "2410 YELLOW HAMMER HL", "amenity": "post_box", "collection_times": "Mo-Fr 11:30", "nsi_id": "unitedstatespostalservice-a77078", "operator": "United States Postal Service", "operator:short": "USPS", "operator:type": "public", "operator:wikidata": "Q668687", "ref": "3521600026"}, "type": "Feature"}
{"geometry": {"coordinates": [-86.7985013, 33.40783], "type": "Point"}, "id": "q9a74k0fOVali_T3n2_sE2HPNJM=", "properties": {"@source_uri": "https://tools.usps.com/UspsToolsRestServices/rest/POLocator/findLocations", "@spider": "usps_collection_boxes", "addr:city": "VESTAVIA", "addr:country": "US", "addr:postcode": "35216", "addr:state": "AL", "addr:street_address": "2870 REGAL CIR", "amenity": "post_box", "collection_times": "Mo-Fr 11:30", "nsi_id": "unitedstatespostalservice-a77078", "operator": "United States Postal Service", "operator:short": "USPS", "operator:type": "public", "operator:wikidata": "Q668687", "ref": "3521600027"}, "type": "Feature"}
{"geometry": {"coordinates": [-86.7962527, 33.419903], "type": "Point"}, "id": "-lCBXzVLp76OGtzmAXnqF2x7BBc=", "properties": {"@source_uri": "https://tools.usps.com/UspsToolsRestServices/rest/POLocator/findLocations", "@spider": "usps_collection_boxes", "addr:city": "VESTAVIA", "addr:country": "US", "addr:postcode": "35216", "addr:state": "AL", "addr:street_address": "300 VESTAVIA PKWY", "amenity": "post_box", "collection_times": "Mo-Fr 11:00", "nsi_id": "unitedstatespostalservice-a77078", "operator": "United States Postal Service", "operator:short": "USPS", "operator:type": "public", "operator:wikidata": "Q668687", "ref": "3521600028"}, "type": "Feature"}
{"geometry": {"coordinates": [-86.8043439, 33.401741], "type": "Point"}, "id": "J_9ZX3f3qUW78UktoJfMClqtqoo=", "properties": {"@source_uri": "https://tools.usps.com/UspsToolsRestServices/rest/POLocator/findLocations", "@spider": "usps_collection_boxes", "addr:city": "VESTAVIA", "addr:country": "US", "addr:postcode": "35216", "addr:state": "AL", "addr:street_address": "3100 LORNA RD", "amenity": "post_box", "collection_times": "Mo-Fr 14:30", "note": "ON 12/24 AND 12/31, THIS BOX MAY BE COLLECTED AS EARLY AS 12 NOON.", "nsi_id": "unitedstatespostalservice-a77078", "operator": "United States Postal Service", "operator:short": "USPS", "operator:type": "public", "operator:wikidata": "Q668687", "ref": "3521600030"}, "type": "Feature"}
{"geometry": {"coordinates": [-86.7987122, 33.391795], "type": "Point"}, "id": "7ggR3wqrE2SvHUN4t3-Vmvcuspw=", "properties": {"@source_uri": "https://tools.usps.com/UspsToolsRestServices/rest/POLocator/findLocations", "@spider": "usps_collection_boxes", "addr:city": "VESTAVIA", "addr:country": "US", "addr:postcode": "35216", "addr:state": "AL", "addr:street_address": "3400 LORNA RD", "amenity": "post_box", "collection_times": "Mo-Fr 12:00", "nsi_id": "unitedstatespostalservice-a77078", "operator": "United States Postal Service", "operator:short": "USPS", "operator:type": "public", "operator:wikidata": "Q668687", "ref": "3521600032"}, "type": "Feature"}
{"geometry": {"coordinates": [-86.7924499, 33.392586], "type": "Point"}, "id": "9gUKsKJTuQRAQhHW7UQssjZlK-o=", "properties": {"@source_uri": "https://tools.usps.com/UspsToolsRestServices/rest/POLocator/findLocations", "@spider": "usps_collection_boxes", "addr:city": "VESTAVIA", "addr:country": "US", "addr:postcode": "35216", "addr:state": "AL", "addr:street_address": "3600 LORNA RIDGE DR", "amenity": "post_box", "collection_times": "Mo-Fr 12:00", "nsi_id": "unitedstatespostalservice-a77078", "operator": "United States Postal Service", "operator:short": "USPS", "operator:type": "public", "operator:wikidata": "Q668687", "ref": "3521600033"}, "type": "Feature"}
{"geometry": {"coordinates": [-86.7975916, 33.418969], "type": "Point"}, "id": "deAXWVIc7aJYZjjHsC2uTIkEeZM=", "properties": {"@source_uri": "https://tools.usps.com/UspsToolsRestServices/rest/POLocator/findLocations", "@spider": "usps_collection_boxes", "addr:city": "VESTAVIA", "addr:country": "US", "addr:postcode": "35216", "addr:state": "AL", "addr:street_address": "400 VESTAVIA PKWY", "amenity": "post_box", "collection_times": "Mo-Fr 11:00", "nsi_id": "unitedstatespostalservice-a77078", "operator": "United States Postal Service", "operator:short": "USPS", "operator:type": "public", "operator:wikidata": "Q668687", "ref": "3521600037"}, "type": "Feature"}
{"geometry": {"coordinates": [-86.7976599, 33.417882], "type": "Point"}, "id": "pditsw4de3vaGsbfel0mh98Ct1E=", "properties": {"@source_uri": "https://tools.usps.com/UspsToolsRestServices/rest/POLocator/findLocations", "@spider": "usps_collection_boxes", "addr:city": "VESTAVIA", "addr:country": "US", "addr:postcode": "35216", "addr:state": "AL", "addr:street_address": "600 VESTAVIA PKWY", "amenity": "post_box", "collection_times": "Mo-Fr 11:00", "nsi_id": "unitedstatespostalservice-a77078", "operator": "United States Postal Service", "operator:short": "USPS", "operator:type": "public", "operator:wikidata": "Q668687", "ref": "3521600039"}, "type": "Feature"}
{"geometry": {"coordinates": [-86.7970655, 33.41626], "type": "Point"}, "id": "xUBKvhIfRjyQ0aeHp2u9eXkFW5c=", "properties": {"@source_uri": "https://tools.usps.com/UspsToolsRestServices/rest/POLocator/findLocations", "@spider": "usps_collection_boxes", "addr:city": "VESTAVIA", "addr:country": "US", "addr:postcode": "35216", "addr:state": "AL", "addr:street_address": "601 VESTAVIA PKWY", "amenity": "post_box", "collection_times": "Mo-Fr 11:00", "nsi_id": "unitedstatespostalservice-a77078", "operator": "United States Postal Service", "operator:short": "USPS", "operator:type": "public", "operator:wikidata": "Q668687", "ref": "3521600040"}, "type": "Feature"}
{"geometry": {"coordinates": [-86.8042811, 33.424065], "type": "Point"}, "id": "dVerHHHhqJwhZ-WPxdawkG-6F_0=", "properties": {"@source_uri": "https://tools.usps.com/UspsToolsRestServices/rest/POLocator/findLocations", "@spider": "usps_collection_boxes", "addr:city": "VESTAVIA", "addr:country": "US", "addr:postcode": "35216", "addr:state": "AL", "addr:street_address": "2501 MOUNTAIN LODGE CIR", "amenity": "post_box", "collection_times": "Mo-Fr 11:30", "nsi_id": "unitedstatespostalservice-a77078", "operator": "United States Postal Service", "operator:short": "USPS", "operator:type": "public", "operator:wikidata": "Q668687", "ref": "3521600042"}, "type": "Feature"}
{"geometry": {"coordinates": [-86.7974786, 33.422219], "type": "Point"}, "id": "csiHdaxNiWnkWu6yG9QhW4sENCs=", "properties": {"@source_uri": "https://tools.usps.com/UspsToolsRestServices/rest/POLocator/findLocations", "@spider": "usps_collection_boxes", "addr:city": "VESTAVIA", "addr:country": "US", "addr:postcode": "35216", "addr:state": "AL", "addr:street_address": "1 PARK SO PLZ SHOPPING CTR", "amenity": "post_box", "collection_times": "Mo-Fr 11:30", "nsi_id": "unitedstatespostalservice-a77078", "operator": "United States Postal Service", "operator:short": "USPS", "operator:type": "public", "operator:wikidata": "Q668687", "ref": "3521600043"}, "type": "Feature"}
{"geometry": {"coordinates": [-86.7909864, 33.448278], "type": "Point"}, "id": "-bmOGuj1zIq51xoIMk50_5tBN_Q=", "properties": {"@source_uri": "https://tools.usps.com/UspsToolsRestServices/rest/POLocator/findLocations", "@spider": "usps_collection_boxes", "addr:city": "VESTAVIA", "addr:country": "US", "addr:postcode": "35216", "addr:state": "AL", "addr:street_address": "632 MONTGOMERY HWY", "amenity": "post_box", "collection_times": "Mo-Fr 10:00", "nsi_id": "unitedstatespostalservice-a77078", "operator": "United States Postal Service", "operator:short": "USPS", "operator:type": "public", "operator:wikidata": "Q668687", "ref": "3521600048"}, "type": "Feature"}
{"geometry": {"coordinates": [-86.8055933, 33.388], "type": "Point"}, "id": "63-QX7mOUT-S2oy2rXx3uh-4vZg=", "properties": {"@source_uri": "https://tools.usps.com/UspsToolsRestServices/rest/POLocator/findLocations", "@spider": "usps_collection_boxes", "addr:city": "VESTAVIA", "addr:country": "US", "addr:postcode": "35216", "addr:state": "AL", "addr:street_address": "200 MUNICIPAL DR", "amenity": "post_box", "collection_times": "Mo-Fr 12:00", "nsi_id": "unitedstatespostalservice-a77078", "operator": "United States Postal Service", "operator:short": "USPS", "operator:type": "public", "operator:wikidata": "Q668687", "ref": "3521600049"}, "type": "Feature"}
{"geometry": {"coordinates": [-86.8116953, 33.436062], "type": "Point"}, "id": "VVf8dYBDTHqNumFptjC7AJ52c1A=", "properties": {"@source_uri": "https://tools.usps.com/UspsToolsRestServices/rest/POLocator/findLocations", "@spider": "usps_collection_boxes", "addr:city": "VESTAVIA", "addr:country": "US", "addr:postcode": "35216", "addr:state": "AL", "addr:street_address": "2090 COLUMBIANA RD", "amenity": "post_box", "collection_times": "Mo-Fr 11:30", "nsi_id": "unitedstatespostalservice-a77078", "operator": "United States Postal Service", "operator:short": "USPS", "operator:type": "public", "operator:wikidata": "Q668687", "ref": "3521600052"}, "type": "Feature"}
{"geometry": {"coordinates": [-86.8121057, 33.434482], "type": "Point"}, "id": "rSJGNDATFePim0UE8XhaypX8iu0=", "properties": {"@source_uri": "https://tools.usps.com/UspsToolsRestServices/rest/POLocator/findLocations", "@spider": "usps_collection_boxes", "addr:city": "VESTAVIA", "addr:country": "US", "addr:postcode": "35216", "addr:state": "AL", "addr:street_address": "2100 COLUMBIANA RD", "amenity": "post_box", "collection_times": "Mo-Fr 11:30", "nsi_id": "unitedstatespostalservice-a77078", "operator": "United States Postal Service", "operator:short": "USPS", "operator:type": "public", "operator:wikidata": "Q668687", "ref": "3521600055"}, "type": "Feature"}
{"geometry": {"coordinates": [-86.790519, 33.444251], "type": "Point"}, "id": "qbo6sYtYEKsu-NNszYhH4ooF5ek=", "properties": {"@source_uri": "https://tools.usps.com/UspsToolsRestServices/rest/POLocator/findLocations", "@spider": "usps_collection_boxes", "addr:city": "VESTAVIA", "addr:country": "US", "addr:postcode": "35216", "addr:state": "AL", "addr:street_address": "745 MONTGOMERY HWY", "amenity": "post_box", "collection_times": "Mo-Fr 17:00; Sa 14:00", "indoor": "yes", "note": "ON 12/24 AND 12/31, THIS BOX MAY BE COLLECTED AS EARLY AS 12 NOON.", "nsi_id": "unitedstatespostalservice-a77078", "operator": "United States Postal Service", "operator:short": "USPS", "operator:type": "public", "operator:wikidata": "Q668687", "ref": "3521600062"}, "type": "Feature"}
{"geometry": {"coordinates": [-86.7741158, 33.426217], "type": "Point"}, "id": "wEo9CAGGhDypEuXPpIuFskohtwo=", "properties": {"@source_uri": "https://tools.usps.com/UspsToolsRestServices/rest/POLocator/findLocations", "@spider": "usps_collection_boxes", "addr:city": "VESTAVIA", "addr:country": "US", "addr:postcode": "35216", "addr:state": "AL", "addr:street_address": "3354 MORGAN DR", "amenity": "post_box", "collection_times": "Mo-Fr 12:00", "nsi_id": "unitedstatespostalservice-a77078", "operator": "United States Postal Service", "operator:short": "USPS", "operator:type": "public", "operator:wikidata": "Q668687", "ref": "3521600063"}, "type": "Feature"}
{"geometry": {"coordinates": [-86.7797227, 33.460301], "type": "Point"}, "id": "F_aU4-TmKMlCpdpRRKIyUzw_6QY=", "properties": {"@source_uri": "https://tools.usps.com/UspsToolsRestServices/rest/POLocator/findLocations", "@spider": "usps_collection_boxes", "addr:city": "VESTAVIA", "addr:country": "US", "addr:postcode": "35216", "addr:state": "AL", "addr:street_address": "1770 INDEPENDENCE CT", "amenity": "post_box", "collection_times": "Mo-Fr 10:00", "nsi_id": "unitedstatespostalservice-a77078", "operator": "United States Postal Service", "operator:short": "USPS", "operator:type": "public", "operator:wikidata": "Q668687", "ref": "3521600066"}, "type": "Feature"}
{"geometry": {"coordinates": [-86.7733881, 33.39761], "type": "Point"}, "id": "A38ERaJIaaGqwWUVDfQKm1PB4h0=", "properties": {"@source_uri": "https://tools.usps.com/UspsToolsRestServices/rest/POLocator/findLocations", "@spider": "usps_collection_boxes", "addr:city": "VESTAVIA", "addr:country": "US", "addr:postcode": "35216", "addr:state": "AL", "addr:street_address": "3741 CHESTNUT RIDGE LN", "amenity": "post_box", "collection_times": "Mo-Fr 12:00", "nsi_id": "unitedstatespostalservice-a77078", "operator": "United States Postal Service", "operator:short": "USPS", "operator:type": "public", "operator:wikidata": "Q668687", "ref": "3521600068"}, "type": "Feature"}
{"geometry": {"coordinates": [-86.8049986, 33.398822], "type": "Point"}, "id": "m1XGD545C1LAjx3hWH-e2z5ZaX8=", "properties": {"@source_uri": "https://tools.usps.com/UspsToolsRestServices/rest/POLocator/findLocations", "@spider": "usps_collection_boxes", "addr:city": "VESTAVIA", "addr:country": "US", "addr:postcode": "35216", "addr:state": "AL", "addr:street_address": "1615 MONTGOMERY HWY", "amenity": "post_box", "collection_times": "Mo-Fr 12:00", "nsi_id": "unitedstatespostalservice-a77078", "operator": "United States Postal Service", "operator:short": "USPS", "operator:type": "public", "operator:wikidata": "Q668687", "ref": "3521600070"}, "type": "Feature"}
{"geometry": {"coordinates": [-86.790519098, 33.444243], "type": "Point"}, "id": "NtDcoYHPbki6tp03JrfYqL2OCvY=", "properties": {"@source_uri": "https://tools.usps.com/UspsToolsRestServices/rest/POLocator/findLocations", "@spider": "usps_collection_boxes", "addr:city": "VESTAVIA", "addr:country": "US", "addr:postcode": "35216", "addr:state": "AL", "addr:street_address": "745 MONTGOMERY HWY", "amenity": "post_box", "collection_times": "Mo-Fr 17:00; Sa 13:30", "indoor": "yes", "note": "ON 12/24 AND 12/31, THIS BOX MAY BE COLLECTED AS EARLY AS 12 NOON.", "nsi_id": "unitedstatespostalservice-a77078", "operator": "United States Postal Service", "operator:short": "USPS", "operator:type": "public", "operator:wikidata": "Q668687", "ref": "3521600073"}, "type": "Feature"}
{"geometry": {"coordinates": [-86.7946681, 33.41486], "type": "Point"}, "id": "c_TqWBW1lHhdgiE4clIdHfnussE=", "properties": {"@source_uri": "https://tools.usps.com/UspsToolsRestServices/rest/POLocator/findLocations", "@spider": "usps_collection_boxes", "addr:city": "VESTAVIA", "addr:country": "US", "addr:postcode": "35216", "addr:state": "AL", "addr:street_address": "745 MONTGOMERY HWY", "amenity": "post_box", "collection_times": "Mo-Fr 16:45; Sa 13:15", "note": "ON 12/24 AND 12/31, THIS BOX MAY BE COLLECTED AS EARLY AS 12 NOON.", "nsi_id": "unitedstatespostalservice-a77078", "operator": "United States Postal Service", "operator:short": "USPS", "operator:type": "public", "operator:wikidata": "Q668687", "ref": "3521600075"}, "type": "Feature"}
{"geometry": {"coordinates": [-86.7700364, 33.5791964], "type": "Point"}, "id": "3L1SdtDOh8jOvVITQ4wKc6_Eb0Q=", "properties": {"@source_uri": "https://tools.usps.com/UspsToolsRestServices/rest/POLocator/findLocations", "@spider": "usps_collection_boxes", "addr:city": "BIRMINGHAM", "addr:country": "US", "addr:postcode": "35217", "addr:state": "AL", "addr:street_address": "1101 ELIZABETH AVE", "amenity": "post_box", "collection_times": "Mo-Fr 17:00; Sa 14:00", "note": "ON 12/24 AND 12/31, THIS BOX MAY BE COLLECTED AS EARLY AS 12 NOON.", "nsi_id": "unitedstatespostalservice-a77078", "operator": "United States Postal Service", "operator:short": "USPS", "operator:type": "public", "operator:wikidata": "Q668687", "ref": "3521700001"}, "type": "Feature"}
{"geometry": {"coordinates": [-86.770043, 33.584634], "type": "Point"}, "id": "QJsSm_QYL9G7RSbRlDzgw1YxDlc=", "properties": {"@source_uri": "https://tools.usps.com/UspsToolsRestServices/rest/POLocator/findLocations", "@spider": "usps_collection_boxes", "addr:city": "BIRMINGHAM", "addr:country": "US", "addr:postcode": "35217", "addr:state": "AL", "addr:street_address": "1101 ELIZABETH AVE", "amenity": "post_box", "collection_times": "Mo-Fr 17:00; Sa 14:00", "indoor": "yes", "note": "ON 12/24 AND 12/31, THIS BOX MAY BE COLLECTED AS EARLY AS 12 NOON.", "nsi_id": "unitedstatespostalservice-a77078", "operator": "United States Postal Service", "operator:short": "USPS", "operator:type": "public", "operator:wikidata": "Q668687", "ref": "3521700011"}, "type": "Feature"}
{"geometry": {"coordinates": [-86.770043, 33.584634], "type": "Point"}, "id": "LUibA0rYOmatFHQSNdoNNhYkOfo=", "properties": {"@source_uri": "https://tools.usps.com/UspsToolsRestServices/rest/POLocator/findLocations", "@spider": "usps_collection_boxes", "addr:city": "BIRMINGHAM", "addr:country": "US", "addr:postcode": "35217", "addr:state": "AL", "addr:street_address": "1101 ELIZABETH AVE", "amenity": "post_box", "collection_times": "Mo-Fr 17:00; Sa 14:00", "indoor": "yes", "note": "ON 12/24 AND 12/31, THIS BOX MAY BE COLLECTED AS EARLY AS 12 NOON.", "nsi_id": "unitedstatespostalservice-a77078", "operator": "United States Postal Service", "operator:short": "USPS", "operator:type": "public", "operator:wikidata": "Q668687", "ref": "3521700013"}, "type": "Feature"}
{"geometry": {"coordinates": [-86.770089, 33.584626904], "type": "Point"}, "id": "r2P0aDyF0k9VkEZuJ8rweS1FzU8=", "properties": {"@source_uri": "https://tools.usps.com/UspsToolsRestServices/rest/POLocator/findLocations", "@spider": "usps_collection_boxes", "addr:city": "BIRMINGHAM", "addr:country": "US", "addr:postcode": "35217", "addr:state": "AL", "addr:street_address": "1101 ELIZABETH AVE", "amenity": "post_box", "collection_times": "Mo-Fr 17:00; Sa 14:00", "indoor": "yes", "note": "ON 12/24 AND 12/31, THIS BOX MAY BE COLLECTED AS EARLY AS 12 NOON.", "nsi_id": "unitedstatespostalservice-a77078", "operator": "United States Postal Service", "operator:short": "USPS", "operator:type": "public", "operator:wikidata": "Q668687", "ref": "3521700015"}, "type": "Feature"}
{"geometry": {"coordinates": [-86.894011, 33.512837], "type": "Point"}, "id": "zSjH4zR2swW6-6gfnb2VyfvIAbg=", "properties": {"@source_uri": "https://tools.usps.com/UspsToolsRestServices/rest/POLocator/findLocations", "@spider": "usps_collection_boxes", "addr:city": "BIRMINGHAM", "addr:country": "US", "addr:postcode": "35218", "addr:state": "AL", "addr:street_address": "700 18TH ST ENSLEY", "amenity": "post_box", "collection_times": "Mo-Fr 17:00; Sa 16:00", "note": "ON 12/24 AND 12/31, THIS BOX MAY BE COLLECTED AS EARLY AS 12 NOON.", "nsi_id": "unitedstatespostalservice-a77078", "operator": "United States Postal Service", "operator:short": "USPS", "operator:type": "public", "operator:wikidata": "Q668687", "ref": "3521800000"}, "type": "Feature"}
{"geometry": {"coordinates": [-86.802633, 33.504412], "type": "Point"}, "id": "R5b5Ym3tuSRi_UgdaVzDaINjpMw=", "properties": {"@source_uri": "https://tools.usps.com/UspsToolsRestServices/rest/POLocator/findLocations", "@spider": "usps_collection_boxes", "addr:city": "BIRMINGHAM", "addr:country": "US", "addr:postcode": "35218", "addr:state": "AL", "addr:street_address": "700 18TH ST S", "amenity": "post_box", "collection_times": "Mo-Fr 17:00; Sa 16:00", "indoor": "yes", "note": "ON 12/24 AND 12/31, THIS BOX MAY BE COLLECTED AS EARLY AS 12 NOON.", "nsi_id": "unitedstatespostalservice-a77078", "operator": "United States Postal Service", "operator:short": "USPS", "operator:type": "public", "operator:wikidata": "Q668687", "ref": "3521800015"}, "type": "Feature"}
{"geometry": {"coordinates": [-86.8937804646, 33.5127050553], "type": "Point"}, "id": "kIo56GnnU5MZBOHGXaRL4CQufDI=", "properties": {"@source_uri": "https://tools.usps.com/UspsToolsRestServices/rest/POLocator/findLocations", "@spider": "usps_collection_boxes", "addr:city": "BIRMINGHAM", "addr:country": "US", "addr:postcode": "35218", "addr:state": "AL", "addr:street_address": "700 18TH STREET ENSLEY", "amenity": "post_box", "collection_times": "Mo-Fr 17:00; Sa 12:00", "indoor": "yes", "note": "ON 12/24 AND 12/31, THIS BOX MAY BE COLLECTED AS EARLY AS 12 NOON.", "nsi_id": "unitedstatespostalservice-a77078", "operator": "United States Postal Service", "operator:short": "USPS", "operator:type": "public", "operator:wikidata": "Q668687", "ref": "3521800018"}, "type": "Feature"}
{"geometry": {"coordinates": [-86.781141, 33.527732], "type": "Point"}, "id": "9Wn7QxnJ4TQ76dYL54RRhEG1A70=", "properties": {"@source_uri": "https://tools.usps.com/UspsToolsRestServices/rest/POLocator/findLocations", "@spider": "usps_collection_boxes", "addr:city": "BIRMINGHAM", "addr:country": "US", "addr:postcode": "35222", "addr:state": "AL", "addr:street_address": "110 38TH ST N", "amenity": "post_box", "collection_times": "Mo-Fr 11:00", "nsi_id": "unitedstatespostalservice-a77078", "operator": "United States Postal Service", "operator:short": "USPS", "operator:type": "public", "operator:wikidata": "Q668687", "ref": "3522200001"}, "type": "Feature"}
{"geometry": {"coordinates": [-86.7793291, 33.51854], "type": "Point"}, "id": "cjGiZ88tnhuS0PQurMNX_QnyaLY=", "properties": {"@source_uri": "https://tools.usps.com/UspsToolsRestServices/rest/POLocator/findLocations", "@spider": "usps_collection_boxes", "addr:city": "BIRMINGHAM", "addr:country": "US", "addr:postcode": "35222", "addr:state": "AL", "addr:street_address": "3601 5TH AVE S", "amenity": "post_box", "collection_times": "Mo-Fr 12:00", "nsi_id": "unitedstatespostalservice-a77078", "operator": "United States Postal Service", "operator:short": "USPS", "operator:type": "public", "operator:wikidata": "Q668687", "ref": "3522200011"}, "type": "Feature"}
{"geometry": {"coordinates": [-86.7769566, 33.515156], "type": "Point"}, "id": "kU1vv3-KWva9zc_gcG8Mkk9hg5Y=", "properties": {"@source_uri": "https://tools.usps.com/UspsToolsRestServices/rest/POLocator/findLocations", "@spider": "usps_collection_boxes", "addr:city": "BIRMINGHAM", "addr:country": "US", "addr:postcode": "35222", "addr:state": "AL", "addr:street_address": "3600 8TH AVE S", "amenity": "post_box", "collection_times": "Mo-Fr 14:00", "note": "ON 12/24 AND 12/31, THIS BOX MAY BE COLLECTED AS EARLY AS 12 NOON.", "nsi_id": "unitedstatespostalservice-a77078", "operator": "United States Postal Service", "operator:short": "USPS", "operator:type": "public", "operator:wikidata": "Q668687", "ref": "3522200013"}, "type": "Feature"}
{"geometry": {"coordinates": [-86.7717462, 33.478875], "type": "Point"}, "id": "8DgmNlNVWdlS7-CU2m41goqVeb8=", "properties": {"@source_uri": "https://tools.usps.com/UspsToolsRestServices/rest/POLocator/findLocations", "@spider": "usps_collection_boxes", "addr:city": "MOUNTAIN BRK", "addr:country": "US", "addr:postcode": "35223", "addr:state": "AL", "addr:street_address": "15 OFFICE PARK CIR", "amenity": "post_box", "collection_times": "Mo-Fr 11:30", "nsi_id": "unitedstatespostalservice-a77078", "operator": "United States Postal Service", "operator:short": "USPS", "operator:type": "public", "operator:wikidata": "Q668687", "ref": "3522300002"}, "type": "Feature"}
{"geometry": {"coordinates": [-86.7752293, 33.477358], "type": "Point"}, "id": "ixF-rze1DG2F2rgonQdVziGbDaE=", "properties": {"@source_uri": "https://tools.usps.com/UspsToolsRestServices/rest/POLocator/findLocations", "@spider": "usps_collection_boxes", "addr:city": "MOUNTAIN BRK", "addr:country": "US", "addr:postcode": "35223", "addr:state": "AL", "addr:street_address": "120 OFFICE PARK DR", "amenity": "post_box", "collection_times": "Mo-Fr 10:30", "nsi_id": "unitedstatespostalservice-a77078", "operator": "United States Postal Service", "operator:short": "USPS", "operator:type": "public", "operator:wikidata": "Q668687", "ref": "3522300003"}, "type": "Feature"}
{"geometry": {"coordinates": [-86.7706954, 33.479593], "type": "Point"}, "id": "UYvUDTZyUPEmQ8huF-E0ECnPdX0=", "properties": {"@source_uri": "https://tools.usps.com/UspsToolsRestServices/rest/POLocator/findLocations", "@spider": "usps_collection_boxes", "addr:city": "MOUNTAIN BRK", "addr:country": "US", "addr:postcode": "35223", "addr:state": "AL", "addr:street_address": "2 OFFICE PARK CIR", "amenity": "post_box", "collection_times": "Mo-Fr 11:30", "nsi_id": "unitedstatespostalservice-a77078", "operator": "United States Postal Service", "operator:short": "USPS", "operator:type": "public", "operator:wikidata": "Q668687", "ref": "3522300005"}, "type": "Feature"}
{"geometry": {"coordinates": [-86.7815062, 33.495228], "type": "Point"}, "id": "flKaH58uSSYjyZ5viRaIXSYvuzI=", "properties": {"@source_uri": "https://tools.usps.com/UspsToolsRestServices/rest/POLocator/findLocations", "@spider": "usps_collection_boxes", "addr:city": "MOUNTAIN BRK", "addr:country": "US", "addr:postcode": "35223", "addr:state": "AL", "addr:street_address": "1919 CAHABA RD", "amenity": "post_box", "collection_times": "Mo-Fr 11:30", "nsi_id": "unitedstatespostalservice-a77078", "operator": "United States Postal Service", "operator:short": "USPS", "operator:type": "public", "operator:wikidata": "Q668687", "ref": "3522300008"}, "type": "Feature"}
{"geometry": {"coordinates": [-86.7759909, 33.479881], "type": "Point"}, "id": "3ITFwojI8bKwLJuGeuqlUoCnkNI=", "properties": {"@source_uri": "https://tools.usps.com/UspsToolsRestServices/rest/POLocator/findLocations", "@spider": "usps_collection_boxes", "addr:city": "MOUNTAIN BRK", "addr:country": "US", "addr:postcode": "35223", "addr:state": "AL", "addr:street_address": "2700 HIGHWAY 280 S", "amenity": "post_box", "collection_times": "Mo-Fr 14:30", "note": "ON 12/24 AND 12/31, THIS BOX MAY BE COLLECTED AS EARLY AS 12 NOON.", "nsi_id": "unitedstatespostalservice-a77078", "operator": "United States Postal Service", "operator:short": "USPS", "operator:type": "public", "operator:wikidata": "Q668687", "ref": "3522300013"}, "type": "Feature"}
{"geometry": {"coordinates": [-86.773426055, 33.483167514], "type": "Point"}, "id": "R_Ui2B4RJrvbfXCnG-8APKZ9x6s=", "properties": {"@source_uri": "https://tools.usps.com/UspsToolsRestServices/rest/POLocator/findLocations", "@spider": "usps_collection_boxes", "addr:city": "MOUNTAIN BRK", "addr:country": "US", "addr:postcode": "35223", "addr:state": "AL", "addr:street_address": "2805 CAHABA RD", "amenity": "post_box", "collection_times": "Mo-Fr 10:30", "nsi_id": "unitedstatespostalservice-a77078", "operator": "United States Postal Service", "operator:short": "USPS", "operator:type": "public", "operator:wikidata": "Q668687", "ref": "3522300014"}, "type": "Feature"}
{"geometry": {"coordinates": [-86.772074275, 33.483176335], "type": "Point"}, "id": "LF6VueSmZINXjuzNOqal2v9wM-4=", "properties": {"@source_uri": "https://tools.usps.com/UspsToolsRestServices/rest/POLocator/findLocations", "@spider": "usps_collection_boxes", "addr:city": "MOUNTAIN BRK", "addr:country": "US", "addr:postcode": "35223", "addr:state": "AL", "addr:street_address": "2840 CULVER RD", "amenity": "post_box", "collection_times": "Mo-Fr 10:30", "nsi_id": "unitedstatespostalservice-a77078", "operator": "United States Postal Service", "operator:short": "USPS", "operator:type": "public", "operator:wikidata": "Q668687", "ref": "3522300015"}, "type": "Feature"}
{"geometry": {"coordinates": [-86.7710318, 33.479828], "type": "Point"}, "id": "n4j7xg4LfDODarDBc8ba9N3nR-4=", "properties": {"@source_uri": "https://tools.usps.com/UspsToolsRestServices/rest/POLocator/findLocations", "@spider": "usps_collection_boxes", "addr:city": "MOUNTAIN BRK", "addr:country": "US", "addr:postcode": "35223", "addr:state": "AL", "addr:street_address": "3 OFFICE PARK CIR", "amenity": "post_box", "collection_times": "Mo-Fr 10:00", "nsi_id": "unitedstatespostalservice-a77078", "operator": "United States Postal Service", "operator:short": "USPS", "operator:type": "public", "operator:wikidata": "Q668687", "ref": "3522300023"}, "type": "Feature"}
{"geometry": {"coordinates": [-86.7638331, 33.474412], "type": "Point"}, "id": "GP3O91y_wgkkipDef4ZWRrRw-JM=", "properties": {"@source_uri": "https://tools.usps.com/UspsToolsRestServices/rest/POLocator/findLocations", "@spider": "usps_collection_boxes", "addr:city": "MOUNTAIN BRK", "addr:country": "US", "addr:postcode": "35223", "addr:state": "AL", "addr:street_address": "3300 CAHABA RD", "amenity": "post_box", "collection_times": "Mo-Fr 10:00", "nsi_id": "unitedstatespostalservice-a77078", "operator": "United States Postal Service", "operator:short": "USPS", "operator:type": "public", "operator:wikidata": "Q668687", "ref": "3522300026"}, "type": "Feature"}
{"geometry": {"coordinates": [-86.7775247, 33.477208], "type": "Point"}, "id": "gsks8b2FCj0q7prJID8mAuRn5hM=", "properties": {"@source_uri": "https://tools.usps.com/UspsToolsRestServices/rest/POLocator/findLocations", "@spider": "usps_collection_boxes", "addr:city": "MOUNTAIN BRK", "addr:country": "US", "addr:postcode": "35223", "addr:state": "AL", "addr:street_address": "402 OFFICE PARK DR", "amenity": "post_box", "collection_times": "Mo-Fr 11:00", "nsi_id": "unitedstatespostalservice-a77078", "operator": "United States Postal Service", "operator:short": "USPS", "operator:type": "public", "operator:wikidata": "Q668687", "ref": "3522300029"}, "type": "Feature"}
{"geometry": {"coordinates": [-86.7696411, 33.473886], "type": "Point"}, "id": "Amq-_eHKRhZ2JdfbPs4uw55RHXY=", "properties": {"@source_uri": "https://tools.usps.com/UspsToolsRestServices/rest/POLocator/findLocations", "@spider": "usps_collection_boxes", "addr:city": "MOUNTAIN BRK", "addr:country": "US", "addr:postcode": "35223", "addr:state": "AL", "addr:street_address": "600 LUCKIE DR", "amenity": "post_box", "collection_times": "Mo-Fr 11:00", "nsi_id": "unitedstatespostalservice-a77078", "operator": "United States Postal Service", "operator:short": "USPS", "operator:type": "public", "operator:wikidata": "Q668687", "ref": "3522300033"}, "type": "Feature"}
{"geometry": {"coordinates": [-86.7712869, 33.478263], "type": "Point"}, "id": "Io5kSlmD1lYwPJeSlKwcgkPmGQg=", "properties": {"@source_uri": "https://tools.usps.com/UspsToolsRestServices/rest/POLocator/findLocations", "@spider": "usps_collection_boxes", "addr:city": "MOUNTAIN BRK", "addr:country": "US", "addr:postcode": "35223", "addr:state": "AL", "addr:street_address": "9 OFFICE PARK CIR", "amenity": "post_box", "collection_times": "Mo-Fr 12:00", "nsi_id": "unitedstatespostalservice-a77078", "operator": "United States Postal Service", "operator:short": "USPS", "operator:type": "public", "operator:wikidata": "Q668687", "ref": "3522300035"}, "type": "Feature"}
{"geometry": {"coordinates": [-86.7741999, 33.48979], "type": "Point"}, "id": "CWTW6hcAMR-P1wHy5HezahqxZho=", "properties": {"@source_uri": "https://tools.usps.com/UspsToolsRestServices/rest/POLocator/findLocations", "@spider": "usps_collection_boxes", "addr:city": "MOUNTAIN BRK", "addr:country": "US", "addr:postcode": "35223", "addr:state": "AL", "addr:street_address": "2531 LANE PARK RD", "amenity": "post_box", "collection_times": "Mo-Fr 11:00", "nsi_id": "unitedstatespostalservice-a77078", "operator": "United States Postal Service", "operator:short": "USPS", "operator:type": "public", "operator:wikidata": "Q668687", "ref": "3522300038"}, "type": "Feature"}
{"geometry": {"coordinates": [-86.7700226, 33.476693], "type": "Point"}, "id": "woTttjY4_fwEBdNahrvv_B5fMcs=", "properties": {"@source_uri": "https://tools.usps.com/UspsToolsRestServices/rest/POLocator/findLocations", "@spider": "usps_collection_boxes", "addr:city": "MOUNTAIN BRK", "addr:country": "US", "addr:postcode": "35223", "addr:state": "AL", "addr:street_address": "2801 HIGHWAY 280 S", "amenity": "post_box", "collection_times": "Mo-Fr 10:00", "nsi_id": "unitedstatespostalservice-a77078", "operator": "United States Postal Service", "operator:short": "USPS", "operator:type": "public", "operator:wikidata": "Q668687", "ref": "3522300054"}, "type": "Feature"}
{"geometry": {"coordinates": [-86.7732099755, 33.4864459902], "type": "Point"}, "id": "qbvqGQqtLviYYFPg42Qt_FHiS3k=", "properties": {"@source_uri": "https://tools.usps.com/UspsToolsRestServices/rest/POLocator/findLocations", "@spider": "usps_collection_boxes", "addr:city": "MOUNTAIN BRK", "addr:country": "US", "addr:postcode": "35223", "addr:state": "AL", "addr:street_address": "221 RELE ST", "amenity": "post_box", "collection_times": "Mo-Fr 17:00; Sa 12:00", "indoor": "yes", "note": "ON 12/24 AND 12/31, THIS BOX MAY BE COLLECTED AS EARLY AS 12 NOON.", "nsi_id": "unitedstatespostalservice-a77078", "operator": "United States Postal Service", "operator:short": "USPS", "operator:type": "public", "operator:wikidata": "Q668687", "ref": "3522300056"}, "type": "Feature"}
{"geometry": {"coordinates": [-86.7732099755, 33.4864459902], "type": "Point"}, "id": "kud0xMUoz1ul6qeXjQy24L7qGlk=", "properties": {"@source_uri": "https://tools.usps.com/UspsToolsRestServices/rest/POLocator/findLocations", "@spider": "usps_collection_boxes", "addr:city": "MOUNTAIN BRK", "addr:country": "US", "addr:postcode": "35223", "addr:state": "AL", "addr:street_address": "221 RELE ST", "amenity": "post_box", "collection_times": "Mo-Fr 17:00; Sa 12:00", "indoor": "yes", "note": "ON 12/24 AND 12/31, THIS BOX MAY BE COLLECTED AS EARLY AS 12 NOON.", "nsi_id": "unitedstatespostalservice-a77078", "operator": "United States Postal Service", "operator:short": "USPS", "operator:type": "public", "operator:wikidata": "Q668687", "ref": "3522300057"}, "type": "Feature"}
{"geometry": {"coordinates": [-86.8095094, 33.414636], "type": "Point"}, "id": "j6a2zn3RQIYJJQBERjhtLoGZDag=", "properties": {"@source_uri": "https://tools.usps.com/UspsToolsRestServices/rest/POLocator/findLocations", "@spider": "usps_collection_boxes", "addr:city": "BIRMINGHAM", "addr:country": "US", "addr:postcode": "35226", "addr:state": "AL", "addr:street_address": "200 CENTURY PARK S", "amenity": "post_box", "collection_times": "Mo-Fr 09:00", "nsi_id": "unitedstatespostalservice-a77078", "operator": "United States Postal Service", "operator:short": "USPS", "operator:type": "public", "operator:wikidata": "Q668687", "ref": "3522600004"}, "type": "Feature"}
{"geometry": {"coordinates": [-86.9231390054, 33.4487239893], "type": "Point"}, "id": "8DORvPel5P5aQ4EEFgT0XwD_F5I=", "properties": {"@source_uri": "https://tools.usps.com/UspsToolsRestServices/rest/POLocator/findLocations", "@spider": "usps_collection_boxes", "addr:city": "BIRMINGHAM", "addr:country": "US", "addr:postcode": "35228", "addr:state": "AL", "addr:street_address": "880 WILKES RD", "amenity": "post_box", "collection_times": "Mo-Fr 17:00; Sa 14:00", "note": "ON 12/24 AND 12/31, THIS BOX MAY BE COLLECTED AS EARLY AS 12 NOON.", "nsi_id": "unitedstatespostalservice-a77078", "operator": "United States Postal Service", "operator:short": "USPS", "operator:type": "public", "operator:wikidata": "Q668687", "ref": "3522800000"}, "type": "Feature"}
{"geometry": {"coordinates": [-86.923151, 33.448701], "type": "Point"}, "id": "uyvSTZ67qLgSRhl6INtWUtEn5bM=", "properties": {"@source_uri": "https://tools.usps.com/UspsToolsRestServices/rest/POLocator/findLocations", "@spider": "usps_collection_boxes", "addr:city": "BIRMINGHAM", "addr:country": "US", "addr:postcode": "35228", "addr:state": "AL", "addr:street_address": "880 WILKES RD", "amenity": "post_box", "collection_times": "Mo-Fr 17:00; Sa 14:00", "indoor": "yes", "note": "ON 12/24 AND 12/31, THIS BOX MAY BE COLLECTED AS EARLY AS 12 NOON.", "nsi_id": "unitedstatespostalservice-a77078", "operator": "United States Postal Service", "operator:short": "USPS", "operator:type": "public", "operator:wikidata": "Q668687", "ref": "3522800014"}, "type": "Feature"}
{"geometry": {"coordinates": [-86.923503704, 33.448303138], "type": "Point"}, "id": "R8HSTs6jP9NB_LBL65b1_62qHHU=", "properties": {"@source_uri": "https://tools.usps.com/UspsToolsRestServices/rest/POLocator/findLocations", "@spider": "usps_collection_boxes", "addr:city": "BIRMINGHAM", "addr:country": "US", "addr:postcode": "35228", "addr:state": "AL", "addr:street_address": "880 WILKES RD", "amenity": "post_box", "collection_times": "Mo-Fr 17:00; Sa 14:00", "indoor": "yes", "note": "ON 12/24 AND 12/31, THIS BOX MAY BE COLLECTED AS EARLY AS 12 NOON.", "nsi_id": "unitedstatespostalservice-a77078", "operator": "United States Postal Service", "operator:short": "USPS", "operator:type": "public", "operator:wikidata": "Q668687", "ref": "3522800018"}, "type": "Feature"}
{"geometry": {"coordinates": [-86.8007757, 33.509755], "type": "Point"}, "id": "gvavh6z4oED7cZuiy_QTbvLbzh4=", "properties": {"@source_uri": "https://tools.usps.com/UspsToolsRestServices/rest/POLocator/findLocations", "@spider": "usps_collection_boxes", "addr:city": "BIRMINGHAM", "addr:country": "US", "addr:postcode": "35233", "addr:state": "AL", "addr:street_address": "301 21ST ST S", "amenity": "post_box", "collection_times": "Mo-Fr 15:00", "note": "ON 12/24 AND 12/31, THIS BOX MAY BE COLLECTED AS EARLY AS 12 NOON.", "nsi_id": "unitedstatespostalservice-a77078", "operator": "United States Postal Service", "operator:short": "USPS", "operator:type": "public", "operator:wikidata": "Q668687", "ref": "3523300000"}, "type": "Feature"}
{"geometry": {"coordinates": [-86.7951954, 33.509493], "type": "Point"}, "id": "f7n7_GZYPBLYfC3GqLQc3_LnqDk=", "properties": {"@source_uri": "https://tools.usps.com/UspsToolsRestServices/rest/POLocator/findLocations", "@spider": "usps_collection_boxes", "addr:city": "BIRMINGHAM", "addr:country": "US", "addr:postcode": "35233", "addr:state": "AL", "addr:street_address": "600 24TH ST S", "amenity": "post_box", "collection_times": "Mo-Fr 12:00", "nsi_id": "unitedstatespostalservice-a77078", "operator": "United States Postal Service", "operator:short": "USPS", "operator:type": "public", "operator:wikidata": "Q668687", "ref": "3523300009"}, "type": "Feature"}
{"geometry": {"coordinates": [-86.7943728, 33.508644], "type": "Point"}, "id": "foZOv4axaGM1kuLWrZV6s9TyCy4=", "properties": {"@source_uri": "https://tools.usps.com/UspsToolsRestServices/rest/POLocator/findLocations", "@spider": "usps_collection_boxes", "addr:city": "BIRMINGHAM", "addr:country": "US", "addr:postcode": "35233", "addr:state": "AL", "addr:street_address": "2400 7TH AVE S", "amenity": "post_box", "collection_times": "Mo-Fr 15:00", "note": "ON 12/24 AND 12/31, THIS BOX MAY BE COLLECTED AS EARLY AS 12 NOON.", "nsi_id": "unitedstatespostalservice-a77078", "operator": "United States Postal Service", "operator:short": "USPS", "operator:type": "public", "operator:wikidata": "Q668687", "ref": "3523300011"}, "type": "Feature"}
{"geometry": {"coordinates": [-86.807435, 33.5053], "type": "Point"}, "id": "5lSrSRFh8BbEY-3fZYxnJIdmujg=", "properties": {"@source_uri": "https://tools.usps.com/UspsToolsRestServices/rest/POLocator/findLocations", "@spider": "usps_collection_boxes", "addr:city": "BIRMINGHAM", "addr:country": "US", "addr:postcode": "35233", "addr:state": "AL", "addr:street_address": "2700 4TH AVE S", "amenity": "post_box", "collection_times": "Mo-Fr 15:00", "note": "ON 12/24 AND 12/31, THIS BOX MAY BE COLLECTED AS EARLY AS 12 NOON.", "nsi_id": "unitedstatespostalservice-a77078", "operator": "United States Postal Service", "operator:short": "USPS", "operator:type": "public", "operator:wikidata": "Q668687", "ref": "3523300013"}, "type": "Feature"}
{"geometry": {"coordinates": [-86.7910459, 33.511463], "type": "Point"}, "id": "BiqpKfndzPjJ2DB-OyZgAxsnxGw=", "properties": {"@source_uri": "https://tools.usps.com/UspsToolsRestServices/rest/POLocator/findLocations", "@spider": "usps_collection_boxes", "addr:city": "BIRMINGHAM", "addr:country": "US", "addr:postcode": "35233", "addr:state": "AL", "addr:street_address": "602 27TH ST S", "amenity": "post_box", "collection_times": "Mo-Fr 15:00", "note": "ON 12/24 AND 12/31, THIS BOX MAY BE COLLECTED AS EARLY AS 12 NOON.", "nsi_id": "unitedstatespostalservice-a77078", "operator": "United States Postal Service", "operator:short": "USPS", "operator:type": "public", "operator:wikidata": "Q668687", "ref": "3523300014"}, "type": "Feature"}
{"geometry": {"coordinates": [-86.7918140287, 33.5167370148], "type": "Point"}, "id": "uEdblFMIBqTjDBi66Tngs5byYME=", "properties": {"@source_uri": "https://tools.usps.com/UspsToolsRestServices/rest/POLocator/findLocations", "@spider": "usps_collection_boxes", "addr:city": "BIRMINGHAM", "addr:country": "US", "addr:postcode": "35233", "addr:state": "AL", "addr:street_address": "2800 2ND AVE S", "amenity": "post_box", "collection_times": "Mo-Fr 15:00", "note": "ON 12/24 AND 12/31, THIS BOX MAY BE COLLECTED AS EARLY AS 12 NOON.", "nsi_id": "unitedstatespostalservice-a77078", "operator": "United States Postal Service", "operator:short": "USPS", "operator:type": "public", "operator:wikidata": "Q668687", "ref": "3523300015"}, "type": "Feature"}
{"geometry": {"coordinates": [-86.7849284, 33.513106], "type": "Point"}, "id": "d-eHlt6x9qcgcv6VNOSjLewOlwI=", "properties": {"@source_uri": "https://tools.usps.com/UspsToolsRestServices/rest/POLocator/findLocations", "@spider": "usps_collection_boxes", "addr:city": "BIRMINGHAM", "addr:country": "US", "addr:postcode": "35233", "addr:state": "AL", "addr:street_address": "3028 7TH AVE S", "amenity": "post_box", "collection_times": "Mo-Fr 10:00", "nsi_id": "unitedstatespostalservice-a77078", "operator": "United States Postal Service", "operator:short": "USPS", "operator:type": "public", "operator:wikidata": "Q668687", "ref": "3523300019"}, "type": "Feature"}
{"geometry": {"coordinates": [-86.8004549, 33.506387], "type": "Point"}, "id": "R_qV-61fd40c1dtovFd9KYRfOVQ=", "properties": {"@source_uri": "https://tools.usps.com/UspsToolsRestServices/rest/POLocator/findLocations", "@spider": "usps_collection_boxes", "addr:city": "BIRMINGHAM", "addr:country": "US", "addr:postcode": "35233", "addr:state": "AL", "addr:street_address": "620 20TH ST S", "amenity": "post_box", "collection_times": "Mo-Fr 10:00", "nsi_id": "unitedstatespostalservice-a77078", "operator": "United States Postal Service", "operator:short": "USPS", "operator:type": "public", "operator:wikidata": "Q668687", "ref": "3523300021"}, "type": "Feature"}
{"geometry": {"coordinates": [-86.7998609, 33.50552], "type": "Point"}, "id": "3TYF3mlX-94t4Ftep4zKKQyq_ew=", "properties": {"@source_uri": "https://tools.usps.com/UspsToolsRestServices/rest/POLocator/findLocations", "@spider": "usps_collection_boxes", "addr:city": "BIRMINGHAM", "addr:country": "US", "addr:postcode": "35233", "addr:state": "AL", "addr:street_address": "701 20TH ST S", "amenity": "post_box", "collection_times": "Mo-Fr 15:00", "note": "ON 12/24 AND 12/31, THIS BOX MAY BE COLLECTED AS EARLY AS 12 NOON.", "nsi_id": "unitedstatespostalservice-a77078", "operator": "United States Postal Service", "operator:short": "USPS", "operator:type": "public", "operator:wikidata": "Q668687", "ref": "3523300025"}, "type": "Feature"}
{"geometry": {"coordinates": [-86.8083652, 33.505694], "type": "Point"}, "id": "wdB6KywYJSbqgZ3jdd0bbMeFcm8=", "properties": {"@source_uri": "https://tools.usps.com/UspsToolsRestServices/rest/POLocator/findLocations", "@spider": "usps_collection_boxes", "addr:city": "BIRMINGHAM", "addr:country": "US", "addr:postcode": "35233", "addr:state": "AL", "addr:street_address": "1507 4TH AVE S", "amenity": "post_box", "collection_times": "Mo-Fr 10:00", "nsi_id": "unitedstatespostalservice-a77078", "operator": "United States Postal Service", "operator:short": "USPS", "operator:type": "public", "operator:wikidata": "Q668687", "ref": "3523300035"}, "type": "Feature"}
{"geometry": {"coordinates": [-86.8076861, 33.505537], "type": "Point"}, "id": "EXDQqEcYX0rjkqJINOfI8_HH-iE=", "properties": {"@source_uri": "https://tools.usps.com/UspsToolsRestServices/rest/POLocator/findLocations", "@spider": "usps_collection_boxes", "addr:city": "BIRMINGHAM", "addr:country": "US", "addr:postcode": "35233", "addr:state": "AL", "addr:street_address": "1518 5TH AVE S", "amenity": "post_box", "collection_times": "Mo-Fr 15:00", "note": "ON 12/24 AND 12/31, THIS BOX MAY BE COLLECTED AS EARLY AS 12 NOON.", "nsi_id": "unitedstatespostalservice-a77078", "operator": "United States Postal Service", "operator:short": "USPS", "operator:type": "public", "operator:wikidata": "Q668687", "ref": "3523300038"}, "type": "Feature"}
{"geometry": {"coordinates": [-86.8076519, 33.501486], "type": "Point"}, "id": "8KeCFo20pDV_XtkCD-GHePXO1LA=", "properties": {"@source_uri": "https://tools.usps.com/UspsToolsRestServices/rest/POLocator/findLocations", "@spider": "usps_collection_boxes", "addr:city": "BIRMINGHAM", "addr:country": "US", "addr:postcode": "35233", "addr:state": "AL", "addr:street_address": "1400 UNIVERSITY BLVD", "amenity": "post_box", "collection_times": "Mo-Fr 10:30", "nsi_id": "unitedstatespostalservice-a77078", "operator": "United States Postal Service", "operator:short": "USPS", "operator:type": "public", "operator:wikidata": "Q668687", "ref": "3523300039"}, "type": "Feature"}
{"geometry": {"coordinates": [-86.8053724, 33.503345], "type": "Point"}, "id": "QU5mjjilpLuLqI6pWTssvrRVBNk=", "properties": {"@source_uri": "https://tools.usps.com/UspsToolsRestServices/rest/POLocator/findLocations", "@spider": "usps_collection_boxes", "addr:city": "BIRMINGHAM", "addr:country": "US", "addr:postcode": "35233", "addr:state": "AL", "addr:street_address": "1600 7TH AVE S", "amenity": "post_box", "collection_times": "Mo-Fr 15:00", "note": "ON 12/24 AND 12/31, THIS BOX MAY BE COLLECTED AS EARLY AS 12 NOON.", "nsi_id": "unitedstatespostalservice-a77078", "operator": "United States Postal Service", "operator:short": "USPS", "operator:type": "public", "operator:wikidata": "Q668687", "ref": "3523300040"}, "type": "Feature"}
{"geometry": {"coordinates": [-86.8058839751, 33.5104960173], "type": "Point"}, "id": "a9NsgPVmsX-fwlHuNkH_nJ-sH7s=", "properties": {"@source_uri": "https://tools.usps.com/UspsToolsRestServices/rest/POLocator/findLocations", "@spider": "usps_collection_boxes", "addr:city": "BIRMINGHAM", "addr:country": "US", "addr:postcode": "35233", "addr:state": "AL", "addr:street_address": "1801 1ST AVE S", "amenity": "post_box", "collection_times": "Mo-Fr 15:00", "note": "ON 12/24 AND 12/31, THIS BOX MAY BE COLLECTED AS EARLY AS 12 NOON.", "nsi_id": "unitedstatespostalservice-a77078", "operator": "United States Postal Service", "operator:short": "USPS", "operator:type": "public", "operator:wikidata": "Q668687", "ref": "3523300043"}, "type": "Feature"}
{"geometry": {"coordinates": [-86.8066439623, 33.5096170071], "type": "Point"}, "id": "6hJ0sWJhIZUMO8BRNBw7bPcsHts=", "properties": {"@source_uri": "https://tools.usps.com/UspsToolsRestServices/rest/POLocator/findLocations", "@spider": "usps_collection_boxes", "addr:city": "BIRMINGHAM", "addr:country": "US", "addr:postcode": "35233", "addr:state": "AL", "addr:street_address": "120 18TH ST S", "amenity": "post_box", "collection_times": "Mo-Fr 15:00", "note": "ON 12/24 AND 12/31, THIS BOX MAY BE COLLECTED AS EARLY AS 12 NOON.", "nsi_id": "unitedstatespostalservice-a77078", "operator": "United States Postal Service", "operator:short": "USPS", "operator:type": "public", "operator:wikidata": "Q668687", "ref": "3523300044"}, "type": "Feature"}
{"geometry": {"coordinates": [-86.8044100175, 33.5120239963], "type": "Point"}, "id": "z9EO_3M9xNMHCAbAygI88S98xY0=", "properties": {"@source_uri": "https://tools.usps.com/UspsToolsRestServices/rest/POLocator/findLocations", "@spider": "usps_collection_boxes", "addr:city": "BIRMINGHAM", "addr:country": "US", "addr:postcode": "35233", "addr:state": "AL", "addr:street_address": "20 20TH ST S", "amenity": "post_box", "collection_times": "Mo-Fr 10:00", "nsi_id": "unitedstatespostalservice-a77078", "operator": "United States Postal Service", "operator:short": "USPS", "operator:type": "public", "operator:wikidata": "Q668687", "ref": "3523300052"}, "type": "Feature"}
{"geometry": {"coordinates": [-86.817569104, 33.500443361], "type": "Point"}, "id": "Xc34wWTayvqCAg--IuCLUs7trks=", "properties": {"@source_uri": "https://tools.usps.com/UspsToolsRestServices/rest/POLocator/findLocations", "@spider": "usps_collection_boxes", "addr:city": "BIRMINGHAM", "addr:country": "US", "addr:postcode": "35233", "addr:state": "AL", "addr:street_address": "801 5TH AVE S", "amenity": "post_box", "collection_times": "Mo-Fr 13:00", "note": "ON 12/24 AND 12/31, THIS BOX MAY BE COLLECTED AS EARLY AS 12 NOON.", "nsi_id": "unitedstatespostalservice-a77078", "operator": "United States Postal Service", "operator:short": "USPS", "operator:type": "public", "operator:wikidata": "Q668687", "ref": "3523300058"}, "type": "Feature"}
{"geometry": {"coordinates": [-86.8022231, 33.504128], "type": "Point"}, "id": "0IhbXhxYCmt3iWdCj6ySjhHMJnI=", "properties": {"@source_uri": "https://tools.usps.com/UspsToolsRestServices/rest/POLocator/findLocations", "@spider": "usps_collection_boxes", "addr:city": "BIRMINGHAM", "addr:country": "US", "addr:postcode": "35233", "addr:state": "AL", "addr:street_address": "700 18TH ST S", "amenity": "post_box", "collection_times": "Mo-Fr 15:00", "note": "ON 12/24 AND 12/31, THIS BOX MAY BE COLLECTED AS EARLY AS 12 NOON.", "nsi_id": "unitedstatespostalservice-a77078", "operator": "United States Postal Service", "operator:short": "USPS", "operator:type": "public", "operator:wikidata": "Q668687", "ref": "3523300063"}, "type": "Feature"}
{"geometry": {"coordinates": [-86.7999921, 33.507636], "type": "Point"}, "id": "wuB8uO6bV8jmG-KH0xE_va0cNwY=", "properties": {"@source_uri": "https://tools.usps.com/UspsToolsRestServices/rest/POLocator/findLocations", "@spider": "usps_collection_boxes", "addr:city": "BIRMINGHAM", "addr:country": "US", "addr:postcode": "35233", "addr:state": "AL", "addr:street_address": "2000 6TH AVE S", "amenity": "post_box", "collection_times": "Mo-Fr 10:00", "nsi_id": "unitedstatespostalservice-a77078", "operator": "United States Postal Service", "operator:short": "USPS", "operator:type": "public", "operator:wikidata": "Q668687", "ref": "3523300065"}, "type": "Feature"}
{"geometry": {"coordinates": [-86.811512004, 33.528078987], "type": "Point"}, "id": "aNiIVcpyhStwTcuhzUUIsIDBBmM=", "properties": {"@source_uri": "https://tools.usps.com/UspsToolsRestServices/rest/POLocator/findLocations", "@spider": "usps_collection_boxes", "addr:city": "BIRMINGHAM", "addr:country": "US", "addr:postcode": "35234", "addr:state": "AL", "addr:street_address": "2131 12TH AVE N", "amenity": "post_box", "collection_times": "Mo-Fr 10:00", "nsi_id": "unitedstatespostalservice-a77078", "operator": "United States Postal Service", "operator:short": "USPS", "operator:type": "public", "operator:wikidata": "Q668687", "ref": "3523400004"}, "type": "Feature"}
{"geometry": {"coordinates": [-86.8047909, 33.540712], "type": "Point"}, "id": "l6W5epK8QD-tloP2vfxM9Y22FGc=", "properties": {"@source_uri": "https://tools.usps.com/UspsToolsRestServices/rest/POLocator/findLocations", "@spider": "usps_collection_boxes", "addr:city": "BIRMINGHAM", "addr:country": "US", "addr:postcode": "35234", "addr:state": "AL", "addr:street_address": "3001 NORWOOD BLVD", "amenity": "post_box", "collection_times": "Mo-Fr 09:30", "nsi_id": "unitedstatespostalservice-a77078", "operator": "United States Postal Service", "operator:short": "USPS", "operator:type": "public", "operator:wikidata": "Q668687", "ref": "3523400008"}, "type": "Feature"}
{"geometry": {"coordinates": [-86.7998840412, 33.5332649963], "type": "Point"}, "id": "Xle09qyoyj2G5u2QL3dP9rUvdrU=", "properties": {"@source_uri": "https://tools.usps.com/UspsToolsRestServices/rest/POLocator/findLocations", "@spider": "usps_collection_boxes", "addr:city": "BIRMINGHAM", "addr:country": "US", "addr:postcode": "35234", "addr:state": "AL", "addr:street_address": "3001 12TH AVE N", "amenity": "post_box", "collection_times": "Mo-Fr 09:30", "nsi_id": "unitedstatespostalservice-a77078", "operator": "United States Postal Service", "operator:short": "USPS", "operator:type": "public", "operator:wikidata": "Q668687", "ref": "3523400011"}, "type": "Feature"}
{"geometry": {"coordinates": [-86.8140855784, 33.5270803825], "type": "Point"}, "id": "B-is3znkb1Dy_lVbKYUSvUAiZb8=", "properties": {"@source_uri": "https://tools.usps.com/UspsToolsRestServices/rest/POLocator/findLocations", "@spider": "usps_collection_boxes", "addr:city": "BIRMINGHAM", "addr:country": "US", "addr:postcode": "35234", "addr:state": "AL", "addr:street_address": "2001 12TH AVE N", "amenity": "post_box", "collection_times": "Mo-Fr 10:00", "nsi_id": "unitedstatespostalservice-a77078", "operator": "United States Postal Service", "operator:short": "USPS", "operator:type": "public", "operator:wikidata": "Q668687", "ref": "3523400014"}, "type": "Feature"}
{"geometry": {"coordinates": [-86.7155411, 33.40881], "type": "Point"}, "id": "R40p5sXRY9YixHPsgOoAocOdeKA=", "properties": {"@source_uri": "https://tools.usps.com/UspsToolsRestServices/rest/POLocator/findLocations", "@spider": "usps_collection_boxes", "addr:city": "BIRMINGHAM", "addr:country": "US", "addr:postcode": "35242", "addr:state": "AL", "addr:street_address": "115 CAMBRIAN WAY", "amenity": "post_box", "collection_times": "Mo-Fr 11:00", "nsi_id": "unitedstatespostalservice-a77078", "operator": "United States Postal Service", "operator:short": "USPS", "operator:type": "public", "operator:wikidata": "Q668687", "ref": "3524200008"}, "type": "Feature"}
{"geometry": {"coordinates": [-86.6982899, 33.418877], "type": "Point"}, "id": "MSLJEThFHaciOKkQZZy59AwdVOs=", "properties": {"@source_uri": "https://tools.usps.com/UspsToolsRestServices/rest/POLocator/findLocations", "@spider": "usps_collection_boxes", "addr:city": "BIRMINGHAM", "addr:country": "US", "addr:postcode": "35242", "addr:state": "AL", "addr:street_address": "165 INVERNESS PLZ", "amenity": "post_box", "collection_times": "Mo-Fr 10:30", "nsi_id": "unitedstatespostalservice-a77078", "operator": "United States Postal Service", "operator:short": "USPS", "operator:type": "public", "operator:wikidata": "Q668687", "ref": "3524200009"}, "type": "Feature"}
{"geometry": {"coordinates": [-86.6989385, 33.423882], "type": "Point"}, "id": "hEg0B8RbHEATNT3bn0Mu-yHqYZg=", "properties": {"@source_uri": "https://tools.usps.com/UspsToolsRestServices/rest/POLocator/findLocations", "@spider": "usps_collection_boxes", "addr:city": "BIRMINGHAM", "addr:country": "US", "addr:postcode": "35242", "addr:state": "AL", "addr:street_address": "3 GREENHILL PKWY", "amenity": "post_box", "collection_times": "Mo-Fr 10:30", "nsi_id": "unitedstatespostalservice-a77078", "operator": "United States Postal Service", "operator:short": "USPS", "operator:type": "public", "operator:wikidata": "Q668687", "ref": "3524200012"}, "type": "Feature"}
{"geometry": {"coordinates": [-86.7073849, 33.428742], "type": "Point"}, "id": "NMUkh16ZtnqI1I7HPknzj3hcmjY=", "properties": {"@source_uri": "https://tools.usps.com/UspsToolsRestServices/rest/POLocator/findLocations", "@spider": "usps_collection_boxes", "addr:city": "BIRMINGHAM", "addr:country": "US", "addr:postcode": "35242", "addr:state": "AL", "addr:street_address": "4625 HIGHWAY 280", "amenity": "post_box", "collection_times": "Mo-Fr 12:00", "nsi_id": "unitedstatespostalservice-a77078", "operator": "United States Postal Service", "operator:short": "USPS", "operator:type": "public", "operator:wikidata": "Q668687", "ref": "3524200016"}, "type": "Feature"}
{"geometry": {"coordinates": [-86.7377481, 33.385142], "type": "Point"}, "id": "_XdvXjoWxq7sxERz8JKgt5pGcog=", "properties": {"@source_uri": "https://tools.usps.com/UspsToolsRestServices/rest/POLocator/findLocations", "@spider": "usps_collection_boxes", "addr:city": "BIRMINGHAM", "addr:country": "US", "addr:postcode": "35242", "addr:state": "AL", "addr:street_address": "4500 VALLEYDALE RD", "amenity": "post_box", "collection_times": "Mo-Fr 13:00", "note": "ON 12/24 AND 12/31, THIS BOX MAY BE COLLECTED AS EARLY AS 12 NOON.", "nsi_id": "unitedstatespostalservice-a77078", "operator": "United States Postal Service", "operator:short": "USPS", "operator:type": "public", "operator:wikidata": "Q668687", "ref": "3524200020"}, "type": "Feature"}
{"geometry": {"coordinates": [-86.6871206, 33.42617], "type": "Point"}, "id": "MoSqghwYfLeCRgNMSgQ6UZsNpyo=", "properties": {"@source_uri": "https://tools.usps.com/UspsToolsRestServices/rest/POLocator/findLocations", "@spider": "usps_collection_boxes", "addr:city": "BIRMINGHAM", "addr:country": "US", "addr:postcode": "35242", "addr:state": "AL", "addr:street_address": "1 EAGLE RIDGE DR", "amenity": "post_box", "collection_times": "Mo-Fr 10:30", "nsi_id": "unitedstatespostalservice-a77078", "operator": "United States Postal Service", "operator:short": "USPS", "operator:type": "public", "operator:wikidata": "Q668687", "ref": "3524200021"}, "type": "Feature"}
{"geometry": {"coordinates": [-86.7053541, 33.428984], "type": "Point"}, "id": "JV_sU0Sle2Cta67itAxfoLD7hDk=", "properties": {"@source_uri": "https://tools.usps.com/UspsToolsRestServices/rest/POLocator/findLocations", "@spider": "usps_collection_boxes", "addr:city": "BIRMINGHAM", "addr:country": "US", "addr:postcode": "35242", "addr:state": "AL", "addr:street_address": "200 CAHABA PARK CIR", "amenity": "post_box", "collection_times": "Mo-Fr 12:00", "nsi_id": "unitedstatespostalservice-a77078", "operator": "United States Postal Service", "operator:short": "USPS", "operator:type": "public", "operator:wikidata": "Q668687", "ref": "3524200022"}, "type": "Feature"}
{"geometry": {"coordinates": [-86.7019256, 33.426765], "type": "Point"}, "id": "j1KaYtouc7QzY2dKIUEYK_epH04=", "properties": {"@source_uri": "https://tools.usps.com/UspsToolsRestServices/rest/POLocator/findLocations", "@spider": "usps_collection_boxes", "addr:city": "BIRMINGHAM", "addr:country": "US", "addr:postcode": "35242", "addr:state": "AL", "addr:street_address": "200 RIVERHILLS BUSINESS PARK", "amenity": "post_box", "collection_times": "Mo-Fr 12:00", "nsi_id": "unitedstatespostalservice-a77078", "operator": "United States Postal Service", "operator:short": "USPS", "operator:type": "public", "operator:wikidata": "Q668687", "ref": "3524200024"}, "type": "Feature"}
{"geometry": {"coordinates": [-86.68082, 33.418728], "type": "Point"}, "id": "BIQEfVqGVwWmgBgtTmft2UG7NQQ=", "properties": {"@source_uri": "https://tools.usps.com/UspsToolsRestServices/rest/POLocator/findLocations", "@spider": "usps_collection_boxes", "addr:city": "BIRMINGHAM", "addr:country": "US", "addr:postcode": "35242", "addr:state": "AL", "addr:street_address": "5259 HIGHWAY 280", "amenity": "post_box", "collection_times": "Mo-Fr 10:30", "nsi_id": "unitedstatespostalservice-a77078", "operator": "United States Postal Service", "operator:short": "USPS", "operator:type": "public", "operator:wikidata": "Q668687", "ref": "3524200028"}, "type": "Feature"}
{"geometry": {"coordinates": [-86.676321, 33.414053], "type": "Point"}, "id": "W8aOgQRUTewDKZtqGVUZUGgy0wE=", "properties": {"@source_uri": "https://tools.usps.com/UspsToolsRestServices/rest/POLocator/findLocations", "@spider": "usps_collection_boxes", "addr:city": "BIRMINGHAM", "addr:country": "US", "addr:postcode": "35242", "addr:state": "AL", "addr:street_address": "1900 CORPORATE DR", "amenity": "post_box", "collection_times": "Mo-Fr 17:00; Sa 16:30", "indoor": "yes", "note": "ON 12/24 AND 12/31, THIS BOX MAY BE COLLECTED AS EARLY AS 12 NOON.", "nsi_id": "unitedstatespostalservice-a77078", "operator": "United States Postal Service", "operator:short": "USPS", "operator:type": "public", "operator:wikidata": "Q668687", "ref": "3524200032"}, "type": "Feature"}
{"geometry": {"coordinates": [-86.676321, 33.414053], "type": "Point"}, "id": "amQVjZAfh2tVvYx6lgn_jCES67g=", "properties": {"@source_uri": "https://tools.usps.com/UspsToolsRestServices/rest/POLocator/findLocations", "@spider": "usps_collection_boxes", "addr:city": "BIRMINGHAM", "addr:country": "US", "addr:postcode": "35242", "addr:state": "AL", "addr:street_address": "1900 CORPORATE DR", "amenity": "post_box", "collection_times": "Mo-Fr 17:00; Sa 16:30", "note": "ON 12/24 AND 12/31, THIS BOX MAY BE COLLECTED AS EARLY AS 12 NOON.", "nsi_id": "unitedstatespostalservice-a77078", "operator": "United States Postal Service", "operator:short": "USPS", "operator:type": "public", "operator:wikidata": "Q668687", "ref": "3524200035"}, "type": "Feature"}
{"geometry": {"coordinates": [-86.7390984, 33.414136], "type": "Point"}, "id": "T06PK6qUmhd0xFCvOiJAgo9yUgI=", "properties": {"@source_uri": "https://tools.usps.com/UspsToolsRestServices/rest/POLocator/findLocations", "@spider": "usps_collection_boxes", "addr:city": "BIRMINGHAM", "addr:country": "US", "addr:postcode": "35242", "addr:state": "AL", "addr:street_address": "4501 OLD CALDWELL MILL RD", "amenity": "post_box", "collection_times": "Mo-Fr 12:00", "nsi_id": "unitedstatespostalservice-a77078", "operator": "United States Postal Service", "operator:short": "USPS", "operator:type": "public", "operator:wikidata": "Q668687", "ref": "3524200036"}, "type": "Feature"}
{"geometry": {"coordinates": [-86.6301536, 33.408891], "type": "Point"}, "id": "3v5LEoUIoHMUK1dyROGU_BMWXwY=", "properties": {"@source_uri": "https://tools.usps.com/UspsToolsRestServices/rest/POLocator/findLocations", "@spider": "usps_collection_boxes", "addr:city": "BIRMINGHAM", "addr:country": "US", "addr:postcode": "35242", "addr:state": "AL", "addr:street_address": "1 MT LAUREL AVE", "amenity": "post_box", "collection_times": "Mo-Sa 10:30", "nsi_id": "unitedstatespostalservice-a77078", "operator": "United States Postal Service", "operator:short": "USPS", "operator:type": "public", "operator:wikidata": "Q668687", "ref": "3524200039"}, "type": "Feature"}
{"geometry": {"coordinates": [-86.676321, 33.414053], "type": "Point"}, "id": "FpCBv40UwPHKYDalh8vLDu77mK4=", "properties": {"@source_uri": "https://tools.usps.com/UspsToolsRestServices/rest/POLocator/findLocations", "@spider": "usps_collection_boxes", "addr:city": "BIRMINGHAM", "addr:country": "US", "addr:postcode": "35242", "addr:state": "AL", "addr:street_address": "1900 CORPORATE DR", "amenity": "post_box", "collection_times": "Mo-Fr 17:00; Sa 16:30", "name": "USPS COLLECTION BOX - APC", "note": "ON 12/24 AND 12/31, THIS BOX MAY BE COLLECTED AS EARLY AS 12 NOON.", "nsi_id": "unitedstatespostalservice-a77078", "operator": "United States Postal Service", "operator:short": "USPS", "operator:type": "public", "operator:wikidata": "Q668687", "ref": "3524200040"}, "type": "Feature"}
{"geometry": {"coordinates": [-86.676237883, 33.414082127], "type": "Point"}, "id": "FpRHwmScrDgi33ZL_Kr8FEWooHU=", "properties": {"@source_uri": "https://tools.usps.com/UspsToolsRestServices/rest/POLocator/findLocations", "@spider": "usps_collection_boxes", "addr:city": "BIRMINGHAM", "addr:country": "US", "addr:postcode": "35242", "addr:state": "AL", "addr:street_address": "1900 CORPORATE DR", "amenity": "post_box", "collection_times": "Mo-Fr 18:00; Sa 16:00", "indoor": "yes", "note": "ON 12/24 AND 12/31, THIS BOX MAY BE COLLECTED AS EARLY AS 12 NOON.", "nsi_id": "unitedstatespostalservice-a77078", "operator": "United States Postal Service", "operator:short": "USPS", "operator:type": "public", "operator:wikidata": "Q668687", "ref": "3524200046"}, "type": "Feature"}
{"geometry": {"coordinates": [-86.734839, 33.461584], "type": "Point"}, "id": "mRD7RTyLy01_vQ1TJe5HdMWw2Os=", "properties": {"@source_uri": "https://tools.usps.com/UspsToolsRestServices/rest/POLocator/findLocations", "@spider": "usps_collection_boxes", "addr:city": "VESTAVIA", "addr:country": "US", "addr:postcode": "35243", "addr:state": "AL", "addr:street_address": "3105 SUNVIEW DR", "amenity": "post_box", "collection_times": "Mo-Fr 17:00; Sa 14:00", "note": "ON 12/24 AND 12/31, THIS BOX MAY BE COLLECTED AS EARLY AS 12 NOON.", "nsi_id": "unitedstatespostalservice-a77078", "operator": "United States Postal Service", "operator:short": "USPS", "operator:type": "public", "operator:wikidata": "Q668687", "ref": "3524300000"}, "type": "Feature"}
{"geometry": {"coordinates": [-86.7648221, 33.409071], "type": "Point"}, "id": "YCEw2qjaqt-QQwveFMTdGFnB4KE=", "properties": {"@source_uri": "https://tools.usps.com/UspsToolsRestServices/rest/POLocator/findLocations", "@spider": "usps_collection_boxes", "addr:city": "VESTAVIA", "addr:country": "US", "addr:postcode": "35243", "addr:state": "AL", "addr:street_address": "2870 OLD ROCKY RIDGE RD", "amenity": "post_box", "collection_times": "Mo-Fr 10:00", "nsi_id": "unitedstatespostalservice-a77078", "operator": "United States Postal Service", "operator:short": "USPS", "operator:type": "public", "operator:wikidata": "Q668687", "ref": "3524300006"}, "type": "Feature"}
{"geometry": {"coordinates": [-86.7335766, 33.46263], "type": "Point"}, "id": "ADbLewJjNFks96kfqTYf0aB2zFA=", "properties": {"@source_uri": "https://tools.usps.com/UspsToolsRestServices/rest/POLocator/findLocations", "@spider": "usps_collection_boxes", "addr:city": "VESTAVIA", "addr:country": "US", "addr:postcode": "35243", "addr:state": "AL", "addr:street_address": "3125 NAPOLEON CT", "amenity": "post_box", "collection_times": "Mo-Fr 08:30", "nsi_id": "unitedstatespostalservice-a77078", "operator": "United States Postal Service", "operator:short": "USPS", "operator:type": "public", "operator:wikidata": "Q668687", "ref": "3524300007"}, "type": "Feature"}
{"geometry": {"coordinates": [-86.7356973, 33.45604], "type": "Point"}, "id": "GWxje6iisdnyuGMkq02om4Nae6I=", "properties": {"@source_uri": "https://tools.usps.com/UspsToolsRestServices/rest/POLocator/findLocations", "@spider": "usps_collection_boxes", "addr:city": "VESTAVIA", "addr:country": "US", "addr:postcode": "35243", "addr:state": "AL", "addr:street_address": "3134 CAHABA HEIGHTS PLZ", "amenity": "post_box", "collection_times": "Mo-Fr 10:00", "nsi_id": "unitedstatespostalservice-a77078", "operator": "United States Postal Service", "operator:short": "USPS", "operator:type": "public", "operator:wikidata": "Q668687", "ref": "3524300008"}, "type": "Feature"}
{"geometry": {"coordinates": [-86.7286058, 33.437814], "type": "Point"}, "id": "xG3O03npxjjeVAAD5WP9J8_CkOc=", "properties": {"@source_uri": "https://tools.usps.com/UspsToolsRestServices/rest/POLocator/findLocations", "@spider": "usps_collection_boxes", "addr:city": "VESTAVIA", "addr:country": "US", "addr:postcode": "35243", "addr:state": "AL", "addr:street_address": "3443 COLONNADE PKWY", "amenity": "post_box", "collection_times": "Mo-Fr 10:00", "nsi_id": "unitedstatespostalservice-a77078", "operator": "United States Postal Service", "operator:short": "USPS", "operator:type": "public", "operator:wikidata": "Q668687", "ref": "3524300009"}, "type": "Feature"}
{"geometry": {"coordinates": [-86.7351347, 33.436267], "type": "Point"}, "id": "FQ_MIIpmQsJH3Fxz5FTBd84dVlA=", "properties": {"@source_uri": "https://tools.usps.com/UspsToolsRestServices/rest/POLocator/findLocations", "@spider": "usps_collection_boxes", "addr:city": "VESTAVIA", "addr:country": "US", "addr:postcode": "35243", "addr:state": "AL", "addr:street_address": "4100 COLONNADE PKWY", "amenity": "post_box", "collection_times": "Mo-Fr 10:00", "nsi_id": "unitedstatespostalservice-a77078", "operator": "United States Postal Service", "operator:short": "USPS", "operator:type": "public", "operator:wikidata": "Q668687", "ref": "3524300014"}, "type": "Feature"}
{"geometry": {"coordinates": [-86.7375674, 33.432268], "type": "Point"}, "id": "K105HqfDSeE02QWiAPsgjxxGHRc=", "properties": {"@source_uri": "https://tools.usps.com/UspsToolsRestServices/rest/POLocator/findLocations", "@spider": "usps_collection_boxes", "addr:city": "VESTAVIA", "addr:country": "US", "addr:postcode": "35243", "addr:state": "AL", "addr:street_address": "4704 CAHABA RIVER RD", "amenity": "post_box", "collection_times": "Mo-Fr 10:00", "nsi_id": "unitedstatespostalservice-a77078", "operator": "United States Postal Service", "operator:short": "USPS", "operator:type": "public", "operator:wikidata": "Q668687", "ref": "3524300025"}, "type": "Feature"}
{"geometry": {"coordinates": [-86.7413019, 33.430047], "type": "Point"}, "id": "Rfjkuuh0iU5kHioQ8Qo4rHZ9W4s=", "properties": {"@source_uri": "https://tools.usps.com/UspsToolsRestServices/rest/POLocator/findLocations", "@spider": "usps_collection_boxes", "addr:city": "VESTAVIA", "addr:country": "US", "addr:postcode": "35243", "addr:state": "AL", "addr:street_address": "2868 ACTON RD", "amenity": "post_box", "collection_times": "Mo-Fr 10:00", "nsi_id": "unitedstatespostalservice-a77078", "operator": "United States Postal Service", "operator:short": "USPS", "operator:type": "public", "operator:wikidata": "Q668687", "ref": "3524300028"}, "type": "Feature"}
{"geometry": {"coordinates": [-86.7638173, 33.409925], "type": "Point"}, "id": "ppEGj9qVui9sZ6Ms3EWipoQrOpI=", "properties": {"@source_uri": "https://tools.usps.com/UspsToolsRestServices/rest/POLocator/findLocations", "@spider": "usps_collection_boxes", "addr:city": "VESTAVIA", "addr:country": "US", "addr:postcode": "35243", "addr:state": "AL", "addr:street_address": "2409 ACTON RD", "amenity": "post_box", "collection_times": "Mo-Fr 10:00", "nsi_id": "unitedstatespostalservice-a77078", "operator": "United States Postal Service", "operator:short": "USPS", "operator:type": "public", "operator:wikidata": "Q668687", "ref": "3524300031"}, "type": "Feature"}
{"geometry": {"coordinates": [-86.734839, 33.461584], "type": "Point"}, "id": "dF4AEhUg675ppcAl-Kw5fAd-EM4=", "properties": {"@source_uri": "https://tools.usps.com/UspsToolsRestServices/rest/POLocator/findLocations", "@spider": "usps_collection_boxes", "addr:city": "VESTAVIA", "addr:country": "US", "addr:postcode": "35243", "addr:state": "AL", "addr:street_address": "3105 SUNVIEW DR", "amenity": "post_box", "collection_times": "Mo-Fr 17:00; Sa 14:00", "indoor": "yes", "note": "ON 12/24 AND 12/31, THIS BOX MAY BE COLLECTED AS EARLY AS 12 NOON.", "nsi_id": "unitedstatespostalservice-a77078", "operator": "United States Postal Service", "operator:short": "USPS", "operator:type": "public", "operator:wikidata": "Q668687", "ref": "3524300032"}, "type": "Feature"}
{"geometry": {"coordinates": [-86.734839, 33.461584], "type": "Point"}, "id": "MwtL0H3KLOWH8mOXxEIVJIDDD7U=", "properties": {"@source_uri": "https://tools.usps.com/UspsToolsRestServices/rest/POLocator/findLocations", "@spider": "usps_collection_boxes", "addr:city": "VESTAVIA", "addr:country": "US", "addr:postcode": "35243", "addr:state": "AL", "addr:street_address": "3105 SUNVIEW DR", "amenity": "post_box", "collection_times": "Mo-Fr 17:00; Sa 14:00", "indoor": "yes", "note": "ON 12/24 AND 12/31, THIS BOX MAY BE COLLECTED AS EARLY AS 12 NOON.", "nsi_id": "unitedstatespostalservice-a77078", "operator": "United States Postal Service", "operator:short": "USPS", "operator:type": "public", "operator:wikidata": "Q668687", "ref": "3524300036"}, "type": "Feature"}
{"geometry": {"coordinates": [-86.734839, 33.461584], "type": "Point"}, "id": "TevSCHfATTt9YjpabzFQvooTnNw=", "properties": {"@source_uri": "https://tools.usps.com/UspsToolsRestServices/rest/POLocator/findLocations", "@spider": "usps_collection_boxes", "addr:city": "VESTAVIA", "addr:country": "US", "addr:postcode": "35243", "addr:state": "AL", "addr:street_address": "3105 SUNVIEW DR", "amenity": "post_box", "collection_times": "Mo-Fr 17:00; Sa 14:00", "name": "USPS COLLECTION BOX - APC", "note": "ON 12/24 AND 12/31, THIS BOX MAY BE COLLECTED AS EARLY AS 12 NOON.", "nsi_id": "unitedstatespostalservice-a77078", "operator": "United States Postal Service", "operator:short": "USPS", "operator:type": "public", "operator:wikidata": "Q668687", "ref": "3524300040"}, "type": "Feature"}
{"geometry": {"coordinates": [-86.7289257, 33.452418], "type": "Point"}, "id": "Az4ouiIP7H38ojZdFDf86I3RyTI=", "properties": {"@source_uri": "https://tools.usps.com/UspsToolsRestServices/rest/POLocator/findLocations", "@spider": "usps_collection_boxes", "addr:city": "VESTAVIA", "addr:country": "US", "addr:postcode": "35243", "addr:state": "AL", "addr:street_address": "335 SUMMIT BLVD", "amenity": "post_box", "collection_times": "Mo-Fr 10:00", "nsi_id": "unitedstatespostalservice-a77078", "operator": "United States Postal Service", "operator:short": "USPS", "operator:type": "public", "operator:wikidata": "Q668687", "ref": "3524300043"}, "type": "Feature"}
{"geometry": {"coordinates": [-86.7302639, 33.444352], "type": "Point"}, "id": "ojckazXimWLQnuhYqRIkR3w_cfc=", "properties": {"@source_uri": "https://tools.usps.com/UspsToolsRestServices/rest/POLocator/findLocations", "@spider": "usps_collection_boxes", "addr:city": "VESTAVIA", "addr:country": "US", "addr:postcode": "35243", "addr:state": "AL", "addr:street_address": "130 SUMMIT BLVD", "amenity": "post_box", "collection_times": "Mo-Fr 10:00", "nsi_id": "unitedstatespostalservice-a77078", "operator": "United States Postal Service", "operator:short": "USPS", "operator:type": "public", "operator:wikidata": "Q668687", "ref": "3524300044"}, "type": "Feature"}
{"geometry": {"coordinates": [-86.734800859, 33.462047539], "type": "Point"}, "id": "UmstcgcwGepmMn_f4XL70lFZ8Hc=", "properties": {"@source_uri": "https://tools.usps.com/UspsToolsRestServices/rest/POLocator/findLocations", "@spider": "usps_collection_boxes", "addr:city": "VESTAVIA", "addr:country": "US", "addr:postcode": "35243", "addr:state": "AL", "addr:street_address": "3105 SUNVIEW DR", "amenity": "post_box", "collection_times": "Mo-Fr 18:00; Sa 14:00", "indoor": "yes", "note": "ON 12/24 AND 12/31, THIS BOX MAY BE COLLECTED AS EARLY AS 12 NOON.", "nsi_id": "unitedstatespostalservice-a77078", "operator": "United States Postal Service", "operator:short": "USPS", "operator:type": "public", "operator:wikidata": "Q668687", "ref": "3524300048"}, "type": "Feature"}
{"geometry": {"coordinates": [-86.810232004, 33.372213013], "type": "Point"}, "id": "a1wOVgJinfJB79QdHqge--saYcE=", "properties": {"@source_uri": "https://tools.usps.com/UspsToolsRestServices/rest/POLocator/findLocations", "@spider": "usps_collection_boxes", "addr:city": "BIRMINGHAM", "addr:country": "US", "addr:postcode": "35244", "addr:state": "AL", "addr:street_address": "1809 RIVERCHASE DR", "amenity": "post_box", "collection_times": "Mo-Fr 17:00; Sa 14:00", "indoor": "yes", "note": "ON 12/24 AND 12/31, THIS BOX MAY BE COLLECTED AS EARLY AS 12 NOON.", "nsi_id": "unitedstatespostalservice-a77078", "operator": "United States Postal Service", "operator:short": "USPS", "operator:type": "public", "operator:wikidata": "Q668687", "ref": "3524400004"}, "type": "Feature"}
{"geometry": {"coordinates": [-86.7878153, 33.351605], "type": "Point"}, "id": "i9uCyVZp1W2JLupCbciLmO36K6I=", "properties": {"@source_uri": "https://tools.usps.com/UspsToolsRestServices/rest/POLocator/findLocations", "@spider": "usps_collection_boxes", "addr:city": "BIRMINGHAM", "addr:country": "US", "addr:postcode": "35244", "addr:state": "AL", "addr:street_address": "100 CONCOURSE PKWY", "amenity": "post_box", "collection_times": "Mo-Fr 09:00", "nsi_id": "unitedstatespostalservice-a77078", "operator": "United States Postal Service", "operator:short": "USPS", "operator:type": "public", "operator:wikidata": "Q668687", "ref": "3524400008"}, "type": "Feature"}
{"geometry": {"coordinates": [-86.7964639, 33.371947], "type": "Point"}, "id": "RW-ILazVsdtffPlNZaP8AXowlS0=", "properties": {"@source_uri": "https://tools.usps.com/UspsToolsRestServices/rest/POLocator/findLocations", "@spider": "usps_collection_boxes", "addr:city": "BIRMINGHAM", "addr:country": "US", "addr:postcode": "35244", "addr:state": "AL", "addr:street_address": "1855 DATA DR", "amenity": "post_box", "collection_times": "Mo-Fr 10:00", "nsi_id": "unitedstatespostalservice-a77078", "operator": "United States Postal Service", "operator:short": "USPS", "operator:type": "public", "operator:wikidata": "Q668687", "ref": "3524400013"}, "type": "Feature"}
{"geometry": {"coordinates": [-86.7857466, 33.3607], "type": "Point"}, "id": "mugOoyV9_Ut6M69t9cKK7x51oXA=", "properties": {"@source_uri": "https://tools.usps.com/UspsToolsRestServices/rest/POLocator/findLocations", "@spider": "usps_collection_boxes", "addr:city": "BIRMINGHAM", "addr:country": "US", "addr:postcode": "35244", "addr:state": "AL", "addr:street_address": "265 RIVERCHASE PKWY E", "amenity": "post_box", "collection_times": "Mo-Fr 10:00", "nsi_id": "unitedstatespostalservice-a77078", "operator": "United States Postal Service", "operator:short": "USPS", "operator:type": "public", "operator:wikidata": "Q668687", "ref": "3524400015"}, "type": "Feature"}
{"geometry": {"coordinates": [-86.7865143, 33.365365], "type": "Point"}, "id": "aipw3DIiMX2IkRayQOIwkwLVOv4=", "properties": {"@source_uri": "https://tools.usps.com/UspsToolsRestServices/rest/POLocator/findLocations", "@spider": "usps_collection_boxes", "addr:city": "BIRMINGHAM", "addr:country": "US", "addr:postcode": "35244", "addr:state": "AL", "addr:street_address": "2100 RIVERCHASE CTR", "amenity": "post_box", "collection_times": "Mo-Fr 10:00", "nsi_id": "unitedstatespostalservice-a77078", "operator": "United States Postal Service", "operator:short": "USPS", "operator:type": "public", "operator:wikidata": "Q668687", "ref": "3524400017"}, "type": "Feature"}
{"geometry": {"coordinates": [-86.8012566, 33.37203], "type": "Point"}, "id": "tvK6_eN07jX91VNfo_oFUtFZE-g=", "properties": {"@source_uri": "https://tools.usps.com/UspsToolsRestServices/rest/POLocator/findLocations", "@spider": "usps_collection_boxes", "addr:city": "BIRMINGHAM", "addr:country": "US", "addr:postcode": "35244", "addr:state": "AL", "addr:street_address": "1 CHASE CORPORATE DR", "amenity": "post_box", "collection_times": "Mo-Fr 10:30", "nsi_id": "unitedstatespostalservice-a77078", "operator": "United States Postal Service", "operator:short": "USPS", "operator:type": "public", "operator:wikidata": "Q668687", "ref": "3524400019"}, "type": "Feature"}
{"geometry": {"coordinates": [-86.7925061, 33.365201], "type": "Point"}, "id": "eX9tPRd6zu-s2_V1Vtm7kuc4528=", "properties": {"@source_uri": "https://tools.usps.com/UspsToolsRestServices/rest/POLocator/findLocations", "@spider": "usps_collection_boxes", "addr:city": "BIRMINGHAM", "addr:country": "US", "addr:postcode": "35244", "addr:state": "AL", "addr:street_address": "501 RIVERCHASE PKWY E", "amenity": "post_box", "collection_times": "Mo-Fr 12:30", "note": "ON 12/24 AND 12/31, THIS BOX MAY BE COLLECTED AS EARLY AS 12 NOON.", "nsi_id": "unitedstatespostalservice-a77078", "operator": "United States Postal Service", "operator:short": "USPS", "operator:type": "public", "operator:wikidata": "Q668687", "ref": "3524400023"}, "type": "Feature"}
{"geometry": {"coordinates": [-86.7965964, 33.347705], "type": "Point"}, "id": "rdq33ps_gu9X-0bUBplpZ0cx7NE=", "properties": {"@source_uri": "https://tools.usps.com/UspsToolsRestServices/rest/POLocator/findLocations", "@spider": "usps_collection_boxes", "addr:city": "BIRMINGHAM", "addr:country": "US", "addr:postcode": "35244", "addr:state": "AL", "addr:street_address": "1922 MONTGOMERY HWY", "amenity": "post_box", "collection_times": "Mo-Fr 12:00", "nsi_id": "unitedstatespostalservice-a77078", "operator": "United States Postal Service", "operator:short": "USPS", "operator:type": "public", "operator:wikidata": "Q668687", "ref": "3524400026"}, "type": "Feature"}
{"geometry": {"coordinates": [-86.7721738, 33.360592], "type": "Point"}, "id": "IfGS7dOCTEM0VCDvD68knKSEMaU=", "properties": {"@source_uri": "https://tools.usps.com/UspsToolsRestServices/rest/POLocator/findLocations", "@spider": "usps_collection_boxes", "addr:city": "BIRMINGHAM", "addr:country": "US", "addr:postcode": "35244", "addr:state": "AL", "addr:street_address": "4524 SOUTHLAKE PKWY", "amenity": "post_box", "collection_times": "Mo-Fr 10:30; Sa 10:00", "nsi_id": "unitedstatespostalservice-a77078", "operator": "United States Postal Service", "operator:short": "USPS", "operator:type": "public", "operator:wikidata": "Q668687", "ref": "3524400027"}, "type": "Feature"}
{"geometry": {"coordinates": [-86.7838519, 33.364122], "type": "Point"}, "id": "cwwVS62Cak_mxPNM-EqnCY3Q5hI=", "properties": {"@source_uri": "https://tools.usps.com/UspsToolsRestServices/rest/POLocator/findLocations", "@spider": "usps_collection_boxes", "addr:city": "BIRMINGHAM", "addr:country": "US", "addr:postcode": "35244", "addr:state": "AL", "addr:street_address": "2200 RIVERCHASE CTR", "amenity": "post_box", "collection_times": "Mo-Fr 10:00", "nsi_id": "unitedstatespostalservice-a77078", "operator": "United States Postal Service", "operator:short": "USPS", "operator:type": "public", "operator:wikidata": "Q668687", "ref": "3524400030"}, "type": "Feature"}
{"geometry": {"coordinates": [-86.810232004, 33.372213013], "type": "Point"}, "id": "qXg8IHr74_jZw1UTKmRmLeXHqLE=", "properties": {"@source_uri": "https://tools.usps.com/UspsToolsRestServices/rest/POLocator/findLocations", "@spider": "usps_collection_boxes", "addr:city": "BIRMINGHAM", "addr:country": "US", "addr:postcode": "35244", "addr:state": "AL", "addr:street_address": "1809 RIVERCHASE DR", "amenity": "post_box", "collection_times": "Mo-Fr 17:00; Sa 14:00", "name": "USPS COLLECTION BOX - APC", "note": "ON 12/24 AND 12/31, THIS BOX MAY BE COLLECTED AS EARLY AS 12 NOON.", "nsi_id": "unitedstatespostalservice-a77078", "operator": "United States Postal Service", "operator:short": "USPS", "operator:type": "public", "operator:wikidata": "Q668687", "ref": "3524400038"}, "type": "Feature"}
{"geometry": {"coordinates": [-86.810232004, 33.372213013], "type": "Point"}, "id": "ORfygdXFeAw6qU-bCEDf0UwBSeY=", "properties": {"@source_uri": "https://tools.usps.com/UspsToolsRestServices/rest/POLocator/findLocations", "@spider": "usps_collection_boxes", "addr:city": "BIRMINGHAM", "addr:country": "US", "addr:postcode": "35244", "addr:state": "AL", "addr:street_address": "1809 RIVERCHASE DR", "amenity": "post_box", "collection_times": "Mo-Fr 18:00; Sa 15:00", "indoor": "yes", "note": "ON 12/24 AND 12/31, THIS BOX MAY BE COLLECTED AS EARLY AS 12 NOON.", "nsi_id": "unitedstatespostalservice-a77078", "operator": "United States Postal Service", "operator:short": "USPS", "operator:type": "public", "operator:wikidata": "Q668687", "ref": "3524400050"}, "type": "Feature"}
