{"dataset_attributes": {"@spider": "usps_collection_boxes"}, "geometry": {"coordinates": [-87.5455757, 33.144919], "type": "Point"}, "id": "yDH_Ut-9tMKNFXAalRxl5ZroYd4=", "properties": {"@spider": "usps_collection_boxes", "addr:city": "TUSCALOOSA", "addr:country": "US", "addr:full": "623 BEAR CREEK RD", "addr:postcode": "35405", "addr:state": "AL", "amenity": "post_box", "brand": "United States Postal Service", "brand:wikidata": "Q668687", "collection_times": "Mo-Fr 11:00", "name": "USPS COLLECTION BOX - BLUE BOX", "nsi_id": "unitedstatespostalservice-a77078", "operator": "United States Postal Service", "operator:short": "USPS", "operator:type": "public", "operator:wikidata": "Q668687", "ref": "3540500025"}, "type": "Feature"}
{"dataset_attributes": {"@spider": "usps_collection_boxes"}, "geometry": {"coordinates": [-87.5455833, 33.144922], "type": "Point"}, "id": "F6XcGwtv6taxoYlbF0nd6CJr1I0=", "properties": {"@spider": "usps_collection_boxes", "addr:city": "TUSCALOOSA", "addr:country": "US", "addr:full": "623 BEAR CREEK RD", "addr:postcode": "35405", "addr:state": "AL", "amenity": "post_box", "brand": "United States Postal Service", "brand:wikidata": "Q668687", "collection_times": "Mo-Fr 11:00", "name": "USPS COLLECTION BOX - BLUE BOX", "nsi_id": "unitedstatespostalservice-a77078", "operator": "United States Postal Service", "operator:short": "USPS", "operator:type": "public", "operator:wikidata": "Q668687", "ref": "3540500028"}, "type": "Feature"}
{"dataset_attributes": {"@spider": "usps_collection_boxes"}, "geometry": {"coordinates": [-87.742092, 32.877296], "type": "Point"}, "id": "ZZ0zUUc1n1BHKkVQO7-dHZc1Alc=", "properties": {"@spider": "usps_collection_boxes", "addr:city": "AKRON", "addr:country": "US", "addr:full": "197 1ST AVE S", "addr:postcode": "35441", "addr:state": "AL", "amenity": "post_box", "brand": "United States Postal Service", "brand:wikidata": "Q668687", "collection_times": "Mo-Fr 15:30; Sa 10:30", "name": "USPS COLLECTION BOX - BLUE BOX", "note": "ON 12/24 AND 12/31, THIS BOX MAY BE COLLECTED AS EARLY AS 12 NOON.", "nsi_id": "unitedstatespostalservice-a77078", "operator": "United States Postal Service", "operator:short": "USPS", "operator:type": "public", "operator:wikidata": "Q668687", "ref": "3544100000"}, "type": "Feature"}
{"dataset_attributes": {"@spider": "usps_collection_boxes"}, "geometry": {"coordinates": [-87.742092, 32.877296], "type": "Point"}, "id": "xWGW-kfGUXZqczA8-YlYUACCQr4=", "properties": {"@spider": "usps_collection_boxes", "addr:city": "AKRON", "addr:country": "US", "addr:full": "197 1ST AVE S", "addr:postcode": "35441", "addr:state": "AL", "amenity": "post_box", "brand": "United States Postal Service", "brand:wikidata": "Q668687", "collection_times": "Mo-Fr 15:30; Sa 10:30", "name": "USPS COLLECTION BOX - PO LOBBY", "note": "ON 12/24 AND 12/31, THIS BOX MAY BE COLLECTED AS EARLY AS 12 NOON.", "nsi_id": "unitedstatespostalservice-a77078", "operator": "United States Postal Service", "operator:short": "USPS", "operator:type": "public", "operator:wikidata": "Q668687", "ref": "3544100001"}, "type": "Feature"}
{"dataset_attributes": {"@spider": "usps_collection_boxes"}, "geometry": {"coordinates": [-87.740913699, 32.877833644], "type": "Point"}, "id": "wZrIiL0PRwN8cYVf1b3Ajoo7BFE=", "properties": {"@spider": "usps_collection_boxes", "addr:city": "AKRON", "addr:country": "US", "addr:full": "197 1ST AVE S", "addr:postcode": "35441", "addr:state": "AL", "amenity": "post_box", "brand": "United States Postal Service", "brand:wikidata": "Q668687", "collection_times": "Mo-Fr 15:30; Sa 10:30", "name": "USPS COLLECTION BOX - PO LOBBY", "note": "ON 12/24 AND 12/31, THIS BOX MAY BE COLLECTED AS EARLY AS 12 NOON.", "nsi_id": "unitedstatespostalservice-a77078", "operator": "United States Postal Service", "operator:short": "USPS", "operator:type": "public", "operator:wikidata": "Q668687", "ref": "3544100003"}, "type": "Feature"}
{"dataset_attributes": {"@spider": "usps_collection_boxes"}, "geometry": {"coordinates": [-88.1499991, 33.129467], "type": "Point"}, "id": "gCFMk82OTxvd6iWZxm3CsKRSJu0=", "properties": {"@spider": "usps_collection_boxes", "addr:city": "ALICEVILLE", "addr:country": "US", "addr:full": "119 3RD AVE NE", "addr:postcode": "35442", "addr:state": "AL", "amenity": "post_box", "brand": "United States Postal Service", "brand:wikidata": "Q668687", "collection_times": "Mo-Fr 16:00; Sa 12:00", "name": "USPS COLLECTION BOX - BLUE BOX", "note": "ON 12/24 AND 12/31, THIS BOX MAY BE COLLECTED AS EARLY AS 12 NOON.", "nsi_id": "unitedstatespostalservice-a77078", "operator": "United States Postal Service", "operator:short": "USPS", "operator:type": "public", "operator:wikidata": "Q668687", "ref": "3544200000"}, "type": "Feature"}
{"dataset_attributes": {"@spider": "usps_collection_boxes"}, "geometry": {"coordinates": [-88.1500251, 33.129514], "type": "Point"}, "id": "-tbefDqut1OZc3hFWO0dWvq53vg=", "properties": {"@spider": "usps_collection_boxes", "addr:city": "ALICEVILLE", "addr:country": "US", "addr:full": "119 3RD AVE NE", "addr:postcode": "35442", "addr:state": "AL", "amenity": "post_box", "brand": "United States Postal Service", "brand:wikidata": "Q668687", "collection_times": "Mo-Fr 16:00; Sa 12:00", "name": "USPS COLLECTION BOX - PO LOBBY", "note": "ON 12/24 AND 12/31, THIS BOX MAY BE COLLECTED AS EARLY AS 12 NOON.", "nsi_id": "unitedstatespostalservice-a77078", "operator": "United States Postal Service", "operator:short": "USPS", "operator:type": "public", "operator:wikidata": "Q668687", "ref": "3544200007"}, "type": "Feature"}
{"dataset_attributes": {"@spider": "usps_collection_boxes"}, "geometry": {"coordinates": [-88.150484738, 33.129425276], "type": "Point"}, "id": "Qdoyrtb1i_9HBUdYnpATk1APz_k=", "properties": {"@spider": "usps_collection_boxes", "addr:city": "ALICEVILLE", "addr:country": "US", "addr:full": "119 3RD AVE NE", "addr:postcode": "35442", "addr:state": "AL", "amenity": "post_box", "brand": "United States Postal Service", "brand:wikidata": "Q668687", "collection_times": "Mo-Fr 16:00; Sa 12:00", "name": "USPS COLLECTION BOX - PO LOBBY", "note": "ON 12/24 AND 12/31, THIS BOX MAY BE COLLECTED AS EARLY AS 12 NOON.", "nsi_id": "unitedstatespostalservice-a77078", "operator": "United States Postal Service", "operator:short": "USPS", "operator:type": "public", "operator:wikidata": "Q668687", "ref": "3544200010"}, "type": "Feature"}
{"dataset_attributes": {"@spider": "usps_collection_boxes"}, "geometry": {"coordinates": [-88.031412, 32.761584], "type": "Point"}, "id": "erAaUfzkbQUD0aDEiadwy9DgXXw=", "properties": {"@spider": "usps_collection_boxes", "addr:city": "BOLIGEE", "addr:country": "US", "addr:full": "157 COUNTY ROAD 81", "addr:postcode": "35443", "addr:state": "AL", "amenity": "post_box", "brand": "United States Postal Service", "brand:wikidata": "Q668687", "collection_times": "Mo-Fr 14:30; Sa 11:45", "name": "USPS COLLECTION BOX - BLUE BOX", "note": "ON 12/24 AND 12/31, THIS BOX MAY BE COLLECTED AS EARLY AS 12 NOON.", "nsi_id": "unitedstatespostalservice-a77078", "operator": "United States Postal Service", "operator:short": "USPS", "operator:type": "public", "operator:wikidata": "Q668687", "ref": "3544300000"}, "type": "Feature"}
{"dataset_attributes": {"@spider": "usps_collection_boxes"}, "geometry": {"coordinates": [-88.031412, 32.761584], "type": "Point"}, "id": "dkhm9dpXDnVIPaMLCuWJP4NM5CA=", "properties": {"@spider": "usps_collection_boxes", "addr:city": "BOLIGEE", "addr:country": "US", "addr:full": "157 COUNTY ROAD 81", "addr:postcode": "35443", "addr:state": "AL", "amenity": "post_box", "brand": "United States Postal Service", "brand:wikidata": "Q668687", "collection_times": "Mo-Fr 14:30; Sa 11:45", "name": "USPS COLLECTION BOX - PO LOBBY", "note": "ON 12/24 AND 12/31, THIS BOX MAY BE COLLECTED AS EARLY AS 12 NOON.", "nsi_id": "unitedstatespostalservice-a77078", "operator": "United States Postal Service", "operator:short": "USPS", "operator:type": "public", "operator:wikidata": "Q668687", "ref": "3544300001"}, "type": "Feature"}
{"dataset_attributes": {"@spider": "usps_collection_boxes"}, "geometry": {"coordinates": [-88.0306795, 32.794212], "type": "Point"}, "id": "WwqtUOo_V1rrYCudDYRxOlxrNAs=", "properties": {"@spider": "usps_collection_boxes", "addr:city": "BOLIGEE", "addr:country": "US", "addr:full": "17619 COUNTY ROAD 20", "addr:postcode": "35443", "addr:state": "AL", "amenity": "post_box", "brand": "United States Postal Service", "brand:wikidata": "Q668687", "collection_times": "Mo-Sa 09:00", "name": "USPS COLLECTION BOX - BLUE BOX", "nsi_id": "unitedstatespostalservice-a77078", "operator": "United States Postal Service", "operator:short": "USPS", "operator:type": "public", "operator:wikidata": "Q668687", "ref": "3544300003"}, "type": "Feature"}
{"dataset_attributes": {"@spider": "usps_collection_boxes"}, "geometry": {"coordinates": [-88.031322147, 32.760694253], "type": "Point"}, "id": "3rtV9SA7pF0b0qOJcxlkttJs5dQ=", "properties": {"@spider": "usps_collection_boxes", "addr:city": "BOLIGEE", "addr:country": "US", "addr:full": "157 COUNTY ROAD 81", "addr:postcode": "35443", "addr:state": "AL", "amenity": "post_box", "brand": "United States Postal Service", "brand:wikidata": "Q668687", "collection_times": "Mo-Fr 14:30; Sa 11:45", "name": "USPS COLLECTION BOX - PO LOBBY", "note": "ON 12/24 AND 12/31, THIS BOX MAY BE COLLECTED AS EARLY AS 12 NOON.", "nsi_id": "unitedstatespostalservice-a77078", "operator": "United States Postal Service", "operator:short": "USPS", "operator:type": "public", "operator:wikidata": "Q668687", "ref": "3544300004"}, "type": "Feature"}
{"dataset_attributes": {"@spider": "usps_collection_boxes"}, "geometry": {"coordinates": [-87.8878577, 32.8420500659], "type": "Point"}, "id": "e8SI6PMFQNygwVuKMfTbG6AEIaI=", "properties": {"@spider": "usps_collection_boxes", "addr:city": "CLINTON", "addr:country": "US", "addr:full": "44 HIGHWAY 14 N", "addr:postcode": "35448", "addr:state": "AL", "amenity": "post_box", "brand": "United States Postal Service", "brand:wikidata": "Q668687", "collection_times": "Mo-Fr 09:45; Sa 11:45", "name": "USPS COLLECTION BOX - BLUE BOX", "nsi_id": "unitedstatespostalservice-a77078", "operator": "United States Postal Service", "operator:short": "USPS", "operator:type": "public", "operator:wikidata": "Q668687", "ref": "3544800000"}, "type": "Feature"}
{"dataset_attributes": {"@spider": "usps_collection_boxes"}, "geometry": {"coordinates": [-87.8878577, 32.8420500659], "type": "Point"}, "id": "gLQ6I8sNuY0GEX0hnAI2xG1jzeQ=", "properties": {"@spider": "usps_collection_boxes", "addr:city": "CLINTON", "addr:country": "US", "addr:full": "44 HIGHWAY 14 N", "addr:postcode": "35448", "addr:state": "AL", "amenity": "post_box", "brand": "United States Postal Service", "brand:wikidata": "Q668687", "collection_times": "Mo-Fr 09:45; Sa 11:45", "name": "USPS COLLECTION BOX - PO LOBBY", "nsi_id": "unitedstatespostalservice-a77078", "operator": "United States Postal Service", "operator:short": "USPS", "operator:type": "public", "operator:wikidata": "Q668687", "ref": "3544800001"}, "type": "Feature"}
{"dataset_attributes": {"@spider": "usps_collection_boxes"}, "geometry": {"coordinates": [-87.992015697, 32.913698365], "type": "Point"}, "id": "GaEg3zelg9Beq223wdUfpTbJ5JI=", "properties": {"@spider": "usps_collection_boxes", "addr:city": "CLINTON", "addr:country": "US", "addr:full": "12975 AL HIGHWAY 14", "addr:postcode": "35448", "addr:state": "AL", "amenity": "post_box", "brand": "United States Postal Service", "brand:wikidata": "Q668687", "collection_times": "Mo-Fr 10:00; Sa 12:00", "name": "USPS COLLECTION BOX - PO LOBBY", "nsi_id": "unitedstatespostalservice-a77078", "operator": "United States Postal Service", "operator:short": "USPS", "operator:type": "public", "operator:wikidata": "Q668687", "ref": "3544800002"}, "type": "Feature"}
{"dataset_attributes": {"@spider": "usps_collection_boxes"}, "geometry": {"coordinates": [-87.340759, 33.160276], "type": "Point"}, "id": "03-VAf0FCCsVkdRTPXR_cFgvryM=", "properties": {"@spider": "usps_collection_boxes", "addr:city": "COALING", "addr:country": "US", "addr:full": "11153 HAGLER COALING RD", "addr:postcode": "35449", "addr:state": "AL", "amenity": "post_box", "brand": "United States Postal Service", "brand:wikidata": "Q668687", "collection_times": "Mo-Fr 12:00; Sa 10:00", "name": "USPS COLLECTION BOX - BLUE BOX", "nsi_id": "unitedstatespostalservice-a77078", "operator": "United States Postal Service", "operator:short": "USPS", "operator:type": "public", "operator:wikidata": "Q668687", "ref": "3544900000"}, "type": "Feature"}
{"dataset_attributes": {"@spider": "usps_collection_boxes"}, "geometry": {"coordinates": [-87.340721, 33.160235], "type": "Point"}, "id": "vaIBrvKHpx9Bu3i3lhLbCdCuJok=", "properties": {"@spider": "usps_collection_boxes", "addr:city": "COALING", "addr:country": "US", "addr:full": "11153 HAGLER COALING RD", "addr:postcode": "35449", "addr:state": "AL", "amenity": "post_box", "brand": "United States Postal Service", "brand:wikidata": "Q668687", "collection_times": "Mo-Fr 12:00; Sa 10:00", "name": "USPS COLLECTION BOX - PO LOBBY", "nsi_id": "unitedstatespostalservice-a77078", "operator": "United States Postal Service", "operator:short": "USPS", "operator:type": "public", "operator:wikidata": "Q668687", "ref": "3544900001"}, "type": "Feature"}
{"dataset_attributes": {"@spider": "usps_collection_boxes"}, "geometry": {"coordinates": [-87.340782202, 33.160250437], "type": "Point"}, "id": "0QHZ28rwgKub4DJMWpyBeKjz1jg=", "properties": {"@spider": "usps_collection_boxes", "addr:city": "COALING", "addr:country": "US", "addr:full": "11153 HAGLER COALING RD", "addr:postcode": "35449", "addr:state": "AL", "amenity": "post_box", "brand": "United States Postal Service", "brand:wikidata": "Q668687", "collection_times": "Mo-Fr 12:00; Sa 10:00", "name": "USPS COLLECTION BOX - PO LOBBY", "nsi_id": "unitedstatespostalservice-a77078", "operator": "United States Postal Service", "operator:short": "USPS", "operator:type": "public", "operator:wikidata": "Q668687", "ref": "3544900002"}, "type": "Feature"}
{"dataset_attributes": {"@spider": "usps_collection_boxes"}, "geometry": {"coordinates": [-87.4478788, 33.067855], "type": "Point"}, "id": "rn0x-kKPO8yzikeTunF0y4EbMG8=", "properties": {"@spider": "usps_collection_boxes", "addr:city": "DUNCANVILLE", "addr:country": "US", "addr:full": "12108 HIGHWAY 82 E", "addr:postcode": "35456", "addr:state": "AL", "amenity": "post_box", "brand": "United States Postal Service", "brand:wikidata": "Q668687", "collection_times": "Mo-Fr 14:30; Sa 09:30", "name": "USPS COLLECTION BOX - BLUE BOX", "note": "ON 12/24 AND 12/31, THIS BOX MAY BE COLLECTED AS EARLY AS 12 NOON.", "nsi_id": "unitedstatespostalservice-a77078", "operator": "United States Postal Service", "operator:short": "USPS", "operator:type": "public", "operator:wikidata": "Q668687", "ref": "3545600000"}, "type": "Feature"}
{"dataset_attributes": {"@spider": "usps_collection_boxes"}, "geometry": {"coordinates": [-87.4478299, 33.067922], "type": "Point"}, "id": "-h6Gj62ppoDrX-ckJjDSLw0lmng=", "properties": {"@spider": "usps_collection_boxes", "addr:city": "DUNCANVILLE", "addr:country": "US", "addr:full": "12108 HIGHWAY 82 E", "addr:postcode": "35456", "addr:state": "AL", "amenity": "post_box", "brand": "United States Postal Service", "brand:wikidata": "Q668687", "collection_times": "Mo-Fr 14:30; Sa 09:30", "name": "USPS COLLECTION BOX - PO LOBBY", "note": "ON 12/24 AND 12/31, THIS BOX MAY BE COLLECTED AS EARLY AS 12 NOON.", "nsi_id": "unitedstatespostalservice-a77078", "operator": "United States Postal Service", "operator:short": "USPS", "operator:type": "public", "operator:wikidata": "Q668687", "ref": "3545600002"}, "type": "Feature"}
{"dataset_attributes": {"@spider": "usps_collection_boxes"}, "geometry": {"coordinates": [-87.448302732, 33.067827513], "type": "Point"}, "id": "hVb6IpTjl5uHYKWtMuQS2HtMcoI=", "properties": {"@spider": "usps_collection_boxes", "addr:city": "DUNCANVILLE", "addr:country": "US", "addr:full": "12108 HIGHWAY 82 E", "addr:postcode": "35456", "addr:state": "AL", "amenity": "post_box", "brand": "United States Postal Service", "brand:wikidata": "Q668687", "collection_times": "Mo-Fr 14:30; Sa 09:30", "name": "USPS COLLECTION BOX - PO LOBBY", "note": "ON 12/24 AND 12/31, THIS BOX MAY BE COLLECTED AS EARLY AS 12 NOON.", "nsi_id": "unitedstatespostalservice-a77078", "operator": "United States Postal Service", "operator:short": "USPS", "operator:type": "public", "operator:wikidata": "Q668687", "ref": "3545600004"}, "type": "Feature"}
{"dataset_attributes": {"@spider": "usps_collection_boxes"}, "geometry": {"coordinates": [-88.315378, 32.729301], "type": "Point"}, "id": "3aSVBBGFbXCcShLNfEsZ5pGWV9w=", "properties": {"@spider": "usps_collection_boxes", "addr:city": "EMELLE", "addr:country": "US", "addr:full": "121 DAILEY AVE", "addr:postcode": "35459", "addr:state": "AL", "amenity": "post_box", "brand": "United States Postal Service", "brand:wikidata": "Q668687", "collection_times": "Mo-Fr 12:00; Sa 11:15", "name": "USPS COLLECTION BOX - BLUE BOX", "nsi_id": "unitedstatespostalservice-a77078", "operator": "United States Postal Service", "operator:short": "USPS", "operator:type": "public", "operator:wikidata": "Q668687", "ref": "3545900000"}, "type": "Feature"}
{"dataset_attributes": {"@spider": "usps_collection_boxes"}, "geometry": {"coordinates": [-88.315378, 32.729301], "type": "Point"}, "id": "3h8DLj3u-hpH0S0zMzTmIgAmy_I=", "properties": {"@spider": "usps_collection_boxes", "addr:city": "EMELLE", "addr:country": "US", "addr:full": "121 DAILEY AVE", "addr:postcode": "35459", "addr:state": "AL", "amenity": "post_box", "brand": "United States Postal Service", "brand:wikidata": "Q668687", "collection_times": "Mo-Fr 12:00; Sa 11:15", "name": "USPS COLLECTION BOX - PO LOBBY", "nsi_id": "unitedstatespostalservice-a77078", "operator": "United States Postal Service", "operator:short": "USPS", "operator:type": "public", "operator:wikidata": "Q668687", "ref": "3545900001"}, "type": "Feature"}
{"dataset_attributes": {"@spider": "usps_collection_boxes"}, "geometry": {"coordinates": [-88.315336775, 32.729538925], "type": "Point"}, "id": "7CEMhAFzMXWSwwnhwP0h0qOcMC8=", "properties": {"@spider": "usps_collection_boxes", "addr:city": "EMELLE", "addr:country": "US", "addr:full": "121 DAILEY AVE", "addr:postcode": "35459", "addr:state": "AL", "amenity": "post_box", "brand": "United States Postal Service", "brand:wikidata": "Q668687", "collection_times": "Mo-Fr 12:00; Sa 11:30", "name": "USPS COLLECTION BOX - PO LOBBY", "nsi_id": "unitedstatespostalservice-a77078", "operator": "United States Postal Service", "operator:short": "USPS", "operator:type": "public", "operator:wikidata": "Q668687", "ref": "3545900003"}, "type": "Feature"}
{"dataset_attributes": {"@spider": "usps_collection_boxes"}, "geometry": {"coordinates": [-88.126457, 32.692089], "type": "Point"}, "id": "KDE6ZdG-9LMv_WpsN7cKtORrbJ0=", "properties": {"@spider": "usps_collection_boxes", "addr:city": "EPES", "addr:country": "US", "addr:full": "10230 CEDAR HILL DR", "addr:postcode": "35460", "addr:state": "AL", "amenity": "post_box", "brand": "United States Postal Service", "brand:wikidata": "Q668687", "collection_times": "Mo-Fr 11:50; Sa 10:30", "name": "USPS COLLECTION BOX - BLUE BOX", "nsi_id": "unitedstatespostalservice-a77078", "operator": "United States Postal Service", "operator:short": "USPS", "operator:type": "public", "operator:wikidata": "Q668687", "ref": "3546000000"}, "type": "Feature"}
{"dataset_attributes": {"@spider": "usps_collection_boxes"}, "geometry": {"coordinates": [-88.126457, 32.692089], "type": "Point"}, "id": "_hkw3ZWLkusth-Uk6KeRZbaDo54=", "properties": {"@spider": "usps_collection_boxes", "addr:city": "EPES", "addr:country": "US", "addr:full": "10230 CEDAR HILL DR", "addr:postcode": "35460", "addr:state": "AL", "amenity": "post_box", "brand": "United States Postal Service", "brand:wikidata": "Q668687", "collection_times": "Mo-Fr 11:50; Sa 10:30", "name": "USPS COLLECTION BOX - PO LOBBY", "nsi_id": "unitedstatespostalservice-a77078", "operator": "United States Postal Service", "operator:short": "USPS", "operator:type": "public", "operator:wikidata": "Q668687", "ref": "3546000001"}, "type": "Feature"}
{"dataset_attributes": {"@spider": "usps_collection_boxes"}, "geometry": {"coordinates": [-88.126488584, 32.692056809], "type": "Point"}, "id": "4_BOMh-bh8C2SVPUheszpdWim8E=", "properties": {"@spider": "usps_collection_boxes", "addr:city": "EPES", "addr:country": "US", "addr:full": "10230 CEDAR HILL DR", "addr:postcode": "35460", "addr:state": "AL", "amenity": "post_box", "brand": "United States Postal Service", "brand:wikidata": "Q668687", "collection_times": "Mo-Sa 12:00", "name": "USPS COLLECTION BOX - PO LOBBY", "nsi_id": "unitedstatespostalservice-a77078", "operator": "United States Postal Service", "operator:short": "USPS", "operator:type": "public", "operator:wikidata": "Q668687", "ref": "3546000003"}, "type": "Feature"}
{"dataset_attributes": {"@spider": "usps_collection_boxes"}, "geometry": {"coordinates": [-87.887851, 32.839297], "type": "Point"}, "id": "SErcxevCoAP6M8TYv2zzjBqkiAY=", "properties": {"@spider": "usps_collection_boxes", "addr:city": "EUTAW", "addr:country": "US", "addr:full": "256 PRAIRIE AVE", "addr:postcode": "35462", "addr:state": "AL", "amenity": "post_box", "brand": "United States Postal Service", "brand:wikidata": "Q668687", "collection_times": "Mo-Sa 12:00", "name": "USPS COLLECTION BOX - PO LOBBY", "nsi_id": "unitedstatespostalservice-a77078", "operator": "United States Postal Service", "operator:short": "USPS", "operator:type": "public", "operator:wikidata": "Q668687", "ref": "3546200000"}, "type": "Feature"}
{"dataset_attributes": {"@spider": "usps_collection_boxes"}, "geometry": {"coordinates": [-87.887907, 32.839468], "type": "Point"}, "id": "iMOsMv9K6iTE1pkofVvQPsUPU0M=", "properties": {"@spider": "usps_collection_boxes", "addr:city": "EUTAW", "addr:country": "US", "addr:full": "256 PRAIRIE AVE", "addr:postcode": "35462", "addr:state": "AL", "amenity": "post_box", "brand": "United States Postal Service", "brand:wikidata": "Q668687", "collection_times": "Mo-Sa 12:00", "name": "USPS COLLECTION BOX - BLUE BOX", "nsi_id": "unitedstatespostalservice-a77078", "operator": "United States Postal Service", "operator:short": "USPS", "operator:type": "public", "operator:wikidata": "Q668687", "ref": "3546200001"}, "type": "Feature"}
{"dataset_attributes": {"@spider": "usps_collection_boxes"}, "geometry": {"coordinates": [-87.887604854, 32.819861757], "type": "Point"}, "id": "KdXMkWYKIJC_ssrqbf2eATIazbA=", "properties": {"@spider": "usps_collection_boxes", "addr:city": "EUTAW", "addr:country": "US", "addr:full": "227 PRAIRIE AVE", "addr:postcode": "35462", "addr:state": "AL", "amenity": "post_box", "brand": "United States Postal Service", "brand:wikidata": "Q668687", "collection_times": "Mo-Fr 16:00; Sa 12:00", "name": "USPS COLLECTION BOX - PO LOBBY", "note": "ON 12/24 AND 12/31, THIS BOX MAY BE COLLECTED AS EARLY AS 12 NOON.", "nsi_id": "unitedstatespostalservice-a77078", "operator": "United States Postal Service", "operator:short": "USPS", "operator:type": "public", "operator:wikidata": "Q668687", "ref": "3546200003"}, "type": "Feature"}
{"dataset_attributes": {"@spider": "usps_collection_boxes"}, "geometry": {"coordinates": [-88.163616, 32.818255], "type": "Point"}, "id": "yHboyJptIG5aXPvvoXjpCYB3X9s=", "properties": {"@spider": "usps_collection_boxes", "addr:city": "GAINESVILLE", "addr:country": "US", "addr:full": "9393 STATE ST", "addr:postcode": "35464", "addr:state": "AL", "amenity": "post_box", "brand": "United States Postal Service", "brand:wikidata": "Q668687", "collection_times": "Mo-Fr 12:00; Sa 11:30", "name": "USPS COLLECTION BOX - BLUE BOX", "nsi_id": "unitedstatespostalservice-a77078", "operator": "United States Postal Service", "operator:short": "USPS", "operator:type": "public", "operator:wikidata": "Q668687", "ref": "3546400000"}, "type": "Feature"}
{"dataset_attributes": {"@spider": "usps_collection_boxes"}, "geometry": {"coordinates": [-88.163616, 32.818255], "type": "Point"}, "id": "clUuqbJuhLrgDmhRa-SNYhzVMjE=", "properties": {"@spider": "usps_collection_boxes", "addr:city": "GAINESVILLE", "addr:country": "US", "addr:full": "9393 STATE ST", "addr:postcode": "35464", "addr:state": "AL", "amenity": "post_box", "brand": "United States Postal Service", "brand:wikidata": "Q668687", "collection_times": "Mo-Fr 12:00; Sa 11:30", "name": "USPS COLLECTION BOX - PO LOBBY", "nsi_id": "unitedstatespostalservice-a77078", "operator": "United States Postal Service", "operator:short": "USPS", "operator:type": "public", "operator:wikidata": "Q668687", "ref": "3546400001"}, "type": "Feature"}
{"dataset_attributes": {"@spider": "usps_collection_boxes"}, "geometry": {"coordinates": [-88.163616, 32.818255], "type": "Point"}, "id": "I-yks2yDQRwh4KTCST7NTmKrG3w=", "properties": {"@spider": "usps_collection_boxes", "addr:city": "GAINESVILLE", "addr:country": "US", "addr:full": "9393 STATE ST", "addr:postcode": "35464", "addr:state": "AL", "amenity": "post_box", "brand": "United States Postal Service", "brand:wikidata": "Q668687", "collection_times": "Mo-Fr 12:00; Sa 11:30", "name": "USPS COLLECTION BOX - PO LOBBY", "nsi_id": "unitedstatespostalservice-a77078", "operator": "United States Postal Service", "operator:short": "USPS", "operator:type": "public", "operator:wikidata": "Q668687", "ref": "3546400002"}, "type": "Feature"}
{"dataset_attributes": {"@spider": "usps_collection_boxes"}, "geometry": {"coordinates": [-88.158349172, 32.822756557], "type": "Point"}, "id": "tgS-ipqDIf5flnjcSYLnwWGPTxg=", "properties": {"@spider": "usps_collection_boxes", "addr:city": "GAINESVILLE", "addr:country": "US", "addr:full": "9393 STATE ST", "addr:postcode": "35464", "addr:state": "AL", "amenity": "post_box", "brand": "United States Postal Service", "brand:wikidata": "Q668687", "collection_times": "Mo-Fr 12:00; Sa 11:30", "name": "USPS COLLECTION BOX - PO LOBBY", "nsi_id": "unitedstatespostalservice-a77078", "operator": "United States Postal Service", "operator:short": "USPS", "operator:type": "public", "operator:wikidata": "Q668687", "ref": "3546400004"}, "type": "Feature"}
{"dataset_attributes": {"@spider": "usps_collection_boxes"}, "geometry": {"coordinates": [-88.18863, 32.581488], "type": "Point"}, "id": "A2tRpvOXdRZQH_HD5dKFhpvsjhU=", "properties": {"@spider": "usps_collection_boxes", "addr:city": "LIVINGSTON", "addr:country": "US", "addr:full": "205 MADISON ST", "addr:postcode": "35470", "addr:state": "AL", "amenity": "post_box", "brand": "United States Postal Service", "brand:wikidata": "Q668687", "collection_times": "Mo-Sa 12:00", "name": "USPS COLLECTION BOX - BLUE BOX", "nsi_id": "unitedstatespostalservice-a77078", "operator": "United States Postal Service", "operator:short": "USPS", "operator:type": "public", "operator:wikidata": "Q668687", "ref": "3547000000"}, "type": "Feature"}
{"dataset_attributes": {"@spider": "usps_collection_boxes"}, "geometry": {"coordinates": [-88.189205, 32.582756], "type": "Point"}, "id": "R9jWRzf5vJLsIgnwSw3k30_Ufw8=", "properties": {"@spider": "usps_collection_boxes", "addr:city": "LIVINGSTON", "addr:country": "US", "addr:full": "321 WASHINGTON ST", "addr:postcode": "35470", "addr:state": "AL", "amenity": "post_box", "brand": "United States Postal Service", "brand:wikidata": "Q668687", "collection_times": "Mo-Sa 12:00", "name": "USPS COLLECTION BOX - PO LOBBY", "nsi_id": "unitedstatespostalservice-a77078", "operator": "United States Postal Service", "operator:short": "USPS", "operator:type": "public", "operator:wikidata": "Q668687", "ref": "3547000002"}, "type": "Feature"}
{"dataset_attributes": {"@spider": "usps_collection_boxes"}, "geometry": {"coordinates": [-88.189232432, 32.582767561], "type": "Point"}, "id": "pJ9Fe7jwcqHKF5BoZDEFrt5XcAs=", "properties": {"@spider": "usps_collection_boxes", "addr:city": "LIVINGSTON", "addr:country": "US", "addr:full": "321 WASHINGTON ST", "addr:postcode": "35470", "addr:state": "AL", "amenity": "post_box", "brand": "United States Postal Service", "brand:wikidata": "Q668687", "collection_times": "Mo-Fr 16:30; Sa 12:00", "name": "USPS COLLECTION BOX - PO LOBBY", "note": "ON 12/24 AND 12/31, THIS BOX MAY BE COLLECTED AS EARLY AS 12 NOON.", "nsi_id": "unitedstatespostalservice-a77078", "operator": "United States Postal Service", "operator:short": "USPS", "operator:type": "public", "operator:wikidata": "Q668687", "ref": "3547000004"}, "type": "Feature"}
{"dataset_attributes": {"@spider": "usps_collection_boxes"}, "geometry": {"coordinates": [-87.6355467328, 32.9910494514], "type": "Point"}, "id": "TxIcZa8_RIDSZKHlJ3YToKeFxV0=", "properties": {"@spider": "usps_collection_boxes", "addr:city": "MOUNDVILLE", "addr:country": "US", "addr:full": "259 2ND AVE", "addr:postcode": "35474", "addr:state": "AL", "amenity": "post_box", "brand": "United States Postal Service", "brand:wikidata": "Q668687", "collection_times": "Mo-Fr 16:30; Sa 12:00", "name": "USPS COLLECTION BOX - BLUE BOX", "note": "ON 12/24 AND 12/31, THIS BOX MAY BE COLLECTED AS EARLY AS 12 NOON.", "nsi_id": "unitedstatespostalservice-a77078", "operator": "United States Postal Service", "operator:short": "USPS", "operator:type": "public", "operator:wikidata": "Q668687", "ref": "3547400000"}, "type": "Feature"}
{"dataset_attributes": {"@spider": "usps_collection_boxes"}, "geometry": {"coordinates": [-87.6355467328, 32.9910494514], "type": "Point"}, "id": "vi7AkA_39AYpAfBXolS5J1nConQ=", "properties": {"@spider": "usps_collection_boxes", "addr:city": "MOUNDVILLE", "addr:country": "US", "addr:full": "259 2ND AVE", "addr:postcode": "35474", "addr:state": "AL", "amenity": "post_box", "brand": "United States Postal Service", "brand:wikidata": "Q668687", "collection_times": "Mo-Fr 16:30; Sa 12:00", "name": "USPS COLLECTION BOX - PO LOBBY", "note": "ON 12/24 AND 12/31, THIS BOX MAY BE COLLECTED AS EARLY AS 12 NOON.", "nsi_id": "unitedstatespostalservice-a77078", "operator": "United States Postal Service", "operator:short": "USPS", "operator:type": "public", "operator:wikidata": "Q668687", "ref": "3547400001"}, "type": "Feature"}
{"dataset_attributes": {"@spider": "usps_collection_boxes"}, "geometry": {"coordinates": [-87.6355467328, 32.9910494514], "type": "Point"}, "id": "snAWkickMZqg-NccEG3HGOI-HdU=", "properties": {"@spider": "usps_collection_boxes", "addr:city": "MOUNDVILLE", "addr:country": "US", "addr:full": "259 2ND AVE", "addr:postcode": "35474", "addr:state": "AL", "amenity": "post_box", "brand": "United States Postal Service", "brand:wikidata": "Q668687", "collection_times": "Mo-Fr 16:30; Sa 12:00", "name": "USPS COLLECTION BOX - PO LOBBY", "note": "ON 12/24 AND 12/31, THIS BOX MAY BE COLLECTED AS EARLY AS 12 NOON.", "nsi_id": "unitedstatespostalservice-a77078", "operator": "United States Postal Service", "operator:short": "USPS", "operator:type": "public", "operator:wikidata": "Q668687", "ref": "3547400003"}, "type": "Feature"}
{"dataset_attributes": {"@spider": "usps_collection_boxes"}, "geometry": {"coordinates": [-88.26997, 32.950656], "type": "Point"}, "id": "WKWHqDn70_FnXNXlA_aJU5FDUwo=", "properties": {"@spider": "usps_collection_boxes", "addr:city": "PANOLA", "addr:country": "US", "addr:full": "1630 PANOLA PARKWAY 34", "addr:postcode": "35477", "addr:state": "AL", "amenity": "post_box", "brand": "United States Postal Service", "brand:wikidata": "Q668687", "collection_times": "Mo-Fr 11:20; Sa 10:30", "name": "USPS COLLECTION BOX - BLUE BOX", "nsi_id": "unitedstatespostalservice-a77078", "operator": "United States Postal Service", "operator:short": "USPS", "operator:type": "public", "operator:wikidata": "Q668687", "ref": "3547700000"}, "type": "Feature"}
{"dataset_attributes": {"@spider": "usps_collection_boxes"}, "geometry": {"coordinates": [-88.269914, 32.95063], "type": "Point"}, "id": "k7CAeMNupb3D43acJvD3PnENB7I=", "properties": {"@spider": "usps_collection_boxes", "addr:city": "PANOLA", "addr:country": "US", "addr:full": "1630 PANOLA PARKWAY 34", "addr:postcode": "35477", "addr:state": "AL", "amenity": "post_box", "brand": "United States Postal Service", "brand:wikidata": "Q668687", "collection_times": "Mo-Fr 11:20; Sa 10:30", "name": "USPS COLLECTION BOX - PO LOBBY", "nsi_id": "unitedstatespostalservice-a77078", "operator": "United States Postal Service", "operator:short": "USPS", "operator:type": "public", "operator:wikidata": "Q668687", "ref": "3547700001"}, "type": "Feature"}
{"dataset_attributes": {"@spider": "usps_collection_boxes"}, "geometry": {"coordinates": [-88.26995154, 32.9506947], "type": "Point"}, "id": "JMH7_f54v5NxN7ZZp8RkG2wqYIg=", "properties": {"@spider": "usps_collection_boxes", "addr:city": "PANOLA", "addr:country": "US", "addr:full": "1630 PANOLA PARKWAY 34", "addr:postcode": "35477", "addr:state": "AL", "amenity": "post_box", "brand": "United States Postal Service", "brand:wikidata": "Q668687", "collection_times": "Mo-Fr 11:30; Sa 10:30", "name": "USPS COLLECTION BOX - PO LOBBY", "nsi_id": "unitedstatespostalservice-a77078", "operator": "United States Postal Service", "operator:short": "USPS", "operator:type": "public", "operator:wikidata": "Q668687", "ref": "3547700002"}, "type": "Feature"}
{"dataset_attributes": {"@spider": "usps_collection_boxes"}, "geometry": {"coordinates": [-88.085074, 32.923667], "type": "Point"}, "id": "6SMS6ebi2qV5VqgGijQxtUy1b7A=", "properties": {"@spider": "usps_collection_boxes", "addr:city": "WEST GREENE", "addr:country": "US", "addr:full": "5190 GREENE COUNTY ROAD 117", "addr:postcode": "35491", "addr:state": "AL", "amenity": "post_box", "brand": "United States Postal Service", "brand:wikidata": "Q668687", "collection_times": "Mo-Fr 12:15; Sa 11:45", "name": "USPS COLLECTION BOX - BLUE BOX", "note": "ON 12/24 AND 12/31, THIS BOX MAY BE COLLECTED AS EARLY AS 12 NOON.", "nsi_id": "unitedstatespostalservice-a77078", "operator": "United States Postal Service", "operator:short": "USPS", "operator:type": "public", "operator:wikidata": "Q668687", "ref": "3549100000"}, "type": "Feature"}
{"dataset_attributes": {"@spider": "usps_collection_boxes"}, "geometry": {"coordinates": [-88.085074, 32.923667], "type": "Point"}, "id": "Jr7w6hySupdeff70tsLdJpixd-I=", "properties": {"@spider": "usps_collection_boxes", "addr:city": "WEST GREENE", "addr:country": "US", "addr:full": "5190 GREENE COUNTY ROAD 117", "addr:postcode": "35491", "addr:state": "AL", "amenity": "post_box", "brand": "United States Postal Service", "brand:wikidata": "Q668687", "collection_times": "Mo-Fr 12:15; Sa 11:45", "name": "USPS COLLECTION BOX - PO LOBBY", "note": "ON 12/24 AND 12/31, THIS BOX MAY BE COLLECTED AS EARLY AS 12 NOON.", "nsi_id": "unitedstatespostalservice-a77078", "operator": "United States Postal Service", "operator:short": "USPS", "operator:type": "public", "operator:wikidata": "Q668687", "ref": "3549100001"}, "type": "Feature"}
{"dataset_attributes": {"@spider": "usps_collection_boxes"}, "geometry": {"coordinates": [-88.121634465, 32.923951876], "type": "Point"}, "id": "VJeuQe_5LhGwf_Abeapyj7QlD-o=", "properties": {"@spider": "usps_collection_boxes", "addr:city": "WEST GREENE", "addr:country": "US", "addr:full": "5190 GREENE COUNTY ROAD 117", "addr:postcode": "35491", "addr:state": "AL", "amenity": "post_box", "brand": "United States Postal Service", "brand:wikidata": "Q668687", "collection_times": "Mo-Fr 12:30; Sa 12:00", "name": "USPS COLLECTION BOX - PO LOBBY", "note": "ON 12/24 AND 12/31, THIS BOX MAY BE COLLECTED AS EARLY AS 12 NOON.", "nsi_id": "unitedstatespostalservice-a77078", "operator": "United States Postal Service", "operator:short": "USPS", "operator:type": "public", "operator:wikidata": "Q668687", "ref": "3549100002"}, "type": "Feature"}
