{"geometry": {"coordinates": [-87.672483, 33.67309], "type": "Point"}, "id": "9OSEYBDXp5UutD6dhAdtsqcsbho=", "properties": {"@spider": "usps_collection_boxes", "addr:city": "BANKSTON", "addr:country": "US", "addr:full": "10745 HIGHWAY 18 E", "addr:postcode": "35542", "addr:state": "AL", "brand": "USPS", "collection_times": "Mo-Sa 12:45", "name": "USPS COLLECTION BOX - BLUE BOX", "note": "ON 12/24 AND 12/31, THIS BOX MAY BE COLLECTED AS EARLY AS 12 NOON.", "ref": "3554200000"}, "type": "Feature"}
{"geometry": {"coordinates": [-87.672483, 33.67309], "type": "Point"}, "id": "Bku01OXJdu4D35QdZNYaM6yWpkM=", "properties": {"@spider": "usps_collection_boxes", "addr:city": "BANKSTON", "addr:country": "US", "addr:full": "10745 HIGHWAY 18 E", "addr:postcode": "35542", "addr:state": "AL", "brand": "USPS", "collection_times": "Mo-Sa 12:45", "name": "USPS COLLECTION BOX - PO LOBBY", "note": "ON 12/24 AND 12/31, THIS BOX MAY BE COLLECTED AS EARLY AS 12 NOON.", "ref": "3554200001"}, "type": "Feature"}
{"geometry": {"coordinates": [-87.672448316, 33.673089949], "type": "Point"}, "id": "Ikae3ejFTPTushPWcTvovOpezb8=", "properties": {"@spider": "usps_collection_boxes", "addr:city": "BANKSTON", "addr:country": "US", "addr:full": "10745 HIGHWAY 18 E", "addr:postcode": "35542", "addr:state": "AL", "brand": "USPS", "collection_times": "Mo-Sa 13:00", "name": "USPS COLLECTION BOX - PO LOBBY", "note": "ON 12/24 AND 12/31, THIS BOX MAY BE COLLECTED AS EARLY AS 12 NOON.", "ref": "3554200003"}, "type": "Feature"}
{"geometry": {"coordinates": [-87.70058, 34.275455], "type": "Point"}, "id": "mEC5nCzICYdH8pvzm4Sc1ylw770=", "properties": {"@spider": "usps_collection_boxes", "addr:city": "BEAR CREEK", "addr:country": "US", "addr:full": "335 MAIN ST", "addr:postcode": "35543", "addr:state": "AL", "brand": "USPS", "collection_times": "Mo-Fr 12:00; Sa 10:30", "name": "USPS COLLECTION BOX - BLUE BOX", "ref": "3554300000"}, "type": "Feature"}
{"geometry": {"coordinates": [-87.70058, 34.275455], "type": "Point"}, "id": "499fc_RlDNvgRcYtfNudeT-uti4=", "properties": {"@spider": "usps_collection_boxes", "addr:city": "BEAR CREEK", "addr:country": "US", "addr:full": "335 MAIN ST", "addr:postcode": "35543", "addr:state": "AL", "brand": "USPS", "collection_times": "Mo-Fr 12:00; Sa 10:30", "name": "USPS COLLECTION BOX - PO LOBBY", "ref": "3554300001"}, "type": "Feature"}
{"geometry": {"coordinates": [-87.700582371, 34.275454344], "type": "Point"}, "id": "szb5qQ3MLx-WQ4wAKGk4ozCv5GM=", "properties": {"@spider": "usps_collection_boxes", "addr:city": "BEAR CREEK", "addr:country": "US", "addr:full": "335 MAIN ST", "addr:postcode": "35543", "addr:state": "AL", "brand": "USPS", "collection_times": "Mo-Fr 12:00; Sa 10:30", "name": "USPS COLLECTION BOX - PO LOBBY", "ref": "3554300003"}, "type": "Feature"}
{"geometry": {"coordinates": [-88.021218, 33.932456], "type": "Point"}, "id": "GcmRjutypf5tyPS_Y77r7oRpT58=", "properties": {"@spider": "usps_collection_boxes", "addr:city": "BEAVERTON", "addr:country": "US", "addr:full": "32457 COUNTY ROAD 49", "addr:postcode": "35544", "addr:state": "AL", "brand": "USPS", "collection_times": "Mo-Fr 11:50; Sa 11:00", "name": "USPS COLLECTION BOX - BLUE BOX", "ref": "3554400000"}, "type": "Feature"}
{"geometry": {"coordinates": [-88.021218, 33.932456], "type": "Point"}, "id": "Mzn0iAhw-1jrQwZkqUCwvsaGPgM=", "properties": {"@spider": "usps_collection_boxes", "addr:city": "BEAVERTON", "addr:country": "US", "addr:full": "32457 COUNTY ROAD 49", "addr:postcode": "35544", "addr:state": "AL", "brand": "USPS", "collection_times": "Mo-Fr 11:50; Sa 11:00", "name": "USPS COLLECTION BOX - PO LOBBY", "ref": "3554400001"}, "type": "Feature"}
{"geometry": {"coordinates": [-88.021242641, 33.932434427], "type": "Point"}, "id": "2ZmwQRiEfW8c5kUpyjuA3wUqamw=", "properties": {"@spider": "usps_collection_boxes", "addr:city": "BEAVERTON", "addr:country": "US", "addr:full": "32457 COUNTY ROAD 49", "addr:postcode": "35544", "addr:state": "AL", "brand": "USPS", "collection_times": "Mo-Fr 12:00; Sa 11:00", "name": "USPS COLLECTION BOX - PO LOBBY", "ref": "3554400003"}, "type": "Feature"}
{"geometry": {"coordinates": [-87.9326448, 33.645103], "type": "Point"}, "id": "wnNpTz7w-TH8xB3lgkUxkprvk2Y=", "properties": {"@spider": "usps_collection_boxes", "addr:city": "BELK", "addr:country": "US", "addr:full": "7660 HIGHWAY 96", "addr:postcode": "35545", "addr:state": "AL", "brand": "USPS", "collection_times": "Mo-Sa 09:45", "name": "USPS COLLECTION BOX - BLUE BOX", "ref": "3554500000"}, "type": "Feature"}
{"geometry": {"coordinates": [-87.932226, 33.645324], "type": "Point"}, "id": "e8PRDaRE1xeBmuxzL_hz607SRd8=", "properties": {"@spider": "usps_collection_boxes", "addr:city": "BELK", "addr:country": "US", "addr:full": "7660 HIGHWAY 96", "addr:postcode": "35545", "addr:state": "AL", "brand": "USPS", "collection_times": "Mo-Sa 09:45", "name": "USPS COLLECTION BOX - PO LOBBY", "ref": "3554500001"}, "type": "Feature"}
{"geometry": {"coordinates": [-87.932266784, 33.645375124], "type": "Point"}, "id": "24Frml2lhvzn9S8LzKRTBw_sOIM=", "properties": {"@spider": "usps_collection_boxes", "addr:city": "BELK", "addr:country": "US", "addr:full": "7660 HIGHWAY 96", "addr:postcode": "35545", "addr:state": "AL", "brand": "USPS", "collection_times": "Mo-Sa 10:00", "name": "USPS COLLECTION BOX - PO LOBBY", "ref": "3554500002"}, "type": "Feature"}
{"geometry": {"coordinates": [-87.6047416, 33.657985], "type": "Point"}, "id": "fvZIhNurZL0QS8Dzgtm7IiRcmiY=", "properties": {"@spider": "usps_collection_boxes", "addr:city": "BERRY", "addr:country": "US", "addr:full": "107 FEDERAL AVE", "addr:postcode": "35546", "addr:state": "AL", "brand": "USPS", "collection_times": "Mo-Fr 12:00; Sa 10:30", "name": "USPS COLLECTION BOX - BLUE BOX", "ref": "3554600000"}, "type": "Feature"}
{"geometry": {"coordinates": [-87.6045239, 33.657899], "type": "Point"}, "id": "_H3H0-9COMubMAuNXajBeyb5GAc=", "properties": {"@spider": "usps_collection_boxes", "addr:city": "BERRY", "addr:country": "US", "addr:full": "107 FEDERAL AVE", "addr:postcode": "35546", "addr:state": "AL", "brand": "USPS", "collection_times": "Mo-Fr 12:00; Sa 10:30", "name": "USPS COLLECTION BOX - PO LOBBY", "ref": "3554600001"}, "type": "Feature"}
{"geometry": {"coordinates": [-87.604880011, 33.657839749], "type": "Point"}, "id": "PINqNcpp-Hwx5GYZO_tS-Ft-PEQ=", "properties": {"@spider": "usps_collection_boxes", "addr:city": "BERRY", "addr:country": "US", "addr:full": "107 FEDERAL AVE", "addr:postcode": "35546", "addr:state": "AL", "brand": "USPS", "collection_times": "Mo-Fr 16:30; Sa 10:30", "name": "USPS COLLECTION BOX - PO LOBBY", "note": "ON 12/24 AND 12/31, THIS BOX MAY BE COLLECTED AS EARLY AS 12 NOON.", "ref": "3554600003"}, "type": "Feature"}
{"geometry": {"coordinates": [-87.75808, 34.0259], "type": "Point"}, "id": "Ak1OKUsthi4JeavGgaV6PKS3dAw=", "properties": {"@spider": "usps_collection_boxes", "addr:city": "BRILLIANT", "addr:country": "US", "addr:full": "1260 MAIN ST", "addr:postcode": "35548", "addr:state": "AL", "brand": "USPS", "collection_times": "Mo-Fr 16:00; Sa 12:00", "name": "USPS COLLECTION BOX - BLUE BOX", "note": "ON 12/24 AND 12/31, THIS BOX MAY BE COLLECTED AS EARLY AS 12 NOON.", "ref": "3554800000"}, "type": "Feature"}
{"geometry": {"coordinates": [-87.75808, 34.0259], "type": "Point"}, "id": "aqlnSatF9pi_k6hhScUWowG8Z1Q=", "properties": {"@spider": "usps_collection_boxes", "addr:city": "BRILLIANT", "addr:country": "US", "addr:full": "1260 MAIN ST", "addr:postcode": "35548", "addr:state": "AL", "brand": "USPS", "collection_times": "Mo-Fr 16:00; Sa 12:00", "name": "USPS COLLECTION BOX - PO LOBBY", "note": "ON 12/24 AND 12/31, THIS BOX MAY BE COLLECTED AS EARLY AS 12 NOON.", "ref": "3554800001"}, "type": "Feature"}
{"geometry": {"coordinates": [-87.758081714, 34.025891198], "type": "Point"}, "id": "zJ_5Hw7wTdC5Z4EEejsPP4yJw3Y=", "properties": {"@spider": "usps_collection_boxes", "addr:city": "BRILLIANT", "addr:country": "US", "addr:full": "1260 MAIN ST", "addr:postcode": "35548", "addr:state": "AL", "brand": "USPS", "collection_times": "Mo-Fr 16:00; Sa 11:00", "name": "USPS COLLECTION BOX - PO LOBBY", "note": "ON 12/24 AND 12/31, THIS BOX MAY BE COLLECTED AS EARLY AS 12 NOON.", "ref": "3554800003"}, "type": "Feature"}
{"geometry": {"coordinates": [-88.163241, 34.031675], "type": "Point"}, "id": "SLy-MVySHz3dBudOWpgZ-7027Iw=", "properties": {"@spider": "usps_collection_boxes", "addr:city": "DETROIT", "addr:country": "US", "addr:full": "65910 HIGHWAY 17", "addr:postcode": "35552", "addr:state": "AL", "brand": "USPS", "collection_times": "Mo-Fr 12:00; Sa 11:00", "name": "USPS COLLECTION BOX - BLUE BOX", "ref": "3555200000"}, "type": "Feature"}
{"geometry": {"coordinates": [-88.163241, 34.031675], "type": "Point"}, "id": "EzlQ2p9b2qKLmJwEg_jbSo9K4lo=", "properties": {"@spider": "usps_collection_boxes", "addr:city": "DETROIT", "addr:country": "US", "addr:full": "65910 HIGHWAY 17", "addr:postcode": "35552", "addr:state": "AL", "brand": "USPS", "collection_times": "Mo-Fr 12:00; Sa 11:00", "name": "USPS COLLECTION BOX - PO LOBBY", "ref": "3555200001"}, "type": "Feature"}
{"geometry": {"coordinates": [-88.1699449, 34.028031], "type": "Point"}, "id": "x0V2iqYcbZxOwZriB6sw8hU4wis=", "properties": {"@spider": "usps_collection_boxes", "addr:city": "DETROIT", "addr:country": "US", "addr:full": "65424 HIGHWAY 17", "addr:postcode": "35552", "addr:state": "AL", "brand": "USPS", "collection_times": "Mo-Sa 13:00", "name": "USPS COLLECTION BOX - BLUE BOX", "note": "ON 12/24 AND 12/31, THIS BOX MAY BE COLLECTED AS EARLY AS 12 NOON.", "ref": "3555200003"}, "type": "Feature"}
{"geometry": {"coordinates": [-88.163216547, 34.031641415], "type": "Point"}, "id": "XXVQQePVh9VSYOTYPkbMSL1lK48=", "properties": {"@spider": "usps_collection_boxes", "addr:city": "DETROIT", "addr:country": "US", "addr:full": "65910 HIGHWAY 17", "addr:postcode": "35552", "addr:state": "AL", "brand": "USPS", "collection_times": "Mo-Fr 12:00; Sa 11:00", "name": "USPS COLLECTION BOX - PO LOBBY", "ref": "3555200004"}, "type": "Feature"}
{"geometry": {"coordinates": [-87.403129, 34.142534], "type": "Point"}, "id": "BwcbVzhNPgjMiz_Wc5yTFexe_LY=", "properties": {"@spider": "usps_collection_boxes", "addr:city": "DOUBLE SPRINGS", "addr:country": "US", "addr:full": "22 LYNN RD", "addr:postcode": "35553", "addr:state": "AL", "brand": "USPS", "collection_times": "Mo-Fr 15:45; Sa 11:15", "name": "USPS COLLECTION BOX - BLUE BOX", "note": "ON 12/24 AND 12/31, THIS BOX MAY BE COLLECTED AS EARLY AS 12 NOON.", "ref": "3555300000"}, "type": "Feature"}
{"geometry": {"coordinates": [-87.4144399501, 34.1600922586], "type": "Point"}, "id": "nmrnh7h_cRcz8WWhiuUkiTzc4QM=", "properties": {"@spider": "usps_collection_boxes", "addr:city": "DOUBLE SPRINGS", "addr:country": "US", "addr:full": "14950 HIGHWAY 278", "addr:postcode": "35553", "addr:state": "AL", "brand": "USPS", "collection_times": "Mo-Fr 12:00; Sa 11:15", "name": "USPS COLLECTION BOX - BLUE BOX", "ref": "3555300001"}, "type": "Feature"}
{"geometry": {"coordinates": [-87.4020483, 34.146132], "type": "Point"}, "id": "Lu5UoY4ffMZjZdHi9Pv_awMLeYs=", "properties": {"@spider": "usps_collection_boxes", "addr:city": "DOUBLE SPRINGS", "addr:country": "US", "addr:full": "13 BLAKE DR", "addr:postcode": "35553", "addr:state": "AL", "brand": "USPS", "collection_times": "Mo-Sa 12:00", "name": "USPS COLLECTION BOX - BLUE BOX", "ref": "3555300002"}, "type": "Feature"}
{"geometry": {"coordinates": [-87.4066517, 34.159647], "type": "Point"}, "id": "DDR9elWrG5bJCLCw-CHPSQQ4DM4=", "properties": {"@spider": "usps_collection_boxes", "addr:city": "DOUBLE SPRINGS", "addr:country": "US", "addr:full": "2 EAST ST", "addr:postcode": "35553", "addr:state": "AL", "brand": "USPS", "collection_times": "Mo-Sa 08:45", "name": "USPS COLLECTION BOX - BLUE BOX", "ref": "3555300003"}, "type": "Feature"}
{"geometry": {"coordinates": [-87.403129, 34.142534], "type": "Point"}, "id": "PMNO7SRn5yI65dt-U_lGpSgH2_Y=", "properties": {"@spider": "usps_collection_boxes", "addr:city": "DOUBLE SPRINGS", "addr:country": "US", "addr:full": "22 LYNN RD", "addr:postcode": "35553", "addr:state": "AL", "brand": "USPS", "collection_times": "Mo-Fr 15:45; Sa 11:15", "name": "USPS COLLECTION BOX - PO LOBBY", "note": "ON 12/24 AND 12/31, THIS BOX MAY BE COLLECTED AS EARLY AS 12 NOON.", "ref": "3555300004"}, "type": "Feature"}
{"geometry": {"coordinates": [-87.4023381, 34.1460787], "type": "Point"}, "id": "PjAVDXYWuLNrCEppUKhSTkAit1E=", "properties": {"@spider": "usps_collection_boxes", "addr:city": "DOUBLE SPRINGS", "addr:country": "US", "addr:full": "22 LYNN RD", "addr:postcode": "35553", "addr:state": "AL", "brand": "USPS", "collection_times": "Mo-Fr 16:00; Sa 11:30", "name": "USPS COLLECTION BOX - PO LOBBY", "note": "ON 12/24 AND 12/31, THIS BOX MAY BE COLLECTED AS EARLY AS 12 NOON.", "ref": "3555300006"}, "type": "Feature"}
{"geometry": {"coordinates": [-87.616128, 33.922744], "type": "Point"}, "id": "CVYBozQv_Rl3wz5QfRuGuXWI3mY=", "properties": {"@spider": "usps_collection_boxes", "addr:city": "ELDRIDGE", "addr:country": "US", "addr:full": "37855 HIGHWAY 78", "addr:postcode": "35554", "addr:state": "AL", "brand": "USPS", "collection_times": "Mo-Fr 12:00; Sa 11:00", "name": "USPS COLLECTION BOX - BLUE BOX", "ref": "3555400000"}, "type": "Feature"}
{"geometry": {"coordinates": [-87.616128, 33.922744], "type": "Point"}, "id": "tfKebEw1Dz1yiuqx3oXkU1zQI40=", "properties": {"@spider": "usps_collection_boxes", "addr:city": "ELDRIDGE", "addr:country": "US", "addr:full": "37855 HIGHWAY 78", "addr:postcode": "35554", "addr:state": "AL", "brand": "USPS", "collection_times": "Mo-Fr 12:00; Sa 11:00", "name": "USPS COLLECTION BOX - PO LOBBY", "ref": "3555400001"}, "type": "Feature"}
{"geometry": {"coordinates": [-87.616169886, 33.922694333], "type": "Point"}, "id": "s19AKGnSDlMY78bLuGfIWFtQS04=", "properties": {"@spider": "usps_collection_boxes", "addr:city": "ELDRIDGE", "addr:country": "US", "addr:full": "37855 HIGHWAY 78", "addr:postcode": "35554", "addr:state": "AL", "brand": "USPS", "collection_times": "Mo-Fr 12:00; Sa 11:00", "name": "USPS COLLECTION BOX - PO LOBBY", "ref": "3555400003"}, "type": "Feature"}
{"geometry": {"coordinates": [-87.8310584, 33.686677], "type": "Point"}, "id": "KminrnxvVKq8dWYGcja9vUOGozM=", "properties": {"@spider": "usps_collection_boxes", "addr:city": "FAYETTE", "addr:country": "US", "addr:full": "223 TEMPLE AVE N", "addr:postcode": "35555", "addr:state": "AL", "brand": "USPS", "collection_times": "Mo-Fr 16:00; Sa 12:00", "name": "USPS COLLECTION BOX - BLUE BOX", "note": "ON 12/24 AND 12/31, THIS BOX MAY BE COLLECTED AS EARLY AS 12 NOON.", "ref": "3555500000"}, "type": "Feature"}
{"geometry": {"coordinates": [-87.8310444, 33.686681], "type": "Point"}, "id": "DiojoHw-Dvr1OLw2Z9bfn4a5ClY=", "properties": {"@spider": "usps_collection_boxes", "addr:city": "FAYETTE", "addr:country": "US", "addr:full": "223 TEMPLE AVE N", "addr:postcode": "35555", "addr:state": "AL", "brand": "USPS", "collection_times": "Mo-Fr 16:00; Sa 12:00", "name": "USPS COLLECTION BOX - BLUE BOX", "note": "ON 12/24 AND 12/31, THIS BOX MAY BE COLLECTED AS EARLY AS 12 NOON.", "ref": "3555500001"}, "type": "Feature"}
{"geometry": {"coordinates": [-87.8204271, 33.706929], "type": "Point"}, "id": "oUtvDynHh6Qmh6L6uklu3BM3HwE=", "properties": {"@spider": "usps_collection_boxes", "addr:city": "FAYETTE", "addr:country": "US", "addr:full": "1640 2ND AVE NE", "addr:postcode": "35555", "addr:state": "AL", "brand": "USPS", "collection_times": "Mo-Sa 09:30", "name": "USPS COLLECTION BOX - BLUE BOX", "ref": "3555500006"}, "type": "Feature"}
{"geometry": {"coordinates": [-87.8433081, 33.679794], "type": "Point"}, "id": "_351EG24gLaIukkp-jcEIOD_ZNY=", "properties": {"@spider": "usps_collection_boxes", "addr:city": "FAYETTE", "addr:country": "US", "addr:full": "737 6TH ST SW", "addr:postcode": "35555", "addr:state": "AL", "brand": "USPS", "collection_times": "Mo-Sa 11:30", "name": "USPS COLLECTION BOX - BLUE BOX", "ref": "3555500013"}, "type": "Feature"}
{"geometry": {"coordinates": [-87.8314492, 33.68679], "type": "Point"}, "id": "fmCwd5eJpkTf8NtG6Y0MDwydD3c=", "properties": {"@spider": "usps_collection_boxes", "addr:city": "FAYETTE", "addr:country": "US", "addr:full": "223 TEMPLE AVE N", "addr:postcode": "35555", "addr:state": "AL", "brand": "USPS", "collection_times": "Mo-Fr 16:00; Sa 12:00", "name": "USPS COLLECTION BOX - PO LOBBY", "note": "ON 12/24 AND 12/31, THIS BOX MAY BE COLLECTED AS EARLY AS 12 NOON.", "ref": "3555500018"}, "type": "Feature"}
{"geometry": {"coordinates": [-87.830919035, 33.686178737], "type": "Point"}, "id": "QLK2eWqgERgxmE7k6J8MAG0k2Gc=", "properties": {"@spider": "usps_collection_boxes", "addr:city": "FAYETTE", "addr:country": "US", "addr:full": "223 TEMPLE AVE N", "addr:postcode": "35555", "addr:state": "AL", "brand": "USPS", "collection_times": "Mo-Fr 16:30; Sa 12:00", "name": "USPS COLLECTION BOX - PO LOBBY", "note": "ON 12/24 AND 12/31, THIS BOX MAY BE COLLECTED AS EARLY AS 12 NOON.", "ref": "3555500021"}, "type": "Feature"}
{"geometry": {"coordinates": [-87.73997, 33.914498], "type": "Point"}, "id": "PJC8srF57CgpI8D1NJB3n91gWVE=", "properties": {"@spider": "usps_collection_boxes", "addr:city": "GLEN ALLEN", "addr:country": "US", "addr:full": "152 HIGHWAY 129 S", "addr:postcode": "35559", "addr:state": "AL", "brand": "USPS", "collection_times": "Mo-Fr 16:00; Sa 10:00", "name": "USPS COLLECTION BOX - BLUE BOX", "note": "ON 12/24 AND 12/31, THIS BOX MAY BE COLLECTED AS EARLY AS 12 NOON.", "ref": "3555900000"}, "type": "Feature"}
{"geometry": {"coordinates": [-87.73997, 33.914498], "type": "Point"}, "id": "feKuPFi9hm_27acZWbXEl-oPpY4=", "properties": {"@spider": "usps_collection_boxes", "addr:city": "GLEN ALLEN", "addr:country": "US", "addr:full": "152 HIGHWAY 129 S", "addr:postcode": "35559", "addr:state": "AL", "brand": "USPS", "collection_times": "Mo-Fr 16:00; Sa 10:00", "name": "USPS COLLECTION BOX - PO LOBBY", "note": "ON 12/24 AND 12/31, THIS BOX MAY BE COLLECTED AS EARLY AS 12 NOON.", "ref": "3555900001"}, "type": "Feature"}
{"geometry": {"coordinates": [-87.739972464, 33.914445315], "type": "Point"}, "id": "cuFKO5c67rRXIf_t7J_lI9N45YA=", "properties": {"@spider": "usps_collection_boxes", "addr:city": "GLEN ALLEN", "addr:country": "US", "addr:full": "152 HIGHWAY 129 S", "addr:postcode": "35559", "addr:state": "AL", "brand": "USPS", "collection_times": "Mo-Fr 16:00; Sa 10:30", "name": "USPS COLLECTION BOX - PO LOBBY", "note": "ON 12/24 AND 12/31, THIS BOX MAY BE COLLECTED AS EARLY AS 12 NOON.", "ref": "3555900002"}, "type": "Feature"}
{"geometry": {"coordinates": [-87.9134933, 33.96548], "type": "Point"}, "id": "R3KiL54vYTZTHQAeAhQhRJPJhyg=", "properties": {"@spider": "usps_collection_boxes", "addr:city": "GUIN", "addr:country": "US", "addr:full": "7479 US HIGHWAY 43", "addr:postcode": "35563", "addr:state": "AL", "brand": "USPS", "collection_times": "Mo-Fr 12:00; Sa 11:45", "name": "USPS COLLECTION BOX - BLUE BOX", "ref": "3556300000"}, "type": "Feature"}
{"geometry": {"coordinates": [-87.913562, 33.965657], "type": "Point"}, "id": "aRpz1-5jmCoZhpGDu9bH2OapmSw=", "properties": {"@spider": "usps_collection_boxes", "addr:city": "GUIN", "addr:country": "US", "addr:full": "7479 US HIGHWAY 43", "addr:postcode": "35563", "addr:state": "AL", "brand": "USPS", "collection_times": "Mo-Fr 12:00; Sa 11:45", "name": "USPS COLLECTION BOX - PO LOBBY", "ref": "3556300001"}, "type": "Feature"}
{"geometry": {"coordinates": [-87.913537253, 33.965610426], "type": "Point"}, "id": "QZ4RQ_N1DCnEh5EcGDc3ROw2cIc=", "properties": {"@spider": "usps_collection_boxes", "addr:city": "GUIN", "addr:country": "US", "addr:full": "7479 US HIGHWAY 43", "addr:postcode": "35563", "addr:state": "AL", "brand": "USPS", "collection_times": "Mo-Fr 16:30; Sa 12:00", "name": "USPS COLLECTION BOX - PO LOBBY", "note": "ON 12/24 AND 12/31, THIS BOX MAY BE COLLECTED AS EARLY AS 12 NOON.", "ref": "3556300003"}, "type": "Feature"}
{"geometry": {"coordinates": [-87.8274123, 34.275758], "type": "Point"}, "id": "NMG-U0b9ChP2zF1sNFkglC7ZPT4=", "properties": {"@spider": "usps_collection_boxes", "addr:city": "HACKLEBURG", "addr:country": "US", "addr:full": "429 WALKER ST", "addr:postcode": "35564", "addr:state": "AL", "brand": "USPS", "collection_times": "Mo-Fr 16:00; Sa 11:00", "name": "USPS COLLECTION BOX - BLUE BOX", "note": "ON 12/24 AND 12/31, THIS BOX MAY BE COLLECTED AS EARLY AS 12 NOON.", "ref": "3556400000"}, "type": "Feature"}
{"geometry": {"coordinates": [-87.8272591, 34.275804], "type": "Point"}, "id": "kOJdC-76JRCJWxIBVvieQ1JmJB0=", "properties": {"@spider": "usps_collection_boxes", "addr:city": "HACKLEBURG", "addr:country": "US", "addr:full": "429 WALKER ST", "addr:postcode": "35564", "addr:state": "AL", "brand": "USPS", "collection_times": "Mo-Fr 16:00; Sa 11:00", "name": "USPS COLLECTION BOX - PO LOBBY", "note": "ON 12/24 AND 12/31, THIS BOX MAY BE COLLECTED AS EARLY AS 12 NOON.", "ref": "3556400001"}, "type": "Feature"}
{"geometry": {"coordinates": [-87.8273324, 34.275807], "type": "Point"}, "id": "wMJ8TGUqIUazodkGvLBUpFjs7uY=", "properties": {"@spider": "usps_collection_boxes", "addr:city": "HACKLEBURG", "addr:country": "US", "addr:full": "429 WALKER ST", "addr:postcode": "35564", "addr:state": "AL", "brand": "USPS", "collection_times": "Mo-Fr 16:00; Sa 11:00", "name": "USPS COLLECTION BOX - PO LOBBY", "note": "ON 12/24 AND 12/31, THIS BOX MAY BE COLLECTED AS EARLY AS 12 NOON.", "ref": "3556400002"}, "type": "Feature"}
{"geometry": {"coordinates": [-87.8272335, 34.275616479], "type": "Point"}, "id": "RYiECLC38mF3pwXq9dk8RUZBpas=", "properties": {"@spider": "usps_collection_boxes", "addr:city": "HACKLEBURG", "addr:country": "US", "addr:full": "429 WALKER ST", "addr:postcode": "35564", "addr:state": "AL", "brand": "USPS", "collection_times": "Mo-Fr 16:00; Sa 11:00", "name": "USPS COLLECTION BOX - PO LOBBY", "note": "ON 12/24 AND 12/31, THIS BOX MAY BE COLLECTED AS EARLY AS 12 NOON.", "ref": "3556400004"}, "type": "Feature"}
{"geometry": {"coordinates": [-87.619631, 34.227654], "type": "Point"}, "id": "UNEChye5abG4hGuWsKfd6rFjQx0=", "properties": {"@spider": "usps_collection_boxes", "addr:city": "HALEYVILLE", "addr:country": "US", "addr:full": "1212 21ST ST", "addr:postcode": "35565", "addr:state": "AL", "brand": "USPS", "collection_times": "Mo-Fr 16:15; Sa 12:00", "name": "USPS COLLECTION BOX - BLUE BOX", "note": "ON 12/24 AND 12/31, THIS BOX MAY BE COLLECTED AS EARLY AS 12 NOON.", "ref": "3556500001"}, "type": "Feature"}
{"geometry": {"coordinates": [-87.5980306, 34.238706], "type": "Point"}, "id": "vOKEazFmvgD9O2dDYzqcL9aAeZM=", "properties": {"@spider": "usps_collection_boxes", "addr:city": "HALEYVILLE", "addr:country": "US", "addr:full": "42425 HIGHWAY 195", "addr:postcode": "35565", "addr:state": "AL", "brand": "USPS", "collection_times": "Mo-Sa 10:00", "name": "USPS COLLECTION BOX - BLUE BOX", "ref": "3556500010"}, "type": "Feature"}
{"geometry": {"coordinates": [-87.619631, 34.227654], "type": "Point"}, "id": "4sxW76urBs80cRGI91nCd9r-RuM=", "properties": {"@spider": "usps_collection_boxes", "addr:city": "HALEYVILLE", "addr:country": "US", "addr:full": "1212 21ST ST", "addr:postcode": "35565", "addr:state": "AL", "brand": "USPS", "collection_times": "Mo-Fr 16:15; Sa 12:00", "name": "USPS COLLECTION BOX - PO LOBBY", "note": "ON 12/24 AND 12/31, THIS BOX MAY BE COLLECTED AS EARLY AS 12 NOON.", "ref": "3556500011"}, "type": "Feature"}
{"geometry": {"coordinates": [-87.619664709, 34.227686222], "type": "Point"}, "id": "7HSGyk_1XNkbV5lJl155d0xtNBE=", "properties": {"@spider": "usps_collection_boxes", "addr:city": "HALEYVILLE", "addr:country": "US", "addr:full": "1212 21ST ST", "addr:postcode": "35565", "addr:state": "AL", "brand": "USPS", "collection_times": "Mo-Fr 16:30; Sa 12:00", "name": "USPS COLLECTION BOX - PO LOBBY", "note": "ON 12/24 AND 12/31, THIS BOX MAY BE COLLECTED AS EARLY AS 12 NOON.", "ref": "3556500014"}, "type": "Feature"}
{"geometry": {"coordinates": [-87.984449, 34.141672], "type": "Point"}, "id": "M4V45BO2FqukxToPb7-XpFc0neM=", "properties": {"@spider": "usps_collection_boxes", "addr:city": "HAMILTON", "addr:country": "US", "addr:full": "315 BEXAR AVE E", "addr:postcode": "35570", "addr:state": "AL", "brand": "USPS", "collection_times": "Mo-Sa 12:00", "name": "USPS COLLECTION BOX - BLUE BOX", "ref": "3557000001"}, "type": "Feature"}
{"geometry": {"coordinates": [-87.984449, 34.141672], "type": "Point"}, "id": "pq5oKVWgcYJJTFAqs0GQeUspevU=", "properties": {"@spider": "usps_collection_boxes", "addr:city": "HAMILTON", "addr:country": "US", "addr:full": "315 BEXAR AVE E", "addr:postcode": "35570", "addr:state": "AL", "brand": "USPS", "collection_times": "Mo-Sa 12:00", "name": "USPS COLLECTION BOX - BLUE BOX", "ref": "3557000002"}, "type": "Feature"}
{"geometry": {"coordinates": [-87.984449, 34.141672], "type": "Point"}, "id": "Q-aeGzxTuatIv7yHAwKBQprpXYE=", "properties": {"@spider": "usps_collection_boxes", "addr:city": "HAMILTON", "addr:country": "US", "addr:full": "315 BEXAR AVE E", "addr:postcode": "35570", "addr:state": "AL", "brand": "USPS", "collection_times": "Mo-Sa 12:00", "name": "USPS COLLECTION BOX - PO LOBBY", "ref": "3557000004"}, "type": "Feature"}
{"geometry": {"coordinates": [-87.98443421, 34.141695654], "type": "Point"}, "id": "7rHsWOyREUkmV2EXCl1LmSvrXe8=", "properties": {"@spider": "usps_collection_boxes", "addr:city": "HAMILTON", "addr:country": "US", "addr:full": "315 BEXAR AVE E", "addr:postcode": "35570", "addr:state": "AL", "brand": "USPS", "collection_times": "Mo-Fr 16:30; Sa 12:00", "name": "USPS COLLECTION BOX - PO LOBBY", "note": "ON 12/24 AND 12/31, THIS BOX MAY BE COLLECTED AS EARLY AS 12 NOON.", "ref": "3557000006"}, "type": "Feature"}
{"geometry": {"coordinates": [-87.923158, 34.324246], "type": "Point"}, "id": "yBJQ0srYU4ULaPPa1eF0QvdNo5g=", "properties": {"@spider": "usps_collection_boxes", "addr:city": "HODGES", "addr:country": "US", "addr:full": "227 MAIN ST", "addr:postcode": "35571", "addr:state": "AL", "brand": "USPS", "collection_times": "Mo-Fr 12:00; Sa 11:00", "name": "USPS COLLECTION BOX - BLUE BOX", "ref": "3557100000"}, "type": "Feature"}
{"geometry": {"coordinates": [-87.923158, 34.324246], "type": "Point"}, "id": "nHOWO42mj2bo0zou34--23W1ogg=", "properties": {"@spider": "usps_collection_boxes", "addr:city": "HODGES", "addr:country": "US", "addr:full": "227 MAIN ST", "addr:postcode": "35571", "addr:state": "AL", "brand": "USPS", "collection_times": "Mo-Fr 12:00; Sa 11:00", "name": "USPS COLLECTION BOX - PO LOBBY", "ref": "3557100001"}, "type": "Feature"}
{"geometry": {"coordinates": [-87.923161838, 34.324192224], "type": "Point"}, "id": "M8WrlO_EoIAh6GzAWh1HPz28HNk=", "properties": {"@spider": "usps_collection_boxes", "addr:city": "HODGES", "addr:country": "US", "addr:full": "227 MAIN ST", "addr:postcode": "35571", "addr:state": "AL", "brand": "USPS", "collection_times": "Mo-Fr 12:00; Sa 11:00", "name": "USPS COLLECTION BOX - PO LOBBY", "ref": "3557100003"}, "type": "Feature"}
{"geometry": {"coordinates": [-87.985337, 33.587443], "type": "Point"}, "id": "e7tKq4i7uy88Wzjaylrsn4hQpgI=", "properties": {"@spider": "usps_collection_boxes", "addr:city": "KENNEDY", "addr:country": "US", "addr:full": "4187 COUNTY ROAD 49", "addr:postcode": "35574", "addr:state": "AL", "brand": "USPS", "collection_times": "Mo-Fr 14:15; Sa 09:30", "name": "USPS COLLECTION BOX - BLUE BOX", "note": "ON 12/24 AND 12/31, THIS BOX MAY BE COLLECTED AS EARLY AS 12 NOON.", "ref": "3557400000"}, "type": "Feature"}
{"geometry": {"coordinates": [-87.985337, 33.587443], "type": "Point"}, "id": "KcfFtx9LCOGog34X3XDTuoHLJzY=", "properties": {"@spider": "usps_collection_boxes", "addr:city": "KENNEDY", "addr:country": "US", "addr:full": "4187 COUNTY ROAD 49", "addr:postcode": "35574", "addr:state": "AL", "brand": "USPS", "collection_times": "Mo-Fr 14:15; Sa 09:30", "name": "USPS COLLECTION BOX - PO LOBBY", "note": "ON 12/24 AND 12/31, THIS BOX MAY BE COLLECTED AS EARLY AS 12 NOON.", "ref": "3557400001"}, "type": "Feature"}
{"geometry": {"coordinates": [-87.550993, 34.047638], "type": "Point"}, "id": "WUIGrLfXhN4F2RPJS8ryFqG3ou0=", "properties": {"@spider": "usps_collection_boxes", "addr:city": "LYNN", "addr:country": "US", "addr:full": "1303 W MAIN ST", "addr:postcode": "35575", "addr:state": "AL", "brand": "USPS", "collection_times": "Mo-Fr 11:50; Sa 10:50", "name": "USPS COLLECTION BOX - BLUE BOX", "ref": "3557500000"}, "type": "Feature"}
{"geometry": {"coordinates": [-87.550993, 34.047638], "type": "Point"}, "id": "uKHuVR7jox-sN8pl8uOxEDPW440=", "properties": {"@spider": "usps_collection_boxes", "addr:city": "LYNN", "addr:country": "US", "addr:full": "1303 W MAIN ST", "addr:postcode": "35575", "addr:state": "AL", "brand": "USPS", "collection_times": "Mo-Fr 11:50; Sa 10:50", "name": "USPS COLLECTION BOX - PO LOBBY", "ref": "3557500001"}, "type": "Feature"}
{"geometry": {"coordinates": [-87.55100016, 34.04759714], "type": "Point"}, "id": "q6Aa_91UkOtRyQX5_Gy3QtJpLRY=", "properties": {"@spider": "usps_collection_boxes", "addr:city": "LYNN", "addr:country": "US", "addr:full": "1303 W MAIN ST", "addr:postcode": "35575", "addr:state": "AL", "brand": "USPS", "collection_times": "Mo-Fr 12:00; Sa 11:00", "name": "USPS COLLECTION BOX - PO LOBBY", "ref": "3557500003"}, "type": "Feature"}
{"geometry": {"coordinates": [-88.081586, 33.562663], "type": "Point"}, "id": "R0qylMGfTUBhTeSXf38O0oF-OA8=", "properties": {"@spider": "usps_collection_boxes", "addr:city": "MILLPORT", "addr:country": "US", "addr:full": "115 WOOD DR", "addr:postcode": "35576", "addr:state": "AL", "brand": "USPS", "collection_times": "Mo-Fr 15:45; Sa 11:45", "name": "USPS COLLECTION BOX - BLUE BOX", "note": "ON 12/24 AND 12/31, THIS BOX MAY BE COLLECTED AS EARLY AS 12 NOON.", "ref": "3557600000"}, "type": "Feature"}
{"geometry": {"coordinates": [-88.081586, 33.562664], "type": "Point"}, "id": "Y837VqEwGwScWVJ3he2pm5z8ZUg=", "properties": {"@spider": "usps_collection_boxes", "addr:city": "MILLPORT", "addr:country": "US", "addr:full": "115 WOOD DR", "addr:postcode": "35576", "addr:state": "AL", "brand": "USPS", "collection_times": "Mo-Fr 15:45; Sa 11:45", "name": "USPS COLLECTION BOX - PO LOBBY", "note": "ON 12/24 AND 12/31, THIS BOX MAY BE COLLECTED AS EARLY AS 12 NOON.", "ref": "3557600001"}, "type": "Feature"}
{"geometry": {"coordinates": [-88.081560517, 33.562624051], "type": "Point"}, "id": "4RwEfLSG_OOWl-6CDqFqzOKkdow=", "properties": {"@spider": "usps_collection_boxes", "addr:city": "MILLPORT", "addr:country": "US", "addr:full": "115 WOOD DR", "addr:postcode": "35576", "addr:state": "AL", "brand": "USPS", "collection_times": "Mo-Fr 16:00; Sa 12:00", "name": "USPS COLLECTION BOX - PO LOBBY", "note": "ON 12/24 AND 12/31, THIS BOX MAY BE COLLECTED AS EARLY AS 12 NOON.", "ref": "3557600003"}, "type": "Feature"}
{"geometry": {"coordinates": [-87.600107, 34.090932], "type": "Point"}, "id": "_lT7siZPMAJIiP9FGV13AyzViCI=", "properties": {"@spider": "usps_collection_boxes", "addr:city": "NATURAL BRIDGE", "addr:country": "US", "addr:full": "16430 HIGHWAY 13", "addr:postcode": "35577", "addr:state": "AL", "brand": "USPS", "collection_times": "Mo-Fr 12:00; Sa 14:45", "name": "USPS COLLECTION BOX - BLUE BOX", "note": "ON 12/24 AND 12/31, THIS BOX MAY BE COLLECTED AS EARLY AS 12 NOON.", "ref": "3557700000"}, "type": "Feature"}
{"geometry": {"coordinates": [-87.600107, 34.090932], "type": "Point"}, "id": "m9sWArEC_azVVyPTQRP1Gi5mJn0=", "properties": {"@spider": "usps_collection_boxes", "addr:city": "NATURAL BRIDGE", "addr:country": "US", "addr:full": "16430 HIGHWAY 13", "addr:postcode": "35577", "addr:state": "AL", "brand": "USPS", "collection_times": "Mo-Fr 12:00; Sa 14:45", "name": "USPS COLLECTION BOX - PO LOBBY", "note": "ON 12/24 AND 12/31, THIS BOX MAY BE COLLECTED AS EARLY AS 12 NOON.", "ref": "3557700001"}, "type": "Feature"}
{"geometry": {"coordinates": [-87.600983692, 34.095065076], "type": "Point"}, "id": "yrs9Rw_iY3LlaW6RPTgEgMYgQY4=", "properties": {"@spider": "usps_collection_boxes", "addr:city": "NATURAL BRIDGE", "addr:country": "US", "addr:full": "16430 HIGHWAY 13", "addr:postcode": "35577", "addr:state": "AL", "brand": "USPS", "collection_times": "Mo-Fr 13:00; Sa 15:00", "name": "USPS COLLECTION BOX - PO LOBBY", "note": "ON 12/24 AND 12/31, THIS BOX MAY BE COLLECTED AS EARLY AS 12 NOON.", "ref": "3557700002"}, "type": "Feature"}
{"geometry": {"coordinates": [-87.707358, 34.348199], "type": "Point"}, "id": "fcSmslLLOjcXY9U7AGB7Ui5piYo=", "properties": {"@spider": "usps_collection_boxes", "addr:city": "PHIL CAMPBELL", "addr:country": "US", "addr:full": "3025 HIGHWAY 237", "addr:postcode": "35581", "addr:state": "AL", "brand": "USPS", "collection_times": "Mo-Fr 16:00; Sa 10:30", "name": "USPS COLLECTION BOX - PO LOBBY", "note": "ON 12/24 AND 12/31, THIS BOX MAY BE COLLECTED AS EARLY AS 12 NOON.", "ref": "3558100000"}, "type": "Feature"}
{"geometry": {"coordinates": [-87.707358, 34.348199], "type": "Point"}, "id": "FFOiyxqPL5DhIGTMnqmmicWogos=", "properties": {"@spider": "usps_collection_boxes", "addr:city": "PHIL CAMPBELL", "addr:country": "US", "addr:full": "3025 HIGHWAY 237", "addr:postcode": "35581", "addr:state": "AL", "brand": "USPS", "collection_times": "Mo-Fr 16:00; Sa 10:30", "name": "USPS COLLECTION BOX - BLUE BOX", "note": "ON 12/24 AND 12/31, THIS BOX MAY BE COLLECTED AS EARLY AS 12 NOON.", "ref": "3558100002"}, "type": "Feature"}
{"geometry": {"coordinates": [-87.707391976, 34.348215092], "type": "Point"}, "id": "v7TobS6D-p0ll97AIeSW83LzhFM=", "properties": {"@spider": "usps_collection_boxes", "addr:city": "PHIL CAMPBELL", "addr:country": "US", "addr:full": "3025 HIGHWAY 237", "addr:postcode": "35581", "addr:state": "AL", "brand": "USPS", "collection_times": "Mo-Fr 16:00; Sa 10:30", "name": "USPS COLLECTION BOX - PO LOBBY", "note": "ON 12/24 AND 12/31, THIS BOX MAY BE COLLECTED AS EARLY AS 12 NOON.", "ref": "3558100004"}, "type": "Feature"}
{"geometry": {"coordinates": [-88.146383, 34.4422], "type": "Point"}, "id": "7tPi82mZfuQFKBAcYiojoHYZBxY=", "properties": {"@spider": "usps_collection_boxes", "addr:city": "RED BAY", "addr:country": "US", "addr:full": "300 4TH AVE SW", "addr:postcode": "35582", "addr:state": "AL", "brand": "USPS", "collection_times": "Mo-Fr 16:15; Sa 12:00", "name": "USPS COLLECTION BOX - BLUE BOX", "note": "ON 12/24 AND 12/31, THIS BOX MAY BE COLLECTED AS EARLY AS 12 NOON.", "ref": "3558200000"}, "type": "Feature"}
{"geometry": {"coordinates": [-88.146383, 34.4422], "type": "Point"}, "id": "a2TZ5yPpxxMUrHXF7IPgbg7gga8=", "properties": {"@spider": "usps_collection_boxes", "addr:city": "RED BAY", "addr:country": "US", "addr:full": "300 4TH AVE SW", "addr:postcode": "35582", "addr:state": "AL", "brand": "USPS", "collection_times": "Mo-Fr 16:15; Sa 12:00", "name": "USPS COLLECTION BOX - PO LOBBY", "note": "ON 12/24 AND 12/31, THIS BOX MAY BE COLLECTED AS EARLY AS 12 NOON.", "ref": "3558200003"}, "type": "Feature"}
{"geometry": {"coordinates": [-88.146354735, 34.442144373], "type": "Point"}, "id": "_rY8UEOkM23tDlGcAvwrtyBsFrw=", "properties": {"@spider": "usps_collection_boxes", "addr:city": "RED BAY", "addr:country": "US", "addr:full": "300 4TH AVE SW", "addr:postcode": "35582", "addr:state": "AL", "brand": "USPS", "collection_times": "Mo-Fr 16:25; Sa 12:00", "name": "USPS COLLECTION BOX - PO LOBBY", "note": "ON 12/24 AND 12/31, THIS BOX MAY BE COLLECTED AS EARLY AS 12 NOON.", "ref": "3558200005"}, "type": "Feature"}
{"geometry": {"coordinates": [-87.7282974, 34.390578], "type": "Point"}, "id": "6ykaIhZoTqqynO0WOfV7O6aJEWk=", "properties": {"@spider": "usps_collection_boxes", "addr:city": "SPRUCE PINE", "addr:country": "US", "addr:full": "9300 HIGHWAY 22", "addr:postcode": "35585", "addr:state": "AL", "brand": "USPS", "collection_times": "Mo-Fr 15:15; Sa 11:00", "name": "USPS COLLECTION BOX - BLUE BOX", "note": "ON 12/24 AND 12/31, THIS BOX MAY BE COLLECTED AS EARLY AS 12 NOON.", "ref": "3558500000"}, "type": "Feature"}
{"geometry": {"coordinates": [-87.7282926, 34.3905], "type": "Point"}, "id": "YSQvBoCiZjydx9IcalgHjZc3Ky4=", "properties": {"@spider": "usps_collection_boxes", "addr:city": "SPRUCE PINE", "addr:country": "US", "addr:full": "9300 HIGHWAY 22", "addr:postcode": "35585", "addr:state": "AL", "brand": "USPS", "collection_times": "Mo-Fr 15:15; Sa 11:00", "name": "USPS COLLECTION BOX - PO LOBBY", "note": "ON 12/24 AND 12/31, THIS BOX MAY BE COLLECTED AS EARLY AS 12 NOON.", "ref": "3558500001"}, "type": "Feature"}
{"geometry": {"coordinates": [-87.726541116, 34.389722329], "type": "Point"}, "id": "By9GNrKxILCaE85QUI9u9GbHybI=", "properties": {"@spider": "usps_collection_boxes", "addr:city": "SPRUCE PINE", "addr:country": "US", "addr:full": "9300 HIGHWAY 22", "addr:postcode": "35585", "addr:state": "AL", "brand": "USPS", "collection_times": "Mo-Fr 15:30; Sa 11:00", "name": "USPS COLLECTION BOX - PO LOBBY", "note": "ON 12/24 AND 12/31, THIS BOX MAY BE COLLECTED AS EARLY AS 12 NOON.", "ref": "3558500003"}, "type": "Feature"}
{"geometry": {"coordinates": [-88.133427, 33.900241], "type": "Point"}, "id": "crSX8UQs77Klc0911j2iPPNfgRc=", "properties": {"@spider": "usps_collection_boxes", "addr:city": "SULLIGENT", "addr:country": "US", "addr:full": "55144 HIGHWAY 17", "addr:postcode": "35586", "addr:state": "AL", "brand": "USPS", "collection_times": "Mo-Fr 16:30; Sa 12:00", "name": "USPS COLLECTION BOX - BLUE BOX", "note": "ON 12/24 AND 12/31, THIS BOX MAY BE COLLECTED AS EARLY AS 12 NOON.", "ref": "3558600000"}, "type": "Feature"}
{"geometry": {"coordinates": [-88.133427, 33.900241], "type": "Point"}, "id": "K4996OgkkEckKKLusxF4gjohDmw=", "properties": {"@spider": "usps_collection_boxes", "addr:city": "SULLIGENT", "addr:country": "US", "addr:full": "55144 HIGHWAY 17", "addr:postcode": "35586", "addr:state": "AL", "brand": "USPS", "collection_times": "Mo-Fr 16:30; Sa 12:00", "name": "USPS COLLECTION BOX - PO LOBBY", "note": "ON 12/24 AND 12/31, THIS BOX MAY BE COLLECTED AS EARLY AS 12 NOON.", "ref": "3558600001"}, "type": "Feature"}
{"geometry": {"coordinates": [-88.133407362, 33.900253536], "type": "Point"}, "id": "OLhqnq25yHoGtSufRRzY1ItMscI=", "properties": {"@spider": "usps_collection_boxes", "addr:city": "SULLIGENT", "addr:country": "US", "addr:full": "55144 HIGHWAY 17", "addr:postcode": "35586", "addr:state": "AL", "brand": "USPS", "collection_times": "Mo-Fr 16:30; Sa 12:00", "name": "USPS COLLECTION BOX - PO LOBBY", "note": "ON 12/24 AND 12/31, THIS BOX MAY BE COLLECTED AS EARLY AS 12 NOON.", "ref": "3558600003"}, "type": "Feature"}
{"geometry": {"coordinates": [-88.10858, 33.762089], "type": "Point"}, "id": "fIDUtsOlj05prcm2nJqLw0lO4PI=", "properties": {"@spider": "usps_collection_boxes", "addr:city": "VERNON", "addr:country": "US", "addr:full": "44924 HIGHWAY 17", "addr:postcode": "35592", "addr:state": "AL", "brand": "USPS", "collection_times": "Mo-Fr 16:00; Sa 12:00", "name": "USPS COLLECTION BOX - BLUE BOX", "note": "ON 12/24 AND 12/31, THIS BOX MAY BE COLLECTED AS EARLY AS 12 NOON.", "ref": "3559200001"}, "type": "Feature"}
{"geometry": {"coordinates": [-88.1162833, 33.754046], "type": "Point"}, "id": "H3iGqU5YHilg-JizmhWmV0aDF_0=", "properties": {"@spider": "usps_collection_boxes", "addr:city": "VERNON", "addr:country": "US", "addr:full": "9467 HIGHWAY 18", "addr:postcode": "35592", "addr:state": "AL", "brand": "USPS", "collection_times": "Mo-Sa 10:30", "name": "USPS COLLECTION BOX - BLUE BOX", "ref": "3559200003"}, "type": "Feature"}
{"geometry": {"coordinates": [-88.10858, 33.762089], "type": "Point"}, "id": "jwLnLmoE2IdoOEf3NlCxsLB2qBw=", "properties": {"@spider": "usps_collection_boxes", "addr:city": "VERNON", "addr:country": "US", "addr:full": "44924 HIGHWAY 17", "addr:postcode": "35592", "addr:state": "AL", "brand": "USPS", "collection_times": "Mo-Fr 16:00; Sa 12:00", "name": "USPS COLLECTION BOX - PO LOBBY", "note": "ON 12/24 AND 12/31, THIS BOX MAY BE COLLECTED AS EARLY AS 12 NOON.", "ref": "3559200004"}, "type": "Feature"}
{"geometry": {"coordinates": [-88.108555279, 33.76206405], "type": "Point"}, "id": "lk4WprTvOVZqhaaT9yB1AUwDd_0=", "properties": {"@spider": "usps_collection_boxes", "addr:city": "VERNON", "addr:country": "US", "addr:full": "44924 HIGHWAY 17", "addr:postcode": "35592", "addr:state": "AL", "brand": "USPS", "collection_times": "Mo-Fr 16:15; Sa 12:15", "name": "USPS COLLECTION BOX - PO LOBBY", "note": "ON 12/24 AND 12/31, THIS BOX MAY BE COLLECTED AS EARLY AS 12 NOON.", "ref": "3559200006"}, "type": "Feature"}
{"geometry": {"coordinates": [-88.057995, 34.376271], "type": "Point"}, "id": "2gfXJ6xETbGAVvNjGHxFFPD0IYA=", "properties": {"@spider": "usps_collection_boxes", "addr:city": "VINA", "addr:country": "US", "addr:full": "7191 HIGHWAY 19", "addr:postcode": "35593", "addr:state": "AL", "brand": "USPS", "collection_times": "Mo-Fr 12:00; Sa 10:30", "name": "USPS COLLECTION BOX - BLUE BOX", "ref": "3559300000"}, "type": "Feature"}
{"geometry": {"coordinates": [-88.057995, 34.376271], "type": "Point"}, "id": "2SmseackmeRp8RxT3SeKC7fAYik=", "properties": {"@spider": "usps_collection_boxes", "addr:city": "VINA", "addr:country": "US", "addr:full": "7191 HIGHWAY 19", "addr:postcode": "35593", "addr:state": "AL", "brand": "USPS", "collection_times": "Mo-Fr 12:00; Sa 10:30", "name": "USPS COLLECTION BOX - PO LOBBY", "ref": "3559300001"}, "type": "Feature"}
{"geometry": {"coordinates": [-88.057996265, 34.376299472], "type": "Point"}, "id": "dBMxeNkSILOdjAAsV895FFuSQHc=", "properties": {"@spider": "usps_collection_boxes", "addr:city": "VINA", "addr:country": "US", "addr:full": "7191 HIGHWAY 19", "addr:postcode": "35593", "addr:state": "AL", "brand": "USPS", "collection_times": "Mo-Fr 12:00; Sa 10:45", "name": "USPS COLLECTION BOX - PO LOBBY", "ref": "3559300003"}, "type": "Feature"}
{"geometry": {"coordinates": [-87.8179543, 33.933477], "type": "Point"}, "id": "0xyHsDUMzJChOn-xrCME0rdmVOI=", "properties": {"@spider": "usps_collection_boxes", "addr:city": "WINFIELD", "addr:country": "US", "addr:full": "161 BROOK ST", "addr:postcode": "35594", "addr:state": "AL", "brand": "USPS", "collection_times": "Mo-Fr 16:30; Sa 12:15", "name": "USPS COLLECTION BOX - PO LOBBY", "note": "ON 12/24 AND 12/31, THIS BOX MAY BE COLLECTED AS EARLY AS 12 NOON.", "ref": "3559400001"}, "type": "Feature"}
{"geometry": {"coordinates": [-87.8179503, 33.933483], "type": "Point"}, "id": "zMjGZcVTsglkL97YidxX-7m7d_o=", "properties": {"@spider": "usps_collection_boxes", "addr:city": "WINFIELD", "addr:country": "US", "addr:full": "161 BROOK ST", "addr:postcode": "35594", "addr:state": "AL", "brand": "USPS", "collection_times": "Mo-Fr 16:30; Sa 12:15", "name": "USPS COLLECTION BOX - PO LOBBY", "note": "ON 12/24 AND 12/31, THIS BOX MAY BE COLLECTED AS EARLY AS 12 NOON.", "ref": "3559400002"}, "type": "Feature"}
{"geometry": {"coordinates": [-87.817952, 33.933487], "type": "Point"}, "id": "5EK1FP_g-wQkoPT6L7C5YiOhyfI=", "properties": {"@spider": "usps_collection_boxes", "addr:city": "WINFIELD", "addr:country": "US", "addr:full": "161 BROOK ST", "addr:postcode": "35594", "addr:state": "AL", "brand": "USPS", "collection_times": "Mo-Fr 16:30; Sa 12:15", "name": "USPS COLLECTION BOX - BLUE BOX", "note": "ON 12/24 AND 12/31, THIS BOX MAY BE COLLECTED AS EARLY AS 12 NOON.", "ref": "3559400003"}, "type": "Feature"}
{"geometry": {"coordinates": [-87.8179523, 33.933486], "type": "Point"}, "id": "vX3uQJffY32h1wAUje9dsUbJhuM=", "properties": {"@spider": "usps_collection_boxes", "addr:city": "WINFIELD", "addr:country": "US", "addr:full": "161 BROOK ST", "addr:postcode": "35594", "addr:state": "AL", "brand": "USPS", "collection_times": "Mo-Fr 16:30; Sa 12:15", "name": "USPS COLLECTION BOX - BLUE BOX", "note": "ON 12/24 AND 12/31, THIS BOX MAY BE COLLECTED AS EARLY AS 12 NOON.", "ref": "3559400004"}, "type": "Feature"}
{"geometry": {"coordinates": [-87.817472962, 33.932983634], "type": "Point"}, "id": "nDHgG7LSiS-8K0FUgt7CDhh-QVA=", "properties": {"@spider": "usps_collection_boxes", "addr:city": "WINFIELD", "addr:country": "US", "addr:full": "161 BROOK ST", "addr:postcode": "35594", "addr:state": "AL", "brand": "USPS", "collection_times": "Mo-Fr 16:30; Sa 12:15", "name": "USPS COLLECTION BOX - PO LOBBY", "note": "ON 12/24 AND 12/31, THIS BOX MAY BE COLLECTED AS EARLY AS 12 NOON.", "ref": "3559400006"}, "type": "Feature"}
