{"geometry": {"coordinates": [-86.748576, 34.858753], "type": "Point"}, "id": "y1axfR4juFWr78IF4pyboK9M9ho=", "properties": {"@spider": "usps_collection_boxes", "addr:city": "HARVEST", "addr:country": "US", "addr:full": "9157 WALL TRIANA HWY", "addr:postcode": "35749", "addr:state": "AL", "brand": "USPS", "collection_times": "Mo-Fr 15:00; Sa 11:30", "name": "USPS COLLECTION BOX - BLUE BOX", "note": "ON 12/24 AND 12/31, THIS BOX MAY BE COLLECTED AS EARLY AS 12 NOON.", "ref": "3574900000"}, "type": "Feature"}
{"geometry": {"coordinates": [-86.748576, 34.858753], "type": "Point"}, "id": "l-qETncO3_oNVGuFQOpu2xiQ5po=", "properties": {"@spider": "usps_collection_boxes", "addr:city": "HARVEST", "addr:country": "US", "addr:full": "9157 WALL TRIANA HWY", "addr:postcode": "35749", "addr:state": "AL", "brand": "USPS", "collection_times": "Mo-Fr 15:00; Sa 11:30", "name": "USPS COLLECTION BOX - PO LOBBY", "note": "ON 12/24 AND 12/31, THIS BOX MAY BE COLLECTED AS EARLY AS 12 NOON.", "ref": "3574900001"}, "type": "Feature"}
{"geometry": {"coordinates": [-86.749009018, 34.858898581], "type": "Point"}, "id": "ROXJOvcRXmIkLQzSV1KXsWN3x_4=", "properties": {"@spider": "usps_collection_boxes", "addr:city": "HARVEST", "addr:country": "US", "addr:full": "9157 WALL TRIANA HWY", "addr:postcode": "35749", "addr:state": "AL", "brand": "USPS", "collection_times": "Mo-Fr 16:00; Sa 10:30", "name": "USPS COLLECTION BOX - PO LOBBY", "note": "ON 12/24 AND 12/31, THIS BOX MAY BE COLLECTED AS EARLY AS 12 NOON.", "ref": "3574900005"}, "type": "Feature"}
{"geometry": {"coordinates": [-86.714702, 34.901974], "type": "Point"}, "id": "BsMLcnRuPOBRGZo-aiDedvLc9CI=", "properties": {"@spider": "usps_collection_boxes", "addr:city": "TONEY", "addr:country": "US", "addr:full": "136 TONEY RD", "addr:postcode": "35773", "addr:state": "AL", "brand": "USPS", "collection_times": "Mo-Fr 15:00; Sa 10:30", "name": "USPS COLLECTION BOX - BLUE BOX", "note": "ON 12/24 AND 12/31, THIS BOX MAY BE COLLECTED AS EARLY AS 12 NOON.", "ref": "3577300000"}, "type": "Feature"}
{"geometry": {"coordinates": [-86.714702, 34.901974], "type": "Point"}, "id": "pAeW4Nnw21hrrovImk1AFngNrEo=", "properties": {"@spider": "usps_collection_boxes", "addr:city": "TONEY", "addr:country": "US", "addr:full": "136 TONEY RD", "addr:postcode": "35773", "addr:state": "AL", "brand": "USPS", "collection_times": "Mo-Fr 15:00; Sa 10:30", "name": "USPS COLLECTION BOX - PO LOBBY", "note": "ON 12/24 AND 12/31, THIS BOX MAY BE COLLECTED AS EARLY AS 12 NOON.", "ref": "3577300001"}, "type": "Feature"}
{"geometry": {"coordinates": [-86.714690769, 34.901956658], "type": "Point"}, "id": "VFXlJ4z2C6BGYUD139ydyHiqUCI=", "properties": {"@spider": "usps_collection_boxes", "addr:city": "TONEY", "addr:country": "US", "addr:full": "136 TONEY RD", "addr:postcode": "35773", "addr:state": "AL", "brand": "USPS", "collection_times": "Mo-Fr 16:00; Sa 10:30", "name": "USPS COLLECTION BOX - PO LOBBY", "note": "ON 12/24 AND 12/31, THIS BOX MAY BE COLLECTED AS EARLY AS 12 NOON.", "ref": "3577300003"}, "type": "Feature"}
