{"geometry": {"coordinates": [-86.587457, 34.711587], "type": "Point"}, "id": "BZtMdvnmbBM1PsM0gYJgExB-GRM=", "properties": {"@spider": "usps_collection_boxes", "addr:city": "HUNTSVILLE", "addr:country": "US", "addr:full": "900 BOB WALLACE AVE SW", "addr:postcode": "35801", "addr:state": "AL", "brand": "USPS", "collection_times": "Mo-Fr 17:30; Sa 12:00", "name": "USPS COLLECTION BOX - BLUE BOX", "note": "ON 12/24 AND 12/31, THIS BOX MAY BE COLLECTED AS EARLY AS 12 NOON.", "ref": "3580100001"}, "type": "Feature"}
{"geometry": {"coordinates": [-86.5849885, 34.697062], "type": "Point"}, "id": "GD1Ni6VcuYz9_Wy3xXG-D_n4Les=", "properties": {"@spider": "usps_collection_boxes", "addr:city": "HUNTSVILLE", "addr:country": "US", "addr:full": "3322 MEMORIAL PKWY SW", "addr:postcode": "35801", "addr:state": "AL", "brand": "USPS", "collection_times": "Mo-Fr 17:00; Sa 12:15", "name": "USPS COLLECTION BOX - BLUE BOX", "note": "ON 12/24 AND 12/31, THIS BOX MAY BE COLLECTED AS EARLY AS 12 NOON.", "ref": "3580100005"}, "type": "Feature"}
{"geometry": {"coordinates": [-86.5737322, 34.69346], "type": "Point"}, "id": "1pc35-qPbgIFX_r2bLfQi_dl0Ag=", "properties": {"@spider": "usps_collection_boxes", "addr:city": "HUNTSVILLE", "addr:country": "US", "addr:full": "250 CHATEAU DR SW", "addr:postcode": "35801", "addr:state": "AL", "brand": "USPS", "collection_times": "Mo-Fr 14:15; Sa 12:00", "name": "USPS COLLECTION BOX - BLUE BOX", "note": "ON 12/24 AND 12/31, THIS BOX MAY BE COLLECTED AS EARLY AS 12 NOON.", "ref": "3580100008"}, "type": "Feature"}
{"geometry": {"coordinates": [-86.5855638, 34.728123], "type": "Point"}, "id": "nvlOUG8iN_UhBRqLAdGtslZ4l_I=", "properties": {"@spider": "usps_collection_boxes", "addr:city": "HUNTSVILLE", "addr:country": "US", "addr:full": "310 FOUNTAIN CIR SW", "addr:postcode": "35801", "addr:state": "AL", "brand": "USPS", "collection_times": "Mo-Fr 17:00; Sa 12:30", "name": "USPS COLLECTION BOX - BLUE BOX", "note": "ON 12/24 AND 12/31, THIS BOX MAY BE COLLECTED AS EARLY AS 12 NOON.", "ref": "3580100009"}, "type": "Feature"}
{"geometry": {"coordinates": [-86.5823114, 34.719267], "type": "Point"}, "id": "KA51qVUHe7DKdxO8w2-wE1Du6Vk=", "properties": {"@spider": "usps_collection_boxes", "addr:city": "HUNTSVILLE", "addr:country": "US", "addr:full": "201 GOVERNORS DR SW", "addr:postcode": "35801", "addr:state": "AL", "brand": "USPS", "collection_times": "Mo-Fr 10:00; Sa 09:00", "name": "USPS COLLECTION BOX - BLUE BOX", "ref": "3580100014"}, "type": "Feature"}
{"geometry": {"coordinates": [-86.593947, 34.727345], "type": "Point"}, "id": "zPdwgKXpjGaI_nfXvt1uk73k_2c=", "properties": {"@spider": "usps_collection_boxes", "addr:city": "HUNTSVILLE", "addr:country": "US", "addr:full": "615 CLINTON AVE W", "addr:postcode": "35801", "addr:state": "AL", "brand": "USPS", "collection_times": "Mo-Fr 17:00; Sa 16:45", "name": "USPS COLLECTION BOX - BLUE BOX", "note": "ON 12/24 AND 12/31, THIS BOX MAY BE COLLECTED AS EARLY AS 12 NOON.", "ref": "3580100018"}, "type": "Feature"}
{"geometry": {"coordinates": [-86.593947, 34.727345], "type": "Point"}, "id": "AU0OotlzDU7hJRgxvtiAE5bzZ8g=", "properties": {"@spider": "usps_collection_boxes", "addr:city": "HUNTSVILLE", "addr:country": "US", "addr:full": "615 CLINTON AVE W", "addr:postcode": "35801", "addr:state": "AL", "brand": "USPS", "collection_times": "Mo-Fr 17:00; Sa 16:45", "name": "USPS COLLECTION BOX - BLUE BOX", "note": "ON 12/24 AND 12/31, THIS BOX MAY BE COLLECTED AS EARLY AS 12 NOON.", "ref": "3580100021"}, "type": "Feature"}
{"geometry": {"coordinates": [-86.593947, 34.727345], "type": "Point"}, "id": "AysK4S_1pXm2mvGsS0pHJ-jLICk=", "properties": {"@spider": "usps_collection_boxes", "addr:city": "HUNTSVILLE", "addr:country": "US", "addr:full": "615 CLINTON AVE W", "addr:postcode": "35801", "addr:state": "AL", "brand": "USPS", "collection_times": "Mo-Fr 17:00; Sa 16:45", "name": "USPS COLLECTION BOX - BLUE BOX", "note": "ON 12/24 AND 12/31, THIS BOX MAY BE COLLECTED AS EARLY AS 12 NOON.", "ref": "3580100022"}, "type": "Feature"}
{"geometry": {"coordinates": [-86.593947, 34.727345], "type": "Point"}, "id": "C9Y3__EpGI3pcDkiEPfP6B-5ozY=", "properties": {"@spider": "usps_collection_boxes", "addr:city": "HUNTSVILLE", "addr:country": "US", "addr:full": "615 CLINTON AVE W", "addr:postcode": "35801", "addr:state": "AL", "brand": "USPS", "collection_times": "Mo-Fr 17:00; Sa 16:45", "name": "USPS COLLECTION BOX - BLUE BOX", "note": "ON 12/24 AND 12/31, THIS BOX MAY BE COLLECTED AS EARLY AS 12 NOON.", "ref": "3580100023"}, "type": "Feature"}
{"geometry": {"coordinates": [-86.5834894, 34.729219], "type": "Point"}, "id": "TKYZr2EkD-2i9_imcDguLh5Ceuo=", "properties": {"@spider": "usps_collection_boxes", "addr:city": "HUNTSVILLE", "addr:country": "US", "addr:full": "401 FRANKLIN ST SE", "addr:postcode": "35801", "addr:state": "AL", "brand": "USPS", "collection_times": "Mo-Fr 16:00; Sa 13:45", "name": "USPS COLLECTION BOX - BLUE BOX", "note": "ON 12/24 AND 12/31, THIS BOX MAY BE COLLECTED AS EARLY AS 12 NOON.", "ref": "3580100040"}, "type": "Feature"}
{"geometry": {"coordinates": [-86.5767705, 34.718778], "type": "Point"}, "id": "KVHLc0p0aifg_mHgnOxqt7zpj8w=", "properties": {"@spider": "usps_collection_boxes", "addr:city": "HUNTSVILLE", "addr:country": "US", "addr:full": "201 LONGWOOD DR SW", "addr:postcode": "35801", "addr:state": "AL", "brand": "USPS", "collection_times": "Mo-Fr 16:45; Sa 13:00", "name": "USPS COLLECTION BOX - BLUE BOX", "note": "ON 12/24 AND 12/31, THIS BOX MAY BE COLLECTED AS EARLY AS 12 NOON.", "ref": "3580100041"}, "type": "Feature"}
{"geometry": {"coordinates": [-86.5904004, 34.720881], "type": "Point"}, "id": "Ct3alhJKUdsBKTGxvdwT5_-QHNo=", "properties": {"@spider": "usps_collection_boxes", "addr:city": "HUNTSVILLE", "addr:country": "US", "addr:full": "806 GOVERNORS DR SW", "addr:postcode": "35801", "addr:state": "AL", "brand": "USPS", "collection_times": "Mo-Fr 15:15; Sa 14:30", "name": "USPS COLLECTION BOX - BLUE BOX", "note": "ON 12/24 AND 12/31, THIS BOX MAY BE COLLECTED AS EARLY AS 12 NOON.", "ref": "3580100045"}, "type": "Feature"}
{"geometry": {"coordinates": [-86.5743148631, 34.7217841585], "type": "Point"}, "id": "UNaTetclBoPxuiAVH65t17cCaHM=", "properties": {"@spider": "usps_collection_boxes", "addr:city": "HUNTSVILLE", "addr:country": "US", "addr:full": "910 ADAMS ST SE", "addr:postcode": "35801", "addr:state": "AL", "brand": "USPS", "collection_times": "Mo-Fr 16:15; Sa 13:45", "name": "USPS COLLECTION BOX - BLUE BOX", "note": "ON 12/24 AND 12/31, THIS BOX MAY BE COLLECTED AS EARLY AS 12 NOON.", "ref": "3580100051"}, "type": "Feature"}
{"geometry": {"coordinates": [-86.5883485, 34.713607], "type": "Point"}, "id": "GdC6MdKEsFrnxvWwhRguBavsTLY=", "properties": {"@spider": "usps_collection_boxes", "addr:city": "HUNTSVILLE", "addr:country": "US", "addr:full": "2319 MARKET PL SW", "addr:postcode": "35801", "addr:state": "AL", "brand": "USPS", "collection_times": "Mo-Fr 17:00; Sa 11:00", "name": "USPS COLLECTION BOX - BLUE BOX", "note": "ON 12/24 AND 12/31, THIS BOX MAY BE COLLECTED AS EARLY AS 12 NOON.", "ref": "3580100059"}, "type": "Feature"}
{"geometry": {"coordinates": [-86.5826379, 34.720835], "type": "Point"}, "id": "Rxtgsdl9ozt_534NhnzIwH9ZVtg=", "properties": {"@spider": "usps_collection_boxes", "addr:city": "HUNTSVILLE", "addr:country": "US", "addr:full": "401 SIVLEY RD SW", "addr:postcode": "35801", "addr:state": "AL", "brand": "USPS", "collection_times": "Mo-Fr 15:00; Sa 10:00", "name": "USPS COLLECTION BOX - BLUE BOX", "note": "ON 12/24 AND 12/31, THIS BOX MAY BE COLLECTED AS EARLY AS 12 NOON.", "ref": "3580100063"}, "type": "Feature"}
{"geometry": {"coordinates": [-86.5862537, 34.725823], "type": "Point"}, "id": "IwYDIlfycipvbP7J4qN2vWtdL4E=", "properties": {"@spider": "usps_collection_boxes", "addr:city": "HUNTSVILLE", "addr:country": "US", "addr:full": "303 WILLIAMS AVE SW", "addr:postcode": "35801", "addr:state": "AL", "brand": "USPS", "collection_times": "Mo-Fr 17:00; Sa 09:30", "name": "USPS COLLECTION BOX - BLUE BOX", "note": "ON 12/24 AND 12/31, THIS BOX MAY BE COLLECTED AS EARLY AS 12 NOON.", "ref": "3580100067"}, "type": "Feature"}
{"geometry": {"coordinates": [-86.5856741, 34.730337], "type": "Point"}, "id": "NdY7LUys614Oxyol2m54RogS9ks=", "properties": {"@spider": "usps_collection_boxes", "addr:city": "HUNTSVILLE", "addr:country": "US", "addr:full": "100 NORTHSIDE SQ", "addr:postcode": "35801", "addr:state": "AL", "brand": "USPS", "collection_times": "Mo-Fr 17:00", "name": "USPS COLLECTION BOX - BLUE BOX", "note": "ON 12/24 AND 12/31, THIS BOX MAY BE COLLECTED AS EARLY AS 12 NOON.", "ref": "3580100079"}, "type": "Feature"}
{"geometry": {"coordinates": [-86.5710654, 34.693005], "type": "Point"}, "id": "KM4prSoWcvP7NrQm-YqtXAX6Ad0=", "properties": {"@spider": "usps_collection_boxes", "addr:city": "HUNTSVILLE", "addr:country": "US", "addr:full": "333 WHITESPORT DR SW", "addr:postcode": "35801", "addr:state": "AL", "brand": "USPS", "collection_times": "Mo-Sa 10:30", "name": "USPS COLLECTION BOX - BLUE BOX", "ref": "3580100088"}, "type": "Feature"}
{"geometry": {"coordinates": [-86.5725048, 34.691833], "type": "Point"}, "id": "5lsvgEY88vH6vt8qW3aSgmaexFk=", "properties": {"@spider": "usps_collection_boxes", "addr:city": "HUNTSVILLE", "addr:country": "US", "addr:full": "500 HOSPITAL DR SW", "addr:postcode": "35801", "addr:state": "AL", "brand": "USPS", "collection_times": "Mo-Fr 17:15; Sa 10:30", "name": "USPS COLLECTION BOX - BLUE BOX", "note": "ON 12/24 AND 12/31, THIS BOX MAY BE COLLECTED AS EARLY AS 12 NOON.", "ref": "3580100089"}, "type": "Feature"}
{"geometry": {"coordinates": [-86.57521, 34.712643], "type": "Point"}, "id": "SKdNyHKW-BVA7n0eZlW-yC9M-hw=", "properties": {"@spider": "usps_collection_boxes", "addr:city": "HUNTSVILLE", "addr:country": "US", "addr:full": "101 BOB WALLACE AVE SW", "addr:postcode": "35801", "addr:state": "AL", "brand": "USPS", "collection_times": "Mo-Fr 17:00; Sa 09:45", "name": "USPS COLLECTION BOX - BLUE BOX", "note": "ON 12/24 AND 12/31, THIS BOX MAY BE COLLECTED AS EARLY AS 12 NOON.", "ref": "3580100092"}, "type": "Feature"}
{"geometry": {"coordinates": [-86.591808, 34.69955], "type": "Point"}, "id": "0m31o8mROOOxMsapmDlOipnVxSs=", "properties": {"@spider": "usps_collection_boxes", "addr:city": "HUNTSVILLE", "addr:country": "US", "addr:full": "3077 LEEMAN FERRY RD SW", "addr:postcode": "35801", "addr:state": "AL", "brand": "USPS", "collection_times": "Mo-Fr 17:30; Sa 12:00", "name": "USPS COLLECTION BOX - BLUE BOX", "note": "ON 12/24 AND 12/31, THIS BOX MAY BE COLLECTED AS EARLY AS 12 NOON.", "ref": "3580100093"}, "type": "Feature"}
{"geometry": {"coordinates": [-86.593947, 34.727345], "type": "Point"}, "id": "maKj9ba72ACOeku_XxuInvP6-wU=", "properties": {"@spider": "usps_collection_boxes", "addr:city": "HUNTSVILLE", "addr:country": "US", "addr:full": "615 CLINTON AVE W", "addr:postcode": "35801", "addr:state": "AL", "brand": "USPS", "collection_times": "Mo-Fr 17:00; Sa 16:45", "name": "USPS COLLECTION BOX - PO LOBBY", "note": "ON 12/24 AND 12/31, THIS BOX MAY BE COLLECTED AS EARLY AS 12 NOON.", "ref": "3580100095"}, "type": "Feature"}
{"geometry": {"coordinates": [-86.593947, 34.727345], "type": "Point"}, "id": "vUrNRwj3n6nx9YSmYU89QhLKfSU=", "properties": {"@spider": "usps_collection_boxes", "addr:city": "HUNTSVILLE", "addr:country": "US", "addr:full": "615 CLINTON AVE W", "addr:postcode": "35801", "addr:state": "AL", "brand": "USPS", "collection_times": "Mo-Fr 17:00; Sa 16:45", "name": "USPS COLLECTION BOX - PO LOBBY", "note": "ON 12/24 AND 12/31, THIS BOX MAY BE COLLECTED AS EARLY AS 12 NOON.", "ref": "3580100097"}, "type": "Feature"}
{"geometry": {"coordinates": [-86.585722, 34.730474], "type": "Point"}, "id": "j3n4nn5bsNbJvxVAfhPr3sfuRyg=", "properties": {"@spider": "usps_collection_boxes", "addr:city": "HUNTSVILLE", "addr:country": "US", "addr:full": "100 NORTHSIDE SQ", "addr:postcode": "35801", "addr:state": "AL", "brand": "USPS", "collection_times": "Mo-Fr 17:00", "name": "USPS COLLECTION BOX - BLUE BOX", "note": "ON 12/24 AND 12/31, THIS BOX MAY BE COLLECTED AS EARLY AS 12 NOON.", "ref": "3580100100"}, "type": "Feature"}
{"geometry": {"coordinates": [-86.5321845, 34.738315], "type": "Point"}, "id": "LLm_1pbkn2zR5Q20zwsvSSxD9l0=", "properties": {"@spider": "usps_collection_boxes", "addr:city": "HUNTSVILLE", "addr:country": "US", "addr:full": "820 MONTE SANO BLVD SE", "addr:postcode": "35801", "addr:state": "AL", "brand": "USPS", "collection_times": "Mo-Sa 12:00", "name": "USPS COLLECTION BOX - BLUE BOX", "ref": "3580100102"}, "type": "Feature"}
{"geometry": {"coordinates": [-86.5787096, 34.696891], "type": "Point"}, "id": "_gqzkX7U5pBX03kvIgGFE3gyX0U=", "properties": {"@spider": "usps_collection_boxes", "addr:city": "HUNTSVILLE", "addr:country": "US", "addr:full": "1131 EAGLETREE LN SE", "addr:postcode": "35801", "addr:state": "AL", "brand": "USPS", "collection_times": "Mo-Fr 16:30; Sa 11:00", "name": "USPS COLLECTION BOX - BLUE BOX", "note": "ON 12/24 AND 12/31, THIS BOX MAY BE COLLECTED AS EARLY AS 12 NOON.", "ref": "3580100103"}, "type": "Feature"}
{"geometry": {"coordinates": [-86.5785363, 34.722499], "type": "Point"}, "id": "jlMwS3EqD9ulod3AJ0SRzT5LYJA=", "properties": {"@spider": "usps_collection_boxes", "addr:city": "HUNTSVILLE", "addr:country": "US", "addr:full": "820 FRANKLIN ST SE", "addr:postcode": "35801", "addr:state": "AL", "brand": "USPS", "collection_times": "Mo-Fr 16:00; Sa 13:00", "name": "USPS COLLECTION BOX - BLUE BOX", "note": "ON 12/24 AND 12/31, THIS BOX MAY BE COLLECTED AS EARLY AS 12 NOON.", "ref": "3580100104"}, "type": "Feature"}
{"geometry": {"coordinates": [-86.5886119982, 34.7314698424], "type": "Point"}, "id": "M7YtsJn5fXv1Lm1V5aEKXcEqOpw=", "properties": {"@spider": "usps_collection_boxes", "addr:city": "HUNTSVILLE", "addr:country": "US", "addr:full": "132 HOLMES AVE NW", "addr:postcode": "35801", "addr:state": "AL", "brand": "USPS", "collection_times": "Mo-Fr 17:00; Sa 16:45", "name": "USPS COLLECTION BOX - BLUE BOX", "note": "ON 12/24 AND 12/31, THIS BOX MAY BE COLLECTED AS EARLY AS 12 NOON.", "ref": "3580100107"}, "type": "Feature"}
{"geometry": {"coordinates": [-86.5886119982, 34.7314698424], "type": "Point"}, "id": "NOSW2Lz_gg9Eh9Cm-KgsPipAKaM=", "properties": {"@spider": "usps_collection_boxes", "addr:city": "HUNTSVILLE", "addr:country": "US", "addr:full": "132 HOLMES AVE NW", "addr:postcode": "35801", "addr:state": "AL", "brand": "USPS", "collection_times": "Mo-Fr 17:00; Sa 16:45", "name": "USPS COLLECTION BOX - BLUE BOX", "note": "ON 12/24 AND 12/31, THIS BOX MAY BE COLLECTED AS EARLY AS 12 NOON.", "ref": "3580100108"}, "type": "Feature"}
{"geometry": {"coordinates": [-86.594057204, 34.727294794], "type": "Point"}, "id": "FhbalhuxYG2APqMN7qS1Wr7Tebo=", "properties": {"@spider": "usps_collection_boxes", "addr:city": "HUNTSVILLE", "addr:country": "US", "addr:full": "615 CLINTON AVE W", "addr:postcode": "35801", "addr:state": "AL", "brand": "USPS", "collection_times": "Mo-Fr 17:00", "name": "USPS COLLECTION BOX - PO LOBBY", "note": "ON 12/24 AND 12/31, THIS BOX MAY BE COLLECTED AS EARLY AS 12 NOON.", "ref": "3580100117"}, "type": "Feature"}
{"geometry": {"coordinates": [-86.539955, 34.647101], "type": "Point"}, "id": "7ucFG76TvIZ2aJhRxDHMvs3-Xgg=", "properties": {"@spider": "usps_collection_boxes", "addr:city": "HUNTSVILLE", "addr:country": "US", "addr:full": "9020 BAILEY COVE RD SE", "addr:postcode": "35802", "addr:state": "AL", "brand": "USPS", "collection_times": "Mo-Fr 17:00; Sa 16:30", "name": "USPS COLLECTION BOX - BLUE BOX", "note": "ON 12/24 AND 12/31, THIS BOX MAY BE COLLECTED AS EARLY AS 12 NOON.", "ref": "3580200000"}, "type": "Feature"}
{"geometry": {"coordinates": [-86.5772839, 34.668498], "type": "Point"}, "id": "eqSuhr5dXLzx_1_mhx-ElyIdyJY=", "properties": {"@spider": "usps_collection_boxes", "addr:city": "HUNTSVILLE", "addr:country": "US", "addr:full": "8020 BENAROYA LN SW", "addr:postcode": "35802", "addr:state": "AL", "brand": "USPS", "collection_times": "Mo-Fr 17:00; Sa 11:00", "name": "USPS COLLECTION BOX - BLUE BOX", "note": "ON 12/24 AND 12/31, THIS BOX MAY BE COLLECTED AS EARLY AS 12 NOON.", "ref": "3580200001"}, "type": "Feature"}
{"geometry": {"coordinates": [-86.5658919, 34.655267], "type": "Point"}, "id": "H3DPRm39M6hDF76G_AWIyrkpxEg=", "properties": {"@spider": "usps_collection_boxes", "addr:city": "HUNTSVILLE", "addr:country": "US", "addr:full": "8401 WHITESBURG DR SE", "addr:postcode": "35802", "addr:state": "AL", "brand": "USPS", "collection_times": "Mo-Fr 17:15; Sa 12:30", "name": "USPS COLLECTION BOX - BLUE BOX", "note": "ON 12/24 AND 12/31, THIS BOX MAY BE COLLECTED AS EARLY AS 12 NOON.", "ref": "3580200007"}, "type": "Feature"}
{"geometry": {"coordinates": [-86.5658922, 34.655293], "type": "Point"}, "id": "ldn3eJWz4lQw3pcW9OsRXLv-boM=", "properties": {"@spider": "usps_collection_boxes", "addr:city": "HUNTSVILLE", "addr:country": "US", "addr:full": "8401 WHITESBURG DR SE", "addr:postcode": "35802", "addr:state": "AL", "brand": "USPS", "collection_times": "Mo-Fr 17:15; Sa 12:30", "name": "USPS COLLECTION BOX - BLUE BOX", "note": "ON 12/24 AND 12/31, THIS BOX MAY BE COLLECTED AS EARLY AS 12 NOON.", "ref": "3580200008"}, "type": "Feature"}
{"geometry": {"coordinates": [-86.5658924, 34.655296], "type": "Point"}, "id": "DEXkAU1mNTWJE01ycOxC2OmAN68=", "properties": {"@spider": "usps_collection_boxes", "addr:city": "HUNTSVILLE", "addr:country": "US", "addr:full": "8401 WHITESBURG DR SE", "addr:postcode": "35802", "addr:state": "AL", "brand": "USPS", "collection_times": "Mo-Fr 17:15; Sa 12:30", "name": "USPS COLLECTION BOX - BLUE BOX", "note": "ON 12/24 AND 12/31, THIS BOX MAY BE COLLECTED AS EARLY AS 12 NOON.", "ref": "3580200009"}, "type": "Feature"}
{"geometry": {"coordinates": [-86.5696027, 34.636454], "type": "Point"}, "id": "jgU4y6Oqckfqng5M-3f-w9OI6u0=", "properties": {"@spider": "usps_collection_boxes", "addr:city": "HUNTSVILLE", "addr:country": "US", "addr:full": "1935 MEADOWBROOK DR SW", "addr:postcode": "35802", "addr:state": "AL", "brand": "USPS", "collection_times": "Mo-Sa 12:00", "name": "USPS COLLECTION BOX - BLUE BOX", "ref": "3580200010"}, "type": "Feature"}
{"geometry": {"coordinates": [-86.5409447, 34.658492], "type": "Point"}, "id": "88i0pIpNUW40xCDEr0SBAx2CVvo=", "properties": {"@spider": "usps_collection_boxes", "addr:city": "HUNTSVILLE", "addr:country": "US", "addr:full": "902 WILLOWBROOK DR SE", "addr:postcode": "35802", "addr:state": "AL", "brand": "USPS", "collection_times": "Mo-Sa 11:00", "name": "USPS COLLECTION BOX - BLUE BOX", "ref": "3580200016"}, "type": "Feature"}
{"geometry": {"coordinates": [-86.5556936, 34.595441], "type": "Point"}, "id": "L0RyXGMjbnYtAgJIfkuqcxdVU0Q=", "properties": {"@spider": "usps_collection_boxes", "addr:city": "HUNTSVILLE", "addr:country": "US", "addr:full": "325 GREEN COVE RD SE", "addr:postcode": "35802", "addr:state": "AL", "brand": "USPS", "collection_times": "Mo-Sa 13:30", "name": "USPS COLLECTION BOX - BLUE BOX", "note": "ON 12/24 AND 12/31, THIS BOX MAY BE COLLECTED AS EARLY AS 12 NOON.", "ref": "3580200017"}, "type": "Feature"}
{"geometry": {"coordinates": [-86.5646047, 34.61947], "type": "Point"}, "id": "_D2rNgxVDVgQh42jY3Azl8glvcM=", "properties": {"@spider": "usps_collection_boxes", "addr:city": "HUNTSVILLE", "addr:country": "US", "addr:full": "11575 S MEMORIAL PKWY", "addr:postcode": "35802", "addr:state": "AL", "brand": "USPS", "collection_times": "Mo-Sa 14:30", "name": "USPS COLLECTION BOX - BLUE BOX", "note": "ON 12/24 AND 12/31, THIS BOX MAY BE COLLECTED AS EARLY AS 12 NOON.", "ref": "3580200018"}, "type": "Feature"}
{"geometry": {"coordinates": [-86.567346, 34.616638], "type": "Point"}, "id": "1zXq5cusC2KzDuZDGI5fmXZOIRM=", "properties": {"@spider": "usps_collection_boxes", "addr:city": "HUNTSVILLE", "addr:country": "US", "addr:full": "11610 S MEMORIAL PKWY", "addr:postcode": "35802", "addr:state": "AL", "brand": "USPS", "collection_times": "Mo-Sa 11:30", "name": "USPS COLLECTION BOX - BLUE BOX", "ref": "3580200019"}, "type": "Feature"}
{"geometry": {"coordinates": [-86.565484, 34.655045], "type": "Point"}, "id": "Y8JWwTqvem3Y5hfVHERgtOuHjGU=", "properties": {"@spider": "usps_collection_boxes", "addr:city": "HUNTSVILLE", "addr:country": "US", "addr:full": "8401 WHITESBURG DR SE", "addr:postcode": "35802", "addr:state": "AL", "brand": "USPS", "collection_times": "Mo-Fr 17:15; Sa 12:30", "name": "USPS COLLECTION BOX - PO LOBBY", "note": "ON 12/24 AND 12/31, THIS BOX MAY BE COLLECTED AS EARLY AS 12 NOON.", "ref": "3580200020"}, "type": "Feature"}
{"geometry": {"coordinates": [-86.5380799, 34.623051], "type": "Point"}, "id": "jyJGJsjCDMMqkKbDe9K31AbXuM8=", "properties": {"@spider": "usps_collection_boxes", "addr:city": "HUNTSVILLE", "addr:country": "US", "addr:full": "12796 BAILEY COVE RD SE", "addr:postcode": "35802", "addr:state": "AL", "brand": "USPS", "collection_times": "Mo-Sa 11:00", "name": "USPS COLLECTION BOX - BLUE BOX", "ref": "3580200021"}, "type": "Feature"}
{"geometry": {"coordinates": [-86.5697582, 34.693648], "type": "Point"}, "id": "a7vE109NBMQQoBhq1hX4t4CPHwo=", "properties": {"@spider": "usps_collection_boxes", "addr:city": "HUNTSVILLE", "addr:country": "US", "addr:full": "4800 WHITESBURG DR SE", "addr:postcode": "35802", "addr:state": "AL", "brand": "USPS", "collection_times": "Mo-Fr 13:00; Sa 12:00", "name": "USPS COLLECTION BOX - BLUE BOX", "note": "ON 12/24 AND 12/31, THIS BOX MAY BE COLLECTED AS EARLY AS 12 NOON.", "ref": "3580200022"}, "type": "Feature"}
{"geometry": {"coordinates": [-86.565484, 34.655045], "type": "Point"}, "id": "gBFny_xDdjhyFVr8RLtk3KZTFUg=", "properties": {"@spider": "usps_collection_boxes", "addr:city": "HUNTSVILLE", "addr:country": "US", "addr:full": "8401 WHITESBURG DR SE", "addr:postcode": "35802", "addr:state": "AL", "brand": "USPS", "collection_times": "Mo-Fr 17:15; Sa 12:30", "name": "USPS COLLECTION BOX - APC", "note": "ON 12/24 AND 12/31, THIS BOX MAY BE COLLECTED AS EARLY AS 12 NOON.", "ref": "3580200026"}, "type": "Feature"}
{"geometry": {"coordinates": [-86.5388317, 34.66933], "type": "Point"}, "id": "nYAIDHViAd-WwHE5ZqirBrbFwi8=", "properties": {"@spider": "usps_collection_boxes", "addr:city": "HUNTSVILLE", "addr:country": "US", "addr:full": "7605 BAILEY COVE RD SE", "addr:postcode": "35802", "addr:state": "AL", "brand": "USPS", "collection_times": "Mo-Sa 14:45", "name": "USPS COLLECTION BOX - BLUE BOX", "note": "ON 12/24 AND 12/31, THIS BOX MAY BE COLLECTED AS EARLY AS 12 NOON.", "ref": "3580200028"}, "type": "Feature"}
{"geometry": {"coordinates": [-86.566253596, 34.654461002], "type": "Point"}, "id": "R2FG95iUnMmr6m3pfceFu6BA--M=", "properties": {"@spider": "usps_collection_boxes", "addr:city": "HUNTSVILLE", "addr:country": "US", "addr:full": "8401 WHITESBURG DR SE", "addr:postcode": "35802", "addr:state": "AL", "brand": "USPS", "collection_times": "Mo-Fr 17:00; Sa 12:00", "name": "USPS COLLECTION BOX - PO LOBBY", "note": "ON 12/24 AND 12/31, THIS BOX MAY BE COLLECTED AS EARLY AS 12 NOON.", "ref": "3580200031"}, "type": "Feature"}
{"geometry": {"coordinates": [-86.654864, 34.712214], "type": "Point"}, "id": "UM8MmYFflGpZJ94S15iPPvwhmDo=", "properties": {"@spider": "usps_collection_boxes", "addr:city": "HUNTSVILLE", "addr:country": "US", "addr:full": "1 TRANQUILITY BASE", "addr:postcode": "35805", "addr:state": "AL", "brand": "USPS", "collection_times": "Mo-Fr 16:00; Sa 16:45", "name": "USPS COLLECTION BOX - BLUE BOX", "note": "ON 12/24 AND 12/31, THIS BOX MAY BE COLLECTED AS EARLY AS 12 NOON.", "ref": "3580500001"}, "type": "Feature"}
{"geometry": {"coordinates": [-86.592535, 34.709977], "type": "Point"}, "id": "SX7wT22eKZZO_-vuEjTasYD8z08=", "properties": {"@spider": "usps_collection_boxes", "addr:city": "HUNTSVILLE", "addr:country": "US", "addr:full": "2603 ARTIE ST SW", "addr:postcode": "35805", "addr:state": "AL", "brand": "USPS", "collection_times": "Mo-Fr 17:30; Sa 10:30", "name": "USPS COLLECTION BOX - BLUE BOX", "note": "ON 12/24 AND 12/31, THIS BOX MAY BE COLLECTED AS EARLY AS 12 NOON.", "ref": "3580500002"}, "type": "Feature"}
{"geometry": {"coordinates": [-86.659018, 34.733296], "type": "Point"}, "id": "KOhu1hvrfl7AkWTL5f_c5P-xRtk=", "properties": {"@spider": "usps_collection_boxes", "addr:city": "HUNTSVILLE", "addr:country": "US", "addr:full": "4955 CORPORATE DR NW", "addr:postcode": "35805", "addr:state": "AL", "brand": "USPS", "collection_times": "Mo-Fr 16:45; Sa 10:00", "name": "USPS COLLECTION BOX - BLUE BOX", "note": "ON 12/24 AND 12/31, THIS BOX MAY BE COLLECTED AS EARLY AS 12 NOON.", "ref": "3580500006"}, "type": "Feature"}
{"geometry": {"coordinates": [-86.6031633, 34.699825], "type": "Point"}, "id": "P0zklH1M2uT4lVrmgs2YSa84exo=", "properties": {"@spider": "usps_collection_boxes", "addr:city": "HUNTSVILLE", "addr:country": "US", "addr:full": "2227 DRAKE AVE SW", "addr:postcode": "35805", "addr:state": "AL", "brand": "USPS", "collection_times": "Mo-Fr 17:30; Sa 10:00", "name": "USPS COLLECTION BOX - BLUE BOX", "note": "ON 12/24 AND 12/31, THIS BOX MAY BE COLLECTED AS EARLY AS 12 NOON.", "ref": "3580500008"}, "type": "Feature"}
{"geometry": {"coordinates": [-86.6029627, 34.710506], "type": "Point"}, "id": "EXmb4M9LXzYYWKYujOXB_HZX5Vo=", "properties": {"@spider": "usps_collection_boxes", "addr:city": "HUNTSVILLE", "addr:country": "US", "addr:full": "2905 WESTCORP BLVD SW", "addr:postcode": "35805", "addr:state": "AL", "brand": "USPS", "collection_times": "Mo-Sa 11:00", "name": "USPS COLLECTION BOX - BLUE BOX", "ref": "3580500033"}, "type": "Feature"}
{"geometry": {"coordinates": [-86.616212, 34.720123], "type": "Point"}, "id": "n06osRZ9N-2KISWYCou0Y7SgsjA=", "properties": {"@spider": "usps_collection_boxes", "addr:city": "HUNTSVILLE", "addr:country": "US", "addr:full": "3605 GOVERNORS DR SW", "addr:postcode": "35805", "addr:state": "AL", "brand": "USPS", "collection_times": "Mo-Fr 17:00; Sa 15:45", "name": "USPS COLLECTION BOX - BLUE BOX", "note": "ON 12/24 AND 12/31, THIS BOX MAY BE COLLECTED AS EARLY AS 12 NOON.", "ref": "3580500038"}, "type": "Feature"}
{"geometry": {"coordinates": [-86.616212, 34.720123], "type": "Point"}, "id": "qstHhXKLA-niBP9A1hgRDNK8bd4=", "properties": {"@spider": "usps_collection_boxes", "addr:city": "HUNTSVILLE", "addr:country": "US", "addr:full": "3605 GOVERNORS DR SW", "addr:postcode": "35805", "addr:state": "AL", "brand": "USPS", "collection_times": "Mo-Fr 17:00; Sa 15:45", "name": "USPS COLLECTION BOX - BLUE BOX", "note": "ON 12/24 AND 12/31, THIS BOX MAY BE COLLECTED AS EARLY AS 12 NOON.", "ref": "3580500039"}, "type": "Feature"}
{"geometry": {"coordinates": [-86.616212, 34.720123], "type": "Point"}, "id": "1WKYwe1Hfri2gwaYsW4RenrSDgc=", "properties": {"@spider": "usps_collection_boxes", "addr:city": "HUNTSVILLE", "addr:country": "US", "addr:full": "3605 GOVERNORS DR SW", "addr:postcode": "35805", "addr:state": "AL", "brand": "USPS", "collection_times": "Mo-Fr 17:00; Sa 15:45", "name": "USPS COLLECTION BOX - BLUE BOX", "note": "ON 12/24 AND 12/31, THIS BOX MAY BE COLLECTED AS EARLY AS 12 NOON.", "ref": "3580500041"}, "type": "Feature"}
{"geometry": {"coordinates": [-86.616212, 34.720123], "type": "Point"}, "id": "wD3jWJorjc-I0HlakXB5wq9glyk=", "properties": {"@spider": "usps_collection_boxes", "addr:city": "HUNTSVILLE", "addr:country": "US", "addr:full": "3605 GOVERNORS DR SW", "addr:postcode": "35805", "addr:state": "AL", "brand": "USPS", "collection_times": "Mo-Fr 17:00; Sa 15:45", "name": "USPS COLLECTION BOX - PO LOBBY", "note": "ON 12/24 AND 12/31, THIS BOX MAY BE COLLECTED AS EARLY AS 12 NOON.", "ref": "3580500046"}, "type": "Feature"}
{"geometry": {"coordinates": [-86.616210693, 34.720108495], "type": "Point"}, "id": "CWLIlaKwYdfmKmcDsnUvaMMIB78=", "properties": {"@spider": "usps_collection_boxes", "addr:city": "HUNTSVILLE", "addr:country": "US", "addr:full": "3605 GOVERNORS DR SW", "addr:postcode": "35805", "addr:state": "AL", "brand": "USPS", "collection_times": "Mo-Fr 17:00; Sa 12:00", "name": "USPS COLLECTION BOX - PO LOBBY", "note": "ON 12/24 AND 12/31, THIS BOX MAY BE COLLECTED AS EARLY AS 12 NOON.", "ref": "3580500052"}, "type": "Feature"}
{"geometry": {"coordinates": [-86.6588679, 34.71349], "type": "Point"}, "id": "EaA2hfIgtzXBHqDoOthKxikZdhY=", "properties": {"@spider": "usps_collection_boxes", "addr:city": "HUNTSVILLE", "addr:country": "US", "addr:full": "6210 OLD MADISON PIKE NW", "addr:postcode": "35806", "addr:state": "AL", "brand": "USPS", "collection_times": "Mo-Sa 10:00", "name": "USPS COLLECTION BOX - BLUE BOX", "ref": "3580600000"}, "type": "Feature"}
{"geometry": {"coordinates": [-86.675111, 34.713172], "type": "Point"}, "id": "V21YawU1DAk6v6CvGIgDb5JO-jw=", "properties": {"@spider": "usps_collection_boxes", "addr:city": "HUNTSVILLE", "addr:country": "US", "addr:full": "6767 OLD MADISON PIKE NW", "addr:postcode": "35806", "addr:state": "AL", "brand": "USPS", "collection_times": "Mo-Fr 16:00", "name": "USPS COLLECTION BOX - BLUE BOX", "note": "ON 12/24 AND 12/31, THIS BOX MAY BE COLLECTED AS EARLY AS 12 NOON.", "ref": "3580600001"}, "type": "Feature"}
{"geometry": {"coordinates": [-86.6615149, 34.736895], "type": "Point"}, "id": "NNQ38ifuFMsWuWloNtfzTSGuI_c=", "properties": {"@spider": "usps_collection_boxes", "addr:city": "HUNTSVILLE", "addr:country": "US", "addr:full": "930 OLD MONROVIA RD NW", "addr:postcode": "35806", "addr:state": "AL", "brand": "USPS", "collection_times": "Mo-Fr 16:30; Sa 09:30", "name": "USPS COLLECTION BOX - BLUE BOX", "note": "ON 12/24 AND 12/31, THIS BOX MAY BE COLLECTED AS EARLY AS 12 NOON.", "ref": "3580600003"}, "type": "Feature"}
{"geometry": {"coordinates": [-86.664777, 34.740588], "type": "Point"}, "id": "l6rHFVObeWmyFXhj3IfIIUAWn5g=", "properties": {"@spider": "usps_collection_boxes", "addr:city": "HUNTSVILLE", "addr:country": "US", "addr:full": "5901 UNIVERSITY DR NW", "addr:postcode": "35806", "addr:state": "AL", "brand": "USPS", "collection_times": "Mo-Fr 16:30; Sa 10:30", "name": "USPS COLLECTION BOX - BLUE BOX", "note": "ON 12/24 AND 12/31, THIS BOX MAY BE COLLECTED AS EARLY AS 12 NOON.", "ref": "3580600005"}, "type": "Feature"}
{"geometry": {"coordinates": [-86.67659, 34.723125], "type": "Point"}, "id": "ov7iymxRxAj46b_PlHKvNel4EFs=", "properties": {"@spider": "usps_collection_boxes", "addr:city": "HUNTSVILLE", "addr:country": "US", "addr:full": "904 EXPLORER BLVD NW", "addr:postcode": "35806", "addr:state": "AL", "brand": "USPS", "collection_times": "Mo-Fr 16:15", "name": "USPS COLLECTION BOX - BLUE BOX", "note": "ON 12/24 AND 12/31, THIS BOX MAY BE COLLECTED AS EARLY AS 12 NOON.", "ref": "3580600008"}, "type": "Feature"}
{"geometry": {"coordinates": [-86.67659, 34.723125], "type": "Point"}, "id": "awyAYKPTeCR9VQ1bAy5kS9BOTWY=", "properties": {"@spider": "usps_collection_boxes", "addr:city": "HUNTSVILLE", "addr:country": "US", "addr:full": "904 EXPLORER BLVD NW", "addr:postcode": "35806", "addr:state": "AL", "brand": "USPS", "collection_times": "Mo-Fr 16:15", "name": "USPS COLLECTION BOX - BLUE BOX", "note": "ON 12/24 AND 12/31, THIS BOX MAY BE COLLECTED AS EARLY AS 12 NOON.", "ref": "3580600009"}, "type": "Feature"}
{"geometry": {"coordinates": [-86.67277, 34.745294], "type": "Point"}, "id": "BSIVICyATmrQc85bHBUvY7N-Udc=", "properties": {"@spider": "usps_collection_boxes", "addr:city": "HUNTSVILLE", "addr:country": "US", "addr:full": "1500 PERIMETER PKWY NW", "addr:postcode": "35806", "addr:state": "AL", "brand": "USPS", "collection_times": "Mo-Fr 16:30", "name": "USPS COLLECTION BOX - BLUE BOX", "note": "ON 12/24 AND 12/31, THIS BOX MAY BE COLLECTED AS EARLY AS 12 NOON.", "ref": "3580600012"}, "type": "Feature"}
{"geometry": {"coordinates": [-86.677053, 34.744148], "type": "Point"}, "id": "gq5cfryxYwTrj7crSJetefEpuXw=", "properties": {"@spider": "usps_collection_boxes", "addr:city": "HUNTSVILLE", "addr:country": "US", "addr:full": "6140 UNIVERSITY DR NW", "addr:postcode": "35806", "addr:state": "AL", "brand": "USPS", "collection_times": "Mo-Fr 16:15; Sa 09:30", "name": "USPS COLLECTION BOX - BLUE BOX", "note": "ON 12/24 AND 12/31, THIS BOX MAY BE COLLECTED AS EARLY AS 12 NOON.", "ref": "3580600014"}, "type": "Feature"}
{"geometry": {"coordinates": [-86.67876, 34.713222], "type": "Point"}, "id": "Q6Ie4CzDy-44SaNmPs2m5GNt8pk=", "properties": {"@spider": "usps_collection_boxes", "addr:city": "HUNTSVILLE", "addr:country": "US", "addr:full": "7047 OLD MADISON PIKE NW", "addr:postcode": "35806", "addr:state": "AL", "brand": "USPS", "collection_times": "Mo-Fr 16:00", "name": "USPS COLLECTION BOX - BLUE BOX", "note": "ON 12/24 AND 12/31, THIS BOX MAY BE COLLECTED AS EARLY AS 12 NOON.", "ref": "3580600016"}, "type": "Feature"}
{"geometry": {"coordinates": [-86.6350127938, 34.6798482423], "type": "Point"}, "id": "DOc00JQiFfFTLaZjaGnf8F0Hohg=", "properties": {"@spider": "usps_collection_boxes", "addr:city": "HUNTSVILLE", "addr:country": "US", "addr:full": "4400 MARTIN RD", "addr:postcode": "35808", "addr:state": "AL", "brand": "USPS", "collection_times": "Mo-Fr 16:00", "name": "USPS COLLECTION BOX - BLUE BOX", "note": "ON 12/24 AND 12/31, THIS BOX MAY BE COLLECTED AS EARLY AS 12 NOON.", "ref": "3580800000"}, "type": "Feature"}
{"geometry": {"coordinates": [-86.586637, 34.668252], "type": "Point"}, "id": "3NcW_YlOrBVMH2FoOnK9W0RWsWg=", "properties": {"@spider": "usps_collection_boxes", "addr:city": "HUNTSVILLE", "addr:country": "US", "addr:full": "5252 MARTIN RD", "addr:postcode": "35808", "addr:state": "AL", "brand": "USPS", "collection_times": "Mo-Fr 16:00", "name": "USPS COLLECTION BOX - BLUE BOX", "note": "ON 12/24 AND 12/31, THIS BOX MAY BE COLLECTED AS EARLY AS 12 NOON.", "ref": "3580800004"}, "type": "Feature"}
{"geometry": {"coordinates": [-86.6516085072, 34.6855811341], "type": "Point"}, "id": "Z-LeecliMsMuppPMVk21zvjB60w=", "properties": {"@spider": "usps_collection_boxes", "addr:city": "HUNTSVILLE", "addr:country": "US", "addr:full": "1 MAIN PX", "addr:postcode": "35808", "addr:state": "AL", "brand": "USPS", "collection_times": "Mo-Fr 17:00", "name": "USPS COLLECTION BOX - BLUE BOX", "note": "ON 12/24 AND 12/31, THIS BOX MAY BE COLLECTED AS EARLY AS 12 NOON.", "ref": "3580800008"}, "type": "Feature"}
{"geometry": {"coordinates": [-86.624779, 34.679712], "type": "Point"}, "id": "bZhtqjUJ1y1wCneEBjqjnkwrGO0=", "properties": {"@spider": "usps_collection_boxes", "addr:city": "HUNTSVILLE", "addr:country": "US", "addr:full": "3710 AEROBEE RD", "addr:postcode": "35808", "addr:state": "AL", "brand": "USPS", "collection_times": "Mo-Fr 17:00", "name": "USPS COLLECTION BOX - BLUE BOX", "note": "ON 12/24 AND 12/31, THIS BOX MAY BE COLLECTED AS EARLY AS 12 NOON.", "ref": "3580800009"}, "type": "Feature"}
{"geometry": {"coordinates": [-86.6516085072, 34.6855811341], "type": "Point"}, "id": "_AB3wn_m8Xhguut2rxqFW_m71W0=", "properties": {"@spider": "usps_collection_boxes", "addr:city": "HUNTSVILLE", "addr:country": "US", "addr:full": "5302 SPARKMAN CIR", "addr:postcode": "35808", "addr:state": "AL", "brand": "USPS", "collection_times": "Mo-Fr 16:00", "name": "USPS COLLECTION BOX - BLUE BOX", "note": "ON 12/24 AND 12/31, THIS BOX MAY BE COLLECTED AS EARLY AS 12 NOON.", "ref": "3580800012"}, "type": "Feature"}
{"geometry": {"coordinates": [-86.630564, 34.679799], "type": "Point"}, "id": "5BNgTUdUvT4N975M8KYG_l0lq6U=", "properties": {"@spider": "usps_collection_boxes", "addr:city": "HUNTSVILLE", "addr:country": "US", "addr:full": "3710 AEROBEE RD", "addr:postcode": "35808", "addr:state": "AL", "brand": "USPS", "collection_times": "Mo-Fr 16:30", "name": "USPS COLLECTION BOX - PO LOBBY", "note": "ON 12/24 AND 12/31, THIS BOX MAY BE COLLECTED AS EARLY AS 12 NOON.", "ref": "3580800014"}, "type": "Feature"}
{"geometry": {"coordinates": [-86.8402850888, 32.7665445132], "type": "Point"}, "id": "C0drG3ZjurLBBDnWdb20iy43Nkk=", "properties": {"@spider": "usps_collection_boxes", "addr:city": "HUNTSVILLE", "addr:country": "US", "addr:full": "4488 MARTIN RD", "addr:postcode": "35808", "addr:state": "AL", "brand": "USPS", "collection_times": "Mo-Fr 16:00", "name": "USPS COLLECTION BOX - BLUE BOX", "note": "ON 12/24 AND 12/31, THIS BOX MAY BE COLLECTED AS EARLY AS 12 NOON.", "ref": "3580800015"}, "type": "Feature"}
{"geometry": {"coordinates": [-86.6593364137, 34.6425290288], "type": "Point"}, "id": "f1k5D8mQg9ZSy0bEuv10C9K53Cw=", "properties": {"@spider": "usps_collection_boxes", "addr:city": "HUNTSVILLE", "addr:country": "US", "addr:full": "4545 FOWLER RD", "addr:postcode": "35808", "addr:state": "AL", "brand": "USPS", "collection_times": "Mo-Fr 17:00", "name": "USPS COLLECTION BOX - BLUE BOX", "note": "ON 12/24 AND 12/31, THIS BOX MAY BE COLLECTED AS EARLY AS 12 NOON.", "ref": "3580800017"}, "type": "Feature"}
{"geometry": {"coordinates": [-86.630541822, 34.679795339], "type": "Point"}, "id": "3pMMTJntd_fXhtvkkX9yRdbUajo=", "properties": {"@spider": "usps_collection_boxes", "addr:city": "HUNTSVILLE", "addr:country": "US", "addr:full": "3710 AEROBEE RD", "addr:postcode": "35808", "addr:state": "AL", "brand": "USPS", "collection_times": "Mo-Fr 16:30", "name": "USPS COLLECTION BOX - PO LOBBY", "note": "ON 12/24 AND 12/31, THIS BOX MAY BE COLLECTED AS EARLY AS 12 NOON.", "ref": "3580800018"}, "type": "Feature"}
{"geometry": {"coordinates": [-86.577260504, 34.6707609588], "type": "Point"}, "id": "jgng0nvP2NAisrTuFpFbTuqwXIM=", "properties": {"@spider": "usps_collection_boxes", "addr:city": "HUNTSVILLE", "addr:country": "US", "addr:full": "5224 MARTIN RD", "addr:postcode": "35808", "addr:state": "AL", "brand": "USPS", "collection_times": "Mo-Fr 15:00", "name": "USPS COLLECTION BOX - BLUE BOX", "note": "ON 12/24 AND 12/31, THIS BOX MAY BE COLLECTED AS EARLY AS 12 NOON.", "ref": "3580800019"}, "type": "Feature"}
{"geometry": {"coordinates": [-86.59622, 34.771559], "type": "Point"}, "id": "Yj3bLuMDsys_LgXgSJ9JxwleGio=", "properties": {"@spider": "usps_collection_boxes", "addr:city": "HUNTSVILLE", "addr:country": "US", "addr:full": "2501 MASTIN LAKE RD NW", "addr:postcode": "35810", "addr:state": "AL", "brand": "USPS", "collection_times": "Mo-Fr 17:15; Sa 16:00", "name": "USPS COLLECTION BOX - BLUE BOX", "note": "ON 12/24 AND 12/31, THIS BOX MAY BE COLLECTED AS EARLY AS 12 NOON.", "ref": "3581000001"}, "type": "Feature"}
{"geometry": {"coordinates": [-86.59622, 34.771559], "type": "Point"}, "id": "Ag4mdeMXZQKuQgy3tBbgPUvZ1RA=", "properties": {"@spider": "usps_collection_boxes", "addr:city": "HUNTSVILLE", "addr:country": "US", "addr:full": "2501 MASTIN LAKE RD NW", "addr:postcode": "35810", "addr:state": "AL", "brand": "USPS", "collection_times": "Mo-Fr 17:15; Sa 16:00", "name": "USPS COLLECTION BOX - BLUE BOX", "note": "ON 12/24 AND 12/31, THIS BOX MAY BE COLLECTED AS EARLY AS 12 NOON.", "ref": "3581000002"}, "type": "Feature"}
{"geometry": {"coordinates": [-86.59622, 34.771559], "type": "Point"}, "id": "fz_yOJHdpxTs8PfYC3Dlf1EqAL8=", "properties": {"@spider": "usps_collection_boxes", "addr:city": "HUNTSVILLE", "addr:country": "US", "addr:full": "2501 MASTIN LAKE RD NW", "addr:postcode": "35810", "addr:state": "AL", "brand": "USPS", "collection_times": "Mo-Fr 17:15; Sa 16:00", "name": "USPS COLLECTION BOX - BLUE BOX", "note": "ON 12/24 AND 12/31, THIS BOX MAY BE COLLECTED AS EARLY AS 12 NOON.", "ref": "3581000003"}, "type": "Feature"}
{"geometry": {"coordinates": [-86.602462, 34.749448], "type": "Point"}, "id": "f1QY5enBrwLZLsKmVz8B5_aoKZU=", "properties": {"@spider": "usps_collection_boxes", "addr:city": "HUNTSVILLE", "addr:country": "US", "addr:full": "2206 OAKWOOD AVE NW", "addr:postcode": "35810", "addr:state": "AL", "brand": "USPS", "collection_times": "Mo-Fr 17:15", "name": "USPS COLLECTION BOX - BLUE BOX", "note": "ON 12/24 AND 12/31, THIS BOX MAY BE COLLECTED AS EARLY AS 12 NOON.", "ref": "3581000011"}, "type": "Feature"}
{"geometry": {"coordinates": [-86.59622, 34.771559], "type": "Point"}, "id": "SdtQp8AyDfHW32XEWIRBRCZ0mmo=", "properties": {"@spider": "usps_collection_boxes", "addr:city": "HUNTSVILLE", "addr:country": "US", "addr:full": "2501 MASTIN LAKE RD NW", "addr:postcode": "35810", "addr:state": "AL", "brand": "USPS", "collection_times": "Mo-Fr 17:15; Sa 16:00", "name": "USPS COLLECTION BOX - PO LOBBY", "note": "ON 12/24 AND 12/31, THIS BOX MAY BE COLLECTED AS EARLY AS 12 NOON.", "ref": "3581000013"}, "type": "Feature"}
{"geometry": {"coordinates": [-86.602462, 34.749448], "type": "Point"}, "id": "mOMhl24mNuMJ4bfmK_5WCasSYgQ=", "properties": {"@spider": "usps_collection_boxes", "addr:city": "HUNTSVILLE", "addr:country": "US", "addr:full": "2206 OAKWOOD AVE NW", "addr:postcode": "35810", "addr:state": "AL", "brand": "USPS", "collection_times": "Mo-Fr 17:15", "name": "USPS COLLECTION BOX - BLUE BOX", "note": "ON 12/24 AND 12/31, THIS BOX MAY BE COLLECTED AS EARLY AS 12 NOON.", "ref": "3581000014"}, "type": "Feature"}
{"geometry": {"coordinates": [-86.5961683, 34.772062761], "type": "Point"}, "id": "kLmlINE3JdsPuaig2I4hdBXCFe4=", "properties": {"@spider": "usps_collection_boxes", "addr:city": "HUNTSVILLE", "addr:country": "US", "addr:full": "2501 MASTIN LAKE RD NW", "addr:postcode": "35810", "addr:state": "AL", "brand": "USPS", "collection_times": "Mo-Fr 17:00; Sa 12:00", "name": "USPS COLLECTION BOX - PO LOBBY", "note": "ON 12/24 AND 12/31, THIS BOX MAY BE COLLECTED AS EARLY AS 12 NOON.", "ref": "3581000018"}, "type": "Feature"}
{"geometry": {"coordinates": [-86.5810005, 34.74902], "type": "Point"}, "id": "6bTcZcixdinGa8giQkje4IZVyCE=", "properties": {"@spider": "usps_collection_boxes", "addr:city": "HUNTSVILLE", "addr:country": "US", "addr:full": "200 OAKWOOD AVE", "addr:postcode": "35811", "addr:state": "AL", "brand": "USPS", "collection_times": "Mo-Sa 14:30", "name": "USPS COLLECTION BOX - BLUE BOX", "note": "ON 12/24 AND 12/31, THIS BOX MAY BE COLLECTED AS EARLY AS 12 NOON.", "ref": "3581100004"}, "type": "Feature"}
{"geometry": {"coordinates": [-86.6001348921, 34.7403808305], "type": "Point"}, "id": "53oARcBd_fg-eYy1OiFeZ37yeK0=", "properties": {"@spider": "usps_collection_boxes", "addr:city": "HUNTSVILLE", "addr:country": "US", "addr:full": "4200 S MARSHALL ROAD", "addr:postcode": "35812", "addr:state": "AL", "brand": "USPS", "collection_times": "Mo-Fr 15:00", "name": "USPS COLLECTION BOX - BLUE BOX", "note": "ON 12/24 AND 12/31, THIS BOX MAY BE COLLECTED AS EARLY AS 12 NOON.", "ref": "3581200000"}, "type": "Feature"}
{"geometry": {"coordinates": [-86.752145, 34.667892], "type": "Point"}, "id": "uOdzh4wMdEoRLPwNGDRX05paDdQ=", "properties": {"@spider": "usps_collection_boxes", "addr:city": "HUNTSVILLE", "addr:country": "US", "addr:full": "3408 WALL TRIANA HWY", "addr:postcode": "35813", "addr:state": "AL", "brand": "USPS", "collection_times": "Mo-Fr 18:30; Sa 17:30", "name": "USPS COLLECTION BOX - PO LOBBY", "note": "ON 12/24 AND 12/31, THIS BOX MAY BE COLLECTED AS EARLY AS 12 NOON.", "ref": "3581300000"}, "type": "Feature"}
{"geometry": {"coordinates": [-86.752109, 34.667981], "type": "Point"}, "id": "DmuEQyeQZ6QwC9EwmXSDX6q_1gg=", "properties": {"@spider": "usps_collection_boxes", "addr:city": "HUNTSVILLE", "addr:country": "US", "addr:full": "3408 WALL TRIANA HWY", "addr:postcode": "35813", "addr:state": "AL", "brand": "USPS", "collection_times": "Mo-Fr 18:30; Sa 17:30", "name": "USPS COLLECTION BOX - PO LOBBY", "note": "ON 12/24 AND 12/31, THIS BOX MAY BE COLLECTED AS EARLY AS 12 NOON.", "ref": "3581300001"}, "type": "Feature"}
{"geometry": {"coordinates": [-86.752109, 34.667981], "type": "Point"}, "id": "wJFwoyyeeO_Gi2JgUsGUuOWRLgc=", "properties": {"@spider": "usps_collection_boxes", "addr:city": "HUNTSVILLE", "addr:country": "US", "addr:full": "3408 WALL TRIANA HWY", "addr:postcode": "35813", "addr:state": "AL", "brand": "USPS", "collection_times": "Mo-Fr 18:30; Sa 17:30", "name": "USPS COLLECTION BOX - BLUE BOX", "note": "ON 12/24 AND 12/31, THIS BOX MAY BE COLLECTED AS EARLY AS 12 NOON.", "ref": "3581300003"}, "type": "Feature"}
{"geometry": {"coordinates": [-86.7522796501, 34.6651360378], "type": "Point"}, "id": "w-lXHrozf2oGbmgt_Bi6tJBEeFs=", "properties": {"@spider": "usps_collection_boxes", "addr:city": "HUNTSVILLE", "addr:country": "US", "addr:full": "8734 MADISON BLVD W", "addr:postcode": "35813", "addr:state": "AL", "brand": "USPS", "collection_times": "Mo-Fr 18:00; Sa 16:30", "name": "USPS COLLECTION BOX - BLUE BOX", "note": "ON 12/24 AND 12/31, THIS BOX MAY BE COLLECTED AS EARLY AS 12 NOON.", "ref": "3581300006"}, "type": "Feature"}
{"geometry": {"coordinates": [-86.776639, 34.649131], "type": "Point"}, "id": "JxlWNzR51q4pt_AkrPWnjGiSsvg=", "properties": {"@spider": "usps_collection_boxes", "addr:city": "HUNTSVILLE", "addr:country": "US", "addr:full": "1000 GLENN HEARN BLVD SW", "addr:postcode": "35813", "addr:state": "AL", "brand": "USPS", "collection_times": "Mo-Fr 17:00; Sa 15:15", "name": "USPS COLLECTION BOX - BLUE BOX", "note": "ON 12/24 AND 12/31, THIS BOX MAY BE COLLECTED AS EARLY AS 12 NOON.", "ref": "3581300008"}, "type": "Feature"}
{"geometry": {"coordinates": [-86.752170748, 34.667917428], "type": "Point"}, "id": "2seYFj9f3Fad1EZIxwskJZATirw=", "properties": {"@spider": "usps_collection_boxes", "addr:city": "HUNTSVILLE", "addr:country": "US", "addr:full": "3408 WALL TRIANA HWY", "addr:postcode": "35813", "addr:state": "AL", "brand": "USPS", "collection_times": "Mo-Fr 17:00", "name": "USPS COLLECTION BOX - PO LOBBY", "note": "ON 12/24 AND 12/31, THIS BOX MAY BE COLLECTED AS EARLY AS 12 NOON.", "ref": "3581300010"}, "type": "Feature"}
{"geometry": {"coordinates": [-86.652844, 34.740049], "type": "Point"}, "id": "0KbGhqIdwCSEdnkWHffCCCfaeNg=", "properties": {"@spider": "usps_collection_boxes", "addr:city": "HUNTSVILLE", "addr:country": "US", "addr:full": "645 WYNN DR NW", "addr:postcode": "35816", "addr:state": "AL", "brand": "USPS", "collection_times": "Mo-Fr 17:30; Sa 16:00", "name": "USPS COLLECTION BOX - BLUE BOX", "note": "ON 12/24 AND 12/31, THIS BOX MAY BE COLLECTED AS EARLY AS 12 NOON.", "ref": "3581600000"}, "type": "Feature"}
{"geometry": {"coordinates": [-86.6530938, 34.739684], "type": "Point"}, "id": "KznbwRy2JEuD7slUe3F-0yZMbAg=", "properties": {"@spider": "usps_collection_boxes", "addr:city": "HUNTSVILLE", "addr:country": "US", "addr:full": "645 WYNN DR NW", "addr:postcode": "35816", "addr:state": "AL", "brand": "USPS", "collection_times": "Mo-Fr 17:30; Sa 16:00", "name": "USPS COLLECTION BOX - BLUE BOX", "note": "ON 12/24 AND 12/31, THIS BOX MAY BE COLLECTED AS EARLY AS 12 NOON.", "ref": "3581600001"}, "type": "Feature"}
{"geometry": {"coordinates": [-86.6531016, 34.73969], "type": "Point"}, "id": "AooBhyLh6YKtTDaWu3Oy8IGlPtY=", "properties": {"@spider": "usps_collection_boxes", "addr:city": "HUNTSVILLE", "addr:country": "US", "addr:full": "645 WYNN DR NW", "addr:postcode": "35816", "addr:state": "AL", "brand": "USPS", "collection_times": "Mo-Fr 17:30; Sa 16:00", "name": "USPS COLLECTION BOX - BLUE BOX", "note": "ON 12/24 AND 12/31, THIS BOX MAY BE COLLECTED AS EARLY AS 12 NOON.", "ref": "3581600002"}, "type": "Feature"}
{"geometry": {"coordinates": [-86.6414695, 34.742859], "type": "Point"}, "id": "y6xktUhuXsyhnDrfiKr2CrnOg2Y=", "properties": {"@spider": "usps_collection_boxes", "addr:city": "HUNTSVILLE", "addr:country": "US", "addr:full": "1500 ASCENT TRL NW", "addr:postcode": "35816", "addr:state": "AL", "brand": "USPS", "collection_times": "Mo-Sa 10:00", "name": "USPS COLLECTION BOX - BLUE BOX", "ref": "3581600006"}, "type": "Feature"}
{"geometry": {"coordinates": [-86.6331647, 34.733231], "type": "Point"}, "id": "wXRbJY8d40tq4Q5y5Rzx3KyAmZE=", "properties": {"@spider": "usps_collection_boxes", "addr:city": "HUNTSVILLE", "addr:country": "US", "addr:full": "1010 HENDERSON RD NW", "addr:postcode": "35816", "addr:state": "AL", "brand": "USPS", "collection_times": "Mo-Fr 12:00; Sa 10:00", "name": "USPS COLLECTION BOX - BLUE BOX", "ref": "3581600008"}, "type": "Feature"}
{"geometry": {"coordinates": [-86.635396, 34.750748], "type": "Point"}, "id": "n2HLqzQtejZki0Lis22v97GknZM=", "properties": {"@spider": "usps_collection_boxes", "addr:city": "HUNTSVILLE", "addr:country": "US", "addr:full": "2018 JORDAN LN NW", "addr:postcode": "35816", "addr:state": "AL", "brand": "USPS", "collection_times": "Mo-Fr 17:00", "name": "USPS COLLECTION BOX - BLUE BOX", "note": "ON 12/24 AND 12/31, THIS BOX MAY BE COLLECTED AS EARLY AS 12 NOON.", "ref": "3581600017"}, "type": "Feature"}
{"geometry": {"coordinates": [-86.6215323, 34.732105], "type": "Point"}, "id": "UflDAjINDISwIAg9RdPsbPcg8gc=", "properties": {"@spider": "usps_collection_boxes", "addr:city": "HUNTSVILLE", "addr:country": "US", "addr:full": "1200 JULIA ST NW", "addr:postcode": "35816", "addr:state": "AL", "brand": "USPS", "collection_times": "Mo-Sa 10:00", "name": "USPS COLLECTION BOX - BLUE BOX", "ref": "3581600019"}, "type": "Feature"}
{"geometry": {"coordinates": [-86.6535649, 34.740023], "type": "Point"}, "id": "lT25o6m_Ug2hWEjpMJPZ59DTz-E=", "properties": {"@spider": "usps_collection_boxes", "addr:city": "HUNTSVILLE", "addr:country": "US", "addr:full": "645 WYNN DR NW", "addr:postcode": "35816", "addr:state": "AL", "brand": "USPS", "collection_times": "Mo-Fr 17:30; Sa 16:00", "name": "USPS COLLECTION BOX - PO LOBBY", "note": "ON 12/24 AND 12/31, THIS BOX MAY BE COLLECTED AS EARLY AS 12 NOON.", "ref": "3581600026"}, "type": "Feature"}
{"geometry": {"coordinates": [-86.656088, 34.741194], "type": "Point"}, "id": "pm9kfiQRv6CigijD0Q87mu04iEs=", "properties": {"@spider": "usps_collection_boxes", "addr:city": "HUNTSVILLE", "addr:country": "US", "addr:full": "4825 UNIVERSITY SQ", "addr:postcode": "35816", "addr:state": "AL", "brand": "USPS", "collection_times": "Mo-Fr 16:30", "name": "USPS COLLECTION BOX - BLUE BOX", "note": "ON 12/24 AND 12/31, THIS BOX MAY BE COLLECTED AS EARLY AS 12 NOON.", "ref": "3581600027"}, "type": "Feature"}
{"geometry": {"coordinates": [-86.6534788, 34.73995], "type": "Point"}, "id": "DZvtcIa_kMyGxMib2G-mnu4vdtc=", "properties": {"@spider": "usps_collection_boxes", "addr:city": "HUNTSVILLE", "addr:country": "US", "addr:full": "645 WYNN DR NW", "addr:postcode": "35816", "addr:state": "AL", "brand": "USPS", "collection_times": "Mo-Fr 17:30; Sa 16:00", "name": "USPS COLLECTION BOX - APC", "note": "ON 12/24 AND 12/31, THIS BOX MAY BE COLLECTED AS EARLY AS 12 NOON.", "ref": "3581600028"}, "type": "Feature"}
{"geometry": {"coordinates": [-86.652843913, 34.740045304], "type": "Point"}, "id": "Oclk7rN1xZMjEqBT3zbI0dVnynM=", "properties": {"@spider": "usps_collection_boxes", "addr:city": "HUNTSVILLE", "addr:country": "US", "addr:full": "645 WYNN DR NW", "addr:postcode": "35816", "addr:state": "AL", "brand": "USPS", "collection_times": "Mo-Fr 18:00; Sa 14:00", "name": "USPS COLLECTION BOX - PO LOBBY", "note": "ON 12/24 AND 12/31, THIS BOX MAY BE COLLECTED AS EARLY AS 12 NOON.", "ref": "3581600030"}, "type": "Feature"}
