{"geometry": {"coordinates": [-86.00917, 34.014012], "type": "Point"}, "id": "AIWJohxu2rCwvnJS7ZFo1BFnLMA=", "properties": {"@source_uri": "https://tools.usps.com/UspsToolsRestServices/rest/POLocator/findLocations", "@spider": "usps_collection_boxes", "addr:city": "GADSDEN", "addr:country": "US", "addr:postcode": "35901", "addr:state": "AL", "addr:street_address": "700 CHESTNUT ST", "amenity": "post_box", "collection_times": "Mo-Sa 17:00", "note": "ON 12/24 AND 12/31, THIS BOX MAY BE COLLECTED AS EARLY AS 12 NOON.", "nsi_id": "unitedstatespostalservice-a77078", "operator": "United States Postal Service", "operator:short": "USPS", "operator:type": "public", "operator:wikidata": "Q668687", "ref": "3590100003"}, "type": "Feature"}
{"geometry": {"coordinates": [-86.007088, 33.994573], "type": "Point"}, "id": "y7aoNjsgSigL2ONIwXnMz7V6RL8=", "properties": {"@source_uri": "https://tools.usps.com/UspsToolsRestServices/rest/POLocator/findLocations", "@spider": "usps_collection_boxes", "addr:city": "GADSDEN", "addr:country": "US", "addr:postcode": "35901", "addr:state": "AL", "addr:street_address": "1001 RAINBOW DR", "amenity": "post_box", "collection_times": "Mo-Fr 13:00; Sa 11:30", "note": "ON 12/24 AND 12/31, THIS BOX MAY BE COLLECTED AS EARLY AS 12 NOON.", "nsi_id": "unitedstatespostalservice-a77078", "operator": "United States Postal Service", "operator:short": "USPS", "operator:type": "public", "operator:wikidata": "Q668687", "ref": "3590100008"}, "type": "Feature"}
{"geometry": {"coordinates": [-86.0142221, 33.975085], "type": "Point"}, "id": "kYN_5uO8Z47TETKEgfNfo-mNhkA=", "properties": {"@source_uri": "https://tools.usps.com/UspsToolsRestServices/rest/POLocator/findLocations", "@spider": "usps_collection_boxes", "addr:city": "GADSDEN", "addr:country": "US", "addr:postcode": "35901", "addr:state": "AL", "addr:street_address": "2000 RAINBOW DR", "amenity": "post_box", "collection_times": "Mo-Sa 15:30", "note": "ON 12/24 AND 12/31, THIS BOX MAY BE COLLECTED AS EARLY AS 12 NOON.", "nsi_id": "unitedstatespostalservice-a77078", "operator": "United States Postal Service", "operator:short": "USPS", "operator:type": "public", "operator:wikidata": "Q668687", "ref": "3590100022"}, "type": "Feature"}
{"geometry": {"coordinates": [-85.9770533, 34.03068], "type": "Point"}, "id": "ICJNMJvxXDbf8MgBPTCOWdNQL-E=", "properties": {"@source_uri": "https://tools.usps.com/UspsToolsRestServices/rest/POLocator/findLocations", "@spider": "usps_collection_boxes", "addr:city": "GADSDEN", "addr:country": "US", "addr:postcode": "35901", "addr:state": "AL", "addr:street_address": "301 PRINCETON AVE", "amenity": "post_box", "collection_times": "Mo-Sa 14:30", "note": "ON 12/24 AND 12/31, THIS BOX MAY BE COLLECTED AS EARLY AS 12 NOON.", "nsi_id": "unitedstatespostalservice-a77078", "operator": "United States Postal Service", "operator:short": "USPS", "operator:type": "public", "operator:wikidata": "Q668687", "ref": "3590100024"}, "type": "Feature"}
{"geometry": {"coordinates": [-85.986218, 34.027469], "type": "Point"}, "id": "VpFP6blTsKHkkn4QxP4IHhz2850=", "properties": {"@source_uri": "https://tools.usps.com/UspsToolsRestServices/rest/POLocator/findLocations", "@spider": "usps_collection_boxes", "addr:city": "GADSDEN", "addr:country": "US", "addr:postcode": "35901", "addr:state": "AL", "addr:street_address": "720 EWING AVE", "amenity": "post_box", "collection_times": "Mo-Sa 14:00", "note": "ON 12/24 AND 12/31, THIS BOX MAY BE COLLECTED AS EARLY AS 12 NOON.", "nsi_id": "unitedstatespostalservice-a77078", "operator": "United States Postal Service", "operator:short": "USPS", "operator:type": "public", "operator:wikidata": "Q668687", "ref": "3590100033"}, "type": "Feature"}
{"geometry": {"coordinates": [-86.00917, 34.014012], "type": "Point"}, "id": "qSDqWw5pCU6F36VnCgR93JeKs1M=", "properties": {"@source_uri": "https://tools.usps.com/UspsToolsRestServices/rest/POLocator/findLocations", "@spider": "usps_collection_boxes", "addr:city": "GADSDEN", "addr:country": "US", "addr:postcode": "35901", "addr:state": "AL", "addr:street_address": "700 CHESTNUT ST", "amenity": "post_box", "collection_times": "Mo-Sa 17:00", "indoor": "yes", "note": "ON 12/24 AND 12/31, THIS BOX MAY BE COLLECTED AS EARLY AS 12 NOON.", "nsi_id": "unitedstatespostalservice-a77078", "operator": "United States Postal Service", "operator:short": "USPS", "operator:type": "public", "operator:wikidata": "Q668687", "ref": "3590100040"}, "type": "Feature"}
{"geometry": {"coordinates": [-86.0116074, 34.016505], "type": "Point"}, "id": "ZfuIp_fS0RnLO1S26hiSb1VipFw=", "properties": {"@source_uri": "https://tools.usps.com/UspsToolsRestServices/rest/POLocator/findLocations", "@spider": "usps_collection_boxes", "addr:city": "GADSDEN", "addr:country": "US", "addr:postcode": "35901", "addr:state": "AL", "addr:street_address": "801 FORREST AVE", "amenity": "post_box", "collection_times": "Mo-Sa 12:00", "nsi_id": "unitedstatespostalservice-a77078", "operator": "United States Postal Service", "operator:short": "USPS", "operator:type": "public", "operator:wikidata": "Q668687", "ref": "3590100041"}, "type": "Feature"}
{"geometry": {"coordinates": [-85.9999583, 34.010456], "type": "Point"}, "id": "a8RcOftq1uBC6-AP-AaqQ0eCBTk=", "properties": {"@source_uri": "https://tools.usps.com/UspsToolsRestServices/rest/POLocator/findLocations", "@spider": "usps_collection_boxes", "addr:city": "GADSDEN", "addr:country": "US", "addr:postcode": "35901", "addr:state": "AL", "addr:street_address": "90 BROAD ST", "amenity": "post_box", "collection_times": "Mo-Sa 12:00", "nsi_id": "unitedstatespostalservice-a77078", "operator": "United States Postal Service", "operator:short": "USPS", "operator:type": "public", "operator:wikidata": "Q668687", "ref": "3590100042"}, "type": "Feature"}
{"geometry": {"coordinates": [-86.00917, 34.014012], "type": "Point"}, "id": "X7wdkOQ_RkYEbvZZYlVHdKVRcWM=", "properties": {"@source_uri": "https://tools.usps.com/UspsToolsRestServices/rest/POLocator/findLocations", "@spider": "usps_collection_boxes", "addr:city": "GADSDEN", "addr:country": "US", "addr:postcode": "35901", "addr:state": "AL", "addr:street_address": "700 CHESTNUT ST", "amenity": "post_box", "collection_times": "Mo-Sa 17:00", "note": "ON 12/24 AND 12/31, THIS BOX MAY BE COLLECTED AS EARLY AS 12 NOON.", "nsi_id": "unitedstatespostalservice-a77078", "operator": "United States Postal Service", "operator:short": "USPS", "operator:type": "public", "operator:wikidata": "Q668687", "ref": "3590100043"}, "type": "Feature"}
{"geometry": {"coordinates": [-86.0227142, 33.920501], "type": "Point"}, "id": "67FfUK6HbfnLp_zaOepL2K74O0k=", "properties": {"@source_uri": "https://tools.usps.com/UspsToolsRestServices/rest/POLocator/findLocations", "@spider": "usps_collection_boxes", "addr:city": "GADSDEN", "addr:country": "US", "addr:postcode": "35901", "addr:state": "AL", "addr:street_address": "2255 HIGHWAY 77", "amenity": "post_box", "collection_times": "Mo-Sa 13:30", "note": "ON 12/24 AND 12/31, THIS BOX MAY BE COLLECTED AS EARLY AS 12 NOON.", "nsi_id": "unitedstatespostalservice-a77078", "operator": "United States Postal Service", "operator:short": "USPS", "operator:type": "public", "operator:wikidata": "Q668687", "ref": "3590100045"}, "type": "Feature"}
{"geometry": {"coordinates": [-86.009174445, 34.01400547], "type": "Point"}, "id": "ZgW1BB7Ck8OBeTXhcft9JMFMbmM=", "properties": {"@source_uri": "https://tools.usps.com/UspsToolsRestServices/rest/POLocator/findLocations", "@spider": "usps_collection_boxes", "addr:city": "GADSDEN", "addr:country": "US", "addr:postcode": "35901", "addr:state": "AL", "addr:street_address": "700 CHESTNUT ST", "amenity": "post_box", "collection_times": "Mo-Fr 17:30; Sa 13:00", "indoor": "yes", "note": "ON 12/24 AND 12/31, THIS BOX MAY BE COLLECTED AS EARLY AS 12 NOON.", "nsi_id": "unitedstatespostalservice-a77078", "operator": "United States Postal Service", "operator:short": "USPS", "operator:type": "public", "operator:wikidata": "Q668687", "ref": "3590100048"}, "type": "Feature"}
{"geometry": {"coordinates": [-85.964915, 33.999236], "type": "Point"}, "id": "BRxBSnkuqH8TtbscHUj-hx7W0PY=", "properties": {"@source_uri": "https://tools.usps.com/UspsToolsRestServices/rest/POLocator/findLocations", "@spider": "usps_collection_boxes", "addr:city": "GADSDEN", "addr:country": "US", "addr:postcode": "35903", "addr:state": "AL", "addr:street_address": "1021 PIEDMONT CUTOFF", "amenity": "post_box", "collection_times": "Mo-Fr 16:30; Sa 14:00", "note": "ON 12/24 AND 12/31, THIS BOX MAY BE COLLECTED AS EARLY AS 12 NOON.", "nsi_id": "unitedstatespostalservice-a77078", "operator": "United States Postal Service", "operator:short": "USPS", "operator:type": "public", "operator:wikidata": "Q668687", "ref": "3590300000"}, "type": "Feature"}
{"geometry": {"coordinates": [-85.964915, 33.999236], "type": "Point"}, "id": "3zwBLpg_TfGQw4HksgvJ2nDi4us=", "properties": {"@source_uri": "https://tools.usps.com/UspsToolsRestServices/rest/POLocator/findLocations", "@spider": "usps_collection_boxes", "addr:city": "GADSDEN", "addr:country": "US", "addr:postcode": "35903", "addr:state": "AL", "addr:street_address": "1021 PIEDMONT CUTOFF", "amenity": "post_box", "collection_times": "Mo-Fr 16:30; Sa 14:00", "note": "ON 12/24 AND 12/31, THIS BOX MAY BE COLLECTED AS EARLY AS 12 NOON.", "nsi_id": "unitedstatespostalservice-a77078", "operator": "United States Postal Service", "operator:short": "USPS", "operator:type": "public", "operator:wikidata": "Q668687", "ref": "3590300001"}, "type": "Feature"}
{"geometry": {"coordinates": [-85.9482695, 33.965014], "type": "Point"}, "id": "MpteDWrUvVlrv0eMd2r9xzQ1qbw=", "properties": {"@source_uri": "https://tools.usps.com/UspsToolsRestServices/rest/POLocator/findLocations", "@spider": "usps_collection_boxes", "addr:city": "GADSDEN", "addr:country": "US", "addr:postcode": "35903", "addr:state": "AL", "addr:street_address": "305 W AIR DEPOT RD", "amenity": "post_box", "collection_times": "Mo-Sa 11:30", "nsi_id": "unitedstatespostalservice-a77078", "operator": "United States Postal Service", "operator:short": "USPS", "operator:type": "public", "operator:wikidata": "Q668687", "ref": "3590300002"}, "type": "Feature"}
{"geometry": {"coordinates": [-85.9647524, 34.007942], "type": "Point"}, "id": "QxpgkJD8Pv0srdJf6mrdmVdNgZM=", "properties": {"@source_uri": "https://tools.usps.com/UspsToolsRestServices/rest/POLocator/findLocations", "@spider": "usps_collection_boxes", "addr:city": "GADSDEN", "addr:country": "US", "addr:postcode": "35903", "addr:state": "AL", "addr:street_address": "100 MEDICAL CENTER DR", "amenity": "post_box", "collection_times": "Mo-Sa 10:00", "nsi_id": "unitedstatespostalservice-a77078", "operator": "United States Postal Service", "operator:short": "USPS", "operator:type": "public", "operator:wikidata": "Q668687", "ref": "3590300014"}, "type": "Feature"}
{"geometry": {"coordinates": [-85.969729318, 34.0094921974], "type": "Point"}, "id": "Rj7O9zErJX_GmQ4MuHFSyXp58aU=", "properties": {"@source_uri": "https://tools.usps.com/UspsToolsRestServices/rest/POLocator/findLocations", "@spider": "usps_collection_boxes", "addr:city": "GADSDEN", "addr:country": "US", "addr:postcode": "35903", "addr:state": "AL", "addr:street_address": "1026 GOODYEAR AVE", "amenity": "post_box", "collection_times": "Mo-Fr 09:00", "nsi_id": "unitedstatespostalservice-a77078", "operator": "United States Postal Service", "operator:short": "USPS", "operator:type": "public", "operator:wikidata": "Q668687", "ref": "3590300021"}, "type": "Feature"}
{"geometry": {"coordinates": [-85.964915, 33.999236], "type": "Point"}, "id": "rEIEiu3DhzQOQCIy2B9XSAsjDCg=", "properties": {"@source_uri": "https://tools.usps.com/UspsToolsRestServices/rest/POLocator/findLocations", "@spider": "usps_collection_boxes", "addr:city": "GADSDEN", "addr:country": "US", "addr:postcode": "35903", "addr:state": "AL", "addr:street_address": "1021 PIEDMONT CUTOFF", "amenity": "post_box", "collection_times": "Mo-Fr 16:30; Sa 14:00", "indoor": "yes", "note": "ON 12/24 AND 12/31, THIS BOX MAY BE COLLECTED AS EARLY AS 12 NOON.", "nsi_id": "unitedstatespostalservice-a77078", "operator": "United States Postal Service", "operator:short": "USPS", "operator:type": "public", "operator:wikidata": "Q668687", "ref": "3590300022"}, "type": "Feature"}
{"geometry": {"coordinates": [-85.9961727, 34.001302], "type": "Point"}, "id": "LZ3kqd-f-2zIhiCOJZRXfDSWTmc=", "properties": {"@source_uri": "https://tools.usps.com/UspsToolsRestServices/rest/POLocator/findLocations", "@spider": "usps_collection_boxes", "addr:city": "GADSDEN", "addr:country": "US", "addr:postcode": "35903", "addr:state": "AL", "addr:street_address": "515 GEORGE WALLACE DR", "amenity": "post_box", "collection_times": "Mo-Sa 10:30", "nsi_id": "unitedstatespostalservice-a77078", "operator": "United States Postal Service", "operator:short": "USPS", "operator:type": "public", "operator:wikidata": "Q668687", "ref": "3590300023"}, "type": "Feature"}
{"geometry": {"coordinates": [-85.9640911, 34.003548], "type": "Point"}, "id": "eLTeiKfYbPeMlx3d3SvPurChKFw=", "properties": {"@source_uri": "https://tools.usps.com/UspsToolsRestServices/rest/POLocator/findLocations", "@spider": "usps_collection_boxes", "addr:city": "GADSDEN", "addr:country": "US", "addr:postcode": "35903", "addr:state": "AL", "addr:street_address": "100 CAMPBELL CT", "amenity": "post_box", "collection_times": "Mo-Sa 14:00", "note": "ON 12/24 AND 12/31, THIS BOX MAY BE COLLECTED AS EARLY AS 12 NOON.", "nsi_id": "unitedstatespostalservice-a77078", "operator": "United States Postal Service", "operator:short": "USPS", "operator:type": "public", "operator:wikidata": "Q668687", "ref": "3590300025"}, "type": "Feature"}
{"geometry": {"coordinates": [-85.964915, 33.999236], "type": "Point"}, "id": "LOG22gyJuR2T0ceqMg9QsgGfu_s=", "properties": {"@source_uri": "https://tools.usps.com/UspsToolsRestServices/rest/POLocator/findLocations", "@spider": "usps_collection_boxes", "addr:city": "GADSDEN", "addr:country": "US", "addr:postcode": "35903", "addr:state": "AL", "addr:street_address": "1021 PIEDMONT CUTOFF", "amenity": "post_box", "collection_times": "Mo-Fr 16:30; Sa 14:00", "indoor": "yes", "note": "ON 12/24 AND 12/31, THIS BOX MAY BE COLLECTED AS EARLY AS 12 NOON.", "nsi_id": "unitedstatespostalservice-a77078", "operator": "United States Postal Service", "operator:short": "USPS", "operator:type": "public", "operator:wikidata": "Q668687", "ref": "3590300026"}, "type": "Feature"}
{"geometry": {"coordinates": [-85.8656749, 33.986812], "type": "Point"}, "id": "6VV_T3R_SpitDpq8z-_dUJT216A=", "properties": {"@source_uri": "https://tools.usps.com/UspsToolsRestServices/rest/POLocator/findLocations", "@spider": "usps_collection_boxes", "addr:city": "GADSDEN", "addr:country": "US", "addr:postcode": "35903", "addr:state": "AL", "addr:street_address": "5702 US HIGHWAY 278 E", "amenity": "post_box", "collection_times": "Mo-Sa 13:30", "note": "ON 12/24 AND 12/31, THIS BOX MAY BE COLLECTED AS EARLY AS 12 NOON.", "nsi_id": "unitedstatespostalservice-a77078", "operator": "United States Postal Service", "operator:short": "USPS", "operator:type": "public", "operator:wikidata": "Q668687", "ref": "3590300029"}, "type": "Feature"}
{"geometry": {"coordinates": [-85.9648923, 34.007044], "type": "Point"}, "id": "P9vHs281UukE5dDsWbYecIIjN30=", "properties": {"@source_uri": "https://tools.usps.com/UspsToolsRestServices/rest/POLocator/findLocations", "@spider": "usps_collection_boxes", "addr:city": "GADSDEN", "addr:country": "US", "addr:postcode": "35903", "addr:state": "AL", "addr:street_address": "300 MEDICAL CENTER DR", "amenity": "post_box", "collection_times": "Mo-Sa 10:00", "nsi_id": "unitedstatespostalservice-a77078", "operator": "United States Postal Service", "operator:short": "USPS", "operator:type": "public", "operator:wikidata": "Q668687", "ref": "3590300030"}, "type": "Feature"}
{"geometry": {"coordinates": [-85.991571547, 34.01124572], "type": "Point"}, "id": "3hKOclZCyed-IuoNq5sXQ1T-WE4=", "properties": {"@source_uri": "https://tools.usps.com/UspsToolsRestServices/rest/POLocator/findLocations", "@spider": "usps_collection_boxes", "addr:city": "GADSDEN", "addr:country": "US", "addr:postcode": "35903", "addr:state": "AL", "addr:street_address": "104 E MEIGHAN BLVD", "amenity": "post_box", "collection_times": "Mo-Sa 11:00", "nsi_id": "unitedstatespostalservice-a77078", "operator": "United States Postal Service", "operator:short": "USPS", "operator:type": "public", "operator:wikidata": "Q668687", "ref": "3590300033"}, "type": "Feature"}
{"geometry": {"coordinates": [-85.964932828, 33.999185092], "type": "Point"}, "id": "Gecz65RH6i0tCAGFKjmDgp-I5zc=", "properties": {"@source_uri": "https://tools.usps.com/UspsToolsRestServices/rest/POLocator/findLocations", "@spider": "usps_collection_boxes", "addr:city": "GADSDEN", "addr:country": "US", "addr:postcode": "35903", "addr:state": "AL", "addr:street_address": "1021 PIEDMONT CUTOFF", "amenity": "post_box", "collection_times": "Mo-Fr 16:30", "indoor": "yes", "note": "ON 12/24 AND 12/31, THIS BOX MAY BE COLLECTED AS EARLY AS 12 NOON.", "nsi_id": "unitedstatespostalservice-a77078", "operator": "United States Postal Service", "operator:short": "USPS", "operator:type": "public", "operator:wikidata": "Q668687", "ref": "3590300035"}, "type": "Feature"}
{"geometry": {"coordinates": [-86.04376, 34.02091], "type": "Point"}, "id": "LWUZWSgZU8tSoM3D_XjKvKpx1l0=", "properties": {"@source_uri": "https://tools.usps.com/UspsToolsRestServices/rest/POLocator/findLocations", "@spider": "usps_collection_boxes", "addr:city": "GADSDEN", "addr:country": "US", "addr:postcode": "35904", "addr:state": "AL", "addr:street_address": "211 N 26TH ST", "amenity": "post_box", "collection_times": "Mo-Fr 16:30; Sa 15:00", "note": "ON 12/24 AND 12/31, THIS BOX MAY BE COLLECTED AS EARLY AS 12 NOON.", "nsi_id": "unitedstatespostalservice-a77078", "operator": "United States Postal Service", "operator:short": "USPS", "operator:type": "public", "operator:wikidata": "Q668687", "ref": "3590400000"}, "type": "Feature"}
{"geometry": {"coordinates": [-86.04376, 34.02091], "type": "Point"}, "id": "_xIf7HWUlhHIE-1c1nfY-a2IVzE=", "properties": {"@source_uri": "https://tools.usps.com/UspsToolsRestServices/rest/POLocator/findLocations", "@spider": "usps_collection_boxes", "addr:city": "GADSDEN", "addr:country": "US", "addr:postcode": "35904", "addr:state": "AL", "addr:street_address": "211 N 26TH ST", "amenity": "post_box", "collection_times": "Mo-Fr 16:30; Sa 15:00", "note": "ON 12/24 AND 12/31, THIS BOX MAY BE COLLECTED AS EARLY AS 12 NOON.", "nsi_id": "unitedstatespostalservice-a77078", "operator": "United States Postal Service", "operator:short": "USPS", "operator:type": "public", "operator:wikidata": "Q668687", "ref": "3590400001"}, "type": "Feature"}
{"geometry": {"coordinates": [-86.04376, 34.02091], "type": "Point"}, "id": "yTZ1pvkA2GUeruO3mB3pMMS9vIs=", "properties": {"@source_uri": "https://tools.usps.com/UspsToolsRestServices/rest/POLocator/findLocations", "@spider": "usps_collection_boxes", "addr:city": "GADSDEN", "addr:country": "US", "addr:postcode": "35904", "addr:state": "AL", "addr:street_address": "211 N 26TH ST", "amenity": "post_box", "collection_times": "Mo-Fr 16:30; Sa 15:00", "indoor": "yes", "note": "ON 12/24 AND 12/31, THIS BOX MAY BE COLLECTED AS EARLY AS 12 NOON.", "nsi_id": "unitedstatespostalservice-a77078", "operator": "United States Postal Service", "operator:short": "USPS", "operator:type": "public", "operator:wikidata": "Q668687", "ref": "3590400010"}, "type": "Feature"}
{"geometry": {"coordinates": [-86.04373942, 34.0208776], "type": "Point"}, "id": "GKdrKyu0Y9GSQKCbuY2XwUsukRI=", "properties": {"@source_uri": "https://tools.usps.com/UspsToolsRestServices/rest/POLocator/findLocations", "@spider": "usps_collection_boxes", "addr:city": "GADSDEN", "addr:country": "US", "addr:postcode": "35904", "addr:state": "AL", "addr:street_address": "211 N 26TH ST", "amenity": "post_box", "collection_times": "Mo-Fr 16:30", "indoor": "yes", "note": "ON 12/24 AND 12/31, THIS BOX MAY BE COLLECTED AS EARLY AS 12 NOON.", "nsi_id": "unitedstatespostalservice-a77078", "operator": "United States Postal Service", "operator:short": "USPS", "operator:type": "public", "operator:wikidata": "Q668687", "ref": "3590400015"}, "type": "Feature"}
{"geometry": {"coordinates": [-85.927897, 33.946966], "type": "Point"}, "id": "iEJmzjDWRFqNbNDwHimVxQHzKFE=", "properties": {"@source_uri": "https://tools.usps.com/UspsToolsRestServices/rest/POLocator/findLocations", "@spider": "usps_collection_boxes", "addr:city": "GADSDEN", "addr:country": "US", "addr:postcode": "35905", "addr:state": "AL", "addr:street_address": "107 MAIN ST E", "amenity": "post_box", "collection_times": "Mo-Fr 12:00", "nsi_id": "unitedstatespostalservice-a77078", "operator": "United States Postal Service", "operator:short": "USPS", "operator:type": "public", "operator:wikidata": "Q668687", "ref": "3590500000"}, "type": "Feature"}
{"geometry": {"coordinates": [-85.927897, 33.946966], "type": "Point"}, "id": "z8ihDjBI45_vjtnDwQpmsWra2d0=", "properties": {"@source_uri": "https://tools.usps.com/UspsToolsRestServices/rest/POLocator/findLocations", "@spider": "usps_collection_boxes", "addr:city": "GADSDEN", "addr:country": "US", "addr:postcode": "35905", "addr:state": "AL", "addr:street_address": "107 MAIN ST E", "amenity": "post_box", "collection_times": "Mo-Fr 12:00", "nsi_id": "unitedstatespostalservice-a77078", "operator": "United States Postal Service", "operator:short": "USPS", "operator:type": "public", "operator:wikidata": "Q668687", "ref": "3590500002"}, "type": "Feature"}
{"geometry": {"coordinates": [-85.927897, 33.946966], "type": "Point"}, "id": "hSuUoG9sQAsT1oDFltoc00j1T2Y=", "properties": {"@source_uri": "https://tools.usps.com/UspsToolsRestServices/rest/POLocator/findLocations", "@spider": "usps_collection_boxes", "addr:city": "GADSDEN", "addr:country": "US", "addr:postcode": "35905", "addr:state": "AL", "addr:street_address": "107 MAIN ST E", "amenity": "post_box", "collection_times": "Mo-Fr 12:00", "indoor": "yes", "nsi_id": "unitedstatespostalservice-a77078", "operator": "United States Postal Service", "operator:short": "USPS", "operator:type": "public", "operator:wikidata": "Q668687", "ref": "3590500003"}, "type": "Feature"}
{"geometry": {"coordinates": [-85.933315046, 33.955382337], "type": "Point"}, "id": "BJdqhCSYTShrWBO2ZMysaAiIUsw=", "properties": {"@source_uri": "https://tools.usps.com/UspsToolsRestServices/rest/POLocator/findLocations", "@spider": "usps_collection_boxes", "addr:city": "GADSDEN", "addr:country": "US", "addr:postcode": "35905", "addr:state": "AL", "addr:street_address": "107 MAIN ST E", "amenity": "post_box", "collection_times": "Mo-Fr 12:00", "indoor": "yes", "nsi_id": "unitedstatespostalservice-a77078", "operator": "United States Postal Service", "operator:short": "USPS", "operator:type": "public", "operator:wikidata": "Q668687", "ref": "3590500005"}, "type": "Feature"}
{"geometry": {"coordinates": [-86.0353291, 33.961328], "type": "Point"}, "id": "w4YxFAbGD4HBfp-cDmaMKi4nr6s=", "properties": {"@source_uri": "https://tools.usps.com/UspsToolsRestServices/rest/POLocator/findLocations", "@spider": "usps_collection_boxes", "addr:city": "RAINBOW CITY", "addr:country": "US", "addr:postcode": "35906", "addr:state": "AL", "addr:street_address": "3225 RAINBOW DR", "amenity": "post_box", "collection_times": "Mo-Fr 16:00; Sa 14:00", "note": "ON 12/24 AND 12/31, THIS BOX MAY BE COLLECTED AS EARLY AS 12 NOON.", "nsi_id": "unitedstatespostalservice-a77078", "operator": "United States Postal Service", "operator:short": "USPS", "operator:type": "public", "operator:wikidata": "Q668687", "ref": "3590600005"}, "type": "Feature"}
{"geometry": {"coordinates": [-86.041574, 33.956027], "type": "Point"}, "id": "inCV4FYXIkK9Ib2GWPdxwfDgdvM=", "properties": {"@source_uri": "https://tools.usps.com/UspsToolsRestServices/rest/POLocator/findLocations", "@spider": "usps_collection_boxes", "addr:city": "RAINBOW CITY", "addr:country": "US", "addr:postcode": "35906", "addr:state": "AL", "addr:street_address": "115 W GRAND AVE", "amenity": "post_box", "collection_times": "Mo-Sa 10:30", "nsi_id": "unitedstatespostalservice-a77078", "operator": "United States Postal Service", "operator:short": "USPS", "operator:type": "public", "operator:wikidata": "Q668687", "ref": "3590600006"}, "type": "Feature"}
{"geometry": {"coordinates": [-86.211614, 34.267477], "type": "Point"}, "id": "LUp-YUdo6ZDP4DFfN9_nqgAfAEw=", "properties": {"@source_uri": "https://tools.usps.com/UspsToolsRestServices/rest/POLocator/findLocations", "@spider": "usps_collection_boxes", "addr:city": "ALBERTVILLE", "addr:country": "US", "addr:postcode": "35950", "addr:state": "AL", "addr:street_address": "210 S HAMBRICK ST", "amenity": "post_box", "collection_times": "Mo-Fr 16:30; Sa 14:15", "note": "ON 12/24 AND 12/31, THIS BOX MAY BE COLLECTED AS EARLY AS 12 NOON.", "nsi_id": "unitedstatespostalservice-a77078", "operator": "United States Postal Service", "operator:short": "USPS", "operator:type": "public", "operator:wikidata": "Q668687", "ref": "3595000000"}, "type": "Feature"}
{"geometry": {"coordinates": [-86.211614, 34.267477], "type": "Point"}, "id": "MUNiW2vUIRxgV1Tf9amCD02ioPc=", "properties": {"@source_uri": "https://tools.usps.com/UspsToolsRestServices/rest/POLocator/findLocations", "@spider": "usps_collection_boxes", "addr:city": "ALBERTVILLE", "addr:country": "US", "addr:postcode": "35950", "addr:state": "AL", "addr:street_address": "210 S HAMBRICK ST", "amenity": "post_box", "collection_times": "Mo-Fr 16:30; Sa 14:15", "note": "ON 12/24 AND 12/31, THIS BOX MAY BE COLLECTED AS EARLY AS 12 NOON.", "nsi_id": "unitedstatespostalservice-a77078", "operator": "United States Postal Service", "operator:short": "USPS", "operator:type": "public", "operator:wikidata": "Q668687", "ref": "3595000001"}, "type": "Feature"}
{"geometry": {"coordinates": [-86.211614, 34.267477], "type": "Point"}, "id": "grX-0AA0RlTbu2CbVJfzrQiqZok=", "properties": {"@source_uri": "https://tools.usps.com/UspsToolsRestServices/rest/POLocator/findLocations", "@spider": "usps_collection_boxes", "addr:city": "ALBERTVILLE", "addr:country": "US", "addr:postcode": "35950", "addr:state": "AL", "addr:street_address": "210 S HAMBRICK ST", "amenity": "post_box", "collection_times": "Mo-Fr 16:30; Sa 14:15", "note": "ON 12/24 AND 12/31, THIS BOX MAY BE COLLECTED AS EARLY AS 12 NOON.", "nsi_id": "unitedstatespostalservice-a77078", "operator": "United States Postal Service", "operator:short": "USPS", "operator:type": "public", "operator:wikidata": "Q668687", "ref": "3595000002"}, "type": "Feature"}
{"geometry": {"coordinates": [-86.211614, 34.267477], "type": "Point"}, "id": "aUk3u--PjFlRbMbpc067vCNTB-Q=", "properties": {"@source_uri": "https://tools.usps.com/UspsToolsRestServices/rest/POLocator/findLocations", "@spider": "usps_collection_boxes", "addr:city": "ALBERTVILLE", "addr:country": "US", "addr:postcode": "35950", "addr:state": "AL", "addr:street_address": "210 S HAMBRICK ST", "amenity": "post_box", "collection_times": "Mo-Fr 16:30; Sa 14:15", "indoor": "yes", "note": "ON 12/24 AND 12/31, THIS BOX MAY BE COLLECTED AS EARLY AS 12 NOON.", "nsi_id": "unitedstatespostalservice-a77078", "operator": "United States Postal Service", "operator:short": "USPS", "operator:type": "public", "operator:wikidata": "Q668687", "ref": "3595000017"}, "type": "Feature"}
{"geometry": {"coordinates": [-86.211583387, 34.267516632], "type": "Point"}, "id": "hhrwzWk3M1Fv6bmj_njhNUU2xMc=", "properties": {"@source_uri": "https://tools.usps.com/UspsToolsRestServices/rest/POLocator/findLocations", "@spider": "usps_collection_boxes", "addr:city": "ALBERTVILLE", "addr:country": "US", "addr:postcode": "35950", "addr:state": "AL", "addr:street_address": "210 S HAMBRICK ST", "amenity": "post_box", "collection_times": "Mo-Fr 16:30; Sa 12:00", "indoor": "yes", "note": "ON 12/24 AND 12/31, THIS BOX MAY BE COLLECTED AS EARLY AS 12 NOON.", "nsi_id": "unitedstatespostalservice-a77078", "operator": "United States Postal Service", "operator:short": "USPS", "operator:type": "public", "operator:wikidata": "Q668687", "ref": "3595000022"}, "type": "Feature"}
{"geometry": {"coordinates": [-86.3249906, 34.027585], "type": "Point"}, "id": "sR35YVpxFJuq-gaPwOOfvCCIAEQ=", "properties": {"@source_uri": "https://tools.usps.com/UspsToolsRestServices/rest/POLocator/findLocations", "@spider": "usps_collection_boxes", "addr:city": "ALTOONA", "addr:country": "US", "addr:postcode": "35952", "addr:state": "AL", "addr:street_address": "2920 COLLEGE ST", "amenity": "post_box", "collection_times": "Mo-Sa 12:00", "nsi_id": "unitedstatespostalservice-a77078", "operator": "United States Postal Service", "operator:short": "USPS", "operator:type": "public", "operator:wikidata": "Q668687", "ref": "3595200000"}, "type": "Feature"}
{"geometry": {"coordinates": [-86.325385, 34.027535], "type": "Point"}, "id": "AsrbgtsI_nYZ-iG_su7WU2Dudsk=", "properties": {"@source_uri": "https://tools.usps.com/UspsToolsRestServices/rest/POLocator/findLocations", "@spider": "usps_collection_boxes", "addr:city": "ALTOONA", "addr:country": "US", "addr:postcode": "35952", "addr:state": "AL", "addr:street_address": "42794 STATE HWY 75", "amenity": "post_box", "collection_times": "Mo-Sa 10:00", "nsi_id": "unitedstatespostalservice-a77078", "operator": "United States Postal Service", "operator:short": "USPS", "operator:type": "public", "operator:wikidata": "Q668687", "ref": "3595200001"}, "type": "Feature"}
{"geometry": {"coordinates": [-86.3248233, 34.027816], "type": "Point"}, "id": "x5fyAA1f3YgzEAJFXGny290Ud4A=", "properties": {"@source_uri": "https://tools.usps.com/UspsToolsRestServices/rest/POLocator/findLocations", "@spider": "usps_collection_boxes", "addr:city": "ALTOONA", "addr:country": "US", "addr:postcode": "35952", "addr:state": "AL", "addr:street_address": "2920 COLLEGE ST", "amenity": "post_box", "collection_times": "Mo-Fr 12:00; Sa 11:30", "indoor": "yes", "nsi_id": "unitedstatespostalservice-a77078", "operator": "United States Postal Service", "operator:short": "USPS", "operator:type": "public", "operator:wikidata": "Q668687", "ref": "3595200002"}, "type": "Feature"}
{"geometry": {"coordinates": [-86.324166747, 34.027590338], "type": "Point"}, "id": "tVrCVsJCMCbOIBGHkf2I_KyVj0Q=", "properties": {"@source_uri": "https://tools.usps.com/UspsToolsRestServices/rest/POLocator/findLocations", "@spider": "usps_collection_boxes", "addr:city": "ALTOONA", "addr:country": "US", "addr:postcode": "35952", "addr:state": "AL", "addr:street_address": "2920 COLLEGE ST", "amenity": "post_box", "collection_times": "Mo-Fr 16:30; Sa 12:00", "indoor": "yes", "note": "ON 12/24 AND 12/31, THIS BOX MAY BE COLLECTED AS EARLY AS 12 NOON.", "nsi_id": "unitedstatespostalservice-a77078", "operator": "United States Postal Service", "operator:short": "USPS", "operator:type": "public", "operator:wikidata": "Q668687", "ref": "3595200004"}, "type": "Feature"}
{"geometry": {"coordinates": [-86.26263, 33.840207], "type": "Point"}, "id": "uDXlvF5lBXvwNeHBuoicoVqsA-8=", "properties": {"@source_uri": "https://tools.usps.com/UspsToolsRestServices/rest/POLocator/findLocations", "@spider": "usps_collection_boxes", "addr:city": "ASHVILLE", "addr:country": "US", "addr:postcode": "35953", "addr:state": "AL", "addr:street_address": "35330 US HIGHWAY 231", "amenity": "post_box", "collection_times": "Mo-Fr 13:00; Sa 10:15", "note": "ON 12/24 AND 12/31, THIS BOX MAY BE COLLECTED AS EARLY AS 12 NOON.", "nsi_id": "unitedstatespostalservice-a77078", "operator": "United States Postal Service", "operator:short": "USPS", "operator:type": "public", "operator:wikidata": "Q668687", "ref": "3595300001"}, "type": "Feature"}
{"geometry": {"coordinates": [-86.2653519, 33.842554], "type": "Point"}, "id": "22HgCWMxRgsxLwqJ-hjzsW4m734=", "properties": {"@source_uri": "https://tools.usps.com/UspsToolsRestServices/rest/POLocator/findLocations", "@spider": "usps_collection_boxes", "addr:city": "ASHVILLE", "addr:country": "US", "addr:postcode": "35953", "addr:state": "AL", "addr:street_address": "35330 US HIGHWAY 231", "amenity": "post_box", "collection_times": "Mo-Fr 13:00; Sa 10:00", "indoor": "yes", "note": "ON 12/24 AND 12/31, THIS BOX MAY BE COLLECTED AS EARLY AS 12 NOON.", "nsi_id": "unitedstatespostalservice-a77078", "operator": "United States Postal Service", "operator:short": "USPS", "operator:type": "public", "operator:wikidata": "Q668687", "ref": "3595300002"}, "type": "Feature"}
{"geometry": {"coordinates": [-86.262643105, 33.840255474], "type": "Point"}, "id": "XwMoGdN3VLVHNX1EX6FVsznlTAQ=", "properties": {"@source_uri": "https://tools.usps.com/UspsToolsRestServices/rest/POLocator/findLocations", "@spider": "usps_collection_boxes", "addr:city": "ASHVILLE", "addr:country": "US", "addr:postcode": "35953", "addr:state": "AL", "addr:street_address": "35330 US HIGHWAY 231", "amenity": "post_box", "collection_times": "Mo-Fr 16:00; Sa 11:00", "indoor": "yes", "note": "ON 12/24 AND 12/31, THIS BOX MAY BE COLLECTED AS EARLY AS 12 NOON.", "nsi_id": "unitedstatespostalservice-a77078", "operator": "United States Postal Service", "operator:short": "USPS", "operator:type": "public", "operator:wikidata": "Q668687", "ref": "3595300005"}, "type": "Feature"}
{"geometry": {"coordinates": [-86.090265, 34.022167], "type": "Point"}, "id": "THdKjVf0kEb6fGLknw8dXu2_gQM=", "properties": {"@source_uri": "https://tools.usps.com/UspsToolsRestServices/rest/POLocator/findLocations", "@spider": "usps_collection_boxes", "addr:city": "ATTALLA", "addr:country": "US", "addr:postcode": "35954", "addr:state": "AL", "addr:street_address": "401 4TH ST NW", "amenity": "post_box", "collection_times": "Mo-Fr 16:30; Sa 11:30", "note": "ON 12/24 AND 12/31, THIS BOX MAY BE COLLECTED AS EARLY AS 12 NOON.", "nsi_id": "unitedstatespostalservice-a77078", "operator": "United States Postal Service", "operator:short": "USPS", "operator:type": "public", "operator:wikidata": "Q668687", "ref": "3595400000"}, "type": "Feature"}
{"geometry": {"coordinates": [-86.090265, 34.022167], "type": "Point"}, "id": "TR4rXcyMw5XS75ZMgEyB4q_f9uI=", "properties": {"@source_uri": "https://tools.usps.com/UspsToolsRestServices/rest/POLocator/findLocations", "@spider": "usps_collection_boxes", "addr:city": "ATTALLA", "addr:country": "US", "addr:postcode": "35954", "addr:state": "AL", "addr:street_address": "401 4TH ST NW", "amenity": "post_box", "collection_times": "Mo-Fr 16:30; Sa 11:30", "note": "ON 12/24 AND 12/31, THIS BOX MAY BE COLLECTED AS EARLY AS 12 NOON.", "nsi_id": "unitedstatespostalservice-a77078", "operator": "United States Postal Service", "operator:short": "USPS", "operator:type": "public", "operator:wikidata": "Q668687", "ref": "3595400001"}, "type": "Feature"}
{"geometry": {"coordinates": [-86.090265, 34.022167], "type": "Point"}, "id": "3XbVnpTovtdxCCFM6HrNrVbgEzo=", "properties": {"@source_uri": "https://tools.usps.com/UspsToolsRestServices/rest/POLocator/findLocations", "@spider": "usps_collection_boxes", "addr:city": "ATTALLA", "addr:country": "US", "addr:postcode": "35954", "addr:state": "AL", "addr:street_address": "401 4TH ST NW", "amenity": "post_box", "collection_times": "Mo-Fr 16:30; Sa 11:30", "indoor": "yes", "note": "ON 12/24 AND 12/31, THIS BOX MAY BE COLLECTED AS EARLY AS 12 NOON.", "nsi_id": "unitedstatespostalservice-a77078", "operator": "United States Postal Service", "operator:short": "USPS", "operator:type": "public", "operator:wikidata": "Q668687", "ref": "3595400010"}, "type": "Feature"}
{"geometry": {"coordinates": [-86.090265578, 34.02216106], "type": "Point"}, "id": "eluEs4NwpMZUTQTL0rfIieFcM9c=", "properties": {"@source_uri": "https://tools.usps.com/UspsToolsRestServices/rest/POLocator/findLocations", "@spider": "usps_collection_boxes", "addr:city": "ATTALLA", "addr:country": "US", "addr:postcode": "35954", "addr:state": "AL", "addr:street_address": "401 4TH ST NW", "amenity": "post_box", "collection_times": "Mo-Fr 16:30; Sa 11:30", "indoor": "yes", "note": "ON 12/24 AND 12/31, THIS BOX MAY BE COLLECTED AS EARLY AS 12 NOON.", "nsi_id": "unitedstatespostalservice-a77078", "operator": "United States Postal Service", "operator:short": "USPS", "operator:type": "public", "operator:wikidata": "Q668687", "ref": "3595400013"}, "type": "Feature"}
{"geometry": {"coordinates": [-86.1659059, 34.199146], "type": "Point"}, "id": "zRbBL5m3HX4K6-ycnAEjKHEkjOQ=", "properties": {"@source_uri": "https://tools.usps.com/UspsToolsRestServices/rest/POLocator/findLocations", "@spider": "usps_collection_boxes", "addr:city": "BOAZ", "addr:country": "US", "addr:postcode": "35957", "addr:state": "AL", "addr:street_address": "112 N BROAD ST", "amenity": "post_box", "collection_times": "Mo-Sa 10:00", "nsi_id": "unitedstatespostalservice-a77078", "operator": "United States Postal Service", "operator:short": "USPS", "operator:type": "public", "operator:wikidata": "Q668687", "ref": "3595700000"}, "type": "Feature"}
{"geometry": {"coordinates": [-86.152361, 34.195205], "type": "Point"}, "id": "idJ7r9BdqtEinr-b__Rci3eqT4c=", "properties": {"@source_uri": "https://tools.usps.com/UspsToolsRestServices/rest/POLocator/findLocations", "@spider": "usps_collection_boxes", "addr:city": "BOAZ", "addr:country": "US", "addr:postcode": "35957", "addr:state": "AL", "addr:street_address": "109 S SNEAD ST", "amenity": "post_box", "collection_times": "Mo-Sa 15:45", "note": "ON 12/24 AND 12/31, THIS BOX MAY BE COLLECTED AS EARLY AS 12 NOON.", "nsi_id": "unitedstatespostalservice-a77078", "operator": "United States Postal Service", "operator:short": "USPS", "operator:type": "public", "operator:wikidata": "Q668687", "ref": "3595700012"}, "type": "Feature"}
{"geometry": {"coordinates": [-86.152361, 34.195205], "type": "Point"}, "id": "PnNDNlkM9ph15E4lQeS7lCwfZEY=", "properties": {"@source_uri": "https://tools.usps.com/UspsToolsRestServices/rest/POLocator/findLocations", "@spider": "usps_collection_boxes", "addr:city": "BOAZ", "addr:country": "US", "addr:postcode": "35957", "addr:state": "AL", "addr:street_address": "109 S SNEAD ST", "amenity": "post_box", "collection_times": "Mo-Sa 15:45", "note": "ON 12/24 AND 12/31, THIS BOX MAY BE COLLECTED AS EARLY AS 12 NOON.", "nsi_id": "unitedstatespostalservice-a77078", "operator": "United States Postal Service", "operator:short": "USPS", "operator:type": "public", "operator:wikidata": "Q668687", "ref": "3595700013"}, "type": "Feature"}
{"geometry": {"coordinates": [-86.152361, 34.195205], "type": "Point"}, "id": "sLZw4hv0j1Y1bKNAOVvX_ft-sKA=", "properties": {"@source_uri": "https://tools.usps.com/UspsToolsRestServices/rest/POLocator/findLocations", "@spider": "usps_collection_boxes", "addr:city": "BOAZ", "addr:country": "US", "addr:postcode": "35957", "addr:state": "AL", "addr:street_address": "109 S SNEAD ST", "amenity": "post_box", "collection_times": "Mo-Sa 15:45", "indoor": "yes", "note": "ON 12/24 AND 12/31, THIS BOX MAY BE COLLECTED AS EARLY AS 12 NOON.", "nsi_id": "unitedstatespostalservice-a77078", "operator": "United States Postal Service", "operator:short": "USPS", "operator:type": "public", "operator:wikidata": "Q668687", "ref": "3595700015"}, "type": "Feature"}
{"geometry": {"coordinates": [-86.152420156, 34.195223109], "type": "Point"}, "id": "vD72pPAbuuzWIaiCCbIvC2rUbRw=", "properties": {"@source_uri": "https://tools.usps.com/UspsToolsRestServices/rest/POLocator/findLocations", "@spider": "usps_collection_boxes", "addr:city": "BOAZ", "addr:country": "US", "addr:postcode": "35957", "addr:state": "AL", "addr:street_address": "109 S SNEAD ST", "amenity": "post_box", "collection_times": "Mo-Fr 16:30; Sa 11:00", "indoor": "yes", "note": "ON 12/24 AND 12/31, THIS BOX MAY BE COLLECTED AS EARLY AS 12 NOON.", "nsi_id": "unitedstatespostalservice-a77078", "operator": "United States Postal Service", "operator:short": "USPS", "operator:type": "public", "operator:wikidata": "Q668687", "ref": "3595700018"}, "type": "Feature"}
{"geometry": {"coordinates": [-85.627332, 34.935552], "type": "Point"}, "id": "XMTiUDd1373Pa4-mSD1T8dI4Www=", "properties": {"@source_uri": "https://tools.usps.com/UspsToolsRestServices/rest/POLocator/findLocations", "@spider": "usps_collection_boxes", "addr:city": "BRYANT", "addr:country": "US", "addr:postcode": "35958", "addr:state": "AL", "addr:street_address": "6366 AL HIGHWAY 73", "amenity": "post_box", "collection_times": "Mo-Fr 15:30; Sa 10:30", "note": "ON 12/24 AND 12/31, THIS BOX MAY BE COLLECTED AS EARLY AS 12 NOON.", "nsi_id": "unitedstatespostalservice-a77078", "operator": "United States Postal Service", "operator:short": "USPS", "operator:type": "public", "operator:wikidata": "Q668687", "ref": "3595800000"}, "type": "Feature"}
{"geometry": {"coordinates": [-85.627332, 34.935552], "type": "Point"}, "id": "PWVBvh7TWyXRmwjfl-VzbUpYBH0=", "properties": {"@source_uri": "https://tools.usps.com/UspsToolsRestServices/rest/POLocator/findLocations", "@spider": "usps_collection_boxes", "addr:city": "BRYANT", "addr:country": "US", "addr:postcode": "35958", "addr:state": "AL", "addr:street_address": "6366 AL HIGHWAY 73", "amenity": "post_box", "collection_times": "Mo-Fr 15:30; Sa 10:30", "indoor": "yes", "note": "ON 12/24 AND 12/31, THIS BOX MAY BE COLLECTED AS EARLY AS 12 NOON.", "nsi_id": "unitedstatespostalservice-a77078", "operator": "United States Postal Service", "operator:short": "USPS", "operator:type": "public", "operator:wikidata": "Q668687", "ref": "3595800001"}, "type": "Feature"}
{"geometry": {"coordinates": [-85.6138581, 34.857625], "type": "Point"}, "id": "Qzkc8MRYNI0q5Jf83460OV0ZLdI=", "properties": {"@source_uri": "https://tools.usps.com/UspsToolsRestServices/rest/POLocator/findLocations", "@spider": "usps_collection_boxes", "addr:city": "BRYANT", "addr:country": "US", "addr:postcode": "35958", "addr:state": "AL", "addr:street_address": "30255 AL HIGHWAY 71", "amenity": "post_box", "collection_times": "Mo-Sa 12:00", "nsi_id": "unitedstatespostalservice-a77078", "operator": "United States Postal Service", "operator:short": "USPS", "operator:type": "public", "operator:wikidata": "Q668687", "ref": "3595800004"}, "type": "Feature"}
{"geometry": {"coordinates": [-85.627295609, 34.935551897], "type": "Point"}, "id": "y25aLFN9wixFjJqtcYI-89c8J5Y=", "properties": {"@source_uri": "https://tools.usps.com/UspsToolsRestServices/rest/POLocator/findLocations", "@spider": "usps_collection_boxes", "addr:city": "BRYANT", "addr:country": "US", "addr:postcode": "35958", "addr:state": "AL", "addr:street_address": "6366 AL HIGHWAY 73", "amenity": "post_box", "collection_times": "Mo-Fr 15:30; Sa 10:30", "indoor": "yes", "note": "ON 12/24 AND 12/31, THIS BOX MAY BE COLLECTED AS EARLY AS 12 NOON.", "nsi_id": "unitedstatespostalservice-a77078", "operator": "United States Postal Service", "operator:short": "USPS", "operator:type": "public", "operator:wikidata": "Q668687", "ref": "3595800005"}, "type": "Feature"}
{"geometry": {"coordinates": [-85.609751, 34.219605], "type": "Point"}, "id": "AXdesJcKqNgKqA0Ywix2NobrxQ8=", "properties": {"@source_uri": "https://tools.usps.com/UspsToolsRestServices/rest/POLocator/findLocations", "@spider": "usps_collection_boxes", "addr:city": "CEDAR BLUFF", "addr:country": "US", "addr:postcode": "35959", "addr:state": "AL", "addr:street_address": "3390 GROVE ST", "amenity": "post_box", "collection_times": "Mo-Fr 16:00; Sa 10:30", "note": "ON 12/24 AND 12/31, THIS BOX MAY BE COLLECTED AS EARLY AS 12 NOON.", "nsi_id": "unitedstatespostalservice-a77078", "operator": "United States Postal Service", "operator:short": "USPS", "operator:type": "public", "operator:wikidata": "Q668687", "ref": "3595900000"}, "type": "Feature"}
{"geometry": {"coordinates": [-85.609751, 34.219605], "type": "Point"}, "id": "3zyB68DUtFd33otg_6mcvf9Kud8=", "properties": {"@source_uri": "https://tools.usps.com/UspsToolsRestServices/rest/POLocator/findLocations", "@spider": "usps_collection_boxes", "addr:city": "CEDAR BLUFF", "addr:country": "US", "addr:postcode": "35959", "addr:state": "AL", "addr:street_address": "3390 GROVE ST", "amenity": "post_box", "collection_times": "Mo-Fr 16:00; Sa 10:30", "indoor": "yes", "note": "ON 12/24 AND 12/31, THIS BOX MAY BE COLLECTED AS EARLY AS 12 NOON.", "nsi_id": "unitedstatespostalservice-a77078", "operator": "United States Postal Service", "operator:short": "USPS", "operator:type": "public", "operator:wikidata": "Q668687", "ref": "3595900001"}, "type": "Feature"}
{"geometry": {"coordinates": [-85.609719197, 34.219639256], "type": "Point"}, "id": "QWWI8CmRR1LWC-DBK_Ug6-1TJEA=", "properties": {"@source_uri": "https://tools.usps.com/UspsToolsRestServices/rest/POLocator/findLocations", "@spider": "usps_collection_boxes", "addr:city": "CEDAR BLUFF", "addr:country": "US", "addr:postcode": "35959", "addr:state": "AL", "addr:street_address": "3390 GROVE ST", "amenity": "post_box", "collection_times": "Mo-Fr 16:00; Sa 10:30", "indoor": "yes", "note": "ON 12/24 AND 12/31, THIS BOX MAY BE COLLECTED AS EARLY AS 12 NOON.", "nsi_id": "unitedstatespostalservice-a77078", "operator": "United States Postal Service", "operator:short": "USPS", "operator:type": "public", "operator:wikidata": "Q668687", "ref": "3595900003"}, "type": "Feature"}
{"geometry": {"coordinates": [-85.688049773, 34.154506283], "type": "Point"}, "id": "r67tUopZua9UKB9qaPlEBWOZl2Y=", "properties": {"@source_uri": "https://tools.usps.com/UspsToolsRestServices/rest/POLocator/findLocations", "@spider": "usps_collection_boxes", "addr:city": "CENTRE", "addr:country": "US", "addr:postcode": "35960", "addr:state": "AL", "addr:street_address": "850 W MAIN ST", "amenity": "post_box", "collection_times": "Mo-Sa 15:00", "note": "ON 12/24 AND 12/31, THIS BOX MAY BE COLLECTED AS EARLY AS 12 NOON.", "nsi_id": "unitedstatespostalservice-a77078", "operator": "United States Postal Service", "operator:short": "USPS", "operator:type": "public", "operator:wikidata": "Q668687", "ref": "3596000000"}, "type": "Feature"}
{"geometry": {"coordinates": [-85.6668849, 34.160646], "type": "Point"}, "id": "pmb2DUvxKr_EYhUGCO_-teBw7pY=", "properties": {"@source_uri": "https://tools.usps.com/UspsToolsRestServices/rest/POLocator/findLocations", "@spider": "usps_collection_boxes", "addr:city": "CENTRE", "addr:country": "US", "addr:postcode": "35960", "addr:state": "AL", "addr:street_address": "775 CHEROKEE PLZ", "amenity": "post_box", "collection_times": "Mo-Sa 12:00", "nsi_id": "unitedstatespostalservice-a77078", "operator": "United States Postal Service", "operator:short": "USPS", "operator:type": "public", "operator:wikidata": "Q668687", "ref": "3596000002"}, "type": "Feature"}
{"geometry": {"coordinates": [-85.6792239, 34.15216], "type": "Point"}, "id": "UIoZk-IpWf-K0qUjEFUmQoXZ0rg=", "properties": {"@source_uri": "https://tools.usps.com/UspsToolsRestServices/rest/POLocator/findLocations", "@spider": "usps_collection_boxes", "addr:city": "CENTRE", "addr:country": "US", "addr:postcode": "35960", "addr:state": "AL", "addr:street_address": "100 MAIN ST", "amenity": "post_box", "collection_times": "Mo-Fr 13:30; Sa 13:00", "note": "ON 12/24 AND 12/31, THIS BOX MAY BE COLLECTED AS EARLY AS 12 NOON.", "nsi_id": "unitedstatespostalservice-a77078", "operator": "United States Postal Service", "operator:short": "USPS", "operator:type": "public", "operator:wikidata": "Q668687", "ref": "3596000003"}, "type": "Feature"}
{"geometry": {"coordinates": [-85.688059, 34.154468], "type": "Point"}, "id": "DGFvgwCmHgGGsFyh94mUYFLUAPc=", "properties": {"@source_uri": "https://tools.usps.com/UspsToolsRestServices/rest/POLocator/findLocations", "@spider": "usps_collection_boxes", "addr:city": "CENTRE", "addr:country": "US", "addr:postcode": "35960", "addr:state": "AL", "addr:street_address": "850 W MAIN ST", "amenity": "post_box", "collection_times": "Mo-Sa 15:00", "indoor": "yes", "note": "ON 12/24 AND 12/31, THIS BOX MAY BE COLLECTED AS EARLY AS 12 NOON.", "nsi_id": "unitedstatespostalservice-a77078", "operator": "United States Postal Service", "operator:short": "USPS", "operator:type": "public", "operator:wikidata": "Q668687", "ref": "3596000004"}, "type": "Feature"}
{"geometry": {"coordinates": [-85.6771109, 34.153954], "type": "Point"}, "id": "fcbiSLCF9PkeINHMNvSQHy4CJug=", "properties": {"@source_uri": "https://tools.usps.com/UspsToolsRestServices/rest/POLocator/findLocations", "@spider": "usps_collection_boxes", "addr:city": "CENTRE", "addr:country": "US", "addr:postcode": "35960", "addr:state": "AL", "addr:street_address": "260 CEDAR BLUFF RD", "amenity": "post_box", "collection_times": "Mo-Fr 14:00; Sa 13:00", "note": "ON 12/24 AND 12/31, THIS BOX MAY BE COLLECTED AS EARLY AS 12 NOON.", "nsi_id": "unitedstatespostalservice-a77078", "operator": "United States Postal Service", "operator:short": "USPS", "operator:type": "public", "operator:wikidata": "Q668687", "ref": "3596000005"}, "type": "Feature"}
{"geometry": {"coordinates": [-85.688051953, 34.154496014], "type": "Point"}, "id": "b0RyiqrSJLulMtn5UTmmiUkzzZI=", "properties": {"@source_uri": "https://tools.usps.com/UspsToolsRestServices/rest/POLocator/findLocations", "@spider": "usps_collection_boxes", "addr:city": "CENTRE", "addr:country": "US", "addr:postcode": "35960", "addr:state": "AL", "addr:street_address": "850 W MAIN ST", "amenity": "post_box", "collection_times": "Mo-Fr 16:30; Sa 10:30", "indoor": "yes", "note": "ON 12/24 AND 12/31, THIS BOX MAY BE COLLECTED AS EARLY AS 12 NOON.", "nsi_id": "unitedstatespostalservice-a77078", "operator": "United States Postal Service", "operator:short": "USPS", "operator:type": "public", "operator:wikidata": "Q668687", "ref": "3596000009"}, "type": "Feature"}
{"geometry": {"coordinates": [-85.861007, 34.264592], "type": "Point"}, "id": "O_CRC09so9XH0Y5J6IifvAPAmPQ=", "properties": {"@source_uri": "https://tools.usps.com/UspsToolsRestServices/rest/POLocator/findLocations", "@spider": "usps_collection_boxes", "addr:city": "COLLINSVILLE", "addr:country": "US", "addr:postcode": "35961", "addr:state": "AL", "addr:street_address": "10 POST OFFICE ST", "amenity": "post_box", "collection_times": "Mo-Fr 12:00; Sa 10:00", "nsi_id": "unitedstatespostalservice-a77078", "operator": "United States Postal Service", "operator:short": "USPS", "operator:type": "public", "operator:wikidata": "Q668687", "ref": "3596100000"}, "type": "Feature"}
{"geometry": {"coordinates": [-85.861007, 34.264592], "type": "Point"}, "id": "DmGJtDyA_TWAbtELFUkvQdxo2-8=", "properties": {"@source_uri": "https://tools.usps.com/UspsToolsRestServices/rest/POLocator/findLocations", "@spider": "usps_collection_boxes", "addr:city": "COLLINSVILLE", "addr:country": "US", "addr:postcode": "35961", "addr:state": "AL", "addr:street_address": "10 POST OFFICE ST", "amenity": "post_box", "collection_times": "Mo-Fr 12:00; Sa 10:00", "indoor": "yes", "nsi_id": "unitedstatespostalservice-a77078", "operator": "United States Postal Service", "operator:short": "USPS", "operator:type": "public", "operator:wikidata": "Q668687", "ref": "3596100001"}, "type": "Feature"}
{"geometry": {"coordinates": [-85.861578894, 34.264933986], "type": "Point"}, "id": "rvSrgMoDJ0J1DS759ldmaPpeFlY=", "properties": {"@source_uri": "https://tools.usps.com/UspsToolsRestServices/rest/POLocator/findLocations", "@spider": "usps_collection_boxes", "addr:city": "COLLINSVILLE", "addr:country": "US", "addr:postcode": "35961", "addr:state": "AL", "addr:street_address": "10 POST OFFICE ST", "amenity": "post_box", "collection_times": "Mo-Fr 16:30; Sa 10:00", "indoor": "yes", "note": "ON 12/24 AND 12/31, THIS BOX MAY BE COLLECTED AS EARLY AS 12 NOON.", "nsi_id": "unitedstatespostalservice-a77078", "operator": "United States Postal Service", "operator:short": "USPS", "operator:type": "public", "operator:wikidata": "Q668687", "ref": "3596100003"}, "type": "Feature"}
{"geometry": {"coordinates": [-85.98101, 34.286938], "type": "Point"}, "id": "_ReitcC2mOc_ge8FkjFoW0Gckeo=", "properties": {"@source_uri": "https://tools.usps.com/UspsToolsRestServices/rest/POLocator/findLocations", "@spider": "usps_collection_boxes", "addr:city": "CROSSVILLE", "addr:country": "US", "addr:postcode": "35962", "addr:state": "AL", "addr:street_address": "13856 AL HIGHWAY 68", "amenity": "post_box", "collection_times": "Mo-Fr 15:45; Sa 10:30", "note": "ON 12/24 AND 12/31, THIS BOX MAY BE COLLECTED AS EARLY AS 12 NOON.", "nsi_id": "unitedstatespostalservice-a77078", "operator": "United States Postal Service", "operator:short": "USPS", "operator:type": "public", "operator:wikidata": "Q668687", "ref": "3596200000"}, "type": "Feature"}
{"geometry": {"coordinates": [-85.98101, 34.286938], "type": "Point"}, "id": "2GKVzHG7EjfsRJVTqaHj2PPPSt8=", "properties": {"@source_uri": "https://tools.usps.com/UspsToolsRestServices/rest/POLocator/findLocations", "@spider": "usps_collection_boxes", "addr:city": "CROSSVILLE", "addr:country": "US", "addr:postcode": "35962", "addr:state": "AL", "addr:street_address": "13856 AL HIGHWAY 68", "amenity": "post_box", "collection_times": "Mo-Fr 16:00; Sa 10:30", "indoor": "yes", "note": "ON 12/24 AND 12/31, THIS BOX MAY BE COLLECTED AS EARLY AS 12 NOON.", "nsi_id": "unitedstatespostalservice-a77078", "operator": "United States Postal Service", "operator:short": "USPS", "operator:type": "public", "operator:wikidata": "Q668687", "ref": "3596200001"}, "type": "Feature"}
{"geometry": {"coordinates": [-85.9810041235, 34.2869731951], "type": "Point"}, "id": "HBIzXl7POwv-UsBw63BAM8a7eD8=", "properties": {"@source_uri": "https://tools.usps.com/UspsToolsRestServices/rest/POLocator/findLocations", "@spider": "usps_collection_boxes", "addr:city": "CROSSVILLE", "addr:country": "US", "addr:postcode": "35962", "addr:state": "AL", "addr:street_address": "13856 AL HIGHWAY 68", "amenity": "post_box", "collection_times": "Mo-Fr 16:00; Sa 10:30", "indoor": "yes", "note": "ON 12/24 AND 12/31, THIS BOX MAY BE COLLECTED AS EARLY AS 12 NOON.", "nsi_id": "unitedstatespostalservice-a77078", "operator": "United States Postal Service", "operator:short": "USPS", "operator:type": "public", "operator:wikidata": "Q668687", "ref": "3596200004"}, "type": "Feature"}
{"geometry": {"coordinates": [-85.9025970201, 34.3522844269], "type": "Point"}, "id": "W--5aI6pAV1SyPOCX5VOeoUDLcY=", "properties": {"@source_uri": "https://tools.usps.com/UspsToolsRestServices/rest/POLocator/findLocations", "@spider": "usps_collection_boxes", "addr:city": "DAWSON", "addr:country": "US", "addr:postcode": "35963", "addr:state": "AL", "addr:street_address": "59 COUNTY ROAD 57", "amenity": "post_box", "collection_times": "Mo-Fr 12:00; Sa 10:00", "nsi_id": "unitedstatespostalservice-a77078", "operator": "United States Postal Service", "operator:short": "USPS", "operator:type": "public", "operator:wikidata": "Q668687", "ref": "3596300000"}, "type": "Feature"}
{"geometry": {"coordinates": [-85.902568, 34.352027], "type": "Point"}, "id": "_wiVGw1gRhk9hoBivyEhjn3Raz4=", "properties": {"@source_uri": "https://tools.usps.com/UspsToolsRestServices/rest/POLocator/findLocations", "@spider": "usps_collection_boxes", "addr:city": "DAWSON", "addr:country": "US", "addr:postcode": "35963", "addr:state": "AL", "addr:street_address": "59 COUNTY ROAD 57", "amenity": "post_box", "collection_times": "Mo-Fr 12:00; Sa 10:00", "indoor": "yes", "nsi_id": "unitedstatespostalservice-a77078", "operator": "United States Postal Service", "operator:short": "USPS", "operator:type": "public", "operator:wikidata": "Q668687", "ref": "3596300001"}, "type": "Feature"}
{"geometry": {"coordinates": [-85.902599152, 34.352032917], "type": "Point"}, "id": "9oVgpkVl8xvR2TmgKjjQuYicP9s=", "properties": {"@source_uri": "https://tools.usps.com/UspsToolsRestServices/rest/POLocator/findLocations", "@spider": "usps_collection_boxes", "addr:city": "DAWSON", "addr:country": "US", "addr:postcode": "35963", "addr:state": "AL", "addr:street_address": "59 COUNTY ROAD 57", "amenity": "post_box", "collection_times": "Mo-Fr 12:00; Sa 10:00", "indoor": "yes", "nsi_id": "unitedstatespostalservice-a77078", "operator": "United States Postal Service", "operator:short": "USPS", "operator:type": "public", "operator:wikidata": "Q668687", "ref": "3596300003"}, "type": "Feature"}
{"geometry": {"coordinates": [-86.329168, 34.170747], "type": "Point"}, "id": "1Qs_akoQJeUHrHB36XUiSQdzf9E=", "properties": {"@source_uri": "https://tools.usps.com/UspsToolsRestServices/rest/POLocator/findLocations", "@spider": "usps_collection_boxes", "addr:city": "DOUGLAS", "addr:country": "US", "addr:postcode": "35964", "addr:state": "AL", "addr:street_address": "9365 AL HIGHWAY 75", "amenity": "post_box", "collection_times": "Mo-Fr 11:30; Sa 10:30", "nsi_id": "unitedstatespostalservice-a77078", "operator": "United States Postal Service", "operator:short": "USPS", "operator:type": "public", "operator:wikidata": "Q668687", "ref": "3596400000"}, "type": "Feature"}
{"geometry": {"coordinates": [-86.329151, 34.170788], "type": "Point"}, "id": "JHuDnYq4Eqij8zKtlhTnWjpHTbk=", "properties": {"@source_uri": "https://tools.usps.com/UspsToolsRestServices/rest/POLocator/findLocations", "@spider": "usps_collection_boxes", "addr:city": "DOUGLAS", "addr:country": "US", "addr:postcode": "35964", "addr:state": "AL", "addr:street_address": "9365 AL HIGHWAY 75", "amenity": "post_box", "collection_times": "Mo-Fr 11:30; Sa 10:30", "indoor": "yes", "nsi_id": "unitedstatespostalservice-a77078", "operator": "United States Postal Service", "operator:short": "USPS", "operator:type": "public", "operator:wikidata": "Q668687", "ref": "3596400001"}, "type": "Feature"}
{"geometry": {"coordinates": [-86.32981782, 34.170354913], "type": "Point"}, "id": "o-XXhDzxIERi6_z6fcx9rPuPHws=", "properties": {"@source_uri": "https://tools.usps.com/UspsToolsRestServices/rest/POLocator/findLocations", "@spider": "usps_collection_boxes", "addr:city": "DOUGLAS", "addr:country": "US", "addr:postcode": "35964", "addr:state": "AL", "addr:street_address": "9365 AL HIGHWAY 75", "amenity": "post_box", "collection_times": "Mo-Fr 12:00; Sa 10:30", "indoor": "yes", "nsi_id": "unitedstatespostalservice-a77078", "operator": "United States Postal Service", "operator:short": "USPS", "operator:type": "public", "operator:wikidata": "Q668687", "ref": "3596400002"}, "type": "Feature"}
{"geometry": {"coordinates": [-85.704271, 34.767536], "type": "Point"}, "id": "EyDU_m8mQXg6uQJqupp103xe954=", "properties": {"@source_uri": "https://tools.usps.com/UspsToolsRestServices/rest/POLocator/findLocations", "@spider": "usps_collection_boxes", "addr:city": "FLAT ROCK", "addr:country": "US", "addr:postcode": "35966", "addr:state": "AL", "addr:street_address": "21447 AL HIGHWAY 71", "amenity": "post_box", "collection_times": "Mo-Fr 14:30; Sa 10:00", "note": "ON 12/24 AND 12/31, THIS BOX MAY BE COLLECTED AS EARLY AS 12 NOON.", "nsi_id": "unitedstatespostalservice-a77078", "operator": "United States Postal Service", "operator:short": "USPS", "operator:type": "public", "operator:wikidata": "Q668687", "ref": "3596600000"}, "type": "Feature"}
{"geometry": {"coordinates": [-85.704271, 34.767536], "type": "Point"}, "id": "eW9cV98JSL16pg9BjJBhaCYI5Jo=", "properties": {"@source_uri": "https://tools.usps.com/UspsToolsRestServices/rest/POLocator/findLocations", "@spider": "usps_collection_boxes", "addr:city": "FLAT ROCK", "addr:country": "US", "addr:postcode": "35966", "addr:state": "AL", "addr:street_address": "21447 AL HIGHWAY 71", "amenity": "post_box", "collection_times": "Mo-Fr 14:30; Sa 10:00", "indoor": "yes", "note": "ON 12/24 AND 12/31, THIS BOX MAY BE COLLECTED AS EARLY AS 12 NOON.", "nsi_id": "unitedstatespostalservice-a77078", "operator": "United States Postal Service", "operator:short": "USPS", "operator:type": "public", "operator:wikidata": "Q668687", "ref": "3596600001"}, "type": "Feature"}
{"geometry": {"coordinates": [-85.704255391, 34.767571373], "type": "Point"}, "id": "bfi7OtbWJrcusPqMH9p3qMBrw1I=", "properties": {"@source_uri": "https://tools.usps.com/UspsToolsRestServices/rest/POLocator/findLocations", "@spider": "usps_collection_boxes", "addr:city": "FLAT ROCK", "addr:country": "US", "addr:postcode": "35966", "addr:state": "AL", "addr:street_address": "21447 AL HIGHWAY 71", "amenity": "post_box", "collection_times": "Mo-Fr 14:30; Sa 10:00", "indoor": "yes", "note": "ON 12/24 AND 12/31, THIS BOX MAY BE COLLECTED AS EARLY AS 12 NOON.", "nsi_id": "unitedstatespostalservice-a77078", "operator": "United States Postal Service", "operator:short": "USPS", "operator:type": "public", "operator:wikidata": "Q668687", "ref": "3596600003"}, "type": "Feature"}
{"geometry": {"coordinates": [-85.7191512242, 34.4390254975], "type": "Point"}, "id": "KhWjAUxo_WLdqss9dgw51WoZu5A=", "properties": {"@source_uri": "https://tools.usps.com/UspsToolsRestServices/rest/POLocator/findLocations", "@spider": "usps_collection_boxes", "addr:city": "FORT PAYNE", "addr:country": "US", "addr:postcode": "35967", "addr:state": "AL", "addr:street_address": "301 1ST ST E", "amenity": "post_box", "collection_times": "Mo-Fr 16:45; Sa 16:15", "note": "ON 12/24 AND 12/31, THIS BOX MAY BE COLLECTED AS EARLY AS 12 NOON.", "nsi_id": "unitedstatespostalservice-a77078", "operator": "United States Postal Service", "operator:short": "USPS", "operator:type": "public", "operator:wikidata": "Q668687", "ref": "3596700000"}, "type": "Feature"}
{"geometry": {"coordinates": [-85.7253066, 34.440015], "type": "Point"}, "id": "QR0y4FfzK_MpdvcOWg57LeBLgBo=", "properties": {"@source_uri": "https://tools.usps.com/UspsToolsRestServices/rest/POLocator/findLocations", "@spider": "usps_collection_boxes", "addr:city": "FORT PAYNE", "addr:country": "US", "addr:postcode": "35967", "addr:state": "AL", "addr:street_address": "300 GRAND AVE SW", "amenity": "post_box", "collection_times": "Mo-Fr 10:30", "nsi_id": "unitedstatespostalservice-a77078", "operator": "United States Postal Service", "operator:short": "USPS", "operator:type": "public", "operator:wikidata": "Q668687", "ref": "3596700003"}, "type": "Feature"}
{"geometry": {"coordinates": [-85.719251, 34.439055], "type": "Point"}, "id": "H-198yX8u6pWjHE1nu1iBH2TJuo=", "properties": {"@source_uri": "https://tools.usps.com/UspsToolsRestServices/rest/POLocator/findLocations", "@spider": "usps_collection_boxes", "addr:city": "FORT PAYNE", "addr:country": "US", "addr:postcode": "35967", "addr:state": "AL", "addr:street_address": "301 1ST ST E", "amenity": "post_box", "collection_times": "Mo-Fr 16:45; Sa 15:45", "indoor": "yes", "note": "ON 12/24 AND 12/31, THIS BOX MAY BE COLLECTED AS EARLY AS 12 NOON.", "nsi_id": "unitedstatespostalservice-a77078", "operator": "United States Postal Service", "operator:short": "USPS", "operator:type": "public", "operator:wikidata": "Q668687", "ref": "3596700010"}, "type": "Feature"}
{"geometry": {"coordinates": [-85.719251, 34.439055], "type": "Point"}, "id": "Oxaq5jyfzrtxcFKteZIEiJnNXcY=", "properties": {"@source_uri": "https://tools.usps.com/UspsToolsRestServices/rest/POLocator/findLocations", "@spider": "usps_collection_boxes", "addr:city": "FORT PAYNE", "addr:country": "US", "addr:postcode": "35967", "addr:state": "AL", "addr:street_address": "301 1ST ST E", "amenity": "post_box", "collection_times": "Mo-Fr 16:45; Sa 15:45", "indoor": "yes", "note": "ON 12/24 AND 12/31, THIS BOX MAY BE COLLECTED AS EARLY AS 12 NOON.", "nsi_id": "unitedstatespostalservice-a77078", "operator": "United States Postal Service", "operator:short": "USPS", "operator:type": "public", "operator:wikidata": "Q668687", "ref": "3596700011"}, "type": "Feature"}
{"geometry": {"coordinates": [-85.719254143, 34.439086123], "type": "Point"}, "id": "hzXd4EbHSHf2fUTCyAyJR2rVcwk=", "properties": {"@source_uri": "https://tools.usps.com/UspsToolsRestServices/rest/POLocator/findLocations", "@spider": "usps_collection_boxes", "addr:city": "FORT PAYNE", "addr:country": "US", "addr:postcode": "35967", "addr:state": "AL", "addr:street_address": "301 1ST ST E", "amenity": "post_box", "collection_times": "Mo-Fr 16:30; Sa 11:00", "indoor": "yes", "note": "ON 12/24 AND 12/31, THIS BOX MAY BE COLLECTED AS EARLY AS 12 NOON.", "nsi_id": "unitedstatespostalservice-a77078", "operator": "United States Postal Service", "operator:short": "USPS", "operator:type": "public", "operator:wikidata": "Q668687", "ref": "3596700017"}, "type": "Feature"}
{"geometry": {"coordinates": [-85.909638, 34.443218], "type": "Point"}, "id": "EFCGd41RKCOnAEKIDnI00jyEYBM=", "properties": {"@source_uri": "https://tools.usps.com/UspsToolsRestServices/rest/POLocator/findLocations", "@spider": "usps_collection_boxes", "addr:city": "FYFFE", "addr:country": "US", "addr:postcode": "35971", "addr:state": "AL", "addr:street_address": "1357 MAIN ST", "amenity": "post_box", "collection_times": "Mo-Fr 15:45; Sa 10:45", "note": "ON 12/24 AND 12/31, THIS BOX MAY BE COLLECTED AS EARLY AS 12 NOON.", "nsi_id": "unitedstatespostalservice-a77078", "operator": "United States Postal Service", "operator:short": "USPS", "operator:type": "public", "operator:wikidata": "Q668687", "ref": "3597100000"}, "type": "Feature"}
{"geometry": {"coordinates": [-85.909638, 34.443218], "type": "Point"}, "id": "KpdODqTe814eacsGQXXQXjTVcnE=", "properties": {"@source_uri": "https://tools.usps.com/UspsToolsRestServices/rest/POLocator/findLocations", "@spider": "usps_collection_boxes", "addr:city": "FYFFE", "addr:country": "US", "addr:postcode": "35971", "addr:state": "AL", "addr:street_address": "1357 MAIN ST", "amenity": "post_box", "collection_times": "Mo-Fr 15:45; Sa 10:45", "indoor": "yes", "note": "ON 12/24 AND 12/31, THIS BOX MAY BE COLLECTED AS EARLY AS 12 NOON.", "nsi_id": "unitedstatespostalservice-a77078", "operator": "United States Postal Service", "operator:short": "USPS", "operator:type": "public", "operator:wikidata": "Q668687", "ref": "3597100001"}, "type": "Feature"}
{"geometry": {"coordinates": [-85.9068127, 34.44429], "type": "Point"}, "id": "2WQhbPgn25PaLYkk8hN45i59Dbg=", "properties": {"@source_uri": "https://tools.usps.com/UspsToolsRestServices/rest/POLocator/findLocations", "@spider": "usps_collection_boxes", "addr:city": "FYFFE", "addr:country": "US", "addr:postcode": "35971", "addr:state": "AL", "addr:street_address": "44 BLACKWELL ST", "amenity": "post_box", "collection_times": "Mo-Sa 09:30", "nsi_id": "unitedstatespostalservice-a77078", "operator": "United States Postal Service", "operator:short": "USPS", "operator:type": "public", "operator:wikidata": "Q668687", "ref": "3597100003"}, "type": "Feature"}
{"geometry": {"coordinates": [-85.909624107, 34.44318368], "type": "Point"}, "id": "kDJ_vlj1H1TWpMvnWEIrqLybFAo=", "properties": {"@source_uri": "https://tools.usps.com/UspsToolsRestServices/rest/POLocator/findLocations", "@spider": "usps_collection_boxes", "addr:city": "FYFFE", "addr:country": "US", "addr:postcode": "35971", "addr:state": "AL", "addr:street_address": "1357 MAIN ST", "amenity": "post_box", "collection_times": "Mo-Fr 15:45; Sa 10:45", "indoor": "yes", "note": "ON 12/24 AND 12/31, THIS BOX MAY BE COLLECTED AS EARLY AS 12 NOON.", "nsi_id": "unitedstatespostalservice-a77078", "operator": "United States Postal Service", "operator:short": "USPS", "operator:type": "public", "operator:wikidata": "Q668687", "ref": "3597100004"}, "type": "Feature"}
{"geometry": {"coordinates": [-86.247793, 33.997937], "type": "Point"}, "id": "IhN6jJOHu6fp5AQbTfqL5cq11Pc=", "properties": {"@source_uri": "https://tools.usps.com/UspsToolsRestServices/rest/POLocator/findLocations", "@spider": "usps_collection_boxes", "addr:city": "GALLANT", "addr:country": "US", "addr:postcode": "35972", "addr:state": "AL", "addr:street_address": "9125 GALLANT RD", "amenity": "post_box", "collection_times": "Mo-Fr 12:00; Sa 10:00", "nsi_id": "unitedstatespostalservice-a77078", "operator": "United States Postal Service", "operator:short": "USPS", "operator:type": "public", "operator:wikidata": "Q668687", "ref": "3597200000"}, "type": "Feature"}
{"geometry": {"coordinates": [-86.247793, 33.997937], "type": "Point"}, "id": "O3xCFhkD3NPLJvayIAIOcIUgY1k=", "properties": {"@source_uri": "https://tools.usps.com/UspsToolsRestServices/rest/POLocator/findLocations", "@spider": "usps_collection_boxes", "addr:city": "GALLANT", "addr:country": "US", "addr:postcode": "35972", "addr:state": "AL", "addr:street_address": "9125 GALLANT RD", "amenity": "post_box", "collection_times": "Mo-Fr 12:00; Sa 10:00", "indoor": "yes", "nsi_id": "unitedstatespostalservice-a77078", "operator": "United States Postal Service", "operator:short": "USPS", "operator:type": "public", "operator:wikidata": "Q668687", "ref": "3597200001"}, "type": "Feature"}
{"geometry": {"coordinates": [-86.247773839, 33.997920749], "type": "Point"}, "id": "68Lsk3IDXZ8etfl_MrpHon1_EqI=", "properties": {"@source_uri": "https://tools.usps.com/UspsToolsRestServices/rest/POLocator/findLocations", "@spider": "usps_collection_boxes", "addr:city": "GALLANT", "addr:country": "US", "addr:postcode": "35972", "addr:state": "AL", "addr:street_address": "9125 GALLANT RD", "amenity": "post_box", "collection_times": "Mo-Fr 12:00; Sa 10:00", "indoor": "yes", "nsi_id": "unitedstatespostalservice-a77078", "operator": "United States Postal Service", "operator:short": "USPS", "operator:type": "public", "operator:wikidata": "Q668687", "ref": "3597200004"}, "type": "Feature"}
{"geometry": {"coordinates": [-85.559404, 34.266596], "type": "Point"}, "id": "zb_q5mQXqVRD1Jy5xD83Yn_HCtg=", "properties": {"@source_uri": "https://tools.usps.com/UspsToolsRestServices/rest/POLocator/findLocations", "@spider": "usps_collection_boxes", "addr:city": "GAYLESVILLE", "addr:country": "US", "addr:postcode": "35973", "addr:state": "AL", "addr:street_address": "4840 MAIN ST", "amenity": "post_box", "collection_times": "Mo-Fr 12:00; Sa 10:30", "nsi_id": "unitedstatespostalservice-a77078", "operator": "United States Postal Service", "operator:short": "USPS", "operator:type": "public", "operator:wikidata": "Q668687", "ref": "3597300000"}, "type": "Feature"}
{"geometry": {"coordinates": [-85.559404, 34.266596], "type": "Point"}, "id": "vS9yc60jM6KCbUGJp_1uVssAOPs=", "properties": {"@source_uri": "https://tools.usps.com/UspsToolsRestServices/rest/POLocator/findLocations", "@spider": "usps_collection_boxes", "addr:city": "GAYLESVILLE", "addr:country": "US", "addr:postcode": "35973", "addr:state": "AL", "addr:street_address": "4840 MAIN ST", "amenity": "post_box", "collection_times": "Mo-Fr 12:00; Sa 10:30", "indoor": "yes", "nsi_id": "unitedstatespostalservice-a77078", "operator": "United States Postal Service", "operator:short": "USPS", "operator:type": "public", "operator:wikidata": "Q668687", "ref": "3597300001"}, "type": "Feature"}
{"geometry": {"coordinates": [-85.558727954, 34.267068554], "type": "Point"}, "id": "epG_djKuwC7igzL7TiOZQLG40Mk=", "properties": {"@source_uri": "https://tools.usps.com/UspsToolsRestServices/rest/POLocator/findLocations", "@spider": "usps_collection_boxes", "addr:city": "GAYLESVILLE", "addr:country": "US", "addr:postcode": "35973", "addr:state": "AL", "addr:street_address": "4840 MAIN ST", "amenity": "post_box", "collection_times": "Mo-Fr 12:00; Sa 10:30", "indoor": "yes", "nsi_id": "unitedstatespostalservice-a77078", "operator": "United States Postal Service", "operator:short": "USPS", "operator:type": "public", "operator:wikidata": "Q668687", "ref": "3597300003"}, "type": "Feature"}
{"geometry": {"coordinates": [-86.013919, 34.356977], "type": "Point"}, "id": "FsJYuyRkyx2eAPpdf_xMV3Fgvc0=", "properties": {"@source_uri": "https://tools.usps.com/UspsToolsRestServices/rest/POLocator/findLocations", "@spider": "usps_collection_boxes", "addr:city": "GERALDINE", "addr:country": "US", "addr:postcode": "35974", "addr:state": "AL", "addr:street_address": "41808 AL HIGHWAY 75", "amenity": "post_box", "collection_times": "Mo-Fr 15:45; Sa 10:00", "note": "ON 12/24 AND 12/31, THIS BOX MAY BE COLLECTED AS EARLY AS 12 NOON.", "nsi_id": "unitedstatespostalservice-a77078", "operator": "United States Postal Service", "operator:short": "USPS", "operator:type": "public", "operator:wikidata": "Q668687", "ref": "3597400000"}, "type": "Feature"}
{"geometry": {"coordinates": [-86.013919, 34.356977], "type": "Point"}, "id": "8dlx9z64Ppwt3voQPrt5Pkjsr0c=", "properties": {"@source_uri": "https://tools.usps.com/UspsToolsRestServices/rest/POLocator/findLocations", "@spider": "usps_collection_boxes", "addr:city": "GERALDINE", "addr:country": "US", "addr:postcode": "35974", "addr:state": "AL", "addr:street_address": "41808 AL HIGHWAY 75", "amenity": "post_box", "collection_times": "Mo-Fr 15:45; Sa 10:00", "indoor": "yes", "note": "ON 12/24 AND 12/31, THIS BOX MAY BE COLLECTED AS EARLY AS 12 NOON.", "nsi_id": "unitedstatespostalservice-a77078", "operator": "United States Postal Service", "operator:short": "USPS", "operator:type": "public", "operator:wikidata": "Q668687", "ref": "3597400001"}, "type": "Feature"}
{"geometry": {"coordinates": [-86.013945832, 34.357003339], "type": "Point"}, "id": "04y_oKwn77OooXOv9dsawHEFCP0=", "properties": {"@source_uri": "https://tools.usps.com/UspsToolsRestServices/rest/POLocator/findLocations", "@spider": "usps_collection_boxes", "addr:city": "GERALDINE", "addr:country": "US", "addr:postcode": "35974", "addr:state": "AL", "addr:street_address": "41808 AL HIGHWAY 75", "amenity": "post_box", "collection_times": "Mo-Fr 16:00; Sa 10:45", "indoor": "yes", "note": "ON 12/24 AND 12/31, THIS BOX MAY BE COLLECTED AS EARLY AS 12 NOON.", "nsi_id": "unitedstatespostalservice-a77078", "operator": "United States Postal Service", "operator:short": "USPS", "operator:type": "public", "operator:wikidata": "Q668687", "ref": "3597400003"}, "type": "Feature"}
{"geometry": {"coordinates": [-86.298046, 34.350642], "type": "Point"}, "id": "DBiZd5IO4nFdY4ibXJlXueNq8GY=", "properties": {"@source_uri": "https://tools.usps.com/UspsToolsRestServices/rest/POLocator/findLocations", "@spider": "usps_collection_boxes", "addr:city": "GUNTERSVILLE", "addr:country": "US", "addr:postcode": "35976", "addr:state": "AL", "addr:street_address": "1021 BLOUNT AVE", "amenity": "post_box", "collection_times": "Mo-Fr 16:30; Sa 12:00", "note": "ON 12/24 AND 12/31, THIS BOX MAY BE COLLECTED AS EARLY AS 12 NOON.", "nsi_id": "unitedstatespostalservice-a77078", "operator": "United States Postal Service", "operator:short": "USPS", "operator:type": "public", "operator:wikidata": "Q668687", "ref": "3597600000"}, "type": "Feature"}
{"geometry": {"coordinates": [-86.298046, 34.350642], "type": "Point"}, "id": "5cWr5Ssckor0lHMezun0Z18yBt4=", "properties": {"@source_uri": "https://tools.usps.com/UspsToolsRestServices/rest/POLocator/findLocations", "@spider": "usps_collection_boxes", "addr:city": "GUNTERSVILLE", "addr:country": "US", "addr:postcode": "35976", "addr:state": "AL", "addr:street_address": "1021 BLOUNT AVE", "amenity": "post_box", "collection_times": "Mo-Fr 16:30; Sa 12:00", "note": "ON 12/24 AND 12/31, THIS BOX MAY BE COLLECTED AS EARLY AS 12 NOON.", "nsi_id": "unitedstatespostalservice-a77078", "operator": "United States Postal Service", "operator:short": "USPS", "operator:type": "public", "operator:wikidata": "Q668687", "ref": "3597600001"}, "type": "Feature"}
{"geometry": {"coordinates": [-86.298046, 34.350642], "type": "Point"}, "id": "dENnGfJHDYYrBO9ZfIGgtV3_3GA=", "properties": {"@source_uri": "https://tools.usps.com/UspsToolsRestServices/rest/POLocator/findLocations", "@spider": "usps_collection_boxes", "addr:city": "GUNTERSVILLE", "addr:country": "US", "addr:postcode": "35976", "addr:state": "AL", "addr:street_address": "1021 BLOUNT AVE", "amenity": "post_box", "collection_times": "Mo-Sa 16:30", "indoor": "yes", "note": "ON 12/24 AND 12/31, THIS BOX MAY BE COLLECTED AS EARLY AS 12 NOON.", "nsi_id": "unitedstatespostalservice-a77078", "operator": "United States Postal Service", "operator:short": "USPS", "operator:type": "public", "operator:wikidata": "Q668687", "ref": "3597600017"}, "type": "Feature"}
{"geometry": {"coordinates": [-86.2947127, 34.358111], "type": "Point"}, "id": "BIQHQiNebFhNfX1phy_XEtLjHgY=", "properties": {"@source_uri": "https://tools.usps.com/UspsToolsRestServices/rest/POLocator/findLocations", "@spider": "usps_collection_boxes", "addr:city": "GUNTERSVILLE", "addr:country": "US", "addr:postcode": "35976", "addr:state": "AL", "addr:street_address": "520 GUNTER AVE", "amenity": "post_box", "collection_times": "Mo-Sa 12:00", "nsi_id": "unitedstatespostalservice-a77078", "operator": "United States Postal Service", "operator:short": "USPS", "operator:type": "public", "operator:wikidata": "Q668687", "ref": "3597600020"}, "type": "Feature"}
{"geometry": {"coordinates": [-86.298057762, 34.350629596], "type": "Point"}, "id": "e1gycusHGdyX3Cgki0P7DI1pBMM=", "properties": {"@source_uri": "https://tools.usps.com/UspsToolsRestServices/rest/POLocator/findLocations", "@spider": "usps_collection_boxes", "addr:city": "GUNTERSVILLE", "addr:country": "US", "addr:postcode": "35976", "addr:state": "AL", "addr:street_address": "1021 BLOUNT AVE", "amenity": "post_box", "collection_times": "Mo-Fr 16:00; Sa 12:00", "indoor": "yes", "note": "ON 12/24 AND 12/31, THIS BOX MAY BE COLLECTED AS EARLY AS 12 NOON.", "nsi_id": "unitedstatespostalservice-a77078", "operator": "United States Postal Service", "operator:short": "USPS", "operator:type": "public", "operator:wikidata": "Q668687", "ref": "3597600025"}, "type": "Feature"}
{"geometry": {"coordinates": [-85.759962, 34.6296242], "type": "Point"}, "id": "rxkSC5947eEvlNSqOO7XlZUverk=", "properties": {"@source_uri": "https://tools.usps.com/UspsToolsRestServices/rest/POLocator/findLocations", "@spider": "usps_collection_boxes", "addr:city": "HENAGAR", "addr:country": "US", "addr:postcode": "35978", "addr:state": "AL", "addr:street_address": "17136 BROAD ST", "amenity": "post_box", "collection_times": "Mo-Fr 15:45; Sa 10:45", "note": "ON 12/24 AND 12/31, THIS BOX MAY BE COLLECTED AS EARLY AS 12 NOON.", "nsi_id": "unitedstatespostalservice-a77078", "operator": "United States Postal Service", "operator:short": "USPS", "operator:type": "public", "operator:wikidata": "Q668687", "ref": "3597800000"}, "type": "Feature"}
{"geometry": {"coordinates": [-85.744172, 34.632182], "type": "Point"}, "id": "CjOYxYfaK1k88yTR1PHk5Qn3Cq4=", "properties": {"@source_uri": "https://tools.usps.com/UspsToolsRestServices/rest/POLocator/findLocations", "@spider": "usps_collection_boxes", "addr:city": "HENAGAR", "addr:country": "US", "addr:postcode": "35978", "addr:state": "AL", "addr:street_address": "17136 AL HIGHWAY 75", "amenity": "post_box", "collection_times": "Mo-Fr 15:45; Sa 10:45", "indoor": "yes", "note": "ON 12/24 AND 12/31, THIS BOX MAY BE COLLECTED AS EARLY AS 12 NOON.", "nsi_id": "unitedstatespostalservice-a77078", "operator": "United States Postal Service", "operator:short": "USPS", "operator:type": "public", "operator:wikidata": "Q668687", "ref": "3597800001"}, "type": "Feature"}
{"geometry": {"coordinates": [-85.759962, 34.6296242], "type": "Point"}, "id": "3IOjrUwJZYP1tOOsAHM5pGeFPGA=", "properties": {"@source_uri": "https://tools.usps.com/UspsToolsRestServices/rest/POLocator/findLocations", "@spider": "usps_collection_boxes", "addr:city": "HENAGAR", "addr:country": "US", "addr:postcode": "35978", "addr:state": "AL", "addr:street_address": "17136 BROAD ST", "amenity": "post_box", "collection_times": "Mo-Fr 16:00; Sa 11:00", "indoor": "yes", "note": "ON 12/24 AND 12/31, THIS BOX MAY BE COLLECTED AS EARLY AS 12 NOON.", "nsi_id": "unitedstatespostalservice-a77078", "operator": "United States Postal Service", "operator:short": "USPS", "operator:type": "public", "operator:wikidata": "Q668687", "ref": "3597800003"}, "type": "Feature"}
{"geometry": {"coordinates": [-85.620507, 34.849355], "type": "Point"}, "id": "L0kCGFdqaOWX2G_LUk1f-DfBTIY=", "properties": {"@source_uri": "https://tools.usps.com/UspsToolsRestServices/rest/POLocator/findLocations", "@spider": "usps_collection_boxes", "addr:city": "HIGDON", "addr:country": "US", "addr:postcode": "35979", "addr:state": "AL", "addr:street_address": "29396 AL HIGHWAY 71", "amenity": "post_box", "collection_times": "Mo-Fr 15:45; Sa 11:15", "indoor": "yes", "note": "ON 12/24 AND 12/31, THIS BOX MAY BE COLLECTED AS EARLY AS 12 NOON.", "nsi_id": "unitedstatespostalservice-a77078", "operator": "United States Postal Service", "operator:short": "USPS", "operator:type": "public", "operator:wikidata": "Q668687", "ref": "3597900001"}, "type": "Feature"}
{"geometry": {"coordinates": [-85.620507, 34.849355], "type": "Point"}, "id": "6ttCZ_5YfNLRjF3BohvFA1P0CQc=", "properties": {"@source_uri": "https://tools.usps.com/UspsToolsRestServices/rest/POLocator/findLocations", "@spider": "usps_collection_boxes", "addr:city": "HIGDON", "addr:country": "US", "addr:postcode": "35979", "addr:state": "AL", "addr:street_address": "29396 AL HIGHWAY 71", "amenity": "post_box", "collection_times": "Mo-Fr 15:45; Sa 11:15", "note": "ON 12/24 AND 12/31, THIS BOX MAY BE COLLECTED AS EARLY AS 12 NOON.", "nsi_id": "unitedstatespostalservice-a77078", "operator": "United States Postal Service", "operator:short": "USPS", "operator:type": "public", "operator:wikidata": "Q668687", "ref": "3597900002"}, "type": "Feature"}
{"geometry": {"coordinates": [-85.62002248, 34.849656235], "type": "Point"}, "id": "DJRvNU2AZSMwRU83R3rYF8d1E8Y=", "properties": {"@source_uri": "https://tools.usps.com/UspsToolsRestServices/rest/POLocator/findLocations", "@spider": "usps_collection_boxes", "addr:city": "HIGDON", "addr:country": "US", "addr:postcode": "35979", "addr:state": "AL", "addr:street_address": "29396 AL HIGHWAY 71", "amenity": "post_box", "collection_times": "Mo-Fr 15:45; Sa 11:00", "indoor": "yes", "note": "ON 12/24 AND 12/31, THIS BOX MAY BE COLLECTED AS EARLY AS 12 NOON.", "nsi_id": "unitedstatespostalservice-a77078", "operator": "United States Postal Service", "operator:short": "USPS", "operator:type": "public", "operator:wikidata": "Q668687", "ref": "3597900004"}, "type": "Feature"}
{"geometry": {"coordinates": [-86.295967, 34.201279], "type": "Point"}, "id": "Utgm2wAcAp-_6KkHGPewpcNw7ak=", "properties": {"@source_uri": "https://tools.usps.com/UspsToolsRestServices/rest/POLocator/findLocations", "@spider": "usps_collection_boxes", "addr:city": "HORTON", "addr:country": "US", "addr:postcode": "35980", "addr:state": "AL", "addr:street_address": "6396 AL HIGHWAY 75", "amenity": "post_box", "collection_times": "Mo-Fr 16:00; Sa 09:00", "note": "ON 12/24 AND 12/31, THIS BOX MAY BE COLLECTED AS EARLY AS 12 NOON.", "nsi_id": "unitedstatespostalservice-a77078", "operator": "United States Postal Service", "operator:short": "USPS", "operator:type": "public", "operator:wikidata": "Q668687", "ref": "3598000000"}, "type": "Feature"}
{"geometry": {"coordinates": [-86.295967, 34.201279], "type": "Point"}, "id": "BhGvsPuKQyPuXgZR4yWc9sf9r80=", "properties": {"@source_uri": "https://tools.usps.com/UspsToolsRestServices/rest/POLocator/findLocations", "@spider": "usps_collection_boxes", "addr:city": "HORTON", "addr:country": "US", "addr:postcode": "35980", "addr:state": "AL", "addr:street_address": "6396 AL HIGHWAY 75", "amenity": "post_box", "collection_times": "Mo-Fr 16:00; Sa 09:00", "indoor": "yes", "note": "ON 12/24 AND 12/31, THIS BOX MAY BE COLLECTED AS EARLY AS 12 NOON.", "nsi_id": "unitedstatespostalservice-a77078", "operator": "United States Postal Service", "operator:short": "USPS", "operator:type": "public", "operator:wikidata": "Q668687", "ref": "3598000001"}, "type": "Feature"}
{"geometry": {"coordinates": [-86.295410276, 34.201896191], "type": "Point"}, "id": "TPiw5w9zPUC2tMbK1qdATHTRXJo=", "properties": {"@source_uri": "https://tools.usps.com/UspsToolsRestServices/rest/POLocator/findLocations", "@spider": "usps_collection_boxes", "addr:city": "HORTON", "addr:country": "US", "addr:postcode": "35980", "addr:state": "AL", "addr:street_address": "6396 AL HIGHWAY 75", "amenity": "post_box", "collection_times": "Mo-Fr 16:00; Sa 09:00", "indoor": "yes", "note": "ON 12/24 AND 12/31, THIS BOX MAY BE COLLECTED AS EARLY AS 12 NOON.", "nsi_id": "unitedstatespostalservice-a77078", "operator": "United States Postal Service", "operator:short": "USPS", "operator:type": "public", "operator:wikidata": "Q668687", "ref": "3598000003"}, "type": "Feature"}
{"geometry": {"coordinates": [-85.670976, 34.69321], "type": "Point"}, "id": "-rG6Wp_1A6M4cUuFGi7mwz41G-I=", "properties": {"@source_uri": "https://tools.usps.com/UspsToolsRestServices/rest/POLocator/findLocations", "@spider": "usps_collection_boxes", "addr:city": "IDER", "addr:country": "US", "addr:postcode": "35981", "addr:state": "AL", "addr:street_address": "11134 AL HIGHWAY 75", "amenity": "post_box", "collection_times": "Mo-Fr 16:00; Sa 10:30", "note": "ON 12/24 AND 12/31, THIS BOX MAY BE COLLECTED AS EARLY AS 12 NOON.", "nsi_id": "unitedstatespostalservice-a77078", "operator": "United States Postal Service", "operator:short": "USPS", "operator:type": "public", "operator:wikidata": "Q668687", "ref": "3598100000"}, "type": "Feature"}
{"geometry": {"coordinates": [-85.670976, 34.69321], "type": "Point"}, "id": "tIde3kdMsLFtm9DW6E_gSn46NHE=", "properties": {"@source_uri": "https://tools.usps.com/UspsToolsRestServices/rest/POLocator/findLocations", "@spider": "usps_collection_boxes", "addr:city": "IDER", "addr:country": "US", "addr:postcode": "35981", "addr:state": "AL", "addr:street_address": "11134 AL HIGHWAY 75", "amenity": "post_box", "collection_times": "Mo-Fr 16:00; Sa 10:30", "indoor": "yes", "note": "ON 12/24 AND 12/31, THIS BOX MAY BE COLLECTED AS EARLY AS 12 NOON.", "nsi_id": "unitedstatespostalservice-a77078", "operator": "United States Postal Service", "operator:short": "USPS", "operator:type": "public", "operator:wikidata": "Q668687", "ref": "3598100001"}, "type": "Feature"}
{"geometry": {"coordinates": [-85.671020961, 34.693200356], "type": "Point"}, "id": "RRD8Yz0FNF1qSqIWBcA-8U2Qa2A=", "properties": {"@source_uri": "https://tools.usps.com/UspsToolsRestServices/rest/POLocator/findLocations", "@spider": "usps_collection_boxes", "addr:city": "IDER", "addr:country": "US", "addr:postcode": "35981", "addr:state": "AL", "addr:street_address": "11134 AL HIGHWAY 75", "amenity": "post_box", "collection_times": "Mo-Fr 16:00; Sa 10:30", "indoor": "yes", "note": "ON 12/24 AND 12/31, THIS BOX MAY BE COLLECTED AS EARLY AS 12 NOON.", "nsi_id": "unitedstatespostalservice-a77078", "operator": "United States Postal Service", "operator:short": "USPS", "operator:type": "public", "operator:wikidata": "Q668687", "ref": "3598100003"}, "type": "Feature"}
{"geometry": {"coordinates": [-85.7601626, 34.176732], "type": "Point"}, "id": "dHGs8Tz13tNv9TgxhXoXmw1PdZA=", "properties": {"@source_uri": "https://tools.usps.com/UspsToolsRestServices/rest/POLocator/findLocations", "@spider": "usps_collection_boxes", "addr:city": "LEESBURG", "addr:country": "US", "addr:postcode": "35983", "addr:state": "AL", "addr:street_address": "1045 RIVERSIDE ST", "amenity": "post_box", "collection_times": "Mo-Fr 16:00; Sa 11:00", "note": "ON 12/24 AND 12/31, THIS BOX MAY BE COLLECTED AS EARLY AS 12 NOON.", "nsi_id": "unitedstatespostalservice-a77078", "operator": "United States Postal Service", "operator:short": "USPS", "operator:type": "public", "operator:wikidata": "Q668687", "ref": "3598300000"}, "type": "Feature"}
{"geometry": {"coordinates": [-85.7599882, 34.17655], "type": "Point"}, "id": "blioqrt1G6CG33_xuak17Xe9I0E=", "properties": {"@source_uri": "https://tools.usps.com/UspsToolsRestServices/rest/POLocator/findLocations", "@spider": "usps_collection_boxes", "addr:city": "LEESBURG", "addr:country": "US", "addr:postcode": "35983", "addr:state": "AL", "addr:street_address": "1045 RIVERSIDE ST", "amenity": "post_box", "collection_times": "Mo-Fr 16:00; Sa 11:00", "indoor": "yes", "note": "ON 12/24 AND 12/31, THIS BOX MAY BE COLLECTED AS EARLY AS 12 NOON.", "nsi_id": "unitedstatespostalservice-a77078", "operator": "United States Postal Service", "operator:short": "USPS", "operator:type": "public", "operator:wikidata": "Q668687", "ref": "3598300001"}, "type": "Feature"}
{"geometry": {"coordinates": [-85.762414643, 34.167704235], "type": "Point"}, "id": "E0OhsMOtzQOT2ZgRHyNW1Kh9reI=", "properties": {"@source_uri": "https://tools.usps.com/UspsToolsRestServices/rest/POLocator/findLocations", "@spider": "usps_collection_boxes", "addr:city": "LEESBURG", "addr:country": "US", "addr:postcode": "35983", "addr:state": "AL", "addr:street_address": "1045 RIVERSIDE ST", "amenity": "post_box", "collection_times": "Mo-Fr 16:00; Sa 11:00", "indoor": "yes", "note": "ON 12/24 AND 12/31, THIS BOX MAY BE COLLECTED AS EARLY AS 12 NOON.", "nsi_id": "unitedstatespostalservice-a77078", "operator": "United States Postal Service", "operator:short": "USPS", "operator:type": "public", "operator:wikidata": "Q668687", "ref": "3598300003"}, "type": "Feature"}
{"geometry": {"coordinates": [-85.585933, 34.578085], "type": "Point"}, "id": "YN4ejkqk3XS6EP90c1s37e50RIc=", "properties": {"@source_uri": "https://tools.usps.com/UspsToolsRestServices/rest/POLocator/findLocations", "@spider": "usps_collection_boxes", "addr:city": "MENTONE", "addr:country": "US", "addr:postcode": "35984", "addr:state": "AL", "addr:street_address": "5809 AL HIGHWAY 117", "amenity": "post_box", "collection_times": "Mo-Fr 16:00; Sa 10:15", "note": "ON 12/24 AND 12/31, THIS BOX MAY BE COLLECTED AS EARLY AS 12 NOON.", "nsi_id": "unitedstatespostalservice-a77078", "operator": "United States Postal Service", "operator:short": "USPS", "operator:type": "public", "operator:wikidata": "Q668687", "ref": "3598400000"}, "type": "Feature"}
{"geometry": {"coordinates": [-85.585933, 34.578085], "type": "Point"}, "id": "ZJMYWnFbJkJiPwGRtGW0BLqI0hU=", "properties": {"@source_uri": "https://tools.usps.com/UspsToolsRestServices/rest/POLocator/findLocations", "@spider": "usps_collection_boxes", "addr:city": "MENTONE", "addr:country": "US", "addr:postcode": "35984", "addr:state": "AL", "addr:street_address": "5809 AL HIGHWAY 117", "amenity": "post_box", "collection_times": "Mo-Fr 16:00; Sa 10:15", "indoor": "yes", "note": "ON 12/24 AND 12/31, THIS BOX MAY BE COLLECTED AS EARLY AS 12 NOON.", "nsi_id": "unitedstatespostalservice-a77078", "operator": "United States Postal Service", "operator:short": "USPS", "operator:type": "public", "operator:wikidata": "Q668687", "ref": "3598400001"}, "type": "Feature"}
{"geometry": {"coordinates": [-85.58592022, 34.578043184], "type": "Point"}, "id": "RAQAz8EUFjnbVyjLVBCm1LZc3YU=", "properties": {"@source_uri": "https://tools.usps.com/UspsToolsRestServices/rest/POLocator/findLocations", "@spider": "usps_collection_boxes", "addr:city": "MENTONE", "addr:country": "US", "addr:postcode": "35984", "addr:state": "AL", "addr:street_address": "5809 AL HIGHWAY 117", "amenity": "post_box", "collection_times": "Mo-Fr 16:00; Sa 10:30", "indoor": "yes", "note": "ON 12/24 AND 12/31, THIS BOX MAY BE COLLECTED AS EARLY AS 12 NOON.", "nsi_id": "unitedstatespostalservice-a77078", "operator": "United States Postal Service", "operator:short": "USPS", "operator:type": "public", "operator:wikidata": "Q668687", "ref": "3598400003"}, "type": "Feature"}
{"geometry": {"coordinates": [-85.8528220215, 34.4995100072], "type": "Point"}, "id": "5Aa1K_enfQLnu2ml9MzAPQCF7wI=", "properties": {"@source_uri": "https://tools.usps.com/UspsToolsRestServices/rest/POLocator/findLocations", "@spider": "usps_collection_boxes", "addr:city": "RAINSVILLE", "addr:country": "US", "addr:postcode": "35986", "addr:state": "AL", "addr:street_address": "95 SAM ELLIS DR", "amenity": "post_box", "collection_times": "Mo-Fr 16:00; Sa 12:00", "note": "ON 12/24 AND 12/31, THIS BOX MAY BE COLLECTED AS EARLY AS 12 NOON.", "nsi_id": "unitedstatespostalservice-a77078", "operator": "United States Postal Service", "operator:short": "USPS", "operator:type": "public", "operator:wikidata": "Q668687", "ref": "3598600000"}, "type": "Feature"}
{"geometry": {"coordinates": [-85.852778, 34.498992], "type": "Point"}, "id": "n69MYoVRNCy_6rWxSxVlY-cmG8k=", "properties": {"@source_uri": "https://tools.usps.com/UspsToolsRestServices/rest/POLocator/findLocations", "@spider": "usps_collection_boxes", "addr:city": "RAINSVILLE", "addr:country": "US", "addr:postcode": "35986", "addr:state": "AL", "addr:street_address": "95 SAM ELLIS DR", "amenity": "post_box", "collection_times": "Mo-Fr 16:00; Sa 12:00", "indoor": "yes", "note": "ON 12/24 AND 12/31, THIS BOX MAY BE COLLECTED AS EARLY AS 12 NOON.", "nsi_id": "unitedstatespostalservice-a77078", "operator": "United States Postal Service", "operator:short": "USPS", "operator:type": "public", "operator:wikidata": "Q668687", "ref": "3598600002"}, "type": "Feature"}
{"geometry": {"coordinates": [-85.852807907, 34.499001722], "type": "Point"}, "id": "5zQ3ti_QKNHnhbpX2zmWmRMh-TU=", "properties": {"@source_uri": "https://tools.usps.com/UspsToolsRestServices/rest/POLocator/findLocations", "@spider": "usps_collection_boxes", "addr:city": "RAINSVILLE", "addr:country": "US", "addr:postcode": "35986", "addr:state": "AL", "addr:street_address": "95 SAM ELLIS DR", "amenity": "post_box", "collection_times": "Mo-Fr 16:00; Sa 12:00", "indoor": "yes", "note": "ON 12/24 AND 12/31, THIS BOX MAY BE COLLECTED AS EARLY AS 12 NOON.", "nsi_id": "unitedstatespostalservice-a77078", "operator": "United States Postal Service", "operator:short": "USPS", "operator:type": "public", "operator:wikidata": "Q668687", "ref": "3598600004"}, "type": "Feature"}
{"geometry": {"coordinates": [-86.198875, 33.942193], "type": "Point"}, "id": "TvTgRzOkL1Glic1s-vIpBkMHHLM=", "properties": {"@source_uri": "https://tools.usps.com/UspsToolsRestServices/rest/POLocator/findLocations", "@spider": "usps_collection_boxes", "addr:city": "STEELE", "addr:country": "US", "addr:postcode": "35987", "addr:state": "AL", "addr:street_address": "3934 POPE AVE", "amenity": "post_box", "collection_times": "Mo-Fr 15:45; Sa 10:00", "note": "ON 12/24 AND 12/31, THIS BOX MAY BE COLLECTED AS EARLY AS 12 NOON.", "nsi_id": "unitedstatespostalservice-a77078", "operator": "United States Postal Service", "operator:short": "USPS", "operator:type": "public", "operator:wikidata": "Q668687", "ref": "3598700000"}, "type": "Feature"}
{"geometry": {"coordinates": [-86.198875, 33.942193], "type": "Point"}, "id": "R686RfeUl9EfC9oiTTwSv6RskC0=", "properties": {"@source_uri": "https://tools.usps.com/UspsToolsRestServices/rest/POLocator/findLocations", "@spider": "usps_collection_boxes", "addr:city": "STEELE", "addr:country": "US", "addr:postcode": "35987", "addr:state": "AL", "addr:street_address": "3934 POPE AVE", "amenity": "post_box", "collection_times": "Mo-Fr 15:45; Sa 10:00", "indoor": "yes", "note": "ON 12/24 AND 12/31, THIS BOX MAY BE COLLECTED AS EARLY AS 12 NOON.", "nsi_id": "unitedstatespostalservice-a77078", "operator": "United States Postal Service", "operator:short": "USPS", "operator:type": "public", "operator:wikidata": "Q668687", "ref": "3598700001"}, "type": "Feature"}
{"geometry": {"coordinates": [-86.198857934, 33.942212048], "type": "Point"}, "id": "nUaYdovKxOeMZmt4h10Kj1dzN-g=", "properties": {"@source_uri": "https://tools.usps.com/UspsToolsRestServices/rest/POLocator/findLocations", "@spider": "usps_collection_boxes", "addr:city": "STEELE", "addr:country": "US", "addr:postcode": "35987", "addr:state": "AL", "addr:street_address": "3934 POPE AVE", "amenity": "post_box", "collection_times": "Mo-Fr 16:15; Sa 10:30", "indoor": "yes", "note": "ON 12/24 AND 12/31, THIS BOX MAY BE COLLECTED AS EARLY AS 12 NOON.", "nsi_id": "unitedstatespostalservice-a77078", "operator": "United States Postal Service", "operator:short": "USPS", "operator:type": "public", "operator:wikidata": "Q668687", "ref": "3598700003"}, "type": "Feature"}
{"geometry": {"coordinates": [-85.79765, 34.569026], "type": "Point"}, "id": "cIPIM9sqUiJqEzhv1wrP6QPc59U=", "properties": {"@source_uri": "https://tools.usps.com/UspsToolsRestServices/rest/POLocator/findLocations", "@spider": "usps_collection_boxes", "addr:city": "SYLVANIA", "addr:country": "US", "addr:postcode": "35988", "addr:state": "AL", "addr:street_address": "9596 BLUE POND BLVD W", "amenity": "post_box", "collection_times": "Mo-Fr 16:00; Sa 11:00", "note": "ON 12/24 AND 12/31, THIS BOX MAY BE COLLECTED AS EARLY AS 12 NOON.", "nsi_id": "unitedstatespostalservice-a77078", "operator": "United States Postal Service", "operator:short": "USPS", "operator:type": "public", "operator:wikidata": "Q668687", "ref": "3598800000"}, "type": "Feature"}
{"geometry": {"coordinates": [-85.79765, 34.569026], "type": "Point"}, "id": "6WCg35ZNhmqGHVqHMNAfviMslO8=", "properties": {"@source_uri": "https://tools.usps.com/UspsToolsRestServices/rest/POLocator/findLocations", "@spider": "usps_collection_boxes", "addr:city": "SYLVANIA", "addr:country": "US", "addr:postcode": "35988", "addr:state": "AL", "addr:street_address": "9596 BLUE POND BLVD W", "amenity": "post_box", "collection_times": "Mo-Fr 16:00; Sa 11:00", "indoor": "yes", "note": "ON 12/24 AND 12/31, THIS BOX MAY BE COLLECTED AS EARLY AS 12 NOON.", "nsi_id": "unitedstatespostalservice-a77078", "operator": "United States Postal Service", "operator:short": "USPS", "operator:type": "public", "operator:wikidata": "Q668687", "ref": "3598800001"}, "type": "Feature"}
{"geometry": {"coordinates": [-85.8016559, 34.559302], "type": "Point"}, "id": "9o90NPyO7Lgdc26bZdf3w_CGaqI=", "properties": {"@source_uri": "https://tools.usps.com/UspsToolsRestServices/rest/POLocator/findLocations", "@spider": "usps_collection_boxes", "addr:city": "SYLVANIA", "addr:country": "US", "addr:postcode": "35988", "addr:state": "AL", "addr:street_address": "14 INDUSTRIAL LN", "amenity": "post_box", "collection_times": "Mo-Sa 12:00", "nsi_id": "unitedstatespostalservice-a77078", "operator": "United States Postal Service", "operator:short": "USPS", "operator:type": "public", "operator:wikidata": "Q668687", "ref": "3598800003"}, "type": "Feature"}
{"geometry": {"coordinates": [-85.796758432, 34.569105428], "type": "Point"}, "id": "EHM6gXGVcdOUFn9Elv-p7Q5t2bo=", "properties": {"@source_uri": "https://tools.usps.com/UspsToolsRestServices/rest/POLocator/findLocations", "@spider": "usps_collection_boxes", "addr:city": "SYLVANIA", "addr:country": "US", "addr:postcode": "35988", "addr:state": "AL", "addr:street_address": "9596 BLUE POND BLVD W", "amenity": "post_box", "collection_times": "Mo-Fr 16:00; Sa 11:15", "indoor": "yes", "note": "ON 12/24 AND 12/31, THIS BOX MAY BE COLLECTED AS EARLY AS 12 NOON.", "nsi_id": "unitedstatespostalservice-a77078", "operator": "United States Postal Service", "operator:short": "USPS", "operator:type": "public", "operator:wikidata": "Q668687", "ref": "3598800004"}, "type": "Feature"}
{"geometry": {"coordinates": [-85.61224, 34.572983], "type": "Point"}, "id": "-MRdcr2U1tvYvIOmvZjWYoC_LYM=", "properties": {"@source_uri": "https://tools.usps.com/UspsToolsRestServices/rest/POLocator/findLocations", "@spider": "usps_collection_boxes", "addr:city": "VALLEY HEAD", "addr:country": "US", "addr:postcode": "35989", "addr:state": "AL", "addr:street_address": "36 COMMERCE AVE", "amenity": "post_box", "collection_times": "Mo-Fr 14:30; Sa 09:00", "note": "ON 12/24 AND 12/31, THIS BOX MAY BE COLLECTED AS EARLY AS 12 NOON.", "nsi_id": "unitedstatespostalservice-a77078", "operator": "United States Postal Service", "operator:short": "USPS", "operator:type": "public", "operator:wikidata": "Q668687", "ref": "3598900000"}, "type": "Feature"}
{"geometry": {"coordinates": [-85.61224, 34.572983], "type": "Point"}, "id": "3E2uCy0_RCv0UYSHaiHqM1-c6Aw=", "properties": {"@source_uri": "https://tools.usps.com/UspsToolsRestServices/rest/POLocator/findLocations", "@spider": "usps_collection_boxes", "addr:city": "VALLEY HEAD", "addr:country": "US", "addr:postcode": "35989", "addr:state": "AL", "addr:street_address": "36 COMMERCE AVE", "amenity": "post_box", "collection_times": "Mo-Fr 14:30; Sa 09:00", "indoor": "yes", "note": "ON 12/24 AND 12/31, THIS BOX MAY BE COLLECTED AS EARLY AS 12 NOON.", "nsi_id": "unitedstatespostalservice-a77078", "operator": "United States Postal Service", "operator:short": "USPS", "operator:type": "public", "operator:wikidata": "Q668687", "ref": "3598900001"}, "type": "Feature"}
{"geometry": {"coordinates": [-85.612274236, 34.572971821], "type": "Point"}, "id": "1KoOO3QqmeRqx2K9p6dI0C8Gwbo=", "properties": {"@source_uri": "https://tools.usps.com/UspsToolsRestServices/rest/POLocator/findLocations", "@spider": "usps_collection_boxes", "addr:city": "VALLEY HEAD", "addr:country": "US", "addr:postcode": "35989", "addr:state": "AL", "addr:street_address": "36 COMMERCE AVE", "amenity": "post_box", "collection_times": "Mo-Fr 15:30; Sa 10:00", "indoor": "yes", "note": "ON 12/24 AND 12/31, THIS BOX MAY BE COLLECTED AS EARLY AS 12 NOON.", "nsi_id": "unitedstatespostalservice-a77078", "operator": "United States Postal Service", "operator:short": "USPS", "operator:type": "public", "operator:wikidata": "Q668687", "ref": "3598900005"}, "type": "Feature"}
{"geometry": {"coordinates": [-86.305579, 34.065571], "type": "Point"}, "id": "fo5-eKP-lC3IBGXlMIqDQ6sWkLo=", "properties": {"@source_uri": "https://tools.usps.com/UspsToolsRestServices/rest/POLocator/findLocations", "@spider": "usps_collection_boxes", "addr:city": "WALNUT GROVE", "addr:country": "US", "addr:postcode": "35990", "addr:state": "AL", "addr:street_address": "4030 GADSDEN BLOUNTSVILLE RD", "amenity": "post_box", "collection_times": "Mo-Fr 12:20; Sa 08:30", "note": "ON 12/24 AND 12/31, THIS BOX MAY BE COLLECTED AS EARLY AS 12 NOON.", "nsi_id": "unitedstatespostalservice-a77078", "operator": "United States Postal Service", "operator:short": "USPS", "operator:type": "public", "operator:wikidata": "Q668687", "ref": "3599000000"}, "type": "Feature"}
{"geometry": {"coordinates": [-86.305559, 34.065527], "type": "Point"}, "id": "qnv4DZntTKnvnCj6MhwV6780BYU=", "properties": {"@source_uri": "https://tools.usps.com/UspsToolsRestServices/rest/POLocator/findLocations", "@spider": "usps_collection_boxes", "addr:city": "WALNUT GROVE", "addr:country": "US", "addr:postcode": "35990", "addr:state": "AL", "addr:street_address": "4030 GADSDEN BLOUNTSVILLE RD", "amenity": "post_box", "collection_times": "Mo-Fr 12:20; Sa 08:30", "indoor": "yes", "note": "ON 12/24 AND 12/31, THIS BOX MAY BE COLLECTED AS EARLY AS 12 NOON.", "nsi_id": "unitedstatespostalservice-a77078", "operator": "United States Postal Service", "operator:short": "USPS", "operator:type": "public", "operator:wikidata": "Q668687", "ref": "3599000001"}, "type": "Feature"}
{"geometry": {"coordinates": [-86.305556305, 34.065598013], "type": "Point"}, "id": "to0FtTGPQGFkYGBId3dqyaKWGjg=", "properties": {"@source_uri": "https://tools.usps.com/UspsToolsRestServices/rest/POLocator/findLocations", "@spider": "usps_collection_boxes", "addr:city": "WALNUT GROVE", "addr:country": "US", "addr:postcode": "35990", "addr:state": "AL", "addr:street_address": "4030 GADSDEN BLOUNTSVILLE RD", "amenity": "post_box", "collection_times": "Mo-Fr 12:30; Sa 09:00", "indoor": "yes", "note": "ON 12/24 AND 12/31, THIS BOX MAY BE COLLECTED AS EARLY AS 12 NOON.", "nsi_id": "unitedstatespostalservice-a77078", "operator": "United States Postal Service", "operator:short": "USPS", "operator:type": "public", "operator:wikidata": "Q668687", "ref": "3599000002"}, "type": "Feature"}
