{"geometry": {"coordinates": [-86.6574969, 32.431825], "type": "Point"}, "id": "6AlwmHeczN10yE-K5x4fopPxuQk=", "properties": {"@source_uri": "https://tools.usps.com/UspsToolsRestServices/rest/POLocator/findLocations", "@spider": "usps_collection_boxes", "addr:city": "AUTAUGAVILLE", "addr:country": "US", "addr:postcode": "36003", "addr:state": "AL", "addr:street_address": "105 N TAYLOR ST", "amenity": "post_box", "brand": "United States Postal Service", "brand:wikidata": "Q668687", "collection_times": "Mo-Fr 14:45; Sa 09:45", "note": "ON 12/24 AND 12/31, THIS BOX MAY BE COLLECTED AS EARLY AS 12 NOON.", "nsi_id": "unitedstatespostalservice-a77078", "operator": "United States Postal Service", "operator:short": "USPS", "operator:type": "public", "operator:wikidata": "Q668687", "ref": "3600300000"}, "type": "Feature"}
{"geometry": {"coordinates": [-86.6577195, 32.431771], "type": "Point"}, "id": "oNOTgoog9Cm4uWA1YRuogTwX__s=", "properties": {"@source_uri": "https://tools.usps.com/UspsToolsRestServices/rest/POLocator/findLocations", "@spider": "usps_collection_boxes", "addr:city": "AUTAUGAVILLE", "addr:country": "US", "addr:postcode": "36003", "addr:state": "AL", "addr:street_address": "105 N TAYLOR ST", "amenity": "post_box", "brand": "United States Postal Service", "brand:wikidata": "Q668687", "collection_times": "Mo-Fr 14:45; Sa 09:45", "indoor": "yes", "note": "ON 12/24 AND 12/31, THIS BOX MAY BE COLLECTED AS EARLY AS 12 NOON.", "nsi_id": "unitedstatespostalservice-a77078", "operator": "United States Postal Service", "operator:short": "USPS", "operator:type": "public", "operator:wikidata": "Q668687", "ref": "3600300001"}, "type": "Feature"}
{"geometry": {"coordinates": [-86.657384999, 32.431926889], "type": "Point"}, "id": "9XERiBw9H9InOyCDstHF9nC5bLo=", "properties": {"@source_uri": "https://tools.usps.com/UspsToolsRestServices/rest/POLocator/findLocations", "@spider": "usps_collection_boxes", "addr:city": "AUTAUGAVILLE", "addr:country": "US", "addr:postcode": "36003", "addr:state": "AL", "addr:street_address": "105 N TAYLOR ST", "amenity": "post_box", "brand": "United States Postal Service", "brand:wikidata": "Q668687", "collection_times": "Mo-Fr 15:00; Sa 10:00", "indoor": "yes", "note": "ON 12/24 AND 12/31, THIS BOX MAY BE COLLECTED AS EARLY AS 12 NOON.", "nsi_id": "unitedstatespostalservice-a77078", "operator": "United States Postal Service", "operator:short": "USPS", "operator:type": "public", "operator:wikidata": "Q668687", "ref": "3600300004"}, "type": "Feature"}
{"geometry": {"coordinates": [-85.843939, 31.815674], "type": "Point"}, "id": "N18XmsGJ66taimTk12Hv4LXGTwA=", "properties": {"@source_uri": "https://tools.usps.com/UspsToolsRestServices/rest/POLocator/findLocations", "@spider": "usps_collection_boxes", "addr:city": "BANKS", "addr:country": "US", "addr:postcode": "36005", "addr:state": "AL", "addr:street_address": "9378 N US HIGHWAY 29", "amenity": "post_box", "brand": "United States Postal Service", "brand:wikidata": "Q668687", "collection_times": "Mo-Fr 15:30; Sa 09:30", "note": "ON 12/24 AND 12/31, THIS BOX MAY BE COLLECTED AS EARLY AS 12 NOON.", "nsi_id": "unitedstatespostalservice-a77078", "operator": "United States Postal Service", "operator:short": "USPS", "operator:type": "public", "operator:wikidata": "Q668687", "ref": "3600500000"}, "type": "Feature"}
{"geometry": {"coordinates": [-85.843939, 31.815674], "type": "Point"}, "id": "TLaUDHWvexd9pBH27XKLA8Fgbbg=", "properties": {"@source_uri": "https://tools.usps.com/UspsToolsRestServices/rest/POLocator/findLocations", "@spider": "usps_collection_boxes", "addr:city": "BANKS", "addr:country": "US", "addr:postcode": "36005", "addr:state": "AL", "addr:street_address": "9378 N US HIGHWAY 29", "amenity": "post_box", "brand": "United States Postal Service", "brand:wikidata": "Q668687", "collection_times": "Mo-Fr 15:30; Sa 09:30", "indoor": "yes", "note": "ON 12/24 AND 12/31, THIS BOX MAY BE COLLECTED AS EARLY AS 12 NOON.", "nsi_id": "unitedstatespostalservice-a77078", "operator": "United States Postal Service", "operator:short": "USPS", "operator:type": "public", "operator:wikidata": "Q668687", "ref": "3600500002"}, "type": "Feature"}
{"geometry": {"coordinates": [-85.843939315, 31.815624456], "type": "Point"}, "id": "OyTJsLNbpr0KZdRYvxL7D5sFcIU=", "properties": {"@source_uri": "https://tools.usps.com/UspsToolsRestServices/rest/POLocator/findLocations", "@spider": "usps_collection_boxes", "addr:city": "BANKS", "addr:country": "US", "addr:postcode": "36005", "addr:state": "AL", "addr:street_address": "9378 N US HIGHWAY 29", "amenity": "post_box", "brand": "United States Postal Service", "brand:wikidata": "Q668687", "collection_times": "Mo-Fr 16:00; Sa 09:30", "indoor": "yes", "note": "ON 12/24 AND 12/31, THIS BOX MAY BE COLLECTED AS EARLY AS 12 NOON.", "nsi_id": "unitedstatespostalservice-a77078", "operator": "United States Postal Service", "operator:short": "USPS", "operator:type": "public", "operator:wikidata": "Q668687", "ref": "3600500004"}, "type": "Feature"}
{"geometry": {"coordinates": [-86.7180434, 32.659806], "type": "Point"}, "id": "1gzN9okrxAEi2H-Q9AxSy2knfmA=", "properties": {"@source_uri": "https://tools.usps.com/UspsToolsRestServices/rest/POLocator/findLocations", "@spider": "usps_collection_boxes", "addr:city": "BILLINGSLEY", "addr:country": "US", "addr:postcode": "36006", "addr:state": "AL", "addr:street_address": "2041 OFFICE ST", "amenity": "post_box", "brand": "United States Postal Service", "brand:wikidata": "Q668687", "collection_times": "Mo-Fr 10:50; Sa 09:50", "nsi_id": "unitedstatespostalservice-a77078", "operator": "United States Postal Service", "operator:short": "USPS", "operator:type": "public", "operator:wikidata": "Q668687", "ref": "3600600000"}, "type": "Feature"}
{"geometry": {"coordinates": [-86.7182193, 32.659941], "type": "Point"}, "id": "qDsFoBG4bQ4uRCVjc2bOIS2RM5Q=", "properties": {"@source_uri": "https://tools.usps.com/UspsToolsRestServices/rest/POLocator/findLocations", "@spider": "usps_collection_boxes", "addr:city": "BILLINGSLEY", "addr:country": "US", "addr:postcode": "36006", "addr:state": "AL", "addr:street_address": "2041 OFFICE ST", "amenity": "post_box", "brand": "United States Postal Service", "brand:wikidata": "Q668687", "collection_times": "Mo-Fr 10:50; Sa 09:50", "indoor": "yes", "nsi_id": "unitedstatespostalservice-a77078", "operator": "United States Postal Service", "operator:short": "USPS", "operator:type": "public", "operator:wikidata": "Q668687", "ref": "3600600001"}, "type": "Feature"}
{"geometry": {"coordinates": [-86.718413898, 32.65904792], "type": "Point"}, "id": "eUelVCEjwKZe7I-2CYCTcDZyanA=", "properties": {"@source_uri": "https://tools.usps.com/UspsToolsRestServices/rest/POLocator/findLocations", "@spider": "usps_collection_boxes", "addr:city": "BILLINGSLEY", "addr:country": "US", "addr:postcode": "36006", "addr:state": "AL", "addr:street_address": "2041 OFFICE ST", "amenity": "post_box", "brand": "United States Postal Service", "brand:wikidata": "Q668687", "collection_times": "Mo-Fr 11:00; Sa 10:00", "indoor": "yes", "nsi_id": "unitedstatespostalservice-a77078", "operator": "United States Postal Service", "operator:short": "USPS", "operator:type": "public", "operator:wikidata": "Q668687", "ref": "3600600003"}, "type": "Feature"}
{"geometry": {"coordinates": [-86.256399, 31.581648], "type": "Point"}, "id": "q4icUL5H2VMpGfVupAJfQxmSinU=", "properties": {"@source_uri": "https://tools.usps.com/UspsToolsRestServices/rest/POLocator/findLocations", "@spider": "usps_collection_boxes", "addr:city": "BRANTLEY", "addr:country": "US", "addr:postcode": "36009", "addr:state": "AL", "addr:street_address": "17 MONROE ST", "amenity": "post_box", "brand": "United States Postal Service", "brand:wikidata": "Q668687", "collection_times": "Mo-Fr 16:00; Sa 10:30", "note": "ON 12/24 AND 12/31, THIS BOX MAY BE COLLECTED AS EARLY AS 12 NOON.", "nsi_id": "unitedstatespostalservice-a77078", "operator": "United States Postal Service", "operator:short": "USPS", "operator:type": "public", "operator:wikidata": "Q668687", "ref": "3600900000"}, "type": "Feature"}
{"geometry": {"coordinates": [-86.256399, 31.581648], "type": "Point"}, "id": "y4lom4hFV-ECTM3RN20fy11t9VI=", "properties": {"@source_uri": "https://tools.usps.com/UspsToolsRestServices/rest/POLocator/findLocations", "@spider": "usps_collection_boxes", "addr:city": "BRANTLEY", "addr:country": "US", "addr:postcode": "36009", "addr:state": "AL", "addr:street_address": "17 MONROE ST", "amenity": "post_box", "brand": "United States Postal Service", "brand:wikidata": "Q668687", "collection_times": "Mo-Fr 16:00; Sa 10:30", "indoor": "yes", "note": "ON 12/24 AND 12/31, THIS BOX MAY BE COLLECTED AS EARLY AS 12 NOON.", "nsi_id": "unitedstatespostalservice-a77078", "operator": "United States Postal Service", "operator:short": "USPS", "operator:type": "public", "operator:wikidata": "Q668687", "ref": "3600900001"}, "type": "Feature"}
{"geometry": {"coordinates": [-86.2565961, 31.582151621], "type": "Point"}, "id": "jgSCmR9Ci1KftD53HOseSdO6UTk=", "properties": {"@source_uri": "https://tools.usps.com/UspsToolsRestServices/rest/POLocator/findLocations", "@spider": "usps_collection_boxes", "addr:city": "BRANTLEY", "addr:country": "US", "addr:postcode": "36009", "addr:state": "AL", "addr:street_address": "17 MONROE ST", "amenity": "post_box", "brand": "United States Postal Service", "brand:wikidata": "Q668687", "collection_times": "Mo-Fr 16:00; Sa 10:30", "indoor": "yes", "note": "ON 12/24 AND 12/31, THIS BOX MAY BE COLLECTED AS EARLY AS 12 NOON.", "nsi_id": "unitedstatespostalservice-a77078", "operator": "United States Postal Service", "operator:short": "USPS", "operator:type": "public", "operator:wikidata": "Q668687", "ref": "3600900003"}, "type": "Feature"}
{"geometry": {"coordinates": [-85.8159179, 31.72097], "type": "Point"}, "id": "AkGyV0ifpKgMai8177VZUa8Jrrg=", "properties": {"@source_uri": "https://tools.usps.com/UspsToolsRestServices/rest/POLocator/findLocations", "@spider": "usps_collection_boxes", "addr:city": "BRUNDIDGE", "addr:country": "US", "addr:postcode": "36010", "addr:state": "AL", "addr:street_address": "129 N MAIN ST", "amenity": "post_box", "brand": "United States Postal Service", "brand:wikidata": "Q668687", "collection_times": "Mo-Sa 12:00", "indoor": "yes", "nsi_id": "unitedstatespostalservice-a77078", "operator": "United States Postal Service", "operator:short": "USPS", "operator:type": "public", "operator:wikidata": "Q668687", "ref": "3601000004"}, "type": "Feature"}
{"geometry": {"coordinates": [-85.815716807, 31.720589841], "type": "Point"}, "id": "Q34-A4PxqdWoL8ICXNc17jY48DU=", "properties": {"@source_uri": "https://tools.usps.com/UspsToolsRestServices/rest/POLocator/findLocations", "@spider": "usps_collection_boxes", "addr:city": "BRUNDIDGE", "addr:country": "US", "addr:postcode": "36010", "addr:state": "AL", "addr:street_address": "129 N MAIN ST", "amenity": "post_box", "brand": "United States Postal Service", "brand:wikidata": "Q668687", "collection_times": "Mo-Fr 16:30; Sa 12:00", "indoor": "yes", "note": "ON 12/24 AND 12/31, THIS BOX MAY BE COLLECTED AS EARLY AS 12 NOON.", "nsi_id": "unitedstatespostalservice-a77078", "operator": "United States Postal Service", "operator:short": "USPS", "operator:type": "public", "operator:wikidata": "Q668687", "ref": "3601000007"}, "type": "Feature"}
{"geometry": {"coordinates": [-86.696623, 31.67418], "type": "Point"}, "id": "cSs4h6UEWG-FxXy2wBFIyqC_Cm0=", "properties": {"@source_uri": "https://tools.usps.com/UspsToolsRestServices/rest/POLocator/findLocations", "@spider": "usps_collection_boxes", "addr:city": "CHAPMAN", "addr:country": "US", "addr:postcode": "36015", "addr:state": "AL", "addr:street_address": "12965 MOBILE RD", "amenity": "post_box", "brand": "United States Postal Service", "brand:wikidata": "Q668687", "collection_times": "Mo-Fr 14:50", "note": "ON 12/24 AND 12/31, THIS BOX MAY BE COLLECTED AS EARLY AS 12 NOON.", "nsi_id": "unitedstatespostalservice-a77078", "operator": "United States Postal Service", "operator:short": "USPS", "operator:type": "public", "operator:wikidata": "Q668687", "ref": "3601500000"}, "type": "Feature"}
{"geometry": {"coordinates": [-86.696623, 31.67418], "type": "Point"}, "id": "Pzs8ZcxA75YpNJ8nB8z2eSS1q78=", "properties": {"@source_uri": "https://tools.usps.com/UspsToolsRestServices/rest/POLocator/findLocations", "@spider": "usps_collection_boxes", "addr:city": "CHAPMAN", "addr:country": "US", "addr:postcode": "36015", "addr:state": "AL", "addr:street_address": "12965 MOBILE RD", "amenity": "post_box", "brand": "United States Postal Service", "brand:wikidata": "Q668687", "collection_times": "Mo-Fr 14:50", "indoor": "yes", "note": "ON 12/24 AND 12/31, THIS BOX MAY BE COLLECTED AS EARLY AS 12 NOON.", "nsi_id": "unitedstatespostalservice-a77078", "operator": "United States Postal Service", "operator:short": "USPS", "operator:type": "public", "operator:wikidata": "Q668687", "ref": "3601500001"}, "type": "Feature"}
{"geometry": {"coordinates": [-86.696458015, 31.675236083], "type": "Point"}, "id": "dyPOJP8lRkbRviajbKYgC6t48eE=", "properties": {"@source_uri": "https://tools.usps.com/UspsToolsRestServices/rest/POLocator/findLocations", "@spider": "usps_collection_boxes", "addr:city": "CHAPMAN", "addr:country": "US", "addr:postcode": "36015", "addr:state": "AL", "addr:street_address": "12965 MOBILE RD", "amenity": "post_box", "brand": "United States Postal Service", "brand:wikidata": "Q668687", "collection_times": "Mo-Fr 15:00", "indoor": "yes", "note": "ON 12/24 AND 12/31, THIS BOX MAY BE COLLECTED AS EARLY AS 12 NOON.", "nsi_id": "unitedstatespostalservice-a77078", "operator": "United States Postal Service", "operator:short": "USPS", "operator:type": "public", "operator:wikidata": "Q668687", "ref": "3601500002"}, "type": "Feature"}
{"geometry": {"coordinates": [-85.449702, 31.874998], "type": "Point"}, "id": "JtyLOMNRvBh8SZa-8TwQET361Js=", "properties": {"@source_uri": "https://tools.usps.com/UspsToolsRestServices/rest/POLocator/findLocations", "@spider": "usps_collection_boxes", "addr:city": "CLAYTON", "addr:country": "US", "addr:postcode": "36016", "addr:state": "AL", "addr:street_address": "15 S MIDWAY ST", "amenity": "post_box", "brand": "United States Postal Service", "brand:wikidata": "Q668687", "collection_times": "Mo-Sa 12:00", "indoor": "yes", "nsi_id": "unitedstatespostalservice-a77078", "operator": "United States Postal Service", "operator:short": "USPS", "operator:type": "public", "operator:wikidata": "Q668687", "ref": "3601600001"}, "type": "Feature"}
{"geometry": {"coordinates": [-85.449702, 31.874998], "type": "Point"}, "id": "8b37sAH7NPxESegYjyJ7KHTn5gs=", "properties": {"@source_uri": "https://tools.usps.com/UspsToolsRestServices/rest/POLocator/findLocations", "@spider": "usps_collection_boxes", "addr:city": "CLAYTON", "addr:country": "US", "addr:postcode": "36016", "addr:state": "AL", "addr:street_address": "15 S MIDWAY ST", "amenity": "post_box", "brand": "United States Postal Service", "brand:wikidata": "Q668687", "collection_times": "Mo-Sa 12:00", "nsi_id": "unitedstatespostalservice-a77078", "operator": "United States Postal Service", "operator:short": "USPS", "operator:type": "public", "operator:wikidata": "Q668687", "ref": "3601600002"}, "type": "Feature"}
{"geometry": {"coordinates": [-85.449729108, 31.875007147], "type": "Point"}, "id": "XcPtQV68kXyEMNlnLU_J4GX4n7Q=", "properties": {"@source_uri": "https://tools.usps.com/UspsToolsRestServices/rest/POLocator/findLocations", "@spider": "usps_collection_boxes", "addr:city": "CLAYTON", "addr:country": "US", "addr:postcode": "36016", "addr:state": "AL", "addr:street_address": "15 S MIDWAY ST", "amenity": "post_box", "brand": "United States Postal Service", "brand:wikidata": "Q668687", "collection_times": "Mo-Fr 15:30; Sa 12:00", "indoor": "yes", "note": "ON 12/24 AND 12/31, THIS BOX MAY BE COLLECTED AS EARLY AS 12 NOON.", "nsi_id": "unitedstatespostalservice-a77078", "operator": "United States Postal Service", "operator:short": "USPS", "operator:type": "public", "operator:wikidata": "Q668687", "ref": "3601600005"}, "type": "Feature"}
{"geometry": {"coordinates": [-85.60969278, 31.708635324], "type": "Point"}, "id": "QWAsp8OJQBTG56TulMV4PveoESU=", "properties": {"@source_uri": "https://tools.usps.com/UspsToolsRestServices/rest/POLocator/findLocations", "@spider": "usps_collection_boxes", "addr:city": "CLIO", "addr:country": "US", "addr:postcode": "36017", "addr:state": "AL", "addr:street_address": "1207 BLUE SPRINGS ST", "amenity": "post_box", "brand": "United States Postal Service", "brand:wikidata": "Q668687", "collection_times": "Mo-Fr 16:00; Sa 11:00", "indoor": "yes", "note": "ON 12/24 AND 12/31, THIS BOX MAY BE COLLECTED AS EARLY AS 12 NOON.", "nsi_id": "unitedstatespostalservice-a77078", "operator": "United States Postal Service", "operator:short": "USPS", "operator:type": "public", "operator:wikidata": "Q668687", "ref": "3601700000"}, "type": "Feature"}
{"geometry": {"coordinates": [-85.60969278, 31.708635324], "type": "Point"}, "id": "JPwwzOM8AmKVOHHzAlfMDCDuyi0=", "properties": {"@source_uri": "https://tools.usps.com/UspsToolsRestServices/rest/POLocator/findLocations", "@spider": "usps_collection_boxes", "addr:city": "CLIO", "addr:country": "US", "addr:postcode": "36017", "addr:state": "AL", "addr:street_address": "1207 BLUE SPRINGS ST", "amenity": "post_box", "brand": "United States Postal Service", "brand:wikidata": "Q668687", "collection_times": "Mo-Fr 16:00; Sa 11:00", "note": "ON 12/24 AND 12/31, THIS BOX MAY BE COLLECTED AS EARLY AS 12 NOON.", "nsi_id": "unitedstatespostalservice-a77078", "operator": "United States Postal Service", "operator:short": "USPS", "operator:type": "public", "operator:wikidata": "Q668687", "ref": "3601700001"}, "type": "Feature"}
{"geometry": {"coordinates": [-85.60969278, 31.708635324], "type": "Point"}, "id": "hyzh6o_7xK2SUASPpNs6mfW_uXU=", "properties": {"@source_uri": "https://tools.usps.com/UspsToolsRestServices/rest/POLocator/findLocations", "@spider": "usps_collection_boxes", "addr:city": "CLIO", "addr:country": "US", "addr:postcode": "36017", "addr:state": "AL", "addr:street_address": "1207 BLUE SPRINGS ST", "amenity": "post_box", "brand": "United States Postal Service", "brand:wikidata": "Q668687", "collection_times": "Mo-Fr 16:00; Sa 11:00", "indoor": "yes", "note": "ON 12/24 AND 12/31, THIS BOX MAY BE COLLECTED AS EARLY AS 12 NOON.", "nsi_id": "unitedstatespostalservice-a77078", "operator": "United States Postal Service", "operator:short": "USPS", "operator:type": "public", "operator:wikidata": "Q668687", "ref": "3601700003"}, "type": "Feature"}
{"geometry": {"coordinates": [-86.334123, 32.498373], "type": "Point"}, "id": "bIHCBxsuaj_OQee2_KL8NcdihJI=", "properties": {"@source_uri": "https://tools.usps.com/UspsToolsRestServices/rest/POLocator/findLocations", "@spider": "usps_collection_boxes", "addr:city": "COOSADA", "addr:country": "US", "addr:postcode": "36020", "addr:state": "AL", "addr:street_address": "5798 COOSADA RD", "amenity": "post_box", "brand": "United States Postal Service", "brand:wikidata": "Q668687", "collection_times": "Mo-Fr 11:50; Sa 09:30", "nsi_id": "unitedstatespostalservice-a77078", "operator": "United States Postal Service", "operator:short": "USPS", "operator:type": "public", "operator:wikidata": "Q668687", "ref": "3602000000"}, "type": "Feature"}
{"geometry": {"coordinates": [-86.334123, 32.498373], "type": "Point"}, "id": "ixzWFPNjjExBqdl1Q21rRP5S1ag=", "properties": {"@source_uri": "https://tools.usps.com/UspsToolsRestServices/rest/POLocator/findLocations", "@spider": "usps_collection_boxes", "addr:city": "COOSADA", "addr:country": "US", "addr:postcode": "36020", "addr:state": "AL", "addr:street_address": "5798 COOSADA RD", "amenity": "post_box", "brand": "United States Postal Service", "brand:wikidata": "Q668687", "collection_times": "Mo-Fr 11:50; Sa 09:30", "indoor": "yes", "nsi_id": "unitedstatespostalservice-a77078", "operator": "United States Postal Service", "operator:short": "USPS", "operator:type": "public", "operator:wikidata": "Q668687", "ref": "3602000001"}, "type": "Feature"}
{"geometry": {"coordinates": [-86.334130614, 32.498323578], "type": "Point"}, "id": "I7mOkZ2M5IVwsEUuYWag_vflrYk=", "properties": {"@source_uri": "https://tools.usps.com/UspsToolsRestServices/rest/POLocator/findLocations", "@spider": "usps_collection_boxes", "addr:city": "COOSADA", "addr:country": "US", "addr:postcode": "36020", "addr:state": "AL", "addr:street_address": "5798 COOSADA RD", "amenity": "post_box", "brand": "United States Postal Service", "brand:wikidata": "Q668687", "collection_times": "Mo-Fr 12:00; Sa 09:45", "indoor": "yes", "nsi_id": "unitedstatespostalservice-a77078", "operator": "United States Postal Service", "operator:short": "USPS", "operator:type": "public", "operator:wikidata": "Q668687", "ref": "3602000003"}, "type": "Feature"}
{"geometry": {"coordinates": [-86.396773, 32.608071], "type": "Point"}, "id": "5_xSUslcquucOONRi8tJmq9gPOI=", "properties": {"@source_uri": "https://tools.usps.com/UspsToolsRestServices/rest/POLocator/findLocations", "@spider": "usps_collection_boxes", "addr:city": "DEATSVILLE", "addr:country": "US", "addr:postcode": "36022", "addr:state": "AL", "addr:street_address": "7510 DEATSVILLE HWY", "amenity": "post_box", "brand": "United States Postal Service", "brand:wikidata": "Q668687", "collection_times": "Mo-Fr 12:00; Sa 10:30", "indoor": "yes", "nsi_id": "unitedstatespostalservice-a77078", "operator": "United States Postal Service", "operator:short": "USPS", "operator:type": "public", "operator:wikidata": "Q668687", "ref": "3602200001"}, "type": "Feature"}
{"geometry": {"coordinates": [-86.396754924, 32.608061246], "type": "Point"}, "id": "BGaxJ2K6kVgd0jI7x_4leOf34A4=", "properties": {"@source_uri": "https://tools.usps.com/UspsToolsRestServices/rest/POLocator/findLocations", "@spider": "usps_collection_boxes", "addr:city": "DEATSVILLE", "addr:country": "US", "addr:postcode": "36022", "addr:state": "AL", "addr:street_address": "7510 DEATSVILLE HWY", "amenity": "post_box", "brand": "United States Postal Service", "brand:wikidata": "Q668687", "collection_times": "Mo-Fr 16:00; Sa 10:30", "indoor": "yes", "note": "ON 12/24 AND 12/31, THIS BOX MAY BE COLLECTED AS EARLY AS 12 NOON.", "nsi_id": "unitedstatespostalservice-a77078", "operator": "United States Postal Service", "operator:short": "USPS", "operator:type": "public", "operator:wikidata": "Q668687", "ref": "3602200003"}, "type": "Feature"}
{"geometry": {"coordinates": [-86.3917661, 32.5567758], "type": "Point"}, "id": "lMO2eNLmNdITEbDlvTwcGkdAK-8=", "properties": {"@source_uri": "https://tools.usps.com/UspsToolsRestServices/rest/POLocator/findLocations", "@spider": "usps_collection_boxes", "addr:city": "DEATSVILLE", "addr:country": "US", "addr:postcode": "36022", "addr:state": "AL", "addr:street_address": "7510 DEATSVILLE HWY", "amenity": "post_box", "brand": "United States Postal Service", "brand:wikidata": "Q668687", "collection_times": "Mo-Fr 16:00; Sa 10:30", "note": "ON 12/24 AND 12/31, THIS BOX MAY BE COLLECTED AS EARLY AS 12 NOON.", "nsi_id": "unitedstatespostalservice-a77078", "operator": "United States Postal Service", "operator:short": "USPS", "operator:type": "public", "operator:wikidata": "Q668687", "ref": "3602200004"}, "type": "Feature"}
{"geometry": {"coordinates": [-86.039038, 32.64112], "type": "Point"}, "id": "5ju2_5gsGKgiEzg6fifG9uLlyHU=", "properties": {"@source_uri": "https://tools.usps.com/UspsToolsRestServices/rest/POLocator/findLocations", "@spider": "usps_collection_boxes", "addr:city": "ECLECTIC", "addr:country": "US", "addr:postcode": "36024", "addr:state": "AL", "addr:street_address": "473 KOWALIGA RD", "amenity": "post_box", "brand": "United States Postal Service", "brand:wikidata": "Q668687", "collection_times": "Mo-Fr 15:00; Sa 11:00", "indoor": "yes", "note": "ON 12/24 AND 12/31, THIS BOX MAY BE COLLECTED AS EARLY AS 12 NOON.", "nsi_id": "unitedstatespostalservice-a77078", "operator": "United States Postal Service", "operator:short": "USPS", "operator:type": "public", "operator:wikidata": "Q668687", "ref": "3602400001"}, "type": "Feature"}
{"geometry": {"coordinates": [-86.039038, 32.64112], "type": "Point"}, "id": "-nadRxqNzQsm5PStJENmJubjpQ4=", "properties": {"@source_uri": "https://tools.usps.com/UspsToolsRestServices/rest/POLocator/findLocations", "@spider": "usps_collection_boxes", "addr:city": "ECLECTIC", "addr:country": "US", "addr:postcode": "36024", "addr:state": "AL", "addr:street_address": "473 KOWALIGA RD", "amenity": "post_box", "brand": "United States Postal Service", "brand:wikidata": "Q668687", "collection_times": "Mo-Fr 15:00; Sa 11:00", "note": "ON 12/24 AND 12/31, THIS BOX MAY BE COLLECTED AS EARLY AS 12 NOON.", "nsi_id": "unitedstatespostalservice-a77078", "operator": "United States Postal Service", "operator:short": "USPS", "operator:type": "public", "operator:wikidata": "Q668687", "ref": "3602400002"}, "type": "Feature"}
{"geometry": {"coordinates": [-86.039068161, 32.641078865], "type": "Point"}, "id": "Le4UgQO_zembog6MyrvKAlqhnkY=", "properties": {"@source_uri": "https://tools.usps.com/UspsToolsRestServices/rest/POLocator/findLocations", "@spider": "usps_collection_boxes", "addr:city": "ECLECTIC", "addr:country": "US", "addr:postcode": "36024", "addr:state": "AL", "addr:street_address": "473 KOWALIGA RD", "amenity": "post_box", "brand": "United States Postal Service", "brand:wikidata": "Q668687", "collection_times": "Mo-Fr 16:00; Sa 11:00", "indoor": "yes", "note": "ON 12/24 AND 12/31, THIS BOX MAY BE COLLECTED AS EARLY AS 12 NOON.", "nsi_id": "unitedstatespostalservice-a77078", "operator": "United States Postal Service", "operator:short": "USPS", "operator:type": "public", "operator:wikidata": "Q668687", "ref": "3602400004"}, "type": "Feature"}
{"geometry": {"coordinates": [-86.3153240393, 32.5407870172], "type": "Point"}, "id": "uRZjUvubAQBfkl0jZ586tQbdvEs=", "properties": {"@source_uri": "https://tools.usps.com/UspsToolsRestServices/rest/POLocator/findLocations", "@spider": "usps_collection_boxes", "addr:city": "ELMORE", "addr:country": "US", "addr:postcode": "36025", "addr:state": "AL", "addr:street_address": "449 JACKSON ST", "amenity": "post_box", "brand": "United States Postal Service", "brand:wikidata": "Q668687", "collection_times": "Mo-Fr 14:50; Sa 10:00", "note": "ON 12/24 AND 12/31, THIS BOX MAY BE COLLECTED AS EARLY AS 12 NOON.", "nsi_id": "unitedstatespostalservice-a77078", "operator": "United States Postal Service", "operator:short": "USPS", "operator:type": "public", "operator:wikidata": "Q668687", "ref": "3602500000"}, "type": "Feature"}
{"geometry": {"coordinates": [-86.314854, 32.542493], "type": "Point"}, "id": "B-MVK_YCUwRh9XdS-j32i_luvHk=", "properties": {"@source_uri": "https://tools.usps.com/UspsToolsRestServices/rest/POLocator/findLocations", "@spider": "usps_collection_boxes", "addr:city": "ELMORE", "addr:country": "US", "addr:postcode": "36025", "addr:state": "AL", "addr:street_address": "449 JACKSON ST", "amenity": "post_box", "brand": "United States Postal Service", "brand:wikidata": "Q668687", "collection_times": "Mo-Fr 14:50; Sa 10:00", "indoor": "yes", "note": "ON 12/24 AND 12/31, THIS BOX MAY BE COLLECTED AS EARLY AS 12 NOON.", "nsi_id": "unitedstatespostalservice-a77078", "operator": "United States Postal Service", "operator:short": "USPS", "operator:type": "public", "operator:wikidata": "Q668687", "ref": "3602500001"}, "type": "Feature"}
{"geometry": {"coordinates": [-86.320263919, 32.550379727], "type": "Point"}, "id": "s7hMFuKE0w9rTwHV1_SAE-fyUgM=", "properties": {"@source_uri": "https://tools.usps.com/UspsToolsRestServices/rest/POLocator/findLocations", "@spider": "usps_collection_boxes", "addr:city": "ELMORE", "addr:country": "US", "addr:postcode": "36025", "addr:state": "AL", "addr:street_address": "449 JACKSON ST", "amenity": "post_box", "brand": "United States Postal Service", "brand:wikidata": "Q668687", "collection_times": "Mo-Fr 15:00; Sa 10:00", "indoor": "yes", "note": "ON 12/24 AND 12/31, THIS BOX MAY BE COLLECTED AS EARLY AS 12 NOON.", "nsi_id": "unitedstatespostalservice-a77078", "operator": "United States Postal Service", "operator:short": "USPS", "operator:type": "public", "operator:wikidata": "Q668687", "ref": "3602500003"}, "type": "Feature"}
{"geometry": {"coordinates": [-86.101584, 32.761857], "type": "Point"}, "id": "esvjVttBiupQaNB17Nfak6gaHfE=", "properties": {"@source_uri": "https://tools.usps.com/UspsToolsRestServices/rest/POLocator/findLocations", "@spider": "usps_collection_boxes", "addr:city": "EQUALITY", "addr:country": "US", "addr:postcode": "36026", "addr:state": "AL", "addr:street_address": "260 AL HIGHWAY 9", "amenity": "post_box", "brand": "United States Postal Service", "brand:wikidata": "Q668687", "collection_times": "Mo-Fr 11:50; Sa 09:00", "indoor": "yes", "nsi_id": "unitedstatespostalservice-a77078", "operator": "United States Postal Service", "operator:short": "USPS", "operator:type": "public", "operator:wikidata": "Q668687", "ref": "3602600000"}, "type": "Feature"}
{"geometry": {"coordinates": [-86.101584, 32.761857], "type": "Point"}, "id": "pPfVWeT9FjgLq-GIH7bwt2gSPbY=", "properties": {"@source_uri": "https://tools.usps.com/UspsToolsRestServices/rest/POLocator/findLocations", "@spider": "usps_collection_boxes", "addr:city": "EQUALITY", "addr:country": "US", "addr:postcode": "36026", "addr:state": "AL", "addr:street_address": "260 AL HIGHWAY 9", "amenity": "post_box", "brand": "United States Postal Service", "brand:wikidata": "Q668687", "collection_times": "Mo-Fr 11:50; Sa 09:00", "nsi_id": "unitedstatespostalservice-a77078", "operator": "United States Postal Service", "operator:short": "USPS", "operator:type": "public", "operator:wikidata": "Q668687", "ref": "3602600001"}, "type": "Feature"}
{"geometry": {"coordinates": [-86.100453535, 32.758248444], "type": "Point"}, "id": "wSzhbIO6tmBRZfYmuZU4N3tgWyk=", "properties": {"@source_uri": "https://tools.usps.com/UspsToolsRestServices/rest/POLocator/findLocations", "@spider": "usps_collection_boxes", "addr:city": "EQUALITY", "addr:country": "US", "addr:postcode": "36026", "addr:state": "AL", "addr:street_address": "260 AL HIGHWAY 9", "amenity": "post_box", "brand": "United States Postal Service", "brand:wikidata": "Q668687", "collection_times": "Mo-Fr 12:00; Sa 09:30", "indoor": "yes", "nsi_id": "unitedstatespostalservice-a77078", "operator": "United States Postal Service", "operator:short": "USPS", "operator:type": "public", "operator:wikidata": "Q668687", "ref": "3602600003"}, "type": "Feature"}
{"geometry": {"coordinates": [-85.138188, 31.893246], "type": "Point"}, "id": "JvdREdDXlkN9ky3WOBmmGNHY0_k=", "properties": {"@source_uri": "https://tools.usps.com/UspsToolsRestServices/rest/POLocator/findLocations", "@spider": "usps_collection_boxes", "addr:city": "EUFAULA", "addr:country": "US", "addr:postcode": "36027", "addr:state": "AL", "addr:street_address": "540 E BROAD ST", "amenity": "post_box", "brand": "United States Postal Service", "brand:wikidata": "Q668687", "collection_times": "Mo-Fr 16:15; Sa 15:30", "note": "ON 12/24 AND 12/31, THIS BOX MAY BE COLLECTED AS EARLY AS 12 NOON.", "nsi_id": "unitedstatespostalservice-a77078", "operator": "United States Postal Service", "operator:short": "USPS", "operator:type": "public", "operator:wikidata": "Q668687", "ref": "3602700001"}, "type": "Feature"}
{"geometry": {"coordinates": [-85.138188, 31.893246], "type": "Point"}, "id": "OH9RvCFouPbJ6OhNkb3FuiXEnU4=", "properties": {"@source_uri": "https://tools.usps.com/UspsToolsRestServices/rest/POLocator/findLocations", "@spider": "usps_collection_boxes", "addr:city": "EUFAULA", "addr:country": "US", "addr:postcode": "36027", "addr:state": "AL", "addr:street_address": "540 E BROAD ST", "amenity": "post_box", "brand": "United States Postal Service", "brand:wikidata": "Q668687", "collection_times": "Mo-Fr 16:15; Sa 15:30", "note": "ON 12/24 AND 12/31, THIS BOX MAY BE COLLECTED AS EARLY AS 12 NOON.", "nsi_id": "unitedstatespostalservice-a77078", "operator": "United States Postal Service", "operator:short": "USPS", "operator:type": "public", "operator:wikidata": "Q668687", "ref": "3602700002"}, "type": "Feature"}
{"geometry": {"coordinates": [-85.138188, 31.893246], "type": "Point"}, "id": "Ls85RIp1um5yznf0mssq0sHrNHU=", "properties": {"@source_uri": "https://tools.usps.com/UspsToolsRestServices/rest/POLocator/findLocations", "@spider": "usps_collection_boxes", "addr:city": "EUFAULA", "addr:country": "US", "addr:postcode": "36027", "addr:state": "AL", "addr:street_address": "540 E BROAD ST", "amenity": "post_box", "brand": "United States Postal Service", "brand:wikidata": "Q668687", "collection_times": "Mo-Fr 16:15; Sa 15:30", "note": "ON 12/24 AND 12/31, THIS BOX MAY BE COLLECTED AS EARLY AS 12 NOON.", "nsi_id": "unitedstatespostalservice-a77078", "operator": "United States Postal Service", "operator:short": "USPS", "operator:type": "public", "operator:wikidata": "Q668687", "ref": "3602700003"}, "type": "Feature"}
{"geometry": {"coordinates": [-85.138188, 31.893246], "type": "Point"}, "id": "Xe_Oa14b2hh4ScVI5spsRvXK3qo=", "properties": {"@source_uri": "https://tools.usps.com/UspsToolsRestServices/rest/POLocator/findLocations", "@spider": "usps_collection_boxes", "addr:city": "EUFAULA", "addr:country": "US", "addr:postcode": "36027", "addr:state": "AL", "addr:street_address": "540 E BROAD ST", "amenity": "post_box", "brand": "United States Postal Service", "brand:wikidata": "Q668687", "collection_times": "Mo-Fr 16:15; Sa 15:30", "indoor": "yes", "note": "ON 12/24 AND 12/31, THIS BOX MAY BE COLLECTED AS EARLY AS 12 NOON.", "nsi_id": "unitedstatespostalservice-a77078", "operator": "United States Postal Service", "operator:short": "USPS", "operator:type": "public", "operator:wikidata": "Q668687", "ref": "3602700019"}, "type": "Feature"}
{"geometry": {"coordinates": [-85.138199929, 31.89328482], "type": "Point"}, "id": "b-6HY5lSSUwXdJ8qnfpTJGPVI8M=", "properties": {"@source_uri": "https://tools.usps.com/UspsToolsRestServices/rest/POLocator/findLocations", "@spider": "usps_collection_boxes", "addr:city": "EUFAULA", "addr:country": "US", "addr:postcode": "36027", "addr:state": "AL", "addr:street_address": "540 E BROAD ST", "amenity": "post_box", "brand": "United States Postal Service", "brand:wikidata": "Q668687", "collection_times": "Mo-Fr 16:30; Sa 12:00", "indoor": "yes", "note": "ON 12/24 AND 12/31, THIS BOX MAY BE COLLECTED AS EARLY AS 12 NOON.", "nsi_id": "unitedstatespostalservice-a77078", "operator": "United States Postal Service", "operator:short": "USPS", "operator:type": "public", "operator:wikidata": "Q668687", "ref": "3602700023"}, "type": "Feature"}
{"geometry": {"coordinates": [-86.365482, 31.492628], "type": "Point"}, "id": "facuiCo_BV4lbiJHmEcRm0Mo0dk=", "properties": {"@source_uri": "https://tools.usps.com/UspsToolsRestServices/rest/POLocator/findLocations", "@spider": "usps_collection_boxes", "addr:city": "DOZIER", "addr:country": "US", "addr:postcode": "36028", "addr:state": "AL", "addr:street_address": "7787 S MAIN ST", "amenity": "post_box", "brand": "United States Postal Service", "brand:wikidata": "Q668687", "collection_times": "Mo-Sa 10:50", "nsi_id": "unitedstatespostalservice-a77078", "operator": "United States Postal Service", "operator:short": "USPS", "operator:type": "public", "operator:wikidata": "Q668687", "ref": "3602800000"}, "type": "Feature"}
{"geometry": {"coordinates": [-86.365482, 31.492628], "type": "Point"}, "id": "AAxFEnrFhfj0bfEjQMSkrefrCas=", "properties": {"@source_uri": "https://tools.usps.com/UspsToolsRestServices/rest/POLocator/findLocations", "@spider": "usps_collection_boxes", "addr:city": "DOZIER", "addr:country": "US", "addr:postcode": "36028", "addr:state": "AL", "addr:street_address": "7787 S MAIN ST", "amenity": "post_box", "brand": "United States Postal Service", "brand:wikidata": "Q668687", "collection_times": "Mo-Sa 10:50", "indoor": "yes", "nsi_id": "unitedstatespostalservice-a77078", "operator": "United States Postal Service", "operator:short": "USPS", "operator:type": "public", "operator:wikidata": "Q668687", "ref": "3602800001"}, "type": "Feature"}
{"geometry": {"coordinates": [-86.365194217, 31.492442515], "type": "Point"}, "id": "z5TX8KoSgNpLoH6Q8bfpxlEloBI=", "properties": {"@source_uri": "https://tools.usps.com/UspsToolsRestServices/rest/POLocator/findLocations", "@spider": "usps_collection_boxes", "addr:city": "DOZIER", "addr:country": "US", "addr:postcode": "36028", "addr:state": "AL", "addr:street_address": "7787 S MAIN ST", "amenity": "post_box", "brand": "United States Postal Service", "brand:wikidata": "Q668687", "collection_times": "Mo-Sa 11:00", "indoor": "yes", "nsi_id": "unitedstatespostalservice-a77078", "operator": "United States Postal Service", "operator:short": "USPS", "operator:type": "public", "operator:wikidata": "Q668687", "ref": "3602800003"}, "type": "Feature"}
{"geometry": {"coordinates": [-85.886646, 32.210934], "type": "Point"}, "id": "R7CL0eHfR0p89S3Vs_s7JxrBTJc=", "properties": {"@source_uri": "https://tools.usps.com/UspsToolsRestServices/rest/POLocator/findLocations", "@spider": "usps_collection_boxes", "addr:city": "FITZPATRICK", "addr:country": "US", "addr:postcode": "36029", "addr:state": "AL", "addr:street_address": "9575 HIGHWAY 110", "amenity": "post_box", "brand": "United States Postal Service", "brand:wikidata": "Q668687", "collection_times": "Mo-Fr 11:50; Sa 09:30", "nsi_id": "unitedstatespostalservice-a77078", "operator": "United States Postal Service", "operator:short": "USPS", "operator:type": "public", "operator:wikidata": "Q668687", "ref": "3602900000"}, "type": "Feature"}
{"geometry": {"coordinates": [-85.886646, 32.210934], "type": "Point"}, "id": "JfkeLOf1zrDbfO7ged99RUi11Ls=", "properties": {"@source_uri": "https://tools.usps.com/UspsToolsRestServices/rest/POLocator/findLocations", "@spider": "usps_collection_boxes", "addr:city": "FITZPATRICK", "addr:country": "US", "addr:postcode": "36029", "addr:state": "AL", "addr:street_address": "9575 HIGHWAY 110", "amenity": "post_box", "brand": "United States Postal Service", "brand:wikidata": "Q668687", "collection_times": "Mo-Fr 11:50; Sa 09:30", "indoor": "yes", "nsi_id": "unitedstatespostalservice-a77078", "operator": "United States Postal Service", "operator:short": "USPS", "operator:type": "public", "operator:wikidata": "Q668687", "ref": "3602900001"}, "type": "Feature"}
{"geometry": {"coordinates": [-85.886663182, 32.210888858], "type": "Point"}, "id": "Uc6naGCiR8NCY77ftIbhdXVMGZY=", "properties": {"@source_uri": "https://tools.usps.com/UspsToolsRestServices/rest/POLocator/findLocations", "@spider": "usps_collection_boxes", "addr:city": "FITZPATRICK", "addr:country": "US", "addr:postcode": "36029", "addr:state": "AL", "addr:street_address": "9575 HIGHWAY 110", "amenity": "post_box", "brand": "United States Postal Service", "brand:wikidata": "Q668687", "collection_times": "Mo-Fr 11:50; Sa 09:30", "indoor": "yes", "nsi_id": "unitedstatespostalservice-a77078", "operator": "United States Postal Service", "operator:short": "USPS", "operator:type": "public", "operator:wikidata": "Q668687", "ref": "3602900003"}, "type": "Feature"}
{"geometry": {"coordinates": [-86.840731, 31.863678], "type": "Point"}, "id": "mp_IHd24WWsc0YP_DXN5RigCI4w=", "properties": {"@source_uri": "https://tools.usps.com/UspsToolsRestServices/rest/POLocator/findLocations", "@spider": "usps_collection_boxes", "addr:city": "FOREST HOME", "addr:country": "US", "addr:postcode": "36030", "addr:state": "AL", "addr:street_address": "7844 FOREST HOME RD", "amenity": "post_box", "brand": "United States Postal Service", "brand:wikidata": "Q668687", "collection_times": "Mo-Fr 12:00; Sa 10:00", "nsi_id": "unitedstatespostalservice-a77078", "operator": "United States Postal Service", "operator:short": "USPS", "operator:type": "public", "operator:wikidata": "Q668687", "ref": "3603000000"}, "type": "Feature"}
{"geometry": {"coordinates": [-86.840731, 31.863678], "type": "Point"}, "id": "VouSGb_4RhRFDQBGduqhfwM9yfA=", "properties": {"@source_uri": "https://tools.usps.com/UspsToolsRestServices/rest/POLocator/findLocations", "@spider": "usps_collection_boxes", "addr:city": "FOREST HOME", "addr:country": "US", "addr:postcode": "36030", "addr:state": "AL", "addr:street_address": "7844 FOREST HOME RD", "amenity": "post_box", "brand": "United States Postal Service", "brand:wikidata": "Q668687", "collection_times": "Mo-Fr 12:00; Sa 10:00", "indoor": "yes", "nsi_id": "unitedstatespostalservice-a77078", "operator": "United States Postal Service", "operator:short": "USPS", "operator:type": "public", "operator:wikidata": "Q668687", "ref": "3603000001"}, "type": "Feature"}
{"geometry": {"coordinates": [-86.840727915, 31.863712323], "type": "Point"}, "id": "yzjkJJWTIy_OHSLAwcPITH9bKhU=", "properties": {"@source_uri": "https://tools.usps.com/UspsToolsRestServices/rest/POLocator/findLocations", "@spider": "usps_collection_boxes", "addr:city": "FOREST HOME", "addr:country": "US", "addr:postcode": "36030", "addr:state": "AL", "addr:street_address": "7844 FOREST HOME RD", "amenity": "post_box", "brand": "United States Postal Service", "brand:wikidata": "Q668687", "collection_times": "Mo-Fr 12:00; Sa 10:00", "indoor": "yes", "nsi_id": "unitedstatespostalservice-a77078", "operator": "United States Postal Service", "operator:short": "USPS", "operator:type": "public", "operator:wikidata": "Q668687", "ref": "3603000004"}, "type": "Feature"}
{"geometry": {"coordinates": [-85.709349, 32.241443], "type": "Point"}, "id": "uVBjv5AJ7cvg3BheWkzamOFRsz8=", "properties": {"@source_uri": "https://tools.usps.com/UspsToolsRestServices/rest/POLocator/findLocations", "@spider": "usps_collection_boxes", "addr:city": "FORT DAVIS", "addr:country": "US", "addr:postcode": "36031", "addr:state": "AL", "addr:street_address": "14125 US HIGHWAY 29 S", "amenity": "post_box", "brand": "United States Postal Service", "brand:wikidata": "Q668687", "collection_times": "Mo-Sa 09:50", "nsi_id": "unitedstatespostalservice-a77078", "operator": "United States Postal Service", "operator:short": "USPS", "operator:type": "public", "operator:wikidata": "Q668687", "ref": "3603100000"}, "type": "Feature"}
{"geometry": {"coordinates": [-85.709349, 32.241443], "type": "Point"}, "id": "Xg-rDgVJLkLQKublxPSPBHp2me8=", "properties": {"@source_uri": "https://tools.usps.com/UspsToolsRestServices/rest/POLocator/findLocations", "@spider": "usps_collection_boxes", "addr:city": "FORT DAVIS", "addr:country": "US", "addr:postcode": "36031", "addr:state": "AL", "addr:street_address": "14125 US HIGHWAY 29 S", "amenity": "post_box", "brand": "United States Postal Service", "brand:wikidata": "Q668687", "collection_times": "Mo-Sa 09:50", "indoor": "yes", "nsi_id": "unitedstatespostalservice-a77078", "operator": "United States Postal Service", "operator:short": "USPS", "operator:type": "public", "operator:wikidata": "Q668687", "ref": "3603100001"}, "type": "Feature"}
{"geometry": {"coordinates": [-85.709363036, 32.245314062], "type": "Point"}, "id": "TZvTdyrQEen1IwPdYJTuGN9x4WU=", "properties": {"@source_uri": "https://tools.usps.com/UspsToolsRestServices/rest/POLocator/findLocations", "@spider": "usps_collection_boxes", "addr:city": "FORT DAVIS", "addr:country": "US", "addr:postcode": "36031", "addr:state": "AL", "addr:street_address": "14125 US HIGHWAY 29 S", "amenity": "post_box", "brand": "United States Postal Service", "brand:wikidata": "Q668687", "collection_times": "Mo-Sa 09:50", "indoor": "yes", "nsi_id": "unitedstatespostalservice-a77078", "operator": "United States Postal Service", "operator:short": "USPS", "operator:type": "public", "operator:wikidata": "Q668687", "ref": "3603100002"}, "type": "Feature"}
{"geometry": {"coordinates": [-86.578646416, 31.987415694], "type": "Point"}, "id": "zFmZw5XvCXGHCGYjWaRHerLzlJs=", "properties": {"@source_uri": "https://tools.usps.com/UspsToolsRestServices/rest/POLocator/findLocations", "@spider": "usps_collection_boxes", "addr:city": "FORT DEPOSIT", "addr:country": "US", "addr:postcode": "36032", "addr:state": "AL", "addr:street_address": "85 OLD FORT RD E", "amenity": "post_box", "brand": "United States Postal Service", "brand:wikidata": "Q668687", "collection_times": "Mo-Fr 15:15; Sa 10:15", "note": "ON 12/24 AND 12/31, THIS BOX MAY BE COLLECTED AS EARLY AS 12 NOON.", "nsi_id": "unitedstatespostalservice-a77078", "operator": "United States Postal Service", "operator:short": "USPS", "operator:type": "public", "operator:wikidata": "Q668687", "ref": "3603200000"}, "type": "Feature"}
{"geometry": {"coordinates": [-86.578646416, 31.987415694], "type": "Point"}, "id": "Ak08DilXLIn-cQoR7XoSZ6O_m-U=", "properties": {"@source_uri": "https://tools.usps.com/UspsToolsRestServices/rest/POLocator/findLocations", "@spider": "usps_collection_boxes", "addr:city": "FORT DEPOSIT", "addr:country": "US", "addr:postcode": "36032", "addr:state": "AL", "addr:street_address": "85 OLD FORT RD E", "amenity": "post_box", "brand": "United States Postal Service", "brand:wikidata": "Q668687", "collection_times": "Mo-Fr 15:15; Sa 10:15", "indoor": "yes", "note": "ON 12/24 AND 12/31, THIS BOX MAY BE COLLECTED AS EARLY AS 12 NOON.", "nsi_id": "unitedstatespostalservice-a77078", "operator": "United States Postal Service", "operator:short": "USPS", "operator:type": "public", "operator:wikidata": "Q668687", "ref": "3603200001"}, "type": "Feature"}
{"geometry": {"coordinates": [-86.5786464161, 31.987415694], "type": "Point"}, "id": "RXQyissRDhb8jdm3vKgeVsfoYKM=", "properties": {"@source_uri": "https://tools.usps.com/UspsToolsRestServices/rest/POLocator/findLocations", "@spider": "usps_collection_boxes", "addr:city": "FORT DEPOSIT", "addr:country": "US", "addr:postcode": "36032", "addr:state": "AL", "addr:street_address": "85 OLD FORT RD E", "amenity": "post_box", "brand": "United States Postal Service", "brand:wikidata": "Q668687", "collection_times": "Mo-Fr 15:30; Sa 10:30", "indoor": "yes", "note": "ON 12/24 AND 12/31, THIS BOX MAY BE COLLECTED AS EARLY AS 12 NOON.", "nsi_id": "unitedstatespostalservice-a77078", "operator": "United States Postal Service", "operator:short": "USPS", "operator:type": "public", "operator:wikidata": "Q668687", "ref": "3603200003"}, "type": "Feature"}
{"geometry": {"coordinates": [-86.742722, 31.642258], "type": "Point"}, "id": "U6JwGDOc5JFeOcVeTNn2nZH6H6w=", "properties": {"@source_uri": "https://tools.usps.com/UspsToolsRestServices/rest/POLocator/findLocations", "@spider": "usps_collection_boxes", "addr:city": "GEORGIANA", "addr:country": "US", "addr:postcode": "36033", "addr:state": "AL", "addr:street_address": "248 N MIRANDA AVE", "amenity": "post_box", "brand": "United States Postal Service", "brand:wikidata": "Q668687", "collection_times": "Mo-Fr 12:30; Sa 11:30", "note": "ON 12/24 AND 12/31, THIS BOX MAY BE COLLECTED AS EARLY AS 12 NOON.", "nsi_id": "unitedstatespostalservice-a77078", "operator": "United States Postal Service", "operator:short": "USPS", "operator:type": "public", "operator:wikidata": "Q668687", "ref": "3603300001"}, "type": "Feature"}
{"geometry": {"coordinates": [-86.742722, 31.642258], "type": "Point"}, "id": "wUFYZPAiY6AUdGdsnK7ljdBJa8I=", "properties": {"@source_uri": "https://tools.usps.com/UspsToolsRestServices/rest/POLocator/findLocations", "@spider": "usps_collection_boxes", "addr:city": "GEORGIANA", "addr:country": "US", "addr:postcode": "36033", "addr:state": "AL", "addr:street_address": "248 N MIRANDA AVE", "amenity": "post_box", "brand": "United States Postal Service", "brand:wikidata": "Q668687", "collection_times": "Mo-Fr 12:30; Sa 11:30", "indoor": "yes", "note": "ON 12/24 AND 12/31, THIS BOX MAY BE COLLECTED AS EARLY AS 12 NOON.", "nsi_id": "unitedstatespostalservice-a77078", "operator": "United States Postal Service", "operator:short": "USPS", "operator:type": "public", "operator:wikidata": "Q668687", "ref": "3603300002"}, "type": "Feature"}
{"geometry": {"coordinates": [-86.742698624, 31.642249309], "type": "Point"}, "id": "iGDUfSU3M8Re3OdL6KouQTLhSag=", "properties": {"@source_uri": "https://tools.usps.com/UspsToolsRestServices/rest/POLocator/findLocations", "@spider": "usps_collection_boxes", "addr:city": "GEORGIANA", "addr:country": "US", "addr:postcode": "36033", "addr:state": "AL", "addr:street_address": "248 N MIRANDA AVE", "amenity": "post_box", "brand": "United States Postal Service", "brand:wikidata": "Q668687", "collection_times": "Mo-Fr 16:00; Sa 11:15", "indoor": "yes", "note": "ON 12/24 AND 12/31, THIS BOX MAY BE COLLECTED AS EARLY AS 12 NOON.", "nsi_id": "unitedstatespostalservice-a77078", "operator": "United States Postal Service", "operator:short": "USPS", "operator:type": "public", "operator:wikidata": "Q668687", "ref": "3603300004"}, "type": "Feature"}
{"geometry": {"coordinates": [-86.167782, 31.672332], "type": "Point"}, "id": "IGudMnSzEan3Zvom0xWBfXlaYvQ=", "properties": {"@source_uri": "https://tools.usps.com/UspsToolsRestServices/rest/POLocator/findLocations", "@spider": "usps_collection_boxes", "addr:city": "GLENWOOD", "addr:country": "US", "addr:postcode": "36034", "addr:state": "AL", "addr:street_address": "26 N KING ST", "amenity": "post_box", "brand": "United States Postal Service", "brand:wikidata": "Q668687", "collection_times": "Mo-Fr 11:50; Sa 09:30", "nsi_id": "unitedstatespostalservice-a77078", "operator": "United States Postal Service", "operator:short": "USPS", "operator:type": "public", "operator:wikidata": "Q668687", "ref": "3603400000"}, "type": "Feature"}
{"geometry": {"coordinates": [-86.167782, 31.672332], "type": "Point"}, "id": "fR5aVVCDHv_ryZnEg8HS-rY475A=", "properties": {"@source_uri": "https://tools.usps.com/UspsToolsRestServices/rest/POLocator/findLocations", "@spider": "usps_collection_boxes", "addr:city": "GLENWOOD", "addr:country": "US", "addr:postcode": "36034", "addr:state": "AL", "addr:street_address": "26 N KING ST", "amenity": "post_box", "brand": "United States Postal Service", "brand:wikidata": "Q668687", "collection_times": "Mo-Fr 11:50; Sa 09:30", "indoor": "yes", "nsi_id": "unitedstatespostalservice-a77078", "operator": "United States Postal Service", "operator:short": "USPS", "operator:type": "public", "operator:wikidata": "Q668687", "ref": "3603400001"}, "type": "Feature"}
{"geometry": {"coordinates": [-86.167762713, 31.672323124], "type": "Point"}, "id": "9-miDumDXLd92KE_fI1-6waOQ6o=", "properties": {"@source_uri": "https://tools.usps.com/UspsToolsRestServices/rest/POLocator/findLocations", "@spider": "usps_collection_boxes", "addr:city": "GLENWOOD", "addr:country": "US", "addr:postcode": "36034", "addr:state": "AL", "addr:street_address": "26 N KING ST", "amenity": "post_box", "brand": "United States Postal Service", "brand:wikidata": "Q668687", "collection_times": "Mo-Fr 12:00; Sa 09:30", "indoor": "yes", "nsi_id": "unitedstatespostalservice-a77078", "operator": "United States Postal Service", "operator:short": "USPS", "operator:type": "public", "operator:wikidata": "Q668687", "ref": "3603400003"}, "type": "Feature"}
{"geometry": {"coordinates": [-86.121166, 31.721699], "type": "Point"}, "id": "psRWsbYgdZjDxBZqDvExFnKGCIw=", "properties": {"@source_uri": "https://tools.usps.com/UspsToolsRestServices/rest/POLocator/findLocations", "@spider": "usps_collection_boxes", "addr:city": "GOSHEN", "addr:country": "US", "addr:postcode": "36035", "addr:state": "AL", "addr:street_address": "31 GREENVILLE AVE", "amenity": "post_box", "brand": "United States Postal Service", "brand:wikidata": "Q668687", "collection_times": "Mo-Fr 17:00; Sa 11:30", "note": "ON 12/24 AND 12/31, THIS BOX MAY BE COLLECTED AS EARLY AS 12 NOON.", "nsi_id": "unitedstatespostalservice-a77078", "operator": "United States Postal Service", "operator:short": "USPS", "operator:type": "public", "operator:wikidata": "Q668687", "ref": "3603500000"}, "type": "Feature"}
{"geometry": {"coordinates": [-86.121166, 31.721699], "type": "Point"}, "id": "hAmagYV7nY2js_63ouE5jJwMrtA=", "properties": {"@source_uri": "https://tools.usps.com/UspsToolsRestServices/rest/POLocator/findLocations", "@spider": "usps_collection_boxes", "addr:city": "GOSHEN", "addr:country": "US", "addr:postcode": "36035", "addr:state": "AL", "addr:street_address": "31 GREENVILLE AVE", "amenity": "post_box", "brand": "United States Postal Service", "brand:wikidata": "Q668687", "collection_times": "Mo-Fr 17:00; Sa 11:30", "indoor": "yes", "note": "ON 12/24 AND 12/31, THIS BOX MAY BE COLLECTED AS EARLY AS 12 NOON.", "nsi_id": "unitedstatespostalservice-a77078", "operator": "United States Postal Service", "operator:short": "USPS", "operator:type": "public", "operator:wikidata": "Q668687", "ref": "3603500001"}, "type": "Feature"}
{"geometry": {"coordinates": [-86.12115259, 31.721649941], "type": "Point"}, "id": "hpcNWH2bXRs56cbpvLq68p4Xug0=", "properties": {"@source_uri": "https://tools.usps.com/UspsToolsRestServices/rest/POLocator/findLocations", "@spider": "usps_collection_boxes", "addr:city": "GOSHEN", "addr:country": "US", "addr:postcode": "36035", "addr:state": "AL", "addr:street_address": "31 GREENVILLE AVE", "amenity": "post_box", "brand": "United States Postal Service", "brand:wikidata": "Q668687", "collection_times": "Mo-Fr 17:00; Sa 11:30", "indoor": "yes", "note": "ON 12/24 AND 12/31, THIS BOX MAY BE COLLECTED AS EARLY AS 12 NOON.", "nsi_id": "unitedstatespostalservice-a77078", "operator": "United States Postal Service", "operator:short": "USPS", "operator:type": "public", "operator:wikidata": "Q668687", "ref": "3603500003"}, "type": "Feature"}
{"geometry": {"coordinates": [-86.201524, 31.991733], "type": "Point"}, "id": "_LgNDID4KsKin9NTQ6Dubcb9URE=", "properties": {"@source_uri": "https://tools.usps.com/UspsToolsRestServices/rest/POLocator/findLocations", "@spider": "usps_collection_boxes", "addr:city": "GRADY", "addr:country": "US", "addr:postcode": "36036", "addr:state": "AL", "addr:street_address": "6208 RAMER GRADY RD", "amenity": "post_box", "brand": "United States Postal Service", "brand:wikidata": "Q668687", "collection_times": "Mo-Fr 11:50; Sa 09:00", "nsi_id": "unitedstatespostalservice-a77078", "operator": "United States Postal Service", "operator:short": "USPS", "operator:type": "public", "operator:wikidata": "Q668687", "ref": "3603600000"}, "type": "Feature"}
{"geometry": {"coordinates": [-86.201524, 31.991733], "type": "Point"}, "id": "0va5KwetVIID4aBNqp5YIDQn0zQ=", "properties": {"@source_uri": "https://tools.usps.com/UspsToolsRestServices/rest/POLocator/findLocations", "@spider": "usps_collection_boxes", "addr:city": "GRADY", "addr:country": "US", "addr:postcode": "36036", "addr:state": "AL", "addr:street_address": "6208 RAMER GRADY RD", "amenity": "post_box", "brand": "United States Postal Service", "brand:wikidata": "Q668687", "collection_times": "Mo-Fr 11:50; Sa 09:00", "indoor": "yes", "nsi_id": "unitedstatespostalservice-a77078", "operator": "United States Postal Service", "operator:short": "USPS", "operator:type": "public", "operator:wikidata": "Q668687", "ref": "3603600001"}, "type": "Feature"}
{"geometry": {"coordinates": [-86.201583561, 31.99194811], "type": "Point"}, "id": "IKAKDXi50JZg-5F9uTCHb1RwqQ8=", "properties": {"@source_uri": "https://tools.usps.com/UspsToolsRestServices/rest/POLocator/findLocations", "@spider": "usps_collection_boxes", "addr:city": "GRADY", "addr:country": "US", "addr:postcode": "36036", "addr:state": "AL", "addr:street_address": "6208 RAMER GRADY RD", "amenity": "post_box", "brand": "United States Postal Service", "brand:wikidata": "Q668687", "collection_times": "Mo-Fr 12:00; Sa 09:15", "indoor": "yes", "nsi_id": "unitedstatespostalservice-a77078", "operator": "United States Postal Service", "operator:short": "USPS", "operator:type": "public", "operator:wikidata": "Q668687", "ref": "3603600003"}, "type": "Feature"}
{"geometry": {"coordinates": [-86.6235404, 31.829919], "type": "Point"}, "id": "1HXL7r_aDaXxoofFuH-uy25kKps=", "properties": {"@source_uri": "https://tools.usps.com/UspsToolsRestServices/rest/POLocator/findLocations", "@spider": "usps_collection_boxes", "addr:city": "GREENVILLE", "addr:country": "US", "addr:postcode": "36037", "addr:state": "AL", "addr:street_address": "101 E COMMERCE ST", "amenity": "post_box", "brand": "United States Postal Service", "brand:wikidata": "Q668687", "collection_times": "Mo-Sa 16:30", "note": "ON 12/24 AND 12/31, THIS BOX MAY BE COLLECTED AS EARLY AS 12 NOON.", "nsi_id": "unitedstatespostalservice-a77078", "operator": "United States Postal Service", "operator:short": "USPS", "operator:type": "public", "operator:wikidata": "Q668687", "ref": "3603700000"}, "type": "Feature"}
{"geometry": {"coordinates": [-86.6235389, 31.829919], "type": "Point"}, "id": "NUTIJb41JIwmyWfGLgbe_yLxSLY=", "properties": {"@source_uri": "https://tools.usps.com/UspsToolsRestServices/rest/POLocator/findLocations", "@spider": "usps_collection_boxes", "addr:city": "GREENVILLE", "addr:country": "US", "addr:postcode": "36037", "addr:state": "AL", "addr:street_address": "101 E COMMERCE ST", "amenity": "post_box", "brand": "United States Postal Service", "brand:wikidata": "Q668687", "collection_times": "Mo-Sa 16:30", "note": "ON 12/24 AND 12/31, THIS BOX MAY BE COLLECTED AS EARLY AS 12 NOON.", "nsi_id": "unitedstatespostalservice-a77078", "operator": "United States Postal Service", "operator:short": "USPS", "operator:type": "public", "operator:wikidata": "Q668687", "ref": "3603700001"}, "type": "Feature"}
{"geometry": {"coordinates": [-86.6386703, 31.854207], "type": "Point"}, "id": "w7Jlnqlc9olQbT9a-dUh2IKRbg8=", "properties": {"@source_uri": "https://tools.usps.com/UspsToolsRestServices/rest/POLocator/findLocations", "@spider": "usps_collection_boxes", "addr:city": "GREENVILLE", "addr:country": "US", "addr:postcode": "36037", "addr:state": "AL", "addr:street_address": "145 INTERSTATE DR", "amenity": "post_box", "brand": "United States Postal Service", "brand:wikidata": "Q668687", "collection_times": "Mo-Sa 08:45", "nsi_id": "unitedstatespostalservice-a77078", "operator": "United States Postal Service", "operator:short": "USPS", "operator:type": "public", "operator:wikidata": "Q668687", "ref": "3603700008"}, "type": "Feature"}
{"geometry": {"coordinates": [-86.618671, 31.829606], "type": "Point"}, "id": "ORSC7zmWdFF_lvbnO1fIIYBnZJ4=", "properties": {"@source_uri": "https://tools.usps.com/UspsToolsRestServices/rest/POLocator/findLocations", "@spider": "usps_collection_boxes", "addr:city": "GREENVILLE", "addr:country": "US", "addr:postcode": "36037", "addr:state": "AL", "addr:street_address": "607 E COMMERCE ST", "amenity": "post_box", "brand": "United States Postal Service", "brand:wikidata": "Q668687", "collection_times": "Mo-Sa 13:15", "note": "ON 12/24 AND 12/31, THIS BOX MAY BE COLLECTED AS EARLY AS 12 NOON.", "nsi_id": "unitedstatespostalservice-a77078", "operator": "United States Postal Service", "operator:short": "USPS", "operator:type": "public", "operator:wikidata": "Q668687", "ref": "3603700010"}, "type": "Feature"}
{"geometry": {"coordinates": [-86.624042, 31.829608], "type": "Point"}, "id": "eod0p3wM9B6TQ-thNT-LWZQFplI=", "properties": {"@source_uri": "https://tools.usps.com/UspsToolsRestServices/rest/POLocator/findLocations", "@spider": "usps_collection_boxes", "addr:city": "GREENVILLE", "addr:country": "US", "addr:postcode": "36037", "addr:state": "AL", "addr:street_address": "101 E COMMERCE ST", "amenity": "post_box", "brand": "United States Postal Service", "brand:wikidata": "Q668687", "collection_times": "Mo-Sa 16:30", "indoor": "yes", "note": "ON 12/24 AND 12/31, THIS BOX MAY BE COLLECTED AS EARLY AS 12 NOON.", "nsi_id": "unitedstatespostalservice-a77078", "operator": "United States Postal Service", "operator:short": "USPS", "operator:type": "public", "operator:wikidata": "Q668687", "ref": "3603700012"}, "type": "Feature"}
{"geometry": {"coordinates": [-86.6238705, 31.82960046], "type": "Point"}, "id": "y4FUqKvQh7psQrd4KjdL23myEqI=", "properties": {"@source_uri": "https://tools.usps.com/UspsToolsRestServices/rest/POLocator/findLocations", "@spider": "usps_collection_boxes", "addr:city": "GREENVILLE", "addr:country": "US", "addr:postcode": "36037", "addr:state": "AL", "addr:street_address": "101 E COMMERCE ST", "amenity": "post_box", "brand": "United States Postal Service", "brand:wikidata": "Q668687", "collection_times": "Mo-Fr 16:30; Sa 12:00", "indoor": "yes", "note": "ON 12/24 AND 12/31, THIS BOX MAY BE COLLECTED AS EARLY AS 12 NOON.", "nsi_id": "unitedstatespostalservice-a77078", "operator": "United States Postal Service", "operator:short": "USPS", "operator:type": "public", "operator:wikidata": "Q668687", "ref": "3603700019"}, "type": "Feature"}
{"geometry": {"coordinates": [-86.48416319, 31.406462329], "type": "Point"}, "id": "CXZzbysUhdHp2Y86Xe5KLg0KejQ=", "properties": {"@source_uri": "https://tools.usps.com/UspsToolsRestServices/rest/POLocator/findLocations", "@spider": "usps_collection_boxes", "addr:city": "GANTT", "addr:country": "US", "addr:postcode": "36038", "addr:state": "AL", "addr:street_address": "28795 COMMERCE ST", "amenity": "post_box", "brand": "United States Postal Service", "brand:wikidata": "Q668687", "collection_times": "Mo-Fr 11:30; Sa 10:30", "indoor": "yes", "nsi_id": "unitedstatespostalservice-a77078", "operator": "United States Postal Service", "operator:short": "USPS", "operator:type": "public", "operator:wikidata": "Q668687", "ref": "3603800002"}, "type": "Feature"}
{"geometry": {"coordinates": [-86.4841631904, 31.4064623294], "type": "Point"}, "id": "kesq7H7uQM_136g5AoZw391eWvs=", "properties": {"@source_uri": "https://tools.usps.com/UspsToolsRestServices/rest/POLocator/findLocations", "@spider": "usps_collection_boxes", "addr:city": "GANTT", "addr:country": "US", "addr:postcode": "36038", "addr:state": "AL", "addr:street_address": "28795 COMMERCE ST", "amenity": "post_box", "brand": "United States Postal Service", "brand:wikidata": "Q668687", "collection_times": "Mo-Fr 11:20; Sa 10:20", "indoor": "yes", "nsi_id": "unitedstatespostalservice-a77078", "operator": "United States Postal Service", "operator:short": "USPS", "operator:type": "public", "operator:wikidata": "Q668687", "ref": "3603800003"}, "type": "Feature"}
{"geometry": {"coordinates": [-86.578282, 32.18415], "type": "Point"}, "id": "seANoRNnG8onsFXuetnVwdbKDf0=", "properties": {"@source_uri": "https://tools.usps.com/UspsToolsRestServices/rest/POLocator/findLocations", "@spider": "usps_collection_boxes", "addr:city": "HAYNEVILLE", "addr:country": "US", "addr:postcode": "36040", "addr:state": "AL", "addr:street_address": "1 ACADEMY LN", "amenity": "post_box", "brand": "United States Postal Service", "brand:wikidata": "Q668687", "collection_times": "Mo-Fr 16:30; Sa 10:30", "indoor": "yes", "note": "ON 12/24 AND 12/31, THIS BOX MAY BE COLLECTED AS EARLY AS 12 NOON.", "nsi_id": "unitedstatespostalservice-a77078", "operator": "United States Postal Service", "operator:short": "USPS", "operator:type": "public", "operator:wikidata": "Q668687", "ref": "3604000000"}, "type": "Feature"}
{"geometry": {"coordinates": [-86.578282, 32.18415], "type": "Point"}, "id": "1Sijyc-pnHsrovQHzMqKF5PUrqI=", "properties": {"@source_uri": "https://tools.usps.com/UspsToolsRestServices/rest/POLocator/findLocations", "@spider": "usps_collection_boxes", "addr:city": "HAYNEVILLE", "addr:country": "US", "addr:postcode": "36040", "addr:state": "AL", "addr:street_address": "1 ACADEMY LN", "amenity": "post_box", "brand": "United States Postal Service", "brand:wikidata": "Q668687", "collection_times": "Mo-Fr 16:30; Sa 10:30", "note": "ON 12/24 AND 12/31, THIS BOX MAY BE COLLECTED AS EARLY AS 12 NOON.", "nsi_id": "unitedstatespostalservice-a77078", "operator": "United States Postal Service", "operator:short": "USPS", "operator:type": "public", "operator:wikidata": "Q668687", "ref": "3604000001"}, "type": "Feature"}
{"geometry": {"coordinates": [-86.578296494, 32.184413329], "type": "Point"}, "id": "Zzfb0gnYEFWBEzRU4PQ_C_fYlBQ=", "properties": {"@source_uri": "https://tools.usps.com/UspsToolsRestServices/rest/POLocator/findLocations", "@spider": "usps_collection_boxes", "addr:city": "HAYNEVILLE", "addr:country": "US", "addr:postcode": "36040", "addr:state": "AL", "addr:street_address": "1 ACADEMY LN", "amenity": "post_box", "brand": "United States Postal Service", "brand:wikidata": "Q668687", "collection_times": "Mo-Fr 16:30; Sa 10:30", "indoor": "yes", "note": "ON 12/24 AND 12/31, THIS BOX MAY BE COLLECTED AS EARLY AS 12 NOON.", "nsi_id": "unitedstatespostalservice-a77078", "operator": "United States Postal Service", "operator:short": "USPS", "operator:type": "public", "operator:wikidata": "Q668687", "ref": "3604000003"}, "type": "Feature"}
{"geometry": {"coordinates": [-86.3143, 31.946605], "type": "Point"}, "id": "7wdbH6vNuJkFCQWr_kzfBQ8wG9Y=", "properties": {"@source_uri": "https://tools.usps.com/UspsToolsRestServices/rest/POLocator/findLocations", "@spider": "usps_collection_boxes", "addr:city": "HIGHLAND HOME", "addr:country": "US", "addr:postcode": "36041", "addr:state": "AL", "addr:street_address": "17845 MONTGOMERY HWY", "amenity": "post_box", "brand": "United States Postal Service", "brand:wikidata": "Q668687", "collection_times": "Mo-Fr 15:45; Sa 09:15", "note": "ON 12/24 AND 12/31, THIS BOX MAY BE COLLECTED AS EARLY AS 12 NOON.", "nsi_id": "unitedstatespostalservice-a77078", "operator": "United States Postal Service", "operator:short": "USPS", "operator:type": "public", "operator:wikidata": "Q668687", "ref": "3604100000"}, "type": "Feature"}
{"geometry": {"coordinates": [-86.3143, 31.946605], "type": "Point"}, "id": "2cDuDVDXgrr_wSQwrjvvHAQq7t0=", "properties": {"@source_uri": "https://tools.usps.com/UspsToolsRestServices/rest/POLocator/findLocations", "@spider": "usps_collection_boxes", "addr:city": "HIGHLAND HOME", "addr:country": "US", "addr:postcode": "36041", "addr:state": "AL", "addr:street_address": "17845 MONTGOMERY HWY", "amenity": "post_box", "brand": "United States Postal Service", "brand:wikidata": "Q668687", "collection_times": "Mo-Fr 15:45; Sa 09:15", "indoor": "yes", "note": "ON 12/24 AND 12/31, THIS BOX MAY BE COLLECTED AS EARLY AS 12 NOON.", "nsi_id": "unitedstatespostalservice-a77078", "operator": "United States Postal Service", "operator:short": "USPS", "operator:type": "public", "operator:wikidata": "Q668687", "ref": "3604100001"}, "type": "Feature"}
{"geometry": {"coordinates": [-86.314336884, 31.946584369], "type": "Point"}, "id": "WHU5b-idtoJSeW-EByL1keKXCVM=", "properties": {"@source_uri": "https://tools.usps.com/UspsToolsRestServices/rest/POLocator/findLocations", "@spider": "usps_collection_boxes", "addr:city": "HIGHLAND HOME", "addr:country": "US", "addr:postcode": "36041", "addr:state": "AL", "addr:street_address": "17845 MONTGOMERY HWY", "amenity": "post_box", "brand": "United States Postal Service", "brand:wikidata": "Q668687", "collection_times": "Mo-Fr 15:45; Sa 09:15", "indoor": "yes", "note": "ON 12/24 AND 12/31, THIS BOX MAY BE COLLECTED AS EARLY AS 12 NOON.", "nsi_id": "unitedstatespostalservice-a77078", "operator": "United States Postal Service", "operator:short": "USPS", "operator:type": "public", "operator:wikidata": "Q668687", "ref": "3604100004"}, "type": "Feature"}
{"geometry": {"coordinates": [-86.406034, 31.850876], "type": "Point"}, "id": "1gskJedQhJCFaiCxVUKrDYbrvfA=", "properties": {"@source_uri": "https://tools.usps.com/UspsToolsRestServices/rest/POLocator/findLocations", "@spider": "usps_collection_boxes", "addr:city": "HONORAVILLE", "addr:country": "US", "addr:postcode": "36042", "addr:state": "AL", "addr:street_address": "47 POST OFFICE LOOP", "amenity": "post_box", "brand": "United States Postal Service", "brand:wikidata": "Q668687", "collection_times": "Mo-Fr 11:50; Sa 09:30", "nsi_id": "unitedstatespostalservice-a77078", "operator": "United States Postal Service", "operator:short": "USPS", "operator:type": "public", "operator:wikidata": "Q668687", "ref": "3604200000"}, "type": "Feature"}
{"geometry": {"coordinates": [-86.406034, 31.850876], "type": "Point"}, "id": "Q3OuajxQza8rH5bxy9gO-8X13u4=", "properties": {"@source_uri": "https://tools.usps.com/UspsToolsRestServices/rest/POLocator/findLocations", "@spider": "usps_collection_boxes", "addr:city": "HONORAVILLE", "addr:country": "US", "addr:postcode": "36042", "addr:state": "AL", "addr:street_address": "47 POST OFFICE LOOP", "amenity": "post_box", "brand": "United States Postal Service", "brand:wikidata": "Q668687", "collection_times": "Mo-Fr 11:50; Sa 09:30", "indoor": "yes", "nsi_id": "unitedstatespostalservice-a77078", "operator": "United States Postal Service", "operator:short": "USPS", "operator:type": "public", "operator:wikidata": "Q668687", "ref": "3604200001"}, "type": "Feature"}
{"geometry": {"coordinates": [-86.4032619, 31.9167994], "type": "Point"}, "id": "LzkZsuzF_bfSqQwmnPA7hAtN1WM=", "properties": {"@source_uri": "https://tools.usps.com/UspsToolsRestServices/rest/POLocator/findLocations", "@spider": "usps_collection_boxes", "addr:city": "HONORAVILLE", "addr:country": "US", "addr:postcode": "36042", "addr:state": "AL", "addr:street_address": "47 POST OFFICE LOOP", "amenity": "post_box", "brand": "United States Postal Service", "brand:wikidata": "Q668687", "collection_times": "Mo-Fr 12:00; Sa 09:30", "indoor": "yes", "nsi_id": "unitedstatespostalservice-a77078", "operator": "United States Postal Service", "operator:short": "USPS", "operator:type": "public", "operator:wikidata": "Q668687", "ref": "3604200003"}, "type": "Feature"}
{"geometry": {"coordinates": [-86.3698136, 32.1762607], "type": "Point"}, "id": "E1OtMG26B_lBpD7WQ5UgOZyBx1c=", "properties": {"@source_uri": "https://tools.usps.com/UspsToolsRestServices/rest/POLocator/findLocations", "@spider": "usps_collection_boxes", "addr:city": "HOPE HULL", "addr:country": "US", "addr:postcode": "36043", "addr:state": "AL", "addr:street_address": "275 WASDEN RD", "amenity": "post_box", "brand": "United States Postal Service", "brand:wikidata": "Q668687", "collection_times": "Mo-Fr 15:00; Sa 09:00", "note": "ON 12/24 AND 12/31, THIS BOX MAY BE COLLECTED AS EARLY AS 12 NOON.", "nsi_id": "unitedstatespostalservice-a77078", "operator": "United States Postal Service", "operator:short": "USPS", "operator:type": "public", "operator:wikidata": "Q668687", "ref": "3604300000"}, "type": "Feature"}
{"geometry": {"coordinates": [-86.36631, 32.269683], "type": "Point"}, "id": "WJC8E66yecMU0e1Le9u_3GRuGOA=", "properties": {"@source_uri": "https://tools.usps.com/UspsToolsRestServices/rest/POLocator/findLocations", "@spider": "usps_collection_boxes", "addr:city": "HOPE HULL", "addr:country": "US", "addr:postcode": "36043", "addr:state": "AL", "addr:street_address": "275 WASDEN RD", "amenity": "post_box", "brand": "United States Postal Service", "brand:wikidata": "Q668687", "collection_times": "Mo-Fr 15:00; Sa 09:00", "indoor": "yes", "note": "ON 12/24 AND 12/31, THIS BOX MAY BE COLLECTED AS EARLY AS 12 NOON.", "nsi_id": "unitedstatespostalservice-a77078", "operator": "United States Postal Service", "operator:short": "USPS", "operator:type": "public", "operator:wikidata": "Q668687", "ref": "3604300001"}, "type": "Feature"}
{"geometry": {"coordinates": [-86.366642307, 32.269681543], "type": "Point"}, "id": "GZh8NwdQuZCkxL0xFfAoF5LetVw=", "properties": {"@source_uri": "https://tools.usps.com/UspsToolsRestServices/rest/POLocator/findLocations", "@spider": "usps_collection_boxes", "addr:city": "HOPE HULL", "addr:country": "US", "addr:postcode": "36043", "addr:state": "AL", "addr:street_address": "275 WASDEN RD", "amenity": "post_box", "brand": "United States Postal Service", "brand:wikidata": "Q668687", "collection_times": "Mo-Fr 16:00; Sa 09:00", "indoor": "yes", "note": "ON 12/24 AND 12/31, THIS BOX MAY BE COLLECTED AS EARLY AS 12 NOON.", "nsi_id": "unitedstatespostalservice-a77078", "operator": "United States Postal Service", "operator:short": "USPS", "operator:type": "public", "operator:wikidata": "Q668687", "ref": "3604300004"}, "type": "Feature"}
{"geometry": {"coordinates": [-86.286085, 31.965433], "type": "Point"}, "id": "IsgEycp95m5jVkjCttNo9CnQelc=", "properties": {"@source_uri": "https://tools.usps.com/UspsToolsRestServices/rest/POLocator/findLocations", "@spider": "usps_collection_boxes", "addr:city": "LAPINE", "addr:country": "US", "addr:postcode": "36046", "addr:state": "AL", "addr:street_address": "1126 MERIWETHER TRL", "amenity": "post_box", "brand": "United States Postal Service", "brand:wikidata": "Q668687", "collection_times": "Mo-Fr 15:00; Sa 09:00", "indoor": "yes", "note": "ON 12/24 AND 12/31, THIS BOX MAY BE COLLECTED AS EARLY AS 12 NOON.", "nsi_id": "unitedstatespostalservice-a77078", "operator": "United States Postal Service", "operator:short": "USPS", "operator:type": "public", "operator:wikidata": "Q668687", "ref": "3604600000"}, "type": "Feature"}
{"geometry": {"coordinates": [-86.286085, 31.965433], "type": "Point"}, "id": "3o5Sis9w8L9uK6MeR2VFkVLcBsA=", "properties": {"@source_uri": "https://tools.usps.com/UspsToolsRestServices/rest/POLocator/findLocations", "@spider": "usps_collection_boxes", "addr:city": "LAPINE", "addr:country": "US", "addr:postcode": "36046", "addr:state": "AL", "addr:street_address": "1126 MERIWETHER TRL", "amenity": "post_box", "brand": "United States Postal Service", "brand:wikidata": "Q668687", "collection_times": "Mo-Fr 15:00; Sa 09:00", "note": "ON 12/24 AND 12/31, THIS BOX MAY BE COLLECTED AS EARLY AS 12 NOON.", "nsi_id": "unitedstatespostalservice-a77078", "operator": "United States Postal Service", "operator:short": "USPS", "operator:type": "public", "operator:wikidata": "Q668687", "ref": "3604600001"}, "type": "Feature"}
{"geometry": {"coordinates": [-86.285153751, 31.965577105], "type": "Point"}, "id": "11AZlEZDD9TlVW7O6ycCyy4eNgQ=", "properties": {"@source_uri": "https://tools.usps.com/UspsToolsRestServices/rest/POLocator/findLocations", "@spider": "usps_collection_boxes", "addr:city": "LAPINE", "addr:country": "US", "addr:postcode": "36046", "addr:state": "AL", "addr:street_address": "1126 MERIWETHER TRL", "amenity": "post_box", "brand": "United States Postal Service", "brand:wikidata": "Q668687", "collection_times": "Mo-Fr 15:00; Sa 09:00", "indoor": "yes", "note": "ON 12/24 AND 12/31, THIS BOX MAY BE COLLECTED AS EARLY AS 12 NOON.", "nsi_id": "unitedstatespostalservice-a77078", "operator": "United States Postal Service", "operator:short": "USPS", "operator:type": "public", "operator:wikidata": "Q668687", "ref": "3604600004"}, "type": "Feature"}
{"geometry": {"coordinates": [-86.486292, 32.129834], "type": "Point"}, "id": "VAUiYDEwREDzRxDihEznUlc63hc=", "properties": {"@source_uri": "https://tools.usps.com/UspsToolsRestServices/rest/POLocator/findLocations", "@spider": "usps_collection_boxes", "addr:city": "LETOHATCHEE", "addr:country": "US", "addr:postcode": "36047", "addr:state": "AL", "addr:street_address": "6142 STATE HIGHWAY 97 S", "amenity": "post_box", "brand": "United States Postal Service", "brand:wikidata": "Q668687", "collection_times": "Mo-Fr 12:00; Sa 09:30", "nsi_id": "unitedstatespostalservice-a77078", "operator": "United States Postal Service", "operator:short": "USPS", "operator:type": "public", "operator:wikidata": "Q668687", "ref": "3604700000"}, "type": "Feature"}
{"geometry": {"coordinates": [-86.486292, 32.129834], "type": "Point"}, "id": "p0Ub60espUrNrymKI5e80AErglQ=", "properties": {"@source_uri": "https://tools.usps.com/UspsToolsRestServices/rest/POLocator/findLocations", "@spider": "usps_collection_boxes", "addr:city": "LETOHATCHEE", "addr:country": "US", "addr:postcode": "36047", "addr:state": "AL", "addr:street_address": "6142 STATE HIGHWAY 97 S", "amenity": "post_box", "brand": "United States Postal Service", "brand:wikidata": "Q668687", "collection_times": "Mo-Fr 12:00; Sa 09:30", "indoor": "yes", "nsi_id": "unitedstatespostalservice-a77078", "operator": "United States Postal Service", "operator:short": "USPS", "operator:type": "public", "operator:wikidata": "Q668687", "ref": "3604700001"}, "type": "Feature"}
{"geometry": {"coordinates": [-86.486321536, 32.129815848], "type": "Point"}, "id": "NyG5SUiljCHpNRcJQmH7dA6OLl0=", "properties": {"@source_uri": "https://tools.usps.com/UspsToolsRestServices/rest/POLocator/findLocations", "@spider": "usps_collection_boxes", "addr:city": "LETOHATCHEE", "addr:country": "US", "addr:postcode": "36047", "addr:state": "AL", "addr:street_address": "6142 STATE HIGHWAY 97 S", "amenity": "post_box", "brand": "United States Postal Service", "brand:wikidata": "Q668687", "collection_times": "Mo-Fr 12:00; Sa 09:30", "indoor": "yes", "nsi_id": "unitedstatespostalservice-a77078", "operator": "United States Postal Service", "operator:short": "USPS", "operator:type": "public", "operator:wikidata": "Q668687", "ref": "3604700003"}, "type": "Feature"}
{"geometry": {"coordinates": [-85.555869, 31.782889], "type": "Point"}, "id": "F-vGRCZ3C8uRo1kCxlkb380o9d4=", "properties": {"@source_uri": "https://tools.usps.com/UspsToolsRestServices/rest/POLocator/findLocations", "@spider": "usps_collection_boxes", "addr:city": "LOUISVILLE", "addr:country": "US", "addr:postcode": "36048", "addr:state": "AL", "addr:street_address": "1968 MAIN ST", "amenity": "post_box", "brand": "United States Postal Service", "brand:wikidata": "Q668687", "collection_times": "Mo-Fr 14:45; Sa 10:45", "note": "ON 12/24 AND 12/31, THIS BOX MAY BE COLLECTED AS EARLY AS 12 NOON.", "nsi_id": "unitedstatespostalservice-a77078", "operator": "United States Postal Service", "operator:short": "USPS", "operator:type": "public", "operator:wikidata": "Q668687", "ref": "3604800000"}, "type": "Feature"}
{"geometry": {"coordinates": [-85.555869, 31.782889], "type": "Point"}, "id": "fSTmQXWp7ecLv4qoPc1gmu_FGXA=", "properties": {"@source_uri": "https://tools.usps.com/UspsToolsRestServices/rest/POLocator/findLocations", "@spider": "usps_collection_boxes", "addr:city": "LOUISVILLE", "addr:country": "US", "addr:postcode": "36048", "addr:state": "AL", "addr:street_address": "1968 MAIN ST", "amenity": "post_box", "brand": "United States Postal Service", "brand:wikidata": "Q668687", "collection_times": "Mo-Fr 14:45; Sa 10:45", "indoor": "yes", "note": "ON 12/24 AND 12/31, THIS BOX MAY BE COLLECTED AS EARLY AS 12 NOON.", "nsi_id": "unitedstatespostalservice-a77078", "operator": "United States Postal Service", "operator:short": "USPS", "operator:type": "public", "operator:wikidata": "Q668687", "ref": "3604800001"}, "type": "Feature"}
{"geometry": {"coordinates": [-85.555869785, 31.782832643], "type": "Point"}, "id": "fhCK3szp9IQuKYYBxuhT8PJ-COM=", "properties": {"@source_uri": "https://tools.usps.com/UspsToolsRestServices/rest/POLocator/findLocations", "@spider": "usps_collection_boxes", "addr:city": "LOUISVILLE", "addr:country": "US", "addr:postcode": "36048", "addr:state": "AL", "addr:street_address": "1968 MAIN ST", "amenity": "post_box", "brand": "United States Postal Service", "brand:wikidata": "Q668687", "collection_times": "Mo-Fr 14:45; Sa 11:00", "indoor": "yes", "note": "ON 12/24 AND 12/31, THIS BOX MAY BE COLLECTED AS EARLY AS 12 NOON.", "nsi_id": "unitedstatespostalservice-a77078", "operator": "United States Postal Service", "operator:short": "USPS", "operator:type": "public", "operator:wikidata": "Q668687", "ref": "3604800003"}, "type": "Feature"}
{"geometry": {"coordinates": [-86.262542, 31.716355], "type": "Point"}, "id": "Y1FrJH5Z3xGrABAc_RNPsAui3hk=", "properties": {"@source_uri": "https://tools.usps.com/UspsToolsRestServices/rest/POLocator/findLocations", "@spider": "usps_collection_boxes", "addr:city": "LUVERNE", "addr:country": "US", "addr:postcode": "36049", "addr:state": "AL", "addr:street_address": "29 E 3RD ST", "amenity": "post_box", "brand": "United States Postal Service", "brand:wikidata": "Q668687", "collection_times": "Mo-Sa 12:00", "nsi_id": "unitedstatespostalservice-a77078", "operator": "United States Postal Service", "operator:short": "USPS", "operator:type": "public", "operator:wikidata": "Q668687", "ref": "3604900000"}, "type": "Feature"}
{"geometry": {"coordinates": [-86.262542, 31.716355], "type": "Point"}, "id": "KBr3xRPDn0K-nzOZ3_ii6U2rLqc=", "properties": {"@source_uri": "https://tools.usps.com/UspsToolsRestServices/rest/POLocator/findLocations", "@spider": "usps_collection_boxes", "addr:city": "LUVERNE", "addr:country": "US", "addr:postcode": "36049", "addr:state": "AL", "addr:street_address": "29 E 3RD ST", "amenity": "post_box", "brand": "United States Postal Service", "brand:wikidata": "Q668687", "collection_times": "Mo-Sa 12:00", "indoor": "yes", "nsi_id": "unitedstatespostalservice-a77078", "operator": "United States Postal Service", "operator:short": "USPS", "operator:type": "public", "operator:wikidata": "Q668687", "ref": "3604900006"}, "type": "Feature"}
{"geometry": {"coordinates": [-86.262542, 31.716355], "type": "Point"}, "id": "m4ZGBkSpWDU-hgS59IfaL7KK3HM=", "properties": {"@source_uri": "https://tools.usps.com/UspsToolsRestServices/rest/POLocator/findLocations", "@spider": "usps_collection_boxes", "addr:city": "LUVERNE", "addr:country": "US", "addr:postcode": "36049", "addr:state": "AL", "addr:street_address": "29 E 3RD ST", "amenity": "post_box", "brand": "United States Postal Service", "brand:wikidata": "Q668687", "collection_times": "Mo-Sa 12:00", "nsi_id": "unitedstatespostalservice-a77078", "operator": "United States Postal Service", "operator:short": "USPS", "operator:type": "public", "operator:wikidata": "Q668687", "ref": "3604900009"}, "type": "Feature"}
{"geometry": {"coordinates": [-86.26256112, 31.716388364], "type": "Point"}, "id": "VDyzd0Lj-lIEqculk6gMD4AW8v8=", "properties": {"@source_uri": "https://tools.usps.com/UspsToolsRestServices/rest/POLocator/findLocations", "@spider": "usps_collection_boxes", "addr:city": "LUVERNE", "addr:country": "US", "addr:postcode": "36049", "addr:state": "AL", "addr:street_address": "29 E 3RD ST", "amenity": "post_box", "brand": "United States Postal Service", "brand:wikidata": "Q668687", "collection_times": "Mo-Fr 16:30; Sa 12:00", "indoor": "yes", "note": "ON 12/24 AND 12/31, THIS BOX MAY BE COLLECTED AS EARLY AS 12 NOON.", "nsi_id": "unitedstatespostalservice-a77078", "operator": "United States Postal Service", "operator:short": "USPS", "operator:type": "public", "operator:wikidata": "Q668687", "ref": "3604900011"}, "type": "Feature"}
{"geometry": {"coordinates": [-86.470924, 32.702331], "type": "Point"}, "id": "ZtDy7upUGJe4SGDAfm7q2eeF7Hc=", "properties": {"@source_uri": "https://tools.usps.com/UspsToolsRestServices/rest/POLocator/findLocations", "@spider": "usps_collection_boxes", "addr:city": "MARBURY", "addr:country": "US", "addr:postcode": "36051", "addr:state": "AL", "addr:street_address": "3050 AL HIGHWAY 143", "amenity": "post_box", "brand": "United States Postal Service", "brand:wikidata": "Q668687", "collection_times": "Mo-Fr 11:50; Sa 09:15", "indoor": "yes", "nsi_id": "unitedstatespostalservice-a77078", "operator": "United States Postal Service", "operator:short": "USPS", "operator:type": "public", "operator:wikidata": "Q668687", "ref": "3605100001"}, "type": "Feature"}
{"geometry": {"coordinates": [-86.470885641, 32.702349281], "type": "Point"}, "id": "FIQ4C1hx98zYkJD9k-h-9my1eVg=", "properties": {"@source_uri": "https://tools.usps.com/UspsToolsRestServices/rest/POLocator/findLocations", "@spider": "usps_collection_boxes", "addr:city": "MARBURY", "addr:country": "US", "addr:postcode": "36051", "addr:state": "AL", "addr:street_address": "3050 AL HIGHWAY 143", "amenity": "post_box", "brand": "United States Postal Service", "brand:wikidata": "Q668687", "collection_times": "Mo-Fr 12:00; Sa 09:15", "indoor": "yes", "nsi_id": "unitedstatespostalservice-a77078", "operator": "United States Postal Service", "operator:short": "USPS", "operator:type": "public", "operator:wikidata": "Q668687", "ref": "3605100003"}, "type": "Feature"}
{"geometry": {"coordinates": [-86.0037772, 32.264995], "type": "Point"}, "id": "9haQ71alz8vYuew-OKWJUZvK4hM=", "properties": {"@source_uri": "https://tools.usps.com/UspsToolsRestServices/rest/POLocator/findLocations", "@spider": "usps_collection_boxes", "addr:city": "PIKE ROAD", "addr:country": "US", "addr:postcode": "36052", "addr:state": "AL", "addr:street_address": "2671 FLOWERS RD", "amenity": "post_box", "brand": "United States Postal Service", "brand:wikidata": "Q668687", "collection_times": "Mo-Fr 12:00", "nsi_id": "unitedstatespostalservice-a77078", "operator": "United States Postal Service", "operator:short": "USPS", "operator:type": "public", "operator:wikidata": "Q668687", "ref": "3605200000"}, "type": "Feature"}
{"geometry": {"coordinates": [-85.521974, 32.078583], "type": "Point"}, "id": "RkDjox3SAsYuXL1hu-j8-meG5Nc=", "properties": {"@source_uri": "https://tools.usps.com/UspsToolsRestServices/rest/POLocator/findLocations", "@spider": "usps_collection_boxes", "addr:city": "MIDWAY", "addr:country": "US", "addr:postcode": "36053", "addr:state": "AL", "addr:street_address": "32848 HIGHWAY 82", "amenity": "post_box", "brand": "United States Postal Service", "brand:wikidata": "Q668687", "collection_times": "Mo-Fr 16:00; Sa 10:30", "note": "ON 12/24 AND 12/31, THIS BOX MAY BE COLLECTED AS EARLY AS 12 NOON.", "nsi_id": "unitedstatespostalservice-a77078", "operator": "United States Postal Service", "operator:short": "USPS", "operator:type": "public", "operator:wikidata": "Q668687", "ref": "3605300000"}, "type": "Feature"}
{"geometry": {"coordinates": [-85.521974, 32.078583], "type": "Point"}, "id": "bYXS6wdI15NltyeTsEFxvxDvF4Y=", "properties": {"@source_uri": "https://tools.usps.com/UspsToolsRestServices/rest/POLocator/findLocations", "@spider": "usps_collection_boxes", "addr:city": "MIDWAY", "addr:country": "US", "addr:postcode": "36053", "addr:state": "AL", "addr:street_address": "32848 HIGHWAY 82", "amenity": "post_box", "brand": "United States Postal Service", "brand:wikidata": "Q668687", "collection_times": "Mo-Fr 16:00; Sa 10:30", "indoor": "yes", "note": "ON 12/24 AND 12/31, THIS BOX MAY BE COLLECTED AS EARLY AS 12 NOON.", "nsi_id": "unitedstatespostalservice-a77078", "operator": "United States Postal Service", "operator:short": "USPS", "operator:type": "public", "operator:wikidata": "Q668687", "ref": "3605300002"}, "type": "Feature"}
{"geometry": {"coordinates": [-85.521937481, 32.078542519], "type": "Point"}, "id": "dBi90bZ1HnTs_XX1FIG30TCeFtM=", "properties": {"@source_uri": "https://tools.usps.com/UspsToolsRestServices/rest/POLocator/findLocations", "@spider": "usps_collection_boxes", "addr:city": "MIDWAY", "addr:country": "US", "addr:postcode": "36053", "addr:state": "AL", "addr:street_address": "32848 HIGHWAY 82", "amenity": "post_box", "brand": "United States Postal Service", "brand:wikidata": "Q668687", "collection_times": "Mo-Fr 16:00; Sa 10:30", "indoor": "yes", "note": "ON 12/24 AND 12/31, THIS BOX MAY BE COLLECTED AS EARLY AS 12 NOON.", "nsi_id": "unitedstatespostalservice-a77078", "operator": "United States Postal Service", "operator:short": "USPS", "operator:type": "public", "operator:wikidata": "Q668687", "ref": "3605300004"}, "type": "Feature"}
{"geometry": {"coordinates": [-86.3627872, 32.481566], "type": "Point"}, "id": "IAhAZ_Zm5DGTRHUwfUKCvIXYxTo=", "properties": {"@source_uri": "https://tools.usps.com/UspsToolsRestServices/rest/POLocator/findLocations", "@spider": "usps_collection_boxes", "addr:city": "MILLBROOK", "addr:country": "US", "addr:postcode": "36054", "addr:state": "AL", "addr:street_address": "3521 MAIN ST", "amenity": "post_box", "brand": "United States Postal Service", "brand:wikidata": "Q668687", "collection_times": "Mo-Sa 12:30", "note": "ON 12/24 AND 12/31, THIS BOX MAY BE COLLECTED AS EARLY AS 12 NOON.", "nsi_id": "unitedstatespostalservice-a77078", "operator": "United States Postal Service", "operator:short": "USPS", "operator:type": "public", "operator:wikidata": "Q668687", "ref": "3605400001"}, "type": "Feature"}
{"geometry": {"coordinates": [-86.366501, 32.494675], "type": "Point"}, "id": "sH1cPqtuevz1DpZtsQ91igfCVMY=", "properties": {"@source_uri": "https://tools.usps.com/UspsToolsRestServices/rest/POLocator/findLocations", "@spider": "usps_collection_boxes", "addr:city": "MILLBROOK", "addr:country": "US", "addr:postcode": "36054", "addr:state": "AL", "addr:street_address": "4431 MAIN ST", "amenity": "post_box", "brand": "United States Postal Service", "brand:wikidata": "Q668687", "collection_times": "Mo-Sa 12:00", "indoor": "yes", "nsi_id": "unitedstatespostalservice-a77078", "operator": "United States Postal Service", "operator:short": "USPS", "operator:type": "public", "operator:wikidata": "Q668687", "ref": "3605400002"}, "type": "Feature"}
{"geometry": {"coordinates": [-86.366524051, 32.494641281], "type": "Point"}, "id": "C5s4mOraohk6AJ9c80pLa-PaDIE=", "properties": {"@source_uri": "https://tools.usps.com/UspsToolsRestServices/rest/POLocator/findLocations", "@spider": "usps_collection_boxes", "addr:city": "MILLBROOK", "addr:country": "US", "addr:postcode": "36054", "addr:state": "AL", "addr:street_address": "4431 MAIN ST", "amenity": "post_box", "brand": "United States Postal Service", "brand:wikidata": "Q668687", "collection_times": "Mo-Fr 16:30; Sa 12:00", "indoor": "yes", "note": "ON 12/24 AND 12/31, THIS BOX MAY BE COLLECTED AS EARLY AS 12 NOON.", "nsi_id": "unitedstatespostalservice-a77078", "operator": "United States Postal Service", "operator:short": "USPS", "operator:type": "public", "operator:wikidata": "Q668687", "ref": "3605400010"}, "type": "Feature"}
{"geometry": {"coordinates": [-86.095038, 32.349426], "type": "Point"}, "id": "CKwzOq4KSdRhNLwjZu9siKjUIpY=", "properties": {"@source_uri": "https://tools.usps.com/UspsToolsRestServices/rest/POLocator/findLocations", "@spider": "usps_collection_boxes", "addr:city": "PIKE ROAD", "addr:country": "US", "addr:postcode": "36064", "addr:state": "AL", "addr:street_address": "1320 PIKE RD", "amenity": "post_box", "brand": "United States Postal Service", "brand:wikidata": "Q668687", "collection_times": "Mo-Fr 16:00; Sa 10:00", "note": "ON 12/24 AND 12/31, THIS BOX MAY BE COLLECTED AS EARLY AS 12 NOON.", "nsi_id": "unitedstatespostalservice-a77078", "operator": "United States Postal Service", "operator:short": "USPS", "operator:type": "public", "operator:wikidata": "Q668687", "ref": "3606400001"}, "type": "Feature"}
{"geometry": {"coordinates": [-86.095038, 32.349426], "type": "Point"}, "id": "GWvSIHJnn_3qNNmKdfqi0ZbxU4s=", "properties": {"@source_uri": "https://tools.usps.com/UspsToolsRestServices/rest/POLocator/findLocations", "@spider": "usps_collection_boxes", "addr:city": "PIKE ROAD", "addr:country": "US", "addr:postcode": "36064", "addr:state": "AL", "addr:street_address": "1320 PIKE RD", "amenity": "post_box", "brand": "United States Postal Service", "brand:wikidata": "Q668687", "collection_times": "Mo-Fr 16:00; Sa 10:00", "indoor": "yes", "note": "ON 12/24 AND 12/31, THIS BOX MAY BE COLLECTED AS EARLY AS 12 NOON.", "nsi_id": "unitedstatespostalservice-a77078", "operator": "United States Postal Service", "operator:short": "USPS", "operator:type": "public", "operator:wikidata": "Q668687", "ref": "3606400004"}, "type": "Feature"}
{"geometry": {"coordinates": [-86.0314679, 32.34716], "type": "Point"}, "id": "M1tMfEqq4lwSUY9kSmh8y0HH7xM=", "properties": {"@source_uri": "https://tools.usps.com/UspsToolsRestServices/rest/POLocator/findLocations", "@spider": "usps_collection_boxes", "addr:city": "PIKE ROAD", "addr:country": "US", "addr:postcode": "36064", "addr:state": "AL", "addr:street_address": "25 BRIDGE ST", "amenity": "post_box", "brand": "United States Postal Service", "brand:wikidata": "Q668687", "collection_times": "Mo-Sa 10:00", "nsi_id": "unitedstatespostalservice-a77078", "operator": "United States Postal Service", "operator:short": "USPS", "operator:type": "public", "operator:wikidata": "Q668687", "ref": "3606400006"}, "type": "Feature"}
{"geometry": {"coordinates": [-86.095025027, 32.348115], "type": "Point"}, "id": "gjnmTwAK_I7idJ3gbvAVOzX4-Xc=", "properties": {"@source_uri": "https://tools.usps.com/UspsToolsRestServices/rest/POLocator/findLocations", "@spider": "usps_collection_boxes", "addr:city": "PIKE ROAD", "addr:country": "US", "addr:postcode": "36064", "addr:state": "AL", "addr:street_address": "1320 PIKE RD", "amenity": "post_box", "brand": "United States Postal Service", "brand:wikidata": "Q668687", "collection_times": "Mo-Fr 16:00; Sa 10:00", "indoor": "yes", "note": "ON 12/24 AND 12/31, THIS BOX MAY BE COLLECTED AS EARLY AS 12 NOON.", "nsi_id": "unitedstatespostalservice-a77078", "operator": "United States Postal Service", "operator:short": "USPS", "operator:type": "public", "operator:wikidata": "Q668687", "ref": "3606400008"}, "type": "Feature"}
{"geometry": {"coordinates": [-86.06276, 32.077275], "type": "Point"}, "id": "ihom-oVG0hzgJ4Oj9CGi1lzgrtQ=", "properties": {"@source_uri": "https://tools.usps.com/UspsToolsRestServices/rest/POLocator/findLocations", "@spider": "usps_collection_boxes", "addr:city": "PINE LEVEL", "addr:country": "US", "addr:postcode": "36065", "addr:state": "AL", "addr:street_address": "685 PINE LEVEL LOOP", "amenity": "post_box", "brand": "United States Postal Service", "brand:wikidata": "Q668687", "collection_times": "Mo-Fr 11:30; Sa 10:30", "indoor": "yes", "nsi_id": "unitedstatespostalservice-a77078", "operator": "United States Postal Service", "operator:short": "USPS", "operator:type": "public", "operator:wikidata": "Q668687", "ref": "3606500000"}, "type": "Feature"}
{"geometry": {"coordinates": [-86.06276, 32.077275], "type": "Point"}, "id": "r3IGs1sHOzwzLfLUQ0fb5eMmRA4=", "properties": {"@source_uri": "https://tools.usps.com/UspsToolsRestServices/rest/POLocator/findLocations", "@spider": "usps_collection_boxes", "addr:city": "PINE LEVEL", "addr:country": "US", "addr:postcode": "36065", "addr:state": "AL", "addr:street_address": "685 PINE LEVEL LOOP", "amenity": "post_box", "brand": "United States Postal Service", "brand:wikidata": "Q668687", "collection_times": "Mo-Fr 11:30; Sa 10:30", "nsi_id": "unitedstatespostalservice-a77078", "operator": "United States Postal Service", "operator:short": "USPS", "operator:type": "public", "operator:wikidata": "Q668687", "ref": "3606500001"}, "type": "Feature"}
{"geometry": {"coordinates": [-86.062730183, 32.077252903], "type": "Point"}, "id": "x2MQSrWDQQFsJpG_88Tp-4KEcaE=", "properties": {"@source_uri": "https://tools.usps.com/UspsToolsRestServices/rest/POLocator/findLocations", "@spider": "usps_collection_boxes", "addr:city": "PINE LEVEL", "addr:country": "US", "addr:postcode": "36065", "addr:state": "AL", "addr:street_address": "685 PINE LEVEL LOOP", "amenity": "post_box", "brand": "United States Postal Service", "brand:wikidata": "Q668687", "collection_times": "Mo-Fr 11:30; Sa 10:30", "indoor": "yes", "nsi_id": "unitedstatespostalservice-a77078", "operator": "United States Postal Service", "operator:short": "USPS", "operator:type": "public", "operator:wikidata": "Q668687", "ref": "3606500003"}, "type": "Feature"}
{"geometry": {"coordinates": [-86.425492762, 32.462369751], "type": "Point"}, "id": "wgK2PkPOJ56nlIbkpx4s6mc8obI=", "properties": {"@source_uri": "https://tools.usps.com/UspsToolsRestServices/rest/POLocator/findLocations", "@spider": "usps_collection_boxes", "addr:city": "PRATTVILLE", "addr:country": "US", "addr:postcode": "36066", "addr:state": "AL", "addr:street_address": "502 GREYSTONE WAY", "amenity": "post_box", "brand": "United States Postal Service", "brand:wikidata": "Q668687", "collection_times": "Mo-Fr 17:30; Sa 14:00", "indoor": "yes", "note": "ON 12/24 AND 12/31, THIS BOX MAY BE COLLECTED AS EARLY AS 12 NOON.", "nsi_id": "unitedstatespostalservice-a77078", "operator": "United States Postal Service", "operator:short": "USPS", "operator:type": "public", "operator:wikidata": "Q668687", "ref": "3606600007"}, "type": "Feature"}
{"geometry": {"coordinates": [-86.4727688, 32.460028], "type": "Point"}, "id": "vgBhBS09oTXRLXAMbYLNo-QlJ80=", "properties": {"@source_uri": "https://tools.usps.com/UspsToolsRestServices/rest/POLocator/findLocations", "@spider": "usps_collection_boxes", "addr:city": "PRATTVILLE", "addr:country": "US", "addr:postcode": "36067", "addr:state": "AL", "addr:street_address": "102 W MAIN ST", "amenity": "post_box", "brand": "United States Postal Service", "brand:wikidata": "Q668687", "collection_times": "Mo-Sa 11:00", "nsi_id": "unitedstatespostalservice-a77078", "operator": "United States Postal Service", "operator:short": "USPS", "operator:type": "public", "operator:wikidata": "Q668687", "ref": "3606700001"}, "type": "Feature"}
{"geometry": {"coordinates": [-86.4727679, 32.460038], "type": "Point"}, "id": "JGaoEC-fiLzYnubcn8cEZZJfNTs=", "properties": {"@source_uri": "https://tools.usps.com/UspsToolsRestServices/rest/POLocator/findLocations", "@spider": "usps_collection_boxes", "addr:city": "PRATTVILLE", "addr:country": "US", "addr:postcode": "36067", "addr:state": "AL", "addr:street_address": "102 W MAIN ST", "amenity": "post_box", "brand": "United States Postal Service", "brand:wikidata": "Q668687", "collection_times": "Mo-Sa 11:00", "nsi_id": "unitedstatespostalservice-a77078", "operator": "United States Postal Service", "operator:short": "USPS", "operator:type": "public", "operator:wikidata": "Q668687", "ref": "3606700002"}, "type": "Feature"}
{"geometry": {"coordinates": [-86.4507926, 32.452086], "type": "Point"}, "id": "o9Y4mvFXX_X9MvO3j8nvt1oOavM=", "properties": {"@source_uri": "https://tools.usps.com/UspsToolsRestServices/rest/POLocator/findLocations", "@spider": "usps_collection_boxes", "addr:city": "PRATTVILLE", "addr:country": "US", "addr:postcode": "36067", "addr:state": "AL", "addr:street_address": "101 DANYA CT", "amenity": "post_box", "brand": "United States Postal Service", "brand:wikidata": "Q668687", "collection_times": "Mo-Fr 14:30; Sa 12:00", "note": "ON 12/24 AND 12/31, THIS BOX MAY BE COLLECTED AS EARLY AS 12 NOON.", "nsi_id": "unitedstatespostalservice-a77078", "operator": "United States Postal Service", "operator:short": "USPS", "operator:type": "public", "operator:wikidata": "Q668687", "ref": "3606700004"}, "type": "Feature"}
{"geometry": {"coordinates": [-86.4525237, 32.465797], "type": "Point"}, "id": "pcJQ1wyF05kesmGcrElYy-TeCA8=", "properties": {"@source_uri": "https://tools.usps.com/UspsToolsRestServices/rest/POLocator/findLocations", "@spider": "usps_collection_boxes", "addr:city": "PRATTVILLE", "addr:country": "US", "addr:postcode": "36067", "addr:state": "AL", "addr:street_address": "119 N MEMORIAL DR", "amenity": "post_box", "brand": "United States Postal Service", "brand:wikidata": "Q668687", "collection_times": "Mo-Sa 09:00", "nsi_id": "unitedstatespostalservice-a77078", "operator": "United States Postal Service", "operator:short": "USPS", "operator:type": "public", "operator:wikidata": "Q668687", "ref": "3606700005"}, "type": "Feature"}
{"geometry": {"coordinates": [-86.4305106, 32.442445], "type": "Point"}, "id": "PKgGZ0M1dOV0iYVjTwNMZokrwEU=", "properties": {"@source_uri": "https://tools.usps.com/UspsToolsRestServices/rest/POLocator/findLocations", "@spider": "usps_collection_boxes", "addr:city": "PRATTVILLE", "addr:country": "US", "addr:postcode": "36067", "addr:state": "AL", "addr:street_address": "1347 S MEMORIAL DR", "amenity": "post_box", "brand": "United States Postal Service", "brand:wikidata": "Q668687", "collection_times": "Mo-Sa 10:00", "nsi_id": "unitedstatespostalservice-a77078", "operator": "United States Postal Service", "operator:short": "USPS", "operator:type": "public", "operator:wikidata": "Q668687", "ref": "3606700007"}, "type": "Feature"}
{"geometry": {"coordinates": [-86.4713123, 32.436742], "type": "Point"}, "id": "xBYgmmKVK7eU-VL7UpmEtkMUie8=", "properties": {"@source_uri": "https://tools.usps.com/UspsToolsRestServices/rest/POLocator/findLocations", "@spider": "usps_collection_boxes", "addr:city": "PRATTVILLE", "addr:country": "US", "addr:postcode": "36067", "addr:state": "AL", "addr:street_address": "104 GAWAIN DR", "amenity": "post_box", "brand": "United States Postal Service", "brand:wikidata": "Q668687", "collection_times": "Mo-Sa 13:00", "note": "ON 12/24 AND 12/31, THIS BOX MAY BE COLLECTED AS EARLY AS 12 NOON.", "nsi_id": "unitedstatespostalservice-a77078", "operator": "United States Postal Service", "operator:short": "USPS", "operator:type": "public", "operator:wikidata": "Q668687", "ref": "3606700008"}, "type": "Feature"}
{"geometry": {"coordinates": [-86.4746719, 32.463092], "type": "Point"}, "id": "EjrOEaUwey-UCjwThdwsWAEYk2A=", "properties": {"@source_uri": "https://tools.usps.com/UspsToolsRestServices/rest/POLocator/findLocations", "@spider": "usps_collection_boxes", "addr:city": "PRATTVILLE", "addr:country": "US", "addr:postcode": "36067", "addr:state": "AL", "addr:street_address": "140 W 4TH ST", "amenity": "post_box", "brand": "United States Postal Service", "brand:wikidata": "Q668687", "collection_times": "Mo-Fr 15:00; Sa 10:00", "note": "ON 12/24 AND 12/31, THIS BOX MAY BE COLLECTED AS EARLY AS 12 NOON.", "nsi_id": "unitedstatespostalservice-a77078", "operator": "United States Postal Service", "operator:short": "USPS", "operator:type": "public", "operator:wikidata": "Q668687", "ref": "3606700009"}, "type": "Feature"}
{"geometry": {"coordinates": [-86.451677, 32.4586603], "type": "Point"}, "id": "iOMxh51s_iUHQa5Pa3SpaQFakBw=", "properties": {"@source_uri": "https://tools.usps.com/UspsToolsRestServices/rest/POLocator/findLocations", "@spider": "usps_collection_boxes", "addr:city": "PRATTVILLE", "addr:country": "US", "addr:postcode": "36067", "addr:state": "AL", "addr:street_address": "699A E 6TH ST", "amenity": "post_box", "brand": "United States Postal Service", "brand:wikidata": "Q668687", "collection_times": "Mo-Sa 09:00", "nsi_id": "unitedstatespostalservice-a77078", "operator": "United States Postal Service", "operator:short": "USPS", "operator:type": "public", "operator:wikidata": "Q668687", "ref": "3606700010"}, "type": "Feature"}
{"geometry": {"coordinates": [-86.4548587, 32.461728], "type": "Point"}, "id": "pi1K7vkmmPclUByVA7Av9wVO8Hk=", "properties": {"@source_uri": "https://tools.usps.com/UspsToolsRestServices/rest/POLocator/findLocations", "@spider": "usps_collection_boxes", "addr:city": "PRATTVILLE", "addr:country": "US", "addr:postcode": "36067", "addr:state": "AL", "addr:street_address": "705 E MAIN ST", "amenity": "post_box", "brand": "United States Postal Service", "brand:wikidata": "Q668687", "collection_times": "Mo-Sa 10:00", "nsi_id": "unitedstatespostalservice-a77078", "operator": "United States Postal Service", "operator:short": "USPS", "operator:type": "public", "operator:wikidata": "Q668687", "ref": "3606700013"}, "type": "Feature"}
{"geometry": {"coordinates": [-86.4755384, 32.465209], "type": "Point"}, "id": "jO53Uju8kSW8cyBK_ExMWPPbqAY=", "properties": {"@source_uri": "https://tools.usps.com/UspsToolsRestServices/rest/POLocator/findLocations", "@spider": "usps_collection_boxes", "addr:city": "PRATTVILLE", "addr:country": "US", "addr:postcode": "36067", "addr:state": "AL", "addr:street_address": "203 N COURT ST", "amenity": "post_box", "brand": "United States Postal Service", "brand:wikidata": "Q668687", "collection_times": "Mo-Fr 15:00; Sa 10:00", "note": "ON 12/24 AND 12/31, THIS BOX MAY BE COLLECTED AS EARLY AS 12 NOON.", "nsi_id": "unitedstatespostalservice-a77078", "operator": "United States Postal Service", "operator:short": "USPS", "operator:type": "public", "operator:wikidata": "Q668687", "ref": "3606700015"}, "type": "Feature"}
{"geometry": {"coordinates": [-86.4257792, 32.461327], "type": "Point"}, "id": "wS-HyMWuH8E9P0z2oV3gUdjnytY=", "properties": {"@source_uri": "https://tools.usps.com/UspsToolsRestServices/rest/POLocator/findLocations", "@spider": "usps_collection_boxes", "addr:city": "PRATTVILLE", "addr:country": "US", "addr:postcode": "36067", "addr:state": "AL", "addr:street_address": "502 GREYSTONE WAY", "amenity": "post_box", "brand": "United States Postal Service", "brand:wikidata": "Q668687", "collection_times": "Mo-Fr 17:15; Sa 14:00", "note": "ON 12/24 AND 12/31, THIS BOX MAY BE COLLECTED AS EARLY AS 12 NOON.", "nsi_id": "unitedstatespostalservice-a77078", "operator": "United States Postal Service", "operator:short": "USPS", "operator:type": "public", "operator:wikidata": "Q668687", "ref": "3606700016"}, "type": "Feature"}
{"geometry": {"coordinates": [-86.3907762, 32.460712], "type": "Point"}, "id": "A3xNq8muTPvmiQBT6NAMSCXtgOs=", "properties": {"@source_uri": "https://tools.usps.com/UspsToolsRestServices/rest/POLocator/findLocations", "@spider": "usps_collection_boxes", "addr:city": "PRATTVILLE", "addr:country": "US", "addr:postcode": "36067", "addr:state": "AL", "addr:street_address": "2759 COBBS FORD RD", "amenity": "post_box", "brand": "United States Postal Service", "brand:wikidata": "Q668687", "collection_times": "Mo-Sa 10:00", "nsi_id": "unitedstatespostalservice-a77078", "operator": "United States Postal Service", "operator:short": "USPS", "operator:type": "public", "operator:wikidata": "Q668687", "ref": "3606700018"}, "type": "Feature"}
{"geometry": {"coordinates": [-86.4485094, 32.460443], "type": "Point"}, "id": "iTdYDmtrtuBDM566b5rbD1NBlWg=", "properties": {"@source_uri": "https://tools.usps.com/UspsToolsRestServices/rest/POLocator/findLocations", "@spider": "usps_collection_boxes", "addr:city": "PRATTVILLE", "addr:country": "US", "addr:postcode": "36067", "addr:state": "AL", "addr:street_address": "959 E MAIN ST", "amenity": "post_box", "brand": "United States Postal Service", "brand:wikidata": "Q668687", "collection_times": "Mo-Fr 10:00; Sa 09:00", "nsi_id": "unitedstatespostalservice-a77078", "operator": "United States Postal Service", "operator:short": "USPS", "operator:type": "public", "operator:wikidata": "Q668687", "ref": "3606700019"}, "type": "Feature"}
{"geometry": {"coordinates": [-86.4155109, 32.462659], "type": "Point"}, "id": "d6LvvAePCroHBP5KqUicojyBOFQ=", "properties": {"@source_uri": "https://tools.usps.com/UspsToolsRestServices/rest/POLocator/findLocations", "@spider": "usps_collection_boxes", "addr:city": "PRATTVILLE", "addr:country": "US", "addr:postcode": "36067", "addr:state": "AL", "addr:street_address": "1903 COBBS FORD RD", "amenity": "post_box", "brand": "United States Postal Service", "brand:wikidata": "Q668687", "collection_times": "Mo-Sa 10:00", "nsi_id": "unitedstatespostalservice-a77078", "operator": "United States Postal Service", "operator:short": "USPS", "operator:type": "public", "operator:wikidata": "Q668687", "ref": "3606700020"}, "type": "Feature"}
{"geometry": {"coordinates": [-86.4261449, 32.461486], "type": "Point"}, "id": "mZg8QQ5Bb5pMp9tGj3_lCMWOt_g=", "properties": {"@source_uri": "https://tools.usps.com/UspsToolsRestServices/rest/POLocator/findLocations", "@spider": "usps_collection_boxes", "addr:city": "PRATTVILLE", "addr:country": "US", "addr:postcode": "36067", "addr:state": "AL", "addr:street_address": "502 GREYSTONE WAY", "amenity": "post_box", "brand": "United States Postal Service", "brand:wikidata": "Q668687", "collection_times": "Mo-Fr 17:15; Sa 14:00", "indoor": "yes", "note": "ON 12/24 AND 12/31, THIS BOX MAY BE COLLECTED AS EARLY AS 12 NOON.", "nsi_id": "unitedstatespostalservice-a77078", "operator": "United States Postal Service", "operator:short": "USPS", "operator:type": "public", "operator:wikidata": "Q668687", "ref": "3606700023"}, "type": "Feature"}
{"geometry": {"coordinates": [-86.4191813, 32.479704], "type": "Point"}, "id": "uOtPwWZZ6v1lDWvJUPtxvq_5FjE=", "properties": {"@source_uri": "https://tools.usps.com/UspsToolsRestServices/rest/POLocator/findLocations", "@spider": "usps_collection_boxes", "addr:city": "PRATTVILLE", "addr:country": "US", "addr:postcode": "36067", "addr:state": "AL", "addr:street_address": "1800 STATION DR", "amenity": "post_box", "brand": "United States Postal Service", "brand:wikidata": "Q668687", "collection_times": "Mo-Sa 09:00", "nsi_id": "unitedstatespostalservice-a77078", "operator": "United States Postal Service", "operator:short": "USPS", "operator:type": "public", "operator:wikidata": "Q668687", "ref": "3606700024"}, "type": "Feature"}
{"geometry": {"coordinates": [-86.4261176, 32.461542], "type": "Point"}, "id": "YeZqZeiRo2h4SypXovBlTcMyQq4=", "properties": {"@source_uri": "https://tools.usps.com/UspsToolsRestServices/rest/POLocator/findLocations", "@spider": "usps_collection_boxes", "addr:city": "PRATTVILLE", "addr:country": "US", "addr:postcode": "36067", "addr:state": "AL", "addr:street_address": "502 GREYSTONE WAY", "amenity": "post_box", "brand": "United States Postal Service", "brand:wikidata": "Q668687", "collection_times": "Mo-Fr 17:15; Sa 14:00", "name": "USPS COLLECTION BOX - APC", "note": "ON 12/24 AND 12/31, THIS BOX MAY BE COLLECTED AS EARLY AS 12 NOON.", "nsi_id": "unitedstatespostalservice-a77078", "operator": "United States Postal Service", "operator:short": "USPS", "operator:type": "public", "operator:wikidata": "Q668687", "ref": "3606700025"}, "type": "Feature"}
{"geometry": {"coordinates": [-86.451677, 32.4586603], "type": "Point"}, "id": "fQj5OAK-jm25gFnJumO0qG4-4ls=", "properties": {"@source_uri": "https://tools.usps.com/UspsToolsRestServices/rest/POLocator/findLocations", "@spider": "usps_collection_boxes", "addr:city": "PRATTVILLE", "addr:country": "US", "addr:postcode": "36067", "addr:state": "AL", "addr:street_address": "2103 VICTORIA PL", "amenity": "post_box", "brand": "United States Postal Service", "brand:wikidata": "Q668687", "collection_times": "Mo-Sa 10:00", "nsi_id": "unitedstatespostalservice-a77078", "operator": "United States Postal Service", "operator:short": "USPS", "operator:type": "public", "operator:wikidata": "Q668687", "ref": "3606700026"}, "type": "Feature"}
{"geometry": {"coordinates": [-86.219806, 32.049807], "type": "Point"}, "id": "ZuvgVUQcIuPVgtGDD6vPUNLthtY=", "properties": {"@source_uri": "https://tools.usps.com/UspsToolsRestServices/rest/POLocator/findLocations", "@spider": "usps_collection_boxes", "addr:city": "RAMER", "addr:country": "US", "addr:postcode": "36069", "addr:state": "AL", "addr:street_address": "169 MAIN ST", "amenity": "post_box", "brand": "United States Postal Service", "brand:wikidata": "Q668687", "collection_times": "Mo-Fr 15:15; Sa 09:45", "indoor": "yes", "note": "ON 12/24 AND 12/31, THIS BOX MAY BE COLLECTED AS EARLY AS 12 NOON.", "nsi_id": "unitedstatespostalservice-a77078", "operator": "United States Postal Service", "operator:short": "USPS", "operator:type": "public", "operator:wikidata": "Q668687", "ref": "3606900001"}, "type": "Feature"}
{"geometry": {"coordinates": [-86.219806, 32.049807], "type": "Point"}, "id": "rzOIGPzEtUtgcK00Yo15dOxmrns=", "properties": {"@source_uri": "https://tools.usps.com/UspsToolsRestServices/rest/POLocator/findLocations", "@spider": "usps_collection_boxes", "addr:city": "RAMER", "addr:country": "US", "addr:postcode": "36069", "addr:state": "AL", "addr:street_address": "169 MAIN ST", "amenity": "post_box", "brand": "United States Postal Service", "brand:wikidata": "Q668687", "collection_times": "Mo-Fr 15:15; Sa 09:45", "note": "ON 12/24 AND 12/31, THIS BOX MAY BE COLLECTED AS EARLY AS 12 NOON.", "nsi_id": "unitedstatespostalservice-a77078", "operator": "United States Postal Service", "operator:short": "USPS", "operator:type": "public", "operator:wikidata": "Q668687", "ref": "3606900002"}, "type": "Feature"}
{"geometry": {"coordinates": [-86.219790262, 32.049612901], "type": "Point"}, "id": "m4GnfUpE3gYY2ABJ119zgg4RcYc=", "properties": {"@source_uri": "https://tools.usps.com/UspsToolsRestServices/rest/POLocator/findLocations", "@spider": "usps_collection_boxes", "addr:city": "RAMER", "addr:country": "US", "addr:postcode": "36069", "addr:state": "AL", "addr:street_address": "169 MAIN ST", "amenity": "post_box", "brand": "United States Postal Service", "brand:wikidata": "Q668687", "collection_times": "Mo-Fr 15:30; Sa 10:00", "indoor": "yes", "note": "ON 12/24 AND 12/31, THIS BOX MAY BE COLLECTED AS EARLY AS 12 NOON.", "nsi_id": "unitedstatespostalservice-a77078", "operator": "United States Postal Service", "operator:short": "USPS", "operator:type": "public", "operator:wikidata": "Q668687", "ref": "3606900004"}, "type": "Feature"}
{"geometry": {"coordinates": [-86.31013, 31.730416], "type": "Point"}, "id": "v0Oe0OV1sXUZbmlk7vuSaO42VZ0=", "properties": {"@source_uri": "https://tools.usps.com/UspsToolsRestServices/rest/POLocator/findLocations", "@spider": "usps_collection_boxes", "addr:city": "RUTLEDGE", "addr:country": "US", "addr:postcode": "36071", "addr:state": "AL", "addr:street_address": "1606 LEE ST", "amenity": "post_box", "brand": "United States Postal Service", "brand:wikidata": "Q668687", "collection_times": "Mo-Fr 11:50; Sa 09:30", "nsi_id": "unitedstatespostalservice-a77078", "operator": "United States Postal Service", "operator:short": "USPS", "operator:type": "public", "operator:wikidata": "Q668687", "ref": "3607100000"}, "type": "Feature"}
{"geometry": {"coordinates": [-86.31013, 31.730416], "type": "Point"}, "id": "9IUrigF8CEzfGsMTw3E_KlXf4YM=", "properties": {"@source_uri": "https://tools.usps.com/UspsToolsRestServices/rest/POLocator/findLocations", "@spider": "usps_collection_boxes", "addr:city": "RUTLEDGE", "addr:country": "US", "addr:postcode": "36071", "addr:state": "AL", "addr:street_address": "1606 LEE ST", "amenity": "post_box", "brand": "United States Postal Service", "brand:wikidata": "Q668687", "collection_times": "Mo-Fr 11:50; Sa 09:30", "indoor": "yes", "nsi_id": "unitedstatespostalservice-a77078", "operator": "United States Postal Service", "operator:short": "USPS", "operator:type": "public", "operator:wikidata": "Q668687", "ref": "3607100001"}, "type": "Feature"}
{"geometry": {"coordinates": [-86.322823534, 31.727905641], "type": "Point"}, "id": "Tsmi-G4CBUFFhfKUHbd32az6lw0=", "properties": {"@source_uri": "https://tools.usps.com/UspsToolsRestServices/rest/POLocator/findLocations", "@spider": "usps_collection_boxes", "addr:city": "RUTLEDGE", "addr:country": "US", "addr:postcode": "36071", "addr:state": "AL", "addr:street_address": "1606 LEE ST", "amenity": "post_box", "brand": "United States Postal Service", "brand:wikidata": "Q668687", "collection_times": "Mo-Fr 12:00; Sa 10:00", "indoor": "yes", "nsi_id": "unitedstatespostalservice-a77078", "operator": "United States Postal Service", "operator:short": "USPS", "operator:type": "public", "operator:wikidata": "Q668687", "ref": "3607100003"}, "type": "Feature"}
{"geometry": {"coordinates": [-85.922048, 32.394652], "type": "Point"}, "id": "53jOId_pJ_xGehUTYPCrxbZ7emA=", "properties": {"@source_uri": "https://tools.usps.com/UspsToolsRestServices/rest/POLocator/findLocations", "@spider": "usps_collection_boxes", "addr:city": "SHORTER", "addr:country": "US", "addr:postcode": "36075", "addr:state": "AL", "addr:street_address": "2557 OLD FEDERAL RD", "amenity": "post_box", "brand": "United States Postal Service", "brand:wikidata": "Q668687", "collection_times": "Mo-Fr 15:45; Sa 09:00", "note": "ON 12/24 AND 12/31, THIS BOX MAY BE COLLECTED AS EARLY AS 12 NOON.", "nsi_id": "unitedstatespostalservice-a77078", "operator": "United States Postal Service", "operator:short": "USPS", "operator:type": "public", "operator:wikidata": "Q668687", "ref": "3607500000"}, "type": "Feature"}
{"geometry": {"coordinates": [-85.922048, 32.394652], "type": "Point"}, "id": "FTrLDHaafauW1U_rZZjQpmWh0I8=", "properties": {"@source_uri": "https://tools.usps.com/UspsToolsRestServices/rest/POLocator/findLocations", "@spider": "usps_collection_boxes", "addr:city": "SHORTER", "addr:country": "US", "addr:postcode": "36075", "addr:state": "AL", "addr:street_address": "2557 OLD FEDERAL RD", "amenity": "post_box", "brand": "United States Postal Service", "brand:wikidata": "Q668687", "collection_times": "Mo-Fr 15:45; Sa 09:00", "indoor": "yes", "note": "ON 12/24 AND 12/31, THIS BOX MAY BE COLLECTED AS EARLY AS 12 NOON.", "nsi_id": "unitedstatespostalservice-a77078", "operator": "United States Postal Service", "operator:short": "USPS", "operator:type": "public", "operator:wikidata": "Q668687", "ref": "3607500001"}, "type": "Feature"}
{"geometry": {"coordinates": [-85.9484895255, 32.3995700064], "type": "Point"}, "id": "RTGeBSVmEt2jA17qSey0cWVmg7c=", "properties": {"@source_uri": "https://tools.usps.com/UspsToolsRestServices/rest/POLocator/findLocations", "@spider": "usps_collection_boxes", "addr:city": "SHORTER", "addr:country": "US", "addr:postcode": "36075", "addr:state": "AL", "addr:street_address": "2557 OLD FEDERAL RD", "amenity": "post_box", "brand": "United States Postal Service", "brand:wikidata": "Q668687", "collection_times": "Mo-Fr 15:45; Sa 09:00", "indoor": "yes", "note": "ON 12/24 AND 12/31, THIS BOX MAY BE COLLECTED AS EARLY AS 12 NOON.", "nsi_id": "unitedstatespostalservice-a77078", "operator": "United States Postal Service", "operator:short": "USPS", "operator:type": "public", "operator:wikidata": "Q668687", "ref": "3607500004"}, "type": "Feature"}
{"geometry": {"coordinates": [-85.915806, 32.54985], "type": "Point"}, "id": "482y3Gg9qAlGErSehMoiZIj2D0I=", "properties": {"@source_uri": "https://tools.usps.com/UspsToolsRestServices/rest/POLocator/findLocations", "@spider": "usps_collection_boxes", "addr:city": "TALLASSEE", "addr:country": "US", "addr:postcode": "36078", "addr:state": "AL", "addr:street_address": "1204 GILMER AVE", "amenity": "post_box", "brand": "United States Postal Service", "brand:wikidata": "Q668687", "collection_times": "Mo-Fr 16:30; Sa 12:00", "note": "ON 12/24 AND 12/31, THIS BOX MAY BE COLLECTED AS EARLY AS 12 NOON.", "nsi_id": "unitedstatespostalservice-a77078", "operator": "United States Postal Service", "operator:short": "USPS", "operator:type": "public", "operator:wikidata": "Q668687", "ref": "3607800000"}, "type": "Feature"}
{"geometry": {"coordinates": [-85.915806, 32.54985], "type": "Point"}, "id": "ElIgnazdALt0nPnnUBR2SBcudxI=", "properties": {"@source_uri": "https://tools.usps.com/UspsToolsRestServices/rest/POLocator/findLocations", "@spider": "usps_collection_boxes", "addr:city": "TALLASSEE", "addr:country": "US", "addr:postcode": "36078", "addr:state": "AL", "addr:street_address": "1204 GILMER AVE", "amenity": "post_box", "brand": "United States Postal Service", "brand:wikidata": "Q668687", "collection_times": "Mo-Fr 16:30; Sa 12:00", "indoor": "yes", "note": "ON 12/24 AND 12/31, THIS BOX MAY BE COLLECTED AS EARLY AS 12 NOON.", "nsi_id": "unitedstatespostalservice-a77078", "operator": "United States Postal Service", "operator:short": "USPS", "operator:type": "public", "operator:wikidata": "Q668687", "ref": "3607800005"}, "type": "Feature"}
{"geometry": {"coordinates": [-85.8817695, 32.535136], "type": "Point"}, "id": "4HaDVL6bSb7x2hETF3K7lVxCTVI=", "properties": {"@source_uri": "https://tools.usps.com/UspsToolsRestServices/rest/POLocator/findLocations", "@spider": "usps_collection_boxes", "addr:city": "TALLASSEE", "addr:country": "US", "addr:postcode": "36078", "addr:state": "AL", "addr:street_address": "117 CENTRAL BLVD", "amenity": "post_box", "brand": "United States Postal Service", "brand:wikidata": "Q668687", "collection_times": "Mo-Sa 13:30", "note": "ON 12/24 AND 12/31, THIS BOX MAY BE COLLECTED AS EARLY AS 12 NOON.", "nsi_id": "unitedstatespostalservice-a77078", "operator": "United States Postal Service", "operator:short": "USPS", "operator:type": "public", "operator:wikidata": "Q668687", "ref": "3607800007"}, "type": "Feature"}
{"geometry": {"coordinates": [-85.947989, 32.61872], "type": "Point"}, "id": "7urx49wPN9AfAHkOAkJsx53EVf4=", "properties": {"@source_uri": "https://tools.usps.com/UspsToolsRestServices/rest/POLocator/findLocations", "@spider": "usps_collection_boxes", "addr:city": "TALLASSEE", "addr:country": "US", "addr:postcode": "36078", "addr:state": "AL", "addr:street_address": "3408 KENT RD", "amenity": "post_box", "brand": "United States Postal Service", "brand:wikidata": "Q668687", "collection_times": "Mo-Sa 08:45", "nsi_id": "unitedstatespostalservice-a77078", "operator": "United States Postal Service", "operator:short": "USPS", "operator:type": "public", "operator:wikidata": "Q668687", "ref": "3607800008"}, "type": "Feature"}
{"geometry": {"coordinates": [-85.8309348, 32.553471], "type": "Point"}, "id": "mULGuEWihYsfq-r0IouMihYG4Ho=", "properties": {"@source_uri": "https://tools.usps.com/UspsToolsRestServices/rest/POLocator/findLocations", "@spider": "usps_collection_boxes", "addr:city": "TALLASSEE", "addr:country": "US", "addr:postcode": "36078", "addr:state": "AL", "addr:street_address": "4366 NOTASULGA RD", "amenity": "post_box", "brand": "United States Postal Service", "brand:wikidata": "Q668687", "collection_times": "Mo-Sa 09:00", "nsi_id": "unitedstatespostalservice-a77078", "operator": "United States Postal Service", "operator:short": "USPS", "operator:type": "public", "operator:wikidata": "Q668687", "ref": "3607800010"}, "type": "Feature"}
{"geometry": {"coordinates": [-85.915783829, 32.549870513], "type": "Point"}, "id": "6k7iEfVfVMk1tdUNLVwLoRshcxI=", "properties": {"@source_uri": "https://tools.usps.com/UspsToolsRestServices/rest/POLocator/findLocations", "@spider": "usps_collection_boxes", "addr:city": "TALLASSEE", "addr:country": "US", "addr:postcode": "36078", "addr:state": "AL", "addr:street_address": "1204 GILMER AVE", "amenity": "post_box", "brand": "United States Postal Service", "brand:wikidata": "Q668687", "collection_times": "Mo-Fr 16:30; Sa 12:00", "indoor": "yes", "note": "ON 12/24 AND 12/31, THIS BOX MAY BE COLLECTED AS EARLY AS 12 NOON.", "nsi_id": "unitedstatespostalservice-a77078", "operator": "United States Postal Service", "operator:short": "USPS", "operator:type": "public", "operator:wikidata": "Q668687", "ref": "3607800011"}, "type": "Feature"}
{"geometry": {"coordinates": [-86.318354, 32.711731], "type": "Point"}, "id": "-zV-KzyLzcDWh9XoMmqCeiosSXQ=", "properties": {"@source_uri": "https://tools.usps.com/UspsToolsRestServices/rest/POLocator/findLocations", "@spider": "usps_collection_boxes", "addr:city": "TITUS", "addr:country": "US", "addr:postcode": "36080", "addr:state": "AL", "addr:street_address": "5999 TITUS RD", "amenity": "post_box", "brand": "United States Postal Service", "brand:wikidata": "Q668687", "collection_times": "Mo-Fr 13:30; Sa 09:00", "note": "ON 12/24 AND 12/31, THIS BOX MAY BE COLLECTED AS EARLY AS 12 NOON.", "nsi_id": "unitedstatespostalservice-a77078", "operator": "United States Postal Service", "operator:short": "USPS", "operator:type": "public", "operator:wikidata": "Q668687", "ref": "3608000000"}, "type": "Feature"}
{"geometry": {"coordinates": [-86.318354, 32.711731], "type": "Point"}, "id": "nOoVqpqeIQDMImboKzDjSwfk5_E=", "properties": {"@source_uri": "https://tools.usps.com/UspsToolsRestServices/rest/POLocator/findLocations", "@spider": "usps_collection_boxes", "addr:city": "TITUS", "addr:country": "US", "addr:postcode": "36080", "addr:state": "AL", "addr:street_address": "5999 TITUS RD", "amenity": "post_box", "brand": "United States Postal Service", "brand:wikidata": "Q668687", "collection_times": "Mo-Fr 13:30; Sa 09:00", "indoor": "yes", "note": "ON 12/24 AND 12/31, THIS BOX MAY BE COLLECTED AS EARLY AS 12 NOON.", "nsi_id": "unitedstatespostalservice-a77078", "operator": "United States Postal Service", "operator:short": "USPS", "operator:type": "public", "operator:wikidata": "Q668687", "ref": "3608000001"}, "type": "Feature"}
{"geometry": {"coordinates": [-86.318377668, 32.711704514], "type": "Point"}, "id": "l4fbxfmMqzy_EWY2PliSNuT2FWk=", "properties": {"@source_uri": "https://tools.usps.com/UspsToolsRestServices/rest/POLocator/findLocations", "@spider": "usps_collection_boxes", "addr:city": "TITUS", "addr:country": "US", "addr:postcode": "36080", "addr:state": "AL", "addr:street_address": "5999 TITUS RD", "amenity": "post_box", "brand": "United States Postal Service", "brand:wikidata": "Q668687", "collection_times": "Mo-Fr 13:30; Sa 09:30", "indoor": "yes", "note": "ON 12/24 AND 12/31, THIS BOX MAY BE COLLECTED AS EARLY AS 12 NOON.", "nsi_id": "unitedstatespostalservice-a77078", "operator": "United States Postal Service", "operator:short": "USPS", "operator:type": "public", "operator:wikidata": "Q668687", "ref": "3608000005"}, "type": "Feature"}
{"geometry": {"coordinates": [-85.964671, 31.78938], "type": "Point"}, "id": "ljVHz61t_9hKUzX3-yQfmnGa-y0=", "properties": {"@source_uri": "https://tools.usps.com/UspsToolsRestServices/rest/POLocator/findLocations", "@spider": "usps_collection_boxes", "addr:city": "TROY", "addr:country": "US", "addr:postcode": "36081", "addr:state": "AL", "addr:street_address": "1300 S BRUNDIDGE ST", "amenity": "post_box", "brand": "United States Postal Service", "brand:wikidata": "Q668687", "collection_times": "Mo-Fr 17:15; Sa 12:00", "note": "ON 12/24 AND 12/31, THIS BOX MAY BE COLLECTED AS EARLY AS 12 NOON.", "nsi_id": "unitedstatespostalservice-a77078", "operator": "United States Postal Service", "operator:short": "USPS", "operator:type": "public", "operator:wikidata": "Q668687", "ref": "3608100000"}, "type": "Feature"}
{"geometry": {"coordinates": [-85.964727, 31.789461], "type": "Point"}, "id": "sYfnoqNfHKnFqohfq9JCaSPw3Hw=", "properties": {"@source_uri": "https://tools.usps.com/UspsToolsRestServices/rest/POLocator/findLocations", "@spider": "usps_collection_boxes", "addr:city": "TROY", "addr:country": "US", "addr:postcode": "36081", "addr:state": "AL", "addr:street_address": "1300 S BRUNDIDGE ST", "amenity": "post_box", "brand": "United States Postal Service", "brand:wikidata": "Q668687", "collection_times": "Mo-Fr 17:15; Sa 12:00", "note": "ON 12/24 AND 12/31, THIS BOX MAY BE COLLECTED AS EARLY AS 12 NOON.", "nsi_id": "unitedstatespostalservice-a77078", "operator": "United States Postal Service", "operator:short": "USPS", "operator:type": "public", "operator:wikidata": "Q668687", "ref": "3608100001"}, "type": "Feature"}
{"geometry": {"coordinates": [-85.964727, 31.789461], "type": "Point"}, "id": "oWjMcw8nS5OvrILPtpO5CpjF2cI=", "properties": {"@source_uri": "https://tools.usps.com/UspsToolsRestServices/rest/POLocator/findLocations", "@spider": "usps_collection_boxes", "addr:city": "TROY", "addr:country": "US", "addr:postcode": "36081", "addr:state": "AL", "addr:street_address": "1300 S BRUNDIDGE ST", "amenity": "post_box", "brand": "United States Postal Service", "brand:wikidata": "Q668687", "collection_times": "Mo-Fr 17:15; Sa 12:00", "note": "ON 12/24 AND 12/31, THIS BOX MAY BE COLLECTED AS EARLY AS 12 NOON.", "nsi_id": "unitedstatespostalservice-a77078", "operator": "United States Postal Service", "operator:short": "USPS", "operator:type": "public", "operator:wikidata": "Q668687", "ref": "3608100002"}, "type": "Feature"}
{"geometry": {"coordinates": [-85.964727, 31.789461], "type": "Point"}, "id": "zfZX2qJ4MKi8ZfPuf32-7fD7us4=", "properties": {"@source_uri": "https://tools.usps.com/UspsToolsRestServices/rest/POLocator/findLocations", "@spider": "usps_collection_boxes", "addr:city": "TROY", "addr:country": "US", "addr:postcode": "36081", "addr:state": "AL", "addr:street_address": "1300 S BRUNDIDGE ST", "amenity": "post_box", "brand": "United States Postal Service", "brand:wikidata": "Q668687", "collection_times": "Mo-Fr 17:15; Sa 12:00", "note": "ON 12/24 AND 12/31, THIS BOX MAY BE COLLECTED AS EARLY AS 12 NOON.", "nsi_id": "unitedstatespostalservice-a77078", "operator": "United States Postal Service", "operator:short": "USPS", "operator:type": "public", "operator:wikidata": "Q668687", "ref": "3608100003"}, "type": "Feature"}
{"geometry": {"coordinates": [-85.964727, 31.789461], "type": "Point"}, "id": "uwZdagORGPkdMxxoO09n9SAEGMc=", "properties": {"@source_uri": "https://tools.usps.com/UspsToolsRestServices/rest/POLocator/findLocations", "@spider": "usps_collection_boxes", "addr:city": "TROY", "addr:country": "US", "addr:postcode": "36081", "addr:state": "AL", "addr:street_address": "1300 S BRUNDIDGE ST", "amenity": "post_box", "brand": "United States Postal Service", "brand:wikidata": "Q668687", "collection_times": "Mo-Fr 17:15; Sa 12:00", "indoor": "yes", "note": "ON 12/24 AND 12/31, THIS BOX MAY BE COLLECTED AS EARLY AS 12 NOON.", "nsi_id": "unitedstatespostalservice-a77078", "operator": "United States Postal Service", "operator:short": "USPS", "operator:type": "public", "operator:wikidata": "Q668687", "ref": "3608100019"}, "type": "Feature"}
{"geometry": {"coordinates": [-85.9723386, 31.80727], "type": "Point"}, "id": "bYR2GZg8dW0_sVFsESwvHYF6BOY=", "properties": {"@source_uri": "https://tools.usps.com/UspsToolsRestServices/rest/POLocator/findLocations", "@spider": "usps_collection_boxes", "addr:city": "TROY", "addr:country": "US", "addr:postcode": "36081", "addr:state": "AL", "addr:street_address": "101 S 3 NOTCH ST", "amenity": "post_box", "brand": "United States Postal Service", "brand:wikidata": "Q668687", "collection_times": "Mo-Fr 15:00; Sa 10:00", "note": "ON 12/24 AND 12/31, THIS BOX MAY BE COLLECTED AS EARLY AS 12 NOON.", "nsi_id": "unitedstatespostalservice-a77078", "operator": "United States Postal Service", "operator:short": "USPS", "operator:type": "public", "operator:wikidata": "Q668687", "ref": "3608100020"}, "type": "Feature"}
{"geometry": {"coordinates": [-85.964661061, 31.789409393], "type": "Point"}, "id": "GEPk_OmwGwL4O0NuwhAh_nHi-PA=", "properties": {"@source_uri": "https://tools.usps.com/UspsToolsRestServices/rest/POLocator/findLocations", "@spider": "usps_collection_boxes", "addr:city": "TROY", "addr:country": "US", "addr:postcode": "36081", "addr:state": "AL", "addr:street_address": "1300 S BRUNDIDGE ST", "amenity": "post_box", "brand": "United States Postal Service", "brand:wikidata": "Q668687", "collection_times": "Mo-Fr 17:00; Sa 12:00", "indoor": "yes", "note": "ON 12/24 AND 12/31, THIS BOX MAY BE COLLECTED AS EARLY AS 12 NOON.", "nsi_id": "unitedstatespostalservice-a77078", "operator": "United States Postal Service", "operator:short": "USPS", "operator:type": "public", "operator:wikidata": "Q668687", "ref": "3608100024"}, "type": "Feature"}
{"geometry": {"coordinates": [-85.6910782, 32.424583], "type": "Point"}, "id": "uL1oJKxXVoB4_rmhPb0Lbh8ijh8=", "properties": {"@source_uri": "https://tools.usps.com/UspsToolsRestServices/rest/POLocator/findLocations", "@spider": "usps_collection_boxes", "addr:city": "TUSKEGEE", "addr:country": "US", "addr:postcode": "36083", "addr:state": "AL", "addr:street_address": "101 E ROSA PARKS AVE", "amenity": "post_box", "brand": "United States Postal Service", "brand:wikidata": "Q668687", "collection_times": "Mo-Sa 12:00", "nsi_id": "unitedstatespostalservice-a77078", "operator": "United States Postal Service", "operator:short": "USPS", "operator:type": "public", "operator:wikidata": "Q668687", "ref": "3608300006"}, "type": "Feature"}
{"geometry": {"coordinates": [-85.692285, 32.423859], "type": "Point"}, "id": "lpoGZ0w3bZKqaRUNsu3Zy9MSMUY=", "properties": {"@source_uri": "https://tools.usps.com/UspsToolsRestServices/rest/POLocator/findLocations", "@spider": "usps_collection_boxes", "addr:city": "TUSKEGEE", "addr:country": "US", "addr:postcode": "36083", "addr:state": "AL", "addr:street_address": "401 N ELM ST", "amenity": "post_box", "brand": "United States Postal Service", "brand:wikidata": "Q668687", "collection_times": "Mo-Fr 16:30; Sa 15:00", "indoor": "yes", "note": "ON 12/24 AND 12/31, THIS BOX MAY BE COLLECTED AS EARLY AS 12 NOON.", "nsi_id": "unitedstatespostalservice-a77078", "operator": "United States Postal Service", "operator:short": "USPS", "operator:type": "public", "operator:wikidata": "Q668687", "ref": "3608300018"}, "type": "Feature"}
{"geometry": {"coordinates": [-85.6922947403, 32.4238132021], "type": "Point"}, "id": "wVHkvJgclCV6v6lQEgz1GX04x-g=", "properties": {"@source_uri": "https://tools.usps.com/UspsToolsRestServices/rest/POLocator/findLocations", "@spider": "usps_collection_boxes", "addr:city": "TUSKEGEE", "addr:country": "US", "addr:postcode": "36083", "addr:state": "AL", "addr:street_address": "401 N ELM ST", "amenity": "post_box", "brand": "United States Postal Service", "brand:wikidata": "Q668687", "collection_times": "Mo-Fr 16:30; Sa 15:00", "note": "ON 12/24 AND 12/31, THIS BOX MAY BE COLLECTED AS EARLY AS 12 NOON.", "nsi_id": "unitedstatespostalservice-a77078", "operator": "United States Postal Service", "operator:short": "USPS", "operator:type": "public", "operator:wikidata": "Q668687", "ref": "3608300019"}, "type": "Feature"}
{"geometry": {"coordinates": [-85.692285, 32.423859], "type": "Point"}, "id": "4_aYJo76MujoQBfU3P-6FCu7e08=", "properties": {"@source_uri": "https://tools.usps.com/UspsToolsRestServices/rest/POLocator/findLocations", "@spider": "usps_collection_boxes", "addr:city": "TUSKEGEE", "addr:country": "US", "addr:postcode": "36083", "addr:state": "AL", "addr:street_address": "401 N ELM ST", "amenity": "post_box", "brand": "United States Postal Service", "brand:wikidata": "Q668687", "collection_times": "Mo-Fr 16:30; Sa 15:00", "indoor": "yes", "note": "ON 12/24 AND 12/31, THIS BOX MAY BE COLLECTED AS EARLY AS 12 NOON.", "nsi_id": "unitedstatespostalservice-a77078", "operator": "United States Postal Service", "operator:short": "USPS", "operator:type": "public", "operator:wikidata": "Q668687", "ref": "3608300023"}, "type": "Feature"}
{"geometry": {"coordinates": [-85.692290247, 32.423802861], "type": "Point"}, "id": "Klqog2QDRZIdiHwwYoTsS6WdWXs=", "properties": {"@source_uri": "https://tools.usps.com/UspsToolsRestServices/rest/POLocator/findLocations", "@spider": "usps_collection_boxes", "addr:city": "TUSKEGEE", "addr:country": "US", "addr:postcode": "36083", "addr:state": "AL", "addr:street_address": "401 N ELM ST", "amenity": "post_box", "brand": "United States Postal Service", "brand:wikidata": "Q668687", "collection_times": "Mo-Fr 17:00; Sa 12:00", "indoor": "yes", "note": "ON 12/24 AND 12/31, THIS BOX MAY BE COLLECTED AS EARLY AS 12 NOON.", "nsi_id": "unitedstatespostalservice-a77078", "operator": "United States Postal Service", "operator:short": "USPS", "operator:type": "public", "operator:wikidata": "Q668687", "ref": "3608300026"}, "type": "Feature"}
{"geometry": {"coordinates": [-85.712781, 32.425441], "type": "Point"}, "id": "opzZ1WGETSoAXiCTxu4qEBfhwcg=", "properties": {"@source_uri": "https://tools.usps.com/UspsToolsRestServices/rest/POLocator/findLocations", "@spider": "usps_collection_boxes", "addr:city": "TUSKEGEE INST", "addr:country": "US", "addr:postcode": "36087", "addr:state": "AL", "addr:street_address": "1702 W MONTGOMERY RD", "amenity": "post_box", "brand": "United States Postal Service", "brand:wikidata": "Q668687", "collection_times": "Mo-Fr 16:30", "indoor": "yes", "note": "ON 12/24 AND 12/31, THIS BOX MAY BE COLLECTED AS EARLY AS 12 NOON.", "nsi_id": "unitedstatespostalservice-a77078", "operator": "United States Postal Service", "operator:short": "USPS", "operator:type": "public", "operator:wikidata": "Q668687", "ref": "3608700001"}, "type": "Feature"}
{"geometry": {"coordinates": [-85.712776182, 32.425496385], "type": "Point"}, "id": "RTi77ffo7EcBqC7ba09Avi8I6C4=", "properties": {"@source_uri": "https://tools.usps.com/UspsToolsRestServices/rest/POLocator/findLocations", "@spider": "usps_collection_boxes", "addr:city": "TUSKEGEE INST", "addr:country": "US", "addr:postcode": "36087", "addr:state": "AL", "addr:street_address": "1702 W MONTGOMERY RD", "amenity": "post_box", "brand": "United States Postal Service", "brand:wikidata": "Q668687", "collection_times": "Mo-Fr 16:30", "note": "ON 12/24 AND 12/31, THIS BOX MAY BE COLLECTED AS EARLY AS 12 NOON.", "nsi_id": "unitedstatespostalservice-a77078", "operator": "United States Postal Service", "operator:short": "USPS", "operator:type": "public", "operator:wikidata": "Q668687", "ref": "3608700002"}, "type": "Feature"}
{"geometry": {"coordinates": [-85.712780591, 32.425478538], "type": "Point"}, "id": "HKLNZ2maoq8ilaaQyJKKHSu87gE=", "properties": {"@source_uri": "https://tools.usps.com/UspsToolsRestServices/rest/POLocator/findLocations", "@spider": "usps_collection_boxes", "addr:city": "TUSKEGEE INST", "addr:country": "US", "addr:postcode": "36087", "addr:state": "AL", "addr:street_address": "1702 W MONTGOMERY RD", "amenity": "post_box", "brand": "United States Postal Service", "brand:wikidata": "Q668687", "collection_times": "Mo-Fr 17:00; Sa 12:00", "indoor": "yes", "note": "ON 12/24 AND 12/31, THIS BOX MAY BE COLLECTED AS EARLY AS 12 NOON.", "nsi_id": "unitedstatespostalservice-a77078", "operator": "United States Postal Service", "operator:short": "USPS", "operator:type": "public", "operator:wikidata": "Q668687", "ref": "3608700003"}, "type": "Feature"}
{"geometry": {"coordinates": [-85.715884, 32.144773], "type": "Point"}, "id": "noPop5LVCyCCh20XBAR9HHRfGn4=", "properties": {"@source_uri": "https://tools.usps.com/UspsToolsRestServices/rest/POLocator/findLocations", "@spider": "usps_collection_boxes", "addr:city": "UNION SPRINGS", "addr:country": "US", "addr:postcode": "36089", "addr:state": "AL", "addr:street_address": "108 HARDAWAY AVE E", "amenity": "post_box", "brand": "United States Postal Service", "brand:wikidata": "Q668687", "collection_times": "Mo-Sa 12:30", "note": "ON 12/24 AND 12/31, THIS BOX MAY BE COLLECTED AS EARLY AS 12 NOON.", "nsi_id": "unitedstatespostalservice-a77078", "operator": "United States Postal Service", "operator:short": "USPS", "operator:type": "public", "operator:wikidata": "Q668687", "ref": "3608900001"}, "type": "Feature"}
{"geometry": {"coordinates": [-85.7161543, 32.145393], "type": "Point"}, "id": "-yjh2SmkoFpkDtk9QVq1v45wd7U=", "properties": {"@source_uri": "https://tools.usps.com/UspsToolsRestServices/rest/POLocator/findLocations", "@spider": "usps_collection_boxes", "addr:city": "UNION SPRINGS", "addr:country": "US", "addr:postcode": "36089", "addr:state": "AL", "addr:street_address": "217 PRAIRIE ST N", "amenity": "post_box", "brand": "United States Postal Service", "brand:wikidata": "Q668687", "collection_times": "Mo-Sa 10:30", "nsi_id": "unitedstatespostalservice-a77078", "operator": "United States Postal Service", "operator:short": "USPS", "operator:type": "public", "operator:wikidata": "Q668687", "ref": "3608900003"}, "type": "Feature"}
{"geometry": {"coordinates": [-85.7160121, 32.144333], "type": "Point"}, "id": "HpeRpIignaRtyUiRkEtaEgpt9tU=", "properties": {"@source_uri": "https://tools.usps.com/UspsToolsRestServices/rest/POLocator/findLocations", "@spider": "usps_collection_boxes", "addr:city": "UNION SPRINGS", "addr:country": "US", "addr:postcode": "36089", "addr:state": "AL", "addr:street_address": "132 PRAIRIE ST N", "amenity": "post_box", "brand": "United States Postal Service", "brand:wikidata": "Q668687", "collection_times": "Mo-Sa 11:00", "nsi_id": "unitedstatespostalservice-a77078", "operator": "United States Postal Service", "operator:short": "USPS", "operator:type": "public", "operator:wikidata": "Q668687", "ref": "3608900004"}, "type": "Feature"}
{"geometry": {"coordinates": [-85.7123473, 32.146587], "type": "Point"}, "id": "n3lWfiIYszT3l_4YRMFpm371EuU=", "properties": {"@source_uri": "https://tools.usps.com/UspsToolsRestServices/rest/POLocator/findLocations", "@spider": "usps_collection_boxes", "addr:city": "UNION SPRINGS", "addr:country": "US", "addr:postcode": "36089", "addr:state": "AL", "addr:street_address": "205 CONECUH AVE E", "amenity": "post_box", "brand": "United States Postal Service", "brand:wikidata": "Q668687", "collection_times": "Mo-Sa 11:00", "nsi_id": "unitedstatespostalservice-a77078", "operator": "United States Postal Service", "operator:short": "USPS", "operator:type": "public", "operator:wikidata": "Q668687", "ref": "3608900006"}, "type": "Feature"}
{"geometry": {"coordinates": [-85.715884, 32.144773], "type": "Point"}, "id": "KSErdQ-bK69qDkdshdtQU45KG38=", "properties": {"@source_uri": "https://tools.usps.com/UspsToolsRestServices/rest/POLocator/findLocations", "@spider": "usps_collection_boxes", "addr:city": "UNION SPRINGS", "addr:country": "US", "addr:postcode": "36089", "addr:state": "AL", "addr:street_address": "108 HARDAWAY AVE E", "amenity": "post_box", "brand": "United States Postal Service", "brand:wikidata": "Q668687", "collection_times": "Mo-Sa 12:30", "indoor": "yes", "note": "ON 12/24 AND 12/31, THIS BOX MAY BE COLLECTED AS EARLY AS 12 NOON.", "nsi_id": "unitedstatespostalservice-a77078", "operator": "United States Postal Service", "operator:short": "USPS", "operator:type": "public", "operator:wikidata": "Q668687", "ref": "3608900007"}, "type": "Feature"}
{"geometry": {"coordinates": [-85.715917792, 32.144726239], "type": "Point"}, "id": "1nigCQOswD1UcGYFIzzYYCcu7FM=", "properties": {"@source_uri": "https://tools.usps.com/UspsToolsRestServices/rest/POLocator/findLocations", "@spider": "usps_collection_boxes", "addr:city": "UNION SPRINGS", "addr:country": "US", "addr:postcode": "36089", "addr:state": "AL", "addr:street_address": "108 HARDAWAY AVE E", "amenity": "post_box", "brand": "United States Postal Service", "brand:wikidata": "Q668687", "collection_times": "Mo-Fr 17:00; Sa 12:00", "indoor": "yes", "note": "ON 12/24 AND 12/31, THIS BOX MAY BE COLLECTED AS EARLY AS 12 NOON.", "nsi_id": "unitedstatespostalservice-a77078", "operator": "United States Postal Service", "operator:short": "USPS", "operator:type": "public", "operator:wikidata": "Q668687", "ref": "3608900010"}, "type": "Feature"}
{"geometry": {"coordinates": [-86.508779, 32.752499], "type": "Point"}, "id": "s7tQWTcBFT6W0Hw8MSKgnkMv6_g=", "properties": {"@source_uri": "https://tools.usps.com/UspsToolsRestServices/rest/POLocator/findLocations", "@spider": "usps_collection_boxes", "addr:city": "VERBENA", "addr:country": "US", "addr:postcode": "36091", "addr:state": "AL", "addr:street_address": "3919 US HIGHWAY 31", "amenity": "post_box", "brand": "United States Postal Service", "brand:wikidata": "Q668687", "collection_times": "Mo-Fr 15:30; Sa 10:30", "note": "ON 12/24 AND 12/31, THIS BOX MAY BE COLLECTED AS EARLY AS 12 NOON.", "nsi_id": "unitedstatespostalservice-a77078", "operator": "United States Postal Service", "operator:short": "USPS", "operator:type": "public", "operator:wikidata": "Q668687", "ref": "3609100000"}, "type": "Feature"}
{"geometry": {"coordinates": [-86.508779, 32.752499], "type": "Point"}, "id": "tSndUw6l0xCMNAF7sB53Gvre7NY=", "properties": {"@source_uri": "https://tools.usps.com/UspsToolsRestServices/rest/POLocator/findLocations", "@spider": "usps_collection_boxes", "addr:city": "VERBENA", "addr:country": "US", "addr:postcode": "36091", "addr:state": "AL", "addr:street_address": "3919 US HIGHWAY 31", "amenity": "post_box", "brand": "United States Postal Service", "brand:wikidata": "Q668687", "collection_times": "Mo-Fr 15:30; Sa 10:30", "indoor": "yes", "note": "ON 12/24 AND 12/31, THIS BOX MAY BE COLLECTED AS EARLY AS 12 NOON.", "nsi_id": "unitedstatespostalservice-a77078", "operator": "United States Postal Service", "operator:short": "USPS", "operator:type": "public", "operator:wikidata": "Q668687", "ref": "3609100001"}, "type": "Feature"}
{"geometry": {"coordinates": [-86.508449832, 32.752361881], "type": "Point"}, "id": "2wmwxIvtXeKrnPlx6SQ3ea31DTE=", "properties": {"@source_uri": "https://tools.usps.com/UspsToolsRestServices/rest/POLocator/findLocations", "@spider": "usps_collection_boxes", "addr:city": "VERBENA", "addr:country": "US", "addr:postcode": "36091", "addr:state": "AL", "addr:street_address": "3919 US HIGHWAY 31", "amenity": "post_box", "brand": "United States Postal Service", "brand:wikidata": "Q668687", "collection_times": "Mo-Fr 15:30; Sa 10:30", "indoor": "yes", "note": "ON 12/24 AND 12/31, THIS BOX MAY BE COLLECTED AS EARLY AS 12 NOON.", "nsi_id": "unitedstatespostalservice-a77078", "operator": "United States Postal Service", "operator:short": "USPS", "operator:type": "public", "operator:wikidata": "Q668687", "ref": "3609100003"}, "type": "Feature"}
{"geometry": {"coordinates": [-86.2062113, 32.536577], "type": "Point"}, "id": "jRuVPyqeyREU-mhcxHPxdNp-Ey0=", "properties": {"@source_uri": "https://tools.usps.com/UspsToolsRestServices/rest/POLocator/findLocations", "@spider": "usps_collection_boxes", "addr:city": "WETUMPKA", "addr:country": "US", "addr:postcode": "36092", "addr:state": "AL", "addr:street_address": "206 E MAIN ST", "amenity": "post_box", "brand": "United States Postal Service", "brand:wikidata": "Q668687", "collection_times": "Mo-Sa 15:00", "note": "ON 12/24 AND 12/31, THIS BOX MAY BE COLLECTED AS EARLY AS 12 NOON.", "nsi_id": "unitedstatespostalservice-a77078", "operator": "United States Postal Service", "operator:short": "USPS", "operator:type": "public", "operator:wikidata": "Q668687", "ref": "3609200000"}, "type": "Feature"}
{"geometry": {"coordinates": [-86.216512, 32.51252], "type": "Point"}, "id": "NtuiRexXl86ByxJ8QxkikXGTzkM=", "properties": {"@source_uri": "https://tools.usps.com/UspsToolsRestServices/rest/POLocator/findLocations", "@spider": "usps_collection_boxes", "addr:city": "WETUMPKA", "addr:country": "US", "addr:postcode": "36092", "addr:state": "AL", "addr:street_address": "216 W FORT TOULOUSE RD", "amenity": "post_box", "brand": "United States Postal Service", "brand:wikidata": "Q668687", "collection_times": "Mo-Fr 16:15; Sa 11:00", "indoor": "yes", "note": "ON 12/24 AND 12/31, THIS BOX MAY BE COLLECTED AS EARLY AS 12 NOON.", "nsi_id": "unitedstatespostalservice-a77078", "operator": "United States Postal Service", "operator:short": "USPS", "operator:type": "public", "operator:wikidata": "Q668687", "ref": "3609200013"}, "type": "Feature"}
{"geometry": {"coordinates": [-86.210507, 32.512594], "type": "Point"}, "id": "kwkLA0Vq3MpGx7c28b0RB5xBATc=", "properties": {"@source_uri": "https://tools.usps.com/UspsToolsRestServices/rest/POLocator/findLocations", "@spider": "usps_collection_boxes", "addr:city": "WETUMPKA", "addr:country": "US", "addr:postcode": "36092", "addr:state": "AL", "addr:street_address": "216 W FORT TOULOUSE RD", "amenity": "post_box", "brand": "United States Postal Service", "brand:wikidata": "Q668687", "collection_times": "Mo-Fr 16:15; Sa 11:00", "indoor": "yes", "note": "ON 12/24 AND 12/31, THIS BOX MAY BE COLLECTED AS EARLY AS 12 NOON.", "nsi_id": "unitedstatespostalservice-a77078", "operator": "United States Postal Service", "operator:short": "USPS", "operator:type": "public", "operator:wikidata": "Q668687", "ref": "3609200014"}, "type": "Feature"}
{"geometry": {"coordinates": [-86.210507, 32.512594], "type": "Point"}, "id": "3QKDXwPEkZwFoTay7seoerxRka0=", "properties": {"@source_uri": "https://tools.usps.com/UspsToolsRestServices/rest/POLocator/findLocations", "@spider": "usps_collection_boxes", "addr:city": "WETUMPKA", "addr:country": "US", "addr:postcode": "36092", "addr:state": "AL", "addr:street_address": "216 W FORT TOULOUSE RD", "amenity": "post_box", "brand": "United States Postal Service", "brand:wikidata": "Q668687", "collection_times": "Mo-Fr 16:15; Sa 11:00", "indoor": "yes", "note": "ON 12/24 AND 12/31, THIS BOX MAY BE COLLECTED AS EARLY AS 12 NOON.", "nsi_id": "unitedstatespostalservice-a77078", "operator": "United States Postal Service", "operator:short": "USPS", "operator:type": "public", "operator:wikidata": "Q668687", "ref": "3609200015"}, "type": "Feature"}
{"geometry": {"coordinates": [-86.210507, 32.512594], "type": "Point"}, "id": "P5O9iWYcZiV2rc0sbDN32IYjCZ0=", "properties": {"@source_uri": "https://tools.usps.com/UspsToolsRestServices/rest/POLocator/findLocations", "@spider": "usps_collection_boxes", "addr:city": "WETUMPKA", "addr:country": "US", "addr:postcode": "36092", "addr:state": "AL", "addr:street_address": "216 W FORT TOULOUSE RD", "amenity": "post_box", "brand": "United States Postal Service", "brand:wikidata": "Q668687", "collection_times": "Mo-Fr 16:15; Sa 11:00", "indoor": "yes", "note": "ON 12/24 AND 12/31, THIS BOX MAY BE COLLECTED AS EARLY AS 12 NOON.", "nsi_id": "unitedstatespostalservice-a77078", "operator": "United States Postal Service", "operator:short": "USPS", "operator:type": "public", "operator:wikidata": "Q668687", "ref": "3609200016"}, "type": "Feature"}
{"geometry": {"coordinates": [-86.226659529, 32.518371196], "type": "Point"}, "id": "YO3dUpqsZOhuwbHj4FgpAHSwjlc=", "properties": {"@source_uri": "https://tools.usps.com/UspsToolsRestServices/rest/POLocator/findLocations", "@spider": "usps_collection_boxes", "addr:city": "WETUMPKA", "addr:country": "US", "addr:postcode": "36092", "addr:state": "AL", "addr:street_address": "216 W FORT TOULOUSE RD", "amenity": "post_box", "brand": "United States Postal Service", "brand:wikidata": "Q668687", "collection_times": "Mo-Fr 16:30; Sa 11:00", "indoor": "yes", "note": "ON 12/24 AND 12/31, THIS BOX MAY BE COLLECTED AS EARLY AS 12 NOON.", "nsi_id": "unitedstatespostalservice-a77078", "operator": "United States Postal Service", "operator:short": "USPS", "operator:type": "public", "operator:wikidata": "Q668687", "ref": "3609200021"}, "type": "Feature"}
{"geometry": {"coordinates": [-86.216511, 32.512521], "type": "Point"}, "id": "-klEzqBtAiyhxMxETh0haLA0KAs=", "properties": {"@source_uri": "https://tools.usps.com/UspsToolsRestServices/rest/POLocator/findLocations", "@spider": "usps_collection_boxes", "addr:city": "WETUMPKA", "addr:country": "US", "addr:postcode": "36093", "addr:state": "AL", "addr:street_address": "216 W FORT TOULOUSE RD", "amenity": "post_box", "brand": "United States Postal Service", "brand:wikidata": "Q668687", "collection_times": "Mo-Fr 16:15; Sa 11:00", "note": "ON 12/24 AND 12/31, THIS BOX MAY BE COLLECTED AS EARLY AS 12 NOON.", "nsi_id": "unitedstatespostalservice-a77078", "operator": "United States Postal Service", "operator:short": "USPS", "operator:type": "public", "operator:wikidata": "Q668687", "ref": "3609300000"}, "type": "Feature"}
{"geometry": {"coordinates": [-86.216511, 32.512521], "type": "Point"}, "id": "dAO_KRqNTJwLWTJVeyolqLOp59w=", "properties": {"@source_uri": "https://tools.usps.com/UspsToolsRestServices/rest/POLocator/findLocations", "@spider": "usps_collection_boxes", "addr:city": "WETUMPKA", "addr:country": "US", "addr:postcode": "36093", "addr:state": "AL", "addr:street_address": "216 W FORT TOULOUSE RD", "amenity": "post_box", "brand": "United States Postal Service", "brand:wikidata": "Q668687", "collection_times": "Mo-Fr 16:15; Sa 11:00", "note": "ON 12/24 AND 12/31, THIS BOX MAY BE COLLECTED AS EARLY AS 12 NOON.", "nsi_id": "unitedstatespostalservice-a77078", "operator": "United States Postal Service", "operator:short": "USPS", "operator:type": "public", "operator:wikidata": "Q668687", "ref": "3609300002"}, "type": "Feature"}
{"geometry": {"coordinates": [-86.216511, 32.512521], "type": "Point"}, "id": "VZtWnFmuVF2-tMO6LGJkvbTrzos=", "properties": {"@source_uri": "https://tools.usps.com/UspsToolsRestServices/rest/POLocator/findLocations", "@spider": "usps_collection_boxes", "addr:city": "WETUMPKA", "addr:country": "US", "addr:postcode": "36093", "addr:state": "AL", "addr:street_address": "216 W FORT TOULOUSE RD", "amenity": "post_box", "brand": "United States Postal Service", "brand:wikidata": "Q668687", "collection_times": "Mo-Fr 16:15; Sa 11:00", "note": "ON 12/24 AND 12/31, THIS BOX MAY BE COLLECTED AS EARLY AS 12 NOON.", "nsi_id": "unitedstatespostalservice-a77078", "operator": "United States Postal Service", "operator:short": "USPS", "operator:type": "public", "operator:wikidata": "Q668687", "ref": "3609300006"}, "type": "Feature"}
