{"geometry": {"coordinates": [-86.3120154, 32.374889], "type": "Point"}, "id": "C2nsc0yTZZJrlleoygzfG1-lWY0=", "properties": {"@source_uri": "https://tools.usps.com/UspsToolsRestServices/rest/POLocator/findLocations", "@spider": "usps_collection_boxes", "addr:city": "MONTGOMERY", "addr:country": "US", "addr:full": "135 CATOMA ST", "addr:postcode": "36104", "addr:state": "AL", "amenity": "post_box", "brand": "United States Postal Service", "brand:wikidata": "Q668687", "collection_times": "Mo-Fr 17:00; Sa 11:30", "note": "ON 12/24 AND 12/31, THIS BOX MAY BE COLLECTED AS EARLY AS 12 NOON.", "nsi_id": "unitedstatespostalservice-a77078", "operator": "United States Postal Service", "operator:short": "USPS", "operator:type": "public", "operator:wikidata": "Q668687", "ref": "3610400001"}, "type": "Feature"}
{"geometry": {"coordinates": [-86.3120146, 32.374884], "type": "Point"}, "id": "5fHzlE5x78z1U_R41Z5mY6fa1aE=", "properties": {"@source_uri": "https://tools.usps.com/UspsToolsRestServices/rest/POLocator/findLocations", "@spider": "usps_collection_boxes", "addr:city": "MONTGOMERY", "addr:country": "US", "addr:full": "135 CATOMA ST", "addr:postcode": "36104", "addr:state": "AL", "amenity": "post_box", "brand": "United States Postal Service", "brand:wikidata": "Q668687", "collection_times": "Mo-Fr 17:00; Sa 11:30", "note": "ON 12/24 AND 12/31, THIS BOX MAY BE COLLECTED AS EARLY AS 12 NOON.", "nsi_id": "unitedstatespostalservice-a77078", "operator": "United States Postal Service", "operator:short": "USPS", "operator:type": "public", "operator:wikidata": "Q668687", "ref": "3610400002"}, "type": "Feature"}
{"geometry": {"coordinates": [-86.3116953, 32.374531], "type": "Point"}, "id": "fYqSjZi7EEb-OJbzAt7FEwu_VLg=", "properties": {"@source_uri": "https://tools.usps.com/UspsToolsRestServices/rest/POLocator/findLocations", "@spider": "usps_collection_boxes", "addr:city": "MONTGOMERY", "addr:country": "US", "addr:full": "135 CATOMA ST", "addr:postcode": "36104", "addr:state": "AL", "amenity": "post_box", "brand": "United States Postal Service", "brand:wikidata": "Q668687", "collection_times": "Mo-Fr 17:00; Sa 11:30", "note": "ON 12/24 AND 12/31, THIS BOX MAY BE COLLECTED AS EARLY AS 12 NOON.", "nsi_id": "unitedstatespostalservice-a77078", "operator": "United States Postal Service", "operator:short": "USPS", "operator:type": "public", "operator:wikidata": "Q668687", "ref": "3610400006"}, "type": "Feature"}
{"geometry": {"coordinates": [-86.3116844, 32.374533], "type": "Point"}, "id": "jFjcqKNcJlTLqwS1SuJPj2Mlvw8=", "properties": {"@source_uri": "https://tools.usps.com/UspsToolsRestServices/rest/POLocator/findLocations", "@spider": "usps_collection_boxes", "addr:city": "MONTGOMERY", "addr:country": "US", "addr:full": "135 CATOMA ST", "addr:postcode": "36104", "addr:state": "AL", "amenity": "post_box", "brand": "United States Postal Service", "brand:wikidata": "Q668687", "collection_times": "Mo-Fr 17:00; Sa 11:15", "note": "ON 12/24 AND 12/31, THIS BOX MAY BE COLLECTED AS EARLY AS 12 NOON.", "nsi_id": "unitedstatespostalservice-a77078", "operator": "United States Postal Service", "operator:short": "USPS", "operator:type": "public", "operator:wikidata": "Q668687", "ref": "3610400007"}, "type": "Feature"}
{"geometry": {"coordinates": [-86.3116811, 32.374523], "type": "Point"}, "id": "RRL2NRkuw8cxgCOx85XNdmDHoRY=", "properties": {"@source_uri": "https://tools.usps.com/UspsToolsRestServices/rest/POLocator/findLocations", "@spider": "usps_collection_boxes", "addr:city": "MONTGOMERY", "addr:country": "US", "addr:full": "135 CATOMA ST", "addr:postcode": "36104", "addr:state": "AL", "amenity": "post_box", "brand": "United States Postal Service", "brand:wikidata": "Q668687", "collection_times": "Mo-Fr 17:00; Sa 11:30", "note": "ON 12/24 AND 12/31, THIS BOX MAY BE COLLECTED AS EARLY AS 12 NOON.", "nsi_id": "unitedstatespostalservice-a77078", "operator": "United States Postal Service", "operator:short": "USPS", "operator:type": "public", "operator:wikidata": "Q668687", "ref": "3610400008"}, "type": "Feature"}
{"geometry": {"coordinates": [-86.305661, 32.378788], "type": "Point"}, "id": "CwLXuXnBuaBO8B8AhhntSaLejp0=", "properties": {"@source_uri": "https://tools.usps.com/UspsToolsRestServices/rest/POLocator/findLocations", "@spider": "usps_collection_boxes", "addr:city": "MONTGOMERY", "addr:country": "US", "addr:full": "201 MONROE ST", "addr:postcode": "36104", "addr:state": "AL", "amenity": "post_box", "brand": "United States Postal Service", "brand:wikidata": "Q668687", "collection_times": "Mo-Fr 16:45", "note": "ON 12/24 AND 12/31, THIS BOX MAY BE COLLECTED AS EARLY AS 12 NOON.", "nsi_id": "unitedstatespostalservice-a77078", "operator": "United States Postal Service", "operator:short": "USPS", "operator:type": "public", "operator:wikidata": "Q668687", "ref": "3610400012"}, "type": "Feature"}
{"geometry": {"coordinates": [-86.2994317, 32.375138], "type": "Point"}, "id": "aQ3Z1nSPoGnH3ZOSchmExtXr63M=", "properties": {"@source_uri": "https://tools.usps.com/UspsToolsRestServices/rest/POLocator/findLocations", "@spider": "usps_collection_boxes", "addr:city": "MONTGOMERY", "addr:country": "US", "addr:full": "660 ADAMS AVE", "addr:postcode": "36104", "addr:state": "AL", "amenity": "post_box", "brand": "United States Postal Service", "brand:wikidata": "Q668687", "collection_times": "Mo-Fr 13:30", "note": "ON 12/24 AND 12/31, THIS BOX MAY BE COLLECTED AS EARLY AS 12 NOON.", "nsi_id": "unitedstatespostalservice-a77078", "operator": "United States Postal Service", "operator:short": "USPS", "operator:type": "public", "operator:wikidata": "Q668687", "ref": "3610400013"}, "type": "Feature"}
{"geometry": {"coordinates": [-86.3012556, 32.375288], "type": "Point"}, "id": "lrmiTnFWHWJe4DPOLGQK12HpUDs=", "properties": {"@source_uri": "https://tools.usps.com/UspsToolsRestServices/rest/POLocator/findLocations", "@spider": "usps_collection_boxes", "addr:city": "MONTGOMERY", "addr:country": "US", "addr:full": "534 ADAMS AVE", "addr:postcode": "36104", "addr:state": "AL", "amenity": "post_box", "brand": "United States Postal Service", "brand:wikidata": "Q668687", "collection_times": "Mo-Fr 10:30", "nsi_id": "unitedstatespostalservice-a77078", "operator": "United States Postal Service", "operator:short": "USPS", "operator:type": "public", "operator:wikidata": "Q668687", "ref": "3610400014"}, "type": "Feature"}
{"geometry": {"coordinates": [-86.3036882, 32.375138], "type": "Point"}, "id": "59yK3zqF9j0aVA2Hux4ExLbQIlU=", "properties": {"@source_uri": "https://tools.usps.com/UspsToolsRestServices/rest/POLocator/findLocations", "@spider": "usps_collection_boxes", "addr:city": "MONTGOMERY", "addr:country": "US", "addr:full": "200 HULL ST", "addr:postcode": "36104", "addr:state": "AL", "amenity": "post_box", "brand": "United States Postal Service", "brand:wikidata": "Q668687", "collection_times": "Mo-Fr 10:30", "nsi_id": "unitedstatespostalservice-a77078", "operator": "United States Postal Service", "operator:short": "USPS", "operator:type": "public", "operator:wikidata": "Q668687", "ref": "3610400019"}, "type": "Feature"}
{"geometry": {"coordinates": [-86.3062052, 32.375067], "type": "Point"}, "id": "uVR00G1d9ez_FGRql4djEn906WQ=", "properties": {"@source_uri": "https://tools.usps.com/UspsToolsRestServices/rest/POLocator/findLocations", "@spider": "usps_collection_boxes", "addr:city": "MONTGOMERY", "addr:country": "US", "addr:full": "200 S LAWRENCE ST", "addr:postcode": "36104", "addr:state": "AL", "amenity": "post_box", "brand": "United States Postal Service", "brand:wikidata": "Q668687", "collection_times": "Mo-Fr 10:00", "nsi_id": "unitedstatespostalservice-a77078", "operator": "United States Postal Service", "operator:short": "USPS", "operator:type": "public", "operator:wikidata": "Q668687", "ref": "3610400021"}, "type": "Feature"}
{"geometry": {"coordinates": [-86.3089014, 32.377217], "type": "Point"}, "id": "yI6t-bK93FIJ35J0LFkjHeSiRqo=", "properties": {"@source_uri": "https://tools.usps.com/UspsToolsRestServices/rest/POLocator/findLocations", "@spider": "usps_collection_boxes", "addr:city": "MONTGOMERY", "addr:country": "US", "addr:full": "2 DEXTER AVE", "addr:postcode": "36104", "addr:state": "AL", "amenity": "post_box", "brand": "United States Postal Service", "brand:wikidata": "Q668687", "collection_times": "Mo-Fr 11:00", "nsi_id": "unitedstatespostalservice-a77078", "operator": "United States Postal Service", "operator:short": "USPS", "operator:type": "public", "operator:wikidata": "Q668687", "ref": "3610400052"}, "type": "Feature"}
{"geometry": {"coordinates": [-86.3087599, 32.364517], "type": "Point"}, "id": "T116YwJLvm3TtIHnMjvhvyz5Hwk=", "properties": {"@source_uri": "https://tools.usps.com/UspsToolsRestServices/rest/POLocator/findLocations", "@spider": "usps_collection_boxes", "addr:city": "MONTGOMERY", "addr:country": "US", "addr:full": "880 S COURT ST", "addr:postcode": "36104", "addr:state": "AL", "amenity": "post_box", "brand": "United States Postal Service", "brand:wikidata": "Q668687", "collection_times": "Mo-Fr 08:00", "nsi_id": "unitedstatespostalservice-a77078", "operator": "United States Postal Service", "operator:short": "USPS", "operator:type": "public", "operator:wikidata": "Q668687", "ref": "3610400054"}, "type": "Feature"}
{"geometry": {"coordinates": [-86.3023839, 32.377778], "type": "Point"}, "id": "j60xfk_VLP6xttdrNdIakYCBOw0=", "properties": {"@source_uri": "https://tools.usps.com/UspsToolsRestServices/rest/POLocator/findLocations", "@spider": "usps_collection_boxes", "addr:city": "MONTGOMERY", "addr:country": "US", "addr:full": "501 DEXTER AVE", "addr:postcode": "36104", "addr:state": "AL", "amenity": "post_box", "brand": "United States Postal Service", "brand:wikidata": "Q668687", "collection_times": "Mo-Fr 14:45", "note": "ON 12/24 AND 12/31, THIS BOX MAY BE COLLECTED AS EARLY AS 12 NOON.", "nsi_id": "unitedstatespostalservice-a77078", "operator": "United States Postal Service", "operator:short": "USPS", "operator:type": "public", "operator:wikidata": "Q668687", "ref": "3610400058"}, "type": "Feature"}
{"geometry": {"coordinates": [-86.3023021, 32.376369], "type": "Point"}, "id": "j13NaSumhMGUDcHJNPVWUPW7tZM=", "properties": {"@source_uri": "https://tools.usps.com/UspsToolsRestServices/rest/POLocator/findLocations", "@spider": "usps_collection_boxes", "addr:city": "MONTGOMERY", "addr:country": "US", "addr:full": "502 WASHINGTON AVE", "addr:postcode": "36104", "addr:state": "AL", "amenity": "post_box", "brand": "United States Postal Service", "brand:wikidata": "Q668687", "collection_times": "Mo-Fr 13:30", "note": "ON 12/24 AND 12/31, THIS BOX MAY BE COLLECTED AS EARLY AS 12 NOON.", "nsi_id": "unitedstatespostalservice-a77078", "operator": "United States Postal Service", "operator:short": "USPS", "operator:type": "public", "operator:wikidata": "Q668687", "ref": "3610400060"}, "type": "Feature"}
{"geometry": {"coordinates": [-86.3021857, 32.373747], "type": "Point"}, "id": "n-k6C08q8v1yPZ9U92hxrQr7V_k=", "properties": {"@source_uri": "https://tools.usps.com/UspsToolsRestServices/rest/POLocator/findLocations", "@spider": "usps_collection_boxes", "addr:city": "MONTGOMERY", "addr:country": "US", "addr:full": "307 S DECATUR ST", "addr:postcode": "36104", "addr:state": "AL", "amenity": "post_box", "brand": "United States Postal Service", "brand:wikidata": "Q668687", "collection_times": "Mo-Fr 10:45", "nsi_id": "unitedstatespostalservice-a77078", "operator": "United States Postal Service", "operator:short": "USPS", "operator:type": "public", "operator:wikidata": "Q668687", "ref": "3610400063"}, "type": "Feature"}
{"geometry": {"coordinates": [-86.3036106, 32.377742], "type": "Point"}, "id": "oJrHgwl8KJtSsxZAQkeYoWSlPdE=", "properties": {"@source_uri": "https://tools.usps.com/UspsToolsRestServices/rest/POLocator/findLocations", "@spider": "usps_collection_boxes", "addr:city": "MONTGOMERY", "addr:country": "US", "addr:full": "415 DEXTER AVE", "addr:postcode": "36104", "addr:state": "AL", "amenity": "post_box", "brand": "United States Postal Service", "brand:wikidata": "Q668687", "collection_times": "Mo-Fr 14:45", "note": "ON 12/24 AND 12/31, THIS BOX MAY BE COLLECTED AS EARLY AS 12 NOON.", "nsi_id": "unitedstatespostalservice-a77078", "operator": "United States Postal Service", "operator:short": "USPS", "operator:type": "public", "operator:wikidata": "Q668687", "ref": "3610400065"}, "type": "Feature"}
{"geometry": {"coordinates": [-86.3062978, 32.377242], "type": "Point"}, "id": "PaDuUZIyiM-nNm5zOedgUk834RA=", "properties": {"@source_uri": "https://tools.usps.com/UspsToolsRestServices/rest/POLocator/findLocations", "@spider": "usps_collection_boxes", "addr:city": "MONTGOMERY", "addr:country": "US", "addr:full": "200 DEXTER AVE", "addr:postcode": "36104", "addr:state": "AL", "amenity": "post_box", "brand": "United States Postal Service", "brand:wikidata": "Q668687", "collection_times": "Mo-Fr 14:45", "note": "ON 12/24 AND 12/31, THIS BOX MAY BE COLLECTED AS EARLY AS 12 NOON.", "nsi_id": "unitedstatespostalservice-a77078", "operator": "United States Postal Service", "operator:short": "USPS", "operator:type": "public", "operator:wikidata": "Q668687", "ref": "3610400066"}, "type": "Feature"}
{"geometry": {"coordinates": [-86.30685, 32.377425], "type": "Point"}, "id": "suKOC6nIrEwGRoiO3rBbc0yuo6M=", "properties": {"@source_uri": "https://tools.usps.com/UspsToolsRestServices/rest/POLocator/findLocations", "@spider": "usps_collection_boxes", "addr:city": "MONTGOMERY", "addr:country": "US", "addr:full": "8 COMMERCE ST", "addr:postcode": "36104", "addr:state": "AL", "amenity": "post_box", "brand": "United States Postal Service", "brand:wikidata": "Q668687", "collection_times": "Mo-Fr 16:00", "note": "ON 12/24 AND 12/31, THIS BOX MAY BE COLLECTED AS EARLY AS 12 NOON.", "nsi_id": "unitedstatespostalservice-a77078", "operator": "United States Postal Service", "operator:short": "USPS", "operator:type": "public", "operator:wikidata": "Q668687", "ref": "3610400072"}, "type": "Feature"}
{"geometry": {"coordinates": [-86.3048371, 32.370067], "type": "Point"}, "id": "lz0CdSbZUrPfaNcKdROJeIcVdzg=", "properties": {"@source_uri": "https://tools.usps.com/UspsToolsRestServices/rest/POLocator/findLocations", "@spider": "usps_collection_boxes", "addr:city": "MONTGOMERY", "addr:country": "US", "addr:full": "600 S MCDONOUGH ST", "addr:postcode": "36104", "addr:state": "AL", "amenity": "post_box", "brand": "United States Postal Service", "brand:wikidata": "Q668687", "collection_times": "Mo-Fr 11:30", "nsi_id": "unitedstatespostalservice-a77078", "operator": "United States Postal Service", "operator:short": "USPS", "operator:type": "public", "operator:wikidata": "Q668687", "ref": "3610400078"}, "type": "Feature"}
{"geometry": {"coordinates": [-86.3069846, 32.370022], "type": "Point"}, "id": "LnXcxw-3IwzsWV0ce-MqF02R9bQ=", "properties": {"@source_uri": "https://tools.usps.com/UspsToolsRestServices/rest/POLocator/findLocations", "@spider": "usps_collection_boxes", "addr:city": "MONTGOMERY", "addr:country": "US", "addr:full": "605 S PERRY ST", "addr:postcode": "36104", "addr:state": "AL", "amenity": "post_box", "brand": "United States Postal Service", "brand:wikidata": "Q668687", "collection_times": "Mo-Fr 15:00", "note": "ON 12/24 AND 12/31, THIS BOX MAY BE COLLECTED AS EARLY AS 12 NOON.", "nsi_id": "unitedstatespostalservice-a77078", "operator": "United States Postal Service", "operator:short": "USPS", "operator:type": "public", "operator:wikidata": "Q668687", "ref": "3610400080"}, "type": "Feature"}
{"geometry": {"coordinates": [-86.3191284, 32.376388], "type": "Point"}, "id": "E0e00V8NsYTFO0ktyUZ0aSJ1k48=", "properties": {"@source_uri": "https://tools.usps.com/UspsToolsRestServices/rest/POLocator/findLocations", "@spider": "usps_collection_boxes", "addr:city": "MONTGOMERY", "addr:country": "US", "addr:full": "225 HANRICK ST", "addr:postcode": "36104", "addr:state": "AL", "amenity": "post_box", "brand": "United States Postal Service", "brand:wikidata": "Q668687", "collection_times": "Mo-Fr 10:00", "nsi_id": "unitedstatespostalservice-a77078", "operator": "United States Postal Service", "operator:short": "USPS", "operator:type": "public", "operator:wikidata": "Q668687", "ref": "3610400087"}, "type": "Feature"}
{"geometry": {"coordinates": [-86.2965664, 32.379109], "type": "Point"}, "id": "qBh2ZM3QuRcY35ig66S_dWdT-sQ=", "properties": {"@source_uri": "https://tools.usps.com/UspsToolsRestServices/rest/POLocator/findLocations", "@spider": "usps_collection_boxes", "addr:city": "MONTGOMERY", "addr:country": "US", "addr:full": "120 N JACKSON ST", "addr:postcode": "36104", "addr:state": "AL", "amenity": "post_box", "brand": "United States Postal Service", "brand:wikidata": "Q668687", "collection_times": "Mo-Fr 14:30", "note": "ON 12/24 AND 12/31, THIS BOX MAY BE COLLECTED AS EARLY AS 12 NOON.", "nsi_id": "unitedstatespostalservice-a77078", "operator": "United States Postal Service", "operator:short": "USPS", "operator:type": "public", "operator:wikidata": "Q668687", "ref": "3610400094"}, "type": "Feature"}
{"geometry": {"coordinates": [-86.3057158, 32.366403], "type": "Point"}, "id": "lZ_YFZpfIJP3Es6gCD2PmJ76ldI=", "properties": {"@source_uri": "https://tools.usps.com/UspsToolsRestServices/rest/POLocator/findLocations", "@spider": "usps_collection_boxes", "addr:city": "MONTGOMERY", "addr:country": "US", "addr:full": "808 S LAWRENCE ST", "addr:postcode": "36104", "addr:state": "AL", "amenity": "post_box", "brand": "United States Postal Service", "brand:wikidata": "Q668687", "collection_times": "Mo-Fr 13:30", "note": "ON 12/24 AND 12/31, THIS BOX MAY BE COLLECTED AS EARLY AS 12 NOON.", "nsi_id": "unitedstatespostalservice-a77078", "operator": "United States Postal Service", "operator:short": "USPS", "operator:type": "public", "operator:wikidata": "Q668687", "ref": "3610400097"}, "type": "Feature"}
{"geometry": {"coordinates": [-86.3046605, 32.366665], "type": "Point"}, "id": "L2bp-If-K0bGxIt1Nab5AcuSjSc=", "properties": {"@source_uri": "https://tools.usps.com/UspsToolsRestServices/rest/POLocator/findLocations", "@spider": "usps_collection_boxes", "addr:city": "MONTGOMERY", "addr:country": "US", "addr:full": "770 S MCDONOUGH ST", "addr:postcode": "36104", "addr:state": "AL", "amenity": "post_box", "brand": "United States Postal Service", "brand:wikidata": "Q668687", "collection_times": "Mo-Fr 13:30", "note": "ON 12/24 AND 12/31, THIS BOX MAY BE COLLECTED AS EARLY AS 12 NOON.", "nsi_id": "unitedstatespostalservice-a77078", "operator": "United States Postal Service", "operator:short": "USPS", "operator:type": "public", "operator:wikidata": "Q668687", "ref": "3610400098"}, "type": "Feature"}
{"geometry": {"coordinates": [-86.3068853, 32.365325], "type": "Point"}, "id": "tg_UZVKLPhntoNKTaoRN8ujGghw=", "properties": {"@source_uri": "https://tools.usps.com/UspsToolsRestServices/rest/POLocator/findLocations", "@spider": "usps_collection_boxes", "addr:city": "MONTGOMERY", "addr:country": "US", "addr:full": "847 S PERRY ST", "addr:postcode": "36104", "addr:state": "AL", "amenity": "post_box", "brand": "United States Postal Service", "brand:wikidata": "Q668687", "collection_times": "Mo-Fr 09:00", "nsi_id": "unitedstatespostalservice-a77078", "operator": "United States Postal Service", "operator:short": "USPS", "operator:type": "public", "operator:wikidata": "Q668687", "ref": "3610400101"}, "type": "Feature"}
{"geometry": {"coordinates": [-86.299871, 32.379094], "type": "Point"}, "id": "EcVkitNnuSH3wHKgGhYrwukSqsE=", "properties": {"@source_uri": "https://tools.usps.com/UspsToolsRestServices/rest/POLocator/findLocations", "@spider": "usps_collection_boxes", "addr:city": "MONTGOMERY", "addr:country": "US", "addr:full": "649 MONROE ST", "addr:postcode": "36104", "addr:state": "AL", "amenity": "post_box", "brand": "United States Postal Service", "brand:wikidata": "Q668687", "collection_times": "Mo-Fr 11:30", "nsi_id": "unitedstatespostalservice-a77078", "operator": "United States Postal Service", "operator:short": "USPS", "operator:type": "public", "operator:wikidata": "Q668687", "ref": "3610400110"}, "type": "Feature"}
{"geometry": {"coordinates": [-86.305661, 32.378788], "type": "Point"}, "id": "y7Y-tEtE7kfOMPvHkA0GUhYjXO0=", "properties": {"@source_uri": "https://tools.usps.com/UspsToolsRestServices/rest/POLocator/findLocations", "@spider": "usps_collection_boxes", "addr:city": "MONTGOMERY", "addr:country": "US", "addr:full": "201 MONROE ST", "addr:postcode": "36104", "addr:state": "AL", "amenity": "post_box", "brand": "United States Postal Service", "brand:wikidata": "Q668687", "collection_times": "Mo-Fr 16:45", "note": "ON 12/24 AND 12/31, THIS BOX MAY BE COLLECTED AS EARLY AS 12 NOON.", "nsi_id": "unitedstatespostalservice-a77078", "operator": "United States Postal Service", "operator:short": "USPS", "operator:type": "public", "operator:wikidata": "Q668687", "ref": "3610400130"}, "type": "Feature"}
{"geometry": {"coordinates": [-86.311694, 32.374617], "type": "Point"}, "id": "LXZyf1dFtVLOgbM1EqfiYXezGIY=", "properties": {"@source_uri": "https://tools.usps.com/UspsToolsRestServices/rest/POLocator/findLocations", "@spider": "usps_collection_boxes", "addr:city": "MONTGOMERY", "addr:country": "US", "addr:full": "135 CATOMA ST", "addr:postcode": "36104", "addr:state": "AL", "amenity": "post_box", "brand": "United States Postal Service", "brand:wikidata": "Q668687", "collection_times": "Mo-Fr 17:00; Sa 12:00", "indoor": "yes", "note": "ON 12/24 AND 12/31, THIS BOX MAY BE COLLECTED AS EARLY AS 12 NOON.", "nsi_id": "unitedstatespostalservice-a77078", "operator": "United States Postal Service", "operator:short": "USPS", "operator:type": "public", "operator:wikidata": "Q668687", "ref": "3610400132"}, "type": "Feature"}
{"geometry": {"coordinates": [-86.305661, 32.378788], "type": "Point"}, "id": "4X-RLNNkNzYaQC8cMsPdZIg4_Aw=", "properties": {"@source_uri": "https://tools.usps.com/UspsToolsRestServices/rest/POLocator/findLocations", "@spider": "usps_collection_boxes", "addr:city": "MONTGOMERY", "addr:country": "US", "addr:full": "201 MONROE ST", "addr:postcode": "36104", "addr:state": "AL", "amenity": "post_box", "brand": "United States Postal Service", "brand:wikidata": "Q668687", "collection_times": "Mo-Fr 16:45", "note": "ON 12/24 AND 12/31, THIS BOX MAY BE COLLECTED AS EARLY AS 12 NOON.", "nsi_id": "unitedstatespostalservice-a77078", "operator": "United States Postal Service", "operator:short": "USPS", "operator:type": "public", "operator:wikidata": "Q668687", "ref": "3610400133"}, "type": "Feature"}
{"geometry": {"coordinates": [-86.305661, 32.378788], "type": "Point"}, "id": "H3DoTZsx8e7sKC2bIIGJ1ffUqno=", "properties": {"@source_uri": "https://tools.usps.com/UspsToolsRestServices/rest/POLocator/findLocations", "@spider": "usps_collection_boxes", "addr:city": "MONTGOMERY", "addr:country": "US", "addr:full": "201 MONROE ST", "addr:postcode": "36104", "addr:state": "AL", "amenity": "post_box", "brand": "United States Postal Service", "brand:wikidata": "Q668687", "collection_times": "Mo-Fr 16:45", "note": "ON 12/24 AND 12/31, THIS BOX MAY BE COLLECTED AS EARLY AS 12 NOON.", "nsi_id": "unitedstatespostalservice-a77078", "operator": "United States Postal Service", "operator:short": "USPS", "operator:type": "public", "operator:wikidata": "Q668687", "ref": "3610400134"}, "type": "Feature"}
{"geometry": {"coordinates": [-86.312044919, 32.374967241], "type": "Point"}, "id": "fo9h7oEAodRGzKIU6-LEUJJ8hCw=", "properties": {"@source_uri": "https://tools.usps.com/UspsToolsRestServices/rest/POLocator/findLocations", "@spider": "usps_collection_boxes", "addr:city": "MONTGOMERY", "addr:country": "US", "addr:full": "135 CATOMA ST", "addr:postcode": "36104", "addr:state": "AL", "amenity": "post_box", "brand": "United States Postal Service", "brand:wikidata": "Q668687", "collection_times": "Mo-Fr 17:00", "indoor": "yes", "note": "ON 12/24 AND 12/31, THIS BOX MAY BE COLLECTED AS EARLY AS 12 NOON.", "nsi_id": "unitedstatespostalservice-a77078", "operator": "United States Postal Service", "operator:short": "USPS", "operator:type": "public", "operator:wikidata": "Q668687", "ref": "3610400135"}, "type": "Feature"}
{"geometry": {"coordinates": [-86.31252, 32.333235], "type": "Point"}, "id": "yCsmWksVobLvUPuiJ5bgDVgpc3M=", "properties": {"@source_uri": "https://tools.usps.com/UspsToolsRestServices/rest/POLocator/findLocations", "@spider": "usps_collection_boxes", "addr:city": "MONTGOMERY", "addr:country": "US", "addr:full": "4365 S COURT ST", "addr:postcode": "36105", "addr:state": "AL", "amenity": "post_box", "brand": "United States Postal Service", "brand:wikidata": "Q668687", "collection_times": "Mo-Fr 16:15; Sa 15:30", "note": "ON 12/24 AND 12/31, THIS BOX MAY BE COLLECTED AS EARLY AS 12 NOON.", "nsi_id": "unitedstatespostalservice-a77078", "operator": "United States Postal Service", "operator:short": "USPS", "operator:type": "public", "operator:wikidata": "Q668687", "ref": "3610500001"}, "type": "Feature"}
{"geometry": {"coordinates": [-86.3008963, 32.330709], "type": "Point"}, "id": "ezI-MvkyutpWAxbbwpcki3kfSDk=", "properties": {"@source_uri": "https://tools.usps.com/UspsToolsRestServices/rest/POLocator/findLocations", "@spider": "usps_collection_boxes", "addr:city": "MONTGOMERY", "addr:country": "US", "addr:full": "3770 NORMAN BRIDGE RD", "addr:postcode": "36105", "addr:state": "AL", "amenity": "post_box", "brand": "United States Postal Service", "brand:wikidata": "Q668687", "collection_times": "Mo-Sa 09:30", "nsi_id": "unitedstatespostalservice-a77078", "operator": "United States Postal Service", "operator:short": "USPS", "operator:type": "public", "operator:wikidata": "Q668687", "ref": "3610500008"}, "type": "Feature"}
{"geometry": {"coordinates": [-86.307778, 32.325071], "type": "Point"}, "id": "1AraoZzTc2mBFMTa8t-a8yzqWQI=", "properties": {"@source_uri": "https://tools.usps.com/UspsToolsRestServices/rest/POLocator/findLocations", "@spider": "usps_collection_boxes", "addr:city": "MONTGOMERY", "addr:country": "US", "addr:full": "4365 S COURT ST", "addr:postcode": "36105", "addr:state": "AL", "amenity": "post_box", "brand": "United States Postal Service", "brand:wikidata": "Q668687", "collection_times": "Mo-Fr 17:00; Sa 15:30", "indoor": "yes", "note": "ON 12/24 AND 12/31, THIS BOX MAY BE COLLECTED AS EARLY AS 12 NOON.", "nsi_id": "unitedstatespostalservice-a77078", "operator": "United States Postal Service", "operator:short": "USPS", "operator:type": "public", "operator:wikidata": "Q668687", "ref": "3610500018"}, "type": "Feature"}
{"geometry": {"coordinates": [-86.307780462, 32.325063663], "type": "Point"}, "id": "K7vFcK2Zf7fsoO1Y8wJ9QauBfiU=", "properties": {"@source_uri": "https://tools.usps.com/UspsToolsRestServices/rest/POLocator/findLocations", "@spider": "usps_collection_boxes", "addr:city": "MONTGOMERY", "addr:country": "US", "addr:full": "4365 S COURT ST", "addr:postcode": "36105", "addr:state": "AL", "amenity": "post_box", "brand": "United States Postal Service", "brand:wikidata": "Q668687", "collection_times": "Mo-Fr 17:00; Sa 13:00", "indoor": "yes", "note": "ON 12/24 AND 12/31, THIS BOX MAY BE COLLECTED AS EARLY AS 12 NOON.", "nsi_id": "unitedstatespostalservice-a77078", "operator": "United States Postal Service", "operator:short": "USPS", "operator:type": "public", "operator:wikidata": "Q668687", "ref": "3610500021"}, "type": "Feature"}
{"geometry": {"coordinates": [-86.291037, 32.360254], "type": "Point"}, "id": "MeFaWF3lXibRoO2n-DtUTpE1ABI=", "properties": {"@source_uri": "https://tools.usps.com/UspsToolsRestServices/rest/POLocator/findLocations", "@spider": "usps_collection_boxes", "addr:city": "MONTGOMERY", "addr:country": "US", "addr:full": "1206 CARTER HILL RD", "addr:postcode": "36106", "addr:state": "AL", "amenity": "post_box", "brand": "United States Postal Service", "brand:wikidata": "Q668687", "collection_times": "Mo-Fr 16:00; Sa 09:00", "note": "ON 12/24 AND 12/31, THIS BOX MAY BE COLLECTED AS EARLY AS 12 NOON.", "nsi_id": "unitedstatespostalservice-a77078", "operator": "United States Postal Service", "operator:short": "USPS", "operator:type": "public", "operator:wikidata": "Q668687", "ref": "3610600000"}, "type": "Feature"}
{"geometry": {"coordinates": [-86.291037, 32.360254], "type": "Point"}, "id": "ntmB8VFuUPNFPDrrMiJ_CvMlIoM=", "properties": {"@source_uri": "https://tools.usps.com/UspsToolsRestServices/rest/POLocator/findLocations", "@spider": "usps_collection_boxes", "addr:city": "MONTGOMERY", "addr:country": "US", "addr:full": "1206 CARTER HILL RD", "addr:postcode": "36106", "addr:state": "AL", "amenity": "post_box", "brand": "United States Postal Service", "brand:wikidata": "Q668687", "collection_times": "Mo-Fr 16:00; Sa 09:00", "note": "ON 12/24 AND 12/31, THIS BOX MAY BE COLLECTED AS EARLY AS 12 NOON.", "nsi_id": "unitedstatespostalservice-a77078", "operator": "United States Postal Service", "operator:short": "USPS", "operator:type": "public", "operator:wikidata": "Q668687", "ref": "3610600001"}, "type": "Feature"}
{"geometry": {"coordinates": [-86.2347109, 32.359083], "type": "Point"}, "id": "y30IsnvQtwwJkILdTqnq_6IL9qo=", "properties": {"@source_uri": "https://tools.usps.com/UspsToolsRestServices/rest/POLocator/findLocations", "@spider": "usps_collection_boxes", "addr:city": "MONTGOMERY", "addr:country": "US", "addr:full": "1401 I85 PKWY", "addr:postcode": "36106", "addr:state": "AL", "amenity": "post_box", "brand": "United States Postal Service", "brand:wikidata": "Q668687", "collection_times": "Mo-Fr 16:00; Sa 10:00", "note": "ON 12/24 AND 12/31, THIS BOX MAY BE COLLECTED AS EARLY AS 12 NOON.", "nsi_id": "unitedstatespostalservice-a77078", "operator": "United States Postal Service", "operator:short": "USPS", "operator:type": "public", "operator:wikidata": "Q668687", "ref": "3610600004"}, "type": "Feature"}
{"geometry": {"coordinates": [-86.2347077, 32.359095], "type": "Point"}, "id": "zyQxYixRheC33iXm5DNHg9M6dS0=", "properties": {"@source_uri": "https://tools.usps.com/UspsToolsRestServices/rest/POLocator/findLocations", "@spider": "usps_collection_boxes", "addr:city": "MONTGOMERY", "addr:country": "US", "addr:full": "1401 I85 PKWY", "addr:postcode": "36106", "addr:state": "AL", "amenity": "post_box", "brand": "United States Postal Service", "brand:wikidata": "Q668687", "collection_times": "Mo-Fr 16:00; Sa 10:00", "note": "ON 12/24 AND 12/31, THIS BOX MAY BE COLLECTED AS EARLY AS 12 NOON.", "nsi_id": "unitedstatespostalservice-a77078", "operator": "United States Postal Service", "operator:short": "USPS", "operator:type": "public", "operator:wikidata": "Q668687", "ref": "3610600005"}, "type": "Feature"}
{"geometry": {"coordinates": [-86.2836295, 32.350358], "type": "Point"}, "id": "z-QZGZsIRN2V0IdNCClVpLp5k_c=", "properties": {"@source_uri": "https://tools.usps.com/UspsToolsRestServices/rest/POLocator/findLocations", "@spider": "usps_collection_boxes", "addr:city": "MONTGOMERY", "addr:country": "US", "addr:full": "1500 E FAIRVIEW AVE", "addr:postcode": "36106", "addr:state": "AL", "amenity": "post_box", "brand": "United States Postal Service", "brand:wikidata": "Q668687", "collection_times": "Mo-Sa 13:30", "note": "ON 12/24 AND 12/31, THIS BOX MAY BE COLLECTED AS EARLY AS 12 NOON.", "nsi_id": "unitedstatespostalservice-a77078", "operator": "United States Postal Service", "operator:short": "USPS", "operator:type": "public", "operator:wikidata": "Q668687", "ref": "3610600014"}, "type": "Feature"}
{"geometry": {"coordinates": [-86.2843168, 32.366693], "type": "Point"}, "id": "3WXSaxALomWBpKmj2ikmHMwf6HI=", "properties": {"@source_uri": "https://tools.usps.com/UspsToolsRestServices/rest/POLocator/findLocations", "@spider": "usps_collection_boxes", "addr:city": "MONTGOMERY", "addr:country": "US", "addr:full": "1235 HAMPTON ST", "addr:postcode": "36106", "addr:state": "AL", "amenity": "post_box", "brand": "United States Postal Service", "brand:wikidata": "Q668687", "collection_times": "Mo-Fr 16:00; Sa 12:00", "note": "ON 12/24 AND 12/31, THIS BOX MAY BE COLLECTED AS EARLY AS 12 NOON.", "nsi_id": "unitedstatespostalservice-a77078", "operator": "United States Postal Service", "operator:short": "USPS", "operator:type": "public", "operator:wikidata": "Q668687", "ref": "3610600017"}, "type": "Feature"}
{"geometry": {"coordinates": [-86.2434319, 32.356063], "type": "Point"}, "id": "SYmOTCkGzT-dzGojM4aTInmWHzk=", "properties": {"@source_uri": "https://tools.usps.com/UspsToolsRestServices/rest/POLocator/findLocations", "@spider": "usps_collection_boxes", "addr:city": "MONTGOMERY", "addr:country": "US", "addr:full": "1611 PERRY HILL RD", "addr:postcode": "36106", "addr:state": "AL", "amenity": "post_box", "brand": "United States Postal Service", "brand:wikidata": "Q668687", "collection_times": "Mo-Sa 10:00", "nsi_id": "unitedstatespostalservice-a77078", "operator": "United States Postal Service", "operator:short": "USPS", "operator:type": "public", "operator:wikidata": "Q668687", "ref": "3610600021"}, "type": "Feature"}
{"geometry": {"coordinates": [-86.291037, 32.360254], "type": "Point"}, "id": "bu3VLyWlIHrrATQelaYyaLh0gzI=", "properties": {"@source_uri": "https://tools.usps.com/UspsToolsRestServices/rest/POLocator/findLocations", "@spider": "usps_collection_boxes", "addr:city": "MONTGOMERY", "addr:country": "US", "addr:full": "1206 CARTER HILL RD", "addr:postcode": "36106", "addr:state": "AL", "amenity": "post_box", "brand": "United States Postal Service", "brand:wikidata": "Q668687", "collection_times": "Mo-Fr 16:30", "indoor": "yes", "note": "ON 12/24 AND 12/31, THIS BOX MAY BE COLLECTED AS EARLY AS 12 NOON.", "nsi_id": "unitedstatespostalservice-a77078", "operator": "United States Postal Service", "operator:short": "USPS", "operator:type": "public", "operator:wikidata": "Q668687", "ref": "3610600034"}, "type": "Feature"}
{"geometry": {"coordinates": [-86.2225435, 32.348613], "type": "Point"}, "id": "lK05FMz8Rri6-D0mg0mnvxsEYQ8=", "properties": {"@source_uri": "https://tools.usps.com/UspsToolsRestServices/rest/POLocator/findLocations", "@spider": "usps_collection_boxes", "addr:city": "MONTGOMERY", "addr:country": "US", "addr:full": "2500 EASTERN BLVD", "addr:postcode": "36106", "addr:state": "AL", "amenity": "post_box", "brand": "United States Postal Service", "brand:wikidata": "Q668687", "collection_times": "Mo-Fr 16:45; Sa 13:30", "note": "ON 12/24 AND 12/31, THIS BOX MAY BE COLLECTED AS EARLY AS 12 NOON.", "nsi_id": "unitedstatespostalservice-a77078", "operator": "United States Postal Service", "operator:short": "USPS", "operator:type": "public", "operator:wikidata": "Q668687", "ref": "3610600035"}, "type": "Feature"}
{"geometry": {"coordinates": [-86.2225389, 32.348613], "type": "Point"}, "id": "x75zFTCnum3ft4vfeetocqtH9tE=", "properties": {"@source_uri": "https://tools.usps.com/UspsToolsRestServices/rest/POLocator/findLocations", "@spider": "usps_collection_boxes", "addr:city": "MONTGOMERY", "addr:country": "US", "addr:full": "2500 EASTERN BLVD", "addr:postcode": "36106", "addr:state": "AL", "amenity": "post_box", "brand": "United States Postal Service", "brand:wikidata": "Q668687", "collection_times": "Mo-Fr 16:45; Sa 13:30", "note": "ON 12/24 AND 12/31, THIS BOX MAY BE COLLECTED AS EARLY AS 12 NOON.", "nsi_id": "unitedstatespostalservice-a77078", "operator": "United States Postal Service", "operator:short": "USPS", "operator:type": "public", "operator:wikidata": "Q668687", "ref": "3610600036"}, "type": "Feature"}
{"geometry": {"coordinates": [-86.2881837, 32.3578141], "type": "Point"}, "id": "elUfN03RllbKrpc3Esu9K-1A2C4=", "properties": {"@source_uri": "https://tools.usps.com/UspsToolsRestServices/rest/POLocator/findLocations", "@spider": "usps_collection_boxes", "addr:city": "MONTGOMERY", "addr:country": "US", "addr:full": "2500 EASTERN BLVD", "addr:postcode": "36106", "addr:state": "AL", "amenity": "post_box", "brand": "United States Postal Service", "brand:wikidata": "Q668687", "collection_times": "Mo-Fr 16:45; Sa 13:30", "note": "ON 12/24 AND 12/31, THIS BOX MAY BE COLLECTED AS EARLY AS 12 NOON.", "nsi_id": "unitedstatespostalservice-a77078", "operator": "United States Postal Service", "operator:short": "USPS", "operator:type": "public", "operator:wikidata": "Q668687", "ref": "3610600037"}, "type": "Feature"}
{"geometry": {"coordinates": [-86.2223888, 32.348848], "type": "Point"}, "id": "W-EKr1h8IKXBcAcwF4RWh79jfy4=", "properties": {"@source_uri": "https://tools.usps.com/UspsToolsRestServices/rest/POLocator/findLocations", "@spider": "usps_collection_boxes", "addr:city": "MONTGOMERY", "addr:country": "US", "addr:full": "2500 EASTERN BLVD", "addr:postcode": "36106", "addr:state": "AL", "amenity": "post_box", "brand": "United States Postal Service", "brand:wikidata": "Q668687", "collection_times": "Mo-Fr 16:45; Sa 13:30", "indoor": "yes", "note": "ON 12/24 AND 12/31, THIS BOX MAY BE COLLECTED AS EARLY AS 12 NOON.", "nsi_id": "unitedstatespostalservice-a77078", "operator": "United States Postal Service", "operator:short": "USPS", "operator:type": "public", "operator:wikidata": "Q668687", "ref": "3610600040"}, "type": "Feature"}
{"geometry": {"coordinates": [-86.2294039, 32.358308], "type": "Point"}, "id": "t60-zl49Lgo_dnMLg3TWP11mO4E=", "properties": {"@source_uri": "https://tools.usps.com/UspsToolsRestServices/rest/POLocator/findLocations", "@spider": "usps_collection_boxes", "addr:city": "MONTGOMERY", "addr:country": "US", "addr:full": "4274 LOMAC ST", "addr:postcode": "36106", "addr:state": "AL", "amenity": "post_box", "brand": "United States Postal Service", "brand:wikidata": "Q668687", "collection_times": "Mo-Fr 16:00; Sa 10:00", "note": "ON 12/24 AND 12/31, THIS BOX MAY BE COLLECTED AS EARLY AS 12 NOON.", "nsi_id": "unitedstatespostalservice-a77078", "operator": "United States Postal Service", "operator:short": "USPS", "operator:type": "public", "operator:wikidata": "Q668687", "ref": "3610600043"}, "type": "Feature"}
{"geometry": {"coordinates": [-86.2830377, 32.36695], "type": "Point"}, "id": "V8qQdh5ZZQv03N1vjxwXGKbrXIs=", "properties": {"@source_uri": "https://tools.usps.com/UspsToolsRestServices/rest/POLocator/findLocations", "@spider": "usps_collection_boxes", "addr:city": "MONTGOMERY", "addr:country": "US", "addr:full": "1301 MULBERRY ST", "addr:postcode": "36106", "addr:state": "AL", "amenity": "post_box", "brand": "United States Postal Service", "brand:wikidata": "Q668687", "collection_times": "Mo-Fr 12:00; Sa 10:00", "nsi_id": "unitedstatespostalservice-a77078", "operator": "United States Postal Service", "operator:short": "USPS", "operator:type": "public", "operator:wikidata": "Q668687", "ref": "3610600046"}, "type": "Feature"}
{"geometry": {"coordinates": [-86.291038246, 32.360246017], "type": "Point"}, "id": "v93Vm5OX_XSdxfMLIdhs0oN3g1k=", "properties": {"@source_uri": "https://tools.usps.com/UspsToolsRestServices/rest/POLocator/findLocations", "@spider": "usps_collection_boxes", "addr:city": "MONTGOMERY", "addr:country": "US", "addr:full": "1206 CARTER HILL RD", "addr:postcode": "36106", "addr:state": "AL", "amenity": "post_box", "brand": "United States Postal Service", "brand:wikidata": "Q668687", "collection_times": "Mo-Fr 16:30", "indoor": "yes", "note": "ON 12/24 AND 12/31, THIS BOX MAY BE COLLECTED AS EARLY AS 12 NOON.", "nsi_id": "unitedstatespostalservice-a77078", "operator": "United States Postal Service", "operator:short": "USPS", "operator:type": "public", "operator:wikidata": "Q668687", "ref": "3610600050"}, "type": "Feature"}
{"geometry": {"coordinates": [-86.2723152, 32.360929], "type": "Point"}, "id": "VRqAyaCyvTHQATPpiy-oGCib0Cs=", "properties": {"@source_uri": "https://tools.usps.com/UspsToolsRestServices/rest/POLocator/findLocations", "@spider": "usps_collection_boxes", "addr:city": "MONTGOMERY", "addr:country": "US", "addr:full": "2540 E 5TH ST", "addr:postcode": "36107", "addr:state": "AL", "amenity": "post_box", "brand": "United States Postal Service", "brand:wikidata": "Q668687", "collection_times": "Mo-Fr 12:00; Sa 09:30", "nsi_id": "unitedstatespostalservice-a77078", "operator": "United States Postal Service", "operator:short": "USPS", "operator:type": "public", "operator:wikidata": "Q668687", "ref": "3610700006"}, "type": "Feature"}
{"geometry": {"coordinates": [-86.3480386, 32.356768], "type": "Point"}, "id": "eVitdOupuxEOcMp8lcpD3I60ji8=", "properties": {"@source_uri": "https://tools.usps.com/UspsToolsRestServices/rest/POLocator/findLocations", "@spider": "usps_collection_boxes", "addr:city": "MONTGOMERY", "addr:country": "US", "addr:full": "3100 TINE AVE", "addr:postcode": "36108", "addr:state": "AL", "amenity": "post_box", "brand": "United States Postal Service", "brand:wikidata": "Q668687", "collection_times": "Mo-Fr 16:45; Sa 15:00", "indoor": "yes", "note": "ON 12/24 AND 12/31, THIS BOX MAY BE COLLECTED AS EARLY AS 12 NOON.", "nsi_id": "unitedstatespostalservice-a77078", "operator": "United States Postal Service", "operator:short": "USPS", "operator:type": "public", "operator:wikidata": "Q668687", "ref": "3610800021"}, "type": "Feature"}
{"geometry": {"coordinates": [-86.347744722, 32.356063483], "type": "Point"}, "id": "R-dkz2y0vGv2GioDoFhyDuMBzNs=", "properties": {"@source_uri": "https://tools.usps.com/UspsToolsRestServices/rest/POLocator/findLocations", "@spider": "usps_collection_boxes", "addr:city": "MONTGOMERY", "addr:country": "US", "addr:full": "3100 TINE AVE", "addr:postcode": "36108", "addr:state": "AL", "amenity": "post_box", "brand": "United States Postal Service", "brand:wikidata": "Q668687", "collection_times": "Mo-Fr 17:00", "indoor": "yes", "note": "ON 12/24 AND 12/31, THIS BOX MAY BE COLLECTED AS EARLY AS 12 NOON.", "nsi_id": "unitedstatespostalservice-a77078", "operator": "United States Postal Service", "operator:short": "USPS", "operator:type": "public", "operator:wikidata": "Q668687", "ref": "3610800029"}, "type": "Feature"}
{"geometry": {"coordinates": [-86.26048, 32.384575], "type": "Point"}, "id": "ME4brnakMOwMxmClYBPqGFQHJ0c=", "properties": {"@source_uri": "https://tools.usps.com/UspsToolsRestServices/rest/POLocator/findLocations", "@spider": "usps_collection_boxes", "addr:city": "MONTGOMERY", "addr:country": "US", "addr:full": "411 COLISEUM BLVD", "addr:postcode": "36109", "addr:state": "AL", "amenity": "post_box", "brand": "United States Postal Service", "brand:wikidata": "Q668687", "collection_times": "Mo-Sa 14:00", "note": "ON 12/24 AND 12/31, THIS BOX MAY BE COLLECTED AS EARLY AS 12 NOON.", "nsi_id": "unitedstatespostalservice-a77078", "operator": "United States Postal Service", "operator:short": "USPS", "operator:type": "public", "operator:wikidata": "Q668687", "ref": "3610900003"}, "type": "Feature"}
{"geometry": {"coordinates": [-86.2578557, 32.38488], "type": "Point"}, "id": "EQ7DWuGEJkoNTrgbXVuNEyw9Txk=", "properties": {"@source_uri": "https://tools.usps.com/UspsToolsRestServices/rest/POLocator/findLocations", "@spider": "usps_collection_boxes", "addr:city": "MONTGOMERY", "addr:country": "US", "addr:full": "3458 ATLANTA HWY", "addr:postcode": "36109", "addr:state": "AL", "amenity": "post_box", "brand": "United States Postal Service", "brand:wikidata": "Q668687", "collection_times": "Mo-Sa 12:00", "nsi_id": "unitedstatespostalservice-a77078", "operator": "United States Postal Service", "operator:short": "USPS", "operator:type": "public", "operator:wikidata": "Q668687", "ref": "3610900010"}, "type": "Feature"}
{"geometry": {"coordinates": [-86.2430873, 32.36285], "type": "Point"}, "id": "wZCelkcYFykhNkxrz6vsgG58PZo=", "properties": {"@source_uri": "https://tools.usps.com/UspsToolsRestServices/rest/POLocator/findLocations", "@spider": "usps_collection_boxes", "addr:city": "MONTGOMERY", "addr:country": "US", "addr:full": "100 INTERSTATE PARK DR", "addr:postcode": "36109", "addr:state": "AL", "amenity": "post_box", "brand": "United States Postal Service", "brand:wikidata": "Q668687", "collection_times": "Mo-Sa 12:00", "nsi_id": "unitedstatespostalservice-a77078", "operator": "United States Postal Service", "operator:short": "USPS", "operator:type": "public", "operator:wikidata": "Q668687", "ref": "3610900015"}, "type": "Feature"}
{"geometry": {"coordinates": [-86.2415816, 32.362198], "type": "Point"}, "id": "RFXrl2aVN3oqLTLKEATIWuuUN3o=", "properties": {"@source_uri": "https://tools.usps.com/UspsToolsRestServices/rest/POLocator/findLocations", "@spider": "usps_collection_boxes", "addr:city": "MONTGOMERY", "addr:country": "US", "addr:full": "500 INTERSTATE PARK DR", "addr:postcode": "36109", "addr:state": "AL", "amenity": "post_box", "brand": "United States Postal Service", "brand:wikidata": "Q668687", "collection_times": "Mo-Sa 12:00", "nsi_id": "unitedstatespostalservice-a77078", "operator": "United States Postal Service", "operator:short": "USPS", "operator:type": "public", "operator:wikidata": "Q668687", "ref": "3610900019"}, "type": "Feature"}
{"geometry": {"coordinates": [-86.2449777, 32.366416], "type": "Point"}, "id": "MJLdPdINqgCcGoJW1Pfv0hR1x8g=", "properties": {"@source_uri": "https://tools.usps.com/UspsToolsRestServices/rest/POLocator/findLocations", "@spider": "usps_collection_boxes", "addr:city": "MONTGOMERY", "addr:country": "US", "addr:full": "3800 HARRISON RD", "addr:postcode": "36109", "addr:state": "AL", "amenity": "post_box", "brand": "United States Postal Service", "brand:wikidata": "Q668687", "collection_times": "Mo-Fr 14:00; Sa 12:30", "note": "ON 12/24 AND 12/31, THIS BOX MAY BE COLLECTED AS EARLY AS 12 NOON.", "nsi_id": "unitedstatespostalservice-a77078", "operator": "United States Postal Service", "operator:short": "USPS", "operator:type": "public", "operator:wikidata": "Q668687", "ref": "3610900026"}, "type": "Feature"}
{"geometry": {"coordinates": [-86.257497, 32.391116], "type": "Point"}, "id": "OJ4jMTB2ABnuXOdfb5auZEpPNdI=", "properties": {"@source_uri": "https://tools.usps.com/UspsToolsRestServices/rest/POLocator/findLocations", "@spider": "usps_collection_boxes", "addr:city": "MONTGOMERY", "addr:country": "US", "addr:full": "411 COLISEUM BLVD", "addr:postcode": "36109", "addr:state": "AL", "amenity": "post_box", "brand": "United States Postal Service", "brand:wikidata": "Q668687", "collection_times": "Mo-Fr 16:30", "indoor": "yes", "note": "ON 12/24 AND 12/31, THIS BOX MAY BE COLLECTED AS EARLY AS 12 NOON.", "nsi_id": "unitedstatespostalservice-a77078", "operator": "United States Postal Service", "operator:short": "USPS", "operator:type": "public", "operator:wikidata": "Q668687", "ref": "3610900032"}, "type": "Feature"}
{"geometry": {"coordinates": [-86.2576119, 32.390565], "type": "Point"}, "id": "_lPAxoxM9EW4dA3cfpyClNpX5Us=", "properties": {"@source_uri": "https://tools.usps.com/UspsToolsRestServices/rest/POLocator/findLocations", "@spider": "usps_collection_boxes", "addr:city": "MONTGOMERY", "addr:country": "US", "addr:full": "411 COLISEUM BLVD", "addr:postcode": "36109", "addr:state": "AL", "amenity": "post_box", "brand": "United States Postal Service", "brand:wikidata": "Q668687", "collection_times": "Mo-Sa 14:00", "note": "ON 12/24 AND 12/31, THIS BOX MAY BE COLLECTED AS EARLY AS 12 NOON.", "nsi_id": "unitedstatespostalservice-a77078", "operator": "United States Postal Service", "operator:short": "USPS", "operator:type": "public", "operator:wikidata": "Q668687", "ref": "3610900035"}, "type": "Feature"}
{"geometry": {"coordinates": [-86.257521734, 32.391110484], "type": "Point"}, "id": "3tbJLW6_aW3OxJMkGUyonL6w0os=", "properties": {"@source_uri": "https://tools.usps.com/UspsToolsRestServices/rest/POLocator/findLocations", "@spider": "usps_collection_boxes", "addr:city": "MONTGOMERY", "addr:country": "US", "addr:full": "411 COLISEUM BLVD", "addr:postcode": "36109", "addr:state": "AL", "amenity": "post_box", "brand": "United States Postal Service", "brand:wikidata": "Q668687", "collection_times": "Mo-Fr 16:30", "indoor": "yes", "note": "ON 12/24 AND 12/31, THIS BOX MAY BE COLLECTED AS EARLY AS 12 NOON.", "nsi_id": "unitedstatespostalservice-a77078", "operator": "United States Postal Service", "operator:short": "USPS", "operator:type": "public", "operator:wikidata": "Q668687", "ref": "3610900037"}, "type": "Feature"}
{"geometry": {"coordinates": [-86.2790165, 32.426421], "type": "Point"}, "id": "XFE41OOZ7BGo2UGdkdy7-GyxyJI=", "properties": {"@source_uri": "https://tools.usps.com/UspsToolsRestServices/rest/POLocator/findLocations", "@spider": "usps_collection_boxes", "addr:city": "MONTGOMERY", "addr:country": "US", "addr:full": "510 JOHNSON AVE", "addr:postcode": "36110", "addr:state": "AL", "amenity": "post_box", "brand": "United States Postal Service", "brand:wikidata": "Q668687", "collection_times": "Mo-Fr 13:00; Sa 12:00", "note": "ON 12/24 AND 12/31, THIS BOX MAY BE COLLECTED AS EARLY AS 12 NOON.", "nsi_id": "unitedstatespostalservice-a77078", "operator": "United States Postal Service", "operator:short": "USPS", "operator:type": "public", "operator:wikidata": "Q668687", "ref": "3611000000"}, "type": "Feature"}
{"geometry": {"coordinates": [-86.2866757, 32.415567], "type": "Point"}, "id": "5xP0Xql1Z0a1ag3iMRID8Rve7x0=", "properties": {"@source_uri": "https://tools.usps.com/UspsToolsRestServices/rest/POLocator/findLocations", "@spider": "usps_collection_boxes", "addr:city": "MONTGOMERY", "addr:country": "US", "addr:full": "24 W PARK AVE", "addr:postcode": "36110", "addr:state": "AL", "amenity": "post_box", "brand": "United States Postal Service", "brand:wikidata": "Q668687", "collection_times": "Mo-Sa 11:00", "nsi_id": "unitedstatespostalservice-a77078", "operator": "United States Postal Service", "operator:short": "USPS", "operator:type": "public", "operator:wikidata": "Q668687", "ref": "3611000005"}, "type": "Feature"}
{"geometry": {"coordinates": [-86.2160099, 32.442465], "type": "Point"}, "id": "bMmB-C3S_WzFHyosPkhxsmtZgqg=", "properties": {"@source_uri": "https://tools.usps.com/UspsToolsRestServices/rest/POLocator/findLocations", "@spider": "usps_collection_boxes", "addr:city": "MONTGOMERY", "addr:country": "US", "addr:full": "231 HWY HWY N", "addr:postcode": "36110", "addr:state": "AL", "amenity": "post_box", "brand": "United States Postal Service", "brand:wikidata": "Q668687", "collection_times": "Mo-Sa 10:30", "nsi_id": "unitedstatespostalservice-a77078", "operator": "United States Postal Service", "operator:short": "USPS", "operator:type": "public", "operator:wikidata": "Q668687", "ref": "3611000007"}, "type": "Feature"}
{"geometry": {"coordinates": [-86.2698876, 32.421016], "type": "Point"}, "id": "vlGA0XIGqrQvE_3JvDM6Us5Vses=", "properties": {"@source_uri": "https://tools.usps.com/UspsToolsRestServices/rest/POLocator/findLocations", "@spider": "usps_collection_boxes", "addr:city": "MONTGOMERY", "addr:country": "US", "addr:full": "2055 COLISEUM BLVD", "addr:postcode": "36110", "addr:state": "AL", "amenity": "post_box", "brand": "United States Postal Service", "brand:wikidata": "Q668687", "collection_times": "Mo-Sa 11:30", "nsi_id": "unitedstatespostalservice-a77078", "operator": "United States Postal Service", "operator:short": "USPS", "operator:type": "public", "operator:wikidata": "Q668687", "ref": "3611000008"}, "type": "Feature"}
{"geometry": {"coordinates": [-86.262061, 32.337738], "type": "Point"}, "id": "VTenPLbWPK1uRr14pXq7tQ5wRD8=", "properties": {"@source_uri": "https://tools.usps.com/UspsToolsRestServices/rest/POLocator/findLocations", "@spider": "usps_collection_boxes", "addr:city": "MONTGOMERY", "addr:country": "US", "addr:full": "2901 MCGEHEE RD", "addr:postcode": "36111", "addr:state": "AL", "amenity": "post_box", "brand": "United States Postal Service", "brand:wikidata": "Q668687", "collection_times": "Mo-Fr 16:30; Sa 14:30", "note": "ON 12/24 AND 12/31, THIS BOX MAY BE COLLECTED AS EARLY AS 12 NOON.", "nsi_id": "unitedstatespostalservice-a77078", "operator": "United States Postal Service", "operator:short": "USPS", "operator:type": "public", "operator:wikidata": "Q668687", "ref": "3611100000"}, "type": "Feature"}
{"geometry": {"coordinates": [-86.2622299, 32.338192], "type": "Point"}, "id": "0jxGjtWbEulVVkDuOrixNoZgcN4=", "properties": {"@source_uri": "https://tools.usps.com/UspsToolsRestServices/rest/POLocator/findLocations", "@spider": "usps_collection_boxes", "addr:city": "MONTGOMERY", "addr:country": "US", "addr:full": "2901 MCGEHEE RD", "addr:postcode": "36111", "addr:state": "AL", "amenity": "post_box", "brand": "United States Postal Service", "brand:wikidata": "Q668687", "collection_times": "Mo-Fr 16:30; Sa 14:30", "note": "ON 12/24 AND 12/31, THIS BOX MAY BE COLLECTED AS EARLY AS 12 NOON.", "nsi_id": "unitedstatespostalservice-a77078", "operator": "United States Postal Service", "operator:short": "USPS", "operator:type": "public", "operator:wikidata": "Q668687", "ref": "3611100001"}, "type": "Feature"}
{"geometry": {"coordinates": [-86.2622279, 32.338194], "type": "Point"}, "id": "BhkDvsNLj8tU4YlFYU6oukj3G2U=", "properties": {"@source_uri": "https://tools.usps.com/UspsToolsRestServices/rest/POLocator/findLocations", "@spider": "usps_collection_boxes", "addr:city": "MONTGOMERY", "addr:country": "US", "addr:full": "2901 MCGEHEE RD", "addr:postcode": "36111", "addr:state": "AL", "amenity": "post_box", "brand": "United States Postal Service", "brand:wikidata": "Q668687", "collection_times": "Mo-Fr 16:30; Sa 14:30", "note": "ON 12/24 AND 12/31, THIS BOX MAY BE COLLECTED AS EARLY AS 12 NOON.", "nsi_id": "unitedstatespostalservice-a77078", "operator": "United States Postal Service", "operator:short": "USPS", "operator:type": "public", "operator:wikidata": "Q668687", "ref": "3611100002"}, "type": "Feature"}
{"geometry": {"coordinates": [-86.2623583, 32.33819], "type": "Point"}, "id": "i2F4yamWkIJL221xPBI0lPXjuNo=", "properties": {"@source_uri": "https://tools.usps.com/UspsToolsRestServices/rest/POLocator/findLocations", "@spider": "usps_collection_boxes", "addr:city": "MONTGOMERY", "addr:country": "US", "addr:full": "2901 MCGEHEE RD", "addr:postcode": "36111", "addr:state": "AL", "amenity": "post_box", "brand": "United States Postal Service", "brand:wikidata": "Q668687", "collection_times": "Mo-Fr 16:30; Sa 14:30", "note": "ON 12/24 AND 12/31, THIS BOX MAY BE COLLECTED AS EARLY AS 12 NOON.", "nsi_id": "unitedstatespostalservice-a77078", "operator": "United States Postal Service", "operator:short": "USPS", "operator:type": "public", "operator:wikidata": "Q668687", "ref": "3611100003"}, "type": "Feature"}
{"geometry": {"coordinates": [-86.2416816, 32.328937], "type": "Point"}, "id": "IcXhrGBuPbKTr3HANtDyJRekvXM=", "properties": {"@source_uri": "https://tools.usps.com/UspsToolsRestServices/rest/POLocator/findLocations", "@spider": "usps_collection_boxes", "addr:city": "MONTGOMERY", "addr:country": "US", "addr:full": "3600 DEBBY DR", "addr:postcode": "36111", "addr:state": "AL", "amenity": "post_box", "brand": "United States Postal Service", "brand:wikidata": "Q668687", "collection_times": "Mo-Sa 11:00", "nsi_id": "unitedstatespostalservice-a77078", "operator": "United States Postal Service", "operator:short": "USPS", "operator:type": "public", "operator:wikidata": "Q668687", "ref": "3611100005"}, "type": "Feature"}
{"geometry": {"coordinates": [-86.2496923, 32.332115], "type": "Point"}, "id": "zdR75QPvcZ5Oa1QbZUWJG2LXFUI=", "properties": {"@source_uri": "https://tools.usps.com/UspsToolsRestServices/rest/POLocator/findLocations", "@spider": "usps_collection_boxes", "addr:city": "MONTGOMERY", "addr:country": "US", "addr:full": "3800 GOVERNORS DR", "addr:postcode": "36111", "addr:state": "AL", "amenity": "post_box", "brand": "United States Postal Service", "brand:wikidata": "Q668687", "collection_times": "Mo-Sa 10:00", "nsi_id": "unitedstatespostalservice-a77078", "operator": "United States Postal Service", "operator:short": "USPS", "operator:type": "public", "operator:wikidata": "Q668687", "ref": "3611100016"}, "type": "Feature"}
{"geometry": {"coordinates": [-86.262061, 32.337738], "type": "Point"}, "id": "IoFeS1EvnOglnLxCfs9zcliCqlk=", "properties": {"@source_uri": "https://tools.usps.com/UspsToolsRestServices/rest/POLocator/findLocations", "@spider": "usps_collection_boxes", "addr:city": "MONTGOMERY", "addr:country": "US", "addr:full": "2901 MCGEHEE RD", "addr:postcode": "36111", "addr:state": "AL", "amenity": "post_box", "brand": "United States Postal Service", "brand:wikidata": "Q668687", "collection_times": "Mo-Fr 16:30; Sa 09:00", "indoor": "yes", "note": "ON 12/24 AND 12/31, THIS BOX MAY BE COLLECTED AS EARLY AS 12 NOON.", "nsi_id": "unitedstatespostalservice-a77078", "operator": "United States Postal Service", "operator:short": "USPS", "operator:type": "public", "operator:wikidata": "Q668687", "ref": "3611100017"}, "type": "Feature"}
{"geometry": {"coordinates": [-86.262060526, 32.337731479], "type": "Point"}, "id": "v4SmKaNuEEpfzrMBAFzw_5ez4N4=", "properties": {"@source_uri": "https://tools.usps.com/UspsToolsRestServices/rest/POLocator/findLocations", "@spider": "usps_collection_boxes", "addr:city": "MONTGOMERY", "addr:country": "US", "addr:full": "2901 MCGEHEE RD", "addr:postcode": "36111", "addr:state": "AL", "amenity": "post_box", "brand": "United States Postal Service", "brand:wikidata": "Q668687", "collection_times": "Mo-Fr 16:30", "indoor": "yes", "note": "ON 12/24 AND 12/31, THIS BOX MAY BE COLLECTED AS EARLY AS 12 NOON.", "nsi_id": "unitedstatespostalservice-a77078", "operator": "United States Postal Service", "operator:short": "USPS", "operator:type": "public", "operator:wikidata": "Q668687", "ref": "3611100021"}, "type": "Feature"}
{"geometry": {"coordinates": [-86.348552622, 32.380167768], "type": "Point"}, "id": "xAPq3-D0z1H40RReM064onhDDqA=", "properties": {"@source_uri": "https://tools.usps.com/UspsToolsRestServices/rest/POLocator/findLocations", "@spider": "usps_collection_boxes", "addr:city": "MONTGOMERY", "addr:country": "US", "addr:full": "550 E MAXWELL BLVD", "addr:postcode": "36112", "addr:state": "AL", "amenity": "post_box", "brand": "United States Postal Service", "brand:wikidata": "Q668687", "collection_times": "Mo-Fr 16:30", "indoor": "yes", "note": "ON 12/24 AND 12/31, THIS BOX MAY BE COLLECTED AS EARLY AS 12 NOON.", "nsi_id": "unitedstatespostalservice-a77078", "operator": "United States Postal Service", "operator:short": "USPS", "operator:type": "public", "operator:wikidata": "Q668687", "ref": "3611200001"}, "type": "Feature"}
{"geometry": {"coordinates": [-86.348588, 32.380136], "type": "Point"}, "id": "XiqGPlx3BnqEy5jC7vewsKnYh5g=", "properties": {"@source_uri": "https://tools.usps.com/UspsToolsRestServices/rest/POLocator/findLocations", "@spider": "usps_collection_boxes", "addr:city": "MONTGOMERY", "addr:country": "US", "addr:full": "550 E MAXWELL BLVD", "addr:postcode": "36113", "addr:state": "AL", "amenity": "post_box", "brand": "United States Postal Service", "brand:wikidata": "Q668687", "collection_times": "Mo-Fr 16:30", "note": "ON 12/24 AND 12/31, THIS BOX MAY BE COLLECTED AS EARLY AS 12 NOON.", "nsi_id": "unitedstatespostalservice-a77078", "operator": "United States Postal Service", "operator:short": "USPS", "operator:type": "public", "operator:wikidata": "Q668687", "ref": "3611300010"}, "type": "Feature"}
{"geometry": {"coordinates": [-86.2430171, 32.405945], "type": "Point"}, "id": "cuA03U8h8JOUF-sV7Di3nvWhPEE=", "properties": {"@source_uri": "https://tools.usps.com/UspsToolsRestServices/rest/POLocator/findLocations", "@spider": "usps_collection_boxes", "addr:city": "MONTGOMERY", "addr:country": "US", "addr:full": "856 BLDG GAFB", "addr:postcode": "36115", "addr:state": "AL", "amenity": "post_box", "brand": "United States Postal Service", "brand:wikidata": "Q668687", "collection_times": "Mo-Sa 10:00", "nsi_id": "unitedstatespostalservice-a77078", "operator": "United States Postal Service", "operator:short": "USPS", "operator:type": "public", "operator:wikidata": "Q668687", "ref": "3611500004"}, "type": "Feature"}
{"geometry": {"coordinates": [-86.2458063, 32.405749], "type": "Point"}, "id": "-Q4gNHv3sPVtAJlw_u7YKwavcqc=", "properties": {"@source_uri": "https://tools.usps.com/UspsToolsRestServices/rest/POLocator/findLocations", "@spider": "usps_collection_boxes", "addr:city": "MONTGOMERY", "addr:country": "US", "addr:full": "826 BLDG", "addr:postcode": "36115", "addr:state": "AL", "amenity": "post_box", "brand": "United States Postal Service", "brand:wikidata": "Q668687", "collection_times": "Mo-Sa 10:00", "nsi_id": "unitedstatespostalservice-a77078", "operator": "United States Postal Service", "operator:short": "USPS", "operator:type": "public", "operator:wikidata": "Q668687", "ref": "3611500008"}, "type": "Feature"}
{"geometry": {"coordinates": [-86.2501131, 32.32863], "type": "Point"}, "id": "7N_iP8UxRQ2jgza1WNT3h3pFzLA=", "properties": {"@source_uri": "https://tools.usps.com/UspsToolsRestServices/rest/POLocator/findLocations", "@spider": "usps_collection_boxes", "addr:city": "MONTGOMERY", "addr:country": "US", "addr:full": "2837 EAST BLVD", "addr:postcode": "36116", "addr:state": "AL", "amenity": "post_box", "brand": "United States Postal Service", "brand:wikidata": "Q668687", "collection_times": "Mo-Fr 17:00; Sa 15:00", "note": "ON 12/24 AND 12/31, THIS BOX MAY BE COLLECTED AS EARLY AS 12 NOON.", "nsi_id": "unitedstatespostalservice-a77078", "operator": "United States Postal Service", "operator:short": "USPS", "operator:type": "public", "operator:wikidata": "Q668687", "ref": "3611600001"}, "type": "Feature"}
{"geometry": {"coordinates": [-86.2501172, 32.328613], "type": "Point"}, "id": "yE6lxplS8bf1kfvClJX77hHRAP4=", "properties": {"@source_uri": "https://tools.usps.com/UspsToolsRestServices/rest/POLocator/findLocations", "@spider": "usps_collection_boxes", "addr:city": "MONTGOMERY", "addr:country": "US", "addr:full": "2837 EAST BLVD", "addr:postcode": "36116", "addr:state": "AL", "amenity": "post_box", "brand": "United States Postal Service", "brand:wikidata": "Q668687", "collection_times": "Mo-Fr 17:00; Sa 15:00", "note": "ON 12/24 AND 12/31, THIS BOX MAY BE COLLECTED AS EARLY AS 12 NOON.", "nsi_id": "unitedstatespostalservice-a77078", "operator": "United States Postal Service", "operator:short": "USPS", "operator:type": "public", "operator:wikidata": "Q668687", "ref": "3611600002"}, "type": "Feature"}
{"geometry": {"coordinates": [-86.2501119, 32.328621], "type": "Point"}, "id": "hNE8bNPTMgWIQh2uelOyZ96hAdM=", "properties": {"@source_uri": "https://tools.usps.com/UspsToolsRestServices/rest/POLocator/findLocations", "@spider": "usps_collection_boxes", "addr:city": "MONTGOMERY", "addr:country": "US", "addr:full": "2837 EAST BLVD", "addr:postcode": "36116", "addr:state": "AL", "amenity": "post_box", "brand": "United States Postal Service", "brand:wikidata": "Q668687", "collection_times": "Mo-Fr 17:00; Sa 15:00", "note": "ON 12/24 AND 12/31, THIS BOX MAY BE COLLECTED AS EARLY AS 12 NOON.", "nsi_id": "unitedstatespostalservice-a77078", "operator": "United States Postal Service", "operator:short": "USPS", "operator:type": "public", "operator:wikidata": "Q668687", "ref": "3611600003"}, "type": "Feature"}
{"geometry": {"coordinates": [-86.1758854, 32.34019], "type": "Point"}, "id": "XcbSMf2yzMCXnDR0m8BcFAvA6D4=", "properties": {"@source_uri": "https://tools.usps.com/UspsToolsRestServices/rest/POLocator/findLocations", "@spider": "usps_collection_boxes", "addr:city": "MONTGOMERY", "addr:country": "US", "addr:full": "7995 VAUGHN RD", "addr:postcode": "36116", "addr:state": "AL", "amenity": "post_box", "brand": "United States Postal Service", "brand:wikidata": "Q668687", "collection_times": "Mo-Sa 12:30", "note": "ON 12/24 AND 12/31, THIS BOX MAY BE COLLECTED AS EARLY AS 12 NOON.", "nsi_id": "unitedstatespostalservice-a77078", "operator": "United States Postal Service", "operator:short": "USPS", "operator:type": "public", "operator:wikidata": "Q668687", "ref": "3611600006"}, "type": "Feature"}
{"geometry": {"coordinates": [-86.2320357, 32.33322], "type": "Point"}, "id": "-_8vybFdXwwyXOFPt4OYFrrPXUs=", "properties": {"@source_uri": "https://tools.usps.com/UspsToolsRestServices/rest/POLocator/findLocations", "@spider": "usps_collection_boxes", "addr:city": "MONTGOMERY", "addr:country": "US", "addr:full": "3500 EASTERN BLVD", "addr:postcode": "36116", "addr:state": "AL", "amenity": "post_box", "brand": "United States Postal Service", "brand:wikidata": "Q668687", "collection_times": "Mo-Fr 15:45; Sa 10:00", "note": "ON 12/24 AND 12/31, THIS BOX MAY BE COLLECTED AS EARLY AS 12 NOON.", "nsi_id": "unitedstatespostalservice-a77078", "operator": "United States Postal Service", "operator:short": "USPS", "operator:type": "public", "operator:wikidata": "Q668687", "ref": "3611600011"}, "type": "Feature"}
{"geometry": {"coordinates": [-86.2283726, 32.329451], "type": "Point"}, "id": "b4iY0jUSFBQlJzXu-jYz1QEBK7g=", "properties": {"@source_uri": "https://tools.usps.com/UspsToolsRestServices/rest/POLocator/findLocations", "@spider": "usps_collection_boxes", "addr:city": "MONTGOMERY", "addr:country": "US", "addr:full": "5701 CALMAR DR", "addr:postcode": "36116", "addr:state": "AL", "amenity": "post_box", "brand": "United States Postal Service", "brand:wikidata": "Q668687", "collection_times": "Mo-Sa 09:30", "nsi_id": "unitedstatespostalservice-a77078", "operator": "United States Postal Service", "operator:short": "USPS", "operator:type": "public", "operator:wikidata": "Q668687", "ref": "3611600012"}, "type": "Feature"}
{"geometry": {"coordinates": [-86.2216547, 32.34257], "type": "Point"}, "id": "wLzEvUpL93QN_PVnilwMvTQ4J40=", "properties": {"@source_uri": "https://tools.usps.com/UspsToolsRestServices/rest/POLocator/findLocations", "@spider": "usps_collection_boxes", "addr:city": "MONTGOMERY", "addr:country": "US", "addr:full": "5070 VAUGHN RD", "addr:postcode": "36116", "addr:state": "AL", "amenity": "post_box", "brand": "United States Postal Service", "brand:wikidata": "Q668687", "collection_times": "Mo-Fr 15:30; Sa 10:30", "note": "ON 12/24 AND 12/31, THIS BOX MAY BE COLLECTED AS EARLY AS 12 NOON.", "nsi_id": "unitedstatespostalservice-a77078", "operator": "United States Postal Service", "operator:short": "USPS", "operator:type": "public", "operator:wikidata": "Q668687", "ref": "3611600013"}, "type": "Feature"}
{"geometry": {"coordinates": [-86.2332052, 32.331868], "type": "Point"}, "id": "dHdawttGP_HqaSi9jtXRn7yZ1oY=", "properties": {"@source_uri": "https://tools.usps.com/UspsToolsRestServices/rest/POLocator/findLocations", "@spider": "usps_collection_boxes", "addr:city": "MONTGOMERY", "addr:country": "US", "addr:full": "4520 EXECUTIVE PARK DR", "addr:postcode": "36116", "addr:state": "AL", "amenity": "post_box", "brand": "United States Postal Service", "brand:wikidata": "Q668687", "collection_times": "Mo-Fr 15:45; Sa 10:00", "note": "ON 12/24 AND 12/31, THIS BOX MAY BE COLLECTED AS EARLY AS 12 NOON.", "nsi_id": "unitedstatespostalservice-a77078", "operator": "United States Postal Service", "operator:short": "USPS", "operator:type": "public", "operator:wikidata": "Q668687", "ref": "3611600024"}, "type": "Feature"}
{"geometry": {"coordinates": [-86.2332011, 32.331871], "type": "Point"}, "id": "wmA-f8P4MKJ54j8WXBBJPpkLLJs=", "properties": {"@source_uri": "https://tools.usps.com/UspsToolsRestServices/rest/POLocator/findLocations", "@spider": "usps_collection_boxes", "addr:city": "MONTGOMERY", "addr:country": "US", "addr:full": "4520 EXECUTIVE PARK DR", "addr:postcode": "36116", "addr:state": "AL", "amenity": "post_box", "brand": "United States Postal Service", "brand:wikidata": "Q668687", "collection_times": "Mo-Fr 15:45; Sa 10:00", "note": "ON 12/24 AND 12/31, THIS BOX MAY BE COLLECTED AS EARLY AS 12 NOON.", "nsi_id": "unitedstatespostalservice-a77078", "operator": "United States Postal Service", "operator:short": "USPS", "operator:type": "public", "operator:wikidata": "Q668687", "ref": "3611600025"}, "type": "Feature"}
{"geometry": {"coordinates": [-86.2372624, 32.328215], "type": "Point"}, "id": "PAT8VsN1SWatBD0tga8VHzzt3nw=", "properties": {"@source_uri": "https://tools.usps.com/UspsToolsRestServices/rest/POLocator/findLocations", "@spider": "usps_collection_boxes", "addr:city": "MONTGOMERY", "addr:country": "US", "addr:full": "3390 EASTERN BLVD", "addr:postcode": "36116", "addr:state": "AL", "amenity": "post_box", "brand": "United States Postal Service", "brand:wikidata": "Q668687", "collection_times": "Mo-Fr 09:30; Sa 10:00", "nsi_id": "unitedstatespostalservice-a77078", "operator": "United States Postal Service", "operator:short": "USPS", "operator:type": "public", "operator:wikidata": "Q668687", "ref": "3611600033"}, "type": "Feature"}
{"geometry": {"coordinates": [-86.2813622, 32.322292], "type": "Point"}, "id": "3aa-0fyFw2MoPheq9oI3gvsAiZg=", "properties": {"@source_uri": "https://tools.usps.com/UspsToolsRestServices/rest/POLocator/findLocations", "@spider": "usps_collection_boxes", "addr:city": "MONTGOMERY", "addr:country": "US", "addr:full": "4401 NARROW LANE RD", "addr:postcode": "36116", "addr:state": "AL", "amenity": "post_box", "brand": "United States Postal Service", "brand:wikidata": "Q668687", "collection_times": "Mo-Sa 10:00", "nsi_id": "unitedstatespostalservice-a77078", "operator": "United States Postal Service", "operator:short": "USPS", "operator:type": "public", "operator:wikidata": "Q668687", "ref": "3611600034"}, "type": "Feature"}
{"geometry": {"coordinates": [-86.2339153, 32.326362], "type": "Point"}, "id": "84daPtTJhfowYkTefNBFJJRoRzU=", "properties": {"@source_uri": "https://tools.usps.com/UspsToolsRestServices/rest/POLocator/findLocations", "@spider": "usps_collection_boxes", "addr:city": "MONTGOMERY", "addr:country": "US", "addr:full": "3801 EASTERN BLVD", "addr:postcode": "36116", "addr:state": "AL", "amenity": "post_box", "brand": "United States Postal Service", "brand:wikidata": "Q668687", "collection_times": "Mo-Fr 09:30; Sa 11:00", "nsi_id": "unitedstatespostalservice-a77078", "operator": "United States Postal Service", "operator:short": "USPS", "operator:type": "public", "operator:wikidata": "Q668687", "ref": "3611600035"}, "type": "Feature"}
{"geometry": {"coordinates": [-86.2547274, 32.326037], "type": "Point"}, "id": "XHNztdZ2tpBfAgSDW3aDPyspBtE=", "properties": {"@source_uri": "https://tools.usps.com/UspsToolsRestServices/rest/POLocator/findLocations", "@spider": "usps_collection_boxes", "addr:city": "MONTGOMERY", "addr:country": "US", "addr:full": "2921 MARTI LN", "addr:postcode": "36116", "addr:state": "AL", "amenity": "post_box", "brand": "United States Postal Service", "brand:wikidata": "Q668687", "collection_times": "Mo-Sa 10:00", "nsi_id": "unitedstatespostalservice-a77078", "operator": "United States Postal Service", "operator:short": "USPS", "operator:type": "public", "operator:wikidata": "Q668687", "ref": "3611600038"}, "type": "Feature"}
{"geometry": {"coordinates": [-86.2659247, 32.325869], "type": "Point"}, "id": "iCx6S0Qe7yeiytnoIUzvhSaCpkI=", "properties": {"@source_uri": "https://tools.usps.com/UspsToolsRestServices/rest/POLocator/findLocations", "@spider": "usps_collection_boxes", "addr:city": "MONTGOMERY", "addr:country": "US", "addr:full": "2270 E SOUTH BLVD", "addr:postcode": "36116", "addr:state": "AL", "amenity": "post_box", "brand": "United States Postal Service", "brand:wikidata": "Q668687", "collection_times": "Mo-Sa 10:00", "nsi_id": "unitedstatespostalservice-a77078", "operator": "United States Postal Service", "operator:short": "USPS", "operator:type": "public", "operator:wikidata": "Q668687", "ref": "3611600040"}, "type": "Feature"}
{"geometry": {"coordinates": [-86.2092959, 32.30307], "type": "Point"}, "id": "eQR_lSP0n-2EcOqgKDC7U2Qgzjo=", "properties": {"@source_uri": "https://tools.usps.com/UspsToolsRestServices/rest/POLocator/findLocations", "@spider": "usps_collection_boxes", "addr:city": "MONTGOMERY", "addr:country": "US", "addr:full": "6030 PERIMETER PKWY", "addr:postcode": "36116", "addr:state": "AL", "amenity": "post_box", "brand": "United States Postal Service", "brand:wikidata": "Q668687", "collection_times": "Mo-Fr 10:30; Sa 10:00", "nsi_id": "unitedstatespostalservice-a77078", "operator": "United States Postal Service", "operator:short": "USPS", "operator:type": "public", "operator:wikidata": "Q668687", "ref": "3611600046"}, "type": "Feature"}
{"geometry": {"coordinates": [-86.1720664, 32.3392], "type": "Point"}, "id": "n3SX0z4BYdREAsX9HSDLN-0KsSc=", "properties": {"@source_uri": "https://tools.usps.com/UspsToolsRestServices/rest/POLocator/findLocations", "@spider": "usps_collection_boxes", "addr:city": "MONTGOMERY", "addr:country": "US", "addr:full": "8157 VAUGHN RD", "addr:postcode": "36116", "addr:state": "AL", "amenity": "post_box", "brand": "United States Postal Service", "brand:wikidata": "Q668687", "collection_times": "Mo-Sa 11:45", "nsi_id": "unitedstatespostalservice-a77078", "operator": "United States Postal Service", "operator:short": "USPS", "operator:type": "public", "operator:wikidata": "Q668687", "ref": "3611600047"}, "type": "Feature"}
{"geometry": {"coordinates": [-86.1781533, 32.338181], "type": "Point"}, "id": "m6vTRe5RCzdx-HTH64IWcjFtKFA=", "properties": {"@source_uri": "https://tools.usps.com/UspsToolsRestServices/rest/POLocator/findLocations", "@spider": "usps_collection_boxes", "addr:city": "MONTGOMERY", "addr:country": "US", "addr:full": "7928 VAUGHN RD", "addr:postcode": "36116", "addr:state": "AL", "amenity": "post_box", "brand": "United States Postal Service", "brand:wikidata": "Q668687", "collection_times": "Mo-Sa 11:30", "nsi_id": "unitedstatespostalservice-a77078", "operator": "United States Postal Service", "operator:short": "USPS", "operator:type": "public", "operator:wikidata": "Q668687", "ref": "3611600048"}, "type": "Feature"}
{"geometry": {"coordinates": [-86.1781587, 32.338182], "type": "Point"}, "id": "0KSegGpOztD75b1Nbg5zxiqaIlA=", "properties": {"@source_uri": "https://tools.usps.com/UspsToolsRestServices/rest/POLocator/findLocations", "@spider": "usps_collection_boxes", "addr:city": "MONTGOMERY", "addr:country": "US", "addr:full": "7928 VAUGHN RD", "addr:postcode": "36116", "addr:state": "AL", "amenity": "post_box", "brand": "United States Postal Service", "brand:wikidata": "Q668687", "collection_times": "Mo-Sa 11:30", "nsi_id": "unitedstatespostalservice-a77078", "operator": "United States Postal Service", "operator:short": "USPS", "operator:type": "public", "operator:wikidata": "Q668687", "ref": "3611600049"}, "type": "Feature"}
{"geometry": {"coordinates": [-86.226271, 32.338592], "type": "Point"}, "id": "uL8O-yQwBFCXp5XhkcFerYsLOpk=", "properties": {"@source_uri": "https://tools.usps.com/UspsToolsRestServices/rest/POLocator/findLocations", "@spider": "usps_collection_boxes", "addr:city": "MONTGOMERY", "addr:country": "US", "addr:full": "5600 CARRIAGE HILLS DR", "addr:postcode": "36116", "addr:state": "AL", "amenity": "post_box", "brand": "United States Postal Service", "brand:wikidata": "Q668687", "collection_times": "Mo-Fr 15:45; Sa 10:00", "note": "ON 12/24 AND 12/31, THIS BOX MAY BE COLLECTED AS EARLY AS 12 NOON.", "nsi_id": "unitedstatespostalservice-a77078", "operator": "United States Postal Service", "operator:short": "USPS", "operator:type": "public", "operator:wikidata": "Q668687", "ref": "3611600055"}, "type": "Feature"}
{"geometry": {"coordinates": [-86.2501195, 32.328868], "type": "Point"}, "id": "4GX336ZAw2-GhQDMdLSYeWY2IQ4=", "properties": {"@source_uri": "https://tools.usps.com/UspsToolsRestServices/rest/POLocator/findLocations", "@spider": "usps_collection_boxes", "addr:city": "MONTGOMERY", "addr:country": "US", "addr:full": "2837 E SOUTH BLVD", "addr:postcode": "36116", "addr:state": "AL", "amenity": "post_box", "brand": "United States Postal Service", "brand:wikidata": "Q668687", "collection_times": "Mo-Fr 17:00; Sa 15:00", "indoor": "yes", "note": "ON 12/24 AND 12/31, THIS BOX MAY BE COLLECTED AS EARLY AS 12 NOON.", "nsi_id": "unitedstatespostalservice-a77078", "operator": "United States Postal Service", "operator:short": "USPS", "operator:type": "public", "operator:wikidata": "Q668687", "ref": "3611600059"}, "type": "Feature"}
{"geometry": {"coordinates": [-86.249413232, 32.327467575], "type": "Point"}, "id": "bewlTFqQPJFE2Eym-Y3NPyXauUs=", "properties": {"@source_uri": "https://tools.usps.com/UspsToolsRestServices/rest/POLocator/findLocations", "@spider": "usps_collection_boxes", "addr:city": "MONTGOMERY", "addr:country": "US", "addr:full": "2837 E SOUTH BLVD", "addr:postcode": "36116", "addr:state": "AL", "amenity": "post_box", "brand": "United States Postal Service", "brand:wikidata": "Q668687", "collection_times": "Mo-Fr 17:00; Sa 13:00", "indoor": "yes", "note": "ON 12/24 AND 12/31, THIS BOX MAY BE COLLECTED AS EARLY AS 12 NOON.", "nsi_id": "unitedstatespostalservice-a77078", "operator": "United States Postal Service", "operator:short": "USPS", "operator:type": "public", "operator:wikidata": "Q668687", "ref": "3611600066"}, "type": "Feature"}
{"geometry": {"coordinates": [-86.1952599, 32.340691], "type": "Point"}, "id": "awbYii4w_7WhwICBvlc_twOIwJ8=", "properties": {"@source_uri": "https://tools.usps.com/UspsToolsRestServices/rest/POLocator/findLocations", "@spider": "usps_collection_boxes", "addr:city": "MONTGOMERY", "addr:country": "US", "addr:full": "2701 BELL RD", "addr:postcode": "36117", "addr:state": "AL", "amenity": "post_box", "brand": "United States Postal Service", "brand:wikidata": "Q668687", "collection_times": "Mo-Sa 13:00", "note": "ON 12/24 AND 12/31, THIS BOX MAY BE COLLECTED AS EARLY AS 12 NOON.", "nsi_id": "unitedstatespostalservice-a77078", "operator": "United States Postal Service", "operator:short": "USPS", "operator:type": "public", "operator:wikidata": "Q668687", "ref": "3611700006"}, "type": "Feature"}
{"geometry": {"coordinates": [-86.1952569, 32.340688], "type": "Point"}, "id": "Neb0Bqm7XmqWzmepRASN2r6X62Y=", "properties": {"@source_uri": "https://tools.usps.com/UspsToolsRestServices/rest/POLocator/findLocations", "@spider": "usps_collection_boxes", "addr:city": "MONTGOMERY", "addr:country": "US", "addr:full": "2701 BELL RD", "addr:postcode": "36117", "addr:state": "AL", "amenity": "post_box", "brand": "United States Postal Service", "brand:wikidata": "Q668687", "collection_times": "Mo-Sa 13:00", "note": "ON 12/24 AND 12/31, THIS BOX MAY BE COLLECTED AS EARLY AS 12 NOON.", "nsi_id": "unitedstatespostalservice-a77078", "operator": "United States Postal Service", "operator:short": "USPS", "operator:type": "public", "operator:wikidata": "Q668687", "ref": "3611700007"}, "type": "Feature"}
{"geometry": {"coordinates": [-86.2189978, 32.350836], "type": "Point"}, "id": "_zl2T4aDxk1xjQ5kPCo8Wi2yAOw=", "properties": {"@source_uri": "https://tools.usps.com/UspsToolsRestServices/rest/POLocator/findLocations", "@spider": "usps_collection_boxes", "addr:city": "MONTGOMERY", "addr:country": "US", "addr:full": "1 ARBOR STATION RD", "addr:postcode": "36117", "addr:state": "AL", "amenity": "post_box", "brand": "United States Postal Service", "brand:wikidata": "Q668687", "collection_times": "Mo-Fr 11:00", "nsi_id": "unitedstatespostalservice-a77078", "operator": "United States Postal Service", "operator:short": "USPS", "operator:type": "public", "operator:wikidata": "Q668687", "ref": "3611700012"}, "type": "Feature"}
{"geometry": {"coordinates": [-86.2036834, 32.373174], "type": "Point"}, "id": "VjPcvmfVo2vByyfU1i1lEjp29xI=", "properties": {"@source_uri": "https://tools.usps.com/UspsToolsRestServices/rest/POLocator/findLocations", "@spider": "usps_collection_boxes", "addr:city": "MONTGOMERY", "addr:country": "US", "addr:full": "500 EASTDALE RD S", "addr:postcode": "36117", "addr:state": "AL", "amenity": "post_box", "brand": "United States Postal Service", "brand:wikidata": "Q668687", "collection_times": "Mo-Sa 11:00", "nsi_id": "unitedstatespostalservice-a77078", "operator": "United States Postal Service", "operator:short": "USPS", "operator:type": "public", "operator:wikidata": "Q668687", "ref": "3611700014"}, "type": "Feature"}
{"geometry": {"coordinates": [-86.204239, 32.370202], "type": "Point"}, "id": "Fsp-eyhvLWIvuiUi5RRlIUMbiUY=", "properties": {"@source_uri": "https://tools.usps.com/UspsToolsRestServices/rest/POLocator/findLocations", "@spider": "usps_collection_boxes", "addr:city": "MONTGOMERY", "addr:country": "US", "addr:full": "5701 E SHIRLEY LN", "addr:postcode": "36117", "addr:state": "AL", "amenity": "post_box", "brand": "United States Postal Service", "brand:wikidata": "Q668687", "collection_times": "Mo-Sa 11:00", "nsi_id": "unitedstatespostalservice-a77078", "operator": "United States Postal Service", "operator:short": "USPS", "operator:type": "public", "operator:wikidata": "Q668687", "ref": "3611700024"}, "type": "Feature"}
{"geometry": {"coordinates": [-86.1934428, 32.383783], "type": "Point"}, "id": "uxo4bpJoOKUxcb7KDUO4jtKpl_o=", "properties": {"@source_uri": "https://tools.usps.com/UspsToolsRestServices/rest/POLocator/findLocations", "@spider": "usps_collection_boxes", "addr:city": "MONTGOMERY", "addr:country": "US", "addr:full": "155 SYLVEST DR", "addr:postcode": "36117", "addr:state": "AL", "amenity": "post_box", "brand": "United States Postal Service", "brand:wikidata": "Q668687", "collection_times": "Mo-Sa 14:30", "note": "ON 12/24 AND 12/31, THIS BOX MAY BE COLLECTED AS EARLY AS 12 NOON.", "nsi_id": "unitedstatespostalservice-a77078", "operator": "United States Postal Service", "operator:short": "USPS", "operator:type": "public", "operator:wikidata": "Q668687", "ref": "3611700025"}, "type": "Feature"}
{"geometry": {"coordinates": [-86.2105699, 32.372115], "type": "Point"}, "id": "VcX83RRysS6roDOgv_XwJsfb64M=", "properties": {"@source_uri": "https://tools.usps.com/UspsToolsRestServices/rest/POLocator/findLocations", "@spider": "usps_collection_boxes", "addr:city": "MONTGOMERY", "addr:country": "US", "addr:full": "500 EASTERN BLVD", "addr:postcode": "36117", "addr:state": "AL", "amenity": "post_box", "brand": "United States Postal Service", "brand:wikidata": "Q668687", "collection_times": "Mo-Sa 13:30", "note": "ON 12/24 AND 12/31, THIS BOX MAY BE COLLECTED AS EARLY AS 12 NOON.", "nsi_id": "unitedstatespostalservice-a77078", "operator": "United States Postal Service", "operator:short": "USPS", "operator:type": "public", "operator:wikidata": "Q668687", "ref": "3611700027"}, "type": "Feature"}
{"geometry": {"coordinates": [-86.1996506, 32.37937], "type": "Point"}, "id": "cz3aCkYLEOFQjquXqm66R-CPn1o=", "properties": {"@source_uri": "https://tools.usps.com/UspsToolsRestServices/rest/POLocator/findLocations", "@spider": "usps_collection_boxes", "addr:city": "MONTGOMERY", "addr:country": "US", "addr:full": "101 S BURBANK DR", "addr:postcode": "36117", "addr:state": "AL", "amenity": "post_box", "brand": "United States Postal Service", "brand:wikidata": "Q668687", "collection_times": "Mo-Sa 11:00", "nsi_id": "unitedstatespostalservice-a77078", "operator": "United States Postal Service", "operator:short": "USPS", "operator:type": "public", "operator:wikidata": "Q668687", "ref": "3611700034"}, "type": "Feature"}
{"geometry": {"coordinates": [-86.1286099, 32.369512], "type": "Point"}, "id": "ApOGWZuOaiaRPqlTZ4q2IakbhqA=", "properties": {"@source_uri": "https://tools.usps.com/UspsToolsRestServices/rest/POLocator/findLocations", "@spider": "usps_collection_boxes", "addr:city": "MONTGOMERY", "addr:country": "US", "addr:full": "75 TECHNACENTER DR", "addr:postcode": "36117", "addr:state": "AL", "amenity": "post_box", "brand": "United States Postal Service", "brand:wikidata": "Q668687", "collection_times": "Mo-Fr 11:00", "nsi_id": "unitedstatespostalservice-a77078", "operator": "United States Postal Service", "operator:short": "USPS", "operator:type": "public", "operator:wikidata": "Q668687", "ref": "3611700044"}, "type": "Feature"}
{"geometry": {"coordinates": [-86.1286119, 32.369521], "type": "Point"}, "id": "nsa6FZtpLNGoKXhANLSe9mQ8XKg=", "properties": {"@source_uri": "https://tools.usps.com/UspsToolsRestServices/rest/POLocator/findLocations", "@spider": "usps_collection_boxes", "addr:city": "MONTGOMERY", "addr:country": "US", "addr:full": "75 TECHNACENTER DR", "addr:postcode": "36117", "addr:state": "AL", "amenity": "post_box", "brand": "United States Postal Service", "brand:wikidata": "Q668687", "collection_times": "Mo-Fr 11:00", "nsi_id": "unitedstatespostalservice-a77078", "operator": "United States Postal Service", "operator:short": "USPS", "operator:type": "public", "operator:wikidata": "Q668687", "ref": "3611700045"}, "type": "Feature"}
{"geometry": {"coordinates": [-86.2077012, 32.361153], "type": "Point"}, "id": "DJv3fwwQmFqQuXkUGf49QYRcdQ8=", "properties": {"@source_uri": "https://tools.usps.com/UspsToolsRestServices/rest/POLocator/findLocations", "@spider": "usps_collection_boxes", "addr:city": "MONTGOMERY", "addr:country": "US", "addr:full": "5675 CARMICHAEL PKWY", "addr:postcode": "36117", "addr:state": "AL", "amenity": "post_box", "brand": "United States Postal Service", "brand:wikidata": "Q668687", "collection_times": "Mo-Sa 12:00", "nsi_id": "unitedstatespostalservice-a77078", "operator": "United States Postal Service", "operator:short": "USPS", "operator:type": "public", "operator:wikidata": "Q668687", "ref": "3611700046"}, "type": "Feature"}
{"geometry": {"coordinates": [-86.2077299, 32.361166], "type": "Point"}, "id": "5cvZ4iVu8iaIgKo7py295yYDX-Q=", "properties": {"@source_uri": "https://tools.usps.com/UspsToolsRestServices/rest/POLocator/findLocations", "@spider": "usps_collection_boxes", "addr:city": "MONTGOMERY", "addr:country": "US", "addr:full": "5675 CARMICHAEL PKWY", "addr:postcode": "36117", "addr:state": "AL", "amenity": "post_box", "brand": "United States Postal Service", "brand:wikidata": "Q668687", "collection_times": "Mo-Sa 11:00", "nsi_id": "unitedstatespostalservice-a77078", "operator": "United States Postal Service", "operator:short": "USPS", "operator:type": "public", "operator:wikidata": "Q668687", "ref": "3611700047"}, "type": "Feature"}
{"geometry": {"coordinates": [-86.179864, 32.377941], "type": "Point"}, "id": "xBuN1fG2JqVETfyHEcCKxpkvf-c=", "properties": {"@source_uri": "https://tools.usps.com/UspsToolsRestServices/rest/POLocator/findLocations", "@spider": "usps_collection_boxes", "addr:city": "MONTGOMERY", "addr:country": "US", "addr:full": "6701 WINTON BLOUNT BLVD", "addr:postcode": "36119", "addr:state": "AL", "amenity": "post_box", "brand": "United States Postal Service", "brand:wikidata": "Q668687", "collection_times": "Mo-Sa 19:30", "note": "ON 12/24 AND 12/31, THIS BOX MAY BE COLLECTED AS EARLY AS 12 NOON.", "nsi_id": "unitedstatespostalservice-a77078", "operator": "United States Postal Service", "operator:short": "USPS", "operator:type": "public", "operator:wikidata": "Q668687", "ref": "3611900001"}, "type": "Feature"}
{"geometry": {"coordinates": [-86.17997, 32.377913], "type": "Point"}, "id": "e8xd03ltywYAGBjDTxfVsplqfLw=", "properties": {"@source_uri": "https://tools.usps.com/UspsToolsRestServices/rest/POLocator/findLocations", "@spider": "usps_collection_boxes", "addr:city": "MONTGOMERY", "addr:country": "US", "addr:full": "6701 WINTON BLOUNT BLVD", "addr:postcode": "36119", "addr:state": "AL", "amenity": "post_box", "brand": "United States Postal Service", "brand:wikidata": "Q668687", "collection_times": "Mo-Sa 19:30", "note": "ON 12/24 AND 12/31, THIS BOX MAY BE COLLECTED AS EARLY AS 12 NOON.", "nsi_id": "unitedstatespostalservice-a77078", "operator": "United States Postal Service", "operator:short": "USPS", "operator:type": "public", "operator:wikidata": "Q668687", "ref": "3611900002"}, "type": "Feature"}
{"geometry": {"coordinates": [-86.17997, 32.377913], "type": "Point"}, "id": "ad2jqljsn-7gVrkl-6R_DGSrgEI=", "properties": {"@source_uri": "https://tools.usps.com/UspsToolsRestServices/rest/POLocator/findLocations", "@spider": "usps_collection_boxes", "addr:city": "MONTGOMERY", "addr:country": "US", "addr:full": "6701 WINTON BLOUNT BLVD", "addr:postcode": "36119", "addr:state": "AL", "amenity": "post_box", "brand": "United States Postal Service", "brand:wikidata": "Q668687", "collection_times": "Mo-Sa 19:30", "note": "ON 12/24 AND 12/31, THIS BOX MAY BE COLLECTED AS EARLY AS 12 NOON.", "nsi_id": "unitedstatespostalservice-a77078", "operator": "United States Postal Service", "operator:short": "USPS", "operator:type": "public", "operator:wikidata": "Q668687", "ref": "3611900003"}, "type": "Feature"}
{"geometry": {"coordinates": [-86.177825, 32.377925], "type": "Point"}, "id": "UH2G0MhiReYRj4kmErX2fGvHnBg=", "properties": {"@source_uri": "https://tools.usps.com/UspsToolsRestServices/rest/POLocator/findLocations", "@spider": "usps_collection_boxes", "addr:city": "MONTGOMERY", "addr:country": "US", "addr:full": "6701 WINTON BLOUNT BLVD", "addr:postcode": "36119", "addr:state": "AL", "amenity": "post_box", "brand": "United States Postal Service", "brand:wikidata": "Q668687", "collection_times": "Mo-Sa 19:30", "note": "ON 12/24 AND 12/31, THIS BOX MAY BE COLLECTED AS EARLY AS 12 NOON.", "nsi_id": "unitedstatespostalservice-a77078", "operator": "United States Postal Service", "operator:short": "USPS", "operator:type": "public", "operator:wikidata": "Q668687", "ref": "3611900004"}, "type": "Feature"}
{"geometry": {"coordinates": [-86.17997, 32.377913], "type": "Point"}, "id": "njQmMOprxAtodA0ggKaCqAE1dEo=", "properties": {"@source_uri": "https://tools.usps.com/UspsToolsRestServices/rest/POLocator/findLocations", "@spider": "usps_collection_boxes", "addr:city": "MONTGOMERY", "addr:country": "US", "addr:full": "6701 WINTON BLOUNT BLVD", "addr:postcode": "36119", "addr:state": "AL", "amenity": "post_box", "brand": "United States Postal Service", "brand:wikidata": "Q668687", "collection_times": "Mo-Sa 19:30", "indoor": "yes", "note": "ON 12/24 AND 12/31, THIS BOX MAY BE COLLECTED AS EARLY AS 12 NOON.", "nsi_id": "unitedstatespostalservice-a77078", "operator": "United States Postal Service", "operator:short": "USPS", "operator:type": "public", "operator:wikidata": "Q668687", "ref": "3611900007"}, "type": "Feature"}
{"geometry": {"coordinates": [-86.17997, 32.377913], "type": "Point"}, "id": "mvoBTB1KwaR36rdkxmwP5mwhDDg=", "properties": {"@source_uri": "https://tools.usps.com/UspsToolsRestServices/rest/POLocator/findLocations", "@spider": "usps_collection_boxes", "addr:city": "MONTGOMERY", "addr:country": "US", "addr:full": "6701 WINTON BLOUNT BLVD", "addr:postcode": "36119", "addr:state": "AL", "amenity": "post_box", "brand": "United States Postal Service", "brand:wikidata": "Q668687", "collection_times": "Mo-Sa 19:30", "indoor": "yes", "note": "ON 12/24 AND 12/31, THIS BOX MAY BE COLLECTED AS EARLY AS 12 NOON.", "nsi_id": "unitedstatespostalservice-a77078", "operator": "United States Postal Service", "operator:short": "USPS", "operator:type": "public", "operator:wikidata": "Q668687", "ref": "3611900008"}, "type": "Feature"}
{"geometry": {"coordinates": [-86.17997, 32.377913], "type": "Point"}, "id": "ApRazy1HcBxJXss6MQyz09TDj34=", "properties": {"@source_uri": "https://tools.usps.com/UspsToolsRestServices/rest/POLocator/findLocations", "@spider": "usps_collection_boxes", "addr:city": "MONTGOMERY", "addr:country": "US", "addr:full": "6701 WINTON BLOUNT BLVD", "addr:postcode": "36119", "addr:state": "AL", "amenity": "post_box", "brand": "United States Postal Service", "brand:wikidata": "Q668687", "collection_times": "Mo-Sa 19:30", "indoor": "yes", "note": "ON 12/24 AND 12/31, THIS BOX MAY BE COLLECTED AS EARLY AS 12 NOON.", "nsi_id": "unitedstatespostalservice-a77078", "operator": "United States Postal Service", "operator:short": "USPS", "operator:type": "public", "operator:wikidata": "Q668687", "ref": "3611900009"}, "type": "Feature"}
{"geometry": {"coordinates": [-86.17997, 32.377913], "type": "Point"}, "id": "JgOOnGXaTcPpBbx53hxtI4f5ZFg=", "properties": {"@source_uri": "https://tools.usps.com/UspsToolsRestServices/rest/POLocator/findLocations", "@spider": "usps_collection_boxes", "addr:city": "MONTGOMERY", "addr:country": "US", "addr:full": "6701 WINTON BLOUNT BLVD", "addr:postcode": "36119", "addr:state": "AL", "amenity": "post_box", "brand": "United States Postal Service", "brand:wikidata": "Q668687", "collection_times": "Mo-Sa 19:30", "name": "USPS COLLECTION BOX - APC", "note": "ON 12/24 AND 12/31, THIS BOX MAY BE COLLECTED AS EARLY AS 12 NOON.", "nsi_id": "unitedstatespostalservice-a77078", "operator": "United States Postal Service", "operator:short": "USPS", "operator:type": "public", "operator:wikidata": "Q668687", "ref": "3611900011"}, "type": "Feature"}
{"geometry": {"coordinates": [-86.177523777, 32.377951456], "type": "Point"}, "id": "qKsYLpTH_JrmgGQwJ3atPDwk2Yc=", "properties": {"@source_uri": "https://tools.usps.com/UspsToolsRestServices/rest/POLocator/findLocations", "@spider": "usps_collection_boxes", "addr:city": "MONTGOMERY", "addr:country": "US", "addr:full": "6701 WINTON BLOUNT BLVD", "addr:postcode": "36119", "addr:state": "AL", "amenity": "post_box", "brand": "United States Postal Service", "brand:wikidata": "Q668687", "collection_times": "Mo-Fr 18:00; Sa 12:00", "indoor": "yes", "note": "ON 12/24 AND 12/31, THIS BOX MAY BE COLLECTED AS EARLY AS 12 NOON.", "nsi_id": "unitedstatespostalservice-a77078", "operator": "United States Postal Service", "operator:short": "USPS", "operator:type": "public", "operator:wikidata": "Q668687", "ref": "3611900013"}, "type": "Feature"}
{"geometry": {"coordinates": [-86.241995, 32.422105], "type": "Point"}, "id": "Ypyyguz0EpN-qpQMmV2dTHlEaoo=", "properties": {"@source_uri": "https://tools.usps.com/UspsToolsRestServices/rest/POLocator/findLocations", "@spider": "usps_collection_boxes", "addr:city": "MONTGOMERY", "addr:country": "US", "addr:full": "560 GEORGE TODD DR", "addr:postcode": "36121", "addr:state": "AL", "amenity": "post_box", "brand": "United States Postal Service", "brand:wikidata": "Q668687", "collection_times": "Mo-Fr 17:00; Sa 16:00", "note": "ON 12/24 AND 12/31, THIS BOX MAY BE COLLECTED AS EARLY AS 12 NOON.", "nsi_id": "unitedstatespostalservice-a77078", "operator": "United States Postal Service", "operator:short": "USPS", "operator:type": "public", "operator:wikidata": "Q668687", "ref": "3612100003"}, "type": "Feature"}
{"geometry": {"coordinates": [-86.2095381, 32.398831], "type": "Point"}, "id": "m3alV5S06-Q8yN5BTgye53rt2uk=", "properties": {"@source_uri": "https://tools.usps.com/UspsToolsRestServices/rest/POLocator/findLocations", "@spider": "usps_collection_boxes", "addr:city": "MONTGOMERY", "addr:country": "US", "addr:full": "560 GEORGE TODD DR", "addr:postcode": "36121", "addr:state": "AL", "amenity": "post_box", "brand": "United States Postal Service", "brand:wikidata": "Q668687", "collection_times": "Mo-Fr 17:00; Sa 16:00", "indoor": "yes", "note": "ON 12/24 AND 12/31, THIS BOX MAY BE COLLECTED AS EARLY AS 12 NOON.", "nsi_id": "unitedstatespostalservice-a77078", "operator": "United States Postal Service", "operator:short": "USPS", "operator:type": "public", "operator:wikidata": "Q668687", "ref": "3612100006"}, "type": "Feature"}
{"geometry": {"coordinates": [-86.209991596, 32.39885438], "type": "Point"}, "id": "RIGFSr0QkKlVjvpaDI8vYl2Kkck=", "properties": {"@source_uri": "https://tools.usps.com/UspsToolsRestServices/rest/POLocator/findLocations", "@spider": "usps_collection_boxes", "addr:city": "MONTGOMERY", "addr:country": "US", "addr:full": "560 GEORGE TODD DR", "addr:postcode": "36121", "addr:state": "AL", "amenity": "post_box", "brand": "United States Postal Service", "brand:wikidata": "Q668687", "collection_times": "Mo-Fr 17:00", "indoor": "yes", "note": "ON 12/24 AND 12/31, THIS BOX MAY BE COLLECTED AS EARLY AS 12 NOON.", "nsi_id": "unitedstatespostalservice-a77078", "operator": "United States Postal Service", "operator:short": "USPS", "operator:type": "public", "operator:wikidata": "Q668687", "ref": "3612100008"}, "type": "Feature"}
{"geometry": {"coordinates": [-86.222173575, 32.348335479], "type": "Point"}, "id": "3ExwNIesG6ZAuvKZt3Cum-_WbRY=", "properties": {"@source_uri": "https://tools.usps.com/UspsToolsRestServices/rest/POLocator/findLocations", "@spider": "usps_collection_boxes", "addr:city": "MONTGOMERY", "addr:country": "US", "addr:full": "2500 EASTERN BLVD", "addr:postcode": "36123", "addr:state": "AL", "amenity": "post_box", "brand": "United States Postal Service", "brand:wikidata": "Q668687", "collection_times": "Mo-Fr 17:00; Sa 13:00", "indoor": "yes", "note": "ON 12/24 AND 12/31, THIS BOX MAY BE COLLECTED AS EARLY AS 12 NOON.", "nsi_id": "unitedstatespostalservice-a77078", "operator": "United States Postal Service", "operator:short": "USPS", "operator:type": "public", "operator:wikidata": "Q668687", "ref": "3612300001"}, "type": "Feature"}
