{"geometry": {"coordinates": [-85.832313, 33.273815], "type": "Point"}, "id": "MYYX_ZNQTvIruT4COINZqjpFg08=", "properties": {"@spider": "usps_collection_boxes", "addr:city": "ASHLAND", "addr:country": "US", "addr:full": "83280 HIGHWAY 9", "addr:postcode": "36251", "addr:state": "AL", "brand": "USPS", "collection_times": "Mo-Fr 16:00; Sa 11:00", "name": "USPS COLLECTION BOX - BLUE BOX", "note": "ON 12/24 AND 12/31, THIS BOX MAY BE COLLECTED AS EARLY AS 12 NOON.", "ref": "3625100000"}, "type": "Feature"}
{"geometry": {"coordinates": [-85.832313, 33.273815], "type": "Point"}, "id": "uLn8bk9RRwzMAsx-k2HbBo4t8Vs=", "properties": {"@spider": "usps_collection_boxes", "addr:city": "ASHLAND", "addr:country": "US", "addr:full": "83280 HIGHWAY 9", "addr:postcode": "36251", "addr:state": "AL", "brand": "USPS", "collection_times": "Mo-Fr 16:30; Sa 11:00", "name": "USPS COLLECTION BOX - PO LOBBY", "note": "ON 12/24 AND 12/31, THIS BOX MAY BE COLLECTED AS EARLY AS 12 NOON.", "ref": "3625100001"}, "type": "Feature"}
{"geometry": {"coordinates": [-85.832313, 33.273815], "type": "Point"}, "id": "8sLLSHEikx_kw9hETltUOOwEN-o=", "properties": {"@spider": "usps_collection_boxes", "addr:city": "ASHLAND", "addr:country": "US", "addr:full": "83280 HIGHWAY 9", "addr:postcode": "36251", "addr:state": "AL", "brand": "USPS", "collection_times": "Mo-Fr 16:30; Sa 11:00", "name": "USPS COLLECTION BOX - PO LOBBY", "note": "ON 12/24 AND 12/31, THIS BOX MAY BE COLLECTED AS EARLY AS 12 NOON.", "ref": "3625100003"}, "type": "Feature"}
{"geometry": {"coordinates": [-85.832321563, 33.2737702], "type": "Point"}, "id": "zRR8izt0-yYadRE84wyXVGi0Reg=", "properties": {"@spider": "usps_collection_boxes", "addr:city": "ASHLAND", "addr:country": "US", "addr:full": "83280 HIGHWAY 9", "addr:postcode": "36251", "addr:state": "AL", "brand": "USPS", "collection_times": "Mo-Fr 16:30; Sa 11:00", "name": "USPS COLLECTION BOX - PO LOBBY", "note": "ON 12/24 AND 12/31, THIS BOX MAY BE COLLECTED AS EARLY AS 12 NOON.", "ref": "3625100005"}, "type": "Feature"}
{"geometry": {"coordinates": [-85.639926, 33.053052], "type": "Point"}, "id": "JtGrnCwx56TeUnBWDbkBEmvcL78=", "properties": {"@spider": "usps_collection_boxes", "addr:city": "DAVISTON", "addr:country": "US", "addr:full": "22960 HIGHWAY 22 E", "addr:postcode": "36256", "addr:state": "AL", "brand": "USPS", "collection_times": "Mo-Fr 15:45; Sa 11:00", "name": "USPS COLLECTION BOX - BLUE BOX", "note": "ON 12/24 AND 12/31, THIS BOX MAY BE COLLECTED AS EARLY AS 12 NOON.", "ref": "3625600000"}, "type": "Feature"}
{"geometry": {"coordinates": [-85.639926, 33.053052], "type": "Point"}, "id": "Yb598_jwIfPbUmHbQ7HLT35yi64=", "properties": {"@spider": "usps_collection_boxes", "addr:city": "DAVISTON", "addr:country": "US", "addr:full": "22960 HIGHWAY 22 E", "addr:postcode": "36256", "addr:state": "AL", "brand": "USPS", "collection_times": "Mo-Fr 15:45; Sa 11:00", "name": "USPS COLLECTION BOX - PO LOBBY", "note": "ON 12/24 AND 12/31, THIS BOX MAY BE COLLECTED AS EARLY AS 12 NOON.", "ref": "3625600001"}, "type": "Feature"}
{"geometry": {"coordinates": [-85.639908174, 33.053001842], "type": "Point"}, "id": "rATiES0i1FVjbh601PEgLAlvBzo=", "properties": {"@spider": "usps_collection_boxes", "addr:city": "DAVISTON", "addr:country": "US", "addr:full": "22960 HIGHWAY 22 E", "addr:postcode": "36256", "addr:state": "AL", "brand": "USPS", "collection_times": "Mo-Fr 16:00; Sa 11:00", "name": "USPS COLLECTION BOX - PO LOBBY", "note": "ON 12/24 AND 12/31, THIS BOX MAY BE COLLECTED AS EARLY AS 12 NOON.", "ref": "3625600003"}, "type": "Feature"}
{"geometry": {"coordinates": [-85.564372, 33.120159], "type": "Point"}, "id": "vW6Ow3Bgyvzk0X-KGiGOfdENqS8=", "properties": {"@spider": "usps_collection_boxes", "addr:city": "WADLEY", "addr:country": "US", "addr:full": "150 MAIN ST", "addr:postcode": "36276", "addr:state": "AL", "brand": "USPS", "collection_times": "Mo-Fr 15:45; Sa 12:00", "name": "USPS COLLECTION BOX - BLUE BOX", "note": "ON 12/24 AND 12/31, THIS BOX MAY BE COLLECTED AS EARLY AS 12 NOON.", "ref": "3627600000"}, "type": "Feature"}
{"geometry": {"coordinates": [-85.564372, 33.120159], "type": "Point"}, "id": "B3kT2NIDbUGHCicOsbwBifWF81c=", "properties": {"@spider": "usps_collection_boxes", "addr:city": "WADLEY", "addr:country": "US", "addr:full": "150 MAIN ST", "addr:postcode": "36276", "addr:state": "AL", "brand": "USPS", "collection_times": "Mo-Fr 15:45; Sa 12:00", "name": "USPS COLLECTION BOX - PO LOBBY", "note": "ON 12/24 AND 12/31, THIS BOX MAY BE COLLECTED AS EARLY AS 12 NOON.", "ref": "3627600001"}, "type": "Feature"}
{"geometry": {"coordinates": [-85.564353264, 33.120142841], "type": "Point"}, "id": "qfR-5fCbOKl4N8JqVH8ouQxqT1E=", "properties": {"@spider": "usps_collection_boxes", "addr:city": "WADLEY", "addr:country": "US", "addr:full": "150 MAIN ST", "addr:postcode": "36276", "addr:state": "AL", "brand": "USPS", "collection_times": "Mo-Fr 16:00; Sa 12:00", "name": "USPS COLLECTION BOX - PO LOBBY", "note": "ON 12/24 AND 12/31, THIS BOX MAY BE COLLECTED AS EARLY AS 12 NOON.", "ref": "3627600003"}, "type": "Feature"}
