{"dataset_attributes": {"@spider": "usps_collection_boxes", "spider:collection_time": "2023-12-19T08:25:25.283853"}, "geometry": {"coordinates": [-85.404823904, 31.191749078], "type": "Point"}, "id": "CpnN-GTxD0O5NR60pktv0y8OODE=", "properties": {"@spider": "usps_collection_boxes", "addr:city": "TAYLOR", "addr:country": "US", "addr:full": "2214 ROSS CLARK CIR", "addr:postcode": "36301", "addr:state": "AL", "amenity": "post_box", "brand": "United States Postal Service", "brand:wikidata": "Q668687", "collection_times": "Mo-Fr 11:00; Sa 10:00", "name": "USPS COLLECTION BOX - BLUE BOX", "nsi_id": "unitedstatespostalservice-a77078", "operator": "United States Postal Service", "operator:short": "USPS", "operator:type": "public", "operator:wikidata": "Q668687", "ref": "3630100003"}, "type": "Feature"}
{"dataset_attributes": {"@spider": "usps_collection_boxes", "spider:collection_time": "2023-12-19T08:25:25.283853"}, "geometry": {"coordinates": [-85.388829691, 31.219271174], "type": "Point"}, "id": "5mYJFcrc_ZgaRQP3raYj5Wrjt_0=", "properties": {"@spider": "usps_collection_boxes", "addr:city": "TAYLOR", "addr:country": "US", "addr:full": "403 S APPLETREE ST", "addr:postcode": "36301", "addr:state": "AL", "amenity": "post_box", "brand": "United States Postal Service", "brand:wikidata": "Q668687", "collection_times": "Mo-Sa 12:00", "name": "USPS COLLECTION BOX - BLUE BOX", "nsi_id": "unitedstatespostalservice-a77078", "operator": "United States Postal Service", "operator:short": "USPS", "operator:type": "public", "operator:wikidata": "Q668687", "ref": "3630100007"}, "type": "Feature"}
{"dataset_attributes": {"@spider": "usps_collection_boxes", "spider:collection_time": "2023-12-19T08:25:25.283853"}, "geometry": {"coordinates": [-85.391980677, 31.223250681], "type": "Point"}, "id": "3kv4m8u6T3Xzsq_jYEOA6vhgaXc=", "properties": {"@spider": "usps_collection_boxes", "addr:city": "TAYLOR", "addr:country": "US", "addr:full": "119 S FOSTER ST", "addr:postcode": "36301", "addr:state": "AL", "amenity": "post_box", "brand": "United States Postal Service", "brand:wikidata": "Q668687", "collection_times": "Mo-Fr 15:00; Sa 10:00", "name": "USPS COLLECTION BOX - BLUE BOX", "note": "ON 12/24 AND 12/31, THIS BOX MAY BE COLLECTED AS EARLY AS 12 NOON.", "nsi_id": "unitedstatespostalservice-a77078", "operator": "United States Postal Service", "operator:short": "USPS", "operator:type": "public", "operator:wikidata": "Q668687", "ref": "3630100008"}, "type": "Feature"}
{"dataset_attributes": {"@spider": "usps_collection_boxes", "spider:collection_time": "2023-12-19T08:25:25.283853"}, "geometry": {"coordinates": [-85.398595105, 31.189930647], "type": "Point"}, "id": "NFwQAlSNC2iQPQ8nJTCpuErJ04w=", "properties": {"@spider": "usps_collection_boxes", "addr:city": "TAYLOR", "addr:country": "US", "addr:full": "2109 ROSS CLARK CIR", "addr:postcode": "36301", "addr:state": "AL", "amenity": "post_box", "brand": "United States Postal Service", "brand:wikidata": "Q668687", "collection_times": "Mo-Fr 14:00; Sa 10:30", "name": "USPS COLLECTION BOX - BLUE BOX", "note": "ON 12/24 AND 12/31, THIS BOX MAY BE COLLECTED AS EARLY AS 12 NOON.", "nsi_id": "unitedstatespostalservice-a77078", "operator": "United States Postal Service", "operator:short": "USPS", "operator:type": "public", "operator:wikidata": "Q668687", "ref": "3630100012"}, "type": "Feature"}
{"dataset_attributes": {"@spider": "usps_collection_boxes", "spider:collection_time": "2023-12-19T08:25:25.283853"}, "geometry": {"coordinates": [-85.375294827, 31.194826109], "type": "Point"}, "id": "Rw7BE1Bd0BuHeJ37ZrEXYahn-Sg=", "properties": {"@spider": "usps_collection_boxes", "addr:city": "TAYLOR", "addr:country": "US", "addr:full": "1699 ROSS CLARK CIR", "addr:postcode": "36301", "addr:state": "AL", "amenity": "post_box", "brand": "United States Postal Service", "brand:wikidata": "Q668687", "collection_times": "Mo-Sa 13:00", "name": "USPS COLLECTION BOX - BLUE BOX", "note": "ON 12/24 AND 12/31, THIS BOX MAY BE COLLECTED AS EARLY AS 12 NOON.", "nsi_id": "unitedstatespostalservice-a77078", "operator": "United States Postal Service", "operator:short": "USPS", "operator:type": "public", "operator:wikidata": "Q668687", "ref": "3630100015"}, "type": "Feature"}
{"dataset_attributes": {"@spider": "usps_collection_boxes", "spider:collection_time": "2023-12-19T08:25:25.283853"}, "geometry": {"coordinates": [-85.432219059, 31.222220029], "type": "Point"}, "id": "-JbVGlcv3L3HapUbFJNTyE2wxSo=", "properties": {"@spider": "usps_collection_boxes", "addr:city": "TAYLOR", "addr:country": "US", "addr:full": "2998 ROSS CLARK CIR", "addr:postcode": "36301", "addr:state": "AL", "amenity": "post_box", "brand": "United States Postal Service", "brand:wikidata": "Q668687", "collection_times": "Mo-Fr 13:00; Sa 12:00", "name": "USPS COLLECTION BOX - BLUE BOX", "note": "ON 12/24 AND 12/31, THIS BOX MAY BE COLLECTED AS EARLY AS 12 NOON.", "nsi_id": "unitedstatespostalservice-a77078", "operator": "United States Postal Service", "operator:short": "USPS", "operator:type": "public", "operator:wikidata": "Q668687", "ref": "3630100022"}, "type": "Feature"}
{"dataset_attributes": {"@spider": "usps_collection_boxes", "spider:collection_time": "2023-12-19T08:25:25.283853"}, "geometry": {"coordinates": [-85.413190778, 31.21475963], "type": "Point"}, "id": "vnajo-CVEfaeuI3yTFgCpIc7u74=", "properties": {"@spider": "usps_collection_boxes", "addr:city": "TAYLOR", "addr:country": "US", "addr:full": "1357 FORTNER ST", "addr:postcode": "36301", "addr:state": "AL", "amenity": "post_box", "brand": "United States Postal Service", "brand:wikidata": "Q668687", "collection_times": "Mo-Sa 15:00", "name": "USPS COLLECTION BOX - BLUE BOX", "note": "ON 12/24 AND 12/31, THIS BOX MAY BE COLLECTED AS EARLY AS 12 NOON.", "nsi_id": "unitedstatespostalservice-a77078", "operator": "United States Postal Service", "operator:short": "USPS", "operator:type": "public", "operator:wikidata": "Q668687", "ref": "3630100037"}, "type": "Feature"}
{"dataset_attributes": {"@spider": "usps_collection_boxes", "spider:collection_time": "2023-12-19T08:25:25.283853"}, "geometry": {"coordinates": [-85.404775115, 31.215918025], "type": "Point"}, "id": "LW7lXaVMDxvnmruEZJ-Zkzlehc0=", "properties": {"@spider": "usps_collection_boxes", "addr:city": "TAYLOR", "addr:country": "US", "addr:full": "1000 S EDGEWOOD DR", "addr:postcode": "36301", "addr:state": "AL", "amenity": "post_box", "brand": "United States Postal Service", "brand:wikidata": "Q668687", "collection_times": "Mo-Sa 12:00", "name": "USPS COLLECTION BOX - BLUE BOX", "nsi_id": "unitedstatespostalservice-a77078", "operator": "United States Postal Service", "operator:short": "USPS", "operator:type": "public", "operator:wikidata": "Q668687", "ref": "3630100040"}, "type": "Feature"}
{"dataset_attributes": {"@spider": "usps_collection_boxes", "spider:collection_time": "2023-12-19T08:25:25.283853"}, "geometry": {"coordinates": [-85.404395506, 31.226212186], "type": "Point"}, "id": "nOBW_yCSzG7RA3wwfRFcK2usAKc=", "properties": {"@spider": "usps_collection_boxes", "addr:city": "TAYLOR", "addr:country": "US", "addr:full": "1000 W MAIN ST", "addr:postcode": "36301", "addr:state": "AL", "amenity": "post_box", "brand": "United States Postal Service", "brand:wikidata": "Q668687", "collection_times": "Mo-Fr 14:00; Sa 12:00", "name": "USPS COLLECTION BOX - BLUE BOX", "note": "ON 12/24 AND 12/31, THIS BOX MAY BE COLLECTED AS EARLY AS 12 NOON.", "nsi_id": "unitedstatespostalservice-a77078", "operator": "United States Postal Service", "operator:short": "USPS", "operator:type": "public", "operator:wikidata": "Q668687", "ref": "3630100041"}, "type": "Feature"}
{"dataset_attributes": {"@spider": "usps_collection_boxes", "spider:collection_time": "2023-12-19T08:25:25.283853"}, "geometry": {"coordinates": [-85.416684763, 31.227968627], "type": "Point"}, "id": "Pz5cAfpMv-i1YonhBFDsCd2ey8M=", "properties": {"@spider": "usps_collection_boxes", "addr:city": "TAYLOR", "addr:country": "US", "addr:full": "1837 W MAIN ST", "addr:postcode": "36301", "addr:state": "AL", "amenity": "post_box", "brand": "United States Postal Service", "brand:wikidata": "Q668687", "collection_times": "Mo-Fr 15:00; Sa 14:00", "name": "USPS COLLECTION BOX - BLUE BOX", "note": "ON 12/24 AND 12/31, THIS BOX MAY BE COLLECTED AS EARLY AS 12 NOON.", "nsi_id": "unitedstatespostalservice-a77078", "operator": "United States Postal Service", "operator:short": "USPS", "operator:type": "public", "operator:wikidata": "Q668687", "ref": "3630100042"}, "type": "Feature"}
{"dataset_attributes": {"@spider": "usps_collection_boxes", "spider:collection_time": "2023-12-19T08:25:25.283853"}, "geometry": {"coordinates": [-85.398205265, 31.219487122], "type": "Point"}, "id": "IC0PgSNgNkE6ejIvXj-WKOhlnvM=", "properties": {"@spider": "usps_collection_boxes", "addr:city": "TAYLOR", "addr:country": "US", "addr:full": "279 FORTNER ST", "addr:postcode": "36301", "addr:state": "AL", "amenity": "post_box", "brand": "United States Postal Service", "brand:wikidata": "Q668687", "collection_times": "Mo-Fr 15:00; Sa 09:00", "name": "USPS COLLECTION BOX - BLUE BOX", "note": "ON 12/24 AND 12/31, THIS BOX MAY BE COLLECTED AS EARLY AS 12 NOON.", "nsi_id": "unitedstatespostalservice-a77078", "operator": "United States Postal Service", "operator:short": "USPS", "operator:type": "public", "operator:wikidata": "Q668687", "ref": "3630100048"}, "type": "Feature"}
{"dataset_attributes": {"@spider": "usps_collection_boxes", "spider:collection_time": "2023-12-19T08:25:25.283853"}, "geometry": {"coordinates": [-85.399179247, 31.187829593], "type": "Point"}, "id": "3Xv8Kkw6D6FkTudayzBCMLOiarc=", "properties": {"@spider": "usps_collection_boxes", "addr:city": "TAYLOR", "addr:country": "US", "addr:full": "30 TRILLIUM CIR", "addr:postcode": "36301", "addr:state": "AL", "amenity": "post_box", "brand": "United States Postal Service", "brand:wikidata": "Q668687", "collection_times": "Mo-Sa 10:30", "name": "USPS COLLECTION BOX - BLUE BOX", "nsi_id": "unitedstatespostalservice-a77078", "operator": "United States Postal Service", "operator:short": "USPS", "operator:type": "public", "operator:wikidata": "Q668687", "ref": "3630100050"}, "type": "Feature"}
{"dataset_attributes": {"@spider": "usps_collection_boxes", "spider:collection_time": "2023-12-19T08:25:25.283853"}, "geometry": {"coordinates": [-85.398828988, 31.187061897], "type": "Point"}, "id": "lrOQ64G15ibcDmWYnm9v8v8d6pE=", "properties": {"@spider": "usps_collection_boxes", "addr:city": "TAYLOR", "addr:country": "US", "addr:full": "17 TRILLIUM CIR", "addr:postcode": "36301", "addr:state": "AL", "amenity": "post_box", "brand": "United States Postal Service", "brand:wikidata": "Q668687", "collection_times": "Mo-Sa 10:30", "name": "USPS COLLECTION BOX - BLUE BOX", "nsi_id": "unitedstatespostalservice-a77078", "operator": "United States Postal Service", "operator:short": "USPS", "operator:type": "public", "operator:wikidata": "Q668687", "ref": "3630100051"}, "type": "Feature"}
{"dataset_attributes": {"@spider": "usps_collection_boxes", "spider:collection_time": "2023-12-19T08:25:25.283853"}, "geometry": {"coordinates": [-85.4046315, 31.177252538], "type": "Point"}, "id": "KA7g8TcVkVDtot8wr6kE2WpDrA8=", "properties": {"@spider": "usps_collection_boxes", "addr:city": "TAYLOR", "addr:country": "US", "addr:full": "401 W INEZ RD", "addr:postcode": "36301", "addr:state": "AL", "amenity": "post_box", "brand": "United States Postal Service", "brand:wikidata": "Q668687", "collection_times": "Mo-Sa 09:30", "name": "USPS COLLECTION BOX - BLUE BOX", "nsi_id": "unitedstatespostalservice-a77078", "operator": "United States Postal Service", "operator:short": "USPS", "operator:type": "public", "operator:wikidata": "Q668687", "ref": "3630100057"}, "type": "Feature"}
{"dataset_attributes": {"@spider": "usps_collection_boxes", "spider:collection_time": "2023-12-19T08:25:25.283853"}, "geometry": {"coordinates": [-85.431931928, 31.225951163], "type": "Point"}, "id": "YvTk36FmLy94x3EFIBqRMxSpb8s=", "properties": {"@spider": "usps_collection_boxes", "addr:city": "TAYLOR", "addr:country": "US", "addr:full": "3074 ROSS CLARK CIR", "addr:postcode": "36301", "addr:state": "AL", "amenity": "post_box", "brand": "United States Postal Service", "brand:wikidata": "Q668687", "collection_times": "Mo-Fr 13:00; Sa 12:00", "name": "USPS COLLECTION BOX - BLUE BOX", "note": "ON 12/24 AND 12/31, THIS BOX MAY BE COLLECTED AS EARLY AS 12 NOON.", "nsi_id": "unitedstatespostalservice-a77078", "operator": "United States Postal Service", "operator:short": "USPS", "operator:type": "public", "operator:wikidata": "Q668687", "ref": "3630100058"}, "type": "Feature"}
{"dataset_attributes": {"@spider": "usps_collection_boxes", "spider:collection_time": "2023-12-19T08:25:25.283853"}, "geometry": {"coordinates": [-85.36434533, 31.218529697], "type": "Point"}, "id": "z_JxxmQJgCUNW_7Lpv9eiSO_A8Q=", "properties": {"@spider": "usps_collection_boxes", "addr:city": "TAYLOR", "addr:country": "US", "addr:full": "1815 E MAIN ST", "addr:postcode": "36301", "addr:state": "AL", "amenity": "post_box", "brand": "United States Postal Service", "brand:wikidata": "Q668687", "collection_times": "Mo-Fr 15:00; Sa 11:30", "name": "USPS COLLECTION BOX - BLUE BOX", "note": "ON 12/24 AND 12/31, THIS BOX MAY BE COLLECTED AS EARLY AS 12 NOON.", "nsi_id": "unitedstatespostalservice-a77078", "operator": "United States Postal Service", "operator:short": "USPS", "operator:type": "public", "operator:wikidata": "Q668687", "ref": "3630100064"}, "type": "Feature"}
{"dataset_attributes": {"@spider": "usps_collection_boxes", "spider:collection_time": "2023-12-19T08:25:25.283853"}, "geometry": {"coordinates": [-85.426871894, 31.209861714], "type": "Point"}, "id": "nKB5f8UeUKzt9uFvq6tuCCUOWMw=", "properties": {"@spider": "usps_collection_boxes", "addr:city": "TAYLOR", "addr:country": "US", "addr:full": "2733 ROSS CLARK CIR", "addr:postcode": "36301", "addr:state": "AL", "amenity": "post_box", "brand": "United States Postal Service", "brand:wikidata": "Q668687", "collection_times": "Mo-Fr 12:00; Sa 11:00", "name": "USPS COLLECTION BOX - BLUE BOX", "nsi_id": "unitedstatespostalservice-a77078", "operator": "United States Postal Service", "operator:short": "USPS", "operator:type": "public", "operator:wikidata": "Q668687", "ref": "3630100065"}, "type": "Feature"}
{"dataset_attributes": {"@spider": "usps_collection_boxes", "spider:collection_time": "2023-12-19T08:25:25.283853"}, "geometry": {"coordinates": [-85.402023622, 31.178909462], "type": "Point"}, "id": "TSGvhUTngez_k38GfqNL2_1XK1M=", "properties": {"@spider": "usps_collection_boxes", "addr:city": "TAYLOR", "addr:country": "US", "addr:full": "3300 S OATES ST", "addr:postcode": "36301", "addr:state": "AL", "amenity": "post_box", "brand": "United States Postal Service", "brand:wikidata": "Q668687", "collection_times": "Mo-Fr 13:00; Sa 10:00", "name": "USPS COLLECTION BOX - BLUE BOX", "note": "ON 12/24 AND 12/31, THIS BOX MAY BE COLLECTED AS EARLY AS 12 NOON.", "nsi_id": "unitedstatespostalservice-a77078", "operator": "United States Postal Service", "operator:short": "USPS", "operator:type": "public", "operator:wikidata": "Q668687", "ref": "3630100069"}, "type": "Feature"}
{"dataset_attributes": {"@spider": "usps_collection_boxes", "spider:collection_time": "2023-12-19T08:25:25.283853"}, "geometry": {"coordinates": [-85.432514591, 31.223219074], "type": "Point"}, "id": "M-Lq8P6oeNvmTut2ymmvBYQ5okg=", "properties": {"@spider": "usps_collection_boxes", "addr:city": "TAYLOR", "addr:country": "US", "addr:full": "2999 ROSS CLARK CIR", "addr:postcode": "36301", "addr:state": "AL", "amenity": "post_box", "brand": "United States Postal Service", "brand:wikidata": "Q668687", "collection_times": "Mo-Fr 15:00; Sa 12:00", "name": "USPS COLLECTION BOX - BLUE BOX", "note": "ON 12/24 AND 12/31, THIS BOX MAY BE COLLECTED AS EARLY AS 12 NOON.", "nsi_id": "unitedstatespostalservice-a77078", "operator": "United States Postal Service", "operator:short": "USPS", "operator:type": "public", "operator:wikidata": "Q668687", "ref": "3630100072"}, "type": "Feature"}
{"dataset_attributes": {"@spider": "usps_collection_boxes", "spider:collection_time": "2023-12-19T08:25:25.283853"}, "geometry": {"coordinates": [-85.431811536, 31.219591347], "type": "Point"}, "id": "7ozCF3v9q9tuTfW-6fJRIqbD_Ik=", "properties": {"@spider": "usps_collection_boxes", "addr:city": "TAYLOR", "addr:country": "US", "addr:full": "2942 ROSS CLARK CIR", "addr:postcode": "36301", "addr:state": "AL", "amenity": "post_box", "brand": "United States Postal Service", "brand:wikidata": "Q668687", "collection_times": "Mo-Fr 13:00; Sa 12:00", "name": "USPS COLLECTION BOX - BLUE BOX", "note": "ON 12/24 AND 12/31, THIS BOX MAY BE COLLECTED AS EARLY AS 12 NOON.", "nsi_id": "unitedstatespostalservice-a77078", "operator": "United States Postal Service", "operator:short": "USPS", "operator:type": "public", "operator:wikidata": "Q668687", "ref": "3630100073"}, "type": "Feature"}
{"dataset_attributes": {"@spider": "usps_collection_boxes", "spider:collection_time": "2023-12-19T08:25:25.283853"}, "geometry": {"coordinates": [-85.398921106, 31.177455328], "type": "Point"}, "id": "AQPgFcvqfDpfDinxQvB-4wvERY8=", "properties": {"@spider": "usps_collection_boxes", "addr:city": "TAYLOR", "addr:country": "US", "addr:full": "1378 HODGESVILLE RD", "addr:postcode": "36301", "addr:state": "AL", "amenity": "post_box", "brand": "United States Postal Service", "brand:wikidata": "Q668687", "collection_times": "Mo-Fr 11:00", "name": "USPS COLLECTION BOX - BLUE BOX", "nsi_id": "unitedstatespostalservice-a77078", "operator": "United States Postal Service", "operator:short": "USPS", "operator:type": "public", "operator:wikidata": "Q668687", "ref": "3630100075"}, "type": "Feature"}
{"dataset_attributes": {"@spider": "usps_collection_boxes", "spider:collection_time": "2023-12-19T08:25:25.283853"}, "geometry": {"coordinates": [-85.392339109, 31.208841133], "type": "Point"}, "id": "Jm6bHhZQxf7857fElXbL_gRsdrc=", "properties": {"@spider": "usps_collection_boxes", "addr:city": "TAYLOR", "addr:country": "US", "addr:full": "112 W COTTONWOOD RD", "addr:postcode": "36301", "addr:state": "AL", "amenity": "post_box", "brand": "United States Postal Service", "brand:wikidata": "Q668687", "collection_times": "Mo-Fr 15:00", "name": "USPS COLLECTION BOX - BLUE BOX", "note": "ON 12/24 AND 12/31, THIS BOX MAY BE COLLECTED AS EARLY AS 12 NOON.", "nsi_id": "unitedstatespostalservice-a77078", "operator": "United States Postal Service", "operator:short": "USPS", "operator:type": "public", "operator:wikidata": "Q668687", "ref": "3630100076"}, "type": "Feature"}
{"dataset_attributes": {"@spider": "usps_collection_boxes", "spider:collection_time": "2023-12-19T08:25:25.283853"}, "geometry": {"coordinates": [-85.423031612, 31.228290506], "type": "Point"}, "id": "JDqbA3tkFtt6y8KFqUk5hHgGJUc=", "properties": {"@spider": "usps_collection_boxes", "addr:city": "TAYLOR", "addr:country": "US", "addr:full": "2323 W MAIN ST", "addr:postcode": "36301", "addr:state": "AL", "amenity": "post_box", "brand": "United States Postal Service", "brand:wikidata": "Q668687", "collection_times": "Mo-Sa 10:00", "name": "USPS COLLECTION BOX - BLUE BOX", "nsi_id": "unitedstatespostalservice-a77078", "operator": "United States Postal Service", "operator:short": "USPS", "operator:type": "public", "operator:wikidata": "Q668687", "ref": "3630100078"}, "type": "Feature"}
{"dataset_attributes": {"@spider": "usps_collection_boxes", "spider:collection_time": "2023-12-19T08:25:25.283853"}, "geometry": {"coordinates": [-85.361422043, 31.21561606], "type": "Point"}, "id": "xKtPG9Ggzu3k_sF-f8DTR1lS93g=", "properties": {"@spider": "usps_collection_boxes", "addr:city": "TAYLOR", "addr:country": "US", "addr:full": "1108 ROSS CLARK CIR", "addr:postcode": "36301", "addr:state": "AL", "amenity": "post_box", "brand": "United States Postal Service", "brand:wikidata": "Q668687", "collection_times": "Mo-Fr 14:00; Sa 10:00", "name": "USPS COLLECTION BOX - BLUE BOX", "note": "ON 12/24 AND 12/31, THIS BOX MAY BE COLLECTED AS EARLY AS 12 NOON.", "nsi_id": "unitedstatespostalservice-a77078", "operator": "United States Postal Service", "operator:short": "USPS", "operator:type": "public", "operator:wikidata": "Q668687", "ref": "3630100080"}, "type": "Feature"}
{"dataset_attributes": {"@spider": "usps_collection_boxes", "spider:collection_time": "2023-12-19T08:25:25.283853"}, "geometry": {"coordinates": [-85.361422043, 31.21561606], "type": "Point"}, "id": "PhDLCwPuCQJvp6Shih7lmYaSB3A=", "properties": {"@spider": "usps_collection_boxes", "addr:city": "TAYLOR", "addr:country": "US", "addr:full": "1108 ROSS CLARK CIR", "addr:postcode": "36301", "addr:state": "AL", "amenity": "post_box", "brand": "United States Postal Service", "brand:wikidata": "Q668687", "collection_times": "Mo-Fr 14:00; Sa 10:00", "name": "USPS COLLECTION BOX - BLUE BOX", "note": "ON 12/24 AND 12/31, THIS BOX MAY BE COLLECTED AS EARLY AS 12 NOON.", "nsi_id": "unitedstatespostalservice-a77078", "operator": "United States Postal Service", "operator:short": "USPS", "operator:type": "public", "operator:wikidata": "Q668687", "ref": "3630100081"}, "type": "Feature"}
{"dataset_attributes": {"@spider": "usps_collection_boxes", "spider:collection_time": "2023-12-19T08:25:25.283853"}, "geometry": {"coordinates": [-85.432514591, 31.223219074], "type": "Point"}, "id": "UVddbC9gFNq37AKQhUvQW2VP4SA=", "properties": {"@spider": "usps_collection_boxes", "addr:city": "TAYLOR", "addr:country": "US", "addr:full": "2999 ROSS CLARK CIR", "addr:postcode": "36301", "addr:state": "AL", "amenity": "post_box", "brand": "United States Postal Service", "brand:wikidata": "Q668687", "collection_times": "Mo-Fr 15:00; Sa 12:00", "name": "USPS COLLECTION BOX - BLUE BOX", "note": "ON 12/24 AND 12/31, THIS BOX MAY BE COLLECTED AS EARLY AS 12 NOON.", "nsi_id": "unitedstatespostalservice-a77078", "operator": "United States Postal Service", "operator:short": "USPS", "operator:type": "public", "operator:wikidata": "Q668687", "ref": "3630100082"}, "type": "Feature"}
{"dataset_attributes": {"@spider": "usps_collection_boxes", "spider:collection_time": "2023-12-19T08:25:25.283853"}, "geometry": {"coordinates": [-85.400338051, 31.190411141], "type": "Point"}, "id": "5HvaWFCDFySZZpSROC41YnCU9UE=", "properties": {"@spider": "usps_collection_boxes", "addr:city": "TAYLOR", "addr:country": "US", "addr:full": "2190 ROSS CLARK CIR", "addr:postcode": "36301", "addr:state": "AL", "amenity": "post_box", "brand": "United States Postal Service", "brand:wikidata": "Q668687", "collection_times": "Mo-Sa 10:00", "name": "USPS COLLECTION BOX - BLUE BOX", "nsi_id": "unitedstatespostalservice-a77078", "operator": "United States Postal Service", "operator:short": "USPS", "operator:type": "public", "operator:wikidata": "Q668687", "ref": "3630100083"}, "type": "Feature"}
{"dataset_attributes": {"@spider": "usps_collection_boxes", "spider:collection_time": "2023-12-19T08:25:25.283853"}, "geometry": {"coordinates": [-85.469161462, 31.160861535], "type": "Point"}, "id": "MjP6Gpg_Wi9wT7tsYFjWYpBrW-o=", "properties": {"@spider": "usps_collection_boxes", "addr:city": "TAYLOR", "addr:country": "US", "addr:full": "1469 S STATE HIGHWAY 605", "addr:postcode": "36301", "addr:state": "AL", "amenity": "post_box", "brand": "United States Postal Service", "brand:wikidata": "Q668687", "collection_times": "Mo-Fr 11:30; Sa 11:00", "name": "USPS COLLECTION BOX - BLUE BOX", "nsi_id": "unitedstatespostalservice-a77078", "operator": "United States Postal Service", "operator:short": "USPS", "operator:type": "public", "operator:wikidata": "Q668687", "ref": "3630100085"}, "type": "Feature"}
{"dataset_attributes": {"@spider": "usps_collection_boxes", "spider:collection_time": "2023-12-19T08:25:25.283853"}, "geometry": {"coordinates": [-85.39398474, 31.227763412], "type": "Point"}, "id": "nDonhpdfGgqE7HsMC_lSbZtv7LA=", "properties": {"@spider": "usps_collection_boxes", "addr:city": "DOTHAN", "addr:country": "US", "addr:full": "379 N OATES ST", "addr:postcode": "36302", "addr:state": "AL", "amenity": "post_box", "brand": "United States Postal Service", "brand:wikidata": "Q668687", "collection_times": "Mo-Sa 17:00", "name": "USPS COLLECTION BOX - PO LOBBY", "note": "ON 12/24 AND 12/31, THIS BOX MAY BE COLLECTED AS EARLY AS 12 NOON.", "nsi_id": "unitedstatespostalservice-a77078", "operator": "United States Postal Service", "operator:short": "USPS", "operator:type": "public", "operator:wikidata": "Q668687", "ref": "3630200001"}, "type": "Feature"}
{"dataset_attributes": {"@spider": "usps_collection_boxes", "spider:collection_time": "2023-12-19T08:25:25.283853"}, "geometry": {"coordinates": [-85.39398474, 31.227763412], "type": "Point"}, "id": "5wRTcpbzs1lK_40xENCoDRu7JAs=", "properties": {"@spider": "usps_collection_boxes", "addr:city": "DOTHAN", "addr:country": "US", "addr:full": "379 N OATES ST", "addr:postcode": "36302", "addr:state": "AL", "amenity": "post_box", "brand": "United States Postal Service", "brand:wikidata": "Q668687", "collection_times": "Mo-Sa 17:00", "name": "USPS COLLECTION BOX - PO LOBBY", "note": "ON 12/24 AND 12/31, THIS BOX MAY BE COLLECTED AS EARLY AS 12 NOON.", "nsi_id": "unitedstatespostalservice-a77078", "operator": "United States Postal Service", "operator:short": "USPS", "operator:type": "public", "operator:wikidata": "Q668687", "ref": "3630200002"}, "type": "Feature"}
{"dataset_attributes": {"@spider": "usps_collection_boxes", "spider:collection_time": "2023-12-19T08:25:25.283853"}, "geometry": {"coordinates": [-85.39398474, 31.227763412], "type": "Point"}, "id": "rqoGg_Frib9DxL8ODBZrWSyy-MQ=", "properties": {"@spider": "usps_collection_boxes", "addr:city": "DOTHAN", "addr:country": "US", "addr:full": "379 N OATES ST", "addr:postcode": "36302", "addr:state": "AL", "amenity": "post_box", "brand": "United States Postal Service", "brand:wikidata": "Q668687", "collection_times": "Mo-Sa 17:00", "name": "USPS COLLECTION BOX - PO LOBBY", "note": "ON 12/24 AND 12/31, THIS BOX MAY BE COLLECTED AS EARLY AS 12 NOON.", "nsi_id": "unitedstatespostalservice-a77078", "operator": "United States Postal Service", "operator:short": "USPS", "operator:type": "public", "operator:wikidata": "Q668687", "ref": "3630200003"}, "type": "Feature"}
{"dataset_attributes": {"@spider": "usps_collection_boxes", "spider:collection_time": "2023-12-19T08:25:25.283853"}, "geometry": {"coordinates": [-85.39398474, 31.227763412], "type": "Point"}, "id": "o4iqn5I7NhO6MNS14m_FPvHUM6A=", "properties": {"@spider": "usps_collection_boxes", "addr:city": "DOTHAN", "addr:country": "US", "addr:full": "379 N OATES ST", "addr:postcode": "36302", "addr:state": "AL", "amenity": "post_box", "brand": "United States Postal Service", "brand:wikidata": "Q668687", "collection_times": "Mo-Sa 17:00", "name": "USPS COLLECTION BOX - PO LOBBY", "note": "ON 12/24 AND 12/31, THIS BOX MAY BE COLLECTED AS EARLY AS 12 NOON.", "nsi_id": "unitedstatespostalservice-a77078", "operator": "United States Postal Service", "operator:short": "USPS", "operator:type": "public", "operator:wikidata": "Q668687", "ref": "3630200004"}, "type": "Feature"}
{"dataset_attributes": {"@spider": "usps_collection_boxes", "spider:collection_time": "2023-12-19T08:25:25.283853"}, "geometry": {"coordinates": [-85.39398474, 31.227763412], "type": "Point"}, "id": "aTMT2LB2mcV2WzsUnbt-K4Lp8pI=", "properties": {"@spider": "usps_collection_boxes", "addr:city": "DOTHAN", "addr:country": "US", "addr:full": "379 N OATES ST", "addr:postcode": "36302", "addr:state": "AL", "amenity": "post_box", "brand": "United States Postal Service", "brand:wikidata": "Q668687", "collection_times": "Mo-Sa 17:00", "name": "USPS COLLECTION BOX - PO LOBBY", "note": "ON 12/24 AND 12/31, THIS BOX MAY BE COLLECTED AS EARLY AS 12 NOON.", "nsi_id": "unitedstatespostalservice-a77078", "operator": "United States Postal Service", "operator:short": "USPS", "operator:type": "public", "operator:wikidata": "Q668687", "ref": "3630200005"}, "type": "Feature"}
{"dataset_attributes": {"@spider": "usps_collection_boxes", "spider:collection_time": "2023-12-19T08:25:25.283853"}, "geometry": {"coordinates": [-85.39398474, 31.227763412], "type": "Point"}, "id": "_nTb7IGB2gnOsI7FBMwlZBJJ5WQ=", "properties": {"@spider": "usps_collection_boxes", "addr:city": "DOTHAN", "addr:country": "US", "addr:full": "379 N OATES ST", "addr:postcode": "36302", "addr:state": "AL", "amenity": "post_box", "brand": "United States Postal Service", "brand:wikidata": "Q668687", "collection_times": "Mo-Sa 17:00", "name": "USPS COLLECTION BOX - PO LOBBY", "note": "ON 12/24 AND 12/31, THIS BOX MAY BE COLLECTED AS EARLY AS 12 NOON.", "nsi_id": "unitedstatespostalservice-a77078", "operator": "United States Postal Service", "operator:short": "USPS", "operator:type": "public", "operator:wikidata": "Q668687", "ref": "3630200006"}, "type": "Feature"}
{"dataset_attributes": {"@spider": "usps_collection_boxes", "spider:collection_time": "2023-12-19T08:25:25.283853"}, "geometry": {"coordinates": [-85.39398474, 31.227763412], "type": "Point"}, "id": "QmUWlEsN-Kz-UZOTNxx8yTKrCFE=", "properties": {"@spider": "usps_collection_boxes", "addr:city": "DOTHAN", "addr:country": "US", "addr:full": "379 N OATES ST", "addr:postcode": "36302", "addr:state": "AL", "amenity": "post_box", "brand": "United States Postal Service", "brand:wikidata": "Q668687", "collection_times": "Mo-Fr 16:30; Sa 12:00", "name": "USPS COLLECTION BOX - PO LOBBY", "note": "ON 12/24 AND 12/31, THIS BOX MAY BE COLLECTED AS EARLY AS 12 NOON.", "nsi_id": "unitedstatespostalservice-a77078", "operator": "United States Postal Service", "operator:short": "USPS", "operator:type": "public", "operator:wikidata": "Q668687", "ref": "3630200008"}, "type": "Feature"}
{"dataset_attributes": {"@spider": "usps_collection_boxes", "spider:collection_time": "2023-12-19T08:25:25.283853"}, "geometry": {"coordinates": [-85.395250362, 31.228000498], "type": "Point"}, "id": "q_UywKayvspAkj323nDZ1guws1w=", "properties": {"@spider": "usps_collection_boxes", "addr:city": "DOTHAN", "addr:country": "US", "addr:full": "212 W BURDESHAW ST", "addr:postcode": "36303", "addr:state": "AL", "amenity": "post_box", "brand": "United States Postal Service", "brand:wikidata": "Q668687", "collection_times": "Mo-Sa 15:00", "name": "USPS COLLECTION BOX - BLUE BOX", "note": "ON 12/24 AND 12/31, THIS BOX MAY BE COLLECTED AS EARLY AS 12 NOON.", "nsi_id": "unitedstatespostalservice-a77078", "operator": "United States Postal Service", "operator:short": "USPS", "operator:type": "public", "operator:wikidata": "Q668687", "ref": "3630300003"}, "type": "Feature"}
{"dataset_attributes": {"@spider": "usps_collection_boxes", "spider:collection_time": "2023-12-19T08:25:25.283853"}, "geometry": {"coordinates": [-85.395250362, 31.228000498], "type": "Point"}, "id": "W9FelWqBleT4ShMUjW5BVeK7XPM=", "properties": {"@spider": "usps_collection_boxes", "addr:city": "DOTHAN", "addr:country": "US", "addr:full": "212 W BURDESHAW ST", "addr:postcode": "36303", "addr:state": "AL", "amenity": "post_box", "brand": "United States Postal Service", "brand:wikidata": "Q668687", "collection_times": "Mo-Sa 15:00", "name": "USPS COLLECTION BOX - BLUE BOX", "note": "ON 12/24 AND 12/31, THIS BOX MAY BE COLLECTED AS EARLY AS 12 NOON.", "nsi_id": "unitedstatespostalservice-a77078", "operator": "United States Postal Service", "operator:short": "USPS", "operator:type": "public", "operator:wikidata": "Q668687", "ref": "3630300004"}, "type": "Feature"}
{"dataset_attributes": {"@spider": "usps_collection_boxes", "spider:collection_time": "2023-12-19T08:25:25.283853"}, "geometry": {"coordinates": [-85.395250362, 31.228000498], "type": "Point"}, "id": "gOGpmRchqzqNLYXI3TlziaAT8Mc=", "properties": {"@spider": "usps_collection_boxes", "addr:city": "DOTHAN", "addr:country": "US", "addr:full": "212 W BURDESHAW ST", "addr:postcode": "36303", "addr:state": "AL", "amenity": "post_box", "brand": "United States Postal Service", "brand:wikidata": "Q668687", "collection_times": "Mo-Sa 15:00", "name": "USPS COLLECTION BOX - BLUE BOX", "note": "ON 12/24 AND 12/31, THIS BOX MAY BE COLLECTED AS EARLY AS 12 NOON.", "nsi_id": "unitedstatespostalservice-a77078", "operator": "United States Postal Service", "operator:short": "USPS", "operator:type": "public", "operator:wikidata": "Q668687", "ref": "3630300005"}, "type": "Feature"}
{"dataset_attributes": {"@spider": "usps_collection_boxes", "spider:collection_time": "2023-12-19T08:25:25.283853"}, "geometry": {"coordinates": [-85.439752805, 31.230589528], "type": "Point"}, "id": "AMHCpOE8MVs4Xc8LlJaU2W-4uWo=", "properties": {"@spider": "usps_collection_boxes", "addr:city": "DOTHAN", "addr:country": "US", "addr:full": "100 CASTLE DR", "addr:postcode": "36303", "addr:state": "AL", "amenity": "post_box", "brand": "United States Postal Service", "brand:wikidata": "Q668687", "collection_times": "Mo-Sa 09:00", "name": "USPS COLLECTION BOX - BLUE BOX", "nsi_id": "unitedstatespostalservice-a77078", "operator": "United States Postal Service", "operator:short": "USPS", "operator:type": "public", "operator:wikidata": "Q668687", "ref": "3630300018"}, "type": "Feature"}
{"dataset_attributes": {"@spider": "usps_collection_boxes", "spider:collection_time": "2023-12-19T08:25:25.283853"}, "geometry": {"coordinates": [-85.440927574, 31.23105535], "type": "Point"}, "id": "NLSCUep6Yh81S6q_yT_gwmeb0nI=", "properties": {"@spider": "usps_collection_boxes", "addr:city": "DOTHAN", "addr:country": "US", "addr:full": "100 KNIGHT CT", "addr:postcode": "36303", "addr:state": "AL", "amenity": "post_box", "brand": "United States Postal Service", "brand:wikidata": "Q668687", "collection_times": "Mo-Sa 09:00", "name": "USPS COLLECTION BOX - BLUE BOX", "nsi_id": "unitedstatespostalservice-a77078", "operator": "United States Postal Service", "operator:short": "USPS", "operator:type": "public", "operator:wikidata": "Q668687", "ref": "3630300019"}, "type": "Feature"}
{"dataset_attributes": {"@spider": "usps_collection_boxes", "spider:collection_time": "2023-12-19T08:25:25.283853"}, "geometry": {"coordinates": [-85.435633283, 31.242519714], "type": "Point"}, "id": "cqtED--ICIXtvhQl4m8vubkQKo0=", "properties": {"@spider": "usps_collection_boxes", "addr:city": "DOTHAN", "addr:country": "US", "addr:full": "671 WESTGATE PKWY", "addr:postcode": "36303", "addr:state": "AL", "amenity": "post_box", "brand": "United States Postal Service", "brand:wikidata": "Q668687", "collection_times": "Mo-Sa 09:00", "name": "USPS COLLECTION BOX - BLUE BOX", "nsi_id": "unitedstatespostalservice-a77078", "operator": "United States Postal Service", "operator:short": "USPS", "operator:type": "public", "operator:wikidata": "Q668687", "ref": "3630300020"}, "type": "Feature"}
{"dataset_attributes": {"@spider": "usps_collection_boxes", "spider:collection_time": "2023-12-19T08:25:25.283853"}, "geometry": {"coordinates": [-85.437805013, 31.243164545], "type": "Point"}, "id": "xO2NsJmmRlHcwX04dEyzojUxCKE=", "properties": {"@spider": "usps_collection_boxes", "addr:city": "DOTHAN", "addr:country": "US", "addr:full": "601 WHATLEY DR", "addr:postcode": "36303", "addr:state": "AL", "amenity": "post_box", "brand": "United States Postal Service", "brand:wikidata": "Q668687", "collection_times": "Mo-Sa 09:30", "name": "USPS COLLECTION BOX - BLUE BOX", "nsi_id": "unitedstatespostalservice-a77078", "operator": "United States Postal Service", "operator:short": "USPS", "operator:type": "public", "operator:wikidata": "Q668687", "ref": "3630300021"}, "type": "Feature"}
{"dataset_attributes": {"@spider": "usps_collection_boxes", "spider:collection_time": "2023-12-19T08:25:25.283853"}, "geometry": {"coordinates": [-85.431619929, 31.231213827], "type": "Point"}, "id": "wvJubqpjycmVw_UX8TIieN0yJD0=", "properties": {"@spider": "usps_collection_boxes", "addr:city": "DOTHAN", "addr:country": "US", "addr:full": "3116 ROSS CLARK CIR", "addr:postcode": "36303", "addr:state": "AL", "amenity": "post_box", "brand": "United States Postal Service", "brand:wikidata": "Q668687", "collection_times": "Mo-Fr 11:00; Sa 10:00", "name": "USPS COLLECTION BOX - BLUE BOX", "nsi_id": "unitedstatespostalservice-a77078", "operator": "United States Postal Service", "operator:short": "USPS", "operator:type": "public", "operator:wikidata": "Q668687", "ref": "3630300022"}, "type": "Feature"}
{"dataset_attributes": {"@spider": "usps_collection_boxes", "spider:collection_time": "2023-12-19T08:25:25.283853"}, "geometry": {"coordinates": [-85.389982475, 31.250595156], "type": "Point"}, "id": "fMjCWAgEw5hFxCGpHOxfYAK5vCQ=", "properties": {"@spider": "usps_collection_boxes", "addr:city": "DOTHAN", "addr:country": "US", "addr:full": "1924 REEVES ST", "addr:postcode": "36303", "addr:state": "AL", "amenity": "post_box", "brand": "United States Postal Service", "brand:wikidata": "Q668687", "collection_times": "Mo-Sa 10:00", "name": "USPS COLLECTION BOX - BLUE BOX", "nsi_id": "unitedstatespostalservice-a77078", "operator": "United States Postal Service", "operator:short": "USPS", "operator:type": "public", "operator:wikidata": "Q668687", "ref": "3630300029"}, "type": "Feature"}
{"dataset_attributes": {"@spider": "usps_collection_boxes", "spider:collection_time": "2023-12-19T08:25:25.283853"}, "geometry": {"coordinates": [-85.433846402, 31.256599636], "type": "Point"}, "id": "5Eb3zJEO7PGX-Qs6eOwl2laMrsc=", "properties": {"@spider": "usps_collection_boxes", "addr:city": "DOTHAN", "addr:country": "US", "addr:full": "1461 WESTGATE PKWY", "addr:postcode": "36303", "addr:state": "AL", "amenity": "post_box", "brand": "United States Postal Service", "brand:wikidata": "Q668687", "collection_times": "Mo-Sa 09:00", "name": "USPS COLLECTION BOX - BLUE BOX", "nsi_id": "unitedstatespostalservice-a77078", "operator": "United States Postal Service", "operator:short": "USPS", "operator:type": "public", "operator:wikidata": "Q668687", "ref": "3630300034"}, "type": "Feature"}
{"dataset_attributes": {"@spider": "usps_collection_boxes", "spider:collection_time": "2023-12-19T08:25:25.283853"}, "geometry": {"coordinates": [-85.427260753, 31.25127619], "type": "Point"}, "id": "0PEiP7uQvvTQO8kKpt8BNDJhQL4=", "properties": {"@spider": "usps_collection_boxes", "addr:city": "DOTHAN", "addr:country": "US", "addr:full": "3051 MONTGOMERY HWY", "addr:postcode": "36303", "addr:state": "AL", "amenity": "post_box", "brand": "United States Postal Service", "brand:wikidata": "Q668687", "collection_times": "Mo-Sa 12:00", "name": "USPS COLLECTION BOX - BLUE BOX", "nsi_id": "unitedstatespostalservice-a77078", "operator": "United States Postal Service", "operator:short": "USPS", "operator:type": "public", "operator:wikidata": "Q668687", "ref": "3630300036"}, "type": "Feature"}
{"dataset_attributes": {"@spider": "usps_collection_boxes", "spider:collection_time": "2023-12-19T08:25:25.283853"}, "geometry": {"coordinates": [-85.416810077, 31.252694995], "type": "Point"}, "id": "Ua8rwjByAL1g9CPaVVXAcpjzeIQ=", "properties": {"@spider": "usps_collection_boxes", "addr:city": "DOTHAN", "addr:country": "US", "addr:full": "3741 ROSS CLARK CIR", "addr:postcode": "36303", "addr:state": "AL", "amenity": "post_box", "brand": "United States Postal Service", "brand:wikidata": "Q668687", "collection_times": "Mo-Fr 16:30; Sa 15:30", "name": "USPS COLLECTION BOX - PO LOBBY", "note": "ON 12/24 AND 12/31, THIS BOX MAY BE COLLECTED AS EARLY AS 12 NOON.", "nsi_id": "unitedstatespostalservice-a77078", "operator": "United States Postal Service", "operator:short": "USPS", "operator:type": "public", "operator:wikidata": "Q668687", "ref": "3630300041"}, "type": "Feature"}
{"dataset_attributes": {"@spider": "usps_collection_boxes", "spider:collection_time": "2023-12-19T08:25:25.283853"}, "geometry": {"coordinates": [-85.416810077, 31.252694995], "type": "Point"}, "id": "P6Jt2srfROGP-BZU-ppREx_iz9g=", "properties": {"@spider": "usps_collection_boxes", "addr:city": "DOTHAN", "addr:country": "US", "addr:full": "3741 ROSS CLARK CIR", "addr:postcode": "36303", "addr:state": "AL", "amenity": "post_box", "brand": "United States Postal Service", "brand:wikidata": "Q668687", "collection_times": "Mo-Fr 16:30; Sa 15:30", "name": "USPS COLLECTION BOX - BLUE BOX", "note": "ON 12/24 AND 12/31, THIS BOX MAY BE COLLECTED AS EARLY AS 12 NOON.", "nsi_id": "unitedstatespostalservice-a77078", "operator": "United States Postal Service", "operator:short": "USPS", "operator:type": "public", "operator:wikidata": "Q668687", "ref": "3630300042"}, "type": "Feature"}
{"dataset_attributes": {"@spider": "usps_collection_boxes", "spider:collection_time": "2023-12-19T08:25:25.283853"}, "geometry": {"coordinates": [-85.416810077, 31.252694995], "type": "Point"}, "id": "VexBJs6Bu_9GlSr_uCNUnRQC5D0=", "properties": {"@spider": "usps_collection_boxes", "addr:city": "DOTHAN", "addr:country": "US", "addr:full": "3741 ROSS CLARK CIR", "addr:postcode": "36303", "addr:state": "AL", "amenity": "post_box", "brand": "United States Postal Service", "brand:wikidata": "Q668687", "collection_times": "Mo-Fr 16:30; Sa 15:30", "name": "USPS COLLECTION BOX - BLUE BOX", "note": "ON 12/24 AND 12/31, THIS BOX MAY BE COLLECTED AS EARLY AS 12 NOON.", "nsi_id": "unitedstatespostalservice-a77078", "operator": "United States Postal Service", "operator:short": "USPS", "operator:type": "public", "operator:wikidata": "Q668687", "ref": "3630300043"}, "type": "Feature"}
{"dataset_attributes": {"@spider": "usps_collection_boxes", "spider:collection_time": "2023-12-19T08:25:25.283853"}, "geometry": {"coordinates": [-85.416810077, 31.252694995], "type": "Point"}, "id": "hQqNGiaDlUVZIEPzJaF0zNfpdbI=", "properties": {"@spider": "usps_collection_boxes", "addr:city": "DOTHAN", "addr:country": "US", "addr:full": "3741 ROSS CLARK CIR", "addr:postcode": "36303", "addr:state": "AL", "amenity": "post_box", "brand": "United States Postal Service", "brand:wikidata": "Q668687", "collection_times": "Mo-Fr 16:30; Sa 15:30", "name": "USPS COLLECTION BOX - BLUE BOX", "note": "ON 12/24 AND 12/31, THIS BOX MAY BE COLLECTED AS EARLY AS 12 NOON.", "nsi_id": "unitedstatespostalservice-a77078", "operator": "United States Postal Service", "operator:short": "USPS", "operator:type": "public", "operator:wikidata": "Q668687", "ref": "3630300045"}, "type": "Feature"}
{"dataset_attributes": {"@spider": "usps_collection_boxes", "spider:collection_time": "2023-12-19T08:25:25.283853"}, "geometry": {"coordinates": [-85.422590889, 31.262057837], "type": "Point"}, "id": "7XpZQH-6bz_DkCcnV7o--DQhXEk=", "properties": {"@spider": "usps_collection_boxes", "addr:city": "DOTHAN", "addr:country": "US", "addr:full": "2233 WESTGATE PKWY", "addr:postcode": "36303", "addr:state": "AL", "amenity": "post_box", "brand": "United States Postal Service", "brand:wikidata": "Q668687", "collection_times": "Mo-Sa 11:00", "name": "USPS COLLECTION BOX - BLUE BOX", "nsi_id": "unitedstatespostalservice-a77078", "operator": "United States Postal Service", "operator:short": "USPS", "operator:type": "public", "operator:wikidata": "Q668687", "ref": "3630300047"}, "type": "Feature"}
{"dataset_attributes": {"@spider": "usps_collection_boxes", "spider:collection_time": "2023-12-19T08:25:25.283853"}, "geometry": {"coordinates": [-85.412079831, 31.256845303], "type": "Point"}, "id": "pWorn3K_A_AHYhOF7exv99RwCPA=", "properties": {"@spider": "usps_collection_boxes", "addr:city": "DOTHAN", "addr:country": "US", "addr:full": "2168 DENTON RD", "addr:postcode": "36303", "addr:state": "AL", "amenity": "post_box", "brand": "United States Postal Service", "brand:wikidata": "Q668687", "collection_times": "Mo-Sa 09:00", "name": "USPS COLLECTION BOX - BLUE BOX", "nsi_id": "unitedstatespostalservice-a77078", "operator": "United States Postal Service", "operator:short": "USPS", "operator:type": "public", "operator:wikidata": "Q668687", "ref": "3630300050"}, "type": "Feature"}
{"dataset_attributes": {"@spider": "usps_collection_boxes", "spider:collection_time": "2023-12-19T08:25:25.283853"}, "geometry": {"coordinates": [-85.405752472, 31.239006483], "type": "Point"}, "id": "Orm6zLAXqjZ5gsxFIn_kKiISQUI=", "properties": {"@spider": "usps_collection_boxes", "addr:city": "DOTHAN", "addr:country": "US", "addr:full": "1558 MONTGOMERY HWY", "addr:postcode": "36303", "addr:state": "AL", "amenity": "post_box", "brand": "United States Postal Service", "brand:wikidata": "Q668687", "collection_times": "Mo-Fr 12:00; Sa 10:00", "name": "USPS COLLECTION BOX - BLUE BOX", "nsi_id": "unitedstatespostalservice-a77078", "operator": "United States Postal Service", "operator:short": "USPS", "operator:type": "public", "operator:wikidata": "Q668687", "ref": "3630300066"}, "type": "Feature"}
{"dataset_attributes": {"@spider": "usps_collection_boxes", "spider:collection_time": "2023-12-19T08:25:25.283853"}, "geometry": {"coordinates": [-85.416810077, 31.252694995], "type": "Point"}, "id": "t2ZLHVGlvWFIEDeqNCcJbRyvnR8=", "properties": {"@spider": "usps_collection_boxes", "addr:city": "DOTHAN", "addr:country": "US", "addr:full": "3741 ROSS CLARK CIR", "addr:postcode": "36303", "addr:state": "AL", "amenity": "post_box", "brand": "United States Postal Service", "brand:wikidata": "Q668687", "collection_times": "Mo-Fr 16:30; Sa 15:30", "name": "USPS COLLECTION BOX - APC", "note": "ON 12/24 AND 12/31, THIS BOX MAY BE COLLECTED AS EARLY AS 12 NOON.", "nsi_id": "unitedstatespostalservice-a77078", "operator": "United States Postal Service", "operator:short": "USPS", "operator:type": "public", "operator:wikidata": "Q668687", "ref": "3630300067"}, "type": "Feature"}
{"dataset_attributes": {"@spider": "usps_collection_boxes", "spider:collection_time": "2023-12-19T08:25:25.283853"}, "geometry": {"coordinates": [-85.416810077, 31.252694995], "type": "Point"}, "id": "f0j4JN2AYDMFvWm5FxHbEaSI7C8=", "properties": {"@spider": "usps_collection_boxes", "addr:city": "DOTHAN", "addr:country": "US", "addr:full": "3741 ROSS CLARK CIR", "addr:postcode": "36303", "addr:state": "AL", "amenity": "post_box", "brand": "United States Postal Service", "brand:wikidata": "Q668687", "collection_times": "Mo-Fr 16:30", "name": "USPS COLLECTION BOX - PO LOBBY", "note": "ON 12/24 AND 12/31, THIS BOX MAY BE COLLECTED AS EARLY AS 12 NOON.", "nsi_id": "unitedstatespostalservice-a77078", "operator": "United States Postal Service", "operator:short": "USPS", "operator:type": "public", "operator:wikidata": "Q668687", "ref": "3630300073"}, "type": "Feature"}
{"dataset_attributes": {"@spider": "usps_collection_boxes", "spider:collection_time": "2023-12-19T08:25:25.283853"}, "geometry": {"coordinates": [-85.435162143, 31.20132924], "type": "Point"}, "id": "KtWPNZCHcEZsvjDlfMNx4r8VDJ0=", "properties": {"@spider": "usps_collection_boxes", "addr:city": "DOTHAN", "addr:country": "US", "addr:full": "1910 HONEYSUCKLE RD", "addr:postcode": "36305", "addr:state": "AL", "amenity": "post_box", "brand": "United States Postal Service", "brand:wikidata": "Q668687", "collection_times": "Mo-Sa 10:00", "name": "USPS COLLECTION BOX - BLUE BOX", "nsi_id": "unitedstatespostalservice-a77078", "operator": "United States Postal Service", "operator:short": "USPS", "operator:type": "public", "operator:wikidata": "Q668687", "ref": "3630500000"}, "type": "Feature"}
{"dataset_attributes": {"@spider": "usps_collection_boxes", "spider:collection_time": "2023-12-19T08:25:25.283853"}, "geometry": {"coordinates": [-85.433804445, 31.221085528], "type": "Point"}, "id": "B1vwfz7OZdRbepT-wRhoHf2KGP0=", "properties": {"@spider": "usps_collection_boxes", "addr:city": "DOTHAN", "addr:country": "US", "addr:full": "3119 WESLEY WAY", "addr:postcode": "36305", "addr:state": "AL", "amenity": "post_box", "brand": "United States Postal Service", "brand:wikidata": "Q668687", "collection_times": "Mo-Fr 14:00; Sa 13:00", "name": "USPS COLLECTION BOX - BLUE BOX", "note": "ON 12/24 AND 12/31, THIS BOX MAY BE COLLECTED AS EARLY AS 12 NOON.", "nsi_id": "unitedstatespostalservice-a77078", "operator": "United States Postal Service", "operator:short": "USPS", "operator:type": "public", "operator:wikidata": "Q668687", "ref": "3630500001"}, "type": "Feature"}
{"dataset_attributes": {"@spider": "usps_collection_boxes", "spider:collection_time": "2023-12-19T08:25:25.283853"}, "geometry": {"coordinates": [-85.433804445, 31.221085528], "type": "Point"}, "id": "917xz7b_uzQ5kLYkWXtCgupALzs=", "properties": {"@spider": "usps_collection_boxes", "addr:city": "DOTHAN", "addr:country": "US", "addr:full": "3119 WESLEY WAY", "addr:postcode": "36305", "addr:state": "AL", "amenity": "post_box", "brand": "United States Postal Service", "brand:wikidata": "Q668687", "collection_times": "Mo-Fr 14:00; Sa 13:00", "name": "USPS COLLECTION BOX - BLUE BOX", "note": "ON 12/24 AND 12/31, THIS BOX MAY BE COLLECTED AS EARLY AS 12 NOON.", "nsi_id": "unitedstatespostalservice-a77078", "operator": "United States Postal Service", "operator:short": "USPS", "operator:type": "public", "operator:wikidata": "Q668687", "ref": "3630500002"}, "type": "Feature"}
{"dataset_attributes": {"@spider": "usps_collection_boxes", "spider:collection_time": "2023-12-19T08:25:25.283853"}, "geometry": {"coordinates": [-85.455449037, 31.228572468], "type": "Point"}, "id": "Q9cBsgAMOu0UbQP5sq8E5r0PUxk=", "properties": {"@spider": "usps_collection_boxes", "addr:city": "DOTHAN", "addr:country": "US", "addr:full": "141 S WOODBURN DR", "addr:postcode": "36305", "addr:state": "AL", "amenity": "post_box", "brand": "United States Postal Service", "brand:wikidata": "Q668687", "collection_times": "Mo-Sa 09:30", "name": "USPS COLLECTION BOX - BLUE BOX", "nsi_id": "unitedstatespostalservice-a77078", "operator": "United States Postal Service", "operator:short": "USPS", "operator:type": "public", "operator:wikidata": "Q668687", "ref": "3630500003"}, "type": "Feature"}
{"dataset_attributes": {"@spider": "usps_collection_boxes", "spider:collection_time": "2023-12-19T08:25:25.283853"}, "geometry": {"coordinates": [-85.435030261, 31.216449437], "type": "Point"}, "id": "GxR11CWZiHaJdxDzl0DxqlZVKkA=", "properties": {"@spider": "usps_collection_boxes", "addr:city": "DOTHAN", "addr:country": "US", "addr:full": "927 HONEYSUCKLE RD", "addr:postcode": "36305", "addr:state": "AL", "amenity": "post_box", "brand": "United States Postal Service", "brand:wikidata": "Q668687", "collection_times": "Mo-Sa 10:00", "name": "USPS COLLECTION BOX - BLUE BOX", "nsi_id": "unitedstatespostalservice-a77078", "operator": "United States Postal Service", "operator:short": "USPS", "operator:type": "public", "operator:wikidata": "Q668687", "ref": "3630500004"}, "type": "Feature"}
{"dataset_attributes": {"@spider": "usps_collection_boxes", "spider:collection_time": "2023-12-19T08:25:25.283853"}, "geometry": {"coordinates": [-85.457624022, 31.235976645], "type": "Point"}, "id": "HwOhdTqyRkIw4i6Z8J0WvahLv9I=", "properties": {"@spider": "usps_collection_boxes", "addr:city": "DOTHAN", "addr:country": "US", "addr:full": "4300 W MAIN ST", "addr:postcode": "36305", "addr:state": "AL", "amenity": "post_box", "brand": "United States Postal Service", "brand:wikidata": "Q668687", "collection_times": "Mo-Fr 14:30; Sa 10:30", "name": "USPS COLLECTION BOX - BLUE BOX", "note": "ON 12/24 AND 12/31, THIS BOX MAY BE COLLECTED AS EARLY AS 12 NOON.", "nsi_id": "unitedstatespostalservice-a77078", "operator": "United States Postal Service", "operator:short": "USPS", "operator:type": "public", "operator:wikidata": "Q668687", "ref": "3630500006"}, "type": "Feature"}
{"dataset_attributes": {"@spider": "usps_collection_boxes", "spider:collection_time": "2023-12-19T08:25:25.283853"}, "geometry": {"coordinates": [-85.4576181904, 31.2359698797], "type": "Point"}, "id": "iU6W7hepJw0VxUCxsTcZj1g07qc=", "properties": {"@spider": "usps_collection_boxes", "addr:city": "DOTHAN", "addr:country": "US", "addr:full": "4300 W MAIN ST", "addr:postcode": "36305", "addr:state": "AL", "amenity": "post_box", "brand": "United States Postal Service", "brand:wikidata": "Q668687", "collection_times": "Mo-Fr 14:30; Sa 10:30", "name": "USPS COLLECTION BOX - BLUE BOX", "note": "ON 12/24 AND 12/31, THIS BOX MAY BE COLLECTED AS EARLY AS 12 NOON.", "nsi_id": "unitedstatespostalservice-a77078", "operator": "United States Postal Service", "operator:short": "USPS", "operator:type": "public", "operator:wikidata": "Q668687", "ref": "3630500007"}, "type": "Feature"}
{"dataset_attributes": {"@spider": "usps_collection_boxes", "spider:collection_time": "2023-12-19T08:25:25.283853"}, "geometry": {"coordinates": [-85.438736939, 31.228766283], "type": "Point"}, "id": "wi_HoA2kckihhZPLLO8mKE4PTAI=", "properties": {"@spider": "usps_collection_boxes", "addr:city": "DOTHAN", "addr:country": "US", "addr:full": "3124 W MAIN ST", "addr:postcode": "36305", "addr:state": "AL", "amenity": "post_box", "brand": "United States Postal Service", "brand:wikidata": "Q668687", "collection_times": "Mo-Sa 09:00", "name": "USPS COLLECTION BOX - BLUE BOX", "nsi_id": "unitedstatespostalservice-a77078", "operator": "United States Postal Service", "operator:short": "USPS", "operator:type": "public", "operator:wikidata": "Q668687", "ref": "3630500010"}, "type": "Feature"}
{"dataset_attributes": {"@spider": "usps_collection_boxes", "spider:collection_time": "2023-12-19T08:25:25.283853"}, "geometry": {"coordinates": [-85.452631169, 31.234459416], "type": "Point"}, "id": "pocVojZJWW7gAfya-5yv-oO_DRk=", "properties": {"@spider": "usps_collection_boxes", "addr:city": "DOTHAN", "addr:country": "US", "addr:full": "4030 W MAIN ST", "addr:postcode": "36305", "addr:state": "AL", "amenity": "post_box", "brand": "United States Postal Service", "brand:wikidata": "Q668687", "collection_times": "Mo-Fr 14:30; Sa 10:30", "name": "USPS COLLECTION BOX - BLUE BOX", "note": "ON 12/24 AND 12/31, THIS BOX MAY BE COLLECTED AS EARLY AS 12 NOON.", "nsi_id": "unitedstatespostalservice-a77078", "operator": "United States Postal Service", "operator:short": "USPS", "operator:type": "public", "operator:wikidata": "Q668687", "ref": "3630500011"}, "type": "Feature"}
{"dataset_attributes": {"@spider": "usps_collection_boxes", "spider:collection_time": "2023-12-19T08:25:25.283853"}, "geometry": {"coordinates": [-85.452631169, 31.234459416], "type": "Point"}, "id": "V76Q8nytcUczuFiDGCViticCIUE=", "properties": {"@spider": "usps_collection_boxes", "addr:city": "DOTHAN", "addr:country": "US", "addr:full": "4030 W MAIN ST", "addr:postcode": "36305", "addr:state": "AL", "amenity": "post_box", "brand": "United States Postal Service", "brand:wikidata": "Q668687", "collection_times": "Mo-Fr 14:30; Sa 10:30", "name": "USPS COLLECTION BOX - BLUE BOX", "note": "ON 12/24 AND 12/31, THIS BOX MAY BE COLLECTED AS EARLY AS 12 NOON.", "nsi_id": "unitedstatespostalservice-a77078", "operator": "United States Postal Service", "operator:short": "USPS", "operator:type": "public", "operator:wikidata": "Q668687", "ref": "3630500012"}, "type": "Feature"}
{"dataset_attributes": {"@spider": "usps_collection_boxes", "spider:collection_time": "2023-12-19T08:25:25.283853"}, "geometry": {"coordinates": [-85.452631169, 31.234459416], "type": "Point"}, "id": "51OZNIws9E8c_U7SscbG8J2B70I=", "properties": {"@spider": "usps_collection_boxes", "addr:city": "DOTHAN", "addr:country": "US", "addr:full": "4030 W MAIN ST", "addr:postcode": "36305", "addr:state": "AL", "amenity": "post_box", "brand": "United States Postal Service", "brand:wikidata": "Q668687", "collection_times": "Mo-Fr 14:30; Sa 10:30", "name": "USPS COLLECTION BOX - BLUE BOX", "note": "ON 12/24 AND 12/31, THIS BOX MAY BE COLLECTED AS EARLY AS 12 NOON.", "nsi_id": "unitedstatespostalservice-a77078", "operator": "United States Postal Service", "operator:short": "USPS", "operator:type": "public", "operator:wikidata": "Q668687", "ref": "3630500013"}, "type": "Feature"}
{"dataset_attributes": {"@spider": "usps_collection_boxes", "spider:collection_time": "2023-12-19T08:25:25.283853"}, "geometry": {"coordinates": [-85.249186046, 31.571489766], "type": "Point"}, "id": "vM7AmHJ2Wlzo1aDnAnqdFA-lh8s=", "properties": {"@spider": "usps_collection_boxes", "addr:city": "ABBEVILLE", "addr:country": "US", "addr:full": "110 E WASHINGTON ST", "addr:postcode": "36310", "addr:state": "AL", "amenity": "post_box", "brand": "United States Postal Service", "brand:wikidata": "Q668687", "collection_times": "Mo-Fr 16:00; Sa 12:00", "name": "USPS COLLECTION BOX - PO LOBBY", "note": "ON 12/24 AND 12/31, THIS BOX MAY BE COLLECTED AS EARLY AS 12 NOON.", "nsi_id": "unitedstatespostalservice-a77078", "operator": "United States Postal Service", "operator:short": "USPS", "operator:type": "public", "operator:wikidata": "Q668687", "ref": "3631000003"}, "type": "Feature"}
{"dataset_attributes": {"@spider": "usps_collection_boxes", "spider:collection_time": "2023-12-19T08:25:25.283853"}, "geometry": {"coordinates": [-85.249186046, 31.571489766], "type": "Point"}, "id": "dWNLXFHbuE07DcDB3LlsGnWV4sE=", "properties": {"@spider": "usps_collection_boxes", "addr:city": "ABBEVILLE", "addr:country": "US", "addr:full": "110 E WASHINGTON ST", "addr:postcode": "36310", "addr:state": "AL", "amenity": "post_box", "brand": "United States Postal Service", "brand:wikidata": "Q668687", "collection_times": "Mo-Fr 16:00; Sa 12:00", "name": "USPS COLLECTION BOX - BLUE BOX", "note": "ON 12/24 AND 12/31, THIS BOX MAY BE COLLECTED AS EARLY AS 12 NOON.", "nsi_id": "unitedstatespostalservice-a77078", "operator": "United States Postal Service", "operator:short": "USPS", "operator:type": "public", "operator:wikidata": "Q668687", "ref": "3631000004"}, "type": "Feature"}
{"dataset_attributes": {"@spider": "usps_collection_boxes", "spider:collection_time": "2023-12-19T08:25:25.283853"}, "geometry": {"coordinates": [-85.249186046, 31.571489766], "type": "Point"}, "id": "pS34MrHlHsw-P6eGuTvXz4v9HWs=", "properties": {"@spider": "usps_collection_boxes", "addr:city": "ABBEVILLE", "addr:country": "US", "addr:full": "110 E WASHINGTON ST", "addr:postcode": "36310", "addr:state": "AL", "amenity": "post_box", "brand": "United States Postal Service", "brand:wikidata": "Q668687", "collection_times": "Mo-Fr 16:00; Sa 12:00", "name": "USPS COLLECTION BOX - PO LOBBY", "note": "ON 12/24 AND 12/31, THIS BOX MAY BE COLLECTED AS EARLY AS 12 NOON.", "nsi_id": "unitedstatespostalservice-a77078", "operator": "United States Postal Service", "operator:short": "USPS", "operator:type": "public", "operator:wikidata": "Q668687", "ref": "3631000007"}, "type": "Feature"}
{"dataset_attributes": {"@spider": "usps_collection_boxes", "spider:collection_time": "2023-12-19T08:25:25.283853"}, "geometry": {"coordinates": [-85.717578754, 31.601115367], "type": "Point"}, "id": "z9ibhUGqdvVKZVfQKEt5BsMv2EM=", "properties": {"@spider": "usps_collection_boxes", "addr:city": "ARITON", "addr:country": "US", "addr:full": "52 PEA RIVER RD", "addr:postcode": "36311", "addr:state": "AL", "amenity": "post_box", "brand": "United States Postal Service", "brand:wikidata": "Q668687", "collection_times": "Mo-Fr 16:00; Sa 11:00", "name": "USPS COLLECTION BOX - PO LOBBY", "note": "ON 12/24 AND 12/31, THIS BOX MAY BE COLLECTED AS EARLY AS 12 NOON.", "nsi_id": "unitedstatespostalservice-a77078", "operator": "United States Postal Service", "operator:short": "USPS", "operator:type": "public", "operator:wikidata": "Q668687", "ref": "3631100001"}, "type": "Feature"}
{"dataset_attributes": {"@spider": "usps_collection_boxes", "spider:collection_time": "2023-12-19T08:25:25.283853"}, "geometry": {"coordinates": [-85.717578754, 31.601115367], "type": "Point"}, "id": "45-abi4c9b_ewIvBb4lrwzx_QHs=", "properties": {"@spider": "usps_collection_boxes", "addr:city": "ARITON", "addr:country": "US", "addr:full": "52 PEA RIVER RD", "addr:postcode": "36311", "addr:state": "AL", "amenity": "post_box", "brand": "United States Postal Service", "brand:wikidata": "Q668687", "collection_times": "Mo-Fr 16:00; Sa 11:00", "name": "USPS COLLECTION BOX - BLUE BOX", "note": "ON 12/24 AND 12/31, THIS BOX MAY BE COLLECTED AS EARLY AS 12 NOON.", "nsi_id": "unitedstatespostalservice-a77078", "operator": "United States Postal Service", "operator:short": "USPS", "operator:type": "public", "operator:wikidata": "Q668687", "ref": "3631100002"}, "type": "Feature"}
{"dataset_attributes": {"@spider": "usps_collection_boxes", "spider:collection_time": "2023-12-19T08:25:25.283853"}, "geometry": {"coordinates": [-85.717578754, 31.601115367], "type": "Point"}, "id": "rpWxsbgaUB2yaULDyygr3icFmKk=", "properties": {"@spider": "usps_collection_boxes", "addr:city": "ARITON", "addr:country": "US", "addr:full": "52 PEA RIVER RD", "addr:postcode": "36311", "addr:state": "AL", "amenity": "post_box", "brand": "United States Postal Service", "brand:wikidata": "Q668687", "collection_times": "Mo-Fr 16:00; Sa 11:00", "name": "USPS COLLECTION BOX - PO LOBBY", "note": "ON 12/24 AND 12/31, THIS BOX MAY BE COLLECTED AS EARLY AS 12 NOON.", "nsi_id": "unitedstatespostalservice-a77078", "operator": "United States Postal Service", "operator:short": "USPS", "operator:type": "public", "operator:wikidata": "Q668687", "ref": "3631100004"}, "type": "Feature"}
{"dataset_attributes": {"@spider": "usps_collection_boxes", "spider:collection_time": "2023-12-19T08:25:25.283853"}, "geometry": {"coordinates": [-85.717578754, 31.601115367], "type": "Point"}, "id": "imGE8yvrf46N0ydXG08JVRj2JlE=", "properties": {"@spider": "usps_collection_boxes", "addr:city": "ARITON", "addr:country": "US", "addr:full": "52 PEA RIVER RD", "addr:postcode": "36311", "addr:state": "AL", "amenity": "post_box", "brand": "United States Postal Service", "brand:wikidata": "Q668687", "collection_times": "Mo-Fr 15:45; Sa 11:00", "name": "USPS COLLECTION BOX - PO LOBBY", "note": "ON 12/24 AND 12/31, THIS BOX MAY BE COLLECTED AS EARLY AS 12 NOON.", "nsi_id": "unitedstatespostalservice-a77078", "operator": "United States Postal Service", "operator:short": "USPS", "operator:type": "public", "operator:wikidata": "Q668687", "ref": "3631100006"}, "type": "Feature"}
{"dataset_attributes": {"@spider": "usps_collection_boxes", "spider:collection_time": "2023-12-19T08:25:25.283853"}, "geometry": {"coordinates": [-85.23508353, 31.186152502], "type": "Point"}, "id": "ypMmFlcA-YXNkx3elzY5YPe7XpY=", "properties": {"@spider": "usps_collection_boxes", "addr:city": "ASHFORD", "addr:country": "US", "addr:full": "603 N BROADWAY ST", "addr:postcode": "36312", "addr:state": "AL", "amenity": "post_box", "brand": "United States Postal Service", "brand:wikidata": "Q668687", "collection_times": "Mo-Fr 15:45; Sa 10:45", "name": "USPS COLLECTION BOX - BLUE BOX", "note": "ON 12/24 AND 12/31, THIS BOX MAY BE COLLECTED AS EARLY AS 12 NOON.", "nsi_id": "unitedstatespostalservice-a77078", "operator": "United States Postal Service", "operator:short": "USPS", "operator:type": "public", "operator:wikidata": "Q668687", "ref": "3631200003"}, "type": "Feature"}
{"dataset_attributes": {"@spider": "usps_collection_boxes", "spider:collection_time": "2023-12-19T08:25:25.283853"}, "geometry": {"coordinates": [-85.23508353, 31.186152502], "type": "Point"}, "id": "rHaAxB1EyyUCXzP6L3TczeGObhQ=", "properties": {"@spider": "usps_collection_boxes", "addr:city": "ASHFORD", "addr:country": "US", "addr:full": "603 N BROADWAY ST", "addr:postcode": "36312", "addr:state": "AL", "amenity": "post_box", "brand": "United States Postal Service", "brand:wikidata": "Q668687", "collection_times": "Mo-Fr 15:45; Sa 10:45", "name": "USPS COLLECTION BOX - PO LOBBY", "note": "ON 12/24 AND 12/31, THIS BOX MAY BE COLLECTED AS EARLY AS 12 NOON.", "nsi_id": "unitedstatespostalservice-a77078", "operator": "United States Postal Service", "operator:short": "USPS", "operator:type": "public", "operator:wikidata": "Q668687", "ref": "3631200006"}, "type": "Feature"}
{"dataset_attributes": {"@spider": "usps_collection_boxes", "spider:collection_time": "2023-12-19T08:25:25.283853"}, "geometry": {"coordinates": [-85.23508353, 31.186152502], "type": "Point"}, "id": "Ej0hirvodIggZGBMMxakp-w8s-g=", "properties": {"@spider": "usps_collection_boxes", "addr:city": "ASHFORD", "addr:country": "US", "addr:full": "603 N BROADWAY ST", "addr:postcode": "36312", "addr:state": "AL", "amenity": "post_box", "brand": "United States Postal Service", "brand:wikidata": "Q668687", "collection_times": "Mo-Fr 16:00; Sa 11:00", "name": "USPS COLLECTION BOX - PO LOBBY", "note": "ON 12/24 AND 12/31, THIS BOX MAY BE COLLECTED AS EARLY AS 12 NOON.", "nsi_id": "unitedstatespostalservice-a77078", "operator": "United States Postal Service", "operator:short": "USPS", "operator:type": "public", "operator:wikidata": "Q668687", "ref": "3631200008"}, "type": "Feature"}
{"dataset_attributes": {"@spider": "usps_collection_boxes", "spider:collection_time": "2023-12-19T08:25:25.283853"}, "geometry": {"coordinates": [-85.793051891, 31.170158996], "type": "Point"}, "id": "jH_h0xxgMtI9Gp8bxyrRG5haCZk=", "properties": {"@spider": "usps_collection_boxes", "addr:city": "BELLWOOD", "addr:country": "US", "addr:full": "4940 COUNTY ROAD 45", "addr:postcode": "36313", "addr:state": "AL", "amenity": "post_box", "brand": "United States Postal Service", "brand:wikidata": "Q668687", "collection_times": "Mo-Fr 15:30; Sa 10:15", "name": "USPS COLLECTION BOX - BLUE BOX", "note": "ON 12/24 AND 12/31, THIS BOX MAY BE COLLECTED AS EARLY AS 12 NOON.", "nsi_id": "unitedstatespostalservice-a77078", "operator": "United States Postal Service", "operator:short": "USPS", "operator:type": "public", "operator:wikidata": "Q668687", "ref": "3631300001"}, "type": "Feature"}
{"dataset_attributes": {"@spider": "usps_collection_boxes", "spider:collection_time": "2023-12-19T08:25:25.283853"}, "geometry": {"coordinates": [-85.793051891, 31.170158996], "type": "Point"}, "id": "_qWX8PFny4l0o5MXEpnKt0dE4T4=", "properties": {"@spider": "usps_collection_boxes", "addr:city": "BELLWOOD", "addr:country": "US", "addr:full": "4940 COUNTY ROAD 45", "addr:postcode": "36313", "addr:state": "AL", "amenity": "post_box", "brand": "United States Postal Service", "brand:wikidata": "Q668687", "collection_times": "Mo-Fr 15:30; Sa 10:15", "name": "USPS COLLECTION BOX - PO LOBBY", "note": "ON 12/24 AND 12/31, THIS BOX MAY BE COLLECTED AS EARLY AS 12 NOON.", "nsi_id": "unitedstatespostalservice-a77078", "operator": "United States Postal Service", "operator:short": "USPS", "operator:type": "public", "operator:wikidata": "Q668687", "ref": "3631300002"}, "type": "Feature"}
{"dataset_attributes": {"@spider": "usps_collection_boxes", "spider:collection_time": "2023-12-19T08:25:25.283853"}, "geometry": {"coordinates": [-85.793051891, 31.170158996], "type": "Point"}, "id": "H7rquY3-vuYJ98-1umSAriopwRk=", "properties": {"@spider": "usps_collection_boxes", "addr:city": "BELLWOOD", "addr:country": "US", "addr:full": "4940 COUNTY ROAD 45", "addr:postcode": "36313", "addr:state": "AL", "amenity": "post_box", "brand": "United States Postal Service", "brand:wikidata": "Q668687", "collection_times": "Mo-Fr 15:45; Sa 10:15", "name": "USPS COLLECTION BOX - PO LOBBY", "note": "ON 12/24 AND 12/31, THIS BOX MAY BE COLLECTED AS EARLY AS 12 NOON.", "nsi_id": "unitedstatespostalservice-a77078", "operator": "United States Postal Service", "operator:short": "USPS", "operator:type": "public", "operator:wikidata": "Q668687", "ref": "3631300003"}, "type": "Feature"}
{"dataset_attributes": {"@spider": "usps_collection_boxes", "spider:collection_time": "2023-12-19T08:25:25.283853"}, "geometry": {"coordinates": [-85.743780545, 31.010309287], "type": "Point"}, "id": "RYo1oo5T-qwi4uSVMnoXAm0qj_8=", "properties": {"@spider": "usps_collection_boxes", "addr:city": "BLACK", "addr:country": "US", "addr:full": "128 N MAIN ST", "addr:postcode": "36314", "addr:state": "AL", "amenity": "post_box", "brand": "United States Postal Service", "brand:wikidata": "Q668687", "collection_times": "Mo-Sa 11:00", "name": "USPS COLLECTION BOX - BLUE BOX", "nsi_id": "unitedstatespostalservice-a77078", "operator": "United States Postal Service", "operator:short": "USPS", "operator:type": "public", "operator:wikidata": "Q668687", "ref": "3631400001"}, "type": "Feature"}
{"dataset_attributes": {"@spider": "usps_collection_boxes", "spider:collection_time": "2023-12-19T08:25:25.283853"}, "geometry": {"coordinates": [-85.743780545, 31.010309287], "type": "Point"}, "id": "PqQ5lepxnvnHI6FSKl-nPXvOmyc=", "properties": {"@spider": "usps_collection_boxes", "addr:city": "BLACK", "addr:country": "US", "addr:full": "128 N MAIN ST", "addr:postcode": "36314", "addr:state": "AL", "amenity": "post_box", "brand": "United States Postal Service", "brand:wikidata": "Q668687", "collection_times": "Mo-Sa 11:00", "name": "USPS COLLECTION BOX - PO LOBBY", "nsi_id": "unitedstatespostalservice-a77078", "operator": "United States Postal Service", "operator:short": "USPS", "operator:type": "public", "operator:wikidata": "Q668687", "ref": "3631400002"}, "type": "Feature"}
{"dataset_attributes": {"@spider": "usps_collection_boxes", "spider:collection_time": "2023-12-19T08:25:25.283853"}, "geometry": {"coordinates": [-85.743780545, 31.010309287], "type": "Point"}, "id": "Rd9tlA1Kb4PyymiAj-636PQBpuo=", "properties": {"@spider": "usps_collection_boxes", "addr:city": "BLACK", "addr:country": "US", "addr:full": "128 N MAIN ST", "addr:postcode": "36314", "addr:state": "AL", "amenity": "post_box", "brand": "United States Postal Service", "brand:wikidata": "Q668687", "collection_times": "Mo-Fr 11:00; Sa 11:30", "name": "USPS COLLECTION BOX - PO LOBBY", "nsi_id": "unitedstatespostalservice-a77078", "operator": "United States Postal Service", "operator:short": "USPS", "operator:type": "public", "operator:wikidata": "Q668687", "ref": "3631400004"}, "type": "Feature"}
{"dataset_attributes": {"@spider": "usps_collection_boxes", "spider:collection_time": "2023-12-19T08:25:25.283853"}, "geometry": {"coordinates": [-85.877037145, 31.181952006], "type": "Point"}, "id": "bwjlODLzI4cpY4g1qrtsCkLU1SM=", "properties": {"@spider": "usps_collection_boxes", "addr:city": "CHANCELLOR", "addr:country": "US", "addr:full": "10701 N STATE HIGHWAY 27", "addr:postcode": "36316", "addr:state": "AL", "amenity": "post_box", "brand": "United States Postal Service", "brand:wikidata": "Q668687", "collection_times": "Mo-Fr 15:45; Sa 10:15", "name": "USPS COLLECTION BOX - PO LOBBY", "note": "ON 12/24 AND 12/31, THIS BOX MAY BE COLLECTED AS EARLY AS 12 NOON.", "nsi_id": "unitedstatespostalservice-a77078", "operator": "United States Postal Service", "operator:short": "USPS", "operator:type": "public", "operator:wikidata": "Q668687", "ref": "3631600001"}, "type": "Feature"}
{"dataset_attributes": {"@spider": "usps_collection_boxes", "spider:collection_time": "2023-12-19T08:25:25.283853"}, "geometry": {"coordinates": [-85.877037145, 31.181952006], "type": "Point"}, "id": "_4jxZZ4rlnun2SnxO_gso2uwTpA=", "properties": {"@spider": "usps_collection_boxes", "addr:city": "CHANCELLOR", "addr:country": "US", "addr:full": "10701 N STATE HIGHWAY 27", "addr:postcode": "36316", "addr:state": "AL", "amenity": "post_box", "brand": "United States Postal Service", "brand:wikidata": "Q668687", "collection_times": "Mo-Fr 16:00; Sa 10:30", "name": "USPS COLLECTION BOX - PO LOBBY", "note": "ON 12/24 AND 12/31, THIS BOX MAY BE COLLECTED AS EARLY AS 12 NOON.", "nsi_id": "unitedstatespostalservice-a77078", "operator": "United States Postal Service", "operator:short": "USPS", "operator:type": "public", "operator:wikidata": "Q668687", "ref": "3631600003"}, "type": "Feature"}
{"dataset_attributes": {"@spider": "usps_collection_boxes", "spider:collection_time": "2023-12-19T08:25:25.283853"}, "geometry": {"coordinates": [-85.910332373, 31.167164541], "type": "Point"}, "id": "u-Rnbm2qmyAvMA1XKBw2z8WKyEA=", "properties": {"@spider": "usps_collection_boxes", "addr:city": "COFFEE SPRINGS", "addr:country": "US", "addr:full": "147 N MAIN ST", "addr:postcode": "36318", "addr:state": "AL", "amenity": "post_box", "brand": "United States Postal Service", "brand:wikidata": "Q668687", "collection_times": "Mo-Fr 12:00; Sa 10:00", "name": "USPS COLLECTION BOX - PO LOBBY", "nsi_id": "unitedstatespostalservice-a77078", "operator": "United States Postal Service", "operator:short": "USPS", "operator:type": "public", "operator:wikidata": "Q668687", "ref": "3631800001"}, "type": "Feature"}
{"dataset_attributes": {"@spider": "usps_collection_boxes", "spider:collection_time": "2023-12-19T08:25:25.283853"}, "geometry": {"coordinates": [-85.910332373, 31.167164541], "type": "Point"}, "id": "E6BnmidXhZ2iVfjlZs1FnAUNuAU=", "properties": {"@spider": "usps_collection_boxes", "addr:city": "COFFEE SPRINGS", "addr:country": "US", "addr:full": "147 N MAIN ST", "addr:postcode": "36318", "addr:state": "AL", "amenity": "post_box", "brand": "United States Postal Service", "brand:wikidata": "Q668687", "collection_times": "Mo-Fr 12:00; Sa 10:15", "name": "USPS COLLECTION BOX - PO LOBBY", "nsi_id": "unitedstatespostalservice-a77078", "operator": "United States Postal Service", "operator:short": "USPS", "operator:type": "public", "operator:wikidata": "Q668687", "ref": "3631800003"}, "type": "Feature"}
{"dataset_attributes": {"@spider": "usps_collection_boxes", "spider:collection_time": "2023-12-19T08:25:25.283853"}, "geometry": {"coordinates": [-85.1113896727, 31.2936007791], "type": "Point"}, "id": "m0QQ2GvYhij7SolgzyhOtE5Y6-w=", "properties": {"@spider": "usps_collection_boxes", "addr:city": "COLUMBIA", "addr:country": "US", "addr:full": "106 N MAIN ST", "addr:postcode": "36319", "addr:state": "AL", "amenity": "post_box", "brand": "United States Postal Service", "brand:wikidata": "Q668687", "collection_times": "Mo-Fr 15:45; Sa 10:45", "name": "USPS COLLECTION BOX - BLUE BOX", "note": "ON 12/24 AND 12/31, THIS BOX MAY BE COLLECTED AS EARLY AS 12 NOON.", "nsi_id": "unitedstatespostalservice-a77078", "operator": "United States Postal Service", "operator:short": "USPS", "operator:type": "public", "operator:wikidata": "Q668687", "ref": "3631900001"}, "type": "Feature"}
{"dataset_attributes": {"@spider": "usps_collection_boxes", "spider:collection_time": "2023-12-19T08:25:25.283853"}, "geometry": {"coordinates": [-85.1113896727, 31.2936007791], "type": "Point"}, "id": "K_PzQy9p7LxHC_Wyze9AybENfdg=", "properties": {"@spider": "usps_collection_boxes", "addr:city": "COLUMBIA", "addr:country": "US", "addr:full": "106 N MAIN ST", "addr:postcode": "36319", "addr:state": "AL", "amenity": "post_box", "brand": "United States Postal Service", "brand:wikidata": "Q668687", "collection_times": "Mo-Fr 15:45; Sa 10:45", "name": "USPS COLLECTION BOX - PO LOBBY", "note": "ON 12/24 AND 12/31, THIS BOX MAY BE COLLECTED AS EARLY AS 12 NOON.", "nsi_id": "unitedstatespostalservice-a77078", "operator": "United States Postal Service", "operator:short": "USPS", "operator:type": "public", "operator:wikidata": "Q668687", "ref": "3631900002"}, "type": "Feature"}
{"dataset_attributes": {"@spider": "usps_collection_boxes", "spider:collection_time": "2023-12-19T08:25:25.283853"}, "geometry": {"coordinates": [-85.111389673, 31.293600779], "type": "Point"}, "id": "y8aeeraSmtg5NEb1RZGokc-mp9U=", "properties": {"@spider": "usps_collection_boxes", "addr:city": "COLUMBIA", "addr:country": "US", "addr:full": "106 N MAIN ST", "addr:postcode": "36319", "addr:state": "AL", "amenity": "post_box", "brand": "United States Postal Service", "brand:wikidata": "Q668687", "collection_times": "Mo-Fr 16:00; Sa 11:00", "name": "USPS COLLECTION BOX - PO LOBBY", "note": "ON 12/24 AND 12/31, THIS BOX MAY BE COLLECTED AS EARLY AS 12 NOON.", "nsi_id": "unitedstatespostalservice-a77078", "operator": "United States Postal Service", "operator:short": "USPS", "operator:type": "public", "operator:wikidata": "Q668687", "ref": "3631900004"}, "type": "Feature"}
{"dataset_attributes": {"@spider": "usps_collection_boxes", "spider:collection_time": "2023-12-19T08:25:25.283853"}, "geometry": {"coordinates": [-85.30486039, 31.047782333], "type": "Point"}, "id": "IC0OjaToQxkEg0mGVV7Py_1Po4Y=", "properties": {"@spider": "usps_collection_boxes", "addr:city": "COTTONWOOD", "addr:country": "US", "addr:full": "53 JOE COOK ST", "addr:postcode": "36320", "addr:state": "AL", "amenity": "post_box", "brand": "United States Postal Service", "brand:wikidata": "Q668687", "collection_times": "Mo-Fr 12:00; Sa 11:00", "name": "USPS COLLECTION BOX - PO LOBBY", "nsi_id": "unitedstatespostalservice-a77078", "operator": "United States Postal Service", "operator:short": "USPS", "operator:type": "public", "operator:wikidata": "Q668687", "ref": "3632000001"}, "type": "Feature"}
{"dataset_attributes": {"@spider": "usps_collection_boxes", "spider:collection_time": "2023-12-19T08:25:25.283853"}, "geometry": {"coordinates": [-85.30486039, 31.047782333], "type": "Point"}, "id": "81E_JA1EULdTZmeEZ5iV5YEvyz4=", "properties": {"@spider": "usps_collection_boxes", "addr:city": "COTTONWOOD", "addr:country": "US", "addr:full": "53 JOE COOK ST", "addr:postcode": "36320", "addr:state": "AL", "amenity": "post_box", "brand": "United States Postal Service", "brand:wikidata": "Q668687", "collection_times": "Mo-Fr 12:00; Sa 11:00", "name": "USPS COLLECTION BOX - BLUE BOX", "nsi_id": "unitedstatespostalservice-a77078", "operator": "United States Postal Service", "operator:short": "USPS", "operator:type": "public", "operator:wikidata": "Q668687", "ref": "3632000002"}, "type": "Feature"}
{"dataset_attributes": {"@spider": "usps_collection_boxes", "spider:collection_time": "2023-12-19T08:25:25.283853"}, "geometry": {"coordinates": [-85.30486039, 31.047782333], "type": "Point"}, "id": "zyT_Etfl06H-geQjbKtRDALiE4w=", "properties": {"@spider": "usps_collection_boxes", "addr:city": "COTTONWOOD", "addr:country": "US", "addr:full": "53 JOE COOK ST", "addr:postcode": "36320", "addr:state": "AL", "amenity": "post_box", "brand": "United States Postal Service", "brand:wikidata": "Q668687", "collection_times": "Mo-Fr 15:45; Sa 11:00", "name": "USPS COLLECTION BOX - PO LOBBY", "note": "ON 12/24 AND 12/31, THIS BOX MAY BE COLLECTED AS EARLY AS 12 NOON.", "nsi_id": "unitedstatespostalservice-a77078", "operator": "United States Postal Service", "operator:short": "USPS", "operator:type": "public", "operator:wikidata": "Q668687", "ref": "3632000006"}, "type": "Feature"}
{"dataset_attributes": {"@spider": "usps_collection_boxes", "spider:collection_time": "2023-12-19T08:25:25.283853"}, "geometry": {"coordinates": [-85.304082662, 31.200337486], "type": "Point"}, "id": "VPcjRlVDs6cxnXDt8mbh-t4ohzk=", "properties": {"@spider": "usps_collection_boxes", "addr:city": "COWARTS", "addr:country": "US", "addr:full": "2935 JORDON AVE", "addr:postcode": "36321", "addr:state": "AL", "amenity": "post_box", "brand": "United States Postal Service", "brand:wikidata": "Q668687", "collection_times": "Mo-Fr 15:00; Sa 10:00", "name": "USPS COLLECTION BOX - BLUE BOX", "note": "ON 12/24 AND 12/31, THIS BOX MAY BE COLLECTED AS EARLY AS 12 NOON.", "nsi_id": "unitedstatespostalservice-a77078", "operator": "United States Postal Service", "operator:short": "USPS", "operator:type": "public", "operator:wikidata": "Q668687", "ref": "3632100001"}, "type": "Feature"}
{"dataset_attributes": {"@spider": "usps_collection_boxes", "spider:collection_time": "2023-12-19T08:25:25.283853"}, "geometry": {"coordinates": [-85.3040826618, 31.200337486], "type": "Point"}, "id": "YRxvaR2nmUqCmu6_XThb_mu0QCA=", "properties": {"@spider": "usps_collection_boxes", "addr:city": "COWARTS", "addr:country": "US", "addr:full": "2935 JORDON AVE", "addr:postcode": "36321", "addr:state": "AL", "amenity": "post_box", "brand": "United States Postal Service", "brand:wikidata": "Q668687", "collection_times": "Mo-Fr 15:00; Sa 10:00", "name": "USPS COLLECTION BOX - PO LOBBY", "note": "ON 12/24 AND 12/31, THIS BOX MAY BE COLLECTED AS EARLY AS 12 NOON.", "nsi_id": "unitedstatespostalservice-a77078", "operator": "United States Postal Service", "operator:short": "USPS", "operator:type": "public", "operator:wikidata": "Q668687", "ref": "3632100002"}, "type": "Feature"}
{"dataset_attributes": {"@spider": "usps_collection_boxes", "spider:collection_time": "2023-12-19T08:25:25.283853"}, "geometry": {"coordinates": [-85.3040826618, 31.200337486], "type": "Point"}, "id": "3YmLGVmyWGsee_lDigzOSRcU4TY=", "properties": {"@spider": "usps_collection_boxes", "addr:city": "COWARTS", "addr:country": "US", "addr:full": "2935 JORDON AVE", "addr:postcode": "36321", "addr:state": "AL", "amenity": "post_box", "brand": "United States Postal Service", "brand:wikidata": "Q668687", "collection_times": "Mo-Fr 15:00; Sa 10:00", "name": "USPS COLLECTION BOX - PO LOBBY", "note": "ON 12/24 AND 12/31, THIS BOX MAY BE COLLECTED AS EARLY AS 12 NOON.", "nsi_id": "unitedstatespostalservice-a77078", "operator": "United States Postal Service", "operator:short": "USPS", "operator:type": "public", "operator:wikidata": "Q668687", "ref": "3632100004"}, "type": "Feature"}
{"dataset_attributes": {"@spider": "usps_collection_boxes", "spider:collection_time": "2023-12-19T08:25:25.283853"}, "geometry": {"coordinates": [-85.723161562, 31.298132766], "type": "Point"}, "id": "SW_vxT-i8ONCYnTjxYzDlLWmKOU=", "properties": {"@spider": "usps_collection_boxes", "addr:city": "DALEVILLE", "addr:country": "US", "addr:full": "100 VIRGINIA AVE", "addr:postcode": "36322", "addr:state": "AL", "amenity": "post_box", "brand": "United States Postal Service", "brand:wikidata": "Q668687", "collection_times": "Mo-Fr 16:15; Sa 15:30", "name": "USPS COLLECTION BOX - PO LOBBY", "note": "ON 12/24 AND 12/31, THIS BOX MAY BE COLLECTED AS EARLY AS 12 NOON.", "nsi_id": "unitedstatespostalservice-a77078", "operator": "United States Postal Service", "operator:short": "USPS", "operator:type": "public", "operator:wikidata": "Q668687", "ref": "3632200001"}, "type": "Feature"}
{"dataset_attributes": {"@spider": "usps_collection_boxes", "spider:collection_time": "2023-12-19T08:25:25.283853"}, "geometry": {"coordinates": [-85.723161562, 31.298132766], "type": "Point"}, "id": "zfririp44kUdy1mLW1E-WxpXkhs=", "properties": {"@spider": "usps_collection_boxes", "addr:city": "DALEVILLE", "addr:country": "US", "addr:full": "100 VIRGINIA AVE", "addr:postcode": "36322", "addr:state": "AL", "amenity": "post_box", "brand": "United States Postal Service", "brand:wikidata": "Q668687", "collection_times": "Mo-Fr 16:15; Sa 15:30", "name": "USPS COLLECTION BOX - PO LOBBY", "note": "ON 12/24 AND 12/31, THIS BOX MAY BE COLLECTED AS EARLY AS 12 NOON.", "nsi_id": "unitedstatespostalservice-a77078", "operator": "United States Postal Service", "operator:short": "USPS", "operator:type": "public", "operator:wikidata": "Q668687", "ref": "3632200002"}, "type": "Feature"}
{"dataset_attributes": {"@spider": "usps_collection_boxes", "spider:collection_time": "2023-12-19T08:25:25.283853"}, "geometry": {"coordinates": [-85.723161562, 31.298132766], "type": "Point"}, "id": "zwuefkm1XcSjbSEM50kt2S5x5Cc=", "properties": {"@spider": "usps_collection_boxes", "addr:city": "DALEVILLE", "addr:country": "US", "addr:full": "100 VIRGINIA AVE", "addr:postcode": "36322", "addr:state": "AL", "amenity": "post_box", "brand": "United States Postal Service", "brand:wikidata": "Q668687", "collection_times": "Mo-Fr 16:15; Sa 15:30", "name": "USPS COLLECTION BOX - BLUE BOX", "note": "ON 12/24 AND 12/31, THIS BOX MAY BE COLLECTED AS EARLY AS 12 NOON.", "nsi_id": "unitedstatespostalservice-a77078", "operator": "United States Postal Service", "operator:short": "USPS", "operator:type": "public", "operator:wikidata": "Q668687", "ref": "3632200005"}, "type": "Feature"}
{"dataset_attributes": {"@spider": "usps_collection_boxes", "spider:collection_time": "2023-12-19T08:25:25.283853"}, "geometry": {"coordinates": [-85.723161562, 31.298132766], "type": "Point"}, "id": "27ulbDQz_6PUI31KpIJQTPUCVTg=", "properties": {"@spider": "usps_collection_boxes", "addr:city": "DALEVILLE", "addr:country": "US", "addr:full": "100 VIRGINIA AVE", "addr:postcode": "36322", "addr:state": "AL", "amenity": "post_box", "brand": "United States Postal Service", "brand:wikidata": "Q668687", "collection_times": "Mo-Fr 16:15; Sa 15:30", "name": "USPS COLLECTION BOX - BLUE BOX", "note": "ON 12/24 AND 12/31, THIS BOX MAY BE COLLECTED AS EARLY AS 12 NOON.", "nsi_id": "unitedstatespostalservice-a77078", "operator": "United States Postal Service", "operator:short": "USPS", "operator:type": "public", "operator:wikidata": "Q668687", "ref": "3632200006"}, "type": "Feature"}
{"dataset_attributes": {"@spider": "usps_collection_boxes", "spider:collection_time": "2023-12-19T08:25:25.283853"}, "geometry": {"coordinates": [-85.723161562, 31.298132766], "type": "Point"}, "id": "crJ7Af4XekS18qPbtrY1S0H7wPw=", "properties": {"@spider": "usps_collection_boxes", "addr:city": "DALEVILLE", "addr:country": "US", "addr:full": "100 VIRGINIA AVE", "addr:postcode": "36322", "addr:state": "AL", "amenity": "post_box", "brand": "United States Postal Service", "brand:wikidata": "Q668687", "collection_times": "Mo-Fr 16:30; Sa 12:00", "name": "USPS COLLECTION BOX - PO LOBBY", "note": "ON 12/24 AND 12/31, THIS BOX MAY BE COLLECTED AS EARLY AS 12 NOON.", "nsi_id": "unitedstatespostalservice-a77078", "operator": "United States Postal Service", "operator:short": "USPS", "operator:type": "public", "operator:wikidata": "Q668687", "ref": "3632200014"}, "type": "Feature"}
{"dataset_attributes": {"@spider": "usps_collection_boxes", "spider:collection_time": "2023-12-19T08:25:25.283853"}, "geometry": {"coordinates": [-86.067516444, 31.416892095], "type": "Point"}, "id": "4HUDZZy3NgJVDsgzJUGSsizsHt0=", "properties": {"@spider": "usps_collection_boxes", "addr:city": "ELBA", "addr:country": "US", "addr:full": "469 CLAXTON AVE N", "addr:postcode": "36323", "addr:state": "AL", "amenity": "post_box", "brand": "United States Postal Service", "brand:wikidata": "Q668687", "collection_times": "Mo-Sa 12:00", "name": "USPS COLLECTION BOX - BLUE BOX", "nsi_id": "unitedstatespostalservice-a77078", "operator": "United States Postal Service", "operator:short": "USPS", "operator:type": "public", "operator:wikidata": "Q668687", "ref": "3632300009"}, "type": "Feature"}
{"dataset_attributes": {"@spider": "usps_collection_boxes", "spider:collection_time": "2023-12-19T08:25:25.283853"}, "geometry": {"coordinates": [-86.067516444, 31.416892095], "type": "Point"}, "id": "eyPirbLIY0mRF8fIKWhQgyrHxh0=", "properties": {"@spider": "usps_collection_boxes", "addr:city": "ELBA", "addr:country": "US", "addr:full": "469 CLAXTON AVE N", "addr:postcode": "36323", "addr:state": "AL", "amenity": "post_box", "brand": "United States Postal Service", "brand:wikidata": "Q668687", "collection_times": "Mo-Sa 12:00", "name": "USPS COLLECTION BOX - BLUE BOX", "nsi_id": "unitedstatespostalservice-a77078", "operator": "United States Postal Service", "operator:short": "USPS", "operator:type": "public", "operator:wikidata": "Q668687", "ref": "3632300010"}, "type": "Feature"}
{"dataset_attributes": {"@spider": "usps_collection_boxes", "spider:collection_time": "2023-12-19T08:25:25.283853"}, "geometry": {"coordinates": [-86.067516444, 31.416892095], "type": "Point"}, "id": "6pCXHLIsleOpOH4uIvv6HCHLjQk=", "properties": {"@spider": "usps_collection_boxes", "addr:city": "ELBA", "addr:country": "US", "addr:full": "469 CLAXTON AVE N", "addr:postcode": "36323", "addr:state": "AL", "amenity": "post_box", "brand": "United States Postal Service", "brand:wikidata": "Q668687", "collection_times": "Mo-Sa 12:00", "name": "USPS COLLECTION BOX - PO LOBBY", "nsi_id": "unitedstatespostalservice-a77078", "operator": "United States Postal Service", "operator:short": "USPS", "operator:type": "public", "operator:wikidata": "Q668687", "ref": "3632300011"}, "type": "Feature"}
{"dataset_attributes": {"@spider": "usps_collection_boxes", "spider:collection_time": "2023-12-19T08:25:25.283853"}, "geometry": {"coordinates": [-86.067516444, 31.416892095], "type": "Point"}, "id": "ZSG3AjhGUimC-GNqmXv8hL3N0Dw=", "properties": {"@spider": "usps_collection_boxes", "addr:city": "ELBA", "addr:country": "US", "addr:full": "469 CLAXTON AVE N", "addr:postcode": "36323", "addr:state": "AL", "amenity": "post_box", "brand": "United States Postal Service", "brand:wikidata": "Q668687", "collection_times": "Mo-Sa 12:00", "name": "USPS COLLECTION BOX - PO LOBBY", "nsi_id": "unitedstatespostalservice-a77078", "operator": "United States Postal Service", "operator:short": "USPS", "operator:type": "public", "operator:wikidata": "Q668687", "ref": "3632300012"}, "type": "Feature"}
{"dataset_attributes": {"@spider": "usps_collection_boxes", "spider:collection_time": "2023-12-19T08:25:25.283853"}, "geometry": {"coordinates": [-86.067516444, 31.416892095], "type": "Point"}, "id": "OZ0F_aTD8xB6F9CQIAlYQYwF4WA=", "properties": {"@spider": "usps_collection_boxes", "addr:city": "ELBA", "addr:country": "US", "addr:full": "469 CLAXTON AVE N", "addr:postcode": "36323", "addr:state": "AL", "amenity": "post_box", "brand": "United States Postal Service", "brand:wikidata": "Q668687", "collection_times": "Mo-Fr 16:30; Sa 12:00", "name": "USPS COLLECTION BOX - PO LOBBY", "note": "ON 12/24 AND 12/31, THIS BOX MAY BE COLLECTED AS EARLY AS 12 NOON.", "nsi_id": "unitedstatespostalservice-a77078", "operator": "United States Postal Service", "operator:short": "USPS", "operator:type": "public", "operator:wikidata": "Q668687", "ref": "3632300014"}, "type": "Feature"}
{"dataset_attributes": {"@spider": "usps_collection_boxes", "spider:collection_time": "2023-12-19T08:25:25.283853"}, "geometry": {"coordinates": [-85.840543614, 31.320482487], "type": "Point"}, "id": "EqXYcYTEXZG2Kk_GgwXcP2M7OBo=", "properties": {"@spider": "usps_collection_boxes", "addr:city": "ENTERPRISE", "addr:country": "US", "addr:full": "616 GLOVER AVE", "addr:postcode": "36330", "addr:state": "AL", "amenity": "post_box", "brand": "United States Postal Service", "brand:wikidata": "Q668687", "collection_times": "Mo-Fr 17:00; Sa 16:30", "name": "USPS COLLECTION BOX - PO LOBBY", "note": "ON 12/24 AND 12/31, THIS BOX MAY BE COLLECTED AS EARLY AS 12 NOON.", "nsi_id": "unitedstatespostalservice-a77078", "operator": "United States Postal Service", "operator:short": "USPS", "operator:type": "public", "operator:wikidata": "Q668687", "ref": "3633000001"}, "type": "Feature"}
{"dataset_attributes": {"@spider": "usps_collection_boxes", "spider:collection_time": "2023-12-19T08:25:25.283853"}, "geometry": {"coordinates": [-85.840543614, 31.320482487], "type": "Point"}, "id": "vX15vtB0e-04_C9aW4aSZYu6ZT8=", "properties": {"@spider": "usps_collection_boxes", "addr:city": "ENTERPRISE", "addr:country": "US", "addr:full": "616 GLOVER AVE", "addr:postcode": "36330", "addr:state": "AL", "amenity": "post_box", "brand": "United States Postal Service", "brand:wikidata": "Q668687", "collection_times": "Mo-Fr 17:00; Sa 16:30", "name": "USPS COLLECTION BOX - BLUE BOX", "note": "ON 12/24 AND 12/31, THIS BOX MAY BE COLLECTED AS EARLY AS 12 NOON.", "nsi_id": "unitedstatespostalservice-a77078", "operator": "United States Postal Service", "operator:short": "USPS", "operator:type": "public", "operator:wikidata": "Q668687", "ref": "3633000002"}, "type": "Feature"}
{"dataset_attributes": {"@spider": "usps_collection_boxes", "spider:collection_time": "2023-12-19T08:25:25.283853"}, "geometry": {"coordinates": [-85.840543614, 31.320482487], "type": "Point"}, "id": "02RNYX83b9sS1HCab_eIQhdoaog=", "properties": {"@spider": "usps_collection_boxes", "addr:city": "ENTERPRISE", "addr:country": "US", "addr:full": "616 GLOVER AVE", "addr:postcode": "36330", "addr:state": "AL", "amenity": "post_box", "brand": "United States Postal Service", "brand:wikidata": "Q668687", "collection_times": "Mo-Fr 17:00; Sa 16:30", "name": "USPS COLLECTION BOX - BLUE BOX", "note": "ON 12/24 AND 12/31, THIS BOX MAY BE COLLECTED AS EARLY AS 12 NOON.", "nsi_id": "unitedstatespostalservice-a77078", "operator": "United States Postal Service", "operator:short": "USPS", "operator:type": "public", "operator:wikidata": "Q668687", "ref": "3633000003"}, "type": "Feature"}
{"dataset_attributes": {"@spider": "usps_collection_boxes", "spider:collection_time": "2023-12-19T08:25:25.283853"}, "geometry": {"coordinates": [-85.840543614, 31.320482487], "type": "Point"}, "id": "YhJ1TId_D0f4QfjO_Ss8ABYXDFc=", "properties": {"@spider": "usps_collection_boxes", "addr:city": "ENTERPRISE", "addr:country": "US", "addr:full": "616 GLOVER AVE", "addr:postcode": "36330", "addr:state": "AL", "amenity": "post_box", "brand": "United States Postal Service", "brand:wikidata": "Q668687", "collection_times": "Mo-Fr 17:00; Sa 16:30", "name": "USPS COLLECTION BOX - BLUE BOX", "note": "ON 12/24 AND 12/31, THIS BOX MAY BE COLLECTED AS EARLY AS 12 NOON.", "nsi_id": "unitedstatespostalservice-a77078", "operator": "United States Postal Service", "operator:short": "USPS", "operator:type": "public", "operator:wikidata": "Q668687", "ref": "3633000004"}, "type": "Feature"}
{"dataset_attributes": {"@spider": "usps_collection_boxes", "spider:collection_time": "2023-12-19T08:25:25.283853"}, "geometry": {"coordinates": [-85.840543614, 31.320482487], "type": "Point"}, "id": "_kVI2losRZb80K7jT3MfC3vBw70=", "properties": {"@spider": "usps_collection_boxes", "addr:city": "ENTERPRISE", "addr:country": "US", "addr:full": "616 GLOVER AVE", "addr:postcode": "36330", "addr:state": "AL", "amenity": "post_box", "brand": "United States Postal Service", "brand:wikidata": "Q668687", "collection_times": "Mo-Fr 17:00; Sa 16:30", "name": "USPS COLLECTION BOX - BLUE BOX", "note": "ON 12/24 AND 12/31, THIS BOX MAY BE COLLECTED AS EARLY AS 12 NOON.", "nsi_id": "unitedstatespostalservice-a77078", "operator": "United States Postal Service", "operator:short": "USPS", "operator:type": "public", "operator:wikidata": "Q668687", "ref": "3633000042"}, "type": "Feature"}
{"dataset_attributes": {"@spider": "usps_collection_boxes", "spider:collection_time": "2023-12-19T08:25:25.283853"}, "geometry": {"coordinates": [-85.840543614, 31.320482487], "type": "Point"}, "id": "liwpEuiID6MU-2e6rO0t62Sz61M=", "properties": {"@spider": "usps_collection_boxes", "addr:city": "ENTERPRISE", "addr:country": "US", "addr:full": "616 GLOVER AVE", "addr:postcode": "36330", "addr:state": "AL", "amenity": "post_box", "brand": "United States Postal Service", "brand:wikidata": "Q668687", "collection_times": "Mo-Fr 16:30; Sa 12:00", "name": "USPS COLLECTION BOX - PO LOBBY", "note": "ON 12/24 AND 12/31, THIS BOX MAY BE COLLECTED AS EARLY AS 12 NOON.", "nsi_id": "unitedstatespostalservice-a77078", "operator": "United States Postal Service", "operator:short": "USPS", "operator:type": "public", "operator:wikidata": "Q668687", "ref": "3633000046"}, "type": "Feature"}
{"dataset_attributes": {"@spider": "usps_collection_boxes", "spider:collection_time": "2023-12-19T08:25:25.283853"}, "geometry": {"coordinates": [-85.840533639, 31.320482487], "type": "Point"}, "id": "WuunuouZ_NuBtXFP8-5O2AHuXtI=", "properties": {"@spider": "usps_collection_boxes", "addr:city": "ENTERPRISE", "addr:country": "US", "addr:full": "616 GLOVER AVE", "addr:postcode": "36330", "addr:state": "AL", "amenity": "post_box", "brand": "United States Postal Service", "brand:wikidata": "Q668687", "collection_times": "Mo-Sa 16:30", "name": "USPS COLLECTION BOX - APC", "note": "ON 12/24 AND 12/31, THIS BOX MAY BE COLLECTED AS EARLY AS 12 NOON.", "nsi_id": "unitedstatespostalservice-a77078", "operator": "United States Postal Service", "operator:short": "USPS", "operator:type": "public", "operator:wikidata": "Q668687", "ref": "3633000047"}, "type": "Feature"}
{"dataset_attributes": {"@spider": "usps_collection_boxes", "spider:collection_time": "2023-12-19T08:25:25.283853"}, "geometry": {"coordinates": [-85.865431454, 31.034866476], "type": "Point"}, "id": "IGPqWlIoPDkiIoL_D340M6gtqZE=", "properties": {"@spider": "usps_collection_boxes", "addr:city": "GENEVA", "addr:country": "US", "addr:full": "800 E CHURCH AVE", "addr:postcode": "36340", "addr:state": "AL", "amenity": "post_box", "brand": "United States Postal Service", "brand:wikidata": "Q668687", "collection_times": "Mo-Fr 15:00; Sa 11:45", "name": "USPS COLLECTION BOX - PO LOBBY", "note": "ON 12/24 AND 12/31, THIS BOX MAY BE COLLECTED AS EARLY AS 12 NOON.", "nsi_id": "unitedstatespostalservice-a77078", "operator": "United States Postal Service", "operator:short": "USPS", "operator:type": "public", "operator:wikidata": "Q668687", "ref": "3634000001"}, "type": "Feature"}
{"dataset_attributes": {"@spider": "usps_collection_boxes", "spider:collection_time": "2023-12-19T08:25:25.283853"}, "geometry": {"coordinates": [-85.865431454, 31.034866476], "type": "Point"}, "id": "1dr4gGoc8Qf-B6N5_BHtD6INGr0=", "properties": {"@spider": "usps_collection_boxes", "addr:city": "GENEVA", "addr:country": "US", "addr:full": "800 E CHURCH AVE", "addr:postcode": "36340", "addr:state": "AL", "amenity": "post_box", "brand": "United States Postal Service", "brand:wikidata": "Q668687", "collection_times": "Mo-Fr 15:00; Sa 11:45", "name": "USPS COLLECTION BOX - BLUE BOX", "note": "ON 12/24 AND 12/31, THIS BOX MAY BE COLLECTED AS EARLY AS 12 NOON.", "nsi_id": "unitedstatespostalservice-a77078", "operator": "United States Postal Service", "operator:short": "USPS", "operator:type": "public", "operator:wikidata": "Q668687", "ref": "3634000002"}, "type": "Feature"}
{"dataset_attributes": {"@spider": "usps_collection_boxes", "spider:collection_time": "2023-12-19T08:25:25.283853"}, "geometry": {"coordinates": [-85.866202085, 31.040079315], "type": "Point"}, "id": "2DPVo3ZjG8JOzqq-b-X8CYVG-FY=", "properties": {"@spider": "usps_collection_boxes", "addr:city": "GENEVA", "addr:country": "US", "addr:full": "200 N COMMERCE ST", "addr:postcode": "36340", "addr:state": "AL", "amenity": "post_box", "brand": "United States Postal Service", "brand:wikidata": "Q668687", "collection_times": "Mo-Fr 15:00", "name": "USPS COLLECTION BOX - BLUE BOX", "note": "ON 12/24 AND 12/31, THIS BOX MAY BE COLLECTED AS EARLY AS 12 NOON.", "nsi_id": "unitedstatespostalservice-a77078", "operator": "United States Postal Service", "operator:short": "USPS", "operator:type": "public", "operator:wikidata": "Q668687", "ref": "3634000005"}, "type": "Feature"}
{"dataset_attributes": {"@spider": "usps_collection_boxes", "spider:collection_time": "2023-12-19T08:25:25.283853"}, "geometry": {"coordinates": [-85.865431454, 31.034866476], "type": "Point"}, "id": "ENpar-KsrZYmf1fbX26Rt-Wz1N4=", "properties": {"@spider": "usps_collection_boxes", "addr:city": "GENEVA", "addr:country": "US", "addr:full": "800 E CHURCH AVE", "addr:postcode": "36340", "addr:state": "AL", "amenity": "post_box", "brand": "United States Postal Service", "brand:wikidata": "Q668687", "collection_times": "Mo-Fr 16:30; Sa 12:00", "name": "USPS COLLECTION BOX - PO LOBBY", "note": "ON 12/24 AND 12/31, THIS BOX MAY BE COLLECTED AS EARLY AS 12 NOON.", "nsi_id": "unitedstatespostalservice-a77078", "operator": "United States Postal Service", "operator:short": "USPS", "operator:type": "public", "operator:wikidata": "Q668687", "ref": "3634000007"}, "type": "Feature"}
{"dataset_attributes": {"@spider": "usps_collection_boxes", "spider:collection_time": "2023-12-19T08:25:25.283853"}, "geometry": {"coordinates": [-85.0943821338, 31.1483405254], "type": "Point"}, "id": "xqTuwePG08ZusuC4fmbrA055mKY=", "properties": {"@spider": "usps_collection_boxes", "addr:city": "GORDON", "addr:country": "US", "addr:full": "1950 N COUNTY ROAD 95", "addr:postcode": "36343", "addr:state": "AL", "amenity": "post_box", "brand": "United States Postal Service", "brand:wikidata": "Q668687", "collection_times": "Mo-Fr 11:50; Sa 10:30", "name": "USPS COLLECTION BOX - PO LOBBY", "nsi_id": "unitedstatespostalservice-a77078", "operator": "United States Postal Service", "operator:short": "USPS", "operator:type": "public", "operator:wikidata": "Q668687", "ref": "3634300002"}, "type": "Feature"}
{"dataset_attributes": {"@spider": "usps_collection_boxes", "spider:collection_time": "2023-12-19T08:25:25.283853"}, "geometry": {"coordinates": [-85.0943821338, 31.1483405254], "type": "Point"}, "id": "IJ6feIaIIqf-PSst4rwMWJt7JSY=", "properties": {"@spider": "usps_collection_boxes", "addr:city": "GORDON", "addr:country": "US", "addr:full": "1950 N COUNTY ROAD 95", "addr:postcode": "36343", "addr:state": "AL", "amenity": "post_box", "brand": "United States Postal Service", "brand:wikidata": "Q668687", "collection_times": "Mo-Fr 12:00; Sa 10:45", "name": "USPS COLLECTION BOX - PO LOBBY", "nsi_id": "unitedstatespostalservice-a77078", "operator": "United States Postal Service", "operator:short": "USPS", "operator:type": "public", "operator:wikidata": "Q668687", "ref": "3634300004"}, "type": "Feature"}
{"dataset_attributes": {"@spider": "usps_collection_boxes", "spider:collection_time": "2023-12-19T08:25:25.283853"}, "geometry": {"coordinates": [-85.697722956, 31.102126395], "type": "Point"}, "id": "cncNqSXXkGwUnImsHHByawn4tvs=", "properties": {"@spider": "usps_collection_boxes", "addr:city": "HARTFORD", "addr:country": "US", "addr:full": "201 W MAIN ST", "addr:postcode": "36344", "addr:state": "AL", "amenity": "post_box", "brand": "United States Postal Service", "brand:wikidata": "Q668687", "collection_times": "Mo-Fr 16:15; Sa 11:15", "name": "USPS COLLECTION BOX - BLUE BOX", "note": "ON 12/24 AND 12/31, THIS BOX MAY BE COLLECTED AS EARLY AS 12 NOON.", "nsi_id": "unitedstatespostalservice-a77078", "operator": "United States Postal Service", "operator:short": "USPS", "operator:type": "public", "operator:wikidata": "Q668687", "ref": "3634400003"}, "type": "Feature"}
{"dataset_attributes": {"@spider": "usps_collection_boxes", "spider:collection_time": "2023-12-19T08:25:25.283853"}, "geometry": {"coordinates": [-85.697722956, 31.102126395], "type": "Point"}, "id": "zmDBSOnWZ6TwzZCh-uPO2RF_C1Y=", "properties": {"@spider": "usps_collection_boxes", "addr:city": "HARTFORD", "addr:country": "US", "addr:full": "201 W MAIN ST", "addr:postcode": "36344", "addr:state": "AL", "amenity": "post_box", "brand": "United States Postal Service", "brand:wikidata": "Q668687", "collection_times": "Mo-Fr 16:15; Sa 11:15", "name": "USPS COLLECTION BOX - PO LOBBY", "note": "ON 12/24 AND 12/31, THIS BOX MAY BE COLLECTED AS EARLY AS 12 NOON.", "nsi_id": "unitedstatespostalservice-a77078", "operator": "United States Postal Service", "operator:short": "USPS", "operator:type": "public", "operator:wikidata": "Q668687", "ref": "3634400004"}, "type": "Feature"}
{"dataset_attributes": {"@spider": "usps_collection_boxes", "spider:collection_time": "2023-12-19T08:25:25.283853"}, "geometry": {"coordinates": [-85.697722956, 31.102126395], "type": "Point"}, "id": "Fh0KecbiDn-JhOpeoEWxnG_rddA=", "properties": {"@spider": "usps_collection_boxes", "addr:city": "HARTFORD", "addr:country": "US", "addr:full": "201 W MAIN ST", "addr:postcode": "36344", "addr:state": "AL", "amenity": "post_box", "brand": "United States Postal Service", "brand:wikidata": "Q668687", "collection_times": "Mo-Fr 16:30; Sa 11:30", "name": "USPS COLLECTION BOX - PO LOBBY", "note": "ON 12/24 AND 12/31, THIS BOX MAY BE COLLECTED AS EARLY AS 12 NOON.", "nsi_id": "unitedstatespostalservice-a77078", "operator": "United States Postal Service", "operator:short": "USPS", "operator:type": "public", "operator:wikidata": "Q668687", "ref": "3634400006"}, "type": "Feature"}
{"dataset_attributes": {"@spider": "usps_collection_boxes", "spider:collection_time": "2023-12-19T08:25:25.283853"}, "geometry": {"coordinates": [-85.335673977, 31.340386569], "type": "Point"}, "id": "3ZkawPfRg4mredBiKZRUMQXDyXE=", "properties": {"@spider": "usps_collection_boxes", "addr:city": "HEADLAND", "addr:country": "US", "addr:full": "711 MITCHELL ST", "addr:postcode": "36345", "addr:state": "AL", "amenity": "post_box", "brand": "United States Postal Service", "brand:wikidata": "Q668687", "collection_times": "Mo-Fr 12:00; Sa 11:00", "name": "USPS COLLECTION BOX - BLUE BOX", "nsi_id": "unitedstatespostalservice-a77078", "operator": "United States Postal Service", "operator:short": "USPS", "operator:type": "public", "operator:wikidata": "Q668687", "ref": "3634500003"}, "type": "Feature"}
{"dataset_attributes": {"@spider": "usps_collection_boxes", "spider:collection_time": "2023-12-19T08:25:25.283853"}, "geometry": {"coordinates": [-85.335673977, 31.340386569], "type": "Point"}, "id": "c1hGEO1jcqutVtzkr4H66gsWhx4=", "properties": {"@spider": "usps_collection_boxes", "addr:city": "HEADLAND", "addr:country": "US", "addr:full": "711 MITCHELL ST", "addr:postcode": "36345", "addr:state": "AL", "amenity": "post_box", "brand": "United States Postal Service", "brand:wikidata": "Q668687", "collection_times": "Mo-Fr 12:00; Sa 11:00", "name": "USPS COLLECTION BOX - BLUE BOX", "nsi_id": "unitedstatespostalservice-a77078", "operator": "United States Postal Service", "operator:short": "USPS", "operator:type": "public", "operator:wikidata": "Q668687", "ref": "3634500006"}, "type": "Feature"}
{"dataset_attributes": {"@spider": "usps_collection_boxes", "spider:collection_time": "2023-12-19T08:25:25.283853"}, "geometry": {"coordinates": [-85.335673977, 31.340386569], "type": "Point"}, "id": "Lq1QJxUM6I6tB1i5YJN2E1av3E0=", "properties": {"@spider": "usps_collection_boxes", "addr:city": "HEADLAND", "addr:country": "US", "addr:full": "711 MITCHELL ST", "addr:postcode": "36345", "addr:state": "AL", "amenity": "post_box", "brand": "United States Postal Service", "brand:wikidata": "Q668687", "collection_times": "Mo-Fr 12:00; Sa 11:00", "name": "USPS COLLECTION BOX - PO LOBBY", "nsi_id": "unitedstatespostalservice-a77078", "operator": "United States Postal Service", "operator:short": "USPS", "operator:type": "public", "operator:wikidata": "Q668687", "ref": "3634500008"}, "type": "Feature"}
{"dataset_attributes": {"@spider": "usps_collection_boxes", "spider:collection_time": "2023-12-19T08:25:25.283853"}, "geometry": {"coordinates": [-85.335673977, 31.340386569], "type": "Point"}, "id": "TyKPPoCz0aB6EPCtnaH7DD6BN8c=", "properties": {"@spider": "usps_collection_boxes", "addr:city": "HEADLAND", "addr:country": "US", "addr:full": "711 MITCHELL ST", "addr:postcode": "36345", "addr:state": "AL", "amenity": "post_box", "brand": "United States Postal Service", "brand:wikidata": "Q668687", "collection_times": "Mo-Fr 16:30; Sa 11:00", "name": "USPS COLLECTION BOX - PO LOBBY", "note": "ON 12/24 AND 12/31, THIS BOX MAY BE COLLECTED AS EARLY AS 12 NOON.", "nsi_id": "unitedstatespostalservice-a77078", "operator": "United States Postal Service", "operator:short": "USPS", "operator:type": "public", "operator:wikidata": "Q668687", "ref": "3634500010"}, "type": "Feature"}
{"dataset_attributes": {"@spider": "usps_collection_boxes", "spider:collection_time": "2023-12-19T08:25:25.283853"}, "geometry": {"coordinates": [-85.9038856, 31.5616478], "type": "Point"}, "id": "BZ9Ci74iccwkE1lWIvMth5s_pp0=", "properties": {"@spider": "usps_collection_boxes", "addr:city": "JACK", "addr:country": "US", "addr:full": "29950 HIGHWAY 87", "addr:postcode": "36346", "addr:state": "AL", "amenity": "post_box", "brand": "United States Postal Service", "brand:wikidata": "Q668687", "collection_times": "Mo-Sa 11:00", "name": "USPS COLLECTION BOX - BLUE BOX", "nsi_id": "unitedstatespostalservice-a77078", "operator": "United States Postal Service", "operator:short": "USPS", "operator:type": "public", "operator:wikidata": "Q668687", "ref": "3634600001"}, "type": "Feature"}
{"dataset_attributes": {"@spider": "usps_collection_boxes", "spider:collection_time": "2023-12-19T08:25:25.283853"}, "geometry": {"coordinates": [-85.494407316, 31.318968224], "type": "Point"}, "id": "C7kGOEFbWV7ATtdgX_daCDbb8rg=", "properties": {"@spider": "usps_collection_boxes", "addr:city": "MIDLAND CITY", "addr:country": "US", "addr:full": "167 KELLY AVE", "addr:postcode": "36350", "addr:state": "AL", "amenity": "post_box", "brand": "United States Postal Service", "brand:wikidata": "Q668687", "collection_times": "Mo-Fr 15:45; Sa 09:45", "name": "USPS COLLECTION BOX - BLUE BOX", "note": "ON 12/24 AND 12/31, THIS BOX MAY BE COLLECTED AS EARLY AS 12 NOON.", "nsi_id": "unitedstatespostalservice-a77078", "operator": "United States Postal Service", "operator:short": "USPS", "operator:type": "public", "operator:wikidata": "Q668687", "ref": "3635000001"}, "type": "Feature"}
{"dataset_attributes": {"@spider": "usps_collection_boxes", "spider:collection_time": "2023-12-19T08:25:25.283853"}, "geometry": {"coordinates": [-85.495865, 31.318545], "type": "Point"}, "id": "48WAa7byrOhPjJXtno9uIXNuWJg=", "properties": {"@spider": "usps_collection_boxes", "addr:city": "MIDLAND CITY", "addr:country": "US", "addr:full": "167 KELLY AVE", "addr:postcode": "36350", "addr:state": "AL", "amenity": "post_box", "brand": "United States Postal Service", "brand:wikidata": "Q668687", "collection_times": "Mo-Fr 15:45; Sa 09:45", "name": "USPS COLLECTION BOX - BLUE BOX", "note": "ON 12/24 AND 12/31, THIS BOX MAY BE COLLECTED AS EARLY AS 12 NOON.", "nsi_id": "unitedstatespostalservice-a77078", "operator": "United States Postal Service", "operator:short": "USPS", "operator:type": "public", "operator:wikidata": "Q668687", "ref": "3635000002"}, "type": "Feature"}
{"dataset_attributes": {"@spider": "usps_collection_boxes", "spider:collection_time": "2023-12-19T08:25:25.283853"}, "geometry": {"coordinates": [-85.494407316, 31.318968224], "type": "Point"}, "id": "F5Oz3FLX8rEd_0PGDJT1ZC77hQE=", "properties": {"@spider": "usps_collection_boxes", "addr:city": "MIDLAND CITY", "addr:country": "US", "addr:full": "167 KELLY AVE", "addr:postcode": "36350", "addr:state": "AL", "amenity": "post_box", "brand": "United States Postal Service", "brand:wikidata": "Q668687", "collection_times": "Mo-Fr 15:45; Sa 09:45", "name": "USPS COLLECTION BOX - PO LOBBY", "note": "ON 12/24 AND 12/31, THIS BOX MAY BE COLLECTED AS EARLY AS 12 NOON.", "nsi_id": "unitedstatespostalservice-a77078", "operator": "United States Postal Service", "operator:short": "USPS", "operator:type": "public", "operator:wikidata": "Q668687", "ref": "3635000003"}, "type": "Feature"}
{"dataset_attributes": {"@spider": "usps_collection_boxes", "spider:collection_time": "2023-12-19T08:25:25.283853"}, "geometry": {"coordinates": [-85.494407316, 31.318968224], "type": "Point"}, "id": "4bU08dTU2VzQCKu9allsMmjK00s=", "properties": {"@spider": "usps_collection_boxes", "addr:city": "MIDLAND CITY", "addr:country": "US", "addr:full": "167 KELLY AVE", "addr:postcode": "36350", "addr:state": "AL", "amenity": "post_box", "brand": "United States Postal Service", "brand:wikidata": "Q668687", "collection_times": "Mo-Fr 16:00; Sa 10:00", "name": "USPS COLLECTION BOX - PO LOBBY", "note": "ON 12/24 AND 12/31, THIS BOX MAY BE COLLECTED AS EARLY AS 12 NOON.", "nsi_id": "unitedstatespostalservice-a77078", "operator": "United States Postal Service", "operator:short": "USPS", "operator:type": "public", "operator:wikidata": "Q668687", "ref": "3635000005"}, "type": "Feature"}
{"dataset_attributes": {"@spider": "usps_collection_boxes", "spider:collection_time": "2023-12-19T08:25:25.283853"}, "geometry": {"coordinates": [-85.931500633, 31.383987079], "type": "Point"}, "id": "I1vAdhUv8gvUAHK_mVfdCoOkDj0=", "properties": {"@spider": "usps_collection_boxes", "addr:city": "NEW BROCKTON", "addr:country": "US", "addr:full": "311 S JOHN ST", "addr:postcode": "36351", "addr:state": "AL", "amenity": "post_box", "brand": "United States Postal Service", "brand:wikidata": "Q668687", "collection_times": "Mo-Fr 15:45; Sa 11:45", "name": "USPS COLLECTION BOX - BLUE BOX", "note": "ON 12/24 AND 12/31, THIS BOX MAY BE COLLECTED AS EARLY AS 12 NOON.", "nsi_id": "unitedstatespostalservice-a77078", "operator": "United States Postal Service", "operator:short": "USPS", "operator:type": "public", "operator:wikidata": "Q668687", "ref": "3635100001"}, "type": "Feature"}
{"dataset_attributes": {"@spider": "usps_collection_boxes", "spider:collection_time": "2023-12-19T08:25:25.283853"}, "geometry": {"coordinates": [-85.931500633, 31.383987079], "type": "Point"}, "id": "a8SFSo4aUtnZu8MVzA9hvMRy0Aw=", "properties": {"@spider": "usps_collection_boxes", "addr:city": "NEW BROCKTON", "addr:country": "US", "addr:full": "311 S JOHN ST", "addr:postcode": "36351", "addr:state": "AL", "amenity": "post_box", "brand": "United States Postal Service", "brand:wikidata": "Q668687", "collection_times": "Mo-Fr 15:45; Sa 11:45", "name": "USPS COLLECTION BOX - PO LOBBY", "note": "ON 12/24 AND 12/31, THIS BOX MAY BE COLLECTED AS EARLY AS 12 NOON.", "nsi_id": "unitedstatespostalservice-a77078", "operator": "United States Postal Service", "operator:short": "USPS", "operator:type": "public", "operator:wikidata": "Q668687", "ref": "3635100002"}, "type": "Feature"}
{"dataset_attributes": {"@spider": "usps_collection_boxes", "spider:collection_time": "2023-12-19T08:25:25.283853"}, "geometry": {"coordinates": [-85.931500633, 31.383987079], "type": "Point"}, "id": "0efVuHZfwbM5iaT_A21Vbi8I5qE=", "properties": {"@spider": "usps_collection_boxes", "addr:city": "NEW BROCKTON", "addr:country": "US", "addr:full": "311 S JOHN ST", "addr:postcode": "36351", "addr:state": "AL", "amenity": "post_box", "brand": "United States Postal Service", "brand:wikidata": "Q668687", "collection_times": "Mo-Fr 16:00; Sa 12:00", "name": "USPS COLLECTION BOX - PO LOBBY", "note": "ON 12/24 AND 12/31, THIS BOX MAY BE COLLECTED AS EARLY AS 12 NOON.", "nsi_id": "unitedstatespostalservice-a77078", "operator": "United States Postal Service", "operator:short": "USPS", "operator:type": "public", "operator:wikidata": "Q668687", "ref": "3635100004"}, "type": "Feature"}
{"dataset_attributes": {"@spider": "usps_collection_boxes", "spider:collection_time": "2023-12-19T08:25:25.283853"}, "geometry": {"coordinates": [-85.595270945, 31.327345196], "type": "Point"}, "id": "SucE3x6dvj9ukvlSCiDMC8nznq0=", "properties": {"@spider": "usps_collection_boxes", "addr:city": "NEWTON", "addr:country": "US", "addr:full": "715 S COLLEGE ST", "addr:postcode": "36352", "addr:state": "AL", "amenity": "post_box", "brand": "United States Postal Service", "brand:wikidata": "Q668687", "collection_times": "Mo-Fr 16:00; Sa 10:00", "name": "USPS COLLECTION BOX - BLUE BOX", "note": "ON 12/24 AND 12/31, THIS BOX MAY BE COLLECTED AS EARLY AS 12 NOON.", "nsi_id": "unitedstatespostalservice-a77078", "operator": "United States Postal Service", "operator:short": "USPS", "operator:type": "public", "operator:wikidata": "Q668687", "ref": "3635200001"}, "type": "Feature"}
{"dataset_attributes": {"@spider": "usps_collection_boxes", "spider:collection_time": "2023-12-19T08:25:25.283853"}, "geometry": {"coordinates": [-85.595270945, 31.327345196], "type": "Point"}, "id": "99hRBsIKmbOK6QZXD-aJ7CWkpDc=", "properties": {"@spider": "usps_collection_boxes", "addr:city": "NEWTON", "addr:country": "US", "addr:full": "715 S COLLEGE ST", "addr:postcode": "36352", "addr:state": "AL", "amenity": "post_box", "brand": "United States Postal Service", "brand:wikidata": "Q668687", "collection_times": "Mo-Fr 16:00; Sa 10:00", "name": "USPS COLLECTION BOX - PO LOBBY", "note": "ON 12/24 AND 12/31, THIS BOX MAY BE COLLECTED AS EARLY AS 12 NOON.", "nsi_id": "unitedstatespostalservice-a77078", "operator": "United States Postal Service", "operator:short": "USPS", "operator:type": "public", "operator:wikidata": "Q668687", "ref": "3635200002"}, "type": "Feature"}
{"dataset_attributes": {"@spider": "usps_collection_boxes", "spider:collection_time": "2023-12-19T08:25:25.283853"}, "geometry": {"coordinates": [-85.595270945, 31.327345196], "type": "Point"}, "id": "wVH3LRUbWkHICSczkoGEwioBrTQ=", "properties": {"@spider": "usps_collection_boxes", "addr:city": "NEWTON", "addr:country": "US", "addr:full": "715 S COLLEGE ST", "addr:postcode": "36352", "addr:state": "AL", "amenity": "post_box", "brand": "United States Postal Service", "brand:wikidata": "Q668687", "collection_times": "Mo-Fr 16:00; Sa 10:00", "name": "USPS COLLECTION BOX - PO LOBBY", "note": "ON 12/24 AND 12/31, THIS BOX MAY BE COLLECTED AS EARLY AS 12 NOON.", "nsi_id": "unitedstatespostalservice-a77078", "operator": "United States Postal Service", "operator:short": "USPS", "operator:type": "public", "operator:wikidata": "Q668687", "ref": "3635200004"}, "type": "Feature"}
{"dataset_attributes": {"@spider": "usps_collection_boxes", "spider:collection_time": "2023-12-19T08:25:25.283853"}, "geometry": {"coordinates": [-85.33645894, 31.421032064], "type": "Point"}, "id": "TtKUDDbOKsp8dws5VB4fF1cpmps=", "properties": {"@spider": "usps_collection_boxes", "addr:city": "NEWVILLE", "addr:country": "US", "addr:full": "182 N BROAD ST", "addr:postcode": "36353", "addr:state": "AL", "amenity": "post_box", "brand": "United States Postal Service", "brand:wikidata": "Q668687", "collection_times": "Mo-Fr 11:50; Sa 09:00", "name": "USPS COLLECTION BOX - BLUE BOX", "nsi_id": "unitedstatespostalservice-a77078", "operator": "United States Postal Service", "operator:short": "USPS", "operator:type": "public", "operator:wikidata": "Q668687", "ref": "3635300001"}, "type": "Feature"}
{"dataset_attributes": {"@spider": "usps_collection_boxes", "spider:collection_time": "2023-12-19T08:25:25.283853"}, "geometry": {"coordinates": [-85.33645894, 31.421032064], "type": "Point"}, "id": "mNQIB8424-T-QGVFY93fFNH6F04=", "properties": {"@spider": "usps_collection_boxes", "addr:city": "NEWVILLE", "addr:country": "US", "addr:full": "182 N BROAD ST", "addr:postcode": "36353", "addr:state": "AL", "amenity": "post_box", "brand": "United States Postal Service", "brand:wikidata": "Q668687", "collection_times": "Mo-Fr 11:50; Sa 09:00", "name": "USPS COLLECTION BOX - PO LOBBY", "nsi_id": "unitedstatespostalservice-a77078", "operator": "United States Postal Service", "operator:short": "USPS", "operator:type": "public", "operator:wikidata": "Q668687", "ref": "3635300002"}, "type": "Feature"}
{"dataset_attributes": {"@spider": "usps_collection_boxes", "spider:collection_time": "2023-12-19T08:25:25.283853"}, "geometry": {"coordinates": [-85.33645894, 31.421032064], "type": "Point"}, "id": "TdgVC12M71ychjXYfzh3jEENNig=", "properties": {"@spider": "usps_collection_boxes", "addr:city": "NEWVILLE", "addr:country": "US", "addr:full": "182 N BROAD ST", "addr:postcode": "36353", "addr:state": "AL", "amenity": "post_box", "brand": "United States Postal Service", "brand:wikidata": "Q668687", "collection_times": "Mo-Fr 12:00; Sa 10:15", "name": "USPS COLLECTION BOX - PO LOBBY", "nsi_id": "unitedstatespostalservice-a77078", "operator": "United States Postal Service", "operator:short": "USPS", "operator:type": "public", "operator:wikidata": "Q668687", "ref": "3635300004"}, "type": "Feature"}
{"dataset_attributes": {"@spider": "usps_collection_boxes", "spider:collection_time": "2023-12-19T08:25:25.283853"}, "geometry": {"coordinates": [-85.646443115, 31.455919365], "type": "Point"}, "id": "gdSGVejfHBrQB4IdNAUtzfv4wBw=", "properties": {"@spider": "usps_collection_boxes", "addr:city": "OZARK", "addr:country": "US", "addr:full": "537 ANDREWS AVE", "addr:postcode": "36360", "addr:state": "AL", "amenity": "post_box", "brand": "United States Postal Service", "brand:wikidata": "Q668687", "collection_times": "Mo-Sa 16:00", "name": "USPS COLLECTION BOX - BLUE BOX", "note": "ON 12/24 AND 12/31, THIS BOX MAY BE COLLECTED AS EARLY AS 12 NOON.", "nsi_id": "unitedstatespostalservice-a77078", "operator": "United States Postal Service", "operator:short": "USPS", "operator:type": "public", "operator:wikidata": "Q668687", "ref": "3636000002"}, "type": "Feature"}
{"dataset_attributes": {"@spider": "usps_collection_boxes", "spider:collection_time": "2023-12-19T08:25:25.283853"}, "geometry": {"coordinates": [-85.646443115, 31.455919365], "type": "Point"}, "id": "h4PsTZHIwIHy75564DxxuNQkbbw=", "properties": {"@spider": "usps_collection_boxes", "addr:city": "OZARK", "addr:country": "US", "addr:full": "537 ANDREWS AVE", "addr:postcode": "36360", "addr:state": "AL", "amenity": "post_box", "brand": "United States Postal Service", "brand:wikidata": "Q668687", "collection_times": "Mo-Sa 16:00", "name": "USPS COLLECTION BOX - BLUE BOX", "note": "ON 12/24 AND 12/31, THIS BOX MAY BE COLLECTED AS EARLY AS 12 NOON.", "nsi_id": "unitedstatespostalservice-a77078", "operator": "United States Postal Service", "operator:short": "USPS", "operator:type": "public", "operator:wikidata": "Q668687", "ref": "3636000003"}, "type": "Feature"}
{"dataset_attributes": {"@spider": "usps_collection_boxes", "spider:collection_time": "2023-12-19T08:25:25.283853"}, "geometry": {"coordinates": [-85.646443115, 31.4559193646], "type": "Point"}, "id": "Kw9jLdywGi3VN17XNV6dWCCSp2o=", "properties": {"@spider": "usps_collection_boxes", "addr:city": "OZARK", "addr:country": "US", "addr:full": "537 ANDREWS AVE", "addr:postcode": "36360", "addr:state": "AL", "amenity": "post_box", "brand": "United States Postal Service", "brand:wikidata": "Q668687", "collection_times": "Mo-Sa 16:00", "name": "USPS COLLECTION BOX - PO LOBBY", "note": "ON 12/24 AND 12/31, THIS BOX MAY BE COLLECTED AS EARLY AS 12 NOON.", "nsi_id": "unitedstatespostalservice-a77078", "operator": "United States Postal Service", "operator:short": "USPS", "operator:type": "public", "operator:wikidata": "Q668687", "ref": "3636000023"}, "type": "Feature"}
{"dataset_attributes": {"@spider": "usps_collection_boxes", "spider:collection_time": "2023-12-19T08:25:25.283853"}, "geometry": {"coordinates": [-85.646443115, 31.4559193646], "type": "Point"}, "id": "7hVr_8n_v8pjARnRR8lCxB4zMpM=", "properties": {"@spider": "usps_collection_boxes", "addr:city": "OZARK", "addr:country": "US", "addr:full": "537 ANDREWS AVE", "addr:postcode": "36360", "addr:state": "AL", "amenity": "post_box", "brand": "United States Postal Service", "brand:wikidata": "Q668687", "collection_times": "Mo-Fr 16:15; Sa 12:00", "name": "USPS COLLECTION BOX - PO LOBBY", "note": "ON 12/24 AND 12/31, THIS BOX MAY BE COLLECTED AS EARLY AS 12 NOON.", "nsi_id": "unitedstatespostalservice-a77078", "operator": "United States Postal Service", "operator:short": "USPS", "operator:type": "public", "operator:wikidata": "Q668687", "ref": "3636000032"}, "type": "Feature"}
{"dataset_attributes": {"@spider": "usps_collection_boxes", "spider:collection_time": "2023-12-19T08:25:25.283853"}, "geometry": {"coordinates": [-85.70800777, 31.347093124], "type": "Point"}, "id": "IJj94q-Pm4Xc1gdf-vjsH9smb8c=", "properties": {"@spider": "usps_collection_boxes", "addr:city": "FORT RUCKER", "addr:country": "US", "addr:full": "9000 RUF AVE", "addr:postcode": "36362", "addr:state": "AL", "amenity": "post_box", "brand": "United States Postal Service", "brand:wikidata": "Q668687", "collection_times": "Mo-Fr 16:15; Sa 09:30", "name": "USPS COLLECTION BOX - PO LOBBY", "note": "ON 12/24 AND 12/31, THIS BOX MAY BE COLLECTED AS EARLY AS 12 NOON.", "nsi_id": "unitedstatespostalservice-a77078", "operator": "United States Postal Service", "operator:short": "USPS", "operator:type": "public", "operator:wikidata": "Q668687", "ref": "3636200021"}, "type": "Feature"}
{"dataset_attributes": {"@spider": "usps_collection_boxes", "spider:collection_time": "2023-12-19T08:25:25.283853"}, "geometry": {"coordinates": [-85.7080077702, 31.3470931245], "type": "Point"}, "id": "07583GvLz9NLtA4dhNjTu1SUmaU=", "properties": {"@spider": "usps_collection_boxes", "addr:city": "FORT RUCKER", "addr:country": "US", "addr:full": "9000 RUF AVE", "addr:postcode": "36362", "addr:state": "AL", "amenity": "post_box", "brand": "United States Postal Service", "brand:wikidata": "Q668687", "collection_times": "Mo-Fr 16:15; Sa 09:30", "name": "USPS COLLECTION BOX - BLUE BOX", "note": "ON 12/24 AND 12/31, THIS BOX MAY BE COLLECTED AS EARLY AS 12 NOON.", "nsi_id": "unitedstatespostalservice-a77078", "operator": "United States Postal Service", "operator:short": "USPS", "operator:type": "public", "operator:wikidata": "Q668687", "ref": "3636200024"}, "type": "Feature"}
{"dataset_attributes": {"@spider": "usps_collection_boxes", "spider:collection_time": "2023-12-19T08:25:25.283853"}, "geometry": {"coordinates": [-85.696247878, 31.389167824], "type": "Point"}, "id": "SsznDkqcQwqQjzD79b0nOlucacU=", "properties": {"@spider": "usps_collection_boxes", "addr:city": "FORT RUCKER", "addr:country": "US", "addr:full": "6201 ANDREWS AVE", "addr:postcode": "36362", "addr:state": "AL", "amenity": "post_box", "brand": "United States Postal Service", "brand:wikidata": "Q668687", "collection_times": "Mo-Sa 13:30", "name": "USPS COLLECTION BOX - BLUE BOX", "note": "ON 12/24 AND 12/31, THIS BOX MAY BE COLLECTED AS EARLY AS 12 NOON.", "nsi_id": "unitedstatespostalservice-a77078", "operator": "United States Postal Service", "operator:short": "USPS", "operator:type": "public", "operator:wikidata": "Q668687", "ref": "3636200027"}, "type": "Feature"}
{"dataset_attributes": {"@spider": "usps_collection_boxes", "spider:collection_time": "2023-12-19T08:25:25.283853"}, "geometry": {"coordinates": [-85.704709307, 31.343787145], "type": "Point"}, "id": "hPDmsv8P_8B4pqtMuTIlXS3xm7I=", "properties": {"@spider": "usps_collection_boxes", "addr:city": "FORT RUCKER", "addr:country": "US", "addr:full": "8360 3RD AVE", "addr:postcode": "36362", "addr:state": "AL", "amenity": "post_box", "brand": "United States Postal Service", "brand:wikidata": "Q668687", "collection_times": "Mo-Sa 13:30", "name": "USPS COLLECTION BOX - BLUE BOX", "note": "ON 12/24 AND 12/31, THIS BOX MAY BE COLLECTED AS EARLY AS 12 NOON.", "nsi_id": "unitedstatespostalservice-a77078", "operator": "United States Postal Service", "operator:short": "USPS", "operator:type": "public", "operator:wikidata": "Q668687", "ref": "3636200028"}, "type": "Feature"}
{"dataset_attributes": {"@spider": "usps_collection_boxes", "spider:collection_time": "2023-12-19T08:25:25.283853"}, "geometry": {"coordinates": [-85.713641304, 31.326034907], "type": "Point"}, "id": "BaiLsTNBRwE95JtBOCfXfMovCXI=", "properties": {"@spider": "usps_collection_boxes", "addr:city": "FORT RUCKER", "addr:country": "US", "addr:full": "453 S NOVASEL ST BLDG 5700", "addr:postcode": "36362", "addr:state": "AL", "amenity": "post_box", "brand": "United States Postal Service", "brand:wikidata": "Q668687", "collection_times": "Mo-Sa 13:30", "name": "USPS COLLECTION BOX - BLUE BOX", "note": "ON 12/24 AND 12/31, THIS BOX MAY BE COLLECTED AS EARLY AS 12 NOON.", "nsi_id": "unitedstatespostalservice-a77078", "operator": "United States Postal Service", "operator:short": "USPS", "operator:type": "public", "operator:wikidata": "Q668687", "ref": "3636200029"}, "type": "Feature"}
{"dataset_attributes": {"@spider": "usps_collection_boxes", "spider:collection_time": "2023-12-19T08:25:25.283853"}, "geometry": {"coordinates": [-85.70800777, 31.347093124], "type": "Point"}, "id": "p6iBYxe1oPbGNFQz7i-vIfyuylc=", "properties": {"@spider": "usps_collection_boxes", "addr:city": "FORT RUCKER", "addr:country": "US", "addr:full": "9000 RUF AVE", "addr:postcode": "36362", "addr:state": "AL", "amenity": "post_box", "brand": "United States Postal Service", "brand:wikidata": "Q668687", "collection_times": "Mo-Fr 16:15", "name": "USPS COLLECTION BOX - PO LOBBY", "note": "ON 12/24 AND 12/31, THIS BOX MAY BE COLLECTED AS EARLY AS 12 NOON.", "nsi_id": "unitedstatespostalservice-a77078", "operator": "United States Postal Service", "operator:short": "USPS", "operator:type": "public", "operator:wikidata": "Q668687", "ref": "3636200030"}, "type": "Feature"}
{"dataset_attributes": {"@spider": "usps_collection_boxes", "spider:collection_time": "2023-12-19T08:25:25.283853"}, "geometry": {"coordinates": [-85.176811334, 31.153359881], "type": "Point"}, "id": "B7xFHl9kOmcNWFzk1MtM40BomYY=", "properties": {"@spider": "usps_collection_boxes", "addr:city": "PANSEY", "addr:country": "US", "addr:full": "14021 E US 84", "addr:postcode": "36370", "addr:state": "AL", "amenity": "post_box", "brand": "United States Postal Service", "brand:wikidata": "Q668687", "collection_times": "Mo-Fr 16:15; Sa 10:15", "name": "USPS COLLECTION BOX - PO LOBBY", "note": "ON 12/24 AND 12/31, THIS BOX MAY BE COLLECTED AS EARLY AS 12 NOON.", "nsi_id": "unitedstatespostalservice-a77078", "operator": "United States Postal Service", "operator:short": "USPS", "operator:type": "public", "operator:wikidata": "Q668687", "ref": "3637000001"}, "type": "Feature"}
{"dataset_attributes": {"@spider": "usps_collection_boxes", "spider:collection_time": "2023-12-19T08:25:25.283853"}, "geometry": {"coordinates": [-85.1768113336, 31.1533598813], "type": "Point"}, "id": "N3PJ5ppqGO4aE7kkAVnp77TfS7w=", "properties": {"@spider": "usps_collection_boxes", "addr:city": "PANSEY", "addr:country": "US", "addr:full": "14021 E US 84", "addr:postcode": "36370", "addr:state": "AL", "amenity": "post_box", "brand": "United States Postal Service", "brand:wikidata": "Q668687", "collection_times": "Mo-Fr 16:15; Sa 10:15", "name": "USPS COLLECTION BOX - BLUE BOX", "note": "ON 12/24 AND 12/31, THIS BOX MAY BE COLLECTED AS EARLY AS 12 NOON.", "nsi_id": "unitedstatespostalservice-a77078", "operator": "United States Postal Service", "operator:short": "USPS", "operator:type": "public", "operator:wikidata": "Q668687", "ref": "3637000002"}, "type": "Feature"}
{"dataset_attributes": {"@spider": "usps_collection_boxes", "spider:collection_time": "2023-12-19T08:25:25.283853"}, "geometry": {"coordinates": [-85.176811334, 31.153359881], "type": "Point"}, "id": "dwJ2WTrh2lug09EA5_VWvGlF0gA=", "properties": {"@spider": "usps_collection_boxes", "addr:city": "PANSEY", "addr:country": "US", "addr:full": "14021 E US 84", "addr:postcode": "36370", "addr:state": "AL", "amenity": "post_box", "brand": "United States Postal Service", "brand:wikidata": "Q668687", "collection_times": "Mo-Fr 16:30; Sa 10:30", "name": "USPS COLLECTION BOX - PO LOBBY", "note": "ON 12/24 AND 12/31, THIS BOX MAY BE COLLECTED AS EARLY AS 12 NOON.", "nsi_id": "unitedstatespostalservice-a77078", "operator": "United States Postal Service", "operator:short": "USPS", "operator:type": "public", "operator:wikidata": "Q668687", "ref": "3637000004"}, "type": "Feature"}
{"dataset_attributes": {"@spider": "usps_collection_boxes", "spider:collection_time": "2023-12-19T08:25:25.283853"}, "geometry": {"coordinates": [-85.547998872, 31.311873155], "type": "Point"}, "id": "iD65dB23Qh5db9Sq3D9gHZKMN6o=", "properties": {"@spider": "usps_collection_boxes", "addr:city": "PINCKARD", "addr:country": "US", "addr:full": "1313 HIGHWAY 134", "addr:postcode": "36371", "addr:state": "AL", "amenity": "post_box", "brand": "United States Postal Service", "brand:wikidata": "Q668687", "collection_times": "Mo-Fr 16:00; Sa 10:30", "name": "USPS COLLECTION BOX - BLUE BOX", "note": "ON 12/24 AND 12/31, THIS BOX MAY BE COLLECTED AS EARLY AS 12 NOON.", "nsi_id": "unitedstatespostalservice-a77078", "operator": "United States Postal Service", "operator:short": "USPS", "operator:type": "public", "operator:wikidata": "Q668687", "ref": "3637100001"}, "type": "Feature"}
{"dataset_attributes": {"@spider": "usps_collection_boxes", "spider:collection_time": "2023-12-19T08:25:25.283853"}, "geometry": {"coordinates": [-85.547998872, 31.311873155], "type": "Point"}, "id": "BOiYHpMOAeSVuDGJfUR5hhWACws=", "properties": {"@spider": "usps_collection_boxes", "addr:city": "PINCKARD", "addr:country": "US", "addr:full": "1313 HIGHWAY 134", "addr:postcode": "36371", "addr:state": "AL", "amenity": "post_box", "brand": "United States Postal Service", "brand:wikidata": "Q668687", "collection_times": "Mo-Fr 16:00; Sa 10:30", "name": "USPS COLLECTION BOX - PO LOBBY", "note": "ON 12/24 AND 12/31, THIS BOX MAY BE COLLECTED AS EARLY AS 12 NOON.", "nsi_id": "unitedstatespostalservice-a77078", "operator": "United States Postal Service", "operator:short": "USPS", "operator:type": "public", "operator:wikidata": "Q668687", "ref": "3637100002"}, "type": "Feature"}
{"dataset_attributes": {"@spider": "usps_collection_boxes", "spider:collection_time": "2023-12-19T08:25:25.283853"}, "geometry": {"coordinates": [-85.547998872, 31.311873155], "type": "Point"}, "id": "bHnGFUzONYJB6ZAwvOQhtvA-Rms=", "properties": {"@spider": "usps_collection_boxes", "addr:city": "PINCKARD", "addr:country": "US", "addr:full": "1313 HIGHWAY 134", "addr:postcode": "36371", "addr:state": "AL", "amenity": "post_box", "brand": "United States Postal Service", "brand:wikidata": "Q668687", "collection_times": "Mo-Fr 16:00; Sa 10:30", "name": "USPS COLLECTION BOX - PO LOBBY", "note": "ON 12/24 AND 12/31, THIS BOX MAY BE COLLECTED AS EARLY AS 12 NOON.", "nsi_id": "unitedstatespostalservice-a77078", "operator": "United States Postal Service", "operator:short": "USPS", "operator:type": "public", "operator:wikidata": "Q668687", "ref": "3637100003"}, "type": "Feature"}
{"dataset_attributes": {"@spider": "usps_collection_boxes", "spider:collection_time": "2023-12-19T08:25:25.283853"}, "geometry": {"coordinates": [-85.102070256, 31.568337403], "type": "Point"}, "id": "bRpMj0SjeHwux44ZgFg9D-tqoIo=", "properties": {"@spider": "usps_collection_boxes", "addr:city": "SHORTERVILLE", "addr:country": "US", "addr:full": "315 COUNTY ROAD 65", "addr:postcode": "36373", "addr:state": "AL", "amenity": "post_box", "brand": "United States Postal Service", "brand:wikidata": "Q668687", "collection_times": "Mo-Fr 12:00; Sa 10:30", "name": "USPS COLLECTION BOX - BLUE BOX", "nsi_id": "unitedstatespostalservice-a77078", "operator": "United States Postal Service", "operator:short": "USPS", "operator:type": "public", "operator:wikidata": "Q668687", "ref": "3637300001"}, "type": "Feature"}
{"dataset_attributes": {"@spider": "usps_collection_boxes", "spider:collection_time": "2023-12-19T08:25:25.283853"}, "geometry": {"coordinates": [-85.102070256, 31.568337403], "type": "Point"}, "id": "8HFA-LdDuKtMJ2tLth9zTx8gKGM=", "properties": {"@spider": "usps_collection_boxes", "addr:city": "SHORTERVILLE", "addr:country": "US", "addr:full": "315 COUNTY ROAD 65", "addr:postcode": "36373", "addr:state": "AL", "amenity": "post_box", "brand": "United States Postal Service", "brand:wikidata": "Q668687", "collection_times": "Mo-Fr 12:00; Sa 10:30", "name": "USPS COLLECTION BOX - PO LOBBY", "nsi_id": "unitedstatespostalservice-a77078", "operator": "United States Postal Service", "operator:short": "USPS", "operator:type": "public", "operator:wikidata": "Q668687", "ref": "3637300002"}, "type": "Feature"}
{"dataset_attributes": {"@spider": "usps_collection_boxes", "spider:collection_time": "2023-12-19T08:25:25.283853"}, "geometry": {"coordinates": [-85.102070256, 31.568337403], "type": "Point"}, "id": "AdMYOmPJL9BpnEzAVTUYctkw0g8=", "properties": {"@spider": "usps_collection_boxes", "addr:city": "SHORTERVILLE", "addr:country": "US", "addr:full": "315 COUNTY ROAD 65", "addr:postcode": "36373", "addr:state": "AL", "amenity": "post_box", "brand": "United States Postal Service", "brand:wikidata": "Q668687", "collection_times": "Mo-Fr 12:00; Sa 10:30", "name": "USPS COLLECTION BOX - PO LOBBY", "nsi_id": "unitedstatespostalservice-a77078", "operator": "United States Postal Service", "operator:short": "USPS", "operator:type": "public", "operator:wikidata": "Q668687", "ref": "3637300004"}, "type": "Feature"}
{"dataset_attributes": {"@spider": "usps_collection_boxes", "spider:collection_time": "2023-12-19T08:25:25.283853"}, "geometry": {"coordinates": [-85.5477193075, 31.5577169746], "type": "Point"}, "id": "abG-mNxHsvttXwsCdLJWPk4fkHA=", "properties": {"@spider": "usps_collection_boxes", "addr:city": "SKIPPERVILLE", "addr:country": "US", "addr:full": "5093 HIGHWAY 105", "addr:postcode": "36374", "addr:state": "AL", "amenity": "post_box", "brand": "United States Postal Service", "brand:wikidata": "Q668687", "collection_times": "Mo-Fr 11:50; Sa 10:30", "name": "USPS COLLECTION BOX - BLUE BOX", "nsi_id": "unitedstatespostalservice-a77078", "operator": "United States Postal Service", "operator:short": "USPS", "operator:type": "public", "operator:wikidata": "Q668687", "ref": "3637400001"}, "type": "Feature"}
{"dataset_attributes": {"@spider": "usps_collection_boxes", "spider:collection_time": "2023-12-19T08:25:25.283853"}, "geometry": {"coordinates": [-85.547719307, 31.557716975], "type": "Point"}, "id": "V092u-rl3dfiDURY8tXhmsAIMcY=", "properties": {"@spider": "usps_collection_boxes", "addr:city": "SKIPPERVILLE", "addr:country": "US", "addr:full": "5093 HIGHWAY 105", "addr:postcode": "36374", "addr:state": "AL", "amenity": "post_box", "brand": "United States Postal Service", "brand:wikidata": "Q668687", "collection_times": "Mo-Fr 11:50; Sa 10:30", "name": "USPS COLLECTION BOX - PO LOBBY", "nsi_id": "unitedstatespostalservice-a77078", "operator": "United States Postal Service", "operator:short": "USPS", "operator:type": "public", "operator:wikidata": "Q668687", "ref": "3637400002"}, "type": "Feature"}
{"dataset_attributes": {"@spider": "usps_collection_boxes", "spider:collection_time": "2023-12-19T08:25:25.283853"}, "geometry": {"coordinates": [-85.547719307, 31.557716975], "type": "Point"}, "id": "a8GhW3WBpzkCrrcwgnxodCStKcQ=", "properties": {"@spider": "usps_collection_boxes", "addr:city": "SKIPPERVILLE", "addr:country": "US", "addr:full": "5093 HIGHWAY 105", "addr:postcode": "36374", "addr:state": "AL", "amenity": "post_box", "brand": "United States Postal Service", "brand:wikidata": "Q668687", "collection_times": "Mo-Fr 12:00; Sa 10:30", "name": "USPS COLLECTION BOX - PO LOBBY", "nsi_id": "unitedstatespostalservice-a77078", "operator": "United States Postal Service", "operator:short": "USPS", "operator:type": "public", "operator:wikidata": "Q668687", "ref": "3637400004"}, "type": "Feature"}
{"dataset_attributes": {"@spider": "usps_collection_boxes", "spider:collection_time": "2023-12-19T08:25:25.283853"}, "geometry": {"coordinates": [-85.608525282, 31.10755177], "type": "Point"}, "id": "g0n3idHkK1eRujexwlVWfuB_-5Q=", "properties": {"@spider": "usps_collection_boxes", "addr:city": "SLOCOMB", "addr:country": "US", "addr:full": "957 W LAWRENCE HARRIS HWY", "addr:postcode": "36375", "addr:state": "AL", "amenity": "post_box", "brand": "United States Postal Service", "brand:wikidata": "Q668687", "collection_times": "Mo-Fr 11:30; Sa 11:00", "name": "USPS COLLECTION BOX - BLUE BOX", "nsi_id": "unitedstatespostalservice-a77078", "operator": "United States Postal Service", "operator:short": "USPS", "operator:type": "public", "operator:wikidata": "Q668687", "ref": "3637500001"}, "type": "Feature"}
{"dataset_attributes": {"@spider": "usps_collection_boxes", "spider:collection_time": "2023-12-19T08:25:25.283853"}, "geometry": {"coordinates": [-85.6085252818, 31.1075517698], "type": "Point"}, "id": "kkNLuz8QkH4y0vaKZqgPV1cukqs=", "properties": {"@spider": "usps_collection_boxes", "addr:city": "SLOCOMB", "addr:country": "US", "addr:full": "957 W LAWRENCE HARRIS HWY", "addr:postcode": "36375", "addr:state": "AL", "amenity": "post_box", "brand": "United States Postal Service", "brand:wikidata": "Q668687", "collection_times": "Mo-Fr 11:30; Sa 11:00", "name": "USPS COLLECTION BOX - PO LOBBY", "nsi_id": "unitedstatespostalservice-a77078", "operator": "United States Postal Service", "operator:short": "USPS", "operator:type": "public", "operator:wikidata": "Q668687", "ref": "3637500003"}, "type": "Feature"}
{"dataset_attributes": {"@spider": "usps_collection_boxes", "spider:collection_time": "2023-12-19T08:25:25.283853"}, "geometry": {"coordinates": [-85.6085252818, 31.1075517698], "type": "Point"}, "id": "9hBXgAMZhTN2qlgDxkyOaadYvhE=", "properties": {"@spider": "usps_collection_boxes", "addr:city": "SLOCOMB", "addr:country": "US", "addr:full": "957 W LAWRENCE HARRIS HWY", "addr:postcode": "36375", "addr:state": "AL", "amenity": "post_box", "brand": "United States Postal Service", "brand:wikidata": "Q668687", "collection_times": "Mo-Fr 16:30; Sa 11:00", "name": "USPS COLLECTION BOX - PO LOBBY", "note": "ON 12/24 AND 12/31, THIS BOX MAY BE COLLECTED AS EARLY AS 12 NOON.", "nsi_id": "unitedstatespostalservice-a77078", "operator": "United States Postal Service", "operator:short": "USPS", "operator:type": "public", "operator:wikidata": "Q668687", "ref": "3637500006"}, "type": "Feature"}
{"dataset_attributes": {"@spider": "usps_collection_boxes", "spider:collection_time": "2023-12-19T08:25:25.283853"}, "geometry": {"coordinates": [-85.2763866127, 31.2612402585], "type": "Point"}, "id": "wmHbAYRZcyqEdKHIm38ckS_Dd_Q=", "properties": {"@spider": "usps_collection_boxes", "addr:city": "WEBB", "addr:country": "US", "addr:full": "175 KIRKLAND ST", "addr:postcode": "36376", "addr:state": "AL", "amenity": "post_box", "brand": "United States Postal Service", "brand:wikidata": "Q668687", "collection_times": "Mo-Fr 14:50; Sa 09:30", "name": "USPS COLLECTION BOX - BLUE BOX", "note": "ON 12/24 AND 12/31, THIS BOX MAY BE COLLECTED AS EARLY AS 12 NOON.", "nsi_id": "unitedstatespostalservice-a77078", "operator": "United States Postal Service", "operator:short": "USPS", "operator:type": "public", "operator:wikidata": "Q668687", "ref": "3637600001"}, "type": "Feature"}
{"dataset_attributes": {"@spider": "usps_collection_boxes", "spider:collection_time": "2023-12-19T08:25:25.283853"}, "geometry": {"coordinates": [-85.276386613, 31.261240259], "type": "Point"}, "id": "gHu_-KdbeCymkBKRhnQIgOQ2FNA=", "properties": {"@spider": "usps_collection_boxes", "addr:city": "WEBB", "addr:country": "US", "addr:full": "175 KIRKLAND ST", "addr:postcode": "36376", "addr:state": "AL", "amenity": "post_box", "brand": "United States Postal Service", "brand:wikidata": "Q668687", "collection_times": "Mo-Fr 14:50; Sa 09:30", "name": "USPS COLLECTION BOX - PO LOBBY", "note": "ON 12/24 AND 12/31, THIS BOX MAY BE COLLECTED AS EARLY AS 12 NOON.", "nsi_id": "unitedstatespostalservice-a77078", "operator": "United States Postal Service", "operator:short": "USPS", "operator:type": "public", "operator:wikidata": "Q668687", "ref": "3637600002"}, "type": "Feature"}
{"dataset_attributes": {"@spider": "usps_collection_boxes", "spider:collection_time": "2023-12-19T08:25:25.283853"}, "geometry": {"coordinates": [-85.276386613, 31.261240259], "type": "Point"}, "id": "pkkIZo2Hf02qD1UywE7Rkgr8YU4=", "properties": {"@spider": "usps_collection_boxes", "addr:city": "WEBB", "addr:country": "US", "addr:full": "175 KIRKLAND ST", "addr:postcode": "36376", "addr:state": "AL", "amenity": "post_box", "brand": "United States Postal Service", "brand:wikidata": "Q668687", "collection_times": "Mo-Fr 15:00; Sa 10:00", "name": "USPS COLLECTION BOX - PO LOBBY", "note": "ON 12/24 AND 12/31, THIS BOX MAY BE COLLECTED AS EARLY AS 12 NOON.", "nsi_id": "unitedstatespostalservice-a77078", "operator": "United States Postal Service", "operator:short": "USPS", "operator:type": "public", "operator:wikidata": "Q668687", "ref": "3637600004"}, "type": "Feature"}
