{"dataset_attributes": {"@spider": "usps_collection_boxes"}, "geometry": {"coordinates": [-87.472242122, 31.886215547], "type": "Point"}, "id": "aQY29fygSeakHItFNKFzwUHZsn4=", "properties": {"@spider": "usps_collection_boxes", "addr:city": "COY", "addr:country": "US", "addr:full": "5092 J M BROOKS RD", "addr:postcode": "36435", "addr:state": "AL", "amenity": "post_box", "brand": "United States Postal Service", "brand:wikidata": "Q668687", "collection_times": "Mo-Fr 11:50; Sa 10:00", "name": "USPS COLLECTION BOX - BLUE BOX", "nsi_id": "unitedstatespostalservice-a77078", "operator": "United States Postal Service", "operator:short": "USPS", "operator:type": "public", "operator:wikidata": "Q668687", "ref": "3643500001"}, "type": "Feature"}
{"dataset_attributes": {"@spider": "usps_collection_boxes"}, "geometry": {"coordinates": [-87.472242122, 31.886215547], "type": "Point"}, "id": "mFNobUUCZONFrlg69hF2rBi_C_g=", "properties": {"@spider": "usps_collection_boxes", "addr:city": "COY", "addr:country": "US", "addr:full": "5092 J M BROOKS RD", "addr:postcode": "36435", "addr:state": "AL", "amenity": "post_box", "brand": "United States Postal Service", "brand:wikidata": "Q668687", "collection_times": "Mo-Fr 11:50; Sa 10:00", "name": "USPS COLLECTION BOX - PO LOBBY", "nsi_id": "unitedstatespostalservice-a77078", "operator": "United States Postal Service", "operator:short": "USPS", "operator:type": "public", "operator:wikidata": "Q668687", "ref": "3643500002"}, "type": "Feature"}
{"dataset_attributes": {"@spider": "usps_collection_boxes"}, "geometry": {"coordinates": [-87.472242122, 31.886215547], "type": "Point"}, "id": "B96tncXCYoIZNbRp3Q-eiC5phf0=", "properties": {"@spider": "usps_collection_boxes", "addr:city": "COY", "addr:country": "US", "addr:full": "5092 J M BROOKS RD", "addr:postcode": "36435", "addr:state": "AL", "amenity": "post_box", "brand": "United States Postal Service", "brand:wikidata": "Q668687", "collection_times": "Mo-Fr 12:00; Sa 11:00", "name": "USPS COLLECTION BOX - PO LOBBY", "nsi_id": "unitedstatespostalservice-a77078", "operator": "United States Postal Service", "operator:short": "USPS", "operator:type": "public", "operator:wikidata": "Q668687", "ref": "3643500004"}, "type": "Feature"}
{"dataset_attributes": {"@spider": "usps_collection_boxes"}, "geometry": {"coordinates": [-87.7268919665, 31.7882389137], "type": "Point"}, "id": "59B6idnPhcNK2_LYMi6qMufz9mk=", "properties": {"@spider": "usps_collection_boxes", "addr:city": "FULTON", "addr:country": "US", "addr:full": "152 MAIN ST", "addr:postcode": "36446", "addr:state": "AL", "amenity": "post_box", "brand": "United States Postal Service", "brand:wikidata": "Q668687", "collection_times": "Mo-Fr 16:00; Sa 12:15", "name": "USPS COLLECTION BOX - PO LOBBY", "note": "ON 12/24 AND 12/31, THIS BOX MAY BE COLLECTED AS EARLY AS 12 NOON.", "nsi_id": "unitedstatespostalservice-a77078", "operator": "United States Postal Service", "operator:short": "USPS", "operator:type": "public", "operator:wikidata": "Q668687", "ref": "3644600001"}, "type": "Feature"}
{"dataset_attributes": {"@spider": "usps_collection_boxes"}, "geometry": {"coordinates": [-87.726891967, 31.788238914], "type": "Point"}, "id": "FSpuouTiV5hNZ18plHc_saOxdR0=", "properties": {"@spider": "usps_collection_boxes", "addr:city": "FULTON", "addr:country": "US", "addr:full": "152 MAIN ST", "addr:postcode": "36446", "addr:state": "AL", "amenity": "post_box", "brand": "United States Postal Service", "brand:wikidata": "Q668687", "collection_times": "Mo-Fr 15:00; Sa 12:15", "name": "USPS COLLECTION BOX - BLUE BOX", "note": "ON 12/24 AND 12/31, THIS BOX MAY BE COLLECTED AS EARLY AS 12 NOON.", "nsi_id": "unitedstatespostalservice-a77078", "operator": "United States Postal Service", "operator:short": "USPS", "operator:type": "public", "operator:wikidata": "Q668687", "ref": "3644600004"}, "type": "Feature"}
{"dataset_attributes": {"@spider": "usps_collection_boxes"}, "geometry": {"coordinates": [-87.726891967, 31.788238914], "type": "Point"}, "id": "7htyC1tc0VTeul7YUnKL71lssu0=", "properties": {"@spider": "usps_collection_boxes", "addr:city": "FULTON", "addr:country": "US", "addr:full": "152 MAIN ST", "addr:postcode": "36446", "addr:state": "AL", "amenity": "post_box", "brand": "United States Postal Service", "brand:wikidata": "Q668687", "collection_times": "Mo-Fr 16:00; Sa 12:15", "name": "USPS COLLECTION BOX - PO LOBBY", "note": "ON 12/24 AND 12/31, THIS BOX MAY BE COLLECTED AS EARLY AS 12 NOON.", "nsi_id": "unitedstatespostalservice-a77078", "operator": "United States Postal Service", "operator:short": "USPS", "operator:type": "public", "operator:wikidata": "Q668687", "ref": "3644600005"}, "type": "Feature"}
{"dataset_attributes": {"@spider": "usps_collection_boxes"}, "geometry": {"coordinates": [-87.7753191, 31.7088836537], "type": "Point"}, "id": "syuEGhc6FOADkHjcbOS28UkmbWE=", "properties": {"@spider": "usps_collection_boxes", "addr:city": "GROVE HILL", "addr:country": "US", "addr:full": "102 MAIN ST", "addr:postcode": "36451", "addr:state": "AL", "amenity": "post_box", "brand": "United States Postal Service", "brand:wikidata": "Q668687", "collection_times": "Mo-Fr 16:00; Sa 11:30", "name": "USPS COLLECTION BOX - BLUE BOX", "note": "ON 12/24 AND 12/31, THIS BOX MAY BE COLLECTED AS EARLY AS 12 NOON.", "nsi_id": "unitedstatespostalservice-a77078", "operator": "United States Postal Service", "operator:short": "USPS", "operator:type": "public", "operator:wikidata": "Q668687", "ref": "3645100002"}, "type": "Feature"}
{"dataset_attributes": {"@spider": "usps_collection_boxes"}, "geometry": {"coordinates": [-87.7753191, 31.708883654], "type": "Point"}, "id": "Jpikhph8knMPB2DJYZe0uuCqtfk=", "properties": {"@spider": "usps_collection_boxes", "addr:city": "GROVE HILL", "addr:country": "US", "addr:full": "102 MAIN ST", "addr:postcode": "36451", "addr:state": "AL", "amenity": "post_box", "brand": "United States Postal Service", "brand:wikidata": "Q668687", "collection_times": "Mo-Fr 16:00; Sa 11:30", "name": "USPS COLLECTION BOX - PO LOBBY", "note": "ON 12/24 AND 12/31, THIS BOX MAY BE COLLECTED AS EARLY AS 12 NOON.", "nsi_id": "unitedstatespostalservice-a77078", "operator": "United States Postal Service", "operator:short": "USPS", "operator:type": "public", "operator:wikidata": "Q668687", "ref": "3645100003"}, "type": "Feature"}
{"dataset_attributes": {"@spider": "usps_collection_boxes"}, "geometry": {"coordinates": [-87.7753191, 31.708883654], "type": "Point"}, "id": "A6lUUX0d0SG2OIHPk_YHYRxHIHw=", "properties": {"@spider": "usps_collection_boxes", "addr:city": "GROVE HILL", "addr:country": "US", "addr:full": "102 MAIN ST", "addr:postcode": "36451", "addr:state": "AL", "amenity": "post_box", "brand": "United States Postal Service", "brand:wikidata": "Q668687", "collection_times": "Mo-Fr 16:30; Sa 11:30", "name": "USPS COLLECTION BOX - PO LOBBY", "note": "ON 12/24 AND 12/31, THIS BOX MAY BE COLLECTED AS EARLY AS 12 NOON.", "nsi_id": "unitedstatespostalservice-a77078", "operator": "United States Postal Service", "operator:short": "USPS", "operator:type": "public", "operator:wikidata": "Q668687", "ref": "3645100005"}, "type": "Feature"}
{"dataset_attributes": {"@spider": "usps_collection_boxes"}, "geometry": {"coordinates": [-87.3156890952, 31.8202722977], "type": "Point"}, "id": "-FSM9ik7lSKrf1CDBs5EdiBN8zQ=", "properties": {"@spider": "usps_collection_boxes", "addr:city": "VREDENBURGH", "addr:country": "US", "addr:full": "34 CHURCH ST", "addr:postcode": "36481", "addr:state": "AL", "amenity": "post_box", "brand": "United States Postal Service", "brand:wikidata": "Q668687", "collection_times": "Mo-Fr 11:45; Sa 09:00", "name": "USPS COLLECTION BOX - BLUE BOX", "nsi_id": "unitedstatespostalservice-a77078", "operator": "United States Postal Service", "operator:short": "USPS", "operator:type": "public", "operator:wikidata": "Q668687", "ref": "3648100001"}, "type": "Feature"}
{"dataset_attributes": {"@spider": "usps_collection_boxes"}, "geometry": {"coordinates": [-87.315689095, 31.820272298], "type": "Point"}, "id": "lvDljH1LHdGvWnK_cajvkx0HqVI=", "properties": {"@spider": "usps_collection_boxes", "addr:city": "VREDENBURGH", "addr:country": "US", "addr:full": "34 CHURCH ST", "addr:postcode": "36481", "addr:state": "AL", "amenity": "post_box", "brand": "United States Postal Service", "brand:wikidata": "Q668687", "collection_times": "Mo-Fr 11:45; Sa 09:00", "name": "USPS COLLECTION BOX - PO LOBBY", "nsi_id": "unitedstatespostalservice-a77078", "operator": "United States Postal Service", "operator:short": "USPS", "operator:type": "public", "operator:wikidata": "Q668687", "ref": "3648100002"}, "type": "Feature"}
{"dataset_attributes": {"@spider": "usps_collection_boxes"}, "geometry": {"coordinates": [-87.315689095, 31.820272298], "type": "Point"}, "id": "tG21Yj9X2AojAWgYrZRwsOAAVG0=", "properties": {"@spider": "usps_collection_boxes", "addr:city": "VREDENBURGH", "addr:country": "US", "addr:full": "34 CHURCH ST", "addr:postcode": "36481", "addr:state": "AL", "amenity": "post_box", "brand": "United States Postal Service", "brand:wikidata": "Q668687", "collection_times": "Mo-Fr 12:00; Sa 09:30", "name": "USPS COLLECTION BOX - PO LOBBY", "nsi_id": "unitedstatespostalservice-a77078", "operator": "United States Postal Service", "operator:short": "USPS", "operator:type": "public", "operator:wikidata": "Q668687", "ref": "3648100003"}, "type": "Feature"}
{"dataset_attributes": {"@spider": "usps_collection_boxes"}, "geometry": {"coordinates": [-87.705979355, 31.650435915], "type": "Point"}, "id": "tSjDcpswVuwPsawnceT8x6m1d6c=", "properties": {"@spider": "usps_collection_boxes", "addr:city": "WHATLEY", "addr:country": "US", "addr:full": "1009 MAIN ST", "addr:postcode": "36482", "addr:state": "AL", "amenity": "post_box", "brand": "United States Postal Service", "brand:wikidata": "Q668687", "collection_times": "Mo-Fr 13:45", "name": "USPS COLLECTION BOX - PO LOBBY", "note": "ON 12/24 AND 12/31, THIS BOX MAY BE COLLECTED AS EARLY AS 12 NOON.", "nsi_id": "unitedstatespostalservice-a77078", "operator": "United States Postal Service", "operator:short": "USPS", "operator:type": "public", "operator:wikidata": "Q668687", "ref": "3648200001"}, "type": "Feature"}
{"dataset_attributes": {"@spider": "usps_collection_boxes"}, "geometry": {"coordinates": [-87.7059793547, 31.6504359154], "type": "Point"}, "id": "EhrdtWyZRdr26GuU0I0-X8WoY30=", "properties": {"@spider": "usps_collection_boxes", "addr:city": "WHATLEY", "addr:country": "US", "addr:full": "1009 MAIN ST", "addr:postcode": "36482", "addr:state": "AL", "amenity": "post_box", "brand": "United States Postal Service", "brand:wikidata": "Q668687", "collection_times": "Mo-Fr 13:45", "name": "USPS COLLECTION BOX - PO LOBBY", "note": "ON 12/24 AND 12/31, THIS BOX MAY BE COLLECTED AS EARLY AS 12 NOON.", "nsi_id": "unitedstatespostalservice-a77078", "operator": "United States Postal Service", "operator:short": "USPS", "operator:type": "public", "operator:wikidata": "Q668687", "ref": "3648200004"}, "type": "Feature"}
