{"dataset_attributes": {"@spider": "usps_collection_boxes"}, "geometry": {"coordinates": [-88.211848, 31.452591], "type": "Point"}, "id": "rX0DNO33ViDEpa8PZUgAsIIhZLo=", "properties": {"@spider": "usps_collection_boxes", "addr:city": "CHATOM", "addr:country": "US", "addr:full": "13486 SAINT STEPHENS AVE", "addr:postcode": "36518", "addr:state": "AL", "amenity": "post_box", "brand": "United States Postal Service", "brand:wikidata": "Q668687", "collection_times": "Mo-Fr 15:45; Sa 11:00", "name": "USPS COLLECTION BOX - BLUE BOX", "note": "ON 12/24 AND 12/31, THIS BOX MAY BE COLLECTED AS EARLY AS 12 NOON.", "nsi_id": "unitedstatespostalservice-a77078", "operator": "United States Postal Service", "operator:short": "USPS", "operator:type": "public", "operator:wikidata": "Q668687", "ref": "3651800001"}, "type": "Feature"}
{"dataset_attributes": {"@spider": "usps_collection_boxes"}, "geometry": {"coordinates": [-88.202275, 31.454781], "type": "Point"}, "id": "RDfhlfrNocg9_dJpDYln-JPExkA=", "properties": {"@spider": "usps_collection_boxes", "addr:city": "CHATOM", "addr:country": "US", "addr:full": "13486 SAINT STEPHENS AVE", "addr:postcode": "36518", "addr:state": "AL", "amenity": "post_box", "brand": "United States Postal Service", "brand:wikidata": "Q668687", "collection_times": "Mo-Fr 15:45; Sa 11:00", "name": "USPS COLLECTION BOX - PO LOBBY", "note": "ON 12/24 AND 12/31, THIS BOX MAY BE COLLECTED AS EARLY AS 12 NOON.", "nsi_id": "unitedstatespostalservice-a77078", "operator": "United States Postal Service", "operator:short": "USPS", "operator:type": "public", "operator:wikidata": "Q668687", "ref": "3651800002"}, "type": "Feature"}
{"dataset_attributes": {"@spider": "usps_collection_boxes"}, "geometry": {"coordinates": [-88.253441548, 31.462828881], "type": "Point"}, "id": "a0qoh0Rx-At70eUgSQS1eNS8bzw=", "properties": {"@spider": "usps_collection_boxes", "addr:city": "CHATOM", "addr:country": "US", "addr:full": "13486 SAINT STEPHENS AVE", "addr:postcode": "36518", "addr:state": "AL", "amenity": "post_box", "brand": "United States Postal Service", "brand:wikidata": "Q668687", "collection_times": "Mo-Fr 16:00; Sa 11:00", "name": "USPS COLLECTION BOX - PO LOBBY", "note": "ON 12/24 AND 12/31, THIS BOX MAY BE COLLECTED AS EARLY AS 12 NOON.", "nsi_id": "unitedstatespostalservice-a77078", "operator": "United States Postal Service", "operator:short": "USPS", "operator:type": "public", "operator:wikidata": "Q668687", "ref": "3651800003"}, "type": "Feature"}
{"dataset_attributes": {"@spider": "usps_collection_boxes"}, "geometry": {"coordinates": [-88.088508, 31.758233], "type": "Point"}, "id": "SvlAWQjXDYNzgfylhYfi-RC8JpA=", "properties": {"@spider": "usps_collection_boxes", "addr:city": "COFFEEVILLE", "addr:country": "US", "addr:full": "57 RIVER ST E", "addr:postcode": "36524", "addr:state": "AL", "amenity": "post_box", "brand": "United States Postal Service", "brand:wikidata": "Q668687", "collection_times": "Mo-Fr 11:45; Sa 10:45", "name": "USPS COLLECTION BOX - PO LOBBY", "nsi_id": "unitedstatespostalservice-a77078", "operator": "United States Postal Service", "operator:short": "USPS", "operator:type": "public", "operator:wikidata": "Q668687", "ref": "3652400001"}, "type": "Feature"}
{"dataset_attributes": {"@spider": "usps_collection_boxes"}, "geometry": {"coordinates": [-88.088593668, 31.75828446], "type": "Point"}, "id": "ZjGyr0vtB7EiwfFF0W7gAFq8GY0=", "properties": {"@spider": "usps_collection_boxes", "addr:city": "COFFEEVILLE", "addr:country": "US", "addr:full": "57 RIVER ST E", "addr:postcode": "36524", "addr:state": "AL", "amenity": "post_box", "brand": "United States Postal Service", "brand:wikidata": "Q668687", "collection_times": "Mo-Fr 12:00; Sa 11:00", "name": "USPS COLLECTION BOX - PO LOBBY", "nsi_id": "unitedstatespostalservice-a77078", "operator": "United States Postal Service", "operator:short": "USPS", "operator:type": "public", "operator:wikidata": "Q668687", "ref": "3652400004"}, "type": "Feature"}
{"dataset_attributes": {"@spider": "usps_collection_boxes"}, "geometry": {"coordinates": [-88.3132249, 31.217443], "type": "Point"}, "id": "QNzzwZ6OecEB6Omy2j8sjtLbbds=", "properties": {"@spider": "usps_collection_boxes", "addr:city": "DEER PARK", "addr:country": "US", "addr:full": "342 DEER PARK BURBANK RD", "addr:postcode": "36529", "addr:state": "AL", "amenity": "post_box", "brand": "United States Postal Service", "brand:wikidata": "Q668687", "collection_times": "Mo-Fr 11:50; Sa 10:30", "name": "USPS COLLECTION BOX - PO LOBBY", "nsi_id": "unitedstatespostalservice-a77078", "operator": "United States Postal Service", "operator:short": "USPS", "operator:type": "public", "operator:wikidata": "Q668687", "ref": "3652900001"}, "type": "Feature"}
{"dataset_attributes": {"@spider": "usps_collection_boxes"}, "geometry": {"coordinates": [-88.313385403, 31.217280151], "type": "Point"}, "id": "XDBiGx_ua6GXg5xgjJGYaDL5zaU=", "properties": {"@spider": "usps_collection_boxes", "addr:city": "DEER PARK", "addr:country": "US", "addr:full": "342 DEER PARK BURBANK RD", "addr:postcode": "36529", "addr:state": "AL", "amenity": "post_box", "brand": "United States Postal Service", "brand:wikidata": "Q668687", "collection_times": "Mo-Fr 12:00; Sa 10:30", "name": "USPS COLLECTION BOX - PO LOBBY", "nsi_id": "unitedstatespostalservice-a77078", "operator": "United States Postal Service", "operator:short": "USPS", "operator:type": "public", "operator:wikidata": "Q668687", "ref": "3652900005"}, "type": "Feature"}
{"dataset_attributes": {"@spider": "usps_collection_boxes"}, "geometry": {"coordinates": [-88.151235, 31.644074], "type": "Point"}, "id": "_ubu_VC8OhS0P6H3LNkXMOh8oi0=", "properties": {"@spider": "usps_collection_boxes", "addr:city": "FRANKVILLE", "addr:country": "US", "addr:full": "2323 COUNTY ROAD 31", "addr:postcode": "36538", "addr:state": "AL", "amenity": "post_box", "brand": "United States Postal Service", "brand:wikidata": "Q668687", "collection_times": "Mo-Fr 11:00", "name": "USPS COLLECTION BOX - BLUE BOX", "nsi_id": "unitedstatespostalservice-a77078", "operator": "United States Postal Service", "operator:short": "USPS", "operator:type": "public", "operator:wikidata": "Q668687", "ref": "3653800001"}, "type": "Feature"}
{"dataset_attributes": {"@spider": "usps_collection_boxes"}, "geometry": {"coordinates": [-88.151235, 31.644074], "type": "Point"}, "id": "-kph9bKnsgKGZfz9cQDMUhSRawo=", "properties": {"@spider": "usps_collection_boxes", "addr:city": "FRANKVILLE", "addr:country": "US", "addr:full": "2323 COUNTY ROAD 31", "addr:postcode": "36538", "addr:state": "AL", "amenity": "post_box", "brand": "United States Postal Service", "brand:wikidata": "Q668687", "collection_times": "Mo-Fr 11:00", "name": "USPS COLLECTION BOX - PO LOBBY", "nsi_id": "unitedstatespostalservice-a77078", "operator": "United States Postal Service", "operator:short": "USPS", "operator:type": "public", "operator:wikidata": "Q668687", "ref": "3653800002"}, "type": "Feature"}
{"dataset_attributes": {"@spider": "usps_collection_boxes"}, "geometry": {"coordinates": [-88.15124519, 31.644101942], "type": "Point"}, "id": "mDzRkxkl8hX0A6Jg0SKzTjBPYXI=", "properties": {"@spider": "usps_collection_boxes", "addr:city": "FRANKVILLE", "addr:country": "US", "addr:full": "2323 COUNTY ROAD 31", "addr:postcode": "36538", "addr:state": "AL", "amenity": "post_box", "brand": "United States Postal Service", "brand:wikidata": "Q668687", "collection_times": "Mo-Fr 12:00", "name": "USPS COLLECTION BOX - PO LOBBY", "nsi_id": "unitedstatespostalservice-a77078", "operator": "United States Postal Service", "operator:short": "USPS", "operator:type": "public", "operator:wikidata": "Q668687", "ref": "3653800003"}, "type": "Feature"}
{"dataset_attributes": {"@spider": "usps_collection_boxes"}, "geometry": {"coordinates": [-88.412659, 31.341872], "type": "Point"}, "id": "xb9ygBA1uPcedWIWnDWp3eOJtOw=", "properties": {"@spider": "usps_collection_boxes", "addr:city": "FRUITDALE", "addr:country": "US", "addr:full": "46 GREEN ST", "addr:postcode": "36539", "addr:state": "AL", "amenity": "post_box", "brand": "United States Postal Service", "brand:wikidata": "Q668687", "collection_times": "Mo-Fr 11:30; Sa 11:00", "name": "USPS COLLECTION BOX - BLUE BOX", "nsi_id": "unitedstatespostalservice-a77078", "operator": "United States Postal Service", "operator:short": "USPS", "operator:type": "public", "operator:wikidata": "Q668687", "ref": "3653900001"}, "type": "Feature"}
{"dataset_attributes": {"@spider": "usps_collection_boxes"}, "geometry": {"coordinates": [-88.409118, 31.341901], "type": "Point"}, "id": "M_dSWJZK9CCe2xmBXeWa9u6uL88=", "properties": {"@spider": "usps_collection_boxes", "addr:city": "FRUITDALE", "addr:country": "US", "addr:full": "46 GREEN ST", "addr:postcode": "36539", "addr:state": "AL", "amenity": "post_box", "brand": "United States Postal Service", "brand:wikidata": "Q668687", "collection_times": "Mo-Fr 11:30; Sa 11:00", "name": "USPS COLLECTION BOX - PO LOBBY", "nsi_id": "unitedstatespostalservice-a77078", "operator": "United States Postal Service", "operator:short": "USPS", "operator:type": "public", "operator:wikidata": "Q668687", "ref": "3653900002"}, "type": "Feature"}
{"dataset_attributes": {"@spider": "usps_collection_boxes"}, "geometry": {"coordinates": [-88.411583855, 31.341839051], "type": "Point"}, "id": "ZcJ8hVCH02BcndWgs2_WCdCHY7Y=", "properties": {"@spider": "usps_collection_boxes", "addr:city": "FRUITDALE", "addr:country": "US", "addr:full": "48 GREEN ST", "addr:postcode": "36539", "addr:state": "AL", "amenity": "post_box", "brand": "United States Postal Service", "brand:wikidata": "Q668687", "collection_times": "Mo-Fr 12:00; Sa 11:00", "name": "USPS COLLECTION BOX - PO LOBBY", "nsi_id": "unitedstatespostalservice-a77078", "operator": "United States Postal Service", "operator:short": "USPS", "operator:type": "public", "operator:wikidata": "Q668687", "ref": "3653900004"}, "type": "Feature"}
{"dataset_attributes": {"@spider": "usps_collection_boxes"}, "geometry": {"coordinates": [-87.892148, 31.5291], "type": "Point"}, "id": "cU10AQ_7gyuL98Ef742rvPAqMjs=", "properties": {"@spider": "usps_collection_boxes", "addr:city": "JACKSON", "addr:country": "US", "addr:full": "1829 COLLEGE AVE", "addr:postcode": "36545", "addr:state": "AL", "amenity": "post_box", "brand": "United States Postal Service", "brand:wikidata": "Q668687", "collection_times": "Mo-Fr 16:15; Sa 12:00", "name": "USPS COLLECTION BOX - BLUE BOX", "note": "ON 12/24 AND 12/31, THIS BOX MAY BE COLLECTED AS EARLY AS 12 NOON.", "nsi_id": "unitedstatespostalservice-a77078", "operator": "United States Postal Service", "operator:short": "USPS", "operator:type": "public", "operator:wikidata": "Q668687", "ref": "3654500001"}, "type": "Feature"}
{"dataset_attributes": {"@spider": "usps_collection_boxes"}, "geometry": {"coordinates": [-87.892148, 31.5291], "type": "Point"}, "id": "Q-kOk6G6nW5GuoRqoB3SoC6DSQw=", "properties": {"@spider": "usps_collection_boxes", "addr:city": "JACKSON", "addr:country": "US", "addr:full": "1829 COLLEGE AVE", "addr:postcode": "36545", "addr:state": "AL", "amenity": "post_box", "brand": "United States Postal Service", "brand:wikidata": "Q668687", "collection_times": "Mo-Fr 16:15; Sa 12:00", "name": "USPS COLLECTION BOX - BLUE BOX", "note": "ON 12/24 AND 12/31, THIS BOX MAY BE COLLECTED AS EARLY AS 12 NOON.", "nsi_id": "unitedstatespostalservice-a77078", "operator": "United States Postal Service", "operator:short": "USPS", "operator:type": "public", "operator:wikidata": "Q668687", "ref": "3654500002"}, "type": "Feature"}
{"dataset_attributes": {"@spider": "usps_collection_boxes"}, "geometry": {"coordinates": [-87.892148, 31.5291], "type": "Point"}, "id": "NfO0KYK0LPCxwpVT0C9jXQ-n9jc=", "properties": {"@spider": "usps_collection_boxes", "addr:city": "JACKSON", "addr:country": "US", "addr:full": "1829 COLLEGE AVE", "addr:postcode": "36545", "addr:state": "AL", "amenity": "post_box", "brand": "United States Postal Service", "brand:wikidata": "Q668687", "collection_times": "Mo-Fr 16:15; Sa 12:00", "name": "USPS COLLECTION BOX - PO LOBBY", "note": "ON 12/24 AND 12/31, THIS BOX MAY BE COLLECTED AS EARLY AS 12 NOON.", "nsi_id": "unitedstatespostalservice-a77078", "operator": "United States Postal Service", "operator:short": "USPS", "operator:type": "public", "operator:wikidata": "Q668687", "ref": "3654500008"}, "type": "Feature"}
{"dataset_attributes": {"@spider": "usps_collection_boxes"}, "geometry": {"coordinates": [-87.892148, 31.5291], "type": "Point"}, "id": "JPRrutt7Io3R_YGRs67drVB-41g=", "properties": {"@spider": "usps_collection_boxes", "addr:city": "JACKSON", "addr:country": "US", "addr:full": "1829 COLLEGE AVE", "addr:postcode": "36545", "addr:state": "AL", "amenity": "post_box", "brand": "United States Postal Service", "brand:wikidata": "Q668687", "collection_times": "Mo-Fr 16:15; Sa 12:00", "name": "USPS COLLECTION BOX - PO LOBBY", "note": "ON 12/24 AND 12/31, THIS BOX MAY BE COLLECTED AS EARLY AS 12 NOON.", "nsi_id": "unitedstatespostalservice-a77078", "operator": "United States Postal Service", "operator:short": "USPS", "operator:type": "public", "operator:wikidata": "Q668687", "ref": "3654500010"}, "type": "Feature"}
{"dataset_attributes": {"@spider": "usps_collection_boxes"}, "geometry": {"coordinates": [-87.892180276, 31.529090887], "type": "Point"}, "id": "YXySIAdNptsP72tWcSaPdJCUkvE=", "properties": {"@spider": "usps_collection_boxes", "addr:city": "JACKSON", "addr:country": "US", "addr:full": "1829 COLLEGE AVE", "addr:postcode": "36545", "addr:state": "AL", "amenity": "post_box", "brand": "United States Postal Service", "brand:wikidata": "Q668687", "collection_times": "Mo-Fr 16:30; Sa 12:00", "name": "USPS COLLECTION BOX - PO LOBBY", "note": "ON 12/24 AND 12/31, THIS BOX MAY BE COLLECTED AS EARLY AS 12 NOON.", "nsi_id": "unitedstatespostalservice-a77078", "operator": "United States Postal Service", "operator:short": "USPS", "operator:type": "public", "operator:wikidata": "Q668687", "ref": "3654500014"}, "type": "Feature"}
{"dataset_attributes": {"@spider": "usps_collection_boxes"}, "geometry": {"coordinates": [-87.963244, 31.504837], "type": "Point"}, "id": "Uw6VWgpdealf3cTFUfw8hCylD54=", "properties": {"@spider": "usps_collection_boxes", "addr:city": "LEROY", "addr:country": "US", "addr:full": "19 WASHINGTON ST", "addr:postcode": "36548", "addr:state": "AL", "amenity": "post_box", "brand": "United States Postal Service", "brand:wikidata": "Q668687", "collection_times": "Mo-Fr 11:45; Sa 11:00", "name": "USPS COLLECTION BOX - BLUE BOX", "nsi_id": "unitedstatespostalservice-a77078", "operator": "United States Postal Service", "operator:short": "USPS", "operator:type": "public", "operator:wikidata": "Q668687", "ref": "3654800001"}, "type": "Feature"}
{"dataset_attributes": {"@spider": "usps_collection_boxes"}, "geometry": {"coordinates": [-87.963244, 31.504837], "type": "Point"}, "id": "PZTrkfdpCxeKuai6qmeAmOjRRZk=", "properties": {"@spider": "usps_collection_boxes", "addr:city": "LEROY", "addr:country": "US", "addr:full": "19 WASHINGTON ST", "addr:postcode": "36548", "addr:state": "AL", "amenity": "post_box", "brand": "United States Postal Service", "brand:wikidata": "Q668687", "collection_times": "Mo-Fr 11:45; Sa 11:00", "name": "USPS COLLECTION BOX - PO LOBBY", "nsi_id": "unitedstatespostalservice-a77078", "operator": "United States Postal Service", "operator:short": "USPS", "operator:type": "public", "operator:wikidata": "Q668687", "ref": "3654800002"}, "type": "Feature"}
{"dataset_attributes": {"@spider": "usps_collection_boxes"}, "geometry": {"coordinates": [-87.961500521, 31.504939675], "type": "Point"}, "id": "CUvfXCydJp88gJ5gns1xFFjYtUE=", "properties": {"@spider": "usps_collection_boxes", "addr:city": "LEROY", "addr:country": "US", "addr:full": "19 WASHINGTON ST", "addr:postcode": "36548", "addr:state": "AL", "amenity": "post_box", "brand": "United States Postal Service", "brand:wikidata": "Q668687", "collection_times": "Mo-Fr 12:00; Sa 11:00", "name": "USPS COLLECTION BOX - PO LOBBY", "nsi_id": "unitedstatespostalservice-a77078", "operator": "United States Postal Service", "operator:short": "USPS", "operator:type": "public", "operator:wikidata": "Q668687", "ref": "3654800003"}, "type": "Feature"}
{"dataset_attributes": {"@spider": "usps_collection_boxes"}, "geometry": {"coordinates": [-88.315901, 31.633429], "type": "Point"}, "id": "POSWSA8kR39tQIK6X7KcBQl6fTs=", "properties": {"@spider": "usps_collection_boxes", "addr:city": "MILLRY", "addr:country": "US", "addr:full": "15 MAIN ST", "addr:postcode": "36558", "addr:state": "AL", "amenity": "post_box", "brand": "United States Postal Service", "brand:wikidata": "Q668687", "collection_times": "Mo-Fr 15:50; Sa 11:00", "name": "USPS COLLECTION BOX - BLUE BOX", "note": "ON 12/24 AND 12/31, THIS BOX MAY BE COLLECTED AS EARLY AS 12 NOON.", "nsi_id": "unitedstatespostalservice-a77078", "operator": "United States Postal Service", "operator:short": "USPS", "operator:type": "public", "operator:wikidata": "Q668687", "ref": "3655800001"}, "type": "Feature"}
{"dataset_attributes": {"@spider": "usps_collection_boxes"}, "geometry": {"coordinates": [-88.315901, 31.633429], "type": "Point"}, "id": "b7Z5N3hKI1197q9kqEVKLvtP0aw=", "properties": {"@spider": "usps_collection_boxes", "addr:city": "MILLRY", "addr:country": "US", "addr:full": "15 MAIN ST", "addr:postcode": "36558", "addr:state": "AL", "amenity": "post_box", "brand": "United States Postal Service", "brand:wikidata": "Q668687", "collection_times": "Mo-Fr 15:50; Sa 11:00", "name": "USPS COLLECTION BOX - PO LOBBY", "note": "ON 12/24 AND 12/31, THIS BOX MAY BE COLLECTED AS EARLY AS 12 NOON.", "nsi_id": "unitedstatespostalservice-a77078", "operator": "United States Postal Service", "operator:short": "USPS", "operator:type": "public", "operator:wikidata": "Q668687", "ref": "3655800002"}, "type": "Feature"}
{"dataset_attributes": {"@spider": "usps_collection_boxes"}, "geometry": {"coordinates": [-88.31595778, 31.632874254], "type": "Point"}, "id": "yDK6e1uZwjNbmp1x89pp7Mph4n4=", "properties": {"@spider": "usps_collection_boxes", "addr:city": "MILLRY", "addr:country": "US", "addr:full": "15 MAIN ST", "addr:postcode": "36558", "addr:state": "AL", "amenity": "post_box", "brand": "United States Postal Service", "brand:wikidata": "Q668687", "collection_times": "Mo-Fr 16:00; Sa 11:00", "name": "USPS COLLECTION BOX - PO LOBBY", "note": "ON 12/24 AND 12/31, THIS BOX MAY BE COLLECTED AS EARLY AS 12 NOON.", "nsi_id": "unitedstatespostalservice-a77078", "operator": "United States Postal Service", "operator:short": "USPS", "operator:type": "public", "operator:wikidata": "Q668687", "ref": "3655800004"}, "type": "Feature"}
{"dataset_attributes": {"@spider": "usps_collection_boxes"}, "geometry": {"coordinates": [-88.054653, 31.53978], "type": "Point"}, "id": "sC3be3yeDl7VPeNiLr2DP792Bm8=", "properties": {"@spider": "usps_collection_boxes", "addr:city": "ST STEPHENS", "addr:country": "US", "addr:full": "19250 COUNTY ROAD 34", "addr:postcode": "36569", "addr:state": "AL", "amenity": "post_box", "brand": "United States Postal Service", "brand:wikidata": "Q668687", "collection_times": "Mo-Fr 11:30; Sa 11:15", "name": "USPS COLLECTION BOX - BLUE BOX", "nsi_id": "unitedstatespostalservice-a77078", "operator": "United States Postal Service", "operator:short": "USPS", "operator:type": "public", "operator:wikidata": "Q668687", "ref": "3656900001"}, "type": "Feature"}
{"dataset_attributes": {"@spider": "usps_collection_boxes"}, "geometry": {"coordinates": [-88.0546320017, 31.5397005761], "type": "Point"}, "id": "t2tihYqzMtybxUd8REPLWfAASbc=", "properties": {"@spider": "usps_collection_boxes", "addr:city": "ST STEPHENS", "addr:country": "US", "addr:full": "19250 COUNTY ROAD 34", "addr:postcode": "36569", "addr:state": "AL", "amenity": "post_box", "brand": "United States Postal Service", "brand:wikidata": "Q668687", "collection_times": "Mo-Fr 11:30; Sa 11:15", "name": "USPS COLLECTION BOX - PO LOBBY", "nsi_id": "unitedstatespostalservice-a77078", "operator": "United States Postal Service", "operator:short": "USPS", "operator:type": "public", "operator:wikidata": "Q668687", "ref": "3656900002"}, "type": "Feature"}
{"dataset_attributes": {"@spider": "usps_collection_boxes"}, "geometry": {"coordinates": [-88.054632002, 31.539700576], "type": "Point"}, "id": "fO_a6-WsxXmlkg_VZpboSzYM4AI=", "properties": {"@spider": "usps_collection_boxes", "addr:city": "ST STEPHENS", "addr:country": "US", "addr:full": "19250 COUNTY ROAD 34", "addr:postcode": "36569", "addr:state": "AL", "amenity": "post_box", "brand": "United States Postal Service", "brand:wikidata": "Q668687", "collection_times": "Mo-Fr 11:30; Sa 11:15", "name": "USPS COLLECTION BOX - PO LOBBY", "nsi_id": "unitedstatespostalservice-a77078", "operator": "United States Postal Service", "operator:short": "USPS", "operator:type": "public", "operator:wikidata": "Q668687", "ref": "3656900003"}, "type": "Feature"}
{"dataset_attributes": {"@spider": "usps_collection_boxes"}, "geometry": {"coordinates": [-88.236687, 31.356059], "type": "Point"}, "id": "lx7CgXMrCJMKSoRR2qF9z1hGVcw=", "properties": {"@spider": "usps_collection_boxes", "addr:city": "TIBBIE", "addr:country": "US", "addr:full": "77 HAWTHORNE RD", "addr:postcode": "36583", "addr:state": "AL", "amenity": "post_box", "brand": "United States Postal Service", "brand:wikidata": "Q668687", "collection_times": "Mo-Fr 14:15", "name": "USPS COLLECTION BOX - PO LOBBY", "note": "ON 12/24 AND 12/31, THIS BOX MAY BE COLLECTED AS EARLY AS 12 NOON.", "nsi_id": "unitedstatespostalservice-a77078", "operator": "United States Postal Service", "operator:short": "USPS", "operator:type": "public", "operator:wikidata": "Q668687", "ref": "3658300001"}, "type": "Feature"}
{"dataset_attributes": {"@spider": "usps_collection_boxes"}, "geometry": {"coordinates": [-88.236687, 31.356059], "type": "Point"}, "id": "GgHVXCMCs3tuSOVZoNJw8qlH52g=", "properties": {"@spider": "usps_collection_boxes", "addr:city": "TIBBIE", "addr:country": "US", "addr:full": "77 HAWTHORNE RD", "addr:postcode": "36583", "addr:state": "AL", "amenity": "post_box", "brand": "United States Postal Service", "brand:wikidata": "Q668687", "collection_times": "Mo-Fr 14:15", "name": "USPS COLLECTION BOX - BLUE BOX", "note": "ON 12/24 AND 12/31, THIS BOX MAY BE COLLECTED AS EARLY AS 12 NOON.", "nsi_id": "unitedstatespostalservice-a77078", "operator": "United States Postal Service", "operator:short": "USPS", "operator:type": "public", "operator:wikidata": "Q668687", "ref": "3658300002"}, "type": "Feature"}
{"dataset_attributes": {"@spider": "usps_collection_boxes"}, "geometry": {"coordinates": [-88.248811974, 31.361929474], "type": "Point"}, "id": "mreW_WyW0uDl8T1yHsfV5qr2WCo=", "properties": {"@spider": "usps_collection_boxes", "addr:city": "TIBBIE", "addr:country": "US", "addr:full": "77 HAWTHORNE RD", "addr:postcode": "36583", "addr:state": "AL", "amenity": "post_box", "brand": "United States Postal Service", "brand:wikidata": "Q668687", "collection_times": "Mo-Fr 14:30", "name": "USPS COLLECTION BOX - PO LOBBY", "note": "ON 12/24 AND 12/31, THIS BOX MAY BE COLLECTED AS EARLY AS 12 NOON.", "nsi_id": "unitedstatespostalservice-a77078", "operator": "United States Postal Service", "operator:short": "USPS", "operator:type": "public", "operator:wikidata": "Q668687", "ref": "3658300004"}, "type": "Feature"}
{"dataset_attributes": {"@spider": "usps_collection_boxes"}, "geometry": {"coordinates": [-88.030211352, 31.442759936], "type": "Point"}, "id": "ki_Y9G_BW2tOzhAx6f9G-hR-yiA=", "properties": {"@spider": "usps_collection_boxes", "addr:city": "WAGARVILLE", "addr:country": "US", "addr:full": "20191 HIGHWAY 43", "addr:postcode": "36585", "addr:state": "AL", "amenity": "post_box", "brand": "United States Postal Service", "brand:wikidata": "Q668687", "collection_times": "Mo-Fr 16:30; Sa 11:00", "name": "USPS COLLECTION BOX - PO LOBBY", "note": "ON 12/24 AND 12/31, THIS BOX MAY BE COLLECTED AS EARLY AS 12 NOON.", "nsi_id": "unitedstatespostalservice-a77078", "operator": "United States Postal Service", "operator:short": "USPS", "operator:type": "public", "operator:wikidata": "Q668687", "ref": "3658500003"}, "type": "Feature"}
