{"geometry": {"coordinates": [-88.0434829593, 30.6964840045], "type": "Point"}, "id": "wA_XMrqyc-H7wvr8_hazt-PvQek=", "properties": {"@source_uri": "https://tools.usps.com/UspsToolsRestServices/rest/POLocator/findLocations", "@spider": "usps_collection_boxes", "addr:city": "MOBILE", "addr:country": "US", "addr:postcode": "36601", "addr:state": "AL", "addr:street_address": "250 SAINT JOSEPH ST", "amenity": "post_box", "collection_times": "Mo-Fr 17:00; Sa 12:00", "indoor": "yes", "note": "ON 12/24 AND 12/31, THIS BOX MAY BE COLLECTED AS EARLY AS 12 NOON.", "nsi_id": "unitedstatespostalservice-a77078", "operator": "United States Postal Service", "operator:short": "USPS", "operator:type": "public", "operator:wikidata": "Q668687", "ref": "3660100001"}, "type": "Feature"}
{"geometry": {"coordinates": [-88.0434829593, 30.6964840045], "type": "Point"}, "id": "wQ5xo3bF8ZfQYWcV2ZkEDh3gN-o=", "properties": {"@source_uri": "https://tools.usps.com/UspsToolsRestServices/rest/POLocator/findLocations", "@spider": "usps_collection_boxes", "addr:city": "MOBILE", "addr:country": "US", "addr:postcode": "36601", "addr:state": "AL", "addr:street_address": "250 SAINT JOSEPH ST", "amenity": "post_box", "collection_times": "Mo-Fr 17:00; Sa 12:00", "indoor": "yes", "note": "ON 12/24 AND 12/31, THIS BOX MAY BE COLLECTED AS EARLY AS 12 NOON.", "nsi_id": "unitedstatespostalservice-a77078", "operator": "United States Postal Service", "operator:short": "USPS", "operator:type": "public", "operator:wikidata": "Q668687", "ref": "3660100012"}, "type": "Feature"}
{"geometry": {"coordinates": [-88.0434829593, 30.6964840045], "type": "Point"}, "id": "rceKcPu3Q8iA_5WzAwYwYMmfzxk=", "properties": {"@source_uri": "https://tools.usps.com/UspsToolsRestServices/rest/POLocator/findLocations", "@spider": "usps_collection_boxes", "addr:city": "MOBILE", "addr:country": "US", "addr:postcode": "36601", "addr:state": "AL", "addr:street_address": "250 SAINT JOSEPH ST", "amenity": "post_box", "collection_times": "Mo-Fr 17:00; Sa 12:00", "indoor": "yes", "note": "ON 12/24 AND 12/31, THIS BOX MAY BE COLLECTED AS EARLY AS 12 NOON.", "nsi_id": "unitedstatespostalservice-a77078", "operator": "United States Postal Service", "operator:short": "USPS", "operator:type": "public", "operator:wikidata": "Q668687", "ref": "3660100015"}, "type": "Feature"}
{"geometry": {"coordinates": [-88.046383014, 30.6876799887], "type": "Point"}, "id": "XNeORvB0-JSu5Zi9W_vOxvREqwU=", "properties": {"@source_uri": "https://tools.usps.com/UspsToolsRestServices/rest/POLocator/findLocations", "@spider": "usps_collection_boxes", "addr:city": "MOBILE", "addr:country": "US", "addr:postcode": "36602", "addr:state": "AL", "addr:street_address": "451 GOVERNMENT ST", "amenity": "post_box", "collection_times": "Mo-Fr 17:00; Sa 14:45", "note": "ON 12/24 AND 12/31, THIS BOX MAY BE COLLECTED AS EARLY AS 12 NOON.", "nsi_id": "unitedstatespostalservice-a77078", "operator": "United States Postal Service", "operator:short": "USPS", "operator:type": "public", "operator:wikidata": "Q668687", "ref": "3660200004"}, "type": "Feature"}
{"geometry": {"coordinates": [-88.0456709713, 30.6919149871], "type": "Point"}, "id": "ewmT0QscpVz3sFSwKgbmkeLp_B8=", "properties": {"@source_uri": "https://tools.usps.com/UspsToolsRestServices/rest/POLocator/findLocations", "@spider": "usps_collection_boxes", "addr:city": "MOBILE", "addr:country": "US", "addr:postcode": "36602", "addr:state": "AL", "addr:street_address": "306 SAINT FRANCIS ST", "amenity": "post_box", "collection_times": "Mo-Sa 11:00", "nsi_id": "unitedstatespostalservice-a77078", "operator": "United States Postal Service", "operator:short": "USPS", "operator:type": "public", "operator:wikidata": "Q668687", "ref": "3660200006"}, "type": "Feature"}
{"geometry": {"coordinates": [-88.0427617336, 30.6934424927], "type": "Point"}, "id": "h9wBoUE__SIuA2fre1eQxpatxjA=", "properties": {"@source_uri": "https://tools.usps.com/UspsToolsRestServices/rest/POLocator/findLocations", "@spider": "usps_collection_boxes", "addr:city": "MOBILE", "addr:country": "US", "addr:postcode": "36602", "addr:state": "AL", "addr:street_address": "160 SAINT MICHAEL ST", "amenity": "post_box", "collection_times": "Mo-Sa 11:00", "nsi_id": "unitedstatespostalservice-a77078", "operator": "United States Postal Service", "operator:short": "USPS", "operator:type": "public", "operator:wikidata": "Q668687", "ref": "3660200031"}, "type": "Feature"}
{"geometry": {"coordinates": [-88.0401909668, 30.6912959836], "type": "Point"}, "id": "LZ1TQZbuZOOEQTXeQyMnLsXTKFg=", "properties": {"@source_uri": "https://tools.usps.com/UspsToolsRestServices/rest/POLocator/findLocations", "@spider": "usps_collection_boxes", "addr:city": "MOBILE", "addr:country": "US", "addr:postcode": "36602", "addr:state": "AL", "addr:street_address": "63 S ROYAL ST", "amenity": "post_box", "collection_times": "Mo-Fr 15:45", "note": "ON 12/24 AND 12/31, THIS BOX MAY BE COLLECTED AS EARLY AS 12 NOON.", "nsi_id": "unitedstatespostalservice-a77078", "operator": "United States Postal Service", "operator:short": "USPS", "operator:type": "public", "operator:wikidata": "Q668687", "ref": "3660200038"}, "type": "Feature"}
{"geometry": {"coordinates": [-88.0401909668, 30.6912959836], "type": "Point"}, "id": "_JHxhcsieNaeql02GZEag65qHxk=", "properties": {"@source_uri": "https://tools.usps.com/UspsToolsRestServices/rest/POLocator/findLocations", "@spider": "usps_collection_boxes", "addr:city": "MOBILE", "addr:country": "US", "addr:postcode": "36602", "addr:state": "AL", "addr:street_address": "63 S ROYAL ST", "amenity": "post_box", "collection_times": "Mo-Fr 15:45", "note": "ON 12/24 AND 12/31, THIS BOX MAY BE COLLECTED AS EARLY AS 12 NOON.", "nsi_id": "unitedstatespostalservice-a77078", "operator": "United States Postal Service", "operator:short": "USPS", "operator:type": "public", "operator:wikidata": "Q668687", "ref": "3660200056"}, "type": "Feature"}
{"geometry": {"coordinates": [-88.050922988, 30.6827969852], "type": "Point"}, "id": "iFQeBA-5ndjm5n85aZDbe8Ms01A=", "properties": {"@source_uri": "https://tools.usps.com/UspsToolsRestServices/rest/POLocator/findLocations", "@spider": "usps_collection_boxes", "addr:city": "MOBILE", "addr:country": "US", "addr:postcode": "36603", "addr:state": "AL", "addr:street_address": "759 PALMETTO ST", "amenity": "post_box", "collection_times": "Mo-Sa 09:00", "nsi_id": "unitedstatespostalservice-a77078", "operator": "United States Postal Service", "operator:short": "USPS", "operator:type": "public", "operator:wikidata": "Q668687", "ref": "3660300061"}, "type": "Feature"}
{"geometry": {"coordinates": [-88.0564770047, 30.6896369954], "type": "Point"}, "id": "0c-IrXpO3D2uKXq2ZTOiN-gCOss=", "properties": {"@source_uri": "https://tools.usps.com/UspsToolsRestServices/rest/POLocator/findLocations", "@spider": "usps_collection_boxes", "addr:city": "MOBILE", "addr:country": "US", "addr:postcode": "36604", "addr:state": "AL", "addr:street_address": "907 SPRING HILL AVE", "amenity": "post_box", "collection_times": "Mo-Fr 16:30; Sa 12:00", "indoor": "yes", "note": "ON 12/24 AND 12/31, THIS BOX MAY BE COLLECTED AS EARLY AS 12 NOON.", "nsi_id": "unitedstatespostalservice-a77078", "operator": "United States Postal Service", "operator:short": "USPS", "operator:type": "public", "operator:wikidata": "Q668687", "ref": "3660400001"}, "type": "Feature"}
{"geometry": {"coordinates": [-88.0564770047, 30.6896369954], "type": "Point"}, "id": "6Dt5pH7czXgwQNJ-ORimOwxazn8=", "properties": {"@source_uri": "https://tools.usps.com/UspsToolsRestServices/rest/POLocator/findLocations", "@spider": "usps_collection_boxes", "addr:city": "MOBILE", "addr:country": "US", "addr:postcode": "36604", "addr:state": "AL", "addr:street_address": "907 SPRING HILL AVE", "amenity": "post_box", "collection_times": "Mo-Fr 16:30; Sa 12:00", "indoor": "yes", "note": "ON 12/24 AND 12/31, THIS BOX MAY BE COLLECTED AS EARLY AS 12 NOON.", "nsi_id": "unitedstatespostalservice-a77078", "operator": "United States Postal Service", "operator:short": "USPS", "operator:type": "public", "operator:wikidata": "Q668687", "ref": "3660400035"}, "type": "Feature"}
{"geometry": {"coordinates": [-88.0564770047, 30.6896369954], "type": "Point"}, "id": "G6Om3dGIzpA3edqJT1V3FdrbOh0=", "properties": {"@source_uri": "https://tools.usps.com/UspsToolsRestServices/rest/POLocator/findLocations", "@spider": "usps_collection_boxes", "addr:city": "MOBILE", "addr:country": "US", "addr:postcode": "36604", "addr:state": "AL", "addr:street_address": "907 SPRING HILL AVE", "amenity": "post_box", "collection_times": "Mo-Fr 16:30", "indoor": "yes", "note": "ON 12/24 AND 12/31, THIS BOX MAY BE COLLECTED AS EARLY AS 12 NOON.", "nsi_id": "unitedstatespostalservice-a77078", "operator": "United States Postal Service", "operator:short": "USPS", "operator:type": "public", "operator:wikidata": "Q668687", "ref": "3660400043"}, "type": "Feature"}
{"geometry": {"coordinates": [-88.0690699, 30.645147], "type": "Point"}, "id": "cl-jIUqJVdXjI1tiPS-VhdeC51A=", "properties": {"@source_uri": "https://tools.usps.com/UspsToolsRestServices/rest/POLocator/findLocations", "@spider": "usps_collection_boxes", "addr:city": "MOBILE", "addr:country": "US", "addr:postcode": "36605", "addr:state": "AL", "addr:street_address": "2048 S BROAD ST", "amenity": "post_box", "collection_times": "Mo-Fr 14:00; Sa 13:15", "note": "ON 12/24 AND 12/31, THIS BOX MAY BE COLLECTED AS EARLY AS 12 NOON.", "nsi_id": "unitedstatespostalservice-a77078", "operator": "United States Postal Service", "operator:short": "USPS", "operator:type": "public", "operator:wikidata": "Q668687", "ref": "3660500027"}, "type": "Feature"}
{"geometry": {"coordinates": [-88.083963, 30.62361], "type": "Point"}, "id": "YGsJ-XHl8-lVdxV3iBzolC0pBpQ=", "properties": {"@source_uri": "https://tools.usps.com/UspsToolsRestServices/rest/POLocator/findLocations", "@spider": "usps_collection_boxes", "addr:city": "MOBILE", "addr:country": "US", "addr:postcode": "36605", "addr:state": "AL", "addr:street_address": "2000 ROSEDALE RD", "amenity": "post_box", "collection_times": "Mo-Fr 16:30; Sa 12:00", "indoor": "yes", "note": "ON 12/24 AND 12/31, THIS BOX MAY BE COLLECTED AS EARLY AS 12 NOON.", "nsi_id": "unitedstatespostalservice-a77078", "operator": "United States Postal Service", "operator:short": "USPS", "operator:type": "public", "operator:wikidata": "Q668687", "ref": "3660500048"}, "type": "Feature"}
{"geometry": {"coordinates": [-88.083963, 30.62361], "type": "Point"}, "id": "tqFdmAtfFCC_PvAqdR_iiO_3bYc=", "properties": {"@source_uri": "https://tools.usps.com/UspsToolsRestServices/rest/POLocator/findLocations", "@spider": "usps_collection_boxes", "addr:city": "MOBILE", "addr:country": "US", "addr:postcode": "36605", "addr:state": "AL", "addr:street_address": "2000 ROSEDALE RD", "amenity": "post_box", "collection_times": "Mo-Fr 16:30; Sa 12:00", "indoor": "yes", "note": "ON 12/24 AND 12/31, THIS BOX MAY BE COLLECTED AS EARLY AS 12 NOON.", "nsi_id": "unitedstatespostalservice-a77078", "operator": "United States Postal Service", "operator:short": "USPS", "operator:type": "public", "operator:wikidata": "Q668687", "ref": "3660500049"}, "type": "Feature"}
{"geometry": {"coordinates": [-88.083930449, 30.623646449], "type": "Point"}, "id": "A5PKcLwTxISQWe6fIqybFh7s-bU=", "properties": {"@source_uri": "https://tools.usps.com/UspsToolsRestServices/rest/POLocator/findLocations", "@spider": "usps_collection_boxes", "addr:city": "MOBILE", "addr:country": "US", "addr:postcode": "36605", "addr:state": "AL", "addr:street_address": "2000 ROSEDALE RD", "amenity": "post_box", "collection_times": "Mo-Fr 16:30", "indoor": "yes", "note": "ON 12/24 AND 12/31, THIS BOX MAY BE COLLECTED AS EARLY AS 12 NOON.", "nsi_id": "unitedstatespostalservice-a77078", "operator": "United States Postal Service", "operator:short": "USPS", "operator:type": "public", "operator:wikidata": "Q668687", "ref": "3660500053"}, "type": "Feature"}
{"geometry": {"coordinates": [-88.0869352, 30.674444], "type": "Point"}, "id": "zfVOb_3mvktEj6WmgCJ5agNcKL8=", "properties": {"@source_uri": "https://tools.usps.com/UspsToolsRestServices/rest/POLocator/findLocations", "@spider": "usps_collection_boxes", "addr:city": "MOBILE", "addr:country": "US", "addr:postcode": "36606", "addr:state": "AL", "addr:street_address": "415 DAUPHIN ISLAND PKWY", "amenity": "post_box", "collection_times": "Mo-Fr 17:00; Sa 15:00", "indoor": "yes", "note": "ON 12/24 AND 12/31, THIS BOX MAY BE COLLECTED AS EARLY AS 12 NOON.", "nsi_id": "unitedstatespostalservice-a77078", "operator": "United States Postal Service", "operator:short": "USPS", "operator:type": "public", "operator:wikidata": "Q668687", "ref": "3660600001"}, "type": "Feature"}
{"geometry": {"coordinates": [-88.1221516, 30.672162], "type": "Point"}, "id": "jPQrsI0X5lLva0a-aOC9SvQolA8=", "properties": {"@source_uri": "https://tools.usps.com/UspsToolsRestServices/rest/POLocator/findLocations", "@spider": "usps_collection_boxes", "addr:city": "MOBILE", "addr:country": "US", "addr:postcode": "36606", "addr:state": "AL", "addr:street_address": "3410 BEL AIR MALL", "amenity": "post_box", "collection_times": "Mo-Fr 16:30; Sa 15:00", "note": "ON 12/24 AND 12/31, THIS BOX MAY BE COLLECTED AS EARLY AS 12 NOON.", "nsi_id": "unitedstatespostalservice-a77078", "operator": "United States Postal Service", "operator:short": "USPS", "operator:type": "public", "operator:wikidata": "Q668687", "ref": "3660600021"}, "type": "Feature"}
{"geometry": {"coordinates": [-88.1154716, 30.669622], "type": "Point"}, "id": "9YSZFee6QykYI8UkDpZC3oUNax4=", "properties": {"@source_uri": "https://tools.usps.com/UspsToolsRestServices/rest/POLocator/findLocations", "@spider": "usps_collection_boxes", "addr:city": "MOBILE", "addr:country": "US", "addr:postcode": "36606", "addr:state": "AL", "addr:street_address": "2970 COTTAGE HILL RD", "amenity": "post_box", "collection_times": "Mo-Sa 12:00", "nsi_id": "unitedstatespostalservice-a77078", "operator": "United States Postal Service", "operator:short": "USPS", "operator:type": "public", "operator:wikidata": "Q668687", "ref": "3660600025"}, "type": "Feature"}
{"geometry": {"coordinates": [-88.1245112, 30.683825], "type": "Point"}, "id": "dt7lDGkr3rxpPWJZFwN-OMWV1Sc=", "properties": {"@source_uri": "https://tools.usps.com/UspsToolsRestServices/rest/POLocator/findLocations", "@spider": "usps_collection_boxes", "addr:city": "MOBILE", "addr:country": "US", "addr:postcode": "36606", "addr:state": "AL", "addr:street_address": "101 E I65 SERVICE RD S", "amenity": "post_box", "collection_times": "Mo-Sa 11:00", "nsi_id": "unitedstatespostalservice-a77078", "operator": "United States Postal Service", "operator:short": "USPS", "operator:type": "public", "operator:wikidata": "Q668687", "ref": "3660600029"}, "type": "Feature"}
{"geometry": {"coordinates": [-88.1171941, 30.689392], "type": "Point"}, "id": "_SSL3YHeaotjbcdSGeUkbroV9q4=", "properties": {"@source_uri": "https://tools.usps.com/UspsToolsRestServices/rest/POLocator/findLocations", "@spider": "usps_collection_boxes", "addr:city": "MOBILE", "addr:country": "US", "addr:postcode": "36606", "addr:state": "AL", "addr:street_address": "3091 DAUPHIN ST", "amenity": "post_box", "collection_times": "Mo-Fr 17:00; Sa 14:45", "note": "ON 12/24 AND 12/31, THIS BOX MAY BE COLLECTED AS EARLY AS 12 NOON.", "nsi_id": "unitedstatespostalservice-a77078", "operator": "United States Postal Service", "operator:short": "USPS", "operator:type": "public", "operator:wikidata": "Q668687", "ref": "3660600032"}, "type": "Feature"}
{"geometry": {"coordinates": [-88.1254348, 30.674222], "type": "Point"}, "id": "KCtVWGQs4S2pIN4GO53moGXIYKY=", "properties": {"@source_uri": "https://tools.usps.com/UspsToolsRestServices/rest/POLocator/findLocations", "@spider": "usps_collection_boxes", "addr:city": "MOBILE", "addr:country": "US", "addr:postcode": "36606", "addr:state": "AL", "addr:street_address": "851 E I65 SERVICE RD S", "amenity": "post_box", "collection_times": "Mo-Fr 17:00; Sa 14:45", "note": "ON 12/24 AND 12/31, THIS BOX MAY BE COLLECTED AS EARLY AS 12 NOON.", "nsi_id": "unitedstatespostalservice-a77078", "operator": "United States Postal Service", "operator:short": "USPS", "operator:type": "public", "operator:wikidata": "Q668687", "ref": "3660600037"}, "type": "Feature"}
{"geometry": {"coordinates": [-88.119229, 30.667363], "type": "Point"}, "id": "GKvJjURsjDER9hE38PleFAwmvwg=", "properties": {"@source_uri": "https://tools.usps.com/UspsToolsRestServices/rest/POLocator/findLocations", "@spider": "usps_collection_boxes", "addr:city": "MOBILE", "addr:country": "US", "addr:postcode": "36606", "addr:state": "AL", "addr:street_address": "3100 COTTAGE HILL RD", "amenity": "post_box", "collection_times": "Mo-Fr 16:45; Sa 14:15", "note": "ON 12/24 AND 12/31, THIS BOX MAY BE COLLECTED AS EARLY AS 12 NOON.", "nsi_id": "unitedstatespostalservice-a77078", "operator": "United States Postal Service", "operator:short": "USPS", "operator:type": "public", "operator:wikidata": "Q668687", "ref": "3660600038"}, "type": "Feature"}
{"geometry": {"coordinates": [-88.1155778, 30.675962], "type": "Point"}, "id": "rsGHI114_WAZzGbJm1GE2kd_0qo=", "properties": {"@source_uri": "https://tools.usps.com/UspsToolsRestServices/rest/POLocator/findLocations", "@spider": "usps_collection_boxes", "addr:city": "MOBILE", "addr:country": "US", "addr:postcode": "36606", "addr:state": "AL", "addr:street_address": "3001 AIRPORT BLVD", "amenity": "post_box", "collection_times": "Mo-Sa 13:00", "note": "ON 12/24 AND 12/31, THIS BOX MAY BE COLLECTED AS EARLY AS 12 NOON.", "nsi_id": "unitedstatespostalservice-a77078", "operator": "United States Postal Service", "operator:short": "USPS", "operator:type": "public", "operator:wikidata": "Q668687", "ref": "3660600042"}, "type": "Feature"}
{"geometry": {"coordinates": [-88.1238894, 30.690048], "type": "Point"}, "id": "Qna-K6fnptoFeft2a8udc8uCjEg=", "properties": {"@source_uri": "https://tools.usps.com/UspsToolsRestServices/rest/POLocator/findLocations", "@spider": "usps_collection_boxes", "addr:city": "MOBILE", "addr:country": "US", "addr:postcode": "36606", "addr:state": "AL", "addr:street_address": "3280 DAUPHIN ST", "amenity": "post_box", "collection_times": "Mo-Fr 17:00; Sa 14:45", "note": "ON 12/24 AND 12/31, THIS BOX MAY BE COLLECTED AS EARLY AS 12 NOON.", "nsi_id": "unitedstatespostalservice-a77078", "operator": "United States Postal Service", "operator:short": "USPS", "operator:type": "public", "operator:wikidata": "Q668687", "ref": "3660600045"}, "type": "Feature"}
{"geometry": {"coordinates": [-88.0900417554, 30.6765115226], "type": "Point"}, "id": "P48Kh3s2zBeZnEAipwTkYA7DzD8=", "properties": {"@source_uri": "https://tools.usps.com/UspsToolsRestServices/rest/POLocator/findLocations", "@spider": "usps_collection_boxes", "addr:city": "MOBILE", "addr:country": "US", "addr:postcode": "36606", "addr:state": "AL", "addr:street_address": "2050 AIRPORT BLVD", "amenity": "post_box", "collection_times": "Mo-Sa 11:00", "nsi_id": "unitedstatespostalservice-a77078", "operator": "United States Postal Service", "operator:short": "USPS", "operator:type": "public", "operator:wikidata": "Q668687", "ref": "3660600059"}, "type": "Feature"}
{"geometry": {"coordinates": [-88.0868292, 30.67444], "type": "Point"}, "id": "J1xI0uP6bIyin5t5dBY2Q3TSvFg=", "properties": {"@source_uri": "https://tools.usps.com/UspsToolsRestServices/rest/POLocator/findLocations", "@spider": "usps_collection_boxes", "addr:city": "MOBILE", "addr:country": "US", "addr:postcode": "36606", "addr:state": "AL", "addr:street_address": "415 DAUPHIN ISLAND PKWY", "amenity": "post_box", "collection_times": "Mo-Fr 17:00; Sa 15:00", "indoor": "yes", "note": "ON 12/24 AND 12/31, THIS BOX MAY BE COLLECTED AS EARLY AS 12 NOON.", "nsi_id": "unitedstatespostalservice-a77078", "operator": "United States Postal Service", "operator:short": "USPS", "operator:type": "public", "operator:wikidata": "Q668687", "ref": "3660600077"}, "type": "Feature"}
{"geometry": {"coordinates": [-88.1219937043, 30.6723866974], "type": "Point"}, "id": "WvpHvhHF_QHrnUcRsGsxCXeKMzw=", "properties": {"@source_uri": "https://tools.usps.com/UspsToolsRestServices/rest/POLocator/findLocations", "@spider": "usps_collection_boxes", "addr:city": "MOBILE", "addr:country": "US", "addr:postcode": "36606", "addr:state": "AL", "addr:street_address": "3410 BEL AIR MALL", "amenity": "post_box", "collection_times": "Mo-Sa 17:00", "indoor": "yes", "note": "ON 12/24 AND 12/31, THIS BOX MAY BE COLLECTED AS EARLY AS 12 NOON.", "nsi_id": "unitedstatespostalservice-a77078", "operator": "United States Postal Service", "operator:short": "USPS", "operator:type": "public", "operator:wikidata": "Q668687", "ref": "3660600082"}, "type": "Feature"}
{"geometry": {"coordinates": [-88.087015033, 30.674652811], "type": "Point"}, "id": "9ED-8OOWHeYmbZzPGrRGx0EWqy8=", "properties": {"@source_uri": "https://tools.usps.com/UspsToolsRestServices/rest/POLocator/findLocations", "@spider": "usps_collection_boxes", "addr:city": "MOBILE", "addr:country": "US", "addr:postcode": "36606", "addr:state": "AL", "addr:street_address": "415 DAUPHIN ISLAND PKWY", "amenity": "post_box", "collection_times": "Mo-Fr 16:30", "indoor": "yes", "note": "ON 12/24 AND 12/31, THIS BOX MAY BE COLLECTED AS EARLY AS 12 NOON.", "nsi_id": "unitedstatespostalservice-a77078", "operator": "United States Postal Service", "operator:short": "USPS", "operator:type": "public", "operator:wikidata": "Q668687", "ref": "3660600083"}, "type": "Feature"}
{"geometry": {"coordinates": [-88.121993704, 30.672386697], "type": "Point"}, "id": "abUIUuyKfQE9j3EiTu5sp-zRGIw=", "properties": {"@source_uri": "https://tools.usps.com/UspsToolsRestServices/rest/POLocator/findLocations", "@spider": "usps_collection_boxes", "addr:city": "MOBILE", "addr:country": "US", "addr:postcode": "36606", "addr:state": "AL", "addr:street_address": "3410 BEL AIR MALL", "amenity": "post_box", "collection_times": "Mo-Fr 18:00; Sa 17:00", "indoor": "yes", "note": "ON 12/24 AND 12/31, THIS BOX MAY BE COLLECTED AS EARLY AS 12 NOON.", "nsi_id": "unitedstatespostalservice-a77078", "operator": "United States Postal Service", "operator:short": "USPS", "operator:type": "public", "operator:wikidata": "Q668687", "ref": "3660600085"}, "type": "Feature"}
{"geometry": {"coordinates": [-88.121993704, 30.672386697], "type": "Point"}, "id": "mywISxY5qpjKE9M1ZQlhFerHdQo=", "properties": {"@source_uri": "https://tools.usps.com/UspsToolsRestServices/rest/POLocator/findLocations", "@spider": "usps_collection_boxes", "addr:city": "MOBILE", "addr:country": "US", "addr:postcode": "36606", "addr:state": "AL", "addr:street_address": "3410 BEL AIR MALL", "amenity": "post_box", "collection_times": "Mo-Fr 18:00; Sa 17:00", "indoor": "yes", "note": "ON 12/24 AND 12/31, THIS BOX MAY BE COLLECTED AS EARLY AS 12 NOON.", "nsi_id": "unitedstatespostalservice-a77078", "operator": "United States Postal Service", "operator:short": "USPS", "operator:type": "public", "operator:wikidata": "Q668687", "ref": "3660600086"}, "type": "Feature"}
{"geometry": {"coordinates": [-88.0911547, 30.68711], "type": "Point"}, "id": "udqcFq0P6_FuXybmiPZN_VaX3KM=", "properties": {"@source_uri": "https://tools.usps.com/UspsToolsRestServices/rest/POLocator/findLocations", "@spider": "usps_collection_boxes", "addr:city": "MOBILE", "addr:country": "US", "addr:postcode": "36607", "addr:state": "AL", "addr:street_address": "10 UPHAM ST", "amenity": "post_box", "collection_times": "Mo-Sa 10:00", "nsi_id": "unitedstatespostalservice-a77078", "operator": "United States Postal Service", "operator:short": "USPS", "operator:type": "public", "operator:wikidata": "Q668687", "ref": "3660700011"}, "type": "Feature"}
{"geometry": {"coordinates": [-88.0995418734, 30.6908266394], "type": "Point"}, "id": "L3vmBm5PRdxCcpb4Fvu7XbvYBl4=", "properties": {"@source_uri": "https://tools.usps.com/UspsToolsRestServices/rest/POLocator/findLocations", "@spider": "usps_collection_boxes", "addr:city": "MOBILE", "addr:country": "US", "addr:postcode": "36607", "addr:state": "AL", "addr:street_address": "2511 OLD SHELL RD", "amenity": "post_box", "collection_times": "Mo-Sa 10:00", "nsi_id": "unitedstatespostalservice-a77078", "operator": "United States Postal Service", "operator:short": "USPS", "operator:type": "public", "operator:wikidata": "Q668687", "ref": "3660700019"}, "type": "Feature"}
{"geometry": {"coordinates": [-88.106226, 30.696601], "type": "Point"}, "id": "3ViaI6ovuV_me2saa3yJIoNiaQ0=", "properties": {"@source_uri": "https://tools.usps.com/UspsToolsRestServices/rest/POLocator/findLocations", "@spider": "usps_collection_boxes", "addr:city": "MOBILE", "addr:country": "US", "addr:postcode": "36607", "addr:state": "AL", "addr:street_address": "168 BAY SHORE AVE", "amenity": "post_box", "collection_times": "Mo-Fr 16:15", "indoor": "yes", "note": "ON 12/24 AND 12/31, THIS BOX MAY BE COLLECTED AS EARLY AS 12 NOON.", "nsi_id": "unitedstatespostalservice-a77078", "operator": "United States Postal Service", "operator:short": "USPS", "operator:type": "public", "operator:wikidata": "Q668687", "ref": "3660700023"}, "type": "Feature"}
{"geometry": {"coordinates": [-88.1061127, 30.696694], "type": "Point"}, "id": "CqZk9npRKqtuAmdm3fMteI3GjZY=", "properties": {"@source_uri": "https://tools.usps.com/UspsToolsRestServices/rest/POLocator/findLocations", "@spider": "usps_collection_boxes", "addr:city": "MOBILE", "addr:country": "US", "addr:postcode": "36607", "addr:state": "AL", "addr:street_address": "168 BAY SHORE AVE", "amenity": "post_box", "collection_times": "Mo-Fr 17:00; Sa 14:45", "note": "ON 12/24 AND 12/31, THIS BOX MAY BE COLLECTED AS EARLY AS 12 NOON.", "nsi_id": "unitedstatespostalservice-a77078", "operator": "United States Postal Service", "operator:short": "USPS", "operator:type": "public", "operator:wikidata": "Q668687", "ref": "3660700024"}, "type": "Feature"}
{"geometry": {"coordinates": [-88.1061324, 30.696672], "type": "Point"}, "id": "jaQ_QE6vKi6LOv251hQmDeedwHo=", "properties": {"@source_uri": "https://tools.usps.com/UspsToolsRestServices/rest/POLocator/findLocations", "@spider": "usps_collection_boxes", "addr:city": "MOBILE", "addr:country": "US", "addr:postcode": "36607", "addr:state": "AL", "addr:street_address": "168 BAY SHORE AVE", "amenity": "post_box", "collection_times": "Mo-Fr 17:00; Sa 14:45", "note": "ON 12/24 AND 12/31, THIS BOX MAY BE COLLECTED AS EARLY AS 12 NOON.", "nsi_id": "unitedstatespostalservice-a77078", "operator": "United States Postal Service", "operator:short": "USPS", "operator:type": "public", "operator:wikidata": "Q668687", "ref": "3660700025"}, "type": "Feature"}
{"geometry": {"coordinates": [-88.1061266, 30.69669], "type": "Point"}, "id": "FqGVBNqyccykjvEbxM_y9VOeNOw=", "properties": {"@source_uri": "https://tools.usps.com/UspsToolsRestServices/rest/POLocator/findLocations", "@spider": "usps_collection_boxes", "addr:city": "MOBILE", "addr:country": "US", "addr:postcode": "36607", "addr:state": "AL", "addr:street_address": "168 BAY SHORE AVE", "amenity": "post_box", "collection_times": "Mo-Fr 17:00; Sa 14:45", "note": "ON 12/24 AND 12/31, THIS BOX MAY BE COLLECTED AS EARLY AS 12 NOON.", "nsi_id": "unitedstatespostalservice-a77078", "operator": "United States Postal Service", "operator:short": "USPS", "operator:type": "public", "operator:wikidata": "Q668687", "ref": "3660700026"}, "type": "Feature"}
{"geometry": {"coordinates": [-88.106226, 30.696601], "type": "Point"}, "id": "eyrInSa7LMEWK6go757r4IASz1A=", "properties": {"@source_uri": "https://tools.usps.com/UspsToolsRestServices/rest/POLocator/findLocations", "@spider": "usps_collection_boxes", "addr:city": "MOBILE", "addr:country": "US", "addr:postcode": "36607", "addr:state": "AL", "addr:street_address": "168 BAY SHORE AVE", "amenity": "post_box", "collection_times": "Mo-Fr 16:15", "indoor": "yes", "note": "ON 12/24 AND 12/31, THIS BOX MAY BE COLLECTED AS EARLY AS 12 NOON.", "nsi_id": "unitedstatespostalservice-a77078", "operator": "United States Postal Service", "operator:short": "USPS", "operator:type": "public", "operator:wikidata": "Q668687", "ref": "3660700032"}, "type": "Feature"}
{"geometry": {"coordinates": [-88.1034087, 30.689886], "type": "Point"}, "id": "N1Q1eX-vLqyP9Cwwi3L1qIcep0Y=", "properties": {"@source_uri": "https://tools.usps.com/UspsToolsRestServices/rest/POLocator/findLocations", "@spider": "usps_collection_boxes", "addr:city": "MOBILE", "addr:country": "US", "addr:postcode": "36607", "addr:state": "AL", "addr:street_address": "32 TACON ST", "amenity": "post_box", "collection_times": "Mo-Sa 10:00", "nsi_id": "unitedstatespostalservice-a77078", "operator": "United States Postal Service", "operator:short": "USPS", "operator:type": "public", "operator:wikidata": "Q668687", "ref": "3660700033"}, "type": "Feature"}
{"geometry": {"coordinates": [-88.106226, 30.696601], "type": "Point"}, "id": "RgOPxxTV410w3bR9nEp22CwejdE=", "properties": {"@source_uri": "https://tools.usps.com/UspsToolsRestServices/rest/POLocator/findLocations", "@spider": "usps_collection_boxes", "addr:city": "MOBILE", "addr:country": "US", "addr:postcode": "36607", "addr:state": "AL", "addr:street_address": "168 BAY SHORE AVE", "amenity": "post_box", "collection_times": "Mo-Fr 16:15", "indoor": "yes", "note": "ON 12/24 AND 12/31, THIS BOX MAY BE COLLECTED AS EARLY AS 12 NOON.", "nsi_id": "unitedstatespostalservice-a77078", "operator": "United States Postal Service", "operator:short": "USPS", "operator:type": "public", "operator:wikidata": "Q668687", "ref": "3660700034"}, "type": "Feature"}
{"geometry": {"coordinates": [-88.106203033, 30.696629533], "type": "Point"}, "id": "qVNUTyJyWG_MmPOfAD-VACm_hZA=", "properties": {"@source_uri": "https://tools.usps.com/UspsToolsRestServices/rest/POLocator/findLocations", "@spider": "usps_collection_boxes", "addr:city": "MOBILE", "addr:country": "US", "addr:postcode": "36607", "addr:state": "AL", "addr:street_address": "168 NEW SHILOH AVE", "amenity": "post_box", "collection_times": "Mo-Fr 16:15", "indoor": "yes", "note": "ON 12/24 AND 12/31, THIS BOX MAY BE COLLECTED AS EARLY AS 12 NOON.", "nsi_id": "unitedstatespostalservice-a77078", "operator": "United States Postal Service", "operator:short": "USPS", "operator:type": "public", "operator:wikidata": "Q668687", "ref": "3660700036"}, "type": "Feature"}
{"geometry": {"coordinates": [-88.1702763, 30.689445], "type": "Point"}, "id": "60bdDa2aY7HFxheW-nreXXNPBGw=", "properties": {"@source_uri": "https://tools.usps.com/UspsToolsRestServices/rest/POLocator/findLocations", "@spider": "usps_collection_boxes", "addr:city": "MOBILE", "addr:country": "US", "addr:postcode": "36608", "addr:state": "AL", "addr:street_address": "5551 OLD SHELL RD", "amenity": "post_box", "collection_times": "Mo-Fr 17:00; Sa 15:00", "note": "ON 12/24 AND 12/31, THIS BOX MAY BE COLLECTED AS EARLY AS 12 NOON.", "nsi_id": "unitedstatespostalservice-a77078", "operator": "United States Postal Service", "operator:short": "USPS", "operator:type": "public", "operator:wikidata": "Q668687", "ref": "3660800003"}, "type": "Feature"}
{"geometry": {"coordinates": [-88.1316614, 30.670961], "type": "Point"}, "id": "HrqBeBjXUEK36vEh9itD7jerjBI=", "properties": {"@source_uri": "https://tools.usps.com/UspsToolsRestServices/rest/POLocator/findLocations", "@spider": "usps_collection_boxes", "addr:city": "MOBILE", "addr:country": "US", "addr:postcode": "36608", "addr:state": "AL", "addr:street_address": "3661 AIRPORT BLVD", "amenity": "post_box", "collection_times": "Mo-Fr 14:00; Sa 13:00", "note": "ON 12/24 AND 12/31, THIS BOX MAY BE COLLECTED AS EARLY AS 12 NOON.", "nsi_id": "unitedstatespostalservice-a77078", "operator": "United States Postal Service", "operator:short": "USPS", "operator:type": "public", "operator:wikidata": "Q668687", "ref": "3660800011"}, "type": "Feature"}
{"geometry": {"coordinates": [-88.1993339, 30.679033], "type": "Point"}, "id": "gU3lU6YgxHCpwqYWwWbt0mV0Q04=", "properties": {"@source_uri": "https://tools.usps.com/UspsToolsRestServices/rest/POLocator/findLocations", "@spider": "usps_collection_boxes", "addr:city": "MOBILE", "addr:country": "US", "addr:postcode": "36608", "addr:state": "AL", "addr:street_address": "6801 AIRPORT BLVD", "amenity": "post_box", "collection_times": "Mo-Fr 15:45; Sa 13:30", "note": "ON 12/24 AND 12/31, THIS BOX MAY BE COLLECTED AS EARLY AS 12 NOON.", "nsi_id": "unitedstatespostalservice-a77078", "operator": "United States Postal Service", "operator:short": "USPS", "operator:type": "public", "operator:wikidata": "Q668687", "ref": "3660800016"}, "type": "Feature"}
{"geometry": {"coordinates": [-88.1974265, 30.678418], "type": "Point"}, "id": "mmnjF1cS0BtUVSFDagJVRguEHD8=", "properties": {"@source_uri": "https://tools.usps.com/UspsToolsRestServices/rest/POLocator/findLocations", "@spider": "usps_collection_boxes", "addr:city": "MOBILE", "addr:country": "US", "addr:postcode": "36608", "addr:state": "AL", "addr:street_address": "6701 AIRPORT BLVD", "amenity": "post_box", "collection_times": "Mo-Fr 15:45; Sa 13:45", "note": "ON 12/24 AND 12/31, THIS BOX MAY BE COLLECTED AS EARLY AS 12 NOON.", "nsi_id": "unitedstatespostalservice-a77078", "operator": "United States Postal Service", "operator:short": "USPS", "operator:type": "public", "operator:wikidata": "Q668687", "ref": "3660800019"}, "type": "Feature"}
{"geometry": {"coordinates": [-88.1749733, 30.695439], "type": "Point"}, "id": "0W8dyhHAOF2iRohj04pPw5t2wqk=", "properties": {"@source_uri": "https://tools.usps.com/UspsToolsRestServices/rest/POLocator/findLocations", "@spider": "usps_collection_boxes", "addr:city": "MOBILE", "addr:country": "US", "addr:postcode": "36608", "addr:state": "AL", "addr:street_address": "307 N UNIVERSITY BLVD", "amenity": "post_box", "collection_times": "Mo-Fr 14:15; Sa 12:30", "note": "ON 12/24 AND 12/31, THIS BOX MAY BE COLLECTED AS EARLY AS 12 NOON.", "nsi_id": "unitedstatespostalservice-a77078", "operator": "United States Postal Service", "operator:short": "USPS", "operator:type": "public", "operator:wikidata": "Q668687", "ref": "3660800031"}, "type": "Feature"}
{"geometry": {"coordinates": [-88.1901635, 30.682419], "type": "Point"}, "id": "1JthN6sDu-qoridp-VQEcfuZdLI=", "properties": {"@source_uri": "https://tools.usps.com/UspsToolsRestServices/rest/POLocator/findLocations", "@spider": "usps_collection_boxes", "addr:city": "MOBILE", "addr:country": "US", "addr:postcode": "36608", "addr:state": "AL", "addr:street_address": "375 HILLCREST RD", "amenity": "post_box", "collection_times": "Mo-Fr 14:00; Sa 12:00", "note": "ON 12/24 AND 12/31, THIS BOX MAY BE COLLECTED AS EARLY AS 12 NOON.", "nsi_id": "unitedstatespostalservice-a77078", "operator": "United States Postal Service", "operator:short": "USPS", "operator:type": "public", "operator:wikidata": "Q668687", "ref": "3660800038"}, "type": "Feature"}
{"geometry": {"coordinates": [-88.1391713, 30.69395], "type": "Point"}, "id": "3hSdxqJ-ee820zGnt7cIJK5ORis=", "properties": {"@source_uri": "https://tools.usps.com/UspsToolsRestServices/rest/POLocator/findLocations", "@spider": "usps_collection_boxes", "addr:city": "MOBILE", "addr:country": "US", "addr:postcode": "36608", "addr:state": "AL", "addr:street_address": "4307 OLD SHELL RD", "amenity": "post_box", "collection_times": "Mo-Fr 16:30; Sa 14:45", "note": "ON 12/24 AND 12/31, THIS BOX MAY BE COLLECTED AS EARLY AS 12 NOON.", "nsi_id": "unitedstatespostalservice-a77078", "operator": "United States Postal Service", "operator:short": "USPS", "operator:type": "public", "operator:wikidata": "Q668687", "ref": "3660800043"}, "type": "Feature"}
{"geometry": {"coordinates": [-88.1991641, 30.688675], "type": "Point"}, "id": "nP3WXRe00l97o9-BE7JQY8-__cs=", "properties": {"@source_uri": "https://tools.usps.com/UspsToolsRestServices/rest/POLocator/findLocations", "@spider": "usps_collection_boxes", "addr:city": "MOBILE", "addr:country": "US", "addr:postcode": "36608", "addr:state": "AL", "addr:street_address": "101 FOREMAN RD", "amenity": "post_box", "collection_times": "Mo-Sa 11:00", "nsi_id": "unitedstatespostalservice-a77078", "operator": "United States Postal Service", "operator:short": "USPS", "operator:type": "public", "operator:wikidata": "Q668687", "ref": "3660800046"}, "type": "Feature"}
{"geometry": {"coordinates": [-88.1311347, 30.684919], "type": "Point"}, "id": "vVx6Bj8fb33Dr-IRu1ECflSUBY4=", "properties": {"@source_uri": "https://tools.usps.com/UspsToolsRestServices/rest/POLocator/findLocations", "@spider": "usps_collection_boxes", "addr:city": "MOBILE", "addr:country": "US", "addr:postcode": "36608", "addr:state": "AL", "addr:street_address": "3719 DAUPHIN ST", "amenity": "post_box", "collection_times": "Mo-Fr 17:00; Sa 14:45", "note": "ON 12/24 AND 12/31, THIS BOX MAY BE COLLECTED AS EARLY AS 12 NOON.", "nsi_id": "unitedstatespostalservice-a77078", "operator": "United States Postal Service", "operator:short": "USPS", "operator:type": "public", "operator:wikidata": "Q668687", "ref": "3660800061"}, "type": "Feature"}
{"geometry": {"coordinates": [-88.1290143, 30.688563], "type": "Point"}, "id": "yrWjSyaILP-HZ2nPktY9V5O6kO8=", "properties": {"@source_uri": "https://tools.usps.com/UspsToolsRestServices/rest/POLocator/findLocations", "@spider": "usps_collection_boxes", "addr:city": "MOBILE", "addr:country": "US", "addr:postcode": "36608", "addr:state": "AL", "addr:street_address": "3632 DAUPHIN ST", "amenity": "post_box", "collection_times": "Mo-Fr 17:00; Sa 13:45", "note": "ON 12/24 AND 12/31, THIS BOX MAY BE COLLECTED AS EARLY AS 12 NOON.", "nsi_id": "unitedstatespostalservice-a77078", "operator": "United States Postal Service", "operator:short": "USPS", "operator:type": "public", "operator:wikidata": "Q668687", "ref": "3660800069"}, "type": "Feature"}
{"geometry": {"coordinates": [-88.1919285, 30.687202], "type": "Point"}, "id": "UEtPi-x7rD1relwwqmQf_akWTmM=", "properties": {"@source_uri": "https://tools.usps.com/UspsToolsRestServices/rest/POLocator/findLocations", "@spider": "usps_collection_boxes", "addr:city": "MOBILE", "addr:country": "US", "addr:postcode": "36608", "addr:state": "AL", "addr:street_address": "6438 CEDAR BEND CT", "amenity": "post_box", "collection_times": "Mo-Sa 10:00", "nsi_id": "unitedstatespostalservice-a77078", "operator": "United States Postal Service", "operator:short": "USPS", "operator:type": "public", "operator:wikidata": "Q668687", "ref": "3660800070"}, "type": "Feature"}
{"geometry": {"coordinates": [-88.2438978, 30.680954], "type": "Point"}, "id": "Nmg8raRCvlRrEQ-ck-pksB5FvoI=", "properties": {"@source_uri": "https://tools.usps.com/UspsToolsRestServices/rest/POLocator/findLocations", "@spider": "usps_collection_boxes", "addr:city": "MOBILE", "addr:country": "US", "addr:postcode": "36608", "addr:state": "AL", "addr:street_address": "8400 AIRPORT BLVD", "amenity": "post_box", "collection_times": "Mo-Fr 10:30; Sa 09:30", "nsi_id": "unitedstatespostalservice-a77078", "operator": "United States Postal Service", "operator:short": "USPS", "operator:type": "public", "operator:wikidata": "Q668687", "ref": "3660800074"}, "type": "Feature"}
{"geometry": {"coordinates": [-88.2777159, 30.672092], "type": "Point"}, "id": "YqexVhZHpYLvSi20CFk_9nCSUdo=", "properties": {"@source_uri": "https://tools.usps.com/UspsToolsRestServices/rest/POLocator/findLocations", "@spider": "usps_collection_boxes", "addr:city": "MOBILE", "addr:country": "US", "addr:postcode": "36608", "addr:state": "AL", "addr:street_address": "9948 AIRPORT BLVD", "amenity": "post_box", "collection_times": "Mo-Sa 12:00", "nsi_id": "unitedstatespostalservice-a77078", "operator": "United States Postal Service", "operator:short": "USPS", "operator:type": "public", "operator:wikidata": "Q668687", "ref": "3660800080"}, "type": "Feature"}
{"geometry": {"coordinates": [-88.1272858, 30.690717], "type": "Point"}, "id": "zOqK70mpIpgrz3SzQ9i0qzHmfS8=", "properties": {"@source_uri": "https://tools.usps.com/UspsToolsRestServices/rest/POLocator/findLocations", "@spider": "usps_collection_boxes", "addr:city": "MOBILE", "addr:country": "US", "addr:postcode": "36608", "addr:state": "AL", "addr:street_address": "41 W I65 SERVICE RD N", "amenity": "post_box", "collection_times": "Mo-Fr 17:00; Sa 15:00", "note": "ON 12/24 AND 12/31, THIS BOX MAY BE COLLECTED AS EARLY AS 12 NOON.", "nsi_id": "unitedstatespostalservice-a77078", "operator": "United States Postal Service", "operator:short": "USPS", "operator:type": "public", "operator:wikidata": "Q668687", "ref": "3660800082"}, "type": "Feature"}
{"geometry": {"coordinates": [-88.239282387, 30.678032701], "type": "Point"}, "id": "76bqoLExMofxEzEAC70gzDvWPnw=", "properties": {"@source_uri": "https://tools.usps.com/UspsToolsRestServices/rest/POLocator/findLocations", "@spider": "usps_collection_boxes", "addr:city": "MOBILE", "addr:country": "US", "addr:postcode": "36608", "addr:state": "AL", "addr:street_address": "8400 AIRPORT BLVD", "amenity": "post_box", "collection_times": "Mo-Fr 16:30; Sa 12:00", "indoor": "yes", "note": "ON 12/24 AND 12/31, THIS BOX MAY BE COLLECTED AS EARLY AS 12 NOON.", "nsi_id": "unitedstatespostalservice-a77078", "operator": "United States Postal Service", "operator:short": "USPS", "operator:type": "public", "operator:wikidata": "Q668687", "ref": "3660800095"}, "type": "Feature"}
{"geometry": {"coordinates": [-88.170991646, 30.689496612], "type": "Point"}, "id": "rdPUn2r01xIra84ARgIGkI9SYGo=", "properties": {"@source_uri": "https://tools.usps.com/UspsToolsRestServices/rest/POLocator/findLocations", "@spider": "usps_collection_boxes", "addr:city": "MOBILE", "addr:country": "US", "addr:postcode": "36608", "addr:state": "AL", "addr:street_address": "5551 OLD SHELL RD", "amenity": "post_box", "collection_times": "Mo-Fr 16:30; Sa 12:00", "indoor": "yes", "note": "ON 12/24 AND 12/31, THIS BOX MAY BE COLLECTED AS EARLY AS 12 NOON.", "nsi_id": "unitedstatespostalservice-a77078", "operator": "United States Postal Service", "operator:short": "USPS", "operator:type": "public", "operator:wikidata": "Q668687", "ref": "3660800096"}, "type": "Feature"}
{"geometry": {"coordinates": [-88.183704824, 30.675909497], "type": "Point"}, "id": "Vo5fl2BBwsc6QJgM3RVjPif-EVk=", "properties": {"@source_uri": "https://tools.usps.com/UspsToolsRestServices/rest/POLocator/findLocations", "@spider": "usps_collection_boxes", "addr:city": "MOBILE", "addr:country": "US", "addr:postcode": "36608", "addr:state": "AL", "addr:street_address": "6157 AIRPORT BLVD STE 310", "amenity": "post_box", "collection_times": "Mo-Fr 16:30", "indoor": "yes", "note": "ON 12/24 AND 12/31, THIS BOX MAY BE COLLECTED AS EARLY AS 12 NOON.", "nsi_id": "unitedstatespostalservice-a77078", "operator": "United States Postal Service", "operator:short": "USPS", "operator:type": "public", "operator:wikidata": "Q668687", "ref": "3660800097"}, "type": "Feature"}
{"geometry": {"coordinates": [-88.156351, 30.6522], "type": "Point"}, "id": "T2y9KT8qnnMr_63lgRlPIIzPBAc=", "properties": {"@source_uri": "https://tools.usps.com/UspsToolsRestServices/rest/POLocator/findLocations", "@spider": "usps_collection_boxes", "addr:city": "MOBILE", "addr:country": "US", "addr:postcode": "36609", "addr:state": "AL", "addr:street_address": "705 OAK CIRCLE DR", "amenity": "post_box", "collection_times": "Mo-Fr 16:00; Sa 12:00", "indoor": "yes", "note": "ON 12/24 AND 12/31, THIS BOX MAY BE COLLECTED AS EARLY AS 12 NOON.", "nsi_id": "unitedstatespostalservice-a77078", "operator": "United States Postal Service", "operator:short": "USPS", "operator:type": "public", "operator:wikidata": "Q668687", "ref": "3660900004"}, "type": "Feature"}
{"geometry": {"coordinates": [-88.1469549, 30.673869], "type": "Point"}, "id": "yIJS3gYU3DsZCx5G4YGsp2FshW0=", "properties": {"@source_uri": "https://tools.usps.com/UspsToolsRestServices/rest/POLocator/findLocations", "@spider": "usps_collection_boxes", "addr:city": "MOBILE", "addr:country": "US", "addr:postcode": "36609", "addr:state": "AL", "addr:street_address": "273 AZALEA RD", "amenity": "post_box", "collection_times": "Mo-Fr 13:00; Sa 10:00", "note": "ON 12/24 AND 12/31, THIS BOX MAY BE COLLECTED AS EARLY AS 12 NOON.", "nsi_id": "unitedstatespostalservice-a77078", "operator": "United States Postal Service", "operator:short": "USPS", "operator:type": "public", "operator:wikidata": "Q668687", "ref": "3660900013"}, "type": "Feature"}
{"geometry": {"coordinates": [-88.1586756, 30.6565823], "type": "Point"}, "id": "ssfZNY9z1CqbA_vHhqpeM0BtsbU=", "properties": {"@source_uri": "https://tools.usps.com/UspsToolsRestServices/rest/POLocator/findLocations", "@spider": "usps_collection_boxes", "addr:city": "MOBILE", "addr:country": "US", "addr:postcode": "36609", "addr:state": "AL", "addr:street_address": "578 AZALEA RD", "amenity": "post_box", "collection_times": "Mo-Fr 15:00; Sa 10:00", "note": "ON 12/24 AND 12/31, THIS BOX MAY BE COLLECTED AS EARLY AS 12 NOON.", "nsi_id": "unitedstatespostalservice-a77078", "operator": "United States Postal Service", "operator:short": "USPS", "operator:type": "public", "operator:wikidata": "Q668687", "ref": "3660900021"}, "type": "Feature"}
{"geometry": {"coordinates": [-88.14077699, 30.6724069876], "type": "Point"}, "id": "2-AcDsiUqP2CkkG4Rj_Q2B6dTwY=", "properties": {"@source_uri": "https://tools.usps.com/UspsToolsRestServices/rest/POLocator/findLocations", "@spider": "usps_collection_boxes", "addr:city": "MOBILE", "addr:country": "US", "addr:postcode": "36609", "addr:state": "AL", "addr:street_address": "800 DOWNTOWNER BLVD", "amenity": "post_box", "collection_times": "Mo-Fr 13:45; Sa 10:00", "note": "ON 12/24 AND 12/31, THIS BOX MAY BE COLLECTED AS EARLY AS 12 NOON.", "nsi_id": "unitedstatespostalservice-a77078", "operator": "United States Postal Service", "operator:short": "USPS", "operator:type": "public", "operator:wikidata": "Q668687", "ref": "3660900041"}, "type": "Feature"}
{"geometry": {"coordinates": [-88.1331153, 30.67], "type": "Point"}, "id": "op_zkFXehAkG0oNJlthKpSfPVbU=", "properties": {"@source_uri": "https://tools.usps.com/UspsToolsRestServices/rest/POLocator/findLocations", "@spider": "usps_collection_boxes", "addr:city": "MOBILE", "addr:country": "US", "addr:postcode": "36609", "addr:state": "AL", "addr:street_address": "1015 MONTLIMAR DR", "amenity": "post_box", "collection_times": "Mo-Fr 17:00; Sa 10:00", "note": "ON 12/24 AND 12/31, THIS BOX MAY BE COLLECTED AS EARLY AS 12 NOON.", "nsi_id": "unitedstatespostalservice-a77078", "operator": "United States Postal Service", "operator:short": "USPS", "operator:type": "public", "operator:wikidata": "Q668687", "ref": "3660900050"}, "type": "Feature"}
{"geometry": {"coordinates": [-88.1348187, 30.667325], "type": "Point"}, "id": "-y4DiNO6Gi45BAVI5IcRjBgPaBY=", "properties": {"@source_uri": "https://tools.usps.com/UspsToolsRestServices/rest/POLocator/findLocations", "@spider": "usps_collection_boxes", "addr:city": "MOBILE", "addr:country": "US", "addr:postcode": "36609", "addr:state": "AL", "addr:street_address": "1110 MONTLIMAR DR", "amenity": "post_box", "collection_times": "Mo-Fr 17:00; Sa 10:00", "note": "ON 12/24 AND 12/31, THIS BOX MAY BE COLLECTED AS EARLY AS 12 NOON.", "nsi_id": "unitedstatespostalservice-a77078", "operator": "United States Postal Service", "operator:short": "USPS", "operator:type": "public", "operator:wikidata": "Q668687", "ref": "3660900052"}, "type": "Feature"}
{"geometry": {"coordinates": [-88.1648006, 30.662679], "type": "Point"}, "id": "Z_DrV4kuklCAH1pQLGT7BQhbvZc=", "properties": {"@source_uri": "https://tools.usps.com/UspsToolsRestServices/rest/POLocator/findLocations", "@spider": "usps_collection_boxes", "addr:city": "MOBILE", "addr:country": "US", "addr:postcode": "36609", "addr:state": "AL", "addr:street_address": "820 S UNIVERSITY BLVD", "amenity": "post_box", "collection_times": "Mo-Fr 16:15; Sa 11:00", "note": "ON 12/24 AND 12/31, THIS BOX MAY BE COLLECTED AS EARLY AS 12 NOON.", "nsi_id": "unitedstatespostalservice-a77078", "operator": "United States Postal Service", "operator:short": "USPS", "operator:type": "public", "operator:wikidata": "Q668687", "ref": "3660900056"}, "type": "Feature"}
{"geometry": {"coordinates": [-88.1305109, 30.673681], "type": "Point"}, "id": "e3J2AU6aH-rEiIBQPljPhNr3RZI=", "properties": {"@source_uri": "https://tools.usps.com/UspsToolsRestServices/rest/POLocator/findLocations", "@spider": "usps_collection_boxes", "addr:city": "MOBILE", "addr:country": "US", "addr:postcode": "36609", "addr:state": "AL", "addr:street_address": "900 WESTERN AMERICA CIR", "amenity": "post_box", "collection_times": "Mo-Fr 13:00; Sa 10:00", "note": "ON 12/24 AND 12/31, THIS BOX MAY BE COLLECTED AS EARLY AS 12 NOON.", "nsi_id": "unitedstatespostalservice-a77078", "operator": "United States Postal Service", "operator:short": "USPS", "operator:type": "public", "operator:wikidata": "Q668687", "ref": "3660900062"}, "type": "Feature"}
{"geometry": {"coordinates": [-88.1890887, 30.63945], "type": "Point"}, "id": "0Kjey5SWS5SrTnc_aK2REA4_MIg=", "properties": {"@source_uri": "https://tools.usps.com/UspsToolsRestServices/rest/POLocator/findLocations", "@spider": "usps_collection_boxes", "addr:city": "MOBILE", "addr:country": "US", "addr:postcode": "36609", "addr:state": "AL", "addr:street_address": "6353 COTTAGE HILL RD", "amenity": "post_box", "collection_times": "Mo-Fr 13:00; Sa 10:00", "note": "ON 12/24 AND 12/31, THIS BOX MAY BE COLLECTED AS EARLY AS 12 NOON.", "nsi_id": "unitedstatespostalservice-a77078", "operator": "United States Postal Service", "operator:short": "USPS", "operator:type": "public", "operator:wikidata": "Q668687", "ref": "3660900068"}, "type": "Feature"}
{"geometry": {"coordinates": [-88.156403, 30.651191], "type": "Point"}, "id": "mDgIG7QNVvZbhKg3sj7VwOT4xzg=", "properties": {"@source_uri": "https://tools.usps.com/UspsToolsRestServices/rest/POLocator/findLocations", "@spider": "usps_collection_boxes", "addr:city": "MOBILE", "addr:country": "US", "addr:postcode": "36609", "addr:state": "AL", "addr:street_address": "705 OAK CIRCLE DR W", "amenity": "post_box", "collection_times": "Mo-Fr 16:00; Sa 12:00", "indoor": "yes", "note": "ON 12/24 AND 12/31, THIS BOX MAY BE COLLECTED AS EARLY AS 12 NOON.", "nsi_id": "unitedstatespostalservice-a77078", "operator": "United States Postal Service", "operator:short": "USPS", "operator:type": "public", "operator:wikidata": "Q668687", "ref": "3660900080"}, "type": "Feature"}
{"geometry": {"coordinates": [-88.1322756, 30.667147], "type": "Point"}, "id": "SjCzSxtA7vHGQwNLwWcZm5cGkiA=", "properties": {"@source_uri": "https://tools.usps.com/UspsToolsRestServices/rest/POLocator/findLocations", "@spider": "usps_collection_boxes", "addr:city": "MOBILE", "addr:country": "US", "addr:postcode": "36609", "addr:state": "AL", "addr:street_address": "1141 MONTLIMAR DR", "amenity": "post_box", "collection_times": "Mo-Fr 17:00; Sa 10:00", "note": "ON 12/24 AND 12/31, THIS BOX MAY BE COLLECTED AS EARLY AS 12 NOON.", "nsi_id": "unitedstatespostalservice-a77078", "operator": "United States Postal Service", "operator:short": "USPS", "operator:type": "public", "operator:wikidata": "Q668687", "ref": "3660900082"}, "type": "Feature"}
{"geometry": {"coordinates": [-88.156328931, 30.652189492], "type": "Point"}, "id": "giFH3lIogYt-Ceij3VhJoCjBrkE=", "properties": {"@source_uri": "https://tools.usps.com/UspsToolsRestServices/rest/POLocator/findLocations", "@spider": "usps_collection_boxes", "addr:city": "MOBILE", "addr:country": "US", "addr:postcode": "36609", "addr:state": "AL", "addr:street_address": "705 OAK CIRCLE DR W", "amenity": "post_box", "collection_times": "Mo-Fr 16:30; Sa 12:00", "indoor": "yes", "note": "ON 12/24 AND 12/31, THIS BOX MAY BE COLLECTED AS EARLY AS 12 NOON.", "nsi_id": "unitedstatespostalservice-a77078", "operator": "United States Postal Service", "operator:short": "USPS", "operator:type": "public", "operator:wikidata": "Q668687", "ref": "3660900091"}, "type": "Feature"}
{"geometry": {"coordinates": [-88.1545659751, 30.6523599898], "type": "Point"}, "id": "PXB54gJ9WVmSHuBWJl5W93_39Ss=", "properties": {"@source_uri": "https://tools.usps.com/UspsToolsRestServices/rest/POLocator/findLocations", "@spider": "usps_collection_boxes", "addr:city": "MOBILE", "addr:country": "US", "addr:postcode": "36609", "addr:state": "AL", "addr:street_address": "705 OAK CIRCLE DRIVE", "amenity": "post_box", "collection_times": "Mo-Fr 16:00; Sa 12:00", "name": "USPS COLLECTION BOX - APC", "note": "ON 12/24 AND 12/31, THIS BOX MAY BE COLLECTED AS EARLY AS 12 NOON.", "nsi_id": "unitedstatespostalservice-a77078", "operator": "United States Postal Service", "operator:short": "USPS", "operator:type": "public", "operator:wikidata": "Q668687", "ref": "3660900093"}, "type": "Feature"}
{"geometry": {"coordinates": [-88.08217, 30.73047], "type": "Point"}, "id": "nDZf5zVqqqs_t9pJ6hBnclqjseI=", "properties": {"@source_uri": "https://tools.usps.com/UspsToolsRestServices/rest/POLocator/findLocations", "@spider": "usps_collection_boxes", "addr:city": "MOBILE", "addr:country": "US", "addr:postcode": "36610", "addr:state": "AL", "addr:street_address": "130 E PRICHARD AVE", "amenity": "post_box", "collection_times": "Mo-Fr 16:30; Sa 12:00", "indoor": "yes", "note": "ON 12/24 AND 12/31, THIS BOX MAY BE COLLECTED AS EARLY AS 12 NOON.", "nsi_id": "unitedstatespostalservice-a77078", "operator": "United States Postal Service", "operator:short": "USPS", "operator:type": "public", "operator:wikidata": "Q668687", "ref": "3661000001"}, "type": "Feature"}
{"geometry": {"coordinates": [-88.0814262, 30.730351], "type": "Point"}, "id": "Evk7xG6PMmxPsAvhPGb8yq8UFb8=", "properties": {"@source_uri": "https://tools.usps.com/UspsToolsRestServices/rest/POLocator/findLocations", "@spider": "usps_collection_boxes", "addr:city": "MOBILE", "addr:country": "US", "addr:postcode": "36610", "addr:state": "AL", "addr:street_address": "130 E PRICHARD AVE", "amenity": "post_box", "collection_times": "Mo-Fr 16:30; Sa 12:00", "indoor": "yes", "note": "ON 12/24 AND 12/31, THIS BOX MAY BE COLLECTED AS EARLY AS 12 NOON.", "nsi_id": "unitedstatespostalservice-a77078", "operator": "United States Postal Service", "operator:short": "USPS", "operator:type": "public", "operator:wikidata": "Q668687", "ref": "3661000022"}, "type": "Feature"}
{"geometry": {"coordinates": [-88.082161454, 30.730423583], "type": "Point"}, "id": "nJQg68gKBX_Yxi8y7pj1Cif8Mus=", "properties": {"@source_uri": "https://tools.usps.com/UspsToolsRestServices/rest/POLocator/findLocations", "@spider": "usps_collection_boxes", "addr:city": "MOBILE", "addr:country": "US", "addr:postcode": "36610", "addr:state": "AL", "addr:street_address": "130 E PRICHARD AVE", "amenity": "post_box", "collection_times": "Mo-Fr 16:30; Sa 12:00", "indoor": "yes", "note": "ON 12/24 AND 12/31, THIS BOX MAY BE COLLECTED AS EARLY AS 12 NOON.", "nsi_id": "unitedstatespostalservice-a77078", "operator": "United States Postal Service", "operator:short": "USPS", "operator:type": "public", "operator:wikidata": "Q668687", "ref": "3661000025"}, "type": "Feature"}
{"geometry": {"coordinates": [-88.0783349, 30.770755], "type": "Point"}, "id": "lJs2JWoOw06rholWDzujFYaolL4=", "properties": {"@source_uri": "https://tools.usps.com/UspsToolsRestServices/rest/POLocator/findLocations", "@spider": "usps_collection_boxes", "addr:city": "MOBILE", "addr:country": "US", "addr:postcode": "36611", "addr:state": "AL", "addr:street_address": "411 PARKER LN", "amenity": "post_box", "collection_times": "Mo-Fr 16:30; Sa 10:00", "note": "ON 12/24 AND 12/31, THIS BOX MAY BE COLLECTED AS EARLY AS 12 NOON.", "nsi_id": "unitedstatespostalservice-a77078", "operator": "United States Postal Service", "operator:short": "USPS", "operator:type": "public", "operator:wikidata": "Q668687", "ref": "3661100003"}, "type": "Feature"}
{"geometry": {"coordinates": [-88.077774, 30.77052], "type": "Point"}, "id": "4LslwU7DCFtlIN0yHkZNKH_FB6c=", "properties": {"@source_uri": "https://tools.usps.com/UspsToolsRestServices/rest/POLocator/findLocations", "@spider": "usps_collection_boxes", "addr:city": "MOBILE", "addr:country": "US", "addr:postcode": "36611", "addr:state": "AL", "addr:street_address": "411 PARKER LN", "amenity": "post_box", "collection_times": "Mo-Fr 16:30", "indoor": "yes", "note": "ON 12/24 AND 12/31, THIS BOX MAY BE COLLECTED AS EARLY AS 12 NOON.", "nsi_id": "unitedstatespostalservice-a77078", "operator": "United States Postal Service", "operator:short": "USPS", "operator:type": "public", "operator:wikidata": "Q668687", "ref": "3661100013"}, "type": "Feature"}
{"geometry": {"coordinates": [-88.077867325, 30.770321077], "type": "Point"}, "id": "zHSIhynIJHc6skPxgsU_XVWpeNA=", "properties": {"@source_uri": "https://tools.usps.com/UspsToolsRestServices/rest/POLocator/findLocations", "@spider": "usps_collection_boxes", "addr:city": "MOBILE", "addr:country": "US", "addr:postcode": "36611", "addr:state": "AL", "addr:street_address": "411 PARKER LN", "amenity": "post_box", "collection_times": "Mo-Fr 16:30", "indoor": "yes", "note": "ON 12/24 AND 12/31, THIS BOX MAY BE COLLECTED AS EARLY AS 12 NOON.", "nsi_id": "unitedstatespostalservice-a77078", "operator": "United States Postal Service", "operator:short": "USPS", "operator:type": "public", "operator:wikidata": "Q668687", "ref": "3661100015"}, "type": "Feature"}
{"geometry": {"coordinates": [-88.1210943, 30.746334], "type": "Point"}, "id": "8JdqT6Vo2Tk16KApDb1WkBl_9pE=", "properties": {"@source_uri": "https://tools.usps.com/UspsToolsRestServices/rest/POLocator/findLocations", "@spider": "usps_collection_boxes", "addr:city": "WHISTLER", "addr:country": "US", "addr:postcode": "36612", "addr:state": "AL", "addr:street_address": "2104 WOLF RIDGE RD", "amenity": "post_box", "collection_times": "Mo-Sa 12:00", "nsi_id": "unitedstatespostalservice-a77078", "operator": "United States Postal Service", "operator:short": "USPS", "operator:type": "public", "operator:wikidata": "Q668687", "ref": "3661200003"}, "type": "Feature"}
{"geometry": {"coordinates": [-88.1285738, 30.76399], "type": "Point"}, "id": "dpoaqj0WdvHjRKOZyjAzWZjTeWg=", "properties": {"@source_uri": "https://tools.usps.com/UspsToolsRestServices/rest/POLocator/findLocations", "@spider": "usps_collection_boxes", "addr:city": "MOBILE", "addr:country": "US", "addr:postcode": "36613", "addr:state": "AL", "addr:street_address": "4545 SAINT STEPHENS RD", "amenity": "post_box", "collection_times": "Mo-Fr 10:30; Sa 10:00", "nsi_id": "unitedstatespostalservice-a77078", "operator": "United States Postal Service", "operator:short": "USPS", "operator:type": "public", "operator:wikidata": "Q668687", "ref": "3661300001"}, "type": "Feature"}
{"geometry": {"coordinates": [-88.0977877, 30.706229], "type": "Point"}, "id": "5zqDJlfccR9JH0_goTLEU4-liu8=", "properties": {"@source_uri": "https://tools.usps.com/UspsToolsRestServices/rest/POLocator/findLocations", "@spider": "usps_collection_boxes", "addr:city": "MOBILE", "addr:country": "US", "addr:postcode": "36617", "addr:state": "AL", "addr:street_address": "2451 USA MEDICAL CENTER DR", "amenity": "post_box", "collection_times": "Mo-Sa 10:30", "nsi_id": "unitedstatespostalservice-a77078", "operator": "United States Postal Service", "operator:short": "USPS", "operator:type": "public", "operator:wikidata": "Q668687", "ref": "3661700017"}, "type": "Feature"}
{"geometry": {"coordinates": [-88.0956441, 30.704872], "type": "Point"}, "id": "VG1UVzO7kQZcrJUjzoZvtgONdd4=", "properties": {"@source_uri": "https://tools.usps.com/UspsToolsRestServices/rest/POLocator/findLocations", "@spider": "usps_collection_boxes", "addr:city": "MOBILE", "addr:country": "US", "addr:postcode": "36617", "addr:state": "AL", "addr:street_address": "2400 GORDON SMITH DR", "amenity": "post_box", "collection_times": "Mo-Sa 10:30", "nsi_id": "unitedstatespostalservice-a77078", "operator": "United States Postal Service", "operator:short": "USPS", "operator:type": "public", "operator:wikidata": "Q668687", "ref": "3661700018"}, "type": "Feature"}
{"geometry": {"coordinates": [-88.0811026, 30.71214], "type": "Point"}, "id": "YXcbu7y2DuaQbMAgK3iKK9jSz1I=", "properties": {"@source_uri": "https://tools.usps.com/UspsToolsRestServices/rest/POLocator/findLocations", "@spider": "usps_collection_boxes", "addr:city": "MOBILE", "addr:country": "US", "addr:postcode": "36617", "addr:state": "AL", "addr:street_address": "2102 SAINT STEPHENS RD", "amenity": "post_box", "collection_times": "Mo-Sa 09:30", "nsi_id": "unitedstatespostalservice-a77078", "operator": "United States Postal Service", "operator:short": "USPS", "operator:type": "public", "operator:wikidata": "Q668687", "ref": "3661700020"}, "type": "Feature"}
{"geometry": {"coordinates": [-88.173067, 30.727913], "type": "Point"}, "id": "TMT_1I7CXGHs9pszkT9hpzklzME=", "properties": {"@source_uri": "https://tools.usps.com/UspsToolsRestServices/rest/POLocator/findLocations", "@spider": "usps_collection_boxes", "addr:city": "MOBILE", "addr:country": "US", "addr:postcode": "36618", "addr:state": "AL", "addr:street_address": "5701M MOFFETT RD", "amenity": "post_box", "collection_times": "Mo-Fr 16:30; Sa 12:30", "indoor": "yes", "note": "ON 12/24 AND 12/31, THIS BOX MAY BE COLLECTED AS EARLY AS 12 NOON.", "nsi_id": "unitedstatespostalservice-a77078", "operator": "United States Postal Service", "operator:short": "USPS", "operator:type": "public", "operator:wikidata": "Q668687", "ref": "3661800015"}, "type": "Feature"}
{"geometry": {"coordinates": [-88.1729942, 30.72801], "type": "Point"}, "id": "LKbQIcUGkKTA9PEiifo9UUzQx5A=", "properties": {"@source_uri": "https://tools.usps.com/UspsToolsRestServices/rest/POLocator/findLocations", "@spider": "usps_collection_boxes", "addr:city": "MOBILE", "addr:country": "US", "addr:postcode": "36618", "addr:state": "AL", "addr:street_address": "5701M MOFFETT RD", "amenity": "post_box", "collection_times": "Mo-Fr 16:30; Sa 12:30", "indoor": "yes", "note": "ON 12/24 AND 12/31, THIS BOX MAY BE COLLECTED AS EARLY AS 12 NOON.", "nsi_id": "unitedstatespostalservice-a77078", "operator": "United States Postal Service", "operator:short": "USPS", "operator:type": "public", "operator:wikidata": "Q668687", "ref": "3661800018"}, "type": "Feature"}
{"geometry": {"coordinates": [-88.1722509, 30.728517], "type": "Point"}, "id": "hA8z0C4Fu1immRBxrllc_YGEDM8=", "properties": {"@source_uri": "https://tools.usps.com/UspsToolsRestServices/rest/POLocator/findLocations", "@spider": "usps_collection_boxes", "addr:city": "MOBILE", "addr:country": "US", "addr:postcode": "36618", "addr:state": "AL", "addr:street_address": "5701M MOFFETT RD", "amenity": "post_box", "collection_times": "Mo-Fr 16:30; Sa 12:30", "note": "ON 12/24 AND 12/31, THIS BOX MAY BE COLLECTED AS EARLY AS 12 NOON.", "nsi_id": "unitedstatespostalservice-a77078", "operator": "United States Postal Service", "operator:short": "USPS", "operator:type": "public", "operator:wikidata": "Q668687", "ref": "3661800020"}, "type": "Feature"}
{"geometry": {"coordinates": [-88.172886237, 30.729548852], "type": "Point"}, "id": "O2qJguc2i7TK19L3aLyE33piv8A=", "properties": {"@source_uri": "https://tools.usps.com/UspsToolsRestServices/rest/POLocator/findLocations", "@spider": "usps_collection_boxes", "addr:city": "MOBILE", "addr:country": "US", "addr:postcode": "36618", "addr:state": "AL", "addr:street_address": "5701M MOFFETT RD", "amenity": "post_box", "collection_times": "Mo-Fr 16:30; Sa 12:00", "indoor": "yes", "note": "ON 12/24 AND 12/31, THIS BOX MAY BE COLLECTED AS EARLY AS 12 NOON.", "nsi_id": "unitedstatespostalservice-a77078", "operator": "United States Postal Service", "operator:short": "USPS", "operator:type": "public", "operator:wikidata": "Q668687", "ref": "3661800024"}, "type": "Feature"}
{"geometry": {"coordinates": [-88.16959, 30.587357], "type": "Point"}, "id": "TKdq9DNRGUOw3WtS0zUBzotSQKM=", "properties": {"@source_uri": "https://tools.usps.com/UspsToolsRestServices/rest/POLocator/findLocations", "@spider": "usps_collection_boxes", "addr:city": "MOBILE", "addr:country": "US", "addr:postcode": "36619", "addr:state": "AL", "addr:street_address": "5441 HIGHWAY 90 W", "amenity": "post_box", "collection_times": "Mo-Fr 16:30; Sa 12:00", "note": "ON 12/24 AND 12/31, THIS BOX MAY BE COLLECTED AS EARLY AS 12 NOON.", "nsi_id": "unitedstatespostalservice-a77078", "operator": "United States Postal Service", "operator:short": "USPS", "operator:type": "public", "operator:wikidata": "Q668687", "ref": "3661900006"}, "type": "Feature"}
{"geometry": {"coordinates": [-88.16959, 30.587357], "type": "Point"}, "id": "PT5JKPxS30Ypd1Xa0ovILKAg_OI=", "properties": {"@source_uri": "https://tools.usps.com/UspsToolsRestServices/rest/POLocator/findLocations", "@spider": "usps_collection_boxes", "addr:city": "MOBILE", "addr:country": "US", "addr:postcode": "36619", "addr:state": "AL", "addr:street_address": "5441 HIGHWAY 90 W", "amenity": "post_box", "collection_times": "Mo-Fr 16:30; Sa 12:00", "indoor": "yes", "note": "ON 12/24 AND 12/31, THIS BOX MAY BE COLLECTED AS EARLY AS 12 NOON.", "nsi_id": "unitedstatespostalservice-a77078", "operator": "United States Postal Service", "operator:short": "USPS", "operator:type": "public", "operator:wikidata": "Q668687", "ref": "3661900027"}, "type": "Feature"}
{"geometry": {"coordinates": [-88.16959, 30.587357], "type": "Point"}, "id": "87TiX-osKs8qsSPjuIY9A_xx7vU=", "properties": {"@source_uri": "https://tools.usps.com/UspsToolsRestServices/rest/POLocator/findLocations", "@spider": "usps_collection_boxes", "addr:city": "MOBILE", "addr:country": "US", "addr:postcode": "36619", "addr:state": "AL", "addr:street_address": "5441 HIGHWAY 90 W", "amenity": "post_box", "collection_times": "Mo-Fr 16:30; Sa 12:00", "indoor": "yes", "note": "ON 12/24 AND 12/31, THIS BOX MAY BE COLLECTED AS EARLY AS 12 NOON.", "nsi_id": "unitedstatespostalservice-a77078", "operator": "United States Postal Service", "operator:short": "USPS", "operator:type": "public", "operator:wikidata": "Q668687", "ref": "3661900029"}, "type": "Feature"}
{"geometry": {"coordinates": [-88.1427822, 30.59277], "type": "Point"}, "id": "60XsBgPzGgrM0NKx8jYTKL40cBo=", "properties": {"@source_uri": "https://tools.usps.com/UspsToolsRestServices/rest/POLocator/findLocations", "@spider": "usps_collection_boxes", "addr:city": "MOBILE", "addr:country": "US", "addr:postcode": "36619", "addr:state": "AL", "addr:street_address": "4426 HIGGINS RD", "amenity": "post_box", "collection_times": "Mo-Sa 11:00", "nsi_id": "unitedstatespostalservice-a77078", "operator": "United States Postal Service", "operator:short": "USPS", "operator:type": "public", "operator:wikidata": "Q668687", "ref": "3661900038"}, "type": "Feature"}
{"geometry": {"coordinates": [-88.169588287, 30.587356563], "type": "Point"}, "id": "mSyp-Gt43Vxn3hDphZ5fzv3z6cc=", "properties": {"@source_uri": "https://tools.usps.com/UspsToolsRestServices/rest/POLocator/findLocations", "@spider": "usps_collection_boxes", "addr:city": "MOBILE", "addr:country": "US", "addr:postcode": "36619", "addr:state": "AL", "addr:street_address": "5441 HIGHWAY 90 W STE 13", "amenity": "post_box", "collection_times": "Mo-Fr 16:30; Sa 12:00", "indoor": "yes", "note": "ON 12/24 AND 12/31, THIS BOX MAY BE COLLECTED AS EARLY AS 12 NOON.", "nsi_id": "unitedstatespostalservice-a77078", "operator": "United States Postal Service", "operator:short": "USPS", "operator:type": "public", "operator:wikidata": "Q668687", "ref": "3661900040"}, "type": "Feature"}
{"geometry": {"coordinates": [-88.183483, 30.675917], "type": "Point"}, "id": "Quf_C8ZK4Jqri7fTRZi2xtE4hPU=", "properties": {"@source_uri": "https://tools.usps.com/UspsToolsRestServices/rest/POLocator/findLocations", "@spider": "usps_collection_boxes", "addr:city": "MOBILE", "addr:country": "US", "addr:postcode": "36685", "addr:state": "AL", "addr:street_address": "6157 AIRPORT BLVD", "amenity": "post_box", "collection_times": "Mo-Fr 16:30", "indoor": "yes", "note": "ON 12/24 AND 12/31, THIS BOX MAY BE COLLECTED AS EARLY AS 12 NOON.", "nsi_id": "unitedstatespostalservice-a77078", "operator": "United States Postal Service", "operator:short": "USPS", "operator:type": "public", "operator:wikidata": "Q668687", "ref": "3668500003"}, "type": "Feature"}
{"geometry": {"coordinates": [-88.183483, 30.675913], "type": "Point"}, "id": "FF7CB1dDs7P3NCMzTMj92WBNcKM=", "properties": {"@source_uri": "https://tools.usps.com/UspsToolsRestServices/rest/POLocator/findLocations", "@spider": "usps_collection_boxes", "addr:city": "MOBILE", "addr:country": "US", "addr:postcode": "36685", "addr:state": "AL", "addr:street_address": "6157 AIRPORT BLVD", "amenity": "post_box", "collection_times": "Mo-Fr 16:30", "indoor": "yes", "note": "ON 12/24 AND 12/31, THIS BOX MAY BE COLLECTED AS EARLY AS 12 NOON.", "nsi_id": "unitedstatespostalservice-a77078", "operator": "United States Postal Service", "operator:short": "USPS", "operator:type": "public", "operator:wikidata": "Q668687", "ref": "3668500004"}, "type": "Feature"}
{"geometry": {"coordinates": [-88.183685341, 30.676049854], "type": "Point"}, "id": "DxxS7FLn-HaFpY0PQwvVkTCa7tQ=", "properties": {"@source_uri": "https://tools.usps.com/UspsToolsRestServices/rest/POLocator/findLocations", "@spider": "usps_collection_boxes", "addr:city": "MOBILE", "addr:country": "US", "addr:postcode": "36685", "addr:state": "AL", "addr:street_address": "6157 AIRPORT BLVD", "amenity": "post_box", "collection_times": "Mo-Fr 16:30; Sa 14:00", "note": "ON 12/24 AND 12/31, THIS BOX MAY BE COLLECTED AS EARLY AS 12 NOON.", "nsi_id": "unitedstatespostalservice-a77078", "operator": "United States Postal Service", "operator:short": "USPS", "operator:type": "public", "operator:wikidata": "Q668687", "ref": "3668500006"}, "type": "Feature"}
{"geometry": {"coordinates": [-88.1423784, 30.635209], "type": "Point"}, "id": "boI9s8DYwOF0WBYLmAsJMRBCmNI=", "properties": {"@source_uri": "https://tools.usps.com/UspsToolsRestServices/rest/POLocator/findLocations", "@spider": "usps_collection_boxes", "addr:city": "MOBILE", "addr:country": "US", "addr:postcode": "36693", "addr:state": "AL", "addr:street_address": "4011 GOVERNMENT BLVD", "amenity": "post_box", "collection_times": "Mo-Sa 10:00", "nsi_id": "unitedstatespostalservice-a77078", "operator": "United States Postal Service", "operator:short": "USPS", "operator:type": "public", "operator:wikidata": "Q668687", "ref": "3669300012"}, "type": "Feature"}
{"geometry": {"coordinates": [-88.1301193, 30.632456], "type": "Point"}, "id": "gSodWmo6P8Cx4Fg0-fY2dQRFzTg=", "properties": {"@source_uri": "https://tools.usps.com/UspsToolsRestServices/rest/POLocator/findLocations", "@spider": "usps_collection_boxes", "addr:city": "MOBILE", "addr:country": "US", "addr:postcode": "36693", "addr:state": "AL", "addr:street_address": "1764 INDUSTRIAL PARK DR", "amenity": "post_box", "collection_times": "Mo-Fr 10:30; Sa 10:00", "nsi_id": "unitedstatespostalservice-a77078", "operator": "United States Postal Service", "operator:short": "USPS", "operator:type": "public", "operator:wikidata": "Q668687", "ref": "3669300013"}, "type": "Feature"}
{"geometry": {"coordinates": [-88.1379093, 30.640215], "type": "Point"}, "id": "bLW9eFsU1MCFKsH9mzYo7SgkKwk=", "properties": {"@source_uri": "https://tools.usps.com/UspsToolsRestServices/rest/POLocator/findLocations", "@spider": "usps_collection_boxes", "addr:city": "MOBILE", "addr:country": "US", "addr:postcode": "36693", "addr:state": "AL", "addr:street_address": "3938 GOVERNMENT BLVD", "amenity": "post_box", "collection_times": "Mo-Sa 10:00", "nsi_id": "unitedstatespostalservice-a77078", "operator": "United States Postal Service", "operator:short": "USPS", "operator:type": "public", "operator:wikidata": "Q668687", "ref": "3669300016"}, "type": "Feature"}
{"geometry": {"coordinates": [-88.1277904, 30.648392], "type": "Point"}, "id": "CNVqSKpOsxFT3ZTmOZEXpHDPXXs=", "properties": {"@source_uri": "https://tools.usps.com/UspsToolsRestServices/rest/POLocator/findLocations", "@spider": "usps_collection_boxes", "addr:city": "MOBILE", "addr:country": "US", "addr:postcode": "36693", "addr:state": "AL", "addr:street_address": "3737 GOVERNMENT BLVD", "amenity": "post_box", "collection_times": "Mo-Fr 16:30; Sa 10:00", "note": "ON 12/24 AND 12/31, THIS BOX MAY BE COLLECTED AS EARLY AS 12 NOON.", "nsi_id": "unitedstatespostalservice-a77078", "operator": "United States Postal Service", "operator:short": "USPS", "operator:type": "public", "operator:wikidata": "Q668687", "ref": "3669300017"}, "type": "Feature"}
{"geometry": {"coordinates": [-88.2412173, 30.681022], "type": "Point"}, "id": "ACIvYV1zD4MIzv-T1S0VzTMJQGI=", "properties": {"@source_uri": "https://tools.usps.com/UspsToolsRestServices/rest/POLocator/findLocations", "@spider": "usps_collection_boxes", "addr:city": "MOBILE", "addr:country": "US", "addr:postcode": "36695", "addr:state": "AL", "addr:street_address": "8400 AIRPORT BLVD", "amenity": "post_box", "collection_times": "Mo-Fr 16:30; Sa 15:00", "note": "ON 12/24 AND 12/31, THIS BOX MAY BE COLLECTED AS EARLY AS 12 NOON.", "nsi_id": "unitedstatespostalservice-a77078", "operator": "United States Postal Service", "operator:short": "USPS", "operator:type": "public", "operator:wikidata": "Q668687", "ref": "3669500014"}, "type": "Feature"}
{"geometry": {"coordinates": [-88.2412049, 30.681014], "type": "Point"}, "id": "gbPQyHgxF1Zr88pKoqHobVYvkmg=", "properties": {"@source_uri": "https://tools.usps.com/UspsToolsRestServices/rest/POLocator/findLocations", "@spider": "usps_collection_boxes", "addr:city": "MOBILE", "addr:country": "US", "addr:postcode": "36695", "addr:state": "AL", "addr:street_address": "8400 AIRPORT BLVD", "amenity": "post_box", "collection_times": "Mo-Fr 16:30; Sa 15:00", "note": "ON 12/24 AND 12/31, THIS BOX MAY BE COLLECTED AS EARLY AS 12 NOON.", "nsi_id": "unitedstatespostalservice-a77078", "operator": "United States Postal Service", "operator:short": "USPS", "operator:type": "public", "operator:wikidata": "Q668687", "ref": "3669500022"}, "type": "Feature"}
