{"dataset_attributes": {"@spider": "usps_collection_boxes", "spider:collection_time": "2023-10-16T08:26:35.141500"}, "geometry": {"coordinates": [-87.0178725666, 32.4086577174], "type": "Point"}, "id": "8sASftgowj7DoWxee12N-iQRjI4=", "properties": {"@spider": "usps_collection_boxes", "addr:city": "SELMA", "addr:country": "US", "addr:full": "1301 ALABAMA AVE", "addr:postcode": "36701", "addr:state": "AL", "amenity": "post_box", "brand": "United States Postal Service", "brand:wikidata": "Q668687", "collection_times": "Mo-Fr 17:00; Sa 16:00", "name": "USPS COLLECTION BOX - BLUE BOX", "note": "ON 12/24 AND 12/31, THIS BOX MAY BE COLLECTED AS EARLY AS 12 NOON.", "nsi_id": "unitedstatespostalservice-a77078", "operator": "United States Postal Service", "operator:short": "USPS", "operator:type": "public", "operator:wikidata": "Q668687", "ref": "3670100001"}, "type": "Feature"}
{"dataset_attributes": {"@spider": "usps_collection_boxes", "spider:collection_time": "2023-10-16T08:26:35.141500"}, "geometry": {"coordinates": [-87.017816, 32.408645], "type": "Point"}, "id": "ATuS4y_WpoHFEq6q2QIihK-LKyM=", "properties": {"@spider": "usps_collection_boxes", "addr:city": "SELMA", "addr:country": "US", "addr:full": "1301 ALABAMA AVE", "addr:postcode": "36701", "addr:state": "AL", "amenity": "post_box", "brand": "United States Postal Service", "brand:wikidata": "Q668687", "collection_times": "Mo-Fr 17:00; Sa 16:00", "name": "USPS COLLECTION BOX - BLUE BOX", "note": "ON 12/24 AND 12/31, THIS BOX MAY BE COLLECTED AS EARLY AS 12 NOON.", "nsi_id": "unitedstatespostalservice-a77078", "operator": "United States Postal Service", "operator:short": "USPS", "operator:type": "public", "operator:wikidata": "Q668687", "ref": "3670100002"}, "type": "Feature"}
{"dataset_attributes": {"@spider": "usps_collection_boxes", "spider:collection_time": "2023-10-16T08:26:35.141500"}, "geometry": {"coordinates": [-87.0207541, 32.408985], "type": "Point"}, "id": "94NSrwMkXU9tOhpkMS-4NYnlQT4=", "properties": {"@spider": "usps_collection_boxes", "addr:city": "SELMA", "addr:country": "US", "addr:full": "201 BROAD ST", "addr:postcode": "36701", "addr:state": "AL", "amenity": "post_box", "brand": "United States Postal Service", "brand:wikidata": "Q668687", "collection_times": "Mo-Sa 09:00", "name": "USPS COLLECTION BOX - BLUE BOX", "nsi_id": "unitedstatespostalservice-a77078", "operator": "United States Postal Service", "operator:short": "USPS", "operator:type": "public", "operator:wikidata": "Q668687", "ref": "3670100012"}, "type": "Feature"}
{"dataset_attributes": {"@spider": "usps_collection_boxes", "spider:collection_time": "2023-10-16T08:26:35.141500"}, "geometry": {"coordinates": [-87.0545382, 32.429307], "type": "Point"}, "id": "FTqvA3MIk8s2ZyNMqYPiRkLKTmg=", "properties": {"@spider": "usps_collection_boxes", "addr:city": "SELMA", "addr:country": "US", "addr:full": "1013 MEDICAL CENTER PKWY", "addr:postcode": "36701", "addr:state": "AL", "amenity": "post_box", "brand": "United States Postal Service", "brand:wikidata": "Q668687", "collection_times": "Mo-Sa 11:30", "name": "USPS COLLECTION BOX - BLUE BOX", "nsi_id": "unitedstatespostalservice-a77078", "operator": "United States Postal Service", "operator:short": "USPS", "operator:type": "public", "operator:wikidata": "Q668687", "ref": "3670100019"}, "type": "Feature"}
{"dataset_attributes": {"@spider": "usps_collection_boxes", "spider:collection_time": "2023-10-16T08:26:35.141500"}, "geometry": {"coordinates": [-87.0245789769, 32.4219680077], "type": "Point"}, "id": "IvM1JQEUtKgHQUu9BNdbVHMwvlM=", "properties": {"@spider": "usps_collection_boxes", "addr:city": "SELMA", "addr:country": "US", "addr:full": "1631 BROAD ST", "addr:postcode": "36701", "addr:state": "AL", "amenity": "post_box", "brand": "United States Postal Service", "brand:wikidata": "Q668687", "collection_times": "Mo-Fr 15:15; Sa 14:30", "name": "USPS COLLECTION BOX - BLUE BOX", "note": "ON 12/24 AND 12/31, THIS BOX MAY BE COLLECTED AS EARLY AS 12 NOON.", "nsi_id": "unitedstatespostalservice-a77078", "operator": "United States Postal Service", "operator:short": "USPS", "operator:type": "public", "operator:wikidata": "Q668687", "ref": "3670100029"}, "type": "Feature"}
{"dataset_attributes": {"@spider": "usps_collection_boxes", "spider:collection_time": "2023-10-16T08:26:35.141500"}, "geometry": {"coordinates": [-87.0658457, 32.398091], "type": "Point"}, "id": "wuwqfuD8axMSwAugK_7QfkfsKDU=", "properties": {"@spider": "usps_collection_boxes", "addr:city": "SELMA", "addr:country": "US", "addr:full": "1952 W DALLAS AVE", "addr:postcode": "36701", "addr:state": "AL", "amenity": "post_box", "brand": "United States Postal Service", "brand:wikidata": "Q668687", "collection_times": "Mo-Sa 09:30", "name": "USPS COLLECTION BOX - BLUE BOX", "nsi_id": "unitedstatespostalservice-a77078", "operator": "United States Postal Service", "operator:short": "USPS", "operator:type": "public", "operator:wikidata": "Q668687", "ref": "3670100030"}, "type": "Feature"}
{"dataset_attributes": {"@spider": "usps_collection_boxes", "spider:collection_time": "2023-10-16T08:26:35.141500"}, "geometry": {"coordinates": [-87.0132918, 32.445192], "type": "Point"}, "id": "KC_nFgObB8RrEjB1E6rfW4SkScU=", "properties": {"@spider": "usps_collection_boxes", "addr:city": "SELMA", "addr:country": "US", "addr:full": "3000 EARL GOODWIN PKWY", "addr:postcode": "36701", "addr:state": "AL", "amenity": "post_box", "brand": "United States Postal Service", "brand:wikidata": "Q668687", "collection_times": "Mo-Sa 13:30", "name": "USPS COLLECTION BOX - BLUE BOX", "note": "ON 12/24 AND 12/31, THIS BOX MAY BE COLLECTED AS EARLY AS 12 NOON.", "nsi_id": "unitedstatespostalservice-a77078", "operator": "United States Postal Service", "operator:short": "USPS", "operator:type": "public", "operator:wikidata": "Q668687", "ref": "3670100031"}, "type": "Feature"}
{"dataset_attributes": {"@spider": "usps_collection_boxes", "spider:collection_time": "2023-10-16T08:26:35.141500"}, "geometry": {"coordinates": [-87.0167759, 32.430299], "type": "Point"}, "id": "IcxoJyEcxX4NddCULKqbNr0ABxk=", "properties": {"@spider": "usps_collection_boxes", "addr:city": "SELMA", "addr:country": "US", "addr:full": "1310 E HIGHLAND AVE", "addr:postcode": "36701", "addr:state": "AL", "amenity": "post_box", "brand": "United States Postal Service", "brand:wikidata": "Q668687", "collection_times": "Mo-Sa 11:00", "name": "USPS COLLECTION BOX - BLUE BOX", "nsi_id": "unitedstatespostalservice-a77078", "operator": "United States Postal Service", "operator:short": "USPS", "operator:type": "public", "operator:wikidata": "Q668687", "ref": "3670100032"}, "type": "Feature"}
{"dataset_attributes": {"@spider": "usps_collection_boxes", "spider:collection_time": "2023-10-16T08:26:35.141500"}, "geometry": {"coordinates": [-87.0170758, 32.432548], "type": "Point"}, "id": "nW89BYERBgSe6cMHyIYt2gp6Mh8=", "properties": {"@spider": "usps_collection_boxes", "addr:city": "SELMA", "addr:country": "US", "addr:full": "1301 E HIGHLAND AVE", "addr:postcode": "36701", "addr:state": "AL", "amenity": "post_box", "brand": "United States Postal Service", "brand:wikidata": "Q668687", "collection_times": "Mo-Sa 12:00", "name": "USPS COLLECTION BOX - BLUE BOX", "nsi_id": "unitedstatespostalservice-a77078", "operator": "United States Postal Service", "operator:short": "USPS", "operator:type": "public", "operator:wikidata": "Q668687", "ref": "3670100034"}, "type": "Feature"}
{"dataset_attributes": {"@spider": "usps_collection_boxes", "spider:collection_time": "2023-10-16T08:26:35.141500"}, "geometry": {"coordinates": [-87.017816, 32.408645], "type": "Point"}, "id": "4s6FEbI6bCxrm3cVrA45GZXN7fU=", "properties": {"@spider": "usps_collection_boxes", "addr:city": "SELMA", "addr:country": "US", "addr:full": "1301 ALABAMA AVE", "addr:postcode": "36701", "addr:state": "AL", "amenity": "post_box", "brand": "United States Postal Service", "brand:wikidata": "Q668687", "collection_times": "Mo-Fr 16:45; Sa 16:00", "name": "USPS COLLECTION BOX - PO LOBBY", "note": "ON 12/24 AND 12/31, THIS BOX MAY BE COLLECTED AS EARLY AS 12 NOON.", "nsi_id": "unitedstatespostalservice-a77078", "operator": "United States Postal Service", "operator:short": "USPS", "operator:type": "public", "operator:wikidata": "Q668687", "ref": "3670100038"}, "type": "Feature"}
{"dataset_attributes": {"@spider": "usps_collection_boxes", "spider:collection_time": "2023-10-16T08:26:35.141500"}, "geometry": {"coordinates": [-87.0129640061, 32.4341360165], "type": "Point"}, "id": "BGSv1AdigmSuJK5Jlii4TfvQ3Yc=", "properties": {"@spider": "usps_collection_boxes", "addr:city": "SELMA", "addr:country": "US", "addr:full": "1501 AL HIGHWAY 14 E", "addr:postcode": "36701", "addr:state": "AL", "amenity": "post_box", "brand": "United States Postal Service", "brand:wikidata": "Q668687", "collection_times": "Mo-Sa 12:00", "name": "USPS COLLECTION BOX - BLUE BOX", "nsi_id": "unitedstatespostalservice-a77078", "operator": "United States Postal Service", "operator:short": "USPS", "operator:type": "public", "operator:wikidata": "Q668687", "ref": "3670100042"}, "type": "Feature"}
{"dataset_attributes": {"@spider": "usps_collection_boxes", "spider:collection_time": "2023-10-16T08:26:35.141500"}, "geometry": {"coordinates": [-87.0558592, 32.431625], "type": "Point"}, "id": "RryT2cSqgCXj0DMB26f2cFKGBcY=", "properties": {"@spider": "usps_collection_boxes", "addr:city": "SELMA", "addr:country": "US", "addr:full": "100 SAM MOSELEY DR", "addr:postcode": "36701", "addr:state": "AL", "amenity": "post_box", "brand": "United States Postal Service", "brand:wikidata": "Q668687", "collection_times": "Mo-Fr 13:30; Sa 12:30", "name": "USPS COLLECTION BOX - BLUE BOX", "note": "ON 12/24 AND 12/31, THIS BOX MAY BE COLLECTED AS EARLY AS 12 NOON.", "nsi_id": "unitedstatespostalservice-a77078", "operator": "United States Postal Service", "operator:short": "USPS", "operator:type": "public", "operator:wikidata": "Q668687", "ref": "3670100043"}, "type": "Feature"}
{"dataset_attributes": {"@spider": "usps_collection_boxes", "spider:collection_time": "2023-10-16T08:26:35.141500"}, "geometry": {"coordinates": [-87.0614886, 32.434159], "type": "Point"}, "id": "vRQt0Y85vHCxI0Ls4c29FvsT_PY=", "properties": {"@spider": "usps_collection_boxes", "addr:city": "SELMA", "addr:country": "US", "addr:full": "2530 US HIGHWAY 80 W", "addr:postcode": "36701", "addr:state": "AL", "amenity": "post_box", "brand": "United States Postal Service", "brand:wikidata": "Q668687", "collection_times": "Mo-Sa 10:00", "name": "USPS COLLECTION BOX - BLUE BOX", "nsi_id": "unitedstatespostalservice-a77078", "operator": "United States Postal Service", "operator:short": "USPS", "operator:type": "public", "operator:wikidata": "Q668687", "ref": "3670100045"}, "type": "Feature"}
{"dataset_attributes": {"@spider": "usps_collection_boxes", "spider:collection_time": "2023-10-16T08:26:35.141500"}, "geometry": {"coordinates": [-87.0010426, 32.483051], "type": "Point"}, "id": "Ec3Po6ohr4NaiACOpYYnb86W6F4=", "properties": {"@spider": "usps_collection_boxes", "addr:city": "SELMA", "addr:country": "US", "addr:full": "5514 AL HIGHWAY 22 N", "addr:postcode": "36701", "addr:state": "AL", "amenity": "post_box", "brand": "United States Postal Service", "brand:wikidata": "Q668687", "collection_times": "Mo-Sa 10:00", "name": "USPS COLLECTION BOX - BLUE BOX", "nsi_id": "unitedstatespostalservice-a77078", "operator": "United States Postal Service", "operator:short": "USPS", "operator:type": "public", "operator:wikidata": "Q668687", "ref": "3670100046"}, "type": "Feature"}
{"dataset_attributes": {"@spider": "usps_collection_boxes", "spider:collection_time": "2023-10-16T08:26:35.141500"}, "geometry": {"coordinates": [-87.0914318, 32.38045], "type": "Point"}, "id": "ZozH4mI4WMnX3ozg2phBcrMhp8s=", "properties": {"@spider": "usps_collection_boxes", "addr:city": "SELMA", "addr:country": "US", "addr:full": "2 RAMSEY PL", "addr:postcode": "36701", "addr:state": "AL", "amenity": "post_box", "brand": "United States Postal Service", "brand:wikidata": "Q668687", "collection_times": "Mo-Sa 11:00", "name": "USPS COLLECTION BOX - BLUE BOX", "nsi_id": "unitedstatespostalservice-a77078", "operator": "United States Postal Service", "operator:short": "USPS", "operator:type": "public", "operator:wikidata": "Q668687", "ref": "3670100048"}, "type": "Feature"}
{"dataset_attributes": {"@spider": "usps_collection_boxes", "spider:collection_time": "2023-10-16T08:26:35.141500"}, "geometry": {"coordinates": [-87.017870522, 32.408663617], "type": "Point"}, "id": "fQPqSm0T4GNWtd_317fIGgEJs2Y=", "properties": {"@spider": "usps_collection_boxes", "addr:city": "SELMA", "addr:country": "US", "addr:full": "1301 ALABAMA AVE", "addr:postcode": "36701", "addr:state": "AL", "amenity": "post_box", "brand": "United States Postal Service", "brand:wikidata": "Q668687", "collection_times": "Mo-Fr 16:30; Sa 12:00", "name": "USPS COLLECTION BOX - PO LOBBY", "note": "ON 12/24 AND 12/31, THIS BOX MAY BE COLLECTED AS EARLY AS 12 NOON.", "nsi_id": "unitedstatespostalservice-a77078", "operator": "United States Postal Service", "operator:short": "USPS", "operator:type": "public", "operator:wikidata": "Q668687", "ref": "3670100050"}, "type": "Feature"}
{"dataset_attributes": {"@spider": "usps_collection_boxes", "spider:collection_time": "2023-10-16T08:26:35.141500"}, "geometry": {"coordinates": [-87.586099, 32.056244], "type": "Point"}, "id": "UOCd7CUc9slWX7BfFKLk7uIkgxE=", "properties": {"@spider": "usps_collection_boxes", "addr:city": "ARLINGTON", "addr:country": "US", "addr:full": "3894 COUNTY ROAD 32", "addr:postcode": "36722", "addr:state": "AL", "amenity": "post_box", "brand": "United States Postal Service", "brand:wikidata": "Q668687", "collection_times": "Mo-Fr 11:30; Sa 10:00", "name": "USPS COLLECTION BOX - BLUE BOX", "nsi_id": "unitedstatespostalservice-a77078", "operator": "United States Postal Service", "operator:short": "USPS", "operator:type": "public", "operator:wikidata": "Q668687", "ref": "3672200000"}, "type": "Feature"}
{"dataset_attributes": {"@spider": "usps_collection_boxes", "spider:collection_time": "2023-10-16T08:26:35.141500"}, "geometry": {"coordinates": [-87.586099, 32.056244], "type": "Point"}, "id": "rPYcxuAE3tTzTUYkUrTaBz46h5E=", "properties": {"@spider": "usps_collection_boxes", "addr:city": "ARLINGTON", "addr:country": "US", "addr:full": "3894 COUNTY ROAD 32", "addr:postcode": "36722", "addr:state": "AL", "amenity": "post_box", "brand": "United States Postal Service", "brand:wikidata": "Q668687", "collection_times": "Mo-Fr 11:30; Sa 10:00", "name": "USPS COLLECTION BOX - PO LOBBY", "nsi_id": "unitedstatespostalservice-a77078", "operator": "United States Postal Service", "operator:short": "USPS", "operator:type": "public", "operator:wikidata": "Q668687", "ref": "3672200001"}, "type": "Feature"}
{"dataset_attributes": {"@spider": "usps_collection_boxes", "spider:collection_time": "2023-10-16T08:26:35.141500"}, "geometry": {"coordinates": [-87.585808184, 32.056172116], "type": "Point"}, "id": "q3Mf3p-OVISVN7XfCgtqgWRjkW8=", "properties": {"@spider": "usps_collection_boxes", "addr:city": "ARLINGTON", "addr:country": "US", "addr:full": "3894 COUNTY ROAD 32", "addr:postcode": "36722", "addr:state": "AL", "amenity": "post_box", "brand": "United States Postal Service", "brand:wikidata": "Q668687", "collection_times": "Mo-Fr 11:30; Sa 10:00", "name": "USPS COLLECTION BOX - PO LOBBY", "nsi_id": "unitedstatespostalservice-a77078", "operator": "United States Postal Service", "operator:short": "USPS", "operator:type": "public", "operator:wikidata": "Q668687", "ref": "3672200003"}, "type": "Feature"}
{"dataset_attributes": {"@spider": "usps_collection_boxes", "spider:collection_time": "2023-10-16T08:26:35.141500"}, "geometry": {"coordinates": [-87.281254, 32.075342], "type": "Point"}, "id": "9KjqpkmoLg0ZtMwGW_f1J8xUXzc=", "properties": {"@spider": "usps_collection_boxes", "addr:city": "BOYKIN", "addr:country": "US", "addr:full": "14030 COUNTY ROAD 29", "addr:postcode": "36723", "addr:state": "AL", "amenity": "post_box", "brand": "United States Postal Service", "brand:wikidata": "Q668687", "collection_times": "Mo-Fr 12:00", "name": "USPS COLLECTION BOX - BLUE BOX", "nsi_id": "unitedstatespostalservice-a77078", "operator": "United States Postal Service", "operator:short": "USPS", "operator:type": "public", "operator:wikidata": "Q668687", "ref": "3672300000"}, "type": "Feature"}
{"dataset_attributes": {"@spider": "usps_collection_boxes", "spider:collection_time": "2023-10-16T08:26:35.141500"}, "geometry": {"coordinates": [-87.281254, 32.075342], "type": "Point"}, "id": "ZStUYZgyOSeFBDTf_0WF91wIyDU=", "properties": {"@spider": "usps_collection_boxes", "addr:city": "BOYKIN", "addr:country": "US", "addr:full": "14030 COUNTY ROAD 29", "addr:postcode": "36723", "addr:state": "AL", "amenity": "post_box", "brand": "United States Postal Service", "brand:wikidata": "Q668687", "collection_times": "Mo-Fr 12:00", "name": "USPS COLLECTION BOX - PO LOBBY", "nsi_id": "unitedstatespostalservice-a77078", "operator": "United States Postal Service", "operator:short": "USPS", "operator:type": "public", "operator:wikidata": "Q668687", "ref": "3672300001"}, "type": "Feature"}
{"dataset_attributes": {"@spider": "usps_collection_boxes", "spider:collection_time": "2023-10-16T08:26:35.141500"}, "geometry": {"coordinates": [-87.286011111, 32.068916139], "type": "Point"}, "id": "h8OuC_p5luXhvmTwYzonWdybbUM=", "properties": {"@spider": "usps_collection_boxes", "addr:city": "BOYKIN", "addr:country": "US", "addr:full": "14030 COUNTY ROAD 29", "addr:postcode": "36723", "addr:state": "AL", "amenity": "post_box", "brand": "United States Postal Service", "brand:wikidata": "Q668687", "collection_times": "Mo-Fr 12:00", "name": "USPS COLLECTION BOX - PO LOBBY", "nsi_id": "unitedstatespostalservice-a77078", "operator": "United States Postal Service", "operator:short": "USPS", "operator:type": "public", "operator:wikidata": "Q668687", "ref": "3672300002"}, "type": "Feature"}
{"dataset_attributes": {"@spider": "usps_collection_boxes", "spider:collection_time": "2023-10-16T08:26:35.141500"}, "geometry": {"coordinates": [-87.2896176, 31.991441], "type": "Point"}, "id": "6_5_XmvO6IyS-96aYG6RdkgjiEw=", "properties": {"@spider": "usps_collection_boxes", "addr:city": "CAMDEN", "addr:country": "US", "addr:full": "107 BROAD ST", "addr:postcode": "36726", "addr:state": "AL", "amenity": "post_box", "brand": "United States Postal Service", "brand:wikidata": "Q668687", "collection_times": "Mo-Sa 09:45", "name": "USPS COLLECTION BOX - BLUE BOX", "nsi_id": "unitedstatespostalservice-a77078", "operator": "United States Postal Service", "operator:short": "USPS", "operator:type": "public", "operator:wikidata": "Q668687", "ref": "3672600000"}, "type": "Feature"}
{"dataset_attributes": {"@spider": "usps_collection_boxes", "spider:collection_time": "2023-10-16T08:26:35.141500"}, "geometry": {"coordinates": [-87.3055333, 32.010412], "type": "Point"}, "id": "0CxmDgO0AXQrNUBBZZ7MUY7vUTo=", "properties": {"@spider": "usps_collection_boxes", "addr:city": "CAMDEN", "addr:country": "US", "addr:full": "100 HIGHWAY 28 W", "addr:postcode": "36726", "addr:state": "AL", "amenity": "post_box", "brand": "United States Postal Service", "brand:wikidata": "Q668687", "collection_times": "Mo-Sa 10:30", "name": "USPS COLLECTION BOX - BLUE BOX", "nsi_id": "unitedstatespostalservice-a77078", "operator": "United States Postal Service", "operator:short": "USPS", "operator:type": "public", "operator:wikidata": "Q668687", "ref": "3672600001"}, "type": "Feature"}
{"dataset_attributes": {"@spider": "usps_collection_boxes", "spider:collection_time": "2023-10-16T08:26:35.141500"}, "geometry": {"coordinates": [-87.283384, 31.997823], "type": "Point"}, "id": "uWScbo7iBMu7gqS7N6AJSe4rf00=", "properties": {"@spider": "usps_collection_boxes", "addr:city": "CAMDEN", "addr:country": "US", "addr:full": "100 LEGION RD", "addr:postcode": "36726", "addr:state": "AL", "amenity": "post_box", "brand": "United States Postal Service", "brand:wikidata": "Q668687", "collection_times": "Mo-Fr 16:15; Sa 12:30", "name": "USPS COLLECTION BOX - PO LOBBY", "note": "ON 12/24 AND 12/31, THIS BOX MAY BE COLLECTED AS EARLY AS 12 NOON.", "nsi_id": "unitedstatespostalservice-a77078", "operator": "United States Postal Service", "operator:short": "USPS", "operator:type": "public", "operator:wikidata": "Q668687", "ref": "3672600008"}, "type": "Feature"}
{"dataset_attributes": {"@spider": "usps_collection_boxes", "spider:collection_time": "2023-10-16T08:26:35.141500"}, "geometry": {"coordinates": [-87.283384, 31.997823], "type": "Point"}, "id": "fzqDnLKWh92O6uvjpWjH1pPkj58=", "properties": {"@spider": "usps_collection_boxes", "addr:city": "CAMDEN", "addr:country": "US", "addr:full": "100 LEGION RD", "addr:postcode": "36726", "addr:state": "AL", "amenity": "post_box", "brand": "United States Postal Service", "brand:wikidata": "Q668687", "collection_times": "Mo-Fr 16:15; Sa 12:30", "name": "USPS COLLECTION BOX - BLUE BOX", "note": "ON 12/24 AND 12/31, THIS BOX MAY BE COLLECTED AS EARLY AS 12 NOON.", "nsi_id": "unitedstatespostalservice-a77078", "operator": "United States Postal Service", "operator:short": "USPS", "operator:type": "public", "operator:wikidata": "Q668687", "ref": "3672600009"}, "type": "Feature"}
{"dataset_attributes": {"@spider": "usps_collection_boxes", "spider:collection_time": "2023-10-16T08:26:35.141500"}, "geometry": {"coordinates": [-87.283409781, 31.997818265], "type": "Point"}, "id": "RSiBCLoFHnJn8L2skmE0fnYP8oo=", "properties": {"@spider": "usps_collection_boxes", "addr:city": "CAMDEN", "addr:country": "US", "addr:full": "100 LEGION RD", "addr:postcode": "36726", "addr:state": "AL", "amenity": "post_box", "brand": "United States Postal Service", "brand:wikidata": "Q668687", "collection_times": "Mo-Fr 16:30; Sa 12:00", "name": "USPS COLLECTION BOX - PO LOBBY", "note": "ON 12/24 AND 12/31, THIS BOX MAY BE COLLECTED AS EARLY AS 12 NOON.", "nsi_id": "unitedstatespostalservice-a77078", "operator": "United States Postal Service", "operator:short": "USPS", "operator:type": "public", "operator:wikidata": "Q668687", "ref": "3672600012"}, "type": "Feature"}
{"dataset_attributes": {"@spider": "usps_collection_boxes", "spider:collection_time": "2023-10-16T08:26:35.141500"}, "geometry": {"coordinates": [-88.015137701, 31.9259041767], "type": "Point"}, "id": "JtVlD7Np7NTUjcbSJ195smcIr8A=", "properties": {"@spider": "usps_collection_boxes", "addr:city": "CAMPBELL", "addr:country": "US", "addr:full": "9 CAMPBELL LN", "addr:postcode": "36727", "addr:state": "AL", "amenity": "post_box", "brand": "United States Postal Service", "brand:wikidata": "Q668687", "collection_times": "Mo-Fr 12:15; Sa 11:45", "name": "USPS COLLECTION BOX - BLUE BOX", "note": "ON 12/24 AND 12/31, THIS BOX MAY BE COLLECTED AS EARLY AS 12 NOON.", "nsi_id": "unitedstatespostalservice-a77078", "operator": "United States Postal Service", "operator:short": "USPS", "operator:type": "public", "operator:wikidata": "Q668687", "ref": "3672700000"}, "type": "Feature"}
{"dataset_attributes": {"@spider": "usps_collection_boxes", "spider:collection_time": "2023-10-16T08:26:35.141500"}, "geometry": {"coordinates": [-88.00575, 31.92728], "type": "Point"}, "id": "CrEjPRvNchfNK0-IHaOm7GI-ep4=", "properties": {"@spider": "usps_collection_boxes", "addr:city": "CAMPBELL", "addr:country": "US", "addr:full": "9 CAMPBELL LN", "addr:postcode": "36727", "addr:state": "AL", "amenity": "post_box", "brand": "United States Postal Service", "brand:wikidata": "Q668687", "collection_times": "Mo-Fr 11:15; Sa 11:45", "name": "USPS COLLECTION BOX - PO LOBBY", "nsi_id": "unitedstatespostalservice-a77078", "operator": "United States Postal Service", "operator:short": "USPS", "operator:type": "public", "operator:wikidata": "Q668687", "ref": "3672700001"}, "type": "Feature"}
{"dataset_attributes": {"@spider": "usps_collection_boxes", "spider:collection_time": "2023-10-16T08:26:35.141500"}, "geometry": {"coordinates": [-87.478401, 32.178418], "type": "Point"}, "id": "V0ruXh5BlNJmeKoRVPn-NZx9CSc=", "properties": {"@spider": "usps_collection_boxes", "addr:city": "CATHERINE", "addr:country": "US", "addr:full": "18001 AL HIGHWAY 5", "addr:postcode": "36728", "addr:state": "AL", "amenity": "post_box", "brand": "United States Postal Service", "brand:wikidata": "Q668687", "collection_times": "Mo-Fr 14:00; Sa 10:15", "name": "USPS COLLECTION BOX - BLUE BOX", "note": "ON 12/24 AND 12/31, THIS BOX MAY BE COLLECTED AS EARLY AS 12 NOON.", "nsi_id": "unitedstatespostalservice-a77078", "operator": "United States Postal Service", "operator:short": "USPS", "operator:type": "public", "operator:wikidata": "Q668687", "ref": "3672800000"}, "type": "Feature"}
{"dataset_attributes": {"@spider": "usps_collection_boxes", "spider:collection_time": "2023-10-16T08:26:35.141500"}, "geometry": {"coordinates": [-87.478401, 32.178418], "type": "Point"}, "id": "l_fkWHYRr-xLviLEvaOfJUeCOzg=", "properties": {"@spider": "usps_collection_boxes", "addr:city": "CATHERINE", "addr:country": "US", "addr:full": "18001 AL HIGHWAY 5", "addr:postcode": "36728", "addr:state": "AL", "amenity": "post_box", "brand": "United States Postal Service", "brand:wikidata": "Q668687", "collection_times": "Mo-Fr 14:00; Sa 10:15", "name": "USPS COLLECTION BOX - PO LOBBY", "note": "ON 12/24 AND 12/31, THIS BOX MAY BE COLLECTED AS EARLY AS 12 NOON.", "nsi_id": "unitedstatespostalservice-a77078", "operator": "United States Postal Service", "operator:short": "USPS", "operator:type": "public", "operator:wikidata": "Q668687", "ref": "3672800001"}, "type": "Feature"}
{"dataset_attributes": {"@spider": "usps_collection_boxes", "spider:collection_time": "2023-10-16T08:26:35.141500"}, "geometry": {"coordinates": [-87.472862235, 32.182374218], "type": "Point"}, "id": "XhCX6JOe6bxqKA5p6VIypRCsk9g=", "properties": {"@spider": "usps_collection_boxes", "addr:city": "CATHERINE", "addr:country": "US", "addr:full": "18001 AL HIGHWAY 5", "addr:postcode": "36728", "addr:state": "AL", "amenity": "post_box", "brand": "United States Postal Service", "brand:wikidata": "Q668687", "collection_times": "Mo-Fr 14:00; Sa 10:00", "name": "USPS COLLECTION BOX - PO LOBBY", "note": "ON 12/24 AND 12/31, THIS BOX MAY BE COLLECTED AS EARLY AS 12 NOON.", "nsi_id": "unitedstatespostalservice-a77078", "operator": "United States Postal Service", "operator:short": "USPS", "operator:type": "public", "operator:wikidata": "Q668687", "ref": "3672800003"}, "type": "Feature"}
{"dataset_attributes": {"@spider": "usps_collection_boxes", "spider:collection_time": "2023-10-16T08:26:35.141500"}, "geometry": {"coordinates": [-87.837647, 32.51845], "type": "Point"}, "id": "Bz9dsUmp_TFj4D4p0HzSAC4s-K0=", "properties": {"@spider": "usps_collection_boxes", "addr:city": "DEMOPOLIS", "addr:country": "US", "addr:full": "100 W CAPITOL ST", "addr:postcode": "36732", "addr:state": "AL", "amenity": "post_box", "brand": "United States Postal Service", "brand:wikidata": "Q668687", "collection_times": "Mo-Sa 16:30", "name": "USPS COLLECTION BOX - PO LOBBY", "note": "ON 12/24 AND 12/31, THIS BOX MAY BE COLLECTED AS EARLY AS 12 NOON.", "nsi_id": "unitedstatespostalservice-a77078", "operator": "United States Postal Service", "operator:short": "USPS", "operator:type": "public", "operator:wikidata": "Q668687", "ref": "3673200010"}, "type": "Feature"}
{"dataset_attributes": {"@spider": "usps_collection_boxes", "spider:collection_time": "2023-10-16T08:26:35.141500"}, "geometry": {"coordinates": [-87.837647, 32.51845], "type": "Point"}, "id": "LISPUu7WCW-aHFvzF-Jo5OBDgQk=", "properties": {"@spider": "usps_collection_boxes", "addr:city": "DEMOPOLIS", "addr:country": "US", "addr:full": "100 W CAPITOL ST", "addr:postcode": "36732", "addr:state": "AL", "amenity": "post_box", "brand": "United States Postal Service", "brand:wikidata": "Q668687", "collection_times": "Mo-Sa 16:15", "name": "USPS COLLECTION BOX - BLUE BOX", "note": "ON 12/24 AND 12/31, THIS BOX MAY BE COLLECTED AS EARLY AS 12 NOON.", "nsi_id": "unitedstatespostalservice-a77078", "operator": "United States Postal Service", "operator:short": "USPS", "operator:type": "public", "operator:wikidata": "Q668687", "ref": "3673200016"}, "type": "Feature"}
{"dataset_attributes": {"@spider": "usps_collection_boxes", "spider:collection_time": "2023-10-16T08:26:35.141500"}, "geometry": {"coordinates": [-87.837610291, 32.518481318], "type": "Point"}, "id": "U8grxUWVPbOwa5ixby-Prd7PwoM=", "properties": {"@spider": "usps_collection_boxes", "addr:city": "DEMOPOLIS", "addr:country": "US", "addr:full": "100 W CAPITOL ST", "addr:postcode": "36732", "addr:state": "AL", "amenity": "post_box", "brand": "United States Postal Service", "brand:wikidata": "Q668687", "collection_times": "Mo-Fr 16:15; Sa 12:30", "name": "USPS COLLECTION BOX - PO LOBBY", "note": "ON 12/24 AND 12/31, THIS BOX MAY BE COLLECTED AS EARLY AS 12 NOON.", "nsi_id": "unitedstatespostalservice-a77078", "operator": "United States Postal Service", "operator:short": "USPS", "operator:type": "public", "operator:wikidata": "Q668687", "ref": "3673200021"}, "type": "Feature"}
{"dataset_attributes": {"@spider": "usps_collection_boxes", "spider:collection_time": "2023-10-16T08:26:35.141500"}, "geometry": {"coordinates": [-87.786579, 32.05988], "type": "Point"}, "id": "aNzQRcAuG_wS1deV4ijlFV_2Yw0=", "properties": {"@spider": "usps_collection_boxes", "addr:city": "DIXON MILLS", "addr:country": "US", "addr:full": "5114 US HIGHWAY 43", "addr:postcode": "36736", "addr:state": "AL", "amenity": "post_box", "brand": "United States Postal Service", "brand:wikidata": "Q668687", "collection_times": "Mo-Fr 14:15; Sa 10:00", "name": "USPS COLLECTION BOX - BLUE BOX", "note": "ON 12/24 AND 12/31, THIS BOX MAY BE COLLECTED AS EARLY AS 12 NOON.", "nsi_id": "unitedstatespostalservice-a77078", "operator": "United States Postal Service", "operator:short": "USPS", "operator:type": "public", "operator:wikidata": "Q668687", "ref": "3673600000"}, "type": "Feature"}
{"dataset_attributes": {"@spider": "usps_collection_boxes", "spider:collection_time": "2023-10-16T08:26:35.141500"}, "geometry": {"coordinates": [-87.786579, 32.05988], "type": "Point"}, "id": "QNJstNKtxGrHTi_1gHraRIe1N9M=", "properties": {"@spider": "usps_collection_boxes", "addr:city": "DIXON MILLS", "addr:country": "US", "addr:full": "5114 US HIGHWAY 43", "addr:postcode": "36736", "addr:state": "AL", "amenity": "post_box", "brand": "United States Postal Service", "brand:wikidata": "Q668687", "collection_times": "Mo-Fr 14:15; Sa 10:00", "name": "USPS COLLECTION BOX - PO LOBBY", "note": "ON 12/24 AND 12/31, THIS BOX MAY BE COLLECTED AS EARLY AS 12 NOON.", "nsi_id": "unitedstatespostalservice-a77078", "operator": "United States Postal Service", "operator:short": "USPS", "operator:type": "public", "operator:wikidata": "Q668687", "ref": "3673600001"}, "type": "Feature"}
{"dataset_attributes": {"@spider": "usps_collection_boxes", "spider:collection_time": "2023-10-16T08:26:35.141500"}, "geometry": {"coordinates": [-87.786554094, 32.059887297], "type": "Point"}, "id": "zvo9TfDSDWEOqsmcLq2bJE4hAkE=", "properties": {"@spider": "usps_collection_boxes", "addr:city": "DIXON MILLS", "addr:country": "US", "addr:full": "5114 US HIGHWAY 43", "addr:postcode": "36736", "addr:state": "AL", "amenity": "post_box", "brand": "United States Postal Service", "brand:wikidata": "Q668687", "collection_times": "Mo-Fr 14:15; Sa 10:00", "name": "USPS COLLECTION BOX - PO LOBBY", "note": "ON 12/24 AND 12/31, THIS BOX MAY BE COLLECTED AS EARLY AS 12 NOON.", "nsi_id": "unitedstatespostalservice-a77078", "operator": "United States Postal Service", "operator:short": "USPS", "operator:type": "public", "operator:wikidata": "Q668687", "ref": "3673600003"}, "type": "Feature"}
{"dataset_attributes": {"@spider": "usps_collection_boxes", "spider:collection_time": "2023-10-16T08:26:35.141500"}, "geometry": {"coordinates": [-87.59371, 32.459242], "type": "Point"}, "id": "nnK1LeeduO8GJ4gGd5aZhxhCluw=", "properties": {"@spider": "usps_collection_boxes", "addr:city": "FAUNSDALE", "addr:country": "US", "addr:full": "35570 AL HIGHWAY 25", "addr:postcode": "36738", "addr:state": "AL", "amenity": "post_box", "brand": "United States Postal Service", "brand:wikidata": "Q668687", "collection_times": "Mo-Fr 11:15; Sa 11:00", "name": "USPS COLLECTION BOX - BLUE BOX", "nsi_id": "unitedstatespostalservice-a77078", "operator": "United States Postal Service", "operator:short": "USPS", "operator:type": "public", "operator:wikidata": "Q668687", "ref": "3673800000"}, "type": "Feature"}
{"dataset_attributes": {"@spider": "usps_collection_boxes", "spider:collection_time": "2023-10-16T08:26:35.141500"}, "geometry": {"coordinates": [-87.59371, 32.459242], "type": "Point"}, "id": "Uao2uGd1sfqOGROTaFJVb9B0hYk=", "properties": {"@spider": "usps_collection_boxes", "addr:city": "FAUNSDALE", "addr:country": "US", "addr:full": "35570 AL HIGHWAY 25", "addr:postcode": "36738", "addr:state": "AL", "amenity": "post_box", "brand": "United States Postal Service", "brand:wikidata": "Q668687", "collection_times": "Mo-Fr 11:15; Sa 11:00", "name": "USPS COLLECTION BOX - PO LOBBY", "nsi_id": "unitedstatespostalservice-a77078", "operator": "United States Postal Service", "operator:short": "USPS", "operator:type": "public", "operator:wikidata": "Q668687", "ref": "3673800001"}, "type": "Feature"}
{"dataset_attributes": {"@spider": "usps_collection_boxes", "spider:collection_time": "2023-10-16T08:26:35.141500"}, "geometry": {"coordinates": [-87.593693532, 32.459235022], "type": "Point"}, "id": "2IIZnXocMxLBPKAKzprpGgojJQ8=", "properties": {"@spider": "usps_collection_boxes", "addr:city": "FAUNSDALE", "addr:country": "US", "addr:full": "35570 AL HIGHWAY 25", "addr:postcode": "36738", "addr:state": "AL", "amenity": "post_box", "brand": "United States Postal Service", "brand:wikidata": "Q668687", "collection_times": "Mo-Fr 11:15; Sa 11:00", "name": "USPS COLLECTION BOX - PO LOBBY", "nsi_id": "unitedstatespostalservice-a77078", "operator": "United States Postal Service", "operator:short": "USPS", "operator:type": "public", "operator:wikidata": "Q668687", "ref": "3673800003"}, "type": "Feature"}
{"dataset_attributes": {"@spider": "usps_collection_boxes", "spider:collection_time": "2023-10-16T08:26:35.141500"}, "geometry": {"coordinates": [-87.845587, 32.642662], "type": "Point"}, "id": "42JTq2A605B_0JvGiHQ7_RgcsAg=", "properties": {"@spider": "usps_collection_boxes", "addr:city": "FORKLAND", "addr:country": "US", "addr:full": "3663 M L KING DR", "addr:postcode": "36740", "addr:state": "AL", "amenity": "post_box", "brand": "United States Postal Service", "brand:wikidata": "Q668687", "collection_times": "Mo-Fr 12:00; Sa 11:00", "name": "USPS COLLECTION BOX - BLUE BOX", "nsi_id": "unitedstatespostalservice-a77078", "operator": "United States Postal Service", "operator:short": "USPS", "operator:type": "public", "operator:wikidata": "Q668687", "ref": "3674000000"}, "type": "Feature"}
{"dataset_attributes": {"@spider": "usps_collection_boxes", "spider:collection_time": "2023-10-16T08:26:35.141500"}, "geometry": {"coordinates": [-87.868718, 32.642912], "type": "Point"}, "id": "riEz3crBYP8NvDHfmG2P7fgCcq8=", "properties": {"@spider": "usps_collection_boxes", "addr:city": "FORKLAND", "addr:country": "US", "addr:full": "3663 M L KING DR", "addr:postcode": "36740", "addr:state": "AL", "amenity": "post_box", "brand": "United States Postal Service", "brand:wikidata": "Q668687", "collection_times": "Mo-Fr 12:00; Sa 11:00", "name": "USPS COLLECTION BOX - PO LOBBY", "nsi_id": "unitedstatespostalservice-a77078", "operator": "United States Postal Service", "operator:short": "USPS", "operator:type": "public", "operator:wikidata": "Q668687", "ref": "3674000001"}, "type": "Feature"}
{"dataset_attributes": {"@spider": "usps_collection_boxes", "spider:collection_time": "2023-10-16T08:26:35.141500"}, "geometry": {"coordinates": [-87.879667685, 32.645680804], "type": "Point"}, "id": "8tATXWw7vdxhbisntIb_OiZgThg=", "properties": {"@spider": "usps_collection_boxes", "addr:city": "FORKLAND", "addr:country": "US", "addr:full": "3663 M L KING DR", "addr:postcode": "36740", "addr:state": "AL", "amenity": "post_box", "brand": "United States Postal Service", "brand:wikidata": "Q668687", "collection_times": "Mo-Fr 12:00; Sa 11:30", "name": "USPS COLLECTION BOX - PO LOBBY", "nsi_id": "unitedstatespostalservice-a77078", "operator": "United States Postal Service", "operator:short": "USPS", "operator:type": "public", "operator:wikidata": "Q668687", "ref": "3674000003"}, "type": "Feature"}
{"dataset_attributes": {"@spider": "usps_collection_boxes", "spider:collection_time": "2023-10-16T08:26:35.141500"}, "geometry": {"coordinates": [-86.965674, 32.005725], "type": "Point"}, "id": "3bnKspEkHjvXmcC1Dvrw6WPoxcM=", "properties": {"@spider": "usps_collection_boxes", "addr:city": "FURMAN", "addr:country": "US", "addr:full": "8545 COUNTY ROAD 59", "addr:postcode": "36741", "addr:state": "AL", "amenity": "post_box", "brand": "United States Postal Service", "brand:wikidata": "Q668687", "collection_times": "Mo-Sa 13:45", "name": "USPS COLLECTION BOX - BLUE BOX", "note": "ON 12/24 AND 12/31, THIS BOX MAY BE COLLECTED AS EARLY AS 12 NOON.", "nsi_id": "unitedstatespostalservice-a77078", "operator": "United States Postal Service", "operator:short": "USPS", "operator:type": "public", "operator:wikidata": "Q668687", "ref": "3674100000"}, "type": "Feature"}
{"dataset_attributes": {"@spider": "usps_collection_boxes", "spider:collection_time": "2023-10-16T08:26:35.141500"}, "geometry": {"coordinates": [-86.965681, 32.005774], "type": "Point"}, "id": "FEh7m2iBoeSr7JFnROfSSca009E=", "properties": {"@spider": "usps_collection_boxes", "addr:city": "FURMAN", "addr:country": "US", "addr:full": "8545 COUNTY ROAD 59", "addr:postcode": "36741", "addr:state": "AL", "amenity": "post_box", "brand": "United States Postal Service", "brand:wikidata": "Q668687", "collection_times": "Mo-Sa 13:45", "name": "USPS COLLECTION BOX - PO LOBBY", "note": "ON 12/24 AND 12/31, THIS BOX MAY BE COLLECTED AS EARLY AS 12 NOON.", "nsi_id": "unitedstatespostalservice-a77078", "operator": "United States Postal Service", "operator:short": "USPS", "operator:type": "public", "operator:wikidata": "Q668687", "ref": "3674100001"}, "type": "Feature"}
{"dataset_attributes": {"@spider": "usps_collection_boxes", "spider:collection_time": "2023-10-16T08:26:35.141500"}, "geometry": {"coordinates": [-86.964833354, 32.004488702], "type": "Point"}, "id": "LwsAE_Z_8imKHUACQMyn1tQGFjo=", "properties": {"@spider": "usps_collection_boxes", "addr:city": "FURMAN", "addr:country": "US", "addr:full": "8545 COUNTY ROAD 59", "addr:postcode": "36741", "addr:state": "AL", "amenity": "post_box", "brand": "United States Postal Service", "brand:wikidata": "Q668687", "collection_times": "Mo-Sa 14:00", "name": "USPS COLLECTION BOX - PO LOBBY", "note": "ON 12/24 AND 12/31, THIS BOX MAY BE COLLECTED AS EARLY AS 12 NOON.", "nsi_id": "unitedstatespostalservice-a77078", "operator": "United States Postal Service", "operator:short": "USPS", "operator:type": "public", "operator:wikidata": "Q668687", "ref": "3674100002"}, "type": "Feature"}
{"dataset_attributes": {"@spider": "usps_collection_boxes", "spider:collection_time": "2023-10-16T08:26:35.141500"}, "geometry": {"coordinates": [-87.67916, 32.501156], "type": "Point"}, "id": "o3oe3fb3oNlMie07TMeDwnOOeKI=", "properties": {"@spider": "usps_collection_boxes", "addr:city": "GALLION", "addr:country": "US", "addr:full": "505 GALLION RD", "addr:postcode": "36742", "addr:state": "AL", "amenity": "post_box", "brand": "United States Postal Service", "brand:wikidata": "Q668687", "collection_times": "Mo-Fr 15:00; Sa 10:00", "name": "USPS COLLECTION BOX - BLUE BOX", "note": "ON 12/24 AND 12/31, THIS BOX MAY BE COLLECTED AS EARLY AS 12 NOON.", "nsi_id": "unitedstatespostalservice-a77078", "operator": "United States Postal Service", "operator:short": "USPS", "operator:type": "public", "operator:wikidata": "Q668687", "ref": "3674200000"}, "type": "Feature"}
{"dataset_attributes": {"@spider": "usps_collection_boxes", "spider:collection_time": "2023-10-16T08:26:35.141500"}, "geometry": {"coordinates": [-87.67916, 32.501156], "type": "Point"}, "id": "D6Fbn435K1s1umhzxtyN02S25dU=", "properties": {"@spider": "usps_collection_boxes", "addr:city": "GALLION", "addr:country": "US", "addr:full": "505 GALLION RD", "addr:postcode": "36742", "addr:state": "AL", "amenity": "post_box", "brand": "United States Postal Service", "brand:wikidata": "Q668687", "collection_times": "Mo-Fr 15:00; Sa 10:00", "name": "USPS COLLECTION BOX - PO LOBBY", "note": "ON 12/24 AND 12/31, THIS BOX MAY BE COLLECTED AS EARLY AS 12 NOON.", "nsi_id": "unitedstatespostalservice-a77078", "operator": "United States Postal Service", "operator:short": "USPS", "operator:type": "public", "operator:wikidata": "Q668687", "ref": "3674200001"}, "type": "Feature"}
{"dataset_attributes": {"@spider": "usps_collection_boxes", "spider:collection_time": "2023-10-16T08:26:35.141500"}, "geometry": {"coordinates": [-87.679077058, 32.501116897], "type": "Point"}, "id": "qE9p4cT64UjX9bQzMnjv9JxVoh0=", "properties": {"@spider": "usps_collection_boxes", "addr:city": "GALLION", "addr:country": "US", "addr:full": "505 GALLION RD", "addr:postcode": "36742", "addr:state": "AL", "amenity": "post_box", "brand": "United States Postal Service", "brand:wikidata": "Q668687", "collection_times": "Mo-Fr 15:00; Sa 10:00", "name": "USPS COLLECTION BOX - PO LOBBY", "note": "ON 12/24 AND 12/31, THIS BOX MAY BE COLLECTED AS EARLY AS 12 NOON.", "nsi_id": "unitedstatespostalservice-a77078", "operator": "United States Postal Service", "operator:short": "USPS", "operator:type": "public", "operator:wikidata": "Q668687", "ref": "3674200003"}, "type": "Feature"}
{"dataset_attributes": {"@spider": "usps_collection_boxes", "spider:collection_time": "2023-10-16T08:26:35.141500"}, "geometry": {"coordinates": [-87.596577, 32.704107], "type": "Point"}, "id": "KO_9YVcmATGl94YK_ZVbEEgRhPw=", "properties": {"@spider": "usps_collection_boxes", "addr:city": "GREENSBORO", "addr:country": "US", "addr:full": "1501 MAIN ST", "addr:postcode": "36744", "addr:state": "AL", "amenity": "post_box", "brand": "United States Postal Service", "brand:wikidata": "Q668687", "collection_times": "Mo-Fr 16:00; Sa 12:00", "name": "USPS COLLECTION BOX - BLUE BOX", "note": "ON 12/24 AND 12/31, THIS BOX MAY BE COLLECTED AS EARLY AS 12 NOON.", "nsi_id": "unitedstatespostalservice-a77078", "operator": "United States Postal Service", "operator:short": "USPS", "operator:type": "public", "operator:wikidata": "Q668687", "ref": "3674400001"}, "type": "Feature"}
{"dataset_attributes": {"@spider": "usps_collection_boxes", "spider:collection_time": "2023-10-16T08:26:35.141500"}, "geometry": {"coordinates": [-87.596577, 32.704107], "type": "Point"}, "id": "Y4bILYgr6_PTT3yhHlp8cPgK2Uc=", "properties": {"@spider": "usps_collection_boxes", "addr:city": "GREENSBORO", "addr:country": "US", "addr:full": "1501 MAIN ST", "addr:postcode": "36744", "addr:state": "AL", "amenity": "post_box", "brand": "United States Postal Service", "brand:wikidata": "Q668687", "collection_times": "Mo-Fr 16:00; Sa 12:00", "name": "USPS COLLECTION BOX - PO LOBBY", "note": "ON 12/24 AND 12/31, THIS BOX MAY BE COLLECTED AS EARLY AS 12 NOON.", "nsi_id": "unitedstatespostalservice-a77078", "operator": "United States Postal Service", "operator:short": "USPS", "operator:type": "public", "operator:wikidata": "Q668687", "ref": "3674400004"}, "type": "Feature"}
{"dataset_attributes": {"@spider": "usps_collection_boxes", "spider:collection_time": "2023-10-16T08:26:35.141500"}, "geometry": {"coordinates": [-87.5924605, 32.704052], "type": "Point"}, "id": "kh5-MWotXcLzEvdxCu1OzhAUwpA=", "properties": {"@spider": "usps_collection_boxes", "addr:city": "GREENSBORO", "addr:country": "US", "addr:full": "1001 MAIN ST", "addr:postcode": "36744", "addr:state": "AL", "amenity": "post_box", "brand": "United States Postal Service", "brand:wikidata": "Q668687", "collection_times": "Mo-Sa 12:00", "name": "USPS COLLECTION BOX - BLUE BOX", "nsi_id": "unitedstatespostalservice-a77078", "operator": "United States Postal Service", "operator:short": "USPS", "operator:type": "public", "operator:wikidata": "Q668687", "ref": "3674400005"}, "type": "Feature"}
{"dataset_attributes": {"@spider": "usps_collection_boxes", "spider:collection_time": "2023-10-16T08:26:35.141500"}, "geometry": {"coordinates": [-87.5934739, 32.704177], "type": "Point"}, "id": "6ot8DsTPIzbMlhE1frNW6H8xRwc=", "properties": {"@spider": "usps_collection_boxes", "addr:city": "GREENSBORO", "addr:country": "US", "addr:full": "1130 MAIN ST", "addr:postcode": "36744", "addr:state": "AL", "amenity": "post_box", "brand": "United States Postal Service", "brand:wikidata": "Q668687", "collection_times": "Mo-Sa 12:00", "name": "USPS COLLECTION BOX - BLUE BOX", "nsi_id": "unitedstatespostalservice-a77078", "operator": "United States Postal Service", "operator:short": "USPS", "operator:type": "public", "operator:wikidata": "Q668687", "ref": "3674400006"}, "type": "Feature"}
{"dataset_attributes": {"@spider": "usps_collection_boxes", "spider:collection_time": "2023-10-16T08:26:35.141500"}, "geometry": {"coordinates": [-87.596541447, 32.704060053], "type": "Point"}, "id": "zV2VzYYuJ3qnHnhBv4bSvB-ZeZo=", "properties": {"@spider": "usps_collection_boxes", "addr:city": "GREENSBORO", "addr:country": "US", "addr:full": "1501 MAIN ST", "addr:postcode": "36744", "addr:state": "AL", "amenity": "post_box", "brand": "United States Postal Service", "brand:wikidata": "Q668687", "collection_times": "Mo-Fr 16:00; Sa 12:00", "name": "USPS COLLECTION BOX - PO LOBBY", "note": "ON 12/24 AND 12/31, THIS BOX MAY BE COLLECTED AS EARLY AS 12 NOON.", "nsi_id": "unitedstatespostalservice-a77078", "operator": "United States Postal Service", "operator:short": "USPS", "operator:type": "public", "operator:wikidata": "Q668687", "ref": "3674400009"}, "type": "Feature"}
{"dataset_attributes": {"@spider": "usps_collection_boxes", "spider:collection_time": "2023-10-16T08:26:35.141500"}, "geometry": {"coordinates": [-87.799285, 32.304107], "type": "Point"}, "id": "L9LWa0TwFGrD_jSRyhUumlZaCH8=", "properties": {"@spider": "usps_collection_boxes", "addr:city": "LINDEN", "addr:country": "US", "addr:full": "125 W 7TH AVE", "addr:postcode": "36748", "addr:state": "AL", "amenity": "post_box", "brand": "United States Postal Service", "brand:wikidata": "Q668687", "collection_times": "Mo-Sa 16:00", "name": "USPS COLLECTION BOX - BLUE BOX", "note": "ON 12/24 AND 12/31, THIS BOX MAY BE COLLECTED AS EARLY AS 12 NOON.", "nsi_id": "unitedstatespostalservice-a77078", "operator": "United States Postal Service", "operator:short": "USPS", "operator:type": "public", "operator:wikidata": "Q668687", "ref": "3674800003"}, "type": "Feature"}
{"dataset_attributes": {"@spider": "usps_collection_boxes", "spider:collection_time": "2023-10-16T08:26:35.141500"}, "geometry": {"coordinates": [-87.799285, 32.304107], "type": "Point"}, "id": "MkrVAFUHYuCxpD3ZpIfLf3vYl-A=", "properties": {"@spider": "usps_collection_boxes", "addr:city": "LINDEN", "addr:country": "US", "addr:full": "125 W 7TH AVE", "addr:postcode": "36748", "addr:state": "AL", "amenity": "post_box", "brand": "United States Postal Service", "brand:wikidata": "Q668687", "collection_times": "Mo-Sa 16:30", "name": "USPS COLLECTION BOX - PO LOBBY", "note": "ON 12/24 AND 12/31, THIS BOX MAY BE COLLECTED AS EARLY AS 12 NOON.", "nsi_id": "unitedstatespostalservice-a77078", "operator": "United States Postal Service", "operator:short": "USPS", "operator:type": "public", "operator:wikidata": "Q668687", "ref": "3674800005"}, "type": "Feature"}
{"dataset_attributes": {"@spider": "usps_collection_boxes", "spider:collection_time": "2023-10-16T08:26:35.141500"}, "geometry": {"coordinates": [-87.799257838, 32.304134184], "type": "Point"}, "id": "JJ1ByNPXCuOXYvxpv3BKFi7pRto=", "properties": {"@spider": "usps_collection_boxes", "addr:city": "LINDEN", "addr:country": "US", "addr:full": "125 W 7TH AVE", "addr:postcode": "36748", "addr:state": "AL", "amenity": "post_box", "brand": "United States Postal Service", "brand:wikidata": "Q668687", "collection_times": "Mo-Fr 16:30; Sa 12:00", "name": "USPS COLLECTION BOX - PO LOBBY", "note": "ON 12/24 AND 12/31, THIS BOX MAY BE COLLECTED AS EARLY AS 12 NOON.", "nsi_id": "unitedstatespostalservice-a77078", "operator": "United States Postal Service", "operator:short": "USPS", "operator:type": "public", "operator:wikidata": "Q668687", "ref": "3674800007"}, "type": "Feature"}
{"dataset_attributes": {"@spider": "usps_collection_boxes", "spider:collection_time": "2023-10-16T08:26:35.141500"}, "geometry": {"coordinates": [-86.897964, 32.587057], "type": "Point"}, "id": "xgJzabqFcgvDTMMw2XIU7VRvEWQ=", "properties": {"@spider": "usps_collection_boxes", "addr:city": "JONES", "addr:country": "US", "addr:full": "891 SHORT ST", "addr:postcode": "36749", "addr:state": "AL", "amenity": "post_box", "brand": "United States Postal Service", "brand:wikidata": "Q668687", "collection_times": "Mo-Fr 11:45; Sa 10:00", "name": "USPS COLLECTION BOX - BLUE BOX", "nsi_id": "unitedstatespostalservice-a77078", "operator": "United States Postal Service", "operator:short": "USPS", "operator:type": "public", "operator:wikidata": "Q668687", "ref": "3674900000"}, "type": "Feature"}
{"dataset_attributes": {"@spider": "usps_collection_boxes", "spider:collection_time": "2023-10-16T08:26:35.141500"}, "geometry": {"coordinates": [-86.897964, 32.587057], "type": "Point"}, "id": "6JSf5j59SAygVpTGGhbjKt15CJE=", "properties": {"@spider": "usps_collection_boxes", "addr:city": "JONES", "addr:country": "US", "addr:full": "891 SHORT ST", "addr:postcode": "36749", "addr:state": "AL", "amenity": "post_box", "brand": "United States Postal Service", "brand:wikidata": "Q668687", "collection_times": "Mo-Fr 11:45; Sa 10:00", "name": "USPS COLLECTION BOX - PO LOBBY", "nsi_id": "unitedstatespostalservice-a77078", "operator": "United States Postal Service", "operator:short": "USPS", "operator:type": "public", "operator:wikidata": "Q668687", "ref": "3674900001"}, "type": "Feature"}
{"dataset_attributes": {"@spider": "usps_collection_boxes", "spider:collection_time": "2023-10-16T08:26:35.141500"}, "geometry": {"coordinates": [-86.897783679, 32.58642435], "type": "Point"}, "id": "Ty0mGrKP_5VehzGCLWIUDqBaxC0=", "properties": {"@spider": "usps_collection_boxes", "addr:city": "JONES", "addr:country": "US", "addr:full": "891 SHORT ST", "addr:postcode": "36749", "addr:state": "AL", "amenity": "post_box", "brand": "United States Postal Service", "brand:wikidata": "Q668687", "collection_times": "Mo-Fr 12:00; Sa 10:00", "name": "USPS COLLECTION BOX - PO LOBBY", "nsi_id": "unitedstatespostalservice-a77078", "operator": "United States Postal Service", "operator:short": "USPS", "operator:type": "public", "operator:wikidata": "Q668687", "ref": "3674900003"}, "type": "Feature"}
{"dataset_attributes": {"@spider": "usps_collection_boxes", "spider:collection_time": "2023-10-16T08:26:35.141500"}, "geometry": {"coordinates": [-86.87193, 32.787956], "type": "Point"}, "id": "jJ9OczTedB8z4mRvjyeTsSBNCuA=", "properties": {"@spider": "usps_collection_boxes", "addr:city": "MAPLESVILLE", "addr:country": "US", "addr:full": "9370 AL HIGHWAY 22", "addr:postcode": "36750", "addr:state": "AL", "amenity": "post_box", "brand": "United States Postal Service", "brand:wikidata": "Q668687", "collection_times": "Mo-Fr 16:00; Sa 10:00", "name": "USPS COLLECTION BOX - PO LOBBY", "note": "ON 12/24 AND 12/31, THIS BOX MAY BE COLLECTED AS EARLY AS 12 NOON.", "nsi_id": "unitedstatespostalservice-a77078", "operator": "United States Postal Service", "operator:short": "USPS", "operator:type": "public", "operator:wikidata": "Q668687", "ref": "3675000003"}, "type": "Feature"}
{"dataset_attributes": {"@spider": "usps_collection_boxes", "spider:collection_time": "2023-10-16T08:26:35.141500"}, "geometry": {"coordinates": [-86.87193, 32.787956], "type": "Point"}, "id": "5zIVli_XOS9QCs7nutHB5f7QM7s=", "properties": {"@spider": "usps_collection_boxes", "addr:city": "MAPLESVILLE", "addr:country": "US", "addr:full": "9370 AL HIGHWAY 22", "addr:postcode": "36750", "addr:state": "AL", "amenity": "post_box", "brand": "United States Postal Service", "brand:wikidata": "Q668687", "collection_times": "Mo-Fr 16:00; Sa 10:00", "name": "USPS COLLECTION BOX - BLUE BOX", "note": "ON 12/24 AND 12/31, THIS BOX MAY BE COLLECTED AS EARLY AS 12 NOON.", "nsi_id": "unitedstatespostalservice-a77078", "operator": "United States Postal Service", "operator:short": "USPS", "operator:type": "public", "operator:wikidata": "Q668687", "ref": "3675000005"}, "type": "Feature"}
{"dataset_attributes": {"@spider": "usps_collection_boxes", "spider:collection_time": "2023-10-16T08:26:35.141500"}, "geometry": {"coordinates": [-86.871851162, 32.788124015], "type": "Point"}, "id": "195J51cEZFvox18Bk3lA8GoNeBM=", "properties": {"@spider": "usps_collection_boxes", "addr:city": "MAPLESVILLE", "addr:country": "US", "addr:full": "9370 AL HIGHWAY 22", "addr:postcode": "36750", "addr:state": "AL", "amenity": "post_box", "brand": "United States Postal Service", "brand:wikidata": "Q668687", "collection_times": "Mo-Fr 16:00; Sa 10:00", "name": "USPS COLLECTION BOX - PO LOBBY", "note": "ON 12/24 AND 12/31, THIS BOX MAY BE COLLECTED AS EARLY AS 12 NOON.", "nsi_id": "unitedstatespostalservice-a77078", "operator": "United States Postal Service", "operator:short": "USPS", "operator:type": "public", "operator:wikidata": "Q668687", "ref": "3675000006"}, "type": "Feature"}
{"dataset_attributes": {"@spider": "usps_collection_boxes", "spider:collection_time": "2023-10-16T08:26:35.141500"}, "geometry": {"coordinates": [-87.544505, 31.841031], "type": "Point"}, "id": "cidh2ciZQVm117-gdPIrwtm5oIg=", "properties": {"@spider": "usps_collection_boxes", "addr:city": "LWR PCH TREE", "addr:country": "US", "addr:full": "24 COUNTY ROAD 35 E", "addr:postcode": "36751", "addr:state": "AL", "amenity": "post_box", "brand": "United States Postal Service", "brand:wikidata": "Q668687", "collection_times": "Mo-Fr 12:00; Sa 10:30", "name": "USPS COLLECTION BOX - PO LOBBY", "nsi_id": "unitedstatespostalservice-a77078", "operator": "United States Postal Service", "operator:short": "USPS", "operator:type": "public", "operator:wikidata": "Q668687", "ref": "3675100000"}, "type": "Feature"}
{"dataset_attributes": {"@spider": "usps_collection_boxes", "spider:collection_time": "2023-10-16T08:26:35.141500"}, "geometry": {"coordinates": [-87.544505, 31.841031], "type": "Point"}, "id": "KrjKcSYHmGQtXbSckWfyzSP3D5c=", "properties": {"@spider": "usps_collection_boxes", "addr:city": "LWR PCH TREE", "addr:country": "US", "addr:full": "24 COUNTY ROAD 35 E", "addr:postcode": "36751", "addr:state": "AL", "amenity": "post_box", "brand": "United States Postal Service", "brand:wikidata": "Q668687", "collection_times": "Mo-Fr 12:00; Sa 10:30", "name": "USPS COLLECTION BOX - BLUE BOX", "nsi_id": "unitedstatespostalservice-a77078", "operator": "United States Postal Service", "operator:short": "USPS", "operator:type": "public", "operator:wikidata": "Q668687", "ref": "3675100001"}, "type": "Feature"}
{"dataset_attributes": {"@spider": "usps_collection_boxes", "spider:collection_time": "2023-10-16T08:26:35.141500"}, "geometry": {"coordinates": [-87.544529501, 31.840965409], "type": "Point"}, "id": "Cnj3avUYo_qdlomQLImxKkDsd3w=", "properties": {"@spider": "usps_collection_boxes", "addr:city": "LWR PCH TREE", "addr:country": "US", "addr:full": "24 COUNTY ROAD 35 E", "addr:postcode": "36751", "addr:state": "AL", "amenity": "post_box", "brand": "United States Postal Service", "brand:wikidata": "Q668687", "collection_times": "Mo-Sa 12:00", "name": "USPS COLLECTION BOX - PO LOBBY", "nsi_id": "unitedstatespostalservice-a77078", "operator": "United States Postal Service", "operator:short": "USPS", "operator:type": "public", "operator:wikidata": "Q668687", "ref": "3675100003"}, "type": "Feature"}
{"dataset_attributes": {"@spider": "usps_collection_boxes", "spider:collection_time": "2023-10-16T08:26:35.141500"}, "geometry": {"coordinates": [-86.608069, 32.283051], "type": "Point"}, "id": "RenJsjQmE72i6XT_rEi8Pm-a22s=", "properties": {"@spider": "usps_collection_boxes", "addr:city": "LOWNDESBORO", "addr:country": "US", "addr:full": "1 N BROAD ST", "addr:postcode": "36752", "addr:state": "AL", "amenity": "post_box", "brand": "United States Postal Service", "brand:wikidata": "Q668687", "collection_times": "Mo-Fr 14:30; Sa 09:30", "name": "USPS COLLECTION BOX - BLUE BOX", "note": "ON 12/24 AND 12/31, THIS BOX MAY BE COLLECTED AS EARLY AS 12 NOON.", "nsi_id": "unitedstatespostalservice-a77078", "operator": "United States Postal Service", "operator:short": "USPS", "operator:type": "public", "operator:wikidata": "Q668687", "ref": "3675200000"}, "type": "Feature"}
{"dataset_attributes": {"@spider": "usps_collection_boxes", "spider:collection_time": "2023-10-16T08:26:35.141500"}, "geometry": {"coordinates": [-86.608069, 32.283051], "type": "Point"}, "id": "kF_URJh8svIzazdCZbFskdWsirA=", "properties": {"@spider": "usps_collection_boxes", "addr:city": "LOWNDESBORO", "addr:country": "US", "addr:full": "1 N BROAD ST", "addr:postcode": "36752", "addr:state": "AL", "amenity": "post_box", "brand": "United States Postal Service", "brand:wikidata": "Q668687", "collection_times": "Mo-Fr 14:30; Sa 09:30", "name": "USPS COLLECTION BOX - PO LOBBY", "note": "ON 12/24 AND 12/31, THIS BOX MAY BE COLLECTED AS EARLY AS 12 NOON.", "nsi_id": "unitedstatespostalservice-a77078", "operator": "United States Postal Service", "operator:short": "USPS", "operator:type": "public", "operator:wikidata": "Q668687", "ref": "3675200001"}, "type": "Feature"}
{"dataset_attributes": {"@spider": "usps_collection_boxes", "spider:collection_time": "2023-10-16T08:26:35.141500"}, "geometry": {"coordinates": [-86.60973742, 32.28118668], "type": "Point"}, "id": "vqJguByjcPuJ-y7zXB7WFVaBhdo=", "properties": {"@spider": "usps_collection_boxes", "addr:city": "LOWNDESBORO", "addr:country": "US", "addr:full": "1 N BROAD ST", "addr:postcode": "36752", "addr:state": "AL", "amenity": "post_box", "brand": "United States Postal Service", "brand:wikidata": "Q668687", "collection_times": "Mo-Fr 14:30; Sa 09:30", "name": "USPS COLLECTION BOX - PO LOBBY", "note": "ON 12/24 AND 12/31, THIS BOX MAY BE COLLECTED AS EARLY AS 12 NOON.", "nsi_id": "unitedstatespostalservice-a77078", "operator": "United States Postal Service", "operator:short": "USPS", "operator:type": "public", "operator:wikidata": "Q668687", "ref": "3675200003"}, "type": "Feature"}
{"dataset_attributes": {"@spider": "usps_collection_boxes", "spider:collection_time": "2023-10-16T08:26:35.141500"}, "geometry": {"coordinates": [-87.665571, 32.135902], "type": "Point"}, "id": "6FTwUoO0WHJdjhRrGHc2aucadXM=", "properties": {"@spider": "usps_collection_boxes", "addr:city": "MAGNOLIA", "addr:country": "US", "addr:full": "5716 COUNTY ROAD 30", "addr:postcode": "36754", "addr:state": "AL", "amenity": "post_box", "brand": "United States Postal Service", "brand:wikidata": "Q668687", "collection_times": "Mo-Fr 10:50; Sa 11:45", "name": "USPS COLLECTION BOX - BLUE BOX", "nsi_id": "unitedstatespostalservice-a77078", "operator": "United States Postal Service", "operator:short": "USPS", "operator:type": "public", "operator:wikidata": "Q668687", "ref": "3675400000"}, "type": "Feature"}
{"dataset_attributes": {"@spider": "usps_collection_boxes", "spider:collection_time": "2023-10-16T08:26:35.141500"}, "geometry": {"coordinates": [-87.665571, 32.135902], "type": "Point"}, "id": "RpdT8eqaa38y9XoBTcRLNMnUY1A=", "properties": {"@spider": "usps_collection_boxes", "addr:city": "MAGNOLIA", "addr:country": "US", "addr:full": "5716 COUNTY ROAD 30", "addr:postcode": "36754", "addr:state": "AL", "amenity": "post_box", "brand": "United States Postal Service", "brand:wikidata": "Q668687", "collection_times": "Mo-Fr 10:50; Sa 11:45", "name": "USPS COLLECTION BOX - PO LOBBY", "nsi_id": "unitedstatespostalservice-a77078", "operator": "United States Postal Service", "operator:short": "USPS", "operator:type": "public", "operator:wikidata": "Q668687", "ref": "3675400001"}, "type": "Feature"}
{"dataset_attributes": {"@spider": "usps_collection_boxes", "spider:collection_time": "2023-10-16T08:26:35.141500"}, "geometry": {"coordinates": [-87.66558494, 32.135939324], "type": "Point"}, "id": "hoWSL5pPzRxg3muk_rm1QpJvLAM=", "properties": {"@spider": "usps_collection_boxes", "addr:city": "MAGNOLIA", "addr:country": "US", "addr:full": "5716 COUNTY ROAD 30", "addr:postcode": "36754", "addr:state": "AL", "amenity": "post_box", "brand": "United States Postal Service", "brand:wikidata": "Q668687", "collection_times": "Mo-Fr 11:00; Sa 11:45", "name": "USPS COLLECTION BOX - PO LOBBY", "nsi_id": "unitedstatespostalservice-a77078", "operator": "United States Postal Service", "operator:short": "USPS", "operator:type": "public", "operator:wikidata": "Q668687", "ref": "3675400003"}, "type": "Feature"}
{"dataset_attributes": {"@spider": "usps_collection_boxes", "spider:collection_time": "2023-10-16T08:26:35.141500"}, "geometry": {"coordinates": [-87.317959, 32.633268], "type": "Point"}, "id": "4nZ0m_APzVst7i2kXeL7cY_Qdho=", "properties": {"@spider": "usps_collection_boxes", "addr:city": "MARION", "addr:country": "US", "addr:full": "306 PICKENS ST", "addr:postcode": "36756", "addr:state": "AL", "amenity": "post_box", "brand": "United States Postal Service", "brand:wikidata": "Q668687", "collection_times": "Mo-Fr 15:30; Sa 12:00", "name": "USPS COLLECTION BOX - BLUE BOX", "note": "ON 12/24 AND 12/31, THIS BOX MAY BE COLLECTED AS EARLY AS 12 NOON.", "nsi_id": "unitedstatespostalservice-a77078", "operator": "United States Postal Service", "operator:short": "USPS", "operator:type": "public", "operator:wikidata": "Q668687", "ref": "3675600001"}, "type": "Feature"}
{"dataset_attributes": {"@spider": "usps_collection_boxes", "spider:collection_time": "2023-10-16T08:26:35.141500"}, "geometry": {"coordinates": [-87.317959, 32.633268], "type": "Point"}, "id": "0v7XvUG5ia2Y_zhwDYv4k_Tir5g=", "properties": {"@spider": "usps_collection_boxes", "addr:city": "MARION", "addr:country": "US", "addr:full": "306 PICKENS ST", "addr:postcode": "36756", "addr:state": "AL", "amenity": "post_box", "brand": "United States Postal Service", "brand:wikidata": "Q668687", "collection_times": "Mo-Fr 15:30; Sa 12:00", "name": "USPS COLLECTION BOX - BLUE BOX", "note": "ON 12/24 AND 12/31, THIS BOX MAY BE COLLECTED AS EARLY AS 12 NOON.", "nsi_id": "unitedstatespostalservice-a77078", "operator": "United States Postal Service", "operator:short": "USPS", "operator:type": "public", "operator:wikidata": "Q668687", "ref": "3675600003"}, "type": "Feature"}
{"dataset_attributes": {"@spider": "usps_collection_boxes", "spider:collection_time": "2023-10-16T08:26:35.141500"}, "geometry": {"coordinates": [-87.3190773, 32.632872], "type": "Point"}, "id": "CQzGOPHeBDRX5c004wACArOO9O8=", "properties": {"@spider": "usps_collection_boxes", "addr:city": "MARION", "addr:country": "US", "addr:full": "323 WASHINGTON ST", "addr:postcode": "36756", "addr:state": "AL", "amenity": "post_box", "brand": "United States Postal Service", "brand:wikidata": "Q668687", "collection_times": "Mo-Sa 12:30", "name": "USPS COLLECTION BOX - BLUE BOX", "note": "ON 12/24 AND 12/31, THIS BOX MAY BE COLLECTED AS EARLY AS 12 NOON.", "nsi_id": "unitedstatespostalservice-a77078", "operator": "United States Postal Service", "operator:short": "USPS", "operator:type": "public", "operator:wikidata": "Q668687", "ref": "3675600005"}, "type": "Feature"}
{"dataset_attributes": {"@spider": "usps_collection_boxes", "spider:collection_time": "2023-10-16T08:26:35.141500"}, "geometry": {"coordinates": [-87.32184, 32.6288], "type": "Point"}, "id": "Vrrm41sLfhj8MezNysXJgfanuq8=", "properties": {"@spider": "usps_collection_boxes", "addr:city": "MARION", "addr:country": "US", "addr:full": "1101 WASHINGTON ST", "addr:postcode": "36756", "addr:state": "AL", "amenity": "post_box", "brand": "United States Postal Service", "brand:wikidata": "Q668687", "collection_times": "Mo-Sa 09:30", "name": "USPS COLLECTION BOX - BLUE BOX", "nsi_id": "unitedstatespostalservice-a77078", "operator": "United States Postal Service", "operator:short": "USPS", "operator:type": "public", "operator:wikidata": "Q668687", "ref": "3675600006"}, "type": "Feature"}
{"dataset_attributes": {"@spider": "usps_collection_boxes", "spider:collection_time": "2023-10-16T08:26:35.141500"}, "geometry": {"coordinates": [-87.317959, 32.633268], "type": "Point"}, "id": "oTgdyOu_gd5rGJwub9LILxHNdCs=", "properties": {"@spider": "usps_collection_boxes", "addr:city": "MARION", "addr:country": "US", "addr:full": "306 PICKENS ST", "addr:postcode": "36756", "addr:state": "AL", "amenity": "post_box", "brand": "United States Postal Service", "brand:wikidata": "Q668687", "collection_times": "Mo-Fr 15:30; Sa 12:00", "name": "USPS COLLECTION BOX - PO LOBBY", "note": "ON 12/24 AND 12/31, THIS BOX MAY BE COLLECTED AS EARLY AS 12 NOON.", "nsi_id": "unitedstatespostalservice-a77078", "operator": "United States Postal Service", "operator:short": "USPS", "operator:type": "public", "operator:wikidata": "Q668687", "ref": "3675600007"}, "type": "Feature"}
{"dataset_attributes": {"@spider": "usps_collection_boxes", "spider:collection_time": "2023-10-16T08:26:35.141500"}, "geometry": {"coordinates": [-87.317872109, 32.63327257], "type": "Point"}, "id": "M5qFKejMNBZ7_cjTOPaO639LYAQ=", "properties": {"@spider": "usps_collection_boxes", "addr:city": "MARION", "addr:country": "US", "addr:full": "306 PICKENS ST", "addr:postcode": "36756", "addr:state": "AL", "amenity": "post_box", "brand": "United States Postal Service", "brand:wikidata": "Q668687", "collection_times": "Mo-Fr 16:00; Sa 12:00", "name": "USPS COLLECTION BOX - PO LOBBY", "note": "ON 12/24 AND 12/31, THIS BOX MAY BE COLLECTED AS EARLY AS 12 NOON.", "nsi_id": "unitedstatespostalservice-a77078", "operator": "United States Postal Service", "operator:short": "USPS", "operator:type": "public", "operator:wikidata": "Q668687", "ref": "3675600009"}, "type": "Feature"}
{"dataset_attributes": {"@spider": "usps_collection_boxes", "spider:collection_time": "2023-10-16T08:26:35.141500"}, "geometry": {"coordinates": [-86.924786, 32.659549], "type": "Point"}, "id": "vgb4uRVSlo4npfAV8A3rN_C9tgs=", "properties": {"@spider": "usps_collection_boxes", "addr:city": "PLANTERSVILLE", "addr:country": "US", "addr:full": "235 CHERRY ST", "addr:postcode": "36758", "addr:state": "AL", "amenity": "post_box", "brand": "United States Postal Service", "brand:wikidata": "Q668687", "collection_times": "Mo-Fr 14:45; Sa 10:00", "name": "USPS COLLECTION BOX - BLUE BOX", "note": "ON 12/24 AND 12/31, THIS BOX MAY BE COLLECTED AS EARLY AS 12 NOON.", "nsi_id": "unitedstatespostalservice-a77078", "operator": "United States Postal Service", "operator:short": "USPS", "operator:type": "public", "operator:wikidata": "Q668687", "ref": "3675800000"}, "type": "Feature"}
{"dataset_attributes": {"@spider": "usps_collection_boxes", "spider:collection_time": "2023-10-16T08:26:35.141500"}, "geometry": {"coordinates": [-86.924786, 32.659548], "type": "Point"}, "id": "wOAFg_qeuWpZ0Rz0CrvFIn1NWW8=", "properties": {"@spider": "usps_collection_boxes", "addr:city": "PLANTERSVILLE", "addr:country": "US", "addr:full": "235 CHERRY ST", "addr:postcode": "36758", "addr:state": "AL", "amenity": "post_box", "brand": "United States Postal Service", "brand:wikidata": "Q668687", "collection_times": "Mo-Fr 14:45; Sa 10:00", "name": "USPS COLLECTION BOX - PO LOBBY", "note": "ON 12/24 AND 12/31, THIS BOX MAY BE COLLECTED AS EARLY AS 12 NOON.", "nsi_id": "unitedstatespostalservice-a77078", "operator": "United States Postal Service", "operator:short": "USPS", "operator:type": "public", "operator:wikidata": "Q668687", "ref": "3675800001"}, "type": "Feature"}
{"dataset_attributes": {"@spider": "usps_collection_boxes", "spider:collection_time": "2023-10-16T08:26:35.141500"}, "geometry": {"coordinates": [-86.924746773, 32.659447835], "type": "Point"}, "id": "0Lm2-5EgIbZwAGMS1fTpeFxsFhs=", "properties": {"@spider": "usps_collection_boxes", "addr:city": "PLANTERSVILLE", "addr:country": "US", "addr:full": "236 CHERRY ST", "addr:postcode": "36758", "addr:state": "AL", "amenity": "post_box", "brand": "United States Postal Service", "brand:wikidata": "Q668687", "collection_times": "Mo-Fr 15:00; Sa 10:00", "name": "USPS COLLECTION BOX - PO LOBBY", "note": "ON 12/24 AND 12/31, THIS BOX MAY BE COLLECTED AS EARLY AS 12 NOON.", "nsi_id": "unitedstatespostalservice-a77078", "operator": "United States Postal Service", "operator:short": "USPS", "operator:type": "public", "operator:wikidata": "Q668687", "ref": "3675800003"}, "type": "Feature"}
{"dataset_attributes": {"@spider": "usps_collection_boxes", "spider:collection_time": "2023-10-16T08:26:35.141500"}, "geometry": {"coordinates": [-87.235776, 32.439298], "type": "Point"}, "id": "Ty93_CUXWTLQtTs--JCtBHyN2ZM=", "properties": {"@spider": "usps_collection_boxes", "addr:city": "MARION JUNCTION", "addr:country": "US", "addr:full": "35 CHURCH ST", "addr:postcode": "36759", "addr:state": "AL", "amenity": "post_box", "brand": "United States Postal Service", "brand:wikidata": "Q668687", "collection_times": "Mo-Fr 11:15; Sa 10:15", "name": "USPS COLLECTION BOX - BLUE BOX", "nsi_id": "unitedstatespostalservice-a77078", "operator": "United States Postal Service", "operator:short": "USPS", "operator:type": "public", "operator:wikidata": "Q668687", "ref": "3675900000"}, "type": "Feature"}
{"dataset_attributes": {"@spider": "usps_collection_boxes", "spider:collection_time": "2023-10-16T08:26:35.141500"}, "geometry": {"coordinates": [-87.235776, 32.439298], "type": "Point"}, "id": "sMsqLgZ9_jRqA35Wd1eSdDVkgOQ=", "properties": {"@spider": "usps_collection_boxes", "addr:city": "MARION JUNCTION", "addr:country": "US", "addr:full": "35 CHURCH ST", "addr:postcode": "36759", "addr:state": "AL", "amenity": "post_box", "brand": "United States Postal Service", "brand:wikidata": "Q668687", "collection_times": "Mo-Fr 11:15; Sa 10:15", "name": "USPS COLLECTION BOX - PO LOBBY", "nsi_id": "unitedstatespostalservice-a77078", "operator": "United States Postal Service", "operator:short": "USPS", "operator:type": "public", "operator:wikidata": "Q668687", "ref": "3675900001"}, "type": "Feature"}
{"dataset_attributes": {"@spider": "usps_collection_boxes", "spider:collection_time": "2023-10-16T08:26:35.141500"}, "geometry": {"coordinates": [-87.235753926, 32.439300406], "type": "Point"}, "id": "47GQ253hDyDijTFyDVYObvwtdg0=", "properties": {"@spider": "usps_collection_boxes", "addr:city": "MARION JUNCTION", "addr:country": "US", "addr:full": "35 CHURCH ST", "addr:postcode": "36759", "addr:state": "AL", "amenity": "post_box", "brand": "United States Postal Service", "brand:wikidata": "Q668687", "collection_times": "Mo-Fr 11:30; Sa 10:30", "name": "USPS COLLECTION BOX - PO LOBBY", "nsi_id": "unitedstatespostalservice-a77078", "operator": "United States Postal Service", "operator:short": "USPS", "operator:type": "public", "operator:wikidata": "Q668687", "ref": "3675900003"}, "type": "Feature"}
{"dataset_attributes": {"@spider": "usps_collection_boxes", "spider:collection_time": "2023-10-16T08:26:35.141500"}, "geometry": {"coordinates": [-86.992928, 32.077789], "type": "Point"}, "id": "qXuuFg_gF7aFKCQ-W_woHublPCQ=", "properties": {"@spider": "usps_collection_boxes", "addr:city": "MINTER", "addr:country": "US", "addr:full": "2560 COUNTY ROAD 4", "addr:postcode": "36761", "addr:state": "AL", "amenity": "post_box", "brand": "United States Postal Service", "brand:wikidata": "Q668687", "collection_times": "Mo-Fr 11:30; Sa 10:30", "name": "USPS COLLECTION BOX - BLUE BOX", "nsi_id": "unitedstatespostalservice-a77078", "operator": "United States Postal Service", "operator:short": "USPS", "operator:type": "public", "operator:wikidata": "Q668687", "ref": "3676100000"}, "type": "Feature"}
{"dataset_attributes": {"@spider": "usps_collection_boxes", "spider:collection_time": "2023-10-16T08:26:35.141500"}, "geometry": {"coordinates": [-86.992928, 32.077789], "type": "Point"}, "id": "1qLxQJRe7bMNK0zmT8GEiY4m3pk=", "properties": {"@spider": "usps_collection_boxes", "addr:city": "MINTER", "addr:country": "US", "addr:full": "2560 COUNTY ROAD 4", "addr:postcode": "36761", "addr:state": "AL", "amenity": "post_box", "brand": "United States Postal Service", "brand:wikidata": "Q668687", "collection_times": "Mo-Fr 11:30; Sa 10:30", "name": "USPS COLLECTION BOX - PO LOBBY", "nsi_id": "unitedstatespostalservice-a77078", "operator": "United States Postal Service", "operator:short": "USPS", "operator:type": "public", "operator:wikidata": "Q668687", "ref": "3676100001"}, "type": "Feature"}
{"dataset_attributes": {"@spider": "usps_collection_boxes", "spider:collection_time": "2023-10-16T08:26:35.141500"}, "geometry": {"coordinates": [-86.992970614, 32.077747359], "type": "Point"}, "id": "7y-KpQ8l0JX-d5aaW5hZFwu29U4=", "properties": {"@spider": "usps_collection_boxes", "addr:city": "MINTER", "addr:country": "US", "addr:full": "2560 COUNTY ROAD 4", "addr:postcode": "36761", "addr:state": "AL", "amenity": "post_box", "brand": "United States Postal Service", "brand:wikidata": "Q668687", "collection_times": "Mo-Fr 11:30; Sa 10:30", "name": "USPS COLLECTION BOX - PO LOBBY", "nsi_id": "unitedstatespostalservice-a77078", "operator": "United States Postal Service", "operator:short": "USPS", "operator:type": "public", "operator:wikidata": "Q668687", "ref": "3676100003"}, "type": "Feature"}
{"dataset_attributes": {"@spider": "usps_collection_boxes", "spider:collection_time": "2023-10-16T08:26:35.141500"}, "geometry": {"coordinates": [-87.94396, 32.247222], "type": "Point"}, "id": "V6ytGZarNUZmFgBWTFQtTX3B1UE=", "properties": {"@spider": "usps_collection_boxes", "addr:city": "MYRTLEWOOD", "addr:country": "US", "addr:full": "103 E CEDAR ST", "addr:postcode": "36763", "addr:state": "AL", "amenity": "post_box", "brand": "United States Postal Service", "brand:wikidata": "Q668687", "collection_times": "Mo-Fr 12:00; Sa 10:00", "name": "USPS COLLECTION BOX - BLUE BOX", "nsi_id": "unitedstatespostalservice-a77078", "operator": "United States Postal Service", "operator:short": "USPS", "operator:type": "public", "operator:wikidata": "Q668687", "ref": "3676300000"}, "type": "Feature"}
{"dataset_attributes": {"@spider": "usps_collection_boxes", "spider:collection_time": "2023-10-16T08:26:35.141500"}, "geometry": {"coordinates": [-87.94396, 32.247222], "type": "Point"}, "id": "IO4I6Pjmx6ZR4EjhjRvW4k1DpDg=", "properties": {"@spider": "usps_collection_boxes", "addr:city": "MYRTLEWOOD", "addr:country": "US", "addr:full": "103 E CEDAR ST", "addr:postcode": "36763", "addr:state": "AL", "amenity": "post_box", "brand": "United States Postal Service", "brand:wikidata": "Q668687", "collection_times": "Mo-Fr 12:00; Sa 10:00", "name": "USPS COLLECTION BOX - PO LOBBY", "nsi_id": "unitedstatespostalservice-a77078", "operator": "United States Postal Service", "operator:short": "USPS", "operator:type": "public", "operator:wikidata": "Q668687", "ref": "3676300001"}, "type": "Feature"}
{"dataset_attributes": {"@spider": "usps_collection_boxes", "spider:collection_time": "2023-10-16T08:26:35.141500"}, "geometry": {"coordinates": [-87.946619205, 32.24883481], "type": "Point"}, "id": "G3Wkx4tWKwh3Qv2P39MMplR73HA=", "properties": {"@spider": "usps_collection_boxes", "addr:city": "MYRTLEWOOD", "addr:country": "US", "addr:full": "103 E CEDAR ST", "addr:postcode": "36763", "addr:state": "AL", "amenity": "post_box", "brand": "United States Postal Service", "brand:wikidata": "Q668687", "collection_times": "Mo-Fr 12:00; Sa 10:00", "name": "USPS COLLECTION BOX - PO LOBBY", "nsi_id": "unitedstatespostalservice-a77078", "operator": "United States Postal Service", "operator:short": "USPS", "operator:type": "public", "operator:wikidata": "Q668687", "ref": "3676300002"}, "type": "Feature"}
{"dataset_attributes": {"@spider": "usps_collection_boxes", "spider:collection_time": "2023-10-16T08:26:35.141500"}, "geometry": {"coordinates": [-87.986167, 32.11321], "type": "Point"}, "id": "NR4-QJFBk8gJAD_Wa9478I-I0Vk=", "properties": {"@spider": "usps_collection_boxes", "addr:city": "NANAFALIA", "addr:country": "US", "addr:full": "39000 AL HIGHWAY 10", "addr:postcode": "36764", "addr:state": "AL", "amenity": "post_box", "brand": "United States Postal Service", "brand:wikidata": "Q668687", "collection_times": "Mo-Fr 12:00; Sa 10:30", "name": "USPS COLLECTION BOX - BLUE BOX", "nsi_id": "unitedstatespostalservice-a77078", "operator": "United States Postal Service", "operator:short": "USPS", "operator:type": "public", "operator:wikidata": "Q668687", "ref": "3676400000"}, "type": "Feature"}
{"dataset_attributes": {"@spider": "usps_collection_boxes", "spider:collection_time": "2023-10-16T08:26:35.141500"}, "geometry": {"coordinates": [-87.986167, 32.11321], "type": "Point"}, "id": "fHJLZVBusb2svxAHjf1bKnZ64RA=", "properties": {"@spider": "usps_collection_boxes", "addr:city": "NANAFALIA", "addr:country": "US", "addr:full": "39000 AL HIGHWAY 10", "addr:postcode": "36764", "addr:state": "AL", "amenity": "post_box", "brand": "United States Postal Service", "brand:wikidata": "Q668687", "collection_times": "Mo-Fr 12:00; Sa 10:30", "name": "USPS COLLECTION BOX - PO LOBBY", "nsi_id": "unitedstatespostalservice-a77078", "operator": "United States Postal Service", "operator:short": "USPS", "operator:type": "public", "operator:wikidata": "Q668687", "ref": "3676400001"}, "type": "Feature"}
{"dataset_attributes": {"@spider": "usps_collection_boxes", "spider:collection_time": "2023-10-16T08:26:35.141500"}, "geometry": {"coordinates": [-87.987017386, 32.113041786], "type": "Point"}, "id": "icjx3Zb61d9bCHk8yMyIE7tp-C0=", "properties": {"@spider": "usps_collection_boxes", "addr:city": "NANAFALIA", "addr:country": "US", "addr:full": "39000 AL HIGHWAY 10", "addr:postcode": "36764", "addr:state": "AL", "amenity": "post_box", "brand": "United States Postal Service", "brand:wikidata": "Q668687", "collection_times": "Mo-Fr 12:00; Sa 10:30", "name": "USPS COLLECTION BOX - PO LOBBY", "nsi_id": "unitedstatespostalservice-a77078", "operator": "United States Postal Service", "operator:short": "USPS", "operator:type": "public", "operator:wikidata": "Q668687", "ref": "3676400002"}, "type": "Feature"}
{"dataset_attributes": {"@spider": "usps_collection_boxes", "spider:collection_time": "2023-10-16T08:26:35.141500"}, "geometry": {"coordinates": [-87.533079, 32.598806], "type": "Point"}, "id": "Ne3o_bKO59XDMFxoaHQLxGbc4jA=", "properties": {"@spider": "usps_collection_boxes", "addr:city": "NEWBERN", "addr:country": "US", "addr:full": "7790 AL HIGHWAY 61", "addr:postcode": "36765", "addr:state": "AL", "amenity": "post_box", "brand": "United States Postal Service", "brand:wikidata": "Q668687", "collection_times": "Mo-Fr 11:30; Sa 10:00", "name": "USPS COLLECTION BOX - PO LOBBY", "nsi_id": "unitedstatespostalservice-a77078", "operator": "United States Postal Service", "operator:short": "USPS", "operator:type": "public", "operator:wikidata": "Q668687", "ref": "3676500000"}, "type": "Feature"}
{"dataset_attributes": {"@spider": "usps_collection_boxes", "spider:collection_time": "2023-10-16T08:26:35.141500"}, "geometry": {"coordinates": [-87.533079, 32.598806], "type": "Point"}, "id": "IamQyZfm8fXkNwmh92M6IqmP3pM=", "properties": {"@spider": "usps_collection_boxes", "addr:city": "NEWBERN", "addr:country": "US", "addr:full": "7790 AL HIGHWAY 61", "addr:postcode": "36765", "addr:state": "AL", "amenity": "post_box", "brand": "United States Postal Service", "brand:wikidata": "Q668687", "collection_times": "Mo-Fr 11:30; Sa 10:00", "name": "USPS COLLECTION BOX - BLUE BOX", "nsi_id": "unitedstatespostalservice-a77078", "operator": "United States Postal Service", "operator:short": "USPS", "operator:type": "public", "operator:wikidata": "Q668687", "ref": "3676500001"}, "type": "Feature"}
{"dataset_attributes": {"@spider": "usps_collection_boxes", "spider:collection_time": "2023-10-16T08:26:35.141500"}, "geometry": {"coordinates": [-87.53310795, 32.598775776], "type": "Point"}, "id": "AlZEhzxs9tTVhe0FY-MxbAOZPDo=", "properties": {"@spider": "usps_collection_boxes", "addr:city": "NEWBERN", "addr:country": "US", "addr:full": "7790 AL HIGHWAY 61", "addr:postcode": "36765", "addr:state": "AL", "amenity": "post_box", "brand": "United States Postal Service", "brand:wikidata": "Q668687", "collection_times": "Mo-Fr 11:30; Sa 09:45", "name": "USPS COLLECTION BOX - PO LOBBY", "nsi_id": "unitedstatespostalservice-a77078", "operator": "United States Postal Service", "operator:short": "USPS", "operator:type": "public", "operator:wikidata": "Q668687", "ref": "3676500003"}, "type": "Feature"}
{"dataset_attributes": {"@spider": "usps_collection_boxes", "spider:collection_time": "2023-10-16T08:26:35.141500"}, "geometry": {"coordinates": [-87.078621, 31.91974], "type": "Point"}, "id": "KpZNkY93klqh-CWADM4hEGy1WkQ=", "properties": {"@spider": "usps_collection_boxes", "addr:city": "OAK HILL", "addr:country": "US", "addr:full": "10525 HIGHWAY 10 E", "addr:postcode": "36766", "addr:state": "AL", "amenity": "post_box", "brand": "United States Postal Service", "brand:wikidata": "Q668687", "collection_times": "Mo-Fr 14:15; Sa 13:30", "name": "USPS COLLECTION BOX - PO LOBBY", "note": "ON 12/24 AND 12/31, THIS BOX MAY BE COLLECTED AS EARLY AS 12 NOON.", "nsi_id": "unitedstatespostalservice-a77078", "operator": "United States Postal Service", "operator:short": "USPS", "operator:type": "public", "operator:wikidata": "Q668687", "ref": "3676600000"}, "type": "Feature"}
{"dataset_attributes": {"@spider": "usps_collection_boxes", "spider:collection_time": "2023-10-16T08:26:35.141500"}, "geometry": {"coordinates": [-87.078621, 31.91974], "type": "Point"}, "id": "saxKX8FoAzD9jgQij8MXtgtPrbI=", "properties": {"@spider": "usps_collection_boxes", "addr:city": "OAK HILL", "addr:country": "US", "addr:full": "10525 HIGHWAY 10 E", "addr:postcode": "36766", "addr:state": "AL", "amenity": "post_box", "brand": "United States Postal Service", "brand:wikidata": "Q668687", "collection_times": "Mo-Fr 14:15; Sa 13:30", "name": "USPS COLLECTION BOX - BLUE BOX", "note": "ON 12/24 AND 12/31, THIS BOX MAY BE COLLECTED AS EARLY AS 12 NOON.", "nsi_id": "unitedstatespostalservice-a77078", "operator": "United States Postal Service", "operator:short": "USPS", "operator:type": "public", "operator:wikidata": "Q668687", "ref": "3676600001"}, "type": "Feature"}
{"dataset_attributes": {"@spider": "usps_collection_boxes", "spider:collection_time": "2023-10-16T08:26:35.141500"}, "geometry": {"coordinates": [-87.080404169, 31.920489599], "type": "Point"}, "id": "XgdI3tINn7jhBsVdO45Du2HWu4s=", "properties": {"@spider": "usps_collection_boxes", "addr:city": "OAK HILL", "addr:country": "US", "addr:full": "10525 HIGHWAY 10 E", "addr:postcode": "36766", "addr:state": "AL", "amenity": "post_box", "brand": "United States Postal Service", "brand:wikidata": "Q668687", "collection_times": "Mo-Fr 14:30; Sa 13:45", "name": "USPS COLLECTION BOX - PO LOBBY", "note": "ON 12/24 AND 12/31, THIS BOX MAY BE COLLECTED AS EARLY AS 12 NOON.", "nsi_id": "unitedstatespostalservice-a77078", "operator": "United States Postal Service", "operator:short": "USPS", "operator:type": "public", "operator:wikidata": "Q668687", "ref": "3676600002"}, "type": "Feature"}
{"dataset_attributes": {"@spider": "usps_collection_boxes", "spider:collection_time": "2023-10-16T08:26:35.141500"}, "geometry": {"coordinates": [-87.247224, 32.306618], "type": "Point"}, "id": "et3wuS7RdzAcf9DQRCKX-SyO_xE=", "properties": {"@spider": "usps_collection_boxes", "addr:city": "ORRVILLE", "addr:country": "US", "addr:full": "14664 MAIN ST", "addr:postcode": "36767", "addr:state": "AL", "amenity": "post_box", "brand": "United States Postal Service", "brand:wikidata": "Q668687", "collection_times": "Mo-Fr 15:45; Sa 10:15", "name": "USPS COLLECTION BOX - BLUE BOX", "note": "ON 12/24 AND 12/31, THIS BOX MAY BE COLLECTED AS EARLY AS 12 NOON.", "nsi_id": "unitedstatespostalservice-a77078", "operator": "United States Postal Service", "operator:short": "USPS", "operator:type": "public", "operator:wikidata": "Q668687", "ref": "3676700000"}, "type": "Feature"}
{"dataset_attributes": {"@spider": "usps_collection_boxes", "spider:collection_time": "2023-10-16T08:26:35.141500"}, "geometry": {"coordinates": [-87.247224, 32.306618], "type": "Point"}, "id": "qH5ajRt2BTMcFCqZdT3K5J4a26Y=", "properties": {"@spider": "usps_collection_boxes", "addr:city": "ORRVILLE", "addr:country": "US", "addr:full": "14664 MAIN ST", "addr:postcode": "36767", "addr:state": "AL", "amenity": "post_box", "brand": "United States Postal Service", "brand:wikidata": "Q668687", "collection_times": "Mo-Fr 15:45; Sa 10:15", "name": "USPS COLLECTION BOX - PO LOBBY", "note": "ON 12/24 AND 12/31, THIS BOX MAY BE COLLECTED AS EARLY AS 12 NOON.", "nsi_id": "unitedstatespostalservice-a77078", "operator": "United States Postal Service", "operator:short": "USPS", "operator:type": "public", "operator:wikidata": "Q668687", "ref": "3676700001"}, "type": "Feature"}
{"dataset_attributes": {"@spider": "usps_collection_boxes", "spider:collection_time": "2023-10-16T08:26:35.141500"}, "geometry": {"coordinates": [-87.24724122, 32.306647238], "type": "Point"}, "id": "6TNojA2s6zh7D-yQvz2K8nIkLIs=", "properties": {"@spider": "usps_collection_boxes", "addr:city": "ORRVILLE", "addr:country": "US", "addr:full": "14664 MAIN ST", "addr:postcode": "36767", "addr:state": "AL", "amenity": "post_box", "brand": "United States Postal Service", "brand:wikidata": "Q668687", "collection_times": "Mo-Fr 16:00; Sa 10:15", "name": "USPS COLLECTION BOX - PO LOBBY", "note": "ON 12/24 AND 12/31, THIS BOX MAY BE COLLECTED AS EARLY AS 12 NOON.", "nsi_id": "unitedstatespostalservice-a77078", "operator": "United States Postal Service", "operator:short": "USPS", "operator:type": "public", "operator:wikidata": "Q668687", "ref": "3676700003"}, "type": "Feature"}
{"dataset_attributes": {"@spider": "usps_collection_boxes", "spider:collection_time": "2023-10-16T08:26:35.141500"}, "geometry": {"coordinates": [-86.988594, 31.877701], "type": "Point"}, "id": "mD__XdizwbuSf1DNsuRfAUqLu6k=", "properties": {"@spider": "usps_collection_boxes", "addr:city": "PINE APPLE", "addr:country": "US", "addr:full": "52 COUNTY ROAD 59", "addr:postcode": "36768", "addr:state": "AL", "amenity": "post_box", "brand": "United States Postal Service", "brand:wikidata": "Q668687", "collection_times": "Mo-Fr 12:00; Sa 10:30", "name": "USPS COLLECTION BOX - BLUE BOX", "nsi_id": "unitedstatespostalservice-a77078", "operator": "United States Postal Service", "operator:short": "USPS", "operator:type": "public", "operator:wikidata": "Q668687", "ref": "3676800000"}, "type": "Feature"}
{"dataset_attributes": {"@spider": "usps_collection_boxes", "spider:collection_time": "2023-10-16T08:26:35.141500"}, "geometry": {"coordinates": [-86.988594, 31.877701], "type": "Point"}, "id": "oi4fTj6Cr6lCum7Ts1-qJGXlvxU=", "properties": {"@spider": "usps_collection_boxes", "addr:city": "PINE APPLE", "addr:country": "US", "addr:full": "52 COUNTY ROAD 59", "addr:postcode": "36768", "addr:state": "AL", "amenity": "post_box", "brand": "United States Postal Service", "brand:wikidata": "Q668687", "collection_times": "Mo-Fr 12:00; Sa 10:30", "name": "USPS COLLECTION BOX - PO LOBBY", "nsi_id": "unitedstatespostalservice-a77078", "operator": "United States Postal Service", "operator:short": "USPS", "operator:type": "public", "operator:wikidata": "Q668687", "ref": "3676800001"}, "type": "Feature"}
{"dataset_attributes": {"@spider": "usps_collection_boxes", "spider:collection_time": "2023-10-16T08:26:35.141500"}, "geometry": {"coordinates": [-87.0948624, 31.831305], "type": "Point"}, "id": "n-ZPMr10YiocO3Ip_dEU1RqR5Ko=", "properties": {"@spider": "usps_collection_boxes", "addr:city": "PINE APPLE", "addr:country": "US", "addr:full": "131 HIGHWAY 21", "addr:postcode": "36768", "addr:state": "AL", "amenity": "post_box", "brand": "United States Postal Service", "brand:wikidata": "Q668687", "collection_times": "Mo-Sa 12:00", "name": "USPS COLLECTION BOX - BLUE BOX", "nsi_id": "unitedstatespostalservice-a77078", "operator": "United States Postal Service", "operator:short": "USPS", "operator:type": "public", "operator:wikidata": "Q668687", "ref": "3676800003"}, "type": "Feature"}
{"dataset_attributes": {"@spider": "usps_collection_boxes", "spider:collection_time": "2023-10-16T08:26:35.141500"}, "geometry": {"coordinates": [-86.988574266, 31.877715226], "type": "Point"}, "id": "JijOXR9ZKTnzi3yjsuaFU9XTKAU=", "properties": {"@spider": "usps_collection_boxes", "addr:city": "PINE APPLE", "addr:country": "US", "addr:full": "52 COUNTY ROAD 59", "addr:postcode": "36768", "addr:state": "AL", "amenity": "post_box", "brand": "United States Postal Service", "brand:wikidata": "Q668687", "collection_times": "Mo-Fr 12:00; Sa 10:30", "name": "USPS COLLECTION BOX - PO LOBBY", "nsi_id": "unitedstatespostalservice-a77078", "operator": "United States Postal Service", "operator:short": "USPS", "operator:type": "public", "operator:wikidata": "Q668687", "ref": "3676800004"}, "type": "Feature"}
{"dataset_attributes": {"@spider": "usps_collection_boxes", "spider:collection_time": "2023-10-16T08:26:35.141500"}, "geometry": {"coordinates": [-87.5877959, 31.98081], "type": "Point"}, "id": "75XIrUQUmG0TucKzBUVHRfMyi2w=", "properties": {"@spider": "usps_collection_boxes", "addr:city": "PINE HILL", "addr:country": "US", "addr:full": "61 OAK GROVE ST", "addr:postcode": "36769", "addr:state": "AL", "amenity": "post_box", "brand": "United States Postal Service", "brand:wikidata": "Q668687", "collection_times": "Mo-Fr 15:30; Sa 10:45", "name": "USPS COLLECTION BOX - BLUE BOX", "note": "ON 12/24 AND 12/31, THIS BOX MAY BE COLLECTED AS EARLY AS 12 NOON.", "nsi_id": "unitedstatespostalservice-a77078", "operator": "United States Postal Service", "operator:short": "USPS", "operator:type": "public", "operator:wikidata": "Q668687", "ref": "3676900000"}, "type": "Feature"}
{"dataset_attributes": {"@spider": "usps_collection_boxes", "spider:collection_time": "2023-10-16T08:26:35.141500"}, "geometry": {"coordinates": [-87.5878319, 31.980628], "type": "Point"}, "id": "EdL-zLerolMeV8bbDIxxeBmihIs=", "properties": {"@spider": "usps_collection_boxes", "addr:city": "PINE HILL", "addr:country": "US", "addr:full": "61 OAK GROVE ST", "addr:postcode": "36769", "addr:state": "AL", "amenity": "post_box", "brand": "United States Postal Service", "brand:wikidata": "Q668687", "collection_times": "Mo-Fr 16:00; Sa 10:45", "name": "USPS COLLECTION BOX - PO LOBBY", "note": "ON 12/24 AND 12/31, THIS BOX MAY BE COLLECTED AS EARLY AS 12 NOON.", "nsi_id": "unitedstatespostalservice-a77078", "operator": "United States Postal Service", "operator:short": "USPS", "operator:type": "public", "operator:wikidata": "Q668687", "ref": "3676900001"}, "type": "Feature"}
{"dataset_attributes": {"@spider": "usps_collection_boxes", "spider:collection_time": "2023-10-16T08:26:35.141500"}, "geometry": {"coordinates": [-87.586488731, 31.977670799], "type": "Point"}, "id": "0_moSuPHVILjUTFcqPmlvzkPn4s=", "properties": {"@spider": "usps_collection_boxes", "addr:city": "PINE HILL", "addr:country": "US", "addr:full": "61 OAK GROVE ST", "addr:postcode": "36769", "addr:state": "AL", "amenity": "post_box", "brand": "United States Postal Service", "brand:wikidata": "Q668687", "collection_times": "Mo-Fr 16:00; Sa 10:30", "name": "USPS COLLECTION BOX - PO LOBBY", "note": "ON 12/24 AND 12/31, THIS BOX MAY BE COLLECTED AS EARLY AS 12 NOON.", "nsi_id": "unitedstatespostalservice-a77078", "operator": "United States Postal Service", "operator:short": "USPS", "operator:type": "public", "operator:wikidata": "Q668687", "ref": "3676900003"}, "type": "Feature"}
{"dataset_attributes": {"@spider": "usps_collection_boxes", "spider:collection_time": "2023-10-16T08:26:35.141500"}, "geometry": {"coordinates": [-86.986586, 32.287263], "type": "Point"}, "id": "9z7r-1fEwzoS_00qcrfkCyTwPzw=", "properties": {"@spider": "usps_collection_boxes", "addr:city": "SARDIS", "addr:country": "US", "addr:full": "5880 AL HIGHWAY 41", "addr:postcode": "36775", "addr:state": "AL", "amenity": "post_box", "brand": "United States Postal Service", "brand:wikidata": "Q668687", "collection_times": "Mo-Fr 11:30; Sa 09:00", "name": "USPS COLLECTION BOX - BLUE BOX", "nsi_id": "unitedstatespostalservice-a77078", "operator": "United States Postal Service", "operator:short": "USPS", "operator:type": "public", "operator:wikidata": "Q668687", "ref": "3677500000"}, "type": "Feature"}
{"dataset_attributes": {"@spider": "usps_collection_boxes", "spider:collection_time": "2023-10-16T08:26:35.141500"}, "geometry": {"coordinates": [-86.986586, 32.287263], "type": "Point"}, "id": "vtv9461e9T19othfy-giyUqjPaU=", "properties": {"@spider": "usps_collection_boxes", "addr:city": "SARDIS", "addr:country": "US", "addr:full": "5880 AL HIGHWAY 41", "addr:postcode": "36775", "addr:state": "AL", "amenity": "post_box", "brand": "United States Postal Service", "brand:wikidata": "Q668687", "collection_times": "Mo-Fr 11:30; Sa 09:00", "name": "USPS COLLECTION BOX - PO LOBBY", "nsi_id": "unitedstatespostalservice-a77078", "operator": "United States Postal Service", "operator:short": "USPS", "operator:type": "public", "operator:wikidata": "Q668687", "ref": "3677500001"}, "type": "Feature"}
{"dataset_attributes": {"@spider": "usps_collection_boxes", "spider:collection_time": "2023-10-16T08:26:35.141500"}, "geometry": {"coordinates": [-86.986611677, 32.287282071], "type": "Point"}, "id": "XYXAa9rBkZMeQbQWNZQ5nCbWzVw=", "properties": {"@spider": "usps_collection_boxes", "addr:city": "SARDIS", "addr:country": "US", "addr:full": "5880 AL HIGHWAY 41", "addr:postcode": "36775", "addr:state": "AL", "amenity": "post_box", "brand": "United States Postal Service", "brand:wikidata": "Q668687", "collection_times": "Mo-Fr 11:30; Sa 10:30", "name": "USPS COLLECTION BOX - PO LOBBY", "nsi_id": "unitedstatespostalservice-a77078", "operator": "United States Postal Service", "operator:short": "USPS", "operator:type": "public", "operator:wikidata": "Q668687", "ref": "3677500003"}, "type": "Feature"}
{"dataset_attributes": {"@spider": "usps_collection_boxes", "spider:collection_time": "2023-10-16T08:26:35.141500"}, "geometry": {"coordinates": [-87.732106, 32.751238], "type": "Point"}, "id": "nYgKgYjpZfQanvP6D8P-YL0r_Yw=", "properties": {"@spider": "usps_collection_boxes", "addr:city": "SAWYERVILLE", "addr:country": "US", "addr:full": "16850 AL HIGHWAY 14", "addr:postcode": "36776", "addr:state": "AL", "amenity": "post_box", "brand": "United States Postal Service", "brand:wikidata": "Q668687", "collection_times": "Mo-Fr 12:00; Sa 11:00", "name": "USPS COLLECTION BOX - PO LOBBY", "nsi_id": "unitedstatespostalservice-a77078", "operator": "United States Postal Service", "operator:short": "USPS", "operator:type": "public", "operator:wikidata": "Q668687", "ref": "3677600000"}, "type": "Feature"}
{"dataset_attributes": {"@spider": "usps_collection_boxes", "spider:collection_time": "2023-10-16T08:26:35.141500"}, "geometry": {"coordinates": [-87.732106, 32.751238], "type": "Point"}, "id": "OQktSc1a5wYt7arsKhhE9BFtUOw=", "properties": {"@spider": "usps_collection_boxes", "addr:city": "SAWYERVILLE", "addr:country": "US", "addr:full": "16850 AL HIGHWAY 14", "addr:postcode": "36776", "addr:state": "AL", "amenity": "post_box", "brand": "United States Postal Service", "brand:wikidata": "Q668687", "collection_times": "Mo-Fr 12:00; Sa 11:00", "name": "USPS COLLECTION BOX - BLUE BOX", "nsi_id": "unitedstatespostalservice-a77078", "operator": "United States Postal Service", "operator:short": "USPS", "operator:type": "public", "operator:wikidata": "Q668687", "ref": "3677600001"}, "type": "Feature"}
{"dataset_attributes": {"@spider": "usps_collection_boxes", "spider:collection_time": "2023-10-16T08:26:35.141500"}, "geometry": {"coordinates": [-87.732126855, 32.751277174], "type": "Point"}, "id": "805xHqSo7_fAMm_CNlMy0cfF-mw=", "properties": {"@spider": "usps_collection_boxes", "addr:city": "SAWYERVILLE", "addr:country": "US", "addr:full": "16850 AL HIGHWAY 14", "addr:postcode": "36776", "addr:state": "AL", "amenity": "post_box", "brand": "United States Postal Service", "brand:wikidata": "Q668687", "collection_times": "Mo-Fr 12:00; Sa 11:00", "name": "USPS COLLECTION BOX - PO LOBBY", "nsi_id": "unitedstatespostalservice-a77078", "operator": "United States Postal Service", "operator:short": "USPS", "operator:type": "public", "operator:wikidata": "Q668687", "ref": "3677600003"}, "type": "Feature"}
{"dataset_attributes": {"@spider": "usps_collection_boxes", "spider:collection_time": "2023-10-16T08:26:35.141500"}, "geometry": {"coordinates": [-87.876068, 32.094442], "type": "Point"}, "id": "1PUZO-r8Kr9Tyov_LiLHLwn2VjA=", "properties": {"@spider": "usps_collection_boxes", "addr:city": "SWEET WATER", "addr:country": "US", "addr:full": "31600 HIGHWAY 10 W", "addr:postcode": "36782", "addr:state": "AL", "amenity": "post_box", "brand": "United States Postal Service", "brand:wikidata": "Q668687", "collection_times": "Mo-Fr 15:30; Sa 10:30", "name": "USPS COLLECTION BOX - BLUE BOX", "note": "ON 12/24 AND 12/31, THIS BOX MAY BE COLLECTED AS EARLY AS 12 NOON.", "nsi_id": "unitedstatespostalservice-a77078", "operator": "United States Postal Service", "operator:short": "USPS", "operator:type": "public", "operator:wikidata": "Q668687", "ref": "3678200000"}, "type": "Feature"}
{"dataset_attributes": {"@spider": "usps_collection_boxes", "spider:collection_time": "2023-10-16T08:26:35.141500"}, "geometry": {"coordinates": [-87.875583, 32.094462], "type": "Point"}, "id": "zV3lO8FQUv8YgQHog3sHVLLMSwk=", "properties": {"@spider": "usps_collection_boxes", "addr:city": "SWEET WATER", "addr:country": "US", "addr:full": "31600 HIGHWAY 10 W", "addr:postcode": "36782", "addr:state": "AL", "amenity": "post_box", "brand": "United States Postal Service", "brand:wikidata": "Q668687", "collection_times": "Mo-Fr 15:45; Sa 10:30", "name": "USPS COLLECTION BOX - PO LOBBY", "note": "ON 12/24 AND 12/31, THIS BOX MAY BE COLLECTED AS EARLY AS 12 NOON.", "nsi_id": "unitedstatespostalservice-a77078", "operator": "United States Postal Service", "operator:short": "USPS", "operator:type": "public", "operator:wikidata": "Q668687", "ref": "3678200001"}, "type": "Feature"}
{"dataset_attributes": {"@spider": "usps_collection_boxes", "spider:collection_time": "2023-10-16T08:26:35.141500"}, "geometry": {"coordinates": [-87.875174437, 32.094532919], "type": "Point"}, "id": "wccgA3qlDcpNf8lKWjczD0ms6Ac=", "properties": {"@spider": "usps_collection_boxes", "addr:city": "SWEET WATER", "addr:country": "US", "addr:full": "31600 HIGHWAY 10 W", "addr:postcode": "36782", "addr:state": "AL", "amenity": "post_box", "brand": "United States Postal Service", "brand:wikidata": "Q668687", "collection_times": "Mo-Fr 15:45; Sa 10:30", "name": "USPS COLLECTION BOX - PO LOBBY", "note": "ON 12/24 AND 12/31, THIS BOX MAY BE COLLECTED AS EARLY AS 12 NOON.", "nsi_id": "unitedstatespostalservice-a77078", "operator": "United States Postal Service", "operator:short": "USPS", "operator:type": "public", "operator:wikidata": "Q668687", "ref": "3678200003"}, "type": "Feature"}
{"dataset_attributes": {"@spider": "usps_collection_boxes", "spider:collection_time": "2023-10-16T08:26:35.141500"}, "geometry": {"coordinates": [-87.624172, 32.266488], "type": "Point"}, "id": "TdQGGWFnIiT0AS9b2KOQ-HrQ4Wc=", "properties": {"@spider": "usps_collection_boxes", "addr:city": "THOMASTON", "addr:country": "US", "addr:full": "127 MAIN ST", "addr:postcode": "36783", "addr:state": "AL", "amenity": "post_box", "brand": "United States Postal Service", "brand:wikidata": "Q668687", "collection_times": "Mo-Fr 13:00; Sa 11:30", "name": "USPS COLLECTION BOX - PO LOBBY", "note": "ON 12/24 AND 12/31, THIS BOX MAY BE COLLECTED AS EARLY AS 12 NOON.", "nsi_id": "unitedstatespostalservice-a77078", "operator": "United States Postal Service", "operator:short": "USPS", "operator:type": "public", "operator:wikidata": "Q668687", "ref": "3678300001"}, "type": "Feature"}
{"dataset_attributes": {"@spider": "usps_collection_boxes", "spider:collection_time": "2023-10-16T08:26:35.141500"}, "geometry": {"coordinates": [-87.624199753, 32.266500418], "type": "Point"}, "id": "S3WCpP05ib6Ep_-fzbelwmGhKk0=", "properties": {"@spider": "usps_collection_boxes", "addr:city": "THOMASTON", "addr:country": "US", "addr:full": "127 MAIN ST", "addr:postcode": "36783", "addr:state": "AL", "amenity": "post_box", "brand": "United States Postal Service", "brand:wikidata": "Q668687", "collection_times": "Mo-Fr 13:00; Sa 11:30", "name": "USPS COLLECTION BOX - PO LOBBY", "note": "ON 12/24 AND 12/31, THIS BOX MAY BE COLLECTED AS EARLY AS 12 NOON.", "nsi_id": "unitedstatespostalservice-a77078", "operator": "United States Postal Service", "operator:short": "USPS", "operator:type": "public", "operator:wikidata": "Q668687", "ref": "3678300003"}, "type": "Feature"}
{"dataset_attributes": {"@spider": "usps_collection_boxes", "spider:collection_time": "2023-10-16T08:26:35.141500"}, "geometry": {"coordinates": [-87.735166, 31.912782], "type": "Point"}, "id": "mHmizDceBTZPByOLUVS0luV9v8A=", "properties": {"@spider": "usps_collection_boxes", "addr:city": "THOMASVILLE", "addr:country": "US", "addr:full": "115 NICOL AVE", "addr:postcode": "36784", "addr:state": "AL", "amenity": "post_box", "brand": "United States Postal Service", "brand:wikidata": "Q668687", "collection_times": "Mo-Sa 16:15", "name": "USPS COLLECTION BOX - BLUE BOX", "note": "ON 12/24 AND 12/31, THIS BOX MAY BE COLLECTED AS EARLY AS 12 NOON.", "nsi_id": "unitedstatespostalservice-a77078", "operator": "United States Postal Service", "operator:short": "USPS", "operator:type": "public", "operator:wikidata": "Q668687", "ref": "3678400000"}, "type": "Feature"}
{"dataset_attributes": {"@spider": "usps_collection_boxes", "spider:collection_time": "2023-10-16T08:26:35.141500"}, "geometry": {"coordinates": [-87.733808, 31.912194], "type": "Point"}, "id": "INAeLvLS8SfvfUI5QtxAdm-YjGc=", "properties": {"@spider": "usps_collection_boxes", "addr:city": "THOMASVILLE", "addr:country": "US", "addr:full": "115 NICOL ST", "addr:postcode": "36784", "addr:state": "AL", "amenity": "post_box", "brand": "United States Postal Service", "brand:wikidata": "Q668687", "collection_times": "Mo-Sa 16:15", "name": "USPS COLLECTION BOX - PO LOBBY", "note": "ON 12/24 AND 12/31, THIS BOX MAY BE COLLECTED AS EARLY AS 12 NOON.", "nsi_id": "unitedstatespostalservice-a77078", "operator": "United States Postal Service", "operator:short": "USPS", "operator:type": "public", "operator:wikidata": "Q668687", "ref": "3678400003"}, "type": "Feature"}
{"dataset_attributes": {"@spider": "usps_collection_boxes", "spider:collection_time": "2023-10-16T08:26:35.141500"}, "geometry": {"coordinates": [-87.7378231, 31.88927], "type": "Point"}, "id": "igRycg85r5i73H9__VB5_TD8t5Q=", "properties": {"@spider": "usps_collection_boxes", "addr:city": "THOMASVILLE", "addr:country": "US", "addr:full": "102 ROCK POINTE CT", "addr:postcode": "36784", "addr:state": "AL", "amenity": "post_box", "brand": "United States Postal Service", "brand:wikidata": "Q668687", "collection_times": "Mo-Sa 11:00", "name": "USPS COLLECTION BOX - BLUE BOX", "nsi_id": "unitedstatespostalservice-a77078", "operator": "United States Postal Service", "operator:short": "USPS", "operator:type": "public", "operator:wikidata": "Q668687", "ref": "3678400004"}, "type": "Feature"}
{"dataset_attributes": {"@spider": "usps_collection_boxes", "spider:collection_time": "2023-10-16T08:26:35.141500"}, "geometry": {"coordinates": [-87.73514303, 31.912780998], "type": "Point"}, "id": "IAq0xvcEViG4VelOl6qleaAFq0c=", "properties": {"@spider": "usps_collection_boxes", "addr:city": "THOMASVILLE", "addr:country": "US", "addr:full": "115 NICOL AVE W", "addr:postcode": "36784", "addr:state": "AL", "amenity": "post_box", "brand": "United States Postal Service", "brand:wikidata": "Q668687", "collection_times": "Mo-Fr 16:30; Sa 12:00", "name": "USPS COLLECTION BOX - PO LOBBY", "note": "ON 12/24 AND 12/31, THIS BOX MAY BE COLLECTED AS EARLY AS 12 NOON.", "nsi_id": "unitedstatespostalservice-a77078", "operator": "United States Postal Service", "operator:short": "USPS", "operator:type": "public", "operator:wikidata": "Q668687", "ref": "3678400007"}, "type": "Feature"}
{"dataset_attributes": {"@spider": "usps_collection_boxes", "spider:collection_time": "2023-10-16T08:26:35.141500"}, "geometry": {"coordinates": [-86.8830529, 32.315061], "type": "Point"}, "id": "XqxIMZ8g-AS1EBDhZLQXTPUkzwU=", "properties": {"@spider": "usps_collection_boxes", "addr:city": "TYLER", "addr:country": "US", "addr:full": "2021 COUNTY ROAD 7", "addr:postcode": "36785", "addr:state": "AL", "amenity": "post_box", "brand": "United States Postal Service", "brand:wikidata": "Q668687", "collection_times": "Mo-Fr 11:30; Sa 10:30", "name": "USPS COLLECTION BOX - BLUE BOX", "nsi_id": "unitedstatespostalservice-a77078", "operator": "United States Postal Service", "operator:short": "USPS", "operator:type": "public", "operator:wikidata": "Q668687", "ref": "3678500000"}, "type": "Feature"}
{"dataset_attributes": {"@spider": "usps_collection_boxes", "spider:collection_time": "2023-10-16T08:26:35.141500"}, "geometry": {"coordinates": [-86.883325, 32.315198], "type": "Point"}, "id": "Zk0hN2u9cJlada14r26w0vlMJd4=", "properties": {"@spider": "usps_collection_boxes", "addr:city": "TYLER", "addr:country": "US", "addr:full": "2021 COUNTY ROAD 7", "addr:postcode": "36785", "addr:state": "AL", "amenity": "post_box", "brand": "United States Postal Service", "brand:wikidata": "Q668687", "collection_times": "Mo-Fr 11:30; Sa 10:30", "name": "USPS COLLECTION BOX - PO LOBBY", "nsi_id": "unitedstatespostalservice-a77078", "operator": "United States Postal Service", "operator:short": "USPS", "operator:type": "public", "operator:wikidata": "Q668687", "ref": "3678500001"}, "type": "Feature"}
{"dataset_attributes": {"@spider": "usps_collection_boxes", "spider:collection_time": "2023-10-16T08:26:35.141500"}, "geometry": {"coordinates": [-86.883305548, 32.315208406], "type": "Point"}, "id": "1dlBpWWYA3_sH9g1u11CfgJU1dM=", "properties": {"@spider": "usps_collection_boxes", "addr:city": "TYLER", "addr:country": "US", "addr:full": "2021 COUNTY ROAD 7", "addr:postcode": "36785", "addr:state": "AL", "amenity": "post_box", "brand": "United States Postal Service", "brand:wikidata": "Q668687", "collection_times": "Mo-Fr 11:30; Sa 10:30", "name": "USPS COLLECTION BOX - PO LOBBY", "nsi_id": "unitedstatespostalservice-a77078", "operator": "United States Postal Service", "operator:short": "USPS", "operator:type": "public", "operator:wikidata": "Q668687", "ref": "3678500003"}, "type": "Feature"}
{"dataset_attributes": {"@spider": "usps_collection_boxes", "spider:collection_time": "2023-10-16T08:26:35.141500"}, "geometry": {"coordinates": [-87.516069, 32.451599], "type": "Point"}, "id": "KM-ReUh2EexxtbDVaXm98wraSaA=", "properties": {"@spider": "usps_collection_boxes", "addr:city": "UNIONTOWN", "addr:country": "US", "addr:full": "100 W FRANKLIN ST", "addr:postcode": "36786", "addr:state": "AL", "amenity": "post_box", "brand": "United States Postal Service", "brand:wikidata": "Q668687", "collection_times": "Mo-Fr 16:15; Sa 12:00", "name": "USPS COLLECTION BOX - PO LOBBY", "note": "ON 12/24 AND 12/31, THIS BOX MAY BE COLLECTED AS EARLY AS 12 NOON.", "nsi_id": "unitedstatespostalservice-a77078", "operator": "United States Postal Service", "operator:short": "USPS", "operator:type": "public", "operator:wikidata": "Q668687", "ref": "3678600000"}, "type": "Feature"}
{"dataset_attributes": {"@spider": "usps_collection_boxes", "spider:collection_time": "2023-10-16T08:26:35.141500"}, "geometry": {"coordinates": [-87.516069, 32.451599], "type": "Point"}, "id": "NdXOFKyi5cTtUGvscQYPWkRI-Pk=", "properties": {"@spider": "usps_collection_boxes", "addr:city": "UNIONTOWN", "addr:country": "US", "addr:full": "100 W FRANKLIN ST", "addr:postcode": "36786", "addr:state": "AL", "amenity": "post_box", "brand": "United States Postal Service", "brand:wikidata": "Q668687", "collection_times": "Mo-Fr 16:00; Sa 12:00", "name": "USPS COLLECTION BOX - BLUE BOX", "note": "ON 12/24 AND 12/31, THIS BOX MAY BE COLLECTED AS EARLY AS 12 NOON.", "nsi_id": "unitedstatespostalservice-a77078", "operator": "United States Postal Service", "operator:short": "USPS", "operator:type": "public", "operator:wikidata": "Q668687", "ref": "3678600001"}, "type": "Feature"}
{"dataset_attributes": {"@spider": "usps_collection_boxes", "spider:collection_time": "2023-10-16T08:26:35.141500"}, "geometry": {"coordinates": [-87.513400893, 32.451715095], "type": "Point"}, "id": "5suAc1E8lUMw5pSJQu9H2mvefz4=", "properties": {"@spider": "usps_collection_boxes", "addr:city": "UNIONTOWN", "addr:country": "US", "addr:full": "100 W FRANKLIN ST", "addr:postcode": "36786", "addr:state": "AL", "amenity": "post_box", "brand": "United States Postal Service", "brand:wikidata": "Q668687", "collection_times": "Mo-Fr 16:30; Sa 12:00", "name": "USPS COLLECTION BOX - PO LOBBY", "note": "ON 12/24 AND 12/31, THIS BOX MAY BE COLLECTED AS EARLY AS 12 NOON.", "nsi_id": "unitedstatespostalservice-a77078", "operator": "United States Postal Service", "operator:short": "USPS", "operator:type": "public", "operator:wikidata": "Q668687", "ref": "3678600003"}, "type": "Feature"}
{"dataset_attributes": {"@spider": "usps_collection_boxes", "spider:collection_time": "2023-10-16T08:26:35.141500"}, "geometry": {"coordinates": [-86.898328, 32.734805], "type": "Point"}, "id": "3ty6_WXTsxNmX5c0lCIH5NeUskM=", "properties": {"@spider": "usps_collection_boxes", "addr:city": "STANTON", "addr:country": "US", "addr:full": "2230 COUNTY ROAD 45", "addr:postcode": "36790", "addr:state": "AL", "amenity": "post_box", "brand": "United States Postal Service", "brand:wikidata": "Q668687", "collection_times": "Mo-Fr 09:45; Sa 10:15", "name": "USPS COLLECTION BOX - PO LOBBY", "nsi_id": "unitedstatespostalservice-a77078", "operator": "United States Postal Service", "operator:short": "USPS", "operator:type": "public", "operator:wikidata": "Q668687", "ref": "3679000000"}, "type": "Feature"}
{"dataset_attributes": {"@spider": "usps_collection_boxes", "spider:collection_time": "2023-10-16T08:26:35.141500"}, "geometry": {"coordinates": [-86.898328, 32.734805], "type": "Point"}, "id": "JfaotkBB3PTyqX-BtIaZNQkldC8=", "properties": {"@spider": "usps_collection_boxes", "addr:city": "STANTON", "addr:country": "US", "addr:full": "2230 COUNTY ROAD 45", "addr:postcode": "36790", "addr:state": "AL", "amenity": "post_box", "brand": "United States Postal Service", "brand:wikidata": "Q668687", "collection_times": "Mo-Fr 09:45; Sa 10:15", "name": "USPS COLLECTION BOX - BLUE BOX", "nsi_id": "unitedstatespostalservice-a77078", "operator": "United States Postal Service", "operator:short": "USPS", "operator:type": "public", "operator:wikidata": "Q668687", "ref": "3679000002"}, "type": "Feature"}
{"dataset_attributes": {"@spider": "usps_collection_boxes", "spider:collection_time": "2023-10-16T08:26:35.141500"}, "geometry": {"coordinates": [-86.898399842, 32.734809303], "type": "Point"}, "id": "XacVg0-jAjFLXWT85U6DBjq0vs4=", "properties": {"@spider": "usps_collection_boxes", "addr:city": "STANTON", "addr:country": "US", "addr:full": "2230 COUNTY ROAD 45", "addr:postcode": "36790", "addr:state": "AL", "amenity": "post_box", "brand": "United States Postal Service", "brand:wikidata": "Q668687", "collection_times": "Mo-Fr 10:00; Sa 10:15", "name": "USPS COLLECTION BOX - PO LOBBY", "nsi_id": "unitedstatespostalservice-a77078", "operator": "United States Postal Service", "operator:short": "USPS", "operator:type": "public", "operator:wikidata": "Q668687", "ref": "3679000003"}, "type": "Feature"}
{"dataset_attributes": {"@spider": "usps_collection_boxes", "spider:collection_time": "2023-10-16T08:26:35.141500"}, "geometry": {"coordinates": [-86.898124, 32.871932], "type": "Point"}, "id": "MIDB7f8SLARbjWEQ48egRKLuxio=", "properties": {"@spider": "usps_collection_boxes", "addr:city": "RANDOLPH", "addr:country": "US", "addr:full": "8770 HIGHWAY 139", "addr:postcode": "36792", "addr:state": "AL", "amenity": "post_box", "brand": "United States Postal Service", "brand:wikidata": "Q668687", "collection_times": "Mo-Fr 12:00; Sa 10:00", "name": "USPS COLLECTION BOX - PO LOBBY", "nsi_id": "unitedstatespostalservice-a77078", "operator": "United States Postal Service", "operator:short": "USPS", "operator:type": "public", "operator:wikidata": "Q668687", "ref": "3679200000"}, "type": "Feature"}
{"dataset_attributes": {"@spider": "usps_collection_boxes", "spider:collection_time": "2023-10-16T08:26:35.141500"}, "geometry": {"coordinates": [-86.898124, 32.871932], "type": "Point"}, "id": "6n3QzgcpJrITO3IohAVLbxw9eac=", "properties": {"@spider": "usps_collection_boxes", "addr:city": "RANDOLPH", "addr:country": "US", "addr:full": "8770 HIGHWAY 139", "addr:postcode": "36792", "addr:state": "AL", "amenity": "post_box", "brand": "United States Postal Service", "brand:wikidata": "Q668687", "collection_times": "Mo-Fr 12:00; Sa 10:00", "name": "USPS COLLECTION BOX - BLUE BOX", "nsi_id": "unitedstatespostalservice-a77078", "operator": "United States Postal Service", "operator:short": "USPS", "operator:type": "public", "operator:wikidata": "Q668687", "ref": "3679200001"}, "type": "Feature"}
{"dataset_attributes": {"@spider": "usps_collection_boxes", "spider:collection_time": "2023-10-16T08:26:35.141500"}, "geometry": {"coordinates": [-86.898118733, 32.871971036], "type": "Point"}, "id": "-aaYR3CSnr97Fv5JqFkgP3mceCU=", "properties": {"@spider": "usps_collection_boxes", "addr:city": "RANDOLPH", "addr:country": "US", "addr:full": "8770 HIGHWAY 139", "addr:postcode": "36792", "addr:state": "AL", "amenity": "post_box", "brand": "United States Postal Service", "brand:wikidata": "Q668687", "collection_times": "Mo-Fr 12:00; Sa 10:00", "name": "USPS COLLECTION BOX - PO LOBBY", "nsi_id": "unitedstatespostalservice-a77078", "operator": "United States Postal Service", "operator:short": "USPS", "operator:type": "public", "operator:wikidata": "Q668687", "ref": "3679200003"}, "type": "Feature"}
