{"geometry": {"coordinates": [-85.374115, 32.645404], "type": "Point"}, "id": "lf_duGEZQRUyVIuAM9uX4B5mdQI=", "properties": {"@spider": "usps_collection_boxes", "addr:city": "OPELIKA", "addr:country": "US", "addr:full": "500 S 7TH ST", "addr:postcode": "36801", "addr:state": "AL", "brand": "USPS", "collection_times": "Mo-Fr 17:30; Sa 13:00", "name": "USPS COLLECTION BOX - BLUE BOX", "note": "ON 12/24 AND 12/31, THIS BOX MAY BE COLLECTED AS EARLY AS 12 NOON.", "ref": "3680100000"}, "type": "Feature"}
{"geometry": {"coordinates": [-85.374115, 32.645404], "type": "Point"}, "id": "qg5Fqry9kSCAAoCZ6mtKRIXn3O4=", "properties": {"@spider": "usps_collection_boxes", "addr:city": "OPELIKA", "addr:country": "US", "addr:full": "500 S 7TH ST", "addr:postcode": "36801", "addr:state": "AL", "brand": "USPS", "collection_times": "Mo-Fr 17:30; Sa 13:00", "name": "USPS COLLECTION BOX - BLUE BOX", "note": "ON 12/24 AND 12/31, THIS BOX MAY BE COLLECTED AS EARLY AS 12 NOON.", "ref": "3680100001"}, "type": "Feature"}
{"geometry": {"coordinates": [-85.374115, 32.645404], "type": "Point"}, "id": "7KtCSZxXOWeDxbad6clC9pPYBsQ=", "properties": {"@spider": "usps_collection_boxes", "addr:city": "OPELIKA", "addr:country": "US", "addr:full": "500 S 7TH ST", "addr:postcode": "36801", "addr:state": "AL", "brand": "USPS", "collection_times": "Mo-Fr 17:30; Sa 13:00", "name": "USPS COLLECTION BOX - BLUE BOX", "note": "ON 12/24 AND 12/31, THIS BOX MAY BE COLLECTED AS EARLY AS 12 NOON.", "ref": "3680100002"}, "type": "Feature"}
{"geometry": {"coordinates": [-85.4040724, 32.624617], "type": "Point"}, "id": "MeFloFzVygrIByrswUwZt70qnZE=", "properties": {"@spider": "usps_collection_boxes", "addr:city": "OPELIKA", "addr:country": "US", "addr:full": "2311 GATEWAY DR", "addr:postcode": "36801", "addr:state": "AL", "brand": "USPS", "collection_times": "Mo-Fr 14:00; Sa 09:00", "name": "USPS COLLECTION BOX - BLUE BOX", "note": "ON 12/24 AND 12/31, THIS BOX MAY BE COLLECTED AS EARLY AS 12 NOON.", "ref": "3680100010"}, "type": "Feature"}
{"geometry": {"coordinates": [-85.4037355, 32.636204], "type": "Point"}, "id": "BKUjphLDT01yALGmT8CkQWOf9rI=", "properties": {"@spider": "usps_collection_boxes", "addr:city": "OPELIKA", "addr:country": "US", "addr:full": "121 N 20TH ST", "addr:postcode": "36801", "addr:state": "AL", "brand": "USPS", "collection_times": "Mo-Fr 14:00; Sa 09:00", "name": "USPS COLLECTION BOX - BLUE BOX", "note": "ON 12/24 AND 12/31, THIS BOX MAY BE COLLECTED AS EARLY AS 12 NOON.", "ref": "3680100011"}, "type": "Feature"}
{"geometry": {"coordinates": [-85.3640662, 32.665117], "type": "Point"}, "id": "ti66LqY2ZcYbWClhUc1WVPIVTm4=", "properties": {"@spider": "usps_collection_boxes", "addr:city": "OPELIKA", "addr:country": "US", "addr:full": "1441 FOX RUN PKWY", "addr:postcode": "36801", "addr:state": "AL", "brand": "USPS", "collection_times": "Mo-Sa 11:00", "name": "USPS COLLECTION BOX - BLUE BOX", "ref": "3680100034"}, "type": "Feature"}
{"geometry": {"coordinates": [-85.374115, 32.645404], "type": "Point"}, "id": "Lt0IVeRTqf-7p1RDhEoywiVdSdk=", "properties": {"@spider": "usps_collection_boxes", "addr:city": "OPELIKA", "addr:country": "US", "addr:full": "500 S 7TH ST", "addr:postcode": "36801", "addr:state": "AL", "brand": "USPS", "collection_times": "Mo-Fr 17:30; Sa 13:00", "name": "USPS COLLECTION BOX - PO LOBBY", "note": "ON 12/24 AND 12/31, THIS BOX MAY BE COLLECTED AS EARLY AS 12 NOON.", "ref": "3680100035"}, "type": "Feature"}
{"geometry": {"coordinates": [-85.4040668, 32.624639], "type": "Point"}, "id": "N4MXJzOB4PsIltp5IqXaQYWqrIQ=", "properties": {"@spider": "usps_collection_boxes", "addr:city": "OPELIKA", "addr:country": "US", "addr:full": "2311 GATEWAY DR", "addr:postcode": "36801", "addr:state": "AL", "brand": "USPS", "collection_times": "Mo-Fr 14:00; Sa 09:00", "name": "USPS COLLECTION BOX - BLUE BOX", "note": "ON 12/24 AND 12/31, THIS BOX MAY BE COLLECTED AS EARLY AS 12 NOON.", "ref": "3680100037"}, "type": "Feature"}
{"geometry": {"coordinates": [-85.374115, 32.645404], "type": "Point"}, "id": "WkfaEoC6AISkrrhNcwyqM1xUuf0=", "properties": {"@spider": "usps_collection_boxes", "addr:city": "OPELIKA", "addr:country": "US", "addr:full": "500 S 7TH ST", "addr:postcode": "36801", "addr:state": "AL", "brand": "USPS", "collection_times": "Mo-Fr 17:30; Sa 13:00", "name": "USPS COLLECTION BOX - BLUE BOX", "note": "ON 12/24 AND 12/31, THIS BOX MAY BE COLLECTED AS EARLY AS 12 NOON.", "ref": "3680100041"}, "type": "Feature"}
{"geometry": {"coordinates": [-85.4266474, 32.614503], "type": "Point"}, "id": "8bkHRXmFr2qsGl92VZXjitu9-fs=", "properties": {"@spider": "usps_collection_boxes", "addr:city": "OPELIKA", "addr:country": "US", "addr:full": "3320 SKYWAY DR", "addr:postcode": "36801", "addr:state": "AL", "brand": "USPS", "collection_times": "Mo-Fr 11:30; Sa 09:00", "name": "USPS COLLECTION BOX - BLUE BOX", "ref": "3680100042"}, "type": "Feature"}
{"geometry": {"coordinates": [-85.374118704, 32.64544305], "type": "Point"}, "id": "j_HGBgjUB65cYW2oykZsX_6shl0=", "properties": {"@spider": "usps_collection_boxes", "addr:city": "OPELIKA", "addr:country": "US", "addr:full": "500 S 7TH ST", "addr:postcode": "36801", "addr:state": "AL", "brand": "USPS", "collection_times": "Mo-Fr 17:00; Sa 12:00", "name": "USPS COLLECTION BOX - PO LOBBY", "note": "ON 12/24 AND 12/31, THIS BOX MAY BE COLLECTED AS EARLY AS 12 NOON.", "ref": "3680100050"}, "type": "Feature"}
{"geometry": {"coordinates": [-85.4862574, 32.597799], "type": "Point"}, "id": "yvymHtsvY4MStiR8XS_6An1Ay00=", "properties": {"@spider": "usps_collection_boxes", "addr:city": "AUBURN", "addr:country": "US", "addr:full": "305 W SAMFORD AVE", "addr:postcode": "36830", "addr:state": "AL", "brand": "USPS", "collection_times": "Mo-Sa 09:00", "name": "USPS COLLECTION BOX - BLUE BOX", "ref": "3683000001"}, "type": "Feature"}
{"geometry": {"coordinates": [-85.5121888, 32.602626], "type": "Point"}, "id": "3oqZXdqx0dgcO2qVyUc-YMiu4oM=", "properties": {"@spider": "usps_collection_boxes", "addr:city": "AUBURN", "addr:country": "US", "addr:full": "1549 PUMPHREY AVE", "addr:postcode": "36830", "addr:state": "AL", "brand": "USPS", "collection_times": "Mo-Sa 10:00", "name": "USPS COLLECTION BOX - BLUE BOX", "ref": "3683000006"}, "type": "Feature"}
{"geometry": {"coordinates": [-85.4809243, 32.606604], "type": "Point"}, "id": "FEENKFPikJ-2wEYnyNjJNaKJsUc=", "properties": {"@spider": "usps_collection_boxes", "addr:city": "AUBURN", "addr:country": "US", "addr:full": "100 N COLLEGE ST", "addr:postcode": "36830", "addr:state": "AL", "brand": "USPS", "collection_times": "Mo-Sa 11:00", "name": "USPS COLLECTION BOX - BLUE BOX", "ref": "3683000009"}, "type": "Feature"}
{"geometry": {"coordinates": [-85.4770191, 32.61248], "type": "Point"}, "id": "JKTh0YKhE15oYsnqhPWRb0MO95o=", "properties": {"@spider": "usps_collection_boxes", "addr:city": "AUBURN", "addr:country": "US", "addr:full": "300 OPELIKA RD", "addr:postcode": "36830", "addr:state": "AL", "brand": "USPS", "collection_times": "Mo-Fr 17:30; Sa 13:00", "name": "USPS COLLECTION BOX - BLUE BOX", "note": "ON 12/24 AND 12/31, THIS BOX MAY BE COLLECTED AS EARLY AS 12 NOON.", "ref": "3683000017"}, "type": "Feature"}
{"geometry": {"coordinates": [-85.4449688, 32.626464], "type": "Point"}, "id": "Qu1KKVV07PKCOrH7lzvGD9kO_Fc=", "properties": {"@spider": "usps_collection_boxes", "addr:city": "AUBURN", "addr:country": "US", "addr:full": "1627 OPELIKA RD", "addr:postcode": "36830", "addr:state": "AL", "brand": "USPS", "collection_times": "Mo-Sa 09:45", "name": "USPS COLLECTION BOX - BLUE BOX", "ref": "3683000028"}, "type": "Feature"}
{"geometry": {"coordinates": [-85.4490804, 32.610281], "type": "Point"}, "id": "zhXlV5kJMZiURhpVfNokqdQ6XSI=", "properties": {"@spider": "usps_collection_boxes", "addr:city": "AUBURN", "addr:country": "US", "addr:full": "1625 E UNIVERSITY DR", "addr:postcode": "36830", "addr:state": "AL", "brand": "USPS", "collection_times": "Mo-Sa 10:30", "name": "USPS COLLECTION BOX - BLUE BOX", "ref": "3683000037"}, "type": "Feature"}
{"geometry": {"coordinates": [-85.4768035, 32.612119], "type": "Point"}, "id": "f0ZlOhZkFOPfy5VMX2DZMbMuM5k=", "properties": {"@spider": "usps_collection_boxes", "addr:city": "AUBURN", "addr:country": "US", "addr:full": "300 OPELIKA RD", "addr:postcode": "36830", "addr:state": "AL", "brand": "USPS", "collection_times": "Mo-Fr 17:30; Sa 13:00", "name": "USPS COLLECTION BOX - PO LOBBY", "note": "ON 12/24 AND 12/31, THIS BOX MAY BE COLLECTED AS EARLY AS 12 NOON.", "ref": "3683000046"}, "type": "Feature"}
{"geometry": {"coordinates": [-85.4804122, 32.608331], "type": "Point"}, "id": "0nu8woxOJdCrMpkd1iLeE7H8WFY=", "properties": {"@spider": "usps_collection_boxes", "addr:city": "AUBURN", "addr:country": "US", "addr:full": "144 TICHENOR AVE", "addr:postcode": "36830", "addr:state": "AL", "brand": "USPS", "collection_times": "Mo-Sa 12:00", "name": "USPS COLLECTION BOX - BLUE BOX", "ref": "3683000049"}, "type": "Feature"}
{"geometry": {"coordinates": [-85.427589, 32.611324], "type": "Point"}, "id": "9pqDXWoU8BefAQS4PigM4BpPAX8=", "properties": {"@spider": "usps_collection_boxes", "addr:city": "AUBURN", "addr:country": "US", "addr:full": "2515 E GLENN AVE", "addr:postcode": "36830", "addr:state": "AL", "brand": "USPS", "collection_times": "Mo-Sa 12:30", "name": "USPS COLLECTION BOX - BLUE BOX", "note": "ON 12/24 AND 12/31, THIS BOX MAY BE COLLECTED AS EARLY AS 12 NOON.", "ref": "3683000053"}, "type": "Feature"}
{"geometry": {"coordinates": [-85.4971906, 32.571015], "type": "Point"}, "id": "eQx3mZ_mhIphP5b87Hbh6QIEpic=", "properties": {"@spider": "usps_collection_boxes", "addr:city": "AUBURN", "addr:country": "US", "addr:full": "1717 S COLLEGE ST", "addr:postcode": "36830", "addr:state": "AL", "brand": "USPS", "collection_times": "Mo-Sa 10:00", "name": "USPS COLLECTION BOX - BLUE BOX", "ref": "3683000055"}, "type": "Feature"}
{"geometry": {"coordinates": [-85.4390527, 32.583722], "type": "Point"}, "id": "gQQkdMMZ7iM6yc4NVFHvFmUUGr4=", "properties": {"@spider": "usps_collection_boxes", "addr:city": "AUBURN", "addr:country": "US", "addr:full": "1899 OGLETREE RD", "addr:postcode": "36830", "addr:state": "AL", "brand": "USPS", "collection_times": "Mo-Sa 12:30", "name": "USPS COLLECTION BOX - BLUE BOX", "note": "ON 12/24 AND 12/31, THIS BOX MAY BE COLLECTED AS EARLY AS 12 NOON.", "ref": "3683000056"}, "type": "Feature"}
{"geometry": {"coordinates": [-85.477134595, 32.612565892], "type": "Point"}, "id": "eBbNhicEfE7kpUOFZLD--5dfplY=", "properties": {"@spider": "usps_collection_boxes", "addr:city": "AUBURN", "addr:country": "US", "addr:full": "300 OPELIKA RD", "addr:postcode": "36830", "addr:state": "AL", "brand": "USPS", "collection_times": "Mo-Fr 17:00; Sa 13:00", "name": "USPS COLLECTION BOX - PO LOBBY", "note": "ON 12/24 AND 12/31, THIS BOX MAY BE COLLECTED AS EARLY AS 12 NOON.", "ref": "3683000068"}, "type": "Feature"}
{"geometry": {"coordinates": [-85.653493, 32.798371], "type": "Point"}, "id": "kLn_UyRQaLZER46Y-HPFUwWHeGI=", "properties": {"@spider": "usps_collection_boxes", "addr:city": "CAMP HILL", "addr:country": "US", "addr:full": "328 S MAIN ST", "addr:postcode": "36850", "addr:state": "AL", "brand": "USPS", "collection_times": "Mo-Fr 15:00; Sa 10:30", "name": "USPS COLLECTION BOX - BLUE BOX", "note": "ON 12/24 AND 12/31, THIS BOX MAY BE COLLECTED AS EARLY AS 12 NOON.", "ref": "3685000000"}, "type": "Feature"}
{"geometry": {"coordinates": [-85.653493, 32.798371], "type": "Point"}, "id": "XLypmgbZDtJGl8VZ51BMqu5YxFQ=", "properties": {"@spider": "usps_collection_boxes", "addr:city": "CAMP HILL", "addr:country": "US", "addr:full": "328 S MAIN ST", "addr:postcode": "36850", "addr:state": "AL", "brand": "USPS", "collection_times": "Mo-Fr 15:00; Sa 10:30", "name": "USPS COLLECTION BOX - PO LOBBY", "note": "ON 12/24 AND 12/31, THIS BOX MAY BE COLLECTED AS EARLY AS 12 NOON.", "ref": "3685000001"}, "type": "Feature"}
{"geometry": {"coordinates": [-85.653495687, 32.798124], "type": "Point"}, "id": "tmuvUAe15FxQx2eF_OseAZmyAXM=", "properties": {"@spider": "usps_collection_boxes", "addr:city": "CAMP HILL", "addr:country": "US", "addr:full": "328 S MAIN ST", "addr:postcode": "36850", "addr:state": "AL", "brand": "USPS", "collection_times": "Mo-Fr 15:00; Sa 11:00", "name": "USPS COLLECTION BOX - PO LOBBY", "note": "ON 12/24 AND 12/31, THIS BOX MAY BE COLLECTED AS EARLY AS 12 NOON.", "ref": "3685000003"}, "type": "Feature"}
{"geometry": {"coordinates": [-85.308518, 32.789448], "type": "Point"}, "id": "MtapmvAvRXTBsjXx4PKgXsqTPHs=", "properties": {"@spider": "usps_collection_boxes", "addr:city": "CUSSETA", "addr:country": "US", "addr:full": "3200 COUNTY ROAD 83", "addr:postcode": "36852", "addr:state": "AL", "brand": "USPS", "collection_times": "Mo-Fr 11:50; Sa 08:10", "name": "USPS COLLECTION BOX - BLUE BOX", "ref": "3685200001"}, "type": "Feature"}
{"geometry": {"coordinates": [-85.308518, 32.789448], "type": "Point"}, "id": "i8dCqDJE5tLnP1AIO8kT-v2MKPQ=", "properties": {"@spider": "usps_collection_boxes", "addr:city": "CUSSETA", "addr:country": "US", "addr:full": "3200 COUNTY ROAD 83", "addr:postcode": "36852", "addr:state": "AL", "brand": "USPS", "collection_times": "Mo-Fr 11:50; Sa 08:10", "name": "USPS COLLECTION BOX - PO LOBBY", "ref": "3685200002"}, "type": "Feature"}
{"geometry": {"coordinates": [-85.308487544, 32.78944576], "type": "Point"}, "id": "Sqcbvd2SGhKaoXLOSVbongua4Io=", "properties": {"@spider": "usps_collection_boxes", "addr:city": "CUSSETA", "addr:country": "US", "addr:full": "3200 COUNTY ROAD 83", "addr:postcode": "36852", "addr:state": "AL", "brand": "USPS", "collection_times": "Mo-Fr 12:00; Sa 08:00", "name": "USPS COLLECTION BOX - PO LOBBY", "ref": "3685200005"}, "type": "Feature"}
{"geometry": {"coordinates": [-85.761201, 32.829613], "type": "Point"}, "id": "LP14vtNZ7JmM5R9GTfEeh9fCKAg=", "properties": {"@spider": "usps_collection_boxes", "addr:city": "DADEVILLE", "addr:country": "US", "addr:full": "140 S SPRING ST", "addr:postcode": "36853", "addr:state": "AL", "brand": "USPS", "collection_times": "Mo-Fr 16:00; Sa 11:30", "name": "USPS COLLECTION BOX - BLUE BOX", "note": "ON 12/24 AND 12/31, THIS BOX MAY BE COLLECTED AS EARLY AS 12 NOON.", "ref": "3685300001"}, "type": "Feature"}
{"geometry": {"coordinates": [-85.761201, 32.829613], "type": "Point"}, "id": "1arsTiBYVhD1CPE7mDSBQZUNZAY=", "properties": {"@spider": "usps_collection_boxes", "addr:city": "DADEVILLE", "addr:country": "US", "addr:full": "140 S SPRING ST", "addr:postcode": "36853", "addr:state": "AL", "brand": "USPS", "collection_times": "Mo-Fr 16:00; Sa 11:30", "name": "USPS COLLECTION BOX - PO LOBBY", "note": "ON 12/24 AND 12/31, THIS BOX MAY BE COLLECTED AS EARLY AS 12 NOON.", "ref": "3685300005"}, "type": "Feature"}
{"geometry": {"coordinates": [-85.761280372, 32.830095616], "type": "Point"}, "id": "VfpJ_9D5ffdiNICJxiEOndOHNRA=", "properties": {"@spider": "usps_collection_boxes", "addr:city": "DADEVILLE", "addr:country": "US", "addr:full": "140 S SPRING ST", "addr:postcode": "36853", "addr:state": "AL", "brand": "USPS", "collection_times": "Mo-Fr 16:30; Sa 11:30", "name": "USPS COLLECTION BOX - PO LOBBY", "note": "ON 12/24 AND 12/31, THIS BOX MAY BE COLLECTED AS EARLY AS 12 NOON.", "ref": "3685300007"}, "type": "Feature"}
{"geometry": {"coordinates": [-85.173241, 32.81698], "type": "Point"}, "id": "O6YsVErugkdQVgGPzQxYm9JkcoE=", "properties": {"@spider": "usps_collection_boxes", "addr:city": "VALLEY", "addr:country": "US", "addr:full": "30 FOB JAMES DR", "addr:postcode": "36854", "addr:state": "AL", "brand": "USPS", "collection_times": "Mo-Fr 16:30; Sa 12:00", "name": "USPS COLLECTION BOX - BLUE BOX", "note": "ON 12/24 AND 12/31, THIS BOX MAY BE COLLECTED AS EARLY AS 12 NOON.", "ref": "3685400018"}, "type": "Feature"}
{"geometry": {"coordinates": [-85.173241, 32.81698], "type": "Point"}, "id": "HtCub9sF4R4lXm54B94FgDAXxSM=", "properties": {"@spider": "usps_collection_boxes", "addr:city": "VALLEY", "addr:country": "US", "addr:full": "30 FOB JAMES DR", "addr:postcode": "36854", "addr:state": "AL", "brand": "USPS", "collection_times": "Mo-Fr 16:30; Sa 12:00", "name": "USPS COLLECTION BOX - PO LOBBY", "note": "ON 12/24 AND 12/31, THIS BOX MAY BE COLLECTED AS EARLY AS 12 NOON.", "ref": "3685400019"}, "type": "Feature"}
{"geometry": {"coordinates": [-85.173215609, 32.817017718], "type": "Point"}, "id": "C1gdbvbF0nn9kVZuYjvefSbXc10=", "properties": {"@spider": "usps_collection_boxes", "addr:city": "VALLEY", "addr:country": "US", "addr:full": "30 FOB JAMES DR", "addr:postcode": "36854", "addr:state": "AL", "brand": "USPS", "collection_times": "Mo-Fr 16:30; Sa 12:00", "name": "USPS COLLECTION BOX - PO LOBBY", "note": "ON 12/24 AND 12/31, THIS BOX MAY BE COLLECTED AS EARLY AS 12 NOON.", "ref": "3685400021"}, "type": "Feature"}
{"geometry": {"coordinates": [-85.351226, 33.018259], "type": "Point"}, "id": "k6NbAagGY9mvwAc9uhul3AEP3Cg=", "properties": {"@spider": "usps_collection_boxes", "addr:city": "FIVE POINTS", "addr:country": "US", "addr:full": "27038 US HIGHWAY 431", "addr:postcode": "36855", "addr:state": "AL", "brand": "USPS", "collection_times": "Mo-Fr 11:50; Sa 08:30", "name": "USPS COLLECTION BOX - BLUE BOX", "ref": "3685500000"}, "type": "Feature"}
{"geometry": {"coordinates": [-85.351226, 33.018259], "type": "Point"}, "id": "FqsN6zczqnw0Poqy2Uw9gvxyH8k=", "properties": {"@spider": "usps_collection_boxes", "addr:city": "FIVE POINTS", "addr:country": "US", "addr:full": "27038 US HIGHWAY 431", "addr:postcode": "36855", "addr:state": "AL", "brand": "USPS", "collection_times": "Mo-Fr 11:50; Sa 08:30", "name": "USPS COLLECTION BOX - PO LOBBY", "ref": "3685500002"}, "type": "Feature"}
{"geometry": {"coordinates": [-85.351334566, 33.018090726], "type": "Point"}, "id": "AWxRVA9mphSYBpmcn3o3u97cJo8=", "properties": {"@spider": "usps_collection_boxes", "addr:city": "FIVE POINTS", "addr:country": "US", "addr:full": "27038 US HIGHWAY 431", "addr:postcode": "36855", "addr:state": "AL", "brand": "USPS", "collection_times": "Mo-Fr 12:00; Sa 09:45", "name": "USPS COLLECTION BOX - PO LOBBY", "ref": "3685500004"}, "type": "Feature"}
{"geometry": {"coordinates": [-85.275909, 32.271878], "type": "Point"}, "id": "gRMXYoO70EIN5jlav3c7GMSh3Tc=", "properties": {"@spider": "usps_collection_boxes", "addr:city": "HATCHECHUBBEE", "addr:country": "US", "addr:full": "601 UCHEE RD", "addr:postcode": "36858", "addr:state": "AL", "brand": "USPS", "collection_times": "Mo-Fr 14:15; Sa 10:00", "name": "USPS COLLECTION BOX - BLUE BOX", "note": "ON 12/24 AND 12/31, THIS BOX MAY BE COLLECTED AS EARLY AS 12 NOON.", "ref": "3685800000"}, "type": "Feature"}
{"geometry": {"coordinates": [-85.275909, 32.271878], "type": "Point"}, "id": "djZfRLeVn-7-z4V25JHov5Rvr8g=", "properties": {"@spider": "usps_collection_boxes", "addr:city": "HATCHECHUBBEE", "addr:country": "US", "addr:full": "601 UCHEE RD", "addr:postcode": "36858", "addr:state": "AL", "brand": "USPS", "collection_times": "Mo-Fr 14:15; Sa 10:00", "name": "USPS COLLECTION BOX - PO LOBBY", "note": "ON 12/24 AND 12/31, THIS BOX MAY BE COLLECTED AS EARLY AS 12 NOON.", "ref": "3685800001"}, "type": "Feature"}
{"geometry": {"coordinates": [-85.27592222, 32.271921471], "type": "Point"}, "id": "ZWTgjaYpp7dtnXTXRL7Xx9QmG1Q=", "properties": {"@spider": "usps_collection_boxes", "addr:city": "HATCHECHUBBEE", "addr:country": "US", "addr:full": "601 UCHEE RD", "addr:postcode": "36858", "addr:state": "AL", "brand": "USPS", "collection_times": "Mo-Fr 14:30; Sa 10:00", "name": "USPS COLLECTION BOX - PO LOBBY", "note": "ON 12/24 AND 12/31, THIS BOX MAY BE COLLECTED AS EARLY AS 12 NOON.", "ref": "3685800002"}, "type": "Feature"}
{"geometry": {"coordinates": [-85.415208, 32.241255], "type": "Point"}, "id": "1msj2m1rgQu6m2NJtZgY_I1mKe8=", "properties": {"@spider": "usps_collection_boxes", "addr:city": "HURTSBORO", "addr:country": "US", "addr:full": "311 MAIN ST", "addr:postcode": "36860", "addr:state": "AL", "brand": "USPS", "collection_times": "Mo-Fr 14:20; Sa 09:00", "name": "USPS COLLECTION BOX - BLUE BOX", "note": "ON 12/24 AND 12/31, THIS BOX MAY BE COLLECTED AS EARLY AS 12 NOON.", "ref": "3686000000"}, "type": "Feature"}
{"geometry": {"coordinates": [-85.415208, 32.241255], "type": "Point"}, "id": "WmlEfEtD_D2AAivJjDfKmmTHe_4=", "properties": {"@spider": "usps_collection_boxes", "addr:city": "HURTSBORO", "addr:country": "US", "addr:full": "311 MAIN ST", "addr:postcode": "36860", "addr:state": "AL", "brand": "USPS", "collection_times": "Mo-Fr 14:20; Sa 09:00", "name": "USPS COLLECTION BOX - PO LOBBY", "note": "ON 12/24 AND 12/31, THIS BOX MAY BE COLLECTED AS EARLY AS 12 NOON.", "ref": "3686000001"}, "type": "Feature"}
{"geometry": {"coordinates": [-85.415691438, 32.242926457], "type": "Point"}, "id": "UicNZF38j9GPqgHbQUXyWFxtfXo=", "properties": {"@spider": "usps_collection_boxes", "addr:city": "HURTSBORO", "addr:country": "US", "addr:full": "311 MAIN ST", "addr:postcode": "36860", "addr:state": "AL", "brand": "USPS", "collection_times": "Mo-Fr 14:30; Sa 09:00", "name": "USPS COLLECTION BOX - PO LOBBY", "note": "ON 12/24 AND 12/31, THIS BOX MAY BE COLLECTED AS EARLY AS 12 NOON.", "ref": "3686000003"}, "type": "Feature"}
{"geometry": {"coordinates": [-85.813879, 32.887058], "type": "Point"}, "id": "XPjH0D3KKadeFRpCBkp6gcyIDbk=", "properties": {"@spider": "usps_collection_boxes", "addr:city": "JACKSONS GAP", "addr:country": "US", "addr:full": "1564 MAIN ST", "addr:postcode": "36861", "addr:state": "AL", "brand": "USPS", "collection_times": "Mo-Fr 15:00; Sa 10:00", "name": "USPS COLLECTION BOX - PO LOBBY", "note": "ON 12/24 AND 12/31, THIS BOX MAY BE COLLECTED AS EARLY AS 12 NOON.", "ref": "3686100000"}, "type": "Feature"}
{"geometry": {"coordinates": [-85.813879, 32.887058], "type": "Point"}, "id": "gqkghq4HucLsQmmKpPzighh2tP4=", "properties": {"@spider": "usps_collection_boxes", "addr:city": "JACKSONS GAP", "addr:country": "US", "addr:full": "1564 MAIN ST", "addr:postcode": "36861", "addr:state": "AL", "brand": "USPS", "collection_times": "Mo-Fr 15:00; Sa 10:00", "name": "USPS COLLECTION BOX - BLUE BOX", "note": "ON 12/24 AND 12/31, THIS BOX MAY BE COLLECTED AS EARLY AS 12 NOON.", "ref": "3686100001"}, "type": "Feature"}
{"geometry": {"coordinates": [-85.813877913, 32.887053406], "type": "Point"}, "id": "t5WUCBcIPwkmUcBqCI1zoBXQ-Xg=", "properties": {"@spider": "usps_collection_boxes", "addr:city": "JACKSONS GAP", "addr:country": "US", "addr:full": "1564 MAIN ST", "addr:postcode": "36861", "addr:state": "AL", "brand": "USPS", "collection_times": "Mo-Fr 15:00; Sa 10:00", "name": "USPS COLLECTION BOX - PO LOBBY", "note": "ON 12/24 AND 12/31, THIS BOX MAY BE COLLECTED AS EARLY AS 12 NOON.", "ref": "3686100003"}, "type": "Feature"}
{"geometry": {"coordinates": [-85.401686, 32.89983], "type": "Point"}, "id": "ajqaRmtimTpCe8QieYyHHa74YjE=", "properties": {"@spider": "usps_collection_boxes", "addr:city": "LAFAYETTE", "addr:country": "US", "addr:full": "18 ALABAMA AVE W", "addr:postcode": "36862", "addr:state": "AL", "brand": "USPS", "collection_times": "Mo-Sa 12:00", "name": "USPS COLLECTION BOX - BLUE BOX", "ref": "3686200001"}, "type": "Feature"}
{"geometry": {"coordinates": [-85.401686, 32.89983], "type": "Point"}, "id": "lX-WSkyo_-sK9pkZcD1qlQ_5NIE=", "properties": {"@spider": "usps_collection_boxes", "addr:city": "LAFAYETTE", "addr:country": "US", "addr:full": "18 ALABAMA AVE W", "addr:postcode": "36862", "addr:state": "AL", "brand": "USPS", "collection_times": "Mo-Sa 12:00", "name": "USPS COLLECTION BOX - PO LOBBY", "ref": "3686200003"}, "type": "Feature"}
{"geometry": {"coordinates": [-85.401686, 32.89983], "type": "Point"}, "id": "VqCtcu7rzTgFSjOfaKb6LIlJipo=", "properties": {"@spider": "usps_collection_boxes", "addr:city": "LAFAYETTE", "addr:country": "US", "addr:full": "18 ALABAMA AVE W", "addr:postcode": "36862", "addr:state": "AL", "brand": "USPS", "collection_times": "Mo-Sa 12:00", "name": "USPS COLLECTION BOX - BLUE BOX", "ref": "3686200006"}, "type": "Feature"}
{"geometry": {"coordinates": [-85.401700743, 32.899865096], "type": "Point"}, "id": "vYAcqYiTSLzEVyvFdkqFbbfOTN0=", "properties": {"@spider": "usps_collection_boxes", "addr:city": "LAFAYETTE", "addr:country": "US", "addr:full": "18 ALABAMA AVE W", "addr:postcode": "36862", "addr:state": "AL", "brand": "USPS", "collection_times": "Mo-Fr 16:00; Sa 12:00", "name": "USPS COLLECTION BOX - PO LOBBY", "note": "ON 12/24 AND 12/31, THIS BOX MAY BE COLLECTED AS EARLY AS 12 NOON.", "ref": "3686200007"}, "type": "Feature"}
{"geometry": {"coordinates": [-85.1883168, 32.867726], "type": "Point"}, "id": "E-3P3__KfY7N_b3L3XvVYxnUDjA=", "properties": {"@spider": "usps_collection_boxes", "addr:city": "LANETT", "addr:country": "US", "addr:full": "1 1ST ST", "addr:postcode": "36863", "addr:state": "AL", "brand": "USPS", "collection_times": "Mo-Fr 16:30; Sa 11:00", "name": "USPS COLLECTION BOX - BLUE BOX", "note": "ON 12/24 AND 12/31, THIS BOX MAY BE COLLECTED AS EARLY AS 12 NOON.", "ref": "3686300000"}, "type": "Feature"}
{"geometry": {"coordinates": [-85.1883055, 32.867734], "type": "Point"}, "id": "AQYdqKLsWw9-wcjnHS4O6029Gx4=", "properties": {"@spider": "usps_collection_boxes", "addr:city": "LANETT", "addr:country": "US", "addr:full": "1 1ST ST", "addr:postcode": "36863", "addr:state": "AL", "brand": "USPS", "collection_times": "Mo-Fr 16:30; Sa 11:00", "name": "USPS COLLECTION BOX - BLUE BOX", "note": "ON 12/24 AND 12/31, THIS BOX MAY BE COLLECTED AS EARLY AS 12 NOON.", "ref": "3686300001"}, "type": "Feature"}
{"geometry": {"coordinates": [-85.1882074, 32.867586], "type": "Point"}, "id": "v5Rx9ClrbBY8LdrxbNIj9GhXMMc=", "properties": {"@spider": "usps_collection_boxes", "addr:city": "LANETT", "addr:country": "US", "addr:full": "1 1ST ST", "addr:postcode": "36863", "addr:state": "AL", "brand": "USPS", "collection_times": "Mo-Fr 16:30; Sa 11:00", "name": "USPS COLLECTION BOX - PO LOBBY", "note": "ON 12/24 AND 12/31, THIS BOX MAY BE COLLECTED AS EARLY AS 12 NOON.", "ref": "3686300009"}, "type": "Feature"}
{"geometry": {"coordinates": [-85.187503833, 32.867938472], "type": "Point"}, "id": "dB1B0BIzUSOkzDVWfzMAj4W5Dao=", "properties": {"@spider": "usps_collection_boxes", "addr:city": "LANETT", "addr:country": "US", "addr:full": "1 1ST ST", "addr:postcode": "36863", "addr:state": "AL", "brand": "USPS", "collection_times": "Mo-Fr 16:30; Sa 11:00", "name": "USPS COLLECTION BOX - PO LOBBY", "note": "ON 12/24 AND 12/31, THIS BOX MAY BE COLLECTED AS EARLY AS 12 NOON.", "ref": "3686300015"}, "type": "Feature"}
{"geometry": {"coordinates": [-85.598083, 32.604348], "type": "Point"}, "id": "8w_NjX6QnwjWa7iRRd6mWRCD0o8=", "properties": {"@spider": "usps_collection_boxes", "addr:city": "LOACHAPOKA", "addr:country": "US", "addr:full": "6520 STAGE RD", "addr:postcode": "36865", "addr:state": "AL", "brand": "USPS", "collection_times": "Mo-Fr 13:00; Sa 10:00", "name": "USPS COLLECTION BOX - BLUE BOX", "note": "ON 12/24 AND 12/31, THIS BOX MAY BE COLLECTED AS EARLY AS 12 NOON.", "ref": "3686500000"}, "type": "Feature"}
{"geometry": {"coordinates": [-85.597998, 32.604321], "type": "Point"}, "id": "0DU_r3Ee2Y0q_Y55pG1COj-z_e0=", "properties": {"@spider": "usps_collection_boxes", "addr:city": "LOACHAPOKA", "addr:country": "US", "addr:full": "6520 STAGE RD", "addr:postcode": "36865", "addr:state": "AL", "brand": "USPS", "collection_times": "Mo-Fr 13:00; Sa 10:00", "name": "USPS COLLECTION BOX - PO LOBBY", "note": "ON 12/24 AND 12/31, THIS BOX MAY BE COLLECTED AS EARLY AS 12 NOON.", "ref": "3686500001"}, "type": "Feature"}
{"geometry": {"coordinates": [-85.598054722, 32.604385872], "type": "Point"}, "id": "zAet8Nr6_LZsyp6Yr8JMXus8E9M=", "properties": {"@spider": "usps_collection_boxes", "addr:city": "LOACHAPOKA", "addr:country": "US", "addr:full": "6520 STAGE RD", "addr:postcode": "36865", "addr:state": "AL", "brand": "USPS", "collection_times": "Mo-Fr 13:00; Sa 10:00", "name": "USPS COLLECTION BOX - PO LOBBY", "note": "ON 12/24 AND 12/31, THIS BOX MAY BE COLLECTED AS EARLY AS 12 NOON.", "ref": "3686500002"}, "type": "Feature"}
{"geometry": {"coordinates": [-85.6724, 32.559704], "type": "Point"}, "id": "iMy9J0Ghx26JljI0SlZoHVMxEhA=", "properties": {"@spider": "usps_collection_boxes", "addr:city": "NOTASULGA", "addr:country": "US", "addr:full": "241 LYONS ST", "addr:postcode": "36866", "addr:state": "AL", "brand": "USPS", "collection_times": "Mo-Fr 12:30; Sa 10:30", "name": "USPS COLLECTION BOX - BLUE BOX", "note": "ON 12/24 AND 12/31, THIS BOX MAY BE COLLECTED AS EARLY AS 12 NOON.", "ref": "3686600000"}, "type": "Feature"}
{"geometry": {"coordinates": [-85.6724, 32.559704], "type": "Point"}, "id": "LuHkywlPy_UwvoIdlzAVYzjIH4k=", "properties": {"@spider": "usps_collection_boxes", "addr:city": "NOTASULGA", "addr:country": "US", "addr:full": "241 LYONS ST", "addr:postcode": "36866", "addr:state": "AL", "brand": "USPS", "collection_times": "Mo-Fr 12:30; Sa 10:30", "name": "USPS COLLECTION BOX - PO LOBBY", "note": "ON 12/24 AND 12/31, THIS BOX MAY BE COLLECTED AS EARLY AS 12 NOON.", "ref": "3686600001"}, "type": "Feature"}
{"geometry": {"coordinates": [-85.672511801, 32.561527442], "type": "Point"}, "id": "AaGOnzgA52D2ERkOE_2WcNp8jE8=", "properties": {"@spider": "usps_collection_boxes", "addr:city": "NOTASULGA", "addr:country": "US", "addr:full": "241 LYON ST", "addr:postcode": "36866", "addr:state": "AL", "brand": "USPS", "collection_times": "Mo-Fr 16:00; Sa 10:30", "name": "USPS COLLECTION BOX - PO LOBBY", "note": "ON 12/24 AND 12/31, THIS BOX MAY BE COLLECTED AS EARLY AS 12 NOON.", "ref": "3686600003"}, "type": "Feature"}
{"geometry": {"coordinates": [-85.162881, 32.188298], "type": "Point"}, "id": "ppCBzhj4JaLafmOAeXx25c8CYBk=", "properties": {"@spider": "usps_collection_boxes", "addr:city": "PITTSVIEW", "addr:country": "US", "addr:full": "85 LECONTE ST", "addr:postcode": "36871", "addr:state": "AL", "brand": "USPS", "collection_times": "Mo-Fr 11:20; Sa 09:00", "name": "USPS COLLECTION BOX - BLUE BOX", "ref": "3687100000"}, "type": "Feature"}
{"geometry": {"coordinates": [-85.162881, 32.188298], "type": "Point"}, "id": "NsWYjkho-tftZbkyGdXpz_fz0So=", "properties": {"@spider": "usps_collection_boxes", "addr:city": "PITTSVIEW", "addr:country": "US", "addr:full": "85 LECONTE ST", "addr:postcode": "36871", "addr:state": "AL", "brand": "USPS", "collection_times": "Mo-Fr 11:20; Sa 09:00", "name": "USPS COLLECTION BOX - PO LOBBY", "ref": "3687100001"}, "type": "Feature"}
{"geometry": {"coordinates": [-85.162794789, 32.188274824], "type": "Point"}, "id": "NK885qUHqFAGKLnOSZwD4k-Xe14=", "properties": {"@spider": "usps_collection_boxes", "addr:city": "PITTSVIEW", "addr:country": "US", "addr:full": "85 LECONTE ST", "addr:postcode": "36871", "addr:state": "AL", "brand": "USPS", "collection_times": "Mo-Fr 11:30; Sa 09:00", "name": "USPS COLLECTION BOX - PO LOBBY", "ref": "3687100003"}, "type": "Feature"}
{"geometry": {"coordinates": [-85.240772, 32.596308], "type": "Point"}, "id": "cL4s31S3NIc8S9LKpFi-OysNVrI=", "properties": {"@spider": "usps_collection_boxes", "addr:city": "SALEM", "addr:country": "US", "addr:full": "5153 LEE ROAD 145", "addr:postcode": "36874", "addr:state": "AL", "brand": "USPS", "collection_times": "Mo-Fr 15:45; Sa 10:00", "name": "USPS COLLECTION BOX - BLUE BOX", "note": "ON 12/24 AND 12/31, THIS BOX MAY BE COLLECTED AS EARLY AS 12 NOON.", "ref": "3687400000"}, "type": "Feature"}
{"geometry": {"coordinates": [-85.240772, 32.596308], "type": "Point"}, "id": "7egY_67VRSiOWlNpsPn_KaEzapM=", "properties": {"@spider": "usps_collection_boxes", "addr:city": "SALEM", "addr:country": "US", "addr:full": "5153 LEE ROAD 145", "addr:postcode": "36874", "addr:state": "AL", "brand": "USPS", "collection_times": "Mo-Fr 15:45; Sa 10:00", "name": "USPS COLLECTION BOX - PO LOBBY", "note": "ON 12/24 AND 12/31, THIS BOX MAY BE COLLECTED AS EARLY AS 12 NOON.", "ref": "3687400001"}, "type": "Feature"}
{"geometry": {"coordinates": [-85.240773, 32.596302475], "type": "Point"}, "id": "BQOEZ4vQFGm7iwMf2na9mtJp7gQ=", "properties": {"@spider": "usps_collection_boxes", "addr:city": "SALEM", "addr:country": "US", "addr:full": "5153 LEE ROAD 145", "addr:postcode": "36874", "addr:state": "AL", "brand": "USPS", "collection_times": "Mo-Fr 16:00; Sa 10:00", "name": "USPS COLLECTION BOX - PO LOBBY", "note": "ON 12/24 AND 12/31, THIS BOX MAY BE COLLECTED AS EARLY AS 12 NOON.", "ref": "3687400003"}, "type": "Feature"}
{"geometry": {"coordinates": [-85.57668, 32.735297], "type": "Point"}, "id": "KpoXoyEY6SmK1P53YqfGG15Ncsw=", "properties": {"@spider": "usps_collection_boxes", "addr:city": "WAVERLY", "addr:country": "US", "addr:full": "1478 PATRICK ST", "addr:postcode": "36879", "addr:state": "AL", "brand": "USPS", "collection_times": "Mo-Fr 15:00; Sa 09:45", "name": "USPS COLLECTION BOX - BLUE BOX", "note": "ON 12/24 AND 12/31, THIS BOX MAY BE COLLECTED AS EARLY AS 12 NOON.", "ref": "3687900000"}, "type": "Feature"}
{"geometry": {"coordinates": [-85.57668, 32.735297], "type": "Point"}, "id": "li2hEea1uN7UbNvPCNYd5xwKoNo=", "properties": {"@spider": "usps_collection_boxes", "addr:city": "WAVERLY", "addr:country": "US", "addr:full": "1478 PATRICK ST", "addr:postcode": "36879", "addr:state": "AL", "brand": "USPS", "collection_times": "Mo-Fr 15:00; Sa 09:45", "name": "USPS COLLECTION BOX - PO LOBBY", "note": "ON 12/24 AND 12/31, THIS BOX MAY BE COLLECTED AS EARLY AS 12 NOON.", "ref": "3687900001"}, "type": "Feature"}
{"geometry": {"coordinates": [-85.576681964, 32.735294475], "type": "Point"}, "id": "jGYkiK0zflujpC-LU9aEUkrUx_8=", "properties": {"@spider": "usps_collection_boxes", "addr:city": "WAVERLY", "addr:country": "US", "addr:full": "1478 PATRICK ST", "addr:postcode": "36879", "addr:state": "AL", "brand": "USPS", "collection_times": "Mo-Fr 15:00; Sa 10:00", "name": "USPS COLLECTION BOX - PO LOBBY", "note": "ON 12/24 AND 12/31, THIS BOX MAY BE COLLECTED AS EARLY AS 12 NOON.", "ref": "3687900003"}, "type": "Feature"}
