{"dataset_attributes": {"@spider": "usps_collection_boxes", "spider:collection_time": "2023-10-04T08:25:43.293951"}, "geometry": {"coordinates": [-88.133833553, 32.449322177], "type": "Point"}, "id": "QNK3-4cGaqnkLDmoW8LNtqXQJxY=", "properties": {"@spider": "usps_collection_boxes", "addr:city": "BELLAMY", "addr:country": "US", "addr:full": "591 PINE ST", "addr:postcode": "36901", "addr:state": "AL", "amenity": "post_box", "brand": "United States Postal Service", "brand:wikidata": "Q668687", "collection_times": "Mo-Fr 14:30; Sa 10:45", "name": "USPS COLLECTION BOX - BLUE BOX", "note": "ON 12/24 AND 12/31, THIS BOX MAY BE COLLECTED AS EARLY AS 12 NOON.", "nsi_id": "unitedstatespostalservice-a77078", "operator": "United States Postal Service", "operator:short": "USPS", "operator:type": "public", "operator:wikidata": "Q668687", "ref": "3690100000"}, "type": "Feature"}
{"dataset_attributes": {"@spider": "usps_collection_boxes", "spider:collection_time": "2023-10-04T08:25:43.293951"}, "geometry": {"coordinates": [-88.133833553, 32.449322177], "type": "Point"}, "id": "kgSp6XpTri9MYubv2XSIxlaqxTE=", "properties": {"@spider": "usps_collection_boxes", "addr:city": "BELLAMY", "addr:country": "US", "addr:full": "591 PINE ST", "addr:postcode": "36901", "addr:state": "AL", "amenity": "post_box", "brand": "United States Postal Service", "brand:wikidata": "Q668687", "collection_times": "Mo-Fr 14:30; Sa 10:45", "name": "USPS COLLECTION BOX - PO LOBBY", "note": "ON 12/24 AND 12/31, THIS BOX MAY BE COLLECTED AS EARLY AS 12 NOON.", "nsi_id": "unitedstatespostalservice-a77078", "operator": "United States Postal Service", "operator:short": "USPS", "operator:type": "public", "operator:wikidata": "Q668687", "ref": "3690100008"}, "type": "Feature"}
{"dataset_attributes": {"@spider": "usps_collection_boxes", "spider:collection_time": "2023-10-04T08:25:43.293951"}, "geometry": {"coordinates": [-88.133833553, 32.449322177], "type": "Point"}, "id": "z_KxRL2oXGKXX6uYbLa_-VjUe3Q=", "properties": {"@spider": "usps_collection_boxes", "addr:city": "BELLAMY", "addr:country": "US", "addr:full": "591 PINE ST", "addr:postcode": "36901", "addr:state": "AL", "amenity": "post_box", "brand": "United States Postal Service", "brand:wikidata": "Q668687", "collection_times": "Mo-Fr 14:30; Sa 11:00", "name": "USPS COLLECTION BOX - PO LOBBY", "note": "ON 12/24 AND 12/31, THIS BOX MAY BE COLLECTED AS EARLY AS 12 NOON.", "nsi_id": "unitedstatespostalservice-a77078", "operator": "United States Postal Service", "operator:short": "USPS", "operator:type": "public", "operator:wikidata": "Q668687", "ref": "3690100009"}, "type": "Feature"}
{"dataset_attributes": {"@spider": "usps_collection_boxes", "spider:collection_time": "2023-10-04T08:25:43.293951"}, "geometry": {"coordinates": [-88.221699664, 32.087250077], "type": "Point"}, "id": "zJioz88Rpl2THHfq9hZYX4t6t3Y=", "properties": {"@spider": "usps_collection_boxes", "addr:city": "BUTLER", "addr:country": "US", "addr:full": "132 RIDERWOOD DR", "addr:postcode": "36904", "addr:state": "AL", "amenity": "post_box", "brand": "United States Postal Service", "brand:wikidata": "Q668687", "collection_times": "Mo-Fr 16:15; Sa 11:00", "name": "USPS COLLECTION BOX - BLUE BOX", "note": "ON 12/24 AND 12/31, THIS BOX MAY BE COLLECTED AS EARLY AS 12 NOON.", "nsi_id": "unitedstatespostalservice-a77078", "operator": "United States Postal Service", "operator:short": "USPS", "operator:type": "public", "operator:wikidata": "Q668687", "ref": "3690400001"}, "type": "Feature"}
{"dataset_attributes": {"@spider": "usps_collection_boxes", "spider:collection_time": "2023-10-04T08:25:43.293951"}, "geometry": {"coordinates": [-88.221699664, 32.087250077], "type": "Point"}, "id": "agVYi2TQRvYp3lnZCaKV5fAO4zk=", "properties": {"@spider": "usps_collection_boxes", "addr:city": "BUTLER", "addr:country": "US", "addr:full": "132 RIDERWOOD DR", "addr:postcode": "36904", "addr:state": "AL", "amenity": "post_box", "brand": "United States Postal Service", "brand:wikidata": "Q668687", "collection_times": "Mo-Fr 16:15; Sa 11:00", "name": "USPS COLLECTION BOX - PO LOBBY", "note": "ON 12/24 AND 12/31, THIS BOX MAY BE COLLECTED AS EARLY AS 12 NOON.", "nsi_id": "unitedstatespostalservice-a77078", "operator": "United States Postal Service", "operator:short": "USPS", "operator:type": "public", "operator:wikidata": "Q668687", "ref": "3690400002"}, "type": "Feature"}
{"dataset_attributes": {"@spider": "usps_collection_boxes", "spider:collection_time": "2023-10-04T08:25:43.293951"}, "geometry": {"coordinates": [-88.221699664, 32.087250077], "type": "Point"}, "id": "NdiwWKXQLzxi-0XUuV5WbeDQrQk=", "properties": {"@spider": "usps_collection_boxes", "addr:city": "BUTLER", "addr:country": "US", "addr:full": "132 RIDERWOOD DR", "addr:postcode": "36904", "addr:state": "AL", "amenity": "post_box", "brand": "United States Postal Service", "brand:wikidata": "Q668687", "collection_times": "Mo-Fr 16:30; Sa 11:00", "name": "USPS COLLECTION BOX - PO LOBBY", "note": "ON 12/24 AND 12/31, THIS BOX MAY BE COLLECTED AS EARLY AS 12 NOON.", "nsi_id": "unitedstatespostalservice-a77078", "operator": "United States Postal Service", "operator:short": "USPS", "operator:type": "public", "operator:wikidata": "Q668687", "ref": "3690400003"}, "type": "Feature"}
{"dataset_attributes": {"@spider": "usps_collection_boxes", "spider:collection_time": "2023-10-04T08:25:43.293951"}, "geometry": {"coordinates": [-88.379370173, 32.434568809], "type": "Point"}, "id": "FhTfSviuV_d9x8VFsOYQBAugxvQ=", "properties": {"@spider": "usps_collection_boxes", "addr:city": "CUBA", "addr:country": "US", "addr:full": "404 THIRD ST", "addr:postcode": "36907", "addr:state": "AL", "amenity": "post_box", "brand": "United States Postal Service", "brand:wikidata": "Q668687", "collection_times": "Mo-Fr 14:00; Sa 10:10", "name": "USPS COLLECTION BOX - BLUE BOX", "note": "ON 12/24 AND 12/31, THIS BOX MAY BE COLLECTED AS EARLY AS 12 NOON.", "nsi_id": "unitedstatespostalservice-a77078", "operator": "United States Postal Service", "operator:short": "USPS", "operator:type": "public", "operator:wikidata": "Q668687", "ref": "3690700000"}, "type": "Feature"}
{"dataset_attributes": {"@spider": "usps_collection_boxes", "spider:collection_time": "2023-10-04T08:25:43.293951"}, "geometry": {"coordinates": [-88.379370173, 32.434568809], "type": "Point"}, "id": "MI1E76LuV7vyMvHAiNOjv7KBODg=", "properties": {"@spider": "usps_collection_boxes", "addr:city": "CUBA", "addr:country": "US", "addr:full": "404 THIRD ST", "addr:postcode": "36907", "addr:state": "AL", "amenity": "post_box", "brand": "United States Postal Service", "brand:wikidata": "Q668687", "collection_times": "Mo-Fr 14:00; Sa 10:10", "name": "USPS COLLECTION BOX - PO LOBBY", "note": "ON 12/24 AND 12/31, THIS BOX MAY BE COLLECTED AS EARLY AS 12 NOON.", "nsi_id": "unitedstatespostalservice-a77078", "operator": "United States Postal Service", "operator:short": "USPS", "operator:type": "public", "operator:wikidata": "Q668687", "ref": "3690700001"}, "type": "Feature"}
{"dataset_attributes": {"@spider": "usps_collection_boxes", "spider:collection_time": "2023-10-04T08:25:43.293951"}, "geometry": {"coordinates": [-88.378500002, 32.426390006], "type": "Point"}, "id": "yKSpkjlD_MJA1njNCtZiFxGfXUw=", "properties": {"@spider": "usps_collection_boxes", "addr:city": "CUBA", "addr:country": "US", "addr:full": "404 THIRD AVE", "addr:postcode": "36907", "addr:state": "AL", "amenity": "post_box", "brand": "United States Postal Service", "brand:wikidata": "Q668687", "collection_times": "Mo-Fr 14:00; Sa 10:00", "name": "USPS COLLECTION BOX - PO LOBBY", "note": "ON 12/24 AND 12/31, THIS BOX MAY BE COLLECTED AS EARLY AS 12 NOON.", "nsi_id": "unitedstatespostalservice-a77078", "operator": "United States Postal Service", "operator:short": "USPS", "operator:type": "public", "operator:wikidata": "Q668687", "ref": "3690700002"}, "type": "Feature"}
{"dataset_attributes": {"@spider": "usps_collection_boxes", "spider:collection_time": "2023-10-04T08:25:43.293951"}, "geometry": {"coordinates": [-88.32391839, 31.878493579], "type": "Point"}, "id": "4ob7Zk1_eJusubpqcHaAYCXfAJw=", "properties": {"@spider": "usps_collection_boxes", "addr:city": "GILBERTOWN", "addr:country": "US", "addr:full": "100 HIGH ST", "addr:postcode": "36908", "addr:state": "AL", "amenity": "post_box", "brand": "United States Postal Service", "brand:wikidata": "Q668687", "collection_times": "Mo-Fr 15:45; Sa 10:45", "name": "USPS COLLECTION BOX - BLUE BOX", "note": "ON 12/24 AND 12/31, THIS BOX MAY BE COLLECTED AS EARLY AS 12 NOON.", "nsi_id": "unitedstatespostalservice-a77078", "operator": "United States Postal Service", "operator:short": "USPS", "operator:type": "public", "operator:wikidata": "Q668687", "ref": "3690800000"}, "type": "Feature"}
{"dataset_attributes": {"@spider": "usps_collection_boxes", "spider:collection_time": "2023-10-04T08:25:43.293951"}, "geometry": {"coordinates": [-88.32391839, 31.878493579], "type": "Point"}, "id": "A5hlSwKs6pvN8yOdOz7XtWp2wUI=", "properties": {"@spider": "usps_collection_boxes", "addr:city": "GILBERTOWN", "addr:country": "US", "addr:full": "100 HIGH ST", "addr:postcode": "36908", "addr:state": "AL", "amenity": "post_box", "brand": "United States Postal Service", "brand:wikidata": "Q668687", "collection_times": "Mo-Fr 15:45; Sa 10:45", "name": "USPS COLLECTION BOX - PO LOBBY", "note": "ON 12/24 AND 12/31, THIS BOX MAY BE COLLECTED AS EARLY AS 12 NOON.", "nsi_id": "unitedstatespostalservice-a77078", "operator": "United States Postal Service", "operator:short": "USPS", "operator:type": "public", "operator:wikidata": "Q668687", "ref": "3690800001"}, "type": "Feature"}
{"dataset_attributes": {"@spider": "usps_collection_boxes", "spider:collection_time": "2023-10-04T08:25:43.293951"}, "geometry": {"coordinates": [-88.32391839, 31.878493579], "type": "Point"}, "id": "Y9ItHr_NG57OUnIvadQq-t8I-fQ=", "properties": {"@spider": "usps_collection_boxes", "addr:city": "GILBERTOWN", "addr:country": "US", "addr:full": "100 HIGH ST", "addr:postcode": "36908", "addr:state": "AL", "amenity": "post_box", "brand": "United States Postal Service", "brand:wikidata": "Q668687", "collection_times": "Mo-Fr 15:30; Sa 10:30", "name": "USPS COLLECTION BOX - PO LOBBY", "note": "ON 12/24 AND 12/31, THIS BOX MAY BE COLLECTED AS EARLY AS 12 NOON.", "nsi_id": "unitedstatespostalservice-a77078", "operator": "United States Postal Service", "operator:short": "USPS", "operator:type": "public", "operator:wikidata": "Q668687", "ref": "3690800002"}, "type": "Feature"}
{"dataset_attributes": {"@spider": "usps_collection_boxes", "spider:collection_time": "2023-10-04T08:25:43.293951"}, "geometry": {"coordinates": [-88.28148545, 32.171087718], "type": "Point"}, "id": "BROgAT6b2IWJtWC8TIbtLhCpAus=", "properties": {"@spider": "usps_collection_boxes", "addr:city": "LISMAN", "addr:country": "US", "addr:full": "4845 COUNTY ROAD 9", "addr:postcode": "36912", "addr:state": "AL", "amenity": "post_box", "brand": "United States Postal Service", "brand:wikidata": "Q668687", "collection_times": "Mo-Fr 15:00; Sa 10:15", "name": "USPS COLLECTION BOX - BLUE BOX", "note": "ON 12/24 AND 12/31, THIS BOX MAY BE COLLECTED AS EARLY AS 12 NOON.", "nsi_id": "unitedstatespostalservice-a77078", "operator": "United States Postal Service", "operator:short": "USPS", "operator:type": "public", "operator:wikidata": "Q668687", "ref": "3691200000"}, "type": "Feature"}
{"dataset_attributes": {"@spider": "usps_collection_boxes", "spider:collection_time": "2023-10-04T08:25:43.293951"}, "geometry": {"coordinates": [-88.28148545, 32.171087718], "type": "Point"}, "id": "_7iPYWKjD0jQjSouXutfK-uhLls=", "properties": {"@spider": "usps_collection_boxes", "addr:city": "LISMAN", "addr:country": "US", "addr:full": "4845 COUNTY ROAD 9", "addr:postcode": "36912", "addr:state": "AL", "amenity": "post_box", "brand": "United States Postal Service", "brand:wikidata": "Q668687", "collection_times": "Mo-Fr 15:00; Sa 10:15", "name": "USPS COLLECTION BOX - PO LOBBY", "note": "ON 12/24 AND 12/31, THIS BOX MAY BE COLLECTED AS EARLY AS 12 NOON.", "nsi_id": "unitedstatespostalservice-a77078", "operator": "United States Postal Service", "operator:short": "USPS", "operator:type": "public", "operator:wikidata": "Q668687", "ref": "3691200001"}, "type": "Feature"}
{"dataset_attributes": {"@spider": "usps_collection_boxes", "spider:collection_time": "2023-10-04T08:25:43.293951"}, "geometry": {"coordinates": [-88.28148545, 32.171087718], "type": "Point"}, "id": "DZjO1FnHeO_kSpXBVNJezV_bL8g=", "properties": {"@spider": "usps_collection_boxes", "addr:city": "LISMAN", "addr:country": "US", "addr:full": "4845 COUNTY ROAD 9", "addr:postcode": "36912", "addr:state": "AL", "amenity": "post_box", "brand": "United States Postal Service", "brand:wikidata": "Q668687", "collection_times": "Mo-Fr 15:00; Sa 10:30", "name": "USPS COLLECTION BOX - PO LOBBY", "note": "ON 12/24 AND 12/31, THIS BOX MAY BE COLLECTED AS EARLY AS 12 NOON.", "nsi_id": "unitedstatespostalservice-a77078", "operator": "United States Postal Service", "operator:short": "USPS", "operator:type": "public", "operator:wikidata": "Q668687", "ref": "3691200002"}, "type": "Feature"}
{"dataset_attributes": {"@spider": "usps_collection_boxes", "spider:collection_time": "2023-10-04T08:25:43.293951"}, "geometry": {"coordinates": [-88.045510279, 32.211191984], "type": "Point"}, "id": "RccGe6lobkxi-CjE47WDnnW07XQ=", "properties": {"@spider": "usps_collection_boxes", "addr:city": "PENNINGTON", "addr:country": "US", "addr:full": "5345 MAIN ST", "addr:postcode": "36916", "addr:state": "AL", "amenity": "post_box", "brand": "United States Postal Service", "brand:wikidata": "Q668687", "collection_times": "Mo-Fr 12:00; Sa 10:00", "name": "USPS COLLECTION BOX - PO LOBBY", "nsi_id": "unitedstatespostalservice-a77078", "operator": "United States Postal Service", "operator:short": "USPS", "operator:type": "public", "operator:wikidata": "Q668687", "ref": "3691600000"}, "type": "Feature"}
{"dataset_attributes": {"@spider": "usps_collection_boxes", "spider:collection_time": "2023-10-04T08:25:43.293951"}, "geometry": {"coordinates": [-88.045510279, 32.211191984], "type": "Point"}, "id": "Y-zTcaF0cAXjhFBItSlzfjsFpHo=", "properties": {"@spider": "usps_collection_boxes", "addr:city": "PENNINGTON", "addr:country": "US", "addr:full": "5345 MAIN ST", "addr:postcode": "36916", "addr:state": "AL", "amenity": "post_box", "brand": "United States Postal Service", "brand:wikidata": "Q668687", "collection_times": "Mo-Fr 12:00; Sa 10:00", "name": "USPS COLLECTION BOX - BLUE BOX", "nsi_id": "unitedstatespostalservice-a77078", "operator": "United States Postal Service", "operator:short": "USPS", "operator:type": "public", "operator:wikidata": "Q668687", "ref": "3691600001"}, "type": "Feature"}
{"dataset_attributes": {"@spider": "usps_collection_boxes", "spider:collection_time": "2023-10-04T08:25:43.293951"}, "geometry": {"coordinates": [-88.045510279, 32.211191984], "type": "Point"}, "id": "gvu7R2VdnOWWojxKUHduSFixJho=", "properties": {"@spider": "usps_collection_boxes", "addr:city": "PENNINGTON", "addr:country": "US", "addr:full": "5345 MAIN ST", "addr:postcode": "36916", "addr:state": "AL", "amenity": "post_box", "brand": "United States Postal Service", "brand:wikidata": "Q668687", "collection_times": "Mo-Fr 12:00; Sa 10:00", "name": "USPS COLLECTION BOX - PO LOBBY", "nsi_id": "unitedstatespostalservice-a77078", "operator": "United States Postal Service", "operator:short": "USPS", "operator:type": "public", "operator:wikidata": "Q668687", "ref": "3691600002"}, "type": "Feature"}
{"dataset_attributes": {"@spider": "usps_collection_boxes", "spider:collection_time": "2023-10-04T08:25:43.293951"}, "geometry": {"coordinates": [-88.329565909, 31.76557744], "type": "Point"}, "id": "5sXyN3akPX3lmxmrwxOujL1V2Q8=", "properties": {"@spider": "usps_collection_boxes", "addr:city": "SILAS", "addr:country": "US", "addr:full": "15 2ND AVE", "addr:postcode": "36919", "addr:state": "AL", "amenity": "post_box", "brand": "United States Postal Service", "brand:wikidata": "Q668687", "collection_times": "Mo-Fr 15:00; Sa 11:30", "name": "USPS COLLECTION BOX - BLUE BOX", "note": "ON 12/24 AND 12/31, THIS BOX MAY BE COLLECTED AS EARLY AS 12 NOON.", "nsi_id": "unitedstatespostalservice-a77078", "operator": "United States Postal Service", "operator:short": "USPS", "operator:type": "public", "operator:wikidata": "Q668687", "ref": "3691900000"}, "type": "Feature"}
{"dataset_attributes": {"@spider": "usps_collection_boxes", "spider:collection_time": "2023-10-04T08:25:43.293951"}, "geometry": {"coordinates": [-88.329565909, 31.76557744], "type": "Point"}, "id": "Sn3QNVscSFmDdncTigLHoId1hmo=", "properties": {"@spider": "usps_collection_boxes", "addr:city": "SILAS", "addr:country": "US", "addr:full": "15 2ND AVE", "addr:postcode": "36919", "addr:state": "AL", "amenity": "post_box", "brand": "United States Postal Service", "brand:wikidata": "Q668687", "collection_times": "Mo-Fr 15:00; Sa 11:30", "name": "USPS COLLECTION BOX - PO LOBBY", "note": "ON 12/24 AND 12/31, THIS BOX MAY BE COLLECTED AS EARLY AS 12 NOON.", "nsi_id": "unitedstatespostalservice-a77078", "operator": "United States Postal Service", "operator:short": "USPS", "operator:type": "public", "operator:wikidata": "Q668687", "ref": "3691900001"}, "type": "Feature"}
{"dataset_attributes": {"@spider": "usps_collection_boxes", "spider:collection_time": "2023-10-04T08:25:43.293951"}, "geometry": {"coordinates": [-88.329565909, 31.76557744], "type": "Point"}, "id": "Rxmp5pbtNt9E2Mq4Jt6zBWv0HH8=", "properties": {"@spider": "usps_collection_boxes", "addr:city": "SILAS", "addr:country": "US", "addr:full": "15 2ND AVE", "addr:postcode": "36919", "addr:state": "AL", "amenity": "post_box", "brand": "United States Postal Service", "brand:wikidata": "Q668687", "collection_times": "Mo-Fr 15:00; Sa 11:30", "name": "USPS COLLECTION BOX - PO LOBBY", "note": "ON 12/24 AND 12/31, THIS BOX MAY BE COLLECTED AS EARLY AS 12 NOON.", "nsi_id": "unitedstatespostalservice-a77078", "operator": "United States Postal Service", "operator:short": "USPS", "operator:type": "public", "operator:wikidata": "Q668687", "ref": "3691900002"}, "type": "Feature"}
{"dataset_attributes": {"@spider": "usps_collection_boxes", "spider:collection_time": "2023-10-04T08:25:43.293951"}, "geometry": {"coordinates": [-88.30955995, 31.91311592], "type": "Point"}, "id": "bzIl0M4b3Z5jQLQgcJnmQuG82iM=", "properties": {"@spider": "usps_collection_boxes", "addr:city": "TOXEY", "addr:country": "US", "addr:full": "2616 1ST ST", "addr:postcode": "36921", "addr:state": "AL", "amenity": "post_box", "brand": "United States Postal Service", "brand:wikidata": "Q668687", "collection_times": "Mo-Fr 12:00; Sa 08:30", "name": "USPS COLLECTION BOX - BLUE BOX", "nsi_id": "unitedstatespostalservice-a77078", "operator": "United States Postal Service", "operator:short": "USPS", "operator:type": "public", "operator:wikidata": "Q668687", "ref": "3692100000"}, "type": "Feature"}
{"dataset_attributes": {"@spider": "usps_collection_boxes", "spider:collection_time": "2023-10-04T08:25:43.293951"}, "geometry": {"coordinates": [-88.30955995, 31.91311592], "type": "Point"}, "id": "rTbBDYYvygoocRtr0h-mWkAfpYQ=", "properties": {"@spider": "usps_collection_boxes", "addr:city": "TOXEY", "addr:country": "US", "addr:full": "2616 1ST ST", "addr:postcode": "36921", "addr:state": "AL", "amenity": "post_box", "brand": "United States Postal Service", "brand:wikidata": "Q668687", "collection_times": "Mo-Fr 12:00; Sa 08:30", "name": "USPS COLLECTION BOX - PO LOBBY", "nsi_id": "unitedstatespostalservice-a77078", "operator": "United States Postal Service", "operator:short": "USPS", "operator:type": "public", "operator:wikidata": "Q668687", "ref": "3692100001"}, "type": "Feature"}
{"dataset_attributes": {"@spider": "usps_collection_boxes", "spider:collection_time": "2023-10-04T08:25:43.293951"}, "geometry": {"coordinates": [-88.30955995, 31.91311592], "type": "Point"}, "id": "CKnsm9_5mY_zffXniLp7ObF4Izg=", "properties": {"@spider": "usps_collection_boxes", "addr:city": "TOXEY", "addr:country": "US", "addr:full": "2616 1ST ST", "addr:postcode": "36921", "addr:state": "AL", "amenity": "post_box", "brand": "United States Postal Service", "brand:wikidata": "Q668687", "collection_times": "Mo-Fr 12:00", "name": "USPS COLLECTION BOX - PO LOBBY", "nsi_id": "unitedstatespostalservice-a77078", "operator": "United States Postal Service", "operator:short": "USPS", "operator:type": "public", "operator:wikidata": "Q668687", "ref": "3692100002"}, "type": "Feature"}
{"dataset_attributes": {"@spider": "usps_collection_boxes", "spider:collection_time": "2023-10-04T08:25:43.293951"}, "geometry": {"coordinates": [-88.1673424, 32.2698298], "type": "Point"}, "id": "8QmKphuUVgjF57kOj56CUMuV0oY=", "properties": {"@spider": "usps_collection_boxes", "addr:city": "WARD", "addr:country": "US", "addr:full": "14659 WARD 10", "addr:postcode": "36922", "addr:state": "AL", "amenity": "post_box", "brand": "United States Postal Service", "brand:wikidata": "Q668687", "collection_times": "Mo-Fr 10:00; Sa 08:30", "name": "USPS COLLECTION BOX - BLUE BOX", "nsi_id": "unitedstatespostalservice-a77078", "operator": "United States Postal Service", "operator:short": "USPS", "operator:type": "public", "operator:wikidata": "Q668687", "ref": "3692200000"}, "type": "Feature"}
{"dataset_attributes": {"@spider": "usps_collection_boxes", "spider:collection_time": "2023-10-04T08:25:43.293951"}, "geometry": {"coordinates": [-88.1673424, 32.2698298], "type": "Point"}, "id": "7ub0zoLAUxdnC-oJzLGU6YXcIZ0=", "properties": {"@spider": "usps_collection_boxes", "addr:city": "WARD", "addr:country": "US", "addr:full": "14659 WARD 10", "addr:postcode": "36922", "addr:state": "AL", "amenity": "post_box", "brand": "United States Postal Service", "brand:wikidata": "Q668687", "collection_times": "Mo-Fr 10:00; Sa 08:30", "name": "USPS COLLECTION BOX - PO LOBBY", "nsi_id": "unitedstatespostalservice-a77078", "operator": "United States Postal Service", "operator:short": "USPS", "operator:type": "public", "operator:wikidata": "Q668687", "ref": "3692200001"}, "type": "Feature"}
{"dataset_attributes": {"@spider": "usps_collection_boxes", "spider:collection_time": "2023-10-04T08:25:43.293951"}, "geometry": {"coordinates": [-88.1673424, 32.2698298], "type": "Point"}, "id": "w8ft4jmxU0hf-LaYSPyO-soNDTQ=", "properties": {"@spider": "usps_collection_boxes", "addr:city": "WARD", "addr:country": "US", "addr:full": "14659 WARD 10", "addr:postcode": "36922", "addr:state": "AL", "amenity": "post_box", "brand": "United States Postal Service", "brand:wikidata": "Q668687", "collection_times": "Mo-Fr 10:00", "name": "USPS COLLECTION BOX - PO LOBBY", "nsi_id": "unitedstatespostalservice-a77078", "operator": "United States Postal Service", "operator:short": "USPS", "operator:type": "public", "operator:wikidata": "Q668687", "ref": "3692200002"}, "type": "Feature"}
{"dataset_attributes": {"@spider": "usps_collection_boxes", "spider:collection_time": "2023-10-04T08:25:43.293951"}, "geometry": {"coordinates": [-88.298053482, 32.486523423], "type": "Point"}, "id": "iLZijIdY_DyP-ZF1emnB97_txvs=", "properties": {"@spider": "usps_collection_boxes", "addr:city": "YORK", "addr:country": "US", "addr:full": "207 MAIN ST", "addr:postcode": "36925", "addr:state": "AL", "amenity": "post_box", "brand": "United States Postal Service", "brand:wikidata": "Q668687", "collection_times": "Mo-Fr 16:15; Sa 10:30", "name": "USPS COLLECTION BOX - PO LOBBY", "note": "ON 12/24 AND 12/31, THIS BOX MAY BE COLLECTED AS EARLY AS 12 NOON.", "nsi_id": "unitedstatespostalservice-a77078", "operator": "United States Postal Service", "operator:short": "USPS", "operator:type": "public", "operator:wikidata": "Q668687", "ref": "3692500000"}, "type": "Feature"}
{"dataset_attributes": {"@spider": "usps_collection_boxes", "spider:collection_time": "2023-10-04T08:25:43.293951"}, "geometry": {"coordinates": [-88.2980629671, 32.48652822], "type": "Point"}, "id": "bZ4ygE7nGvn_zRTaYgwPyKoJmPU=", "properties": {"@spider": "usps_collection_boxes", "addr:city": "YORK", "addr:country": "US", "addr:full": "207 MAIN ST", "addr:postcode": "36925", "addr:state": "AL", "amenity": "post_box", "brand": "United States Postal Service", "brand:wikidata": "Q668687", "collection_times": "Mo-Fr 16:00; Sa 10:15", "name": "USPS COLLECTION BOX - BLUE BOX", "note": "ON 12/24 AND 12/31, THIS BOX MAY BE COLLECTED AS EARLY AS 12 NOON.", "nsi_id": "unitedstatespostalservice-a77078", "operator": "United States Postal Service", "operator:short": "USPS", "operator:type": "public", "operator:wikidata": "Q668687", "ref": "3692500001"}, "type": "Feature"}
{"dataset_attributes": {"@spider": "usps_collection_boxes", "spider:collection_time": "2023-10-04T08:25:43.293951"}, "geometry": {"coordinates": [-88.298053482, 32.486523423], "type": "Point"}, "id": "1uVIZ-xgrBWyJOM4yfrvQDWFnD0=", "properties": {"@spider": "usps_collection_boxes", "addr:city": "YORK", "addr:country": "US", "addr:full": "207 MAIN ST", "addr:postcode": "36925", "addr:state": "AL", "amenity": "post_box", "brand": "United States Postal Service", "brand:wikidata": "Q668687", "collection_times": "Mo-Fr 16:00; Sa 10:30", "name": "USPS COLLECTION BOX - PO LOBBY", "note": "ON 12/24 AND 12/31, THIS BOX MAY BE COLLECTED AS EARLY AS 12 NOON.", "nsi_id": "unitedstatespostalservice-a77078", "operator": "United States Postal Service", "operator:short": "USPS", "operator:type": "public", "operator:wikidata": "Q668687", "ref": "3692500002"}, "type": "Feature"}
