{"dataset_attributes": {"@spider": "usps_collection_boxes"}, "geometry": {"coordinates": [-87.066719, 36.582815], "type": "Point"}, "id": "X8Fp_BMHS125iFxVN8ZxBwXyErI=", "properties": {"@spider": "usps_collection_boxes", "addr:city": "ADAMS", "addr:country": "US", "addr:full": "104 S CHURCH ST", "addr:postcode": "37010", "addr:state": "TN", "amenity": "post_box", "brand": "United States Postal Service", "brand:wikidata": "Q668687", "collection_times": "Mo-Fr 15:30; Sa 11:00", "name": "USPS COLLECTION BOX - PO LOBBY", "note": "ON 12/24 AND 12/31, THIS BOX MAY BE COLLECTED AS EARLY AS 12 NOON.", "nsi_id": "unitedstatespostalservice-a77078", "operator": "United States Postal Service", "operator:short": "USPS", "operator:type": "public", "operator:wikidata": "Q668687", "ref": "3701000001"}, "type": "Feature"}
{"dataset_attributes": {"@spider": "usps_collection_boxes"}, "geometry": {"coordinates": [-87.066648, 36.582881], "type": "Point"}, "id": "462oEYOBx5aEqnFBYTr4gHebYMk=", "properties": {"@spider": "usps_collection_boxes", "addr:city": "ADAMS", "addr:country": "US", "addr:full": "104 S CHURCH ST", "addr:postcode": "37010", "addr:state": "TN", "amenity": "post_box", "brand": "United States Postal Service", "brand:wikidata": "Q668687", "collection_times": "Mo-Fr 15:30; Sa 11:00", "name": "USPS COLLECTION BOX - BLUE BOX", "note": "ON 12/24 AND 12/31, THIS BOX MAY BE COLLECTED AS EARLY AS 12 NOON.", "nsi_id": "unitedstatespostalservice-a77078", "operator": "United States Postal Service", "operator:short": "USPS", "operator:type": "public", "operator:wikidata": "Q668687", "ref": "3701000002"}, "type": "Feature"}
{"dataset_attributes": {"@spider": "usps_collection_boxes"}, "geometry": {"coordinates": [-87.066862699, 36.582551015], "type": "Point"}, "id": "htcXBS31v3Iyxr_cslb2tdLqNc8=", "properties": {"@spider": "usps_collection_boxes", "addr:city": "ADAMS", "addr:country": "US", "addr:full": "104 S CHURCH ST", "addr:postcode": "37010", "addr:state": "TN", "amenity": "post_box", "brand": "United States Postal Service", "brand:wikidata": "Q668687", "collection_times": "Mo-Fr 15:30", "name": "USPS COLLECTION BOX - PO LOBBY", "note": "ON 12/24 AND 12/31, THIS BOX MAY BE COLLECTED AS EARLY AS 12 NOON.", "nsi_id": "unitedstatespostalservice-a77078", "operator": "United States Postal Service", "operator:short": "USPS", "operator:type": "public", "operator:wikidata": "Q668687", "ref": "3701000003"}, "type": "Feature"}
{"dataset_attributes": {"@spider": "usps_collection_boxes"}, "geometry": {"coordinates": [-86.312102, 36.482273], "type": "Point"}, "id": "lIrS0TOihTuCF5EDuKWBzu7Ngig=", "properties": {"@spider": "usps_collection_boxes", "addr:city": "BETHPAGE", "addr:country": "US", "addr:full": "516 OLD HIGHWAY 31 E", "addr:postcode": "37022", "addr:state": "TN", "amenity": "post_box", "brand": "United States Postal Service", "brand:wikidata": "Q668687", "collection_times": "Mo-Fr 15:00; Sa 11:30", "name": "USPS COLLECTION BOX - PO LOBBY", "note": "ON 12/24 AND 12/31, THIS BOX MAY BE COLLECTED AS EARLY AS 12 NOON.", "nsi_id": "unitedstatespostalservice-a77078", "operator": "United States Postal Service", "operator:short": "USPS", "operator:type": "public", "operator:wikidata": "Q668687", "ref": "3702200001"}, "type": "Feature"}
{"dataset_attributes": {"@spider": "usps_collection_boxes"}, "geometry": {"coordinates": [-86.312179, 36.48225], "type": "Point"}, "id": "DoLjKTEma8srmiFjDTB-JV6I60Y=", "properties": {"@spider": "usps_collection_boxes", "addr:city": "BETHPAGE", "addr:country": "US", "addr:full": "516 OLD HIGHWAY 31 E", "addr:postcode": "37022", "addr:state": "TN", "amenity": "post_box", "brand": "United States Postal Service", "brand:wikidata": "Q668687", "collection_times": "Mo-Fr 15:00; Sa 11:30", "name": "USPS COLLECTION BOX - BLUE BOX", "note": "ON 12/24 AND 12/31, THIS BOX MAY BE COLLECTED AS EARLY AS 12 NOON.", "nsi_id": "unitedstatespostalservice-a77078", "operator": "United States Postal Service", "operator:short": "USPS", "operator:type": "public", "operator:wikidata": "Q668687", "ref": "3702200002"}, "type": "Feature"}
{"dataset_attributes": {"@spider": "usps_collection_boxes"}, "geometry": {"coordinates": [-86.311319785, 36.483600081], "type": "Point"}, "id": "SwekPHEWQwuXRC4sCEbgFzChnX0=", "properties": {"@spider": "usps_collection_boxes", "addr:city": "BETHPAGE", "addr:country": "US", "addr:full": "516 OLD HIGHWAY 31 E", "addr:postcode": "37022", "addr:state": "TN", "amenity": "post_box", "brand": "United States Postal Service", "brand:wikidata": "Q668687", "collection_times": "Mo-Fr 15:00", "name": "USPS COLLECTION BOX - PO LOBBY", "note": "ON 12/24 AND 12/31, THIS BOX MAY BE COLLECTED AS EARLY AS 12 NOON.", "nsi_id": "unitedstatespostalservice-a77078", "operator": "United States Postal Service", "operator:short": "USPS", "operator:type": "public", "operator:wikidata": "Q668687", "ref": "3702200003"}, "type": "Feature"}
{"dataset_attributes": {"@spider": "usps_collection_boxes"}, "geometry": {"coordinates": [-87.759459, 36.581219], "type": "Point"}, "id": "HUrfHZUN7-IDTm3ySzzqOY-TbR4=", "properties": {"@spider": "usps_collection_boxes", "addr:city": "BIG ROCK", "addr:country": "US", "addr:full": "515 BIG ROCK RD", "addr:postcode": "37023", "addr:state": "TN", "amenity": "post_box", "brand": "United States Postal Service", "brand:wikidata": "Q668687", "collection_times": "Mo-Fr 14:30; Sa 11:00", "name": "USPS COLLECTION BOX - PO LOBBY", "note": "ON 12/24 AND 12/31, THIS BOX MAY BE COLLECTED AS EARLY AS 12 NOON.", "nsi_id": "unitedstatespostalservice-a77078", "operator": "United States Postal Service", "operator:short": "USPS", "operator:type": "public", "operator:wikidata": "Q668687", "ref": "3702300001"}, "type": "Feature"}
{"dataset_attributes": {"@spider": "usps_collection_boxes"}, "geometry": {"coordinates": [-87.759428, 36.581209], "type": "Point"}, "id": "kO0F9CY3KVg9V8GMKV_efrjCqb0=", "properties": {"@spider": "usps_collection_boxes", "addr:city": "BIG ROCK", "addr:country": "US", "addr:full": "515 BIG ROCK RD", "addr:postcode": "37023", "addr:state": "TN", "amenity": "post_box", "brand": "United States Postal Service", "brand:wikidata": "Q668687", "collection_times": "Mo-Fr 14:30; Sa 11:00", "name": "USPS COLLECTION BOX - BLUE BOX", "note": "ON 12/24 AND 12/31, THIS BOX MAY BE COLLECTED AS EARLY AS 12 NOON.", "nsi_id": "unitedstatespostalservice-a77078", "operator": "United States Postal Service", "operator:short": "USPS", "operator:type": "public", "operator:wikidata": "Q668687", "ref": "3702300002"}, "type": "Feature"}
{"dataset_attributes": {"@spider": "usps_collection_boxes"}, "geometry": {"coordinates": [-87.759483092, 36.581166848], "type": "Point"}, "id": "LIWo7rDuTYr7c7GRQoCS1LG1yPA=", "properties": {"@spider": "usps_collection_boxes", "addr:city": "BIG ROCK", "addr:country": "US", "addr:full": "515 BIG ROCK RD", "addr:postcode": "37023", "addr:state": "TN", "amenity": "post_box", "brand": "United States Postal Service", "brand:wikidata": "Q668687", "collection_times": "Mo-Fr 14:30", "name": "USPS COLLECTION BOX - PO LOBBY", "note": "ON 12/24 AND 12/31, THIS BOX MAY BE COLLECTED AS EARLY AS 12 NOON.", "nsi_id": "unitedstatespostalservice-a77078", "operator": "United States Postal Service", "operator:short": "USPS", "operator:type": "public", "operator:wikidata": "Q668687", "ref": "3702300003"}, "type": "Feature"}
{"dataset_attributes": {"@spider": "usps_collection_boxes"}, "geometry": {"coordinates": [-87.306511, 35.955361], "type": "Point"}, "id": "2PbrlcQ1bR1dJPy0CNUpTdwXrD0=", "properties": {"@spider": "usps_collection_boxes", "addr:city": "BON AQUA", "addr:country": "US", "addr:full": "10076 HIGHWAY 46", "addr:postcode": "37025", "addr:state": "TN", "amenity": "post_box", "brand": "United States Postal Service", "brand:wikidata": "Q668687", "collection_times": "Mo-Fr 15:30; Sa 11:00", "name": "USPS COLLECTION BOX - PO LOBBY", "note": "ON 12/24 AND 12/31, THIS BOX MAY BE COLLECTED AS EARLY AS 12 NOON.", "nsi_id": "unitedstatespostalservice-a77078", "operator": "United States Postal Service", "operator:short": "USPS", "operator:type": "public", "operator:wikidata": "Q668687", "ref": "3702500001"}, "type": "Feature"}
{"dataset_attributes": {"@spider": "usps_collection_boxes"}, "geometry": {"coordinates": [-87.3065, 35.955289], "type": "Point"}, "id": "vDrvcqPYK6T-eOt3HIlLbtiyKgk=", "properties": {"@spider": "usps_collection_boxes", "addr:city": "BON AQUA", "addr:country": "US", "addr:full": "10076 HIGHWAY 46", "addr:postcode": "37025", "addr:state": "TN", "amenity": "post_box", "brand": "United States Postal Service", "brand:wikidata": "Q668687", "collection_times": "Mo-Fr 15:30; Sa 11:00", "name": "USPS COLLECTION BOX - BLUE BOX", "note": "ON 12/24 AND 12/31, THIS BOX MAY BE COLLECTED AS EARLY AS 12 NOON.", "nsi_id": "unitedstatespostalservice-a77078", "operator": "United States Postal Service", "operator:short": "USPS", "operator:type": "public", "operator:wikidata": "Q668687", "ref": "3702500002"}, "type": "Feature"}
{"dataset_attributes": {"@spider": "usps_collection_boxes"}, "geometry": {"coordinates": [-87.306235343, 35.95494757], "type": "Point"}, "id": "qX93LMTNDAJHrL_WZ2YMGBvy0RE=", "properties": {"@spider": "usps_collection_boxes", "addr:city": "BON AQUA", "addr:country": "US", "addr:full": "10076 HIGHWAY 46", "addr:postcode": "37025", "addr:state": "TN", "amenity": "post_box", "brand": "United States Postal Service", "brand:wikidata": "Q668687", "collection_times": "Mo-Fr 15:30", "name": "USPS COLLECTION BOX - PO LOBBY", "note": "ON 12/24 AND 12/31, THIS BOX MAY BE COLLECTED AS EARLY AS 12 NOON.", "nsi_id": "unitedstatespostalservice-a77078", "operator": "United States Postal Service", "operator:short": "USPS", "operator:type": "public", "operator:wikidata": "Q668687", "ref": "3702500003"}, "type": "Feature"}
{"dataset_attributes": {"@spider": "usps_collection_boxes"}, "geometry": {"coordinates": [-87.83679, 36.599337], "type": "Point"}, "id": "Xzchh7dHlvaXWxfGNNNXyuhQ1q0=", "properties": {"@spider": "usps_collection_boxes", "addr:city": "BUMPUS MILLS", "addr:country": "US", "addr:full": "3035 HIGHWAY 120", "addr:postcode": "37028", "addr:state": "TN", "amenity": "post_box", "brand": "United States Postal Service", "brand:wikidata": "Q668687", "collection_times": "Mo-Fr 14:45; Sa 11:30", "name": "USPS COLLECTION BOX - PO LOBBY", "note": "ON 12/24 AND 12/31, THIS BOX MAY BE COLLECTED AS EARLY AS 12 NOON.", "nsi_id": "unitedstatespostalservice-a77078", "operator": "United States Postal Service", "operator:short": "USPS", "operator:type": "public", "operator:wikidata": "Q668687", "ref": "3702800001"}, "type": "Feature"}
{"dataset_attributes": {"@spider": "usps_collection_boxes"}, "geometry": {"coordinates": [-87.836742, 36.599337], "type": "Point"}, "id": "z8fBT2k_YGdrFCzTsYfACHzOQs0=", "properties": {"@spider": "usps_collection_boxes", "addr:city": "BUMPUS MILLS", "addr:country": "US", "addr:full": "3035 HIGHWAY 120", "addr:postcode": "37028", "addr:state": "TN", "amenity": "post_box", "brand": "United States Postal Service", "brand:wikidata": "Q668687", "collection_times": "Mo-Fr 14:45; Sa 11:30", "name": "USPS COLLECTION BOX - BLUE BOX", "note": "ON 12/24 AND 12/31, THIS BOX MAY BE COLLECTED AS EARLY AS 12 NOON.", "nsi_id": "unitedstatespostalservice-a77078", "operator": "United States Postal Service", "operator:short": "USPS", "operator:type": "public", "operator:wikidata": "Q668687", "ref": "3702800002"}, "type": "Feature"}
{"dataset_attributes": {"@spider": "usps_collection_boxes"}, "geometry": {"coordinates": [-87.837729843, 36.600212537], "type": "Point"}, "id": "H16FGXFbhKU9WJkDfdnhx_Iqd8Q=", "properties": {"@spider": "usps_collection_boxes", "addr:city": "BUMPUS MILLS", "addr:country": "US", "addr:full": "3035 HIGHWAY 120", "addr:postcode": "37028", "addr:state": "TN", "amenity": "post_box", "brand": "United States Postal Service", "brand:wikidata": "Q668687", "collection_times": "Mo-Fr 14:45", "name": "USPS COLLECTION BOX - PO LOBBY", "note": "ON 12/24 AND 12/31, THIS BOX MAY BE COLLECTED AS EARLY AS 12 NOON.", "nsi_id": "unitedstatespostalservice-a77078", "operator": "United States Postal Service", "operator:short": "USPS", "operator:type": "public", "operator:wikidata": "Q668687", "ref": "3702800003"}, "type": "Feature"}
{"dataset_attributes": {"@spider": "usps_collection_boxes"}, "geometry": {"coordinates": [-86.313426, 36.39681], "type": "Point"}, "id": "KuleASL1k9caVqIMYciKJKXd01k=", "properties": {"@spider": "usps_collection_boxes", "addr:city": "CASTALIN SPGS", "addr:country": "US", "addr:full": "3070 HARTSVILLE PIKE", "addr:postcode": "37031", "addr:state": "TN", "amenity": "post_box", "brand": "United States Postal Service", "brand:wikidata": "Q668687", "collection_times": "Mo-Fr 16:30; Sa 11:00", "name": "USPS COLLECTION BOX - PO LOBBY", "note": "ON 12/24 AND 12/31, THIS BOX MAY BE COLLECTED AS EARLY AS 12 NOON.", "nsi_id": "unitedstatespostalservice-a77078", "operator": "United States Postal Service", "operator:short": "USPS", "operator:type": "public", "operator:wikidata": "Q668687", "ref": "3703100003"}, "type": "Feature"}
{"dataset_attributes": {"@spider": "usps_collection_boxes"}, "geometry": {"coordinates": [-86.313376, 36.396834], "type": "Point"}, "id": "V4uckv12lyQqJYQvzqBwA6J8cSY=", "properties": {"@spider": "usps_collection_boxes", "addr:city": "CASTALIN SPGS", "addr:country": "US", "addr:full": "3070 HARTSVILLE PIKE", "addr:postcode": "37031", "addr:state": "TN", "amenity": "post_box", "brand": "United States Postal Service", "brand:wikidata": "Q668687", "collection_times": "Mo-Fr 16:30; Sa 11:00", "name": "USPS COLLECTION BOX - BLUE BOX", "note": "ON 12/24 AND 12/31, THIS BOX MAY BE COLLECTED AS EARLY AS 12 NOON.", "nsi_id": "unitedstatespostalservice-a77078", "operator": "United States Postal Service", "operator:short": "USPS", "operator:type": "public", "operator:wikidata": "Q668687", "ref": "3703100004"}, "type": "Feature"}
{"dataset_attributes": {"@spider": "usps_collection_boxes"}, "geometry": {"coordinates": [-86.312446784, 36.396728572], "type": "Point"}, "id": "X82FxCqTA5zmuWfJojP5Io49BeU=", "properties": {"@spider": "usps_collection_boxes", "addr:city": "CASTALIN SPGS", "addr:country": "US", "addr:full": "3070 HARTSVILLE PIKE", "addr:postcode": "37031", "addr:state": "TN", "amenity": "post_box", "brand": "United States Postal Service", "brand:wikidata": "Q668687", "collection_times": "Mo-Fr 16:30", "name": "USPS COLLECTION BOX - PO LOBBY", "note": "ON 12/24 AND 12/31, THIS BOX MAY BE COLLECTED AS EARLY AS 12 NOON.", "nsi_id": "unitedstatespostalservice-a77078", "operator": "United States Postal Service", "operator:short": "USPS", "operator:type": "public", "operator:wikidata": "Q668687", "ref": "3703100005"}, "type": "Feature"}
{"dataset_attributes": {"@spider": "usps_collection_boxes"}, "geometry": {"coordinates": [-86.999446, 36.550274], "type": "Point"}, "id": "hoUFfeK1iX2i_qFjmSNefacgfls=", "properties": {"@spider": "usps_collection_boxes", "addr:city": "CEDAR HILL", "addr:country": "US", "addr:full": "104 S MAIN ST", "addr:postcode": "37032", "addr:state": "TN", "amenity": "post_box", "brand": "United States Postal Service", "brand:wikidata": "Q668687", "collection_times": "Mo-Fr 15:30; Sa 10:00", "name": "USPS COLLECTION BOX - BLUE BOX", "note": "ON 12/24 AND 12/31, THIS BOX MAY BE COLLECTED AS EARLY AS 12 NOON.", "nsi_id": "unitedstatespostalservice-a77078", "operator": "United States Postal Service", "operator:short": "USPS", "operator:type": "public", "operator:wikidata": "Q668687", "ref": "3703200001"}, "type": "Feature"}
{"dataset_attributes": {"@spider": "usps_collection_boxes"}, "geometry": {"coordinates": [-86.99952, 36.550201], "type": "Point"}, "id": "6ZWyL0_XhiRaHiJcFSeUS4MrTxE=", "properties": {"@spider": "usps_collection_boxes", "addr:city": "CEDAR HILL", "addr:country": "US", "addr:full": "104 S MAIN ST", "addr:postcode": "37032", "addr:state": "TN", "amenity": "post_box", "brand": "United States Postal Service", "brand:wikidata": "Q668687", "collection_times": "Mo-Fr 15:30; Sa 10:00", "name": "USPS COLLECTION BOX - PO LOBBY", "note": "ON 12/24 AND 12/31, THIS BOX MAY BE COLLECTED AS EARLY AS 12 NOON.", "nsi_id": "unitedstatespostalservice-a77078", "operator": "United States Postal Service", "operator:short": "USPS", "operator:type": "public", "operator:wikidata": "Q668687", "ref": "3703200002"}, "type": "Feature"}
{"dataset_attributes": {"@spider": "usps_collection_boxes"}, "geometry": {"coordinates": [-86.9994351, 36.550287178], "type": "Point"}, "id": "lCDo6EEIekKZLry9oTRralnKPhE=", "properties": {"@spider": "usps_collection_boxes", "addr:city": "CEDAR HILL", "addr:country": "US", "addr:full": "104 S MAIN ST", "addr:postcode": "37032", "addr:state": "TN", "amenity": "post_box", "brand": "United States Postal Service", "brand:wikidata": "Q668687", "collection_times": "Mo-Fr 15:30", "name": "USPS COLLECTION BOX - PO LOBBY", "note": "ON 12/24 AND 12/31, THIS BOX MAY BE COLLECTED AS EARLY AS 12 NOON.", "nsi_id": "unitedstatespostalservice-a77078", "operator": "United States Postal Service", "operator:short": "USPS", "operator:type": "public", "operator:wikidata": "Q668687", "ref": "3703200003"}, "type": "Feature"}
{"dataset_attributes": {"@spider": "usps_collection_boxes"}, "geometry": {"coordinates": [-87.466482, 35.782654], "type": "Point"}, "id": "TEoosJcXlojc3mFvz86T2CMAhdk=", "properties": {"@spider": "usps_collection_boxes", "addr:city": "CENTERVILLE", "addr:country": "US", "addr:full": "100 BROWN JCT", "addr:postcode": "37033", "addr:state": "TN", "amenity": "post_box", "brand": "United States Postal Service", "brand:wikidata": "Q668687", "collection_times": "Mo-Fr 16:15; Sa 14:00", "name": "USPS COLLECTION BOX - BLUE BOX", "note": "ON 12/24 AND 12/31, THIS BOX MAY BE COLLECTED AS EARLY AS 12 NOON.", "nsi_id": "unitedstatespostalservice-a77078", "operator": "United States Postal Service", "operator:short": "USPS", "operator:type": "public", "operator:wikidata": "Q668687", "ref": "3703300002"}, "type": "Feature"}
{"dataset_attributes": {"@spider": "usps_collection_boxes"}, "geometry": {"coordinates": [-87.46643, 35.78257], "type": "Point"}, "id": "SERr1ehfqFHmiafFaesd0wKktv8=", "properties": {"@spider": "usps_collection_boxes", "addr:city": "CENTERVILLE", "addr:country": "US", "addr:full": "100 BROWN JCT", "addr:postcode": "37033", "addr:state": "TN", "amenity": "post_box", "brand": "United States Postal Service", "brand:wikidata": "Q668687", "collection_times": "Mo-Fr 16:30; Sa 14:30", "name": "USPS COLLECTION BOX - PO LOBBY", "note": "ON 12/24 AND 12/31, THIS BOX MAY BE COLLECTED AS EARLY AS 12 NOON.", "nsi_id": "unitedstatespostalservice-a77078", "operator": "United States Postal Service", "operator:short": "USPS", "operator:type": "public", "operator:wikidata": "Q668687", "ref": "3703300009"}, "type": "Feature"}
{"dataset_attributes": {"@spider": "usps_collection_boxes"}, "geometry": {"coordinates": [-87.46643, 35.78257], "type": "Point"}, "id": "UyL9Xkj6IlGY-4EdHy98xzTG8Xc=", "properties": {"@spider": "usps_collection_boxes", "addr:city": "CENTERVILLE", "addr:country": "US", "addr:full": "100 BROWN JCT", "addr:postcode": "37033", "addr:state": "TN", "amenity": "post_box", "brand": "United States Postal Service", "brand:wikidata": "Q668687", "collection_times": "Mo-Fr 16:15; Sa 14:00", "name": "USPS COLLECTION BOX - BLUE BOX", "note": "ON 12/24 AND 12/31, THIS BOX MAY BE COLLECTED AS EARLY AS 12 NOON.", "nsi_id": "unitedstatespostalservice-a77078", "operator": "United States Postal Service", "operator:short": "USPS", "operator:type": "public", "operator:wikidata": "Q668687", "ref": "3703300011"}, "type": "Feature"}
{"dataset_attributes": {"@spider": "usps_collection_boxes"}, "geometry": {"coordinates": [-87.46643, 35.78257], "type": "Point"}, "id": "yEogTRHFeZ47zDcLoqOBAcIhnkg=", "properties": {"@spider": "usps_collection_boxes", "addr:city": "CENTERVILLE", "addr:country": "US", "addr:full": "100 BROWN JCT", "addr:postcode": "37033", "addr:state": "TN", "amenity": "post_box", "brand": "United States Postal Service", "brand:wikidata": "Q668687", "collection_times": "Mo-Fr 16:15; Sa 14:00", "name": "USPS COLLECTION BOX - BLUE BOX", "note": "ON 12/24 AND 12/31, THIS BOX MAY BE COLLECTED AS EARLY AS 12 NOON.", "nsi_id": "unitedstatespostalservice-a77078", "operator": "United States Postal Service", "operator:short": "USPS", "operator:type": "public", "operator:wikidata": "Q668687", "ref": "3703300012"}, "type": "Feature"}
{"dataset_attributes": {"@spider": "usps_collection_boxes"}, "geometry": {"coordinates": [-87.466779191, 35.783145534], "type": "Point"}, "id": "SkEbetWNob0n0o2Ejkyis69bRSA=", "properties": {"@spider": "usps_collection_boxes", "addr:city": "CENTERVILLE", "addr:country": "US", "addr:full": "100 BROWN JCT", "addr:postcode": "37033", "addr:state": "TN", "amenity": "post_box", "brand": "United States Postal Service", "brand:wikidata": "Q668687", "collection_times": "Mo-Fr 16:30", "name": "USPS COLLECTION BOX - PO LOBBY", "note": "ON 12/24 AND 12/31, THIS BOX MAY BE COLLECTED AS EARLY AS 12 NOON.", "nsi_id": "unitedstatespostalservice-a77078", "operator": "United States Postal Service", "operator:short": "USPS", "operator:type": "public", "operator:wikidata": "Q668687", "ref": "3703300014"}, "type": "Feature"}
{"dataset_attributes": {"@spider": "usps_collection_boxes"}, "geometry": {"coordinates": [-87.3612868, 36.527845], "type": "Point"}, "id": "iOOe85pyQMszabLSWgiUxeeledk=", "properties": {"@spider": "usps_collection_boxes", "addr:city": "CLARKSVILLE", "addr:country": "US", "addr:full": "1 PUBLIC SQ", "addr:postcode": "37040", "addr:state": "TN", "amenity": "post_box", "brand": "United States Postal Service", "brand:wikidata": "Q668687", "collection_times": "Mo-Sa 12:00", "name": "USPS COLLECTION BOX - BLUE BOX", "nsi_id": "unitedstatespostalservice-a77078", "operator": "United States Postal Service", "operator:short": "USPS", "operator:type": "public", "operator:wikidata": "Q668687", "ref": "3704000006"}, "type": "Feature"}
{"dataset_attributes": {"@spider": "usps_collection_boxes"}, "geometry": {"coordinates": [-87.3397117, 36.521466], "type": "Point"}, "id": "n09lsGUuoqtbQN8-qNOJ5rRyFvg=", "properties": {"@spider": "usps_collection_boxes", "addr:city": "CLARKSVILLE", "addr:country": "US", "addr:full": "350 PAGEANT LN", "addr:postcode": "37040", "addr:state": "TN", "amenity": "post_box", "brand": "United States Postal Service", "brand:wikidata": "Q668687", "collection_times": "Mo-Sa 12:00", "name": "USPS COLLECTION BOX - BLUE BOX", "nsi_id": "unitedstatespostalservice-a77078", "operator": "United States Postal Service", "operator:short": "USPS", "operator:type": "public", "operator:wikidata": "Q668687", "ref": "3704000017"}, "type": "Feature"}
{"dataset_attributes": {"@spider": "usps_collection_boxes"}, "geometry": {"coordinates": [-87.3604082, 36.527261], "type": "Point"}, "id": "rrR-up4wy_5cKV0XQUDLe1_psQg=", "properties": {"@spider": "usps_collection_boxes", "addr:city": "CLARKSVILLE", "addr:country": "US", "addr:full": "100 PUBLIC SQ", "addr:postcode": "37040", "addr:state": "TN", "amenity": "post_box", "brand": "United States Postal Service", "brand:wikidata": "Q668687", "collection_times": "Mo-Sa 12:00", "name": "USPS COLLECTION BOX - BLUE BOX", "nsi_id": "unitedstatespostalservice-a77078", "operator": "United States Postal Service", "operator:short": "USPS", "operator:type": "public", "operator:wikidata": "Q668687", "ref": "3704000028"}, "type": "Feature"}
{"dataset_attributes": {"@spider": "usps_collection_boxes"}, "geometry": {"coordinates": [-87.269874, 36.591954], "type": "Point"}, "id": "257XaA1jCVp3xMvN7HHLShwrceU=", "properties": {"@spider": "usps_collection_boxes", "addr:city": "CLARKSVILLE", "addr:country": "US", "addr:full": "1031 PROGRESS DR", "addr:postcode": "37040", "addr:state": "TN", "amenity": "post_box", "brand": "United States Postal Service", "brand:wikidata": "Q668687", "collection_times": "Mo-Sa 12:00", "name": "USPS COLLECTION BOX - BLUE BOX", "nsi_id": "unitedstatespostalservice-a77078", "operator": "United States Postal Service", "operator:short": "USPS", "operator:type": "public", "operator:wikidata": "Q668687", "ref": "3704000045"}, "type": "Feature"}
{"dataset_attributes": {"@spider": "usps_collection_boxes"}, "geometry": {"coordinates": [-87.2904583, 36.594867], "type": "Point"}, "id": "rAIQctbLZDeaASL8h85sEMPTCRE=", "properties": {"@spider": "usps_collection_boxes", "addr:city": "CLARKSVILLE", "addr:country": "US", "addr:full": "3050 WILMA RUDOLPH BLVD", "addr:postcode": "37040", "addr:state": "TN", "amenity": "post_box", "brand": "United States Postal Service", "brand:wikidata": "Q668687", "collection_times": "Mo-Sa 10:00", "name": "USPS COLLECTION BOX - BLUE BOX", "nsi_id": "unitedstatespostalservice-a77078", "operator": "United States Postal Service", "operator:short": "USPS", "operator:type": "public", "operator:wikidata": "Q668687", "ref": "3704000057"}, "type": "Feature"}
{"dataset_attributes": {"@spider": "usps_collection_boxes"}, "geometry": {"coordinates": [-87.317384, 36.559281], "type": "Point"}, "id": "8NimTKcree3fETadyCobl8EeQiY=", "properties": {"@spider": "usps_collection_boxes", "addr:city": "CLARKSVILLE", "addr:country": "US", "addr:full": "2031 WILMA RUDOLPH BLVD", "addr:postcode": "37040", "addr:state": "TN", "amenity": "post_box", "brand": "United States Postal Service", "brand:wikidata": "Q668687", "collection_times": "Mo-Sa 17:00", "name": "USPS COLLECTION BOX - BLUE BOX", "note": "ON 12/24 AND 12/31, THIS BOX MAY BE COLLECTED AS EARLY AS 12 NOON.", "nsi_id": "unitedstatespostalservice-a77078", "operator": "United States Postal Service", "operator:short": "USPS", "operator:type": "public", "operator:wikidata": "Q668687", "ref": "3704000061"}, "type": "Feature"}
{"dataset_attributes": {"@spider": "usps_collection_boxes"}, "geometry": {"coordinates": [-87.317462, 36.559259], "type": "Point"}, "id": "mvOMQJQMxa8PpQl4DDx6_YXATzc=", "properties": {"@spider": "usps_collection_boxes", "addr:city": "CLARKSVILLE", "addr:country": "US", "addr:full": "2031 WILMA RUDOLPH BLVD", "addr:postcode": "37040", "addr:state": "TN", "amenity": "post_box", "brand": "United States Postal Service", "brand:wikidata": "Q668687", "collection_times": "Mo-Sa 17:00", "name": "USPS COLLECTION BOX - BLUE BOX", "note": "ON 12/24 AND 12/31, THIS BOX MAY BE COLLECTED AS EARLY AS 12 NOON.", "nsi_id": "unitedstatespostalservice-a77078", "operator": "United States Postal Service", "operator:short": "USPS", "operator:type": "public", "operator:wikidata": "Q668687", "ref": "3704000062"}, "type": "Feature"}
{"dataset_attributes": {"@spider": "usps_collection_boxes"}, "geometry": {"coordinates": [-87.317462, 36.559259], "type": "Point"}, "id": "VzJtNkBBz3wJzOYf_ROfnZIuqb8=", "properties": {"@spider": "usps_collection_boxes", "addr:city": "CLARKSVILLE", "addr:country": "US", "addr:full": "2031 WILMA RUDOLPH BLVD", "addr:postcode": "37040", "addr:state": "TN", "amenity": "post_box", "brand": "United States Postal Service", "brand:wikidata": "Q668687", "collection_times": "Mo-Sa 17:00", "name": "USPS COLLECTION BOX - PO LOBBY", "note": "ON 12/24 AND 12/31, THIS BOX MAY BE COLLECTED AS EARLY AS 12 NOON.", "nsi_id": "unitedstatespostalservice-a77078", "operator": "United States Postal Service", "operator:short": "USPS", "operator:type": "public", "operator:wikidata": "Q668687", "ref": "3704000064"}, "type": "Feature"}
{"dataset_attributes": {"@spider": "usps_collection_boxes"}, "geometry": {"coordinates": [-87.3572203, 36.527931], "type": "Point"}, "id": "eSQtPJTNRy7eEHtgIxoGOKhjBK4=", "properties": {"@spider": "usps_collection_boxes", "addr:city": "CLARKSVILLE", "addr:country": "US", "addr:full": "310 FRANKLIN ST", "addr:postcode": "37040", "addr:state": "TN", "amenity": "post_box", "brand": "United States Postal Service", "brand:wikidata": "Q668687", "collection_times": "Mo-Sa 12:00", "name": "USPS COLLECTION BOX - BLUE BOX", "nsi_id": "unitedstatespostalservice-a77078", "operator": "United States Postal Service", "operator:short": "USPS", "operator:type": "public", "operator:wikidata": "Q668687", "ref": "3704000066"}, "type": "Feature"}
{"dataset_attributes": {"@spider": "usps_collection_boxes"}, "geometry": {"coordinates": [-87.2700124, 36.582211], "type": "Point"}, "id": "9unrEbm5E6YeLVgKO7zo6kjGt5o=", "properties": {"@spider": "usps_collection_boxes", "addr:city": "CLARKSVILLE", "addr:country": "US", "addr:full": "651 DUNLOP LN", "addr:postcode": "37040", "addr:state": "TN", "amenity": "post_box", "brand": "United States Postal Service", "brand:wikidata": "Q668687", "collection_times": "Mo-Sa 12:00", "name": "USPS COLLECTION BOX - BLUE BOX", "nsi_id": "unitedstatespostalservice-a77078", "operator": "United States Postal Service", "operator:short": "USPS", "operator:type": "public", "operator:wikidata": "Q668687", "ref": "3704000067"}, "type": "Feature"}
{"dataset_attributes": {"@spider": "usps_collection_boxes"}, "geometry": {"coordinates": [-87.317462, 36.559259], "type": "Point"}, "id": "F8CzgVRBP2loxXvwHuFmc4IznjY=", "properties": {"@spider": "usps_collection_boxes", "addr:city": "CLARKSVILLE", "addr:country": "US", "addr:full": "2031 WILMA RUDOLPH BLVD", "addr:postcode": "37040", "addr:state": "TN", "amenity": "post_box", "brand": "United States Postal Service", "brand:wikidata": "Q668687", "collection_times": "Mo-Sa 17:00", "name": "USPS COLLECTION BOX - APC", "note": "ON 12/24 AND 12/31, THIS BOX MAY BE COLLECTED AS EARLY AS 12 NOON.", "nsi_id": "unitedstatespostalservice-a77078", "operator": "United States Postal Service", "operator:short": "USPS", "operator:type": "public", "operator:wikidata": "Q668687", "ref": "3704000069"}, "type": "Feature"}
{"dataset_attributes": {"@spider": "usps_collection_boxes"}, "geometry": {"coordinates": [-87.3567451, 36.524839], "type": "Point"}, "id": "9kBD9KtE6CYxNiCI-vQNICgRTsU=", "properties": {"@spider": "usps_collection_boxes", "addr:city": "CLARKSVILLE", "addr:country": "US", "addr:full": "306 MADISON ST", "addr:postcode": "37041", "addr:state": "TN", "amenity": "post_box", "brand": "United States Postal Service", "brand:wikidata": "Q668687", "collection_times": "Mo-Fr 16:30; Sa 10:30", "name": "USPS COLLECTION BOX - BLUE BOX", "note": "ON 12/24 AND 12/31, THIS BOX MAY BE COLLECTED AS EARLY AS 12 NOON.", "nsi_id": "unitedstatespostalservice-a77078", "operator": "United States Postal Service", "operator:short": "USPS", "operator:type": "public", "operator:wikidata": "Q668687", "ref": "3704100002"}, "type": "Feature"}
{"dataset_attributes": {"@spider": "usps_collection_boxes"}, "geometry": {"coordinates": [-87.3567883, 36.524811], "type": "Point"}, "id": "tkq-dqkGDpEOrzbu7LPQhoPgeFw=", "properties": {"@spider": "usps_collection_boxes", "addr:city": "CLARKSVILLE", "addr:country": "US", "addr:full": "306 MADISON ST", "addr:postcode": "37041", "addr:state": "TN", "amenity": "post_box", "brand": "United States Postal Service", "brand:wikidata": "Q668687", "collection_times": "Mo-Fr 16:30; Sa 10:30", "name": "USPS COLLECTION BOX - BLUE BOX", "note": "ON 12/24 AND 12/31, THIS BOX MAY BE COLLECTED AS EARLY AS 12 NOON.", "nsi_id": "unitedstatespostalservice-a77078", "operator": "United States Postal Service", "operator:short": "USPS", "operator:type": "public", "operator:wikidata": "Q668687", "ref": "3704100003"}, "type": "Feature"}
{"dataset_attributes": {"@spider": "usps_collection_boxes"}, "geometry": {"coordinates": [-87.356858, 36.525414], "type": "Point"}, "id": "QDTcRrnylX8zWiETuFi8b3UEQQ4=", "properties": {"@spider": "usps_collection_boxes", "addr:city": "CLARKSVILLE", "addr:country": "US", "addr:full": "306 MADISON ST", "addr:postcode": "37041", "addr:state": "TN", "amenity": "post_box", "brand": "United States Postal Service", "brand:wikidata": "Q668687", "collection_times": "Mo-Fr 16:30; Sa 10:30", "name": "USPS COLLECTION BOX - BLUE BOX", "note": "ON 12/24 AND 12/31, THIS BOX MAY BE COLLECTED AS EARLY AS 12 NOON.", "nsi_id": "unitedstatespostalservice-a77078", "operator": "United States Postal Service", "operator:short": "USPS", "operator:type": "public", "operator:wikidata": "Q668687", "ref": "3704100004"}, "type": "Feature"}
{"dataset_attributes": {"@spider": "usps_collection_boxes"}, "geometry": {"coordinates": [-87.356858, 36.525414], "type": "Point"}, "id": "s70SvC1rCyEj8vCj1qvQ8myqwhI=", "properties": {"@spider": "usps_collection_boxes", "addr:city": "CLARKSVILLE", "addr:country": "US", "addr:full": "306 MADISON ST", "addr:postcode": "37041", "addr:state": "TN", "amenity": "post_box", "brand": "United States Postal Service", "brand:wikidata": "Q668687", "collection_times": "Mo-Fr 16:45; Sa 10:30", "name": "USPS COLLECTION BOX - PO LOBBY", "note": "ON 12/24 AND 12/31, THIS BOX MAY BE COLLECTED AS EARLY AS 12 NOON.", "nsi_id": "unitedstatespostalservice-a77078", "operator": "United States Postal Service", "operator:short": "USPS", "operator:type": "public", "operator:wikidata": "Q668687", "ref": "3704100006"}, "type": "Feature"}
{"dataset_attributes": {"@spider": "usps_collection_boxes"}, "geometry": {"coordinates": [-87.356736976, 36.525442969], "type": "Point"}, "id": "A_a4N-dL8Qq_nJicJe3A5HigNOE=", "properties": {"@spider": "usps_collection_boxes", "addr:city": "CLARKSVILLE", "addr:country": "US", "addr:full": "306 MADISON ST", "addr:postcode": "37041", "addr:state": "TN", "amenity": "post_box", "brand": "United States Postal Service", "brand:wikidata": "Q668687", "collection_times": "Mo-Fr 16:30", "name": "USPS COLLECTION BOX - PO LOBBY", "note": "ON 12/24 AND 12/31, THIS BOX MAY BE COLLECTED AS EARLY AS 12 NOON.", "nsi_id": "unitedstatespostalservice-a77078", "operator": "United States Postal Service", "operator:short": "USPS", "operator:type": "public", "operator:wikidata": "Q668687", "ref": "3704100007"}, "type": "Feature"}
{"dataset_attributes": {"@spider": "usps_collection_boxes"}, "geometry": {"coordinates": [-87.418395, 36.594697], "type": "Point"}, "id": "FZYSU01prRwODVBhsW3rKyphJxU=", "properties": {"@spider": "usps_collection_boxes", "addr:city": "CLARKSVILLE", "addr:country": "US", "addr:full": "2011 FORT CAMPBELL BLVD", "addr:postcode": "37042", "addr:state": "TN", "amenity": "post_box", "brand": "United States Postal Service", "brand:wikidata": "Q668687", "collection_times": "Mo-Sa 16:30", "name": "USPS COLLECTION BOX - BLUE BOX", "note": "ON 12/24 AND 12/31, THIS BOX MAY BE COLLECTED AS EARLY AS 12 NOON.", "nsi_id": "unitedstatespostalservice-a77078", "operator": "United States Postal Service", "operator:short": "USPS", "operator:type": "public", "operator:wikidata": "Q668687", "ref": "3704200002"}, "type": "Feature"}
{"dataset_attributes": {"@spider": "usps_collection_boxes"}, "geometry": {"coordinates": [-87.3978981, 36.553476], "type": "Point"}, "id": "ds4mi9vkGtUcdpJ4DQIXB9VhK7Y=", "properties": {"@spider": "usps_collection_boxes", "addr:city": "CLARKSVILLE", "addr:country": "US", "addr:full": "110 DOVER CROSSING RD", "addr:postcode": "37042", "addr:state": "TN", "amenity": "post_box", "brand": "United States Postal Service", "brand:wikidata": "Q668687", "collection_times": "Mo-Sa 10:00", "name": "USPS COLLECTION BOX - BLUE BOX", "nsi_id": "unitedstatespostalservice-a77078", "operator": "United States Postal Service", "operator:short": "USPS", "operator:type": "public", "operator:wikidata": "Q668687", "ref": "3704200003"}, "type": "Feature"}
{"dataset_attributes": {"@spider": "usps_collection_boxes"}, "geometry": {"coordinates": [-87.4122347, 36.580461], "type": "Point"}, "id": "1fW__VmJTyHysmjFx9d2NDJy9Yk=", "properties": {"@spider": "usps_collection_boxes", "addr:city": "CLARKSVILLE", "addr:country": "US", "addr:full": "1680 FORT CAMPBELL BLVD", "addr:postcode": "37042", "addr:state": "TN", "amenity": "post_box", "brand": "United States Postal Service", "brand:wikidata": "Q668687", "collection_times": "Mo-Sa 10:00", "name": "USPS COLLECTION BOX - BLUE BOX", "nsi_id": "unitedstatespostalservice-a77078", "operator": "United States Postal Service", "operator:short": "USPS", "operator:type": "public", "operator:wikidata": "Q668687", "ref": "3704200020"}, "type": "Feature"}
{"dataset_attributes": {"@spider": "usps_collection_boxes"}, "geometry": {"coordinates": [-87.418413, 36.59467], "type": "Point"}, "id": "itKGRuBBv5_H2PUzpOVaKKLVsFU=", "properties": {"@spider": "usps_collection_boxes", "addr:city": "CLARKSVILLE", "addr:country": "US", "addr:full": "2011 FORT CAMPBELL BLVD", "addr:postcode": "37042", "addr:state": "TN", "amenity": "post_box", "brand": "United States Postal Service", "brand:wikidata": "Q668687", "collection_times": "Mo-Sa 16:30", "name": "USPS COLLECTION BOX - BLUE BOX", "note": "ON 12/24 AND 12/31, THIS BOX MAY BE COLLECTED AS EARLY AS 12 NOON.", "nsi_id": "unitedstatespostalservice-a77078", "operator": "United States Postal Service", "operator:short": "USPS", "operator:type": "public", "operator:wikidata": "Q668687", "ref": "3704200021"}, "type": "Feature"}
{"dataset_attributes": {"@spider": "usps_collection_boxes"}, "geometry": {"coordinates": [-87.418413, 36.59467], "type": "Point"}, "id": "4TyQCm5WXWOzxaGxn-Vd1RzM8C8=", "properties": {"@spider": "usps_collection_boxes", "addr:city": "CLARKSVILLE", "addr:country": "US", "addr:full": "2011 FORT CAMPBELL BLVD", "addr:postcode": "37042", "addr:state": "TN", "amenity": "post_box", "brand": "United States Postal Service", "brand:wikidata": "Q668687", "collection_times": "Mo-Sa 16:45", "name": "USPS COLLECTION BOX - PO LOBBY", "note": "ON 12/24 AND 12/31, THIS BOX MAY BE COLLECTED AS EARLY AS 12 NOON.", "nsi_id": "unitedstatespostalservice-a77078", "operator": "United States Postal Service", "operator:short": "USPS", "operator:type": "public", "operator:wikidata": "Q668687", "ref": "3704200026"}, "type": "Feature"}
{"dataset_attributes": {"@spider": "usps_collection_boxes"}, "geometry": {"coordinates": [-87.417829338, 36.593987463], "type": "Point"}, "id": "EKr0hsb9-64yZnO1MOp88seouTk=", "properties": {"@spider": "usps_collection_boxes", "addr:city": "CLARKSVILLE", "addr:country": "US", "addr:full": "2011 FORT CAMPBELL BLVD", "addr:postcode": "37042", "addr:state": "TN", "amenity": "post_box", "brand": "United States Postal Service", "brand:wikidata": "Q668687", "collection_times": "Mo-Fr 16:45", "name": "USPS COLLECTION BOX - PO LOBBY", "note": "ON 12/24 AND 12/31, THIS BOX MAY BE COLLECTED AS EARLY AS 12 NOON.", "nsi_id": "unitedstatespostalservice-a77078", "operator": "United States Postal Service", "operator:short": "USPS", "operator:type": "public", "operator:wikidata": "Q668687", "ref": "3704200029"}, "type": "Feature"}
{"dataset_attributes": {"@spider": "usps_collection_boxes"}, "geometry": {"coordinates": [-87.279269, 36.510603], "type": "Point"}, "id": "hSdV-uG_HRDKmmFZBZl5lPOlZi8=", "properties": {"@spider": "usps_collection_boxes", "addr:city": "CLARKSVILLE", "addr:country": "US", "addr:full": "2215 MADISON ST", "addr:postcode": "37043", "addr:state": "TN", "amenity": "post_box", "brand": "United States Postal Service", "brand:wikidata": "Q668687", "collection_times": "Mo-Sa 12:00", "name": "USPS COLLECTION BOX - BLUE BOX", "nsi_id": "unitedstatespostalservice-a77078", "operator": "United States Postal Service", "operator:short": "USPS", "operator:type": "public", "operator:wikidata": "Q668687", "ref": "3704300032"}, "type": "Feature"}
{"dataset_attributes": {"@spider": "usps_collection_boxes"}, "geometry": {"coordinates": [-87.2698841, 36.509242], "type": "Point"}, "id": "5vrSIQ4rGFvJmzv-9kIZKiMTKXQ=", "properties": {"@spider": "usps_collection_boxes", "addr:city": "CLARKSVILLE", "addr:country": "US", "addr:full": "2315 MADISON ST", "addr:postcode": "37043", "addr:state": "TN", "amenity": "post_box", "brand": "United States Postal Service", "brand:wikidata": "Q668687", "collection_times": "Mo-Sa 10:00", "name": "USPS COLLECTION BOX - BLUE BOX", "nsi_id": "unitedstatespostalservice-a77078", "operator": "United States Postal Service", "operator:short": "USPS", "operator:type": "public", "operator:wikidata": "Q668687", "ref": "3704300033"}, "type": "Feature"}
{"dataset_attributes": {"@spider": "usps_collection_boxes"}, "geometry": {"coordinates": [-86.544208, 36.454533], "type": "Point"}, "id": "jxwz52x4cMGziwkyBOV6XC7-Kg4=", "properties": {"@spider": "usps_collection_boxes", "addr:city": "COTTONTOWN", "addr:country": "US", "addr:full": "2401 HIGHWAY 25", "addr:postcode": "37048", "addr:state": "TN", "amenity": "post_box", "brand": "United States Postal Service", "brand:wikidata": "Q668687", "collection_times": "Mo-Fr 15:45; Sa 10:30", "name": "USPS COLLECTION BOX - BLUE BOX", "note": "ON 12/24 AND 12/31, THIS BOX MAY BE COLLECTED AS EARLY AS 12 NOON.", "nsi_id": "unitedstatespostalservice-a77078", "operator": "United States Postal Service", "operator:short": "USPS", "operator:type": "public", "operator:wikidata": "Q668687", "ref": "3704800001"}, "type": "Feature"}
{"dataset_attributes": {"@spider": "usps_collection_boxes"}, "geometry": {"coordinates": [-86.544097, 36.454503], "type": "Point"}, "id": "Gx-t9ax29paaMQcDFUknd0MqkC0=", "properties": {"@spider": "usps_collection_boxes", "addr:city": "COTTONTOWN", "addr:country": "US", "addr:full": "2401 HIGHWAY 25", "addr:postcode": "37048", "addr:state": "TN", "amenity": "post_box", "brand": "United States Postal Service", "brand:wikidata": "Q668687", "collection_times": "Mo-Fr 15:45; Sa 10:30", "name": "USPS COLLECTION BOX - PO LOBBY", "note": "ON 12/24 AND 12/31, THIS BOX MAY BE COLLECTED AS EARLY AS 12 NOON.", "nsi_id": "unitedstatespostalservice-a77078", "operator": "United States Postal Service", "operator:short": "USPS", "operator:type": "public", "operator:wikidata": "Q668687", "ref": "3704800002"}, "type": "Feature"}
{"dataset_attributes": {"@spider": "usps_collection_boxes"}, "geometry": {"coordinates": [-86.544212678, 36.454484133], "type": "Point"}, "id": "37FA5hNCpCf-t1uPIlZHPERO4Lc=", "properties": {"@spider": "usps_collection_boxes", "addr:city": "COTTONTOWN", "addr:country": "US", "addr:full": "2401 HIGHWAY 25", "addr:postcode": "37048", "addr:state": "TN", "amenity": "post_box", "brand": "United States Postal Service", "brand:wikidata": "Q668687", "collection_times": "Mo-Fr 15:45", "name": "USPS COLLECTION BOX - PO LOBBY", "note": "ON 12/24 AND 12/31, THIS BOX MAY BE COLLECTED AS EARLY AS 12 NOON.", "nsi_id": "unitedstatespostalservice-a77078", "operator": "United States Postal Service", "operator:short": "USPS", "operator:type": "public", "operator:wikidata": "Q668687", "ref": "3704800003"}, "type": "Feature"}
{"dataset_attributes": {"@spider": "usps_collection_boxes"}, "geometry": {"coordinates": [-86.697392, 36.548524], "type": "Point"}, "id": "oA6DBHkV6e9WCuWmXtvIOORwfUE=", "properties": {"@spider": "usps_collection_boxes", "addr:city": "CROSS PLAINS", "addr:country": "US", "addr:full": "7780 HIGHWAY 25 E", "addr:postcode": "37049", "addr:state": "TN", "amenity": "post_box", "brand": "United States Postal Service", "brand:wikidata": "Q668687", "collection_times": "Mo-Fr 15:45; Sa 11:00", "name": "USPS COLLECTION BOX - PO LOBBY", "note": "ON 12/24 AND 12/31, THIS BOX MAY BE COLLECTED AS EARLY AS 12 NOON.", "nsi_id": "unitedstatespostalservice-a77078", "operator": "United States Postal Service", "operator:short": "USPS", "operator:type": "public", "operator:wikidata": "Q668687", "ref": "3704900001"}, "type": "Feature"}
{"dataset_attributes": {"@spider": "usps_collection_boxes"}, "geometry": {"coordinates": [-86.697318, 36.548488], "type": "Point"}, "id": "Z_HjIZuYosXf67M-q_aKBXSkNWs=", "properties": {"@spider": "usps_collection_boxes", "addr:city": "CROSS PLAINS", "addr:country": "US", "addr:full": "7780 HIGHWAY 25 E", "addr:postcode": "37049", "addr:state": "TN", "amenity": "post_box", "brand": "United States Postal Service", "brand:wikidata": "Q668687", "collection_times": "Mo-Fr 15:45; Sa 11:00", "name": "USPS COLLECTION BOX - BLUE BOX", "note": "ON 12/24 AND 12/31, THIS BOX MAY BE COLLECTED AS EARLY AS 12 NOON.", "nsi_id": "unitedstatespostalservice-a77078", "operator": "United States Postal Service", "operator:short": "USPS", "operator:type": "public", "operator:wikidata": "Q668687", "ref": "3704900002"}, "type": "Feature"}
{"dataset_attributes": {"@spider": "usps_collection_boxes"}, "geometry": {"coordinates": [-86.697499154, 36.548536347], "type": "Point"}, "id": "vOnCJXsB4vvue-ornb6wXEsQKA0=", "properties": {"@spider": "usps_collection_boxes", "addr:city": "CROSS PLAINS", "addr:country": "US", "addr:full": "7780 HIGHWAY 25 E", "addr:postcode": "37049", "addr:state": "TN", "amenity": "post_box", "brand": "United States Postal Service", "brand:wikidata": "Q668687", "collection_times": "Mo-Fr 15:45", "name": "USPS COLLECTION BOX - PO LOBBY", "note": "ON 12/24 AND 12/31, THIS BOX MAY BE COLLECTED AS EARLY AS 12 NOON.", "nsi_id": "unitedstatespostalservice-a77078", "operator": "United States Postal Service", "operator:short": "USPS", "operator:type": "public", "operator:wikidata": "Q668687", "ref": "3704900004"}, "type": "Feature"}
{"dataset_attributes": {"@spider": "usps_collection_boxes"}, "geometry": {"coordinates": [-87.3412044, 36.022895], "type": "Point"}, "id": "eVeJco2esVRQ1h3KUD8cM4BPOxM=", "properties": {"@spider": "usps_collection_boxes", "addr:city": "DICKSON", "addr:country": "US", "addr:full": "2320 HIGHWAY 46 S", "addr:postcode": "37055", "addr:state": "TN", "amenity": "post_box", "brand": "United States Postal Service", "brand:wikidata": "Q668687", "collection_times": "Mo-Sa 08:30", "name": "USPS COLLECTION BOX - BLUE BOX", "nsi_id": "unitedstatespostalservice-a77078", "operator": "United States Postal Service", "operator:short": "USPS", "operator:type": "public", "operator:wikidata": "Q668687", "ref": "3705500024"}, "type": "Feature"}
{"dataset_attributes": {"@spider": "usps_collection_boxes"}, "geometry": {"coordinates": [-86.051959, 36.359747], "type": "Point"}, "id": "zHS7-viAix8PxvXY9LBh0RBmcJc=", "properties": {"@spider": "usps_collection_boxes", "addr:city": "DIXON SPRINGS", "addr:country": "US", "addr:full": "4 HIGHERS DR", "addr:postcode": "37057", "addr:state": "TN", "amenity": "post_box", "brand": "United States Postal Service", "brand:wikidata": "Q668687", "collection_times": "Mo-Sa 11:00", "name": "USPS COLLECTION BOX - BLUE BOX", "nsi_id": "unitedstatespostalservice-a77078", "operator": "United States Postal Service", "operator:short": "USPS", "operator:type": "public", "operator:wikidata": "Q668687", "ref": "3705700001"}, "type": "Feature"}
{"dataset_attributes": {"@spider": "usps_collection_boxes"}, "geometry": {"coordinates": [-86.051882, 36.359812], "type": "Point"}, "id": "2_wWw9r8E7n19mpupOLbO0ReQ2A=", "properties": {"@spider": "usps_collection_boxes", "addr:city": "DIXON SPRINGS", "addr:country": "US", "addr:full": "4 HIGHERS DR", "addr:postcode": "37057", "addr:state": "TN", "amenity": "post_box", "brand": "United States Postal Service", "brand:wikidata": "Q668687", "collection_times": "Mo-Sa 11:00", "name": "USPS COLLECTION BOX - PO LOBBY", "nsi_id": "unitedstatespostalservice-a77078", "operator": "United States Postal Service", "operator:short": "USPS", "operator:type": "public", "operator:wikidata": "Q668687", "ref": "3705700002"}, "type": "Feature"}
{"dataset_attributes": {"@spider": "usps_collection_boxes"}, "geometry": {"coordinates": [-86.052247165, 36.359269658], "type": "Point"}, "id": "0S81ou6IOzw41PQR9hQkTujvAJU=", "properties": {"@spider": "usps_collection_boxes", "addr:city": "DIXON SPRINGS", "addr:country": "US", "addr:full": "4 HIGHERS DR", "addr:postcode": "37057", "addr:state": "TN", "amenity": "post_box", "brand": "United States Postal Service", "brand:wikidata": "Q668687", "collection_times": "Mo-Fr 11:00", "name": "USPS COLLECTION BOX - PO LOBBY", "nsi_id": "unitedstatespostalservice-a77078", "operator": "United States Postal Service", "operator:short": "USPS", "operator:type": "public", "operator:wikidata": "Q668687", "ref": "3705700003"}, "type": "Feature"}
{"dataset_attributes": {"@spider": "usps_collection_boxes"}, "geometry": {"coordinates": [-87.1225299, 35.981203], "type": "Point"}, "id": "anlUa_MVj0jkU4dK1vrBqeCumBA=", "properties": {"@spider": "usps_collection_boxes", "addr:city": "FAIRVIEW", "addr:country": "US", "addr:full": "2080 FAIRVIEW BLVD", "addr:postcode": "37062", "addr:state": "TN", "amenity": "post_box", "brand": "United States Postal Service", "brand:wikidata": "Q668687", "collection_times": "Mo-Sa 09:00", "name": "USPS COLLECTION BOX - BLUE BOX", "nsi_id": "unitedstatespostalservice-a77078", "operator": "United States Postal Service", "operator:short": "USPS", "operator:type": "public", "operator:wikidata": "Q668687", "ref": "3706200005"}, "type": "Feature"}
{"dataset_attributes": {"@spider": "usps_collection_boxes"}, "geometry": {"coordinates": [-87.1278704, 35.971968], "type": "Point"}, "id": "soPW8ADIJdLawwkI34wgzOB9ka4=", "properties": {"@spider": "usps_collection_boxes", "addr:city": "FAIRVIEW", "addr:country": "US", "addr:full": "2239 FAIRVIEW BLVD", "addr:postcode": "37062", "addr:state": "TN", "amenity": "post_box", "brand": "United States Postal Service", "brand:wikidata": "Q668687", "collection_times": "Mo-Sa 10:30", "name": "USPS COLLECTION BOX - BLUE BOX", "nsi_id": "unitedstatespostalservice-a77078", "operator": "United States Postal Service", "operator:short": "USPS", "operator:type": "public", "operator:wikidata": "Q668687", "ref": "3706200007"}, "type": "Feature"}
{"dataset_attributes": {"@spider": "usps_collection_boxes"}, "geometry": {"coordinates": [-86.9963666, 35.895776], "type": "Point"}, "id": "E3EfNpKdZ4RaEnOeXGxNeZ79E2Q=", "properties": {"@spider": "usps_collection_boxes", "addr:city": "FRANKLIN", "addr:country": "US", "addr:full": "4146 OLD HILLSBORO RD", "addr:postcode": "37064", "addr:state": "TN", "amenity": "post_box", "brand": "United States Postal Service", "brand:wikidata": "Q668687", "collection_times": "Mo-Sa 12:00", "name": "USPS COLLECTION BOX - BLUE BOX", "nsi_id": "unitedstatespostalservice-a77078", "operator": "United States Postal Service", "operator:short": "USPS", "operator:type": "public", "operator:wikidata": "Q668687", "ref": "3706400050"}, "type": "Feature"}
{"dataset_attributes": {"@spider": "usps_collection_boxes"}, "geometry": {"coordinates": [-86.4512461, 36.389102], "type": "Point"}, "id": "WJfpp9oSTlXqRGRTjyaY_8S-F_M=", "properties": {"@spider": "usps_collection_boxes", "addr:city": "GALLATIN", "addr:country": "US", "addr:full": "206 W BROADWAY", "addr:postcode": "37066", "addr:state": "TN", "amenity": "post_box", "brand": "United States Postal Service", "brand:wikidata": "Q668687", "collection_times": "Mo-Sa 13:00", "name": "USPS COLLECTION BOX - BLUE BOX", "note": "ON 12/24 AND 12/31, THIS BOX MAY BE COLLECTED AS EARLY AS 12 NOON.", "nsi_id": "unitedstatespostalservice-a77078", "operator": "United States Postal Service", "operator:short": "USPS", "operator:type": "public", "operator:wikidata": "Q668687", "ref": "3706600003"}, "type": "Feature"}
{"dataset_attributes": {"@spider": "usps_collection_boxes"}, "geometry": {"coordinates": [-86.4464999, 36.388838], "type": "Point"}, "id": "GcdWxQldIjuiKbXA3kISB_reiF4=", "properties": {"@spider": "usps_collection_boxes", "addr:city": "GALLATIN", "addr:country": "US", "addr:full": "118 PUBLIC SQ", "addr:postcode": "37066", "addr:state": "TN", "amenity": "post_box", "brand": "United States Postal Service", "brand:wikidata": "Q668687", "collection_times": "Mo-Fr 15:00", "name": "USPS COLLECTION BOX - BLUE BOX", "note": "ON 12/24 AND 12/31, THIS BOX MAY BE COLLECTED AS EARLY AS 12 NOON.", "nsi_id": "unitedstatespostalservice-a77078", "operator": "United States Postal Service", "operator:short": "USPS", "operator:type": "public", "operator:wikidata": "Q668687", "ref": "3706600006"}, "type": "Feature"}
{"dataset_attributes": {"@spider": "usps_collection_boxes"}, "geometry": {"coordinates": [-86.4388088, 36.390139], "type": "Point"}, "id": "KoUQrtS0dv5WBvuFOUuZYhfeFQw=", "properties": {"@spider": "usps_collection_boxes", "addr:city": "GALLATIN", "addr:country": "US", "addr:full": "353 E MAIN ST", "addr:postcode": "37066", "addr:state": "TN", "amenity": "post_box", "brand": "United States Postal Service", "brand:wikidata": "Q668687", "collection_times": "Mo-Sa 13:00", "name": "USPS COLLECTION BOX - BLUE BOX", "note": "ON 12/24 AND 12/31, THIS BOX MAY BE COLLECTED AS EARLY AS 12 NOON.", "nsi_id": "unitedstatespostalservice-a77078", "operator": "United States Postal Service", "operator:short": "USPS", "operator:type": "public", "operator:wikidata": "Q668687", "ref": "3706600007"}, "type": "Feature"}
{"dataset_attributes": {"@spider": "usps_collection_boxes"}, "geometry": {"coordinates": [-86.4334476, 36.389991], "type": "Point"}, "id": "dWkKq-ZWc4g42yg54xah9GNqmI8=", "properties": {"@spider": "usps_collection_boxes", "addr:city": "GALLATIN", "addr:country": "US", "addr:full": "300 STEAM PLANT RD", "addr:postcode": "37066", "addr:state": "TN", "amenity": "post_box", "brand": "United States Postal Service", "brand:wikidata": "Q668687", "collection_times": "Mo-Fr 14:30; Sa 13:00", "name": "USPS COLLECTION BOX - BLUE BOX", "note": "ON 12/24 AND 12/31, THIS BOX MAY BE COLLECTED AS EARLY AS 12 NOON.", "nsi_id": "unitedstatespostalservice-a77078", "operator": "United States Postal Service", "operator:short": "USPS", "operator:type": "public", "operator:wikidata": "Q668687", "ref": "3706600018"}, "type": "Feature"}
{"dataset_attributes": {"@spider": "usps_collection_boxes"}, "geometry": {"coordinates": [-86.4362061, 36.3909], "type": "Point"}, "id": "9YcbBgLwAxl7fRgyWvneHkuOh-E=", "properties": {"@spider": "usps_collection_boxes", "addr:city": "GALLATIN", "addr:country": "US", "addr:full": "471 E MAIN ST", "addr:postcode": "37066", "addr:state": "TN", "amenity": "post_box", "brand": "United States Postal Service", "brand:wikidata": "Q668687", "collection_times": "Mo-Sa 13:00", "name": "USPS COLLECTION BOX - BLUE BOX", "note": "ON 12/24 AND 12/31, THIS BOX MAY BE COLLECTED AS EARLY AS 12 NOON.", "nsi_id": "unitedstatespostalservice-a77078", "operator": "United States Postal Service", "operator:short": "USPS", "operator:type": "public", "operator:wikidata": "Q668687", "ref": "3706600024"}, "type": "Feature"}
{"dataset_attributes": {"@spider": "usps_collection_boxes"}, "geometry": {"coordinates": [-86.4461452, 36.387063], "type": "Point"}, "id": "2NHUQ-cPE6r6kLkxY2aWhL3l6C8=", "properties": {"@spider": "usps_collection_boxes", "addr:city": "GALLATIN", "addr:country": "US", "addr:full": "117 W SMITH ST", "addr:postcode": "37066", "addr:state": "TN", "amenity": "post_box", "brand": "United States Postal Service", "brand:wikidata": "Q668687", "collection_times": "Mo-Fr 14:30; Sa 12:00", "name": "USPS COLLECTION BOX - BLUE BOX", "note": "ON 12/24 AND 12/31, THIS BOX MAY BE COLLECTED AS EARLY AS 12 NOON.", "nsi_id": "unitedstatespostalservice-a77078", "operator": "United States Postal Service", "operator:short": "USPS", "operator:type": "public", "operator:wikidata": "Q668687", "ref": "3706600025"}, "type": "Feature"}
{"dataset_attributes": {"@spider": "usps_collection_boxes"}, "geometry": {"coordinates": [-86.4425942, 36.378878], "type": "Point"}, "id": "KxnaZfBNWr5jtg-_L2-uz46Zi4U=", "properties": {"@spider": "usps_collection_boxes", "addr:city": "GALLATIN", "addr:country": "US", "addr:full": "649 S WATER AVE", "addr:postcode": "37066", "addr:state": "TN", "amenity": "post_box", "brand": "United States Postal Service", "brand:wikidata": "Q668687", "collection_times": "Mo-Fr 14:30; Sa 13:00", "name": "USPS COLLECTION BOX - BLUE BOX", "note": "ON 12/24 AND 12/31, THIS BOX MAY BE COLLECTED AS EARLY AS 12 NOON.", "nsi_id": "unitedstatespostalservice-a77078", "operator": "United States Postal Service", "operator:short": "USPS", "operator:type": "public", "operator:wikidata": "Q668687", "ref": "3706600027"}, "type": "Feature"}
{"dataset_attributes": {"@spider": "usps_collection_boxes"}, "geometry": {"coordinates": [-86.4794159, 36.378245], "type": "Point"}, "id": "Oki7JBwNsQt1MdEWy3ok225Fu1w=", "properties": {"@spider": "usps_collection_boxes", "addr:city": "GALLATIN", "addr:country": "US", "addr:full": "355 N BELVEDERE DR", "addr:postcode": "37066", "addr:state": "TN", "amenity": "post_box", "brand": "United States Postal Service", "brand:wikidata": "Q668687", "collection_times": "Mo-Sa 13:00", "name": "USPS COLLECTION BOX - BLUE BOX", "note": "ON 12/24 AND 12/31, THIS BOX MAY BE COLLECTED AS EARLY AS 12 NOON.", "nsi_id": "unitedstatespostalservice-a77078", "operator": "United States Postal Service", "operator:short": "USPS", "operator:type": "public", "operator:wikidata": "Q668687", "ref": "3706600032"}, "type": "Feature"}
{"dataset_attributes": {"@spider": "usps_collection_boxes"}, "geometry": {"coordinates": [-86.455301, 36.380946], "type": "Point"}, "id": "hT-u7ZeJc_GLvptN8YOBxol1QAQ=", "properties": {"@spider": "usps_collection_boxes", "addr:city": "GALLATIN", "addr:country": "US", "addr:full": "380 MAPLE ST", "addr:postcode": "37066", "addr:state": "TN", "amenity": "post_box", "brand": "United States Postal Service", "brand:wikidata": "Q668687", "collection_times": "Mo-Sa 17:00", "name": "USPS COLLECTION BOX - BLUE BOX", "note": "ON 12/24 AND 12/31, THIS BOX MAY BE COLLECTED AS EARLY AS 12 NOON.", "nsi_id": "unitedstatespostalservice-a77078", "operator": "United States Postal Service", "operator:short": "USPS", "operator:type": "public", "operator:wikidata": "Q668687", "ref": "3706600033"}, "type": "Feature"}
{"dataset_attributes": {"@spider": "usps_collection_boxes"}, "geometry": {"coordinates": [-86.455402, 36.380933], "type": "Point"}, "id": "ITNz4-49Y98b-If-3Ty8G-NlUy4=", "properties": {"@spider": "usps_collection_boxes", "addr:city": "GALLATIN", "addr:country": "US", "addr:full": "380 MAPLE ST", "addr:postcode": "37066", "addr:state": "TN", "amenity": "post_box", "brand": "United States Postal Service", "brand:wikidata": "Q668687", "collection_times": "Mo-Sa 17:00", "name": "USPS COLLECTION BOX - PO LOBBY", "note": "ON 12/24 AND 12/31, THIS BOX MAY BE COLLECTED AS EARLY AS 12 NOON.", "nsi_id": "unitedstatespostalservice-a77078", "operator": "United States Postal Service", "operator:short": "USPS", "operator:type": "public", "operator:wikidata": "Q668687", "ref": "3706600040"}, "type": "Feature"}
{"dataset_attributes": {"@spider": "usps_collection_boxes"}, "geometry": {"coordinates": [-86.4761132, 36.37652], "type": "Point"}, "id": "tG1ThyEcz0yqOAJTbPbCnx05tQI=", "properties": {"@spider": "usps_collection_boxes", "addr:city": "GALLATIN", "addr:country": "US", "addr:full": "1112 NASHVILLE PIKE", "addr:postcode": "37066", "addr:state": "TN", "amenity": "post_box", "brand": "United States Postal Service", "brand:wikidata": "Q668687", "collection_times": "Mo-Fr 10:30; Sa 10:00", "name": "USPS COLLECTION BOX - BLUE BOX", "nsi_id": "unitedstatespostalservice-a77078", "operator": "United States Postal Service", "operator:short": "USPS", "operator:type": "public", "operator:wikidata": "Q668687", "ref": "3706600041"}, "type": "Feature"}
{"dataset_attributes": {"@spider": "usps_collection_boxes"}, "geometry": {"coordinates": [-86.455402, 36.380933], "type": "Point"}, "id": "xAQ-SSP3nJ3O5DNtOmfrFzDmeqA=", "properties": {"@spider": "usps_collection_boxes", "addr:city": "GALLATIN", "addr:country": "US", "addr:full": "380 MAPLE ST", "addr:postcode": "37066", "addr:state": "TN", "amenity": "post_box", "brand": "United States Postal Service", "brand:wikidata": "Q668687", "collection_times": "Mo-Sa 17:00", "name": "USPS COLLECTION BOX - APC", "note": "ON 12/24 AND 12/31, THIS BOX MAY BE COLLECTED AS EARLY AS 12 NOON.", "nsi_id": "unitedstatespostalservice-a77078", "operator": "United States Postal Service", "operator:short": "USPS", "operator:type": "public", "operator:wikidata": "Q668687", "ref": "3706600042"}, "type": "Feature"}
{"dataset_attributes": {"@spider": "usps_collection_boxes"}, "geometry": {"coordinates": [-86.446518, 36.388864], "type": "Point"}, "id": "l39nXb-BnScp5B6kLBxUoyoXya8=", "properties": {"@spider": "usps_collection_boxes", "addr:city": "GALLATIN", "addr:country": "US", "addr:full": "118 PUBLIC SQ", "addr:postcode": "37066", "addr:state": "TN", "amenity": "post_box", "brand": "United States Postal Service", "brand:wikidata": "Q668687", "collection_times": "Mo-Fr 15:00", "name": "USPS COLLECTION BOX - BLUE BOX", "note": "ON 12/24 AND 12/31, THIS BOX MAY BE COLLECTED AS EARLY AS 12 NOON.", "nsi_id": "unitedstatespostalservice-a77078", "operator": "United States Postal Service", "operator:short": "USPS", "operator:type": "public", "operator:wikidata": "Q668687", "ref": "3706600045"}, "type": "Feature"}
{"dataset_attributes": {"@spider": "usps_collection_boxes"}, "geometry": {"coordinates": [-86.4565353, 36.384566], "type": "Point"}, "id": "9AEI8hcyULwVhj7mJU_WErd8pLE=", "properties": {"@spider": "usps_collection_boxes", "addr:city": "GALLATIN", "addr:country": "US", "addr:full": "450 W MAIN ST", "addr:postcode": "37066", "addr:state": "TN", "amenity": "post_box", "brand": "United States Postal Service", "brand:wikidata": "Q668687", "collection_times": "Mo-Sa 13:00", "name": "USPS COLLECTION BOX - BLUE BOX", "note": "ON 12/24 AND 12/31, THIS BOX MAY BE COLLECTED AS EARLY AS 12 NOON.", "nsi_id": "unitedstatespostalservice-a77078", "operator": "United States Postal Service", "operator:short": "USPS", "operator:type": "public", "operator:wikidata": "Q668687", "ref": "3706600046"}, "type": "Feature"}
{"dataset_attributes": {"@spider": "usps_collection_boxes"}, "geometry": {"coordinates": [-86.455334353, 36.380984794], "type": "Point"}, "id": "ahq4UfdRAUxehdCc6CfsnofC0-I=", "properties": {"@spider": "usps_collection_boxes", "addr:city": "GALLATIN", "addr:country": "US", "addr:full": "380 MAPLE ST", "addr:postcode": "37066", "addr:state": "TN", "amenity": "post_box", "brand": "United States Postal Service", "brand:wikidata": "Q668687", "collection_times": "Mo-Fr 17:00", "name": "USPS COLLECTION BOX - PO LOBBY", "note": "ON 12/24 AND 12/31, THIS BOX MAY BE COLLECTED AS EARLY AS 12 NOON.", "nsi_id": "unitedstatespostalservice-a77078", "operator": "United States Postal Service", "operator:short": "USPS", "operator:type": "public", "operator:wikidata": "Q668687", "ref": "3706600049"}, "type": "Feature"}
{"dataset_attributes": {"@spider": "usps_collection_boxes"}, "geometry": {"coordinates": [-86.712724, 36.313479], "type": "Point"}, "id": "7mhQzfgh2dza_F_aiJmci-taspI=", "properties": {"@spider": "usps_collection_boxes", "addr:city": "GOODLETTSVILLE", "addr:country": "US", "addr:full": "212 GOODLETTSVILLE PLZ", "addr:postcode": "37072", "addr:state": "TN", "amenity": "post_box", "brand": "United States Postal Service", "brand:wikidata": "Q668687", "collection_times": "Mo-Fr 14:00; Sa 12:00", "name": "USPS COLLECTION BOX - BLUE BOX", "note": "ON 12/24 AND 12/31, THIS BOX MAY BE COLLECTED AS EARLY AS 12 NOON.", "nsi_id": "unitedstatespostalservice-a77078", "operator": "United States Postal Service", "operator:short": "USPS", "operator:type": "public", "operator:wikidata": "Q668687", "ref": "3707200011"}, "type": "Feature"}
{"dataset_attributes": {"@spider": "usps_collection_boxes"}, "geometry": {"coordinates": [-86.6991415, 36.322203], "type": "Point"}, "id": "gGok02mHneOvhPZ6ya8BHgP1RpI=", "properties": {"@spider": "usps_collection_boxes", "addr:city": "GOODLETTSVILLE", "addr:country": "US", "addr:full": "301 NORTHCREEK BLVD", "addr:postcode": "37072", "addr:state": "TN", "amenity": "post_box", "brand": "United States Postal Service", "brand:wikidata": "Q668687", "collection_times": "Mo-Fr 17:00; Sa 14:30", "name": "USPS COLLECTION BOX - BLUE BOX", "note": "ON 12/24 AND 12/31, THIS BOX MAY BE COLLECTED AS EARLY AS 12 NOON.", "nsi_id": "unitedstatespostalservice-a77078", "operator": "United States Postal Service", "operator:short": "USPS", "operator:type": "public", "operator:wikidata": "Q668687", "ref": "3707200023"}, "type": "Feature"}
{"dataset_attributes": {"@spider": "usps_collection_boxes"}, "geometry": {"coordinates": [-86.7066812, 36.378033], "type": "Point"}, "id": "qsvQd8Lm_nmZ5aH0CnAx7-f-SFc=", "properties": {"@spider": "usps_collection_boxes", "addr:city": "GOODLETTSVILLE", "addr:country": "US", "addr:full": "1246 LOUISVILLE HWY", "addr:postcode": "37072", "addr:state": "TN", "amenity": "post_box", "brand": "United States Postal Service", "brand:wikidata": "Q668687", "collection_times": "Mo-Sa 10:00", "name": "USPS COLLECTION BOX - BLUE BOX", "nsi_id": "unitedstatespostalservice-a77078", "operator": "United States Postal Service", "operator:short": "USPS", "operator:type": "public", "operator:wikidata": "Q668687", "ref": "3707200025"}, "type": "Feature"}
{"dataset_attributes": {"@spider": "usps_collection_boxes"}, "geometry": {"coordinates": [-86.6987863, 36.322293], "type": "Point"}, "id": "s8i7sL_BOC-SunD1ipRBRzEInpc=", "properties": {"@spider": "usps_collection_boxes", "addr:city": "GOODLETTSVILLE", "addr:country": "US", "addr:full": "301 NORTHCREEK BLVD", "addr:postcode": "37072", "addr:state": "TN", "amenity": "post_box", "brand": "United States Postal Service", "brand:wikidata": "Q668687", "collection_times": "Mo-Fr 17:00; Sa 14:30", "name": "USPS COLLECTION BOX - PO LOBBY", "note": "ON 12/24 AND 12/31, THIS BOX MAY BE COLLECTED AS EARLY AS 12 NOON.", "nsi_id": "unitedstatespostalservice-a77078", "operator": "United States Postal Service", "operator:short": "USPS", "operator:type": "public", "operator:wikidata": "Q668687", "ref": "3707200026"}, "type": "Feature"}
{"dataset_attributes": {"@spider": "usps_collection_boxes"}, "geometry": {"coordinates": [-86.6988283, 36.322292], "type": "Point"}, "id": "sexXJEn-0VXxuVJN-JKhZbaeEqA=", "properties": {"@spider": "usps_collection_boxes", "addr:city": "GOODLETTSVILLE", "addr:country": "US", "addr:full": "301 NORTHCREEK BLVD", "addr:postcode": "37072", "addr:state": "TN", "amenity": "post_box", "brand": "United States Postal Service", "brand:wikidata": "Q668687", "collection_times": "Mo-Fr 17:00; Sa 14:30", "name": "USPS COLLECTION BOX - PO LOBBY", "note": "ON 12/24 AND 12/31, THIS BOX MAY BE COLLECTED AS EARLY AS 12 NOON.", "nsi_id": "unitedstatespostalservice-a77078", "operator": "United States Postal Service", "operator:short": "USPS", "operator:type": "public", "operator:wikidata": "Q668687", "ref": "3707200027"}, "type": "Feature"}
{"dataset_attributes": {"@spider": "usps_collection_boxes"}, "geometry": {"coordinates": [-86.7135393, 36.322174], "type": "Point"}, "id": "0zw8tnDytPCAsF4ZAvDMvL3H3f0=", "properties": {"@spider": "usps_collection_boxes", "addr:city": "GOODLETTSVILLE", "addr:country": "US", "addr:full": "105 S MAIN ST", "addr:postcode": "37072", "addr:state": "TN", "amenity": "post_box", "brand": "United States Postal Service", "brand:wikidata": "Q668687", "collection_times": "Mo-Fr 15:00; Sa 12:00", "name": "USPS COLLECTION BOX - BLUE BOX", "note": "ON 12/24 AND 12/31, THIS BOX MAY BE COLLECTED AS EARLY AS 12 NOON.", "nsi_id": "unitedstatespostalservice-a77078", "operator": "United States Postal Service", "operator:short": "USPS", "operator:type": "public", "operator:wikidata": "Q668687", "ref": "3707200028"}, "type": "Feature"}
{"dataset_attributes": {"@spider": "usps_collection_boxes"}, "geometry": {"coordinates": [-86.6991364, 36.322211], "type": "Point"}, "id": "gGSx8qRibUEH7LWcOipHXD4fdJ8=", "properties": {"@spider": "usps_collection_boxes", "addr:city": "GOODLETTSVILLE", "addr:country": "US", "addr:full": "301 NORTHCREEK BLVD", "addr:postcode": "37072", "addr:state": "TN", "amenity": "post_box", "brand": "United States Postal Service", "brand:wikidata": "Q668687", "collection_times": "Mo-Fr 17:00; Sa 14:30", "name": "USPS COLLECTION BOX - BLUE BOX", "note": "ON 12/24 AND 12/31, THIS BOX MAY BE COLLECTED AS EARLY AS 12 NOON.", "nsi_id": "unitedstatespostalservice-a77078", "operator": "United States Postal Service", "operator:short": "USPS", "operator:type": "public", "operator:wikidata": "Q668687", "ref": "3707200030"}, "type": "Feature"}
{"dataset_attributes": {"@spider": "usps_collection_boxes"}, "geometry": {"coordinates": [-86.7011584, 36.318197], "type": "Point"}, "id": "F0LnN3nO1N0Hhh04TuuqIlldU2c=", "properties": {"@spider": "usps_collection_boxes", "addr:city": "GOODLETTSVILLE", "addr:country": "US", "addr:full": "846 CONFERENCE DR", "addr:postcode": "37072", "addr:state": "TN", "amenity": "post_box", "brand": "United States Postal Service", "brand:wikidata": "Q668687", "collection_times": "Mo-Fr 14:00; Sa 12:00", "name": "USPS COLLECTION BOX - BLUE BOX", "note": "ON 12/24 AND 12/31, THIS BOX MAY BE COLLECTED AS EARLY AS 12 NOON.", "nsi_id": "unitedstatespostalservice-a77078", "operator": "United States Postal Service", "operator:short": "USPS", "operator:type": "public", "operator:wikidata": "Q668687", "ref": "3707200031"}, "type": "Feature"}
{"dataset_attributes": {"@spider": "usps_collection_boxes"}, "geometry": {"coordinates": [-86.6988007, 36.322282], "type": "Point"}, "id": "Hd-xpH8fq4zNfvo8SjgRK48OMIM=", "properties": {"@spider": "usps_collection_boxes", "addr:city": "GOODLETTSVILLE", "addr:country": "US", "addr:full": "301 NORTHCREEK BLVD", "addr:postcode": "37072", "addr:state": "TN", "amenity": "post_box", "brand": "United States Postal Service", "brand:wikidata": "Q668687", "collection_times": "Mo-Fr 17:00; Sa 14:30", "name": "USPS COLLECTION BOX - APC", "note": "ON 12/24 AND 12/31, THIS BOX MAY BE COLLECTED AS EARLY AS 12 NOON.", "nsi_id": "unitedstatespostalservice-a77078", "operator": "United States Postal Service", "operator:short": "USPS", "operator:type": "public", "operator:wikidata": "Q668687", "ref": "3707200032"}, "type": "Feature"}
{"dataset_attributes": {"@spider": "usps_collection_boxes"}, "geometry": {"coordinates": [-86.699268684, 36.322082559], "type": "Point"}, "id": "ouDC8q7E2wolG7WDxkbPe9KIA0A=", "properties": {"@spider": "usps_collection_boxes", "addr:city": "GOODLETTSVILLE", "addr:country": "US", "addr:full": "301 NORTHCREEK BLVD", "addr:postcode": "37072", "addr:state": "TN", "amenity": "post_box", "brand": "United States Postal Service", "brand:wikidata": "Q668687", "collection_times": "Mo-Fr 17:00", "name": "USPS COLLECTION BOX - PO LOBBY", "note": "ON 12/24 AND 12/31, THIS BOX MAY BE COLLECTED AS EARLY AS 12 NOON.", "nsi_id": "unitedstatespostalservice-a77078", "operator": "United States Postal Service", "operator:short": "USPS", "operator:type": "public", "operator:wikidata": "Q668687", "ref": "3707200036"}, "type": "Feature"}
{"dataset_attributes": {"@spider": "usps_collection_boxes"}, "geometry": {"coordinates": [-86.7953099, 36.416488], "type": "Point"}, "id": "7rL1e8fGwKjZCphy9A8ZAbl_7EI=", "properties": {"@spider": "usps_collection_boxes", "addr:city": "GREENBRIER", "addr:country": "US", "addr:full": "2278 HIGHWAY 41 S", "addr:postcode": "37073", "addr:state": "TN", "amenity": "post_box", "brand": "United States Postal Service", "brand:wikidata": "Q668687", "collection_times": "Mo-Fr 16:00; Sa 11:30", "name": "USPS COLLECTION BOX - BLUE BOX", "note": "ON 12/24 AND 12/31, THIS BOX MAY BE COLLECTED AS EARLY AS 12 NOON.", "nsi_id": "unitedstatespostalservice-a77078", "operator": "United States Postal Service", "operator:short": "USPS", "operator:type": "public", "operator:wikidata": "Q668687", "ref": "3707300002"}, "type": "Feature"}
{"dataset_attributes": {"@spider": "usps_collection_boxes"}, "geometry": {"coordinates": [-86.794631, 36.416263], "type": "Point"}, "id": "7nmtpSUY3SfG5kukY5FzDiagiZk=", "properties": {"@spider": "usps_collection_boxes", "addr:city": "GREENBRIER", "addr:country": "US", "addr:full": "2278 HIGHWAY 41 S", "addr:postcode": "37073", "addr:state": "TN", "amenity": "post_box", "brand": "United States Postal Service", "brand:wikidata": "Q668687", "collection_times": "Mo-Fr 16:00; Sa 11:30", "name": "USPS COLLECTION BOX - BLUE BOX", "note": "ON 12/24 AND 12/31, THIS BOX MAY BE COLLECTED AS EARLY AS 12 NOON.", "nsi_id": "unitedstatespostalservice-a77078", "operator": "United States Postal Service", "operator:short": "USPS", "operator:type": "public", "operator:wikidata": "Q668687", "ref": "3707300006"}, "type": "Feature"}
{"dataset_attributes": {"@spider": "usps_collection_boxes"}, "geometry": {"coordinates": [-86.794631, 36.416263], "type": "Point"}, "id": "NPQPvm6AJ6xjm3cFYQyVlZif0yA=", "properties": {"@spider": "usps_collection_boxes", "addr:city": "GREENBRIER", "addr:country": "US", "addr:full": "2278 HIGHWAY 41 S", "addr:postcode": "37073", "addr:state": "TN", "amenity": "post_box", "brand": "United States Postal Service", "brand:wikidata": "Q668687", "collection_times": "Mo-Fr 16:00; Sa 11:30", "name": "USPS COLLECTION BOX - PO LOBBY", "note": "ON 12/24 AND 12/31, THIS BOX MAY BE COLLECTED AS EARLY AS 12 NOON.", "nsi_id": "unitedstatespostalservice-a77078", "operator": "United States Postal Service", "operator:short": "USPS", "operator:type": "public", "operator:wikidata": "Q668687", "ref": "3707300008"}, "type": "Feature"}
{"dataset_attributes": {"@spider": "usps_collection_boxes"}, "geometry": {"coordinates": [-86.795053676, 36.416610108], "type": "Point"}, "id": "po6f5gGN6v-L7al6TRSxatI3JUE=", "properties": {"@spider": "usps_collection_boxes", "addr:city": "GREENBRIER", "addr:country": "US", "addr:full": "2278 HIGHWAY 41 S", "addr:postcode": "37073", "addr:state": "TN", "amenity": "post_box", "brand": "United States Postal Service", "brand:wikidata": "Q668687", "collection_times": "Mo-Fr 16:00", "name": "USPS COLLECTION BOX - PO LOBBY", "note": "ON 12/24 AND 12/31, THIS BOX MAY BE COLLECTED AS EARLY AS 12 NOON.", "nsi_id": "unitedstatespostalservice-a77078", "operator": "United States Postal Service", "operator:short": "USPS", "operator:type": "public", "operator:wikidata": "Q668687", "ref": "3707300009"}, "type": "Feature"}
{"dataset_attributes": {"@spider": "usps_collection_boxes"}, "geometry": {"coordinates": [-86.16793, 36.391101], "type": "Point"}, "id": "umETaN0Y_PiOdE3IXNahSUnoNCs=", "properties": {"@spider": "usps_collection_boxes", "addr:city": "HARTSVILLE", "addr:country": "US", "addr:full": "200 W MAIN ST", "addr:postcode": "37074", "addr:state": "TN", "amenity": "post_box", "brand": "United States Postal Service", "brand:wikidata": "Q668687", "collection_times": "Mo-Fr 16:30; Sa 12:30", "name": "USPS COLLECTION BOX - BLUE BOX", "note": "ON 12/24 AND 12/31, THIS BOX MAY BE COLLECTED AS EARLY AS 12 NOON.", "nsi_id": "unitedstatespostalservice-a77078", "operator": "United States Postal Service", "operator:short": "USPS", "operator:type": "public", "operator:wikidata": "Q668687", "ref": "3707400001"}, "type": "Feature"}
{"dataset_attributes": {"@spider": "usps_collection_boxes"}, "geometry": {"coordinates": [-86.16793, 36.391101], "type": "Point"}, "id": "YkW-O3SnNTzxielVZGk0GBcVRM8=", "properties": {"@spider": "usps_collection_boxes", "addr:city": "HARTSVILLE", "addr:country": "US", "addr:full": "200 W MAIN ST", "addr:postcode": "37074", "addr:state": "TN", "amenity": "post_box", "brand": "United States Postal Service", "brand:wikidata": "Q668687", "collection_times": "Mo-Fr 16:30; Sa 12:30", "name": "USPS COLLECTION BOX - BLUE BOX", "note": "ON 12/24 AND 12/31, THIS BOX MAY BE COLLECTED AS EARLY AS 12 NOON.", "nsi_id": "unitedstatespostalservice-a77078", "operator": "United States Postal Service", "operator:short": "USPS", "operator:type": "public", "operator:wikidata": "Q668687", "ref": "3707400002"}, "type": "Feature"}
{"dataset_attributes": {"@spider": "usps_collection_boxes"}, "geometry": {"coordinates": [-86.1608122, 36.398486], "type": "Point"}, "id": "x1QZi1VDzhldZhGuOl9IN8PRsVg=", "properties": {"@spider": "usps_collection_boxes", "addr:city": "HARTSVILLE", "addr:country": "US", "addr:full": "130 MCMURRY BLVD E", "addr:postcode": "37074", "addr:state": "TN", "amenity": "post_box", "brand": "United States Postal Service", "brand:wikidata": "Q668687", "collection_times": "Mo-Sa 10:30", "name": "USPS COLLECTION BOX - BLUE BOX", "nsi_id": "unitedstatespostalservice-a77078", "operator": "United States Postal Service", "operator:short": "USPS", "operator:type": "public", "operator:wikidata": "Q668687", "ref": "3707400004"}, "type": "Feature"}
{"dataset_attributes": {"@spider": "usps_collection_boxes"}, "geometry": {"coordinates": [-86.16793, 36.391101], "type": "Point"}, "id": "04lbICgiNpAjLtUn87GOyT_Q6sI=", "properties": {"@spider": "usps_collection_boxes", "addr:city": "HARTSVILLE", "addr:country": "US", "addr:full": "200 W MAIN ST", "addr:postcode": "37074", "addr:state": "TN", "amenity": "post_box", "brand": "United States Postal Service", "brand:wikidata": "Q668687", "collection_times": "Mo-Fr 16:30; Sa 12:30", "name": "USPS COLLECTION BOX - PO LOBBY", "note": "ON 12/24 AND 12/31, THIS BOX MAY BE COLLECTED AS EARLY AS 12 NOON.", "nsi_id": "unitedstatespostalservice-a77078", "operator": "United States Postal Service", "operator:short": "USPS", "operator:type": "public", "operator:wikidata": "Q668687", "ref": "3707400006"}, "type": "Feature"}
{"dataset_attributes": {"@spider": "usps_collection_boxes"}, "geometry": {"coordinates": [-86.168156469, 36.391174019], "type": "Point"}, "id": "gxT1vk2IKpmxff7igASQkqWzAUE=", "properties": {"@spider": "usps_collection_boxes", "addr:city": "HARTSVILLE", "addr:country": "US", "addr:full": "200 W MAIN ST", "addr:postcode": "37074", "addr:state": "TN", "amenity": "post_box", "brand": "United States Postal Service", "brand:wikidata": "Q668687", "collection_times": "Mo-Fr 16:30", "name": "USPS COLLECTION BOX - PO LOBBY", "note": "ON 12/24 AND 12/31, THIS BOX MAY BE COLLECTED AS EARLY AS 12 NOON.", "nsi_id": "unitedstatespostalservice-a77078", "operator": "United States Postal Service", "operator:short": "USPS", "operator:type": "public", "operator:wikidata": "Q668687", "ref": "3707400007"}, "type": "Feature"}
{"dataset_attributes": {"@spider": "usps_collection_boxes"}, "geometry": {"coordinates": [-86.631749, 36.301458], "type": "Point"}, "id": "0xBXVUmHqJobyYg3mZZaeyqJ_OA=", "properties": {"@spider": "usps_collection_boxes", "addr:city": "HENDERSONVILLE", "addr:country": "US", "addr:full": "105 IMPERIAL BLVD", "addr:postcode": "37075", "addr:state": "TN", "amenity": "post_box", "brand": "United States Postal Service", "brand:wikidata": "Q668687", "collection_times": "Mo-Fr 17:00; Sa 15:00", "name": "USPS COLLECTION BOX - BLUE BOX", "note": "ON 12/24 AND 12/31, THIS BOX MAY BE COLLECTED AS EARLY AS 12 NOON.", "nsi_id": "unitedstatespostalservice-a77078", "operator": "United States Postal Service", "operator:short": "USPS", "operator:type": "public", "operator:wikidata": "Q668687", "ref": "3707500001"}, "type": "Feature"}
{"dataset_attributes": {"@spider": "usps_collection_boxes"}, "geometry": {"coordinates": [-86.63182, 36.301532], "type": "Point"}, "id": "ASaVLT1vhFlpThAweKLg8n0Jx9g=", "properties": {"@spider": "usps_collection_boxes", "addr:city": "HENDERSONVILLE", "addr:country": "US", "addr:full": "105 IMPERIAL BLVD", "addr:postcode": "37075", "addr:state": "TN", "amenity": "post_box", "brand": "United States Postal Service", "brand:wikidata": "Q668687", "collection_times": "Mo-Fr 17:00; Sa 15:00", "name": "USPS COLLECTION BOX - BLUE BOX", "note": "ON 12/24 AND 12/31, THIS BOX MAY BE COLLECTED AS EARLY AS 12 NOON.", "nsi_id": "unitedstatespostalservice-a77078", "operator": "United States Postal Service", "operator:short": "USPS", "operator:type": "public", "operator:wikidata": "Q668687", "ref": "3707500002"}, "type": "Feature"}
{"dataset_attributes": {"@spider": "usps_collection_boxes"}, "geometry": {"coordinates": [-86.5714439, 36.321466], "type": "Point"}, "id": "fqg1g7UquQjRdSaF-rlqPXiZ6XA=", "properties": {"@spider": "usps_collection_boxes", "addr:city": "HENDERSONVILLE", "addr:country": "US", "addr:full": "100 BLUEGRASS COMMONS BLVD", "addr:postcode": "37075", "addr:state": "TN", "amenity": "post_box", "brand": "United States Postal Service", "brand:wikidata": "Q668687", "collection_times": "Mo-Sa 11:00", "name": "USPS COLLECTION BOX - BLUE BOX", "nsi_id": "unitedstatespostalservice-a77078", "operator": "United States Postal Service", "operator:short": "USPS", "operator:type": "public", "operator:wikidata": "Q668687", "ref": "3707500007"}, "type": "Feature"}
{"dataset_attributes": {"@spider": "usps_collection_boxes"}, "geometry": {"coordinates": [-86.6029352, 36.307056], "type": "Point"}, "id": "vQ9I7MDXmKOs4uno__E4-LhgmE4=", "properties": {"@spider": "usps_collection_boxes", "addr:city": "HENDERSONVILLE", "addr:country": "US", "addr:full": "235 E MAIN ST", "addr:postcode": "37075", "addr:state": "TN", "amenity": "post_box", "brand": "United States Postal Service", "brand:wikidata": "Q668687", "collection_times": "Mo-Sa 11:00", "name": "USPS COLLECTION BOX - BLUE BOX", "nsi_id": "unitedstatespostalservice-a77078", "operator": "United States Postal Service", "operator:short": "USPS", "operator:type": "public", "operator:wikidata": "Q668687", "ref": "3707500008"}, "type": "Feature"}
{"dataset_attributes": {"@spider": "usps_collection_boxes"}, "geometry": {"coordinates": [-86.5972554, 36.310977], "type": "Point"}, "id": "rRyuEt0in2N1d1wMF9oGnS5M00o=", "properties": {"@spider": "usps_collection_boxes", "addr:city": "HENDERSONVILLE", "addr:country": "US", "addr:full": "313 E MAIN ST", "addr:postcode": "37075", "addr:state": "TN", "amenity": "post_box", "brand": "United States Postal Service", "brand:wikidata": "Q668687", "collection_times": "Mo-Fr 11:00; Sa 14:00", "name": "USPS COLLECTION BOX - BLUE BOX", "note": "ON 12/24 AND 12/31, THIS BOX MAY BE COLLECTED AS EARLY AS 12 NOON.", "nsi_id": "unitedstatespostalservice-a77078", "operator": "United States Postal Service", "operator:short": "USPS", "operator:type": "public", "operator:wikidata": "Q668687", "ref": "3707500009"}, "type": "Feature"}
{"dataset_attributes": {"@spider": "usps_collection_boxes"}, "geometry": {"coordinates": [-86.5693464, 36.323405], "type": "Point"}, "id": "XdvgYZyeODEyysKCC4hbeMCxz1c=", "properties": {"@spider": "usps_collection_boxes", "addr:city": "HENDERSONVILLE", "addr:country": "US", "addr:full": "623 E MAIN ST", "addr:postcode": "37075", "addr:state": "TN", "amenity": "post_box", "brand": "United States Postal Service", "brand:wikidata": "Q668687", "collection_times": "Mo-Sa 11:00", "name": "USPS COLLECTION BOX - BLUE BOX", "nsi_id": "unitedstatespostalservice-a77078", "operator": "United States Postal Service", "operator:short": "USPS", "operator:type": "public", "operator:wikidata": "Q668687", "ref": "3707500010"}, "type": "Feature"}
{"dataset_attributes": {"@spider": "usps_collection_boxes"}, "geometry": {"coordinates": [-86.6227299, 36.30491], "type": "Point"}, "id": "0GGHMqy8o4qMnyyxVu4lRpH2jYE=", "properties": {"@spider": "usps_collection_boxes", "addr:city": "HENDERSONVILLE", "addr:country": "US", "addr:full": "260 W MAIN ST", "addr:postcode": "37075", "addr:state": "TN", "amenity": "post_box", "brand": "United States Postal Service", "brand:wikidata": "Q668687", "collection_times": "Mo-Fr 15:00; Sa 12:00", "name": "USPS COLLECTION BOX - BLUE BOX", "note": "ON 12/24 AND 12/31, THIS BOX MAY BE COLLECTED AS EARLY AS 12 NOON.", "nsi_id": "unitedstatespostalservice-a77078", "operator": "United States Postal Service", "operator:short": "USPS", "operator:type": "public", "operator:wikidata": "Q668687", "ref": "3707500013"}, "type": "Feature"}
{"dataset_attributes": {"@spider": "usps_collection_boxes"}, "geometry": {"coordinates": [-86.6225529, 36.324633], "type": "Point"}, "id": "pKUDD203Tsxbrgt4YixDTZnBYNQ=", "properties": {"@spider": "usps_collection_boxes", "addr:city": "HENDERSONVILLE", "addr:country": "US", "addr:full": "353 NEW SHACKLE ISLAND RD", "addr:postcode": "37075", "addr:state": "TN", "amenity": "post_box", "brand": "United States Postal Service", "brand:wikidata": "Q668687", "collection_times": "Mo-Fr 14:00; Sa 11:00", "name": "USPS COLLECTION BOX - BLUE BOX", "note": "ON 12/24 AND 12/31, THIS BOX MAY BE COLLECTED AS EARLY AS 12 NOON.", "nsi_id": "unitedstatespostalservice-a77078", "operator": "United States Postal Service", "operator:short": "USPS", "operator:type": "public", "operator:wikidata": "Q668687", "ref": "3707500016"}, "type": "Feature"}
{"dataset_attributes": {"@spider": "usps_collection_boxes"}, "geometry": {"coordinates": [-86.6354426, 36.304172], "type": "Point"}, "id": "djc9os5wzbDX7cEx2npYcucns_E=", "properties": {"@spider": "usps_collection_boxes", "addr:city": "HENDERSONVILLE", "addr:country": "US", "addr:full": "71 NEW SHACKLE ISLAND RD", "addr:postcode": "37075", "addr:state": "TN", "amenity": "post_box", "brand": "United States Postal Service", "brand:wikidata": "Q668687", "collection_times": "Mo-Fr 15:00; Sa 12:00", "name": "USPS COLLECTION BOX - BLUE BOX", "note": "ON 12/24 AND 12/31, THIS BOX MAY BE COLLECTED AS EARLY AS 12 NOON.", "nsi_id": "unitedstatespostalservice-a77078", "operator": "United States Postal Service", "operator:short": "USPS", "operator:type": "public", "operator:wikidata": "Q668687", "ref": "3707500017"}, "type": "Feature"}
{"dataset_attributes": {"@spider": "usps_collection_boxes"}, "geometry": {"coordinates": [-86.6076104, 36.305961], "type": "Point"}, "id": "OmQVvMtjP806WvNJmI9RimO18v8=", "properties": {"@spider": "usps_collection_boxes", "addr:city": "HENDERSONVILLE", "addr:country": "US", "addr:full": "109 HAZELPATH", "addr:postcode": "37075", "addr:state": "TN", "amenity": "post_box", "brand": "United States Postal Service", "brand:wikidata": "Q668687", "collection_times": "Mo-Sa 11:00", "name": "USPS COLLECTION BOX - BLUE BOX", "nsi_id": "unitedstatespostalservice-a77078", "operator": "United States Postal Service", "operator:short": "USPS", "operator:type": "public", "operator:wikidata": "Q668687", "ref": "3707500021"}, "type": "Feature"}
{"dataset_attributes": {"@spider": "usps_collection_boxes"}, "geometry": {"coordinates": [-86.5888374, 36.312567], "type": "Point"}, "id": "LQMnZDIW6UyIwqqPpp4LiPT_kec=", "properties": {"@spider": "usps_collection_boxes", "addr:city": "HENDERSONVILLE", "addr:country": "US", "addr:full": "393 E MAIN ST", "addr:postcode": "37075", "addr:state": "TN", "amenity": "post_box", "brand": "United States Postal Service", "brand:wikidata": "Q668687", "collection_times": "Mo-Sa 11:00", "name": "USPS COLLECTION BOX - BLUE BOX", "nsi_id": "unitedstatespostalservice-a77078", "operator": "United States Postal Service", "operator:short": "USPS", "operator:type": "public", "operator:wikidata": "Q668687", "ref": "3707500022"}, "type": "Feature"}
{"dataset_attributes": {"@spider": "usps_collection_boxes"}, "geometry": {"coordinates": [-86.63182, 36.301532], "type": "Point"}, "id": "SHiN9AgYmN8fGtMiqqBc3AOIljo=", "properties": {"@spider": "usps_collection_boxes", "addr:city": "HENDERSONVILLE", "addr:country": "US", "addr:full": "105 IMPERIAL BLVD", "addr:postcode": "37075", "addr:state": "TN", "amenity": "post_box", "brand": "United States Postal Service", "brand:wikidata": "Q668687", "collection_times": "Mo-Fr 17:00; Sa 15:00", "name": "USPS COLLECTION BOX - PO LOBBY", "note": "ON 12/24 AND 12/31, THIS BOX MAY BE COLLECTED AS EARLY AS 12 NOON.", "nsi_id": "unitedstatespostalservice-a77078", "operator": "United States Postal Service", "operator:short": "USPS", "operator:type": "public", "operator:wikidata": "Q668687", "ref": "3707500024"}, "type": "Feature"}
{"dataset_attributes": {"@spider": "usps_collection_boxes"}, "geometry": {"coordinates": [-86.5714624, 36.321469], "type": "Point"}, "id": "538T-_XYZmAOB0TIxfWNNcNtbg8=", "properties": {"@spider": "usps_collection_boxes", "addr:city": "HENDERSONVILLE", "addr:country": "US", "addr:full": "100 BLUEGRASS COMMONS BLVD", "addr:postcode": "37075", "addr:state": "TN", "amenity": "post_box", "brand": "United States Postal Service", "brand:wikidata": "Q668687", "collection_times": "Mo-Sa 11:00", "name": "USPS COLLECTION BOX - BLUE BOX", "nsi_id": "unitedstatespostalservice-a77078", "operator": "United States Postal Service", "operator:short": "USPS", "operator:type": "public", "operator:wikidata": "Q668687", "ref": "3707500026"}, "type": "Feature"}
{"dataset_attributes": {"@spider": "usps_collection_boxes"}, "geometry": {"coordinates": [-86.621825, 36.332048], "type": "Point"}, "id": "ks90U1FY36rTn1G9sDU9e8vftV4=", "properties": {"@spider": "usps_collection_boxes", "addr:city": "HENDERSONVILLE", "addr:country": "US", "addr:full": "1010 GLENBROOK WAY", "addr:postcode": "37075", "addr:state": "TN", "amenity": "post_box", "brand": "United States Postal Service", "brand:wikidata": "Q668687", "collection_times": "Mo-Sa 11:00", "name": "USPS COLLECTION BOX - BLUE BOX", "nsi_id": "unitedstatespostalservice-a77078", "operator": "United States Postal Service", "operator:short": "USPS", "operator:type": "public", "operator:wikidata": "Q668687", "ref": "3707500030"}, "type": "Feature"}
{"dataset_attributes": {"@spider": "usps_collection_boxes"}, "geometry": {"coordinates": [-86.5986694, 36.311452], "type": "Point"}, "id": "vL_0x5EcQrp5AQqRJbBWaqkjC4E=", "properties": {"@spider": "usps_collection_boxes", "addr:city": "HENDERSONVILLE", "addr:country": "US", "addr:full": "101 MAPLE DR N", "addr:postcode": "37075", "addr:state": "TN", "amenity": "post_box", "brand": "United States Postal Service", "brand:wikidata": "Q668687", "collection_times": "Mo-Fr 15:00; Sa 12:00", "name": "USPS COLLECTION BOX - BLUE BOX", "note": "ON 12/24 AND 12/31, THIS BOX MAY BE COLLECTED AS EARLY AS 12 NOON.", "nsi_id": "unitedstatespostalservice-a77078", "operator": "United States Postal Service", "operator:short": "USPS", "operator:type": "public", "operator:wikidata": "Q668687", "ref": "3707500031"}, "type": "Feature"}
{"dataset_attributes": {"@spider": "usps_collection_boxes"}, "geometry": {"coordinates": [-86.63182, 36.301532], "type": "Point"}, "id": "pDW6ptgxJYXCwumFx9A03ZPGdr8=", "properties": {"@spider": "usps_collection_boxes", "addr:city": "HENDERSONVILLE", "addr:country": "US", "addr:full": "105 IMPERIAL BLVD", "addr:postcode": "37075", "addr:state": "TN", "amenity": "post_box", "brand": "United States Postal Service", "brand:wikidata": "Q668687", "collection_times": "Mo-Fr 17:00; Sa 15:00", "name": "USPS COLLECTION BOX - APC", "note": "ON 12/24 AND 12/31, THIS BOX MAY BE COLLECTED AS EARLY AS 12 NOON.", "nsi_id": "unitedstatespostalservice-a77078", "operator": "United States Postal Service", "operator:short": "USPS", "operator:type": "public", "operator:wikidata": "Q668687", "ref": "3707500033"}, "type": "Feature"}
{"dataset_attributes": {"@spider": "usps_collection_boxes"}, "geometry": {"coordinates": [-86.631739575, 36.301496784], "type": "Point"}, "id": "p-sBgQx_U10qlXpiBMq_EUlRqbg=", "properties": {"@spider": "usps_collection_boxes", "addr:city": "HENDERSONVILLE", "addr:country": "US", "addr:full": "105 IMPERIAL BLVD", "addr:postcode": "37075", "addr:state": "TN", "amenity": "post_box", "brand": "United States Postal Service", "brand:wikidata": "Q668687", "collection_times": "Mo-Fr 17:00", "name": "USPS COLLECTION BOX - PO LOBBY", "note": "ON 12/24 AND 12/31, THIS BOX MAY BE COLLECTED AS EARLY AS 12 NOON.", "nsi_id": "unitedstatespostalservice-a77078", "operator": "United States Postal Service", "operator:short": "USPS", "operator:type": "public", "operator:wikidata": "Q668687", "ref": "3707500040"}, "type": "Feature"}
{"dataset_attributes": {"@spider": "usps_collection_boxes"}, "geometry": {"coordinates": [-86.601087, 36.172485], "type": "Point"}, "id": "HgTldFjP6b0pJ1zVQKUV750VNn8=", "properties": {"@spider": "usps_collection_boxes", "addr:city": "HERMITAGE", "addr:country": "US", "addr:full": "5760 OLD HICKORY BLVD", "addr:postcode": "37076", "addr:state": "TN", "amenity": "post_box", "brand": "United States Postal Service", "brand:wikidata": "Q668687", "collection_times": "Mo-Sa 14:00", "name": "USPS COLLECTION BOX - BLUE BOX", "note": "ON 12/24 AND 12/31, THIS BOX MAY BE COLLECTED AS EARLY AS 12 NOON.", "nsi_id": "unitedstatespostalservice-a77078", "operator": "United States Postal Service", "operator:short": "USPS", "operator:type": "public", "operator:wikidata": "Q668687", "ref": "3707600001"}, "type": "Feature"}
{"dataset_attributes": {"@spider": "usps_collection_boxes"}, "geometry": {"coordinates": [-86.6057969, 36.182278], "type": "Point"}, "id": "GSQOlMcJxnPnen9qXr7nzJ3f3C4=", "properties": {"@spider": "usps_collection_boxes", "addr:city": "HERMITAGE", "addr:country": "US", "addr:full": "5536 OLD HICKORY BLVD", "addr:postcode": "37076", "addr:state": "TN", "amenity": "post_box", "brand": "United States Postal Service", "brand:wikidata": "Q668687", "collection_times": "Mo-Sa 14:00", "name": "USPS COLLECTION BOX - BLUE BOX", "note": "ON 12/24 AND 12/31, THIS BOX MAY BE COLLECTED AS EARLY AS 12 NOON.", "nsi_id": "unitedstatespostalservice-a77078", "operator": "United States Postal Service", "operator:short": "USPS", "operator:type": "public", "operator:wikidata": "Q668687", "ref": "3707600002"}, "type": "Feature"}
{"dataset_attributes": {"@spider": "usps_collection_boxes"}, "geometry": {"coordinates": [-86.6032577, 36.21622], "type": "Point"}, "id": "uOpsUf3bKc1cjqWlq3NwD0R1vRI=", "properties": {"@spider": "usps_collection_boxes", "addr:city": "HERMITAGE", "addr:country": "US", "addr:full": "4400 LEBANON PIKE", "addr:postcode": "37076", "addr:state": "TN", "amenity": "post_box", "brand": "United States Postal Service", "brand:wikidata": "Q668687", "collection_times": "Mo-Sa 14:00", "name": "USPS COLLECTION BOX - BLUE BOX", "note": "ON 12/24 AND 12/31, THIS BOX MAY BE COLLECTED AS EARLY AS 12 NOON.", "nsi_id": "unitedstatespostalservice-a77078", "operator": "United States Postal Service", "operator:short": "USPS", "operator:type": "public", "operator:wikidata": "Q668687", "ref": "3707600003"}, "type": "Feature"}
{"dataset_attributes": {"@spider": "usps_collection_boxes"}, "geometry": {"coordinates": [-86.5942218, 36.215636], "type": "Point"}, "id": "qmpMNNXPvR7RY3XQQqD1WwwLvXU=", "properties": {"@spider": "usps_collection_boxes", "addr:city": "HERMITAGE", "addr:country": "US", "addr:full": "4740 LEBANON PIKE", "addr:postcode": "37076", "addr:state": "TN", "amenity": "post_box", "brand": "United States Postal Service", "brand:wikidata": "Q668687", "collection_times": "Mo-Sa 14:00", "name": "USPS COLLECTION BOX - BLUE BOX", "note": "ON 12/24 AND 12/31, THIS BOX MAY BE COLLECTED AS EARLY AS 12 NOON.", "nsi_id": "unitedstatespostalservice-a77078", "operator": "United States Postal Service", "operator:short": "USPS", "operator:type": "public", "operator:wikidata": "Q668687", "ref": "3707600005"}, "type": "Feature"}
{"dataset_attributes": {"@spider": "usps_collection_boxes"}, "geometry": {"coordinates": [-86.5988884, 36.214936], "type": "Point"}, "id": "EVPxetpBzn48mXUkKi_N-9-G1AI=", "properties": {"@spider": "usps_collection_boxes", "addr:city": "HERMITAGE", "addr:country": "US", "addr:full": "4491 LEBANON PIKE", "addr:postcode": "37076", "addr:state": "TN", "amenity": "post_box", "brand": "United States Postal Service", "brand:wikidata": "Q668687", "collection_times": "Mo-Sa 14:00", "name": "USPS COLLECTION BOX - BLUE BOX", "note": "ON 12/24 AND 12/31, THIS BOX MAY BE COLLECTED AS EARLY AS 12 NOON.", "nsi_id": "unitedstatespostalservice-a77078", "operator": "United States Postal Service", "operator:short": "USPS", "operator:type": "public", "operator:wikidata": "Q668687", "ref": "3707600009"}, "type": "Feature"}
{"dataset_attributes": {"@spider": "usps_collection_boxes"}, "geometry": {"coordinates": [-86.6108519, 36.206724], "type": "Point"}, "id": "_PnemVKSBli0RmgyGQWQOx4je9M=", "properties": {"@spider": "usps_collection_boxes", "addr:city": "HERMITAGE", "addr:country": "US", "addr:full": "4347 LEBANON PIKE", "addr:postcode": "37076", "addr:state": "TN", "amenity": "post_box", "brand": "United States Postal Service", "brand:wikidata": "Q668687", "collection_times": "Mo-Sa 14:00", "name": "USPS COLLECTION BOX - BLUE BOX", "note": "ON 12/24 AND 12/31, THIS BOX MAY BE COLLECTED AS EARLY AS 12 NOON.", "nsi_id": "unitedstatespostalservice-a77078", "operator": "United States Postal Service", "operator:short": "USPS", "operator:type": "public", "operator:wikidata": "Q668687", "ref": "3707600014"}, "type": "Feature"}
{"dataset_attributes": {"@spider": "usps_collection_boxes"}, "geometry": {"coordinates": [-86.612938202, 36.2063389059], "type": "Point"}, "id": "Oti3XIQx8gieZeyGkn7-9-knHTQ=", "properties": {"@spider": "usps_collection_boxes", "addr:city": "HERMITAGE", "addr:country": "US", "addr:full": "4343 LEBANON PIKE", "addr:postcode": "37076", "addr:state": "TN", "amenity": "post_box", "brand": "United States Postal Service", "brand:wikidata": "Q668687", "collection_times": "Mo-Sa 14:00", "name": "USPS COLLECTION BOX - BLUE BOX", "note": "ON 12/24 AND 12/31, THIS BOX MAY BE COLLECTED AS EARLY AS 12 NOON.", "nsi_id": "unitedstatespostalservice-a77078", "operator": "United States Postal Service", "operator:short": "USPS", "operator:type": "public", "operator:wikidata": "Q668687", "ref": "3707600016"}, "type": "Feature"}
{"dataset_attributes": {"@spider": "usps_collection_boxes"}, "geometry": {"coordinates": [-86.6235035, 36.193545], "type": "Point"}, "id": "2pkfHN3DkW8O814KSjrXCDoshag=", "properties": {"@spider": "usps_collection_boxes", "addr:city": "HERMITAGE", "addr:country": "US", "addr:full": "3908 LEBANON PIKE", "addr:postcode": "37076", "addr:state": "TN", "amenity": "post_box", "brand": "United States Postal Service", "brand:wikidata": "Q668687", "collection_times": "Mo-Fr 16:45; Sa 15:00", "name": "USPS COLLECTION BOX - BLUE BOX", "note": "ON 12/24 AND 12/31, THIS BOX MAY BE COLLECTED AS EARLY AS 12 NOON.", "nsi_id": "unitedstatespostalservice-a77078", "operator": "United States Postal Service", "operator:short": "USPS", "operator:type": "public", "operator:wikidata": "Q668687", "ref": "3707600017"}, "type": "Feature"}
{"dataset_attributes": {"@spider": "usps_collection_boxes"}, "geometry": {"coordinates": [-86.623973, 36.193917], "type": "Point"}, "id": "LvBOC6uKuaImRzzn-0CT49Q-D8c=", "properties": {"@spider": "usps_collection_boxes", "addr:city": "HERMITAGE", "addr:country": "US", "addr:full": "3908 LEBANON PIKE", "addr:postcode": "37076", "addr:state": "TN", "amenity": "post_box", "brand": "United States Postal Service", "brand:wikidata": "Q668687", "collection_times": "Mo-Fr 16:45; Sa 15:00", "name": "USPS COLLECTION BOX - PO LOBBY", "note": "ON 12/24 AND 12/31, THIS BOX MAY BE COLLECTED AS EARLY AS 12 NOON.", "nsi_id": "unitedstatespostalservice-a77078", "operator": "United States Postal Service", "operator:short": "USPS", "operator:type": "public", "operator:wikidata": "Q668687", "ref": "3707600021"}, "type": "Feature"}
{"dataset_attributes": {"@spider": "usps_collection_boxes"}, "geometry": {"coordinates": [-86.6107064, 36.174034], "type": "Point"}, "id": "2EJKmO18ut15-lXdBM1GEAuAfEQ=", "properties": {"@spider": "usps_collection_boxes", "addr:city": "HERMITAGE", "addr:country": "US", "addr:full": "3840 CENTRAL PIKE", "addr:postcode": "37076", "addr:state": "TN", "amenity": "post_box", "brand": "United States Postal Service", "brand:wikidata": "Q668687", "collection_times": "Mo-Sa 11:00", "name": "USPS COLLECTION BOX - BLUE BOX", "nsi_id": "unitedstatespostalservice-a77078", "operator": "United States Postal Service", "operator:short": "USPS", "operator:type": "public", "operator:wikidata": "Q668687", "ref": "3707600026"}, "type": "Feature"}
{"dataset_attributes": {"@spider": "usps_collection_boxes"}, "geometry": {"coordinates": [-86.6239718, 36.193898], "type": "Point"}, "id": "9mtpJgGY2ezt4_vugVXdnxycphU=", "properties": {"@spider": "usps_collection_boxes", "addr:city": "HERMITAGE", "addr:country": "US", "addr:full": "3908 LEBANON PIKE", "addr:postcode": "37076", "addr:state": "TN", "amenity": "post_box", "brand": "United States Postal Service", "brand:wikidata": "Q668687", "collection_times": "Mo-Fr 16:45; Sa 15:00", "name": "USPS COLLECTION BOX - APC", "note": "ON 12/24 AND 12/31, THIS BOX MAY BE COLLECTED AS EARLY AS 12 NOON.", "nsi_id": "unitedstatespostalservice-a77078", "operator": "United States Postal Service", "operator:short": "USPS", "operator:type": "public", "operator:wikidata": "Q668687", "ref": "3707600028"}, "type": "Feature"}
{"dataset_attributes": {"@spider": "usps_collection_boxes"}, "geometry": {"coordinates": [-86.623306869, 36.193519056], "type": "Point"}, "id": "ectZnrfcfOsWNLo50Ze21SyHgQs=", "properties": {"@spider": "usps_collection_boxes", "addr:city": "HERMITAGE", "addr:country": "US", "addr:full": "3908 LEBANON PIKE", "addr:postcode": "37076", "addr:state": "TN", "amenity": "post_box", "brand": "United States Postal Service", "brand:wikidata": "Q668687", "collection_times": "Mo-Fr 16:45", "name": "USPS COLLECTION BOX - PO LOBBY", "note": "ON 12/24 AND 12/31, THIS BOX MAY BE COLLECTED AS EARLY AS 12 NOON.", "nsi_id": "unitedstatespostalservice-a77078", "operator": "United States Postal Service", "operator:short": "USPS", "operator:type": "public", "operator:wikidata": "Q668687", "ref": "3707600031"}, "type": "Feature"}
{"dataset_attributes": {"@spider": "usps_collection_boxes"}, "geometry": {"coordinates": [-86.864036, 36.31626], "type": "Point"}, "id": "5-0pfpEaTyN4iqBp_cggdf255D4=", "properties": {"@spider": "usps_collection_boxes", "addr:city": "JOELTON", "addr:country": "US", "addr:full": "3340 UNION HILL RD", "addr:postcode": "37080", "addr:state": "TN", "amenity": "post_box", "brand": "United States Postal Service", "brand:wikidata": "Q668687", "collection_times": "Mo-Fr 15:30; Sa 10:30", "name": "USPS COLLECTION BOX - BLUE BOX", "note": "ON 12/24 AND 12/31, THIS BOX MAY BE COLLECTED AS EARLY AS 12 NOON.", "nsi_id": "unitedstatespostalservice-a77078", "operator": "United States Postal Service", "operator:short": "USPS", "operator:type": "public", "operator:wikidata": "Q668687", "ref": "3708000000"}, "type": "Feature"}
{"dataset_attributes": {"@spider": "usps_collection_boxes"}, "geometry": {"coordinates": [-86.864079, 36.316216], "type": "Point"}, "id": "JxbCOvfQfe62yqRX2PFKt9ppkBg=", "properties": {"@spider": "usps_collection_boxes", "addr:city": "JOELTON", "addr:country": "US", "addr:full": "3340 UNION HILL RD", "addr:postcode": "37080", "addr:state": "TN", "amenity": "post_box", "brand": "United States Postal Service", "brand:wikidata": "Q668687", "collection_times": "Mo-Fr 15:30; Sa 10:30", "name": "USPS COLLECTION BOX - PO LOBBY", "note": "ON 12/24 AND 12/31, THIS BOX MAY BE COLLECTED AS EARLY AS 12 NOON.", "nsi_id": "unitedstatespostalservice-a77078", "operator": "United States Postal Service", "operator:short": "USPS", "operator:type": "public", "operator:wikidata": "Q668687", "ref": "3708000003"}, "type": "Feature"}
{"dataset_attributes": {"@spider": "usps_collection_boxes"}, "geometry": {"coordinates": [-86.86459956, 36.316098961], "type": "Point"}, "id": "nvudrPw7UBI6vwldc6b_aAIKHi8=", "properties": {"@spider": "usps_collection_boxes", "addr:city": "JOELTON", "addr:country": "US", "addr:full": "3340 UNION HILL RD", "addr:postcode": "37080", "addr:state": "TN", "amenity": "post_box", "brand": "United States Postal Service", "brand:wikidata": "Q668687", "collection_times": "Mo-Fr 15:30", "name": "USPS COLLECTION BOX - PO LOBBY", "note": "ON 12/24 AND 12/31, THIS BOX MAY BE COLLECTED AS EARLY AS 12 NOON.", "nsi_id": "unitedstatespostalservice-a77078", "operator": "United States Postal Service", "operator:short": "USPS", "operator:type": "public", "operator:wikidata": "Q668687", "ref": "3708000004"}, "type": "Feature"}
{"dataset_attributes": {"@spider": "usps_collection_boxes"}, "geometry": {"coordinates": [-86.038255, 36.523552], "type": "Point"}, "id": "FPP0ozpluoh1HXC6NyfXAn8JYSo=", "properties": {"@spider": "usps_collection_boxes", "addr:city": "LAFAYETTE", "addr:country": "US", "addr:full": "506 ELLINGTON DR", "addr:postcode": "37083", "addr:state": "TN", "amenity": "post_box", "brand": "United States Postal Service", "brand:wikidata": "Q668687", "collection_times": "Mo-Fr 16:00; Sa 11:30", "name": "USPS COLLECTION BOX - PO LOBBY", "note": "ON 12/24 AND 12/31, THIS BOX MAY BE COLLECTED AS EARLY AS 12 NOON.", "nsi_id": "unitedstatespostalservice-a77078", "operator": "United States Postal Service", "operator:short": "USPS", "operator:type": "public", "operator:wikidata": "Q668687", "ref": "3708300001"}, "type": "Feature"}
{"dataset_attributes": {"@spider": "usps_collection_boxes"}, "geometry": {"coordinates": [-86.0385558, 36.520971], "type": "Point"}, "id": "cC7oIe08dFx96HH5mvNjR3QcUus=", "properties": {"@spider": "usps_collection_boxes", "addr:city": "LAFAYETTE", "addr:country": "US", "addr:full": "435 HIGHWAY 52 BYP W", "addr:postcode": "37083", "addr:state": "TN", "amenity": "post_box", "brand": "United States Postal Service", "brand:wikidata": "Q668687", "collection_times": "Mo-Sa 11:00", "name": "USPS COLLECTION BOX - BLUE BOX", "nsi_id": "unitedstatespostalservice-a77078", "operator": "United States Postal Service", "operator:short": "USPS", "operator:type": "public", "operator:wikidata": "Q668687", "ref": "3708300003"}, "type": "Feature"}
{"dataset_attributes": {"@spider": "usps_collection_boxes"}, "geometry": {"coordinates": [-86.0288099, 36.531732], "type": "Point"}, "id": "GBl57LEcaOke4bgr6zk4LgKVxV4=", "properties": {"@spider": "usps_collection_boxes", "addr:city": "LAFAYETTE", "addr:country": "US", "addr:full": "1059 SCOTTSVILLE RD", "addr:postcode": "37083", "addr:state": "TN", "amenity": "post_box", "brand": "United States Postal Service", "brand:wikidata": "Q668687", "collection_times": "Mo-Sa 11:00", "name": "USPS COLLECTION BOX - BLUE BOX", "nsi_id": "unitedstatespostalservice-a77078", "operator": "United States Postal Service", "operator:short": "USPS", "operator:type": "public", "operator:wikidata": "Q668687", "ref": "3708300004"}, "type": "Feature"}
{"dataset_attributes": {"@spider": "usps_collection_boxes"}, "geometry": {"coordinates": [-86.038294, 36.523526], "type": "Point"}, "id": "0bmzFXIusR32LweVIqdr7SI-fFI=", "properties": {"@spider": "usps_collection_boxes", "addr:city": "LAFAYETTE", "addr:country": "US", "addr:full": "506 ELLINGTON DR", "addr:postcode": "37083", "addr:state": "TN", "amenity": "post_box", "brand": "United States Postal Service", "brand:wikidata": "Q668687", "collection_times": "Mo-Fr 16:00; Sa 11:30", "name": "USPS COLLECTION BOX - BLUE BOX", "note": "ON 12/24 AND 12/31, THIS BOX MAY BE COLLECTED AS EARLY AS 12 NOON.", "nsi_id": "unitedstatespostalservice-a77078", "operator": "United States Postal Service", "operator:short": "USPS", "operator:type": "public", "operator:wikidata": "Q668687", "ref": "3708300005"}, "type": "Feature"}
{"dataset_attributes": {"@spider": "usps_collection_boxes"}, "geometry": {"coordinates": [-86.038294, 36.523526], "type": "Point"}, "id": "qJDyNvZ9Oqk0HNLBulOfJU5s4Mw=", "properties": {"@spider": "usps_collection_boxes", "addr:city": "LAFAYETTE", "addr:country": "US", "addr:full": "506 ELLINGTON DR", "addr:postcode": "37083", "addr:state": "TN", "amenity": "post_box", "brand": "United States Postal Service", "brand:wikidata": "Q668687", "collection_times": "Mo-Fr 16:00; Sa 11:30", "name": "USPS COLLECTION BOX - BLUE BOX", "note": "ON 12/24 AND 12/31, THIS BOX MAY BE COLLECTED AS EARLY AS 12 NOON.", "nsi_id": "unitedstatespostalservice-a77078", "operator": "United States Postal Service", "operator:short": "USPS", "operator:type": "public", "operator:wikidata": "Q668687", "ref": "3708300006"}, "type": "Feature"}
{"dataset_attributes": {"@spider": "usps_collection_boxes"}, "geometry": {"coordinates": [-86.0244794, 36.521352], "type": "Point"}, "id": "-ObGQESaLCSRVKnxPr7KQTzqTWc=", "properties": {"@spider": "usps_collection_boxes", "addr:city": "LAFAYETTE", "addr:country": "US", "addr:full": "118 E LOCUST ST", "addr:postcode": "37083", "addr:state": "TN", "amenity": "post_box", "brand": "United States Postal Service", "brand:wikidata": "Q668687", "collection_times": "Mo-Sa 11:00", "name": "USPS COLLECTION BOX - BLUE BOX", "nsi_id": "unitedstatespostalservice-a77078", "operator": "United States Postal Service", "operator:short": "USPS", "operator:type": "public", "operator:wikidata": "Q668687", "ref": "3708300007"}, "type": "Feature"}
{"dataset_attributes": {"@spider": "usps_collection_boxes"}, "geometry": {"coordinates": [-86.0260105, 36.520616], "type": "Point"}, "id": "MJXSV5TQq9VU78zU_eblze8fv6k=", "properties": {"@spider": "usps_collection_boxes", "addr:city": "LAFAYETTE", "addr:country": "US", "addr:full": "101 COURTHOUSE", "addr:postcode": "37083", "addr:state": "TN", "amenity": "post_box", "brand": "United States Postal Service", "brand:wikidata": "Q668687", "collection_times": "Mo-Sa 11:00", "name": "USPS COLLECTION BOX - BLUE BOX", "nsi_id": "unitedstatespostalservice-a77078", "operator": "United States Postal Service", "operator:short": "USPS", "operator:type": "public", "operator:wikidata": "Q668687", "ref": "3708300008"}, "type": "Feature"}
{"dataset_attributes": {"@spider": "usps_collection_boxes"}, "geometry": {"coordinates": [-86.038381117, 36.52295046], "type": "Point"}, "id": "gEXi9_vkrvWKaljvoarTxDP4-zE=", "properties": {"@spider": "usps_collection_boxes", "addr:city": "LAFAYETTE", "addr:country": "US", "addr:full": "506 ELLINGTON DR", "addr:postcode": "37083", "addr:state": "TN", "amenity": "post_box", "brand": "United States Postal Service", "brand:wikidata": "Q668687", "collection_times": "Mo-Fr 16:00", "name": "USPS COLLECTION BOX - PO LOBBY", "note": "ON 12/24 AND 12/31, THIS BOX MAY BE COLLECTED AS EARLY AS 12 NOON.", "nsi_id": "unitedstatespostalservice-a77078", "operator": "United States Postal Service", "operator:short": "USPS", "operator:type": "public", "operator:wikidata": "Q668687", "ref": "3708300010"}, "type": "Feature"}
{"dataset_attributes": {"@spider": "usps_collection_boxes"}, "geometry": {"coordinates": [-86.2885872, 36.206254], "type": "Point"}, "id": "hEYydtBBEW1S2he30J3iWnBtkxo=", "properties": {"@spider": "usps_collection_boxes", "addr:city": "LEBANON", "addr:country": "US", "addr:full": "226 E GAY ST", "addr:postcode": "37087", "addr:state": "TN", "amenity": "post_box", "brand": "United States Postal Service", "brand:wikidata": "Q668687", "collection_times": "Mo-Fr 16:30; Sa 14:00", "name": "USPS COLLECTION BOX - BLUE BOX", "note": "ON 12/24 AND 12/31, THIS BOX MAY BE COLLECTED AS EARLY AS 12 NOON.", "nsi_id": "unitedstatespostalservice-a77078", "operator": "United States Postal Service", "operator:short": "USPS", "operator:type": "public", "operator:wikidata": "Q668687", "ref": "3708700001"}, "type": "Feature"}
{"dataset_attributes": {"@spider": "usps_collection_boxes"}, "geometry": {"coordinates": [-86.2906484, 36.208129], "type": "Point"}, "id": "Nbg8IeN9m2OiltbE6J-NWEoZK_M=", "properties": {"@spider": "usps_collection_boxes", "addr:city": "LEBANON", "addr:country": "US", "addr:full": "100 PUBLIC SQ", "addr:postcode": "37087", "addr:state": "TN", "amenity": "post_box", "brand": "United States Postal Service", "brand:wikidata": "Q668687", "collection_times": "Mo-Sa 12:00", "name": "USPS COLLECTION BOX - BLUE BOX", "nsi_id": "unitedstatespostalservice-a77078", "operator": "United States Postal Service", "operator:short": "USPS", "operator:type": "public", "operator:wikidata": "Q668687", "ref": "3708700007"}, "type": "Feature"}
{"dataset_attributes": {"@spider": "usps_collection_boxes"}, "geometry": {"coordinates": [-86.3181916, 36.212555], "type": "Point"}, "id": "ZoqeHJzyzgXUxrA60dpEi-enC2k=", "properties": {"@spider": "usps_collection_boxes", "addr:city": "LEBANON", "addr:country": "US", "addr:full": "1035 W MAIN ST", "addr:postcode": "37087", "addr:state": "TN", "amenity": "post_box", "brand": "United States Postal Service", "brand:wikidata": "Q668687", "collection_times": "Mo-Sa 12:00", "name": "USPS COLLECTION BOX - BLUE BOX", "nsi_id": "unitedstatespostalservice-a77078", "operator": "United States Postal Service", "operator:short": "USPS", "operator:type": "public", "operator:wikidata": "Q668687", "ref": "3708700008"}, "type": "Feature"}
{"dataset_attributes": {"@spider": "usps_collection_boxes"}, "geometry": {"coordinates": [-86.3317084, 36.216962], "type": "Point"}, "id": "q7qOnPJ-zCs5ZLWls_vOwltBpyo=", "properties": {"@spider": "usps_collection_boxes", "addr:city": "LEBANON", "addr:country": "US", "addr:full": "1443 W MAIN ST", "addr:postcode": "37087", "addr:state": "TN", "amenity": "post_box", "brand": "United States Postal Service", "brand:wikidata": "Q668687", "collection_times": "Mo-Fr 12:00", "name": "USPS COLLECTION BOX - BLUE BOX", "nsi_id": "unitedstatespostalservice-a77078", "operator": "United States Postal Service", "operator:short": "USPS", "operator:type": "public", "operator:wikidata": "Q668687", "ref": "3708700012"}, "type": "Feature"}
{"dataset_attributes": {"@spider": "usps_collection_boxes"}, "geometry": {"coordinates": [-86.2880311, 36.206338], "type": "Point"}, "id": "T1yNIc6A8HJjLUhVyTJDXuOMuWk=", "properties": {"@spider": "usps_collection_boxes", "addr:city": "LEBANON", "addr:country": "US", "addr:full": "226 E GAY ST", "addr:postcode": "37087", "addr:state": "TN", "amenity": "post_box", "brand": "United States Postal Service", "brand:wikidata": "Q668687", "collection_times": "Mo-Fr 16:30; Sa 14:00", "name": "USPS COLLECTION BOX - PO LOBBY", "note": "ON 12/24 AND 12/31, THIS BOX MAY BE COLLECTED AS EARLY AS 12 NOON.", "nsi_id": "unitedstatespostalservice-a77078", "operator": "United States Postal Service", "operator:short": "USPS", "operator:type": "public", "operator:wikidata": "Q668687", "ref": "3708700023"}, "type": "Feature"}
{"dataset_attributes": {"@spider": "usps_collection_boxes"}, "geometry": {"coordinates": [-86.2903742, 36.22656], "type": "Point"}, "id": "nM0JRpuFOks8YlrW3t57T_WUzm8=", "properties": {"@spider": "usps_collection_boxes", "addr:city": "LEBANON", "addr:country": "US", "addr:full": "1112 N CUMBERLAND ST", "addr:postcode": "37087", "addr:state": "TN", "amenity": "post_box", "brand": "United States Postal Service", "brand:wikidata": "Q668687", "collection_times": "Mo-Sa 12:00", "name": "USPS COLLECTION BOX - BLUE BOX", "nsi_id": "unitedstatespostalservice-a77078", "operator": "United States Postal Service", "operator:short": "USPS", "operator:type": "public", "operator:wikidata": "Q668687", "ref": "3708700028"}, "type": "Feature"}
{"dataset_attributes": {"@spider": "usps_collection_boxes"}, "geometry": {"coordinates": [-86.3031543, 36.209094], "type": "Point"}, "id": "hqdhqBUbM7DvY702fbFtResEk2Q=", "properties": {"@spider": "usps_collection_boxes", "addr:city": "LEBANON", "addr:country": "US", "addr:full": "516 W MAIN ST", "addr:postcode": "37087", "addr:state": "TN", "amenity": "post_box", "brand": "United States Postal Service", "brand:wikidata": "Q668687", "collection_times": "Mo-Sa 12:00", "name": "USPS COLLECTION BOX - BLUE BOX", "nsi_id": "unitedstatespostalservice-a77078", "operator": "United States Postal Service", "operator:short": "USPS", "operator:type": "public", "operator:wikidata": "Q668687", "ref": "3708700032"}, "type": "Feature"}
{"dataset_attributes": {"@spider": "usps_collection_boxes"}, "geometry": {"coordinates": [-86.3072486, 36.212755], "type": "Point"}, "id": "HO2c0UgiHINfCsn5KzdG6P0eSBY=", "properties": {"@spider": "usps_collection_boxes", "addr:city": "LEBANON", "addr:country": "US", "addr:full": "702 CADET CT", "addr:postcode": "37087", "addr:state": "TN", "amenity": "post_box", "brand": "United States Postal Service", "brand:wikidata": "Q668687", "collection_times": "Mo-Sa 12:00", "name": "USPS COLLECTION BOX - BLUE BOX", "nsi_id": "unitedstatespostalservice-a77078", "operator": "United States Postal Service", "operator:short": "USPS", "operator:type": "public", "operator:wikidata": "Q668687", "ref": "3708700033"}, "type": "Feature"}
{"dataset_attributes": {"@spider": "usps_collection_boxes"}, "geometry": {"coordinates": [-86.2916159, 36.207587], "type": "Point"}, "id": "UBDBIxj3mfkhHihgzouLNW_hbq8=", "properties": {"@spider": "usps_collection_boxes", "addr:city": "LEBANON", "addr:country": "US", "addr:full": "132 PUBLIC SQ", "addr:postcode": "37087", "addr:state": "TN", "amenity": "post_box", "brand": "United States Postal Service", "brand:wikidata": "Q668687", "collection_times": "Mo-Sa 12:00", "name": "USPS COLLECTION BOX - BLUE BOX", "nsi_id": "unitedstatespostalservice-a77078", "operator": "United States Postal Service", "operator:short": "USPS", "operator:type": "public", "operator:wikidata": "Q668687", "ref": "3708700038"}, "type": "Feature"}
{"dataset_attributes": {"@spider": "usps_collection_boxes"}, "geometry": {"coordinates": [-86.288014723, 36.206546608], "type": "Point"}, "id": "rKG3cS3jJn4xZ7159tJikGPIpiQ=", "properties": {"@spider": "usps_collection_boxes", "addr:city": "LEBANON", "addr:country": "US", "addr:full": "226 E GAY ST", "addr:postcode": "37087", "addr:state": "TN", "amenity": "post_box", "brand": "United States Postal Service", "brand:wikidata": "Q668687", "collection_times": "Mo-Fr 16:30", "name": "USPS COLLECTION BOX - PO LOBBY", "note": "ON 12/24 AND 12/31, THIS BOX MAY BE COLLECTED AS EARLY AS 12 NOON.", "nsi_id": "unitedstatespostalservice-a77078", "operator": "United States Postal Service", "operator:short": "USPS", "operator:type": "public", "operator:wikidata": "Q668687", "ref": "3708700044"}, "type": "Feature"}
{"dataset_attributes": {"@spider": "usps_collection_boxes"}, "geometry": {"coordinates": [-87.783667, 35.771776], "type": "Point"}, "id": "x5P6mmkjjxaclLvDYqQijq8AXAI=", "properties": {"@spider": "usps_collection_boxes", "addr:city": "LOBELVILLE", "addr:country": "US", "addr:full": "22 S MAIN ST", "addr:postcode": "37097", "addr:state": "TN", "amenity": "post_box", "brand": "United States Postal Service", "brand:wikidata": "Q668687", "collection_times": "Mo-Fr 16:00; Sa 12:00", "name": "USPS COLLECTION BOX - BLUE BOX", "note": "ON 12/24 AND 12/31, THIS BOX MAY BE COLLECTED AS EARLY AS 12 NOON.", "nsi_id": "unitedstatespostalservice-a77078", "operator": "United States Postal Service", "operator:short": "USPS", "operator:type": "public", "operator:wikidata": "Q668687", "ref": "3709700001"}, "type": "Feature"}
{"dataset_attributes": {"@spider": "usps_collection_boxes"}, "geometry": {"coordinates": [-87.783627, 35.771829], "type": "Point"}, "id": "ZTW43yHICU2r7g2Wa0QnVpU5nBk=", "properties": {"@spider": "usps_collection_boxes", "addr:city": "LOBELVILLE", "addr:country": "US", "addr:full": "22 S MAIN ST", "addr:postcode": "37097", "addr:state": "TN", "amenity": "post_box", "brand": "United States Postal Service", "brand:wikidata": "Q668687", "collection_times": "Mo-Fr 16:00; Sa 12:00", "name": "USPS COLLECTION BOX - PO LOBBY", "note": "ON 12/24 AND 12/31, THIS BOX MAY BE COLLECTED AS EARLY AS 12 NOON.", "nsi_id": "unitedstatespostalservice-a77078", "operator": "United States Postal Service", "operator:short": "USPS", "operator:type": "public", "operator:wikidata": "Q668687", "ref": "3709700002"}, "type": "Feature"}
{"dataset_attributes": {"@spider": "usps_collection_boxes"}, "geometry": {"coordinates": [-87.783664929, 35.771826468], "type": "Point"}, "id": "eIddXrxCxCA0sTr-3PXLmACMmns=", "properties": {"@spider": "usps_collection_boxes", "addr:city": "LOBELVILLE", "addr:country": "US", "addr:full": "22 S MAIN ST", "addr:postcode": "37097", "addr:state": "TN", "amenity": "post_box", "brand": "United States Postal Service", "brand:wikidata": "Q668687", "collection_times": "Mo-Fr 16:00", "name": "USPS COLLECTION BOX - PO LOBBY", "note": "ON 12/24 AND 12/31, THIS BOX MAY BE COLLECTED AS EARLY AS 12 NOON.", "nsi_id": "unitedstatespostalservice-a77078", "operator": "United States Postal Service", "operator:short": "USPS", "operator:type": "public", "operator:wikidata": "Q668687", "ref": "3709700003"}, "type": "Feature"}
{"dataset_attributes": {"@spider": "usps_collection_boxes"}, "geometry": {"coordinates": [-87.310919, 35.92827], "type": "Point"}, "id": "FY01sYhgpHzvaX5Bk95yyYuwukM=", "properties": {"@spider": "usps_collection_boxes", "addr:city": "LYLES", "addr:country": "US", "addr:full": "5379 HIGHWAY 100", "addr:postcode": "37098", "addr:state": "TN", "amenity": "post_box", "brand": "United States Postal Service", "brand:wikidata": "Q668687", "collection_times": "Mo-Fr 15:30; Sa 11:00", "name": "USPS COLLECTION BOX - PO LOBBY", "note": "ON 12/24 AND 12/31, THIS BOX MAY BE COLLECTED AS EARLY AS 12 NOON.", "nsi_id": "unitedstatespostalservice-a77078", "operator": "United States Postal Service", "operator:short": "USPS", "operator:type": "public", "operator:wikidata": "Q668687", "ref": "3709800001"}, "type": "Feature"}
{"dataset_attributes": {"@spider": "usps_collection_boxes"}, "geometry": {"coordinates": [-87.310891, 35.928249], "type": "Point"}, "id": "gUR9015yIjRCftKWYai6Ab3cO5M=", "properties": {"@spider": "usps_collection_boxes", "addr:city": "LYLES", "addr:country": "US", "addr:full": "5379 HIGHWAY 100", "addr:postcode": "37098", "addr:state": "TN", "amenity": "post_box", "brand": "United States Postal Service", "brand:wikidata": "Q668687", "collection_times": "Mo-Fr 15:30; Sa 11:00", "name": "USPS COLLECTION BOX - BLUE BOX", "note": "ON 12/24 AND 12/31, THIS BOX MAY BE COLLECTED AS EARLY AS 12 NOON.", "nsi_id": "unitedstatespostalservice-a77078", "operator": "United States Postal Service", "operator:short": "USPS", "operator:type": "public", "operator:wikidata": "Q668687", "ref": "3709800003"}, "type": "Feature"}
{"dataset_attributes": {"@spider": "usps_collection_boxes"}, "geometry": {"coordinates": [-87.310808286, 35.928295864], "type": "Point"}, "id": "2JGLqPq-77fygXZ1ZoSVDo72kBI=", "properties": {"@spider": "usps_collection_boxes", "addr:city": "LYLES", "addr:country": "US", "addr:full": "5379 HIGHWAY 100", "addr:postcode": "37098", "addr:state": "TN", "amenity": "post_box", "brand": "United States Postal Service", "brand:wikidata": "Q668687", "collection_times": "Mo-Fr 16:00", "name": "USPS COLLECTION BOX - PO LOBBY", "note": "ON 12/24 AND 12/31, THIS BOX MAY BE COLLECTED AS EARLY AS 12 NOON.", "nsi_id": "unitedstatespostalservice-a77078", "operator": "United States Postal Service", "operator:short": "USPS", "operator:type": "public", "operator:wikidata": "Q668687", "ref": "3709800004"}, "type": "Feature"}
