{"geometry": {"coordinates": [-87.634773, 36.108149], "type": "Point"}, "id": "W7W750gvh0g2icXWHmcZGlOCYfc=", "properties": {"@source_uri": "https://tools.usps.com/UspsToolsRestServices/rest/POLocator/findLocations", "@spider": "usps_collection_boxes", "addr:city": "MCEWEN", "addr:country": "US", "addr:postcode": "37101", "addr:state": "TN", "addr:street_address": "32 LONG ST E", "amenity": "post_box", "collection_times": "Mo-Fr 16:00; Sa 12:00", "note": "ON 12/24 AND 12/31, THIS BOX MAY BE COLLECTED AS EARLY AS 12 NOON.", "nsi_id": "unitedstatespostalservice-a77078", "operator": "United States Postal Service", "operator:short": "USPS", "operator:type": "public", "operator:wikidata": "Q668687", "ref": "3710100001"}, "type": "Feature"}
{"geometry": {"coordinates": [-87.634775, 36.10812], "type": "Point"}, "id": "GVMMqhdHLwcLSJvgo0eanllURnE=", "properties": {"@source_uri": "https://tools.usps.com/UspsToolsRestServices/rest/POLocator/findLocations", "@spider": "usps_collection_boxes", "addr:city": "MCEWEN", "addr:country": "US", "addr:postcode": "37101", "addr:state": "TN", "addr:street_address": "32 LONG ST E", "amenity": "post_box", "collection_times": "Mo-Fr 16:00; Sa 12:00", "indoor": "yes", "note": "ON 12/24 AND 12/31, THIS BOX MAY BE COLLECTED AS EARLY AS 12 NOON.", "nsi_id": "unitedstatespostalservice-a77078", "operator": "United States Postal Service", "operator:short": "USPS", "operator:type": "public", "operator:wikidata": "Q668687", "ref": "3710100002"}, "type": "Feature"}
{"geometry": {"coordinates": [-87.634789372, 36.108177292], "type": "Point"}, "id": "ZRiD3GM2B52xoNJcgSHYs5S5bHM=", "properties": {"@source_uri": "https://tools.usps.com/UspsToolsRestServices/rest/POLocator/findLocations", "@spider": "usps_collection_boxes", "addr:city": "MCEWEN", "addr:country": "US", "addr:postcode": "37101", "addr:state": "TN", "addr:street_address": "32 LONG ST E", "amenity": "post_box", "collection_times": "Mo-Fr 16:00", "indoor": "yes", "note": "ON 12/24 AND 12/31, THIS BOX MAY BE COLLECTED AS EARLY AS 12 NOON.", "nsi_id": "unitedstatespostalservice-a77078", "operator": "United States Postal Service", "operator:short": "USPS", "operator:type": "public", "operator:wikidata": "Q668687", "ref": "3710100003"}, "type": "Feature"}
{"geometry": {"coordinates": [-85.7469631, 35.693994], "type": "Point"}, "id": "xbEfUEfSHNY_y4fai0_VSA-IAa8=", "properties": {"@source_uri": "https://tools.usps.com/UspsToolsRestServices/rest/POLocator/findLocations", "@spider": "usps_collection_boxes", "addr:city": "MCMINNVILLE", "addr:country": "US", "addr:postcode": "37110", "addr:state": "TN", "addr:street_address": "1410 SPARTA ST", "amenity": "post_box", "collection_times": "Mo-Sa 10:00", "nsi_id": "unitedstatespostalservice-a77078", "operator": "United States Postal Service", "operator:short": "USPS", "operator:type": "public", "operator:wikidata": "Q668687", "ref": "3711000002"}, "type": "Feature"}
{"geometry": {"coordinates": [-85.7423307, 35.700268], "type": "Point"}, "id": "Mt8_hqWwEt872R0EqIeRILoOuWY=", "properties": {"@source_uri": "https://tools.usps.com/UspsToolsRestServices/rest/POLocator/findLocations", "@spider": "usps_collection_boxes", "addr:city": "MCMINNVILLE", "addr:country": "US", "addr:postcode": "37110", "addr:state": "TN", "addr:street_address": "1559 SPARTA ST", "amenity": "post_box", "collection_times": "Mo-Fr 11:00; Sa 10:00", "nsi_id": "unitedstatespostalservice-a77078", "operator": "United States Postal Service", "operator:short": "USPS", "operator:type": "public", "operator:wikidata": "Q668687", "ref": "3711000003"}, "type": "Feature"}
{"geometry": {"coordinates": [-85.7786826, 35.699187], "type": "Point"}, "id": "bop3YGUeAUMYgOT1rjRz4g7GU8Y=", "properties": {"@source_uri": "https://tools.usps.com/UspsToolsRestServices/rest/POLocator/findLocations", "@spider": "usps_collection_boxes", "addr:city": "MCMINNVILLE", "addr:country": "US", "addr:postcode": "37110", "addr:state": "TN", "addr:street_address": "1100 SMITHVILLE HWY", "amenity": "post_box", "collection_times": "Mo-Sa 10:00", "nsi_id": "unitedstatespostalservice-a77078", "operator": "United States Postal Service", "operator:short": "USPS", "operator:type": "public", "operator:wikidata": "Q668687", "ref": "3711000005"}, "type": "Feature"}
{"geometry": {"coordinates": [-85.7816249, 35.700309], "type": "Point"}, "id": "4bQRTjYrxgj44sHElPBWoPMukPA=", "properties": {"@source_uri": "https://tools.usps.com/UspsToolsRestServices/rest/POLocator/findLocations", "@spider": "usps_collection_boxes", "addr:city": "MCMINNVILLE", "addr:country": "US", "addr:postcode": "37110", "addr:state": "TN", "addr:street_address": "231 NORTHGATE DR STE 100", "amenity": "post_box", "collection_times": "Mo-Sa 09:30", "nsi_id": "unitedstatespostalservice-a77078", "operator": "United States Postal Service", "operator:short": "USPS", "operator:type": "public", "operator:wikidata": "Q668687", "ref": "3711000008"}, "type": "Feature"}
{"geometry": {"coordinates": [-85.7806338, 35.695424], "type": "Point"}, "id": "uL78vLUzPs_1LBafBw5X0YCoSwI=", "properties": {"@source_uri": "https://tools.usps.com/UspsToolsRestServices/rest/POLocator/findLocations", "@spider": "usps_collection_boxes", "addr:city": "MCMINNVILLE", "addr:country": "US", "addr:postcode": "37110", "addr:state": "TN", "addr:street_address": "835 SMITHVILLE HWY", "amenity": "post_box", "collection_times": "Mo-Sa 10:00", "nsi_id": "unitedstatespostalservice-a77078", "operator": "United States Postal Service", "operator:short": "USPS", "operator:type": "public", "operator:wikidata": "Q668687", "ref": "3711000010"}, "type": "Feature"}
{"geometry": {"coordinates": [-85.7772217, 35.68247], "type": "Point"}, "id": "5Zwk7zdbaI4SqbhiC7SKgDWFCyw=", "properties": {"@source_uri": "https://tools.usps.com/UspsToolsRestServices/rest/POLocator/findLocations", "@spider": "usps_collection_boxes", "addr:city": "MCMINNVILLE", "addr:country": "US", "addr:postcode": "37110", "addr:state": "TN", "addr:street_address": "307 W MORFORD ST", "amenity": "post_box", "collection_times": "Mo-Fr 12:00; Sa 09:00", "nsi_id": "unitedstatespostalservice-a77078", "operator": "United States Postal Service", "operator:short": "USPS", "operator:type": "public", "operator:wikidata": "Q668687", "ref": "3711000013"}, "type": "Feature"}
{"geometry": {"coordinates": [-85.7768574, 35.681721], "type": "Point"}, "id": "kunHpH2ObqMDbL898pEBseLirBE=", "properties": {"@source_uri": "https://tools.usps.com/UspsToolsRestServices/rest/POLocator/findLocations", "@spider": "usps_collection_boxes", "addr:city": "MCMINNVILLE", "addr:country": "US", "addr:postcode": "37110", "addr:state": "TN", "addr:street_address": "314 W MAIN ST", "amenity": "post_box", "collection_times": "Mo-Fr 12:00; Sa 09:00", "nsi_id": "unitedstatespostalservice-a77078", "operator": "United States Postal Service", "operator:short": "USPS", "operator:type": "public", "operator:wikidata": "Q668687", "ref": "3711000014"}, "type": "Feature"}
{"geometry": {"coordinates": [-85.773446, 35.68218], "type": "Point"}, "id": "he4wbed37CWY_XuwPkvu92XSzp0=", "properties": {"@source_uri": "https://tools.usps.com/UspsToolsRestServices/rest/POLocator/findLocations", "@spider": "usps_collection_boxes", "addr:city": "MCMINNVILLE", "addr:country": "US", "addr:postcode": "37110", "addr:state": "TN", "addr:street_address": "100 MORFORD ST", "amenity": "post_box", "collection_times": "Mo-Sa 17:00", "note": "ON 12/24 AND 12/31, THIS BOX MAY BE COLLECTED AS EARLY AS 12 NOON.", "nsi_id": "unitedstatespostalservice-a77078", "operator": "United States Postal Service", "operator:short": "USPS", "operator:type": "public", "operator:wikidata": "Q668687", "ref": "3711000031"}, "type": "Feature"}
{"geometry": {"coordinates": [-85.7883534, 35.699455], "type": "Point"}, "id": "_c9o5TebxTlMM1xdZOzM6qVm88g=", "properties": {"@source_uri": "https://tools.usps.com/UspsToolsRestServices/rest/POLocator/findLocations", "@spider": "usps_collection_boxes", "addr:city": "MCMINNVILLE", "addr:country": "US", "addr:postcode": "37110", "addr:state": "TN", "addr:street_address": "915 N CHANCERY ST", "amenity": "post_box", "collection_times": "Mo-Sa 12:00", "nsi_id": "unitedstatespostalservice-a77078", "operator": "United States Postal Service", "operator:short": "USPS", "operator:type": "public", "operator:wikidata": "Q668687", "ref": "3711000033"}, "type": "Feature"}
{"geometry": {"coordinates": [-85.77266, 35.68132], "type": "Point"}, "id": "m5evV-MJfGevmD4rR2Ul8VtNSvY=", "properties": {"@source_uri": "https://tools.usps.com/UspsToolsRestServices/rest/POLocator/findLocations", "@spider": "usps_collection_boxes", "addr:city": "MCMINNVILLE", "addr:country": "US", "addr:postcode": "37110", "addr:state": "TN", "addr:street_address": "102 E COURT SQ", "amenity": "post_box", "collection_times": "Mo-Sa 17:00", "indoor": "yes", "note": "ON 12/24 AND 12/31, THIS BOX MAY BE COLLECTED AS EARLY AS 12 NOON.", "nsi_id": "unitedstatespostalservice-a77078", "operator": "United States Postal Service", "operator:short": "USPS", "operator:type": "public", "operator:wikidata": "Q668687", "ref": "3711000034"}, "type": "Feature"}
{"geometry": {"coordinates": [-85.7826874, 35.702937], "type": "Point"}, "id": "f00a970DZZo_H8q9vCh3M5wTZAQ=", "properties": {"@source_uri": "https://tools.usps.com/UspsToolsRestServices/rest/POLocator/findLocations", "@spider": "usps_collection_boxes", "addr:city": "MCMINNVILLE", "addr:country": "US", "addr:postcode": "37110", "addr:state": "TN", "addr:street_address": "1339 SMITHVILLE HWY", "amenity": "post_box", "collection_times": "Mo-Sa 12:00", "nsi_id": "unitedstatespostalservice-a77078", "operator": "United States Postal Service", "operator:short": "USPS", "operator:type": "public", "operator:wikidata": "Q668687", "ref": "3711000035"}, "type": "Feature"}
{"geometry": {"coordinates": [-85.7723636, 35.686985], "type": "Point"}, "id": "iIY9AdIgavSvAFRJzNamqFKb-us=", "properties": {"@source_uri": "https://tools.usps.com/UspsToolsRestServices/rest/POLocator/findLocations", "@spider": "usps_collection_boxes", "addr:city": "MCMINNVILLE", "addr:country": "US", "addr:postcode": "37110", "addr:state": "TN", "addr:street_address": "201 LOCUST ST", "amenity": "post_box", "collection_times": "Sa 12:00", "nsi_id": "unitedstatespostalservice-a77078", "operator": "United States Postal Service", "operator:short": "USPS", "operator:type": "public", "operator:wikidata": "Q668687", "ref": "3711000038"}, "type": "Feature"}
{"geometry": {"coordinates": [-85.772577434, 35.681776031], "type": "Point"}, "id": "GU26bMuQilEJn27Ca2A0mMih3fI=", "properties": {"@source_uri": "https://tools.usps.com/UspsToolsRestServices/rest/POLocator/findLocations", "@spider": "usps_collection_boxes", "addr:city": "MCMINNVILLE", "addr:country": "US", "addr:postcode": "37110", "addr:state": "TN", "addr:street_address": "102 E COURT SQ", "amenity": "post_box", "collection_times": "Mo-Fr 17:00", "indoor": "yes", "note": "ON 12/24 AND 12/31, THIS BOX MAY BE COLLECTED AS EARLY AS 12 NOON.", "nsi_id": "unitedstatespostalservice-a77078", "operator": "United States Postal Service", "operator:short": "USPS", "operator:type": "public", "operator:wikidata": "Q668687", "ref": "3711000039"}, "type": "Feature"}
{"geometry": {"coordinates": [-86.6911879, 36.302019], "type": "Point"}, "id": "63XqTfijntZPMEyK7M5lKJjys0o=", "properties": {"@source_uri": "https://tools.usps.com/UspsToolsRestServices/rest/POLocator/findLocations", "@spider": "usps_collection_boxes", "addr:city": "MADISON", "addr:country": "US", "addr:postcode": "37115", "addr:state": "TN", "addr:street_address": "2101 GALLATIN PIKE N", "amenity": "post_box", "collection_times": "Mo-Sa 10:00", "nsi_id": "unitedstatespostalservice-a77078", "operator": "United States Postal Service", "operator:short": "USPS", "operator:type": "public", "operator:wikidata": "Q668687", "ref": "3711500022"}, "type": "Feature"}
{"geometry": {"coordinates": [-86.7196636, 36.28522], "type": "Point"}, "id": "tIZ_x33dWy2bVjuPEynqheVC3Dc=", "properties": {"@source_uri": "https://tools.usps.com/UspsToolsRestServices/rest/POLocator/findLocations", "@spider": "usps_collection_boxes", "addr:city": "MADISON", "addr:country": "US", "addr:postcode": "37115", "addr:state": "TN", "addr:street_address": "100 STAR BLVD", "amenity": "post_box", "collection_times": "Mo-Sa 11:00", "nsi_id": "unitedstatespostalservice-a77078", "operator": "United States Postal Service", "operator:short": "USPS", "operator:type": "public", "operator:wikidata": "Q668687", "ref": "3711500029"}, "type": "Feature"}
{"geometry": {"coordinates": [-86.707055469, 36.262663139], "type": "Point"}, "id": "yA9pf9PESUprBprcu4fZ5wug5tI=", "properties": {"@source_uri": "https://tools.usps.com/UspsToolsRestServices/rest/POLocator/findLocations", "@spider": "usps_collection_boxes", "addr:city": "MADISON", "addr:country": "US", "addr:postcode": "37115", "addr:state": "TN", "addr:street_address": "323 E OLD HICKORY BLVD", "amenity": "post_box", "collection_times": "Mo-Fr 17:00; Sa 16:00", "indoor": "yes", "note": "ON 12/24 AND 12/31, THIS BOX MAY BE COLLECTED AS EARLY AS 12 NOON.", "nsi_id": "unitedstatespostalservice-a77078", "operator": "United States Postal Service", "operator:short": "USPS", "operator:type": "public", "operator:wikidata": "Q668687", "ref": "3711500046"}, "type": "Feature"}
{"geometry": {"coordinates": [-86.7136559, 36.261767], "type": "Point"}, "id": "ksGOmoQiskBbUSrN7A7P9dEBK1Q=", "properties": {"@source_uri": "https://tools.usps.com/UspsToolsRestServices/rest/POLocator/findLocations", "@spider": "usps_collection_boxes", "addr:city": "MADISON", "addr:country": "US", "addr:postcode": "37115", "addr:state": "TN", "addr:street_address": "200 GALLATIN PIKE S", "amenity": "post_box", "collection_times": "Mo-Sa 11:00", "nsi_id": "unitedstatespostalservice-a77078", "operator": "United States Postal Service", "operator:short": "USPS", "operator:type": "public", "operator:wikidata": "Q668687", "ref": "3711500048"}, "type": "Feature"}
{"geometry": {"coordinates": [-86.6947181, 36.297847], "type": "Point"}, "id": "GKsfbWIRppIB0wNyRFyCYYY2uBc=", "properties": {"@source_uri": "https://tools.usps.com/UspsToolsRestServices/rest/POLocator/findLocations", "@spider": "usps_collection_boxes", "addr:city": "MADISON", "addr:country": "US", "addr:postcode": "37115", "addr:state": "TN", "addr:street_address": "104 CUDE LN", "amenity": "post_box", "collection_times": "Mo-Sa 12:00", "nsi_id": "unitedstatespostalservice-a77078", "operator": "United States Postal Service", "operator:short": "USPS", "operator:type": "public", "operator:wikidata": "Q668687", "ref": "3711500053"}, "type": "Feature"}
{"geometry": {"coordinates": [-86.707055469, 36.262663139], "type": "Point"}, "id": "kUnAbQTjNUGCcJS8AgV8wfOgfiQ=", "properties": {"@source_uri": "https://tools.usps.com/UspsToolsRestServices/rest/POLocator/findLocations", "@spider": "usps_collection_boxes", "addr:city": "MADISON", "addr:country": "US", "addr:postcode": "37115", "addr:state": "TN", "addr:street_address": "323 E OLD HICKORY BLVD", "amenity": "post_box", "collection_times": "Mo-Fr 17:00; Sa 16:00", "name": "USPS COLLECTION BOX - APC", "note": "ON 12/24 AND 12/31, THIS BOX MAY BE COLLECTED AS EARLY AS 12 NOON.", "nsi_id": "unitedstatespostalservice-a77078", "operator": "United States Postal Service", "operator:short": "USPS", "operator:type": "public", "operator:wikidata": "Q668687", "ref": "3711500054"}, "type": "Feature"}
{"geometry": {"coordinates": [-86.707055469, 36.262663139], "type": "Point"}, "id": "EkSkamf_PJLm_nSX0S6gKWxAun4=", "properties": {"@source_uri": "https://tools.usps.com/UspsToolsRestServices/rest/POLocator/findLocations", "@spider": "usps_collection_boxes", "addr:city": "MADISON", "addr:country": "US", "addr:postcode": "37115", "addr:state": "TN", "addr:street_address": "323 E OLD HICKORY BLVD", "amenity": "post_box", "collection_times": "Mo-Fr 17:00", "indoor": "yes", "note": "ON 12/24 AND 12/31, THIS BOX MAY BE COLLECTED AS EARLY AS 12 NOON.", "nsi_id": "unitedstatespostalservice-a77078", "operator": "United States Postal Service", "operator:short": "USPS", "operator:type": "public", "operator:wikidata": "Q668687", "ref": "3711500061"}, "type": "Feature"}
{"geometry": {"coordinates": [-86.181509973, 35.930083998], "type": "Point"}, "id": "3BFs0-tnGc9QaNMYANPs35bv8u4=", "properties": {"@source_uri": "https://tools.usps.com/UspsToolsRestServices/rest/POLocator/findLocations", "@spider": "usps_collection_boxes", "addr:city": "MILTON", "addr:country": "US", "addr:postcode": "37118", "addr:state": "TN", "addr:street_address": "12017 MILTON ST", "amenity": "post_box", "collection_times": "Mo-Fr 14:45; Sa 11:15", "note": "ON 12/24 AND 12/31, THIS BOX MAY BE COLLECTED AS EARLY AS 12 NOON.", "nsi_id": "unitedstatespostalservice-a77078", "operator": "United States Postal Service", "operator:short": "USPS", "operator:type": "public", "operator:wikidata": "Q668687", "ref": "3711800000"}, "type": "Feature"}
{"geometry": {"coordinates": [-86.181509973, 35.930083998], "type": "Point"}, "id": "NhvyuwqfomtMaaq3_r-qPgjWqts=", "properties": {"@source_uri": "https://tools.usps.com/UspsToolsRestServices/rest/POLocator/findLocations", "@spider": "usps_collection_boxes", "addr:city": "MILTON", "addr:country": "US", "addr:postcode": "37118", "addr:state": "TN", "addr:street_address": "12017 MILTON ST", "amenity": "post_box", "collection_times": "Mo-Fr 14:45; Sa 11:15", "indoor": "yes", "note": "ON 12/24 AND 12/31, THIS BOX MAY BE COLLECTED AS EARLY AS 12 NOON.", "nsi_id": "unitedstatespostalservice-a77078", "operator": "United States Postal Service", "operator:short": "USPS", "operator:type": "public", "operator:wikidata": "Q668687", "ref": "3711800001"}, "type": "Feature"}
{"geometry": {"coordinates": [-86.181509973, 35.930083998], "type": "Point"}, "id": "zyyharSCBZiS_nSPgxLx5EVVmg4=", "properties": {"@source_uri": "https://tools.usps.com/UspsToolsRestServices/rest/POLocator/findLocations", "@spider": "usps_collection_boxes", "addr:city": "MILTON", "addr:country": "US", "addr:postcode": "37118", "addr:state": "TN", "addr:street_address": "12017 MILTON ST", "amenity": "post_box", "collection_times": "Mo-Fr 14:45", "indoor": "yes", "note": "ON 12/24 AND 12/31, THIS BOX MAY BE COLLECTED AS EARLY AS 12 NOON.", "nsi_id": "unitedstatespostalservice-a77078", "operator": "United States Postal Service", "operator:short": "USPS", "operator:type": "public", "operator:wikidata": "Q668687", "ref": "3711800002"}, "type": "Feature"}
{"geometry": {"coordinates": [-86.518155, 36.20462], "type": "Point"}, "id": "ZqY6pNwPoNmoBAHRhaoRR3U6zjE=", "properties": {"@source_uri": "https://tools.usps.com/UspsToolsRestServices/rest/POLocator/findLocations", "@spider": "usps_collection_boxes", "addr:city": "MOUNT JULIET", "addr:country": "US", "addr:postcode": "37122", "addr:state": "TN", "addr:street_address": "2491 N MOUNT JULIET RD", "amenity": "post_box", "collection_times": "Mo-Fr 17:00; Sa 15:00", "indoor": "yes", "note": "ON 12/24 AND 12/31, THIS BOX MAY BE COLLECTED AS EARLY AS 12 NOON.", "nsi_id": "unitedstatespostalservice-a77078", "operator": "United States Postal Service", "operator:short": "USPS", "operator:type": "public", "operator:wikidata": "Q668687", "ref": "3712200002"}, "type": "Feature"}
{"geometry": {"coordinates": [-86.5177373, 36.205222], "type": "Point"}, "id": "aj4bcL-B3xvfidID5xCcOF0RpQ4=", "properties": {"@source_uri": "https://tools.usps.com/UspsToolsRestServices/rest/POLocator/findLocations", "@spider": "usps_collection_boxes", "addr:city": "MOUNT JULIET", "addr:country": "US", "addr:postcode": "37122", "addr:state": "TN", "addr:street_address": "2491 N MOUNT JULIET RD", "amenity": "post_box", "collection_times": "Mo-Fr 17:00; Sa 15:00", "note": "ON 12/24 AND 12/31, THIS BOX MAY BE COLLECTED AS EARLY AS 12 NOON.", "nsi_id": "unitedstatespostalservice-a77078", "operator": "United States Postal Service", "operator:short": "USPS", "operator:type": "public", "operator:wikidata": "Q668687", "ref": "3712200003"}, "type": "Feature"}
{"geometry": {"coordinates": [-86.5090574, 36.230811], "type": "Point"}, "id": "T8tz1UplS9M167o3VS8I38VLWJ4=", "properties": {"@source_uri": "https://tools.usps.com/UspsToolsRestServices/rest/POLocator/findLocations", "@spider": "usps_collection_boxes", "addr:city": "MOUNT JULIET", "addr:country": "US", "addr:postcode": "37122", "addr:state": "TN", "addr:street_address": "10960 LEBANON RD", "amenity": "post_box", "collection_times": "Mo-Sa 09:00", "nsi_id": "unitedstatespostalservice-a77078", "operator": "United States Postal Service", "operator:short": "USPS", "operator:type": "public", "operator:wikidata": "Q668687", "ref": "3712200006"}, "type": "Feature"}
{"geometry": {"coordinates": [-86.5127394, 36.190281], "type": "Point"}, "id": "i1ix3XgZSzaJkUc9boBFd4bEjmA=", "properties": {"@source_uri": "https://tools.usps.com/UspsToolsRestServices/rest/POLocator/findLocations", "@spider": "usps_collection_boxes", "addr:city": "MOUNT JULIET", "addr:country": "US", "addr:postcode": "37122", "addr:state": "TN", "addr:street_address": "1337 N MOUNT JULIET RD", "amenity": "post_box", "collection_times": "Mo-Sa 10:30", "nsi_id": "unitedstatespostalservice-a77078", "operator": "United States Postal Service", "operator:short": "USPS", "operator:type": "public", "operator:wikidata": "Q668687", "ref": "3712200007"}, "type": "Feature"}
{"geometry": {"coordinates": [-86.5163549, 36.167433], "type": "Point"}, "id": "AqoY36-jZereqPH9DNq7vr_vusU=", "properties": {"@source_uri": "https://tools.usps.com/UspsToolsRestServices/rest/POLocator/findLocations", "@spider": "usps_collection_boxes", "addr:city": "MOUNT JULIET", "addr:country": "US", "addr:postcode": "37122", "addr:state": "TN", "addr:street_address": "5001 CROSSINGS CIR", "amenity": "post_box", "collection_times": "Mo-Sa 09:00", "nsi_id": "unitedstatespostalservice-a77078", "operator": "United States Postal Service", "operator:short": "USPS", "operator:type": "public", "operator:wikidata": "Q668687", "ref": "3712200008"}, "type": "Feature"}
{"geometry": {"coordinates": [-86.516068, 36.228972], "type": "Point"}, "id": "wC_PNOBKAoOOLCw7vIJFvGYNgzM=", "properties": {"@source_uri": "https://tools.usps.com/UspsToolsRestServices/rest/POLocator/findLocations", "@spider": "usps_collection_boxes", "addr:city": "MOUNT JULIET", "addr:country": "US", "addr:postcode": "37122", "addr:state": "TN", "addr:street_address": "4120 N MOUNT JULIET RD", "amenity": "post_box", "collection_times": "Mo-Sa 11:00", "nsi_id": "unitedstatespostalservice-a77078", "operator": "United States Postal Service", "operator:short": "USPS", "operator:type": "public", "operator:wikidata": "Q668687", "ref": "3712200010"}, "type": "Feature"}
{"geometry": {"coordinates": [-86.5067826, 36.163222], "type": "Point"}, "id": "N_HKjoJZnWXAeS1dAYh2QPPU0zA=", "properties": {"@source_uri": "https://tools.usps.com/UspsToolsRestServices/rest/POLocator/findLocations", "@spider": "usps_collection_boxes", "addr:city": "MOUNT JULIET", "addr:country": "US", "addr:postcode": "37122", "addr:state": "TN", "addr:street_address": "2048 PROVIDENCE PKWY", "amenity": "post_box", "collection_times": "Mo-Sa 12:00", "nsi_id": "unitedstatespostalservice-a77078", "operator": "United States Postal Service", "operator:short": "USPS", "operator:type": "public", "operator:wikidata": "Q668687", "ref": "3712200013"}, "type": "Feature"}
{"geometry": {"coordinates": [-86.518198, 36.204592], "type": "Point"}, "id": "0x5N7L6UwPJYnI-QdLsMJxBekXo=", "properties": {"@source_uri": "https://tools.usps.com/UspsToolsRestServices/rest/POLocator/findLocations", "@spider": "usps_collection_boxes", "addr:city": "MOUNT JULIET", "addr:country": "US", "addr:postcode": "37122", "addr:state": "TN", "addr:street_address": "2491 N MOUNT JULIET RD", "amenity": "post_box", "collection_times": "Mo-Fr 17:00; Sa 15:00", "name": "USPS COLLECTION BOX - APC", "note": "ON 12/24 AND 12/31, THIS BOX MAY BE COLLECTED AS EARLY AS 12 NOON.", "nsi_id": "unitedstatespostalservice-a77078", "operator": "United States Postal Service", "operator:short": "USPS", "operator:type": "public", "operator:wikidata": "Q668687", "ref": "3712200014"}, "type": "Feature"}
{"geometry": {"coordinates": [-86.517933507, 36.205213539], "type": "Point"}, "id": "H2jvCC51ZVdNX57rH6uZl3mrKoM=", "properties": {"@source_uri": "https://tools.usps.com/UspsToolsRestServices/rest/POLocator/findLocations", "@spider": "usps_collection_boxes", "addr:city": "MOUNT JULIET", "addr:country": "US", "addr:postcode": "37122", "addr:state": "TN", "addr:street_address": "2491 N MOUNT JULIET RD", "amenity": "post_box", "collection_times": "Mo-Fr 17:00", "indoor": "yes", "note": "ON 12/24 AND 12/31, THIS BOX MAY BE COLLECTED AS EARLY AS 12 NOON.", "nsi_id": "unitedstatespostalservice-a77078", "operator": "United States Postal Service", "operator:short": "USPS", "operator:type": "public", "operator:wikidata": "Q668687", "ref": "3712200019"}, "type": "Feature"}
{"geometry": {"coordinates": [-86.4074259908, 35.8615455308], "type": "Point"}, "id": "6zaJeoTGoZK4zIDvs_lNsd5CTg0=", "properties": {"@source_uri": "https://tools.usps.com/UspsToolsRestServices/rest/POLocator/findLocations", "@spider": "usps_collection_boxes", "addr:city": "MURFREESBORO", "addr:country": "US", "addr:postcode": "37129", "addr:state": "TN", "addr:street_address": "1266 NW BROAD ST", "amenity": "post_box", "collection_times": "Mo-Fr 15:00; Sa 13:00", "note": "ON 12/24 AND 12/31, THIS BOX MAY BE COLLECTED AS EARLY AS 12 NOON.", "nsi_id": "unitedstatespostalservice-a77078", "operator": "United States Postal Service", "operator:short": "USPS", "operator:type": "public", "operator:wikidata": "Q668687", "ref": "3712900003"}, "type": "Feature"}
{"geometry": {"coordinates": [-86.4111172, 35.871944], "type": "Point"}, "id": "CXyybOl8tfEn3Fg7-wYssuLNKqg=", "properties": {"@source_uri": "https://tools.usps.com/UspsToolsRestServices/rest/POLocator/findLocations", "@spider": "usps_collection_boxes", "addr:city": "MURFREESBORO", "addr:country": "US", "addr:postcode": "37129", "addr:state": "TN", "addr:street_address": "1535 W NORTHFIELD BLVD", "amenity": "post_box", "collection_times": "Mo-Fr 15:00; Sa 13:00", "note": "ON 12/24 AND 12/31, THIS BOX MAY BE COLLECTED AS EARLY AS 12 NOON.", "nsi_id": "unitedstatespostalservice-a77078", "operator": "United States Postal Service", "operator:short": "USPS", "operator:type": "public", "operator:wikidata": "Q668687", "ref": "3712900004"}, "type": "Feature"}
{"geometry": {"coordinates": [-86.3861111, 35.871026], "type": "Point"}, "id": "NNTGGltTV4d6D-XfItroIdM4GKg=", "properties": {"@source_uri": "https://tools.usps.com/UspsToolsRestServices/rest/POLocator/findLocations", "@spider": "usps_collection_boxes", "addr:city": "MURFREESBORO", "addr:country": "US", "addr:postcode": "37129", "addr:state": "TN", "addr:street_address": "1801 MEMORIAL BLVD", "amenity": "post_box", "collection_times": "Mo-Fr 15:00; Sa 13:00", "note": "ON 12/24 AND 12/31, THIS BOX MAY BE COLLECTED AS EARLY AS 12 NOON.", "nsi_id": "unitedstatespostalservice-a77078", "operator": "United States Postal Service", "operator:short": "USPS", "operator:type": "public", "operator:wikidata": "Q668687", "ref": "3712900005"}, "type": "Feature"}
{"geometry": {"coordinates": [-86.4156149, 35.870964], "type": "Point"}, "id": "1h4fHmDR0aD8OSfDZac0ebSLgvI=", "properties": {"@source_uri": "https://tools.usps.com/UspsToolsRestServices/rest/POLocator/findLocations", "@spider": "usps_collection_boxes", "addr:city": "MURFREESBORO", "addr:country": "US", "addr:postcode": "37129", "addr:state": "TN", "addr:street_address": "1776 NW BROAD ST", "amenity": "post_box", "collection_times": "Mo-Fr 15:00; Sa 13:00", "note": "ON 12/24 AND 12/31, THIS BOX MAY BE COLLECTED AS EARLY AS 12 NOON.", "nsi_id": "unitedstatespostalservice-a77078", "operator": "United States Postal Service", "operator:short": "USPS", "operator:type": "public", "operator:wikidata": "Q668687", "ref": "3712900015"}, "type": "Feature"}
{"geometry": {"coordinates": [-86.4186663, 35.849133], "type": "Point"}, "id": "-CX8EeP5UUcme49f2Ix9VntBGe4=", "properties": {"@source_uri": "https://tools.usps.com/UspsToolsRestServices/rest/POLocator/findLocations", "@spider": "usps_collection_boxes", "addr:city": "MURFREESBORO", "addr:country": "US", "addr:postcode": "37129", "addr:state": "TN", "addr:street_address": "1720 OLD FORT PKWY", "amenity": "post_box", "collection_times": "Mo-Fr 14:45; Sa 13:00", "note": "ON 12/24 AND 12/31, THIS BOX MAY BE COLLECTED AS EARLY AS 12 NOON.", "nsi_id": "unitedstatespostalservice-a77078", "operator": "United States Postal Service", "operator:short": "USPS", "operator:type": "public", "operator:wikidata": "Q668687", "ref": "3712900016"}, "type": "Feature"}
{"geometry": {"coordinates": [-86.3851488, 35.88564], "type": "Point"}, "id": "f_5bCy1mwwy5sKt6t-RS5UbmxcM=", "properties": {"@source_uri": "https://tools.usps.com/UspsToolsRestServices/rest/POLocator/findLocations", "@spider": "usps_collection_boxes", "addr:city": "MURFREESBORO", "addr:country": "US", "addr:postcode": "37129", "addr:state": "TN", "addr:street_address": "2255 MEMORIAL BLVD", "amenity": "post_box", "collection_times": "Mo-Fr 17:00; Sa 13:00", "note": "ON 12/24 AND 12/31, THIS BOX MAY BE COLLECTED AS EARLY AS 12 NOON.", "nsi_id": "unitedstatespostalservice-a77078", "operator": "United States Postal Service", "operator:short": "USPS", "operator:type": "public", "operator:wikidata": "Q668687", "ref": "3712900021"}, "type": "Feature"}
{"geometry": {"coordinates": [-86.384411, 35.885171], "type": "Point"}, "id": "CY6jFrfOevjVOWxcDpAKRueuCQw=", "properties": {"@source_uri": "https://tools.usps.com/UspsToolsRestServices/rest/POLocator/findLocations", "@spider": "usps_collection_boxes", "addr:city": "MURFREESBORO", "addr:country": "US", "addr:postcode": "37129", "addr:state": "TN", "addr:street_address": "2255 MEMORIAL BLVD", "amenity": "post_box", "collection_times": "Mo-Fr 17:00; Sa 13:00", "indoor": "yes", "note": "ON 12/24 AND 12/31, THIS BOX MAY BE COLLECTED AS EARLY AS 12 NOON.", "nsi_id": "unitedstatespostalservice-a77078", "operator": "United States Postal Service", "operator:short": "USPS", "operator:type": "public", "operator:wikidata": "Q668687", "ref": "3712900023"}, "type": "Feature"}
{"geometry": {"coordinates": [-86.384411, 35.885171], "type": "Point"}, "id": "tyDlGI9AJhD1-OJWr91t23M8g50=", "properties": {"@source_uri": "https://tools.usps.com/UspsToolsRestServices/rest/POLocator/findLocations", "@spider": "usps_collection_boxes", "addr:city": "MURFREESBORO", "addr:country": "US", "addr:postcode": "37129", "addr:state": "TN", "addr:street_address": "2255 MEMORIAL BLVD", "amenity": "post_box", "collection_times": "Mo-Fr 17:00; Sa 13:00", "name": "USPS COLLECTION BOX - APC", "note": "ON 12/24 AND 12/31, THIS BOX MAY BE COLLECTED AS EARLY AS 12 NOON.", "nsi_id": "unitedstatespostalservice-a77078", "operator": "United States Postal Service", "operator:short": "USPS", "operator:type": "public", "operator:wikidata": "Q668687", "ref": "3712900024"}, "type": "Feature"}
{"geometry": {"coordinates": [-86.384411, 35.885171], "type": "Point"}, "id": "_8EwA-RrH5yO78gU2InfzIRhkKQ=", "properties": {"@source_uri": "https://tools.usps.com/UspsToolsRestServices/rest/POLocator/findLocations", "@spider": "usps_collection_boxes", "addr:city": "MURFREESBORO", "addr:country": "US", "addr:postcode": "37129", "addr:state": "TN", "addr:street_address": "2255 MEMORIAL BLVD", "amenity": "post_box", "collection_times": "Mo-Fr 17:00; Sa 13:00", "indoor": "yes", "note": "ON 12/24 AND 12/31, THIS BOX MAY BE COLLECTED AS EARLY AS 12 NOON.", "nsi_id": "unitedstatespostalservice-a77078", "operator": "United States Postal Service", "operator:short": "USPS", "operator:type": "public", "operator:wikidata": "Q668687", "ref": "3712900025"}, "type": "Feature"}
{"geometry": {"coordinates": [-86.4422521, 35.843818], "type": "Point"}, "id": "8NXrZX1pn3vq_Bt7E64oWLaX4dg=", "properties": {"@source_uri": "https://tools.usps.com/UspsToolsRestServices/rest/POLocator/findLocations", "@spider": "usps_collection_boxes", "addr:city": "MURFREESBORO", "addr:country": "US", "addr:postcode": "37129", "addr:state": "TN", "addr:street_address": "2449 OLD FORT PKWY", "amenity": "post_box", "collection_times": "Mo-Fr 14:30; Sa 13:00", "note": "ON 12/24 AND 12/31, THIS BOX MAY BE COLLECTED AS EARLY AS 12 NOON.", "nsi_id": "unitedstatespostalservice-a77078", "operator": "United States Postal Service", "operator:short": "USPS", "operator:type": "public", "operator:wikidata": "Q668687", "ref": "3712900026"}, "type": "Feature"}
{"geometry": {"coordinates": [-86.4011163, 35.786487], "type": "Point"}, "id": "SPTJ-Q9RF_QFzoFGSDJtIksjqMw=", "properties": {"@source_uri": "https://tools.usps.com/UspsToolsRestServices/rest/POLocator/findLocations", "@spider": "usps_collection_boxes", "addr:city": "MURFREESBORO", "addr:country": "US", "addr:postcode": "37129", "addr:state": "TN", "addr:street_address": "106 BARFIELD CRESENT RD", "amenity": "post_box", "collection_times": "Mo-Sa 13:00", "note": "ON 12/24 AND 12/31, THIS BOX MAY BE COLLECTED AS EARLY AS 12 NOON.", "nsi_id": "unitedstatespostalservice-a77078", "operator": "United States Postal Service", "operator:short": "USPS", "operator:type": "public", "operator:wikidata": "Q668687", "ref": "3712900027"}, "type": "Feature"}
{"geometry": {"coordinates": [-86.4471965, 35.863686], "type": "Point"}, "id": "NNI-og4Ogq7tUM3Qrdr3kYeUoGE=", "properties": {"@source_uri": "https://tools.usps.com/UspsToolsRestServices/rest/POLocator/findLocations", "@spider": "usps_collection_boxes", "addr:city": "MURFREESBORO", "addr:country": "US", "addr:postcode": "37129", "addr:state": "TN", "addr:street_address": "3055 AVENUE WAY", "amenity": "post_box", "collection_times": "Mo-Sa 13:00", "note": "ON 12/24 AND 12/31, THIS BOX MAY BE COLLECTED AS EARLY AS 12 NOON.", "nsi_id": "unitedstatespostalservice-a77078", "operator": "United States Postal Service", "operator:short": "USPS", "operator:type": "public", "operator:wikidata": "Q668687", "ref": "3712900028"}, "type": "Feature"}
{"geometry": {"coordinates": [-86.382872909, 35.884854124], "type": "Point"}, "id": "hiurCB2drPPv6UXoKlu7p7wXAC0=", "properties": {"@source_uri": "https://tools.usps.com/UspsToolsRestServices/rest/POLocator/findLocations", "@spider": "usps_collection_boxes", "addr:city": "MURFREESBORO", "addr:country": "US", "addr:postcode": "37129", "addr:state": "TN", "addr:street_address": "2255 MEMORIAL BLVD", "amenity": "post_box", "collection_times": "Mo-Fr 17:00", "indoor": "yes", "note": "ON 12/24 AND 12/31, THIS BOX MAY BE COLLECTED AS EARLY AS 12 NOON.", "nsi_id": "unitedstatespostalservice-a77078", "operator": "United States Postal Service", "operator:short": "USPS", "operator:type": "public", "operator:wikidata": "Q668687", "ref": "3712900041"}, "type": "Feature"}
{"geometry": {"coordinates": [-86.445333979, 35.84222799], "type": "Point"}, "id": "uNd9tZpLodAHSY_Se8CPfRPCHSQ=", "properties": {"@source_uri": "https://tools.usps.com/UspsToolsRestServices/rest/POLocator/findLocations", "@spider": "usps_collection_boxes", "addr:city": "MURFREESBORO", "addr:country": "US", "addr:postcode": "37129", "addr:state": "TN", "addr:street_address": "440 SAINT ANDREWS DR", "amenity": "post_box", "collection_times": "Mo-Fr 09:00", "indoor": "yes", "nsi_id": "unitedstatespostalservice-a77078", "operator": "United States Postal Service", "operator:short": "USPS", "operator:type": "public", "operator:wikidata": "Q668687", "ref": "3712900045"}, "type": "Feature"}
{"geometry": {"coordinates": [-86.3919810735, 35.8464764166], "type": "Point"}, "id": "nS55lkhwIuOGtPq2qu2zF-rA3Bg=", "properties": {"@source_uri": "https://tools.usps.com/UspsToolsRestServices/rest/POLocator/findLocations", "@spider": "usps_collection_boxes", "addr:city": "MURFREESBORO", "addr:country": "US", "addr:postcode": "37130", "addr:state": "TN", "addr:street_address": "10 N PUBLIC SQ", "amenity": "post_box", "collection_times": "Mo-Fr 15:00; Sa 13:00", "note": "ON 12/24 AND 12/31, THIS BOX MAY BE COLLECTED AS EARLY AS 12 NOON.", "nsi_id": "unitedstatespostalservice-a77078", "operator": "United States Postal Service", "operator:short": "USPS", "operator:type": "public", "operator:wikidata": "Q668687", "ref": "3713000004"}, "type": "Feature"}
{"geometry": {"coordinates": [-86.3917465912, 35.8455376122], "type": "Point"}, "id": "0-awr7-t99sK9QRxD-V_TpJZ5mY=", "properties": {"@source_uri": "https://tools.usps.com/UspsToolsRestServices/rest/POLocator/findLocations", "@spider": "usps_collection_boxes", "addr:city": "MURFREESBORO", "addr:country": "US", "addr:postcode": "37130", "addr:state": "TN", "addr:street_address": "1 PUBLIC SQ", "amenity": "post_box", "collection_times": "Mo-Fr 15:00; Sa 13:00", "note": "ON 12/24 AND 12/31, THIS BOX MAY BE COLLECTED AS EARLY AS 12 NOON.", "nsi_id": "unitedstatespostalservice-a77078", "operator": "United States Postal Service", "operator:short": "USPS", "operator:type": "public", "operator:wikidata": "Q668687", "ref": "3713000005"}, "type": "Feature"}
{"geometry": {"coordinates": [-86.3911871, 35.837838], "type": "Point"}, "id": "9TzX5HYsctJ5M09cCiZvbPlTkoQ=", "properties": {"@source_uri": "https://tools.usps.com/UspsToolsRestServices/rest/POLocator/findLocations", "@spider": "usps_collection_boxes", "addr:city": "MURFREESBORO", "addr:country": "US", "addr:postcode": "37130", "addr:state": "TN", "addr:street_address": "805 S CHURCH ST", "amenity": "post_box", "collection_times": "Mo-Fr 15:00; Sa 13:00", "note": "ON 12/24 AND 12/31, THIS BOX MAY BE COLLECTED AS EARLY AS 12 NOON.", "nsi_id": "unitedstatespostalservice-a77078", "operator": "United States Postal Service", "operator:short": "USPS", "operator:type": "public", "operator:wikidata": "Q668687", "ref": "3713000011"}, "type": "Feature"}
{"geometry": {"coordinates": [-86.3917129189, 35.846490814], "type": "Point"}, "id": "v_aP7A_kKGHFUE6oWPYo0WeF50Q=", "properties": {"@source_uri": "https://tools.usps.com/UspsToolsRestServices/rest/POLocator/findLocations", "@spider": "usps_collection_boxes", "addr:city": "MURFREESBORO", "addr:country": "US", "addr:postcode": "37130", "addr:state": "TN", "addr:street_address": "26 N PUBLIC SQ", "amenity": "post_box", "collection_times": "Mo-Fr 15:00; Sa 13:00", "note": "ON 12/24 AND 12/31, THIS BOX MAY BE COLLECTED AS EARLY AS 12 NOON.", "nsi_id": "unitedstatespostalservice-a77078", "operator": "United States Postal Service", "operator:short": "USPS", "operator:type": "public", "operator:wikidata": "Q668687", "ref": "3713000014"}, "type": "Feature"}
{"geometry": {"coordinates": [-86.3753595, 35.831231], "type": "Point"}, "id": "oO7wiZb5UIhoER71wPdycsd9qus=", "properties": {"@source_uri": "https://tools.usps.com/UspsToolsRestServices/rest/POLocator/findLocations", "@spider": "usps_collection_boxes", "addr:city": "MURFREESBORO", "addr:country": "US", "addr:postcode": "37130", "addr:state": "TN", "addr:street_address": "1622 MIDDLE TENNESSEE BLVD", "amenity": "post_box", "collection_times": "Mo-Fr 15:00; Sa 13:00", "note": "ON 12/24 AND 12/31, THIS BOX MAY BE COLLECTED AS EARLY AS 12 NOON.", "nsi_id": "unitedstatespostalservice-a77078", "operator": "United States Postal Service", "operator:short": "USPS", "operator:type": "public", "operator:wikidata": "Q668687", "ref": "3713000016"}, "type": "Feature"}
{"geometry": {"coordinates": [-86.3808531, 35.848493], "type": "Point"}, "id": "-pP8xzZ1ptqwzOtkdB4iKvKVMuA=", "properties": {"@source_uri": "https://tools.usps.com/UspsToolsRestServices/rest/POLocator/findLocations", "@spider": "usps_collection_boxes", "addr:city": "MURFREESBORO", "addr:country": "US", "addr:postcode": "37130", "addr:state": "TN", "addr:street_address": "420 N UNIVERSITY ST", "amenity": "post_box", "collection_times": "Mo-Sa 13:00", "note": "ON 12/24 AND 12/31, THIS BOX MAY BE COLLECTED AS EARLY AS 12 NOON.", "nsi_id": "unitedstatespostalservice-a77078", "operator": "United States Postal Service", "operator:short": "USPS", "operator:type": "public", "operator:wikidata": "Q668687", "ref": "3713000021"}, "type": "Feature"}
{"geometry": {"coordinates": [-86.3895013067, 35.8458093772], "type": "Point"}, "id": "rwKefLH2--bHw_4KXXHkcNTrPWU=", "properties": {"@source_uri": "https://tools.usps.com/UspsToolsRestServices/rest/POLocator/findLocations", "@spider": "usps_collection_boxes", "addr:city": "MURFREESBORO", "addr:country": "US", "addr:postcode": "37130", "addr:state": "TN", "addr:street_address": "201 E MAIN ST", "amenity": "post_box", "collection_times": "Mo-Fr 15:00; Sa 13:00", "note": "ON 12/24 AND 12/31, THIS BOX MAY BE COLLECTED AS EARLY AS 12 NOON.", "nsi_id": "unitedstatespostalservice-a77078", "operator": "United States Postal Service", "operator:short": "USPS", "operator:type": "public", "operator:wikidata": "Q668687", "ref": "3713000034"}, "type": "Feature"}
{"geometry": {"coordinates": [-86.3908790765, 35.8459433839], "type": "Point"}, "id": "NdG_i0aWeJ7ihDn-gET2T2mSiMU=", "properties": {"@source_uri": "https://tools.usps.com/UspsToolsRestServices/rest/POLocator/findLocations", "@spider": "usps_collection_boxes", "addr:city": "MURFREESBORO", "addr:country": "US", "addr:postcode": "37130", "addr:state": "TN", "addr:street_address": "111 E MAIN ST", "amenity": "post_box", "collection_times": "Mo-Fr 15:00; Sa 13:00", "note": "ON 12/24 AND 12/31, THIS BOX MAY BE COLLECTED AS EARLY AS 12 NOON.", "nsi_id": "unitedstatespostalservice-a77078", "operator": "United States Postal Service", "operator:short": "USPS", "operator:type": "public", "operator:wikidata": "Q668687", "ref": "3713000036"}, "type": "Feature"}
{"geometry": {"coordinates": [-86.392827, 35.836425], "type": "Point"}, "id": "OCV5TGeDZ-s5BnXH1HCz4cqNxYo=", "properties": {"@source_uri": "https://tools.usps.com/UspsToolsRestServices/rest/POLocator/findLocations", "@spider": "usps_collection_boxes", "addr:city": "MURFREESBORO", "addr:country": "US", "addr:postcode": "37130", "addr:state": "TN", "addr:street_address": "825 S CHURCH ST", "amenity": "post_box", "collection_times": "Mo-Fr 17:00; Sa 13:00", "note": "ON 12/24 AND 12/31, THIS BOX MAY BE COLLECTED AS EARLY AS 12 NOON.", "nsi_id": "unitedstatespostalservice-a77078", "operator": "United States Postal Service", "operator:short": "USPS", "operator:type": "public", "operator:wikidata": "Q668687", "ref": "3713000037"}, "type": "Feature"}
{"geometry": {"coordinates": [-86.39285, 35.836514], "type": "Point"}, "id": "olFqM3Jadj9lEZPuAycDzww87jM=", "properties": {"@source_uri": "https://tools.usps.com/UspsToolsRestServices/rest/POLocator/findLocations", "@spider": "usps_collection_boxes", "addr:city": "MURFREESBORO", "addr:country": "US", "addr:postcode": "37130", "addr:state": "TN", "addr:street_address": "825 S CHURCH ST", "amenity": "post_box", "collection_times": "Mo-Fr 17:00; Sa 13:00", "indoor": "yes", "note": "ON 12/24 AND 12/31, THIS BOX MAY BE COLLECTED AS EARLY AS 12 NOON.", "nsi_id": "unitedstatespostalservice-a77078", "operator": "United States Postal Service", "operator:short": "USPS", "operator:type": "public", "operator:wikidata": "Q668687", "ref": "3713000040"}, "type": "Feature"}
{"geometry": {"coordinates": [-86.3922964672, 35.8487094863], "type": "Point"}, "id": "8OWu2Y-G8CprfJU2_k-khn30Mcs=", "properties": {"@source_uri": "https://tools.usps.com/UspsToolsRestServices/rest/POLocator/findLocations", "@spider": "usps_collection_boxes", "addr:city": "MURFREESBORO", "addr:country": "US", "addr:postcode": "37130", "addr:state": "TN", "addr:street_address": "319 N MAPLE ST", "amenity": "post_box", "collection_times": "Mo-Fr 15:00; Sa 13:00", "note": "ON 12/24 AND 12/31, THIS BOX MAY BE COLLECTED AS EARLY AS 12 NOON.", "nsi_id": "unitedstatespostalservice-a77078", "operator": "United States Postal Service", "operator:short": "USPS", "operator:type": "public", "operator:wikidata": "Q668687", "ref": "3713000041"}, "type": "Feature"}
{"geometry": {"coordinates": [-86.3687505, 35.812941], "type": "Point"}, "id": "Y0wkE12T2u82e4UM-j0zRhrNqm0=", "properties": {"@source_uri": "https://tools.usps.com/UspsToolsRestServices/rest/POLocator/findLocations", "@spider": "usps_collection_boxes", "addr:city": "MURFREESBORO", "addr:country": "US", "addr:postcode": "37130", "addr:state": "TN", "addr:street_address": "1715 S RUTHERFORD BLVD", "amenity": "post_box", "collection_times": "Mo-Fr 14:45; Sa 13:00", "note": "ON 12/24 AND 12/31, THIS BOX MAY BE COLLECTED AS EARLY AS 12 NOON.", "nsi_id": "unitedstatespostalservice-a77078", "operator": "United States Postal Service", "operator:short": "USPS", "operator:type": "public", "operator:wikidata": "Q668687", "ref": "3713000043"}, "type": "Feature"}
{"geometry": {"coordinates": [-86.39285, 35.836514], "type": "Point"}, "id": "yhJHk7TxeePMEVLtG71kfAmt260=", "properties": {"@source_uri": "https://tools.usps.com/UspsToolsRestServices/rest/POLocator/findLocations", "@spider": "usps_collection_boxes", "addr:city": "MURFREESBORO", "addr:country": "US", "addr:postcode": "37130", "addr:state": "TN", "addr:street_address": "825 S CHURCH ST", "amenity": "post_box", "collection_times": "Mo-Fr 17:00; Sa 13:00", "name": "USPS COLLECTION BOX - APC", "note": "ON 12/24 AND 12/31, THIS BOX MAY BE COLLECTED AS EARLY AS 12 NOON.", "nsi_id": "unitedstatespostalservice-a77078", "operator": "United States Postal Service", "operator:short": "USPS", "operator:type": "public", "operator:wikidata": "Q668687", "ref": "3713000044"}, "type": "Feature"}
{"geometry": {"coordinates": [-86.392949134, 35.835784], "type": "Point"}, "id": "GOjcYIGHOyhLgUm59pkFUAFmbC8=", "properties": {"@source_uri": "https://tools.usps.com/UspsToolsRestServices/rest/POLocator/findLocations", "@spider": "usps_collection_boxes", "addr:city": "MURFREESBORO", "addr:country": "US", "addr:postcode": "37130", "addr:state": "TN", "addr:street_address": "825 S CHURCH ST", "amenity": "post_box", "collection_times": "Mo-Fr 17:00", "indoor": "yes", "note": "ON 12/24 AND 12/31, THIS BOX MAY BE COLLECTED AS EARLY AS 12 NOON.", "nsi_id": "unitedstatespostalservice-a77078", "operator": "United States Postal Service", "operator:short": "USPS", "operator:type": "public", "operator:wikidata": "Q668687", "ref": "3713000050"}, "type": "Feature"}
{"geometry": {"coordinates": [-86.370748136, 35.843442064], "type": "Point"}, "id": "TeLqIxFN4DmbOWj0aBg5T9EMSc4=", "properties": {"@source_uri": "https://tools.usps.com/UspsToolsRestServices/rest/POLocator/findLocations", "@spider": "usps_collection_boxes", "addr:city": "MURFREESBORO", "addr:country": "US", "addr:postcode": "37132", "addr:state": "TN", "addr:street_address": "1301 E MAIN ST", "amenity": "post_box", "collection_times": "Mo-Fr 15:00; Sa 13:00", "note": "ON 12/24 AND 12/31, THIS BOX MAY BE COLLECTED AS EARLY AS 12 NOON.", "nsi_id": "unitedstatespostalservice-a77078", "operator": "United States Postal Service", "operator:short": "USPS", "operator:type": "public", "operator:wikidata": "Q668687", "ref": "3713200001"}, "type": "Feature"}
{"geometry": {"coordinates": [-86.370748136, 35.843442064], "type": "Point"}, "id": "OWJdmesp49AwbXvb1gz-A6_b5lw=", "properties": {"@source_uri": "https://tools.usps.com/UspsToolsRestServices/rest/POLocator/findLocations", "@spider": "usps_collection_boxes", "addr:city": "MURFREESBORO", "addr:country": "US", "addr:postcode": "37132", "addr:state": "TN", "addr:street_address": "1301 E MAIN ST", "amenity": "post_box", "collection_times": "Mo-Fr 15:00; Sa 13:00", "indoor": "yes", "note": "ON 12/24 AND 12/31, THIS BOX MAY BE COLLECTED AS EARLY AS 12 NOON.", "nsi_id": "unitedstatespostalservice-a77078", "operator": "United States Postal Service", "operator:short": "USPS", "operator:type": "public", "operator:wikidata": "Q668687", "ref": "3713200003"}, "type": "Feature"}
{"geometry": {"coordinates": [-87.968689, 36.020437], "type": "Point"}, "id": "zj43ZRRCCdjW26JT6KsE_R8NWgE=", "properties": {"@source_uri": "https://tools.usps.com/UspsToolsRestServices/rest/POLocator/findLocations", "@spider": "usps_collection_boxes", "addr:city": "NEW JOHSONVLE", "addr:country": "US", "addr:postcode": "37134", "addr:state": "TN", "addr:street_address": "556 BROADWAY AVE", "amenity": "post_box", "collection_times": "Mo-Fr 16:00; Sa 12:00", "indoor": "yes", "note": "ON 12/24 AND 12/31, THIS BOX MAY BE COLLECTED AS EARLY AS 12 NOON.", "nsi_id": "unitedstatespostalservice-a77078", "operator": "United States Postal Service", "operator:short": "USPS", "operator:type": "public", "operator:wikidata": "Q668687", "ref": "3713400001"}, "type": "Feature"}
{"geometry": {"coordinates": [-87.968684, 36.020467], "type": "Point"}, "id": "tLBS1nPCPm_z1hmeit6T57g5kow=", "properties": {"@source_uri": "https://tools.usps.com/UspsToolsRestServices/rest/POLocator/findLocations", "@spider": "usps_collection_boxes", "addr:city": "NEW JOHSONVLE", "addr:country": "US", "addr:postcode": "37134", "addr:state": "TN", "addr:street_address": "556 BROADWAY AVE", "amenity": "post_box", "collection_times": "Mo-Fr 14:00; Sa 12:00", "note": "ON 12/24 AND 12/31, THIS BOX MAY BE COLLECTED AS EARLY AS 12 NOON.", "nsi_id": "unitedstatespostalservice-a77078", "operator": "United States Postal Service", "operator:short": "USPS", "operator:type": "public", "operator:wikidata": "Q668687", "ref": "3713400003"}, "type": "Feature"}
{"geometry": {"coordinates": [-87.967529003, 36.019968007], "type": "Point"}, "id": "c9VEHLeb64_AkuedqpD6_NEYWNQ=", "properties": {"@source_uri": "https://tools.usps.com/UspsToolsRestServices/rest/POLocator/findLocations", "@spider": "usps_collection_boxes", "addr:city": "NEW JOHSONVLE", "addr:country": "US", "addr:postcode": "37134", "addr:state": "TN", "addr:street_address": "556 BROADWAY AVE", "amenity": "post_box", "collection_times": "Mo-Fr 16:00", "indoor": "yes", "note": "ON 12/24 AND 12/31, THIS BOX MAY BE COLLECTED AS EARLY AS 12 NOON.", "nsi_id": "unitedstatespostalservice-a77078", "operator": "United States Postal Service", "operator:short": "USPS", "operator:type": "public", "operator:wikidata": "Q668687", "ref": "3713400004"}, "type": "Feature"}
{"geometry": {"coordinates": [-86.672906, 35.961661], "type": "Point"}, "id": "4j3ZA7hbzHJ-ekr1p8_ZGEEeMf4=", "properties": {"@source_uri": "https://tools.usps.com/UspsToolsRestServices/rest/POLocator/findLocations", "@spider": "usps_collection_boxes", "addr:city": "NOLENSVILLE", "addr:country": "US", "addr:postcode": "37135", "addr:state": "TN", "addr:street_address": "923 OLDHAM DR", "amenity": "post_box", "collection_times": "Mo-Fr 16:30; Sa 12:00", "indoor": "yes", "note": "ON 12/24 AND 12/31, THIS BOX MAY BE COLLECTED AS EARLY AS 12 NOON.", "nsi_id": "unitedstatespostalservice-a77078", "operator": "United States Postal Service", "operator:short": "USPS", "operator:type": "public", "operator:wikidata": "Q668687", "ref": "3713500001"}, "type": "Feature"}
{"geometry": {"coordinates": [-86.668315, 35.962035], "type": "Point"}, "id": "906psadHRFfWVsfZqiJh0LuA2jc=", "properties": {"@source_uri": "https://tools.usps.com/UspsToolsRestServices/rest/POLocator/findLocations", "@spider": "usps_collection_boxes", "addr:city": "NOLENSVILLE", "addr:country": "US", "addr:postcode": "37135", "addr:state": "TN", "addr:street_address": "923 OLDHAM DR", "amenity": "post_box", "collection_times": "Mo-Fr 16:30; Sa 12:00", "note": "ON 12/24 AND 12/31, THIS BOX MAY BE COLLECTED AS EARLY AS 12 NOON.", "nsi_id": "unitedstatespostalservice-a77078", "operator": "United States Postal Service", "operator:short": "USPS", "operator:type": "public", "operator:wikidata": "Q668687", "ref": "3713500002"}, "type": "Feature"}
{"geometry": {"coordinates": [-86.671996695, 35.961887001], "type": "Point"}, "id": "xAsoiimq05IbG8WPNpzhB-xGMKo=", "properties": {"@source_uri": "https://tools.usps.com/UspsToolsRestServices/rest/POLocator/findLocations", "@spider": "usps_collection_boxes", "addr:city": "NOLENSVILLE", "addr:country": "US", "addr:postcode": "37135", "addr:state": "TN", "addr:street_address": "923 OLDHAM DR", "amenity": "post_box", "collection_times": "Mo-Fr 16:30", "indoor": "yes", "note": "ON 12/24 AND 12/31, THIS BOX MAY BE COLLECTED AS EARLY AS 12 NOON.", "nsi_id": "unitedstatespostalservice-a77078", "operator": "United States Postal Service", "operator:short": "USPS", "operator:type": "public", "operator:wikidata": "Q668687", "ref": "3713500003"}, "type": "Feature"}
{"geometry": {"coordinates": [-86.242211283, 36.056924948], "type": "Point"}, "id": "bnSOhGLPmt0Edcd3lmXX-xWT2_U=", "properties": {"@source_uri": "https://tools.usps.com/UspsToolsRestServices/rest/POLocator/findLocations", "@spider": "usps_collection_boxes", "addr:city": "NORENE", "addr:country": "US", "addr:postcode": "37136", "addr:state": "TN", "addr:street_address": "11185 CAINSVILLE RD", "amenity": "post_box", "collection_times": "Mo-Fr 10:30", "nsi_id": "unitedstatespostalservice-a77078", "operator": "United States Postal Service", "operator:short": "USPS", "operator:type": "public", "operator:wikidata": "Q668687", "ref": "3713600004"}, "type": "Feature"}
{"geometry": {"coordinates": [-86.242211283, 36.056924948], "type": "Point"}, "id": "bC_z5D4sITCgDCWiZZh0nUbQzsg=", "properties": {"@source_uri": "https://tools.usps.com/UspsToolsRestServices/rest/POLocator/findLocations", "@spider": "usps_collection_boxes", "addr:city": "NORENE", "addr:country": "US", "addr:postcode": "37136", "addr:state": "TN", "addr:street_address": "11185 CAINSVILLE RD", "amenity": "post_box", "collection_times": "Mo-Fr 10:30", "indoor": "yes", "nsi_id": "unitedstatespostalservice-a77078", "operator": "United States Postal Service", "operator:short": "USPS", "operator:type": "public", "operator:wikidata": "Q668687", "ref": "3713600005"}, "type": "Feature"}
{"geometry": {"coordinates": [-87.468868, 35.859312], "type": "Point"}, "id": "omzpeii00-gYzI8ce79H-40KyHw=", "properties": {"@source_uri": "https://tools.usps.com/UspsToolsRestServices/rest/POLocator/findLocations", "@spider": "usps_collection_boxes", "addr:city": "NUNNELLY", "addr:country": "US", "addr:postcode": "37137", "addr:state": "TN", "addr:street_address": "3250 HIGHWAY 48 N", "amenity": "post_box", "collection_times": "Mo-Fr 15:00; Sa 10:00", "indoor": "yes", "note": "ON 12/24 AND 12/31, THIS BOX MAY BE COLLECTED AS EARLY AS 12 NOON.", "nsi_id": "unitedstatespostalservice-a77078", "operator": "United States Postal Service", "operator:short": "USPS", "operator:type": "public", "operator:wikidata": "Q668687", "ref": "3713700001"}, "type": "Feature"}
{"geometry": {"coordinates": [-87.468888, 35.859403], "type": "Point"}, "id": "QXmFTDEnBYGRgL9e0zVjP-3rGMI=", "properties": {"@source_uri": "https://tools.usps.com/UspsToolsRestServices/rest/POLocator/findLocations", "@spider": "usps_collection_boxes", "addr:city": "NUNNELLY", "addr:country": "US", "addr:postcode": "37137", "addr:state": "TN", "addr:street_address": "3250 HIGHWAY 48 N", "amenity": "post_box", "collection_times": "Mo-Fr 15:00; Sa 10:00", "note": "ON 12/24 AND 12/31, THIS BOX MAY BE COLLECTED AS EARLY AS 12 NOON.", "nsi_id": "unitedstatespostalservice-a77078", "operator": "United States Postal Service", "operator:short": "USPS", "operator:type": "public", "operator:wikidata": "Q668687", "ref": "3713700002"}, "type": "Feature"}
{"geometry": {"coordinates": [-87.468849328, 35.858979303], "type": "Point"}, "id": "WUSgFVCOfidHaLx74fIURX7vjkk=", "properties": {"@source_uri": "https://tools.usps.com/UspsToolsRestServices/rest/POLocator/findLocations", "@spider": "usps_collection_boxes", "addr:city": "NUNNELLY", "addr:country": "US", "addr:postcode": "37137", "addr:state": "TN", "addr:street_address": "3250 HIGHWAY 48 N", "amenity": "post_box", "collection_times": "Mo-Fr 15:00", "indoor": "yes", "note": "ON 12/24 AND 12/31, THIS BOX MAY BE COLLECTED AS EARLY AS 12 NOON.", "nsi_id": "unitedstatespostalservice-a77078", "operator": "United States Postal Service", "operator:short": "USPS", "operator:type": "public", "operator:wikidata": "Q668687", "ref": "3713700003"}, "type": "Feature"}
{"geometry": {"coordinates": [-86.650255, 36.25999], "type": "Point"}, "id": "5qaas-rdQK8HyC9alDPx2IkRmu8=", "properties": {"@source_uri": "https://tools.usps.com/UspsToolsRestServices/rest/POLocator/findLocations", "@spider": "usps_collection_boxes", "addr:city": "OLD HICKORY", "addr:country": "US", "addr:postcode": "37138", "addr:state": "TN", "addr:street_address": "4337 SAUNDERSVILLE RD", "amenity": "post_box", "collection_times": "Mo-Sa 13:00", "note": "ON 12/24 AND 12/31, THIS BOX MAY BE COLLECTED AS EARLY AS 12 NOON.", "nsi_id": "unitedstatespostalservice-a77078", "operator": "United States Postal Service", "operator:short": "USPS", "operator:type": "public", "operator:wikidata": "Q668687", "ref": "3713800005"}, "type": "Feature"}
{"geometry": {"coordinates": [-86.5663803, 36.220051], "type": "Point"}, "id": "Yd-c18EvqQ5qkS9eLA6fQJK0eII=", "properties": {"@source_uri": "https://tools.usps.com/UspsToolsRestServices/rest/POLocator/findLocations", "@spider": "usps_collection_boxes", "addr:city": "OLD HICKORY", "addr:country": "US", "addr:postcode": "37138", "addr:state": "TN", "addr:street_address": "14000 LEBANON RD", "amenity": "post_box", "collection_times": "Mo-Sa 13:30", "note": "ON 12/24 AND 12/31, THIS BOX MAY BE COLLECTED AS EARLY AS 12 NOON.", "nsi_id": "unitedstatespostalservice-a77078", "operator": "United States Postal Service", "operator:short": "USPS", "operator:type": "public", "operator:wikidata": "Q668687", "ref": "3713800006"}, "type": "Feature"}
{"geometry": {"coordinates": [-86.6543278, 36.256317], "type": "Point"}, "id": "yvSHR3dKUel7hpZxPVSJSBlyJ3Q=", "properties": {"@source_uri": "https://tools.usps.com/UspsToolsRestServices/rest/POLocator/findLocations", "@spider": "usps_collection_boxes", "addr:city": "OLD HICKORY", "addr:country": "US", "addr:postcode": "37138", "addr:state": "TN", "addr:street_address": "1471 ROBINSON RD", "amenity": "post_box", "collection_times": "Mo-Sa 12:00", "nsi_id": "unitedstatespostalservice-a77078", "operator": "United States Postal Service", "operator:short": "USPS", "operator:type": "public", "operator:wikidata": "Q668687", "ref": "3713800007"}, "type": "Feature"}
{"geometry": {"coordinates": [-86.6251613, 36.220719], "type": "Point"}, "id": "FGEp8bxzOQk4h9f0Vry1LmhcuFY=", "properties": {"@source_uri": "https://tools.usps.com/UspsToolsRestServices/rest/POLocator/findLocations", "@spider": "usps_collection_boxes", "addr:city": "OLD HICKORY", "addr:country": "US", "addr:postcode": "37138", "addr:state": "TN", "addr:street_address": "4300 OLD HICKORY BLVD", "amenity": "post_box", "collection_times": "Mo-Sa 14:00", "note": "ON 12/24 AND 12/31, THIS BOX MAY BE COLLECTED AS EARLY AS 12 NOON.", "nsi_id": "unitedstatespostalservice-a77078", "operator": "United States Postal Service", "operator:short": "USPS", "operator:type": "public", "operator:wikidata": "Q668687", "ref": "3713800014"}, "type": "Feature"}
{"geometry": {"coordinates": [-86.649819, 36.264094], "type": "Point"}, "id": "DknNPMF00yRSZAkosbmw9E7TVM0=", "properties": {"@source_uri": "https://tools.usps.com/UspsToolsRestServices/rest/POLocator/findLocations", "@spider": "usps_collection_boxes", "addr:city": "OLD HICKORY", "addr:country": "US", "addr:postcode": "37138", "addr:state": "TN", "addr:street_address": "1101 DONELSON AVE", "amenity": "post_box", "collection_times": "Mo-Fr 16:30; Sa 12:00", "indoor": "yes", "note": "ON 12/24 AND 12/31, THIS BOX MAY BE COLLECTED AS EARLY AS 12 NOON.", "nsi_id": "unitedstatespostalservice-a77078", "operator": "United States Postal Service", "operator:short": "USPS", "operator:type": "public", "operator:wikidata": "Q668687", "ref": "3713800017"}, "type": "Feature"}
{"geometry": {"coordinates": [-86.649860011, 36.26405051], "type": "Point"}, "id": "EUqVai_bjIFrV6pgy7pywbWh578=", "properties": {"@source_uri": "https://tools.usps.com/UspsToolsRestServices/rest/POLocator/findLocations", "@spider": "usps_collection_boxes", "addr:city": "OLD HICKORY", "addr:country": "US", "addr:postcode": "37138", "addr:state": "TN", "addr:street_address": "1101 DONELSON AVE", "amenity": "post_box", "collection_times": "Mo-Fr 16:30", "indoor": "yes", "note": "ON 12/24 AND 12/31, THIS BOX MAY BE COLLECTED AS EARLY AS 12 NOON.", "nsi_id": "unitedstatespostalservice-a77078", "operator": "United States Postal Service", "operator:short": "USPS", "operator:type": "public", "operator:wikidata": "Q668687", "ref": "3713800018"}, "type": "Feature"}
{"geometry": {"coordinates": [-86.711479, 36.598996], "type": "Point"}, "id": "mieloCZNnf54_ZtGSbIG5RreSnQ=", "properties": {"@source_uri": "https://tools.usps.com/UspsToolsRestServices/rest/POLocator/findLocations", "@spider": "usps_collection_boxes", "addr:city": "ORLINDA", "addr:country": "US", "addr:postcode": "37141", "addr:state": "TN", "addr:street_address": "7503 HIGHWAY 52", "amenity": "post_box", "collection_times": "Mo-Fr 12:00; Sa 11:30", "indoor": "yes", "nsi_id": "unitedstatespostalservice-a77078", "operator": "United States Postal Service", "operator:short": "USPS", "operator:type": "public", "operator:wikidata": "Q668687", "ref": "3714100001"}, "type": "Feature"}
{"geometry": {"coordinates": [-86.711543, 36.599007], "type": "Point"}, "id": "WJW0XHh6EQpLVqwo0X3E8CiVZSA=", "properties": {"@source_uri": "https://tools.usps.com/UspsToolsRestServices/rest/POLocator/findLocations", "@spider": "usps_collection_boxes", "addr:city": "ORLINDA", "addr:country": "US", "addr:postcode": "37141", "addr:state": "TN", "addr:street_address": "7503 HIGHWAY 52", "amenity": "post_box", "collection_times": "Mo-Fr 12:00; Sa 11:30", "nsi_id": "unitedstatespostalservice-a77078", "operator": "United States Postal Service", "operator:short": "USPS", "operator:type": "public", "operator:wikidata": "Q668687", "ref": "3714100002"}, "type": "Feature"}
{"geometry": {"coordinates": [-86.711666043, 36.598943219], "type": "Point"}, "id": "dsZrxrqYj3_t-SpQGNcxlECEk9c=", "properties": {"@source_uri": "https://tools.usps.com/UspsToolsRestServices/rest/POLocator/findLocations", "@spider": "usps_collection_boxes", "addr:city": "ORLINDA", "addr:country": "US", "addr:postcode": "37141", "addr:state": "TN", "addr:street_address": "7503 HIGHWAY 52", "amenity": "post_box", "collection_times": "Mo-Fr 12:00", "indoor": "yes", "nsi_id": "unitedstatespostalservice-a77078", "operator": "United States Postal Service", "operator:short": "USPS", "operator:type": "public", "operator:wikidata": "Q668687", "ref": "3714100003"}, "type": "Feature"}
{"geometry": {"coordinates": [-87.052854, 36.101536], "type": "Point"}, "id": "HXhNA2QZcqcx0DD_6xzN_IWy04s=", "properties": {"@source_uri": "https://tools.usps.com/UspsToolsRestServices/rest/POLocator/findLocations", "@spider": "usps_collection_boxes", "addr:city": "PEGRAM", "addr:country": "US", "addr:postcode": "37143", "addr:state": "TN", "addr:street_address": "502 HIGHWAY 70", "amenity": "post_box", "collection_times": "Mo-Fr 15:30; Sa 10:30", "indoor": "yes", "note": "ON 12/24 AND 12/31, THIS BOX MAY BE COLLECTED AS EARLY AS 12 NOON.", "nsi_id": "unitedstatespostalservice-a77078", "operator": "United States Postal Service", "operator:short": "USPS", "operator:type": "public", "operator:wikidata": "Q668687", "ref": "3714300001"}, "type": "Feature"}
{"geometry": {"coordinates": [-87.052804, 36.101473], "type": "Point"}, "id": "h2F1QT9RQ0itaLmLrwNF7jaMtTs=", "properties": {"@source_uri": "https://tools.usps.com/UspsToolsRestServices/rest/POLocator/findLocations", "@spider": "usps_collection_boxes", "addr:city": "PEGRAM", "addr:country": "US", "addr:postcode": "37143", "addr:state": "TN", "addr:street_address": "502 HIGHWAY 70", "amenity": "post_box", "collection_times": "Mo-Fr 15:30; Sa 10:30", "note": "ON 12/24 AND 12/31, THIS BOX MAY BE COLLECTED AS EARLY AS 12 NOON.", "nsi_id": "unitedstatespostalservice-a77078", "operator": "United States Postal Service", "operator:short": "USPS", "operator:type": "public", "operator:wikidata": "Q668687", "ref": "3714300002"}, "type": "Feature"}
{"geometry": {"coordinates": [-87.0529060378, 36.1020329996], "type": "Point"}, "id": "hYjgJ1I92QsV3gSMegedzoDMS9w=", "properties": {"@source_uri": "https://tools.usps.com/UspsToolsRestServices/rest/POLocator/findLocations", "@spider": "usps_collection_boxes", "addr:city": "PEGRAM", "addr:country": "US", "addr:postcode": "37143", "addr:state": "TN", "addr:street_address": "502 HIGHWAY 70", "amenity": "post_box", "collection_times": "Mo-Fr 15:30", "indoor": "yes", "note": "ON 12/24 AND 12/31, THIS BOX MAY BE COLLECTED AS EARLY AS 12 NOON.", "nsi_id": "unitedstatespostalservice-a77078", "operator": "United States Postal Service", "operator:short": "USPS", "operator:type": "public", "operator:wikidata": "Q668687", "ref": "3714300003"}, "type": "Feature"}
{"geometry": {"coordinates": [-86.637376, 35.320152], "type": "Point"}, "id": "Vw8FvI_v1Ux39blybrHcFjthBqE=", "properties": {"@source_uri": "https://tools.usps.com/UspsToolsRestServices/rest/POLocator/findLocations", "@spider": "usps_collection_boxes", "addr:city": "PETERSBURG", "addr:country": "US", "addr:postcode": "37144", "addr:state": "TN", "addr:street_address": "100 NORTHSIDE SQ", "amenity": "post_box", "collection_times": "Mo-Fr 14:30; Sa 12:00", "note": "ON 12/24 AND 12/31, THIS BOX MAY BE COLLECTED AS EARLY AS 12 NOON.", "nsi_id": "unitedstatespostalservice-a77078", "operator": "United States Postal Service", "operator:short": "USPS", "operator:type": "public", "operator:wikidata": "Q668687", "ref": "3714400000"}, "type": "Feature"}
{"geometry": {"coordinates": [-86.637488, 35.320133], "type": "Point"}, "id": "LqeNr0BtNRCrPnuvr_2iW7YnqfU=", "properties": {"@source_uri": "https://tools.usps.com/UspsToolsRestServices/rest/POLocator/findLocations", "@spider": "usps_collection_boxes", "addr:city": "PETERSBURG", "addr:country": "US", "addr:postcode": "37144", "addr:state": "TN", "addr:street_address": "100 NORTHSIDE SQ", "amenity": "post_box", "collection_times": "Mo-Fr 14:30; Sa 12:00", "indoor": "yes", "note": "ON 12/24 AND 12/31, THIS BOX MAY BE COLLECTED AS EARLY AS 12 NOON.", "nsi_id": "unitedstatespostalservice-a77078", "operator": "United States Postal Service", "operator:short": "USPS", "operator:type": "public", "operator:wikidata": "Q668687", "ref": "3714400001"}, "type": "Feature"}
{"geometry": {"coordinates": [-86.6373089825, 35.3202370067], "type": "Point"}, "id": "7vrlLqr1PnXczz7YmaBP9mb6ii4=", "properties": {"@source_uri": "https://tools.usps.com/UspsToolsRestServices/rest/POLocator/findLocations", "@spider": "usps_collection_boxes", "addr:city": "PETERSBURG", "addr:country": "US", "addr:postcode": "37144", "addr:state": "TN", "addr:street_address": "100 NORTHSIDE SQ", "amenity": "post_box", "collection_times": "Mo-Fr 14:30", "indoor": "yes", "note": "ON 12/24 AND 12/31, THIS BOX MAY BE COLLECTED AS EARLY AS 12 NOON.", "nsi_id": "unitedstatespostalservice-a77078", "operator": "United States Postal Service", "operator:short": "USPS", "operator:type": "public", "operator:wikidata": "Q668687", "ref": "3714400002"}, "type": "Feature"}
{"geometry": {"coordinates": [-85.949037, 36.379153], "type": "Point"}, "id": "sR-YDvHB5Pn2aqZnTbCEJTyyXK4=", "properties": {"@source_uri": "https://tools.usps.com/UspsToolsRestServices/rest/POLocator/findLocations", "@spider": "usps_collection_boxes", "addr:city": "PLEASANT SHADE", "addr:country": "US", "addr:postcode": "37145", "addr:state": "TN", "addr:street_address": "19 POST OFFICE LN", "amenity": "post_box", "collection_times": "Mo-Fr 11:00; Sa 10:45", "nsi_id": "unitedstatespostalservice-a77078", "operator": "United States Postal Service", "operator:short": "USPS", "operator:type": "public", "operator:wikidata": "Q668687", "ref": "3714500002"}, "type": "Feature"}
{"geometry": {"coordinates": [-85.949008838, 36.379297949], "type": "Point"}, "id": "2fN3jgtvBI6Ddpc_8FX_sm0Wk_s=", "properties": {"@source_uri": "https://tools.usps.com/UspsToolsRestServices/rest/POLocator/findLocations", "@spider": "usps_collection_boxes", "addr:city": "PLEASANT SHADE", "addr:country": "US", "addr:postcode": "37145", "addr:state": "TN", "addr:street_address": "19 POST OFFICE LN", "amenity": "post_box", "collection_times": "Mo-Fr 11:00", "indoor": "yes", "nsi_id": "unitedstatespostalservice-a77078", "operator": "United States Postal Service", "operator:short": "USPS", "operator:type": "public", "operator:wikidata": "Q668687", "ref": "3714500003"}, "type": "Feature"}
{"geometry": {"coordinates": [-87.033262, 36.396664], "type": "Point"}, "id": "ZFwpb1ljoUV8FtUvv49VYJE6Mkc=", "properties": {"@source_uri": "https://tools.usps.com/UspsToolsRestServices/rest/POLocator/findLocations", "@spider": "usps_collection_boxes", "addr:city": "PLEASANTVIEW", "addr:country": "US", "addr:postcode": "37146", "addr:state": "TN", "addr:street_address": "2550 HIGHWAY 49 E", "amenity": "post_box", "collection_times": "Mo-Fr 15:30; Sa 12:00", "note": "ON 12/24 AND 12/31, THIS BOX MAY BE COLLECTED AS EARLY AS 12 NOON.", "nsi_id": "unitedstatespostalservice-a77078", "operator": "United States Postal Service", "operator:short": "USPS", "operator:type": "public", "operator:wikidata": "Q668687", "ref": "3714600001"}, "type": "Feature"}
{"geometry": {"coordinates": [-87.033198, 36.396743], "type": "Point"}, "id": "Hnq2-qxbKd42a2c42016JrjNUUk=", "properties": {"@source_uri": "https://tools.usps.com/UspsToolsRestServices/rest/POLocator/findLocations", "@spider": "usps_collection_boxes", "addr:city": "PLEASANTVIEW", "addr:country": "US", "addr:postcode": "37146", "addr:state": "TN", "addr:street_address": "2550 HIGHWAY 49 E", "amenity": "post_box", "collection_times": "Mo-Fr 16:00; Sa 12:00", "indoor": "yes", "note": "ON 12/24 AND 12/31, THIS BOX MAY BE COLLECTED AS EARLY AS 12 NOON.", "nsi_id": "unitedstatespostalservice-a77078", "operator": "United States Postal Service", "operator:short": "USPS", "operator:type": "public", "operator:wikidata": "Q668687", "ref": "3714600002"}, "type": "Feature"}
{"geometry": {"coordinates": [-87.03330437, 36.396635765], "type": "Point"}, "id": "FryQr1ajZoa-cUjOxUbZfCO8gU0=", "properties": {"@source_uri": "https://tools.usps.com/UspsToolsRestServices/rest/POLocator/findLocations", "@spider": "usps_collection_boxes", "addr:city": "PLEASANTVIEW", "addr:country": "US", "addr:postcode": "37146", "addr:state": "TN", "addr:street_address": "2550 HIGHWAY 49 E", "amenity": "post_box", "collection_times": "Mo-Fr 16:00", "indoor": "yes", "note": "ON 12/24 AND 12/31, THIS BOX MAY BE COLLECTED AS EARLY AS 12 NOON.", "nsi_id": "unitedstatespostalservice-a77078", "operator": "United States Postal Service", "operator:short": "USPS", "operator:type": "public", "operator:wikidata": "Q668687", "ref": "3714600004"}, "type": "Feature"}
{"geometry": {"coordinates": [-86.51367, 36.573462], "type": "Point"}, "id": "iTg9GTk8M_JHqLRV-6y96KW3SNU=", "properties": {"@source_uri": "https://tools.usps.com/UspsToolsRestServices/rest/POLocator/findLocations", "@spider": "usps_collection_boxes", "addr:city": "PORTLAND", "addr:country": "US", "addr:postcode": "37148", "addr:state": "TN", "addr:street_address": "130 VILLAGE DR", "amenity": "post_box", "collection_times": "Mo-Fr 17:00; Sa 11:45", "indoor": "yes", "note": "ON 12/24 AND 12/31, THIS BOX MAY BE COLLECTED AS EARLY AS 12 NOON.", "nsi_id": "unitedstatespostalservice-a77078", "operator": "United States Postal Service", "operator:short": "USPS", "operator:type": "public", "operator:wikidata": "Q668687", "ref": "3714800001"}, "type": "Feature"}
{"geometry": {"coordinates": [-86.513581, 36.573505], "type": "Point"}, "id": "30JYZstvUpgyZaHyCPuFpw7FZAE=", "properties": {"@source_uri": "https://tools.usps.com/UspsToolsRestServices/rest/POLocator/findLocations", "@spider": "usps_collection_boxes", "addr:city": "PORTLAND", "addr:country": "US", "addr:postcode": "37148", "addr:state": "TN", "addr:street_address": "130 VILLAGE DR", "amenity": "post_box", "collection_times": "Mo-Fr 17:00; Sa 11:45", "note": "ON 12/24 AND 12/31, THIS BOX MAY BE COLLECTED AS EARLY AS 12 NOON.", "nsi_id": "unitedstatespostalservice-a77078", "operator": "United States Postal Service", "operator:short": "USPS", "operator:type": "public", "operator:wikidata": "Q668687", "ref": "3714800012"}, "type": "Feature"}
{"geometry": {"coordinates": [-86.5211205, 36.587672], "type": "Point"}, "id": "AGMEJJuziByk8D2WAVLeZQSHvAE=", "properties": {"@source_uri": "https://tools.usps.com/UspsToolsRestServices/rest/POLocator/findLocations", "@spider": "usps_collection_boxes", "addr:city": "PORTLAND", "addr:country": "US", "addr:postcode": "37148", "addr:state": "TN", "addr:street_address": "433 N BROADWAY", "amenity": "post_box", "collection_times": "Mo-Sa 09:00", "nsi_id": "unitedstatespostalservice-a77078", "operator": "United States Postal Service", "operator:short": "USPS", "operator:type": "public", "operator:wikidata": "Q668687", "ref": "3714800014"}, "type": "Feature"}
{"geometry": {"coordinates": [-86.513581, 36.573505], "type": "Point"}, "id": "USkegxA8ufiQCZmpaqvaPuPu6eo=", "properties": {"@source_uri": "https://tools.usps.com/UspsToolsRestServices/rest/POLocator/findLocations", "@spider": "usps_collection_boxes", "addr:city": "PORTLAND", "addr:country": "US", "addr:postcode": "37148", "addr:state": "TN", "addr:street_address": "130 VILLAGE DR", "amenity": "post_box", "collection_times": "Mo-Fr 17:00; Sa 11:45", "indoor": "yes", "note": "ON 12/24 AND 12/31, THIS BOX MAY BE COLLECTED AS EARLY AS 12 NOON.", "nsi_id": "unitedstatespostalservice-a77078", "operator": "United States Postal Service", "operator:short": "USPS", "operator:type": "public", "operator:wikidata": "Q668687", "ref": "3714800015"}, "type": "Feature"}
{"geometry": {"coordinates": [-86.513581, 36.573505], "type": "Point"}, "id": "JT1gH8QAPSWaOFowmgKbrkfrHxw=", "properties": {"@source_uri": "https://tools.usps.com/UspsToolsRestServices/rest/POLocator/findLocations", "@spider": "usps_collection_boxes", "addr:city": "PORTLAND", "addr:country": "US", "addr:postcode": "37148", "addr:state": "TN", "addr:street_address": "130 VILLAGE DR", "amenity": "post_box", "collection_times": "Mo-Fr 17:00; Sa 11:45", "indoor": "yes", "note": "ON 12/24 AND 12/31, THIS BOX MAY BE COLLECTED AS EARLY AS 12 NOON.", "nsi_id": "unitedstatespostalservice-a77078", "operator": "United States Postal Service", "operator:short": "USPS", "operator:type": "public", "operator:wikidata": "Q668687", "ref": "3714800016"}, "type": "Feature"}
{"geometry": {"coordinates": [-86.516188044, 36.57411014], "type": "Point"}, "id": "couutUfHCUdyycAept_mywDWDeU=", "properties": {"@source_uri": "https://tools.usps.com/UspsToolsRestServices/rest/POLocator/findLocations", "@spider": "usps_collection_boxes", "addr:city": "PORTLAND", "addr:country": "US", "addr:postcode": "37148", "addr:state": "TN", "addr:street_address": "130 VILLAGE DR", "amenity": "post_box", "collection_times": "Mo-Fr 17:00", "indoor": "yes", "note": "ON 12/24 AND 12/31, THIS BOX MAY BE COLLECTED AS EARLY AS 12 NOON.", "nsi_id": "unitedstatespostalservice-a77078", "operator": "United States Postal Service", "operator:short": "USPS", "operator:type": "public", "operator:wikidata": "Q668687", "ref": "3714800018"}, "type": "Feature"}
{"geometry": {"coordinates": [-86.1620899, 35.7835005], "type": "Point"}, "id": "sb7kBua_vwpTNRvEexoD5Afgv80=", "properties": {"@source_uri": "https://tools.usps.com/UspsToolsRestServices/rest/POLocator/findLocations", "@spider": "usps_collection_boxes", "addr:city": "READYVILLE", "addr:country": "US", "addr:postcode": "37149", "addr:state": "TN", "addr:street_address": "1828 OLD WOODBURY PIKE", "amenity": "post_box", "collection_times": "Mo-Fr 14:15; Sa 11:00", "indoor": "yes", "note": "ON 12/24 AND 12/31, THIS BOX MAY BE COLLECTED AS EARLY AS 12 NOON.", "nsi_id": "unitedstatespostalservice-a77078", "operator": "United States Postal Service", "operator:short": "USPS", "operator:type": "public", "operator:wikidata": "Q668687", "ref": "3714900001"}, "type": "Feature"}
{"geometry": {"coordinates": [-86.1620899, 35.7835005], "type": "Point"}, "id": "kG8re6vHU0HIGQr3pOAhx1kOSoc=", "properties": {"@source_uri": "https://tools.usps.com/UspsToolsRestServices/rest/POLocator/findLocations", "@spider": "usps_collection_boxes", "addr:city": "READYVILLE", "addr:country": "US", "addr:postcode": "37149", "addr:state": "TN", "addr:street_address": "1828 OLD WOODBURY PIKE", "amenity": "post_box", "collection_times": "Mo-Fr 14:15; Sa 11:00", "note": "ON 12/24 AND 12/31, THIS BOX MAY BE COLLECTED AS EARLY AS 12 NOON.", "nsi_id": "unitedstatespostalservice-a77078", "operator": "United States Postal Service", "operator:short": "USPS", "operator:type": "public", "operator:wikidata": "Q668687", "ref": "3714900002"}, "type": "Feature"}
{"geometry": {"coordinates": [-86.1620899, 35.7835005], "type": "Point"}, "id": "xpEx5i4NUAuktQrKDsdohr3oRck=", "properties": {"@source_uri": "https://tools.usps.com/UspsToolsRestServices/rest/POLocator/findLocations", "@spider": "usps_collection_boxes", "addr:city": "READYVILLE", "addr:country": "US", "addr:postcode": "37149", "addr:state": "TN", "addr:street_address": "1828 OLD WOODBURY PIKE", "amenity": "post_box", "collection_times": "Mo-Fr 14:15", "indoor": "yes", "note": "ON 12/24 AND 12/31, THIS BOX MAY BE COLLECTED AS EARLY AS 12 NOON.", "nsi_id": "unitedstatespostalservice-a77078", "operator": "United States Postal Service", "operator:short": "USPS", "operator:type": "public", "operator:wikidata": "Q668687", "ref": "3714900003"}, "type": "Feature"}
{"geometry": {"coordinates": [-85.850411, 36.532815], "type": "Point"}, "id": "EV1L1eKMwO2opBJDRSiXfptuUmY=", "properties": {"@source_uri": "https://tools.usps.com/UspsToolsRestServices/rest/POLocator/findLocations", "@spider": "usps_collection_boxes", "addr:city": "RED BLNG SPGS", "addr:country": "US", "addr:postcode": "37150", "addr:state": "TN", "addr:street_address": "134 MARKET ST", "amenity": "post_box", "collection_times": "Mo-Fr 15:45; Sa 12:00", "indoor": "yes", "note": "ON 12/24 AND 12/31, THIS BOX MAY BE COLLECTED AS EARLY AS 12 NOON.", "nsi_id": "unitedstatespostalservice-a77078", "operator": "United States Postal Service", "operator:short": "USPS", "operator:type": "public", "operator:wikidata": "Q668687", "ref": "3715000001"}, "type": "Feature"}
{"geometry": {"coordinates": [-85.85044, 36.532784], "type": "Point"}, "id": "eWLXvf6thHpzIUT2GeCVRMVaVRo=", "properties": {"@source_uri": "https://tools.usps.com/UspsToolsRestServices/rest/POLocator/findLocations", "@spider": "usps_collection_boxes", "addr:city": "RED BLNG SPGS", "addr:country": "US", "addr:postcode": "37150", "addr:state": "TN", "addr:street_address": "134 MARKET ST", "amenity": "post_box", "collection_times": "Mo-Fr 15:45; Sa 12:00", "note": "ON 12/24 AND 12/31, THIS BOX MAY BE COLLECTED AS EARLY AS 12 NOON.", "nsi_id": "unitedstatespostalservice-a77078", "operator": "United States Postal Service", "operator:short": "USPS", "operator:type": "public", "operator:wikidata": "Q668687", "ref": "3715000002"}, "type": "Feature"}
{"geometry": {"coordinates": [-85.850384976, 36.53280737], "type": "Point"}, "id": "8SKWli1cjLZ447PBsir8keNPMdQ=", "properties": {"@source_uri": "https://tools.usps.com/UspsToolsRestServices/rest/POLocator/findLocations", "@spider": "usps_collection_boxes", "addr:city": "RED BLNG SPGS", "addr:country": "US", "addr:postcode": "37150", "addr:state": "TN", "addr:street_address": "134 MARKET ST", "amenity": "post_box", "collection_times": "Mo-Fr 15:45", "indoor": "yes", "note": "ON 12/24 AND 12/31, THIS BOX MAY BE COLLECTED AS EARLY AS 12 NOON.", "nsi_id": "unitedstatespostalservice-a77078", "operator": "United States Postal Service", "operator:short": "USPS", "operator:type": "public", "operator:wikidata": "Q668687", "ref": "3715000003"}, "type": "Feature"}
{"geometry": {"coordinates": [-86.018732, 36.322007], "type": "Point"}, "id": "lpAnAkIdTXj9VKZxWDs1Eo029h8=", "properties": {"@source_uri": "https://tools.usps.com/UspsToolsRestServices/rest/POLocator/findLocations", "@spider": "usps_collection_boxes", "addr:city": "RIDDLETON", "addr:country": "US", "addr:postcode": "37151", "addr:state": "TN", "addr:street_address": "73 RIDDLETON CIR", "amenity": "post_box", "collection_times": "Mo-Fr 15:45; Sa 12:00", "note": "ON 12/24 AND 12/31, THIS BOX MAY BE COLLECTED AS EARLY AS 12 NOON.", "nsi_id": "unitedstatespostalservice-a77078", "operator": "United States Postal Service", "operator:short": "USPS", "operator:type": "public", "operator:wikidata": "Q668687", "ref": "3715100001"}, "type": "Feature"}
{"geometry": {"coordinates": [-86.018637, 36.321975], "type": "Point"}, "id": "lROH2UlI5Zi9MFnt3a93SiWENcs=", "properties": {"@source_uri": "https://tools.usps.com/UspsToolsRestServices/rest/POLocator/findLocations", "@spider": "usps_collection_boxes", "addr:city": "RIDDLETON", "addr:country": "US", "addr:postcode": "37151", "addr:state": "TN", "addr:street_address": "73 RIDDLETON CIR", "amenity": "post_box", "collection_times": "Mo-Fr 15:45; Sa 12:00", "indoor": "yes", "note": "ON 12/24 AND 12/31, THIS BOX MAY BE COLLECTED AS EARLY AS 12 NOON.", "nsi_id": "unitedstatespostalservice-a77078", "operator": "United States Postal Service", "operator:short": "USPS", "operator:type": "public", "operator:wikidata": "Q668687", "ref": "3715100002"}, "type": "Feature"}
{"geometry": {"coordinates": [-86.018941256, 36.322154257], "type": "Point"}, "id": "8X3iKCn80E8B9I15c35mpqKRmAk=", "properties": {"@source_uri": "https://tools.usps.com/UspsToolsRestServices/rest/POLocator/findLocations", "@spider": "usps_collection_boxes", "addr:city": "RIDDLETON", "addr:country": "US", "addr:postcode": "37151", "addr:state": "TN", "addr:street_address": "73 RIDDLETON CIR", "amenity": "post_box", "collection_times": "Mo-Fr 15:45", "indoor": "yes", "note": "ON 12/24 AND 12/31, THIS BOX MAY BE COLLECTED AS EARLY AS 12 NOON.", "nsi_id": "unitedstatespostalservice-a77078", "operator": "United States Postal Service", "operator:short": "USPS", "operator:type": "public", "operator:wikidata": "Q668687", "ref": "3715100003"}, "type": "Feature"}
{"geometry": {"coordinates": [-86.767264, 36.396343], "type": "Point"}, "id": "4_34tCODmuNIBjT2TyS6RT810ZQ=", "properties": {"@source_uri": "https://tools.usps.com/UspsToolsRestServices/rest/POLocator/findLocations", "@spider": "usps_collection_boxes", "addr:city": "RIDGETOP", "addr:country": "US", "addr:postcode": "37152", "addr:state": "TN", "addr:street_address": "1736 HIGHWAY 41 S", "amenity": "post_box", "collection_times": "Mo-Fr 15:30; Sa 09:30", "indoor": "yes", "note": "ON 12/24 AND 12/31, THIS BOX MAY BE COLLECTED AS EARLY AS 12 NOON.", "nsi_id": "unitedstatespostalservice-a77078", "operator": "United States Postal Service", "operator:short": "USPS", "operator:type": "public", "operator:wikidata": "Q668687", "ref": "3715200001"}, "type": "Feature"}
{"geometry": {"coordinates": [-86.767253, 36.396369], "type": "Point"}, "id": "93oTMbJz--wCTQJjV2qC_I1xmF4=", "properties": {"@source_uri": "https://tools.usps.com/UspsToolsRestServices/rest/POLocator/findLocations", "@spider": "usps_collection_boxes", "addr:city": "RIDGETOP", "addr:country": "US", "addr:postcode": "37152", "addr:state": "TN", "addr:street_address": "1736 HIGHWAY 41 S", "amenity": "post_box", "collection_times": "Mo-Fr 15:30; Sa 09:30", "note": "ON 12/24 AND 12/31, THIS BOX MAY BE COLLECTED AS EARLY AS 12 NOON.", "nsi_id": "unitedstatespostalservice-a77078", "operator": "United States Postal Service", "operator:short": "USPS", "operator:type": "public", "operator:wikidata": "Q668687", "ref": "3715200002"}, "type": "Feature"}
{"geometry": {"coordinates": [-86.767410891, 36.39637617], "type": "Point"}, "id": "no7UA0B6Qu5kx5-FawPNV1IjoIU=", "properties": {"@source_uri": "https://tools.usps.com/UspsToolsRestServices/rest/POLocator/findLocations", "@spider": "usps_collection_boxes", "addr:city": "RIDGETOP", "addr:country": "US", "addr:postcode": "37152", "addr:state": "TN", "addr:street_address": "1736 HIGHWAY 41 S", "amenity": "post_box", "collection_times": "Mo-Fr 15:30", "indoor": "yes", "note": "ON 12/24 AND 12/31, THIS BOX MAY BE COLLECTED AS EARLY AS 12 NOON.", "nsi_id": "unitedstatespostalservice-a77078", "operator": "United States Postal Service", "operator:short": "USPS", "operator:type": "public", "operator:wikidata": "Q668687", "ref": "3715200003"}, "type": "Feature"}
{"geometry": {"coordinates": [-86.521384, 35.768657], "type": "Point"}, "id": "qzLOzU5sQw_NefHaBXE3ca8eYMw=", "properties": {"@source_uri": "https://tools.usps.com/UspsToolsRestServices/rest/POLocator/findLocations", "@spider": "usps_collection_boxes", "addr:city": "ROCKVALE", "addr:country": "US", "addr:postcode": "37153", "addr:state": "TN", "addr:street_address": "8000 HIGHWAY 99", "amenity": "post_box", "collection_times": "Mo-Fr 15:30; Sa 11:00", "note": "ON 12/24 AND 12/31, THIS BOX MAY BE COLLECTED AS EARLY AS 12 NOON.", "nsi_id": "unitedstatespostalservice-a77078", "operator": "United States Postal Service", "operator:short": "USPS", "operator:type": "public", "operator:wikidata": "Q668687", "ref": "3715300000"}, "type": "Feature"}
{"geometry": {"coordinates": [-86.502823, 35.794718], "type": "Point"}, "id": "qNSQREIk7_nN0mBwP-nZaapzjNM=", "properties": {"@source_uri": "https://tools.usps.com/UspsToolsRestServices/rest/POLocator/findLocations", "@spider": "usps_collection_boxes", "addr:city": "ROCKVALE", "addr:country": "US", "addr:postcode": "37153", "addr:state": "TN", "addr:street_address": "8000 HIGHWAY 99", "amenity": "post_box", "collection_times": "Mo-Fr 15:30; Sa 11:00", "indoor": "yes", "note": "ON 12/24 AND 12/31, THIS BOX MAY BE COLLECTED AS EARLY AS 12 NOON.", "nsi_id": "unitedstatespostalservice-a77078", "operator": "United States Postal Service", "operator:short": "USPS", "operator:type": "public", "operator:wikidata": "Q668687", "ref": "3715300001"}, "type": "Feature"}
{"geometry": {"coordinates": [-86.52114884, 35.768083691], "type": "Point"}, "id": "3HFaBw9hCsnnApMU8B0rx_Vqa9s=", "properties": {"@source_uri": "https://tools.usps.com/UspsToolsRestServices/rest/POLocator/findLocations", "@spider": "usps_collection_boxes", "addr:city": "ROCKVALE", "addr:country": "US", "addr:postcode": "37153", "addr:state": "TN", "addr:street_address": "8000 HIGHWAY 99", "amenity": "post_box", "collection_times": "Mo-Fr 15:30", "indoor": "yes", "note": "ON 12/24 AND 12/31, THIS BOX MAY BE COLLECTED AS EARLY AS 12 NOON.", "nsi_id": "unitedstatespostalservice-a77078", "operator": "United States Postal Service", "operator:short": "USPS", "operator:type": "public", "operator:wikidata": "Q668687", "ref": "3715300002"}, "type": "Feature"}
{"geometry": {"coordinates": [-86.4569643, 35.497802], "type": "Point"}, "id": "bJYlb2VieOlyToF7E5PHYX7sfUE=", "properties": {"@source_uri": "https://tools.usps.com/UspsToolsRestServices/rest/POLocator/findLocations", "@spider": "usps_collection_boxes", "addr:city": "SHELBYVILLE", "addr:country": "US", "addr:postcode": "37160", "addr:state": "TN", "addr:street_address": "1010 N MAIN ST", "amenity": "post_box", "collection_times": "Mo-Fr 11:00; Sa 09:30", "nsi_id": "unitedstatespostalservice-a77078", "operator": "United States Postal Service", "operator:short": "USPS", "operator:type": "public", "operator:wikidata": "Q668687", "ref": "3716000012"}, "type": "Feature"}
{"geometry": {"coordinates": [-86.4734607, 35.49597], "type": "Point"}, "id": "lWBkqWvB7EH80ySPbo-rKxt2sm8=", "properties": {"@source_uri": "https://tools.usps.com/UspsToolsRestServices/rest/POLocator/findLocations", "@spider": "usps_collection_boxes", "addr:city": "SHELBYVILLE", "addr:country": "US", "addr:postcode": "37160", "addr:state": "TN", "addr:street_address": "874 UNION ST", "amenity": "post_box", "collection_times": "Mo-Sa 10:00", "nsi_id": "unitedstatespostalservice-a77078", "operator": "United States Postal Service", "operator:short": "USPS", "operator:type": "public", "operator:wikidata": "Q668687", "ref": "3716000013"}, "type": "Feature"}
{"geometry": {"coordinates": [-86.4593802482, 35.486594204], "type": "Point"}, "id": "XRwO_Mno5HoJKe4Ve9g7mN0MB-4=", "properties": {"@source_uri": "https://tools.usps.com/UspsToolsRestServices/rest/POLocator/findLocations", "@spider": "usps_collection_boxes", "addr:city": "SHELBYVILLE", "addr:country": "US", "addr:postcode": "37160", "addr:state": "TN", "addr:street_address": "600 N MAIN ST", "amenity": "post_box", "collection_times": "Mo-Fr 16:30; Sa 15:30", "note": "ON 12/24 AND 12/31, THIS BOX MAY BE COLLECTED AS EARLY AS 12 NOON.", "nsi_id": "unitedstatespostalservice-a77078", "operator": "United States Postal Service", "operator:short": "USPS", "operator:type": "public", "operator:wikidata": "Q668687", "ref": "3716000022"}, "type": "Feature"}
{"geometry": {"coordinates": [-86.459457, 35.486273], "type": "Point"}, "id": "fGfgGMhn7WpFFhOV1qFkspyDXeA=", "properties": {"@source_uri": "https://tools.usps.com/UspsToolsRestServices/rest/POLocator/findLocations", "@spider": "usps_collection_boxes", "addr:city": "SHELBYVILLE", "addr:country": "US", "addr:postcode": "37160", "addr:state": "TN", "addr:street_address": "600 N MAIN ST", "amenity": "post_box", "collection_times": "Mo-Fr 16:30; Sa 15:30", "indoor": "yes", "note": "ON 12/24 AND 12/31, THIS BOX MAY BE COLLECTED AS EARLY AS 12 NOON.", "nsi_id": "unitedstatespostalservice-a77078", "operator": "United States Postal Service", "operator:short": "USPS", "operator:type": "public", "operator:wikidata": "Q668687", "ref": "3716000026"}, "type": "Feature"}
{"geometry": {"coordinates": [-86.4586031707, 35.5105310122], "type": "Point"}, "id": "i1Wm3aDChN9bO5kj4Qzb9AXK53g=", "properties": {"@source_uri": "https://tools.usps.com/UspsToolsRestServices/rest/POLocator/findLocations", "@spider": "usps_collection_boxes", "addr:city": "SHELBYVILLE", "addr:country": "US", "addr:postcode": "37160", "addr:state": "TN", "addr:street_address": "100 W SIDE SQ", "amenity": "post_box", "collection_times": "Mo-Fr 15:00; Sa 14:00", "note": "ON 12/24 AND 12/31, THIS BOX MAY BE COLLECTED AS EARLY AS 12 NOON.", "nsi_id": "unitedstatespostalservice-a77078", "operator": "United States Postal Service", "operator:short": "USPS", "operator:type": "public", "operator:wikidata": "Q668687", "ref": "3716000032"}, "type": "Feature"}
{"geometry": {"coordinates": [-86.4584736871, 35.5108346662], "type": "Point"}, "id": "wH-odmZR5j6UGMhuuaECRrZVPhE=", "properties": {"@source_uri": "https://tools.usps.com/UspsToolsRestServices/rest/POLocator/findLocations", "@spider": "usps_collection_boxes", "addr:city": "SHELBYVILLE", "addr:country": "US", "addr:postcode": "37160", "addr:state": "TN", "addr:street_address": "112 E SIDE SQ", "amenity": "post_box", "collection_times": "Mo-Fr 15:00; Sa 14:00", "note": "ON 12/24 AND 12/31, THIS BOX MAY BE COLLECTED AS EARLY AS 12 NOON.", "nsi_id": "unitedstatespostalservice-a77078", "operator": "United States Postal Service", "operator:short": "USPS", "operator:type": "public", "operator:wikidata": "Q668687", "ref": "3716000034"}, "type": "Feature"}
{"geometry": {"coordinates": [-86.4575306, 35.50715], "type": "Point"}, "id": "xKhRwPL6K7UeCqEuGhaxOzikKwg=", "properties": {"@source_uri": "https://tools.usps.com/UspsToolsRestServices/rest/POLocator/findLocations", "@spider": "usps_collection_boxes", "addr:city": "SHELBYVILLE", "addr:country": "US", "addr:postcode": "37160", "addr:state": "TN", "addr:street_address": "1701 N MAIN ST", "amenity": "post_box", "collection_times": "Mo-Fr 12:00; Sa 10:00", "nsi_id": "unitedstatespostalservice-a77078", "operator": "United States Postal Service", "operator:short": "USPS", "operator:type": "public", "operator:wikidata": "Q668687", "ref": "3716000035"}, "type": "Feature"}
{"geometry": {"coordinates": [-86.459380248, 35.486594204], "type": "Point"}, "id": "OwOXfCshAV6gXTngfeB8uvOvHs4=", "properties": {"@source_uri": "https://tools.usps.com/UspsToolsRestServices/rest/POLocator/findLocations", "@spider": "usps_collection_boxes", "addr:city": "SHELBYVILLE", "addr:country": "US", "addr:postcode": "37160", "addr:state": "TN", "addr:street_address": "600 N MAIN ST", "amenity": "post_box", "collection_times": "Mo-Fr 16:30", "indoor": "yes", "note": "ON 12/24 AND 12/31, THIS BOX MAY BE COLLECTED AS EARLY AS 12 NOON.", "nsi_id": "unitedstatespostalservice-a77078", "operator": "United States Postal Service", "operator:short": "USPS", "operator:type": "public", "operator:wikidata": "Q668687", "ref": "3716000037"}, "type": "Feature"}
{"geometry": {"coordinates": [-87.470447, 36.295835], "type": "Point"}, "id": "FRTBb_BopA7mjTrVJTJGUDHHa8s=", "properties": {"@source_uri": "https://tools.usps.com/UspsToolsRestServices/rest/POLocator/findLocations", "@spider": "usps_collection_boxes", "addr:city": "SLAYDEN", "addr:country": "US", "addr:postcode": "37165", "addr:state": "TN", "addr:street_address": "2830 SLAYDEN MARION RD", "amenity": "post_box", "collection_times": "Mo-Fr 16:00; Sa 11:45", "note": "ON 12/24 AND 12/31, THIS BOX MAY BE COLLECTED AS EARLY AS 12 NOON.", "nsi_id": "unitedstatespostalservice-a77078", "operator": "United States Postal Service", "operator:short": "USPS", "operator:type": "public", "operator:wikidata": "Q668687", "ref": "3716500001"}, "type": "Feature"}
{"geometry": {"coordinates": [-87.470491, 36.29591], "type": "Point"}, "id": "hfk8raqL2_0LEWOMmz-bEmegZsA=", "properties": {"@source_uri": "https://tools.usps.com/UspsToolsRestServices/rest/POLocator/findLocations", "@spider": "usps_collection_boxes", "addr:city": "SLAYDEN", "addr:country": "US", "addr:postcode": "37165", "addr:state": "TN", "addr:street_address": "2830 SLAYDEN MARION RD", "amenity": "post_box", "collection_times": "Mo-Fr 16:00; Sa 11:45", "indoor": "yes", "note": "ON 12/24 AND 12/31, THIS BOX MAY BE COLLECTED AS EARLY AS 12 NOON.", "nsi_id": "unitedstatespostalservice-a77078", "operator": "United States Postal Service", "operator:short": "USPS", "operator:type": "public", "operator:wikidata": "Q668687", "ref": "3716500002"}, "type": "Feature"}
{"geometry": {"coordinates": [-87.47052551, 36.296446312], "type": "Point"}, "id": "c0e7xJevHRIYEnM9H0xy-lKXvLI=", "properties": {"@source_uri": "https://tools.usps.com/UspsToolsRestServices/rest/POLocator/findLocations", "@spider": "usps_collection_boxes", "addr:city": "SLAYDEN", "addr:country": "US", "addr:postcode": "37165", "addr:state": "TN", "addr:street_address": "2830 SLAYDEN MARION RD", "amenity": "post_box", "collection_times": "Mo-Fr 16:00", "indoor": "yes", "note": "ON 12/24 AND 12/31, THIS BOX MAY BE COLLECTED AS EARLY AS 12 NOON.", "nsi_id": "unitedstatespostalservice-a77078", "operator": "United States Postal Service", "operator:short": "USPS", "operator:type": "public", "operator:wikidata": "Q668687", "ref": "3716500003"}, "type": "Feature"}
{"geometry": {"coordinates": [-85.811672, 35.960425], "type": "Point"}, "id": "CPSw0jzLDPUYgrucIhB7jys4V0E=", "properties": {"@source_uri": "https://tools.usps.com/UspsToolsRestServices/rest/POLocator/findLocations", "@spider": "usps_collection_boxes", "addr:city": "SMITHVILLE", "addr:country": "US", "addr:postcode": "37166", "addr:state": "TN", "addr:street_address": "100 S 1ST ST", "amenity": "post_box", "collection_times": "Mo-Fr 16:30; Sa 16:00", "indoor": "yes", "note": "ON 12/24 AND 12/31, THIS BOX MAY BE COLLECTED AS EARLY AS 12 NOON.", "nsi_id": "unitedstatespostalservice-a77078", "operator": "United States Postal Service", "operator:short": "USPS", "operator:type": "public", "operator:wikidata": "Q668687", "ref": "3716600001"}, "type": "Feature"}
{"geometry": {"coordinates": [-85.810862, 35.960676], "type": "Point"}, "id": "pawoA_5XDUlSFMJcIxBVSHc4SO8=", "properties": {"@source_uri": "https://tools.usps.com/UspsToolsRestServices/rest/POLocator/findLocations", "@spider": "usps_collection_boxes", "addr:city": "SMITHVILLE", "addr:country": "US", "addr:postcode": "37166", "addr:state": "TN", "addr:street_address": "201 E MAIN ST", "amenity": "post_box", "collection_times": "Mo-Fr 16:30; Sa 16:00", "note": "ON 12/24 AND 12/31, THIS BOX MAY BE COLLECTED AS EARLY AS 12 NOON.", "nsi_id": "unitedstatespostalservice-a77078", "operator": "United States Postal Service", "operator:short": "USPS", "operator:type": "public", "operator:wikidata": "Q668687", "ref": "3716600003"}, "type": "Feature"}
{"geometry": {"coordinates": [-85.8138055, 35.960982], "type": "Point"}, "id": "87PbdsUd48WJpOsdVPF79rvo6fA=", "properties": {"@source_uri": "https://tools.usps.com/UspsToolsRestServices/rest/POLocator/findLocations", "@spider": "usps_collection_boxes", "addr:city": "SMITHVILLE", "addr:country": "US", "addr:postcode": "37166", "addr:state": "TN", "addr:street_address": "400 W PUBLIC SQ", "amenity": "post_box", "collection_times": "Mo-Sa 15:45", "note": "ON 12/24 AND 12/31, THIS BOX MAY BE COLLECTED AS EARLY AS 12 NOON.", "nsi_id": "unitedstatespostalservice-a77078", "operator": "United States Postal Service", "operator:short": "USPS", "operator:type": "public", "operator:wikidata": "Q668687", "ref": "3716600006"}, "type": "Feature"}
{"geometry": {"coordinates": [-85.8124438, 35.952317], "type": "Point"}, "id": "30VXPJEEow5DBWvGOzNuz4qG0Ck=", "properties": {"@source_uri": "https://tools.usps.com/UspsToolsRestServices/rest/POLocator/findLocations", "@spider": "usps_collection_boxes", "addr:city": "SMITHVILLE", "addr:country": "US", "addr:postcode": "37166", "addr:state": "TN", "addr:street_address": "724 S CONGRESS BLVD", "amenity": "post_box", "collection_times": "Mo-Sa 15:45", "note": "ON 12/24 AND 12/31, THIS BOX MAY BE COLLECTED AS EARLY AS 12 NOON.", "nsi_id": "unitedstatespostalservice-a77078", "operator": "United States Postal Service", "operator:short": "USPS", "operator:type": "public", "operator:wikidata": "Q668687", "ref": "3716600008"}, "type": "Feature"}
{"geometry": {"coordinates": [-85.8299492, 35.955271], "type": "Point"}, "id": "dIz3EUd4kAINm7McVjlXiXgmj48=", "properties": {"@source_uri": "https://tools.usps.com/UspsToolsRestServices/rest/POLocator/findLocations", "@spider": "usps_collection_boxes", "addr:city": "SMITHVILLE", "addr:country": "US", "addr:postcode": "37166", "addr:state": "TN", "addr:street_address": "515 W BROAD ST", "amenity": "post_box", "collection_times": "Mo-Sa 14:30", "note": "ON 12/24 AND 12/31, THIS BOX MAY BE COLLECTED AS EARLY AS 12 NOON.", "nsi_id": "unitedstatespostalservice-a77078", "operator": "United States Postal Service", "operator:short": "USPS", "operator:type": "public", "operator:wikidata": "Q668687", "ref": "3716600009"}, "type": "Feature"}
{"geometry": {"coordinates": [-85.811657431, 35.96038418], "type": "Point"}, "id": "29SvaN-RXqfZ5QXh6WwfhSfbXuw=", "properties": {"@source_uri": "https://tools.usps.com/UspsToolsRestServices/rest/POLocator/findLocations", "@spider": "usps_collection_boxes", "addr:city": "SMITHVILLE", "addr:country": "US", "addr:postcode": "37166", "addr:state": "TN", "addr:street_address": "100 S 1ST ST", "amenity": "post_box", "collection_times": "Mo-Fr 16:30", "indoor": "yes", "note": "ON 12/24 AND 12/31, THIS BOX MAY BE COLLECTED AS EARLY AS 12 NOON.", "nsi_id": "unitedstatespostalservice-a77078", "operator": "United States Postal Service", "operator:short": "USPS", "operator:type": "public", "operator:wikidata": "Q668687", "ref": "3716600015"}, "type": "Feature"}
{"geometry": {"coordinates": [-86.508814, 35.977564], "type": "Point"}, "id": "aY3hEwT1d4CepjFoJtL9JfVhpQg=", "properties": {"@source_uri": "https://tools.usps.com/UspsToolsRestServices/rest/POLocator/findLocations", "@spider": "usps_collection_boxes", "addr:city": "SMYRNA", "addr:country": "US", "addr:postcode": "37167", "addr:state": "TN", "addr:street_address": "250 MAYFIELD DR", "amenity": "post_box", "collection_times": "Mo-Fr 17:00; Sa 15:30", "indoor": "yes", "note": "ON 12/24 AND 12/31, THIS BOX MAY BE COLLECTED AS EARLY AS 12 NOON.", "nsi_id": "unitedstatespostalservice-a77078", "operator": "United States Postal Service", "operator:short": "USPS", "operator:type": "public", "operator:wikidata": "Q668687", "ref": "3716700002"}, "type": "Feature"}
{"geometry": {"coordinates": [-86.5037532, 35.967444], "type": "Point"}, "id": "ld0vlX7ZoT9XplYJMqgFnO3rxEg=", "properties": {"@source_uri": "https://tools.usps.com/UspsToolsRestServices/rest/POLocator/findLocations", "@spider": "usps_collection_boxes", "addr:city": "SMYRNA", "addr:country": "US", "addr:postcode": "37167", "addr:state": "TN", "addr:street_address": "575 S LOWRY ST", "amenity": "post_box", "collection_times": "Mo-Sa 10:30", "nsi_id": "unitedstatespostalservice-a77078", "operator": "United States Postal Service", "operator:short": "USPS", "operator:type": "public", "operator:wikidata": "Q668687", "ref": "3716700008"}, "type": "Feature"}
{"geometry": {"coordinates": [-86.5221694, 35.95893], "type": "Point"}, "id": "JBYr_EBDG8M8ODBr8fTRcbqmv8g=", "properties": {"@source_uri": "https://tools.usps.com/UspsToolsRestServices/rest/POLocator/findLocations", "@spider": "usps_collection_boxes", "addr:city": "SMYRNA", "addr:country": "US", "addr:postcode": "37167", "addr:state": "TN", "addr:street_address": "1350 HAZELWOOD DR", "amenity": "post_box", "collection_times": "Mo-Sa 12:00", "nsi_id": "unitedstatespostalservice-a77078", "operator": "United States Postal Service", "operator:short": "USPS", "operator:type": "public", "operator:wikidata": "Q668687", "ref": "3716700010"}, "type": "Feature"}
{"geometry": {"coordinates": [-86.5083229758, 35.9770569792], "type": "Point"}, "id": "lcy9dzUzPjlY2p1MZjAA7_fJHT0=", "properties": {"@source_uri": "https://tools.usps.com/UspsToolsRestServices/rest/POLocator/findLocations", "@spider": "usps_collection_boxes", "addr:city": "SMYRNA", "addr:country": "US", "addr:postcode": "37167", "addr:state": "TN", "addr:street_address": "250 MAYFIELD DR", "amenity": "post_box", "collection_times": "Mo-Fr 17:00; Sa 15:30", "note": "ON 12/24 AND 12/31, THIS BOX MAY BE COLLECTED AS EARLY AS 12 NOON.", "nsi_id": "unitedstatespostalservice-a77078", "operator": "United States Postal Service", "operator:short": "USPS", "operator:type": "public", "operator:wikidata": "Q668687", "ref": "3716700027"}, "type": "Feature"}
{"geometry": {"coordinates": [-86.5501163, 35.983923], "type": "Point"}, "id": "LUYiJnEe3bU6qvLkI7oL--Yc3zM=", "properties": {"@source_uri": "https://tools.usps.com/UspsToolsRestServices/rest/POLocator/findLocations", "@spider": "usps_collection_boxes", "addr:city": "SMYRNA", "addr:country": "US", "addr:postcode": "37167", "addr:state": "TN", "addr:street_address": "463 SAM RIDLEY PKWY W", "amenity": "post_box", "collection_times": "Mo-Fr 12:00; Sa 10:00", "nsi_id": "unitedstatespostalservice-a77078", "operator": "United States Postal Service", "operator:short": "USPS", "operator:type": "public", "operator:wikidata": "Q668687", "ref": "3716700029"}, "type": "Feature"}
{"geometry": {"coordinates": [-86.5337071422, 35.9321137338], "type": "Point"}, "id": "LPqV_mMacs7nVm0eJnlE11dgpsE=", "properties": {"@source_uri": "https://tools.usps.com/UspsToolsRestServices/rest/POLocator/findLocations", "@spider": "usps_collection_boxes", "addr:city": "SMYRNA", "addr:country": "US", "addr:postcode": "37167", "addr:state": "TN", "addr:street_address": "1883 ALMAVILLE RD", "amenity": "post_box", "collection_times": "Mo-Sa 11:00", "nsi_id": "unitedstatespostalservice-a77078", "operator": "United States Postal Service", "operator:short": "USPS", "operator:type": "public", "operator:wikidata": "Q668687", "ref": "3716700033"}, "type": "Feature"}
{"geometry": {"coordinates": [-86.508336279, 35.977476743], "type": "Point"}, "id": "pr1KWzJeSM7Vq1fOhW8jPJwK5wg=", "properties": {"@source_uri": "https://tools.usps.com/UspsToolsRestServices/rest/POLocator/findLocations", "@spider": "usps_collection_boxes", "addr:city": "SMYRNA", "addr:country": "US", "addr:postcode": "37167", "addr:state": "TN", "addr:street_address": "250 MAYFIELD DR", "amenity": "post_box", "collection_times": "Mo-Fr 17:00", "indoor": "yes", "note": "ON 12/24 AND 12/31, THIS BOX MAY BE COLLECTED AS EARLY AS 12 NOON.", "nsi_id": "unitedstatespostalservice-a77078", "operator": "United States Postal Service", "operator:short": "USPS", "operator:type": "public", "operator:wikidata": "Q668687", "ref": "3716700039"}, "type": "Feature"}
{"geometry": {"coordinates": [-86.8857638, 36.509354], "type": "Point"}, "id": "gRwg4UC0al_FGUkj0t8AqVubOQw=", "properties": {"@source_uri": "https://tools.usps.com/UspsToolsRestServices/rest/POLocator/findLocations", "@spider": "usps_collection_boxes", "addr:city": "SPRINGFIELD", "addr:country": "US", "addr:postcode": "37172", "addr:state": "TN", "addr:street_address": "503 W COURT SQ", "amenity": "post_box", "collection_times": "Mo-Fr 10:30; Sa 09:30", "nsi_id": "unitedstatespostalservice-a77078", "operator": "United States Postal Service", "operator:short": "USPS", "operator:type": "public", "operator:wikidata": "Q668687", "ref": "3717200006"}, "type": "Feature"}
{"geometry": {"coordinates": [-86.8878619, 36.483483], "type": "Point"}, "id": "nKmsj-gItWFVZOuci-40mts5L10=", "properties": {"@source_uri": "https://tools.usps.com/UspsToolsRestServices/rest/POLocator/findLocations", "@spider": "usps_collection_boxes", "addr:city": "SPRINGFIELD", "addr:country": "US", "addr:postcode": "37172", "addr:state": "TN", "addr:street_address": "3360 TOM AUSTIN HWY", "amenity": "post_box", "collection_times": "Mo-Sa 10:00", "nsi_id": "unitedstatespostalservice-a77078", "operator": "United States Postal Service", "operator:short": "USPS", "operator:type": "public", "operator:wikidata": "Q668687", "ref": "3717200008"}, "type": "Feature"}
{"geometry": {"coordinates": [-86.8839333, 36.506768], "type": "Point"}, "id": "ZBbvl2SaTBurTNqk_WUanO3eI4E=", "properties": {"@source_uri": "https://tools.usps.com/UspsToolsRestServices/rest/POLocator/findLocations", "@spider": "usps_collection_boxes", "addr:city": "SPRINGFIELD", "addr:country": "US", "addr:postcode": "37172", "addr:state": "TN", "addr:street_address": "800 WILLOW ST", "amenity": "post_box", "collection_times": "Mo-Sa 16:45", "note": "ON 12/24 AND 12/31, THIS BOX MAY BE COLLECTED AS EARLY AS 12 NOON.", "nsi_id": "unitedstatespostalservice-a77078", "operator": "United States Postal Service", "operator:short": "USPS", "operator:type": "public", "operator:wikidata": "Q668687", "ref": "3717200009"}, "type": "Feature"}
{"geometry": {"coordinates": [-86.8840005, 36.50664], "type": "Point"}, "id": "Kyxf22z1CXet0uZXP2Bs_OK046g=", "properties": {"@source_uri": "https://tools.usps.com/UspsToolsRestServices/rest/POLocator/findLocations", "@spider": "usps_collection_boxes", "addr:city": "SPRINGFIELD", "addr:country": "US", "addr:postcode": "37172", "addr:state": "TN", "addr:street_address": "800 WILLOW ST", "amenity": "post_box", "collection_times": "Mo-Sa 16:45", "indoor": "yes", "note": "ON 12/24 AND 12/31, THIS BOX MAY BE COLLECTED AS EARLY AS 12 NOON.", "nsi_id": "unitedstatespostalservice-a77078", "operator": "United States Postal Service", "operator:short": "USPS", "operator:type": "public", "operator:wikidata": "Q668687", "ref": "3717200011"}, "type": "Feature"}
{"geometry": {"coordinates": [-86.8807521, 36.507206], "type": "Point"}, "id": "aqUG7W00O9jxIoUp4z5a4rPllYw=", "properties": {"@source_uri": "https://tools.usps.com/UspsToolsRestServices/rest/POLocator/findLocations", "@spider": "usps_collection_boxes", "addr:city": "SPRINGFIELD", "addr:country": "US", "addr:postcode": "37172", "addr:state": "TN", "addr:street_address": "511 S BROWN ST", "amenity": "post_box", "collection_times": "Mo-Fr 11:30; Sa 09:00", "nsi_id": "unitedstatespostalservice-a77078", "operator": "United States Postal Service", "operator:short": "USPS", "operator:type": "public", "operator:wikidata": "Q668687", "ref": "3717200012"}, "type": "Feature"}
{"geometry": {"coordinates": [-86.8859911, 36.5029865], "type": "Point"}, "id": "qLJ2lz95WHYtgFyAtxMLvJbe4mE=", "properties": {"@source_uri": "https://tools.usps.com/UspsToolsRestServices/rest/POLocator/findLocations", "@spider": "usps_collection_boxes", "addr:city": "SPRINGFIELD", "addr:country": "US", "addr:postcode": "37172", "addr:state": "TN", "addr:street_address": "2600 MEMORIAL BLVD", "amenity": "post_box", "collection_times": "Mo-Fr 11:00; Sa 10:00", "nsi_id": "unitedstatespostalservice-a77078", "operator": "United States Postal Service", "operator:short": "USPS", "operator:type": "public", "operator:wikidata": "Q668687", "ref": "3717200013"}, "type": "Feature"}
{"geometry": {"coordinates": [-86.884196749, 36.506464649], "type": "Point"}, "id": "0JrDBhOIgENqiBFdWebYfFK_2zo=", "properties": {"@source_uri": "https://tools.usps.com/UspsToolsRestServices/rest/POLocator/findLocations", "@spider": "usps_collection_boxes", "addr:city": "SPRINGFIELD", "addr:country": "US", "addr:postcode": "37172", "addr:state": "TN", "addr:street_address": "800 WILLOW ST", "amenity": "post_box", "collection_times": "Mo-Fr 16:45", "indoor": "yes", "note": "ON 12/24 AND 12/31, THIS BOX MAY BE COLLECTED AS EARLY AS 12 NOON.", "nsi_id": "unitedstatespostalservice-a77078", "operator": "United States Postal Service", "operator:short": "USPS", "operator:type": "public", "operator:wikidata": "Q668687", "ref": "3717200016"}, "type": "Feature"}
{"geometry": {"coordinates": [-86.942961, 35.751292], "type": "Point"}, "id": "BQhBCEtWzljxy9gIdQEFX2YNiEM=", "properties": {"@source_uri": "https://tools.usps.com/UspsToolsRestServices/rest/POLocator/findLocations", "@spider": "usps_collection_boxes", "addr:city": "SPRING HILL", "addr:country": "US", "addr:postcode": "37174", "addr:state": "TN", "addr:street_address": "223 TOWN CENTER PKWY", "amenity": "post_box", "collection_times": "Mo-Fr 16:00; Sa 11:00", "indoor": "yes", "note": "ON 12/24 AND 12/31, THIS BOX MAY BE COLLECTED AS EARLY AS 12 NOON.", "nsi_id": "unitedstatespostalservice-a77078", "operator": "United States Postal Service", "operator:short": "USPS", "operator:type": "public", "operator:wikidata": "Q668687", "ref": "3717400001"}, "type": "Feature"}
{"geometry": {"coordinates": [-86.942987126, 35.7512993561], "type": "Point"}, "id": "PXWrxHJiaNAqKwK3WWEjM5PzJqU=", "properties": {"@source_uri": "https://tools.usps.com/UspsToolsRestServices/rest/POLocator/findLocations", "@spider": "usps_collection_boxes", "addr:city": "SPRING HILL", "addr:country": "US", "addr:postcode": "37174", "addr:state": "TN", "addr:street_address": "223 TOWN CENTER PKWY", "amenity": "post_box", "collection_times": "Mo-Fr 16:00; Sa 11:00", "note": "ON 12/24 AND 12/31, THIS BOX MAY BE COLLECTED AS EARLY AS 12 NOON.", "nsi_id": "unitedstatespostalservice-a77078", "operator": "United States Postal Service", "operator:short": "USPS", "operator:type": "public", "operator:wikidata": "Q668687", "ref": "3717400003"}, "type": "Feature"}
{"geometry": {"coordinates": [-86.9146894, 35.775237], "type": "Point"}, "id": "d2XpPCocgJVxi7LzQvP9V9hDI8s=", "properties": {"@source_uri": "https://tools.usps.com/UspsToolsRestServices/rest/POLocator/findLocations", "@spider": "usps_collection_boxes", "addr:city": "SPRING HILL", "addr:country": "US", "addr:postcode": "37174", "addr:state": "TN", "addr:street_address": "4910 COLUMBIA PIKE", "amenity": "post_box", "collection_times": "Mo-Sa 10:00", "nsi_id": "unitedstatespostalservice-a77078", "operator": "United States Postal Service", "operator:short": "USPS", "operator:type": "public", "operator:wikidata": "Q668687", "ref": "3717400004"}, "type": "Feature"}
{"geometry": {"coordinates": [-86.942991498, 35.75128962], "type": "Point"}, "id": "CArfbUtnW90dyehEw6bZMCf92GI=", "properties": {"@source_uri": "https://tools.usps.com/UspsToolsRestServices/rest/POLocator/findLocations", "@spider": "usps_collection_boxes", "addr:city": "SPRING HILL", "addr:country": "US", "addr:postcode": "37174", "addr:state": "TN", "addr:street_address": "223 TOWN CENTER PKWY", "amenity": "post_box", "collection_times": "Mo-Fr 16:00", "indoor": "yes", "note": "ON 12/24 AND 12/31, THIS BOX MAY BE COLLECTED AS EARLY AS 12 NOON.", "nsi_id": "unitedstatespostalservice-a77078", "operator": "United States Postal Service", "operator:short": "USPS", "operator:type": "public", "operator:wikidata": "Q668687", "ref": "3717400006"}, "type": "Feature"}
{"geometry": {"coordinates": [-87.8409139849, 36.3193179976], "type": "Point"}, "id": "b55M-Qlxo_pQ83sTU5CjyBFVFis=", "properties": {"@source_uri": "https://tools.usps.com/UspsToolsRestServices/rest/POLocator/findLocations", "@spider": "usps_collection_boxes", "addr:city": "STEWART", "addr:country": "US", "addr:postcode": "37175", "addr:state": "TN", "addr:street_address": "6100 HWY 147", "amenity": "post_box", "collection_times": "Mo-Sa 11:30", "indoor": "yes", "nsi_id": "unitedstatespostalservice-a77078", "operator": "United States Postal Service", "operator:short": "USPS", "operator:type": "public", "operator:wikidata": "Q668687", "ref": "3717500001"}, "type": "Feature"}
{"geometry": {"coordinates": [-87.8409139849, 36.3193179976], "type": "Point"}, "id": "Fn5s0DAxKup7kdmyP-DDxKjK7gs=", "properties": {"@source_uri": "https://tools.usps.com/UspsToolsRestServices/rest/POLocator/findLocations", "@spider": "usps_collection_boxes", "addr:city": "STEWART", "addr:country": "US", "addr:postcode": "37175", "addr:state": "TN", "addr:street_address": "6100 HWY 147", "amenity": "post_box", "collection_times": "Mo-Sa 11:30", "nsi_id": "unitedstatespostalservice-a77078", "operator": "United States Postal Service", "operator:short": "USPS", "operator:type": "public", "operator:wikidata": "Q668687", "ref": "3717500002"}, "type": "Feature"}
{"geometry": {"coordinates": [-87.8409139849, 36.3193179976], "type": "Point"}, "id": "EUC5zLZJ1j3P6NO41xLNANBbIgA=", "properties": {"@source_uri": "https://tools.usps.com/UspsToolsRestServices/rest/POLocator/findLocations", "@spider": "usps_collection_boxes", "addr:city": "STEWART", "addr:country": "US", "addr:postcode": "37175", "addr:state": "TN", "addr:street_address": "6100 HWY 147", "amenity": "post_box", "collection_times": "Mo-Fr 11:30", "indoor": "yes", "nsi_id": "unitedstatespostalservice-a77078", "operator": "United States Postal Service", "operator:short": "USPS", "operator:type": "public", "operator:wikidata": "Q668687", "ref": "3717500003"}, "type": "Feature"}
{"geometry": {"coordinates": [-87.751562, 36.331578], "type": "Point"}, "id": "mIiB6kWI8Z1N_DIRKxwqg1q6JCQ=", "properties": {"@source_uri": "https://tools.usps.com/UspsToolsRestServices/rest/POLocator/findLocations", "@spider": "usps_collection_boxes", "addr:city": "TENNESSEE RIDGE", "addr:country": "US", "addr:postcode": "37178", "addr:state": "TN", "addr:street_address": "940 STATE ROUTE 49", "amenity": "post_box", "collection_times": "Mo-Fr 15:45; Sa 12:00", "indoor": "yes", "note": "ON 12/24 AND 12/31, THIS BOX MAY BE COLLECTED AS EARLY AS 12 NOON.", "nsi_id": "unitedstatespostalservice-a77078", "operator": "United States Postal Service", "operator:short": "USPS", "operator:type": "public", "operator:wikidata": "Q668687", "ref": "3717800001"}, "type": "Feature"}
{"geometry": {"coordinates": [-87.751562, 36.331579], "type": "Point"}, "id": "Xw2eYAonvz4qmQ50Etx-x1OXNcc=", "properties": {"@source_uri": "https://tools.usps.com/UspsToolsRestServices/rest/POLocator/findLocations", "@spider": "usps_collection_boxes", "addr:city": "TENNESSEE RIDGE", "addr:country": "US", "addr:postcode": "37178", "addr:state": "TN", "addr:street_address": "940 STATE ROUTE 49", "amenity": "post_box", "collection_times": "Mo-Fr 15:45; Sa 12:00", "note": "ON 12/24 AND 12/31, THIS BOX MAY BE COLLECTED AS EARLY AS 12 NOON.", "nsi_id": "unitedstatespostalservice-a77078", "operator": "United States Postal Service", "operator:short": "USPS", "operator:type": "public", "operator:wikidata": "Q668687", "ref": "3717800002"}, "type": "Feature"}
{"geometry": {"coordinates": [-87.7724186, 36.311932], "type": "Point"}, "id": "3qDRfBfQ7tLrI1zQuUPQInWmFLE=", "properties": {"@source_uri": "https://tools.usps.com/UspsToolsRestServices/rest/POLocator/findLocations", "@spider": "usps_collection_boxes", "addr:city": "TENNESSEE RIDGE", "addr:country": "US", "addr:postcode": "37178", "addr:state": "TN", "addr:street_address": "1887 N MAIN ST", "amenity": "post_box", "collection_times": "Mo-Sa 13:00", "note": "ON 12/24 AND 12/31, THIS BOX MAY BE COLLECTED AS EARLY AS 12 NOON.", "nsi_id": "unitedstatespostalservice-a77078", "operator": "United States Postal Service", "operator:short": "USPS", "operator:type": "public", "operator:wikidata": "Q668687", "ref": "3717800003"}, "type": "Feature"}
{"geometry": {"coordinates": [-87.751619547, 36.33146211], "type": "Point"}, "id": "tiezI0ynEGCCGE4KwQTpXpmZ6DQ=", "properties": {"@source_uri": "https://tools.usps.com/UspsToolsRestServices/rest/POLocator/findLocations", "@spider": "usps_collection_boxes", "addr:city": "TENNESSEE RIDGE", "addr:country": "US", "addr:postcode": "37178", "addr:state": "TN", "addr:street_address": "940 STATE ROUTE 49", "amenity": "post_box", "collection_times": "Mo-Fr 15:45", "indoor": "yes", "note": "ON 12/24 AND 12/31, THIS BOX MAY BE COLLECTED AS EARLY AS 12 NOON.", "nsi_id": "unitedstatespostalservice-a77078", "operator": "United States Postal Service", "operator:short": "USPS", "operator:type": "public", "operator:wikidata": "Q668687", "ref": "3717800004"}, "type": "Feature"}
{"geometry": {"coordinates": [-86.905438, 35.797002], "type": "Point"}, "id": "p3httZU6sGeC_kV6kyVSXHMpT8k=", "properties": {"@source_uri": "https://tools.usps.com/UspsToolsRestServices/rest/POLocator/findLocations", "@spider": "usps_collection_boxes", "addr:city": "THOMPSON STATION", "addr:country": "US", "addr:postcode": "37179", "addr:state": "TN", "addr:street_address": "1507 THOMPSONS STATION RD W", "amenity": "post_box", "collection_times": "Mo-Fr 16:00; Sa 11:00", "indoor": "yes", "note": "ON 12/24 AND 12/31, THIS BOX MAY BE COLLECTED AS EARLY AS 12 NOON.", "nsi_id": "unitedstatespostalservice-a77078", "operator": "United States Postal Service", "operator:short": "USPS", "operator:type": "public", "operator:wikidata": "Q668687", "ref": "3717900001"}, "type": "Feature"}
{"geometry": {"coordinates": [-86.907674, 35.797223], "type": "Point"}, "id": "Fxe6QU3Pz2wfSNWaBOVp8sUeeeU=", "properties": {"@source_uri": "https://tools.usps.com/UspsToolsRestServices/rest/POLocator/findLocations", "@spider": "usps_collection_boxes", "addr:city": "THOMPSON STATION", "addr:country": "US", "addr:postcode": "37179", "addr:state": "TN", "addr:street_address": "1507 THOMPSONS STATION RD W", "amenity": "post_box", "collection_times": "Mo-Fr 16:00; Sa 11:00", "note": "ON 12/24 AND 12/31, THIS BOX MAY BE COLLECTED AS EARLY AS 12 NOON.", "nsi_id": "unitedstatespostalservice-a77078", "operator": "United States Postal Service", "operator:short": "USPS", "operator:type": "public", "operator:wikidata": "Q668687", "ref": "3717900002"}, "type": "Feature"}
{"geometry": {"coordinates": [-86.907674043, 35.797216631], "type": "Point"}, "id": "vN4byQBGVxrmnBVeKqpdHuofUl4=", "properties": {"@source_uri": "https://tools.usps.com/UspsToolsRestServices/rest/POLocator/findLocations", "@spider": "usps_collection_boxes", "addr:city": "THOMPSON STATION", "addr:country": "US", "addr:postcode": "37179", "addr:state": "TN", "addr:street_address": "1507 THOMPSON STATION RD W", "amenity": "post_box", "collection_times": "Mo-Fr 16:00", "indoor": "yes", "note": "ON 12/24 AND 12/31, THIS BOX MAY BE COLLECTED AS EARLY AS 12 NOON.", "nsi_id": "unitedstatespostalservice-a77078", "operator": "United States Postal Service", "operator:short": "USPS", "operator:type": "public", "operator:wikidata": "Q668687", "ref": "3717900004"}, "type": "Feature"}
{"geometry": {"coordinates": [-86.577661, 35.606304], "type": "Point"}, "id": "iAVJgML4Zi0kw_M7PyaruQHKDPU=", "properties": {"@source_uri": "https://tools.usps.com/UspsToolsRestServices/rest/POLocator/findLocations", "@spider": "usps_collection_boxes", "addr:city": "UNIONVILLE", "addr:country": "US", "addr:postcode": "37180", "addr:state": "TN", "addr:street_address": "3370 HIGHWAY 41A N", "amenity": "post_box", "collection_times": "Mo-Fr 15:00; Sa 11:00", "note": "ON 12/24 AND 12/31, THIS BOX MAY BE COLLECTED AS EARLY AS 12 NOON.", "nsi_id": "unitedstatespostalservice-a77078", "operator": "United States Postal Service", "operator:short": "USPS", "operator:type": "public", "operator:wikidata": "Q668687", "ref": "3718000000"}, "type": "Feature"}
{"geometry": {"coordinates": [-86.577653, 35.606233], "type": "Point"}, "id": "bTlAWwsTFTYyp13Kh3fT0fu6_bg=", "properties": {"@source_uri": "https://tools.usps.com/UspsToolsRestServices/rest/POLocator/findLocations", "@spider": "usps_collection_boxes", "addr:city": "UNIONVILLE", "addr:country": "US", "addr:postcode": "37180", "addr:state": "TN", "addr:street_address": "3370 HIGHWAY 41A N", "amenity": "post_box", "collection_times": "Mo-Fr 15:00; Sa 11:00", "indoor": "yes", "note": "ON 12/24 AND 12/31, THIS BOX MAY BE COLLECTED AS EARLY AS 12 NOON.", "nsi_id": "unitedstatespostalservice-a77078", "operator": "United States Postal Service", "operator:short": "USPS", "operator:type": "public", "operator:wikidata": "Q668687", "ref": "3718000002"}, "type": "Feature"}
{"geometry": {"coordinates": [-86.577628242, 35.606294988], "type": "Point"}, "id": "NjAX1wnJxuTitbKJGN9rSr12JIk=", "properties": {"@source_uri": "https://tools.usps.com/UspsToolsRestServices/rest/POLocator/findLocations", "@spider": "usps_collection_boxes", "addr:city": "UNIONVILLE", "addr:country": "US", "addr:postcode": "37180", "addr:state": "TN", "addr:street_address": "3370 HIGHWAY 41A N", "amenity": "post_box", "collection_times": "Mo-Fr 15:00", "indoor": "yes", "note": "ON 12/24 AND 12/31, THIS BOX MAY BE COLLECTED AS EARLY AS 12 NOON.", "nsi_id": "unitedstatespostalservice-a77078", "operator": "United States Postal Service", "operator:short": "USPS", "operator:type": "public", "operator:wikidata": "Q668687", "ref": "3718000003"}, "type": "Feature"}
{"geometry": {"coordinates": [-87.442467, 36.225652], "type": "Point"}, "id": "2Ky-D8dPs60TgVkLvRIwH7UlkWI=", "properties": {"@source_uri": "https://tools.usps.com/UspsToolsRestServices/rest/POLocator/findLocations", "@spider": "usps_collection_boxes", "addr:city": "VANLEER", "addr:country": "US", "addr:postcode": "37181", "addr:state": "TN", "addr:street_address": "4460 HIGHWAY 49 W", "amenity": "post_box", "collection_times": "Mo-Fr 15:00; Sa 10:30", "note": "ON 12/24 AND 12/31, THIS BOX MAY BE COLLECTED AS EARLY AS 12 NOON.", "nsi_id": "unitedstatespostalservice-a77078", "operator": "United States Postal Service", "operator:short": "USPS", "operator:type": "public", "operator:wikidata": "Q668687", "ref": "3718100001"}, "type": "Feature"}
{"geometry": {"coordinates": [-87.442508, 36.225648], "type": "Point"}, "id": "vph3bErWIqgoLJRbByGjjnFr6Es=", "properties": {"@source_uri": "https://tools.usps.com/UspsToolsRestServices/rest/POLocator/findLocations", "@spider": "usps_collection_boxes", "addr:city": "VANLEER", "addr:country": "US", "addr:postcode": "37181", "addr:state": "TN", "addr:street_address": "4460 HIGHWAY 49 W", "amenity": "post_box", "collection_times": "Mo-Fr 15:00; Sa 10:30", "indoor": "yes", "note": "ON 12/24 AND 12/31, THIS BOX MAY BE COLLECTED AS EARLY AS 12 NOON.", "nsi_id": "unitedstatespostalservice-a77078", "operator": "United States Postal Service", "operator:short": "USPS", "operator:type": "public", "operator:wikidata": "Q668687", "ref": "3718100002"}, "type": "Feature"}
{"geometry": {"coordinates": [-87.443770021, 36.22676254], "type": "Point"}, "id": "b9HZMQm1fcQ1jw1PcJekqypCaMk=", "properties": {"@source_uri": "https://tools.usps.com/UspsToolsRestServices/rest/POLocator/findLocations", "@spider": "usps_collection_boxes", "addr:city": "VANLEER", "addr:country": "US", "addr:postcode": "37181", "addr:state": "TN", "addr:street_address": "4460 HIGHWAY 49 W", "amenity": "post_box", "collection_times": "Mo-Fr 15:00", "indoor": "yes", "note": "ON 12/24 AND 12/31, THIS BOX MAY BE COLLECTED AS EARLY AS 12 NOON.", "nsi_id": "unitedstatespostalservice-a77078", "operator": "United States Postal Service", "operator:short": "USPS", "operator:type": "public", "operator:wikidata": "Q668687", "ref": "3718100003"}, "type": "Feature"}
{"geometry": {"coordinates": [-86.288884, 35.509373], "type": "Point"}, "id": "AmEEggv6et6-PrJ9huvqOYAPQMM=", "properties": {"@source_uri": "https://tools.usps.com/UspsToolsRestServices/rest/POLocator/findLocations", "@spider": "usps_collection_boxes", "addr:city": "WARTRACE", "addr:country": "US", "addr:postcode": "37183", "addr:state": "TN", "addr:street_address": "506 BLACKMAN BLVD W", "amenity": "post_box", "collection_times": "Mo-Fr 15:30; Sa 10:30", "indoor": "yes", "note": "ON 12/24 AND 12/31, THIS BOX MAY BE COLLECTED AS EARLY AS 12 NOON.", "nsi_id": "unitedstatespostalservice-a77078", "operator": "United States Postal Service", "operator:short": "USPS", "operator:type": "public", "operator:wikidata": "Q668687", "ref": "3718300001"}, "type": "Feature"}
{"geometry": {"coordinates": [-86.334023, 35.524846], "type": "Point"}, "id": "bHsBR6L3j_kUNMJd4WSlLM7T9oY=", "properties": {"@source_uri": "https://tools.usps.com/UspsToolsRestServices/rest/POLocator/findLocations", "@spider": "usps_collection_boxes", "addr:city": "WARTRACE", "addr:country": "US", "addr:postcode": "37183", "addr:state": "TN", "addr:street_address": "506 BLACKMAN BLVD W", "amenity": "post_box", "collection_times": "Mo-Fr 15:30; Sa 10:30", "note": "ON 12/24 AND 12/31, THIS BOX MAY BE COLLECTED AS EARLY AS 12 NOON.", "nsi_id": "unitedstatespostalservice-a77078", "operator": "United States Postal Service", "operator:short": "USPS", "operator:type": "public", "operator:wikidata": "Q668687", "ref": "3718300002"}, "type": "Feature"}
{"geometry": {"coordinates": [-86.288884, 35.509373], "type": "Point"}, "id": "WdZPmlEiFBR-XM9jHELDWKZ0HNE=", "properties": {"@source_uri": "https://tools.usps.com/UspsToolsRestServices/rest/POLocator/findLocations", "@spider": "usps_collection_boxes", "addr:city": "WARTRACE", "addr:country": "US", "addr:postcode": "37183", "addr:state": "TN", "addr:street_address": "506 BLACKMAN BLVD W", "amenity": "post_box", "collection_times": "Mo-Fr 15:30", "indoor": "yes", "note": "ON 12/24 AND 12/31, THIS BOX MAY BE COLLECTED AS EARLY AS 12 NOON.", "nsi_id": "unitedstatespostalservice-a77078", "operator": "United States Postal Service", "operator:short": "USPS", "operator:type": "public", "operator:wikidata": "Q668687", "ref": "3718300003"}, "type": "Feature"}
{"geometry": {"coordinates": [-86.130044, 36.10011], "type": "Point"}, "id": "ZBPXQohRh2CEZJp2DRhL8JIj_P0=", "properties": {"@source_uri": "https://tools.usps.com/UspsToolsRestServices/rest/POLocator/findLocations", "@spider": "usps_collection_boxes", "addr:city": "WATERTOWN", "addr:country": "US", "addr:postcode": "37184", "addr:state": "TN", "addr:street_address": "601 E MAIN ST", "amenity": "post_box", "collection_times": "Mo-Fr 16:30; Sa 12:00", "note": "ON 12/24 AND 12/31, THIS BOX MAY BE COLLECTED AS EARLY AS 12 NOON.", "nsi_id": "unitedstatespostalservice-a77078", "operator": "United States Postal Service", "operator:short": "USPS", "operator:type": "public", "operator:wikidata": "Q668687", "ref": "3718400001"}, "type": "Feature"}
{"geometry": {"coordinates": [-86.1339641, 36.100118], "type": "Point"}, "id": "6MH1lFvGhM_hFHqC4I3nqFyDgs4=", "properties": {"@source_uri": "https://tools.usps.com/UspsToolsRestServices/rest/POLocator/findLocations", "@spider": "usps_collection_boxes", "addr:city": "WATERTOWN", "addr:country": "US", "addr:postcode": "37184", "addr:state": "TN", "addr:street_address": "CENTER PUBLIC SQ", "amenity": "post_box", "collection_times": "Mo-Sa 12:00", "nsi_id": "unitedstatespostalservice-a77078", "operator": "United States Postal Service", "operator:short": "USPS", "operator:type": "public", "operator:wikidata": "Q668687", "ref": "3718400004"}, "type": "Feature"}
{"geometry": {"coordinates": [-86.129929, 36.100123], "type": "Point"}, "id": "QzyzIuiudloHvOIeaP6NMVfdpQE=", "properties": {"@source_uri": "https://tools.usps.com/UspsToolsRestServices/rest/POLocator/findLocations", "@spider": "usps_collection_boxes", "addr:city": "WATERTOWN", "addr:country": "US", "addr:postcode": "37184", "addr:state": "TN", "addr:street_address": "601 E MAIN ST", "amenity": "post_box", "collection_times": "Mo-Fr 16:30; Sa 12:00", "indoor": "yes", "note": "ON 12/24 AND 12/31, THIS BOX MAY BE COLLECTED AS EARLY AS 12 NOON.", "nsi_id": "unitedstatespostalservice-a77078", "operator": "United States Postal Service", "operator:short": "USPS", "operator:type": "public", "operator:wikidata": "Q668687", "ref": "3718400005"}, "type": "Feature"}
{"geometry": {"coordinates": [-86.129935831, 36.100087663], "type": "Point"}, "id": "L0p2OO3zgNnlkNHKTEi5Tutx1eg=", "properties": {"@source_uri": "https://tools.usps.com/UspsToolsRestServices/rest/POLocator/findLocations", "@spider": "usps_collection_boxes", "addr:city": "WATERTOWN", "addr:country": "US", "addr:postcode": "37184", "addr:state": "TN", "addr:street_address": "601 E MAIN ST", "amenity": "post_box", "collection_times": "Mo-Fr 16:30", "indoor": "yes", "note": "ON 12/24 AND 12/31, THIS BOX MAY BE COLLECTED AS EARLY AS 12 NOON.", "nsi_id": "unitedstatespostalservice-a77078", "operator": "United States Postal Service", "operator:short": "USPS", "operator:type": "public", "operator:wikidata": "Q668687", "ref": "3718400006"}, "type": "Feature"}
{"geometry": {"coordinates": [-87.801452, 36.084012], "type": "Point"}, "id": "Qd9LUme_ty0gQPdxoivn4uBE1jM=", "properties": {"@source_uri": "https://tools.usps.com/UspsToolsRestServices/rest/POLocator/findLocations", "@spider": "usps_collection_boxes", "addr:city": "WAVERLY", "addr:country": "US", "addr:postcode": "37185", "addr:state": "TN", "addr:street_address": "403 W MAIN ST", "amenity": "post_box", "collection_times": "Mo-Fr 16:00; Sa 11:30", "note": "ON 12/24 AND 12/31, THIS BOX MAY BE COLLECTED AS EARLY AS 12 NOON.", "nsi_id": "unitedstatespostalservice-a77078", "operator": "United States Postal Service", "operator:short": "USPS", "operator:type": "public", "operator:wikidata": "Q668687", "ref": "3718500002"}, "type": "Feature"}
{"geometry": {"coordinates": [-87.7946772, 36.083292], "type": "Point"}, "id": "HOdfHFkp-fzQX4MQG2rw1Pl4VP8=", "properties": {"@source_uri": "https://tools.usps.com/UspsToolsRestServices/rest/POLocator/findLocations", "@spider": "usps_collection_boxes", "addr:city": "WAVERLY", "addr:country": "US", "addr:postcode": "37185", "addr:state": "TN", "addr:street_address": "117 N COURT SQ", "amenity": "post_box", "collection_times": "Mo-Sa 10:00", "nsi_id": "unitedstatespostalservice-a77078", "operator": "United States Postal Service", "operator:short": "USPS", "operator:type": "public", "operator:wikidata": "Q668687", "ref": "3718500008"}, "type": "Feature"}
{"geometry": {"coordinates": [-87.7926574, 36.076633], "type": "Point"}, "id": "azFOuCqpngXfVD-_mFq6UvcCLXI=", "properties": {"@source_uri": "https://tools.usps.com/UspsToolsRestServices/rest/POLocator/findLocations", "@spider": "usps_collection_boxes", "addr:city": "WAVERLY", "addr:country": "US", "addr:postcode": "37185", "addr:state": "TN", "addr:street_address": "451 HIGHWAY 13 S", "amenity": "post_box", "collection_times": "Mo-Sa 10:00", "nsi_id": "unitedstatespostalservice-a77078", "operator": "United States Postal Service", "operator:short": "USPS", "operator:type": "public", "operator:wikidata": "Q668687", "ref": "3718500011"}, "type": "Feature"}
{"geometry": {"coordinates": [-87.7945664, 36.082548], "type": "Point"}, "id": "RnRnDjtq_rNzrBmyta1twrDRWTw=", "properties": {"@source_uri": "https://tools.usps.com/UspsToolsRestServices/rest/POLocator/findLocations", "@spider": "usps_collection_boxes", "addr:city": "WAVERLY", "addr:country": "US", "addr:postcode": "37185", "addr:state": "TN", "addr:street_address": "100 S COURT SQ", "amenity": "post_box", "collection_times": "Mo-Sa 10:00", "nsi_id": "unitedstatespostalservice-a77078", "operator": "United States Postal Service", "operator:short": "USPS", "operator:type": "public", "operator:wikidata": "Q668687", "ref": "3718500012"}, "type": "Feature"}
{"geometry": {"coordinates": [-87.7959164, 36.083316], "type": "Point"}, "id": "DSY7B6B0WtAusJ3mtLag6DoCP4w=", "properties": {"@source_uri": "https://tools.usps.com/UspsToolsRestServices/rest/POLocator/findLocations", "@spider": "usps_collection_boxes", "addr:city": "WAVERLY", "addr:country": "US", "addr:postcode": "37185", "addr:state": "TN", "addr:street_address": "122 W MAIN ST", "amenity": "post_box", "collection_times": "Mo-Sa 10:00", "nsi_id": "unitedstatespostalservice-a77078", "operator": "United States Postal Service", "operator:short": "USPS", "operator:type": "public", "operator:wikidata": "Q668687", "ref": "3718500013"}, "type": "Feature"}
{"geometry": {"coordinates": [-87.7930084, 36.08302], "type": "Point"}, "id": "vV0xcxu7ILRH9FuP06SXoBjYiwI=", "properties": {"@source_uri": "https://tools.usps.com/UspsToolsRestServices/rest/POLocator/findLocations", "@spider": "usps_collection_boxes", "addr:city": "WAVERLY", "addr:country": "US", "addr:postcode": "37185", "addr:state": "TN", "addr:street_address": "108 E MAIN ST", "amenity": "post_box", "collection_times": "Mo-Sa 10:00", "nsi_id": "unitedstatespostalservice-a77078", "operator": "United States Postal Service", "operator:short": "USPS", "operator:type": "public", "operator:wikidata": "Q668687", "ref": "3718500017"}, "type": "Feature"}
{"geometry": {"coordinates": [-87.801419, 36.083982], "type": "Point"}, "id": "mM3-GrfsDM7H0JockGEMTEhQcuI=", "properties": {"@source_uri": "https://tools.usps.com/UspsToolsRestServices/rest/POLocator/findLocations", "@spider": "usps_collection_boxes", "addr:city": "WAVERLY", "addr:country": "US", "addr:postcode": "37185", "addr:state": "TN", "addr:street_address": "403 W MAIN ST", "amenity": "post_box", "collection_times": "Mo-Fr 16:00; Sa 11:30", "indoor": "yes", "note": "ON 12/24 AND 12/31, THIS BOX MAY BE COLLECTED AS EARLY AS 12 NOON.", "nsi_id": "unitedstatespostalservice-a77078", "operator": "United States Postal Service", "operator:short": "USPS", "operator:type": "public", "operator:wikidata": "Q668687", "ref": "3718500019"}, "type": "Feature"}
{"geometry": {"coordinates": [-87.801921813, 36.084044436], "type": "Point"}, "id": "tLsvlgvekgfJVrmhPR1W3Jr2qC0=", "properties": {"@source_uri": "https://tools.usps.com/UspsToolsRestServices/rest/POLocator/findLocations", "@spider": "usps_collection_boxes", "addr:city": "WAVERLY", "addr:country": "US", "addr:postcode": "37185", "addr:state": "TN", "addr:street_address": "403 W MAIN ST", "amenity": "post_box", "collection_times": "Mo-Fr 16:00; Sa 11:30", "indoor": "yes", "note": "ON 12/24 AND 12/31, THIS BOX MAY BE COLLECTED AS EARLY AS 12 NOON.", "nsi_id": "unitedstatespostalservice-a77078", "operator": "United States Postal Service", "operator:short": "USPS", "operator:type": "public", "operator:wikidata": "Q668687", "ref": "3718500021"}, "type": "Feature"}
{"geometry": {"coordinates": [-86.247312, 36.561965], "type": "Point"}, "id": "lQ8fuenl2NQjfpgKQLWiJflwiHs=", "properties": {"@source_uri": "https://tools.usps.com/UspsToolsRestServices/rest/POLocator/findLocations", "@spider": "usps_collection_boxes", "addr:city": "WESTMORELAND", "addr:country": "US", "addr:postcode": "37186", "addr:state": "TN", "addr:street_address": "1 DEPOT ST", "amenity": "post_box", "collection_times": "Mo-Fr 15:30; Sa 11:30", "note": "ON 12/24 AND 12/31, THIS BOX MAY BE COLLECTED AS EARLY AS 12 NOON.", "nsi_id": "unitedstatespostalservice-a77078", "operator": "United States Postal Service", "operator:short": "USPS", "operator:type": "public", "operator:wikidata": "Q668687", "ref": "3718600001"}, "type": "Feature"}
{"geometry": {"coordinates": [-86.247429, 36.561963], "type": "Point"}, "id": "OsysXrw-55CWNfu9RXVvjJfXoNM=", "properties": {"@source_uri": "https://tools.usps.com/UspsToolsRestServices/rest/POLocator/findLocations", "@spider": "usps_collection_boxes", "addr:city": "WESTMORELAND", "addr:country": "US", "addr:postcode": "37186", "addr:state": "TN", "addr:street_address": "1 DEPOT ST", "amenity": "post_box", "collection_times": "Mo-Fr 15:30; Sa 11:30", "indoor": "yes", "note": "ON 12/24 AND 12/31, THIS BOX MAY BE COLLECTED AS EARLY AS 12 NOON.", "nsi_id": "unitedstatespostalservice-a77078", "operator": "United States Postal Service", "operator:short": "USPS", "operator:type": "public", "operator:wikidata": "Q668687", "ref": "3718600002"}, "type": "Feature"}
{"geometry": {"coordinates": [-86.247005559, 36.561896075], "type": "Point"}, "id": "lRhYvn8qcGXuAbqh_Ll4oRBmBhM=", "properties": {"@source_uri": "https://tools.usps.com/UspsToolsRestServices/rest/POLocator/findLocations", "@spider": "usps_collection_boxes", "addr:city": "WESTMORELAND", "addr:country": "US", "addr:postcode": "37186", "addr:state": "TN", "addr:street_address": "1 DEPOT ST", "amenity": "post_box", "collection_times": "Mo-Fr 15:30", "indoor": "yes", "note": "ON 12/24 AND 12/31, THIS BOX MAY BE COLLECTED AS EARLY AS 12 NOON.", "nsi_id": "unitedstatespostalservice-a77078", "operator": "United States Postal Service", "operator:short": "USPS", "operator:type": "public", "operator:wikidata": "Q668687", "ref": "3718600003"}, "type": "Feature"}
{"geometry": {"coordinates": [-87.223823, 36.108399], "type": "Point"}, "id": "muBNBzMBBdGsQuzV7l7U0PBQKWg=", "properties": {"@source_uri": "https://tools.usps.com/UspsToolsRestServices/rest/POLocator/findLocations", "@spider": "usps_collection_boxes", "addr:city": "WHITE BLUFF", "addr:country": "US", "addr:postcode": "37187", "addr:state": "TN", "addr:street_address": "4401 HIGHWAY 70 E", "amenity": "post_box", "collection_times": "Mo-Fr 16:00; Sa 12:00", "note": "ON 12/24 AND 12/31, THIS BOX MAY BE COLLECTED AS EARLY AS 12 NOON.", "nsi_id": "unitedstatespostalservice-a77078", "operator": "United States Postal Service", "operator:short": "USPS", "operator:type": "public", "operator:wikidata": "Q668687", "ref": "3718700001"}, "type": "Feature"}
{"geometry": {"coordinates": [-87.223939, 36.108391], "type": "Point"}, "id": "YrKVYWbLZztAqXATnnCUVV3acNQ=", "properties": {"@source_uri": "https://tools.usps.com/UspsToolsRestServices/rest/POLocator/findLocations", "@spider": "usps_collection_boxes", "addr:city": "WHITE BLUFF", "addr:country": "US", "addr:postcode": "37187", "addr:state": "TN", "addr:street_address": "4401 HIGHWAY 70 E", "amenity": "post_box", "collection_times": "Mo-Fr 16:00; Sa 12:00", "indoor": "yes", "note": "ON 12/24 AND 12/31, THIS BOX MAY BE COLLECTED AS EARLY AS 12 NOON.", "nsi_id": "unitedstatespostalservice-a77078", "operator": "United States Postal Service", "operator:short": "USPS", "operator:type": "public", "operator:wikidata": "Q668687", "ref": "3718700003"}, "type": "Feature"}
{"geometry": {"coordinates": [-87.223859133, 36.108443014], "type": "Point"}, "id": "RYVLtNOQHGglJMxZC0LcBPMFH4c=", "properties": {"@source_uri": "https://tools.usps.com/UspsToolsRestServices/rest/POLocator/findLocations", "@spider": "usps_collection_boxes", "addr:city": "WHITE BLUFF", "addr:country": "US", "addr:postcode": "37187", "addr:state": "TN", "addr:street_address": "4401 HIGHWAY 70 E", "amenity": "post_box", "collection_times": "Mo-Fr 16:00", "indoor": "yes", "note": "ON 12/24 AND 12/31, THIS BOX MAY BE COLLECTED AS EARLY AS 12 NOON.", "nsi_id": "unitedstatespostalservice-a77078", "operator": "United States Postal Service", "operator:short": "USPS", "operator:type": "public", "operator:wikidata": "Q668687", "ref": "3718700005"}, "type": "Feature"}
{"geometry": {"coordinates": [-86.6556446, 36.469093], "type": "Point"}, "id": "Fo5ClmPYrolCdRtg7rlqJEtDjwc=", "properties": {"@source_uri": "https://tools.usps.com/UspsToolsRestServices/rest/POLocator/findLocations", "@spider": "usps_collection_boxes", "addr:city": "WHITE HOUSE", "addr:country": "US", "addr:postcode": "37188", "addr:state": "TN", "addr:street_address": "100 HIGHWAY 76", "amenity": "post_box", "collection_times": "Mo-Sa 11:00", "nsi_id": "unitedstatespostalservice-a77078", "operator": "United States Postal Service", "operator:short": "USPS", "operator:type": "public", "operator:wikidata": "Q668687", "ref": "3718800002"}, "type": "Feature"}
{"geometry": {"coordinates": [-86.67083, 36.469515], "type": "Point"}, "id": "gcYVB-bFbghfX3RXez8HukEMjmU=", "properties": {"@source_uri": "https://tools.usps.com/UspsToolsRestServices/rest/POLocator/findLocations", "@spider": "usps_collection_boxes", "addr:city": "WHITE HOUSE", "addr:country": "US", "addr:postcode": "37188", "addr:state": "TN", "addr:street_address": "616 HIGHWAY 76", "amenity": "post_box", "collection_times": "Mo-Fr 16:00; Sa 14:00", "note": "ON 12/24 AND 12/31, THIS BOX MAY BE COLLECTED AS EARLY AS 12 NOON.", "nsi_id": "unitedstatespostalservice-a77078", "operator": "United States Postal Service", "operator:short": "USPS", "operator:type": "public", "operator:wikidata": "Q668687", "ref": "3718800003"}, "type": "Feature"}
{"geometry": {"coordinates": [-86.670759, 36.46948], "type": "Point"}, "id": "lvIdWWoZM_Y9lf1CDJPHqNd2cEY=", "properties": {"@source_uri": "https://tools.usps.com/UspsToolsRestServices/rest/POLocator/findLocations", "@spider": "usps_collection_boxes", "addr:city": "WHITE HOUSE", "addr:country": "US", "addr:postcode": "37188", "addr:state": "TN", "addr:street_address": "616 HIGHWAY 76", "amenity": "post_box", "collection_times": "Mo-Fr 16:00; Sa 14:00", "indoor": "yes", "note": "ON 12/24 AND 12/31, THIS BOX MAY BE COLLECTED AS EARLY AS 12 NOON.", "nsi_id": "unitedstatespostalservice-a77078", "operator": "United States Postal Service", "operator:short": "USPS", "operator:type": "public", "operator:wikidata": "Q668687", "ref": "3718800007"}, "type": "Feature"}
{"geometry": {"coordinates": [-86.670759, 36.46948], "type": "Point"}, "id": "6gq3e148MgFkb2VanE_ayqBJ58c=", "properties": {"@source_uri": "https://tools.usps.com/UspsToolsRestServices/rest/POLocator/findLocations", "@spider": "usps_collection_boxes", "addr:city": "WHITE HOUSE", "addr:country": "US", "addr:postcode": "37188", "addr:state": "TN", "addr:street_address": "616 HIGHWAY 76", "amenity": "post_box", "collection_times": "Mo-Fr 16:00; Sa 14:00", "indoor": "yes", "note": "ON 12/24 AND 12/31, THIS BOX MAY BE COLLECTED AS EARLY AS 12 NOON.", "nsi_id": "unitedstatespostalservice-a77078", "operator": "United States Postal Service", "operator:short": "USPS", "operator:type": "public", "operator:wikidata": "Q668687", "ref": "3718800008"}, "type": "Feature"}
{"geometry": {"coordinates": [-86.6626473, 36.460594], "type": "Point"}, "id": "kFjHbAh6k4_86Oa_tn-r2bC-Lrc=", "properties": {"@source_uri": "https://tools.usps.com/UspsToolsRestServices/rest/POLocator/findLocations", "@spider": "usps_collection_boxes", "addr:city": "WHITE HOUSE", "addr:country": "US", "addr:postcode": "37188", "addr:state": "TN", "addr:street_address": "2910 HIGHWAY 31 W", "amenity": "post_box", "collection_times": "Mo-Sa 12:00", "nsi_id": "unitedstatespostalservice-a77078", "operator": "United States Postal Service", "operator:short": "USPS", "operator:type": "public", "operator:wikidata": "Q668687", "ref": "3718800009"}, "type": "Feature"}
{"geometry": {"coordinates": [-86.672320947, 36.469604458], "type": "Point"}, "id": "yJVe0bdspYkxPx68du8opAHrQqw=", "properties": {"@source_uri": "https://tools.usps.com/UspsToolsRestServices/rest/POLocator/findLocations", "@spider": "usps_collection_boxes", "addr:city": "WHITE HOUSE", "addr:country": "US", "addr:postcode": "37188", "addr:state": "TN", "addr:street_address": "616 HIGHWAY 76", "amenity": "post_box", "collection_times": "Mo-Fr 16:00", "indoor": "yes", "note": "ON 12/24 AND 12/31, THIS BOX MAY BE COLLECTED AS EARLY AS 12 NOON.", "nsi_id": "unitedstatespostalservice-a77078", "operator": "United States Postal Service", "operator:short": "USPS", "operator:type": "public", "operator:wikidata": "Q668687", "ref": "3718800010"}, "type": "Feature"}
{"geometry": {"coordinates": [-86.830841, 36.26432], "type": "Point"}, "id": "mK1JoCEunisqRBoLCDuqmsvTm-Y=", "properties": {"@source_uri": "https://tools.usps.com/UspsToolsRestServices/rest/POLocator/findLocations", "@spider": "usps_collection_boxes", "addr:city": "WHITES CREEK", "addr:country": "US", "addr:postcode": "37189", "addr:state": "TN", "addr:street_address": "4402 WHITES CREEK PIKE", "amenity": "post_box", "collection_times": "Mo-Fr 15:30; Sa 10:30", "note": "ON 12/24 AND 12/31, THIS BOX MAY BE COLLECTED AS EARLY AS 12 NOON.", "nsi_id": "unitedstatespostalservice-a77078", "operator": "United States Postal Service", "operator:short": "USPS", "operator:type": "public", "operator:wikidata": "Q668687", "ref": "3718900001"}, "type": "Feature"}
{"geometry": {"coordinates": [-86.830805, 36.264267], "type": "Point"}, "id": "rZTUxNg1jVGdw4V8TA1ORkwKeFA=", "properties": {"@source_uri": "https://tools.usps.com/UspsToolsRestServices/rest/POLocator/findLocations", "@spider": "usps_collection_boxes", "addr:city": "WHITES CREEK", "addr:country": "US", "addr:postcode": "37189", "addr:state": "TN", "addr:street_address": "4402 WHITES CREEK PIKE", "amenity": "post_box", "collection_times": "Mo-Fr 15:30; Sa 10:00", "indoor": "yes", "note": "ON 12/24 AND 12/31, THIS BOX MAY BE COLLECTED AS EARLY AS 12 NOON.", "nsi_id": "unitedstatespostalservice-a77078", "operator": "United States Postal Service", "operator:short": "USPS", "operator:type": "public", "operator:wikidata": "Q668687", "ref": "3718900002"}, "type": "Feature"}
{"geometry": {"coordinates": [-86.830845053, 36.264320466], "type": "Point"}, "id": "L8RRBink5JQsw0Gaw0hevFNGWM0=", "properties": {"@source_uri": "https://tools.usps.com/UspsToolsRestServices/rest/POLocator/findLocations", "@spider": "usps_collection_boxes", "addr:city": "WHITES CREEK", "addr:country": "US", "addr:postcode": "37189", "addr:state": "TN", "addr:street_address": "4402 WHITES CREEK PIKE", "amenity": "post_box", "collection_times": "Mo-Fr 15:30", "indoor": "yes", "note": "ON 12/24 AND 12/31, THIS BOX MAY BE COLLECTED AS EARLY AS 12 NOON.", "nsi_id": "unitedstatespostalservice-a77078", "operator": "United States Postal Service", "operator:short": "USPS", "operator:type": "public", "operator:wikidata": "Q668687", "ref": "3718900003"}, "type": "Feature"}
{"geometry": {"coordinates": [-86.070285, 35.826647], "type": "Point"}, "id": "x-_11NN_lfkUvE_ELvhKotftUsM=", "properties": {"@source_uri": "https://tools.usps.com/UspsToolsRestServices/rest/POLocator/findLocations", "@spider": "usps_collection_boxes", "addr:city": "WOODBURY", "addr:country": "US", "addr:postcode": "37190", "addr:state": "TN", "addr:street_address": "203 W HIGH ST", "amenity": "post_box", "collection_times": "Mo-Fr 16:30; Sa 12:00", "indoor": "yes", "note": "ON 12/24 AND 12/31, THIS BOX MAY BE COLLECTED AS EARLY AS 12 NOON.", "nsi_id": "unitedstatespostalservice-a77078", "operator": "United States Postal Service", "operator:short": "USPS", "operator:type": "public", "operator:wikidata": "Q668687", "ref": "3719000001"}, "type": "Feature"}
{"geometry": {"coordinates": [-86.070176, 35.826666], "type": "Point"}, "id": "hDcdH1T2YRMwOYDBssFm_whZosE=", "properties": {"@source_uri": "https://tools.usps.com/UspsToolsRestServices/rest/POLocator/findLocations", "@spider": "usps_collection_boxes", "addr:city": "WOODBURY", "addr:country": "US", "addr:postcode": "37190", "addr:state": "TN", "addr:street_address": "203 W HIGH ST", "amenity": "post_box", "collection_times": "Mo-Fr 16:30; Sa 12:00", "note": "ON 12/24 AND 12/31, THIS BOX MAY BE COLLECTED AS EARLY AS 12 NOON.", "nsi_id": "unitedstatespostalservice-a77078", "operator": "United States Postal Service", "operator:short": "USPS", "operator:type": "public", "operator:wikidata": "Q668687", "ref": "3719000002"}, "type": "Feature"}
{"geometry": {"coordinates": [-86.071408, 35.826761], "type": "Point"}, "id": "cs7ORP0PWl3thXkZWXqiKfXfBuo=", "properties": {"@source_uri": "https://tools.usps.com/UspsToolsRestServices/rest/POLocator/findLocations", "@spider": "usps_collection_boxes", "addr:city": "WOODBURY", "addr:country": "US", "addr:postcode": "37190", "addr:state": "TN", "addr:street_address": "200 S TATUM ST", "amenity": "post_box", "collection_times": "Mo-Sa 12:00", "nsi_id": "unitedstatespostalservice-a77078", "operator": "United States Postal Service", "operator:short": "USPS", "operator:type": "public", "operator:wikidata": "Q668687", "ref": "3719000003"}, "type": "Feature"}
{"geometry": {"coordinates": [-86.070031, 35.827477], "type": "Point"}, "id": "Hqi6wHFOWHdtJBUIoywUNcLbSO0=", "properties": {"@source_uri": "https://tools.usps.com/UspsToolsRestServices/rest/POLocator/findLocations", "@spider": "usps_collection_boxes", "addr:city": "WOODBURY", "addr:country": "US", "addr:postcode": "37190", "addr:state": "TN", "addr:street_address": "109 S CANNON ST", "amenity": "post_box", "collection_times": "Mo-Sa 12:00", "nsi_id": "unitedstatespostalservice-a77078", "operator": "United States Postal Service", "operator:short": "USPS", "operator:type": "public", "operator:wikidata": "Q668687", "ref": "3719000004"}, "type": "Feature"}
{"geometry": {"coordinates": [-86.070248545, 35.826597129], "type": "Point"}, "id": "FtU8hgU5FlPb6dZoIfTbVupLnd0=", "properties": {"@source_uri": "https://tools.usps.com/UspsToolsRestServices/rest/POLocator/findLocations", "@spider": "usps_collection_boxes", "addr:city": "WOODBURY", "addr:country": "US", "addr:postcode": "37190", "addr:state": "TN", "addr:street_address": "203 W HIGH ST", "amenity": "post_box", "collection_times": "Mo-Fr 16:30", "indoor": "yes", "note": "ON 12/24 AND 12/31, THIS BOX MAY BE COLLECTED AS EARLY AS 12 NOON.", "nsi_id": "unitedstatespostalservice-a77078", "operator": "United States Postal Service", "operator:short": "USPS", "operator:type": "public", "operator:wikidata": "Q668687", "ref": "3719000008"}, "type": "Feature"}
{"geometry": {"coordinates": [-87.508805, 36.548774], "type": "Point"}, "id": "IDg2eBnbpyiZK5o9D4ZFTFlHj5c=", "properties": {"@source_uri": "https://tools.usps.com/UspsToolsRestServices/rest/POLocator/findLocations", "@spider": "usps_collection_boxes", "addr:city": "WOODLAWN", "addr:country": "US", "addr:postcode": "37191", "addr:state": "TN", "addr:street_address": "2412 DOVER RD", "amenity": "post_box", "collection_times": "Mo-Fr 16:00; Sa 11:15", "indoor": "yes", "note": "ON 12/24 AND 12/31, THIS BOX MAY BE COLLECTED AS EARLY AS 12 NOON.", "nsi_id": "unitedstatespostalservice-a77078", "operator": "United States Postal Service", "operator:short": "USPS", "operator:type": "public", "operator:wikidata": "Q668687", "ref": "3719100001"}, "type": "Feature"}
{"geometry": {"coordinates": [-87.507745, 36.544387], "type": "Point"}, "id": "ca2JFetlh5IxkP4w2zmQf-GQEY0=", "properties": {"@source_uri": "https://tools.usps.com/UspsToolsRestServices/rest/POLocator/findLocations", "@spider": "usps_collection_boxes", "addr:city": "WOODLAWN", "addr:country": "US", "addr:postcode": "37191", "addr:state": "TN", "addr:street_address": "2412 DOVER RD", "amenity": "post_box", "collection_times": "Mo-Fr 16:00; Sa 11:15", "note": "ON 12/24 AND 12/31, THIS BOX MAY BE COLLECTED AS EARLY AS 12 NOON.", "nsi_id": "unitedstatespostalservice-a77078", "operator": "United States Postal Service", "operator:short": "USPS", "operator:type": "public", "operator:wikidata": "Q668687", "ref": "3719100002"}, "type": "Feature"}
{"geometry": {"coordinates": [-87.508790148, 36.548735681], "type": "Point"}, "id": "xe5KDOGCPHK2BGdDdG5nzfUvjdU=", "properties": {"@source_uri": "https://tools.usps.com/UspsToolsRestServices/rest/POLocator/findLocations", "@spider": "usps_collection_boxes", "addr:city": "WOODLAWN", "addr:country": "US", "addr:postcode": "37191", "addr:state": "TN", "addr:street_address": "2412 DOVER RD", "amenity": "post_box", "collection_times": "Mo-Fr 16:00; Sa 11:15", "indoor": "yes", "note": "ON 12/24 AND 12/31, THIS BOX MAY BE COLLECTED AS EARLY AS 12 NOON.", "nsi_id": "unitedstatespostalservice-a77078", "operator": "United States Postal Service", "operator:short": "USPS", "operator:type": "public", "operator:wikidata": "Q668687", "ref": "3719100003"}, "type": "Feature"}
