{"geometry": {"coordinates": [-86.7758351, 36.1613599], "type": "Point"}, "id": "u2UI0-w84cVG3kJk_dMhCseucS4=", "properties": {"@source_uri": "https://tools.usps.com/UspsToolsRestServices/rest/POLocator/findLocations", "@spider": "usps_collection_boxes", "addr:city": "NASHVILLE", "addr:country": "US", "addr:postcode": "37201", "addr:state": "TN", "addr:street_address": "401 3RD AVE N", "amenity": "post_box", "collection_times": "Mo-Fr 16:00", "note": "ON 12/24 AND 12/31, THIS BOX MAY BE COLLECTED AS EARLY AS 12 NOON.", "nsi_id": "unitedstatespostalservice-a77078", "operator": "United States Postal Service", "operator:short": "USPS", "operator:type": "public", "operator:wikidata": "Q668687", "ref": "3720100004"}, "type": "Feature"}
{"geometry": {"coordinates": [-86.7758351, 36.1613599], "type": "Point"}, "id": "b515hPJs14eWREPP1XSNvG3Yzdk=", "properties": {"@source_uri": "https://tools.usps.com/UspsToolsRestServices/rest/POLocator/findLocations", "@spider": "usps_collection_boxes", "addr:city": "NASHVILLE", "addr:country": "US", "addr:postcode": "37201", "addr:state": "TN", "addr:street_address": "219 2ND AVE N", "amenity": "post_box", "collection_times": "Mo-Fr 17:00", "note": "ON 12/24 AND 12/31, THIS BOX MAY BE COLLECTED AS EARLY AS 12 NOON.", "nsi_id": "unitedstatespostalservice-a77078", "operator": "United States Postal Service", "operator:short": "USPS", "operator:type": "public", "operator:wikidata": "Q668687", "ref": "3720100019"}, "type": "Feature"}
{"geometry": {"coordinates": [-86.7758351, 36.1613599], "type": "Point"}, "id": "PvXr1oC6cREzl--pLf73pb5wzTU=", "properties": {"@source_uri": "https://tools.usps.com/UspsToolsRestServices/rest/POLocator/findLocations", "@spider": "usps_collection_boxes", "addr:city": "NASHVILLE", "addr:country": "US", "addr:postcode": "37201", "addr:state": "TN", "addr:street_address": "211 COMMERCE ST", "amenity": "post_box", "collection_times": "Mo-Fr 17:00", "note": "ON 12/24 AND 12/31, THIS BOX MAY BE COLLECTED AS EARLY AS 12 NOON.", "nsi_id": "unitedstatespostalservice-a77078", "operator": "United States Postal Service", "operator:short": "USPS", "operator:type": "public", "operator:wikidata": "Q668687", "ref": "3720100050"}, "type": "Feature"}
{"geometry": {"coordinates": [-86.783482, 36.158263], "type": "Point"}, "id": "AQZNyZSHXWULtfE-Is26joJodZc=", "properties": {"@source_uri": "https://tools.usps.com/UspsToolsRestServices/rest/POLocator/findLocations", "@spider": "usps_collection_boxes", "addr:city": "NASHVILLE", "addr:country": "US", "addr:postcode": "37202", "addr:state": "TN", "addr:street_address": "901 BROADWAY", "amenity": "post_box", "collection_times": "Mo-Fr 17:00", "indoor": "yes", "note": "ON 12/24 AND 12/31, THIS BOX MAY BE COLLECTED AS EARLY AS 12 NOON.", "nsi_id": "unitedstatespostalservice-a77078", "operator": "United States Postal Service", "operator:short": "USPS", "operator:type": "public", "operator:wikidata": "Q668687", "ref": "3720200004"}, "type": "Feature"}
{"geometry": {"coordinates": [-86.783432679, 36.158239936], "type": "Point"}, "id": "QDc0Il6L2Z7NoW0WCTcEDz3P3zU=", "properties": {"@source_uri": "https://tools.usps.com/UspsToolsRestServices/rest/POLocator/findLocations", "@spider": "usps_collection_boxes", "addr:city": "NASHVILLE", "addr:country": "US", "addr:postcode": "37202", "addr:state": "TN", "addr:street_address": "901 BROADWAY", "amenity": "post_box", "collection_times": "Mo-Fr 17:00", "indoor": "yes", "note": "ON 12/24 AND 12/31, THIS BOX MAY BE COLLECTED AS EARLY AS 12 NOON.", "nsi_id": "unitedstatespostalservice-a77078", "operator": "United States Postal Service", "operator:short": "USPS", "operator:type": "public", "operator:wikidata": "Q668687", "ref": "3720200005"}, "type": "Feature"}
{"geometry": {"coordinates": [-86.8001519, 36.149702], "type": "Point"}, "id": "3xcDCsNORTCV3DAOmL_1Cn02XEY=", "properties": {"@source_uri": "https://tools.usps.com/UspsToolsRestServices/rest/POLocator/findLocations", "@spider": "usps_collection_boxes", "addr:city": "NASHVILLE", "addr:country": "US", "addr:postcode": "37203", "addr:state": "TN", "addr:street_address": "2016 TERRACE PL", "amenity": "post_box", "collection_times": "Mo-Fr 15:30", "note": "ON 12/24 AND 12/31, THIS BOX MAY BE COLLECTED AS EARLY AS 12 NOON.", "nsi_id": "unitedstatespostalservice-a77078", "operator": "United States Postal Service", "operator:short": "USPS", "operator:type": "public", "operator:wikidata": "Q668687", "ref": "3720300096"}, "type": "Feature"}
{"geometry": {"coordinates": [-86.80071, 36.154755], "type": "Point"}, "id": "pLf8bmLXAv3PbvqtECjhdLm4fpA=", "properties": {"@source_uri": "https://tools.usps.com/UspsToolsRestServices/rest/POLocator/findLocations", "@spider": "usps_collection_boxes", "addr:city": "NASHVILLE", "addr:country": "US", "addr:postcode": "37203", "addr:state": "TN", "addr:street_address": "3310 WEST END AVE", "amenity": "post_box", "collection_times": "Mo-Fr 10:15", "nsi_id": "unitedstatespostalservice-a77078", "operator": "United States Postal Service", "operator:short": "USPS", "operator:type": "public", "operator:wikidata": "Q668687", "ref": "3720300173"}, "type": "Feature"}
{"geometry": {"coordinates": [-86.8152044, 36.145209], "type": "Point"}, "id": "IXEbF3SpJ2YF_tspjNQYYJcRyo0=", "properties": {"@source_uri": "https://tools.usps.com/UspsToolsRestServices/rest/POLocator/findLocations", "@spider": "usps_collection_boxes", "addr:city": "NASHVILLE", "addr:country": "US", "addr:postcode": "37203", "addr:state": "TN", "addr:street_address": "3000 POSTON AVE", "amenity": "post_box", "collection_times": "Mo-Fr 15:45", "note": "ON 12/24 AND 12/31, THIS BOX MAY BE COLLECTED AS EARLY AS 12 NOON.", "nsi_id": "unitedstatespostalservice-a77078", "operator": "United States Postal Service", "operator:short": "USPS", "operator:type": "public", "operator:wikidata": "Q668687", "ref": "3720300209"}, "type": "Feature"}
{"geometry": {"coordinates": [-86.80071, 36.154755], "type": "Point"}, "id": "mCxOyYaU2AIYvC08qnl65flp_LY=", "properties": {"@source_uri": "https://tools.usps.com/UspsToolsRestServices/rest/POLocator/findLocations", "@spider": "usps_collection_boxes", "addr:city": "NASHVILLE", "addr:country": "US", "addr:postcode": "37203", "addr:state": "TN", "addr:street_address": "1718 CHURCH ST", "amenity": "post_box", "collection_times": "Mo-Fr 17:00", "note": "ON 12/24 AND 12/31, THIS BOX MAY BE COLLECTED AS EARLY AS 12 NOON.", "nsi_id": "unitedstatespostalservice-a77078", "operator": "United States Postal Service", "operator:short": "USPS", "operator:type": "public", "operator:wikidata": "Q668687", "ref": "3720300225"}, "type": "Feature"}
{"geometry": {"coordinates": [-86.7929476, 36.148398], "type": "Point"}, "id": "lGYR91EmHIWX_5qFeMHmVlrg-Yg=", "properties": {"@source_uri": "https://tools.usps.com/UspsToolsRestServices/rest/POLocator/findLocations", "@spider": "usps_collection_boxes", "addr:city": "NASHVILLE", "addr:country": "US", "addr:postcode": "37203", "addr:state": "TN", "addr:street_address": "50 MUSIC SQ W", "amenity": "post_box", "collection_times": "Mo-Fr 17:00", "note": "ON 12/24 AND 12/31, THIS BOX MAY BE COLLECTED AS EARLY AS 12 NOON.", "nsi_id": "unitedstatespostalservice-a77078", "operator": "United States Postal Service", "operator:short": "USPS", "operator:type": "public", "operator:wikidata": "Q668687", "ref": "3720300226"}, "type": "Feature"}
{"geometry": {"coordinates": [-86.80071, 36.154755], "type": "Point"}, "id": "6eBJgkAOnmNar7nzOtihNOEzbo4=", "properties": {"@source_uri": "https://tools.usps.com/UspsToolsRestServices/rest/POLocator/findLocations", "@spider": "usps_collection_boxes", "addr:city": "NASHVILLE", "addr:country": "US", "addr:postcode": "37203", "addr:state": "TN", "addr:street_address": "901 BROADWAY", "amenity": "post_box", "collection_times": "Mo-Fr 17:00; Sa 13:00", "note": "ON 12/24 AND 12/31, THIS BOX MAY BE COLLECTED AS EARLY AS 12 NOON.", "nsi_id": "unitedstatespostalservice-a77078", "operator": "United States Postal Service", "operator:short": "USPS", "operator:type": "public", "operator:wikidata": "Q668687", "ref": "3720300234"}, "type": "Feature"}
{"geometry": {"coordinates": [-86.7972630201, 36.155534017], "type": "Point"}, "id": "X1uzX0vWiMS2lO_J_n9nhX-_DwU=", "properties": {"@source_uri": "https://tools.usps.com/UspsToolsRestServices/rest/POLocator/findLocations", "@spider": "usps_collection_boxes", "addr:city": "NASHVILLE", "addr:country": "US", "addr:postcode": "37203", "addr:state": "TN", "addr:street_address": "1718 CHURCH ST LBBY DROP", "amenity": "post_box", "collection_times": "Mo-Fr 17:00", "indoor": "yes", "note": "ON 12/24 AND 12/31, THIS BOX MAY BE COLLECTED AS EARLY AS 12 NOON.", "nsi_id": "unitedstatespostalservice-a77078", "operator": "United States Postal Service", "operator:short": "USPS", "operator:type": "public", "operator:wikidata": "Q668687", "ref": "3720300276"}, "type": "Feature"}
{"geometry": {"coordinates": [-86.7972630201, 36.155534017], "type": "Point"}, "id": "jZA7URff5Xmf-tbsS3ZElA5ewVs=", "properties": {"@source_uri": "https://tools.usps.com/UspsToolsRestServices/rest/POLocator/findLocations", "@spider": "usps_collection_boxes", "addr:city": "NASHVILLE", "addr:country": "US", "addr:postcode": "37203", "addr:state": "TN", "addr:street_address": "1718 CHURCH ST", "amenity": "post_box", "collection_times": "Mo-Fr 17:00", "indoor": "yes", "note": "ON 12/24 AND 12/31, THIS BOX MAY BE COLLECTED AS EARLY AS 12 NOON.", "nsi_id": "unitedstatespostalservice-a77078", "operator": "United States Postal Service", "operator:short": "USPS", "operator:type": "public", "operator:wikidata": "Q668687", "ref": "3720300286"}, "type": "Feature"}
{"geometry": {"coordinates": [-86.7770774, 36.11969], "type": "Point"}, "id": "a_fminUrQJVg0tWrjPs6AZxfO_g=", "properties": {"@source_uri": "https://tools.usps.com/UspsToolsRestServices/rest/POLocator/findLocations", "@spider": "usps_collection_boxes", "addr:city": "NASHVILLE", "addr:country": "US", "addr:postcode": "37204", "addr:state": "TN", "addr:street_address": "2613 FRANKLIN PIKE", "amenity": "post_box", "collection_times": "Mo-Fr 10:00", "nsi_id": "unitedstatespostalservice-a77078", "operator": "United States Postal Service", "operator:short": "USPS", "operator:type": "public", "operator:wikidata": "Q668687", "ref": "3720400012"}, "type": "Feature"}
{"geometry": {"coordinates": [-86.752680012, 36.109886005], "type": "Point"}, "id": "2stIhs3b0iElSD3MzZalpKUi64U=", "properties": {"@source_uri": "https://tools.usps.com/UspsToolsRestServices/rest/POLocator/findLocations", "@spider": "usps_collection_boxes", "addr:city": "NASHVILLE", "addr:country": "US", "addr:postcode": "37204", "addr:state": "TN", "addr:street_address": "2906 FOSTER CREIGHTON DR", "amenity": "post_box", "collection_times": "Mo-Fr 09:30", "nsi_id": "unitedstatespostalservice-a77078", "operator": "United States Postal Service", "operator:short": "USPS", "operator:type": "public", "operator:wikidata": "Q668687", "ref": "3720400022"}, "type": "Feature"}
{"geometry": {"coordinates": [-86.7829384, 36.1261345], "type": "Point"}, "id": "SGFPreZ8_sH9UvbOaz_ZMABQd_4=", "properties": {"@source_uri": "https://tools.usps.com/UspsToolsRestServices/rest/POLocator/findLocations", "@spider": "usps_collection_boxes", "addr:city": "NASHVILLE", "addr:country": "US", "addr:postcode": "37204", "addr:state": "TN", "addr:street_address": "4701 TROUSDALE DR", "amenity": "post_box", "collection_times": "Mo-Fr 15:00", "note": "ON 12/24 AND 12/31, THIS BOX MAY BE COLLECTED AS EARLY AS 12 NOON.", "nsi_id": "unitedstatespostalservice-a77078", "operator": "United States Postal Service", "operator:short": "USPS", "operator:type": "public", "operator:wikidata": "Q668687", "ref": "3720400029"}, "type": "Feature"}
{"geometry": {"coordinates": [-86.772498017, 36.120312003], "type": "Point"}, "id": "Ai6oCmDI1h98obJ20wjWR3Ewbec=", "properties": {"@source_uri": "https://tools.usps.com/UspsToolsRestServices/rest/POLocator/findLocations", "@spider": "usps_collection_boxes", "addr:city": "NASHVILLE", "addr:country": "US", "addr:postcode": "37204", "addr:state": "TN", "addr:street_address": "798 BERRY RD", "amenity": "post_box", "collection_times": "Mo-Fr 17:00; Sa 12:00", "indoor": "yes", "note": "ON 12/24 AND 12/31, THIS BOX MAY BE COLLECTED AS EARLY AS 12 NOON.", "nsi_id": "unitedstatespostalservice-a77078", "operator": "United States Postal Service", "operator:short": "USPS", "operator:type": "public", "operator:wikidata": "Q668687", "ref": "3720400039"}, "type": "Feature"}
{"geometry": {"coordinates": [-86.7607704, 36.103956], "type": "Point"}, "id": "CNIzoQlyIW39a8yd7Z5D5lyhJks=", "properties": {"@source_uri": "https://tools.usps.com/UspsToolsRestServices/rest/POLocator/findLocations", "@spider": "usps_collection_boxes", "addr:city": "NASHVILLE", "addr:country": "US", "addr:postcode": "37204", "addr:state": "TN", "addr:street_address": "4013 ARMORY OAKS DR", "amenity": "post_box", "collection_times": "Mo-Fr 09:00", "nsi_id": "unitedstatespostalservice-a77078", "operator": "United States Postal Service", "operator:short": "USPS", "operator:type": "public", "operator:wikidata": "Q668687", "ref": "3720400048"}, "type": "Feature"}
{"geometry": {"coordinates": [-86.772498017, 36.120312003], "type": "Point"}, "id": "wsJzG3FWDg1moiBT2Y_wyKzOgKo=", "properties": {"@source_uri": "https://tools.usps.com/UspsToolsRestServices/rest/POLocator/findLocations", "@spider": "usps_collection_boxes", "addr:city": "NASHVILLE", "addr:country": "US", "addr:postcode": "37204", "addr:state": "TN", "addr:street_address": "798 BERRY RD", "amenity": "post_box", "collection_times": "Mo-Fr 17:00; Sa 12:00", "name": "USPS COLLECTION BOX - APC", "note": "ON 12/24 AND 12/31, THIS BOX MAY BE COLLECTED AS EARLY AS 12 NOON.", "nsi_id": "unitedstatespostalservice-a77078", "operator": "United States Postal Service", "operator:short": "USPS", "operator:type": "public", "operator:wikidata": "Q668687", "ref": "3720400050"}, "type": "Feature"}
{"geometry": {"coordinates": [-86.772498017, 36.120312003], "type": "Point"}, "id": "NIS72xUX4j04DWttMcZ7JqTpLfo=", "properties": {"@source_uri": "https://tools.usps.com/UspsToolsRestServices/rest/POLocator/findLocations", "@spider": "usps_collection_boxes", "addr:city": "NASHVILLE", "addr:country": "US", "addr:postcode": "37204", "addr:state": "TN", "addr:street_address": "798 BERRY RD", "amenity": "post_box", "collection_times": "Mo-Fr 17:00", "indoor": "yes", "note": "ON 12/24 AND 12/31, THIS BOX MAY BE COLLECTED AS EARLY AS 12 NOON.", "nsi_id": "unitedstatespostalservice-a77078", "operator": "United States Postal Service", "operator:short": "USPS", "operator:type": "public", "operator:wikidata": "Q668687", "ref": "3720400053"}, "type": "Feature"}
{"geometry": {"coordinates": [-86.871186, 36.099081], "type": "Point"}, "id": "j_TPOleWMDZn_lIIHlShnMCX7QY=", "properties": {"@source_uri": "https://tools.usps.com/UspsToolsRestServices/rest/POLocator/findLocations", "@spider": "usps_collection_boxes", "addr:city": "NASHVILLE", "addr:country": "US", "addr:postcode": "37205", "addr:state": "TN", "addr:street_address": "5421 HIGHWAY 100", "amenity": "post_box", "collection_times": "Mo-Fr 17:00; Sa 15:00", "note": "ON 12/24 AND 12/31, THIS BOX MAY BE COLLECTED AS EARLY AS 12 NOON.", "nsi_id": "unitedstatespostalservice-a77078", "operator": "United States Postal Service", "operator:short": "USPS", "operator:type": "public", "operator:wikidata": "Q668687", "ref": "3720500001"}, "type": "Feature"}
{"geometry": {"coordinates": [-86.9030014, 36.12862], "type": "Point"}, "id": "1lu5rLQPZ6sUBUkfQRfXKmbyQvA=", "properties": {"@source_uri": "https://tools.usps.com/UspsToolsRestServices/rest/POLocator/findLocations", "@spider": "usps_collection_boxes", "addr:city": "NASHVILLE", "addr:country": "US", "addr:postcode": "37205", "addr:state": "TN", "addr:street_address": "994 DAVIDSON DR", "amenity": "post_box", "collection_times": "Mo-Fr 15:00; Sa 14:00", "note": "ON 12/24 AND 12/31, THIS BOX MAY BE COLLECTED AS EARLY AS 12 NOON.", "nsi_id": "unitedstatespostalservice-a77078", "operator": "United States Postal Service", "operator:short": "USPS", "operator:type": "public", "operator:wikidata": "Q668687", "ref": "3720500014"}, "type": "Feature"}
{"geometry": {"coordinates": [-86.8476804, 36.125924], "type": "Point"}, "id": "8ss1wuTjW6iFyQKIRGmudJdqYGw=", "properties": {"@source_uri": "https://tools.usps.com/UspsToolsRestServices/rest/POLocator/findLocations", "@spider": "usps_collection_boxes", "addr:city": "NASHVILLE", "addr:country": "US", "addr:postcode": "37205", "addr:state": "TN", "addr:street_address": "4400 HARDING PIKE", "amenity": "post_box", "collection_times": "Mo-Fr 09:15", "nsi_id": "unitedstatespostalservice-a77078", "operator": "United States Postal Service", "operator:short": "USPS", "operator:type": "public", "operator:wikidata": "Q668687", "ref": "3720500021"}, "type": "Feature"}
{"geometry": {"coordinates": [-86.8484543, 36.123538], "type": "Point"}, "id": "O6fU0_h5BqzKfPcN_4dcUaw9FiA=", "properties": {"@source_uri": "https://tools.usps.com/UspsToolsRestServices/rest/POLocator/findLocations", "@spider": "usps_collection_boxes", "addr:city": "NASHVILLE", "addr:country": "US", "addr:postcode": "37205", "addr:state": "TN", "addr:street_address": "4515 HARDING PIKE", "amenity": "post_box", "collection_times": "Mo-Fr 09:30", "nsi_id": "unitedstatespostalservice-a77078", "operator": "United States Postal Service", "operator:short": "USPS", "operator:type": "public", "operator:wikidata": "Q668687", "ref": "3720500024"}, "type": "Feature"}
{"geometry": {"coordinates": [-86.8458531, 36.128724], "type": "Point"}, "id": "2uV2bxTK-gKkqD_hmFRD-n32I1o=", "properties": {"@source_uri": "https://tools.usps.com/UspsToolsRestServices/rest/POLocator/findLocations", "@spider": "usps_collection_boxes", "addr:city": "NASHVILLE", "addr:country": "US", "addr:postcode": "37205", "addr:state": "TN", "addr:street_address": "4230 HARDING PIKE", "amenity": "post_box", "collection_times": "Mo-Fr 09:15", "nsi_id": "unitedstatespostalservice-a77078", "operator": "United States Postal Service", "operator:short": "USPS", "operator:type": "public", "operator:wikidata": "Q668687", "ref": "3720500043"}, "type": "Feature"}
{"geometry": {"coordinates": [-86.871186, 36.099081], "type": "Point"}, "id": "mD4pcpoqhqUe4ihp-Ewk_aOyc_A=", "properties": {"@source_uri": "https://tools.usps.com/UspsToolsRestServices/rest/POLocator/findLocations", "@spider": "usps_collection_boxes", "addr:city": "NASHVILLE", "addr:country": "US", "addr:postcode": "37205", "addr:state": "TN", "addr:street_address": "5421 HIGHWAY 100", "amenity": "post_box", "collection_times": "Mo-Fr 17:00; Sa 12:00", "indoor": "yes", "note": "ON 12/24 AND 12/31, THIS BOX MAY BE COLLECTED AS EARLY AS 12 NOON.", "nsi_id": "unitedstatespostalservice-a77078", "operator": "United States Postal Service", "operator:short": "USPS", "operator:type": "public", "operator:wikidata": "Q668687", "ref": "3720500054"}, "type": "Feature"}
{"geometry": {"coordinates": [-86.8552904, 36.130323], "type": "Point"}, "id": "3nSXlv77ricSXn9qTEyAlHftlow=", "properties": {"@source_uri": "https://tools.usps.com/UspsToolsRestServices/rest/POLocator/findLocations", "@spider": "usps_collection_boxes", "addr:city": "NASHVILLE", "addr:country": "US", "addr:postcode": "37205", "addr:state": "TN", "addr:street_address": "28 WHITE BRIDGE RD", "amenity": "post_box", "collection_times": "Mo-Fr 09:15", "nsi_id": "unitedstatespostalservice-a77078", "operator": "United States Postal Service", "operator:short": "USPS", "operator:type": "public", "operator:wikidata": "Q668687", "ref": "3720500055"}, "type": "Feature"}
{"geometry": {"coordinates": [-86.871186, 36.099081], "type": "Point"}, "id": "S_09DgIKFeDJ3quNuAPX1V2yIww=", "properties": {"@source_uri": "https://tools.usps.com/UspsToolsRestServices/rest/POLocator/findLocations", "@spider": "usps_collection_boxes", "addr:city": "NASHVILLE", "addr:country": "US", "addr:postcode": "37205", "addr:state": "TN", "addr:street_address": "5421 HIGHWAY 100", "amenity": "post_box", "collection_times": "Mo-Fr 17:00; Sa 12:00", "name": "USPS COLLECTION BOX - APC", "note": "ON 12/24 AND 12/31, THIS BOX MAY BE COLLECTED AS EARLY AS 12 NOON.", "nsi_id": "unitedstatespostalservice-a77078", "operator": "United States Postal Service", "operator:short": "USPS", "operator:type": "public", "operator:wikidata": "Q668687", "ref": "3720500067"}, "type": "Feature"}
{"geometry": {"coordinates": [-86.8526229, 36.120307], "type": "Point"}, "id": "Lfr6IjKMo2j9OQPHtoGRcKkKwGU=", "properties": {"@source_uri": "https://tools.usps.com/UspsToolsRestServices/rest/POLocator/findLocations", "@spider": "usps_collection_boxes", "addr:city": "NASHVILLE", "addr:country": "US", "addr:postcode": "37205", "addr:state": "TN", "addr:street_address": "4705 HARDING PIKE", "amenity": "post_box", "collection_times": "Mo-Fr 09:15", "nsi_id": "unitedstatespostalservice-a77078", "operator": "United States Postal Service", "operator:short": "USPS", "operator:type": "public", "operator:wikidata": "Q668687", "ref": "3720500068"}, "type": "Feature"}
{"geometry": {"coordinates": [-86.871186, 36.099081], "type": "Point"}, "id": "xn7Khb-bsGIkB-BhL2Vq3vIYScI=", "properties": {"@source_uri": "https://tools.usps.com/UspsToolsRestServices/rest/POLocator/findLocations", "@spider": "usps_collection_boxes", "addr:city": "NASHVILLE", "addr:country": "US", "addr:postcode": "37205", "addr:state": "TN", "addr:street_address": "5421 HIGHWAY 100", "amenity": "post_box", "collection_times": "Mo-Fr 17:00", "indoor": "yes", "note": "ON 12/24 AND 12/31, THIS BOX MAY BE COLLECTED AS EARLY AS 12 NOON.", "nsi_id": "unitedstatespostalservice-a77078", "operator": "United States Postal Service", "operator:short": "USPS", "operator:type": "public", "operator:wikidata": "Q668687", "ref": "3720500074"}, "type": "Feature"}
{"geometry": {"coordinates": [-86.74625, 36.17429], "type": "Point"}, "id": "BLXlhuvuVueVV__PV4GPE8MsfAs=", "properties": {"@source_uri": "https://tools.usps.com/UspsToolsRestServices/rest/POLocator/findLocations", "@spider": "usps_collection_boxes", "addr:city": "NASHVILLE", "addr:country": "US", "addr:postcode": "37206", "addr:state": "TN", "addr:street_address": "1109 WOODLAND ST", "amenity": "post_box", "collection_times": "Mo-Fr 17:00; Sa 15:00", "note": "ON 12/24 AND 12/31, THIS BOX MAY BE COLLECTED AS EARLY AS 12 NOON.", "nsi_id": "unitedstatespostalservice-a77078", "operator": "United States Postal Service", "operator:short": "USPS", "operator:type": "public", "operator:wikidata": "Q668687", "ref": "3720600002"}, "type": "Feature"}
{"geometry": {"coordinates": [-86.7607488, 36.174473], "type": "Point"}, "id": "A2X4nZIAR2g2ndTRfW-NpR-PNz4=", "properties": {"@source_uri": "https://tools.usps.com/UspsToolsRestServices/rest/POLocator/findLocations", "@spider": "usps_collection_boxes", "addr:city": "NASHVILLE", "addr:country": "US", "addr:postcode": "37206", "addr:state": "TN", "addr:street_address": "700 MAIN ST", "amenity": "post_box", "collection_times": "Mo-Fr 10:30", "nsi_id": "unitedstatespostalservice-a77078", "operator": "United States Postal Service", "operator:short": "USPS", "operator:type": "public", "operator:wikidata": "Q668687", "ref": "3720600028"}, "type": "Feature"}
{"geometry": {"coordinates": [-86.749253, 36.177408], "type": "Point"}, "id": "8nBNUrDEeomWmKjnuisd1s5c1JI=", "properties": {"@source_uri": "https://tools.usps.com/UspsToolsRestServices/rest/POLocator/findLocations", "@spider": "usps_collection_boxes", "addr:city": "NASHVILLE", "addr:country": "US", "addr:postcode": "37206", "addr:state": "TN", "addr:street_address": "1109 WOODLAND ST", "amenity": "post_box", "collection_times": "Mo-Fr 17:00; Sa 12:00", "indoor": "yes", "note": "ON 12/24 AND 12/31, THIS BOX MAY BE COLLECTED AS EARLY AS 12 NOON.", "nsi_id": "unitedstatespostalservice-a77078", "operator": "United States Postal Service", "operator:short": "USPS", "operator:type": "public", "operator:wikidata": "Q668687", "ref": "3720600046"}, "type": "Feature"}
{"geometry": {"coordinates": [-86.749253, 36.177408], "type": "Point"}, "id": "_qL2KIoaHLl5ulzGRI5qMSAoSsM=", "properties": {"@source_uri": "https://tools.usps.com/UspsToolsRestServices/rest/POLocator/findLocations", "@spider": "usps_collection_boxes", "addr:city": "NASHVILLE", "addr:country": "US", "addr:postcode": "37206", "addr:state": "TN", "addr:street_address": "1109 WOODLAND ST", "amenity": "post_box", "collection_times": "Mo-Fr 17:00; Sa 12:00", "indoor": "yes", "note": "ON 12/24 AND 12/31, THIS BOX MAY BE COLLECTED AS EARLY AS 12 NOON.", "nsi_id": "unitedstatespostalservice-a77078", "operator": "United States Postal Service", "operator:short": "USPS", "operator:type": "public", "operator:wikidata": "Q668687", "ref": "3720600052"}, "type": "Feature"}
{"geometry": {"coordinates": [-86.749253, 36.177408], "type": "Point"}, "id": "arszPL0OUjzeWGYiAr3ILZ_dChM=", "properties": {"@source_uri": "https://tools.usps.com/UspsToolsRestServices/rest/POLocator/findLocations", "@spider": "usps_collection_boxes", "addr:city": "NASHVILLE", "addr:country": "US", "addr:postcode": "37206", "addr:state": "TN", "addr:street_address": "1109 WOODLAND ST", "amenity": "post_box", "collection_times": "Mo-Fr 17:00; Sa 12:00", "name": "USPS COLLECTION BOX - APC", "note": "ON 12/24 AND 12/31, THIS BOX MAY BE COLLECTED AS EARLY AS 12 NOON.", "nsi_id": "unitedstatespostalservice-a77078", "operator": "United States Postal Service", "operator:short": "USPS", "operator:type": "public", "operator:wikidata": "Q668687", "ref": "3720600053"}, "type": "Feature"}
{"geometry": {"coordinates": [-86.748974126, 36.177360976], "type": "Point"}, "id": "9Eh1NHdq-o6akhddheNwQypG7oY=", "properties": {"@source_uri": "https://tools.usps.com/UspsToolsRestServices/rest/POLocator/findLocations", "@spider": "usps_collection_boxes", "addr:city": "NASHVILLE", "addr:country": "US", "addr:postcode": "37206", "addr:state": "TN", "addr:street_address": "1109 WOODLAND ST", "amenity": "post_box", "collection_times": "Mo-Fr 17:00", "indoor": "yes", "note": "ON 12/24 AND 12/31, THIS BOX MAY BE COLLECTED AS EARLY AS 12 NOON.", "nsi_id": "unitedstatespostalservice-a77078", "operator": "United States Postal Service", "operator:short": "USPS", "operator:type": "public", "operator:wikidata": "Q668687", "ref": "3720600055"}, "type": "Feature"}
{"geometry": {"coordinates": [-86.7588205, 36.2302], "type": "Point"}, "id": "o8FPvk7tFH9zQfEaQnL_8D-b1Jo=", "properties": {"@source_uri": "https://tools.usps.com/UspsToolsRestServices/rest/POLocator/findLocations", "@spider": "usps_collection_boxes", "addr:city": "NASHVILLE", "addr:country": "US", "addr:postcode": "37207", "addr:state": "TN", "addr:street_address": "3109 DICKERSON PIKE", "amenity": "post_box", "collection_times": "Mo-Fr 10:30", "nsi_id": "unitedstatespostalservice-a77078", "operator": "United States Postal Service", "operator:short": "USPS", "operator:type": "public", "operator:wikidata": "Q668687", "ref": "3720700006"}, "type": "Feature"}
{"geometry": {"coordinates": [-86.76774, 36.18912], "type": "Point"}, "id": "enJJZf3tMWxuPjDdq8rw2PsfSIE=", "properties": {"@source_uri": "https://tools.usps.com/UspsToolsRestServices/rest/POLocator/findLocations", "@spider": "usps_collection_boxes", "addr:city": "NASHVILLE", "addr:country": "US", "addr:postcode": "37207", "addr:state": "TN", "addr:street_address": "3837 DICKERSON PIKE", "amenity": "post_box", "collection_times": "Mo-Fr 10:00", "nsi_id": "unitedstatespostalservice-a77078", "operator": "United States Postal Service", "operator:short": "USPS", "operator:type": "public", "operator:wikidata": "Q668687", "ref": "3720700007"}, "type": "Feature"}
{"geometry": {"coordinates": [-86.767432086, 36.208022861], "type": "Point"}, "id": "GJ40dLVYtvJHraIMyOzxwte556w=", "properties": {"@source_uri": "https://tools.usps.com/UspsToolsRestServices/rest/POLocator/findLocations", "@spider": "usps_collection_boxes", "addr:city": "NASHVILLE", "addr:country": "US", "addr:postcode": "37207", "addr:state": "TN", "addr:street_address": "2325 DICKERSON PIKE", "amenity": "post_box", "collection_times": "Mo-Fr 17:00; Sa 15:00", "note": "ON 12/24 AND 12/31, THIS BOX MAY BE COLLECTED AS EARLY AS 12 NOON.", "nsi_id": "unitedstatespostalservice-a77078", "operator": "United States Postal Service", "operator:short": "USPS", "operator:type": "public", "operator:wikidata": "Q668687", "ref": "3720700012"}, "type": "Feature"}
{"geometry": {"coordinates": [-86.7668760227, 36.208157994], "type": "Point"}, "id": "JanXVjlQJ_eNo0SBKNCeujFUM9U=", "properties": {"@source_uri": "https://tools.usps.com/UspsToolsRestServices/rest/POLocator/findLocations", "@spider": "usps_collection_boxes", "addr:city": "NASHVILLE", "addr:country": "US", "addr:postcode": "37207", "addr:state": "TN", "addr:street_address": "2325 DICKERSON PIKE", "amenity": "post_box", "collection_times": "Mo-Fr 17:00; Sa 12:00", "indoor": "yes", "note": "ON 12/24 AND 12/31, THIS BOX MAY BE COLLECTED AS EARLY AS 12 NOON.", "nsi_id": "unitedstatespostalservice-a77078", "operator": "United States Postal Service", "operator:short": "USPS", "operator:type": "public", "operator:wikidata": "Q668687", "ref": "3720700019"}, "type": "Feature"}
{"geometry": {"coordinates": [-86.7668760227, 36.208157994], "type": "Point"}, "id": "8iEEV8n7t0R4HZ_96aUXwkb-dTU=", "properties": {"@source_uri": "https://tools.usps.com/UspsToolsRestServices/rest/POLocator/findLocations", "@spider": "usps_collection_boxes", "addr:city": "NASHVILLE", "addr:country": "US", "addr:postcode": "37207", "addr:state": "TN", "addr:street_address": "2325 DICKERSON PIKE", "amenity": "post_box", "collection_times": "Mo-Fr 17:00", "indoor": "yes", "note": "ON 12/24 AND 12/31, THIS BOX MAY BE COLLECTED AS EARLY AS 12 NOON.", "nsi_id": "unitedstatespostalservice-a77078", "operator": "United States Postal Service", "operator:short": "USPS", "operator:type": "public", "operator:wikidata": "Q668687", "ref": "3720700027"}, "type": "Feature"}
{"geometry": {"coordinates": [-86.8088264, 36.165697], "type": "Point"}, "id": "s7zLwTMwozMJaoXAGA37PYE6Rd4=", "properties": {"@source_uri": "https://tools.usps.com/UspsToolsRestServices/rest/POLocator/findLocations", "@spider": "usps_collection_boxes", "addr:city": "NASHVILLE", "addr:country": "US", "addr:postcode": "37208", "addr:state": "TN", "addr:street_address": "1820 ALBION ST", "amenity": "post_box", "collection_times": "Mo-Fr 15:00", "note": "ON 12/24 AND 12/31, THIS BOX MAY BE COLLECTED AS EARLY AS 12 NOON.", "nsi_id": "unitedstatespostalservice-a77078", "operator": "United States Postal Service", "operator:short": "USPS", "operator:type": "public", "operator:wikidata": "Q668687", "ref": "3720800015"}, "type": "Feature"}
{"geometry": {"coordinates": [-86.804135, 36.193274], "type": "Point"}, "id": "TXpX33kN0KU5m84pwObjjxSXENA=", "properties": {"@source_uri": "https://tools.usps.com/UspsToolsRestServices/rest/POLocator/findLocations", "@spider": "usps_collection_boxes", "addr:city": "NASHVILLE", "addr:country": "US", "addr:postcode": "37208", "addr:state": "TN", "addr:street_address": "2245 ROSA L PARKS BLVD", "amenity": "post_box", "collection_times": "Mo-Fr 17:00; Sa 12:00", "indoor": "yes", "note": "ON 12/24 AND 12/31, THIS BOX MAY BE COLLECTED AS EARLY AS 12 NOON.", "nsi_id": "unitedstatespostalservice-a77078", "operator": "United States Postal Service", "operator:short": "USPS", "operator:type": "public", "operator:wikidata": "Q668687", "ref": "3720800029"}, "type": "Feature"}
{"geometry": {"coordinates": [-86.805684119, 36.193438651], "type": "Point"}, "id": "Y6Y0l3Xc-O1Niv1jzDY0-I7E2M8=", "properties": {"@source_uri": "https://tools.usps.com/UspsToolsRestServices/rest/POLocator/findLocations", "@spider": "usps_collection_boxes", "addr:city": "NASHVILLE", "addr:country": "US", "addr:postcode": "37208", "addr:state": "TN", "addr:street_address": "2245 ROSA L PARKS BLVD", "amenity": "post_box", "collection_times": "Mo-Fr 17:00", "indoor": "yes", "note": "ON 12/24 AND 12/31, THIS BOX MAY BE COLLECTED AS EARLY AS 12 NOON.", "nsi_id": "unitedstatespostalservice-a77078", "operator": "United States Postal Service", "operator:short": "USPS", "operator:type": "public", "operator:wikidata": "Q668687", "ref": "3720800040"}, "type": "Feature"}
{"geometry": {"coordinates": [-86.8749620052, 36.1716770177], "type": "Point"}, "id": "J9s3lvQ2AewcADTB7Gog3KgHCMk=", "properties": {"@source_uri": "https://tools.usps.com/UspsToolsRestServices/rest/POLocator/findLocations", "@spider": "usps_collection_boxes", "addr:city": "NASHVILLE", "addr:country": "US", "addr:postcode": "37209", "addr:state": "TN", "addr:street_address": "7100 COCKRILL BEND BLVD", "amenity": "post_box", "collection_times": "Mo-Fr 10:00", "nsi_id": "unitedstatespostalservice-a77078", "operator": "United States Postal Service", "operator:short": "USPS", "operator:type": "public", "operator:wikidata": "Q668687", "ref": "3720900001"}, "type": "Feature"}
{"geometry": {"coordinates": [-86.8409292, 36.152123], "type": "Point"}, "id": "LygKdFQ3up_nmKyxytID8IORke4=", "properties": {"@source_uri": "https://tools.usps.com/UspsToolsRestServices/rest/POLocator/findLocations", "@spider": "usps_collection_boxes", "addr:city": "NASHVILLE", "addr:country": "US", "addr:postcode": "37209", "addr:state": "TN", "addr:street_address": "4501 CHARLOTTE AVE", "amenity": "post_box", "collection_times": "Mo-Fr 17:00; Sa 14:00", "indoor": "yes", "note": "ON 12/24 AND 12/31, THIS BOX MAY BE COLLECTED AS EARLY AS 12 NOON.", "nsi_id": "unitedstatespostalservice-a77078", "operator": "United States Postal Service", "operator:short": "USPS", "operator:type": "public", "operator:wikidata": "Q668687", "ref": "3720900038"}, "type": "Feature"}
{"geometry": {"coordinates": [-86.84398, 36.149895], "type": "Point"}, "id": "jyNQce5v3Sz1Iul_Bqgm0y5_oek=", "properties": {"@source_uri": "https://tools.usps.com/UspsToolsRestServices/rest/POLocator/findLocations", "@spider": "usps_collection_boxes", "addr:city": "NASHVILLE", "addr:country": "US", "addr:postcode": "37209", "addr:state": "TN", "addr:street_address": "6540 CHARLOTTE PIKE", "amenity": "post_box", "collection_times": "Mo-Fr 15:00; Sa 14:00", "note": "ON 12/24 AND 12/31, THIS BOX MAY BE COLLECTED AS EARLY AS 12 NOON.", "nsi_id": "unitedstatespostalservice-a77078", "operator": "United States Postal Service", "operator:short": "USPS", "operator:type": "public", "operator:wikidata": "Q668687", "ref": "3720900045"}, "type": "Feature"}
{"geometry": {"coordinates": [-86.8409995, 36.152101], "type": "Point"}, "id": "sgmKBQczdoPFE7K8hopbjv76IoI=", "properties": {"@source_uri": "https://tools.usps.com/UspsToolsRestServices/rest/POLocator/findLocations", "@spider": "usps_collection_boxes", "addr:city": "NASHVILLE", "addr:country": "US", "addr:postcode": "37209", "addr:state": "TN", "addr:street_address": "4501 CHARLOTTE AVE", "amenity": "post_box", "collection_times": "Mo-Fr 17:00; Sa 14:00", "name": "USPS COLLECTION BOX - APC", "note": "ON 12/24 AND 12/31, THIS BOX MAY BE COLLECTED AS EARLY AS 12 NOON.", "nsi_id": "unitedstatespostalservice-a77078", "operator": "United States Postal Service", "operator:short": "USPS", "operator:type": "public", "operator:wikidata": "Q668687", "ref": "3720900046"}, "type": "Feature"}
{"geometry": {"coordinates": [-86.84398, 36.149895], "type": "Point"}, "id": "37_qjt3IrafUrbIxzQZBIT5QaZw=", "properties": {"@source_uri": "https://tools.usps.com/UspsToolsRestServices/rest/POLocator/findLocations", "@spider": "usps_collection_boxes", "addr:city": "NASHVILLE", "addr:country": "US", "addr:postcode": "37209", "addr:state": "TN", "addr:street_address": "4501 CHARLOTTE AVE", "amenity": "post_box", "collection_times": "Mo-Fr 17:00; Sa 14:00", "note": "ON 12/24 AND 12/31, THIS BOX MAY BE COLLECTED AS EARLY AS 12 NOON.", "nsi_id": "unitedstatespostalservice-a77078", "operator": "United States Postal Service", "operator:short": "USPS", "operator:type": "public", "operator:wikidata": "Q668687", "ref": "3720900047"}, "type": "Feature"}
{"geometry": {"coordinates": [-86.841030311, 36.152201517], "type": "Point"}, "id": "0khS_92vSvL8UD5TVKrQoSRJCXE=", "properties": {"@source_uri": "https://tools.usps.com/UspsToolsRestServices/rest/POLocator/findLocations", "@spider": "usps_collection_boxes", "addr:city": "NASHVILLE", "addr:country": "US", "addr:postcode": "37209", "addr:state": "TN", "addr:street_address": "4501 CHARLOTTE AVE", "amenity": "post_box", "collection_times": "Mo-Fr 17:00", "indoor": "yes", "note": "ON 12/24 AND 12/31, THIS BOX MAY BE COLLECTED AS EARLY AS 12 NOON.", "nsi_id": "unitedstatespostalservice-a77078", "operator": "United States Postal Service", "operator:short": "USPS", "operator:type": "public", "operator:wikidata": "Q668687", "ref": "3720900052"}, "type": "Feature"}
{"geometry": {"coordinates": [-86.7099491, 36.144716], "type": "Point"}, "id": "I2C_wdX5zYSwisrYWi_fFnsgUgc=", "properties": {"@source_uri": "https://tools.usps.com/UspsToolsRestServices/rest/POLocator/findLocations", "@spider": "usps_collection_boxes", "addr:city": "NASHVILLE", "addr:country": "US", "addr:postcode": "37210", "addr:state": "TN", "addr:street_address": "1717 ELM HILL PIKE", "amenity": "post_box", "collection_times": "Mo-Fr 08:30", "nsi_id": "unitedstatespostalservice-a77078", "operator": "United States Postal Service", "operator:short": "USPS", "operator:type": "public", "operator:wikidata": "Q668687", "ref": "3721000032"}, "type": "Feature"}
{"geometry": {"coordinates": [-86.7448046, 36.141053], "type": "Point"}, "id": "9Y0kOy_TD8B-v-AkcVbuCwAKlg0=", "properties": {"@source_uri": "https://tools.usps.com/UspsToolsRestServices/rest/POLocator/findLocations", "@spider": "usps_collection_boxes", "addr:city": "NASHVILLE", "addr:country": "US", "addr:postcode": "37210", "addr:state": "TN", "addr:street_address": "714 FESSLERS LN", "amenity": "post_box", "collection_times": "Mo-Fr 17:00", "indoor": "yes", "note": "ON 12/24 AND 12/31, THIS BOX MAY BE COLLECTED AS EARLY AS 12 NOON.", "nsi_id": "unitedstatespostalservice-a77078", "operator": "United States Postal Service", "operator:short": "USPS", "operator:type": "public", "operator:wikidata": "Q668687", "ref": "3721000052"}, "type": "Feature"}
{"geometry": {"coordinates": [-86.745104191, 36.141518863], "type": "Point"}, "id": "eAN016Q5sQDK68vGFjJcuxDPMPA=", "properties": {"@source_uri": "https://tools.usps.com/UspsToolsRestServices/rest/POLocator/findLocations", "@spider": "usps_collection_boxes", "addr:city": "NASHVILLE", "addr:country": "US", "addr:postcode": "37210", "addr:state": "TN", "addr:street_address": "714 FESSLERS LN", "amenity": "post_box", "collection_times": "Mo-Fr 17:00", "indoor": "yes", "note": "ON 12/24 AND 12/31, THIS BOX MAY BE COLLECTED AS EARLY AS 12 NOON.", "nsi_id": "unitedstatespostalservice-a77078", "operator": "United States Postal Service", "operator:short": "USPS", "operator:type": "public", "operator:wikidata": "Q668687", "ref": "3721000065"}, "type": "Feature"}
{"geometry": {"coordinates": [-86.7448964, 36.110058], "type": "Point"}, "id": "vgsEg2SeKYHvUaW1_lxLd1W3FPc=", "properties": {"@source_uri": "https://tools.usps.com/UspsToolsRestServices/rest/POLocator/findLocations", "@spider": "usps_collection_boxes", "addr:city": "NASHVILLE", "addr:country": "US", "addr:postcode": "37211", "addr:state": "TN", "addr:street_address": "2915 NOLENSVILLE PIKE", "amenity": "post_box", "collection_times": "Mo-Fr 11:00", "nsi_id": "unitedstatespostalservice-a77078", "operator": "United States Postal Service", "operator:short": "USPS", "operator:type": "public", "operator:wikidata": "Q668687", "ref": "3721100005"}, "type": "Feature"}
{"geometry": {"coordinates": [-86.6942254, 36.085566], "type": "Point"}, "id": "SsYOJxM8ZzwkMSRtpM6sprzsh0I=", "properties": {"@source_uri": "https://tools.usps.com/UspsToolsRestServices/rest/POLocator/findLocations", "@spider": "usps_collection_boxes", "addr:city": "NASHVILLE", "addr:country": "US", "addr:postcode": "37211", "addr:state": "TN", "addr:street_address": "3343 PERIMETER HILL DR", "amenity": "post_box", "collection_times": "Mo-Fr 10:00", "nsi_id": "unitedstatespostalservice-a77078", "operator": "United States Postal Service", "operator:short": "USPS", "operator:type": "public", "operator:wikidata": "Q668687", "ref": "3721100016"}, "type": "Feature"}
{"geometry": {"coordinates": [-86.7420518, 36.104007], "type": "Point"}, "id": "gmTV81uYi8yx2YGqslH7r7Ps_HE=", "properties": {"@source_uri": "https://tools.usps.com/UspsToolsRestServices/rest/POLocator/findLocations", "@spider": "usps_collection_boxes", "addr:city": "NASHVILLE", "addr:country": "US", "addr:postcode": "37211", "addr:state": "TN", "addr:street_address": "5000 LINBAR DR", "amenity": "post_box", "collection_times": "Mo-Fr 10:00", "nsi_id": "unitedstatespostalservice-a77078", "operator": "United States Postal Service", "operator:short": "USPS", "operator:type": "public", "operator:wikidata": "Q668687", "ref": "3721100022"}, "type": "Feature"}
{"geometry": {"coordinates": [-86.7296216, 36.086167], "type": "Point"}, "id": "PkUXdiNuJMx93DM8EcKj1FXYhlY=", "properties": {"@source_uri": "https://tools.usps.com/UspsToolsRestServices/rest/POLocator/findLocations", "@spider": "usps_collection_boxes", "addr:city": "NASHVILLE", "addr:country": "US", "addr:postcode": "37211", "addr:state": "TN", "addr:street_address": "3907 NOLENSVILLE PIKE", "amenity": "post_box", "collection_times": "Mo-Fr 14:00", "note": "ON 12/24 AND 12/31, THIS BOX MAY BE COLLECTED AS EARLY AS 12 NOON.", "nsi_id": "unitedstatespostalservice-a77078", "operator": "United States Postal Service", "operator:short": "USPS", "operator:type": "public", "operator:wikidata": "Q668687", "ref": "3721100033"}, "type": "Feature"}
{"geometry": {"coordinates": [-86.7220705, 36.076202], "type": "Point"}, "id": "_B33GhNW__nKxiFWUspvSpszTng=", "properties": {"@source_uri": "https://tools.usps.com/UspsToolsRestServices/rest/POLocator/findLocations", "@spider": "usps_collection_boxes", "addr:city": "NASHVILLE", "addr:country": "US", "addr:postcode": "37211", "addr:state": "TN", "addr:street_address": "397 WALLACE RD", "amenity": "post_box", "collection_times": "Mo-Fr 10:00", "nsi_id": "unitedstatespostalservice-a77078", "operator": "United States Postal Service", "operator:short": "USPS", "operator:type": "public", "operator:wikidata": "Q668687", "ref": "3721100039"}, "type": "Feature"}
{"geometry": {"coordinates": [-86.719679, 36.115441], "type": "Point"}, "id": "XSZsNpCqSSqKoQNDlshSHdH7rGo=", "properties": {"@source_uri": "https://tools.usps.com/UspsToolsRestServices/rest/POLocator/findLocations", "@spider": "usps_collection_boxes", "addr:city": "NASHVILLE", "addr:country": "US", "addr:postcode": "37211", "addr:state": "TN", "addr:street_address": "18 E THOMPSON LN", "amenity": "post_box", "collection_times": "Mo-Fr 13:15", "note": "ON 12/24 AND 12/31, THIS BOX MAY BE COLLECTED AS EARLY AS 12 NOON.", "nsi_id": "unitedstatespostalservice-a77078", "operator": "United States Postal Service", "operator:short": "USPS", "operator:type": "public", "operator:wikidata": "Q668687", "ref": "3721100045"}, "type": "Feature"}
{"geometry": {"coordinates": [-86.7420518, 36.104007], "type": "Point"}, "id": "3SiznWZBQp_GbjIsHk-LZ-o-jMw=", "properties": {"@source_uri": "https://tools.usps.com/UspsToolsRestServices/rest/POLocator/findLocations", "@spider": "usps_collection_boxes", "addr:city": "NASHVILLE", "addr:country": "US", "addr:postcode": "37211", "addr:state": "TN", "addr:street_address": "4112 NOLENSVILLE PIKE", "amenity": "post_box", "collection_times": "Mo-Fr 18:00; Sa 15:00", "note": "ON 12/24 AND 12/31, THIS BOX MAY BE COLLECTED AS EARLY AS 12 NOON.", "nsi_id": "unitedstatespostalservice-a77078", "operator": "United States Postal Service", "operator:short": "USPS", "operator:type": "public", "operator:wikidata": "Q668687", "ref": "3721100052"}, "type": "Feature"}
{"geometry": {"coordinates": [-86.7432216, 36.041014], "type": "Point"}, "id": "O2DLTgvIw3lAtkw3vMfc7SMQecc=", "properties": {"@source_uri": "https://tools.usps.com/UspsToolsRestServices/rest/POLocator/findLocations", "@spider": "usps_collection_boxes", "addr:city": "NASHVILLE", "addr:country": "US", "addr:postcode": "37211", "addr:state": "TN", "addr:street_address": "15580 OLD HICKORY BLVD", "amenity": "post_box", "collection_times": "Mo-Sa 10:00", "nsi_id": "unitedstatespostalservice-a77078", "operator": "United States Postal Service", "operator:short": "USPS", "operator:type": "public", "operator:wikidata": "Q668687", "ref": "3721100068"}, "type": "Feature"}
{"geometry": {"coordinates": [-86.725927, 36.078273], "type": "Point"}, "id": "71nHyRpdfWRbrFwCCKRWldLW-ZE=", "properties": {"@source_uri": "https://tools.usps.com/UspsToolsRestServices/rest/POLocator/findLocations", "@spider": "usps_collection_boxes", "addr:city": "NASHVILLE", "addr:country": "US", "addr:postcode": "37211", "addr:state": "TN", "addr:street_address": "4112 NOLENSVILLE PIKE", "amenity": "post_box", "collection_times": "Mo-Fr 18:00; Sa 12:00", "indoor": "yes", "note": "ON 12/24 AND 12/31, THIS BOX MAY BE COLLECTED AS EARLY AS 12 NOON.", "nsi_id": "unitedstatespostalservice-a77078", "operator": "United States Postal Service", "operator:short": "USPS", "operator:type": "public", "operator:wikidata": "Q668687", "ref": "3721100078"}, "type": "Feature"}
{"geometry": {"coordinates": [-86.725927, 36.078273], "type": "Point"}, "id": "1wn6PoXgciTEMr9LBXY9u6-_ENw=", "properties": {"@source_uri": "https://tools.usps.com/UspsToolsRestServices/rest/POLocator/findLocations", "@spider": "usps_collection_boxes", "addr:city": "NASHVILLE", "addr:country": "US", "addr:postcode": "37211", "addr:state": "TN", "addr:street_address": "4112 NOLENSVILLE PIKE", "amenity": "post_box", "collection_times": "Mo-Fr 18:00; Sa 12:00", "name": "USPS COLLECTION BOX - APC", "note": "ON 12/24 AND 12/31, THIS BOX MAY BE COLLECTED AS EARLY AS 12 NOON.", "nsi_id": "unitedstatespostalservice-a77078", "operator": "United States Postal Service", "operator:short": "USPS", "operator:type": "public", "operator:wikidata": "Q668687", "ref": "3721100099"}, "type": "Feature"}
{"geometry": {"coordinates": [-86.7149388, 36.046896], "type": "Point"}, "id": "t-tpAi_Kao7eN-Geu850xtZkmEI=", "properties": {"@source_uri": "https://tools.usps.com/UspsToolsRestServices/rest/POLocator/findLocations", "@spider": "usps_collection_boxes", "addr:city": "NASHVILLE", "addr:country": "US", "addr:postcode": "37211", "addr:state": "TN", "addr:street_address": "5765 NOLENSVILLE PIKE", "amenity": "post_box", "collection_times": "Mo-Sa 09:00", "nsi_id": "unitedstatespostalservice-a77078", "operator": "United States Postal Service", "operator:short": "USPS", "operator:type": "public", "operator:wikidata": "Q668687", "ref": "3721100107"}, "type": "Feature"}
{"geometry": {"coordinates": [-86.7248984, 36.110219], "type": "Point"}, "id": "YkYyI-7HHmMmO8xHWAU6OeEvJuo=", "properties": {"@source_uri": "https://tools.usps.com/UspsToolsRestServices/rest/POLocator/findLocations", "@spider": "usps_collection_boxes", "addr:city": "NASHVILLE", "addr:country": "US", "addr:postcode": "37211", "addr:state": "TN", "addr:street_address": "61 E THOMPSON LN", "amenity": "post_box", "collection_times": "Mo-Fr 11:00", "nsi_id": "unitedstatespostalservice-a77078", "operator": "United States Postal Service", "operator:short": "USPS", "operator:type": "public", "operator:wikidata": "Q668687", "ref": "3721100112"}, "type": "Feature"}
{"geometry": {"coordinates": [-86.725781906, 36.077892093], "type": "Point"}, "id": "sHaXgtnqScrFiblZmxX-uyU3AgY=", "properties": {"@source_uri": "https://tools.usps.com/UspsToolsRestServices/rest/POLocator/findLocations", "@spider": "usps_collection_boxes", "addr:city": "NASHVILLE", "addr:country": "US", "addr:postcode": "37211", "addr:state": "TN", "addr:street_address": "4112 NOLENSVILLE PIKE", "amenity": "post_box", "collection_times": "Mo-Fr 18:00", "indoor": "yes", "note": "ON 12/24 AND 12/31, THIS BOX MAY BE COLLECTED AS EARLY AS 12 NOON.", "nsi_id": "unitedstatespostalservice-a77078", "operator": "United States Postal Service", "operator:short": "USPS", "operator:type": "public", "operator:wikidata": "Q668687", "ref": "3721100115"}, "type": "Feature"}
{"geometry": {"coordinates": [-86.8020886, 36.143219], "type": "Point"}, "id": "OcpOhZ9uocm6Ulo1heJLtjUuG5A=", "properties": {"@source_uri": "https://tools.usps.com/UspsToolsRestServices/rest/POLocator/findLocations", "@spider": "usps_collection_boxes", "addr:city": "NASHVILLE", "addr:country": "US", "addr:postcode": "37212", "addr:state": "TN", "addr:street_address": "2209 GARLAND AVE", "amenity": "post_box", "collection_times": "Mo-Fr 08:00", "nsi_id": "unitedstatespostalservice-a77078", "operator": "United States Postal Service", "operator:short": "USPS", "operator:type": "public", "operator:wikidata": "Q668687", "ref": "3721200002"}, "type": "Feature"}
{"geometry": {"coordinates": [-86.8047128, 36.126391], "type": "Point"}, "id": "PpYBH9oCigjDnMoKTNBQVuNoOGg=", "properties": {"@source_uri": "https://tools.usps.com/UspsToolsRestServices/rest/POLocator/findLocations", "@spider": "usps_collection_boxes", "addr:city": "NASHVILLE", "addr:country": "US", "addr:postcode": "37212", "addr:state": "TN", "addr:street_address": "2501 21ST AVE S", "amenity": "post_box", "collection_times": "Mo-Fr 14:45", "note": "ON 12/24 AND 12/31, THIS BOX MAY BE COLLECTED AS EARLY AS 12 NOON.", "nsi_id": "unitedstatespostalservice-a77078", "operator": "United States Postal Service", "operator:short": "USPS", "operator:type": "public", "operator:wikidata": "Q668687", "ref": "3721200006"}, "type": "Feature"}
{"geometry": {"coordinates": [-86.7970129, 36.1351002], "type": "Point"}, "id": "SwkI5WI9uOwClqavPdGNrdOM6lE=", "properties": {"@source_uri": "https://tools.usps.com/UspsToolsRestServices/rest/POLocator/findLocations", "@spider": "usps_collection_boxes", "addr:city": "NASHVILLE", "addr:country": "US", "addr:postcode": "37212", "addr:state": "TN", "addr:street_address": "2200 21ST AVE S", "amenity": "post_box", "collection_times": "Mo-Fr 14:45; Sa 13:00", "note": "ON 12/24 AND 12/31, THIS BOX MAY BE COLLECTED AS EARLY AS 12 NOON.", "nsi_id": "unitedstatespostalservice-a77078", "operator": "United States Postal Service", "operator:short": "USPS", "operator:type": "public", "operator:wikidata": "Q668687", "ref": "3721200008"}, "type": "Feature"}
{"geometry": {"coordinates": [-86.8009966, 36.137531], "type": "Point"}, "id": "-wD98dxvNAwcHUribZ7LSOoe-lc=", "properties": {"@source_uri": "https://tools.usps.com/UspsToolsRestServices/rest/POLocator/findLocations", "@spider": "usps_collection_boxes", "addr:city": "NASHVILLE", "addr:country": "US", "addr:postcode": "37212", "addr:state": "TN", "addr:street_address": "1701 21ST AVE S", "amenity": "post_box", "collection_times": "Mo-Fr 10:00", "nsi_id": "unitedstatespostalservice-a77078", "operator": "United States Postal Service", "operator:short": "USPS", "operator:type": "public", "operator:wikidata": "Q668687", "ref": "3721200012"}, "type": "Feature"}
{"geometry": {"coordinates": [-86.7970129, 36.1351002], "type": "Point"}, "id": "Mf6W8ZZMtiKT16Vdw7M9t3rCqBg=", "properties": {"@source_uri": "https://tools.usps.com/UspsToolsRestServices/rest/POLocator/findLocations", "@spider": "usps_collection_boxes", "addr:city": "NASHVILLE", "addr:country": "US", "addr:postcode": "37212", "addr:state": "TN", "addr:street_address": "2006 ACKLEN AVE", "amenity": "post_box", "collection_times": "Mo-Fr 17:00; Sa 14:00", "note": "ON 12/24 AND 12/31, THIS BOX MAY BE COLLECTED AS EARLY AS 12 NOON.", "nsi_id": "unitedstatespostalservice-a77078", "operator": "United States Postal Service", "operator:short": "USPS", "operator:type": "public", "operator:wikidata": "Q668687", "ref": "3721200017"}, "type": "Feature"}
{"geometry": {"coordinates": [-86.7932110405, 36.1410619906], "type": "Point"}, "id": "mmkracbFxNYMPXwQORHjhbWiBDM=", "properties": {"@source_uri": "https://tools.usps.com/UspsToolsRestServices/rest/POLocator/findLocations", "@spider": "usps_collection_boxes", "addr:city": "NASHVILLE", "addr:country": "US", "addr:postcode": "37212", "addr:state": "TN", "addr:street_address": "1226 16TH AVE S", "amenity": "post_box", "collection_times": "Mo-Fr 10:00", "nsi_id": "unitedstatespostalservice-a77078", "operator": "United States Postal Service", "operator:short": "USPS", "operator:type": "public", "operator:wikidata": "Q668687", "ref": "3721200046"}, "type": "Feature"}
{"geometry": {"coordinates": [-86.799713, 36.135622], "type": "Point"}, "id": "FHy9yiz5AKT4hkkTUQUImsDOeOQ=", "properties": {"@source_uri": "https://tools.usps.com/UspsToolsRestServices/rest/POLocator/findLocations", "@spider": "usps_collection_boxes", "addr:city": "NASHVILLE", "addr:country": "US", "addr:postcode": "37212", "addr:state": "TN", "addr:street_address": "2006 ACKLEN AVE", "amenity": "post_box", "collection_times": "Mo-Fr 17:00; Sa 12:00", "indoor": "yes", "note": "ON 12/24 AND 12/31, THIS BOX MAY BE COLLECTED AS EARLY AS 12 NOON.", "nsi_id": "unitedstatespostalservice-a77078", "operator": "United States Postal Service", "operator:short": "USPS", "operator:type": "public", "operator:wikidata": "Q668687", "ref": "3721200067"}, "type": "Feature"}
{"geometry": {"coordinates": [-86.8031769, 36.140006], "type": "Point"}, "id": "B4bqAsxNKv8VnTJvvfUui0dWG0Q=", "properties": {"@source_uri": "https://tools.usps.com/UspsToolsRestServices/rest/POLocator/findLocations", "@spider": "usps_collection_boxes", "addr:city": "NASHVILLE", "addr:country": "US", "addr:postcode": "37212", "addr:state": "TN", "addr:street_address": "2220 PIERCE AVE", "amenity": "post_box", "collection_times": "Mo-Fr 10:00; Sa 14:00", "note": "ON 12/24 AND 12/31, THIS BOX MAY BE COLLECTED AS EARLY AS 12 NOON.", "nsi_id": "unitedstatespostalservice-a77078", "operator": "United States Postal Service", "operator:short": "USPS", "operator:type": "public", "operator:wikidata": "Q668687", "ref": "3721200072"}, "type": "Feature"}
{"geometry": {"coordinates": [-86.799713, 36.135622], "type": "Point"}, "id": "LaU5WOJ6i3neZkb1ttsSwJI3Fcs=", "properties": {"@source_uri": "https://tools.usps.com/UspsToolsRestServices/rest/POLocator/findLocations", "@spider": "usps_collection_boxes", "addr:city": "NASHVILLE", "addr:country": "US", "addr:postcode": "37212", "addr:state": "TN", "addr:street_address": "2006 ACKLEN AVE", "amenity": "post_box", "collection_times": "Mo-Fr 17:00; Sa 12:00", "name": "USPS COLLECTION BOX - APC", "note": "ON 12/24 AND 12/31, THIS BOX MAY BE COLLECTED AS EARLY AS 12 NOON.", "nsi_id": "unitedstatespostalservice-a77078", "operator": "United States Postal Service", "operator:short": "USPS", "operator:type": "public", "operator:wikidata": "Q668687", "ref": "3721200080"}, "type": "Feature"}
{"geometry": {"coordinates": [-86.799929837, 36.135666363], "type": "Point"}, "id": "dFkgQ2W1ou7DsEfSlSPwIJPRMyg=", "properties": {"@source_uri": "https://tools.usps.com/UspsToolsRestServices/rest/POLocator/findLocations", "@spider": "usps_collection_boxes", "addr:city": "NASHVILLE", "addr:country": "US", "addr:postcode": "37212", "addr:state": "TN", "addr:street_address": "2006 ACKLEN AVE", "amenity": "post_box", "collection_times": "Mo-Fr 17:00", "indoor": "yes", "note": "ON 12/24 AND 12/31, THIS BOX MAY BE COLLECTED AS EARLY AS 12 NOON.", "nsi_id": "unitedstatespostalservice-a77078", "operator": "United States Postal Service", "operator:short": "USPS", "operator:type": "public", "operator:wikidata": "Q668687", "ref": "3721200085"}, "type": "Feature"}
{"geometry": {"coordinates": [-86.62935, 36.146885], "type": "Point"}, "id": "PCw5BHhf9KitAfScATDL1dbzB5U=", "properties": {"@source_uri": "https://tools.usps.com/UspsToolsRestServices/rest/POLocator/findLocations", "@spider": "usps_collection_boxes", "addr:city": "NASHVILLE", "addr:country": "US", "addr:postcode": "37214", "addr:state": "TN", "addr:street_address": "2710 OLD LEBANON RD", "amenity": "post_box", "collection_times": "Mo-Fr 10:00", "nsi_id": "unitedstatespostalservice-a77078", "operator": "United States Postal Service", "operator:short": "USPS", "operator:type": "public", "operator:wikidata": "Q668687", "ref": "3721400014"}, "type": "Feature"}
{"geometry": {"coordinates": [-86.6808310089, 36.133186983], "type": "Point"}, "id": "eB6N6-oRNdTRlo0zsV7x582SZEg=", "properties": {"@source_uri": "https://tools.usps.com/UspsToolsRestServices/rest/POLocator/findLocations", "@spider": "usps_collection_boxes", "addr:city": "NASHVILLE", "addr:country": "US", "addr:postcode": "37214", "addr:state": "TN", "addr:street_address": "1 TERMINAL DR", "amenity": "post_box", "collection_times": "Mo-Fr 13:45; Sa 13:00", "note": "ON 12/24 AND 12/31, THIS BOX MAY BE COLLECTED AS EARLY AS 12 NOON.", "nsi_id": "unitedstatespostalservice-a77078", "operator": "United States Postal Service", "operator:short": "USPS", "operator:type": "public", "operator:wikidata": "Q668687", "ref": "3721400024"}, "type": "Feature"}
{"geometry": {"coordinates": [-86.664177157, 36.161443289], "type": "Point"}, "id": "BIQ0fwNzKCMM2JjhQNh_XLvIC50=", "properties": {"@source_uri": "https://tools.usps.com/UspsToolsRestServices/rest/POLocator/findLocations", "@spider": "usps_collection_boxes", "addr:city": "NASHVILLE", "addr:country": "US", "addr:postcode": "37214", "addr:state": "TN", "addr:street_address": "215 DONELSON PIKE", "amenity": "post_box", "collection_times": "Mo-Fr 17:00; Sa 15:00", "note": "ON 12/24 AND 12/31, THIS BOX MAY BE COLLECTED AS EARLY AS 12 NOON.", "nsi_id": "unitedstatespostalservice-a77078", "operator": "United States Postal Service", "operator:short": "USPS", "operator:type": "public", "operator:wikidata": "Q668687", "ref": "3721400026"}, "type": "Feature"}
{"geometry": {"coordinates": [-86.664234, 36.161325], "type": "Point"}, "id": "GI94vQYcGm43Kkss1cbixDEj_dU=", "properties": {"@source_uri": "https://tools.usps.com/UspsToolsRestServices/rest/POLocator/findLocations", "@spider": "usps_collection_boxes", "addr:city": "NASHVILLE", "addr:country": "US", "addr:postcode": "37214", "addr:state": "TN", "addr:street_address": "215 DONELSON PIKE", "amenity": "post_box", "collection_times": "Mo-Fr 17:00; Sa 12:00", "indoor": "yes", "note": "ON 12/24 AND 12/31, THIS BOX MAY BE COLLECTED AS EARLY AS 12 NOON.", "nsi_id": "unitedstatespostalservice-a77078", "operator": "United States Postal Service", "operator:short": "USPS", "operator:type": "public", "operator:wikidata": "Q668687", "ref": "3721400046"}, "type": "Feature"}
{"geometry": {"coordinates": [-86.62935, 36.146885], "type": "Point"}, "id": "gjTlA6WfdeQwxoo2zOKUXx5-Fbo=", "properties": {"@source_uri": "https://tools.usps.com/UspsToolsRestServices/rest/POLocator/findLocations", "@spider": "usps_collection_boxes", "addr:city": "NASHVILLE", "addr:country": "US", "addr:postcode": "37214", "addr:state": "TN", "addr:street_address": "51 CENTURY BLVD", "amenity": "post_box", "collection_times": "Mo-Fr 09:00", "nsi_id": "unitedstatespostalservice-a77078", "operator": "United States Postal Service", "operator:short": "USPS", "operator:type": "public", "operator:wikidata": "Q668687", "ref": "3721400073"}, "type": "Feature"}
{"geometry": {"coordinates": [-86.664177157, 36.161443289], "type": "Point"}, "id": "jkvg85na20VeomxHBOBAvjzPZFM=", "properties": {"@source_uri": "https://tools.usps.com/UspsToolsRestServices/rest/POLocator/findLocations", "@spider": "usps_collection_boxes", "addr:city": "NASHVILLE", "addr:country": "US", "addr:postcode": "37214", "addr:state": "TN", "addr:street_address": "215 DONELSON PIKE", "amenity": "post_box", "collection_times": "Mo-Fr 17:00", "indoor": "yes", "note": "ON 12/24 AND 12/31, THIS BOX MAY BE COLLECTED AS EARLY AS 12 NOON.", "nsi_id": "unitedstatespostalservice-a77078", "operator": "United States Postal Service", "operator:short": "USPS", "operator:type": "public", "operator:wikidata": "Q668687", "ref": "3721400078"}, "type": "Feature"}
{"geometry": {"coordinates": [-86.6860140679, 36.1473859267], "type": "Point"}, "id": "g53UbNbh5nqZpK4TA1oqhkCOAAg=", "properties": {"@source_uri": "https://tools.usps.com/UspsToolsRestServices/rest/POLocator/findLocations", "@spider": "usps_collection_boxes", "addr:city": "NASHVILLE", "addr:country": "US", "addr:postcode": "37214", "addr:state": "TN", "addr:street_address": "22 CENTURY BLVD", "amenity": "post_box", "collection_times": "Mo-Fr 09:00", "nsi_id": "unitedstatespostalservice-a77078", "operator": "United States Postal Service", "operator:short": "USPS", "operator:type": "public", "operator:wikidata": "Q668687", "ref": "3721400082"}, "type": "Feature"}
{"geometry": {"coordinates": [-86.699329779, 36.2172894], "type": "Point"}, "id": "54BjPf8m1wSzAG-3-t9sICbRRHI=", "properties": {"@source_uri": "https://tools.usps.com/UspsToolsRestServices/rest/POLocator/findLocations", "@spider": "usps_collection_boxes", "addr:city": "NASHVILLE", "addr:country": "US", "addr:postcode": "37214", "addr:state": "TN", "addr:street_address": "2501 MCGAVOCK PIKE", "amenity": "post_box", "collection_times": "Mo-Fr 14:30", "note": "ON 12/24 AND 12/31, THIS BOX MAY BE COLLECTED AS EARLY AS 12 NOON.", "nsi_id": "unitedstatespostalservice-a77078", "operator": "United States Postal Service", "operator:short": "USPS", "operator:type": "public", "operator:wikidata": "Q668687", "ref": "3721400083"}, "type": "Feature"}
{"geometry": {"coordinates": [-86.8110816, 36.104622], "type": "Point"}, "id": "ARB7DtwSBbvZJc7y1a8U37U1HHQ=", "properties": {"@source_uri": "https://tools.usps.com/UspsToolsRestServices/rest/POLocator/findLocations", "@spider": "usps_collection_boxes", "addr:city": "NASHVILLE", "addr:country": "US", "addr:postcode": "37215", "addr:state": "TN", "addr:street_address": "2002 RICHARD JONES RD", "amenity": "post_box", "collection_times": "Mo-Fr 08:45", "nsi_id": "unitedstatespostalservice-a77078", "operator": "United States Postal Service", "operator:short": "USPS", "operator:type": "public", "operator:wikidata": "Q668687", "ref": "3721500009"}, "type": "Feature"}
{"geometry": {"coordinates": [-86.8197824, 36.101467], "type": "Point"}, "id": "qAfXZKz8wHI0pa9E-LGIrPGBjQ4=", "properties": {"@source_uri": "https://tools.usps.com/UspsToolsRestServices/rest/POLocator/findLocations", "@spider": "usps_collection_boxes", "addr:city": "NASHVILLE", "addr:country": "US", "addr:postcode": "37215", "addr:state": "TN", "addr:street_address": "2104 HOBBS RD", "amenity": "post_box", "collection_times": "Mo-Fr 08:45", "nsi_id": "unitedstatespostalservice-a77078", "operator": "United States Postal Service", "operator:short": "USPS", "operator:type": "public", "operator:wikidata": "Q668687", "ref": "3721500025"}, "type": "Feature"}
{"geometry": {"coordinates": [-86.8101378, 36.108445], "type": "Point"}, "id": "ZiOe2SrRz8nRO2j3kHDD6ffGJrY=", "properties": {"@source_uri": "https://tools.usps.com/UspsToolsRestServices/rest/POLocator/findLocations", "@spider": "usps_collection_boxes", "addr:city": "NASHVILLE", "addr:country": "US", "addr:postcode": "37215", "addr:state": "TN", "addr:street_address": "1906 GLEN ECHO RD", "amenity": "post_box", "collection_times": "Mo-Fr 18:00; Sa 14:00", "indoor": "yes", "note": "ON 12/24 AND 12/31, THIS BOX MAY BE COLLECTED AS EARLY AS 12 NOON.", "nsi_id": "unitedstatespostalservice-a77078", "operator": "United States Postal Service", "operator:short": "USPS", "operator:type": "public", "operator:wikidata": "Q668687", "ref": "3721500026"}, "type": "Feature"}
{"geometry": {"coordinates": [-86.8241599, 36.0952931], "type": "Point"}, "id": "8Tf-gACIy4F4ejoI35fW83yVb_0=", "properties": {"@source_uri": "https://tools.usps.com/UspsToolsRestServices/rest/POLocator/findLocations", "@spider": "usps_collection_boxes", "addr:city": "NASHVILLE", "addr:country": "US", "addr:postcode": "37215", "addr:state": "TN", "addr:street_address": "1906 GLEN ECHO RD", "amenity": "post_box", "collection_times": "Mo-Fr 18:00; Sa 15:00", "note": "ON 12/24 AND 12/31, THIS BOX MAY BE COLLECTED AS EARLY AS 12 NOON.", "nsi_id": "unitedstatespostalservice-a77078", "operator": "United States Postal Service", "operator:short": "USPS", "operator:type": "public", "operator:wikidata": "Q668687", "ref": "3721500034"}, "type": "Feature"}
{"geometry": {"coordinates": [-86.8098961, 36.108887], "type": "Point"}, "id": "d8_7iHv15pITvgTEtog9S4bJr9c=", "properties": {"@source_uri": "https://tools.usps.com/UspsToolsRestServices/rest/POLocator/findLocations", "@spider": "usps_collection_boxes", "addr:city": "NASHVILLE", "addr:country": "US", "addr:postcode": "37215", "addr:state": "TN", "addr:street_address": "1906 GLEN ECHO RD", "amenity": "post_box", "collection_times": "Mo-Fr 18:00; Sa 14:00", "name": "USPS COLLECTION BOX - APC", "note": "ON 12/24 AND 12/31, THIS BOX MAY BE COLLECTED AS EARLY AS 12 NOON.", "nsi_id": "unitedstatespostalservice-a77078", "operator": "United States Postal Service", "operator:short": "USPS", "operator:type": "public", "operator:wikidata": "Q668687", "ref": "3721500038"}, "type": "Feature"}
{"geometry": {"coordinates": [-86.809766814, 36.108058878], "type": "Point"}, "id": "vJc-f8hso1vP2qjThDog00gWnKk=", "properties": {"@source_uri": "https://tools.usps.com/UspsToolsRestServices/rest/POLocator/findLocations", "@spider": "usps_collection_boxes", "addr:city": "NASHVILLE", "addr:country": "US", "addr:postcode": "37215", "addr:state": "TN", "addr:street_address": "1906 GLEN ECHO RD", "amenity": "post_box", "collection_times": "Mo-Fr 18:00", "indoor": "yes", "note": "ON 12/24 AND 12/31, THIS BOX MAY BE COLLECTED AS EARLY AS 12 NOON.", "nsi_id": "unitedstatespostalservice-a77078", "operator": "United States Postal Service", "operator:short": "USPS", "operator:type": "public", "operator:wikidata": "Q668687", "ref": "3721500048"}, "type": "Feature"}
{"geometry": {"coordinates": [-86.732227, 36.214668], "type": "Point"}, "id": "2H8Q8BrNGuzKLzI4HI0VxpKZ4Mc=", "properties": {"@source_uri": "https://tools.usps.com/UspsToolsRestServices/rest/POLocator/findLocations", "@spider": "usps_collection_boxes", "addr:city": "NASHVILLE", "addr:country": "US", "addr:postcode": "37216", "addr:state": "TN", "addr:street_address": "1011 GILLOCK ST", "amenity": "post_box", "collection_times": "Mo-Fr 17:00; Sa 15:00", "note": "ON 12/24 AND 12/31, THIS BOX MAY BE COLLECTED AS EARLY AS 12 NOON.", "nsi_id": "unitedstatespostalservice-a77078", "operator": "United States Postal Service", "operator:short": "USPS", "operator:type": "public", "operator:wikidata": "Q668687", "ref": "3721600002"}, "type": "Feature"}
{"geometry": {"coordinates": [-86.732321, 36.214671], "type": "Point"}, "id": "RZeTB2PvxlSvxWYGG2xjZqoh_5s=", "properties": {"@source_uri": "https://tools.usps.com/UspsToolsRestServices/rest/POLocator/findLocations", "@spider": "usps_collection_boxes", "addr:city": "NASHVILLE", "addr:country": "US", "addr:postcode": "37216", "addr:state": "TN", "addr:street_address": "1011 GILLOCK ST", "amenity": "post_box", "collection_times": "Mo-Fr 17:00; Sa 12:00", "indoor": "yes", "note": "ON 12/24 AND 12/31, THIS BOX MAY BE COLLECTED AS EARLY AS 12 NOON.", "nsi_id": "unitedstatespostalservice-a77078", "operator": "United States Postal Service", "operator:short": "USPS", "operator:type": "public", "operator:wikidata": "Q668687", "ref": "3721600011"}, "type": "Feature"}
{"geometry": {"coordinates": [-86.7247699, 36.231443], "type": "Point"}, "id": "s4-4lNwZAV0KoquJ9DYtD7xFNmI=", "properties": {"@source_uri": "https://tools.usps.com/UspsToolsRestServices/rest/POLocator/findLocations", "@spider": "usps_collection_boxes", "addr:city": "NASHVILLE", "addr:country": "US", "addr:postcode": "37216", "addr:state": "TN", "addr:street_address": "4800 GALLATIN PIKE", "amenity": "post_box", "collection_times": "Mo-Fr 14:45", "note": "ON 12/24 AND 12/31, THIS BOX MAY BE COLLECTED AS EARLY AS 12 NOON.", "nsi_id": "unitedstatespostalservice-a77078", "operator": "United States Postal Service", "operator:short": "USPS", "operator:type": "public", "operator:wikidata": "Q668687", "ref": "3721600013"}, "type": "Feature"}
{"geometry": {"coordinates": [-86.731451535, 36.214401571], "type": "Point"}, "id": "XKeEVEEyDpBVCfJqaTS2JA1dky4=", "properties": {"@source_uri": "https://tools.usps.com/UspsToolsRestServices/rest/POLocator/findLocations", "@spider": "usps_collection_boxes", "addr:city": "NASHVILLE", "addr:country": "US", "addr:postcode": "37216", "addr:state": "TN", "addr:street_address": "1011 GILLOCK ST", "amenity": "post_box", "collection_times": "Mo-Fr 17:00", "indoor": "yes", "note": "ON 12/24 AND 12/31, THIS BOX MAY BE COLLECTED AS EARLY AS 12 NOON.", "nsi_id": "unitedstatespostalservice-a77078", "operator": "United States Postal Service", "operator:short": "USPS", "operator:type": "public", "operator:wikidata": "Q668687", "ref": "3721600015"}, "type": "Feature"}
{"geometry": {"coordinates": [-86.6523607, 36.0918368], "type": "Point"}, "id": "g2RgiSMK6pE62nuzwtGkaifcn7c=", "properties": {"@source_uri": "https://tools.usps.com/UspsToolsRestServices/rest/POLocator/findLocations", "@spider": "usps_collection_boxes", "addr:city": "NASHVILLE", "addr:country": "US", "addr:postcode": "37217", "addr:state": "TN", "addr:street_address": "301 EZELL PIKE", "amenity": "post_box", "collection_times": "Mo-Fr 17:00; Sa 14:00", "note": "ON 12/24 AND 12/31, THIS BOX MAY BE COLLECTED AS EARLY AS 12 NOON.", "nsi_id": "unitedstatespostalservice-a77078", "operator": "United States Postal Service", "operator:short": "USPS", "operator:type": "public", "operator:wikidata": "Q668687", "ref": "3721700010"}, "type": "Feature"}
{"geometry": {"coordinates": [-86.6523607, 36.0918368], "type": "Point"}, "id": "rGlkut1z3ubP5_oOQ-lX4igiJJ4=", "properties": {"@source_uri": "https://tools.usps.com/UspsToolsRestServices/rest/POLocator/findLocations", "@spider": "usps_collection_boxes", "addr:city": "NASHVILLE", "addr:country": "US", "addr:postcode": "37217", "addr:state": "TN", "addr:street_address": "500 AIRPARK CENTER DR", "amenity": "post_box", "collection_times": "Mo-Fr 10:15", "nsi_id": "unitedstatespostalservice-a77078", "operator": "United States Postal Service", "operator:short": "USPS", "operator:type": "public", "operator:wikidata": "Q668687", "ref": "3721700014"}, "type": "Feature"}
{"geometry": {"coordinates": [-86.6723089603, 36.1034039855], "type": "Point"}, "id": "mG8lOzgszWL3bBn28iqD4VZQw64=", "properties": {"@source_uri": "https://tools.usps.com/UspsToolsRestServices/rest/POLocator/findLocations", "@spider": "usps_collection_boxes", "addr:city": "NASHVILLE", "addr:country": "US", "addr:postcode": "37217", "addr:state": "TN", "addr:street_address": "301 EZELL PIKE", "amenity": "post_box", "collection_times": "Mo-Fr 17:00; Sa 12:00", "indoor": "yes", "note": "ON 12/24 AND 12/31, THIS BOX MAY BE COLLECTED AS EARLY AS 12 NOON.", "nsi_id": "unitedstatespostalservice-a77078", "operator": "United States Postal Service", "operator:short": "USPS", "operator:type": "public", "operator:wikidata": "Q668687", "ref": "3721700052"}, "type": "Feature"}
{"geometry": {"coordinates": [-86.6523607, 36.0918368], "type": "Point"}, "id": "QV_ccWpA13ODFxQJNE9gpwm5pR4=", "properties": {"@source_uri": "https://tools.usps.com/UspsToolsRestServices/rest/POLocator/findLocations", "@spider": "usps_collection_boxes", "addr:city": "NASHVILLE", "addr:country": "US", "addr:postcode": "37217", "addr:state": "TN", "addr:street_address": "2808 SMITH SPRINGS RD", "amenity": "post_box", "collection_times": "Mo-Fr 10:00; Sa 13:00", "note": "ON 12/24 AND 12/31, THIS BOX MAY BE COLLECTED AS EARLY AS 12 NOON.", "nsi_id": "unitedstatespostalservice-a77078", "operator": "United States Postal Service", "operator:short": "USPS", "operator:type": "public", "operator:wikidata": "Q668687", "ref": "3721700057"}, "type": "Feature"}
{"geometry": {"coordinates": [-86.647529037, 36.0886789933], "type": "Point"}, "id": "1CcVpn8UeD7tWTbVfeKtXZkV4ms=", "properties": {"@source_uri": "https://tools.usps.com/UspsToolsRestServices/rest/POLocator/findLocations", "@spider": "usps_collection_boxes", "addr:city": "NASHVILLE", "addr:country": "US", "addr:postcode": "37217", "addr:state": "TN", "addr:street_address": "2284 MURFREESBORO PIKE", "amenity": "post_box", "collection_times": "Mo-Fr 10:30; Sa 13:00", "note": "ON 12/24 AND 12/31, THIS BOX MAY BE COLLECTED AS EARLY AS 12 NOON.", "nsi_id": "unitedstatespostalservice-a77078", "operator": "United States Postal Service", "operator:short": "USPS", "operator:type": "public", "operator:wikidata": "Q668687", "ref": "3721700062"}, "type": "Feature"}
{"geometry": {"coordinates": [-86.6723089603, 36.1034039855], "type": "Point"}, "id": "7M0gp-h0hII8kMFlTL9DNMg_wbo=", "properties": {"@source_uri": "https://tools.usps.com/UspsToolsRestServices/rest/POLocator/findLocations", "@spider": "usps_collection_boxes", "addr:city": "NASHVILLE", "addr:country": "US", "addr:postcode": "37217", "addr:state": "TN", "addr:street_address": "301 EZELL PIKE", "amenity": "post_box", "collection_times": "Mo-Fr 17:00", "indoor": "yes", "note": "ON 12/24 AND 12/31, THIS BOX MAY BE COLLECTED AS EARLY AS 12 NOON.", "nsi_id": "unitedstatespostalservice-a77078", "operator": "United States Postal Service", "operator:short": "USPS", "operator:type": "public", "operator:wikidata": "Q668687", "ref": "3721700070"}, "type": "Feature"}
{"geometry": {"coordinates": [-86.8323666, 36.19328], "type": "Point"}, "id": "ownvGk9HO4dZCigMUiwzq5JA7r8=", "properties": {"@source_uri": "https://tools.usps.com/UspsToolsRestServices/rest/POLocator/findLocations", "@spider": "usps_collection_boxes", "addr:city": "NASHVILLE", "addr:country": "US", "addr:postcode": "37218", "addr:state": "TN", "addr:street_address": "3205 CLARKSVILLE PIKE", "amenity": "post_box", "collection_times": "Mo-Fr 10:00", "nsi_id": "unitedstatespostalservice-a77078", "operator": "United States Postal Service", "operator:short": "USPS", "operator:type": "public", "operator:wikidata": "Q668687", "ref": "3721800003"}, "type": "Feature"}
{"geometry": {"coordinates": [-86.8390116, 36.198307], "type": "Point"}, "id": "MsPg0VwP244Wu87iT1bcmTmjgTQ=", "properties": {"@source_uri": "https://tools.usps.com/UspsToolsRestServices/rest/POLocator/findLocations", "@spider": "usps_collection_boxes", "addr:city": "NASHVILLE", "addr:country": "US", "addr:postcode": "37218", "addr:state": "TN", "addr:street_address": "3701 CLARKSVILLE PIKE", "amenity": "post_box", "collection_times": "Mo-Fr 10:00", "nsi_id": "unitedstatespostalservice-a77078", "operator": "United States Postal Service", "operator:short": "USPS", "operator:type": "public", "operator:wikidata": "Q668687", "ref": "3721800006"}, "type": "Feature"}
{"geometry": {"coordinates": [-86.8388573, 36.21008], "type": "Point"}, "id": "EENda2xzN_k5fznv1SDQBieUhHY=", "properties": {"@source_uri": "https://tools.usps.com/UspsToolsRestServices/rest/POLocator/findLocations", "@spider": "usps_collection_boxes", "addr:city": "NASHVILLE", "addr:country": "US", "addr:postcode": "37218", "addr:state": "TN", "addr:street_address": "3930 CLARKSVILLE PIKE", "amenity": "post_box", "collection_times": "Mo-Fr 10:00; Sa 13:00", "note": "ON 12/24 AND 12/31, THIS BOX MAY BE COLLECTED AS EARLY AS 12 NOON.", "nsi_id": "unitedstatespostalservice-a77078", "operator": "United States Postal Service", "operator:short": "USPS", "operator:type": "public", "operator:wikidata": "Q668687", "ref": "3721800007"}, "type": "Feature"}
{"geometry": {"coordinates": [-86.7813997181, 36.1626972401], "type": "Point"}, "id": "1Wu9hi1SGlfl6NT7rUP0x_VPxUE=", "properties": {"@source_uri": "https://tools.usps.com/UspsToolsRestServices/rest/POLocator/findLocations", "@spider": "usps_collection_boxes", "addr:city": "NASHVILLE", "addr:country": "US", "addr:postcode": "37219", "addr:state": "TN", "addr:street_address": "200 6TH AVE N", "amenity": "post_box", "collection_times": "Mo-Fr 17:00", "note": "ON 12/24 AND 12/31, THIS BOX MAY BE COLLECTED AS EARLY AS 12 NOON.", "nsi_id": "unitedstatespostalservice-a77078", "operator": "United States Postal Service", "operator:short": "USPS", "operator:type": "public", "operator:wikidata": "Q668687", "ref": "3721900001"}, "type": "Feature"}
{"geometry": {"coordinates": [-86.7829665124, 36.1637613333], "type": "Point"}, "id": "rsamclBDsG8wMGYwQtid4NYSHb4=", "properties": {"@source_uri": "https://tools.usps.com/UspsToolsRestServices/rest/POLocator/findLocations", "@spider": "usps_collection_boxes", "addr:city": "NASHVILLE", "addr:country": "US", "addr:postcode": "37219", "addr:state": "TN", "addr:street_address": "624 UNION ST", "amenity": "post_box", "collection_times": "Mo-Fr 16:15", "note": "ON 12/24 AND 12/31, THIS BOX MAY BE COLLECTED AS EARLY AS 12 NOON.", "nsi_id": "unitedstatespostalservice-a77078", "operator": "United States Postal Service", "operator:short": "USPS", "operator:type": "public", "operator:wikidata": "Q668687", "ref": "3721900016"}, "type": "Feature"}
{"geometry": {"coordinates": [-86.781285, 36.166115], "type": "Point"}, "id": "gI3Fk10VZDBrYrIHV1D_n2k40FY=", "properties": {"@source_uri": "https://tools.usps.com/UspsToolsRestServices/rest/POLocator/findLocations", "@spider": "usps_collection_boxes", "addr:city": "NASHVILLE", "addr:country": "US", "addr:postcode": "37219", "addr:state": "TN", "addr:street_address": "163 4TH AVE N", "amenity": "post_box", "collection_times": "Mo-Fr 16:15", "note": "ON 12/24 AND 12/31, THIS BOX MAY BE COLLECTED AS EARLY AS 12 NOON.", "nsi_id": "unitedstatespostalservice-a77078", "operator": "United States Postal Service", "operator:short": "USPS", "operator:type": "public", "operator:wikidata": "Q668687", "ref": "3721900027"}, "type": "Feature"}
{"geometry": {"coordinates": [-86.7836519828, 36.1691859999], "type": "Point"}, "id": "Csjqqt9eWeQlXPYR6sQMAEqwPmA=", "properties": {"@source_uri": "https://tools.usps.com/UspsToolsRestServices/rest/POLocator/findLocations", "@spider": "usps_collection_boxes", "addr:city": "NASHVILLE", "addr:country": "US", "addr:postcode": "37219", "addr:state": "TN", "addr:street_address": "480 JAMES ROBERTSON PKWY", "amenity": "post_box", "collection_times": "Mo-Fr 16:15", "note": "ON 12/24 AND 12/31, THIS BOX MAY BE COLLECTED AS EARLY AS 12 NOON.", "nsi_id": "unitedstatespostalservice-a77078", "operator": "United States Postal Service", "operator:short": "USPS", "operator:type": "public", "operator:wikidata": "Q668687", "ref": "3721900040"}, "type": "Feature"}
{"geometry": {"coordinates": [-86.7812590333, 36.1683349852], "type": "Point"}, "id": "ZyfKKNAH9why16e1ba4Dfma_Jbk=", "properties": {"@source_uri": "https://tools.usps.com/UspsToolsRestServices/rest/POLocator/findLocations", "@spider": "usps_collection_boxes", "addr:city": "NASHVILLE", "addr:country": "US", "addr:postcode": "37219", "addr:state": "TN", "addr:street_address": "446 JAMES ROBERTSON PKWY", "amenity": "post_box", "collection_times": "Mo-Fr 16:15", "note": "ON 12/24 AND 12/31, THIS BOX MAY BE COLLECTED AS EARLY AS 12 NOON.", "nsi_id": "unitedstatespostalservice-a77078", "operator": "United States Postal Service", "operator:short": "USPS", "operator:type": "public", "operator:wikidata": "Q668687", "ref": "3721900058"}, "type": "Feature"}
{"geometry": {"coordinates": [-86.7804261, 36.165958], "type": "Point"}, "id": "umYWpejNzwDGOrs7un2VQnAYZs0=", "properties": {"@source_uri": "https://tools.usps.com/UspsToolsRestServices/rest/POLocator/findLocations", "@spider": "usps_collection_boxes", "addr:city": "NASHVILLE", "addr:country": "US", "addr:postcode": "37219", "addr:state": "TN", "addr:street_address": "401 4TH AVE N", "amenity": "post_box", "collection_times": "Mo-Fr 17:00", "note": "ON 12/24 AND 12/31, THIS BOX MAY BE COLLECTED AS EARLY AS 12 NOON.", "nsi_id": "unitedstatespostalservice-a77078", "operator": "United States Postal Service", "operator:short": "USPS", "operator:type": "public", "operator:wikidata": "Q668687", "ref": "3721900061"}, "type": "Feature"}
{"geometry": {"coordinates": [-86.782190993, 36.166218897], "type": "Point"}, "id": "HoZq_0QDNrYIz-yMTWfLI5RVo1k=", "properties": {"@source_uri": "https://tools.usps.com/UspsToolsRestServices/rest/POLocator/findLocations", "@spider": "usps_collection_boxes", "addr:city": "NASHVILLE", "addr:country": "US", "addr:postcode": "37219", "addr:state": "TN", "addr:street_address": "425 5TH AVE N", "amenity": "post_box", "collection_times": "Mo-Fr 17:00", "note": "ON 12/24 AND 12/31, THIS BOX MAY BE COLLECTED AS EARLY AS 12 NOON.", "nsi_id": "unitedstatespostalservice-a77078", "operator": "United States Postal Service", "operator:short": "USPS", "operator:type": "public", "operator:wikidata": "Q668687", "ref": "3721900068"}, "type": "Feature"}
{"geometry": {"coordinates": [-86.781285, 36.166115], "type": "Point"}, "id": "zexkEonrFUqv-N8QW0G_nk_OAN8=", "properties": {"@source_uri": "https://tools.usps.com/UspsToolsRestServices/rest/POLocator/findLocations", "@spider": "usps_collection_boxes", "addr:city": "NASHVILLE", "addr:country": "US", "addr:postcode": "37219", "addr:state": "TN", "addr:street_address": "162 4TH AVE N", "amenity": "post_box", "collection_times": "Mo-Fr 16:15", "note": "ON 12/24 AND 12/31, THIS BOX MAY BE COLLECTED AS EARLY AS 12 NOON.", "nsi_id": "unitedstatespostalservice-a77078", "operator": "United States Postal Service", "operator:short": "USPS", "operator:type": "public", "operator:wikidata": "Q668687", "ref": "3721900069"}, "type": "Feature"}
{"geometry": {"coordinates": [-86.7793382, 36.164529], "type": "Point"}, "id": "GLNUxkSvldftYeM1JJ-G_Y_4suA=", "properties": {"@source_uri": "https://tools.usps.com/UspsToolsRestServices/rest/POLocator/findLocations", "@spider": "usps_collection_boxes", "addr:city": "NASHVILLE", "addr:country": "US", "addr:postcode": "37219", "addr:state": "TN", "addr:street_address": "239 4TH AVE N", "amenity": "post_box", "collection_times": "Mo-Fr 16:15", "note": "ON 12/24 AND 12/31, THIS BOX MAY BE COLLECTED AS EARLY AS 12 NOON.", "nsi_id": "unitedstatespostalservice-a77078", "operator": "United States Postal Service", "operator:short": "USPS", "operator:type": "public", "operator:wikidata": "Q668687", "ref": "3721900075"}, "type": "Feature"}
{"geometry": {"coordinates": [-86.9483193, 36.076963], "type": "Point"}, "id": "r-BIdPah48Ze4srzBMxhkh6GXag=", "properties": {"@source_uri": "https://tools.usps.com/UspsToolsRestServices/rest/POLocator/findLocations", "@spider": "usps_collection_boxes", "addr:city": "NASHVILLE", "addr:country": "US", "addr:postcode": "37221", "addr:state": "TN", "addr:street_address": "7619 HIGHWAY 70 S", "amenity": "post_box", "collection_times": "Mo-Fr 17:30; Sa 15:00", "note": "ON 12/24 AND 12/31, THIS BOX MAY BE COLLECTED AS EARLY AS 12 NOON.", "nsi_id": "unitedstatespostalservice-a77078", "operator": "United States Postal Service", "operator:short": "USPS", "operator:type": "public", "operator:wikidata": "Q668687", "ref": "3722100010"}, "type": "Feature"}
{"geometry": {"coordinates": [-86.9192153, 36.073597], "type": "Point"}, "id": "RQd9gnKppTPecU6a2ES1vZ9XOug=", "properties": {"@source_uri": "https://tools.usps.com/UspsToolsRestServices/rest/POLocator/findLocations", "@spider": "usps_collection_boxes", "addr:city": "NASHVILLE", "addr:country": "US", "addr:postcode": "37221", "addr:state": "TN", "addr:street_address": "7083 HIGHWAY 70 S", "amenity": "post_box", "collection_times": "Mo-Sa 09:45", "nsi_id": "unitedstatespostalservice-a77078", "operator": "United States Postal Service", "operator:short": "USPS", "operator:type": "public", "operator:wikidata": "Q668687", "ref": "3722100014"}, "type": "Feature"}
{"geometry": {"coordinates": [-86.9484431, 36.076801], "type": "Point"}, "id": "6Z4Bm9_2p-McT-IzL0zLm5hr8K4=", "properties": {"@source_uri": "https://tools.usps.com/UspsToolsRestServices/rest/POLocator/findLocations", "@spider": "usps_collection_boxes", "addr:city": "NASHVILLE", "addr:country": "US", "addr:postcode": "37221", "addr:state": "TN", "addr:street_address": "7619 HIGHWAY 70 S", "amenity": "post_box", "collection_times": "Mo-Fr 18:00; Sa 14:00", "indoor": "yes", "note": "ON 12/24 AND 12/31, THIS BOX MAY BE COLLECTED AS EARLY AS 12 NOON.", "nsi_id": "unitedstatespostalservice-a77078", "operator": "United States Postal Service", "operator:short": "USPS", "operator:type": "public", "operator:wikidata": "Q668687", "ref": "3722100015"}, "type": "Feature"}
{"geometry": {"coordinates": [-86.9563479, 36.043749], "type": "Point"}, "id": "T1zNikbS9n256cYOwsg_T3aZSKs=", "properties": {"@source_uri": "https://tools.usps.com/UspsToolsRestServices/rest/POLocator/findLocations", "@spider": "usps_collection_boxes", "addr:city": "NASHVILLE", "addr:country": "US", "addr:postcode": "37221", "addr:state": "TN", "addr:street_address": "8141 HIGHWAY 100", "amenity": "post_box", "collection_times": "Mo-Fr 15:00; Sa 13:00", "note": "ON 12/24 AND 12/31, THIS BOX MAY BE COLLECTED AS EARLY AS 12 NOON.", "nsi_id": "unitedstatespostalservice-a77078", "operator": "United States Postal Service", "operator:short": "USPS", "operator:type": "public", "operator:wikidata": "Q668687", "ref": "3722100018"}, "type": "Feature"}
{"geometry": {"coordinates": [-86.947459, 36.077547], "type": "Point"}, "id": "V-jbYJbvH2AOx75w6el3hncaDro=", "properties": {"@source_uri": "https://tools.usps.com/UspsToolsRestServices/rest/POLocator/findLocations", "@spider": "usps_collection_boxes", "addr:city": "NASHVILLE", "addr:country": "US", "addr:postcode": "37221", "addr:state": "TN", "addr:street_address": "7619 HIGHWAY 70 S", "amenity": "post_box", "collection_times": "Mo-Fr 18:00; Sa 14:00", "name": "USPS COLLECTION BOX - APC", "note": "ON 12/24 AND 12/31, THIS BOX MAY BE COLLECTED AS EARLY AS 12 NOON.", "nsi_id": "unitedstatespostalservice-a77078", "operator": "United States Postal Service", "operator:short": "USPS", "operator:type": "public", "operator:wikidata": "Q668687", "ref": "3722100021"}, "type": "Feature"}
{"geometry": {"coordinates": [-86.947439331, 36.077487653], "type": "Point"}, "id": "vPsrdfplHQpQT0yJeardktQ1nCs=", "properties": {"@source_uri": "https://tools.usps.com/UspsToolsRestServices/rest/POLocator/findLocations", "@spider": "usps_collection_boxes", "addr:city": "NASHVILLE", "addr:country": "US", "addr:postcode": "37221", "addr:state": "TN", "addr:street_address": "7619 HIGHWAY 70 S", "amenity": "post_box", "collection_times": "Mo-Fr 18:00", "indoor": "yes", "note": "ON 12/24 AND 12/31, THIS BOX MAY BE COLLECTED AS EARLY AS 12 NOON.", "nsi_id": "unitedstatespostalservice-a77078", "operator": "United States Postal Service", "operator:short": "USPS", "operator:type": "public", "operator:wikidata": "Q668687", "ref": "3722100025"}, "type": "Feature"}
{"geometry": {"coordinates": [-86.7886080345, 36.193531992], "type": "Point"}, "id": "M27ay14P6-bjWlC5KY--5ApbQ0g=", "properties": {"@source_uri": "https://tools.usps.com/UspsToolsRestServices/rest/POLocator/findLocations", "@spider": "usps_collection_boxes", "addr:city": "NASHVILLE", "addr:country": "US", "addr:postcode": "37228", "addr:state": "TN", "addr:street_address": "235 CUMBERLAND BND", "amenity": "post_box", "collection_times": "Mo-Fr 09:15", "nsi_id": "unitedstatespostalservice-a77078", "operator": "United States Postal Service", "operator:short": "USPS", "operator:type": "public", "operator:wikidata": "Q668687", "ref": "3722800008"}, "type": "Feature"}
{"geometry": {"coordinates": [-86.79902498, 36.1956519849], "type": "Point"}, "id": "Ug1q1qpPbXTCzzq7-OWGybEwnWE=", "properties": {"@source_uri": "https://tools.usps.com/UspsToolsRestServices/rest/POLocator/findLocations", "@spider": "usps_collection_boxes", "addr:city": "NASHVILLE", "addr:country": "US", "addr:postcode": "37228", "addr:state": "TN", "addr:street_address": "200 ATHENS WAY", "amenity": "post_box", "collection_times": "Mo-Fr 09:30", "nsi_id": "unitedstatespostalservice-a77078", "operator": "United States Postal Service", "operator:short": "USPS", "operator:type": "public", "operator:wikidata": "Q668687", "ref": "3722800047"}, "type": "Feature"}
{"geometry": {"coordinates": [-86.7998019824, 36.1944809911], "type": "Point"}, "id": "IcPxxbPCqoParOb3pOPsqwqI1Z8=", "properties": {"@source_uri": "https://tools.usps.com/UspsToolsRestServices/rest/POLocator/findLocations", "@spider": "usps_collection_boxes", "addr:city": "NASHVILLE", "addr:country": "US", "addr:postcode": "37228", "addr:state": "TN", "addr:street_address": "220 ATHENS WAY", "amenity": "post_box", "collection_times": "Mo-Fr 09:00", "nsi_id": "unitedstatespostalservice-a77078", "operator": "United States Postal Service", "operator:short": "USPS", "operator:type": "public", "operator:wikidata": "Q668687", "ref": "3722800055"}, "type": "Feature"}
{"geometry": {"coordinates": [-86.67429, 36.148531], "type": "Point"}, "id": "04Qm4bWNTj-uGKu9GENPGV5Hdtg=", "properties": {"@source_uri": "https://tools.usps.com/UspsToolsRestServices/rest/POLocator/findLocations", "@spider": "usps_collection_boxes", "addr:city": "NASHVILLE", "addr:country": "US", "addr:postcode": "37229", "addr:state": "TN", "addr:street_address": "525 ROYAL PKWY", "amenity": "post_box", "collection_times": "Mo-Sa 20:00", "indoor": "yes", "note": "ON 12/24 AND 12/31, THIS BOX MAY BE COLLECTED AS EARLY AS 12 NOON.", "nsi_id": "unitedstatespostalservice-a77078", "operator": "United States Postal Service", "operator:short": "USPS", "operator:type": "public", "operator:wikidata": "Q668687", "ref": "3722900006"}, "type": "Feature"}
{"geometry": {"coordinates": [-86.67429, 36.148531], "type": "Point"}, "id": "6Z5jMXOpzGTb9N4NesiMq2Zupq4=", "properties": {"@source_uri": "https://tools.usps.com/UspsToolsRestServices/rest/POLocator/findLocations", "@spider": "usps_collection_boxes", "addr:city": "NASHVILLE", "addr:country": "US", "addr:postcode": "37229", "addr:state": "TN", "addr:street_address": "525 ROYAL PKWY", "amenity": "post_box", "collection_times": "Mo-Sa 20:00", "name": "USPS COLLECTION BOX - APC", "note": "ON 12/24 AND 12/31, THIS BOX MAY BE COLLECTED AS EARLY AS 12 NOON.", "nsi_id": "unitedstatespostalservice-a77078", "operator": "United States Postal Service", "operator:short": "USPS", "operator:type": "public", "operator:wikidata": "Q668687", "ref": "3722900008"}, "type": "Feature"}
{"geometry": {"coordinates": [-86.6733452, 36.1478272], "type": "Point"}, "id": "A0ye6IYJvMASNdel-Np66a9P-r4=", "properties": {"@source_uri": "https://tools.usps.com/UspsToolsRestServices/rest/POLocator/findLocations", "@spider": "usps_collection_boxes", "addr:city": "NASHVILLE", "addr:country": "US", "addr:postcode": "37229", "addr:state": "TN", "addr:street_address": "525 ROYAL PKWY", "amenity": "post_box", "collection_times": "Mo-Sa 18:30", "note": "ON 12/24 AND 12/31, THIS BOX MAY BE COLLECTED AS EARLY AS 12 NOON.", "nsi_id": "unitedstatespostalservice-a77078", "operator": "United States Postal Service", "operator:short": "USPS", "operator:type": "public", "operator:wikidata": "Q668687", "ref": "3722900059"}, "type": "Feature"}
