{"geometry": {"coordinates": [-86.356826794, 35.013597623], "type": "Point"}, "id": "TByFqrnJcUSkCU9WtNtB5uanTWs=", "properties": {"@spider": "usps_collection_boxes", "addr:city": "ELORA", "addr:country": "US", "addr:full": "68 OLD HUNTLAND RD", "addr:postcode": "37328", "addr:state": "TN", "brand": "USPS", "collection_times": "Mo-Fr 16:00; Sa 10:30", "name": "USPS COLLECTION BOX - PO LOBBY", "note": "ON 12/24 AND 12/31, THIS BOX MAY BE COLLECTED AS EARLY AS 12 NOON.", "ref": "3732800002"}, "type": "Feature"}
{"geometry": {"coordinates": [-86.356826794, 35.013597623], "type": "Point"}, "id": "aPYwPW0N3zWJdzYtoD4_gkgyCkk=", "properties": {"@spider": "usps_collection_boxes", "addr:city": "ELORA", "addr:country": "US", "addr:full": "68 OLD HUNTLAND RD", "addr:postcode": "37328", "addr:state": "TN", "brand": "USPS", "collection_times": "Mo-Fr 16:00; Sa 10:30", "name": "USPS COLLECTION BOX - PO LOBBY", "note": "ON 12/24 AND 12/31, THIS BOX MAY BE COLLECTED AS EARLY AS 12 NOON.", "ref": "3732800003"}, "type": "Feature"}
{"geometry": {"coordinates": [-86.356826794, 35.013597623], "type": "Point"}, "id": "X8UCUC4wWujEsxHSc-m89o5WIUc=", "properties": {"@spider": "usps_collection_boxes", "addr:city": "ELORA", "addr:country": "US", "addr:full": "68 OLD HUNTLAND RD", "addr:postcode": "37328", "addr:state": "TN", "brand": "USPS", "collection_times": "Mo-Fr 16:00; Sa 10:30", "name": "USPS COLLECTION BOX - BLUE BOX", "note": "ON 12/24 AND 12/31, THIS BOX MAY BE COLLECTED AS EARLY AS 12 NOON.", "ref": "3732800005"}, "type": "Feature"}
{"geometry": {"coordinates": [-86.567923, 35.152064], "type": "Point"}, "id": "FevVDcRtlGmk6ztX_EhJ_cy5HZA=", "properties": {"@spider": "usps_collection_boxes", "addr:city": "FAYETTEVILLE", "addr:country": "US", "addr:full": "104 FRANKLIN AVE N", "addr:postcode": "37334", "addr:state": "TN", "brand": "USPS", "collection_times": "Mo-Fr 16:45; Sa 12:00", "name": "USPS COLLECTION BOX - BLUE BOX", "note": "ON 12/24 AND 12/31, THIS BOX MAY BE COLLECTED AS EARLY AS 12 NOON.", "ref": "3733400001"}, "type": "Feature"}
{"geometry": {"coordinates": [-86.567923, 35.152064], "type": "Point"}, "id": "kCtQz23xzrNEFRDMeHbd0Bvyntw=", "properties": {"@spider": "usps_collection_boxes", "addr:city": "FAYETTEVILLE", "addr:country": "US", "addr:full": "104 FRANKLIN AVE N", "addr:postcode": "37334", "addr:state": "TN", "brand": "USPS", "collection_times": "Mo-Fr 16:45; Sa 12:00", "name": "USPS COLLECTION BOX - BLUE BOX", "note": "ON 12/24 AND 12/31, THIS BOX MAY BE COLLECTED AS EARLY AS 12 NOON.", "ref": "3733400002"}, "type": "Feature"}
{"geometry": {"coordinates": [-86.567923, 35.152064], "type": "Point"}, "id": "bUMhS0MPH-cJdaWiNt_wlXRIrFM=", "properties": {"@spider": "usps_collection_boxes", "addr:city": "FAYETTEVILLE", "addr:country": "US", "addr:full": "104 FRANKLIN AVE N", "addr:postcode": "37334", "addr:state": "TN", "brand": "USPS", "collection_times": "Mo-Fr 16:45; Sa 12:00", "name": "USPS COLLECTION BOX - BLUE BOX", "note": "ON 12/24 AND 12/31, THIS BOX MAY BE COLLECTED AS EARLY AS 12 NOON.", "ref": "3733400003"}, "type": "Feature"}
{"geometry": {"coordinates": [-86.5706261, 35.15236], "type": "Point"}, "id": "H31qe5gEe-K85aCPtwwRnTCUUHk=", "properties": {"@spider": "usps_collection_boxes", "addr:city": "FAYETTEVILLE", "addr:country": "US", "addr:full": "100 MAIN AVE N", "addr:postcode": "37334", "addr:state": "TN", "brand": "USPS", "collection_times": "Mo-Fr 15:00; Sa 12:00", "name": "USPS COLLECTION BOX - BLUE BOX", "note": "ON 12/24 AND 12/31, THIS BOX MAY BE COLLECTED AS EARLY AS 12 NOON.", "ref": "3733400004"}, "type": "Feature"}
{"geometry": {"coordinates": [-86.5694609, 35.151073], "type": "Point"}, "id": "vw3SSTTm-lo9zhIdmMtqawY0a_U=", "properties": {"@spider": "usps_collection_boxes", "addr:city": "FAYETTEVILLE", "addr:country": "US", "addr:full": "131 MARKET ST E", "addr:postcode": "37334", "addr:state": "TN", "brand": "USPS", "collection_times": "Mo-Fr 14:00; Sa 12:00", "name": "USPS COLLECTION BOX - BLUE BOX", "note": "ON 12/24 AND 12/31, THIS BOX MAY BE COLLECTED AS EARLY AS 12 NOON.", "ref": "3733400009"}, "type": "Feature"}
{"geometry": {"coordinates": [-86.5733195, 35.152494], "type": "Point"}, "id": "bfBoh_NTi3D2OcDi6u3ZTdn4JAw=", "properties": {"@spider": "usps_collection_boxes", "addr:city": "FAYETTEVILLE", "addr:country": "US", "addr:full": "304 COLLEGE ST W", "addr:postcode": "37334", "addr:state": "TN", "brand": "USPS", "collection_times": "Mo-Fr 14:00; Sa 12:00", "name": "USPS COLLECTION BOX - BLUE BOX", "note": "ON 12/24 AND 12/31, THIS BOX MAY BE COLLECTED AS EARLY AS 12 NOON.", "ref": "3733400011"}, "type": "Feature"}
{"geometry": {"coordinates": [-86.568823, 35.152069], "type": "Point"}, "id": "8OFA9K9kKNbyBqEn08_NBHw-qho=", "properties": {"@spider": "usps_collection_boxes", "addr:city": "FAYETTEVILLE", "addr:country": "US", "addr:full": "226 COLLEGE ST E", "addr:postcode": "37334", "addr:state": "TN", "brand": "USPS", "collection_times": "Mo-Fr 16:45; Sa 12:00", "name": "USPS COLLECTION BOX - PO LOBBY", "note": "ON 12/24 AND 12/31, THIS BOX MAY BE COLLECTED AS EARLY AS 12 NOON.", "ref": "3733400015"}, "type": "Feature"}
{"geometry": {"coordinates": [-86.420691, 35.062075], "type": "Point"}, "id": "AuOdmfLgscDsZpls1uDl878dc40=", "properties": {"@spider": "usps_collection_boxes", "addr:city": "FLINTVILLE", "addr:country": "US", "addr:full": "241 FLINTVILLE RD", "addr:postcode": "37335", "addr:state": "TN", "brand": "USPS", "collection_times": "Mo-Fr 15:00; Sa 10:30", "name": "USPS COLLECTION BOX - PO LOBBY", "note": "ON 12/24 AND 12/31, THIS BOX MAY BE COLLECTED AS EARLY AS 12 NOON.", "ref": "3733500001"}, "type": "Feature"}
{"geometry": {"coordinates": [-86.420694, 35.062034], "type": "Point"}, "id": "-w2A7adM6hhCx1YeVIQdSNcMIFU=", "properties": {"@spider": "usps_collection_boxes", "addr:city": "FLINTVILLE", "addr:country": "US", "addr:full": "241 FLINTVILLE RD", "addr:postcode": "37335", "addr:state": "TN", "brand": "USPS", "collection_times": "Mo-Fr 15:00; Sa 10:30", "name": "USPS COLLECTION BOX - BLUE BOX", "note": "ON 12/24 AND 12/31, THIS BOX MAY BE COLLECTED AS EARLY AS 12 NOON.", "ref": "3733500002"}, "type": "Feature"}
{"geometry": {"coordinates": [-86.420694, 35.062034], "type": "Point"}, "id": "hd8PY8n_xA5ctItj4LlQu8gu7jY=", "properties": {"@spider": "usps_collection_boxes", "addr:city": "FLINTVILLE", "addr:country": "US", "addr:full": "241 FLINTVILLE RD", "addr:postcode": "37335", "addr:state": "TN", "brand": "USPS", "collection_times": "Mo-Fr 15:00; Sa 10:30", "name": "USPS COLLECTION BOX - PO LOBBY", "note": "ON 12/24 AND 12/31, THIS BOX MAY BE COLLECTED AS EARLY AS 12 NOON.", "ref": "3733500003"}, "type": "Feature"}
{"geometry": {"coordinates": [-86.466671, 35.124577], "type": "Point"}, "id": "lf9LLYh7Zo690Q7Sm4w_Vy0yO2o=", "properties": {"@spider": "usps_collection_boxes", "addr:city": "KELSO", "addr:country": "US", "addr:full": "36 TEAL HOLLOW RD", "addr:postcode": "37348", "addr:state": "TN", "brand": "USPS", "collection_times": "Mo-Fr 11:30; Sa 09:30", "name": "USPS COLLECTION BOX - BLUE BOX", "ref": "3734800000"}, "type": "Feature"}
{"geometry": {"coordinates": [-86.466709, 35.124576], "type": "Point"}, "id": "1CrZqIqS372zGqwr4EdiZmYxQpw=", "properties": {"@spider": "usps_collection_boxes", "addr:city": "KELSO", "addr:country": "US", "addr:full": "36 TEAL HOLLOW RD", "addr:postcode": "37348", "addr:state": "TN", "brand": "USPS", "collection_times": "Mo-Fr 11:30; Sa 09:30", "name": "USPS COLLECTION BOX - PO LOBBY", "ref": "3734800001"}, "type": "Feature"}
{"geometry": {"coordinates": [-86.374158, 35.283116], "type": "Point"}, "id": "WFQUz6Ycla1gt4Nw2nM47hHV90U=", "properties": {"@spider": "usps_collection_boxes", "addr:city": "LYNCHBURG", "addr:country": "US", "addr:full": "13 HILES ST", "addr:postcode": "37352", "addr:state": "TN", "brand": "USPS", "collection_times": "Mo-Sa 11:00", "name": "USPS COLLECTION BOX - BLUE BOX", "ref": "3735200001"}, "type": "Feature"}
{"geometry": {"coordinates": [-86.374202, 35.283133], "type": "Point"}, "id": "x9oF20JI_XmLK6BDJ1VE0NyK7-4=", "properties": {"@spider": "usps_collection_boxes", "addr:city": "LYNCHBURG", "addr:country": "US", "addr:full": "13 HILES ST", "addr:postcode": "37352", "addr:state": "TN", "brand": "USPS", "collection_times": "Mo-Sa 11:00", "name": "USPS COLLECTION BOX - PO LOBBY", "ref": "3735200002"}, "type": "Feature"}
{"geometry": {"coordinates": [-86.374202, 35.283133], "type": "Point"}, "id": "FgwZE1R0rSCZygXxvmEGdfHBjSU=", "properties": {"@spider": "usps_collection_boxes", "addr:city": "LYNCHBURG", "addr:country": "US", "addr:full": "13 HILES ST", "addr:postcode": "37352", "addr:state": "TN", "brand": "USPS", "collection_times": "Mo-Sa 11:00", "name": "USPS COLLECTION BOX - PO LOBBY", "ref": "3735200003"}, "type": "Feature"}
{"geometry": {"coordinates": [-86.460041, 35.21105], "type": "Point"}, "id": "hRg1_WmFc-Jk_Z8zszhdOt2Bwig=", "properties": {"@spider": "usps_collection_boxes", "addr:city": "MULBERRY", "addr:country": "US", "addr:full": "27 OLD LYNCHBURG HWY NE", "addr:postcode": "37359", "addr:state": "TN", "brand": "USPS", "collection_times": "Mo-Fr 16:00; Sa 10:00", "name": "USPS COLLECTION BOX - BLUE BOX", "note": "ON 12/24 AND 12/31, THIS BOX MAY BE COLLECTED AS EARLY AS 12 NOON.", "ref": "3735900001"}, "type": "Feature"}
{"geometry": {"coordinates": [-86.460068, 35.210971], "type": "Point"}, "id": "EcVw2bWUqohlsAbqjXlQUp04Lik=", "properties": {"@spider": "usps_collection_boxes", "addr:city": "MULBERRY", "addr:country": "US", "addr:full": "27 OLD LYNCHBURG HWY NE", "addr:postcode": "37359", "addr:state": "TN", "brand": "USPS", "collection_times": "Mo-Fr 16:00; Sa 10:00", "name": "USPS COLLECTION BOX - PO LOBBY", "note": "ON 12/24 AND 12/31, THIS BOX MAY BE COLLECTED AS EARLY AS 12 NOON.", "ref": "3735900002"}, "type": "Feature"}
{"geometry": {"coordinates": [-86.259563, 35.451751], "type": "Point"}, "id": "CvJaEgTNGTktBIi31LJovMP5lHU=", "properties": {"@spider": "usps_collection_boxes", "addr:city": "NORMANDY", "addr:country": "US", "addr:full": "1 CASCADE HOLLOW RD", "addr:postcode": "37360", "addr:state": "TN", "brand": "USPS", "collection_times": "Mo-Sa 13:00", "name": "USPS COLLECTION BOX - BLUE BOX", "note": "ON 12/24 AND 12/31, THIS BOX MAY BE COLLECTED AS EARLY AS 12 NOON.", "ref": "3736000001"}, "type": "Feature"}
{"geometry": {"coordinates": [-86.259589, 35.451843], "type": "Point"}, "id": "PAIDsDn9A74QySQv0m8pkYKCwTE=", "properties": {"@spider": "usps_collection_boxes", "addr:city": "NORMANDY", "addr:country": "US", "addr:full": "1 CASCADE HOLLOW RD", "addr:postcode": "37360", "addr:state": "TN", "brand": "USPS", "collection_times": "Mo-Sa 13:00", "name": "USPS COLLECTION BOX - PO LOBBY", "note": "ON 12/24 AND 12/31, THIS BOX MAY BE COLLECTED AS EARLY AS 12 NOON.", "ref": "3736000002"}, "type": "Feature"}
{"geometry": {"coordinates": [-86.2252557, 35.3784], "type": "Point"}, "id": "YTlK2--cP_ShkUH2CwcYnohGLco=", "properties": {"@spider": "usps_collection_boxes", "addr:city": "TULLAHOMA", "addr:country": "US", "addr:full": "1600 N JACKSON ST", "addr:postcode": "37388", "addr:state": "TN", "brand": "USPS", "collection_times": "Mo-Fr 10:30; Sa 09:30", "name": "USPS COLLECTION BOX - BLUE BOX", "ref": "3738800017"}, "type": "Feature"}
{"geometry": {"coordinates": [-86.2393017, 35.389491], "type": "Point"}, "id": "dgxjRLUdLQ06YXSsC7VOSnqAwnM=", "properties": {"@spider": "usps_collection_boxes", "addr:city": "TULLAHOMA", "addr:country": "US", "addr:full": "2111 N JACKSON ST", "addr:postcode": "37388", "addr:state": "TN", "brand": "USPS", "collection_times": "Mo-Sa 10:00", "name": "USPS COLLECTION BOX - BLUE BOX", "ref": "3738800020"}, "type": "Feature"}
{"geometry": {"coordinates": [-86.2195119, 35.356386], "type": "Point"}, "id": "XOlmlHZ5joMsSWQewIvSxBBz1Yo=", "properties": {"@spider": "usps_collection_boxes", "addr:city": "TULLAHOMA", "addr:country": "US", "addr:full": "100 WESTSIDE DR", "addr:postcode": "37388", "addr:state": "TN", "brand": "USPS", "collection_times": "Mo-Fr 14:15; Sa 12:00", "name": "USPS COLLECTION BOX - BLUE BOX", "note": "ON 12/24 AND 12/31, THIS BOX MAY BE COLLECTED AS EARLY AS 12 NOON.", "ref": "3738800026"}, "type": "Feature"}
{"geometry": {"coordinates": [-86.2306827, 35.38192], "type": "Point"}, "id": "Q9Qu1oqp3kFu0v3ELhPABHIhVRI=", "properties": {"@spider": "usps_collection_boxes", "addr:city": "TULLAHOMA", "addr:country": "US", "addr:full": "1801 N JACKSON ST", "addr:postcode": "37388", "addr:state": "TN", "brand": "USPS", "collection_times": "Mo-Sa 10:30", "name": "USPS COLLECTION BOX - BLUE BOX", "ref": "3738800035"}, "type": "Feature"}
{"geometry": {"coordinates": [-86.210516, 35.360253], "type": "Point"}, "id": "7_fZorOisPj3V87ZBwGj3gSZJPc=", "properties": {"@spider": "usps_collection_boxes", "addr:city": "TULLAHOMA", "addr:country": "US", "addr:full": "200 S JACKSON ST", "addr:postcode": "37388", "addr:state": "TN", "brand": "USPS", "collection_times": "Mo-Fr 15:00; Sa 12:00", "name": "USPS COLLECTION BOX - BLUE BOX", "note": "ON 12/24 AND 12/31, THIS BOX MAY BE COLLECTED AS EARLY AS 12 NOON.", "ref": "3738800039"}, "type": "Feature"}
{"geometry": {"coordinates": [-86.2108857, 35.359988], "type": "Point"}, "id": "SDiLKyoOXLVPDcbqjgU0pdkNc4A=", "properties": {"@spider": "usps_collection_boxes", "addr:city": "TULLAHOMA", "addr:country": "US", "addr:full": "200 S JACKSON ST", "addr:postcode": "37388", "addr:state": "TN", "brand": "USPS", "collection_times": "Mo-Fr 15:00; Sa 12:00", "name": "USPS COLLECTION BOX - BLUE BOX", "note": "ON 12/24 AND 12/31, THIS BOX MAY BE COLLECTED AS EARLY AS 12 NOON.", "ref": "3738800040"}, "type": "Feature"}
{"geometry": {"coordinates": [-86.2105149, 35.360245], "type": "Point"}, "id": "Dt0eZUH5C1Ox4ERJR1lVCHZVXWs=", "properties": {"@spider": "usps_collection_boxes", "addr:city": "TULLAHOMA", "addr:country": "US", "addr:full": "200 S JACKSON ST", "addr:postcode": "37388", "addr:state": "TN", "brand": "USPS", "collection_times": "Mo-Fr 15:00; Sa 12:00", "name": "USPS COLLECTION BOX - PO LOBBY", "note": "ON 12/24 AND 12/31, THIS BOX MAY BE COLLECTED AS EARLY AS 12 NOON.", "ref": "3738800042"}, "type": "Feature"}
{"geometry": {"coordinates": [-86.2106439, 35.360324], "type": "Point"}, "id": "7BAwDSWCrcpObzxxKtHJad9gfUg=", "properties": {"@spider": "usps_collection_boxes", "addr:city": "TULLAHOMA", "addr:country": "US", "addr:full": "200 S JACKSON ST", "addr:postcode": "37388", "addr:state": "TN", "brand": "USPS", "collection_times": "Mo-Fr 15:00; Sa 12:00", "name": "USPS COLLECTION BOX - BLUE BOX", "note": "ON 12/24 AND 12/31, THIS BOX MAY BE COLLECTED AS EARLY AS 12 NOON.", "ref": "3738800044"}, "type": "Feature"}
{"geometry": {"coordinates": [-86.2355315, 35.385613], "type": "Point"}, "id": "TQzDPSyBVSlPHbpE3z_EO4c1ZgU=", "properties": {"@spider": "usps_collection_boxes", "addr:city": "TULLAHOMA", "addr:country": "US", "addr:full": "1905 N JACKSON ST", "addr:postcode": "37388", "addr:state": "TN", "brand": "USPS", "collection_times": "Mo-Fr 10:30; Sa 10:00", "name": "USPS COLLECTION BOX - BLUE BOX", "ref": "3738800048"}, "type": "Feature"}
