{"geometry": {"coordinates": [-85.3153949, 35.11839], "type": "Point"}, "id": "tP6rzHRwjg7avqaWvmBthxajHds=", "properties": {"@spider": "usps_collection_boxes", "addr:city": "CHATTANOOGA", "addr:country": "US", "addr:full": "1200 MOUNTAIN CREEK RD", "addr:postcode": "37405", "addr:state": "TN", "brand": "USPS", "collection_times": "Mo-Fr 09:00", "name": "USPS COLLECTION BOX - BLUE BOX", "ref": "3740500019"}, "type": "Feature"}
{"geometry": {"coordinates": [-85.3086335515, 35.0636173496], "type": "Point"}, "id": "HSkWSh-iCvZoghvd0X1thxNLxWQ=", "properties": {"@spider": "usps_collection_boxes", "addr:city": "CHATTANOOGA", "addr:country": "US", "addr:full": "124 N MARKET ST", "addr:postcode": "37405", "addr:state": "TN", "brand": "USPS", "collection_times": "Mo-Fr 17:00; Sa 14:00", "name": "USPS COLLECTION BOX - BLUE BOX", "note": "ON 12/24 AND 12/31, THIS BOX MAY BE COLLECTED AS EARLY AS 12 NOON.", "ref": "3740500021"}, "type": "Feature"}
{"geometry": {"coordinates": [-85.3086335515, 35.0636173496], "type": "Point"}, "id": "ZIYUFZVOIzeeoLk15IQg6ogRcug=", "properties": {"@spider": "usps_collection_boxes", "addr:city": "CHATTANOOGA", "addr:country": "US", "addr:full": "124 N MARKET ST", "addr:postcode": "37405", "addr:state": "TN", "brand": "USPS", "collection_times": "Mo-Fr 17:00; Sa 14:00", "name": "USPS COLLECTION BOX - BLUE BOX", "note": "ON 12/24 AND 12/31, THIS BOX MAY BE COLLECTED AS EARLY AS 12 NOON.", "ref": "3740500022"}, "type": "Feature"}
{"geometry": {"coordinates": [-85.328342, 35.098996], "type": "Point"}, "id": "MqkKw9PQNUGT29sNlvIrMlDS0HE=", "properties": {"@spider": "usps_collection_boxes", "addr:city": "CHATTANOOGA", "addr:country": "US", "addr:full": "531 SIGNAL MOUNTAIN RD", "addr:postcode": "37405", "addr:state": "TN", "brand": "USPS", "collection_times": "Mo-Fr 13:00; Sa 12:00", "name": "USPS COLLECTION BOX - BLUE BOX", "note": "ON 12/24 AND 12/31, THIS BOX MAY BE COLLECTED AS EARLY AS 12 NOON.", "ref": "3740500024"}, "type": "Feature"}
{"geometry": {"coordinates": [-85.309692, 35.055422], "type": "Point"}, "id": "RtLTGbQlkmaVZ0VymOYUPeLcuqo=", "properties": {"@spider": "usps_collection_boxes", "addr:city": "CHATTANOOGA", "addr:country": "US", "addr:full": "124 MARKET ST", "addr:postcode": "37405", "addr:state": "TN", "brand": "USPS", "collection_times": "Mo-Fr 17:00; Sa 13:00", "name": "USPS COLLECTION BOX - PO LOBBY", "note": "ON 12/24 AND 12/31, THIS BOX MAY BE COLLECTED AS EARLY AS 12 NOON.", "ref": "3740500030"}, "type": "Feature"}
{"geometry": {"coordinates": [-85.308621575, 35.063402238], "type": "Point"}, "id": "oInN1uDzizIX1XRvoT3B6j3NbBg=", "properties": {"@spider": "usps_collection_boxes", "addr:city": "CHATTANOOGA", "addr:country": "US", "addr:full": "124 MARKET ST", "addr:postcode": "37405", "addr:state": "TN", "brand": "USPS", "collection_times": "Mo-Fr 17:00", "name": "USPS COLLECTION BOX - PO LOBBY", "note": "ON 12/24 AND 12/31, THIS BOX MAY BE COLLECTED AS EARLY AS 12 NOON.", "ref": "3740500034"}, "type": "Feature"}
{"geometry": {"coordinates": [-85.2723347, 35.10614], "type": "Point"}, "id": "yLWG9Cf1TV3Vw0uFs7aQh_OTNGw=", "properties": {"@spider": "usps_collection_boxes", "addr:city": "CHATTANOOGA", "addr:country": "US", "addr:full": "3600 HIXSON PIKE", "addr:postcode": "37415", "addr:state": "TN", "brand": "USPS", "collection_times": "Mo-Sa 13:00", "name": "USPS COLLECTION BOX - BLUE BOX", "note": "ON 12/24 AND 12/31, THIS BOX MAY BE COLLECTED AS EARLY AS 12 NOON.", "ref": "3741500010"}, "type": "Feature"}
{"geometry": {"coordinates": [-85.295161, 35.109837], "type": "Point"}, "id": "_Tp1YYI_07VvH9QS1HxY_QQN5NE=", "properties": {"@spider": "usps_collection_boxes", "addr:city": "CHATTANOOGA", "addr:country": "US", "addr:full": "3317 DAYTON BLVD", "addr:postcode": "37415", "addr:state": "TN", "brand": "USPS", "collection_times": "Mo-Fr 17:00; Sa 14:00", "name": "USPS COLLECTION BOX - BLUE BOX", "note": "ON 12/24 AND 12/31, THIS BOX MAY BE COLLECTED AS EARLY AS 12 NOON.", "ref": "3741500017"}, "type": "Feature"}
{"geometry": {"coordinates": [-85.29517, 35.109752], "type": "Point"}, "id": "XEtj3Xy5RxpMeRxuT-Df0No23Qw=", "properties": {"@spider": "usps_collection_boxes", "addr:city": "CHATTANOOGA", "addr:country": "US", "addr:full": "3317 DAYTON BLVD", "addr:postcode": "37415", "addr:state": "TN", "brand": "USPS", "collection_times": "Mo-Fr 17:00; Sa 14:00", "name": "USPS COLLECTION BOX - BLUE BOX", "note": "ON 12/24 AND 12/31, THIS BOX MAY BE COLLECTED AS EARLY AS 12 NOON.", "ref": "3741500025"}, "type": "Feature"}
{"geometry": {"coordinates": [-85.29517, 35.109752], "type": "Point"}, "id": "69RGKFH03qYuR15Lr3E78KAYtmo=", "properties": {"@spider": "usps_collection_boxes", "addr:city": "CHATTANOOGA", "addr:country": "US", "addr:full": "3317 DAYTON BLVD", "addr:postcode": "37415", "addr:state": "TN", "brand": "USPS", "collection_times": "Mo-Fr 17:00; Sa 14:00", "name": "USPS COLLECTION BOX - BLUE BOX", "note": "ON 12/24 AND 12/31, THIS BOX MAY BE COLLECTED AS EARLY AS 12 NOON.", "ref": "3741500026"}, "type": "Feature"}
{"geometry": {"coordinates": [-85.29517, 35.109752], "type": "Point"}, "id": "7pDvhTKKOMlGbIGCsCQDjlJffTE=", "properties": {"@spider": "usps_collection_boxes", "addr:city": "CHATTANOOGA", "addr:country": "US", "addr:full": "3317 DAYTON BLVD", "addr:postcode": "37415", "addr:state": "TN", "brand": "USPS", "collection_times": "Mo-Fr 17:00; Sa 14:00", "name": "USPS COLLECTION BOX - BLUE BOX", "note": "ON 12/24 AND 12/31, THIS BOX MAY BE COLLECTED AS EARLY AS 12 NOON.", "ref": "3741500027"}, "type": "Feature"}
{"geometry": {"coordinates": [-85.295381, 35.11025], "type": "Point"}, "id": "Niz_L9MWKJAEM8FcEcqzOP0ADTo=", "properties": {"@spider": "usps_collection_boxes", "addr:city": "CHATTANOOGA", "addr:country": "US", "addr:full": "3317 DAYTON BLVD", "addr:postcode": "37415", "addr:state": "TN", "brand": "USPS", "collection_times": "Mo-Fr 17:00", "name": "USPS COLLECTION BOX - PO LOBBY", "note": "ON 12/24 AND 12/31, THIS BOX MAY BE COLLECTED AS EARLY AS 12 NOON.", "ref": "3741500041"}, "type": "Feature"}
{"geometry": {"coordinates": [-85.295002025, 35.110150574], "type": "Point"}, "id": "ilvLgmNHxeMXFuHZvzBck_d7lbo=", "properties": {"@spider": "usps_collection_boxes", "addr:city": "CHATTANOOGA", "addr:country": "US", "addr:full": "3317 DAYTON BLVD", "addr:postcode": "37415", "addr:state": "TN", "brand": "USPS", "collection_times": "Mo-Fr 17:00", "name": "USPS COLLECTION BOX - PO LOBBY", "note": "ON 12/24 AND 12/31, THIS BOX MAY BE COLLECTED AS EARLY AS 12 NOON.", "ref": "3741500046"}, "type": "Feature"}
{"geometry": {"coordinates": [-85.3628357, 35.031347], "type": "Point"}, "id": "ZiARReXre1Q9-vill4CCqgY_SbM=", "properties": {"@spider": "usps_collection_boxes", "addr:city": "CHATTANOOGA", "addr:country": "US", "addr:full": "321 BROWNS FERRY RD", "addr:postcode": "37419", "addr:state": "TN", "brand": "USPS", "collection_times": "Mo-Fr 13:00", "name": "USPS COLLECTION BOX - BLUE BOX", "note": "ON 12/24 AND 12/31, THIS BOX MAY BE COLLECTED AS EARLY AS 12 NOON.", "ref": "3741900003"}, "type": "Feature"}
