{"dataset_attributes": {"@spider": "usps_collection_boxes"}, "geometry": {"coordinates": [-82.3213819611, 36.5329329793], "type": "Point"}, "id": "h5ZV8H1FWbYsrcechvZKkBkgb3Y=", "properties": {"@spider": "usps_collection_boxes", "addr:city": "BLOUNTVILLE", "addr:country": "US", "addr:full": "169 FRANKLIN DR", "addr:postcode": "37617", "addr:state": "TN", "amenity": "post_box", "brand": "United States Postal Service", "brand:wikidata": "Q668687", "collection_times": "Mo-Fr 12:00; Sa 11:00", "name": "USPS COLLECTION BOX - BLUE BOX", "nsi_id": "unitedstatespostalservice-a77078", "operator": "United States Postal Service", "operator:short": "USPS", "operator:type": "public", "operator:wikidata": "Q668687", "ref": "3761700001"}, "type": "Feature"}
{"dataset_attributes": {"@spider": "usps_collection_boxes"}, "geometry": {"coordinates": [-82.321298, 36.533263], "type": "Point"}, "id": "_7IwqOfH6Sx5fzjt2SLjbW0Ywyk=", "properties": {"@spider": "usps_collection_boxes", "addr:city": "BLOUNTVILLE", "addr:country": "US", "addr:full": "169 FRANKLIN DR", "addr:postcode": "37617", "addr:state": "TN", "amenity": "post_box", "brand": "United States Postal Service", "brand:wikidata": "Q668687", "collection_times": "Mo-Fr 12:00; Sa 11:00", "name": "USPS COLLECTION BOX - PO LOBBY", "nsi_id": "unitedstatespostalservice-a77078", "operator": "United States Postal Service", "operator:short": "USPS", "operator:type": "public", "operator:wikidata": "Q668687", "ref": "3761700004"}, "type": "Feature"}
{"dataset_attributes": {"@spider": "usps_collection_boxes"}, "geometry": {"coordinates": [-82.321355977, 36.532911019], "type": "Point"}, "id": "lXw4mm3iue5fafdXdq8QqYX_gkE=", "properties": {"@spider": "usps_collection_boxes", "addr:city": "BLOUNTVILLE", "addr:country": "US", "addr:full": "169 FRANKLIN DR", "addr:postcode": "37617", "addr:state": "TN", "amenity": "post_box", "brand": "United States Postal Service", "brand:wikidata": "Q668687", "collection_times": "Mo-Fr 12:00", "name": "USPS COLLECTION BOX - PO LOBBY", "nsi_id": "unitedstatespostalservice-a77078", "operator": "United States Postal Service", "operator:short": "USPS", "operator:type": "public", "operator:wikidata": "Q668687", "ref": "3761700009"}, "type": "Feature"}
{"dataset_attributes": {"@spider": "usps_collection_boxes"}, "geometry": {"coordinates": [-82.2056877, 36.595511], "type": "Point"}, "id": "GD6WdkDCX82GNfR3Uys51Z3s9YE=", "properties": {"@spider": "usps_collection_boxes", "addr:city": "BRISTOL", "addr:country": "US", "addr:full": "1936 W STATE ST", "addr:postcode": "37620", "addr:state": "VA", "amenity": "post_box", "brand": "United States Postal Service", "brand:wikidata": "Q668687", "collection_times": "Mo-Sa 12:00", "name": "USPS COLLECTION BOX - BLUE BOX", "nsi_id": "unitedstatespostalservice-a77078", "operator": "United States Postal Service", "operator:short": "USPS", "operator:type": "public", "operator:wikidata": "Q668687", "ref": "3762000009"}, "type": "Feature"}
{"dataset_attributes": {"@spider": "usps_collection_boxes"}, "geometry": {"coordinates": [-82.1865915773, 36.5922993501], "type": "Point"}, "id": "QIOy4T-s_JSKw7vur-NbQn5k4FY=", "properties": {"@spider": "usps_collection_boxes", "addr:city": "BRISTOL", "addr:country": "US", "addr:full": "801 ANDERSON ST", "addr:postcode": "37620", "addr:state": "VA", "amenity": "post_box", "brand": "United States Postal Service", "brand:wikidata": "Q668687", "collection_times": "Mo-Sa 12:00", "name": "USPS COLLECTION BOX - BLUE BOX", "nsi_id": "unitedstatespostalservice-a77078", "operator": "United States Postal Service", "operator:short": "USPS", "operator:type": "public", "operator:wikidata": "Q668687", "ref": "3762000025"}, "type": "Feature"}
{"dataset_attributes": {"@spider": "usps_collection_boxes"}, "geometry": {"coordinates": [-82.2035449, 36.56446], "type": "Point"}, "id": "eu1EeBWPuSW7gJzHXdO6TIqbFKA=", "properties": {"@spider": "usps_collection_boxes", "addr:city": "BRISTOL", "addr:country": "US", "addr:full": "1241 VOLUNTEER PKWY", "addr:postcode": "37620", "addr:state": "VA", "amenity": "post_box", "brand": "United States Postal Service", "brand:wikidata": "Q668687", "collection_times": "Mo-Fr 11:00", "name": "USPS COLLECTION BOX - BLUE BOX", "nsi_id": "unitedstatespostalservice-a77078", "operator": "United States Postal Service", "operator:short": "USPS", "operator:type": "public", "operator:wikidata": "Q668687", "ref": "3762000028"}, "type": "Feature"}
{"dataset_attributes": {"@spider": "usps_collection_boxes"}, "geometry": {"coordinates": [-82.159230021, 36.586780002], "type": "Point"}, "id": "vQXFSN8-z4G_gf4COwVBd18XudE=", "properties": {"@spider": "usps_collection_boxes", "addr:city": "BRISTOL", "addr:country": "US", "addr:full": "1350 KING COLLEGE RD", "addr:postcode": "37620", "addr:state": "VA", "amenity": "post_box", "brand": "United States Postal Service", "brand:wikidata": "Q668687", "collection_times": "Mo-Fr 12:00", "name": "USPS COLLECTION BOX - BLUE BOX", "nsi_id": "unitedstatespostalservice-a77078", "operator": "United States Postal Service", "operator:short": "USPS", "operator:type": "public", "operator:wikidata": "Q668687", "ref": "3762000043"}, "type": "Feature"}
{"dataset_attributes": {"@spider": "usps_collection_boxes"}, "geometry": {"coordinates": [-82.1767681, 36.556801], "type": "Point"}, "id": "_49O5dhpO1DUnlkdhjnGk1oIuFU=", "properties": {"@spider": "usps_collection_boxes", "addr:city": "BRISTOL", "addr:country": "US", "addr:full": "204 BRISTOL HEIGHTS RD", "addr:postcode": "37620", "addr:state": "VA", "amenity": "post_box", "brand": "United States Postal Service", "brand:wikidata": "Q668687", "collection_times": "Mo-Sa 11:00", "name": "USPS COLLECTION BOX - BLUE BOX", "nsi_id": "unitedstatespostalservice-a77078", "operator": "United States Postal Service", "operator:short": "USPS", "operator:type": "public", "operator:wikidata": "Q668687", "ref": "3762000050"}, "type": "Feature"}
{"dataset_attributes": {"@spider": "usps_collection_boxes"}, "geometry": {"coordinates": [-82.1664499, 36.579709], "type": "Point"}, "id": "DbAw7wnL0peaH1rQTmXodtg01xY=", "properties": {"@spider": "usps_collection_boxes", "addr:city": "BRISTOL", "addr:country": "US", "addr:full": "1317 VIRGINIA AVE", "addr:postcode": "37620", "addr:state": "VA", "amenity": "post_box", "brand": "United States Postal Service", "brand:wikidata": "Q668687", "collection_times": "Mo-Sa 10:00", "name": "USPS COLLECTION BOX - BLUE BOX", "nsi_id": "unitedstatespostalservice-a77078", "operator": "United States Postal Service", "operator:short": "USPS", "operator:type": "public", "operator:wikidata": "Q668687", "ref": "3762000052"}, "type": "Feature"}
{"dataset_attributes": {"@spider": "usps_collection_boxes"}, "geometry": {"coordinates": [-82.2349263, 36.537094], "type": "Point"}, "id": "NAg3MDmZclmKFlR5sQoDLIdEPMI=", "properties": {"@spider": "usps_collection_boxes", "addr:city": "BRISTOL", "addr:country": "US", "addr:full": "3357 AVOCA RD", "addr:postcode": "37620", "addr:state": "VA", "amenity": "post_box", "brand": "United States Postal Service", "brand:wikidata": "Q668687", "collection_times": "Mo-Sa 11:00", "name": "USPS COLLECTION BOX - BLUE BOX", "nsi_id": "unitedstatespostalservice-a77078", "operator": "United States Postal Service", "operator:short": "USPS", "operator:type": "public", "operator:wikidata": "Q668687", "ref": "3762000053"}, "type": "Feature"}
{"dataset_attributes": {"@spider": "usps_collection_boxes"}, "geometry": {"coordinates": [-82.2198776, 36.587736], "type": "Point"}, "id": "LfCs59_PIJcfGWQSdLn52UlcLJY=", "properties": {"@spider": "usps_collection_boxes", "addr:city": "BRISTOL", "addr:country": "US", "addr:full": "3004 SHELBY ST", "addr:postcode": "37620", "addr:state": "VA", "amenity": "post_box", "brand": "United States Postal Service", "brand:wikidata": "Q668687", "collection_times": "Mo-Sa 10:00", "name": "USPS COLLECTION BOX - BLUE BOX", "nsi_id": "unitedstatespostalservice-a77078", "operator": "United States Postal Service", "operator:short": "USPS", "operator:type": "public", "operator:wikidata": "Q668687", "ref": "3762000054"}, "type": "Feature"}
{"dataset_attributes": {"@spider": "usps_collection_boxes"}, "geometry": {"coordinates": [-82.1303896, 36.629011], "type": "Point"}, "id": "UdrGjOghffts6tOvrujAIeZM6DI=", "properties": {"@spider": "usps_collection_boxes", "addr:city": "BRISTOL", "addr:country": "US", "addr:full": "200 LINDEN SQUARE DR", "addr:postcode": "37620", "addr:state": "VA", "amenity": "post_box", "brand": "United States Postal Service", "brand:wikidata": "Q668687", "collection_times": "Mo-Sa 09:30", "name": "USPS COLLECTION BOX - BLUE BOX", "nsi_id": "unitedstatespostalservice-a77078", "operator": "United States Postal Service", "operator:short": "USPS", "operator:type": "public", "operator:wikidata": "Q668687", "ref": "3762000055"}, "type": "Feature"}
{"dataset_attributes": {"@spider": "usps_collection_boxes"}, "geometry": {"coordinates": [-82.2203805, 36.589686], "type": "Point"}, "id": "gYosNrFJwrUmlA_4YygwQqNrg7Q=", "properties": {"@spider": "usps_collection_boxes", "addr:city": "BRISTOL", "addr:country": "US", "addr:full": "104 STAFFORD", "addr:postcode": "37620", "addr:state": "VA", "amenity": "post_box", "brand": "United States Postal Service", "brand:wikidata": "Q668687", "collection_times": "Mo-Sa 11:00", "name": "USPS COLLECTION BOX - BLUE BOX", "nsi_id": "unitedstatespostalservice-a77078", "operator": "United States Postal Service", "operator:short": "USPS", "operator:type": "public", "operator:wikidata": "Q668687", "ref": "3762000057"}, "type": "Feature"}
{"dataset_attributes": {"@spider": "usps_collection_boxes"}, "geometry": {"coordinates": [-82.2111399, 36.557841], "type": "Point"}, "id": "XDKGmoPyNU52-Wpe5sYdtgqiifM=", "properties": {"@spider": "usps_collection_boxes", "addr:city": "BRISTOL", "addr:country": "US", "addr:full": "1393 VOLUNTEER PKWY", "addr:postcode": "37620", "addr:state": "VA", "amenity": "post_box", "brand": "United States Postal Service", "brand:wikidata": "Q668687", "collection_times": "Mo-Fr 10:45; Sa 09:15", "name": "USPS COLLECTION BOX - BLUE BOX", "nsi_id": "unitedstatespostalservice-a77078", "operator": "United States Postal Service", "operator:short": "USPS", "operator:type": "public", "operator:wikidata": "Q668687", "ref": "3762000069"}, "type": "Feature"}
{"dataset_attributes": {"@spider": "usps_collection_boxes"}, "geometry": {"coordinates": [-82.213576111, 36.558770006], "type": "Point"}, "id": "btLJcp0RSRQ15vnRYlNS9wR7oAk=", "properties": {"@spider": "usps_collection_boxes", "addr:city": "BRISTOL", "addr:country": "US", "addr:full": "1430 VOLUNTEER PKWY", "addr:postcode": "37620", "addr:state": "VA", "amenity": "post_box", "brand": "United States Postal Service", "brand:wikidata": "Q668687", "collection_times": "Mo-Fr 16:45; Sa 12:00", "name": "USPS COLLECTION BOX - BLUE BOX", "note": "ON 12/24 AND 12/31, THIS BOX MAY BE COLLECTED AS EARLY AS 12 NOON.", "nsi_id": "unitedstatespostalservice-a77078", "operator": "United States Postal Service", "operator:short": "USPS", "operator:type": "public", "operator:wikidata": "Q668687", "ref": "3762000070"}, "type": "Feature"}
{"dataset_attributes": {"@spider": "usps_collection_boxes"}, "geometry": {"coordinates": [-82.194741965, 36.570811009], "type": "Point"}, "id": "NtpvIv0F-ufnKgCpUbOecGgcMjE=", "properties": {"@spider": "usps_collection_boxes", "addr:city": "BRISTOL", "addr:country": "US", "addr:full": "1143 VOLUNTEER PKWY", "addr:postcode": "37620", "addr:state": "VA", "amenity": "post_box", "brand": "United States Postal Service", "brand:wikidata": "Q668687", "collection_times": "Mo-Sa 12:00", "name": "USPS COLLECTION BOX - BLUE BOX", "nsi_id": "unitedstatespostalservice-a77078", "operator": "United States Postal Service", "operator:short": "USPS", "operator:type": "public", "operator:wikidata": "Q668687", "ref": "3762000074"}, "type": "Feature"}
{"dataset_attributes": {"@spider": "usps_collection_boxes"}, "geometry": {"coordinates": [-82.21396, 36.55899], "type": "Point"}, "id": "gj6aMNO8NukyvyC2SwPcev2rblM=", "properties": {"@spider": "usps_collection_boxes", "addr:city": "BRISTOL", "addr:country": "US", "addr:full": "1430 VOLUNTEER PKWY", "addr:postcode": "37620", "addr:state": "VA", "amenity": "post_box", "brand": "United States Postal Service", "brand:wikidata": "Q668687", "collection_times": "Mo-Fr 16:45", "name": "USPS COLLECTION BOX - PO LOBBY", "note": "ON 12/24 AND 12/31, THIS BOX MAY BE COLLECTED AS EARLY AS 12 NOON.", "nsi_id": "unitedstatespostalservice-a77078", "operator": "United States Postal Service", "operator:short": "USPS", "operator:type": "public", "operator:wikidata": "Q668687", "ref": "3762000076"}, "type": "Feature"}
{"dataset_attributes": {"@spider": "usps_collection_boxes"}, "geometry": {"coordinates": [-82.1830074, 36.59335], "type": "Point"}, "id": "YZf7sLeyPVYX426xpAYzzMbp6So=", "properties": {"@spider": "usps_collection_boxes", "addr:city": "BRISTOL", "addr:country": "US", "addr:full": "111 6TH ST", "addr:postcode": "37620", "addr:state": "VA", "amenity": "post_box", "brand": "United States Postal Service", "brand:wikidata": "Q668687", "collection_times": "Mo-Sa 17:00", "name": "USPS COLLECTION BOX - PO LOBBY", "note": "ON 12/24 AND 12/31, THIS BOX MAY BE COLLECTED AS EARLY AS 12 NOON.", "nsi_id": "unitedstatespostalservice-a77078", "operator": "United States Postal Service", "operator:short": "USPS", "operator:type": "public", "operator:wikidata": "Q668687", "ref": "3762000080"}, "type": "Feature"}
{"dataset_attributes": {"@spider": "usps_collection_boxes"}, "geometry": {"coordinates": [-82.1801102198, 36.5901961407], "type": "Point"}, "id": "JjP1hmKg6iYtOyfIRki0GC3djX8=", "properties": {"@spider": "usps_collection_boxes", "addr:city": "BRISTOL", "addr:country": "US", "addr:full": "501 5 TH ST", "addr:postcode": "37620", "addr:state": "VA", "amenity": "post_box", "brand": "United States Postal Service", "brand:wikidata": "Q668687", "collection_times": "Mo-Fr 12:00", "name": "USPS COLLECTION BOX - BLUE BOX", "nsi_id": "unitedstatespostalservice-a77078", "operator": "United States Postal Service", "operator:short": "USPS", "operator:type": "public", "operator:wikidata": "Q668687", "ref": "3762000086"}, "type": "Feature"}
{"dataset_attributes": {"@spider": "usps_collection_boxes"}, "geometry": {"coordinates": [-82.1841149, 36.597128], "type": "Point"}, "id": "i7k5kTevLdlBfHeG6hKs-AsWCAI=", "properties": {"@spider": "usps_collection_boxes", "addr:city": "BRISTOL", "addr:country": "US", "addr:full": "110 PIEDMONT AVE", "addr:postcode": "37620", "addr:state": "VA", "amenity": "post_box", "brand": "United States Postal Service", "brand:wikidata": "Q668687", "collection_times": "Mo-Fr 12:00", "name": "USPS COLLECTION BOX - BLUE BOX", "nsi_id": "unitedstatespostalservice-a77078", "operator": "United States Postal Service", "operator:short": "USPS", "operator:type": "public", "operator:wikidata": "Q668687", "ref": "3762000089"}, "type": "Feature"}
{"dataset_attributes": {"@spider": "usps_collection_boxes"}, "geometry": {"coordinates": [-82.1833243523, 36.5936176415], "type": "Point"}, "id": "ILaxoqzO_7P9xhzH8b0k1VFcj84=", "properties": {"@spider": "usps_collection_boxes", "addr:city": "BRISTOL", "addr:country": "US", "addr:full": "111 6TH ST", "addr:postcode": "37620", "addr:state": "VA", "amenity": "post_box", "brand": "United States Postal Service", "brand:wikidata": "Q668687", "collection_times": "Mo-Sa 17:00", "name": "USPS COLLECTION BOX - BLUE BOX", "note": "ON 12/24 AND 12/31, THIS BOX MAY BE COLLECTED AS EARLY AS 12 NOON.", "nsi_id": "unitedstatespostalservice-a77078", "operator": "United States Postal Service", "operator:short": "USPS", "operator:type": "public", "operator:wikidata": "Q668687", "ref": "3762000090"}, "type": "Feature"}
{"dataset_attributes": {"@spider": "usps_collection_boxes"}, "geometry": {"coordinates": [-82.2211899, 36.590451], "type": "Point"}, "id": "QK0rq8ts1Pv988jty5HaUa0eMq8=", "properties": {"@spider": "usps_collection_boxes", "addr:city": "BRISTOL", "addr:country": "US", "addr:full": "350 BLOUNTVILLE HWY", "addr:postcode": "37620", "addr:state": "VA", "amenity": "post_box", "brand": "United States Postal Service", "brand:wikidata": "Q668687", "collection_times": "Mo-Fr 10:30", "name": "USPS COLLECTION BOX - BLUE BOX", "nsi_id": "unitedstatespostalservice-a77078", "operator": "United States Postal Service", "operator:short": "USPS", "operator:type": "public", "operator:wikidata": "Q668687", "ref": "3762000091"}, "type": "Feature"}
{"dataset_attributes": {"@spider": "usps_collection_boxes"}, "geometry": {"coordinates": [-82.2135761111, 36.5587700064], "type": "Point"}, "id": "xf5t5EfPqPZ_Ohvbbb4g8oboipY=", "properties": {"@spider": "usps_collection_boxes", "addr:city": "BRISTOL", "addr:country": "US", "addr:full": "1430 VOLUNTEER PKWY STE 32", "addr:postcode": "37620", "addr:state": "VA", "amenity": "post_box", "brand": "United States Postal Service", "brand:wikidata": "Q668687", "collection_times": "Mo-Fr 12:00", "name": "USPS COLLECTION BOX - PO LOBBY", "nsi_id": "unitedstatespostalservice-a77078", "operator": "United States Postal Service", "operator:short": "USPS", "operator:type": "public", "operator:wikidata": "Q668687", "ref": "3762000098"}, "type": "Feature"}
{"dataset_attributes": {"@spider": "usps_collection_boxes"}, "geometry": {"coordinates": [-82.4954028, 36.582451], "type": "Point"}, "id": "zmhhctBIt6aO4XrCIVPg5jPXEZw=", "properties": {"@spider": "usps_collection_boxes", "addr:city": "KINGSPORT", "addr:country": "US", "addr:full": "2900 BLOOMINGDALE RD", "addr:postcode": "37660", "addr:state": "TN", "amenity": "post_box", "brand": "United States Postal Service", "brand:wikidata": "Q668687", "collection_times": "Mo-Fr 13:15; Sa 12:00", "name": "USPS COLLECTION BOX - BLUE BOX", "note": "ON 12/24 AND 12/31, THIS BOX MAY BE COLLECTED AS EARLY AS 12 NOON.", "nsi_id": "unitedstatespostalservice-a77078", "operator": "United States Postal Service", "operator:short": "USPS", "operator:type": "public", "operator:wikidata": "Q668687", "ref": "3766000079"}, "type": "Feature"}
{"dataset_attributes": {"@spider": "usps_collection_boxes"}, "geometry": {"coordinates": [-82.4884819, 36.584966], "type": "Point"}, "id": "agReuKWBZcFCD_uBzLNqoMNr-98=", "properties": {"@spider": "usps_collection_boxes", "addr:city": "KINGSPORT", "addr:country": "US", "addr:full": "3212 BLOOMINGDALE RD", "addr:postcode": "37660", "addr:state": "TN", "amenity": "post_box", "brand": "United States Postal Service", "brand:wikidata": "Q668687", "collection_times": "Mo-Sa 10:00", "name": "USPS COLLECTION BOX - BLUE BOX", "nsi_id": "unitedstatespostalservice-a77078", "operator": "United States Postal Service", "operator:short": "USPS", "operator:type": "public", "operator:wikidata": "Q668687", "ref": "3766000131"}, "type": "Feature"}
{"dataset_attributes": {"@spider": "usps_collection_boxes"}, "geometry": {"coordinates": [-81.80592, 36.476179], "type": "Point"}, "id": "8ktui4D5kvyhGV1m0jpLW_FOH18=", "properties": {"@spider": "usps_collection_boxes", "addr:city": "MOUNTAIN CITY", "addr:country": "US", "addr:full": "216 COLLEGE ST", "addr:postcode": "37683", "addr:state": "TN", "amenity": "post_box", "brand": "United States Postal Service", "brand:wikidata": "Q668687", "collection_times": "Mo-Fr 15:00; Sa 12:00", "name": "USPS COLLECTION BOX - BLUE BOX", "note": "ON 12/24 AND 12/31, THIS BOX MAY BE COLLECTED AS EARLY AS 12 NOON.", "nsi_id": "unitedstatespostalservice-a77078", "operator": "United States Postal Service", "operator:short": "USPS", "operator:type": "public", "operator:wikidata": "Q668687", "ref": "3768300001"}, "type": "Feature"}
{"dataset_attributes": {"@spider": "usps_collection_boxes"}, "geometry": {"coordinates": [-81.805827, 36.476122], "type": "Point"}, "id": "XmyOAa_3fpCzHBzCn3Z-Kbw2OSg=", "properties": {"@spider": "usps_collection_boxes", "addr:city": "MOUNTAIN CITY", "addr:country": "US", "addr:full": "216 COLLEGE ST", "addr:postcode": "37683", "addr:state": "TN", "amenity": "post_box", "brand": "United States Postal Service", "brand:wikidata": "Q668687", "collection_times": "Mo-Fr 15:00; Sa 12:00", "name": "USPS COLLECTION BOX - BLUE BOX", "note": "ON 12/24 AND 12/31, THIS BOX MAY BE COLLECTED AS EARLY AS 12 NOON.", "nsi_id": "unitedstatespostalservice-a77078", "operator": "United States Postal Service", "operator:short": "USPS", "operator:type": "public", "operator:wikidata": "Q668687", "ref": "3768300002"}, "type": "Feature"}
{"dataset_attributes": {"@spider": "usps_collection_boxes"}, "geometry": {"coordinates": [-81.8038641, 36.474502], "type": "Point"}, "id": "IryUew-a3lVRLA9T_e6oPaVXCKA=", "properties": {"@spider": "usps_collection_boxes", "addr:city": "MOUNTAIN CITY", "addr:country": "US", "addr:full": "100 N CHURCH ST", "addr:postcode": "37683", "addr:state": "TN", "amenity": "post_box", "brand": "United States Postal Service", "brand:wikidata": "Q668687", "collection_times": "Mo-Sa 09:30", "name": "USPS COLLECTION BOX - BLUE BOX", "nsi_id": "unitedstatespostalservice-a77078", "operator": "United States Postal Service", "operator:short": "USPS", "operator:type": "public", "operator:wikidata": "Q668687", "ref": "3768300003"}, "type": "Feature"}
{"dataset_attributes": {"@spider": "usps_collection_boxes"}, "geometry": {"coordinates": [-81.805827, 36.476122], "type": "Point"}, "id": "7diqcUP4lt-GT1jJxsFZT5UhBCI=", "properties": {"@spider": "usps_collection_boxes", "addr:city": "MOUNTAIN CITY", "addr:country": "US", "addr:full": "216 COLLEGE ST", "addr:postcode": "37683", "addr:state": "TN", "amenity": "post_box", "brand": "United States Postal Service", "brand:wikidata": "Q668687", "collection_times": "Mo-Fr 15:00; Sa 12:00", "name": "USPS COLLECTION BOX - PO LOBBY", "note": "ON 12/24 AND 12/31, THIS BOX MAY BE COLLECTED AS EARLY AS 12 NOON.", "nsi_id": "unitedstatespostalservice-a77078", "operator": "United States Postal Service", "operator:short": "USPS", "operator:type": "public", "operator:wikidata": "Q668687", "ref": "3768300008"}, "type": "Feature"}
{"dataset_attributes": {"@spider": "usps_collection_boxes"}, "geometry": {"coordinates": [-81.805827, 36.476122], "type": "Point"}, "id": "O0mTIeqHKUHscECA40bb33Joa2U=", "properties": {"@spider": "usps_collection_boxes", "addr:city": "MOUNTAIN CITY", "addr:country": "US", "addr:full": "216 COLLEGE ST", "addr:postcode": "37683", "addr:state": "TN", "amenity": "post_box", "brand": "United States Postal Service", "brand:wikidata": "Q668687", "collection_times": "Mo-Fr 15:00; Sa 12:00", "name": "USPS COLLECTION BOX - PO LOBBY", "note": "ON 12/24 AND 12/31, THIS BOX MAY BE COLLECTED AS EARLY AS 12 NOON.", "nsi_id": "unitedstatespostalservice-a77078", "operator": "United States Postal Service", "operator:short": "USPS", "operator:type": "public", "operator:wikidata": "Q668687", "ref": "3768300009"}, "type": "Feature"}
{"dataset_attributes": {"@spider": "usps_collection_boxes"}, "geometry": {"coordinates": [-81.805827, 36.476122], "type": "Point"}, "id": "nPUQceHTxXmvzDx6i1hh6NS32hE=", "properties": {"@spider": "usps_collection_boxes", "addr:city": "MOUNTAIN CITY", "addr:country": "US", "addr:full": "216 COLLEGE ST", "addr:postcode": "37683", "addr:state": "TN", "amenity": "post_box", "brand": "United States Postal Service", "brand:wikidata": "Q668687", "collection_times": "Mo-Fr 15:00; Sa 12:00", "name": "USPS COLLECTION BOX - PO LOBBY", "note": "ON 12/24 AND 12/31, THIS BOX MAY BE COLLECTED AS EARLY AS 12 NOON.", "nsi_id": "unitedstatespostalservice-a77078", "operator": "United States Postal Service", "operator:short": "USPS", "operator:type": "public", "operator:wikidata": "Q668687", "ref": "3768300011"}, "type": "Feature"}
{"dataset_attributes": {"@spider": "usps_collection_boxes"}, "geometry": {"coordinates": [-81.805803972, 36.476294993], "type": "Point"}, "id": "WytJhCb7wkctHxNcDRvCnL_WYms=", "properties": {"@spider": "usps_collection_boxes", "addr:city": "MOUNTAIN CITY", "addr:country": "US", "addr:full": "216 COLLEGE ST", "addr:postcode": "37683", "addr:state": "TN", "amenity": "post_box", "brand": "United States Postal Service", "brand:wikidata": "Q668687", "collection_times": "Mo-Fr 15:00; Sa 12:00", "name": "USPS COLLECTION BOX - PO LOBBY", "note": "ON 12/24 AND 12/31, THIS BOX MAY BE COLLECTED AS EARLY AS 12 NOON.", "nsi_id": "unitedstatespostalservice-a77078", "operator": "United States Postal Service", "operator:short": "USPS", "operator:type": "public", "operator:wikidata": "Q668687", "ref": "3768300014"}, "type": "Feature"}
{"dataset_attributes": {"@spider": "usps_collection_boxes"}, "geometry": {"coordinates": [-81.928438, 36.51938], "type": "Point"}, "id": "B8Nv4Br462YoPI9BIp-ju9ESbvA=", "properties": {"@spider": "usps_collection_boxes", "addr:city": "SHADY VALLEY", "addr:country": "US", "addr:full": "136 HIGHWAY 133", "addr:postcode": "37688", "addr:state": "TN", "amenity": "post_box", "brand": "United States Postal Service", "brand:wikidata": "Q668687", "collection_times": "Mo-Fr 12:00; Sa 09:30", "name": "USPS COLLECTION BOX - BLUE BOX", "nsi_id": "unitedstatespostalservice-a77078", "operator": "United States Postal Service", "operator:short": "USPS", "operator:type": "public", "operator:wikidata": "Q668687", "ref": "3768800001"}, "type": "Feature"}
{"dataset_attributes": {"@spider": "usps_collection_boxes"}, "geometry": {"coordinates": [-81.928502, 36.519343], "type": "Point"}, "id": "9FJampX2ULZoa6bjS6bpr7X_280=", "properties": {"@spider": "usps_collection_boxes", "addr:city": "SHADY VALLEY", "addr:country": "US", "addr:full": "136 HIGHWAY 133", "addr:postcode": "37688", "addr:state": "TN", "amenity": "post_box", "brand": "United States Postal Service", "brand:wikidata": "Q668687", "collection_times": "Mo-Fr 12:00; Sa 09:30", "name": "USPS COLLECTION BOX - PO LOBBY", "nsi_id": "unitedstatespostalservice-a77078", "operator": "United States Postal Service", "operator:short": "USPS", "operator:type": "public", "operator:wikidata": "Q668687", "ref": "3768800002"}, "type": "Feature"}
{"dataset_attributes": {"@spider": "usps_collection_boxes"}, "geometry": {"coordinates": [-81.9283380969, 36.5194707865], "type": "Point"}, "id": "BiIpZe6JivqC_qfJ40tkGSRa5vw=", "properties": {"@spider": "usps_collection_boxes", "addr:city": "SHADY VALLEY", "addr:country": "US", "addr:full": "136 HIGHWAY 133", "addr:postcode": "37688", "addr:state": "TN", "amenity": "post_box", "brand": "United States Postal Service", "brand:wikidata": "Q668687", "collection_times": "Mo-Fr 12:00", "name": "USPS COLLECTION BOX - PO LOBBY", "nsi_id": "unitedstatespostalservice-a77078", "operator": "United States Postal Service", "operator:short": "USPS", "operator:type": "public", "operator:wikidata": "Q668687", "ref": "3768800003"}, "type": "Feature"}
{"dataset_attributes": {"@spider": "usps_collection_boxes"}, "geometry": {"coordinates": [-81.7447409694, 36.349767985], "type": "Point"}, "id": "wk5_-9ktlhp495r73cZKYTLe3bc=", "properties": {"@spider": "usps_collection_boxes", "addr:city": "TRADE", "addr:country": "US", "addr:full": "164 HIGHWAY 67 N", "addr:postcode": "37691", "addr:state": "TN", "amenity": "post_box", "brand": "United States Postal Service", "brand:wikidata": "Q668687", "collection_times": "Mo-Fr 11:45; Sa 09:45", "name": "USPS COLLECTION BOX - BLUE BOX", "nsi_id": "unitedstatespostalservice-a77078", "operator": "United States Postal Service", "operator:short": "USPS", "operator:type": "public", "operator:wikidata": "Q668687", "ref": "3769100001"}, "type": "Feature"}
{"dataset_attributes": {"@spider": "usps_collection_boxes"}, "geometry": {"coordinates": [-81.74512, 36.349969], "type": "Point"}, "id": "8c_SzPx4oAvzHct7-v-bn1GxU40=", "properties": {"@spider": "usps_collection_boxes", "addr:city": "TRADE", "addr:country": "US", "addr:full": "164 HIGHWAY 67 N", "addr:postcode": "37691", "addr:state": "TN", "amenity": "post_box", "brand": "United States Postal Service", "brand:wikidata": "Q668687", "collection_times": "Mo-Fr 11:45; Sa 09:45", "name": "USPS COLLECTION BOX - PO LOBBY", "nsi_id": "unitedstatespostalservice-a77078", "operator": "United States Postal Service", "operator:short": "USPS", "operator:type": "public", "operator:wikidata": "Q668687", "ref": "3769100002"}, "type": "Feature"}
{"dataset_attributes": {"@spider": "usps_collection_boxes"}, "geometry": {"coordinates": [-81.744740969, 36.349767985], "type": "Point"}, "id": "whvcP6eEUoRfcWgVWyPEALJjF9k=", "properties": {"@spider": "usps_collection_boxes", "addr:city": "TRADE", "addr:country": "US", "addr:full": "164 HIGHWAY 67 N", "addr:postcode": "37691", "addr:state": "TN", "amenity": "post_box", "brand": "United States Postal Service", "brand:wikidata": "Q668687", "collection_times": "Mo-Fr 11:00", "name": "USPS COLLECTION BOX - PO LOBBY", "nsi_id": "unitedstatespostalservice-a77078", "operator": "United States Postal Service", "operator:short": "USPS", "operator:type": "public", "operator:wikidata": "Q668687", "ref": "3769100003"}, "type": "Feature"}
