{"geometry": {"coordinates": [-84.029324, 36.203317], "type": "Point"}, "id": "qadoQtJPBCpN1dpD4dZ3AqWjmTk=", "properties": {"@spider": "usps_collection_boxes", "addr:city": "ANDERSONVILLE", "addr:country": "US", "addr:full": "4134 ANDERSONVILLE HWY", "addr:postcode": "37705", "addr:state": "TN", "brand": "USPS", "collection_times": "Mo-Fr 15:45; Sa 09:45", "name": "USPS COLLECTION BOX - BLUE BOX", "note": "ON 12/24 AND 12/31, THIS BOX MAY BE COLLECTED AS EARLY AS 12 NOON.", "ref": "3770500001"}, "type": "Feature"}
{"geometry": {"coordinates": [-84.029306, 36.203361], "type": "Point"}, "id": "w_AZc8-6Sg9TThSUAVpE5ZDW2Cg=", "properties": {"@spider": "usps_collection_boxes", "addr:city": "ANDERSONVILLE", "addr:country": "US", "addr:full": "4134 ANDERSONVILLE HWY", "addr:postcode": "37705", "addr:state": "TN", "brand": "USPS", "collection_times": "Mo-Fr 16:00; Sa 09:45", "name": "USPS COLLECTION BOX - PO LOBBY", "note": "ON 12/24 AND 12/31, THIS BOX MAY BE COLLECTED AS EARLY AS 12 NOON.", "ref": "3770500002"}, "type": "Feature"}
{"geometry": {"coordinates": [-84.218112, 36.298482], "type": "Point"}, "id": "c7NARww2M3v_iaprk2LifPIAipM=", "properties": {"@spider": "usps_collection_boxes", "addr:city": "CARYVILLE", "addr:country": "US", "addr:full": "107 HILL LN", "addr:postcode": "37714", "addr:state": "TN", "brand": "USPS", "collection_times": "Mo-Fr 16:00; Sa 11:00", "name": "USPS COLLECTION BOX - BLUE BOX", "note": "ON 12/24 AND 12/31, THIS BOX MAY BE COLLECTED AS EARLY AS 12 NOON.", "ref": "3771400001"}, "type": "Feature"}
{"geometry": {"coordinates": [-84.218114, 36.29854], "type": "Point"}, "id": "j1-UOBdkw44GvUwAQWqy57WTNLw=", "properties": {"@spider": "usps_collection_boxes", "addr:city": "CARYVILLE", "addr:country": "US", "addr:full": "107 HILL LN", "addr:postcode": "37714", "addr:state": "TN", "brand": "USPS", "collection_times": "Mo-Fr 16:00; Sa 11:00", "name": "USPS COLLECTION BOX - PO LOBBY", "note": "ON 12/24 AND 12/31, THIS BOX MAY BE COLLECTED AS EARLY AS 12 NOON.", "ref": "3771400002"}, "type": "Feature"}
{"geometry": {"coordinates": [-83.942541, 36.558115], "type": "Point"}, "id": "_1XnACcfj4Tq4I6nEjSJzqEwBk4=", "properties": {"@spider": "usps_collection_boxes", "addr:city": "CLAIRFIELD", "addr:country": "US", "addr:full": "5671 HIGHWAY 90", "addr:postcode": "37715", "addr:state": "TN", "brand": "USPS", "collection_times": "Mo-Fr 12:00; Sa 10:00", "name": "USPS COLLECTION BOX - BLUE BOX", "ref": "3771500001"}, "type": "Feature"}
{"geometry": {"coordinates": [-83.942442, 36.558138], "type": "Point"}, "id": "1fxCrK690UI8yCvTALLiyRXAC_4=", "properties": {"@spider": "usps_collection_boxes", "addr:city": "CLAIRFIELD", "addr:country": "US", "addr:full": "5671 HIGHWAY 90", "addr:postcode": "37715", "addr:state": "TN", "brand": "USPS", "collection_times": "Mo-Fr 12:00; Sa 10:00", "name": "USPS COLLECTION BOX - PO LOBBY", "ref": "3771500002"}, "type": "Feature"}
{"geometry": {"coordinates": [-83.666862, 36.599155], "type": "Point"}, "id": "0DDxtI0sO3Ddf1DaJ0Z7Op1hsAQ=", "properties": {"@spider": "usps_collection_boxes", "addr:city": "CUMBERLAND GAP", "addr:country": "US", "addr:full": "530 COLWYN AVE", "addr:postcode": "37724", "addr:state": "TN", "brand": "USPS", "collection_times": "Mo-Fr 15:15; Sa 10:00", "name": "USPS COLLECTION BOX - BLUE BOX", "note": "ON 12/24 AND 12/31, THIS BOX MAY BE COLLECTED AS EARLY AS 12 NOON.", "ref": "3772400000"}, "type": "Feature"}
{"geometry": {"coordinates": [-83.666832, 36.599118], "type": "Point"}, "id": "3xoM-62XQogg5hW86GvL1rCuM_I=", "properties": {"@spider": "usps_collection_boxes", "addr:city": "CUMBERLAND GAP", "addr:country": "US", "addr:full": "530 COLWYN AVE", "addr:postcode": "37724", "addr:state": "TN", "brand": "USPS", "collection_times": "Mo-Fr 15:15; Sa 10:00", "name": "USPS COLLECTION BOX - PO LOBBY", "note": "ON 12/24 AND 12/31, THIS BOX MAY BE COLLECTED AS EARLY AS 12 NOON.", "ref": "3772400001"}, "type": "Feature"}
{"geometry": {"coordinates": [-83.975028, 36.554965], "type": "Point"}, "id": "P9vgieGUZyq0zlMc6WMRI75hN2A=", "properties": {"@spider": "usps_collection_boxes", "addr:city": "EAGAN", "addr:country": "US", "addr:full": "4183 HIGHWAY 90", "addr:postcode": "37730", "addr:state": "TN", "brand": "USPS", "collection_times": "Mo-Fr 15:45; Sa 13:30", "name": "USPS COLLECTION BOX - BLUE BOX", "note": "ON 12/24 AND 12/31, THIS BOX MAY BE COLLECTED AS EARLY AS 12 NOON.", "ref": "3773000001"}, "type": "Feature"}
{"geometry": {"coordinates": [-83.65378, 36.573578], "type": "Point"}, "id": "HB66_xlD6HPdVk3isbTox2XDviI=", "properties": {"@spider": "usps_collection_boxes", "addr:city": "HARROGATE", "addr:country": "US", "addr:full": "6690 CUMBERLAND GAP PKWY", "addr:postcode": "37752", "addr:state": "TN", "brand": "USPS", "collection_times": "Mo-Fr 16:30; Sa 12:00", "name": "USPS COLLECTION BOX - PO LOBBY", "note": "ON 12/24 AND 12/31, THIS BOX MAY BE COLLECTED AS EARLY AS 12 NOON.", "ref": "3775200001"}, "type": "Feature"}
{"geometry": {"coordinates": [-83.653807, 36.573536], "type": "Point"}, "id": "28OnQe0TD5Cw78Lyal7V3wC4ZYE=", "properties": {"@spider": "usps_collection_boxes", "addr:city": "HARROGATE", "addr:country": "US", "addr:full": "6690 CUMBERLAND GAP PKWY", "addr:postcode": "37752", "addr:state": "TN", "brand": "USPS", "collection_times": "Mo-Fr 16:30; Sa 12:00", "name": "USPS COLLECTION BOX - PO LOBBY", "note": "ON 12/24 AND 12/31, THIS BOX MAY BE COLLECTED AS EARLY AS 12 NOON.", "ref": "3775200002"}, "type": "Feature"}
{"geometry": {"coordinates": [-83.653807, 36.573536], "type": "Point"}, "id": "rzoy26e1C5mvKMZzo3NfNjTaw6Q=", "properties": {"@spider": "usps_collection_boxes", "addr:city": "HARROGATE", "addr:country": "US", "addr:full": "6690 CUMBERLAND GAP PKWY", "addr:postcode": "37752", "addr:state": "TN", "brand": "USPS", "collection_times": "Mo-Fr 16:00; Sa 12:00", "name": "USPS COLLECTION BOX - BLUE BOX", "note": "ON 12/24 AND 12/31, THIS BOX MAY BE COLLECTED AS EARLY AS 12 NOON.", "ref": "3775200003"}, "type": "Feature"}
{"geometry": {"coordinates": [-84.538592, 36.432918], "type": "Point"}, "id": "JG1nidZgBAqyZEEIx5YHprVZiDM=", "properties": {"@spider": "usps_collection_boxes", "addr:city": "HELENWOOD", "addr:country": "US", "addr:full": "13013 SCOTT HWY", "addr:postcode": "37755", "addr:state": "TN", "brand": "USPS", "collection_times": "Mo-Fr 16:15; Sa 10:00", "name": "USPS COLLECTION BOX - BLUE BOX", "note": "ON 12/24 AND 12/31, THIS BOX MAY BE COLLECTED AS EARLY AS 12 NOON.", "ref": "3775500000"}, "type": "Feature"}
{"geometry": {"coordinates": [-84.538543, 36.432869], "type": "Point"}, "id": "JeU8MiU8iPzhjlRVpm4N4IQbMlo=", "properties": {"@spider": "usps_collection_boxes", "addr:city": "HELENWOOD", "addr:country": "US", "addr:full": "13013 SCOTT HWY", "addr:postcode": "37755", "addr:state": "TN", "brand": "USPS", "collection_times": "Mo-Fr 16:30; Sa 10:00", "name": "USPS COLLECTION BOX - PO LOBBY", "note": "ON 12/24 AND 12/31, THIS BOX MAY BE COLLECTED AS EARLY AS 12 NOON.", "ref": "3775500002"}, "type": "Feature"}
{"geometry": {"coordinates": [-84.4907, 36.41001], "type": "Point"}, "id": "Jc3kAIKLxxrnXE47CddzuWLthJ8=", "properties": {"@spider": "usps_collection_boxes", "addr:city": "HUNTSVILLE", "addr:country": "US", "addr:full": "215 HUNTSVILLE DR", "addr:postcode": "37756", "addr:state": "TN", "brand": "USPS", "collection_times": "Mo-Fr 16:00; Sa 10:00", "name": "USPS COLLECTION BOX - BLUE BOX", "note": "ON 12/24 AND 12/31, THIS BOX MAY BE COLLECTED AS EARLY AS 12 NOON.", "ref": "3775600001"}, "type": "Feature"}
{"geometry": {"coordinates": [-84.490718, 36.409942], "type": "Point"}, "id": "SGzfW5wZCyGGyOS7zwNa5UxVuDA=", "properties": {"@spider": "usps_collection_boxes", "addr:city": "HUNTSVILLE", "addr:country": "US", "addr:full": "215 HUNTSVILLE DR", "addr:postcode": "37756", "addr:state": "TN", "brand": "USPS", "collection_times": "Mo-Fr 16:00; Sa 10:00", "name": "USPS COLLECTION BOX - PO LOBBY", "note": "ON 12/24 AND 12/31, THIS BOX MAY BE COLLECTED AS EARLY AS 12 NOON.", "ref": "3775600002"}, "type": "Feature"}
{"geometry": {"coordinates": [-84.490718, 36.409942], "type": "Point"}, "id": "0LjehnRe9f441L4qOz2JLGxc_P4=", "properties": {"@spider": "usps_collection_boxes", "addr:city": "HUNTSVILLE", "addr:country": "US", "addr:full": "215 HUNTSVILLE DR", "addr:postcode": "37756", "addr:state": "TN", "brand": "USPS", "collection_times": "Mo-Fr 16:00; Sa 10:00", "name": "USPS COLLECTION BOX - PO LOBBY", "note": "ON 12/24 AND 12/31, THIS BOX MAY BE COLLECTED AS EARLY AS 12 NOON.", "ref": "3775600003"}, "type": "Feature"}
{"geometry": {"coordinates": [-84.180446, 36.331093], "type": "Point"}, "id": "tWh6_R7EyT5TWBDdLDYvknMahpU=", "properties": {"@spider": "usps_collection_boxes", "addr:city": "JACKSBORO", "addr:country": "US", "addr:full": "424 MAIN ST", "addr:postcode": "37757", "addr:state": "TN", "brand": "USPS", "collection_times": "Mo-Fr 16:30; Sa 11:30", "name": "USPS COLLECTION BOX - PO LOBBY", "note": "ON 12/24 AND 12/31, THIS BOX MAY BE COLLECTED AS EARLY AS 12 NOON.", "ref": "3775700001"}, "type": "Feature"}
{"geometry": {"coordinates": [-84.180446, 36.331094], "type": "Point"}, "id": "Z_GvAFGdOX5inTrVhTeOhWKuFV0=", "properties": {"@spider": "usps_collection_boxes", "addr:city": "JACKSBORO", "addr:country": "US", "addr:full": "424 MAIN ST", "addr:postcode": "37757", "addr:state": "TN", "brand": "USPS", "collection_times": "Mo-Fr 16:30; Sa 11:30", "name": "USPS COLLECTION BOX - BLUE BOX", "note": "ON 12/24 AND 12/31, THIS BOX MAY BE COLLECTED AS EARLY AS 12 NOON.", "ref": "3775700003"}, "type": "Feature"}
{"geometry": {"coordinates": [-84.126519, 36.589898], "type": "Point"}, "id": "p3OuO4PYPnNbVorOJmC5Bnl565U=", "properties": {"@spider": "usps_collection_boxes", "addr:city": "JELLICO", "addr:country": "US", "addr:full": "368 N MAIN ST", "addr:postcode": "37762", "addr:state": "TN", "brand": "USPS", "collection_times": "Mo-Fr 16:15; Sa 12:00", "name": "USPS COLLECTION BOX - PO LOBBY", "note": "ON 12/24 AND 12/31, THIS BOX MAY BE COLLECTED AS EARLY AS 12 NOON.", "ref": "3776200003"}, "type": "Feature"}
{"geometry": {"coordinates": [-84.126548, 36.589936], "type": "Point"}, "id": "oJ8G4sCvfx4Px1H01--8-1JMrRE=", "properties": {"@spider": "usps_collection_boxes", "addr:city": "JELLICO", "addr:country": "US", "addr:full": "368 N MAIN ST", "addr:postcode": "37762", "addr:state": "TN", "brand": "USPS", "collection_times": "Mo-Fr 16:15; Sa 12:00", "name": "USPS COLLECTION BOX - BLUE BOX", "note": "ON 12/24 AND 12/31, THIS BOX MAY BE COLLECTED AS EARLY AS 12 NOON.", "ref": "3776200004"}, "type": "Feature"}
{"geometry": {"coordinates": [-84.126548, 36.589936], "type": "Point"}, "id": "sRVmWoVSa1KBfZApgBaq__1Wdj0=", "properties": {"@spider": "usps_collection_boxes", "addr:city": "JELLICO", "addr:country": "US", "addr:full": "368 N MAIN ST", "addr:postcode": "37762", "addr:state": "TN", "brand": "USPS", "collection_times": "Mo-Fr 16:15; Sa 12:00", "name": "USPS COLLECTION BOX - BLUE BOX", "note": "ON 12/24 AND 12/31, THIS BOX MAY BE COLLECTED AS EARLY AS 12 NOON.", "ref": "3776200010"}, "type": "Feature"}
{"geometry": {"coordinates": [-84.1352084, 36.367073], "type": "Point"}, "id": "ltPcfLNxlnry4asAKVHctVQoE10=", "properties": {"@spider": "usps_collection_boxes", "addr:city": "LAFOLLETTE", "addr:country": "US", "addr:full": "1221 JACKSBORO PIKE", "addr:postcode": "37766", "addr:state": "TN", "brand": "USPS", "collection_times": "Mo-Fr 12:00; Sa 11:30", "name": "USPS COLLECTION BOX - BLUE BOX", "ref": "3776600004"}, "type": "Feature"}
{"geometry": {"coordinates": [-84.1249411, 36.37911], "type": "Point"}, "id": "NvAvZb-COoG1PE9Ffy9TDWdqo_I=", "properties": {"@spider": "usps_collection_boxes", "addr:city": "LAFOLLETTE", "addr:country": "US", "addr:full": "240 W CENTRAL AVE", "addr:postcode": "37766", "addr:state": "TN", "brand": "USPS", "collection_times": "Mo-Sa 10:00", "name": "USPS COLLECTION BOX - BLUE BOX", "ref": "3776600008"}, "type": "Feature"}
{"geometry": {"coordinates": [-84.1558811, 36.352867], "type": "Point"}, "id": "yMNsAB4OEeuWxT0uVXNgzzA-QkQ=", "properties": {"@spider": "usps_collection_boxes", "addr:city": "LAFOLLETTE", "addr:country": "US", "addr:full": "2010 JACKBORO PIKE", "addr:postcode": "37766", "addr:state": "TN", "brand": "USPS", "collection_times": "Mo-Fr 09:30; Sa 09:00", "name": "USPS COLLECTION BOX - BLUE BOX", "ref": "3776600013"}, "type": "Feature"}
{"geometry": {"coordinates": [-84.1410067384, 36.3618610559], "type": "Point"}, "id": "ibIOhOmr_P-Mp5nZqcZbgJ4PHQg=", "properties": {"@spider": "usps_collection_boxes", "addr:city": "LAFOLLETTE", "addr:country": "US", "addr:full": "2323 JACKSBORO PIKE", "addr:postcode": "37766", "addr:state": "TN", "brand": "USPS", "collection_times": "Mo-Fr 11:15; Sa 10:45", "name": "USPS COLLECTION BOX - BLUE BOX", "ref": "3776600015"}, "type": "Feature"}
{"geometry": {"coordinates": [-84.1591399, 36.347272], "type": "Point"}, "id": "VncxQgU3z-nHyQAB9Juhaef09j4=", "properties": {"@spider": "usps_collection_boxes", "addr:city": "LAFOLLETTE", "addr:country": "US", "addr:full": "2221 JACKSBORO PIKE STE B", "addr:postcode": "37766", "addr:state": "TN", "brand": "USPS", "collection_times": "Mo-Fr 11:30; Sa 11:00", "name": "USPS COLLECTION BOX - BLUE BOX", "ref": "3776600019"}, "type": "Feature"}
{"geometry": {"coordinates": [-84.122174, 36.380386], "type": "Point"}, "id": "udqgLHUVtpSlVqUDJH921YXjei0=", "properties": {"@spider": "usps_collection_boxes", "addr:city": "LAFOLLETTE", "addr:country": "US", "addr:full": "119 S TENNESSEE AVE", "addr:postcode": "37766", "addr:state": "TN", "brand": "USPS", "collection_times": "Mo-Fr 14:30; Sa 12:00", "name": "USPS COLLECTION BOX - BLUE BOX", "note": "ON 12/24 AND 12/31, THIS BOX MAY BE COLLECTED AS EARLY AS 12 NOON.", "ref": "3776600021"}, "type": "Feature"}
{"geometry": {"coordinates": [-84.104005, 36.388317], "type": "Point"}, "id": "zJnH5BIFCq4pv-K5zR0362vsotk=", "properties": {"@spider": "usps_collection_boxes", "addr:city": "LAFOLLETTE", "addr:country": "US", "addr:full": "1221 E CENTRAL AVE", "addr:postcode": "37766", "addr:state": "TN", "brand": "USPS", "collection_times": "Mo-Fr 16:30; Sa 15:30", "name": "USPS COLLECTION BOX - BLUE BOX", "note": "ON 12/24 AND 12/31, THIS BOX MAY BE COLLECTED AS EARLY AS 12 NOON.", "ref": "3776600023"}, "type": "Feature"}
{"geometry": {"coordinates": [-84.103888, 36.38832], "type": "Point"}, "id": "ZNgU2GjsA7riaMfHmVoasB0h8kk=", "properties": {"@spider": "usps_collection_boxes", "addr:city": "LAFOLLETTE", "addr:country": "US", "addr:full": "1221 E CENTRAL AVE", "addr:postcode": "37766", "addr:state": "TN", "brand": "USPS", "collection_times": "Mo-Fr 16:30; Sa 15:30", "name": "USPS COLLECTION BOX - PO LOBBY", "note": "ON 12/24 AND 12/31, THIS BOX MAY BE COLLECTED AS EARLY AS 12 NOON.", "ref": "3776600025"}, "type": "Feature"}
{"geometry": {"coordinates": [-84.103888, 36.38832], "type": "Point"}, "id": "Qr202hybJdCkZebJj-86ZBCa9sY=", "properties": {"@spider": "usps_collection_boxes", "addr:city": "LAFOLLETTE", "addr:country": "US", "addr:full": "1221 E CENTRAL AVE", "addr:postcode": "37766", "addr:state": "TN", "brand": "USPS", "collection_times": "Mo-Fr 16:30; Sa 15:30", "name": "USPS COLLECTION BOX - BLUE BOX", "note": "ON 12/24 AND 12/31, THIS BOX MAY BE COLLECTED AS EARLY AS 12 NOON.", "ref": "3776600027"}, "type": "Feature"}
{"geometry": {"coordinates": [-84.154402, 36.220101], "type": "Point"}, "id": "jcEKu8E7ghq1_By--1QHBtEHN3s=", "properties": {"@spider": "usps_collection_boxes", "addr:city": "LAKE CITY", "addr:country": "US", "addr:full": "220 2ND ST", "addr:postcode": "37769", "addr:state": "TN", "brand": "USPS", "collection_times": "Mo-Fr 16:15; Sa 11:00", "name": "USPS COLLECTION BOX - BLUE BOX", "note": "ON 12/24 AND 12/31, THIS BOX MAY BE COLLECTED AS EARLY AS 12 NOON.", "ref": "3776900001"}, "type": "Feature"}
{"geometry": {"coordinates": [-84.154466, 36.220036], "type": "Point"}, "id": "1cFlG9DA1eRjc4ChO-JLs2p3IG8=", "properties": {"@spider": "usps_collection_boxes", "addr:city": "LAKE CITY", "addr:country": "US", "addr:full": "220 2ND ST", "addr:postcode": "37769", "addr:state": "TN", "brand": "USPS", "collection_times": "Mo-Fr 16:15; Sa 11:00", "name": "USPS COLLECTION BOX - PO LOBBY", "note": "ON 12/24 AND 12/31, THIS BOX MAY BE COLLECTED AS EARLY AS 12 NOON.", "ref": "3776900003"}, "type": "Feature"}
