{"geometry": {"coordinates": [-83.835154, 36.232207], "type": "Point"}, "id": "JBReOr-wBYRHxjvwDOizztif4Sg=", "properties": {"@spider": "usps_collection_boxes", "addr:city": "MAYNARDVILLE", "addr:country": "US", "addr:full": "3009 MAYNARDVILLE HWY", "addr:postcode": "37807", "addr:state": "TN", "brand": "USPS", "collection_times": "Mo-Fr 15:45; Sa 11:00", "name": "USPS COLLECTION BOX - BLUE BOX", "note": "ON 12/24 AND 12/31, THIS BOX MAY BE COLLECTED AS EARLY AS 12 NOON.", "ref": "3780700000"}, "type": "Feature"}
{"geometry": {"coordinates": [-83.835125, 36.232191], "type": "Point"}, "id": "JtwGKwaENs8YUI13DsISW38Ww0Q=", "properties": {"@spider": "usps_collection_boxes", "addr:city": "MAYNARDVILLE", "addr:country": "US", "addr:full": "3009 MAYNARDVILLE HWY", "addr:postcode": "37807", "addr:state": "TN", "brand": "USPS", "collection_times": "Mo-Fr 15:45; Sa 11:00", "name": "USPS COLLECTION BOX - BLUE BOX", "note": "ON 12/24 AND 12/31, THIS BOX MAY BE COLLECTED AS EARLY AS 12 NOON.", "ref": "3780700001"}, "type": "Feature"}
{"geometry": {"coordinates": [-83.9036349, 36.174648], "type": "Point"}, "id": "Mt4O3CPolXOeRhl6EQA-vap1xBs=", "properties": {"@spider": "usps_collection_boxes", "addr:city": "MAYNARDVILLE", "addr:country": "US", "addr:full": "509 MAYNARDVILLE HWY", "addr:postcode": "37807", "addr:state": "TN", "brand": "USPS", "collection_times": "Mo-Sa 10:00", "name": "USPS COLLECTION BOX - BLUE BOX", "ref": "3780700002"}, "type": "Feature"}
{"geometry": {"coordinates": [-83.7988149, 36.249751], "type": "Point"}, "id": "c6frTaJenN_qCSNw-_o4WCA41F8=", "properties": {"@spider": "usps_collection_boxes", "addr:city": "MAYNARDVILLE", "addr:country": "US", "addr:full": "901 MAIN ST", "addr:postcode": "37807", "addr:state": "TN", "brand": "USPS", "collection_times": "Mo-Sa 10:30", "name": "USPS COLLECTION BOX - BLUE BOX", "ref": "3780700003"}, "type": "Feature"}
{"geometry": {"coordinates": [-83.835125, 36.232191], "type": "Point"}, "id": "qp4WIjF_pPVFlbhizUPA5zjrQtw=", "properties": {"@spider": "usps_collection_boxes", "addr:city": "MAYNARDVILLE", "addr:country": "US", "addr:full": "3009 MAYNARDVILLE HWY", "addr:postcode": "37807", "addr:state": "TN", "brand": "USPS", "collection_times": "Mo-Fr 15:45; Sa 11:00", "name": "USPS COLLECTION BOX - PO LOBBY", "note": "ON 12/24 AND 12/31, THIS BOX MAY BE COLLECTED AS EARLY AS 12 NOON.", "ref": "3780700004"}, "type": "Feature"}
{"geometry": {"coordinates": [-83.586834, 36.446406], "type": "Point"}, "id": "7euL32cIUkieZC3SL5NOyGajYRs=", "properties": {"@spider": "usps_collection_boxes", "addr:city": "NEW TAZEWELL", "addr:country": "US", "addr:full": "855 MAIN ST", "addr:postcode": "37825", "addr:state": "TN", "brand": "USPS", "collection_times": "Mo-Fr 16:45; Sa 12:00", "name": "USPS COLLECTION BOX - BLUE BOX", "note": "ON 12/24 AND 12/31, THIS BOX MAY BE COLLECTED AS EARLY AS 12 NOON.", "ref": "3782500001"}, "type": "Feature"}
{"geometry": {"coordinates": [-83.586834, 36.446406], "type": "Point"}, "id": "8o_b0Y7YpTgxcH_IlGisbumcJSo=", "properties": {"@spider": "usps_collection_boxes", "addr:city": "NEW TAZEWELL", "addr:country": "US", "addr:full": "855 MAIN ST", "addr:postcode": "37825", "addr:state": "TN", "brand": "USPS", "collection_times": "Mo-Fr 16:45; Sa 12:00", "name": "USPS COLLECTION BOX - BLUE BOX", "note": "ON 12/24 AND 12/31, THIS BOX MAY BE COLLECTED AS EARLY AS 12 NOON.", "ref": "3782500002"}, "type": "Feature"}
{"geometry": {"coordinates": [-83.586834, 36.446406], "type": "Point"}, "id": "2Uq0Je5CzPKglc8gwWahuo8OcIc=", "properties": {"@spider": "usps_collection_boxes", "addr:city": "NEW TAZEWELL", "addr:country": "US", "addr:full": "855 MAIN ST", "addr:postcode": "37825", "addr:state": "TN", "brand": "USPS", "collection_times": "Mo-Fr 16:45; Sa 12:00", "name": "USPS COLLECTION BOX - BLUE BOX", "note": "ON 12/24 AND 12/31, THIS BOX MAY BE COLLECTED AS EARLY AS 12 NOON.", "ref": "3782500003"}, "type": "Feature"}
{"geometry": {"coordinates": [-83.586834, 36.446406], "type": "Point"}, "id": "xtUU7yn4_VRvg1AxItrHX9w4hFU=", "properties": {"@spider": "usps_collection_boxes", "addr:city": "NEW TAZEWELL", "addr:country": "US", "addr:full": "855 MAIN ST", "addr:postcode": "37825", "addr:state": "TN", "brand": "USPS", "collection_times": "Mo-Fr 16:45; Sa 12:00", "name": "USPS COLLECTION BOX - PO LOBBY", "note": "ON 12/24 AND 12/31, THIS BOX MAY BE COLLECTED AS EARLY AS 12 NOON.", "ref": "3782500004"}, "type": "Feature"}
{"geometry": {"coordinates": [-83.586834, 36.446406], "type": "Point"}, "id": "pgwzVytE5iE5QsdmzTByPC4KxQw=", "properties": {"@spider": "usps_collection_boxes", "addr:city": "NEW TAZEWELL", "addr:country": "US", "addr:full": "855 MAIN ST", "addr:postcode": "37825", "addr:state": "TN", "brand": "USPS", "collection_times": "Mo-Fr 16:45; Sa 12:00", "name": "USPS COLLECTION BOX - PO LOBBY", "note": "ON 12/24 AND 12/31, THIS BOX MAY BE COLLECTED AS EARLY AS 12 NOON.", "ref": "3782500005"}, "type": "Feature"}
{"geometry": {"coordinates": [-84.071395404, 36.196349869], "type": "Point"}, "id": "6bxZz1F8rLPK5rwCAPtTavy7HfY=", "properties": {"@spider": "usps_collection_boxes", "addr:city": "NORRIS", "addr:country": "US", "addr:full": "11 W NORRIS RD", "addr:postcode": "37828", "addr:state": "TN", "brand": "USPS", "collection_times": "Mo-Fr 16:30; Sa 11:15", "name": "USPS COLLECTION BOX - BLUE BOX", "note": "ON 12/24 AND 12/31, THIS BOX MAY BE COLLECTED AS EARLY AS 12 NOON.", "ref": "3782800001"}, "type": "Feature"}
{"geometry": {"coordinates": [-84.071395404, 36.196349869], "type": "Point"}, "id": "lplZJJJ2ctGdYFSF6u-2fXyPSd0=", "properties": {"@spider": "usps_collection_boxes", "addr:city": "NORRIS", "addr:country": "US", "addr:full": "11 W NORRIS RD", "addr:postcode": "37828", "addr:state": "TN", "brand": "USPS", "collection_times": "Mo-Fr 16:30; Sa 11:30", "name": "USPS COLLECTION BOX - PO LOBBY", "note": "ON 12/24 AND 12/31, THIS BOX MAY BE COLLECTED AS EARLY AS 12 NOON.", "ref": "3782800002"}, "type": "Feature"}
{"geometry": {"coordinates": [-84.514806, 36.501669], "type": "Point"}, "id": "y1R5fjqofstGoOdrncy61zjxQR0=", "properties": {"@spider": "usps_collection_boxes", "addr:city": "ONEIDA", "addr:country": "US", "addr:full": "108 S THOMPSON ST", "addr:postcode": "37841", "addr:state": "TN", "brand": "USPS", "collection_times": "Mo-Fr 16:30; Sa 12:00", "name": "USPS COLLECTION BOX - BLUE BOX", "note": "ON 12/24 AND 12/31, THIS BOX MAY BE COLLECTED AS EARLY AS 12 NOON.", "ref": "3784100001"}, "type": "Feature"}
{"geometry": {"coordinates": [-84.514806, 36.501669], "type": "Point"}, "id": "H0E3BeehzrUdnOmuK7ljOibb1gc=", "properties": {"@spider": "usps_collection_boxes", "addr:city": "ONEIDA", "addr:country": "US", "addr:full": "108 S THOMPSON ST", "addr:postcode": "37841", "addr:state": "TN", "brand": "USPS", "collection_times": "Mo-Fr 16:30; Sa 12:00", "name": "USPS COLLECTION BOX - BLUE BOX", "note": "ON 12/24 AND 12/31, THIS BOX MAY BE COLLECTED AS EARLY AS 12 NOON.", "ref": "3784100002"}, "type": "Feature"}
{"geometry": {"coordinates": [-84.514659, 36.500739], "type": "Point"}, "id": "M6kUijb8vJDzYj9dMyuPoe8x0QM=", "properties": {"@spider": "usps_collection_boxes", "addr:city": "ONEIDA", "addr:country": "US", "addr:full": "103 E 2ND AVE", "addr:postcode": "37841", "addr:state": "TN", "brand": "USPS", "collection_times": "Mo-Fr 16:30; Sa 12:00", "name": "USPS COLLECTION BOX - PO LOBBY", "note": "ON 12/24 AND 12/31, THIS BOX MAY BE COLLECTED AS EARLY AS 12 NOON.", "ref": "3784100003"}, "type": "Feature"}
{"geometry": {"coordinates": [-84.4998199, 36.522456], "type": "Point"}, "id": "vWWsNDZgCUM5XvmbFaT6FzPPQaU=", "properties": {"@spider": "usps_collection_boxes", "addr:city": "ONEIDA", "addr:country": "US", "addr:full": "24001 ALBERTA ST", "addr:postcode": "37841", "addr:state": "TN", "brand": "USPS", "collection_times": "Mo-Fr 10:00", "name": "USPS COLLECTION BOX - BLUE BOX", "ref": "3784100007"}, "type": "Feature"}
{"geometry": {"coordinates": [-84.252204, 36.380778], "type": "Point"}, "id": "sVmJOTeTYteptCHWdjd_Gk7bkbE=", "properties": {"@spider": "usps_collection_boxes", "addr:city": "PIONEER", "addr:country": "US", "addr:full": "2444 HOWARD BAKER HWY", "addr:postcode": "37847", "addr:state": "TN", "brand": "USPS", "collection_times": "Mo-Fr 12:00; Sa 11:00", "name": "USPS COLLECTION BOX - BLUE BOX", "ref": "3784700001"}, "type": "Feature"}
{"geometry": {"coordinates": [-84.252225, 36.380755], "type": "Point"}, "id": "lbgjVxKeh3cIxZU3BInqDMKAiMU=", "properties": {"@spider": "usps_collection_boxes", "addr:city": "PIONEER", "addr:country": "US", "addr:full": "2444 HOWARD BAKER HWY", "addr:postcode": "37847", "addr:state": "TN", "brand": "USPS", "collection_times": "Mo-Fr 12:00; Sa 11:00", "name": "USPS COLLECTION BOX - PO LOBBY", "ref": "3784700002"}, "type": "Feature"}
{"geometry": {"coordinates": [-83.804259, 36.343802], "type": "Point"}, "id": "33rPGo7gEVFeEk2d5-xxv6DNdMY=", "properties": {"@spider": "usps_collection_boxes", "addr:city": "SHARPS CHAPEL", "addr:country": "US", "addr:full": "111 DR DAVIS RD", "addr:postcode": "37866", "addr:state": "TN", "brand": "USPS", "collection_times": "Mo-Fr 14:30; Sa 11:00", "name": "USPS COLLECTION BOX - BLUE BOX", "note": "ON 12/24 AND 12/31, THIS BOX MAY BE COLLECTED AS EARLY AS 12 NOON.", "ref": "3786600001"}, "type": "Feature"}
{"geometry": {"coordinates": [-83.804182, 36.343735], "type": "Point"}, "id": "OMbnwOsAzW6JbYLhplJaWAkxgtM=", "properties": {"@spider": "usps_collection_boxes", "addr:city": "SHARPS CHAPEL", "addr:country": "US", "addr:full": "111 DR DAVIS RD", "addr:postcode": "37866", "addr:state": "TN", "brand": "USPS", "collection_times": "Mo-Fr 14:30; Sa 11:00", "name": "USPS COLLECTION BOX - PO LOBBY", "note": "ON 12/24 AND 12/31, THIS BOX MAY BE COLLECTED AS EARLY AS 12 NOON.", "ref": "3786600002"}, "type": "Feature"}
{"geometry": {"coordinates": [-83.218676, 36.528778], "type": "Point"}, "id": "YL7Lw31t8ffr0KwhvPW8ZzSzCiI=", "properties": {"@spider": "usps_collection_boxes", "addr:city": "SNEEDVILLE", "addr:country": "US", "addr:full": "1314 MAIN ST", "addr:postcode": "37869", "addr:state": "TN", "brand": "USPS", "collection_times": "Mo-Fr 15:45; Sa 09:45", "name": "USPS COLLECTION BOX - BLUE BOX", "note": "ON 12/24 AND 12/31, THIS BOX MAY BE COLLECTED AS EARLY AS 12 NOON.", "ref": "3786900001"}, "type": "Feature"}
{"geometry": {"coordinates": [-83.218675, 36.528779], "type": "Point"}, "id": "PZO4gQc6KE2tA6xmGNvONjSXFpI=", "properties": {"@spider": "usps_collection_boxes", "addr:city": "SNEEDVILLE", "addr:country": "US", "addr:full": "1314 MAIN ST", "addr:postcode": "37869", "addr:state": "TN", "brand": "USPS", "collection_times": "Mo-Fr 15:45; Sa 09:45", "name": "USPS COLLECTION BOX - PO LOBBY", "note": "ON 12/24 AND 12/31, THIS BOX MAY BE COLLECTED AS EARLY AS 12 NOON.", "ref": "3786900002"}, "type": "Feature"}
{"geometry": {"coordinates": [-83.878131, 36.459311], "type": "Point"}, "id": "7WolSJV5HRkVp-BTuRO3NzjJlm8=", "properties": {"@spider": "usps_collection_boxes", "addr:city": "SPEEDWELL", "addr:country": "US", "addr:full": "7669 HIGHWAY 63", "addr:postcode": "37870", "addr:state": "TN", "brand": "USPS", "collection_times": "Mo-Fr 16:00; Sa 11:15", "name": "USPS COLLECTION BOX - PO LOBBY", "note": "ON 12/24 AND 12/31, THIS BOX MAY BE COLLECTED AS EARLY AS 12 NOON.", "ref": "3787000002"}, "type": "Feature"}
{"geometry": {"coordinates": [-83.569645, 36.453124], "type": "Point"}, "id": "GSahKpgDAyL73kWrJF3RIIAFjZs=", "properties": {"@spider": "usps_collection_boxes", "addr:city": "TAZEWELL", "addr:country": "US", "addr:full": "1710 MAIN ST", "addr:postcode": "37879", "addr:state": "TN", "brand": "USPS", "collection_times": "Mo-Fr 16:00", "name": "USPS COLLECTION BOX - PO LOBBY", "note": "ON 12/24 AND 12/31, THIS BOX MAY BE COLLECTED AS EARLY AS 12 NOON.", "ref": "3787900001"}, "type": "Feature"}
{"geometry": {"coordinates": [-83.569577, 36.453201], "type": "Point"}, "id": "fW955Q5T0SG9Ra8U-sMPb6drbog=", "properties": {"@spider": "usps_collection_boxes", "addr:city": "TAZEWELL", "addr:country": "US", "addr:full": "1710 MAIN ST", "addr:postcode": "37879", "addr:state": "TN", "brand": "USPS", "collection_times": "Mo-Fr 16:00", "name": "USPS COLLECTION BOX - BLUE BOX", "note": "ON 12/24 AND 12/31, THIS BOX MAY BE COLLECTED AS EARLY AS 12 NOON.", "ref": "3787900002"}, "type": "Feature"}
{"geometry": {"coordinates": [-84.450227, 36.558892], "type": "Point"}, "id": "2sXVSGkIh5MaoxKrCbBg8EuiSEo=", "properties": {"@spider": "usps_collection_boxes", "addr:city": "WINFIELD", "addr:country": "US", "addr:full": "24588 SCOTT HWY", "addr:postcode": "37892", "addr:state": "TN", "brand": "USPS", "collection_times": "Mo-Fr 14:45; Sa 09:45", "name": "USPS COLLECTION BOX - BLUE BOX", "note": "ON 12/24 AND 12/31, THIS BOX MAY BE COLLECTED AS EARLY AS 12 NOON.", "ref": "3789200001"}, "type": "Feature"}
{"geometry": {"coordinates": [-84.450227, 36.558892], "type": "Point"}, "id": "FOPVm7MSt2iRfXMLIjoZNCziYdc=", "properties": {"@spider": "usps_collection_boxes", "addr:city": "WINFIELD", "addr:country": "US", "addr:full": "24588 SCOTT HWY", "addr:postcode": "37892", "addr:state": "TN", "brand": "USPS", "collection_times": "Mo-Fr 14:45; Sa 09:45", "name": "USPS COLLECTION BOX - PO LOBBY", "note": "ON 12/24 AND 12/31, THIS BOX MAY BE COLLECTED AS EARLY AS 12 NOON.", "ref": "3789200002"}, "type": "Feature"}
