{"dataset_attributes": {"@spider": "usps_collection_boxes", "spider:collection_time": "2023-12-10T08:24:07.887270"}, "geometry": {"coordinates": [-83.918399, 35.960934], "type": "Point"}, "id": "1FFx7uqV4_NNibSvHekg_aqFaWI=", "properties": {"@spider": "usps_collection_boxes", "addr:city": "KNOXVILLE", "addr:country": "US", "addr:full": "501 W MAIN ST", "addr:postcode": "37901", "addr:state": "TN", "amenity": "post_box", "brand": "United States Postal Service", "brand:wikidata": "Q668687", "collection_times": "Mo-Fr 17:30; Sa 14:00", "name": "USPS COLLECTION BOX - PO LOBBY", "note": "ON 12/24 AND 12/31, THIS BOX MAY BE COLLECTED AS EARLY AS 12 NOON.", "nsi_id": "unitedstatespostalservice-a77078", "operator": "United States Postal Service", "operator:short": "USPS", "operator:type": "public", "operator:wikidata": "Q668687", "ref": "3790100000"}, "type": "Feature"}
{"dataset_attributes": {"@spider": "usps_collection_boxes", "spider:collection_time": "2023-12-10T08:24:07.887270"}, "geometry": {"coordinates": [-83.918399, 35.960934], "type": "Point"}, "id": "0_LOsiHqJbO0XN6tDuQOvOtJ1uo=", "properties": {"@spider": "usps_collection_boxes", "addr:city": "KNOXVILLE", "addr:country": "US", "addr:full": "501 W MAIN ST", "addr:postcode": "37901", "addr:state": "TN", "amenity": "post_box", "brand": "United States Postal Service", "brand:wikidata": "Q668687", "collection_times": "Mo-Fr 17:30", "name": "USPS COLLECTION BOX - PO LOBBY", "note": "ON 12/24 AND 12/31, THIS BOX MAY BE COLLECTED AS EARLY AS 12 NOON.", "nsi_id": "unitedstatespostalservice-a77078", "operator": "United States Postal Service", "operator:short": "USPS", "operator:type": "public", "operator:wikidata": "Q668687", "ref": "3790100001"}, "type": "Feature"}
{"dataset_attributes": {"@spider": "usps_collection_boxes", "spider:collection_time": "2023-12-10T08:24:07.887270"}, "geometry": {"coordinates": [-83.9191110078, 35.961086981], "type": "Point"}, "id": "FH1qwtpNr0TIiOuII9y4vUnYcTM=", "properties": {"@spider": "usps_collection_boxes", "addr:city": "KNOXVILLE", "addr:country": "US", "addr:full": "501 MAIN", "addr:postcode": "37901", "addr:state": "TN", "amenity": "post_box", "brand": "United States Postal Service", "brand:wikidata": "Q668687", "collection_times": "Mo-Fr 17:00", "name": "USPS COLLECTION BOX - PO LOBBY", "note": "ON 12/24 AND 12/31, THIS BOX MAY BE COLLECTED AS EARLY AS 12 NOON.", "nsi_id": "unitedstatespostalservice-a77078", "operator": "United States Postal Service", "operator:short": "USPS", "operator:type": "public", "operator:wikidata": "Q668687", "ref": "3790100002"}, "type": "Feature"}
{"dataset_attributes": {"@spider": "usps_collection_boxes", "spider:collection_time": "2023-12-10T08:24:07.887270"}, "geometry": {"coordinates": [-83.91983, 35.96448], "type": "Point"}, "id": "vhAN3aWpCJBIiMZIQ1ZY3gyVALg=", "properties": {"@spider": "usps_collection_boxes", "addr:city": "KNOXVILLE", "addr:country": "US", "addr:full": "501 MAIN ST", "addr:postcode": "37902", "addr:state": "TN", "amenity": "post_box", "brand": "United States Postal Service", "brand:wikidata": "Q668687", "collection_times": "Mo-Fr 17:30; Sa 12:30", "name": "USPS COLLECTION BOX - BLUE BOX", "note": "ON 12/24 AND 12/31, THIS BOX MAY BE COLLECTED AS EARLY AS 12 NOON.", "nsi_id": "unitedstatespostalservice-a77078", "operator": "United States Postal Service", "operator:short": "USPS", "operator:type": "public", "operator:wikidata": "Q668687", "ref": "3790200001"}, "type": "Feature"}
{"dataset_attributes": {"@spider": "usps_collection_boxes", "spider:collection_time": "2023-12-10T08:24:07.887270"}, "geometry": {"coordinates": [-83.91983, 35.96448], "type": "Point"}, "id": "QXOrzsjCDOPvz_qmdRvynUs778Y=", "properties": {"@spider": "usps_collection_boxes", "addr:city": "KNOXVILLE", "addr:country": "US", "addr:full": "501 MAIN ST", "addr:postcode": "37902", "addr:state": "TN", "amenity": "post_box", "brand": "United States Postal Service", "brand:wikidata": "Q668687", "collection_times": "Mo-Fr 17:30; Sa 12:30", "name": "USPS COLLECTION BOX - BLUE BOX", "note": "ON 12/24 AND 12/31, THIS BOX MAY BE COLLECTED AS EARLY AS 12 NOON.", "nsi_id": "unitedstatespostalservice-a77078", "operator": "United States Postal Service", "operator:short": "USPS", "operator:type": "public", "operator:wikidata": "Q668687", "ref": "3790200003"}, "type": "Feature"}
{"dataset_attributes": {"@spider": "usps_collection_boxes", "spider:collection_time": "2023-12-10T08:24:07.887270"}, "geometry": {"coordinates": [-83.9207370132, 35.9642009837], "type": "Point"}, "id": "ci7cSv7-xhjlKfrxDebZstcjGTI=", "properties": {"@spider": "usps_collection_boxes", "addr:city": "KNOXVILLE", "addr:country": "US", "addr:full": "525 UNION AVE", "addr:postcode": "37902", "addr:state": "TN", "amenity": "post_box", "brand": "United States Postal Service", "brand:wikidata": "Q668687", "collection_times": "Mo-Fr 14:00", "name": "USPS COLLECTION BOX - BLUE BOX", "note": "ON 12/24 AND 12/31, THIS BOX MAY BE COLLECTED AS EARLY AS 12 NOON.", "nsi_id": "unitedstatespostalservice-a77078", "operator": "United States Postal Service", "operator:short": "USPS", "operator:type": "public", "operator:wikidata": "Q668687", "ref": "3790200005"}, "type": "Feature"}
{"dataset_attributes": {"@spider": "usps_collection_boxes", "spider:collection_time": "2023-12-10T08:24:07.887270"}, "geometry": {"coordinates": [-83.9165971572, 35.9615752133], "type": "Point"}, "id": "TDY67IaYY9sVM8GEo7Ecp8USTI4=", "properties": {"@spider": "usps_collection_boxes", "addr:city": "KNOXVILLE", "addr:country": "US", "addr:full": "330 W MAIN ST", "addr:postcode": "37902", "addr:state": "TN", "amenity": "post_box", "brand": "United States Postal Service", "brand:wikidata": "Q668687", "collection_times": "Mo-Fr 14:30", "name": "USPS COLLECTION BOX - BLUE BOX", "note": "ON 12/24 AND 12/31, THIS BOX MAY BE COLLECTED AS EARLY AS 12 NOON.", "nsi_id": "unitedstatespostalservice-a77078", "operator": "United States Postal Service", "operator:short": "USPS", "operator:type": "public", "operator:wikidata": "Q668687", "ref": "3790200019"}, "type": "Feature"}
{"dataset_attributes": {"@spider": "usps_collection_boxes", "spider:collection_time": "2023-12-10T08:24:07.887270"}, "geometry": {"coordinates": [-84.0151179973, 35.9485329855], "type": "Point"}, "id": "ejoWSCPYOOG3l-0ETeq7OrVnvhM=", "properties": {"@spider": "usps_collection_boxes", "addr:city": "KNOXVILLE", "addr:country": "US", "addr:full": "1237 E WEISGARBER", "addr:postcode": "37902", "addr:state": "TN", "amenity": "post_box", "brand": "United States Postal Service", "brand:wikidata": "Q668687", "collection_times": "Mo-Fr 13:00", "name": "USPS COLLECTION BOX - BLUE BOX", "note": "ON 12/24 AND 12/31, THIS BOX MAY BE COLLECTED AS EARLY AS 12 NOON.", "nsi_id": "unitedstatespostalservice-a77078", "operator": "United States Postal Service", "operator:short": "USPS", "operator:type": "public", "operator:wikidata": "Q668687", "ref": "3790200022"}, "type": "Feature"}
{"dataset_attributes": {"@spider": "usps_collection_boxes", "spider:collection_time": "2023-12-10T08:24:07.887270"}, "geometry": {"coordinates": [-83.9190650881, 35.9700809335], "type": "Point"}, "id": "nJF7wm4jZK05Ll3vK-zRpmm39m8=", "properties": {"@spider": "usps_collection_boxes", "addr:city": "KNOXVILLE", "addr:country": "US", "addr:full": "119 W JACKSON AVE", "addr:postcode": "37902", "addr:state": "TN", "amenity": "post_box", "brand": "United States Postal Service", "brand:wikidata": "Q668687", "collection_times": "Mo-Fr 12:00", "name": "USPS COLLECTION BOX - BLUE BOX", "nsi_id": "unitedstatespostalservice-a77078", "operator": "United States Postal Service", "operator:short": "USPS", "operator:type": "public", "operator:wikidata": "Q668687", "ref": "3790200024"}, "type": "Feature"}
{"dataset_attributes": {"@spider": "usps_collection_boxes", "spider:collection_time": "2023-12-10T08:24:07.887270"}, "geometry": {"coordinates": [-83.9179043378, 35.9600038716], "type": "Point"}, "id": "1HgSNcGK6DpONjy5_NSCh4cvtRo=", "properties": {"@spider": "usps_collection_boxes", "addr:city": "KNOXVILLE", "addr:country": "US", "addr:full": "500 W HILL AVE", "addr:postcode": "37902", "addr:state": "TN", "amenity": "post_box", "brand": "United States Postal Service", "brand:wikidata": "Q668687", "collection_times": "Mo-Fr 12:00", "name": "USPS COLLECTION BOX - BLUE BOX", "nsi_id": "unitedstatespostalservice-a77078", "operator": "United States Postal Service", "operator:short": "USPS", "operator:type": "public", "operator:wikidata": "Q668687", "ref": "3790200027"}, "type": "Feature"}
{"dataset_attributes": {"@spider": "usps_collection_boxes", "spider:collection_time": "2023-12-10T08:24:07.887270"}, "geometry": {"coordinates": [-83.9175317113, 35.9637398638], "type": "Point"}, "id": "0YLrpwzKOQPYcDjrVCDfGxf3-JI=", "properties": {"@spider": "usps_collection_boxes", "addr:city": "KNOXVILLE", "addr:country": "US", "addr:full": "621 S GAY ST", "addr:postcode": "37902", "addr:state": "TN", "amenity": "post_box", "brand": "United States Postal Service", "brand:wikidata": "Q668687", "collection_times": "Mo-Fr 15:00", "name": "USPS COLLECTION BOX - BLUE BOX", "note": "ON 12/24 AND 12/31, THIS BOX MAY BE COLLECTED AS EARLY AS 12 NOON.", "nsi_id": "unitedstatespostalservice-a77078", "operator": "United States Postal Service", "operator:short": "USPS", "operator:type": "public", "operator:wikidata": "Q668687", "ref": "3790200041"}, "type": "Feature"}
{"dataset_attributes": {"@spider": "usps_collection_boxes", "spider:collection_time": "2023-12-10T08:24:07.887270"}, "geometry": {"coordinates": [-83.9173880238, 35.9645880181], "type": "Point"}, "id": "F07ABsH9RpkpIE-d90plviXYMug=", "properties": {"@spider": "usps_collection_boxes", "addr:city": "KNOXVILLE", "addr:country": "US", "addr:full": "530 S GAY ST", "addr:postcode": "37902", "addr:state": "TN", "amenity": "post_box", "brand": "United States Postal Service", "brand:wikidata": "Q668687", "collection_times": "Mo-Fr 15:00; Sa 12:30", "name": "USPS COLLECTION BOX - BLUE BOX", "note": "ON 12/24 AND 12/31, THIS BOX MAY BE COLLECTED AS EARLY AS 12 NOON.", "nsi_id": "unitedstatespostalservice-a77078", "operator": "United States Postal Service", "operator:short": "USPS", "operator:type": "public", "operator:wikidata": "Q668687", "ref": "3790200050"}, "type": "Feature"}
{"dataset_attributes": {"@spider": "usps_collection_boxes", "spider:collection_time": "2023-12-10T08:24:07.887270"}, "geometry": {"coordinates": [-83.918468032, 35.9648049837], "type": "Point"}, "id": "BaPTDdMk5WSgXMenwXy4EQkH50I=", "properties": {"@spider": "usps_collection_boxes", "addr:city": "KNOXVILLE", "addr:country": "US", "addr:full": "507 S GAY ST", "addr:postcode": "37902", "addr:state": "TN", "amenity": "post_box", "brand": "United States Postal Service", "brand:wikidata": "Q668687", "collection_times": "Mo-Fr 15:00", "name": "USPS COLLECTION BOX - BLUE BOX", "note": "ON 12/24 AND 12/31, THIS BOX MAY BE COLLECTED AS EARLY AS 12 NOON.", "nsi_id": "unitedstatespostalservice-a77078", "operator": "United States Postal Service", "operator:short": "USPS", "operator:type": "public", "operator:wikidata": "Q668687", "ref": "3790200053"}, "type": "Feature"}
{"dataset_attributes": {"@spider": "usps_collection_boxes", "spider:collection_time": "2023-12-10T08:24:07.887270"}, "geometry": {"coordinates": [-83.9192150397, 35.9666617453], "type": "Point"}, "id": "Rge0j09yjyVX9S2cPCWc4OmuEjU=", "properties": {"@spider": "usps_collection_boxes", "addr:city": "KNOXVILLE", "addr:country": "US", "addr:full": "323 S GAY ST", "addr:postcode": "37902", "addr:state": "TN", "amenity": "post_box", "brand": "United States Postal Service", "brand:wikidata": "Q668687", "collection_times": "Mo-Fr 14:45", "name": "USPS COLLECTION BOX - BLUE BOX", "note": "ON 12/24 AND 12/31, THIS BOX MAY BE COLLECTED AS EARLY AS 12 NOON.", "nsi_id": "unitedstatespostalservice-a77078", "operator": "United States Postal Service", "operator:short": "USPS", "operator:type": "public", "operator:wikidata": "Q668687", "ref": "3790200055"}, "type": "Feature"}
{"dataset_attributes": {"@spider": "usps_collection_boxes", "spider:collection_time": "2023-12-10T08:24:07.887270"}, "geometry": {"coordinates": [-83.9186070039, 35.9616359956], "type": "Point"}, "id": "p4Kb7v6SzJZbJgYVyM8xerqJRoc=", "properties": {"@spider": "usps_collection_boxes", "addr:city": "KNOXVILLE", "addr:country": "US", "addr:full": "422 CUMBERLAND AVE", "addr:postcode": "37902", "addr:state": "TN", "amenity": "post_box", "brand": "United States Postal Service", "brand:wikidata": "Q668687", "collection_times": "Mo-Fr 17:30; Sa 12:30", "name": "USPS COLLECTION BOX - BLUE BOX", "note": "ON 12/24 AND 12/31, THIS BOX MAY BE COLLECTED AS EARLY AS 12 NOON.", "nsi_id": "unitedstatespostalservice-a77078", "operator": "United States Postal Service", "operator:short": "USPS", "operator:type": "public", "operator:wikidata": "Q668687", "ref": "3790200058"}, "type": "Feature"}
{"dataset_attributes": {"@spider": "usps_collection_boxes", "spider:collection_time": "2023-12-10T08:24:07.887270"}, "geometry": {"coordinates": [-83.9186070039, 35.9616359956], "type": "Point"}, "id": "EHiRVXNXLK1qCGixYctEYteATEs=", "properties": {"@spider": "usps_collection_boxes", "addr:city": "KNOXVILLE", "addr:country": "US", "addr:full": "422 CUMBERLAND AVE", "addr:postcode": "37902", "addr:state": "TN", "amenity": "post_box", "brand": "United States Postal Service", "brand:wikidata": "Q668687", "collection_times": "Mo-Fr 17:30; Sa 12:30", "name": "USPS COLLECTION BOX - BLUE BOX", "note": "ON 12/24 AND 12/31, THIS BOX MAY BE COLLECTED AS EARLY AS 12 NOON.", "nsi_id": "unitedstatespostalservice-a77078", "operator": "United States Postal Service", "operator:short": "USPS", "operator:type": "public", "operator:wikidata": "Q668687", "ref": "3790200060"}, "type": "Feature"}
{"dataset_attributes": {"@spider": "usps_collection_boxes", "spider:collection_time": "2023-12-10T08:24:07.887270"}, "geometry": {"coordinates": [-84.0035276, 35.945286], "type": "Point"}, "id": "xYTlR6oBNDNe4F-7Mpaji_bek2s=", "properties": {"@spider": "usps_collection_boxes", "addr:city": "KNOXVILLE", "addr:country": "US", "addr:full": "5500 LONAS DR", "addr:postcode": "37909", "addr:state": "TN", "amenity": "post_box", "brand": "United States Postal Service", "brand:wikidata": "Q668687", "collection_times": "Mo-Fr 10:00", "name": "USPS COLLECTION BOX - BLUE BOX", "nsi_id": "unitedstatespostalservice-a77078", "operator": "United States Postal Service", "operator:short": "USPS", "operator:type": "public", "operator:wikidata": "Q668687", "ref": "3790900004"}, "type": "Feature"}
{"dataset_attributes": {"@spider": "usps_collection_boxes", "spider:collection_time": "2023-12-10T08:24:07.887270"}, "geometry": {"coordinates": [-84.03172831, 35.947531498], "type": "Point"}, "id": "2EI3-HJ-XKojr7E66WFTd4eycp4=", "properties": {"@spider": "usps_collection_boxes", "addr:city": "KNOXVILLE", "addr:country": "US", "addr:full": "3100 LAKE BROOK BLVD", "addr:postcode": "37909", "addr:state": "TN", "amenity": "post_box", "brand": "United States Postal Service", "brand:wikidata": "Q668687", "collection_times": "Mo-Sa 10:00", "name": "USPS COLLECTION BOX - BLUE BOX", "nsi_id": "unitedstatespostalservice-a77078", "operator": "United States Postal Service", "operator:short": "USPS", "operator:type": "public", "operator:wikidata": "Q668687", "ref": "3790900007"}, "type": "Feature"}
{"dataset_attributes": {"@spider": "usps_collection_boxes", "spider:collection_time": "2023-12-10T08:24:07.887270"}, "geometry": {"coordinates": [-84.013751962, 35.9544089114], "type": "Point"}, "id": "CC2i5f9ZZ8QOWoU8TB9ZyB7OIP8=", "properties": {"@spider": "usps_collection_boxes", "addr:city": "KNOXVILLE", "addr:country": "US", "addr:full": "1471 AMHERST RD", "addr:postcode": "37909", "addr:state": "TN", "amenity": "post_box", "brand": "United States Postal Service", "brand:wikidata": "Q668687", "collection_times": "Mo-Fr 10:00", "name": "USPS COLLECTION BOX - BLUE BOX", "nsi_id": "unitedstatespostalservice-a77078", "operator": "United States Postal Service", "operator:short": "USPS", "operator:type": "public", "operator:wikidata": "Q668687", "ref": "3790900013"}, "type": "Feature"}
{"dataset_attributes": {"@spider": "usps_collection_boxes", "spider:collection_time": "2023-12-10T08:24:07.887270"}, "geometry": {"coordinates": [-84.0142499, 35.946682], "type": "Point"}, "id": "bchhXppzrtuM_hwpYP0DdByibi8=", "properties": {"@spider": "usps_collection_boxes", "addr:city": "KNOXVILLE", "addr:country": "US", "addr:full": "1225 E WEISGARBER RD", "addr:postcode": "37909", "addr:state": "TN", "amenity": "post_box", "brand": "United States Postal Service", "brand:wikidata": "Q668687", "collection_times": "Mo-Fr 10:00", "name": "USPS COLLECTION BOX - BLUE BOX", "nsi_id": "unitedstatespostalservice-a77078", "operator": "United States Postal Service", "operator:short": "USPS", "operator:type": "public", "operator:wikidata": "Q668687", "ref": "3790900026"}, "type": "Feature"}
{"dataset_attributes": {"@spider": "usps_collection_boxes", "spider:collection_time": "2023-12-10T08:24:07.887270"}, "geometry": {"coordinates": [-83.9923093, 35.950693], "type": "Point"}, "id": "Ql6Hxq2PgbnHpM9Hl_EaYGAuo3U=", "properties": {"@spider": "usps_collection_boxes", "addr:city": "KNOXVILLE", "addr:country": "US", "addr:full": "1508 COLEMAN RD", "addr:postcode": "37909", "addr:state": "TN", "amenity": "post_box", "brand": "United States Postal Service", "brand:wikidata": "Q668687", "collection_times": "Mo-Fr 10:00", "name": "USPS COLLECTION BOX - BLUE BOX", "nsi_id": "unitedstatespostalservice-a77078", "operator": "United States Postal Service", "operator:short": "USPS", "operator:type": "public", "operator:wikidata": "Q668687", "ref": "3790900027"}, "type": "Feature"}
{"dataset_attributes": {"@spider": "usps_collection_boxes", "spider:collection_time": "2023-12-10T08:24:07.887270"}, "geometry": {"coordinates": [-83.9867329, 35.951216], "type": "Point"}, "id": "_TPv2ENceBbJWaJuXOGIozZt3jo=", "properties": {"@spider": "usps_collection_boxes", "addr:city": "KNOXVILLE", "addr:country": "US", "addr:full": "1338 PAPERMILL POINTE WAY", "addr:postcode": "37909", "addr:state": "TN", "amenity": "post_box", "brand": "United States Postal Service", "brand:wikidata": "Q668687", "collection_times": "Mo-Fr 10:00", "name": "USPS COLLECTION BOX - BLUE BOX", "nsi_id": "unitedstatespostalservice-a77078", "operator": "United States Postal Service", "operator:short": "USPS", "operator:type": "public", "operator:wikidata": "Q668687", "ref": "3790900028"}, "type": "Feature"}
{"dataset_attributes": {"@spider": "usps_collection_boxes", "spider:collection_time": "2023-12-10T08:24:07.887270"}, "geometry": {"coordinates": [-83.9737489, 36.008027], "type": "Point"}, "id": "bYR8kMZ--nF9dchIA5-RGgS3RjQ=", "properties": {"@spider": "usps_collection_boxes", "addr:city": "KNOXVILLE", "addr:country": "US", "addr:full": "314 MERCHANT DR", "addr:postcode": "37912", "addr:state": "TN", "amenity": "post_box", "brand": "United States Postal Service", "brand:wikidata": "Q668687", "collection_times": "Mo-Fr 10:00", "name": "USPS COLLECTION BOX - BLUE BOX", "nsi_id": "unitedstatespostalservice-a77078", "operator": "United States Postal Service", "operator:short": "USPS", "operator:type": "public", "operator:wikidata": "Q668687", "ref": "3791200002"}, "type": "Feature"}
{"dataset_attributes": {"@spider": "usps_collection_boxes", "spider:collection_time": "2023-12-10T08:24:07.887270"}, "geometry": {"coordinates": [-83.9613288, 36.011315], "type": "Point"}, "id": "YWxiBVgglP0P1sVK7n0MIbMEils=", "properties": {"@spider": "usps_collection_boxes", "addr:city": "KNOXVILLE", "addr:country": "US", "addr:full": "400 E INSKIP DR", "addr:postcode": "37912", "addr:state": "TN", "amenity": "post_box", "brand": "United States Postal Service", "brand:wikidata": "Q668687", "collection_times": "Mo-Fr 10:00", "name": "USPS COLLECTION BOX - BLUE BOX", "nsi_id": "unitedstatespostalservice-a77078", "operator": "United States Postal Service", "operator:short": "USPS", "operator:type": "public", "operator:wikidata": "Q668687", "ref": "3791200003"}, "type": "Feature"}
{"dataset_attributes": {"@spider": "usps_collection_boxes", "spider:collection_time": "2023-12-10T08:24:07.887270"}, "geometry": {"coordinates": [-83.99021201, 36.006299009], "type": "Point"}, "id": "Lmx19u7evGJka2mM7kl3S-5iFfI=", "properties": {"@spider": "usps_collection_boxes", "addr:city": "KNOXVILLE", "addr:country": "US", "addr:full": "5727 CLINTON HWY", "addr:postcode": "37912", "addr:state": "TN", "amenity": "post_box", "brand": "United States Postal Service", "brand:wikidata": "Q668687", "collection_times": "Mo-Fr 15:45; Sa 14:30", "name": "USPS COLLECTION BOX - BLUE BOX", "note": "ON 12/24 AND 12/31, THIS BOX MAY BE COLLECTED AS EARLY AS 12 NOON.", "nsi_id": "unitedstatespostalservice-a77078", "operator": "United States Postal Service", "operator:short": "USPS", "operator:type": "public", "operator:wikidata": "Q668687", "ref": "3791200004"}, "type": "Feature"}
{"dataset_attributes": {"@spider": "usps_collection_boxes", "spider:collection_time": "2023-12-10T08:24:07.887270"}, "geometry": {"coordinates": [-83.99021201, 36.006299009], "type": "Point"}, "id": "5nBgldpafFAZI2cu-NT9MYOGbdU=", "properties": {"@spider": "usps_collection_boxes", "addr:city": "KNOXVILLE", "addr:country": "US", "addr:full": "5727 CLINTON HWY", "addr:postcode": "37912", "addr:state": "TN", "amenity": "post_box", "brand": "United States Postal Service", "brand:wikidata": "Q668687", "collection_times": "Mo-Fr 15:45; Sa 14:30", "name": "USPS COLLECTION BOX - BLUE BOX", "note": "ON 12/24 AND 12/31, THIS BOX MAY BE COLLECTED AS EARLY AS 12 NOON.", "nsi_id": "unitedstatespostalservice-a77078", "operator": "United States Postal Service", "operator:short": "USPS", "operator:type": "public", "operator:wikidata": "Q668687", "ref": "3791200005"}, "type": "Feature"}
{"dataset_attributes": {"@spider": "usps_collection_boxes", "spider:collection_time": "2023-12-10T08:24:07.887270"}, "geometry": {"coordinates": [-83.973852, 36.001161], "type": "Point"}, "id": "2Nbt0SiH8ygKaao6937NFo3iSPU=", "properties": {"@spider": "usps_collection_boxes", "addr:city": "KNOXVILLE", "addr:country": "US", "addr:full": "4801 CLINTON HWY", "addr:postcode": "37912", "addr:state": "TN", "amenity": "post_box", "brand": "United States Postal Service", "brand:wikidata": "Q668687", "collection_times": "Mo-Sa 10:00", "name": "USPS COLLECTION BOX - BLUE BOX", "nsi_id": "unitedstatespostalservice-a77078", "operator": "United States Postal Service", "operator:short": "USPS", "operator:type": "public", "operator:wikidata": "Q668687", "ref": "3791200008"}, "type": "Feature"}
{"dataset_attributes": {"@spider": "usps_collection_boxes", "spider:collection_time": "2023-12-10T08:24:07.887270"}, "geometry": {"coordinates": [-83.9917681, 36.026298], "type": "Point"}, "id": "bNSGPxeYGTDpTsTC-PVuXD9gc1c=", "properties": {"@spider": "usps_collection_boxes", "addr:city": "KNOXVILLE", "addr:country": "US", "addr:full": "6712 CENTRAL AVENUE PIKE", "addr:postcode": "37912", "addr:state": "TN", "amenity": "post_box", "brand": "United States Postal Service", "brand:wikidata": "Q668687", "collection_times": "Mo-Sa 10:00", "name": "USPS COLLECTION BOX - BLUE BOX", "nsi_id": "unitedstatespostalservice-a77078", "operator": "United States Postal Service", "operator:short": "USPS", "operator:type": "public", "operator:wikidata": "Q668687", "ref": "3791200020"}, "type": "Feature"}
{"dataset_attributes": {"@spider": "usps_collection_boxes", "spider:collection_time": "2023-12-10T08:24:07.887270"}, "geometry": {"coordinates": [-83.99021201, 36.006299009], "type": "Point"}, "id": "q6Y6QsomPjV26sR5FStVtlxAmZo=", "properties": {"@spider": "usps_collection_boxes", "addr:city": "KNOXVILLE", "addr:country": "US", "addr:full": "5727 CLINTON HWY", "addr:postcode": "37912", "addr:state": "TN", "amenity": "post_box", "brand": "United States Postal Service", "brand:wikidata": "Q668687", "collection_times": "Mo-Fr 15:45; Sa 14:30", "name": "USPS COLLECTION BOX - BLUE BOX", "note": "ON 12/24 AND 12/31, THIS BOX MAY BE COLLECTED AS EARLY AS 12 NOON.", "nsi_id": "unitedstatespostalservice-a77078", "operator": "United States Postal Service", "operator:short": "USPS", "operator:type": "public", "operator:wikidata": "Q668687", "ref": "3791200025"}, "type": "Feature"}
{"dataset_attributes": {"@spider": "usps_collection_boxes", "spider:collection_time": "2023-12-10T08:24:07.887270"}, "geometry": {"coordinates": [-83.99021201, 36.006299009], "type": "Point"}, "id": "s3Ccj3Tx4cyOIcCc-9aNt7ZAdqM=", "properties": {"@spider": "usps_collection_boxes", "addr:city": "KNOXVILLE", "addr:country": "US", "addr:full": "5727 CLINTON HWY", "addr:postcode": "37912", "addr:state": "TN", "amenity": "post_box", "brand": "United States Postal Service", "brand:wikidata": "Q668687", "collection_times": "Mo-Fr 17:00; Sa 14:00", "name": "USPS COLLECTION BOX - PO LOBBY", "note": "ON 12/24 AND 12/31, THIS BOX MAY BE COLLECTED AS EARLY AS 12 NOON.", "nsi_id": "unitedstatespostalservice-a77078", "operator": "United States Postal Service", "operator:short": "USPS", "operator:type": "public", "operator:wikidata": "Q668687", "ref": "3791200026"}, "type": "Feature"}
{"dataset_attributes": {"@spider": "usps_collection_boxes", "spider:collection_time": "2023-12-10T08:24:07.887270"}, "geometry": {"coordinates": [-83.99021201, 36.006299009], "type": "Point"}, "id": "NssOLG0dMcSI1Gc4NEKzpd10Se4=", "properties": {"@spider": "usps_collection_boxes", "addr:city": "KNOXVILLE", "addr:country": "US", "addr:full": "5727 CLINTON HWY", "addr:postcode": "37912", "addr:state": "TN", "amenity": "post_box", "brand": "United States Postal Service", "brand:wikidata": "Q668687", "collection_times": "Mo-Fr 17:00; Sa 14:00", "name": "USPS COLLECTION BOX - PO LOBBY", "note": "ON 12/24 AND 12/31, THIS BOX MAY BE COLLECTED AS EARLY AS 12 NOON.", "nsi_id": "unitedstatespostalservice-a77078", "operator": "United States Postal Service", "operator:short": "USPS", "operator:type": "public", "operator:wikidata": "Q668687", "ref": "3791200027"}, "type": "Feature"}
{"dataset_attributes": {"@spider": "usps_collection_boxes", "spider:collection_time": "2023-12-10T08:24:07.887270"}, "geometry": {"coordinates": [-83.99021201, 36.006299009], "type": "Point"}, "id": "faScKq9dPpTy8zyQt85jYrqgWuw=", "properties": {"@spider": "usps_collection_boxes", "addr:city": "KNOXVILLE", "addr:country": "US", "addr:full": "5727 CLINTON HWY", "addr:postcode": "37912", "addr:state": "TN", "amenity": "post_box", "brand": "United States Postal Service", "brand:wikidata": "Q668687", "collection_times": "Mo-Fr 17:00", "name": "USPS COLLECTION BOX - PO LOBBY", "note": "ON 12/24 AND 12/31, THIS BOX MAY BE COLLECTED AS EARLY AS 12 NOON.", "nsi_id": "unitedstatespostalservice-a77078", "operator": "United States Postal Service", "operator:short": "USPS", "operator:type": "public", "operator:wikidata": "Q668687", "ref": "3791200029"}, "type": "Feature"}
{"dataset_attributes": {"@spider": "usps_collection_boxes", "spider:collection_time": "2023-12-10T08:24:07.887270"}, "geometry": {"coordinates": [-83.868717, 36.003451], "type": "Point"}, "id": "Y-neSe6MRmxqeEmZFK4LNg8mrOE=", "properties": {"@spider": "usps_collection_boxes", "addr:city": "KNOXVILLE", "addr:country": "US", "addr:full": "4216 ASHEVILLE HWY", "addr:postcode": "37914", "addr:state": "TN", "amenity": "post_box", "brand": "United States Postal Service", "brand:wikidata": "Q668687", "collection_times": "Mo-Fr 09:30", "name": "USPS COLLECTION BOX - BLUE BOX", "nsi_id": "unitedstatespostalservice-a77078", "operator": "United States Postal Service", "operator:short": "USPS", "operator:type": "public", "operator:wikidata": "Q668687", "ref": "3791400001"}, "type": "Feature"}
{"dataset_attributes": {"@spider": "usps_collection_boxes", "spider:collection_time": "2023-12-10T08:24:07.887270"}, "geometry": {"coordinates": [-83.7703911, 36.022375], "type": "Point"}, "id": "noBg8ViCWWERmyNH1iTGN2UdwfU=", "properties": {"@spider": "usps_collection_boxes", "addr:city": "KNOXVILLE", "addr:country": "US", "addr:full": "7741 ASHEVILLE HWY", "addr:postcode": "37914", "addr:state": "TN", "amenity": "post_box", "brand": "United States Postal Service", "brand:wikidata": "Q668687", "collection_times": "Mo-Fr 09:30", "name": "USPS COLLECTION BOX - BLUE BOX", "nsi_id": "unitedstatespostalservice-a77078", "operator": "United States Postal Service", "operator:short": "USPS", "operator:type": "public", "operator:wikidata": "Q668687", "ref": "3791400005"}, "type": "Feature"}
{"dataset_attributes": {"@spider": "usps_collection_boxes", "spider:collection_time": "2023-12-10T08:24:07.887270"}, "geometry": {"coordinates": [-83.8608854, 36.005141], "type": "Point"}, "id": "GITtN3dmvruA7oH6iSDceLH27dg=", "properties": {"@spider": "usps_collection_boxes", "addr:city": "KNOXVILLE", "addr:country": "US", "addr:full": "300 MACEDONIA LN", "addr:postcode": "37914", "addr:state": "TN", "amenity": "post_box", "brand": "United States Postal Service", "brand:wikidata": "Q668687", "collection_times": "Mo-Fr 16:00; Sa 14:00", "name": "USPS COLLECTION BOX - BLUE BOX", "note": "ON 12/24 AND 12/31, THIS BOX MAY BE COLLECTED AS EARLY AS 12 NOON.", "nsi_id": "unitedstatespostalservice-a77078", "operator": "United States Postal Service", "operator:short": "USPS", "operator:type": "public", "operator:wikidata": "Q668687", "ref": "3791400008"}, "type": "Feature"}
{"dataset_attributes": {"@spider": "usps_collection_boxes", "spider:collection_time": "2023-12-10T08:24:07.887270"}, "geometry": {"coordinates": [-83.8716528, 36.0001823], "type": "Point"}, "id": "9iqGwcyi9z8FGPNuzE4V3eskvtU=", "properties": {"@spider": "usps_collection_boxes", "addr:city": "KNOXVILLE", "addr:country": "US", "addr:full": "300 MACEDONIA LN", "addr:postcode": "37914", "addr:state": "TN", "amenity": "post_box", "brand": "United States Postal Service", "brand:wikidata": "Q668687", "collection_times": "Mo-Fr 16:00; Sa 14:00", "name": "USPS COLLECTION BOX - BLUE BOX", "note": "ON 12/24 AND 12/31, THIS BOX MAY BE COLLECTED AS EARLY AS 12 NOON.", "nsi_id": "unitedstatespostalservice-a77078", "operator": "United States Postal Service", "operator:short": "USPS", "operator:type": "public", "operator:wikidata": "Q668687", "ref": "3791400009"}, "type": "Feature"}
{"dataset_attributes": {"@spider": "usps_collection_boxes", "spider:collection_time": "2023-12-10T08:24:07.887270"}, "geometry": {"coordinates": [-83.8899623, 35.991471], "type": "Point"}, "id": "XOPOgUB6ZY64uSlyQkBWvQRRKKc=", "properties": {"@spider": "usps_collection_boxes", "addr:city": "KNOXVILLE", "addr:country": "US", "addr:full": "2817 E MAGNOLIA AVE", "addr:postcode": "37914", "addr:state": "TN", "amenity": "post_box", "brand": "United States Postal Service", "brand:wikidata": "Q668687", "collection_times": "Mo-Fr 09:45", "name": "USPS COLLECTION BOX - BLUE BOX", "nsi_id": "unitedstatespostalservice-a77078", "operator": "United States Postal Service", "operator:short": "USPS", "operator:type": "public", "operator:wikidata": "Q668687", "ref": "3791400012"}, "type": "Feature"}
{"dataset_attributes": {"@spider": "usps_collection_boxes", "spider:collection_time": "2023-12-10T08:24:07.887270"}, "geometry": {"coordinates": [-83.836583378, 35.951056971], "type": "Point"}, "id": "HANdror6BKyLI3H7vL98SnC87f0=", "properties": {"@spider": "usps_collection_boxes", "addr:city": "KNOXVILLE", "addr:country": "US", "addr:full": "2698 PICKLE LN", "addr:postcode": "37914", "addr:state": "TN", "amenity": "post_box", "brand": "United States Postal Service", "brand:wikidata": "Q668687", "collection_times": "Mo-Fr 09:30", "name": "USPS COLLECTION BOX - BLUE BOX", "nsi_id": "unitedstatespostalservice-a77078", "operator": "United States Postal Service", "operator:short": "USPS", "operator:type": "public", "operator:wikidata": "Q668687", "ref": "3791400019"}, "type": "Feature"}
{"dataset_attributes": {"@spider": "usps_collection_boxes", "spider:collection_time": "2023-12-10T08:24:07.887270"}, "geometry": {"coordinates": [-83.836583378, 35.951056971], "type": "Point"}, "id": "u1NkDUG6V9Xf6_TYqKF8aCaT2t4=", "properties": {"@spider": "usps_collection_boxes", "addr:city": "KNOXVILLE", "addr:country": "US", "addr:full": "2698 PICKLE LN", "addr:postcode": "37914", "addr:state": "TN", "amenity": "post_box", "brand": "United States Postal Service", "brand:wikidata": "Q668687", "collection_times": "Mo-Fr 09:30", "name": "USPS COLLECTION BOX - BLUE BOX", "nsi_id": "unitedstatespostalservice-a77078", "operator": "United States Postal Service", "operator:short": "USPS", "operator:type": "public", "operator:wikidata": "Q668687", "ref": "3791400020"}, "type": "Feature"}
{"dataset_attributes": {"@spider": "usps_collection_boxes", "spider:collection_time": "2023-12-10T08:24:07.887270"}, "geometry": {"coordinates": [-83.7732357, 36.005667], "type": "Point"}, "id": "bK5odYsOzznkzqr2GzHcFPiGLI4=", "properties": {"@spider": "usps_collection_boxes", "addr:city": "KNOXVILLE", "addr:country": "US", "addr:full": "7401 STRAWBERRY PLAINS PIKE", "addr:postcode": "37914", "addr:state": "TN", "amenity": "post_box", "brand": "United States Postal Service", "brand:wikidata": "Q668687", "collection_times": "Mo-Fr 09:30", "name": "USPS COLLECTION BOX - BLUE BOX", "nsi_id": "unitedstatespostalservice-a77078", "operator": "United States Postal Service", "operator:short": "USPS", "operator:type": "public", "operator:wikidata": "Q668687", "ref": "3791400023"}, "type": "Feature"}
{"dataset_attributes": {"@spider": "usps_collection_boxes", "spider:collection_time": "2023-12-10T08:24:07.887270"}, "geometry": {"coordinates": [-83.8603159, 36.005112], "type": "Point"}, "id": "RszR1fRdxCAZeUZg-QsznZw7FnU=", "properties": {"@spider": "usps_collection_boxes", "addr:city": "KNOXVILLE", "addr:country": "US", "addr:full": "300 MACEDONIA LN", "addr:postcode": "37914", "addr:state": "TN", "amenity": "post_box", "brand": "United States Postal Service", "brand:wikidata": "Q668687", "collection_times": "Mo-Fr 17:15; Sa 12:15", "name": "USPS COLLECTION BOX - PO LOBBY", "note": "ON 12/24 AND 12/31, THIS BOX MAY BE COLLECTED AS EARLY AS 12 NOON.", "nsi_id": "unitedstatespostalservice-a77078", "operator": "United States Postal Service", "operator:short": "USPS", "operator:type": "public", "operator:wikidata": "Q668687", "ref": "3791400034"}, "type": "Feature"}
{"dataset_attributes": {"@spider": "usps_collection_boxes", "spider:collection_time": "2023-12-10T08:24:07.887270"}, "geometry": {"coordinates": [-83.8603199, 36.005138], "type": "Point"}, "id": "L9op4Z8ZAExiJjwOmZpxfn8FYb0=", "properties": {"@spider": "usps_collection_boxes", "addr:city": "KNOXVILLE", "addr:country": "US", "addr:full": "300 MACEDONIA LN", "addr:postcode": "37914", "addr:state": "TN", "amenity": "post_box", "brand": "United States Postal Service", "brand:wikidata": "Q668687", "collection_times": "Mo-Fr 17:15; Sa 12:15", "name": "USPS COLLECTION BOX - PO LOBBY", "note": "ON 12/24 AND 12/31, THIS BOX MAY BE COLLECTED AS EARLY AS 12 NOON.", "nsi_id": "unitedstatespostalservice-a77078", "operator": "United States Postal Service", "operator:short": "USPS", "operator:type": "public", "operator:wikidata": "Q668687", "ref": "3791400035"}, "type": "Feature"}
{"dataset_attributes": {"@spider": "usps_collection_boxes", "spider:collection_time": "2023-12-10T08:24:07.887270"}, "geometry": {"coordinates": [-83.9384126, 35.955783], "type": "Point"}, "id": "6jkHk-ba34tFbd1InxmA70EmCb8=", "properties": {"@spider": "usps_collection_boxes", "addr:city": "KNOXVILLE", "addr:country": "US", "addr:full": "2100 W CLINCH AVE", "addr:postcode": "37916", "addr:state": "TN", "amenity": "post_box", "brand": "United States Postal Service", "brand:wikidata": "Q668687", "collection_times": "Mo-Fr 12:00", "name": "USPS COLLECTION BOX - BLUE BOX", "nsi_id": "unitedstatespostalservice-a77078", "operator": "United States Postal Service", "operator:short": "USPS", "operator:type": "public", "operator:wikidata": "Q668687", "ref": "3791600018"}, "type": "Feature"}
{"dataset_attributes": {"@spider": "usps_collection_boxes", "spider:collection_time": "2023-12-10T08:24:07.887270"}, "geometry": {"coordinates": [-83.9261833, 35.952778], "type": "Point"}, "id": "hIs9Fkypvdqf-CSi6je_145W218=", "properties": {"@spider": "usps_collection_boxes", "addr:city": "KNOXVILLE", "addr:country": "US", "addr:full": "1331 CIRCLE PARK DR", "addr:postcode": "37916", "addr:state": "TN", "amenity": "post_box", "brand": "United States Postal Service", "brand:wikidata": "Q668687", "collection_times": "Mo-Fr 13:00", "name": "USPS COLLECTION BOX - BLUE BOX", "note": "ON 12/24 AND 12/31, THIS BOX MAY BE COLLECTED AS EARLY AS 12 NOON.", "nsi_id": "unitedstatespostalservice-a77078", "operator": "United States Postal Service", "operator:short": "USPS", "operator:type": "public", "operator:wikidata": "Q668687", "ref": "3791600021"}, "type": "Feature"}
{"dataset_attributes": {"@spider": "usps_collection_boxes", "spider:collection_time": "2023-12-10T08:24:07.887270"}, "geometry": {"coordinates": [-83.9379105, 35.95717], "type": "Point"}, "id": "hXTlr5608iS6LIM3QbujwyaUuzc=", "properties": {"@spider": "usps_collection_boxes", "addr:city": "KNOXVILLE", "addr:country": "US", "addr:full": "501 20TH ST", "addr:postcode": "37916", "addr:state": "TN", "amenity": "post_box", "brand": "United States Postal Service", "brand:wikidata": "Q668687", "collection_times": "Mo-Fr 12:00", "name": "USPS COLLECTION BOX - BLUE BOX", "nsi_id": "unitedstatespostalservice-a77078", "operator": "United States Postal Service", "operator:short": "USPS", "operator:type": "public", "operator:wikidata": "Q668687", "ref": "3791600023"}, "type": "Feature"}
{"dataset_attributes": {"@spider": "usps_collection_boxes", "spider:collection_time": "2023-12-10T08:24:07.887270"}, "geometry": {"coordinates": [-83.93171, 35.95683], "type": "Point"}, "id": "9q6BTJC5mTkdLuvnpSSYXLbaIO8=", "properties": {"@spider": "usps_collection_boxes", "addr:city": "KNOXVILLE", "addr:country": "US", "addr:full": "1901 W CLINCH AVE", "addr:postcode": "37916", "addr:state": "TN", "amenity": "post_box", "brand": "United States Postal Service", "brand:wikidata": "Q668687", "collection_times": "Mo-Fr 12:15", "name": "USPS COLLECTION BOX - BLUE BOX", "note": "ON 12/24 AND 12/31, THIS BOX MAY BE COLLECTED AS EARLY AS 12 NOON.", "nsi_id": "unitedstatespostalservice-a77078", "operator": "United States Postal Service", "operator:short": "USPS", "operator:type": "public", "operator:wikidata": "Q668687", "ref": "3791600026"}, "type": "Feature"}
{"dataset_attributes": {"@spider": "usps_collection_boxes", "spider:collection_time": "2023-12-10T08:24:07.887270"}, "geometry": {"coordinates": [-83.9260223, 35.962912], "type": "Point"}, "id": "XotDs_RPNR0ik3ZNuSw1T8IcGlw=", "properties": {"@spider": "usps_collection_boxes", "addr:city": "KNOXVILLE", "addr:country": "US", "addr:full": "1050 WORLDS FAIR PARK DR", "addr:postcode": "37916", "addr:state": "TN", "amenity": "post_box", "brand": "United States Postal Service", "brand:wikidata": "Q668687", "collection_times": "Mo-Fr 13:30", "name": "USPS COLLECTION BOX - BLUE BOX", "note": "ON 12/24 AND 12/31, THIS BOX MAY BE COLLECTED AS EARLY AS 12 NOON.", "nsi_id": "unitedstatespostalservice-a77078", "operator": "United States Postal Service", "operator:short": "USPS", "operator:type": "public", "operator:wikidata": "Q668687", "ref": "3791600029"}, "type": "Feature"}
{"dataset_attributes": {"@spider": "usps_collection_boxes", "spider:collection_time": "2023-12-10T08:24:07.887270"}, "geometry": {"coordinates": [-83.8828881, 36.029557], "type": "Point"}, "id": "-2AbkE2BO_jNKCU9zk2znkiFE7M=", "properties": {"@spider": "usps_collection_boxes", "addr:city": "KNOXVILLE", "addr:country": "US", "addr:full": "4710 CENTERLINE DR", "addr:postcode": "37917", "addr:state": "TN", "amenity": "post_box", "brand": "United States Postal Service", "brand:wikidata": "Q668687", "collection_times": "Mo-Sa 10:00", "name": "USPS COLLECTION BOX - BLUE BOX", "nsi_id": "unitedstatespostalservice-a77078", "operator": "United States Postal Service", "operator:short": "USPS", "operator:type": "public", "operator:wikidata": "Q668687", "ref": "3791700034"}, "type": "Feature"}
{"dataset_attributes": {"@spider": "usps_collection_boxes", "spider:collection_time": "2023-12-10T08:24:07.887270"}, "geometry": {"coordinates": [-83.9225769, 36.013096], "type": "Point"}, "id": "ye1mQbszdmoWCst8yVjrRGRhIpc=", "properties": {"@spider": "usps_collection_boxes", "addr:city": "KNOXVILLE", "addr:country": "US", "addr:full": "4434 N BROADWAY ST", "addr:postcode": "37917", "addr:state": "TN", "amenity": "post_box", "brand": "United States Postal Service", "brand:wikidata": "Q668687", "collection_times": "Mo-Sa 10:00", "name": "USPS COLLECTION BOX - BLUE BOX", "nsi_id": "unitedstatespostalservice-a77078", "operator": "United States Postal Service", "operator:short": "USPS", "operator:type": "public", "operator:wikidata": "Q668687", "ref": "3791700035"}, "type": "Feature"}
{"dataset_attributes": {"@spider": "usps_collection_boxes", "spider:collection_time": "2023-12-10T08:24:07.887270"}, "geometry": {"coordinates": [-83.9224244, 35.996119], "type": "Point"}, "id": "buM4-p8InJByX8krwocahaOTa0A=", "properties": {"@spider": "usps_collection_boxes", "addr:city": "KNOXVILLE", "addr:country": "US", "addr:full": "2600 N BROADWAY ST", "addr:postcode": "37917", "addr:state": "TN", "amenity": "post_box", "brand": "United States Postal Service", "brand:wikidata": "Q668687", "collection_times": "Mo-Fr 16:30; Sa 13:15", "name": "USPS COLLECTION BOX - BLUE BOX", "note": "ON 12/24 AND 12/31, THIS BOX MAY BE COLLECTED AS EARLY AS 12 NOON.", "nsi_id": "unitedstatespostalservice-a77078", "operator": "United States Postal Service", "operator:short": "USPS", "operator:type": "public", "operator:wikidata": "Q668687", "ref": "3791700038"}, "type": "Feature"}
{"dataset_attributes": {"@spider": "usps_collection_boxes", "spider:collection_time": "2023-12-10T08:24:07.887270"}, "geometry": {"coordinates": [-83.9224188, 35.996117], "type": "Point"}, "id": "9yNcVKKRaMKegxwonJkmP77lAJU=", "properties": {"@spider": "usps_collection_boxes", "addr:city": "KNOXVILLE", "addr:country": "US", "addr:full": "2600 N BROADWAY ST", "addr:postcode": "37917", "addr:state": "TN", "amenity": "post_box", "brand": "United States Postal Service", "brand:wikidata": "Q668687", "collection_times": "Mo-Fr 16:30; Sa 13:15", "name": "USPS COLLECTION BOX - BLUE BOX", "note": "ON 12/24 AND 12/31, THIS BOX MAY BE COLLECTED AS EARLY AS 12 NOON.", "nsi_id": "unitedstatespostalservice-a77078", "operator": "United States Postal Service", "operator:short": "USPS", "operator:type": "public", "operator:wikidata": "Q668687", "ref": "3791700039"}, "type": "Feature"}
{"dataset_attributes": {"@spider": "usps_collection_boxes", "spider:collection_time": "2023-12-10T08:24:07.887270"}, "geometry": {"coordinates": [-83.9224154, 35.99611], "type": "Point"}, "id": "Xvo09LVPlDATv_a5Q_vb5AKgdsQ=", "properties": {"@spider": "usps_collection_boxes", "addr:city": "KNOXVILLE", "addr:country": "US", "addr:full": "2600 N BROADWAY ST", "addr:postcode": "37917", "addr:state": "TN", "amenity": "post_box", "brand": "United States Postal Service", "brand:wikidata": "Q668687", "collection_times": "Mo-Fr 16:30; Sa 13:15", "name": "USPS COLLECTION BOX - BLUE BOX", "note": "ON 12/24 AND 12/31, THIS BOX MAY BE COLLECTED AS EARLY AS 12 NOON.", "nsi_id": "unitedstatespostalservice-a77078", "operator": "United States Postal Service", "operator:short": "USPS", "operator:type": "public", "operator:wikidata": "Q668687", "ref": "3791700040"}, "type": "Feature"}
{"dataset_attributes": {"@spider": "usps_collection_boxes", "spider:collection_time": "2023-12-10T08:24:07.887270"}, "geometry": {"coordinates": [-83.9217281, 35.99157], "type": "Point"}, "id": "XGrmpUPX3t3zQgiu027HXBYBvGM=", "properties": {"@spider": "usps_collection_boxes", "addr:city": "KNOXVILLE", "addr:country": "US", "addr:full": "2021 N BROADWAY ST", "addr:postcode": "37917", "addr:state": "TN", "amenity": "post_box", "brand": "United States Postal Service", "brand:wikidata": "Q668687", "collection_times": "Mo-Fr 09:30", "name": "USPS COLLECTION BOX - BLUE BOX", "nsi_id": "unitedstatespostalservice-a77078", "operator": "United States Postal Service", "operator:short": "USPS", "operator:type": "public", "operator:wikidata": "Q668687", "ref": "3791700041"}, "type": "Feature"}
{"dataset_attributes": {"@spider": "usps_collection_boxes", "spider:collection_time": "2023-12-10T08:24:07.887270"}, "geometry": {"coordinates": [-83.9226381, 35.983382], "type": "Point"}, "id": "gezBQILpBt-3ZEu5O2UogREEh6g=", "properties": {"@spider": "usps_collection_boxes", "addr:city": "KNOXVILLE", "addr:country": "US", "addr:full": "1127 N BROADWAY ST", "addr:postcode": "37917", "addr:state": "TN", "amenity": "post_box", "brand": "United States Postal Service", "brand:wikidata": "Q668687", "collection_times": "Mo-Fr 10:00", "name": "USPS COLLECTION BOX - BLUE BOX", "nsi_id": "unitedstatespostalservice-a77078", "operator": "United States Postal Service", "operator:short": "USPS", "operator:type": "public", "operator:wikidata": "Q668687", "ref": "3791700053"}, "type": "Feature"}
{"dataset_attributes": {"@spider": "usps_collection_boxes", "spider:collection_time": "2023-12-10T08:24:07.887270"}, "geometry": {"coordinates": [-83.922358, 35.995803], "type": "Point"}, "id": "EkTb_gDis4sseblUzqLpR1Ip0mU=", "properties": {"@spider": "usps_collection_boxes", "addr:city": "KNOXVILLE", "addr:country": "US", "addr:full": "2600 N BROADWAY ST", "addr:postcode": "37917", "addr:state": "TN", "amenity": "post_box", "brand": "United States Postal Service", "brand:wikidata": "Q668687", "collection_times": "Mo-Fr 17:00; Sa 15:00", "name": "USPS COLLECTION BOX - PO LOBBY", "note": "ON 12/24 AND 12/31, THIS BOX MAY BE COLLECTED AS EARLY AS 12 NOON.", "nsi_id": "unitedstatespostalservice-a77078", "operator": "United States Postal Service", "operator:short": "USPS", "operator:type": "public", "operator:wikidata": "Q668687", "ref": "3791700054"}, "type": "Feature"}
{"dataset_attributes": {"@spider": "usps_collection_boxes", "spider:collection_time": "2023-12-10T08:24:07.887270"}, "geometry": {"coordinates": [-83.8828852, 36.029554], "type": "Point"}, "id": "83-U6c1h6o-hkfpYlvldGMAaqoM=", "properties": {"@spider": "usps_collection_boxes", "addr:city": "KNOXVILLE", "addr:country": "US", "addr:full": "4710 CENTERLINE DR", "addr:postcode": "37917", "addr:state": "TN", "amenity": "post_box", "brand": "United States Postal Service", "brand:wikidata": "Q668687", "collection_times": "Mo-Sa 10:00", "name": "USPS COLLECTION BOX - BLUE BOX", "nsi_id": "unitedstatespostalservice-a77078", "operator": "United States Postal Service", "operator:short": "USPS", "operator:type": "public", "operator:wikidata": "Q668687", "ref": "3791700055"}, "type": "Feature"}
{"dataset_attributes": {"@spider": "usps_collection_boxes", "spider:collection_time": "2023-12-10T08:24:07.887270"}, "geometry": {"coordinates": [-83.922358, 35.995803], "type": "Point"}, "id": "nwswC6q2xeCNBHSpSEALm9Ei2fo=", "properties": {"@spider": "usps_collection_boxes", "addr:city": "KNOXVILLE", "addr:country": "US", "addr:full": "2600 N BROADWAY ST", "addr:postcode": "37917", "addr:state": "TN", "amenity": "post_box", "brand": "United States Postal Service", "brand:wikidata": "Q668687", "collection_times": "Mo-Fr 17:00; Sa 15:00", "name": "USPS COLLECTION BOX - PO LOBBY", "note": "ON 12/24 AND 12/31, THIS BOX MAY BE COLLECTED AS EARLY AS 12 NOON.", "nsi_id": "unitedstatespostalservice-a77078", "operator": "United States Postal Service", "operator:short": "USPS", "operator:type": "public", "operator:wikidata": "Q668687", "ref": "3791700056"}, "type": "Feature"}
{"dataset_attributes": {"@spider": "usps_collection_boxes", "spider:collection_time": "2023-12-10T08:24:07.887270"}, "geometry": {"coordinates": [-83.9230515, 36.023691], "type": "Point"}, "id": "p2I3UcuC-CAgKIsJQtLgDmFBfJk=", "properties": {"@spider": "usps_collection_boxes", "addr:city": "KNOXVILLE", "addr:country": "US", "addr:full": "2910 TAZEWELL PIKE", "addr:postcode": "37918", "addr:state": "TN", "amenity": "post_box", "brand": "United States Postal Service", "brand:wikidata": "Q668687", "collection_times": "Mo-Fr 09:45", "name": "USPS COLLECTION BOX - BLUE BOX", "nsi_id": "unitedstatespostalservice-a77078", "operator": "United States Postal Service", "operator:short": "USPS", "operator:type": "public", "operator:wikidata": "Q668687", "ref": "3791800001"}, "type": "Feature"}
{"dataset_attributes": {"@spider": "usps_collection_boxes", "spider:collection_time": "2023-12-10T08:24:07.887270"}, "geometry": {"coordinates": [-83.9278461, 36.076854], "type": "Point"}, "id": "YCSsHYK2eJJrzhHGhSbUs4TCccU=", "properties": {"@spider": "usps_collection_boxes", "addr:city": "KNOXVILLE", "addr:country": "US", "addr:full": "7043 MAYNARDVILLE PIKE", "addr:postcode": "37918", "addr:state": "TN", "amenity": "post_box", "brand": "United States Postal Service", "brand:wikidata": "Q668687", "collection_times": "Mo-Sa 09:45", "name": "USPS COLLECTION BOX - BLUE BOX", "nsi_id": "unitedstatespostalservice-a77078", "operator": "United States Postal Service", "operator:short": "USPS", "operator:type": "public", "operator:wikidata": "Q668687", "ref": "3791800006"}, "type": "Feature"}
{"dataset_attributes": {"@spider": "usps_collection_boxes", "spider:collection_time": "2023-12-10T08:24:07.887270"}, "geometry": {"coordinates": [-83.9278284, 36.07684], "type": "Point"}, "id": "qqMRrRgULnHQW7vV4fpkSzk24uc=", "properties": {"@spider": "usps_collection_boxes", "addr:city": "KNOXVILLE", "addr:country": "US", "addr:full": "7043 MAYNARDVILLE PIKE", "addr:postcode": "37918", "addr:state": "TN", "amenity": "post_box", "brand": "United States Postal Service", "brand:wikidata": "Q668687", "collection_times": "Mo-Sa 09:45", "name": "USPS COLLECTION BOX - BLUE BOX", "nsi_id": "unitedstatespostalservice-a77078", "operator": "United States Postal Service", "operator:short": "USPS", "operator:type": "public", "operator:wikidata": "Q668687", "ref": "3791800007"}, "type": "Feature"}
{"dataset_attributes": {"@spider": "usps_collection_boxes", "spider:collection_time": "2023-12-10T08:24:07.887270"}, "geometry": {"coordinates": [-83.9274349, 36.076555], "type": "Point"}, "id": "E19fYekVupX6amDiF1sqCE8acEM=", "properties": {"@spider": "usps_collection_boxes", "addr:city": "KNOXVILLE", "addr:country": "US", "addr:full": "7018 MAYNARDVILLE PIKE", "addr:postcode": "37918", "addr:state": "TN", "amenity": "post_box", "brand": "United States Postal Service", "brand:wikidata": "Q668687", "collection_times": "Mo-Sa 09:30", "name": "USPS COLLECTION BOX - BLUE BOX", "nsi_id": "unitedstatespostalservice-a77078", "operator": "United States Postal Service", "operator:short": "USPS", "operator:type": "public", "operator:wikidata": "Q668687", "ref": "3791800009"}, "type": "Feature"}
{"dataset_attributes": {"@spider": "usps_collection_boxes", "spider:collection_time": "2023-12-10T08:24:07.887270"}, "geometry": {"coordinates": [-83.930966036, 36.036228019], "type": "Point"}, "id": "oooPwtBsL-zU3U1RkG9L1jWUvDc=", "properties": {"@spider": "usps_collection_boxes", "addr:city": "KNOXVILLE", "addr:country": "US", "addr:full": "131 LYNNWOOD DR", "addr:postcode": "37918", "addr:state": "TN", "amenity": "post_box", "brand": "United States Postal Service", "brand:wikidata": "Q668687", "collection_times": "Mo-Fr 16:45; Sa 13:30", "name": "USPS COLLECTION BOX - BLUE BOX", "note": "ON 12/24 AND 12/31, THIS BOX MAY BE COLLECTED AS EARLY AS 12 NOON.", "nsi_id": "unitedstatespostalservice-a77078", "operator": "United States Postal Service", "operator:short": "USPS", "operator:type": "public", "operator:wikidata": "Q668687", "ref": "3791800014"}, "type": "Feature"}
{"dataset_attributes": {"@spider": "usps_collection_boxes", "spider:collection_time": "2023-12-10T08:24:07.887270"}, "geometry": {"coordinates": [-83.930966036, 36.036228019], "type": "Point"}, "id": "BIxa-Zl-8mBLXOyjlZY9-yndV0c=", "properties": {"@spider": "usps_collection_boxes", "addr:city": "KNOXVILLE", "addr:country": "US", "addr:full": "131 LYNNWOOD DR", "addr:postcode": "37918", "addr:state": "TN", "amenity": "post_box", "brand": "United States Postal Service", "brand:wikidata": "Q668687", "collection_times": "Mo-Fr 16:45; Sa 13:30", "name": "USPS COLLECTION BOX - BLUE BOX", "note": "ON 12/24 AND 12/31, THIS BOX MAY BE COLLECTED AS EARLY AS 12 NOON.", "nsi_id": "unitedstatespostalservice-a77078", "operator": "United States Postal Service", "operator:short": "USPS", "operator:type": "public", "operator:wikidata": "Q668687", "ref": "3791800015"}, "type": "Feature"}
{"dataset_attributes": {"@spider": "usps_collection_boxes", "spider:collection_time": "2023-12-10T08:24:07.887270"}, "geometry": {"coordinates": [-83.9316742, 36.03246], "type": "Point"}, "id": "SNy_dxm4Q59SjtKmX9S9gKOh-N8=", "properties": {"@spider": "usps_collection_boxes", "addr:city": "KNOXVILLE", "addr:country": "US", "addr:full": "5201 N BROADWAY ST", "addr:postcode": "37918", "addr:state": "TN", "amenity": "post_box", "brand": "United States Postal Service", "brand:wikidata": "Q668687", "collection_times": "Mo-Fr 10:00", "name": "USPS COLLECTION BOX - BLUE BOX", "nsi_id": "unitedstatespostalservice-a77078", "operator": "United States Postal Service", "operator:short": "USPS", "operator:type": "public", "operator:wikidata": "Q668687", "ref": "3791800022"}, "type": "Feature"}
{"dataset_attributes": {"@spider": "usps_collection_boxes", "spider:collection_time": "2023-12-10T08:24:07.887270"}, "geometry": {"coordinates": [-83.9230579, 36.023674], "type": "Point"}, "id": "vxwW50ODSB22ZzV9y70IZvcQ-z0=", "properties": {"@spider": "usps_collection_boxes", "addr:city": "KNOXVILLE", "addr:country": "US", "addr:full": "2910 TAZEWELL PIKE", "addr:postcode": "37918", "addr:state": "TN", "amenity": "post_box", "brand": "United States Postal Service", "brand:wikidata": "Q668687", "collection_times": "Mo-Fr 09:45", "name": "USPS COLLECTION BOX - BLUE BOX", "nsi_id": "unitedstatespostalservice-a77078", "operator": "United States Postal Service", "operator:short": "USPS", "operator:type": "public", "operator:wikidata": "Q668687", "ref": "3791800036"}, "type": "Feature"}
{"dataset_attributes": {"@spider": "usps_collection_boxes", "spider:collection_time": "2023-12-10T08:24:07.887270"}, "geometry": {"coordinates": [-83.930966036, 36.036228019], "type": "Point"}, "id": "nhYkRJRMlnpEksBuylaxDYF02Dk=", "properties": {"@spider": "usps_collection_boxes", "addr:city": "KNOXVILLE", "addr:country": "US", "addr:full": "131 LYNNWOOD DR", "addr:postcode": "37918", "addr:state": "TN", "amenity": "post_box", "brand": "United States Postal Service", "brand:wikidata": "Q668687", "collection_times": "Mo-Fr 17:15; Sa 14:30", "name": "USPS COLLECTION BOX - PO LOBBY", "note": "ON 12/24 AND 12/31, THIS BOX MAY BE COLLECTED AS EARLY AS 12 NOON.", "nsi_id": "unitedstatespostalservice-a77078", "operator": "United States Postal Service", "operator:short": "USPS", "operator:type": "public", "operator:wikidata": "Q668687", "ref": "3791800045"}, "type": "Feature"}
{"dataset_attributes": {"@spider": "usps_collection_boxes", "spider:collection_time": "2023-12-10T08:24:07.887270"}, "geometry": {"coordinates": [-83.930966036, 36.036228019], "type": "Point"}, "id": "YaCUUdKxv-ywi3QEk0UzKcqAwTk=", "properties": {"@spider": "usps_collection_boxes", "addr:city": "KNOXVILLE", "addr:country": "US", "addr:full": "131 LYNNWOOD DR", "addr:postcode": "37918", "addr:state": "TN", "amenity": "post_box", "brand": "United States Postal Service", "brand:wikidata": "Q668687", "collection_times": "Mo-Fr 17:15; Sa 14:30", "name": "USPS COLLECTION BOX - PO LOBBY", "note": "ON 12/24 AND 12/31, THIS BOX MAY BE COLLECTED AS EARLY AS 12 NOON.", "nsi_id": "unitedstatespostalservice-a77078", "operator": "United States Postal Service", "operator:short": "USPS", "operator:type": "public", "operator:wikidata": "Q668687", "ref": "3791800046"}, "type": "Feature"}
{"dataset_attributes": {"@spider": "usps_collection_boxes", "spider:collection_time": "2023-12-10T08:24:07.887270"}, "geometry": {"coordinates": [-83.930966036, 36.036228019], "type": "Point"}, "id": "jFnZs9l8oLEUut5i-WhLAEN_Tmo=", "properties": {"@spider": "usps_collection_boxes", "addr:city": "KNOXVILLE", "addr:country": "US", "addr:full": "131 LYNNWOOD DR", "addr:postcode": "37918", "addr:state": "TN", "amenity": "post_box", "brand": "United States Postal Service", "brand:wikidata": "Q668687", "collection_times": "Mo-Fr 17:00", "name": "USPS COLLECTION BOX - PO LOBBY", "note": "ON 12/24 AND 12/31, THIS BOX MAY BE COLLECTED AS EARLY AS 12 NOON.", "nsi_id": "unitedstatespostalservice-a77078", "operator": "United States Postal Service", "operator:short": "USPS", "operator:type": "public", "operator:wikidata": "Q668687", "ref": "3791800050"}, "type": "Feature"}
{"dataset_attributes": {"@spider": "usps_collection_boxes", "spider:collection_time": "2023-12-10T08:24:07.887270"}, "geometry": {"coordinates": [-83.9940778, 35.93638], "type": "Point"}, "id": "IH0X_LWuEWexUEHduW4GDBvF2Ac=", "properties": {"@spider": "usps_collection_boxes", "addr:city": "KNOXVILLE", "addr:country": "US", "addr:full": "4434 SUTHERLAND AVE", "addr:postcode": "37919", "addr:state": "TN", "amenity": "post_box", "brand": "United States Postal Service", "brand:wikidata": "Q668687", "collection_times": "Mo-Fr 16:30; Sa 15:15", "name": "USPS COLLECTION BOX - BLUE BOX", "note": "ON 12/24 AND 12/31, THIS BOX MAY BE COLLECTED AS EARLY AS 12 NOON.", "nsi_id": "unitedstatespostalservice-a77078", "operator": "United States Postal Service", "operator:short": "USPS", "operator:type": "public", "operator:wikidata": "Q668687", "ref": "3791900005"}, "type": "Feature"}
{"dataset_attributes": {"@spider": "usps_collection_boxes", "spider:collection_time": "2023-12-10T08:24:07.887270"}, "geometry": {"coordinates": [-83.9940784, 35.936392], "type": "Point"}, "id": "VWy1X14SgMRQqflptfVVnNi2bEA=", "properties": {"@spider": "usps_collection_boxes", "addr:city": "KNOXVILLE", "addr:country": "US", "addr:full": "4434 SUTHERLAND AVE", "addr:postcode": "37919", "addr:state": "TN", "amenity": "post_box", "brand": "United States Postal Service", "brand:wikidata": "Q668687", "collection_times": "Mo-Fr 16:30; Sa 15:15", "name": "USPS COLLECTION BOX - BLUE BOX", "note": "ON 12/24 AND 12/31, THIS BOX MAY BE COLLECTED AS EARLY AS 12 NOON.", "nsi_id": "unitedstatespostalservice-a77078", "operator": "United States Postal Service", "operator:short": "USPS", "operator:type": "public", "operator:wikidata": "Q668687", "ref": "3791900006"}, "type": "Feature"}
{"dataset_attributes": {"@spider": "usps_collection_boxes", "spider:collection_time": "2023-12-10T08:24:07.887270"}, "geometry": {"coordinates": [-83.9940761, 35.936395], "type": "Point"}, "id": "FH9Ilx7edlXQ02OqP7TyO69xZ_s=", "properties": {"@spider": "usps_collection_boxes", "addr:city": "KNOXVILLE", "addr:country": "US", "addr:full": "4434 SUTHERLAND AVE", "addr:postcode": "37919", "addr:state": "TN", "amenity": "post_box", "brand": "United States Postal Service", "brand:wikidata": "Q668687", "collection_times": "Mo-Fr 16:30; Sa 15:15", "name": "USPS COLLECTION BOX - BLUE BOX", "note": "ON 12/24 AND 12/31, THIS BOX MAY BE COLLECTED AS EARLY AS 12 NOON.", "nsi_id": "unitedstatespostalservice-a77078", "operator": "United States Postal Service", "operator:short": "USPS", "operator:type": "public", "operator:wikidata": "Q668687", "ref": "3791900007"}, "type": "Feature"}
{"dataset_attributes": {"@spider": "usps_collection_boxes", "spider:collection_time": "2023-12-10T08:24:07.887270"}, "geometry": {"coordinates": [-83.9537852, 35.95596], "type": "Point"}, "id": "AlhGpTe0hFCXiJQSorSR5gWU-U8=", "properties": {"@spider": "usps_collection_boxes", "addr:city": "KNOXVILLE", "addr:country": "US", "addr:full": "2408 SUTHERLAND AVE", "addr:postcode": "37919", "addr:state": "TN", "amenity": "post_box", "brand": "United States Postal Service", "brand:wikidata": "Q668687", "collection_times": "Mo-Sa 11:45", "name": "USPS COLLECTION BOX - BLUE BOX", "nsi_id": "unitedstatespostalservice-a77078", "operator": "United States Postal Service", "operator:short": "USPS", "operator:type": "public", "operator:wikidata": "Q668687", "ref": "3791900010"}, "type": "Feature"}
{"dataset_attributes": {"@spider": "usps_collection_boxes", "spider:collection_time": "2023-12-10T08:24:07.887270"}, "geometry": {"coordinates": [-83.9819821, 35.939698], "type": "Point"}, "id": "qPgPegCog3DGKX6XMxLxjuytwh0=", "properties": {"@spider": "usps_collection_boxes", "addr:city": "KNOXVILLE", "addr:country": "US", "addr:full": "4711 OLD KINGSTON PIKE", "addr:postcode": "37919", "addr:state": "TN", "amenity": "post_box", "brand": "United States Postal Service", "brand:wikidata": "Q668687", "collection_times": "Mo-Fr 11:00", "name": "USPS COLLECTION BOX - BLUE BOX", "nsi_id": "unitedstatespostalservice-a77078", "operator": "United States Postal Service", "operator:short": "USPS", "operator:type": "public", "operator:wikidata": "Q668687", "ref": "3791900014"}, "type": "Feature"}
{"dataset_attributes": {"@spider": "usps_collection_boxes", "spider:collection_time": "2023-12-10T08:24:07.887270"}, "geometry": {"coordinates": [-84.0195709, 35.905359], "type": "Point"}, "id": "HvskN8XsODBfsrjkyy-22TvfIws=", "properties": {"@spider": "usps_collection_boxes", "addr:city": "KNOXVILLE", "addr:country": "US", "addr:full": "7505 S NORTHSHORE DR", "addr:postcode": "37919", "addr:state": "TN", "amenity": "post_box", "brand": "United States Postal Service", "brand:wikidata": "Q668687", "collection_times": "Mo-Sa 10:00", "name": "USPS COLLECTION BOX - BLUE BOX", "nsi_id": "unitedstatespostalservice-a77078", "operator": "United States Postal Service", "operator:short": "USPS", "operator:type": "public", "operator:wikidata": "Q668687", "ref": "3791900015"}, "type": "Feature"}
{"dataset_attributes": {"@spider": "usps_collection_boxes", "spider:collection_time": "2023-12-10T08:24:07.887270"}, "geometry": {"coordinates": [-84.0102299, 35.925729], "type": "Point"}, "id": "tuM52YElmeMDlZYzGVIni0ZYk08=", "properties": {"@spider": "usps_collection_boxes", "addr:city": "KNOXVILLE", "addr:country": "US", "addr:full": "322 NANCY LYNN LN", "addr:postcode": "37919", "addr:state": "TN", "amenity": "post_box", "brand": "United States Postal Service", "brand:wikidata": "Q668687", "collection_times": "Mo-Sa 10:30", "name": "USPS COLLECTION BOX - BLUE BOX", "nsi_id": "unitedstatespostalservice-a77078", "operator": "United States Postal Service", "operator:short": "USPS", "operator:type": "public", "operator:wikidata": "Q668687", "ref": "3791900020"}, "type": "Feature"}
{"dataset_attributes": {"@spider": "usps_collection_boxes", "spider:collection_time": "2023-12-10T08:24:07.887270"}, "geometry": {"coordinates": [-84.0102372, 35.925738], "type": "Point"}, "id": "ziYlp-yYMSW5LZWxcw4PJlx7xcA=", "properties": {"@spider": "usps_collection_boxes", "addr:city": "KNOXVILLE", "addr:country": "US", "addr:full": "322 NANCY LYNN LN", "addr:postcode": "37919", "addr:state": "TN", "amenity": "post_box", "brand": "United States Postal Service", "brand:wikidata": "Q668687", "collection_times": "Mo-Sa 10:30", "name": "USPS COLLECTION BOX - BLUE BOX", "nsi_id": "unitedstatespostalservice-a77078", "operator": "United States Postal Service", "operator:short": "USPS", "operator:type": "public", "operator:wikidata": "Q668687", "ref": "3791900021"}, "type": "Feature"}
{"dataset_attributes": {"@spider": "usps_collection_boxes", "spider:collection_time": "2023-12-10T08:24:07.887270"}, "geometry": {"coordinates": [-84.0464657, 35.925987], "type": "Point"}, "id": "6s4F5Cba9Z4G9XLIvksAzJ_gGRg=", "properties": {"@spider": "usps_collection_boxes", "addr:city": "KNOXVILLE", "addr:country": "US", "addr:full": "7923 KINGSTON PIKE", "addr:postcode": "37919", "addr:state": "TN", "amenity": "post_box", "brand": "United States Postal Service", "brand:wikidata": "Q668687", "collection_times": "Mo-Sa 10:00", "name": "USPS COLLECTION BOX - BLUE BOX", "nsi_id": "unitedstatespostalservice-a77078", "operator": "United States Postal Service", "operator:short": "USPS", "operator:type": "public", "operator:wikidata": "Q668687", "ref": "3791900030"}, "type": "Feature"}
{"dataset_attributes": {"@spider": "usps_collection_boxes", "spider:collection_time": "2023-12-10T08:24:07.887270"}, "geometry": {"coordinates": [-84.0309284, 35.929381], "type": "Point"}, "id": "iiF8YIWN-tKesGQlFd9QJndFLs8=", "properties": {"@spider": "usps_collection_boxes", "addr:city": "KNOXVILLE", "addr:country": "US", "addr:full": "7240 KINGSTON PIKE", "addr:postcode": "37919", "addr:state": "TN", "amenity": "post_box", "brand": "United States Postal Service", "brand:wikidata": "Q668687", "collection_times": "Mo-Sa 12:00", "name": "USPS COLLECTION BOX - BLUE BOX", "nsi_id": "unitedstatespostalservice-a77078", "operator": "United States Postal Service", "operator:short": "USPS", "operator:type": "public", "operator:wikidata": "Q668687", "ref": "3791900037"}, "type": "Feature"}
{"dataset_attributes": {"@spider": "usps_collection_boxes", "spider:collection_time": "2023-12-10T08:24:07.887270"}, "geometry": {"coordinates": [-84.0237146, 35.931948], "type": "Point"}, "id": "OZSWYL2nP7kN9AuDCwfyfAnl0m8=", "properties": {"@spider": "usps_collection_boxes", "addr:city": "KNOXVILLE", "addr:country": "US", "addr:full": "7013 KINGSTON PIKE", "addr:postcode": "37919", "addr:state": "TN", "amenity": "post_box", "brand": "United States Postal Service", "brand:wikidata": "Q668687", "collection_times": "Mo-Sa 12:00", "name": "USPS COLLECTION BOX - BLUE BOX", "nsi_id": "unitedstatespostalservice-a77078", "operator": "United States Postal Service", "operator:short": "USPS", "operator:type": "public", "operator:wikidata": "Q668687", "ref": "3791900038"}, "type": "Feature"}
{"dataset_attributes": {"@spider": "usps_collection_boxes", "spider:collection_time": "2023-12-10T08:24:07.887270"}, "geometry": {"coordinates": [-83.9639299, 35.933571], "type": "Point"}, "id": "pfebhJD3VAoR5EN7Jg9PnddZnd8=", "properties": {"@spider": "usps_collection_boxes", "addr:city": "KNOXVILLE", "addr:country": "US", "addr:full": "3708 KEOWEE AVE", "addr:postcode": "37919", "addr:state": "TN", "amenity": "post_box", "brand": "United States Postal Service", "brand:wikidata": "Q668687", "collection_times": "Mo-Sa 11:45", "name": "USPS COLLECTION BOX - BLUE BOX", "nsi_id": "unitedstatespostalservice-a77078", "operator": "United States Postal Service", "operator:short": "USPS", "operator:type": "public", "operator:wikidata": "Q668687", "ref": "3791900048"}, "type": "Feature"}
{"dataset_attributes": {"@spider": "usps_collection_boxes", "spider:collection_time": "2023-12-10T08:24:07.887270"}, "geometry": {"coordinates": [-83.9916052, 35.935877], "type": "Point"}, "id": "dCjkL_h2b6YhmWbslKXp9an73jo=", "properties": {"@spider": "usps_collection_boxes", "addr:city": "KNOXVILLE", "addr:country": "US", "addr:full": "5410 HOMBERG DR", "addr:postcode": "37919", "addr:state": "TN", "amenity": "post_box", "brand": "United States Postal Service", "brand:wikidata": "Q668687", "collection_times": "Mo-Fr 09:30", "name": "USPS COLLECTION BOX - BLUE BOX", "nsi_id": "unitedstatespostalservice-a77078", "operator": "United States Postal Service", "operator:short": "USPS", "operator:type": "public", "operator:wikidata": "Q668687", "ref": "3791900049"}, "type": "Feature"}
{"dataset_attributes": {"@spider": "usps_collection_boxes", "spider:collection_time": "2023-12-10T08:24:07.887270"}, "geometry": {"coordinates": [-84.0513594, 35.9224], "type": "Point"}, "id": "_EvsDK5MEqRPGoa3Ua1rH-qi4YM=", "properties": {"@spider": "usps_collection_boxes", "addr:city": "KNOXVILLE", "addr:country": "US", "addr:full": "1701 DOWNTOWN WEST BLVD", "addr:postcode": "37919", "addr:state": "TN", "amenity": "post_box", "brand": "United States Postal Service", "brand:wikidata": "Q668687", "collection_times": "Mo-Sa 11:00", "name": "USPS COLLECTION BOX - BLUE BOX", "nsi_id": "unitedstatespostalservice-a77078", "operator": "United States Postal Service", "operator:short": "USPS", "operator:type": "public", "operator:wikidata": "Q668687", "ref": "3791900054"}, "type": "Feature"}
{"dataset_attributes": {"@spider": "usps_collection_boxes", "spider:collection_time": "2023-12-10T08:24:07.887270"}, "geometry": {"coordinates": [-84.0513338, 35.922354], "type": "Point"}, "id": "9hrcv5XH8b_6xQZO9bWnZZROWYg=", "properties": {"@spider": "usps_collection_boxes", "addr:city": "KNOXVILLE", "addr:country": "US", "addr:full": "1701 DOWNTOWN WEST BLVD", "addr:postcode": "37919", "addr:state": "TN", "amenity": "post_box", "brand": "United States Postal Service", "brand:wikidata": "Q668687", "collection_times": "Mo-Sa 11:00", "name": "USPS COLLECTION BOX - BLUE BOX", "nsi_id": "unitedstatespostalservice-a77078", "operator": "United States Postal Service", "operator:short": "USPS", "operator:type": "public", "operator:wikidata": "Q668687", "ref": "3791900055"}, "type": "Feature"}
{"dataset_attributes": {"@spider": "usps_collection_boxes", "spider:collection_time": "2023-12-10T08:24:07.887270"}, "geometry": {"coordinates": [-84.0513477, 35.922391], "type": "Point"}, "id": "ITQLrxC7Fs7coxXyTvoP7WE6vIo=", "properties": {"@spider": "usps_collection_boxes", "addr:city": "KNOXVILLE", "addr:country": "US", "addr:full": "1701 DOWNTOWN WEST BLVD", "addr:postcode": "37919", "addr:state": "TN", "amenity": "post_box", "brand": "United States Postal Service", "brand:wikidata": "Q668687", "collection_times": "Mo-Sa 11:00", "name": "USPS COLLECTION BOX - BLUE BOX", "nsi_id": "unitedstatespostalservice-a77078", "operator": "United States Postal Service", "operator:short": "USPS", "operator:type": "public", "operator:wikidata": "Q668687", "ref": "3791900056"}, "type": "Feature"}
{"dataset_attributes": {"@spider": "usps_collection_boxes", "spider:collection_time": "2023-12-10T08:24:07.887270"}, "geometry": {"coordinates": [-84.0065655, 35.937096], "type": "Point"}, "id": "od6Aax4cjwdiOsTBrsPpCcca-HA=", "properties": {"@spider": "usps_collection_boxes", "addr:city": "KNOXVILLE", "addr:country": "US", "addr:full": "6016 BROOKVALE LN", "addr:postcode": "37919", "addr:state": "TN", "amenity": "post_box", "brand": "United States Postal Service", "brand:wikidata": "Q668687", "collection_times": "Mo-Fr 12:00", "name": "USPS COLLECTION BOX - BLUE BOX", "nsi_id": "unitedstatespostalservice-a77078", "operator": "United States Postal Service", "operator:short": "USPS", "operator:type": "public", "operator:wikidata": "Q668687", "ref": "3791900063"}, "type": "Feature"}
{"dataset_attributes": {"@spider": "usps_collection_boxes", "spider:collection_time": "2023-12-10T08:24:07.887270"}, "geometry": {"coordinates": [-84.0209563, 35.905846], "type": "Point"}, "id": "a7OYekhIy0xYxxxmwBCgT-BhWk0=", "properties": {"@spider": "usps_collection_boxes", "addr:city": "KNOXVILLE", "addr:country": "US", "addr:full": "1200 ROCKY HILL RD", "addr:postcode": "37919", "addr:state": "TN", "amenity": "post_box", "brand": "United States Postal Service", "brand:wikidata": "Q668687", "collection_times": "Mo-Fr 09:15", "name": "USPS COLLECTION BOX - BLUE BOX", "nsi_id": "unitedstatespostalservice-a77078", "operator": "United States Postal Service", "operator:short": "USPS", "operator:type": "public", "operator:wikidata": "Q668687", "ref": "3791900068"}, "type": "Feature"}
{"dataset_attributes": {"@spider": "usps_collection_boxes", "spider:collection_time": "2023-12-10T08:24:07.887270"}, "geometry": {"coordinates": [-84.0039895, 35.929324], "type": "Point"}, "id": "Wh9duzRBI0eYxkEsgkVnOqTnREw=", "properties": {"@spider": "usps_collection_boxes", "addr:city": "KNOXVILLE", "addr:country": "US", "addr:full": "6300 BAUM DR", "addr:postcode": "37919", "addr:state": "TN", "amenity": "post_box", "brand": "United States Postal Service", "brand:wikidata": "Q668687", "collection_times": "Mo-Fr 11:00", "name": "USPS COLLECTION BOX - BLUE BOX", "nsi_id": "unitedstatespostalservice-a77078", "operator": "United States Postal Service", "operator:short": "USPS", "operator:type": "public", "operator:wikidata": "Q668687", "ref": "3791900069"}, "type": "Feature"}
{"dataset_attributes": {"@spider": "usps_collection_boxes", "spider:collection_time": "2023-12-10T08:24:07.887270"}, "geometry": {"coordinates": [-84.0040163, 35.929315], "type": "Point"}, "id": "T75QZFLUouZXNjym98pB60Q163g=", "properties": {"@spider": "usps_collection_boxes", "addr:city": "KNOXVILLE", "addr:country": "US", "addr:full": "6300 BAUM DR", "addr:postcode": "37919", "addr:state": "TN", "amenity": "post_box", "brand": "United States Postal Service", "brand:wikidata": "Q668687", "collection_times": "Mo-Fr 11:00", "name": "USPS COLLECTION BOX - BLUE BOX", "nsi_id": "unitedstatespostalservice-a77078", "operator": "United States Postal Service", "operator:short": "USPS", "operator:type": "public", "operator:wikidata": "Q668687", "ref": "3791900070"}, "type": "Feature"}
{"dataset_attributes": {"@spider": "usps_collection_boxes", "spider:collection_time": "2023-12-10T08:24:07.887270"}, "geometry": {"coordinates": [-83.9983535, 35.925175], "type": "Point"}, "id": "_M-5WY3rcTtOdEfW6sax_1xX_4U=", "properties": {"@spider": "usps_collection_boxes", "addr:city": "KNOXVILLE", "addr:country": "US", "addr:full": "813 N SHORE DR", "addr:postcode": "37919", "addr:state": "TN", "amenity": "post_box", "brand": "United States Postal Service", "brand:wikidata": "Q668687", "collection_times": "Mo-Fr 11:00", "name": "USPS COLLECTION BOX - BLUE BOX", "nsi_id": "unitedstatespostalservice-a77078", "operator": "United States Postal Service", "operator:short": "USPS", "operator:type": "public", "operator:wikidata": "Q668687", "ref": "3791900071"}, "type": "Feature"}
{"dataset_attributes": {"@spider": "usps_collection_boxes", "spider:collection_time": "2023-12-10T08:24:07.887270"}, "geometry": {"coordinates": [-84.0448643, 35.927291], "type": "Point"}, "id": "f6HRb29RiCzL6YSx4iL9fE7AxrI=", "properties": {"@spider": "usps_collection_boxes", "addr:city": "KNOXVILLE", "addr:country": "US", "addr:full": "1900 N WINSTON RD", "addr:postcode": "37919", "addr:state": "TN", "amenity": "post_box", "brand": "United States Postal Service", "brand:wikidata": "Q668687", "collection_times": "Mo-Fr 10:30", "name": "USPS COLLECTION BOX - BLUE BOX", "nsi_id": "unitedstatespostalservice-a77078", "operator": "United States Postal Service", "operator:short": "USPS", "operator:type": "public", "operator:wikidata": "Q668687", "ref": "3791900077"}, "type": "Feature"}
{"dataset_attributes": {"@spider": "usps_collection_boxes", "spider:collection_time": "2023-12-10T08:24:07.887270"}, "geometry": {"coordinates": [-84.002250256, 35.931992449], "type": "Point"}, "id": "CTztkLMwBZLBOH_8nr9e4KttKLk=", "properties": {"@spider": "usps_collection_boxes", "addr:city": "KNOXVILLE", "addr:country": "US", "addr:full": "109 S NORTHSHORE DR", "addr:postcode": "37919", "addr:state": "TN", "amenity": "post_box", "brand": "United States Postal Service", "brand:wikidata": "Q668687", "collection_times": "Mo-Fr 13:00", "name": "USPS COLLECTION BOX - BLUE BOX", "note": "ON 12/24 AND 12/31, THIS BOX MAY BE COLLECTED AS EARLY AS 12 NOON.", "nsi_id": "unitedstatespostalservice-a77078", "operator": "United States Postal Service", "operator:short": "USPS", "operator:type": "public", "operator:wikidata": "Q668687", "ref": "3791900078"}, "type": "Feature"}
{"dataset_attributes": {"@spider": "usps_collection_boxes", "spider:collection_time": "2023-12-10T08:24:07.887270"}, "geometry": {"coordinates": [-84.0029779, 35.933636], "type": "Point"}, "id": "0xgWKdBfa82ifFX6Bt7SRC6QHZs=", "properties": {"@spider": "usps_collection_boxes", "addr:city": "KNOXVILLE", "addr:country": "US", "addr:full": "121 NORTHSHORE DR", "addr:postcode": "37919", "addr:state": "TN", "amenity": "post_box", "brand": "United States Postal Service", "brand:wikidata": "Q668687", "collection_times": "Mo-Fr 12:00", "name": "USPS COLLECTION BOX - BLUE BOX", "nsi_id": "unitedstatespostalservice-a77078", "operator": "United States Postal Service", "operator:short": "USPS", "operator:type": "public", "operator:wikidata": "Q668687", "ref": "3791900079"}, "type": "Feature"}
{"dataset_attributes": {"@spider": "usps_collection_boxes", "spider:collection_time": "2023-12-10T08:24:07.887270"}, "geometry": {"coordinates": [-84.0004994, 35.934037], "type": "Point"}, "id": "PTCFMYPsDX-hq8sAF49HCuzrS88=", "properties": {"@spider": "usps_collection_boxes", "addr:city": "KNOXVILLE", "addr:country": "US", "addr:full": "5941 KINGSTON PIKE", "addr:postcode": "37919", "addr:state": "TN", "amenity": "post_box", "brand": "United States Postal Service", "brand:wikidata": "Q668687", "collection_times": "Mo-Fr 13:15", "name": "USPS COLLECTION BOX - BLUE BOX", "note": "ON 12/24 AND 12/31, THIS BOX MAY BE COLLECTED AS EARLY AS 12 NOON.", "nsi_id": "unitedstatespostalservice-a77078", "operator": "United States Postal Service", "operator:short": "USPS", "operator:type": "public", "operator:wikidata": "Q668687", "ref": "3791900080"}, "type": "Feature"}
{"dataset_attributes": {"@spider": "usps_collection_boxes", "spider:collection_time": "2023-12-10T08:24:07.887270"}, "geometry": {"coordinates": [-83.9451899, 35.952582], "type": "Point"}, "id": "l7UYcOSTFnPC8lYyMl5npiqNN0I=", "properties": {"@spider": "usps_collection_boxes", "addr:city": "KNOXVILLE", "addr:country": "US", "addr:full": "2607 KINGSTON PIKE", "addr:postcode": "37919", "addr:state": "TN", "amenity": "post_box", "brand": "United States Postal Service", "brand:wikidata": "Q668687", "collection_times": "Mo-Fr 11:30", "name": "USPS COLLECTION BOX - BLUE BOX", "nsi_id": "unitedstatespostalservice-a77078", "operator": "United States Postal Service", "operator:short": "USPS", "operator:type": "public", "operator:wikidata": "Q668687", "ref": "3791900085"}, "type": "Feature"}
{"dataset_attributes": {"@spider": "usps_collection_boxes", "spider:collection_time": "2023-12-10T08:24:07.887270"}, "geometry": {"coordinates": [-83.993887, 35.936619], "type": "Point"}, "id": "a9C3qg_NP0YOJaTXMaQ-SV843Ww=", "properties": {"@spider": "usps_collection_boxes", "addr:city": "KNOXVILLE", "addr:country": "US", "addr:full": "4434 SUTHERLAND AVE", "addr:postcode": "37919", "addr:state": "TN", "amenity": "post_box", "brand": "United States Postal Service", "brand:wikidata": "Q668687", "collection_times": "Mo-Fr 17:30; Sa 14:00", "name": "USPS COLLECTION BOX - PO LOBBY", "note": "ON 12/24 AND 12/31, THIS BOX MAY BE COLLECTED AS EARLY AS 12 NOON.", "nsi_id": "unitedstatespostalservice-a77078", "operator": "United States Postal Service", "operator:short": "USPS", "operator:type": "public", "operator:wikidata": "Q668687", "ref": "3791900090"}, "type": "Feature"}
{"dataset_attributes": {"@spider": "usps_collection_boxes", "spider:collection_time": "2023-12-10T08:24:07.887270"}, "geometry": {"coordinates": [-83.903612031, 35.936484], "type": "Point"}, "id": "e7P43tDfzNP1tV2FWgb86J5hjrU=", "properties": {"@spider": "usps_collection_boxes", "addr:city": "KNOXVILLE", "addr:country": "US", "addr:full": "137 E YOUNG HIGH PIKE", "addr:postcode": "37920", "addr:state": "TN", "amenity": "post_box", "brand": "United States Postal Service", "brand:wikidata": "Q668687", "collection_times": "Mo-Fr 16:15; Sa 12:15", "name": "USPS COLLECTION BOX - BLUE BOX", "note": "ON 12/24 AND 12/31, THIS BOX MAY BE COLLECTED AS EARLY AS 12 NOON.", "nsi_id": "unitedstatespostalservice-a77078", "operator": "United States Postal Service", "operator:short": "USPS", "operator:type": "public", "operator:wikidata": "Q668687", "ref": "3792000001"}, "type": "Feature"}
{"dataset_attributes": {"@spider": "usps_collection_boxes", "spider:collection_time": "2023-12-10T08:24:07.887270"}, "geometry": {"coordinates": [-83.9099405, 35.957091], "type": "Point"}, "id": "6aK5RT91BUz5csffAV1Ryr-0mGE=", "properties": {"@spider": "usps_collection_boxes", "addr:city": "KNOXVILLE", "addr:country": "US", "addr:full": "614 SEVIER AVE", "addr:postcode": "37920", "addr:state": "TN", "amenity": "post_box", "brand": "United States Postal Service", "brand:wikidata": "Q668687", "collection_times": "Mo-Fr 09:30", "name": "USPS COLLECTION BOX - BLUE BOX", "nsi_id": "unitedstatespostalservice-a77078", "operator": "United States Postal Service", "operator:short": "USPS", "operator:type": "public", "operator:wikidata": "Q668687", "ref": "3792000006"}, "type": "Feature"}
{"dataset_attributes": {"@spider": "usps_collection_boxes", "spider:collection_time": "2023-12-10T08:24:07.887270"}, "geometry": {"coordinates": [-83.9412227, 35.939592], "type": "Point"}, "id": "oravpsnZiTu8AG-TaA449sF_CTY=", "properties": {"@spider": "usps_collection_boxes", "addr:city": "KNOXVILLE", "addr:country": "US", "addr:full": "1521 CHEROKEE TRL", "addr:postcode": "37920", "addr:state": "TN", "amenity": "post_box", "brand": "United States Postal Service", "brand:wikidata": "Q668687", "collection_times": "Mo-Fr 10:00", "name": "USPS COLLECTION BOX - BLUE BOX", "nsi_id": "unitedstatespostalservice-a77078", "operator": "United States Postal Service", "operator:short": "USPS", "operator:type": "public", "operator:wikidata": "Q668687", "ref": "3792000010"}, "type": "Feature"}
{"dataset_attributes": {"@spider": "usps_collection_boxes", "spider:collection_time": "2023-12-10T08:24:07.887270"}, "geometry": {"coordinates": [-84.1865600199, 35.9313109824], "type": "Point"}, "id": "s-WO6yw_eyIAQVs-mrLIangaRZA=", "properties": {"@spider": "usps_collection_boxes", "addr:city": "KNOXVILLE", "addr:country": "US", "addr:full": "11501 HARDIN VALLEY RD", "addr:postcode": "37920", "addr:state": "TN", "amenity": "post_box", "brand": "United States Postal Service", "brand:wikidata": "Q668687", "collection_times": "Mo-Fr 10:00", "name": "USPS COLLECTION BOX - BLUE BOX", "nsi_id": "unitedstatespostalservice-a77078", "operator": "United States Postal Service", "operator:short": "USPS", "operator:type": "public", "operator:wikidata": "Q668687", "ref": "3792000012"}, "type": "Feature"}
{"dataset_attributes": {"@spider": "usps_collection_boxes", "spider:collection_time": "2023-12-10T08:24:07.887270"}, "geometry": {"coordinates": [-83.8494258, 35.909514], "type": "Point"}, "id": "0UfE6hoYkVLZUSI6Abbu2EM9Els=", "properties": {"@spider": "usps_collection_boxes", "addr:city": "KNOXVILLE", "addr:country": "US", "addr:full": "7200 CHAPMAN HWY", "addr:postcode": "37920", "addr:state": "TN", "amenity": "post_box", "brand": "United States Postal Service", "brand:wikidata": "Q668687", "collection_times": "Mo-Fr 10:15", "name": "USPS COLLECTION BOX - BLUE BOX", "nsi_id": "unitedstatespostalservice-a77078", "operator": "United States Postal Service", "operator:short": "USPS", "operator:type": "public", "operator:wikidata": "Q668687", "ref": "3792000014"}, "type": "Feature"}
{"dataset_attributes": {"@spider": "usps_collection_boxes", "spider:collection_time": "2023-12-10T08:24:07.887270"}, "geometry": {"coordinates": [-83.9057127, 35.932405], "type": "Point"}, "id": "Mosqa340D2WbRbWvFll2i9jQ6l8=", "properties": {"@spider": "usps_collection_boxes", "addr:city": "KNOXVILLE", "addr:country": "US", "addr:full": "4409 CHAPMAN HWY", "addr:postcode": "37920", "addr:state": "TN", "amenity": "post_box", "brand": "United States Postal Service", "brand:wikidata": "Q668687", "collection_times": "Mo-Fr 09:30", "name": "USPS COLLECTION BOX - BLUE BOX", "nsi_id": "unitedstatespostalservice-a77078", "operator": "United States Postal Service", "operator:short": "USPS", "operator:type": "public", "operator:wikidata": "Q668687", "ref": "3792000018"}, "type": "Feature"}
{"dataset_attributes": {"@spider": "usps_collection_boxes", "spider:collection_time": "2023-12-10T08:24:07.887270"}, "geometry": {"coordinates": [-83.9444627, 35.939428], "type": "Point"}, "id": "Bo62wOp1pcMETRHQu-DCC56D7n8=", "properties": {"@spider": "usps_collection_boxes", "addr:city": "KNOXVILLE", "addr:country": "US", "addr:full": "1932 ALCOA HWY", "addr:postcode": "37920", "addr:state": "TN", "amenity": "post_box", "brand": "United States Postal Service", "brand:wikidata": "Q668687", "collection_times": "Mo-Fr 10:00", "name": "USPS COLLECTION BOX - BLUE BOX", "nsi_id": "unitedstatespostalservice-a77078", "operator": "United States Postal Service", "operator:short": "USPS", "operator:type": "public", "operator:wikidata": "Q668687", "ref": "3792000026"}, "type": "Feature"}
{"dataset_attributes": {"@spider": "usps_collection_boxes", "spider:collection_time": "2023-12-10T08:24:07.887270"}, "geometry": {"coordinates": [-83.9444114, 35.939371], "type": "Point"}, "id": "GraYhK3wFSpetlaWGb3uHph_V18=", "properties": {"@spider": "usps_collection_boxes", "addr:city": "KNOXVILLE", "addr:country": "US", "addr:full": "1928 ALCOA HWY", "addr:postcode": "37920", "addr:state": "TN", "amenity": "post_box", "brand": "United States Postal Service", "brand:wikidata": "Q668687", "collection_times": "Mo-Fr 10:00", "name": "USPS COLLECTION BOX - BLUE BOX", "nsi_id": "unitedstatespostalservice-a77078", "operator": "United States Postal Service", "operator:short": "USPS", "operator:type": "public", "operator:wikidata": "Q668687", "ref": "3792000027"}, "type": "Feature"}
{"dataset_attributes": {"@spider": "usps_collection_boxes", "spider:collection_time": "2023-12-10T08:24:07.887270"}, "geometry": {"coordinates": [-83.9431335, 35.939641], "type": "Point"}, "id": "5WISQQWhMghEfk4WJF1XgC9xeUQ=", "properties": {"@spider": "usps_collection_boxes", "addr:city": "KNOXVILLE", "addr:country": "US", "addr:full": "1924 ALCOA HWY", "addr:postcode": "37920", "addr:state": "TN", "amenity": "post_box", "brand": "United States Postal Service", "brand:wikidata": "Q668687", "collection_times": "Mo-Fr 10:00", "name": "USPS COLLECTION BOX - BLUE BOX", "nsi_id": "unitedstatespostalservice-a77078", "operator": "United States Postal Service", "operator:short": "USPS", "operator:type": "public", "operator:wikidata": "Q668687", "ref": "3792000028"}, "type": "Feature"}
{"dataset_attributes": {"@spider": "usps_collection_boxes", "spider:collection_time": "2023-12-10T08:24:07.887270"}, "geometry": {"coordinates": [-83.911156526, 35.890505762], "type": "Point"}, "id": "OiWijlyIQK0vjbGsEtkjQIASGKE=", "properties": {"@spider": "usps_collection_boxes", "addr:city": "KNOXVILLE", "addr:country": "US", "addr:full": "2230 W JOHN SEVIER HWY", "addr:postcode": "37920", "addr:state": "TN", "amenity": "post_box", "brand": "United States Postal Service", "brand:wikidata": "Q668687", "collection_times": "Mo-Fr 10:00", "name": "USPS COLLECTION BOX - BLUE BOX", "nsi_id": "unitedstatespostalservice-a77078", "operator": "United States Postal Service", "operator:short": "USPS", "operator:type": "public", "operator:wikidata": "Q668687", "ref": "3792000037"}, "type": "Feature"}
{"dataset_attributes": {"@spider": "usps_collection_boxes", "spider:collection_time": "2023-12-10T08:24:07.887270"}, "geometry": {"coordinates": [-83.8747656, 35.921358], "type": "Point"}, "id": "agjy2HYHHUMTbehwhv3dtm4kBrA=", "properties": {"@spider": "usps_collection_boxes", "addr:city": "KNOXVILLE", "addr:country": "US", "addr:full": "6200 CHAPMAN HWY", "addr:postcode": "37920", "addr:state": "TN", "amenity": "post_box", "brand": "United States Postal Service", "brand:wikidata": "Q668687", "collection_times": "Mo-Fr 10:00", "name": "USPS COLLECTION BOX - BLUE BOX", "nsi_id": "unitedstatespostalservice-a77078", "operator": "United States Postal Service", "operator:short": "USPS", "operator:type": "public", "operator:wikidata": "Q668687", "ref": "3792000038"}, "type": "Feature"}
{"dataset_attributes": {"@spider": "usps_collection_boxes", "spider:collection_time": "2023-12-10T08:24:07.887270"}, "geometry": {"coordinates": [-83.903612031, 35.936484], "type": "Point"}, "id": "MbxDQSVkMHYCnsaJ1yFkpICQZ3o=", "properties": {"@spider": "usps_collection_boxes", "addr:city": "KNOXVILLE", "addr:country": "US", "addr:full": "137 E YOUNG HIGH PIKE", "addr:postcode": "37920", "addr:state": "TN", "amenity": "post_box", "brand": "United States Postal Service", "brand:wikidata": "Q668687", "collection_times": "Mo-Fr 17:00; Sa 15:00", "name": "USPS COLLECTION BOX - PO LOBBY", "note": "ON 12/24 AND 12/31, THIS BOX MAY BE COLLECTED AS EARLY AS 12 NOON.", "nsi_id": "unitedstatespostalservice-a77078", "operator": "United States Postal Service", "operator:short": "USPS", "operator:type": "public", "operator:wikidata": "Q668687", "ref": "3792000039"}, "type": "Feature"}
{"dataset_attributes": {"@spider": "usps_collection_boxes", "spider:collection_time": "2023-12-10T08:24:07.887270"}, "geometry": {"coordinates": [-83.903612031, 35.936484], "type": "Point"}, "id": "v9jPl21MxSHU9bWFN6iJs205e3Q=", "properties": {"@spider": "usps_collection_boxes", "addr:city": "KNOXVILLE", "addr:country": "US", "addr:full": "137 E YOUNG HIGH PIKE", "addr:postcode": "37920", "addr:state": "TN", "amenity": "post_box", "brand": "United States Postal Service", "brand:wikidata": "Q668687", "collection_times": "Mo-Fr 17:00; Sa 15:00", "name": "USPS COLLECTION BOX - PO LOBBY", "note": "ON 12/24 AND 12/31, THIS BOX MAY BE COLLECTED AS EARLY AS 12 NOON.", "nsi_id": "unitedstatespostalservice-a77078", "operator": "United States Postal Service", "operator:short": "USPS", "operator:type": "public", "operator:wikidata": "Q668687", "ref": "3792000040"}, "type": "Feature"}
{"dataset_attributes": {"@spider": "usps_collection_boxes", "spider:collection_time": "2023-12-10T08:24:07.887270"}, "geometry": {"coordinates": [-83.903612031, 35.936484], "type": "Point"}, "id": "-D0-z3nzeRVCoJqSSUGIrHyAilo=", "properties": {"@spider": "usps_collection_boxes", "addr:city": "KNOXVILLE", "addr:country": "US", "addr:full": "137 E YOUNG HIGH PIKE", "addr:postcode": "37920", "addr:state": "TN", "amenity": "post_box", "brand": "United States Postal Service", "brand:wikidata": "Q668687", "collection_times": "Mo-Fr 17:00", "name": "USPS COLLECTION BOX - PO LOBBY", "note": "ON 12/24 AND 12/31, THIS BOX MAY BE COLLECTED AS EARLY AS 12 NOON.", "nsi_id": "unitedstatespostalservice-a77078", "operator": "United States Postal Service", "operator:short": "USPS", "operator:type": "public", "operator:wikidata": "Q668687", "ref": "3792000044"}, "type": "Feature"}
{"dataset_attributes": {"@spider": "usps_collection_boxes", "spider:collection_time": "2023-12-10T08:24:07.887270"}, "geometry": {"coordinates": [-84.0132695, 35.979782], "type": "Point"}, "id": "zX77d5QhhLIw3Z4vmY-d-spu8vM=", "properties": {"@spider": "usps_collection_boxes", "addr:city": "KNOXVILLE", "addr:country": "US", "addr:full": "5705 WESTERN AVE", "addr:postcode": "37921", "addr:state": "TN", "amenity": "post_box", "brand": "United States Postal Service", "brand:wikidata": "Q668687", "collection_times": "Mo-Sa 10:00", "name": "USPS COLLECTION BOX - BLUE BOX", "nsi_id": "unitedstatespostalservice-a77078", "operator": "United States Postal Service", "operator:short": "USPS", "operator:type": "public", "operator:wikidata": "Q668687", "ref": "3792100001"}, "type": "Feature"}
{"dataset_attributes": {"@spider": "usps_collection_boxes", "spider:collection_time": "2023-12-10T08:24:07.887270"}, "geometry": {"coordinates": [-83.987737, 35.971774], "type": "Point"}, "id": "CLZj817zM2og-RzYxHRDFe0gII8=", "properties": {"@spider": "usps_collection_boxes", "addr:city": "KNOXVILLE", "addr:country": "US", "addr:full": "4436 WESTERN AVE", "addr:postcode": "37921", "addr:state": "TN", "amenity": "post_box", "brand": "United States Postal Service", "brand:wikidata": "Q668687", "collection_times": "Mo-Fr 10:00", "name": "USPS COLLECTION BOX - BLUE BOX", "nsi_id": "unitedstatespostalservice-a77078", "operator": "United States Postal Service", "operator:short": "USPS", "operator:type": "public", "operator:wikidata": "Q668687", "ref": "3792100004"}, "type": "Feature"}
{"dataset_attributes": {"@spider": "usps_collection_boxes", "spider:collection_time": "2023-12-10T08:24:07.887270"}, "geometry": {"coordinates": [-83.9722531, 35.976824], "type": "Point"}, "id": "c-YVOSf0DEQQIXl0nOzFAuDo-pA=", "properties": {"@spider": "usps_collection_boxes", "addr:city": "KNOXVILLE", "addr:country": "US", "addr:full": "3601 PLEASANT RIDGE RD", "addr:postcode": "37921", "addr:state": "TN", "amenity": "post_box", "brand": "United States Postal Service", "brand:wikidata": "Q668687", "collection_times": "Mo-Fr 10:00", "name": "USPS COLLECTION BOX - BLUE BOX", "nsi_id": "unitedstatespostalservice-a77078", "operator": "United States Postal Service", "operator:short": "USPS", "operator:type": "public", "operator:wikidata": "Q668687", "ref": "3792100013"}, "type": "Feature"}
{"dataset_attributes": {"@spider": "usps_collection_boxes", "spider:collection_time": "2023-12-10T08:24:07.887270"}, "geometry": {"coordinates": [-83.9562854, 35.963475], "type": "Point"}, "id": "oYySO4LEKg05w6i-SmOxHnbIycU=", "properties": {"@spider": "usps_collection_boxes", "addr:city": "KNOXVILLE", "addr:country": "US", "addr:full": "2700 MIDDLEBROOK PIKE", "addr:postcode": "37921", "addr:state": "TN", "amenity": "post_box", "brand": "United States Postal Service", "brand:wikidata": "Q668687", "collection_times": "Mo-Fr 10:00", "name": "USPS COLLECTION BOX - BLUE BOX", "nsi_id": "unitedstatespostalservice-a77078", "operator": "United States Postal Service", "operator:short": "USPS", "operator:type": "public", "operator:wikidata": "Q668687", "ref": "3792100018"}, "type": "Feature"}
{"dataset_attributes": {"@spider": "usps_collection_boxes", "spider:collection_time": "2023-12-10T08:24:07.887270"}, "geometry": {"coordinates": [-83.9540841, 35.989751], "type": "Point"}, "id": "E8LQozsVEcfhCjrrRy_AEZODFTU=", "properties": {"@spider": "usps_collection_boxes", "addr:city": "KNOXVILLE", "addr:country": "US", "addr:full": "1014 HEISKELL AVE", "addr:postcode": "37921", "addr:state": "TN", "amenity": "post_box", "brand": "United States Postal Service", "brand:wikidata": "Q668687", "collection_times": "Mo-Sa 10:00", "name": "USPS COLLECTION BOX - BLUE BOX", "nsi_id": "unitedstatespostalservice-a77078", "operator": "United States Postal Service", "operator:short": "USPS", "operator:type": "public", "operator:wikidata": "Q668687", "ref": "3792100023"}, "type": "Feature"}
{"dataset_attributes": {"@spider": "usps_collection_boxes", "spider:collection_time": "2023-12-10T08:24:07.887270"}, "geometry": {"coordinates": [-83.9319056, 35.969515], "type": "Point"}, "id": "HFhyqrigI1aWzn3N7tkTQhjNks4=", "properties": {"@spider": "usps_collection_boxes", "addr:city": "KNOXVILLE", "addr:country": "US", "addr:full": "500 ARTHUR ST", "addr:postcode": "37921", "addr:state": "TN", "amenity": "post_box", "brand": "United States Postal Service", "brand:wikidata": "Q668687", "collection_times": "Mo-Fr 10:00", "name": "USPS COLLECTION BOX - BLUE BOX", "nsi_id": "unitedstatespostalservice-a77078", "operator": "United States Postal Service", "operator:short": "USPS", "operator:type": "public", "operator:wikidata": "Q668687", "ref": "3792100031"}, "type": "Feature"}
{"dataset_attributes": {"@spider": "usps_collection_boxes", "spider:collection_time": "2023-12-10T08:24:07.887270"}, "geometry": {"coordinates": [-84.0103757, 35.962039], "type": "Point"}, "id": "pDpS4HXFRilpGlaQgZtC50ka0H4=", "properties": {"@spider": "usps_collection_boxes", "addr:city": "KNOXVILLE", "addr:country": "US", "addr:full": "1700 MIDPARK RD", "addr:postcode": "37921", "addr:state": "TN", "amenity": "post_box", "brand": "United States Postal Service", "brand:wikidata": "Q668687", "collection_times": "Mo-Fr 09:30", "name": "USPS COLLECTION BOX - BLUE BOX", "nsi_id": "unitedstatespostalservice-a77078", "operator": "United States Postal Service", "operator:short": "USPS", "operator:type": "public", "operator:wikidata": "Q668687", "ref": "3792100042"}, "type": "Feature"}
{"dataset_attributes": {"@spider": "usps_collection_boxes", "spider:collection_time": "2023-12-10T08:24:07.887270"}, "geometry": {"coordinates": [-84.0976136, 35.913923], "type": "Point"}, "id": "mt-qyA9244xa6HnuVOa_BtTK0LI=", "properties": {"@spider": "usps_collection_boxes", "addr:city": "KNOXVILLE", "addr:country": "US", "addr:full": "400 N PETERS RD", "addr:postcode": "37922", "addr:state": "TN", "amenity": "post_box", "brand": "United States Postal Service", "brand:wikidata": "Q668687", "collection_times": "Mo-Sa 11:00", "name": "USPS COLLECTION BOX - BLUE BOX", "nsi_id": "unitedstatespostalservice-a77078", "operator": "United States Postal Service", "operator:short": "USPS", "operator:type": "public", "operator:wikidata": "Q668687", "ref": "3792200007"}, "type": "Feature"}
{"dataset_attributes": {"@spider": "usps_collection_boxes", "spider:collection_time": "2023-12-10T08:24:07.887270"}, "geometry": {"coordinates": [-84.0971076, 35.913847], "type": "Point"}, "id": "muro22BRXgIgRykrojMZhz48BeM=", "properties": {"@spider": "usps_collection_boxes", "addr:city": "KNOXVILLE", "addr:country": "US", "addr:full": "400 N PETERS RD", "addr:postcode": "37922", "addr:state": "TN", "amenity": "post_box", "brand": "United States Postal Service", "brand:wikidata": "Q668687", "collection_times": "Mo-Fr 11:00", "name": "USPS COLLECTION BOX - BLUE BOX", "nsi_id": "unitedstatespostalservice-a77078", "operator": "United States Postal Service", "operator:short": "USPS", "operator:type": "public", "operator:wikidata": "Q668687", "ref": "3792200008"}, "type": "Feature"}
{"dataset_attributes": {"@spider": "usps_collection_boxes", "spider:collection_time": "2023-12-10T08:24:07.887270"}, "geometry": {"coordinates": [-84.1262331, 35.901404], "type": "Point"}, "id": "pZ63MuvRwLraVsWwN_--jqeGUX0=", "properties": {"@spider": "usps_collection_boxes", "addr:city": "KNOXVILLE", "addr:country": "US", "addr:full": "10267 KINGSTON PIKE", "addr:postcode": "37922", "addr:state": "TN", "amenity": "post_box", "brand": "United States Postal Service", "brand:wikidata": "Q668687", "collection_times": "Mo-Fr 12:00", "name": "USPS COLLECTION BOX - BLUE BOX", "nsi_id": "unitedstatespostalservice-a77078", "operator": "United States Postal Service", "operator:short": "USPS", "operator:type": "public", "operator:wikidata": "Q668687", "ref": "3792200025"}, "type": "Feature"}
{"dataset_attributes": {"@spider": "usps_collection_boxes", "spider:collection_time": "2023-12-10T08:24:07.887270"}, "geometry": {"coordinates": [-84.1097818, 35.905931], "type": "Point"}, "id": "l9Fpbfn559l3H_CNmADNjX90um4=", "properties": {"@spider": "usps_collection_boxes", "addr:city": "KNOXVILLE", "addr:country": "US", "addr:full": "9700 KINGSTON PIKE", "addr:postcode": "37922", "addr:state": "TN", "amenity": "post_box", "brand": "United States Postal Service", "brand:wikidata": "Q668687", "collection_times": "Mo-Sa 10:00", "name": "USPS COLLECTION BOX - BLUE BOX", "nsi_id": "unitedstatespostalservice-a77078", "operator": "United States Postal Service", "operator:short": "USPS", "operator:type": "public", "operator:wikidata": "Q668687", "ref": "3792200027"}, "type": "Feature"}
{"dataset_attributes": {"@spider": "usps_collection_boxes", "spider:collection_time": "2023-12-10T08:24:07.887270"}, "geometry": {"coordinates": [-84.087974, 35.910937], "type": "Point"}, "id": "cDKVyYPkzlSDWSmzOk83N0r0irc=", "properties": {"@spider": "usps_collection_boxes", "addr:city": "KNOXVILLE", "addr:country": "US", "addr:full": "9200 KINGSTON PIKE", "addr:postcode": "37922", "addr:state": "TN", "amenity": "post_box", "brand": "United States Postal Service", "brand:wikidata": "Q668687", "collection_times": "Mo-Sa 10:00", "name": "USPS COLLECTION BOX - BLUE BOX", "nsi_id": "unitedstatespostalservice-a77078", "operator": "United States Postal Service", "operator:short": "USPS", "operator:type": "public", "operator:wikidata": "Q668687", "ref": "3792200031"}, "type": "Feature"}
{"dataset_attributes": {"@spider": "usps_collection_boxes", "spider:collection_time": "2023-12-10T08:24:07.887270"}, "geometry": {"coordinates": [-84.1323658, 35.894687], "type": "Point"}, "id": "Q4S62kYd9dUJ9nTO0ZvnEC5vm-M=", "properties": {"@spider": "usps_collection_boxes", "addr:city": "KNOXVILLE", "addr:country": "US", "addr:full": "124 HUXLEY RD", "addr:postcode": "37922", "addr:state": "TN", "amenity": "post_box", "brand": "United States Postal Service", "brand:wikidata": "Q668687", "collection_times": "Mo-Fr 16:30; Sa 14:15", "name": "USPS COLLECTION BOX - BLUE BOX", "note": "ON 12/24 AND 12/31, THIS BOX MAY BE COLLECTED AS EARLY AS 12 NOON.", "nsi_id": "unitedstatespostalservice-a77078", "operator": "United States Postal Service", "operator:short": "USPS", "operator:type": "public", "operator:wikidata": "Q668687", "ref": "3792200034"}, "type": "Feature"}
{"dataset_attributes": {"@spider": "usps_collection_boxes", "spider:collection_time": "2023-12-10T08:24:07.887270"}, "geometry": {"coordinates": [-84.1323488, 35.894671], "type": "Point"}, "id": "UVAs3MtsP4doNPtHu3n3hBPvczY=", "properties": {"@spider": "usps_collection_boxes", "addr:city": "KNOXVILLE", "addr:country": "US", "addr:full": "124 HUXLEY RD", "addr:postcode": "37922", "addr:state": "TN", "amenity": "post_box", "brand": "United States Postal Service", "brand:wikidata": "Q668687", "collection_times": "Mo-Fr 16:30; Sa 14:15", "name": "USPS COLLECTION BOX - BLUE BOX", "note": "ON 12/24 AND 12/31, THIS BOX MAY BE COLLECTED AS EARLY AS 12 NOON.", "nsi_id": "unitedstatespostalservice-a77078", "operator": "United States Postal Service", "operator:short": "USPS", "operator:type": "public", "operator:wikidata": "Q668687", "ref": "3792200035"}, "type": "Feature"}
{"dataset_attributes": {"@spider": "usps_collection_boxes", "spider:collection_time": "2023-12-10T08:24:07.887270"}, "geometry": {"coordinates": [-84.1204947, 35.899799], "type": "Point"}, "id": "IQ3pFtVFeeGRj1SqOSiwWp5rrSU=", "properties": {"@spider": "usps_collection_boxes", "addr:city": "KNOXVILLE", "addr:country": "US", "addr:full": "200 FORT SANDERS WEST BLVD", "addr:postcode": "37922", "addr:state": "TN", "amenity": "post_box", "brand": "United States Postal Service", "brand:wikidata": "Q668687", "collection_times": "Mo-Sa 10:30", "name": "USPS COLLECTION BOX - BLUE BOX", "nsi_id": "unitedstatespostalservice-a77078", "operator": "United States Postal Service", "operator:short": "USPS", "operator:type": "public", "operator:wikidata": "Q668687", "ref": "3792200037"}, "type": "Feature"}
{"dataset_attributes": {"@spider": "usps_collection_boxes", "spider:collection_time": "2023-12-10T08:24:07.887270"}, "geometry": {"coordinates": [-84.1258963, 35.899337], "type": "Point"}, "id": "g7hnoSFHqNvgpOFdMNQDb2iqYnk=", "properties": {"@spider": "usps_collection_boxes", "addr:city": "KNOXVILLE", "addr:country": "US", "addr:full": "10404 JACKSON OAKS WAY", "addr:postcode": "37922", "addr:state": "TN", "amenity": "post_box", "brand": "United States Postal Service", "brand:wikidata": "Q668687", "collection_times": "Mo-Fr 10:30", "name": "USPS COLLECTION BOX - BLUE BOX", "nsi_id": "unitedstatespostalservice-a77078", "operator": "United States Postal Service", "operator:short": "USPS", "operator:type": "public", "operator:wikidata": "Q668687", "ref": "3792200039"}, "type": "Feature"}
{"dataset_attributes": {"@spider": "usps_collection_boxes", "spider:collection_time": "2023-12-10T08:24:07.887270"}, "geometry": {"coordinates": [-84.1214386, 35.904988], "type": "Point"}, "id": "8VTl-NjnA_kK8KyKut2SGgrYW4M=", "properties": {"@spider": "usps_collection_boxes", "addr:city": "KNOXVILLE", "addr:country": "US", "addr:full": "301 CENTER PARK DR", "addr:postcode": "37922", "addr:state": "TN", "amenity": "post_box", "brand": "United States Postal Service", "brand:wikidata": "Q668687", "collection_times": "Mo-Sa 10:30", "name": "USPS COLLECTION BOX - BLUE BOX", "nsi_id": "unitedstatespostalservice-a77078", "operator": "United States Postal Service", "operator:short": "USPS", "operator:type": "public", "operator:wikidata": "Q668687", "ref": "3792200040"}, "type": "Feature"}
{"dataset_attributes": {"@spider": "usps_collection_boxes", "spider:collection_time": "2023-12-10T08:24:07.887270"}, "geometry": {"coordinates": [-84.0646799, 35.875977], "type": "Point"}, "id": "8oQ71zaNO1-PSo85bFoqrbL3YtE=", "properties": {"@spider": "usps_collection_boxes", "addr:city": "KNOXVILLE", "addr:country": "US", "addr:full": "1601 EBENEZER RD", "addr:postcode": "37922", "addr:state": "TN", "amenity": "post_box", "brand": "United States Postal Service", "brand:wikidata": "Q668687", "collection_times": "Mo-Fr 10:30", "name": "USPS COLLECTION BOX - BLUE BOX", "nsi_id": "unitedstatespostalservice-a77078", "operator": "United States Postal Service", "operator:short": "USPS", "operator:type": "public", "operator:wikidata": "Q668687", "ref": "3792200045"}, "type": "Feature"}
{"dataset_attributes": {"@spider": "usps_collection_boxes", "spider:collection_time": "2023-12-10T08:24:07.887270"}, "geometry": {"coordinates": [-84.0691864, 35.862155], "type": "Point"}, "id": "XQ0y6tFhbUbOyemxbOBqoE58koU=", "properties": {"@spider": "usps_collection_boxes", "addr:city": "KNOXVILLE", "addr:country": "US", "addr:full": "9501 S NORTHSHORE DR", "addr:postcode": "37922", "addr:state": "TN", "amenity": "post_box", "brand": "United States Postal Service", "brand:wikidata": "Q668687", "collection_times": "Mo-Fr 10:30", "name": "USPS COLLECTION BOX - BLUE BOX", "nsi_id": "unitedstatespostalservice-a77078", "operator": "United States Postal Service", "operator:short": "USPS", "operator:type": "public", "operator:wikidata": "Q668687", "ref": "3792200053"}, "type": "Feature"}
{"dataset_attributes": {"@spider": "usps_collection_boxes", "spider:collection_time": "2023-12-10T08:24:07.887270"}, "geometry": {"coordinates": [-84.1214555, 35.904979], "type": "Point"}, "id": "wVgtpq_CLzKNYreRT19qF0fH3GA=", "properties": {"@spider": "usps_collection_boxes", "addr:city": "KNOXVILLE", "addr:country": "US", "addr:full": "301 CENTER PARK DR", "addr:postcode": "37922", "addr:state": "TN", "amenity": "post_box", "brand": "United States Postal Service", "brand:wikidata": "Q668687", "collection_times": "Mo-Sa 10:30", "name": "USPS COLLECTION BOX - BLUE BOX", "nsi_id": "unitedstatespostalservice-a77078", "operator": "United States Postal Service", "operator:short": "USPS", "operator:type": "public", "operator:wikidata": "Q668687", "ref": "3792200054"}, "type": "Feature"}
{"dataset_attributes": {"@spider": "usps_collection_boxes", "spider:collection_time": "2023-12-10T08:24:07.887270"}, "geometry": {"coordinates": [-84.0718223, 35.894393], "type": "Point"}, "id": "Xd_7PFFtIg5mwuc1L6yWRXOJxzY=", "properties": {"@spider": "usps_collection_boxes", "addr:city": "KNOXVILLE", "addr:country": "US", "addr:full": "8923 LINKSVUE DR", "addr:postcode": "37922", "addr:state": "TN", "amenity": "post_box", "brand": "United States Postal Service", "brand:wikidata": "Q668687", "collection_times": "Mo-Fr 11:30", "name": "USPS COLLECTION BOX - BLUE BOX", "nsi_id": "unitedstatespostalservice-a77078", "operator": "United States Postal Service", "operator:short": "USPS", "operator:type": "public", "operator:wikidata": "Q668687", "ref": "3792200057"}, "type": "Feature"}
{"dataset_attributes": {"@spider": "usps_collection_boxes", "spider:collection_time": "2023-12-10T08:24:07.887270"}, "geometry": {"coordinates": [-84.0786457, 35.913941], "type": "Point"}, "id": "4xEWCxXv4TPRjTQ8nwpLakWRGR4=", "properties": {"@spider": "usps_collection_boxes", "addr:city": "KNOXVILLE", "addr:country": "US", "addr:full": "8870 KINGSTON PIKE", "addr:postcode": "37923", "addr:state": "TN", "amenity": "post_box", "brand": "United States Postal Service", "brand:wikidata": "Q668687", "collection_times": "Mo-Fr 13:00", "name": "USPS COLLECTION BOX - BLUE BOX", "note": "ON 12/24 AND 12/31, THIS BOX MAY BE COLLECTED AS EARLY AS 12 NOON.", "nsi_id": "unitedstatespostalservice-a77078", "operator": "United States Postal Service", "operator:short": "USPS", "operator:type": "public", "operator:wikidata": "Q668687", "ref": "3792300002"}, "type": "Feature"}
{"dataset_attributes": {"@spider": "usps_collection_boxes", "spider:collection_time": "2023-12-10T08:24:07.887270"}, "geometry": {"coordinates": [-84.0847091636, 35.9213210747], "type": "Point"}, "id": "8OMSiSSCI-bo7gtxjY_9JtMGzXU=", "properties": {"@spider": "usps_collection_boxes", "addr:city": "KNOXVILLE", "addr:country": "US", "addr:full": "9051 EXECUTIVE PARK DR", "addr:postcode": "37923", "addr:state": "TN", "amenity": "post_box", "brand": "United States Postal Service", "brand:wikidata": "Q668687", "collection_times": "Mo-Sa 10:00", "name": "USPS COLLECTION BOX - BLUE BOX", "nsi_id": "unitedstatespostalservice-a77078", "operator": "United States Postal Service", "operator:short": "USPS", "operator:type": "public", "operator:wikidata": "Q668687", "ref": "3792300008"}, "type": "Feature"}
{"dataset_attributes": {"@spider": "usps_collection_boxes", "spider:collection_time": "2023-12-10T08:24:07.887270"}, "geometry": {"coordinates": [-84.0809349, 35.923991], "type": "Point"}, "id": "0vofNXCnDqd--taO3CFgxLFa8ko=", "properties": {"@spider": "usps_collection_boxes", "addr:city": "KNOXVILLE", "addr:country": "US", "addr:full": "312 DIRECTORS DR", "addr:postcode": "37923", "addr:state": "TN", "amenity": "post_box", "brand": "United States Postal Service", "brand:wikidata": "Q668687", "collection_times": "Mo-Fr 10:00", "name": "USPS COLLECTION BOX - BLUE BOX", "nsi_id": "unitedstatespostalservice-a77078", "operator": "United States Postal Service", "operator:short": "USPS", "operator:type": "public", "operator:wikidata": "Q668687", "ref": "3792300013"}, "type": "Feature"}
{"dataset_attributes": {"@spider": "usps_collection_boxes", "spider:collection_time": "2023-12-10T08:24:07.887270"}, "geometry": {"coordinates": [-84.0870841, 35.923052], "type": "Point"}, "id": "tMoTDrTwmj-cLskCV9AazhKsNk0=", "properties": {"@spider": "usps_collection_boxes", "addr:city": "KNOXVILLE", "addr:country": "US", "addr:full": "9111 CROSS PARK DR", "addr:postcode": "37923", "addr:state": "TN", "amenity": "post_box", "brand": "United States Postal Service", "brand:wikidata": "Q668687", "collection_times": "Mo-Fr 10:00", "name": "USPS COLLECTION BOX - BLUE BOX", "nsi_id": "unitedstatespostalservice-a77078", "operator": "United States Postal Service", "operator:short": "USPS", "operator:type": "public", "operator:wikidata": "Q668687", "ref": "3792300016"}, "type": "Feature"}
{"dataset_attributes": {"@spider": "usps_collection_boxes", "spider:collection_time": "2023-12-10T08:24:07.887270"}, "geometry": {"coordinates": [-84.0914204, 35.92302], "type": "Point"}, "id": "H2Dn1wXIDDEa0RfT-w-xIkEE6KQ=", "properties": {"@spider": "usps_collection_boxes", "addr:city": "KNOXVILLE", "addr:country": "US", "addr:full": "408 N CEDAR BLUFF RD", "addr:postcode": "37923", "addr:state": "TN", "amenity": "post_box", "brand": "United States Postal Service", "brand:wikidata": "Q668687", "collection_times": "Mo-Fr 11:00", "name": "USPS COLLECTION BOX - BLUE BOX", "nsi_id": "unitedstatespostalservice-a77078", "operator": "United States Postal Service", "operator:short": "USPS", "operator:type": "public", "operator:wikidata": "Q668687", "ref": "3792300021"}, "type": "Feature"}
{"dataset_attributes": {"@spider": "usps_collection_boxes", "spider:collection_time": "2023-12-10T08:24:07.887270"}, "geometry": {"coordinates": [-84.0902499, 35.924362], "type": "Point"}, "id": "QRBii5Rdl4bjkp9nnhf0aB9XpYA=", "properties": {"@spider": "usps_collection_boxes", "addr:city": "KNOXVILLE", "addr:country": "US", "addr:full": "412 N CEDAR BLUFF RD", "addr:postcode": "37923", "addr:state": "TN", "amenity": "post_box", "brand": "United States Postal Service", "brand:wikidata": "Q668687", "collection_times": "Mo-Fr 11:00", "name": "USPS COLLECTION BOX - BLUE BOX", "nsi_id": "unitedstatespostalservice-a77078", "operator": "United States Postal Service", "operator:short": "USPS", "operator:type": "public", "operator:wikidata": "Q668687", "ref": "3792300022"}, "type": "Feature"}
{"dataset_attributes": {"@spider": "usps_collection_boxes", "spider:collection_time": "2023-12-10T08:24:07.887270"}, "geometry": {"coordinates": [-84.0946329, 35.918934], "type": "Point"}, "id": "fAX8b7qtCq09sKGSzkWDhae4DLY=", "properties": {"@spider": "usps_collection_boxes", "addr:city": "KNOXVILLE", "addr:country": "US", "addr:full": "9303 PARK WEST BLVD", "addr:postcode": "37923", "addr:state": "TN", "amenity": "post_box", "brand": "United States Postal Service", "brand:wikidata": "Q668687", "collection_times": "Mo-Sa 10:00", "name": "USPS COLLECTION BOX - BLUE BOX", "nsi_id": "unitedstatespostalservice-a77078", "operator": "United States Postal Service", "operator:short": "USPS", "operator:type": "public", "operator:wikidata": "Q668687", "ref": "3792300028"}, "type": "Feature"}
{"dataset_attributes": {"@spider": "usps_collection_boxes", "spider:collection_time": "2023-12-10T08:24:07.887270"}, "geometry": {"coordinates": [-84.0821594, 35.924262], "type": "Point"}, "id": "PZlGJLD65O2c2v2uAM5vB-_rOlA=", "properties": {"@spider": "usps_collection_boxes", "addr:city": "KNOXVILLE", "addr:country": "US", "addr:full": "9039 CROSS PARK DR", "addr:postcode": "37923", "addr:state": "TN", "amenity": "post_box", "brand": "United States Postal Service", "brand:wikidata": "Q668687", "collection_times": "Mo-Fr 17:30; Sa 14:45", "name": "USPS COLLECTION BOX - BLUE BOX", "note": "ON 12/24 AND 12/31, THIS BOX MAY BE COLLECTED AS EARLY AS 12 NOON.", "nsi_id": "unitedstatespostalservice-a77078", "operator": "United States Postal Service", "operator:short": "USPS", "operator:type": "public", "operator:wikidata": "Q668687", "ref": "3792300033"}, "type": "Feature"}
{"dataset_attributes": {"@spider": "usps_collection_boxes", "spider:collection_time": "2023-12-10T08:24:07.887270"}, "geometry": {"coordinates": [-84.0821579, 35.924263], "type": "Point"}, "id": "ZBiF65n7OvaO-TPAxaVt-ZNxBek=", "properties": {"@spider": "usps_collection_boxes", "addr:city": "KNOXVILLE", "addr:country": "US", "addr:full": "9039 CROSSPARK DR", "addr:postcode": "37923", "addr:state": "TN", "amenity": "post_box", "brand": "United States Postal Service", "brand:wikidata": "Q668687", "collection_times": "Mo-Fr 17:30; Sa 14:45", "name": "USPS COLLECTION BOX - BLUE BOX", "note": "ON 12/24 AND 12/31, THIS BOX MAY BE COLLECTED AS EARLY AS 12 NOON.", "nsi_id": "unitedstatespostalservice-a77078", "operator": "United States Postal Service", "operator:short": "USPS", "operator:type": "public", "operator:wikidata": "Q668687", "ref": "3792300034"}, "type": "Feature"}
{"dataset_attributes": {"@spider": "usps_collection_boxes", "spider:collection_time": "2023-12-10T08:24:07.887270"}, "geometry": {"coordinates": [-84.0939887, 35.942815], "type": "Point"}, "id": "wPeMQTIBHnJ8Nci1682OIN-aZ3g=", "properties": {"@spider": "usps_collection_boxes", "addr:city": "KNOXVILLE", "addr:country": "US", "addr:full": "9161 MIDDLEBROOK PIKE", "addr:postcode": "37923", "addr:state": "TN", "amenity": "post_box", "brand": "United States Postal Service", "brand:wikidata": "Q668687", "collection_times": "Mo-Fr 09:30", "name": "USPS COLLECTION BOX - BLUE BOX", "nsi_id": "unitedstatespostalservice-a77078", "operator": "United States Postal Service", "operator:short": "USPS", "operator:type": "public", "operator:wikidata": "Q668687", "ref": "3792300039"}, "type": "Feature"}
{"dataset_attributes": {"@spider": "usps_collection_boxes", "spider:collection_time": "2023-12-10T08:24:07.887270"}, "geometry": {"coordinates": [-84.082203, 35.923842], "type": "Point"}, "id": "alHguBCJFXbn6RrUt1njPuKg2ds=", "properties": {"@spider": "usps_collection_boxes", "addr:city": "KNOXVILLE", "addr:country": "US", "addr:full": "9039 CROSS PARK DR", "addr:postcode": "37923", "addr:state": "TN", "amenity": "post_box", "brand": "United States Postal Service", "brand:wikidata": "Q668687", "collection_times": "Mo-Fr 18:30; Sa 15:00", "name": "USPS COLLECTION BOX - APC", "note": "ON 12/24 AND 12/31, THIS BOX MAY BE COLLECTED AS EARLY AS 12 NOON.", "nsi_id": "unitedstatespostalservice-a77078", "operator": "United States Postal Service", "operator:short": "USPS", "operator:type": "public", "operator:wikidata": "Q668687", "ref": "3792300047"}, "type": "Feature"}
{"dataset_attributes": {"@spider": "usps_collection_boxes", "spider:collection_time": "2023-12-10T08:24:07.887270"}, "geometry": {"coordinates": [-84.082179, 35.92382], "type": "Point"}, "id": "SKULIhUTS4ltZ4l9cIrAK685nHY=", "properties": {"@spider": "usps_collection_boxes", "addr:city": "KNOXVILLE", "addr:country": "US", "addr:full": "9039 CROSS PARK DR", "addr:postcode": "37923", "addr:state": "TN", "amenity": "post_box", "brand": "United States Postal Service", "brand:wikidata": "Q668687", "collection_times": "Mo-Fr 18:30; Sa 15:00", "name": "USPS COLLECTION BOX - PO LOBBY", "note": "ON 12/24 AND 12/31, THIS BOX MAY BE COLLECTED AS EARLY AS 12 NOON.", "nsi_id": "unitedstatespostalservice-a77078", "operator": "United States Postal Service", "operator:short": "USPS", "operator:type": "public", "operator:wikidata": "Q668687", "ref": "3792300048"}, "type": "Feature"}
{"dataset_attributes": {"@spider": "usps_collection_boxes", "spider:collection_time": "2023-12-10T08:24:07.887270"}, "geometry": {"coordinates": [-84.0585159, 35.928252], "type": "Point"}, "id": "EsPxI9E5QpN1i0ef_9-i_UKySSM=", "properties": {"@spider": "usps_collection_boxes", "addr:city": "KNOXVILLE", "addr:country": "US", "addr:full": "8351 E WALKER SPRINGS LN", "addr:postcode": "37923", "addr:state": "TN", "amenity": "post_box", "brand": "United States Postal Service", "brand:wikidata": "Q668687", "collection_times": "Mo-Fr 10:30", "name": "USPS COLLECTION BOX - BLUE BOX", "nsi_id": "unitedstatespostalservice-a77078", "operator": "United States Postal Service", "operator:short": "USPS", "operator:type": "public", "operator:wikidata": "Q668687", "ref": "3792300049"}, "type": "Feature"}
{"dataset_attributes": {"@spider": "usps_collection_boxes", "spider:collection_time": "2023-12-10T08:24:07.887270"}, "geometry": {"coordinates": [-84.0827199538, 35.9236906401], "type": "Point"}, "id": "Q3UuoQ5Np3awSU1kSg05MpyXTC8=", "properties": {"@spider": "usps_collection_boxes", "addr:city": "KNOXVILLE", "addr:country": "US", "addr:full": "9039 CROSS PARK DR", "addr:postcode": "37923", "addr:state": "TN", "amenity": "post_box", "brand": "United States Postal Service", "brand:wikidata": "Q668687", "collection_times": "Mo-Fr 17:30; Sa 14:45", "name": "USPS COLLECTION BOX - BLUE BOX", "note": "ON 12/24 AND 12/31, THIS BOX MAY BE COLLECTED AS EARLY AS 12 NOON.", "nsi_id": "unitedstatespostalservice-a77078", "operator": "United States Postal Service", "operator:short": "USPS", "operator:type": "public", "operator:wikidata": "Q668687", "ref": "3792300057"}, "type": "Feature"}
{"dataset_attributes": {"@spider": "usps_collection_boxes", "spider:collection_time": "2023-12-10T08:24:07.887270"}, "geometry": {"coordinates": [-84.1169767759, 35.9790696064], "type": "Point"}, "id": "t9xcbVXdpIF2qjCxKl-BBXT0pHI=", "properties": {"@spider": "usps_collection_boxes", "addr:city": "KNOXVILLE", "addr:country": "US", "addr:full": "7821 OAK RIDGE HWY", "addr:postcode": "37931", "addr:state": "TN", "amenity": "post_box", "brand": "United States Postal Service", "brand:wikidata": "Q668687", "collection_times": "Mo-Sa 10:00", "name": "USPS COLLECTION BOX - BLUE BOX", "nsi_id": "unitedstatespostalservice-a77078", "operator": "United States Postal Service", "operator:short": "USPS", "operator:type": "public", "operator:wikidata": "Q668687", "ref": "3793100001"}, "type": "Feature"}
{"dataset_attributes": {"@spider": "usps_collection_boxes", "spider:collection_time": "2023-12-10T08:24:07.887270"}, "geometry": {"coordinates": [-84.101312963, 35.980351989], "type": "Point"}, "id": "nwW9Po8oZZPbu2yYv6N-7l0eASg=", "properties": {"@spider": "usps_collection_boxes", "addr:city": "KNOXVILLE", "addr:country": "US", "addr:full": "7544 OAK RIDGE HWY", "addr:postcode": "37931", "addr:state": "TN", "amenity": "post_box", "brand": "United States Postal Service", "brand:wikidata": "Q668687", "collection_times": "Mo-Fr 15:45; Sa 14:45", "name": "USPS COLLECTION BOX - BLUE BOX", "note": "ON 12/24 AND 12/31, THIS BOX MAY BE COLLECTED AS EARLY AS 12 NOON.", "nsi_id": "unitedstatespostalservice-a77078", "operator": "United States Postal Service", "operator:short": "USPS", "operator:type": "public", "operator:wikidata": "Q668687", "ref": "3793100002"}, "type": "Feature"}
{"dataset_attributes": {"@spider": "usps_collection_boxes", "spider:collection_time": "2023-12-10T08:24:07.887270"}, "geometry": {"coordinates": [-84.0821908, 35.986837], "type": "Point"}, "id": "uUtcsoiaLOBdzaXVt_yFLG1l7rs=", "properties": {"@spider": "usps_collection_boxes", "addr:city": "KNOXVILLE", "addr:country": "US", "addr:full": "7255 OAK RIDGE HWY", "addr:postcode": "37931", "addr:state": "TN", "amenity": "post_box", "brand": "United States Postal Service", "brand:wikidata": "Q668687", "collection_times": "Mo-Sa 09:30", "name": "USPS COLLECTION BOX - BLUE BOX", "nsi_id": "unitedstatespostalservice-a77078", "operator": "United States Postal Service", "operator:short": "USPS", "operator:type": "public", "operator:wikidata": "Q668687", "ref": "3793100004"}, "type": "Feature"}
{"dataset_attributes": {"@spider": "usps_collection_boxes", "spider:collection_time": "2023-12-10T08:24:07.887270"}, "geometry": {"coordinates": [-84.1371419, 35.920776], "type": "Point"}, "id": "hXYXtFNwYpJ3KbYpOarFmmlwtX0=", "properties": {"@spider": "usps_collection_boxes", "addr:city": "KNOXVILLE", "addr:country": "US", "addr:full": "800 INNOVATION DR", "addr:postcode": "37932", "addr:state": "TN", "amenity": "post_box", "brand": "United States Postal Service", "brand:wikidata": "Q668687", "collection_times": "Mo-Fr 11:00", "name": "USPS COLLECTION BOX - BLUE BOX", "nsi_id": "unitedstatespostalservice-a77078", "operator": "United States Postal Service", "operator:short": "USPS", "operator:type": "public", "operator:wikidata": "Q668687", "ref": "3793200001"}, "type": "Feature"}
{"dataset_attributes": {"@spider": "usps_collection_boxes", "spider:collection_time": "2023-12-10T08:24:07.887270"}, "geometry": {"coordinates": [-84.1471466, 35.933], "type": "Point"}, "id": "7AEx07xB5d9brqEDIirRuEzIOTg=", "properties": {"@spider": "usps_collection_boxes", "addr:city": "KNOXVILLE", "addr:country": "US", "addr:full": "1400 CENTERPOINT BLVD", "addr:postcode": "37932", "addr:state": "TN", "amenity": "post_box", "brand": "United States Postal Service", "brand:wikidata": "Q668687", "collection_times": "Mo-Fr 10:00", "name": "USPS COLLECTION BOX - BLUE BOX", "nsi_id": "unitedstatespostalservice-a77078", "operator": "United States Postal Service", "operator:short": "USPS", "operator:type": "public", "operator:wikidata": "Q668687", "ref": "3793200004"}, "type": "Feature"}
{"dataset_attributes": {"@spider": "usps_collection_boxes", "spider:collection_time": "2023-12-10T08:24:07.887270"}, "geometry": {"coordinates": [-84.1275533, 35.917307], "type": "Point"}, "id": "UW0urrhEDESV2gJDel9EZG6viqw=", "properties": {"@spider": "usps_collection_boxes", "addr:city": "KNOXVILLE", "addr:country": "US", "addr:full": "10208 TECHNOLOGY DR", "addr:postcode": "37932", "addr:state": "TN", "amenity": "post_box", "brand": "United States Postal Service", "brand:wikidata": "Q668687", "collection_times": "Mo-Fr 12:00", "name": "USPS COLLECTION BOX - BLUE BOX", "nsi_id": "unitedstatespostalservice-a77078", "operator": "United States Postal Service", "operator:short": "USPS", "operator:type": "public", "operator:wikidata": "Q668687", "ref": "3793200006"}, "type": "Feature"}
{"dataset_attributes": {"@spider": "usps_collection_boxes", "spider:collection_time": "2023-12-10T08:24:07.887270"}, "geometry": {"coordinates": [-84.1522765, 35.907128], "type": "Point"}, "id": "nXu2lYuFYvvJRd2MO72QxRVDrUY=", "properties": {"@spider": "usps_collection_boxes", "addr:city": "KNOXVILLE", "addr:country": "US", "addr:full": "11141 OUTLET DR", "addr:postcode": "37932", "addr:state": "TN", "amenity": "post_box", "brand": "United States Postal Service", "brand:wikidata": "Q668687", "collection_times": "Mo-Fr 10:30", "name": "USPS COLLECTION BOX - BLUE BOX", "nsi_id": "unitedstatespostalservice-a77078", "operator": "United States Postal Service", "operator:short": "USPS", "operator:type": "public", "operator:wikidata": "Q668687", "ref": "3793200008"}, "type": "Feature"}
{"dataset_attributes": {"@spider": "usps_collection_boxes", "spider:collection_time": "2023-12-10T08:24:07.887270"}, "geometry": {"coordinates": [-84.1618708, 35.878615], "type": "Point"}, "id": "kMTzDEdW1bQqVF-Q0-02HeXpsOk=", "properties": {"@spider": "usps_collection_boxes", "addr:city": "KNOXVILLE", "addr:country": "US", "addr:full": "11409 MUNICIPAL CENTER DR", "addr:postcode": "37933", "addr:state": "TN", "amenity": "post_box", "brand": "United States Postal Service", "brand:wikidata": "Q668687", "collection_times": "Mo-Fr 18:00; Sa 14:15", "name": "USPS COLLECTION BOX - BLUE BOX", "note": "ON 12/24 AND 12/31, THIS BOX MAY BE COLLECTED AS EARLY AS 12 NOON.", "nsi_id": "unitedstatespostalservice-a77078", "operator": "United States Postal Service", "operator:short": "USPS", "operator:type": "public", "operator:wikidata": "Q668687", "ref": "3793300001"}, "type": "Feature"}
{"dataset_attributes": {"@spider": "usps_collection_boxes", "spider:collection_time": "2023-12-10T08:24:07.887270"}, "geometry": {"coordinates": [-84.1618599, 35.878611], "type": "Point"}, "id": "tb68L_4Mfae2GNzaiVp4ljDvXrY=", "properties": {"@spider": "usps_collection_boxes", "addr:city": "KNOXVILLE", "addr:country": "US", "addr:full": "11409 MUNICIPAL CENTER DR", "addr:postcode": "37933", "addr:state": "TN", "amenity": "post_box", "brand": "United States Postal Service", "brand:wikidata": "Q668687", "collection_times": "Mo-Fr 18:00; Sa 14:15", "name": "USPS COLLECTION BOX - BLUE BOX", "note": "ON 12/24 AND 12/31, THIS BOX MAY BE COLLECTED AS EARLY AS 12 NOON.", "nsi_id": "unitedstatespostalservice-a77078", "operator": "United States Postal Service", "operator:short": "USPS", "operator:type": "public", "operator:wikidata": "Q668687", "ref": "3793300002"}, "type": "Feature"}
{"dataset_attributes": {"@spider": "usps_collection_boxes", "spider:collection_time": "2023-12-10T08:24:07.887270"}, "geometry": {"coordinates": [-84.1639105, 35.880951], "type": "Point"}, "id": "Kijvbfw6o8noB9KldZR4AaAUNXA=", "properties": {"@spider": "usps_collection_boxes", "addr:city": "KNOXVILLE", "addr:country": "US", "addr:full": "11501 KINGSTON PIKE", "addr:postcode": "37933", "addr:state": "TN", "amenity": "post_box", "brand": "United States Postal Service", "brand:wikidata": "Q668687", "collection_times": "Mo-Fr 10:30", "name": "USPS COLLECTION BOX - BLUE BOX", "nsi_id": "unitedstatespostalservice-a77078", "operator": "United States Postal Service", "operator:short": "USPS", "operator:type": "public", "operator:wikidata": "Q668687", "ref": "3793300004"}, "type": "Feature"}
{"dataset_attributes": {"@spider": "usps_collection_boxes", "spider:collection_time": "2023-12-10T08:24:07.887270"}, "geometry": {"coordinates": [-84.1622104, 35.880201], "type": "Point"}, "id": "1jJVFJYOQnBedGhFxcPizfpdXe4=", "properties": {"@spider": "usps_collection_boxes", "addr:city": "KNOXVILLE", "addr:country": "US", "addr:full": "11420 KINGSTON PIKE", "addr:postcode": "37933", "addr:state": "TN", "amenity": "post_box", "brand": "United States Postal Service", "brand:wikidata": "Q668687", "collection_times": "Mo-Fr 10:30", "name": "USPS COLLECTION BOX - BLUE BOX", "nsi_id": "unitedstatespostalservice-a77078", "operator": "United States Postal Service", "operator:short": "USPS", "operator:type": "public", "operator:wikidata": "Q668687", "ref": "3793300005"}, "type": "Feature"}
{"dataset_attributes": {"@spider": "usps_collection_boxes", "spider:collection_time": "2023-12-10T08:24:07.887270"}, "geometry": {"coordinates": [-84.1548684, 35.886272], "type": "Point"}, "id": "K4UHnCTkpUojlIwitdPt2kkP3-M=", "properties": {"@spider": "usps_collection_boxes", "addr:city": "KNOXVILLE", "addr:country": "US", "addr:full": "126 W END AVE", "addr:postcode": "37933", "addr:state": "TN", "amenity": "post_box", "brand": "United States Postal Service", "brand:wikidata": "Q668687", "collection_times": "Mo-Fr 10:30", "name": "USPS COLLECTION BOX - BLUE BOX", "nsi_id": "unitedstatespostalservice-a77078", "operator": "United States Postal Service", "operator:short": "USPS", "operator:type": "public", "operator:wikidata": "Q668687", "ref": "3793300007"}, "type": "Feature"}
{"dataset_attributes": {"@spider": "usps_collection_boxes", "spider:collection_time": "2023-12-10T08:24:07.887270"}, "geometry": {"coordinates": [-84.1621499901, 35.8790869899], "type": "Point"}, "id": "SESW9PE5wgKISjOCIKNApungn84=", "properties": {"@spider": "usps_collection_boxes", "addr:city": "KNOXVILLE", "addr:country": "US", "addr:full": "11409 MUNICIPAL CENTER DR", "addr:postcode": "37933", "addr:state": "TN", "amenity": "post_box", "brand": "United States Postal Service", "brand:wikidata": "Q668687", "collection_times": "Mo-Fr 18:00; Sa 14:15", "name": "USPS COLLECTION BOX - BLUE BOX", "note": "ON 12/24 AND 12/31, THIS BOX MAY BE COLLECTED AS EARLY AS 12 NOON.", "nsi_id": "unitedstatespostalservice-a77078", "operator": "United States Postal Service", "operator:short": "USPS", "operator:type": "public", "operator:wikidata": "Q668687", "ref": "3793300008"}, "type": "Feature"}
{"dataset_attributes": {"@spider": "usps_collection_boxes", "spider:collection_time": "2023-12-10T08:24:07.887270"}, "geometry": {"coordinates": [-84.161632, 35.878567], "type": "Point"}, "id": "etKGTEtWxl3lkSK_XKvw4kRJ9uo=", "properties": {"@spider": "usps_collection_boxes", "addr:city": "KNOXVILLE", "addr:country": "US", "addr:full": "11409 MUNICIPAL CENTER DR", "addr:postcode": "37933", "addr:state": "TN", "amenity": "post_box", "brand": "United States Postal Service", "brand:wikidata": "Q668687", "collection_times": "Mo-Fr 18:00; Sa 14:15", "name": "USPS COLLECTION BOX - APC", "note": "ON 12/24 AND 12/31, THIS BOX MAY BE COLLECTED AS EARLY AS 12 NOON.", "nsi_id": "unitedstatespostalservice-a77078", "operator": "United States Postal Service", "operator:short": "USPS", "operator:type": "public", "operator:wikidata": "Q668687", "ref": "3793300009"}, "type": "Feature"}
{"dataset_attributes": {"@spider": "usps_collection_boxes", "spider:collection_time": "2023-12-10T08:24:07.887270"}, "geometry": {"coordinates": [-84.161632, 35.878567], "type": "Point"}, "id": "bpNOy7fp0D1N8OpSwaBecKr0fPg=", "properties": {"@spider": "usps_collection_boxes", "addr:city": "KNOXVILLE", "addr:country": "US", "addr:full": "11409 MUNICIPAL CENTER DR", "addr:postcode": "37933", "addr:state": "TN", "amenity": "post_box", "brand": "United States Postal Service", "brand:wikidata": "Q668687", "collection_times": "Mo-Fr 18:00; Sa 14:15", "name": "USPS COLLECTION BOX - PO LOBBY", "note": "ON 12/24 AND 12/31, THIS BOX MAY BE COLLECTED AS EARLY AS 12 NOON.", "nsi_id": "unitedstatespostalservice-a77078", "operator": "United States Postal Service", "operator:short": "USPS", "operator:type": "public", "operator:wikidata": "Q668687", "ref": "3793300010"}, "type": "Feature"}
{"dataset_attributes": {"@spider": "usps_collection_boxes", "spider:collection_time": "2023-12-10T08:24:07.887270"}, "geometry": {"coordinates": [-84.1597058, 35.899167], "type": "Point"}, "id": "0KPCqqem6pOtUzqN7tMpSLEVXlM=", "properties": {"@spider": "usps_collection_boxes", "addr:city": "KNOXVILLE", "addr:country": "US", "addr:full": "11370 PARKSIDE DR", "addr:postcode": "37933", "addr:state": "TN", "amenity": "post_box", "brand": "United States Postal Service", "brand:wikidata": "Q668687", "collection_times": "Mo-Fr 11:30", "name": "USPS COLLECTION BOX - BLUE BOX", "nsi_id": "unitedstatespostalservice-a77078", "operator": "United States Postal Service", "operator:short": "USPS", "operator:type": "public", "operator:wikidata": "Q668687", "ref": "3793300011"}, "type": "Feature"}
{"dataset_attributes": {"@spider": "usps_collection_boxes", "spider:collection_time": "2023-12-10T08:24:07.887270"}, "geometry": {"coordinates": [-84.161632, 35.878567], "type": "Point"}, "id": "bhsyX9VeNu-ZNctdfx5GPTArW0A=", "properties": {"@spider": "usps_collection_boxes", "addr:city": "KNOXVILLE", "addr:country": "US", "addr:full": "11409 MUNICIPAL CENTER DR", "addr:postcode": "37933", "addr:state": "TN", "amenity": "post_box", "brand": "United States Postal Service", "brand:wikidata": "Q668687", "collection_times": "Mo-Fr 18:00; Sa 14:15", "name": "USPS COLLECTION BOX - PO LOBBY", "note": "ON 12/24 AND 12/31, THIS BOX MAY BE COLLECTED AS EARLY AS 12 NOON.", "nsi_id": "unitedstatespostalservice-a77078", "operator": "United States Postal Service", "operator:short": "USPS", "operator:type": "public", "operator:wikidata": "Q668687", "ref": "3793300012"}, "type": "Feature"}
{"dataset_attributes": {"@spider": "usps_collection_boxes", "spider:collection_time": "2023-12-10T08:24:07.887270"}, "geometry": {"coordinates": [-83.9223835, 36.088667], "type": "Point"}, "id": "j1LsAYqPGAu7Xf3YaZ5BAVuqRxc=", "properties": {"@spider": "usps_collection_boxes", "addr:city": "KNOXVILLE", "addr:country": "US", "addr:full": "7450 MAYNARDVILLE PIKE", "addr:postcode": "37938", "addr:state": "TN", "amenity": "post_box", "brand": "United States Postal Service", "brand:wikidata": "Q668687", "collection_times": "Mo-Fr 16:30; Sa 13:45", "name": "USPS COLLECTION BOX - BLUE BOX", "note": "ON 12/24 AND 12/31, THIS BOX MAY BE COLLECTED AS EARLY AS 12 NOON.", "nsi_id": "unitedstatespostalservice-a77078", "operator": "United States Postal Service", "operator:short": "USPS", "operator:type": "public", "operator:wikidata": "Q668687", "ref": "3793800002"}, "type": "Feature"}
{"dataset_attributes": {"@spider": "usps_collection_boxes", "spider:collection_time": "2023-12-10T08:24:07.887270"}, "geometry": {"coordinates": [-83.92347, 36.088104], "type": "Point"}, "id": "O_Z_vr8-okPSx1nrHwz9f-0gIxo=", "properties": {"@spider": "usps_collection_boxes", "addr:city": "KNOXVILLE", "addr:country": "US", "addr:full": "7450 MAYNARDVILLE PIKE", "addr:postcode": "37938", "addr:state": "TN", "amenity": "post_box", "brand": "United States Postal Service", "brand:wikidata": "Q668687", "collection_times": "Mo-Fr 17:00; Sa 14:00", "name": "USPS COLLECTION BOX - PO LOBBY", "note": "ON 12/24 AND 12/31, THIS BOX MAY BE COLLECTED AS EARLY AS 12 NOON.", "nsi_id": "unitedstatespostalservice-a77078", "operator": "United States Postal Service", "operator:short": "USPS", "operator:type": "public", "operator:wikidata": "Q668687", "ref": "3793800003"}, "type": "Feature"}
{"dataset_attributes": {"@spider": "usps_collection_boxes", "spider:collection_time": "2023-12-10T08:24:07.887270"}, "geometry": {"coordinates": [-83.92347, 36.088104], "type": "Point"}, "id": "hmrxhPacplwWo_F_D3R1o6kwYoA=", "properties": {"@spider": "usps_collection_boxes", "addr:city": "KNOXVILLE", "addr:country": "US", "addr:full": "7450 MAYNARDVILLE PIKE", "addr:postcode": "37938", "addr:state": "TN", "amenity": "post_box", "brand": "United States Postal Service", "brand:wikidata": "Q668687", "collection_times": "Mo-Fr 17:00; Sa 14:00", "name": "USPS COLLECTION BOX - PO LOBBY", "note": "ON 12/24 AND 12/31, THIS BOX MAY BE COLLECTED AS EARLY AS 12 NOON.", "nsi_id": "unitedstatespostalservice-a77078", "operator": "United States Postal Service", "operator:short": "USPS", "operator:type": "public", "operator:wikidata": "Q668687", "ref": "3793800004"}, "type": "Feature"}
{"dataset_attributes": {"@spider": "usps_collection_boxes", "spider:collection_time": "2023-12-10T08:24:07.887270"}, "geometry": {"coordinates": [-83.9223864, 36.088636], "type": "Point"}, "id": "EZmRD3SIm0iCoKPTvgzEE3BwbqU=", "properties": {"@spider": "usps_collection_boxes", "addr:city": "KNOXVILLE", "addr:country": "US", "addr:full": "7450 MAYNARDVILLE PIKE", "addr:postcode": "37938", "addr:state": "TN", "amenity": "post_box", "brand": "United States Postal Service", "brand:wikidata": "Q668687", "collection_times": "Mo-Fr 16:30; Sa 13:45", "name": "USPS COLLECTION BOX - BLUE BOX", "note": "ON 12/24 AND 12/31, THIS BOX MAY BE COLLECTED AS EARLY AS 12 NOON.", "nsi_id": "unitedstatespostalservice-a77078", "operator": "United States Postal Service", "operator:short": "USPS", "operator:type": "public", "operator:wikidata": "Q668687", "ref": "3793800005"}, "type": "Feature"}
{"dataset_attributes": {"@spider": "usps_collection_boxes", "spider:collection_time": "2023-12-10T08:24:07.887270"}, "geometry": {"coordinates": [-83.9224820416, 36.0882179887], "type": "Point"}, "id": "TuCDLaGw0YZsq-sTuu4yckjX8Ms=", "properties": {"@spider": "usps_collection_boxes", "addr:city": "KNOXVILLE", "addr:country": "US", "addr:full": "7450 MAYNARDVILLE PIKE", "addr:postcode": "37938", "addr:state": "TN", "amenity": "post_box", "brand": "United States Postal Service", "brand:wikidata": "Q668687", "collection_times": "Mo-Fr 17:00", "name": "USPS COLLECTION BOX - PO LOBBY", "note": "ON 12/24 AND 12/31, THIS BOX MAY BE COLLECTED AS EARLY AS 12 NOON.", "nsi_id": "unitedstatespostalservice-a77078", "operator": "United States Postal Service", "operator:short": "USPS", "operator:type": "public", "operator:wikidata": "Q668687", "ref": "3793800008"}, "type": "Feature"}
{"dataset_attributes": {"@spider": "usps_collection_boxes", "spider:collection_time": "2023-12-10T08:24:07.887270"}, "geometry": {"coordinates": [-84.0138299, 35.949555], "type": "Point"}, "id": "soX_iWrZLc-xECiWWjVCDuMGwbk=", "properties": {"@spider": "usps_collection_boxes", "addr:city": "KNOXVILLE", "addr:country": "US", "addr:full": "1237 E WEISGARBER RD", "addr:postcode": "37950", "addr:state": "TN", "amenity": "post_box", "brand": "United States Postal Service", "brand:wikidata": "Q668687", "collection_times": "Mo-Fr 19:00; Sa 18:00", "name": "USPS COLLECTION BOX - BLUE BOX", "note": "ON 12/24 AND 12/31, THIS BOX MAY BE COLLECTED AS EARLY AS 12 NOON.", "nsi_id": "unitedstatespostalservice-a77078", "operator": "United States Postal Service", "operator:short": "USPS", "operator:type": "public", "operator:wikidata": "Q668687", "ref": "3795000000"}, "type": "Feature"}
{"dataset_attributes": {"@spider": "usps_collection_boxes", "spider:collection_time": "2023-12-10T08:24:07.887270"}, "geometry": {"coordinates": [-84.0146085, 35.949329], "type": "Point"}, "id": "5fggHlo9uW5v0ROOIrlHBB_o_EA=", "properties": {"@spider": "usps_collection_boxes", "addr:city": "KNOXVILLE", "addr:country": "US", "addr:full": "1237 E WEISGARBER RD", "addr:postcode": "37950", "addr:state": "TN", "amenity": "post_box", "brand": "United States Postal Service", "brand:wikidata": "Q668687", "collection_times": "Mo-Fr 19:00; Sa 18:00", "name": "USPS COLLECTION BOX - PO LOBBY", "note": "ON 12/24 AND 12/31, THIS BOX MAY BE COLLECTED AS EARLY AS 12 NOON.", "nsi_id": "unitedstatespostalservice-a77078", "operator": "United States Postal Service", "operator:short": "USPS", "operator:type": "public", "operator:wikidata": "Q668687", "ref": "3795000003"}, "type": "Feature"}
{"dataset_attributes": {"@spider": "usps_collection_boxes", "spider:collection_time": "2023-12-10T08:24:07.887270"}, "geometry": {"coordinates": [-84.0146447, 35.949316], "type": "Point"}, "id": "_4EpvZyVAe1Qrzhgk8ySitGGyqM=", "properties": {"@spider": "usps_collection_boxes", "addr:city": "KNOXVILLE", "addr:country": "US", "addr:full": "1237 E WEISGARBER RD", "addr:postcode": "37950", "addr:state": "TN", "amenity": "post_box", "brand": "United States Postal Service", "brand:wikidata": "Q668687", "collection_times": "Mo-Fr 19:00; Sa 18:00", "name": "USPS COLLECTION BOX - PO LOBBY", "note": "ON 12/24 AND 12/31, THIS BOX MAY BE COLLECTED AS EARLY AS 12 NOON.", "nsi_id": "unitedstatespostalservice-a77078", "operator": "United States Postal Service", "operator:short": "USPS", "operator:type": "public", "operator:wikidata": "Q668687", "ref": "3795000004"}, "type": "Feature"}
{"dataset_attributes": {"@spider": "usps_collection_boxes", "spider:collection_time": "2023-12-10T08:24:07.887270"}, "geometry": {"coordinates": [-84.0146542, 35.949296], "type": "Point"}, "id": "0Bk0_UvzYtkU1uJzS0tscA5OvyA=", "properties": {"@spider": "usps_collection_boxes", "addr:city": "KNOXVILLE", "addr:country": "US", "addr:full": "1237 E WEISGARBER RD", "addr:postcode": "37950", "addr:state": "TN", "amenity": "post_box", "brand": "United States Postal Service", "brand:wikidata": "Q668687", "collection_times": "Mo-Fr 19:00; Sa 18:00", "name": "USPS COLLECTION BOX - APC", "note": "ON 12/24 AND 12/31, THIS BOX MAY BE COLLECTED AS EARLY AS 12 NOON.", "nsi_id": "unitedstatespostalservice-a77078", "operator": "United States Postal Service", "operator:short": "USPS", "operator:type": "public", "operator:wikidata": "Q668687", "ref": "3795000005"}, "type": "Feature"}
