{"geometry": {"coordinates": [-89.1161404, 35.783475], "type": "Point"}, "id": "W492JsyFMfy3dTWcJ9Op0lu8sOE=", "properties": {"@spider": "usps_collection_boxes", "addr:city": "ALAMO", "addr:country": "US", "addr:full": "80 E PARK", "addr:postcode": "38001", "addr:state": "TN", "brand": "USPS", "collection_times": "Mo-Fr 16:00; Sa 12:00", "name": "USPS COLLECTION BOX - BLUE BOX", "note": "ON 12/24 AND 12/31, THIS BOX MAY BE COLLECTED AS EARLY AS 12 NOON.", "ref": "3800100001"}, "type": "Feature"}
{"geometry": {"coordinates": [-89.1171405, 35.785126], "type": "Point"}, "id": "5gKCB-RB38LDwuKAZMCD-78wTVc=", "properties": {"@spider": "usps_collection_boxes", "addr:city": "ALAMO", "addr:country": "US", "addr:full": "1 N BELLS ST", "addr:postcode": "38001", "addr:state": "TN", "brand": "USPS", "collection_times": "Mo-Fr 15:00; Sa 14:00", "name": "USPS COLLECTION BOX - BLUE BOX", "note": "ON 12/24 AND 12/31, THIS BOX MAY BE COLLECTED AS EARLY AS 12 NOON.", "ref": "3800100002"}, "type": "Feature"}
{"geometry": {"coordinates": [-89.1158833, 35.783552], "type": "Point"}, "id": "kG7dpMuPBunWggRmvxWpIzHHBts=", "properties": {"@spider": "usps_collection_boxes", "addr:city": "ALAMO", "addr:country": "US", "addr:full": "80 E PARK PARK", "addr:postcode": "38001", "addr:state": "TN", "brand": "USPS", "collection_times": "Mo-Fr 16:00; Sa 12:00", "name": "USPS COLLECTION BOX - PO LOBBY", "note": "ON 12/24 AND 12/31, THIS BOX MAY BE COLLECTED AS EARLY AS 12 NOON.", "ref": "3800100004"}, "type": "Feature"}
{"geometry": {"coordinates": [-89.116029476, 35.783353532], "type": "Point"}, "id": "F35eM4F35d0vY_mDO7K3cP-Db8w=", "properties": {"@spider": "usps_collection_boxes", "addr:city": "ALAMO", "addr:country": "US", "addr:full": "80 E PARK ST", "addr:postcode": "38001", "addr:state": "TN", "brand": "USPS", "collection_times": "Mo-Fr 16:00", "name": "USPS COLLECTION BOX - PO LOBBY", "note": "ON 12/24 AND 12/31, THIS BOX MAY BE COLLECTED AS EARLY AS 12 NOON.", "ref": "3800100005"}, "type": "Feature"}
{"geometry": {"coordinates": [-89.785315, 35.443714], "type": "Point"}, "id": "g023K57q7MMh00frr831fYxyrvI=", "properties": {"@spider": "usps_collection_boxes", "addr:city": "ATOKA", "addr:country": "US", "addr:full": "186 ATOKA MUNFORD RD", "addr:postcode": "38004", "addr:state": "TN", "brand": "USPS", "collection_times": "Mo-Fr 16:30; Sa 11:30", "name": "USPS COLLECTION BOX - PO LOBBY", "note": "ON 12/24 AND 12/31, THIS BOX MAY BE COLLECTED AS EARLY AS 12 NOON.", "ref": "3800400001"}, "type": "Feature"}
{"geometry": {"coordinates": [-89.785409, 35.443707], "type": "Point"}, "id": "OZ8uvvIH8-CGfM3Jjs7WXN_WpVg=", "properties": {"@spider": "usps_collection_boxes", "addr:city": "ATOKA", "addr:country": "US", "addr:full": "186 ATOKA MUNFORD RD", "addr:postcode": "38004", "addr:state": "TN", "brand": "USPS", "collection_times": "Mo-Fr 16:30; Sa 11:30", "name": "USPS COLLECTION BOX - BLUE BOX", "note": "ON 12/24 AND 12/31, THIS BOX MAY BE COLLECTED AS EARLY AS 12 NOON.", "ref": "3800400002"}, "type": "Feature"}
{"geometry": {"coordinates": [-89.785373826, 35.443719071], "type": "Point"}, "id": "lsebMBr1zltOxZaIQLQuMv9aK2M=", "properties": {"@spider": "usps_collection_boxes", "addr:city": "ATOKA", "addr:country": "US", "addr:full": "186 ATOKA MUNFORD RD", "addr:postcode": "38004", "addr:state": "TN", "brand": "USPS", "collection_times": "Mo-Fr 16:30", "name": "USPS COLLECTION BOX - PO LOBBY", "note": "ON 12/24 AND 12/31, THIS BOX MAY BE COLLECTED AS EARLY AS 12 NOON.", "ref": "3800400003"}, "type": "Feature"}
{"geometry": {"coordinates": [-89.087499, 35.711441], "type": "Point"}, "id": "LbNK62BEfhcPezDvd-3xTGodGdQ=", "properties": {"@spider": "usps_collection_boxes", "addr:city": "BELLS", "addr:country": "US", "addr:full": "13065 HIGHWAY 79", "addr:postcode": "38006", "addr:state": "TN", "brand": "USPS", "collection_times": "Mo-Fr 16:15; Sa 10:30", "name": "USPS COLLECTION BOX - PO LOBBY", "note": "ON 12/24 AND 12/31, THIS BOX MAY BE COLLECTED AS EARLY AS 12 NOON.", "ref": "3800600001"}, "type": "Feature"}
{"geometry": {"coordinates": [-89.087545, 35.711377], "type": "Point"}, "id": "WXPwSlhF4HQZClko5-mbayRiT5w=", "properties": {"@spider": "usps_collection_boxes", "addr:city": "BELLS", "addr:country": "US", "addr:full": "13065 HIGHWAY 79", "addr:postcode": "38006", "addr:state": "TN", "brand": "USPS", "collection_times": "Mo-Fr 16:15; Sa 10:30", "name": "USPS COLLECTION BOX - BLUE BOX", "note": "ON 12/24 AND 12/31, THIS BOX MAY BE COLLECTED AS EARLY AS 12 NOON.", "ref": "3800600002"}, "type": "Feature"}
{"geometry": {"coordinates": [-89.08762162, 35.711308212], "type": "Point"}, "id": "8_UWBnEqEBLG7OWcd1awi4Y0ICc=", "properties": {"@spider": "usps_collection_boxes", "addr:city": "BELLS", "addr:country": "US", "addr:full": "13065 HIGHWAY 79", "addr:postcode": "38006", "addr:state": "TN", "brand": "USPS", "collection_times": "Mo-Fr 16:15", "name": "USPS COLLECTION BOX - PO LOBBY", "note": "ON 12/24 AND 12/31, THIS BOX MAY BE COLLECTED AS EARLY AS 12 NOON.", "ref": "3800600003"}, "type": "Feature"}
{"geometry": {"coordinates": [-88.987563, 35.256132], "type": "Point"}, "id": "qmK7rUaLH4VK9OcYPW9Uh5tSiX0=", "properties": {"@spider": "usps_collection_boxes", "addr:city": "BOLIVAR", "addr:country": "US", "addr:full": "118 E MARKET ST", "addr:postcode": "38008", "addr:state": "TN", "brand": "USPS", "collection_times": "Mo-Fr 16:15; Sa 15:45", "name": "USPS COLLECTION BOX - BLUE BOX", "note": "ON 12/24 AND 12/31, THIS BOX MAY BE COLLECTED AS EARLY AS 12 NOON.", "ref": "3800800002"}, "type": "Feature"}
{"geometry": {"coordinates": [-88.9997113, 35.268982], "type": "Point"}, "id": "EB-EEEyz1AHoMxoirDIIMQ0QiJY=", "properties": {"@spider": "usps_collection_boxes", "addr:city": "BOLIVAR", "addr:country": "US", "addr:full": "700 NUCKOLLS RD", "addr:postcode": "38008", "addr:state": "TN", "brand": "USPS", "collection_times": "Mo-Sa 13:45", "name": "USPS COLLECTION BOX - BLUE BOX", "note": "ON 12/24 AND 12/31, THIS BOX MAY BE COLLECTED AS EARLY AS 12 NOON.", "ref": "3800800006"}, "type": "Feature"}
{"geometry": {"coordinates": [-88.9996024, 35.267603], "type": "Point"}, "id": "emnK6zw9MJ8uVOp6QXshkaCd1kg=", "properties": {"@spider": "usps_collection_boxes", "addr:city": "BOLIVAR", "addr:country": "US", "addr:full": "650 NUCKOLLS RD", "addr:postcode": "38008", "addr:state": "TN", "brand": "USPS", "collection_times": "Mo-Sa 13:45", "name": "USPS COLLECTION BOX - BLUE BOX", "note": "ON 12/24 AND 12/31, THIS BOX MAY BE COLLECTED AS EARLY AS 12 NOON.", "ref": "3800800007"}, "type": "Feature"}
{"geometry": {"coordinates": [-89.0026715, 35.269376], "type": "Point"}, "id": "PX3W-RY2q42g7ApLTh11BcpHMxc=", "properties": {"@spider": "usps_collection_boxes", "addr:city": "BOLIVAR", "addr:country": "US", "addr:full": "1 RIDGECREST DR", "addr:postcode": "38008", "addr:state": "TN", "brand": "USPS", "collection_times": "Mo-Sa 13:45", "name": "USPS COLLECTION BOX - BLUE BOX", "note": "ON 12/24 AND 12/31, THIS BOX MAY BE COLLECTED AS EARLY AS 12 NOON.", "ref": "3800800008"}, "type": "Feature"}
{"geometry": {"coordinates": [-88.987074, 35.256241], "type": "Point"}, "id": "uih7ZSxlgm3GQFizYi9puF1_PUo=", "properties": {"@spider": "usps_collection_boxes", "addr:city": "BOLIVAR", "addr:country": "US", "addr:full": "100 WARREN ST", "addr:postcode": "38008", "addr:state": "TN", "brand": "USPS", "collection_times": "Mo-Fr 16:15; Sa 15:45", "name": "USPS COLLECTION BOX - BLUE BOX", "note": "ON 12/24 AND 12/31, THIS BOX MAY BE COLLECTED AS EARLY AS 12 NOON.", "ref": "3800800010"}, "type": "Feature"}
{"geometry": {"coordinates": [-89.0267493, 35.27578], "type": "Point"}, "id": "mlBqS6YShHvVjkp0JUO06mZxs_E=", "properties": {"@spider": "usps_collection_boxes", "addr:city": "BOLIVAR", "addr:country": "US", "addr:full": "11100 HIGHWAY 64", "addr:postcode": "38008", "addr:state": "TN", "brand": "USPS", "collection_times": "Mo-Fr 13:45; Sa 11:45", "name": "USPS COLLECTION BOX - BLUE BOX", "note": "ON 12/24 AND 12/31, THIS BOX MAY BE COLLECTED AS EARLY AS 12 NOON.", "ref": "3800800012"}, "type": "Feature"}
{"geometry": {"coordinates": [-88.987604, 35.25616], "type": "Point"}, "id": "kb138mnRO6VaCxaBVqq1_eHYDnU=", "properties": {"@spider": "usps_collection_boxes", "addr:city": "BOLIVAR", "addr:country": "US", "addr:full": "118 E MARKET ST", "addr:postcode": "38008", "addr:state": "TN", "brand": "USPS", "collection_times": "Mo-Fr 16:30; Sa 15:45", "name": "USPS COLLECTION BOX - PO LOBBY", "note": "ON 12/24 AND 12/31, THIS BOX MAY BE COLLECTED AS EARLY AS 12 NOON.", "ref": "3800800014"}, "type": "Feature"}
{"geometry": {"coordinates": [-88.986851141, 35.256111561], "type": "Point"}, "id": "CaOTAJ6v3nD9x-LX1QOowkU2Glw=", "properties": {"@spider": "usps_collection_boxes", "addr:city": "BOLIVAR", "addr:country": "US", "addr:full": "118 E MARKET ST", "addr:postcode": "38008", "addr:state": "TN", "brand": "USPS", "collection_times": "Mo-Fr 16:30", "name": "USPS COLLECTION BOX - PO LOBBY", "note": "ON 12/24 AND 12/31, THIS BOX MAY BE COLLECTED AS EARLY AS 12 NOON.", "ref": "3800800015"}, "type": "Feature"}
{"geometry": {"coordinates": [-89.742431, 35.476543], "type": "Point"}, "id": "AGjYSlYg9vpWo6nJz0RTsZZ8bt0=", "properties": {"@spider": "usps_collection_boxes", "addr:city": "BRIGHTON", "addr:country": "US", "addr:full": "1600 OLD HIGHWAY 51 S", "addr:postcode": "38011", "addr:state": "TN", "brand": "USPS", "collection_times": "Mo-Fr 16:30; Sa 11:00", "name": "USPS COLLECTION BOX - BLUE BOX", "note": "ON 12/24 AND 12/31, THIS BOX MAY BE COLLECTED AS EARLY AS 12 NOON.", "ref": "3801100001"}, "type": "Feature"}
{"geometry": {"coordinates": [-89.747739, 35.473741], "type": "Point"}, "id": "x49ftVF808af-CBE1oDje41AwI0=", "properties": {"@spider": "usps_collection_boxes", "addr:city": "BRIGHTON", "addr:country": "US", "addr:full": "1600 OLD HIGHWAY 51 S", "addr:postcode": "38011", "addr:state": "TN", "brand": "USPS", "collection_times": "Mo-Fr 16:30; Sa 11:30", "name": "USPS COLLECTION BOX - PO LOBBY", "note": "ON 12/24 AND 12/31, THIS BOX MAY BE COLLECTED AS EARLY AS 12 NOON.", "ref": "3801100002"}, "type": "Feature"}
{"geometry": {"coordinates": [-89.742287537, 35.476529733], "type": "Point"}, "id": "S37BuzMaHj_n-3vfs6svsdWkM6M=", "properties": {"@spider": "usps_collection_boxes", "addr:city": "BRIGHTON", "addr:country": "US", "addr:full": "1600 OLD HIGHWAY 51 S", "addr:postcode": "38011", "addr:state": "TN", "brand": "USPS", "collection_times": "Mo-Fr 16:30", "name": "USPS COLLECTION BOX - PO LOBBY", "note": "ON 12/24 AND 12/31, THIS BOX MAY BE COLLECTED AS EARLY AS 12 NOON.", "ref": "3801100003"}, "type": "Feature"}
{"geometry": {"coordinates": [-89.2673777, 35.594197], "type": "Point"}, "id": "Zjw9Vaypo7rV26tSZu9wOCgNDRw=", "properties": {"@spider": "usps_collection_boxes", "addr:city": "BROWNSVILLE", "addr:country": "US", "addr:full": "403 W MAIN ST", "addr:postcode": "38012", "addr:state": "TN", "brand": "USPS", "collection_times": "Mo-Fr 15:00; Sa 14:00", "name": "USPS COLLECTION BOX - BLUE BOX", "note": "ON 12/24 AND 12/31, THIS BOX MAY BE COLLECTED AS EARLY AS 12 NOON.", "ref": "3801200004"}, "type": "Feature"}
{"geometry": {"coordinates": [-89.2629152, 35.593348], "type": "Point"}, "id": "x-OfWGWcF_HlZ-IeLNNlkGOi1e8=", "properties": {"@spider": "usps_collection_boxes", "addr:city": "BROWNSVILLE", "addr:country": "US", "addr:full": "19 N COURT SQ", "addr:postcode": "38012", "addr:state": "TN", "brand": "USPS", "collection_times": "Mo-Fr 15:00; Sa 14:00", "name": "USPS COLLECTION BOX - BLUE BOX", "note": "ON 12/24 AND 12/31, THIS BOX MAY BE COLLECTED AS EARLY AS 12 NOON.", "ref": "3801200005"}, "type": "Feature"}
{"geometry": {"coordinates": [-89.262247, 35.594313], "type": "Point"}, "id": "hNxEM8CAjm5IGTBOQhYxTt7sro0=", "properties": {"@spider": "usps_collection_boxes", "addr:city": "BROWNSVILLE", "addr:country": "US", "addr:full": "14 S COURT SQ", "addr:postcode": "38012", "addr:state": "TN", "brand": "USPS", "collection_times": "Mo-Fr 15:00; Sa 14:00", "name": "USPS COLLECTION BOX - BLUE BOX", "note": "ON 12/24 AND 12/31, THIS BOX MAY BE COLLECTED AS EARLY AS 12 NOON.", "ref": "3801200011"}, "type": "Feature"}
{"geometry": {"coordinates": [-89.251233, 35.592431], "type": "Point"}, "id": "AnRUF7PvBz8hsiCPMkG8uba62yU=", "properties": {"@spider": "usps_collection_boxes", "addr:city": "BROWNSVILLE", "addr:country": "US", "addr:full": "201 ANDERSON AVE", "addr:postcode": "38012", "addr:state": "TN", "brand": "USPS", "collection_times": "Mo-Fr 16:30; Sa 14:00", "name": "USPS COLLECTION BOX - PO LOBBY", "note": "ON 12/24 AND 12/31, THIS BOX MAY BE COLLECTED AS EARLY AS 12 NOON.", "ref": "3801200017"}, "type": "Feature"}
{"geometry": {"coordinates": [-89.2513883, 35.592506], "type": "Point"}, "id": "h51nInoWU9Q-YsCWb-YoedJ16ww=", "properties": {"@spider": "usps_collection_boxes", "addr:city": "BROWNSVILLE", "addr:country": "US", "addr:full": "201 ANDERSON AVE", "addr:postcode": "38012", "addr:state": "TN", "brand": "USPS", "collection_times": "Mo-Fr 16:30; Sa 14:00", "name": "USPS COLLECTION BOX - BLUE BOX", "note": "ON 12/24 AND 12/31, THIS BOX MAY BE COLLECTED AS EARLY AS 12 NOON.", "ref": "3801200018"}, "type": "Feature"}
{"geometry": {"coordinates": [-89.251198, 35.59252], "type": "Point"}, "id": "E2U0c8jtRQ1zj-GCfMEIVwXf-WU=", "properties": {"@spider": "usps_collection_boxes", "addr:city": "BROWNSVILLE", "addr:country": "US", "addr:full": "201 ANDERSON AVE", "addr:postcode": "38012", "addr:state": "TN", "brand": "USPS", "collection_times": "Mo-Fr 16:30; Sa 14:00", "name": "USPS COLLECTION BOX - BLUE BOX", "note": "ON 12/24 AND 12/31, THIS BOX MAY BE COLLECTED AS EARLY AS 12 NOON.", "ref": "3801200019"}, "type": "Feature"}
{"geometry": {"coordinates": [-89.251198, 35.59252], "type": "Point"}, "id": "YC6HYVZN-SPe4kocUZv8pCC_0vM=", "properties": {"@spider": "usps_collection_boxes", "addr:city": "BROWNSVILLE", "addr:country": "US", "addr:full": "201 ANDERSON AVE", "addr:postcode": "38012", "addr:state": "TN", "brand": "USPS", "collection_times": "Mo-Fr 16:30; Sa 14:00", "name": "USPS COLLECTION BOX - BLUE BOX", "note": "ON 12/24 AND 12/31, THIS BOX MAY BE COLLECTED AS EARLY AS 12 NOON.", "ref": "3801200020"}, "type": "Feature"}
{"geometry": {"coordinates": [-89.251262835, 35.592450502], "type": "Point"}, "id": "iovmfo5u0MiBYVjDk3-kSfknYSw=", "properties": {"@spider": "usps_collection_boxes", "addr:city": "BROWNSVILLE", "addr:country": "US", "addr:full": "201 ANDERSON AVE", "addr:postcode": "38012", "addr:state": "TN", "brand": "USPS", "collection_times": "Mo-Fr 16:30", "name": "USPS COLLECTION BOX - PO LOBBY", "note": "ON 12/24 AND 12/31, THIS BOX MAY BE COLLECTED AS EARLY AS 12 NOON.", "ref": "3801200023"}, "type": "Feature"}
{"geometry": {"coordinates": [-89.7576071, 35.564926], "type": "Point"}, "id": "UE8fOmYn0xc3_kj9fEo_iGlh328=", "properties": {"@spider": "usps_collection_boxes", "addr:city": "BURLISON", "addr:country": "US", "addr:full": "6379 HIGHWAY 59 W", "addr:postcode": "38015", "addr:state": "TN", "brand": "USPS", "collection_times": "Mo-Fr 15:15; Sa 10:45", "name": "USPS COLLECTION BOX - PO LOBBY", "note": "ON 12/24 AND 12/31, THIS BOX MAY BE COLLECTED AS EARLY AS 12 NOON.", "ref": "3801500001"}, "type": "Feature"}
{"geometry": {"coordinates": [-89.7576399, 35.565038], "type": "Point"}, "id": "hCI5-a5WITrAadNXHM7C7nKr5ys=", "properties": {"@spider": "usps_collection_boxes", "addr:city": "BURLISON", "addr:country": "US", "addr:full": "6379 HIGHWAY 59 W", "addr:postcode": "38015", "addr:state": "TN", "brand": "USPS", "collection_times": "Mo-Fr 15:00; Sa 10:15", "name": "USPS COLLECTION BOX - BLUE BOX", "note": "ON 12/24 AND 12/31, THIS BOX MAY BE COLLECTED AS EARLY AS 12 NOON.", "ref": "3801500002"}, "type": "Feature"}
{"geometry": {"coordinates": [-89.75768507, 35.565122035], "type": "Point"}, "id": "39qaUpJaFx_5DH3FfgKs4cV2ens=", "properties": {"@spider": "usps_collection_boxes", "addr:city": "BURLISON", "addr:country": "US", "addr:full": "6379 HIGHWAY 59 W", "addr:postcode": "38015", "addr:state": "TN", "brand": "USPS", "collection_times": "Mo-Fr 15:00", "name": "USPS COLLECTION BOX - PO LOBBY", "note": "ON 12/24 AND 12/31, THIS BOX MAY BE COLLECTED AS EARLY AS 12 NOON.", "ref": "3801500003"}, "type": "Feature"}
{"geometry": {"coordinates": [-89.6459078, 35.562928], "type": "Point"}, "id": "iPB8fbEAAajm0qHgjlKzf9N6dRE=", "properties": {"@spider": "usps_collection_boxes", "addr:city": "COVINGTON", "addr:country": "US", "addr:full": "220 S MAIN ST", "addr:postcode": "38019", "addr:state": "TN", "brand": "USPS", "collection_times": "Mo-Fr 17:00; Sa 15:30", "name": "USPS COLLECTION BOX - BLUE BOX", "note": "ON 12/24 AND 12/31, THIS BOX MAY BE COLLECTED AS EARLY AS 12 NOON.", "ref": "3801900004"}, "type": "Feature"}
{"geometry": {"coordinates": [-89.6459145, 35.562941], "type": "Point"}, "id": "z8yorALz79n5Sp_CaTBTMBX9kOk=", "properties": {"@spider": "usps_collection_boxes", "addr:city": "COVINGTON", "addr:country": "US", "addr:full": "220 S MAIN ST", "addr:postcode": "38019", "addr:state": "TN", "brand": "USPS", "collection_times": "Mo-Fr 17:00; Sa 15:30", "name": "USPS COLLECTION BOX - BLUE BOX", "note": "ON 12/24 AND 12/31, THIS BOX MAY BE COLLECTED AS EARLY AS 12 NOON.", "ref": "3801900005"}, "type": "Feature"}
{"geometry": {"coordinates": [-89.6467385, 35.564626], "type": "Point"}, "id": "YHxAuMFWPv4tlU7Z2QeMMFTytGE=", "properties": {"@spider": "usps_collection_boxes", "addr:city": "COVINGTON", "addr:country": "US", "addr:full": "104 W LIBERTY AVE", "addr:postcode": "38019", "addr:state": "TN", "brand": "USPS", "collection_times": "Mo-Fr 17:00; Sa 13:30", "name": "USPS COLLECTION BOX - BLUE BOX", "note": "ON 12/24 AND 12/31, THIS BOX MAY BE COLLECTED AS EARLY AS 12 NOON.", "ref": "3801900007"}, "type": "Feature"}
{"geometry": {"coordinates": [-89.6440488, 35.579186], "type": "Point"}, "id": "1KGW1xqZJYAej8gUBpxjfm4hsbs=", "properties": {"@spider": "usps_collection_boxes", "addr:city": "COVINGTON", "addr:country": "US", "addr:full": "951 HIGHWAY 51 N", "addr:postcode": "38019", "addr:state": "TN", "brand": "USPS", "collection_times": "Mo-Sa 10:15", "name": "USPS COLLECTION BOX - BLUE BOX", "ref": "3801900009"}, "type": "Feature"}
{"geometry": {"coordinates": [-89.6550185, 35.555387], "type": "Point"}, "id": "8cZHhK5sKb9whtk9kFwd781bnkc=", "properties": {"@spider": "usps_collection_boxes", "addr:city": "COVINGTON", "addr:country": "US", "addr:full": "104 STAR SHOPPING CTR ST", "addr:postcode": "38019", "addr:state": "TN", "brand": "USPS", "collection_times": "Mo-Sa 10:15", "name": "USPS COLLECTION BOX - BLUE BOX", "ref": "3801900012"}, "type": "Feature"}
{"geometry": {"coordinates": [-89.677282, 35.535442], "type": "Point"}, "id": "PUtBHOJPQwD0HBZOAASgPPxMqNs=", "properties": {"@spider": "usps_collection_boxes", "addr:city": "COVINGTON", "addr:country": "US", "addr:full": "1995 HIGHWAY 51 S", "addr:postcode": "38019", "addr:state": "TN", "brand": "USPS", "collection_times": "Mo-Sa 09:00", "name": "USPS COLLECTION BOX - BLUE BOX", "ref": "3801900013"}, "type": "Feature"}
{"geometry": {"coordinates": [-89.6460796, 35.563132], "type": "Point"}, "id": "0UE9J_-aY3mM8VAj9MYY7-ylNjw=", "properties": {"@spider": "usps_collection_boxes", "addr:city": "COVINGTON", "addr:country": "US", "addr:full": "220 S MAIN ST", "addr:postcode": "38019", "addr:state": "TN", "brand": "USPS", "collection_times": "Mo-Fr 17:30; Sa 15:30", "name": "USPS COLLECTION BOX - PO LOBBY", "note": "ON 12/24 AND 12/31, THIS BOX MAY BE COLLECTED AS EARLY AS 12 NOON.", "ref": "3801900015"}, "type": "Feature"}
{"geometry": {"coordinates": [-89.6425729, 35.582833], "type": "Point"}, "id": "sWxRH4m1epRoJRerR-BSQnbbMt4=", "properties": {"@spider": "usps_collection_boxes", "addr:city": "COVINGTON", "addr:country": "US", "addr:full": "975 HIGHWAY 51 N", "addr:postcode": "38019", "addr:state": "TN", "brand": "USPS", "collection_times": "Mo-Sa 11:15", "name": "USPS COLLECTION BOX - BLUE BOX", "ref": "3801900016"}, "type": "Feature"}
{"geometry": {"coordinates": [-89.646296728, 35.563156827], "type": "Point"}, "id": "McXVGYvKw8GWl4n6aVb4n5muGyA=", "properties": {"@spider": "usps_collection_boxes", "addr:city": "COVINGTON", "addr:country": "US", "addr:full": "220 S MAIN ST", "addr:postcode": "38019", "addr:state": "TN", "brand": "USPS", "collection_times": "Mo-Fr 17:00", "name": "USPS COLLECTION BOX - PO LOBBY", "note": "ON 12/24 AND 12/31, THIS BOX MAY BE COLLECTED AS EARLY AS 12 NOON.", "ref": "3801900018"}, "type": "Feature"}
{"geometry": {"coordinates": [-89.1690562681, 35.8674171024], "type": "Point"}, "id": "KJ2wX75kGcdpRbemvpVEnWezlZo=", "properties": {"@spider": "usps_collection_boxes", "addr:city": "CROCKETT MILLS", "addr:country": "US", "addr:full": "28 JACKSON STORE RD", "addr:postcode": "38021", "addr:state": "TN", "brand": "USPS", "collection_times": "Mo-Fr 10:00; Sa 09:30", "name": "USPS COLLECTION BOX - BLUE BOX", "ref": "3802100001"}, "type": "Feature"}
{"geometry": {"coordinates": [-89.1690562681, 35.8674171024], "type": "Point"}, "id": "ocEqr3zLXEtYKRJlshuOOoGR7b0=", "properties": {"@spider": "usps_collection_boxes", "addr:city": "CROCKETT MILLS", "addr:country": "US", "addr:full": "28 JACKSON STORE RD", "addr:postcode": "38021", "addr:state": "TN", "brand": "USPS", "collection_times": "Mo-Fr 10:00; Sa 09:30", "name": "USPS COLLECTION BOX - PO LOBBY", "ref": "3802100002"}, "type": "Feature"}
{"geometry": {"coordinates": [-89.16900014, 35.867952922], "type": "Point"}, "id": "L9EZ_6MhTN2zXVojQ5dq5JLyYlo=", "properties": {"@spider": "usps_collection_boxes", "addr:city": "CROCKETT MILLS", "addr:country": "US", "addr:full": "28 JACKSON STORE RD", "addr:postcode": "38021", "addr:state": "TN", "brand": "USPS", "collection_times": "Mo-Fr 10:00", "name": "USPS COLLECTION BOX - PO LOBBY", "ref": "3802100003"}, "type": "Feature"}
{"geometry": {"coordinates": [-89.911004, 35.46375], "type": "Point"}, "id": "maaaqzN2XPinbShVHxvAlMDCZvY=", "properties": {"@spider": "usps_collection_boxes", "addr:city": "DRUMMONDS", "addr:country": "US", "addr:full": "5701 RICHARDSON LANDING RD", "addr:postcode": "38023", "addr:state": "TN", "brand": "USPS", "collection_times": "Mo-Fr 16:00; Sa 10:30", "name": "USPS COLLECTION BOX - BLUE BOX", "note": "ON 12/24 AND 12/31, THIS BOX MAY BE COLLECTED AS EARLY AS 12 NOON.", "ref": "3802300000"}, "type": "Feature"}
{"geometry": {"coordinates": [-89.911008, 35.463779], "type": "Point"}, "id": "6FvZfUM1td6aRnw1e-4OqOT77H8=", "properties": {"@spider": "usps_collection_boxes", "addr:city": "DRUMMONDS", "addr:country": "US", "addr:full": "5701 RICHARDSON LANDING RD", "addr:postcode": "38023", "addr:state": "TN", "brand": "USPS", "collection_times": "Mo-Fr 16:00; Sa 10:30", "name": "USPS COLLECTION BOX - PO LOBBY", "note": "ON 12/24 AND 12/31, THIS BOX MAY BE COLLECTED AS EARLY AS 12 NOON.", "ref": "3802300001"}, "type": "Feature"}
{"geometry": {"coordinates": [-89.910949452, 35.463732896], "type": "Point"}, "id": "1sJzhQhCV1huj2qtUkY5iIUWRQk=", "properties": {"@spider": "usps_collection_boxes", "addr:city": "DRUMMONDS", "addr:country": "US", "addr:full": "5701 RICHARDSON LANDING RD", "addr:postcode": "38023", "addr:state": "TN", "brand": "USPS", "collection_times": "Mo-Fr 16:00", "name": "USPS COLLECTION BOX - PO LOBBY", "note": "ON 12/24 AND 12/31, THIS BOX MAY BE COLLECTED AS EARLY AS 12 NOON.", "ref": "3802300002"}, "type": "Feature"}
{"geometry": {"coordinates": [-89.3636166, 36.052986], "type": "Point"}, "id": "G5Wrqyc2CnrKFl_fnn6Rn7f07Ho=", "properties": {"@spider": "usps_collection_boxes", "addr:city": "DYERSBURG", "addr:country": "US", "addr:full": "1979 SAINT JOHN AVE", "addr:postcode": "38024", "addr:state": "TN", "brand": "USPS", "collection_times": "Mo-Fr 13:00; Sa 10:00", "name": "USPS COLLECTION BOX - BLUE BOX", "note": "ON 12/24 AND 12/31, THIS BOX MAY BE COLLECTED AS EARLY AS 12 NOON.", "ref": "3802400017"}, "type": "Feature"}
{"geometry": {"coordinates": [-89.3797599, 36.047608], "type": "Point"}, "id": "W0Ns39-kYhADq-6xgzGLKB7DPPs=", "properties": {"@spider": "usps_collection_boxes", "addr:city": "DYERSBURG", "addr:country": "US", "addr:full": "400 E TICKLE ST", "addr:postcode": "38024", "addr:state": "TN", "brand": "USPS", "collection_times": "Mo-Fr 13:00; Sa 10:00", "name": "USPS COLLECTION BOX - BLUE BOX", "note": "ON 12/24 AND 12/31, THIS BOX MAY BE COLLECTED AS EARLY AS 12 NOON.", "ref": "3802400021"}, "type": "Feature"}
{"geometry": {"coordinates": [-89.24497, 35.90959], "type": "Point"}, "id": "gJgpOBC6vze6c_9UintYOCfXa2c=", "properties": {"@spider": "usps_collection_boxes", "addr:city": "FRIENDSHIP", "addr:country": "US", "addr:full": "143 POPLAR ST", "addr:postcode": "38034", "addr:state": "TN", "brand": "USPS", "collection_times": "Mo-Fr 15:00; Sa 12:00", "name": "USPS COLLECTION BOX - BLUE BOX", "note": "ON 12/24 AND 12/31, THIS BOX MAY BE COLLECTED AS EARLY AS 12 NOON.", "ref": "3803400001"}, "type": "Feature"}
{"geometry": {"coordinates": [-89.244938, 35.909575], "type": "Point"}, "id": "dyqCALyZbU-yEfs04rWbakZP_Lc=", "properties": {"@spider": "usps_collection_boxes", "addr:city": "FRIENDSHIP", "addr:country": "US", "addr:full": "143 POPLAR ST", "addr:postcode": "38034", "addr:state": "TN", "brand": "USPS", "collection_times": "Mo-Fr 15:00; Sa 10:00", "name": "USPS COLLECTION BOX - PO LOBBY", "note": "ON 12/24 AND 12/31, THIS BOX MAY BE COLLECTED AS EARLY AS 12 NOON.", "ref": "3803400002"}, "type": "Feature"}
{"geometry": {"coordinates": [-89.245044616, 35.909361681], "type": "Point"}, "id": "VAd8qjqri6UizJP50ZZ_T5i-QQM=", "properties": {"@spider": "usps_collection_boxes", "addr:city": "FRIENDSHIP", "addr:country": "US", "addr:full": "143 POPLAR ST", "addr:postcode": "38034", "addr:state": "TN", "brand": "USPS", "collection_times": "Mo-Fr 15:00", "name": "USPS COLLECTION BOX - PO LOBBY", "note": "ON 12/24 AND 12/31, THIS BOX MAY BE COLLECTED AS EARLY AS 12 NOON.", "ref": "3803400003"}, "type": "Feature"}
{"geometry": {"coordinates": [-89.1855288, 35.049562], "type": "Point"}, "id": "3aOOsfGvHd04vsNk2HwaNkLkpds=", "properties": {"@spider": "usps_collection_boxes", "addr:city": "GRAND JUNCTION", "addr:country": "US", "addr:full": "152 CHARLESTON ROW E", "addr:postcode": "38039", "addr:state": "TN", "brand": "USPS", "collection_times": "Mo-Fr 15:15; Sa 10:00", "name": "USPS COLLECTION BOX - BLUE BOX", "note": "ON 12/24 AND 12/31, THIS BOX MAY BE COLLECTED AS EARLY AS 12 NOON.", "ref": "3803900001"}, "type": "Feature"}
{"geometry": {"coordinates": [-89.1856229, 35.049659], "type": "Point"}, "id": "UhihluBIjCf4SsPmrBlvms1aqcU=", "properties": {"@spider": "usps_collection_boxes", "addr:city": "GRAND JUNCTION", "addr:country": "US", "addr:full": "152 CHARLESTON ROW E", "addr:postcode": "38039", "addr:state": "TN", "brand": "USPS", "collection_times": "Mo-Fr 15:00; Sa 11:00", "name": "USPS COLLECTION BOX - PO LOBBY", "note": "ON 12/24 AND 12/31, THIS BOX MAY BE COLLECTED AS EARLY AS 12 NOON.", "ref": "3803900002"}, "type": "Feature"}
{"geometry": {"coordinates": [-89.572189, 35.674615], "type": "Point"}, "id": "EoIqB1nmtrhYr6UHS4RIL30gLvs=", "properties": {"@spider": "usps_collection_boxes", "addr:city": "HENNING", "addr:country": "US", "addr:full": "415 N MAIN ST", "addr:postcode": "38041", "addr:state": "TN", "brand": "USPS", "collection_times": "Mo-Fr 13:15; Sa 10:15", "name": "USPS COLLECTION BOX - PO LOBBY", "note": "ON 12/24 AND 12/31, THIS BOX MAY BE COLLECTED AS EARLY AS 12 NOON.", "ref": "3804100001"}, "type": "Feature"}
{"geometry": {"coordinates": [-89.572189, 35.674615], "type": "Point"}, "id": "G1G5vPwz0jgWZ3Mbb0HfupQofLA=", "properties": {"@spider": "usps_collection_boxes", "addr:city": "HENNING", "addr:country": "US", "addr:full": "415 N MAIN ST", "addr:postcode": "38041", "addr:state": "TN", "brand": "USPS", "collection_times": "Mo-Fr 13:15; Sa 10:15", "name": "USPS COLLECTION BOX - BLUE BOX", "note": "ON 12/24 AND 12/31, THIS BOX MAY BE COLLECTED AS EARLY AS 12 NOON.", "ref": "3804100002"}, "type": "Feature"}
{"geometry": {"coordinates": [-89.1284981831, 35.1528116636], "type": "Point"}, "id": "__twHudfClnVHhMYuaANqKhi0SQ=", "properties": {"@spider": "usps_collection_boxes", "addr:city": "HICKORY VALLEY", "addr:country": "US", "addr:full": "7065 HIGHWAY 18 S", "addr:postcode": "38042", "addr:state": "TN", "brand": "USPS", "collection_times": "Mo-Fr 15:45; Sa 11:45", "name": "USPS COLLECTION BOX - BLUE BOX", "note": "ON 12/24 AND 12/31, THIS BOX MAY BE COLLECTED AS EARLY AS 12 NOON.", "ref": "3804200001"}, "type": "Feature"}
{"geometry": {"coordinates": [-89.1284981831, 35.1528116636], "type": "Point"}, "id": "z-dQZTM2CZFjnm7swiD6-b3EVxg=", "properties": {"@spider": "usps_collection_boxes", "addr:city": "HICKORY VALLEY", "addr:country": "US", "addr:full": "7065 HIGHWAY 18 S", "addr:postcode": "38042", "addr:state": "TN", "brand": "USPS", "collection_times": "Mo-Fr 16:00; Sa 11:45", "name": "USPS COLLECTION BOX - PO LOBBY", "note": "ON 12/24 AND 12/31, THIS BOX MAY BE COLLECTED AS EARLY AS 12 NOON.", "ref": "3804200002"}, "type": "Feature"}
{"geometry": {"coordinates": [-88.830145, 35.22504], "type": "Point"}, "id": "4sWbSAIxk5V3jOWojYP04pzH25s=", "properties": {"@spider": "usps_collection_boxes", "addr:city": "HORNSBY", "addr:country": "US", "addr:full": "475 MAIN ST", "addr:postcode": "38044", "addr:state": "TN", "brand": "USPS", "collection_times": "Mo-Fr 16:00; Sa 10:00", "name": "USPS COLLECTION BOX - BLUE BOX", "note": "ON 12/24 AND 12/31, THIS BOX MAY BE COLLECTED AS EARLY AS 12 NOON.", "ref": "3804400001"}, "type": "Feature"}
{"geometry": {"coordinates": [-88.830145, 35.22504], "type": "Point"}, "id": "o-IgsbVKVrbIZvTXbHoU_3pYqbE=", "properties": {"@spider": "usps_collection_boxes", "addr:city": "HORNSBY", "addr:country": "US", "addr:full": "475 MAIN ST", "addr:postcode": "38044", "addr:state": "TN", "brand": "USPS", "collection_times": "Mo-Fr 16:00; Sa 10:00", "name": "USPS COLLECTION BOX - PO LOBBY", "note": "ON 12/24 AND 12/31, THIS BOX MAY BE COLLECTED AS EARLY AS 12 NOON.", "ref": "3804400002"}, "type": "Feature"}
{"geometry": {"coordinates": [-89.226310683, 35.811296829], "type": "Point"}, "id": "-xHmpX1XEZPf1f923H0TnSWbzAA=", "properties": {"@spider": "usps_collection_boxes", "addr:city": "MAURY CITY", "addr:country": "US", "addr:full": "116 N BROADWAY ST", "addr:postcode": "38050", "addr:state": "TN", "brand": "USPS", "collection_times": "Mo-Fr 16:30; Sa 11:30", "name": "USPS COLLECTION BOX - BLUE BOX", "note": "ON 12/24 AND 12/31, THIS BOX MAY BE COLLECTED AS EARLY AS 12 NOON.", "ref": "3805000001"}, "type": "Feature"}
{"geometry": {"coordinates": [-89.226310683, 35.811296829], "type": "Point"}, "id": "MkLOANBj7TtZTjXtP2ituyEtQD8=", "properties": {"@spider": "usps_collection_boxes", "addr:city": "MAURY CITY", "addr:country": "US", "addr:full": "116 N BROADWAY ST", "addr:postcode": "38050", "addr:state": "TN", "brand": "USPS", "collection_times": "Mo-Fr 16:30; Sa 11:30", "name": "USPS COLLECTION BOX - PO LOBBY", "note": "ON 12/24 AND 12/31, THIS BOX MAY BE COLLECTED AS EARLY AS 12 NOON.", "ref": "3805000002"}, "type": "Feature"}
{"geometry": {"coordinates": [-88.892608, 35.058735], "type": "Point"}, "id": "4EeaYn1KA_vkINAZNnOLfm9K2vM=", "properties": {"@spider": "usps_collection_boxes", "addr:city": "MIDDLETON", "addr:country": "US", "addr:full": "296 S MAIN ST", "addr:postcode": "38052", "addr:state": "TN", "brand": "USPS", "collection_times": "Mo-Fr 16:30; Sa 11:30", "name": "USPS COLLECTION BOX - BLUE BOX", "note": "ON 12/24 AND 12/31, THIS BOX MAY BE COLLECTED AS EARLY AS 12 NOON.", "ref": "3805200001"}, "type": "Feature"}
{"geometry": {"coordinates": [-88.892622, 35.058651], "type": "Point"}, "id": "cP4r9xkNlfPdkliRnBchIBagNc4=", "properties": {"@spider": "usps_collection_boxes", "addr:city": "MIDDLETON", "addr:country": "US", "addr:full": "296 S MAIN ST", "addr:postcode": "38052", "addr:state": "TN", "brand": "USPS", "collection_times": "Mo-Fr 16:30; Sa 11:30", "name": "USPS COLLECTION BOX - PO LOBBY", "note": "ON 12/24 AND 12/31, THIS BOX MAY BE COLLECTED AS EARLY AS 12 NOON.", "ref": "3805200002"}, "type": "Feature"}
{"geometry": {"coordinates": [-89.9028381, 35.347899], "type": "Point"}, "id": "hsD13hSBTJgT6iwkOy95LQrpsxw=", "properties": {"@spider": "usps_collection_boxes", "addr:city": "MILLINGTON", "addr:country": "US", "addr:full": "8120 US HIGHWAY 51 N", "addr:postcode": "38053", "addr:state": "TN", "brand": "USPS", "collection_times": "Mo-Sa 14:00", "name": "USPS COLLECTION BOX - BLUE BOX", "note": "ON 12/24 AND 12/31, THIS BOX MAY BE COLLECTED AS EARLY AS 12 NOON.", "ref": "3805300015"}, "type": "Feature"}
{"geometry": {"coordinates": [-89.901717, 35.341335], "type": "Point"}, "id": "yX7OkUgVsoWH4Jid4KPl3UEbOgs=", "properties": {"@spider": "usps_collection_boxes", "addr:city": "MILLINGTON", "addr:country": "US", "addr:full": "4847 NAVY RD", "addr:postcode": "38053", "addr:state": "TN", "brand": "USPS", "collection_times": "Mo-Fr 17:00; Sa 15:00", "name": "USPS COLLECTION BOX - BLUE BOX", "note": "ON 12/24 AND 12/31, THIS BOX MAY BE COLLECTED AS EARLY AS 12 NOON.", "ref": "3805300019"}, "type": "Feature"}
{"geometry": {"coordinates": [-89.901757, 35.341363], "type": "Point"}, "id": "c6H6nkZGd_Ajkblbc0W83iNfdrk=", "properties": {"@spider": "usps_collection_boxes", "addr:city": "MILLINGTON", "addr:country": "US", "addr:full": "4847 NAVY RD", "addr:postcode": "38053", "addr:state": "TN", "brand": "USPS", "collection_times": "Mo-Fr 17:00; Sa 15:00", "name": "USPS COLLECTION BOX - BLUE BOX", "note": "ON 12/24 AND 12/31, THIS BOX MAY BE COLLECTED AS EARLY AS 12 NOON.", "ref": "3805300020"}, "type": "Feature"}
{"geometry": {"coordinates": [-89.901757, 35.341363], "type": "Point"}, "id": "_7s7OMyBPOr-EjtCBtTjvB3kQME=", "properties": {"@spider": "usps_collection_boxes", "addr:city": "MILLINGTON", "addr:country": "US", "addr:full": "4847 NAVY RD", "addr:postcode": "38053", "addr:state": "TN", "brand": "USPS", "collection_times": "Mo-Fr 17:00; Sa 15:00", "name": "USPS COLLECTION BOX - BLUE BOX", "note": "ON 12/24 AND 12/31, THIS BOX MAY BE COLLECTED AS EARLY AS 12 NOON.", "ref": "3805300021"}, "type": "Feature"}
{"geometry": {"coordinates": [-89.901757, 35.341363], "type": "Point"}, "id": "5N8jhPNfV6BVMDLlyzJgRxRTI5g=", "properties": {"@spider": "usps_collection_boxes", "addr:city": "MILLINGTON", "addr:country": "US", "addr:full": "4847 NAVY RD", "addr:postcode": "38053", "addr:state": "TN", "brand": "USPS", "collection_times": "Mo-Fr 17:00; Sa 15:00", "name": "USPS COLLECTION BOX - PO LOBBY", "note": "ON 12/24 AND 12/31, THIS BOX MAY BE COLLECTED AS EARLY AS 12 NOON.", "ref": "3805300028"}, "type": "Feature"}
{"geometry": {"coordinates": [-89.8968013, 35.357629], "type": "Point"}, "id": "u2hFPaXygZnm0-tPDH1gDpkFmfo=", "properties": {"@spider": "usps_collection_boxes", "addr:city": "MILLINGTON", "addr:country": "US", "addr:full": "8435 US HIGHWAY 51 N", "addr:postcode": "38053", "addr:state": "TN", "brand": "USPS", "collection_times": "Mo-Sa 13:00", "name": "USPS COLLECTION BOX - BLUE BOX", "note": "ON 12/24 AND 12/31, THIS BOX MAY BE COLLECTED AS EARLY AS 12 NOON.", "ref": "3805300033"}, "type": "Feature"}
{"geometry": {"coordinates": [-89.8713839, 35.328006], "type": "Point"}, "id": "DmNmTQuAp5CmNEAC_01rj7u1Wv4=", "properties": {"@spider": "usps_collection_boxes", "addr:city": "MILLINGTON", "addr:country": "US", "addr:full": "5722 INTEGRITY DR", "addr:postcode": "38053", "addr:state": "TN", "brand": "USPS", "collection_times": "Mo-Sa 14:00", "name": "USPS COLLECTION BOX - BLUE BOX", "note": "ON 12/24 AND 12/31, THIS BOX MAY BE COLLECTED AS EARLY AS 12 NOON.", "ref": "3805300040"}, "type": "Feature"}
{"geometry": {"coordinates": [-89.814303, 35.449401], "type": "Point"}, "id": "lA7qdmHXHQw0KWV1vbzp-sKZOCk=", "properties": {"@spider": "usps_collection_boxes", "addr:city": "MUNFORD", "addr:country": "US", "addr:full": "25 BASS ST", "addr:postcode": "38058", "addr:state": "TN", "brand": "USPS", "collection_times": "Mo-Fr 16:30; Sa 11:30", "name": "USPS COLLECTION BOX - BLUE BOX", "note": "ON 12/24 AND 12/31, THIS BOX MAY BE COLLECTED AS EARLY AS 12 NOON.", "ref": "3805800001"}, "type": "Feature"}
{"geometry": {"coordinates": [-89.814392, 35.449437], "type": "Point"}, "id": "-YF7YgIh5RXPwJb4hpbRMHyBjBY=", "properties": {"@spider": "usps_collection_boxes", "addr:city": "MUNFORD", "addr:country": "US", "addr:full": "25 BASS ST", "addr:postcode": "38058", "addr:state": "TN", "brand": "USPS", "collection_times": "Mo-Fr 16:30; Sa 11:30", "name": "USPS COLLECTION BOX - PO LOBBY", "note": "ON 12/24 AND 12/31, THIS BOX MAY BE COLLECTED AS EARLY AS 12 NOON.", "ref": "3805800002"}, "type": "Feature"}
{"geometry": {"coordinates": [-89.276301, 36.111249], "type": "Point"}, "id": "VPzQNiT1IGMyUSklTjh0ZqlWGaA=", "properties": {"@spider": "usps_collection_boxes", "addr:city": "NEWBERN", "addr:country": "US", "addr:full": "105 BIFFLE RD", "addr:postcode": "38059", "addr:state": "TN", "brand": "USPS", "collection_times": "Mo-Fr 16:45; Sa 11:30", "name": "USPS COLLECTION BOX - PO LOBBY", "note": "ON 12/24 AND 12/31, THIS BOX MAY BE COLLECTED AS EARLY AS 12 NOON.", "ref": "3805900001"}, "type": "Feature"}
{"geometry": {"coordinates": [-89.276267, 36.111167], "type": "Point"}, "id": "O9wMYecx_dcObZFeISw2ysC118k=", "properties": {"@spider": "usps_collection_boxes", "addr:city": "NEWBERN", "addr:country": "US", "addr:full": "105 BIFFLE RD", "addr:postcode": "38059", "addr:state": "TN", "brand": "USPS", "collection_times": "Mo-Fr 16:30; Sa 11:30", "name": "USPS COLLECTION BOX - BLUE BOX", "note": "ON 12/24 AND 12/31, THIS BOX MAY BE COLLECTED AS EARLY AS 12 NOON.", "ref": "3805900003"}, "type": "Feature"}
{"geometry": {"coordinates": [-89.2633527, 36.112824], "type": "Point"}, "id": "w0ItzYS06WjzymcWKKww8iFE1rY=", "properties": {"@spider": "usps_collection_boxes", "addr:city": "NEWBERN", "addr:country": "US", "addr:full": "121 E MAIN ST", "addr:postcode": "38059", "addr:state": "TN", "brand": "USPS", "collection_times": "Mo-Sa 14:45", "name": "USPS COLLECTION BOX - BLUE BOX", "note": "ON 12/24 AND 12/31, THIS BOX MAY BE COLLECTED AS EARLY AS 12 NOON.", "ref": "3805900005"}, "type": "Feature"}
{"geometry": {"coordinates": [-89.2641682, 36.11368], "type": "Point"}, "id": "x263HrJVxqNBYMpSpmUJAPyJTPw=", "properties": {"@spider": "usps_collection_boxes", "addr:city": "NEWBERN", "addr:country": "US", "addr:full": "104 N MONROE ST", "addr:postcode": "38059", "addr:state": "TN", "brand": "USPS", "collection_times": "Mo-Sa 14:45", "name": "USPS COLLECTION BOX - BLUE BOX", "note": "ON 12/24 AND 12/31, THIS BOX MAY BE COLLECTED AS EARLY AS 12 NOON.", "ref": "3805900006"}, "type": "Feature"}
{"geometry": {"coordinates": [-88.8077324235, 35.0479378342], "type": "Point"}, "id": "h10zGD5ZADapCFwoZeAV9tTGgAM=", "properties": {"@spider": "usps_collection_boxes", "addr:city": "POCAHONTAS", "addr:country": "US", "addr:full": "22350 57 HWY", "addr:postcode": "38061", "addr:state": "TN", "brand": "USPS", "collection_times": "Mo-Fr 12:00; Sa 09:45", "name": "USPS COLLECTION BOX - BLUE BOX", "ref": "3806100001"}, "type": "Feature"}
{"geometry": {"coordinates": [-88.8077324235, 35.0479378342], "type": "Point"}, "id": "csRyBGWvHTnYV1Sj5g6mrfFTsbQ=", "properties": {"@spider": "usps_collection_boxes", "addr:city": "POCAHONTAS", "addr:country": "US", "addr:full": "22350 57 HWY", "addr:postcode": "38061", "addr:state": "TN", "brand": "USPS", "collection_times": "Mo-Fr 12:00; Sa 09:45", "name": "USPS COLLECTION BOX - PO LOBBY", "ref": "3806100002"}, "type": "Feature"}
{"geometry": {"coordinates": [-89.529437, 35.746594], "type": "Point"}, "id": "eX5vzTi_MSxgeyZqYpCi84v-uPI=", "properties": {"@spider": "usps_collection_boxes", "addr:city": "RIPLEY", "addr:country": "US", "addr:full": "117 E JACKSON AVE", "addr:postcode": "38063", "addr:state": "TN", "brand": "USPS", "collection_times": "Mo-Fr 17:00; Sa 15:00", "name": "USPS COLLECTION BOX - PO LOBBY", "note": "ON 12/24 AND 12/31, THIS BOX MAY BE COLLECTED AS EARLY AS 12 NOON.", "ref": "3806300000"}, "type": "Feature"}
{"geometry": {"coordinates": [-89.5384839479, 35.7411871853], "type": "Point"}, "id": "jo9A24-W3CDbsb98F4eGxASgaZQ=", "properties": {"@spider": "usps_collection_boxes", "addr:city": "RIPLEY", "addr:country": "US", "addr:full": "284 S WASHINGTON ST", "addr:postcode": "38063", "addr:state": "TN", "brand": "USPS", "collection_times": "Mo-Sa 14:15", "name": "USPS COLLECTION BOX - BLUE BOX", "note": "ON 12/24 AND 12/31, THIS BOX MAY BE COLLECTED AS EARLY AS 12 NOON.", "ref": "3806300002"}, "type": "Feature"}
{"geometry": {"coordinates": [-89.5398889, 35.739034], "type": "Point"}, "id": "kKh0Gm7XSE_WUcFipulRSJm2ysg=", "properties": {"@spider": "usps_collection_boxes", "addr:city": "RIPLEY", "addr:country": "US", "addr:full": "315 S WASHINGTON ST", "addr:postcode": "38063", "addr:state": "TN", "brand": "USPS", "collection_times": "Mo-Sa 14:15", "name": "USPS COLLECTION BOX - BLUE BOX", "note": "ON 12/24 AND 12/31, THIS BOX MAY BE COLLECTED AS EARLY AS 12 NOON.", "ref": "3806300003"}, "type": "Feature"}
{"geometry": {"coordinates": [-89.5299521, 35.745657], "type": "Point"}, "id": "DyRL4TPIMamyiIiP0l6bSoo_X9c=", "properties": {"@spider": "usps_collection_boxes", "addr:city": "RIPLEY", "addr:country": "US", "addr:full": "115 N MAIN ST", "addr:postcode": "38063", "addr:state": "TN", "brand": "USPS", "collection_times": "Mo-Sa 14:15", "name": "USPS COLLECTION BOX - BLUE BOX", "note": "ON 12/24 AND 12/31, THIS BOX MAY BE COLLECTED AS EARLY AS 12 NOON.", "ref": "3806300004"}, "type": "Feature"}
{"geometry": {"coordinates": [-89.5309111, 35.746096], "type": "Point"}, "id": "vg5HLQXMZMmMf5TjaGYXLcOZ8QM=", "properties": {"@spider": "usps_collection_boxes", "addr:city": "RIPLEY", "addr:country": "US", "addr:full": "134 N JEFFERSON ST", "addr:postcode": "38063", "addr:state": "TN", "brand": "USPS", "collection_times": "Mo-Sa 14:15", "name": "USPS COLLECTION BOX - BLUE BOX", "note": "ON 12/24 AND 12/31, THIS BOX MAY BE COLLECTED AS EARLY AS 12 NOON.", "ref": "3806300006"}, "type": "Feature"}
{"geometry": {"coordinates": [-89.5424679, 35.761192], "type": "Point"}, "id": "en34UKDp4KOFoeXpMdJv25bqIKA=", "properties": {"@spider": "usps_collection_boxes", "addr:city": "RIPLEY", "addr:country": "US", "addr:full": "628 HIGHWAY 51 N", "addr:postcode": "38063", "addr:state": "TN", "brand": "USPS", "collection_times": "Mo-Sa 10:00", "name": "USPS COLLECTION BOX - BLUE BOX", "ref": "3806300011"}, "type": "Feature"}
{"geometry": {"coordinates": [-89.5303799, 35.745277], "type": "Point"}, "id": "QbvziYujIeWK7YEMmFly69YmsPU=", "properties": {"@spider": "usps_collection_boxes", "addr:city": "RIPLEY", "addr:country": "US", "addr:full": "104 N WASHINGTON", "addr:postcode": "38063", "addr:state": "TN", "brand": "USPS", "collection_times": "Mo-Sa 14:15", "name": "USPS COLLECTION BOX - BLUE BOX", "note": "ON 12/24 AND 12/31, THIS BOX MAY BE COLLECTED AS EARLY AS 12 NOON.", "ref": "3806300012"}, "type": "Feature"}
{"geometry": {"coordinates": [-89.5308027, 35.747335], "type": "Point"}, "id": "JQ5EHXrYBaJcYb_14rE5VpPtbAE=", "properties": {"@spider": "usps_collection_boxes", "addr:city": "RIPLEY", "addr:country": "US", "addr:full": "166 N MAIN ST", "addr:postcode": "38063", "addr:state": "TN", "brand": "USPS", "collection_times": "Mo-Sa 14:15", "name": "USPS COLLECTION BOX - BLUE BOX", "note": "ON 12/24 AND 12/31, THIS BOX MAY BE COLLECTED AS EARLY AS 12 NOON.", "ref": "3806300013"}, "type": "Feature"}
{"geometry": {"coordinates": [-89.5307989, 35.747353], "type": "Point"}, "id": "R-uYpn0OmvNqzsq53SZlgGvrUI0=", "properties": {"@spider": "usps_collection_boxes", "addr:city": "RIPLEY", "addr:country": "US", "addr:full": "166 N MAIN ST", "addr:postcode": "38063", "addr:state": "TN", "brand": "USPS", "collection_times": "Mo-Sa 14:15", "name": "USPS COLLECTION BOX - BLUE BOX", "note": "ON 12/24 AND 12/31, THIS BOX MAY BE COLLECTED AS EARLY AS 12 NOON.", "ref": "3806300014"}, "type": "Feature"}
{"geometry": {"coordinates": [-89.091424, 35.051681], "type": "Point"}, "id": "4maUeyGSENqrgQG6rqyGUPqN8hY=", "properties": {"@spider": "usps_collection_boxes", "addr:city": "SAULSBURY", "addr:country": "US", "addr:full": "5911 HIGHWAY 57", "addr:postcode": "38067", "addr:state": "TN", "brand": "USPS", "collection_times": "Mo-Fr 11:30; Sa 09:45", "name": "USPS COLLECTION BOX - BLUE BOX", "ref": "3806700001"}, "type": "Feature"}
{"geometry": {"coordinates": [-89.091495, 35.051646], "type": "Point"}, "id": "NLYoSP9_KuvHbpIIMpE60x9Q0i4=", "properties": {"@spider": "usps_collection_boxes", "addr:city": "SAULSBURY", "addr:country": "US", "addr:full": "5911 HIGHWAY 57", "addr:postcode": "38067", "addr:state": "TN", "brand": "USPS", "collection_times": "Mo-Fr 11:30; Sa 09:45", "name": "USPS COLLECTION BOX - PO LOBBY", "ref": "3806700002"}, "type": "Feature"}
{"geometry": {"coordinates": [-89.3505343, 35.2453], "type": "Point"}, "id": "ML5876GBoL5evD33qDPbKH6L0KY=", "properties": {"@spider": "usps_collection_boxes", "addr:city": "SOMERVILLE", "addr:country": "US", "addr:full": "116 W NORTH ST", "addr:postcode": "38068", "addr:state": "TN", "brand": "USPS", "collection_times": "Mo-Fr 16:30; Sa 12:00", "name": "USPS COLLECTION BOX - BLUE BOX", "note": "ON 12/24 AND 12/31, THIS BOX MAY BE COLLECTED AS EARLY AS 12 NOON.", "ref": "3806800001"}, "type": "Feature"}
{"geometry": {"coordinates": [-89.3505277, 35.245295], "type": "Point"}, "id": "JDeAUnBSEW1Uq7pKEk5QL2Wysr8=", "properties": {"@spider": "usps_collection_boxes", "addr:city": "SOMERVILLE", "addr:country": "US", "addr:full": "116 W NORTH", "addr:postcode": "38068", "addr:state": "TN", "brand": "USPS", "collection_times": "Mo-Fr 16:30; Sa 12:00", "name": "USPS COLLECTION BOX - BLUE BOX", "note": "ON 12/24 AND 12/31, THIS BOX MAY BE COLLECTED AS EARLY AS 12 NOON.", "ref": "3806800002"}, "type": "Feature"}
{"geometry": {"coordinates": [-89.3505504, 35.243772], "type": "Point"}, "id": "_-tfJYPYk7drl5IxXsUA2L03UDo=", "properties": {"@spider": "usps_collection_boxes", "addr:city": "SOMERVILLE", "addr:country": "US", "addr:full": "101 W COURT SQ", "addr:postcode": "38068", "addr:state": "TN", "brand": "USPS", "collection_times": "Mo-Fr 11:00; Sa 10:00", "name": "USPS COLLECTION BOX - BLUE BOX", "ref": "3806800009"}, "type": "Feature"}
{"geometry": {"coordinates": [-89.3506451, 35.245386], "type": "Point"}, "id": "0yBtvGsQBp_d02EEDnNUvwJ2-6g=", "properties": {"@spider": "usps_collection_boxes", "addr:city": "SOMERVILLE", "addr:country": "US", "addr:full": "116 W NORTH ST", "addr:postcode": "38068", "addr:state": "TN", "brand": "USPS", "collection_times": "Mo-Fr 16:30; Sa 12:00", "name": "USPS COLLECTION BOX - PO LOBBY", "note": "ON 12/24 AND 12/31, THIS BOX MAY BE COLLECTED AS EARLY AS 12 NOON.", "ref": "3806800012"}, "type": "Feature"}
{"geometry": {"coordinates": [-89.3406706, 35.241577], "type": "Point"}, "id": "8wbISM-fe_lXgKNII5U0FoM_zUQ=", "properties": {"@spider": "usps_collection_boxes", "addr:city": "SOMERVILLE", "addr:country": "US", "addr:full": "17310 US HIGHWAY 64", "addr:postcode": "38068", "addr:state": "TN", "brand": "USPS", "collection_times": "Mo-Fr 11:00; Sa 10:00", "name": "USPS COLLECTION BOX - BLUE BOX", "ref": "3806800013"}, "type": "Feature"}
{"geometry": {"coordinates": [-89.2753423534, 36.1263509086], "type": "Point"}, "id": "3PwCazY52MxlrYuH_wgOe957jMI=", "properties": {"@spider": "usps_collection_boxes", "addr:city": "TIGRETT", "addr:country": "US", "addr:full": "179 STOKES RD", "addr:postcode": "38070", "addr:state": "TN", "brand": "USPS", "collection_times": "Mo-Fr 15:30; Sa 10:00", "name": "USPS COLLECTION BOX - BLUE BOX", "note": "ON 12/24 AND 12/31, THIS BOX MAY BE COLLECTED AS EARLY AS 12 NOON.", "ref": "3807000001"}, "type": "Feature"}
{"geometry": {"coordinates": [-89.2753423534, 36.1263509086], "type": "Point"}, "id": "QWleBf8mqReMXRmEKB-eEDRFONw=", "properties": {"@spider": "usps_collection_boxes", "addr:city": "TIGRETT", "addr:country": "US", "addr:full": "179 STOKES RD", "addr:postcode": "38070", "addr:state": "TN", "brand": "USPS", "collection_times": "Mo-Fr 15:30; Sa 10:00", "name": "USPS COLLECTION BOX - PO LOBBY", "note": "ON 12/24 AND 12/31, THIS BOX MAY BE COLLECTED AS EARLY AS 12 NOON.", "ref": "3807000002"}, "type": "Feature"}
{"geometry": {"coordinates": [-89.8273045436, 35.4124192269], "type": "Point"}, "id": "9CeG-7n8HJ6T5kyjVGONiHHI1-U=", "properties": {"@spider": "usps_collection_boxes", "addr:city": "TIPTON", "addr:country": "US", "addr:full": "2520 TIPTON RD", "addr:postcode": "38071", "addr:state": "TN", "brand": "USPS", "collection_times": "Mo-Fr 13:00; Sa 10:45", "name": "USPS COLLECTION BOX - PO LOBBY", "note": "ON 12/24 AND 12/31, THIS BOX MAY BE COLLECTED AS EARLY AS 12 NOON.", "ref": "3807100001"}, "type": "Feature"}
{"geometry": {"coordinates": [-89.8273045436, 35.4124192269], "type": "Point"}, "id": "ANhx-4wVxv4-8ONuopKzuNgt2_I=", "properties": {"@spider": "usps_collection_boxes", "addr:city": "TIPTON", "addr:country": "US", "addr:full": "2520 TIPTON RD", "addr:postcode": "38071", "addr:state": "TN", "brand": "USPS", "collection_times": "Mo-Fr 13:00; Sa 10:45", "name": "USPS COLLECTION BOX - BLUE BOX", "note": "ON 12/24 AND 12/31, THIS BOX MAY BE COLLECTED AS EARLY AS 12 NOON.", "ref": "3807100002"}, "type": "Feature"}
{"geometry": {"coordinates": [-89.151289, 35.326002], "type": "Point"}, "id": "r3E5oThlYsEFRr3UDG_VH6wvgHU=", "properties": {"@spider": "usps_collection_boxes", "addr:city": "WHITEVILLE", "addr:country": "US", "addr:full": "112 W MAIN ST", "addr:postcode": "38075", "addr:state": "TN", "brand": "USPS", "collection_times": "Mo-Fr 16:00; Sa 11:15", "name": "USPS COLLECTION BOX - PO LOBBY", "note": "ON 12/24 AND 12/31, THIS BOX MAY BE COLLECTED AS EARLY AS 12 NOON.", "ref": "3807500000"}, "type": "Feature"}
{"geometry": {"coordinates": [-89.151289, 35.326002], "type": "Point"}, "id": "atGN7jmr2uxm-9uIlgtiIKmXlQI=", "properties": {"@spider": "usps_collection_boxes", "addr:city": "WHITEVILLE", "addr:country": "US", "addr:full": "112 W MAIN ST", "addr:postcode": "38075", "addr:state": "TN", "brand": "USPS", "collection_times": "Mo-Fr 16:00; Sa 11:15", "name": "USPS COLLECTION BOX - BLUE BOX", "note": "ON 12/24 AND 12/31, THIS BOX MAY BE COLLECTED AS EARLY AS 12 NOON.", "ref": "3807500001"}, "type": "Feature"}
{"geometry": {"coordinates": [-89.474422, 36.326388], "type": "Point"}, "id": "NXqEL7YbogZMKa4lKliAxLGqAtY=", "properties": {"@spider": "usps_collection_boxes", "addr:city": "WYNNBURG", "addr:country": "US", "addr:full": "5 1ST ST", "addr:postcode": "38077", "addr:state": "TN", "brand": "USPS", "collection_times": "Mo-Fr 13:45; Sa 10:45", "name": "USPS COLLECTION BOX - BLUE BOX", "note": "ON 12/24 AND 12/31, THIS BOX MAY BE COLLECTED AS EARLY AS 12 NOON.", "ref": "3807700001"}, "type": "Feature"}
{"geometry": {"coordinates": [-89.474401, 36.326409], "type": "Point"}, "id": "EIF85WMbJyqK_o-8l-IUFxwQbr4=", "properties": {"@spider": "usps_collection_boxes", "addr:city": "WYNNBURG", "addr:country": "US", "addr:full": "5 1ST ST", "addr:postcode": "38077", "addr:state": "TN", "brand": "USPS", "collection_times": "Mo-Fr 13:45; Sa 10:45", "name": "USPS COLLECTION BOX - PO LOBBY", "note": "ON 12/24 AND 12/31, THIS BOX MAY BE COLLECTED AS EARLY AS 12 NOON.", "ref": "3807700002"}, "type": "Feature"}
{"geometry": {"coordinates": [-89.4823942, 36.378822], "type": "Point"}, "id": "4h-6PaV7BaDwFaOu1b_RAm6V99U=", "properties": {"@spider": "usps_collection_boxes", "addr:city": "TIPTONVILLE", "addr:country": "US", "addr:full": "404 CHURCH ST", "addr:postcode": "38079", "addr:state": "TN", "brand": "USPS", "collection_times": "Mo-Fr 16:15; Sa 13:00", "name": "USPS COLLECTION BOX - BLUE BOX", "note": "ON 12/24 AND 12/31, THIS BOX MAY BE COLLECTED AS EARLY AS 12 NOON.", "ref": "3807900000"}, "type": "Feature"}
{"geometry": {"coordinates": [-89.4823406, 36.378615], "type": "Point"}, "id": "UtlFrAwIefhCWJmH2IChgyHq20Y=", "properties": {"@spider": "usps_collection_boxes", "addr:city": "TIPTONVILLE", "addr:country": "US", "addr:full": "404 CHURCH ST", "addr:postcode": "38079", "addr:state": "TN", "brand": "USPS", "collection_times": "Mo-Fr 16:30; Sa 13:00", "name": "USPS COLLECTION BOX - PO LOBBY", "note": "ON 12/24 AND 12/31, THIS BOX MAY BE COLLECTED AS EARLY AS 12 NOON.", "ref": "3807900001"}, "type": "Feature"}
{"geometry": {"coordinates": [-89.4839794, 36.378325], "type": "Point"}, "id": "fHsHa22E6PwPQhmZO0uU9IefmH8=", "properties": {"@spider": "usps_collection_boxes", "addr:city": "TIPTONVILLE", "addr:country": "US", "addr:full": "229 CHURCH ST", "addr:postcode": "38079", "addr:state": "TN", "brand": "USPS", "collection_times": "Mo-Fr 15:30; Sa 13:00", "name": "USPS COLLECTION BOX - BLUE BOX", "note": "ON 12/24 AND 12/31, THIS BOX MAY BE COLLECTED AS EARLY AS 12 NOON.", "ref": "3807900002"}, "type": "Feature"}
{"geometry": {"coordinates": [-89.4698699, 36.371019], "type": "Point"}, "id": "45u8ofC-JP5OgnvP9xpHfxUQ1hY=", "properties": {"@spider": "usps_collection_boxes", "addr:city": "TIPTONVILLE", "addr:country": "US", "addr:full": "740 EVERETT ST", "addr:postcode": "38079", "addr:state": "TN", "brand": "USPS", "collection_times": "Mo-Sa 11:00", "name": "USPS COLLECTION BOX - BLUE BOX", "ref": "3807900003"}, "type": "Feature"}
{"geometry": {"coordinates": [-89.487579, 36.263763], "type": "Point"}, "id": "MIbAMMM8B5Ka3jFx8-_pRhPCg4w=", "properties": {"@spider": "usps_collection_boxes", "addr:city": "RIDGELY", "addr:country": "US", "addr:full": "107 N MAIN ST", "addr:postcode": "38080", "addr:state": "TN", "brand": "USPS", "collection_times": "Mo-Fr 13:00; Sa 10:00", "name": "USPS COLLECTION BOX - BLUE BOX", "note": "ON 12/24 AND 12/31, THIS BOX MAY BE COLLECTED AS EARLY AS 12 NOON.", "ref": "3808000007"}, "type": "Feature"}
{"geometry": {"coordinates": [-89.4864933, 36.264105], "type": "Point"}, "id": "z9ze0JNDQxar5397dM8MG7Zus_0=", "properties": {"@spider": "usps_collection_boxes", "addr:city": "RIDGELY", "addr:country": "US", "addr:full": "120 LAKE ST", "addr:postcode": "38080", "addr:state": "TN", "brand": "USPS", "collection_times": "Mo-Fr 15:00; Sa 10:00", "name": "USPS COLLECTION BOX - BLUE BOX", "note": "ON 12/24 AND 12/31, THIS BOX MAY BE COLLECTED AS EARLY AS 12 NOON.", "ref": "3808000008"}, "type": "Feature"}
{"geometry": {"coordinates": [-89.4865211, 36.264181], "type": "Point"}, "id": "hAzZLOYKEKcCMiUl-izzMNrU-AY=", "properties": {"@spider": "usps_collection_boxes", "addr:city": "RIDGELY", "addr:country": "US", "addr:full": "120 LAKE ST", "addr:postcode": "38080", "addr:state": "TN", "brand": "USPS", "collection_times": "Mo-Fr 15:00; Sa 10:00", "name": "USPS COLLECTION BOX - PO LOBBY", "note": "ON 12/24 AND 12/31, THIS BOX MAY BE COLLECTED AS EARLY AS 12 NOON.", "ref": "3808000009"}, "type": "Feature"}
