{"geometry": {"coordinates": [-90.054695, 35.131895], "type": "Point"}, "id": "mqpeFSSYKeRvzrBW18oQEg43V0M=", "properties": {"@source_uri": "https://tools.usps.com/UspsToolsRestServices/rest/POLocator/findLocations", "@spider": "usps_collection_boxes", "addr:city": "MEMPHIS", "addr:country": "US", "addr:postcode": "38101", "addr:state": "TN", "addr:street_address": "555 S B B KING BLVD", "amenity": "post_box", "collection_times": "Mo-Sa 18:30", "note": "ON 12/24 AND 12/31, THIS BOX MAY BE COLLECTED AS EARLY AS 12 NOON.", "nsi_id": "unitedstatespostalservice-a77078", "operator": "United States Postal Service", "operator:short": "USPS", "operator:type": "public", "operator:wikidata": "Q668687", "ref": "3810100002"}, "type": "Feature"}
{"geometry": {"coordinates": [-90.054714, 35.132155], "type": "Point"}, "id": "QaguAst3rudhrD5tvLOflbPTHZU=", "properties": {"@source_uri": "https://tools.usps.com/UspsToolsRestServices/rest/POLocator/findLocations", "@spider": "usps_collection_boxes", "addr:city": "MEMPHIS", "addr:country": "US", "addr:postcode": "38101", "addr:state": "TN", "addr:street_address": "555 S B B KING BLVD", "amenity": "post_box", "collection_times": "Mo-Sa 20:00", "indoor": "yes", "note": "ON 12/24 AND 12/31, THIS BOX MAY BE COLLECTED AS EARLY AS 12 NOON.", "nsi_id": "unitedstatespostalservice-a77078", "operator": "United States Postal Service", "operator:short": "USPS", "operator:type": "public", "operator:wikidata": "Q668687", "ref": "3810100008"}, "type": "Feature"}
{"geometry": {"coordinates": [-90.054714, 35.132155], "type": "Point"}, "id": "mCYFtBnkNSxcXbvsztLNiSMhsxY=", "properties": {"@source_uri": "https://tools.usps.com/UspsToolsRestServices/rest/POLocator/findLocations", "@spider": "usps_collection_boxes", "addr:city": "MEMPHIS", "addr:country": "US", "addr:postcode": "38101", "addr:state": "TN", "addr:street_address": "555 S B B KING BLVD", "amenity": "post_box", "collection_times": "Mo-Sa 20:00", "indoor": "yes", "note": "ON 12/24 AND 12/31, THIS BOX MAY BE COLLECTED AS EARLY AS 12 NOON.", "nsi_id": "unitedstatespostalservice-a77078", "operator": "United States Postal Service", "operator:short": "USPS", "operator:type": "public", "operator:wikidata": "Q668687", "ref": "3810100009"}, "type": "Feature"}
{"geometry": {"coordinates": [-90.0555540389, 35.1311340207], "type": "Point"}, "id": "jNXObJPXENwhPMmXytQTEf805nA=", "properties": {"@source_uri": "https://tools.usps.com/UspsToolsRestServices/rest/POLocator/findLocations", "@spider": "usps_collection_boxes", "addr:city": "MEMPHIS", "addr:country": "US", "addr:postcode": "38101", "addr:state": "TN", "addr:street_address": "555 S B B KING BLVD", "amenity": "post_box", "collection_times": "Mo-Fr 18:00", "indoor": "yes", "note": "ON 12/24 AND 12/31, THIS BOX MAY BE COLLECTED AS EARLY AS 12 NOON.", "nsi_id": "unitedstatespostalservice-a77078", "operator": "United States Postal Service", "operator:short": "USPS", "operator:type": "public", "operator:wikidata": "Q668687", "ref": "3810100015"}, "type": "Feature"}
{"geometry": {"coordinates": [-90.0543509843, 35.1404310181], "type": "Point"}, "id": "APXJnlntd81QYhV7-jhjWK1-_JI=", "properties": {"@source_uri": "https://tools.usps.com/UspsToolsRestServices/rest/POLocator/findLocations", "@spider": "usps_collection_boxes", "addr:city": "MEMPHIS", "addr:country": "US", "addr:postcode": "38103", "addr:state": "TN", "addr:street_address": "180 S MAIN ST", "amenity": "post_box", "collection_times": "Mo-Fr 13:00", "note": "ON 12/24 AND 12/31, THIS BOX MAY BE COLLECTED AS EARLY AS 12 NOON.", "nsi_id": "unitedstatespostalservice-a77078", "operator": "United States Postal Service", "operator:short": "USPS", "operator:type": "public", "operator:wikidata": "Q668687", "ref": "3810300003"}, "type": "Feature"}
{"geometry": {"coordinates": [-90.05061, 35.14378], "type": "Point"}, "id": "Ogz2_qxzfNjvMpJc05yk6clxkho=", "properties": {"@source_uri": "https://tools.usps.com/UspsToolsRestServices/rest/POLocator/findLocations", "@spider": "usps_collection_boxes", "addr:city": "MEMPHIS", "addr:country": "US", "addr:postcode": "38103", "addr:state": "TN", "addr:street_address": "28 S 2ND ST", "amenity": "post_box", "collection_times": "Mo-Fr 13:00; Sa 13:30", "note": "ON 12/24 AND 12/31, THIS BOX MAY BE COLLECTED AS EARLY AS 12 NOON.", "nsi_id": "unitedstatespostalservice-a77078", "operator": "United States Postal Service", "operator:short": "USPS", "operator:type": "public", "operator:wikidata": "Q668687", "ref": "3810300007"}, "type": "Feature"}
{"geometry": {"coordinates": [-90.0467950339, 35.1485859813], "type": "Point"}, "id": "dOfXte95kpZtfwL4W32jKzuGRHg=", "properties": {"@source_uri": "https://tools.usps.com/UspsToolsRestServices/rest/POLocator/findLocations", "@spider": "usps_collection_boxes", "addr:city": "MEMPHIS", "addr:country": "US", "addr:postcode": "38103", "addr:state": "TN", "addr:street_address": "201 POPLAR AVE", "amenity": "post_box", "collection_times": "Mo-Fr 13:00", "note": "ON 12/24 AND 12/31, THIS BOX MAY BE COLLECTED AS EARLY AS 12 NOON.", "nsi_id": "unitedstatespostalservice-a77078", "operator": "United States Postal Service", "operator:short": "USPS", "operator:type": "public", "operator:wikidata": "Q668687", "ref": "3810300009"}, "type": "Feature"}
{"geometry": {"coordinates": [-90.05061, 35.14378], "type": "Point"}, "id": "3bJHp0rN6vsO0-WHCu4FJteJT0M=", "properties": {"@source_uri": "https://tools.usps.com/UspsToolsRestServices/rest/POLocator/findLocations", "@spider": "usps_collection_boxes", "addr:city": "MEMPHIS", "addr:country": "US", "addr:postcode": "38103", "addr:state": "TN", "addr:street_address": "200 BEALE ST", "amenity": "post_box", "collection_times": "Mo-Sa 13:00", "note": "ON 12/24 AND 12/31, THIS BOX MAY BE COLLECTED AS EARLY AS 12 NOON.", "nsi_id": "unitedstatespostalservice-a77078", "operator": "United States Postal Service", "operator:short": "USPS", "operator:type": "public", "operator:wikidata": "Q668687", "ref": "3810300014"}, "type": "Feature"}
{"geometry": {"coordinates": [-90.0488490841, 35.1462772989], "type": "Point"}, "id": "zqY9dCKNYZf-SfD3cIrwmWIF0JY=", "properties": {"@source_uri": "https://tools.usps.com/UspsToolsRestServices/rest/POLocator/findLocations", "@spider": "usps_collection_boxes", "addr:city": "MEMPHIS", "addr:country": "US", "addr:postcode": "38103", "addr:state": "TN", "addr:street_address": "201 JEFFERSON AVE", "amenity": "post_box", "collection_times": "Mo-Sa 13:00", "note": "ON 12/24 AND 12/31, THIS BOX MAY BE COLLECTED AS EARLY AS 12 NOON.", "nsi_id": "unitedstatespostalservice-a77078", "operator": "United States Postal Service", "operator:short": "USPS", "operator:type": "public", "operator:wikidata": "Q668687", "ref": "3810300017"}, "type": "Feature"}
{"geometry": {"coordinates": [-90.05061, 35.14378], "type": "Point"}, "id": "56dPAuHdTEnThvE1-EDIgJrXvHw=", "properties": {"@source_uri": "https://tools.usps.com/UspsToolsRestServices/rest/POLocator/findLocations", "@spider": "usps_collection_boxes", "addr:city": "MEMPHIS", "addr:country": "US", "addr:postcode": "38103", "addr:state": "TN", "addr:street_address": "65 UNION AVE", "amenity": "post_box", "collection_times": "Mo-Fr 13:00", "note": "ON 12/24 AND 12/31, THIS BOX MAY BE COLLECTED AS EARLY AS 12 NOON.", "nsi_id": "unitedstatespostalservice-a77078", "operator": "United States Postal Service", "operator:short": "USPS", "operator:type": "public", "operator:wikidata": "Q668687", "ref": "3810300025"}, "type": "Feature"}
{"geometry": {"coordinates": [-90.05061, 35.14378], "type": "Point"}, "id": "I_fQU-cLCPDY9bYR_TFaqlD7WVs=", "properties": {"@source_uri": "https://tools.usps.com/UspsToolsRestServices/rest/POLocator/findLocations", "@spider": "usps_collection_boxes", "addr:city": "MEMPHIS", "addr:country": "US", "addr:postcode": "38103", "addr:state": "TN", "addr:street_address": "144 N B B KING BLVD", "amenity": "post_box", "collection_times": "Mo-Sa 13:00", "note": "ON 12/24 AND 12/31, THIS BOX MAY BE COLLECTED AS EARLY AS 12 NOON.", "nsi_id": "unitedstatespostalservice-a77078", "operator": "United States Postal Service", "operator:short": "USPS", "operator:type": "public", "operator:wikidata": "Q668687", "ref": "3810300026"}, "type": "Feature"}
{"geometry": {"coordinates": [-90.05061, 35.14378], "type": "Point"}, "id": "xssMB18CJ1dwAKHDDa7uVguok1c=", "properties": {"@source_uri": "https://tools.usps.com/UspsToolsRestServices/rest/POLocator/findLocations", "@spider": "usps_collection_boxes", "addr:city": "MEMPHIS", "addr:country": "US", "addr:postcode": "38103", "addr:state": "TN", "addr:street_address": "2 N 2ND ST", "amenity": "post_box", "collection_times": "Mo-Sa 13:00", "note": "ON 12/24 AND 12/31, THIS BOX MAY BE COLLECTED AS EARLY AS 12 NOON.", "nsi_id": "unitedstatespostalservice-a77078", "operator": "United States Postal Service", "operator:short": "USPS", "operator:type": "public", "operator:wikidata": "Q668687", "ref": "3810300028"}, "type": "Feature"}
{"geometry": {"coordinates": [-90.0538280374, 35.1441309998], "type": "Point"}, "id": "FzE8XmmJIhqmDMyjfnQGDeudEjM=", "properties": {"@source_uri": "https://tools.usps.com/UspsToolsRestServices/rest/POLocator/findLocations", "@spider": "usps_collection_boxes", "addr:city": "MEMPHIS", "addr:country": "US", "addr:postcode": "38103", "addr:state": "TN", "addr:street_address": "81 MONROE AVE", "amenity": "post_box", "collection_times": "Mo-Fr 13:00", "note": "ON 12/24 AND 12/31, THIS BOX MAY BE COLLECTED AS EARLY AS 12 NOON.", "nsi_id": "unitedstatespostalservice-a77078", "operator": "United States Postal Service", "operator:short": "USPS", "operator:type": "public", "operator:wikidata": "Q668687", "ref": "3810300031"}, "type": "Feature"}
{"geometry": {"coordinates": [-90.0538850343, 35.1434920054], "type": "Point"}, "id": "SYeu56-SuY2sGBU8HhAG0-ORGJE=", "properties": {"@source_uri": "https://tools.usps.com/UspsToolsRestServices/rest/POLocator/findLocations", "@spider": "usps_collection_boxes", "addr:city": "MEMPHIS", "addr:country": "US", "addr:postcode": "38103", "addr:state": "TN", "addr:street_address": "88 UNION AVE", "amenity": "post_box", "collection_times": "Mo-Fr 13:00", "note": "ON 12/24 AND 12/31, THIS BOX MAY BE COLLECTED AS EARLY AS 12 NOON.", "nsi_id": "unitedstatespostalservice-a77078", "operator": "United States Postal Service", "operator:short": "USPS", "operator:type": "public", "operator:wikidata": "Q668687", "ref": "3810300038"}, "type": "Feature"}
{"geometry": {"coordinates": [-90.0324009592, 35.143048016], "type": "Point"}, "id": "SYjTuyMnve6JtL1ldV6NQCH9JN8=", "properties": {"@source_uri": "https://tools.usps.com/UspsToolsRestServices/rest/POLocator/findLocations", "@spider": "usps_collection_boxes", "addr:city": "MEMPHIS", "addr:country": "US", "addr:postcode": "38103", "addr:state": "TN", "addr:street_address": "842 JEFFERSON AVE", "amenity": "post_box", "collection_times": "Mo-Fr 13:00", "note": "ON 12/24 AND 12/31, THIS BOX MAY BE COLLECTED AS EARLY AS 12 NOON.", "nsi_id": "unitedstatespostalservice-a77078", "operator": "United States Postal Service", "operator:short": "USPS", "operator:type": "public", "operator:wikidata": "Q668687", "ref": "3810300050"}, "type": "Feature"}
{"geometry": {"coordinates": [-90.0303366, 35.140328], "type": "Point"}, "id": "T7b6Hpt5jWzUTx902Gp2R1uvGKU=", "properties": {"@source_uri": "https://tools.usps.com/UspsToolsRestServices/rest/POLocator/findLocations", "@spider": "usps_collection_boxes", "addr:city": "MEMPHIS", "addr:country": "US", "addr:postcode": "38103", "addr:state": "TN", "addr:street_address": "910 MADISON AVE", "amenity": "post_box", "collection_times": "Mo-Fr 13:00", "note": "ON 12/24 AND 12/31, THIS BOX MAY BE COLLECTED AS EARLY AS 12 NOON.", "nsi_id": "unitedstatespostalservice-a77078", "operator": "United States Postal Service", "operator:short": "USPS", "operator:type": "public", "operator:wikidata": "Q668687", "ref": "3810300055"}, "type": "Feature"}
{"geometry": {"coordinates": [-90.0310154, 35.142552], "type": "Point"}, "id": "vnELYcvuGBYUSTSvV_ddIuMm6jA=", "properties": {"@source_uri": "https://tools.usps.com/UspsToolsRestServices/rest/POLocator/findLocations", "@spider": "usps_collection_boxes", "addr:city": "MEMPHIS", "addr:country": "US", "addr:postcode": "38103", "addr:state": "TN", "addr:street_address": "877 JEFFERSON AVE", "amenity": "post_box", "collection_times": "Mo-Sa 13:00", "note": "ON 12/24 AND 12/31, THIS BOX MAY BE COLLECTED AS EARLY AS 12 NOON.", "nsi_id": "unitedstatespostalservice-a77078", "operator": "United States Postal Service", "operator:short": "USPS", "operator:type": "public", "operator:wikidata": "Q668687", "ref": "3810300136"}, "type": "Feature"}
{"geometry": {"coordinates": [-90.0537759858, 35.1611610154], "type": "Point"}, "id": "090PucM8zEj1bAsmpbHDeRZ8gUk=", "properties": {"@source_uri": "https://tools.usps.com/UspsToolsRestServices/rest/POLocator/findLocations", "@spider": "usps_collection_boxes", "addr:city": "MEMPHIS", "addr:country": "US", "addr:postcode": "38103", "addr:state": "TN", "addr:street_address": "737 HARBOR BEND RD", "amenity": "post_box", "collection_times": "Mo-Sa 13:00", "note": "ON 12/24 AND 12/31, THIS BOX MAY BE COLLECTED AS EARLY AS 12 NOON.", "nsi_id": "unitedstatespostalservice-a77078", "operator": "United States Postal Service", "operator:short": "USPS", "operator:type": "public", "operator:wikidata": "Q668687", "ref": "3810300137"}, "type": "Feature"}
{"geometry": {"coordinates": [-90.05061, 35.14378], "type": "Point"}, "id": "5Jf5CU_yLa0dYkFjnRc7ry-_YIY=", "properties": {"@source_uri": "https://tools.usps.com/UspsToolsRestServices/rest/POLocator/findLocations", "@spider": "usps_collection_boxes", "addr:city": "MEMPHIS", "addr:country": "US", "addr:postcode": "38103", "addr:state": "TN", "addr:street_address": "170 N MAIN ST", "amenity": "post_box", "collection_times": "Mo-Fr 13:00", "note": "ON 12/24 AND 12/31, THIS BOX MAY BE COLLECTED AS EARLY AS 12 NOON.", "nsi_id": "unitedstatespostalservice-a77078", "operator": "United States Postal Service", "operator:short": "USPS", "operator:type": "public", "operator:wikidata": "Q668687", "ref": "3810300138"}, "type": "Feature"}
{"geometry": {"coordinates": [-90.0537090143, 35.1411770075], "type": "Point"}, "id": "Ln-J2EA6e-rBrY3vwVi5T37gRR0=", "properties": {"@source_uri": "https://tools.usps.com/UspsToolsRestServices/rest/POLocator/findLocations", "@spider": "usps_collection_boxes", "addr:city": "MEMPHIS", "addr:country": "US", "addr:postcode": "38103", "addr:state": "TN", "addr:street_address": "100 PEABODY PL", "amenity": "post_box", "collection_times": "Mo-Fr 16:45", "indoor": "yes", "note": "ON 12/24 AND 12/31, THIS BOX MAY BE COLLECTED AS EARLY AS 12 NOON.", "nsi_id": "unitedstatespostalservice-a77078", "operator": "United States Postal Service", "operator:short": "USPS", "operator:type": "public", "operator:wikidata": "Q668687", "ref": "3810300144"}, "type": "Feature"}
{"geometry": {"coordinates": [-90.0537090143, 35.1411770075], "type": "Point"}, "id": "8FN__TAY1Ij-E-OjOc5wYr1bylw=", "properties": {"@source_uri": "https://tools.usps.com/UspsToolsRestServices/rest/POLocator/findLocations", "@spider": "usps_collection_boxes", "addr:city": "MEMPHIS", "addr:country": "US", "addr:postcode": "38103", "addr:state": "TN", "addr:street_address": "100 PEABODY PL", "amenity": "post_box", "collection_times": "Mo-Fr 17:00", "indoor": "yes", "note": "ON 12/24 AND 12/31, THIS BOX MAY BE COLLECTED AS EARLY AS 12 NOON.", "nsi_id": "unitedstatespostalservice-a77078", "operator": "United States Postal Service", "operator:short": "USPS", "operator:type": "public", "operator:wikidata": "Q668687", "ref": "3810300146"}, "type": "Feature"}
{"geometry": {"coordinates": [-90.0173529, 35.135736], "type": "Point"}, "id": "_5US8tPUNlOiQ0MgHvAax_TbiUE=", "properties": {"@source_uri": "https://tools.usps.com/UspsToolsRestServices/rest/POLocator/findLocations", "@spider": "usps_collection_boxes", "addr:city": "MEMPHIS", "addr:country": "US", "addr:postcode": "38104", "addr:state": "TN", "addr:street_address": "1325 EASTMORELAND AVE", "amenity": "post_box", "collection_times": "Mo-Sa 13:00", "note": "ON 12/24 AND 12/31, THIS BOX MAY BE COLLECTED AS EARLY AS 12 NOON.", "nsi_id": "unitedstatespostalservice-a77078", "operator": "United States Postal Service", "operator:short": "USPS", "operator:type": "public", "operator:wikidata": "Q668687", "ref": "3810400034"}, "type": "Feature"}
{"geometry": {"coordinates": [-89.9901372338, 35.1362242354], "type": "Point"}, "id": "vvzEqF0AVhm5pamA4JKk2pf35GU=", "properties": {"@source_uri": "https://tools.usps.com/UspsToolsRestServices/rest/POLocator/findLocations", "@spider": "usps_collection_boxes", "addr:city": "MEMPHIS", "addr:country": "US", "addr:postcode": "38104", "addr:state": "TN", "addr:street_address": "6 S COOPER ST", "amenity": "post_box", "collection_times": "Mo-Fr 13:00; Sa 12:30", "note": "ON 12/24 AND 12/31, THIS BOX MAY BE COLLECTED AS EARLY AS 12 NOON.", "nsi_id": "unitedstatespostalservice-a77078", "operator": "United States Postal Service", "operator:short": "USPS", "operator:type": "public", "operator:wikidata": "Q668687", "ref": "3810400061"}, "type": "Feature"}
{"geometry": {"coordinates": [-90.0179129, 35.136289], "type": "Point"}, "id": "v08p3ZYHJeMHGsVV2maLVcLfk2A=", "properties": {"@source_uri": "https://tools.usps.com/UspsToolsRestServices/rest/POLocator/findLocations", "@spider": "usps_collection_boxes", "addr:city": "MEMPHIS", "addr:country": "US", "addr:postcode": "38104", "addr:state": "TN", "addr:street_address": "225 S CLAYBROOK ST", "amenity": "post_box", "collection_times": "Mo-Sa 13:00", "note": "ON 12/24 AND 12/31, THIS BOX MAY BE COLLECTED AS EARLY AS 12 NOON.", "nsi_id": "unitedstatespostalservice-a77078", "operator": "United States Postal Service", "operator:short": "USPS", "operator:type": "public", "operator:wikidata": "Q668687", "ref": "3810400064"}, "type": "Feature"}
{"geometry": {"coordinates": [-90.0158893, 35.150046], "type": "Point"}, "id": "nSyDoFwht2PONSNSdhSHV9XobX0=", "properties": {"@source_uri": "https://tools.usps.com/UspsToolsRestServices/rest/POLocator/findLocations", "@spider": "usps_collection_boxes", "addr:city": "MEMPHIS", "addr:country": "US", "addr:postcode": "38104", "addr:state": "TN", "addr:street_address": "1325 AUTUMN AVE", "amenity": "post_box", "collection_times": "Mo-Fr 17:00; Sa 13:00", "indoor": "yes", "note": "ON 12/24 AND 12/31, THIS BOX MAY BE COLLECTED AS EARLY AS 12 NOON.", "nsi_id": "unitedstatespostalservice-a77078", "operator": "United States Postal Service", "operator:short": "USPS", "operator:type": "public", "operator:wikidata": "Q668687", "ref": "3810400097"}, "type": "Feature"}
{"geometry": {"coordinates": [-90.0240193, 35.143563], "type": "Point"}, "id": "pI5h_RZwOEjdyzTBxN-6Pe6m4Hg=", "properties": {"@source_uri": "https://tools.usps.com/UspsToolsRestServices/rest/POLocator/findLocations", "@spider": "usps_collection_boxes", "addr:city": "MEMPHIS", "addr:country": "US", "addr:postcode": "38104", "addr:state": "TN", "addr:street_address": "1060 JEFFERSON AVE", "amenity": "post_box", "collection_times": "Mo-Sa 13:00", "note": "ON 12/24 AND 12/31, THIS BOX MAY BE COLLECTED AS EARLY AS 12 NOON.", "nsi_id": "unitedstatespostalservice-a77078", "operator": "United States Postal Service", "operator:short": "USPS", "operator:type": "public", "operator:wikidata": "Q668687", "ref": "3810400101"}, "type": "Feature"}
{"geometry": {"coordinates": [-89.9985199, 35.137665], "type": "Point"}, "id": "6yVRRFap7_O1RLLPY6GLdjbijyU=", "properties": {"@source_uri": "https://tools.usps.com/UspsToolsRestServices/rest/POLocator/findLocations", "@spider": "usps_collection_boxes", "addr:city": "MEMPHIS", "addr:country": "US", "addr:postcode": "38104", "addr:state": "TN", "addr:street_address": "1878 MADISON AVE", "amenity": "post_box", "collection_times": "Mo-Fr 13:00; Sa 12:30", "note": "ON 12/24 AND 12/31, THIS BOX MAY BE COLLECTED AS EARLY AS 12 NOON.", "nsi_id": "unitedstatespostalservice-a77078", "operator": "United States Postal Service", "operator:short": "USPS", "operator:type": "public", "operator:wikidata": "Q668687", "ref": "3810400104"}, "type": "Feature"}
{"geometry": {"coordinates": [-89.990657058, 35.127917644], "type": "Point"}, "id": "1fkam_wlV1b9znSVIS0QYGLR7Tg=", "properties": {"@source_uri": "https://tools.usps.com/UspsToolsRestServices/rest/POLocator/findLocations", "@spider": "usps_collection_boxes", "addr:city": "MEMPHIS", "addr:country": "US", "addr:postcode": "38104", "addr:state": "TN", "addr:street_address": "651 S COOPER ST", "amenity": "post_box", "collection_times": "Mo-Fr 13:00", "note": "ON 12/24 AND 12/31, THIS BOX MAY BE COLLECTED AS EARLY AS 12 NOON.", "nsi_id": "unitedstatespostalservice-a77078", "operator": "United States Postal Service", "operator:short": "USPS", "operator:type": "public", "operator:wikidata": "Q668687", "ref": "3810400110"}, "type": "Feature"}
{"geometry": {"coordinates": [-90.015175084, 35.150988576], "type": "Point"}, "id": "0rXXXHnpHFJQIAs9zD8Elr2h5ic=", "properties": {"@source_uri": "https://tools.usps.com/UspsToolsRestServices/rest/POLocator/findLocations", "@spider": "usps_collection_boxes", "addr:city": "MEMPHIS", "addr:country": "US", "addr:postcode": "38104", "addr:state": "TN", "addr:street_address": "1325 AUTUMN AVE", "amenity": "post_box", "collection_times": "Mo-Fr 17:00", "indoor": "yes", "note": "ON 12/24 AND 12/31, THIS BOX MAY BE COLLECTED AS EARLY AS 12 NOON.", "nsi_id": "unitedstatespostalservice-a77078", "operator": "United States Postal Service", "operator:short": "USPS", "operator:type": "public", "operator:wikidata": "Q668687", "ref": "3810400120"}, "type": "Feature"}
{"geometry": {"coordinates": [-90.0454319688, 35.1556269895], "type": "Point"}, "id": "n5DP4cGE9yF0So9PLdRMB3TFWRY=", "properties": {"@source_uri": "https://tools.usps.com/UspsToolsRestServices/rest/POLocator/findLocations", "@spider": "usps_collection_boxes", "addr:city": "MEMPHIS", "addr:country": "US", "addr:postcode": "38105", "addr:state": "TN", "addr:street_address": "262 DANNY THOMAS PL", "amenity": "post_box", "collection_times": "Mo-Fr 13:00", "note": "ON 12/24 AND 12/31, THIS BOX MAY BE COLLECTED AS EARLY AS 12 NOON.", "nsi_id": "unitedstatespostalservice-a77078", "operator": "United States Postal Service", "operator:short": "USPS", "operator:type": "public", "operator:wikidata": "Q668687", "ref": "3810500001"}, "type": "Feature"}
{"geometry": {"coordinates": [-90.0220270129, 35.1147450111], "type": "Point"}, "id": "ok4hU8ljz8fvGj9F7yivDZ_1I-8=", "properties": {"@source_uri": "https://tools.usps.com/UspsToolsRestServices/rest/POLocator/findLocations", "@spider": "usps_collection_boxes", "addr:city": "MEMPHIS", "addr:country": "US", "addr:postcode": "38106", "addr:state": "TN", "addr:street_address": "1169 S BELLEVUE BLVD", "amenity": "post_box", "collection_times": "Mo-Sa 13:00", "note": "ON 12/24 AND 12/31, THIS BOX MAY BE COLLECTED AS EARLY AS 12 NOON.", "nsi_id": "unitedstatespostalservice-a77078", "operator": "United States Postal Service", "operator:short": "USPS", "operator:type": "public", "operator:wikidata": "Q668687", "ref": "3810600023"}, "type": "Feature"}
{"geometry": {"coordinates": [-90.0192105, 35.080722], "type": "Point"}, "id": "Yo65hw-Dzu4DdAsyS3AhRX5SWeA=", "properties": {"@source_uri": "https://tools.usps.com/UspsToolsRestServices/rest/POLocator/findLocations", "@spider": "usps_collection_boxes", "addr:city": "MEMPHIS", "addr:country": "US", "addr:postcode": "38106", "addr:state": "TN", "addr:street_address": "2369 ELVIS PRESLEY BLVD", "amenity": "post_box", "collection_times": "Mo-Sa 13:00", "note": "ON 12/24 AND 12/31, THIS BOX MAY BE COLLECTED AS EARLY AS 12 NOON.", "nsi_id": "unitedstatespostalservice-a77078", "operator": "United States Postal Service", "operator:short": "USPS", "operator:type": "public", "operator:wikidata": "Q668687", "ref": "3810600026"}, "type": "Feature"}
{"geometry": {"coordinates": [-90.0192584, 35.094828], "type": "Point"}, "id": "j5vzX5b_4gK0c0P_QCp_ULJbyvY=", "properties": {"@source_uri": "https://tools.usps.com/UspsToolsRestServices/rest/POLocator/findLocations", "@spider": "usps_collection_boxes", "addr:city": "MEMPHIS", "addr:country": "US", "addr:postcode": "38106", "addr:state": "TN", "addr:street_address": "1921 ELVIS PRESLEY BLVD", "amenity": "post_box", "collection_times": "Mo-Sa 13:00", "note": "ON 12/24 AND 12/31, THIS BOX MAY BE COLLECTED AS EARLY AS 12 NOON.", "nsi_id": "unitedstatespostalservice-a77078", "operator": "United States Postal Service", "operator:short": "USPS", "operator:type": "public", "operator:wikidata": "Q668687", "ref": "3810600028"}, "type": "Feature"}
{"geometry": {"coordinates": [-90.0308229, 35.175515], "type": "Point"}, "id": "_e9DCSpTQy8oUKPifx6jmKqCvuA=", "properties": {"@source_uri": "https://tools.usps.com/UspsToolsRestServices/rest/POLocator/findLocations", "@spider": "usps_collection_boxes", "addr:city": "MEMPHIS", "addr:country": "US", "addr:postcode": "38107", "addr:state": "TN", "addr:street_address": "780 FIRESTONE AVE", "amenity": "post_box", "collection_times": "Mo-Fr 16:00; Sa 13:00", "indoor": "yes", "note": "ON 12/24 AND 12/31, THIS BOX MAY BE COLLECTED AS EARLY AS 12 NOON.", "nsi_id": "unitedstatespostalservice-a77078", "operator": "United States Postal Service", "operator:short": "USPS", "operator:type": "public", "operator:wikidata": "Q668687", "ref": "3810700030"}, "type": "Feature"}
{"geometry": {"coordinates": [-90.0307069766, 35.1756079798], "type": "Point"}, "id": "54wk0_aXBJQbCPk8PZQsmIh1_A8=", "properties": {"@source_uri": "https://tools.usps.com/UspsToolsRestServices/rest/POLocator/findLocations", "@spider": "usps_collection_boxes", "addr:city": "MEMPHIS", "addr:country": "US", "addr:postcode": "38107", "addr:state": "TN", "addr:street_address": "780 FIRESTONE AVE", "amenity": "post_box", "collection_times": "Mo-Fr 16:00; Sa 13:00", "note": "ON 12/24 AND 12/31, THIS BOX MAY BE COLLECTED AS EARLY AS 12 NOON.", "nsi_id": "unitedstatespostalservice-a77078", "operator": "United States Postal Service", "operator:short": "USPS", "operator:type": "public", "operator:wikidata": "Q668687", "ref": "3810700031"}, "type": "Feature"}
{"geometry": {"coordinates": [-90.025401084, 35.174604502], "type": "Point"}, "id": "YE1DeCE981ognrs37uUS1Ebohhc=", "properties": {"@source_uri": "https://tools.usps.com/UspsToolsRestServices/rest/POLocator/findLocations", "@spider": "usps_collection_boxes", "addr:city": "MEMPHIS", "addr:country": "US", "addr:postcode": "38107", "addr:state": "TN", "addr:street_address": "780 FIRESTONE AVE", "amenity": "post_box", "collection_times": "Mo-Fr 16:00", "indoor": "yes", "note": "ON 12/24 AND 12/31, THIS BOX MAY BE COLLECTED AS EARLY AS 12 NOON.", "nsi_id": "unitedstatespostalservice-a77078", "operator": "United States Postal Service", "operator:short": "USPS", "operator:type": "public", "operator:wikidata": "Q668687", "ref": "3810700038"}, "type": "Feature"}
{"geometry": {"coordinates": [-89.9869096, 35.171389], "type": "Point"}, "id": "FeslmszyNpjslq9IkE-9HsSlqNo=", "properties": {"@source_uri": "https://tools.usps.com/UspsToolsRestServices/rest/POLocator/findLocations", "@spider": "usps_collection_boxes", "addr:city": "MEMPHIS", "addr:country": "US", "addr:postcode": "38108", "addr:state": "TN", "addr:street_address": "1283 TUNICA ST", "amenity": "post_box", "collection_times": "Mo-Fr 16:00", "note": "ON 12/24 AND 12/31, THIS BOX MAY BE COLLECTED AS EARLY AS 12 NOON.", "nsi_id": "unitedstatespostalservice-a77078", "operator": "United States Postal Service", "operator:short": "USPS", "operator:type": "public", "operator:wikidata": "Q668687", "ref": "3810800014"}, "type": "Feature"}
{"geometry": {"coordinates": [-89.987335, 35.171526], "type": "Point"}, "id": "cDwUQxf7CR3a-8S9m5FYe9XfMBU=", "properties": {"@source_uri": "https://tools.usps.com/UspsToolsRestServices/rest/POLocator/findLocations", "@spider": "usps_collection_boxes", "addr:city": "MEMPHIS", "addr:country": "US", "addr:postcode": "38108", "addr:state": "TN", "addr:street_address": "1283 TUNICA ST", "amenity": "post_box", "collection_times": "Mo-Fr 16:00", "indoor": "yes", "note": "ON 12/24 AND 12/31, THIS BOX MAY BE COLLECTED AS EARLY AS 12 NOON.", "nsi_id": "unitedstatespostalservice-a77078", "operator": "United States Postal Service", "operator:short": "USPS", "operator:type": "public", "operator:wikidata": "Q668687", "ref": "3810800040"}, "type": "Feature"}
{"geometry": {"coordinates": [-89.9871291, 35.171447], "type": "Point"}, "id": "qZUjg3TCdcYgcNX-7hzOn5acQDo=", "properties": {"@source_uri": "https://tools.usps.com/UspsToolsRestServices/rest/POLocator/findLocations", "@spider": "usps_collection_boxes", "addr:city": "MEMPHIS", "addr:country": "US", "addr:postcode": "38108", "addr:state": "TN", "addr:street_address": "1283 TUNICA ST", "amenity": "post_box", "collection_times": "Mo-Fr 16:00", "indoor": "yes", "note": "ON 12/24 AND 12/31, THIS BOX MAY BE COLLECTED AS EARLY AS 12 NOON.", "nsi_id": "unitedstatespostalservice-a77078", "operator": "United States Postal Service", "operator:short": "USPS", "operator:type": "public", "operator:wikidata": "Q668687", "ref": "3810800043"}, "type": "Feature"}
{"geometry": {"coordinates": [-89.9875088, 35.171445], "type": "Point"}, "id": "TXh833s3qeFBCcMjhi4AMnQ_MPw=", "properties": {"@source_uri": "https://tools.usps.com/UspsToolsRestServices/rest/POLocator/findLocations", "@spider": "usps_collection_boxes", "addr:city": "MEMPHIS", "addr:country": "US", "addr:postcode": "38108", "addr:state": "TN", "addr:street_address": "1283 TUNICA ST", "amenity": "post_box", "collection_times": "Mo-Fr 16:00", "indoor": "yes", "note": "ON 12/24 AND 12/31, THIS BOX MAY BE COLLECTED AS EARLY AS 12 NOON.", "nsi_id": "unitedstatespostalservice-a77078", "operator": "United States Postal Service", "operator:short": "USPS", "operator:type": "public", "operator:wikidata": "Q668687", "ref": "3810800044"}, "type": "Feature"}
{"geometry": {"coordinates": [-89.9874348, 35.171545], "type": "Point"}, "id": "igo95fh7TNKHM_SLQnEa97oBm1o=", "properties": {"@source_uri": "https://tools.usps.com/UspsToolsRestServices/rest/POLocator/findLocations", "@spider": "usps_collection_boxes", "addr:city": "MEMPHIS", "addr:country": "US", "addr:postcode": "38108", "addr:state": "TN", "addr:street_address": "1283 TUNICA ST", "amenity": "post_box", "collection_times": "Mo-Fr 16:00", "indoor": "yes", "note": "ON 12/24 AND 12/31, THIS BOX MAY BE COLLECTED AS EARLY AS 12 NOON.", "nsi_id": "unitedstatespostalservice-a77078", "operator": "United States Postal Service", "operator:short": "USPS", "operator:type": "public", "operator:wikidata": "Q668687", "ref": "3810800045"}, "type": "Feature"}
{"geometry": {"coordinates": [-90.0028527416, 35.1473688885], "type": "Point"}, "id": "LXsc-NMw988q1jqUuCYBZPFO9VQ=", "properties": {"@source_uri": "https://tools.usps.com/UspsToolsRestServices/rest/POLocator/findLocations", "@spider": "usps_collection_boxes", "addr:city": "MEMPHIS", "addr:country": "US", "addr:postcode": "38108", "addr:state": "TN", "addr:street_address": "331 N EVERGREEN ST", "amenity": "post_box", "collection_times": "Mo-Fr 13:00", "note": "ON 12/24 AND 12/31, THIS BOX MAY BE COLLECTED AS EARLY AS 12 NOON.", "nsi_id": "unitedstatespostalservice-a77078", "operator": "United States Postal Service", "operator:short": "USPS", "operator:type": "public", "operator:wikidata": "Q668687", "ref": "3810800046"}, "type": "Feature"}
{"geometry": {"coordinates": [-89.986807494, 35.171702223], "type": "Point"}, "id": "tLet6qsxsoCnG6rZzDxNwNIt0oo=", "properties": {"@source_uri": "https://tools.usps.com/UspsToolsRestServices/rest/POLocator/findLocations", "@spider": "usps_collection_boxes", "addr:city": "MEMPHIS", "addr:country": "US", "addr:postcode": "38108", "addr:state": "TN", "addr:street_address": "1283 TUNICA ST", "amenity": "post_box", "collection_times": "Mo-Fr 16:00", "indoor": "yes", "note": "ON 12/24 AND 12/31, THIS BOX MAY BE COLLECTED AS EARLY AS 12 NOON.", "nsi_id": "unitedstatespostalservice-a77078", "operator": "United States Postal Service", "operator:short": "USPS", "operator:type": "public", "operator:wikidata": "Q668687", "ref": "3810800047"}, "type": "Feature"}
{"geometry": {"coordinates": [-90.0574839721, 35.0546330191], "type": "Point"}, "id": "e0WUeNm8dZLxSR9RYM6J2spjXt8=", "properties": {"@source_uri": "https://tools.usps.com/UspsToolsRestServices/rest/POLocator/findLocations", "@spider": "usps_collection_boxes", "addr:city": "MEMPHIS", "addr:country": "US", "addr:postcode": "38109", "addr:state": "TN", "addr:street_address": "193 E MITCHELL RD", "amenity": "post_box", "collection_times": "Mo-Fr 17:00; Sa 13:00", "note": "ON 12/24 AND 12/31, THIS BOX MAY BE COLLECTED AS EARLY AS 12 NOON.", "nsi_id": "unitedstatespostalservice-a77078", "operator": "United States Postal Service", "operator:short": "USPS", "operator:type": "public", "operator:wikidata": "Q668687", "ref": "3810900002"}, "type": "Feature"}
{"geometry": {"coordinates": [-90.06972, 35.100845], "type": "Point"}, "id": "y5-e3hxbwNxgLD6VqtGpgTyq-Lc=", "properties": {"@source_uri": "https://tools.usps.com/UspsToolsRestServices/rest/POLocator/findLocations", "@spider": "usps_collection_boxes", "addr:city": "MEMPHIS", "addr:country": "US", "addr:postcode": "38109", "addr:state": "TN", "addr:street_address": "1929 S 3RD ST", "amenity": "post_box", "collection_times": "Mo-Sa 13:00", "note": "ON 12/24 AND 12/31, THIS BOX MAY BE COLLECTED AS EARLY AS 12 NOON.", "nsi_id": "unitedstatespostalservice-a77078", "operator": "United States Postal Service", "operator:short": "USPS", "operator:type": "public", "operator:wikidata": "Q668687", "ref": "3810900007"}, "type": "Feature"}
{"geometry": {"coordinates": [-90.0822799886, 35.0274140039], "type": "Point"}, "id": "BQ2y8neuBGkX1j-W6Vm3GM8fSNQ=", "properties": {"@source_uri": "https://tools.usps.com/UspsToolsRestServices/rest/POLocator/findLocations", "@spider": "usps_collection_boxes", "addr:city": "MEMPHIS", "addr:country": "US", "addr:postcode": "38109", "addr:state": "TN", "addr:street_address": "4449 S 3RD ST", "amenity": "post_box", "collection_times": "Mo-Sa 13:00", "note": "ON 12/24 AND 12/31, THIS BOX MAY BE COLLECTED AS EARLY AS 12 NOON.", "nsi_id": "unitedstatespostalservice-a77078", "operator": "United States Postal Service", "operator:short": "USPS", "operator:type": "public", "operator:wikidata": "Q668687", "ref": "3810900014"}, "type": "Feature"}
{"geometry": {"coordinates": [-90.0574839721, 35.0546330191], "type": "Point"}, "id": "u8BOX7Wq8iaWk0AnhgEgMenPz20=", "properties": {"@source_uri": "https://tools.usps.com/UspsToolsRestServices/rest/POLocator/findLocations", "@spider": "usps_collection_boxes", "addr:city": "MEMPHIS", "addr:country": "US", "addr:postcode": "38109", "addr:state": "TN", "addr:street_address": "193 E MITCHELL RD", "amenity": "post_box", "collection_times": "Mo-Fr 17:00; Sa 13:00", "indoor": "yes", "note": "ON 12/24 AND 12/31, THIS BOX MAY BE COLLECTED AS EARLY AS 12 NOON.", "nsi_id": "unitedstatespostalservice-a77078", "operator": "United States Postal Service", "operator:short": "USPS", "operator:type": "public", "operator:wikidata": "Q668687", "ref": "3810900026"}, "type": "Feature"}
{"geometry": {"coordinates": [-90.057511, 35.055197], "type": "Point"}, "id": "4o-J3SfXpbea3AN_kv9YaIFhP9A=", "properties": {"@source_uri": "https://tools.usps.com/UspsToolsRestServices/rest/POLocator/findLocations", "@spider": "usps_collection_boxes", "addr:city": "MEMPHIS", "addr:country": "US", "addr:postcode": "38109", "addr:state": "TN", "addr:street_address": "193 E MITCHELL RD", "amenity": "post_box", "collection_times": "Mo-Fr 17:00; Sa 13:00", "indoor": "yes", "note": "ON 12/24 AND 12/31, THIS BOX MAY BE COLLECTED AS EARLY AS 12 NOON.", "nsi_id": "unitedstatespostalservice-a77078", "operator": "United States Postal Service", "operator:short": "USPS", "operator:type": "public", "operator:wikidata": "Q668687", "ref": "3810900027"}, "type": "Feature"}
{"geometry": {"coordinates": [-90.057473948, 35.055161491], "type": "Point"}, "id": "Io2JtOODMUBY5-dGMzzmwckpFJU=", "properties": {"@source_uri": "https://tools.usps.com/UspsToolsRestServices/rest/POLocator/findLocations", "@spider": "usps_collection_boxes", "addr:city": "MEMPHIS", "addr:country": "US", "addr:postcode": "38109", "addr:state": "TN", "addr:street_address": "193 E MITCHELL RD", "amenity": "post_box", "collection_times": "Mo-Fr 17:00", "indoor": "yes", "note": "ON 12/24 AND 12/31, THIS BOX MAY BE COLLECTED AS EARLY AS 12 NOON.", "nsi_id": "unitedstatespostalservice-a77078", "operator": "United States Postal Service", "operator:short": "USPS", "operator:type": "public", "operator:wikidata": "Q668687", "ref": "3810900028"}, "type": "Feature"}
{"geometry": {"coordinates": [-89.9488468, 35.131345], "type": "Point"}, "id": "yk1aSglW-qWkFmnmJN0jMDDG4Xg=", "properties": {"@source_uri": "https://tools.usps.com/UspsToolsRestServices/rest/POLocator/findLocations", "@spider": "usps_collection_boxes", "addr:city": "MEMPHIS", "addr:country": "US", "addr:postcode": "38111", "addr:state": "TN", "addr:street_address": "13 S PRESCOTT ST", "amenity": "post_box", "collection_times": "Mo-Fr 17:00; Sa 13:00", "note": "ON 12/24 AND 12/31, THIS BOX MAY BE COLLECTED AS EARLY AS 12 NOON.", "nsi_id": "unitedstatespostalservice-a77078", "operator": "United States Postal Service", "operator:short": "USPS", "operator:type": "public", "operator:wikidata": "Q668687", "ref": "3811100033"}, "type": "Feature"}
{"geometry": {"coordinates": [-89.948717, 35.131522], "type": "Point"}, "id": "wnw776ZmdoGT1FXJX-MZ_7fX9cE=", "properties": {"@source_uri": "https://tools.usps.com/UspsToolsRestServices/rest/POLocator/findLocations", "@spider": "usps_collection_boxes", "addr:city": "MEMPHIS", "addr:country": "US", "addr:postcode": "38111", "addr:state": "TN", "addr:street_address": "13 S PRESCOTT RD", "amenity": "post_box", "collection_times": "Mo-Fr 17:00; Sa 13:00", "note": "ON 12/24 AND 12/31, THIS BOX MAY BE COLLECTED AS EARLY AS 12 NOON.", "nsi_id": "unitedstatespostalservice-a77078", "operator": "United States Postal Service", "operator:short": "USPS", "operator:type": "public", "operator:wikidata": "Q668687", "ref": "3811100034"}, "type": "Feature"}
{"geometry": {"coordinates": [-89.9453931, 35.129968], "type": "Point"}, "id": "FtX-7eNj4iNEJJbV7etGSPf1kfA=", "properties": {"@source_uri": "https://tools.usps.com/UspsToolsRestServices/rest/POLocator/findLocations", "@spider": "usps_collection_boxes", "addr:city": "MEMPHIS", "addr:country": "US", "addr:postcode": "38111", "addr:state": "TN", "addr:street_address": "3490 POPLAR/HIGHLAND AVE", "amenity": "post_box", "collection_times": "Mo-Sa 13:00", "note": "ON 12/24 AND 12/31, THIS BOX MAY BE COLLECTED AS EARLY AS 12 NOON.", "nsi_id": "unitedstatespostalservice-a77078", "operator": "United States Postal Service", "operator:short": "USPS", "operator:type": "public", "operator:wikidata": "Q668687", "ref": "3811100039"}, "type": "Feature"}
{"geometry": {"coordinates": [-89.931449, 35.106512], "type": "Point"}, "id": "rYcCEaTVsOjzHTjV8pV1VwjLy7E=", "properties": {"@source_uri": "https://tools.usps.com/UspsToolsRestServices/rest/POLocator/findLocations", "@spider": "usps_collection_boxes", "addr:city": "MEMPHIS", "addr:country": "US", "addr:postcode": "38111", "addr:state": "TN", "addr:street_address": "3933 PARK AVE", "amenity": "post_box", "collection_times": "Mo-Sa 13:00", "note": "ON 12/24 AND 12/31, THIS BOX MAY BE COLLECTED AS EARLY AS 12 NOON.", "nsi_id": "unitedstatespostalservice-a77078", "operator": "United States Postal Service", "operator:short": "USPS", "operator:type": "public", "operator:wikidata": "Q668687", "ref": "3811100056"}, "type": "Feature"}
{"geometry": {"coordinates": [-89.968693, 35.108019], "type": "Point"}, "id": "JZFzoyGk4K8jle3Bs5NFqDX1wvA=", "properties": {"@source_uri": "https://tools.usps.com/UspsToolsRestServices/rest/POLocator/findLocations", "@spider": "usps_collection_boxes", "addr:city": "MEMPHIS", "addr:country": "US", "addr:postcode": "38111", "addr:state": "TN", "addr:street_address": "13 S PRESCOTT ST", "amenity": "post_box", "collection_times": "Mo-Fr 17:00; Sa 13:00", "indoor": "yes", "note": "ON 12/24 AND 12/31, THIS BOX MAY BE COLLECTED AS EARLY AS 12 NOON.", "nsi_id": "unitedstatespostalservice-a77078", "operator": "United States Postal Service", "operator:short": "USPS", "operator:type": "public", "operator:wikidata": "Q668687", "ref": "3811100066"}, "type": "Feature"}
{"geometry": {"coordinates": [-89.968693, 35.108019], "type": "Point"}, "id": "n4HQYtgxIEBG56erM_l4feg-YWM=", "properties": {"@source_uri": "https://tools.usps.com/UspsToolsRestServices/rest/POLocator/findLocations", "@spider": "usps_collection_boxes", "addr:city": "MEMPHIS", "addr:country": "US", "addr:postcode": "38111", "addr:state": "TN", "addr:street_address": "13 S PRESCOTT ST", "amenity": "post_box", "collection_times": "Mo-Fr 17:00; Sa 13:00", "indoor": "yes", "note": "ON 12/24 AND 12/31, THIS BOX MAY BE COLLECTED AS EARLY AS 12 NOON.", "nsi_id": "unitedstatespostalservice-a77078", "operator": "United States Postal Service", "operator:short": "USPS", "operator:type": "public", "operator:wikidata": "Q668687", "ref": "3811100067"}, "type": "Feature"}
{"geometry": {"coordinates": [-89.9405092, 35.119678], "type": "Point"}, "id": "s3AXKp_N9xE6TPooAZDPMyvjq7M=", "properties": {"@source_uri": "https://tools.usps.com/UspsToolsRestServices/rest/POLocator/findLocations", "@spider": "usps_collection_boxes", "addr:city": "MEMPHIS", "addr:country": "US", "addr:postcode": "38111", "addr:state": "TN", "addr:street_address": "436 PATTERSON ST", "amenity": "post_box", "collection_times": "Mo-Fr 13:00", "note": "ON 12/24 AND 12/31, THIS BOX MAY BE COLLECTED AS EARLY AS 12 NOON.", "nsi_id": "unitedstatespostalservice-a77078", "operator": "United States Postal Service", "operator:short": "USPS", "operator:type": "public", "operator:wikidata": "Q668687", "ref": "3811100069"}, "type": "Feature"}
{"geometry": {"coordinates": [-89.948745061, 35.131510022], "type": "Point"}, "id": "VPTPvdhRiXbBtFVoRZv-uqip2J0=", "properties": {"@source_uri": "https://tools.usps.com/UspsToolsRestServices/rest/POLocator/findLocations", "@spider": "usps_collection_boxes", "addr:city": "MEMPHIS", "addr:country": "US", "addr:postcode": "38111", "addr:state": "TN", "addr:street_address": "13 S PRESCOTT ST", "amenity": "post_box", "collection_times": "Mo-Fr 17:00", "indoor": "yes", "note": "ON 12/24 AND 12/31, THIS BOX MAY BE COLLECTED AS EARLY AS 12 NOON.", "nsi_id": "unitedstatespostalservice-a77078", "operator": "United States Postal Service", "operator:short": "USPS", "operator:type": "public", "operator:wikidata": "Q668687", "ref": "3811100072"}, "type": "Feature"}
{"geometry": {"coordinates": [-89.980389, 35.139715], "type": "Point"}, "id": "9IVLjJJW7cojTMphqLIuGGJ6Mec=", "properties": {"@source_uri": "https://tools.usps.com/UspsToolsRestServices/rest/POLocator/findLocations", "@spider": "usps_collection_boxes", "addr:city": "MEMPHIS", "addr:country": "US", "addr:postcode": "38112", "addr:state": "TN", "addr:street_address": "2400 POPLAR AVE", "amenity": "post_box", "collection_times": "Mo-Fr 13:00; Sa 12:00", "note": "ON 12/24 AND 12/31, THIS BOX MAY BE COLLECTED AS EARLY AS 12 NOON.", "nsi_id": "unitedstatespostalservice-a77078", "operator": "United States Postal Service", "operator:short": "USPS", "operator:type": "public", "operator:wikidata": "Q668687", "ref": "3811200010"}, "type": "Feature"}
{"geometry": {"coordinates": [-89.9756994, 35.138042], "type": "Point"}, "id": "hcniXv40N0YE-16T1uwdDIAZUIU=", "properties": {"@source_uri": "https://tools.usps.com/UspsToolsRestServices/rest/POLocator/findLocations", "@spider": "usps_collection_boxes", "addr:city": "MEMPHIS", "addr:country": "US", "addr:postcode": "38112", "addr:state": "TN", "addr:street_address": "2552 POPLAR AVE", "amenity": "post_box", "collection_times": "Mo-Fr 13:00; Sa 12:00", "note": "ON 12/24 AND 12/31, THIS BOX MAY BE COLLECTED AS EARLY AS 12 NOON.", "nsi_id": "unitedstatespostalservice-a77078", "operator": "United States Postal Service", "operator:short": "USPS", "operator:type": "public", "operator:wikidata": "Q668687", "ref": "3811200011"}, "type": "Feature"}
{"geometry": {"coordinates": [-89.974333, 35.137559], "type": "Point"}, "id": "RQ9wYwEgwPrkafXnWn5dCFtsaj4=", "properties": {"@source_uri": "https://tools.usps.com/UspsToolsRestServices/rest/POLocator/findLocations", "@spider": "usps_collection_boxes", "addr:city": "MEMPHIS", "addr:country": "US", "addr:postcode": "38112", "addr:state": "TN", "addr:street_address": "2600 POPLAR AVE", "amenity": "post_box", "collection_times": "Mo-Fr 13:00; Sa 12:00", "note": "ON 12/24 AND 12/31, THIS BOX MAY BE COLLECTED AS EARLY AS 12 NOON.", "nsi_id": "unitedstatespostalservice-a77078", "operator": "United States Postal Service", "operator:short": "USPS", "operator:type": "public", "operator:wikidata": "Q668687", "ref": "3811200012"}, "type": "Feature"}
{"geometry": {"coordinates": [-89.9743886, 35.134975], "type": "Point"}, "id": "pAB5UTOPq9O3V_NopRPaMSQ3AYg=", "properties": {"@source_uri": "https://tools.usps.com/UspsToolsRestServices/rest/POLocator/findLocations", "@spider": "usps_collection_boxes", "addr:city": "MEMPHIS", "addr:country": "US", "addr:postcode": "38112", "addr:state": "TN", "addr:street_address": "2670 UNION AVENUE EXT", "amenity": "post_box", "collection_times": "Mo-Fr 13:00; Sa 12:00", "note": "ON 12/24 AND 12/31, THIS BOX MAY BE COLLECTED AS EARLY AS 12 NOON.", "nsi_id": "unitedstatespostalservice-a77078", "operator": "United States Postal Service", "operator:short": "USPS", "operator:type": "public", "operator:wikidata": "Q668687", "ref": "3811200022"}, "type": "Feature"}
{"geometry": {"coordinates": [-89.9761204, 35.130981], "type": "Point"}, "id": "j8UVTr6TLZYZtSgEAl9VycuKdlU=", "properties": {"@source_uri": "https://tools.usps.com/UspsToolsRestServices/rest/POLocator/findLocations", "@spider": "usps_collection_boxes", "addr:city": "MEMPHIS", "addr:country": "US", "addr:postcode": "38112", "addr:state": "TN", "addr:street_address": "2562 AVERY AVE", "amenity": "post_box", "collection_times": "Mo-Fr 13:00; Sa 12:00", "note": "ON 12/24 AND 12/31, THIS BOX MAY BE COLLECTED AS EARLY AS 12 NOON.", "nsi_id": "unitedstatespostalservice-a77078", "operator": "United States Postal Service", "operator:short": "USPS", "operator:type": "public", "operator:wikidata": "Q668687", "ref": "3811200025"}, "type": "Feature"}
{"geometry": {"coordinates": [-89.96128, 35.145595], "type": "Point"}, "id": "WA405q0dXY-tfv6GdTKBuzYilrc=", "properties": {"@source_uri": "https://tools.usps.com/UspsToolsRestServices/rest/POLocator/findLocations", "@spider": "usps_collection_boxes", "addr:city": "MEMPHIS", "addr:country": "US", "addr:postcode": "38112", "addr:state": "TN", "addr:street_address": "3086 SUMMER AVE", "amenity": "post_box", "collection_times": "Mo-Fr 13:00", "note": "ON 12/24 AND 12/31, THIS BOX MAY BE COLLECTED AS EARLY AS 12 NOON.", "nsi_id": "unitedstatespostalservice-a77078", "operator": "United States Postal Service", "operator:short": "USPS", "operator:type": "public", "operator:wikidata": "Q668687", "ref": "3811200027"}, "type": "Feature"}
{"geometry": {"coordinates": [-89.9691889, 35.146732], "type": "Point"}, "id": "86RST8sn6Vs6R9g9JUMDd2E5qPM=", "properties": {"@source_uri": "https://tools.usps.com/UspsToolsRestServices/rest/POLocator/findLocations", "@spider": "usps_collection_boxes", "addr:city": "MEMPHIS", "addr:country": "US", "addr:postcode": "38112", "addr:state": "TN", "addr:street_address": "450 CUMBERLAND ST", "amenity": "post_box", "collection_times": "Mo-Fr 13:00; Sa 12:00", "note": "ON 12/24 AND 12/31, THIS BOX MAY BE COLLECTED AS EARLY AS 12 NOON.", "nsi_id": "unitedstatespostalservice-a77078", "operator": "United States Postal Service", "operator:short": "USPS", "operator:type": "public", "operator:wikidata": "Q668687", "ref": "3811200029"}, "type": "Feature"}
{"geometry": {"coordinates": [-89.9788879, 35.138464], "type": "Point"}, "id": "5GqcnkwMGDzJ6Bx11QkCpbfTuHg=", "properties": {"@source_uri": "https://tools.usps.com/UspsToolsRestServices/rest/POLocator/findLocations", "@spider": "usps_collection_boxes", "addr:city": "MEMPHIS", "addr:country": "US", "addr:postcode": "38112", "addr:state": "TN", "addr:street_address": "98 S ALICIA DR", "amenity": "post_box", "collection_times": "Mo-Fr 13:00; Sa 12:00", "note": "ON 12/24 AND 12/31, THIS BOX MAY BE COLLECTED AS EARLY AS 12 NOON.", "nsi_id": "unitedstatespostalservice-a77078", "operator": "United States Postal Service", "operator:short": "USPS", "operator:type": "public", "operator:wikidata": "Q668687", "ref": "3811200039"}, "type": "Feature"}
{"geometry": {"coordinates": [-89.9729799, 35.135001], "type": "Point"}, "id": "INFnaCbF_zmfKTuE614hf1n7MjI=", "properties": {"@source_uri": "https://tools.usps.com/UspsToolsRestServices/rest/POLocator/findLocations", "@spider": "usps_collection_boxes", "addr:city": "MEMPHIS", "addr:country": "US", "addr:postcode": "38112", "addr:state": "TN", "addr:street_address": "2675 UNION AVENUE EXT", "amenity": "post_box", "collection_times": "Mo-Fr 13:00; Sa 12:00", "note": "ON 12/24 AND 12/31, THIS BOX MAY BE COLLECTED AS EARLY AS 12 NOON.", "nsi_id": "unitedstatespostalservice-a77078", "operator": "United States Postal Service", "operator:short": "USPS", "operator:type": "public", "operator:wikidata": "Q668687", "ref": "3811200052"}, "type": "Feature"}
{"geometry": {"coordinates": [-90.089294971, 35.1076390013], "type": "Point"}, "id": "BBXMVjEBhNWQZgG8rXga9-ehBzs=", "properties": {"@source_uri": "https://tools.usps.com/UspsToolsRestServices/rest/POLocator/findLocations", "@spider": "usps_collection_boxes", "addr:city": "MEMPHIS", "addr:country": "US", "addr:postcode": "38113", "addr:state": "TN", "addr:street_address": "1035 HARBOR AVE", "amenity": "post_box", "collection_times": "Mo-Fr 12:00", "indoor": "yes", "nsi_id": "unitedstatespostalservice-a77078", "operator": "United States Postal Service", "operator:short": "USPS", "operator:type": "public", "operator:wikidata": "Q668687", "ref": "3811300010"}, "type": "Feature"}
{"geometry": {"coordinates": [-90.089294971, 35.1076390013], "type": "Point"}, "id": "v0nM77IeJuPRzINn9tHoX0KJMgs=", "properties": {"@source_uri": "https://tools.usps.com/UspsToolsRestServices/rest/POLocator/findLocations", "@spider": "usps_collection_boxes", "addr:city": "MEMPHIS", "addr:country": "US", "addr:postcode": "38113", "addr:state": "TN", "addr:street_address": "1035 HARBOR AVE", "amenity": "post_box", "collection_times": "Mo-Fr 12:00", "indoor": "yes", "nsi_id": "unitedstatespostalservice-a77078", "operator": "United States Postal Service", "operator:short": "USPS", "operator:type": "public", "operator:wikidata": "Q668687", "ref": "3811300011"}, "type": "Feature"}
{"geometry": {"coordinates": [-89.9846609915, 35.1056550048], "type": "Point"}, "id": "_1qpUTu7tcrusV083EGKkVr0ucY=", "properties": {"@source_uri": "https://tools.usps.com/UspsToolsRestServices/rest/POLocator/findLocations", "@spider": "usps_collection_boxes", "addr:city": "MEMPHIS", "addr:country": "US", "addr:postcode": "38114", "addr:state": "TN", "addr:street_address": "1458 S TREZEVANT ST", "amenity": "post_box", "collection_times": "Mo-Fr 16:00; Sa 13:00", "note": "ON 12/24 AND 12/31, THIS BOX MAY BE COLLECTED AS EARLY AS 12 NOON.", "nsi_id": "unitedstatespostalservice-a77078", "operator": "United States Postal Service", "operator:short": "USPS", "operator:type": "public", "operator:wikidata": "Q668687", "ref": "3811400001"}, "type": "Feature"}
{"geometry": {"coordinates": [-89.984705, 35.105666], "type": "Point"}, "id": "lLBBmpTGZi7QHRJmG6JP5uBwsVk=", "properties": {"@source_uri": "https://tools.usps.com/UspsToolsRestServices/rest/POLocator/findLocations", "@spider": "usps_collection_boxes", "addr:city": "MEMPHIS", "addr:country": "US", "addr:postcode": "38114", "addr:state": "TN", "addr:street_address": "1458 S TREZEVANT ST", "amenity": "post_box", "collection_times": "Mo-Fr 16:00", "indoor": "yes", "note": "ON 12/24 AND 12/31, THIS BOX MAY BE COLLECTED AS EARLY AS 12 NOON.", "nsi_id": "unitedstatespostalservice-a77078", "operator": "United States Postal Service", "operator:short": "USPS", "operator:type": "public", "operator:wikidata": "Q668687", "ref": "3811400044"}, "type": "Feature"}
{"geometry": {"coordinates": [-89.985012137, 35.105489848], "type": "Point"}, "id": "RkzuTIuu-TgEWV9IpBo9NRpAcfc=", "properties": {"@source_uri": "https://tools.usps.com/UspsToolsRestServices/rest/POLocator/findLocations", "@spider": "usps_collection_boxes", "addr:city": "MEMPHIS", "addr:country": "US", "addr:postcode": "38114", "addr:state": "TN", "addr:street_address": "1458 S TREZEVANT ST", "amenity": "post_box", "collection_times": "Mo-Fr 16:00", "indoor": "yes", "note": "ON 12/24 AND 12/31, THIS BOX MAY BE COLLECTED AS EARLY AS 12 NOON.", "nsi_id": "unitedstatespostalservice-a77078", "operator": "United States Postal Service", "operator:short": "USPS", "operator:type": "public", "operator:wikidata": "Q668687", "ref": "3811400046"}, "type": "Feature"}
{"geometry": {"coordinates": [-89.8706852, 35.073861], "type": "Point"}, "id": "dG9P5NCoogyBEEYhv1znUYi2Mks=", "properties": {"@source_uri": "https://tools.usps.com/UspsToolsRestServices/rest/POLocator/findLocations", "@spider": "usps_collection_boxes", "addr:city": "MEMPHIS", "addr:country": "US", "addr:postcode": "38115", "addr:state": "TN", "addr:street_address": "2736 MOUNT MORIAH PKWY", "amenity": "post_box", "collection_times": "Mo-Sa 13:00", "note": "ON 12/24 AND 12/31, THIS BOX MAY BE COLLECTED AS EARLY AS 12 NOON.", "nsi_id": "unitedstatespostalservice-a77078", "operator": "United States Postal Service", "operator:short": "USPS", "operator:type": "public", "operator:wikidata": "Q668687", "ref": "3811500011"}, "type": "Feature"}
{"geometry": {"coordinates": [-89.8865895, 35.082528], "type": "Point"}, "id": "rvjkumvEIdhICiymUbKkGxDgtOk=", "properties": {"@source_uri": "https://tools.usps.com/UspsToolsRestServices/rest/POLocator/findLocations", "@spider": "usps_collection_boxes", "addr:city": "MEMPHIS", "addr:country": "US", "addr:postcode": "38115", "addr:state": "TN", "addr:street_address": "2500 MOUNT MORIAH RD", "amenity": "post_box", "collection_times": "Mo-Sa 13:00", "note": "ON 12/24 AND 12/31, THIS BOX MAY BE COLLECTED AS EARLY AS 12 NOON.", "nsi_id": "unitedstatespostalservice-a77078", "operator": "United States Postal Service", "operator:short": "USPS", "operator:type": "public", "operator:wikidata": "Q668687", "ref": "3811500012"}, "type": "Feature"}
{"geometry": {"coordinates": [-89.8457747, 35.051159], "type": "Point"}, "id": "dNZOPdGAlSvsKSpdLpEj_vmvqF4=", "properties": {"@source_uri": "https://tools.usps.com/UspsToolsRestServices/rest/POLocator/findLocations", "@spider": "usps_collection_boxes", "addr:city": "MEMPHIS", "addr:country": "US", "addr:postcode": "38115", "addr:state": "TN", "addr:street_address": "6524 WINCHESTER RD", "amenity": "post_box", "collection_times": "Mo-Sa 13:00", "note": "ON 12/24 AND 12/31, THIS BOX MAY BE COLLECTED AS EARLY AS 12 NOON.", "nsi_id": "unitedstatespostalservice-a77078", "operator": "United States Postal Service", "operator:short": "USPS", "operator:type": "public", "operator:wikidata": "Q668687", "ref": "3811500021"}, "type": "Feature"}
{"geometry": {"coordinates": [-89.8798714, 35.050233], "type": "Point"}, "id": "z34qORBsHLhjQOXKqCso5MXlYIA=", "properties": {"@source_uri": "https://tools.usps.com/UspsToolsRestServices/rest/POLocator/findLocations", "@spider": "usps_collection_boxes", "addr:city": "MEMPHIS", "addr:country": "US", "addr:postcode": "38115", "addr:state": "TN", "addr:street_address": "5495 WINCHESTER RD", "amenity": "post_box", "collection_times": "Mo-Sa 13:00", "note": "ON 12/24 AND 12/31, THIS BOX MAY BE COLLECTED AS EARLY AS 12 NOON.", "nsi_id": "unitedstatespostalservice-a77078", "operator": "United States Postal Service", "operator:short": "USPS", "operator:type": "public", "operator:wikidata": "Q668687", "ref": "3811500023"}, "type": "Feature"}
{"geometry": {"coordinates": [-89.861147, 35.070817], "type": "Point"}, "id": "i1_11o7PFkDfzOjrtxETje7joqo=", "properties": {"@source_uri": "https://tools.usps.com/UspsToolsRestServices/rest/POLocator/findLocations", "@spider": "usps_collection_boxes", "addr:city": "MEMPHIS", "addr:country": "US", "addr:postcode": "38115", "addr:state": "TN", "addr:street_address": "6099 APPLE TREE DR", "amenity": "post_box", "collection_times": "Mo-Sa 13:00", "note": "ON 12/24 AND 12/31, THIS BOX MAY BE COLLECTED AS EARLY AS 12 NOON.", "nsi_id": "unitedstatespostalservice-a77078", "operator": "United States Postal Service", "operator:short": "USPS", "operator:type": "public", "operator:wikidata": "Q668687", "ref": "3811500030"}, "type": "Feature"}
{"geometry": {"coordinates": [-89.866417994, 35.046504], "type": "Point"}, "id": "Wr4S-rSZm5nS4WLaVPx-E7o14Pg=", "properties": {"@source_uri": "https://tools.usps.com/UspsToolsRestServices/rest/POLocator/findLocations", "@spider": "usps_collection_boxes", "addr:city": "MEMPHIS", "addr:country": "US", "addr:postcode": "38115", "addr:state": "TN", "addr:street_address": "3735 HICKORY HILL RD", "amenity": "post_box", "collection_times": "Mo-Fr 17:00; Sa 13:00", "indoor": "yes", "note": "ON 12/24 AND 12/31, THIS BOX MAY BE COLLECTED AS EARLY AS 12 NOON.", "nsi_id": "unitedstatespostalservice-a77078", "operator": "United States Postal Service", "operator:short": "USPS", "operator:type": "public", "operator:wikidata": "Q668687", "ref": "3811500038"}, "type": "Feature"}
{"geometry": {"coordinates": [-89.8609933, 35.048237], "type": "Point"}, "id": "sE_zyTzsEMKU_oBeDfVMVX1sh7c=", "properties": {"@source_uri": "https://tools.usps.com/UspsToolsRestServices/rest/POLocator/findLocations", "@spider": "usps_collection_boxes", "addr:city": "MEMPHIS", "addr:country": "US", "addr:postcode": "38115", "addr:state": "TN", "addr:street_address": "6075 WINCHESTER RD", "amenity": "post_box", "collection_times": "Mo-Sa 13:00", "note": "ON 12/24 AND 12/31, THIS BOX MAY BE COLLECTED AS EARLY AS 12 NOON.", "nsi_id": "unitedstatespostalservice-a77078", "operator": "United States Postal Service", "operator:short": "USPS", "operator:type": "public", "operator:wikidata": "Q668687", "ref": "3811500039"}, "type": "Feature"}
{"geometry": {"coordinates": [-89.866417994, 35.046504], "type": "Point"}, "id": "XPWMPjuQwg_7YMhFd_Iv1rZhuHI=", "properties": {"@source_uri": "https://tools.usps.com/UspsToolsRestServices/rest/POLocator/findLocations", "@spider": "usps_collection_boxes", "addr:city": "MEMPHIS", "addr:country": "US", "addr:postcode": "38115", "addr:state": "TN", "addr:street_address": "3735 HICKORY HILL RD", "amenity": "post_box", "collection_times": "Mo-Fr 17:00; Sa 13:00", "indoor": "yes", "note": "ON 12/24 AND 12/31, THIS BOX MAY BE COLLECTED AS EARLY AS 12 NOON.", "nsi_id": "unitedstatespostalservice-a77078", "operator": "United States Postal Service", "operator:short": "USPS", "operator:type": "public", "operator:wikidata": "Q668687", "ref": "3811500045"}, "type": "Feature"}
{"geometry": {"coordinates": [-89.8675679834, 35.0465710112], "type": "Point"}, "id": "5RcVzBsDQuC5NZY1cyTN0pLQUCc=", "properties": {"@source_uri": "https://tools.usps.com/UspsToolsRestServices/rest/POLocator/findLocations", "@spider": "usps_collection_boxes", "addr:city": "MEMPHIS", "addr:country": "US", "addr:postcode": "38115", "addr:state": "TN", "addr:street_address": "3735 HICKORY HILL RD", "amenity": "post_box", "collection_times": "Mo-Fr 17:00; Sa 13:00", "note": "ON 12/24 AND 12/31, THIS BOX MAY BE COLLECTED AS EARLY AS 12 NOON.", "nsi_id": "unitedstatespostalservice-a77078", "operator": "United States Postal Service", "operator:short": "USPS", "operator:type": "public", "operator:wikidata": "Q668687", "ref": "3811500052"}, "type": "Feature"}
{"geometry": {"coordinates": [-89.866417994, 35.046504], "type": "Point"}, "id": "cP4KLGlp4sMTsoxQluaMUU-VZUI=", "properties": {"@source_uri": "https://tools.usps.com/UspsToolsRestServices/rest/POLocator/findLocations", "@spider": "usps_collection_boxes", "addr:city": "MEMPHIS", "addr:country": "US", "addr:postcode": "38115", "addr:state": "TN", "addr:street_address": "3735 HICKORY HILL RD", "amenity": "post_box", "collection_times": "Mo-Fr 17:00; Sa 13:00", "name": "USPS COLLECTION BOX - APC", "note": "ON 12/24 AND 12/31, THIS BOX MAY BE COLLECTED AS EARLY AS 12 NOON.", "nsi_id": "unitedstatespostalservice-a77078", "operator": "United States Postal Service", "operator:short": "USPS", "operator:type": "public", "operator:wikidata": "Q668687", "ref": "3811500055"}, "type": "Feature"}
{"geometry": {"coordinates": [-89.866417994, 35.046504], "type": "Point"}, "id": "at12iGodcXilD6REmmUlFoxHnLM=", "properties": {"@source_uri": "https://tools.usps.com/UspsToolsRestServices/rest/POLocator/findLocations", "@spider": "usps_collection_boxes", "addr:city": "MEMPHIS", "addr:country": "US", "addr:postcode": "38115", "addr:state": "TN", "addr:street_address": "3735 HICKORY HILL RD", "amenity": "post_box", "collection_times": "Mo-Fr 17:00; Sa 13:00", "indoor": "yes", "note": "ON 12/24 AND 12/31, THIS BOX MAY BE COLLECTED AS EARLY AS 12 NOON.", "nsi_id": "unitedstatespostalservice-a77078", "operator": "United States Postal Service", "operator:short": "USPS", "operator:type": "public", "operator:wikidata": "Q668687", "ref": "3811500060"}, "type": "Feature"}
{"geometry": {"coordinates": [-89.866417994, 35.046504], "type": "Point"}, "id": "fHVBVq4ruhGb17N5jAHufiTxRpM=", "properties": {"@source_uri": "https://tools.usps.com/UspsToolsRestServices/rest/POLocator/findLocations", "@spider": "usps_collection_boxes", "addr:city": "MEMPHIS", "addr:country": "US", "addr:postcode": "38115", "addr:state": "TN", "addr:street_address": "3735 HICKORY HILL RD", "amenity": "post_box", "collection_times": "Mo-Fr 17:00", "indoor": "yes", "note": "ON 12/24 AND 12/31, THIS BOX MAY BE COLLECTED AS EARLY AS 12 NOON.", "nsi_id": "unitedstatespostalservice-a77078", "operator": "United States Postal Service", "operator:short": "USPS", "operator:type": "public", "operator:wikidata": "Q668687", "ref": "3811500062"}, "type": "Feature"}
{"geometry": {"coordinates": [-89.9952289788, 35.0655989792], "type": "Point"}, "id": "NUR-lI-OLlfVpTC74jJwyak2KCY=", "properties": {"@source_uri": "https://tools.usps.com/UspsToolsRestServices/rest/POLocator/findLocations", "@spider": "usps_collection_boxes", "addr:city": "MEMPHIS", "addr:country": "US", "addr:postcode": "38116", "addr:state": "TN", "addr:street_address": "3035 DIRECTORS ROW", "amenity": "post_box", "collection_times": "Sa 13:00", "note": "ON 12/24 AND 12/31, THIS BOX MAY BE COLLECTED AS EARLY AS 12 NOON.", "nsi_id": "unitedstatespostalservice-a77078", "operator": "United States Postal Service", "operator:short": "USPS", "operator:type": "public", "operator:wikidata": "Q668687", "ref": "3811600001"}, "type": "Feature"}
{"geometry": {"coordinates": [-89.9922250706, 35.065058728], "type": "Point"}, "id": "vx2Ha4ICAAkzYElM2WCKDh4cpX8=", "properties": {"@source_uri": "https://tools.usps.com/UspsToolsRestServices/rest/POLocator/findLocations", "@spider": "usps_collection_boxes", "addr:city": "MEMPHIS", "addr:country": "US", "addr:postcode": "38116", "addr:state": "TN", "addr:street_address": "2996 DIRECTORS ROW", "amenity": "post_box", "collection_times": "Sa 13:00", "note": "ON 12/24 AND 12/31, THIS BOX MAY BE COLLECTED AS EARLY AS 12 NOON.", "nsi_id": "unitedstatespostalservice-a77078", "operator": "United States Postal Service", "operator:short": "USPS", "operator:type": "public", "operator:wikidata": "Q668687", "ref": "3811600003"}, "type": "Feature"}
{"geometry": {"coordinates": [-89.9798547, 35.049898], "type": "Point"}, "id": "F2UHAbANePsJEfP00Jpt4zMDHxg=", "properties": {"@source_uri": "https://tools.usps.com/UspsToolsRestServices/rest/POLocator/findLocations", "@spider": "usps_collection_boxes", "addr:city": "MEMPHIS", "addr:country": "US", "addr:postcode": "38116", "addr:state": "TN", "addr:street_address": "200 CARGO", "amenity": "post_box", "collection_times": "Mo-Sa 13:00", "note": "ON 12/24 AND 12/31, THIS BOX MAY BE COLLECTED AS EARLY AS 12 NOON.", "nsi_id": "unitedstatespostalservice-a77078", "operator": "United States Postal Service", "operator:short": "USPS", "operator:type": "public", "operator:wikidata": "Q668687", "ref": "3811600005"}, "type": "Feature"}
{"geometry": {"coordinates": [-90.0308257, 35.062456], "type": "Point"}, "id": "Xvpzbr6MET0VLQ0A42T7oA2CjBU=", "properties": {"@source_uri": "https://tools.usps.com/UspsToolsRestServices/rest/POLocator/findLocations", "@spider": "usps_collection_boxes", "addr:city": "MEMPHIS", "addr:country": "US", "addr:postcode": "38116", "addr:state": "TN", "addr:street_address": "3156 NORBROOK DR", "amenity": "post_box", "collection_times": "Mo-Sa 13:00", "note": "ON 12/24 AND 12/31, THIS BOX MAY BE COLLECTED AS EARLY AS 12 NOON.", "nsi_id": "unitedstatespostalservice-a77078", "operator": "United States Postal Service", "operator:short": "USPS", "operator:type": "public", "operator:wikidata": "Q668687", "ref": "3811600014"}, "type": "Feature"}
{"geometry": {"coordinates": [-90.0073887, 35.019803], "type": "Point"}, "id": "T2gU3rlqPopwab8NXkoIlUnX2FY=", "properties": {"@source_uri": "https://tools.usps.com/UspsToolsRestServices/rest/POLocator/findLocations", "@spider": "usps_collection_boxes", "addr:city": "MEMPHIS", "addr:country": "US", "addr:postcode": "38116", "addr:state": "TN", "addr:street_address": "4720 MILLBRANCH RD", "amenity": "post_box", "collection_times": "Mo-Sa 13:00", "note": "ON 12/24 AND 12/31, THIS BOX MAY BE COLLECTED AS EARLY AS 12 NOON.", "nsi_id": "unitedstatespostalservice-a77078", "operator": "United States Postal Service", "operator:short": "USPS", "operator:type": "public", "operator:wikidata": "Q668687", "ref": "3811600015"}, "type": "Feature"}
{"geometry": {"coordinates": [-90.014934, 35.034303], "type": "Point"}, "id": "OURAHg9GePbHaPJOdE2JzSGYmMo=", "properties": {"@source_uri": "https://tools.usps.com/UspsToolsRestServices/rest/POLocator/findLocations", "@spider": "usps_collection_boxes", "addr:city": "MEMPHIS", "addr:country": "US", "addr:postcode": "38116", "addr:state": "TN", "addr:street_address": "5134 MILLBRANCH RD", "amenity": "post_box", "collection_times": "Mo-Sa 13:00", "note": "ON 12/24 AND 12/31, THIS BOX MAY BE COLLECTED AS EARLY AS 12 NOON.", "nsi_id": "unitedstatespostalservice-a77078", "operator": "United States Postal Service", "operator:short": "USPS", "operator:type": "public", "operator:wikidata": "Q668687", "ref": "3811600016"}, "type": "Feature"}
{"geometry": {"coordinates": [-90.0224936, 35.021107], "type": "Point"}, "id": "ErChMnrQrYTyzA4MkkvGF70h-SM=", "properties": {"@source_uri": "https://tools.usps.com/UspsToolsRestServices/rest/POLocator/findLocations", "@spider": "usps_collection_boxes", "addr:city": "MEMPHIS", "addr:country": "US", "addr:postcode": "38116", "addr:state": "TN", "addr:street_address": "1250 E SHELBY DR", "amenity": "post_box", "collection_times": "Mo-Sa 13:00", "note": "ON 12/24 AND 12/31, THIS BOX MAY BE COLLECTED AS EARLY AS 12 NOON.", "nsi_id": "unitedstatespostalservice-a77078", "operator": "United States Postal Service", "operator:short": "USPS", "operator:type": "public", "operator:wikidata": "Q668687", "ref": "3811600020"}, "type": "Feature"}
{"geometry": {"coordinates": [-90.0240649327, 35.0355673379], "type": "Point"}, "id": "zYw3xY8bnCm_0SsIB0VYXoMCwek=", "properties": {"@source_uri": "https://tools.usps.com/UspsToolsRestServices/rest/POLocator/findLocations", "@spider": "usps_collection_boxes", "addr:city": "MEMPHIS", "addr:country": "US", "addr:postcode": "38116", "addr:state": "TN", "addr:street_address": "1200 E RAINES RD", "amenity": "post_box", "collection_times": "Mo-Sa 13:00", "note": "ON 12/24 AND 12/31, THIS BOX MAY BE COLLECTED AS EARLY AS 12 NOON.", "nsi_id": "unitedstatespostalservice-a77078", "operator": "United States Postal Service", "operator:short": "USPS", "operator:type": "public", "operator:wikidata": "Q668687", "ref": "3811600021"}, "type": "Feature"}
{"geometry": {"coordinates": [-90.0068531, 35.03548], "type": "Point"}, "id": "as5GwWIvoQPyK8U9sYvMuDu2NXk=", "properties": {"@source_uri": "https://tools.usps.com/UspsToolsRestServices/rest/POLocator/findLocations", "@spider": "usps_collection_boxes", "addr:city": "MEMPHIS", "addr:country": "US", "addr:postcode": "38116", "addr:state": "TN", "addr:street_address": "1717 E RAINES RD", "amenity": "post_box", "collection_times": "Mo-Sa 13:00", "note": "ON 12/24 AND 12/31, THIS BOX MAY BE COLLECTED AS EARLY AS 12 NOON.", "nsi_id": "unitedstatespostalservice-a77078", "operator": "United States Postal Service", "operator:short": "USPS", "operator:type": "public", "operator:wikidata": "Q668687", "ref": "3811600022"}, "type": "Feature"}
{"geometry": {"coordinates": [-90.0279859593, 35.0629319833], "type": "Point"}, "id": "FEUOIqgmWDqTf9eHaZ2v23VNybE=", "properties": {"@source_uri": "https://tools.usps.com/UspsToolsRestServices/rest/POLocator/findLocations", "@spider": "usps_collection_boxes", "addr:city": "MEMPHIS", "addr:country": "US", "addr:postcode": "38116", "addr:state": "TN", "addr:street_address": "1074 E BROOKS RD", "amenity": "post_box", "collection_times": "Mo-Fr 13:00", "note": "ON 12/24 AND 12/31, THIS BOX MAY BE COLLECTED AS EARLY AS 12 NOON.", "nsi_id": "unitedstatespostalservice-a77078", "operator": "United States Postal Service", "operator:short": "USPS", "operator:type": "public", "operator:wikidata": "Q668687", "ref": "3811600023"}, "type": "Feature"}
{"geometry": {"coordinates": [-90.0242895, 35.026223], "type": "Point"}, "id": "3Am44YmZo9I_1iNzhaqOEuQqDB4=", "properties": {"@source_uri": "https://tools.usps.com/UspsToolsRestServices/rest/POLocator/findLocations", "@spider": "usps_collection_boxes", "addr:city": "MEMPHIS", "addr:country": "US", "addr:postcode": "38116", "addr:state": "TN", "addr:street_address": "4466 ELVIS PRESLEY BLVD", "amenity": "post_box", "collection_times": "Mo-Sa 13:00", "note": "ON 12/24 AND 12/31, THIS BOX MAY BE COLLECTED AS EARLY AS 12 NOON.", "nsi_id": "unitedstatespostalservice-a77078", "operator": "United States Postal Service", "operator:short": "USPS", "operator:type": "public", "operator:wikidata": "Q668687", "ref": "3811600025"}, "type": "Feature"}
{"geometry": {"coordinates": [-90.0219199, 35.03246], "type": "Point"}, "id": "7pj8KP4y441qBRU2UA2qaoSK0VE=", "properties": {"@source_uri": "https://tools.usps.com/UspsToolsRestServices/rest/POLocator/findLocations", "@spider": "usps_collection_boxes", "addr:city": "MEMPHIS", "addr:country": "US", "addr:postcode": "38116", "addr:state": "TN", "addr:street_address": "1264 WESLEY DR", "amenity": "post_box", "collection_times": "Mo-Sa 13:00", "note": "ON 12/24 AND 12/31, THIS BOX MAY BE COLLECTED AS EARLY AS 12 NOON.", "nsi_id": "unitedstatespostalservice-a77078", "operator": "United States Postal Service", "operator:short": "USPS", "operator:type": "public", "operator:wikidata": "Q668687", "ref": "3811600031"}, "type": "Feature"}
{"geometry": {"coordinates": [-90.008825, 35.0485], "type": "Point"}, "id": "hrp6ASAom4qk3UEYAxPPQMMtPkM=", "properties": {"@source_uri": "https://tools.usps.com/UspsToolsRestServices/rest/POLocator/findLocations", "@spider": "usps_collection_boxes", "addr:city": "MEMPHIS", "addr:country": "US", "addr:postcode": "38116", "addr:state": "TN", "addr:street_address": "2239 DEMOCRAT RD", "amenity": "post_box", "collection_times": "Mo-Sa 13:00", "note": "ON 12/24 AND 12/31, THIS BOX MAY BE COLLECTED AS EARLY AS 12 NOON.", "nsi_id": "unitedstatespostalservice-a77078", "operator": "United States Postal Service", "operator:short": "USPS", "operator:type": "public", "operator:wikidata": "Q668687", "ref": "3811600033"}, "type": "Feature"}
{"geometry": {"coordinates": [-89.9798646, 35.049893], "type": "Point"}, "id": "9lupyITLWyvNP42_4zcN5JGNhPQ=", "properties": {"@source_uri": "https://tools.usps.com/UspsToolsRestServices/rest/POLocator/findLocations", "@spider": "usps_collection_boxes", "addr:city": "MEMPHIS", "addr:country": "US", "addr:postcode": "38116", "addr:state": "TN", "addr:street_address": "2800 CARGO CIR", "amenity": "post_box", "collection_times": "Mo-Sa 13:00", "note": "ON 12/24 AND 12/31, THIS BOX MAY BE COLLECTED AS EARLY AS 12 NOON.", "nsi_id": "unitedstatespostalservice-a77078", "operator": "United States Postal Service", "operator:short": "USPS", "operator:type": "public", "operator:wikidata": "Q668687", "ref": "3811600034"}, "type": "Feature"}
{"geometry": {"coordinates": [-90.0208566, 35.058318], "type": "Point"}, "id": "f-rErRpN3L-zfijaWFl-_mt2_Po=", "properties": {"@source_uri": "https://tools.usps.com/UspsToolsRestServices/rest/POLocator/findLocations", "@spider": "usps_collection_boxes", "addr:city": "MEMPHIS", "addr:country": "US", "addr:postcode": "38116", "addr:state": "TN", "addr:street_address": "1292 GATEWAY DR", "amenity": "post_box", "collection_times": "Mo-Fr 17:00; Sa 13:00", "indoor": "yes", "note": "ON 12/24 AND 12/31, THIS BOX MAY BE COLLECTED AS EARLY AS 12 NOON.", "nsi_id": "unitedstatespostalservice-a77078", "operator": "United States Postal Service", "operator:short": "USPS", "operator:type": "public", "operator:wikidata": "Q668687", "ref": "3811600051"}, "type": "Feature"}
{"geometry": {"coordinates": [-90.0208365, 35.05823], "type": "Point"}, "id": "zcB2V3por2Ltwia_hn2e7vXa9Ds=", "properties": {"@source_uri": "https://tools.usps.com/UspsToolsRestServices/rest/POLocator/findLocations", "@spider": "usps_collection_boxes", "addr:city": "MEMPHIS", "addr:country": "US", "addr:postcode": "38116", "addr:state": "TN", "addr:street_address": "1292 GATEWAY DR", "amenity": "post_box", "collection_times": "Mo-Fr 17:00; Sa 13:00", "indoor": "yes", "note": "ON 12/24 AND 12/31, THIS BOX MAY BE COLLECTED AS EARLY AS 12 NOON.", "nsi_id": "unitedstatespostalservice-a77078", "operator": "United States Postal Service", "operator:short": "USPS", "operator:type": "public", "operator:wikidata": "Q668687", "ref": "3811600054"}, "type": "Feature"}
{"geometry": {"coordinates": [-90.0208731, 35.058266], "type": "Point"}, "id": "cCANX5bpi0kDUr93tKLuMAlLrsU=", "properties": {"@source_uri": "https://tools.usps.com/UspsToolsRestServices/rest/POLocator/findLocations", "@spider": "usps_collection_boxes", "addr:city": "MEMPHIS", "addr:country": "US", "addr:postcode": "38116", "addr:state": "TN", "addr:street_address": "1292 GATEWAY DR", "amenity": "post_box", "collection_times": "Mo-Fr 17:00; Sa 13:00", "indoor": "yes", "note": "ON 12/24 AND 12/31, THIS BOX MAY BE COLLECTED AS EARLY AS 12 NOON.", "nsi_id": "unitedstatespostalservice-a77078", "operator": "United States Postal Service", "operator:short": "USPS", "operator:type": "public", "operator:wikidata": "Q668687", "ref": "3811600056"}, "type": "Feature"}
{"geometry": {"coordinates": [-90.0207225, 35.057976461], "type": "Point"}, "id": "ROfY2kNRXWKtqRONBTZ8DxlG8jc=", "properties": {"@source_uri": "https://tools.usps.com/UspsToolsRestServices/rest/POLocator/findLocations", "@spider": "usps_collection_boxes", "addr:city": "MEMPHIS", "addr:country": "US", "addr:postcode": "38116", "addr:state": "TN", "addr:street_address": "1292 GATEWAY DR", "amenity": "post_box", "collection_times": "Mo-Fr 17:00", "indoor": "yes", "note": "ON 12/24 AND 12/31, THIS BOX MAY BE COLLECTED AS EARLY AS 12 NOON.", "nsi_id": "unitedstatespostalservice-a77078", "operator": "United States Postal Service", "operator:short": "USPS", "operator:type": "public", "operator:wikidata": "Q668687", "ref": "3811600060"}, "type": "Feature"}
{"geometry": {"coordinates": [-89.8914417, 35.117266], "type": "Point"}, "id": "jFKe-xWKBj-zVHA0sIjdrUs8Nak=", "properties": {"@source_uri": "https://tools.usps.com/UspsToolsRestServices/rest/POLocator/findLocations", "@spider": "usps_collection_boxes", "addr:city": "MEMPHIS", "addr:country": "US", "addr:postcode": "38117", "addr:state": "TN", "addr:street_address": "5100 SANDERLIN AVE", "amenity": "post_box", "collection_times": "Mo-Fr 13:00; Sa 12:00", "note": "ON 12/24 AND 12/31, THIS BOX MAY BE COLLECTED AS EARLY AS 12 NOON.", "nsi_id": "unitedstatespostalservice-a77078", "operator": "United States Postal Service", "operator:short": "USPS", "operator:type": "public", "operator:wikidata": "Q668687", "ref": "3811700004"}, "type": "Feature"}
{"geometry": {"coordinates": [-89.8913904, 35.08811], "type": "Point"}, "id": "K5orf1L56ryCLtWk3_sD-MQ_bLc=", "properties": {"@source_uri": "https://tools.usps.com/UspsToolsRestServices/rest/POLocator/findLocations", "@spider": "usps_collection_boxes", "addr:city": "MEMPHIS", "addr:country": "US", "addr:postcode": "38117", "addr:state": "TN", "addr:street_address": "5137 QUINCE RD", "amenity": "post_box", "collection_times": "Mo-Fr 13:00; Sa 12:00", "note": "ON 12/24 AND 12/31, THIS BOX MAY BE COLLECTED AS EARLY AS 12 NOON.", "nsi_id": "unitedstatespostalservice-a77078", "operator": "United States Postal Service", "operator:short": "USPS", "operator:type": "public", "operator:wikidata": "Q668687", "ref": "3811700019"}, "type": "Feature"}
{"geometry": {"coordinates": [-89.906677, 35.118024], "type": "Point"}, "id": "pS_HD6J_AwTR7S0-clo8E808yKU=", "properties": {"@source_uri": "https://tools.usps.com/UspsToolsRestServices/rest/POLocator/findLocations", "@spider": "usps_collection_boxes", "addr:city": "MEMPHIS", "addr:country": "US", "addr:postcode": "38117", "addr:state": "TN", "addr:street_address": "475 S PERKINS RD", "amenity": "post_box", "collection_times": "Mo-Sa 12:00", "nsi_id": "unitedstatespostalservice-a77078", "operator": "United States Postal Service", "operator:short": "USPS", "operator:type": "public", "operator:wikidata": "Q668687", "ref": "3811700021"}, "type": "Feature"}
{"geometry": {"coordinates": [-89.9080231, 35.117816], "type": "Point"}, "id": "7broYZn9GL0UvszyIHfJrFcpgj4=", "properties": {"@source_uri": "https://tools.usps.com/UspsToolsRestServices/rest/POLocator/findLocations", "@spider": "usps_collection_boxes", "addr:city": "MEMPHIS", "addr:country": "US", "addr:postcode": "38117", "addr:state": "TN", "addr:street_address": "492 PERKINS EXTD", "amenity": "post_box", "collection_times": "Mo-Fr 13:00; Sa 12:00", "note": "ON 12/24 AND 12/31, THIS BOX MAY BE COLLECTED AS EARLY AS 12 NOON.", "nsi_id": "unitedstatespostalservice-a77078", "operator": "United States Postal Service", "operator:short": "USPS", "operator:type": "public", "operator:wikidata": "Q668687", "ref": "3811700024"}, "type": "Feature"}
{"geometry": {"coordinates": [-89.9058134, 35.108872], "type": "Point"}, "id": "bGHALYlsCqSU8ofqviB8VnNfj08=", "properties": {"@source_uri": "https://tools.usps.com/UspsToolsRestServices/rest/POLocator/findLocations", "@spider": "usps_collection_boxes", "addr:city": "MEMPHIS", "addr:country": "US", "addr:postcode": "38117", "addr:state": "TN", "addr:street_address": "755 CROSSOVER LN", "amenity": "post_box", "collection_times": "Mo-Fr 13:00; Sa 12:00", "note": "ON 12/24 AND 12/31, THIS BOX MAY BE COLLECTED AS EARLY AS 12 NOON.", "nsi_id": "unitedstatespostalservice-a77078", "operator": "United States Postal Service", "operator:short": "USPS", "operator:type": "public", "operator:wikidata": "Q668687", "ref": "3811700047"}, "type": "Feature"}
{"geometry": {"coordinates": [-89.9003286, 35.1105383], "type": "Point"}, "id": "8U9ISnU2Ale5vo9OnUrHbffm58s=", "properties": {"@source_uri": "https://tools.usps.com/UspsToolsRestServices/rest/POLocator/findLocations", "@spider": "usps_collection_boxes", "addr:city": "MEMPHIS", "addr:country": "US", "addr:postcode": "38117", "addr:state": "TN", "addr:street_address": "5165 POPLAR AVE", "amenity": "post_box", "collection_times": "Mo-Sa 12:00", "nsi_id": "unitedstatespostalservice-a77078", "operator": "United States Postal Service", "operator:short": "USPS", "operator:type": "public", "operator:wikidata": "Q668687", "ref": "3811700054"}, "type": "Feature"}
{"geometry": {"coordinates": [-89.9036821, 35.11483], "type": "Point"}, "id": "ACvTriqjfLFfBr2S5uKiBCXIpMs=", "properties": {"@source_uri": "https://tools.usps.com/UspsToolsRestServices/rest/POLocator/findLocations", "@spider": "usps_collection_boxes", "addr:city": "MEMPHIS", "addr:country": "US", "addr:postcode": "38117", "addr:state": "TN", "addr:street_address": "4745 POPLAR AVE", "amenity": "post_box", "collection_times": "Mo-Sa 12:00", "nsi_id": "unitedstatespostalservice-a77078", "operator": "United States Postal Service", "operator:short": "USPS", "operator:type": "public", "operator:wikidata": "Q668687", "ref": "3811700055"}, "type": "Feature"}
{"geometry": {"coordinates": [-89.8988983, 35.116673], "type": "Point"}, "id": "j6lfbC56TXuZ1_SeSQI2XvO_E3E=", "properties": {"@source_uri": "https://tools.usps.com/UspsToolsRestServices/rest/POLocator/findLocations", "@spider": "usps_collection_boxes", "addr:city": "MEMPHIS", "addr:country": "US", "addr:postcode": "38117", "addr:state": "TN", "addr:street_address": "521 ERIN DR", "amenity": "post_box", "collection_times": "Mo-Fr 17:00; Sa 13:00", "indoor": "yes", "note": "ON 12/24 AND 12/31, THIS BOX MAY BE COLLECTED AS EARLY AS 12 NOON.", "nsi_id": "unitedstatespostalservice-a77078", "operator": "United States Postal Service", "operator:short": "USPS", "operator:type": "public", "operator:wikidata": "Q668687", "ref": "3811700058"}, "type": "Feature"}
{"geometry": {"coordinates": [-89.890687, 35.107597], "type": "Point"}, "id": "FQj3BxmEwdPhQxejnu8yi0IvcoA=", "properties": {"@source_uri": "https://tools.usps.com/UspsToolsRestServices/rest/POLocator/findLocations", "@spider": "usps_collection_boxes", "addr:city": "MEMPHIS", "addr:country": "US", "addr:postcode": "38117", "addr:state": "TN", "addr:street_address": "5118 PARK AVE", "amenity": "post_box", "collection_times": "Mo-Sa 13:00", "note": "ON 12/24 AND 12/31, THIS BOX MAY BE COLLECTED AS EARLY AS 12 NOON.", "nsi_id": "unitedstatespostalservice-a77078", "operator": "United States Postal Service", "operator:short": "USPS", "operator:type": "public", "operator:wikidata": "Q668687", "ref": "3811700060"}, "type": "Feature"}
{"geometry": {"coordinates": [-89.898774, 35.115697], "type": "Point"}, "id": "W2mRREtXs8NO-wDwLN_bdBOeQgY=", "properties": {"@source_uri": "https://tools.usps.com/UspsToolsRestServices/rest/POLocator/findLocations", "@spider": "usps_collection_boxes", "addr:city": "MEMPHIS", "addr:country": "US", "addr:postcode": "38117", "addr:state": "TN", "addr:street_address": "521 ERIN DR", "amenity": "post_box", "collection_times": "Mo-Fr 17:00; Sa 13:00", "indoor": "yes", "note": "ON 12/24 AND 12/31, THIS BOX MAY BE COLLECTED AS EARLY AS 12 NOON.", "nsi_id": "unitedstatespostalservice-a77078", "operator": "United States Postal Service", "operator:short": "USPS", "operator:type": "public", "operator:wikidata": "Q668687", "ref": "3811700062"}, "type": "Feature"}
{"geometry": {"coordinates": [-89.8991960054, 35.1164410054], "type": "Point"}, "id": "Ti7Ds3iBcn61idxCJ0mJOAIUfSM=", "properties": {"@source_uri": "https://tools.usps.com/UspsToolsRestServices/rest/POLocator/findLocations", "@spider": "usps_collection_boxes", "addr:city": "MEMPHIS", "addr:country": "US", "addr:postcode": "38117", "addr:state": "TN", "addr:street_address": "521 ERIN DR", "amenity": "post_box", "collection_times": "Mo-Fr 17:00; Sa 13:00", "note": "ON 12/24 AND 12/31, THIS BOX MAY BE COLLECTED AS EARLY AS 12 NOON.", "nsi_id": "unitedstatespostalservice-a77078", "operator": "United States Postal Service", "operator:short": "USPS", "operator:type": "public", "operator:wikidata": "Q668687", "ref": "3811700065"}, "type": "Feature"}
{"geometry": {"coordinates": [-89.8989685, 35.116624], "type": "Point"}, "id": "eEhcRZRbDlVqN-CWtccKwTyd-vc=", "properties": {"@source_uri": "https://tools.usps.com/UspsToolsRestServices/rest/POLocator/findLocations", "@spider": "usps_collection_boxes", "addr:city": "MEMPHIS", "addr:country": "US", "addr:postcode": "38117", "addr:state": "TN", "addr:street_address": "521 ERIN DR", "amenity": "post_box", "collection_times": "Mo-Fr 17:00; Sa 13:00", "indoor": "yes", "note": "ON 12/24 AND 12/31, THIS BOX MAY BE COLLECTED AS EARLY AS 12 NOON.", "nsi_id": "unitedstatespostalservice-a77078", "operator": "United States Postal Service", "operator:short": "USPS", "operator:type": "public", "operator:wikidata": "Q668687", "ref": "3811700068"}, "type": "Feature"}
{"geometry": {"coordinates": [-89.8989856, 35.116623], "type": "Point"}, "id": "M1b1YsVRaEI6jqBZ7LfTxkmx6Fc=", "properties": {"@source_uri": "https://tools.usps.com/UspsToolsRestServices/rest/POLocator/findLocations", "@spider": "usps_collection_boxes", "addr:city": "MEMPHIS", "addr:country": "US", "addr:postcode": "38117", "addr:state": "TN", "addr:street_address": "521 ERIN DR", "amenity": "post_box", "collection_times": "Mo-Fr 17:00; Sa 13:00", "indoor": "yes", "note": "ON 12/24 AND 12/31, THIS BOX MAY BE COLLECTED AS EARLY AS 12 NOON.", "nsi_id": "unitedstatespostalservice-a77078", "operator": "United States Postal Service", "operator:short": "USPS", "operator:type": "public", "operator:wikidata": "Q668687", "ref": "3811700069"}, "type": "Feature"}
{"geometry": {"coordinates": [-89.898792127, 35.115977384], "type": "Point"}, "id": "yAeOcJvdO8aq5z_I-aFFu9Gg3K0=", "properties": {"@source_uri": "https://tools.usps.com/UspsToolsRestServices/rest/POLocator/findLocations", "@spider": "usps_collection_boxes", "addr:city": "MEMPHIS", "addr:country": "US", "addr:postcode": "38117", "addr:state": "TN", "addr:street_address": "521 ERIN DR", "amenity": "post_box", "collection_times": "Mo-Fr 17:00", "indoor": "yes", "note": "ON 12/24 AND 12/31, THIS BOX MAY BE COLLECTED AS EARLY AS 12 NOON.", "nsi_id": "unitedstatespostalservice-a77078", "operator": "United States Postal Service", "operator:short": "USPS", "operator:type": "public", "operator:wikidata": "Q668687", "ref": "3811700075"}, "type": "Feature"}
{"geometry": {"coordinates": [-89.9262399, 35.032267], "type": "Point"}, "id": "bxu0xyfqf4EhYDTcs1Pb4d8QXfo=", "properties": {"@source_uri": "https://tools.usps.com/UspsToolsRestServices/rest/POLocator/findLocations", "@spider": "usps_collection_boxes", "addr:city": "MEMPHIS", "addr:country": "US", "addr:postcode": "38118", "addr:state": "TN", "addr:street_address": "4100 PILOT DR", "amenity": "post_box", "collection_times": "Mo-Sa 13:00", "note": "ON 12/24 AND 12/31, THIS BOX MAY BE COLLECTED AS EARLY AS 12 NOON.", "nsi_id": "unitedstatespostalservice-a77078", "operator": "United States Postal Service", "operator:short": "USPS", "operator:type": "public", "operator:wikidata": "Q668687", "ref": "3811800008"}, "type": "Feature"}
{"geometry": {"coordinates": [-89.8801134, 35.000864], "type": "Point"}, "id": "45ghfTYuwBOASHDXb67Eisk07nQ=", "properties": {"@source_uri": "https://tools.usps.com/UspsToolsRestServices/rest/POLocator/findLocations", "@spider": "usps_collection_boxes", "addr:city": "MEMPHIS", "addr:country": "US", "addr:postcode": "38118", "addr:state": "TN", "addr:street_address": "5406 REPUBLIC DR", "amenity": "post_box", "collection_times": "Mo-Sa 12:00", "nsi_id": "unitedstatespostalservice-a77078", "operator": "United States Postal Service", "operator:short": "USPS", "operator:type": "public", "operator:wikidata": "Q668687", "ref": "3811800009"}, "type": "Feature"}
{"geometry": {"coordinates": [-89.9395909952, 35.0512929983], "type": "Point"}, "id": "oRurAThwhTIS3w_Md-nspDJloz0=", "properties": {"@source_uri": "https://tools.usps.com/UspsToolsRestServices/rest/POLocator/findLocations", "@spider": "usps_collection_boxes", "addr:city": "MEMPHIS", "addr:country": "US", "addr:postcode": "38118", "addr:state": "TN", "addr:street_address": "3715 WINCHESTER RD", "amenity": "post_box", "collection_times": "Mo-Fr 17:00; Sa 13:00", "note": "ON 12/24 AND 12/31, THIS BOX MAY BE COLLECTED AS EARLY AS 12 NOON.", "nsi_id": "unitedstatespostalservice-a77078", "operator": "United States Postal Service", "operator:short": "USPS", "operator:type": "public", "operator:wikidata": "Q668687", "ref": "3811800014"}, "type": "Feature"}
{"geometry": {"coordinates": [-89.904765, 35.05356], "type": "Point"}, "id": "oUu1gj0616K_s36efk8XiFw_L9s=", "properties": {"@source_uri": "https://tools.usps.com/UspsToolsRestServices/rest/POLocator/findLocations", "@spider": "usps_collection_boxes", "addr:city": "MEMPHIS", "addr:country": "US", "addr:postcode": "38118", "addr:state": "TN", "addr:street_address": "5300 KNIGHT ARNOLD RD", "amenity": "post_box", "collection_times": "Mo-Fr 13:00; Sa 14:30", "note": "ON 12/24 AND 12/31, THIS BOX MAY BE COLLECTED AS EARLY AS 12 NOON.", "nsi_id": "unitedstatespostalservice-a77078", "operator": "United States Postal Service", "operator:short": "USPS", "operator:type": "public", "operator:wikidata": "Q668687", "ref": "3811800017"}, "type": "Feature"}
{"geometry": {"coordinates": [-89.9346841, 35.048905], "type": "Point"}, "id": "UtPAZHWwaxXxYwY6msr-BQlgkoc=", "properties": {"@source_uri": "https://tools.usps.com/UspsToolsRestServices/rest/POLocator/findLocations", "@spider": "usps_collection_boxes", "addr:city": "MEMPHIS", "addr:country": "US", "addr:postcode": "38118", "addr:state": "TN", "addr:street_address": "3874 VISCOUNT AVE", "amenity": "post_box", "collection_times": "Mo-Fr 15:00; Sa 12:00", "note": "ON 12/24 AND 12/31, THIS BOX MAY BE COLLECTED AS EARLY AS 12 NOON.", "nsi_id": "unitedstatespostalservice-a77078", "operator": "United States Postal Service", "operator:short": "USPS", "operator:type": "public", "operator:wikidata": "Q668687", "ref": "3811800019"}, "type": "Feature"}
{"geometry": {"coordinates": [-89.8922829, 35.036997], "type": "Point"}, "id": "7gZoCsiljo9c_j7W7c7H92x7gAQ=", "properties": {"@source_uri": "https://tools.usps.com/UspsToolsRestServices/rest/POLocator/findLocations", "@spider": "usps_collection_boxes", "addr:city": "MEMPHIS", "addr:country": "US", "addr:postcode": "38118", "addr:state": "TN", "addr:street_address": "4500 WILLOW LAKE BLVD", "amenity": "post_box", "collection_times": "Mo-Sa 13:00", "note": "ON 12/24 AND 12/31, THIS BOX MAY BE COLLECTED AS EARLY AS 12 NOON.", "nsi_id": "unitedstatespostalservice-a77078", "operator": "United States Postal Service", "operator:short": "USPS", "operator:type": "public", "operator:wikidata": "Q668687", "ref": "3811800026"}, "type": "Feature"}
{"geometry": {"coordinates": [-89.9227128, 35.075221], "type": "Point"}, "id": "CTT9i9WGVTpQV7zEPNbbDiwGVS4=", "properties": {"@source_uri": "https://tools.usps.com/UspsToolsRestServices/rest/POLocator/findLocations", "@spider": "usps_collection_boxes", "addr:city": "MEMPHIS", "addr:country": "US", "addr:postcode": "38118", "addr:state": "TN", "addr:street_address": "2690 COLONY PARK DR", "amenity": "post_box", "collection_times": "Mo-Fr 13:00; Sa 12:00", "note": "ON 12/24 AND 12/31, THIS BOX MAY BE COLLECTED AS EARLY AS 12 NOON.", "nsi_id": "unitedstatespostalservice-a77078", "operator": "United States Postal Service", "operator:short": "USPS", "operator:type": "public", "operator:wikidata": "Q668687", "ref": "3811800027"}, "type": "Feature"}
{"geometry": {"coordinates": [-89.9311768, 35.051099], "type": "Point"}, "id": "DEkTNEmhWQ_0lAhOeAdPZpZhZ9E=", "properties": {"@source_uri": "https://tools.usps.com/UspsToolsRestServices/rest/POLocator/findLocations", "@spider": "usps_collection_boxes", "addr:city": "MEMPHIS", "addr:country": "US", "addr:postcode": "38118", "addr:state": "TN", "addr:street_address": "3580 AIR PARK ST", "amenity": "post_box", "collection_times": "Mo-Fr 15:00; Sa 12:00", "note": "ON 12/24 AND 12/31, THIS BOX MAY BE COLLECTED AS EARLY AS 12 NOON.", "nsi_id": "unitedstatespostalservice-a77078", "operator": "United States Postal Service", "operator:short": "USPS", "operator:type": "public", "operator:wikidata": "Q668687", "ref": "3811800064"}, "type": "Feature"}
{"geometry": {"coordinates": [-89.9395909952, 35.0512929983], "type": "Point"}, "id": "3QLnzATtroTy7o-otqQPp-ICaGk=", "properties": {"@source_uri": "https://tools.usps.com/UspsToolsRestServices/rest/POLocator/findLocations", "@spider": "usps_collection_boxes", "addr:city": "MEMPHIS", "addr:country": "US", "addr:postcode": "38118", "addr:state": "TN", "addr:street_address": "3715 WINCHESTER RD", "amenity": "post_box", "collection_times": "Mo-Fr 17:00; Sa 13:00", "indoor": "yes", "note": "ON 12/24 AND 12/31, THIS BOX MAY BE COLLECTED AS EARLY AS 12 NOON.", "nsi_id": "unitedstatespostalservice-a77078", "operator": "United States Postal Service", "operator:short": "USPS", "operator:type": "public", "operator:wikidata": "Q668687", "ref": "3811800066"}, "type": "Feature"}
{"geometry": {"coordinates": [-89.9190008, 35.02731], "type": "Point"}, "id": "7cnYJLZnACzVfKB7VBkpvydLHNE=", "properties": {"@source_uri": "https://tools.usps.com/UspsToolsRestServices/rest/POLocator/findLocations", "@spider": "usps_collection_boxes", "addr:city": "MEMPHIS", "addr:country": "US", "addr:postcode": "38118", "addr:state": "TN", "addr:street_address": "4446 MALONE RD", "amenity": "post_box", "collection_times": "Mo-Fr 13:00", "note": "ON 12/24 AND 12/31, THIS BOX MAY BE COLLECTED AS EARLY AS 12 NOON.", "nsi_id": "unitedstatespostalservice-a77078", "operator": "United States Postal Service", "operator:short": "USPS", "operator:type": "public", "operator:wikidata": "Q668687", "ref": "3811800070"}, "type": "Feature"}
{"geometry": {"coordinates": [-89.9395909952, 35.0512929983], "type": "Point"}, "id": "A_er92spkaXcBPH4jwOqQlTG24M=", "properties": {"@source_uri": "https://tools.usps.com/UspsToolsRestServices/rest/POLocator/findLocations", "@spider": "usps_collection_boxes", "addr:city": "MEMPHIS", "addr:country": "US", "addr:postcode": "38118", "addr:state": "TN", "addr:street_address": "3715 WINCHESTER RD", "amenity": "post_box", "collection_times": "Mo-Fr 17:00; Sa 13:00", "indoor": "yes", "note": "ON 12/24 AND 12/31, THIS BOX MAY BE COLLECTED AS EARLY AS 12 NOON.", "nsi_id": "unitedstatespostalservice-a77078", "operator": "United States Postal Service", "operator:short": "USPS", "operator:type": "public", "operator:wikidata": "Q668687", "ref": "3811800072"}, "type": "Feature"}
{"geometry": {"coordinates": [-89.929258415, 35.064765953], "type": "Point"}, "id": "rZM8UIZlANzPo7-RVVcnVLUXw3s=", "properties": {"@source_uri": "https://tools.usps.com/UspsToolsRestServices/rest/POLocator/findLocations", "@spider": "usps_collection_boxes", "addr:city": "MEMPHIS", "addr:country": "US", "addr:postcode": "38118", "addr:state": "TN", "addr:street_address": "4025 KNIGHT ARNOLD RD", "amenity": "post_box", "collection_times": "Mo-Sa 13:00", "note": "ON 12/24 AND 12/31, THIS BOX MAY BE COLLECTED AS EARLY AS 12 NOON.", "nsi_id": "unitedstatespostalservice-a77078", "operator": "United States Postal Service", "operator:short": "USPS", "operator:type": "public", "operator:wikidata": "Q668687", "ref": "3811800074"}, "type": "Feature"}
{"geometry": {"coordinates": [-89.9395909952, 35.0512929983], "type": "Point"}, "id": "ZfvgD_oewJd95qk4zynPctoJPoY=", "properties": {"@source_uri": "https://tools.usps.com/UspsToolsRestServices/rest/POLocator/findLocations", "@spider": "usps_collection_boxes", "addr:city": "MEMPHIS", "addr:country": "US", "addr:postcode": "38118", "addr:state": "TN", "addr:street_address": "3715 WINCHESTER RD", "amenity": "post_box", "collection_times": "Mo-Fr 17:00", "indoor": "yes", "note": "ON 12/24 AND 12/31, THIS BOX MAY BE COLLECTED AS EARLY AS 12 NOON.", "nsi_id": "unitedstatespostalservice-a77078", "operator": "United States Postal Service", "operator:short": "USPS", "operator:type": "public", "operator:wikidata": "Q668687", "ref": "3811800077"}, "type": "Feature"}
{"geometry": {"coordinates": [-89.8688479, 35.098742], "type": "Point"}, "id": "ZCQaAQ2vtCLjtLDS7I7mzWqD5e4=", "properties": {"@source_uri": "https://tools.usps.com/UspsToolsRestServices/rest/POLocator/findLocations", "@spider": "usps_collection_boxes", "addr:city": "MEMPHIS", "addr:country": "US", "addr:postcode": "38119", "addr:state": "TN", "addr:street_address": "5821 PARK AVE", "amenity": "post_box", "collection_times": "Mo-Fr 16:30; Sa 13:00", "note": "ON 12/24 AND 12/31, THIS BOX MAY BE COLLECTED AS EARLY AS 12 NOON.", "nsi_id": "unitedstatespostalservice-a77078", "operator": "United States Postal Service", "operator:short": "USPS", "operator:type": "public", "operator:wikidata": "Q668687", "ref": "3811900008"}, "type": "Feature"}
{"geometry": {"coordinates": [-89.8892567, 35.10582], "type": "Point"}, "id": "h4iSQ7b-98TI1-M387BHcVR-y3U=", "properties": {"@source_uri": "https://tools.usps.com/UspsToolsRestServices/rest/POLocator/findLocations", "@spider": "usps_collection_boxes", "addr:city": "MEMPHIS", "addr:country": "US", "addr:postcode": "38119", "addr:state": "TN", "addr:street_address": "5180 PARK AVE", "amenity": "post_box", "collection_times": "Mo-Fr 13:00; Sa 12:00", "note": "ON 12/24 AND 12/31, THIS BOX MAY BE COLLECTED AS EARLY AS 12 NOON.", "nsi_id": "unitedstatespostalservice-a77078", "operator": "United States Postal Service", "operator:short": "USPS", "operator:type": "public", "operator:wikidata": "Q668687", "ref": "3811900012"}, "type": "Feature"}
{"geometry": {"coordinates": [-89.8608924, 35.08629], "type": "Point"}, "id": "vZAeOL6pK8X03pLfKCnkz4uxjcU=", "properties": {"@source_uri": "https://tools.usps.com/UspsToolsRestServices/rest/POLocator/findLocations", "@spider": "usps_collection_boxes", "addr:city": "MEMPHIS", "addr:country": "US", "addr:postcode": "38119", "addr:state": "TN", "addr:street_address": "6060 QUINCE RD", "amenity": "post_box", "collection_times": "Mo-Fr 12:00; Sa 12:30", "note": "ON 12/24 AND 12/31, THIS BOX MAY BE COLLECTED AS EARLY AS 12 NOON.", "nsi_id": "unitedstatespostalservice-a77078", "operator": "United States Postal Service", "operator:short": "USPS", "operator:type": "public", "operator:wikidata": "Q668687", "ref": "3811900013"}, "type": "Feature"}
{"geometry": {"coordinates": [-89.836845, 35.073315], "type": "Point"}, "id": "XFgkSregFr-ICryBXiePB21S4e0=", "properties": {"@source_uri": "https://tools.usps.com/UspsToolsRestServices/rest/POLocator/findLocations", "@spider": "usps_collection_boxes", "addr:city": "MEMPHIS", "addr:country": "US", "addr:postcode": "38119", "addr:state": "TN", "addr:street_address": "5384 POPLAR AVE", "amenity": "post_box", "collection_times": "Mo-Fr 13:00; Sa 12:00", "note": "ON 12/24 AND 12/31, THIS BOX MAY BE COLLECTED AS EARLY AS 12 NOON.", "nsi_id": "unitedstatespostalservice-a77078", "operator": "United States Postal Service", "operator:short": "USPS", "operator:type": "public", "operator:wikidata": "Q668687", "ref": "3811900017"}, "type": "Feature"}
{"geometry": {"coordinates": [-89.8542447, 35.101304], "type": "Point"}, "id": "Vv3X04Rl1AIb9-CxrcxZ_cj_W8Q=", "properties": {"@source_uri": "https://tools.usps.com/UspsToolsRestServices/rest/POLocator/findLocations", "@spider": "usps_collection_boxes", "addr:city": "MEMPHIS", "addr:country": "US", "addr:postcode": "38119", "addr:state": "TN", "addr:street_address": "6268 POPLAR AVE", "amenity": "post_box", "collection_times": "Mo-Sa 13:00", "note": "ON 12/24 AND 12/31, THIS BOX MAY BE COLLECTED AS EARLY AS 12 NOON.", "nsi_id": "unitedstatespostalservice-a77078", "operator": "United States Postal Service", "operator:short": "USPS", "operator:type": "public", "operator:wikidata": "Q668687", "ref": "3811900020"}, "type": "Feature"}
{"geometry": {"coordinates": [-89.836845, 35.073315], "type": "Point"}, "id": "6C8lOCyxOoOCbzB50rSG8vcYnUU=", "properties": {"@source_uri": "https://tools.usps.com/UspsToolsRestServices/rest/POLocator/findLocations", "@spider": "usps_collection_boxes", "addr:city": "MEMPHIS", "addr:country": "US", "addr:postcode": "38119", "addr:state": "TN", "addr:street_address": "5240 POPLAR AVE", "amenity": "post_box", "collection_times": "Mo-Fr 13:00; Sa 12:00", "note": "ON 12/24 AND 12/31, THIS BOX MAY BE COLLECTED AS EARLY AS 12 NOON.", "nsi_id": "unitedstatespostalservice-a77078", "operator": "United States Postal Service", "operator:short": "USPS", "operator:type": "public", "operator:wikidata": "Q668687", "ref": "3811900024"}, "type": "Feature"}
{"geometry": {"coordinates": [-89.877501532, 35.10454545], "type": "Point"}, "id": "xakUtppyDbfk6lDHqGkhzAMSH34=", "properties": {"@source_uri": "https://tools.usps.com/UspsToolsRestServices/rest/POLocator/findLocations", "@spider": "usps_collection_boxes", "addr:city": "MEMPHIS", "addr:country": "US", "addr:postcode": "38119", "addr:state": "TN", "addr:street_address": "995 S YATES", "amenity": "post_box", "collection_times": "Mo-Fr 13:00; Sa 12:00", "note": "ON 12/24 AND 12/31, THIS BOX MAY BE COLLECTED AS EARLY AS 12 NOON.", "nsi_id": "unitedstatespostalservice-a77078", "operator": "United States Postal Service", "operator:short": "USPS", "operator:type": "public", "operator:wikidata": "Q668687", "ref": "3811900026"}, "type": "Feature"}
{"geometry": {"coordinates": [-89.8447500122, 35.0685069966], "type": "Point"}, "id": "YjAzseLShVvO4OsZHb_4npagwPQ=", "properties": {"@source_uri": "https://tools.usps.com/UspsToolsRestServices/rest/POLocator/findLocations", "@spider": "usps_collection_boxes", "addr:city": "MEMPHIS", "addr:country": "US", "addr:postcode": "38119", "addr:state": "TN", "addr:street_address": "6555 QUINCE RD", "amenity": "post_box", "collection_times": "Mo-Fr 13:00; Sa 12:30", "note": "ON 12/24 AND 12/31, THIS BOX MAY BE COLLECTED AS EARLY AS 12 NOON.", "nsi_id": "unitedstatespostalservice-a77078", "operator": "United States Postal Service", "operator:short": "USPS", "operator:type": "public", "operator:wikidata": "Q668687", "ref": "3811900048"}, "type": "Feature"}
{"geometry": {"coordinates": [-89.8603451, 35.100888], "type": "Point"}, "id": "ql1C4keq81nWKDnN6kn0F99Giy4=", "properties": {"@source_uri": "https://tools.usps.com/UspsToolsRestServices/rest/POLocator/findLocations", "@spider": "usps_collection_boxes", "addr:city": "MEMPHIS", "addr:country": "US", "addr:postcode": "38119", "addr:state": "TN", "addr:street_address": "6075 POPLAR AVE", "amenity": "post_box", "collection_times": "Mo-Sa 13:00", "note": "ON 12/24 AND 12/31, THIS BOX MAY BE COLLECTED AS EARLY AS 12 NOON.", "nsi_id": "unitedstatespostalservice-a77078", "operator": "United States Postal Service", "operator:short": "USPS", "operator:type": "public", "operator:wikidata": "Q668687", "ref": "3811900051"}, "type": "Feature"}
{"geometry": {"coordinates": [-89.8692588, 35.099626], "type": "Point"}, "id": "ZuoZnh8pEbF4MPEzW0ru-qLsNUw=", "properties": {"@source_uri": "https://tools.usps.com/UspsToolsRestServices/rest/POLocator/findLocations", "@spider": "usps_collection_boxes", "addr:city": "MEMPHIS", "addr:country": "US", "addr:postcode": "38119", "addr:state": "TN", "addr:street_address": "5821 PARK AVE", "amenity": "post_box", "collection_times": "Mo-Fr 16:30; Sa 13:00", "indoor": "yes", "note": "ON 12/24 AND 12/31, THIS BOX MAY BE COLLECTED AS EARLY AS 12 NOON.", "nsi_id": "unitedstatespostalservice-a77078", "operator": "United States Postal Service", "operator:short": "USPS", "operator:type": "public", "operator:wikidata": "Q668687", "ref": "3811900078"}, "type": "Feature"}
{"geometry": {"coordinates": [-89.8832866, 35.104603], "type": "Point"}, "id": "Ss4sh2lucLiqKstHSJAv40ufwts=", "properties": {"@source_uri": "https://tools.usps.com/UspsToolsRestServices/rest/POLocator/findLocations", "@spider": "usps_collection_boxes", "addr:city": "MEMPHIS", "addr:country": "US", "addr:postcode": "38119", "addr:state": "TN", "addr:street_address": "900 ESTATE PL", "amenity": "post_box", "collection_times": "Mo-Fr 13:00; Sa 12:00", "note": "ON 12/24 AND 12/31, THIS BOX MAY BE COLLECTED AS EARLY AS 12 NOON.", "nsi_id": "unitedstatespostalservice-a77078", "operator": "United States Postal Service", "operator:short": "USPS", "operator:type": "public", "operator:wikidata": "Q668687", "ref": "3811900079"}, "type": "Feature"}
{"geometry": {"coordinates": [-89.8846659762, 35.1100700046], "type": "Point"}, "id": "zkfR56ZEYaoFb9JPvpkrswMMR0Q=", "properties": {"@source_uri": "https://tools.usps.com/UspsToolsRestServices/rest/POLocator/findLocations", "@spider": "usps_collection_boxes", "addr:city": "MEMPHIS", "addr:country": "US", "addr:postcode": "38119", "addr:state": "TN", "addr:street_address": "770 ESTATE PL", "amenity": "post_box", "collection_times": "Mo-Fr 13:00", "note": "ON 12/24 AND 12/31, THIS BOX MAY BE COLLECTED AS EARLY AS 12 NOON.", "nsi_id": "unitedstatespostalservice-a77078", "operator": "United States Postal Service", "operator:short": "USPS", "operator:type": "public", "operator:wikidata": "Q668687", "ref": "3811900082"}, "type": "Feature"}
{"geometry": {"coordinates": [-89.8691776, 35.099507], "type": "Point"}, "id": "BwQtrkzdpKF3fE4HWeNBxnNYesw=", "properties": {"@source_uri": "https://tools.usps.com/UspsToolsRestServices/rest/POLocator/findLocations", "@spider": "usps_collection_boxes", "addr:city": "MEMPHIS", "addr:country": "US", "addr:postcode": "38119", "addr:state": "TN", "addr:street_address": "5821 PARK AVE", "amenity": "post_box", "collection_times": "Mo-Fr 16:30; Sa 13:00", "indoor": "yes", "note": "ON 12/24 AND 12/31, THIS BOX MAY BE COLLECTED AS EARLY AS 12 NOON.", "nsi_id": "unitedstatespostalservice-a77078", "operator": "United States Postal Service", "operator:short": "USPS", "operator:type": "public", "operator:wikidata": "Q668687", "ref": "3811900085"}, "type": "Feature"}
{"geometry": {"coordinates": [-89.836845, 35.073315], "type": "Point"}, "id": "SFc5Y9kj-ajgd_OoYpbeoVjY8Kk=", "properties": {"@source_uri": "https://tools.usps.com/UspsToolsRestServices/rest/POLocator/findLocations", "@spider": "usps_collection_boxes", "addr:city": "MEMPHIS", "addr:country": "US", "addr:postcode": "38119", "addr:state": "TN", "addr:street_address": "5350 POPLAR AVE", "amenity": "post_box", "collection_times": "Mo-Fr 13:00", "note": "ON 12/24 AND 12/31, THIS BOX MAY BE COLLECTED AS EARLY AS 12 NOON.", "nsi_id": "unitedstatespostalservice-a77078", "operator": "United States Postal Service", "operator:short": "USPS", "operator:type": "public", "operator:wikidata": "Q668687", "ref": "3811900087"}, "type": "Feature"}
{"geometry": {"coordinates": [-89.8691999, 35.09959], "type": "Point"}, "id": "MgrQZVGj89_Uc-_wWK_OEsopD2M=", "properties": {"@source_uri": "https://tools.usps.com/UspsToolsRestServices/rest/POLocator/findLocations", "@spider": "usps_collection_boxes", "addr:city": "MEMPHIS", "addr:country": "US", "addr:postcode": "38119", "addr:state": "TN", "addr:street_address": "5821 PARK AVE", "amenity": "post_box", "collection_times": "Mo-Fr 16:30; Sa 13:00", "name": "USPS COLLECTION BOX - APC", "note": "ON 12/24 AND 12/31, THIS BOX MAY BE COLLECTED AS EARLY AS 12 NOON.", "nsi_id": "unitedstatespostalservice-a77078", "operator": "United States Postal Service", "operator:short": "USPS", "operator:type": "public", "operator:wikidata": "Q668687", "ref": "3811900088"}, "type": "Feature"}
{"geometry": {"coordinates": [-89.8691899, 35.099482], "type": "Point"}, "id": "WIFliq2FpyxaAzOKlMBGK2AnWls=", "properties": {"@source_uri": "https://tools.usps.com/UspsToolsRestServices/rest/POLocator/findLocations", "@spider": "usps_collection_boxes", "addr:city": "MEMPHIS", "addr:country": "US", "addr:postcode": "38119", "addr:state": "TN", "addr:street_address": "5821 PARK AVE", "amenity": "post_box", "collection_times": "Mo-Fr 16:30; Sa 13:00", "indoor": "yes", "note": "ON 12/24 AND 12/31, THIS BOX MAY BE COLLECTED AS EARLY AS 12 NOON.", "nsi_id": "unitedstatespostalservice-a77078", "operator": "United States Postal Service", "operator:short": "USPS", "operator:type": "public", "operator:wikidata": "Q668687", "ref": "3811900090"}, "type": "Feature"}
{"geometry": {"coordinates": [-89.836845, 35.073315], "type": "Point"}, "id": "WXg6mUc40doKCsKsWsR3GHgpQ0I=", "properties": {"@source_uri": "https://tools.usps.com/UspsToolsRestServices/rest/POLocator/findLocations", "@spider": "usps_collection_boxes", "addr:city": "MEMPHIS", "addr:country": "US", "addr:postcode": "38119", "addr:state": "TN", "addr:street_address": "999 SHADY GROVE RD", "amenity": "post_box", "collection_times": "Mo-Sa 13:00", "note": "ON 12/24 AND 12/31, THIS BOX MAY BE COLLECTED AS EARLY AS 12 NOON.", "nsi_id": "unitedstatespostalservice-a77078", "operator": "United States Postal Service", "operator:short": "USPS", "operator:type": "public", "operator:wikidata": "Q668687", "ref": "3811900092"}, "type": "Feature"}
{"geometry": {"coordinates": [-89.869222027, 35.099715535], "type": "Point"}, "id": "h0kJVH1SUa154jG5i4L01qFTD64=", "properties": {"@source_uri": "https://tools.usps.com/UspsToolsRestServices/rest/POLocator/findLocations", "@spider": "usps_collection_boxes", "addr:city": "MEMPHIS", "addr:country": "US", "addr:postcode": "38119", "addr:state": "TN", "addr:street_address": "5821 PARK AVE", "amenity": "post_box", "collection_times": "Mo-Fr 16:30", "indoor": "yes", "note": "ON 12/24 AND 12/31, THIS BOX MAY BE COLLECTED AS EARLY AS 12 NOON.", "nsi_id": "unitedstatespostalservice-a77078", "operator": "United States Postal Service", "operator:short": "USPS", "operator:type": "public", "operator:wikidata": "Q668687", "ref": "3811900098"}, "type": "Feature"}
{"geometry": {"coordinates": [-89.8040194, 35.129305], "type": "Point"}, "id": "B2Wp9e640H4TnJeDbiS4J-GgeXE=", "properties": {"@source_uri": "https://tools.usps.com/UspsToolsRestServices/rest/POLocator/findLocations", "@spider": "usps_collection_boxes", "addr:city": "MEMPHIS", "addr:country": "US", "addr:postcode": "38120", "addr:state": "TN", "addr:street_address": "7777 WALNUT GROVE RD", "amenity": "post_box", "collection_times": "Mo-Fr 13:00", "note": "ON 12/24 AND 12/31, THIS BOX MAY BE COLLECTED AS EARLY AS 12 NOON.", "nsi_id": "unitedstatespostalservice-a77078", "operator": "United States Postal Service", "operator:short": "USPS", "operator:type": "public", "operator:wikidata": "Q668687", "ref": "3812000003"}, "type": "Feature"}
{"geometry": {"coordinates": [-89.8652086, 35.106905], "type": "Point"}, "id": "d_sImwuwg1oOyaH7GVRgupBWj64=", "properties": {"@source_uri": "https://tools.usps.com/UspsToolsRestServices/rest/POLocator/findLocations", "@spider": "usps_collection_boxes", "addr:city": "MEMPHIS", "addr:country": "US", "addr:postcode": "38120", "addr:state": "TN", "addr:street_address": "860 RIDGE LAKE BLVD", "amenity": "post_box", "collection_times": "Mo-Sa 13:00", "note": "ON 12/24 AND 12/31, THIS BOX MAY BE COLLECTED AS EARLY AS 12 NOON.", "nsi_id": "unitedstatespostalservice-a77078", "operator": "United States Postal Service", "operator:short": "USPS", "operator:type": "public", "operator:wikidata": "Q668687", "ref": "3812000004"}, "type": "Feature"}
{"geometry": {"coordinates": [-89.840262006, 35.1019339846], "type": "Point"}, "id": "-k1vSTRjOeBRst0ABP76IsMm75w=", "properties": {"@source_uri": "https://tools.usps.com/UspsToolsRestServices/rest/POLocator/findLocations", "@spider": "usps_collection_boxes", "addr:city": "MEMPHIS", "addr:country": "US", "addr:postcode": "38120", "addr:state": "TN", "addr:street_address": "1715 KIRBY PKWY", "amenity": "post_box", "collection_times": "Mo-Sa 13:00", "note": "ON 12/24 AND 12/31, THIS BOX MAY BE COLLECTED AS EARLY AS 12 NOON.", "nsi_id": "unitedstatespostalservice-a77078", "operator": "United States Postal Service", "operator:short": "USPS", "operator:type": "public", "operator:wikidata": "Q668687", "ref": "3812000023"}, "type": "Feature"}
{"geometry": {"coordinates": [-89.8564749, 35.128031], "type": "Point"}, "id": "u83IaB5YyC6IBhxi6mK9nQBcsK4=", "properties": {"@source_uri": "https://tools.usps.com/UspsToolsRestServices/rest/POLocator/findLocations", "@spider": "usps_collection_boxes", "addr:city": "MEMPHIS", "addr:country": "US", "addr:postcode": "38120", "addr:state": "TN", "addr:street_address": "80 HUMPHREYS CENTER DR", "amenity": "post_box", "collection_times": "Mo-Fr 15:00", "note": "ON 12/24 AND 12/31, THIS BOX MAY BE COLLECTED AS EARLY AS 12 NOON.", "nsi_id": "unitedstatespostalservice-a77078", "operator": "United States Postal Service", "operator:short": "USPS", "operator:type": "public", "operator:wikidata": "Q668687", "ref": "3812000026"}, "type": "Feature"}
{"geometry": {"coordinates": [-89.8409638, 35.1083279], "type": "Point"}, "id": "M56XGsNGMJ4XEoMt2XjWKYvH_Y8=", "properties": {"@source_uri": "https://tools.usps.com/UspsToolsRestServices/rest/POLocator/findLocations", "@spider": "usps_collection_boxes", "addr:city": "MEMPHIS", "addr:country": "US", "addr:postcode": "38120", "addr:state": "TN", "addr:street_address": "225 N HUMPHREYS BLVD", "amenity": "post_box", "collection_times": "Mo-Fr 17:00", "note": "ON 12/24 AND 12/31, THIS BOX MAY BE COLLECTED AS EARLY AS 12 NOON.", "nsi_id": "unitedstatespostalservice-a77078", "operator": "United States Postal Service", "operator:short": "USPS", "operator:type": "public", "operator:wikidata": "Q668687", "ref": "3812000035"}, "type": "Feature"}
{"geometry": {"coordinates": [-89.8409638, 35.1083279], "type": "Point"}, "id": "CpR-o7heVrBy_I31r5Dcx-3LT1c=", "properties": {"@source_uri": "https://tools.usps.com/UspsToolsRestServices/rest/POLocator/findLocations", "@spider": "usps_collection_boxes", "addr:city": "MEMPHIS", "addr:country": "US", "addr:postcode": "38120", "addr:state": "TN", "addr:street_address": "1661 AARON BRENNER DR", "amenity": "post_box", "collection_times": "Mo-Fr 13:00", "note": "ON 12/24 AND 12/31, THIS BOX MAY BE COLLECTED AS EARLY AS 12 NOON.", "nsi_id": "unitedstatespostalservice-a77078", "operator": "United States Postal Service", "operator:short": "USPS", "operator:type": "public", "operator:wikidata": "Q668687", "ref": "3812000046"}, "type": "Feature"}
{"geometry": {"coordinates": [-89.9430620251, 35.1497899998], "type": "Point"}, "id": "HoeTu1raAQcXXQzsmSvxBF7pfYk=", "properties": {"@source_uri": "https://tools.usps.com/UspsToolsRestServices/rest/POLocator/findLocations", "@spider": "usps_collection_boxes", "addr:city": "MEMPHIS", "addr:country": "US", "addr:postcode": "38122", "addr:state": "TN", "addr:street_address": "3540 SUMMER AVE", "amenity": "post_box", "collection_times": "Mo-Sa 13:00", "note": "ON 12/24 AND 12/31, THIS BOX MAY BE COLLECTED AS EARLY AS 12 NOON.", "nsi_id": "unitedstatespostalservice-a77078", "operator": "United States Postal Service", "operator:short": "USPS", "operator:type": "public", "operator:wikidata": "Q668687", "ref": "3812200002"}, "type": "Feature"}
{"geometry": {"coordinates": [-89.906015, 35.154025], "type": "Point"}, "id": "dZ8c3d24ub6msFM9BIAoSH7czZY=", "properties": {"@source_uri": "https://tools.usps.com/UspsToolsRestServices/rest/POLocator/findLocations", "@spider": "usps_collection_boxes", "addr:city": "MEMPHIS", "addr:country": "US", "addr:postcode": "38122", "addr:state": "TN", "addr:street_address": "680 NATIONAL ST", "amenity": "post_box", "collection_times": "Mo-Fr 16:30; Sa 13:00", "note": "ON 12/24 AND 12/31, THIS BOX MAY BE COLLECTED AS EARLY AS 12 NOON.", "nsi_id": "unitedstatespostalservice-a77078", "operator": "United States Postal Service", "operator:short": "USPS", "operator:type": "public", "operator:wikidata": "Q668687", "ref": "3812200011"}, "type": "Feature"}
{"geometry": {"coordinates": [-89.9475470138, 35.150562015], "type": "Point"}, "id": "l-pewk-qbs0rZ5WnCgAVOv-uPAM=", "properties": {"@source_uri": "https://tools.usps.com/UspsToolsRestServices/rest/POLocator/findLocations", "@spider": "usps_collection_boxes", "addr:city": "MEMPHIS", "addr:country": "US", "addr:postcode": "38122", "addr:state": "TN", "addr:street_address": "680 NATIONAL ST", "amenity": "post_box", "collection_times": "Mo-Fr 16:30", "indoor": "yes", "note": "ON 12/24 AND 12/31, THIS BOX MAY BE COLLECTED AS EARLY AS 12 NOON.", "nsi_id": "unitedstatespostalservice-a77078", "operator": "United States Postal Service", "operator:short": "USPS", "operator:type": "public", "operator:wikidata": "Q668687", "ref": "3812200028"}, "type": "Feature"}
{"geometry": {"coordinates": [-89.9475470138, 35.150562015], "type": "Point"}, "id": "OA89OXawSP4ZExIzMV3L0YfDbDE=", "properties": {"@source_uri": "https://tools.usps.com/UspsToolsRestServices/rest/POLocator/findLocations", "@spider": "usps_collection_boxes", "addr:city": "MEMPHIS", "addr:country": "US", "addr:postcode": "38122", "addr:state": "TN", "addr:street_address": "680 NATIONAL ST", "amenity": "post_box", "collection_times": "Mo-Fr 16:30", "indoor": "yes", "note": "ON 12/24 AND 12/31, THIS BOX MAY BE COLLECTED AS EARLY AS 12 NOON.", "nsi_id": "unitedstatespostalservice-a77078", "operator": "United States Postal Service", "operator:short": "USPS", "operator:type": "public", "operator:wikidata": "Q668687", "ref": "3812200030"}, "type": "Feature"}
{"geometry": {"coordinates": [-89.9475470138, 35.150562015], "type": "Point"}, "id": "LD4evqoVUXlYzm59d2CENDEDq1k=", "properties": {"@source_uri": "https://tools.usps.com/UspsToolsRestServices/rest/POLocator/findLocations", "@spider": "usps_collection_boxes", "addr:city": "MEMPHIS", "addr:country": "US", "addr:postcode": "38122", "addr:state": "TN", "addr:street_address": "680 NATIONAL ST", "amenity": "post_box", "collection_times": "Mo-Fr 16:30", "indoor": "yes", "note": "ON 12/24 AND 12/31, THIS BOX MAY BE COLLECTED AS EARLY AS 12 NOON.", "nsi_id": "unitedstatespostalservice-a77078", "operator": "United States Postal Service", "operator:short": "USPS", "operator:type": "public", "operator:wikidata": "Q668687", "ref": "3812200034"}, "type": "Feature"}
{"geometry": {"coordinates": [-89.9475470138, 35.150562015], "type": "Point"}, "id": "SMiQ1I5Q5i4d_gHxLyclaG5FMV0=", "properties": {"@source_uri": "https://tools.usps.com/UspsToolsRestServices/rest/POLocator/findLocations", "@spider": "usps_collection_boxes", "addr:city": "MEMPHIS", "addr:country": "US", "addr:postcode": "38122", "addr:state": "TN", "addr:street_address": "680 NATIONAL ST", "amenity": "post_box", "collection_times": "Mo-Fr 16:30", "indoor": "yes", "note": "ON 12/24 AND 12/31, THIS BOX MAY BE COLLECTED AS EARLY AS 12 NOON.", "nsi_id": "unitedstatespostalservice-a77078", "operator": "United States Postal Service", "operator:short": "USPS", "operator:type": "public", "operator:wikidata": "Q668687", "ref": "3812200035"}, "type": "Feature"}
{"geometry": {"coordinates": [-89.90581, 35.11462], "type": "Point"}, "id": "GCb3Ho5oXkcYmmMvdswWjBIwABU=", "properties": {"@source_uri": "https://tools.usps.com/UspsToolsRestServices/rest/POLocator/findLocations", "@spider": "usps_collection_boxes", "addr:city": "MEMPHIS", "addr:country": "US", "addr:postcode": "38124", "addr:state": "TN", "addr:street_address": "4695 SOUTHERN AVE", "amenity": "post_box", "collection_times": "Mo-Fr 15:30; Sa 13:00", "note": "ON 12/24 AND 12/31, THIS BOX MAY BE COLLECTED AS EARLY AS 12 NOON.", "nsi_id": "unitedstatespostalservice-a77078", "operator": "United States Postal Service", "operator:short": "USPS", "operator:type": "public", "operator:wikidata": "Q668687", "ref": "3812400008"}, "type": "Feature"}
{"geometry": {"coordinates": [-89.905261989, 35.114128019], "type": "Point"}, "id": "3lX-betV4glKUMr5rxLKCeNdP2g=", "properties": {"@source_uri": "https://tools.usps.com/UspsToolsRestServices/rest/POLocator/findLocations", "@spider": "usps_collection_boxes", "addr:city": "MEMPHIS", "addr:country": "US", "addr:postcode": "38124", "addr:state": "TN", "addr:street_address": "4695 SOUTHERN AVE", "amenity": "post_box", "collection_times": "Mo-Fr 15:30", "indoor": "yes", "note": "ON 12/24 AND 12/31, THIS BOX MAY BE COLLECTED AS EARLY AS 12 NOON.", "nsi_id": "unitedstatespostalservice-a77078", "operator": "United States Postal Service", "operator:short": "USPS", "operator:type": "public", "operator:wikidata": "Q668687", "ref": "3812400015"}, "type": "Feature"}
{"geometry": {"coordinates": [-89.905261989, 35.114128019], "type": "Point"}, "id": "V_w0tyf9YGPTmJgs4k_AcyH03jE=", "properties": {"@source_uri": "https://tools.usps.com/UspsToolsRestServices/rest/POLocator/findLocations", "@spider": "usps_collection_boxes", "addr:city": "MEMPHIS", "addr:country": "US", "addr:postcode": "38124", "addr:state": "TN", "addr:street_address": "4695 SOUTHERN AVE", "amenity": "post_box", "collection_times": "Mo-Fr 15:30", "name": "USPS COLLECTION BOX - APC", "note": "ON 12/24 AND 12/31, THIS BOX MAY BE COLLECTED AS EARLY AS 12 NOON.", "nsi_id": "unitedstatespostalservice-a77078", "operator": "United States Postal Service", "operator:short": "USPS", "operator:type": "public", "operator:wikidata": "Q668687", "ref": "3812400019"}, "type": "Feature"}
{"geometry": {"coordinates": [-89.905261989, 35.114128019], "type": "Point"}, "id": "5LhEzt2fHb7JKnx_GCA0_Bj0iXQ=", "properties": {"@source_uri": "https://tools.usps.com/UspsToolsRestServices/rest/POLocator/findLocations", "@spider": "usps_collection_boxes", "addr:city": "MEMPHIS", "addr:country": "US", "addr:postcode": "38124", "addr:state": "TN", "addr:street_address": "4695 SOUTHERN AVE", "amenity": "post_box", "collection_times": "Mo-Fr 15:30", "indoor": "yes", "note": "ON 12/24 AND 12/31, THIS BOX MAY BE COLLECTED AS EARLY AS 12 NOON.", "nsi_id": "unitedstatespostalservice-a77078", "operator": "United States Postal Service", "operator:short": "USPS", "operator:type": "public", "operator:wikidata": "Q668687", "ref": "3812400020"}, "type": "Feature"}
{"geometry": {"coordinates": [-89.905261989, 35.114128019], "type": "Point"}, "id": "Qx2Rn9qMe5JPDDfEFXax5krryLs=", "properties": {"@source_uri": "https://tools.usps.com/UspsToolsRestServices/rest/POLocator/findLocations", "@spider": "usps_collection_boxes", "addr:city": "MEMPHIS", "addr:country": "US", "addr:postcode": "38124", "addr:state": "TN", "addr:street_address": "4695 SOUTHERN AVE", "amenity": "post_box", "collection_times": "Mo-Fr 15:30", "indoor": "yes", "note": "ON 12/24 AND 12/31, THIS BOX MAY BE COLLECTED AS EARLY AS 12 NOON.", "nsi_id": "unitedstatespostalservice-a77078", "operator": "United States Postal Service", "operator:short": "USPS", "operator:type": "public", "operator:wikidata": "Q668687", "ref": "3812400021"}, "type": "Feature"}
{"geometry": {"coordinates": [-89.905261989, 35.114128019], "type": "Point"}, "id": "lNZ3cNcV4C10yHsbheTTOhyOE9w=", "properties": {"@source_uri": "https://tools.usps.com/UspsToolsRestServices/rest/POLocator/findLocations", "@spider": "usps_collection_boxes", "addr:city": "MEMPHIS", "addr:country": "US", "addr:postcode": "38124", "addr:state": "TN", "addr:street_address": "4695 SOUTHERN AVE", "amenity": "post_box", "collection_times": "Mo-Fr 15:30", "indoor": "yes", "note": "ON 12/24 AND 12/31, THIS BOX MAY BE COLLECTED AS EARLY AS 12 NOON.", "nsi_id": "unitedstatespostalservice-a77078", "operator": "United States Postal Service", "operator:short": "USPS", "operator:type": "public", "operator:wikidata": "Q668687", "ref": "3812400022"}, "type": "Feature"}
{"geometry": {"coordinates": [-89.8224839, 35.048541], "type": "Point"}, "id": "5Uzw13pDDMxCFNDvXiJel8ZzQrw=", "properties": {"@source_uri": "https://tools.usps.com/UspsToolsRestServices/rest/POLocator/findLocations", "@spider": "usps_collection_boxes", "addr:city": "MEMPHIS", "addr:country": "US", "addr:postcode": "38125", "addr:state": "TN", "addr:street_address": "7227 WINCHESTER RD", "amenity": "post_box", "collection_times": "Mo-Sa 13:00", "note": "ON 12/24 AND 12/31, THIS BOX MAY BE COLLECTED AS EARLY AS 12 NOON.", "nsi_id": "unitedstatespostalservice-a77078", "operator": "United States Postal Service", "operator:short": "USPS", "operator:type": "public", "operator:wikidata": "Q668687", "ref": "3812500002"}, "type": "Feature"}
{"geometry": {"coordinates": [-89.797130786, 35.048400474], "type": "Point"}, "id": "TB3ShJtxwNzAbiygv-aOrzKvFu0=", "properties": {"@source_uri": "https://tools.usps.com/UspsToolsRestServices/rest/POLocator/findLocations", "@spider": "usps_collection_boxes", "addr:city": "MEMPHIS", "addr:country": "US", "addr:postcode": "38125", "addr:state": "TN", "addr:street_address": "7948 WINCHESTER RD STE 12", "amenity": "post_box", "collection_times": "Mo-Fr 18:00; Sa 15:00", "indoor": "yes", "note": "ON 12/24 AND 12/31, THIS BOX MAY BE COLLECTED AS EARLY AS 12 NOON.", "nsi_id": "unitedstatespostalservice-a77078", "operator": "United States Postal Service", "operator:short": "USPS", "operator:type": "public", "operator:wikidata": "Q668687", "ref": "3812500016"}, "type": "Feature"}
{"geometry": {"coordinates": [-89.797130786, 35.048400474], "type": "Point"}, "id": "43sTsHAfiWVIPeS_U4U2BxH0dvA=", "properties": {"@source_uri": "https://tools.usps.com/UspsToolsRestServices/rest/POLocator/findLocations", "@spider": "usps_collection_boxes", "addr:city": "MEMPHIS", "addr:country": "US", "addr:postcode": "38125", "addr:state": "TN", "addr:street_address": "7948 WINCHESTER RD STE 12", "amenity": "post_box", "collection_times": "Mo-Fr 18:00; Sa 15:00", "indoor": "yes", "note": "ON 12/24 AND 12/31, THIS BOX MAY BE COLLECTED AS EARLY AS 12 NOON.", "nsi_id": "unitedstatespostalservice-a77078", "operator": "United States Postal Service", "operator:short": "USPS", "operator:type": "public", "operator:wikidata": "Q668687", "ref": "3812500017"}, "type": "Feature"}
{"geometry": {"coordinates": [-89.797130786, 35.048400474], "type": "Point"}, "id": "vFvFFyBL_1-h1Nt0P222wViJiXI=", "properties": {"@source_uri": "https://tools.usps.com/UspsToolsRestServices/rest/POLocator/findLocations", "@spider": "usps_collection_boxes", "addr:city": "MEMPHIS", "addr:country": "US", "addr:postcode": "38125", "addr:state": "TN", "addr:street_address": "7948 WINCHESTER RD STE 12", "amenity": "post_box", "collection_times": "Mo-Fr 18:00; Sa 15:00", "note": "ON 12/24 AND 12/31, THIS BOX MAY BE COLLECTED AS EARLY AS 12 NOON.", "nsi_id": "unitedstatespostalservice-a77078", "operator": "United States Postal Service", "operator:short": "USPS", "operator:type": "public", "operator:wikidata": "Q668687", "ref": "3812500018"}, "type": "Feature"}
{"geometry": {"coordinates": [-90.0348609639, 35.1186039975], "type": "Point"}, "id": "tfcGQqfBpThPe9YTZdD0cTc2tto=", "properties": {"@source_uri": "https://tools.usps.com/UspsToolsRestServices/rest/POLocator/findLocations", "@spider": "usps_collection_boxes", "addr:city": "MEMPHIS", "addr:country": "US", "addr:postcode": "38126", "addr:state": "TN", "addr:street_address": "807 WALKER AVE", "amenity": "post_box", "collection_times": "Mo-Sa 13:00", "note": "ON 12/24 AND 12/31, THIS BOX MAY BE COLLECTED AS EARLY AS 12 NOON.", "nsi_id": "unitedstatespostalservice-a77078", "operator": "United States Postal Service", "operator:short": "USPS", "operator:type": "public", "operator:wikidata": "Q668687", "ref": "3812600017"}, "type": "Feature"}
{"geometry": {"coordinates": [-90.0341084, 35.130234], "type": "Point"}, "id": "ks7GKypU0KmwK3iX5sgO72rnjz4=", "properties": {"@source_uri": "https://tools.usps.com/UspsToolsRestServices/rest/POLocator/findLocations", "@spider": "usps_collection_boxes", "addr:city": "MEMPHIS", "addr:country": "US", "addr:postcode": "38126", "addr:state": "TN", "addr:street_address": "830 E EH CRUMP BLVD", "amenity": "post_box", "collection_times": "Mo-Fr 13:00", "note": "ON 12/24 AND 12/31, THIS BOX MAY BE COLLECTED AS EARLY AS 12 NOON.", "nsi_id": "unitedstatespostalservice-a77078", "operator": "United States Postal Service", "operator:short": "USPS", "operator:type": "public", "operator:wikidata": "Q668687", "ref": "3812600022"}, "type": "Feature"}
{"geometry": {"coordinates": [-90.0017424, 35.2124805], "type": "Point"}, "id": "M0TG7wNkGcwr-H--hcpN4izn0C4=", "properties": {"@source_uri": "https://tools.usps.com/UspsToolsRestServices/rest/POLocator/findLocations", "@spider": "usps_collection_boxes", "addr:city": "MEMPHIS", "addr:country": "US", "addr:postcode": "38127", "addr:state": "TN", "addr:street_address": "2602 FRAYSER BLVD", "amenity": "post_box", "collection_times": "Mo-Sa 13:00", "note": "ON 12/24 AND 12/31, THIS BOX MAY BE COLLECTED AS EARLY AS 12 NOON.", "nsi_id": "unitedstatespostalservice-a77078", "operator": "United States Postal Service", "operator:short": "USPS", "operator:type": "public", "operator:wikidata": "Q668687", "ref": "3812700009"}, "type": "Feature"}
{"geometry": {"coordinates": [-89.9923221, 35.217317], "type": "Point"}, "id": "JN6ktYlp7fgXB0BMzKvO_3ZQ8ac=", "properties": {"@source_uri": "https://tools.usps.com/UspsToolsRestServices/rest/POLocator/findLocations", "@spider": "usps_collection_boxes", "addr:city": "MEMPHIS", "addr:country": "US", "addr:postcode": "38127", "addr:state": "TN", "addr:street_address": "2140 FRAYSER BLVD", "amenity": "post_box", "collection_times": "Mo-Sa 13:00", "note": "ON 12/24 AND 12/31, THIS BOX MAY BE COLLECTED AS EARLY AS 12 NOON.", "nsi_id": "unitedstatespostalservice-a77078", "operator": "United States Postal Service", "operator:short": "USPS", "operator:type": "public", "operator:wikidata": "Q668687", "ref": "3812700010"}, "type": "Feature"}
{"geometry": {"coordinates": [-90.0017424, 35.2124805], "type": "Point"}, "id": "2WARIPkvgrS0s8OYJXSs4Yun38Y=", "properties": {"@source_uri": "https://tools.usps.com/UspsToolsRestServices/rest/POLocator/findLocations", "@spider": "usps_collection_boxes", "addr:city": "MEMPHIS", "addr:country": "US", "addr:postcode": "38127", "addr:state": "TN", "addr:street_address": "3057 BASKIN ST", "amenity": "post_box", "collection_times": "Mo-Fr 17:00; Sa 13:00", "note": "ON 12/24 AND 12/31, THIS BOX MAY BE COLLECTED AS EARLY AS 12 NOON.", "nsi_id": "unitedstatespostalservice-a77078", "operator": "United States Postal Service", "operator:short": "USPS", "operator:type": "public", "operator:wikidata": "Q668687", "ref": "3812700013"}, "type": "Feature"}
{"geometry": {"coordinates": [-90.023011, 35.209019], "type": "Point"}, "id": "JUJgzLZmcFNKBlMwR2ePWdbD2Ok=", "properties": {"@source_uri": "https://tools.usps.com/UspsToolsRestServices/rest/POLocator/findLocations", "@spider": "usps_collection_boxes", "addr:city": "MEMPHIS", "addr:country": "US", "addr:postcode": "38127", "addr:state": "TN", "addr:street_address": "3057 BASKIN ST", "amenity": "post_box", "collection_times": "Mo-Fr 17:00; Sa 13:00", "indoor": "yes", "note": "ON 12/24 AND 12/31, THIS BOX MAY BE COLLECTED AS EARLY AS 12 NOON.", "nsi_id": "unitedstatespostalservice-a77078", "operator": "United States Postal Service", "operator:short": "USPS", "operator:type": "public", "operator:wikidata": "Q668687", "ref": "3812700022"}, "type": "Feature"}
{"geometry": {"coordinates": [-90.02308, 35.208605], "type": "Point"}, "id": "8JfiauURJP-8C3FlUOda6s06mls=", "properties": {"@source_uri": "https://tools.usps.com/UspsToolsRestServices/rest/POLocator/findLocations", "@spider": "usps_collection_boxes", "addr:city": "MEMPHIS", "addr:country": "US", "addr:postcode": "38127", "addr:state": "TN", "addr:street_address": "3057 BASKIN ST", "amenity": "post_box", "collection_times": "Mo-Fr 17:00; Sa 13:00", "indoor": "yes", "note": "ON 12/24 AND 12/31, THIS BOX MAY BE COLLECTED AS EARLY AS 12 NOON.", "nsi_id": "unitedstatespostalservice-a77078", "operator": "United States Postal Service", "operator:short": "USPS", "operator:type": "public", "operator:wikidata": "Q668687", "ref": "3812700023"}, "type": "Feature"}
{"geometry": {"coordinates": [-90.023011, 35.209019], "type": "Point"}, "id": "MWFyMZsdgjkYdEpIeOsQYKN67UY=", "properties": {"@source_uri": "https://tools.usps.com/UspsToolsRestServices/rest/POLocator/findLocations", "@spider": "usps_collection_boxes", "addr:city": "MEMPHIS", "addr:country": "US", "addr:postcode": "38127", "addr:state": "TN", "addr:street_address": "3057 BASKIN ST", "amenity": "post_box", "collection_times": "Mo-Fr 17:00; Sa 13:00", "indoor": "yes", "note": "ON 12/24 AND 12/31, THIS BOX MAY BE COLLECTED AS EARLY AS 12 NOON.", "nsi_id": "unitedstatespostalservice-a77078", "operator": "United States Postal Service", "operator:short": "USPS", "operator:type": "public", "operator:wikidata": "Q668687", "ref": "3812700024"}, "type": "Feature"}
{"geometry": {"coordinates": [-90.022535579, 35.208997407], "type": "Point"}, "id": "rGl14g5UCS149JwKm5b4Yw3Z_9w=", "properties": {"@source_uri": "https://tools.usps.com/UspsToolsRestServices/rest/POLocator/findLocations", "@spider": "usps_collection_boxes", "addr:city": "MEMPHIS", "addr:country": "US", "addr:postcode": "38127", "addr:state": "TN", "addr:street_address": "3057 BASKIN ST", "amenity": "post_box", "collection_times": "Mo-Fr 17:00", "indoor": "yes", "note": "ON 12/24 AND 12/31, THIS BOX MAY BE COLLECTED AS EARLY AS 12 NOON.", "nsi_id": "unitedstatespostalservice-a77078", "operator": "United States Postal Service", "operator:short": "USPS", "operator:type": "public", "operator:wikidata": "Q668687", "ref": "3812700025"}, "type": "Feature"}
{"geometry": {"coordinates": [-89.9040949763, 35.227501013], "type": "Point"}, "id": "TKqbbL-hQMwGbJIwF6yr3Ba5nOw=", "properties": {"@source_uri": "https://tools.usps.com/UspsToolsRestServices/rest/POLocator/findLocations", "@spider": "usps_collection_boxes", "addr:city": "MEMPHIS", "addr:country": "US", "addr:postcode": "38128", "addr:state": "TN", "addr:street_address": "3711 AUSTIN PEAY HWY", "amenity": "post_box", "collection_times": "Mo-Fr 17:00; Sa 13:00", "note": "ON 12/24 AND 12/31, THIS BOX MAY BE COLLECTED AS EARLY AS 12 NOON.", "nsi_id": "unitedstatespostalservice-a77078", "operator": "United States Postal Service", "operator:short": "USPS", "operator:type": "public", "operator:wikidata": "Q668687", "ref": "3812800002"}, "type": "Feature"}
{"geometry": {"coordinates": [-89.9127539852, 35.2027090197], "type": "Point"}, "id": "LajVgNUoc68L0lRPMQTQhrWWpmQ=", "properties": {"@source_uri": "https://tools.usps.com/UspsToolsRestServices/rest/POLocator/findLocations", "@spider": "usps_collection_boxes", "addr:city": "MEMPHIS", "addr:country": "US", "addr:postcode": "38128", "addr:state": "TN", "addr:street_address": "2832 COLEMAN RD", "amenity": "post_box", "collection_times": "Mo-Fr 13:00", "note": "ON 12/24 AND 12/31, THIS BOX MAY BE COLLECTED AS EARLY AS 12 NOON.", "nsi_id": "unitedstatespostalservice-a77078", "operator": "United States Postal Service", "operator:short": "USPS", "operator:type": "public", "operator:wikidata": "Q668687", "ref": "3812800005"}, "type": "Feature"}
{"geometry": {"coordinates": [-89.9214056, 35.206589], "type": "Point"}, "id": "ialmHZPf5ooJK_CWcZ8IPVQB92s=", "properties": {"@source_uri": "https://tools.usps.com/UspsToolsRestServices/rest/POLocator/findLocations", "@spider": "usps_collection_boxes", "addr:city": "MEMPHIS", "addr:country": "US", "addr:postcode": "38128", "addr:state": "TN", "addr:street_address": "2960 AUSTIN PEAY HWY", "amenity": "post_box", "collection_times": "Mo-Sa 13:00", "note": "ON 12/24 AND 12/31, THIS BOX MAY BE COLLECTED AS EARLY AS 12 NOON.", "nsi_id": "unitedstatespostalservice-a77078", "operator": "United States Postal Service", "operator:short": "USPS", "operator:type": "public", "operator:wikidata": "Q668687", "ref": "3812800010"}, "type": "Feature"}
{"geometry": {"coordinates": [-89.9113680375, 35.2201660095], "type": "Point"}, "id": "jMEJkYqYqoTmg-TqJ4uOQvNYsYI=", "properties": {"@source_uri": "https://tools.usps.com/UspsToolsRestServices/rest/POLocator/findLocations", "@spider": "usps_collection_boxes", "addr:city": "MEMPHIS", "addr:country": "US", "addr:postcode": "38128", "addr:state": "TN", "addr:street_address": "3461 AUSTIN PEAY HWY", "amenity": "post_box", "collection_times": "Mo-Sa 13:00", "note": "ON 12/24 AND 12/31, THIS BOX MAY BE COLLECTED AS EARLY AS 12 NOON.", "nsi_id": "unitedstatespostalservice-a77078", "operator": "United States Postal Service", "operator:short": "USPS", "operator:type": "public", "operator:wikidata": "Q668687", "ref": "3812800017"}, "type": "Feature"}
{"geometry": {"coordinates": [-89.925569999, 35.2209630028], "type": "Point"}, "id": "YszZt3Ak9Bx2wyerVOhkZB9ErAY=", "properties": {"@source_uri": "https://tools.usps.com/UspsToolsRestServices/rest/POLocator/findLocations", "@spider": "usps_collection_boxes", "addr:city": "MEMPHIS", "addr:country": "US", "addr:postcode": "38128", "addr:state": "TN", "addr:street_address": "4130 YALE RD", "amenity": "post_box", "collection_times": "Mo-Sa 12:30", "note": "ON 12/24 AND 12/31, THIS BOX MAY BE COLLECTED AS EARLY AS 12 NOON.", "nsi_id": "unitedstatespostalservice-a77078", "operator": "United States Postal Service", "operator:short": "USPS", "operator:type": "public", "operator:wikidata": "Q668687", "ref": "3812800020"}, "type": "Feature"}
{"geometry": {"coordinates": [-89.8962026, 35.183983], "type": "Point"}, "id": "OKtByymkjfOcfZTyRIEqVavHEWI=", "properties": {"@source_uri": "https://tools.usps.com/UspsToolsRestServices/rest/POLocator/findLocations", "@spider": "usps_collection_boxes", "addr:city": "MEMPHIS", "addr:country": "US", "addr:postcode": "38128", "addr:state": "TN", "addr:street_address": "2150 COVINGTON PIKE", "amenity": "post_box", "collection_times": "Mo-Sa 13:00", "note": "ON 12/24 AND 12/31, THIS BOX MAY BE COLLECTED AS EARLY AS 12 NOON.", "nsi_id": "unitedstatespostalservice-a77078", "operator": "United States Postal Service", "operator:short": "USPS", "operator:type": "public", "operator:wikidata": "Q668687", "ref": "3812800023"}, "type": "Feature"}
{"geometry": {"coordinates": [-89.9222002, 35.2176558], "type": "Point"}, "id": "Q2Ev5neDFzrQZGEnRl7WHndgldU=", "properties": {"@source_uri": "https://tools.usps.com/UspsToolsRestServices/rest/POLocator/findLocations", "@spider": "usps_collection_boxes", "addr:city": "MEMPHIS", "addr:country": "US", "addr:postcode": "38128", "addr:state": "TN", "addr:street_address": "3030 COVINGTON PIKE", "amenity": "post_box", "collection_times": "Mo-Sa 13:00", "note": "ON 12/24 AND 12/31, THIS BOX MAY BE COLLECTED AS EARLY AS 12 NOON.", "nsi_id": "unitedstatespostalservice-a77078", "operator": "United States Postal Service", "operator:short": "USPS", "operator:type": "public", "operator:wikidata": "Q668687", "ref": "3812800024"}, "type": "Feature"}
{"geometry": {"coordinates": [-89.917428, 35.205791], "type": "Point"}, "id": "MTSC3CpYtS_v5V6HBdjt5QS2svU=", "properties": {"@source_uri": "https://tools.usps.com/UspsToolsRestServices/rest/POLocator/findLocations", "@spider": "usps_collection_boxes", "addr:city": "MEMPHIS", "addr:country": "US", "addr:postcode": "38128", "addr:state": "TN", "addr:street_address": "4384 STAGE RD", "amenity": "post_box", "collection_times": "Mo-Sa 13:00", "note": "ON 12/24 AND 12/31, THIS BOX MAY BE COLLECTED AS EARLY AS 12 NOON.", "nsi_id": "unitedstatespostalservice-a77078", "operator": "United States Postal Service", "operator:short": "USPS", "operator:type": "public", "operator:wikidata": "Q668687", "ref": "3812800027"}, "type": "Feature"}
{"geometry": {"coordinates": [-89.9038251, 35.227508], "type": "Point"}, "id": "F-ZgProXksBDbg2HARdm--1-fxM=", "properties": {"@source_uri": "https://tools.usps.com/UspsToolsRestServices/rest/POLocator/findLocations", "@spider": "usps_collection_boxes", "addr:city": "MEMPHIS", "addr:country": "US", "addr:postcode": "38128", "addr:state": "TN", "addr:street_address": "3711 AUSTIN PEAY HWY", "amenity": "post_box", "collection_times": "Mo-Fr 17:00; Sa 13:00", "indoor": "yes", "note": "ON 12/24 AND 12/31, THIS BOX MAY BE COLLECTED AS EARLY AS 12 NOON.", "nsi_id": "unitedstatespostalservice-a77078", "operator": "United States Postal Service", "operator:short": "USPS", "operator:type": "public", "operator:wikidata": "Q668687", "ref": "3812800034"}, "type": "Feature"}
{"geometry": {"coordinates": [-89.9153286116, 35.2149189864], "type": "Point"}, "id": "RPR5nE1jQ2z7-6udIpdZa8hIIHk=", "properties": {"@source_uri": "https://tools.usps.com/UspsToolsRestServices/rest/POLocator/findLocations", "@spider": "usps_collection_boxes", "addr:city": "MEMPHIS", "addr:country": "US", "addr:postcode": "38128", "addr:state": "TN", "addr:street_address": "3260 AUSTIN PEAY HWY", "amenity": "post_box", "collection_times": "Mo-Sa 13:00", "note": "ON 12/24 AND 12/31, THIS BOX MAY BE COLLECTED AS EARLY AS 12 NOON.", "nsi_id": "unitedstatespostalservice-a77078", "operator": "United States Postal Service", "operator:short": "USPS", "operator:type": "public", "operator:wikidata": "Q668687", "ref": "3812800036"}, "type": "Feature"}
{"geometry": {"coordinates": [-89.903761, 35.22749], "type": "Point"}, "id": "_8iFFs6PRTMHWmGczK7NMuc0rEU=", "properties": {"@source_uri": "https://tools.usps.com/UspsToolsRestServices/rest/POLocator/findLocations", "@spider": "usps_collection_boxes", "addr:city": "MEMPHIS", "addr:country": "US", "addr:postcode": "38128", "addr:state": "TN", "addr:street_address": "3711 AUSTIN PEAY HWY", "amenity": "post_box", "collection_times": "Mo-Fr 17:00; Sa 13:00", "indoor": "yes", "note": "ON 12/24 AND 12/31, THIS BOX MAY BE COLLECTED AS EARLY AS 12 NOON.", "nsi_id": "unitedstatespostalservice-a77078", "operator": "United States Postal Service", "operator:short": "USPS", "operator:type": "public", "operator:wikidata": "Q668687", "ref": "3812800038"}, "type": "Feature"}
{"geometry": {"coordinates": [-89.9038686, 35.227522], "type": "Point"}, "id": "Hpjm6KESIhzBMZi61bdsWWh2zrk=", "properties": {"@source_uri": "https://tools.usps.com/UspsToolsRestServices/rest/POLocator/findLocations", "@spider": "usps_collection_boxes", "addr:city": "MEMPHIS", "addr:country": "US", "addr:postcode": "38128", "addr:state": "TN", "addr:street_address": "3711 AUSTIN PEAY HWY", "amenity": "post_box", "collection_times": "Mo-Fr 17:00; Sa 13:00", "indoor": "yes", "note": "ON 12/24 AND 12/31, THIS BOX MAY BE COLLECTED AS EARLY AS 12 NOON.", "nsi_id": "unitedstatespostalservice-a77078", "operator": "United States Postal Service", "operator:short": "USPS", "operator:type": "public", "operator:wikidata": "Q668687", "ref": "3812800040"}, "type": "Feature"}
{"geometry": {"coordinates": [-89.90350454, 35.226906146], "type": "Point"}, "id": "bzTYXxoemwtXCvPgkcDVkJT2zeM=", "properties": {"@source_uri": "https://tools.usps.com/UspsToolsRestServices/rest/POLocator/findLocations", "@spider": "usps_collection_boxes", "addr:city": "MEMPHIS", "addr:country": "US", "addr:postcode": "38128", "addr:state": "TN", "addr:street_address": "3711 AUSTIN PEAY HWY", "amenity": "post_box", "collection_times": "Mo-Fr 17:00", "indoor": "yes", "note": "ON 12/24 AND 12/31, THIS BOX MAY BE COLLECTED AS EARLY AS 12 NOON.", "nsi_id": "unitedstatespostalservice-a77078", "operator": "United States Postal Service", "operator:short": "USPS", "operator:type": "public", "operator:wikidata": "Q668687", "ref": "3812800042"}, "type": "Feature"}
{"geometry": {"coordinates": [-89.982177, 35.034128], "type": "Point"}, "id": "sgJoubel06cJeZDZTwP-vtTEsZA=", "properties": {"@source_uri": "https://tools.usps.com/UspsToolsRestServices/rest/POLocator/findLocations", "@spider": "usps_collection_boxes", "addr:city": "MEMPHIS", "addr:country": "US", "addr:postcode": "38130", "addr:state": "TN", "addr:street_address": "3828 E SHELBY DR", "amenity": "post_box", "collection_times": "Mo-Sa 13:00", "note": "ON 12/24 AND 12/31, THIS BOX MAY BE COLLECTED AS EARLY AS 12 NOON.", "nsi_id": "unitedstatespostalservice-a77078", "operator": "United States Postal Service", "operator:short": "USPS", "operator:type": "public", "operator:wikidata": "Q668687", "ref": "3813000001"}, "type": "Feature"}
{"geometry": {"coordinates": [-89.8457655, 35.1612656], "type": "Point"}, "id": "ZnhlC_yPTHV28N5yd5vqrI7xLtE=", "properties": {"@source_uri": "https://tools.usps.com/UspsToolsRestServices/rest/POLocator/findLocations", "@spider": "usps_collection_boxes", "addr:city": "MEMPHIS", "addr:country": "US", "addr:postcode": "38134", "addr:state": "TN", "addr:street_address": "2966 ELMORE PARK RD", "amenity": "post_box", "collection_times": "Mo-Fr 17:00; Sa 13:00", "note": "ON 12/24 AND 12/31, THIS BOX MAY BE COLLECTED AS EARLY AS 12 NOON.", "nsi_id": "unitedstatespostalservice-a77078", "operator": "United States Postal Service", "operator:short": "USPS", "operator:type": "public", "operator:wikidata": "Q668687", "ref": "3813400001"}, "type": "Feature"}
{"geometry": {"coordinates": [-89.8730589682, 35.2037490044], "type": "Point"}, "id": "3BpFjRzwbUHNtk_9PEaSS6kuSZU=", "properties": {"@source_uri": "https://tools.usps.com/UspsToolsRestServices/rest/POLocator/findLocations", "@spider": "usps_collection_boxes", "addr:city": "MEMPHIS", "addr:country": "US", "addr:postcode": "38134", "addr:state": "TN", "addr:street_address": "5705 STAGE RD", "amenity": "post_box", "collection_times": "Mo-Sa 13:00", "note": "ON 12/24 AND 12/31, THIS BOX MAY BE COLLECTED AS EARLY AS 12 NOON.", "nsi_id": "unitedstatespostalservice-a77078", "operator": "United States Postal Service", "operator:short": "USPS", "operator:type": "public", "operator:wikidata": "Q668687", "ref": "3813400007"}, "type": "Feature"}
{"geometry": {"coordinates": [-89.881812022, 35.169011003], "type": "Point"}, "id": "MyU1DWhOlCNvRM9gDWbJtAian24=", "properties": {"@source_uri": "https://tools.usps.com/UspsToolsRestServices/rest/POLocator/findLocations", "@spider": "usps_collection_boxes", "addr:city": "MEMPHIS", "addr:country": "US", "addr:postcode": "38134", "addr:state": "TN", "addr:street_address": "5455 CRESTVIEW DR", "amenity": "post_box", "collection_times": "Mo-Sa 13:00", "note": "ON 12/24 AND 12/31, THIS BOX MAY BE COLLECTED AS EARLY AS 12 NOON.", "nsi_id": "unitedstatespostalservice-a77078", "operator": "United States Postal Service", "operator:short": "USPS", "operator:type": "public", "operator:wikidata": "Q668687", "ref": "3813400011"}, "type": "Feature"}
{"geometry": {"coordinates": [-89.8809550379, 35.1736730298], "type": "Point"}, "id": "IMYdO9f5qc6jzTJC_KerP-jeivo=", "properties": {"@source_uri": "https://tools.usps.com/UspsToolsRestServices/rest/POLocator/findLocations", "@spider": "usps_collection_boxes", "addr:city": "MEMPHIS", "addr:country": "US", "addr:postcode": "38134", "addr:state": "TN", "addr:street_address": "5480 PLEASANT VIEW RD", "amenity": "post_box", "collection_times": "Mo-Sa 13:00", "note": "ON 12/24 AND 12/31, THIS BOX MAY BE COLLECTED AS EARLY AS 12 NOON.", "nsi_id": "unitedstatespostalservice-a77078", "operator": "United States Postal Service", "operator:short": "USPS", "operator:type": "public", "operator:wikidata": "Q668687", "ref": "3813400013"}, "type": "Feature"}
{"geometry": {"coordinates": [-89.8707709601, 35.1831729827], "type": "Point"}, "id": "n-C8t1smYfAJ8CipWR5kFsRZvb8=", "properties": {"@source_uri": "https://tools.usps.com/UspsToolsRestServices/rest/POLocator/findLocations", "@spider": "usps_collection_boxes", "addr:city": "MEMPHIS", "addr:country": "US", "addr:postcode": "38134", "addr:state": "TN", "addr:street_address": "2100 SYCAMORE VIEW RD", "amenity": "post_box", "collection_times": "Mo-Sa 13:00", "note": "ON 12/24 AND 12/31, THIS BOX MAY BE COLLECTED AS EARLY AS 12 NOON.", "nsi_id": "unitedstatespostalservice-a77078", "operator": "United States Postal Service", "operator:short": "USPS", "operator:type": "public", "operator:wikidata": "Q668687", "ref": "3813400019"}, "type": "Feature"}
{"geometry": {"coordinates": [-89.8555940156, 35.1709330153], "type": "Point"}, "id": "MoqCZjfllWPFtkqhN9dqm4790FY=", "properties": {"@source_uri": "https://tools.usps.com/UspsToolsRestServices/rest/POLocator/findLocations", "@spider": "usps_collection_boxes", "addr:city": "MEMPHIS", "addr:country": "US", "addr:postcode": "38134", "addr:state": "TN", "addr:street_address": "1675 N SHELBY OAKS DR", "amenity": "post_box", "collection_times": "Mo-Sa 13:00", "note": "ON 12/24 AND 12/31, THIS BOX MAY BE COLLECTED AS EARLY AS 12 NOON.", "nsi_id": "unitedstatespostalservice-a77078", "operator": "United States Postal Service", "operator:short": "USPS", "operator:type": "public", "operator:wikidata": "Q668687", "ref": "3813400023"}, "type": "Feature"}
{"geometry": {"coordinates": [-89.8557250248, 35.1633240074], "type": "Point"}, "id": "hcxpJehUw8GjfiObK3Vp67uz63M=", "properties": {"@source_uri": "https://tools.usps.com/UspsToolsRestServices/rest/POLocator/findLocations", "@spider": "usps_collection_boxes", "addr:city": "MEMPHIS", "addr:country": "US", "addr:postcode": "38134", "addr:state": "TN", "addr:street_address": "6224 MACON RD", "amenity": "post_box", "collection_times": "Mo-Sa 13:00", "note": "ON 12/24 AND 12/31, THIS BOX MAY BE COLLECTED AS EARLY AS 12 NOON.", "nsi_id": "unitedstatespostalservice-a77078", "operator": "United States Postal Service", "operator:short": "USPS", "operator:type": "public", "operator:wikidata": "Q668687", "ref": "3813400025"}, "type": "Feature"}
{"geometry": {"coordinates": [-89.8922599805, 35.1840610035], "type": "Point"}, "id": "Uzs8I0nXC9g31wVnhn-4ftnGhbk=", "properties": {"@source_uri": "https://tools.usps.com/UspsToolsRestServices/rest/POLocator/findLocations", "@spider": "usps_collection_boxes", "addr:city": "MEMPHIS", "addr:country": "US", "addr:postcode": "38134", "addr:state": "TN", "addr:street_address": "2175 BUSINESS CENTER DR", "amenity": "post_box", "collection_times": "Mo-Sa 13:00", "note": "ON 12/24 AND 12/31, THIS BOX MAY BE COLLECTED AS EARLY AS 12 NOON.", "nsi_id": "unitedstatespostalservice-a77078", "operator": "United States Postal Service", "operator:short": "USPS", "operator:type": "public", "operator:wikidata": "Q668687", "ref": "3813400044"}, "type": "Feature"}
{"geometry": {"coordinates": [-89.8562530008, 35.2069619974], "type": "Point"}, "id": "-qLVzGarMpoo4gcqEGeOlRocMUc=", "properties": {"@source_uri": "https://tools.usps.com/UspsToolsRestServices/rest/POLocator/findLocations", "@spider": "usps_collection_boxes", "addr:city": "MEMPHIS", "addr:country": "US", "addr:postcode": "38134", "addr:state": "TN", "addr:street_address": "2966 ELMORE PARK RD", "amenity": "post_box", "collection_times": "Mo-Fr 17:00; Sa 13:00", "indoor": "yes", "note": "ON 12/24 AND 12/31, THIS BOX MAY BE COLLECTED AS EARLY AS 12 NOON.", "nsi_id": "unitedstatespostalservice-a77078", "operator": "United States Postal Service", "operator:short": "USPS", "operator:type": "public", "operator:wikidata": "Q668687", "ref": "3813400045"}, "type": "Feature"}
{"geometry": {"coordinates": [-89.8562530008, 35.2069619974], "type": "Point"}, "id": "kRIlD47Y9oUj5FSS_h6sUechwK0=", "properties": {"@source_uri": "https://tools.usps.com/UspsToolsRestServices/rest/POLocator/findLocations", "@spider": "usps_collection_boxes", "addr:city": "MEMPHIS", "addr:country": "US", "addr:postcode": "38134", "addr:state": "TN", "addr:street_address": "2966 ELMORE PARK RD", "amenity": "post_box", "collection_times": "Mo-Fr 17:00; Sa 13:00", "indoor": "yes", "note": "ON 12/24 AND 12/31, THIS BOX MAY BE COLLECTED AS EARLY AS 12 NOON.", "nsi_id": "unitedstatespostalservice-a77078", "operator": "United States Postal Service", "operator:short": "USPS", "operator:type": "public", "operator:wikidata": "Q668687", "ref": "3813400048"}, "type": "Feature"}
{"geometry": {"coordinates": [-89.8562530008, 35.2069619974], "type": "Point"}, "id": "JQi75hxcZy3E10Zj0zyP7y7Y_0s=", "properties": {"@source_uri": "https://tools.usps.com/UspsToolsRestServices/rest/POLocator/findLocations", "@spider": "usps_collection_boxes", "addr:city": "MEMPHIS", "addr:country": "US", "addr:postcode": "38134", "addr:state": "TN", "addr:street_address": "2966 ELMORE PARK RD", "amenity": "post_box", "collection_times": "Mo-Fr 17:00; Sa 13:00", "name": "USPS COLLECTION BOX - APC", "note": "ON 12/24 AND 12/31, THIS BOX MAY BE COLLECTED AS EARLY AS 12 NOON.", "nsi_id": "unitedstatespostalservice-a77078", "operator": "United States Postal Service", "operator:short": "USPS", "operator:type": "public", "operator:wikidata": "Q668687", "ref": "3813400053"}, "type": "Feature"}
{"geometry": {"coordinates": [-89.8115109884, 35.2115960164], "type": "Point"}, "id": "mfIbIaxrzJrDZQVZRsjNO6B1b-U=", "properties": {"@source_uri": "https://tools.usps.com/UspsToolsRestServices/rest/POLocator/findLocations", "@spider": "usps_collection_boxes", "addr:city": "MEMPHIS", "addr:country": "US", "addr:postcode": "38134", "addr:state": "TN", "addr:street_address": "7535 BARTLETT CORP DR", "amenity": "post_box", "collection_times": "Mo-Fr 13:00", "note": "ON 12/24 AND 12/31, THIS BOX MAY BE COLLECTED AS EARLY AS 12 NOON.", "nsi_id": "unitedstatespostalservice-a77078", "operator": "United States Postal Service", "operator:short": "USPS", "operator:type": "public", "operator:wikidata": "Q668687", "ref": "3813400054"}, "type": "Feature"}
{"geometry": {"coordinates": [-89.8562530008, 35.2069619974], "type": "Point"}, "id": "vc67ra7YqJ-5F_DN5UsVkfVdhN8=", "properties": {"@source_uri": "https://tools.usps.com/UspsToolsRestServices/rest/POLocator/findLocations", "@spider": "usps_collection_boxes", "addr:city": "MEMPHIS", "addr:country": "US", "addr:postcode": "38134", "addr:state": "TN", "addr:street_address": "2966 ELMORE PARK RD", "amenity": "post_box", "collection_times": "Mo-Fr 17:00; Sa 13:00", "indoor": "yes", "note": "ON 12/24 AND 12/31, THIS BOX MAY BE COLLECTED AS EARLY AS 12 NOON.", "nsi_id": "unitedstatespostalservice-a77078", "operator": "United States Postal Service", "operator:short": "USPS", "operator:type": "public", "operator:wikidata": "Q668687", "ref": "3813400056"}, "type": "Feature"}
{"geometry": {"coordinates": [-89.8562530008, 35.2069619974], "type": "Point"}, "id": "El37WVaWRnodjCLh9lvFl-ZUhaE=", "properties": {"@source_uri": "https://tools.usps.com/UspsToolsRestServices/rest/POLocator/findLocations", "@spider": "usps_collection_boxes", "addr:city": "MEMPHIS", "addr:country": "US", "addr:postcode": "38134", "addr:state": "TN", "addr:street_address": "2966 ELMORE PARK RD", "amenity": "post_box", "collection_times": "Mo-Fr 17:00; Sa 13:00", "indoor": "yes", "note": "ON 12/24 AND 12/31, THIS BOX MAY BE COLLECTED AS EARLY AS 12 NOON.", "nsi_id": "unitedstatespostalservice-a77078", "operator": "United States Postal Service", "operator:short": "USPS", "operator:type": "public", "operator:wikidata": "Q668687", "ref": "3813400057"}, "type": "Feature"}
{"geometry": {"coordinates": [-89.8562530008, 35.2069619974], "type": "Point"}, "id": "UAENKqqQ9g5cwtvhraHikOKZNQQ=", "properties": {"@source_uri": "https://tools.usps.com/UspsToolsRestServices/rest/POLocator/findLocations", "@spider": "usps_collection_boxes", "addr:city": "MEMPHIS", "addr:country": "US", "addr:postcode": "38134", "addr:state": "TN", "addr:street_address": "2966 ELMORE PARK RD", "amenity": "post_box", "collection_times": "Mo-Fr 17:00", "indoor": "yes", "note": "ON 12/24 AND 12/31, THIS BOX MAY BE COLLECTED AS EARLY AS 12 NOON.", "nsi_id": "unitedstatespostalservice-a77078", "operator": "United States Postal Service", "operator:short": "USPS", "operator:type": "public", "operator:wikidata": "Q668687", "ref": "3813400060"}, "type": "Feature"}
{"geometry": {"coordinates": [-89.8435107, 35.09927], "type": "Point"}, "id": "fPgsCORwySXRHx6E8RQcaLzGk6s=", "properties": {"@source_uri": "https://tools.usps.com/UspsToolsRestServices/rest/POLocator/findLocations", "@spider": "usps_collection_boxes", "addr:city": "GERMANTOWN", "addr:country": "US", "addr:postcode": "38138", "addr:state": "TN", "addr:street_address": "6815 POPLAR AVE", "amenity": "post_box", "collection_times": "Mo-Fr 15:00; Sa 12:00", "note": "ON 12/24 AND 12/31, THIS BOX MAY BE COLLECTED AS EARLY AS 12 NOON.", "nsi_id": "unitedstatespostalservice-a77078", "operator": "United States Postal Service", "operator:short": "USPS", "operator:type": "public", "operator:wikidata": "Q668687", "ref": "3813800001"}, "type": "Feature"}
{"geometry": {"coordinates": [-89.8043012, 35.095825], "type": "Point"}, "id": "zuALD-jrtjaTUlGochHdBRNJqnk=", "properties": {"@source_uri": "https://tools.usps.com/UspsToolsRestServices/rest/POLocator/findLocations", "@spider": "usps_collection_boxes", "addr:city": "GERMANTOWN", "addr:country": "US", "addr:postcode": "38138", "addr:state": "TN", "addr:street_address": "7776 FARMINGTON BLVD", "amenity": "post_box", "collection_times": "Mo-Fr 17:30; Sa 16:00", "note": "ON 12/24 AND 12/31, THIS BOX MAY BE COLLECTED AS EARLY AS 12 NOON.", "nsi_id": "unitedstatespostalservice-a77078", "operator": "United States Postal Service", "operator:short": "USPS", "operator:type": "public", "operator:wikidata": "Q668687", "ref": "3813800007"}, "type": "Feature"}
{"geometry": {"coordinates": [-89.8375085, 35.099286], "type": "Point"}, "id": "XCrhZzTIaXR93ZkkgTN_gkbocOE=", "properties": {"@source_uri": "https://tools.usps.com/UspsToolsRestServices/rest/POLocator/findLocations", "@spider": "usps_collection_boxes", "addr:city": "GERMANTOWN", "addr:country": "US", "addr:postcode": "38138", "addr:state": "TN", "addr:street_address": "6752 POPLAR AVE", "amenity": "post_box", "collection_times": "Mo-Fr 15:00; Sa 12:00", "note": "ON 12/24 AND 12/31, THIS BOX MAY BE COLLECTED AS EARLY AS 12 NOON.", "nsi_id": "unitedstatespostalservice-a77078", "operator": "United States Postal Service", "operator:short": "USPS", "operator:type": "public", "operator:wikidata": "Q668687", "ref": "3813800010"}, "type": "Feature"}
{"geometry": {"coordinates": [-89.7558481, 35.065007], "type": "Point"}, "id": "9tGjnTp3D3vYzdUym266LPg5kmo=", "properties": {"@source_uri": "https://tools.usps.com/UspsToolsRestServices/rest/POLocator/findLocations", "@spider": "usps_collection_boxes", "addr:city": "GERMANTOWN", "addr:country": "US", "addr:postcode": "38138", "addr:state": "TN", "addr:street_address": "9235 POPLAR AVE", "amenity": "post_box", "collection_times": "Mo-Sa 12:00", "nsi_id": "unitedstatespostalservice-a77078", "operator": "United States Postal Service", "operator:short": "USPS", "operator:type": "public", "operator:wikidata": "Q668687", "ref": "3813800019"}, "type": "Feature"}
{"geometry": {"coordinates": [-89.8038612, 35.096238], "type": "Point"}, "id": "6vUMrKaQgTsC8qju8tCA3wOfexI=", "properties": {"@source_uri": "https://tools.usps.com/UspsToolsRestServices/rest/POLocator/findLocations", "@spider": "usps_collection_boxes", "addr:city": "GERMANTOWN", "addr:country": "US", "addr:postcode": "38138", "addr:state": "TN", "addr:street_address": "7776 FARMINGTON BLVD", "amenity": "post_box", "collection_times": "Mo-Fr 18:00; Sa 16:00", "indoor": "yes", "note": "ON 12/24 AND 12/31, THIS BOX MAY BE COLLECTED AS EARLY AS 12 NOON.", "nsi_id": "unitedstatespostalservice-a77078", "operator": "United States Postal Service", "operator:short": "USPS", "operator:type": "public", "operator:wikidata": "Q668687", "ref": "3813800032"}, "type": "Feature"}
{"geometry": {"coordinates": [-89.8039541, 35.096226], "type": "Point"}, "id": "48TkmqxEF1kzSNxY_5WVsqWLcF8=", "properties": {"@source_uri": "https://tools.usps.com/UspsToolsRestServices/rest/POLocator/findLocations", "@spider": "usps_collection_boxes", "addr:city": "GERMANTOWN", "addr:country": "US", "addr:postcode": "38138", "addr:state": "TN", "addr:street_address": "7776 FARMINGTON BLVD", "amenity": "post_box", "collection_times": "Mo-Fr 18:00; Sa 16:00", "indoor": "yes", "note": "ON 12/24 AND 12/31, THIS BOX MAY BE COLLECTED AS EARLY AS 12 NOON.", "nsi_id": "unitedstatespostalservice-a77078", "operator": "United States Postal Service", "operator:short": "USPS", "operator:type": "public", "operator:wikidata": "Q668687", "ref": "3813800034"}, "type": "Feature"}
{"geometry": {"coordinates": [-89.8052088, 35.092117], "type": "Point"}, "id": "NOoYv0xDohxE8SizMF3oqBtUmgI=", "properties": {"@source_uri": "https://tools.usps.com/UspsToolsRestServices/rest/POLocator/findLocations", "@spider": "usps_collection_boxes", "addr:city": "GERMANTOWN", "addr:country": "US", "addr:postcode": "38138", "addr:state": "TN", "addr:street_address": "7730 POPLAR AVE", "amenity": "post_box", "collection_times": "Mo-Fr 15:00; Sa 12:00", "note": "ON 12/24 AND 12/31, THIS BOX MAY BE COLLECTED AS EARLY AS 12 NOON.", "nsi_id": "unitedstatespostalservice-a77078", "operator": "United States Postal Service", "operator:short": "USPS", "operator:type": "public", "operator:wikidata": "Q668687", "ref": "3813800037"}, "type": "Feature"}
{"geometry": {"coordinates": [-89.803988, 35.096229], "type": "Point"}, "id": "YSTk25AYE_FEaxQHPsyOBcCMwJg=", "properties": {"@source_uri": "https://tools.usps.com/UspsToolsRestServices/rest/POLocator/findLocations", "@spider": "usps_collection_boxes", "addr:city": "GERMANTOWN", "addr:country": "US", "addr:postcode": "38138", "addr:state": "TN", "addr:street_address": "7776 FARMINGTON BLVD", "amenity": "post_box", "collection_times": "Mo-Fr 18:00; Sa 16:00", "name": "USPS COLLECTION BOX - APC", "note": "ON 12/24 AND 12/31, THIS BOX MAY BE COLLECTED AS EARLY AS 12 NOON.", "nsi_id": "unitedstatespostalservice-a77078", "operator": "United States Postal Service", "operator:short": "USPS", "operator:type": "public", "operator:wikidata": "Q668687", "ref": "3813800038"}, "type": "Feature"}
{"geometry": {"coordinates": [-89.7604655537, 35.0638748382], "type": "Point"}, "id": "QcaxgikXpyraKR6bSQKZtLMovtY=", "properties": {"@source_uri": "https://tools.usps.com/UspsToolsRestServices/rest/POLocator/findLocations", "@spider": "usps_collection_boxes", "addr:city": "GERMANTOWN", "addr:country": "US", "addr:postcode": "38138", "addr:state": "TN", "addr:street_address": "3107 E CORPORATE EDGE DR", "amenity": "post_box", "collection_times": "Mo-Sa 12:00", "nsi_id": "unitedstatespostalservice-a77078", "operator": "United States Postal Service", "operator:short": "USPS", "operator:type": "public", "operator:wikidata": "Q668687", "ref": "3813800039"}, "type": "Feature"}
{"geometry": {"coordinates": [-89.803440841, 35.095747369], "type": "Point"}, "id": "M_a7ILKep-g4cVhGmfgrPak3JMk=", "properties": {"@source_uri": "https://tools.usps.com/UspsToolsRestServices/rest/POLocator/findLocations", "@spider": "usps_collection_boxes", "addr:city": "GERMANTOWN", "addr:country": "US", "addr:postcode": "38138", "addr:state": "TN", "addr:street_address": "7776 FARMINGTON BLVD", "amenity": "post_box", "collection_times": "Mo-Fr 18:00", "indoor": "yes", "note": "ON 12/24 AND 12/31, THIS BOX MAY BE COLLECTED AS EARLY AS 12 NOON.", "nsi_id": "unitedstatespostalservice-a77078", "operator": "United States Postal Service", "operator:short": "USPS", "operator:type": "public", "operator:wikidata": "Q668687", "ref": "3813800050"}, "type": "Feature"}
{"geometry": {"coordinates": [-89.8582284, 35.020727], "type": "Point"}, "id": "IQcjorKDLNuKN4k_kJf0V-FAUkw=", "properties": {"@source_uri": "https://tools.usps.com/UspsToolsRestServices/rest/POLocator/findLocations", "@spider": "usps_collection_boxes", "addr:city": "MEMPHIS", "addr:country": "US", "addr:postcode": "38141", "addr:state": "TN", "addr:street_address": "6150 E SHELBY DR", "amenity": "post_box", "collection_times": "Mo-Sa 13:30", "note": "ON 12/24 AND 12/31, THIS BOX MAY BE COLLECTED AS EARLY AS 12 NOON.", "nsi_id": "unitedstatespostalservice-a77078", "operator": "United States Postal Service", "operator:short": "USPS", "operator:type": "public", "operator:wikidata": "Q668687", "ref": "3814100000"}, "type": "Feature"}
{"geometry": {"coordinates": [-89.97678502, 35.1478940133], "type": "Point"}, "id": "u8ww5qfG0nHi3ts3TY1780-SeZg=", "properties": {"@source_uri": "https://tools.usps.com/UspsToolsRestServices/rest/POLocator/findLocations", "@spider": "usps_collection_boxes", "addr:city": "MEMPHIS", "addr:country": "US", "addr:postcode": "38182", "addr:state": "TN", "addr:street_address": "2481 BROAD AVE", "amenity": "post_box", "collection_times": "Mo-Fr 13:00; Sa 12:00", "note": "ON 12/24 AND 12/31, THIS BOX MAY BE COLLECTED AS EARLY AS 12 NOON.", "nsi_id": "unitedstatespostalservice-a77078", "operator": "United States Postal Service", "operator:short": "USPS", "operator:type": "public", "operator:wikidata": "Q668687", "ref": "3818200003"}, "type": "Feature"}
