{"dataset_attributes": {"@spider": "usps_collection_boxes"}, "geometry": {"coordinates": [-88.675621035, 35.973678988], "type": "Point"}, "id": "LAMsxzmbOf0KFIKuKU2Kvy-65iE=", "properties": {"@spider": "usps_collection_boxes", "addr:city": "ATWOOD", "addr:country": "US", "addr:full": "1570 E MAIN ST", "addr:postcode": "38220", "addr:state": "TN", "amenity": "post_box", "brand": "United States Postal Service", "brand:wikidata": "Q668687", "collection_times": "Mo-Fr 15:30; Sa 10:45", "name": "USPS COLLECTION BOX - BLUE BOX", "note": "ON 12/24 AND 12/31, THIS BOX MAY BE COLLECTED AS EARLY AS 12 NOON.", "nsi_id": "unitedstatespostalservice-a77078", "operator": "United States Postal Service", "operator:short": "USPS", "operator:type": "public", "operator:wikidata": "Q668687", "ref": "3822000001"}, "type": "Feature"}
{"dataset_attributes": {"@spider": "usps_collection_boxes"}, "geometry": {"coordinates": [-88.675621035, 35.973678988], "type": "Point"}, "id": "2Vc-6tBXenWCF7onEKzOBRMjHiw=", "properties": {"@spider": "usps_collection_boxes", "addr:city": "ATWOOD", "addr:country": "US", "addr:full": "1570 E MAIN ST", "addr:postcode": "38220", "addr:state": "TN", "amenity": "post_box", "brand": "United States Postal Service", "brand:wikidata": "Q668687", "collection_times": "Mo-Fr 15:30; Sa 10:45", "name": "USPS COLLECTION BOX - PO LOBBY", "note": "ON 12/24 AND 12/31, THIS BOX MAY BE COLLECTED AS EARLY AS 12 NOON.", "nsi_id": "unitedstatespostalservice-a77078", "operator": "United States Postal Service", "operator:short": "USPS", "operator:type": "public", "operator:wikidata": "Q668687", "ref": "3822000002"}, "type": "Feature"}
{"dataset_attributes": {"@spider": "usps_collection_boxes"}, "geometry": {"coordinates": [-88.675621035, 35.973678988], "type": "Point"}, "id": "DeJMf-tIh-s8w1IFQnE4a4iHe5M=", "properties": {"@spider": "usps_collection_boxes", "addr:city": "ATWOOD", "addr:country": "US", "addr:full": "1570 E MAIN ST", "addr:postcode": "38220", "addr:state": "TN", "amenity": "post_box", "brand": "United States Postal Service", "brand:wikidata": "Q668687", "collection_times": "Mo-Fr 15:30", "name": "USPS COLLECTION BOX - PO LOBBY", "note": "ON 12/24 AND 12/31, THIS BOX MAY BE COLLECTED AS EARLY AS 12 NOON.", "nsi_id": "unitedstatespostalservice-a77078", "operator": "United States Postal Service", "operator:short": "USPS", "operator:type": "public", "operator:wikidata": "Q668687", "ref": "3822000003"}, "type": "Feature"}
{"dataset_attributes": {"@spider": "usps_collection_boxes"}, "geometry": {"coordinates": [-88.206829991, 36.435859979], "type": "Point"}, "id": "NCpnG_aZsQzaAFEpf0_G-oiBk8k=", "properties": {"@spider": "usps_collection_boxes", "addr:city": "BUCHANAN", "addr:country": "US", "addr:full": "15 CLAYTONTOWN RD", "addr:postcode": "38222", "addr:state": "TN", "amenity": "post_box", "brand": "United States Postal Service", "brand:wikidata": "Q668687", "collection_times": "Mo-Fr 15:00; Sa 09:30", "name": "USPS COLLECTION BOX - BLUE BOX", "note": "ON 12/24 AND 12/31, THIS BOX MAY BE COLLECTED AS EARLY AS 12 NOON.", "nsi_id": "unitedstatespostalservice-a77078", "operator": "United States Postal Service", "operator:short": "USPS", "operator:type": "public", "operator:wikidata": "Q668687", "ref": "3822200001"}, "type": "Feature"}
{"dataset_attributes": {"@spider": "usps_collection_boxes"}, "geometry": {"coordinates": [-88.206829991, 36.435859979], "type": "Point"}, "id": "aZO_0FgpR1cyEPKt-XY8mYHd1bc=", "properties": {"@spider": "usps_collection_boxes", "addr:city": "BUCHANAN", "addr:country": "US", "addr:full": "15 CLAYTONTOWN RD", "addr:postcode": "38222", "addr:state": "TN", "amenity": "post_box", "brand": "United States Postal Service", "brand:wikidata": "Q668687", "collection_times": "Mo-Fr 15:00; Sa 09:30", "name": "USPS COLLECTION BOX - PO LOBBY", "note": "ON 12/24 AND 12/31, THIS BOX MAY BE COLLECTED AS EARLY AS 12 NOON.", "nsi_id": "unitedstatespostalservice-a77078", "operator": "United States Postal Service", "operator:short": "USPS", "operator:type": "public", "operator:wikidata": "Q668687", "ref": "3822200002"}, "type": "Feature"}
{"dataset_attributes": {"@spider": "usps_collection_boxes"}, "geometry": {"coordinates": [-88.206829991, 36.435859979], "type": "Point"}, "id": "WTAESj5bTJu-4_UzfQRwJbwxTS0=", "properties": {"@spider": "usps_collection_boxes", "addr:city": "BUCHANAN", "addr:country": "US", "addr:full": "15 CLAYTONTOWN RD", "addr:postcode": "38222", "addr:state": "TN", "amenity": "post_box", "brand": "United States Postal Service", "brand:wikidata": "Q668687", "collection_times": "Mo-Fr 14:30", "name": "USPS COLLECTION BOX - PO LOBBY", "note": "ON 12/24 AND 12/31, THIS BOX MAY BE COLLECTED AS EARLY AS 12 NOON.", "nsi_id": "unitedstatespostalservice-a77078", "operator": "United States Postal Service", "operator:short": "USPS", "operator:type": "public", "operator:wikidata": "Q668687", "ref": "3822200003"}, "type": "Feature"}
{"dataset_attributes": {"@spider": "usps_collection_boxes"}, "geometry": {"coordinates": [-88.5121662631, 36.2932292123], "type": "Point"}, "id": "-xU_-Ek_qsZjXqSg303z0Y4Vi0k=", "properties": {"@spider": "usps_collection_boxes", "addr:city": "COMO", "addr:country": "US", "addr:full": "10506 HIGHWAY 54", "addr:postcode": "38223", "addr:state": "TN", "amenity": "post_box", "brand": "United States Postal Service", "brand:wikidata": "Q668687", "collection_times": "Mo-Sa 11:00", "name": "USPS COLLECTION BOX - PO LOBBY", "nsi_id": "unitedstatespostalservice-a77078", "operator": "United States Postal Service", "operator:short": "USPS", "operator:type": "public", "operator:wikidata": "Q668687", "ref": "3822300001"}, "type": "Feature"}
{"dataset_attributes": {"@spider": "usps_collection_boxes"}, "geometry": {"coordinates": [-88.5121662631, 36.2932292123], "type": "Point"}, "id": "8R3mW9V1g_Ybr-VM9f6TUZ47gDQ=", "properties": {"@spider": "usps_collection_boxes", "addr:city": "COMO", "addr:country": "US", "addr:full": "10506 HIGHWAY 54", "addr:postcode": "38223", "addr:state": "TN", "amenity": "post_box", "brand": "United States Postal Service", "brand:wikidata": "Q668687", "collection_times": "Mo-Sa 11:00", "name": "USPS COLLECTION BOX - BLUE BOX", "nsi_id": "unitedstatespostalservice-a77078", "operator": "United States Postal Service", "operator:short": "USPS", "operator:type": "public", "operator:wikidata": "Q668687", "ref": "3822300002"}, "type": "Feature"}
{"dataset_attributes": {"@spider": "usps_collection_boxes"}, "geometry": {"coordinates": [-88.479697, 36.380156], "type": "Point"}, "id": "MYIAMjPg1qWFSzNHenLhbWxsOMI=", "properties": {"@spider": "usps_collection_boxes", "addr:city": "COTTAGE GROVE", "addr:country": "US", "addr:full": "7100 MAIN ST", "addr:postcode": "38224", "addr:state": "TN", "amenity": "post_box", "brand": "United States Postal Service", "brand:wikidata": "Q668687", "collection_times": "Mo-Fr 12:00; Sa 07:00", "name": "USPS COLLECTION BOX - BLUE BOX", "nsi_id": "unitedstatespostalservice-a77078", "operator": "United States Postal Service", "operator:short": "USPS", "operator:type": "public", "operator:wikidata": "Q668687", "ref": "3822400001"}, "type": "Feature"}
{"dataset_attributes": {"@spider": "usps_collection_boxes"}, "geometry": {"coordinates": [-88.479697, 36.380156], "type": "Point"}, "id": "sVPnU-AwoxEeug1iyrDdXIXrpwk=", "properties": {"@spider": "usps_collection_boxes", "addr:city": "COTTAGE GROVE", "addr:country": "US", "addr:full": "7100 MAIN ST", "addr:postcode": "38224", "addr:state": "TN", "amenity": "post_box", "brand": "United States Postal Service", "brand:wikidata": "Q668687", "collection_times": "Mo-Fr 12:00; Sa 07:00", "name": "USPS COLLECTION BOX - PO LOBBY", "nsi_id": "unitedstatespostalservice-a77078", "operator": "United States Postal Service", "operator:short": "USPS", "operator:type": "public", "operator:wikidata": "Q668687", "ref": "3822400002"}, "type": "Feature"}
{"dataset_attributes": {"@spider": "usps_collection_boxes"}, "geometry": {"coordinates": [-88.708638587, 36.292656115], "type": "Point"}, "id": "cG6bRhJeM9uUGBWcLBAycNRnNqs=", "properties": {"@spider": "usps_collection_boxes", "addr:city": "DRESDEN", "addr:country": "US", "addr:full": "122 W MAPLE ST", "addr:postcode": "38225", "addr:state": "TN", "amenity": "post_box", "brand": "United States Postal Service", "brand:wikidata": "Q668687", "collection_times": "Mo-Fr 16:30; Sa 15:00", "name": "USPS COLLECTION BOX - BLUE BOX", "note": "ON 12/24 AND 12/31, THIS BOX MAY BE COLLECTED AS EARLY AS 12 NOON.", "nsi_id": "unitedstatespostalservice-a77078", "operator": "United States Postal Service", "operator:short": "USPS", "operator:type": "public", "operator:wikidata": "Q668687", "ref": "3822500004"}, "type": "Feature"}
{"dataset_attributes": {"@spider": "usps_collection_boxes"}, "geometry": {"coordinates": [-88.708638587, 36.292656115], "type": "Point"}, "id": "7aOSzvvV0RWK7DQc5-gxSVDroeg=", "properties": {"@spider": "usps_collection_boxes", "addr:city": "DRESDEN", "addr:country": "US", "addr:full": "122 W MAPLE ST", "addr:postcode": "38225", "addr:state": "TN", "amenity": "post_box", "brand": "United States Postal Service", "brand:wikidata": "Q668687", "collection_times": "Mo-Fr 16:30; Sa 15:00", "name": "USPS COLLECTION BOX - PO LOBBY", "note": "ON 12/24 AND 12/31, THIS BOX MAY BE COLLECTED AS EARLY AS 12 NOON.", "nsi_id": "unitedstatespostalservice-a77078", "operator": "United States Postal Service", "operator:short": "USPS", "operator:type": "public", "operator:wikidata": "Q668687", "ref": "3822500005"}, "type": "Feature"}
{"dataset_attributes": {"@spider": "usps_collection_boxes"}, "geometry": {"coordinates": [-88.7067100258, 36.2802952339], "type": "Point"}, "id": "KFbbDCLUsOE4CK7t5IuCwtwOll0=", "properties": {"@spider": "usps_collection_boxes", "addr:city": "DRESDEN", "addr:country": "US", "addr:full": "100 SOUTHFIELD DR", "addr:postcode": "38225", "addr:state": "TN", "amenity": "post_box", "brand": "United States Postal Service", "brand:wikidata": "Q668687", "collection_times": "Mo-Sa 10:00", "name": "USPS COLLECTION BOX - BLUE BOX", "nsi_id": "unitedstatespostalservice-a77078", "operator": "United States Postal Service", "operator:short": "USPS", "operator:type": "public", "operator:wikidata": "Q668687", "ref": "3822500007"}, "type": "Feature"}
{"dataset_attributes": {"@spider": "usps_collection_boxes"}, "geometry": {"coordinates": [-88.708638587, 36.292656115], "type": "Point"}, "id": "l-rIrz0dJBtXtOXCt4HQb1vI4r8=", "properties": {"@spider": "usps_collection_boxes", "addr:city": "DRESDEN", "addr:country": "US", "addr:full": "122 W MAPLE ST", "addr:postcode": "38225", "addr:state": "TN", "amenity": "post_box", "brand": "United States Postal Service", "brand:wikidata": "Q668687", "collection_times": "Mo-Fr 16:30", "name": "USPS COLLECTION BOX - PO LOBBY", "note": "ON 12/24 AND 12/31, THIS BOX MAY BE COLLECTED AS EARLY AS 12 NOON.", "nsi_id": "unitedstatespostalservice-a77078", "operator": "United States Postal Service", "operator:short": "USPS", "operator:type": "public", "operator:wikidata": "Q668687", "ref": "3822500010"}, "type": "Feature"}
{"dataset_attributes": {"@spider": "usps_collection_boxes"}, "geometry": {"coordinates": [-88.715542028, 36.502289999], "type": "Point"}, "id": "EnLUbHYaGmp0T-VkkKP5WRTs5dc=", "properties": {"@spider": "usps_collection_boxes", "addr:city": "DUKEDOM", "addr:country": "US", "addr:full": "3640 STATE LINE RD", "addr:postcode": "38226", "addr:state": "TN", "amenity": "post_box", "brand": "United States Postal Service", "brand:wikidata": "Q668687", "collection_times": "Mo-Fr 15:30; Sa 12:00", "name": "USPS COLLECTION BOX - PO LOBBY", "note": "ON 12/24 AND 12/31, THIS BOX MAY BE COLLECTED AS EARLY AS 12 NOON.", "nsi_id": "unitedstatespostalservice-a77078", "operator": "United States Postal Service", "operator:short": "USPS", "operator:type": "public", "operator:wikidata": "Q668687", "ref": "3822600001"}, "type": "Feature"}
{"dataset_attributes": {"@spider": "usps_collection_boxes"}, "geometry": {"coordinates": [-88.715542028, 36.502289999], "type": "Point"}, "id": "qjdHHENvQtOR6SVHwwnVkWX2SIQ=", "properties": {"@spider": "usps_collection_boxes", "addr:city": "DUKEDOM", "addr:country": "US", "addr:full": "3640 STATE LINE RD", "addr:postcode": "38226", "addr:state": "TN", "amenity": "post_box", "brand": "United States Postal Service", "brand:wikidata": "Q668687", "collection_times": "Mo-Fr 15:30; Sa 12:00", "name": "USPS COLLECTION BOX - BLUE BOX", "note": "ON 12/24 AND 12/31, THIS BOX MAY BE COLLECTED AS EARLY AS 12 NOON.", "nsi_id": "unitedstatespostalservice-a77078", "operator": "United States Postal Service", "operator:short": "USPS", "operator:type": "public", "operator:wikidata": "Q668687", "ref": "3822600002"}, "type": "Feature"}
{"dataset_attributes": {"@spider": "usps_collection_boxes"}, "geometry": {"coordinates": [-88.715542028, 36.502289999], "type": "Point"}, "id": "Ny5RIpTlD3hWycvU1K3gyJf2EfM=", "properties": {"@spider": "usps_collection_boxes", "addr:city": "DUKEDOM", "addr:country": "US", "addr:full": "3640 STATE LINE RD", "addr:postcode": "38226", "addr:state": "TN", "amenity": "post_box", "brand": "United States Postal Service", "brand:wikidata": "Q668687", "collection_times": "Mo-Fr 15:30", "name": "USPS COLLECTION BOX - PO LOBBY", "note": "ON 12/24 AND 12/31, THIS BOX MAY BE COLLECTED AS EARLY AS 12 NOON.", "nsi_id": "unitedstatespostalservice-a77078", "operator": "United States Postal Service", "operator:short": "USPS", "operator:type": "public", "operator:wikidata": "Q668687", "ref": "3822600003"}, "type": "Feature"}
{"dataset_attributes": {"@spider": "usps_collection_boxes"}, "geometry": {"coordinates": [-88.611727966, 36.214463993], "type": "Point"}, "id": "QdyHU1B2qA1vV0Ph3Yg-FxbxmmM=", "properties": {"@spider": "usps_collection_boxes", "addr:city": "GLEASON", "addr:country": "US", "addr:full": "100 N CEDAR ST", "addr:postcode": "38229", "addr:state": "TN", "amenity": "post_box", "brand": "United States Postal Service", "brand:wikidata": "Q668687", "collection_times": "Mo-Fr 15:45; Sa 12:15", "name": "USPS COLLECTION BOX - BLUE BOX", "note": "ON 12/24 AND 12/31, THIS BOX MAY BE COLLECTED AS EARLY AS 12 NOON.", "nsi_id": "unitedstatespostalservice-a77078", "operator": "United States Postal Service", "operator:short": "USPS", "operator:type": "public", "operator:wikidata": "Q668687", "ref": "3822900001"}, "type": "Feature"}
{"dataset_attributes": {"@spider": "usps_collection_boxes"}, "geometry": {"coordinates": [-88.611727966, 36.214463993], "type": "Point"}, "id": "2eI6yEIGi5TUovr3-XduGQDT_Bw=", "properties": {"@spider": "usps_collection_boxes", "addr:city": "GLEASON", "addr:country": "US", "addr:full": "100 N CEDAR ST", "addr:postcode": "38229", "addr:state": "TN", "amenity": "post_box", "brand": "United States Postal Service", "brand:wikidata": "Q668687", "collection_times": "Mo-Fr 15:45; Sa 12:15", "name": "USPS COLLECTION BOX - PO LOBBY", "note": "ON 12/24 AND 12/31, THIS BOX MAY BE COLLECTED AS EARLY AS 12 NOON.", "nsi_id": "unitedstatespostalservice-a77078", "operator": "United States Postal Service", "operator:short": "USPS", "operator:type": "public", "operator:wikidata": "Q668687", "ref": "3822900002"}, "type": "Feature"}
{"dataset_attributes": {"@spider": "usps_collection_boxes"}, "geometry": {"coordinates": [-88.611727966, 36.214463993], "type": "Point"}, "id": "H-y-rmLKo9TBDihYLT9wy7_Thr8=", "properties": {"@spider": "usps_collection_boxes", "addr:city": "GLEASON", "addr:country": "US", "addr:full": "100 N CEDAR ST", "addr:postcode": "38229", "addr:state": "TN", "amenity": "post_box", "brand": "United States Postal Service", "brand:wikidata": "Q668687", "collection_times": "Mo-Fr 15:45", "name": "USPS COLLECTION BOX - PO LOBBY", "note": "ON 12/24 AND 12/31, THIS BOX MAY BE COLLECTED AS EARLY AS 12 NOON.", "nsi_id": "unitedstatespostalservice-a77078", "operator": "United States Postal Service", "operator:short": "USPS", "operator:type": "public", "operator:wikidata": "Q668687", "ref": "3822900003"}, "type": "Feature"}
{"dataset_attributes": {"@spider": "usps_collection_boxes"}, "geometry": {"coordinates": [-88.798105, 36.15448], "type": "Point"}, "id": "y_nYEHU0ucdrG6EE6uQhRwKoqFA=", "properties": {"@spider": "usps_collection_boxes", "addr:city": "GREENFIELD", "addr:country": "US", "addr:full": "301 BROAD ST", "addr:postcode": "38230", "addr:state": "TN", "amenity": "post_box", "brand": "United States Postal Service", "brand:wikidata": "Q668687", "collection_times": "Mo-Fr 15:45; Sa 10:15", "name": "USPS COLLECTION BOX - BLUE BOX", "note": "ON 12/24 AND 12/31, THIS BOX MAY BE COLLECTED AS EARLY AS 12 NOON.", "nsi_id": "unitedstatespostalservice-a77078", "operator": "United States Postal Service", "operator:short": "USPS", "operator:type": "public", "operator:wikidata": "Q668687", "ref": "3823000011"}, "type": "Feature"}
{"dataset_attributes": {"@spider": "usps_collection_boxes"}, "geometry": {"coordinates": [-88.798211, 36.154442], "type": "Point"}, "id": "4gc7lagAkW6UK-RZQUdfBJbUnPw=", "properties": {"@spider": "usps_collection_boxes", "addr:city": "GREENFIELD", "addr:country": "US", "addr:full": "301 BROAD ST", "addr:postcode": "38230", "addr:state": "TN", "amenity": "post_box", "brand": "United States Postal Service", "brand:wikidata": "Q668687", "collection_times": "Mo-Fr 16:00; Sa 10:15", "name": "USPS COLLECTION BOX - PO LOBBY", "note": "ON 12/24 AND 12/31, THIS BOX MAY BE COLLECTED AS EARLY AS 12 NOON.", "nsi_id": "unitedstatespostalservice-a77078", "operator": "United States Postal Service", "operator:short": "USPS", "operator:type": "public", "operator:wikidata": "Q668687", "ref": "3823000012"}, "type": "Feature"}
{"dataset_attributes": {"@spider": "usps_collection_boxes"}, "geometry": {"coordinates": [-88.7977782187, 36.1545091799], "type": "Point"}, "id": "i2kTVjhl5dqRWXdOR2RlMFK1PcI=", "properties": {"@spider": "usps_collection_boxes", "addr:city": "GREENFIELD", "addr:country": "US", "addr:full": "301 BROAD ST", "addr:postcode": "38230", "addr:state": "TN", "amenity": "post_box", "brand": "United States Postal Service", "brand:wikidata": "Q668687", "collection_times": "Mo-Fr 16:00; Sa 10:15", "name": "USPS COLLECTION BOX - PO LOBBY", "note": "ON 12/24 AND 12/31, THIS BOX MAY BE COLLECTED AS EARLY AS 12 NOON.", "nsi_id": "unitedstatespostalservice-a77078", "operator": "United States Postal Service", "operator:short": "USPS", "operator:type": "public", "operator:wikidata": "Q668687", "ref": "3823000013"}, "type": "Feature"}
{"dataset_attributes": {"@spider": "usps_collection_boxes"}, "geometry": {"coordinates": [-89.2965, 36.330596], "type": "Point"}, "id": "bEdl0BQvtjFnYaBuC7Bp7qrpGy8=", "properties": {"@spider": "usps_collection_boxes", "addr:city": "HORNBEAK", "addr:country": "US", "addr:full": "207 S MAIN ST", "addr:postcode": "38232", "addr:state": "TN", "amenity": "post_box", "brand": "United States Postal Service", "brand:wikidata": "Q668687", "collection_times": "Mo-Fr 12:45; Sa 11:00", "name": "USPS COLLECTION BOX - BLUE BOX", "note": "ON 12/24 AND 12/31, THIS BOX MAY BE COLLECTED AS EARLY AS 12 NOON.", "nsi_id": "unitedstatespostalservice-a77078", "operator": "United States Postal Service", "operator:short": "USPS", "operator:type": "public", "operator:wikidata": "Q668687", "ref": "3823200001"}, "type": "Feature"}
{"dataset_attributes": {"@spider": "usps_collection_boxes"}, "geometry": {"coordinates": [-89.29647, 36.330508], "type": "Point"}, "id": "JrBxhHF-bTiknjDZJctkJjsfcVA=", "properties": {"@spider": "usps_collection_boxes", "addr:city": "HORNBEAK", "addr:country": "US", "addr:full": "207 S MAIN ST", "addr:postcode": "38232", "addr:state": "TN", "amenity": "post_box", "brand": "United States Postal Service", "brand:wikidata": "Q668687", "collection_times": "Mo-Fr 12:45; Sa 11:00", "name": "USPS COLLECTION BOX - PO LOBBY", "note": "ON 12/24 AND 12/31, THIS BOX MAY BE COLLECTED AS EARLY AS 12 NOON.", "nsi_id": "unitedstatespostalservice-a77078", "operator": "United States Postal Service", "operator:short": "USPS", "operator:type": "public", "operator:wikidata": "Q668687", "ref": "3823200002"}, "type": "Feature"}
{"dataset_attributes": {"@spider": "usps_collection_boxes"}, "geometry": {"coordinates": [-89.01024, 36.204658], "type": "Point"}, "id": "a_EzYkORZ6DWdEqL5N_v0LKHATg=", "properties": {"@spider": "usps_collection_boxes", "addr:city": "KENTON", "addr:country": "US", "addr:full": "200 E CARROLL ST", "addr:postcode": "38233", "addr:state": "TN", "amenity": "post_box", "brand": "United States Postal Service", "brand:wikidata": "Q668687", "collection_times": "Mo-Fr 15:00; Sa 10:30", "name": "USPS COLLECTION BOX - BLUE BOX", "note": "ON 12/24 AND 12/31, THIS BOX MAY BE COLLECTED AS EARLY AS 12 NOON.", "nsi_id": "unitedstatespostalservice-a77078", "operator": "United States Postal Service", "operator:short": "USPS", "operator:type": "public", "operator:wikidata": "Q668687", "ref": "3823300001"}, "type": "Feature"}
{"dataset_attributes": {"@spider": "usps_collection_boxes"}, "geometry": {"coordinates": [-89.010277, 36.204615], "type": "Point"}, "id": "4ZVNstryfhbFQuifwSqZv9k65Bs=", "properties": {"@spider": "usps_collection_boxes", "addr:city": "KENTON", "addr:country": "US", "addr:full": "200 E CARROLL ST", "addr:postcode": "38233", "addr:state": "TN", "amenity": "post_box", "brand": "United States Postal Service", "brand:wikidata": "Q668687", "collection_times": "Mo-Fr 15:00; Sa 10:30", "name": "USPS COLLECTION BOX - PO LOBBY", "note": "ON 12/24 AND 12/31, THIS BOX MAY BE COLLECTED AS EARLY AS 12 NOON.", "nsi_id": "unitedstatespostalservice-a77078", "operator": "United States Postal Service", "operator:short": "USPS", "operator:type": "public", "operator:wikidata": "Q668687", "ref": "3823300005"}, "type": "Feature"}
{"dataset_attributes": {"@spider": "usps_collection_boxes"}, "geometry": {"coordinates": [-88.850134, 36.341977], "type": "Point"}, "id": "yYXhe1LT-DD-PtUJdLYKE4Oak-o=", "properties": {"@spider": "usps_collection_boxes", "addr:city": "MARTIN", "addr:country": "US", "addr:full": "100 UNIVERSITY ST", "addr:postcode": "38237", "addr:state": "TN", "amenity": "post_box", "brand": "United States Postal Service", "brand:wikidata": "Q668687", "collection_times": "Mo-Fr 17:00; Sa 10:00", "name": "USPS COLLECTION BOX - BLUE BOX", "note": "ON 12/24 AND 12/31, THIS BOX MAY BE COLLECTED AS EARLY AS 12 NOON.", "nsi_id": "unitedstatespostalservice-a77078", "operator": "United States Postal Service", "operator:short": "USPS", "operator:type": "public", "operator:wikidata": "Q668687", "ref": "3823700001"}, "type": "Feature"}
{"dataset_attributes": {"@spider": "usps_collection_boxes"}, "geometry": {"coordinates": [-88.850019, 36.34199], "type": "Point"}, "id": "wizruIq45wgAmFFFuXvAN1y2kJg=", "properties": {"@spider": "usps_collection_boxes", "addr:city": "MARTIN", "addr:country": "US", "addr:full": "100 UNIVERSITY ST", "addr:postcode": "38237", "addr:state": "TN", "amenity": "post_box", "brand": "United States Postal Service", "brand:wikidata": "Q668687", "collection_times": "Mo-Fr 17:00; Sa 10:00", "name": "USPS COLLECTION BOX - PO LOBBY", "note": "ON 12/24 AND 12/31, THIS BOX MAY BE COLLECTED AS EARLY AS 12 NOON.", "nsi_id": "unitedstatespostalservice-a77078", "operator": "United States Postal Service", "operator:short": "USPS", "operator:type": "public", "operator:wikidata": "Q668687", "ref": "3823700013"}, "type": "Feature"}
{"dataset_attributes": {"@spider": "usps_collection_boxes"}, "geometry": {"coordinates": [-88.850019, 36.34199], "type": "Point"}, "id": "I9OCfTNXrEbmGVpOLtWY1h4w0L8=", "properties": {"@spider": "usps_collection_boxes", "addr:city": "MARTIN", "addr:country": "US", "addr:full": "100 UNIVERSITY ST", "addr:postcode": "38237", "addr:state": "TN", "amenity": "post_box", "brand": "United States Postal Service", "brand:wikidata": "Q668687", "collection_times": "Mo-Fr 17:00; Sa 10:00", "name": "USPS COLLECTION BOX - BLUE BOX", "note": "ON 12/24 AND 12/31, THIS BOX MAY BE COLLECTED AS EARLY AS 12 NOON.", "nsi_id": "unitedstatespostalservice-a77078", "operator": "United States Postal Service", "operator:short": "USPS", "operator:type": "public", "operator:wikidata": "Q668687", "ref": "3823700014"}, "type": "Feature"}
{"dataset_attributes": {"@spider": "usps_collection_boxes"}, "geometry": {"coordinates": [-88.8500350289, 36.3417659916], "type": "Point"}, "id": "HScYeEBdRdg_wlqqtHuj_Es7Smw=", "properties": {"@spider": "usps_collection_boxes", "addr:city": "MARTIN", "addr:country": "US", "addr:full": "100 UNIVERSITY ST", "addr:postcode": "38237", "addr:state": "TN", "amenity": "post_box", "brand": "United States Postal Service", "brand:wikidata": "Q668687", "collection_times": "Mo-Fr 17:00", "name": "USPS COLLECTION BOX - PO LOBBY", "note": "ON 12/24 AND 12/31, THIS BOX MAY BE COLLECTED AS EARLY AS 12 NOON.", "nsi_id": "unitedstatespostalservice-a77078", "operator": "United States Postal Service", "operator:short": "USPS", "operator:type": "public", "operator:wikidata": "Q668687", "ref": "3823700017"}, "type": "Feature"}
{"dataset_attributes": {"@spider": "usps_collection_boxes"}, "geometry": {"coordinates": [-89.189609983, 36.259680002], "type": "Point"}, "id": "Wx7kOEYfcRtSAUQ_lRCWFSMDbpM=", "properties": {"@spider": "usps_collection_boxes", "addr:city": "OBION", "addr:country": "US", "addr:full": "220 E PALESTINE AVE", "addr:postcode": "38240", "addr:state": "TN", "amenity": "post_box", "brand": "United States Postal Service", "brand:wikidata": "Q668687", "collection_times": "Mo-Fr 15:45; Sa 09:45", "name": "USPS COLLECTION BOX - BLUE BOX", "note": "ON 12/24 AND 12/31, THIS BOX MAY BE COLLECTED AS EARLY AS 12 NOON.", "nsi_id": "unitedstatespostalservice-a77078", "operator": "United States Postal Service", "operator:short": "USPS", "operator:type": "public", "operator:wikidata": "Q668687", "ref": "3824000004"}, "type": "Feature"}
{"dataset_attributes": {"@spider": "usps_collection_boxes"}, "geometry": {"coordinates": [-89.189609983, 36.259680002], "type": "Point"}, "id": "EvP5Zt1DSHdVRTbr5SkXY_Pbokk=", "properties": {"@spider": "usps_collection_boxes", "addr:city": "OBION", "addr:country": "US", "addr:full": "220 E PALESTINE AVE", "addr:postcode": "38240", "addr:state": "TN", "amenity": "post_box", "brand": "United States Postal Service", "brand:wikidata": "Q668687", "collection_times": "Mo-Fr 15:45; Sa 09:45", "name": "USPS COLLECTION BOX - PO LOBBY", "note": "ON 12/24 AND 12/31, THIS BOX MAY BE COLLECTED AS EARLY AS 12 NOON.", "nsi_id": "unitedstatespostalservice-a77078", "operator": "United States Postal Service", "operator:short": "USPS", "operator:type": "public", "operator:wikidata": "Q668687", "ref": "3824000005"}, "type": "Feature"}
{"dataset_attributes": {"@spider": "usps_collection_boxes"}, "geometry": {"coordinates": [-89.189609983, 36.259680002], "type": "Point"}, "id": "a99fvyIctiy2wpfGOnXqOOimhFs=", "properties": {"@spider": "usps_collection_boxes", "addr:city": "OBION", "addr:country": "US", "addr:full": "220 E PALESTINE AVE", "addr:postcode": "38240", "addr:state": "TN", "amenity": "post_box", "brand": "United States Postal Service", "brand:wikidata": "Q668687", "collection_times": "Mo-Fr 15:45", "name": "USPS COLLECTION BOX - PO LOBBY", "note": "ON 12/24 AND 12/31, THIS BOX MAY BE COLLECTED AS EARLY AS 12 NOON.", "nsi_id": "unitedstatespostalservice-a77078", "operator": "United States Postal Service", "operator:short": "USPS", "operator:type": "public", "operator:wikidata": "Q668687", "ref": "3824000006"}, "type": "Feature"}
{"dataset_attributes": {"@spider": "usps_collection_boxes"}, "geometry": {"coordinates": [-88.588698, 36.40131], "type": "Point"}, "id": "eTNWfjrdTuy9swnMopEABtGAgaU=", "properties": {"@spider": "usps_collection_boxes", "addr:city": "PALMERSVILLE", "addr:country": "US", "addr:full": "6180 HIGHWAY 89", "addr:postcode": "38241", "addr:state": "TN", "amenity": "post_box", "brand": "United States Postal Service", "brand:wikidata": "Q668687", "collection_times": "Mo-Fr 12:00; Sa 10:30", "name": "USPS COLLECTION BOX - BLUE BOX", "nsi_id": "unitedstatespostalservice-a77078", "operator": "United States Postal Service", "operator:short": "USPS", "operator:type": "public", "operator:wikidata": "Q668687", "ref": "3824100000"}, "type": "Feature"}
{"dataset_attributes": {"@spider": "usps_collection_boxes"}, "geometry": {"coordinates": [-88.588691, 36.401373], "type": "Point"}, "id": "_b03r9m0lH2XmnsamTEHtgmnzXA=", "properties": {"@spider": "usps_collection_boxes", "addr:city": "PALMERSVILLE", "addr:country": "US", "addr:full": "6180 HIGHWAY 89", "addr:postcode": "38241", "addr:state": "TN", "amenity": "post_box", "brand": "United States Postal Service", "brand:wikidata": "Q668687", "collection_times": "Mo-Fr 12:00; Sa 10:30", "name": "USPS COLLECTION BOX - PO LOBBY", "nsi_id": "unitedstatespostalservice-a77078", "operator": "United States Postal Service", "operator:short": "USPS", "operator:type": "public", "operator:wikidata": "Q668687", "ref": "3824100001"}, "type": "Feature"}
{"dataset_attributes": {"@spider": "usps_collection_boxes"}, "geometry": {"coordinates": [-88.334777, 36.444785], "type": "Point"}, "id": "xwdWsIyo2z63_bwrKthnmo2qXDQ=", "properties": {"@spider": "usps_collection_boxes", "addr:city": "PURYEAR", "addr:country": "US", "addr:full": "100 FRONT ST", "addr:postcode": "38251", "addr:state": "TN", "amenity": "post_box", "brand": "United States Postal Service", "brand:wikidata": "Q668687", "collection_times": "Mo-Fr 14:45; Sa 10:15", "name": "USPS COLLECTION BOX - BLUE BOX", "note": "ON 12/24 AND 12/31, THIS BOX MAY BE COLLECTED AS EARLY AS 12 NOON.", "nsi_id": "unitedstatespostalservice-a77078", "operator": "United States Postal Service", "operator:short": "USPS", "operator:type": "public", "operator:wikidata": "Q668687", "ref": "3825100001"}, "type": "Feature"}
{"dataset_attributes": {"@spider": "usps_collection_boxes"}, "geometry": {"coordinates": [-88.334777, 36.444785], "type": "Point"}, "id": "1FBKzAO67IYi3iqb4lWR56NMvP4=", "properties": {"@spider": "usps_collection_boxes", "addr:city": "PURYEAR", "addr:country": "US", "addr:full": "100 FRONT ST", "addr:postcode": "38251", "addr:state": "TN", "amenity": "post_box", "brand": "United States Postal Service", "brand:wikidata": "Q668687", "collection_times": "Mo-Fr 14:45; Sa 10:15", "name": "USPS COLLECTION BOX - PO LOBBY", "note": "ON 12/24 AND 12/31, THIS BOX MAY BE COLLECTED AS EARLY AS 12 NOON.", "nsi_id": "unitedstatespostalservice-a77078", "operator": "United States Postal Service", "operator:short": "USPS", "operator:type": "public", "operator:wikidata": "Q668687", "ref": "3825100002"}, "type": "Feature"}
{"dataset_attributes": {"@spider": "usps_collection_boxes"}, "geometry": {"coordinates": [-88.334802191, 36.444783104], "type": "Point"}, "id": "LMZ18cs4BHP5wPI7tcHeA_JztbE=", "properties": {"@spider": "usps_collection_boxes", "addr:city": "PURYEAR", "addr:country": "US", "addr:full": "100 W FRONT ST", "addr:postcode": "38251", "addr:state": "TN", "amenity": "post_box", "brand": "United States Postal Service", "brand:wikidata": "Q668687", "collection_times": "Mo-Fr 14:45", "name": "USPS COLLECTION BOX - PO LOBBY", "note": "ON 12/24 AND 12/31, THIS BOX MAY BE COLLECTED AS EARLY AS 12 NOON.", "nsi_id": "unitedstatespostalservice-a77078", "operator": "United States Postal Service", "operator:short": "USPS", "operator:type": "public", "operator:wikidata": "Q668687", "ref": "3825100003"}, "type": "Feature"}
{"dataset_attributes": {"@spider": "usps_collection_boxes"}, "geometry": {"coordinates": [-89.046908809, 36.355356806], "type": "Point"}, "id": "BrXWMUq6STP4ZlNHrxd3L5c6pSI=", "properties": {"@spider": "usps_collection_boxes", "addr:city": "RIVES", "addr:country": "US", "addr:full": "498 S FRONT ST", "addr:postcode": "38253", "addr:state": "TN", "amenity": "post_box", "brand": "United States Postal Service", "brand:wikidata": "Q668687", "collection_times": "Mo-Fr 12:00; Sa 09:45", "name": "USPS COLLECTION BOX - BLUE BOX", "nsi_id": "unitedstatespostalservice-a77078", "operator": "United States Postal Service", "operator:short": "USPS", "operator:type": "public", "operator:wikidata": "Q668687", "ref": "3825300001"}, "type": "Feature"}
{"dataset_attributes": {"@spider": "usps_collection_boxes"}, "geometry": {"coordinates": [-89.046908809, 36.355356806], "type": "Point"}, "id": "3SPnv-a4CxZv9HswtDyS_FcUg3U=", "properties": {"@spider": "usps_collection_boxes", "addr:city": "RIVES", "addr:country": "US", "addr:full": "498 S FRONT ST", "addr:postcode": "38253", "addr:state": "TN", "amenity": "post_box", "brand": "United States Postal Service", "brand:wikidata": "Q668687", "collection_times": "Mo-Fr 12:00; Sa 09:45", "name": "USPS COLLECTION BOX - PO LOBBY", "nsi_id": "unitedstatespostalservice-a77078", "operator": "United States Postal Service", "operator:short": "USPS", "operator:type": "public", "operator:wikidata": "Q668687", "ref": "3825300002"}, "type": "Feature"}
{"dataset_attributes": {"@spider": "usps_collection_boxes"}, "geometry": {"coordinates": [-88.835619, 36.227988], "type": "Point"}, "id": "hVreLxovUSBcwrnzH-8XfXjOhzs=", "properties": {"@spider": "usps_collection_boxes", "addr:city": "SHARON", "addr:country": "US", "addr:full": "5321 US HIGHWAY 45", "addr:postcode": "38255", "addr:state": "TN", "amenity": "post_box", "brand": "United States Postal Service", "brand:wikidata": "Q668687", "collection_times": "Mo-Fr 12:00; Sa 09:45", "name": "USPS COLLECTION BOX - PO LOBBY", "nsi_id": "unitedstatespostalservice-a77078", "operator": "United States Postal Service", "operator:short": "USPS", "operator:type": "public", "operator:wikidata": "Q668687", "ref": "3825500001"}, "type": "Feature"}
{"dataset_attributes": {"@spider": "usps_collection_boxes"}, "geometry": {"coordinates": [-88.835618, 36.227988], "type": "Point"}, "id": "qSbj4wyeDNrMCN7ZCrU0Imtz4BQ=", "properties": {"@spider": "usps_collection_boxes", "addr:city": "SHARON", "addr:country": "US", "addr:full": "5321 U S HIGHWAY 45", "addr:postcode": "38255", "addr:state": "TN", "amenity": "post_box", "brand": "United States Postal Service", "brand:wikidata": "Q668687", "collection_times": "Mo-Fr 12:00; Sa 09:45", "name": "USPS COLLECTION BOX - BLUE BOX", "nsi_id": "unitedstatespostalservice-a77078", "operator": "United States Postal Service", "operator:short": "USPS", "operator:type": "public", "operator:wikidata": "Q668687", "ref": "3825500002"}, "type": "Feature"}
{"dataset_attributes": {"@spider": "usps_collection_boxes"}, "geometry": {"coordinates": [-88.8274395, 36.233289], "type": "Point"}, "id": "hwuWORz184XCeegdPn71QlTpV8Y=", "properties": {"@spider": "usps_collection_boxes", "addr:city": "SHARON", "addr:country": "US", "addr:full": "5321 US HIGHWAY 45", "addr:postcode": "38255", "addr:state": "TN", "amenity": "post_box", "brand": "United States Postal Service", "brand:wikidata": "Q668687", "collection_times": "Mo-Fr 12:00; Sa 09:45", "name": "USPS COLLECTION BOX - PO LOBBY", "nsi_id": "unitedstatespostalservice-a77078", "operator": "United States Postal Service", "operator:short": "USPS", "operator:type": "public", "operator:wikidata": "Q668687", "ref": "3825500003"}, "type": "Feature"}
{"dataset_attributes": {"@spider": "usps_collection_boxes"}, "geometry": {"coordinates": [-88.622753, 36.011357], "type": "Point"}, "id": "gh2YO5lWRw65WGgJYaMVZFGaslE=", "properties": {"@spider": "usps_collection_boxes", "addr:city": "TREZEVANT", "addr:country": "US", "addr:full": "5580 BROAD ST N", "addr:postcode": "38258", "addr:state": "TN", "amenity": "post_box", "brand": "United States Postal Service", "brand:wikidata": "Q668687", "collection_times": "Mo-Fr 16:00; Sa 10:30", "name": "USPS COLLECTION BOX - PO LOBBY", "note": "ON 12/24 AND 12/31, THIS BOX MAY BE COLLECTED AS EARLY AS 12 NOON.", "nsi_id": "unitedstatespostalservice-a77078", "operator": "United States Postal Service", "operator:short": "USPS", "operator:type": "public", "operator:wikidata": "Q668687", "ref": "3825800001"}, "type": "Feature"}
{"dataset_attributes": {"@spider": "usps_collection_boxes"}, "geometry": {"coordinates": [-88.622734, 36.011418], "type": "Point"}, "id": "2GREzFJPpWEy5e7E_S9prXsofcs=", "properties": {"@spider": "usps_collection_boxes", "addr:city": "TREZEVANT", "addr:country": "US", "addr:full": "5580 BROAD ST N", "addr:postcode": "38258", "addr:state": "TN", "amenity": "post_box", "brand": "United States Postal Service", "brand:wikidata": "Q668687", "collection_times": "Mo-Fr 16:00; Sa 10:30", "name": "USPS COLLECTION BOX - BLUE BOX", "note": "ON 12/24 AND 12/31, THIS BOX MAY BE COLLECTED AS EARLY AS 12 NOON.", "nsi_id": "unitedstatespostalservice-a77078", "operator": "United States Postal Service", "operator:short": "USPS", "operator:type": "public", "operator:wikidata": "Q668687", "ref": "3825800002"}, "type": "Feature"}
{"dataset_attributes": {"@spider": "usps_collection_boxes"}, "geometry": {"coordinates": [-89.191591, 36.204256], "type": "Point"}, "id": "YYj9FD6T9hx-TDgOJi946Zj7O4Y=", "properties": {"@spider": "usps_collection_boxes", "addr:city": "TRIMBLE", "addr:country": "US", "addr:full": "70 PARKS PLZ", "addr:postcode": "38259", "addr:state": "TN", "amenity": "post_box", "brand": "United States Postal Service", "brand:wikidata": "Q668687", "collection_times": "Mo-Fr 14:00; Sa 09:45", "name": "USPS COLLECTION BOX - BLUE BOX", "note": "ON 12/24 AND 12/31, THIS BOX MAY BE COLLECTED AS EARLY AS 12 NOON.", "nsi_id": "unitedstatespostalservice-a77078", "operator": "United States Postal Service", "operator:short": "USPS", "operator:type": "public", "operator:wikidata": "Q668687", "ref": "3825900001"}, "type": "Feature"}
{"dataset_attributes": {"@spider": "usps_collection_boxes"}, "geometry": {"coordinates": [-89.191633, 36.204237], "type": "Point"}, "id": "uoY-i_ZIzspvtLrbfEO3sOYtR4Y=", "properties": {"@spider": "usps_collection_boxes", "addr:city": "TRIMBLE", "addr:country": "US", "addr:full": "70 PARKS PLZ", "addr:postcode": "38259", "addr:state": "TN", "amenity": "post_box", "brand": "United States Postal Service", "brand:wikidata": "Q668687", "collection_times": "Mo-Fr 14:00; Sa 09:45", "name": "USPS COLLECTION BOX - PO LOBBY", "note": "ON 12/24 AND 12/31, THIS BOX MAY BE COLLECTED AS EARLY AS 12 NOON.", "nsi_id": "unitedstatespostalservice-a77078", "operator": "United States Postal Service", "operator:short": "USPS", "operator:type": "public", "operator:wikidata": "Q668687", "ref": "3825900002"}, "type": "Feature"}
{"dataset_attributes": {"@spider": "usps_collection_boxes"}, "geometry": {"coordinates": [-89.165519974, 36.338089982], "type": "Point"}, "id": "YRHWhWGoS8UKhurKwSN_J2kaagY=", "properties": {"@spider": "usps_collection_boxes", "addr:city": "TROY", "addr:country": "US", "addr:full": "214 W HARPER ST", "addr:postcode": "38260", "addr:state": "TN", "amenity": "post_box", "brand": "United States Postal Service", "brand:wikidata": "Q668687", "collection_times": "Mo-Fr 15:45; Sa 11:00", "name": "USPS COLLECTION BOX - PO LOBBY", "note": "ON 12/24 AND 12/31, THIS BOX MAY BE COLLECTED AS EARLY AS 12 NOON.", "nsi_id": "unitedstatespostalservice-a77078", "operator": "United States Postal Service", "operator:short": "USPS", "operator:type": "public", "operator:wikidata": "Q668687", "ref": "3826000001"}, "type": "Feature"}
{"dataset_attributes": {"@spider": "usps_collection_boxes"}, "geometry": {"coordinates": [-89.165519974, 36.338089982], "type": "Point"}, "id": "jvQvWAVTV1bGMgTYSHrDaF5uB18=", "properties": {"@spider": "usps_collection_boxes", "addr:city": "TROY", "addr:country": "US", "addr:full": "214 W HARPER ST", "addr:postcode": "38260", "addr:state": "TN", "amenity": "post_box", "brand": "United States Postal Service", "brand:wikidata": "Q668687", "collection_times": "Mo-Fr 15:45; Sa 11:00", "name": "USPS COLLECTION BOX - BLUE BOX", "note": "ON 12/24 AND 12/31, THIS BOX MAY BE COLLECTED AS EARLY AS 12 NOON.", "nsi_id": "unitedstatespostalservice-a77078", "operator": "United States Postal Service", "operator:short": "USPS", "operator:type": "public", "operator:wikidata": "Q668687", "ref": "3826000002"}, "type": "Feature"}
{"dataset_attributes": {"@spider": "usps_collection_boxes"}, "geometry": {"coordinates": [-89.165519974, 36.338089982], "type": "Point"}, "id": "eRUHzLBR8GGo84uO4B8pDhCLMs4=", "properties": {"@spider": "usps_collection_boxes", "addr:city": "TROY", "addr:country": "US", "addr:full": "214 W HARPER ST", "addr:postcode": "38260", "addr:state": "TN", "amenity": "post_box", "brand": "United States Postal Service", "brand:wikidata": "Q668687", "collection_times": "Mo-Fr 15:45", "name": "USPS COLLECTION BOX - PO LOBBY", "note": "ON 12/24 AND 12/31, THIS BOX MAY BE COLLECTED AS EARLY AS 12 NOON.", "nsi_id": "unitedstatespostalservice-a77078", "operator": "United States Postal Service", "operator:short": "USPS", "operator:type": "public", "operator:wikidata": "Q668687", "ref": "3826000003"}, "type": "Feature"}
{"dataset_attributes": {"@spider": "usps_collection_boxes"}, "geometry": {"coordinates": [-89.0745735, 36.415635], "type": "Point"}, "id": "kuE9VzMJ4UPyh0fE8xXNoOS5xiM=", "properties": {"@spider": "usps_collection_boxes", "addr:city": "UNION CITY", "addr:country": "US", "addr:full": "1313 W REELFOOT AVE", "addr:postcode": "38261", "addr:state": "TN", "amenity": "post_box", "brand": "United States Postal Service", "brand:wikidata": "Q668687", "collection_times": "Mo-Fr 13:00", "name": "USPS COLLECTION BOX - BLUE BOX", "note": "ON 12/24 AND 12/31, THIS BOX MAY BE COLLECTED AS EARLY AS 12 NOON.", "nsi_id": "unitedstatespostalservice-a77078", "operator": "United States Postal Service", "operator:short": "USPS", "operator:type": "public", "operator:wikidata": "Q668687", "ref": "3826100004"}, "type": "Feature"}
{"dataset_attributes": {"@spider": "usps_collection_boxes"}, "geometry": {"coordinates": [-89.049679, 36.413033], "type": "Point"}, "id": "cR0zxJBWDIZD9JFnpushirLb-m0=", "properties": {"@spider": "usps_collection_boxes", "addr:city": "UNION CITY", "addr:country": "US", "addr:full": "703 E REELFOOT AVE", "addr:postcode": "38261", "addr:state": "TN", "amenity": "post_box", "brand": "United States Postal Service", "brand:wikidata": "Q668687", "collection_times": "Mo-Fr 13:00", "name": "USPS COLLECTION BOX - BLUE BOX", "note": "ON 12/24 AND 12/31, THIS BOX MAY BE COLLECTED AS EARLY AS 12 NOON.", "nsi_id": "unitedstatespostalservice-a77078", "operator": "United States Postal Service", "operator:short": "USPS", "operator:type": "public", "operator:wikidata": "Q668687", "ref": "3826100014"}, "type": "Feature"}
{"dataset_attributes": {"@spider": "usps_collection_boxes"}, "geometry": {"coordinates": [-89.058130024, 36.422670007], "type": "Point"}, "id": "L8Tbj2BK9kHQmsubdkTipp-aNqY=", "properties": {"@spider": "usps_collection_boxes", "addr:city": "UNION CITY", "addr:country": "US", "addr:full": "114 W WASHINGTON AVE", "addr:postcode": "38261", "addr:state": "TN", "amenity": "post_box", "brand": "United States Postal Service", "brand:wikidata": "Q668687", "collection_times": "Mo-Fr 17:00; Sa 16:30", "name": "USPS COLLECTION BOX - BLUE BOX", "note": "ON 12/24 AND 12/31, THIS BOX MAY BE COLLECTED AS EARLY AS 12 NOON.", "nsi_id": "unitedstatespostalservice-a77078", "operator": "United States Postal Service", "operator:short": "USPS", "operator:type": "public", "operator:wikidata": "Q668687", "ref": "3826100019"}, "type": "Feature"}
{"dataset_attributes": {"@spider": "usps_collection_boxes"}, "geometry": {"coordinates": [-89.058130024, 36.422670007], "type": "Point"}, "id": "hSuBhHU-1iAdHKpzn_iMgr23AYs=", "properties": {"@spider": "usps_collection_boxes", "addr:city": "UNION CITY", "addr:country": "US", "addr:full": "114 W WASHINGTON AVE", "addr:postcode": "38261", "addr:state": "TN", "amenity": "post_box", "brand": "United States Postal Service", "brand:wikidata": "Q668687", "collection_times": "Mo-Fr 17:00; Sa 16:30", "name": "USPS COLLECTION BOX - BLUE BOX", "note": "ON 12/24 AND 12/31, THIS BOX MAY BE COLLECTED AS EARLY AS 12 NOON.", "nsi_id": "unitedstatespostalservice-a77078", "operator": "United States Postal Service", "operator:short": "USPS", "operator:type": "public", "operator:wikidata": "Q668687", "ref": "3826100020"}, "type": "Feature"}
{"dataset_attributes": {"@spider": "usps_collection_boxes"}, "geometry": {"coordinates": [-89.058130024, 36.422670007], "type": "Point"}, "id": "oQYPL4cTAmoSB_NhGsBAgIiF_Wg=", "properties": {"@spider": "usps_collection_boxes", "addr:city": "UNION CITY", "addr:country": "US", "addr:full": "114 W WASHINGTON AVE", "addr:postcode": "38261", "addr:state": "TN", "amenity": "post_box", "brand": "United States Postal Service", "brand:wikidata": "Q668687", "collection_times": "Mo-Fr 17:00; Sa 16:30", "name": "USPS COLLECTION BOX - PO LOBBY", "note": "ON 12/24 AND 12/31, THIS BOX MAY BE COLLECTED AS EARLY AS 12 NOON.", "nsi_id": "unitedstatespostalservice-a77078", "operator": "United States Postal Service", "operator:short": "USPS", "operator:type": "public", "operator:wikidata": "Q668687", "ref": "3826100021"}, "type": "Feature"}
{"dataset_attributes": {"@spider": "usps_collection_boxes"}, "geometry": {"coordinates": [-89.058130024, 36.422670007], "type": "Point"}, "id": "Visj-O8gT6KB0LTq91ajNbeL_9c=", "properties": {"@spider": "usps_collection_boxes", "addr:city": "UNION CITY", "addr:country": "US", "addr:full": "114 W WASHINGTON AVE", "addr:postcode": "38261", "addr:state": "TN", "amenity": "post_box", "brand": "United States Postal Service", "brand:wikidata": "Q668687", "collection_times": "Mo-Fr 17:00; Sa 16:30", "name": "USPS COLLECTION BOX - BLUE BOX", "note": "ON 12/24 AND 12/31, THIS BOX MAY BE COLLECTED AS EARLY AS 12 NOON.", "nsi_id": "unitedstatespostalservice-a77078", "operator": "United States Postal Service", "operator:short": "USPS", "operator:type": "public", "operator:wikidata": "Q668687", "ref": "3826100026"}, "type": "Feature"}
{"dataset_attributes": {"@spider": "usps_collection_boxes"}, "geometry": {"coordinates": [-89.058130024, 36.422670007], "type": "Point"}, "id": "3UPvN0Lgs3P2M2-uEzv8zKf1y1M=", "properties": {"@spider": "usps_collection_boxes", "addr:city": "UNION CITY", "addr:country": "US", "addr:full": "114 W WASHINGTON AVE", "addr:postcode": "38261", "addr:state": "TN", "amenity": "post_box", "brand": "United States Postal Service", "brand:wikidata": "Q668687", "collection_times": "Mo-Fr 16:00", "name": "USPS COLLECTION BOX - PO LOBBY", "note": "ON 12/24 AND 12/31, THIS BOX MAY BE COLLECTED AS EARLY AS 12 NOON.", "nsi_id": "unitedstatespostalservice-a77078", "operator": "United States Postal Service", "operator:short": "USPS", "operator:type": "public", "operator:wikidata": "Q668687", "ref": "3826100027"}, "type": "Feature"}
{"dataset_attributes": {"@spider": "usps_collection_boxes"}, "geometry": {"coordinates": [-89.115374, 36.488918], "type": "Point"}, "id": "28tv0h6DQWmpricdgrbXpNPCl9A=", "properties": {"@spider": "usps_collection_boxes", "addr:city": "WOODLAND MILLS", "addr:country": "US", "addr:full": "179 N THOMPSON ST", "addr:postcode": "38271", "addr:state": "TN", "amenity": "post_box", "brand": "United States Postal Service", "brand:wikidata": "Q668687", "collection_times": "Mo-Fr 15:00; Sa 10:00", "name": "USPS COLLECTION BOX - BLUE BOX", "note": "ON 12/24 AND 12/31, THIS BOX MAY BE COLLECTED AS EARLY AS 12 NOON.", "nsi_id": "unitedstatespostalservice-a77078", "operator": "United States Postal Service", "operator:short": "USPS", "operator:type": "public", "operator:wikidata": "Q668687", "ref": "3827100001"}, "type": "Feature"}
{"dataset_attributes": {"@spider": "usps_collection_boxes"}, "geometry": {"coordinates": [-89.115308, 36.488841], "type": "Point"}, "id": "ToDSxEctZ1UMorLMSG1Moy349Ck=", "properties": {"@spider": "usps_collection_boxes", "addr:city": "WOODLAND MILLS", "addr:country": "US", "addr:full": "179 N THOMPSON ST", "addr:postcode": "38271", "addr:state": "TN", "amenity": "post_box", "brand": "United States Postal Service", "brand:wikidata": "Q668687", "collection_times": "Mo-Fr 15:00; Sa 10:00", "name": "USPS COLLECTION BOX - PO LOBBY", "note": "ON 12/24 AND 12/31, THIS BOX MAY BE COLLECTED AS EARLY AS 12 NOON.", "nsi_id": "unitedstatespostalservice-a77078", "operator": "United States Postal Service", "operator:short": "USPS", "operator:type": "public", "operator:wikidata": "Q668687", "ref": "3827100002"}, "type": "Feature"}
