{"geometry": {"coordinates": [-87.041646288, 35.615590012], "type": "Point"}, "id": "eTGMLuank2kobvCuq3YhcH3DJWA=", "properties": {"@source_uri": "https://tools.usps.com/UspsToolsRestServices/rest/POLocator/findLocations", "@spider": "usps_collection_boxes", "addr:city": "COLUMBIA", "addr:country": "US", "addr:postcode": "38401", "addr:state": "TN", "addr:street_address": "417 W 7TH ST", "amenity": "post_box", "collection_times": "Mo-Sa 17:00", "indoor": "yes", "note": "ON 12/24 AND 12/31, THIS BOX MAY BE COLLECTED AS EARLY AS 12 NOON.", "nsi_id": "unitedstatespostalservice-a77078", "operator": "United States Postal Service", "operator:short": "USPS", "operator:type": "public", "operator:wikidata": "Q668687", "ref": "3840100001"}, "type": "Feature"}
{"geometry": {"coordinates": [-87.041646288, 35.615590012], "type": "Point"}, "id": "aQODKtTmc907wj3kEGqSPy0Xx78=", "properties": {"@source_uri": "https://tools.usps.com/UspsToolsRestServices/rest/POLocator/findLocations", "@spider": "usps_collection_boxes", "addr:city": "COLUMBIA", "addr:country": "US", "addr:postcode": "38401", "addr:state": "TN", "addr:street_address": "417 W 7TH ST", "amenity": "post_box", "collection_times": "Mo-Sa 17:00", "note": "ON 12/24 AND 12/31, THIS BOX MAY BE COLLECTED AS EARLY AS 12 NOON.", "nsi_id": "unitedstatespostalservice-a77078", "operator": "United States Postal Service", "operator:short": "USPS", "operator:type": "public", "operator:wikidata": "Q668687", "ref": "3840100002"}, "type": "Feature"}
{"geometry": {"coordinates": [-87.0613063, 35.603985], "type": "Point"}, "id": "q4BAVBP9XJbYpjrRhcs1QusiEJQ=", "properties": {"@source_uri": "https://tools.usps.com/UspsToolsRestServices/rest/POLocator/findLocations", "@spider": "usps_collection_boxes", "addr:city": "COLUMBIA", "addr:country": "US", "addr:postcode": "38401", "addr:state": "TN", "addr:street_address": "1509 HATCHER LN", "amenity": "post_box", "collection_times": "Mo-Fr 13:00; Sa 12:00", "note": "ON 12/24 AND 12/31, THIS BOX MAY BE COLLECTED AS EARLY AS 12 NOON.", "nsi_id": "unitedstatespostalservice-a77078", "operator": "United States Postal Service", "operator:short": "USPS", "operator:type": "public", "operator:wikidata": "Q668687", "ref": "3840100020"}, "type": "Feature"}
{"geometry": {"coordinates": [-87.0622919, 35.602042], "type": "Point"}, "id": "1nvd3vIx9a7Vvre-aVJZgEFbkm4=", "properties": {"@source_uri": "https://tools.usps.com/UspsToolsRestServices/rest/POLocator/findLocations", "@spider": "usps_collection_boxes", "addr:city": "COLUMBIA", "addr:country": "US", "addr:postcode": "38401", "addr:state": "TN", "addr:street_address": "1202 S JAMES CAMPBELL BLVD", "amenity": "post_box", "collection_times": "Mo-Fr 13:00; Sa 12:00", "note": "ON 12/24 AND 12/31, THIS BOX MAY BE COLLECTED AS EARLY AS 12 NOON.", "nsi_id": "unitedstatespostalservice-a77078", "operator": "United States Postal Service", "operator:short": "USPS", "operator:type": "public", "operator:wikidata": "Q668687", "ref": "3840100023"}, "type": "Feature"}
{"geometry": {"coordinates": [-87.0662891, 35.606952], "type": "Point"}, "id": "2U5C9mkpsxa_I5Jwa2YdOkpmpBA=", "properties": {"@source_uri": "https://tools.usps.com/UspsToolsRestServices/rest/POLocator/findLocations", "@spider": "usps_collection_boxes", "addr:city": "COLUMBIA", "addr:country": "US", "addr:postcode": "38401", "addr:state": "TN", "addr:street_address": "1224 TROTWOOD AVE", "amenity": "post_box", "collection_times": "Mo-Sa 10:30", "nsi_id": "unitedstatespostalservice-a77078", "operator": "United States Postal Service", "operator:short": "USPS", "operator:type": "public", "operator:wikidata": "Q668687", "ref": "3840100029"}, "type": "Feature"}
{"geometry": {"coordinates": [-87.0338152, 35.61511], "type": "Point"}, "id": "qS68S0QjodemYoaHjvGJ5T4Tbis=", "properties": {"@source_uri": "https://tools.usps.com/UspsToolsRestServices/rest/POLocator/findLocations", "@spider": "usps_collection_boxes", "addr:city": "COLUMBIA", "addr:country": "US", "addr:postcode": "38401", "addr:state": "TN", "addr:street_address": "41 PUBLIC SQ", "amenity": "post_box", "collection_times": "Mo-Fr 15:00; Sa 12:00", "note": "ON 12/24 AND 12/31, THIS BOX MAY BE COLLECTED AS EARLY AS 12 NOON.", "nsi_id": "unitedstatespostalservice-a77078", "operator": "United States Postal Service", "operator:short": "USPS", "operator:type": "public", "operator:wikidata": "Q668687", "ref": "3840100037"}, "type": "Feature"}
{"geometry": {"coordinates": [-87.0387759, 35.596906], "type": "Point"}, "id": "49cX7nXTZJLQKlJEN0ZpiosXmiw=", "properties": {"@source_uri": "https://tools.usps.com/UspsToolsRestServices/rest/POLocator/findLocations", "@spider": "usps_collection_boxes", "addr:city": "COLUMBIA", "addr:country": "US", "addr:postcode": "38401", "addr:state": "TN", "addr:street_address": "2100 CARMACK BLVD", "amenity": "post_box", "collection_times": "Mo-Fr 13:00; Sa 12:00", "note": "ON 12/24 AND 12/31, THIS BOX MAY BE COLLECTED AS EARLY AS 12 NOON.", "nsi_id": "unitedstatespostalservice-a77078", "operator": "United States Postal Service", "operator:short": "USPS", "operator:type": "public", "operator:wikidata": "Q668687", "ref": "3840100040"}, "type": "Feature"}
{"geometry": {"coordinates": [-87.0275707, 35.63002], "type": "Point"}, "id": "3pgaCrz-Y371e6Q8HygXP5z69ns=", "properties": {"@source_uri": "https://tools.usps.com/UspsToolsRestServices/rest/POLocator/findLocations", "@spider": "usps_collection_boxes", "addr:city": "COLUMBIA", "addr:country": "US", "addr:postcode": "38401", "addr:state": "TN", "addr:street_address": "845 NASHVILLE HWY", "amenity": "post_box", "collection_times": "Mo-Fr 14:00; Sa 12:00", "note": "ON 12/24 AND 12/31, THIS BOX MAY BE COLLECTED AS EARLY AS 12 NOON.", "nsi_id": "unitedstatespostalservice-a77078", "operator": "United States Postal Service", "operator:short": "USPS", "operator:type": "public", "operator:wikidata": "Q668687", "ref": "3840100041"}, "type": "Feature"}
{"geometry": {"coordinates": [-87.0775562, 35.599737], "type": "Point"}, "id": "30HLurMzkWBK68pGyE8-kHzDVDU=", "properties": {"@source_uri": "https://tools.usps.com/UspsToolsRestServices/rest/POLocator/findLocations", "@spider": "usps_collection_boxes", "addr:city": "COLUMBIA", "addr:country": "US", "addr:postcode": "38401", "addr:state": "TN", "addr:street_address": "1412 TROTWOOD AVE", "amenity": "post_box", "collection_times": "Mo-Sa 14:30", "note": "ON 12/24 AND 12/31, THIS BOX MAY BE COLLECTED AS EARLY AS 12 NOON.", "nsi_id": "unitedstatespostalservice-a77078", "operator": "United States Postal Service", "operator:short": "USPS", "operator:type": "public", "operator:wikidata": "Q668687", "ref": "3840100047"}, "type": "Feature"}
{"geometry": {"coordinates": [-87.0340009905, 35.6153530048], "type": "Point"}, "id": "DIYeuOKY8qIQiT7nC4onyOiuEq4=", "properties": {"@source_uri": "https://tools.usps.com/UspsToolsRestServices/rest/POLocator/findLocations", "@spider": "usps_collection_boxes", "addr:city": "COLUMBIA", "addr:country": "US", "addr:postcode": "38401", "addr:state": "TN", "addr:street_address": "40 PUBLIC SQ", "amenity": "post_box", "collection_times": "Mo-Fr 15:00; Sa 12:00", "note": "ON 12/24 AND 12/31, THIS BOX MAY BE COLLECTED AS EARLY AS 12 NOON.", "nsi_id": "unitedstatespostalservice-a77078", "operator": "United States Postal Service", "operator:short": "USPS", "operator:type": "public", "operator:wikidata": "Q668687", "ref": "3840100053"}, "type": "Feature"}
{"geometry": {"coordinates": [-87.041646288, 35.615590012], "type": "Point"}, "id": "RxApudnoZgVP2grXkAploM7dbys=", "properties": {"@source_uri": "https://tools.usps.com/UspsToolsRestServices/rest/POLocator/findLocations", "@spider": "usps_collection_boxes", "addr:city": "COLUMBIA", "addr:country": "US", "addr:postcode": "38401", "addr:state": "TN", "addr:street_address": "417 W 7TH ST", "amenity": "post_box", "collection_times": "Mo-Sa 17:00", "name": "USPS COLLECTION BOX - APC", "note": "ON 12/24 AND 12/31, THIS BOX MAY BE COLLECTED AS EARLY AS 12 NOON.", "nsi_id": "unitedstatespostalservice-a77078", "operator": "United States Postal Service", "operator:short": "USPS", "operator:type": "public", "operator:wikidata": "Q668687", "ref": "3840100054"}, "type": "Feature"}
{"geometry": {"coordinates": [-87.041646288, 35.615590012], "type": "Point"}, "id": "v1P6rUqNQQVWILci7paUPCvHos8=", "properties": {"@source_uri": "https://tools.usps.com/UspsToolsRestServices/rest/POLocator/findLocations", "@spider": "usps_collection_boxes", "addr:city": "COLUMBIA", "addr:country": "US", "addr:postcode": "38401", "addr:state": "TN", "addr:street_address": "417 W 7TH ST", "amenity": "post_box", "collection_times": "Mo-Fr 17:00", "indoor": "yes", "note": "ON 12/24 AND 12/31, THIS BOX MAY BE COLLECTED AS EARLY AS 12 NOON.", "nsi_id": "unitedstatespostalservice-a77078", "operator": "United States Postal Service", "operator:short": "USPS", "operator:type": "public", "operator:wikidata": "Q668687", "ref": "3840100059"}, "type": "Feature"}
{"geometry": {"coordinates": [-87.994875385, 35.385798794], "type": "Point"}, "id": "b8ECF0SLDbIcTCRb60Rcp5_9p54=", "properties": {"@source_uri": "https://tools.usps.com/UspsToolsRestServices/rest/POLocator/findLocations", "@spider": "usps_collection_boxes", "addr:city": "CLIFTON", "addr:country": "US", "addr:postcode": "38425", "addr:state": "TN", "addr:street_address": "208 MAIN ST", "amenity": "post_box", "collection_times": "Mo-Fr 15:30; Sa 10:00", "indoor": "yes", "note": "ON 12/24 AND 12/31, THIS BOX MAY BE COLLECTED AS EARLY AS 12 NOON.", "nsi_id": "unitedstatespostalservice-a77078", "operator": "United States Postal Service", "operator:short": "USPS", "operator:type": "public", "operator:wikidata": "Q668687", "ref": "3842500001"}, "type": "Feature"}
{"geometry": {"coordinates": [-87.994875385, 35.385798794], "type": "Point"}, "id": "9j39yzW-eDJADTcD1GUE18HjB8g=", "properties": {"@source_uri": "https://tools.usps.com/UspsToolsRestServices/rest/POLocator/findLocations", "@spider": "usps_collection_boxes", "addr:city": "CLIFTON", "addr:country": "US", "addr:postcode": "38425", "addr:state": "TN", "addr:street_address": "208 MAIN ST", "amenity": "post_box", "collection_times": "Mo-Fr 15:30; Sa 10:00", "note": "ON 12/24 AND 12/31, THIS BOX MAY BE COLLECTED AS EARLY AS 12 NOON.", "nsi_id": "unitedstatespostalservice-a77078", "operator": "United States Postal Service", "operator:short": "USPS", "operator:type": "public", "operator:wikidata": "Q668687", "ref": "3842500002"}, "type": "Feature"}
{"geometry": {"coordinates": [-87.994875385, 35.385798794], "type": "Point"}, "id": "D1Sxq3YNdi8TM0QAsdVCJaW6iac=", "properties": {"@source_uri": "https://tools.usps.com/UspsToolsRestServices/rest/POLocator/findLocations", "@spider": "usps_collection_boxes", "addr:city": "CLIFTON", "addr:country": "US", "addr:postcode": "38425", "addr:state": "TN", "addr:street_address": "208 MAIN ST", "amenity": "post_box", "collection_times": "Mo-Fr 15:30", "indoor": "yes", "note": "ON 12/24 AND 12/31, THIS BOX MAY BE COLLECTED AS EARLY AS 12 NOON.", "nsi_id": "unitedstatespostalservice-a77078", "operator": "United States Postal Service", "operator:short": "USPS", "operator:type": "public", "operator:wikidata": "Q668687", "ref": "3842500003"}, "type": "Feature"}
{"geometry": {"coordinates": [-86.854343026, 34.994222003], "type": "Point"}, "id": "67wb5m0pOLUIr4wJ1WPS5w5oDbs=", "properties": {"@source_uri": "https://tools.usps.com/UspsToolsRestServices/rest/POLocator/findLocations", "@spider": "usps_collection_boxes", "addr:city": "ARDMORE", "addr:country": "US", "addr:postcode": "38449", "addr:state": "TN", "addr:street_address": "26050 MAIN ST", "amenity": "post_box", "collection_times": "Mo-Fr 15:45; Sa 12:00", "indoor": "yes", "note": "ON 12/24 AND 12/31, THIS BOX MAY BE COLLECTED AS EARLY AS 12 NOON.", "nsi_id": "unitedstatespostalservice-a77078", "operator": "United States Postal Service", "operator:short": "USPS", "operator:type": "public", "operator:wikidata": "Q668687", "ref": "3844900001"}, "type": "Feature"}
{"geometry": {"coordinates": [-86.854343026, 34.994222003], "type": "Point"}, "id": "Ud9PVgdl2pgBzjvITCTjQmB9KgU=", "properties": {"@source_uri": "https://tools.usps.com/UspsToolsRestServices/rest/POLocator/findLocations", "@spider": "usps_collection_boxes", "addr:city": "ARDMORE", "addr:country": "US", "addr:postcode": "38449", "addr:state": "TN", "addr:street_address": "26050 MAIN ST", "amenity": "post_box", "collection_times": "Mo-Fr 15:45; Sa 12:00", "note": "ON 12/24 AND 12/31, THIS BOX MAY BE COLLECTED AS EARLY AS 12 NOON.", "nsi_id": "unitedstatespostalservice-a77078", "operator": "United States Postal Service", "operator:short": "USPS", "operator:type": "public", "operator:wikidata": "Q668687", "ref": "3844900002"}, "type": "Feature"}
{"geometry": {"coordinates": [-86.8464449, 34.983244], "type": "Point"}, "id": "ymnr1gU-UwDZvvfzOc_-bn9ensY=", "properties": {"@source_uri": "https://tools.usps.com/UspsToolsRestServices/rest/POLocator/findLocations", "@spider": "usps_collection_boxes", "addr:city": "ARDMORE", "addr:country": "US", "addr:postcode": "38449", "addr:state": "TN", "addr:street_address": "29930 ARDMORE AVE", "amenity": "post_box", "collection_times": "Mo-Sa 13:30", "note": "ON 12/24 AND 12/31, THIS BOX MAY BE COLLECTED AS EARLY AS 12 NOON.", "nsi_id": "unitedstatespostalservice-a77078", "operator": "United States Postal Service", "operator:short": "USPS", "operator:type": "public", "operator:wikidata": "Q668687", "ref": "3844900003"}, "type": "Feature"}
{"geometry": {"coordinates": [-86.854343026, 34.994222003], "type": "Point"}, "id": "iVSjU79n_bv6KG95DQfURMltmP0=", "properties": {"@source_uri": "https://tools.usps.com/UspsToolsRestServices/rest/POLocator/findLocations", "@spider": "usps_collection_boxes", "addr:city": "ARDMORE", "addr:country": "US", "addr:postcode": "38449", "addr:state": "TN", "addr:street_address": "26050 MAIN ST", "amenity": "post_box", "collection_times": "Mo-Fr 15:45", "indoor": "yes", "note": "ON 12/24 AND 12/31, THIS BOX MAY BE COLLECTED AS EARLY AS 12 NOON.", "nsi_id": "unitedstatespostalservice-a77078", "operator": "United States Postal Service", "operator:short": "USPS", "operator:type": "public", "operator:wikidata": "Q668687", "ref": "3844900004"}, "type": "Feature"}
{"geometry": {"coordinates": [-87.739207926, 35.17429294], "type": "Point"}, "id": "DGtyJEx6Ipnlrle1D6jPQHfLEQg=", "properties": {"@source_uri": "https://tools.usps.com/UspsToolsRestServices/rest/POLocator/findLocations", "@spider": "usps_collection_boxes", "addr:city": "COLLINWOOD", "addr:country": "US", "addr:postcode": "38450", "addr:state": "TN", "addr:street_address": "101 4TH AVE S", "amenity": "post_box", "collection_times": "Mo-Fr 15:45; Sa 12:00", "indoor": "yes", "note": "ON 12/24 AND 12/31, THIS BOX MAY BE COLLECTED AS EARLY AS 12 NOON.", "nsi_id": "unitedstatespostalservice-a77078", "operator": "United States Postal Service", "operator:short": "USPS", "operator:type": "public", "operator:wikidata": "Q668687", "ref": "3845000001"}, "type": "Feature"}
{"geometry": {"coordinates": [-87.739207926, 35.17429294], "type": "Point"}, "id": "cCvutgkq1j166M6WCSh481TkF_4=", "properties": {"@source_uri": "https://tools.usps.com/UspsToolsRestServices/rest/POLocator/findLocations", "@spider": "usps_collection_boxes", "addr:city": "COLLINWOOD", "addr:country": "US", "addr:postcode": "38450", "addr:state": "TN", "addr:street_address": "101 4TH AVE S", "amenity": "post_box", "collection_times": "Mo-Fr 15:45; Sa 12:00", "note": "ON 12/24 AND 12/31, THIS BOX MAY BE COLLECTED AS EARLY AS 12 NOON.", "nsi_id": "unitedstatespostalservice-a77078", "operator": "United States Postal Service", "operator:short": "USPS", "operator:type": "public", "operator:wikidata": "Q668687", "ref": "3845000002"}, "type": "Feature"}
{"geometry": {"coordinates": [-87.739207926, 35.17429294], "type": "Point"}, "id": "4KsCQSMmck8mk8sk9uVb41dNuss=", "properties": {"@source_uri": "https://tools.usps.com/UspsToolsRestServices/rest/POLocator/findLocations", "@spider": "usps_collection_boxes", "addr:city": "COLLINWOOD", "addr:country": "US", "addr:postcode": "38450", "addr:state": "TN", "addr:street_address": "101 4TH AVE S", "amenity": "post_box", "collection_times": "Mo-Fr 15:45", "indoor": "yes", "note": "ON 12/24 AND 12/31, THIS BOX MAY BE COLLECTED AS EARLY AS 12 NOON.", "nsi_id": "unitedstatespostalservice-a77078", "operator": "United States Postal Service", "operator:short": "USPS", "operator:type": "public", "operator:wikidata": "Q668687", "ref": "3845000003"}, "type": "Feature"}
{"geometry": {"coordinates": [-86.983252, 35.479753], "type": "Point"}, "id": "tWEHhiVWFw_SEkLD82Ohlr0zwjw=", "properties": {"@source_uri": "https://tools.usps.com/UspsToolsRestServices/rest/POLocator/findLocations", "@spider": "usps_collection_boxes", "addr:city": "CULLEOKA", "addr:country": "US", "addr:postcode": "38451", "addr:state": "TN", "addr:street_address": "2349 CULLEOKA HWY", "amenity": "post_box", "collection_times": "Mo-Fr 15:30; Sa 10:30", "note": "ON 12/24 AND 12/31, THIS BOX MAY BE COLLECTED AS EARLY AS 12 NOON.", "nsi_id": "unitedstatespostalservice-a77078", "operator": "United States Postal Service", "operator:short": "USPS", "operator:type": "public", "operator:wikidata": "Q668687", "ref": "3845100001"}, "type": "Feature"}
{"geometry": {"coordinates": [-86.983218, 35.479724], "type": "Point"}, "id": "D22Ohwrg_b2pM6j2OOOYK5Bt70A=", "properties": {"@source_uri": "https://tools.usps.com/UspsToolsRestServices/rest/POLocator/findLocations", "@spider": "usps_collection_boxes", "addr:city": "CULLEOKA", "addr:country": "US", "addr:postcode": "38451", "addr:state": "TN", "addr:street_address": "2349 CULLEOKA HWY", "amenity": "post_box", "collection_times": "Mo-Fr 15:30; Sa 10:30", "indoor": "yes", "note": "ON 12/24 AND 12/31, THIS BOX MAY BE COLLECTED AS EARLY AS 12 NOON.", "nsi_id": "unitedstatespostalservice-a77078", "operator": "United States Postal Service", "operator:short": "USPS", "operator:type": "public", "operator:wikidata": "Q668687", "ref": "3845100002"}, "type": "Feature"}
{"geometry": {"coordinates": [-86.9833659972, 35.479872993], "type": "Point"}, "id": "amezfAdOYP5Ad8hfaDAMRPWATLo=", "properties": {"@source_uri": "https://tools.usps.com/UspsToolsRestServices/rest/POLocator/findLocations", "@spider": "usps_collection_boxes", "addr:city": "CULLEOKA", "addr:country": "US", "addr:postcode": "38451", "addr:state": "TN", "addr:street_address": "2349 CULLEOKA HWY", "amenity": "post_box", "collection_times": "Mo-Fr 15:30", "indoor": "yes", "note": "ON 12/24 AND 12/31, THIS BOX MAY BE COLLECTED AS EARLY AS 12 NOON.", "nsi_id": "unitedstatespostalservice-a77078", "operator": "United States Postal Service", "operator:short": "USPS", "operator:type": "public", "operator:wikidata": "Q668687", "ref": "3845100003"}, "type": "Feature"}
{"geometry": {"coordinates": [-87.819317, 35.023312], "type": "Point"}, "id": "umSdUF8r1Mj1YIwK5jr_z3hd4kQ=", "properties": {"@source_uri": "https://tools.usps.com/UspsToolsRestServices/rest/POLocator/findLocations", "@spider": "usps_collection_boxes", "addr:city": "CYPRESS INN", "addr:country": "US", "addr:postcode": "38452", "addr:state": "TN", "addr:street_address": "2825 BIG CYPRESS RD", "amenity": "post_box", "collection_times": "Mo-Fr 11:30; Sa 10:45", "nsi_id": "unitedstatespostalservice-a77078", "operator": "United States Postal Service", "operator:short": "USPS", "operator:type": "public", "operator:wikidata": "Q668687", "ref": "3845200001"}, "type": "Feature"}
{"geometry": {"coordinates": [-87.819452661, 35.026816978], "type": "Point"}, "id": "F-O6JbvK2k6vaw6Ro2UVBxu86nQ=", "properties": {"@source_uri": "https://tools.usps.com/UspsToolsRestServices/rest/POLocator/findLocations", "@spider": "usps_collection_boxes", "addr:city": "CYPRESS INN", "addr:country": "US", "addr:postcode": "38452", "addr:state": "TN", "addr:street_address": "2825 BIG CYPRESS RD", "amenity": "post_box", "collection_times": "Mo-Fr 11:30", "indoor": "yes", "nsi_id": "unitedstatespostalservice-a77078", "operator": "United States Postal Service", "operator:short": "USPS", "operator:type": "public", "operator:wikidata": "Q668687", "ref": "3845200002"}, "type": "Feature"}
{"geometry": {"coordinates": [-87.278464, 35.723095], "type": "Point"}, "id": "KD0bRmstHBMqJ3JM2_NH5a90vl8=", "properties": {"@source_uri": "https://tools.usps.com/UspsToolsRestServices/rest/POLocator/findLocations", "@spider": "usps_collection_boxes", "addr:city": "DUCK RIVER", "addr:country": "US", "addr:postcode": "38454", "addr:state": "TN", "addr:street_address": "2017 HOOVERS RD", "amenity": "post_box", "collection_times": "Mo-Fr 11:30; Sa 10:15", "indoor": "yes", "nsi_id": "unitedstatespostalservice-a77078", "operator": "United States Postal Service", "operator:short": "USPS", "operator:type": "public", "operator:wikidata": "Q668687", "ref": "3845400001"}, "type": "Feature"}
{"geometry": {"coordinates": [-87.278497, 35.723125], "type": "Point"}, "id": "o91wsm-a3kM-6aLD_iDutlDhNqY=", "properties": {"@source_uri": "https://tools.usps.com/UspsToolsRestServices/rest/POLocator/findLocations", "@spider": "usps_collection_boxes", "addr:city": "DUCK RIVER", "addr:country": "US", "addr:postcode": "38454", "addr:state": "TN", "addr:street_address": "2017 HOOVERS RD", "amenity": "post_box", "collection_times": "Mo-Fr 11:30; Sa 10:15", "nsi_id": "unitedstatespostalservice-a77078", "operator": "United States Postal Service", "operator:short": "USPS", "operator:type": "public", "operator:wikidata": "Q668687", "ref": "3845400002"}, "type": "Feature"}
{"geometry": {"coordinates": [-87.2784426369, 35.7230227367], "type": "Point"}, "id": "UlhgvM4vvdXCaocfZsaMq2gLi3c=", "properties": {"@source_uri": "https://tools.usps.com/UspsToolsRestServices/rest/POLocator/findLocations", "@spider": "usps_collection_boxes", "addr:city": "DUCK RIVER", "addr:country": "US", "addr:postcode": "38454", "addr:state": "TN", "addr:street_address": "2017 HOOVERS RD", "amenity": "post_box", "collection_times": "Mo-Fr 11:00", "indoor": "yes", "nsi_id": "unitedstatespostalservice-a77078", "operator": "United States Postal Service", "operator:short": "USPS", "operator:type": "public", "operator:wikidata": "Q668687", "ref": "3845400003"}, "type": "Feature"}
{"geometry": {"coordinates": [-86.889367, 35.051939], "type": "Point"}, "id": "NuL4aUndnWettDc5RP7bmxMJsTg=", "properties": {"@source_uri": "https://tools.usps.com/UspsToolsRestServices/rest/POLocator/findLocations", "@spider": "usps_collection_boxes", "addr:city": "ELKTON", "addr:country": "US", "addr:postcode": "38455", "addr:state": "TN", "addr:street_address": "170 MAIN ST", "amenity": "post_box", "collection_times": "Mo-Fr 12:00; Sa 11:00", "indoor": "yes", "nsi_id": "unitedstatespostalservice-a77078", "operator": "United States Postal Service", "operator:short": "USPS", "operator:type": "public", "operator:wikidata": "Q668687", "ref": "3845500001"}, "type": "Feature"}
{"geometry": {"coordinates": [-86.889367, 35.051939], "type": "Point"}, "id": "d85h7-NTNpqliSY22QItxB5T3eY=", "properties": {"@source_uri": "https://tools.usps.com/UspsToolsRestServices/rest/POLocator/findLocations", "@spider": "usps_collection_boxes", "addr:city": "ELKTON", "addr:country": "US", "addr:postcode": "38455", "addr:state": "TN", "addr:street_address": "170 MAIN ST", "amenity": "post_box", "collection_times": "Mo-Fr 12:00; Sa 11:00", "nsi_id": "unitedstatespostalservice-a77078", "operator": "United States Postal Service", "operator:short": "USPS", "operator:type": "public", "operator:wikidata": "Q668687", "ref": "3845500002"}, "type": "Feature"}
{"geometry": {"coordinates": [-86.889734726, 35.051642483], "type": "Point"}, "id": "ipqMIObrozAegeZ1suwko8poNZg=", "properties": {"@source_uri": "https://tools.usps.com/UspsToolsRestServices/rest/POLocator/findLocations", "@spider": "usps_collection_boxes", "addr:city": "ELKTON", "addr:country": "US", "addr:postcode": "38455", "addr:state": "TN", "addr:street_address": "170 MAIN ST", "amenity": "post_box", "collection_times": "Mo-Fr 12:00", "indoor": "yes", "nsi_id": "unitedstatespostalservice-a77078", "operator": "United States Postal Service", "operator:short": "USPS", "operator:type": "public", "operator:wikidata": "Q668687", "ref": "3845500003"}, "type": "Feature"}
{"geometry": {"coordinates": [-87.305411, 35.320576], "type": "Point"}, "id": "8e0srHUoiN5h_bqZ-yAppDaHdB8=", "properties": {"@source_uri": "https://tools.usps.com/UspsToolsRestServices/rest/POLocator/findLocations", "@spider": "usps_collection_boxes", "addr:city": "ETHRIDGE", "addr:country": "US", "addr:postcode": "38456", "addr:state": "TN", "addr:street_address": "101 BROAD ST", "amenity": "post_box", "collection_times": "Mo-Fr 15:30; Sa 10:30", "indoor": "yes", "note": "ON 12/24 AND 12/31, THIS BOX MAY BE COLLECTED AS EARLY AS 12 NOON.", "nsi_id": "unitedstatespostalservice-a77078", "operator": "United States Postal Service", "operator:short": "USPS", "operator:type": "public", "operator:wikidata": "Q668687", "ref": "3845600001"}, "type": "Feature"}
{"geometry": {"coordinates": [-87.305298, 35.320593], "type": "Point"}, "id": "jPuUI9iSzTcpqpB_0Dk6ZfVTuNE=", "properties": {"@source_uri": "https://tools.usps.com/UspsToolsRestServices/rest/POLocator/findLocations", "@spider": "usps_collection_boxes", "addr:city": "ETHRIDGE", "addr:country": "US", "addr:postcode": "38456", "addr:state": "TN", "addr:street_address": "101 BROAD ST", "amenity": "post_box", "collection_times": "Mo-Fr 15:30; Sa 10:30", "note": "ON 12/24 AND 12/31, THIS BOX MAY BE COLLECTED AS EARLY AS 12 NOON.", "nsi_id": "unitedstatespostalservice-a77078", "operator": "United States Postal Service", "operator:short": "USPS", "operator:type": "public", "operator:wikidata": "Q668687", "ref": "3845600002"}, "type": "Feature"}
{"geometry": {"coordinates": [-87.30466002, 35.320361017], "type": "Point"}, "id": "qiWrouwHG_OM6v-dwptVK87BP9M=", "properties": {"@source_uri": "https://tools.usps.com/UspsToolsRestServices/rest/POLocator/findLocations", "@spider": "usps_collection_boxes", "addr:city": "ETHRIDGE", "addr:country": "US", "addr:postcode": "38456", "addr:state": "TN", "addr:street_address": "101 BROAD ST", "amenity": "post_box", "collection_times": "Mo-Fr 15:30", "indoor": "yes", "note": "ON 12/24 AND 12/31, THIS BOX MAY BE COLLECTED AS EARLY AS 12 NOON.", "nsi_id": "unitedstatespostalservice-a77078", "operator": "United States Postal Service", "operator:short": "USPS", "operator:type": "public", "operator:wikidata": "Q668687", "ref": "3845600003"}, "type": "Feature"}
{"geometry": {"coordinates": [-86.850997, 35.192524], "type": "Point"}, "id": "q180H6a3iXD_B5IWq0fJOuWL6go=", "properties": {"@source_uri": "https://tools.usps.com/UspsToolsRestServices/rest/POLocator/findLocations", "@spider": "usps_collection_boxes", "addr:city": "FRANKEWING", "addr:country": "US", "addr:postcode": "38459", "addr:state": "TN", "addr:street_address": "8218 BEECH HILL RD", "amenity": "post_box", "collection_times": "Mo-Fr 11:30; Sa 11:15", "nsi_id": "unitedstatespostalservice-a77078", "operator": "United States Postal Service", "operator:short": "USPS", "operator:type": "public", "operator:wikidata": "Q668687", "ref": "3845900001"}, "type": "Feature"}
{"geometry": {"coordinates": [-86.850997, 35.192523], "type": "Point"}, "id": "K8G3U85CZ5zaqkHM6yMkan1b4_g=", "properties": {"@source_uri": "https://tools.usps.com/UspsToolsRestServices/rest/POLocator/findLocations", "@spider": "usps_collection_boxes", "addr:city": "FRANKEWING", "addr:country": "US", "addr:postcode": "38459", "addr:state": "TN", "addr:street_address": "8218 BEECH HILL RD", "amenity": "post_box", "collection_times": "Mo-Fr 11:30; Sa 11:15", "indoor": "yes", "nsi_id": "unitedstatespostalservice-a77078", "operator": "United States Postal Service", "operator:short": "USPS", "operator:type": "public", "operator:wikidata": "Q668687", "ref": "3845900002"}, "type": "Feature"}
{"geometry": {"coordinates": [-86.8513390831, 35.1925857954], "type": "Point"}, "id": "tjgJXxSnGMWh5l2d9pAaRuWISRM=", "properties": {"@source_uri": "https://tools.usps.com/UspsToolsRestServices/rest/POLocator/findLocations", "@spider": "usps_collection_boxes", "addr:city": "FRANKEWING", "addr:country": "US", "addr:postcode": "38459", "addr:state": "TN", "addr:street_address": "8218 BEECH HILL RD", "amenity": "post_box", "collection_times": "Mo-Fr 11:30", "indoor": "yes", "nsi_id": "unitedstatespostalservice-a77078", "operator": "United States Postal Service", "operator:short": "USPS", "operator:type": "public", "operator:wikidata": "Q668687", "ref": "3845900003"}, "type": "Feature"}
{"geometry": {"coordinates": [-87.121821, 35.096639], "type": "Point"}, "id": "Fm9iTQEwVq4GxhQFaXhxP13mSVU=", "properties": {"@source_uri": "https://tools.usps.com/UspsToolsRestServices/rest/POLocator/findLocations", "@spider": "usps_collection_boxes", "addr:city": "GOODSPRING", "addr:country": "US", "addr:postcode": "38460", "addr:state": "TN", "addr:street_address": "184 OAK GROVE RD", "amenity": "post_box", "collection_times": "Mo-Fr 11:30; Sa 11:15", "nsi_id": "unitedstatespostalservice-a77078", "operator": "United States Postal Service", "operator:short": "USPS", "operator:type": "public", "operator:wikidata": "Q668687", "ref": "3846000001"}, "type": "Feature"}
{"geometry": {"coordinates": [-87.121791, 35.096585], "type": "Point"}, "id": "g8EF-tHHgtXllGxd2qAK-i94iXY=", "properties": {"@source_uri": "https://tools.usps.com/UspsToolsRestServices/rest/POLocator/findLocations", "@spider": "usps_collection_boxes", "addr:city": "GOODSPRING", "addr:country": "US", "addr:postcode": "38460", "addr:state": "TN", "addr:street_address": "184 OAK GROVE RD", "amenity": "post_box", "collection_times": "Mo-Fr 11:30; Sa 11:15", "indoor": "yes", "nsi_id": "unitedstatespostalservice-a77078", "operator": "United States Postal Service", "operator:short": "USPS", "operator:type": "public", "operator:wikidata": "Q668687", "ref": "3846000002"}, "type": "Feature"}
{"geometry": {"coordinates": [-87.108342018, 35.13441101], "type": "Point"}, "id": "VGkXH-zlZ3zqJPtkWMHbz1IfYb0=", "properties": {"@source_uri": "https://tools.usps.com/UspsToolsRestServices/rest/POLocator/findLocations", "@spider": "usps_collection_boxes", "addr:city": "GOODSPRING", "addr:country": "US", "addr:postcode": "38460", "addr:state": "TN", "addr:street_address": "184 OAK GROVE RD", "amenity": "post_box", "collection_times": "Mo-Fr 11:30", "indoor": "yes", "nsi_id": "unitedstatespostalservice-a77078", "operator": "United States Postal Service", "operator:short": "USPS", "operator:type": "public", "operator:wikidata": "Q668687", "ref": "3846000003"}, "type": "Feature"}
{"geometry": {"coordinates": [-87.293602, 35.596491], "type": "Point"}, "id": "B6PrsqSWJDJFFjVprGQKpkY7VAQ=", "properties": {"@source_uri": "https://tools.usps.com/UspsToolsRestServices/rest/POLocator/findLocations", "@spider": "usps_collection_boxes", "addr:city": "HAMPSHIRE", "addr:country": "US", "addr:postcode": "38461", "addr:state": "TN", "addr:street_address": "4116 HAMPSHIRE PIKE", "amenity": "post_box", "collection_times": "Mo-Fr 11:30; Sa 10:30", "indoor": "yes", "nsi_id": "unitedstatespostalservice-a77078", "operator": "United States Postal Service", "operator:short": "USPS", "operator:type": "public", "operator:wikidata": "Q668687", "ref": "3846100001"}, "type": "Feature"}
{"geometry": {"coordinates": [-87.293602, 35.596491], "type": "Point"}, "id": "SrfW1JYGvPe69PzgwKpsoaA9RKk=", "properties": {"@source_uri": "https://tools.usps.com/UspsToolsRestServices/rest/POLocator/findLocations", "@spider": "usps_collection_boxes", "addr:city": "HAMPSHIRE", "addr:country": "US", "addr:postcode": "38461", "addr:state": "TN", "addr:street_address": "4116 HAMPSHIRE PKE", "amenity": "post_box", "collection_times": "Mo-Fr 11:30; Sa 10:30", "nsi_id": "unitedstatespostalservice-a77078", "operator": "United States Postal Service", "operator:short": "USPS", "operator:type": "public", "operator:wikidata": "Q668687", "ref": "3846100002"}, "type": "Feature"}
{"geometry": {"coordinates": [-87.293629184, 35.596517702], "type": "Point"}, "id": "hn4wTcarEWbgSkoslIiNj4hd1l4=", "properties": {"@source_uri": "https://tools.usps.com/UspsToolsRestServices/rest/POLocator/findLocations", "@spider": "usps_collection_boxes", "addr:city": "HAMPSHIRE", "addr:country": "US", "addr:postcode": "38461", "addr:state": "TN", "addr:street_address": "4116 HAMPSHIRE PIKE", "amenity": "post_box", "collection_times": "Mo-Fr 11:30", "indoor": "yes", "nsi_id": "unitedstatespostalservice-a77078", "operator": "United States Postal Service", "operator:short": "USPS", "operator:type": "public", "operator:wikidata": "Q668687", "ref": "3846100003"}, "type": "Feature"}
{"geometry": {"coordinates": [-87.553611, 35.548391], "type": "Point"}, "id": "FB_3QwGvRWualuuhJiWIKfYGKE4=", "properties": {"@source_uri": "https://tools.usps.com/UspsToolsRestServices/rest/POLocator/findLocations", "@spider": "usps_collection_boxes", "addr:city": "HOHENWALD", "addr:country": "US", "addr:postcode": "38462", "addr:state": "TN", "addr:street_address": "26 N COURT ST", "amenity": "post_box", "collection_times": "Mo-Fr 16:30; Sa 12:00", "note": "ON 12/24 AND 12/31, THIS BOX MAY BE COLLECTED AS EARLY AS 12 NOON.", "nsi_id": "unitedstatespostalservice-a77078", "operator": "United States Postal Service", "operator:short": "USPS", "operator:type": "public", "operator:wikidata": "Q668687", "ref": "3846200001"}, "type": "Feature"}
{"geometry": {"coordinates": [-87.5522977645, 35.5506334969], "type": "Point"}, "id": "YHMilY34kIo1SzRj0segJC5Wg28=", "properties": {"@source_uri": "https://tools.usps.com/UspsToolsRestServices/rest/POLocator/findLocations", "@spider": "usps_collection_boxes", "addr:city": "HOHENWALD", "addr:country": "US", "addr:postcode": "38462", "addr:state": "TN", "addr:street_address": "15 SMITH AVE", "amenity": "post_box", "collection_times": "Mo-Fr 15:00; Sa 12:00", "note": "ON 12/24 AND 12/31, THIS BOX MAY BE COLLECTED AS EARLY AS 12 NOON.", "nsi_id": "unitedstatespostalservice-a77078", "operator": "United States Postal Service", "operator:short": "USPS", "operator:type": "public", "operator:wikidata": "Q668687", "ref": "3846200005"}, "type": "Feature"}
{"geometry": {"coordinates": [-87.5526649, 35.549909], "type": "Point"}, "id": "fCtuhYugJRJVXSwZvMDET-gqXZw=", "properties": {"@source_uri": "https://tools.usps.com/UspsToolsRestServices/rest/POLocator/findLocations", "@spider": "usps_collection_boxes", "addr:city": "HOHENWALD", "addr:country": "US", "addr:postcode": "38462", "addr:state": "TN", "addr:street_address": "110 N PARK ST", "amenity": "post_box", "collection_times": "Mo-Fr 15:00; Sa 12:00", "note": "ON 12/24 AND 12/31, THIS BOX MAY BE COLLECTED AS EARLY AS 12 NOON.", "nsi_id": "unitedstatespostalservice-a77078", "operator": "United States Postal Service", "operator:short": "USPS", "operator:type": "public", "operator:wikidata": "Q668687", "ref": "3846200007"}, "type": "Feature"}
{"geometry": {"coordinates": [-87.553585, 35.548343], "type": "Point"}, "id": "OThUbiF7sRfUZ6Wq7W_e4UmCwKw=", "properties": {"@source_uri": "https://tools.usps.com/UspsToolsRestServices/rest/POLocator/findLocations", "@spider": "usps_collection_boxes", "addr:city": "HOHENWALD", "addr:country": "US", "addr:postcode": "38462", "addr:state": "TN", "addr:street_address": "26 N COURT ST", "amenity": "post_box", "collection_times": "Mo-Fr 16:30; Sa 12:00", "indoor": "yes", "note": "ON 12/24 AND 12/31, THIS BOX MAY BE COLLECTED AS EARLY AS 12 NOON.", "nsi_id": "unitedstatespostalservice-a77078", "operator": "United States Postal Service", "operator:short": "USPS", "operator:type": "public", "operator:wikidata": "Q668687", "ref": "3846200009"}, "type": "Feature"}
{"geometry": {"coordinates": [-87.58148, 35.021503], "type": "Point"}, "id": "t-jLOWxLdfXACChecTyjRx_Qp5w=", "properties": {"@source_uri": "https://tools.usps.com/UspsToolsRestServices/rest/POLocator/findLocations", "@spider": "usps_collection_boxes", "addr:city": "IRON CITY", "addr:country": "US", "addr:postcode": "38463", "addr:state": "TN", "addr:street_address": "33 W 2ND ST", "amenity": "post_box", "collection_times": "Mo-Fr 11:00; Sa 10:30", "indoor": "yes", "nsi_id": "unitedstatespostalservice-a77078", "operator": "United States Postal Service", "operator:short": "USPS", "operator:type": "public", "operator:wikidata": "Q668687", "ref": "3846300001"}, "type": "Feature"}
{"geometry": {"coordinates": [-87.581582, 35.02151], "type": "Point"}, "id": "M4IjBT1o-uiOppz9mK-5TMwQrNw=", "properties": {"@source_uri": "https://tools.usps.com/UspsToolsRestServices/rest/POLocator/findLocations", "@spider": "usps_collection_boxes", "addr:city": "IRON CITY", "addr:country": "US", "addr:postcode": "38463", "addr:state": "TN", "addr:street_address": "33 W 2ND ST", "amenity": "post_box", "collection_times": "Mo-Fr 11:00; Sa 10:30", "nsi_id": "unitedstatespostalservice-a77078", "operator": "United States Postal Service", "operator:short": "USPS", "operator:type": "public", "operator:wikidata": "Q668687", "ref": "3846300002"}, "type": "Feature"}
{"geometry": {"coordinates": [-87.3338359, 35.242696], "type": "Point"}, "id": "2DANwyVHt4Lj1gVFMQlcsmldEk0=", "properties": {"@source_uri": "https://tools.usps.com/UspsToolsRestServices/rest/POLocator/findLocations", "@spider": "usps_collection_boxes", "addr:city": "LAWRENCEBURG", "addr:country": "US", "addr:postcode": "38464", "addr:state": "TN", "addr:street_address": "218 N MILITARY AVE", "amenity": "post_box", "collection_times": "Mo-Fr 16:45; Sa 15:45", "indoor": "yes", "note": "ON 12/24 AND 12/31, THIS BOX MAY BE COLLECTED AS EARLY AS 12 NOON.", "nsi_id": "unitedstatespostalservice-a77078", "operator": "United States Postal Service", "operator:short": "USPS", "operator:type": "public", "operator:wikidata": "Q668687", "ref": "3846400005"}, "type": "Feature"}
{"geometry": {"coordinates": [-87.3361289, 35.24288], "type": "Point"}, "id": "g7S9rcisAUVb0QZKCMWANpRSzPQ=", "properties": {"@source_uri": "https://tools.usps.com/UspsToolsRestServices/rest/POLocator/findLocations", "@spider": "usps_collection_boxes", "addr:city": "LAWRENCEBURG", "addr:country": "US", "addr:postcode": "38464", "addr:state": "TN", "addr:street_address": "200 W GAINES ST", "amenity": "post_box", "collection_times": "Mo-Fr 15:00", "note": "ON 12/24 AND 12/31, THIS BOX MAY BE COLLECTED AS EARLY AS 12 NOON.", "nsi_id": "unitedstatespostalservice-a77078", "operator": "United States Postal Service", "operator:short": "USPS", "operator:type": "public", "operator:wikidata": "Q668687", "ref": "3846400008"}, "type": "Feature"}
{"geometry": {"coordinates": [-87.3358033, 35.224301], "type": "Point"}, "id": "KQ8vYmXcAp9i9g7zjl-mrifuBuE=", "properties": {"@source_uri": "https://tools.usps.com/UspsToolsRestServices/rest/POLocator/findLocations", "@spider": "usps_collection_boxes", "addr:city": "LAWRENCEBURG", "addr:country": "US", "addr:postcode": "38464", "addr:state": "TN", "addr:street_address": "200 PROSSER RD", "amenity": "post_box", "collection_times": "Mo-Sa 09:00", "nsi_id": "unitedstatespostalservice-a77078", "operator": "United States Postal Service", "operator:short": "USPS", "operator:type": "public", "operator:wikidata": "Q668687", "ref": "3846400012"}, "type": "Feature"}
{"geometry": {"coordinates": [-87.3249293, 35.256866], "type": "Point"}, "id": "8L6V1iWhbINPm_hCCzf6UtzqJ84=", "properties": {"@source_uri": "https://tools.usps.com/UspsToolsRestServices/rest/POLocator/findLocations", "@spider": "usps_collection_boxes", "addr:city": "LAWRENCEBURG", "addr:country": "US", "addr:postcode": "38464", "addr:state": "TN", "addr:street_address": "1400 N LOCUST AVE", "amenity": "post_box", "collection_times": "Mo-Sa 10:00", "nsi_id": "unitedstatespostalservice-a77078", "operator": "United States Postal Service", "operator:short": "USPS", "operator:type": "public", "operator:wikidata": "Q668687", "ref": "3846400022"}, "type": "Feature"}
{"geometry": {"coordinates": [-87.3208341, 35.2688], "type": "Point"}, "id": "iFUAI7Uij7tH4hs7BcZqtKGMe4w=", "properties": {"@source_uri": "https://tools.usps.com/UspsToolsRestServices/rest/POLocator/findLocations", "@spider": "usps_collection_boxes", "addr:city": "LAWRENCEBURG", "addr:country": "US", "addr:postcode": "38464", "addr:state": "TN", "addr:street_address": "2100 N LOCUST AVE", "amenity": "post_box", "collection_times": "Mo-Sa 12:00", "nsi_id": "unitedstatespostalservice-a77078", "operator": "United States Postal Service", "operator:short": "USPS", "operator:type": "public", "operator:wikidata": "Q668687", "ref": "3846400030"}, "type": "Feature"}
{"geometry": {"coordinates": [-87.3294382, 35.252905], "type": "Point"}, "id": "3y0nwlpDj8hGs_HVSZcwGTFsm80=", "properties": {"@source_uri": "https://tools.usps.com/UspsToolsRestServices/rest/POLocator/findLocations", "@spider": "usps_collection_boxes", "addr:city": "LAWRENCEBURG", "addr:country": "US", "addr:postcode": "38464", "addr:state": "TN", "addr:street_address": "900 N MILITARY AVE", "amenity": "post_box", "collection_times": "Mo-Fr 11:00; Sa 09:00", "nsi_id": "unitedstatespostalservice-a77078", "operator": "United States Postal Service", "operator:short": "USPS", "operator:type": "public", "operator:wikidata": "Q668687", "ref": "3846400036"}, "type": "Feature"}
{"geometry": {"coordinates": [-87.3342111, 35.251755], "type": "Point"}, "id": "aAh4gU17IeMXCYZ9UXnSYNC1sD4=", "properties": {"@source_uri": "https://tools.usps.com/UspsToolsRestServices/rest/POLocator/findLocations", "@spider": "usps_collection_boxes", "addr:city": "LAWRENCEBURG", "addr:country": "US", "addr:postcode": "38464", "addr:state": "TN", "addr:street_address": "811 MAHR AVE", "amenity": "post_box", "collection_times": "Mo-Sa 13:15", "note": "ON 12/24 AND 12/31, THIS BOX MAY BE COLLECTED AS EARLY AS 12 NOON.", "nsi_id": "unitedstatespostalservice-a77078", "operator": "United States Postal Service", "operator:short": "USPS", "operator:type": "public", "operator:wikidata": "Q668687", "ref": "3846400158"}, "type": "Feature"}
{"geometry": {"coordinates": [-87.3657452, 35.245106], "type": "Point"}, "id": "t4q2hVoimeCTDcrwFvrF6Hlp3jw=", "properties": {"@source_uri": "https://tools.usps.com/UspsToolsRestServices/rest/POLocator/findLocations", "@spider": "usps_collection_boxes", "addr:city": "LAWRENCEBURG", "addr:country": "US", "addr:postcode": "38464", "addr:state": "TN", "addr:street_address": "1905 W GAINES ST", "amenity": "post_box", "collection_times": "Mo-Sa 11:00", "nsi_id": "unitedstatespostalservice-a77078", "operator": "United States Postal Service", "operator:short": "USPS", "operator:type": "public", "operator:wikidata": "Q668687", "ref": "3846400179"}, "type": "Feature"}
{"geometry": {"coordinates": [-87.3177978, 35.239003], "type": "Point"}, "id": "lxF9f_6KFqh9W9Mnb1TP9ULFie0=", "properties": {"@source_uri": "https://tools.usps.com/UspsToolsRestServices/rest/POLocator/findLocations", "@spider": "usps_collection_boxes", "addr:city": "LAWRENCEBURG", "addr:country": "US", "addr:postcode": "38464", "addr:state": "TN", "addr:street_address": "710 E GAINES ST", "amenity": "post_box", "collection_times": "Mo-Fr 12:00; Sa 09:00", "nsi_id": "unitedstatespostalservice-a77078", "operator": "United States Postal Service", "operator:short": "USPS", "operator:type": "public", "operator:wikidata": "Q668687", "ref": "3846400191"}, "type": "Feature"}
{"geometry": {"coordinates": [-87.3335768, 35.242837], "type": "Point"}, "id": "HjAt_uH52TTBmZ6iVG9ZsbID214=", "properties": {"@source_uri": "https://tools.usps.com/UspsToolsRestServices/rest/POLocator/findLocations", "@spider": "usps_collection_boxes", "addr:city": "LAWRENCEBURG", "addr:country": "US", "addr:postcode": "38464", "addr:state": "TN", "addr:street_address": "218 N MILITARY AVE", "amenity": "post_box", "collection_times": "Mo-Fr 16:45; Sa 15:45", "note": "ON 12/24 AND 12/31, THIS BOX MAY BE COLLECTED AS EARLY AS 12 NOON.", "nsi_id": "unitedstatespostalservice-a77078", "operator": "United States Postal Service", "operator:short": "USPS", "operator:type": "public", "operator:wikidata": "Q668687", "ref": "3846400192"}, "type": "Feature"}
{"geometry": {"coordinates": [-87.3340818303, 35.2426194842], "type": "Point"}, "id": "7rVUVSob2knRGd3WKKzfM1vM1BQ=", "properties": {"@source_uri": "https://tools.usps.com/UspsToolsRestServices/rest/POLocator/findLocations", "@spider": "usps_collection_boxes", "addr:city": "LAWRENCEBURG", "addr:country": "US", "addr:postcode": "38464", "addr:state": "TN", "addr:street_address": "218 N MILITARY AVE", "amenity": "post_box", "collection_times": "Mo-Fr 16:30", "indoor": "yes", "note": "ON 12/24 AND 12/31, THIS BOX MAY BE COLLECTED AS EARLY AS 12 NOON.", "nsi_id": "unitedstatespostalservice-a77078", "operator": "United States Postal Service", "operator:short": "USPS", "operator:type": "public", "operator:wikidata": "Q668687", "ref": "3846400194"}, "type": "Feature"}
{"geometry": {"coordinates": [-87.348559, 35.159111], "type": "Point"}, "id": "SNAuRfjkj-WlQx0eAqJ5D-Ws8Pw=", "properties": {"@source_uri": "https://tools.usps.com/UspsToolsRestServices/rest/POLocator/findLocations", "@spider": "usps_collection_boxes", "addr:city": "LEOMA", "addr:country": "US", "addr:postcode": "38468", "addr:state": "TN", "addr:street_address": "1 RABBIT TRAIL RD", "amenity": "post_box", "collection_times": "Mo-Fr 16:30; Sa 12:00", "note": "ON 12/24 AND 12/31, THIS BOX MAY BE COLLECTED AS EARLY AS 12 NOON.", "nsi_id": "unitedstatespostalservice-a77078", "operator": "United States Postal Service", "operator:short": "USPS", "operator:type": "public", "operator:wikidata": "Q668687", "ref": "3846800002"}, "type": "Feature"}
{"geometry": {"coordinates": [-87.3488318, 35.1585309], "type": "Point"}, "id": "17EXRV7ZVL43c5pdfoQIkKQ8AhE=", "properties": {"@source_uri": "https://tools.usps.com/UspsToolsRestServices/rest/POLocator/findLocations", "@spider": "usps_collection_boxes", "addr:city": "LEOMA", "addr:country": "US", "addr:postcode": "38468", "addr:state": "TN", "addr:street_address": "1 RABBIT TRAIL RD", "amenity": "post_box", "collection_times": "Mo-Fr 16:30; Sa 12:00", "indoor": "yes", "note": "ON 12/24 AND 12/31, THIS BOX MAY BE COLLECTED AS EARLY AS 12 NOON.", "nsi_id": "unitedstatespostalservice-a77078", "operator": "United States Postal Service", "operator:short": "USPS", "operator:type": "public", "operator:wikidata": "Q668687", "ref": "3846800004"}, "type": "Feature"}
{"geometry": {"coordinates": [-87.3488318, 35.1585309], "type": "Point"}, "id": "t8tC3yHJVYMuQaHXykMopA31cAE=", "properties": {"@source_uri": "https://tools.usps.com/UspsToolsRestServices/rest/POLocator/findLocations", "@spider": "usps_collection_boxes", "addr:city": "LEOMA", "addr:country": "US", "addr:postcode": "38468", "addr:state": "TN", "addr:street_address": "1 RABBIT TRAIL RD", "amenity": "post_box", "collection_times": "Mo-Fr 16:30; Sa 12:00", "indoor": "yes", "note": "ON 12/24 AND 12/31, THIS BOX MAY BE COLLECTED AS EARLY AS 12 NOON.", "nsi_id": "unitedstatespostalservice-a77078", "operator": "United States Postal Service", "operator:short": "USPS", "operator:type": "public", "operator:wikidata": "Q668687", "ref": "3846800005"}, "type": "Feature"}
{"geometry": {"coordinates": [-87.436658986, 35.078506984], "type": "Point"}, "id": "_sHkdI98_bEh9BPU0WX1hEcSWh8=", "properties": {"@source_uri": "https://tools.usps.com/UspsToolsRestServices/rest/POLocator/findLocations", "@spider": "usps_collection_boxes", "addr:city": "LORETTO", "addr:country": "US", "addr:postcode": "38469", "addr:state": "TN", "addr:street_address": "100 W COMMERCE ST", "amenity": "post_box", "collection_times": "Mo-Fr 15:45; Sa 11:00", "indoor": "yes", "note": "ON 12/24 AND 12/31, THIS BOX MAY BE COLLECTED AS EARLY AS 12 NOON.", "nsi_id": "unitedstatespostalservice-a77078", "operator": "United States Postal Service", "operator:short": "USPS", "operator:type": "public", "operator:wikidata": "Q668687", "ref": "3846900001"}, "type": "Feature"}
{"geometry": {"coordinates": [-87.436658986, 35.078506984], "type": "Point"}, "id": "MfUrhyiQf7jvlBpb36RMFFzBuLc=", "properties": {"@source_uri": "https://tools.usps.com/UspsToolsRestServices/rest/POLocator/findLocations", "@spider": "usps_collection_boxes", "addr:city": "LORETTO", "addr:country": "US", "addr:postcode": "38469", "addr:state": "TN", "addr:street_address": "100 W COMMERCE ST", "amenity": "post_box", "collection_times": "Mo-Fr 15:15; Sa 11:00", "note": "ON 12/24 AND 12/31, THIS BOX MAY BE COLLECTED AS EARLY AS 12 NOON.", "nsi_id": "unitedstatespostalservice-a77078", "operator": "United States Postal Service", "operator:short": "USPS", "operator:type": "public", "operator:wikidata": "Q668687", "ref": "3846900003"}, "type": "Feature"}
{"geometry": {"coordinates": [-87.436658986, 35.078506984], "type": "Point"}, "id": "gA1RkwS-3UooCG7uxirinjllRLI=", "properties": {"@source_uri": "https://tools.usps.com/UspsToolsRestServices/rest/POLocator/findLocations", "@spider": "usps_collection_boxes", "addr:city": "LORETTO", "addr:country": "US", "addr:postcode": "38469", "addr:state": "TN", "addr:street_address": "100 W COMMERCE ST", "amenity": "post_box", "collection_times": "Mo-Fr 15:45", "indoor": "yes", "note": "ON 12/24 AND 12/31, THIS BOX MAY BE COLLECTED AS EARLY AS 12 NOON.", "nsi_id": "unitedstatespostalservice-a77078", "operator": "United States Postal Service", "operator:short": "USPS", "operator:type": "public", "operator:wikidata": "Q668687", "ref": "3846900004"}, "type": "Feature"}
{"geometry": {"coordinates": [-87.0035199, 35.377064], "type": "Point"}, "id": "ihsQ3pbf4477XO6Tgrr8XjnB8AI=", "properties": {"@source_uri": "https://tools.usps.com/UspsToolsRestServices/rest/POLocator/findLocations", "@spider": "usps_collection_boxes", "addr:city": "LYNNVILLE", "addr:country": "US", "addr:postcode": "38472", "addr:state": "TN", "addr:street_address": "1832 MAIN ST", "amenity": "post_box", "collection_times": "Mo-Fr 15:00; Sa 11:15", "note": "ON 12/24 AND 12/31, THIS BOX MAY BE COLLECTED AS EARLY AS 12 NOON.", "nsi_id": "unitedstatespostalservice-a77078", "operator": "United States Postal Service", "operator:short": "USPS", "operator:type": "public", "operator:wikidata": "Q668687", "ref": "3847200002"}, "type": "Feature"}
{"geometry": {"coordinates": [-87.0035106, 35.377043], "type": "Point"}, "id": "PYrPKelC86NG1LwZMlIZUI3aIpE=", "properties": {"@source_uri": "https://tools.usps.com/UspsToolsRestServices/rest/POLocator/findLocations", "@spider": "usps_collection_boxes", "addr:city": "LYNNVILLE", "addr:country": "US", "addr:postcode": "38472", "addr:state": "TN", "addr:street_address": "1832 MAIN ST", "amenity": "post_box", "collection_times": "Mo-Fr 14:45; Sa 11:15", "indoor": "yes", "note": "ON 12/24 AND 12/31, THIS BOX MAY BE COLLECTED AS EARLY AS 12 NOON.", "nsi_id": "unitedstatespostalservice-a77078", "operator": "United States Postal Service", "operator:short": "USPS", "operator:type": "public", "operator:wikidata": "Q668687", "ref": "3847200003"}, "type": "Feature"}
{"geometry": {"coordinates": [-87.0034819781, 35.3770169827], "type": "Point"}, "id": "pehK0neajKha-kFJceBHkeU5KwA=", "properties": {"@source_uri": "https://tools.usps.com/UspsToolsRestServices/rest/POLocator/findLocations", "@spider": "usps_collection_boxes", "addr:city": "LYNNVILLE", "addr:country": "US", "addr:postcode": "38472", "addr:state": "TN", "addr:street_address": "1832 MAIN ST", "amenity": "post_box", "collection_times": "Mo-Fr 14:30", "indoor": "yes", "note": "ON 12/24 AND 12/31, THIS BOX MAY BE COLLECTED AS EARLY AS 12 NOON.", "nsi_id": "unitedstatespostalservice-a77078", "operator": "United States Postal Service", "operator:short": "USPS", "operator:type": "public", "operator:wikidata": "Q668687", "ref": "3847200005"}, "type": "Feature"}
{"geometry": {"coordinates": [-87.157364, 35.05639], "type": "Point"}, "id": "CIjiYDUNQ3wzd1x7Tk6nipBEsZ8=", "properties": {"@source_uri": "https://tools.usps.com/UspsToolsRestServices/rest/POLocator/findLocations", "@spider": "usps_collection_boxes", "addr:city": "MINOR HILL", "addr:country": "US", "addr:postcode": "38473", "addr:state": "TN", "addr:street_address": "12883 MINOR HILL HWY", "amenity": "post_box", "collection_times": "Mo-Fr 11:30; Sa 10:45", "indoor": "yes", "nsi_id": "unitedstatespostalservice-a77078", "operator": "United States Postal Service", "operator:short": "USPS", "operator:type": "public", "operator:wikidata": "Q668687", "ref": "3847300001"}, "type": "Feature"}
{"geometry": {"coordinates": [-87.157401, 35.056362], "type": "Point"}, "id": "mwbkQfXqFl6_I-1VPR3NcRC2wDE=", "properties": {"@source_uri": "https://tools.usps.com/UspsToolsRestServices/rest/POLocator/findLocations", "@spider": "usps_collection_boxes", "addr:city": "MINOR HILL", "addr:country": "US", "addr:postcode": "38473", "addr:state": "TN", "addr:street_address": "12883 MINOR HILL HWY", "amenity": "post_box", "collection_times": "Mo-Fr 11:30; Sa 10:45", "nsi_id": "unitedstatespostalservice-a77078", "operator": "United States Postal Service", "operator:short": "USPS", "operator:type": "public", "operator:wikidata": "Q668687", "ref": "3847300002"}, "type": "Feature"}
{"geometry": {"coordinates": [-87.206493421, 35.535301097], "type": "Point"}, "id": "2g-_lT7YBd78EyqgWfsKIY15l2Q=", "properties": {"@source_uri": "https://tools.usps.com/UspsToolsRestServices/rest/POLocator/findLocations", "@spider": "usps_collection_boxes", "addr:city": "MOUNT PLEASANT", "addr:country": "US", "addr:postcode": "38474", "addr:state": "TN", "addr:street_address": "201 N MAIN ST", "amenity": "post_box", "collection_times": "Mo-Fr 16:30; Sa 11:30", "indoor": "yes", "note": "ON 12/24 AND 12/31, THIS BOX MAY BE COLLECTED AS EARLY AS 12 NOON.", "nsi_id": "unitedstatespostalservice-a77078", "operator": "United States Postal Service", "operator:short": "USPS", "operator:type": "public", "operator:wikidata": "Q668687", "ref": "3847400011"}, "type": "Feature"}
{"geometry": {"coordinates": [-87.206493421, 35.535301097], "type": "Point"}, "id": "8nsvPYWi-WRrKojNGVDWTIE1GRY=", "properties": {"@source_uri": "https://tools.usps.com/UspsToolsRestServices/rest/POLocator/findLocations", "@spider": "usps_collection_boxes", "addr:city": "MOUNT PLEASANT", "addr:country": "US", "addr:postcode": "38474", "addr:state": "TN", "addr:street_address": "201 N MAIN ST", "amenity": "post_box", "collection_times": "Mo-Fr 16:30; Sa 11:30", "note": "ON 12/24 AND 12/31, THIS BOX MAY BE COLLECTED AS EARLY AS 12 NOON.", "nsi_id": "unitedstatespostalservice-a77078", "operator": "United States Postal Service", "operator:short": "USPS", "operator:type": "public", "operator:wikidata": "Q668687", "ref": "3847400012"}, "type": "Feature"}
{"geometry": {"coordinates": [-87.206493421, 35.535301097], "type": "Point"}, "id": "6qdlOaLy9uXWqrKEQBDxCrAirxE=", "properties": {"@source_uri": "https://tools.usps.com/UspsToolsRestServices/rest/POLocator/findLocations", "@spider": "usps_collection_boxes", "addr:city": "MOUNT PLEASANT", "addr:country": "US", "addr:postcode": "38474", "addr:state": "TN", "addr:street_address": "201 N MAIN ST", "amenity": "post_box", "collection_times": "Mo-Fr 16:30", "indoor": "yes", "note": "ON 12/24 AND 12/31, THIS BOX MAY BE COLLECTED AS EARLY AS 12 NOON.", "nsi_id": "unitedstatespostalservice-a77078", "operator": "United States Postal Service", "operator:short": "USPS", "operator:type": "public", "operator:wikidata": "Q668687", "ref": "3847400013"}, "type": "Feature"}
{"geometry": {"coordinates": [-86.998457, 35.026493], "type": "Point"}, "id": "m58BLl9IxHwTbkN7PcK0RO_etWU=", "properties": {"@source_uri": "https://tools.usps.com/UspsToolsRestServices/rest/POLocator/findLocations", "@spider": "usps_collection_boxes", "addr:city": "PROSPECT", "addr:country": "US", "addr:postcode": "38477", "addr:state": "TN", "addr:street_address": "400 MAIN ST", "amenity": "post_box", "collection_times": "Mo-Sa 11:30", "indoor": "yes", "nsi_id": "unitedstatespostalservice-a77078", "operator": "United States Postal Service", "operator:short": "USPS", "operator:type": "public", "operator:wikidata": "Q668687", "ref": "3847700001"}, "type": "Feature"}
{"geometry": {"coordinates": [-86.998457, 35.026493], "type": "Point"}, "id": "fSTysipPyafAQFpCosHu3cSE_mI=", "properties": {"@source_uri": "https://tools.usps.com/UspsToolsRestServices/rest/POLocator/findLocations", "@spider": "usps_collection_boxes", "addr:city": "PROSPECT", "addr:country": "US", "addr:postcode": "38477", "addr:state": "TN", "addr:street_address": "400 MAIN ST", "amenity": "post_box", "collection_times": "Mo-Sa 11:30", "nsi_id": "unitedstatespostalservice-a77078", "operator": "United States Postal Service", "operator:short": "USPS", "operator:type": "public", "operator:wikidata": "Q668687", "ref": "3847700002"}, "type": "Feature"}
{"geometry": {"coordinates": [-86.998956002, 35.026542998], "type": "Point"}, "id": "dlTm4pAz8IvJnLVxD0pGucqHU_4=", "properties": {"@source_uri": "https://tools.usps.com/UspsToolsRestServices/rest/POLocator/findLocations", "@spider": "usps_collection_boxes", "addr:city": "PROSPECT", "addr:country": "US", "addr:postcode": "38477", "addr:state": "TN", "addr:street_address": "400 MAIN ST", "amenity": "post_box", "collection_times": "Mo-Fr 11:30", "indoor": "yes", "nsi_id": "unitedstatespostalservice-a77078", "operator": "United States Postal Service", "operator:short": "USPS", "operator:type": "public", "operator:wikidata": "Q668687", "ref": "3847700003"}, "type": "Feature"}
{"geometry": {"coordinates": [-87.032443, 35.196941], "type": "Point"}, "id": "LJiNv71asDMAvC_n83a60je4JdU=", "properties": {"@source_uri": "https://tools.usps.com/UspsToolsRestServices/rest/POLocator/findLocations", "@spider": "usps_collection_boxes", "addr:city": "PULASKI", "addr:country": "US", "addr:postcode": "38478", "addr:state": "TN", "addr:street_address": "111 W COLLEGE ST", "amenity": "post_box", "collection_times": "Mo-Fr 16:30; Sa 12:00", "indoor": "yes", "note": "ON 12/24 AND 12/31, THIS BOX MAY BE COLLECTED AS EARLY AS 12 NOON.", "nsi_id": "unitedstatespostalservice-a77078", "operator": "United States Postal Service", "operator:short": "USPS", "operator:type": "public", "operator:wikidata": "Q668687", "ref": "3847800001"}, "type": "Feature"}
{"geometry": {"coordinates": [-87.032443, 35.19697], "type": "Point"}, "id": "EA6Ix9MoYAXyi_XRqMRNfZ1YDzY=", "properties": {"@source_uri": "https://tools.usps.com/UspsToolsRestServices/rest/POLocator/findLocations", "@spider": "usps_collection_boxes", "addr:city": "PULASKI", "addr:country": "US", "addr:postcode": "38478", "addr:state": "TN", "addr:street_address": "111 W COLLEGE ST", "amenity": "post_box", "collection_times": "Mo-Fr 15:30; Sa 12:00", "note": "ON 12/24 AND 12/31, THIS BOX MAY BE COLLECTED AS EARLY AS 12 NOON.", "nsi_id": "unitedstatespostalservice-a77078", "operator": "United States Postal Service", "operator:short": "USPS", "operator:type": "public", "operator:wikidata": "Q668687", "ref": "3847800004"}, "type": "Feature"}
{"geometry": {"coordinates": [-87.0307287, 35.199542], "type": "Point"}, "id": "sJhnDk6wS4A0FktZm2-rzwMpiRk=", "properties": {"@source_uri": "https://tools.usps.com/UspsToolsRestServices/rest/POLocator/findLocations", "@spider": "usps_collection_boxes", "addr:city": "PULASKI", "addr:country": "US", "addr:postcode": "38478", "addr:state": "TN", "addr:street_address": "119 N 1ST ST", "amenity": "post_box", "collection_times": "Mo-Fr 11:00; Sa 09:30", "nsi_id": "unitedstatespostalservice-a77078", "operator": "United States Postal Service", "operator:short": "USPS", "operator:type": "public", "operator:wikidata": "Q668687", "ref": "3847800010"}, "type": "Feature"}
{"geometry": {"coordinates": [-87.0319233, 35.199251], "type": "Point"}, "id": "s9MRtUEESyZxtGxT57GulHccH9w=", "properties": {"@source_uri": "https://tools.usps.com/UspsToolsRestServices/rest/POLocator/findLocations", "@spider": "usps_collection_boxes", "addr:city": "PULASKI", "addr:country": "US", "addr:postcode": "38478", "addr:state": "TN", "addr:street_address": "100 S 2ND ST", "amenity": "post_box", "collection_times": "Mo-Fr 12:00; Sa 11:30", "nsi_id": "unitedstatespostalservice-a77078", "operator": "United States Postal Service", "operator:short": "USPS", "operator:type": "public", "operator:wikidata": "Q668687", "ref": "3847800020"}, "type": "Feature"}
{"geometry": {"coordinates": [-87.0590718, 35.202537], "type": "Point"}, "id": "sWj58RHh4GDxEddz6T8msz_Gv3Q=", "properties": {"@source_uri": "https://tools.usps.com/UspsToolsRestServices/rest/POLocator/findLocations", "@spider": "usps_collection_boxes", "addr:city": "PULASKI", "addr:country": "US", "addr:postcode": "38478", "addr:state": "TN", "addr:street_address": "1655 W COLLEGE ST", "amenity": "post_box", "collection_times": "Mo-Fr 13:00; Sa 08:30", "note": "ON 12/24 AND 12/31, THIS BOX MAY BE COLLECTED AS EARLY AS 12 NOON.", "nsi_id": "unitedstatespostalservice-a77078", "operator": "United States Postal Service", "operator:short": "USPS", "operator:type": "public", "operator:wikidata": "Q668687", "ref": "3847800036"}, "type": "Feature"}
{"geometry": {"coordinates": [-87.032498031, 35.196768011], "type": "Point"}, "id": "O7g7Ni2zLBWDOtda1i_2t6xMC28=", "properties": {"@source_uri": "https://tools.usps.com/UspsToolsRestServices/rest/POLocator/findLocations", "@spider": "usps_collection_boxes", "addr:city": "PULASKI", "addr:country": "US", "addr:postcode": "38478", "addr:state": "TN", "addr:street_address": "111 W COLLEGE ST", "amenity": "post_box", "collection_times": "Mo-Fr 15:30", "indoor": "yes", "note": "ON 12/24 AND 12/31, THIS BOX MAY BE COLLECTED AS EARLY AS 12 NOON.", "nsi_id": "unitedstatespostalservice-a77078", "operator": "United States Postal Service", "operator:short": "USPS", "operator:type": "public", "operator:wikidata": "Q668687", "ref": "3847800038"}, "type": "Feature"}
{"geometry": {"coordinates": [-87.505426, 35.034972], "type": "Point"}, "id": "oEKMrbRx9xgY80vadrnIqO49Fx0=", "properties": {"@source_uri": "https://tools.usps.com/UspsToolsRestServices/rest/POLocator/findLocations", "@spider": "usps_collection_boxes", "addr:city": "SAINT JOSEPH", "addr:country": "US", "addr:postcode": "38481", "addr:state": "TN", "addr:street_address": "211 WALNUT AVE", "amenity": "post_box", "collection_times": "Mo-Fr 12:00; Sa 11:00", "indoor": "yes", "nsi_id": "unitedstatespostalservice-a77078", "operator": "United States Postal Service", "operator:short": "USPS", "operator:type": "public", "operator:wikidata": "Q668687", "ref": "3848100001"}, "type": "Feature"}
{"geometry": {"coordinates": [-87.505329, 35.034938], "type": "Point"}, "id": "4XUQsCvdbhiN1vMIzEmYhrcooSQ=", "properties": {"@source_uri": "https://tools.usps.com/UspsToolsRestServices/rest/POLocator/findLocations", "@spider": "usps_collection_boxes", "addr:city": "SAINT JOSEPH", "addr:country": "US", "addr:postcode": "38481", "addr:state": "TN", "addr:street_address": "211 WALNUT AVE", "amenity": "post_box", "collection_times": "Mo-Fr 12:00; Sa 11:00", "nsi_id": "unitedstatespostalservice-a77078", "operator": "United States Postal Service", "operator:short": "USPS", "operator:type": "public", "operator:wikidata": "Q668687", "ref": "3848100002"}, "type": "Feature"}
{"geometry": {"coordinates": [-87.50598403, 35.03511999], "type": "Point"}, "id": "ObCBTanHM3ai5vJFwhantHVyCaw=", "properties": {"@source_uri": "https://tools.usps.com/UspsToolsRestServices/rest/POLocator/findLocations", "@spider": "usps_collection_boxes", "addr:city": "SAINT JOSEPH", "addr:country": "US", "addr:postcode": "38481", "addr:state": "TN", "addr:street_address": "211 WALNUT AVE", "amenity": "post_box", "collection_times": "Mo-Fr 12:00", "indoor": "yes", "nsi_id": "unitedstatespostalservice-a77078", "operator": "United States Postal Service", "operator:short": "USPS", "operator:type": "public", "operator:wikidata": "Q668687", "ref": "3848100003"}, "type": "Feature"}
{"geometry": {"coordinates": [-87.129391, 35.72764], "type": "Point"}, "id": "TOJRhrXUFSeVcYFkWKi8_5zjG2I=", "properties": {"@source_uri": "https://tools.usps.com/UspsToolsRestServices/rest/POLocator/findLocations", "@spider": "usps_collection_boxes", "addr:city": "SANTA FE", "addr:country": "US", "addr:postcode": "38482", "addr:state": "TN", "addr:street_address": "2581 SANTA FE PIKE", "amenity": "post_box", "collection_times": "Mo-Sa 11:30", "nsi_id": "unitedstatespostalservice-a77078", "operator": "United States Postal Service", "operator:short": "USPS", "operator:type": "public", "operator:wikidata": "Q668687", "ref": "3848200001"}, "type": "Feature"}
{"geometry": {"coordinates": [-87.129399, 35.727696], "type": "Point"}, "id": "5Sy81XAXgzKlVMWq5lAS4aDuaII=", "properties": {"@source_uri": "https://tools.usps.com/UspsToolsRestServices/rest/POLocator/findLocations", "@spider": "usps_collection_boxes", "addr:city": "SANTA FE", "addr:country": "US", "addr:postcode": "38482", "addr:state": "TN", "addr:street_address": "2581 SANTA FE PIKE", "amenity": "post_box", "collection_times": "Mo-Sa 11:30", "indoor": "yes", "nsi_id": "unitedstatespostalservice-a77078", "operator": "United States Postal Service", "operator:short": "USPS", "operator:type": "public", "operator:wikidata": "Q668687", "ref": "3848200002"}, "type": "Feature"}
{"geometry": {"coordinates": [-87.304064, 35.435752], "type": "Point"}, "id": "X3Pyf6Ip8mYyHfXF5SmKtmt92RQ=", "properties": {"@source_uri": "https://tools.usps.com/UspsToolsRestServices/rest/POLocator/findLocations", "@spider": "usps_collection_boxes", "addr:city": "SUMMERTOWN", "addr:country": "US", "addr:postcode": "38483", "addr:state": "TN", "addr:street_address": "100 HIGHWAY 20", "amenity": "post_box", "collection_times": "Mo-Fr 15:30; Sa 11:00", "note": "ON 12/24 AND 12/31, THIS BOX MAY BE COLLECTED AS EARLY AS 12 NOON.", "nsi_id": "unitedstatespostalservice-a77078", "operator": "United States Postal Service", "operator:short": "USPS", "operator:type": "public", "operator:wikidata": "Q668687", "ref": "3848300001"}, "type": "Feature"}
{"geometry": {"coordinates": [-87.303961, 35.435794], "type": "Point"}, "id": "Txgslb6rx00GN5NoXAe-qPSreHA=", "properties": {"@source_uri": "https://tools.usps.com/UspsToolsRestServices/rest/POLocator/findLocations", "@spider": "usps_collection_boxes", "addr:city": "SUMMERTOWN", "addr:country": "US", "addr:postcode": "38483", "addr:state": "TN", "addr:street_address": "100 HIGHWAY 20", "amenity": "post_box", "collection_times": "Mo-Fr 15:30; Sa 11:00", "indoor": "yes", "note": "ON 12/24 AND 12/31, THIS BOX MAY BE COLLECTED AS EARLY AS 12 NOON.", "nsi_id": "unitedstatespostalservice-a77078", "operator": "United States Postal Service", "operator:short": "USPS", "operator:type": "public", "operator:wikidata": "Q668687", "ref": "3848300002"}, "type": "Feature"}
{"geometry": {"coordinates": [-87.287704872, 35.441115063], "type": "Point"}, "id": "pUwFCL49ofJu70e4wg0COJMBNQ0=", "properties": {"@source_uri": "https://tools.usps.com/UspsToolsRestServices/rest/POLocator/findLocations", "@spider": "usps_collection_boxes", "addr:city": "SUMMERTOWN", "addr:country": "US", "addr:postcode": "38483", "addr:state": "TN", "addr:street_address": "100 HIGHWAY 20", "amenity": "post_box", "collection_times": "Mo-Fr 15:30", "indoor": "yes", "note": "ON 12/24 AND 12/31, THIS BOX MAY BE COLLECTED AS EARLY AS 12 NOON.", "nsi_id": "unitedstatespostalservice-a77078", "operator": "United States Postal Service", "operator:short": "USPS", "operator:type": "public", "operator:wikidata": "Q668687", "ref": "3848300006"}, "type": "Feature"}
{"geometry": {"coordinates": [-87.763193, 35.313313], "type": "Point"}, "id": "iuipWiBJ8XSpEtEA35onicLlmYY=", "properties": {"@source_uri": "https://tools.usps.com/UspsToolsRestServices/rest/POLocator/findLocations", "@spider": "usps_collection_boxes", "addr:city": "WAYNESBORO", "addr:country": "US", "addr:postcode": "38485", "addr:state": "TN", "addr:street_address": "422 S MAIN ST", "amenity": "post_box", "collection_times": "Mo-Fr 16:00; Sa 12:00", "indoor": "yes", "note": "ON 12/24 AND 12/31, THIS BOX MAY BE COLLECTED AS EARLY AS 12 NOON.", "nsi_id": "unitedstatespostalservice-a77078", "operator": "United States Postal Service", "operator:short": "USPS", "operator:type": "public", "operator:wikidata": "Q668687", "ref": "3848500001"}, "type": "Feature"}
{"geometry": {"coordinates": [-87.763154, 35.31336], "type": "Point"}, "id": "ACQN8qbZWe_gFsHnKH_K3bFgRDI=", "properties": {"@source_uri": "https://tools.usps.com/UspsToolsRestServices/rest/POLocator/findLocations", "@spider": "usps_collection_boxes", "addr:city": "WAYNESBORO", "addr:country": "US", "addr:postcode": "38485", "addr:state": "TN", "addr:street_address": "422 S MAIN ST", "amenity": "post_box", "collection_times": "Mo-Fr 16:00; Sa 12:00", "note": "ON 12/24 AND 12/31, THIS BOX MAY BE COLLECTED AS EARLY AS 12 NOON.", "nsi_id": "unitedstatespostalservice-a77078", "operator": "United States Postal Service", "operator:short": "USPS", "operator:type": "public", "operator:wikidata": "Q668687", "ref": "3848500003"}, "type": "Feature"}
{"geometry": {"coordinates": [-87.7597218, 35.323393], "type": "Point"}, "id": "5RgGB7-BtQM5y-s5O_9GMxurC5Y=", "properties": {"@source_uri": "https://tools.usps.com/UspsToolsRestServices/rest/POLocator/findLocations", "@spider": "usps_collection_boxes", "addr:city": "WAYNESBORO", "addr:country": "US", "addr:postcode": "38485", "addr:state": "TN", "addr:street_address": "205 DEXTER L WOOD MEMORIAL DR", "amenity": "post_box", "collection_times": "Mo-Sa 11:00", "nsi_id": "unitedstatespostalservice-a77078", "operator": "United States Postal Service", "operator:short": "USPS", "operator:type": "public", "operator:wikidata": "Q668687", "ref": "3848500008"}, "type": "Feature"}
{"geometry": {"coordinates": [-87.763392562, 35.311978445], "type": "Point"}, "id": "MCGrTrZex4Qt2QamUxiMjf13YdI=", "properties": {"@source_uri": "https://tools.usps.com/UspsToolsRestServices/rest/POLocator/findLocations", "@spider": "usps_collection_boxes", "addr:city": "WAYNESBORO", "addr:country": "US", "addr:postcode": "38485", "addr:state": "TN", "addr:street_address": "422 S MAIN ST", "amenity": "post_box", "collection_times": "Mo-Fr 16:00", "indoor": "yes", "note": "ON 12/24 AND 12/31, THIS BOX MAY BE COLLECTED AS EARLY AS 12 NOON.", "nsi_id": "unitedstatespostalservice-a77078", "operator": "United States Postal Service", "operator:short": "USPS", "operator:type": "public", "operator:wikidata": "Q668687", "ref": "3848500010"}, "type": "Feature"}
{"geometry": {"coordinates": [-87.5337, 35.133093], "type": "Point"}, "id": "w5jk8ZV4B2yY4uMC63VzyVJ429E=", "properties": {"@source_uri": "https://tools.usps.com/UspsToolsRestServices/rest/POLocator/findLocations", "@spider": "usps_collection_boxes", "addr:city": "WESTPOINT", "addr:country": "US", "addr:postcode": "38486", "addr:state": "TN", "addr:street_address": "2023 TENNESSEE ST", "amenity": "post_box", "collection_times": "Mo-Fr 11:30; Sa 10:45", "nsi_id": "unitedstatespostalservice-a77078", "operator": "United States Postal Service", "operator:short": "USPS", "operator:type": "public", "operator:wikidata": "Q668687", "ref": "3848600001"}, "type": "Feature"}
{"geometry": {"coordinates": [-87.533587, 35.133112], "type": "Point"}, "id": "jCuHi9W0Q1EihHaq6kKYfl6v1co=", "properties": {"@source_uri": "https://tools.usps.com/UspsToolsRestServices/rest/POLocator/findLocations", "@spider": "usps_collection_boxes", "addr:city": "WESTPOINT", "addr:country": "US", "addr:postcode": "38486", "addr:state": "TN", "addr:street_address": "2023 TENNESSEE ST", "amenity": "post_box", "collection_times": "Mo-Fr 11:30; Sa 10:45", "indoor": "yes", "nsi_id": "unitedstatespostalservice-a77078", "operator": "United States Postal Service", "operator:short": "USPS", "operator:type": "public", "operator:wikidata": "Q668687", "ref": "3848600002"}, "type": "Feature"}
{"geometry": {"coordinates": [-87.5341971987, 35.1329232179], "type": "Point"}, "id": "NKiSf04vPgn8irbVvgEYMMKqi8M=", "properties": {"@source_uri": "https://tools.usps.com/UspsToolsRestServices/rest/POLocator/findLocations", "@spider": "usps_collection_boxes", "addr:city": "WESTPOINT", "addr:country": "US", "addr:postcode": "38486", "addr:state": "TN", "addr:street_address": "2023 TENNESSEE ST", "amenity": "post_box", "collection_times": "Mo-Fr 11:30", "indoor": "yes", "nsi_id": "unitedstatespostalservice-a77078", "operator": "United States Postal Service", "operator:short": "USPS", "operator:type": "public", "operator:wikidata": "Q668687", "ref": "3848600003"}, "type": "Feature"}
{"geometry": {"coordinates": [-87.219197, 35.686818], "type": "Point"}, "id": "TtPn1uCj694mciqUr-bNjt5PrKI=", "properties": {"@source_uri": "https://tools.usps.com/UspsToolsRestServices/rest/POLocator/findLocations", "@spider": "usps_collection_boxes", "addr:city": "WILLIAMSPORT", "addr:country": "US", "addr:postcode": "38487", "addr:state": "TN", "addr:street_address": "3568 WILLIAMSPORT PIKE", "amenity": "post_box", "collection_times": "Mo-Fr 14:45; Sa 10:30", "indoor": "yes", "note": "ON 12/24 AND 12/31, THIS BOX MAY BE COLLECTED AS EARLY AS 12 NOON.", "nsi_id": "unitedstatespostalservice-a77078", "operator": "United States Postal Service", "operator:short": "USPS", "operator:type": "public", "operator:wikidata": "Q668687", "ref": "3848700001"}, "type": "Feature"}
{"geometry": {"coordinates": [-87.219273, 35.686856], "type": "Point"}, "id": "WeepaqjYcbsJQNuyxWpUtif3jiU=", "properties": {"@source_uri": "https://tools.usps.com/UspsToolsRestServices/rest/POLocator/findLocations", "@spider": "usps_collection_boxes", "addr:city": "WILLIAMSPORT", "addr:country": "US", "addr:postcode": "38487", "addr:state": "TN", "addr:street_address": "3568 WILLIAMSPORT PIKE", "amenity": "post_box", "collection_times": "Mo-Fr 14:45; Sa 10:30", "note": "ON 12/24 AND 12/31, THIS BOX MAY BE COLLECTED AS EARLY AS 12 NOON.", "nsi_id": "unitedstatespostalservice-a77078", "operator": "United States Postal Service", "operator:short": "USPS", "operator:type": "public", "operator:wikidata": "Q668687", "ref": "3848700002"}, "type": "Feature"}
{"geometry": {"coordinates": [-87.2191987134, 35.6868594845], "type": "Point"}, "id": "VieBO6hdI_svno-Yx_NzblcLMyw=", "properties": {"@source_uri": "https://tools.usps.com/UspsToolsRestServices/rest/POLocator/findLocations", "@spider": "usps_collection_boxes", "addr:city": "WILLIAMSPORT", "addr:country": "US", "addr:postcode": "38487", "addr:state": "TN", "addr:street_address": "3568 WILLIAMSPORT PIKE", "amenity": "post_box", "collection_times": "Mo-Fr 14:45", "indoor": "yes", "note": "ON 12/24 AND 12/31, THIS BOX MAY BE COLLECTED AS EARLY AS 12 NOON.", "nsi_id": "unitedstatespostalservice-a77078", "operator": "United States Postal Service", "operator:short": "USPS", "operator:type": "public", "operator:wikidata": "Q668687", "ref": "3848700003"}, "type": "Feature"}
{"geometry": {"coordinates": [-86.71807, 35.021025], "type": "Point"}, "id": "hcRiAkQ0KfNVluQaGYznulFZq1k=", "properties": {"@source_uri": "https://tools.usps.com/UspsToolsRestServices/rest/POLocator/findLocations", "@spider": "usps_collection_boxes", "addr:city": "TAFT", "addr:country": "US", "addr:postcode": "38488", "addr:state": "TN", "addr:street_address": "1111 OLD RAILROAD BED RD", "amenity": "post_box", "collection_times": "Mo-Fr 16:00; Sa 10:00", "indoor": "yes", "note": "ON 12/24 AND 12/31, THIS BOX MAY BE COLLECTED AS EARLY AS 12 NOON.", "nsi_id": "unitedstatespostalservice-a77078", "operator": "United States Postal Service", "operator:short": "USPS", "operator:type": "public", "operator:wikidata": "Q668687", "ref": "3848800001"}, "type": "Feature"}
{"geometry": {"coordinates": [-86.718048, 35.020961], "type": "Point"}, "id": "TypNmZmXup_YFmlU-0WINAyAajY=", "properties": {"@source_uri": "https://tools.usps.com/UspsToolsRestServices/rest/POLocator/findLocations", "@spider": "usps_collection_boxes", "addr:city": "TAFT", "addr:country": "US", "addr:postcode": "38488", "addr:state": "TN", "addr:street_address": "1111 OLD RAILROAD BED RD", "amenity": "post_box", "collection_times": "Mo-Fr 16:00; Sa 10:00", "note": "ON 12/24 AND 12/31, THIS BOX MAY BE COLLECTED AS EARLY AS 12 NOON.", "nsi_id": "unitedstatespostalservice-a77078", "operator": "United States Postal Service", "operator:short": "USPS", "operator:type": "public", "operator:wikidata": "Q668687", "ref": "3848800002"}, "type": "Feature"}
{"geometry": {"coordinates": [-86.718065373, 35.0210363361], "type": "Point"}, "id": "TxnYAj5-eUejp53x1kTAcIUtSrU=", "properties": {"@source_uri": "https://tools.usps.com/UspsToolsRestServices/rest/POLocator/findLocations", "@spider": "usps_collection_boxes", "addr:city": "TAFT", "addr:country": "US", "addr:postcode": "38488", "addr:state": "TN", "addr:street_address": "1111 OLD RAILROAD BED RD", "amenity": "post_box", "collection_times": "Mo-Fr 16:00", "indoor": "yes", "note": "ON 12/24 AND 12/31, THIS BOX MAY BE COLLECTED AS EARLY AS 12 NOON.", "nsi_id": "unitedstatespostalservice-a77078", "operator": "United States Postal Service", "operator:short": "USPS", "operator:type": "public", "operator:wikidata": "Q668687", "ref": "3848800003"}, "type": "Feature"}
