{"geometry": {"coordinates": [-86.022834, 36.118019], "type": "Point"}, "id": "OjWZKtufetu2EloyTSbvFIMxWAc=", "properties": {"@spider": "usps_collection_boxes", "addr:city": "BRUSH CREEK", "addr:country": "US", "addr:full": "407 ALEXANDRIA HWY", "addr:postcode": "38547", "addr:state": "TN", "brand": "USPS", "collection_times": "Mo-Fr 14:00; Sa 10:45", "name": "USPS COLLECTION BOX - PO LOBBY", "note": "ON 12/24 AND 12/31, THIS BOX MAY BE COLLECTED AS EARLY AS 12 NOON.", "ref": "3854700001"}, "type": "Feature"}
{"geometry": {"coordinates": [-86.022866, 36.118011], "type": "Point"}, "id": "o7guoLZdsTCYtCM-NfqRWxaN75c=", "properties": {"@spider": "usps_collection_boxes", "addr:city": "BRUSH CREEK", "addr:country": "US", "addr:full": "407 ALEXANDRIA HWY", "addr:postcode": "38547", "addr:state": "TN", "brand": "USPS", "collection_times": "Mo-Fr 14:00; Sa 10:45", "name": "USPS COLLECTION BOX - BLUE BOX", "note": "ON 12/24 AND 12/31, THIS BOX MAY BE COLLECTED AS EARLY AS 12 NOON.", "ref": "3854700002"}, "type": "Feature"}
{"geometry": {"coordinates": [-86.022866, 36.118011], "type": "Point"}, "id": "gpoYPtAzG9Asp-pvvBl3bsWYQcA=", "properties": {"@spider": "usps_collection_boxes", "addr:city": "BRUSH CREEK", "addr:country": "US", "addr:full": "407 ALEXANDRIA HWY", "addr:postcode": "38547", "addr:state": "TN", "brand": "USPS", "collection_times": "Mo-Fr 14:00; Sa 10:45", "name": "USPS COLLECTION BOX - PO LOBBY", "note": "ON 12/24 AND 12/31, THIS BOX MAY BE COLLECTED AS EARLY AS 12 NOON.", "ref": "3854700003"}, "type": "Feature"}
{"geometry": {"coordinates": [-85.703269, 36.596801], "type": "Point"}, "id": "T3gxNBWUIKfNn_ZGpKt2BP9gN2w=", "properties": {"@spider": "usps_collection_boxes", "addr:city": "MOSS", "addr:country": "US", "addr:full": "3100 CLAY COUNTY HWY", "addr:postcode": "38575", "addr:state": "TN", "brand": "USPS", "collection_times": "Mo-Fr 11:30; Sa 10:30", "name": "USPS COLLECTION BOX - PO LOBBY", "ref": "3857500001"}, "type": "Feature"}
{"geometry": {"coordinates": [-85.703269, 36.596801], "type": "Point"}, "id": "lc05bBELeBCap_LlFRfZVlfX3uw=", "properties": {"@spider": "usps_collection_boxes", "addr:city": "MOSS", "addr:country": "US", "addr:full": "3100 CLAY CO HWY", "addr:postcode": "38575", "addr:state": "TN", "brand": "USPS", "collection_times": "Mo-Fr 11:30; Sa 10:30", "name": "USPS COLLECTION BOX - BLUE BOX", "ref": "3857500002"}, "type": "Feature"}
