{"geometry": {"coordinates": [-89.501332256, 34.503048747], "type": "Point"}, "id": "DTvqGDoDvAEvGpwLsoPkjSMM38Y=", "properties": {"@source_uri": "https://tools.usps.com/UspsToolsRestServices/rest/POLocator/findLocations", "@spider": "usps_collection_boxes", "addr:city": "ABBEVILLE", "addr:country": "US", "addr:postcode": "38601", "addr:state": "MS", "addr:street_address": "8 E LONG ST", "amenity": "post_box", "collection_times": "Mo-Fr 14:30; Sa 10:30", "indoor": "yes", "note": "ON 12/24 AND 12/31, THIS BOX MAY BE COLLECTED AS EARLY AS 12 NOON.", "nsi_id": "unitedstatespostalservice-a77078", "operator": "United States Postal Service", "operator:short": "USPS", "operator:type": "public", "operator:wikidata": "Q668687", "ref": "3860100002"}, "type": "Feature"}
{"geometry": {"coordinates": [-89.501332256, 34.503048747], "type": "Point"}, "id": "JNBGOOHZ12OuuwkvsvtSzNlkfkE=", "properties": {"@source_uri": "https://tools.usps.com/UspsToolsRestServices/rest/POLocator/findLocations", "@spider": "usps_collection_boxes", "addr:city": "ABBEVILLE", "addr:country": "US", "addr:postcode": "38601", "addr:state": "MS", "addr:street_address": "8 E LONG ST", "amenity": "post_box", "collection_times": "Mo-Fr 14:30; Sa 10:30", "indoor": "yes", "note": "ON 12/24 AND 12/31, THIS BOX MAY BE COLLECTED AS EARLY AS 12 NOON.", "nsi_id": "unitedstatespostalservice-a77078", "operator": "United States Postal Service", "operator:short": "USPS", "operator:type": "public", "operator:wikidata": "Q668687", "ref": "3860100004"}, "type": "Feature"}
{"geometry": {"coordinates": [-89.501332256, 34.503048747], "type": "Point"}, "id": "NrS-07W2kNEh413YYlldAesENGM=", "properties": {"@source_uri": "https://tools.usps.com/UspsToolsRestServices/rest/POLocator/findLocations", "@spider": "usps_collection_boxes", "addr:city": "ABBEVILLE", "addr:country": "US", "addr:postcode": "38601", "addr:state": "MS", "addr:street_address": "8 E LONG ST", "amenity": "post_box", "collection_times": "Mo-Fr 14:30; Sa 10:30", "indoor": "yes", "note": "ON 12/24 AND 12/31, THIS BOX MAY BE COLLECTED AS EARLY AS 12 NOON.", "nsi_id": "unitedstatespostalservice-a77078", "operator": "United States Postal Service", "operator:short": "USPS", "operator:type": "public", "operator:wikidata": "Q668687", "ref": "3860100005"}, "type": "Feature"}
{"geometry": {"coordinates": [-90.122983606, 34.698492622], "type": "Point"}, "id": "98pzOx8WfimZW8fJ1RybsqfZFwI=", "properties": {"@source_uri": "https://tools.usps.com/UspsToolsRestServices/rest/POLocator/findLocations", "@spider": "usps_collection_boxes", "addr:city": "ARKABUTLA", "addr:country": "US", "addr:postcode": "38602", "addr:state": "MS", "addr:street_address": "8294 ARKABUTLA RD", "amenity": "post_box", "collection_times": "Mo-Fr 12:30; Sa 12:00", "note": "ON 12/24 AND 12/31, THIS BOX MAY BE COLLECTED AS EARLY AS 12 NOON.", "nsi_id": "unitedstatespostalservice-a77078", "operator": "United States Postal Service", "operator:short": "USPS", "operator:type": "public", "operator:wikidata": "Q668687", "ref": "3860200001"}, "type": "Feature"}
{"geometry": {"coordinates": [-90.122983606, 34.698492622], "type": "Point"}, "id": "XoeXd4jjmjdHUWWmpd7lxL4nVp0=", "properties": {"@source_uri": "https://tools.usps.com/UspsToolsRestServices/rest/POLocator/findLocations", "@spider": "usps_collection_boxes", "addr:city": "ARKABUTLA", "addr:country": "US", "addr:postcode": "38602", "addr:state": "MS", "addr:street_address": "8294 ARKABUTLA RD", "amenity": "post_box", "collection_times": "Mo-Fr 12:30; Sa 12:00", "indoor": "yes", "note": "ON 12/24 AND 12/31, THIS BOX MAY BE COLLECTED AS EARLY AS 12 NOON.", "nsi_id": "unitedstatespostalservice-a77078", "operator": "United States Postal Service", "operator:short": "USPS", "operator:type": "public", "operator:wikidata": "Q668687", "ref": "3860200002"}, "type": "Feature"}
{"geometry": {"coordinates": [-90.122983606, 34.698492622], "type": "Point"}, "id": "gVqpdEr1QptuwKQ_D5W5KE3mtH8=", "properties": {"@source_uri": "https://tools.usps.com/UspsToolsRestServices/rest/POLocator/findLocations", "@spider": "usps_collection_boxes", "addr:city": "ARKABUTLA", "addr:country": "US", "addr:postcode": "38602", "addr:state": "MS", "addr:street_address": "8294 ARKABUTLA RD", "amenity": "post_box", "collection_times": "Mo-Fr 12:30; Sa 12:00", "indoor": "yes", "note": "ON 12/24 AND 12/31, THIS BOX MAY BE COLLECTED AS EARLY AS 12 NOON.", "nsi_id": "unitedstatespostalservice-a77078", "operator": "United States Postal Service", "operator:short": "USPS", "operator:type": "public", "operator:wikidata": "Q668687", "ref": "3860200003"}, "type": "Feature"}
{"geometry": {"coordinates": [-89.188994757, 34.829820781], "type": "Point"}, "id": "w5TjcbEcrOE7zE6tk9xWLLLhHYw=", "properties": {"@source_uri": "https://tools.usps.com/UspsToolsRestServices/rest/POLocator/findLocations", "@spider": "usps_collection_boxes", "addr:city": "ASHLAND", "addr:country": "US", "addr:postcode": "38603", "addr:state": "MS", "addr:street_address": "16010 BOUNDARY DR", "amenity": "post_box", "collection_times": "Mo-Fr 16:30; Sa 11:00", "note": "ON 12/24 AND 12/31, THIS BOX MAY BE COLLECTED AS EARLY AS 12 NOON.", "nsi_id": "unitedstatespostalservice-a77078", "operator": "United States Postal Service", "operator:short": "USPS", "operator:type": "public", "operator:wikidata": "Q668687", "ref": "3860300002"}, "type": "Feature"}
{"geometry": {"coordinates": [-89.188994757, 34.829820781], "type": "Point"}, "id": "GvXdOW4JVCFO0R3Gy5_10doESec=", "properties": {"@source_uri": "https://tools.usps.com/UspsToolsRestServices/rest/POLocator/findLocations", "@spider": "usps_collection_boxes", "addr:city": "ASHLAND", "addr:country": "US", "addr:postcode": "38603", "addr:state": "MS", "addr:street_address": "16010 BOUNDARY DR", "amenity": "post_box", "collection_times": "Mo-Fr 16:30; Sa 11:00", "indoor": "yes", "note": "ON 12/24 AND 12/31, THIS BOX MAY BE COLLECTED AS EARLY AS 12 NOON.", "nsi_id": "unitedstatespostalservice-a77078", "operator": "United States Postal Service", "operator:short": "USPS", "operator:type": "public", "operator:wikidata": "Q668687", "ref": "3860300003"}, "type": "Feature"}
{"geometry": {"coordinates": [-89.188994757, 34.829820781], "type": "Point"}, "id": "G10PIYuft4UFKcFunVTjJV6kEg0=", "properties": {"@source_uri": "https://tools.usps.com/UspsToolsRestServices/rest/POLocator/findLocations", "@spider": "usps_collection_boxes", "addr:city": "ASHLAND", "addr:country": "US", "addr:postcode": "38603", "addr:state": "MS", "addr:street_address": "16010 BOUNDARY DR", "amenity": "post_box", "collection_times": "Mo-Fr 16:30; Sa 10:30", "indoor": "yes", "note": "ON 12/24 AND 12/31, THIS BOX MAY BE COLLECTED AS EARLY AS 12 NOON.", "nsi_id": "unitedstatespostalservice-a77078", "operator": "United States Postal Service", "operator:short": "USPS", "operator:type": "public", "operator:wikidata": "Q668687", "ref": "3860300008"}, "type": "Feature"}
{"geometry": {"coordinates": [-89.919405608, 34.315522085], "type": "Point"}, "id": "d6t49K8t-gsaxUPZS9mZrQw7vAs=", "properties": {"@source_uri": "https://tools.usps.com/UspsToolsRestServices/rest/POLocator/findLocations", "@spider": "usps_collection_boxes", "addr:city": "BATESVILLE", "addr:country": "US", "addr:postcode": "38606", "addr:state": "MS", "addr:street_address": "375 LAKEWOOD DR", "amenity": "post_box", "collection_times": "Mo-Fr 16:15; Sa 15:00", "note": "ON 12/24 AND 12/31, THIS BOX MAY BE COLLECTED AS EARLY AS 12 NOON.", "nsi_id": "unitedstatespostalservice-a77078", "operator": "United States Postal Service", "operator:short": "USPS", "operator:type": "public", "operator:wikidata": "Q668687", "ref": "3860600001"}, "type": "Feature"}
{"geometry": {"coordinates": [-89.919405608, 34.315522085], "type": "Point"}, "id": "_YPdPPkG7YzTXUzQ5LrE0Dy1FaY=", "properties": {"@source_uri": "https://tools.usps.com/UspsToolsRestServices/rest/POLocator/findLocations", "@spider": "usps_collection_boxes", "addr:city": "BATESVILLE", "addr:country": "US", "addr:postcode": "38606", "addr:state": "MS", "addr:street_address": "375 LAKEWOOD DR", "amenity": "post_box", "collection_times": "Mo-Fr 16:30; Sa 15:00", "indoor": "yes", "note": "ON 12/24 AND 12/31, THIS BOX MAY BE COLLECTED AS EARLY AS 12 NOON.", "nsi_id": "unitedstatespostalservice-a77078", "operator": "United States Postal Service", "operator:short": "USPS", "operator:type": "public", "operator:wikidata": "Q668687", "ref": "3860600008"}, "type": "Feature"}
{"geometry": {"coordinates": [-89.9516089679, 34.3163899818], "type": "Point"}, "id": "ScsfEYfnGvBi9jD571-DmTRDYck=", "properties": {"@source_uri": "https://tools.usps.com/UspsToolsRestServices/rest/POLocator/findLocations", "@spider": "usps_collection_boxes", "addr:city": "BATESVILLE", "addr:country": "US", "addr:postcode": "38606", "addr:state": "MS", "addr:street_address": "100 PUBLIC SQ", "amenity": "post_box", "collection_times": "Mo-Fr 15:00; Sa 13:30", "note": "ON 12/24 AND 12/31, THIS BOX MAY BE COLLECTED AS EARLY AS 12 NOON.", "nsi_id": "unitedstatespostalservice-a77078", "operator": "United States Postal Service", "operator:short": "USPS", "operator:type": "public", "operator:wikidata": "Q668687", "ref": "3860600011"}, "type": "Feature"}
{"geometry": {"coordinates": [-89.919405608, 34.315522085], "type": "Point"}, "id": "bJmaK7Ls9p42Z_HRzKnq-i9ctk4=", "properties": {"@source_uri": "https://tools.usps.com/UspsToolsRestServices/rest/POLocator/findLocations", "@spider": "usps_collection_boxes", "addr:city": "BATESVILLE", "addr:country": "US", "addr:postcode": "38606", "addr:state": "MS", "addr:street_address": "375 LAKEWOOD DR", "amenity": "post_box", "collection_times": "Mo-Fr 16:30; Sa 12:00", "indoor": "yes", "note": "ON 12/24 AND 12/31, THIS BOX MAY BE COLLECTED AS EARLY AS 12 NOON.", "nsi_id": "unitedstatespostalservice-a77078", "operator": "United States Postal Service", "operator:short": "USPS", "operator:type": "public", "operator:wikidata": "Q668687", "ref": "3860600015"}, "type": "Feature"}
{"geometry": {"coordinates": [-89.025089987, 34.67328002], "type": "Point"}, "id": "YLXvQBx-puTW-1lN8waO1iiRi6I=", "properties": {"@source_uri": "https://tools.usps.com/UspsToolsRestServices/rest/POLocator/findLocations", "@spider": "usps_collection_boxes", "addr:city": "BLUE MOUNTAIN", "addr:country": "US", "addr:postcode": "38610", "addr:state": "MS", "addr:street_address": "120 N GUYTON BLVD", "amenity": "post_box", "collection_times": "Mo-Fr 16:15; Sa 11:15", "note": "ON 12/24 AND 12/31, THIS BOX MAY BE COLLECTED AS EARLY AS 12 NOON.", "nsi_id": "unitedstatespostalservice-a77078", "operator": "United States Postal Service", "operator:short": "USPS", "operator:type": "public", "operator:wikidata": "Q668687", "ref": "3861000001"}, "type": "Feature"}
{"geometry": {"coordinates": [-89.025089987, 34.67328002], "type": "Point"}, "id": "icmk6Xojghu_yW-yNnxwgkiiPiQ=", "properties": {"@source_uri": "https://tools.usps.com/UspsToolsRestServices/rest/POLocator/findLocations", "@spider": "usps_collection_boxes", "addr:city": "BLUE MOUNTAIN", "addr:country": "US", "addr:postcode": "38610", "addr:state": "MS", "addr:street_address": "120 N GUYTON BLVD", "amenity": "post_box", "collection_times": "Mo-Fr 16:15; Sa 11:15", "indoor": "yes", "note": "ON 12/24 AND 12/31, THIS BOX MAY BE COLLECTED AS EARLY AS 12 NOON.", "nsi_id": "unitedstatespostalservice-a77078", "operator": "United States Postal Service", "operator:short": "USPS", "operator:type": "public", "operator:wikidata": "Q668687", "ref": "3861000002"}, "type": "Feature"}
{"geometry": {"coordinates": [-89.025089987, 34.67328002], "type": "Point"}, "id": "v6IBRPY6oiIS7dBJQCd9QLNKd9w=", "properties": {"@source_uri": "https://tools.usps.com/UspsToolsRestServices/rest/POLocator/findLocations", "@spider": "usps_collection_boxes", "addr:city": "BLUE MOUNTAIN", "addr:country": "US", "addr:postcode": "38610", "addr:state": "MS", "addr:street_address": "120 N GUYTON BLVD", "amenity": "post_box", "collection_times": "Mo-Fr 16:30; Sa 11:00", "indoor": "yes", "note": "ON 12/24 AND 12/31, THIS BOX MAY BE COLLECTED AS EARLY AS 12 NOON.", "nsi_id": "unitedstatespostalservice-a77078", "operator": "United States Postal Service", "operator:short": "USPS", "operator:type": "public", "operator:wikidata": "Q668687", "ref": "3861000005"}, "type": "Feature"}
{"geometry": {"coordinates": [-89.686290024, 34.872069627], "type": "Point"}, "id": "ys2FS4EZhMIG3YEdIxq0ocGIdKg=", "properties": {"@source_uri": "https://tools.usps.com/UspsToolsRestServices/rest/POLocator/findLocations", "@spider": "usps_collection_boxes", "addr:city": "BYHALIA", "addr:country": "US", "addr:postcode": "38611", "addr:state": "MS", "addr:street_address": "8140 HIGHWAY 178", "amenity": "post_box", "collection_times": "Mo-Fr 16:15; Sa 11:45", "note": "ON 12/24 AND 12/31, THIS BOX MAY BE COLLECTED AS EARLY AS 12 NOON.", "nsi_id": "unitedstatespostalservice-a77078", "operator": "United States Postal Service", "operator:short": "USPS", "operator:type": "public", "operator:wikidata": "Q668687", "ref": "3861100001"}, "type": "Feature"}
{"geometry": {"coordinates": [-89.686290024, 34.872069627], "type": "Point"}, "id": "Bo01RrprWQ1EGdzO--F_zQyIx94=", "properties": {"@source_uri": "https://tools.usps.com/UspsToolsRestServices/rest/POLocator/findLocations", "@spider": "usps_collection_boxes", "addr:city": "BYHALIA", "addr:country": "US", "addr:postcode": "38611", "addr:state": "MS", "addr:street_address": "8140 HIGHWAY 178", "amenity": "post_box", "collection_times": "Mo-Fr 16:15; Sa 11:45", "indoor": "yes", "note": "ON 12/24 AND 12/31, THIS BOX MAY BE COLLECTED AS EARLY AS 12 NOON.", "nsi_id": "unitedstatespostalservice-a77078", "operator": "United States Postal Service", "operator:short": "USPS", "operator:type": "public", "operator:wikidata": "Q668687", "ref": "3861100002"}, "type": "Feature"}
{"geometry": {"coordinates": [-90.575468631, 34.204900579], "type": "Point"}, "id": "DCBUXsGvj-YcPgj3zpTmTHhGlmM=", "properties": {"@source_uri": "https://tools.usps.com/UspsToolsRestServices/rest/POLocator/findLocations", "@spider": "usps_collection_boxes", "addr:city": "CLARKSDALE", "addr:country": "US", "addr:postcode": "38614", "addr:state": "MS", "addr:street_address": "102 COURT ST", "amenity": "post_box", "collection_times": "Mo-Fr 15:00", "note": "ON 12/24 AND 12/31, THIS BOX MAY BE COLLECTED AS EARLY AS 12 NOON.", "nsi_id": "unitedstatespostalservice-a77078", "operator": "United States Postal Service", "operator:short": "USPS", "operator:type": "public", "operator:wikidata": "Q668687", "ref": "3861400004"}, "type": "Feature"}
{"geometry": {"coordinates": [-90.571080936, 34.202782272], "type": "Point"}, "id": "i9bNtjyVbfOdxBudyRqFoM_C_qc=", "properties": {"@source_uri": "https://tools.usps.com/UspsToolsRestServices/rest/POLocator/findLocations", "@spider": "usps_collection_boxes", "addr:city": "CLARKSDALE", "addr:country": "US", "addr:postcode": "38614", "addr:state": "MS", "addr:street_address": "236 SHARKEY AVE", "amenity": "post_box", "collection_times": "Mo-Fr 17:00; Sa 15:00", "note": "ON 12/24 AND 12/31, THIS BOX MAY BE COLLECTED AS EARLY AS 12 NOON.", "nsi_id": "unitedstatespostalservice-a77078", "operator": "United States Postal Service", "operator:short": "USPS", "operator:type": "public", "operator:wikidata": "Q668687", "ref": "3861400016"}, "type": "Feature"}
{"geometry": {"coordinates": [-90.57851003, 34.188289984], "type": "Point"}, "id": "5XTdcptm2vshkxgbxn6Q5d7ZlKc=", "properties": {"@source_uri": "https://tools.usps.com/UspsToolsRestServices/rest/POLocator/findLocations", "@spider": "usps_collection_boxes", "addr:city": "CLARKSDALE", "addr:country": "US", "addr:postcode": "38614", "addr:state": "MS", "addr:street_address": "620 S STATE ST", "amenity": "post_box", "collection_times": "Mo-Fr 15:00", "note": "ON 12/24 AND 12/31, THIS BOX MAY BE COLLECTED AS EARLY AS 12 NOON.", "nsi_id": "unitedstatespostalservice-a77078", "operator": "United States Postal Service", "operator:short": "USPS", "operator:type": "public", "operator:wikidata": "Q668687", "ref": "3861400018"}, "type": "Feature"}
{"geometry": {"coordinates": [-90.576216539, 34.203465462], "type": "Point"}, "id": "L2Xy6KtLKkII8vQ0N3gVNB-kcpQ=", "properties": {"@source_uri": "https://tools.usps.com/UspsToolsRestServices/rest/POLocator/findLocations", "@spider": "usps_collection_boxes", "addr:city": "CLARKSDALE", "addr:country": "US", "addr:postcode": "38614", "addr:state": "MS", "addr:street_address": "121 SUNFLOWER AVE", "amenity": "post_box", "collection_times": "Mo-Fr 15:00", "note": "ON 12/24 AND 12/31, THIS BOX MAY BE COLLECTED AS EARLY AS 12 NOON.", "nsi_id": "unitedstatespostalservice-a77078", "operator": "United States Postal Service", "operator:short": "USPS", "operator:type": "public", "operator:wikidata": "Q668687", "ref": "3861400021"}, "type": "Feature"}
{"geometry": {"coordinates": [-90.606397173, 34.197254335], "type": "Point"}, "id": "eqShkvPWXyf_0lWW3iKmYom3U-0=", "properties": {"@source_uri": "https://tools.usps.com/UspsToolsRestServices/rest/POLocator/findLocations", "@spider": "usps_collection_boxes", "addr:city": "CLARKSDALE", "addr:country": "US", "addr:postcode": "38614", "addr:state": "MS", "addr:street_address": "1015 LEE DR", "amenity": "post_box", "collection_times": "Mo-Fr 15:00", "note": "ON 12/24 AND 12/31, THIS BOX MAY BE COLLECTED AS EARLY AS 12 NOON.", "nsi_id": "unitedstatespostalservice-a77078", "operator": "United States Postal Service", "operator:short": "USPS", "operator:type": "public", "operator:wikidata": "Q668687", "ref": "3861400022"}, "type": "Feature"}
{"geometry": {"coordinates": [-90.550140719, 34.202215606], "type": "Point"}, "id": "ZmcAQo3tf5sK-02ZL1XnvCvcYGU=", "properties": {"@source_uri": "https://tools.usps.com/UspsToolsRestServices/rest/POLocator/findLocations", "@spider": "usps_collection_boxes", "addr:city": "CLARKSDALE", "addr:country": "US", "addr:postcode": "38614", "addr:state": "MS", "addr:street_address": "785 OHIO AVE", "amenity": "post_box", "collection_times": "Mo-Fr 11:00", "nsi_id": "unitedstatespostalservice-a77078", "operator": "United States Postal Service", "operator:short": "USPS", "operator:type": "public", "operator:wikidata": "Q668687", "ref": "3861400029"}, "type": "Feature"}
{"geometry": {"coordinates": [-90.571080936, 34.202782272], "type": "Point"}, "id": "1AJzDvqmWxk7XYrGLQuoUaGSxpk=", "properties": {"@source_uri": "https://tools.usps.com/UspsToolsRestServices/rest/POLocator/findLocations", "@spider": "usps_collection_boxes", "addr:city": "CLARKSDALE", "addr:country": "US", "addr:postcode": "38614", "addr:state": "MS", "addr:street_address": "236 SHARKEY AVE", "amenity": "post_box", "collection_times": "Mo-Fr 17:00; Sa 15:00", "indoor": "yes", "note": "ON 12/24 AND 12/31, THIS BOX MAY BE COLLECTED AS EARLY AS 12 NOON.", "nsi_id": "unitedstatespostalservice-a77078", "operator": "United States Postal Service", "operator:short": "USPS", "operator:type": "public", "operator:wikidata": "Q668687", "ref": "3861400041"}, "type": "Feature"}
{"geometry": {"coordinates": [-90.571080936, 34.202782272], "type": "Point"}, "id": "cK4rvlfXWtw5ughmblW3eLuArSc=", "properties": {"@source_uri": "https://tools.usps.com/UspsToolsRestServices/rest/POLocator/findLocations", "@spider": "usps_collection_boxes", "addr:city": "CLARKSDALE", "addr:country": "US", "addr:postcode": "38614", "addr:state": "MS", "addr:street_address": "236 SHARKEY AVE", "amenity": "post_box", "collection_times": "Mo-Fr 17:00; Sa 11:30", "indoor": "yes", "note": "ON 12/24 AND 12/31, THIS BOX MAY BE COLLECTED AS EARLY AS 12 NOON.", "nsi_id": "unitedstatespostalservice-a77078", "operator": "United States Postal Service", "operator:short": "USPS", "operator:type": "public", "operator:wikidata": "Q668687", "ref": "3861400045"}, "type": "Feature"}
{"geometry": {"coordinates": [-90.522933674, 34.369532298], "type": "Point"}, "id": "YpbSQitCuFQSKND9p6yNiNMtBnc=", "properties": {"@source_uri": "https://tools.usps.com/UspsToolsRestServices/rest/POLocator/findLocations", "@spider": "usps_collection_boxes", "addr:city": "COAHOMA", "addr:country": "US", "addr:postcode": "38617", "addr:state": "MS", "addr:street_address": "100 W WALNUT ST", "amenity": "post_box", "collection_times": "Mo-Fr 12:20; Sa 09:45", "indoor": "yes", "note": "ON 12/24 AND 12/31, THIS BOX MAY BE COLLECTED AS EARLY AS 12 NOON.", "nsi_id": "unitedstatespostalservice-a77078", "operator": "United States Postal Service", "operator:short": "USPS", "operator:type": "public", "operator:wikidata": "Q668687", "ref": "3861700003"}, "type": "Feature"}
{"geometry": {"coordinates": [-90.522933674, 34.369532298], "type": "Point"}, "id": "Mj7v9SfzpiruUl8HiZEhJQVI4uM=", "properties": {"@source_uri": "https://tools.usps.com/UspsToolsRestServices/rest/POLocator/findLocations", "@spider": "usps_collection_boxes", "addr:city": "COAHOMA", "addr:country": "US", "addr:postcode": "38617", "addr:state": "MS", "addr:street_address": "100 W WALNUT ST", "amenity": "post_box", "collection_times": "Mo-Fr 12:30; Sa 09:45", "note": "ON 12/24 AND 12/31, THIS BOX MAY BE COLLECTED AS EARLY AS 12 NOON.", "nsi_id": "unitedstatespostalservice-a77078", "operator": "United States Postal Service", "operator:short": "USPS", "operator:type": "public", "operator:wikidata": "Q668687", "ref": "3861700004"}, "type": "Feature"}
{"geometry": {"coordinates": [-90.522933674, 34.369532298], "type": "Point"}, "id": "kfQojNd5xeytGeQCRkI0ESHRV4E=", "properties": {"@source_uri": "https://tools.usps.com/UspsToolsRestServices/rest/POLocator/findLocations", "@spider": "usps_collection_boxes", "addr:city": "COAHOMA", "addr:country": "US", "addr:postcode": "38617", "addr:state": "MS", "addr:street_address": "100 W WALNUT ST", "amenity": "post_box", "collection_times": "Mo-Fr 12:30", "indoor": "yes", "note": "ON 12/24 AND 12/31, THIS BOX MAY BE COLLECTED AS EARLY AS 12 NOON.", "nsi_id": "unitedstatespostalservice-a77078", "operator": "United States Postal Service", "operator:short": "USPS", "operator:type": "public", "operator:wikidata": "Q668687", "ref": "3861700005"}, "type": "Feature"}
{"geometry": {"coordinates": [-89.976392616, 34.68856112], "type": "Point"}, "id": "nDMdgAj6HHxaH6EQMHndiIju3x8=", "properties": {"@source_uri": "https://tools.usps.com/UspsToolsRestServices/rest/POLocator/findLocations", "@spider": "usps_collection_boxes", "addr:city": "COLDWATER", "addr:country": "US", "addr:postcode": "38618", "addr:state": "MS", "addr:street_address": "686 2ND ST", "amenity": "post_box", "collection_times": "Mo-Fr 16:15; Sa 11:15", "note": "ON 12/24 AND 12/31, THIS BOX MAY BE COLLECTED AS EARLY AS 12 NOON.", "nsi_id": "unitedstatespostalservice-a77078", "operator": "United States Postal Service", "operator:short": "USPS", "operator:type": "public", "operator:wikidata": "Q668687", "ref": "3861800001"}, "type": "Feature"}
{"geometry": {"coordinates": [-89.976392616, 34.68856112], "type": "Point"}, "id": "Fy0KCK2NNMXPebrWjciXrAayHPU=", "properties": {"@source_uri": "https://tools.usps.com/UspsToolsRestServices/rest/POLocator/findLocations", "@spider": "usps_collection_boxes", "addr:city": "COLDWATER", "addr:country": "US", "addr:postcode": "38618", "addr:state": "MS", "addr:street_address": "686 2ND ST", "amenity": "post_box", "collection_times": "Mo-Fr 16:30; Sa 11:15", "indoor": "yes", "note": "ON 12/24 AND 12/31, THIS BOX MAY BE COLLECTED AS EARLY AS 12 NOON.", "nsi_id": "unitedstatespostalservice-a77078", "operator": "United States Postal Service", "operator:short": "USPS", "operator:type": "public", "operator:wikidata": "Q668687", "ref": "3861800002"}, "type": "Feature"}
{"geometry": {"coordinates": [-89.976392616, 34.68856112], "type": "Point"}, "id": "Fkz82lHa5WH2LpETSUapuy3lS4Q=", "properties": {"@source_uri": "https://tools.usps.com/UspsToolsRestServices/rest/POLocator/findLocations", "@spider": "usps_collection_boxes", "addr:city": "COLDWATER", "addr:country": "US", "addr:postcode": "38618", "addr:state": "MS", "addr:street_address": "686 2ND ST", "amenity": "post_box", "collection_times": "Mo-Fr 16:30; Sa 11:00", "indoor": "yes", "note": "ON 12/24 AND 12/31, THIS BOX MAY BE COLLECTED AS EARLY AS 12 NOON.", "nsi_id": "unitedstatespostalservice-a77078", "operator": "United States Postal Service", "operator:short": "USPS", "operator:type": "public", "operator:wikidata": "Q668687", "ref": "3861800004"}, "type": "Feature"}
{"geometry": {"coordinates": [-89.941278043, 34.512058224], "type": "Point"}, "id": "9pKzKawlFhRi4XflIfMV1oq5ulQ=", "properties": {"@source_uri": "https://tools.usps.com/UspsToolsRestServices/rest/POLocator/findLocations", "@spider": "usps_collection_boxes", "addr:city": "COMO", "addr:country": "US", "addr:postcode": "38619", "addr:state": "MS", "addr:street_address": "209 N MAIN ST", "amenity": "post_box", "collection_times": "Mo-Fr 16:30; Sa 10:00", "note": "ON 12/24 AND 12/31, THIS BOX MAY BE COLLECTED AS EARLY AS 12 NOON.", "nsi_id": "unitedstatespostalservice-a77078", "operator": "United States Postal Service", "operator:short": "USPS", "operator:type": "public", "operator:wikidata": "Q668687", "ref": "3861900001"}, "type": "Feature"}
{"geometry": {"coordinates": [-89.941278043, 34.512058224], "type": "Point"}, "id": "OHGZulxe74wHdao0jM_8xjsCi0E=", "properties": {"@source_uri": "https://tools.usps.com/UspsToolsRestServices/rest/POLocator/findLocations", "@spider": "usps_collection_boxes", "addr:city": "COMO", "addr:country": "US", "addr:postcode": "38619", "addr:state": "MS", "addr:street_address": "209 N MAIN ST", "amenity": "post_box", "collection_times": "Mo-Fr 16:30; Sa 10:00", "indoor": "yes", "note": "ON 12/24 AND 12/31, THIS BOX MAY BE COLLECTED AS EARLY AS 12 NOON.", "nsi_id": "unitedstatespostalservice-a77078", "operator": "United States Postal Service", "operator:short": "USPS", "operator:type": "public", "operator:wikidata": "Q668687", "ref": "3861900002"}, "type": "Feature"}
{"geometry": {"coordinates": [-89.941278043, 34.512058224], "type": "Point"}, "id": "oBsyxwNehgapZ0-7R0lp6GTkzBk=", "properties": {"@source_uri": "https://tools.usps.com/UspsToolsRestServices/rest/POLocator/findLocations", "@spider": "usps_collection_boxes", "addr:city": "COMO", "addr:country": "US", "addr:postcode": "38619", "addr:state": "MS", "addr:street_address": "209 N MAIN ST", "amenity": "post_box", "collection_times": "Mo-Fr 16:30; Sa 10:00", "indoor": "yes", "note": "ON 12/24 AND 12/31, THIS BOX MAY BE COLLECTED AS EARLY AS 12 NOON.", "nsi_id": "unitedstatespostalservice-a77078", "operator": "United States Postal Service", "operator:short": "USPS", "operator:type": "public", "operator:wikidata": "Q668687", "ref": "3861900004"}, "type": "Feature"}
{"geometry": {"coordinates": [-89.937022762, 34.245285176], "type": "Point"}, "id": "gpOtzMdM-7T955G357mbnL406rc=", "properties": {"@source_uri": "https://tools.usps.com/UspsToolsRestServices/rest/POLocator/findLocations", "@spider": "usps_collection_boxes", "addr:city": "COURTLAND", "addr:country": "US", "addr:postcode": "38620", "addr:state": "MS", "addr:street_address": "252 OLD HIGHWAY 51", "amenity": "post_box", "collection_times": "Mo-Fr 15:00; Sa 11:00", "note": "ON 12/24 AND 12/31, THIS BOX MAY BE COLLECTED AS EARLY AS 12 NOON.", "nsi_id": "unitedstatespostalservice-a77078", "operator": "United States Postal Service", "operator:short": "USPS", "operator:type": "public", "operator:wikidata": "Q668687", "ref": "3862000001"}, "type": "Feature"}
{"geometry": {"coordinates": [-89.937022762, 34.245285176], "type": "Point"}, "id": "pCHck0S4Bl7lYtW3S1IRg_coMwY=", "properties": {"@source_uri": "https://tools.usps.com/UspsToolsRestServices/rest/POLocator/findLocations", "@spider": "usps_collection_boxes", "addr:city": "COURTLAND", "addr:country": "US", "addr:postcode": "38620", "addr:state": "MS", "addr:street_address": "252 OLD HIGHWAY 51", "amenity": "post_box", "collection_times": "Mo-Fr 15:00; Sa 11:00", "indoor": "yes", "note": "ON 12/24 AND 12/31, THIS BOX MAY BE COLLECTED AS EARLY AS 12 NOON.", "nsi_id": "unitedstatespostalservice-a77078", "operator": "United States Postal Service", "operator:short": "USPS", "operator:type": "public", "operator:wikidata": "Q668687", "ref": "3862000002"}, "type": "Feature"}
{"geometry": {"coordinates": [-89.937022762, 34.245285176], "type": "Point"}, "id": "MQdwpgftGq21lrBHD7ZB-OZ79T0=", "properties": {"@source_uri": "https://tools.usps.com/UspsToolsRestServices/rest/POLocator/findLocations", "@spider": "usps_collection_boxes", "addr:city": "COURTLAND", "addr:country": "US", "addr:postcode": "38620", "addr:state": "MS", "addr:street_address": "252 OLD HIGHWAY 51", "amenity": "post_box", "collection_times": "Mo-Fr 15:00; Sa 11:00", "indoor": "yes", "note": "ON 12/24 AND 12/31, THIS BOX MAY BE COLLECTED AS EARLY AS 12 NOON.", "nsi_id": "unitedstatespostalservice-a77078", "operator": "United States Postal Service", "operator:short": "USPS", "operator:type": "public", "operator:wikidata": "Q668687", "ref": "3862000004"}, "type": "Feature"}
{"geometry": {"coordinates": [-90.195202385, 34.506383147], "type": "Point"}, "id": "b7dTPrIdCxIA7sRGWA29DnyF8lg=", "properties": {"@source_uri": "https://tools.usps.com/UspsToolsRestServices/rest/POLocator/findLocations", "@spider": "usps_collection_boxes", "addr:city": "CRENSHAW", "addr:country": "US", "addr:postcode": "38621", "addr:state": "MS", "addr:street_address": "609 BROAD ST", "amenity": "post_box", "collection_times": "Mo-Fr 14:00; Sa 11:00", "indoor": "yes", "note": "ON 12/24 AND 12/31, THIS BOX MAY BE COLLECTED AS EARLY AS 12 NOON.", "nsi_id": "unitedstatespostalservice-a77078", "operator": "United States Postal Service", "operator:short": "USPS", "operator:type": "public", "operator:wikidata": "Q668687", "ref": "3862100002"}, "type": "Feature"}
{"geometry": {"coordinates": [-90.195202385, 34.506383147], "type": "Point"}, "id": "ZyzPjmH8UTcWFKWByKYHV6hWc9E=", "properties": {"@source_uri": "https://tools.usps.com/UspsToolsRestServices/rest/POLocator/findLocations", "@spider": "usps_collection_boxes", "addr:city": "CRENSHAW", "addr:country": "US", "addr:postcode": "38621", "addr:state": "MS", "addr:street_address": "609 BROAD ST", "amenity": "post_box", "collection_times": "Mo-Fr 14:00; Sa 11:00", "note": "ON 12/24 AND 12/31, THIS BOX MAY BE COLLECTED AS EARLY AS 12 NOON.", "nsi_id": "unitedstatespostalservice-a77078", "operator": "United States Postal Service", "operator:short": "USPS", "operator:type": "public", "operator:wikidata": "Q668687", "ref": "3862100004"}, "type": "Feature"}
{"geometry": {"coordinates": [-90.195202385, 34.506383147], "type": "Point"}, "id": "hbZFUTlXmpVsVb8oxwxPbQJlpUo=", "properties": {"@source_uri": "https://tools.usps.com/UspsToolsRestServices/rest/POLocator/findLocations", "@spider": "usps_collection_boxes", "addr:city": "CRENSHAW", "addr:country": "US", "addr:postcode": "38621", "addr:state": "MS", "addr:street_address": "609 BROAD ST", "amenity": "post_box", "collection_times": "Mo-Fr 14:00; Sa 11:00", "indoor": "yes", "note": "ON 12/24 AND 12/31, THIS BOX MAY BE COLLECTED AS EARLY AS 12 NOON.", "nsi_id": "unitedstatespostalservice-a77078", "operator": "United States Postal Service", "operator:short": "USPS", "operator:type": "public", "operator:wikidata": "Q668687", "ref": "3862100005"}, "type": "Feature"}
{"geometry": {"coordinates": [-90.134634121, 34.173540792], "type": "Point"}, "id": "3I6STlJSCBODyAEajbxSZw28zjI=", "properties": {"@source_uri": "https://tools.usps.com/UspsToolsRestServices/rest/POLocator/findLocations", "@spider": "usps_collection_boxes", "addr:city": "CROWDER", "addr:country": "US", "addr:postcode": "38622", "addr:state": "MS", "addr:street_address": "131A 3RD ST", "amenity": "post_box", "collection_times": "Mo-Fr 12:00; Sa 11:00", "nsi_id": "unitedstatespostalservice-a77078", "operator": "United States Postal Service", "operator:short": "USPS", "operator:type": "public", "operator:wikidata": "Q668687", "ref": "3862200001"}, "type": "Feature"}
{"geometry": {"coordinates": [-90.134634121, 34.173540792], "type": "Point"}, "id": "ZZWySUNRz_vvx9ZecuNtIiLRExg=", "properties": {"@source_uri": "https://tools.usps.com/UspsToolsRestServices/rest/POLocator/findLocations", "@spider": "usps_collection_boxes", "addr:city": "CROWDER", "addr:country": "US", "addr:postcode": "38622", "addr:state": "MS", "addr:street_address": "131A 3RD ST", "amenity": "post_box", "collection_times": "Mo-Fr 11:50; Sa 11:00", "indoor": "yes", "nsi_id": "unitedstatespostalservice-a77078", "operator": "United States Postal Service", "operator:short": "USPS", "operator:type": "public", "operator:wikidata": "Q668687", "ref": "3862200002"}, "type": "Feature"}
{"geometry": {"coordinates": [-90.134634121, 34.173540792], "type": "Point"}, "id": "19Md_c3Co247WTfXu4GTibRgbU0=", "properties": {"@source_uri": "https://tools.usps.com/UspsToolsRestServices/rest/POLocator/findLocations", "@spider": "usps_collection_boxes", "addr:city": "CROWDER", "addr:country": "US", "addr:postcode": "38622", "addr:state": "MS", "addr:street_address": "131A 3RD ST", "amenity": "post_box", "collection_times": "Mo-Fr 12:00; Sa 11:00", "indoor": "yes", "nsi_id": "unitedstatespostalservice-a77078", "operator": "United States Postal Service", "operator:short": "USPS", "operator:type": "public", "operator:wikidata": "Q668687", "ref": "3862200004"}, "type": "Feature"}
{"geometry": {"coordinates": [-90.271890038, 34.359530003], "type": "Point"}, "id": "_FTW1QjqATxR83n5S0X1h4S0i5E=", "properties": {"@source_uri": "https://tools.usps.com/UspsToolsRestServices/rest/POLocator/findLocations", "@spider": "usps_collection_boxes", "addr:city": "DARLING", "addr:country": "US", "addr:postcode": "38623", "addr:state": "MS", "addr:street_address": "580 DARLING RD", "amenity": "post_box", "collection_times": "Mo-Fr 10:00; Sa 09:30", "nsi_id": "unitedstatespostalservice-a77078", "operator": "United States Postal Service", "operator:short": "USPS", "operator:type": "public", "operator:wikidata": "Q668687", "ref": "3862300001"}, "type": "Feature"}
{"geometry": {"coordinates": [-90.271890038, 34.359530003], "type": "Point"}, "id": "7a1MOQcdPbGQxZV4JWoFrSi9IVE=", "properties": {"@source_uri": "https://tools.usps.com/UspsToolsRestServices/rest/POLocator/findLocations", "@spider": "usps_collection_boxes", "addr:city": "DARLING", "addr:country": "US", "addr:postcode": "38623", "addr:state": "MS", "addr:street_address": "580 DARLING RD", "amenity": "post_box", "collection_times": "Mo-Fr 10:00; Sa 09:30", "indoor": "yes", "nsi_id": "unitedstatespostalservice-a77078", "operator": "United States Postal Service", "operator:short": "USPS", "operator:type": "public", "operator:wikidata": "Q668687", "ref": "3862300002"}, "type": "Feature"}
{"geometry": {"coordinates": [-90.271890038, 34.359530003], "type": "Point"}, "id": "sZEAfVwvYX-z7RzD29z1j-UiAkE=", "properties": {"@source_uri": "https://tools.usps.com/UspsToolsRestServices/rest/POLocator/findLocations", "@spider": "usps_collection_boxes", "addr:city": "DARLING", "addr:country": "US", "addr:postcode": "38623", "addr:state": "MS", "addr:street_address": "580 DARLING RD", "amenity": "post_box", "collection_times": "Mo-Fr 10:00; Sa 09:30", "indoor": "yes", "nsi_id": "unitedstatespostalservice-a77078", "operator": "United States Postal Service", "operator:short": "USPS", "operator:type": "public", "operator:wikidata": "Q668687", "ref": "3862300004"}, "type": "Feature"}
{"geometry": {"coordinates": [-88.842004837, 34.639970271], "type": "Point"}, "id": "n199xRrlshCeThHe7EP1XKNxWCk=", "properties": {"@source_uri": "https://tools.usps.com/UspsToolsRestServices/rest/POLocator/findLocations", "@spider": "usps_collection_boxes", "addr:city": "DUMAS", "addr:country": "US", "addr:postcode": "38625", "addr:state": "MS", "addr:street_address": "3481A HIGHWAY 370", "amenity": "post_box", "collection_times": "Mo-Fr 12:00; Sa 09:45", "nsi_id": "unitedstatespostalservice-a77078", "operator": "United States Postal Service", "operator:short": "USPS", "operator:type": "public", "operator:wikidata": "Q668687", "ref": "3862500001"}, "type": "Feature"}
{"geometry": {"coordinates": [-88.842004837, 34.639970271], "type": "Point"}, "id": "a5uLCACEc3quYa_GG6vN1490nPc=", "properties": {"@source_uri": "https://tools.usps.com/UspsToolsRestServices/rest/POLocator/findLocations", "@spider": "usps_collection_boxes", "addr:city": "DUMAS", "addr:country": "US", "addr:postcode": "38625", "addr:state": "MS", "addr:street_address": "3481A HIGHWAY 370", "amenity": "post_box", "collection_times": "Mo-Fr 12:00", "indoor": "yes", "nsi_id": "unitedstatespostalservice-a77078", "operator": "United States Postal Service", "operator:short": "USPS", "operator:type": "public", "operator:wikidata": "Q668687", "ref": "3862500002"}, "type": "Feature"}
{"geometry": {"coordinates": [-90.425269981, 34.524440008], "type": "Point"}, "id": "UoJnAKqXCOJt1-_cBB7jdFGA_hU=", "properties": {"@source_uri": "https://tools.usps.com/UspsToolsRestServices/rest/POLocator/findLocations", "@spider": "usps_collection_boxes", "addr:city": "DUNDEE", "addr:country": "US", "addr:postcode": "38626", "addr:state": "MS", "addr:street_address": "1028 RYALS RD", "amenity": "post_box", "collection_times": "Mo-Fr 11:30; Sa 09:15", "nsi_id": "unitedstatespostalservice-a77078", "operator": "United States Postal Service", "operator:short": "USPS", "operator:type": "public", "operator:wikidata": "Q668687", "ref": "3862600001"}, "type": "Feature"}
{"geometry": {"coordinates": [-90.425269981, 34.524440008], "type": "Point"}, "id": "QoMrF6m8OpiFt5VjnC5F_F90uDE=", "properties": {"@source_uri": "https://tools.usps.com/UspsToolsRestServices/rest/POLocator/findLocations", "@spider": "usps_collection_boxes", "addr:city": "DUNDEE", "addr:country": "US", "addr:postcode": "38626", "addr:state": "MS", "addr:street_address": "1028 RYALS RD", "amenity": "post_box", "collection_times": "Mo-Fr 11:30; Sa 09:15", "indoor": "yes", "nsi_id": "unitedstatespostalservice-a77078", "operator": "United States Postal Service", "operator:short": "USPS", "operator:type": "public", "operator:wikidata": "Q668687", "ref": "3862600002"}, "type": "Feature"}
{"geometry": {"coordinates": [-90.425269981, 34.524440008], "type": "Point"}, "id": "RgO9YMcXVHFsgeW7oe4-lHZIDEY=", "properties": {"@source_uri": "https://tools.usps.com/UspsToolsRestServices/rest/POLocator/findLocations", "@spider": "usps_collection_boxes", "addr:city": "DUNDEE", "addr:country": "US", "addr:postcode": "38626", "addr:state": "MS", "addr:street_address": "1028 RYALS RD", "amenity": "post_box", "collection_times": "Mo-Fr 11:30", "indoor": "yes", "nsi_id": "unitedstatespostalservice-a77078", "operator": "United States Postal Service", "operator:short": "USPS", "operator:type": "public", "operator:wikidata": "Q668687", "ref": "3862600005"}, "type": "Feature"}
{"geometry": {"coordinates": [-89.227545032, 34.475366224], "type": "Point"}, "id": "5xurrqykBotLBKIYYjK65e353bw=", "properties": {"@source_uri": "https://tools.usps.com/UspsToolsRestServices/rest/POLocator/findLocations", "@spider": "usps_collection_boxes", "addr:city": "ETTA", "addr:country": "US", "addr:postcode": "38627", "addr:state": "MS", "addr:street_address": "1947 STATE ROAD 355", "amenity": "post_box", "collection_times": "Mo-Fr 11:30; Sa 09:15", "nsi_id": "unitedstatespostalservice-a77078", "operator": "United States Postal Service", "operator:short": "USPS", "operator:type": "public", "operator:wikidata": "Q668687", "ref": "3862700001"}, "type": "Feature"}
{"geometry": {"coordinates": [-89.227545032, 34.475366224], "type": "Point"}, "id": "MKkJpsPhvoiKYmglgioJ1IqK8DU=", "properties": {"@source_uri": "https://tools.usps.com/UspsToolsRestServices/rest/POLocator/findLocations", "@spider": "usps_collection_boxes", "addr:city": "ETTA", "addr:country": "US", "addr:postcode": "38627", "addr:state": "MS", "addr:street_address": "1947 STATE ROAD 355", "amenity": "post_box", "collection_times": "Mo-Fr 11:30; Sa 09:15", "indoor": "yes", "nsi_id": "unitedstatespostalservice-a77078", "operator": "United States Postal Service", "operator:short": "USPS", "operator:type": "public", "operator:wikidata": "Q668687", "ref": "3862700002"}, "type": "Feature"}
{"geometry": {"coordinates": [-89.227545032, 34.475366224], "type": "Point"}, "id": "8n8YAq5SHKkHhUtxXzHTtEvBOHg=", "properties": {"@source_uri": "https://tools.usps.com/UspsToolsRestServices/rest/POLocator/findLocations", "@spider": "usps_collection_boxes", "addr:city": "ETTA", "addr:country": "US", "addr:postcode": "38627", "addr:state": "MS", "addr:street_address": "1947 STATE ROAD 355", "amenity": "post_box", "collection_times": "Mo-Fr 11:30", "indoor": "yes", "nsi_id": "unitedstatespostalservice-a77078", "operator": "United States Postal Service", "operator:short": "USPS", "operator:type": "public", "operator:wikidata": "Q668687", "ref": "3862700003"}, "type": "Feature"}
{"geometry": {"coordinates": [-88.934970027, 34.844849992], "type": "Point"}, "id": "HKmTFuXBdCYdSDx0KfnCjx7NnDc=", "properties": {"@source_uri": "https://tools.usps.com/UspsToolsRestServices/rest/POLocator/findLocations", "@spider": "usps_collection_boxes", "addr:city": "FALKNER", "addr:country": "US", "addr:postcode": "38629", "addr:state": "MS", "addr:street_address": "20610 HIGHWAY 15", "amenity": "post_box", "collection_times": "Mo-Fr 15:00; Sa 10:00", "note": "ON 12/24 AND 12/31, THIS BOX MAY BE COLLECTED AS EARLY AS 12 NOON.", "nsi_id": "unitedstatespostalservice-a77078", "operator": "United States Postal Service", "operator:short": "USPS", "operator:type": "public", "operator:wikidata": "Q668687", "ref": "3862900001"}, "type": "Feature"}
{"geometry": {"coordinates": [-88.934970027, 34.844849992], "type": "Point"}, "id": "42g-u8Rr5ozAFRxytEBQNuH_2HU=", "properties": {"@source_uri": "https://tools.usps.com/UspsToolsRestServices/rest/POLocator/findLocations", "@spider": "usps_collection_boxes", "addr:city": "FALKNER", "addr:country": "US", "addr:postcode": "38629", "addr:state": "MS", "addr:street_address": "20610 HIGHWAY 15", "amenity": "post_box", "collection_times": "Mo-Fr 15:00; Sa 10:00", "indoor": "yes", "note": "ON 12/24 AND 12/31, THIS BOX MAY BE COLLECTED AS EARLY AS 12 NOON.", "nsi_id": "unitedstatespostalservice-a77078", "operator": "United States Postal Service", "operator:short": "USPS", "operator:type": "public", "operator:wikidata": "Q668687", "ref": "3862900002"}, "type": "Feature"}
{"geometry": {"coordinates": [-88.934970027, 34.844849992], "type": "Point"}, "id": "D5xhPTiW_cJFfK7K1kAmopt23bM=", "properties": {"@source_uri": "https://tools.usps.com/UspsToolsRestServices/rest/POLocator/findLocations", "@spider": "usps_collection_boxes", "addr:city": "FALKNER", "addr:country": "US", "addr:postcode": "38629", "addr:state": "MS", "addr:street_address": "20610 HIGHWAY 15", "amenity": "post_box", "collection_times": "Mo-Fr 15:00; Sa 10:00", "indoor": "yes", "note": "ON 12/24 AND 12/31, THIS BOX MAY BE COLLECTED AS EARLY AS 12 NOON.", "nsi_id": "unitedstatespostalservice-a77078", "operator": "United States Postal Service", "operator:short": "USPS", "operator:type": "public", "operator:wikidata": "Q668687", "ref": "3862900003"}, "type": "Feature"}
{"geometry": {"coordinates": [-90.63995052, 34.370391855], "type": "Point"}, "id": "YJ8tWa3ekVjAkzKMWAKUb-0o0yw=", "properties": {"@source_uri": "https://tools.usps.com/UspsToolsRestServices/rest/POLocator/findLocations", "@spider": "usps_collection_boxes", "addr:city": "FRIARS POINT", "addr:country": "US", "addr:postcode": "38631", "addr:state": "MS", "addr:street_address": "774 2ND ST", "amenity": "post_box", "collection_times": "Mo-Fr 12:00; Sa 11:00", "indoor": "yes", "nsi_id": "unitedstatespostalservice-a77078", "operator": "United States Postal Service", "operator:short": "USPS", "operator:type": "public", "operator:wikidata": "Q668687", "ref": "3863100002"}, "type": "Feature"}
{"geometry": {"coordinates": [-90.63995052, 34.370391855], "type": "Point"}, "id": "NcKUx8JH0TrzMTuozJJTbDAJFxM=", "properties": {"@source_uri": "https://tools.usps.com/UspsToolsRestServices/rest/POLocator/findLocations", "@spider": "usps_collection_boxes", "addr:city": "FRIARS POINT", "addr:country": "US", "addr:postcode": "38631", "addr:state": "MS", "addr:street_address": "774 2ND ST", "amenity": "post_box", "collection_times": "Mo-Fr 12:00; Sa 11:00", "nsi_id": "unitedstatespostalservice-a77078", "operator": "United States Postal Service", "operator:short": "USPS", "operator:type": "public", "operator:wikidata": "Q668687", "ref": "3863100003"}, "type": "Feature"}
{"geometry": {"coordinates": [-90.63995052, 34.370391855], "type": "Point"}, "id": "T4pHtpGVuXenLN385gXb3-vZT7Q=", "properties": {"@source_uri": "https://tools.usps.com/UspsToolsRestServices/rest/POLocator/findLocations", "@spider": "usps_collection_boxes", "addr:city": "FRIARS POINT", "addr:country": "US", "addr:postcode": "38631", "addr:state": "MS", "addr:street_address": "774 2ND ST", "amenity": "post_box", "collection_times": "Mo-Fr 12:00; Sa 11:00", "indoor": "yes", "nsi_id": "unitedstatespostalservice-a77078", "operator": "United States Postal Service", "operator:short": "USPS", "operator:type": "public", "operator:wikidata": "Q668687", "ref": "3863100004"}, "type": "Feature"}
{"geometry": {"coordinates": [-89.991165, 34.82091], "type": "Point"}, "id": "6KGCLdRP3my3595m7uTUzfathRg=", "properties": {"@source_uri": "https://tools.usps.com/UspsToolsRestServices/rest/POLocator/findLocations", "@spider": "usps_collection_boxes", "addr:city": "HERNANDO", "addr:country": "US", "addr:postcode": "38632", "addr:state": "MS", "addr:street_address": "12 W COMMERCE ST", "amenity": "post_box", "collection_times": "Mo-Fr 16:00; Sa 14:00", "note": "ON 12/24 AND 12/31, THIS BOX MAY BE COLLECTED AS EARLY AS 12 NOON.", "nsi_id": "unitedstatespostalservice-a77078", "operator": "United States Postal Service", "operator:short": "USPS", "operator:type": "public", "operator:wikidata": "Q668687", "ref": "3863200001"}, "type": "Feature"}
{"geometry": {"coordinates": [-89.98959008, 34.823679835], "type": "Point"}, "id": "K1b77G8_pqNZi2J47O-ZjSLKUsI=", "properties": {"@source_uri": "https://tools.usps.com/UspsToolsRestServices/rest/POLocator/findLocations", "@spider": "usps_collection_boxes", "addr:city": "HERNANDO", "addr:country": "US", "addr:postcode": "38632", "addr:state": "MS", "addr:street_address": "12 W COMMERCE ST", "amenity": "post_box", "collection_times": "Mo-Fr 16:00; Sa 14:00", "indoor": "yes", "note": "ON 12/24 AND 12/31, THIS BOX MAY BE COLLECTED AS EARLY AS 12 NOON.", "nsi_id": "unitedstatespostalservice-a77078", "operator": "United States Postal Service", "operator:short": "USPS", "operator:type": "public", "operator:wikidata": "Q668687", "ref": "3863200004"}, "type": "Feature"}
{"geometry": {"coordinates": [-89.969459991, 34.822449984], "type": "Point"}, "id": "PQB7TggQa74BSfovV3_rfQbSlL4=", "properties": {"@source_uri": "https://tools.usps.com/UspsToolsRestServices/rest/POLocator/findLocations", "@spider": "usps_collection_boxes", "addr:city": "HERNANDO", "addr:country": "US", "addr:postcode": "38632", "addr:state": "MS", "addr:street_address": "2600 MCINGVALE RD", "amenity": "post_box", "collection_times": "Mo-Sa 12:30", "note": "ON 12/24 AND 12/31, THIS BOX MAY BE COLLECTED AS EARLY AS 12 NOON.", "nsi_id": "unitedstatespostalservice-a77078", "operator": "United States Postal Service", "operator:short": "USPS", "operator:type": "public", "operator:wikidata": "Q668687", "ref": "3863200006"}, "type": "Feature"}
{"geometry": {"coordinates": [-89.98959008, 34.823679835], "type": "Point"}, "id": "djL9NkXm2pJ0XJuhmRvV5ZbxKWU=", "properties": {"@source_uri": "https://tools.usps.com/UspsToolsRestServices/rest/POLocator/findLocations", "@spider": "usps_collection_boxes", "addr:city": "HERNANDO", "addr:country": "US", "addr:postcode": "38632", "addr:state": "MS", "addr:street_address": "12 W COMMERCE ST", "amenity": "post_box", "collection_times": "Mo-Fr 16:30; Sa 11:00", "indoor": "yes", "note": "ON 12/24 AND 12/31, THIS BOX MAY BE COLLECTED AS EARLY AS 12 NOON.", "nsi_id": "unitedstatespostalservice-a77078", "operator": "United States Postal Service", "operator:short": "USPS", "operator:type": "public", "operator:wikidata": "Q668687", "ref": "3863200007"}, "type": "Feature"}
{"geometry": {"coordinates": [-89.183382995, 34.626545817], "type": "Point"}, "id": "s92THlTJxTy7V1nSKFR6h1gs-28=", "properties": {"@source_uri": "https://tools.usps.com/UspsToolsRestServices/rest/POLocator/findLocations", "@spider": "usps_collection_boxes", "addr:city": "HICKORY FLAT", "addr:country": "US", "addr:postcode": "38633", "addr:state": "MS", "addr:street_address": "535 HIGHWAY 5", "amenity": "post_box", "collection_times": "Mo-Fr 14:30; Sa 09:45", "indoor": "yes", "note": "ON 12/24 AND 12/31, THIS BOX MAY BE COLLECTED AS EARLY AS 12 NOON.", "nsi_id": "unitedstatespostalservice-a77078", "operator": "United States Postal Service", "operator:short": "USPS", "operator:type": "public", "operator:wikidata": "Q668687", "ref": "3863300004"}, "type": "Feature"}
{"geometry": {"coordinates": [-89.183382995, 34.626545817], "type": "Point"}, "id": "b7i_AYywvtCs1zCcwzM_SRsC53w=", "properties": {"@source_uri": "https://tools.usps.com/UspsToolsRestServices/rest/POLocator/findLocations", "@spider": "usps_collection_boxes", "addr:city": "HICKORY FLAT", "addr:country": "US", "addr:postcode": "38633", "addr:state": "MS", "addr:street_address": "535 HIGHWAY 5", "amenity": "post_box", "collection_times": "Mo-Fr 14:30; Sa 09:45", "note": "ON 12/24 AND 12/31, THIS BOX MAY BE COLLECTED AS EARLY AS 12 NOON.", "nsi_id": "unitedstatespostalservice-a77078", "operator": "United States Postal Service", "operator:short": "USPS", "operator:type": "public", "operator:wikidata": "Q668687", "ref": "3863300006"}, "type": "Feature"}
{"geometry": {"coordinates": [-89.183382995, 34.626545817], "type": "Point"}, "id": "f6cswj3Y8MUYHYjLFIN8X2Dj8YE=", "properties": {"@source_uri": "https://tools.usps.com/UspsToolsRestServices/rest/POLocator/findLocations", "@spider": "usps_collection_boxes", "addr:city": "HICKORY FLAT", "addr:country": "US", "addr:postcode": "38633", "addr:state": "MS", "addr:street_address": "535 HIGHWAY 5", "amenity": "post_box", "collection_times": "Mo-Fr 14:30; Sa 10:00", "indoor": "yes", "note": "ON 12/24 AND 12/31, THIS BOX MAY BE COLLECTED AS EARLY AS 12 NOON.", "nsi_id": "unitedstatespostalservice-a77078", "operator": "United States Postal Service", "operator:short": "USPS", "operator:type": "public", "operator:wikidata": "Q668687", "ref": "3863300007"}, "type": "Feature"}
{"geometry": {"coordinates": [-89.457349862, 34.783338885], "type": "Point"}, "id": "-pN6BV8LKUisnwmNpdRvwCZOq70=", "properties": {"@source_uri": "https://tools.usps.com/UspsToolsRestServices/rest/POLocator/findLocations", "@spider": "usps_collection_boxes", "addr:city": "HOLLY SPRINGS", "addr:country": "US", "addr:postcode": "38635", "addr:state": "MS", "addr:street_address": "365 MARTIN LUTHER KING JR DR", "amenity": "post_box", "collection_times": "Mo-Fr 16:00; Sa 10:00", "note": "ON 12/24 AND 12/31, THIS BOX MAY BE COLLECTED AS EARLY AS 12 NOON.", "nsi_id": "unitedstatespostalservice-a77078", "operator": "United States Postal Service", "operator:short": "USPS", "operator:type": "public", "operator:wikidata": "Q668687", "ref": "3863500015"}, "type": "Feature"}
{"geometry": {"coordinates": [-89.448647216, 34.768719464], "type": "Point"}, "id": "yftgmrYdV1msyUuWcgCho0QvEXM=", "properties": {"@source_uri": "https://tools.usps.com/UspsToolsRestServices/rest/POLocator/findLocations", "@spider": "usps_collection_boxes", "addr:city": "HOLLY SPRINGS", "addr:country": "US", "addr:postcode": "38635", "addr:state": "MS", "addr:street_address": "110 N MEMPHIS ST", "amenity": "post_box", "collection_times": "Mo-Fr 16:00; Sa 10:00", "note": "ON 12/24 AND 12/31, THIS BOX MAY BE COLLECTED AS EARLY AS 12 NOON.", "nsi_id": "unitedstatespostalservice-a77078", "operator": "United States Postal Service", "operator:short": "USPS", "operator:type": "public", "operator:wikidata": "Q668687", "ref": "3863500016"}, "type": "Feature"}
{"geometry": {"coordinates": [-89.448647216, 34.768719464], "type": "Point"}, "id": "m1KCBvVGH7DQNph1cpwuaoUnxT4=", "properties": {"@source_uri": "https://tools.usps.com/UspsToolsRestServices/rest/POLocator/findLocations", "@spider": "usps_collection_boxes", "addr:city": "HOLLY SPRINGS", "addr:country": "US", "addr:postcode": "38635", "addr:state": "MS", "addr:street_address": "110 N MEMPHIS ST", "amenity": "post_box", "collection_times": "Mo-Fr 16:00; Sa 10:00", "indoor": "yes", "note": "ON 12/24 AND 12/31, THIS BOX MAY BE COLLECTED AS EARLY AS 12 NOON.", "nsi_id": "unitedstatespostalservice-a77078", "operator": "United States Postal Service", "operator:short": "USPS", "operator:type": "public", "operator:wikidata": "Q668687", "ref": "3863500018"}, "type": "Feature"}
{"geometry": {"coordinates": [-89.457349862, 34.783338885], "type": "Point"}, "id": "bjTtFfwU4b1h5U0tc-4_XjOGyIQ=", "properties": {"@source_uri": "https://tools.usps.com/UspsToolsRestServices/rest/POLocator/findLocations", "@spider": "usps_collection_boxes", "addr:city": "HOLLY SPRINGS", "addr:country": "US", "addr:postcode": "38635", "addr:state": "MS", "addr:street_address": "365 MARTIN LUTHER KING JR DR", "amenity": "post_box", "collection_times": "Mo-Fr 16:00; Sa 10:00", "indoor": "yes", "note": "ON 12/24 AND 12/31, THIS BOX MAY BE COLLECTED AS EARLY AS 12 NOON.", "nsi_id": "unitedstatespostalservice-a77078", "operator": "United States Postal Service", "operator:short": "USPS", "operator:type": "public", "operator:wikidata": "Q668687", "ref": "3863500019"}, "type": "Feature"}
{"geometry": {"coordinates": [-89.457349862, 34.783338885], "type": "Point"}, "id": "oFEYv1J5r4GqhuzI3hnu7OXn_Ic=", "properties": {"@source_uri": "https://tools.usps.com/UspsToolsRestServices/rest/POLocator/findLocations", "@spider": "usps_collection_boxes", "addr:city": "HOLLY SPRINGS", "addr:country": "US", "addr:postcode": "38635", "addr:state": "MS", "addr:street_address": "365 MARTIN LUTHER KING JR DR", "amenity": "post_box", "collection_times": "Mo-Fr 16:30", "indoor": "yes", "note": "ON 12/24 AND 12/31, THIS BOX MAY BE COLLECTED AS EARLY AS 12 NOON.", "nsi_id": "unitedstatespostalservice-a77078", "operator": "United States Postal Service", "operator:short": "USPS", "operator:type": "public", "operator:wikidata": "Q668687", "ref": "3863500024"}, "type": "Feature"}
{"geometry": {"coordinates": [-89.448647216, 34.768719464], "type": "Point"}, "id": "falzEvIDxHXcDPFkq2f70NNDkrg=", "properties": {"@source_uri": "https://tools.usps.com/UspsToolsRestServices/rest/POLocator/findLocations", "@spider": "usps_collection_boxes", "addr:city": "HOLLY SPRINGS", "addr:country": "US", "addr:postcode": "38635", "addr:state": "MS", "addr:street_address": "110 N MEMPHIS ST", "amenity": "post_box", "collection_times": "Mo-Fr 16:30; Sa 10:00", "indoor": "yes", "note": "ON 12/24 AND 12/31, THIS BOX MAY BE COLLECTED AS EARLY AS 12 NOON.", "nsi_id": "unitedstatespostalservice-a77078", "operator": "United States Postal Service", "operator:short": "USPS", "operator:type": "public", "operator:wikidata": "Q668687", "ref": "3863500025"}, "type": "Feature"}
{"geometry": {"coordinates": [-90.055870037, 34.96347999], "type": "Point"}, "id": "97Bs2I4fx4_zMxNjNVMUoUgge1s=", "properties": {"@source_uri": "https://tools.usps.com/UspsToolsRestServices/rest/POLocator/findLocations", "@spider": "usps_collection_boxes", "addr:city": "HORN LAKE", "addr:country": "US", "addr:postcode": "38637", "addr:state": "MS", "addr:street_address": "3724 GOODMAN RD W", "amenity": "post_box", "collection_times": "Mo-Fr 16:15; Sa 13:00", "indoor": "yes", "note": "ON 12/24 AND 12/31, THIS BOX MAY BE COLLECTED AS EARLY AS 12 NOON.", "nsi_id": "unitedstatespostalservice-a77078", "operator": "United States Postal Service", "operator:short": "USPS", "operator:type": "public", "operator:wikidata": "Q668687", "ref": "3863700001"}, "type": "Feature"}
{"geometry": {"coordinates": [-90.01508852, 34.962610149], "type": "Point"}, "id": "9UVa8SYzPz3n40mDygqhaTZ3h0g=", "properties": {"@source_uri": "https://tools.usps.com/UspsToolsRestServices/rest/POLocator/findLocations", "@spider": "usps_collection_boxes", "addr:city": "HORN LAKE", "addr:country": "US", "addr:postcode": "38637", "addr:state": "MS", "addr:street_address": "1413 GOODMAN RD W", "amenity": "post_box", "collection_times": "Mo-Sa 10:00", "nsi_id": "unitedstatespostalservice-a77078", "operator": "United States Postal Service", "operator:short": "USPS", "operator:type": "public", "operator:wikidata": "Q668687", "ref": "3863700003"}, "type": "Feature"}
{"geometry": {"coordinates": [-90.055870037, 34.96347999], "type": "Point"}, "id": "4t5HzToa3vMIb8olITmhMyj0Vis=", "properties": {"@source_uri": "https://tools.usps.com/UspsToolsRestServices/rest/POLocator/findLocations", "@spider": "usps_collection_boxes", "addr:city": "HORN LAKE", "addr:country": "US", "addr:postcode": "38637", "addr:state": "MS", "addr:street_address": "3724 GOODMAN RD W", "amenity": "post_box", "collection_times": "Mo-Fr 16:15; Sa 13:00", "note": "ON 12/24 AND 12/31, THIS BOX MAY BE COLLECTED AS EARLY AS 12 NOON.", "nsi_id": "unitedstatespostalservice-a77078", "operator": "United States Postal Service", "operator:short": "USPS", "operator:type": "public", "operator:wikidata": "Q668687", "ref": "3863700004"}, "type": "Feature"}
{"geometry": {"coordinates": [-90.055870037, 34.96347999], "type": "Point"}, "id": "RjpcLJoiZFmurxmRsU7-7_zfQzI=", "properties": {"@source_uri": "https://tools.usps.com/UspsToolsRestServices/rest/POLocator/findLocations", "@spider": "usps_collection_boxes", "addr:city": "HORN LAKE", "addr:country": "US", "addr:postcode": "38637", "addr:state": "MS", "addr:street_address": "3724 GOODMAN RD W", "amenity": "post_box", "collection_times": "Mo-Fr 16:30; Sa 11:00", "indoor": "yes", "note": "ON 12/24 AND 12/31, THIS BOX MAY BE COLLECTED AS EARLY AS 12 NOON.", "nsi_id": "unitedstatespostalservice-a77078", "operator": "United States Postal Service", "operator:short": "USPS", "operator:type": "public", "operator:wikidata": "Q668687", "ref": "3863700008"}, "type": "Feature"}
{"geometry": {"coordinates": [-89.809722026, 34.705619371], "type": "Point"}, "id": "Wtt22hP5EJWOyRh062F95_D0ODA=", "properties": {"@source_uri": "https://tools.usps.com/UspsToolsRestServices/rest/POLocator/findLocations", "@spider": "usps_collection_boxes", "addr:city": "INDEPENDENCE", "addr:country": "US", "addr:postcode": "38638", "addr:state": "MS", "addr:street_address": "15 BILL HANCOCK RD", "amenity": "post_box", "collection_times": "Mo-Sa 12:00", "nsi_id": "unitedstatespostalservice-a77078", "operator": "United States Postal Service", "operator:short": "USPS", "operator:type": "public", "operator:wikidata": "Q668687", "ref": "3863800001"}, "type": "Feature"}
{"geometry": {"coordinates": [-89.809722026, 34.705619371], "type": "Point"}, "id": "cQKwkH4EujOcqFRetYi0cqgqdn4=", "properties": {"@source_uri": "https://tools.usps.com/UspsToolsRestServices/rest/POLocator/findLocations", "@spider": "usps_collection_boxes", "addr:city": "INDEPENDENCE", "addr:country": "US", "addr:postcode": "38638", "addr:state": "MS", "addr:street_address": "15 BILL HANCOCK RD", "amenity": "post_box", "collection_times": "Mo-Sa 12:00", "indoor": "yes", "nsi_id": "unitedstatespostalservice-a77078", "operator": "United States Postal Service", "operator:short": "USPS", "operator:type": "public", "operator:wikidata": "Q668687", "ref": "3863800003"}, "type": "Feature"}
{"geometry": {"coordinates": [-89.809722026, 34.705619371], "type": "Point"}, "id": "YQlscI9aFGbcWaUo7_AcSPgVMlQ=", "properties": {"@source_uri": "https://tools.usps.com/UspsToolsRestServices/rest/POLocator/findLocations", "@spider": "usps_collection_boxes", "addr:city": "INDEPENDENCE", "addr:country": "US", "addr:postcode": "38638", "addr:state": "MS", "addr:street_address": "15 BILL HANCOCK RD", "amenity": "post_box", "collection_times": "Mo-Sa 12:00", "indoor": "yes", "nsi_id": "unitedstatespostalservice-a77078", "operator": "United States Postal Service", "operator:short": "USPS", "operator:type": "public", "operator:wikidata": "Q668687", "ref": "3863800004"}, "type": "Feature"}
{"geometry": {"coordinates": [-90.456318107, 34.320054624], "type": "Point"}, "id": "ZslTjnZ7mTyKNW8gDh4fvbJOhPw=", "properties": {"@source_uri": "https://tools.usps.com/UspsToolsRestServices/rest/POLocator/findLocations", "@spider": "usps_collection_boxes", "addr:city": "JONESTOWN", "addr:country": "US", "addr:postcode": "38639", "addr:state": "MS", "addr:street_address": "195 LONGINO ST", "amenity": "post_box", "collection_times": "Mo-Fr 13:00; Sa 11:00", "note": "ON 12/24 AND 12/31, THIS BOX MAY BE COLLECTED AS EARLY AS 12 NOON.", "nsi_id": "unitedstatespostalservice-a77078", "operator": "United States Postal Service", "operator:short": "USPS", "operator:type": "public", "operator:wikidata": "Q668687", "ref": "3863900001"}, "type": "Feature"}
{"geometry": {"coordinates": [-90.456318107, 34.320054624], "type": "Point"}, "id": "ClSypGspNMxK75jQqcffavTQDk8=", "properties": {"@source_uri": "https://tools.usps.com/UspsToolsRestServices/rest/POLocator/findLocations", "@spider": "usps_collection_boxes", "addr:city": "JONESTOWN", "addr:country": "US", "addr:postcode": "38639", "addr:state": "MS", "addr:street_address": "195 LONGINO ST", "amenity": "post_box", "collection_times": "Mo-Fr 12:50; Sa 11:00", "indoor": "yes", "note": "ON 12/24 AND 12/31, THIS BOX MAY BE COLLECTED AS EARLY AS 12 NOON.", "nsi_id": "unitedstatespostalservice-a77078", "operator": "United States Postal Service", "operator:short": "USPS", "operator:type": "public", "operator:wikidata": "Q668687", "ref": "3863900002"}, "type": "Feature"}
{"geometry": {"coordinates": [-90.456318107, 34.320054624], "type": "Point"}, "id": "kjBgPAu1sEo-jMsHUJBPvVcL_3Y=", "properties": {"@source_uri": "https://tools.usps.com/UspsToolsRestServices/rest/POLocator/findLocations", "@spider": "usps_collection_boxes", "addr:city": "JONESTOWN", "addr:country": "US", "addr:postcode": "38639", "addr:state": "MS", "addr:street_address": "195 LONGINO ST", "amenity": "post_box", "collection_times": "Mo-Fr 13:00; Sa 11:00", "indoor": "yes", "note": "ON 12/24 AND 12/31, THIS BOX MAY BE COLLECTED AS EARLY AS 12 NOON.", "nsi_id": "unitedstatespostalservice-a77078", "operator": "United States Postal Service", "operator:short": "USPS", "operator:type": "public", "operator:wikidata": "Q668687", "ref": "3863900003"}, "type": "Feature"}
{"geometry": {"coordinates": [-90.216430382, 34.904695178], "type": "Point"}, "id": "979XW470VjOleAISwYExFqQ_upI=", "properties": {"@source_uri": "https://tools.usps.com/UspsToolsRestServices/rest/POLocator/findLocations", "@spider": "usps_collection_boxes", "addr:city": "LAKE CORMORANT", "addr:country": "US", "addr:postcode": "38641", "addr:state": "MS", "addr:street_address": "12744 STAR LANDING RD W", "amenity": "post_box", "collection_times": "Mo-Fr 12:00; Sa 08:45", "nsi_id": "unitedstatespostalservice-a77078", "operator": "United States Postal Service", "operator:short": "USPS", "operator:type": "public", "operator:wikidata": "Q668687", "ref": "3864100001"}, "type": "Feature"}
{"geometry": {"coordinates": [-90.216430382, 34.904695178], "type": "Point"}, "id": "4qDI2T46Giiq-Ui74WafhlwyLTo=", "properties": {"@source_uri": "https://tools.usps.com/UspsToolsRestServices/rest/POLocator/findLocations", "@spider": "usps_collection_boxes", "addr:city": "LAKE CORMORANT", "addr:country": "US", "addr:postcode": "38641", "addr:state": "MS", "addr:street_address": "12744 STAR LANDING RD W", "amenity": "post_box", "collection_times": "Mo-Fr 12:00; Sa 08:45", "indoor": "yes", "nsi_id": "unitedstatespostalservice-a77078", "operator": "United States Postal Service", "operator:short": "USPS", "operator:type": "public", "operator:wikidata": "Q668687", "ref": "3864100002"}, "type": "Feature"}
{"geometry": {"coordinates": [-90.216430382, 34.904695178], "type": "Point"}, "id": "uKyudiiJighDQHdtcWGTIVGgTsw=", "properties": {"@source_uri": "https://tools.usps.com/UspsToolsRestServices/rest/POLocator/findLocations", "@spider": "usps_collection_boxes", "addr:city": "LAKE CORMORANT", "addr:country": "US", "addr:postcode": "38641", "addr:state": "MS", "addr:street_address": "12744 STAR LANDING RD", "amenity": "post_box", "collection_times": "Mo-Fr 12:00", "indoor": "yes", "nsi_id": "unitedstatespostalservice-a77078", "operator": "United States Postal Service", "operator:short": "USPS", "operator:type": "public", "operator:wikidata": "Q668687", "ref": "3864100004"}, "type": "Feature"}
{"geometry": {"coordinates": [-89.318869994, 34.914890013], "type": "Point"}, "id": "L2x8kEoeqtYWIgMOASxqj6HOSNg=", "properties": {"@source_uri": "https://tools.usps.com/UspsToolsRestServices/rest/POLocator/findLocations", "@spider": "usps_collection_boxes", "addr:city": "LAMAR", "addr:country": "US", "addr:postcode": "38642", "addr:state": "MS", "addr:street_address": "10464 LAMAR RD", "amenity": "post_box", "collection_times": "Mo-Fr 11:30; Sa 09:15", "nsi_id": "unitedstatespostalservice-a77078", "operator": "United States Postal Service", "operator:short": "USPS", "operator:type": "public", "operator:wikidata": "Q668687", "ref": "3864200001"}, "type": "Feature"}
{"geometry": {"coordinates": [-89.318869994, 34.914890013], "type": "Point"}, "id": "Xd7MGqgnKiOkGdBwAiB5zU7QkcY=", "properties": {"@source_uri": "https://tools.usps.com/UspsToolsRestServices/rest/POLocator/findLocations", "@spider": "usps_collection_boxes", "addr:city": "LAMAR", "addr:country": "US", "addr:postcode": "38642", "addr:state": "MS", "addr:street_address": "10464 LAMAR RD", "amenity": "post_box", "collection_times": "Mo-Fr 11:30; Sa 09:15", "indoor": "yes", "nsi_id": "unitedstatespostalservice-a77078", "operator": "United States Postal Service", "operator:short": "USPS", "operator:type": "public", "operator:wikidata": "Q668687", "ref": "3864200003"}, "type": "Feature"}
{"geometry": {"coordinates": [-89.318869994, 34.914890013], "type": "Point"}, "id": "gqmWev5cEJFEI05HGyeBkLEUdDc=", "properties": {"@source_uri": "https://tools.usps.com/UspsToolsRestServices/rest/POLocator/findLocations", "@spider": "usps_collection_boxes", "addr:city": "LAMAR", "addr:country": "US", "addr:postcode": "38642", "addr:state": "MS", "addr:street_address": "10464 LAMAR RD", "amenity": "post_box", "collection_times": "Mo-Fr 11:30", "indoor": "yes", "nsi_id": "unitedstatespostalservice-a77078", "operator": "United States Postal Service", "operator:short": "USPS", "operator:type": "public", "operator:wikidata": "Q668687", "ref": "3864200005"}, "type": "Feature"}
{"geometry": {"coordinates": [-90.283513938, 34.202819301], "type": "Point"}, "id": "H08eKhMwhLfz0VX68zGyflhLZ40=", "properties": {"@source_uri": "https://tools.usps.com/UspsToolsRestServices/rest/POLocator/findLocations", "@spider": "usps_collection_boxes", "addr:city": "LAMBERT", "addr:country": "US", "addr:postcode": "38643", "addr:state": "MS", "addr:street_address": "700 COVINGTON AVE", "amenity": "post_box", "collection_times": "Mo-Fr 16:00; Sa 11:30", "note": "ON 12/24 AND 12/31, THIS BOX MAY BE COLLECTED AS EARLY AS 12 NOON.", "nsi_id": "unitedstatespostalservice-a77078", "operator": "United States Postal Service", "operator:short": "USPS", "operator:type": "public", "operator:wikidata": "Q668687", "ref": "3864300001"}, "type": "Feature"}
{"geometry": {"coordinates": [-90.283513938, 34.202819301], "type": "Point"}, "id": "641lJrUjtXRZGD00qcipFFpXiNY=", "properties": {"@source_uri": "https://tools.usps.com/UspsToolsRestServices/rest/POLocator/findLocations", "@spider": "usps_collection_boxes", "addr:city": "LAMBERT", "addr:country": "US", "addr:postcode": "38643", "addr:state": "MS", "addr:street_address": "700 COVINGTON AVE", "amenity": "post_box", "collection_times": "Mo-Fr 16:00; Sa 11:30", "indoor": "yes", "note": "ON 12/24 AND 12/31, THIS BOX MAY BE COLLECTED AS EARLY AS 12 NOON.", "nsi_id": "unitedstatespostalservice-a77078", "operator": "United States Postal Service", "operator:short": "USPS", "operator:type": "public", "operator:wikidata": "Q668687", "ref": "3864300002"}, "type": "Feature"}
{"geometry": {"coordinates": [-90.283513938, 34.202819301], "type": "Point"}, "id": "4sbPKEFfjPAHhXz_hr9wE_b24L4=", "properties": {"@source_uri": "https://tools.usps.com/UspsToolsRestServices/rest/POLocator/findLocations", "@spider": "usps_collection_boxes", "addr:city": "LAMBERT", "addr:country": "US", "addr:postcode": "38643", "addr:state": "MS", "addr:street_address": "700 COVINGTON AVE", "amenity": "post_box", "collection_times": "Mo-Fr 16:00; Sa 11:00", "indoor": "yes", "note": "ON 12/24 AND 12/31, THIS BOX MAY BE COLLECTED AS EARLY AS 12 NOON.", "nsi_id": "unitedstatespostalservice-a77078", "operator": "United States Postal Service", "operator:short": "USPS", "operator:type": "public", "operator:wikidata": "Q668687", "ref": "3864300004"}, "type": "Feature"}
{"geometry": {"coordinates": [-90.57734599, 34.497379094], "type": "Point"}, "id": "eq0J0JKk0ghHa0jR22FoYvjYAuI=", "properties": {"@source_uri": "https://tools.usps.com/UspsToolsRestServices/rest/POLocator/findLocations", "@spider": "usps_collection_boxes", "addr:city": "LULA", "addr:country": "US", "addr:postcode": "38644", "addr:state": "MS", "addr:street_address": "6125 HIGHWAY 49 N", "amenity": "post_box", "collection_times": "Mo-Sa 10:00", "nsi_id": "unitedstatespostalservice-a77078", "operator": "United States Postal Service", "operator:short": "USPS", "operator:type": "public", "operator:wikidata": "Q668687", "ref": "3864400004"}, "type": "Feature"}
{"geometry": {"coordinates": [-90.541429205, 34.218848163], "type": "Point"}, "id": "OPCHIZ7qB8UMdsWbjeBNqA2MgcU=", "properties": {"@source_uri": "https://tools.usps.com/UspsToolsRestServices/rest/POLocator/findLocations", "@spider": "usps_collection_boxes", "addr:city": "LYON", "addr:country": "US", "addr:postcode": "38645", "addr:state": "MS", "addr:street_address": "109 PARK ST", "amenity": "post_box", "collection_times": "Mo-Fr 15:00; Sa 10:30", "note": "ON 12/24 AND 12/31, THIS BOX MAY BE COLLECTED AS EARLY AS 12 NOON.", "nsi_id": "unitedstatespostalservice-a77078", "operator": "United States Postal Service", "operator:short": "USPS", "operator:type": "public", "operator:wikidata": "Q668687", "ref": "3864500001"}, "type": "Feature"}
{"geometry": {"coordinates": [-90.541429205, 34.218848163], "type": "Point"}, "id": "idxze6fmaUv0JNH4XoU6lb-Ngc4=", "properties": {"@source_uri": "https://tools.usps.com/UspsToolsRestServices/rest/POLocator/findLocations", "@spider": "usps_collection_boxes", "addr:city": "LYON", "addr:country": "US", "addr:postcode": "38645", "addr:state": "MS", "addr:street_address": "109 PARK ST", "amenity": "post_box", "collection_times": "Mo-Fr 15:00; Sa 10:30", "indoor": "yes", "note": "ON 12/24 AND 12/31, THIS BOX MAY BE COLLECTED AS EARLY AS 12 NOON.", "nsi_id": "unitedstatespostalservice-a77078", "operator": "United States Postal Service", "operator:short": "USPS", "operator:type": "public", "operator:wikidata": "Q668687", "ref": "3864500002"}, "type": "Feature"}
{"geometry": {"coordinates": [-90.541429205, 34.218848163], "type": "Point"}, "id": "R7hwTxThxJ4KYm3GzZkdCoram_Q=", "properties": {"@source_uri": "https://tools.usps.com/UspsToolsRestServices/rest/POLocator/findLocations", "@spider": "usps_collection_boxes", "addr:city": "LYON", "addr:country": "US", "addr:postcode": "38645", "addr:state": "MS", "addr:street_address": "109 PARK ST", "amenity": "post_box", "collection_times": "Mo-Fr 15:00; Sa 10:30", "indoor": "yes", "note": "ON 12/24 AND 12/31, THIS BOX MAY BE COLLECTED AS EARLY AS 12 NOON.", "nsi_id": "unitedstatespostalservice-a77078", "operator": "United States Postal Service", "operator:short": "USPS", "operator:type": "public", "operator:wikidata": "Q668687", "ref": "3864500003"}, "type": "Feature"}
{"geometry": {"coordinates": [-90.272109979, 34.255789995], "type": "Point"}, "id": "P7dN9EPRZ0u7fEerzWtYzZeYcw4=", "properties": {"@source_uri": "https://tools.usps.com/UspsToolsRestServices/rest/POLocator/findLocations", "@spider": "usps_collection_boxes", "addr:city": "MARKS", "addr:country": "US", "addr:postcode": "38646", "addr:state": "MS", "addr:street_address": "423 POPLAR ST", "amenity": "post_box", "collection_times": "Mo-Fr 16:45; Sa 12:00", "note": "ON 12/24 AND 12/31, THIS BOX MAY BE COLLECTED AS EARLY AS 12 NOON.", "nsi_id": "unitedstatespostalservice-a77078", "operator": "United States Postal Service", "operator:short": "USPS", "operator:type": "public", "operator:wikidata": "Q668687", "ref": "3864600008"}, "type": "Feature"}
{"geometry": {"coordinates": [-90.272109979, 34.255789995], "type": "Point"}, "id": "PhsSB9dwSkbRDxcf05ickBBi-bE=", "properties": {"@source_uri": "https://tools.usps.com/UspsToolsRestServices/rest/POLocator/findLocations", "@spider": "usps_collection_boxes", "addr:city": "MARKS", "addr:country": "US", "addr:postcode": "38646", "addr:state": "MS", "addr:street_address": "423 POPLAR ST", "amenity": "post_box", "collection_times": "Mo-Fr 16:45; Sa 12:00", "indoor": "yes", "note": "ON 12/24 AND 12/31, THIS BOX MAY BE COLLECTED AS EARLY AS 12 NOON.", "nsi_id": "unitedstatespostalservice-a77078", "operator": "United States Postal Service", "operator:short": "USPS", "operator:type": "public", "operator:wikidata": "Q668687", "ref": "3864600011"}, "type": "Feature"}
{"geometry": {"coordinates": [-90.272109979, 34.255789995], "type": "Point"}, "id": "tyPCoBCVTdKpXQRi1Sx-m75l-do=", "properties": {"@source_uri": "https://tools.usps.com/UspsToolsRestServices/rest/POLocator/findLocations", "@spider": "usps_collection_boxes", "addr:city": "MARKS", "addr:country": "US", "addr:postcode": "38646", "addr:state": "MS", "addr:street_address": "423 POPLAR ST", "amenity": "post_box", "collection_times": "Mo-Fr 16:45; Sa 12:00", "indoor": "yes", "note": "ON 12/24 AND 12/31, THIS BOX MAY BE COLLECTED AS EARLY AS 12 NOON.", "nsi_id": "unitedstatespostalservice-a77078", "operator": "United States Postal Service", "operator:short": "USPS", "operator:type": "public", "operator:wikidata": "Q668687", "ref": "3864600012"}, "type": "Feature"}
{"geometry": {"coordinates": [-90.272109979, 34.255789995], "type": "Point"}, "id": "yIrioyfTkFh3PxVXTorr0NDae9c=", "properties": {"@source_uri": "https://tools.usps.com/UspsToolsRestServices/rest/POLocator/findLocations", "@spider": "usps_collection_boxes", "addr:city": "MARKS", "addr:country": "US", "addr:postcode": "38646", "addr:state": "MS", "addr:street_address": "423 POPLAR ST", "amenity": "post_box", "collection_times": "Mo-Fr 17:00", "indoor": "yes", "note": "ON 12/24 AND 12/31, THIS BOX MAY BE COLLECTED AS EARLY AS 12 NOON.", "nsi_id": "unitedstatespostalservice-a77078", "operator": "United States Postal Service", "operator:short": "USPS", "operator:type": "public", "operator:wikidata": "Q668687", "ref": "3864600014"}, "type": "Feature"}
{"geometry": {"coordinates": [-89.25088918, 34.981076631], "type": "Point"}, "id": "8Lm96U_8xc7R_psUU0LgQdMeA68=", "properties": {"@source_uri": "https://tools.usps.com/UspsToolsRestServices/rest/POLocator/findLocations", "@spider": "usps_collection_boxes", "addr:city": "MICHIGAN CITY", "addr:country": "US", "addr:postcode": "38647", "addr:state": "MS", "addr:street_address": "73 MAIN ST", "amenity": "post_box", "collection_times": "Mo-Fr 11:30; Sa 09:15", "nsi_id": "unitedstatespostalservice-a77078", "operator": "United States Postal Service", "operator:short": "USPS", "operator:type": "public", "operator:wikidata": "Q668687", "ref": "3864700001"}, "type": "Feature"}
{"geometry": {"coordinates": [-89.25088918, 34.981076631], "type": "Point"}, "id": "d9MN2-blhFU5ZXG1d4Un5OMNkXI=", "properties": {"@source_uri": "https://tools.usps.com/UspsToolsRestServices/rest/POLocator/findLocations", "@spider": "usps_collection_boxes", "addr:city": "MICHIGAN CITY", "addr:country": "US", "addr:postcode": "38647", "addr:state": "MS", "addr:street_address": "73 MAIN ST", "amenity": "post_box", "collection_times": "Mo-Fr 11:30; Sa 09:15", "indoor": "yes", "nsi_id": "unitedstatespostalservice-a77078", "operator": "United States Postal Service", "operator:short": "USPS", "operator:type": "public", "operator:wikidata": "Q668687", "ref": "3864700002"}, "type": "Feature"}
{"geometry": {"coordinates": [-89.25088918, 34.981076631], "type": "Point"}, "id": "vFqu18QDKgclDy3LvNXtNBh2nBc=", "properties": {"@source_uri": "https://tools.usps.com/UspsToolsRestServices/rest/POLocator/findLocations", "@spider": "usps_collection_boxes", "addr:city": "MICHIGAN CITY", "addr:country": "US", "addr:postcode": "38647", "addr:state": "MS", "addr:street_address": "73 MAIN ST", "amenity": "post_box", "collection_times": "Mo-Fr 11:30", "indoor": "yes", "nsi_id": "unitedstatespostalservice-a77078", "operator": "United States Postal Service", "operator:short": "USPS", "operator:type": "public", "operator:wikidata": "Q668687", "ref": "3864700003"}, "type": "Feature"}
{"geometry": {"coordinates": [-89.119106124, 34.55865069], "type": "Point"}, "id": "umsGd_w-98B3S2GL_2WdnrAC6pM=", "properties": {"@source_uri": "https://tools.usps.com/UspsToolsRestServices/rest/POLocator/findLocations", "@spider": "usps_collection_boxes", "addr:city": "MYRTLE", "addr:country": "US", "addr:postcode": "38650", "addr:state": "MS", "addr:street_address": "1183 SPRINGDALE AVE", "amenity": "post_box", "collection_times": "Mo-Fr 14:30; Sa 10:00", "note": "ON 12/24 AND 12/31, THIS BOX MAY BE COLLECTED AS EARLY AS 12 NOON.", "nsi_id": "unitedstatespostalservice-a77078", "operator": "United States Postal Service", "operator:short": "USPS", "operator:type": "public", "operator:wikidata": "Q668687", "ref": "3865000001"}, "type": "Feature"}
{"geometry": {"coordinates": [-89.119106124, 34.55865069], "type": "Point"}, "id": "efmhqwLAja_MMH17wdo5cqdTNvE=", "properties": {"@source_uri": "https://tools.usps.com/UspsToolsRestServices/rest/POLocator/findLocations", "@spider": "usps_collection_boxes", "addr:city": "MYRTLE", "addr:country": "US", "addr:postcode": "38650", "addr:state": "MS", "addr:street_address": "1183 SPRINGDALE AVE", "amenity": "post_box", "collection_times": "Mo-Fr 14:30; Sa 09:45", "indoor": "yes", "note": "ON 12/24 AND 12/31, THIS BOX MAY BE COLLECTED AS EARLY AS 12 NOON.", "nsi_id": "unitedstatespostalservice-a77078", "operator": "United States Postal Service", "operator:short": "USPS", "operator:type": "public", "operator:wikidata": "Q668687", "ref": "3865000002"}, "type": "Feature"}
{"geometry": {"coordinates": [-89.119106124, 34.55865069], "type": "Point"}, "id": "txLavwOUL56MQ_5T0I1MyBU3hOg=", "properties": {"@source_uri": "https://tools.usps.com/UspsToolsRestServices/rest/POLocator/findLocations", "@spider": "usps_collection_boxes", "addr:city": "MYRTLE", "addr:country": "US", "addr:postcode": "38650", "addr:state": "MS", "addr:street_address": "1183 SPRINGDALE AVE", "amenity": "post_box", "collection_times": "Mo-Fr 14:30; Sa 09:00", "indoor": "yes", "note": "ON 12/24 AND 12/31, THIS BOX MAY BE COLLECTED AS EARLY AS 12 NOON.", "nsi_id": "unitedstatespostalservice-a77078", "operator": "United States Postal Service", "operator:short": "USPS", "operator:type": "public", "operator:wikidata": "Q668687", "ref": "3865000004"}, "type": "Feature"}
{"geometry": {"coordinates": [-89.993371166, 34.883870142], "type": "Point"}, "id": "UjMuEmHWdXYpWw8dBXA9j38wOSE=", "properties": {"@source_uri": "https://tools.usps.com/UspsToolsRestServices/rest/POLocator/findLocations", "@spider": "usps_collection_boxes", "addr:city": "NESBIT", "addr:country": "US", "addr:postcode": "38651", "addr:state": "MS", "addr:street_address": "600 OLD HIGHWAY 51 N", "amenity": "post_box", "collection_times": "Mo-Fr 16:15; Sa 11:00", "note": "ON 12/24 AND 12/31, THIS BOX MAY BE COLLECTED AS EARLY AS 12 NOON.", "nsi_id": "unitedstatespostalservice-a77078", "operator": "United States Postal Service", "operator:short": "USPS", "operator:type": "public", "operator:wikidata": "Q668687", "ref": "3865100002"}, "type": "Feature"}
{"geometry": {"coordinates": [-89.993371166, 34.883870142], "type": "Point"}, "id": "cLAC8aOhTKEGVQTSX2AgF2m5KU4=", "properties": {"@source_uri": "https://tools.usps.com/UspsToolsRestServices/rest/POLocator/findLocations", "@spider": "usps_collection_boxes", "addr:city": "NESBIT", "addr:country": "US", "addr:postcode": "38651", "addr:state": "MS", "addr:street_address": "600 OLD HIGHWAY 51 N", "amenity": "post_box", "collection_times": "Mo-Fr 16:30; Sa 11:00", "indoor": "yes", "note": "ON 12/24 AND 12/31, THIS BOX MAY BE COLLECTED AS EARLY AS 12 NOON.", "nsi_id": "unitedstatespostalservice-a77078", "operator": "United States Postal Service", "operator:short": "USPS", "operator:type": "public", "operator:wikidata": "Q668687", "ref": "3865100004"}, "type": "Feature"}
{"geometry": {"coordinates": [-89.993371166, 34.883870142], "type": "Point"}, "id": "lkmHqIkVOZCN5MD1krHd339YSYs=", "properties": {"@source_uri": "https://tools.usps.com/UspsToolsRestServices/rest/POLocator/findLocations", "@spider": "usps_collection_boxes", "addr:city": "NESBIT", "addr:country": "US", "addr:postcode": "38651", "addr:state": "MS", "addr:street_address": "600 OLD HIGHWAY 51 N", "amenity": "post_box", "collection_times": "Mo-Fr 16:30; Sa 11:00", "indoor": "yes", "note": "ON 12/24 AND 12/31, THIS BOX MAY BE COLLECTED AS EARLY AS 12 NOON.", "nsi_id": "unitedstatespostalservice-a77078", "operator": "United States Postal Service", "operator:short": "USPS", "operator:type": "public", "operator:wikidata": "Q668687", "ref": "3865100006"}, "type": "Feature"}
{"geometry": {"coordinates": [-89.993371166, 34.883870142], "type": "Point"}, "id": "OhNMhAMngCb94LSXX0UlHAxlBao=", "properties": {"@source_uri": "https://tools.usps.com/UspsToolsRestServices/rest/POLocator/findLocations", "@spider": "usps_collection_boxes", "addr:city": "NESBIT", "addr:country": "US", "addr:postcode": "38651", "addr:state": "MS", "addr:street_address": "600 OLD HIGHWAY 51 N", "amenity": "post_box", "collection_times": "Mo-Fr 16:30; Sa 11:00", "indoor": "yes", "note": "ON 12/24 AND 12/31, THIS BOX MAY BE COLLECTED AS EARLY AS 12 NOON.", "nsi_id": "unitedstatespostalservice-a77078", "operator": "United States Postal Service", "operator:short": "USPS", "operator:type": "public", "operator:wikidata": "Q668687", "ref": "3865100007"}, "type": "Feature"}
{"geometry": {"coordinates": [-88.99935368, 34.481511038], "type": "Point"}, "id": "03qTfim1ldERMWcWLSFhVMPnN_8=", "properties": {"@source_uri": "https://tools.usps.com/UspsToolsRestServices/rest/POLocator/findLocations", "@spider": "usps_collection_boxes", "addr:city": "NEW ALBANY", "addr:country": "US", "addr:postcode": "38652", "addr:state": "MS", "addr:street_address": "801 E BANKHEAD ST", "amenity": "post_box", "collection_times": "Mo-Fr 16:30; Sa 15:00", "note": "ON 12/24 AND 12/31, THIS BOX MAY BE COLLECTED AS EARLY AS 12 NOON.", "nsi_id": "unitedstatespostalservice-a77078", "operator": "United States Postal Service", "operator:short": "USPS", "operator:type": "public", "operator:wikidata": "Q668687", "ref": "3865200001"}, "type": "Feature"}
{"geometry": {"coordinates": [-89.010595859, 34.494768972], "type": "Point"}, "id": "wpb2CIl13v-W1kCX5SC2msUg99Q=", "properties": {"@source_uri": "https://tools.usps.com/UspsToolsRestServices/rest/POLocator/findLocations", "@spider": "usps_collection_boxes", "addr:city": "NEW ALBANY", "addr:country": "US", "addr:postcode": "38652", "addr:state": "MS", "addr:street_address": "142 W BANKHEAD ST", "amenity": "post_box", "collection_times": "Mo-Sa 14:30", "note": "ON 12/24 AND 12/31, THIS BOX MAY BE COLLECTED AS EARLY AS 12 NOON.", "nsi_id": "unitedstatespostalservice-a77078", "operator": "United States Postal Service", "operator:short": "USPS", "operator:type": "public", "operator:wikidata": "Q668687", "ref": "3865200002"}, "type": "Feature"}
{"geometry": {"coordinates": [-89.027037627, 34.499117059], "type": "Point"}, "id": "2hvuc6vf8PjPjiWaZ7FhnqWXVYk=", "properties": {"@source_uri": "https://tools.usps.com/UspsToolsRestServices/rest/POLocator/findLocations", "@spider": "usps_collection_boxes", "addr:city": "NEW ALBANY", "addr:country": "US", "addr:postcode": "38652", "addr:state": "MS", "addr:street_address": "201 STATE HIGHWAY 30 W", "amenity": "post_box", "collection_times": "Mo-Sa 11:00", "nsi_id": "unitedstatespostalservice-a77078", "operator": "United States Postal Service", "operator:short": "USPS", "operator:type": "public", "operator:wikidata": "Q668687", "ref": "3865200012"}, "type": "Feature"}
{"geometry": {"coordinates": [-88.99935368, 34.481511038], "type": "Point"}, "id": "y1WtILpJISkk__qAq-klcHUb47o=", "properties": {"@source_uri": "https://tools.usps.com/UspsToolsRestServices/rest/POLocator/findLocations", "@spider": "usps_collection_boxes", "addr:city": "NEW ALBANY", "addr:country": "US", "addr:postcode": "38652", "addr:state": "MS", "addr:street_address": "801 E BANKHEAD ST", "amenity": "post_box", "collection_times": "Mo-Fr 16:30; Sa 15:00", "indoor": "yes", "note": "ON 12/24 AND 12/31, THIS BOX MAY BE COLLECTED AS EARLY AS 12 NOON.", "nsi_id": "unitedstatespostalservice-a77078", "operator": "United States Postal Service", "operator:short": "USPS", "operator:type": "public", "operator:wikidata": "Q668687", "ref": "3865200022"}, "type": "Feature"}
{"geometry": {"coordinates": [-89.029094553, 34.492324358], "type": "Point"}, "id": "jaNE8jKg68WyQwkKBEE38j_fi0M=", "properties": {"@source_uri": "https://tools.usps.com/UspsToolsRestServices/rest/POLocator/findLocations", "@spider": "usps_collection_boxes", "addr:city": "NEW ALBANY", "addr:country": "US", "addr:postcode": "38652", "addr:state": "MS", "addr:street_address": "320 PARK PLAZA DR", "amenity": "post_box", "collection_times": "Mo-Sa 11:00", "nsi_id": "unitedstatespostalservice-a77078", "operator": "United States Postal Service", "operator:short": "USPS", "operator:type": "public", "operator:wikidata": "Q668687", "ref": "3865200023"}, "type": "Feature"}
{"geometry": {"coordinates": [-88.99935368, 34.481511038], "type": "Point"}, "id": "3LgruVTnDxL8M-GSV4xdct-KmcA=", "properties": {"@source_uri": "https://tools.usps.com/UspsToolsRestServices/rest/POLocator/findLocations", "@spider": "usps_collection_boxes", "addr:city": "NEW ALBANY", "addr:country": "US", "addr:postcode": "38652", "addr:state": "MS", "addr:street_address": "801 E BANKHEAD ST", "amenity": "post_box", "collection_times": "Mo-Fr 16:30; Sa 11:30", "indoor": "yes", "note": "ON 12/24 AND 12/31, THIS BOX MAY BE COLLECTED AS EARLY AS 12 NOON.", "nsi_id": "unitedstatespostalservice-a77078", "operator": "United States Postal Service", "operator:short": "USPS", "operator:type": "public", "operator:wikidata": "Q668687", "ref": "3865200026"}, "type": "Feature"}
{"geometry": {"coordinates": [-89.827652988, 34.962019811], "type": "Point"}, "id": "EGyaRdoh_BoRn8Db-5tQ9-6n_XY=", "properties": {"@source_uri": "https://tools.usps.com/UspsToolsRestServices/rest/POLocator/findLocations", "@spider": "usps_collection_boxes", "addr:city": "OLIVE BRANCH", "addr:country": "US", "addr:postcode": "38654", "addr:state": "MS", "addr:street_address": "9150 PIGEON ROOST RD", "amenity": "post_box", "collection_times": "Mo-Sa 10:00", "nsi_id": "unitedstatespostalservice-a77078", "operator": "United States Postal Service", "operator:short": "USPS", "operator:type": "public", "operator:wikidata": "Q668687", "ref": "3865400002"}, "type": "Feature"}
{"geometry": {"coordinates": [-89.85774498, 34.96019399], "type": "Point"}, "id": "2tCIyuUnAqM4cTvzdw4JFmXpiGw=", "properties": {"@source_uri": "https://tools.usps.com/UspsToolsRestServices/rest/POLocator/findLocations", "@spider": "usps_collection_boxes", "addr:city": "OLIVE BRANCH", "addr:country": "US", "addr:postcode": "38654", "addr:state": "MS", "addr:street_address": "7427 GOODMAN RD", "amenity": "post_box", "collection_times": "Mo-Sa 10:00", "nsi_id": "unitedstatespostalservice-a77078", "operator": "United States Postal Service", "operator:short": "USPS", "operator:type": "public", "operator:wikidata": "Q668687", "ref": "3865400008"}, "type": "Feature"}
{"geometry": {"coordinates": [-89.8336109658, 34.9499440123], "type": "Point"}, "id": "QRvSrL2nPphHP_N9XY6QW6qcNPk=", "properties": {"@source_uri": "https://tools.usps.com/UspsToolsRestServices/rest/POLocator/findLocations", "@spider": "usps_collection_boxes", "addr:city": "OLIVE BRANCH", "addr:country": "US", "addr:postcode": "38654", "addr:state": "MS", "addr:street_address": "8850 MIDSOUTH DR", "amenity": "post_box", "collection_times": "Mo-Fr 17:00; Sa 15:00", "note": "ON 12/24 AND 12/31, THIS BOX MAY BE COLLECTED AS EARLY AS 12 NOON.", "nsi_id": "unitedstatespostalservice-a77078", "operator": "United States Postal Service", "operator:short": "USPS", "operator:type": "public", "operator:wikidata": "Q668687", "ref": "3865400009"}, "type": "Feature"}
{"geometry": {"coordinates": [-89.79374303, 34.928510019], "type": "Point"}, "id": "-ikVI2ljb3U16yYTZE3A7crQQl8=", "properties": {"@source_uri": "https://tools.usps.com/UspsToolsRestServices/rest/POLocator/findLocations", "@spider": "usps_collection_boxes", "addr:city": "OLIVE BRANCH", "addr:country": "US", "addr:postcode": "38654", "addr:state": "MS", "addr:street_address": "4740 BETHEL RD", "amenity": "post_box", "collection_times": "Mo-Sa 10:00", "nsi_id": "unitedstatespostalservice-a77078", "operator": "United States Postal Service", "operator:short": "USPS", "operator:type": "public", "operator:wikidata": "Q668687", "ref": "3865400010"}, "type": "Feature"}
{"geometry": {"coordinates": [-89.833466191, 34.949214277], "type": "Point"}, "id": "AkaceE4GWILgJJHweeHB0vmVAtU=", "properties": {"@source_uri": "https://tools.usps.com/UspsToolsRestServices/rest/POLocator/findLocations", "@spider": "usps_collection_boxes", "addr:city": "OLIVE BRANCH", "addr:country": "US", "addr:postcode": "38654", "addr:state": "MS", "addr:street_address": "8850 MIDSOUTH DR", "amenity": "post_box", "collection_times": "Mo-Fr 17:00; Sa 12:30", "indoor": "yes", "note": "ON 12/24 AND 12/31, THIS BOX MAY BE COLLECTED AS EARLY AS 12 NOON.", "nsi_id": "unitedstatespostalservice-a77078", "operator": "United States Postal Service", "operator:short": "USPS", "operator:type": "public", "operator:wikidata": "Q668687", "ref": "3865400015"}, "type": "Feature"}
{"geometry": {"coordinates": [-89.521245233, 34.367263216], "type": "Point"}, "id": "-EXHWnBjKaW5RuWjfIGNfmIASsM=", "properties": {"@source_uri": "https://tools.usps.com/UspsToolsRestServices/rest/POLocator/findLocations", "@spider": "usps_collection_boxes", "addr:city": "OXFORD", "addr:country": "US", "addr:postcode": "38655", "addr:state": "MS", "addr:street_address": "911 JACKSON AVE E", "amenity": "post_box", "collection_times": "Mo-Sa 10:00", "nsi_id": "unitedstatespostalservice-a77078", "operator": "United States Postal Service", "operator:short": "USPS", "operator:type": "public", "operator:wikidata": "Q668687", "ref": "3865500001"}, "type": "Feature"}
{"geometry": {"coordinates": [-89.518990027, 34.365810018], "type": "Point"}, "id": "BfILLRxroKoTLTXvoHMcvMlhVjo=", "properties": {"@source_uri": "https://tools.usps.com/UspsToolsRestServices/rest/POLocator/findLocations", "@spider": "usps_collection_boxes", "addr:city": "OXFORD", "addr:country": "US", "addr:postcode": "38655", "addr:state": "MS", "addr:street_address": "160 COURTHOUSE SQ", "amenity": "post_box", "collection_times": "Mo-Sa 10:00", "nsi_id": "unitedstatespostalservice-a77078", "operator": "United States Postal Service", "operator:short": "USPS", "operator:type": "public", "operator:wikidata": "Q668687", "ref": "3865500012"}, "type": "Feature"}
{"geometry": {"coordinates": [-89.535249833, 34.381416059], "type": "Point"}, "id": "GyFrLD7BX2PxYLnjqFzktxKvlSY=", "properties": {"@source_uri": "https://tools.usps.com/UspsToolsRestServices/rest/POLocator/findLocations", "@spider": "usps_collection_boxes", "addr:city": "OXFORD", "addr:country": "US", "addr:postcode": "38655", "addr:state": "MS", "addr:street_address": "401 MCELROY DR", "amenity": "post_box", "collection_times": "Mo-Fr 17:00; Sa 12:30", "note": "ON 12/24 AND 12/31, THIS BOX MAY BE COLLECTED AS EARLY AS 12 NOON.", "nsi_id": "unitedstatespostalservice-a77078", "operator": "United States Postal Service", "operator:short": "USPS", "operator:type": "public", "operator:wikidata": "Q668687", "ref": "3865500026"}, "type": "Feature"}
{"geometry": {"coordinates": [-89.535249833, 34.381416059], "type": "Point"}, "id": "u0VYkDeizuez6lZLYnzmGT1H7fc=", "properties": {"@source_uri": "https://tools.usps.com/UspsToolsRestServices/rest/POLocator/findLocations", "@spider": "usps_collection_boxes", "addr:city": "OXFORD", "addr:country": "US", "addr:postcode": "38655", "addr:state": "MS", "addr:street_address": "401 MCELROY DR", "amenity": "post_box", "collection_times": "Mo-Fr 17:00; Sa 12:45", "indoor": "yes", "note": "ON 12/24 AND 12/31, THIS BOX MAY BE COLLECTED AS EARLY AS 12 NOON.", "nsi_id": "unitedstatespostalservice-a77078", "operator": "United States Postal Service", "operator:short": "USPS", "operator:type": "public", "operator:wikidata": "Q668687", "ref": "3865500028"}, "type": "Feature"}
{"geometry": {"coordinates": [-89.535249833, 34.381416059], "type": "Point"}, "id": "89IsUKz8dkPzCp6lV5z5tFoxV0k=", "properties": {"@source_uri": "https://tools.usps.com/UspsToolsRestServices/rest/POLocator/findLocations", "@spider": "usps_collection_boxes", "addr:city": "OXFORD", "addr:country": "US", "addr:postcode": "38655", "addr:state": "MS", "addr:street_address": "401 MCELROY DR", "amenity": "post_box", "collection_times": "Mo-Fr 17:00; Sa 12:45", "indoor": "yes", "note": "ON 12/24 AND 12/31, THIS BOX MAY BE COLLECTED AS EARLY AS 12 NOON.", "nsi_id": "unitedstatespostalservice-a77078", "operator": "United States Postal Service", "operator:short": "USPS", "operator:type": "public", "operator:wikidata": "Q668687", "ref": "3865500031"}, "type": "Feature"}
{"geometry": {"coordinates": [-89.518784927, 34.366850423], "type": "Point"}, "id": "TXYNh1RrHdIpItDTTTYjyZiyZ64=", "properties": {"@source_uri": "https://tools.usps.com/UspsToolsRestServices/rest/POLocator/findLocations", "@spider": "usps_collection_boxes", "addr:city": "OXFORD", "addr:country": "US", "addr:postcode": "38655", "addr:state": "MS", "addr:street_address": "100 COURTHOUSE SQ", "amenity": "post_box", "collection_times": "Mo-Sa 10:00", "nsi_id": "unitedstatespostalservice-a77078", "operator": "United States Postal Service", "operator:short": "USPS", "operator:type": "public", "operator:wikidata": "Q668687", "ref": "3865500032"}, "type": "Feature"}
{"geometry": {"coordinates": [-89.535249833, 34.381416059], "type": "Point"}, "id": "kofOjo8eVkowClhqzOPfQ51qm3M=", "properties": {"@source_uri": "https://tools.usps.com/UspsToolsRestServices/rest/POLocator/findLocations", "@spider": "usps_collection_boxes", "addr:city": "OXFORD", "addr:country": "US", "addr:postcode": "38655", "addr:state": "MS", "addr:street_address": "401 MCELROY DR", "amenity": "post_box", "collection_times": "Mo-Fr 17:00; Sa 12:30", "indoor": "yes", "note": "ON 12/24 AND 12/31, THIS BOX MAY BE COLLECTED AS EARLY AS 12 NOON.", "nsi_id": "unitedstatespostalservice-a77078", "operator": "United States Postal Service", "operator:short": "USPS", "operator:type": "public", "operator:wikidata": "Q668687", "ref": "3865500036"}, "type": "Feature"}
{"geometry": {"coordinates": [-89.946081487, 34.215378178], "type": "Point"}, "id": "9WNwgsNVP7TRxQ4XhXOm-5rz8GI=", "properties": {"@source_uri": "https://tools.usps.com/UspsToolsRestServices/rest/POLocator/findLocations", "@spider": "usps_collection_boxes", "addr:city": "POPE", "addr:country": "US", "addr:postcode": "38658", "addr:state": "MS", "addr:street_address": "774 MAIN ST", "amenity": "post_box", "collection_times": "Mo-Fr 11:30; Sa 10:00", "nsi_id": "unitedstatespostalservice-a77078", "operator": "United States Postal Service", "operator:short": "USPS", "operator:type": "public", "operator:wikidata": "Q668687", "ref": "3865800001"}, "type": "Feature"}
{"geometry": {"coordinates": [-89.946081487, 34.215378178], "type": "Point"}, "id": "HDZkSVRoncRP0lNEZ6HP-SS4dmU=", "properties": {"@source_uri": "https://tools.usps.com/UspsToolsRestServices/rest/POLocator/findLocations", "@spider": "usps_collection_boxes", "addr:city": "POPE", "addr:country": "US", "addr:postcode": "38658", "addr:state": "MS", "addr:street_address": "774 MAIN ST", "amenity": "post_box", "collection_times": "Mo-Fr 11:30; Sa 10:00", "indoor": "yes", "nsi_id": "unitedstatespostalservice-a77078", "operator": "United States Postal Service", "operator:short": "USPS", "operator:type": "public", "operator:wikidata": "Q668687", "ref": "3865800002"}, "type": "Feature"}
{"geometry": {"coordinates": [-89.946081487, 34.215378178], "type": "Point"}, "id": "WdxhiJhxVOAh_PhhBGKbV-yp8bM=", "properties": {"@source_uri": "https://tools.usps.com/UspsToolsRestServices/rest/POLocator/findLocations", "@spider": "usps_collection_boxes", "addr:city": "POPE", "addr:country": "US", "addr:postcode": "38658", "addr:state": "MS", "addr:street_address": "774 MAIN ST", "amenity": "post_box", "collection_times": "Mo-Fr 11:30; Sa 10:00", "indoor": "yes", "nsi_id": "unitedstatespostalservice-a77078", "operator": "United States Postal Service", "operator:short": "USPS", "operator:type": "public", "operator:wikidata": "Q668687", "ref": "3865800004"}, "type": "Feature"}
{"geometry": {"coordinates": [-89.307731247, 34.64490146], "type": "Point"}, "id": "KT_zApQx1uPobFcH-4hbN-l9moA=", "properties": {"@source_uri": "https://tools.usps.com/UspsToolsRestServices/rest/POLocator/findLocations", "@spider": "usps_collection_boxes", "addr:city": "POTTS CAMP", "addr:country": "US", "addr:postcode": "38659", "addr:state": "MS", "addr:street_address": "24 S CENTER ST", "amenity": "post_box", "collection_times": "Mo-Fr 15:00; Sa 10:30", "note": "ON 12/24 AND 12/31, THIS BOX MAY BE COLLECTED AS EARLY AS 12 NOON.", "nsi_id": "unitedstatespostalservice-a77078", "operator": "United States Postal Service", "operator:short": "USPS", "operator:type": "public", "operator:wikidata": "Q668687", "ref": "3865900002"}, "type": "Feature"}
{"geometry": {"coordinates": [-89.307731247, 34.64490146], "type": "Point"}, "id": "vYpDRxYpQsEBJbM5ucsOlayZa5U=", "properties": {"@source_uri": "https://tools.usps.com/UspsToolsRestServices/rest/POLocator/findLocations", "@spider": "usps_collection_boxes", "addr:city": "POTTS CAMP", "addr:country": "US", "addr:postcode": "38659", "addr:state": "MS", "addr:street_address": "24 S CENTER ST", "amenity": "post_box", "collection_times": "Mo-Fr 14:50; Sa 10:30", "indoor": "yes", "note": "ON 12/24 AND 12/31, THIS BOX MAY BE COLLECTED AS EARLY AS 12 NOON.", "nsi_id": "unitedstatespostalservice-a77078", "operator": "United States Postal Service", "operator:short": "USPS", "operator:type": "public", "operator:wikidata": "Q668687", "ref": "3865900003"}, "type": "Feature"}
{"geometry": {"coordinates": [-89.307731247, 34.64490146], "type": "Point"}, "id": "Qrus30yY6Mr1rGrlOIAiHN6-li0=", "properties": {"@source_uri": "https://tools.usps.com/UspsToolsRestServices/rest/POLocator/findLocations", "@spider": "usps_collection_boxes", "addr:city": "POTTS CAMP", "addr:country": "US", "addr:postcode": "38659", "addr:state": "MS", "addr:street_address": "24 S CENTER ST", "amenity": "post_box", "collection_times": "Mo-Fr 15:00; Sa 10:30", "indoor": "yes", "note": "ON 12/24 AND 12/31, THIS BOX MAY BE COLLECTED AS EARLY AS 12 NOON.", "nsi_id": "unitedstatespostalservice-a77078", "operator": "United States Postal Service", "operator:short": "USPS", "operator:type": "public", "operator:wikidata": "Q668687", "ref": "3865900005"}, "type": "Feature"}
{"geometry": {"coordinates": [-89.555113949, 34.828724585], "type": "Point"}, "id": "bXymGj4c7wu_9SYL4CHEk6a-W_Y=", "properties": {"@source_uri": "https://tools.usps.com/UspsToolsRestServices/rest/POLocator/findLocations", "@spider": "usps_collection_boxes", "addr:city": "RED BANKS", "addr:country": "US", "addr:postcode": "38661", "addr:state": "MS", "addr:street_address": "406 YARBROUGH LOOP", "amenity": "post_box", "collection_times": "Mo-Fr 12:00; Sa 08:15", "indoor": "yes", "nsi_id": "unitedstatespostalservice-a77078", "operator": "United States Postal Service", "operator:short": "USPS", "operator:type": "public", "operator:wikidata": "Q668687", "ref": "3866100005"}, "type": "Feature"}
{"geometry": {"coordinates": [-89.555113949, 34.828724585], "type": "Point"}, "id": "ngH6uqEQ_z2wkXuh5CN_b_w-vWk=", "properties": {"@source_uri": "https://tools.usps.com/UspsToolsRestServices/rest/POLocator/findLocations", "@spider": "usps_collection_boxes", "addr:city": "RED BANKS", "addr:country": "US", "addr:postcode": "38661", "addr:state": "MS", "addr:street_address": "406 YARBROUGH LOOP", "amenity": "post_box", "collection_times": "Mo-Fr 12:00", "indoor": "yes", "nsi_id": "unitedstatespostalservice-a77078", "operator": "United States Postal Service", "operator:short": "USPS", "operator:type": "public", "operator:wikidata": "Q668687", "ref": "3866100007"}, "type": "Feature"}
{"geometry": {"coordinates": [-88.953460003, 34.719149985], "type": "Point"}, "id": "KAnsZMWCKerkj7Y_vCJZGBvEsUM=", "properties": {"@source_uri": "https://tools.usps.com/UspsToolsRestServices/rest/POLocator/findLocations", "@spider": "usps_collection_boxes", "addr:city": "RIPLEY", "addr:country": "US", "addr:postcode": "38663", "addr:state": "MS", "addr:street_address": "919 CITY AVE S", "amenity": "post_box", "collection_times": "Mo-Fr 16:30; Sa 15:30", "note": "ON 12/24 AND 12/31, THIS BOX MAY BE COLLECTED AS EARLY AS 12 NOON.", "nsi_id": "unitedstatespostalservice-a77078", "operator": "United States Postal Service", "operator:short": "USPS", "operator:type": "public", "operator:wikidata": "Q668687", "ref": "3866300001"}, "type": "Feature"}
{"geometry": {"coordinates": [-88.94902266, 34.730447873], "type": "Point"}, "id": "qE8_Vv7B6LqrPY9IR0RNB05LIc8=", "properties": {"@source_uri": "https://tools.usps.com/UspsToolsRestServices/rest/POLocator/findLocations", "@spider": "usps_collection_boxes", "addr:city": "RIPLEY", "addr:country": "US", "addr:postcode": "38663", "addr:state": "MS", "addr:street_address": "102 N MAIN ST", "amenity": "post_box", "collection_times": "Mo-Sa 12:00", "nsi_id": "unitedstatespostalservice-a77078", "operator": "United States Postal Service", "operator:short": "USPS", "operator:type": "public", "operator:wikidata": "Q668687", "ref": "3866300003"}, "type": "Feature"}
{"geometry": {"coordinates": [-88.946530013, 34.730960003], "type": "Point"}, "id": "rhkvh1P7Bf6F2V9FIgNe_Gv0meA=", "properties": {"@source_uri": "https://tools.usps.com/UspsToolsRestServices/rest/POLocator/findLocations", "@spider": "usps_collection_boxes", "addr:city": "RIPLEY", "addr:country": "US", "addr:postcode": "38663", "addr:state": "MS", "addr:street_address": "305 E JEFFERSON ST", "amenity": "post_box", "collection_times": "Mo-Sa 12:00", "nsi_id": "unitedstatespostalservice-a77078", "operator": "United States Postal Service", "operator:short": "USPS", "operator:type": "public", "operator:wikidata": "Q668687", "ref": "3866300004"}, "type": "Feature"}
{"geometry": {"coordinates": [-88.953460003, 34.719149985], "type": "Point"}, "id": "lv6jWmsJLN8bXErCULlPT79ko14=", "properties": {"@source_uri": "https://tools.usps.com/UspsToolsRestServices/rest/POLocator/findLocations", "@spider": "usps_collection_boxes", "addr:city": "RIPLEY", "addr:country": "US", "addr:postcode": "38663", "addr:state": "MS", "addr:street_address": "919 CITY AVE S", "amenity": "post_box", "collection_times": "Mo-Fr 16:30; Sa 15:30", "indoor": "yes", "note": "ON 12/24 AND 12/31, THIS BOX MAY BE COLLECTED AS EARLY AS 12 NOON.", "nsi_id": "unitedstatespostalservice-a77078", "operator": "United States Postal Service", "operator:short": "USPS", "operator:type": "public", "operator:wikidata": "Q668687", "ref": "3866300005"}, "type": "Feature"}
{"geometry": {"coordinates": [-88.949329988, 34.731910007], "type": "Point"}, "id": "gcuPlOT6Cb5iEFEKarCOSvKkoxk=", "properties": {"@source_uri": "https://tools.usps.com/UspsToolsRestServices/rest/POLocator/findLocations", "@spider": "usps_collection_boxes", "addr:city": "RIPLEY", "addr:country": "US", "addr:postcode": "38663", "addr:state": "MS", "addr:street_address": "301 N MAIN ST", "amenity": "post_box", "collection_times": "Mo-Fr 16:30; Sa 12:00", "indoor": "yes", "note": "ON 12/24 AND 12/31, THIS BOX MAY BE COLLECTED AS EARLY AS 12 NOON.", "nsi_id": "unitedstatespostalservice-a77078", "operator": "United States Postal Service", "operator:short": "USPS", "operator:type": "public", "operator:wikidata": "Q668687", "ref": "3866300013"}, "type": "Feature"}
{"geometry": {"coordinates": [-90.314598012, 34.819790456], "type": "Point"}, "id": "SZ-jdkEh7Szh9FwvyQU2fQ_aiaM=", "properties": {"@source_uri": "https://tools.usps.com/UspsToolsRestServices/rest/POLocator/findLocations", "@spider": "usps_collection_boxes", "addr:city": "ROBINSONVILLE", "addr:country": "US", "addr:postcode": "38664", "addr:state": "MS", "addr:street_address": "11457 OLD HIGHWAY 61 N", "amenity": "post_box", "collection_times": "Mo-Fr 16:30; Sa 10:30", "note": "ON 12/24 AND 12/31, THIS BOX MAY BE COLLECTED AS EARLY AS 12 NOON.", "nsi_id": "unitedstatespostalservice-a77078", "operator": "United States Postal Service", "operator:short": "USPS", "operator:type": "public", "operator:wikidata": "Q668687", "ref": "3866400001"}, "type": "Feature"}
{"geometry": {"coordinates": [-90.314598012, 34.819790456], "type": "Point"}, "id": "_Mdy1ioGCbabTUB86cBfXLj7FnI=", "properties": {"@source_uri": "https://tools.usps.com/UspsToolsRestServices/rest/POLocator/findLocations", "@spider": "usps_collection_boxes", "addr:city": "ROBINSONVILLE", "addr:country": "US", "addr:postcode": "38664", "addr:state": "MS", "addr:street_address": "11457 OLD HIGHWAY 61 N", "amenity": "post_box", "collection_times": "Mo-Fr 16:30; Sa 10:30", "indoor": "yes", "note": "ON 12/24 AND 12/31, THIS BOX MAY BE COLLECTED AS EARLY AS 12 NOON.", "nsi_id": "unitedstatespostalservice-a77078", "operator": "United States Postal Service", "operator:short": "USPS", "operator:type": "public", "operator:wikidata": "Q668687", "ref": "3866400002"}, "type": "Feature"}
{"geometry": {"coordinates": [-90.314598012, 34.819790456], "type": "Point"}, "id": "RaWNZfGfzxGA50b5XguHXt5T91E=", "properties": {"@source_uri": "https://tools.usps.com/UspsToolsRestServices/rest/POLocator/findLocations", "@spider": "usps_collection_boxes", "addr:city": "ROBINSONVILLE", "addr:country": "US", "addr:postcode": "38664", "addr:state": "MS", "addr:street_address": "11457 OLD HIGHWAY 61 N", "amenity": "post_box", "collection_times": "Mo-Fr 16:30; Sa 10:30", "indoor": "yes", "note": "ON 12/24 AND 12/31, THIS BOX MAY BE COLLECTED AS EARLY AS 12 NOON.", "nsi_id": "unitedstatespostalservice-a77078", "operator": "United States Postal Service", "operator:short": "USPS", "operator:type": "public", "operator:wikidata": "Q668687", "ref": "3866400005"}, "type": "Feature"}
{"geometry": {"coordinates": [-90.201986696, 34.555129454], "type": "Point"}, "id": "_fuozIYIOFnzgjnmO4Xmw8C2mNY=", "properties": {"@source_uri": "https://tools.usps.com/UspsToolsRestServices/rest/POLocator/findLocations", "@spider": "usps_collection_boxes", "addr:city": "SARAH", "addr:country": "US", "addr:postcode": "38665", "addr:state": "MS", "addr:street_address": "1353 SARAH RD", "amenity": "post_box", "collection_times": "Mo-Fr 11:00; Sa 08:45", "nsi_id": "unitedstatespostalservice-a77078", "operator": "United States Postal Service", "operator:short": "USPS", "operator:type": "public", "operator:wikidata": "Q668687", "ref": "3866500001"}, "type": "Feature"}
{"geometry": {"coordinates": [-90.201986696, 34.555129454], "type": "Point"}, "id": "xtyfZ1aTWkhLnWbNOpK64DBDmj8=", "properties": {"@source_uri": "https://tools.usps.com/UspsToolsRestServices/rest/POLocator/findLocations", "@spider": "usps_collection_boxes", "addr:city": "SARAH", "addr:country": "US", "addr:postcode": "38665", "addr:state": "MS", "addr:street_address": "1353 SARAH RD", "amenity": "post_box", "collection_times": "Mo-Fr 10:50; Sa 08:45", "indoor": "yes", "nsi_id": "unitedstatespostalservice-a77078", "operator": "United States Postal Service", "operator:short": "USPS", "operator:type": "public", "operator:wikidata": "Q668687", "ref": "3866500002"}, "type": "Feature"}
{"geometry": {"coordinates": [-90.201986696, 34.555129454], "type": "Point"}, "id": "SbROdzPKxEV90yI1kCprJmHliiU=", "properties": {"@source_uri": "https://tools.usps.com/UspsToolsRestServices/rest/POLocator/findLocations", "@spider": "usps_collection_boxes", "addr:city": "SARAH", "addr:country": "US", "addr:postcode": "38665", "addr:state": "MS", "addr:street_address": "1353 SARAH RD", "amenity": "post_box", "collection_times": "Mo-Fr 11:00", "indoor": "yes", "nsi_id": "unitedstatespostalservice-a77078", "operator": "United States Postal Service", "operator:short": "USPS", "operator:type": "public", "operator:wikidata": "Q668687", "ref": "3866500004"}, "type": "Feature"}
{"geometry": {"coordinates": [-89.916275865, 34.43551463], "type": "Point"}, "id": "V_zxfviBov2JwI5p9wV8STgFFlQ=", "properties": {"@source_uri": "https://tools.usps.com/UspsToolsRestServices/rest/POLocator/findLocations", "@spider": "usps_collection_boxes", "addr:city": "SARDIS", "addr:country": "US", "addr:postcode": "38666", "addr:state": "MS", "addr:street_address": "209 S MAIN ST", "amenity": "post_box", "collection_times": "Mo-Fr 15:45; Sa 10:00", "note": "ON 12/24 AND 12/31, THIS BOX MAY BE COLLECTED AS EARLY AS 12 NOON.", "nsi_id": "unitedstatespostalservice-a77078", "operator": "United States Postal Service", "operator:short": "USPS", "operator:type": "public", "operator:wikidata": "Q668687", "ref": "3866600001"}, "type": "Feature"}
{"geometry": {"coordinates": [-89.916275865, 34.43551463], "type": "Point"}, "id": "ql0lseW1AYQD8se-jXCFc6ya7wo=", "properties": {"@source_uri": "https://tools.usps.com/UspsToolsRestServices/rest/POLocator/findLocations", "@spider": "usps_collection_boxes", "addr:city": "SARDIS", "addr:country": "US", "addr:postcode": "38666", "addr:state": "MS", "addr:street_address": "209 S MAIN ST", "amenity": "post_box", "collection_times": "Mo-Fr 16:30; Sa 10:00", "indoor": "yes", "note": "ON 12/24 AND 12/31, THIS BOX MAY BE COLLECTED AS EARLY AS 12 NOON.", "nsi_id": "unitedstatespostalservice-a77078", "operator": "United States Postal Service", "operator:short": "USPS", "operator:type": "public", "operator:wikidata": "Q668687", "ref": "3866600002"}, "type": "Feature"}
{"geometry": {"coordinates": [-89.916772641, 34.435695762], "type": "Point"}, "id": "vryb3PGOuK9yJ_RhtdWba8CVyF4=", "properties": {"@source_uri": "https://tools.usps.com/UspsToolsRestServices/rest/POLocator/findLocations", "@spider": "usps_collection_boxes", "addr:city": "SARDIS", "addr:country": "US", "addr:postcode": "38666", "addr:state": "MS", "addr:street_address": "208 BACK ST", "amenity": "post_box", "collection_times": "Mo-Sa 09:00", "nsi_id": "unitedstatespostalservice-a77078", "operator": "United States Postal Service", "operator:short": "USPS", "operator:type": "public", "operator:wikidata": "Q668687", "ref": "3866600004"}, "type": "Feature"}
{"geometry": {"coordinates": [-89.916275865, 34.43551463], "type": "Point"}, "id": "ld5ZQELrERD82m0p2Dp2hqsak-0=", "properties": {"@source_uri": "https://tools.usps.com/UspsToolsRestServices/rest/POLocator/findLocations", "@spider": "usps_collection_boxes", "addr:city": "SARDIS", "addr:country": "US", "addr:postcode": "38666", "addr:state": "MS", "addr:street_address": "209 S MAIN ST", "amenity": "post_box", "collection_times": "Mo-Fr 16:30", "indoor": "yes", "note": "ON 12/24 AND 12/31, THIS BOX MAY BE COLLECTED AS EARLY AS 12 NOON.", "nsi_id": "unitedstatespostalservice-a77078", "operator": "United States Postal Service", "operator:short": "USPS", "operator:type": "public", "operator:wikidata": "Q668687", "ref": "3866600006"}, "type": "Feature"}
{"geometry": {"coordinates": [-89.964015098, 34.618729437], "type": "Point"}, "id": "5AJ8aK6qbTxGLAE0UL5Y2Tzl4fM=", "properties": {"@source_uri": "https://tools.usps.com/UspsToolsRestServices/rest/POLocator/findLocations", "@spider": "usps_collection_boxes", "addr:city": "SENATOBIA", "addr:country": "US", "addr:postcode": "38668", "addr:state": "MS", "addr:street_address": "100 W MAIN ST", "amenity": "post_box", "collection_times": "Mo-Fr 16:30; Sa 14:00", "indoor": "yes", "note": "ON 12/24 AND 12/31, THIS BOX MAY BE COLLECTED AS EARLY AS 12 NOON.", "nsi_id": "unitedstatespostalservice-a77078", "operator": "United States Postal Service", "operator:short": "USPS", "operator:type": "public", "operator:wikidata": "Q668687", "ref": "3866800001"}, "type": "Feature"}
{"geometry": {"coordinates": [-89.96856, 34.62182], "type": "Point"}, "id": "GirueNd5oki2Pszl16p8jVD4ng4=", "properties": {"@source_uri": "https://tools.usps.com/UspsToolsRestServices/rest/POLocator/findLocations", "@spider": "usps_collection_boxes", "addr:city": "SENATOBIA", "addr:country": "US", "addr:postcode": "38668", "addr:state": "MS", "addr:street_address": "100 WALKER", "amenity": "post_box", "collection_times": "Mo-Fr 16:20; Sa 14:00", "note": "ON 12/24 AND 12/31, THIS BOX MAY BE COLLECTED AS EARLY AS 12 NOON.", "nsi_id": "unitedstatespostalservice-a77078", "operator": "United States Postal Service", "operator:short": "USPS", "operator:type": "public", "operator:wikidata": "Q668687", "ref": "3866800002"}, "type": "Feature"}
{"geometry": {"coordinates": [-89.96856, 34.62182], "type": "Point"}, "id": "2_UlNzVVFyArUrfMTzhXjkwiHSY=", "properties": {"@source_uri": "https://tools.usps.com/UspsToolsRestServices/rest/POLocator/findLocations", "@spider": "usps_collection_boxes", "addr:city": "SENATOBIA", "addr:country": "US", "addr:postcode": "38668", "addr:state": "MS", "addr:street_address": "100 WALKER", "amenity": "post_box", "collection_times": "Mo-Fr 16:20; Sa 14:00", "note": "ON 12/24 AND 12/31, THIS BOX MAY BE COLLECTED AS EARLY AS 12 NOON.", "nsi_id": "unitedstatespostalservice-a77078", "operator": "United States Postal Service", "operator:short": "USPS", "operator:type": "public", "operator:wikidata": "Q668687", "ref": "3866800011"}, "type": "Feature"}
{"geometry": {"coordinates": [-89.964015098, 34.618729437], "type": "Point"}, "id": "IRZKAV7sHL7Z3o5alK6NydGZn3g=", "properties": {"@source_uri": "https://tools.usps.com/UspsToolsRestServices/rest/POLocator/findLocations", "@spider": "usps_collection_boxes", "addr:city": "SENATOBIA", "addr:country": "US", "addr:postcode": "38668", "addr:state": "MS", "addr:street_address": "100 W MAIN ST", "amenity": "post_box", "collection_times": "Mo-Fr 16:30; Sa 10:30", "indoor": "yes", "note": "ON 12/24 AND 12/31, THIS BOX MAY BE COLLECTED AS EARLY AS 12 NOON.", "nsi_id": "unitedstatespostalservice-a77078", "operator": "United States Postal Service", "operator:short": "USPS", "operator:type": "public", "operator:wikidata": "Q668687", "ref": "3866800013"}, "type": "Feature"}
{"geometry": {"coordinates": [-90.221320004, 34.432220005], "type": "Point"}, "id": "pFKs_EwkM2Nm-pFH2KpvWAfPwi0=", "properties": {"@source_uri": "https://tools.usps.com/UspsToolsRestServices/rest/POLocator/findLocations", "@spider": "usps_collection_boxes", "addr:city": "SLEDGE", "addr:country": "US", "addr:postcode": "38670", "addr:state": "MS", "addr:street_address": "130 WILLIAMS AVE", "amenity": "post_box", "collection_times": "Mo-Fr 11:00; Sa 09:15", "nsi_id": "unitedstatespostalservice-a77078", "operator": "United States Postal Service", "operator:short": "USPS", "operator:type": "public", "operator:wikidata": "Q668687", "ref": "3867000001"}, "type": "Feature"}
{"geometry": {"coordinates": [-90.221320004, 34.432220005], "type": "Point"}, "id": "oxhPJ1awp61Si2qRvhBZELxu9gI=", "properties": {"@source_uri": "https://tools.usps.com/UspsToolsRestServices/rest/POLocator/findLocations", "@spider": "usps_collection_boxes", "addr:city": "SLEDGE", "addr:country": "US", "addr:postcode": "38670", "addr:state": "MS", "addr:street_address": "130 WILLIAMS AVE", "amenity": "post_box", "collection_times": "Mo-Fr 11:00; Sa 09:15", "indoor": "yes", "nsi_id": "unitedstatespostalservice-a77078", "operator": "United States Postal Service", "operator:short": "USPS", "operator:type": "public", "operator:wikidata": "Q668687", "ref": "3867000002"}, "type": "Feature"}
{"geometry": {"coordinates": [-90.221320004, 34.432220005], "type": "Point"}, "id": "eEvFv-exZU3i_fegoWq1pZ6KUf4=", "properties": {"@source_uri": "https://tools.usps.com/UspsToolsRestServices/rest/POLocator/findLocations", "@spider": "usps_collection_boxes", "addr:city": "SLEDGE", "addr:country": "US", "addr:postcode": "38670", "addr:state": "MS", "addr:street_address": "130 WILLIAMS AVE", "amenity": "post_box", "collection_times": "Mo-Fr 11:00", "indoor": "yes", "nsi_id": "unitedstatespostalservice-a77078", "operator": "United States Postal Service", "operator:short": "USPS", "operator:type": "public", "operator:wikidata": "Q668687", "ref": "3867000004"}, "type": "Feature"}
{"geometry": {"coordinates": [-89.972988827, 34.962580142], "type": "Point"}, "id": "DvJCvTNMgg_ymtFfyB4uYIQs-f0=", "properties": {"@source_uri": "https://tools.usps.com/UspsToolsRestServices/rest/POLocator/findLocations", "@spider": "usps_collection_boxes", "addr:city": "SOUTHAVEN", "addr:country": "US", "addr:postcode": "38671", "addr:state": "MS", "addr:street_address": "945 GOODMAN RD E", "amenity": "post_box", "collection_times": "Mo-Sa 13:05", "note": "ON 12/24 AND 12/31, THIS BOX MAY BE COLLECTED AS EARLY AS 12 NOON.", "nsi_id": "unitedstatespostalservice-a77078", "operator": "United States Postal Service", "operator:short": "USPS", "operator:type": "public", "operator:wikidata": "Q668687", "ref": "3867100012"}, "type": "Feature"}
{"geometry": {"coordinates": [-89.9885419803, 34.9697170057], "type": "Point"}, "id": "teXthFkkPkdd-zo5H28vgjgB0Gc=", "properties": {"@source_uri": "https://tools.usps.com/UspsToolsRestServices/rest/POLocator/findLocations", "@spider": "usps_collection_boxes", "addr:city": "SOUTHAVEN", "addr:country": "US", "addr:postcode": "38671", "addr:state": "MS", "addr:street_address": "7550 AIRWAYS BLVD", "amenity": "post_box", "collection_times": "Mo-Fr 17:00; Sa 15:00", "note": "ON 12/24 AND 12/31, THIS BOX MAY BE COLLECTED AS EARLY AS 12 NOON.", "nsi_id": "unitedstatespostalservice-a77078", "operator": "United States Postal Service", "operator:short": "USPS", "operator:type": "public", "operator:wikidata": "Q668687", "ref": "3867100013"}, "type": "Feature"}
{"geometry": {"coordinates": [-89.989842637, 34.969410859], "type": "Point"}, "id": "W4NWnwevhRzQwzMD6AG20OdV0Q8=", "properties": {"@source_uri": "https://tools.usps.com/UspsToolsRestServices/rest/POLocator/findLocations", "@spider": "usps_collection_boxes", "addr:city": "SOUTHAVEN", "addr:country": "US", "addr:postcode": "38671", "addr:state": "MS", "addr:street_address": "7550 AIRWAYS BLVD", "amenity": "post_box", "collection_times": "Mo-Fr 17:00; Sa 15:00", "indoor": "yes", "note": "ON 12/24 AND 12/31, THIS BOX MAY BE COLLECTED AS EARLY AS 12 NOON.", "nsi_id": "unitedstatespostalservice-a77078", "operator": "United States Postal Service", "operator:short": "USPS", "operator:type": "public", "operator:wikidata": "Q668687", "ref": "3867100015"}, "type": "Feature"}
{"geometry": {"coordinates": [-89.935622565, 34.962384274], "type": "Point"}, "id": "N19tT7VXEC3ALZ91yhaDmMU2MIM=", "properties": {"@source_uri": "https://tools.usps.com/UspsToolsRestServices/rest/POLocator/findLocations", "@spider": "usps_collection_boxes", "addr:city": "SOUTHAVEN", "addr:country": "US", "addr:postcode": "38671", "addr:state": "MS", "addr:street_address": "3095 GOODMAN RD E", "amenity": "post_box", "collection_times": "Mo-Sa 12:00", "nsi_id": "unitedstatespostalservice-a77078", "operator": "United States Postal Service", "operator:short": "USPS", "operator:type": "public", "operator:wikidata": "Q668687", "ref": "3867100022"}, "type": "Feature"}
{"geometry": {"coordinates": [-89.989842637, 34.969410859], "type": "Point"}, "id": "ioDR1Yk1DIxQDygF3rBlVCT0N8c=", "properties": {"@source_uri": "https://tools.usps.com/UspsToolsRestServices/rest/POLocator/findLocations", "@spider": "usps_collection_boxes", "addr:city": "SOUTHAVEN", "addr:country": "US", "addr:postcode": "38671", "addr:state": "MS", "addr:street_address": "7550 AIRWAYS BLVD", "amenity": "post_box", "collection_times": "Mo-Fr 17:00; Sa 15:00", "name": "USPS COLLECTION BOX - APC", "note": "ON 12/24 AND 12/31, THIS BOX MAY BE COLLECTED AS EARLY AS 12 NOON.", "nsi_id": "unitedstatespostalservice-a77078", "operator": "United States Postal Service", "operator:short": "USPS", "operator:type": "public", "operator:wikidata": "Q668687", "ref": "3867100023"}, "type": "Feature"}
{"geometry": {"coordinates": [-89.989842637, 34.969410859], "type": "Point"}, "id": "heu1naIuaTWKiSAmVGhcdFjSKQo=", "properties": {"@source_uri": "https://tools.usps.com/UspsToolsRestServices/rest/POLocator/findLocations", "@spider": "usps_collection_boxes", "addr:city": "SOUTHAVEN", "addr:country": "US", "addr:postcode": "38671", "addr:state": "MS", "addr:street_address": "7550 AIRWAYS BLVD", "amenity": "post_box", "collection_times": "Mo-Fr 17:30; Sa 11:30", "indoor": "yes", "note": "ON 12/24 AND 12/31, THIS BOX MAY BE COLLECTED AS EARLY AS 12 NOON.", "nsi_id": "unitedstatespostalservice-a77078", "operator": "United States Postal Service", "operator:short": "USPS", "operator:type": "public", "operator:wikidata": "Q668687", "ref": "3867100029"}, "type": "Feature"}
{"geometry": {"coordinates": [-89.588076554, 34.27150427], "type": "Point"}, "id": "gt0igRqDGnLVQ9Lw-8gcS9FkilE=", "properties": {"@source_uri": "https://tools.usps.com/UspsToolsRestServices/rest/POLocator/findLocations", "@spider": "usps_collection_boxes", "addr:city": "TAYLOR", "addr:country": "US", "addr:postcode": "38673", "addr:state": "MS", "addr:street_address": "1 MAIN ST", "amenity": "post_box", "collection_times": "Mo-Fr 14:00; Sa 09:45", "note": "ON 12/24 AND 12/31, THIS BOX MAY BE COLLECTED AS EARLY AS 12 NOON.", "nsi_id": "unitedstatespostalservice-a77078", "operator": "United States Postal Service", "operator:short": "USPS", "operator:type": "public", "operator:wikidata": "Q668687", "ref": "3867300001"}, "type": "Feature"}
{"geometry": {"coordinates": [-89.588076554, 34.27150427], "type": "Point"}, "id": "QlANf4c10AdpRf0m87ITi2COr2Y=", "properties": {"@source_uri": "https://tools.usps.com/UspsToolsRestServices/rest/POLocator/findLocations", "@spider": "usps_collection_boxes", "addr:city": "TAYLOR", "addr:country": "US", "addr:postcode": "38673", "addr:state": "MS", "addr:street_address": "1 MAIN ST", "amenity": "post_box", "collection_times": "Mo-Fr 14:30; Sa 09:45", "indoor": "yes", "note": "ON 12/24 AND 12/31, THIS BOX MAY BE COLLECTED AS EARLY AS 12 NOON.", "nsi_id": "unitedstatespostalservice-a77078", "operator": "United States Postal Service", "operator:short": "USPS", "operator:type": "public", "operator:wikidata": "Q668687", "ref": "3867300002"}, "type": "Feature"}
{"geometry": {"coordinates": [-89.588076554, 34.27150427], "type": "Point"}, "id": "A6MtYIDMH4otwhCM3X-nbsFGurU=", "properties": {"@source_uri": "https://tools.usps.com/UspsToolsRestServices/rest/POLocator/findLocations", "@spider": "usps_collection_boxes", "addr:city": "TAYLOR", "addr:country": "US", "addr:postcode": "38673", "addr:state": "MS", "addr:street_address": "1 MAIN ST", "amenity": "post_box", "collection_times": "Mo-Fr 14:30", "indoor": "yes", "note": "ON 12/24 AND 12/31, THIS BOX MAY BE COLLECTED AS EARLY AS 12 NOON.", "nsi_id": "unitedstatespostalservice-a77078", "operator": "United States Postal Service", "operator:short": "USPS", "operator:type": "public", "operator:wikidata": "Q668687", "ref": "3867300004"}, "type": "Feature"}
{"geometry": {"coordinates": [-88.9074909635, 34.8951549897], "type": "Point"}, "id": "5b9nh5dXkH3RbhDlTWyos6dynEQ=", "properties": {"@source_uri": "https://tools.usps.com/UspsToolsRestServices/rest/POLocator/findLocations", "@spider": "usps_collection_boxes", "addr:city": "TIPLERSVILLE", "addr:country": "US", "addr:postcode": "38674", "addr:state": "MS", "addr:street_address": "24440 HIGHWAY 15", "amenity": "post_box", "collection_times": "Mo-Fr 12:00; Sa 09:30", "indoor": "yes", "nsi_id": "unitedstatespostalservice-a77078", "operator": "United States Postal Service", "operator:short": "USPS", "operator:type": "public", "operator:wikidata": "Q668687", "ref": "3867400002"}, "type": "Feature"}
{"geometry": {"coordinates": [-88.907579979, 34.895059981], "type": "Point"}, "id": "XPwh8PFb9R6kd3UiWyW2U4IFRBQ=", "properties": {"@source_uri": "https://tools.usps.com/UspsToolsRestServices/rest/POLocator/findLocations", "@spider": "usps_collection_boxes", "addr:city": "TIPLERSVILLE", "addr:country": "US", "addr:postcode": "38674", "addr:state": "MS", "addr:street_address": "24440 HIGHWAY 15", "amenity": "post_box", "collection_times": "Mo-Fr 12:00; Sa 09:30", "nsi_id": "unitedstatespostalservice-a77078", "operator": "United States Postal Service", "operator:short": "USPS", "operator:type": "public", "operator:wikidata": "Q668687", "ref": "3867400003"}, "type": "Feature"}
{"geometry": {"coordinates": [-88.9074909635, 34.8951549897], "type": "Point"}, "id": "6srHhcjAJ-UbBd3p-pTplGYD2_Y=", "properties": {"@source_uri": "https://tools.usps.com/UspsToolsRestServices/rest/POLocator/findLocations", "@spider": "usps_collection_boxes", "addr:city": "TIPLERSVILLE", "addr:country": "US", "addr:postcode": "38674", "addr:state": "MS", "addr:street_address": "24440 HIGHWAY 15", "amenity": "post_box", "collection_times": "Mo-Fr 12:00", "indoor": "yes", "nsi_id": "unitedstatespostalservice-a77078", "operator": "United States Postal Service", "operator:short": "USPS", "operator:type": "public", "operator:wikidata": "Q668687", "ref": "3867400004"}, "type": "Feature"}
{"geometry": {"coordinates": [-90.383036913, 34.687919505], "type": "Point"}, "id": "vPtvrZN7rapB8J5kta6MBBwrqxU=", "properties": {"@source_uri": "https://tools.usps.com/UspsToolsRestServices/rest/POLocator/findLocations", "@spider": "usps_collection_boxes", "addr:city": "TUNICA", "addr:country": "US", "addr:postcode": "38676", "addr:state": "MS", "addr:street_address": "912 MAGNOLIA ST", "amenity": "post_box", "collection_times": "Mo-Fr 16:30; Sa 11:30", "note": "ON 12/24 AND 12/31, THIS BOX MAY BE COLLECTED AS EARLY AS 12 NOON.", "nsi_id": "unitedstatespostalservice-a77078", "operator": "United States Postal Service", "operator:short": "USPS", "operator:type": "public", "operator:wikidata": "Q668687", "ref": "3867600000"}, "type": "Feature"}
{"geometry": {"coordinates": [-90.383036913, 34.687919505], "type": "Point"}, "id": "8tjyR3oKNisLdVoKpotHOtSuCWE=", "properties": {"@source_uri": "https://tools.usps.com/UspsToolsRestServices/rest/POLocator/findLocations", "@spider": "usps_collection_boxes", "addr:city": "TUNICA", "addr:country": "US", "addr:postcode": "38676", "addr:state": "MS", "addr:street_address": "912 MAGNOLIA ST", "amenity": "post_box", "collection_times": "Mo-Fr 16:30; Sa 11:30", "indoor": "yes", "note": "ON 12/24 AND 12/31, THIS BOX MAY BE COLLECTED AS EARLY AS 12 NOON.", "nsi_id": "unitedstatespostalservice-a77078", "operator": "United States Postal Service", "operator:short": "USPS", "operator:type": "public", "operator:wikidata": "Q668687", "ref": "3867600001"}, "type": "Feature"}
{"geometry": {"coordinates": [-90.383036913, 34.687919505], "type": "Point"}, "id": "dP_HsV8h9BhMdFylDSo6ElTA0PI=", "properties": {"@source_uri": "https://tools.usps.com/UspsToolsRestServices/rest/POLocator/findLocations", "@spider": "usps_collection_boxes", "addr:city": "TUNICA", "addr:country": "US", "addr:postcode": "38676", "addr:state": "MS", "addr:street_address": "912 MAGNOLIA ST", "amenity": "post_box", "collection_times": "Mo-Fr 16:30; Sa 11:30", "indoor": "yes", "note": "ON 12/24 AND 12/31, THIS BOX MAY BE COLLECTED AS EARLY AS 12 NOON.", "nsi_id": "unitedstatespostalservice-a77078", "operator": "United States Postal Service", "operator:short": "USPS", "operator:type": "public", "operator:wikidata": "Q668687", "ref": "3867600002"}, "type": "Feature"}
{"geometry": {"coordinates": [-89.619023886, 34.846642624], "type": "Point"}, "id": "hHAVEaX5bwFn6m-9aWMyJWBQsC4=", "properties": {"@source_uri": "https://tools.usps.com/UspsToolsRestServices/rest/POLocator/findLocations", "@spider": "usps_collection_boxes", "addr:city": "VICTORIA", "addr:country": "US", "addr:postcode": "38679", "addr:state": "MS", "addr:street_address": "5764 HIGHWAY 178 W", "amenity": "post_box", "collection_times": "Mo-Fr 15:45; Sa 10:00", "note": "ON 12/24 AND 12/31, THIS BOX MAY BE COLLECTED AS EARLY AS 12 NOON.", "nsi_id": "unitedstatespostalservice-a77078", "operator": "United States Postal Service", "operator:short": "USPS", "operator:type": "public", "operator:wikidata": "Q668687", "ref": "3867900001"}, "type": "Feature"}
{"geometry": {"coordinates": [-89.619023886, 34.846642624], "type": "Point"}, "id": "EjSAuREhZGa4Eu-UkzSSo2z42ck=", "properties": {"@source_uri": "https://tools.usps.com/UspsToolsRestServices/rest/POLocator/findLocations", "@spider": "usps_collection_boxes", "addr:city": "VICTORIA", "addr:country": "US", "addr:postcode": "38679", "addr:state": "MS", "addr:street_address": "5764 HIGHWAY 178 W", "amenity": "post_box", "collection_times": "Mo-Fr 15:45; Sa 10:00", "indoor": "yes", "note": "ON 12/24 AND 12/31, THIS BOX MAY BE COLLECTED AS EARLY AS 12 NOON.", "nsi_id": "unitedstatespostalservice-a77078", "operator": "United States Postal Service", "operator:short": "USPS", "operator:type": "public", "operator:wikidata": "Q668687", "ref": "3867900002"}, "type": "Feature"}
{"geometry": {"coordinates": [-89.619023886, 34.846642624], "type": "Point"}, "id": "O4dREfu6Pzpnlh3hJwHPy7cJ8OI=", "properties": {"@source_uri": "https://tools.usps.com/UspsToolsRestServices/rest/POLocator/findLocations", "@spider": "usps_collection_boxes", "addr:city": "VICTORIA", "addr:country": "US", "addr:postcode": "38679", "addr:state": "MS", "addr:street_address": "5764 HIGHWAY 178 W", "amenity": "post_box", "collection_times": "Mo-Fr 16:30; Sa 11:00", "indoor": "yes", "note": "ON 12/24 AND 12/31, THIS BOX MAY BE COLLECTED AS EARLY AS 12 NOON.", "nsi_id": "unitedstatespostalservice-a77078", "operator": "United States Postal Service", "operator:short": "USPS", "operator:type": "public", "operator:wikidata": "Q668687", "ref": "3867900004"}, "type": "Feature"}
{"geometry": {"coordinates": [-90.151207774, 34.953170789], "type": "Point"}, "id": "JGlrUtYY4nrepq2FybAcH8g5Ods=", "properties": {"@source_uri": "https://tools.usps.com/UspsToolsRestServices/rest/POLocator/findLocations", "@spider": "usps_collection_boxes", "addr:city": "WALLS", "addr:country": "US", "addr:postcode": "38680", "addr:state": "MS", "addr:street_address": "6380 HIGHWAY 161", "amenity": "post_box", "collection_times": "Mo-Fr 16:15; Sa 10:30", "note": "ON 12/24 AND 12/31, THIS BOX MAY BE COLLECTED AS EARLY AS 12 NOON.", "nsi_id": "unitedstatespostalservice-a77078", "operator": "United States Postal Service", "operator:short": "USPS", "operator:type": "public", "operator:wikidata": "Q668687", "ref": "3868000001"}, "type": "Feature"}
{"geometry": {"coordinates": [-90.151207774, 34.953170789], "type": "Point"}, "id": "zkpTAFBaqSrlOXWZOQuVRboWkLE=", "properties": {"@source_uri": "https://tools.usps.com/UspsToolsRestServices/rest/POLocator/findLocations", "@spider": "usps_collection_boxes", "addr:city": "WALLS", "addr:country": "US", "addr:postcode": "38680", "addr:state": "MS", "addr:street_address": "6380 HIGHWAY 161", "amenity": "post_box", "collection_times": "Mo-Fr 16:30; Sa 10:30", "indoor": "yes", "note": "ON 12/24 AND 12/31, THIS BOX MAY BE COLLECTED AS EARLY AS 12 NOON.", "nsi_id": "unitedstatespostalservice-a77078", "operator": "United States Postal Service", "operator:short": "USPS", "operator:type": "public", "operator:wikidata": "Q668687", "ref": "3868000003"}, "type": "Feature"}
{"geometry": {"coordinates": [-90.151207774, 34.953170789], "type": "Point"}, "id": "J7HMbz3FYDo8nOE2QRwA12RG0Yc=", "properties": {"@source_uri": "https://tools.usps.com/UspsToolsRestServices/rest/POLocator/findLocations", "@spider": "usps_collection_boxes", "addr:city": "WALLS", "addr:country": "US", "addr:postcode": "38680", "addr:state": "MS", "addr:street_address": "6380 HIGHWAY 161", "amenity": "post_box", "collection_times": "Mo-Fr 16:30; Sa 10:30", "indoor": "yes", "note": "ON 12/24 AND 12/31, THIS BOX MAY BE COLLECTED AS EARLY AS 12 NOON.", "nsi_id": "unitedstatespostalservice-a77078", "operator": "United States Postal Service", "operator:short": "USPS", "operator:type": "public", "operator:wikidata": "Q668687", "ref": "3868000006"}, "type": "Feature"}
{"geometry": {"coordinates": [-88.901479965, 34.946040015], "type": "Point"}, "id": "cpcQZqUx09BbZtw98WpyKqsJDaI=", "properties": {"@source_uri": "https://tools.usps.com/UspsToolsRestServices/rest/POLocator/findLocations", "@spider": "usps_collection_boxes", "addr:city": "WALNUT", "addr:country": "US", "addr:postcode": "38683", "addr:state": "MS", "addr:street_address": "50 HIGHWAY 354", "amenity": "post_box", "collection_times": "Mo-Fr 16:00; Sa 10:00", "note": "ON 12/24 AND 12/31, THIS BOX MAY BE COLLECTED AS EARLY AS 12 NOON.", "nsi_id": "unitedstatespostalservice-a77078", "operator": "United States Postal Service", "operator:short": "USPS", "operator:type": "public", "operator:wikidata": "Q668687", "ref": "3868300001"}, "type": "Feature"}
{"geometry": {"coordinates": [-88.901479965, 34.946040015], "type": "Point"}, "id": "rmu5V9Zbwe7sS24-xcd0vkWZfkU=", "properties": {"@source_uri": "https://tools.usps.com/UspsToolsRestServices/rest/POLocator/findLocations", "@spider": "usps_collection_boxes", "addr:city": "WALNUT", "addr:country": "US", "addr:postcode": "38683", "addr:state": "MS", "addr:street_address": "50 HIGHWAY 354", "amenity": "post_box", "collection_times": "Mo-Fr 16:00; Sa 10:00", "indoor": "yes", "note": "ON 12/24 AND 12/31, THIS BOX MAY BE COLLECTED AS EARLY AS 12 NOON.", "nsi_id": "unitedstatespostalservice-a77078", "operator": "United States Postal Service", "operator:short": "USPS", "operator:type": "public", "operator:wikidata": "Q668687", "ref": "3868300003"}, "type": "Feature"}
{"geometry": {"coordinates": [-88.901479965, 34.946040015], "type": "Point"}, "id": "mIYfouWgs_FITwk4zPJ3K9SR10M=", "properties": {"@source_uri": "https://tools.usps.com/UspsToolsRestServices/rest/POLocator/findLocations", "@spider": "usps_collection_boxes", "addr:city": "WALNUT", "addr:country": "US", "addr:postcode": "38683", "addr:state": "MS", "addr:street_address": "50 HIGHWAY 354", "amenity": "post_box", "collection_times": "Mo-Fr 16:00; Sa 10:00", "indoor": "yes", "note": "ON 12/24 AND 12/31, THIS BOX MAY BE COLLECTED AS EARLY AS 12 NOON.", "nsi_id": "unitedstatespostalservice-a77078", "operator": "United States Postal Service", "operator:short": "USPS", "operator:type": "public", "operator:wikidata": "Q668687", "ref": "3868300004"}, "type": "Feature"}
{"geometry": {"coordinates": [-89.458198159, 34.645923159], "type": "Point"}, "id": "4lSQTMJw_YzE3PTiXGqVrwAH5GY=", "properties": {"@source_uri": "https://tools.usps.com/UspsToolsRestServices/rest/POLocator/findLocations", "@spider": "usps_collection_boxes", "addr:city": "WATERFORD", "addr:country": "US", "addr:postcode": "38685", "addr:state": "MS", "addr:street_address": "9 BETHLEHEM RD", "amenity": "post_box", "collection_times": "Mo-Fr 11:00; Sa 08:30", "nsi_id": "unitedstatespostalservice-a77078", "operator": "United States Postal Service", "operator:short": "USPS", "operator:type": "public", "operator:wikidata": "Q668687", "ref": "3868500001"}, "type": "Feature"}
{"geometry": {"coordinates": [-89.458198159, 34.645923159], "type": "Point"}, "id": "UfX04Dd4hReO1d5Kmr4OfumBhuY=", "properties": {"@source_uri": "https://tools.usps.com/UspsToolsRestServices/rest/POLocator/findLocations", "@spider": "usps_collection_boxes", "addr:city": "WATERFORD", "addr:country": "US", "addr:postcode": "38685", "addr:state": "MS", "addr:street_address": "9 BETHLEHEM RD", "amenity": "post_box", "collection_times": "Mo-Fr 10:50; Sa 08:30", "indoor": "yes", "nsi_id": "unitedstatespostalservice-a77078", "operator": "United States Postal Service", "operator:short": "USPS", "operator:type": "public", "operator:wikidata": "Q668687", "ref": "3868500002"}, "type": "Feature"}
{"geometry": {"coordinates": [-89.458198159, 34.645923159], "type": "Point"}, "id": "0Q9Z_PZhiSALk3V-le4KFc6574s=", "properties": {"@source_uri": "https://tools.usps.com/UspsToolsRestServices/rest/POLocator/findLocations", "@spider": "usps_collection_boxes", "addr:city": "WATERFORD", "addr:country": "US", "addr:postcode": "38685", "addr:state": "MS", "addr:street_address": "9 BETHLEHEM RD", "amenity": "post_box", "collection_times": "Mo-Fr 11:00", "indoor": "yes", "nsi_id": "unitedstatespostalservice-a77078", "operator": "United States Postal Service", "operator:short": "USPS", "operator:type": "public", "operator:wikidata": "Q668687", "ref": "3868500004"}, "type": "Feature"}
