{"geometry": {"coordinates": [-91.063368172, 33.410886723], "type": "Point"}, "id": "aESp2YxCmM3IPB5Th8Y0CkeSYPM=", "properties": {"@spider": "usps_collection_boxes", "addr:city": "GREENVILLE", "addr:country": "US", "addr:full": "305 MAIN ST", "addr:postcode": "38701", "addr:state": "MS", "brand": "USPS", "collection_times": "Mo-Fr 17:00; Sa 11:00", "name": "USPS COLLECTION BOX - BLUE BOX", "note": "ON 12/24 AND 12/31, THIS BOX MAY BE COLLECTED AS EARLY AS 12 NOON.", "ref": "3870100001"}, "type": "Feature"}
{"geometry": {"coordinates": [-91.063368172, 33.410886723], "type": "Point"}, "id": "Jt1PzZZmcY6Doynm4kqi22vl2to=", "properties": {"@spider": "usps_collection_boxes", "addr:city": "GREENVILLE", "addr:country": "US", "addr:full": "305 MAIN ST", "addr:postcode": "38701", "addr:state": "MS", "brand": "USPS", "collection_times": "Mo-Fr 17:00; Sa 11:00", "name": "USPS COLLECTION BOX - BLUE BOX", "note": "ON 12/24 AND 12/31, THIS BOX MAY BE COLLECTED AS EARLY AS 12 NOON.", "ref": "3870100002"}, "type": "Feature"}
{"geometry": {"coordinates": [-91.0516313, 33.406439], "type": "Point"}, "id": "tMXvRXvqhk3-B7G7Z3sVwiQpyOo=", "properties": {"@spider": "usps_collection_boxes", "addr:city": "GREENVILLE", "addr:country": "US", "addr:full": "1024 WASHINGTON AVE", "addr:postcode": "38701", "addr:state": "MS", "brand": "USPS", "collection_times": "Mo-Fr 13:00", "name": "USPS COLLECTION BOX - BLUE BOX", "note": "ON 12/24 AND 12/31, THIS BOX MAY BE COLLECTED AS EARLY AS 12 NOON.", "ref": "3870100011"}, "type": "Feature"}
{"geometry": {"coordinates": [-91.0523357, 33.40826], "type": "Point"}, "id": "h0pFuUJC6E8-h2aye7qpWLL9ex0=", "properties": {"@spider": "usps_collection_boxes", "addr:city": "GREENVILLE", "addr:country": "US", "addr:full": "900 COURTHOUSE ALY", "addr:postcode": "38701", "addr:state": "MS", "brand": "USPS", "collection_times": "Mo-Fr 14:00", "name": "USPS COLLECTION BOX - BLUE BOX", "note": "ON 12/24 AND 12/31, THIS BOX MAY BE COLLECTED AS EARLY AS 12 NOON.", "ref": "3870100012"}, "type": "Feature"}
{"geometry": {"coordinates": [-91.0502547, 33.403185], "type": "Point"}, "id": "2cTvDncfrx0UZZF1AP69_yfEfO4=", "properties": {"@spider": "usps_collection_boxes", "addr:city": "GREENVILLE", "addr:country": "US", "addr:full": "339 ARNOLD AVE", "addr:postcode": "38701", "addr:state": "MS", "brand": "USPS", "collection_times": "Mo-Fr 13:00", "name": "USPS COLLECTION BOX - BLUE BOX", "note": "ON 12/24 AND 12/31, THIS BOX MAY BE COLLECTED AS EARLY AS 12 NOON.", "ref": "3870100021"}, "type": "Feature"}
{"geometry": {"coordinates": [-91.040165, 33.369422], "type": "Point"}, "id": "yHbPYp2sGpaBa9P1D_PtyWhelEc=", "properties": {"@spider": "usps_collection_boxes", "addr:city": "GREENVILLE", "addr:country": "US", "addr:full": "1831 HIGHWAY 1 S", "addr:postcode": "38701", "addr:state": "MS", "brand": "USPS", "collection_times": "Mo-Fr 13:00", "name": "USPS COLLECTION BOX - BLUE BOX", "note": "ON 12/24 AND 12/31, THIS BOX MAY BE COLLECTED AS EARLY AS 12 NOON.", "ref": "3870100028"}, "type": "Feature"}
{"geometry": {"coordinates": [-91.0383491, 33.395246], "type": "Point"}, "id": "uadoPbNspUqFpGy8J7EDSyEexe8=", "properties": {"@spider": "usps_collection_boxes", "addr:city": "GREENVILLE", "addr:country": "US", "addr:full": "855 MISSISSIPPI ST", "addr:postcode": "38701", "addr:state": "MS", "brand": "USPS", "collection_times": "Mo-Fr 13:00", "name": "USPS COLLECTION BOX - BLUE BOX", "note": "ON 12/24 AND 12/31, THIS BOX MAY BE COLLECTED AS EARLY AS 12 NOON.", "ref": "3870100030"}, "type": "Feature"}
{"geometry": {"coordinates": [-91.063368172, 33.410886723], "type": "Point"}, "id": "JeVwfz0TcHdG3Ol_ReIbhQ042Fo=", "properties": {"@spider": "usps_collection_boxes", "addr:city": "GREENVILLE", "addr:country": "US", "addr:full": "305 MAIN ST", "addr:postcode": "38701", "addr:state": "MS", "brand": "USPS", "collection_times": "Mo-Fr 17:00; Sa 11:00", "name": "USPS COLLECTION BOX - PO LOBBY", "note": "ON 12/24 AND 12/31, THIS BOX MAY BE COLLECTED AS EARLY AS 12 NOON.", "ref": "3870100059"}, "type": "Feature"}
{"geometry": {"coordinates": [-91.053676205, 33.3841771718], "type": "Point"}, "id": "9s49-xd7wKAWn8qMQn8Z-nrvvRc=", "properties": {"@spider": "usps_collection_boxes", "addr:city": "GREENVILLE", "addr:country": "US", "addr:full": "1427 S MAIN ST", "addr:postcode": "38701", "addr:state": "MS", "brand": "USPS", "collection_times": "Mo-Fr 15:00", "name": "USPS COLLECTION BOX - BLUE BOX", "note": "ON 12/24 AND 12/31, THIS BOX MAY BE COLLECTED AS EARLY AS 12 NOON.", "ref": "3870100061"}, "type": "Feature"}
{"geometry": {"coordinates": [-91.0419963, 33.374714], "type": "Point"}, "id": "i4rG5Y60-VhPnfYCahasv2FD_bY=", "properties": {"@spider": "usps_collection_boxes", "addr:city": "GREENVILLE", "addr:country": "US", "addr:full": "1651 HIGHWAY 1 S", "addr:postcode": "38701", "addr:state": "MS", "brand": "USPS", "collection_times": "Mo-Fr 13:00", "name": "USPS COLLECTION BOX - BLUE BOX", "note": "ON 12/24 AND 12/31, THIS BOX MAY BE COLLECTED AS EARLY AS 12 NOON.", "ref": "3870100066"}, "type": "Feature"}
{"geometry": {"coordinates": [-91.063368172, 33.410886723], "type": "Point"}, "id": "yRnXrr0TdKMItApTaK2u395jf3U=", "properties": {"@spider": "usps_collection_boxes", "addr:city": "GREENVILLE", "addr:country": "US", "addr:full": "305 MAIN ST", "addr:postcode": "38701", "addr:state": "MS", "brand": "USPS", "collection_times": "Mo-Fr 17:00; Sa 11:00", "name": "USPS COLLECTION BOX - PO LOBBY", "note": "ON 12/24 AND 12/31, THIS BOX MAY BE COLLECTED AS EARLY AS 12 NOON.", "ref": "3870100069"}, "type": "Feature"}
{"geometry": {"coordinates": [-91.028523036, 33.399770484], "type": "Point"}, "id": "AvOFKcemA9v0oZDunAuYq01l7sY=", "properties": {"@spider": "usps_collection_boxes", "addr:city": "GREENVILLE", "addr:country": "US", "addr:full": "1910 HIGHWAY 82 E", "addr:postcode": "38703", "addr:state": "MS", "brand": "USPS", "collection_times": "Mo-Fr 16:12; Sa 11:00", "name": "USPS COLLECTION BOX - PO LOBBY", "note": "ON 12/24 AND 12/31, THIS BOX MAY BE COLLECTED AS EARLY AS 12 NOON.", "ref": "3870300001"}, "type": "Feature"}
{"geometry": {"coordinates": [-91.028523036, 33.399770484], "type": "Point"}, "id": "RUwJogG8Mmuo2DvbsTtsiwAM_c0=", "properties": {"@spider": "usps_collection_boxes", "addr:city": "GREENVILLE", "addr:country": "US", "addr:full": "1910 HIGHWAY 82 E", "addr:postcode": "38703", "addr:state": "MS", "brand": "USPS", "collection_times": "Mo-Fr 16:12; Sa 11:00", "name": "USPS COLLECTION BOX - BLUE BOX", "note": "ON 12/24 AND 12/31, THIS BOX MAY BE COLLECTED AS EARLY AS 12 NOON.", "ref": "3870300003"}, "type": "Feature"}
{"geometry": {"coordinates": [-91.028523036, 33.399770484], "type": "Point"}, "id": "tkzx8nIoWnTCwPZ0T439rw-fbNE=", "properties": {"@spider": "usps_collection_boxes", "addr:city": "GREENVILLE", "addr:country": "US", "addr:full": "1910 HIGHWAY 82 E", "addr:postcode": "38703", "addr:state": "MS", "brand": "USPS", "collection_times": "Mo-Fr 16:12; Sa 11:00", "name": "USPS COLLECTION BOX - BLUE BOX", "note": "ON 12/24 AND 12/31, THIS BOX MAY BE COLLECTED AS EARLY AS 12 NOON.", "ref": "3870300004"}, "type": "Feature"}
{"geometry": {"coordinates": [-91.028523036, 33.399770484], "type": "Point"}, "id": "ykEcE72ii67-qHQa2PSoufPZDAM=", "properties": {"@spider": "usps_collection_boxes", "addr:city": "GREENVILLE", "addr:country": "US", "addr:full": "1910 HIGHWAY 82 E", "addr:postcode": "38703", "addr:state": "MS", "brand": "USPS", "collection_times": "Mo-Fr 17:00; Sa 11:00", "name": "USPS COLLECTION BOX - PO LOBBY", "note": "ON 12/24 AND 12/31, THIS BOX MAY BE COLLECTED AS EARLY AS 12 NOON.", "ref": "3870300010"}, "type": "Feature"}
{"geometry": {"coordinates": [-90.745094438, 34.044528294], "type": "Point"}, "id": "wx3WwD114IxzRnAqXwmo3Tyci9M=", "properties": {"@spider": "usps_collection_boxes", "addr:city": "ALLIGATOR", "addr:country": "US", "addr:full": "5 MAIN ST", "addr:postcode": "38720", "addr:state": "MS", "brand": "USPS", "collection_times": "Mo-Fr 13:00", "name": "USPS COLLECTION BOX - BLUE BOX", "note": "ON 12/24 AND 12/31, THIS BOX MAY BE COLLECTED AS EARLY AS 12 NOON.", "ref": "3872000000"}, "type": "Feature"}
{"geometry": {"coordinates": [-90.745094438, 34.044528294], "type": "Point"}, "id": "fHaxdumUF4JfEMZ59pqakk2WrLs=", "properties": {"@spider": "usps_collection_boxes", "addr:city": "ALLIGATOR", "addr:country": "US", "addr:full": "5 MAIN ST", "addr:postcode": "38720", "addr:state": "MS", "brand": "USPS", "collection_times": "Mo-Fr 13:00; Sa 09:00", "name": "USPS COLLECTION BOX - PO LOBBY", "note": "ON 12/24 AND 12/31, THIS BOX MAY BE COLLECTED AS EARLY AS 12 NOON.", "ref": "3872000001"}, "type": "Feature"}
{"geometry": {"coordinates": [-90.745094438, 34.044528294], "type": "Point"}, "id": "66xRyCiucnFw96MmZaht25lRgaA=", "properties": {"@spider": "usps_collection_boxes", "addr:city": "ALLIGATOR", "addr:country": "US", "addr:full": "5 MAIN ST", "addr:postcode": "38720", "addr:state": "MS", "brand": "USPS", "collection_times": "Mo-Fr 13:30", "name": "USPS COLLECTION BOX - PO LOBBY", "note": "ON 12/24 AND 12/31, THIS BOX MAY BE COLLECTED AS EARLY AS 12 NOON.", "ref": "3872000002"}, "type": "Feature"}
{"geometry": {"coordinates": [-90.82669, 32.974038], "type": "Point"}, "id": "hfEgf8CO15l0id1DB3RuvvUt-Xw=", "properties": {"@spider": "usps_collection_boxes", "addr:city": "ANGUILLA", "addr:country": "US", "addr:full": "205 HOLLAND ST", "addr:postcode": "38721", "addr:state": "MS", "brand": "USPS", "collection_times": "Mo-Fr 11:30; Sa 09:00", "name": "USPS COLLECTION BOX - BLUE BOX", "ref": "3872100000"}, "type": "Feature"}
{"geometry": {"coordinates": [-90.82669, 32.974038], "type": "Point"}, "id": "aEixy0mqO6BUSMDwxNIxOpJt2gY=", "properties": {"@spider": "usps_collection_boxes", "addr:city": "ANGUILLA", "addr:country": "US", "addr:full": "205 HOLLAND ST", "addr:postcode": "38721", "addr:state": "MS", "brand": "USPS", "collection_times": "Mo-Fr 11:30; Sa 09:00", "name": "USPS COLLECTION BOX - PO LOBBY", "ref": "3872100001"}, "type": "Feature"}
{"geometry": {"coordinates": [-90.829657425, 32.974473906], "type": "Point"}, "id": "l_aKL-K3ZaDRcUL8hdFzpbV5Unk=", "properties": {"@spider": "usps_collection_boxes", "addr:city": "ANGUILLA", "addr:country": "US", "addr:full": "119 HOLLAND ST", "addr:postcode": "38721", "addr:state": "MS", "brand": "USPS", "collection_times": "Mo-Fr 11:30; Sa 09:30", "name": "USPS COLLECTION BOX - PO LOBBY", "ref": "3872100002"}, "type": "Feature"}
{"geometry": {"coordinates": [-90.8785865129, 33.270583151], "type": "Point"}, "id": "EdPib7dmZ5Yt9pAB0WGCt-5u4Gw=", "properties": {"@spider": "usps_collection_boxes", "addr:city": "ARCOLA", "addr:country": "US", "addr:full": "101B TOWER LN", "addr:postcode": "38722", "addr:state": "MS", "brand": "USPS", "collection_times": "Mo-Fr 12:00", "name": "USPS COLLECTION BOX - PO LOBBY", "ref": "3872200002"}, "type": "Feature"}
{"geometry": {"coordinates": [-90.8785865129, 33.270583151], "type": "Point"}, "id": "ZCJBz10v2WlFs2kJF-7JG68A5Vs=", "properties": {"@spider": "usps_collection_boxes", "addr:city": "ARCOLA", "addr:country": "US", "addr:full": "101B TOWER LN", "addr:postcode": "38722", "addr:state": "MS", "brand": "USPS", "collection_times": "Mo-Fr 11:45; Sa 09:00", "name": "USPS COLLECTION BOX - BLUE BOX", "ref": "3872200003"}, "type": "Feature"}
{"geometry": {"coordinates": [-91.046976935, 33.2319468], "type": "Point"}, "id": "ns4L-ULpra_ZeM-zssgHe_CJT_4=", "properties": {"@spider": "usps_collection_boxes", "addr:city": "AVON", "addr:country": "US", "addr:full": "50 AVON RD N", "addr:postcode": "38723", "addr:state": "MS", "brand": "USPS", "collection_times": "Mo-Fr 12:00", "name": "USPS COLLECTION BOX - BLUE BOX", "ref": "3872300000"}, "type": "Feature"}
{"geometry": {"coordinates": [-91.046976935, 33.2319468], "type": "Point"}, "id": "kk5kRi8Y8RwgFMNH3cV1CyLVPEQ=", "properties": {"@spider": "usps_collection_boxes", "addr:city": "AVON", "addr:country": "US", "addr:full": "50 AVON RD N", "addr:postcode": "38723", "addr:state": "MS", "brand": "USPS", "collection_times": "Mo-Fr 11:50; Sa 09:00", "name": "USPS COLLECTION BOX - PO LOBBY", "ref": "3872300001"}, "type": "Feature"}
{"geometry": {"coordinates": [-91.046976935, 33.2319468], "type": "Point"}, "id": "h8fNOalbxCtXrb6SUqK0DorXjOw=", "properties": {"@spider": "usps_collection_boxes", "addr:city": "AVON", "addr:country": "US", "addr:full": "50 AVON RD N", "addr:postcode": "38723", "addr:state": "MS", "brand": "USPS", "collection_times": "Mo-Fr 12:00", "name": "USPS COLLECTION BOX - PO LOBBY", "ref": "3872300002"}, "type": "Feature"}
{"geometry": {"coordinates": [-91.008939794, 33.651131068], "type": "Point"}, "id": "7EUVZIgnG-dquxepIHz3hbXwJWI=", "properties": {"@spider": "usps_collection_boxes", "addr:city": "BENOIT", "addr:country": "US", "addr:full": "105 PRESTON ST", "addr:postcode": "38725", "addr:state": "MS", "brand": "USPS", "collection_times": "Mo-Fr 12:00", "name": "USPS COLLECTION BOX - BLUE BOX", "ref": "3872500000"}, "type": "Feature"}
{"geometry": {"coordinates": [-91.008939794, 33.651131068], "type": "Point"}, "id": "5neg3nTB4u2PIT0HkHXVYEdyM2s=", "properties": {"@spider": "usps_collection_boxes", "addr:city": "BENOIT", "addr:country": "US", "addr:full": "105 PRESTON ST", "addr:postcode": "38725", "addr:state": "MS", "brand": "USPS", "collection_times": "Mo-Fr 11:30; Sa 09:00", "name": "USPS COLLECTION BOX - PO LOBBY", "ref": "3872500002"}, "type": "Feature"}
{"geometry": {"coordinates": [-91.008939794, 33.651131068], "type": "Point"}, "id": "Q4217iwM3CVpd1GE6NL_wJsFXco=", "properties": {"@spider": "usps_collection_boxes", "addr:city": "BENOIT", "addr:country": "US", "addr:full": "105 PRESTON ST", "addr:postcode": "38725", "addr:state": "MS", "brand": "USPS", "collection_times": "Mo-Fr 12:00", "name": "USPS COLLECTION BOX - PO LOBBY", "ref": "3872500003"}, "type": "Feature"}
{"geometry": {"coordinates": [-90.981329914, 33.786269076], "type": "Point"}, "id": "MTrob3OdWT-iDZgFxMP0se21MuY=", "properties": {"@spider": "usps_collection_boxes", "addr:city": "BEULAH", "addr:country": "US", "addr:full": "220 N CLARK STREET", "addr:postcode": "38726", "addr:state": "MS", "brand": "USPS", "collection_times": "Mo-Fr 12:00; Sa 09:45", "name": "USPS COLLECTION BOX - BLUE BOX", "ref": "3872600000"}, "type": "Feature"}
{"geometry": {"coordinates": [-90.981329914, 33.786269076], "type": "Point"}, "id": "cFaSBxtKS-3BcN4PkgdmJxVuYKc=", "properties": {"@spider": "usps_collection_boxes", "addr:city": "BEULAH", "addr:country": "US", "addr:full": "220 N CLARK STREET", "addr:postcode": "38726", "addr:state": "MS", "brand": "USPS", "collection_times": "Mo-Fr 12:00; Sa 09:45", "name": "USPS COLLECTION BOX - PO LOBBY", "ref": "3872600001"}, "type": "Feature"}
{"geometry": {"coordinates": [-90.981329914, 33.786269076], "type": "Point"}, "id": "jfzQcTvNhqWSV_BHmvxqsmHoop4=", "properties": {"@spider": "usps_collection_boxes", "addr:city": "BEULAH", "addr:country": "US", "addr:full": "220 N CLARK ST", "addr:postcode": "38726", "addr:state": "MS", "brand": "USPS", "collection_times": "Mo-Fr 12:00; Sa 10:00", "name": "USPS COLLECTION BOX - PO LOBBY", "ref": "3872600002"}, "type": "Feature"}
{"geometry": {"coordinates": [-90.727604, 33.703887], "type": "Point"}, "id": "wBlkkJxalAl-oY18oRwSyYHNlNo=", "properties": {"@spider": "usps_collection_boxes", "addr:city": "BOYLE", "addr:country": "US", "addr:full": "123 HIGHWAY 446", "addr:postcode": "38730", "addr:state": "MS", "brand": "USPS", "collection_times": "Mo-Fr 14:00; Sa 09:30", "name": "USPS COLLECTION BOX - PO LOBBY", "note": "ON 12/24 AND 12/31, THIS BOX MAY BE COLLECTED AS EARLY AS 12 NOON.", "ref": "3873000000"}, "type": "Feature"}
{"geometry": {"coordinates": [-90.727604, 33.703887], "type": "Point"}, "id": "aPobjDBOvKtTR4-FfzOK6scGnnw=", "properties": {"@spider": "usps_collection_boxes", "addr:city": "BOYLE", "addr:country": "US", "addr:full": "123 HIGHWAY 446", "addr:postcode": "38730", "addr:state": "MS", "brand": "USPS", "collection_times": "Mo-Fr 14:00; Sa 09:30", "name": "USPS COLLECTION BOX - BLUE BOX", "note": "ON 12/24 AND 12/31, THIS BOX MAY BE COLLECTED AS EARLY AS 12 NOON.", "ref": "3873000001"}, "type": "Feature"}
{"geometry": {"coordinates": [-90.727584087, 33.703836131], "type": "Point"}, "id": "CoNnFurEtApH-3OZPmLtP5Fwwec=", "properties": {"@spider": "usps_collection_boxes", "addr:city": "BOYLE", "addr:country": "US", "addr:full": "123 T M JONES HWY", "addr:postcode": "38730", "addr:state": "MS", "brand": "USPS", "collection_times": "Mo-Fr 14:00; Sa 09:30", "name": "USPS COLLECTION BOX - PO LOBBY", "note": "ON 12/24 AND 12/31, THIS BOX MAY BE COLLECTED AS EARLY AS 12 NOON.", "ref": "3873000003"}, "type": "Feature"}
{"geometry": {"coordinates": [-90.7086405, 33.748442], "type": "Point"}, "id": "8QpUk3vyJWh8poviu3dNwr9pxC0=", "properties": {"@spider": "usps_collection_boxes", "addr:city": "CLEVELAND", "addr:country": "US", "addr:full": "901 E SUNFLOWER RD", "addr:postcode": "38732", "addr:state": "MS", "brand": "USPS", "collection_times": "Mo-Sa 09:00", "name": "USPS COLLECTION BOX - BLUE BOX", "ref": "3873200007"}, "type": "Feature"}
{"geometry": {"coordinates": [-90.7106818, 33.750804], "type": "Point"}, "id": "jeLnMXlWhkIE8gsqCQKGfrbSdho=", "properties": {"@spider": "usps_collection_boxes", "addr:city": "CLEVELAND", "addr:country": "US", "addr:full": "405 MARTIN L KING JR DR", "addr:postcode": "38732", "addr:state": "MS", "brand": "USPS", "collection_times": "Mo-Sa 09:00", "name": "USPS COLLECTION BOX - BLUE BOX", "ref": "3873200011"}, "type": "Feature"}
{"geometry": {"coordinates": [-90.7238744, 33.744277], "type": "Point"}, "id": "qRdLs7fZtZtTJBndAboJaZnsKDA=", "properties": {"@spider": "usps_collection_boxes", "addr:city": "CLEVELAND", "addr:country": "US", "addr:full": "200 S COURT ST", "addr:postcode": "38732", "addr:state": "MS", "brand": "USPS", "collection_times": "Mo-Sa 09:00", "name": "USPS COLLECTION BOX - BLUE BOX", "ref": "3873200012"}, "type": "Feature"}
{"geometry": {"coordinates": [-90.718541, 33.743327], "type": "Point"}, "id": "bbe8ZIQs0Zo8lpnryrR84uDqF7o=", "properties": {"@spider": "usps_collection_boxes", "addr:city": "CLEVELAND", "addr:country": "US", "addr:full": "210 S CHRISMAN AVE", "addr:postcode": "38732", "addr:state": "MS", "brand": "USPS", "collection_times": "Mo-Fr 17:00; Sa 16:00", "name": "USPS COLLECTION BOX - PO LOBBY", "note": "ON 12/24 AND 12/31, THIS BOX MAY BE COLLECTED AS EARLY AS 12 NOON.", "ref": "3873200014"}, "type": "Feature"}
{"geometry": {"coordinates": [-90.718541, 33.743327], "type": "Point"}, "id": "206bPr-qGDgW1UMh30QltKYUHuo=", "properties": {"@spider": "usps_collection_boxes", "addr:city": "CLEVELAND", "addr:country": "US", "addr:full": "210 S CHRISMAN AVE", "addr:postcode": "38732", "addr:state": "MS", "brand": "USPS", "collection_times": "Mo-Fr 17:00; Sa 16:00", "name": "USPS COLLECTION BOX - BLUE BOX", "note": "ON 12/24 AND 12/31, THIS BOX MAY BE COLLECTED AS EARLY AS 12 NOON.", "ref": "3873200016"}, "type": "Feature"}
{"geometry": {"coordinates": [-90.718541, 33.743327], "type": "Point"}, "id": "uJ6k4Gugz8Kl83YOEJAjq1DuRTA=", "properties": {"@spider": "usps_collection_boxes", "addr:city": "CLEVELAND", "addr:country": "US", "addr:full": "210 S CHRISMAN AVE", "addr:postcode": "38732", "addr:state": "MS", "brand": "USPS", "collection_times": "Mo-Fr 17:00; Sa 16:00", "name": "USPS COLLECTION BOX - BLUE BOX", "note": "ON 12/24 AND 12/31, THIS BOX MAY BE COLLECTED AS EARLY AS 12 NOON.", "ref": "3873200017"}, "type": "Feature"}
{"geometry": {"coordinates": [-90.718573313, 33.7433482916], "type": "Point"}, "id": "N8czpOtYcgU4_HDXbv5FX_eKTYk=", "properties": {"@spider": "usps_collection_boxes", "addr:city": "CLEVELAND", "addr:country": "US", "addr:full": "210 S CHRISMAN AVE", "addr:postcode": "38732", "addr:state": "MS", "brand": "USPS", "collection_times": "Mo-Fr 17:00; Sa 11:45", "name": "USPS COLLECTION BOX - PO LOBBY", "note": "ON 12/24 AND 12/31, THIS BOX MAY BE COLLECTED AS EARLY AS 12 NOON.", "ref": "3873200020"}, "type": "Feature"}
{"geometry": {"coordinates": [-90.52511383, 33.657607903], "type": "Point"}, "id": "vGt5sArF-WVvfzbzCHXACWMd8Bg=", "properties": {"@spider": "usps_collection_boxes", "addr:city": "DODDSVILLE", "addr:country": "US", "addr:full": "110 5TH AVE", "addr:postcode": "38736", "addr:state": "MS", "brand": "USPS", "collection_times": "Mo-Fr 12:00; Sa 09:00", "name": "USPS COLLECTION BOX - BLUE BOX", "ref": "3873600000"}, "type": "Feature"}
{"geometry": {"coordinates": [-90.52511383, 33.657607903], "type": "Point"}, "id": "ncelrQWW5ESJjq3iobVWmXhjyxU=", "properties": {"@spider": "usps_collection_boxes", "addr:city": "DODDSVILLE", "addr:country": "US", "addr:full": "110 5TH AVE", "addr:postcode": "38736", "addr:state": "MS", "brand": "USPS", "collection_times": "Mo-Fr 11:50; Sa 09:00", "name": "USPS COLLECTION BOX - PO LOBBY", "ref": "3873600001"}, "type": "Feature"}
{"geometry": {"coordinates": [-90.52511383, 33.657607903], "type": "Point"}, "id": "PxZagvPRnRpiJPYEYZWcTpnE-HU=", "properties": {"@spider": "usps_collection_boxes", "addr:city": "DODDSVILLE", "addr:country": "US", "addr:full": "110 5TH AVE", "addr:postcode": "38736", "addr:state": "MS", "brand": "USPS", "collection_times": "Mo-Fr 12:00", "name": "USPS COLLECTION BOX - PO LOBBY", "ref": "3873600002"}, "type": "Feature"}
{"geometry": {"coordinates": [-90.528940279, 33.812121497], "type": "Point"}, "id": "ld7lEuATRphCCWjgAc8Hd9Gj47o=", "properties": {"@spider": "usps_collection_boxes", "addr:city": "DREW", "addr:country": "US", "addr:full": "146 W PARK AVE", "addr:postcode": "38737", "addr:state": "MS", "brand": "USPS", "collection_times": "Mo-Fr 15:40; Sa 09:45", "name": "USPS COLLECTION BOX - BLUE BOX", "note": "ON 12/24 AND 12/31, THIS BOX MAY BE COLLECTED AS EARLY AS 12 NOON.", "ref": "3873700000"}, "type": "Feature"}
{"geometry": {"coordinates": [-90.528940279, 33.812121497], "type": "Point"}, "id": "JesMBs2aCZAw1ciBfu4TJD0rUlo=", "properties": {"@spider": "usps_collection_boxes", "addr:city": "DREW", "addr:country": "US", "addr:full": "146 W PARK AVE", "addr:postcode": "38737", "addr:state": "MS", "brand": "USPS", "collection_times": "Mo-Fr 15:40; Sa 09:45", "name": "USPS COLLECTION BOX - PO LOBBY", "note": "ON 12/24 AND 12/31, THIS BOX MAY BE COLLECTED AS EARLY AS 12 NOON.", "ref": "3873700001"}, "type": "Feature"}
{"geometry": {"coordinates": [-90.528940279, 33.812121497], "type": "Point"}, "id": "sTexCvLiXbOtlUiKmJ2sNhS9i3U=", "properties": {"@spider": "usps_collection_boxes", "addr:city": "DREW", "addr:country": "US", "addr:full": "146 W PARK AVE", "addr:postcode": "38737", "addr:state": "MS", "brand": "USPS", "collection_times": "Mo-Fr 16:00; Sa 10:00", "name": "USPS COLLECTION BOX - PO LOBBY", "note": "ON 12/24 AND 12/31, THIS BOX MAY BE COLLECTED AS EARLY AS 12 NOON.", "ref": "3873700002"}, "type": "Feature"}
{"geometry": {"coordinates": [-90.490533861, 34.073815434], "type": "Point"}, "id": "i0yKbhH3gt5jXTobD_FvXkFaUgo=", "properties": {"@spider": "usps_collection_boxes", "addr:city": "DUBLIN", "addr:country": "US", "addr:full": "310 SAINT PATRICK RD", "addr:postcode": "38739", "addr:state": "MS", "brand": "USPS", "collection_times": "Mo-Fr 10:30", "name": "USPS COLLECTION BOX - BLUE BOX", "ref": "3873900000"}, "type": "Feature"}
{"geometry": {"coordinates": [-90.490533861, 34.073815434], "type": "Point"}, "id": "cBEaV6eF9JArBXgQh2HGxVVt3VM=", "properties": {"@spider": "usps_collection_boxes", "addr:city": "DUBLIN", "addr:country": "US", "addr:full": "310 SAINT PATRICK RD", "addr:postcode": "38739", "addr:state": "MS", "brand": "USPS", "collection_times": "Mo-Fr 10:30; Sa 09:00", "name": "USPS COLLECTION BOX - PO LOBBY", "ref": "3873900001"}, "type": "Feature"}
{"geometry": {"coordinates": [-90.490533861, 34.073815434], "type": "Point"}, "id": "OHLffWcpRL-RZMpUT_hqpT_GBRY=", "properties": {"@spider": "usps_collection_boxes", "addr:city": "DUBLIN", "addr:country": "US", "addr:full": "310 SAINT PATRICK RD", "addr:postcode": "38739", "addr:state": "MS", "brand": "USPS", "collection_times": "Mo-Fr 10:30", "name": "USPS COLLECTION BOX - PO LOBBY", "ref": "3873900002"}, "type": "Feature"}
{"geometry": {"coordinates": [-90.743904198, 34.044013144], "type": "Point"}, "id": "QzrONS1Ko_NXXzMDNWdbuJ7BB1E=", "properties": {"@spider": "usps_collection_boxes", "addr:city": "DUNCAN", "addr:country": "US", "addr:full": "112 E MAIN ST", "addr:postcode": "38740", "addr:state": "MS", "brand": "USPS", "collection_times": "Mo-Fr 12:00", "name": "USPS COLLECTION BOX - BLUE BOX", "ref": "3874000000"}, "type": "Feature"}
{"geometry": {"coordinates": [-90.743904198, 34.044013144], "type": "Point"}, "id": "NJ1PoyutZQ5hhZV4roJFN66FeoY=", "properties": {"@spider": "usps_collection_boxes", "addr:city": "DUNCAN", "addr:country": "US", "addr:full": "112 E MAIN ST", "addr:postcode": "38740", "addr:state": "MS", "brand": "USPS", "collection_times": "Mo-Fr 11:50; Sa 09:00", "name": "USPS COLLECTION BOX - PO LOBBY", "ref": "3874000001"}, "type": "Feature"}
{"geometry": {"coordinates": [-90.743904198, 34.044013144], "type": "Point"}, "id": "dtMB6lI2xzFJLkKPoIEUOWQcbFI=", "properties": {"@spider": "usps_collection_boxes", "addr:city": "DUNCAN", "addr:country": "US", "addr:full": "112 E MAIN ST", "addr:postcode": "38740", "addr:state": "MS", "brand": "USPS", "collection_times": "Mo-Fr 12:00", "name": "USPS COLLECTION BOX - PO LOBBY", "ref": "3874000002"}, "type": "Feature"}
{"geometry": {"coordinates": [-91.032447529, 33.025509895], "type": "Point"}, "id": "WMfgZwvTfsmOpTCIRu8oS35TI08=", "properties": {"@spider": "usps_collection_boxes", "addr:city": "GLEN ALLAN", "addr:country": "US", "addr:full": "924 LAKE WASHINGTON RD E", "addr:postcode": "38744", "addr:state": "MS", "brand": "USPS", "collection_times": "Mo-Fr 12:00; Sa 10:00", "name": "USPS COLLECTION BOX - BLUE BOX", "ref": "3874400000"}, "type": "Feature"}
{"geometry": {"coordinates": [-91.032447529, 33.025509895], "type": "Point"}, "id": "agDA5gfpnhVqtpCpqTOuEiwwYRc=", "properties": {"@spider": "usps_collection_boxes", "addr:city": "GLEN ALLAN", "addr:country": "US", "addr:full": "924 LAKE WASHINGTON RD E", "addr:postcode": "38744", "addr:state": "MS", "brand": "USPS", "collection_times": "Mo-Fr 12:00; Sa 10:00", "name": "USPS COLLECTION BOX - PO LOBBY", "ref": "3874400001"}, "type": "Feature"}
{"geometry": {"coordinates": [-91.032447529, 33.025509895], "type": "Point"}, "id": "olTNNsIT4pkVhGKwRRb2FR2NnBw=", "properties": {"@spider": "usps_collection_boxes", "addr:city": "GLEN ALLAN", "addr:country": "US", "addr:full": "924 LAKE WASHINGTON RD E", "addr:postcode": "38744", "addr:state": "MS", "brand": "USPS", "collection_times": "Mo-Fr 12:00; Sa 10:00", "name": "USPS COLLECTION BOX - PO LOBBY", "ref": "3874400002"}, "type": "Feature"}
{"geometry": {"coordinates": [-90.963595675, 32.993853148], "type": "Point"}, "id": "u4nv7t6_AHbJlxtcCExh6dVby7Y=", "properties": {"@spider": "usps_collection_boxes", "addr:city": "GRACE", "addr:country": "US", "addr:full": "6858 HIGHWAY 16 W", "addr:postcode": "38745", "addr:state": "MS", "brand": "USPS", "collection_times": "Mo-Fr 14:30", "name": "USPS COLLECTION BOX - BLUE BOX", "note": "ON 12/24 AND 12/31, THIS BOX MAY BE COLLECTED AS EARLY AS 12 NOON.", "ref": "3874500000"}, "type": "Feature"}
{"geometry": {"coordinates": [-90.963595675, 32.993853148], "type": "Point"}, "id": "3B_lsDvzqdS8Um8Kzt7mjQa1Qfk=", "properties": {"@spider": "usps_collection_boxes", "addr:city": "GRACE", "addr:country": "US", "addr:full": "6858 HIGHWAY 16 W", "addr:postcode": "38745", "addr:state": "MS", "brand": "USPS", "collection_times": "Mo-Fr 14:30; Sa 09:00", "name": "USPS COLLECTION BOX - PO LOBBY", "note": "ON 12/24 AND 12/31, THIS BOX MAY BE COLLECTED AS EARLY AS 12 NOON.", "ref": "3874500001"}, "type": "Feature"}
{"geometry": {"coordinates": [-90.963595675, 32.993853148], "type": "Point"}, "id": "IntYxGX7aRpaCvtboCRh7mZZqz4=", "properties": {"@spider": "usps_collection_boxes", "addr:city": "GRACE", "addr:country": "US", "addr:full": "6858 HIGHWAY 16 W", "addr:postcode": "38745", "addr:state": "MS", "brand": "USPS", "collection_times": "Mo-Fr 14:30", "name": "USPS COLLECTION BOX - PO LOBBY", "note": "ON 12/24 AND 12/31, THIS BOX MAY BE COLLECTED AS EARLY AS 12 NOON.", "ref": "3874500002"}, "type": "Feature"}
{"geometry": {"coordinates": [-90.941654252, 33.947163451], "type": "Point"}, "id": "J-CTQU7LOqDDwkz6V3DOWbmwz90=", "properties": {"@spider": "usps_collection_boxes", "addr:city": "GUNNISON", "addr:country": "US", "addr:full": "514 RAILROAD AVE", "addr:postcode": "38746", "addr:state": "MS", "brand": "USPS", "collection_times": "Mo-Fr 12:00", "name": "USPS COLLECTION BOX - BLUE BOX", "ref": "3874600000"}, "type": "Feature"}
{"geometry": {"coordinates": [-90.941654252, 33.947163451], "type": "Point"}, "id": "_ODRYfi0dUeE135Yc143NpVRhQE=", "properties": {"@spider": "usps_collection_boxes", "addr:city": "GUNNISON", "addr:country": "US", "addr:full": "514 RAILROAD AVE", "addr:postcode": "38746", "addr:state": "MS", "brand": "USPS", "collection_times": "Mo-Fr 11:50; Sa 09:00", "name": "USPS COLLECTION BOX - PO LOBBY", "ref": "3874600001"}, "type": "Feature"}
{"geometry": {"coordinates": [-90.941654252, 33.947163451], "type": "Point"}, "id": "yoKAASj_sbyAP1_Td8lohgaO6l4=", "properties": {"@spider": "usps_collection_boxes", "addr:city": "GUNNISON", "addr:country": "US", "addr:full": "514 RAILROAD AVE", "addr:postcode": "38746", "addr:state": "MS", "brand": "USPS", "collection_times": "Mo-Fr 12:00", "name": "USPS COLLECTION BOX - PO LOBBY", "ref": "3874600002"}, "type": "Feature"}
{"geometry": {"coordinates": [-90.853871661, 33.168173176], "type": "Point"}, "id": "A9glIhqspcs6ziy3a6MLy5Vvxog=", "properties": {"@spider": "usps_collection_boxes", "addr:city": "HOLLANDALE", "addr:country": "US", "addr:full": "121 EAST AVE S", "addr:postcode": "38748", "addr:state": "MS", "brand": "USPS", "collection_times": "Mo-Fr 16:05; Sa 09:55", "name": "USPS COLLECTION BOX - BLUE BOX", "note": "ON 12/24 AND 12/31, THIS BOX MAY BE COLLECTED AS EARLY AS 12 NOON.", "ref": "3874800000"}, "type": "Feature"}
{"geometry": {"coordinates": [-90.8549713, 33.170972], "type": "Point"}, "id": "v5PjTQflllYR7LkZX1b-I9XKNwY=", "properties": {"@spider": "usps_collection_boxes", "addr:city": "HOLLANDALE", "addr:country": "US", "addr:full": "301 EAST AVE S", "addr:postcode": "38748", "addr:state": "MS", "brand": "USPS", "collection_times": "Mo-Sa 12:00", "name": "USPS COLLECTION BOX - BLUE BOX", "ref": "3874800002"}, "type": "Feature"}
{"geometry": {"coordinates": [-90.853871661, 33.168173176], "type": "Point"}, "id": "xgJBoD-5Bmb008SjxWqcCEZzYlw=", "properties": {"@spider": "usps_collection_boxes", "addr:city": "HOLLANDALE", "addr:country": "US", "addr:full": "121 EAST AVE S", "addr:postcode": "38748", "addr:state": "MS", "brand": "USPS", "collection_times": "Mo-Fr 16:05; Sa 09:55", "name": "USPS COLLECTION BOX - PO LOBBY", "note": "ON 12/24 AND 12/31, THIS BOX MAY BE COLLECTED AS EARLY AS 12 NOON.", "ref": "3874800003"}, "type": "Feature"}
{"geometry": {"coordinates": [-90.853871661, 33.168173176], "type": "Point"}, "id": "fZ4IiHsdUgtDzu54ZQI9z2AgMV4=", "properties": {"@spider": "usps_collection_boxes", "addr:city": "HOLLANDALE", "addr:country": "US", "addr:full": "121 EAST AVE S", "addr:postcode": "38748", "addr:state": "MS", "brand": "USPS", "collection_times": "Mo-Fr 16:30; Sa 10:00", "name": "USPS COLLECTION BOX - PO LOBBY", "note": "ON 12/24 AND 12/31, THIS BOX MAY BE COLLECTED AS EARLY AS 12 NOON.", "ref": "3874800004"}, "type": "Feature"}
{"geometry": {"coordinates": [-90.650662129, 33.453237867], "type": "Point"}, "id": "muS37Kv6BzNsnywAe0RvqhR-TRc=", "properties": {"@spider": "usps_collection_boxes", "addr:city": "INDIANOLA", "addr:country": "US", "addr:full": "100 W PERCY ST", "addr:postcode": "38751", "addr:state": "MS", "brand": "USPS", "collection_times": "Mo-Fr 16:40; Sa 15:40", "name": "USPS COLLECTION BOX - BLUE BOX", "note": "ON 12/24 AND 12/31, THIS BOX MAY BE COLLECTED AS EARLY AS 12 NOON.", "ref": "3875100000"}, "type": "Feature"}
{"geometry": {"coordinates": [-90.650662129, 33.453237867], "type": "Point"}, "id": "vPn78EodAJ_MZQBldwsbbT6gyiU=", "properties": {"@spider": "usps_collection_boxes", "addr:city": "INDIANOLA", "addr:country": "US", "addr:full": "100 W PERCY ST", "addr:postcode": "38751", "addr:state": "MS", "brand": "USPS", "collection_times": "Mo-Fr 16:40; Sa 15:40", "name": "USPS COLLECTION BOX - BLUE BOX", "note": "ON 12/24 AND 12/31, THIS BOX MAY BE COLLECTED AS EARLY AS 12 NOON.", "ref": "3875100001"}, "type": "Feature"}
{"geometry": {"coordinates": [-90.650662129, 33.453237867], "type": "Point"}, "id": "utd__TdBUlnSNGrOAo9uK3dB77Q=", "properties": {"@spider": "usps_collection_boxes", "addr:city": "INDIANOLA", "addr:country": "US", "addr:full": "100 W PERCY ST", "addr:postcode": "38751", "addr:state": "MS", "brand": "USPS", "collection_times": "Mo-Fr 16:40; Sa 15:40", "name": "USPS COLLECTION BOX - PO LOBBY", "note": "ON 12/24 AND 12/31, THIS BOX MAY BE COLLECTED AS EARLY AS 12 NOON.", "ref": "3875100002"}, "type": "Feature"}
{"geometry": {"coordinates": [-90.6550404, 33.442818], "type": "Point"}, "id": "0QHuAIs2pY29V6PEimmVrRpCCH8=", "properties": {"@spider": "usps_collection_boxes", "addr:city": "INDIANOLA", "addr:country": "US", "addr:full": "703 KINLOCK RD", "addr:postcode": "38751", "addr:state": "MS", "brand": "USPS", "collection_times": "Mo-Sa 09:30", "name": "USPS COLLECTION BOX - BLUE BOX", "ref": "3875100005"}, "type": "Feature"}
{"geometry": {"coordinates": [-90.6313933, 33.456962], "type": "Point"}, "id": "zqIsdKhqg8aQkn9b3D8inNDlWrA=", "properties": {"@spider": "usps_collection_boxes", "addr:city": "INDIANOLA", "addr:country": "US", "addr:full": "1212 HIGHWAY 82 E", "addr:postcode": "38751", "addr:state": "MS", "brand": "USPS", "collection_times": "Mo-Sa 09:30", "name": "USPS COLLECTION BOX - BLUE BOX", "ref": "3875100006"}, "type": "Feature"}
{"geometry": {"coordinates": [-90.6514911, 33.451587], "type": "Point"}, "id": "SlIN_h_4uDuHKTMG8E8HiNiEOjk=", "properties": {"@spider": "usps_collection_boxes", "addr:city": "INDIANOLA", "addr:country": "US", "addr:full": "114 FRONT AVE", "addr:postcode": "38751", "addr:state": "MS", "brand": "USPS", "collection_times": "Mo-Fr 15:00; Sa 09:00", "name": "USPS COLLECTION BOX - BLUE BOX", "note": "ON 12/24 AND 12/31, THIS BOX MAY BE COLLECTED AS EARLY AS 12 NOON.", "ref": "3875100009"}, "type": "Feature"}
{"geometry": {"coordinates": [-90.6500733, 33.451424], "type": "Point"}, "id": "6Rr4ZDSLBKDeEkmbWUWs36Ch20w=", "properties": {"@spider": "usps_collection_boxes", "addr:city": "INDIANOLA", "addr:country": "US", "addr:full": "100 COURT AVE", "addr:postcode": "38751", "addr:state": "MS", "brand": "USPS", "collection_times": "Mo-Fr 15:00", "name": "USPS COLLECTION BOX - BLUE BOX", "note": "ON 12/24 AND 12/31, THIS BOX MAY BE COLLECTED AS EARLY AS 12 NOON.", "ref": "3875100010"}, "type": "Feature"}
{"geometry": {"coordinates": [-90.6441771, 33.4579], "type": "Point"}, "id": "i_5a0b9px9vNeZEa1v7RDbgCz3M=", "properties": {"@spider": "usps_collection_boxes", "addr:city": "INDIANOLA", "addr:country": "US", "addr:full": "412 HIGHWAY 82 E", "addr:postcode": "38751", "addr:state": "MS", "brand": "USPS", "collection_times": "Mo-Fr 11:00; Sa 10:30", "name": "USPS COLLECTION BOX - BLUE BOX", "ref": "3875100012"}, "type": "Feature"}
{"geometry": {"coordinates": [-90.6495133, 33.458478], "type": "Point"}, "id": "KsbRZNPJQDa-3H5rz9CTbc9t5gc=", "properties": {"@spider": "usps_collection_boxes", "addr:city": "INDIANOLA", "addr:country": "US", "addr:full": "147 HIGHWAY 82 E", "addr:postcode": "38751", "addr:state": "MS", "brand": "USPS", "collection_times": "Mo-Fr 13:30", "name": "USPS COLLECTION BOX - BLUE BOX", "note": "ON 12/24 AND 12/31, THIS BOX MAY BE COLLECTED AS EARLY AS 12 NOON.", "ref": "3875100015"}, "type": "Feature"}
{"geometry": {"coordinates": [-90.650662129, 33.453237867], "type": "Point"}, "id": "NNWqwRFCadKTSgHfdQcLBfCyVoM=", "properties": {"@spider": "usps_collection_boxes", "addr:city": "INDIANOLA", "addr:country": "US", "addr:full": "100 W PERCY ST", "addr:postcode": "38751", "addr:state": "MS", "brand": "USPS", "collection_times": "Mo-Fr 17:00; Sa 11:30", "name": "USPS COLLECTION BOX - PO LOBBY", "note": "ON 12/24 AND 12/31, THIS BOX MAY BE COLLECTED AS EARLY AS 12 NOON.", "ref": "3875100017"}, "type": "Feature"}
{"geometry": {"coordinates": [-90.591930723, 33.353672468], "type": "Point"}, "id": "v3p-tGUooJ6Jw4VCUQoueDDhdOM=", "properties": {"@spider": "usps_collection_boxes", "addr:city": "INVERNESS", "addr:country": "US", "addr:full": "900 THIRD ST", "addr:postcode": "38753", "addr:state": "MS", "brand": "USPS", "collection_times": "Mo-Fr 14:30; Sa 10:10", "name": "USPS COLLECTION BOX - BLUE BOX", "note": "ON 12/24 AND 12/31, THIS BOX MAY BE COLLECTED AS EARLY AS 12 NOON.", "ref": "3875300000"}, "type": "Feature"}
{"geometry": {"coordinates": [-90.591930723, 33.353672468], "type": "Point"}, "id": "TP0qaRCjxbp5_BvCO0rDoHKjRig=", "properties": {"@spider": "usps_collection_boxes", "addr:city": "INVERNESS", "addr:country": "US", "addr:full": "900 THIRD ST", "addr:postcode": "38753", "addr:state": "MS", "brand": "USPS", "collection_times": "Mo-Fr 14:30; Sa 10:10", "name": "USPS COLLECTION BOX - PO LOBBY", "note": "ON 12/24 AND 12/31, THIS BOX MAY BE COLLECTED AS EARLY AS 12 NOON.", "ref": "3875300001"}, "type": "Feature"}
{"geometry": {"coordinates": [-90.591930723, 33.353672468], "type": "Point"}, "id": "XkMsaSG61NeN2XNnx-K2KmvRd84=", "properties": {"@spider": "usps_collection_boxes", "addr:city": "INVERNESS", "addr:country": "US", "addr:full": "900 THIRD ST", "addr:postcode": "38753", "addr:state": "MS", "brand": "USPS", "collection_times": "Mo-Fr 14:30; Sa 10:00", "name": "USPS COLLECTION BOX - PO LOBBY", "note": "ON 12/24 AND 12/31, THIS BOX MAY BE COLLECTED AS EARLY AS 12 NOON.", "ref": "3875300002"}, "type": "Feature"}
{"geometry": {"coordinates": [-90.593114376, 33.262034376], "type": "Point"}, "id": "I662kM4gDa3-t81zyW-TdYzTj50=", "properties": {"@spider": "usps_collection_boxes", "addr:city": "ISOLA", "addr:country": "US", "addr:full": "400 JULIA ST", "addr:postcode": "38754", "addr:state": "MS", "brand": "USPS", "collection_times": "Mo-Fr 11:30", "name": "USPS COLLECTION BOX - BLUE BOX", "ref": "3875400000"}, "type": "Feature"}
{"geometry": {"coordinates": [-90.593114376, 33.262034376], "type": "Point"}, "id": "lCHZmRv_QxCP1CR9lOA91s9fuFo=", "properties": {"@spider": "usps_collection_boxes", "addr:city": "ISOLA", "addr:country": "US", "addr:full": "400 JULIA ST", "addr:postcode": "38754", "addr:state": "MS", "brand": "USPS", "collection_times": "Mo-Fr 11:30; Sa 09:00", "name": "USPS COLLECTION BOX - PO LOBBY", "ref": "3875400001"}, "type": "Feature"}
{"geometry": {"coordinates": [-90.593114376, 33.262034376], "type": "Point"}, "id": "dUB5Z9VNZPTwSU7s6slM2HzpsSI=", "properties": {"@spider": "usps_collection_boxes", "addr:city": "ISOLA", "addr:country": "US", "addr:full": "400 JULIA ST", "addr:postcode": "38754", "addr:state": "MS", "brand": "USPS", "collection_times": "Mo-Fr 11:30", "name": "USPS COLLECTION BOX - PO LOBBY", "ref": "3875400002"}, "type": "Feature"}
{"geometry": {"coordinates": [-90.9791604, 33.401008], "type": "Point"}, "id": "_PnSZZxkycZOIgQXLKbLxw-2WkI=", "properties": {"@spider": "usps_collection_boxes", "addr:city": "LELAND", "addr:country": "US", "addr:full": "3836 HIGHWAY 82 W", "addr:postcode": "38756", "addr:state": "MS", "brand": "USPS", "collection_times": "Mo-Fr 11:30; Sa 11:00", "name": "USPS COLLECTION BOX - BLUE BOX", "ref": "3875600005"}, "type": "Feature"}
{"geometry": {"coordinates": [-90.898149732, 33.404833741], "type": "Point"}, "id": "pDCt4sSBh8yaycAw2Pmq3qg_EJ0=", "properties": {"@spider": "usps_collection_boxes", "addr:city": "LELAND", "addr:country": "US", "addr:full": "204 N BROAD ST", "addr:postcode": "38756", "addr:state": "MS", "brand": "USPS", "collection_times": "Mo-Fr 16:30; Sa 11:00", "name": "USPS COLLECTION BOX - PO LOBBY", "note": "ON 12/24 AND 12/31, THIS BOX MAY BE COLLECTED AS EARLY AS 12 NOON.", "ref": "3875600006"}, "type": "Feature"}
{"geometry": {"coordinates": [-90.898149732, 33.404833741], "type": "Point"}, "id": "7iqSiFeVviXFy_K9Ba9dFSY50hE=", "properties": {"@spider": "usps_collection_boxes", "addr:city": "LELAND", "addr:country": "US", "addr:full": "204 N BROAD ST", "addr:postcode": "38756", "addr:state": "MS", "brand": "USPS", "collection_times": "Mo-Fr 16:30; Sa 11:00", "name": "USPS COLLECTION BOX - BLUE BOX", "note": "ON 12/24 AND 12/31, THIS BOX MAY BE COLLECTED AS EARLY AS 12 NOON.", "ref": "3875600007"}, "type": "Feature"}
{"geometry": {"coordinates": [-90.898149732, 33.404833741], "type": "Point"}, "id": "zflx4XSGCV72WwJ-Pl3Kryfloto=", "properties": {"@spider": "usps_collection_boxes", "addr:city": "LELAND", "addr:country": "US", "addr:full": "204 N BROAD ST", "addr:postcode": "38756", "addr:state": "MS", "brand": "USPS", "collection_times": "Mo-Fr 16:30; Sa 11:00", "name": "USPS COLLECTION BOX - PO LOBBY", "note": "ON 12/24 AND 12/31, THIS BOX MAY BE COLLECTED AS EARLY AS 12 NOON.", "ref": "3875600008"}, "type": "Feature"}
{"geometry": {"coordinates": [-90.722875, 33.838275], "type": "Point"}, "id": "AEhL_RyLkuy-cXtcFSfLYAMgQ1s=", "properties": {"@spider": "usps_collection_boxes", "addr:city": "MERIGOLD", "addr:country": "US", "addr:full": "106 E GOFF ST", "addr:postcode": "38759", "addr:state": "MS", "brand": "USPS", "collection_times": "Mo-Fr 14:30", "name": "USPS COLLECTION BOX - BLUE BOX", "note": "ON 12/24 AND 12/31, THIS BOX MAY BE COLLECTED AS EARLY AS 12 NOON.", "ref": "3875900000"}, "type": "Feature"}
{"geometry": {"coordinates": [-90.722875, 33.838275], "type": "Point"}, "id": "SBzPaiY02eE4WFUihKEH5_QB3Ks=", "properties": {"@spider": "usps_collection_boxes", "addr:city": "MERIGOLD", "addr:country": "US", "addr:full": "106 E GOFF ST", "addr:postcode": "38759", "addr:state": "MS", "brand": "USPS", "collection_times": "Mo-Fr 14:30; Sa 09:00", "name": "USPS COLLECTION BOX - PO LOBBY", "note": "ON 12/24 AND 12/31, THIS BOX MAY BE COLLECTED AS EARLY AS 12 NOON.", "ref": "3875900001"}, "type": "Feature"}
{"geometry": {"coordinates": [-90.7228405839, 33.8382344536], "type": "Point"}, "id": "86q7MQnYkZKgi4acd1IetgVY4NU=", "properties": {"@spider": "usps_collection_boxes", "addr:city": "MERIGOLD", "addr:country": "US", "addr:full": "106 E GOFF ST", "addr:postcode": "38759", "addr:state": "MS", "brand": "USPS", "collection_times": "Mo-Fr 14:30", "name": "USPS COLLECTION BOX - PO LOBBY", "note": "ON 12/24 AND 12/31, THIS BOX MAY BE COLLECTED AS EARLY AS 12 NOON.", "ref": "3875900002"}, "type": "Feature"}
{"geometry": {"coordinates": [-91.027102, 33.455435], "type": "Point"}, "id": "Az_KF1UHnB8sRyIAQgoSipEmk3s=", "properties": {"@spider": "usps_collection_boxes", "addr:city": "METCALFE", "addr:country": "US", "addr:full": "401 METCALFE RD", "addr:postcode": "38760", "addr:state": "MS", "brand": "USPS", "collection_times": "Mo-Fr 12:00", "name": "USPS COLLECTION BOX - BLUE BOX", "ref": "3876000000"}, "type": "Feature"}
{"geometry": {"coordinates": [-91.027005, 33.455477], "type": "Point"}, "id": "CjuTXjSHuFPzOmHVtcorVIC8juU=", "properties": {"@spider": "usps_collection_boxes", "addr:city": "METCALFE", "addr:country": "US", "addr:full": "401 METCALFE RD", "addr:postcode": "38760", "addr:state": "MS", "brand": "USPS", "collection_times": "Mo-Fr 11:50; Sa 09:00", "name": "USPS COLLECTION BOX - PO LOBBY", "ref": "3876000001"}, "type": "Feature"}
{"geometry": {"coordinates": [-91.0083012345, 33.4576850976], "type": "Point"}, "id": "wPXsYQXlaemWasjdmSIqgWMznGA=", "properties": {"@spider": "usps_collection_boxes", "addr:city": "METCALFE", "addr:country": "US", "addr:full": "401 METCALFE RD", "addr:postcode": "38760", "addr:state": "MS", "brand": "USPS", "collection_times": "Mo-Fr 12:00", "name": "USPS COLLECTION BOX - PO LOBBY", "ref": "3876000002"}, "type": "Feature"}
{"geometry": {"coordinates": [-90.50655869, 33.449535398], "type": "Point"}, "id": "PjQDWEiIgbkoFn5H-blLxdQsCtI=", "properties": {"@spider": "usps_collection_boxes", "addr:city": "MOORHEAD", "addr:country": "US", "addr:full": "900 E DELTA AVE", "addr:postcode": "38761", "addr:state": "MS", "brand": "USPS", "collection_times": "Mo-Fr 15:45; Sa 10:25", "name": "USPS COLLECTION BOX - PO LOBBY", "note": "ON 12/24 AND 12/31, THIS BOX MAY BE COLLECTED AS EARLY AS 12 NOON.", "ref": "3876100000"}, "type": "Feature"}
{"geometry": {"coordinates": [-90.50655869, 33.449535398], "type": "Point"}, "id": "tbsewYw8vNi8c97hjN4Cj-DKYs0=", "properties": {"@spider": "usps_collection_boxes", "addr:city": "MOORHEAD", "addr:country": "US", "addr:full": "900 E DELTA AVE", "addr:postcode": "38761", "addr:state": "MS", "brand": "USPS", "collection_times": "Mo-Fr 15:45; Sa 10:25", "name": "USPS COLLECTION BOX - BLUE BOX", "note": "ON 12/24 AND 12/31, THIS BOX MAY BE COLLECTED AS EARLY AS 12 NOON.", "ref": "3876100001"}, "type": "Feature"}
{"geometry": {"coordinates": [-90.50655869, 33.449535398], "type": "Point"}, "id": "lbp4Ri9Pbw7jutSf1n-Il4lAEao=", "properties": {"@spider": "usps_collection_boxes", "addr:city": "MOORHEAD", "addr:country": "US", "addr:full": "900 E DELTA AVE", "addr:postcode": "38761", "addr:state": "MS", "brand": "USPS", "collection_times": "Mo-Fr 16:00; Sa 10:30", "name": "USPS COLLECTION BOX - PO LOBBY", "note": "ON 12/24 AND 12/31, THIS BOX MAY BE COLLECTED AS EARLY AS 12 NOON.", "ref": "3876100002"}, "type": "Feature"}
{"geometry": {"coordinates": [-90.727533853, 33.875988738], "type": "Point"}, "id": "F4gtciGlyGM__K-AWRQCVOl6M88=", "properties": {"@spider": "usps_collection_boxes", "addr:city": "MOUND BAYOU", "addr:country": "US", "addr:full": "206 S EDWARDS AVE", "addr:postcode": "38762", "addr:state": "MS", "brand": "USPS", "collection_times": "Mo-Fr 16:00; Sa 11:00", "name": "USPS COLLECTION BOX - BLUE BOX", "note": "ON 12/24 AND 12/31, THIS BOX MAY BE COLLECTED AS EARLY AS 12 NOON.", "ref": "3876200000"}, "type": "Feature"}
{"geometry": {"coordinates": [-90.727533853, 33.875988738], "type": "Point"}, "id": "en3ptgQ7mbo_FE9xZ-6RiQehqOI=", "properties": {"@spider": "usps_collection_boxes", "addr:city": "MOUND BAYOU", "addr:country": "US", "addr:full": "206 S EDWARDS AVE", "addr:postcode": "38762", "addr:state": "MS", "brand": "USPS", "collection_times": "Mo-Fr 16:00; Sa 11:00", "name": "USPS COLLECTION BOX - PO LOBBY", "note": "ON 12/24 AND 12/31, THIS BOX MAY BE COLLECTED AS EARLY AS 12 NOON.", "ref": "3876200001"}, "type": "Feature"}
{"geometry": {"coordinates": [-90.727533853, 33.875988738], "type": "Point"}, "id": "PhThqpZgk9SyrkAWN3bGgkv7s9Y=", "properties": {"@spider": "usps_collection_boxes", "addr:city": "MOUND BAYOU", "addr:country": "US", "addr:full": "206 S EDWARDS AVE", "addr:postcode": "38762", "addr:state": "MS", "brand": "USPS", "collection_times": "Mo-Fr 16:00; Sa 11:00", "name": "USPS COLLECTION BOX - PO LOBBY", "note": "ON 12/24 AND 12/31, THIS BOX MAY BE COLLECTED AS EARLY AS 12 NOON.", "ref": "3876200002"}, "type": "Feature"}
{"geometry": {"coordinates": [-90.865262926, 33.795090423], "type": "Point"}, "id": "mNry2c9we1hWFzdTmeqcdSbP36E=", "properties": {"@spider": "usps_collection_boxes", "addr:city": "PACE", "addr:country": "US", "addr:full": "329 JENNY WASHINGTON RD", "addr:postcode": "38764", "addr:state": "MS", "brand": "USPS", "collection_times": "Mo-Fr 12:00", "name": "USPS COLLECTION BOX - BLUE BOX", "ref": "3876400000"}, "type": "Feature"}
{"geometry": {"coordinates": [-90.865262926, 33.795090423], "type": "Point"}, "id": "y6IN6wS2fPDZsC3TzFp5PDQ3GZk=", "properties": {"@spider": "usps_collection_boxes", "addr:city": "PACE", "addr:country": "US", "addr:full": "329 JENNY WASHINGTON RD", "addr:postcode": "38764", "addr:state": "MS", "brand": "USPS", "collection_times": "Mo-Fr 12:00; Sa 09:00", "name": "USPS COLLECTION BOX - PO LOBBY", "ref": "3876400001"}, "type": "Feature"}
{"geometry": {"coordinates": [-90.865262926, 33.795090423], "type": "Point"}, "id": "UsN3qA5owJi6eeyqgpKI5SDTORs=", "properties": {"@spider": "usps_collection_boxes", "addr:city": "PACE", "addr:country": "US", "addr:full": "329 JENNY WASHINGTON RD", "addr:postcode": "38764", "addr:state": "MS", "brand": "USPS", "collection_times": "Mo-Fr 12:00", "name": "USPS COLLECTION BOX - PO LOBBY", "ref": "3876400002"}, "type": "Feature"}
{"geometry": {"coordinates": [-90.775374229, 34.153344586], "type": "Point"}, "id": "j0B3Zg97mZYXDJcmA9x6QN26eCU=", "properties": {"@spider": "usps_collection_boxes", "addr:city": "RENA LARA", "addr:country": "US", "addr:full": "3291 HIGHWAY 1", "addr:postcode": "38767", "addr:state": "MS", "brand": "USPS", "collection_times": "Mo-Fr 11:00; Sa 10:45", "name": "USPS COLLECTION BOX - BLUE BOX", "ref": "3876700000"}, "type": "Feature"}
{"geometry": {"coordinates": [-90.775374229, 34.153344586], "type": "Point"}, "id": "G7lJY79g-ekBaK65-Ft5KnYsfEo=", "properties": {"@spider": "usps_collection_boxes", "addr:city": "RENA LARA", "addr:country": "US", "addr:full": "3291 HIGHWAY 1", "addr:postcode": "38767", "addr:state": "MS", "brand": "USPS", "collection_times": "Mo-Fr 10:50; Sa 10:40", "name": "USPS COLLECTION BOX - PO LOBBY", "ref": "3876700001"}, "type": "Feature"}
{"geometry": {"coordinates": [-90.775374229, 34.153344586], "type": "Point"}, "id": "yy-uzWirzLpmItfzQkimE8LEV4Q=", "properties": {"@spider": "usps_collection_boxes", "addr:city": "RENA LARA", "addr:country": "US", "addr:full": "3291 HIGHWAY 1", "addr:postcode": "38767", "addr:state": "MS", "brand": "USPS", "collection_times": "Mo-Fr 11:00; Sa 10:45", "name": "USPS COLLECTION BOX - PO LOBBY", "ref": "3876700002"}, "type": "Feature"}
{"geometry": {"coordinates": [-90.4778646903, 33.9640293318], "type": "Point"}, "id": "-nobvrziUKcSs0gBa04HJ3RO_XY=", "properties": {"@spider": "usps_collection_boxes", "addr:city": "ROME", "addr:country": "US", "addr:full": "800 BALTZER ROME RD", "addr:postcode": "38768", "addr:state": "MS", "brand": "USPS", "collection_times": "Mo-Fr 10:00; Sa 09:45", "name": "USPS COLLECTION BOX - BLUE BOX", "ref": "3876800000"}, "type": "Feature"}
{"geometry": {"coordinates": [-90.4778646903, 33.9640293318], "type": "Point"}, "id": "XVue9WiTINjUM9rbi0s-S2u0BiM=", "properties": {"@spider": "usps_collection_boxes", "addr:city": "ROME", "addr:country": "US", "addr:full": "800 BALTZER ROME RD", "addr:postcode": "38768", "addr:state": "MS", "brand": "USPS", "collection_times": "Mo-Sa 10:00", "name": "USPS COLLECTION BOX - PO LOBBY", "ref": "3876800001"}, "type": "Feature"}
{"geometry": {"coordinates": [-90.4778646903, 33.9640293318], "type": "Point"}, "id": "d8dMSbdw3kqjkA1YGYHgeDcJ5b4=", "properties": {"@spider": "usps_collection_boxes", "addr:city": "ROME", "addr:country": "US", "addr:full": "800 BALTZER ROME RD", "addr:postcode": "38768", "addr:state": "MS", "brand": "USPS", "collection_times": "Mo-Sa 10:00", "name": "USPS COLLECTION BOX - PO LOBBY", "ref": "3876800002"}, "type": "Feature"}
{"geometry": {"coordinates": [-91.028738256, 33.854661006], "type": "Point"}, "id": "6bwZcirBlY7p8lD7hWI7ezKnLFw=", "properties": {"@spider": "usps_collection_boxes", "addr:city": "ROSEDALE", "addr:country": "US", "addr:full": "700 FRONT ST", "addr:postcode": "38769", "addr:state": "MS", "brand": "USPS", "collection_times": "Mo-Fr 16:00; Sa 11:30", "name": "USPS COLLECTION BOX - BLUE BOX", "note": "ON 12/24 AND 12/31, THIS BOX MAY BE COLLECTED AS EARLY AS 12 NOON.", "ref": "3876900001"}, "type": "Feature"}
{"geometry": {"coordinates": [-91.028738256, 33.854661006], "type": "Point"}, "id": "v4ZZVQS0dnechZeVrvpZp-AkWaQ=", "properties": {"@spider": "usps_collection_boxes", "addr:city": "ROSEDALE", "addr:country": "US", "addr:full": "700 FRONT ST", "addr:postcode": "38769", "addr:state": "MS", "brand": "USPS", "collection_times": "Mo-Fr 16:00; Sa 11:30", "name": "USPS COLLECTION BOX - PO LOBBY", "note": "ON 12/24 AND 12/31, THIS BOX MAY BE COLLECTED AS EARLY AS 12 NOON.", "ref": "3876900002"}, "type": "Feature"}
{"geometry": {"coordinates": [-91.028738256, 33.854661006], "type": "Point"}, "id": "em51EnfWf5RtgLUmC97GdJcfQaI=", "properties": {"@spider": "usps_collection_boxes", "addr:city": "ROSEDALE", "addr:country": "US", "addr:full": "700 FRONT ST", "addr:postcode": "38769", "addr:state": "MS", "brand": "USPS", "collection_times": "Mo-Fr 16:00; Sa 11:30", "name": "USPS COLLECTION BOX - PO LOBBY", "note": "ON 12/24 AND 12/31, THIS BOX MAY BE COLLECTED AS EARLY AS 12 NOON.", "ref": "3876900003"}, "type": "Feature"}
{"geometry": {"coordinates": [-90.550289842, 33.726222586], "type": "Point"}, "id": "iFSqyXEIiW4X2e4aoxSkIJTczYQ=", "properties": {"@spider": "usps_collection_boxes", "addr:city": "RULEVILLE", "addr:country": "US", "addr:full": "115 N CHESTER AVE", "addr:postcode": "38771", "addr:state": "MS", "brand": "USPS", "collection_times": "Mo-Fr 16:00; Sa 10:30", "name": "USPS COLLECTION BOX - BLUE BOX", "note": "ON 12/24 AND 12/31, THIS BOX MAY BE COLLECTED AS EARLY AS 12 NOON.", "ref": "3877100000"}, "type": "Feature"}
{"geometry": {"coordinates": [-90.550289842, 33.726222586], "type": "Point"}, "id": "7stN3SLB-4DwFvSq9xSt4MUC33Y=", "properties": {"@spider": "usps_collection_boxes", "addr:city": "RULEVILLE", "addr:country": "US", "addr:full": "115 N CHESTER AVE", "addr:postcode": "38771", "addr:state": "MS", "brand": "USPS", "collection_times": "Mo-Fr 16:00; Sa 10:30", "name": "USPS COLLECTION BOX - PO LOBBY", "note": "ON 12/24 AND 12/31, THIS BOX MAY BE COLLECTED AS EARLY AS 12 NOON.", "ref": "3877100006"}, "type": "Feature"}
{"geometry": {"coordinates": [-90.550289842, 33.726222586], "type": "Point"}, "id": "AR1aOl0jmjgEJtZxzEwA-aIeiEc=", "properties": {"@spider": "usps_collection_boxes", "addr:city": "RULEVILLE", "addr:country": "US", "addr:full": "115 N CHESTER AVE", "addr:postcode": "38771", "addr:state": "MS", "brand": "USPS", "collection_times": "Mo-Fr 16:00; Sa 10:30", "name": "USPS COLLECTION BOX - PO LOBBY", "note": "ON 12/24 AND 12/31, THIS BOX MAY BE COLLECTED AS EARLY AS 12 NOON.", "ref": "3877100007"}, "type": "Feature"}
{"geometry": {"coordinates": [-90.550289842, 33.726222586], "type": "Point"}, "id": "2JP-84NWmBdAxnaUWV5-q_SJmZc=", "properties": {"@spider": "usps_collection_boxes", "addr:city": "RULEVILLE", "addr:country": "US", "addr:full": "115 N CHESTER AVE", "addr:postcode": "38771", "addr:state": "MS", "brand": "USPS", "collection_times": "Mo-Fr 16:15; Sa 10:30", "name": "USPS COLLECTION BOX - PO LOBBY", "note": "ON 12/24 AND 12/31, THIS BOX MAY BE COLLECTED AS EARLY AS 12 NOON.", "ref": "3877100008"}, "type": "Feature"}
{"geometry": {"coordinates": [-91.075815287, 33.594495131], "type": "Point"}, "id": "usr49QDWer075oZtO79nMeHWx8o=", "properties": {"@spider": "usps_collection_boxes", "addr:city": "SCOTT", "addr:country": "US", "addr:full": "1 COTTON ROW", "addr:postcode": "38772", "addr:state": "MS", "brand": "USPS", "collection_times": "Mo-Fr 14:30", "name": "USPS COLLECTION BOX - BLUE BOX", "note": "ON 12/24 AND 12/31, THIS BOX MAY BE COLLECTED AS EARLY AS 12 NOON.", "ref": "3877200000"}, "type": "Feature"}
{"geometry": {"coordinates": [-91.075815287, 33.594495131], "type": "Point"}, "id": "HsV5ADxrtQQlHykTnSoPRts8tUc=", "properties": {"@spider": "usps_collection_boxes", "addr:city": "SCOTT", "addr:country": "US", "addr:full": "1 COTTON ROW", "addr:postcode": "38772", "addr:state": "MS", "brand": "USPS", "collection_times": "Mo-Fr 14:30; Sa 09:00", "name": "USPS COLLECTION BOX - PO LOBBY", "note": "ON 12/24 AND 12/31, THIS BOX MAY BE COLLECTED AS EARLY AS 12 NOON.", "ref": "3877200001"}, "type": "Feature"}
{"geometry": {"coordinates": [-91.075815287, 33.594495131], "type": "Point"}, "id": "Ct9al_SZrNGLfG0zxqGVNM5EE9g=", "properties": {"@spider": "usps_collection_boxes", "addr:city": "SCOTT", "addr:country": "US", "addr:full": "1 COTTON ROW", "addr:postcode": "38772", "addr:state": "MS", "brand": "USPS", "collection_times": "Mo-Fr 14:30", "name": "USPS COLLECTION BOX - PO LOBBY", "note": "ON 12/24 AND 12/31, THIS BOX MAY BE COLLECTED AS EARLY AS 12 NOON.", "ref": "3877200002"}, "type": "Feature"}
{"geometry": {"coordinates": [-90.772087518, 33.601708854], "type": "Point"}, "id": "MPamukSyN-hLACAcALjJEJFqYNQ=", "properties": {"@spider": "usps_collection_boxes", "addr:city": "SHAW", "addr:country": "US", "addr:full": "100 FAISON ST", "addr:postcode": "38773", "addr:state": "MS", "brand": "USPS", "collection_times": "Mo-Fr 16:10; Sa 11:45", "name": "USPS COLLECTION BOX - BLUE BOX", "note": "ON 12/24 AND 12/31, THIS BOX MAY BE COLLECTED AS EARLY AS 12 NOON.", "ref": "3877300000"}, "type": "Feature"}
{"geometry": {"coordinates": [-90.772087518, 33.601708854], "type": "Point"}, "id": "nVE0Vy49o2AZV6QbiNuwA9UBt7k=", "properties": {"@spider": "usps_collection_boxes", "addr:city": "SHAW", "addr:country": "US", "addr:full": "100 FAISON ST", "addr:postcode": "38773", "addr:state": "MS", "brand": "USPS", "collection_times": "Mo-Fr 16:10; Sa 11:45", "name": "USPS COLLECTION BOX - PO LOBBY", "note": "ON 12/24 AND 12/31, THIS BOX MAY BE COLLECTED AS EARLY AS 12 NOON.", "ref": "3877300001"}, "type": "Feature"}
{"geometry": {"coordinates": [-90.772087518, 33.601708854], "type": "Point"}, "id": "2bBXEuqPEB5smUi5LMxYEJ84dDA=", "properties": {"@spider": "usps_collection_boxes", "addr:city": "SHAW", "addr:country": "US", "addr:full": "100 FAISON ST", "addr:postcode": "38773", "addr:state": "MS", "brand": "USPS", "collection_times": "Mo-Fr 16:15; Sa 11:00", "name": "USPS COLLECTION BOX - PO LOBBY", "note": "ON 12/24 AND 12/31, THIS BOX MAY BE COLLECTED AS EARLY AS 12 NOON.", "ref": "3877300002"}, "type": "Feature"}
{"geometry": {"coordinates": [-90.767132832, 33.950998521], "type": "Point"}, "id": "L2824M9VU3VGFhIuWXjTvIujV0g=", "properties": {"@spider": "usps_collection_boxes", "addr:city": "SHELBY", "addr:country": "US", "addr:full": "304 SECOND AVE", "addr:postcode": "38774", "addr:state": "MS", "brand": "USPS", "collection_times": "Mo-Fr 16:00; Sa 11:00", "name": "USPS COLLECTION BOX - BLUE BOX", "note": "ON 12/24 AND 12/31, THIS BOX MAY BE COLLECTED AS EARLY AS 12 NOON.", "ref": "3877400000"}, "type": "Feature"}
{"geometry": {"coordinates": [-90.767132832, 33.950998521], "type": "Point"}, "id": "dasusk17TJdwa5y70lOWRRJMUWQ=", "properties": {"@spider": "usps_collection_boxes", "addr:city": "SHELBY", "addr:country": "US", "addr:full": "304 SECOND AVE", "addr:postcode": "38774", "addr:state": "MS", "brand": "USPS", "collection_times": "Mo-Fr 16:00; Sa 11:00", "name": "USPS COLLECTION BOX - PO LOBBY", "note": "ON 12/24 AND 12/31, THIS BOX MAY BE COLLECTED AS EARLY AS 12 NOON.", "ref": "3877400001"}, "type": "Feature"}
{"geometry": {"coordinates": [-90.917313071, 33.422382416], "type": "Point"}, "id": "uBWtf9l-wuuzRIn98-olrCJrsJQ=", "properties": {"@spider": "usps_collection_boxes", "addr:city": "STONEVILLE", "addr:country": "US", "addr:full": "4845 OLD LELAND RD", "addr:postcode": "38776", "addr:state": "MS", "brand": "USPS", "collection_times": "Mo-Fr 12:00; Sa 09:45", "name": "USPS COLLECTION BOX - BLUE BOX", "ref": "3877600000"}, "type": "Feature"}
{"geometry": {"coordinates": [-90.917313071, 33.422382416], "type": "Point"}, "id": "-cPjlTUMNYdxJcAxgjx5bB0BBXM=", "properties": {"@spider": "usps_collection_boxes", "addr:city": "STONEVILLE", "addr:country": "US", "addr:full": "4845 OLD LELAND RD", "addr:postcode": "38776", "addr:state": "MS", "brand": "USPS", "collection_times": "Mo-Fr 11:50; Sa 09:45", "name": "USPS COLLECTION BOX - PO LOBBY", "ref": "3877600001"}, "type": "Feature"}
{"geometry": {"coordinates": [-90.917313071, 33.422382416], "type": "Point"}, "id": "fOO3q9anQqxZ4V0HZnBG0kyEeJI=", "properties": {"@spider": "usps_collection_boxes", "addr:city": "STONEVILLE", "addr:country": "US", "addr:full": "4845 OLD LELAND RD", "addr:postcode": "38776", "addr:state": "MS", "brand": "USPS", "collection_times": "Mo-Fr 12:00; Sa 10:00", "name": "USPS COLLECTION BOX - PO LOBBY", "ref": "3877600002"}, "type": "Feature"}
{"geometry": {"coordinates": [-90.536888, 33.542033], "type": "Point"}, "id": "87i32P7N8_nSIoOmNm433d-WWsk=", "properties": {"@spider": "usps_collection_boxes", "addr:city": "SUNFLOWER", "addr:country": "US", "addr:full": "102 W QUIVER ST", "addr:postcode": "38778", "addr:state": "MS", "brand": "USPS", "collection_times": "Mo-Fr 12:00; Sa 11:00", "name": "USPS COLLECTION BOX - BLUE BOX", "ref": "3877800000"}, "type": "Feature"}
{"geometry": {"coordinates": [-90.536888, 33.542033], "type": "Point"}, "id": "pnxmHFDl1MtEBLwP_VUBLFrQVHM=", "properties": {"@spider": "usps_collection_boxes", "addr:city": "SUNFLOWER", "addr:country": "US", "addr:full": "102 W QUIVER ST", "addr:postcode": "38778", "addr:state": "MS", "brand": "USPS", "collection_times": "Mo-Fr 12:00; Sa 11:00", "name": "USPS COLLECTION BOX - PO LOBBY", "ref": "3877800001"}, "type": "Feature"}
{"geometry": {"coordinates": [-90.5369913372, 33.5424857628], "type": "Point"}, "id": "D87AAJggoeQoehT-Yl4MYhgSEvw=", "properties": {"@spider": "usps_collection_boxes", "addr:city": "SUNFLOWER", "addr:country": "US", "addr:full": "102 W QUIVER ST", "addr:postcode": "38778", "addr:state": "MS", "brand": "USPS", "collection_times": "Mo-Fr 12:00; Sa 11:00", "name": "USPS COLLECTION BOX - PO LOBBY", "ref": "3877800003"}, "type": "Feature"}
{"geometry": {"coordinates": [-91.034171304, 33.269732283], "type": "Point"}, "id": "usQJu-JCcdXYtkzyJzXIaZ6QUvg=", "properties": {"@spider": "usps_collection_boxes", "addr:city": "WAYSIDE", "addr:country": "US", "addr:full": "3501 HIGHWAY 1 S", "addr:postcode": "38780", "addr:state": "MS", "brand": "USPS", "collection_times": "Mo-Fr 17:00; Sa 09:45", "name": "USPS COLLECTION BOX - BLUE BOX", "note": "ON 12/24 AND 12/31, THIS BOX MAY BE COLLECTED AS EARLY AS 12 NOON.", "ref": "3878000000"}, "type": "Feature"}
{"geometry": {"coordinates": [-91.034171304, 33.269732283], "type": "Point"}, "id": "8g2zN77-qtxnahtG3R5EGZJ3CBY=", "properties": {"@spider": "usps_collection_boxes", "addr:city": "WAYSIDE", "addr:country": "US", "addr:full": "3501 HIGHWAY 1 S", "addr:postcode": "38780", "addr:state": "MS", "brand": "USPS", "collection_times": "Mo-Fr 17:00; Sa 09:45", "name": "USPS COLLECTION BOX - PO LOBBY", "note": "ON 12/24 AND 12/31, THIS BOX MAY BE COLLECTED AS EARLY AS 12 NOON.", "ref": "3878000001"}, "type": "Feature"}
{"geometry": {"coordinates": [-91.034171304, 33.269732283], "type": "Point"}, "id": "3Q75q9ijxpylKWR1yqAwRP6_EJk=", "properties": {"@spider": "usps_collection_boxes", "addr:city": "WAYSIDE", "addr:country": "US", "addr:full": "3501 HIGHWAY 1 S", "addr:postcode": "38780", "addr:state": "MS", "brand": "USPS", "collection_times": "Mo-Fr 17:00; Sa 10:15", "name": "USPS COLLECTION BOX - PO LOBBY", "note": "ON 12/24 AND 12/31, THIS BOX MAY BE COLLECTED AS EARLY AS 12 NOON.", "ref": "3878000003"}, "type": "Feature"}
{"geometry": {"coordinates": [-90.751216515, 33.9103879], "type": "Point"}, "id": "9E6rYsAO2ugwTG3Z8AGJqNIKg3s=", "properties": {"@spider": "usps_collection_boxes", "addr:city": "WINSTONVILLE", "addr:country": "US", "addr:full": "300 E WINSTON ST", "addr:postcode": "38781", "addr:state": "MS", "brand": "USPS", "collection_times": "Mo-Fr 10:00; Sa 09:30", "name": "USPS COLLECTION BOX - BLUE BOX", "ref": "3878100000"}, "type": "Feature"}
{"geometry": {"coordinates": [-90.751216515, 33.9103879], "type": "Point"}, "id": "Ut0KrFwvzdbl8KVpVFud_ZdqnqM=", "properties": {"@spider": "usps_collection_boxes", "addr:city": "WINSTONVILLE", "addr:country": "US", "addr:full": "300 E WINSTON ST", "addr:postcode": "38781", "addr:state": "MS", "brand": "USPS", "collection_times": "Mo-Fr 10:00; Sa 09:30", "name": "USPS COLLECTION BOX - PO LOBBY", "ref": "3878100001"}, "type": "Feature"}
{"geometry": {"coordinates": [-90.751216515, 33.9103879], "type": "Point"}, "id": "83vURFqhnjjJVedkU3-0qPp_M1E=", "properties": {"@spider": "usps_collection_boxes", "addr:city": "WINSTONVILLE", "addr:country": "US", "addr:full": "300 E WINSTON ST", "addr:postcode": "38781", "addr:state": "MS", "brand": "USPS", "collection_times": "Mo-Fr 10:00; Sa 09:15", "name": "USPS COLLECTION BOX - PO LOBBY", "ref": "3878100002"}, "type": "Feature"}
