{"dataset_attributes": {"@spider": "usps_collection_boxes"}, "geometry": {"coordinates": [-89.031468762, 34.173908963], "type": "Point"}, "id": "AeoPLLmy9tWzf6ga-VWQNg0TXvI=", "properties": {"@spider": "usps_collection_boxes", "addr:city": "ALGOMA", "addr:country": "US", "addr:full": "5 MAIN AVE", "addr:postcode": "38820", "addr:state": "MS", "amenity": "post_box", "brand": "United States Postal Service", "brand:wikidata": "Q668687", "collection_times": "Mo-Fr 15:30; Sa 14:00", "name": "USPS COLLECTION BOX - BLUE BOX", "note": "ON 12/24 AND 12/31, THIS BOX MAY BE COLLECTED AS EARLY AS 12 NOON.", "nsi_id": "unitedstatespostalservice-a77078", "operator": "United States Postal Service", "operator:short": "USPS", "operator:type": "public", "operator:wikidata": "Q668687", "ref": "3882000000"}, "type": "Feature"}
{"dataset_attributes": {"@spider": "usps_collection_boxes"}, "geometry": {"coordinates": [-89.031468762, 34.173908963], "type": "Point"}, "id": "23sAisABvkZWkSRhusXthfPhguc=", "properties": {"@spider": "usps_collection_boxes", "addr:city": "ALGOMA", "addr:country": "US", "addr:full": "5 MAIN AVE", "addr:postcode": "38820", "addr:state": "MS", "amenity": "post_box", "brand": "United States Postal Service", "brand:wikidata": "Q668687", "collection_times": "Mo-Fr 15:30", "name": "USPS COLLECTION BOX - PO LOBBY", "note": "ON 12/24 AND 12/31, THIS BOX MAY BE COLLECTED AS EARLY AS 12 NOON.", "nsi_id": "unitedstatespostalservice-a77078", "operator": "United States Postal Service", "operator:short": "USPS", "operator:type": "public", "operator:wikidata": "Q668687", "ref": "3882000001"}, "type": "Feature"}
{"dataset_attributes": {"@spider": "usps_collection_boxes"}, "geometry": {"coordinates": [-89.031468762, 34.173908963], "type": "Point"}, "id": "IktIfkBGla7iRpTu2rZPqnbHRPY=", "properties": {"@spider": "usps_collection_boxes", "addr:city": "ALGOMA", "addr:country": "US", "addr:full": "5 MAIN AVE", "addr:postcode": "38820", "addr:state": "MS", "amenity": "post_box", "brand": "United States Postal Service", "brand:wikidata": "Q668687", "collection_times": "Mo-Fr 15:30; Sa 14:00", "name": "USPS COLLECTION BOX - PO LOBBY", "note": "ON 12/24 AND 12/31, THIS BOX MAY BE COLLECTED AS EARLY AS 12 NOON.", "nsi_id": "unitedstatespostalservice-a77078", "operator": "United States Postal Service", "operator:short": "USPS", "operator:type": "public", "operator:wikidata": "Q668687", "ref": "3882000002"}, "type": "Feature"}
{"dataset_attributes": {"@spider": "usps_collection_boxes"}, "geometry": {"coordinates": [-89.283299963, 33.854240004], "type": "Point"}, "id": "w4VTnIA_Lo2U0mMkqoNJyvckHUk=", "properties": {"@spider": "usps_collection_boxes", "addr:city": "DERMA", "addr:country": "US", "addr:full": "115 S MAIN ST", "addr:postcode": "38839", "addr:state": "MS", "amenity": "post_box", "brand": "United States Postal Service", "brand:wikidata": "Q668687", "collection_times": "Mo-Fr 09:30; Sa 09:00", "name": "USPS COLLECTION BOX - BLUE BOX", "nsi_id": "unitedstatespostalservice-a77078", "operator": "United States Postal Service", "operator:short": "USPS", "operator:type": "public", "operator:wikidata": "Q668687", "ref": "3883900001"}, "type": "Feature"}
{"dataset_attributes": {"@spider": "usps_collection_boxes"}, "geometry": {"coordinates": [-89.283299963, 33.854240004], "type": "Point"}, "id": "AES8ChvD51QRfW_QYoKzUa0w31Q=", "properties": {"@spider": "usps_collection_boxes", "addr:city": "DERMA", "addr:country": "US", "addr:full": "115 S MAIN ST", "addr:postcode": "38839", "addr:state": "MS", "amenity": "post_box", "brand": "United States Postal Service", "brand:wikidata": "Q668687", "collection_times": "Mo-Fr 09:30; Sa 09:00", "name": "USPS COLLECTION BOX - PO LOBBY", "nsi_id": "unitedstatespostalservice-a77078", "operator": "United States Postal Service", "operator:short": "USPS", "operator:type": "public", "operator:wikidata": "Q668687", "ref": "3883900002"}, "type": "Feature"}
{"dataset_attributes": {"@spider": "usps_collection_boxes"}, "geometry": {"coordinates": [-89.283299963, 33.854240004], "type": "Point"}, "id": "CRprW4ubnHooB7TALo_Y5sYho2Q=", "properties": {"@spider": "usps_collection_boxes", "addr:city": "DERMA", "addr:country": "US", "addr:full": "115 S MAIN ST", "addr:postcode": "38839", "addr:state": "MS", "amenity": "post_box", "brand": "United States Postal Service", "brand:wikidata": "Q668687", "collection_times": "Mo-Fr 09:30; Sa 09:00", "name": "USPS COLLECTION BOX - PO LOBBY", "nsi_id": "unitedstatespostalservice-a77078", "operator": "United States Postal Service", "operator:short": "USPS", "operator:type": "public", "operator:wikidata": "Q668687", "ref": "3883900003"}, "type": "Feature"}
{"dataset_attributes": {"@spider": "usps_collection_boxes"}, "geometry": {"coordinates": [-89.030879562, 34.350927996], "type": "Point"}, "id": "iBWNQenfBvMdKYvNzXVl9XDqqDU=", "properties": {"@spider": "usps_collection_boxes", "addr:city": "ECRU", "addr:country": "US", "addr:full": "239 MAIN ST", "addr:postcode": "38841", "addr:state": "MS", "amenity": "post_box", "brand": "United States Postal Service", "brand:wikidata": "Q668687", "collection_times": "Mo-Fr 16:00; Sa 10:00", "name": "USPS COLLECTION BOX - BLUE BOX", "note": "ON 12/24 AND 12/31, THIS BOX MAY BE COLLECTED AS EARLY AS 12 NOON.", "nsi_id": "unitedstatespostalservice-a77078", "operator": "United States Postal Service", "operator:short": "USPS", "operator:type": "public", "operator:wikidata": "Q668687", "ref": "3884100001"}, "type": "Feature"}
{"dataset_attributes": {"@spider": "usps_collection_boxes"}, "geometry": {"coordinates": [-89.030879562, 34.350927996], "type": "Point"}, "id": "8_XCf0RcKXJscU7Y2XsYFH8L8Js=", "properties": {"@spider": "usps_collection_boxes", "addr:city": "ECRU", "addr:country": "US", "addr:full": "239 MAIN ST", "addr:postcode": "38841", "addr:state": "MS", "amenity": "post_box", "brand": "United States Postal Service", "brand:wikidata": "Q668687", "collection_times": "Mo-Fr 16:00; Sa 10:00", "name": "USPS COLLECTION BOX - PO LOBBY", "note": "ON 12/24 AND 12/31, THIS BOX MAY BE COLLECTED AS EARLY AS 12 NOON.", "nsi_id": "unitedstatespostalservice-a77078", "operator": "United States Postal Service", "operator:short": "USPS", "operator:type": "public", "operator:wikidata": "Q668687", "ref": "3884100003"}, "type": "Feature"}
{"dataset_attributes": {"@spider": "usps_collection_boxes"}, "geometry": {"coordinates": [-89.030879562, 34.350927996], "type": "Point"}, "id": "FbuaiE8AWKQ-VYCMoXPMgmpCbvE=", "properties": {"@spider": "usps_collection_boxes", "addr:city": "ECRU", "addr:country": "US", "addr:full": "239 MAIN ST", "addr:postcode": "38841", "addr:state": "MS", "amenity": "post_box", "brand": "United States Postal Service", "brand:wikidata": "Q668687", "collection_times": "Mo-Fr 16:00; Sa 10:00", "name": "USPS COLLECTION BOX - PO LOBBY", "note": "ON 12/24 AND 12/31, THIS BOX MAY BE COLLECTED AS EARLY AS 12 NOON.", "nsi_id": "unitedstatespostalservice-a77078", "operator": "United States Postal Service", "operator:short": "USPS", "operator:type": "public", "operator:wikidata": "Q668687", "ref": "3884100004"}, "type": "Feature"}
{"dataset_attributes": {"@spider": "usps_collection_boxes"}, "geometry": {"coordinates": [-89.022567373, 34.037182185], "type": "Point"}, "id": "GKBiak9A0VV-snyOHYO4pvchJ84=", "properties": {"@spider": "usps_collection_boxes", "addr:city": "HOULKA", "addr:country": "US", "addr:full": "206 WALKER ST", "addr:postcode": "38850", "addr:state": "MS", "amenity": "post_box", "brand": "United States Postal Service", "brand:wikidata": "Q668687", "collection_times": "Mo-Fr 14:00; Sa 09:00", "name": "USPS COLLECTION BOX - BLUE BOX", "note": "ON 12/24 AND 12/31, THIS BOX MAY BE COLLECTED AS EARLY AS 12 NOON.", "nsi_id": "unitedstatespostalservice-a77078", "operator": "United States Postal Service", "operator:short": "USPS", "operator:type": "public", "operator:wikidata": "Q668687", "ref": "3885000001"}, "type": "Feature"}
{"dataset_attributes": {"@spider": "usps_collection_boxes"}, "geometry": {"coordinates": [-89.022567373, 34.037182185], "type": "Point"}, "id": "t_yAJ3KqsEYRiEPNWO0zNFuZAWM=", "properties": {"@spider": "usps_collection_boxes", "addr:city": "HOULKA", "addr:country": "US", "addr:full": "206 WALKER ST", "addr:postcode": "38850", "addr:state": "MS", "amenity": "post_box", "brand": "United States Postal Service", "brand:wikidata": "Q668687", "collection_times": "Mo-Fr 14:00; Sa 09:00", "name": "USPS COLLECTION BOX - PO LOBBY", "note": "ON 12/24 AND 12/31, THIS BOX MAY BE COLLECTED AS EARLY AS 12 NOON.", "nsi_id": "unitedstatespostalservice-a77078", "operator": "United States Postal Service", "operator:short": "USPS", "operator:type": "public", "operator:wikidata": "Q668687", "ref": "3885000004"}, "type": "Feature"}
{"dataset_attributes": {"@spider": "usps_collection_boxes"}, "geometry": {"coordinates": [-89.022567373, 34.037182185], "type": "Point"}, "id": "JoFHkkMNS2UAY3SNtBj6sXFXzHM=", "properties": {"@spider": "usps_collection_boxes", "addr:city": "HOULKA", "addr:country": "US", "addr:full": "206 WALKER ST", "addr:postcode": "38850", "addr:state": "MS", "amenity": "post_box", "brand": "United States Postal Service", "brand:wikidata": "Q668687", "collection_times": "Mo-Fr 14:00; Sa 09:00", "name": "USPS COLLECTION BOX - PO LOBBY", "note": "ON 12/24 AND 12/31, THIS BOX MAY BE COLLECTED AS EARLY AS 12 NOON.", "nsi_id": "unitedstatespostalservice-a77078", "operator": "United States Postal Service", "operator:short": "USPS", "operator:type": "public", "operator:wikidata": "Q668687", "ref": "3885000005"}, "type": "Feature"}
{"dataset_attributes": {"@spider": "usps_collection_boxes"}, "geometry": {"coordinates": [-89.000479965, 33.89788998], "type": "Point"}, "id": "e6IPE6NTh55W4Q8bR8uT7Z4Xo3U=", "properties": {"@spider": "usps_collection_boxes", "addr:city": "HOUSTON", "addr:country": "US", "addr:full": "217 N JACKSON ST", "addr:postcode": "38851", "addr:state": "MS", "amenity": "post_box", "brand": "United States Postal Service", "brand:wikidata": "Q668687", "collection_times": "Mo-Fr 16:30; Sa 10:00", "name": "USPS COLLECTION BOX - BLUE BOX", "note": "ON 12/24 AND 12/31, THIS BOX MAY BE COLLECTED AS EARLY AS 12 NOON.", "nsi_id": "unitedstatespostalservice-a77078", "operator": "United States Postal Service", "operator:short": "USPS", "operator:type": "public", "operator:wikidata": "Q668687", "ref": "3885100001"}, "type": "Feature"}
{"dataset_attributes": {"@spider": "usps_collection_boxes"}, "geometry": {"coordinates": [-89.000479965, 33.89788998], "type": "Point"}, "id": "X5gHbV7CkTzTvJ_PpXmmt4-V-4c=", "properties": {"@spider": "usps_collection_boxes", "addr:city": "HOUSTON", "addr:country": "US", "addr:full": "217 N JACKSON ST", "addr:postcode": "38851", "addr:state": "MS", "amenity": "post_box", "brand": "United States Postal Service", "brand:wikidata": "Q668687", "collection_times": "Mo-Fr 16:45; Sa 10:00", "name": "USPS COLLECTION BOX - PO LOBBY", "note": "ON 12/24 AND 12/31, THIS BOX MAY BE COLLECTED AS EARLY AS 12 NOON.", "nsi_id": "unitedstatespostalservice-a77078", "operator": "United States Postal Service", "operator:short": "USPS", "operator:type": "public", "operator:wikidata": "Q668687", "ref": "3885100002"}, "type": "Feature"}
{"dataset_attributes": {"@spider": "usps_collection_boxes"}, "geometry": {"coordinates": [-89.000479965, 33.89788998], "type": "Point"}, "id": "9QxsyU_FVKB-tUd0FjBNlWc7LGE=", "properties": {"@spider": "usps_collection_boxes", "addr:city": "HOUSTON", "addr:country": "US", "addr:full": "217 N JACKSON ST", "addr:postcode": "38851", "addr:state": "MS", "amenity": "post_box", "brand": "United States Postal Service", "brand:wikidata": "Q668687", "collection_times": "Mo-Fr 16:45; Sa 10:00", "name": "USPS COLLECTION BOX - PO LOBBY", "note": "ON 12/24 AND 12/31, THIS BOX MAY BE COLLECTED AS EARLY AS 12 NOON.", "nsi_id": "unitedstatespostalservice-a77078", "operator": "United States Postal Service", "operator:short": "USPS", "operator:type": "public", "operator:wikidata": "Q668687", "ref": "3885100003"}, "type": "Feature"}
{"dataset_attributes": {"@spider": "usps_collection_boxes"}, "geometry": {"coordinates": [-88.998839962, 34.246943986], "type": "Point"}, "id": "H43cljqrE1HhKkZN24z5XEVyBWw=", "properties": {"@spider": "usps_collection_boxes", "addr:city": "PONTOTOC", "addr:country": "US", "addr:full": "59 S MAIN ST", "addr:postcode": "38863", "addr:state": "MS", "amenity": "post_box", "brand": "United States Postal Service", "brand:wikidata": "Q668687", "collection_times": "Mo-Fr 13:30; Sa 12:00", "name": "USPS COLLECTION BOX - BLUE BOX", "note": "ON 12/24 AND 12/31, THIS BOX MAY BE COLLECTED AS EARLY AS 12 NOON.", "nsi_id": "unitedstatespostalservice-a77078", "operator": "United States Postal Service", "operator:short": "USPS", "operator:type": "public", "operator:wikidata": "Q668687", "ref": "3886300001"}, "type": "Feature"}
{"dataset_attributes": {"@spider": "usps_collection_boxes"}, "geometry": {"coordinates": [-88.998839962, 34.246943986], "type": "Point"}, "id": "nHUAMGDfkMf_dNYT1KfS7GkHLoc=", "properties": {"@spider": "usps_collection_boxes", "addr:city": "PONTOTOC", "addr:country": "US", "addr:full": "59 S MAIN ST", "addr:postcode": "38863", "addr:state": "MS", "amenity": "post_box", "brand": "United States Postal Service", "brand:wikidata": "Q668687", "collection_times": "Mo-Fr 13:30; Sa 12:00", "name": "USPS COLLECTION BOX - BLUE BOX", "note": "ON 12/24 AND 12/31, THIS BOX MAY BE COLLECTED AS EARLY AS 12 NOON.", "nsi_id": "unitedstatespostalservice-a77078", "operator": "United States Postal Service", "operator:short": "USPS", "operator:type": "public", "operator:wikidata": "Q668687", "ref": "3886300002"}, "type": "Feature"}
{"dataset_attributes": {"@spider": "usps_collection_boxes"}, "geometry": {"coordinates": [-89.020659984, 34.263672002], "type": "Point"}, "id": "kfV3SEqFXOdWntihGJtPBbBU0uo=", "properties": {"@spider": "usps_collection_boxes", "addr:city": "PONTOTOC", "addr:country": "US", "addr:full": "305 HIGHWAY 15 N", "addr:postcode": "38863", "addr:state": "MS", "amenity": "post_box", "brand": "United States Postal Service", "brand:wikidata": "Q668687", "collection_times": "Mo-Fr 16:30; Sa 14:30", "name": "USPS COLLECTION BOX - BLUE BOX", "note": "ON 12/24 AND 12/31, THIS BOX MAY BE COLLECTED AS EARLY AS 12 NOON.", "nsi_id": "unitedstatespostalservice-a77078", "operator": "United States Postal Service", "operator:short": "USPS", "operator:type": "public", "operator:wikidata": "Q668687", "ref": "3886300021"}, "type": "Feature"}
{"dataset_attributes": {"@spider": "usps_collection_boxes"}, "geometry": {"coordinates": [-89.020659984, 34.263672002], "type": "Point"}, "id": "ityrkFmkItRSfXPTN8eiOBtfkI0=", "properties": {"@spider": "usps_collection_boxes", "addr:city": "PONTOTOC", "addr:country": "US", "addr:full": "305 HIGHWAY 15 N", "addr:postcode": "38863", "addr:state": "MS", "amenity": "post_box", "brand": "United States Postal Service", "brand:wikidata": "Q668687", "collection_times": "Mo-Fr 16:30; Sa 14:30", "name": "USPS COLLECTION BOX - BLUE BOX", "note": "ON 12/24 AND 12/31, THIS BOX MAY BE COLLECTED AS EARLY AS 12 NOON.", "nsi_id": "unitedstatespostalservice-a77078", "operator": "United States Postal Service", "operator:short": "USPS", "operator:type": "public", "operator:wikidata": "Q668687", "ref": "3886300022"}, "type": "Feature"}
{"dataset_attributes": {"@spider": "usps_collection_boxes"}, "geometry": {"coordinates": [-89.020659984, 34.263672002], "type": "Point"}, "id": "CeJRMRhdJoYw3IBLP6rr25z20RE=", "properties": {"@spider": "usps_collection_boxes", "addr:city": "PONTOTOC", "addr:country": "US", "addr:full": "305 HIGHWAY 15 N", "addr:postcode": "38863", "addr:state": "MS", "amenity": "post_box", "brand": "United States Postal Service", "brand:wikidata": "Q668687", "collection_times": "Mo-Fr 16:30; Sa 14:30", "name": "USPS COLLECTION BOX - PO LOBBY", "note": "ON 12/24 AND 12/31, THIS BOX MAY BE COLLECTED AS EARLY AS 12 NOON.", "nsi_id": "unitedstatespostalservice-a77078", "operator": "United States Postal Service", "operator:short": "USPS", "operator:type": "public", "operator:wikidata": "Q668687", "ref": "3886300023"}, "type": "Feature"}
{"dataset_attributes": {"@spider": "usps_collection_boxes"}, "geometry": {"coordinates": [-89.020659984, 34.263672002], "type": "Point"}, "id": "Z5EFzche1QpnTt5TkzBBDZmX7KY=", "properties": {"@spider": "usps_collection_boxes", "addr:city": "PONTOTOC", "addr:country": "US", "addr:full": "305 HIGHWAY 15 N", "addr:postcode": "38863", "addr:state": "MS", "amenity": "post_box", "brand": "United States Postal Service", "brand:wikidata": "Q668687", "collection_times": "Mo-Fr 16:30; Sa 14:30", "name": "USPS COLLECTION BOX - PO LOBBY", "note": "ON 12/24 AND 12/31, THIS BOX MAY BE COLLECTED AS EARLY AS 12 NOON.", "nsi_id": "unitedstatespostalservice-a77078", "operator": "United States Postal Service", "operator:short": "USPS", "operator:type": "public", "operator:wikidata": "Q668687", "ref": "3886300024"}, "type": "Feature"}
{"dataset_attributes": {"@spider": "usps_collection_boxes"}, "geometry": {"coordinates": [-89.020659984, 34.263672002], "type": "Point"}, "id": "AYiFR_2R3oQ28xNk7JqN8848PBw=", "properties": {"@spider": "usps_collection_boxes", "addr:city": "PONTOTOC", "addr:country": "US", "addr:full": "305 HIGHWAY 15 N", "addr:postcode": "38863", "addr:state": "MS", "amenity": "post_box", "brand": "United States Postal Service", "brand:wikidata": "Q668687", "collection_times": "Mo-Fr 16:30; Sa 11:00", "name": "USPS COLLECTION BOX - PO LOBBY", "note": "ON 12/24 AND 12/31, THIS BOX MAY BE COLLECTED AS EARLY AS 12 NOON.", "nsi_id": "unitedstatespostalservice-a77078", "operator": "United States Postal Service", "operator:short": "USPS", "operator:type": "public", "operator:wikidata": "Q668687", "ref": "3886300026"}, "type": "Feature"}
{"dataset_attributes": {"@spider": "usps_collection_boxes"}, "geometry": {"coordinates": [-89.163321646, 34.1858421], "type": "Point"}, "id": "qkbRXnCeBUt0ovpjJp--nkwjW9Y=", "properties": {"@spider": "usps_collection_boxes", "addr:city": "RANDOLPH", "addr:country": "US", "addr:full": "213 RANDOLPH LOOP", "addr:postcode": "38864", "addr:state": "MS", "amenity": "post_box", "brand": "United States Postal Service", "brand:wikidata": "Q668687", "collection_times": "Mo-Fr 12:30; Sa 08:45", "name": "USPS COLLECTION BOX - BLUE BOX", "note": "ON 12/24 AND 12/31, THIS BOX MAY BE COLLECTED AS EARLY AS 12 NOON.", "nsi_id": "unitedstatespostalservice-a77078", "operator": "United States Postal Service", "operator:short": "USPS", "operator:type": "public", "operator:wikidata": "Q668687", "ref": "3886400001"}, "type": "Feature"}
{"dataset_attributes": {"@spider": "usps_collection_boxes"}, "geometry": {"coordinates": [-89.163321646, 34.1858421], "type": "Point"}, "id": "aWe0xsoe8SsBbcXmIYtT84Ni3bA=", "properties": {"@spider": "usps_collection_boxes", "addr:city": "RANDOLPH", "addr:country": "US", "addr:full": "213 RANDOLPH LOOP", "addr:postcode": "38864", "addr:state": "MS", "amenity": "post_box", "brand": "United States Postal Service", "brand:wikidata": "Q668687", "collection_times": "Mo-Fr 11:00; Sa 08:45", "name": "USPS COLLECTION BOX - PO LOBBY", "nsi_id": "unitedstatespostalservice-a77078", "operator": "United States Postal Service", "operator:short": "USPS", "operator:type": "public", "operator:wikidata": "Q668687", "ref": "3886400003"}, "type": "Feature"}
{"dataset_attributes": {"@spider": "usps_collection_boxes"}, "geometry": {"coordinates": [-89.163321646, 34.1858421], "type": "Point"}, "id": "xtPGgTnJJUcbA-DlgtwQlLwRLow=", "properties": {"@spider": "usps_collection_boxes", "addr:city": "RANDOLPH", "addr:country": "US", "addr:full": "213 RANDOLPH LOOP", "addr:postcode": "38864", "addr:state": "MS", "amenity": "post_box", "brand": "United States Postal Service", "brand:wikidata": "Q668687", "collection_times": "Mo-Fr 12:30", "name": "USPS COLLECTION BOX - PO LOBBY", "note": "ON 12/24 AND 12/31, THIS BOX MAY BE COLLECTED AS EARLY AS 12 NOON.", "nsi_id": "unitedstatespostalservice-a77078", "operator": "United States Postal Service", "operator:short": "USPS", "operator:type": "public", "operator:wikidata": "Q668687", "ref": "3886400004"}, "type": "Feature"}
{"dataset_attributes": {"@spider": "usps_collection_boxes"}, "geometry": {"coordinates": [-89.17970659, 34.300833555], "type": "Point"}, "id": "Ghy9uXuNz3LtytR9xqJZ4FZhgXg=", "properties": {"@spider": "usps_collection_boxes", "addr:city": "THAXTON", "addr:country": "US", "addr:full": "779 THAXTON RD", "addr:postcode": "38871", "addr:state": "MS", "amenity": "post_box", "brand": "United States Postal Service", "brand:wikidata": "Q668687", "collection_times": "Mo-Fr 12:00; Sa 08:45", "name": "USPS COLLECTION BOX - BLUE BOX", "nsi_id": "unitedstatespostalservice-a77078", "operator": "United States Postal Service", "operator:short": "USPS", "operator:type": "public", "operator:wikidata": "Q668687", "ref": "3887100001"}, "type": "Feature"}
{"dataset_attributes": {"@spider": "usps_collection_boxes"}, "geometry": {"coordinates": [-89.17970659, 34.300833555], "type": "Point"}, "id": "HaTkPzbXhCf7ImUWLa6cTEkrk9o=", "properties": {"@spider": "usps_collection_boxes", "addr:city": "THAXTON", "addr:country": "US", "addr:full": "779 THAXTON RD", "addr:postcode": "38871", "addr:state": "MS", "amenity": "post_box", "brand": "United States Postal Service", "brand:wikidata": "Q668687", "collection_times": "Mo-Fr 12:00; Sa 08:45", "name": "USPS COLLECTION BOX - PO LOBBY", "nsi_id": "unitedstatespostalservice-a77078", "operator": "United States Postal Service", "operator:short": "USPS", "operator:type": "public", "operator:wikidata": "Q668687", "ref": "3887100003"}, "type": "Feature"}
{"dataset_attributes": {"@spider": "usps_collection_boxes"}, "geometry": {"coordinates": [-89.17970659, 34.300833555], "type": "Point"}, "id": "E2eTisrCczllaffJRhR7xKTHtck=", "properties": {"@spider": "usps_collection_boxes", "addr:city": "THAXTON", "addr:country": "US", "addr:full": "779 THAXTON RD", "addr:postcode": "38871", "addr:state": "MS", "amenity": "post_box", "brand": "United States Postal Service", "brand:wikidata": "Q668687", "collection_times": "Mo-Fr 12:00", "name": "USPS COLLECTION BOX - PO LOBBY", "nsi_id": "unitedstatespostalservice-a77078", "operator": "United States Postal Service", "operator:short": "USPS", "operator:type": "public", "operator:wikidata": "Q668687", "ref": "3887100004"}, "type": "Feature"}
{"dataset_attributes": {"@spider": "usps_collection_boxes"}, "geometry": {"coordinates": [-89.232596432, 34.255761036], "type": "Point"}, "id": "yaCpxTMpn5pjvv8e6xh-RLIzJds=", "properties": {"@spider": "usps_collection_boxes", "addr:city": "TOCCOPOLA", "addr:country": "US", "addr:full": "11 PERKINS ST", "addr:postcode": "38874", "addr:state": "MS", "amenity": "post_box", "brand": "United States Postal Service", "brand:wikidata": "Q668687", "collection_times": "Mo-Fr 10:00; Sa 08:00", "name": "USPS COLLECTION BOX - BLUE BOX", "nsi_id": "unitedstatespostalservice-a77078", "operator": "United States Postal Service", "operator:short": "USPS", "operator:type": "public", "operator:wikidata": "Q668687", "ref": "3887400001"}, "type": "Feature"}
{"dataset_attributes": {"@spider": "usps_collection_boxes"}, "geometry": {"coordinates": [-89.232596432, 34.255761036], "type": "Point"}, "id": "Iq-vSlatiP6GVpfsZxwDfS4F4BU=", "properties": {"@spider": "usps_collection_boxes", "addr:city": "TOCCOPOLA", "addr:country": "US", "addr:full": "11 PERKINS ST", "addr:postcode": "38874", "addr:state": "MS", "amenity": "post_box", "brand": "United States Postal Service", "brand:wikidata": "Q668687", "collection_times": "Mo-Fr 10:00; Sa 08:00", "name": "USPS COLLECTION BOX - PO LOBBY", "nsi_id": "unitedstatespostalservice-a77078", "operator": "United States Postal Service", "operator:short": "USPS", "operator:type": "public", "operator:wikidata": "Q668687", "ref": "3887400002"}, "type": "Feature"}
{"dataset_attributes": {"@spider": "usps_collection_boxes"}, "geometry": {"coordinates": [-89.232596432, 34.255761036], "type": "Point"}, "id": "li4YjwDL-C5k2jj1uIwPJSNAfBg=", "properties": {"@spider": "usps_collection_boxes", "addr:city": "TOCCOPOLA", "addr:country": "US", "addr:full": "11 PERKINS ST", "addr:postcode": "38874", "addr:state": "MS", "amenity": "post_box", "brand": "United States Postal Service", "brand:wikidata": "Q668687", "collection_times": "Mo-Fr 10:00", "name": "USPS COLLECTION BOX - PO LOBBY", "nsi_id": "unitedstatespostalservice-a77078", "operator": "United States Postal Service", "operator:short": "USPS", "operator:type": "public", "operator:wikidata": "Q668687", "ref": "3887400003"}, "type": "Feature"}
{"dataset_attributes": {"@spider": "usps_collection_boxes"}, "geometry": {"coordinates": [-89.175881324, 33.877093056], "type": "Point"}, "id": "O786tXVq-3pK4TJCtfwNCrk4li0=", "properties": {"@spider": "usps_collection_boxes", "addr:city": "VARDAMAN", "addr:country": "US", "addr:full": "200 BURKETT AVE", "addr:postcode": "38878", "addr:state": "MS", "amenity": "post_box", "brand": "United States Postal Service", "brand:wikidata": "Q668687", "collection_times": "Mo-Fr 14:30; Sa 10:45", "name": "USPS COLLECTION BOX - BLUE BOX", "note": "ON 12/24 AND 12/31, THIS BOX MAY BE COLLECTED AS EARLY AS 12 NOON.", "nsi_id": "unitedstatespostalservice-a77078", "operator": "United States Postal Service", "operator:short": "USPS", "operator:type": "public", "operator:wikidata": "Q668687", "ref": "3887800001"}, "type": "Feature"}
{"dataset_attributes": {"@spider": "usps_collection_boxes"}, "geometry": {"coordinates": [-89.175881324, 33.877093056], "type": "Point"}, "id": "4igWWAygvHzviSGlnuZ5gOLQj3w=", "properties": {"@spider": "usps_collection_boxes", "addr:city": "VARDAMAN", "addr:country": "US", "addr:full": "200 BURKETT AVE", "addr:postcode": "38878", "addr:state": "MS", "amenity": "post_box", "brand": "United States Postal Service", "brand:wikidata": "Q668687", "collection_times": "Mo-Fr 14:30; Sa 10:45", "name": "USPS COLLECTION BOX - PO LOBBY", "note": "ON 12/24 AND 12/31, THIS BOX MAY BE COLLECTED AS EARLY AS 12 NOON.", "nsi_id": "unitedstatespostalservice-a77078", "operator": "United States Postal Service", "operator:short": "USPS", "operator:type": "public", "operator:wikidata": "Q668687", "ref": "3887800002"}, "type": "Feature"}
{"dataset_attributes": {"@spider": "usps_collection_boxes"}, "geometry": {"coordinates": [-89.177546859, 33.875655846], "type": "Point"}, "id": "0IcxA7D7skS1GfDIcP_s2NwWv6o=", "properties": {"@spider": "usps_collection_boxes", "addr:city": "VARDAMAN", "addr:country": "US", "addr:full": "102 W SWEET POTATO ST", "addr:postcode": "38878", "addr:state": "MS", "amenity": "post_box", "brand": "United States Postal Service", "brand:wikidata": "Q668687", "collection_times": "Mo-Sa 13:30", "name": "USPS COLLECTION BOX - BLUE BOX", "note": "ON 12/24 AND 12/31, THIS BOX MAY BE COLLECTED AS EARLY AS 12 NOON.", "nsi_id": "unitedstatespostalservice-a77078", "operator": "United States Postal Service", "operator:short": "USPS", "operator:type": "public", "operator:wikidata": "Q668687", "ref": "3887800003"}, "type": "Feature"}
{"dataset_attributes": {"@spider": "usps_collection_boxes"}, "geometry": {"coordinates": [-89.175881324, 33.877093056], "type": "Point"}, "id": "InvrFqb1sG_10OHWbWuO62V9e2s=", "properties": {"@spider": "usps_collection_boxes", "addr:city": "VARDAMAN", "addr:country": "US", "addr:full": "200 BURKETT AVE", "addr:postcode": "38878", "addr:state": "MS", "amenity": "post_box", "brand": "United States Postal Service", "brand:wikidata": "Q668687", "collection_times": "Mo-Fr 14:30; Sa 10:45", "name": "USPS COLLECTION BOX - PO LOBBY", "note": "ON 12/24 AND 12/31, THIS BOX MAY BE COLLECTED AS EARLY AS 12 NOON.", "nsi_id": "unitedstatespostalservice-a77078", "operator": "United States Postal Service", "operator:short": "USPS", "operator:type": "public", "operator:wikidata": "Q668687", "ref": "3887800004"}, "type": "Feature"}
