{"geometry": {"coordinates": [-89.817071, 33.763243], "type": "Point"}, "id": "mVdp6iD3cBuSQLg7u00JgLq809g=", "properties": {"@spider": "usps_collection_boxes", "addr:city": "GRENADA", "addr:country": "US", "addr:full": "960 AVENT DR", "addr:postcode": "38901", "addr:state": "MS", "brand": "USPS", "collection_times": "Mo-Fr 13:00", "name": "USPS COLLECTION BOX - BLUE BOX", "note": "ON 12/24 AND 12/31, THIS BOX MAY BE COLLECTED AS EARLY AS 12 NOON.", "ref": "3890100000"}, "type": "Feature"}
{"geometry": {"coordinates": [-89.8090826, 33.761778], "type": "Point"}, "id": "HgFcPnCcA1pVvdmdj9gFFBblq4U=", "properties": {"@spider": "usps_collection_boxes", "addr:city": "GRENADA", "addr:country": "US", "addr:full": "1983 COMMERCE ST", "addr:postcode": "38901", "addr:state": "MS", "brand": "USPS", "collection_times": "Mo-Fr 10:00", "name": "USPS COLLECTION BOX - BLUE BOX", "ref": "3890100001"}, "type": "Feature"}
{"geometry": {"coordinates": [-89.8083699, 33.759997], "type": "Point"}, "id": "k4_P4jL4mQAkLBsu_8KnQcK7wY8=", "properties": {"@spider": "usps_collection_boxes", "addr:city": "GRENADA", "addr:country": "US", "addr:full": "2026 COMMERCE ST", "addr:postcode": "38901", "addr:state": "MS", "brand": "USPS", "collection_times": "Mo-Fr 09:30", "name": "USPS COLLECTION BOX - BLUE BOX", "ref": "3890100002"}, "type": "Feature"}
{"geometry": {"coordinates": [-89.8065398, 33.76915], "type": "Point"}, "id": "p_6AKGA3KR2-woQ88QEQUCIrv9w=", "properties": {"@spider": "usps_collection_boxes", "addr:city": "GRENADA", "addr:country": "US", "addr:full": "318 SUNSET DR", "addr:postcode": "38901", "addr:state": "MS", "brand": "USPS", "collection_times": "Mo-Fr 13:00", "name": "USPS COLLECTION BOX - BLUE BOX", "note": "ON 12/24 AND 12/31, THIS BOX MAY BE COLLECTED AS EARLY AS 12 NOON.", "ref": "3890100004"}, "type": "Feature"}
{"geometry": {"coordinates": [-89.830989, 33.782984], "type": "Point"}, "id": "ITvBnYhWP5K0nvPkbHDmOgldJM8=", "properties": {"@spider": "usps_collection_boxes", "addr:city": "GRENADA", "addr:country": "US", "addr:full": "2500 GATEWAY RD", "addr:postcode": "38901", "addr:state": "MS", "brand": "USPS", "collection_times": "Mo-Fr 16:40; Sa 15:00", "name": "USPS COLLECTION BOX - BLUE BOX", "note": "ON 12/24 AND 12/31, THIS BOX MAY BE COLLECTED AS EARLY AS 12 NOON.", "ref": "3890100009"}, "type": "Feature"}
{"geometry": {"coordinates": [-89.827516, 33.782222], "type": "Point"}, "id": "J1Ly0xw60GcvcEV6QPwKx2Idm1Q=", "properties": {"@spider": "usps_collection_boxes", "addr:city": "GRENADA", "addr:country": "US", "addr:full": "2500 GATEWAY RD", "addr:postcode": "38901", "addr:state": "MS", "brand": "USPS", "collection_times": "Mo-Fr 16:45; Sa 15:00", "name": "USPS COLLECTION BOX - PO LOBBY", "note": "ON 12/24 AND 12/31, THIS BOX MAY BE COLLECTED AS EARLY AS 12 NOON.", "ref": "3890100010"}, "type": "Feature"}
{"geometry": {"coordinates": [-89.827516, 33.782222], "type": "Point"}, "id": "zJ_wjUEmPZzXQla_5NA8nCEqFqA=", "properties": {"@spider": "usps_collection_boxes", "addr:city": "GRENADA", "addr:country": "US", "addr:full": "2500 GATEWAY RD", "addr:postcode": "38901", "addr:state": "MS", "brand": "USPS", "collection_times": "Mo-Fr 16:45; Sa 15:00", "name": "USPS COLLECTION BOX - PO LOBBY", "note": "ON 12/24 AND 12/31, THIS BOX MAY BE COLLECTED AS EARLY AS 12 NOON.", "ref": "3890100011"}, "type": "Feature"}
{"geometry": {"coordinates": [-89.827516, 33.782222], "type": "Point"}, "id": "0BTY9AUMaDpT4IYZhy8hiebN6z0=", "properties": {"@spider": "usps_collection_boxes", "addr:city": "GRENADA", "addr:country": "US", "addr:full": "2500 GATEWAY RD", "addr:postcode": "38901", "addr:state": "MS", "brand": "USPS", "collection_times": "Mo-Fr 16:40; Sa 15:00", "name": "USPS COLLECTION BOX - BLUE BOX", "note": "ON 12/24 AND 12/31, THIS BOX MAY BE COLLECTED AS EARLY AS 12 NOON.", "ref": "3890100012"}, "type": "Feature"}
{"geometry": {"coordinates": [-89.8243696, 33.775569], "type": "Point"}, "id": "mfTnhFFgk2-ToySjkWrOEkZFPk0=", "properties": {"@spider": "usps_collection_boxes", "addr:city": "GRENADA", "addr:country": "US", "addr:full": "1315 SUNSET DR", "addr:postcode": "38901", "addr:state": "MS", "brand": "USPS", "collection_times": "Mo-Fr 10:00", "name": "USPS COLLECTION BOX - BLUE BOX", "ref": "3890100014"}, "type": "Feature"}
{"geometry": {"coordinates": [-89.808915, 33.765504], "type": "Point"}, "id": "AdnvkofgR6eDozvUSWDFIdzwsDk=", "properties": {"@spider": "usps_collection_boxes", "addr:city": "GRENADA", "addr:country": "US", "addr:full": "1742 COMMERCE ST", "addr:postcode": "38901", "addr:state": "MS", "brand": "USPS", "collection_times": "Mo-Fr 12:00", "name": "USPS COLLECTION BOX - BLUE BOX", "ref": "3890100015"}, "type": "Feature"}
{"geometry": {"coordinates": [-89.8030694, 33.784669], "type": "Point"}, "id": "sqO7han81BOoM1phJbAI1W7yXQA=", "properties": {"@spider": "usps_collection_boxes", "addr:city": "GRENADA", "addr:country": "US", "addr:full": "109 1ST ST", "addr:postcode": "38901", "addr:state": "MS", "brand": "USPS", "collection_times": "Mo-Fr 11:30", "name": "USPS COLLECTION BOX - BLUE BOX", "ref": "3890100017"}, "type": "Feature"}
{"geometry": {"coordinates": [-89.803451, 33.781329], "type": "Point"}, "id": "cEEmnzt6soao_h1p572h5L1LUK0=", "properties": {"@spider": "usps_collection_boxes", "addr:city": "GRENADA", "addr:country": "US", "addr:full": "178 S MAIN ST", "addr:postcode": "38901", "addr:state": "MS", "brand": "USPS", "collection_times": "Mo-Fr 14:00", "name": "USPS COLLECTION BOX - BLUE BOX", "note": "ON 12/24 AND 12/31, THIS BOX MAY BE COLLECTED AS EARLY AS 12 NOON.", "ref": "3890100019"}, "type": "Feature"}
{"geometry": {"coordinates": [-89.827516, 33.782222], "type": "Point"}, "id": "BOM0tQkgT78hat-b_wGj0ZjSZh8=", "properties": {"@spider": "usps_collection_boxes", "addr:city": "GRENADA", "addr:country": "US", "addr:full": "2500 GATEWAY RD", "addr:postcode": "38901", "addr:state": "MS", "brand": "USPS", "collection_times": "Mo-Fr 16:45; Sa 15:00", "name": "USPS COLLECTION BOX - PO LOBBY", "note": "ON 12/24 AND 12/31, THIS BOX MAY BE COLLECTED AS EARLY AS 12 NOON.", "ref": "3890100022"}, "type": "Feature"}
{"geometry": {"coordinates": [-89.830989, 33.782984], "type": "Point"}, "id": "rwa29JI0b1Eqal6UERWUvhGA3b8=", "properties": {"@spider": "usps_collection_boxes", "addr:city": "GRENADA", "addr:country": "US", "addr:full": "2500 GATEWAY RD.", "addr:postcode": "38901", "addr:state": "MS", "brand": "USPS", "collection_times": "Mo-Fr 16:40; Sa 15:00", "name": "USPS COLLECTION BOX - BLUE BOX", "note": "ON 12/24 AND 12/31, THIS BOX MAY BE COLLECTED AS EARLY AS 12 NOON.", "ref": "3890100027"}, "type": "Feature"}
{"geometry": {"coordinates": [-89.827516, 33.782222], "type": "Point"}, "id": "UXPo2gnbp93Zs7vfvFbhLJiaMwE=", "properties": {"@spider": "usps_collection_boxes", "addr:city": "GRENADA", "addr:country": "US", "addr:full": "2500 GATEWAY RD.", "addr:postcode": "38901", "addr:state": "MS", "brand": "USPS", "collection_times": "Mo-Fr 16:40; Sa 15:00", "name": "USPS COLLECTION BOX - BLUE BOX", "note": "ON 12/24 AND 12/31, THIS BOX MAY BE COLLECTED AS EARLY AS 12 NOON.", "ref": "3890100028"}, "type": "Feature"}
{"geometry": {"coordinates": [-89.823738, 33.775599], "type": "Point"}, "id": "bkhiwqY8GEBCJ_QZO3aOal5QA7E=", "properties": {"@spider": "usps_collection_boxes", "addr:city": "GRENADA", "addr:country": "US", "addr:full": "1300 SUNSET DR", "addr:postcode": "38901", "addr:state": "MS", "brand": "USPS", "collection_times": "Mo-Fr 12:00", "name": "USPS COLLECTION BOX - BLUE BOX", "ref": "3890100030"}, "type": "Feature"}
{"geometry": {"coordinates": [-89.803593, 33.767321], "type": "Point"}, "id": "rtUZ7DYvl_VO8761fV3X0QwJcWA=", "properties": {"@spider": "usps_collection_boxes", "addr:city": "GRENADA", "addr:country": "US", "addr:full": "1240 FAIRGROUND RD", "addr:postcode": "38901", "addr:state": "MS", "brand": "USPS", "collection_times": "Mo-Fr 11:00", "name": "USPS COLLECTION BOX - BLUE BOX", "ref": "3890100031"}, "type": "Feature"}
{"geometry": {"coordinates": [-89.827642655, 33.782173452], "type": "Point"}, "id": "KXSxBZAfDrWqBhuznV28GGgQt8g=", "properties": {"@spider": "usps_collection_boxes", "addr:city": "GRENADA", "addr:country": "US", "addr:full": "2500 GATEWAY ST", "addr:postcode": "38901", "addr:state": "MS", "brand": "USPS", "collection_times": "Mo-Fr 17:00; Sa 12:00", "name": "USPS COLLECTION BOX - PO LOBBY", "note": "ON 12/24 AND 12/31, THIS BOX MAY BE COLLECTED AS EARLY AS 12 NOON.", "ref": "3890100033"}, "type": "Feature"}
{"geometry": {"coordinates": [-89.347144, 33.99369], "type": "Point"}, "id": "r2HfcqkHAgUY1nATvvbdeSNdbM0=", "properties": {"@spider": "usps_collection_boxes", "addr:city": "BRUCE", "addr:country": "US", "addr:full": "309 N NEWBURGER AVE", "addr:postcode": "38915", "addr:state": "MS", "brand": "USPS", "collection_times": "Mo-Fr 16:30; Sa 10:30", "name": "USPS COLLECTION BOX - BLUE BOX", "note": "ON 12/24 AND 12/31, THIS BOX MAY BE COLLECTED AS EARLY AS 12 NOON.", "ref": "3891500000"}, "type": "Feature"}
{"geometry": {"coordinates": [-89.347144, 33.99369], "type": "Point"}, "id": "Z4HXzIh0bYfuZyjfLBI3xs8-ooI=", "properties": {"@spider": "usps_collection_boxes", "addr:city": "BRUCE", "addr:country": "US", "addr:full": "309 N NEWBERGER AVE", "addr:postcode": "38915", "addr:state": "MS", "brand": "USPS", "collection_times": "Mo-Fr 16:30; Sa 10:30", "name": "USPS COLLECTION BOX - PO LOBBY", "note": "ON 12/24 AND 12/31, THIS BOX MAY BE COLLECTED AS EARLY AS 12 NOON.", "ref": "3891500001"}, "type": "Feature"}
{"geometry": {"coordinates": [-89.3471725884, 33.9936540925], "type": "Point"}, "id": "8Imck4Q0tOL7ul73Sbgri9mtrFk=", "properties": {"@spider": "usps_collection_boxes", "addr:city": "BRUCE", "addr:country": "US", "addr:full": "309 N NEWBURGER AVE", "addr:postcode": "38915", "addr:state": "MS", "brand": "USPS", "collection_times": "Mo-Fr 16:30; Sa 11:30", "name": "USPS COLLECTION BOX - PO LOBBY", "note": "ON 12/24 AND 12/31, THIS BOX MAY BE COLLECTED AS EARLY AS 12 NOON.", "ref": "3891500002"}, "type": "Feature"}
{"geometry": {"coordinates": [-89.371932169, 33.746857282], "type": "Point"}, "id": "r9vIGTqQeNmUEoOMb312B0210wk=", "properties": {"@spider": "usps_collection_boxes", "addr:city": "CALHOUN CITY", "addr:country": "US", "addr:full": "205 N MAIN ST", "addr:postcode": "38916", "addr:state": "MS", "brand": "USPS", "collection_times": "Mo-Fr 16:45; Sa 14:30", "name": "USPS COLLECTION BOX - BLUE BOX", "note": "ON 12/24 AND 12/31, THIS BOX MAY BE COLLECTED AS EARLY AS 12 NOON.", "ref": "3891600000"}, "type": "Feature"}
{"geometry": {"coordinates": [-89.371932169, 33.746857282], "type": "Point"}, "id": "R2WY1yxCi3Cf1-krxUv-JFDkmbo=", "properties": {"@spider": "usps_collection_boxes", "addr:city": "CALHOUN CITY", "addr:country": "US", "addr:full": "205 N MAIN ST", "addr:postcode": "38916", "addr:state": "MS", "brand": "USPS", "collection_times": "Mo-Fr 16:45; Sa 14:30", "name": "USPS COLLECTION BOX - PO LOBBY", "note": "ON 12/24 AND 12/31, THIS BOX MAY BE COLLECTED AS EARLY AS 12 NOON.", "ref": "3891600001"}, "type": "Feature"}
{"geometry": {"coordinates": [-89.3120084, 33.854543], "type": "Point"}, "id": "n_C02DpZtAqsLthsoTO7DfQdl1U=", "properties": {"@spider": "usps_collection_boxes", "addr:city": "CALHOUN CITY", "addr:country": "US", "addr:full": "126 PUBLIC SQ", "addr:postcode": "38916", "addr:state": "MS", "brand": "USPS", "collection_times": "Mo-Fr 13:45", "name": "USPS COLLECTION BOX - BLUE BOX", "note": "ON 12/24 AND 12/31, THIS BOX MAY BE COLLECTED AS EARLY AS 12 NOON.", "ref": "3891600002"}, "type": "Feature"}
{"geometry": {"coordinates": [-89.371932169, 33.746857282], "type": "Point"}, "id": "34eLbUOUUyPN75iBn66Qr4ZW2RM=", "properties": {"@spider": "usps_collection_boxes", "addr:city": "CALHOUN CITY", "addr:country": "US", "addr:full": "205 N MAIN ST", "addr:postcode": "38916", "addr:state": "MS", "brand": "USPS", "collection_times": "Mo-Fr 16:30; Sa 11:30", "name": "USPS COLLECTION BOX - PO LOBBY", "note": "ON 12/24 AND 12/31, THIS BOX MAY BE COLLECTED AS EARLY AS 12 NOON.", "ref": "3891600003"}, "type": "Feature"}
{"geometry": {"coordinates": [-89.919731114, 33.507608568], "type": "Point"}, "id": "a_0nUn4lS66MeUTJwmSgR2gSQLk=", "properties": {"@spider": "usps_collection_boxes", "addr:city": "CARROLLTON", "addr:country": "US", "addr:full": "104 W JACKSON ST", "addr:postcode": "38917", "addr:state": "MS", "brand": "USPS", "collection_times": "Mo-Fr 15:55; Sa 10:25", "name": "USPS COLLECTION BOX - BLUE BOX", "note": "ON 12/24 AND 12/31, THIS BOX MAY BE COLLECTED AS EARLY AS 12 NOON.", "ref": "3891700000"}, "type": "Feature"}
{"geometry": {"coordinates": [-89.919731114, 33.507608568], "type": "Point"}, "id": "ltoYbDqDYJED6n10N6i_8TLIU4U=", "properties": {"@spider": "usps_collection_boxes", "addr:city": "CARROLLTON", "addr:country": "US", "addr:full": "104 W JACKSON ST", "addr:postcode": "38917", "addr:state": "MS", "brand": "USPS", "collection_times": "Mo-Fr 16:00; Sa 10:25", "name": "USPS COLLECTION BOX - PO LOBBY", "note": "ON 12/24 AND 12/31, THIS BOX MAY BE COLLECTED AS EARLY AS 12 NOON.", "ref": "3891700001"}, "type": "Feature"}
{"geometry": {"coordinates": [-89.919731114, 33.507608568], "type": "Point"}, "id": "7SWhBsGs9iNpxcrjmj3KDDt8ziI=", "properties": {"@spider": "usps_collection_boxes", "addr:city": "CARROLLTON", "addr:country": "US", "addr:full": "104 W JACKSON ST", "addr:postcode": "38917", "addr:state": "MS", "brand": "USPS", "collection_times": "Mo-Fr 16:00; Sa 10:30", "name": "USPS COLLECTION BOX - PO LOBBY", "note": "ON 12/24 AND 12/31, THIS BOX MAY BE COLLECTED AS EARLY AS 12 NOON.", "ref": "3891700002"}, "type": "Feature"}
{"geometry": {"coordinates": [-90.004184616, 33.856632251], "type": "Point"}, "id": "--xumyX6I3dIRbzqE153InJ-uJA=", "properties": {"@spider": "usps_collection_boxes", "addr:city": "CASCILLA", "addr:country": "US", "addr:full": "617 WHITTEN RD", "addr:postcode": "38920", "addr:state": "MS", "brand": "USPS", "collection_times": "Mo-Sa 09:15", "name": "USPS COLLECTION BOX - BLUE BOX", "ref": "3892000000"}, "type": "Feature"}
{"geometry": {"coordinates": [-90.004184616, 33.856632251], "type": "Point"}, "id": "6w0l1F2BCEVGVUzMvcySOhNWNDI=", "properties": {"@spider": "usps_collection_boxes", "addr:city": "CASCILLA", "addr:country": "US", "addr:full": "617 WHITTEN RD", "addr:postcode": "38920", "addr:state": "MS", "brand": "USPS", "collection_times": "Mo-Sa 09:15", "name": "USPS COLLECTION BOX - PO LOBBY", "ref": "3892000001"}, "type": "Feature"}
{"geometry": {"coordinates": [-90.004184616, 33.856632251], "type": "Point"}, "id": "JVCA7OES9-B_T5oa5a4yoIio5H4=", "properties": {"@spider": "usps_collection_boxes", "addr:city": "CASCILLA", "addr:country": "US", "addr:full": "617 WHITTEN RD", "addr:postcode": "38920", "addr:state": "MS", "brand": "USPS", "collection_times": "Mo-Fr 09:15; Sa 09:30", "name": "USPS COLLECTION BOX - PO LOBBY", "ref": "3892000002"}, "type": "Feature"}
{"geometry": {"coordinates": [-90.1774300151, 33.9453251477], "type": "Point"}, "id": "ymbSe9jRQ40OsJXfNWgphP07glA=", "properties": {"@spider": "usps_collection_boxes", "addr:city": "CHARLESTON", "addr:country": "US", "addr:full": "3 NORTH SQ", "addr:postcode": "38921", "addr:state": "MS", "brand": "USPS", "collection_times": "Mo-Fr 16:15; Sa 12:00", "name": "USPS COLLECTION BOX - PO LOBBY", "note": "ON 12/24 AND 12/31, THIS BOX MAY BE COLLECTED AS EARLY AS 12 NOON.", "ref": "3892100000"}, "type": "Feature"}
{"geometry": {"coordinates": [-90.1774300151, 33.9453251477], "type": "Point"}, "id": "L3G20idCxGdpxcJ2PljQc8RuDwY=", "properties": {"@spider": "usps_collection_boxes", "addr:city": "CHARLESTON", "addr:country": "US", "addr:full": "3 NORTH SQ", "addr:postcode": "38921", "addr:state": "MS", "brand": "USPS", "collection_times": "Mo-Fr 16:15; Sa 12:00", "name": "USPS COLLECTION BOX - BLUE BOX", "note": "ON 12/24 AND 12/31, THIS BOX MAY BE COLLECTED AS EARLY AS 12 NOON.", "ref": "3892100001"}, "type": "Feature"}
{"geometry": {"coordinates": [-90.0547126, 34.0092548], "type": "Point"}, "id": "Zhhq5mV4xhhPp7bDSzQ3uh5HVtY=", "properties": {"@spider": "usps_collection_boxes", "addr:city": "CHARLESTON", "addr:country": "US", "addr:full": "3 NORTH SQUARE", "addr:postcode": "38921", "addr:state": "MS", "brand": "USPS", "collection_times": "Mo-Fr 16:30; Sa 12:00", "name": "USPS COLLECTION BOX - PO LOBBY", "note": "ON 12/24 AND 12/31, THIS BOX MAY BE COLLECTED AS EARLY AS 12 NOON.", "ref": "3892100002"}, "type": "Feature"}
{"geometry": {"coordinates": [-89.676424, 33.974885], "type": "Point"}, "id": "pK3J-Vd6Uf6uavE8doZiIBnpGHU=", "properties": {"@spider": "usps_collection_boxes", "addr:city": "COFFEEVILLE", "addr:country": "US", "addr:full": "47 OAK ST", "addr:postcode": "38922", "addr:state": "MS", "brand": "USPS", "collection_times": "Mo-Fr 16:15; Sa 10:15", "name": "USPS COLLECTION BOX - BLUE BOX", "note": "ON 12/24 AND 12/31, THIS BOX MAY BE COLLECTED AS EARLY AS 12 NOON.", "ref": "3892200000"}, "type": "Feature"}
{"geometry": {"coordinates": [-89.676424, 33.974885], "type": "Point"}, "id": "vARjQfyMIx7_0Y23DUff0eMC_dk=", "properties": {"@spider": "usps_collection_boxes", "addr:city": "COFFEEVILLE", "addr:country": "US", "addr:full": "47 OAK ST", "addr:postcode": "38922", "addr:state": "MS", "brand": "USPS", "collection_times": "Mo-Fr 16:30; Sa 10:35", "name": "USPS COLLECTION BOX - PO LOBBY", "note": "ON 12/24 AND 12/31, THIS BOX MAY BE COLLECTED AS EARLY AS 12 NOON.", "ref": "3892200001"}, "type": "Feature"}
{"geometry": {"coordinates": [-89.6744090817, 33.9735800208], "type": "Point"}, "id": "SETay0hmLBAQ8AnkIhfKMUHeux0=", "properties": {"@spider": "usps_collection_boxes", "addr:city": "COFFEEVILLE", "addr:country": "US", "addr:full": "47 OAK ST", "addr:postcode": "38922", "addr:state": "MS", "brand": "USPS", "collection_times": "Mo-Fr 16:30; Sa 10:30", "name": "USPS COLLECTION BOX - PO LOBBY", "note": "ON 12/24 AND 12/31, THIS BOX MAY BE COLLECTED AS EARLY AS 12 NOON.", "ref": "3892200002"}, "type": "Feature"}
{"geometry": {"coordinates": [-89.977849612, 33.389110876], "type": "Point"}, "id": "Wkkd_YZ-auBz1RbyiT7y7rKyfu4=", "properties": {"@spider": "usps_collection_boxes", "addr:city": "COILA", "addr:country": "US", "addr:full": "17731 MS HIGHWAY 17", "addr:postcode": "38923", "addr:state": "MS", "brand": "USPS", "collection_times": "Mo-Fr 12:00", "name": "USPS COLLECTION BOX - BLUE BOX", "ref": "3892300000"}, "type": "Feature"}
{"geometry": {"coordinates": [-89.977849612, 33.389110876], "type": "Point"}, "id": "_DrEco69MRO-uNKCCUNTLvZLIT0=", "properties": {"@spider": "usps_collection_boxes", "addr:city": "COILA", "addr:country": "US", "addr:full": "17731 MS HIGHWAY 17", "addr:postcode": "38923", "addr:state": "MS", "brand": "USPS", "collection_times": "Mo-Fr 11:50; Sa 09:00", "name": "USPS COLLECTION BOX - PO LOBBY", "ref": "3892300001"}, "type": "Feature"}
{"geometry": {"coordinates": [-89.977849612, 33.389110876], "type": "Point"}, "id": "7iqy9lbqhujzKNrJdq0W8JwHPF8=", "properties": {"@spider": "usps_collection_boxes", "addr:city": "COILA", "addr:country": "US", "addr:full": "17731 MS HIGHWAY 17", "addr:postcode": "38923", "addr:state": "MS", "brand": "USPS", "collection_times": "Mo-Fr 12:00", "name": "USPS COLLECTION BOX - PO LOBBY", "ref": "3892300002"}, "type": "Feature"}
{"geometry": {"coordinates": [-90.235802819, 33.319976283], "type": "Point"}, "id": "kap_0zqv_Fwy2zVUAvAlfgyaatI=", "properties": {"@spider": "usps_collection_boxes", "addr:city": "CRUGER", "addr:country": "US", "addr:full": "283 RAILROAD ST", "addr:postcode": "38924", "addr:state": "MS", "brand": "USPS", "collection_times": "Mo-Fr 11:30; Sa 10:00", "name": "USPS COLLECTION BOX - BLUE BOX", "ref": "3892400000"}, "type": "Feature"}
{"geometry": {"coordinates": [-90.235802819, 33.319976283], "type": "Point"}, "id": "kNYYJYdwQvFbYH74BddEJLsKrY0=", "properties": {"@spider": "usps_collection_boxes", "addr:city": "CRUGER", "addr:country": "US", "addr:full": "283 RAILROAD ST", "addr:postcode": "38924", "addr:state": "MS", "brand": "USPS", "collection_times": "Mo-Fr 11:30; Sa 10:00", "name": "USPS COLLECTION BOX - PO LOBBY", "ref": "3892400001"}, "type": "Feature"}
{"geometry": {"coordinates": [-90.235802819, 33.319976283], "type": "Point"}, "id": "MdA5W3f1nrn1gCxhu_HPaL1jUOU=", "properties": {"@spider": "usps_collection_boxes", "addr:city": "CRUGER", "addr:country": "US", "addr:full": "283 RAILROAD ST", "addr:postcode": "38924", "addr:state": "MS", "brand": "USPS", "collection_times": "Mo-Fr 11:30; Sa 10:00", "name": "USPS COLLECTION BOX - PO LOBBY", "ref": "3892400002"}, "type": "Feature"}
{"geometry": {"coordinates": [-89.712995283, 33.634040685], "type": "Point"}, "id": "UmC-W_mhR1sU_vGIQGAksDdT3mI=", "properties": {"@spider": "usps_collection_boxes", "addr:city": "DUCK HILL", "addr:country": "US", "addr:full": "203 MAIN ST", "addr:postcode": "38925", "addr:state": "MS", "brand": "USPS", "collection_times": "Mo-Fr 15:00; Sa 10:25", "name": "USPS COLLECTION BOX - BLUE BOX", "note": "ON 12/24 AND 12/31, THIS BOX MAY BE COLLECTED AS EARLY AS 12 NOON.", "ref": "3892500000"}, "type": "Feature"}
{"geometry": {"coordinates": [-89.712995283, 33.634040685], "type": "Point"}, "id": "TlMFjTBm5lSkewbt5ucVtIOP5Y8=", "properties": {"@spider": "usps_collection_boxes", "addr:city": "DUCK HILL", "addr:country": "US", "addr:full": "203 MAIN ST", "addr:postcode": "38925", "addr:state": "MS", "brand": "USPS", "collection_times": "Mo-Fr 15:00; Sa 10:25", "name": "USPS COLLECTION BOX - PO LOBBY", "note": "ON 12/24 AND 12/31, THIS BOX MAY BE COLLECTED AS EARLY AS 12 NOON.", "ref": "3892500001"}, "type": "Feature"}
{"geometry": {"coordinates": [-89.712995283, 33.634040685], "type": "Point"}, "id": "otwpOFgu8grl-taGsOoQkCCwmc8=", "properties": {"@spider": "usps_collection_boxes", "addr:city": "DUCK HILL", "addr:country": "US", "addr:full": "203 MAIN ST", "addr:postcode": "38925", "addr:state": "MS", "brand": "USPS", "collection_times": "Mo-Fr 15:00; Sa 11:30", "name": "USPS COLLECTION BOX - PO LOBBY", "note": "ON 12/24 AND 12/31, THIS BOX MAY BE COLLECTED AS EARLY AS 12 NOON.", "ref": "3892500002"}, "type": "Feature"}
{"geometry": {"coordinates": [-89.912835547, 34.129970351], "type": "Point"}, "id": "gFPYUIb5dyAjSJYYXrs86lkaufY=", "properties": {"@spider": "usps_collection_boxes", "addr:city": "ENID", "addr:country": "US", "addr:full": "79 COUNTY ROAD 206", "addr:postcode": "38927", "addr:state": "MS", "brand": "USPS", "collection_times": "Mo-Fr 11:00; Sa 08:00", "name": "USPS COLLECTION BOX - PO LOBBY", "ref": "3892700000"}, "type": "Feature"}
{"geometry": {"coordinates": [-89.912835547, 34.129970351], "type": "Point"}, "id": "XWTO7Y0GQ54bMQqFJF9UlpAL6wQ=", "properties": {"@spider": "usps_collection_boxes", "addr:city": "ENID", "addr:country": "US", "addr:full": "79 COUNTY ROAD 206", "addr:postcode": "38927", "addr:state": "MS", "brand": "USPS", "collection_times": "Mo-Fr 11:00", "name": "USPS COLLECTION BOX - BLUE BOX", "ref": "3892700001"}, "type": "Feature"}
{"geometry": {"coordinates": [-89.912835547, 34.129970351], "type": "Point"}, "id": "QWAdoXumgh1vNLBg4hBm-ZMeey4=", "properties": {"@spider": "usps_collection_boxes", "addr:city": "ENID", "addr:country": "US", "addr:full": "79 COUNTY ROAD 206", "addr:postcode": "38927", "addr:state": "MS", "brand": "USPS", "collection_times": "Mo-Fr 11:00", "name": "USPS COLLECTION BOX - PO LOBBY", "ref": "3892700002"}, "type": "Feature"}
{"geometry": {"coordinates": [-90.294558182, 33.829079409], "type": "Point"}, "id": "t4sRFc4IAvfD4T5PZLK4JSGFFVo=", "properties": {"@spider": "usps_collection_boxes", "addr:city": "GLENDORA", "addr:country": "US", "addr:full": "18 WESTBROOK ST", "addr:postcode": "38928", "addr:state": "MS", "brand": "USPS", "collection_times": "Mo-Fr 12:00; Sa 09:00", "name": "USPS COLLECTION BOX - PO LOBBY", "ref": "3892800000"}, "type": "Feature"}
{"geometry": {"coordinates": [-90.294558182, 33.829079409], "type": "Point"}, "id": "_w3GH93Gh16-q6gAcHQ-jGSkUnE=", "properties": {"@spider": "usps_collection_boxes", "addr:city": "GLENDORA", "addr:country": "US", "addr:full": "18 WESTBROOK ST", "addr:postcode": "38928", "addr:state": "MS", "brand": "USPS", "collection_times": "Mo-Fr 12:00", "name": "USPS COLLECTION BOX - BLUE BOX", "ref": "3892800001"}, "type": "Feature"}
{"geometry": {"coordinates": [-90.294558182, 33.829079409], "type": "Point"}, "id": "ZAbpUVWT8QKyJVclO9CtvWLOMgo=", "properties": {"@spider": "usps_collection_boxes", "addr:city": "GLENDORA", "addr:country": "US", "addr:full": "18 WESTBROOK ST", "addr:postcode": "38928", "addr:state": "MS", "brand": "USPS", "collection_times": "Mo-Fr 12:00", "name": "USPS COLLECTION BOX - PO LOBBY", "ref": "3892800002"}, "type": "Feature"}
{"geometry": {"coordinates": [-89.614801842, 33.756780052], "type": "Point"}, "id": "qCG8p58K2fmth0KqdlQCxY_fOY8=", "properties": {"@spider": "usps_collection_boxes", "addr:city": "GORE SPRINGS", "addr:country": "US", "addr:full": "32394 HIGHWAY 8 E", "addr:postcode": "38929", "addr:state": "MS", "brand": "USPS", "collection_times": "Mo-Fr 11:00; Sa 09:00", "name": "USPS COLLECTION BOX - BLUE BOX", "ref": "3892900000"}, "type": "Feature"}
{"geometry": {"coordinates": [-89.614801842, 33.756780052], "type": "Point"}, "id": "FmJh-dq640sSuJMgsKKh7Iksslo=", "properties": {"@spider": "usps_collection_boxes", "addr:city": "GORE SPRINGS", "addr:country": "US", "addr:full": "32394 HIGHWAY 8 E", "addr:postcode": "38929", "addr:state": "MS", "brand": "USPS", "collection_times": "Mo-Fr 11:00; Sa 09:00", "name": "USPS COLLECTION BOX - PO LOBBY", "ref": "3892900001"}, "type": "Feature"}
{"geometry": {"coordinates": [-89.614801842, 33.756780052], "type": "Point"}, "id": "ZGDzEUX6mfcekonCDw9e2kcfGCE=", "properties": {"@spider": "usps_collection_boxes", "addr:city": "GORE SPRINGS", "addr:country": "US", "addr:full": "32394 HIGHWAY 8 E", "addr:postcode": "38929", "addr:state": "MS", "brand": "USPS", "collection_times": "Mo-Fr 11:00; Sa 09:00", "name": "USPS COLLECTION BOX - PO LOBBY", "ref": "3892900002"}, "type": "Feature"}
{"geometry": {"coordinates": [-90.179515745, 33.520064944], "type": "Point"}, "id": "f6mUJX6Xz9vDpREooxgPDlvJiKc=", "properties": {"@spider": "usps_collection_boxes", "addr:city": "GREENWOOD", "addr:country": "US", "addr:full": "200 E WASHINGTON ST", "addr:postcode": "38930", "addr:state": "MS", "brand": "USPS", "collection_times": "Mo-Fr 16:45; Sa 10:00", "name": "USPS COLLECTION BOX - PO LOBBY", "note": "ON 12/24 AND 12/31, THIS BOX MAY BE COLLECTED AS EARLY AS 12 NOON.", "ref": "3893000002"}, "type": "Feature"}
{"geometry": {"coordinates": [-90.180077, 33.519871], "type": "Point"}, "id": "ey81EIotBSp36EG1H__o65I5pDo=", "properties": {"@spider": "usps_collection_boxes", "addr:city": "GREENWOOD", "addr:country": "US", "addr:full": "303 WALTHALL", "addr:postcode": "38930", "addr:state": "MS", "brand": "USPS", "collection_times": "Mo-Fr 16:17; Sa 10:00", "name": "USPS COLLECTION BOX - BLUE BOX", "note": "ON 12/24 AND 12/31, THIS BOX MAY BE COLLECTED AS EARLY AS 12 NOON.", "ref": "3893000004"}, "type": "Feature"}
{"geometry": {"coordinates": [-90.1838299, 33.520163], "type": "Point"}, "id": "5mvqOwE2wdLiZjPRSiBF-vqAnuA=", "properties": {"@spider": "usps_collection_boxes", "addr:city": "GREENWOOD", "addr:country": "US", "addr:full": "301 W MARKET ST", "addr:postcode": "38930", "addr:state": "MS", "brand": "USPS", "collection_times": "Mo-Fr 15:00", "name": "USPS COLLECTION BOX - BLUE BOX", "note": "ON 12/24 AND 12/31, THIS BOX MAY BE COLLECTED AS EARLY AS 12 NOON.", "ref": "3893000009"}, "type": "Feature"}
{"geometry": {"coordinates": [-90.1531466, 33.514562], "type": "Point"}, "id": "ij-WYvdB_-cACgczMIIPPyCvzso=", "properties": {"@spider": "usps_collection_boxes", "addr:city": "GREENWOOD", "addr:country": "US", "addr:full": "200 HIGHWAY 7 S", "addr:postcode": "38930", "addr:state": "MS", "brand": "USPS", "collection_times": "Mo-Fr 13:00", "name": "USPS COLLECTION BOX - BLUE BOX", "note": "ON 12/24 AND 12/31, THIS BOX MAY BE COLLECTED AS EARLY AS 12 NOON.", "ref": "3893000017"}, "type": "Feature"}
{"geometry": {"coordinates": [-90.2009611, 33.528209], "type": "Point"}, "id": "5odRK8bhuCJgYjNLeLgxYfNvfvw=", "properties": {"@spider": "usps_collection_boxes", "addr:city": "GREENWOOD", "addr:country": "US", "addr:full": "808 W PARK AVE", "addr:postcode": "38930", "addr:state": "MS", "brand": "USPS", "collection_times": "Mo-Fr 15:00", "name": "USPS COLLECTION BOX - BLUE BOX", "note": "ON 12/24 AND 12/31, THIS BOX MAY BE COLLECTED AS EARLY AS 12 NOON.", "ref": "3893000023"}, "type": "Feature"}
{"geometry": {"coordinates": [-90.200258, 33.528162], "type": "Point"}, "id": "i1vW-mw-9NOtuZbuhGecs1yIR7w=", "properties": {"@spider": "usps_collection_boxes", "addr:city": "GREENWOOD", "addr:country": "US", "addr:full": "719 W PARK AVE", "addr:postcode": "38930", "addr:state": "MS", "brand": "USPS", "collection_times": "Mo-Fr 14:55", "name": "USPS COLLECTION BOX - BLUE BOX", "note": "ON 12/24 AND 12/31, THIS BOX MAY BE COLLECTED AS EARLY AS 12 NOON.", "ref": "3893000024"}, "type": "Feature"}
{"geometry": {"coordinates": [-90.1853643, 33.524488], "type": "Point"}, "id": "XT4EgKFKwn72hjMLLyEsvndy7qA=", "properties": {"@spider": "usps_collection_boxes", "addr:city": "GREENWOOD", "addr:country": "US", "addr:full": "105 GRAND BLVD", "addr:postcode": "38930", "addr:state": "MS", "brand": "USPS", "collection_times": "Mo-Fr 15:00", "name": "USPS COLLECTION BOX - BLUE BOX", "note": "ON 12/24 AND 12/31, THIS BOX MAY BE COLLECTED AS EARLY AS 12 NOON.", "ref": "3893000030"}, "type": "Feature"}
{"geometry": {"coordinates": [-90.180077, 33.519871], "type": "Point"}, "id": "MAIu3OVBcOweCwFaZZazQH-1rAk=", "properties": {"@spider": "usps_collection_boxes", "addr:city": "GREENWOOD", "addr:country": "US", "addr:full": "303 WALTHALL ST.", "addr:postcode": "38930", "addr:state": "MS", "brand": "USPS", "collection_times": "Mo-Fr 16:17; Sa 10:00", "name": "USPS COLLECTION BOX - BLUE BOX", "note": "ON 12/24 AND 12/31, THIS BOX MAY BE COLLECTED AS EARLY AS 12 NOON.", "ref": "3893000037"}, "type": "Feature"}
{"geometry": {"coordinates": [-90.207017995, 33.528186], "type": "Point"}, "id": "7C1b9tMm_2H9EaIbjO8mtA9zNz8=", "properties": {"@spider": "usps_collection_boxes", "addr:city": "GREENWOOD", "addr:country": "US", "addr:full": "600 YALOBUSHA ST", "addr:postcode": "38930", "addr:state": "MS", "brand": "USPS", "collection_times": "Mo-Fr 16:45; Sa 14:00", "name": "USPS COLLECTION BOX - BLUE BOX", "note": "ON 12/24 AND 12/31, THIS BOX MAY BE COLLECTED AS EARLY AS 12 NOON.", "ref": "3893000038"}, "type": "Feature"}
{"geometry": {"coordinates": [-90.2011157, 33.517593], "type": "Point"}, "id": "K3kf8BV2cM0XhS4yIkZy1oVOK7A=", "properties": {"@spider": "usps_collection_boxes", "addr:city": "GREENWOOD", "addr:country": "US", "addr:full": "1401 RIVER RD", "addr:postcode": "38930", "addr:state": "MS", "brand": "USPS", "collection_times": "Mo-Sa 12:00", "name": "USPS COLLECTION BOX - BLUE BOX", "ref": "3893000040"}, "type": "Feature"}
{"geometry": {"coordinates": [-90.207017995, 33.528186], "type": "Point"}, "id": "myWdN0l4U300kjX-XzSJ0glknig=", "properties": {"@spider": "usps_collection_boxes", "addr:city": "GREENWOOD", "addr:country": "US", "addr:full": "600 YALOBUSHA ST", "addr:postcode": "38930", "addr:state": "MS", "brand": "USPS", "collection_times": "Mo-Fr 17:00; Sa 15:00", "name": "USPS COLLECTION BOX - PO LOBBY", "note": "ON 12/24 AND 12/31, THIS BOX MAY BE COLLECTED AS EARLY AS 12 NOON.", "ref": "3893000042"}, "type": "Feature"}
{"geometry": {"coordinates": [-90.207017995, 33.528186], "type": "Point"}, "id": "FJ-zXX_KR_jRJe6BT3kgPzEwjFQ=", "properties": {"@spider": "usps_collection_boxes", "addr:city": "GREENWOOD", "addr:country": "US", "addr:full": "600 YALOBUSHA ST", "addr:postcode": "38930", "addr:state": "MS", "brand": "USPS", "collection_times": "Mo-Fr 17:00; Sa 15:00", "name": "USPS COLLECTION BOX - PO LOBBY", "note": "ON 12/24 AND 12/31, THIS BOX MAY BE COLLECTED AS EARLY AS 12 NOON.", "ref": "3893000043"}, "type": "Feature"}
{"geometry": {"coordinates": [-90.207017995, 33.528186], "type": "Point"}, "id": "vd6fE2FiZVXeNXVBgS_mx96vsSM=", "properties": {"@spider": "usps_collection_boxes", "addr:city": "GREENWOOD", "addr:country": "US", "addr:full": "600 YALOBUSHA ST", "addr:postcode": "38930", "addr:state": "MS", "brand": "USPS", "collection_times": "Mo-Fr 17:00; Sa 15:00", "name": "USPS COLLECTION BOX - PO LOBBY", "note": "ON 12/24 AND 12/31, THIS BOX MAY BE COLLECTED AS EARLY AS 12 NOON.", "ref": "3893000044"}, "type": "Feature"}
{"geometry": {"coordinates": [-90.207017995, 33.528186], "type": "Point"}, "id": "h8eeKCQSj8nZssBvsu8xnZ7MiJs=", "properties": {"@spider": "usps_collection_boxes", "addr:city": "GREENWOOD", "addr:country": "US", "addr:full": "600 YALOBUSHA ST", "addr:postcode": "38930", "addr:state": "MS", "brand": "USPS", "collection_times": "Mo-Fr 17:00; Sa 12:00", "name": "USPS COLLECTION BOX - PO LOBBY", "note": "ON 12/24 AND 12/31, THIS BOX MAY BE COLLECTED AS EARLY AS 12 NOON.", "ref": "3893000046"}, "type": "Feature"}
{"geometry": {"coordinates": [-90.179515745, 33.520064944], "type": "Point"}, "id": "-d-n5RQBpXMfwU-2F71WC-am4Sw=", "properties": {"@spider": "usps_collection_boxes", "addr:city": "GREENWOOD", "addr:country": "US", "addr:full": "200 E WASHINGTON ST", "addr:postcode": "38930", "addr:state": "MS", "brand": "USPS", "collection_times": "Mo-Fr 16:30; Sa 10:00", "name": "USPS COLLECTION BOX - PO LOBBY", "note": "ON 12/24 AND 12/31, THIS BOX MAY BE COLLECTED AS EARLY AS 12 NOON.", "ref": "3893000047"}, "type": "Feature"}
{"geometry": {"coordinates": [-89.980784, 33.764246], "type": "Point"}, "id": "eROqQQLj5kOQ5p5nAtWvpXhHqRE=", "properties": {"@spider": "usps_collection_boxes", "addr:city": "HOLCOMB", "addr:country": "US", "addr:full": "8334 HIGHWAY 7 S", "addr:postcode": "38940", "addr:state": "MS", "brand": "USPS", "collection_times": "Mo-Fr 11:30; Sa 09:30", "name": "USPS COLLECTION BOX - BLUE BOX", "ref": "3894000000"}, "type": "Feature"}
{"geometry": {"coordinates": [-89.980784, 33.764246], "type": "Point"}, "id": "1GXmjkNAcpI-GI1pVF5cNrhYjKI=", "properties": {"@spider": "usps_collection_boxes", "addr:city": "HOLCOMB", "addr:country": "US", "addr:full": "8334 HIGHWAY 7 S", "addr:postcode": "38940", "addr:state": "MS", "brand": "USPS", "collection_times": "Mo-Fr 11:30; Sa 09:30", "name": "USPS COLLECTION BOX - PO LOBBY", "ref": "3894000001"}, "type": "Feature"}
{"geometry": {"coordinates": [-89.9766774106, 33.764615665], "type": "Point"}, "id": "356oC9vAjTSvKIvjd9ARIhIjiW8=", "properties": {"@spider": "usps_collection_boxes", "addr:city": "HOLCOMB", "addr:country": "US", "addr:full": "8334 HIGHWAY 7 S", "addr:postcode": "38940", "addr:state": "MS", "brand": "USPS", "collection_times": "Mo-Fr 11:30; Sa 09:30", "name": "USPS COLLECTION BOX - PO LOBBY", "ref": "3894000002"}, "type": "Feature"}
{"geometry": {"coordinates": [-90.3216586554, 33.4955729753], "type": "Point"}, "id": "1RGBhXmuSX3mTJP_7jrF6ikcPUE=", "properties": {"@spider": "usps_collection_boxes", "addr:city": "ITTA BENA", "addr:country": "US", "addr:full": "100 DEWEY ST", "addr:postcode": "38941", "addr:state": "MS", "brand": "USPS", "collection_times": "Mo-Fr 16:15; Sa 10:00", "name": "USPS COLLECTION BOX - BLUE BOX", "note": "ON 12/24 AND 12/31, THIS BOX MAY BE COLLECTED AS EARLY AS 12 NOON.", "ref": "3894100000"}, "type": "Feature"}
{"geometry": {"coordinates": [-90.321659, 33.495578], "type": "Point"}, "id": "1Q4EpOu8ts6pd9F6knxAjcgMDhg=", "properties": {"@spider": "usps_collection_boxes", "addr:city": "ITTA BENA", "addr:country": "US", "addr:full": "100 DEWEY ST", "addr:postcode": "38941", "addr:state": "MS", "brand": "USPS", "collection_times": "Mo-Fr 16:15; Sa 10:00", "name": "USPS COLLECTION BOX - PO LOBBY", "note": "ON 12/24 AND 12/31, THIS BOX MAY BE COLLECTED AS EARLY AS 12 NOON.", "ref": "3894100001"}, "type": "Feature"}
{"geometry": {"coordinates": [-90.3216586554, 33.4955729753], "type": "Point"}, "id": "YobN2EHd_Qkp-Fl_vDSv0dKHXY8=", "properties": {"@spider": "usps_collection_boxes", "addr:city": "ITTA BENA", "addr:country": "US", "addr:full": "100 DEWEY ST", "addr:postcode": "38941", "addr:state": "MS", "brand": "USPS", "collection_times": "Mo-Fr 16:30; Sa 10:30", "name": "USPS COLLECTION BOX - PO LOBBY", "note": "ON 12/24 AND 12/31, THIS BOX MAY BE COLLECTED AS EARLY AS 12 NOON.", "ref": "3894100006"}, "type": "Feature"}
{"geometry": {"coordinates": [-89.824931, 33.488264], "type": "Point"}, "id": "V_TSM8m-X00KVn85rqISz0A0aPM=", "properties": {"@spider": "usps_collection_boxes", "addr:city": "MCCARLEY", "addr:country": "US", "addr:full": "4294 COUNTY ROAD 282", "addr:postcode": "38943", "addr:state": "MS", "brand": "USPS", "collection_times": "Mo-Fr 15:00; Sa 11:30", "name": "USPS COLLECTION BOX - BLUE BOX", "note": "ON 12/24 AND 12/31, THIS BOX MAY BE COLLECTED AS EARLY AS 12 NOON.", "ref": "3894300000"}, "type": "Feature"}
{"geometry": {"coordinates": [-89.836236, 33.524206], "type": "Point"}, "id": "XxAhwe4d2jxpONccUzrnfbmTOWk=", "properties": {"@spider": "usps_collection_boxes", "addr:city": "MCCARLEY", "addr:country": "US", "addr:full": "4294 COUNTY ROAD 282", "addr:postcode": "38943", "addr:state": "MS", "brand": "USPS", "collection_times": "Mo-Fr 15:00; Sa 11:30", "name": "USPS COLLECTION BOX - PO LOBBY", "note": "ON 12/24 AND 12/31, THIS BOX MAY BE COLLECTED AS EARLY AS 12 NOON.", "ref": "3894300001"}, "type": "Feature"}
{"geometry": {"coordinates": [-89.8362062376, 33.5242367774], "type": "Point"}, "id": "fGORCHtjGAV4Et1lrIcSSUwKD7g=", "properties": {"@spider": "usps_collection_boxes", "addr:city": "MCCARLEY", "addr:country": "US", "addr:full": "4294 COUNTY ROAD 282", "addr:postcode": "38943", "addr:state": "MS", "brand": "USPS", "collection_times": "Mo-Fr 15:00; Sa 12:30", "name": "USPS COLLECTION BOX - PO LOBBY", "note": "ON 12/24 AND 12/31, THIS BOX MAY BE COLLECTED AS EARLY AS 12 NOON.", "ref": "3894300002"}, "type": "Feature"}
{"geometry": {"coordinates": [-90.314637, 33.712764], "type": "Point"}, "id": "k1z6Hojtjn0wl1ASxhBq4IiEW_s=", "properties": {"@spider": "usps_collection_boxes", "addr:city": "MINTER CITY", "addr:country": "US", "addr:full": "28771 HIGHWAY 49", "addr:postcode": "38944", "addr:state": "MS", "brand": "USPS", "collection_times": "Mo-Fr 11:30", "name": "USPS COLLECTION BOX - BLUE BOX", "ref": "3894400000"}, "type": "Feature"}
{"geometry": {"coordinates": [-90.314637, 33.712764], "type": "Point"}, "id": "v1RlfKYrxlUouadrbd0VXXSvocw=", "properties": {"@spider": "usps_collection_boxes", "addr:city": "MINTER CITY", "addr:country": "US", "addr:full": "28771 HIGHWAY 49", "addr:postcode": "38944", "addr:state": "MS", "brand": "USPS", "collection_times": "Mo-Fr 11:30; Sa 09:00", "name": "USPS COLLECTION BOX - PO LOBBY", "ref": "3894400001"}, "type": "Feature"}
{"geometry": {"coordinates": [-90.3152406774, 33.7323692309], "type": "Point"}, "id": "10P0AsXzDNmFNvQJVJoJBvS8LU4=", "properties": {"@spider": "usps_collection_boxes", "addr:city": "MINTER CITY", "addr:country": "US", "addr:full": "28771 HIGHWAY 49", "addr:postcode": "38944", "addr:state": "MS", "brand": "USPS", "collection_times": "Mo-Fr 11:30", "name": "USPS COLLECTION BOX - PO LOBBY", "ref": "3894400002"}, "type": "Feature"}
{"geometry": {"coordinates": [-90.350510292, 33.379947595], "type": "Point"}, "id": "cnzRgom1Y9nNgHiXlqCc083qPXc=", "properties": {"@spider": "usps_collection_boxes", "addr:city": "MORGAN CITY", "addr:country": "US", "addr:full": "208 DELTA ST", "addr:postcode": "38946", "addr:state": "MS", "brand": "USPS", "collection_times": "Mo-Fr 14:30; Sa 13:30", "name": "USPS COLLECTION BOX - PO LOBBY", "note": "ON 12/24 AND 12/31, THIS BOX MAY BE COLLECTED AS EARLY AS 12 NOON.", "ref": "3894600000"}, "type": "Feature"}
{"geometry": {"coordinates": [-90.350510292, 33.379947595], "type": "Point"}, "id": "c52Y1sNHvQAkIA5nUDxzM_9pnrA=", "properties": {"@spider": "usps_collection_boxes", "addr:city": "MORGAN CITY", "addr:country": "US", "addr:full": "208 DELTA ST", "addr:postcode": "38946", "addr:state": "MS", "brand": "USPS", "collection_times": "Mo-Fr 14:30; Sa 13:30", "name": "USPS COLLECTION BOX - BLUE BOX", "note": "ON 12/24 AND 12/31, THIS BOX MAY BE COLLECTED AS EARLY AS 12 NOON.", "ref": "3894600001"}, "type": "Feature"}
{"geometry": {"coordinates": [-90.350510292, 33.379947595], "type": "Point"}, "id": "t46k91ifeiGt4DH4qyq6P54ESpM=", "properties": {"@spider": "usps_collection_boxes", "addr:city": "MORGAN CITY", "addr:country": "US", "addr:full": "208 DELTA ST", "addr:postcode": "38946", "addr:state": "MS", "brand": "USPS", "collection_times": "Mo-Fr 14:30; Sa 12:15", "name": "USPS COLLECTION BOX - PO LOBBY", "note": "ON 12/24 AND 12/31, THIS BOX MAY BE COLLECTED AS EARLY AS 12 NOON.", "ref": "3894600002"}, "type": "Feature"}
{"geometry": {"coordinates": [-89.919824409, 33.514954479], "type": "Point"}, "id": "NQ3WFHmtZVV1Zrn-CR8niCcr8kI=", "properties": {"@spider": "usps_collection_boxes", "addr:city": "NORTH CARROLLTON", "addr:country": "US", "addr:full": "101 MCCAIN ST", "addr:postcode": "38947", "addr:state": "MS", "brand": "USPS", "collection_times": "Mo-Fr 12:00", "name": "USPS COLLECTION BOX - BLUE BOX", "ref": "3894700000"}, "type": "Feature"}
{"geometry": {"coordinates": [-89.919824409, 33.514954479], "type": "Point"}, "id": "DDCwvRLN2zYraUcr4NfYrKNowWY=", "properties": {"@spider": "usps_collection_boxes", "addr:city": "NORTH CARROLLTON", "addr:country": "US", "addr:full": "101 MCCAIN ST", "addr:postcode": "38947", "addr:state": "MS", "brand": "USPS", "collection_times": "Mo-Fr 12:00; Sa 09:00", "name": "USPS COLLECTION BOX - PO LOBBY", "ref": "3894700001"}, "type": "Feature"}
{"geometry": {"coordinates": [-89.919824409, 33.514954479], "type": "Point"}, "id": "2luLPye9anHgpMA1R32wKHfFHsA=", "properties": {"@spider": "usps_collection_boxes", "addr:city": "NORTH CARROLLTON", "addr:country": "US", "addr:full": "101 MCCAIN ST", "addr:postcode": "38947", "addr:state": "MS", "brand": "USPS", "collection_times": "Mo-Fr 12:00", "name": "USPS COLLECTION BOX - PO LOBBY", "ref": "3894700002"}, "type": "Feature"}
{"geometry": {"coordinates": [-89.915776455, 34.055603721], "type": "Point"}, "id": "D0hWIF9iQV6irJ4oCb-e5ZvY6Cw=", "properties": {"@spider": "usps_collection_boxes", "addr:city": "OAKLAND", "addr:country": "US", "addr:full": "14125 HICKORY ST", "addr:postcode": "38948", "addr:state": "MS", "brand": "USPS", "collection_times": "Mo-Fr 11:30; Sa 10:30", "name": "USPS COLLECTION BOX - BLUE BOX", "ref": "3894800000"}, "type": "Feature"}
{"geometry": {"coordinates": [-89.915776455, 34.055603721], "type": "Point"}, "id": "4IAvrkC8UyNPW_x7iFqbkEBvfEY=", "properties": {"@spider": "usps_collection_boxes", "addr:city": "OAKLAND", "addr:country": "US", "addr:full": "14125 HICKORY ST", "addr:postcode": "38948", "addr:state": "MS", "brand": "USPS", "collection_times": "Mo-Fr 11:30; Sa 10:30", "name": "USPS COLLECTION BOX - PO LOBBY", "ref": "3894800001"}, "type": "Feature"}
{"geometry": {"coordinates": [-89.915776455, 34.055603721], "type": "Point"}, "id": "NMz9IfTtjrGzchJOsCXTz-Ok1mU=", "properties": {"@spider": "usps_collection_boxes", "addr:city": "OAKLAND", "addr:country": "US", "addr:full": "14125 HICKORY ST", "addr:postcode": "38948", "addr:state": "MS", "brand": "USPS", "collection_times": "Mo-Fr 11:30; Sa 10:30", "name": "USPS COLLECTION BOX - PO LOBBY", "ref": "3894800002"}, "type": "Feature"}
{"geometry": {"coordinates": [-90.211244749, 33.757815592], "type": "Point"}, "id": "lZMubc8ducarHl-Nezfb-cXLVEk=", "properties": {"@spider": "usps_collection_boxes", "addr:city": "PHILIPP", "addr:country": "US", "addr:full": "1277 HIGHWAY 8", "addr:postcode": "38950", "addr:state": "MS", "brand": "USPS", "collection_times": "Mo-Fr 14:00; Sa 09:00", "name": "USPS COLLECTION BOX - PO LOBBY", "note": "ON 12/24 AND 12/31, THIS BOX MAY BE COLLECTED AS EARLY AS 12 NOON.", "ref": "3895000000"}, "type": "Feature"}
{"geometry": {"coordinates": [-90.211244749, 33.757815592], "type": "Point"}, "id": "WvaKHwJK4EQHjZmeXPsvTBye0zI=", "properties": {"@spider": "usps_collection_boxes", "addr:city": "PHILIPP", "addr:country": "US", "addr:full": "1277 HIGHWAY 8", "addr:postcode": "38950", "addr:state": "MS", "brand": "USPS", "collection_times": "Mo-Fr 14:00", "name": "USPS COLLECTION BOX - BLUE BOX", "note": "ON 12/24 AND 12/31, THIS BOX MAY BE COLLECTED AS EARLY AS 12 NOON.", "ref": "3895000001"}, "type": "Feature"}
{"geometry": {"coordinates": [-90.211244749, 33.757815592], "type": "Point"}, "id": "JwKNxib62xJGvkxxxbiB9oYYogU=", "properties": {"@spider": "usps_collection_boxes", "addr:city": "PHILIPP", "addr:country": "US", "addr:full": "1277 HIGHWAY 8", "addr:postcode": "38950", "addr:state": "MS", "brand": "USPS", "collection_times": "Mo-Fr 14:00", "name": "USPS COLLECTION BOX - PO LOBBY", "note": "ON 12/24 AND 12/31, THIS BOX MAY BE COLLECTED AS EARLY AS 12 NOON.", "ref": "3895000002"}, "type": "Feature"}
{"geometry": {"coordinates": [-89.337915267, 33.940274824], "type": "Point"}, "id": "pKJ1U4zWe9CyPk2IYeT0IxSxwpk=", "properties": {"@spider": "usps_collection_boxes", "addr:city": "PITTSBORO", "addr:country": "US", "addr:full": "104 N MURPHREE ST", "addr:postcode": "38951", "addr:state": "MS", "brand": "USPS", "collection_times": "Mo-Fr 12:00", "name": "USPS COLLECTION BOX - BLUE BOX", "ref": "3895100000"}, "type": "Feature"}
{"geometry": {"coordinates": [-89.337915267, 33.940274824], "type": "Point"}, "id": "kzTZbAAo3maYkLJv5rI7BlmGqaA=", "properties": {"@spider": "usps_collection_boxes", "addr:city": "PITTSBORO", "addr:country": "US", "addr:full": "104 N MURPHREE ST", "addr:postcode": "38951", "addr:state": "MS", "brand": "USPS", "collection_times": "Mo-Fr 12:00; Sa 09:00", "name": "USPS COLLECTION BOX - PO LOBBY", "ref": "3895100001"}, "type": "Feature"}
{"geometry": {"coordinates": [-89.337915267, 33.940274824], "type": "Point"}, "id": "Q8WNj2eEG7rhZR1mJL7j9g0_3Lk=", "properties": {"@spider": "usps_collection_boxes", "addr:city": "PITTSBORO", "addr:country": "US", "addr:full": "104 N MURPHREE ST", "addr:postcode": "38951", "addr:state": "MS", "brand": "USPS", "collection_times": "Mo-Fr 12:00", "name": "USPS COLLECTION BOX - PO LOBBY", "ref": "3895100002"}, "type": "Feature"}
{"geometry": {"coordinates": [-90.348471296, 33.640841061], "type": "Point"}, "id": "M0x2yG8t-1ZYPsFh_Osxoa-H664=", "properties": {"@spider": "usps_collection_boxes", "addr:city": "SCHLATER", "addr:country": "US", "addr:full": "101 BEATRICE ST", "addr:postcode": "38952", "addr:state": "MS", "brand": "USPS", "collection_times": "Mo-Fr 11:30; Sa 09:15", "name": "USPS COLLECTION BOX - PO LOBBY", "ref": "3895200000"}, "type": "Feature"}
{"geometry": {"coordinates": [-90.348471296, 33.640841061], "type": "Point"}, "id": "i--5axo0YpAv3TQ9SWk-D37qabI=", "properties": {"@spider": "usps_collection_boxes", "addr:city": "SCHLATER", "addr:country": "US", "addr:full": "101 BEATRICE ST", "addr:postcode": "38952", "addr:state": "MS", "brand": "USPS", "collection_times": "Mo-Fr 11:30; Sa 09:15", "name": "USPS COLLECTION BOX - BLUE BOX", "ref": "3895200001"}, "type": "Feature"}
{"geometry": {"coordinates": [-90.348471296, 33.640841061], "type": "Point"}, "id": "1XY-PxgBJsBhyzoMrB7CxEUrUcU=", "properties": {"@spider": "usps_collection_boxes", "addr:city": "SCHLATER", "addr:country": "US", "addr:full": "101 BEATRICE ST", "addr:postcode": "38952", "addr:state": "MS", "brand": "USPS", "collection_times": "Mo-Fr 11:30; Sa 09:00", "name": "USPS COLLECTION BOX - PO LOBBY", "ref": "3895200002"}, "type": "Feature"}
{"geometry": {"coordinates": [-89.88859358, 33.943920913], "type": "Point"}, "id": "4SX2QESP76pri78Apry6o3nvM2Q=", "properties": {"@spider": "usps_collection_boxes", "addr:city": "SCOBEY", "addr:country": "US", "addr:full": "20073 HWY 51", "addr:postcode": "38953", "addr:state": "MS", "brand": "USPS", "collection_times": "Mo-Fr 16:00; Sa 09:00", "name": "USPS COLLECTION BOX - BLUE BOX", "note": "ON 12/24 AND 12/31, THIS BOX MAY BE COLLECTED AS EARLY AS 12 NOON.", "ref": "3895300000"}, "type": "Feature"}
{"geometry": {"coordinates": [-89.88859358, 33.943920913], "type": "Point"}, "id": "NY8uPLl94XkNTmTIZuYNCqdI78Y=", "properties": {"@spider": "usps_collection_boxes", "addr:city": "SCOBEY", "addr:country": "US", "addr:full": "20073 HWY 51", "addr:postcode": "38953", "addr:state": "MS", "brand": "USPS", "collection_times": "Mo-Fr 16:00; Sa 09:00", "name": "USPS COLLECTION BOX - PO LOBBY", "note": "ON 12/24 AND 12/31, THIS BOX MAY BE COLLECTED AS EARLY AS 12 NOON.", "ref": "3895300001"}, "type": "Feature"}
{"geometry": {"coordinates": [-89.88859358, 33.943920913], "type": "Point"}, "id": "yJHY2NzQkLgtNqib5yn34XYn01Y=", "properties": {"@spider": "usps_collection_boxes", "addr:city": "SCOBEY", "addr:country": "US", "addr:full": "20073 HWY 51", "addr:postcode": "38953", "addr:state": "MS", "brand": "USPS", "collection_times": "Mo-Fr 16:00", "name": "USPS COLLECTION BOX - PO LOBBY", "note": "ON 12/24 AND 12/31, THIS BOX MAY BE COLLECTED AS EARLY AS 12 NOON.", "ref": "3895300002"}, "type": "Feature"}
{"geometry": {"coordinates": [-90.208556448, 33.408798103], "type": "Point"}, "id": "tuYJwWwx2x0Vyqyt_kz2TKvplfE=", "properties": {"@spider": "usps_collection_boxes", "addr:city": "SIDON", "addr:country": "US", "addr:full": "511 W RAILROAD AVE", "addr:postcode": "38954", "addr:state": "MS", "brand": "USPS", "collection_times": "Mo-Fr 12:00; Sa 09:45", "name": "USPS COLLECTION BOX - BLUE BOX", "ref": "3895400000"}, "type": "Feature"}
{"geometry": {"coordinates": [-90.208556448, 33.408798103], "type": "Point"}, "id": "GFnVyVNicVVvl2veNcECx7BYFSU=", "properties": {"@spider": "usps_collection_boxes", "addr:city": "SIDON", "addr:country": "US", "addr:full": "511 W RAILROAD AVE", "addr:postcode": "38954", "addr:state": "MS", "brand": "USPS", "collection_times": "Mo-Fr 12:00; Sa 09:45", "name": "USPS COLLECTION BOX - PO LOBBY", "ref": "3895400001"}, "type": "Feature"}
{"geometry": {"coordinates": [-90.208556448, 33.408798103], "type": "Point"}, "id": "_qalRzQ0J49ues66bTYmnbnjqG0=", "properties": {"@spider": "usps_collection_boxes", "addr:city": "SIDON", "addr:country": "US", "addr:full": "511 W RAILROAD AVE", "addr:postcode": "38954", "addr:state": "MS", "brand": "USPS", "collection_times": "Mo-Fr 12:00", "name": "USPS COLLECTION BOX - PO LOBBY", "ref": "3895400002"}, "type": "Feature"}
{"geometry": {"coordinates": [-90.370080807, 33.971050719], "type": "Point"}, "id": "F6lS3u9ZBc5CpEIhF8fWdvhQEzg=", "properties": {"@spider": "usps_collection_boxes", "addr:city": "SUMNER", "addr:country": "US", "addr:full": "508 WAYNE ST", "addr:postcode": "38957", "addr:state": "MS", "brand": "USPS", "collection_times": "Mo-Fr 12:00", "name": "USPS COLLECTION BOX - BLUE BOX", "ref": "3895700000"}, "type": "Feature"}
{"geometry": {"coordinates": [-90.370080807, 33.971050719], "type": "Point"}, "id": "c7SOrir2ZZ1Rzu9S7f52_IHqBOk=", "properties": {"@spider": "usps_collection_boxes", "addr:city": "SUMNER", "addr:country": "US", "addr:full": "508 WAYNE ST", "addr:postcode": "38957", "addr:state": "MS", "brand": "USPS", "collection_times": "Mo-Fr 12:00; Sa 09:00", "name": "USPS COLLECTION BOX - PO LOBBY", "ref": "3895700001"}, "type": "Feature"}
{"geometry": {"coordinates": [-90.370080807, 33.971050719], "type": "Point"}, "id": "9mQa7IM6Qzh6zd--XtxIR4WaD2w=", "properties": {"@spider": "usps_collection_boxes", "addr:city": "SUMNER", "addr:country": "US", "addr:full": "508 WAYNE ST", "addr:postcode": "38957", "addr:state": "MS", "brand": "USPS", "collection_times": "Mo-Fr 12:00", "name": "USPS COLLECTION BOX - PO LOBBY", "ref": "3895700002"}, "type": "Feature"}
{"geometry": {"coordinates": [-89.8944645967, 33.9850538024], "type": "Point"}, "id": "m09vSEekRyeD66I2yi7YkjVdy3Q=", "properties": {"@spider": "usps_collection_boxes", "addr:city": "TILLATOBA", "addr:country": "US", "addr:full": "26936 HWY 330", "addr:postcode": "38961", "addr:state": "MS", "brand": "USPS", "collection_times": "Mo-Fr 11:30; Sa 09:15", "name": "USPS COLLECTION BOX - BLUE BOX", "ref": "3896100000"}, "type": "Feature"}
{"geometry": {"coordinates": [-89.8944645967, 33.9850538024], "type": "Point"}, "id": "mz-LWnB_83UHWU4o-yyc1d01UHM=", "properties": {"@spider": "usps_collection_boxes", "addr:city": "TILLATOBA", "addr:country": "US", "addr:full": "26936 HWY 330", "addr:postcode": "38961", "addr:state": "MS", "brand": "USPS", "collection_times": "Mo-Fr 11:30; Sa 09:15", "name": "USPS COLLECTION BOX - PO LOBBY", "ref": "3896100001"}, "type": "Feature"}
{"geometry": {"coordinates": [-89.4940570075, 33.9484430725], "type": "Point"}, "id": "zBZHPQD9t45NmrZXvhKwnnTQX4s=", "properties": {"@spider": "usps_collection_boxes", "addr:city": "TILLATOBA", "addr:country": "US", "addr:full": "HWY 330 W", "addr:postcode": "38961", "addr:state": "MS", "brand": "USPS", "collection_times": "Mo-Fr 11:30", "name": "USPS COLLECTION BOX - PO LOBBY", "ref": "3896100002"}, "type": "Feature"}
{"geometry": {"coordinates": [-90.1804974899, 33.9117960422], "type": "Point"}, "id": "7MePIIt4jrCifN2k1YfriHvtQU8=", "properties": {"@spider": "usps_collection_boxes", "addr:city": "TIPPO", "addr:country": "US", "addr:full": "2309 TIPPO RD", "addr:postcode": "38962", "addr:state": "MS", "brand": "USPS", "collection_times": "Mo-Fr 14:30; Sa 11:15", "name": "USPS COLLECTION BOX - BLUE BOX", "note": "ON 12/24 AND 12/31, THIS BOX MAY BE COLLECTED AS EARLY AS 12 NOON.", "ref": "3896200000"}, "type": "Feature"}
{"geometry": {"coordinates": [-90.1804974899, 33.9117960422], "type": "Point"}, "id": "axXlLWR43Gb_lUqZ0F8CtVj2jR4=", "properties": {"@spider": "usps_collection_boxes", "addr:city": "TIPPO", "addr:country": "US", "addr:full": "2309 TIPPO RD", "addr:postcode": "38962", "addr:state": "MS", "brand": "USPS", "collection_times": "Mo-Fr 14:15; Sa 11:15", "name": "USPS COLLECTION BOX - PO LOBBY", "note": "ON 12/24 AND 12/31, THIS BOX MAY BE COLLECTED AS EARLY AS 12 NOON.", "ref": "3896200001"}, "type": "Feature"}
{"geometry": {"coordinates": [-90.179493534, 33.907949931], "type": "Point"}, "id": "nk_BdcxTxozTXR4xwR5K3X7O6fE=", "properties": {"@spider": "usps_collection_boxes", "addr:city": "TIPPO", "addr:country": "US", "addr:full": "2309 TIPPO MACEL RD", "addr:postcode": "38962", "addr:state": "MS", "brand": "USPS", "collection_times": "Mo-Fr 14:30; Sa 11:30", "name": "USPS COLLECTION BOX - PO LOBBY", "note": "ON 12/24 AND 12/31, THIS BOX MAY BE COLLECTED AS EARLY AS 12 NOON.", "ref": "3896200002"}, "type": "Feature"}
{"geometry": {"coordinates": [-90.430196153, 34.015536754], "type": "Point"}, "id": "T94qs523AvplpEUrg6wGx4ser5A=", "properties": {"@spider": "usps_collection_boxes", "addr:city": "TUTWILER", "addr:country": "US", "addr:full": "201 ALMA ST", "addr:postcode": "38963", "addr:state": "MS", "brand": "USPS", "collection_times": "Mo-Fr 16:00; Sa 11:00", "name": "USPS COLLECTION BOX - BLUE BOX", "note": "ON 12/24 AND 12/31, THIS BOX MAY BE COLLECTED AS EARLY AS 12 NOON.", "ref": "3896300001"}, "type": "Feature"}
{"geometry": {"coordinates": [-90.430196153, 34.015536754], "type": "Point"}, "id": "dvdRqUkw_xDe7a_dkZHlCdOkCBg=", "properties": {"@spider": "usps_collection_boxes", "addr:city": "TUTWILER", "addr:country": "US", "addr:full": "201 ALMA ST", "addr:postcode": "38963", "addr:state": "MS", "brand": "USPS", "collection_times": "Mo-Fr 15:45; Sa 11:00", "name": "USPS COLLECTION BOX - PO LOBBY", "note": "ON 12/24 AND 12/31, THIS BOX MAY BE COLLECTED AS EARLY AS 12 NOON.", "ref": "3896300002"}, "type": "Feature"}
{"geometry": {"coordinates": [-90.430196153, 34.015536754], "type": "Point"}, "id": "DCjscDkpNMQx00hAUItEVFLWEwU=", "properties": {"@spider": "usps_collection_boxes", "addr:city": "TUTWILER", "addr:country": "US", "addr:full": "201 ALMA ST", "addr:postcode": "38963", "addr:state": "MS", "brand": "USPS", "collection_times": "Mo-Fr 16:00; Sa 11:00", "name": "USPS COLLECTION BOX - PO LOBBY", "note": "ON 12/24 AND 12/31, THIS BOX MAY BE COLLECTED AS EARLY AS 12 NOON.", "ref": "3896300003"}, "type": "Feature"}
{"geometry": {"coordinates": [-90.350921, 34.072864], "type": "Point"}, "id": "xKmZnlQ4rYLrGSIRErR2ko2qw4s=", "properties": {"@spider": "usps_collection_boxes", "addr:city": "VANCE", "addr:country": "US", "addr:full": "13745 CHARLEY PRIDE HWY S", "addr:postcode": "38964", "addr:state": "MS", "brand": "USPS", "collection_times": "Mo-Fr 15:00", "name": "USPS COLLECTION BOX - BLUE BOX", "note": "ON 12/24 AND 12/31, THIS BOX MAY BE COLLECTED AS EARLY AS 12 NOON.", "ref": "3896400000"}, "type": "Feature"}
{"geometry": {"coordinates": [-90.332898, 34.107269], "type": "Point"}, "id": "6n8ytD80aLeTIhhrz3fdq-iTzEo=", "properties": {"@spider": "usps_collection_boxes", "addr:city": "VANCE", "addr:country": "US", "addr:full": "13745 CHARLEY PRIDE HWY S", "addr:postcode": "38964", "addr:state": "MS", "brand": "USPS", "collection_times": "Mo-Fr 14:50; Sa 09:00", "name": "USPS COLLECTION BOX - PO LOBBY", "note": "ON 12/24 AND 12/31, THIS BOX MAY BE COLLECTED AS EARLY AS 12 NOON.", "ref": "3896400001"}, "type": "Feature"}
{"geometry": {"coordinates": [-90.350111569, 34.074486691], "type": "Point"}, "id": "BwjjT0FuH8vM0R9EMTYCWsudT8E=", "properties": {"@spider": "usps_collection_boxes", "addr:city": "VANCE", "addr:country": "US", "addr:full": "13745 CHARLEY PRIDE HWY 3", "addr:postcode": "38964", "addr:state": "MS", "brand": "USPS", "collection_times": "Mo-Fr 15:00", "name": "USPS COLLECTION BOX - PO LOBBY", "note": "ON 12/24 AND 12/31, THIS BOX MAY BE COLLECTED AS EARLY AS 12 NOON.", "ref": "3896400002"}, "type": "Feature"}
{"geometry": {"coordinates": [-89.631283697, 34.153839], "type": "Point"}, "id": "479VT3O5pLxGlN2Wrs_KOkQgYgo=", "properties": {"@spider": "usps_collection_boxes", "addr:city": "WATER VALLEY", "addr:country": "US", "addr:full": "501 N MAIN ST", "addr:postcode": "38965", "addr:state": "MS", "brand": "USPS", "collection_times": "Mo-Fr 16:30; Sa 14:00", "name": "USPS COLLECTION BOX - BLUE BOX", "note": "ON 12/24 AND 12/31, THIS BOX MAY BE COLLECTED AS EARLY AS 12 NOON.", "ref": "3896500000"}, "type": "Feature"}
{"geometry": {"coordinates": [-89.6319374, 34.153511], "type": "Point"}, "id": "ifFs3Dx3OKZBWOUoKQaHhipZIKI=", "properties": {"@spider": "usps_collection_boxes", "addr:city": "WATER VALLEY", "addr:country": "US", "addr:full": "409 DUNCAN ST", "addr:postcode": "38965", "addr:state": "MS", "brand": "USPS", "collection_times": "Mo-Fr 16:30; Sa 14:00", "name": "USPS COLLECTION BOX - BLUE BOX", "note": "ON 12/24 AND 12/31, THIS BOX MAY BE COLLECTED AS EARLY AS 12 NOON.", "ref": "3896500002"}, "type": "Feature"}
{"geometry": {"coordinates": [-89.631283697, 34.153839], "type": "Point"}, "id": "9zTvkcUJynHGQ3tWvjyD4VXLsYQ=", "properties": {"@spider": "usps_collection_boxes", "addr:city": "WATER VALLEY", "addr:country": "US", "addr:full": "501 N MAIN ST", "addr:postcode": "38965", "addr:state": "MS", "brand": "USPS", "collection_times": "Mo-Fr 16:30; Sa 14:00", "name": "USPS COLLECTION BOX - PO LOBBY", "note": "ON 12/24 AND 12/31, THIS BOX MAY BE COLLECTED AS EARLY AS 12 NOON.", "ref": "3896500011"}, "type": "Feature"}
{"geometry": {"coordinates": [-89.631283697, 34.153839], "type": "Point"}, "id": "jZMu7BFBtDCVc40qbm9ImjHO33Q=", "properties": {"@spider": "usps_collection_boxes", "addr:city": "WATER VALLEY", "addr:country": "US", "addr:full": "501 N MAIN ST", "addr:postcode": "38965", "addr:state": "MS", "brand": "USPS", "collection_times": "Mo-Fr 16:30; Sa 12:00", "name": "USPS COLLECTION BOX - PO LOBBY", "note": "ON 12/24 AND 12/31, THIS BOX MAY BE COLLECTED AS EARLY AS 12 NOON.", "ref": "3896500012"}, "type": "Feature"}
{"geometry": {"coordinates": [-90.344998, 33.946732], "type": "Point"}, "id": "yTxp8vC3Yov9-j4sZz3j6AjqeWs=", "properties": {"@spider": "usps_collection_boxes", "addr:city": "WEBB", "addr:country": "US", "addr:full": "118 W MAIN ST", "addr:postcode": "38966", "addr:state": "MS", "brand": "USPS", "collection_times": "Mo-Fr 11:30; Sa 10:25", "name": "USPS COLLECTION BOX - BLUE BOX", "ref": "3896600000"}, "type": "Feature"}
{"geometry": {"coordinates": [-90.344998, 33.946732], "type": "Point"}, "id": "vfk2ADrv-ugNDb4jxsZCZSMzRbE=", "properties": {"@spider": "usps_collection_boxes", "addr:city": "WEBB", "addr:country": "US", "addr:full": "118 W MAIN ST", "addr:postcode": "38966", "addr:state": "MS", "brand": "USPS", "collection_times": "Mo-Fr 11:20; Sa 10:25", "name": "USPS COLLECTION BOX - PO LOBBY", "ref": "3896600001"}, "type": "Feature"}
{"geometry": {"coordinates": [-90.3450427623, 33.9467753794], "type": "Point"}, "id": "bHrFBmLLJn9T_7SVUkiDB7Ktx6o=", "properties": {"@spider": "usps_collection_boxes", "addr:city": "WEBB", "addr:country": "US", "addr:full": "118 W MAIN ST", "addr:postcode": "38966", "addr:state": "MS", "brand": "USPS", "collection_times": "Mo-Fr 11:30; Sa 10:30", "name": "USPS COLLECTION BOX - PO LOBBY", "ref": "3896600002"}, "type": "Feature"}
{"geometry": {"coordinates": [-89.7294877, 33.48261], "type": "Point"}, "id": "EXwazExTqmpr1oBbPUdfBYEO_NI=", "properties": {"@spider": "usps_collection_boxes", "addr:city": "WINONA", "addr:country": "US", "addr:full": "212 SUMMIT ST", "addr:postcode": "38967", "addr:state": "MS", "brand": "USPS", "collection_times": "Mo-Fr 16:30; Sa 14:30", "name": "USPS COLLECTION BOX - BLUE BOX", "note": "ON 12/24 AND 12/31, THIS BOX MAY BE COLLECTED AS EARLY AS 12 NOON.", "ref": "3896700001"}, "type": "Feature"}
{"geometry": {"coordinates": [-89.7374776, 33.487539], "type": "Point"}, "id": "UiRjkceuq9IJ-KkXc_Do4zDfRW8=", "properties": {"@spider": "usps_collection_boxes", "addr:city": "WINONA", "addr:country": "US", "addr:full": "601 MIDDLETON RD", "addr:postcode": "38967", "addr:state": "MS", "brand": "USPS", "collection_times": "Mo-Sa 11:00", "name": "USPS COLLECTION BOX - BLUE BOX", "ref": "3896700004"}, "type": "Feature"}
{"geometry": {"coordinates": [-89.7384228, 33.483772], "type": "Point"}, "id": "hPS6ZpCo7bXyDAR1wxk50kdhx_o=", "properties": {"@spider": "usps_collection_boxes", "addr:city": "WINONA", "addr:country": "US", "addr:full": "614 SUMMIT ST", "addr:postcode": "38967", "addr:state": "MS", "brand": "USPS", "collection_times": "Mo-Fr 12:00", "name": "USPS COLLECTION BOX - BLUE BOX", "ref": "3896700007"}, "type": "Feature"}
{"geometry": {"coordinates": [-89.730770552, 33.482510594], "type": "Point"}, "id": "2HRCrLaDJCAPrDZJpAG2Xe1K6OI=", "properties": {"@spider": "usps_collection_boxes", "addr:city": "WINONA", "addr:country": "US", "addr:full": "310 SUMMIT ST", "addr:postcode": "38967", "addr:state": "MS", "brand": "USPS", "collection_times": "Mo-Fr 16:30; Sa 14:30", "name": "USPS COLLECTION BOX - PO LOBBY", "note": "ON 12/24 AND 12/31, THIS BOX MAY BE COLLECTED AS EARLY AS 12 NOON.", "ref": "3896700008"}, "type": "Feature"}
{"geometry": {"coordinates": [-89.730770552, 33.482510594], "type": "Point"}, "id": "7Bjaqazk9ag57gUIEfMcfo7yyDE=", "properties": {"@spider": "usps_collection_boxes", "addr:city": "WINONA", "addr:country": "US", "addr:full": "310 SUMMIT ST", "addr:postcode": "38967", "addr:state": "MS", "brand": "USPS", "collection_times": "Mo-Fr 16:30; Sa 11:00", "name": "USPS COLLECTION BOX - PO LOBBY", "note": "ON 12/24 AND 12/31, THIS BOX MAY BE COLLECTED AS EARLY AS 12 NOON.", "ref": "3896700009"}, "type": "Feature"}
