{"geometry": {"coordinates": [-90.487363913, 33.176357852], "type": "Point"}, "id": "Eexm7910ddyh7f60Gg4qFdIzW6o=", "properties": {"@spider": "usps_collection_boxes", "addr:city": "BELZONI", "addr:country": "US", "addr:full": "102 CHURCH ST", "addr:postcode": "39038", "addr:state": "MS", "brand": "USPS", "collection_times": "Mo-Fr 16:45; Sa 10:30", "name": "USPS COLLECTION BOX - BLUE BOX", "note": "ON 12/24 AND 12/31, THIS BOX MAY BE COLLECTED AS EARLY AS 12 NOON.", "ref": "3903800001"}, "type": "Feature"}
{"geometry": {"coordinates": [-90.487363913, 33.176357852], "type": "Point"}, "id": "vL9znIDDU5bF8w9JRPoA4k2_Hh8=", "properties": {"@spider": "usps_collection_boxes", "addr:city": "BELZONI", "addr:country": "US", "addr:full": "102 CHURCH ST", "addr:postcode": "39038", "addr:state": "MS", "brand": "USPS", "collection_times": "Mo-Fr 16:45; Sa 10:30", "name": "USPS COLLECTION BOX - PO LOBBY", "note": "ON 12/24 AND 12/31, THIS BOX MAY BE COLLECTED AS EARLY AS 12 NOON.", "ref": "3903800011"}, "type": "Feature"}
{"geometry": {"coordinates": [-90.487363913, 33.176357852], "type": "Point"}, "id": "tlWixnrNcFcXp9jAUjWpX0g_YVE=", "properties": {"@spider": "usps_collection_boxes", "addr:city": "BELZONI", "addr:country": "US", "addr:full": "102 CHURCH ST", "addr:postcode": "39038", "addr:state": "MS", "brand": "USPS", "collection_times": "Mo-Fr 16:30; Sa 10:30", "name": "USPS COLLECTION BOX - PO LOBBY", "note": "ON 12/24 AND 12/31, THIS BOX MAY BE COLLECTED AS EARLY AS 12 NOON.", "ref": "3903800015"}, "type": "Feature"}
{"geometry": {"coordinates": [-90.261132689, 32.827061613], "type": "Point"}, "id": "qvDyVzzbX5tFCkke-bJ9g7_yT8g=", "properties": {"@spider": "usps_collection_boxes", "addr:city": "BENTON", "addr:country": "US", "addr:full": "1224 OLD HIGHWAY 16", "addr:postcode": "39039", "addr:state": "MS", "brand": "USPS", "collection_times": "Mo-Fr 15:15; Sa 08:15", "name": "USPS COLLECTION BOX - BLUE BOX", "note": "ON 12/24 AND 12/31, THIS BOX MAY BE COLLECTED AS EARLY AS 12 NOON.", "ref": "3903900000"}, "type": "Feature"}
{"geometry": {"coordinates": [-90.261132689, 32.827061613], "type": "Point"}, "id": "fUCRHmcePTJWUAh9XP_00To5KBM=", "properties": {"@spider": "usps_collection_boxes", "addr:city": "BENTON", "addr:country": "US", "addr:full": "1224 OLD HIGHWAY 16", "addr:postcode": "39039", "addr:state": "MS", "brand": "USPS", "collection_times": "Mo-Fr 15:15; Sa 08:15", "name": "USPS COLLECTION BOX - PO LOBBY", "note": "ON 12/24 AND 12/31, THIS BOX MAY BE COLLECTED AS EARLY AS 12 NOON.", "ref": "3903900001"}, "type": "Feature"}
{"geometry": {"coordinates": [-90.261132689, 32.827061613], "type": "Point"}, "id": "euTLSYXDJcmxzKK5vDCXSYCmMD0=", "properties": {"@spider": "usps_collection_boxes", "addr:city": "BENTON", "addr:country": "US", "addr:full": "1224 OLD HIGHWAY 16", "addr:postcode": "39039", "addr:state": "MS", "brand": "USPS", "collection_times": "Mo-Fr 15:30", "name": "USPS COLLECTION BOX - PO LOBBY", "note": "ON 12/24 AND 12/31, THIS BOX MAY BE COLLECTED AS EARLY AS 12 NOON.", "ref": "3903900003"}, "type": "Feature"}
{"geometry": {"coordinates": [-90.365415654, 32.640037431], "type": "Point"}, "id": "yQDXo9NNTY9Cplf0IFW2_kZlTZg=", "properties": {"@spider": "usps_collection_boxes", "addr:city": "BENTONIA", "addr:country": "US", "addr:full": "219 W RAILROAD AVE", "addr:postcode": "39040", "addr:state": "MS", "brand": "USPS", "collection_times": "Mo-Fr 15:15", "name": "USPS COLLECTION BOX - BLUE BOX", "note": "ON 12/24 AND 12/31, THIS BOX MAY BE COLLECTED AS EARLY AS 12 NOON.", "ref": "3904000001"}, "type": "Feature"}
{"geometry": {"coordinates": [-90.365415654, 32.640037431], "type": "Point"}, "id": "rQPojwcVYKjjO79nJh382Bu0qYU=", "properties": {"@spider": "usps_collection_boxes", "addr:city": "BENTONIA", "addr:country": "US", "addr:full": "219 W RAILROAD AVE", "addr:postcode": "39040", "addr:state": "MS", "brand": "USPS", "collection_times": "Mo-Fr 15:30", "name": "USPS COLLECTION BOX - PO LOBBY", "note": "ON 12/24 AND 12/31, THIS BOX MAY BE COLLECTED AS EARLY AS 12 NOON.", "ref": "3904000004"}, "type": "Feature"}
{"geometry": {"coordinates": [-90.46137959, 32.348946835], "type": "Point"}, "id": "BCza95DfYfm14Jj-uPRfhMbL8BI=", "properties": {"@spider": "usps_collection_boxes", "addr:city": "BOLTON", "addr:country": "US", "addr:full": "300 W MADISON ST", "addr:postcode": "39041", "addr:state": "MS", "brand": "USPS", "collection_times": "Mo-Fr 16:00", "name": "USPS COLLECTION BOX - BLUE BOX", "note": "ON 12/24 AND 12/31, THIS BOX MAY BE COLLECTED AS EARLY AS 12 NOON.", "ref": "3904100001"}, "type": "Feature"}
{"geometry": {"coordinates": [-90.46137959, 32.348946835], "type": "Point"}, "id": "wAHrDJxqQD3_pFH-eIpCNNLtdTw=", "properties": {"@spider": "usps_collection_boxes", "addr:city": "BOLTON", "addr:country": "US", "addr:full": "300 W MADISON ST", "addr:postcode": "39041", "addr:state": "MS", "brand": "USPS", "collection_times": "Mo-Fr 16:00; Sa 08:00", "name": "USPS COLLECTION BOX - PO LOBBY", "note": "ON 12/24 AND 12/31, THIS BOX MAY BE COLLECTED AS EARLY AS 12 NOON.", "ref": "3904100002"}, "type": "Feature"}
{"geometry": {"coordinates": [-90.46137959, 32.348946835], "type": "Point"}, "id": "XV4IQYPujriSpvqg6PBXx6AfrJY=", "properties": {"@spider": "usps_collection_boxes", "addr:city": "BOLTON", "addr:country": "US", "addr:full": "300 W MADISON ST", "addr:postcode": "39041", "addr:state": "MS", "brand": "USPS", "collection_times": "Mo-Fr 16:00; Sa 09:30", "name": "USPS COLLECTION BOX - PO LOBBY", "note": "ON 12/24 AND 12/31, THIS BOX MAY BE COLLECTED AS EARLY AS 12 NOON.", "ref": "3904100004"}, "type": "Feature"}
{"geometry": {"coordinates": [-90.0245626, 32.284687], "type": "Point"}, "id": "aRsjsCa5vQQ0UTNUZ2NXnkJvAc4=", "properties": {"@spider": "usps_collection_boxes", "addr:city": "BRANDON", "addr:country": "US", "addr:full": "1500 W GOVERNMENT ST", "addr:postcode": "39042", "addr:state": "MS", "brand": "USPS", "collection_times": "Mo-Fr 13:00", "name": "USPS COLLECTION BOX - BLUE BOX", "note": "ON 12/24 AND 12/31, THIS BOX MAY BE COLLECTED AS EARLY AS 12 NOON.", "ref": "3904200002"}, "type": "Feature"}
{"geometry": {"coordinates": [-90.0371018, 32.284829], "type": "Point"}, "id": "nScMLald2PhDRZBRuajBWRS3cwY=", "properties": {"@spider": "usps_collection_boxes", "addr:city": "BRANDON", "addr:country": "US", "addr:full": "1800 W GOVERNMENT ST", "addr:postcode": "39042", "addr:state": "MS", "brand": "USPS", "collection_times": "Mo-Fr 10:00", "name": "USPS COLLECTION BOX - BLUE BOX", "ref": "3904200007"}, "type": "Feature"}
{"geometry": {"coordinates": [-90.0067144059, 32.2823298629], "type": "Point"}, "id": "5siYdOhLkylUthAqGcYjQjbXWhc=", "properties": {"@spider": "usps_collection_boxes", "addr:city": "BRANDON", "addr:country": "US", "addr:full": "1252 W GOVERNMENT ST", "addr:postcode": "39042", "addr:state": "MS", "brand": "USPS", "collection_times": "Mo-Fr 16:30; Sa 11:00", "name": "USPS COLLECTION BOX - BLUE BOX", "note": "ON 12/24 AND 12/31, THIS BOX MAY BE COLLECTED AS EARLY AS 12 NOON.", "ref": "3904200013"}, "type": "Feature"}
{"geometry": {"coordinates": [-90.006719565, 32.28232056], "type": "Point"}, "id": "MF-xuUAZqlor1LDyzIeuaM8eOXc=", "properties": {"@spider": "usps_collection_boxes", "addr:city": "BRANDON", "addr:country": "US", "addr:full": "1252 W GOVERNMENT ST", "addr:postcode": "39042", "addr:state": "MS", "brand": "USPS", "collection_times": "Mo-Fr 16:30; Sa 11:00", "name": "USPS COLLECTION BOX - PO LOBBY", "note": "ON 12/24 AND 12/31, THIS BOX MAY BE COLLECTED AS EARLY AS 12 NOON.", "ref": "3904200018"}, "type": "Feature"}
{"geometry": {"coordinates": [-89.985418, 32.273319], "type": "Point"}, "id": "OwNRnFGyA1kV_Xz6A9U5i3Aar64=", "properties": {"@spider": "usps_collection_boxes", "addr:city": "BRANDON", "addr:country": "US", "addr:full": "211 E GOVERNMENT ST", "addr:postcode": "39042", "addr:state": "MS", "brand": "USPS", "collection_times": "Mo-Fr 14:00", "name": "USPS COLLECTION BOX - BLUE BOX", "note": "ON 12/24 AND 12/31, THIS BOX MAY BE COLLECTED AS EARLY AS 12 NOON.", "ref": "3904200021"}, "type": "Feature"}
{"geometry": {"coordinates": [-89.9854172, 32.273342], "type": "Point"}, "id": "ZA9A1V5nVaw6uDJtYcexX2gkK6I=", "properties": {"@spider": "usps_collection_boxes", "addr:city": "BRANDON", "addr:country": "US", "addr:full": "211 E GOVERNMENT ST", "addr:postcode": "39042", "addr:state": "MS", "brand": "USPS", "collection_times": "Mo-Fr 14:00", "name": "USPS COLLECTION BOX - BLUE BOX", "note": "ON 12/24 AND 12/31, THIS BOX MAY BE COLLECTED AS EARLY AS 12 NOON.", "ref": "3904200029"}, "type": "Feature"}
{"geometry": {"coordinates": [-90.0067144059, 32.2823298629], "type": "Point"}, "id": "Q8BIki8eooBYfid_elEzul0xebg=", "properties": {"@spider": "usps_collection_boxes", "addr:city": "BRANDON", "addr:country": "US", "addr:full": "1252 W GOVERNMENT ST", "addr:postcode": "39042", "addr:state": "MS", "brand": "USPS", "collection_times": "Mo-Fr 16:30; Sa 11:00", "name": "USPS COLLECTION BOX - BLUE BOX", "note": "ON 12/24 AND 12/31, THIS BOX MAY BE COLLECTED AS EARLY AS 12 NOON.", "ref": "3904200030"}, "type": "Feature"}
{"geometry": {"coordinates": [-90.006719565, 32.28232056], "type": "Point"}, "id": "Ne3OegKeswfwcpRSQ5fID_qPzxI=", "properties": {"@spider": "usps_collection_boxes", "addr:city": "BRANDON", "addr:country": "US", "addr:full": "1252 W GOVERNMENT ST", "addr:postcode": "39042", "addr:state": "MS", "brand": "USPS", "collection_times": "Mo-Fr 16:30; Sa 11:00", "name": "USPS COLLECTION BOX - PO LOBBY", "note": "ON 12/24 AND 12/31, THIS BOX MAY BE COLLECTED AS EARLY AS 12 NOON.", "ref": "3904200036"}, "type": "Feature"}
{"geometry": {"coordinates": [-89.971092146, 32.025067228], "type": "Point"}, "id": "DYtPVJ0pY11fVwZY6wFFVhKx8KM=", "properties": {"@spider": "usps_collection_boxes", "addr:city": "BRAXTON", "addr:country": "US", "addr:full": "120 W MAIN ST", "addr:postcode": "39044", "addr:state": "MS", "brand": "USPS", "collection_times": "Mo-Fr 14:30; Sa 10:00", "name": "USPS COLLECTION BOX - BLUE BOX", "note": "ON 12/24 AND 12/31, THIS BOX MAY BE COLLECTED AS EARLY AS 12 NOON.", "ref": "3904400001"}, "type": "Feature"}
{"geometry": {"coordinates": [-89.971092146, 32.025067228], "type": "Point"}, "id": "6BL5oH3jx64ZsFn6zRD3pJnB3No=", "properties": {"@spider": "usps_collection_boxes", "addr:city": "BRAXTON", "addr:country": "US", "addr:full": "120 W MAIN ST", "addr:postcode": "39044", "addr:state": "MS", "brand": "USPS", "collection_times": "Mo-Fr 14:30; Sa 10:00", "name": "USPS COLLECTION BOX - PO LOBBY", "note": "ON 12/24 AND 12/31, THIS BOX MAY BE COLLECTED AS EARLY AS 12 NOON.", "ref": "3904400002"}, "type": "Feature"}
{"geometry": {"coordinates": [-89.971092146, 32.025067228], "type": "Point"}, "id": "hc2WNq_HxE_aYhkCoPmWjkGyXWo=", "properties": {"@spider": "usps_collection_boxes", "addr:city": "BRAXTON", "addr:country": "US", "addr:full": "120 W MAIN ST", "addr:postcode": "39044", "addr:state": "MS", "brand": "USPS", "collection_times": "Mo-Fr 14:30; Sa 10:00", "name": "USPS COLLECTION BOX - PO LOBBY", "note": "ON 12/24 AND 12/31, THIS BOX MAY BE COLLECTED AS EARLY AS 12 NOON.", "ref": "3904400004"}, "type": "Feature"}
{"geometry": {"coordinates": [-89.971092146, 32.025067228], "type": "Point"}, "id": "pq-RYoy_u-0kDh3Rw9HNgFGDVRI=", "properties": {"@spider": "usps_collection_boxes", "addr:city": "BRAXTON", "addr:country": "US", "addr:full": "120 W MAIN ST", "addr:postcode": "39044", "addr:state": "MS", "brand": "USPS", "collection_times": "Mo-Fr 14:30; Sa 10:00", "name": "USPS COLLECTION BOX - PO LOBBY", "note": "ON 12/24 AND 12/31, THIS BOX MAY BE COLLECTED AS EARLY AS 12 NOON.", "ref": "3904400005"}, "type": "Feature"}
{"geometry": {"coordinates": [-89.838705, 32.782136], "type": "Point"}, "id": "5bu4p_4KTcW-9L6iv3w_dx_xdWA=", "properties": {"@spider": "usps_collection_boxes", "addr:city": "CAMDEN", "addr:country": "US", "addr:full": "2124 HIGHWAY 17", "addr:postcode": "39045", "addr:state": "MS", "brand": "USPS", "collection_times": "Mo-Fr 11:30; Sa 08:00", "name": "USPS COLLECTION BOX - BLUE BOX", "ref": "3904500001"}, "type": "Feature"}
{"geometry": {"coordinates": [-89.838705, 32.782136], "type": "Point"}, "id": "_UbOr8BdPtpJZNWm1acMOqAqa18=", "properties": {"@spider": "usps_collection_boxes", "addr:city": "CAMDEN", "addr:country": "US", "addr:full": "2124 HIGHWAY 17", "addr:postcode": "39045", "addr:state": "MS", "brand": "USPS", "collection_times": "Mo-Fr 11:30; Sa 08:00", "name": "USPS COLLECTION BOX - PO LOBBY", "ref": "3904500002"}, "type": "Feature"}
{"geometry": {"coordinates": [-89.8386874865, 32.7821617036], "type": "Point"}, "id": "ntKBa7acPXcmkMVUVIb-nKP9CdA=", "properties": {"@spider": "usps_collection_boxes", "addr:city": "CAMDEN", "addr:country": "US", "addr:full": "2124 HIGHWAY 17", "addr:postcode": "39045", "addr:state": "MS", "brand": "USPS", "collection_times": "Mo-Fr 11:30", "name": "USPS COLLECTION BOX - PO LOBBY", "ref": "3904500003"}, "type": "Feature"}
{"geometry": {"coordinates": [-90.03642, 32.611975], "type": "Point"}, "id": "41G_l4cjxrXHU41TzgyrdzQ2NTA=", "properties": {"@spider": "usps_collection_boxes", "addr:city": "CANTON", "addr:country": "US", "addr:full": "150 S UNION ST", "addr:postcode": "39046", "addr:state": "MS", "brand": "USPS", "collection_times": "Mo-Fr 17:00; Sa 13:00", "name": "USPS COLLECTION BOX - PO LOBBY", "note": "ON 12/24 AND 12/31, THIS BOX MAY BE COLLECTED AS EARLY AS 12 NOON.", "ref": "3904600001"}, "type": "Feature"}
{"geometry": {"coordinates": [-90.03642, 32.611975], "type": "Point"}, "id": "V4QEaowRiKO2D6ppTkdmUzybPP8=", "properties": {"@spider": "usps_collection_boxes", "addr:city": "CANTON", "addr:country": "US", "addr:full": "150 S UNION ST", "addr:postcode": "39046", "addr:state": "MS", "brand": "USPS", "collection_times": "Mo-Fr 17:00; Sa 13:00", "name": "USPS COLLECTION BOX - PO LOBBY", "note": "ON 12/24 AND 12/31, THIS BOX MAY BE COLLECTED AS EARLY AS 12 NOON.", "ref": "3904600002"}, "type": "Feature"}
{"geometry": {"coordinates": [-90.03642, 32.611975], "type": "Point"}, "id": "andT9uJTKvd3EX9GE5MxzoyufCQ=", "properties": {"@spider": "usps_collection_boxes", "addr:city": "CANTON", "addr:country": "US", "addr:full": "150 S UNION ST", "addr:postcode": "39046", "addr:state": "MS", "brand": "USPS", "collection_times": "Mo-Fr 17:00; Sa 13:00", "name": "USPS COLLECTION BOX - BLUE BOX", "note": "ON 12/24 AND 12/31, THIS BOX MAY BE COLLECTED AS EARLY AS 12 NOON.", "ref": "3904600003"}, "type": "Feature"}
{"geometry": {"coordinates": [-90.03642, 32.611975], "type": "Point"}, "id": "bXZuukJ8LBK4uvTLh6-Gx7xBZ3k=", "properties": {"@spider": "usps_collection_boxes", "addr:city": "CANTON", "addr:country": "US", "addr:full": "150 S UNION ST", "addr:postcode": "39046", "addr:state": "MS", "brand": "USPS", "collection_times": "Mo-Fr 17:00; Sa 13:00", "name": "USPS COLLECTION BOX - BLUE BOX", "note": "ON 12/24 AND 12/31, THIS BOX MAY BE COLLECTED AS EARLY AS 12 NOON.", "ref": "3904600004"}, "type": "Feature"}
{"geometry": {"coordinates": [-90.03642, 32.611975], "type": "Point"}, "id": "JZYzHV67bfXpfnl2Wfizx5u_pvE=", "properties": {"@spider": "usps_collection_boxes", "addr:city": "CANTON", "addr:country": "US", "addr:full": "150 S UNION ST", "addr:postcode": "39046", "addr:state": "MS", "brand": "USPS", "collection_times": "Mo-Fr 17:00; Sa 13:00", "name": "USPS COLLECTION BOX - BLUE BOX", "note": "ON 12/24 AND 12/31, THIS BOX MAY BE COLLECTED AS EARLY AS 12 NOON.", "ref": "3904600017"}, "type": "Feature"}
{"geometry": {"coordinates": [-90.03642, 32.611975], "type": "Point"}, "id": "ETs_y32gzba3gBEyAugT5zN4Msc=", "properties": {"@spider": "usps_collection_boxes", "addr:city": "CANTON", "addr:country": "US", "addr:full": "150 S UNION ST", "addr:postcode": "39046", "addr:state": "MS", "brand": "USPS", "collection_times": "Mo-Fr 17:00; Sa 13:00", "name": "USPS COLLECTION BOX - PO LOBBY", "note": "ON 12/24 AND 12/31, THIS BOX MAY BE COLLECTED AS EARLY AS 12 NOON.", "ref": "3904600021"}, "type": "Feature"}
{"geometry": {"coordinates": [-90.0364489494, 32.6119656826], "type": "Point"}, "id": "rWG13dVHADLLi-pnjY9u3UF4Tyc=", "properties": {"@spider": "usps_collection_boxes", "addr:city": "CANTON", "addr:country": "US", "addr:full": "150 S UNION ST", "addr:postcode": "39046", "addr:state": "MS", "brand": "USPS", "collection_times": "Mo-Fr 16:30; Sa 11:00", "name": "USPS COLLECTION BOX - PO LOBBY", "note": "ON 12/24 AND 12/31, THIS BOX MAY BE COLLECTED AS EARLY AS 12 NOON.", "ref": "3904600024"}, "type": "Feature"}
{"geometry": {"coordinates": [-90.013326819, 32.359093423], "type": "Point"}, "id": "yfVqwjCI5vbhtmu0IYb2ietdSSA=", "properties": {"@spider": "usps_collection_boxes", "addr:city": "BRANDON", "addr:country": "US", "addr:full": "610 GRANTS FERRY RD", "addr:postcode": "39047", "addr:state": "MS", "brand": "USPS", "collection_times": "Mo-Fr 16:30; Sa 11:00", "name": "USPS COLLECTION BOX - BLUE BOX", "note": "ON 12/24 AND 12/31, THIS BOX MAY BE COLLECTED AS EARLY AS 12 NOON.", "ref": "3904700001"}, "type": "Feature"}
{"geometry": {"coordinates": [-90.013326819, 32.359093423], "type": "Point"}, "id": "SCk1nzmLu6dSPdNpaMN9ClP1EnY=", "properties": {"@spider": "usps_collection_boxes", "addr:city": "BRANDON", "addr:country": "US", "addr:full": "610 GRANTS FERRY RD", "addr:postcode": "39047", "addr:state": "MS", "brand": "USPS", "collection_times": "Mo-Fr 16:30; Sa 11:00", "name": "USPS COLLECTION BOX - BLUE BOX", "note": "ON 12/24 AND 12/31, THIS BOX MAY BE COLLECTED AS EARLY AS 12 NOON.", "ref": "3904700002"}, "type": "Feature"}
{"geometry": {"coordinates": [-90.013326819, 32.359093423], "type": "Point"}, "id": "7m6bkKeLz5sS7Lwm3nKac98aRiE=", "properties": {"@spider": "usps_collection_boxes", "addr:city": "BRANDON", "addr:country": "US", "addr:full": "610 GRANTS FERRY RD", "addr:postcode": "39047", "addr:state": "MS", "brand": "USPS", "collection_times": "Mo-Fr 16:30; Sa 11:00", "name": "USPS COLLECTION BOX - BLUE BOX", "note": "ON 12/24 AND 12/31, THIS BOX MAY BE COLLECTED AS EARLY AS 12 NOON.", "ref": "3904700003"}, "type": "Feature"}
{"geometry": {"coordinates": [-90.013326819, 32.359093423], "type": "Point"}, "id": "GNYipaIDCfsOxccuWscaapsSZnk=", "properties": {"@spider": "usps_collection_boxes", "addr:city": "BRANDON", "addr:country": "US", "addr:full": "610 GRANTS FERRY RD", "addr:postcode": "39047", "addr:state": "MS", "brand": "USPS", "collection_times": "Mo-Fr 16:30; Sa 11:00", "name": "USPS COLLECTION BOX - PO LOBBY", "note": "ON 12/24 AND 12/31, THIS BOX MAY BE COLLECTED AS EARLY AS 12 NOON.", "ref": "3904700004"}, "type": "Feature"}
{"geometry": {"coordinates": [-90.013326819, 32.359093423], "type": "Point"}, "id": "AcmnnUT8BRl1LEcKveFq6w9CW0U=", "properties": {"@spider": "usps_collection_boxes", "addr:city": "BRANDON", "addr:country": "US", "addr:full": "610 GRANTS FERRY RD", "addr:postcode": "39047", "addr:state": "MS", "brand": "USPS", "collection_times": "Mo-Fr 16:30; Sa 11:00", "name": "USPS COLLECTION BOX - PO LOBBY", "note": "ON 12/24 AND 12/31, THIS BOX MAY BE COLLECTED AS EARLY AS 12 NOON.", "ref": "3904700005"}, "type": "Feature"}
{"geometry": {"coordinates": [-90.0411857, 32.380807], "type": "Point"}, "id": "TdiHzEQhrZ7F0JyT76UKlCHVw6w=", "properties": {"@spider": "usps_collection_boxes", "addr:city": "BRANDON", "addr:country": "US", "addr:full": "1149 OLD FANNIN RD", "addr:postcode": "39047", "addr:state": "MS", "brand": "USPS", "collection_times": "Mo-Fr 10:00", "name": "USPS COLLECTION BOX - BLUE BOX", "ref": "3904700006"}, "type": "Feature"}
{"geometry": {"coordinates": [-90.013326819, 32.359093423], "type": "Point"}, "id": "SQYs_h_ldaqudOPaKivQuG4HqS8=", "properties": {"@spider": "usps_collection_boxes", "addr:city": "BRANDON", "addr:country": "US", "addr:full": "610 GRANTS FERRY RD", "addr:postcode": "39047", "addr:state": "MS", "brand": "USPS", "collection_times": "Mo-Fr 16:30; Sa 11:00", "name": "USPS COLLECTION BOX - PO LOBBY", "note": "ON 12/24 AND 12/31, THIS BOX MAY BE COLLECTED AS EARLY AS 12 NOON.", "ref": "3904700007"}, "type": "Feature"}
{"geometry": {"coordinates": [-89.5344765686, 32.7377469618], "type": "Point"}, "id": "RNuoSTRwCPjmzMwnTcfwLjj3aKw=", "properties": {"@spider": "usps_collection_boxes", "addr:city": "CARTHAGE", "addr:country": "US", "addr:full": "200 N PEARL ST", "addr:postcode": "39051", "addr:state": "MS", "brand": "USPS", "collection_times": "Mo-Fr 16:15; Sa 12:00", "name": "USPS COLLECTION BOX - BLUE BOX", "note": "ON 12/24 AND 12/31, THIS BOX MAY BE COLLECTED AS EARLY AS 12 NOON.", "ref": "3905100003"}, "type": "Feature"}
{"geometry": {"coordinates": [-89.5346394, 32.737877], "type": "Point"}, "id": "O9SXRD3oD5WOcpqIWmhkP_9abyE=", "properties": {"@spider": "usps_collection_boxes", "addr:city": "CARTHAGE", "addr:country": "US", "addr:full": "201 N PEARL ST", "addr:postcode": "39051", "addr:state": "MS", "brand": "USPS", "collection_times": "Mo-Fr 16:15; Sa 12:00", "name": "USPS COLLECTION BOX - BLUE BOX", "note": "ON 12/24 AND 12/31, THIS BOX MAY BE COLLECTED AS EARLY AS 12 NOON.", "ref": "3905100004"}, "type": "Feature"}
{"geometry": {"coordinates": [-89.5347133, 32.737945], "type": "Point"}, "id": "oCt58-oOk3kUMvRoGMUCJkK4pRU=", "properties": {"@spider": "usps_collection_boxes", "addr:city": "CARTHAGE", "addr:country": "US", "addr:full": "201 N PEARL ST", "addr:postcode": "39051", "addr:state": "MS", "brand": "USPS", "collection_times": "Mo-Fr 16:15; Sa 12:00", "name": "USPS COLLECTION BOX - PO LOBBY", "note": "ON 12/24 AND 12/31, THIS BOX MAY BE COLLECTED AS EARLY AS 12 NOON.", "ref": "3905100007"}, "type": "Feature"}
{"geometry": {"coordinates": [-89.5345914618, 32.7377459314], "type": "Point"}, "id": "IF8UAv13iE4I-SoyuoxIICsh0bE=", "properties": {"@spider": "usps_collection_boxes", "addr:city": "CARTHAGE", "addr:country": "US", "addr:full": "201 N PEARL ST", "addr:postcode": "39051", "addr:state": "MS", "brand": "USPS", "collection_times": "Mo-Fr 16:30; Sa 11:30", "name": "USPS COLLECTION BOX - PO LOBBY", "note": "ON 12/24 AND 12/31, THIS BOX MAY BE COLLECTED AS EARLY AS 12 NOON.", "ref": "3905100010"}, "type": "Feature"}
{"geometry": {"coordinates": [-90.924541789, 32.808544851], "type": "Point"}, "id": "wRiifwrhVC0_TdDBqwcX-SANaQA=", "properties": {"@spider": "usps_collection_boxes", "addr:city": "CARY", "addr:country": "US", "addr:full": "95 DOGWOOD ST", "addr:postcode": "39054", "addr:state": "MS", "brand": "USPS", "collection_times": "Mo-Fr 12:00", "name": "USPS COLLECTION BOX - BLUE BOX", "ref": "3905400001"}, "type": "Feature"}
{"geometry": {"coordinates": [-90.924541789, 32.808544851], "type": "Point"}, "id": "rmoqD2GP6TV0yGn4o1mkXCrwD-g=", "properties": {"@spider": "usps_collection_boxes", "addr:city": "CARY", "addr:country": "US", "addr:full": "95 DOGWOOD ST", "addr:postcode": "39054", "addr:state": "MS", "brand": "USPS", "collection_times": "Mo-Fr 11:50; Sa 08:00", "name": "USPS COLLECTION BOX - PO LOBBY", "ref": "3905400002"}, "type": "Feature"}
{"geometry": {"coordinates": [-90.924541789, 32.808544851], "type": "Point"}, "id": "6GkhpdtzWWuru_W2B4SlVsquIV4=", "properties": {"@spider": "usps_collection_boxes", "addr:city": "CARY", "addr:country": "US", "addr:full": "95 DOGWOOD ST", "addr:postcode": "39054", "addr:state": "MS", "brand": "USPS", "collection_times": "Mo-Fr 12:00", "name": "USPS COLLECTION BOX - PO LOBBY", "ref": "3905400006"}, "type": "Feature"}
{"geometry": {"coordinates": [-90.3211207, 32.334087], "type": "Point"}, "id": "Vmxuyb282VQs3kmtaJr_eRYP9XY=", "properties": {"@spider": "usps_collection_boxes", "addr:city": "CLINTON", "addr:country": "US", "addr:full": "812 HIGHWAY 80 E", "addr:postcode": "39056", "addr:state": "MS", "brand": "USPS", "collection_times": "Mo-Fr 13:00", "name": "USPS COLLECTION BOX - BLUE BOX", "note": "ON 12/24 AND 12/31, THIS BOX MAY BE COLLECTED AS EARLY AS 12 NOON.", "ref": "3905600003"}, "type": "Feature"}
{"geometry": {"coordinates": [-90.3242562, 32.334261], "type": "Point"}, "id": "JakBW1y1FlJxnOmSwxrqqAdku4Q=", "properties": {"@spider": "usps_collection_boxes", "addr:city": "CLINTON", "addr:country": "US", "addr:full": "117 HIGHWAY 80 E", "addr:postcode": "39056", "addr:state": "MS", "brand": "USPS", "collection_times": "Mo-Fr 14:00", "name": "USPS COLLECTION BOX - BLUE BOX", "note": "ON 12/24 AND 12/31, THIS BOX MAY BE COLLECTED AS EARLY AS 12 NOON.", "ref": "3905600004"}, "type": "Feature"}
{"geometry": {"coordinates": [-90.3256247, 32.321578], "type": "Point"}, "id": "gS5lodsXMQyjP7LywTrU2VHtcfI=", "properties": {"@spider": "usps_collection_boxes", "addr:city": "CLINTON", "addr:country": "US", "addr:full": "501 SPRINGRIDGE RD", "addr:postcode": "39056", "addr:state": "MS", "brand": "USPS", "collection_times": "Mo-Fr 11:00", "name": "USPS COLLECTION BOX - BLUE BOX", "ref": "3905600005"}, "type": "Feature"}
{"geometry": {"coordinates": [-90.3128813, 32.334787], "type": "Point"}, "id": "TnYhbeEToA8MpwoR0GpnTzoFmZ8=", "properties": {"@spider": "usps_collection_boxes", "addr:city": "CLINTON", "addr:country": "US", "addr:full": "204 CLINTON BLVD", "addr:postcode": "39056", "addr:state": "MS", "brand": "USPS", "collection_times": "Mo-Fr 11:00", "name": "USPS COLLECTION BOX - BLUE BOX", "ref": "3905600008"}, "type": "Feature"}
{"geometry": {"coordinates": [-90.3128721, 32.334781], "type": "Point"}, "id": "EjHAeg8Btr9hheUFgDiSDcBH8ME=", "properties": {"@spider": "usps_collection_boxes", "addr:city": "CLINTON", "addr:country": "US", "addr:full": "204 CLINTON BLVD", "addr:postcode": "39056", "addr:state": "MS", "brand": "USPS", "collection_times": "Mo-Fr 11:00", "name": "USPS COLLECTION BOX - BLUE BOX", "ref": "3905600009"}, "type": "Feature"}
{"geometry": {"coordinates": [-90.3141091, 32.34789], "type": "Point"}, "id": "p7lp-0Pm2KkjuIvhp_b0iS2BPpg=", "properties": {"@spider": "usps_collection_boxes", "addr:city": "CLINTON", "addr:country": "US", "addr:full": "822 E NORTHSIDE DR", "addr:postcode": "39056", "addr:state": "MS", "brand": "USPS", "collection_times": "Mo-Fr 11:00", "name": "USPS COLLECTION BOX - BLUE BOX", "ref": "3905600010"}, "type": "Feature"}
{"geometry": {"coordinates": [-90.3388617, 32.336614], "type": "Point"}, "id": "0AcmW5Eek25EwPh0ji8_FRztgNI=", "properties": {"@spider": "usps_collection_boxes", "addr:city": "CLINTON", "addr:country": "US", "addr:full": "606 HIGHWAY 80 W", "addr:postcode": "39056", "addr:state": "MS", "brand": "USPS", "collection_times": "Mo-Fr 15:00", "name": "USPS COLLECTION BOX - BLUE BOX", "note": "ON 12/24 AND 12/31, THIS BOX MAY BE COLLECTED AS EARLY AS 12 NOON.", "ref": "3905600016"}, "type": "Feature"}
{"geometry": {"coordinates": [-90.329371409, 32.34126823], "type": "Point"}, "id": "Quvt1ZKBBJns7cAIMLfLXQlDG_I=", "properties": {"@spider": "usps_collection_boxes", "addr:city": "CLINTON", "addr:country": "US", "addr:full": "100 E LAWSON ST", "addr:postcode": "39056", "addr:state": "MS", "brand": "USPS", "collection_times": "Mo-Fr 16:30; Sa 12:00", "name": "USPS COLLECTION BOX - BLUE BOX", "note": "ON 12/24 AND 12/31, THIS BOX MAY BE COLLECTED AS EARLY AS 12 NOON.", "ref": "3905600024"}, "type": "Feature"}
{"geometry": {"coordinates": [-90.329371409, 32.34126823], "type": "Point"}, "id": "TYZAS5C81CqzTW2Uth_V14STzJ4=", "properties": {"@spider": "usps_collection_boxes", "addr:city": "CLINTON", "addr:country": "US", "addr:full": "100 E LAWSON ST", "addr:postcode": "39056", "addr:state": "MS", "brand": "USPS", "collection_times": "Mo-Fr 16:30; Sa 12:00", "name": "USPS COLLECTION BOX - PO LOBBY", "note": "ON 12/24 AND 12/31, THIS BOX MAY BE COLLECTED AS EARLY AS 12 NOON.", "ref": "3905600029"}, "type": "Feature"}
{"geometry": {"coordinates": [-90.329371409, 32.34126823], "type": "Point"}, "id": "ufssutQMH1Q2UJaepfIyL8Mg6os=", "properties": {"@spider": "usps_collection_boxes", "addr:city": "CLINTON", "addr:country": "US", "addr:full": "100 E LAWSON ST", "addr:postcode": "39056", "addr:state": "MS", "brand": "USPS", "collection_times": "Mo-Fr 16:30", "name": "USPS COLLECTION BOX - PO LOBBY", "note": "ON 12/24 AND 12/31, THIS BOX MAY BE COLLECTED AS EARLY AS 12 NOON.", "ref": "3905600041"}, "type": "Feature"}
{"geometry": {"coordinates": [-90.3293714091, 32.3412682299], "type": "Point"}, "id": "1fghHXX1uwMz6eVG9YF74GPcoCU=", "properties": {"@spider": "usps_collection_boxes", "addr:city": "CLINTON", "addr:country": "US", "addr:full": "100 E LAWSON ST", "addr:postcode": "39056", "addr:state": "MS", "brand": "USPS", "collection_times": "Mo-Fr 16:30", "name": "USPS COLLECTION BOX - BLUE BOX", "note": "ON 12/24 AND 12/31, THIS BOX MAY BE COLLECTED AS EARLY AS 12 NOON.", "ref": "3905600042"}, "type": "Feature"}
{"geometry": {"coordinates": [-89.283710048, 32.450637325], "type": "Point"}, "id": "4TSi7399gx_Rfq7NjxoRuVFlFbI=", "properties": {"@spider": "usps_collection_boxes", "addr:city": "CONEHATTA", "addr:country": "US", "addr:full": "8396 HIGHWAY 489", "addr:postcode": "39057", "addr:state": "MS", "brand": "USPS", "collection_times": "Mo-Fr 11:30", "name": "USPS COLLECTION BOX - BLUE BOX", "ref": "3905700001"}, "type": "Feature"}
{"geometry": {"coordinates": [-89.283710048, 32.450637325], "type": "Point"}, "id": "MsdUD94OG4LPx4uNhcEkW_r_wtU=", "properties": {"@spider": "usps_collection_boxes", "addr:city": "CONEHATTA", "addr:country": "US", "addr:full": "8396 HIGHWAY 489", "addr:postcode": "39057", "addr:state": "MS", "brand": "USPS", "collection_times": "Mo-Fr 11:30; Sa 08:00", "name": "USPS COLLECTION BOX - PO LOBBY", "ref": "3905700002"}, "type": "Feature"}
{"geometry": {"coordinates": [-89.283710048, 32.450637325], "type": "Point"}, "id": "EEJqmw-qa3aWSZmOYyI3PLlR8-k=", "properties": {"@spider": "usps_collection_boxes", "addr:city": "CONEHATTA", "addr:country": "US", "addr:full": "8396 HIGHWAY 489", "addr:postcode": "39057", "addr:state": "MS", "brand": "USPS", "collection_times": "Mo-Fr 11:30", "name": "USPS COLLECTION BOX - PO LOBBY", "ref": "3905700004"}, "type": "Feature"}
{"geometry": {"coordinates": [-90.3572641695, 31.9860639746], "type": "Point"}, "id": "4v_g7Gk22ig0h0aruR5gTszWTU8=", "properties": {"@spider": "usps_collection_boxes", "addr:city": "CRYSTAL SPRINGS", "addr:country": "US", "addr:full": "301 E MARION AVE", "addr:postcode": "39059", "addr:state": "MS", "brand": "USPS", "collection_times": "Mo-Fr 16:30; Sa 10:30", "name": "USPS COLLECTION BOX - BLUE BOX", "note": "ON 12/24 AND 12/31, THIS BOX MAY BE COLLECTED AS EARLY AS 12 NOON.", "ref": "3905900009"}, "type": "Feature"}
{"geometry": {"coordinates": [-90.3572641695, 31.9860639746], "type": "Point"}, "id": "tP5NNxQz9uj3tRFN0qynsEVI130=", "properties": {"@spider": "usps_collection_boxes", "addr:city": "CRYSTAL SPRINGS", "addr:country": "US", "addr:full": "301 E MARION AVE", "addr:postcode": "39059", "addr:state": "MS", "brand": "USPS", "collection_times": "Mo-Fr 16:30; Sa 10:30", "name": "USPS COLLECTION BOX - BLUE BOX", "note": "ON 12/24 AND 12/31, THIS BOX MAY BE COLLECTED AS EARLY AS 12 NOON.", "ref": "3905900015"}, "type": "Feature"}
{"geometry": {"coordinates": [-90.357264169, 31.986063975], "type": "Point"}, "id": "TIzPML5YG36gjyTB4sGDgzDBlKA=", "properties": {"@spider": "usps_collection_boxes", "addr:city": "CRYSTAL SPRINGS", "addr:country": "US", "addr:full": "301 E MARION AVE", "addr:postcode": "39059", "addr:state": "MS", "brand": "USPS", "collection_times": "Mo-Fr 16:30; Sa 10:30", "name": "USPS COLLECTION BOX - PO LOBBY", "note": "ON 12/24 AND 12/31, THIS BOX MAY BE COLLECTED AS EARLY AS 12 NOON.", "ref": "3905900016"}, "type": "Feature"}
{"geometry": {"coordinates": [-90.357264169, 31.986063975], "type": "Point"}, "id": "kQO-LTThTi7DMFNLwYrmE4F_wGY=", "properties": {"@spider": "usps_collection_boxes", "addr:city": "CRYSTAL SPRINGS", "addr:country": "US", "addr:full": "301 E MARION AVE", "addr:postcode": "39059", "addr:state": "MS", "brand": "USPS", "collection_times": "Mo-Fr 16:30; Sa 10:30", "name": "USPS COLLECTION BOX - PO LOBBY", "note": "ON 12/24 AND 12/31, THIS BOX MAY BE COLLECTED AS EARLY AS 12 NOON.", "ref": "3905900020"}, "type": "Feature"}
{"geometry": {"coordinates": [-89.901620817, 31.984465565], "type": "Point"}, "id": "D9jIngBQymdg3PgsazOKvxvZs0k=", "properties": {"@spider": "usps_collection_boxes", "addr:city": "D'LO", "addr:country": "US", "addr:full": "2135 SIMPSON HIGHWAY 149", "addr:postcode": "39062", "addr:state": "MS", "brand": "USPS", "collection_times": "Mo-Fr 12:00", "name": "USPS COLLECTION BOX - BLUE BOX", "ref": "3906200001"}, "type": "Feature"}
{"geometry": {"coordinates": [-89.901620817, 31.984465565], "type": "Point"}, "id": "p_fbnVKVRU73okbODCpQlbykdIw=", "properties": {"@spider": "usps_collection_boxes", "addr:city": "D'LO", "addr:country": "US", "addr:full": "2135 SIMPSON HIGHWAY 149", "addr:postcode": "39062", "addr:state": "MS", "brand": "USPS", "collection_times": "Mo-Fr 12:00", "name": "USPS COLLECTION BOX - PO LOBBY", "ref": "3906200004"}, "type": "Feature"}
{"geometry": {"coordinates": [-89.855022567, 33.074334942], "type": "Point"}, "id": "e83z1u-_N_fSnf9qugPVek_q_rw=", "properties": {"@spider": "usps_collection_boxes", "addr:city": "DURANT", "addr:country": "US", "addr:full": "15243 S JACKSON ST", "addr:postcode": "39063", "addr:state": "MS", "brand": "USPS", "collection_times": "Mo-Fr 16:30; Sa 10:00", "name": "USPS COLLECTION BOX - BLUE BOX", "note": "ON 12/24 AND 12/31, THIS BOX MAY BE COLLECTED AS EARLY AS 12 NOON.", "ref": "3906300001"}, "type": "Feature"}
{"geometry": {"coordinates": [-89.855022567, 33.074334942], "type": "Point"}, "id": "fTjpmRzXFrEFMNrVE-Q4LnVYIfg=", "properties": {"@spider": "usps_collection_boxes", "addr:city": "DURANT", "addr:country": "US", "addr:full": "15243 S JACKSON ST", "addr:postcode": "39063", "addr:state": "MS", "brand": "USPS", "collection_times": "Mo-Fr 16:30; Sa 10:00", "name": "USPS COLLECTION BOX - PO LOBBY", "note": "ON 12/24 AND 12/31, THIS BOX MAY BE COLLECTED AS EARLY AS 12 NOON.", "ref": "3906300003"}, "type": "Feature"}
{"geometry": {"coordinates": [-89.855022567, 33.074334942], "type": "Point"}, "id": "Hz1fKDCRuHKM2ar33CUOdr3N2rg=", "properties": {"@spider": "usps_collection_boxes", "addr:city": "DURANT", "addr:country": "US", "addr:full": "15243 S JACKSON ST", "addr:postcode": "39063", "addr:state": "MS", "brand": "USPS", "collection_times": "Mo-Fr 16:30; Sa 10:00", "name": "USPS COLLECTION BOX - PO LOBBY", "note": "ON 12/24 AND 12/31, THIS BOX MAY BE COLLECTED AS EARLY AS 12 NOON.", "ref": "3906300006"}, "type": "Feature"}
{"geometry": {"coordinates": [-90.60372292, 32.328825999], "type": "Point"}, "id": "J1EYxMclvVbxz9zRQzP8Wrg4-a8=", "properties": {"@spider": "usps_collection_boxes", "addr:city": "EDWARDS", "addr:country": "US", "addr:full": "100 WITHERS ST", "addr:postcode": "39066", "addr:state": "MS", "brand": "USPS", "collection_times": "Mo-Fr 16:00; Sa 10:00", "name": "USPS COLLECTION BOX - PO LOBBY", "note": "ON 12/24 AND 12/31, THIS BOX MAY BE COLLECTED AS EARLY AS 12 NOON.", "ref": "3906600002"}, "type": "Feature"}
{"geometry": {"coordinates": [-90.60372292, 32.328825999], "type": "Point"}, "id": "tJQ4UNSI6yhI4L3AvNI2dGdLUiA=", "properties": {"@spider": "usps_collection_boxes", "addr:city": "EDWARDS", "addr:country": "US", "addr:full": "100 WITHERS ST", "addr:postcode": "39066", "addr:state": "MS", "brand": "USPS", "collection_times": "Mo-Fr 16:00; Sa 10:00", "name": "USPS COLLECTION BOX - BLUE BOX", "note": "ON 12/24 AND 12/31, THIS BOX MAY BE COLLECTED AS EARLY AS 12 NOON.", "ref": "3906600004"}, "type": "Feature"}
{"geometry": {"coordinates": [-90.60372292, 32.328825999], "type": "Point"}, "id": "YLE4bKpQpETPST3Og6KY_yIkc28=", "properties": {"@spider": "usps_collection_boxes", "addr:city": "EDWARDS", "addr:country": "US", "addr:full": "100 WITHERS ST", "addr:postcode": "39066", "addr:state": "MS", "brand": "USPS", "collection_times": "Mo-Fr 16:00; Sa 10:00", "name": "USPS COLLECTION BOX - PO LOBBY", "note": "ON 12/24 AND 12/31, THIS BOX MAY BE COLLECTED AS EARLY AS 12 NOON.", "ref": "3906600005"}, "type": "Feature"}
{"geometry": {"coordinates": [-90.60372292, 32.328825999], "type": "Point"}, "id": "V3rI2-b9is2UY0yveLQmUuIK3cg=", "properties": {"@spider": "usps_collection_boxes", "addr:city": "EDWARDS", "addr:country": "US", "addr:full": "100 WITHERS ST", "addr:postcode": "39066", "addr:state": "MS", "brand": "USPS", "collection_times": "Mo-Fr 16:00; Sa 10:00", "name": "USPS COLLECTION BOX - PO LOBBY", "note": "ON 12/24 AND 12/31, THIS BOX MAY BE COLLECTED AS EARLY AS 12 NOON.", "ref": "3906600006"}, "type": "Feature"}
{"geometry": {"coordinates": [-89.464117459, 33.122406973], "type": "Point"}, "id": "NAuIFiYtgLEKgVs4xDgihZpmy1c=", "properties": {"@spider": "usps_collection_boxes", "addr:city": "ETHEL", "addr:country": "US", "addr:full": "2112 MAIN ST", "addr:postcode": "39067", "addr:state": "MS", "brand": "USPS", "collection_times": "Mo-Fr 14:30", "name": "USPS COLLECTION BOX - BLUE BOX", "note": "ON 12/24 AND 12/31, THIS BOX MAY BE COLLECTED AS EARLY AS 12 NOON.", "ref": "3906700001"}, "type": "Feature"}
{"geometry": {"coordinates": [-89.464117459, 33.122406973], "type": "Point"}, "id": "2xLJ9v937heMe2qbHZaoVsUH8sg=", "properties": {"@spider": "usps_collection_boxes", "addr:city": "ETHEL", "addr:country": "US", "addr:full": "2112 MAIN ST", "addr:postcode": "39067", "addr:state": "MS", "brand": "USPS", "collection_times": "Mo-Fr 14:30; Sa 08:00", "name": "USPS COLLECTION BOX - PO LOBBY", "note": "ON 12/24 AND 12/31, THIS BOX MAY BE COLLECTED AS EARLY AS 12 NOON.", "ref": "3906700002"}, "type": "Feature"}
{"geometry": {"coordinates": [-89.464117459, 33.122406973], "type": "Point"}, "id": "90jojX83xXy_rJeJUDhOStA9i0s=", "properties": {"@spider": "usps_collection_boxes", "addr:city": "ETHEL", "addr:country": "US", "addr:full": "2112 MAIN ST", "addr:postcode": "39067", "addr:state": "MS", "brand": "USPS", "collection_times": "Mo-Fr 14:30", "name": "USPS COLLECTION BOX - PO LOBBY", "note": "ON 12/24 AND 12/31, THIS BOX MAY BE COLLECTED AS EARLY AS 12 NOON.", "ref": "3906700004"}, "type": "Feature"}
{"geometry": {"coordinates": [-91.059508108, 31.712765017], "type": "Point"}, "id": "uzpqGPwFi7gM1RxrXX5OmoQB_x0=", "properties": {"@spider": "usps_collection_boxes", "addr:city": "FAYETTE", "addr:country": "US", "addr:full": "215 E MEAD ST", "addr:postcode": "39069", "addr:state": "MS", "brand": "USPS", "collection_times": "Mo-Fr 16:30; Sa 10:30", "name": "USPS COLLECTION BOX - BLUE BOX", "note": "ON 12/24 AND 12/31, THIS BOX MAY BE COLLECTED AS EARLY AS 12 NOON.", "ref": "3906900001"}, "type": "Feature"}
{"geometry": {"coordinates": [-91.059508108, 31.712765017], "type": "Point"}, "id": "woxD3xlqciZ4qSA1XXmzOt2iKbU=", "properties": {"@spider": "usps_collection_boxes", "addr:city": "FAYETTE", "addr:country": "US", "addr:full": "215 E MEAD ST", "addr:postcode": "39069", "addr:state": "MS", "brand": "USPS", "collection_times": "Mo-Fr 16:30; Sa 10:30", "name": "USPS COLLECTION BOX - PO LOBBY", "note": "ON 12/24 AND 12/31, THIS BOX MAY BE COLLECTED AS EARLY AS 12 NOON.", "ref": "3906900003"}, "type": "Feature"}
{"geometry": {"coordinates": [-91.059508108, 31.712765017], "type": "Point"}, "id": "TMST7qsxIVJskkeHIBEogbzMO-g=", "properties": {"@spider": "usps_collection_boxes", "addr:city": "FAYETTE", "addr:country": "US", "addr:full": "215 E MEAD ST", "addr:postcode": "39069", "addr:state": "MS", "brand": "USPS", "collection_times": "Mo-Fr 16:30; Sa 10:30", "name": "USPS COLLECTION BOX - BLUE BOX", "note": "ON 12/24 AND 12/31, THIS BOX MAY BE COLLECTED AS EARLY AS 12 NOON.", "ref": "3906900004"}, "type": "Feature"}
{"geometry": {"coordinates": [-91.059508108, 31.712765017], "type": "Point"}, "id": "pnaPytaZPUIFqf3OCYEFJ3ZMW-M=", "properties": {"@spider": "usps_collection_boxes", "addr:city": "FAYETTE", "addr:country": "US", "addr:full": "215 E MEAD ST", "addr:postcode": "39069", "addr:state": "MS", "brand": "USPS", "collection_times": "Mo-Fr 16:15; Sa 10:30", "name": "USPS COLLECTION BOX - PO LOBBY", "note": "ON 12/24 AND 12/31, THIS BOX MAY BE COLLECTED AS EARLY AS 12 NOON.", "ref": "3906900007"}, "type": "Feature"}
{"geometry": {"coordinates": [-90.311039954, 32.542833762], "type": "Point"}, "id": "saaf1jqayohhAg9zPIdLuVa3qEs=", "properties": {"@spider": "usps_collection_boxes", "addr:city": "FLORA", "addr:country": "US", "addr:full": "4852 MAIN ST", "addr:postcode": "39071", "addr:state": "MS", "brand": "USPS", "collection_times": "Mo-Fr 16:00; Sa 10:30", "name": "USPS COLLECTION BOX - BLUE BOX", "note": "ON 12/24 AND 12/31, THIS BOX MAY BE COLLECTED AS EARLY AS 12 NOON.", "ref": "3907100001"}, "type": "Feature"}
{"geometry": {"coordinates": [-90.311039954, 32.542833762], "type": "Point"}, "id": "OTNTVbH00VnF9Ful5CovxYz194s=", "properties": {"@spider": "usps_collection_boxes", "addr:city": "FLORA", "addr:country": "US", "addr:full": "4852 MAIN ST", "addr:postcode": "39071", "addr:state": "MS", "brand": "USPS", "collection_times": "Mo-Fr 16:00; Sa 10:30", "name": "USPS COLLECTION BOX - PO LOBBY", "note": "ON 12/24 AND 12/31, THIS BOX MAY BE COLLECTED AS EARLY AS 12 NOON.", "ref": "3907100002"}, "type": "Feature"}
{"geometry": {"coordinates": [-90.311039954, 32.542833762], "type": "Point"}, "id": "4k5MvtH2ZcKwnIRShr6G_VzZHfo=", "properties": {"@spider": "usps_collection_boxes", "addr:city": "FLORA", "addr:country": "US", "addr:full": "4852 MAIN ST", "addr:postcode": "39071", "addr:state": "MS", "brand": "USPS", "collection_times": "Mo-Fr 16:00; Sa 10:30", "name": "USPS COLLECTION BOX - PO LOBBY", "note": "ON 12/24 AND 12/31, THIS BOX MAY BE COLLECTED AS EARLY AS 12 NOON.", "ref": "3907100004"}, "type": "Feature"}
{"geometry": {"coordinates": [-90.131481439, 32.151034572], "type": "Point"}, "id": "iKU2Xx2fkYyhguxzeAHtdKUOon8=", "properties": {"@spider": "usps_collection_boxes", "addr:city": "FLORENCE", "addr:country": "US", "addr:full": "250 S CHURCH ST", "addr:postcode": "39073", "addr:state": "MS", "brand": "USPS", "collection_times": "Mo-Fr 17:00; Sa 10:30", "name": "USPS COLLECTION BOX - BLUE BOX", "note": "ON 12/24 AND 12/31, THIS BOX MAY BE COLLECTED AS EARLY AS 12 NOON.", "ref": "3907300002"}, "type": "Feature"}
{"geometry": {"coordinates": [-90.131481439, 32.151034572], "type": "Point"}, "id": "lHo505azUovXz3fHBHOEz_Myqhg=", "properties": {"@spider": "usps_collection_boxes", "addr:city": "FLORENCE", "addr:country": "US", "addr:full": "250 S CHURCH ST", "addr:postcode": "39073", "addr:state": "MS", "brand": "USPS", "collection_times": "Mo-Fr 17:00; Sa 10:30", "name": "USPS COLLECTION BOX - BLUE BOX", "note": "ON 12/24 AND 12/31, THIS BOX MAY BE COLLECTED AS EARLY AS 12 NOON.", "ref": "3907300003"}, "type": "Feature"}
{"geometry": {"coordinates": [-90.131481439, 32.151034572], "type": "Point"}, "id": "YFBIR88NM70PNklBIHUXKkGcuS0=", "properties": {"@spider": "usps_collection_boxes", "addr:city": "FLORENCE", "addr:country": "US", "addr:full": "250 S CHURCH ST", "addr:postcode": "39073", "addr:state": "MS", "brand": "USPS", "collection_times": "Mo-Fr 17:00; Sa 10:30", "name": "USPS COLLECTION BOX - PO LOBBY", "note": "ON 12/24 AND 12/31, THIS BOX MAY BE COLLECTED AS EARLY AS 12 NOON.", "ref": "3907300006"}, "type": "Feature"}
{"geometry": {"coordinates": [-90.1258872, 32.154647], "type": "Point"}, "id": "whR82wLHcLs4cnQ1_131otOTdHk=", "properties": {"@spider": "usps_collection_boxes", "addr:city": "FLORENCE", "addr:country": "US", "addr:full": "3091 HIGHWAY 49 S", "addr:postcode": "39073", "addr:state": "MS", "brand": "USPS", "collection_times": "Mo-Fr 08:30", "name": "USPS COLLECTION BOX - BLUE BOX", "ref": "3907300010"}, "type": "Feature"}
{"geometry": {"coordinates": [-90.131481439, 32.151034572], "type": "Point"}, "id": "g5tw_6SVr0_-YZw-fCk0KK6WqlI=", "properties": {"@spider": "usps_collection_boxes", "addr:city": "FLORENCE", "addr:country": "US", "addr:full": "250 S CHURCH ST", "addr:postcode": "39073", "addr:state": "MS", "brand": "USPS", "collection_times": "Mo-Fr 17:00; Sa 10:30", "name": "USPS COLLECTION BOX - BLUE BOX", "note": "ON 12/24 AND 12/31, THIS BOX MAY BE COLLECTED AS EARLY AS 12 NOON.", "ref": "3907300017"}, "type": "Feature"}
{"geometry": {"coordinates": [-90.131481439, 32.151034572], "type": "Point"}, "id": "kKbsDWtPJR_RRODrKfHALn83eiw=", "properties": {"@spider": "usps_collection_boxes", "addr:city": "FLORENCE", "addr:country": "US", "addr:full": "250 S CHURCH ST", "addr:postcode": "39073", "addr:state": "MS", "brand": "USPS", "collection_times": "Mo-Fr 17:00; Sa 10:30", "name": "USPS COLLECTION BOX - PO LOBBY", "note": "ON 12/24 AND 12/31, THIS BOX MAY BE COLLECTED AS EARLY AS 12 NOON.", "ref": "3907300018"}, "type": "Feature"}
{"geometry": {"coordinates": [-90.131481439, 32.151034572], "type": "Point"}, "id": "o1d4FKWCdd_Lagxhw51mJhs7Tkw=", "properties": {"@spider": "usps_collection_boxes", "addr:city": "FLORENCE", "addr:country": "US", "addr:full": "250 S CHURCH ST", "addr:postcode": "39073", "addr:state": "MS", "brand": "USPS", "collection_times": "Mo-Fr 17:00; Sa 10:30", "name": "USPS COLLECTION BOX - PO LOBBY", "note": "ON 12/24 AND 12/31, THIS BOX MAY BE COLLECTED AS EARLY AS 12 NOON.", "ref": "3907300019"}, "type": "Feature"}
{"geometry": {"coordinates": [-89.472955, 32.363415], "type": "Point"}, "id": "x2VB22AelKbg35oPFJgCTXqOZ_s=", "properties": {"@spider": "usps_collection_boxes", "addr:city": "FOREST", "addr:country": "US", "addr:full": "224 S DAVIS AVE", "addr:postcode": "39074", "addr:state": "MS", "brand": "USPS", "collection_times": "Mo-Fr 16:00; Sa 10:00", "name": "USPS COLLECTION BOX - BLUE BOX", "note": "ON 12/24 AND 12/31, THIS BOX MAY BE COLLECTED AS EARLY AS 12 NOON.", "ref": "3907400004"}, "type": "Feature"}
{"geometry": {"coordinates": [-89.472955, 32.363412], "type": "Point"}, "id": "dx2EtdDJ4hgah3I_pOTUn8vDrsI=", "properties": {"@spider": "usps_collection_boxes", "addr:city": "FOREST", "addr:country": "US", "addr:full": "224 S DAVIS AVE", "addr:postcode": "39074", "addr:state": "MS", "brand": "USPS", "collection_times": "Mo-Fr 16:00; Sa 10:00", "name": "USPS COLLECTION BOX - BLUE BOX", "note": "ON 12/24 AND 12/31, THIS BOX MAY BE COLLECTED AS EARLY AS 12 NOON.", "ref": "3907400005"}, "type": "Feature"}
{"geometry": {"coordinates": [-89.472028155, 32.363041454], "type": "Point"}, "id": "3w1xuZK8q9TbUUT0fad5sfEjXY0=", "properties": {"@spider": "usps_collection_boxes", "addr:city": "FOREST", "addr:country": "US", "addr:full": "313 E SECOND ST", "addr:postcode": "39074", "addr:state": "MS", "brand": "USPS", "collection_times": "Mo-Fr 16:00; Sa 10:00", "name": "USPS COLLECTION BOX - PO LOBBY", "note": "ON 12/24 AND 12/31, THIS BOX MAY BE COLLECTED AS EARLY AS 12 NOON.", "ref": "3907400016"}, "type": "Feature"}
{"geometry": {"coordinates": [-89.472028155, 32.363041454], "type": "Point"}, "id": "-eZXe4Ywgki_PnJvLn27tqw1uCw=", "properties": {"@spider": "usps_collection_boxes", "addr:city": "FOREST", "addr:country": "US", "addr:full": "313 E SECOND ST", "addr:postcode": "39074", "addr:state": "MS", "brand": "USPS", "collection_times": "Mo-Fr 16:00", "name": "USPS COLLECTION BOX - PO LOBBY", "note": "ON 12/24 AND 12/31, THIS BOX MAY BE COLLECTED AS EARLY AS 12 NOON.", "ref": "3907400019"}, "type": "Feature"}
{"geometry": {"coordinates": [-90.389541525, 31.931948107], "type": "Point"}, "id": "RQcpjqX1iZkaerICp834G9jm9GY=", "properties": {"@spider": "usps_collection_boxes", "addr:city": "GALLMAN", "addr:country": "US", "addr:full": "20140 S HIGHWAY 51", "addr:postcode": "39077", "addr:state": "MS", "brand": "USPS", "collection_times": "Mo-Fr 11:30", "name": "USPS COLLECTION BOX - BLUE BOX", "ref": "3907700001"}, "type": "Feature"}
{"geometry": {"coordinates": [-90.389541525, 31.931948107], "type": "Point"}, "id": "a-jhwnurEddZUvPtSp3Z-StS0SE=", "properties": {"@spider": "usps_collection_boxes", "addr:city": "GALLMAN", "addr:country": "US", "addr:full": "20140 S HIGHWAY 51", "addr:postcode": "39077", "addr:state": "MS", "brand": "USPS", "collection_times": "Mo-Fr 11:30; Sa 08:00", "name": "USPS COLLECTION BOX - PO LOBBY", "ref": "3907700002"}, "type": "Feature"}
{"geometry": {"coordinates": [-90.389541525, 31.931948107], "type": "Point"}, "id": "nQsj0FVSRvmrnLtZgk_pvHyNZ1s=", "properties": {"@spider": "usps_collection_boxes", "addr:city": "GALLMAN", "addr:country": "US", "addr:full": "20140 S HIGHWAY 51", "addr:postcode": "39077", "addr:state": "MS", "brand": "USPS", "collection_times": "Mo-Fr 11:30", "name": "USPS COLLECTION BOX - PO LOBBY", "ref": "3907700004"}, "type": "Feature"}
{"geometry": {"coordinates": [-90.165530274, 31.869444576], "type": "Point"}, "id": "o8JTlcLg3jDE26zsF7CMOxapLz8=", "properties": {"@spider": "usps_collection_boxes", "addr:city": "GEORGETOWN", "addr:country": "US", "addr:full": "1052 BROAD ST", "addr:postcode": "39078", "addr:state": "MS", "brand": "USPS", "collection_times": "Mo-Fr 12:00", "name": "USPS COLLECTION BOX - BLUE BOX", "ref": "3907800001"}, "type": "Feature"}
{"geometry": {"coordinates": [-90.165530274, 31.869444576], "type": "Point"}, "id": "sVzED9w3-8lMFQv4hPcwCQtgTfM=", "properties": {"@spider": "usps_collection_boxes", "addr:city": "GEORGETOWN", "addr:country": "US", "addr:full": "1052 BROAD ST", "addr:postcode": "39078", "addr:state": "MS", "brand": "USPS", "collection_times": "Mo-Fr 12:00; Sa 08:00", "name": "USPS COLLECTION BOX - PO LOBBY", "ref": "3907800002"}, "type": "Feature"}
{"geometry": {"coordinates": [-90.165530274, 31.869444576], "type": "Point"}, "id": "AW9BwHt9Eb5uplj9kBCKXeY62yM=", "properties": {"@spider": "usps_collection_boxes", "addr:city": "GEORGETOWN", "addr:country": "US", "addr:full": "1052 BROAD ST", "addr:postcode": "39078", "addr:state": "MS", "brand": "USPS", "collection_times": "Mo-Fr 12:00", "name": "USPS COLLECTION BOX - PO LOBBY", "ref": "3907800004"}, "type": "Feature"}
{"geometry": {"coordinates": [-89.908072199, 32.968905734], "type": "Point"}, "id": "Si4xV6C-7fMABuqcmU5ZiXj8kYk=", "properties": {"@spider": "usps_collection_boxes", "addr:city": "GOODMAN", "addr:country": "US", "addr:full": "9897 MAIN ST", "addr:postcode": "39079", "addr:state": "MS", "brand": "USPS", "collection_times": "Mo-Fr 14:30", "name": "USPS COLLECTION BOX - BLUE BOX", "note": "ON 12/24 AND 12/31, THIS BOX MAY BE COLLECTED AS EARLY AS 12 NOON.", "ref": "3907900001"}, "type": "Feature"}
{"geometry": {"coordinates": [-89.908072199, 32.968905734], "type": "Point"}, "id": "-pF_Qr5jNPeaIiB8eDnhSlodZ2c=", "properties": {"@spider": "usps_collection_boxes", "addr:city": "GOODMAN", "addr:country": "US", "addr:full": "9897 MAIN ST", "addr:postcode": "39079", "addr:state": "MS", "brand": "USPS", "collection_times": "Mo-Fr 14:30", "name": "USPS COLLECTION BOX - PO LOBBY", "note": "ON 12/24 AND 12/31, THIS BOX MAY BE COLLECTED AS EARLY AS 12 NOON.", "ref": "3907900004"}, "type": "Feature"}
{"geometry": {"coordinates": [-89.496587981, 32.481784787], "type": "Point"}, "id": "z472L7G9KkvSRo4q8gmqfolvunE=", "properties": {"@spider": "usps_collection_boxes", "addr:city": "HARPERVILLE", "addr:country": "US", "addr:full": "9190 OLD HILLSBORO RD", "addr:postcode": "39080", "addr:state": "MS", "brand": "USPS", "collection_times": "Mo-Fr 14:00", "name": "USPS COLLECTION BOX - BLUE BOX", "note": "ON 12/24 AND 12/31, THIS BOX MAY BE COLLECTED AS EARLY AS 12 NOON.", "ref": "3908000001"}, "type": "Feature"}
{"geometry": {"coordinates": [-89.496587981, 32.481784787], "type": "Point"}, "id": "9Lehy58x2f5Rwv6dYu81QUhvm0E=", "properties": {"@spider": "usps_collection_boxes", "addr:city": "HARPERVILLE", "addr:country": "US", "addr:full": "9190 OLD HILLSBORO RD", "addr:postcode": "39080", "addr:state": "MS", "brand": "USPS", "collection_times": "Mo-Fr 14:00", "name": "USPS COLLECTION BOX - PO LOBBY", "note": "ON 12/24 AND 12/31, THIS BOX MAY BE COLLECTED AS EARLY AS 12 NOON.", "ref": "3908000004"}, "type": "Feature"}
{"geometry": {"coordinates": [-90.079400972, 31.972428747], "type": "Point"}, "id": "ZRBENGelkiqg1KhwBT8xtO_g0ew=", "properties": {"@spider": "usps_collection_boxes", "addr:city": "HARRISVILLE", "addr:country": "US", "addr:full": "1569 SIMPSON HIGHWAY 469", "addr:postcode": "39082", "addr:state": "MS", "brand": "USPS", "collection_times": "Mo-Fr 12:00", "name": "USPS COLLECTION BOX - BLUE BOX", "ref": "3908200001"}, "type": "Feature"}
{"geometry": {"coordinates": [-90.079400972, 31.972428747], "type": "Point"}, "id": "06iXiZyUQ5GdYV1Cz6IsmKtZFN4=", "properties": {"@spider": "usps_collection_boxes", "addr:city": "HARRISVILLE", "addr:country": "US", "addr:full": "1569 SIMPSON HIGHWAY 469", "addr:postcode": "39082", "addr:state": "MS", "brand": "USPS", "collection_times": "Mo-Fr 12:00; Sa 08:00", "name": "USPS COLLECTION BOX - PO LOBBY", "ref": "3908200002"}, "type": "Feature"}
{"geometry": {"coordinates": [-90.079400972, 31.972428747], "type": "Point"}, "id": "8mTAZqHCkq9QTdRntRrDIbTw0Wg=", "properties": {"@spider": "usps_collection_boxes", "addr:city": "HARRISVILLE", "addr:country": "US", "addr:full": "1569 SIMPSON HIGHWAY 469", "addr:postcode": "39082", "addr:state": "MS", "brand": "USPS", "collection_times": "Mo-Fr 12:00", "name": "USPS COLLECTION BOX - PO LOBBY", "ref": "3908200004"}, "type": "Feature"}
{"geometry": {"coordinates": [-90.396566602, 31.859546234], "type": "Point"}, "id": "aqk7TzmJ6jsznfAhJi8q-F6N1UA=", "properties": {"@spider": "usps_collection_boxes", "addr:city": "HAZLEHURST", "addr:country": "US", "addr:full": "130 CALDWELL DR", "addr:postcode": "39083", "addr:state": "MS", "brand": "USPS", "collection_times": "Mo-Fr 16:30; Sa 11:00", "name": "USPS COLLECTION BOX - BLUE BOX", "note": "ON 12/24 AND 12/31, THIS BOX MAY BE COLLECTED AS EARLY AS 12 NOON.", "ref": "3908300003"}, "type": "Feature"}
{"geometry": {"coordinates": [-90.4050083, 31.873955], "type": "Point"}, "id": "V34pWWDGjpdNGThutx2Xb30YqGQ=", "properties": {"@spider": "usps_collection_boxes", "addr:city": "HAZLEHURST", "addr:country": "US", "addr:full": "28060 HIGHWAY 28", "addr:postcode": "39083", "addr:state": "MS", "brand": "USPS", "collection_times": "Mo-Fr 11:00", "name": "USPS COLLECTION BOX - BLUE BOX", "ref": "3908300005"}, "type": "Feature"}
{"geometry": {"coordinates": [-90.4050112, 31.873948], "type": "Point"}, "id": "lou6ItFpHjusDgczdmZYEoYdWms=", "properties": {"@spider": "usps_collection_boxes", "addr:city": "HAZLEHURST", "addr:country": "US", "addr:full": "28060 HIGHWAY 28", "addr:postcode": "39083", "addr:state": "MS", "brand": "USPS", "collection_times": "Mo-Fr 11:00", "name": "USPS COLLECTION BOX - BLUE BOX", "ref": "3908300009"}, "type": "Feature"}
{"geometry": {"coordinates": [-90.396566602, 31.859546234], "type": "Point"}, "id": "F5e4VudM1-nOA-rS_9_DXzPCn1Y=", "properties": {"@spider": "usps_collection_boxes", "addr:city": "HAZLEHURST", "addr:country": "US", "addr:full": "130 CALDWELL DR", "addr:postcode": "39083", "addr:state": "MS", "brand": "USPS", "collection_times": "Mo-Fr 16:30; Sa 11:00", "name": "USPS COLLECTION BOX - BLUE BOX", "note": "ON 12/24 AND 12/31, THIS BOX MAY BE COLLECTED AS EARLY AS 12 NOON.", "ref": "3908300010"}, "type": "Feature"}
{"geometry": {"coordinates": [-90.396566602, 31.859546234], "type": "Point"}, "id": "dMTXDovnoih2oZur9YJ5CIlubas=", "properties": {"@spider": "usps_collection_boxes", "addr:city": "HAZLEHURST", "addr:country": "US", "addr:full": "130 CALDWELL DR", "addr:postcode": "39083", "addr:state": "MS", "brand": "USPS", "collection_times": "Mo-Fr 16:30; Sa 11:00", "name": "USPS COLLECTION BOX - PO LOBBY", "note": "ON 12/24 AND 12/31, THIS BOX MAY BE COLLECTED AS EARLY AS 12 NOON.", "ref": "3908300012"}, "type": "Feature"}
{"geometry": {"coordinates": [-90.396566602, 31.859546234], "type": "Point"}, "id": "2VzsqNTi53SUywwVMnP11Z9tVMc=", "properties": {"@spider": "usps_collection_boxes", "addr:city": "HAZLEHURST", "addr:country": "US", "addr:full": "130 CALDWELL DR", "addr:postcode": "39083", "addr:state": "MS", "brand": "USPS", "collection_times": "Mo-Fr 16:30; Sa 11:00", "name": "USPS COLLECTION BOX - PO LOBBY", "note": "ON 12/24 AND 12/31, THIS BOX MAY BE COLLECTED AS EARLY AS 12 NOON.", "ref": "3908300014"}, "type": "Feature"}
{"geometry": {"coordinates": [-90.839597, 31.961031], "type": "Point"}, "id": "Yil3X2Ma9nNCeltkzoOOuFYoYbY=", "properties": {"@spider": "usps_collection_boxes", "addr:city": "HERMANVILLE", "addr:country": "US", "addr:full": "13071 PATTISON HERMANVILLE RD", "addr:postcode": "39086", "addr:state": "MS", "brand": "USPS", "collection_times": "Mo-Fr 14:30; Sa 09:00", "name": "USPS COLLECTION BOX - BLUE BOX", "note": "ON 12/24 AND 12/31, THIS BOX MAY BE COLLECTED AS EARLY AS 12 NOON.", "ref": "3908600001"}, "type": "Feature"}
{"geometry": {"coordinates": [-90.8395825517, 31.9609260572], "type": "Point"}, "id": "TNGsMFn4CEnwJjfBGWRtY_eiaUM=", "properties": {"@spider": "usps_collection_boxes", "addr:city": "HERMANVILLE", "addr:country": "US", "addr:full": "13071 PATTISON HERMANVILLE RD", "addr:postcode": "39086", "addr:state": "MS", "brand": "USPS", "collection_times": "Mo-Fr 14:30", "name": "USPS COLLECTION BOX - PO LOBBY", "note": "ON 12/24 AND 12/31, THIS BOX MAY BE COLLECTED AS EARLY AS 12 NOON.", "ref": "3908600004"}, "type": "Feature"}
{"geometry": {"coordinates": [-89.511753397, 32.45925567], "type": "Point"}, "id": "kOuWA-M1D5IQwH33Wub5e53no-8=", "properties": {"@spider": "usps_collection_boxes", "addr:city": "HILLSBORO", "addr:country": "US", "addr:full": "61 HILLSBORO LUDLOW RD", "addr:postcode": "39087", "addr:state": "MS", "brand": "USPS", "collection_times": "Mo-Fr 10:00", "name": "USPS COLLECTION BOX - BLUE BOX", "ref": "3908700001"}, "type": "Feature"}
{"geometry": {"coordinates": [-89.511753397, 32.45925567], "type": "Point"}, "id": "DEuf1zOxEV83uI79B6DWOuAzhqs=", "properties": {"@spider": "usps_collection_boxes", "addr:city": "HILLSBORO", "addr:country": "US", "addr:full": "61 HILLSBORO LUDLOW RD", "addr:postcode": "39087", "addr:state": "MS", "brand": "USPS", "collection_times": "Mo-Fr 10:00", "name": "USPS COLLECTION BOX - PO LOBBY", "ref": "3908700004"}, "type": "Feature"}
{"geometry": {"coordinates": [-90.708116062, 32.82139266], "type": "Point"}, "id": "4GjEnQZKG3Aqv4YXoJiRQkTpUa0=", "properties": {"@spider": "usps_collection_boxes", "addr:city": "HOLLY BLUFF", "addr:country": "US", "addr:full": "939 HIGHWAY 16 W", "addr:postcode": "39088", "addr:state": "MS", "brand": "USPS", "collection_times": "Mo-Fr 12:00", "name": "USPS COLLECTION BOX - BLUE BOX", "ref": "3908800001"}, "type": "Feature"}
{"geometry": {"coordinates": [-90.708116062, 32.82139266], "type": "Point"}, "id": "ce5rd-P-JpszaQQmlPNXwMJkiKg=", "properties": {"@spider": "usps_collection_boxes", "addr:city": "HOLLY BLUFF", "addr:country": "US", "addr:full": "939 HIGHWAY 16 W", "addr:postcode": "39088", "addr:state": "MS", "brand": "USPS", "collection_times": "Mo-Fr 12:00", "name": "USPS COLLECTION BOX - PO LOBBY", "ref": "3908800004"}, "type": "Feature"}
{"geometry": {"coordinates": [-89.574609675, 33.061597913], "type": "Point"}, "id": "VXFnD0Rwgg3JnsVcKIs2glfBSbs=", "properties": {"@spider": "usps_collection_boxes", "addr:city": "KOSCIUSKO", "addr:country": "US", "addr:full": "65 VETERANS MEMORIAL DR", "addr:postcode": "39090", "addr:state": "MS", "brand": "USPS", "collection_times": "Mo-Fr 16:30; Sa 10:30", "name": "USPS COLLECTION BOX - BLUE BOX", "note": "ON 12/24 AND 12/31, THIS BOX MAY BE COLLECTED AS EARLY AS 12 NOON.", "ref": "3909000010"}, "type": "Feature"}
{"geometry": {"coordinates": [-89.574609675, 33.061597913], "type": "Point"}, "id": "Rvm6TYu2mmrLwad3fZsqvmWK4xQ=", "properties": {"@spider": "usps_collection_boxes", "addr:city": "KOSCIUSKO", "addr:country": "US", "addr:full": "65 VETERANS MEMORIAL DR", "addr:postcode": "39090", "addr:state": "MS", "brand": "USPS", "collection_times": "Mo-Fr 16:30; Sa 10:30", "name": "USPS COLLECTION BOX - BLUE BOX", "note": "ON 12/24 AND 12/31, THIS BOX MAY BE COLLECTED AS EARLY AS 12 NOON.", "ref": "3909000011"}, "type": "Feature"}
{"geometry": {"coordinates": [-89.574609675, 33.061597913], "type": "Point"}, "id": "yDLHqzRnJhfEaCU-uqTg0gHR52Q=", "properties": {"@spider": "usps_collection_boxes", "addr:city": "KOSCIUSKO", "addr:country": "US", "addr:full": "65 VETERANS MEMORIAL DR", "addr:postcode": "39090", "addr:state": "MS", "brand": "USPS", "collection_times": "Mo-Fr 16:30; Sa 10:30", "name": "USPS COLLECTION BOX - PO LOBBY", "note": "ON 12/24 AND 12/31, THIS BOX MAY BE COLLECTED AS EARLY AS 12 NOON.", "ref": "3909000013"}, "type": "Feature"}
{"geometry": {"coordinates": [-89.6632292811, 32.858963535], "type": "Point"}, "id": "OkSDbqWMimV_dfa420jjVAl0YFM=", "properties": {"@spider": "usps_collection_boxes", "addr:city": "KOSCIUSKO", "addr:country": "US", "addr:full": "7526 HIGHWAY 429", "addr:postcode": "39090", "addr:state": "MS", "brand": "USPS", "collection_times": "Mo-Sa 10:00", "name": "USPS COLLECTION BOX - BLUE BOX", "ref": "3909000016"}, "type": "Feature"}
{"geometry": {"coordinates": [-89.574609675, 33.061597913], "type": "Point"}, "id": "Almof1C7ZZ-l7A1ArYipnfnMRt0=", "properties": {"@spider": "usps_collection_boxes", "addr:city": "KOSCIUSKO", "addr:country": "US", "addr:full": "65 VETERANS MEMORIAL DR", "addr:postcode": "39090", "addr:state": "MS", "brand": "USPS", "collection_times": "Mo-Fr 16:30; Sa 10:30", "name": "USPS COLLECTION BOX - PO LOBBY", "note": "ON 12/24 AND 12/31, THIS BOX MAY BE COLLECTED AS EARLY AS 12 NOON.", "ref": "3909000018"}, "type": "Feature"}
{"geometry": {"coordinates": [-89.330468999, 32.341995184], "type": "Point"}, "id": "lCCioze3kxdt6loM6susSEZ8Y0k=", "properties": {"@spider": "usps_collection_boxes", "addr:city": "LAKE", "addr:country": "US", "addr:full": "7621 LAKE NORRIS RD", "addr:postcode": "39092", "addr:state": "MS", "brand": "USPS", "collection_times": "Mo-Fr 15:45", "name": "USPS COLLECTION BOX - BLUE BOX", "note": "ON 12/24 AND 12/31, THIS BOX MAY BE COLLECTED AS EARLY AS 12 NOON.", "ref": "3909200001"}, "type": "Feature"}
{"geometry": {"coordinates": [-89.330468999, 32.341995184], "type": "Point"}, "id": "hYJLjG8b-QhQJKQeevazdLSx7T8=", "properties": {"@spider": "usps_collection_boxes", "addr:city": "LAKE", "addr:country": "US", "addr:full": "7621 LAKE NORRIS RD", "addr:postcode": "39092", "addr:state": "MS", "brand": "USPS", "collection_times": "Mo-Fr 16:00", "name": "USPS COLLECTION BOX - PO LOBBY", "note": "ON 12/24 AND 12/31, THIS BOX MAY BE COLLECTED AS EARLY AS 12 NOON.", "ref": "3909200006"}, "type": "Feature"}
{"geometry": {"coordinates": [-89.600707723, 32.588088856], "type": "Point"}, "id": "1HS-ybzsg6RrK9uFM-enRM0cYIw=", "properties": {"@spider": "usps_collection_boxes", "addr:city": "LENA", "addr:country": "US", "addr:full": "51 SUNNYSIDE DR", "addr:postcode": "39094", "addr:state": "MS", "brand": "USPS", "collection_times": "Mo-Fr 14:30", "name": "USPS COLLECTION BOX - BLUE BOX", "note": "ON 12/24 AND 12/31, THIS BOX MAY BE COLLECTED AS EARLY AS 12 NOON.", "ref": "3909400001"}, "type": "Feature"}
{"geometry": {"coordinates": [-89.600707723, 32.588088856], "type": "Point"}, "id": "wslzeJqRYta5crndB3MRfWi3AU4=", "properties": {"@spider": "usps_collection_boxes", "addr:city": "LENA", "addr:country": "US", "addr:full": "51 SUNNYSIDE DR", "addr:postcode": "39094", "addr:state": "MS", "brand": "USPS", "collection_times": "Mo-Fr 14:30", "name": "USPS COLLECTION BOX - PO LOBBY", "note": "ON 12/24 AND 12/31, THIS BOX MAY BE COLLECTED AS EARLY AS 12 NOON.", "ref": "3909400006"}, "type": "Feature"}
{"geometry": {"coordinates": [-90.053328573, 33.115141666], "type": "Point"}, "id": "ma2s7xHUTnIrrliz3ctZrtB2uFI=", "properties": {"@spider": "usps_collection_boxes", "addr:city": "LEXINGTON", "addr:country": "US", "addr:full": "107 TCHULA ST", "addr:postcode": "39095", "addr:state": "MS", "brand": "USPS", "collection_times": "Mo-Fr 16:00; Sa 10:00", "name": "USPS COLLECTION BOX - BLUE BOX", "note": "ON 12/24 AND 12/31, THIS BOX MAY BE COLLECTED AS EARLY AS 12 NOON.", "ref": "3909500004"}, "type": "Feature"}
{"geometry": {"coordinates": [-90.053328573, 33.115141666], "type": "Point"}, "id": "QNMe5WEPdT_-haTvQkzUAo1lr0E=", "properties": {"@spider": "usps_collection_boxes", "addr:city": "LEXINGTON", "addr:country": "US", "addr:full": "107 TCHULA ST", "addr:postcode": "39095", "addr:state": "MS", "brand": "USPS", "collection_times": "Mo-Fr 16:00; Sa 10:00", "name": "USPS COLLECTION BOX - PO LOBBY", "note": "ON 12/24 AND 12/31, THIS BOX MAY BE COLLECTED AS EARLY AS 12 NOON.", "ref": "3909500005"}, "type": "Feature"}
{"geometry": {"coordinates": [-90.053328573, 33.115141666], "type": "Point"}, "id": "Kyh6fIbyeGNHirqobnqd2d7fPYQ=", "properties": {"@spider": "usps_collection_boxes", "addr:city": "LEXINGTON", "addr:country": "US", "addr:full": "107 TCHULA ST", "addr:postcode": "39095", "addr:state": "MS", "brand": "USPS", "collection_times": "Mo-Fr 16:00; Sa 10:00", "name": "USPS COLLECTION BOX - BLUE BOX", "note": "ON 12/24 AND 12/31, THIS BOX MAY BE COLLECTED AS EARLY AS 12 NOON.", "ref": "3909500006"}, "type": "Feature"}
{"geometry": {"coordinates": [-90.053328573, 33.115141666], "type": "Point"}, "id": "m-_mKAcslnO6P0ZoF9C3DsqZClQ=", "properties": {"@spider": "usps_collection_boxes", "addr:city": "LEXINGTON", "addr:country": "US", "addr:full": "107 TCHULA ST", "addr:postcode": "39095", "addr:state": "MS", "brand": "USPS", "collection_times": "Mo-Fr 16:15; Sa 10:00", "name": "USPS COLLECTION BOX - PO LOBBY", "note": "ON 12/24 AND 12/31, THIS BOX MAY BE COLLECTED AS EARLY AS 12 NOON.", "ref": "3909500009"}, "type": "Feature"}
{"geometry": {"coordinates": [-91.048485136, 31.824526534], "type": "Point"}, "id": "ThK1hNIfiikkGDTpUYJtlV_HNUc=", "properties": {"@spider": "usps_collection_boxes", "addr:city": "LORMAN", "addr:country": "US", "addr:full": "18933 HIGHWAY 61", "addr:postcode": "39096", "addr:state": "MS", "brand": "USPS", "collection_times": "Mo-Fr 16:00", "name": "USPS COLLECTION BOX - BLUE BOX", "note": "ON 12/24 AND 12/31, THIS BOX MAY BE COLLECTED AS EARLY AS 12 NOON.", "ref": "3909600001"}, "type": "Feature"}
{"geometry": {"coordinates": [-91.048485136, 31.824526534], "type": "Point"}, "id": "p312F_Gk3E2evWf02WGaTEXPU54=", "properties": {"@spider": "usps_collection_boxes", "addr:city": "LORMAN", "addr:country": "US", "addr:full": "18933 HIGHWAY 61", "addr:postcode": "39096", "addr:state": "MS", "brand": "USPS", "collection_times": "Mo-Fr 15:30; Sa 08:00", "name": "USPS COLLECTION BOX - PO LOBBY", "note": "ON 12/24 AND 12/31, THIS BOX MAY BE COLLECTED AS EARLY AS 12 NOON.", "ref": "3909600002"}, "type": "Feature"}
{"geometry": {"coordinates": [-91.048485136, 31.824526534], "type": "Point"}, "id": "awQe3SxICwE9SVRapz_3nMn_wWc=", "properties": {"@spider": "usps_collection_boxes", "addr:city": "LORMAN", "addr:country": "US", "addr:full": "18933 HIGHWAY 61", "addr:postcode": "39096", "addr:state": "MS", "brand": "USPS", "collection_times": "Mo-Fr 16:00", "name": "USPS COLLECTION BOX - PO LOBBY", "note": "ON 12/24 AND 12/31, THIS BOX MAY BE COLLECTED AS EARLY AS 12 NOON.", "ref": "3909600005"}, "type": "Feature"}
{"geometry": {"coordinates": [-90.582137, 32.965184], "type": "Point"}, "id": "m9bbnHcW7vbkzM5UH7do3kjUF50=", "properties": {"@spider": "usps_collection_boxes", "addr:city": "LOUISE", "addr:country": "US", "addr:full": "1348 MAIN ST", "addr:postcode": "39097", "addr:state": "MS", "brand": "USPS", "collection_times": "Mo-Fr 12:00", "name": "USPS COLLECTION BOX - BLUE BOX", "ref": "3909700001"}, "type": "Feature"}
{"geometry": {"coordinates": [-90.59191346, 32.980915262], "type": "Point"}, "id": "7OFrLTCu5lbY89cNQrW5ZCmgvD8=", "properties": {"@spider": "usps_collection_boxes", "addr:city": "LOUISE", "addr:country": "US", "addr:full": "1378 MAIN ST", "addr:postcode": "39097", "addr:state": "MS", "brand": "USPS", "collection_times": "Mo-Fr 12:00", "name": "USPS COLLECTION BOX - PO LOBBY", "ref": "3909700005"}, "type": "Feature"}
{"geometry": {"coordinates": [-89.712760888, 32.569234522], "type": "Point"}, "id": "FBdlNb2-QSUXwlulUwNbs9kb1Qw=", "properties": {"@spider": "usps_collection_boxes", "addr:city": "LUDLOW", "addr:country": "US", "addr:full": "18 LEE RD", "addr:postcode": "39098", "addr:state": "MS", "brand": "USPS", "collection_times": "Mo-Fr 11:00", "name": "USPS COLLECTION BOX - BLUE BOX", "ref": "3909800001"}, "type": "Feature"}
{"geometry": {"coordinates": [-89.712760888, 32.569234522], "type": "Point"}, "id": "f6TM4uCZQh78BwauIwwSQ2mLkOE=", "properties": {"@spider": "usps_collection_boxes", "addr:city": "LUDLOW", "addr:country": "US", "addr:full": "18 LEE RD", "addr:postcode": "39098", "addr:state": "MS", "brand": "USPS", "collection_times": "Mo-Fr 10:50; Sa 08:00", "name": "USPS COLLECTION BOX - PO LOBBY", "ref": "3909800002"}, "type": "Feature"}
{"geometry": {"coordinates": [-89.712760888, 32.569234522], "type": "Point"}, "id": "8XkogfDm7KU-LqKAiuDbMAyAAog=", "properties": {"@spider": "usps_collection_boxes", "addr:city": "LUDLOW", "addr:country": "US", "addr:full": "18 LEE RD", "addr:postcode": "39098", "addr:state": "MS", "brand": "USPS", "collection_times": "Mo-Fr 11:00", "name": "USPS COLLECTION BOX - PO LOBBY", "ref": "3909800004"}, "type": "Feature"}
