{"geometry": {"coordinates": [-89.345534496, 33.202537584], "type": "Point"}, "id": "UMliw4jxP3mWNcPH-hfA8Z92ym4=", "properties": {"@spider": "usps_collection_boxes", "addr:city": "MCCOOL", "addr:country": "US", "addr:full": "3258 HIGHWAY 407", "addr:postcode": "39108", "addr:state": "MS", "brand": "USPS", "collection_times": "Mo-Fr 15:00", "name": "USPS COLLECTION BOX - BLUE BOX", "note": "ON 12/24 AND 12/31, THIS BOX MAY BE COLLECTED AS EARLY AS 12 NOON.", "ref": "3910800001"}, "type": "Feature"}
{"geometry": {"coordinates": [-89.345534496, 33.202537584], "type": "Point"}, "id": "eJH9c_sf6WePZNKTm0zpYNxufwM=", "properties": {"@spider": "usps_collection_boxes", "addr:city": "MCCOOL", "addr:country": "US", "addr:full": "3258 HIGHWAY 407", "addr:postcode": "39108", "addr:state": "MS", "brand": "USPS", "collection_times": "Mo-Fr 15:00; Sa 08:00", "name": "USPS COLLECTION BOX - PO LOBBY", "note": "ON 12/24 AND 12/31, THIS BOX MAY BE COLLECTED AS EARLY AS 12 NOON.", "ref": "3910800002"}, "type": "Feature"}
{"geometry": {"coordinates": [-89.3455344955, 33.2025375836], "type": "Point"}, "id": "S7gr4FYwVsWFqK9_RGS8FdoQ8tU=", "properties": {"@spider": "usps_collection_boxes", "addr:city": "MCCOOL", "addr:country": "US", "addr:full": "3258 HIGHWAY 407", "addr:postcode": "39108", "addr:state": "MS", "brand": "USPS", "collection_times": "Mo-Fr 15:00", "name": "USPS COLLECTION BOX - PO LOBBY", "note": "ON 12/24 AND 12/31, THIS BOX MAY BE COLLECTED AS EARLY AS 12 NOON.", "ref": "3910800004"}, "type": "Feature"}
{"geometry": {"coordinates": [-89.348517496, 32.678790543], "type": "Point"}, "id": "9eCYK-aQE0E1dbvPcir31iV1_Jk=", "properties": {"@spider": "usps_collection_boxes", "addr:city": "MADDEN", "addr:country": "US", "addr:full": "12424 HIGHWAY 488", "addr:postcode": "39109", "addr:state": "MS", "brand": "USPS", "collection_times": "Mo-Fr 11:00", "name": "USPS COLLECTION BOX - BLUE BOX", "ref": "3910900001"}, "type": "Feature"}
{"geometry": {"coordinates": [-89.348517496, 32.678790543], "type": "Point"}, "id": "cQjzIIWlHsoBtHSeke7DZJkz1pA=", "properties": {"@spider": "usps_collection_boxes", "addr:city": "MADDEN", "addr:country": "US", "addr:full": "12424 HIGHWAY 488", "addr:postcode": "39109", "addr:state": "MS", "brand": "USPS", "collection_times": "Mo-Fr 11:00; Sa 08:00", "name": "USPS COLLECTION BOX - PO LOBBY", "ref": "3910900003"}, "type": "Feature"}
{"geometry": {"coordinates": [-89.348517496, 32.678790543], "type": "Point"}, "id": "0Z9l5eHXGmuDa2694rcgceaaT7c=", "properties": {"@spider": "usps_collection_boxes", "addr:city": "MADDEN", "addr:country": "US", "addr:full": "12424 HIGHWAY 488", "addr:postcode": "39109", "addr:state": "MS", "brand": "USPS", "collection_times": "Mo-Fr 11:00", "name": "USPS COLLECTION BOX - PO LOBBY", "ref": "3910900004"}, "type": "Feature"}
{"geometry": {"coordinates": [-90.112411486, 32.45930008], "type": "Point"}, "id": "cio5GrUaClrvXRplKWAO8cjc4Sg=", "properties": {"@spider": "usps_collection_boxes", "addr:city": "MADISON", "addr:country": "US", "addr:full": "990 HIGHWAY 51", "addr:postcode": "39110", "addr:state": "MS", "brand": "USPS", "collection_times": "Mo-Fr 17:45; Sa 13:00", "name": "USPS COLLECTION BOX - BLUE BOX", "note": "ON 12/24 AND 12/31, THIS BOX MAY BE COLLECTED AS EARLY AS 12 NOON.", "ref": "3911000002"}, "type": "Feature"}
{"geometry": {"coordinates": [-90.112411486, 32.45930008], "type": "Point"}, "id": "QwL8RS6QPQvJacAAdOEAeicCaXA=", "properties": {"@spider": "usps_collection_boxes", "addr:city": "MADISON", "addr:country": "US", "addr:full": "990 HIGHWAY 51", "addr:postcode": "39110", "addr:state": "MS", "brand": "USPS", "collection_times": "Mo-Fr 17:45; Sa 13:00", "name": "USPS COLLECTION BOX - BLUE BOX", "note": "ON 12/24 AND 12/31, THIS BOX MAY BE COLLECTED AS EARLY AS 12 NOON.", "ref": "3911000006"}, "type": "Feature"}
{"geometry": {"coordinates": [-90.112411486, 32.45930008], "type": "Point"}, "id": "SMmzZYJYO1TKzmqjJb7_IjnRwis=", "properties": {"@spider": "usps_collection_boxes", "addr:city": "MADISON", "addr:country": "US", "addr:full": "990 HIGHWAY 51", "addr:postcode": "39110", "addr:state": "MS", "brand": "USPS", "collection_times": "Mo-Fr 17:45; Sa 13:00", "name": "USPS COLLECTION BOX - PO LOBBY", "note": "ON 12/24 AND 12/31, THIS BOX MAY BE COLLECTED AS EARLY AS 12 NOON.", "ref": "3911000011"}, "type": "Feature"}
{"geometry": {"coordinates": [-90.1194446, 32.445511], "type": "Point"}, "id": "aD-G3wdJ8rZy-72OIe7E1CBZbTk=", "properties": {"@spider": "usps_collection_boxes", "addr:city": "MADISON", "addr:country": "US", "addr:full": "105 EXECUTIVE DR", "addr:postcode": "39110", "addr:state": "MS", "brand": "USPS", "collection_times": "Mo-Fr 10:30", "name": "USPS COLLECTION BOX - BLUE BOX", "ref": "3911000014"}, "type": "Feature"}
{"geometry": {"coordinates": [-90.1423022, 32.470661], "type": "Point"}, "id": "v4FzoSZZFBoHCRigtR6SLm58lOU=", "properties": {"@spider": "usps_collection_boxes", "addr:city": "MADISON", "addr:country": "US", "addr:full": "208 KEY DR", "addr:postcode": "39110", "addr:state": "MS", "brand": "USPS", "collection_times": "Mo-Fr 10:00", "name": "USPS COLLECTION BOX - BLUE BOX", "ref": "3911000015"}, "type": "Feature"}
{"geometry": {"coordinates": [-90.112411486, 32.45930008], "type": "Point"}, "id": "y36CFXrtmdMm7pYWZE0F5CfIiME=", "properties": {"@spider": "usps_collection_boxes", "addr:city": "MADISON", "addr:country": "US", "addr:full": "990 HIGHWAY 51", "addr:postcode": "39110", "addr:state": "MS", "brand": "USPS", "collection_times": "Mo-Fr 17:45; Sa 13:00", "name": "USPS COLLECTION BOX - APC", "note": "ON 12/24 AND 12/31, THIS BOX MAY BE COLLECTED AS EARLY AS 12 NOON.", "ref": "3911000017"}, "type": "Feature"}
{"geometry": {"coordinates": [-90.112411486, 32.45930008], "type": "Point"}, "id": "_sZRacD7gkJeTO_L6T3wat8DW8E=", "properties": {"@spider": "usps_collection_boxes", "addr:city": "MADISON", "addr:country": "US", "addr:full": "990 HIGHWAY 51", "addr:postcode": "39110", "addr:state": "MS", "brand": "USPS", "collection_times": "Mo-Fr 17:30; Sa 12:00", "name": "USPS COLLECTION BOX - PO LOBBY", "note": "ON 12/24 AND 12/31, THIS BOX MAY BE COLLECTED AS EARLY AS 12 NOON.", "ref": "3911000023"}, "type": "Feature"}
{"geometry": {"coordinates": [-89.73976, 31.870436], "type": "Point"}, "id": "fGppJQhcei6MJq7vMEsm2qJSuu0=", "properties": {"@spider": "usps_collection_boxes", "addr:city": "MAGEE", "addr:country": "US", "addr:full": "701 3RD ST SW", "addr:postcode": "39111", "addr:state": "MS", "brand": "USPS", "collection_times": "Mo-Fr 16:30; Sa 10:30", "name": "USPS COLLECTION BOX - BLUE BOX", "note": "ON 12/24 AND 12/31, THIS BOX MAY BE COLLECTED AS EARLY AS 12 NOON.", "ref": "3911100005"}, "type": "Feature"}
{"geometry": {"coordinates": [-89.73976, 31.870436], "type": "Point"}, "id": "rGoRzeHjacQY0UBmyBH3e2FmgcM=", "properties": {"@spider": "usps_collection_boxes", "addr:city": "MAGEE", "addr:country": "US", "addr:full": "701 3RD ST SW", "addr:postcode": "39111", "addr:state": "MS", "brand": "USPS", "collection_times": "Mo-Fr 16:30; Sa 10:30", "name": "USPS COLLECTION BOX - PO LOBBY", "note": "ON 12/24 AND 12/31, THIS BOX MAY BE COLLECTED AS EARLY AS 12 NOON.", "ref": "3911100009"}, "type": "Feature"}
{"geometry": {"coordinates": [-89.73976, 31.870436], "type": "Point"}, "id": "sG1eNjmTYevV0JkSX5ZvsfTwIM0=", "properties": {"@spider": "usps_collection_boxes", "addr:city": "MAGEE", "addr:country": "US", "addr:full": "701 3RD ST SW", "addr:postcode": "39111", "addr:state": "MS", "brand": "USPS", "collection_times": "Mo-Fr 16:30; Sa 10:30", "name": "USPS COLLECTION BOX - PO LOBBY", "note": "ON 12/24 AND 12/31, THIS BOX MAY BE COLLECTED AS EARLY AS 12 NOON.", "ref": "3911100013"}, "type": "Feature"}
{"geometry": {"coordinates": [-89.7397509394, 31.8704688776], "type": "Point"}, "id": "t83uDa0bECbx6UuX21S94dyfTXc=", "properties": {"@spider": "usps_collection_boxes", "addr:city": "MAGEE", "addr:country": "US", "addr:full": "701 3RD ST SW", "addr:postcode": "39111", "addr:state": "MS", "brand": "USPS", "collection_times": "Mo-Fr 16:30; Sa 10:30", "name": "USPS COLLECTION BOX - PO LOBBY", "note": "ON 12/24 AND 12/31, THIS BOX MAY BE COLLECTED AS EARLY AS 12 NOON.", "ref": "3911100014"}, "type": "Feature"}
{"geometry": {"coordinates": [-91.053026, 32.902116], "type": "Point"}, "id": "yFcuIw62I9tTc6xvApuT4Lt1Orc=", "properties": {"@spider": "usps_collection_boxes", "addr:city": "MAYERSVILLE", "addr:country": "US", "addr:full": "113 COURT ST", "addr:postcode": "39113", "addr:state": "MS", "brand": "USPS", "collection_times": "Mo-Fr 15:45", "name": "USPS COLLECTION BOX - BLUE BOX", "note": "ON 12/24 AND 12/31, THIS BOX MAY BE COLLECTED AS EARLY AS 12 NOON.", "ref": "3911300001"}, "type": "Feature"}
{"geometry": {"coordinates": [-91.053026, 32.902116], "type": "Point"}, "id": "hwB9RkWYWfZiL-dkacElQuEm3PA=", "properties": {"@spider": "usps_collection_boxes", "addr:city": "MAYERSVILLE", "addr:country": "US", "addr:full": "113 COURT ST", "addr:postcode": "39113", "addr:state": "MS", "brand": "USPS", "collection_times": "Mo-Fr 15:45; Sa 08:00", "name": "USPS COLLECTION BOX - PO LOBBY", "note": "ON 12/24 AND 12/31, THIS BOX MAY BE COLLECTED AS EARLY AS 12 NOON.", "ref": "3911300002"}, "type": "Feature"}
{"geometry": {"coordinates": [-91.0530491018, 32.9021503563], "type": "Point"}, "id": "qLBKWB1r3X-Kg6kBaOvp2fmfLhA=", "properties": {"@spider": "usps_collection_boxes", "addr:city": "MAYERSVILLE", "addr:country": "US", "addr:full": "113 COURT ST", "addr:postcode": "39113", "addr:state": "MS", "brand": "USPS", "collection_times": "Mo-Fr 15:45", "name": "USPS COLLECTION BOX - PO LOBBY", "note": "ON 12/24 AND 12/31, THIS BOX MAY BE COLLECTED AS EARLY AS 12 NOON.", "ref": "3911300006"}, "type": "Feature"}
{"geometry": {"coordinates": [-89.874058339, 31.961431504], "type": "Point"}, "id": "DEW1PfLrocC4cEgqy8ZdQUCZIzw=", "properties": {"@spider": "usps_collection_boxes", "addr:city": "MENDENHALL", "addr:country": "US", "addr:full": "1658 SIMPSON HIGHWAY 149", "addr:postcode": "39114", "addr:state": "MS", "brand": "USPS", "collection_times": "Mo-Fr 16:30; Sa 11:30", "name": "USPS COLLECTION BOX - BLUE BOX", "note": "ON 12/24 AND 12/31, THIS BOX MAY BE COLLECTED AS EARLY AS 12 NOON.", "ref": "3911400001"}, "type": "Feature"}
{"geometry": {"coordinates": [-89.874058339, 31.961431504], "type": "Point"}, "id": "_cmEb5j9j_EVHKGYKyGp5gQLRKA=", "properties": {"@spider": "usps_collection_boxes", "addr:city": "MENDENHALL", "addr:country": "US", "addr:full": "1658 SIMPSON HIGHWAY 149", "addr:postcode": "39114", "addr:state": "MS", "brand": "USPS", "collection_times": "Mo-Fr 16:30; Sa 11:30", "name": "USPS COLLECTION BOX - PO LOBBY", "note": "ON 12/24 AND 12/31, THIS BOX MAY BE COLLECTED AS EARLY AS 12 NOON.", "ref": "3911400002"}, "type": "Feature"}
{"geometry": {"coordinates": [-89.8699278, 31.962902], "type": "Point"}, "id": "yLGfYXtPySfRh6JmxbHzNGkkjRA=", "properties": {"@spider": "usps_collection_boxes", "addr:city": "MENDENHALL", "addr:country": "US", "addr:full": "101 COURT ST", "addr:postcode": "39114", "addr:state": "MS", "brand": "USPS", "collection_times": "Mo-Fr 13:00", "name": "USPS COLLECTION BOX - BLUE BOX", "note": "ON 12/24 AND 12/31, THIS BOX MAY BE COLLECTED AS EARLY AS 12 NOON.", "ref": "3911400005"}, "type": "Feature"}
{"geometry": {"coordinates": [-89.874058339, 31.961431504], "type": "Point"}, "id": "I6dDOR6q1-Ls3TxdQkikY_pFIpo=", "properties": {"@spider": "usps_collection_boxes", "addr:city": "MENDENHALL", "addr:country": "US", "addr:full": "1658 SIMPSON HIGHWAY 149", "addr:postcode": "39114", "addr:state": "MS", "brand": "USPS", "collection_times": "Mo-Fr 16:30; Sa 11:30", "name": "USPS COLLECTION BOX - PO LOBBY", "note": "ON 12/24 AND 12/31, THIS BOX MAY BE COLLECTED AS EARLY AS 12 NOON.", "ref": "3911400007"}, "type": "Feature"}
{"geometry": {"coordinates": [-89.553937009, 31.86787241], "type": "Point"}, "id": "wmbOCmNfO6-JvZjzvSfybZYT4RA=", "properties": {"@spider": "usps_collection_boxes", "addr:city": "MIZE", "addr:country": "US", "addr:full": "107 N OAK ST", "addr:postcode": "39116", "addr:state": "MS", "brand": "USPS", "collection_times": "Mo-Fr 14:30; Sa 10:30", "name": "USPS COLLECTION BOX - BLUE BOX", "note": "ON 12/24 AND 12/31, THIS BOX MAY BE COLLECTED AS EARLY AS 12 NOON.", "ref": "3911600001"}, "type": "Feature"}
{"geometry": {"coordinates": [-89.553937009, 31.86787241], "type": "Point"}, "id": "sPiNhULWS4NUpMnJIvMuJJCj2GU=", "properties": {"@spider": "usps_collection_boxes", "addr:city": "MIZE", "addr:country": "US", "addr:full": "107 N OAK ST", "addr:postcode": "39116", "addr:state": "MS", "brand": "USPS", "collection_times": "Mo-Fr 14:30; Sa 10:45", "name": "USPS COLLECTION BOX - PO LOBBY", "note": "ON 12/24 AND 12/31, THIS BOX MAY BE COLLECTED AS EARLY AS 12 NOON.", "ref": "3911600004"}, "type": "Feature"}
{"geometry": {"coordinates": [-89.655767923, 32.350618697], "type": "Point"}, "id": "kaiKv5XYFdAe-yVAXNGUWO0slJk=", "properties": {"@spider": "usps_collection_boxes", "addr:city": "MORTON", "addr:country": "US", "addr:full": "128 HIGHWAY 481 S", "addr:postcode": "39117", "addr:state": "MS", "brand": "USPS", "collection_times": "Mo-Fr 16:30; Sa 12:00", "name": "USPS COLLECTION BOX - BLUE BOX", "note": "ON 12/24 AND 12/31, THIS BOX MAY BE COLLECTED AS EARLY AS 12 NOON.", "ref": "3911700001"}, "type": "Feature"}
{"geometry": {"coordinates": [-89.655767923, 32.350618697], "type": "Point"}, "id": "A4OLmX0n6BH6C1rr1TtpQGgXPlo=", "properties": {"@spider": "usps_collection_boxes", "addr:city": "MORTON", "addr:country": "US", "addr:full": "128 HIGHWAY 481 S", "addr:postcode": "39117", "addr:state": "MS", "brand": "USPS", "collection_times": "Mo-Fr 16:30; Sa 12:00", "name": "USPS COLLECTION BOX - PO LOBBY", "note": "ON 12/24 AND 12/31, THIS BOX MAY BE COLLECTED AS EARLY AS 12 NOON.", "ref": "3911700002"}, "type": "Feature"}
{"geometry": {"coordinates": [-89.655767923, 32.350618697], "type": "Point"}, "id": "WAmX04viA8uTrO9g2TAS87ZTw5g=", "properties": {"@spider": "usps_collection_boxes", "addr:city": "MORTON", "addr:country": "US", "addr:full": "128 HIGHWAY 481 S", "addr:postcode": "39117", "addr:state": "MS", "brand": "USPS", "collection_times": "Mo-Fr 16:30; Sa 12:00", "name": "USPS COLLECTION BOX - BLUE BOX", "note": "ON 12/24 AND 12/31, THIS BOX MAY BE COLLECTED AS EARLY AS 12 NOON.", "ref": "3911700005"}, "type": "Feature"}
{"geometry": {"coordinates": [-89.655767923, 32.350618697], "type": "Point"}, "id": "MpgJL3q0mIZF-Jo-7dbXFEdvTRA=", "properties": {"@spider": "usps_collection_boxes", "addr:city": "MORTON", "addr:country": "US", "addr:full": "128 HIGHWAY 481 S", "addr:postcode": "39117", "addr:state": "MS", "brand": "USPS", "collection_times": "Mo-Fr 16:30; Sa 12:00", "name": "USPS COLLECTION BOX - PO LOBBY", "note": "ON 12/24 AND 12/31, THIS BOX MAY BE COLLECTED AS EARLY AS 12 NOON.", "ref": "3911700006"}, "type": "Feature"}
{"geometry": {"coordinates": [-89.65598283, 31.761506454], "type": "Point"}, "id": "IlQlhLcqjY0FqC6Cr2vjBQXaCqE=", "properties": {"@spider": "usps_collection_boxes", "addr:city": "MOUNT OLIVE", "addr:country": "US", "addr:full": "408 S MAIN ST", "addr:postcode": "39119", "addr:state": "MS", "brand": "USPS", "collection_times": "Mo-Fr 16:30; Sa 10:30", "name": "USPS COLLECTION BOX - BLUE BOX", "note": "ON 12/24 AND 12/31, THIS BOX MAY BE COLLECTED AS EARLY AS 12 NOON.", "ref": "3911900001"}, "type": "Feature"}
{"geometry": {"coordinates": [-89.65598283, 31.761506454], "type": "Point"}, "id": "aPcyjZoAQkB-1ATyVzavOGbaYkA=", "properties": {"@spider": "usps_collection_boxes", "addr:city": "MOUNT OLIVE", "addr:country": "US", "addr:full": "408 S MAIN ST", "addr:postcode": "39119", "addr:state": "MS", "brand": "USPS", "collection_times": "Mo-Fr 16:30; Sa 10:30", "name": "USPS COLLECTION BOX - PO LOBBY", "note": "ON 12/24 AND 12/31, THIS BOX MAY BE COLLECTED AS EARLY AS 12 NOON.", "ref": "3911900003"}, "type": "Feature"}
{"geometry": {"coordinates": [-89.65598283, 31.761506454], "type": "Point"}, "id": "lLuUh9PbaJdUzUXJ70bobpkEBJ4=", "properties": {"@spider": "usps_collection_boxes", "addr:city": "MOUNT OLIVE", "addr:country": "US", "addr:full": "408 S MAIN ST", "addr:postcode": "39119", "addr:state": "MS", "brand": "USPS", "collection_times": "Mo-Fr 16:30; Sa 10:30", "name": "USPS COLLECTION BOX - PO LOBBY", "note": "ON 12/24 AND 12/31, THIS BOX MAY BE COLLECTED AS EARLY AS 12 NOON.", "ref": "3911900005"}, "type": "Feature"}
{"geometry": {"coordinates": [-91.3982992, 31.538493], "type": "Point"}, "id": "CcS3JaAsA6LsKq4xfkaRaDOv-lg=", "properties": {"@spider": "usps_collection_boxes", "addr:city": "NATCHEZ", "addr:country": "US", "addr:full": "110 LOWER WOODVILLE RD", "addr:postcode": "39120", "addr:state": "MS", "brand": "USPS", "collection_times": "Mo-Fr 13:30", "name": "USPS COLLECTION BOX - BLUE BOX", "note": "ON 12/24 AND 12/31, THIS BOX MAY BE COLLECTED AS EARLY AS 12 NOON.", "ref": "3912000014"}, "type": "Feature"}
{"geometry": {"coordinates": [-91.4014845, 31.559057], "type": "Point"}, "id": "_3SD3dpTRwmhIqqF1Ao0_NpdB_s=", "properties": {"@spider": "usps_collection_boxes", "addr:city": "NATCHEZ", "addr:country": "US", "addr:full": "521 MAIN ST", "addr:postcode": "39120", "addr:state": "MS", "brand": "USPS", "collection_times": "Mo-Fr 15:00", "name": "USPS COLLECTION BOX - BLUE BOX", "note": "ON 12/24 AND 12/31, THIS BOX MAY BE COLLECTED AS EARLY AS 12 NOON.", "ref": "3912000016"}, "type": "Feature"}
{"geometry": {"coordinates": [-91.4015129, 31.559069], "type": "Point"}, "id": "EBBp8IMgJlHPiCMlSPR2Rev5wkw=", "properties": {"@spider": "usps_collection_boxes", "addr:city": "NATCHEZ", "addr:country": "US", "addr:full": "521 MAIN ST", "addr:postcode": "39120", "addr:state": "MS", "brand": "USPS", "collection_times": "Mo-Fr 15:00", "name": "USPS COLLECTION BOX - BLUE BOX", "note": "ON 12/24 AND 12/31, THIS BOX MAY BE COLLECTED AS EARLY AS 12 NOON.", "ref": "3912000017"}, "type": "Feature"}
{"geometry": {"coordinates": [-91.4049014, 31.560242], "type": "Point"}, "id": "ILA9YdVAt0tTFZlNLXwr9G_HJ-8=", "properties": {"@spider": "usps_collection_boxes", "addr:city": "NATCHEZ", "addr:country": "US", "addr:full": "115 WALL ST", "addr:postcode": "39120", "addr:state": "MS", "brand": "USPS", "collection_times": "Mo-Fr 15:00", "name": "USPS COLLECTION BOX - BLUE BOX", "note": "ON 12/24 AND 12/31, THIS BOX MAY BE COLLECTED AS EARLY AS 12 NOON.", "ref": "3912000020"}, "type": "Feature"}
{"geometry": {"coordinates": [-91.4048944, 31.560256], "type": "Point"}, "id": "kztF9icPUOf9InAELiSlJTP4fb8=", "properties": {"@spider": "usps_collection_boxes", "addr:city": "NATCHEZ", "addr:country": "US", "addr:full": "115 WALL ST", "addr:postcode": "39120", "addr:state": "MS", "brand": "USPS", "collection_times": "Mo-Fr 15:00", "name": "USPS COLLECTION BOX - BLUE BOX", "note": "ON 12/24 AND 12/31, THIS BOX MAY BE COLLECTED AS EARLY AS 12 NOON.", "ref": "3912000021"}, "type": "Feature"}
{"geometry": {"coordinates": [-91.4042759, 31.5635], "type": "Point"}, "id": "7tykl2twX3IMweIbY9XC2zruZpU=", "properties": {"@spider": "usps_collection_boxes", "addr:city": "NATCHEZ", "addr:country": "US", "addr:full": "214 N CANAL ST", "addr:postcode": "39120", "addr:state": "MS", "brand": "USPS", "collection_times": "Mo-Fr 16:55; Sa 12:00", "name": "USPS COLLECTION BOX - BLUE BOX", "note": "ON 12/24 AND 12/31, THIS BOX MAY BE COLLECTED AS EARLY AS 12 NOON.", "ref": "3912000027"}, "type": "Feature"}
{"geometry": {"coordinates": [-91.4042724, 31.563493], "type": "Point"}, "id": "rkkcwaGynEfzcQZdCay4NFpq1JI=", "properties": {"@spider": "usps_collection_boxes", "addr:city": "NATCHEZ", "addr:country": "US", "addr:full": "214 N CANAL ST", "addr:postcode": "39120", "addr:state": "MS", "brand": "USPS", "collection_times": "Mo-Fr 16:55; Sa 12:00", "name": "USPS COLLECTION BOX - BLUE BOX", "note": "ON 12/24 AND 12/31, THIS BOX MAY BE COLLECTED AS EARLY AS 12 NOON.", "ref": "3912000028"}, "type": "Feature"}
{"geometry": {"coordinates": [-91.4042635, 31.563494], "type": "Point"}, "id": "Q7xN0_fOR0KGoVCLyLilqOneffQ=", "properties": {"@spider": "usps_collection_boxes", "addr:city": "NATCHEZ", "addr:country": "US", "addr:full": "214 N CANAL ST", "addr:postcode": "39120", "addr:state": "MS", "brand": "USPS", "collection_times": "Mo-Fr 16:55; Sa 12:00", "name": "USPS COLLECTION BOX - BLUE BOX", "note": "ON 12/24 AND 12/31, THIS BOX MAY BE COLLECTED AS EARLY AS 12 NOON.", "ref": "3912000029"}, "type": "Feature"}
{"geometry": {"coordinates": [-91.3694406, 31.559261], "type": "Point"}, "id": "HW_LScEdEERPmCBSmY8hg2wDZfU=", "properties": {"@spider": "usps_collection_boxes", "addr:city": "NATCHEZ", "addr:country": "US", "addr:full": "261 DEVEREAUX DR", "addr:postcode": "39120", "addr:state": "MS", "brand": "USPS", "collection_times": "Mo-Fr 14:00", "name": "USPS COLLECTION BOX - BLUE BOX", "note": "ON 12/24 AND 12/31, THIS BOX MAY BE COLLECTED AS EARLY AS 12 NOON.", "ref": "3912000032"}, "type": "Feature"}
{"geometry": {"coordinates": [-91.3863733, 31.524651], "type": "Point"}, "id": "OHYdrTHKU2KQi7Ft3z1qlMqtQFc=", "properties": {"@spider": "usps_collection_boxes", "addr:city": "NATCHEZ", "addr:country": "US", "addr:full": "151 JEFF DAVIS BLVD", "addr:postcode": "39120", "addr:state": "MS", "brand": "USPS", "collection_times": "Mo-Fr 10:00", "name": "USPS COLLECTION BOX - BLUE BOX", "ref": "3912000035"}, "type": "Feature"}
{"geometry": {"coordinates": [-91.4042668, 31.563266], "type": "Point"}, "id": "KfbAy2_Xhu5x5bxB_QhE1CnajPw=", "properties": {"@spider": "usps_collection_boxes", "addr:city": "NATCHEZ", "addr:country": "US", "addr:full": "214 N CANAL ST", "addr:postcode": "39120", "addr:state": "MS", "brand": "USPS", "collection_times": "Mo-Fr 17:00; Sa 12:00", "name": "USPS COLLECTION BOX - PO LOBBY", "note": "ON 12/24 AND 12/31, THIS BOX MAY BE COLLECTED AS EARLY AS 12 NOON.", "ref": "3912000058"}, "type": "Feature"}
{"geometry": {"coordinates": [-91.3854273, 31.523546], "type": "Point"}, "id": "QPZy_PtOhi7M4EcFhYoHCt2NNwQ=", "properties": {"@spider": "usps_collection_boxes", "addr:city": "NATCHEZ", "addr:country": "US", "addr:full": "150 JEFF DAVIS BLVD", "addr:postcode": "39120", "addr:state": "MS", "brand": "USPS", "collection_times": "Mo-Fr 10:00", "name": "USPS COLLECTION BOX - BLUE BOX", "ref": "3912000070"}, "type": "Feature"}
{"geometry": {"coordinates": [-91.4040342319, 31.5629863359], "type": "Point"}, "id": "-wHkUeZ7nkooW8vRToFn2rT8lQo=", "properties": {"@spider": "usps_collection_boxes", "addr:city": "NATCHEZ", "addr:country": "US", "addr:full": "214 N CANAL ST", "addr:postcode": "39120", "addr:state": "MS", "brand": "USPS", "collection_times": "Mo-Fr 17:00; Sa 12:00", "name": "USPS COLLECTION BOX - PO LOBBY", "note": "ON 12/24 AND 12/31, THIS BOX MAY BE COLLECTED AS EARLY AS 12 NOON.", "ref": "3912000076"}, "type": "Feature"}
{"geometry": {"coordinates": [-91.389327277, 31.528340203], "type": "Point"}, "id": "b977sFsbsrxi5TRoiS8h9yIRrF8=", "properties": {"@spider": "usps_collection_boxes", "addr:city": "NATCHEZ", "addr:country": "US", "addr:full": "55 SGT PRENTISS DR", "addr:postcode": "39122", "addr:state": "MS", "brand": "USPS", "collection_times": "Mo-Fr 16:00", "name": "USPS COLLECTION BOX - PO LOBBY", "note": "ON 12/24 AND 12/31, THIS BOX MAY BE COLLECTED AS EARLY AS 12 NOON.", "ref": "3912200001"}, "type": "Feature"}
{"geometry": {"coordinates": [-91.389327277, 31.528340203], "type": "Point"}, "id": "sP_iV_vdjCTiEBKjGirXIYU3dvg=", "properties": {"@spider": "usps_collection_boxes", "addr:city": "NATCHEZ", "addr:country": "US", "addr:full": "55 SGT PRENTISS DR", "addr:postcode": "39122", "addr:state": "MS", "brand": "USPS", "collection_times": "Mo-Fr 16:00; Sa 09:00", "name": "USPS COLLECTION BOX - PO LOBBY", "note": "ON 12/24 AND 12/31, THIS BOX MAY BE COLLECTED AS EARLY AS 12 NOON.", "ref": "3912200002"}, "type": "Feature"}
{"geometry": {"coordinates": [-91.389327277, 31.528340203], "type": "Point"}, "id": "u3zN1f7gk-5dpfjQUZCDXk8jvP8=", "properties": {"@spider": "usps_collection_boxes", "addr:city": "NATCHEZ", "addr:country": "US", "addr:full": "55 SGT PRENTISS DR", "addr:postcode": "39122", "addr:state": "MS", "brand": "USPS", "collection_times": "Mo-Fr 13:00", "name": "USPS COLLECTION BOX - BLUE BOX", "note": "ON 12/24 AND 12/31, THIS BOX MAY BE COLLECTED AS EARLY AS 12 NOON.", "ref": "3912200003"}, "type": "Feature"}
{"geometry": {"coordinates": [-91.389327277, 31.528340203], "type": "Point"}, "id": "lxtTGLgLhELMD-ZvqnhUGksKQus=", "properties": {"@spider": "usps_collection_boxes", "addr:city": "NATCHEZ", "addr:country": "US", "addr:full": "55 SGT PRENTISS DR", "addr:postcode": "39122", "addr:state": "MS", "brand": "USPS", "collection_times": "Mo-Fr 13:00", "name": "USPS COLLECTION BOX - BLUE BOX", "note": "ON 12/24 AND 12/31, THIS BOX MAY BE COLLECTED AS EARLY AS 12 NOON.", "ref": "3912200004"}, "type": "Feature"}
{"geometry": {"coordinates": [-89.979754, 31.731113], "type": "Point"}, "id": "xTgNAuywGKexLfNCD_vNwl54MjE=", "properties": {"@spider": "usps_collection_boxes", "addr:city": "NEWHEBRON", "addr:country": "US", "addr:full": "402 MAIN AVE", "addr:postcode": "39140", "addr:state": "MS", "brand": "USPS", "collection_times": "Mo-Fr 16:00; Sa 08:00", "name": "USPS COLLECTION BOX - BLUE BOX", "note": "ON 12/24 AND 12/31, THIS BOX MAY BE COLLECTED AS EARLY AS 12 NOON.", "ref": "3914000001"}, "type": "Feature"}
{"geometry": {"coordinates": [-89.979754, 31.731113], "type": "Point"}, "id": "mAtM1e9b10oY5Eub9ZKnjy0AKME=", "properties": {"@spider": "usps_collection_boxes", "addr:city": "NEWHEBRON", "addr:country": "US", "addr:full": "402 MAIN AVE", "addr:postcode": "39140", "addr:state": "MS", "brand": "USPS", "collection_times": "Mo-Fr 16:00; Sa 08:00", "name": "USPS COLLECTION BOX - PO LOBBY", "note": "ON 12/24 AND 12/31, THIS BOX MAY BE COLLECTED AS EARLY AS 12 NOON.", "ref": "3914000002"}, "type": "Feature"}
{"geometry": {"coordinates": [-89.9797573128, 31.7311066122], "type": "Point"}, "id": "6XHHM7qXTC_HmiR6dPYUH37CP_U=", "properties": {"@spider": "usps_collection_boxes", "addr:city": "NEWHEBRON", "addr:country": "US", "addr:full": "402 MAIN ST", "addr:postcode": "39140", "addr:state": "MS", "brand": "USPS", "collection_times": "Mo-Fr 16:00", "name": "USPS COLLECTION BOX - PO LOBBY", "note": "ON 12/24 AND 12/31, THIS BOX MAY BE COLLECTED AS EARLY AS 12 NOON.", "ref": "3914000006"}, "type": "Feature"}
{"geometry": {"coordinates": [-90.888988455, 31.890257088], "type": "Point"}, "id": "yLyykJaZsnw8OzrOFEnkbWeN9SU=", "properties": {"@spider": "usps_collection_boxes", "addr:city": "PATTISON", "addr:country": "US", "addr:full": "10035 HIGHWAY 547", "addr:postcode": "39144", "addr:state": "MS", "brand": "USPS", "collection_times": "Mo-Fr 12:00; Sa 10:00", "name": "USPS COLLECTION BOX - BLUE BOX", "ref": "3914400001"}, "type": "Feature"}
{"geometry": {"coordinates": [-90.888988455, 31.890257088], "type": "Point"}, "id": "vXALrplyIu_Q0O8ZRxq56fCU020=", "properties": {"@spider": "usps_collection_boxes", "addr:city": "PATTISON", "addr:country": "US", "addr:full": "10035 HIGHWAY 547", "addr:postcode": "39144", "addr:state": "MS", "brand": "USPS", "collection_times": "Mo-Fr 12:00; Sa 10:00", "name": "USPS COLLECTION BOX - PO LOBBY", "ref": "3914400002"}, "type": "Feature"}
{"geometry": {"coordinates": [-90.8889884551, 31.8902570878], "type": "Point"}, "id": "H9KH2BSWMnomjelF4GkQDijGcAg=", "properties": {"@spider": "usps_collection_boxes", "addr:city": "PATTISON", "addr:country": "US", "addr:full": "10035 HIGHWAY 547", "addr:postcode": "39144", "addr:state": "MS", "brand": "USPS", "collection_times": "Mo-Fr 12:00; Sa 10:00", "name": "USPS COLLECTION BOX - PO LOBBY", "ref": "3914400006"}, "type": "Feature"}
{"geometry": {"coordinates": [-89.797079, 32.313524], "type": "Point"}, "id": "8BclOrnkDxqvc8apxNKAiXupCZY=", "properties": {"@spider": "usps_collection_boxes", "addr:city": "PELAHATCHIE", "addr:country": "US", "addr:full": "801 SECOND ST", "addr:postcode": "39145", "addr:state": "MS", "brand": "USPS", "collection_times": "Mo-Fr 15:50; Sa 09:25", "name": "USPS COLLECTION BOX - BLUE BOX", "note": "ON 12/24 AND 12/31, THIS BOX MAY BE COLLECTED AS EARLY AS 12 NOON.", "ref": "3914500001"}, "type": "Feature"}
{"geometry": {"coordinates": [-89.797079, 32.313524], "type": "Point"}, "id": "qtfLhPgIP-zJbhu2nNZAfJaimHg=", "properties": {"@spider": "usps_collection_boxes", "addr:city": "PELAHATCHIE", "addr:country": "US", "addr:full": "801 SECOND ST", "addr:postcode": "39145", "addr:state": "MS", "brand": "USPS", "collection_times": "Mo-Fr 15:50; Sa 09:25", "name": "USPS COLLECTION BOX - PO LOBBY", "note": "ON 12/24 AND 12/31, THIS BOX MAY BE COLLECTED AS EARLY AS 12 NOON.", "ref": "3914500002"}, "type": "Feature"}
{"geometry": {"coordinates": [-89.7971258543, 32.3135518701], "type": "Point"}, "id": "TqmMJmjR3shKyf2bJoarSuRTIaI=", "properties": {"@spider": "usps_collection_boxes", "addr:city": "PELAHATCHIE", "addr:country": "US", "addr:full": "801 SECOND ST", "addr:postcode": "39145", "addr:state": "MS", "brand": "USPS", "collection_times": "Mo-Fr 16:00; Sa 10:00", "name": "USPS COLLECTION BOX - PO LOBBY", "note": "ON 12/24 AND 12/31, THIS BOX MAY BE COLLECTED AS EARLY AS 12 NOON.", "ref": "3914500005"}, "type": "Feature"}
{"geometry": {"coordinates": [-89.972234869, 32.887113075], "type": "Point"}, "id": "VZRBUrnzritZUCBl-EwTgiixuAI=", "properties": {"@spider": "usps_collection_boxes", "addr:city": "PICKENS", "addr:country": "US", "addr:full": "121 LEXINGTON ST", "addr:postcode": "39146", "addr:state": "MS", "brand": "USPS", "collection_times": "Mo-Fr 16:00; Sa 11:00", "name": "USPS COLLECTION BOX - PO LOBBY", "note": "ON 12/24 AND 12/31, THIS BOX MAY BE COLLECTED AS EARLY AS 12 NOON.", "ref": "3914600004"}, "type": "Feature"}
{"geometry": {"coordinates": [-89.993514104, 32.063068271], "type": "Point"}, "id": "_PogVQzMHwxkj3-fpJwCuuoHu_k=", "properties": {"@spider": "usps_collection_boxes", "addr:city": "PINEY WOODS", "addr:country": "US", "addr:full": "11 WARD LN", "addr:postcode": "39148", "addr:state": "MS", "brand": "USPS", "collection_times": "Mo-Fr 15:30; Sa 08:00", "name": "USPS COLLECTION BOX - BLUE BOX", "note": "ON 12/24 AND 12/31, THIS BOX MAY BE COLLECTED AS EARLY AS 12 NOON.", "ref": "3914800001"}, "type": "Feature"}
{"geometry": {"coordinates": [-89.993514104, 32.063068271], "type": "Point"}, "id": "cuV7Y2bUM-vFaJuGNAPqIwGmJZs=", "properties": {"@spider": "usps_collection_boxes", "addr:city": "PINEY WOODS", "addr:country": "US", "addr:full": "11 WARD LN", "addr:postcode": "39148", "addr:state": "MS", "brand": "USPS", "collection_times": "Mo-Fr 15:30; Sa 08:00", "name": "USPS COLLECTION BOX - PO LOBBY", "note": "ON 12/24 AND 12/31, THIS BOX MAY BE COLLECTED AS EARLY AS 12 NOON.", "ref": "3914800003"}, "type": "Feature"}
{"geometry": {"coordinates": [-89.993514104, 32.063068271], "type": "Point"}, "id": "R50owwrwyNPBTSBqvAE_WMHaiyw=", "properties": {"@spider": "usps_collection_boxes", "addr:city": "PINEY WOODS", "addr:country": "US", "addr:full": "11 WARD LN", "addr:postcode": "39148", "addr:state": "MS", "brand": "USPS", "collection_times": "Mo-Fr 15:30", "name": "USPS COLLECTION BOX - PO LOBBY", "note": "ON 12/24 AND 12/31, THIS BOX MAY BE COLLECTED AS EARLY AS 12 NOON.", "ref": "3914800005"}, "type": "Feature"}
{"geometry": {"coordinates": [-89.964185269, 31.880366784], "type": "Point"}, "id": "2kTTyht7rF-vqQNp2ISd7ezgvPM=", "properties": {"@spider": "usps_collection_boxes", "addr:city": "PINOLA", "addr:country": "US", "addr:full": "2267 SIMPSON HIGHWAY 28 W", "addr:postcode": "39149", "addr:state": "MS", "brand": "USPS", "collection_times": "Mo-Fr 11:30; Sa 09:45", "name": "USPS COLLECTION BOX - BLUE BOX", "ref": "3914900001"}, "type": "Feature"}
{"geometry": {"coordinates": [-89.9641847598, 31.8803732743], "type": "Point"}, "id": "drOvfUdB9qSzjuDLpQ_Qqtt7hiw=", "properties": {"@spider": "usps_collection_boxes", "addr:city": "PINOLA", "addr:country": "US", "addr:full": "2267 SIMPSON HIGHWAY 28 W", "addr:postcode": "39149", "addr:state": "MS", "brand": "USPS", "collection_times": "Mo-Fr 11:30; Sa 09:45", "name": "USPS COLLECTION BOX - PO LOBBY", "ref": "3914900002"}, "type": "Feature"}
{"geometry": {"coordinates": [-89.964185269, 31.880366784], "type": "Point"}, "id": "hoGvqvfuG4LsB3f5_N1CUmyXIUk=", "properties": {"@spider": "usps_collection_boxes", "addr:city": "PINOLA", "addr:country": "US", "addr:full": "2267 SIMPSON HIGHWAY 28 W", "addr:postcode": "39149", "addr:state": "MS", "brand": "USPS", "collection_times": "Mo-Fr 11:30; Sa 09:45", "name": "USPS COLLECTION BOX - PO LOBBY", "ref": "3914900004"}, "type": "Feature"}
{"geometry": {"coordinates": [-90.982569, 31.961666], "type": "Point"}, "id": "eVfH1S82kq1x9COCvvOJGXAK-zA=", "properties": {"@spider": "usps_collection_boxes", "addr:city": "PORT GIBSON", "addr:country": "US", "addr:full": "206 ORANGE ST", "addr:postcode": "39150", "addr:state": "MS", "brand": "USPS", "collection_times": "Mo-Fr 16:45; Sa 11:00", "name": "USPS COLLECTION BOX - BLUE BOX", "note": "ON 12/24 AND 12/31, THIS BOX MAY BE COLLECTED AS EARLY AS 12 NOON.", "ref": "3915000002"}, "type": "Feature"}
{"geometry": {"coordinates": [-90.982569, 31.961666], "type": "Point"}, "id": "akUV-dqd3xpuVckytIJpfJkaxQY=", "properties": {"@spider": "usps_collection_boxes", "addr:city": "PORT GIBSON", "addr:country": "US", "addr:full": "206 ORANGE ST", "addr:postcode": "39150", "addr:state": "MS", "brand": "USPS", "collection_times": "Mo-Fr 16:45; Sa 11:00", "name": "USPS COLLECTION BOX - BLUE BOX", "note": "ON 12/24 AND 12/31, THIS BOX MAY BE COLLECTED AS EARLY AS 12 NOON.", "ref": "3915000003"}, "type": "Feature"}
{"geometry": {"coordinates": [-90.982569, 31.961666], "type": "Point"}, "id": "8bJOUL5LJ-NmnwrGRX3MgHq5sQY=", "properties": {"@spider": "usps_collection_boxes", "addr:city": "PORT GIBSON", "addr:country": "US", "addr:full": "206 ORANGE ST", "addr:postcode": "39150", "addr:state": "MS", "brand": "USPS", "collection_times": "Mo-Fr 16:45; Sa 11:00", "name": "USPS COLLECTION BOX - BLUE BOX", "note": "ON 12/24 AND 12/31, THIS BOX MAY BE COLLECTED AS EARLY AS 12 NOON.", "ref": "3915000004"}, "type": "Feature"}
{"geometry": {"coordinates": [-90.983536, 31.961933], "type": "Point"}, "id": "9LQGCekUkeNt6Ex9DEjEKB93ISU=", "properties": {"@spider": "usps_collection_boxes", "addr:city": "PORT GIBSON", "addr:country": "US", "addr:full": "501 MARKET ST", "addr:postcode": "39150", "addr:state": "MS", "brand": "USPS", "collection_times": "Mo-Fr 16:45; Sa 11:00", "name": "USPS COLLECTION BOX - PO LOBBY", "note": "ON 12/24 AND 12/31, THIS BOX MAY BE COLLECTED AS EARLY AS 12 NOON.", "ref": "3915000005"}, "type": "Feature"}
{"geometry": {"coordinates": [-90.983493782, 31.961904104], "type": "Point"}, "id": "xzgJVhGaY0_ufZQgQsz4RF_zaEw=", "properties": {"@spider": "usps_collection_boxes", "addr:city": "PORT GIBSON", "addr:country": "US", "addr:full": "501 MAIN ST", "addr:postcode": "39150", "addr:state": "MS", "brand": "USPS", "collection_times": "Mo-Fr 16:30; Sa 11:00", "name": "USPS COLLECTION BOX - PO LOBBY", "note": "ON 12/24 AND 12/31, THIS BOX MAY BE COLLECTED AS EARLY AS 12 NOON.", "ref": "3915000009"}, "type": "Feature"}
{"geometry": {"coordinates": [-89.77511576, 32.083310957], "type": "Point"}, "id": "SRcbcbw-lvG71TLujmAMy81fP94=", "properties": {"@spider": "usps_collection_boxes", "addr:city": "PUCKETT", "addr:country": "US", "addr:full": "1086 HIGHWAY 13 N", "addr:postcode": "39151", "addr:state": "MS", "brand": "USPS", "collection_times": "Mo-Fr 12:00", "name": "USPS COLLECTION BOX - BLUE BOX", "ref": "3915100001"}, "type": "Feature"}
{"geometry": {"coordinates": [-89.77511576, 32.083310957], "type": "Point"}, "id": "MZTTaVOeA2eprdGlOWW4Ak2kBZc=", "properties": {"@spider": "usps_collection_boxes", "addr:city": "PUCKETT", "addr:country": "US", "addr:full": "1086 HIGHWAY 13 N", "addr:postcode": "39151", "addr:state": "MS", "brand": "USPS", "collection_times": "Mo-Fr 11:50; Sa 08:00", "name": "USPS COLLECTION BOX - PO LOBBY", "ref": "3915100002"}, "type": "Feature"}
{"geometry": {"coordinates": [-89.77511576, 32.083310957], "type": "Point"}, "id": "qwBnMKCQCLv6yFiNciBoNLiHG6Y=", "properties": {"@spider": "usps_collection_boxes", "addr:city": "PUCKETT", "addr:country": "US", "addr:full": "1086 HIGHWAY 13 N", "addr:postcode": "39151", "addr:state": "MS", "brand": "USPS", "collection_times": "Mo-Fr 12:00", "name": "USPS COLLECTION BOX - PO LOBBY", "ref": "3915100004"}, "type": "Feature"}
{"geometry": {"coordinates": [-89.602774, 32.27286], "type": "Point"}, "id": "ZztdjQQl4nAxMJe-pws3Z8FTr0Q=", "properties": {"@spider": "usps_collection_boxes", "addr:city": "PULASKI", "addr:country": "US", "addr:full": "7052 HIGHWAY 481 S", "addr:postcode": "39152", "addr:state": "MS", "brand": "USPS", "collection_times": "Mo-Fr 11:30", "name": "USPS COLLECTION BOX - BLUE BOX", "ref": "3915200001"}, "type": "Feature"}
{"geometry": {"coordinates": [-89.6027497384, 32.2728976305], "type": "Point"}, "id": "2Tjr3XQ_eaY0KN-nIPrxqE-Vggc=", "properties": {"@spider": "usps_collection_boxes", "addr:city": "PULASKI", "addr:country": "US", "addr:full": "7052 HIGHWAY 481 S", "addr:postcode": "39152", "addr:state": "MS", "brand": "USPS", "collection_times": "Mo-Fr 11:30", "name": "USPS COLLECTION BOX - PO LOBBY", "ref": "3915200004"}, "type": "Feature"}
{"geometry": {"coordinates": [-89.523350508, 32.032274709], "type": "Point"}, "id": "DVSQrtPj5bBixGNde1u1GMHTA0Y=", "properties": {"@spider": "usps_collection_boxes", "addr:city": "RALEIGH", "addr:country": "US", "addr:full": "111 MAIN ST", "addr:postcode": "39153", "addr:state": "MS", "brand": "USPS", "collection_times": "Mo-Fr 16:00; Sa 10:30", "name": "USPS COLLECTION BOX - BLUE BOX", "note": "ON 12/24 AND 12/31, THIS BOX MAY BE COLLECTED AS EARLY AS 12 NOON.", "ref": "3915300001"}, "type": "Feature"}
{"geometry": {"coordinates": [-89.523350508, 32.032274709], "type": "Point"}, "id": "6oimLVY6Bnl-W3GRhJBoJk-Tj3o=", "properties": {"@spider": "usps_collection_boxes", "addr:city": "RALEIGH", "addr:country": "US", "addr:full": "111 MAIN ST", "addr:postcode": "39153", "addr:state": "MS", "brand": "USPS", "collection_times": "Mo-Fr 16:00; Sa 10:30", "name": "USPS COLLECTION BOX - PO LOBBY", "note": "ON 12/24 AND 12/31, THIS BOX MAY BE COLLECTED AS EARLY AS 12 NOON.", "ref": "3915300002"}, "type": "Feature"}
{"geometry": {"coordinates": [-89.523350508, 32.032274709], "type": "Point"}, "id": "t6h17fIh1XgF8RfhJwM0bdW6Cdg=", "properties": {"@spider": "usps_collection_boxes", "addr:city": "RALEIGH", "addr:country": "US", "addr:full": "111 MAIN ST", "addr:postcode": "39153", "addr:state": "MS", "brand": "USPS", "collection_times": "Mo-Fr 16:00; Sa 10:30", "name": "USPS COLLECTION BOX - BLUE BOX", "note": "ON 12/24 AND 12/31, THIS BOX MAY BE COLLECTED AS EARLY AS 12 NOON.", "ref": "3915300003"}, "type": "Feature"}
{"geometry": {"coordinates": [-89.523350508, 32.032274709], "type": "Point"}, "id": "R-BPpYwMa4Bvduti3xO5PsmLgvc=", "properties": {"@spider": "usps_collection_boxes", "addr:city": "RALEIGH", "addr:country": "US", "addr:full": "111 MAIN ST", "addr:postcode": "39153", "addr:state": "MS", "brand": "USPS", "collection_times": "Mo-Fr 16:00; Sa 10:30", "name": "USPS COLLECTION BOX - PO LOBBY", "note": "ON 12/24 AND 12/31, THIS BOX MAY BE COLLECTED AS EARLY AS 12 NOON.", "ref": "3915300005"}, "type": "Feature"}
{"geometry": {"coordinates": [-90.423620789, 32.258965985], "type": "Point"}, "id": "3qNAqNx6BCwA0Q8eVpwNpIdRht8=", "properties": {"@spider": "usps_collection_boxes", "addr:city": "RAYMOND", "addr:country": "US", "addr:full": "115 PORT GIBSON ST", "addr:postcode": "39154", "addr:state": "MS", "brand": "USPS", "collection_times": "Mo-Fr 16:30; Sa 10:00", "name": "USPS COLLECTION BOX - BLUE BOX", "note": "ON 12/24 AND 12/31, THIS BOX MAY BE COLLECTED AS EARLY AS 12 NOON.", "ref": "3915400001"}, "type": "Feature"}
{"geometry": {"coordinates": [-90.423620789, 32.258965985], "type": "Point"}, "id": "0fFGuDamcYWMfvbyXfNtUhby1Jg=", "properties": {"@spider": "usps_collection_boxes", "addr:city": "RAYMOND", "addr:country": "US", "addr:full": "115 PORT GIBSON ST", "addr:postcode": "39154", "addr:state": "MS", "brand": "USPS", "collection_times": "Mo-Fr 16:30; Sa 10:00", "name": "USPS COLLECTION BOX - BLUE BOX", "note": "ON 12/24 AND 12/31, THIS BOX MAY BE COLLECTED AS EARLY AS 12 NOON.", "ref": "3915400002"}, "type": "Feature"}
{"geometry": {"coordinates": [-90.423620789, 32.258965985], "type": "Point"}, "id": "Wj76xb5Q7vD0IrEYtDZCZGm6qBg=", "properties": {"@spider": "usps_collection_boxes", "addr:city": "RAYMOND", "addr:country": "US", "addr:full": "115 PORT GIBSON ST", "addr:postcode": "39154", "addr:state": "MS", "brand": "USPS", "collection_times": "Mo-Fr 16:30; Sa 10:00", "name": "USPS COLLECTION BOX - PO LOBBY", "note": "ON 12/24 AND 12/31, THIS BOX MAY BE COLLECTED AS EARLY AS 12 NOON.", "ref": "3915400004"}, "type": "Feature"}
{"geometry": {"coordinates": [-90.423620789, 32.258965985], "type": "Point"}, "id": "zM3d0jXm6uXuktY4I7M7EdfH18I=", "properties": {"@spider": "usps_collection_boxes", "addr:city": "RAYMOND", "addr:country": "US", "addr:full": "115 PORT GIBSON ST", "addr:postcode": "39154", "addr:state": "MS", "brand": "USPS", "collection_times": "Mo-Fr 16:30; Sa 10:00", "name": "USPS COLLECTION BOX - PO LOBBY", "note": "ON 12/24 AND 12/31, THIS BOX MAY BE COLLECTED AS EARLY AS 12 NOON.", "ref": "3915400006"}, "type": "Feature"}
{"geometry": {"coordinates": [-90.804015958, 32.482083506], "type": "Point"}, "id": "--HSub8H6S825h6PUjz6QBVjZLQ=", "properties": {"@spider": "usps_collection_boxes", "addr:city": "REDWOOD", "addr:country": "US", "addr:full": "340 OLD HIGHWAY 3", "addr:postcode": "39156", "addr:state": "MS", "brand": "USPS", "collection_times": "Mo-Fr 11:30", "name": "USPS COLLECTION BOX - BLUE BOX", "ref": "3915600001"}, "type": "Feature"}
{"geometry": {"coordinates": [-90.804015958, 32.482083506], "type": "Point"}, "id": "jZwb43OSP10JH2AHPdH5kdR1uPk=", "properties": {"@spider": "usps_collection_boxes", "addr:city": "REDWOOD", "addr:country": "US", "addr:full": "340 OLD HIGHWAY 3", "addr:postcode": "39156", "addr:state": "MS", "brand": "USPS", "collection_times": "Mo-Fr 11:30; Sa 08:00", "name": "USPS COLLECTION BOX - PO LOBBY", "ref": "3915600002"}, "type": "Feature"}
{"geometry": {"coordinates": [-90.804015958, 32.482083506], "type": "Point"}, "id": "AbZxad_EubCLy2JHDZlU6T5rnzw=", "properties": {"@spider": "usps_collection_boxes", "addr:city": "REDWOOD", "addr:country": "US", "addr:full": "340 OLD HIGHWAY 3", "addr:postcode": "39156", "addr:state": "MS", "brand": "USPS", "collection_times": "Mo-Fr 11:30", "name": "USPS COLLECTION BOX - PO LOBBY", "ref": "3915600004"}, "type": "Feature"}
{"geometry": {"coordinates": [-90.1245905, 32.40912], "type": "Point"}, "id": "UevaRwX2yy9zP-FnOOgToXRVyMs=", "properties": {"@spider": "usps_collection_boxes", "addr:city": "RIDGELAND", "addr:country": "US", "addr:full": "611 S PEAR ORCHARD RD", "addr:postcode": "39157", "addr:state": "MS", "brand": "USPS", "collection_times": "Mo-Fr 17:30; Sa 12:30", "name": "USPS COLLECTION BOX - BLUE BOX", "note": "ON 12/24 AND 12/31, THIS BOX MAY BE COLLECTED AS EARLY AS 12 NOON.", "ref": "3915700001"}, "type": "Feature"}
{"geometry": {"coordinates": [-90.124587, 32.409112], "type": "Point"}, "id": "YqjELdf56aFTkMoaebUIzmNg7MM=", "properties": {"@spider": "usps_collection_boxes", "addr:city": "RIDGELAND", "addr:country": "US", "addr:full": "611 S PEAR ORCHARD RD", "addr:postcode": "39157", "addr:state": "MS", "brand": "USPS", "collection_times": "Mo-Fr 17:30; Sa 12:30", "name": "USPS COLLECTION BOX - BLUE BOX", "note": "ON 12/24 AND 12/31, THIS BOX MAY BE COLLECTED AS EARLY AS 12 NOON.", "ref": "3915700003"}, "type": "Feature"}
{"geometry": {"coordinates": [-90.1069514, 32.413458], "type": "Point"}, "id": "HHpJHEPpLC2Ap_W80H-UdVfBE2o=", "properties": {"@spider": "usps_collection_boxes", "addr:city": "RIDGELAND", "addr:country": "US", "addr:full": "6965 OLD CANTON RD", "addr:postcode": "39157", "addr:state": "MS", "brand": "USPS", "collection_times": "Mo-Fr 10:00", "name": "USPS COLLECTION BOX - BLUE BOX", "ref": "3915700010"}, "type": "Feature"}
{"geometry": {"coordinates": [-90.1154972, 32.400278], "type": "Point"}, "id": "c_TKVR4xt6xFREs2bH11FAoLtCY=", "properties": {"@spider": "usps_collection_boxes", "addr:city": "RIDGELAND", "addr:country": "US", "addr:full": "800 AVERY BLVD N", "addr:postcode": "39157", "addr:state": "MS", "brand": "USPS", "collection_times": "Mo-Fr 10:00", "name": "USPS COLLECTION BOX - BLUE BOX", "ref": "3915700013"}, "type": "Feature"}
{"geometry": {"coordinates": [-90.1341373, 32.420258], "type": "Point"}, "id": "ZQU317UtEk7yn_eVRyowzMxjKDQ=", "properties": {"@spider": "usps_collection_boxes", "addr:city": "RIDGELAND", "addr:country": "US", "addr:full": "398 HIGHWAY 51", "addr:postcode": "39157", "addr:state": "MS", "brand": "USPS", "collection_times": "Mo-Fr 12:00", "name": "USPS COLLECTION BOX - BLUE BOX", "ref": "3915700014"}, "type": "Feature"}
{"geometry": {"coordinates": [-90.1238933, 32.40267], "type": "Point"}, "id": "eRDSESInQOsXTmv0Iih92kvUmZs=", "properties": {"@spider": "usps_collection_boxes", "addr:city": "RIDGELAND", "addr:country": "US", "addr:full": "731 S PEAR ORCHARD RD", "addr:postcode": "39157", "addr:state": "MS", "brand": "USPS", "collection_times": "Mo-Fr 10:00", "name": "USPS COLLECTION BOX - BLUE BOX", "ref": "3915700016"}, "type": "Feature"}
{"geometry": {"coordinates": [-90.1322843, 32.402527], "type": "Point"}, "id": "bry_HpM0Q0SpXOworBLqVBG4Hb4=", "properties": {"@spider": "usps_collection_boxes", "addr:city": "RIDGELAND", "addr:country": "US", "addr:full": "805 S WHEATLEY ST", "addr:postcode": "39157", "addr:state": "MS", "brand": "USPS", "collection_times": "Mo-Fr 10:00", "name": "USPS COLLECTION BOX - BLUE BOX", "ref": "3915700017"}, "type": "Feature"}
{"geometry": {"coordinates": [-90.1366359, 32.399684], "type": "Point"}, "id": "tiz4Xzcog8LrsSalNQeLueJRIkA=", "properties": {"@spider": "usps_collection_boxes", "addr:city": "RIDGELAND", "addr:country": "US", "addr:full": "1060 E COUNTY LINE RD", "addr:postcode": "39157", "addr:state": "MS", "brand": "USPS", "collection_times": "Mo-Fr 10:00", "name": "USPS COLLECTION BOX - BLUE BOX", "ref": "3915700018"}, "type": "Feature"}
{"geometry": {"coordinates": [-90.1254377, 32.405847], "type": "Point"}, "id": "3cwSCnxZusY2UJFuCB8b3ez9wgs=", "properties": {"@spider": "usps_collection_boxes", "addr:city": "RIDGELAND", "addr:country": "US", "addr:full": "715 S PEAR ORCHARD RD", "addr:postcode": "39157", "addr:state": "MS", "brand": "USPS", "collection_times": "Mo-Fr 10:00", "name": "USPS COLLECTION BOX - BLUE BOX", "ref": "3915700023"}, "type": "Feature"}
{"geometry": {"coordinates": [-90.1245813, 32.409093], "type": "Point"}, "id": "JaYzBgFARZJHYEOrxPn7Bp4hJPg=", "properties": {"@spider": "usps_collection_boxes", "addr:city": "RIDGELAND", "addr:country": "US", "addr:full": "611 S PEAR ORCHARD RD", "addr:postcode": "39157", "addr:state": "MS", "brand": "USPS", "collection_times": "Mo-Fr 17:30; Sa 12:30", "name": "USPS COLLECTION BOX - BLUE BOX", "note": "ON 12/24 AND 12/31, THIS BOX MAY BE COLLECTED AS EARLY AS 12 NOON.", "ref": "3915700036"}, "type": "Feature"}
{"geometry": {"coordinates": [-90.1245749, 32.409112], "type": "Point"}, "id": "KPndwTaw1Mxw8n2qVm9iwHdJ0f8=", "properties": {"@spider": "usps_collection_boxes", "addr:city": "RIDGELAND", "addr:country": "US", "addr:full": "611 S PEAR ORCHARD RD", "addr:postcode": "39157", "addr:state": "MS", "brand": "USPS", "collection_times": "Mo-Fr 17:30; Sa 12:30", "name": "USPS COLLECTION BOX - BLUE BOX", "note": "ON 12/24 AND 12/31, THIS BOX MAY BE COLLECTED AS EARLY AS 12 NOON.", "ref": "3915700037"}, "type": "Feature"}
{"geometry": {"coordinates": [-90.118544015, 32.399546441], "type": "Point"}, "id": "pk-W0IFKLGpClw_R3btCLwozX88=", "properties": {"@spider": "usps_collection_boxes", "addr:city": "RIDGELAND", "addr:country": "US", "addr:full": "1800 E COUNTY LINE RD", "addr:postcode": "39157", "addr:state": "MS", "brand": "USPS", "collection_times": "Mo-Fr 10:00", "name": "USPS COLLECTION BOX - BLUE BOX", "ref": "3915700049"}, "type": "Feature"}
{"geometry": {"coordinates": [-90.1479959, 32.443378], "type": "Point"}, "id": "0ks2XNh8azgs5tYYr0mWSnaG6kc=", "properties": {"@spider": "usps_collection_boxes", "addr:city": "RIDGELAND", "addr:country": "US", "addr:full": "1052 HIGHLAND COLONY PKWY", "addr:postcode": "39157", "addr:state": "MS", "brand": "USPS", "collection_times": "Mo-Fr 12:00", "name": "USPS COLLECTION BOX - BLUE BOX", "ref": "3915700057"}, "type": "Feature"}
{"geometry": {"coordinates": [-90.1480192, 32.443384], "type": "Point"}, "id": "eoaHYjdpwdcVyeHikyF89wCTf68=", "properties": {"@spider": "usps_collection_boxes", "addr:city": "RIDGELAND", "addr:country": "US", "addr:full": "1052 HIGHLAND COLONY PKWY", "addr:postcode": "39157", "addr:state": "MS", "brand": "USPS", "collection_times": "Mo-Fr 12:00", "name": "USPS COLLECTION BOX - BLUE BOX", "ref": "3915700058"}, "type": "Feature"}
{"geometry": {"coordinates": [-90.1480066, 32.443364], "type": "Point"}, "id": "vYAxXx0wX0oXWy-Pi1IsQ4ghhOs=", "properties": {"@spider": "usps_collection_boxes", "addr:city": "RIDGELAND", "addr:country": "US", "addr:full": "1052 HIGHLAND COLONY PKWY", "addr:postcode": "39157", "addr:state": "MS", "brand": "USPS", "collection_times": "Mo-Fr 12:00", "name": "USPS COLLECTION BOX - BLUE BOX", "ref": "3915700059"}, "type": "Feature"}
{"geometry": {"coordinates": [-90.1245655, 32.409133], "type": "Point"}, "id": "HfWJWcsf8Y6ajJpGla20-wjhD68=", "properties": {"@spider": "usps_collection_boxes", "addr:city": "RIDGELAND", "addr:country": "US", "addr:full": "611 S PEAR ORCHARD RD", "addr:postcode": "39157", "addr:state": "MS", "brand": "USPS", "collection_times": "Mo-Fr 17:30; Sa 12:30", "name": "USPS COLLECTION BOX - BLUE BOX", "note": "ON 12/24 AND 12/31, THIS BOX MAY BE COLLECTED AS EARLY AS 12 NOON.", "ref": "3915700073"}, "type": "Feature"}
{"geometry": {"coordinates": [-90.1243429, 32.409552], "type": "Point"}, "id": "u3RYYDiQuQVyZ6NKPkFzp2PHsM0=", "properties": {"@spider": "usps_collection_boxes", "addr:city": "RIDGELAND", "addr:country": "US", "addr:full": "611 S PEAR ORCHARD RD", "addr:postcode": "39157", "addr:state": "MS", "brand": "USPS", "collection_times": "Mo-Fr 17:30; Sa 12:30", "name": "USPS COLLECTION BOX - PO LOBBY", "note": "ON 12/24 AND 12/31, THIS BOX MAY BE COLLECTED AS EARLY AS 12 NOON.", "ref": "3915700074"}, "type": "Feature"}
{"geometry": {"coordinates": [-90.1137915, 32.401448], "type": "Point"}, "id": "75gd7SCnpXOzqIjHjRW9jTYFHHQ=", "properties": {"@spider": "usps_collection_boxes", "addr:city": "RIDGELAND", "addr:country": "US", "addr:full": "795 WOODLANDS PKWY", "addr:postcode": "39157", "addr:state": "MS", "brand": "USPS", "collection_times": "Mo-Fr 10:00", "name": "USPS COLLECTION BOX - BLUE BOX", "ref": "3915700079"}, "type": "Feature"}
{"geometry": {"coordinates": [-90.1238883, 32.402665], "type": "Point"}, "id": "Dal0U-4jDzuTeiGvRpHc213dlC8=", "properties": {"@spider": "usps_collection_boxes", "addr:city": "RIDGELAND", "addr:country": "US", "addr:full": "731 S PEAR ORCHARD RD", "addr:postcode": "39157", "addr:state": "MS", "brand": "USPS", "collection_times": "Mo-Fr 10:00", "name": "USPS COLLECTION BOX - BLUE BOX", "ref": "3915700080"}, "type": "Feature"}
{"geometry": {"coordinates": [-90.1404866, 32.400349], "type": "Point"}, "id": "fFPoy6DYzqtvPVVqsiHFGivXvAQ=", "properties": {"@spider": "usps_collection_boxes", "addr:city": "RIDGELAND", "addr:country": "US", "addr:full": "900 E COUNTY LINE RD", "addr:postcode": "39157", "addr:state": "MS", "brand": "USPS", "collection_times": "Mo-Fr 10:00", "name": "USPS COLLECTION BOX - BLUE BOX", "ref": "3915700081"}, "type": "Feature"}
{"geometry": {"coordinates": [-90.1730624, 32.404081], "type": "Point"}, "id": "RDcrn5sTt1AXFptYU-RpTRXv_Lo=", "properties": {"@spider": "usps_collection_boxes", "addr:city": "RIDGELAND", "addr:country": "US", "addr:full": "101 BUSINESS PARK DR", "addr:postcode": "39157", "addr:state": "MS", "brand": "USPS", "collection_times": "Mo-Fr 12:00", "name": "USPS COLLECTION BOX - BLUE BOX", "ref": "3915700082"}, "type": "Feature"}
{"geometry": {"coordinates": [-90.1730599, 32.404076], "type": "Point"}, "id": "ClWQZk4qcF0Iw9ILwrFGODw5C2I=", "properties": {"@spider": "usps_collection_boxes", "addr:city": "RIDGELAND", "addr:country": "US", "addr:full": "101 BUSINESS PARK DR", "addr:postcode": "39157", "addr:state": "MS", "brand": "USPS", "collection_times": "Mo-Fr 12:00", "name": "USPS COLLECTION BOX - BLUE BOX", "ref": "3915700083"}, "type": "Feature"}
{"geometry": {"coordinates": [-90.1730664, 32.404082], "type": "Point"}, "id": "Dem0mVDdgqgPSM4NSCTt_ot2jUA=", "properties": {"@spider": "usps_collection_boxes", "addr:city": "RIDGELAND", "addr:country": "US", "addr:full": "101 BUSINESS PARK DR", "addr:postcode": "39157", "addr:state": "MS", "brand": "USPS", "collection_times": "Mo-Fr 12:00", "name": "USPS COLLECTION BOX - BLUE BOX", "ref": "3915700084"}, "type": "Feature"}
{"geometry": {"coordinates": [-90.1730721, 32.404085], "type": "Point"}, "id": "LxCXWLxyKJhqiWgvlpRLuTkrBDc=", "properties": {"@spider": "usps_collection_boxes", "addr:city": "RIDGELAND", "addr:country": "US", "addr:full": "101 BUSINESS PARK DR", "addr:postcode": "39157", "addr:state": "MS", "brand": "USPS", "collection_times": "Mo-Fr 12:00", "name": "USPS COLLECTION BOX - BLUE BOX", "ref": "3915700087"}, "type": "Feature"}
{"geometry": {"coordinates": [-90.1243169, 32.409541], "type": "Point"}, "id": "K_IWKxy_j28N6iIEi25LSNOEkvo=", "properties": {"@spider": "usps_collection_boxes", "addr:city": "RIDGELAND", "addr:country": "US", "addr:full": "611 S PEAR ORCHARD RD", "addr:postcode": "39157", "addr:state": "MS", "brand": "USPS", "collection_times": "Mo-Fr 17:30; Sa 12:30", "name": "USPS COLLECTION BOX - APC", "note": "ON 12/24 AND 12/31, THIS BOX MAY BE COLLECTED AS EARLY AS 12 NOON.", "ref": "3915700090"}, "type": "Feature"}
{"geometry": {"coordinates": [-90.1242842, 32.409522], "type": "Point"}, "id": "WJ33b9zjRbBeN7lDqK4msGCwRCY=", "properties": {"@spider": "usps_collection_boxes", "addr:city": "RIDGELAND", "addr:country": "US", "addr:full": "611 S PEAR ORCHARD RD", "addr:postcode": "39157", "addr:state": "MS", "brand": "USPS", "collection_times": "Mo-Fr 17:30; Sa 12:30", "name": "USPS COLLECTION BOX - PO LOBBY", "note": "ON 12/24 AND 12/31, THIS BOX MAY BE COLLECTED AS EARLY AS 12 NOON.", "ref": "3915700091"}, "type": "Feature"}
{"geometry": {"coordinates": [-90.1489699, 32.438532], "type": "Point"}, "id": "3lp9gQJZCjP3CywP4XbGkjPArKw=", "properties": {"@spider": "usps_collection_boxes", "addr:city": "RIDGELAND", "addr:country": "US", "addr:full": "404 W PARKWAY PL", "addr:postcode": "39157", "addr:state": "MS", "brand": "USPS", "collection_times": "Mo-Fr 14:30", "name": "USPS COLLECTION BOX - BLUE BOX", "note": "ON 12/24 AND 12/31, THIS BOX MAY BE COLLECTED AS EARLY AS 12 NOON.", "ref": "3915700092"}, "type": "Feature"}
{"geometry": {"coordinates": [-90.1489618, 32.43853], "type": "Point"}, "id": "UlasgYn5UZnH1E24al_VsOLlrVs=", "properties": {"@spider": "usps_collection_boxes", "addr:city": "RIDGELAND", "addr:country": "US", "addr:full": "404 W PARKWAY PL", "addr:postcode": "39157", "addr:state": "MS", "brand": "USPS", "collection_times": "Mo-Fr 14:30", "name": "USPS COLLECTION BOX - BLUE BOX", "note": "ON 12/24 AND 12/31, THIS BOX MAY BE COLLECTED AS EARLY AS 12 NOON.", "ref": "3915700093"}, "type": "Feature"}
{"geometry": {"coordinates": [-90.1341323, 32.420284], "type": "Point"}, "id": "_m3-7J1JTSjaLlzvwoLIO-EwGcA=", "properties": {"@spider": "usps_collection_boxes", "addr:city": "RIDGELAND", "addr:country": "US", "addr:full": "398 HIGHWAY 51", "addr:postcode": "39157", "addr:state": "MS", "brand": "USPS", "collection_times": "Mo-Fr 12:00", "name": "USPS COLLECTION BOX - BLUE BOX", "ref": "3915700094"}, "type": "Feature"}
{"geometry": {"coordinates": [-90.1236177725, 32.4098238757], "type": "Point"}, "id": "byBMBfXv19DaZVUY5HNvQJp6eYs=", "properties": {"@spider": "usps_collection_boxes", "addr:city": "RIDGELAND", "addr:country": "US", "addr:full": "611 S PEAR ORCHARD RD", "addr:postcode": "39157", "addr:state": "MS", "brand": "USPS", "collection_times": "Mo-Fr 17:30; Sa 12:30", "name": "USPS COLLECTION BOX - PO LOBBY", "note": "ON 12/24 AND 12/31, THIS BOX MAY BE COLLECTED AS EARLY AS 12 NOON.", "ref": "3915700100"}, "type": "Feature"}
{"geometry": {"coordinates": [-90.8848962, 32.905123], "type": "Point"}, "id": "WMKGO_94WrXAtvbLQQ7uYdQZwTY=", "properties": {"@spider": "usps_collection_boxes", "addr:city": "ROLLING FORK", "addr:country": "US", "addr:full": "29 S FOURTH ST", "addr:postcode": "39159", "addr:state": "MS", "brand": "USPS", "collection_times": "Mo-Fr 11:00", "name": "USPS COLLECTION BOX - BLUE BOX", "ref": "3915900003"}, "type": "Feature"}
{"geometry": {"coordinates": [-90.875921, 32.908425], "type": "Point"}, "id": "ANoklIIkgzCq7qYwNAgMLZe-u5I=", "properties": {"@spider": "usps_collection_boxes", "addr:city": "ROLLING FORK", "addr:country": "US", "addr:full": "138 WALNUT ST", "addr:postcode": "39159", "addr:state": "MS", "brand": "USPS", "collection_times": "Mo-Fr 16:15; Sa 11:00", "name": "USPS COLLECTION BOX - PO LOBBY", "note": "ON 12/24 AND 12/31, THIS BOX MAY BE COLLECTED AS EARLY AS 12 NOON.", "ref": "3915900004"}, "type": "Feature"}
{"geometry": {"coordinates": [-90.875921, 32.908425], "type": "Point"}, "id": "1Qw0ITcCeXczBb-3DXd5j0kecCw=", "properties": {"@spider": "usps_collection_boxes", "addr:city": "ROLLING FORK", "addr:country": "US", "addr:full": "138 WALNUT ST", "addr:postcode": "39159", "addr:state": "MS", "brand": "USPS", "collection_times": "Mo-Fr 15:00; Sa 11:00", "name": "USPS COLLECTION BOX - BLUE BOX", "note": "ON 12/24 AND 12/31, THIS BOX MAY BE COLLECTED AS EARLY AS 12 NOON.", "ref": "3915900006"}, "type": "Feature"}
{"geometry": {"coordinates": [-90.872736428, 32.908383598], "type": "Point"}, "id": "2fjOhtzdGsHOVRfg1tj5_eFuooc=", "properties": {"@spider": "usps_collection_boxes", "addr:city": "ROLLING FORK", "addr:country": "US", "addr:full": "400 WALNUT ST", "addr:postcode": "39159", "addr:state": "MS", "brand": "USPS", "collection_times": "Mo-Fr 16:15; Sa 11:00", "name": "USPS COLLECTION BOX - PO LOBBY", "note": "ON 12/24 AND 12/31, THIS BOX MAY BE COLLECTED AS EARLY AS 12 NOON.", "ref": "3915900007"}, "type": "Feature"}
{"geometry": {"coordinates": [-89.765482104, 33.019216806], "type": "Point"}, "id": "9YsSC8z7YuIhtNagjj8sa5QZzgY=", "properties": {"@spider": "usps_collection_boxes", "addr:city": "SALLIS", "addr:country": "US", "addr:full": "6285 FRONT ST", "addr:postcode": "39160", "addr:state": "MS", "brand": "USPS", "collection_times": "Mo-Fr 14:30", "name": "USPS COLLECTION BOX - BLUE BOX", "note": "ON 12/24 AND 12/31, THIS BOX MAY BE COLLECTED AS EARLY AS 12 NOON.", "ref": "3916000001"}, "type": "Feature"}
{"geometry": {"coordinates": [-89.765482104, 33.019216806], "type": "Point"}, "id": "7FRo3BZWJM0iXW936CrMk5mM9JU=", "properties": {"@spider": "usps_collection_boxes", "addr:city": "SALLIS", "addr:country": "US", "addr:full": "6285 FRONT ST", "addr:postcode": "39160", "addr:state": "MS", "brand": "USPS", "collection_times": "Mo-Fr 14:30", "name": "USPS COLLECTION BOX - PO LOBBY", "note": "ON 12/24 AND 12/31, THIS BOX MAY BE COLLECTED AS EARLY AS 12 NOON.", "ref": "3916000006"}, "type": "Feature"}
{"geometry": {"coordinates": [-89.87509328, 32.486970554], "type": "Point"}, "id": "8eFd5MWNZkrfFSl2TqImYvitbN8=", "properties": {"@spider": "usps_collection_boxes", "addr:city": "SANDHILL", "addr:country": "US", "addr:full": "189 CARTER STORE RD", "addr:postcode": "39161", "addr:state": "MS", "brand": "USPS", "collection_times": "Mo-Fr 11:30", "name": "USPS COLLECTION BOX - BLUE BOX", "ref": "3916100001"}, "type": "Feature"}
{"geometry": {"coordinates": [-89.87509328, 32.486970554], "type": "Point"}, "id": "giUDn35PvPhfqs14nYLSpDj1rTc=", "properties": {"@spider": "usps_collection_boxes", "addr:city": "SANDHILL", "addr:country": "US", "addr:full": "189 CARTER STORE RD", "addr:postcode": "39161", "addr:state": "MS", "brand": "USPS", "collection_times": "Mo-Fr 11:30", "name": "USPS COLLECTION BOX - PO LOBBY", "ref": "3916100004"}, "type": "Feature"}
{"geometry": {"coordinates": [-90.540777203, 32.666493542], "type": "Point"}, "id": "h5-jE31-uFKyTYA7g4WgAKoCQ8g=", "properties": {"@spider": "usps_collection_boxes", "addr:city": "SATARTIA", "addr:country": "US", "addr:full": "9334 HIGHWAY 3", "addr:postcode": "39162", "addr:state": "MS", "brand": "USPS", "collection_times": "Mo-Fr 12:00", "name": "USPS COLLECTION BOX - BLUE BOX", "ref": "3916200001"}, "type": "Feature"}
{"geometry": {"coordinates": [-90.540777203, 32.666493542], "type": "Point"}, "id": "qZUe_YKELDToYFASnsHTULjLcos=", "properties": {"@spider": "usps_collection_boxes", "addr:city": "SATARTIA", "addr:country": "US", "addr:full": "9334 HIGHWAY 3", "addr:postcode": "39162", "addr:state": "MS", "brand": "USPS", "collection_times": "Mo-Fr 12:00", "name": "USPS COLLECTION BOX - PO LOBBY", "ref": "3916200003"}, "type": "Feature"}
{"geometry": {"coordinates": [-91.396064177, 31.376726413], "type": "Point"}, "id": "_KoCZl6pk78IX2YIUZ1IsNCsblU=", "properties": {"@spider": "usps_collection_boxes", "addr:city": "SIBLEY", "addr:country": "US", "addr:full": "1258 HIGHWAY 61 S", "addr:postcode": "39165", "addr:state": "MS", "brand": "USPS", "collection_times": "Mo-Fr 11:00", "name": "USPS COLLECTION BOX - BLUE BOX", "ref": "3916500001"}, "type": "Feature"}
{"geometry": {"coordinates": [-91.396064177, 31.376726413], "type": "Point"}, "id": "Z1nV_gKJ_ub9sgrvWQ8ZctMgOwg=", "properties": {"@spider": "usps_collection_boxes", "addr:city": "SIBLEY", "addr:country": "US", "addr:full": "1258 HIGHWAY 61 S", "addr:postcode": "39165", "addr:state": "MS", "brand": "USPS", "collection_times": "Mo-Fr 11:00; Sa 08:00", "name": "USPS COLLECTION BOX - PO LOBBY", "ref": "3916500004"}, "type": "Feature"}
{"geometry": {"coordinates": [-91.396064177, 31.376726413], "type": "Point"}, "id": "YoIEnpOR3PMzWd7-LiEKrb1axCo=", "properties": {"@spider": "usps_collection_boxes", "addr:city": "SIBLEY", "addr:country": "US", "addr:full": "1258 HIGHWAY 61 S", "addr:postcode": "39165", "addr:state": "MS", "brand": "USPS", "collection_times": "Mo-Fr 11:00", "name": "USPS COLLECTION BOX - PO LOBBY", "ref": "3916500005"}, "type": "Feature"}
{"geometry": {"coordinates": [-90.4956165, 33.0962355], "type": "Point"}, "id": "ezg_X_pdKlBXANgphC7Mx7vl9Ck=", "properties": {"@spider": "usps_collection_boxes", "addr:city": "SILVER CITY", "addr:country": "US", "addr:full": "65 WEST ST", "addr:postcode": "39166", "addr:state": "MS", "brand": "USPS", "collection_times": "Mo-Fr 11:00; Sa 08:30", "name": "USPS COLLECTION BOX - BLUE BOX", "ref": "3916600001"}, "type": "Feature"}
{"geometry": {"coordinates": [-90.4956165, 33.0962355], "type": "Point"}, "id": "xJAcgJyN5RQhcSPg0ip7WfoAEN8=", "properties": {"@spider": "usps_collection_boxes", "addr:city": "SILVER CITY", "addr:country": "US", "addr:full": "65 WEST ST", "addr:postcode": "39166", "addr:state": "MS", "brand": "USPS", "collection_times": "Mo-Sa 11:00", "name": "USPS COLLECTION BOX - BLUE BOX", "ref": "3916600004"}, "type": "Feature"}
{"geometry": {"coordinates": [-90.4956165, 33.0962355], "type": "Point"}, "id": "5HclpcONKHc7d3Sc66uEyIoge58=", "properties": {"@spider": "usps_collection_boxes", "addr:city": "SILVER CITY", "addr:country": "US", "addr:full": "65 WEST ST", "addr:postcode": "39166", "addr:state": "MS", "brand": "USPS", "collection_times": "Mo-Fr 11:00", "name": "USPS COLLECTION BOX - PO LOBBY", "ref": "3916600005"}, "type": "Feature"}
{"geometry": {"coordinates": [-90.044964784, 32.097711249], "type": "Point"}, "id": "IcZ4_3hpo8fv3b9WS_wl6jpAjYA=", "properties": {"@spider": "usps_collection_boxes", "addr:city": "STAR", "addr:country": "US", "addr:full": "339 MANGUM DR", "addr:postcode": "39167", "addr:state": "MS", "brand": "USPS", "collection_times": "Mo-Fr 12:00; Sa 10:00", "name": "USPS COLLECTION BOX - BLUE BOX", "ref": "3916700001"}, "type": "Feature"}
{"geometry": {"coordinates": [-90.044964784, 32.097711249], "type": "Point"}, "id": "08MOcdzf6dGWl4Gf6_QYsOmIzFw=", "properties": {"@spider": "usps_collection_boxes", "addr:city": "STAR", "addr:country": "US", "addr:full": "339 MANGUM DR", "addr:postcode": "39167", "addr:state": "MS", "brand": "USPS", "collection_times": "Mo-Fr 12:00; Sa 10:00", "name": "USPS COLLECTION BOX - PO LOBBY", "ref": "3916700002"}, "type": "Feature"}
{"geometry": {"coordinates": [-90.044964784, 32.097711249], "type": "Point"}, "id": "00YiGM_-tGqAkR6Qi06D2-Ji3pM=", "properties": {"@spider": "usps_collection_boxes", "addr:city": "STAR", "addr:country": "US", "addr:full": "339 MANGUM DR", "addr:postcode": "39167", "addr:state": "MS", "brand": "USPS", "collection_times": "Mo-Fr 12:00; Sa 10:00", "name": "USPS COLLECTION BOX - PO LOBBY", "ref": "3916700004"}, "type": "Feature"}
{"geometry": {"coordinates": [-89.417358651, 31.828199138], "type": "Point"}, "id": "qnDUYk1DEGWpcBtVCbqBhPkQkYU=", "properties": {"@spider": "usps_collection_boxes", "addr:city": "TAYLORSVILLE", "addr:country": "US", "addr:full": "750 HIGHWAY 28 E", "addr:postcode": "39168", "addr:state": "MS", "brand": "USPS", "collection_times": "Mo-Fr 16:00; Sa 10:15", "name": "USPS COLLECTION BOX - BLUE BOX", "note": "ON 12/24 AND 12/31, THIS BOX MAY BE COLLECTED AS EARLY AS 12 NOON.", "ref": "3916800001"}, "type": "Feature"}
{"geometry": {"coordinates": [-89.417358651, 31.828199138], "type": "Point"}, "id": "U1odNK115N1hexCsN_ZBBmwtt_g=", "properties": {"@spider": "usps_collection_boxes", "addr:city": "TAYLORSVILLE", "addr:country": "US", "addr:full": "750 HIGHWAY 28 E", "addr:postcode": "39168", "addr:state": "MS", "brand": "USPS", "collection_times": "Mo-Fr 16:00; Sa 10:15", "name": "USPS COLLECTION BOX - PO LOBBY", "note": "ON 12/24 AND 12/31, THIS BOX MAY BE COLLECTED AS EARLY AS 12 NOON.", "ref": "3916800002"}, "type": "Feature"}
{"geometry": {"coordinates": [-89.417358651, 31.828199138], "type": "Point"}, "id": "jPhXlCvMB-YI2DmUu7dPDy109VQ=", "properties": {"@spider": "usps_collection_boxes", "addr:city": "TAYLORSVILLE", "addr:country": "US", "addr:full": "750 HIGHWAY 28 E", "addr:postcode": "39168", "addr:state": "MS", "brand": "USPS", "collection_times": "Mo-Fr 16:00; Sa 10:30", "name": "USPS COLLECTION BOX - PO LOBBY", "note": "ON 12/24 AND 12/31, THIS BOX MAY BE COLLECTED AS EARLY AS 12 NOON.", "ref": "3916800008"}, "type": "Feature"}
{"geometry": {"coordinates": [-90.223221472, 33.183133362], "type": "Point"}, "id": "LHz5m3pdocO8w3efIbL6X62j1TE=", "properties": {"@spider": "usps_collection_boxes", "addr:city": "TCHULA", "addr:country": "US", "addr:full": "142 MERCER ST", "addr:postcode": "39169", "addr:state": "MS", "brand": "USPS", "collection_times": "Mo-Fr 16:15", "name": "USPS COLLECTION BOX - BLUE BOX", "note": "ON 12/24 AND 12/31, THIS BOX MAY BE COLLECTED AS EARLY AS 12 NOON.", "ref": "3916900001"}, "type": "Feature"}
{"geometry": {"coordinates": [-90.223221472, 33.183133362], "type": "Point"}, "id": "iTnEvIuWPJmtNXIHTukC493ETo4=", "properties": {"@spider": "usps_collection_boxes", "addr:city": "TCHULA", "addr:country": "US", "addr:full": "142 MERCER ST", "addr:postcode": "39169", "addr:state": "MS", "brand": "USPS", "collection_times": "Mo-Fr 16:15; Sa 08:00", "name": "USPS COLLECTION BOX - PO LOBBY", "note": "ON 12/24 AND 12/31, THIS BOX MAY BE COLLECTED AS EARLY AS 12 NOON.", "ref": "3916900002"}, "type": "Feature"}
{"geometry": {"coordinates": [-90.223221472, 33.183133362], "type": "Point"}, "id": "N96-s_crs48SclMjVQU1jp7D5mg=", "properties": {"@spider": "usps_collection_boxes", "addr:city": "TCHULA", "addr:country": "US", "addr:full": "142 MERCER ST", "addr:postcode": "39169", "addr:state": "MS", "brand": "USPS", "collection_times": "Mo-Fr 16:00", "name": "USPS COLLECTION BOX - PO LOBBY", "note": "ON 12/24 AND 12/31, THIS BOX MAY BE COLLECTED AS EARLY AS 12 NOON.", "ref": "3916900006"}, "type": "Feature"}
{"geometry": {"coordinates": [-90.298665, 32.098855], "type": "Point"}, "id": "phcWixJj1Ee0Lihm7XjgSr824lU=", "properties": {"@spider": "usps_collection_boxes", "addr:city": "TERRY", "addr:country": "US", "addr:full": "404 W CUNNINGHAM AVE", "addr:postcode": "39170", "addr:state": "MS", "brand": "USPS", "collection_times": "Mo-Fr 16:30; Sa 10:00", "name": "USPS COLLECTION BOX - BLUE BOX", "note": "ON 12/24 AND 12/31, THIS BOX MAY BE COLLECTED AS EARLY AS 12 NOON.", "ref": "3917000001"}, "type": "Feature"}
{"geometry": {"coordinates": [-90.298665, 32.098855], "type": "Point"}, "id": "FI-HzIl5qs-WBgdZXeS1bC8CmFE=", "properties": {"@spider": "usps_collection_boxes", "addr:city": "TERRY", "addr:country": "US", "addr:full": "404 W CUNNINGHAM AVE", "addr:postcode": "39170", "addr:state": "MS", "brand": "USPS", "collection_times": "Mo-Fr 16:30; Sa 10:00", "name": "USPS COLLECTION BOX - PO LOBBY", "note": "ON 12/24 AND 12/31, THIS BOX MAY BE COLLECTED AS EARLY AS 12 NOON.", "ref": "3917000002"}, "type": "Feature"}
{"geometry": {"coordinates": [-90.2986642746, 32.0988518457], "type": "Point"}, "id": "S_G5Srt7_1_HQHhaDLBMbywrpcI=", "properties": {"@spider": "usps_collection_boxes", "addr:city": "TERRY", "addr:country": "US", "addr:full": "404 W CUNNINGHAM AVE", "addr:postcode": "39170", "addr:state": "MS", "brand": "USPS", "collection_times": "Mo-Fr 16:30; Sa 10:00", "name": "USPS COLLECTION BOX - PO LOBBY", "note": "ON 12/24 AND 12/31, THIS BOX MAY BE COLLECTED AS EARLY AS 12 NOON.", "ref": "3917000004"}, "type": "Feature"}
{"geometry": {"coordinates": [-90.157851, 32.400196536], "type": "Point"}, "id": "XWdJqa43lxH2YwVZOWLU_O8j0lA=", "properties": {"@spider": "usps_collection_boxes", "addr:city": "TOUGALOO", "addr:country": "US", "addr:full": "501 W COUNTY LINE RD", "addr:postcode": "39174", "addr:state": "MS", "brand": "USPS", "collection_times": "Mo-Fr 16:00; Sa 10:30", "name": "USPS COLLECTION BOX - BLUE BOX", "note": "ON 12/24 AND 12/31, THIS BOX MAY BE COLLECTED AS EARLY AS 12 NOON.", "ref": "3917400001"}, "type": "Feature"}
{"geometry": {"coordinates": [-90.157851, 32.400196536], "type": "Point"}, "id": "ls7tI8p9AX3A1Tr8axf1mVwNr5E=", "properties": {"@spider": "usps_collection_boxes", "addr:city": "TOUGALOO", "addr:country": "US", "addr:full": "501 W COUNTY LINE RD", "addr:postcode": "39174", "addr:state": "MS", "brand": "USPS", "collection_times": "Mo-Fr 16:00; Sa 10:30", "name": "USPS COLLECTION BOX - BLUE BOX", "note": "ON 12/24 AND 12/31, THIS BOX MAY BE COLLECTED AS EARLY AS 12 NOON.", "ref": "3917400002"}, "type": "Feature"}
{"geometry": {"coordinates": [-90.157851, 32.400196536], "type": "Point"}, "id": "_BqjMJQfBISro5iEJzXijxC5tHE=", "properties": {"@spider": "usps_collection_boxes", "addr:city": "TOUGALOO", "addr:country": "US", "addr:full": "501 W COUNTY LINE RD", "addr:postcode": "39174", "addr:state": "MS", "brand": "USPS", "collection_times": "Mo-Fr 16:00; Sa 10:30", "name": "USPS COLLECTION BOX - PO LOBBY", "note": "ON 12/24 AND 12/31, THIS BOX MAY BE COLLECTED AS EARLY AS 12 NOON.", "ref": "3917400003"}, "type": "Feature"}
{"geometry": {"coordinates": [-90.157851, 32.400196536], "type": "Point"}, "id": "XWYFUQZJZr5JaSWSgUmypEYb1xg=", "properties": {"@spider": "usps_collection_boxes", "addr:city": "TOUGALOO", "addr:country": "US", "addr:full": "501 W COUNTY LINE RD", "addr:postcode": "39174", "addr:state": "MS", "brand": "USPS", "collection_times": "Mo-Fr 16:00; Sa 10:30", "name": "USPS COLLECTION BOX - PO LOBBY", "note": "ON 12/24 AND 12/31, THIS BOX MAY BE COLLECTED AS EARLY AS 12 NOON.", "ref": "3917400005"}, "type": "Feature"}
{"geometry": {"coordinates": [-90.624842, 32.106723], "type": "Point"}, "id": "tQxrcLlXsVj7ncf_fQ6K7sq6vfk=", "properties": {"@spider": "usps_collection_boxes", "addr:city": "UTICA", "addr:country": "US", "addr:full": "310 DEPOT ST", "addr:postcode": "39175", "addr:state": "MS", "brand": "USPS", "collection_times": "Mo-Fr 16:00; Sa 11:00", "name": "USPS COLLECTION BOX - BLUE BOX", "note": "ON 12/24 AND 12/31, THIS BOX MAY BE COLLECTED AS EARLY AS 12 NOON.", "ref": "3917500001"}, "type": "Feature"}
{"geometry": {"coordinates": [-90.6249308066, 32.1063826373], "type": "Point"}, "id": "muYYac11mO54dHNx_oG21THxJ3Q=", "properties": {"@spider": "usps_collection_boxes", "addr:city": "UTICA", "addr:country": "US", "addr:full": "310 DEPOT ST", "addr:postcode": "39175", "addr:state": "MS", "brand": "USPS", "collection_times": "Mo-Fr 16:30; Sa 11:00", "name": "USPS COLLECTION BOX - PO LOBBY", "note": "ON 12/24 AND 12/31, THIS BOX MAY BE COLLECTED AS EARLY AS 12 NOON.", "ref": "3917500004"}, "type": "Feature"}
{"geometry": {"coordinates": [-89.7401007182, 33.3288654751], "type": "Point"}, "id": "-j2Jqc3UtJDZcstc6_FNM5EiFas=", "properties": {"@spider": "usps_collection_boxes", "addr:city": "VAIDEN", "addr:country": "US", "addr:full": "1001 FRONT ST", "addr:postcode": "39176", "addr:state": "MS", "brand": "USPS", "collection_times": "Mo-Fr 16:00; Sa 10:30", "name": "USPS COLLECTION BOX - PO LOBBY", "note": "ON 12/24 AND 12/31, THIS BOX MAY BE COLLECTED AS EARLY AS 12 NOON.", "ref": "3917600004"}, "type": "Feature"}
{"geometry": {"coordinates": [-90.8175459011, 32.5309386234], "type": "Point"}, "id": "ekCX4qtohkglCUpN-ka-qqbI45s=", "properties": {"@spider": "usps_collection_boxes", "addr:city": "VALLEY PARK", "addr:country": "US", "addr:full": "4411 HIGHWAY 61 N", "addr:postcode": "39177", "addr:state": "MS", "brand": "USPS", "collection_times": "Mo-Fr 14:30", "name": "USPS COLLECTION BOX - BLUE BOX", "note": "ON 12/24 AND 12/31, THIS BOX MAY BE COLLECTED AS EARLY AS 12 NOON.", "ref": "3917700001"}, "type": "Feature"}
{"geometry": {"coordinates": [-90.8175459011, 32.5309386234], "type": "Point"}, "id": "nE8oc9ACCu_FkOkz9UFB6BhPyRQ=", "properties": {"@spider": "usps_collection_boxes", "addr:city": "VALLEY PARK", "addr:country": "US", "addr:full": "4411 HIGHWAY 61 N", "addr:postcode": "39177", "addr:state": "MS", "brand": "USPS", "collection_times": "Mo-Fr 14:30; Sa 08:00", "name": "USPS COLLECTION BOX - PO LOBBY", "note": "ON 12/24 AND 12/31, THIS BOX MAY BE COLLECTED AS EARLY AS 12 NOON.", "ref": "3917700002"}, "type": "Feature"}
{"geometry": {"coordinates": [-90.8175517564, 32.5309433338], "type": "Point"}, "id": "AawvveBoeInZZfepY7RH1g6uSUM=", "properties": {"@spider": "usps_collection_boxes", "addr:city": "VALLEY PARK", "addr:country": "US", "addr:full": "4411 HIGHWAY 61 N", "addr:postcode": "39177", "addr:state": "MS", "brand": "USPS", "collection_times": "Mo-Fr 14:30", "name": "USPS COLLECTION BOX - PO LOBBY", "note": "ON 12/24 AND 12/31, THIS BOX MAY BE COLLECTED AS EARLY AS 12 NOON.", "ref": "3917700004"}, "type": "Feature"}
{"geometry": {"coordinates": [-90.8823869947, 32.3129456358], "type": "Point"}, "id": "6tKi59EaC6kDPzYTrp6vFuDhAjA=", "properties": {"@spider": "usps_collection_boxes", "addr:city": "VICKSBURG", "addr:country": "US", "addr:full": "3415 PEMBERTON SQUARE BLVD", "addr:postcode": "39180", "addr:state": "MS", "brand": "USPS", "collection_times": "Mo-Fr 16:55; Sa 16:00", "name": "USPS COLLECTION BOX - BLUE BOX", "note": "ON 12/24 AND 12/31, THIS BOX MAY BE COLLECTED AS EARLY AS 12 NOON.", "ref": "3918000004"}, "type": "Feature"}
{"geometry": {"coordinates": [-90.8823869947, 32.3129456358], "type": "Point"}, "id": "CfqlqWgDNd9n9iM_lFJZI2JOTzM=", "properties": {"@spider": "usps_collection_boxes", "addr:city": "VICKSBURG", "addr:country": "US", "addr:full": "3415 PEMBERTON SQUARE BLVD", "addr:postcode": "39180", "addr:state": "MS", "brand": "USPS", "collection_times": "Mo-Fr 16:55; Sa 16:00", "name": "USPS COLLECTION BOX - BLUE BOX", "note": "ON 12/24 AND 12/31, THIS BOX MAY BE COLLECTED AS EARLY AS 12 NOON.", "ref": "3918000005"}, "type": "Feature"}
{"geometry": {"coordinates": [-90.8733418851, 32.3019124848], "type": "Point"}, "id": "EQyAcxkoPTzTvG5uJemnolcvKiY=", "properties": {"@spider": "usps_collection_boxes", "addr:city": "VICKSBURG", "addr:country": "US", "addr:full": "3909 HALLS FERRY RD", "addr:postcode": "39180", "addr:state": "MS", "brand": "USPS", "collection_times": "Mo-Fr 14:15", "name": "USPS COLLECTION BOX - BLUE BOX", "note": "ON 12/24 AND 12/31, THIS BOX MAY BE COLLECTED AS EARLY AS 12 NOON.", "ref": "3918000012"}, "type": "Feature"}
{"geometry": {"coordinates": [-90.8642842, 32.32875], "type": "Point"}, "id": "CXGw3k9z3EFhBMhHwZWOHrPsRZ8=", "properties": {"@spider": "usps_collection_boxes", "addr:city": "VICKSBURG", "addr:country": "US", "addr:full": "3046 INDIANA AVE", "addr:postcode": "39180", "addr:state": "MS", "brand": "USPS", "collection_times": "Mo-Fr 12:30", "name": "USPS COLLECTION BOX - BLUE BOX", "note": "ON 12/24 AND 12/31, THIS BOX MAY BE COLLECTED AS EARLY AS 12 NOON.", "ref": "3918000023"}, "type": "Feature"}
{"geometry": {"coordinates": [-90.834374089, 32.34404746], "type": "Point"}, "id": "u5ctbvOUlW4sUjJsHx_97aEYvcw=", "properties": {"@spider": "usps_collection_boxes", "addr:city": "VICKSBURG", "addr:country": "US", "addr:full": "4155 CLAY ST", "addr:postcode": "39180", "addr:state": "MS", "brand": "USPS", "collection_times": "Mo-Fr 12:45", "name": "USPS COLLECTION BOX - BLUE BOX", "note": "ON 12/24 AND 12/31, THIS BOX MAY BE COLLECTED AS EARLY AS 12 NOON.", "ref": "3918000032"}, "type": "Feature"}
{"geometry": {"coordinates": [-90.841482, 32.340933], "type": "Point"}, "id": "3-aGkaTtiv8KgDuU5MFDa_bW2Lg=", "properties": {"@spider": "usps_collection_boxes", "addr:city": "VICKSBURG", "addr:country": "US", "addr:full": "4000 S FRONTAGE RD", "addr:postcode": "39180", "addr:state": "MS", "brand": "USPS", "collection_times": "Mo-Fr 12:30", "name": "USPS COLLECTION BOX - BLUE BOX", "note": "ON 12/24 AND 12/31, THIS BOX MAY BE COLLECTED AS EARLY AS 12 NOON.", "ref": "3918000034"}, "type": "Feature"}
{"geometry": {"coordinates": [-90.8765056, 32.312375], "type": "Point"}, "id": "71gSvjv7X1YrO_QJZoOlGgTAW0A=", "properties": {"@spider": "usps_collection_boxes", "addr:city": "VICKSBURG", "addr:country": "US", "addr:full": "3427 HALLS FERRY RD", "addr:postcode": "39180", "addr:state": "MS", "brand": "USPS", "collection_times": "Mo-Fr 14:15", "name": "USPS COLLECTION BOX - BLUE BOX", "note": "ON 12/24 AND 12/31, THIS BOX MAY BE COLLECTED AS EARLY AS 12 NOON.", "ref": "3918000037"}, "type": "Feature"}
{"geometry": {"coordinates": [-90.8670645, 32.322714], "type": "Point"}, "id": "QqMRIlRZZd_RhPC2pCDOF0X3iew=", "properties": {"@spider": "usps_collection_boxes", "addr:city": "VICKSBURG", "addr:country": "US", "addr:full": "2080 S FRONTAGE RD", "addr:postcode": "39180", "addr:state": "MS", "brand": "USPS", "collection_times": "Mo-Fr 10:30", "name": "USPS COLLECTION BOX - BLUE BOX", "ref": "3918000060"}, "type": "Feature"}
{"geometry": {"coordinates": [-90.8823869947, 32.3129456358], "type": "Point"}, "id": "5tEUnnv6BzRbbKIg5iNshQQpetQ=", "properties": {"@spider": "usps_collection_boxes", "addr:city": "VICKSBURG", "addr:country": "US", "addr:full": "3415 PEMBERTON SQUARE BLVD", "addr:postcode": "39180", "addr:state": "MS", "brand": "USPS", "collection_times": "Mo-Fr 16:55; Sa 16:00", "name": "USPS COLLECTION BOX - BLUE BOX", "note": "ON 12/24 AND 12/31, THIS BOX MAY BE COLLECTED AS EARLY AS 12 NOON.", "ref": "3918000061"}, "type": "Feature"}
{"geometry": {"coordinates": [-90.8823869947, 32.3129456358], "type": "Point"}, "id": "ZE9kffP69Ph2DBU5qYOpA9xAJhs=", "properties": {"@spider": "usps_collection_boxes", "addr:city": "VICKSBURG", "addr:country": "US", "addr:full": "3415 PEMBERTON SQUARE BLVD", "addr:postcode": "39180", "addr:state": "MS", "brand": "USPS", "collection_times": "Mo-Fr 16:55; Sa 16:00", "name": "USPS COLLECTION BOX - BLUE BOX", "note": "ON 12/24 AND 12/31, THIS BOX MAY BE COLLECTED AS EARLY AS 12 NOON.", "ref": "3918000062"}, "type": "Feature"}
{"geometry": {"coordinates": [-90.8301337, 32.360695], "type": "Point"}, "id": "fo8lIVAiZk8dd37AknXPAQCVdBA=", "properties": {"@spider": "usps_collection_boxes", "addr:city": "VICKSBURG", "addr:country": "US", "addr:full": "120 HOLT COLLIER DR", "addr:postcode": "39180", "addr:state": "MS", "brand": "USPS", "collection_times": "Mo-Fr 12:00", "name": "USPS COLLECTION BOX - BLUE BOX", "ref": "3918000064"}, "type": "Feature"}
{"geometry": {"coordinates": [-90.880411945, 32.348888616], "type": "Point"}, "id": "k6TR3uUYVlo4eqixj9LqbNiu1F4=", "properties": {"@spider": "usps_collection_boxes", "addr:city": "VICKSBURG", "addr:country": "US", "addr:full": "820 CRAWFORD ST", "addr:postcode": "39180", "addr:state": "MS", "brand": "USPS", "collection_times": "Mo-Fr 15:00", "name": "USPS COLLECTION BOX - BLUE BOX", "note": "ON 12/24 AND 12/31, THIS BOX MAY BE COLLECTED AS EARLY AS 12 NOON.", "ref": "3918000065"}, "type": "Feature"}
{"geometry": {"coordinates": [-90.880411945, 32.348888616], "type": "Point"}, "id": "smTGQcemDAgX5RSHdzd8MIArmNc=", "properties": {"@spider": "usps_collection_boxes", "addr:city": "VICKSBURG", "addr:country": "US", "addr:full": "820 CRAWFORD ST", "addr:postcode": "39180", "addr:state": "MS", "brand": "USPS", "collection_times": "Mo-Fr 15:00", "name": "USPS COLLECTION BOX - BLUE BOX", "note": "ON 12/24 AND 12/31, THIS BOX MAY BE COLLECTED AS EARLY AS 12 NOON.", "ref": "3918000066"}, "type": "Feature"}
{"geometry": {"coordinates": [-90.8822324, 32.349352], "type": "Point"}, "id": "qRtcMTRtr8LdY9z_QEVnpNVxkE4=", "properties": {"@spider": "usps_collection_boxes", "addr:city": "VICKSBURG", "addr:country": "US", "addr:full": "1318 WASHINGTON ST", "addr:postcode": "39180", "addr:state": "MS", "brand": "USPS", "collection_times": "Mo-Fr 15:00", "name": "USPS COLLECTION BOX - BLUE BOX", "note": "ON 12/24 AND 12/31, THIS BOX MAY BE COLLECTED AS EARLY AS 12 NOON.", "ref": "3918000067"}, "type": "Feature"}
{"geometry": {"coordinates": [-90.8823869947, 32.3129456358], "type": "Point"}, "id": "6d53YdYJI9mqvds6cyTHyMRuvj0=", "properties": {"@spider": "usps_collection_boxes", "addr:city": "VICKSBURG", "addr:country": "US", "addr:full": "3415 PEMBERTON SQUARE BLVD", "addr:postcode": "39180", "addr:state": "MS", "brand": "USPS", "collection_times": "Mo-Fr 17:15; Sa 16:00", "name": "USPS COLLECTION BOX - PO LOBBY", "note": "ON 12/24 AND 12/31, THIS BOX MAY BE COLLECTED AS EARLY AS 12 NOON.", "ref": "3918000080"}, "type": "Feature"}
{"geometry": {"coordinates": [-90.8823869947, 32.3129456358], "type": "Point"}, "id": "k5nq7s5Y4j2ib7U0e5mXaWuWjeE=", "properties": {"@spider": "usps_collection_boxes", "addr:city": "VICKSBURG", "addr:country": "US", "addr:full": "3415 PEMBERTON SQUARE BLVD", "addr:postcode": "39180", "addr:state": "MS", "brand": "USPS", "collection_times": "Mo-Fr 17:15; Sa 16:00", "name": "USPS COLLECTION BOX - PO LOBBY", "note": "ON 12/24 AND 12/31, THIS BOX MAY BE COLLECTED AS EARLY AS 12 NOON.", "ref": "3918000081"}, "type": "Feature"}
{"geometry": {"coordinates": [-90.8697606289, 32.3485053511], "type": "Point"}, "id": "RFREIAefzt7iJTv8MFHDBxIijWA=", "properties": {"@spider": "usps_collection_boxes", "addr:city": "VICKSBURG", "addr:country": "US", "addr:full": "1713 CLAY ST", "addr:postcode": "39180", "addr:state": "MS", "brand": "USPS", "collection_times": "Mo-Fr 12:30", "name": "USPS COLLECTION BOX - BLUE BOX", "note": "ON 12/24 AND 12/31, THIS BOX MAY BE COLLECTED AS EARLY AS 12 NOON.", "ref": "3918000085"}, "type": "Feature"}
{"geometry": {"coordinates": [-90.882386995, 32.312945636], "type": "Point"}, "id": "erYbWzWSeIoXKxiMWSgS2vMFkCs=", "properties": {"@spider": "usps_collection_boxes", "addr:city": "VICKSBURG", "addr:country": "US", "addr:full": "3415 PEMBERTON SQUARE BLVD", "addr:postcode": "39180", "addr:state": "MS", "brand": "USPS", "collection_times": "Mo-Fr 16:55", "name": "USPS COLLECTION BOX - BLUE BOX", "note": "ON 12/24 AND 12/31, THIS BOX MAY BE COLLECTED AS EARLY AS 12 NOON.", "ref": "3918000086"}, "type": "Feature"}
{"geometry": {"coordinates": [-90.8770146, 32.352376], "type": "Point"}, "id": "YAI2pDRTkb_u2yCByRLymPXIktk=", "properties": {"@spider": "usps_collection_boxes", "addr:city": "VICKSBURG", "addr:country": "US", "addr:full": "1019 ADAMS ST", "addr:postcode": "39180", "addr:state": "MS", "brand": "USPS", "collection_times": "Mo-Fr 14:15", "name": "USPS COLLECTION BOX - BLUE BOX", "note": "ON 12/24 AND 12/31, THIS BOX MAY BE COLLECTED AS EARLY AS 12 NOON.", "ref": "3918000088"}, "type": "Feature"}
{"geometry": {"coordinates": [-90.882386995, 32.312945636], "type": "Point"}, "id": "9zflzEh0q1n4mK1PS1GI-EIlCUk=", "properties": {"@spider": "usps_collection_boxes", "addr:city": "VICKSBURG", "addr:country": "US", "addr:full": "3415 PEMBERTON SQUARE BLVD", "addr:postcode": "39180", "addr:state": "MS", "brand": "USPS", "collection_times": "Mo-Fr 17:30; Sa 12:00", "name": "USPS COLLECTION BOX - PO LOBBY", "note": "ON 12/24 AND 12/31, THIS BOX MAY BE COLLECTED AS EARLY AS 12 NOON.", "ref": "3918000094"}, "type": "Feature"}
{"geometry": {"coordinates": [-89.459298604, 32.593571743], "type": "Point"}, "id": "ZhOHtfJsYEfB_k8mrFSyocUf_tc=", "properties": {"@spider": "usps_collection_boxes", "addr:city": "WALNUT GROVE", "addr:country": "US", "addr:full": "143 MAIN ST", "addr:postcode": "39189", "addr:state": "MS", "brand": "USPS", "collection_times": "Mo-Fr 15:50", "name": "USPS COLLECTION BOX - BLUE BOX", "note": "ON 12/24 AND 12/31, THIS BOX MAY BE COLLECTED AS EARLY AS 12 NOON.", "ref": "3918900001"}, "type": "Feature"}
{"geometry": {"coordinates": [-89.459298604, 32.593571743], "type": "Point"}, "id": "V52qWbeKd9OVfMKEim8CPCZ5zBs=", "properties": {"@spider": "usps_collection_boxes", "addr:city": "WALNUT GROVE", "addr:country": "US", "addr:full": "143 MAIN ST", "addr:postcode": "39189", "addr:state": "MS", "brand": "USPS", "collection_times": "Mo-Fr 15:50; Sa 08:00", "name": "USPS COLLECTION BOX - PO LOBBY", "note": "ON 12/24 AND 12/31, THIS BOX MAY BE COLLECTED AS EARLY AS 12 NOON.", "ref": "3918900002"}, "type": "Feature"}
{"geometry": {"coordinates": [-89.459298604, 32.593571743], "type": "Point"}, "id": "G3cTVPlUNsdDS6JRhmG0WpQWycA=", "properties": {"@spider": "usps_collection_boxes", "addr:city": "WALNUT GROVE", "addr:country": "US", "addr:full": "143 MAIN ST", "addr:postcode": "39189", "addr:state": "MS", "brand": "USPS", "collection_times": "Mo-Fr 16:00", "name": "USPS COLLECTION BOX - PO LOBBY", "note": "ON 12/24 AND 12/31, THIS BOX MAY BE COLLECTED AS EARLY AS 12 NOON.", "ref": "3918900004"}, "type": "Feature"}
{"geometry": {"coordinates": [-91.298830327, 31.578926371], "type": "Point"}, "id": "pPxcdPNRUxPpav-uKD-rHo9K5Hw=", "properties": {"@spider": "usps_collection_boxes", "addr:city": "WASHINGTON", "addr:country": "US", "addr:full": "820 HIGHWAY 61 N", "addr:postcode": "39190", "addr:state": "MS", "brand": "USPS", "collection_times": "Mo-Fr 16:30; Sa 08:00", "name": "USPS COLLECTION BOX - BLUE BOX", "note": "ON 12/24 AND 12/31, THIS BOX MAY BE COLLECTED AS EARLY AS 12 NOON.", "ref": "3919000001"}, "type": "Feature"}
{"geometry": {"coordinates": [-91.298830327, 31.578926371], "type": "Point"}, "id": "hxekaTpRO7PMeA62agr6LOGOll8=", "properties": {"@spider": "usps_collection_boxes", "addr:city": "WASHINGTON", "addr:country": "US", "addr:full": "820 HIGHWAY 61 N", "addr:postcode": "39190", "addr:state": "MS", "brand": "USPS", "collection_times": "Mo-Fr 16:30; Sa 08:00", "name": "USPS COLLECTION BOX - BLUE BOX", "note": "ON 12/24 AND 12/31, THIS BOX MAY BE COLLECTED AS EARLY AS 12 NOON.", "ref": "3919000002"}, "type": "Feature"}
{"geometry": {"coordinates": [-91.298830327, 31.578926371], "type": "Point"}, "id": "0-SvhCyUj512oi3HBKd7RjyaaJM=", "properties": {"@spider": "usps_collection_boxes", "addr:city": "WASHINGTON", "addr:country": "US", "addr:full": "820 HIGHWAY 61 N", "addr:postcode": "39190", "addr:state": "MS", "brand": "USPS", "collection_times": "Mo-Fr 16:30; Sa 08:00", "name": "USPS COLLECTION BOX - PO LOBBY", "note": "ON 12/24 AND 12/31, THIS BOX MAY BE COLLECTED AS EARLY AS 12 NOON.", "ref": "3919000003"}, "type": "Feature"}
{"geometry": {"coordinates": [-91.298830327, 31.578926371], "type": "Point"}, "id": "4iO0wtZrLOHlQ4TmgmHz8tM42II=", "properties": {"@spider": "usps_collection_boxes", "addr:city": "WASHINGTON", "addr:country": "US", "addr:full": "820 HIGHWAY 61 N", "addr:postcode": "39190", "addr:state": "MS", "brand": "USPS", "collection_times": "Mo-Fr 16:30", "name": "USPS COLLECTION BOX - PO LOBBY", "note": "ON 12/24 AND 12/31, THIS BOX MAY BE COLLECTED AS EARLY AS 12 NOON.", "ref": "3919000006"}, "type": "Feature"}
{"geometry": {"coordinates": [-90.396687507, 31.70243604], "type": "Point"}, "id": "TsH8_5wqSRV0KfcrcjYPgEaDgLI=", "properties": {"@spider": "usps_collection_boxes", "addr:city": "WESSON", "addr:country": "US", "addr:full": "2072 HIGHWAY 51", "addr:postcode": "39191", "addr:state": "MS", "brand": "USPS", "collection_times": "Mo-Fr 16:30; Sa 10:00", "name": "USPS COLLECTION BOX - BLUE BOX", "note": "ON 12/24 AND 12/31, THIS BOX MAY BE COLLECTED AS EARLY AS 12 NOON.", "ref": "3919100001"}, "type": "Feature"}
{"geometry": {"coordinates": [-90.396687507, 31.70243604], "type": "Point"}, "id": "lhJwbHPnNZYgg3j7ICAByQQXKsc=", "properties": {"@spider": "usps_collection_boxes", "addr:city": "WESSON", "addr:country": "US", "addr:full": "2072 HIGHWAY 51", "addr:postcode": "39191", "addr:state": "MS", "brand": "USPS", "collection_times": "Mo-Fr 16:30; Sa 10:00", "name": "USPS COLLECTION BOX - PO LOBBY", "note": "ON 12/24 AND 12/31, THIS BOX MAY BE COLLECTED AS EARLY AS 12 NOON.", "ref": "3919100002"}, "type": "Feature"}
{"geometry": {"coordinates": [-90.396687507, 31.70243604], "type": "Point"}, "id": "Kom3H3P808t6mvu2Mkcbe-u4tfc=", "properties": {"@spider": "usps_collection_boxes", "addr:city": "WESSON", "addr:country": "US", "addr:full": "2072 HIGHWAY 51", "addr:postcode": "39191", "addr:state": "MS", "brand": "USPS", "collection_times": "Mo-Fr 16:30; Sa 10:00", "name": "USPS COLLECTION BOX - PO LOBBY", "note": "ON 12/24 AND 12/31, THIS BOX MAY BE COLLECTED AS EARLY AS 12 NOON.", "ref": "3919100004"}, "type": "Feature"}
{"geometry": {"coordinates": [-89.779706674, 33.198077251], "type": "Point"}, "id": "YK6NTd7WNkys3u-yOjS247leR4g=", "properties": {"@spider": "usps_collection_boxes", "addr:city": "WEST", "addr:country": "US", "addr:full": "540 CARROLLTON ST", "addr:postcode": "39192", "addr:state": "MS", "brand": "USPS", "collection_times": "Mo-Fr 14:30; Sa 08:00", "name": "USPS COLLECTION BOX - BLUE BOX", "note": "ON 12/24 AND 12/31, THIS BOX MAY BE COLLECTED AS EARLY AS 12 NOON.", "ref": "3919200005"}, "type": "Feature"}
{"geometry": {"coordinates": [-89.779706674, 33.1980772509], "type": "Point"}, "id": "d1GwQfpxAD861wD3CmNeE0JKz6k=", "properties": {"@spider": "usps_collection_boxes", "addr:city": "WEST", "addr:country": "US", "addr:full": "540 CARROLLTON ST", "addr:postcode": "39192", "addr:state": "MS", "brand": "USPS", "collection_times": "Mo-Fr 14:30; Sa 08:00", "name": "USPS COLLECTION BOX - PO LOBBY", "note": "ON 12/24 AND 12/31, THIS BOX MAY BE COLLECTED AS EARLY AS 12 NOON.", "ref": "3919200006"}, "type": "Feature"}
{"geometry": {"coordinates": [-89.779706674, 33.1980772509], "type": "Point"}, "id": "LZ361phChiUz52WVsVtYBg9ClLw=", "properties": {"@spider": "usps_collection_boxes", "addr:city": "WEST", "addr:country": "US", "addr:full": "540 CARROLLTON ST", "addr:postcode": "39192", "addr:state": "MS", "brand": "USPS", "collection_times": "Mo-Fr 14:30", "name": "USPS COLLECTION BOX - PO LOBBY", "note": "ON 12/24 AND 12/31, THIS BOX MAY BE COLLECTED AS EARLY AS 12 NOON.", "ref": "3919200007"}, "type": "Feature"}
{"geometry": {"coordinates": [-90.4031519, 32.858722], "type": "Point"}, "id": "7Bzwg3akmQ9ZFYxvYM-HUoIHOk4=", "properties": {"@spider": "usps_collection_boxes", "addr:city": "YAZOO CITY", "addr:country": "US", "addr:full": "838 GRAND AVE", "addr:postcode": "39194", "addr:state": "MS", "brand": "USPS", "collection_times": "Mo-Fr 11:30", "name": "USPS COLLECTION BOX - BLUE BOX", "ref": "3919400010"}, "type": "Feature"}
{"geometry": {"coordinates": [-90.399237076, 32.865999333], "type": "Point"}, "id": "7U4WOoiT35ISWIK8EE4DeW7Bl_g=", "properties": {"@spider": "usps_collection_boxes", "addr:city": "YAZOO CITY", "addr:country": "US", "addr:full": "1505 GRAND AVE", "addr:postcode": "39194", "addr:state": "MS", "brand": "USPS", "collection_times": "Mo-Fr 11:30", "name": "USPS COLLECTION BOX - BLUE BOX", "ref": "3919400012"}, "type": "Feature"}
{"geometry": {"coordinates": [-90.411959417, 32.850331019], "type": "Point"}, "id": "9BrBV0UrupdB-FS4RmWXbqVjkbw=", "properties": {"@spider": "usps_collection_boxes", "addr:city": "YAZOO CITY", "addr:country": "US", "addr:full": "341 N MAIN ST", "addr:postcode": "39194", "addr:state": "MS", "brand": "USPS", "collection_times": "Mo-Fr 16:30; Sa 14:00", "name": "USPS COLLECTION BOX - BLUE BOX", "note": "ON 12/24 AND 12/31, THIS BOX MAY BE COLLECTED AS EARLY AS 12 NOON.", "ref": "3919400013"}, "type": "Feature"}
{"geometry": {"coordinates": [-90.4124477579, 32.8467931449], "type": "Point"}, "id": "_barb4_ZMEnEFxE_DmjeNgvnMu8=", "properties": {"@spider": "usps_collection_boxes", "addr:city": "YAZOO CITY", "addr:country": "US", "addr:full": "209 E BROADWAY ST", "addr:postcode": "39194", "addr:state": "MS", "brand": "USPS", "collection_times": "Mo-Fr 11:30", "name": "USPS COLLECTION BOX - BLUE BOX", "ref": "3919400015"}, "type": "Feature"}
{"geometry": {"coordinates": [-90.411959417, 32.850331019], "type": "Point"}, "id": "Anh79D5YdSe5Ab5NrOjlN1WVYWc=", "properties": {"@spider": "usps_collection_boxes", "addr:city": "YAZOO CITY", "addr:country": "US", "addr:full": "341 N MAIN ST", "addr:postcode": "39194", "addr:state": "MS", "brand": "USPS", "collection_times": "Mo-Fr 16:30; Sa 14:00", "name": "USPS COLLECTION BOX - BLUE BOX", "note": "ON 12/24 AND 12/31, THIS BOX MAY BE COLLECTED AS EARLY AS 12 NOON.", "ref": "3919400019"}, "type": "Feature"}
{"geometry": {"coordinates": [-90.411959417, 32.850331019], "type": "Point"}, "id": "04G_UU6b1BPMhZAg-G_kqVJQmZc=", "properties": {"@spider": "usps_collection_boxes", "addr:city": "YAZOO CITY", "addr:country": "US", "addr:full": "341 N MAIN ST", "addr:postcode": "39194", "addr:state": "MS", "brand": "USPS", "collection_times": "Mo-Fr 16:30; Sa 14:00", "name": "USPS COLLECTION BOX - PO LOBBY", "note": "ON 12/24 AND 12/31, THIS BOX MAY BE COLLECTED AS EARLY AS 12 NOON.", "ref": "3919400021"}, "type": "Feature"}
{"geometry": {"coordinates": [-90.411959417, 32.850331019], "type": "Point"}, "id": "d4irsds-tUX2n_oDgIJx4kdk2LA=", "properties": {"@spider": "usps_collection_boxes", "addr:city": "YAZOO CITY", "addr:country": "US", "addr:full": "341 N MAIN ST", "addr:postcode": "39194", "addr:state": "MS", "brand": "USPS", "collection_times": "Mo-Fr 16:30; Sa 14:00", "name": "USPS COLLECTION BOX - PO LOBBY", "note": "ON 12/24 AND 12/31, THIS BOX MAY BE COLLECTED AS EARLY AS 12 NOON.", "ref": "3919400023"}, "type": "Feature"}
{"geometry": {"coordinates": [-90.411959417, 32.850331019], "type": "Point"}, "id": "OAwzwHslvBoeoM5s37RZIiWpdK8=", "properties": {"@spider": "usps_collection_boxes", "addr:city": "YAZOO CITY", "addr:country": "US", "addr:full": "341 N MAIN ST", "addr:postcode": "39194", "addr:state": "MS", "brand": "USPS", "collection_times": "Mo-Fr 16:30; Sa 11:00", "name": "USPS COLLECTION BOX - PO LOBBY", "note": "ON 12/24 AND 12/31, THIS BOX MAY BE COLLECTED AS EARLY AS 12 NOON.", "ref": "3919400032"}, "type": "Feature"}
