{"geometry": {"coordinates": [-90.186523036, 32.301779982], "type": "Point"}, "id": "QxhR5lPHij5akcIlXaSumf-0PGc=", "properties": {"@source_uri": "https://tools.usps.com/UspsToolsRestServices/rest/POLocator/findLocations", "@spider": "usps_collection_boxes", "addr:city": "JACKSON", "addr:country": "US", "addr:postcode": "39201", "addr:state": "MS", "addr:street_address": "162 E AMITE ST", "amenity": "post_box", "brand": "United States Postal Service", "brand:wikidata": "Q668687", "collection_times": "Mo-Fr 14:30", "note": "ON 12/24 AND 12/31, THIS BOX MAY BE COLLECTED AS EARLY AS 12 NOON.", "nsi_id": "unitedstatespostalservice-a77078", "operator": "United States Postal Service", "operator:short": "USPS", "operator:type": "public", "operator:wikidata": "Q668687", "ref": "3920100004"}, "type": "Feature"}
{"geometry": {"coordinates": [-90.185012031, 32.298452995], "type": "Point"}, "id": "lQdk7Yi_FbTTIGBm3FTjyhGZNV0=", "properties": {"@source_uri": "https://tools.usps.com/UspsToolsRestServices/rest/POLocator/findLocations", "@spider": "usps_collection_boxes", "addr:city": "JACKSON", "addr:country": "US", "addr:postcode": "39201", "addr:state": "MS", "addr:street_address": "269 E PEARL ST", "amenity": "post_box", "brand": "United States Postal Service", "brand:wikidata": "Q668687", "collection_times": "Mo-Fr 12:30", "note": "ON 12/24 AND 12/31, THIS BOX MAY BE COLLECTED AS EARLY AS 12 NOON.", "nsi_id": "unitedstatespostalservice-a77078", "operator": "United States Postal Service", "operator:short": "USPS", "operator:type": "public", "operator:wikidata": "Q668687", "ref": "3920100014"}, "type": "Feature"}
{"geometry": {"coordinates": [-90.1816050383, 32.2990849904], "type": "Point"}, "id": "ir916yM7vPyD5F_ccYf1Ylvm1QM=", "properties": {"@source_uri": "https://tools.usps.com/UspsToolsRestServices/rest/POLocator/findLocations", "@spider": "usps_collection_boxes", "addr:city": "JACKSON", "addr:country": "US", "addr:postcode": "39201", "addr:state": "MS", "addr:street_address": "501 E CAPITOL ST", "amenity": "post_box", "brand": "United States Postal Service", "brand:wikidata": "Q668687", "collection_times": "Mo-Fr 12:00", "nsi_id": "unitedstatespostalservice-a77078", "operator": "United States Postal Service", "operator:short": "USPS", "operator:type": "public", "operator:wikidata": "Q668687", "ref": "3920100017"}, "type": "Feature"}
{"geometry": {"coordinates": [-90.184190017, 32.300226983], "type": "Point"}, "id": "soVjn6s5EfMyurwRD-brMwSTlFs=", "properties": {"@source_uri": "https://tools.usps.com/UspsToolsRestServices/rest/POLocator/findLocations", "@spider": "usps_collection_boxes", "addr:city": "JACKSON", "addr:country": "US", "addr:postcode": "39201", "addr:state": "MS", "addr:street_address": "248 E CAPITOL ST", "amenity": "post_box", "brand": "United States Postal Service", "brand:wikidata": "Q668687", "collection_times": "Mo-Fr 12:00", "nsi_id": "unitedstatespostalservice-a77078", "operator": "United States Postal Service", "operator:short": "USPS", "operator:type": "public", "operator:wikidata": "Q668687", "ref": "3920100023"}, "type": "Feature"}
{"geometry": {"coordinates": [-90.184574998, 32.299379992], "type": "Point"}, "id": "vYHlg9AdMJfc9puwwYzMql3FY4g=", "properties": {"@source_uri": "https://tools.usps.com/UspsToolsRestServices/rest/POLocator/findLocations", "@spider": "usps_collection_boxes", "addr:city": "JACKSON", "addr:country": "US", "addr:postcode": "39201", "addr:state": "MS", "addr:street_address": "245 E CAPITOL ST", "amenity": "post_box", "brand": "United States Postal Service", "brand:wikidata": "Q668687", "collection_times": "Mo-Fr 12:00", "nsi_id": "unitedstatespostalservice-a77078", "operator": "United States Postal Service", "operator:short": "USPS", "operator:type": "public", "operator:wikidata": "Q668687", "ref": "3920100025"}, "type": "Feature"}
{"geometry": {"coordinates": [-90.18411, 32.296525], "type": "Point"}, "id": "YIEMfqzIcsajoALOuLbxaK_aVSk=", "properties": {"@source_uri": "https://tools.usps.com/UspsToolsRestServices/rest/POLocator/findLocations", "@spider": "usps_collection_boxes", "addr:city": "JACKSON", "addr:country": "US", "addr:postcode": "39201", "addr:state": "MS", "addr:street_address": "401 E SOUTH ST", "amenity": "post_box", "brand": "United States Postal Service", "brand:wikidata": "Q668687", "collection_times": "Mo-Fr 19:00; Sa 18:00", "note": "ON 12/24 AND 12/31, THIS BOX MAY BE COLLECTED AS EARLY AS 12 NOON.", "nsi_id": "unitedstatespostalservice-a77078", "operator": "United States Postal Service", "operator:short": "USPS", "operator:type": "public", "operator:wikidata": "Q668687", "ref": "3920100065"}, "type": "Feature"}
{"geometry": {"coordinates": [-90.18411, 32.296525], "type": "Point"}, "id": "R_qb8FTvrEYwg8j4MPlKIc9Epag=", "properties": {"@source_uri": "https://tools.usps.com/UspsToolsRestServices/rest/POLocator/findLocations", "@spider": "usps_collection_boxes", "addr:city": "JACKSON", "addr:country": "US", "addr:postcode": "39201", "addr:state": "MS", "addr:street_address": "401 E SOUTH ST", "amenity": "post_box", "brand": "United States Postal Service", "brand:wikidata": "Q668687", "collection_times": "Mo-Fr 19:00; Sa 18:00", "note": "ON 12/24 AND 12/31, THIS BOX MAY BE COLLECTED AS EARLY AS 12 NOON.", "nsi_id": "unitedstatespostalservice-a77078", "operator": "United States Postal Service", "operator:short": "USPS", "operator:type": "public", "operator:wikidata": "Q668687", "ref": "3920100066"}, "type": "Feature"}
{"geometry": {"coordinates": [-90.18411, 32.296525], "type": "Point"}, "id": "eLr7Wl41M2pmtNPriUiiD8lfPnw=", "properties": {"@source_uri": "https://tools.usps.com/UspsToolsRestServices/rest/POLocator/findLocations", "@spider": "usps_collection_boxes", "addr:city": "JACKSON", "addr:country": "US", "addr:postcode": "39201", "addr:state": "MS", "addr:street_address": "401 E SOUTH ST", "amenity": "post_box", "brand": "United States Postal Service", "brand:wikidata": "Q668687", "collection_times": "Mo-Fr 19:00; Sa 18:00", "note": "ON 12/24 AND 12/31, THIS BOX MAY BE COLLECTED AS EARLY AS 12 NOON.", "nsi_id": "unitedstatespostalservice-a77078", "operator": "United States Postal Service", "operator:short": "USPS", "operator:type": "public", "operator:wikidata": "Q668687", "ref": "3920100067"}, "type": "Feature"}
{"geometry": {"coordinates": [-90.18411, 32.296525], "type": "Point"}, "id": "CVF2YfMjpTUtoYNvaF59carrsz0=", "properties": {"@source_uri": "https://tools.usps.com/UspsToolsRestServices/rest/POLocator/findLocations", "@spider": "usps_collection_boxes", "addr:city": "JACKSON", "addr:country": "US", "addr:postcode": "39201", "addr:state": "MS", "addr:street_address": "401 E SOUTH ST", "amenity": "post_box", "brand": "United States Postal Service", "brand:wikidata": "Q668687", "collection_times": "Mo-Fr 19:00; Sa 18:00", "note": "ON 12/24 AND 12/31, THIS BOX MAY BE COLLECTED AS EARLY AS 12 NOON.", "nsi_id": "unitedstatespostalservice-a77078", "operator": "United States Postal Service", "operator:short": "USPS", "operator:type": "public", "operator:wikidata": "Q668687", "ref": "3920100068"}, "type": "Feature"}
{"geometry": {"coordinates": [-90.18411, 32.296525], "type": "Point"}, "id": "5GP1B_RgMZFuy1862hr42J06gOI=", "properties": {"@source_uri": "https://tools.usps.com/UspsToolsRestServices/rest/POLocator/findLocations", "@spider": "usps_collection_boxes", "addr:city": "JACKSON", "addr:country": "US", "addr:postcode": "39201", "addr:state": "MS", "addr:street_address": "970 W NORTH FRONTAGE RD", "amenity": "post_box", "brand": "United States Postal Service", "brand:wikidata": "Q668687", "collection_times": "Mo-Fr 14:30", "note": "ON 12/24 AND 12/31, THIS BOX MAY BE COLLECTED AS EARLY AS 12 NOON.", "nsi_id": "unitedstatespostalservice-a77078", "operator": "United States Postal Service", "operator:short": "USPS", "operator:type": "public", "operator:wikidata": "Q668687", "ref": "3920100099"}, "type": "Feature"}
{"geometry": {"coordinates": [-90.185401035, 32.303026999], "type": "Point"}, "id": "EMPKkXUSGrU_EzQWZ4RxQXUo8Qc=", "properties": {"@source_uri": "https://tools.usps.com/UspsToolsRestServices/rest/POLocator/findLocations", "@spider": "usps_collection_boxes", "addr:city": "JACKSON", "addr:country": "US", "addr:postcode": "39201", "addr:state": "MS", "addr:street_address": "301 N LAMAR ST", "amenity": "post_box", "brand": "United States Postal Service", "brand:wikidata": "Q668687", "collection_times": "Mo-Fr 14:30", "note": "ON 12/24 AND 12/31, THIS BOX MAY BE COLLECTED AS EARLY AS 12 NOON.", "nsi_id": "unitedstatespostalservice-a77078", "operator": "United States Postal Service", "operator:short": "USPS", "operator:type": "public", "operator:wikidata": "Q668687", "ref": "3920100105"}, "type": "Feature"}
{"geometry": {"coordinates": [-90.18753096, 32.30103701], "type": "Point"}, "id": "smr1nT8Wy7J0VIPCiwic1jh7f5I=", "properties": {"@source_uri": "https://tools.usps.com/UspsToolsRestServices/rest/POLocator/findLocations", "@spider": "usps_collection_boxes", "addr:city": "JACKSON", "addr:country": "US", "addr:postcode": "39201", "addr:state": "MS", "addr:street_address": "100 E CAPITOL ST", "amenity": "post_box", "brand": "United States Postal Service", "brand:wikidata": "Q668687", "collection_times": "Mo-Fr 15:00", "note": "ON 12/24 AND 12/31, THIS BOX MAY BE COLLECTED AS EARLY AS 12 NOON.", "nsi_id": "unitedstatespostalservice-a77078", "operator": "United States Postal Service", "operator:short": "USPS", "operator:type": "public", "operator:wikidata": "Q668687", "ref": "3920100106"}, "type": "Feature"}
{"geometry": {"coordinates": [-90.183843096, 32.294183347], "type": "Point"}, "id": "-TcKN5hoEUbeJT36OeJZHc-_mYM=", "properties": {"@source_uri": "https://tools.usps.com/UspsToolsRestServices/rest/POLocator/findLocations", "@spider": "usps_collection_boxes", "addr:city": "JACKSON", "addr:country": "US", "addr:postcode": "39201", "addr:state": "MS", "addr:street_address": "401 E SOUTH ST", "amenity": "post_box", "brand": "United States Postal Service", "brand:wikidata": "Q668687", "collection_times": "Mo-Fr 19:00; Sa 18:00", "name": "USPS COLLECTION BOX - APC", "note": "ON 12/24 AND 12/31, THIS BOX MAY BE COLLECTED AS EARLY AS 12 NOON.", "nsi_id": "unitedstatespostalservice-a77078", "operator": "United States Postal Service", "operator:short": "USPS", "operator:type": "public", "operator:wikidata": "Q668687", "ref": "3920100112"}, "type": "Feature"}
{"geometry": {"coordinates": [-90.183843096, 32.294183347], "type": "Point"}, "id": "f8PviBSe6y1qoyM5EeSQ9v5RBs0=", "properties": {"@source_uri": "https://tools.usps.com/UspsToolsRestServices/rest/POLocator/findLocations", "@spider": "usps_collection_boxes", "addr:city": "JACKSON", "addr:country": "US", "addr:postcode": "39201", "addr:state": "MS", "addr:street_address": "401 E SOUTH ST", "amenity": "post_box", "brand": "United States Postal Service", "brand:wikidata": "Q668687", "collection_times": "Mo-Fr 19:00; Sa 18:00", "indoor": "yes", "note": "ON 12/24 AND 12/31, THIS BOX MAY BE COLLECTED AS EARLY AS 12 NOON.", "nsi_id": "unitedstatespostalservice-a77078", "operator": "United States Postal Service", "operator:short": "USPS", "operator:type": "public", "operator:wikidata": "Q668687", "ref": "3920100113"}, "type": "Feature"}
{"geometry": {"coordinates": [-90.183843096, 32.294183347], "type": "Point"}, "id": "BuWkkw8D_tpGkCKdmLTxvyMjVmI=", "properties": {"@source_uri": "https://tools.usps.com/UspsToolsRestServices/rest/POLocator/findLocations", "@spider": "usps_collection_boxes", "addr:city": "JACKSON", "addr:country": "US", "addr:postcode": "39201", "addr:state": "MS", "addr:street_address": "401 E SOUTH ST", "amenity": "post_box", "brand": "United States Postal Service", "brand:wikidata": "Q668687", "collection_times": "Mo-Fr 19:00; Sa 18:00", "indoor": "yes", "note": "ON 12/24 AND 12/31, THIS BOX MAY BE COLLECTED AS EARLY AS 12 NOON.", "nsi_id": "unitedstatespostalservice-a77078", "operator": "United States Postal Service", "operator:short": "USPS", "operator:type": "public", "operator:wikidata": "Q668687", "ref": "3920100114"}, "type": "Feature"}
{"geometry": {"coordinates": [-90.183843096, 32.294183347], "type": "Point"}, "id": "VBm3_qkH_Yc9peF3kMqP5gKi-Lg=", "properties": {"@source_uri": "https://tools.usps.com/UspsToolsRestServices/rest/POLocator/findLocations", "@spider": "usps_collection_boxes", "addr:city": "JACKSON", "addr:country": "US", "addr:postcode": "39201", "addr:state": "MS", "addr:street_address": "401 E SOUTH ST", "amenity": "post_box", "brand": "United States Postal Service", "brand:wikidata": "Q668687", "collection_times": "Mo-Fr 19:00; Sa 18:00", "indoor": "yes", "note": "ON 12/24 AND 12/31, THIS BOX MAY BE COLLECTED AS EARLY AS 12 NOON.", "nsi_id": "unitedstatespostalservice-a77078", "operator": "United States Postal Service", "operator:short": "USPS", "operator:type": "public", "operator:wikidata": "Q668687", "ref": "3920100115"}, "type": "Feature"}
{"geometry": {"coordinates": [-90.187748973, 32.29979301], "type": "Point"}, "id": "Jw3Ky_aMZg4nFTGjKIRGTA9t798=", "properties": {"@source_uri": "https://tools.usps.com/UspsToolsRestServices/rest/POLocator/findLocations", "@spider": "usps_collection_boxes", "addr:city": "JACKSON", "addr:country": "US", "addr:postcode": "39201", "addr:state": "MS", "addr:street_address": "111 E CAPITOL ST", "amenity": "post_box", "brand": "United States Postal Service", "brand:wikidata": "Q668687", "collection_times": "Mo-Fr 11:30", "nsi_id": "unitedstatespostalservice-a77078", "operator": "United States Postal Service", "operator:short": "USPS", "operator:type": "public", "operator:wikidata": "Q668687", "ref": "3920100118"}, "type": "Feature"}
{"geometry": {"coordinates": [-90.179832014, 32.307394013], "type": "Point"}, "id": "A10JNC_e3eV9XxuIbaDVKJ2gbRU=", "properties": {"@source_uri": "https://tools.usps.com/UspsToolsRestServices/rest/POLocator/findLocations", "@spider": "usps_collection_boxes", "addr:city": "JACKSON", "addr:country": "US", "addr:postcode": "39202", "addr:state": "MS", "addr:street_address": "720 N PRESIDENT ST", "amenity": "post_box", "brand": "United States Postal Service", "brand:wikidata": "Q668687", "collection_times": "Mo-Fr 13:30", "note": "ON 12/24 AND 12/31, THIS BOX MAY BE COLLECTED AS EARLY AS 12 NOON.", "nsi_id": "unitedstatespostalservice-a77078", "operator": "United States Postal Service", "operator:short": "USPS", "operator:type": "public", "operator:wikidata": "Q668687", "ref": "3920200001"}, "type": "Feature"}
{"geometry": {"coordinates": [-90.179832014, 32.307394013], "type": "Point"}, "id": "e4SFGYZBrdR1YPXPX1tL0XNJB4E=", "properties": {"@source_uri": "https://tools.usps.com/UspsToolsRestServices/rest/POLocator/findLocations", "@spider": "usps_collection_boxes", "addr:city": "JACKSON", "addr:country": "US", "addr:postcode": "39202", "addr:state": "MS", "addr:street_address": "720 N PRESIDENT ST", "amenity": "post_box", "brand": "United States Postal Service", "brand:wikidata": "Q668687", "collection_times": "Mo-Fr 13:30", "note": "ON 12/24 AND 12/31, THIS BOX MAY BE COLLECTED AS EARLY AS 12 NOON.", "nsi_id": "unitedstatespostalservice-a77078", "operator": "United States Postal Service", "operator:short": "USPS", "operator:type": "public", "operator:wikidata": "Q668687", "ref": "3920200003"}, "type": "Feature"}
{"geometry": {"coordinates": [-90.46086499, 32.349759001], "type": "Point"}, "id": "6VuGEG4XG5kaYd6B5vkoBi5M-bI=", "properties": {"@source_uri": "https://tools.usps.com/UspsToolsRestServices/rest/POLocator/findLocations", "@spider": "usps_collection_boxes", "addr:city": "JACKSON", "addr:country": "US", "addr:postcode": "39202", "addr:state": "MS", "addr:street_address": "202 HIGH ST", "amenity": "post_box", "brand": "United States Postal Service", "brand:wikidata": "Q668687", "collection_times": "Mo-Fr 14:30", "note": "ON 12/24 AND 12/31, THIS BOX MAY BE COLLECTED AS EARLY AS 12 NOON.", "nsi_id": "unitedstatespostalservice-a77078", "operator": "United States Postal Service", "operator:short": "USPS", "operator:type": "public", "operator:wikidata": "Q668687", "ref": "3920200010"}, "type": "Feature"}
{"geometry": {"coordinates": [-90.169283976, 32.320223983], "type": "Point"}, "id": "vvDm8P6YutrMu08Rfbc8sbm3uOg=", "properties": {"@source_uri": "https://tools.usps.com/UspsToolsRestServices/rest/POLocator/findLocations", "@spider": "usps_collection_boxes", "addr:city": "JACKSON", "addr:country": "US", "addr:postcode": "39202", "addr:state": "MS", "addr:street_address": "1500 PEACHTREE ST", "amenity": "post_box", "brand": "United States Postal Service", "brand:wikidata": "Q668687", "collection_times": "Mo-Fr 14:30", "note": "ON 12/24 AND 12/31, THIS BOX MAY BE COLLECTED AS EARLY AS 12 NOON.", "nsi_id": "unitedstatespostalservice-a77078", "operator": "United States Postal Service", "operator:short": "USPS", "operator:type": "public", "operator:wikidata": "Q668687", "ref": "3920200029"}, "type": "Feature"}
{"geometry": {"coordinates": [-90.178936995, 32.318427992], "type": "Point"}, "id": "P-oet_S_KgqwNJS4FcgIaOFIeME=", "properties": {"@source_uri": "https://tools.usps.com/UspsToolsRestServices/rest/POLocator/findLocations", "@spider": "usps_collection_boxes", "addr:city": "JACKSON", "addr:country": "US", "addr:postcode": "39202", "addr:state": "MS", "addr:street_address": "1405 N STATE ST", "amenity": "post_box", "brand": "United States Postal Service", "brand:wikidata": "Q668687", "collection_times": "Mo-Fr 14:30", "note": "ON 12/24 AND 12/31, THIS BOX MAY BE COLLECTED AS EARLY AS 12 NOON.", "nsi_id": "unitedstatespostalservice-a77078", "operator": "United States Postal Service", "operator:short": "USPS", "operator:type": "public", "operator:wikidata": "Q668687", "ref": "3920200035"}, "type": "Feature"}
{"geometry": {"coordinates": [-90.178936995, 32.318427992], "type": "Point"}, "id": "3Q1YqkoZ9V4wQIg0KhH6vgRBYkE=", "properties": {"@source_uri": "https://tools.usps.com/UspsToolsRestServices/rest/POLocator/findLocations", "@spider": "usps_collection_boxes", "addr:city": "JACKSON", "addr:country": "US", "addr:postcode": "39202", "addr:state": "MS", "addr:street_address": "1405 N STATE ST", "amenity": "post_box", "brand": "United States Postal Service", "brand:wikidata": "Q668687", "collection_times": "Mo-Fr 14:30", "note": "ON 12/24 AND 12/31, THIS BOX MAY BE COLLECTED AS EARLY AS 12 NOON.", "nsi_id": "unitedstatespostalservice-a77078", "operator": "United States Postal Service", "operator:short": "USPS", "operator:type": "public", "operator:wikidata": "Q668687", "ref": "3920200036"}, "type": "Feature"}
{"geometry": {"coordinates": [-90.177391959, 32.305240995], "type": "Point"}, "id": "bfzUTgdNTpd5ZDNptiDCrcxLMTM=", "properties": {"@source_uri": "https://tools.usps.com/UspsToolsRestServices/rest/POLocator/findLocations", "@spider": "usps_collection_boxes", "addr:city": "JACKSON", "addr:country": "US", "addr:postcode": "39202", "addr:state": "MS", "addr:street_address": "620 NORTH ST", "amenity": "post_box", "brand": "United States Postal Service", "brand:wikidata": "Q668687", "collection_times": "Mo-Fr 14:30", "note": "ON 12/24 AND 12/31, THIS BOX MAY BE COLLECTED AS EARLY AS 12 NOON.", "nsi_id": "unitedstatespostalservice-a77078", "operator": "United States Postal Service", "operator:short": "USPS", "operator:type": "public", "operator:wikidata": "Q668687", "ref": "3920200048"}, "type": "Feature"}
{"geometry": {"coordinates": [-90.178819983, 32.305170001], "type": "Point"}, "id": "4yn8L7uKQtO-4-wfPNjlkxuNtqE=", "properties": {"@source_uri": "https://tools.usps.com/UspsToolsRestServices/rest/POLocator/findLocations", "@spider": "usps_collection_boxes", "addr:city": "JACKSON", "addr:country": "US", "addr:postcode": "39202", "addr:state": "MS", "addr:street_address": "620 N STATE ST", "amenity": "post_box", "brand": "United States Postal Service", "brand:wikidata": "Q668687", "collection_times": "Mo-Fr 14:30", "note": "ON 12/24 AND 12/31, THIS BOX MAY BE COLLECTED AS EARLY AS 12 NOON.", "nsi_id": "unitedstatespostalservice-a77078", "operator": "United States Postal Service", "operator:short": "USPS", "operator:type": "public", "operator:wikidata": "Q668687", "ref": "3920200057"}, "type": "Feature"}
{"geometry": {"coordinates": [-90.175285297, 32.323488055], "type": "Point"}, "id": "rq1lLqyUbTBHkHxAOdDBDmR9K4I=", "properties": {"@source_uri": "https://tools.usps.com/UspsToolsRestServices/rest/POLocator/findLocations", "@spider": "usps_collection_boxes", "addr:city": "JACKSON", "addr:country": "US", "addr:postcode": "39202", "addr:state": "MS", "addr:street_address": "860 RIVERSIDE DR", "amenity": "post_box", "brand": "United States Postal Service", "brand:wikidata": "Q668687", "collection_times": "Mo-Fr 14:30", "note": "ON 12/24 AND 12/31, THIS BOX MAY BE COLLECTED AS EARLY AS 12 NOON.", "nsi_id": "unitedstatespostalservice-a77078", "operator": "United States Postal Service", "operator:short": "USPS", "operator:type": "public", "operator:wikidata": "Q668687", "ref": "3920200059"}, "type": "Feature"}
{"geometry": {"coordinates": [-90.46086499, 32.349759001], "type": "Point"}, "id": "4aBRvklP8H3mef8jBDKejo_Gpno=", "properties": {"@source_uri": "https://tools.usps.com/UspsToolsRestServices/rest/POLocator/findLocations", "@spider": "usps_collection_boxes", "addr:city": "JACKSON", "addr:country": "US", "addr:postcode": "39202", "addr:state": "MS", "addr:street_address": "202 HIGH ST", "amenity": "post_box", "brand": "United States Postal Service", "brand:wikidata": "Q668687", "collection_times": "Mo-Fr 14:30", "note": "ON 12/24 AND 12/31, THIS BOX MAY BE COLLECTED AS EARLY AS 12 NOON.", "nsi_id": "unitedstatespostalservice-a77078", "operator": "United States Postal Service", "operator:short": "USPS", "operator:type": "public", "operator:wikidata": "Q668687", "ref": "3920200070"}, "type": "Feature"}
{"geometry": {"coordinates": [-90.161769013, 32.305185004], "type": "Point"}, "id": "IVdCxy_G_3TtU6mvjQJ3d1No5tE=", "properties": {"@source_uri": "https://tools.usps.com/UspsToolsRestServices/rest/POLocator/findLocations", "@spider": "usps_collection_boxes", "addr:city": "JACKSON", "addr:country": "US", "addr:postcode": "39202", "addr:state": "MS", "addr:street_address": "5 OLD RIVER PL", "amenity": "post_box", "brand": "United States Postal Service", "brand:wikidata": "Q668687", "collection_times": "Mo-Fr 14:30", "note": "ON 12/24 AND 12/31, THIS BOX MAY BE COLLECTED AS EARLY AS 12 NOON.", "nsi_id": "unitedstatespostalservice-a77078", "operator": "United States Postal Service", "operator:short": "USPS", "operator:type": "public", "operator:wikidata": "Q668687", "ref": "3920200071"}, "type": "Feature"}
{"geometry": {"coordinates": [-90.161769013, 32.305185004], "type": "Point"}, "id": "TB0Y7az4g0Vi_xLPKd5GWyFDfuE=", "properties": {"@source_uri": "https://tools.usps.com/UspsToolsRestServices/rest/POLocator/findLocations", "@spider": "usps_collection_boxes", "addr:city": "JACKSON", "addr:country": "US", "addr:postcode": "39202", "addr:state": "MS", "addr:street_address": "5 OLD RIVER PL", "amenity": "post_box", "brand": "United States Postal Service", "brand:wikidata": "Q668687", "collection_times": "Mo-Fr 14:30", "note": "ON 12/24 AND 12/31, THIS BOX MAY BE COLLECTED AS EARLY AS 12 NOON.", "nsi_id": "unitedstatespostalservice-a77078", "operator": "United States Postal Service", "operator:short": "USPS", "operator:type": "public", "operator:wikidata": "Q668687", "ref": "3920200072"}, "type": "Feature"}
{"geometry": {"coordinates": [-90.161769013, 32.305185004], "type": "Point"}, "id": "lF_KGjT84pW4nH1G11xtVBdz3Jk=", "properties": {"@source_uri": "https://tools.usps.com/UspsToolsRestServices/rest/POLocator/findLocations", "@spider": "usps_collection_boxes", "addr:city": "JACKSON", "addr:country": "US", "addr:postcode": "39202", "addr:state": "MS", "addr:street_address": "5 OLD RIVER PL", "amenity": "post_box", "brand": "United States Postal Service", "brand:wikidata": "Q668687", "collection_times": "Mo-Fr 14:30", "note": "ON 12/24 AND 12/31, THIS BOX MAY BE COLLECTED AS EARLY AS 12 NOON.", "nsi_id": "unitedstatespostalservice-a77078", "operator": "United States Postal Service", "operator:short": "USPS", "operator:type": "public", "operator:wikidata": "Q668687", "ref": "3920200073"}, "type": "Feature"}
{"geometry": {"coordinates": [-90.161769013, 32.305185004], "type": "Point"}, "id": "9yGqWnU3-bLimS87fYh64TzMP6Q=", "properties": {"@source_uri": "https://tools.usps.com/UspsToolsRestServices/rest/POLocator/findLocations", "@spider": "usps_collection_boxes", "addr:city": "JACKSON", "addr:country": "US", "addr:postcode": "39202", "addr:state": "MS", "addr:street_address": "5 OLD RIVER PL", "amenity": "post_box", "brand": "United States Postal Service", "brand:wikidata": "Q668687", "collection_times": "Mo-Fr 14:30", "note": "ON 12/24 AND 12/31, THIS BOX MAY BE COLLECTED AS EARLY AS 12 NOON.", "nsi_id": "unitedstatespostalservice-a77078", "operator": "United States Postal Service", "operator:short": "USPS", "operator:type": "public", "operator:wikidata": "Q668687", "ref": "3920200074"}, "type": "Feature"}
{"geometry": {"coordinates": [-90.161769013, 32.305185004], "type": "Point"}, "id": "iWW_NagNyzSTn7er4q6fA8HJUsE=", "properties": {"@source_uri": "https://tools.usps.com/UspsToolsRestServices/rest/POLocator/findLocations", "@spider": "usps_collection_boxes", "addr:city": "JACKSON", "addr:country": "US", "addr:postcode": "39202", "addr:state": "MS", "addr:street_address": "5 OLD RIVER PL", "amenity": "post_box", "brand": "United States Postal Service", "brand:wikidata": "Q668687", "collection_times": "Mo-Fr 14:30", "note": "ON 12/24 AND 12/31, THIS BOX MAY BE COLLECTED AS EARLY AS 12 NOON.", "nsi_id": "unitedstatespostalservice-a77078", "operator": "United States Postal Service", "operator:short": "USPS", "operator:type": "public", "operator:wikidata": "Q668687", "ref": "3920200075"}, "type": "Feature"}
{"geometry": {"coordinates": [-90.207012087, 32.284714176], "type": "Point"}, "id": "djGHbwIbZz_NWiNYB2k4Wbc4qDA=", "properties": {"@source_uri": "https://tools.usps.com/UspsToolsRestServices/rest/POLocator/findLocations", "@spider": "usps_collection_boxes", "addr:city": "JACKSON", "addr:country": "US", "addr:postcode": "39204", "addr:state": "MS", "addr:street_address": "1700 TERRY RD", "amenity": "post_box", "brand": "United States Postal Service", "brand:wikidata": "Q668687", "collection_times": "Mo-Fr 10:30", "nsi_id": "unitedstatespostalservice-a77078", "operator": "United States Postal Service", "operator:short": "USPS", "operator:type": "public", "operator:wikidata": "Q668687", "ref": "3920400005"}, "type": "Feature"}
{"geometry": {"coordinates": [-90.260712148, 32.269012279], "type": "Point"}, "id": "3qvgkQ4glijd1FpY6AEvJ2pN75w=", "properties": {"@source_uri": "https://tools.usps.com/UspsToolsRestServices/rest/POLocator/findLocations", "@spider": "usps_collection_boxes", "addr:city": "JACKSON", "addr:country": "US", "addr:postcode": "39204", "addr:state": "MS", "addr:street_address": "2895 MCDOWELL ROAD EXT", "amenity": "post_box", "brand": "United States Postal Service", "brand:wikidata": "Q668687", "collection_times": "Mo-Fr 11:30", "nsi_id": "unitedstatespostalservice-a77078", "operator": "United States Postal Service", "operator:short": "USPS", "operator:type": "public", "operator:wikidata": "Q668687", "ref": "3920400010"}, "type": "Feature"}
{"geometry": {"coordinates": [-90.253791189, 32.283993087], "type": "Point"}, "id": "G0SJhqoERy53yd5tN9eh6fFG9Ng=", "properties": {"@source_uri": "https://tools.usps.com/UspsToolsRestServices/rest/POLocator/findLocations", "@spider": "usps_collection_boxes", "addr:city": "JACKSON", "addr:country": "US", "addr:postcode": "39204", "addr:state": "MS", "addr:street_address": "1815 HOSPITAL DR", "amenity": "post_box", "brand": "United States Postal Service", "brand:wikidata": "Q668687", "collection_times": "Mo-Fr 10:30", "nsi_id": "unitedstatespostalservice-a77078", "operator": "United States Postal Service", "operator:short": "USPS", "operator:type": "public", "operator:wikidata": "Q668687", "ref": "3920400013"}, "type": "Feature"}
{"geometry": {"coordinates": [-90.224462967, 32.291545008], "type": "Point"}, "id": "679v7fW54O8l2vJBIlPOrYc2p4o=", "properties": {"@source_uri": "https://tools.usps.com/UspsToolsRestServices/rest/POLocator/findLocations", "@spider": "usps_collection_boxes", "addr:city": "JACKSON", "addr:country": "US", "addr:postcode": "39204", "addr:state": "MS", "addr:street_address": "2310 HIGHWAY 80 W", "amenity": "post_box", "brand": "United States Postal Service", "brand:wikidata": "Q668687", "collection_times": "Mo-Fr 13:15", "note": "ON 12/24 AND 12/31, THIS BOX MAY BE COLLECTED AS EARLY AS 12 NOON.", "nsi_id": "unitedstatespostalservice-a77078", "operator": "United States Postal Service", "operator:short": "USPS", "operator:type": "public", "operator:wikidata": "Q668687", "ref": "3920400020"}, "type": "Feature"}
{"geometry": {"coordinates": [-90.269658021, 32.291251012], "type": "Point"}, "id": "eL6Nn1IPDd62vVVPUGlOVt_8OMA=", "properties": {"@source_uri": "https://tools.usps.com/UspsToolsRestServices/rest/POLocator/findLocations", "@spider": "usps_collection_boxes", "addr:city": "JACKSON", "addr:country": "US", "addr:postcode": "39204", "addr:state": "MS", "addr:street_address": "2189 HENRY HILL DR", "amenity": "post_box", "brand": "United States Postal Service", "brand:wikidata": "Q668687", "collection_times": "Mo-Fr 10:00", "nsi_id": "unitedstatespostalservice-a77078", "operator": "United States Postal Service", "operator:short": "USPS", "operator:type": "public", "operator:wikidata": "Q668687", "ref": "3920400023"}, "type": "Feature"}
{"geometry": {"coordinates": [-90.261145025, 32.296434004], "type": "Point"}, "id": "WJwLYO4eXqQ5qA0g-L2i64m4iLU=", "properties": {"@source_uri": "https://tools.usps.com/UspsToolsRestServices/rest/POLocator/findLocations", "@spider": "usps_collection_boxes", "addr:city": "JACKSON", "addr:country": "US", "addr:postcode": "39204", "addr:state": "MS", "addr:street_address": "4542 ROBINSON RD", "amenity": "post_box", "brand": "United States Postal Service", "brand:wikidata": "Q668687", "collection_times": "Mo-Fr 17:00; Sa 13:00", "note": "ON 12/24 AND 12/31, THIS BOX MAY BE COLLECTED AS EARLY AS 12 NOON.", "nsi_id": "unitedstatespostalservice-a77078", "operator": "United States Postal Service", "operator:short": "USPS", "operator:type": "public", "operator:wikidata": "Q668687", "ref": "3920400036"}, "type": "Feature"}
{"geometry": {"coordinates": [-90.261145025, 32.296434004], "type": "Point"}, "id": "g7BY7tIyvU2hGqTb52g1nyqo-fE=", "properties": {"@source_uri": "https://tools.usps.com/UspsToolsRestServices/rest/POLocator/findLocations", "@spider": "usps_collection_boxes", "addr:city": "JACKSON", "addr:country": "US", "addr:postcode": "39204", "addr:state": "MS", "addr:street_address": "4542 ROBINSON RD", "amenity": "post_box", "brand": "United States Postal Service", "brand:wikidata": "Q668687", "collection_times": "Mo-Fr 17:00; Sa 13:00", "note": "ON 12/24 AND 12/31, THIS BOX MAY BE COLLECTED AS EARLY AS 12 NOON.", "nsi_id": "unitedstatespostalservice-a77078", "operator": "United States Postal Service", "operator:short": "USPS", "operator:type": "public", "operator:wikidata": "Q668687", "ref": "3920400039"}, "type": "Feature"}
{"geometry": {"coordinates": [-90.261145025, 32.296434004], "type": "Point"}, "id": "_4wD9KPUKZ6fm0-PhyntsVjPx4A=", "properties": {"@source_uri": "https://tools.usps.com/UspsToolsRestServices/rest/POLocator/findLocations", "@spider": "usps_collection_boxes", "addr:city": "JACKSON", "addr:country": "US", "addr:postcode": "39204", "addr:state": "MS", "addr:street_address": "4542 ROBINSON RD", "amenity": "post_box", "brand": "United States Postal Service", "brand:wikidata": "Q668687", "collection_times": "Mo-Fr 16:30", "indoor": "yes", "note": "ON 12/24 AND 12/31, THIS BOX MAY BE COLLECTED AS EARLY AS 12 NOON.", "nsi_id": "unitedstatespostalservice-a77078", "operator": "United States Postal Service", "operator:short": "USPS", "operator:type": "public", "operator:wikidata": "Q668687", "ref": "3920400054"}, "type": "Feature"}
{"geometry": {"coordinates": [-90.261145025, 32.296434004], "type": "Point"}, "id": "rO4-moSEm4QWV44zHbJL0Ydy5Is=", "properties": {"@source_uri": "https://tools.usps.com/UspsToolsRestServices/rest/POLocator/findLocations", "@spider": "usps_collection_boxes", "addr:city": "JACKSON", "addr:country": "US", "addr:postcode": "39204", "addr:state": "MS", "addr:street_address": "4542 ROBINSON RD", "amenity": "post_box", "brand": "United States Postal Service", "brand:wikidata": "Q668687", "collection_times": "Mo-Fr 16:30", "indoor": "yes", "note": "ON 12/24 AND 12/31, THIS BOX MAY BE COLLECTED AS EARLY AS 12 NOON.", "nsi_id": "unitedstatespostalservice-a77078", "operator": "United States Postal Service", "operator:short": "USPS", "operator:type": "public", "operator:wikidata": "Q668687", "ref": "3920400055"}, "type": "Feature"}
{"geometry": {"coordinates": [-90.261145025, 32.296434004], "type": "Point"}, "id": "TGmL8MpbTEQXdS5zjUuZFhPhHpo=", "properties": {"@source_uri": "https://tools.usps.com/UspsToolsRestServices/rest/POLocator/findLocations", "@spider": "usps_collection_boxes", "addr:city": "JACKSON", "addr:country": "US", "addr:postcode": "39204", "addr:state": "MS", "addr:street_address": "4542 ROBINSON RD", "amenity": "post_box", "brand": "United States Postal Service", "brand:wikidata": "Q668687", "collection_times": "Mo-Fr 16:30", "indoor": "yes", "note": "ON 12/24 AND 12/31, THIS BOX MAY BE COLLECTED AS EARLY AS 12 NOON.", "nsi_id": "unitedstatespostalservice-a77078", "operator": "United States Postal Service", "operator:short": "USPS", "operator:type": "public", "operator:wikidata": "Q668687", "ref": "3920400058"}, "type": "Feature"}
{"geometry": {"coordinates": [-90.151338335, 32.360782794], "type": "Point"}, "id": "Sz5j3cTTQEhPhup_RYbWiWEyCcY=", "properties": {"@source_uri": "https://tools.usps.com/UspsToolsRestServices/rest/POLocator/findLocations", "@spider": "usps_collection_boxes", "addr:city": "JACKSON", "addr:country": "US", "addr:postcode": "39206", "addr:state": "MS", "addr:street_address": "4785 N INTERSTATE 55", "amenity": "post_box", "brand": "United States Postal Service", "brand:wikidata": "Q668687", "collection_times": "Mo-Fr 14:30", "note": "ON 12/24 AND 12/31, THIS BOX MAY BE COLLECTED AS EARLY AS 12 NOON.", "nsi_id": "unitedstatespostalservice-a77078", "operator": "United States Postal Service", "operator:short": "USPS", "operator:type": "public", "operator:wikidata": "Q668687", "ref": "3920600013"}, "type": "Feature"}
{"geometry": {"coordinates": [-90.152044999, 32.369116001], "type": "Point"}, "id": "gnV8wGAr9tdzvbK6h9Jle0R-p1A=", "properties": {"@source_uri": "https://tools.usps.com/UspsToolsRestServices/rest/POLocator/findLocations", "@spider": "usps_collection_boxes", "addr:city": "JACKSON", "addr:country": "US", "addr:postcode": "39206", "addr:state": "MS", "addr:street_address": "5225 GALAXIE DR", "amenity": "post_box", "brand": "United States Postal Service", "brand:wikidata": "Q668687", "collection_times": "Mo-Fr 12:00", "nsi_id": "unitedstatespostalservice-a77078", "operator": "United States Postal Service", "operator:short": "USPS", "operator:type": "public", "operator:wikidata": "Q668687", "ref": "3920600018"}, "type": "Feature"}
{"geometry": {"coordinates": [-90.1498089592, 32.3728099896], "type": "Point"}, "id": "hqNQJXfYGa_6NvCIkE-KCjbXGMo=", "properties": {"@source_uri": "https://tools.usps.com/UspsToolsRestServices/rest/POLocator/findLocations", "@spider": "usps_collection_boxes", "addr:city": "JACKSON", "addr:country": "US", "addr:postcode": "39206", "addr:state": "MS", "addr:street_address": "5450 EXECUTIVE PL", "amenity": "post_box", "brand": "United States Postal Service", "brand:wikidata": "Q668687", "collection_times": "Mo-Fr 14:00", "note": "ON 12/24 AND 12/31, THIS BOX MAY BE COLLECTED AS EARLY AS 12 NOON.", "nsi_id": "unitedstatespostalservice-a77078", "operator": "United States Postal Service", "operator:short": "USPS", "operator:type": "public", "operator:wikidata": "Q668687", "ref": "3920600024"}, "type": "Feature"}
{"geometry": {"coordinates": [-90.155719961, 32.364143982], "type": "Point"}, "id": "7eRv-aZc3fXWcvqONCOOzsYP1GI=", "properties": {"@source_uri": "https://tools.usps.com/UspsToolsRestServices/rest/POLocator/findLocations", "@spider": "usps_collection_boxes", "addr:city": "JACKSON", "addr:country": "US", "addr:postcode": "39206", "addr:state": "MS", "addr:street_address": "350 EDGEWOOD TERRACE DR", "amenity": "post_box", "brand": "United States Postal Service", "brand:wikidata": "Q668687", "collection_times": "Mo-Fr 10:30", "nsi_id": "unitedstatespostalservice-a77078", "operator": "United States Postal Service", "operator:short": "USPS", "operator:type": "public", "operator:wikidata": "Q668687", "ref": "3920600029"}, "type": "Feature"}
{"geometry": {"coordinates": [-90.151608973, 32.378915996], "type": "Point"}, "id": "DzAX_F2G5NzFBJ2H0wv-rqx4Frg=", "properties": {"@source_uri": "https://tools.usps.com/UspsToolsRestServices/rest/POLocator/findLocations", "@spider": "usps_collection_boxes", "addr:city": "JACKSON", "addr:country": "US", "addr:postcode": "39206", "addr:state": "MS", "addr:street_address": "405 BRIARWOOD DR", "amenity": "post_box", "brand": "United States Postal Service", "brand:wikidata": "Q668687", "collection_times": "Mo-Fr 14:45", "note": "ON 12/24 AND 12/31, THIS BOX MAY BE COLLECTED AS EARLY AS 12 NOON.", "nsi_id": "unitedstatespostalservice-a77078", "operator": "United States Postal Service", "operator:short": "USPS", "operator:type": "public", "operator:wikidata": "Q668687", "ref": "3920600033"}, "type": "Feature"}
{"geometry": {"coordinates": [-90.151608973, 32.378915996], "type": "Point"}, "id": "vJ5EhGTAOpc63jkcpHErXuqC5bk=", "properties": {"@source_uri": "https://tools.usps.com/UspsToolsRestServices/rest/POLocator/findLocations", "@spider": "usps_collection_boxes", "addr:city": "JACKSON", "addr:country": "US", "addr:postcode": "39206", "addr:state": "MS", "addr:street_address": "405 BRIARWOOD DR", "amenity": "post_box", "brand": "United States Postal Service", "brand:wikidata": "Q668687", "collection_times": "Mo-Fr 14:45", "note": "ON 12/24 AND 12/31, THIS BOX MAY BE COLLECTED AS EARLY AS 12 NOON.", "nsi_id": "unitedstatespostalservice-a77078", "operator": "United States Postal Service", "operator:short": "USPS", "operator:type": "public", "operator:wikidata": "Q668687", "ref": "3920600038"}, "type": "Feature"}
{"geometry": {"coordinates": [-90.176052027, 32.351662993], "type": "Point"}, "id": "VtM47WLqNzTXmpNyXEywk88W92U=", "properties": {"@source_uri": "https://tools.usps.com/UspsToolsRestServices/rest/POLocator/findLocations", "@spider": "usps_collection_boxes", "addr:city": "JACKSON", "addr:country": "US", "addr:postcode": "39206", "addr:state": "MS", "addr:street_address": "4040 NORTHVIEW DR", "amenity": "post_box", "brand": "United States Postal Service", "brand:wikidata": "Q668687", "collection_times": "Mo-Fr 17:00; Sa 13:00", "note": "ON 12/24 AND 12/31, THIS BOX MAY BE COLLECTED AS EARLY AS 12 NOON.", "nsi_id": "unitedstatespostalservice-a77078", "operator": "United States Postal Service", "operator:short": "USPS", "operator:type": "public", "operator:wikidata": "Q668687", "ref": "3920600046"}, "type": "Feature"}
{"geometry": {"coordinates": [-90.176052027, 32.351662993], "type": "Point"}, "id": "ceTPaUNKcQcADhvQZhmjjgJLrH4=", "properties": {"@source_uri": "https://tools.usps.com/UspsToolsRestServices/rest/POLocator/findLocations", "@spider": "usps_collection_boxes", "addr:city": "JACKSON", "addr:country": "US", "addr:postcode": "39206", "addr:state": "MS", "addr:street_address": "4040 NORTHVIEW DR", "amenity": "post_box", "brand": "United States Postal Service", "brand:wikidata": "Q668687", "collection_times": "Mo-Fr 16:30", "indoor": "yes", "note": "ON 12/24 AND 12/31, THIS BOX MAY BE COLLECTED AS EARLY AS 12 NOON.", "nsi_id": "unitedstatespostalservice-a77078", "operator": "United States Postal Service", "operator:short": "USPS", "operator:type": "public", "operator:wikidata": "Q668687", "ref": "3920600053"}, "type": "Feature"}
{"geometry": {"coordinates": [-90.176052027, 32.351662993], "type": "Point"}, "id": "gjTBKz6CjQnqnAzv-DIC94E-oDc=", "properties": {"@source_uri": "https://tools.usps.com/UspsToolsRestServices/rest/POLocator/findLocations", "@spider": "usps_collection_boxes", "addr:city": "JACKSON", "addr:country": "US", "addr:postcode": "39206", "addr:state": "MS", "addr:street_address": "4040 NORTHVIEW DR", "amenity": "post_box", "brand": "United States Postal Service", "brand:wikidata": "Q668687", "collection_times": "Mo-Fr 16:30", "indoor": "yes", "note": "ON 12/24 AND 12/31, THIS BOX MAY BE COLLECTED AS EARLY AS 12 NOON.", "nsi_id": "unitedstatespostalservice-a77078", "operator": "United States Postal Service", "operator:short": "USPS", "operator:type": "public", "operator:wikidata": "Q668687", "ref": "3920600054"}, "type": "Feature"}
{"geometry": {"coordinates": [-90.176052027, 32.351662993], "type": "Point"}, "id": "ZgqWxDR4SXzyvOtkHhLMGhvMcKw=", "properties": {"@source_uri": "https://tools.usps.com/UspsToolsRestServices/rest/POLocator/findLocations", "@spider": "usps_collection_boxes", "addr:city": "JACKSON", "addr:country": "US", "addr:postcode": "39206", "addr:state": "MS", "addr:street_address": "4040 NORTHVIEW DR", "amenity": "post_box", "brand": "United States Postal Service", "brand:wikidata": "Q668687", "collection_times": "Mo-Fr 17:00; Sa 13:00", "note": "ON 12/24 AND 12/31, THIS BOX MAY BE COLLECTED AS EARLY AS 12 NOON.", "nsi_id": "unitedstatespostalservice-a77078", "operator": "United States Postal Service", "operator:short": "USPS", "operator:type": "public", "operator:wikidata": "Q668687", "ref": "3920600057"}, "type": "Feature"}
{"geometry": {"coordinates": [-90.176052027, 32.351662993], "type": "Point"}, "id": "Mab_wp46CKW38f7fw2rfLwqsCH8=", "properties": {"@source_uri": "https://tools.usps.com/UspsToolsRestServices/rest/POLocator/findLocations", "@spider": "usps_collection_boxes", "addr:city": "JACKSON", "addr:country": "US", "addr:postcode": "39206", "addr:state": "MS", "addr:street_address": "4040 NORTHVIEW DR", "amenity": "post_box", "brand": "United States Postal Service", "brand:wikidata": "Q668687", "collection_times": "Mo-Fr 16:30; Sa 12:00", "indoor": "yes", "note": "ON 12/24 AND 12/31, THIS BOX MAY BE COLLECTED AS EARLY AS 12 NOON.", "nsi_id": "unitedstatespostalservice-a77078", "operator": "United States Postal Service", "operator:short": "USPS", "operator:type": "public", "operator:wikidata": "Q668687", "ref": "3920600058"}, "type": "Feature"}
{"geometry": {"coordinates": [-90.117373006, 32.282229989], "type": "Point"}, "id": "S8d2E-TAutRehPlRUboWTVIx_2Y=", "properties": {"@source_uri": "https://tools.usps.com/UspsToolsRestServices/rest/POLocator/findLocations", "@spider": "usps_collection_boxes", "addr:city": "PEARL", "addr:country": "US", "addr:postcode": "39208", "addr:state": "MS", "addr:street_address": "3101 HIGHWAY 80 E", "amenity": "post_box", "brand": "United States Postal Service", "brand:wikidata": "Q668687", "collection_times": "Mo-Fr 09:00", "nsi_id": "unitedstatespostalservice-a77078", "operator": "United States Postal Service", "operator:short": "USPS", "operator:type": "public", "operator:wikidata": "Q668687", "ref": "3920800006"}, "type": "Feature"}
{"geometry": {"coordinates": [-90.134217027, 32.281163015], "type": "Point"}, "id": "FO1bSfu2_1AMfMP0kGGisD2fSKA=", "properties": {"@source_uri": "https://tools.usps.com/UspsToolsRestServices/rest/POLocator/findLocations", "@spider": "usps_collection_boxes", "addr:city": "PEARL", "addr:country": "US", "addr:postcode": "39208", "addr:state": "MS", "addr:street_address": "2300 HIGHWAY 80 E", "amenity": "post_box", "brand": "United States Postal Service", "brand:wikidata": "Q668687", "collection_times": "Mo-Fr 16:55; Sa 13:00", "note": "ON 12/24 AND 12/31, THIS BOX MAY BE COLLECTED AS EARLY AS 12 NOON.", "nsi_id": "unitedstatespostalservice-a77078", "operator": "United States Postal Service", "operator:short": "USPS", "operator:type": "public", "operator:wikidata": "Q668687", "ref": "3920800018"}, "type": "Feature"}
{"geometry": {"coordinates": [-90.134217027, 32.281163015], "type": "Point"}, "id": "2Z1E2cVuzV3atXTYGblku5wBN8I=", "properties": {"@source_uri": "https://tools.usps.com/UspsToolsRestServices/rest/POLocator/findLocations", "@spider": "usps_collection_boxes", "addr:city": "PEARL", "addr:country": "US", "addr:postcode": "39208", "addr:state": "MS", "addr:street_address": "2300 HIGHWAY 80 E", "amenity": "post_box", "brand": "United States Postal Service", "brand:wikidata": "Q668687", "collection_times": "Mo-Fr 16:55; Sa 13:00", "note": "ON 12/24 AND 12/31, THIS BOX MAY BE COLLECTED AS EARLY AS 12 NOON.", "nsi_id": "unitedstatespostalservice-a77078", "operator": "United States Postal Service", "operator:short": "USPS", "operator:type": "public", "operator:wikidata": "Q668687", "ref": "3920800047"}, "type": "Feature"}
{"geometry": {"coordinates": [-90.160021973, 32.277151017], "type": "Point"}, "id": "mPih3oYH4EHc4vLB0DLtJIo2HCE=", "properties": {"@source_uri": "https://tools.usps.com/UspsToolsRestServices/rest/POLocator/findLocations", "@spider": "usps_collection_boxes", "addr:city": "PEARL", "addr:country": "US", "addr:postcode": "39208", "addr:state": "MS", "addr:street_address": "685 HIGHWAY 80 E", "amenity": "post_box", "brand": "United States Postal Service", "brand:wikidata": "Q668687", "collection_times": "Mo-Fr 10:00", "nsi_id": "unitedstatespostalservice-a77078", "operator": "United States Postal Service", "operator:short": "USPS", "operator:type": "public", "operator:wikidata": "Q668687", "ref": "3920800053"}, "type": "Feature"}
{"geometry": {"coordinates": [-90.134217027, 32.281163015], "type": "Point"}, "id": "ofuuaGAJ6vqrWvpVhhMIz_eafI4=", "properties": {"@source_uri": "https://tools.usps.com/UspsToolsRestServices/rest/POLocator/findLocations", "@spider": "usps_collection_boxes", "addr:city": "PEARL", "addr:country": "US", "addr:postcode": "39208", "addr:state": "MS", "addr:street_address": "2300 HIGHWAY 80 E", "amenity": "post_box", "brand": "United States Postal Service", "brand:wikidata": "Q668687", "collection_times": "Mo-Fr 16:30", "indoor": "yes", "note": "ON 12/24 AND 12/31, THIS BOX MAY BE COLLECTED AS EARLY AS 12 NOON.", "nsi_id": "unitedstatespostalservice-a77078", "operator": "United States Postal Service", "operator:short": "USPS", "operator:type": "public", "operator:wikidata": "Q668687", "ref": "3920800069"}, "type": "Feature"}
{"geometry": {"coordinates": [-90.134217027, 32.281163015], "type": "Point"}, "id": "3k8NPolyxZAswjTHSX7QiKx8JZc=", "properties": {"@source_uri": "https://tools.usps.com/UspsToolsRestServices/rest/POLocator/findLocations", "@spider": "usps_collection_boxes", "addr:city": "PEARL", "addr:country": "US", "addr:postcode": "39208", "addr:state": "MS", "addr:street_address": "2300 HIGHWAY 80 E", "amenity": "post_box", "brand": "United States Postal Service", "brand:wikidata": "Q668687", "collection_times": "Mo-Fr 16:30", "indoor": "yes", "note": "ON 12/24 AND 12/31, THIS BOX MAY BE COLLECTED AS EARLY AS 12 NOON.", "nsi_id": "unitedstatespostalservice-a77078", "operator": "United States Postal Service", "operator:short": "USPS", "operator:type": "public", "operator:wikidata": "Q668687", "ref": "3920800070"}, "type": "Feature"}
{"geometry": {"coordinates": [-90.134217027, 32.281163015], "type": "Point"}, "id": "BhT4e3Kx4XU23-GwfUsdoI_8Pt8=", "properties": {"@source_uri": "https://tools.usps.com/UspsToolsRestServices/rest/POLocator/findLocations", "@spider": "usps_collection_boxes", "addr:city": "PEARL", "addr:country": "US", "addr:postcode": "39208", "addr:state": "MS", "addr:street_address": "2300 HIGHWAY 80 E", "amenity": "post_box", "brand": "United States Postal Service", "brand:wikidata": "Q668687", "collection_times": "Mo-Fr 16:30; Sa 11:00", "indoor": "yes", "note": "ON 12/24 AND 12/31, THIS BOX MAY BE COLLECTED AS EARLY AS 12 NOON.", "nsi_id": "unitedstatespostalservice-a77078", "operator": "United States Postal Service", "operator:short": "USPS", "operator:type": "public", "operator:wikidata": "Q668687", "ref": "3920800074"}, "type": "Feature"}
{"geometry": {"coordinates": [-90.2565308401, 32.3020010056], "type": "Point"}, "id": "5afoCCz9S7BT_R_rk1BqNyF4t6A=", "properties": {"@source_uri": "https://tools.usps.com/UspsToolsRestServices/rest/POLocator/findLocations", "@spider": "usps_collection_boxes", "addr:city": "JACKSON", "addr:country": "US", "addr:postcode": "39209", "addr:state": "MS", "addr:street_address": "4253 ROBINSON STREET", "amenity": "post_box", "brand": "United States Postal Service", "brand:wikidata": "Q668687", "collection_times": "Mo-Fr 11:00", "nsi_id": "unitedstatespostalservice-a77078", "operator": "United States Postal Service", "operator:short": "USPS", "operator:type": "public", "operator:wikidata": "Q668687", "ref": "3920900001"}, "type": "Feature"}
{"geometry": {"coordinates": [-90.240885965, 32.339503994], "type": "Point"}, "id": "G90zjAFDokvUyziIL0KSyVlsOfs=", "properties": {"@source_uri": "https://tools.usps.com/UspsToolsRestServices/rest/POLocator/findLocations", "@spider": "usps_collection_boxes", "addr:city": "JACKSON", "addr:country": "US", "addr:postcode": "39209", "addr:state": "MS", "addr:street_address": "4315 INDUSTRIAL DR", "amenity": "post_box", "brand": "United States Postal Service", "brand:wikidata": "Q668687", "collection_times": "Mo-Fr 10:00", "nsi_id": "unitedstatespostalservice-a77078", "operator": "United States Postal Service", "operator:short": "USPS", "operator:type": "public", "operator:wikidata": "Q668687", "ref": "3920900016"}, "type": "Feature"}
{"geometry": {"coordinates": [-90.284310007, 32.272686983], "type": "Point"}, "id": "QTSFPpZQCPT7ZYNgGgJMwyACfro=", "properties": {"@source_uri": "https://tools.usps.com/UspsToolsRestServices/rest/POLocator/findLocations", "@spider": "usps_collection_boxes", "addr:city": "JACKSON", "addr:country": "US", "addr:postcode": "39209", "addr:state": "MS", "addr:street_address": "5965 HIGHWAY 18 W", "amenity": "post_box", "brand": "United States Postal Service", "brand:wikidata": "Q668687", "collection_times": "Mo-Fr 12:30", "note": "ON 12/24 AND 12/31, THIS BOX MAY BE COLLECTED AS EARLY AS 12 NOON.", "nsi_id": "unitedstatespostalservice-a77078", "operator": "United States Postal Service", "operator:short": "USPS", "operator:type": "public", "operator:wikidata": "Q668687", "ref": "3920900020"}, "type": "Feature"}
{"geometry": {"coordinates": [-90.253145001, 32.328292989], "type": "Point"}, "id": "VsYfKBrxihAXntsHsL11rJpj7A4=", "properties": {"@source_uri": "https://tools.usps.com/UspsToolsRestServices/rest/POLocator/findLocations", "@spider": "usps_collection_boxes", "addr:city": "JACKSON", "addr:country": "US", "addr:postcode": "39209", "addr:state": "MS", "addr:street_address": "4775 CLINTON BLVD", "amenity": "post_box", "brand": "United States Postal Service", "brand:wikidata": "Q668687", "collection_times": "Mo-Fr 13:00", "note": "ON 12/24 AND 12/31, THIS BOX MAY BE COLLECTED AS EARLY AS 12 NOON.", "nsi_id": "unitedstatespostalservice-a77078", "operator": "United States Postal Service", "operator:short": "USPS", "operator:type": "public", "operator:wikidata": "Q668687", "ref": "3920900032"}, "type": "Feature"}
{"geometry": {"coordinates": [-90.22636683, 32.320985132], "type": "Point"}, "id": "jMV4UmqPLPRK6zFkruNlAFgGu04=", "properties": {"@source_uri": "https://tools.usps.com/UspsToolsRestServices/rest/POLocator/findLocations", "@spider": "usps_collection_boxes", "addr:city": "JACKSON", "addr:country": "US", "addr:postcode": "39209", "addr:state": "MS", "addr:street_address": "3121 W CAPITOL ST", "amenity": "post_box", "brand": "United States Postal Service", "brand:wikidata": "Q668687", "collection_times": "Mo-Fr 09:00", "nsi_id": "unitedstatespostalservice-a77078", "operator": "United States Postal Service", "operator:short": "USPS", "operator:type": "public", "operator:wikidata": "Q668687", "ref": "3920900035"}, "type": "Feature"}
{"geometry": {"coordinates": [-90.227795153, 32.306622314], "type": "Point"}, "id": "16rOlVCEFEJ6z-vsVoh039ZvGiI=", "properties": {"@source_uri": "https://tools.usps.com/UspsToolsRestServices/rest/POLocator/findLocations", "@spider": "usps_collection_boxes", "addr:city": "JACKSON", "addr:country": "US", "addr:postcode": "39209", "addr:state": "MS", "addr:street_address": "905 ELLIS AVE", "amenity": "post_box", "brand": "United States Postal Service", "brand:wikidata": "Q668687", "collection_times": "Mo-Fr 17:00; Sa 13:00", "note": "ON 12/24 AND 12/31, THIS BOX MAY BE COLLECTED AS EARLY AS 12 NOON.", "nsi_id": "unitedstatespostalservice-a77078", "operator": "United States Postal Service", "operator:short": "USPS", "operator:type": "public", "operator:wikidata": "Q668687", "ref": "3920900040"}, "type": "Feature"}
{"geometry": {"coordinates": [-90.227795153, 32.306622314], "type": "Point"}, "id": "VM7sna-zN6pWz3hnGrkMWxhAFmE=", "properties": {"@source_uri": "https://tools.usps.com/UspsToolsRestServices/rest/POLocator/findLocations", "@spider": "usps_collection_boxes", "addr:city": "JACKSON", "addr:country": "US", "addr:postcode": "39209", "addr:state": "MS", "addr:street_address": "905 ELLIS AVE", "amenity": "post_box", "brand": "United States Postal Service", "brand:wikidata": "Q668687", "collection_times": "Mo-Fr 16:30", "indoor": "yes", "note": "ON 12/24 AND 12/31, THIS BOX MAY BE COLLECTED AS EARLY AS 12 NOON.", "nsi_id": "unitedstatespostalservice-a77078", "operator": "United States Postal Service", "operator:short": "USPS", "operator:type": "public", "operator:wikidata": "Q668687", "ref": "3920900043"}, "type": "Feature"}
{"geometry": {"coordinates": [-90.227795153, 32.306622314], "type": "Point"}, "id": "X8Qb3LhvDsmlneCtILh_8NEQtZo=", "properties": {"@source_uri": "https://tools.usps.com/UspsToolsRestServices/rest/POLocator/findLocations", "@spider": "usps_collection_boxes", "addr:city": "JACKSON", "addr:country": "US", "addr:postcode": "39209", "addr:state": "MS", "addr:street_address": "905 ELLIS AVE", "amenity": "post_box", "brand": "United States Postal Service", "brand:wikidata": "Q668687", "collection_times": "Mo-Fr 16:30", "indoor": "yes", "note": "ON 12/24 AND 12/31, THIS BOX MAY BE COLLECTED AS EARLY AS 12 NOON.", "nsi_id": "unitedstatespostalservice-a77078", "operator": "United States Postal Service", "operator:short": "USPS", "operator:type": "public", "operator:wikidata": "Q668687", "ref": "3920900044"}, "type": "Feature"}
{"geometry": {"coordinates": [-90.227795153, 32.306622314], "type": "Point"}, "id": "r-c2tpOXrFp3GTguTqvQmjolckY=", "properties": {"@source_uri": "https://tools.usps.com/UspsToolsRestServices/rest/POLocator/findLocations", "@spider": "usps_collection_boxes", "addr:city": "JACKSON", "addr:country": "US", "addr:postcode": "39209", "addr:state": "MS", "addr:street_address": "905 ELLIS AVE", "amenity": "post_box", "brand": "United States Postal Service", "brand:wikidata": "Q668687", "collection_times": "Mo-Fr 16:30", "indoor": "yes", "note": "ON 12/24 AND 12/31, THIS BOX MAY BE COLLECTED AS EARLY AS 12 NOON.", "nsi_id": "unitedstatespostalservice-a77078", "operator": "United States Postal Service", "operator:short": "USPS", "operator:type": "public", "operator:wikidata": "Q668687", "ref": "3920900046"}, "type": "Feature"}
{"geometry": {"coordinates": [-90.121784988, 32.398276014], "type": "Point"}, "id": "7gdNzO86sDUH5u0qOXk7zkf69ss=", "properties": {"@source_uri": "https://tools.usps.com/UspsToolsRestServices/rest/POLocator/findLocations", "@spider": "usps_collection_boxes", "addr:city": "JACKSON", "addr:country": "US", "addr:postcode": "39211", "addr:state": "MS", "addr:street_address": "1625 E COUNTY LINE RD", "amenity": "post_box", "brand": "United States Postal Service", "brand:wikidata": "Q668687", "collection_times": "Mo-Fr 14:30", "note": "ON 12/24 AND 12/31, THIS BOX MAY BE COLLECTED AS EARLY AS 12 NOON.", "nsi_id": "unitedstatespostalservice-a77078", "operator": "United States Postal Service", "operator:short": "USPS", "operator:type": "public", "operator:wikidata": "Q668687", "ref": "3921100006"}, "type": "Feature"}
{"geometry": {"coordinates": [-90.141752022, 32.393394016], "type": "Point"}, "id": "KSoz-zLUs5twZYphhcClhWBqM_E=", "properties": {"@source_uri": "https://tools.usps.com/UspsToolsRestServices/rest/POLocator/findLocations", "@spider": "usps_collection_boxes", "addr:city": "JACKSON", "addr:country": "US", "addr:postcode": "39211", "addr:state": "MS", "addr:street_address": "6055 RIDGEWOOD RD", "amenity": "post_box", "brand": "United States Postal Service", "brand:wikidata": "Q668687", "collection_times": "Mo-Fr 09:30", "nsi_id": "unitedstatespostalservice-a77078", "operator": "United States Postal Service", "operator:short": "USPS", "operator:type": "public", "operator:wikidata": "Q668687", "ref": "3921100008"}, "type": "Feature"}
{"geometry": {"coordinates": [-90.114792326, 32.38790716], "type": "Point"}, "id": "uthMLaFDz1XGmNF5cPRN2wN8VDE=", "properties": {"@source_uri": "https://tools.usps.com/UspsToolsRestServices/rest/POLocator/findLocations", "@spider": "usps_collection_boxes", "addr:city": "JACKSON", "addr:country": "US", "addr:postcode": "39211", "addr:state": "MS", "addr:street_address": "6240 OLD CANTON RD", "amenity": "post_box", "brand": "United States Postal Service", "brand:wikidata": "Q668687", "collection_times": "Mo-Fr 14:30", "note": "ON 12/24 AND 12/31, THIS BOX MAY BE COLLECTED AS EARLY AS 12 NOON.", "nsi_id": "unitedstatespostalservice-a77078", "operator": "United States Postal Service", "operator:short": "USPS", "operator:type": "public", "operator:wikidata": "Q668687", "ref": "3921100018"}, "type": "Feature"}
{"geometry": {"coordinates": [-90.114792326, 32.38790716], "type": "Point"}, "id": "3my5I4bylsu290ybjZ1ChO79dDQ=", "properties": {"@source_uri": "https://tools.usps.com/UspsToolsRestServices/rest/POLocator/findLocations", "@spider": "usps_collection_boxes", "addr:city": "JACKSON", "addr:country": "US", "addr:postcode": "39211", "addr:state": "MS", "addr:street_address": "6240 OLD CANTON RD", "amenity": "post_box", "brand": "United States Postal Service", "brand:wikidata": "Q668687", "collection_times": "Mo-Fr 14:30", "note": "ON 12/24 AND 12/31, THIS BOX MAY BE COLLECTED AS EARLY AS 12 NOON.", "nsi_id": "unitedstatespostalservice-a77078", "operator": "United States Postal Service", "operator:short": "USPS", "operator:type": "public", "operator:wikidata": "Q668687", "ref": "3921100019"}, "type": "Feature"}
{"geometry": {"coordinates": [-90.146614029, 32.362470996], "type": "Point"}, "id": "Z_0BU5e4idZxybSHguafcPKicEs=", "properties": {"@source_uri": "https://tools.usps.com/UspsToolsRestServices/rest/POLocator/findLocations", "@spider": "usps_collection_boxes", "addr:city": "JACKSON", "addr:country": "US", "addr:postcode": "39211", "addr:state": "MS", "addr:street_address": "1501 JACKSONIAN PLZ", "amenity": "post_box", "brand": "United States Postal Service", "brand:wikidata": "Q668687", "collection_times": "Mo-Fr 17:00; Sa 13:00", "note": "ON 12/24 AND 12/31, THIS BOX MAY BE COLLECTED AS EARLY AS 12 NOON.", "nsi_id": "unitedstatespostalservice-a77078", "operator": "United States Postal Service", "operator:short": "USPS", "operator:type": "public", "operator:wikidata": "Q668687", "ref": "3921100023"}, "type": "Feature"}
{"geometry": {"coordinates": [-90.146614029, 32.362470996], "type": "Point"}, "id": "0kSdvzI6TmCk0IlDdgp8OIco6xI=", "properties": {"@source_uri": "https://tools.usps.com/UspsToolsRestServices/rest/POLocator/findLocations", "@spider": "usps_collection_boxes", "addr:city": "JACKSON", "addr:country": "US", "addr:postcode": "39211", "addr:state": "MS", "addr:street_address": "1501 JACKSONIAN PLZ", "amenity": "post_box", "brand": "United States Postal Service", "brand:wikidata": "Q668687", "collection_times": "Mo-Fr 17:00; Sa 13:00", "note": "ON 12/24 AND 12/31, THIS BOX MAY BE COLLECTED AS EARLY AS 12 NOON.", "nsi_id": "unitedstatespostalservice-a77078", "operator": "United States Postal Service", "operator:short": "USPS", "operator:type": "public", "operator:wikidata": "Q668687", "ref": "3921100028"}, "type": "Feature"}
{"geometry": {"coordinates": [-90.146614029, 32.362470996], "type": "Point"}, "id": "hbRoc7Cv9pwE5lKHhQk-9ZAxbQw=", "properties": {"@source_uri": "https://tools.usps.com/UspsToolsRestServices/rest/POLocator/findLocations", "@spider": "usps_collection_boxes", "addr:city": "JACKSON", "addr:country": "US", "addr:postcode": "39211", "addr:state": "MS", "addr:street_address": "1501 JACKSONIAN PLZ", "amenity": "post_box", "brand": "United States Postal Service", "brand:wikidata": "Q668687", "collection_times": "Mo-Fr 17:00; Sa 13:00", "note": "ON 12/24 AND 12/31, THIS BOX MAY BE COLLECTED AS EARLY AS 12 NOON.", "nsi_id": "unitedstatespostalservice-a77078", "operator": "United States Postal Service", "operator:short": "USPS", "operator:type": "public", "operator:wikidata": "Q668687", "ref": "3921100029"}, "type": "Feature"}
{"geometry": {"coordinates": [-90.146614029, 32.362470996], "type": "Point"}, "id": "qcqbIjXzxNG4moCttCuZ1OmVg48=", "properties": {"@source_uri": "https://tools.usps.com/UspsToolsRestServices/rest/POLocator/findLocations", "@spider": "usps_collection_boxes", "addr:city": "JACKSON", "addr:country": "US", "addr:postcode": "39211", "addr:state": "MS", "addr:street_address": "1501 JACKSONIAN PLZ", "amenity": "post_box", "brand": "United States Postal Service", "brand:wikidata": "Q668687", "collection_times": "Mo-Fr 17:00; Sa 13:00", "note": "ON 12/24 AND 12/31, THIS BOX MAY BE COLLECTED AS EARLY AS 12 NOON.", "nsi_id": "unitedstatespostalservice-a77078", "operator": "United States Postal Service", "operator:short": "USPS", "operator:type": "public", "operator:wikidata": "Q668687", "ref": "3921100036"}, "type": "Feature"}
{"geometry": {"coordinates": [-90.146614029, 32.362470996], "type": "Point"}, "id": "s0oyFjuqPt2pkMqIrw8lBrVc2oA=", "properties": {"@source_uri": "https://tools.usps.com/UspsToolsRestServices/rest/POLocator/findLocations", "@spider": "usps_collection_boxes", "addr:city": "JACKSON", "addr:country": "US", "addr:postcode": "39211", "addr:state": "MS", "addr:street_address": "1501 JACKSONIAN PLZ", "amenity": "post_box", "brand": "United States Postal Service", "brand:wikidata": "Q668687", "collection_times": "Mo-Fr 17:00; Sa 13:00", "note": "ON 12/24 AND 12/31, THIS BOX MAY BE COLLECTED AS EARLY AS 12 NOON.", "nsi_id": "unitedstatespostalservice-a77078", "operator": "United States Postal Service", "operator:short": "USPS", "operator:type": "public", "operator:wikidata": "Q668687", "ref": "3921100038"}, "type": "Feature"}
{"geometry": {"coordinates": [-90.14911557, 32.367709213], "type": "Point"}, "id": "S_hD1Q2gCTmcJaDPUrjiNQV2sDc=", "properties": {"@source_uri": "https://tools.usps.com/UspsToolsRestServices/rest/POLocator/findLocations", "@spider": "usps_collection_boxes", "addr:city": "JACKSON", "addr:country": "US", "addr:postcode": "39211", "addr:state": "MS", "addr:street_address": "5060 I 55 N", "amenity": "post_box", "brand": "United States Postal Service", "brand:wikidata": "Q668687", "collection_times": "Mo-Fr 10:45", "nsi_id": "unitedstatespostalservice-a77078", "operator": "United States Postal Service", "operator:short": "USPS", "operator:type": "public", "operator:wikidata": "Q668687", "ref": "3921100042"}, "type": "Feature"}
{"geometry": {"coordinates": [-90.14450149, 32.397729592], "type": "Point"}, "id": "73honSA9x3afsAh-hN1g-VILp88=", "properties": {"@source_uri": "https://tools.usps.com/UspsToolsRestServices/rest/POLocator/findLocations", "@spider": "usps_collection_boxes", "addr:city": "JACKSON", "addr:country": "US", "addr:postcode": "39211", "addr:state": "MS", "addr:street_address": "6360 I 55 N", "amenity": "post_box", "brand": "United States Postal Service", "brand:wikidata": "Q668687", "collection_times": "Mo-Fr 14:30", "note": "ON 12/24 AND 12/31, THIS BOX MAY BE COLLECTED AS EARLY AS 12 NOON.", "nsi_id": "unitedstatespostalservice-a77078", "operator": "United States Postal Service", "operator:short": "USPS", "operator:type": "public", "operator:wikidata": "Q668687", "ref": "3921100051"}, "type": "Feature"}
{"geometry": {"coordinates": [-90.150617116, 32.36010221], "type": "Point"}, "id": "Wqt2d6UIrHBLWmEam-3dULEc44I=", "properties": {"@source_uri": "https://tools.usps.com/UspsToolsRestServices/rest/POLocator/findLocations", "@spider": "usps_collection_boxes", "addr:city": "JACKSON", "addr:country": "US", "addr:postcode": "39211", "addr:state": "MS", "addr:street_address": "4780 I 55 N", "amenity": "post_box", "brand": "United States Postal Service", "brand:wikidata": "Q668687", "collection_times": "Mo-Fr 10:45", "nsi_id": "unitedstatespostalservice-a77078", "operator": "United States Postal Service", "operator:short": "USPS", "operator:type": "public", "operator:wikidata": "Q668687", "ref": "3921100054"}, "type": "Feature"}
{"geometry": {"coordinates": [-90.14450149, 32.397729592], "type": "Point"}, "id": "rxF6ftu2-oOS5jROa7zpR9m-oKY=", "properties": {"@source_uri": "https://tools.usps.com/UspsToolsRestServices/rest/POLocator/findLocations", "@spider": "usps_collection_boxes", "addr:city": "JACKSON", "addr:country": "US", "addr:postcode": "39211", "addr:state": "MS", "addr:street_address": "6360 I 55 N", "amenity": "post_box", "brand": "United States Postal Service", "brand:wikidata": "Q668687", "collection_times": "Mo-Fr 14:30", "note": "ON 12/24 AND 12/31, THIS BOX MAY BE COLLECTED AS EARLY AS 12 NOON.", "nsi_id": "unitedstatespostalservice-a77078", "operator": "United States Postal Service", "operator:short": "USPS", "operator:type": "public", "operator:wikidata": "Q668687", "ref": "3921100064"}, "type": "Feature"}
{"geometry": {"coordinates": [-90.152783614, 32.348686163], "type": "Point"}, "id": "yVtieZ-U2PZCSCTHjpy8kaovKbU=", "properties": {"@source_uri": "https://tools.usps.com/UspsToolsRestServices/rest/POLocator/findLocations", "@spider": "usps_collection_boxes", "addr:city": "JACKSON", "addr:country": "US", "addr:postcode": "39211", "addr:state": "MS", "addr:street_address": "4268 I 55 N", "amenity": "post_box", "brand": "United States Postal Service", "brand:wikidata": "Q668687", "collection_times": "Mo-Fr 10:45", "nsi_id": "unitedstatespostalservice-a77078", "operator": "United States Postal Service", "operator:short": "USPS", "operator:type": "public", "operator:wikidata": "Q668687", "ref": "3921100065"}, "type": "Feature"}
{"geometry": {"coordinates": [-90.152783614, 32.348686163], "type": "Point"}, "id": "kp3W8-1OYZ68bXbWFveBSo6G9rs=", "properties": {"@source_uri": "https://tools.usps.com/UspsToolsRestServices/rest/POLocator/findLocations", "@spider": "usps_collection_boxes", "addr:city": "JACKSON", "addr:country": "US", "addr:postcode": "39211", "addr:state": "MS", "addr:street_address": "4268 I 55 N", "amenity": "post_box", "brand": "United States Postal Service", "brand:wikidata": "Q668687", "collection_times": "Mo-Fr 10:45", "nsi_id": "unitedstatespostalservice-a77078", "operator": "United States Postal Service", "operator:short": "USPS", "operator:type": "public", "operator:wikidata": "Q668687", "ref": "3921100066"}, "type": "Feature"}
{"geometry": {"coordinates": [-90.146614029, 32.362470996], "type": "Point"}, "id": "BfgnuI45ITy-r9la6pAc4nF7ak0=", "properties": {"@source_uri": "https://tools.usps.com/UspsToolsRestServices/rest/POLocator/findLocations", "@spider": "usps_collection_boxes", "addr:city": "JACKSON", "addr:country": "US", "addr:postcode": "39211", "addr:state": "MS", "addr:street_address": "1501 JACKSONIAN PLZ", "amenity": "post_box", "brand": "United States Postal Service", "brand:wikidata": "Q668687", "collection_times": "Mo-Fr 16:30", "name": "USPS COLLECTION BOX - APC", "note": "ON 12/24 AND 12/31, THIS BOX MAY BE COLLECTED AS EARLY AS 12 NOON.", "nsi_id": "unitedstatespostalservice-a77078", "operator": "United States Postal Service", "operator:short": "USPS", "operator:type": "public", "operator:wikidata": "Q668687", "ref": "3921100068"}, "type": "Feature"}
{"geometry": {"coordinates": [-90.146614029, 32.362470996], "type": "Point"}, "id": "qr5KJ9RbDM64p31byMhDLzD9wYY=", "properties": {"@source_uri": "https://tools.usps.com/UspsToolsRestServices/rest/POLocator/findLocations", "@spider": "usps_collection_boxes", "addr:city": "JACKSON", "addr:country": "US", "addr:postcode": "39211", "addr:state": "MS", "addr:street_address": "1501 JACKSONIAN PLZ", "amenity": "post_box", "brand": "United States Postal Service", "brand:wikidata": "Q668687", "collection_times": "Mo-Fr 16:30", "indoor": "yes", "note": "ON 12/24 AND 12/31, THIS BOX MAY BE COLLECTED AS EARLY AS 12 NOON.", "nsi_id": "unitedstatespostalservice-a77078", "operator": "United States Postal Service", "operator:short": "USPS", "operator:type": "public", "operator:wikidata": "Q668687", "ref": "3921100069"}, "type": "Feature"}
{"geometry": {"coordinates": [-90.146614029, 32.362470996], "type": "Point"}, "id": "7BMDRO1RmaK7abdxDgRs3hmRjQQ=", "properties": {"@source_uri": "https://tools.usps.com/UspsToolsRestServices/rest/POLocator/findLocations", "@spider": "usps_collection_boxes", "addr:city": "JACKSON", "addr:country": "US", "addr:postcode": "39211", "addr:state": "MS", "addr:street_address": "1501 JACKSONIAN PLZ", "amenity": "post_box", "brand": "United States Postal Service", "brand:wikidata": "Q668687", "collection_times": "Mo-Fr 16:30", "indoor": "yes", "note": "ON 12/24 AND 12/31, THIS BOX MAY BE COLLECTED AS EARLY AS 12 NOON.", "nsi_id": "unitedstatespostalservice-a77078", "operator": "United States Postal Service", "operator:short": "USPS", "operator:type": "public", "operator:wikidata": "Q668687", "ref": "3921100070"}, "type": "Feature"}
{"geometry": {"coordinates": [-90.150617116, 32.36010221], "type": "Point"}, "id": "O2IL8QpV5Q2YBtw4GJ-6DCxw63Q=", "properties": {"@source_uri": "https://tools.usps.com/UspsToolsRestServices/rest/POLocator/findLocations", "@spider": "usps_collection_boxes", "addr:city": "JACKSON", "addr:country": "US", "addr:postcode": "39211", "addr:state": "MS", "addr:street_address": "4780 I 55 N", "amenity": "post_box", "brand": "United States Postal Service", "brand:wikidata": "Q668687", "collection_times": "Mo-Fr 10:45", "nsi_id": "unitedstatespostalservice-a77078", "operator": "United States Postal Service", "operator:short": "USPS", "operator:type": "public", "operator:wikidata": "Q668687", "ref": "3921100071"}, "type": "Feature"}
{"geometry": {"coordinates": [-90.155175976, 32.345397981], "type": "Point"}, "id": "aKIIfxhTL_QTsOQY8DCYjcDHF-g=", "properties": {"@source_uri": "https://tools.usps.com/UspsToolsRestServices/rest/POLocator/findLocations", "@spider": "usps_collection_boxes", "addr:city": "JACKSON", "addr:country": "US", "addr:postcode": "39211", "addr:state": "MS", "addr:street_address": "100 VISION DR", "amenity": "post_box", "brand": "United States Postal Service", "brand:wikidata": "Q668687", "collection_times": "Mo-Fr 10:00", "nsi_id": "unitedstatespostalservice-a77078", "operator": "United States Postal Service", "operator:short": "USPS", "operator:type": "public", "operator:wikidata": "Q668687", "ref": "3921100074"}, "type": "Feature"}
{"geometry": {"coordinates": [-90.146614029, 32.362470996], "type": "Point"}, "id": "FcgxX381TAmY8SgsOC239grY5LU=", "properties": {"@source_uri": "https://tools.usps.com/UspsToolsRestServices/rest/POLocator/findLocations", "@spider": "usps_collection_boxes", "addr:city": "JACKSON", "addr:country": "US", "addr:postcode": "39211", "addr:state": "MS", "addr:street_address": "1501 JACKSONIAN PLZ", "amenity": "post_box", "brand": "United States Postal Service", "brand:wikidata": "Q668687", "collection_times": "Mo-Fr 17:00", "indoor": "yes", "note": "ON 12/24 AND 12/31, THIS BOX MAY BE COLLECTED AS EARLY AS 12 NOON.", "nsi_id": "unitedstatespostalservice-a77078", "operator": "United States Postal Service", "operator:short": "USPS", "operator:type": "public", "operator:wikidata": "Q668687", "ref": "3921100077"}, "type": "Feature"}
{"geometry": {"coordinates": [-90.250144028, 32.251504991], "type": "Point"}, "id": "szwz1-D3mrWEwPvup81lqYV1crc=", "properties": {"@source_uri": "https://tools.usps.com/UspsToolsRestServices/rest/POLocator/findLocations", "@spider": "usps_collection_boxes", "addr:city": "JACKSON", "addr:country": "US", "addr:postcode": "39212", "addr:state": "MS", "addr:street_address": "820 COOPER RD", "amenity": "post_box", "brand": "United States Postal Service", "brand:wikidata": "Q668687", "collection_times": "Mo-Fr 17:00; Sa 13:00", "note": "ON 12/24 AND 12/31, THIS BOX MAY BE COLLECTED AS EARLY AS 12 NOON.", "nsi_id": "unitedstatespostalservice-a77078", "operator": "United States Postal Service", "operator:short": "USPS", "operator:type": "public", "operator:wikidata": "Q668687", "ref": "3921200005"}, "type": "Feature"}
{"geometry": {"coordinates": [-90.250144028, 32.251504991], "type": "Point"}, "id": "3vkS3Sc_AKD1JfBOrJvBSPhkm9M=", "properties": {"@source_uri": "https://tools.usps.com/UspsToolsRestServices/rest/POLocator/findLocations", "@spider": "usps_collection_boxes", "addr:city": "JACKSON", "addr:country": "US", "addr:postcode": "39212", "addr:state": "MS", "addr:street_address": "820 COOPER RD", "amenity": "post_box", "brand": "United States Postal Service", "brand:wikidata": "Q668687", "collection_times": "Mo-Fr 17:00; Sa 13:00", "note": "ON 12/24 AND 12/31, THIS BOX MAY BE COLLECTED AS EARLY AS 12 NOON.", "nsi_id": "unitedstatespostalservice-a77078", "operator": "United States Postal Service", "operator:short": "USPS", "operator:type": "public", "operator:wikidata": "Q668687", "ref": "3921200017"}, "type": "Feature"}
{"geometry": {"coordinates": [-90.250144028, 32.251504991], "type": "Point"}, "id": "ExQOIYHfIry23BNh0m8Jzsqhl-8=", "properties": {"@source_uri": "https://tools.usps.com/UspsToolsRestServices/rest/POLocator/findLocations", "@spider": "usps_collection_boxes", "addr:city": "JACKSON", "addr:country": "US", "addr:postcode": "39212", "addr:state": "MS", "addr:street_address": "820 COOPER RD", "amenity": "post_box", "brand": "United States Postal Service", "brand:wikidata": "Q668687", "collection_times": "Mo-Fr 17:00; Sa 13:00", "note": "ON 12/24 AND 12/31, THIS BOX MAY BE COLLECTED AS EARLY AS 12 NOON.", "nsi_id": "unitedstatespostalservice-a77078", "operator": "United States Postal Service", "operator:short": "USPS", "operator:type": "public", "operator:wikidata": "Q668687", "ref": "3921200018"}, "type": "Feature"}
{"geometry": {"coordinates": [-90.250144028, 32.251504991], "type": "Point"}, "id": "AjocAhUATz-wwqeoPsEqnSGZvi4=", "properties": {"@source_uri": "https://tools.usps.com/UspsToolsRestServices/rest/POLocator/findLocations", "@spider": "usps_collection_boxes", "addr:city": "JACKSON", "addr:country": "US", "addr:postcode": "39212", "addr:state": "MS", "addr:street_address": "820 COOPER RD", "amenity": "post_box", "brand": "United States Postal Service", "brand:wikidata": "Q668687", "collection_times": "Mo-Fr 16:30", "indoor": "yes", "note": "ON 12/24 AND 12/31, THIS BOX MAY BE COLLECTED AS EARLY AS 12 NOON.", "nsi_id": "unitedstatespostalservice-a77078", "operator": "United States Postal Service", "operator:short": "USPS", "operator:type": "public", "operator:wikidata": "Q668687", "ref": "3921200042"}, "type": "Feature"}
{"geometry": {"coordinates": [-90.250144028, 32.251504991], "type": "Point"}, "id": "QuYgVru8zHpNTB4nWBfbvCGz6jg=", "properties": {"@source_uri": "https://tools.usps.com/UspsToolsRestServices/rest/POLocator/findLocations", "@spider": "usps_collection_boxes", "addr:city": "JACKSON", "addr:country": "US", "addr:postcode": "39212", "addr:state": "MS", "addr:street_address": "820 COOPER RD", "amenity": "post_box", "brand": "United States Postal Service", "brand:wikidata": "Q668687", "collection_times": "Mo-Fr 16:30", "indoor": "yes", "note": "ON 12/24 AND 12/31, THIS BOX MAY BE COLLECTED AS EARLY AS 12 NOON.", "nsi_id": "unitedstatespostalservice-a77078", "operator": "United States Postal Service", "operator:short": "USPS", "operator:type": "public", "operator:wikidata": "Q668687", "ref": "3921200043"}, "type": "Feature"}
{"geometry": {"coordinates": [-90.250144028, 32.251504991], "type": "Point"}, "id": "vbi4ufrB4mNIvxjAxzgpkKS0Gc0=", "properties": {"@source_uri": "https://tools.usps.com/UspsToolsRestServices/rest/POLocator/findLocations", "@spider": "usps_collection_boxes", "addr:city": "JACKSON", "addr:country": "US", "addr:postcode": "39212", "addr:state": "MS", "addr:street_address": "820 COOPER RD", "amenity": "post_box", "brand": "United States Postal Service", "brand:wikidata": "Q668687", "collection_times": "Mo-Fr 16:00; Sa 12:00", "indoor": "yes", "note": "ON 12/24 AND 12/31, THIS BOX MAY BE COLLECTED AS EARLY AS 12 NOON.", "nsi_id": "unitedstatespostalservice-a77078", "operator": "United States Postal Service", "operator:short": "USPS", "operator:type": "public", "operator:wikidata": "Q668687", "ref": "3921200045"}, "type": "Feature"}
{"geometry": {"coordinates": [-90.195728964, 32.333020006], "type": "Point"}, "id": "2lnR_jxtTASCB_kqS0JcEdtsvX8=", "properties": {"@source_uri": "https://tools.usps.com/UspsToolsRestServices/rest/POLocator/findLocations", "@spider": "usps_collection_boxes", "addr:city": "JACKSON", "addr:country": "US", "addr:postcode": "39213", "addr:state": "MS", "addr:street_address": "550 MELVIN BENDER DR", "amenity": "post_box", "brand": "United States Postal Service", "brand:wikidata": "Q668687", "collection_times": "Mo-Fr 17:00; Sa 13:00", "note": "ON 12/24 AND 12/31, THIS BOX MAY BE COLLECTED AS EARLY AS 12 NOON.", "nsi_id": "unitedstatespostalservice-a77078", "operator": "United States Postal Service", "operator:short": "USPS", "operator:type": "public", "operator:wikidata": "Q668687", "ref": "3921300008"}, "type": "Feature"}
{"geometry": {"coordinates": [-90.195728964, 32.333020006], "type": "Point"}, "id": "Og6nSA2hND6_Dgdsq27Vx8AE-PA=", "properties": {"@source_uri": "https://tools.usps.com/UspsToolsRestServices/rest/POLocator/findLocations", "@spider": "usps_collection_boxes", "addr:city": "JACKSON", "addr:country": "US", "addr:postcode": "39213", "addr:state": "MS", "addr:street_address": "550 MELVIN BENDER DR", "amenity": "post_box", "brand": "United States Postal Service", "brand:wikidata": "Q668687", "collection_times": "Mo-Fr 17:00; Sa 13:00", "note": "ON 12/24 AND 12/31, THIS BOX MAY BE COLLECTED AS EARLY AS 12 NOON.", "nsi_id": "unitedstatespostalservice-a77078", "operator": "United States Postal Service", "operator:short": "USPS", "operator:type": "public", "operator:wikidata": "Q668687", "ref": "3921300009"}, "type": "Feature"}
{"geometry": {"coordinates": [-90.201655029, 32.386960665], "type": "Point"}, "id": "JfUqv0AbTLvklI892qhHyUx5EZU=", "properties": {"@source_uri": "https://tools.usps.com/UspsToolsRestServices/rest/POLocator/findLocations", "@spider": "usps_collection_boxes", "addr:city": "JACKSON", "addr:country": "US", "addr:postcode": "39213", "addr:state": "MS", "addr:street_address": "1400 LAKEOVER & WATKINS", "amenity": "post_box", "brand": "United States Postal Service", "brand:wikidata": "Q668687", "collection_times": "Mo-Fr 12:00", "nsi_id": "unitedstatespostalservice-a77078", "operator": "United States Postal Service", "operator:short": "USPS", "operator:type": "public", "operator:wikidata": "Q668687", "ref": "3921300012"}, "type": "Feature"}
{"geometry": {"coordinates": [-90.195728964, 32.333020006], "type": "Point"}, "id": "cWQn9GL0Mx-I-34DHfOUQ4Q6FMo=", "properties": {"@source_uri": "https://tools.usps.com/UspsToolsRestServices/rest/POLocator/findLocations", "@spider": "usps_collection_boxes", "addr:city": "JACKSON", "addr:country": "US", "addr:postcode": "39213", "addr:state": "MS", "addr:street_address": "550 MELVIN BENDER DR", "amenity": "post_box", "brand": "United States Postal Service", "brand:wikidata": "Q668687", "collection_times": "Mo-Fr 16:30", "indoor": "yes", "note": "ON 12/24 AND 12/31, THIS BOX MAY BE COLLECTED AS EARLY AS 12 NOON.", "nsi_id": "unitedstatespostalservice-a77078", "operator": "United States Postal Service", "operator:short": "USPS", "operator:type": "public", "operator:wikidata": "Q668687", "ref": "3921300035"}, "type": "Feature"}
{"geometry": {"coordinates": [-90.195728964, 32.333020006], "type": "Point"}, "id": "kHSwmHp0Dm51nZlR-W9O-eC_SWo=", "properties": {"@source_uri": "https://tools.usps.com/UspsToolsRestServices/rest/POLocator/findLocations", "@spider": "usps_collection_boxes", "addr:city": "JACKSON", "addr:country": "US", "addr:postcode": "39213", "addr:state": "MS", "addr:street_address": "550 MELVIN BENDER DR", "amenity": "post_box", "brand": "United States Postal Service", "brand:wikidata": "Q668687", "collection_times": "Mo-Fr 16:30", "indoor": "yes", "note": "ON 12/24 AND 12/31, THIS BOX MAY BE COLLECTED AS EARLY AS 12 NOON.", "nsi_id": "unitedstatespostalservice-a77078", "operator": "United States Postal Service", "operator:short": "USPS", "operator:type": "public", "operator:wikidata": "Q668687", "ref": "3921300036"}, "type": "Feature"}
{"geometry": {"coordinates": [-90.195728964, 32.333020006], "type": "Point"}, "id": "vKItIp1UmVzWH6x8rq5Rs-bTrjI=", "properties": {"@source_uri": "https://tools.usps.com/UspsToolsRestServices/rest/POLocator/findLocations", "@spider": "usps_collection_boxes", "addr:city": "JACKSON", "addr:country": "US", "addr:postcode": "39213", "addr:state": "MS", "addr:street_address": "550 MELVIN BENDER DR", "amenity": "post_box", "brand": "United States Postal Service", "brand:wikidata": "Q668687", "collection_times": "Mo-Fr 17:00; Sa 13:00", "note": "ON 12/24 AND 12/31, THIS BOX MAY BE COLLECTED AS EARLY AS 12 NOON.", "nsi_id": "unitedstatespostalservice-a77078", "operator": "United States Postal Service", "operator:short": "USPS", "operator:type": "public", "operator:wikidata": "Q668687", "ref": "3921300038"}, "type": "Feature"}
{"geometry": {"coordinates": [-90.195728964, 32.333020006], "type": "Point"}, "id": "WuUME0DPqeGgbW4fKlZPpaYbw-8=", "properties": {"@source_uri": "https://tools.usps.com/UspsToolsRestServices/rest/POLocator/findLocations", "@spider": "usps_collection_boxes", "addr:city": "JACKSON", "addr:country": "US", "addr:postcode": "39213", "addr:state": "MS", "addr:street_address": "550 MELVIN BENDER DR", "amenity": "post_box", "brand": "United States Postal Service", "brand:wikidata": "Q668687", "collection_times": "Mo-Fr 16:30", "indoor": "yes", "note": "ON 12/24 AND 12/31, THIS BOX MAY BE COLLECTED AS EARLY AS 12 NOON.", "nsi_id": "unitedstatespostalservice-a77078", "operator": "United States Postal Service", "operator:short": "USPS", "operator:type": "public", "operator:wikidata": "Q668687", "ref": "3921300040"}, "type": "Feature"}
{"geometry": {"coordinates": [-90.133731966, 32.331364999], "type": "Point"}, "id": "Er-xmSXYFil3Y6Ve3IPpxZRZEhg=", "properties": {"@source_uri": "https://tools.usps.com/UspsToolsRestServices/rest/POLocator/findLocations", "@spider": "usps_collection_boxes", "addr:city": "JACKSON", "addr:country": "US", "addr:postcode": "39216", "addr:state": "MS", "addr:street_address": "2600 RIVERRIDGE DR", "amenity": "post_box", "brand": "United States Postal Service", "brand:wikidata": "Q668687", "collection_times": "Mo-Fr 13:00", "note": "ON 12/24 AND 12/31, THIS BOX MAY BE COLLECTED AS EARLY AS 12 NOON.", "nsi_id": "unitedstatespostalservice-a77078", "operator": "United States Postal Service", "operator:short": "USPS", "operator:type": "public", "operator:wikidata": "Q668687", "ref": "3921600001"}, "type": "Feature"}
{"geometry": {"coordinates": [-90.175829991, 32.334151018], "type": "Point"}, "id": "uDw4fhwuLxk0bzReRlqUhEQ4egc=", "properties": {"@source_uri": "https://tools.usps.com/UspsToolsRestServices/rest/POLocator/findLocations", "@spider": "usps_collection_boxes", "addr:city": "JACKSON", "addr:country": "US", "addr:postcode": "39216", "addr:state": "MS", "addr:street_address": "625 FONDREN PL", "amenity": "post_box", "brand": "United States Postal Service", "brand:wikidata": "Q668687", "collection_times": "Mo-Fr 17:00; Sa 13:00", "note": "ON 12/24 AND 12/31, THIS BOX MAY BE COLLECTED AS EARLY AS 12 NOON.", "nsi_id": "unitedstatespostalservice-a77078", "operator": "United States Postal Service", "operator:short": "USPS", "operator:type": "public", "operator:wikidata": "Q668687", "ref": "3921600008"}, "type": "Feature"}
{"geometry": {"coordinates": [-90.175829991, 32.334151018], "type": "Point"}, "id": "F6uy_UakvAUhRs-I6PSLBV-vtwc=", "properties": {"@source_uri": "https://tools.usps.com/UspsToolsRestServices/rest/POLocator/findLocations", "@spider": "usps_collection_boxes", "addr:city": "JACKSON", "addr:country": "US", "addr:postcode": "39216", "addr:state": "MS", "addr:street_address": "625 FONDREN PL", "amenity": "post_box", "brand": "United States Postal Service", "brand:wikidata": "Q668687", "collection_times": "Mo-Fr 17:00; Sa 13:00", "note": "ON 12/24 AND 12/31, THIS BOX MAY BE COLLECTED AS EARLY AS 12 NOON.", "nsi_id": "unitedstatespostalservice-a77078", "operator": "United States Postal Service", "operator:short": "USPS", "operator:type": "public", "operator:wikidata": "Q668687", "ref": "3921600009"}, "type": "Feature"}
{"geometry": {"coordinates": [-90.147753968, 32.333629999], "type": "Point"}, "id": "2-6rjKB3lcJd-EI7a7JCeH0QtBE=", "properties": {"@source_uri": "https://tools.usps.com/UspsToolsRestServices/rest/POLocator/findLocations", "@spider": "usps_collection_boxes", "addr:city": "JACKSON", "addr:country": "US", "addr:postcode": "39216", "addr:state": "MS", "addr:street_address": "1501 LAKELAND DR", "amenity": "post_box", "brand": "United States Postal Service", "brand:wikidata": "Q668687", "collection_times": "Mo-Fr 12:00", "nsi_id": "unitedstatespostalservice-a77078", "operator": "United States Postal Service", "operator:short": "USPS", "operator:type": "public", "operator:wikidata": "Q668687", "ref": "3921600013"}, "type": "Feature"}
{"geometry": {"coordinates": [-90.146488971, 32.333238983], "type": "Point"}, "id": "YyV9U37nCOi-jJ6BSVSl9yDU4yc=", "properties": {"@source_uri": "https://tools.usps.com/UspsToolsRestServices/rest/POLocator/findLocations", "@spider": "usps_collection_boxes", "addr:city": "JACKSON", "addr:country": "US", "addr:postcode": "39216", "addr:state": "MS", "addr:street_address": "1640 LELIA DR", "amenity": "post_box", "brand": "United States Postal Service", "brand:wikidata": "Q668687", "collection_times": "Mo-Fr 14:00", "note": "ON 12/24 AND 12/31, THIS BOX MAY BE COLLECTED AS EARLY AS 12 NOON.", "nsi_id": "unitedstatespostalservice-a77078", "operator": "United States Postal Service", "operator:short": "USPS", "operator:type": "public", "operator:wikidata": "Q668687", "ref": "3921600018"}, "type": "Feature"}
{"geometry": {"coordinates": [-90.137360995, 32.332473003], "type": "Point"}, "id": "D5qPTtpO4cYyRfI1RP4rriN7Sg0=", "properties": {"@source_uri": "https://tools.usps.com/UspsToolsRestServices/rest/POLocator/findLocations", "@spider": "usps_collection_boxes", "addr:city": "JACKSON", "addr:country": "US", "addr:postcode": "39216", "addr:state": "MS", "addr:street_address": "1919 LAKELAND DR", "amenity": "post_box", "brand": "United States Postal Service", "brand:wikidata": "Q668687", "collection_times": "Mo-Fr 13:00", "note": "ON 12/24 AND 12/31, THIS BOX MAY BE COLLECTED AS EARLY AS 12 NOON.", "nsi_id": "unitedstatespostalservice-a77078", "operator": "United States Postal Service", "operator:short": "USPS", "operator:type": "public", "operator:wikidata": "Q668687", "ref": "3921600033"}, "type": "Feature"}
{"geometry": {"coordinates": [-90.141859301, 32.332011168], "type": "Point"}, "id": "6qGSQwmV7tAhUZn2cehAvk2caGs=", "properties": {"@source_uri": "https://tools.usps.com/UspsToolsRestServices/rest/POLocator/findLocations", "@spider": "usps_collection_boxes", "addr:city": "JACKSON", "addr:country": "US", "addr:postcode": "39216", "addr:state": "MS", "addr:street_address": "2639 RIDGEWOOD RD", "amenity": "post_box", "brand": "United States Postal Service", "brand:wikidata": "Q668687", "collection_times": "Mo-Fr 13:00", "note": "ON 12/24 AND 12/31, THIS BOX MAY BE COLLECTED AS EARLY AS 12 NOON.", "nsi_id": "unitedstatespostalservice-a77078", "operator": "United States Postal Service", "operator:short": "USPS", "operator:type": "public", "operator:wikidata": "Q668687", "ref": "3921600048"}, "type": "Feature"}
{"geometry": {"coordinates": [-90.146488971, 32.333238983], "type": "Point"}, "id": "C0hSIIJrN90WlnM78eI4DEtzfKM=", "properties": {"@source_uri": "https://tools.usps.com/UspsToolsRestServices/rest/POLocator/findLocations", "@spider": "usps_collection_boxes", "addr:city": "JACKSON", "addr:country": "US", "addr:postcode": "39216", "addr:state": "MS", "addr:street_address": "1640 LELIA DR", "amenity": "post_box", "brand": "United States Postal Service", "brand:wikidata": "Q668687", "collection_times": "Mo-Fr 14:50", "note": "ON 12/24 AND 12/31, THIS BOX MAY BE COLLECTED AS EARLY AS 12 NOON.", "nsi_id": "unitedstatespostalservice-a77078", "operator": "United States Postal Service", "operator:short": "USPS", "operator:type": "public", "operator:wikidata": "Q668687", "ref": "3921600049"}, "type": "Feature"}
{"geometry": {"coordinates": [-90.138388029, 32.334540986], "type": "Point"}, "id": "NKAJmERjuWMO-I4ZGe-_VgenW_0=", "properties": {"@source_uri": "https://tools.usps.com/UspsToolsRestServices/rest/POLocator/findLocations", "@spider": "usps_collection_boxes", "addr:city": "JACKSON", "addr:country": "US", "addr:postcode": "39216", "addr:state": "MS", "addr:street_address": "1900 LAKELAND DR", "amenity": "post_box", "brand": "United States Postal Service", "brand:wikidata": "Q668687", "collection_times": "Mo-Fr 14:00", "note": "ON 12/24 AND 12/31, THIS BOX MAY BE COLLECTED AS EARLY AS 12 NOON.", "nsi_id": "unitedstatespostalservice-a77078", "operator": "United States Postal Service", "operator:short": "USPS", "operator:type": "public", "operator:wikidata": "Q668687", "ref": "3921600054"}, "type": "Feature"}
{"geometry": {"coordinates": [-90.175829991, 32.334151018], "type": "Point"}, "id": "olVMbFJB3hdwNekxZLGTtdtscGY=", "properties": {"@source_uri": "https://tools.usps.com/UspsToolsRestServices/rest/POLocator/findLocations", "@spider": "usps_collection_boxes", "addr:city": "JACKSON", "addr:country": "US", "addr:postcode": "39216", "addr:state": "MS", "addr:street_address": "625 FONDREN PL", "amenity": "post_box", "brand": "United States Postal Service", "brand:wikidata": "Q668687", "collection_times": "Mo-Fr 16:00", "indoor": "yes", "note": "ON 12/24 AND 12/31, THIS BOX MAY BE COLLECTED AS EARLY AS 12 NOON.", "nsi_id": "unitedstatespostalservice-a77078", "operator": "United States Postal Service", "operator:short": "USPS", "operator:type": "public", "operator:wikidata": "Q668687", "ref": "3921600056"}, "type": "Feature"}
{"geometry": {"coordinates": [-90.175829991, 32.334151018], "type": "Point"}, "id": "0QLLbhMJjpUazQsP93qncYzjSe4=", "properties": {"@source_uri": "https://tools.usps.com/UspsToolsRestServices/rest/POLocator/findLocations", "@spider": "usps_collection_boxes", "addr:city": "JACKSON", "addr:country": "US", "addr:postcode": "39216", "addr:state": "MS", "addr:street_address": "625 FONDREN PL", "amenity": "post_box", "brand": "United States Postal Service", "brand:wikidata": "Q668687", "collection_times": "Mo-Fr 16:00", "indoor": "yes", "note": "ON 12/24 AND 12/31, THIS BOX MAY BE COLLECTED AS EARLY AS 12 NOON.", "nsi_id": "unitedstatespostalservice-a77078", "operator": "United States Postal Service", "operator:short": "USPS", "operator:type": "public", "operator:wikidata": "Q668687", "ref": "3921600057"}, "type": "Feature"}
{"geometry": {"coordinates": [-90.175559926, 32.334442246], "type": "Point"}, "id": "Rh6oL1Sl1ugk5-jECAdKQVGdrjg=", "properties": {"@source_uri": "https://tools.usps.com/UspsToolsRestServices/rest/POLocator/findLocations", "@spider": "usps_collection_boxes", "addr:city": "JACKSON", "addr:country": "US", "addr:postcode": "39216", "addr:state": "MS", "addr:street_address": "629 FONDREN PL", "amenity": "post_box", "brand": "United States Postal Service", "brand:wikidata": "Q668687", "collection_times": "Mo-Fr 16:00", "indoor": "yes", "note": "ON 12/24 AND 12/31, THIS BOX MAY BE COLLECTED AS EARLY AS 12 NOON.", "nsi_id": "unitedstatespostalservice-a77078", "operator": "United States Postal Service", "operator:short": "USPS", "operator:type": "public", "operator:wikidata": "Q668687", "ref": "3921600058"}, "type": "Feature"}
{"geometry": {"coordinates": [-90.141859301, 32.332011168], "type": "Point"}, "id": "Y_iDSb9TxQpsuEQlV0Xvm382akg=", "properties": {"@source_uri": "https://tools.usps.com/UspsToolsRestServices/rest/POLocator/findLocations", "@spider": "usps_collection_boxes", "addr:city": "JACKSON", "addr:country": "US", "addr:postcode": "39216", "addr:state": "MS", "addr:street_address": "2639 RIDGEWOOD RD", "amenity": "post_box", "brand": "United States Postal Service", "brand:wikidata": "Q668687", "collection_times": "Mo-Fr 13:00", "note": "ON 12/24 AND 12/31, THIS BOX MAY BE COLLECTED AS EARLY AS 12 NOON.", "nsi_id": "unitedstatespostalservice-a77078", "operator": "United States Postal Service", "operator:short": "USPS", "operator:type": "public", "operator:wikidata": "Q668687", "ref": "3921600059"}, "type": "Feature"}
{"geometry": {"coordinates": [-90.141859301, 32.332011168], "type": "Point"}, "id": "0usNbbfCh_38rGn6bI_d2Cu4AQU=", "properties": {"@source_uri": "https://tools.usps.com/UspsToolsRestServices/rest/POLocator/findLocations", "@spider": "usps_collection_boxes", "addr:city": "JACKSON", "addr:country": "US", "addr:postcode": "39216", "addr:state": "MS", "addr:street_address": "2639 RIDGEWOOD RD", "amenity": "post_box", "brand": "United States Postal Service", "brand:wikidata": "Q668687", "collection_times": "Mo-Fr 13:00", "note": "ON 12/24 AND 12/31, THIS BOX MAY BE COLLECTED AS EARLY AS 12 NOON.", "nsi_id": "unitedstatespostalservice-a77078", "operator": "United States Postal Service", "operator:short": "USPS", "operator:type": "public", "operator:wikidata": "Q668687", "ref": "3921600060"}, "type": "Feature"}
{"geometry": {"coordinates": [-90.141859301, 32.332011168], "type": "Point"}, "id": "cVxUPO064OL0JLOI3pWbcYbpII4=", "properties": {"@source_uri": "https://tools.usps.com/UspsToolsRestServices/rest/POLocator/findLocations", "@spider": "usps_collection_boxes", "addr:city": "JACKSON", "addr:country": "US", "addr:postcode": "39216", "addr:state": "MS", "addr:street_address": "2639 RIDGEWOOD RD", "amenity": "post_box", "brand": "United States Postal Service", "brand:wikidata": "Q668687", "collection_times": "Mo-Fr 13:00", "note": "ON 12/24 AND 12/31, THIS BOX MAY BE COLLECTED AS EARLY AS 12 NOON.", "nsi_id": "unitedstatespostalservice-a77078", "operator": "United States Postal Service", "operator:short": "USPS", "operator:type": "public", "operator:wikidata": "Q668687", "ref": "3921600061"}, "type": "Feature"}
{"geometry": {"coordinates": [-90.160632008, 32.214408993], "type": "Point"}, "id": "M4hDPzOWzLuo1hVvbWOcjfoUYjg=", "properties": {"@source_uri": "https://tools.usps.com/UspsToolsRestServices/rest/POLocator/findLocations", "@spider": "usps_collection_boxes", "addr:city": "RICHLAND", "addr:country": "US", "addr:postcode": "39218", "addr:state": "MS", "addr:street_address": "366 SCARBROUGH ST", "amenity": "post_box", "brand": "United States Postal Service", "brand:wikidata": "Q668687", "collection_times": "Mo-Fr 16:30; Sa 10:00", "note": "ON 12/24 AND 12/31, THIS BOX MAY BE COLLECTED AS EARLY AS 12 NOON.", "nsi_id": "unitedstatespostalservice-a77078", "operator": "United States Postal Service", "operator:short": "USPS", "operator:type": "public", "operator:wikidata": "Q668687", "ref": "3921800001"}, "type": "Feature"}
{"geometry": {"coordinates": [-90.160632008, 32.214408993], "type": "Point"}, "id": "X-ZzL6_vQ0tQgUm9ymVMt6JyUlA=", "properties": {"@source_uri": "https://tools.usps.com/UspsToolsRestServices/rest/POLocator/findLocations", "@spider": "usps_collection_boxes", "addr:city": "RICHLAND", "addr:country": "US", "addr:postcode": "39218", "addr:state": "MS", "addr:street_address": "366 SCARBROUGH ST", "amenity": "post_box", "brand": "United States Postal Service", "brand:wikidata": "Q668687", "collection_times": "Mo-Fr 16:30; Sa 10:00", "note": "ON 12/24 AND 12/31, THIS BOX MAY BE COLLECTED AS EARLY AS 12 NOON.", "nsi_id": "unitedstatespostalservice-a77078", "operator": "United States Postal Service", "operator:short": "USPS", "operator:type": "public", "operator:wikidata": "Q668687", "ref": "3921800002"}, "type": "Feature"}
{"geometry": {"coordinates": [-90.160632008, 32.214408993], "type": "Point"}, "id": "11MLtLIGVA4bk6kycKtjzOuTSN4=", "properties": {"@source_uri": "https://tools.usps.com/UspsToolsRestServices/rest/POLocator/findLocations", "@spider": "usps_collection_boxes", "addr:city": "RICHLAND", "addr:country": "US", "addr:postcode": "39218", "addr:state": "MS", "addr:street_address": "366 SCARBROUGH ST", "amenity": "post_box", "brand": "United States Postal Service", "brand:wikidata": "Q668687", "collection_times": "Mo-Fr 16:30", "indoor": "yes", "note": "ON 12/24 AND 12/31, THIS BOX MAY BE COLLECTED AS EARLY AS 12 NOON.", "nsi_id": "unitedstatespostalservice-a77078", "operator": "United States Postal Service", "operator:short": "USPS", "operator:type": "public", "operator:wikidata": "Q668687", "ref": "3921800006"}, "type": "Feature"}
{"geometry": {"coordinates": [-90.160632008, 32.214408993], "type": "Point"}, "id": "ZLJBwpofF6-NFvppdKV3FfmSgUc=", "properties": {"@source_uri": "https://tools.usps.com/UspsToolsRestServices/rest/POLocator/findLocations", "@spider": "usps_collection_boxes", "addr:city": "RICHLAND", "addr:country": "US", "addr:postcode": "39218", "addr:state": "MS", "addr:street_address": "366 SCARBROUGH ST", "amenity": "post_box", "brand": "United States Postal Service", "brand:wikidata": "Q668687", "collection_times": "Mo-Fr 16:30", "indoor": "yes", "note": "ON 12/24 AND 12/31, THIS BOX MAY BE COLLECTED AS EARLY AS 12 NOON.", "nsi_id": "unitedstatespostalservice-a77078", "operator": "United States Postal Service", "operator:short": "USPS", "operator:type": "public", "operator:wikidata": "Q668687", "ref": "3921800007"}, "type": "Feature"}
{"geometry": {"coordinates": [-90.089772991, 32.334066989], "type": "Point"}, "id": "9GKJvo8SLTdCb9xm_3V7sICZrU4=", "properties": {"@source_uri": "https://tools.usps.com/UspsToolsRestServices/rest/POLocator/findLocations", "@spider": "usps_collection_boxes", "addr:city": "FLOWOOD", "addr:country": "US", "addr:postcode": "39232", "addr:state": "MS", "addr:street_address": "105 HOGG CREEK DR", "amenity": "post_box", "brand": "United States Postal Service", "brand:wikidata": "Q668687", "collection_times": "Mo-Fr 17:00; Sa 13:00", "note": "ON 12/24 AND 12/31, THIS BOX MAY BE COLLECTED AS EARLY AS 12 NOON.", "nsi_id": "unitedstatespostalservice-a77078", "operator": "United States Postal Service", "operator:short": "USPS", "operator:type": "public", "operator:wikidata": "Q668687", "ref": "3923200001"}, "type": "Feature"}
{"geometry": {"coordinates": [-90.089772991, 32.334066989], "type": "Point"}, "id": "XAaraUpVjD_W5jrMGtd7b_gx5Cw=", "properties": {"@source_uri": "https://tools.usps.com/UspsToolsRestServices/rest/POLocator/findLocations", "@spider": "usps_collection_boxes", "addr:city": "FLOWOOD", "addr:country": "US", "addr:postcode": "39232", "addr:state": "MS", "addr:street_address": "105 HOGG CREEK DR", "amenity": "post_box", "brand": "United States Postal Service", "brand:wikidata": "Q668687", "collection_times": "Mo-Fr 17:00; Sa 13:00", "note": "ON 12/24 AND 12/31, THIS BOX MAY BE COLLECTED AS EARLY AS 12 NOON.", "nsi_id": "unitedstatespostalservice-a77078", "operator": "United States Postal Service", "operator:short": "USPS", "operator:type": "public", "operator:wikidata": "Q668687", "ref": "3923200002"}, "type": "Feature"}
{"geometry": {"coordinates": [-90.089772991, 32.334066989], "type": "Point"}, "id": "f-rPcaK4yqSVahGWCnJeAwZj9LY=", "properties": {"@source_uri": "https://tools.usps.com/UspsToolsRestServices/rest/POLocator/findLocations", "@spider": "usps_collection_boxes", "addr:city": "FLOWOOD", "addr:country": "US", "addr:postcode": "39232", "addr:state": "MS", "addr:street_address": "105 HOGG CREEK DR", "amenity": "post_box", "brand": "United States Postal Service", "brand:wikidata": "Q668687", "collection_times": "Mo-Fr 17:00; Sa 13:00", "note": "ON 12/24 AND 12/31, THIS BOX MAY BE COLLECTED AS EARLY AS 12 NOON.", "nsi_id": "unitedstatespostalservice-a77078", "operator": "United States Postal Service", "operator:short": "USPS", "operator:type": "public", "operator:wikidata": "Q668687", "ref": "3923200003"}, "type": "Feature"}
{"geometry": {"coordinates": [-90.089772991, 32.334066989], "type": "Point"}, "id": "s9vuoOylsiSw1V27bcypPQt19MI=", "properties": {"@source_uri": "https://tools.usps.com/UspsToolsRestServices/rest/POLocator/findLocations", "@spider": "usps_collection_boxes", "addr:city": "FLOWOOD", "addr:country": "US", "addr:postcode": "39232", "addr:state": "MS", "addr:street_address": "105 HOGG CREEK DR", "amenity": "post_box", "brand": "United States Postal Service", "brand:wikidata": "Q668687", "collection_times": "Mo-Fr 17:00; Sa 13:00", "note": "ON 12/24 AND 12/31, THIS BOX MAY BE COLLECTED AS EARLY AS 12 NOON.", "nsi_id": "unitedstatespostalservice-a77078", "operator": "United States Postal Service", "operator:short": "USPS", "operator:type": "public", "operator:wikidata": "Q668687", "ref": "3923200004"}, "type": "Feature"}
{"geometry": {"coordinates": [-90.092245988, 32.331455984], "type": "Point"}, "id": "PvGNuCNjhBU09cCCsIzLn_gf1ok=", "properties": {"@source_uri": "https://tools.usps.com/UspsToolsRestServices/rest/POLocator/findLocations", "@spider": "usps_collection_boxes", "addr:city": "FLOWOOD", "addr:country": "US", "addr:postcode": "39232", "addr:state": "MS", "addr:street_address": "2001 AIRPORT RD N", "amenity": "post_box", "brand": "United States Postal Service", "brand:wikidata": "Q668687", "collection_times": "Mo-Fr 11:30", "nsi_id": "unitedstatespostalservice-a77078", "operator": "United States Postal Service", "operator:short": "USPS", "operator:type": "public", "operator:wikidata": "Q668687", "ref": "3923200008"}, "type": "Feature"}
{"geometry": {"coordinates": [-90.106040002, 32.324949993], "type": "Point"}, "id": "pWxa0lRg5Y9plCk1Z-h5HtnmH90=", "properties": {"@source_uri": "https://tools.usps.com/UspsToolsRestServices/rest/POLocator/findLocations", "@spider": "usps_collection_boxes", "addr:city": "FLOWOOD", "addr:country": "US", "addr:postcode": "39232", "addr:state": "MS", "addr:street_address": "1020 RIVER OAKS DR", "amenity": "post_box", "brand": "United States Postal Service", "brand:wikidata": "Q668687", "collection_times": "Mo-Fr 11:30", "nsi_id": "unitedstatespostalservice-a77078", "operator": "United States Postal Service", "operator:short": "USPS", "operator:type": "public", "operator:wikidata": "Q668687", "ref": "3923200009"}, "type": "Feature"}
{"geometry": {"coordinates": [-90.094782016, 32.335617013], "type": "Point"}, "id": "M0dqxqY_86O5oJ7GrZ4LctF35-s=", "properties": {"@source_uri": "https://tools.usps.com/UspsToolsRestServices/rest/POLocator/findLocations", "@spider": "usps_collection_boxes", "addr:city": "FLOWOOD", "addr:country": "US", "addr:postcode": "39232", "addr:state": "MS", "addr:street_address": "660 LAKELAND EAST DR", "amenity": "post_box", "brand": "United States Postal Service", "brand:wikidata": "Q668687", "collection_times": "Mo-Fr 11:30", "nsi_id": "unitedstatespostalservice-a77078", "operator": "United States Postal Service", "operator:short": "USPS", "operator:type": "public", "operator:wikidata": "Q668687", "ref": "3923200011"}, "type": "Feature"}
{"geometry": {"coordinates": [-90.106717008, 32.330882997], "type": "Point"}, "id": "2qpMOW74XSnFdRMWGObvLDKRO6I=", "properties": {"@source_uri": "https://tools.usps.com/UspsToolsRestServices/rest/POLocator/findLocations", "@spider": "usps_collection_boxes", "addr:city": "FLOWOOD", "addr:country": "US", "addr:postcode": "39232", "addr:state": "MS", "addr:street_address": "1080 RIVER OAKS DR", "amenity": "post_box", "brand": "United States Postal Service", "brand:wikidata": "Q668687", "collection_times": "Mo-Fr 11:30", "nsi_id": "unitedstatespostalservice-a77078", "operator": "United States Postal Service", "operator:short": "USPS", "operator:type": "public", "operator:wikidata": "Q668687", "ref": "3923200016"}, "type": "Feature"}
{"geometry": {"coordinates": [-90.106717008, 32.330882997], "type": "Point"}, "id": "bLExIOhIbBEfvCTzeAAbJQ3JXVs=", "properties": {"@source_uri": "https://tools.usps.com/UspsToolsRestServices/rest/POLocator/findLocations", "@spider": "usps_collection_boxes", "addr:city": "FLOWOOD", "addr:country": "US", "addr:postcode": "39232", "addr:state": "MS", "addr:street_address": "1080 RIVER OAKS DR", "amenity": "post_box", "brand": "United States Postal Service", "brand:wikidata": "Q668687", "collection_times": "Mo-Fr 11:30", "nsi_id": "unitedstatespostalservice-a77078", "operator": "United States Postal Service", "operator:short": "USPS", "operator:type": "public", "operator:wikidata": "Q668687", "ref": "3923200017"}, "type": "Feature"}
{"geometry": {"coordinates": [-90.121620032, 32.33032799], "type": "Point"}, "id": "5QvtaXzz4vW8AB1rHQuGSST-lVw=", "properties": {"@source_uri": "https://tools.usps.com/UspsToolsRestServices/rest/POLocator/findLocations", "@spider": "usps_collection_boxes", "addr:city": "FLOWOOD", "addr:country": "US", "addr:postcode": "39232", "addr:state": "MS", "addr:street_address": "2506 LAKELAND DR", "amenity": "post_box", "brand": "United States Postal Service", "brand:wikidata": "Q668687", "collection_times": "Mo-Fr 11:30", "nsi_id": "unitedstatespostalservice-a77078", "operator": "United States Postal Service", "operator:short": "USPS", "operator:type": "public", "operator:wikidata": "Q668687", "ref": "3923200020"}, "type": "Feature"}
{"geometry": {"coordinates": [-90.12437399, 32.32798902], "type": "Point"}, "id": "VmHHcG01AKftBzvR0VXEarwYvxQ=", "properties": {"@source_uri": "https://tools.usps.com/UspsToolsRestServices/rest/POLocator/findLocations", "@spider": "usps_collection_boxes", "addr:city": "FLOWOOD", "addr:country": "US", "addr:postcode": "39232", "addr:state": "MS", "addr:street_address": "3010 LAKELAND CV", "amenity": "post_box", "brand": "United States Postal Service", "brand:wikidata": "Q668687", "collection_times": "Mo-Fr 11:30", "nsi_id": "unitedstatespostalservice-a77078", "operator": "United States Postal Service", "operator:short": "USPS", "operator:type": "public", "operator:wikidata": "Q668687", "ref": "3923200022"}, "type": "Feature"}
{"geometry": {"coordinates": [-90.12484103, 32.329146016], "type": "Point"}, "id": "uQc_XhGjwJPuxSeiCrPuUcBwe10=", "properties": {"@source_uri": "https://tools.usps.com/UspsToolsRestServices/rest/POLocator/findLocations", "@spider": "usps_collection_boxes", "addr:city": "FLOWOOD", "addr:country": "US", "addr:postcode": "39232", "addr:state": "MS", "addr:street_address": "4 RIVER BEND PL", "amenity": "post_box", "brand": "United States Postal Service", "brand:wikidata": "Q668687", "collection_times": "Mo-Fr 11:30", "nsi_id": "unitedstatespostalservice-a77078", "operator": "United States Postal Service", "operator:short": "USPS", "operator:type": "public", "operator:wikidata": "Q668687", "ref": "3923200023"}, "type": "Feature"}
{"geometry": {"coordinates": [-90.12484103, 32.329146016], "type": "Point"}, "id": "Mx-3sXFbgmyobNPBC7EoW2ZsW1c=", "properties": {"@source_uri": "https://tools.usps.com/UspsToolsRestServices/rest/POLocator/findLocations", "@spider": "usps_collection_boxes", "addr:city": "FLOWOOD", "addr:country": "US", "addr:postcode": "39232", "addr:state": "MS", "addr:street_address": "4 RIVER BEND PL", "amenity": "post_box", "brand": "United States Postal Service", "brand:wikidata": "Q668687", "collection_times": "Mo-Fr 11:30", "nsi_id": "unitedstatespostalservice-a77078", "operator": "United States Postal Service", "operator:short": "USPS", "operator:type": "public", "operator:wikidata": "Q668687", "ref": "3923200024"}, "type": "Feature"}
{"geometry": {"coordinates": [-90.089772991, 32.334066989], "type": "Point"}, "id": "bcGqDTQYjB4PH4rVuw-re9wocS8=", "properties": {"@source_uri": "https://tools.usps.com/UspsToolsRestServices/rest/POLocator/findLocations", "@spider": "usps_collection_boxes", "addr:city": "FLOWOOD", "addr:country": "US", "addr:postcode": "39232", "addr:state": "MS", "addr:street_address": "105 HOGG CREEK DR", "amenity": "post_box", "brand": "United States Postal Service", "brand:wikidata": "Q668687", "collection_times": "Mo-Fr 16:30", "indoor": "yes", "note": "ON 12/24 AND 12/31, THIS BOX MAY BE COLLECTED AS EARLY AS 12 NOON.", "nsi_id": "unitedstatespostalservice-a77078", "operator": "United States Postal Service", "operator:short": "USPS", "operator:type": "public", "operator:wikidata": "Q668687", "ref": "3923200026"}, "type": "Feature"}
{"geometry": {"coordinates": [-90.255627584, 32.190819408], "type": "Point"}, "id": "mZu5gAasduQnyrVrhLwAkMnMB_M=", "properties": {"@source_uri": "https://tools.usps.com/UspsToolsRestServices/rest/POLocator/findLocations", "@spider": "usps_collection_boxes", "addr:city": "BYRAM", "addr:country": "US", "addr:postcode": "39272", "addr:state": "MS", "addr:street_address": "5654 TERRY RD", "amenity": "post_box", "brand": "United States Postal Service", "brand:wikidata": "Q668687", "collection_times": "Mo-Fr 16:30", "indoor": "yes", "note": "ON 12/24 AND 12/31, THIS BOX MAY BE COLLECTED AS EARLY AS 12 NOON.", "nsi_id": "unitedstatespostalservice-a77078", "operator": "United States Postal Service", "operator:short": "USPS", "operator:type": "public", "operator:wikidata": "Q668687", "ref": "3927200006"}, "type": "Feature"}
{"geometry": {"coordinates": [-90.255627584, 32.190819408], "type": "Point"}, "id": "uISGlPBKoicLUBM1m0gmYA6M_ag=", "properties": {"@source_uri": "https://tools.usps.com/UspsToolsRestServices/rest/POLocator/findLocations", "@spider": "usps_collection_boxes", "addr:city": "BYRAM", "addr:country": "US", "addr:postcode": "39272", "addr:state": "MS", "addr:street_address": "5654 TERRY RD", "amenity": "post_box", "brand": "United States Postal Service", "brand:wikidata": "Q668687", "collection_times": "Mo-Fr 16:30", "indoor": "yes", "note": "ON 12/24 AND 12/31, THIS BOX MAY BE COLLECTED AS EARLY AS 12 NOON.", "nsi_id": "unitedstatespostalservice-a77078", "operator": "United States Postal Service", "operator:short": "USPS", "operator:type": "public", "operator:wikidata": "Q668687", "ref": "3927200007"}, "type": "Feature"}
