{"dataset_attributes": {"@spider": "usps_collection_boxes", "spider:collection_time": "2023-11-19T08:23:43.397954"}, "geometry": {"coordinates": [-88.699979341, 32.372056344], "type": "Point"}, "id": "QCJYyyk_qsCQZ6khirJfypZruBk=", "properties": {"@spider": "usps_collection_boxes", "addr:city": "MERIDIAN", "addr:country": "US", "addr:full": "2024 15TH ST", "addr:postcode": "39301", "addr:state": "MS", "amenity": "post_box", "brand": "United States Postal Service", "brand:wikidata": "Q668687", "collection_times": "Mo-Fr 09:00", "name": "USPS COLLECTION BOX - BLUE BOX", "nsi_id": "unitedstatespostalservice-a77078", "operator": "United States Postal Service", "operator:short": "USPS", "operator:type": "public", "operator:wikidata": "Q668687", "ref": "3930100003"}, "type": "Feature"}
{"dataset_attributes": {"@spider": "usps_collection_boxes", "spider:collection_time": "2023-11-19T08:23:43.397954"}, "geometry": {"coordinates": [-88.699979341, 32.372056344], "type": "Point"}, "id": "YvuvVnD4OfFn35de4JR-MtTtuZw=", "properties": {"@spider": "usps_collection_boxes", "addr:city": "MERIDIAN", "addr:country": "US", "addr:full": "2024 15TH ST", "addr:postcode": "39301", "addr:state": "MS", "amenity": "post_box", "brand": "United States Postal Service", "brand:wikidata": "Q668687", "collection_times": "Mo-Fr 09:00", "name": "USPS COLLECTION BOX - BLUE BOX", "nsi_id": "unitedstatespostalservice-a77078", "operator": "United States Postal Service", "operator:short": "USPS", "operator:type": "public", "operator:wikidata": "Q668687", "ref": "3930100004"}, "type": "Feature"}
{"dataset_attributes": {"@spider": "usps_collection_boxes", "spider:collection_time": "2023-11-19T08:23:43.397954"}, "geometry": {"coordinates": [-88.699979341, 32.372056344], "type": "Point"}, "id": "Q9iBUaBPhRvEH9sTvpFqG981gZw=", "properties": {"@spider": "usps_collection_boxes", "addr:city": "MERIDIAN", "addr:country": "US", "addr:full": "2024 15TH ST", "addr:postcode": "39301", "addr:state": "MS", "amenity": "post_box", "brand": "United States Postal Service", "brand:wikidata": "Q668687", "collection_times": "Mo-Fr 09:00", "name": "USPS COLLECTION BOX - BLUE BOX", "nsi_id": "unitedstatespostalservice-a77078", "operator": "United States Postal Service", "operator:short": "USPS", "operator:type": "public", "operator:wikidata": "Q668687", "ref": "3930100005"}, "type": "Feature"}
{"dataset_attributes": {"@spider": "usps_collection_boxes", "spider:collection_time": "2023-11-19T08:23:43.397954"}, "geometry": {"coordinates": [-88.708894507, 32.361054883], "type": "Point"}, "id": "t_0Xjxq3GAjZuLn0mtf7ivEYOlo=", "properties": {"@spider": "usps_collection_boxes", "addr:city": "MERIDIAN", "addr:country": "US", "addr:full": "3000 5TH ST", "addr:postcode": "39301", "addr:state": "MS", "amenity": "post_box", "brand": "United States Postal Service", "brand:wikidata": "Q668687", "collection_times": "Mo-Fr 09:00", "name": "USPS COLLECTION BOX - BLUE BOX", "nsi_id": "unitedstatespostalservice-a77078", "operator": "United States Postal Service", "operator:short": "USPS", "operator:type": "public", "operator:wikidata": "Q668687", "ref": "3930100021"}, "type": "Feature"}
{"dataset_attributes": {"@spider": "usps_collection_boxes", "spider:collection_time": "2023-11-19T08:23:43.397954"}, "geometry": {"coordinates": [-88.7028909701, 32.3653350083], "type": "Point"}, "id": "glXCVNY3MtN9JzXJrJ71bOLRYj0=", "properties": {"@spider": "usps_collection_boxes", "addr:city": "MERIDIAN", "addr:country": "US", "addr:full": "2400 8TH ST", "addr:postcode": "39301", "addr:state": "MS", "amenity": "post_box", "brand": "United States Postal Service", "brand:wikidata": "Q668687", "collection_times": "Mo-Fr 09:00", "name": "USPS COLLECTION BOX - BLUE BOX", "nsi_id": "unitedstatespostalservice-a77078", "operator": "United States Postal Service", "operator:short": "USPS", "operator:type": "public", "operator:wikidata": "Q668687", "ref": "3930100022"}, "type": "Feature"}
{"dataset_attributes": {"@spider": "usps_collection_boxes", "spider:collection_time": "2023-11-19T08:23:43.397954"}, "geometry": {"coordinates": [-88.69985999, 32.366420004], "type": "Point"}, "id": "vkas-I4FqY15uYzoASS9YrZvjhs=", "properties": {"@spider": "usps_collection_boxes", "addr:city": "MERIDIAN", "addr:country": "US", "addr:full": "2100 9TH ST", "addr:postcode": "39301", "addr:state": "MS", "amenity": "post_box", "brand": "United States Postal Service", "brand:wikidata": "Q668687", "collection_times": "Mo-Fr 17:30; Sa 17:00", "name": "USPS COLLECTION BOX - BLUE BOX", "note": "ON 12/24 AND 12/31, THIS BOX MAY BE COLLECTED AS EARLY AS 12 NOON.", "nsi_id": "unitedstatespostalservice-a77078", "operator": "United States Postal Service", "operator:short": "USPS", "operator:type": "public", "operator:wikidata": "Q668687", "ref": "3930100025"}, "type": "Feature"}
{"dataset_attributes": {"@spider": "usps_collection_boxes", "spider:collection_time": "2023-11-19T08:23:43.397954"}, "geometry": {"coordinates": [-88.69985999, 32.366420004], "type": "Point"}, "id": "-BSTkGa9oLtC5FruecZex2kgA1M=", "properties": {"@spider": "usps_collection_boxes", "addr:city": "MERIDIAN", "addr:country": "US", "addr:full": "2100 9TH ST", "addr:postcode": "39301", "addr:state": "MS", "amenity": "post_box", "brand": "United States Postal Service", "brand:wikidata": "Q668687", "collection_times": "Mo-Fr 17:30; Sa 17:00", "name": "USPS COLLECTION BOX - BLUE BOX", "note": "ON 12/24 AND 12/31, THIS BOX MAY BE COLLECTED AS EARLY AS 12 NOON.", "nsi_id": "unitedstatespostalservice-a77078", "operator": "United States Postal Service", "operator:short": "USPS", "operator:type": "public", "operator:wikidata": "Q668687", "ref": "3930100026"}, "type": "Feature"}
{"dataset_attributes": {"@spider": "usps_collection_boxes", "spider:collection_time": "2023-11-19T08:23:43.397954"}, "geometry": {"coordinates": [-88.69985999, 32.366420004], "type": "Point"}, "id": "9yf9hZOpxI2i99LSAbPL8bOcmPY=", "properties": {"@spider": "usps_collection_boxes", "addr:city": "MERIDIAN", "addr:country": "US", "addr:full": "2100 9TH ST", "addr:postcode": "39301", "addr:state": "MS", "amenity": "post_box", "brand": "United States Postal Service", "brand:wikidata": "Q668687", "collection_times": "Mo-Fr 17:30; Sa 17:00", "name": "USPS COLLECTION BOX - BLUE BOX", "note": "ON 12/24 AND 12/31, THIS BOX MAY BE COLLECTED AS EARLY AS 12 NOON.", "nsi_id": "unitedstatespostalservice-a77078", "operator": "United States Postal Service", "operator:short": "USPS", "operator:type": "public", "operator:wikidata": "Q668687", "ref": "3930100027"}, "type": "Feature"}
{"dataset_attributes": {"@spider": "usps_collection_boxes", "spider:collection_time": "2023-11-19T08:23:43.397954"}, "geometry": {"coordinates": [-88.681189971, 32.36048], "type": "Point"}, "id": "gqgIYeZfPfqTR8fKflWHhghZXzM=", "properties": {"@spider": "usps_collection_boxes", "addr:city": "MERIDIAN", "addr:country": "US", "addr:full": "1000 N FRONTAGE RD", "addr:postcode": "39301", "addr:state": "MS", "amenity": "post_box", "brand": "United States Postal Service", "brand:wikidata": "Q668687", "collection_times": "Mo-Fr 11:00", "name": "USPS COLLECTION BOX - BLUE BOX", "nsi_id": "unitedstatespostalservice-a77078", "operator": "United States Postal Service", "operator:short": "USPS", "operator:type": "public", "operator:wikidata": "Q668687", "ref": "3930100032"}, "type": "Feature"}
{"dataset_attributes": {"@spider": "usps_collection_boxes", "spider:collection_time": "2023-11-19T08:23:43.397954"}, "geometry": {"coordinates": [-88.698811639, 32.364717038], "type": "Point"}, "id": "gmuKVdCpVb-MxqvrCHaCoq5Rsmk=", "properties": {"@spider": "usps_collection_boxes", "addr:city": "MERIDIAN", "addr:country": "US", "addr:full": "510 21ST AVE", "addr:postcode": "39301", "addr:state": "MS", "amenity": "post_box", "brand": "United States Postal Service", "brand:wikidata": "Q668687", "collection_times": "Mo-Fr 15:00", "name": "USPS COLLECTION BOX - BLUE BOX", "note": "ON 12/24 AND 12/31, THIS BOX MAY BE COLLECTED AS EARLY AS 12 NOON.", "nsi_id": "unitedstatespostalservice-a77078", "operator": "United States Postal Service", "operator:short": "USPS", "operator:type": "public", "operator:wikidata": "Q668687", "ref": "3930100041"}, "type": "Feature"}
{"dataset_attributes": {"@spider": "usps_collection_boxes", "spider:collection_time": "2023-11-19T08:23:43.397954"}, "geometry": {"coordinates": [-88.698811639, 32.364717038], "type": "Point"}, "id": "Rd5LY1jsew8DcwRm3cECB1EFJHo=", "properties": {"@spider": "usps_collection_boxes", "addr:city": "MERIDIAN", "addr:country": "US", "addr:full": "510 21ST AVE", "addr:postcode": "39301", "addr:state": "MS", "amenity": "post_box", "brand": "United States Postal Service", "brand:wikidata": "Q668687", "collection_times": "Mo-Fr 15:00", "name": "USPS COLLECTION BOX - BLUE BOX", "note": "ON 12/24 AND 12/31, THIS BOX MAY BE COLLECTED AS EARLY AS 12 NOON.", "nsi_id": "unitedstatespostalservice-a77078", "operator": "United States Postal Service", "operator:short": "USPS", "operator:type": "public", "operator:wikidata": "Q668687", "ref": "3930100042"}, "type": "Feature"}
{"dataset_attributes": {"@spider": "usps_collection_boxes", "spider:collection_time": "2023-11-19T08:23:43.397954"}, "geometry": {"coordinates": [-88.685640008, 32.370509995], "type": "Point"}, "id": "xMvx5zHVCd1YT5tqRJn1iVxAUbQ=", "properties": {"@spider": "usps_collection_boxes", "addr:city": "MERIDIAN", "addr:country": "US", "addr:full": "721 FRONT STREET EXT", "addr:postcode": "39301", "addr:state": "MS", "amenity": "post_box", "brand": "United States Postal Service", "brand:wikidata": "Q668687", "collection_times": "Mo-Fr 12:00", "name": "USPS COLLECTION BOX - BLUE BOX", "nsi_id": "unitedstatespostalservice-a77078", "operator": "United States Postal Service", "operator:short": "USPS", "operator:type": "public", "operator:wikidata": "Q668687", "ref": "3930100048"}, "type": "Feature"}
{"dataset_attributes": {"@spider": "usps_collection_boxes", "spider:collection_time": "2023-11-19T08:23:43.397954"}, "geometry": {"coordinates": [-88.7026371, 32.366038523], "type": "Point"}, "id": "tOzcZZktmCyKAnsr6VM51u-Dx5o=", "properties": {"@spider": "usps_collection_boxes", "addr:city": "MERIDIAN", "addr:country": "US", "addr:full": "2400 9TH ST", "addr:postcode": "39301", "addr:state": "MS", "amenity": "post_box", "brand": "United States Postal Service", "brand:wikidata": "Q668687", "collection_times": "Mo-Fr 11:00", "name": "USPS COLLECTION BOX - BLUE BOX", "nsi_id": "unitedstatespostalservice-a77078", "operator": "United States Postal Service", "operator:short": "USPS", "operator:type": "public", "operator:wikidata": "Q668687", "ref": "3930100051"}, "type": "Feature"}
{"dataset_attributes": {"@spider": "usps_collection_boxes", "spider:collection_time": "2023-11-19T08:23:43.397954"}, "geometry": {"coordinates": [-88.701790007, 32.365689982], "type": "Point"}, "id": "TGVOAFJ2jbO6L0e8ZZ04gVNOnn0=", "properties": {"@spider": "usps_collection_boxes", "addr:city": "MERIDIAN", "addr:country": "US", "addr:full": "815 23RD AVE", "addr:postcode": "39301", "addr:state": "MS", "amenity": "post_box", "brand": "United States Postal Service", "brand:wikidata": "Q668687", "collection_times": "Mo-Fr 09:30", "name": "USPS COLLECTION BOX - BLUE BOX", "nsi_id": "unitedstatespostalservice-a77078", "operator": "United States Postal Service", "operator:short": "USPS", "operator:type": "public", "operator:wikidata": "Q668687", "ref": "3930100074"}, "type": "Feature"}
{"dataset_attributes": {"@spider": "usps_collection_boxes", "spider:collection_time": "2023-11-19T08:23:43.397954"}, "geometry": {"coordinates": [-88.706989972, 32.369340007], "type": "Point"}, "id": "6JNOgNz3x-k5FEz-xQzAUy_pWyY=", "properties": {"@spider": "usps_collection_boxes", "addr:city": "MERIDIAN", "addr:country": "US", "addr:full": "1201 28TH AVE", "addr:postcode": "39301", "addr:state": "MS", "amenity": "post_box", "brand": "United States Postal Service", "brand:wikidata": "Q668687", "collection_times": "Mo-Fr 13:00", "name": "USPS COLLECTION BOX - BLUE BOX", "note": "ON 12/24 AND 12/31, THIS BOX MAY BE COLLECTED AS EARLY AS 12 NOON.", "nsi_id": "unitedstatespostalservice-a77078", "operator": "United States Postal Service", "operator:short": "USPS", "operator:type": "public", "operator:wikidata": "Q668687", "ref": "3930100082"}, "type": "Feature"}
{"dataset_attributes": {"@spider": "usps_collection_boxes", "spider:collection_time": "2023-11-19T08:23:43.397954"}, "geometry": {"coordinates": [-88.694088881, 32.357017025], "type": "Point"}, "id": "Xclw0j-MGO2rl4KPagHTM5Hfzm8=", "properties": {"@spider": "usps_collection_boxes", "addr:city": "MERIDIAN", "addr:country": "US", "addr:full": "610 22ND AVE S", "addr:postcode": "39301", "addr:state": "MS", "amenity": "post_box", "brand": "United States Postal Service", "brand:wikidata": "Q668687", "collection_times": "Mo-Fr 09:15", "name": "USPS COLLECTION BOX - BLUE BOX", "nsi_id": "unitedstatespostalservice-a77078", "operator": "United States Postal Service", "operator:short": "USPS", "operator:type": "public", "operator:wikidata": "Q668687", "ref": "3930100083"}, "type": "Feature"}
{"dataset_attributes": {"@spider": "usps_collection_boxes", "spider:collection_time": "2023-11-19T08:23:43.397954"}, "geometry": {"coordinates": [-88.695339751, 32.365101309], "type": "Point"}, "id": "j2IQ1P33wfNLRXTJ6BzCJ7hAE-8=", "properties": {"@spider": "usps_collection_boxes", "addr:city": "MERIDIAN", "addr:country": "US", "addr:full": "1810 FRONT ST", "addr:postcode": "39301", "addr:state": "MS", "amenity": "post_box", "brand": "United States Postal Service", "brand:wikidata": "Q668687", "collection_times": "Mo-Fr 12:45", "name": "USPS COLLECTION BOX - BLUE BOX", "note": "ON 12/24 AND 12/31, THIS BOX MAY BE COLLECTED AS EARLY AS 12 NOON.", "nsi_id": "unitedstatespostalservice-a77078", "operator": "United States Postal Service", "operator:short": "USPS", "operator:type": "public", "operator:wikidata": "Q668687", "ref": "3930100094"}, "type": "Feature"}
{"dataset_attributes": {"@spider": "usps_collection_boxes", "spider:collection_time": "2023-11-19T08:23:43.397954"}, "geometry": {"coordinates": [-88.69985999, 32.366420004], "type": "Point"}, "id": "pT7eOOO0VA_pFFiYhTkCdfbUdc4=", "properties": {"@spider": "usps_collection_boxes", "addr:city": "MERIDIAN", "addr:country": "US", "addr:full": "2100 9TH ST", "addr:postcode": "39301", "addr:state": "MS", "amenity": "post_box", "brand": "United States Postal Service", "brand:wikidata": "Q668687", "collection_times": "Mo-Sa 17:00", "name": "USPS COLLECTION BOX - PO LOBBY", "note": "ON 12/24 AND 12/31, THIS BOX MAY BE COLLECTED AS EARLY AS 12 NOON.", "nsi_id": "unitedstatespostalservice-a77078", "operator": "United States Postal Service", "operator:short": "USPS", "operator:type": "public", "operator:wikidata": "Q668687", "ref": "3930100100"}, "type": "Feature"}
{"dataset_attributes": {"@spider": "usps_collection_boxes", "spider:collection_time": "2023-11-19T08:23:43.397954"}, "geometry": {"coordinates": [-88.69985999, 32.366420004], "type": "Point"}, "id": "Qd-nKDAmkZuzQJzWsWP8nAohYt8=", "properties": {"@spider": "usps_collection_boxes", "addr:city": "MERIDIAN", "addr:country": "US", "addr:full": "2100 9TH ST", "addr:postcode": "39301", "addr:state": "MS", "amenity": "post_box", "brand": "United States Postal Service", "brand:wikidata": "Q668687", "collection_times": "Mo-Sa 17:00", "name": "USPS COLLECTION BOX - PO LOBBY", "note": "ON 12/24 AND 12/31, THIS BOX MAY BE COLLECTED AS EARLY AS 12 NOON.", "nsi_id": "unitedstatespostalservice-a77078", "operator": "United States Postal Service", "operator:short": "USPS", "operator:type": "public", "operator:wikidata": "Q668687", "ref": "3930100101"}, "type": "Feature"}
{"dataset_attributes": {"@spider": "usps_collection_boxes", "spider:collection_time": "2023-11-19T08:23:43.397954"}, "geometry": {"coordinates": [-88.6777030158, 32.409629008], "type": "Point"}, "id": "qbFiUbhPzlVb7-uO7S3ANEA93rQ=", "properties": {"@spider": "usps_collection_boxes", "addr:city": "MERIDIAN", "addr:country": "US", "addr:full": "5000 HIGHWAY 39 N", "addr:postcode": "39301", "addr:state": "MS", "amenity": "post_box", "brand": "United States Postal Service", "brand:wikidata": "Q668687", "collection_times": "Mo-Fr 14:00", "name": "USPS COLLECTION BOX - BLUE BOX", "note": "ON 12/24 AND 12/31, THIS BOX MAY BE COLLECTED AS EARLY AS 12 NOON.", "nsi_id": "unitedstatespostalservice-a77078", "operator": "United States Postal Service", "operator:short": "USPS", "operator:type": "public", "operator:wikidata": "Q668687", "ref": "3930100102"}, "type": "Feature"}
{"dataset_attributes": {"@spider": "usps_collection_boxes", "spider:collection_time": "2023-11-19T08:23:43.397954"}, "geometry": {"coordinates": [-88.699390814, 32.363445583], "type": "Point"}, "id": "U68yBkKIsp_bg88rCd1TI_BEqMM=", "properties": {"@spider": "usps_collection_boxes", "addr:city": "MERIDIAN", "addr:country": "US", "addr:full": "400 22ND AVE", "addr:postcode": "39301", "addr:state": "MS", "amenity": "post_box", "brand": "United States Postal Service", "brand:wikidata": "Q668687", "collection_times": "Mo-Fr 14:00", "name": "USPS COLLECTION BOX - BLUE BOX", "note": "ON 12/24 AND 12/31, THIS BOX MAY BE COLLECTED AS EARLY AS 12 NOON.", "nsi_id": "unitedstatespostalservice-a77078", "operator": "United States Postal Service", "operator:short": "USPS", "operator:type": "public", "operator:wikidata": "Q668687", "ref": "3930100105"}, "type": "Feature"}
{"dataset_attributes": {"@spider": "usps_collection_boxes", "spider:collection_time": "2023-11-19T08:23:43.397954"}, "geometry": {"coordinates": [-88.69985999, 32.366420004], "type": "Point"}, "id": "Fy30ZOygacxnVrTPVryyiDva4XY=", "properties": {"@spider": "usps_collection_boxes", "addr:city": "MERIDIAN", "addr:country": "US", "addr:full": "2100 9TH ST", "addr:postcode": "39301", "addr:state": "MS", "amenity": "post_box", "brand": "United States Postal Service", "brand:wikidata": "Q668687", "collection_times": "Mo-Fr 16:30; Sa 12:00", "name": "USPS COLLECTION BOX - PO LOBBY", "note": "ON 12/24 AND 12/31, THIS BOX MAY BE COLLECTED AS EARLY AS 12 NOON.", "nsi_id": "unitedstatespostalservice-a77078", "operator": "United States Postal Service", "operator:short": "USPS", "operator:type": "public", "operator:wikidata": "Q668687", "ref": "3930100108"}, "type": "Feature"}
{"dataset_attributes": {"@spider": "usps_collection_boxes", "spider:collection_time": "2023-11-19T08:23:43.397954"}, "geometry": {"coordinates": [-88.707757168, 32.410202133], "type": "Point"}, "id": "ouyrSM3jwj1wKqvGdl97PZFDy04=", "properties": {"@spider": "usps_collection_boxes", "addr:city": "MERIDIAN", "addr:country": "US", "addr:full": "5008 GREAT RIVER DR", "addr:postcode": "39305", "addr:state": "MS", "amenity": "post_box", "brand": "United States Postal Service", "brand:wikidata": "Q668687", "collection_times": "Mo-Fr 16:30; Sa 12:00", "name": "USPS COLLECTION BOX - PO LOBBY", "note": "ON 12/24 AND 12/31, THIS BOX MAY BE COLLECTED AS EARLY AS 12 NOON.", "nsi_id": "unitedstatespostalservice-a77078", "operator": "United States Postal Service", "operator:short": "USPS", "operator:type": "public", "operator:wikidata": "Q668687", "ref": "3930500030"}, "type": "Feature"}
{"dataset_attributes": {"@spider": "usps_collection_boxes", "spider:collection_time": "2023-11-19T08:23:43.397954"}, "geometry": {"coordinates": [-88.707757168, 32.410202133], "type": "Point"}, "id": "RqGBWcFSbjBEEVc37dGDRZmDZ-g=", "properties": {"@spider": "usps_collection_boxes", "addr:city": "MERIDIAN", "addr:country": "US", "addr:full": "5008 GREAT RIVER DR", "addr:postcode": "39305", "addr:state": "MS", "amenity": "post_box", "brand": "United States Postal Service", "brand:wikidata": "Q668687", "collection_times": "Mo-Fr 16:30; Sa 12:00", "name": "USPS COLLECTION BOX - PO LOBBY", "note": "ON 12/24 AND 12/31, THIS BOX MAY BE COLLECTED AS EARLY AS 12 NOON.", "nsi_id": "unitedstatespostalservice-a77078", "operator": "United States Postal Service", "operator:short": "USPS", "operator:type": "public", "operator:wikidata": "Q668687", "ref": "3930500031"}, "type": "Feature"}
{"dataset_attributes": {"@spider": "usps_collection_boxes", "spider:collection_time": "2023-11-19T08:23:43.397954"}, "geometry": {"coordinates": [-88.707757168, 32.410202133], "type": "Point"}, "id": "k_LKxx8wdSsd4kfOATrv9FNVLLo=", "properties": {"@spider": "usps_collection_boxes", "addr:city": "MERIDIAN", "addr:country": "US", "addr:full": "5008 GREAT RIVER DR", "addr:postcode": "39305", "addr:state": "MS", "amenity": "post_box", "brand": "United States Postal Service", "brand:wikidata": "Q668687", "collection_times": "Mo-Fr 16:30; Sa 12:00", "name": "USPS COLLECTION BOX - PO LOBBY", "note": "ON 12/24 AND 12/31, THIS BOX MAY BE COLLECTED AS EARLY AS 12 NOON.", "nsi_id": "unitedstatespostalservice-a77078", "operator": "United States Postal Service", "operator:short": "USPS", "operator:type": "public", "operator:wikidata": "Q668687", "ref": "3930500033"}, "type": "Feature"}
{"dataset_attributes": {"@spider": "usps_collection_boxes", "spider:collection_time": "2023-11-19T08:23:43.397954"}, "geometry": {"coordinates": [-88.707757168, 32.410202133], "type": "Point"}, "id": "tb_6NBorJ6AXmFIacmmuWaZGfAc=", "properties": {"@spider": "usps_collection_boxes", "addr:city": "MERIDIAN", "addr:country": "US", "addr:full": "5008 GREAT RIVER DR", "addr:postcode": "39305", "addr:state": "MS", "amenity": "post_box", "brand": "United States Postal Service", "brand:wikidata": "Q668687", "collection_times": "Mo-Fr 16:30; Sa 12:00", "name": "USPS COLLECTION BOX - PO LOBBY", "note": "ON 12/24 AND 12/31, THIS BOX MAY BE COLLECTED AS EARLY AS 12 NOON.", "nsi_id": "unitedstatespostalservice-a77078", "operator": "United States Postal Service", "operator:short": "USPS", "operator:type": "public", "operator:wikidata": "Q668687", "ref": "3930500034"}, "type": "Feature"}
{"dataset_attributes": {"@spider": "usps_collection_boxes", "spider:collection_time": "2023-11-19T08:23:43.397954"}, "geometry": {"coordinates": [-88.707757168, 32.410202133], "type": "Point"}, "id": "1Xo9TGa2asVI4wtK3ydJ3RsvUr0=", "properties": {"@spider": "usps_collection_boxes", "addr:city": "MERIDIAN", "addr:country": "US", "addr:full": "5008 GREAT RIVER DR", "addr:postcode": "39305", "addr:state": "MS", "amenity": "post_box", "brand": "United States Postal Service", "brand:wikidata": "Q668687", "collection_times": "Mo-Fr 16:45; Sa 14:45", "name": "USPS COLLECTION BOX - BLUE BOX", "note": "ON 12/24 AND 12/31, THIS BOX MAY BE COLLECTED AS EARLY AS 12 NOON.", "nsi_id": "unitedstatespostalservice-a77078", "operator": "United States Postal Service", "operator:short": "USPS", "operator:type": "public", "operator:wikidata": "Q668687", "ref": "3930500035"}, "type": "Feature"}
{"dataset_attributes": {"@spider": "usps_collection_boxes", "spider:collection_time": "2023-11-19T08:23:43.397954"}, "geometry": {"coordinates": [-88.707757168, 32.410202133], "type": "Point"}, "id": "kTd7907JUdp3Gr9j3dUVjefXVKo=", "properties": {"@spider": "usps_collection_boxes", "addr:city": "MERIDIAN", "addr:country": "US", "addr:full": "5008 GREAT RIVER DR", "addr:postcode": "39305", "addr:state": "MS", "amenity": "post_box", "brand": "United States Postal Service", "brand:wikidata": "Q668687", "collection_times": "Mo-Fr 16:45; Sa 14:45", "name": "USPS COLLECTION BOX - BLUE BOX", "note": "ON 12/24 AND 12/31, THIS BOX MAY BE COLLECTED AS EARLY AS 12 NOON.", "nsi_id": "unitedstatespostalservice-a77078", "operator": "United States Postal Service", "operator:short": "USPS", "operator:type": "public", "operator:wikidata": "Q668687", "ref": "3930500036"}, "type": "Feature"}
{"dataset_attributes": {"@spider": "usps_collection_boxes", "spider:collection_time": "2023-11-19T08:23:43.397954"}, "geometry": {"coordinates": [-88.707757168, 32.410202133], "type": "Point"}, "id": "2J--A_89Hc379rL_pxdVfV-VD1g=", "properties": {"@spider": "usps_collection_boxes", "addr:city": "MERIDIAN", "addr:country": "US", "addr:full": "5008 GREAT RIVER DR", "addr:postcode": "39305", "addr:state": "MS", "amenity": "post_box", "brand": "United States Postal Service", "brand:wikidata": "Q668687", "collection_times": "Mo-Fr 16:45; Sa 14:45", "name": "USPS COLLECTION BOX - BLUE BOX", "note": "ON 12/24 AND 12/31, THIS BOX MAY BE COLLECTED AS EARLY AS 12 NOON.", "nsi_id": "unitedstatespostalservice-a77078", "operator": "United States Postal Service", "operator:short": "USPS", "operator:type": "public", "operator:wikidata": "Q668687", "ref": "3930500037"}, "type": "Feature"}
{"dataset_attributes": {"@spider": "usps_collection_boxes", "spider:collection_time": "2023-11-19T08:23:43.397954"}, "geometry": {"coordinates": [-88.707757168, 32.410202133], "type": "Point"}, "id": "Qjr1-3TaX2xQi_pB0_PES04uK3c=", "properties": {"@spider": "usps_collection_boxes", "addr:city": "MERIDIAN", "addr:country": "US", "addr:full": "5008 GREAT RIVER DR", "addr:postcode": "39305", "addr:state": "MS", "amenity": "post_box", "brand": "United States Postal Service", "brand:wikidata": "Q668687", "collection_times": "Mo-Fr 16:45; Sa 14:45", "name": "USPS COLLECTION BOX - BLUE BOX", "note": "ON 12/24 AND 12/31, THIS BOX MAY BE COLLECTED AS EARLY AS 12 NOON.", "nsi_id": "unitedstatespostalservice-a77078", "operator": "United States Postal Service", "operator:short": "USPS", "operator:type": "public", "operator:wikidata": "Q668687", "ref": "3930500038"}, "type": "Feature"}
{"dataset_attributes": {"@spider": "usps_collection_boxes", "spider:collection_time": "2023-11-19T08:23:43.397954"}, "geometry": {"coordinates": [-88.606664673, 32.55164041], "type": "Point"}, "id": "GNTd_5M7aTxsgjylSVUJHmbBztg=", "properties": {"@spider": "usps_collection_boxes", "addr:city": "MERIDIAN", "addr:country": "US", "addr:full": "220 FULLER RD", "addr:postcode": "39305", "addr:state": "MS", "amenity": "post_box", "brand": "United States Postal Service", "brand:wikidata": "Q668687", "collection_times": "Mo-Fr 09:15", "name": "USPS COLLECTION BOX - BLUE BOX", "nsi_id": "unitedstatespostalservice-a77078", "operator": "United States Postal Service", "operator:short": "USPS", "operator:type": "public", "operator:wikidata": "Q668687", "ref": "3930500039"}, "type": "Feature"}
{"dataset_attributes": {"@spider": "usps_collection_boxes", "spider:collection_time": "2023-11-19T08:23:43.397954"}, "geometry": {"coordinates": [-88.60585469, 32.550951322], "type": "Point"}, "id": "gNAkQxUz0D9PJevYmj5Tb2gIOjY=", "properties": {"@spider": "usps_collection_boxes", "addr:city": "MERIDIAN", "addr:country": "US", "addr:full": "255 ROSENBAUM", "addr:postcode": "39305", "addr:state": "MS", "amenity": "post_box", "brand": "United States Postal Service", "brand:wikidata": "Q668687", "collection_times": "Mo-Fr 09:00", "name": "USPS COLLECTION BOX - BLUE BOX", "nsi_id": "unitedstatespostalservice-a77078", "operator": "United States Postal Service", "operator:short": "USPS", "operator:type": "public", "operator:wikidata": "Q668687", "ref": "3930500040"}, "type": "Feature"}
{"dataset_attributes": {"@spider": "usps_collection_boxes", "spider:collection_time": "2023-11-19T08:23:43.397954"}, "geometry": {"coordinates": [-88.707462541, 32.411816906], "type": "Point"}, "id": "zSn8vOpkNNsh2X9Y3OOTCtdaBME=", "properties": {"@spider": "usps_collection_boxes", "addr:city": "MERIDIAN", "addr:country": "US", "addr:full": "5008 29TH AVE", "addr:postcode": "39305", "addr:state": "MS", "amenity": "post_box", "brand": "United States Postal Service", "brand:wikidata": "Q668687", "collection_times": "Mo-Fr 16:30; Sa 12:00", "name": "USPS COLLECTION BOX - PO LOBBY", "note": "ON 12/24 AND 12/31, THIS BOX MAY BE COLLECTED AS EARLY AS 12 NOON.", "nsi_id": "unitedstatespostalservice-a77078", "operator": "United States Postal Service", "operator:short": "USPS", "operator:type": "public", "operator:wikidata": "Q668687", "ref": "3930500043"}, "type": "Feature"}
{"dataset_attributes": {"@spider": "usps_collection_boxes", "spider:collection_time": "2023-11-19T08:23:43.397954"}, "geometry": {"coordinates": [-88.729114672, 32.365003156], "type": "Point"}, "id": "8xgaX81LCL2RSqOEPxuIbQsQgT4=", "properties": {"@spider": "usps_collection_boxes", "addr:city": "MERIDIAN", "addr:country": "US", "addr:full": "800 HIGHWAY 19 N", "addr:postcode": "39307", "addr:state": "MS", "amenity": "post_box", "brand": "United States Postal Service", "brand:wikidata": "Q668687", "collection_times": "Mo-Fr 14:00", "name": "USPS COLLECTION BOX - BLUE BOX", "note": "ON 12/24 AND 12/31, THIS BOX MAY BE COLLECTED AS EARLY AS 12 NOON.", "nsi_id": "unitedstatespostalservice-a77078", "operator": "United States Postal Service", "operator:short": "USPS", "operator:type": "public", "operator:wikidata": "Q668687", "ref": "3930700002"}, "type": "Feature"}
{"dataset_attributes": {"@spider": "usps_collection_boxes", "spider:collection_time": "2023-11-19T08:23:43.397954"}, "geometry": {"coordinates": [-88.729114672, 32.365003156], "type": "Point"}, "id": "kqVNvrnmbkOVd2lAAkN6H8Wg-Fk=", "properties": {"@spider": "usps_collection_boxes", "addr:city": "MERIDIAN", "addr:country": "US", "addr:full": "800 HIGHWAY 19 N", "addr:postcode": "39307", "addr:state": "MS", "amenity": "post_box", "brand": "United States Postal Service", "brand:wikidata": "Q668687", "collection_times": "Mo-Fr 14:00", "name": "USPS COLLECTION BOX - BLUE BOX", "note": "ON 12/24 AND 12/31, THIS BOX MAY BE COLLECTED AS EARLY AS 12 NOON.", "nsi_id": "unitedstatespostalservice-a77078", "operator": "United States Postal Service", "operator:short": "USPS", "operator:type": "public", "operator:wikidata": "Q668687", "ref": "3930700003"}, "type": "Feature"}
{"dataset_attributes": {"@spider": "usps_collection_boxes", "spider:collection_time": "2023-11-19T08:23:43.397954"}, "geometry": {"coordinates": [-88.722379985, 32.363790014], "type": "Point"}, "id": "SJ7C6bEAZak8O86W7rJ_ZbtS2hM=", "properties": {"@spider": "usps_collection_boxes", "addr:city": "MERIDIAN", "addr:country": "US", "addr:full": "708 45TH AVE", "addr:postcode": "39307", "addr:state": "MS", "amenity": "post_box", "brand": "United States Postal Service", "brand:wikidata": "Q668687", "collection_times": "Mo-Fr 16:30; Sa 12:00", "name": "USPS COLLECTION BOX - BLUE BOX", "note": "ON 12/24 AND 12/31, THIS BOX MAY BE COLLECTED AS EARLY AS 12 NOON.", "nsi_id": "unitedstatespostalservice-a77078", "operator": "United States Postal Service", "operator:short": "USPS", "operator:type": "public", "operator:wikidata": "Q668687", "ref": "3930700009"}, "type": "Feature"}
{"dataset_attributes": {"@spider": "usps_collection_boxes", "spider:collection_time": "2023-11-19T08:23:43.397954"}, "geometry": {"coordinates": [-88.722379985, 32.363790014], "type": "Point"}, "id": "dLDQbS-QOqP8G4ABEDhRcK01Sk8=", "properties": {"@spider": "usps_collection_boxes", "addr:city": "MERIDIAN", "addr:country": "US", "addr:full": "708 45TH AVE", "addr:postcode": "39307", "addr:state": "MS", "amenity": "post_box", "brand": "United States Postal Service", "brand:wikidata": "Q668687", "collection_times": "Mo-Fr 16:30; Sa 12:00", "name": "USPS COLLECTION BOX - BLUE BOX", "note": "ON 12/24 AND 12/31, THIS BOX MAY BE COLLECTED AS EARLY AS 12 NOON.", "nsi_id": "unitedstatespostalservice-a77078", "operator": "United States Postal Service", "operator:short": "USPS", "operator:type": "public", "operator:wikidata": "Q668687", "ref": "3930700011"}, "type": "Feature"}
{"dataset_attributes": {"@spider": "usps_collection_boxes", "spider:collection_time": "2023-11-19T08:23:43.397954"}, "geometry": {"coordinates": [-88.722379985, 32.363790014], "type": "Point"}, "id": "sqSz0wIVyVaDfpVmZhJ5zWBEnFo=", "properties": {"@spider": "usps_collection_boxes", "addr:city": "MERIDIAN", "addr:country": "US", "addr:full": "708 45TH AVE", "addr:postcode": "39307", "addr:state": "MS", "amenity": "post_box", "brand": "United States Postal Service", "brand:wikidata": "Q668687", "collection_times": "Mo-Fr 16:30; Sa 12:00", "name": "USPS COLLECTION BOX - BLUE BOX", "note": "ON 12/24 AND 12/31, THIS BOX MAY BE COLLECTED AS EARLY AS 12 NOON.", "nsi_id": "unitedstatespostalservice-a77078", "operator": "United States Postal Service", "operator:short": "USPS", "operator:type": "public", "operator:wikidata": "Q668687", "ref": "3930700013"}, "type": "Feature"}
{"dataset_attributes": {"@spider": "usps_collection_boxes", "spider:collection_time": "2023-11-19T08:23:43.397954"}, "geometry": {"coordinates": [-88.722379985, 32.363790014], "type": "Point"}, "id": "lTS7CTN6klOSfrLzxQxe_fehuMc=", "properties": {"@spider": "usps_collection_boxes", "addr:city": "MERIDIAN", "addr:country": "US", "addr:full": "708 45TH AVE", "addr:postcode": "39307", "addr:state": "MS", "amenity": "post_box", "brand": "United States Postal Service", "brand:wikidata": "Q668687", "collection_times": "Mo-Fr 16:30", "name": "USPS COLLECTION BOX - PO LOBBY", "note": "ON 12/24 AND 12/31, THIS BOX MAY BE COLLECTED AS EARLY AS 12 NOON.", "nsi_id": "unitedstatespostalservice-a77078", "operator": "United States Postal Service", "operator:short": "USPS", "operator:type": "public", "operator:wikidata": "Q668687", "ref": "3930700014"}, "type": "Feature"}
{"dataset_attributes": {"@spider": "usps_collection_boxes", "spider:collection_time": "2023-11-19T08:23:43.397954"}, "geometry": {"coordinates": [-88.722379985, 32.363790014], "type": "Point"}, "id": "e0QKaM6ThfHz6ynkUWL71of3yLI=", "properties": {"@spider": "usps_collection_boxes", "addr:city": "MERIDIAN", "addr:country": "US", "addr:full": "708 45TH AVE", "addr:postcode": "39307", "addr:state": "MS", "amenity": "post_box", "brand": "United States Postal Service", "brand:wikidata": "Q668687", "collection_times": "Mo-Fr 16:30", "name": "USPS COLLECTION BOX - PO LOBBY", "note": "ON 12/24 AND 12/31, THIS BOX MAY BE COLLECTED AS EARLY AS 12 NOON.", "nsi_id": "unitedstatespostalservice-a77078", "operator": "United States Postal Service", "operator:short": "USPS", "operator:type": "public", "operator:wikidata": "Q668687", "ref": "3930700015"}, "type": "Feature"}
{"dataset_attributes": {"@spider": "usps_collection_boxes", "spider:collection_time": "2023-11-19T08:23:43.397954"}, "geometry": {"coordinates": [-88.728140029, 32.369509992], "type": "Point"}, "id": "bHN8-cnSUR9aA5njXF-QlwMucjw=", "properties": {"@spider": "usps_collection_boxes", "addr:city": "MERIDIAN", "addr:country": "US", "addr:full": "4901 14TH ST", "addr:postcode": "39307", "addr:state": "MS", "amenity": "post_box", "brand": "United States Postal Service", "brand:wikidata": "Q668687", "collection_times": "Mo-Fr 10:00", "name": "USPS COLLECTION BOX - BLUE BOX", "nsi_id": "unitedstatespostalservice-a77078", "operator": "United States Postal Service", "operator:short": "USPS", "operator:type": "public", "operator:wikidata": "Q668687", "ref": "3930700017"}, "type": "Feature"}
{"dataset_attributes": {"@spider": "usps_collection_boxes", "spider:collection_time": "2023-11-19T08:23:43.397954"}, "geometry": {"coordinates": [-88.722379985, 32.363790014], "type": "Point"}, "id": "WK2kwOP3mmkQUqA6A-vqI9Gys-Q=", "properties": {"@spider": "usps_collection_boxes", "addr:city": "MERIDIAN", "addr:country": "US", "addr:full": "708 45TH AVE", "addr:postcode": "39307", "addr:state": "MS", "amenity": "post_box", "brand": "United States Postal Service", "brand:wikidata": "Q668687", "collection_times": "Mo-Fr 16:30; Sa 12:00", "name": "USPS COLLECTION BOX - PO LOBBY", "note": "ON 12/24 AND 12/31, THIS BOX MAY BE COLLECTED AS EARLY AS 12 NOON.", "nsi_id": "unitedstatespostalservice-a77078", "operator": "United States Postal Service", "operator:short": "USPS", "operator:type": "public", "operator:wikidata": "Q668687", "ref": "3930700019"}, "type": "Feature"}
{"dataset_attributes": {"@spider": "usps_collection_boxes", "spider:collection_time": "2023-11-19T08:23:43.397954"}, "geometry": {"coordinates": [-88.72633004, 32.494639988], "type": "Point"}, "id": "fURzk-CL0QHZ6vmW7zwm_gv0zfg=", "properties": {"@spider": "usps_collection_boxes", "addr:city": "BAILEY", "addr:country": "US", "addr:full": "9032 HIGHWAY 493", "addr:postcode": "39320", "addr:state": "MS", "amenity": "post_box", "brand": "United States Postal Service", "brand:wikidata": "Q668687", "collection_times": "Mo-Fr 15:00; Sa 10:30", "name": "USPS COLLECTION BOX - BLUE BOX", "note": "ON 12/24 AND 12/31, THIS BOX MAY BE COLLECTED AS EARLY AS 12 NOON.", "nsi_id": "unitedstatespostalservice-a77078", "operator": "United States Postal Service", "operator:short": "USPS", "operator:type": "public", "operator:wikidata": "Q668687", "ref": "3932000000"}, "type": "Feature"}
{"dataset_attributes": {"@spider": "usps_collection_boxes", "spider:collection_time": "2023-11-19T08:23:43.397954"}, "geometry": {"coordinates": [-88.72633004, 32.494639988], "type": "Point"}, "id": "24kkdoAzaCq7z1XQTD_L5_891Z4=", "properties": {"@spider": "usps_collection_boxes", "addr:city": "BAILEY", "addr:country": "US", "addr:full": "9032 HIGHWAY 493", "addr:postcode": "39320", "addr:state": "MS", "amenity": "post_box", "brand": "United States Postal Service", "brand:wikidata": "Q668687", "collection_times": "Mo-Fr 15:00; Sa 10:30", "name": "USPS COLLECTION BOX - PO LOBBY", "note": "ON 12/24 AND 12/31, THIS BOX MAY BE COLLECTED AS EARLY AS 12 NOON.", "nsi_id": "unitedstatespostalservice-a77078", "operator": "United States Postal Service", "operator:short": "USPS", "operator:type": "public", "operator:wikidata": "Q668687", "ref": "3932000001"}, "type": "Feature"}
{"dataset_attributes": {"@spider": "usps_collection_boxes", "spider:collection_time": "2023-11-19T08:23:43.397954"}, "geometry": {"coordinates": [-88.72633004, 32.494639988], "type": "Point"}, "id": "6ow4EizDspsTxH5rsaIhfkCbgOI=", "properties": {"@spider": "usps_collection_boxes", "addr:city": "BAILEY", "addr:country": "US", "addr:full": "9032 HIGHWAY 493", "addr:postcode": "39320", "addr:state": "MS", "amenity": "post_box", "brand": "United States Postal Service", "brand:wikidata": "Q668687", "collection_times": "Mo-Fr 15:00; Sa 10:30", "name": "USPS COLLECTION BOX - PO LOBBY", "note": "ON 12/24 AND 12/31, THIS BOX MAY BE COLLECTED AS EARLY AS 12 NOON.", "nsi_id": "unitedstatespostalservice-a77078", "operator": "United States Postal Service", "operator:short": "USPS", "operator:type": "public", "operator:wikidata": "Q668687", "ref": "3932000002"}, "type": "Feature"}
{"dataset_attributes": {"@spider": "usps_collection_boxes", "spider:collection_time": "2023-11-19T08:23:43.397954"}, "geometry": {"coordinates": [-88.528709925, 31.540689944], "type": "Point"}, "id": "8xz447_qltir0VB2W0Pl56QTw40=", "properties": {"@spider": "usps_collection_boxes", "addr:city": "BUCKATUNNA", "addr:country": "US", "addr:full": "2360 BUCKATUNNA CHICORA CLARA RD", "addr:postcode": "39322", "addr:state": "MS", "amenity": "post_box", "brand": "United States Postal Service", "brand:wikidata": "Q668687", "collection_times": "Mo-Fr 15:00; Sa 10:30", "name": "USPS COLLECTION BOX - BLUE BOX", "note": "ON 12/24 AND 12/31, THIS BOX MAY BE COLLECTED AS EARLY AS 12 NOON.", "nsi_id": "unitedstatespostalservice-a77078", "operator": "United States Postal Service", "operator:short": "USPS", "operator:type": "public", "operator:wikidata": "Q668687", "ref": "3932200001"}, "type": "Feature"}
{"dataset_attributes": {"@spider": "usps_collection_boxes", "spider:collection_time": "2023-11-19T08:23:43.397954"}, "geometry": {"coordinates": [-88.528709925, 31.540689944], "type": "Point"}, "id": "lMj0UiA98sjIC7LmawAiIzJ2qLo=", "properties": {"@spider": "usps_collection_boxes", "addr:city": "BUCKATUNNA", "addr:country": "US", "addr:full": "2360 BUCKATUNNA CHICORA CLARA RD", "addr:postcode": "39322", "addr:state": "MS", "amenity": "post_box", "brand": "United States Postal Service", "brand:wikidata": "Q668687", "collection_times": "Mo-Fr 15:00; Sa 10:30", "name": "USPS COLLECTION BOX - PO LOBBY", "note": "ON 12/24 AND 12/31, THIS BOX MAY BE COLLECTED AS EARLY AS 12 NOON.", "nsi_id": "unitedstatespostalservice-a77078", "operator": "United States Postal Service", "operator:short": "USPS", "operator:type": "public", "operator:wikidata": "Q668687", "ref": "3932200002"}, "type": "Feature"}
{"dataset_attributes": {"@spider": "usps_collection_boxes", "spider:collection_time": "2023-11-19T08:23:43.397954"}, "geometry": {"coordinates": [-88.528709925, 31.540689944], "type": "Point"}, "id": "E3251IRe2pKueF3PRWegBbAcfsI=", "properties": {"@spider": "usps_collection_boxes", "addr:city": "BUCKATUNNA", "addr:country": "US", "addr:full": "2360 BUCKATUNNA CHICORA CLARA RD", "addr:postcode": "39322", "addr:state": "MS", "amenity": "post_box", "brand": "United States Postal Service", "brand:wikidata": "Q668687", "collection_times": "Mo-Fr 15:00; Sa 10:30", "name": "USPS COLLECTION BOX - PO LOBBY", "note": "ON 12/24 AND 12/31, THIS BOX MAY BE COLLECTED AS EARLY AS 12 NOON.", "nsi_id": "unitedstatespostalservice-a77078", "operator": "United States Postal Service", "operator:short": "USPS", "operator:type": "public", "operator:wikidata": "Q668687", "ref": "3932200003"}, "type": "Feature"}
{"dataset_attributes": {"@spider": "usps_collection_boxes", "spider:collection_time": "2023-11-19T08:23:43.397954"}, "geometry": {"coordinates": [-88.928810436, 32.32611464], "type": "Point"}, "id": "4yels3yNfSjHPRNwxhDK0cq3j0Y=", "properties": {"@spider": "usps_collection_boxes", "addr:city": "CHUNKY", "addr:country": "US", "addr:full": "23926 HIGHWAY 80", "addr:postcode": "39323", "addr:state": "MS", "amenity": "post_box", "brand": "United States Postal Service", "brand:wikidata": "Q668687", "collection_times": "Mo-Fr 12:00; Sa 08:30", "name": "USPS COLLECTION BOX - BLUE BOX", "nsi_id": "unitedstatespostalservice-a77078", "operator": "United States Postal Service", "operator:short": "USPS", "operator:type": "public", "operator:wikidata": "Q668687", "ref": "3932300000"}, "type": "Feature"}
{"dataset_attributes": {"@spider": "usps_collection_boxes", "spider:collection_time": "2023-11-19T08:23:43.397954"}, "geometry": {"coordinates": [-88.928810436, 32.32611464], "type": "Point"}, "id": "-Sc8ue5ebi2ZzXG6aFBS3GnhG6o=", "properties": {"@spider": "usps_collection_boxes", "addr:city": "CHUNKY", "addr:country": "US", "addr:full": "23926 HIGHWAY 80", "addr:postcode": "39323", "addr:state": "MS", "amenity": "post_box", "brand": "United States Postal Service", "brand:wikidata": "Q668687", "collection_times": "Mo-Fr 11:50; Sa 08:30", "name": "USPS COLLECTION BOX - PO LOBBY", "nsi_id": "unitedstatespostalservice-a77078", "operator": "United States Postal Service", "operator:short": "USPS", "operator:type": "public", "operator:wikidata": "Q668687", "ref": "3932300001"}, "type": "Feature"}
{"dataset_attributes": {"@spider": "usps_collection_boxes", "spider:collection_time": "2023-11-19T08:23:43.397954"}, "geometry": {"coordinates": [-88.928810436, 32.32611464], "type": "Point"}, "id": "lY2HncptMbQHt-UnHDYYfMLTR8c=", "properties": {"@spider": "usps_collection_boxes", "addr:city": "CHUNKY", "addr:country": "US", "addr:full": "23926 HIGHWAY 80", "addr:postcode": "39323", "addr:state": "MS", "amenity": "post_box", "brand": "United States Postal Service", "brand:wikidata": "Q668687", "collection_times": "Mo-Fr 12:00", "name": "USPS COLLECTION BOX - PO LOBBY", "nsi_id": "unitedstatespostalservice-a77078", "operator": "United States Postal Service", "operator:short": "USPS", "operator:type": "public", "operator:wikidata": "Q668687", "ref": "3932300002"}, "type": "Feature"}
{"dataset_attributes": {"@spider": "usps_collection_boxes", "spider:collection_time": "2023-11-19T08:23:43.397954"}, "geometry": {"coordinates": [-88.696722493, 31.579610067], "type": "Point"}, "id": "V_3AMQTUUg5FEz95xxhvRfRECV4=", "properties": {"@spider": "usps_collection_boxes", "addr:city": "CLARA", "addr:country": "US", "addr:full": "21 CLARA SCHOOL RD", "addr:postcode": "39324", "addr:state": "MS", "amenity": "post_box", "brand": "United States Postal Service", "brand:wikidata": "Q668687", "collection_times": "Mo-Fr 12:30; Sa 08:30", "name": "USPS COLLECTION BOX - BLUE BOX", "note": "ON 12/24 AND 12/31, THIS BOX MAY BE COLLECTED AS EARLY AS 12 NOON.", "nsi_id": "unitedstatespostalservice-a77078", "operator": "United States Postal Service", "operator:short": "USPS", "operator:type": "public", "operator:wikidata": "Q668687", "ref": "3932400000"}, "type": "Feature"}
{"dataset_attributes": {"@spider": "usps_collection_boxes", "spider:collection_time": "2023-11-19T08:23:43.397954"}, "geometry": {"coordinates": [-88.696722493, 31.579610067], "type": "Point"}, "id": "2Bo3NjQNWYX7Klvs5zjV-Uwoz9Y=", "properties": {"@spider": "usps_collection_boxes", "addr:city": "CLARA", "addr:country": "US", "addr:full": "21 CLARA SCHOOL RD", "addr:postcode": "39324", "addr:state": "MS", "amenity": "post_box", "brand": "United States Postal Service", "brand:wikidata": "Q668687", "collection_times": "Mo-Fr 12:30", "name": "USPS COLLECTION BOX - PO LOBBY", "note": "ON 12/24 AND 12/31, THIS BOX MAY BE COLLECTED AS EARLY AS 12 NOON.", "nsi_id": "unitedstatespostalservice-a77078", "operator": "United States Postal Service", "operator:short": "USPS", "operator:type": "public", "operator:wikidata": "Q668687", "ref": "3932400002"}, "type": "Feature"}
{"dataset_attributes": {"@spider": "usps_collection_boxes", "spider:collection_time": "2023-11-19T08:23:43.397954"}, "geometry": {"coordinates": [-88.847699998, 32.495409992], "type": "Point"}, "id": "gXuXWRmTwAVkD4busA0CoOR8DPk=", "properties": {"@spider": "usps_collection_boxes", "addr:city": "COLLINSVILLE", "addr:country": "US", "addr:full": "9061 COLLINSVILLE RD", "addr:postcode": "39325", "addr:state": "MS", "amenity": "post_box", "brand": "United States Postal Service", "brand:wikidata": "Q668687", "collection_times": "Mo-Fr 16:30; Sa 10:00", "name": "USPS COLLECTION BOX - PO LOBBY", "note": "ON 12/24 AND 12/31, THIS BOX MAY BE COLLECTED AS EARLY AS 12 NOON.", "nsi_id": "unitedstatespostalservice-a77078", "operator": "United States Postal Service", "operator:short": "USPS", "operator:type": "public", "operator:wikidata": "Q668687", "ref": "3932500000"}, "type": "Feature"}
{"dataset_attributes": {"@spider": "usps_collection_boxes", "spider:collection_time": "2023-11-19T08:23:43.397954"}, "geometry": {"coordinates": [-88.847699998, 32.495409992], "type": "Point"}, "id": "GSS75ZywsFWK-gaNK8nb93O0LS8=", "properties": {"@spider": "usps_collection_boxes", "addr:city": "COLLINSVILLE", "addr:country": "US", "addr:full": "9061 COLLINSVILLE RD", "addr:postcode": "39325", "addr:state": "MS", "amenity": "post_box", "brand": "United States Postal Service", "brand:wikidata": "Q668687", "collection_times": "Mo-Fr 16:15; Sa 09:30", "name": "USPS COLLECTION BOX - BLUE BOX", "note": "ON 12/24 AND 12/31, THIS BOX MAY BE COLLECTED AS EARLY AS 12 NOON.", "nsi_id": "unitedstatespostalservice-a77078", "operator": "United States Postal Service", "operator:short": "USPS", "operator:type": "public", "operator:wikidata": "Q668687", "ref": "3932500001"}, "type": "Feature"}
{"dataset_attributes": {"@spider": "usps_collection_boxes", "spider:collection_time": "2023-11-19T08:23:43.397954"}, "geometry": {"coordinates": [-88.847699998, 32.495409992], "type": "Point"}, "id": "7TChsu6Kv4jNPmAmfBEz5mpOEQ0=", "properties": {"@spider": "usps_collection_boxes", "addr:city": "COLLINSVILLE", "addr:country": "US", "addr:full": "9061 COLLINSVILLE RD", "addr:postcode": "39325", "addr:state": "MS", "amenity": "post_box", "brand": "United States Postal Service", "brand:wikidata": "Q668687", "collection_times": "Mo-Fr 16:30; Sa 10:00", "name": "USPS COLLECTION BOX - PO LOBBY", "note": "ON 12/24 AND 12/31, THIS BOX MAY BE COLLECTED AS EARLY AS 12 NOON.", "nsi_id": "unitedstatespostalservice-a77078", "operator": "United States Postal Service", "operator:short": "USPS", "operator:type": "public", "operator:wikidata": "Q668687", "ref": "3932500002"}, "type": "Feature"}
{"dataset_attributes": {"@spider": "usps_collection_boxes", "spider:collection_time": "2023-11-19T08:23:43.397954"}, "geometry": {"coordinates": [-88.676577142, 32.569717049], "type": "Point"}, "id": "0NBIVdQcIowO-rg7GU50fAjf3RI=", "properties": {"@spider": "usps_collection_boxes", "addr:city": "DALEVILLE", "addr:country": "US", "addr:full": "11039 HIGHWAY 39 N", "addr:postcode": "39326", "addr:state": "MS", "amenity": "post_box", "brand": "United States Postal Service", "brand:wikidata": "Q668687", "collection_times": "Mo-Fr 14:15; Sa 10:00", "name": "USPS COLLECTION BOX - BLUE BOX", "note": "ON 12/24 AND 12/31, THIS BOX MAY BE COLLECTED AS EARLY AS 12 NOON.", "nsi_id": "unitedstatespostalservice-a77078", "operator": "United States Postal Service", "operator:short": "USPS", "operator:type": "public", "operator:wikidata": "Q668687", "ref": "3932600000"}, "type": "Feature"}
{"dataset_attributes": {"@spider": "usps_collection_boxes", "spider:collection_time": "2023-11-19T08:23:43.397954"}, "geometry": {"coordinates": [-88.676577142, 32.569717049], "type": "Point"}, "id": "GntJkujZJjNvYi_7NwOe22srz9U=", "properties": {"@spider": "usps_collection_boxes", "addr:city": "DALEVILLE", "addr:country": "US", "addr:full": "11039 HIGHWAY 39 N", "addr:postcode": "39326", "addr:state": "MS", "amenity": "post_box", "brand": "United States Postal Service", "brand:wikidata": "Q668687", "collection_times": "Mo-Fr 14:15; Sa 10:00", "name": "USPS COLLECTION BOX - PO LOBBY", "note": "ON 12/24 AND 12/31, THIS BOX MAY BE COLLECTED AS EARLY AS 12 NOON.", "nsi_id": "unitedstatespostalservice-a77078", "operator": "United States Postal Service", "operator:short": "USPS", "operator:type": "public", "operator:wikidata": "Q668687", "ref": "3932600001"}, "type": "Feature"}
{"dataset_attributes": {"@spider": "usps_collection_boxes", "spider:collection_time": "2023-11-19T08:23:43.397954"}, "geometry": {"coordinates": [-88.676577142, 32.569717049], "type": "Point"}, "id": "-BPxMmtTyHT3SldBPBprsso6fhc=", "properties": {"@spider": "usps_collection_boxes", "addr:city": "DALEVILLE", "addr:country": "US", "addr:full": "11039 HIGHWAY 39", "addr:postcode": "39326", "addr:state": "MS", "amenity": "post_box", "brand": "United States Postal Service", "brand:wikidata": "Q668687", "collection_times": "Mo-Fr 14:15; Sa 10:00", "name": "USPS COLLECTION BOX - PO LOBBY", "note": "ON 12/24 AND 12/31, THIS BOX MAY BE COLLECTED AS EARLY AS 12 NOON.", "nsi_id": "unitedstatespostalservice-a77078", "operator": "United States Postal Service", "operator:short": "USPS", "operator:type": "public", "operator:wikidata": "Q668687", "ref": "3932600002"}, "type": "Feature"}
{"dataset_attributes": {"@spider": "usps_collection_boxes", "spider:collection_time": "2023-11-19T08:23:43.397954"}, "geometry": {"coordinates": [-89.1079908159, 32.438731826], "type": "Point"}, "id": "_lhShrI-lC6zCXZ328OK6_FW3No=", "properties": {"@spider": "usps_collection_boxes", "addr:city": "DECATUR", "addr:country": "US", "addr:full": "75 FOURTH AVE", "addr:postcode": "39327", "addr:state": "MS", "amenity": "post_box", "brand": "United States Postal Service", "brand:wikidata": "Q668687", "collection_times": "Mo-Fr 16:30; Sa 10:30", "name": "USPS COLLECTION BOX - BLUE BOX", "note": "ON 12/24 AND 12/31, THIS BOX MAY BE COLLECTED AS EARLY AS 12 NOON.", "nsi_id": "unitedstatespostalservice-a77078", "operator": "United States Postal Service", "operator:short": "USPS", "operator:type": "public", "operator:wikidata": "Q668687", "ref": "3932700000"}, "type": "Feature"}
{"dataset_attributes": {"@spider": "usps_collection_boxes", "spider:collection_time": "2023-11-19T08:23:43.397954"}, "geometry": {"coordinates": [-89.1080014, 32.438731408], "type": "Point"}, "id": "0TLbxFBessXiUomktcDkRnqhIA0=", "properties": {"@spider": "usps_collection_boxes", "addr:city": "DECATUR", "addr:country": "US", "addr:full": "75 FOURTH AVE", "addr:postcode": "39327", "addr:state": "MS", "amenity": "post_box", "brand": "United States Postal Service", "brand:wikidata": "Q668687", "collection_times": "Mo-Fr 16:30; Sa 10:30", "name": "USPS COLLECTION BOX - PO LOBBY", "note": "ON 12/24 AND 12/31, THIS BOX MAY BE COLLECTED AS EARLY AS 12 NOON.", "nsi_id": "unitedstatespostalservice-a77078", "operator": "United States Postal Service", "operator:short": "USPS", "operator:type": "public", "operator:wikidata": "Q668687", "ref": "3932700001"}, "type": "Feature"}
{"dataset_attributes": {"@spider": "usps_collection_boxes", "spider:collection_time": "2023-11-19T08:23:43.397954"}, "geometry": {"coordinates": [-89.108116028, 32.438734081], "type": "Point"}, "id": "6xd8qWBCqb1V3Tb_l_87tWf6AEU=", "properties": {"@spider": "usps_collection_boxes", "addr:city": "DECATUR", "addr:country": "US", "addr:full": "74 FOURTH AVE", "addr:postcode": "39327", "addr:state": "MS", "amenity": "post_box", "brand": "United States Postal Service", "brand:wikidata": "Q668687", "collection_times": "Mo-Fr 16:30; Sa 10:30", "name": "USPS COLLECTION BOX - PO LOBBY", "note": "ON 12/24 AND 12/31, THIS BOX MAY BE COLLECTED AS EARLY AS 12 NOON.", "nsi_id": "unitedstatespostalservice-a77078", "operator": "United States Postal Service", "operator:short": "USPS", "operator:type": "public", "operator:wikidata": "Q668687", "ref": "3932700002"}, "type": "Feature"}
{"dataset_attributes": {"@spider": "usps_collection_boxes", "spider:collection_time": "2023-11-19T08:23:43.397954"}, "geometry": {"coordinates": [-88.649465, 32.76988], "type": "Point"}, "id": "Lr1n9i8dbbPy_c9zPJT_UDGQoaE=", "properties": {"@spider": "usps_collection_boxes", "addr:city": "DEKALB", "addr:country": "US", "addr:full": "147 VETERAN ST", "addr:postcode": "39328", "addr:state": "MS", "amenity": "post_box", "brand": "United States Postal Service", "brand:wikidata": "Q668687", "collection_times": "Mo-Fr 16:00; Sa 11:00", "name": "USPS COLLECTION BOX - BLUE BOX", "note": "ON 12/24 AND 12/31, THIS BOX MAY BE COLLECTED AS EARLY AS 12 NOON.", "nsi_id": "unitedstatespostalservice-a77078", "operator": "United States Postal Service", "operator:short": "USPS", "operator:type": "public", "operator:wikidata": "Q668687", "ref": "3932800000"}, "type": "Feature"}
{"dataset_attributes": {"@spider": "usps_collection_boxes", "spider:collection_time": "2023-11-19T08:23:43.397954"}, "geometry": {"coordinates": [-88.654282684, 32.76779816], "type": "Point"}, "id": "TjDSp38vkBieN1rWjiWN9dTlpXk=", "properties": {"@spider": "usps_collection_boxes", "addr:city": "DEKALB", "addr:country": "US", "addr:full": "147 VETERAN ST", "addr:postcode": "39328", "addr:state": "MS", "amenity": "post_box", "brand": "United States Postal Service", "brand:wikidata": "Q668687", "collection_times": "Mo-Fr 16:30; Sa 11:00", "name": "USPS COLLECTION BOX - PO LOBBY", "note": "ON 12/24 AND 12/31, THIS BOX MAY BE COLLECTED AS EARLY AS 12 NOON.", "nsi_id": "unitedstatespostalservice-a77078", "operator": "United States Postal Service", "operator:short": "USPS", "operator:type": "public", "operator:wikidata": "Q668687", "ref": "3932800001"}, "type": "Feature"}
{"dataset_attributes": {"@spider": "usps_collection_boxes", "spider:collection_time": "2023-11-19T08:23:43.397954"}, "geometry": {"coordinates": [-88.654282684, 32.76779816], "type": "Point"}, "id": "VfQWI9qgCcJu7Hot-L9N1rE9qxA=", "properties": {"@spider": "usps_collection_boxes", "addr:city": "DEKALB", "addr:country": "US", "addr:full": "147 VETERAN ST", "addr:postcode": "39328", "addr:state": "MS", "amenity": "post_box", "brand": "United States Postal Service", "brand:wikidata": "Q668687", "collection_times": "Mo-Fr 16:30; Sa 11:00", "name": "USPS COLLECTION BOX - PO LOBBY", "note": "ON 12/24 AND 12/31, THIS BOX MAY BE COLLECTED AS EARLY AS 12 NOON.", "nsi_id": "unitedstatespostalservice-a77078", "operator": "United States Postal Service", "operator:short": "USPS", "operator:type": "public", "operator:wikidata": "Q668687", "ref": "3932800002"}, "type": "Feature"}
{"dataset_attributes": {"@spider": "usps_collection_boxes", "spider:collection_time": "2023-11-19T08:23:43.397954"}, "geometry": {"coordinates": [-88.829730036, 32.17503999], "type": "Point"}, "id": "fqDYRhDakpLFCIexmbaQgcj-Rdo=", "properties": {"@spider": "usps_collection_boxes", "addr:city": "ENTERPRISE", "addr:country": "US", "addr:full": "77 OLD MILL CREEK RD", "addr:postcode": "39330", "addr:state": "MS", "amenity": "post_box", "brand": "United States Postal Service", "brand:wikidata": "Q668687", "collection_times": "Mo-Fr 13:00; Sa 09:30", "name": "USPS COLLECTION BOX - BLUE BOX", "note": "ON 12/24 AND 12/31, THIS BOX MAY BE COLLECTED AS EARLY AS 12 NOON.", "nsi_id": "unitedstatespostalservice-a77078", "operator": "United States Postal Service", "operator:short": "USPS", "operator:type": "public", "operator:wikidata": "Q668687", "ref": "3933000000"}, "type": "Feature"}
{"dataset_attributes": {"@spider": "usps_collection_boxes", "spider:collection_time": "2023-11-19T08:23:43.397954"}, "geometry": {"coordinates": [-88.829730036, 32.17503999], "type": "Point"}, "id": "3CFbuF9gML9P0VLsLWcoOr2HmDM=", "properties": {"@spider": "usps_collection_boxes", "addr:city": "ENTERPRISE", "addr:country": "US", "addr:full": "77 OLD MILL CREEK RD", "addr:postcode": "39330", "addr:state": "MS", "amenity": "post_box", "brand": "United States Postal Service", "brand:wikidata": "Q668687", "collection_times": "Mo-Fr 13:00; Sa 09:30", "name": "USPS COLLECTION BOX - PO LOBBY", "note": "ON 12/24 AND 12/31, THIS BOX MAY BE COLLECTED AS EARLY AS 12 NOON.", "nsi_id": "unitedstatespostalservice-a77078", "operator": "United States Postal Service", "operator:short": "USPS", "operator:type": "public", "operator:wikidata": "Q668687", "ref": "3933000001"}, "type": "Feature"}
{"dataset_attributes": {"@spider": "usps_collection_boxes", "spider:collection_time": "2023-11-19T08:23:43.397954"}, "geometry": {"coordinates": [-88.824322731, 32.175713487], "type": "Point"}, "id": "9QBo4DCC_k2YojtWY2E_nW2CZX0=", "properties": {"@spider": "usps_collection_boxes", "addr:city": "ENTERPRISE", "addr:country": "US", "addr:full": "205 W BRIDGE ST", "addr:postcode": "39330", "addr:state": "MS", "amenity": "post_box", "brand": "United States Postal Service", "brand:wikidata": "Q668687", "collection_times": "Mo-Fr 13:00; Sa 11:00", "name": "USPS COLLECTION BOX - PO LOBBY", "note": "ON 12/24 AND 12/31, THIS BOX MAY BE COLLECTED AS EARLY AS 12 NOON.", "nsi_id": "unitedstatespostalservice-a77078", "operator": "United States Postal Service", "operator:short": "USPS", "operator:type": "public", "operator:wikidata": "Q668687", "ref": "3933000002"}, "type": "Feature"}
{"dataset_attributes": {"@spider": "usps_collection_boxes", "spider:collection_time": "2023-11-19T08:23:43.397954"}, "geometry": {"coordinates": [-89.027746478, 32.320071219], "type": "Point"}, "id": "kEwHi8AL9fa9hc9_aiUZMLXIqts=", "properties": {"@spider": "usps_collection_boxes", "addr:city": "HICKORY", "addr:country": "US", "addr:full": "7464 HIGHWAY 503", "addr:postcode": "39332", "addr:state": "MS", "amenity": "post_box", "brand": "United States Postal Service", "brand:wikidata": "Q668687", "collection_times": "Mo-Fr 15:00; Sa 08:15", "name": "USPS COLLECTION BOX - BLUE BOX", "note": "ON 12/24 AND 12/31, THIS BOX MAY BE COLLECTED AS EARLY AS 12 NOON.", "nsi_id": "unitedstatespostalservice-a77078", "operator": "United States Postal Service", "operator:short": "USPS", "operator:type": "public", "operator:wikidata": "Q668687", "ref": "3933200000"}, "type": "Feature"}
{"dataset_attributes": {"@spider": "usps_collection_boxes", "spider:collection_time": "2023-11-19T08:23:43.397954"}, "geometry": {"coordinates": [-89.027746478, 32.320071219], "type": "Point"}, "id": "tPbd-PYetd7Wz1yohmWJiO9ubHY=", "properties": {"@spider": "usps_collection_boxes", "addr:city": "HICKORY", "addr:country": "US", "addr:full": "7464 HIGHWAY 503", "addr:postcode": "39332", "addr:state": "MS", "amenity": "post_box", "brand": "United States Postal Service", "brand:wikidata": "Q668687", "collection_times": "Mo-Fr 15:00; Sa 08:15", "name": "USPS COLLECTION BOX - PO LOBBY", "note": "ON 12/24 AND 12/31, THIS BOX MAY BE COLLECTED AS EARLY AS 12 NOON.", "nsi_id": "unitedstatespostalservice-a77078", "operator": "United States Postal Service", "operator:short": "USPS", "operator:type": "public", "operator:wikidata": "Q668687", "ref": "3933200001"}, "type": "Feature"}
{"dataset_attributes": {"@spider": "usps_collection_boxes", "spider:collection_time": "2023-11-19T08:23:43.397954"}, "geometry": {"coordinates": [-89.027746478, 32.320071219], "type": "Point"}, "id": "peLDRClJ4fsfHvj7Li14iadoPH4=", "properties": {"@spider": "usps_collection_boxes", "addr:city": "HICKORY", "addr:country": "US", "addr:full": "7464 HIGHWAY 503", "addr:postcode": "39332", "addr:state": "MS", "amenity": "post_box", "brand": "United States Postal Service", "brand:wikidata": "Q668687", "collection_times": "Mo-Fr 15:00", "name": "USPS COLLECTION BOX - PO LOBBY", "note": "ON 12/24 AND 12/31, THIS BOX MAY BE COLLECTED AS EARLY AS 12 NOON.", "nsi_id": "unitedstatespostalservice-a77078", "operator": "United States Postal Service", "operator:short": "USPS", "operator:type": "public", "operator:wikidata": "Q668687", "ref": "3933200002"}, "type": "Feature"}
{"dataset_attributes": {"@spider": "usps_collection_boxes", "spider:collection_time": "2023-11-19T08:23:43.397954"}, "geometry": {"coordinates": [-88.5141139983, 32.5221840118], "type": "Point"}, "id": "WUWpZXertcREe1A3zXT-SKxahEc=", "properties": {"@spider": "usps_collection_boxes", "addr:city": "LAUDERDALE", "addr:country": "US", "addr:full": "9779 OLD HIGHWAY 45 N", "addr:postcode": "39335", "addr:state": "MS", "amenity": "post_box", "brand": "United States Postal Service", "brand:wikidata": "Q668687", "collection_times": "Mo-Fr 16:00; Sa 09:30", "name": "USPS COLLECTION BOX - BLUE BOX", "note": "ON 12/24 AND 12/31, THIS BOX MAY BE COLLECTED AS EARLY AS 12 NOON.", "nsi_id": "unitedstatespostalservice-a77078", "operator": "United States Postal Service", "operator:short": "USPS", "operator:type": "public", "operator:wikidata": "Q668687", "ref": "3933500000"}, "type": "Feature"}
{"dataset_attributes": {"@spider": "usps_collection_boxes", "spider:collection_time": "2023-11-19T08:23:43.397954"}, "geometry": {"coordinates": [-88.513909983, 32.52124], "type": "Point"}, "id": "JTcwgv0mYJctR0kUBKEjtRLnWh4=", "properties": {"@spider": "usps_collection_boxes", "addr:city": "LAUDERDALE", "addr:country": "US", "addr:full": "9770 OLD HIGHWAY 45 N", "addr:postcode": "39335", "addr:state": "MS", "amenity": "post_box", "brand": "United States Postal Service", "brand:wikidata": "Q668687", "collection_times": "Mo-Fr 16:15; Sa 10:00", "name": "USPS COLLECTION BOX - PO LOBBY", "note": "ON 12/24 AND 12/31, THIS BOX MAY BE COLLECTED AS EARLY AS 12 NOON.", "nsi_id": "unitedstatespostalservice-a77078", "operator": "United States Postal Service", "operator:short": "USPS", "operator:type": "public", "operator:wikidata": "Q668687", "ref": "3933500002"}, "type": "Feature"}
{"dataset_attributes": {"@spider": "usps_collection_boxes", "spider:collection_time": "2023-11-19T08:23:43.397954"}, "geometry": {"coordinates": [-89.232168743, 32.325221182], "type": "Point"}, "id": "2Zyp7uNrTPVFtm1uoWChU04u6ys=", "properties": {"@spider": "usps_collection_boxes", "addr:city": "LAWRENCE", "addr:country": "US", "addr:full": "5444 HIGHWAY 80", "addr:postcode": "39336", "addr:state": "MS", "amenity": "post_box", "brand": "United States Postal Service", "brand:wikidata": "Q668687", "collection_times": "Mo-Fr 11:30; Sa 09:30", "name": "USPS COLLECTION BOX - BLUE BOX", "nsi_id": "unitedstatespostalservice-a77078", "operator": "United States Postal Service", "operator:short": "USPS", "operator:type": "public", "operator:wikidata": "Q668687", "ref": "3933600000"}, "type": "Feature"}
{"dataset_attributes": {"@spider": "usps_collection_boxes", "spider:collection_time": "2023-11-19T08:23:43.397954"}, "geometry": {"coordinates": [-89.232168743, 32.325221182], "type": "Point"}, "id": "ir9VVvutv0X2LMKj1foqepBySD0=", "properties": {"@spider": "usps_collection_boxes", "addr:city": "LAWRENCE", "addr:country": "US", "addr:full": "5444 HIGHWAY 80", "addr:postcode": "39336", "addr:state": "MS", "amenity": "post_box", "brand": "United States Postal Service", "brand:wikidata": "Q668687", "collection_times": "Mo-Fr 11:15; Sa 09:30", "name": "USPS COLLECTION BOX - PO LOBBY", "nsi_id": "unitedstatespostalservice-a77078", "operator": "United States Postal Service", "operator:short": "USPS", "operator:type": "public", "operator:wikidata": "Q668687", "ref": "3933600001"}, "type": "Feature"}
{"dataset_attributes": {"@spider": "usps_collection_boxes", "spider:collection_time": "2023-11-19T08:23:43.397954"}, "geometry": {"coordinates": [-89.232168743, 32.325221182], "type": "Point"}, "id": "C0Mt7I8jeoF6tn34CJeH-JWDoLs=", "properties": {"@spider": "usps_collection_boxes", "addr:city": "LAWRENCE", "addr:country": "US", "addr:full": "5444 HIGHWAY 80", "addr:postcode": "39336", "addr:state": "MS", "amenity": "post_box", "brand": "United States Postal Service", "brand:wikidata": "Q668687", "collection_times": "Mo-Fr 11:30; Sa 09:45", "name": "USPS COLLECTION BOX - PO LOBBY", "nsi_id": "unitedstatespostalservice-a77078", "operator": "United States Postal Service", "operator:short": "USPS", "operator:type": "public", "operator:wikidata": "Q668687", "ref": "3933600002"}, "type": "Feature"}
{"dataset_attributes": {"@spider": "usps_collection_boxes", "spider:collection_time": "2023-11-19T08:23:43.397954"}, "geometry": {"coordinates": [-89.02485638, 32.527798827], "type": "Point"}, "id": "Y31uWfrWrxUyvf3o2tRL-E-hEyk=", "properties": {"@spider": "usps_collection_boxes", "addr:city": "LITTLE ROCK", "addr:country": "US", "addr:full": "45 LITTLE ROCK COUNTY LINE RD", "addr:postcode": "39337", "addr:state": "MS", "amenity": "post_box", "brand": "United States Postal Service", "brand:wikidata": "Q668687", "collection_times": "Mo-Fr 11:30; Sa 10:45", "name": "USPS COLLECTION BOX - BLUE BOX", "nsi_id": "unitedstatespostalservice-a77078", "operator": "United States Postal Service", "operator:short": "USPS", "operator:type": "public", "operator:wikidata": "Q668687", "ref": "3933700000"}, "type": "Feature"}
{"dataset_attributes": {"@spider": "usps_collection_boxes", "spider:collection_time": "2023-11-19T08:23:43.397954"}, "geometry": {"coordinates": [-89.02485638, 32.527798827], "type": "Point"}, "id": "fQD5hI3LJBzDurlYnmwbEi-mpoM=", "properties": {"@spider": "usps_collection_boxes", "addr:city": "LITTLE ROCK", "addr:country": "US", "addr:full": "45 LITTLE ROCK COUNTY LINE RD", "addr:postcode": "39337", "addr:state": "MS", "amenity": "post_box", "brand": "United States Postal Service", "brand:wikidata": "Q668687", "collection_times": "Mo-Fr 11:30; Sa 10:45", "name": "USPS COLLECTION BOX - PO LOBBY", "nsi_id": "unitedstatespostalservice-a77078", "operator": "United States Postal Service", "operator:short": "USPS", "operator:type": "public", "operator:wikidata": "Q668687", "ref": "3933700002"}, "type": "Feature"}
{"dataset_attributes": {"@spider": "usps_collection_boxes", "spider:collection_time": "2023-11-19T08:23:43.397954"}, "geometry": {"coordinates": [-89.26059498, 32.069338994], "type": "Point"}, "id": "OKe1Grn_dh3X15ZM1TV_DpHaNb4=", "properties": {"@spider": "usps_collection_boxes", "addr:city": "LOUIN", "addr:country": "US", "addr:full": "4246 HIGHWAY 15", "addr:postcode": "39338", "addr:state": "MS", "amenity": "post_box", "brand": "United States Postal Service", "brand:wikidata": "Q668687", "collection_times": "Mo-Fr 15:35; Sa 09:45", "name": "USPS COLLECTION BOX - BLUE BOX", "note": "ON 12/24 AND 12/31, THIS BOX MAY BE COLLECTED AS EARLY AS 12 NOON.", "nsi_id": "unitedstatespostalservice-a77078", "operator": "United States Postal Service", "operator:short": "USPS", "operator:type": "public", "operator:wikidata": "Q668687", "ref": "3933800000"}, "type": "Feature"}
{"dataset_attributes": {"@spider": "usps_collection_boxes", "spider:collection_time": "2023-11-19T08:23:43.397954"}, "geometry": {"coordinates": [-89.26059498, 32.069338994], "type": "Point"}, "id": "TZMsJd3XNzNxseGA4Jv8RJf7tcE=", "properties": {"@spider": "usps_collection_boxes", "addr:city": "LOUIN", "addr:country": "US", "addr:full": "4246 HIGHWAY 15", "addr:postcode": "39338", "addr:state": "MS", "amenity": "post_box", "brand": "United States Postal Service", "brand:wikidata": "Q668687", "collection_times": "Mo-Fr 15:30; Sa 09:45", "name": "USPS COLLECTION BOX - PO LOBBY", "note": "ON 12/24 AND 12/31, THIS BOX MAY BE COLLECTED AS EARLY AS 12 NOON.", "nsi_id": "unitedstatespostalservice-a77078", "operator": "United States Postal Service", "operator:short": "USPS", "operator:type": "public", "operator:wikidata": "Q668687", "ref": "3933800001"}, "type": "Feature"}
{"dataset_attributes": {"@spider": "usps_collection_boxes", "spider:collection_time": "2023-11-19T08:23:43.397954"}, "geometry": {"coordinates": [-89.26059498, 32.069338994], "type": "Point"}, "id": "RTjILN_xnLiVjlS2wwmwaKl0Dd8=", "properties": {"@spider": "usps_collection_boxes", "addr:city": "LOUIN", "addr:country": "US", "addr:full": "4246 HIGHWAY 15", "addr:postcode": "39338", "addr:state": "MS", "amenity": "post_box", "brand": "United States Postal Service", "brand:wikidata": "Q668687", "collection_times": "Mo-Fr 15:30; Sa 10:00", "name": "USPS COLLECTION BOX - PO LOBBY", "note": "ON 12/24 AND 12/31, THIS BOX MAY BE COLLECTED AS EARLY AS 12 NOON.", "nsi_id": "unitedstatespostalservice-a77078", "operator": "United States Postal Service", "operator:short": "USPS", "operator:type": "public", "operator:wikidata": "Q668687", "ref": "3933800002"}, "type": "Feature"}
{"dataset_attributes": {"@spider": "usps_collection_boxes", "spider:collection_time": "2023-11-19T08:23:43.397954"}, "geometry": {"coordinates": [-89.038006663, 33.124605841], "type": "Point"}, "id": "ag991TGoKBULxh1NYVZVg7NjLV0=", "properties": {"@spider": "usps_collection_boxes", "addr:city": "LOUISVILLE", "addr:country": "US", "addr:full": "16605 E MAIN ST", "addr:postcode": "39339", "addr:state": "MS", "amenity": "post_box", "brand": "United States Postal Service", "brand:wikidata": "Q668687", "collection_times": "Mo-Sa 16:30", "name": "USPS COLLECTION BOX - PO LOBBY", "note": "ON 12/24 AND 12/31, THIS BOX MAY BE COLLECTED AS EARLY AS 12 NOON.", "nsi_id": "unitedstatespostalservice-a77078", "operator": "United States Postal Service", "operator:short": "USPS", "operator:type": "public", "operator:wikidata": "Q668687", "ref": "3933900004"}, "type": "Feature"}
{"dataset_attributes": {"@spider": "usps_collection_boxes", "spider:collection_time": "2023-11-19T08:23:43.397954"}, "geometry": {"coordinates": [-89.038006663, 33.124605841], "type": "Point"}, "id": "-CftN0cd0SUFcu28M2oG5gVw9QA=", "properties": {"@spider": "usps_collection_boxes", "addr:city": "LOUISVILLE", "addr:country": "US", "addr:full": "16605 E MAIN ST", "addr:postcode": "39339", "addr:state": "MS", "amenity": "post_box", "brand": "United States Postal Service", "brand:wikidata": "Q668687", "collection_times": "Mo-Sa 16:30", "name": "USPS COLLECTION BOX - BLUE BOX", "note": "ON 12/24 AND 12/31, THIS BOX MAY BE COLLECTED AS EARLY AS 12 NOON.", "nsi_id": "unitedstatespostalservice-a77078", "operator": "United States Postal Service", "operator:short": "USPS", "operator:type": "public", "operator:wikidata": "Q668687", "ref": "3933900005"}, "type": "Feature"}
{"dataset_attributes": {"@spider": "usps_collection_boxes", "spider:collection_time": "2023-11-19T08:23:43.397954"}, "geometry": {"coordinates": [-89.038006663, 33.124605841], "type": "Point"}, "id": "cWkIvRLmZ-ivCsGJoCdZYF7VBns=", "properties": {"@spider": "usps_collection_boxes", "addr:city": "LOUISVILLE", "addr:country": "US", "addr:full": "16605 E MAIN ST", "addr:postcode": "39339", "addr:state": "MS", "amenity": "post_box", "brand": "United States Postal Service", "brand:wikidata": "Q668687", "collection_times": "Mo-Sa 16:30", "name": "USPS COLLECTION BOX - PO LOBBY", "note": "ON 12/24 AND 12/31, THIS BOX MAY BE COLLECTED AS EARLY AS 12 NOON.", "nsi_id": "unitedstatespostalservice-a77078", "operator": "United States Postal Service", "operator:short": "USPS", "operator:type": "public", "operator:wikidata": "Q668687", "ref": "3933900006"}, "type": "Feature"}
{"dataset_attributes": {"@spider": "usps_collection_boxes", "spider:collection_time": "2023-11-19T08:23:43.397954"}, "geometry": {"coordinates": [-89.038006663, 33.124605841], "type": "Point"}, "id": "kNjvhaF_8_IaB51_Q61K6pJp1Ic=", "properties": {"@spider": "usps_collection_boxes", "addr:city": "LOUISVILLE", "addr:country": "US", "addr:full": "16605 E MAIN ST", "addr:postcode": "39339", "addr:state": "MS", "amenity": "post_box", "brand": "United States Postal Service", "brand:wikidata": "Q668687", "collection_times": "Mo-Fr 16:30; Sa 11:00", "name": "USPS COLLECTION BOX - PO LOBBY", "note": "ON 12/24 AND 12/31, THIS BOX MAY BE COLLECTED AS EARLY AS 12 NOON.", "nsi_id": "unitedstatespostalservice-a77078", "operator": "United States Postal Service", "operator:short": "USPS", "operator:type": "public", "operator:wikidata": "Q668687", "ref": "3933900007"}, "type": "Feature"}
{"dataset_attributes": {"@spider": "usps_collection_boxes", "spider:collection_time": "2023-11-19T08:23:43.397954"}, "geometry": {"coordinates": [-88.560580001, 33.112139992], "type": "Point"}, "id": "BXd78QcMmNc68VrN0EAJuUCo7-c=", "properties": {"@spider": "usps_collection_boxes", "addr:city": "MACON", "addr:country": "US", "addr:full": "201 JEFFERSON ST", "addr:postcode": "39341", "addr:state": "MS", "amenity": "post_box", "brand": "United States Postal Service", "brand:wikidata": "Q668687", "collection_times": "Mo-Fr 16:15; Sa 11:20", "name": "USPS COLLECTION BOX - BLUE BOX", "note": "ON 12/24 AND 12/31, THIS BOX MAY BE COLLECTED AS EARLY AS 12 NOON.", "nsi_id": "unitedstatespostalservice-a77078", "operator": "United States Postal Service", "operator:short": "USPS", "operator:type": "public", "operator:wikidata": "Q668687", "ref": "3934100002"}, "type": "Feature"}
{"dataset_attributes": {"@spider": "usps_collection_boxes", "spider:collection_time": "2023-11-19T08:23:43.397954"}, "geometry": {"coordinates": [-88.560580001, 33.112139992], "type": "Point"}, "id": "_BWNcYTZ1e7VniISn7SVDNrAJcA=", "properties": {"@spider": "usps_collection_boxes", "addr:city": "MACON", "addr:country": "US", "addr:full": "201 JEFFERSON ST", "addr:postcode": "39341", "addr:state": "MS", "amenity": "post_box", "brand": "United States Postal Service", "brand:wikidata": "Q668687", "collection_times": "Mo-Fr 16:15; Sa 10:45", "name": "USPS COLLECTION BOX - PO LOBBY", "note": "ON 12/24 AND 12/31, THIS BOX MAY BE COLLECTED AS EARLY AS 12 NOON.", "nsi_id": "unitedstatespostalservice-a77078", "operator": "United States Postal Service", "operator:short": "USPS", "operator:type": "public", "operator:wikidata": "Q668687", "ref": "3934100004"}, "type": "Feature"}
{"dataset_attributes": {"@spider": "usps_collection_boxes", "spider:collection_time": "2023-11-19T08:23:43.397954"}, "geometry": {"coordinates": [-88.560410016, 33.108490008], "type": "Point"}, "id": "v3vP5L7N4QGlS0dvOu-c6am9FYc=", "properties": {"@spider": "usps_collection_boxes", "addr:city": "MACON", "addr:country": "US", "addr:full": "3022 JEFFERSON ST", "addr:postcode": "39341", "addr:state": "MS", "amenity": "post_box", "brand": "United States Postal Service", "brand:wikidata": "Q668687", "collection_times": "Mo-Fr 16:00; Sa 11:00", "name": "USPS COLLECTION BOX - PO LOBBY", "note": "ON 12/24 AND 12/31, THIS BOX MAY BE COLLECTED AS EARLY AS 12 NOON.", "nsi_id": "unitedstatespostalservice-a77078", "operator": "United States Postal Service", "operator:short": "USPS", "operator:type": "public", "operator:wikidata": "Q668687", "ref": "3934100005"}, "type": "Feature"}
{"dataset_attributes": {"@spider": "usps_collection_boxes", "spider:collection_time": "2023-11-19T08:23:43.397954"}, "geometry": {"coordinates": [-88.650748799, 32.420605043], "type": "Point"}, "id": "fgS0P0SJANuFdEd4aChRHCrO0WU=", "properties": {"@spider": "usps_collection_boxes", "addr:city": "MARION", "addr:country": "US", "addr:full": "5744 DALE DR", "addr:postcode": "39342", "addr:state": "MS", "amenity": "post_box", "brand": "United States Postal Service", "brand:wikidata": "Q668687", "collection_times": "Mo-Fr 16:15; Sa 10:15", "name": "USPS COLLECTION BOX - BLUE BOX", "note": "ON 12/24 AND 12/31, THIS BOX MAY BE COLLECTED AS EARLY AS 12 NOON.", "nsi_id": "unitedstatespostalservice-a77078", "operator": "United States Postal Service", "operator:short": "USPS", "operator:type": "public", "operator:wikidata": "Q668687", "ref": "3934200000"}, "type": "Feature"}
{"dataset_attributes": {"@spider": "usps_collection_boxes", "spider:collection_time": "2023-11-19T08:23:43.397954"}, "geometry": {"coordinates": [-88.650748799, 32.420605043], "type": "Point"}, "id": "oUA9SdDWmS-uAGk6DoWOkX-WLQo=", "properties": {"@spider": "usps_collection_boxes", "addr:city": "MARION", "addr:country": "US", "addr:full": "5744 DALE DR", "addr:postcode": "39342", "addr:state": "MS", "amenity": "post_box", "brand": "United States Postal Service", "brand:wikidata": "Q668687", "collection_times": "Mo-Fr 16:15; Sa 10:15", "name": "USPS COLLECTION BOX - PO LOBBY", "note": "ON 12/24 AND 12/31, THIS BOX MAY BE COLLECTED AS EARLY AS 12 NOON.", "nsi_id": "unitedstatespostalservice-a77078", "operator": "United States Postal Service", "operator:short": "USPS", "operator:type": "public", "operator:wikidata": "Q668687", "ref": "3934200001"}, "type": "Feature"}
{"dataset_attributes": {"@spider": "usps_collection_boxes", "spider:collection_time": "2023-11-19T08:23:43.397954"}, "geometry": {"coordinates": [-88.650748799, 32.420605043], "type": "Point"}, "id": "sX1KY9MMm2ZGXQcVhVGG_2G5OAk=", "properties": {"@spider": "usps_collection_boxes", "addr:city": "MARION", "addr:country": "US", "addr:full": "5744 DALE DR", "addr:postcode": "39342", "addr:state": "MS", "amenity": "post_box", "brand": "United States Postal Service", "brand:wikidata": "Q668687", "collection_times": "Mo-Fr 16:30; Sa 10:30", "name": "USPS COLLECTION BOX - PO LOBBY", "note": "ON 12/24 AND 12/31, THIS BOX MAY BE COLLECTED AS EARLY AS 12 NOON.", "nsi_id": "unitedstatespostalservice-a77078", "operator": "United States Postal Service", "operator:short": "USPS", "operator:type": "public", "operator:wikidata": "Q668687", "ref": "3934200002"}, "type": "Feature"}
{"dataset_attributes": {"@spider": "usps_collection_boxes", "spider:collection_time": "2023-11-19T08:23:43.397954"}, "geometry": {"coordinates": [-89.149951866, 32.320231756], "type": "Point"}, "id": "MCemlOLNGBYRVA5QiX7vQ01FfM4=", "properties": {"@spider": "usps_collection_boxes", "addr:city": "NEWTON", "addr:country": "US", "addr:full": "111 E CHURCH ST", "addr:postcode": "39345", "addr:state": "MS", "amenity": "post_box", "brand": "United States Postal Service", "brand:wikidata": "Q668687", "collection_times": "Mo-Fr 16:40; Sa 10:30", "name": "USPS COLLECTION BOX - PO LOBBY", "note": "ON 12/24 AND 12/31, THIS BOX MAY BE COLLECTED AS EARLY AS 12 NOON.", "nsi_id": "unitedstatespostalservice-a77078", "operator": "United States Postal Service", "operator:short": "USPS", "operator:type": "public", "operator:wikidata": "Q668687", "ref": "3934500005"}, "type": "Feature"}
{"dataset_attributes": {"@spider": "usps_collection_boxes", "spider:collection_time": "2023-11-19T08:23:43.397954"}, "geometry": {"coordinates": [-89.149834684, 32.32021655], "type": "Point"}, "id": "FC2pnN3PT8XZNxkvwmtP6H_dOYI=", "properties": {"@spider": "usps_collection_boxes", "addr:city": "NEWTON", "addr:country": "US", "addr:full": "201 E CHURCH ST", "addr:postcode": "39345", "addr:state": "MS", "amenity": "post_box", "brand": "United States Postal Service", "brand:wikidata": "Q668687", "collection_times": "Mo-Fr 16:30; Sa 10:00", "name": "USPS COLLECTION BOX - BLUE BOX", "note": "ON 12/24 AND 12/31, THIS BOX MAY BE COLLECTED AS EARLY AS 12 NOON.", "nsi_id": "unitedstatespostalservice-a77078", "operator": "United States Postal Service", "operator:short": "USPS", "operator:type": "public", "operator:wikidata": "Q668687", "ref": "3934500006"}, "type": "Feature"}
{"dataset_attributes": {"@spider": "usps_collection_boxes", "spider:collection_time": "2023-11-19T08:23:43.397954"}, "geometry": {"coordinates": [-89.149951866, 32.320231756], "type": "Point"}, "id": "pLAc1S9GM3ng5agwoH-hGSRPfS8=", "properties": {"@spider": "usps_collection_boxes", "addr:city": "NEWTON", "addr:country": "US", "addr:full": "111 E CHURCH ST", "addr:postcode": "39345", "addr:state": "MS", "amenity": "post_box", "brand": "United States Postal Service", "brand:wikidata": "Q668687", "collection_times": "Mo-Fr 16:30; Sa 10:30", "name": "USPS COLLECTION BOX - PO LOBBY", "note": "ON 12/24 AND 12/31, THIS BOX MAY BE COLLECTED AS EARLY AS 12 NOON.", "nsi_id": "unitedstatespostalservice-a77078", "operator": "United States Postal Service", "operator:short": "USPS", "operator:type": "public", "operator:wikidata": "Q668687", "ref": "3934500007"}, "type": "Feature"}
{"dataset_attributes": {"@spider": "usps_collection_boxes", "spider:collection_time": "2023-11-19T08:23:43.397954"}, "geometry": {"coordinates": [-89.063989448, 32.993951615], "type": "Point"}, "id": "0ynJj2vB9KIuuKeCpoRZCx2ORJY=", "properties": {"@spider": "usps_collection_boxes", "addr:city": "NOXAPATER", "addr:country": "US", "addr:full": "4991 KILPATRICK ST", "addr:postcode": "39346", "addr:state": "MS", "amenity": "post_box", "brand": "United States Postal Service", "brand:wikidata": "Q668687", "collection_times": "Mo-Fr 16:00; Sa 10:30", "name": "USPS COLLECTION BOX - PO LOBBY", "note": "ON 12/24 AND 12/31, THIS BOX MAY BE COLLECTED AS EARLY AS 12 NOON.", "nsi_id": "unitedstatespostalservice-a77078", "operator": "United States Postal Service", "operator:short": "USPS", "operator:type": "public", "operator:wikidata": "Q668687", "ref": "3934600000"}, "type": "Feature"}
{"dataset_attributes": {"@spider": "usps_collection_boxes", "spider:collection_time": "2023-11-19T08:23:43.397954"}, "geometry": {"coordinates": [-89.063989448, 32.993951615], "type": "Point"}, "id": "kMigLDSoJYBuHU4c9jROXxF7VMk=", "properties": {"@spider": "usps_collection_boxes", "addr:city": "NOXAPATER", "addr:country": "US", "addr:full": "4991 KILPATRICK ST", "addr:postcode": "39346", "addr:state": "MS", "amenity": "post_box", "brand": "United States Postal Service", "brand:wikidata": "Q668687", "collection_times": "Mo-Fr 16:00; Sa 10:30", "name": "USPS COLLECTION BOX - BLUE BOX", "note": "ON 12/24 AND 12/31, THIS BOX MAY BE COLLECTED AS EARLY AS 12 NOON.", "nsi_id": "unitedstatespostalservice-a77078", "operator": "United States Postal Service", "operator:short": "USPS", "operator:type": "public", "operator:wikidata": "Q668687", "ref": "3934600001"}, "type": "Feature"}
{"dataset_attributes": {"@spider": "usps_collection_boxes", "spider:collection_time": "2023-11-19T08:23:43.397954"}, "geometry": {"coordinates": [-89.063989448, 32.993951615], "type": "Point"}, "id": "oq5aKOdHSC-QhUk0W4wAB3HRISk=", "properties": {"@spider": "usps_collection_boxes", "addr:city": "NOXAPATER", "addr:country": "US", "addr:full": "4991 KILPATRICK ST", "addr:postcode": "39346", "addr:state": "MS", "amenity": "post_box", "brand": "United States Postal Service", "brand:wikidata": "Q668687", "collection_times": "Mo-Fr 15:45; Sa 10:30", "name": "USPS COLLECTION BOX - PO LOBBY", "note": "ON 12/24 AND 12/31, THIS BOX MAY BE COLLECTED AS EARLY AS 12 NOON.", "nsi_id": "unitedstatespostalservice-a77078", "operator": "United States Postal Service", "operator:short": "USPS", "operator:type": "public", "operator:wikidata": "Q668687", "ref": "3934600002"}, "type": "Feature"}
{"dataset_attributes": {"@spider": "usps_collection_boxes", "spider:collection_time": "2023-11-19T08:23:43.397954"}, "geometry": {"coordinates": [-88.880854291, 32.039242548], "type": "Point"}, "id": "mutMTJCowSg6ur0OBpR4xSEtncs=", "properties": {"@spider": "usps_collection_boxes", "addr:city": "PACHUTA", "addr:country": "US", "addr:full": "201 E MAIN ST", "addr:postcode": "39347", "addr:state": "MS", "amenity": "post_box", "brand": "United States Postal Service", "brand:wikidata": "Q668687", "collection_times": "Mo-Fr 12:00; Sa 10:00", "name": "USPS COLLECTION BOX - BLUE BOX", "nsi_id": "unitedstatespostalservice-a77078", "operator": "United States Postal Service", "operator:short": "USPS", "operator:type": "public", "operator:wikidata": "Q668687", "ref": "3934700000"}, "type": "Feature"}
{"dataset_attributes": {"@spider": "usps_collection_boxes", "spider:collection_time": "2023-11-19T08:23:43.397954"}, "geometry": {"coordinates": [-88.880854291, 32.039242548], "type": "Point"}, "id": "N81sHud1xQm13YPuY2U9pB_jjEw=", "properties": {"@spider": "usps_collection_boxes", "addr:city": "PACHUTA", "addr:country": "US", "addr:full": "201 E MAIN ST", "addr:postcode": "39347", "addr:state": "MS", "amenity": "post_box", "brand": "United States Postal Service", "brand:wikidata": "Q668687", "collection_times": "Mo-Fr 11:50; Sa 10:00", "name": "USPS COLLECTION BOX - PO LOBBY", "nsi_id": "unitedstatespostalservice-a77078", "operator": "United States Postal Service", "operator:short": "USPS", "operator:type": "public", "operator:wikidata": "Q668687", "ref": "3934700001"}, "type": "Feature"}
{"dataset_attributes": {"@spider": "usps_collection_boxes", "spider:collection_time": "2023-11-19T08:23:43.397954"}, "geometry": {"coordinates": [-88.880854291, 32.039242548], "type": "Point"}, "id": "uzakfLOhPrXL6DRN7cv7UVmppgU=", "properties": {"@spider": "usps_collection_boxes", "addr:city": "PACHUTA", "addr:country": "US", "addr:full": "201 E MAIN ST", "addr:postcode": "39347", "addr:state": "MS", "amenity": "post_box", "brand": "United States Postal Service", "brand:wikidata": "Q668687", "collection_times": "Mo-Fr 12:00; Sa 10:00", "name": "USPS COLLECTION BOX - PO LOBBY", "nsi_id": "unitedstatespostalservice-a77078", "operator": "United States Postal Service", "operator:short": "USPS", "operator:type": "public", "operator:wikidata": "Q668687", "ref": "3934700002"}, "type": "Feature"}
{"dataset_attributes": {"@spider": "usps_collection_boxes", "spider:collection_time": "2023-11-19T08:23:43.397954"}, "geometry": {"coordinates": [-89.037932796, 32.031018363], "type": "Point"}, "id": "8bGLuKrlb-_qh9ya9MuByS4FFFg=", "properties": {"@spider": "usps_collection_boxes", "addr:city": "PAULDING", "addr:country": "US", "addr:full": "1783 HIGHWAY 503", "addr:postcode": "39348", "addr:state": "MS", "amenity": "post_box", "brand": "United States Postal Service", "brand:wikidata": "Q668687", "collection_times": "Mo-Fr 13:00; Sa 10:30", "name": "USPS COLLECTION BOX - BLUE BOX", "note": "ON 12/24 AND 12/31, THIS BOX MAY BE COLLECTED AS EARLY AS 12 NOON.", "nsi_id": "unitedstatespostalservice-a77078", "operator": "United States Postal Service", "operator:short": "USPS", "operator:type": "public", "operator:wikidata": "Q668687", "ref": "3934800000"}, "type": "Feature"}
{"dataset_attributes": {"@spider": "usps_collection_boxes", "spider:collection_time": "2023-11-19T08:23:43.397954"}, "geometry": {"coordinates": [-89.037932796, 32.031018363], "type": "Point"}, "id": "zb6oGo-iDLr2VbZ1bujEwLUL73A=", "properties": {"@spider": "usps_collection_boxes", "addr:city": "PAULDING", "addr:country": "US", "addr:full": "1783 HIGHWAY 503", "addr:postcode": "39348", "addr:state": "MS", "amenity": "post_box", "brand": "United States Postal Service", "brand:wikidata": "Q668687", "collection_times": "Mo-Fr 13:00", "name": "USPS COLLECTION BOX - PO LOBBY", "note": "ON 12/24 AND 12/31, THIS BOX MAY BE COLLECTED AS EARLY AS 12 NOON.", "nsi_id": "unitedstatespostalservice-a77078", "operator": "United States Postal Service", "operator:short": "USPS", "operator:type": "public", "operator:wikidata": "Q668687", "ref": "3934800001"}, "type": "Feature"}
{"dataset_attributes": {"@spider": "usps_collection_boxes", "spider:collection_time": "2023-11-19T08:23:43.397954"}, "geometry": {"coordinates": [-89.037932796, 32.031018363], "type": "Point"}, "id": "PmznL0pcZVmCzjM4Gd4hcGtWbJU=", "properties": {"@spider": "usps_collection_boxes", "addr:city": "PAULDING", "addr:country": "US", "addr:full": "1783 HIGHWAY 503", "addr:postcode": "39348", "addr:state": "MS", "amenity": "post_box", "brand": "United States Postal Service", "brand:wikidata": "Q668687", "collection_times": "Mo-Fr 13:00", "name": "USPS COLLECTION BOX - PO LOBBY", "note": "ON 12/24 AND 12/31, THIS BOX MAY BE COLLECTED AS EARLY AS 12 NOON.", "nsi_id": "unitedstatespostalservice-a77078", "operator": "United States Postal Service", "operator:short": "USPS", "operator:type": "public", "operator:wikidata": "Q668687", "ref": "3934800002"}, "type": "Feature"}
{"dataset_attributes": {"@spider": "usps_collection_boxes", "spider:collection_time": "2023-11-19T08:23:43.397954"}, "geometry": {"coordinates": [-89.12711229, 32.770292467], "type": "Point"}, "id": "dz1Eh9sSKY-wEY-dwr8dvOWTcPA=", "properties": {"@spider": "usps_collection_boxes", "addr:city": "PHILADELPHIA", "addr:country": "US", "addr:full": "523 W MAIN ST", "addr:postcode": "39350", "addr:state": "MS", "amenity": "post_box", "brand": "United States Postal Service", "brand:wikidata": "Q668687", "collection_times": "Mo-Fr 11:00", "name": "USPS COLLECTION BOX - BLUE BOX", "nsi_id": "unitedstatespostalservice-a77078", "operator": "United States Postal Service", "operator:short": "USPS", "operator:type": "public", "operator:wikidata": "Q668687", "ref": "3935000001"}, "type": "Feature"}
{"dataset_attributes": {"@spider": "usps_collection_boxes", "spider:collection_time": "2023-11-19T08:23:43.397954"}, "geometry": {"coordinates": [-89.102791754, 32.756278189], "type": "Point"}, "id": "l_G5lAo202_gxx0o1Wh1qs3-LVQ=", "properties": {"@spider": "usps_collection_boxes", "addr:city": "PHILADELPHIA", "addr:country": "US", "addr:full": "1 GOVERNMENT ST", "addr:postcode": "39350", "addr:state": "MS", "amenity": "post_box", "brand": "United States Postal Service", "brand:wikidata": "Q668687", "collection_times": "Mo-Fr 16:45; Sa 16:00", "name": "USPS COLLECTION BOX - BLUE BOX", "note": "ON 12/24 AND 12/31, THIS BOX MAY BE COLLECTED AS EARLY AS 12 NOON.", "nsi_id": "unitedstatespostalservice-a77078", "operator": "United States Postal Service", "operator:short": "USPS", "operator:type": "public", "operator:wikidata": "Q668687", "ref": "3935000003"}, "type": "Feature"}
{"dataset_attributes": {"@spider": "usps_collection_boxes", "spider:collection_time": "2023-11-19T08:23:43.397954"}, "geometry": {"coordinates": [-89.102791754, 32.756278189], "type": "Point"}, "id": "BqD2OJCLryYSVCJr27AqqT4x-SY=", "properties": {"@spider": "usps_collection_boxes", "addr:city": "PHILADELPHIA", "addr:country": "US", "addr:full": "1 GOVERNMENT ST", "addr:postcode": "39350", "addr:state": "MS", "amenity": "post_box", "brand": "United States Postal Service", "brand:wikidata": "Q668687", "collection_times": "Mo-Fr 16:45; Sa 16:00", "name": "USPS COLLECTION BOX - BLUE BOX", "note": "ON 12/24 AND 12/31, THIS BOX MAY BE COLLECTED AS EARLY AS 12 NOON.", "nsi_id": "unitedstatespostalservice-a77078", "operator": "United States Postal Service", "operator:short": "USPS", "operator:type": "public", "operator:wikidata": "Q668687", "ref": "3935000004"}, "type": "Feature"}
{"dataset_attributes": {"@spider": "usps_collection_boxes", "spider:collection_time": "2023-11-19T08:23:43.397954"}, "geometry": {"coordinates": [-89.109824609, 32.771750031], "type": "Point"}, "id": "o1UYetNPPWMbrdzm9jPeiRTWWJw=", "properties": {"@spider": "usps_collection_boxes", "addr:city": "PHILADELPHIA", "addr:country": "US", "addr:full": "422 E BEACON ST", "addr:postcode": "39350", "addr:state": "MS", "amenity": "post_box", "brand": "United States Postal Service", "brand:wikidata": "Q668687", "collection_times": "Mo-Fr 10:00", "name": "USPS COLLECTION BOX - BLUE BOX", "nsi_id": "unitedstatespostalservice-a77078", "operator": "United States Postal Service", "operator:short": "USPS", "operator:type": "public", "operator:wikidata": "Q668687", "ref": "3935000006"}, "type": "Feature"}
{"dataset_attributes": {"@spider": "usps_collection_boxes", "spider:collection_time": "2023-11-19T08:23:43.397954"}, "geometry": {"coordinates": [-89.099345706, 32.771051181], "type": "Point"}, "id": "LbyQewUDN8h1Ez0qQFcg2nkI-eo=", "properties": {"@spider": "usps_collection_boxes", "addr:city": "PHILADELPHIA", "addr:country": "US", "addr:full": "584 E MAIN ST", "addr:postcode": "39350", "addr:state": "MS", "amenity": "post_box", "brand": "United States Postal Service", "brand:wikidata": "Q668687", "collection_times": "Mo-Fr 08:00", "name": "USPS COLLECTION BOX - BLUE BOX", "nsi_id": "unitedstatespostalservice-a77078", "operator": "United States Postal Service", "operator:short": "USPS", "operator:type": "public", "operator:wikidata": "Q668687", "ref": "3935000007"}, "type": "Feature"}
{"dataset_attributes": {"@spider": "usps_collection_boxes", "spider:collection_time": "2023-11-19T08:23:43.397954"}, "geometry": {"coordinates": [-89.102791754, 32.756278189], "type": "Point"}, "id": "QQt5vzjbdaWqw5J2DtGSn_aRMtg=", "properties": {"@spider": "usps_collection_boxes", "addr:city": "PHILADELPHIA", "addr:country": "US", "addr:full": "1 GOVERNMENT ST", "addr:postcode": "39350", "addr:state": "MS", "amenity": "post_box", "brand": "United States Postal Service", "brand:wikidata": "Q668687", "collection_times": "Mo-Fr 16:45; Sa 16:00", "name": "USPS COLLECTION BOX - PO LOBBY", "note": "ON 12/24 AND 12/31, THIS BOX MAY BE COLLECTED AS EARLY AS 12 NOON.", "nsi_id": "unitedstatespostalservice-a77078", "operator": "United States Postal Service", "operator:short": "USPS", "operator:type": "public", "operator:wikidata": "Q668687", "ref": "3935000011"}, "type": "Feature"}
{"dataset_attributes": {"@spider": "usps_collection_boxes", "spider:collection_time": "2023-11-19T08:23:43.397954"}, "geometry": {"coordinates": [-89.102791754, 32.756278189], "type": "Point"}, "id": "nSrw1LEhTlrkmDfmbp_FuBFCjTE=", "properties": {"@spider": "usps_collection_boxes", "addr:city": "PHILADELPHIA", "addr:country": "US", "addr:full": "1 GOVERNMENT ST", "addr:postcode": "39350", "addr:state": "MS", "amenity": "post_box", "brand": "United States Postal Service", "brand:wikidata": "Q668687", "collection_times": "Mo-Fr 16:45; Sa 16:00", "name": "USPS COLLECTION BOX - PO LOBBY", "note": "ON 12/24 AND 12/31, THIS BOX MAY BE COLLECTED AS EARLY AS 12 NOON.", "nsi_id": "unitedstatespostalservice-a77078", "operator": "United States Postal Service", "operator:short": "USPS", "operator:type": "public", "operator:wikidata": "Q668687", "ref": "3935000012"}, "type": "Feature"}
{"dataset_attributes": {"@spider": "usps_collection_boxes", "spider:collection_time": "2023-11-19T08:23:43.397954"}, "geometry": {"coordinates": [-89.110429999, 32.771130015], "type": "Point"}, "id": "yZKaKTz42L-v4lagO3bwXnMgiAM=", "properties": {"@spider": "usps_collection_boxes", "addr:city": "PHILADELPHIA", "addr:country": "US", "addr:full": "394 MAIN ST", "addr:postcode": "39350", "addr:state": "MS", "amenity": "post_box", "brand": "United States Postal Service", "brand:wikidata": "Q668687", "collection_times": "Mo-Fr 08:00", "name": "USPS COLLECTION BOX - BLUE BOX", "nsi_id": "unitedstatespostalservice-a77078", "operator": "United States Postal Service", "operator:short": "USPS", "operator:type": "public", "operator:wikidata": "Q668687", "ref": "3935000016"}, "type": "Feature"}
{"dataset_attributes": {"@spider": "usps_collection_boxes", "spider:collection_time": "2023-11-19T08:23:43.397954"}, "geometry": {"coordinates": [-89.112569983, 32.781939987], "type": "Point"}, "id": "traRfyhd-JkUizm15qfRGYWE0YU=", "properties": {"@spider": "usps_collection_boxes", "addr:city": "PHILADELPHIA", "addr:country": "US", "addr:full": "714 PECAN AVE", "addr:postcode": "39350", "addr:state": "MS", "amenity": "post_box", "brand": "United States Postal Service", "brand:wikidata": "Q668687", "collection_times": "Mo-Fr 11:00", "name": "USPS COLLECTION BOX - BLUE BOX", "nsi_id": "unitedstatespostalservice-a77078", "operator": "United States Postal Service", "operator:short": "USPS", "operator:type": "public", "operator:wikidata": "Q668687", "ref": "3935000017"}, "type": "Feature"}
{"dataset_attributes": {"@spider": "usps_collection_boxes", "spider:collection_time": "2023-11-19T08:23:43.397954"}, "geometry": {"coordinates": [-89.140350013, 32.762638648], "type": "Point"}, "id": "LFKHObnzKOSH4H4xKRUJQRamJYQ=", "properties": {"@spider": "usps_collection_boxes", "addr:city": "PHILADELPHIA", "addr:country": "US", "addr:full": "200 CANAL PL", "addr:postcode": "39350", "addr:state": "MS", "amenity": "post_box", "brand": "United States Postal Service", "brand:wikidata": "Q668687", "collection_times": "Mo-Fr 08:00", "name": "USPS COLLECTION BOX - BLUE BOX", "nsi_id": "unitedstatespostalservice-a77078", "operator": "United States Postal Service", "operator:short": "USPS", "operator:type": "public", "operator:wikidata": "Q668687", "ref": "3935000019"}, "type": "Feature"}
{"dataset_attributes": {"@spider": "usps_collection_boxes", "spider:collection_time": "2023-11-19T08:23:43.397954"}, "geometry": {"coordinates": [-89.090599163, 32.770827066], "type": "Point"}, "id": "sYfoWw8gbAdI62yF9nut_1Iixng=", "properties": {"@spider": "usps_collection_boxes", "addr:city": "PHILADELPHIA", "addr:country": "US", "addr:full": "1120 E MAIN ST", "addr:postcode": "39350", "addr:state": "MS", "amenity": "post_box", "brand": "United States Postal Service", "brand:wikidata": "Q668687", "collection_times": "Mo-Fr 08:30", "name": "USPS COLLECTION BOX - BLUE BOX", "nsi_id": "unitedstatespostalservice-a77078", "operator": "United States Postal Service", "operator:short": "USPS", "operator:type": "public", "operator:wikidata": "Q668687", "ref": "3935000020"}, "type": "Feature"}
{"dataset_attributes": {"@spider": "usps_collection_boxes", "spider:collection_time": "2023-11-19T08:23:43.397954"}, "geometry": {"coordinates": [-89.102791754, 32.756278189], "type": "Point"}, "id": "I7Vh5yCGvYvF4-F3x6q_Ir0KFPY=", "properties": {"@spider": "usps_collection_boxes", "addr:city": "PHILADELPHIA", "addr:country": "US", "addr:full": "1 GOVERNMENT ST", "addr:postcode": "39350", "addr:state": "MS", "amenity": "post_box", "brand": "United States Postal Service", "brand:wikidata": "Q668687", "collection_times": "Mo-Fr 16:30; Sa 11:00", "name": "USPS COLLECTION BOX - PO LOBBY", "note": "ON 12/24 AND 12/31, THIS BOX MAY BE COLLECTED AS EARLY AS 12 NOON.", "nsi_id": "unitedstatespostalservice-a77078", "operator": "United States Postal Service", "operator:short": "USPS", "operator:type": "public", "operator:wikidata": "Q668687", "ref": "3935000021"}, "type": "Feature"}
{"dataset_attributes": {"@spider": "usps_collection_boxes", "spider:collection_time": "2023-11-19T08:23:43.397954"}, "geometry": {"coordinates": [-88.472316897, 32.729816319], "type": "Point"}, "id": "tTvaAuVDbK34RR0FNXDKv_pCn0U=", "properties": {"@spider": "usps_collection_boxes", "addr:city": "PORTERVILLE", "addr:country": "US", "addr:full": "54 PORTERVILLE RD", "addr:postcode": "39352", "addr:state": "MS", "amenity": "post_box", "brand": "United States Postal Service", "brand:wikidata": "Q668687", "collection_times": "Mo-Fr 11:30; Sa 08:15", "name": "USPS COLLECTION BOX - BLUE BOX", "nsi_id": "unitedstatespostalservice-a77078", "operator": "United States Postal Service", "operator:short": "USPS", "operator:type": "public", "operator:wikidata": "Q668687", "ref": "3935200000"}, "type": "Feature"}
{"dataset_attributes": {"@spider": "usps_collection_boxes", "spider:collection_time": "2023-11-19T08:23:43.397954"}, "geometry": {"coordinates": [-88.472316897, 32.729816319], "type": "Point"}, "id": "GZ6ekuyRw5AZFfMrYZiqAW1jcaY=", "properties": {"@spider": "usps_collection_boxes", "addr:city": "PORTERVILLE", "addr:country": "US", "addr:full": "54 PORTERVILLE RD", "addr:postcode": "39352", "addr:state": "MS", "amenity": "post_box", "brand": "United States Postal Service", "brand:wikidata": "Q668687", "collection_times": "Mo-Fr 11:30; Sa 08:15", "name": "USPS COLLECTION BOX - PO LOBBY", "nsi_id": "unitedstatespostalservice-a77078", "operator": "United States Postal Service", "operator:short": "USPS", "operator:type": "public", "operator:wikidata": "Q668687", "ref": "3935200001"}, "type": "Feature"}
{"dataset_attributes": {"@spider": "usps_collection_boxes", "spider:collection_time": "2023-11-19T08:23:43.397954"}, "geometry": {"coordinates": [-88.472316897, 32.729816319], "type": "Point"}, "id": "z_u4S0XFdZl76ts8gOxdNM2CRZM=", "properties": {"@spider": "usps_collection_boxes", "addr:city": "PORTERVILLE", "addr:country": "US", "addr:full": "54 PORTERVILLE RD", "addr:postcode": "39352", "addr:state": "MS", "amenity": "post_box", "brand": "United States Postal Service", "brand:wikidata": "Q668687", "collection_times": "Mo-Fr 11:30", "name": "USPS COLLECTION BOX - PO LOBBY", "nsi_id": "unitedstatespostalservice-a77078", "operator": "United States Postal Service", "operator:short": "USPS", "operator:type": "public", "operator:wikidata": "Q668687", "ref": "3935200002"}, "type": "Feature"}
{"dataset_attributes": {"@spider": "usps_collection_boxes", "spider:collection_time": "2023-11-19T08:23:43.397954"}, "geometry": {"coordinates": [-88.82688219, 32.878551824], "type": "Point"}, "id": "PkFGy7cOTwbHUJc8zt9BabuOCNE=", "properties": {"@spider": "usps_collection_boxes", "addr:city": "PRESTON", "addr:country": "US", "addr:full": "10816 HIGHWAY 397", "addr:postcode": "39354", "addr:state": "MS", "amenity": "post_box", "brand": "United States Postal Service", "brand:wikidata": "Q668687", "collection_times": "Mo-Fr 11:30; Sa 11:00", "name": "USPS COLLECTION BOX - BLUE BOX", "nsi_id": "unitedstatespostalservice-a77078", "operator": "United States Postal Service", "operator:short": "USPS", "operator:type": "public", "operator:wikidata": "Q668687", "ref": "3935400000"}, "type": "Feature"}
{"dataset_attributes": {"@spider": "usps_collection_boxes", "spider:collection_time": "2023-11-19T08:23:43.397954"}, "geometry": {"coordinates": [-88.82688219, 32.878551824], "type": "Point"}, "id": "80kGzBpoPFftinVKqqyc6BmNawk=", "properties": {"@spider": "usps_collection_boxes", "addr:city": "PRESTON", "addr:country": "US", "addr:full": "10816 HIGHWAY 397", "addr:postcode": "39354", "addr:state": "MS", "amenity": "post_box", "brand": "United States Postal Service", "brand:wikidata": "Q668687", "collection_times": "Mo-Fr 11:30; Sa 11:00", "name": "USPS COLLECTION BOX - PO LOBBY", "nsi_id": "unitedstatespostalservice-a77078", "operator": "United States Postal Service", "operator:short": "USPS", "operator:type": "public", "operator:wikidata": "Q668687", "ref": "3935400001"}, "type": "Feature"}
{"dataset_attributes": {"@spider": "usps_collection_boxes", "spider:collection_time": "2023-11-19T08:23:43.397954"}, "geometry": {"coordinates": [-88.82688219, 32.878551824], "type": "Point"}, "id": "0lPX6t6_enBWmPmWl-TliZ_mEcQ=", "properties": {"@spider": "usps_collection_boxes", "addr:city": "PRESTON", "addr:country": "US", "addr:full": "10816 HIGHWAY 397", "addr:postcode": "39354", "addr:state": "MS", "amenity": "post_box", "brand": "United States Postal Service", "brand:wikidata": "Q668687", "collection_times": "Mo-Fr 11:30; Sa 11:15", "name": "USPS COLLECTION BOX - PO LOBBY", "nsi_id": "unitedstatespostalservice-a77078", "operator": "United States Postal Service", "operator:short": "USPS", "operator:type": "public", "operator:wikidata": "Q668687", "ref": "3935400002"}, "type": "Feature"}
{"dataset_attributes": {"@spider": "usps_collection_boxes", "spider:collection_time": "2023-11-19T08:23:43.397954"}, "geometry": {"coordinates": [-88.72801266, 32.039415034], "type": "Point"}, "id": "Y2s0qlRYwcocQxBUBT67TuAz--E=", "properties": {"@spider": "usps_collection_boxes", "addr:city": "QUITMAN", "addr:country": "US", "addr:full": "103 S ARCHUSA AVE", "addr:postcode": "39355", "addr:state": "MS", "amenity": "post_box", "brand": "United States Postal Service", "brand:wikidata": "Q668687", "collection_times": "Mo-Fr 16:40; Sa 10:25", "name": "USPS COLLECTION BOX - BLUE BOX", "note": "ON 12/24 AND 12/31, THIS BOX MAY BE COLLECTED AS EARLY AS 12 NOON.", "nsi_id": "unitedstatespostalservice-a77078", "operator": "United States Postal Service", "operator:short": "USPS", "operator:type": "public", "operator:wikidata": "Q668687", "ref": "3935500001"}, "type": "Feature"}
{"dataset_attributes": {"@spider": "usps_collection_boxes", "spider:collection_time": "2023-11-19T08:23:43.397954"}, "geometry": {"coordinates": [-88.72801266, 32.039415034], "type": "Point"}, "id": "nvt6jWtT5X-k98jhQH7PoaHlivs=", "properties": {"@spider": "usps_collection_boxes", "addr:city": "QUITMAN", "addr:country": "US", "addr:full": "103 S ARCHUSA AVE", "addr:postcode": "39355", "addr:state": "MS", "amenity": "post_box", "brand": "United States Postal Service", "brand:wikidata": "Q668687", "collection_times": "Mo-Fr 16:50; Sa 10:25", "name": "USPS COLLECTION BOX - PO LOBBY", "note": "ON 12/24 AND 12/31, THIS BOX MAY BE COLLECTED AS EARLY AS 12 NOON.", "nsi_id": "unitedstatespostalservice-a77078", "operator": "United States Postal Service", "operator:short": "USPS", "operator:type": "public", "operator:wikidata": "Q668687", "ref": "3935500003"}, "type": "Feature"}
{"dataset_attributes": {"@spider": "usps_collection_boxes", "spider:collection_time": "2023-11-19T08:23:43.397954"}, "geometry": {"coordinates": [-88.72801266, 32.039415034], "type": "Point"}, "id": "XnzrIzvIt9xTDpFhE0-WQjQgQEY=", "properties": {"@spider": "usps_collection_boxes", "addr:city": "QUITMAN", "addr:country": "US", "addr:full": "103 S ARCHUSA AVE", "addr:postcode": "39355", "addr:state": "MS", "amenity": "post_box", "brand": "United States Postal Service", "brand:wikidata": "Q668687", "collection_times": "Mo-Fr 16:30; Sa 10:30", "name": "USPS COLLECTION BOX - PO LOBBY", "note": "ON 12/24 AND 12/31, THIS BOX MAY BE COLLECTED AS EARLY AS 12 NOON.", "nsi_id": "unitedstatespostalservice-a77078", "operator": "United States Postal Service", "operator:short": "USPS", "operator:type": "public", "operator:wikidata": "Q668687", "ref": "3935500004"}, "type": "Feature"}
{"dataset_attributes": {"@spider": "usps_collection_boxes", "spider:collection_time": "2023-11-19T08:23:43.397954"}, "geometry": {"coordinates": [-88.996599959, 32.143789582], "type": "Point"}, "id": "vCTM4p1A8fkwb7mpAL84olG1M_U=", "properties": {"@spider": "usps_collection_boxes", "addr:city": "ROSE HILL", "addr:country": "US", "addr:full": "4698 HIGHWAY 18", "addr:postcode": "39356", "addr:state": "MS", "amenity": "post_box", "brand": "United States Postal Service", "brand:wikidata": "Q668687", "collection_times": "Mo-Fr 11:30; Sa 08:30", "name": "USPS COLLECTION BOX - BLUE BOX", "nsi_id": "unitedstatespostalservice-a77078", "operator": "United States Postal Service", "operator:short": "USPS", "operator:type": "public", "operator:wikidata": "Q668687", "ref": "3935600000"}, "type": "Feature"}
{"dataset_attributes": {"@spider": "usps_collection_boxes", "spider:collection_time": "2023-11-19T08:23:43.397954"}, "geometry": {"coordinates": [-88.996599959, 32.143789582], "type": "Point"}, "id": "LwLj6vPZFokfyJyCu_2TD4Ujnjg=", "properties": {"@spider": "usps_collection_boxes", "addr:city": "ROSE HILL", "addr:country": "US", "addr:full": "4698 HIGHWAY 18", "addr:postcode": "39356", "addr:state": "MS", "amenity": "post_box", "brand": "United States Postal Service", "brand:wikidata": "Q668687", "collection_times": "Mo-Fr 11:30", "name": "USPS COLLECTION BOX - PO LOBBY", "nsi_id": "unitedstatespostalservice-a77078", "operator": "United States Postal Service", "operator:short": "USPS", "operator:type": "public", "operator:wikidata": "Q668687", "ref": "3935600002"}, "type": "Feature"}
{"dataset_attributes": {"@spider": "usps_collection_boxes", "spider:collection_time": "2023-11-19T08:23:43.397954"}, "geometry": {"coordinates": [-88.475097127, 32.831041073], "type": "Point"}, "id": "xp8nlFr3F1fv2kx_NkTzykccRD4=", "properties": {"@spider": "usps_collection_boxes", "addr:city": "SCOOBA", "addr:country": "US", "addr:full": "868 KEMPER ST", "addr:postcode": "39358", "addr:state": "MS", "amenity": "post_box", "brand": "United States Postal Service", "brand:wikidata": "Q668687", "collection_times": "Mo-Fr 14:30; Sa 10:15", "name": "USPS COLLECTION BOX - BLUE BOX", "note": "ON 12/24 AND 12/31, THIS BOX MAY BE COLLECTED AS EARLY AS 12 NOON.", "nsi_id": "unitedstatespostalservice-a77078", "operator": "United States Postal Service", "operator:short": "USPS", "operator:type": "public", "operator:wikidata": "Q668687", "ref": "3935800000"}, "type": "Feature"}
{"dataset_attributes": {"@spider": "usps_collection_boxes", "spider:collection_time": "2023-11-19T08:23:43.397954"}, "geometry": {"coordinates": [-88.475097127, 32.831041073], "type": "Point"}, "id": "2qFAOkXVVpeWiWO7UuZbr4XN978=", "properties": {"@spider": "usps_collection_boxes", "addr:city": "SCOOBA", "addr:country": "US", "addr:full": "868 KEMPER ST", "addr:postcode": "39358", "addr:state": "MS", "amenity": "post_box", "brand": "United States Postal Service", "brand:wikidata": "Q668687", "collection_times": "Mo-Fr 14:30; Sa 10:15", "name": "USPS COLLECTION BOX - PO LOBBY", "note": "ON 12/24 AND 12/31, THIS BOX MAY BE COLLECTED AS EARLY AS 12 NOON.", "nsi_id": "unitedstatespostalservice-a77078", "operator": "United States Postal Service", "operator:short": "USPS", "operator:type": "public", "operator:wikidata": "Q668687", "ref": "3935800001"}, "type": "Feature"}
{"dataset_attributes": {"@spider": "usps_collection_boxes", "spider:collection_time": "2023-11-19T08:23:43.397954"}, "geometry": {"coordinates": [-88.475097127, 32.831041073], "type": "Point"}, "id": "Tc1bV2rMyj5mLDbKiHmH72Ke_K8=", "properties": {"@spider": "usps_collection_boxes", "addr:city": "SCOOBA", "addr:country": "US", "addr:full": "868 KEMPER ST", "addr:postcode": "39358", "addr:state": "MS", "amenity": "post_box", "brand": "United States Postal Service", "brand:wikidata": "Q668687", "collection_times": "Mo-Fr 14:30; Sa 10:00", "name": "USPS COLLECTION BOX - PO LOBBY", "note": "ON 12/24 AND 12/31, THIS BOX MAY BE COLLECTED AS EARLY AS 12 NOON.", "nsi_id": "unitedstatespostalservice-a77078", "operator": "United States Postal Service", "operator:short": "USPS", "operator:type": "public", "operator:wikidata": "Q668687", "ref": "3935800002"}, "type": "Feature"}
{"dataset_attributes": {"@spider": "usps_collection_boxes", "spider:collection_time": "2023-11-19T08:23:43.397954"}, "geometry": {"coordinates": [-89.343581812, 32.566323613], "type": "Point"}, "id": "qTb5dVZNVr14czosnGNnyosroho=", "properties": {"@spider": "usps_collection_boxes", "addr:city": "SEBASTOPOL", "addr:country": "US", "addr:full": "16811 HIGHWAY 21 N", "addr:postcode": "39359", "addr:state": "MS", "amenity": "post_box", "brand": "United States Postal Service", "brand:wikidata": "Q668687", "collection_times": "Mo-Fr 14:50; Sa 09:50", "name": "USPS COLLECTION BOX - PO LOBBY", "note": "ON 12/24 AND 12/31, THIS BOX MAY BE COLLECTED AS EARLY AS 12 NOON.", "nsi_id": "unitedstatespostalservice-a77078", "operator": "United States Postal Service", "operator:short": "USPS", "operator:type": "public", "operator:wikidata": "Q668687", "ref": "3935900001"}, "type": "Feature"}
{"dataset_attributes": {"@spider": "usps_collection_boxes", "spider:collection_time": "2023-11-19T08:23:43.397954"}, "geometry": {"coordinates": [-89.343581812, 32.566323613], "type": "Point"}, "id": "dD1REXxpY8q5eWCW-rjGRclOzOk=", "properties": {"@spider": "usps_collection_boxes", "addr:city": "SEBASTOPOL", "addr:country": "US", "addr:full": "16811 HIGHWAY 21 N", "addr:postcode": "39359", "addr:state": "MS", "amenity": "post_box", "brand": "United States Postal Service", "brand:wikidata": "Q668687", "collection_times": "Mo-Fr 15:00; Sa 09:50", "name": "USPS COLLECTION BOX - BLUE BOX", "note": "ON 12/24 AND 12/31, THIS BOX MAY BE COLLECTED AS EARLY AS 12 NOON.", "nsi_id": "unitedstatespostalservice-a77078", "operator": "United States Postal Service", "operator:short": "USPS", "operator:type": "public", "operator:wikidata": "Q668687", "ref": "3935900002"}, "type": "Feature"}
{"dataset_attributes": {"@spider": "usps_collection_boxes", "spider:collection_time": "2023-11-19T08:23:43.397954"}, "geometry": {"coordinates": [-89.343581812, 32.566323613], "type": "Point"}, "id": "z5QxeuF-VoFdaLS1DGkMQknsFNc=", "properties": {"@spider": "usps_collection_boxes", "addr:city": "SEBASTOPOL", "addr:country": "US", "addr:full": "16811 HIGHWAY 21 N", "addr:postcode": "39359", "addr:state": "MS", "amenity": "post_box", "brand": "United States Postal Service", "brand:wikidata": "Q668687", "collection_times": "Mo-Fr 15:00; Sa 10:00", "name": "USPS COLLECTION BOX - PO LOBBY", "note": "ON 12/24 AND 12/31, THIS BOX MAY BE COLLECTED AS EARLY AS 12 NOON.", "nsi_id": "unitedstatespostalservice-a77078", "operator": "United States Postal Service", "operator:short": "USPS", "operator:type": "public", "operator:wikidata": "Q668687", "ref": "3935900003"}, "type": "Feature"}
{"dataset_attributes": {"@spider": "usps_collection_boxes", "spider:collection_time": "2023-11-19T08:23:43.397954"}, "geometry": {"coordinates": [-88.699659998, 31.858850001], "type": "Point"}, "id": "7K_Glh6FS4XdkPNJ7CSbaFBThP0=", "properties": {"@spider": "usps_collection_boxes", "addr:city": "SHUBUTA", "addr:country": "US", "addr:full": "160 S HIGH ST", "addr:postcode": "39360", "addr:state": "MS", "amenity": "post_box", "brand": "United States Postal Service", "brand:wikidata": "Q668687", "collection_times": "Mo-Fr 14:30; Sa 10:00", "name": "USPS COLLECTION BOX - BLUE BOX", "note": "ON 12/24 AND 12/31, THIS BOX MAY BE COLLECTED AS EARLY AS 12 NOON.", "nsi_id": "unitedstatespostalservice-a77078", "operator": "United States Postal Service", "operator:short": "USPS", "operator:type": "public", "operator:wikidata": "Q668687", "ref": "3936000000"}, "type": "Feature"}
{"dataset_attributes": {"@spider": "usps_collection_boxes", "spider:collection_time": "2023-11-19T08:23:43.397954"}, "geometry": {"coordinates": [-88.699659998, 31.858850001], "type": "Point"}, "id": "FMrJUmYrg2HkC3-WBfnZZ-1Kf-M=", "properties": {"@spider": "usps_collection_boxes", "addr:city": "SHUBUTA", "addr:country": "US", "addr:full": "160 S HIGH ST", "addr:postcode": "39360", "addr:state": "MS", "amenity": "post_box", "brand": "United States Postal Service", "brand:wikidata": "Q668687", "collection_times": "Mo-Fr 14:30; Sa 10:00", "name": "USPS COLLECTION BOX - PO LOBBY", "note": "ON 12/24 AND 12/31, THIS BOX MAY BE COLLECTED AS EARLY AS 12 NOON.", "nsi_id": "unitedstatespostalservice-a77078", "operator": "United States Postal Service", "operator:short": "USPS", "operator:type": "public", "operator:wikidata": "Q668687", "ref": "3936000001"}, "type": "Feature"}
{"dataset_attributes": {"@spider": "usps_collection_boxes", "spider:collection_time": "2023-11-19T08:23:43.397954"}, "geometry": {"coordinates": [-88.699659998, 31.858850001], "type": "Point"}, "id": "8QahzlVVQjHeDII4MYpLUF4VKOU=", "properties": {"@spider": "usps_collection_boxes", "addr:city": "SHUBUTA", "addr:country": "US", "addr:full": "160 S HIGH ST", "addr:postcode": "39360", "addr:state": "MS", "amenity": "post_box", "brand": "United States Postal Service", "brand:wikidata": "Q668687", "collection_times": "Mo-Fr 14:30; Sa 10:00", "name": "USPS COLLECTION BOX - PO LOBBY", "note": "ON 12/24 AND 12/31, THIS BOX MAY BE COLLECTED AS EARLY AS 12 NOON.", "nsi_id": "unitedstatespostalservice-a77078", "operator": "United States Postal Service", "operator:short": "USPS", "operator:type": "public", "operator:wikidata": "Q668687", "ref": "3936000002"}, "type": "Feature"}
{"dataset_attributes": {"@spider": "usps_collection_boxes", "spider:collection_time": "2023-11-19T08:23:43.397954"}, "geometry": {"coordinates": [-88.5695339686, 32.9794420176], "type": "Point"}, "id": "dMd6Gm1SOUcIjavDb-_5f1fxniA=", "properties": {"@spider": "usps_collection_boxes", "addr:city": "SHUQUALAK", "addr:country": "US", "addr:full": "135 PINE ST", "addr:postcode": "39361", "addr:state": "MS", "amenity": "post_box", "brand": "United States Postal Service", "brand:wikidata": "Q668687", "collection_times": "Mo-Fr 15:30; Sa 10:00", "name": "USPS COLLECTION BOX - BLUE BOX", "note": "ON 12/24 AND 12/31, THIS BOX MAY BE COLLECTED AS EARLY AS 12 NOON.", "nsi_id": "unitedstatespostalservice-a77078", "operator": "United States Postal Service", "operator:short": "USPS", "operator:type": "public", "operator:wikidata": "Q668687", "ref": "3936100000"}, "type": "Feature"}
{"dataset_attributes": {"@spider": "usps_collection_boxes", "spider:collection_time": "2023-11-19T08:23:43.397954"}, "geometry": {"coordinates": [-88.5695339686, 32.9794420176], "type": "Point"}, "id": "0PPDnGQh_1lMalBBN3gZJBL3R3Q=", "properties": {"@spider": "usps_collection_boxes", "addr:city": "SHUQUALAK", "addr:country": "US", "addr:full": "135 PINE ST", "addr:postcode": "39361", "addr:state": "MS", "amenity": "post_box", "brand": "United States Postal Service", "brand:wikidata": "Q668687", "collection_times": "Mo-Fr 15:30; Sa 10:00", "name": "USPS COLLECTION BOX - PO LOBBY", "note": "ON 12/24 AND 12/31, THIS BOX MAY BE COLLECTED AS EARLY AS 12 NOON.", "nsi_id": "unitedstatespostalservice-a77078", "operator": "United States Postal Service", "operator:short": "USPS", "operator:type": "public", "operator:wikidata": "Q668687", "ref": "3936100001"}, "type": "Feature"}
{"dataset_attributes": {"@spider": "usps_collection_boxes", "spider:collection_time": "2023-11-19T08:23:43.397954"}, "geometry": {"coordinates": [-88.5695339686, 32.9794420176], "type": "Point"}, "id": "92qNfYpa6OOT9CeRZQ_68cPJPc0=", "properties": {"@spider": "usps_collection_boxes", "addr:city": "SHUQUALAK", "addr:country": "US", "addr:full": "135 PINE ST", "addr:postcode": "39361", "addr:state": "MS", "amenity": "post_box", "brand": "United States Postal Service", "brand:wikidata": "Q668687", "collection_times": "Mo-Fr 15:30; Sa 10:00", "name": "USPS COLLECTION BOX - PO LOBBY", "note": "ON 12/24 AND 12/31, THIS BOX MAY BE COLLECTED AS EARLY AS 12 NOON.", "nsi_id": "unitedstatespostalservice-a77078", "operator": "United States Postal Service", "operator:short": "USPS", "operator:type": "public", "operator:wikidata": "Q668687", "ref": "3936100002"}, "type": "Feature"}
{"dataset_attributes": {"@spider": "usps_collection_boxes", "spider:collection_time": "2023-11-19T08:23:43.397954"}, "geometry": {"coordinates": [-88.475599991, 31.437629988], "type": "Point"}, "id": "J9H_OrRfRt4fbZ_YUI7oow98wfY=", "properties": {"@spider": "usps_collection_boxes", "addr:city": "STATE LINE", "addr:country": "US", "addr:full": "240 MAIN ST", "addr:postcode": "39362", "addr:state": "MS", "amenity": "post_box", "brand": "United States Postal Service", "brand:wikidata": "Q668687", "collection_times": "Mo-Fr 15:00; Sa 10:35", "name": "USPS COLLECTION BOX - BLUE BOX", "note": "ON 12/24 AND 12/31, THIS BOX MAY BE COLLECTED AS EARLY AS 12 NOON.", "nsi_id": "unitedstatespostalservice-a77078", "operator": "United States Postal Service", "operator:short": "USPS", "operator:type": "public", "operator:wikidata": "Q668687", "ref": "3936200000"}, "type": "Feature"}
{"dataset_attributes": {"@spider": "usps_collection_boxes", "spider:collection_time": "2023-11-19T08:23:43.397954"}, "geometry": {"coordinates": [-88.475599991, 31.437629988], "type": "Point"}, "id": "XDFHHn_Ma70l0ESd9aNpKOHMZM8=", "properties": {"@spider": "usps_collection_boxes", "addr:city": "STATE LINE", "addr:country": "US", "addr:full": "240 MAIN ST", "addr:postcode": "39362", "addr:state": "MS", "amenity": "post_box", "brand": "United States Postal Service", "brand:wikidata": "Q668687", "collection_times": "Mo-Fr 15:00; Sa 10:35", "name": "USPS COLLECTION BOX - PO LOBBY", "note": "ON 12/24 AND 12/31, THIS BOX MAY BE COLLECTED AS EARLY AS 12 NOON.", "nsi_id": "unitedstatespostalservice-a77078", "operator": "United States Postal Service", "operator:short": "USPS", "operator:type": "public", "operator:wikidata": "Q668687", "ref": "3936200001"}, "type": "Feature"}
{"dataset_attributes": {"@spider": "usps_collection_boxes", "spider:collection_time": "2023-11-19T08:23:43.397954"}, "geometry": {"coordinates": [-88.475599991, 31.437629988], "type": "Point"}, "id": "obQcsS24MhIZ3D_j0T6xMJe2q30=", "properties": {"@spider": "usps_collection_boxes", "addr:city": "STATE LINE", "addr:country": "US", "addr:full": "240 MAIN ST", "addr:postcode": "39362", "addr:state": "MS", "amenity": "post_box", "brand": "United States Postal Service", "brand:wikidata": "Q668687", "collection_times": "Mo-Fr 15:00; Sa 10:30", "name": "USPS COLLECTION BOX - PO LOBBY", "note": "ON 12/24 AND 12/31, THIS BOX MAY BE COLLECTED AS EARLY AS 12 NOON.", "nsi_id": "unitedstatespostalservice-a77078", "operator": "United States Postal Service", "operator:short": "USPS", "operator:type": "public", "operator:wikidata": "Q668687", "ref": "3936200002"}, "type": "Feature"}
{"dataset_attributes": {"@spider": "usps_collection_boxes", "spider:collection_time": "2023-11-19T08:23:43.397954"}, "geometry": {"coordinates": [-88.784200041, 32.133629994], "type": "Point"}, "id": "SvtmZIDzhrUQUZzn-OwByR2CKCc=", "properties": {"@spider": "usps_collection_boxes", "addr:city": "STONEWALL", "addr:country": "US", "addr:full": "748 ERWIN RD", "addr:postcode": "39363", "addr:state": "MS", "amenity": "post_box", "brand": "United States Postal Service", "brand:wikidata": "Q668687", "collection_times": "Mo-Fr 15:45; Sa 10:30", "name": "USPS COLLECTION BOX - BLUE BOX", "note": "ON 12/24 AND 12/31, THIS BOX MAY BE COLLECTED AS EARLY AS 12 NOON.", "nsi_id": "unitedstatespostalservice-a77078", "operator": "United States Postal Service", "operator:short": "USPS", "operator:type": "public", "operator:wikidata": "Q668687", "ref": "3936300000"}, "type": "Feature"}
{"dataset_attributes": {"@spider": "usps_collection_boxes", "spider:collection_time": "2023-11-19T08:23:43.397954"}, "geometry": {"coordinates": [-88.784200041, 32.133629994], "type": "Point"}, "id": "hM7fUNM_84uwkmdV8XYjlG8bH_U=", "properties": {"@spider": "usps_collection_boxes", "addr:city": "STONEWALL", "addr:country": "US", "addr:full": "748 ERWIN RD", "addr:postcode": "39363", "addr:state": "MS", "amenity": "post_box", "brand": "United States Postal Service", "brand:wikidata": "Q668687", "collection_times": "Mo-Fr 15:45; Sa 10:30", "name": "USPS COLLECTION BOX - PO LOBBY", "note": "ON 12/24 AND 12/31, THIS BOX MAY BE COLLECTED AS EARLY AS 12 NOON.", "nsi_id": "unitedstatespostalservice-a77078", "operator": "United States Postal Service", "operator:short": "USPS", "operator:type": "public", "operator:wikidata": "Q668687", "ref": "3936300002"}, "type": "Feature"}
{"dataset_attributes": {"@spider": "usps_collection_boxes", "spider:collection_time": "2023-11-19T08:23:43.397954"}, "geometry": {"coordinates": [-88.784200041, 32.133629994], "type": "Point"}, "id": "-ouH04hfcET-UycxwWE4See5crQ=", "properties": {"@spider": "usps_collection_boxes", "addr:city": "STONEWALL", "addr:country": "US", "addr:full": "748 ERWIN RD", "addr:postcode": "39363", "addr:state": "MS", "amenity": "post_box", "brand": "United States Postal Service", "brand:wikidata": "Q668687", "collection_times": "Mo-Fr 15:30; Sa 10:30", "name": "USPS COLLECTION BOX - PO LOBBY", "note": "ON 12/24 AND 12/31, THIS BOX MAY BE COLLECTED AS EARLY AS 12 NOON.", "nsi_id": "unitedstatespostalservice-a77078", "operator": "United States Postal Service", "operator:short": "USPS", "operator:type": "public", "operator:wikidata": "Q668687", "ref": "3936300003"}, "type": "Feature"}
{"dataset_attributes": {"@spider": "usps_collection_boxes", "spider:collection_time": "2023-11-19T08:23:43.397954"}, "geometry": {"coordinates": [-88.505790014, 32.41721002], "type": "Point"}, "id": "pFBRuocGwey5V63I0qnicAbAf1g=", "properties": {"@spider": "usps_collection_boxes", "addr:city": "TOOMSUBA", "addr:country": "US", "addr:full": "3936 MELVIN SWAIN RD", "addr:postcode": "39364", "addr:state": "MS", "amenity": "post_box", "brand": "United States Postal Service", "brand:wikidata": "Q668687", "collection_times": "Mo-Fr 14:45; Sa 10:00", "name": "USPS COLLECTION BOX - BLUE BOX", "note": "ON 12/24 AND 12/31, THIS BOX MAY BE COLLECTED AS EARLY AS 12 NOON.", "nsi_id": "unitedstatespostalservice-a77078", "operator": "United States Postal Service", "operator:short": "USPS", "operator:type": "public", "operator:wikidata": "Q668687", "ref": "3936400000"}, "type": "Feature"}
{"dataset_attributes": {"@spider": "usps_collection_boxes", "spider:collection_time": "2023-11-19T08:23:43.397954"}, "geometry": {"coordinates": [-88.505790014, 32.41721002], "type": "Point"}, "id": "xGiGjXzXajJcrpSn3XtpT7NPp2o=", "properties": {"@spider": "usps_collection_boxes", "addr:city": "TOOMSUBA", "addr:country": "US", "addr:full": "3936 MELVIN SWAIN RD", "addr:postcode": "39364", "addr:state": "MS", "amenity": "post_box", "brand": "United States Postal Service", "brand:wikidata": "Q668687", "collection_times": "Mo-Fr 14:45; Sa 10:00", "name": "USPS COLLECTION BOX - PO LOBBY", "note": "ON 12/24 AND 12/31, THIS BOX MAY BE COLLECTED AS EARLY AS 12 NOON.", "nsi_id": "unitedstatespostalservice-a77078", "operator": "United States Postal Service", "operator:short": "USPS", "operator:type": "public", "operator:wikidata": "Q668687", "ref": "3936400001"}, "type": "Feature"}
{"dataset_attributes": {"@spider": "usps_collection_boxes", "spider:collection_time": "2023-11-19T08:23:43.397954"}, "geometry": {"coordinates": [-89.119900016, 32.56850425], "type": "Point"}, "id": "C_0hHXS0liS95Ef4XaPVBi9RayA=", "properties": {"@spider": "usps_collection_boxes", "addr:city": "UNION", "addr:country": "US", "addr:full": "501 BANK ST", "addr:postcode": "39365", "addr:state": "MS", "amenity": "post_box", "brand": "United States Postal Service", "brand:wikidata": "Q668687", "collection_times": "Mo-Fr 16:30; Sa 10:30", "name": "USPS COLLECTION BOX - BLUE BOX", "note": "ON 12/24 AND 12/31, THIS BOX MAY BE COLLECTED AS EARLY AS 12 NOON.", "nsi_id": "unitedstatespostalservice-a77078", "operator": "United States Postal Service", "operator:short": "USPS", "operator:type": "public", "operator:wikidata": "Q668687", "ref": "3936500003"}, "type": "Feature"}
{"dataset_attributes": {"@spider": "usps_collection_boxes", "spider:collection_time": "2023-11-19T08:23:43.397954"}, "geometry": {"coordinates": [-89.119900016, 32.56850425], "type": "Point"}, "id": "--blgqxT5X670MNSxSoFwXycoR8=", "properties": {"@spider": "usps_collection_boxes", "addr:city": "UNION", "addr:country": "US", "addr:full": "501 BANK ST", "addr:postcode": "39365", "addr:state": "MS", "amenity": "post_box", "brand": "United States Postal Service", "brand:wikidata": "Q668687", "collection_times": "Mo-Fr 16:30; Sa 10:30", "name": "USPS COLLECTION BOX - PO LOBBY", "note": "ON 12/24 AND 12/31, THIS BOX MAY BE COLLECTED AS EARLY AS 12 NOON.", "nsi_id": "unitedstatespostalservice-a77078", "operator": "United States Postal Service", "operator:short": "USPS", "operator:type": "public", "operator:wikidata": "Q668687", "ref": "3936500007"}, "type": "Feature"}
{"dataset_attributes": {"@spider": "usps_collection_boxes", "spider:collection_time": "2023-11-19T08:23:43.397954"}, "geometry": {"coordinates": [-89.119900016, 32.56850425], "type": "Point"}, "id": "5IXoTAvG4bBfOYILXhot0Oy0_wM=", "properties": {"@spider": "usps_collection_boxes", "addr:city": "UNION", "addr:country": "US", "addr:full": "501 BANK ST", "addr:postcode": "39365", "addr:state": "MS", "amenity": "post_box", "brand": "United States Postal Service", "brand:wikidata": "Q668687", "collection_times": "Mo-Fr 16:30; Sa 10:30", "name": "USPS COLLECTION BOX - PO LOBBY", "note": "ON 12/24 AND 12/31, THIS BOX MAY BE COLLECTED AS EARLY AS 12 NOON.", "nsi_id": "unitedstatespostalservice-a77078", "operator": "United States Postal Service", "operator:short": "USPS", "operator:type": "public", "operator:wikidata": "Q668687", "ref": "3936500008"}, "type": "Feature"}
{"dataset_attributes": {"@spider": "usps_collection_boxes", "spider:collection_time": "2023-11-19T08:23:43.397954"}, "geometry": {"coordinates": [-89.119900016, 32.56850425], "type": "Point"}, "id": "XXEDbmpb-5JSKudkMZEsFvdgdkI=", "properties": {"@spider": "usps_collection_boxes", "addr:city": "UNION", "addr:country": "US", "addr:full": "501 BANK ST", "addr:postcode": "39365", "addr:state": "MS", "amenity": "post_box", "brand": "United States Postal Service", "brand:wikidata": "Q668687", "collection_times": "Mo-Fr 16:30; Sa 10:30", "name": "USPS COLLECTION BOX - PO LOBBY", "note": "ON 12/24 AND 12/31, THIS BOX MAY BE COLLECTED AS EARLY AS 12 NOON.", "nsi_id": "unitedstatespostalservice-a77078", "operator": "United States Postal Service", "operator:short": "USPS", "operator:type": "public", "operator:wikidata": "Q668687", "ref": "3936500009"}, "type": "Feature"}
{"dataset_attributes": {"@spider": "usps_collection_boxes", "spider:collection_time": "2023-11-19T08:23:43.397954"}, "geometry": {"coordinates": [-88.939828082, 31.928873958], "type": "Point"}, "id": "KaG6cj4SiO_nOprCEi227kPqCOg=", "properties": {"@spider": "usps_collection_boxes", "addr:city": "VOSSBURG", "addr:country": "US", "addr:full": "642 COUNTY ROAD 39", "addr:postcode": "39366", "addr:state": "MS", "amenity": "post_box", "brand": "United States Postal Service", "brand:wikidata": "Q668687", "collection_times": "Mo-Fr 12:00; Sa 08:45", "name": "USPS COLLECTION BOX - BLUE BOX", "nsi_id": "unitedstatespostalservice-a77078", "operator": "United States Postal Service", "operator:short": "USPS", "operator:type": "public", "operator:wikidata": "Q668687", "ref": "3936600000"}, "type": "Feature"}
{"dataset_attributes": {"@spider": "usps_collection_boxes", "spider:collection_time": "2023-11-19T08:23:43.397954"}, "geometry": {"coordinates": [-88.939828082, 31.928873958], "type": "Point"}, "id": "ylI6PdnAC-sgMzHd9Ix-is_1Vfc=", "properties": {"@spider": "usps_collection_boxes", "addr:city": "VOSSBURG", "addr:country": "US", "addr:full": "642 COUNTY ROAD 39", "addr:postcode": "39366", "addr:state": "MS", "amenity": "post_box", "brand": "United States Postal Service", "brand:wikidata": "Q668687", "collection_times": "Mo-Fr 12:00", "name": "USPS COLLECTION BOX - PO LOBBY", "nsi_id": "unitedstatespostalservice-a77078", "operator": "United States Postal Service", "operator:short": "USPS", "operator:type": "public", "operator:wikidata": "Q668687", "ref": "3936600002"}, "type": "Feature"}
{"dataset_attributes": {"@spider": "usps_collection_boxes", "spider:collection_time": "2023-11-19T08:23:43.397954"}, "geometry": {"coordinates": [-88.645547729, 31.675372685], "type": "Point"}, "id": "grIxWehd-Pd3fdf9tfA9aj129uU=", "properties": {"@spider": "usps_collection_boxes", "addr:city": "WAYNESBORO", "addr:country": "US", "addr:full": "704 AZALEA DR", "addr:postcode": "39367", "addr:state": "MS", "amenity": "post_box", "brand": "United States Postal Service", "brand:wikidata": "Q668687", "collection_times": "Mo-Fr 16:45; Sa 10:45", "name": "USPS COLLECTION BOX - BLUE BOX", "note": "ON 12/24 AND 12/31, THIS BOX MAY BE COLLECTED AS EARLY AS 12 NOON.", "nsi_id": "unitedstatespostalservice-a77078", "operator": "United States Postal Service", "operator:short": "USPS", "operator:type": "public", "operator:wikidata": "Q668687", "ref": "3936700004"}, "type": "Feature"}
{"dataset_attributes": {"@spider": "usps_collection_boxes", "spider:collection_time": "2023-11-19T08:23:43.397954"}, "geometry": {"coordinates": [-88.645547729, 31.675372685], "type": "Point"}, "id": "2PbQ9ziCpSwiOP3Sbv-IW4rLn6o=", "properties": {"@spider": "usps_collection_boxes", "addr:city": "WAYNESBORO", "addr:country": "US", "addr:full": "704 AZALEA DR", "addr:postcode": "39367", "addr:state": "MS", "amenity": "post_box", "brand": "United States Postal Service", "brand:wikidata": "Q668687", "collection_times": "Mo-Fr 16:45; Sa 10:45", "name": "USPS COLLECTION BOX - PO LOBBY", "note": "ON 12/24 AND 12/31, THIS BOX MAY BE COLLECTED AS EARLY AS 12 NOON.", "nsi_id": "unitedstatespostalservice-a77078", "operator": "United States Postal Service", "operator:short": "USPS", "operator:type": "public", "operator:wikidata": "Q668687", "ref": "3936700005"}, "type": "Feature"}
{"dataset_attributes": {"@spider": "usps_collection_boxes", "spider:collection_time": "2023-11-19T08:23:43.397954"}, "geometry": {"coordinates": [-88.645547729, 31.675372685], "type": "Point"}, "id": "Jk5U4Ws799gTBnJSc2WN4tQyPP4=", "properties": {"@spider": "usps_collection_boxes", "addr:city": "WAYNESBORO", "addr:country": "US", "addr:full": "704 AZALEA DR", "addr:postcode": "39367", "addr:state": "MS", "amenity": "post_box", "brand": "United States Postal Service", "brand:wikidata": "Q668687", "collection_times": "Mo-Fr 16:30; Sa 11:00", "name": "USPS COLLECTION BOX - PO LOBBY", "note": "ON 12/24 AND 12/31, THIS BOX MAY BE COLLECTED AS EARLY AS 12 NOON.", "nsi_id": "unitedstatespostalservice-a77078", "operator": "United States Postal Service", "operator:short": "USPS", "operator:type": "public", "operator:wikidata": "Q668687", "ref": "3936700006"}, "type": "Feature"}
