{"geometry": {"coordinates": [-89.3000958, 31.324499], "type": "Point"}, "id": "YUzn74GG0aW2EYIuWG0Q9qEUwMY=", "properties": {"@source_uri": "https://tools.usps.com/UspsToolsRestServices/rest/POLocator/findLocations", "@spider": "usps_collection_boxes", "addr:city": "HATTIESBURG", "addr:country": "US", "addr:postcode": "39401", "addr:state": "MS", "addr:street_address": "700 HARDY ST", "amenity": "post_box", "brand": "United States Postal Service", "brand:wikidata": "Q668687", "collection_times": "Mo-Fr 14:15", "note": "ON 12/24 AND 12/31, THIS BOX MAY BE COLLECTED AS EARLY AS 12 NOON.", "nsi_id": "unitedstatespostalservice-a77078", "operator": "United States Postal Service", "operator:short": "USPS", "operator:type": "public", "operator:wikidata": "Q668687", "ref": "3940100018"}, "type": "Feature"}
{"geometry": {"coordinates": [-89.3287273, 31.339679], "type": "Point"}, "id": "N4nxF18OxU-sfg1sC4VjS5E6VhQ=", "properties": {"@source_uri": "https://tools.usps.com/UspsToolsRestServices/rest/POLocator/findLocations", "@spider": "usps_collection_boxes", "addr:city": "HATTIESBURG", "addr:country": "US", "addr:postcode": "39401", "addr:state": "MS", "addr:street_address": "6388 US HIGHWAY 49", "amenity": "post_box", "brand": "United States Postal Service", "brand:wikidata": "Q668687", "collection_times": "Mo-Fr 14:15", "note": "ON 12/24 AND 12/31, THIS BOX MAY BE COLLECTED AS EARLY AS 12 NOON.", "nsi_id": "unitedstatespostalservice-a77078", "operator": "United States Postal Service", "operator:short": "USPS", "operator:type": "public", "operator:wikidata": "Q668687", "ref": "3940100021"}, "type": "Feature"}
{"geometry": {"coordinates": [-89.3446419, 31.353481], "type": "Point"}, "id": "NcAJx3d-RgEj08H-UEjWFDpkPKg=", "properties": {"@source_uri": "https://tools.usps.com/UspsToolsRestServices/rest/POLocator/findLocations", "@spider": "usps_collection_boxes", "addr:city": "HATTIESBURG", "addr:country": "US", "addr:postcode": "39401", "addr:state": "MS", "addr:street_address": "6635 US HIGHWAY 49", "amenity": "post_box", "brand": "United States Postal Service", "brand:wikidata": "Q668687", "collection_times": "Mo-Fr 14:15", "note": "ON 12/24 AND 12/31, THIS BOX MAY BE COLLECTED AS EARLY AS 12 NOON.", "nsi_id": "unitedstatespostalservice-a77078", "operator": "United States Postal Service", "operator:short": "USPS", "operator:type": "public", "operator:wikidata": "Q668687", "ref": "3940100024"}, "type": "Feature"}
{"geometry": {"coordinates": [-89.2939964, 31.324307], "type": "Point"}, "id": "hcEeK0VhP21PEhxRDtuzhFu601E=", "properties": {"@source_uri": "https://tools.usps.com/UspsToolsRestServices/rest/POLocator/findLocations", "@spider": "usps_collection_boxes", "addr:city": "HATTIESBURG", "addr:country": "US", "addr:postcode": "39401", "addr:state": "MS", "addr:street_address": "100 HARDY ST", "amenity": "post_box", "brand": "United States Postal Service", "brand:wikidata": "Q668687", "collection_times": "Mo-Fr 14:15", "note": "ON 12/24 AND 12/31, THIS BOX MAY BE COLLECTED AS EARLY AS 12 NOON.", "nsi_id": "unitedstatespostalservice-a77078", "operator": "United States Postal Service", "operator:short": "USPS", "operator:type": "public", "operator:wikidata": "Q668687", "ref": "3940100029"}, "type": "Feature"}
{"geometry": {"coordinates": [-89.2900862, 31.327306], "type": "Point"}, "id": "tOTLyt05ZLEOi2d40j31sgnzpwo=", "properties": {"@source_uri": "https://tools.usps.com/UspsToolsRestServices/rest/POLocator/findLocations", "@spider": "usps_collection_boxes", "addr:city": "HATTIESBURG", "addr:country": "US", "addr:postcode": "39401", "addr:state": "MS", "addr:street_address": "100 E PINE ST", "amenity": "post_box", "brand": "United States Postal Service", "brand:wikidata": "Q668687", "collection_times": "Mo-Fr 14:15", "note": "ON 12/24 AND 12/31, THIS BOX MAY BE COLLECTED AS EARLY AS 12 NOON.", "nsi_id": "unitedstatespostalservice-a77078", "operator": "United States Postal Service", "operator:short": "USPS", "operator:type": "public", "operator:wikidata": "Q668687", "ref": "3940100031"}, "type": "Feature"}
{"geometry": {"coordinates": [-89.2917966, 31.327981], "type": "Point"}, "id": "F8NTT7GIHigiXqHG1fpjAmSj7g8=", "properties": {"@source_uri": "https://tools.usps.com/UspsToolsRestServices/rest/POLocator/findLocations", "@spider": "usps_collection_boxes", "addr:city": "HATTIESBURG", "addr:country": "US", "addr:postcode": "39401", "addr:state": "MS", "addr:street_address": "701 N MAIN ST", "amenity": "post_box", "brand": "United States Postal Service", "brand:wikidata": "Q668687", "collection_times": "Mo-Fr 14:15", "note": "ON 12/24 AND 12/31, THIS BOX MAY BE COLLECTED AS EARLY AS 12 NOON.", "nsi_id": "unitedstatespostalservice-a77078", "operator": "United States Postal Service", "operator:short": "USPS", "operator:type": "public", "operator:wikidata": "Q668687", "ref": "3940100035"}, "type": "Feature"}
{"geometry": {"coordinates": [-89.3146341, 31.312794], "type": "Point"}, "id": "hJU8DaHLOCvr0o2vcM4QcGoj1-M=", "properties": {"@source_uri": "https://tools.usps.com/UspsToolsRestServices/rest/POLocator/findLocations", "@spider": "usps_collection_boxes", "addr:city": "HATTIESBURG", "addr:country": "US", "addr:postcode": "39401", "addr:state": "MS", "addr:street_address": "5912 US HIGHWAY 49", "amenity": "post_box", "brand": "United States Postal Service", "brand:wikidata": "Q668687", "collection_times": "Mo-Fr 14:15", "note": "ON 12/24 AND 12/31, THIS BOX MAY BE COLLECTED AS EARLY AS 12 NOON.", "nsi_id": "unitedstatespostalservice-a77078", "operator": "United States Postal Service", "operator:short": "USPS", "operator:type": "public", "operator:wikidata": "Q668687", "ref": "3940100044"}, "type": "Feature"}
{"geometry": {"coordinates": [-89.29072, 31.334515], "type": "Point"}, "id": "23gYj3VkopYtjiI4mdR50BJO_h8=", "properties": {"@source_uri": "https://tools.usps.com/UspsToolsRestServices/rest/POLocator/findLocations", "@spider": "usps_collection_boxes", "addr:city": "HATTIESBURG", "addr:country": "US", "addr:postcode": "39401", "addr:state": "MS", "addr:street_address": "5912 U S HIGHWAY 49", "amenity": "post_box", "brand": "United States Postal Service", "brand:wikidata": "Q668687", "collection_times": "Mo-Fr 14:15", "note": "ON 12/24 AND 12/31, THIS BOX MAY BE COLLECTED AS EARLY AS 12 NOON.", "nsi_id": "unitedstatespostalservice-a77078", "operator": "United States Postal Service", "operator:short": "USPS", "operator:type": "public", "operator:wikidata": "Q668687", "ref": "3940100047"}, "type": "Feature"}
{"geometry": {"coordinates": [-89.290882, 31.32653], "type": "Point"}, "id": "0k6YqZAzpx609cU-eRVU6lxFlSs=", "properties": {"@source_uri": "https://tools.usps.com/UspsToolsRestServices/rest/POLocator/findLocations", "@spider": "usps_collection_boxes", "addr:city": "HATTIESBURG", "addr:country": "US", "addr:postcode": "39401", "addr:state": "MS", "addr:street_address": "115 W PINE ST", "amenity": "post_box", "brand": "United States Postal Service", "brand:wikidata": "Q668687", "collection_times": "Mo-Fr 17:00; Sa 15:30", "indoor": "yes", "note": "ON 12/24 AND 12/31, THIS BOX MAY BE COLLECTED AS EARLY AS 12 NOON.", "nsi_id": "unitedstatespostalservice-a77078", "operator": "United States Postal Service", "operator:short": "USPS", "operator:type": "public", "operator:wikidata": "Q668687", "ref": "3940100060"}, "type": "Feature"}
{"geometry": {"coordinates": [-89.290882, 31.32653], "type": "Point"}, "id": "7Qzlipx2t2S12OeBf_uduAwPR80=", "properties": {"@source_uri": "https://tools.usps.com/UspsToolsRestServices/rest/POLocator/findLocations", "@spider": "usps_collection_boxes", "addr:city": "HATTIESBURG", "addr:country": "US", "addr:postcode": "39401", "addr:state": "MS", "addr:street_address": "115 W PINE ST", "amenity": "post_box", "brand": "United States Postal Service", "brand:wikidata": "Q668687", "collection_times": "Mo-Fr 17:00; Sa 15:30", "indoor": "yes", "note": "ON 12/24 AND 12/31, THIS BOX MAY BE COLLECTED AS EARLY AS 12 NOON.", "nsi_id": "unitedstatespostalservice-a77078", "operator": "United States Postal Service", "operator:short": "USPS", "operator:type": "public", "operator:wikidata": "Q668687", "ref": "3940100061"}, "type": "Feature"}
{"geometry": {"coordinates": [-89.3190738, 31.324099], "type": "Point"}, "id": "CyjYrmpu5xISRSmshCak16BOhNE=", "properties": {"@source_uri": "https://tools.usps.com/UspsToolsRestServices/rest/POLocator/findLocations", "@spider": "usps_collection_boxes", "addr:city": "HATTIESBURG", "addr:country": "US", "addr:postcode": "39401", "addr:state": "MS", "addr:street_address": "1900 HARDY ST", "amenity": "post_box", "brand": "United States Postal Service", "brand:wikidata": "Q668687", "collection_times": "Mo-Fr 14:15", "note": "ON 12/24 AND 12/31, THIS BOX MAY BE COLLECTED AS EARLY AS 12 NOON.", "nsi_id": "unitedstatespostalservice-a77078", "operator": "United States Postal Service", "operator:short": "USPS", "operator:type": "public", "operator:wikidata": "Q668687", "ref": "3940100067"}, "type": "Feature"}
{"geometry": {"coordinates": [-89.2908917107, 31.3265137039], "type": "Point"}, "id": "oatxm8rhrInSCAfgrnF_T891eZI=", "properties": {"@source_uri": "https://tools.usps.com/UspsToolsRestServices/rest/POLocator/findLocations", "@spider": "usps_collection_boxes", "addr:city": "HATTIESBURG", "addr:country": "US", "addr:postcode": "39401", "addr:state": "MS", "addr:street_address": "115 W PINE ST", "amenity": "post_box", "brand": "United States Postal Service", "brand:wikidata": "Q668687", "collection_times": "Mo-Fr 17:00", "indoor": "yes", "note": "ON 12/24 AND 12/31, THIS BOX MAY BE COLLECTED AS EARLY AS 12 NOON.", "nsi_id": "unitedstatespostalservice-a77078", "operator": "United States Postal Service", "operator:short": "USPS", "operator:type": "public", "operator:wikidata": "Q668687", "ref": "3940100069"}, "type": "Feature"}
{"geometry": {"coordinates": [-89.3449406, 31.324758], "type": "Point"}, "id": "9sT-AhEJMLgwxE0h1dwTGtdhHBI=", "properties": {"@source_uri": "https://tools.usps.com/UspsToolsRestServices/rest/POLocator/findLocations", "@spider": "usps_collection_boxes", "addr:city": "HATTIESBURG", "addr:country": "US", "addr:postcode": "39402", "addr:state": "MS", "addr:street_address": "3700 HARDY ST", "amenity": "post_box", "brand": "United States Postal Service", "brand:wikidata": "Q668687", "collection_times": "Mo-Fr 15:00", "note": "ON 12/24 AND 12/31, THIS BOX MAY BE COLLECTED AS EARLY AS 12 NOON.", "nsi_id": "unitedstatespostalservice-a77078", "operator": "United States Postal Service", "operator:short": "USPS", "operator:type": "public", "operator:wikidata": "Q668687", "ref": "3940200000"}, "type": "Feature"}
{"geometry": {"coordinates": [-89.347849, 31.32175], "type": "Point"}, "id": "9DHEpuZL2yyh3DG4ZeyrSFq0D0k=", "properties": {"@source_uri": "https://tools.usps.com/UspsToolsRestServices/rest/POLocator/findLocations", "@spider": "usps_collection_boxes", "addr:city": "HATTIESBURG", "addr:country": "US", "addr:postcode": "39402", "addr:state": "MS", "addr:street_address": "220 S 40TH AVE", "amenity": "post_box", "brand": "United States Postal Service", "brand:wikidata": "Q668687", "collection_times": "Mo-Fr 18:00; Sa 16:00", "note": "ON 12/24 AND 12/31, THIS BOX MAY BE COLLECTED AS EARLY AS 12 NOON.", "nsi_id": "unitedstatespostalservice-a77078", "operator": "United States Postal Service", "operator:short": "USPS", "operator:type": "public", "operator:wikidata": "Q668687", "ref": "3940200003"}, "type": "Feature"}
{"geometry": {"coordinates": [-89.347849, 31.32175], "type": "Point"}, "id": "VnG6LdvVhlqOb_c6pA11cV0vjxo=", "properties": {"@source_uri": "https://tools.usps.com/UspsToolsRestServices/rest/POLocator/findLocations", "@spider": "usps_collection_boxes", "addr:city": "HATTIESBURG", "addr:country": "US", "addr:postcode": "39402", "addr:state": "MS", "addr:street_address": "220 S 40TH AVE", "amenity": "post_box", "brand": "United States Postal Service", "brand:wikidata": "Q668687", "collection_times": "Mo-Fr 18:00; Sa 16:00", "note": "ON 12/24 AND 12/31, THIS BOX MAY BE COLLECTED AS EARLY AS 12 NOON.", "nsi_id": "unitedstatespostalservice-a77078", "operator": "United States Postal Service", "operator:short": "USPS", "operator:type": "public", "operator:wikidata": "Q668687", "ref": "3940200004"}, "type": "Feature"}
{"geometry": {"coordinates": [-89.3727249, 31.327215], "type": "Point"}, "id": "OkfBwzBZ8gpOYuscEQsSAfi8dFM=", "properties": {"@source_uri": "https://tools.usps.com/UspsToolsRestServices/rest/POLocator/findLocations", "@spider": "usps_collection_boxes", "addr:city": "HATTIESBURG", "addr:country": "US", "addr:postcode": "39402", "addr:state": "MS", "addr:street_address": "201 METHODIST BLVD", "amenity": "post_box", "brand": "United States Postal Service", "brand:wikidata": "Q668687", "collection_times": "Mo-Fr 15:00", "note": "ON 12/24 AND 12/31, THIS BOX MAY BE COLLECTED AS EARLY AS 12 NOON.", "nsi_id": "unitedstatespostalservice-a77078", "operator": "United States Postal Service", "operator:short": "USPS", "operator:type": "public", "operator:wikidata": "Q668687", "ref": "3940200009"}, "type": "Feature"}
{"geometry": {"coordinates": [-89.3717688655, 31.3274887722], "type": "Point"}, "id": "dF8a_Fdv7ILU-Wz37PXPke08BFI=", "properties": {"@source_uri": "https://tools.usps.com/UspsToolsRestServices/rest/POLocator/findLocations", "@spider": "usps_collection_boxes", "addr:city": "HATTIESBURG", "addr:country": "US", "addr:postcode": "39402", "addr:state": "MS", "addr:street_address": "201 METHODIST BLVD", "amenity": "post_box", "brand": "United States Postal Service", "brand:wikidata": "Q668687", "collection_times": "Mo-Fr 15:00", "note": "ON 12/24 AND 12/31, THIS BOX MAY BE COLLECTED AS EARLY AS 12 NOON.", "nsi_id": "unitedstatespostalservice-a77078", "operator": "United States Postal Service", "operator:short": "USPS", "operator:type": "public", "operator:wikidata": "Q668687", "ref": "3940200010"}, "type": "Feature"}
{"geometry": {"coordinates": [-89.347849, 31.32175], "type": "Point"}, "id": "-lcF0nTDye75JbO1aWKyH466V4I=", "properties": {"@source_uri": "https://tools.usps.com/UspsToolsRestServices/rest/POLocator/findLocations", "@spider": "usps_collection_boxes", "addr:city": "HATTIESBURG", "addr:country": "US", "addr:postcode": "39402", "addr:state": "MS", "addr:street_address": "220 S 40TH AVE", "amenity": "post_box", "brand": "United States Postal Service", "brand:wikidata": "Q668687", "collection_times": "Mo-Fr 18:00; Sa 16:00", "indoor": "yes", "note": "ON 12/24 AND 12/31, THIS BOX MAY BE COLLECTED AS EARLY AS 12 NOON.", "nsi_id": "unitedstatespostalservice-a77078", "operator": "United States Postal Service", "operator:short": "USPS", "operator:type": "public", "operator:wikidata": "Q668687", "ref": "3940200011"}, "type": "Feature"}
{"geometry": {"coordinates": [-89.347849, 31.32175], "type": "Point"}, "id": "FHI_r5i7FiabRv0X4r6e9bBfVFE=", "properties": {"@source_uri": "https://tools.usps.com/UspsToolsRestServices/rest/POLocator/findLocations", "@spider": "usps_collection_boxes", "addr:city": "HATTIESBURG", "addr:country": "US", "addr:postcode": "39402", "addr:state": "MS", "addr:street_address": "220 S 40TH AVE", "amenity": "post_box", "brand": "United States Postal Service", "brand:wikidata": "Q668687", "collection_times": "Mo-Fr 18:00; Sa 16:00", "indoor": "yes", "note": "ON 12/24 AND 12/31, THIS BOX MAY BE COLLECTED AS EARLY AS 12 NOON.", "nsi_id": "unitedstatespostalservice-a77078", "operator": "United States Postal Service", "operator:short": "USPS", "operator:type": "public", "operator:wikidata": "Q668687", "ref": "3940200012"}, "type": "Feature"}
{"geometry": {"coordinates": [-89.347849, 31.32175], "type": "Point"}, "id": "fguSWakfF3vgejShAsg53Fnk3cw=", "properties": {"@source_uri": "https://tools.usps.com/UspsToolsRestServices/rest/POLocator/findLocations", "@spider": "usps_collection_boxes", "addr:city": "HATTIESBURG", "addr:country": "US", "addr:postcode": "39402", "addr:state": "MS", "addr:street_address": "220 S 40TH AVE", "amenity": "post_box", "brand": "United States Postal Service", "brand:wikidata": "Q668687", "collection_times": "Mo-Fr 18:00; Sa 16:00", "indoor": "yes", "note": "ON 12/24 AND 12/31, THIS BOX MAY BE COLLECTED AS EARLY AS 12 NOON.", "nsi_id": "unitedstatespostalservice-a77078", "operator": "United States Postal Service", "operator:short": "USPS", "operator:type": "public", "operator:wikidata": "Q668687", "ref": "3940200013"}, "type": "Feature"}
{"geometry": {"coordinates": [-89.4130468, 31.316404], "type": "Point"}, "id": "dDq2ouU7fjSTgSloSeZlaPRws84=", "properties": {"@source_uri": "https://tools.usps.com/UspsToolsRestServices/rest/POLocator/findLocations", "@spider": "usps_collection_boxes", "addr:city": "HATTIESBURG", "addr:country": "US", "addr:postcode": "39402", "addr:state": "MS", "addr:street_address": "6480 US HIGHWAY 98", "amenity": "post_box", "brand": "United States Postal Service", "brand:wikidata": "Q668687", "collection_times": "Mo-Fr 12:00", "nsi_id": "unitedstatespostalservice-a77078", "operator": "United States Postal Service", "operator:short": "USPS", "operator:type": "public", "operator:wikidata": "Q668687", "ref": "3940200015"}, "type": "Feature"}
{"geometry": {"coordinates": [-89.378918, 31.321472], "type": "Point"}, "id": "MSEw2esFsTcrvcM6PZCGrmcDeKI=", "properties": {"@source_uri": "https://tools.usps.com/UspsToolsRestServices/rest/POLocator/findLocations", "@spider": "usps_collection_boxes", "addr:city": "HATTIESBURG", "addr:country": "US", "addr:postcode": "39402", "addr:state": "MS", "addr:street_address": "6068 US HIGHWAY 98", "amenity": "post_box", "brand": "United States Postal Service", "brand:wikidata": "Q668687", "collection_times": "Mo-Fr 15:00", "note": "ON 12/24 AND 12/31, THIS BOX MAY BE COLLECTED AS EARLY AS 12 NOON.", "nsi_id": "unitedstatespostalservice-a77078", "operator": "United States Postal Service", "operator:short": "USPS", "operator:type": "public", "operator:wikidata": "Q668687", "ref": "3940200017"}, "type": "Feature"}
{"geometry": {"coordinates": [-89.347849, 31.32175], "type": "Point"}, "id": "HA34rcD7T7Z7GeNqX61hRw2mWhY=", "properties": {"@source_uri": "https://tools.usps.com/UspsToolsRestServices/rest/POLocator/findLocations", "@spider": "usps_collection_boxes", "addr:city": "HATTIESBURG", "addr:country": "US", "addr:postcode": "39402", "addr:state": "MS", "addr:street_address": "220 S 40TH AVE", "amenity": "post_box", "brand": "United States Postal Service", "brand:wikidata": "Q668687", "collection_times": "Mo-Fr 18:00; Sa 16:00", "name": "USPS COLLECTION BOX - APC", "note": "ON 12/24 AND 12/31, THIS BOX MAY BE COLLECTED AS EARLY AS 12 NOON.", "nsi_id": "unitedstatespostalservice-a77078", "operator": "United States Postal Service", "operator:short": "USPS", "operator:type": "public", "operator:wikidata": "Q668687", "ref": "3940200021"}, "type": "Feature"}
{"geometry": {"coordinates": [-89.4123623, 31.314694], "type": "Point"}, "id": "NYcRErbJ4HwNWiPkd7jIAapbC1g=", "properties": {"@source_uri": "https://tools.usps.com/UspsToolsRestServices/rest/POLocator/findLocations", "@spider": "usps_collection_boxes", "addr:city": "HATTIESBURG", "addr:country": "US", "addr:postcode": "39402", "addr:state": "MS", "addr:street_address": "5297 OLD HIGHWAY 11", "amenity": "post_box", "brand": "United States Postal Service", "brand:wikidata": "Q668687", "collection_times": "Mo-Sa 10:00", "nsi_id": "unitedstatespostalservice-a77078", "operator": "United States Postal Service", "operator:short": "USPS", "operator:type": "public", "operator:wikidata": "Q668687", "ref": "3940200025"}, "type": "Feature"}
{"geometry": {"coordinates": [-89.3478483106, 31.3218444446], "type": "Point"}, "id": "1Secplo77nkKeGLUIF8ErzAl4Xw=", "properties": {"@source_uri": "https://tools.usps.com/UspsToolsRestServices/rest/POLocator/findLocations", "@spider": "usps_collection_boxes", "addr:city": "HATTIESBURG", "addr:country": "US", "addr:postcode": "39402", "addr:state": "MS", "addr:street_address": "220 S 40TH AVE", "amenity": "post_box", "brand": "United States Postal Service", "brand:wikidata": "Q668687", "collection_times": "Mo-Fr 18:00; Sa 14:00", "indoor": "yes", "note": "ON 12/24 AND 12/31, THIS BOX MAY BE COLLECTED AS EARLY AS 12 NOON.", "nsi_id": "unitedstatespostalservice-a77078", "operator": "United States Postal Service", "operator:short": "USPS", "operator:type": "public", "operator:wikidata": "Q668687", "ref": "3940200032"}, "type": "Feature"}
{"geometry": {"coordinates": [-89.7415071472, 31.4979568159], "type": "Point"}, "id": "WaC5qFsJ-K8m9ju-cDNUYlgU8h4=", "properties": {"@source_uri": "https://tools.usps.com/UspsToolsRestServices/rest/POLocator/findLocations", "@spider": "usps_collection_boxes", "addr:city": "BASSFIELD", "addr:country": "US", "addr:postcode": "39421", "addr:state": "MS", "addr:street_address": "100 HAWKINS AVE", "amenity": "post_box", "brand": "United States Postal Service", "brand:wikidata": "Q668687", "collection_times": "Mo-Fr 16:00; Sa 11:00", "note": "ON 12/24 AND 12/31, THIS BOX MAY BE COLLECTED AS EARLY AS 12 NOON.", "nsi_id": "unitedstatespostalservice-a77078", "operator": "United States Postal Service", "operator:short": "USPS", "operator:type": "public", "operator:wikidata": "Q668687", "ref": "3942100000"}, "type": "Feature"}
{"geometry": {"coordinates": [-89.7415071472, 31.4979568159], "type": "Point"}, "id": "gQ0Bm6DhVsd5CttnI_kYRVPZHQE=", "properties": {"@source_uri": "https://tools.usps.com/UspsToolsRestServices/rest/POLocator/findLocations", "@spider": "usps_collection_boxes", "addr:city": "BASSFIELD", "addr:country": "US", "addr:postcode": "39421", "addr:state": "MS", "addr:street_address": "100 HAWKINS AVE", "amenity": "post_box", "brand": "United States Postal Service", "brand:wikidata": "Q668687", "collection_times": "Mo-Fr 16:00; Sa 11:00", "indoor": "yes", "note": "ON 12/24 AND 12/31, THIS BOX MAY BE COLLECTED AS EARLY AS 12 NOON.", "nsi_id": "unitedstatespostalservice-a77078", "operator": "United States Postal Service", "operator:short": "USPS", "operator:type": "public", "operator:wikidata": "Q668687", "ref": "3942100001"}, "type": "Feature"}
{"geometry": {"coordinates": [-89.741506984, 31.497956886], "type": "Point"}, "id": "kfaRqr_sTg83BIl95O0k_-Mo1vc=", "properties": {"@source_uri": "https://tools.usps.com/UspsToolsRestServices/rest/POLocator/findLocations", "@spider": "usps_collection_boxes", "addr:city": "BASSFIELD", "addr:country": "US", "addr:postcode": "39421", "addr:state": "MS", "addr:street_address": "100 HAWKINS AVE", "amenity": "post_box", "brand": "United States Postal Service", "brand:wikidata": "Q668687", "collection_times": "Mo-Fr 16:00; Sa 11:00", "indoor": "yes", "note": "ON 12/24 AND 12/31, THIS BOX MAY BE COLLECTED AS EARLY AS 12 NOON.", "nsi_id": "unitedstatespostalservice-a77078", "operator": "United States Postal Service", "operator:short": "USPS", "operator:type": "public", "operator:wikidata": "Q668687", "ref": "3942100002"}, "type": "Feature"}
{"geometry": {"coordinates": [-89.2126601602, 31.9515631138], "type": "Point"}, "id": "_WXZGqzGzSiGZ2Eo2MrqRi8HNE4=", "properties": {"@source_uri": "https://tools.usps.com/UspsToolsRestServices/rest/POLocator/findLocations", "@spider": "usps_collection_boxes", "addr:city": "BAY SPRINGS", "addr:country": "US", "addr:postcode": "39422", "addr:state": "MS", "addr:street_address": "4TH AVE AVE", "amenity": "post_box", "brand": "United States Postal Service", "brand:wikidata": "Q668687", "collection_times": "Mo-Fr 16:10; Sa 11:15", "note": "ON 12/24 AND 12/31, THIS BOX MAY BE COLLECTED AS EARLY AS 12 NOON.", "nsi_id": "unitedstatespostalservice-a77078", "operator": "United States Postal Service", "operator:short": "USPS", "operator:type": "public", "operator:wikidata": "Q668687", "ref": "3942200000"}, "type": "Feature"}
{"geometry": {"coordinates": [-89.2126601602, 31.9515631138], "type": "Point"}, "id": "0p2ez80Pr4PrVOm3MOCCGS1zACw=", "properties": {"@source_uri": "https://tools.usps.com/UspsToolsRestServices/rest/POLocator/findLocations", "@spider": "usps_collection_boxes", "addr:city": "BAY SPRINGS", "addr:country": "US", "addr:postcode": "39422", "addr:state": "MS", "addr:street_address": "4TH AVE AVE", "amenity": "post_box", "brand": "United States Postal Service", "brand:wikidata": "Q668687", "collection_times": "Mo-Fr 16:20; Sa 11:15", "indoor": "yes", "note": "ON 12/24 AND 12/31, THIS BOX MAY BE COLLECTED AS EARLY AS 12 NOON.", "nsi_id": "unitedstatespostalservice-a77078", "operator": "United States Postal Service", "operator:short": "USPS", "operator:type": "public", "operator:wikidata": "Q668687", "ref": "3942200001"}, "type": "Feature"}
{"geometry": {"coordinates": [-89.2868565062, 31.9792920706], "type": "Point"}, "id": "HcF-dV-PBfDJ8wYgwqHhRzhrLXY=", "properties": {"@source_uri": "https://tools.usps.com/UspsToolsRestServices/rest/POLocator/findLocations", "@spider": "usps_collection_boxes", "addr:city": "BAY SPRINGS", "addr:country": "US", "addr:postcode": "39422", "addr:state": "MS", "addr:street_address": "14 N THIRD ST", "amenity": "post_box", "brand": "United States Postal Service", "brand:wikidata": "Q668687", "collection_times": "Mo-Fr 16:30; Sa 10:30", "indoor": "yes", "note": "ON 12/24 AND 12/31, THIS BOX MAY BE COLLECTED AS EARLY AS 12 NOON.", "nsi_id": "unitedstatespostalservice-a77078", "operator": "United States Postal Service", "operator:short": "USPS", "operator:type": "public", "operator:wikidata": "Q668687", "ref": "3942200002"}, "type": "Feature"}
{"geometry": {"coordinates": [-88.9129324702, 31.1650856549], "type": "Point"}, "id": "SO8WajZ-av7ApYMwPMWkcFUIU9o=", "properties": {"@source_uri": "https://tools.usps.com/UspsToolsRestServices/rest/POLocator/findLocations", "@spider": "usps_collection_boxes", "addr:city": "BEAUMONT", "addr:country": "US", "addr:postcode": "39423", "addr:state": "MS", "addr:street_address": "825 HIGHWAY 198", "amenity": "post_box", "brand": "United States Postal Service", "brand:wikidata": "Q668687", "collection_times": "Mo-Fr 15:30; Sa 11:00", "note": "ON 12/24 AND 12/31, THIS BOX MAY BE COLLECTED AS EARLY AS 12 NOON.", "nsi_id": "unitedstatespostalservice-a77078", "operator": "United States Postal Service", "operator:short": "USPS", "operator:type": "public", "operator:wikidata": "Q668687", "ref": "3942300000"}, "type": "Feature"}
{"geometry": {"coordinates": [-88.912915842, 31.165064791], "type": "Point"}, "id": "NrMmgEPbn2LVSORwGGQ_DheeKqw=", "properties": {"@source_uri": "https://tools.usps.com/UspsToolsRestServices/rest/POLocator/findLocations", "@spider": "usps_collection_boxes", "addr:city": "BEAUMONT", "addr:country": "US", "addr:postcode": "39423", "addr:state": "MS", "addr:street_address": "825 HIGHWAY 198", "amenity": "post_box", "brand": "United States Postal Service", "brand:wikidata": "Q668687", "collection_times": "Mo-Fr 15:30; Sa 11:00", "indoor": "yes", "note": "ON 12/24 AND 12/31, THIS BOX MAY BE COLLECTED AS EARLY AS 12 NOON.", "nsi_id": "unitedstatespostalservice-a77078", "operator": "United States Postal Service", "operator:short": "USPS", "operator:type": "public", "operator:wikidata": "Q668687", "ref": "3942300001"}, "type": "Feature"}
{"geometry": {"coordinates": [-88.912915842, 31.165064791], "type": "Point"}, "id": "F8nZnOuqjb9AjheLyL_2UPKPWnc=", "properties": {"@source_uri": "https://tools.usps.com/UspsToolsRestServices/rest/POLocator/findLocations", "@spider": "usps_collection_boxes", "addr:city": "BEAUMONT", "addr:country": "US", "addr:postcode": "39423", "addr:state": "MS", "addr:street_address": "825 HIGHWAY 198", "amenity": "post_box", "brand": "United States Postal Service", "brand:wikidata": "Q668687", "collection_times": "Mo-Fr 15:30; Sa 11:00", "indoor": "yes", "note": "ON 12/24 AND 12/31, THIS BOX MAY BE COLLECTED AS EARLY AS 12 NOON.", "nsi_id": "unitedstatespostalservice-a77078", "operator": "United States Postal Service", "operator:short": "USPS", "operator:type": "public", "operator:wikidata": "Q668687", "ref": "3942300002"}, "type": "Feature"}
{"geometry": {"coordinates": [-89.192746404, 31.057455246], "type": "Point"}, "id": "8w6zsJCFIZ-yICPbGnkxdt_b9Bg=", "properties": {"@source_uri": "https://tools.usps.com/UspsToolsRestServices/rest/POLocator/findLocations", "@spider": "usps_collection_boxes", "addr:city": "BROOKLYN", "addr:country": "US", "addr:postcode": "39425", "addr:state": "MS", "addr:street_address": "132 MAIN AVE", "amenity": "post_box", "brand": "United States Postal Service", "brand:wikidata": "Q668687", "collection_times": "Mo-Fr 14:00; Sa 10:00", "note": "ON 12/24 AND 12/31, THIS BOX MAY BE COLLECTED AS EARLY AS 12 NOON.", "nsi_id": "unitedstatespostalservice-a77078", "operator": "United States Postal Service", "operator:short": "USPS", "operator:type": "public", "operator:wikidata": "Q668687", "ref": "3942500000"}, "type": "Feature"}
{"geometry": {"coordinates": [-89.192746404, 31.057455246], "type": "Point"}, "id": "PXHU-NOr78x6M7NIZFAI_8voy58=", "properties": {"@source_uri": "https://tools.usps.com/UspsToolsRestServices/rest/POLocator/findLocations", "@spider": "usps_collection_boxes", "addr:city": "BROOKLYN", "addr:country": "US", "addr:postcode": "39425", "addr:state": "MS", "addr:street_address": "132 MAIN AVE", "amenity": "post_box", "brand": "United States Postal Service", "brand:wikidata": "Q668687", "collection_times": "Mo-Fr 14:00; Sa 10:00", "indoor": "yes", "note": "ON 12/24 AND 12/31, THIS BOX MAY BE COLLECTED AS EARLY AS 12 NOON.", "nsi_id": "unitedstatespostalservice-a77078", "operator": "United States Postal Service", "operator:short": "USPS", "operator:type": "public", "operator:wikidata": "Q668687", "ref": "3942500002"}, "type": "Feature"}
{"geometry": {"coordinates": [-89.652680971, 30.623491509], "type": "Point"}, "id": "tPBFwmyGKniBtEhgvjycI9m0Xqk=", "properties": {"@source_uri": "https://tools.usps.com/UspsToolsRestServices/rest/POLocator/findLocations", "@spider": "usps_collection_boxes", "addr:city": "CARRIERE", "addr:country": "US", "addr:postcode": "39426", "addr:state": "MS", "addr:street_address": "7390 HIGHWAY 11", "amenity": "post_box", "brand": "United States Postal Service", "brand:wikidata": "Q668687", "collection_times": "Mo-Fr 16:00; Sa 11:00", "note": "ON 12/24 AND 12/31, THIS BOX MAY BE COLLECTED AS EARLY AS 12 NOON.", "nsi_id": "unitedstatespostalservice-a77078", "operator": "United States Postal Service", "operator:short": "USPS", "operator:type": "public", "operator:wikidata": "Q668687", "ref": "3942600000"}, "type": "Feature"}
{"geometry": {"coordinates": [-89.652680971, 30.623491509], "type": "Point"}, "id": "XTOwiAWjA1meHiLs4Z1ODIDaZQk=", "properties": {"@source_uri": "https://tools.usps.com/UspsToolsRestServices/rest/POLocator/findLocations", "@spider": "usps_collection_boxes", "addr:city": "CARRIERE", "addr:country": "US", "addr:postcode": "39426", "addr:state": "MS", "addr:street_address": "7390 HIGHWAY 11", "amenity": "post_box", "brand": "United States Postal Service", "brand:wikidata": "Q668687", "collection_times": "Mo-Fr 16:10; Sa 11:00", "indoor": "yes", "note": "ON 12/24 AND 12/31, THIS BOX MAY BE COLLECTED AS EARLY AS 12 NOON.", "nsi_id": "unitedstatespostalservice-a77078", "operator": "United States Postal Service", "operator:short": "USPS", "operator:type": "public", "operator:wikidata": "Q668687", "ref": "3942600001"}, "type": "Feature"}
{"geometry": {"coordinates": [-89.652680971, 30.623491509], "type": "Point"}, "id": "TDYnHo4GDo4LKOVzah93CEYMciw=", "properties": {"@source_uri": "https://tools.usps.com/UspsToolsRestServices/rest/POLocator/findLocations", "@spider": "usps_collection_boxes", "addr:city": "CARRIERE", "addr:country": "US", "addr:postcode": "39426", "addr:state": "MS", "addr:street_address": "7390 HIGHWAY 11", "amenity": "post_box", "brand": "United States Postal Service", "brand:wikidata": "Q668687", "collection_times": "Mo-Fr 16:00; Sa 11:00", "indoor": "yes", "note": "ON 12/24 AND 12/31, THIS BOX MAY BE COLLECTED AS EARLY AS 12 NOON.", "nsi_id": "unitedstatespostalservice-a77078", "operator": "United States Postal Service", "operator:short": "USPS", "operator:type": "public", "operator:wikidata": "Q668687", "ref": "3942600002"}, "type": "Feature"}
{"geometry": {"coordinates": [-89.793231133, 31.537242148], "type": "Point"}, "id": "vIvH1VdwcawrSCR1xsoO-LONL6w=", "properties": {"@source_uri": "https://tools.usps.com/UspsToolsRestServices/rest/POLocator/findLocations", "@spider": "usps_collection_boxes", "addr:city": "CARSON", "addr:country": "US", "addr:postcode": "39427", "addr:state": "MS", "addr:street_address": "4963 HWY 42", "amenity": "post_box", "brand": "United States Postal Service", "brand:wikidata": "Q668687", "collection_times": "Mo-Fr 13:00; Sa 10:30", "note": "ON 12/24 AND 12/31, THIS BOX MAY BE COLLECTED AS EARLY AS 12 NOON.", "nsi_id": "unitedstatespostalservice-a77078", "operator": "United States Postal Service", "operator:short": "USPS", "operator:type": "public", "operator:wikidata": "Q668687", "ref": "3942700000"}, "type": "Feature"}
{"geometry": {"coordinates": [-89.793231133, 31.537242148], "type": "Point"}, "id": "j2cZhsuv8zIWGdBV4Pjy-wy5TbA=", "properties": {"@source_uri": "https://tools.usps.com/UspsToolsRestServices/rest/POLocator/findLocations", "@spider": "usps_collection_boxes", "addr:city": "CARSON", "addr:country": "US", "addr:postcode": "39427", "addr:state": "MS", "addr:street_address": "4963 HWY 42", "amenity": "post_box", "brand": "United States Postal Service", "brand:wikidata": "Q668687", "collection_times": "Mo-Fr 13:00; Sa 10:30", "indoor": "yes", "note": "ON 12/24 AND 12/31, THIS BOX MAY BE COLLECTED AS EARLY AS 12 NOON.", "nsi_id": "unitedstatespostalservice-a77078", "operator": "United States Postal Service", "operator:short": "USPS", "operator:type": "public", "operator:wikidata": "Q668687", "ref": "3942700001"}, "type": "Feature"}
{"geometry": {"coordinates": [-89.793231133, 31.537242148], "type": "Point"}, "id": "9Ok1rDtsYgdwAOowAAFb5HITJsE=", "properties": {"@source_uri": "https://tools.usps.com/UspsToolsRestServices/rest/POLocator/findLocations", "@spider": "usps_collection_boxes", "addr:city": "CARSON", "addr:country": "US", "addr:postcode": "39427", "addr:state": "MS", "addr:street_address": "4963 HWY 42", "amenity": "post_box", "brand": "United States Postal Service", "brand:wikidata": "Q668687", "collection_times": "Mo-Fr 13:00", "indoor": "yes", "note": "ON 12/24 AND 12/31, THIS BOX MAY BE COLLECTED AS EARLY AS 12 NOON.", "nsi_id": "unitedstatespostalservice-a77078", "operator": "United States Postal Service", "operator:short": "USPS", "operator:type": "public", "operator:wikidata": "Q668687", "ref": "3942700002"}, "type": "Feature"}
{"geometry": {"coordinates": [-89.5549465822, 31.6431795781], "type": "Point"}, "id": "uMOU0qC3RttvBelKg6H1y8on_-A=", "properties": {"@source_uri": "https://tools.usps.com/UspsToolsRestServices/rest/POLocator/findLocations", "@spider": "usps_collection_boxes", "addr:city": "COLLINS", "addr:country": "US", "addr:postcode": "39428", "addr:state": "MS", "addr:street_address": "304 S DOGWOOD AVE", "amenity": "post_box", "brand": "United States Postal Service", "brand:wikidata": "Q668687", "collection_times": "Mo-Fr 16:30; Sa 12:00", "note": "ON 12/24 AND 12/31, THIS BOX MAY BE COLLECTED AS EARLY AS 12 NOON.", "nsi_id": "unitedstatespostalservice-a77078", "operator": "United States Postal Service", "operator:short": "USPS", "operator:type": "public", "operator:wikidata": "Q668687", "ref": "3942800000"}, "type": "Feature"}
{"geometry": {"coordinates": [-89.554954411, 31.643178468], "type": "Point"}, "id": "E6Q20iDs1tyk9rJT7eom2Jx2ieo=", "properties": {"@source_uri": "https://tools.usps.com/UspsToolsRestServices/rest/POLocator/findLocations", "@spider": "usps_collection_boxes", "addr:city": "COLLINS", "addr:country": "US", "addr:postcode": "39428", "addr:state": "MS", "addr:street_address": "304 S DOGWOOD AVE", "amenity": "post_box", "brand": "United States Postal Service", "brand:wikidata": "Q668687", "collection_times": "Mo-Fr 16:30; Sa 12:00", "indoor": "yes", "note": "ON 12/24 AND 12/31, THIS BOX MAY BE COLLECTED AS EARLY AS 12 NOON.", "nsi_id": "unitedstatespostalservice-a77078", "operator": "United States Postal Service", "operator:short": "USPS", "operator:type": "public", "operator:wikidata": "Q668687", "ref": "3942800001"}, "type": "Feature"}
{"geometry": {"coordinates": [-89.554954411, 31.643178468], "type": "Point"}, "id": "IOrjbPCm0dMkz8k863xGmJEPAwc=", "properties": {"@source_uri": "https://tools.usps.com/UspsToolsRestServices/rest/POLocator/findLocations", "@spider": "usps_collection_boxes", "addr:city": "COLLINS", "addr:country": "US", "addr:postcode": "39428", "addr:state": "MS", "addr:street_address": "304 S DOGWOOD AVE", "amenity": "post_box", "brand": "United States Postal Service", "brand:wikidata": "Q668687", "collection_times": "Mo-Fr 16:30; Sa 12:00", "indoor": "yes", "note": "ON 12/24 AND 12/31, THIS BOX MAY BE COLLECTED AS EARLY AS 12 NOON.", "nsi_id": "unitedstatespostalservice-a77078", "operator": "United States Postal Service", "operator:short": "USPS", "operator:type": "public", "operator:wikidata": "Q668687", "ref": "3942800002"}, "type": "Feature"}
{"geometry": {"coordinates": [-89.835344994, 31.253403617], "type": "Point"}, "id": "XFxk9KZi8SZu92HrjLQZmqf1N10=", "properties": {"@source_uri": "https://tools.usps.com/UspsToolsRestServices/rest/POLocator/findLocations", "@spider": "usps_collection_boxes", "addr:city": "COLUMBIA", "addr:country": "US", "addr:postcode": "39429", "addr:state": "MS", "addr:street_address": "815 MAIN ST", "amenity": "post_box", "brand": "United States Postal Service", "brand:wikidata": "Q668687", "collection_times": "Mo-Fr 15:00; Sa 12:00", "note": "ON 12/24 AND 12/31, THIS BOX MAY BE COLLECTED AS EARLY AS 12 NOON.", "nsi_id": "unitedstatespostalservice-a77078", "operator": "United States Postal Service", "operator:short": "USPS", "operator:type": "public", "operator:wikidata": "Q668687", "ref": "3942900001"}, "type": "Feature"}
{"geometry": {"coordinates": [-89.835346521, 31.253400681], "type": "Point"}, "id": "XcZ5ui4Nr3DElC6WZys9-JxE7Is=", "properties": {"@source_uri": "https://tools.usps.com/UspsToolsRestServices/rest/POLocator/findLocations", "@spider": "usps_collection_boxes", "addr:city": "COLUMBIA", "addr:country": "US", "addr:postcode": "39429", "addr:state": "MS", "addr:street_address": "815 MAIN ST", "amenity": "post_box", "brand": "United States Postal Service", "brand:wikidata": "Q668687", "collection_times": "Mo-Fr 16:30; Sa 12:00", "indoor": "yes", "note": "ON 12/24 AND 12/31, THIS BOX MAY BE COLLECTED AS EARLY AS 12 NOON.", "nsi_id": "unitedstatespostalservice-a77078", "operator": "United States Postal Service", "operator:short": "USPS", "operator:type": "public", "operator:wikidata": "Q668687", "ref": "3942900002"}, "type": "Feature"}
{"geometry": {"coordinates": [-89.835346521, 31.253400681], "type": "Point"}, "id": "SsY0vFYJYhBJqr1NdHtK_4JwpQI=", "properties": {"@source_uri": "https://tools.usps.com/UspsToolsRestServices/rest/POLocator/findLocations", "@spider": "usps_collection_boxes", "addr:city": "COLUMBIA", "addr:country": "US", "addr:postcode": "39429", "addr:state": "MS", "addr:street_address": "815 MAIN ST", "amenity": "post_box", "brand": "United States Postal Service", "brand:wikidata": "Q668687", "collection_times": "Mo-Fr 16:30; Sa 12:00", "indoor": "yes", "note": "ON 12/24 AND 12/31, THIS BOX MAY BE COLLECTED AS EARLY AS 12 NOON.", "nsi_id": "unitedstatespostalservice-a77078", "operator": "United States Postal Service", "operator:short": "USPS", "operator:type": "public", "operator:wikidata": "Q668687", "ref": "3942900003"}, "type": "Feature"}
{"geometry": {"coordinates": [-89.8353731, 31.259378], "type": "Point"}, "id": "SHSH3_pZpuVTkfEECJ5mpxlFHu8=", "properties": {"@source_uri": "https://tools.usps.com/UspsToolsRestServices/rest/POLocator/findLocations", "@spider": "usps_collection_boxes", "addr:city": "COLUMBIA", "addr:country": "US", "addr:postcode": "39429", "addr:state": "MS", "addr:street_address": "1100 HIGHWAY 13 N", "amenity": "post_box", "brand": "United States Postal Service", "brand:wikidata": "Q668687", "collection_times": "Mo-Sa 11:30", "nsi_id": "unitedstatespostalservice-a77078", "operator": "United States Postal Service", "operator:short": "USPS", "operator:type": "public", "operator:wikidata": "Q668687", "ref": "3942900008"}, "type": "Feature"}
{"geometry": {"coordinates": [-89.8113645, 31.244577], "type": "Point"}, "id": "NWl5gbbzYSUu2nZiS2tAlaGLHu4=", "properties": {"@source_uri": "https://tools.usps.com/UspsToolsRestServices/rest/POLocator/findLocations", "@spider": "usps_collection_boxes", "addr:city": "COLUMBIA", "addr:country": "US", "addr:postcode": "39429", "addr:state": "MS", "addr:street_address": "1071/2 WALTER PAYTON DR", "amenity": "post_box", "brand": "United States Postal Service", "brand:wikidata": "Q668687", "collection_times": "Mo-Sa 11:30", "nsi_id": "unitedstatespostalservice-a77078", "operator": "United States Postal Service", "operator:short": "USPS", "operator:type": "public", "operator:wikidata": "Q668687", "ref": "3942900009"}, "type": "Feature"}
{"geometry": {"coordinates": [-89.835346521, 31.253400681], "type": "Point"}, "id": "0GxY9TRRqbm9gjgKXk3z1vHk0uk=", "properties": {"@source_uri": "https://tools.usps.com/UspsToolsRestServices/rest/POLocator/findLocations", "@spider": "usps_collection_boxes", "addr:city": "COLUMBIA", "addr:country": "US", "addr:postcode": "39429", "addr:state": "MS", "addr:street_address": "815 MAIN ST", "amenity": "post_box", "brand": "United States Postal Service", "brand:wikidata": "Q668687", "collection_times": "Mo-Fr 16:30; Sa 12:00", "indoor": "yes", "note": "ON 12/24 AND 12/31, THIS BOX MAY BE COLLECTED AS EARLY AS 12 NOON.", "nsi_id": "unitedstatespostalservice-a77078", "operator": "United States Postal Service", "operator:short": "USPS", "operator:type": "public", "operator:wikidata": "Q668687", "ref": "3942900010"}, "type": "Feature"}
{"geometry": {"coordinates": [-89.2850051122, 31.4365441754], "type": "Point"}, "id": "xXZtIdfVY6oiaz4prcnBwehJcD8=", "properties": {"@source_uri": "https://tools.usps.com/UspsToolsRestServices/rest/POLocator/findLocations", "@spider": "usps_collection_boxes", "addr:city": "EASTABUCHIE", "addr:country": "US", "addr:postcode": "39436", "addr:state": "MS", "addr:street_address": "423 CHURCH ST", "amenity": "post_box", "brand": "United States Postal Service", "brand:wikidata": "Q668687", "collection_times": "Mo-Fr 10:15; Sa 10:00", "nsi_id": "unitedstatespostalservice-a77078", "operator": "United States Postal Service", "operator:short": "USPS", "operator:type": "public", "operator:wikidata": "Q668687", "ref": "3943600000"}, "type": "Feature"}
{"geometry": {"coordinates": [-89.2850051122, 31.4365441754], "type": "Point"}, "id": "irwNAQYCqMz5OHC2uHWEg7iSzL8=", "properties": {"@source_uri": "https://tools.usps.com/UspsToolsRestServices/rest/POLocator/findLocations", "@spider": "usps_collection_boxes", "addr:city": "EASTABUCHIE", "addr:country": "US", "addr:postcode": "39436", "addr:state": "MS", "addr:street_address": "423 CHURCH ST", "amenity": "post_box", "brand": "United States Postal Service", "brand:wikidata": "Q668687", "collection_times": "Mo-Fr 10:15; Sa 10:00", "indoor": "yes", "nsi_id": "unitedstatespostalservice-a77078", "operator": "United States Postal Service", "operator:short": "USPS", "operator:type": "public", "operator:wikidata": "Q668687", "ref": "3943600001"}, "type": "Feature"}
{"geometry": {"coordinates": [-89.287253365, 31.436696671], "type": "Point"}, "id": "619mtlDssyYyQ3lfmKqsle_Cn68=", "properties": {"@source_uri": "https://tools.usps.com/UspsToolsRestServices/rest/POLocator/findLocations", "@spider": "usps_collection_boxes", "addr:city": "EASTABUCHIE", "addr:country": "US", "addr:postcode": "39436", "addr:state": "MS", "addr:street_address": "429 CHURCH ST", "amenity": "post_box", "brand": "United States Postal Service", "brand:wikidata": "Q668687", "collection_times": "Mo-Sa 10:30", "indoor": "yes", "nsi_id": "unitedstatespostalservice-a77078", "operator": "United States Postal Service", "operator:short": "USPS", "operator:type": "public", "operator:wikidata": "Q668687", "ref": "3943600002"}, "type": "Feature"}
{"geometry": {"coordinates": [-89.197253443, 31.602365438], "type": "Point"}, "id": "0-5zsZmrK4EK1GDx-RiYRmSnI0o=", "properties": {"@source_uri": "https://tools.usps.com/UspsToolsRestServices/rest/POLocator/findLocations", "@spider": "usps_collection_boxes", "addr:city": "ELLISVILLE", "addr:country": "US", "addr:postcode": "39437", "addr:state": "MS", "addr:street_address": "303 S COURT ST", "amenity": "post_box", "brand": "United States Postal Service", "brand:wikidata": "Q668687", "collection_times": "Mo-Fr 16:15; Sa 12:00", "note": "ON 12/24 AND 12/31, THIS BOX MAY BE COLLECTED AS EARLY AS 12 NOON.", "nsi_id": "unitedstatespostalservice-a77078", "operator": "United States Postal Service", "operator:short": "USPS", "operator:type": "public", "operator:wikidata": "Q668687", "ref": "3943700000"}, "type": "Feature"}
{"geometry": {"coordinates": [-89.197253443, 31.602365438], "type": "Point"}, "id": "XOn37niFqVfFp0HpavUoXWqrYCo=", "properties": {"@source_uri": "https://tools.usps.com/UspsToolsRestServices/rest/POLocator/findLocations", "@spider": "usps_collection_boxes", "addr:city": "ELLISVILLE", "addr:country": "US", "addr:postcode": "39437", "addr:state": "MS", "addr:street_address": "303 S COURT ST", "amenity": "post_box", "brand": "United States Postal Service", "brand:wikidata": "Q668687", "collection_times": "Mo-Fr 16:15; Sa 12:00", "indoor": "yes", "note": "ON 12/24 AND 12/31, THIS BOX MAY BE COLLECTED AS EARLY AS 12 NOON.", "nsi_id": "unitedstatespostalservice-a77078", "operator": "United States Postal Service", "operator:short": "USPS", "operator:type": "public", "operator:wikidata": "Q668687", "ref": "3943700001"}, "type": "Feature"}
{"geometry": {"coordinates": [-89.2016666, 31.608751], "type": "Point"}, "id": "CQdjbohHaTYsPAPmsKYWR6gYhOA=", "properties": {"@source_uri": "https://tools.usps.com/UspsToolsRestServices/rest/POLocator/findLocations", "@spider": "usps_collection_boxes", "addr:city": "ELLISVILLE", "addr:country": "US", "addr:postcode": "39437", "addr:state": "MS", "addr:street_address": "623 HILL ST", "amenity": "post_box", "brand": "United States Postal Service", "brand:wikidata": "Q668687", "collection_times": "Mo-Fr 11:00; Sa 10:15", "nsi_id": "unitedstatespostalservice-a77078", "operator": "United States Postal Service", "operator:short": "USPS", "operator:type": "public", "operator:wikidata": "Q668687", "ref": "3943700002"}, "type": "Feature"}
{"geometry": {"coordinates": [-89.2043146, 31.609974], "type": "Point"}, "id": "LH2ej0a_YHcbkDa85zw9R4sjCIo=", "properties": {"@source_uri": "https://tools.usps.com/UspsToolsRestServices/rest/POLocator/findLocations", "@spider": "usps_collection_boxes", "addr:city": "ELLISVILLE", "addr:country": "US", "addr:postcode": "39437", "addr:state": "MS", "addr:street_address": "200 ADAMS ST", "amenity": "post_box", "brand": "United States Postal Service", "brand:wikidata": "Q668687", "collection_times": "Mo-Fr 12:00; Sa 11:40", "nsi_id": "unitedstatespostalservice-a77078", "operator": "United States Postal Service", "operator:short": "USPS", "operator:type": "public", "operator:wikidata": "Q668687", "ref": "3943700003"}, "type": "Feature"}
{"geometry": {"coordinates": [-89.197253443, 31.602365438], "type": "Point"}, "id": "yuZR31WR9inMFUpoUjmX2MeCfbA=", "properties": {"@source_uri": "https://tools.usps.com/UspsToolsRestServices/rest/POLocator/findLocations", "@spider": "usps_collection_boxes", "addr:city": "ELLISVILLE", "addr:country": "US", "addr:postcode": "39437", "addr:state": "MS", "addr:street_address": "303 S COURT ST", "amenity": "post_box", "brand": "United States Postal Service", "brand:wikidata": "Q668687", "collection_times": "Mo-Fr 16:30; Sa 12:00", "indoor": "yes", "note": "ON 12/24 AND 12/31, THIS BOX MAY BE COLLECTED AS EARLY AS 12 NOON.", "nsi_id": "unitedstatespostalservice-a77078", "operator": "United States Postal Service", "operator:short": "USPS", "operator:type": "public", "operator:wikidata": "Q668687", "ref": "3943700005"}, "type": "Feature"}
{"geometry": {"coordinates": [-88.984971, 31.888130106], "type": "Point"}, "id": "jiwcCXraWwIGEf2BM2xThMgLziw=", "properties": {"@source_uri": "https://tools.usps.com/UspsToolsRestServices/rest/POLocator/findLocations", "@spider": "usps_collection_boxes", "addr:city": "HEIDELBERG", "addr:country": "US", "addr:postcode": "39439", "addr:state": "MS", "addr:street_address": "105 N OAK AVE", "amenity": "post_box", "brand": "United States Postal Service", "brand:wikidata": "Q668687", "collection_times": "Mo-Fr 16:00; Sa 10:30", "note": "ON 12/24 AND 12/31, THIS BOX MAY BE COLLECTED AS EARLY AS 12 NOON.", "nsi_id": "unitedstatespostalservice-a77078", "operator": "United States Postal Service", "operator:short": "USPS", "operator:type": "public", "operator:wikidata": "Q668687", "ref": "3943900000"}, "type": "Feature"}
{"geometry": {"coordinates": [-88.984971, 31.888130106], "type": "Point"}, "id": "0-TBJxfogGNIqCpdr36cvbSz12Y=", "properties": {"@source_uri": "https://tools.usps.com/UspsToolsRestServices/rest/POLocator/findLocations", "@spider": "usps_collection_boxes", "addr:city": "HEIDELBERG", "addr:country": "US", "addr:postcode": "39439", "addr:state": "MS", "addr:street_address": "105 N OAK AVE", "amenity": "post_box", "brand": "United States Postal Service", "brand:wikidata": "Q668687", "collection_times": "Mo-Fr 16:00; Sa 10:30", "indoor": "yes", "note": "ON 12/24 AND 12/31, THIS BOX MAY BE COLLECTED AS EARLY AS 12 NOON.", "nsi_id": "unitedstatespostalservice-a77078", "operator": "United States Postal Service", "operator:short": "USPS", "operator:type": "public", "operator:wikidata": "Q668687", "ref": "3943900002"}, "type": "Feature"}
{"geometry": {"coordinates": [-88.984971, 31.888130106], "type": "Point"}, "id": "gA-SGlxtxgWH0-Xy_9U-h4dNdG0=", "properties": {"@source_uri": "https://tools.usps.com/UspsToolsRestServices/rest/POLocator/findLocations", "@spider": "usps_collection_boxes", "addr:city": "HEIDELBERG", "addr:country": "US", "addr:postcode": "39439", "addr:state": "MS", "addr:street_address": "105 N OAK AVE", "amenity": "post_box", "brand": "United States Postal Service", "brand:wikidata": "Q668687", "collection_times": "Mo-Fr 16:00; Sa 10:30", "indoor": "yes", "note": "ON 12/24 AND 12/31, THIS BOX MAY BE COLLECTED AS EARLY AS 12 NOON.", "nsi_id": "unitedstatespostalservice-a77078", "operator": "United States Postal Service", "operator:short": "USPS", "operator:type": "public", "operator:wikidata": "Q668687", "ref": "3943900003"}, "type": "Feature"}
{"geometry": {"coordinates": [-89.1477162, 31.719738], "type": "Point"}, "id": "olIacYzNHnk0yBnQZD7u05OF8Ss=", "properties": {"@source_uri": "https://tools.usps.com/UspsToolsRestServices/rest/POLocator/findLocations", "@spider": "usps_collection_boxes", "addr:city": "LAUREL", "addr:country": "US", "addr:postcode": "39440", "addr:state": "MS", "addr:street_address": "2300 HIGHWAY 15 N", "amenity": "post_box", "brand": "United States Postal Service", "brand:wikidata": "Q668687", "collection_times": "Mo-Fr 14:30; Sa 14:00", "note": "ON 12/24 AND 12/31, THIS BOX MAY BE COLLECTED AS EARLY AS 12 NOON.", "nsi_id": "unitedstatespostalservice-a77078", "operator": "United States Postal Service", "operator:short": "USPS", "operator:type": "public", "operator:wikidata": "Q668687", "ref": "3944000009"}, "type": "Feature"}
{"geometry": {"coordinates": [-89.1474561, 31.699801], "type": "Point"}, "id": "MAB5FVMGKP8xWk6xtIc4BwbwHRU=", "properties": {"@source_uri": "https://tools.usps.com/UspsToolsRestServices/rest/POLocator/findLocations", "@spider": "usps_collection_boxes", "addr:city": "LAUREL", "addr:country": "US", "addr:postcode": "39440", "addr:state": "MS", "addr:street_address": "900 N 16TH AVE", "amenity": "post_box", "brand": "United States Postal Service", "brand:wikidata": "Q668687", "collection_times": "Mo-Fr 14:30; Sa 14:00", "note": "ON 12/24 AND 12/31, THIS BOX MAY BE COLLECTED AS EARLY AS 12 NOON.", "nsi_id": "unitedstatespostalservice-a77078", "operator": "United States Postal Service", "operator:short": "USPS", "operator:type": "public", "operator:wikidata": "Q668687", "ref": "3944000010"}, "type": "Feature"}
{"geometry": {"coordinates": [-89.1474452, 31.699799], "type": "Point"}, "id": "Iqcc8Ue-ojMuqA6ozsxTF5ga17A=", "properties": {"@source_uri": "https://tools.usps.com/UspsToolsRestServices/rest/POLocator/findLocations", "@spider": "usps_collection_boxes", "addr:city": "LAUREL", "addr:country": "US", "addr:postcode": "39440", "addr:state": "MS", "addr:street_address": "900 N 16TH AVE", "amenity": "post_box", "brand": "United States Postal Service", "brand:wikidata": "Q668687", "collection_times": "Mo-Fr 14:30; Sa 14:00", "note": "ON 12/24 AND 12/31, THIS BOX MAY BE COLLECTED AS EARLY AS 12 NOON.", "nsi_id": "unitedstatespostalservice-a77078", "operator": "United States Postal Service", "operator:short": "USPS", "operator:type": "public", "operator:wikidata": "Q668687", "ref": "3944000012"}, "type": "Feature"}
{"geometry": {"coordinates": [-89.1304494, 31.692196], "type": "Point"}, "id": "9x_bAZW-5yxPnr0clBRKo7WTjZA=", "properties": {"@source_uri": "https://tools.usps.com/UspsToolsRestServices/rest/POLocator/findLocations", "@spider": "usps_collection_boxes", "addr:city": "LAUREL", "addr:country": "US", "addr:postcode": "39440", "addr:state": "MS", "addr:street_address": "400 CENTRAL AVE", "amenity": "post_box", "brand": "United States Postal Service", "brand:wikidata": "Q668687", "collection_times": "Mo-Fr 14:30", "note": "ON 12/24 AND 12/31, THIS BOX MAY BE COLLECTED AS EARLY AS 12 NOON.", "nsi_id": "unitedstatespostalservice-a77078", "operator": "United States Postal Service", "operator:short": "USPS", "operator:type": "public", "operator:wikidata": "Q668687", "ref": "3944000024"}, "type": "Feature"}
{"geometry": {"coordinates": [-89.1324526, 31.692679], "type": "Point"}, "id": "3038jHpRnftULmEUgy8cjhh139A=", "properties": {"@source_uri": "https://tools.usps.com/UspsToolsRestServices/rest/POLocator/findLocations", "@spider": "usps_collection_boxes", "addr:city": "LAUREL", "addr:country": "US", "addr:postcode": "39440", "addr:state": "MS", "addr:street_address": "530 COMMERCE ST", "amenity": "post_box", "brand": "United States Postal Service", "brand:wikidata": "Q668687", "collection_times": "Mo-Fr 14:30", "note": "ON 12/24 AND 12/31, THIS BOX MAY BE COLLECTED AS EARLY AS 12 NOON.", "nsi_id": "unitedstatespostalservice-a77078", "operator": "United States Postal Service", "operator:short": "USPS", "operator:type": "public", "operator:wikidata": "Q668687", "ref": "3944000026"}, "type": "Feature"}
{"geometry": {"coordinates": [-89.1397038, 31.730143], "type": "Point"}, "id": "Y5x1psT56VgNqShxsaRxFJmfE5E=", "properties": {"@source_uri": "https://tools.usps.com/UspsToolsRestServices/rest/POLocator/findLocations", "@spider": "usps_collection_boxes", "addr:city": "LAUREL", "addr:country": "US", "addr:postcode": "39440", "addr:state": "MS", "addr:street_address": "3200 AUDUBON DR", "amenity": "post_box", "brand": "United States Postal Service", "brand:wikidata": "Q668687", "collection_times": "Mo-Fr 14:30; Sa 14:00", "note": "ON 12/24 AND 12/31, THIS BOX MAY BE COLLECTED AS EARLY AS 12 NOON.", "nsi_id": "unitedstatespostalservice-a77078", "operator": "United States Postal Service", "operator:short": "USPS", "operator:type": "public", "operator:wikidata": "Q668687", "ref": "3944000033"}, "type": "Feature"}
{"geometry": {"coordinates": [-89.1341914, 31.690469], "type": "Point"}, "id": "OPIf0fuK7f2nAm2jwBldJb7PE4M=", "properties": {"@source_uri": "https://tools.usps.com/UspsToolsRestServices/rest/POLocator/findLocations", "@spider": "usps_collection_boxes", "addr:city": "LAUREL", "addr:country": "US", "addr:postcode": "39440", "addr:state": "MS", "addr:street_address": "140 BEACON ST", "amenity": "post_box", "brand": "United States Postal Service", "brand:wikidata": "Q668687", "collection_times": "Mo-Fr 16:15; Sa 14:00", "note": "ON 12/24 AND 12/31, THIS BOX MAY BE COLLECTED AS EARLY AS 12 NOON.", "nsi_id": "unitedstatespostalservice-a77078", "operator": "United States Postal Service", "operator:short": "USPS", "operator:type": "public", "operator:wikidata": "Q668687", "ref": "3944000036"}, "type": "Feature"}
{"geometry": {"coordinates": [-89.1302643, 31.694774], "type": "Point"}, "id": "3IHXWdsHg4hXijpRsJ7fb7ZN6go=", "properties": {"@source_uri": "https://tools.usps.com/UspsToolsRestServices/rest/POLocator/findLocations", "@spider": "usps_collection_boxes", "addr:city": "LAUREL", "addr:country": "US", "addr:postcode": "39440", "addr:state": "MS", "addr:street_address": "400 SAWMILL RD", "amenity": "post_box", "brand": "United States Postal Service", "brand:wikidata": "Q668687", "collection_times": "Mo-Fr 16:00; Sa 12:00", "note": "ON 12/24 AND 12/31, THIS BOX MAY BE COLLECTED AS EARLY AS 12 NOON.", "nsi_id": "unitedstatespostalservice-a77078", "operator": "United States Postal Service", "operator:short": "USPS", "operator:type": "public", "operator:wikidata": "Q668687", "ref": "3944000042"}, "type": "Feature"}
{"geometry": {"coordinates": [-89.132644, 31.693688], "type": "Point"}, "id": "GZWSJZ28bT-kD9HJ4zxavupTWX8=", "properties": {"@source_uri": "https://tools.usps.com/UspsToolsRestServices/rest/POLocator/findLocations", "@spider": "usps_collection_boxes", "addr:city": "LAUREL", "addr:country": "US", "addr:postcode": "39440", "addr:state": "MS", "addr:street_address": "400 SAWMILL RD", "amenity": "post_box", "brand": "United States Postal Service", "brand:wikidata": "Q668687", "collection_times": "Mo-Fr 16:00; Sa 12:00", "note": "ON 12/24 AND 12/31, THIS BOX MAY BE COLLECTED AS EARLY AS 12 NOON.", "nsi_id": "unitedstatespostalservice-a77078", "operator": "United States Postal Service", "operator:short": "USPS", "operator:type": "public", "operator:wikidata": "Q668687", "ref": "3944000043"}, "type": "Feature"}
{"geometry": {"coordinates": [-89.132644, 31.693688], "type": "Point"}, "id": "tjX3lc28KUx8S5aioFcZrVBUNDE=", "properties": {"@source_uri": "https://tools.usps.com/UspsToolsRestServices/rest/POLocator/findLocations", "@spider": "usps_collection_boxes", "addr:city": "LAUREL", "addr:country": "US", "addr:postcode": "39440", "addr:state": "MS", "addr:street_address": "400 SAWMILL RD", "amenity": "post_box", "brand": "United States Postal Service", "brand:wikidata": "Q668687", "collection_times": "Mo-Fr 16:00; Sa 12:00", "note": "ON 12/24 AND 12/31, THIS BOX MAY BE COLLECTED AS EARLY AS 12 NOON.", "nsi_id": "unitedstatespostalservice-a77078", "operator": "United States Postal Service", "operator:short": "USPS", "operator:type": "public", "operator:wikidata": "Q668687", "ref": "3944000044"}, "type": "Feature"}
{"geometry": {"coordinates": [-89.132644, 31.693688], "type": "Point"}, "id": "qOWqOYSgb6MqCHecCLW_0KDofw0=", "properties": {"@source_uri": "https://tools.usps.com/UspsToolsRestServices/rest/POLocator/findLocations", "@spider": "usps_collection_boxes", "addr:city": "LAUREL", "addr:country": "US", "addr:postcode": "39440", "addr:state": "MS", "addr:street_address": "400 SAWMILL RD", "amenity": "post_box", "brand": "United States Postal Service", "brand:wikidata": "Q668687", "collection_times": "Mo-Fr 16:00; Sa 12:00", "note": "ON 12/24 AND 12/31, THIS BOX MAY BE COLLECTED AS EARLY AS 12 NOON.", "nsi_id": "unitedstatespostalservice-a77078", "operator": "United States Postal Service", "operator:short": "USPS", "operator:type": "public", "operator:wikidata": "Q668687", "ref": "3944000045"}, "type": "Feature"}
{"geometry": {"coordinates": [-89.132040894, 31.69466521], "type": "Point"}, "id": "Vi-xOQ73j0p6pV_9rXXJ-G2dJpQ=", "properties": {"@source_uri": "https://tools.usps.com/UspsToolsRestServices/rest/POLocator/findLocations", "@spider": "usps_collection_boxes", "addr:city": "LAUREL", "addr:country": "US", "addr:postcode": "39440", "addr:state": "MS", "addr:street_address": "315 SAWMILL RD", "amenity": "post_box", "brand": "United States Postal Service", "brand:wikidata": "Q668687", "collection_times": "Mo-Fr 17:00; Sa 14:30", "indoor": "yes", "note": "ON 12/24 AND 12/31, THIS BOX MAY BE COLLECTED AS EARLY AS 12 NOON.", "nsi_id": "unitedstatespostalservice-a77078", "operator": "United States Postal Service", "operator:short": "USPS", "operator:type": "public", "operator:wikidata": "Q668687", "ref": "3944000047"}, "type": "Feature"}
{"geometry": {"coordinates": [-89.132040894, 31.69466521], "type": "Point"}, "id": "07gB98B9bGMmnhPljFNHeJAitAE=", "properties": {"@source_uri": "https://tools.usps.com/UspsToolsRestServices/rest/POLocator/findLocations", "@spider": "usps_collection_boxes", "addr:city": "LAUREL", "addr:country": "US", "addr:postcode": "39440", "addr:state": "MS", "addr:street_address": "315 SAWMILL RD", "amenity": "post_box", "brand": "United States Postal Service", "brand:wikidata": "Q668687", "collection_times": "Mo-Fr 17:00; Sa 14:30", "indoor": "yes", "note": "ON 12/24 AND 12/31, THIS BOX MAY BE COLLECTED AS EARLY AS 12 NOON.", "nsi_id": "unitedstatespostalservice-a77078", "operator": "United States Postal Service", "operator:short": "USPS", "operator:type": "public", "operator:wikidata": "Q668687", "ref": "3944000048"}, "type": "Feature"}
{"geometry": {"coordinates": [-89.1463558, 31.693191], "type": "Point"}, "id": "sGJj795sJ19aDNalsF8zNY7Hd-Y=", "properties": {"@source_uri": "https://tools.usps.com/UspsToolsRestServices/rest/POLocator/findLocations", "@spider": "usps_collection_boxes", "addr:city": "LAUREL", "addr:country": "US", "addr:postcode": "39440", "addr:state": "MS", "addr:street_address": "300 N 16TH AVE", "amenity": "post_box", "brand": "United States Postal Service", "brand:wikidata": "Q668687", "collection_times": "Mo-Fr 15:00; Sa 14:00", "note": "ON 12/24 AND 12/31, THIS BOX MAY BE COLLECTED AS EARLY AS 12 NOON.", "nsi_id": "unitedstatespostalservice-a77078", "operator": "United States Postal Service", "operator:short": "USPS", "operator:type": "public", "operator:wikidata": "Q668687", "ref": "3944000056"}, "type": "Feature"}
{"geometry": {"coordinates": [-89.132040894, 31.69466521], "type": "Point"}, "id": "mUKOy_bbqgs2v-xZqb2Czz1bTJo=", "properties": {"@source_uri": "https://tools.usps.com/UspsToolsRestServices/rest/POLocator/findLocations", "@spider": "usps_collection_boxes", "addr:city": "LAUREL", "addr:country": "US", "addr:postcode": "39440", "addr:state": "MS", "addr:street_address": "315 SAWMILL RD", "amenity": "post_box", "brand": "United States Postal Service", "brand:wikidata": "Q668687", "collection_times": "Mo-Fr 17:00; Sa 12:00", "indoor": "yes", "note": "ON 12/24 AND 12/31, THIS BOX MAY BE COLLECTED AS EARLY AS 12 NOON.", "nsi_id": "unitedstatespostalservice-a77078", "operator": "United States Postal Service", "operator:short": "USPS", "operator:type": "public", "operator:wikidata": "Q668687", "ref": "3944000060"}, "type": "Feature"}
{"geometry": {"coordinates": [-88.5554847, 31.155835072], "type": "Point"}, "id": "8ZMv8peDhKhhhW1KclJ1K-mUvos=", "properties": {"@source_uri": "https://tools.usps.com/UspsToolsRestServices/rest/POLocator/findLocations", "@spider": "usps_collection_boxes", "addr:city": "LEAKESVILLE", "addr:country": "US", "addr:postcode": "39451", "addr:state": "MS", "addr:street_address": "621 GRAND AVE", "amenity": "post_box", "brand": "United States Postal Service", "brand:wikidata": "Q668687", "collection_times": "Mo-Fr 16:00; Sa 11:00", "note": "ON 12/24 AND 12/31, THIS BOX MAY BE COLLECTED AS EARLY AS 12 NOON.", "nsi_id": "unitedstatespostalservice-a77078", "operator": "United States Postal Service", "operator:short": "USPS", "operator:type": "public", "operator:wikidata": "Q668687", "ref": "3945100000"}, "type": "Feature"}
{"geometry": {"coordinates": [-88.5554847, 31.155835072], "type": "Point"}, "id": "VGrG-rVN8_pGEoVX7RL63reg8AY=", "properties": {"@source_uri": "https://tools.usps.com/UspsToolsRestServices/rest/POLocator/findLocations", "@spider": "usps_collection_boxes", "addr:city": "LEAKESVILLE", "addr:country": "US", "addr:postcode": "39451", "addr:state": "MS", "addr:street_address": "621 GRAND AVE", "amenity": "post_box", "brand": "United States Postal Service", "brand:wikidata": "Q668687", "collection_times": "Mo-Fr 16:00; Sa 11:00", "indoor": "yes", "note": "ON 12/24 AND 12/31, THIS BOX MAY BE COLLECTED AS EARLY AS 12 NOON.", "nsi_id": "unitedstatespostalservice-a77078", "operator": "United States Postal Service", "operator:short": "USPS", "operator:type": "public", "operator:wikidata": "Q668687", "ref": "3945100002"}, "type": "Feature"}
{"geometry": {"coordinates": [-88.592660991, 30.923809132], "type": "Point"}, "id": "P_1ZFwGfr1YtM5GEIeogB6V_ZFQ=", "properties": {"@source_uri": "https://tools.usps.com/UspsToolsRestServices/rest/POLocator/findLocations", "@spider": "usps_collection_boxes", "addr:city": "LUCEDALE", "addr:country": "US", "addr:postcode": "39452", "addr:state": "MS", "addr:street_address": "209 COX ST", "amenity": "post_box", "brand": "United States Postal Service", "brand:wikidata": "Q668687", "collection_times": "Mo-Fr 16:30; Sa 16:00", "note": "ON 12/24 AND 12/31, THIS BOX MAY BE COLLECTED AS EARLY AS 12 NOON.", "nsi_id": "unitedstatespostalservice-a77078", "operator": "United States Postal Service", "operator:short": "USPS", "operator:type": "public", "operator:wikidata": "Q668687", "ref": "3945200001"}, "type": "Feature"}
{"geometry": {"coordinates": [-88.592660991, 30.923809132], "type": "Point"}, "id": "NvNeECrca6COqYuAQV-mKlOg0wQ=", "properties": {"@source_uri": "https://tools.usps.com/UspsToolsRestServices/rest/POLocator/findLocations", "@spider": "usps_collection_boxes", "addr:city": "LUCEDALE", "addr:country": "US", "addr:postcode": "39452", "addr:state": "MS", "addr:street_address": "209 COX ST", "amenity": "post_box", "brand": "United States Postal Service", "brand:wikidata": "Q668687", "collection_times": "Mo-Fr 16:30; Sa 16:00", "indoor": "yes", "note": "ON 12/24 AND 12/31, THIS BOX MAY BE COLLECTED AS EARLY AS 12 NOON.", "nsi_id": "unitedstatespostalservice-a77078", "operator": "United States Postal Service", "operator:short": "USPS", "operator:type": "public", "operator:wikidata": "Q668687", "ref": "3945200004"}, "type": "Feature"}
{"geometry": {"coordinates": [-88.592660991, 30.923809132], "type": "Point"}, "id": "XFUmwgpGBy6sNHc9y-HdcfxKS-s=", "properties": {"@source_uri": "https://tools.usps.com/UspsToolsRestServices/rest/POLocator/findLocations", "@spider": "usps_collection_boxes", "addr:city": "LUCEDALE", "addr:country": "US", "addr:postcode": "39452", "addr:state": "MS", "addr:street_address": "209 COX ST", "amenity": "post_box", "brand": "United States Postal Service", "brand:wikidata": "Q668687", "collection_times": "Mo-Fr 16:30; Sa 12:00", "indoor": "yes", "note": "ON 12/24 AND 12/31, THIS BOX MAY BE COLLECTED AS EARLY AS 12 NOON.", "nsi_id": "unitedstatespostalservice-a77078", "operator": "United States Postal Service", "operator:short": "USPS", "operator:type": "public", "operator:wikidata": "Q668687", "ref": "3945200005"}, "type": "Feature"}
{"geometry": {"coordinates": [-89.452709851, 31.000608575], "type": "Point"}, "id": "h5ji5t3bm_Om-VqEsCgn_0p0h9M=", "properties": {"@source_uri": "https://tools.usps.com/UspsToolsRestServices/rest/POLocator/findLocations", "@spider": "usps_collection_boxes", "addr:city": "LUMBERTON", "addr:country": "US", "addr:postcode": "39455", "addr:state": "MS", "addr:street_address": "7877 U S HIGHWAY 11", "amenity": "post_box", "brand": "United States Postal Service", "brand:wikidata": "Q668687", "collection_times": "Mo-Fr 16:30; Sa 12:00", "note": "ON 12/24 AND 12/31, THIS BOX MAY BE COLLECTED AS EARLY AS 12 NOON.", "nsi_id": "unitedstatespostalservice-a77078", "operator": "United States Postal Service", "operator:short": "USPS", "operator:type": "public", "operator:wikidata": "Q668687", "ref": "3945500000"}, "type": "Feature"}
{"geometry": {"coordinates": [-89.452709851, 31.000608575], "type": "Point"}, "id": "7sBWQLq2bj9wgv6L63p1BH1x92I=", "properties": {"@source_uri": "https://tools.usps.com/UspsToolsRestServices/rest/POLocator/findLocations", "@spider": "usps_collection_boxes", "addr:city": "LUMBERTON", "addr:country": "US", "addr:postcode": "39455", "addr:state": "MS", "addr:street_address": "7877 U S HIGHWAY 11", "amenity": "post_box", "brand": "United States Postal Service", "brand:wikidata": "Q668687", "collection_times": "Mo-Fr 16:30; Sa 12:00", "indoor": "yes", "note": "ON 12/24 AND 12/31, THIS BOX MAY BE COLLECTED AS EARLY AS 12 NOON.", "nsi_id": "unitedstatespostalservice-a77078", "operator": "United States Postal Service", "operator:short": "USPS", "operator:type": "public", "operator:wikidata": "Q668687", "ref": "3945500006"}, "type": "Feature"}
{"geometry": {"coordinates": [-88.827308, 31.108592], "type": "Point"}, "id": "pfDphqDTmr5GMu4U39BM0KOM0Mg=", "properties": {"@source_uri": "https://tools.usps.com/UspsToolsRestServices/rest/POLocator/findLocations", "@spider": "usps_collection_boxes", "addr:city": "MCLAIN", "addr:country": "US", "addr:postcode": "39456", "addr:state": "MS", "addr:street_address": "103 W MAIN ST", "amenity": "post_box", "brand": "United States Postal Service", "brand:wikidata": "Q668687", "collection_times": "Mo-Fr 12:00; Sa 10:55", "nsi_id": "unitedstatespostalservice-a77078", "operator": "United States Postal Service", "operator:short": "USPS", "operator:type": "public", "operator:wikidata": "Q668687", "ref": "3945600000"}, "type": "Feature"}
{"geometry": {"coordinates": [-88.8273965092, 31.1085766693], "type": "Point"}, "id": "T_OSTixyW8pqFOCcEjc-j4P2jfQ=", "properties": {"@source_uri": "https://tools.usps.com/UspsToolsRestServices/rest/POLocator/findLocations", "@spider": "usps_collection_boxes", "addr:city": "MCLAIN", "addr:country": "US", "addr:postcode": "39456", "addr:state": "MS", "addr:street_address": "103 W MAIN ST", "amenity": "post_box", "brand": "United States Postal Service", "brand:wikidata": "Q668687", "collection_times": "Mo-Fr 12:00; Sa 11:00", "indoor": "yes", "nsi_id": "unitedstatespostalservice-a77078", "operator": "United States Postal Service", "operator:short": "USPS", "operator:type": "public", "operator:wikidata": "Q668687", "ref": "3945600003"}, "type": "Feature"}
{"geometry": {"coordinates": [-89.6368085767, 30.6665119566], "type": "Point"}, "id": "5mun3iNXgWwcqkiZ2Hp2OM-qzEI=", "properties": {"@source_uri": "https://tools.usps.com/UspsToolsRestServices/rest/POLocator/findLocations", "@spider": "usps_collection_boxes", "addr:city": "MCNEILL", "addr:country": "US", "addr:postcode": "39457", "addr:state": "MS", "addr:street_address": "8032 HIGHWAY 11", "amenity": "post_box", "brand": "United States Postal Service", "brand:wikidata": "Q668687", "collection_times": "Mo-Fr 15:30; Sa 10:45", "note": "ON 12/24 AND 12/31, THIS BOX MAY BE COLLECTED AS EARLY AS 12 NOON.", "nsi_id": "unitedstatespostalservice-a77078", "operator": "United States Postal Service", "operator:short": "USPS", "operator:type": "public", "operator:wikidata": "Q668687", "ref": "3945700000"}, "type": "Feature"}
{"geometry": {"coordinates": [-89.637388211, 30.665531035], "type": "Point"}, "id": "F4gGlvZufhyS0PHnkCkat3SXHu8=", "properties": {"@source_uri": "https://tools.usps.com/UspsToolsRestServices/rest/POLocator/findLocations", "@spider": "usps_collection_boxes", "addr:city": "MCNEILL", "addr:country": "US", "addr:postcode": "39457", "addr:state": "MS", "addr:street_address": "8032 HIGHWAY 11", "amenity": "post_box", "brand": "United States Postal Service", "brand:wikidata": "Q668687", "collection_times": "Mo-Fr 15:45; Sa 10:55", "indoor": "yes", "note": "ON 12/24 AND 12/31, THIS BOX MAY BE COLLECTED AS EARLY AS 12 NOON.", "nsi_id": "unitedstatespostalservice-a77078", "operator": "United States Postal Service", "operator:short": "USPS", "operator:type": "public", "operator:wikidata": "Q668687", "ref": "3945700001"}, "type": "Feature"}
{"geometry": {"coordinates": [-89.6371307994, 30.6665542775], "type": "Point"}, "id": "xt_ZdPHjpRPwc4Sz0lDBOVJBnCM=", "properties": {"@source_uri": "https://tools.usps.com/UspsToolsRestServices/rest/POLocator/findLocations", "@spider": "usps_collection_boxes", "addr:city": "MCNEILL", "addr:country": "US", "addr:postcode": "39457", "addr:state": "MS", "addr:street_address": "8032 HIGHWAY 11", "amenity": "post_box", "brand": "United States Postal Service", "brand:wikidata": "Q668687", "collection_times": "Mo-Fr 16:00; Sa 11:00", "indoor": "yes", "note": "ON 12/24 AND 12/31, THIS BOX MAY BE COLLECTED AS EARLY AS 12 NOON.", "nsi_id": "unitedstatespostalservice-a77078", "operator": "United States Postal Service", "operator:short": "USPS", "operator:type": "public", "operator:wikidata": "Q668687", "ref": "3945700002"}, "type": "Feature"}
{"geometry": {"coordinates": [-89.280089886, 31.510373682], "type": "Point"}, "id": "6KSjxtzHZXahQtF0N9mMnPUyYIM=", "properties": {"@source_uri": "https://tools.usps.com/UspsToolsRestServices/rest/POLocator/findLocations", "@spider": "usps_collection_boxes", "addr:city": "MOSELLE", "addr:country": "US", "addr:postcode": "39459", "addr:state": "MS", "addr:street_address": "1260 MOSELLE RD", "amenity": "post_box", "brand": "United States Postal Service", "brand:wikidata": "Q668687", "collection_times": "Mo-Fr 14:00; Sa 10:30", "note": "ON 12/24 AND 12/31, THIS BOX MAY BE COLLECTED AS EARLY AS 12 NOON.", "nsi_id": "unitedstatespostalservice-a77078", "operator": "United States Postal Service", "operator:short": "USPS", "operator:type": "public", "operator:wikidata": "Q668687", "ref": "3945900000"}, "type": "Feature"}
{"geometry": {"coordinates": [-89.280089886, 31.510373682], "type": "Point"}, "id": "tzoD92UhwWRiYELahSs8HNa6hEo=", "properties": {"@source_uri": "https://tools.usps.com/UspsToolsRestServices/rest/POLocator/findLocations", "@spider": "usps_collection_boxes", "addr:city": "MOSELLE", "addr:country": "US", "addr:postcode": "39459", "addr:state": "MS", "addr:street_address": "1260 MOSELLE RD", "amenity": "post_box", "brand": "United States Postal Service", "brand:wikidata": "Q668687", "collection_times": "Mo-Fr 14:00; Sa 10:00", "indoor": "yes", "note": "ON 12/24 AND 12/31, THIS BOX MAY BE COLLECTED AS EARLY AS 12 NOON.", "nsi_id": "unitedstatespostalservice-a77078", "operator": "United States Postal Service", "operator:short": "USPS", "operator:type": "public", "operator:wikidata": "Q668687", "ref": "3945900003"}, "type": "Feature"}
{"geometry": {"coordinates": [-88.755045562, 31.164457588], "type": "Point"}, "id": "T8gTIavmavKUc7Uf0mYB7l0yf4I=", "properties": {"@source_uri": "https://tools.usps.com/UspsToolsRestServices/rest/POLocator/findLocations", "@spider": "usps_collection_boxes", "addr:city": "NEELY", "addr:country": "US", "addr:postcode": "39461", "addr:state": "MS", "addr:street_address": "6427 OLD HIGHWAY 24", "amenity": "post_box", "brand": "United States Postal Service", "brand:wikidata": "Q668687", "collection_times": "Mo-Sa 11:00", "nsi_id": "unitedstatespostalservice-a77078", "operator": "United States Postal Service", "operator:short": "USPS", "operator:type": "public", "operator:wikidata": "Q668687", "ref": "3946100002"}, "type": "Feature"}
{"geometry": {"coordinates": [-88.755045562, 31.164457588], "type": "Point"}, "id": "Uo_F7yX1N5lgD4rjeD3DKxnVys8=", "properties": {"@source_uri": "https://tools.usps.com/UspsToolsRestServices/rest/POLocator/findLocations", "@spider": "usps_collection_boxes", "addr:city": "NEELY", "addr:country": "US", "addr:postcode": "39461", "addr:state": "MS", "addr:street_address": "6427 OLD HIGHWAY 24", "amenity": "post_box", "brand": "United States Postal Service", "brand:wikidata": "Q668687", "collection_times": "Mo-Sa 11:00", "indoor": "yes", "nsi_id": "unitedstatespostalservice-a77078", "operator": "United States Postal Service", "operator:short": "USPS", "operator:type": "public", "operator:wikidata": "Q668687", "ref": "3946100003"}, "type": "Feature"}
{"geometry": {"coordinates": [-88.755045562, 31.164457588], "type": "Point"}, "id": "4ETSTIJnsz53Rc93Ppi-HMxHFkc=", "properties": {"@source_uri": "https://tools.usps.com/UspsToolsRestServices/rest/POLocator/findLocations", "@spider": "usps_collection_boxes", "addr:city": "NEELY", "addr:country": "US", "addr:postcode": "39461", "addr:state": "MS", "addr:street_address": "6427 OLD HIGHWAY 24", "amenity": "post_box", "brand": "United States Postal Service", "brand:wikidata": "Q668687", "collection_times": "Mo-Fr 11:00", "indoor": "yes", "nsi_id": "unitedstatespostalservice-a77078", "operator": "United States Postal Service", "operator:short": "USPS", "operator:type": "public", "operator:wikidata": "Q668687", "ref": "3946100004"}, "type": "Feature"}
{"geometry": {"coordinates": [-89.0353070242, 31.2047709949], "type": "Point"}, "id": "rIINcAkw9r4i3Fmkze6Kr4IGtro=", "properties": {"@source_uri": "https://tools.usps.com/UspsToolsRestServices/rest/POLocator/findLocations", "@spider": "usps_collection_boxes", "addr:city": "NEW AUGUSTA", "addr:country": "US", "addr:postcode": "39462", "addr:state": "MS", "addr:street_address": "103 FIRST ST E", "amenity": "post_box", "brand": "United States Postal Service", "brand:wikidata": "Q668687", "collection_times": "Mo-Fr 15:00; Sa 10:45", "note": "ON 12/24 AND 12/31, THIS BOX MAY BE COLLECTED AS EARLY AS 12 NOON.", "nsi_id": "unitedstatespostalservice-a77078", "operator": "United States Postal Service", "operator:short": "USPS", "operator:type": "public", "operator:wikidata": "Q668687", "ref": "3946200000"}, "type": "Feature"}
{"geometry": {"coordinates": [-89.035499976, 31.204535462], "type": "Point"}, "id": "zhGCTk8QBfVoui9iyzr92P-L06Q=", "properties": {"@source_uri": "https://tools.usps.com/UspsToolsRestServices/rest/POLocator/findLocations", "@spider": "usps_collection_boxes", "addr:city": "NEW AUGUSTA", "addr:country": "US", "addr:postcode": "39462", "addr:state": "MS", "addr:street_address": "103 FIRST ST E", "amenity": "post_box", "brand": "United States Postal Service", "brand:wikidata": "Q668687", "collection_times": "Mo-Fr 15:00; Sa 10:30", "indoor": "yes", "note": "ON 12/24 AND 12/31, THIS BOX MAY BE COLLECTED AS EARLY AS 12 NOON.", "nsi_id": "unitedstatespostalservice-a77078", "operator": "United States Postal Service", "operator:short": "USPS", "operator:type": "public", "operator:wikidata": "Q668687", "ref": "3946200002"}, "type": "Feature"}
{"geometry": {"coordinates": [-89.695193057, 30.47911712], "type": "Point"}, "id": "Qd5hX1o177QHjteTkGwwaDPcn_Q=", "properties": {"@source_uri": "https://tools.usps.com/UspsToolsRestServices/rest/POLocator/findLocations", "@spider": "usps_collection_boxes", "addr:city": "NICHOLSON", "addr:country": "US", "addr:postcode": "39463", "addr:state": "MS", "addr:street_address": "3353 JACKSON LANDING RD", "amenity": "post_box", "brand": "United States Postal Service", "brand:wikidata": "Q668687", "collection_times": "Mo-Fr 14:00; Sa 10:55", "note": "ON 12/24 AND 12/31, THIS BOX MAY BE COLLECTED AS EARLY AS 12 NOON.", "nsi_id": "unitedstatespostalservice-a77078", "operator": "United States Postal Service", "operator:short": "USPS", "operator:type": "public", "operator:wikidata": "Q668687", "ref": "3946300000"}, "type": "Feature"}
{"geometry": {"coordinates": [-89.695193057, 30.47911712], "type": "Point"}, "id": "SEkBEsP0zkpS2_7m1ie2FRKgNfQ=", "properties": {"@source_uri": "https://tools.usps.com/UspsToolsRestServices/rest/POLocator/findLocations", "@spider": "usps_collection_boxes", "addr:city": "NICHOLSON", "addr:country": "US", "addr:postcode": "39463", "addr:state": "MS", "addr:street_address": "3353 JACKSON LANDING RD", "amenity": "post_box", "brand": "United States Postal Service", "brand:wikidata": "Q668687", "collection_times": "Mo-Fr 14:00; Sa 10:55", "indoor": "yes", "note": "ON 12/24 AND 12/31, THIS BOX MAY BE COLLECTED AS EARLY AS 12 NOON.", "nsi_id": "unitedstatespostalservice-a77078", "operator": "United States Postal Service", "operator:short": "USPS", "operator:type": "public", "operator:wikidata": "Q668687", "ref": "3946300001"}, "type": "Feature"}
{"geometry": {"coordinates": [-89.695193057, 30.47911712], "type": "Point"}, "id": "l2oVCEDQYD-MmVJ6AAHJIxPh68U=", "properties": {"@source_uri": "https://tools.usps.com/UspsToolsRestServices/rest/POLocator/findLocations", "@spider": "usps_collection_boxes", "addr:city": "NICHOLSON", "addr:country": "US", "addr:postcode": "39463", "addr:state": "MS", "addr:street_address": "3353 JACKSON LANDING RD", "amenity": "post_box", "brand": "United States Postal Service", "brand:wikidata": "Q668687", "collection_times": "Mo-Fr 14:00; Sa 11:00", "indoor": "yes", "note": "ON 12/24 AND 12/31, THIS BOX MAY BE COLLECTED AS EARLY AS 12 NOON.", "nsi_id": "unitedstatespostalservice-a77078", "operator": "United States Postal Service", "operator:short": "USPS", "operator:type": "public", "operator:wikidata": "Q668687", "ref": "3946300002"}, "type": "Feature"}
{"geometry": {"coordinates": [-89.031312385, 31.481866218], "type": "Point"}, "id": "k_hsUI6IMBC19iGmNQxTF6T3IcQ=", "properties": {"@source_uri": "https://tools.usps.com/UspsToolsRestServices/rest/POLocator/findLocations", "@spider": "usps_collection_boxes", "addr:city": "OVETT", "addr:country": "US", "addr:postcode": "39464", "addr:state": "MS", "addr:street_address": "3227 OVETT MOSELLE RD", "amenity": "post_box", "brand": "United States Postal Service", "brand:wikidata": "Q668687", "collection_times": "Mo-Fr 11:30; Sa 10:55", "nsi_id": "unitedstatespostalservice-a77078", "operator": "United States Postal Service", "operator:short": "USPS", "operator:type": "public", "operator:wikidata": "Q668687", "ref": "3946400000"}, "type": "Feature"}
{"geometry": {"coordinates": [-89.031312385, 31.481866218], "type": "Point"}, "id": "v966_41E_4-CGpv0VQ1CYTSPvu0=", "properties": {"@source_uri": "https://tools.usps.com/UspsToolsRestServices/rest/POLocator/findLocations", "@spider": "usps_collection_boxes", "addr:city": "OVETT", "addr:country": "US", "addr:postcode": "39464", "addr:state": "MS", "addr:street_address": "3227 OVETT MOSELLE RD", "amenity": "post_box", "brand": "United States Postal Service", "brand:wikidata": "Q668687", "collection_times": "Mo-Fr 11:30; Sa 10:55", "indoor": "yes", "nsi_id": "unitedstatespostalservice-a77078", "operator": "United States Postal Service", "operator:short": "USPS", "operator:type": "public", "operator:wikidata": "Q668687", "ref": "3946400001"}, "type": "Feature"}
{"geometry": {"coordinates": [-89.031312385, 31.481866218], "type": "Point"}, "id": "KKs663MxT-XFfdMGWMu07ZYyrC4=", "properties": {"@source_uri": "https://tools.usps.com/UspsToolsRestServices/rest/POLocator/findLocations", "@spider": "usps_collection_boxes", "addr:city": "OVETT", "addr:country": "US", "addr:postcode": "39464", "addr:state": "MS", "addr:street_address": "3227 OVETT MOSELLE RD", "amenity": "post_box", "brand": "United States Postal Service", "brand:wikidata": "Q668687", "collection_times": "Mo-Fr 11:30; Sa 11:00", "indoor": "yes", "nsi_id": "unitedstatespostalservice-a77078", "operator": "United States Postal Service", "operator:short": "USPS", "operator:type": "public", "operator:wikidata": "Q668687", "ref": "3946400002"}, "type": "Feature"}
{"geometry": {"coordinates": [-89.261755524, 31.344722132], "type": "Point"}, "id": "Vjxz-JTeDjHA8rX6v90VDjQwZlE=", "properties": {"@source_uri": "https://tools.usps.com/UspsToolsRestServices/rest/POLocator/findLocations", "@spider": "usps_collection_boxes", "addr:city": "PETAL", "addr:country": "US", "addr:postcode": "39465", "addr:state": "MS", "addr:street_address": "121 MORRIS ST", "amenity": "post_box", "brand": "United States Postal Service", "brand:wikidata": "Q668687", "collection_times": "Mo-Fr 16:00; Sa 12:00", "note": "ON 12/24 AND 12/31, THIS BOX MAY BE COLLECTED AS EARLY AS 12 NOON.", "nsi_id": "unitedstatespostalservice-a77078", "operator": "United States Postal Service", "operator:short": "USPS", "operator:type": "public", "operator:wikidata": "Q668687", "ref": "3946500000"}, "type": "Feature"}
{"geometry": {"coordinates": [-89.261755524, 31.344722132], "type": "Point"}, "id": "RSWLukSYdfRKN6YRZKUssJrdOzo=", "properties": {"@source_uri": "https://tools.usps.com/UspsToolsRestServices/rest/POLocator/findLocations", "@spider": "usps_collection_boxes", "addr:city": "PETAL", "addr:country": "US", "addr:postcode": "39465", "addr:state": "MS", "addr:street_address": "121 MORRIS ST", "amenity": "post_box", "brand": "United States Postal Service", "brand:wikidata": "Q668687", "collection_times": "Mo-Fr 16:00; Sa 12:00", "note": "ON 12/24 AND 12/31, THIS BOX MAY BE COLLECTED AS EARLY AS 12 NOON.", "nsi_id": "unitedstatespostalservice-a77078", "operator": "United States Postal Service", "operator:short": "USPS", "operator:type": "public", "operator:wikidata": "Q668687", "ref": "3946500007"}, "type": "Feature"}
{"geometry": {"coordinates": [-89.261755524, 31.344722132], "type": "Point"}, "id": "mOlbRiCZzMtI6OWtZMJHk1mRWx4=", "properties": {"@source_uri": "https://tools.usps.com/UspsToolsRestServices/rest/POLocator/findLocations", "@spider": "usps_collection_boxes", "addr:city": "PETAL", "addr:country": "US", "addr:postcode": "39465", "addr:state": "MS", "addr:street_address": "121 MORRIS ST", "amenity": "post_box", "brand": "United States Postal Service", "brand:wikidata": "Q668687", "collection_times": "Mo-Fr 16:30; Sa 12:00", "indoor": "yes", "note": "ON 12/24 AND 12/31, THIS BOX MAY BE COLLECTED AS EARLY AS 12 NOON.", "nsi_id": "unitedstatespostalservice-a77078", "operator": "United States Postal Service", "operator:short": "USPS", "operator:type": "public", "operator:wikidata": "Q668687", "ref": "3946500009"}, "type": "Feature"}
{"geometry": {"coordinates": [-89.67981, 30.52607], "type": "Point"}, "id": "SUsB1doIXM45yiNC2R8mxDHF5Ds=", "properties": {"@source_uri": "https://tools.usps.com/UspsToolsRestServices/rest/POLocator/findLocations", "@spider": "usps_collection_boxes", "addr:city": "PICAYUNE", "addr:country": "US", "addr:postcode": "39466", "addr:state": "MS", "addr:street_address": "120 HIGHWAY 11 N", "amenity": "post_box", "brand": "United States Postal Service", "brand:wikidata": "Q668687", "collection_times": "Mo-Fr 16:30; Sa 12:00", "note": "ON 12/24 AND 12/31, THIS BOX MAY BE COLLECTED AS EARLY AS 12 NOON.", "nsi_id": "unitedstatespostalservice-a77078", "operator": "United States Postal Service", "operator:short": "USPS", "operator:type": "public", "operator:wikidata": "Q668687", "ref": "3946600000"}, "type": "Feature"}
{"geometry": {"coordinates": [-89.6535491, 30.544082], "type": "Point"}, "id": "kwiZ2RIJCNXPQf88TMX6QuM77fA=", "properties": {"@source_uri": "https://tools.usps.com/UspsToolsRestServices/rest/POLocator/findLocations", "@spider": "usps_collection_boxes", "addr:city": "PICAYUNE", "addr:country": "US", "addr:postcode": "39466", "addr:state": "MS", "addr:street_address": "1701 HIGHWAY 43 N", "amenity": "post_box", "brand": "United States Postal Service", "brand:wikidata": "Q668687", "collection_times": "Mo-Sa 10:15", "nsi_id": "unitedstatespostalservice-a77078", "operator": "United States Postal Service", "operator:short": "USPS", "operator:type": "public", "operator:wikidata": "Q668687", "ref": "3946600004"}, "type": "Feature"}
{"geometry": {"coordinates": [-89.67981, 30.52607], "type": "Point"}, "id": "TMRab1r_tI_flXI4HECYAvYCp8Y=", "properties": {"@source_uri": "https://tools.usps.com/UspsToolsRestServices/rest/POLocator/findLocations", "@spider": "usps_collection_boxes", "addr:city": "PICAYUNE", "addr:country": "US", "addr:postcode": "39466", "addr:state": "MS", "addr:street_address": "120 HIGHWAY 11 N", "amenity": "post_box", "brand": "United States Postal Service", "brand:wikidata": "Q668687", "collection_times": "Mo-Fr 16:30; Sa 12:00", "note": "ON 12/24 AND 12/31, THIS BOX MAY BE COLLECTED AS EARLY AS 12 NOON.", "nsi_id": "unitedstatespostalservice-a77078", "operator": "United States Postal Service", "operator:short": "USPS", "operator:type": "public", "operator:wikidata": "Q668687", "ref": "3946600012"}, "type": "Feature"}
{"geometry": {"coordinates": [-89.677954, 30.516979], "type": "Point"}, "id": "SHmU303tgZW_suUM4dgPH3n3SNY=", "properties": {"@source_uri": "https://tools.usps.com/UspsToolsRestServices/rest/POLocator/findLocations", "@spider": "usps_collection_boxes", "addr:city": "PICAYUNE", "addr:country": "US", "addr:postcode": "39466", "addr:state": "MS", "addr:street_address": "313 TELLY RD", "amenity": "post_box", "brand": "United States Postal Service", "brand:wikidata": "Q668687", "collection_times": "Mo-Sa 10:45", "nsi_id": "unitedstatespostalservice-a77078", "operator": "United States Postal Service", "operator:short": "USPS", "operator:type": "public", "operator:wikidata": "Q668687", "ref": "3946600013"}, "type": "Feature"}
{"geometry": {"coordinates": [-89.662460969, 30.51400201], "type": "Point"}, "id": "cIJFCND5b4ql6bXiZRQfCbGtKf4=", "properties": {"@source_uri": "https://tools.usps.com/UspsToolsRestServices/rest/POLocator/findLocations", "@spider": "usps_collection_boxes", "addr:city": "PICAYUNE", "addr:country": "US", "addr:postcode": "39466", "addr:state": "MS", "addr:street_address": "235 FRONTAGE RD", "amenity": "post_box", "brand": "United States Postal Service", "brand:wikidata": "Q668687", "collection_times": "Mo-Sa 10:45", "nsi_id": "unitedstatespostalservice-a77078", "operator": "United States Postal Service", "operator:short": "USPS", "operator:type": "public", "operator:wikidata": "Q668687", "ref": "3946600015"}, "type": "Feature"}
{"geometry": {"coordinates": [-89.6813749, 30.527253], "type": "Point"}, "id": "mRLvYnZLr4_4iJqQkgzeSsCLah0=", "properties": {"@source_uri": "https://tools.usps.com/UspsToolsRestServices/rest/POLocator/findLocations", "@spider": "usps_collection_boxes", "addr:city": "PICAYUNE", "addr:country": "US", "addr:postcode": "39466", "addr:state": "MS", "addr:street_address": "101 WILLIAMS AVE", "amenity": "post_box", "brand": "United States Postal Service", "brand:wikidata": "Q668687", "collection_times": "Mo-Sa 14:30", "note": "ON 12/24 AND 12/31, THIS BOX MAY BE COLLECTED AS EARLY AS 12 NOON.", "nsi_id": "unitedstatespostalservice-a77078", "operator": "United States Postal Service", "operator:short": "USPS", "operator:type": "public", "operator:wikidata": "Q668687", "ref": "3946600016"}, "type": "Feature"}
{"geometry": {"coordinates": [-89.665387345, 30.55757735], "type": "Point"}, "id": "Wj_vlsNxeb15cU6xMFY0-ehCDqY=", "properties": {"@source_uri": "https://tools.usps.com/UspsToolsRestServices/rest/POLocator/findLocations", "@spider": "usps_collection_boxes", "addr:city": "PICAYUNE", "addr:country": "US", "addr:postcode": "39466", "addr:state": "MS", "addr:street_address": "6342 HIGHWAY 11 N", "amenity": "post_box", "brand": "United States Postal Service", "brand:wikidata": "Q668687", "collection_times": "Mo-Fr 16:30; Sa 15:30", "note": "ON 12/24 AND 12/31, THIS BOX MAY BE COLLECTED AS EARLY AS 12 NOON.", "nsi_id": "unitedstatespostalservice-a77078", "operator": "United States Postal Service", "operator:short": "USPS", "operator:type": "public", "operator:wikidata": "Q668687", "ref": "3946600017"}, "type": "Feature"}
{"geometry": {"coordinates": [-89.665387345, 30.55757735], "type": "Point"}, "id": "qvvbtBMlHdUTSyjCjgoX_zxW5W4=", "properties": {"@source_uri": "https://tools.usps.com/UspsToolsRestServices/rest/POLocator/findLocations", "@spider": "usps_collection_boxes", "addr:city": "PICAYUNE", "addr:country": "US", "addr:postcode": "39466", "addr:state": "MS", "addr:street_address": "6342 HIGHWAY 11 N", "amenity": "post_box", "brand": "United States Postal Service", "brand:wikidata": "Q668687", "collection_times": "Mo-Fr 16:30; Sa 15:30", "note": "ON 12/24 AND 12/31, THIS BOX MAY BE COLLECTED AS EARLY AS 12 NOON.", "nsi_id": "unitedstatespostalservice-a77078", "operator": "United States Postal Service", "operator:short": "USPS", "operator:type": "public", "operator:wikidata": "Q668687", "ref": "3946600018"}, "type": "Feature"}
{"geometry": {"coordinates": [-89.665387345, 30.55757735], "type": "Point"}, "id": "mrGa9w-dQ1JmbZOrfwyFPrRYUwI=", "properties": {"@source_uri": "https://tools.usps.com/UspsToolsRestServices/rest/POLocator/findLocations", "@spider": "usps_collection_boxes", "addr:city": "PICAYUNE", "addr:country": "US", "addr:postcode": "39466", "addr:state": "MS", "addr:street_address": "6342 HIGHWAY 11 N", "amenity": "post_box", "brand": "United States Postal Service", "brand:wikidata": "Q668687", "collection_times": "Mo-Fr 16:30; Sa 15:30", "indoor": "yes", "note": "ON 12/24 AND 12/31, THIS BOX MAY BE COLLECTED AS EARLY AS 12 NOON.", "nsi_id": "unitedstatespostalservice-a77078", "operator": "United States Postal Service", "operator:short": "USPS", "operator:type": "public", "operator:wikidata": "Q668687", "ref": "3946600020"}, "type": "Feature"}
{"geometry": {"coordinates": [-89.67976815, 30.526011372], "type": "Point"}, "id": "puXGbNwUmoPOfEvEFUyBI_8MZ-o=", "properties": {"@source_uri": "https://tools.usps.com/UspsToolsRestServices/rest/POLocator/findLocations", "@spider": "usps_collection_boxes", "addr:city": "PICAYUNE", "addr:country": "US", "addr:postcode": "39466", "addr:state": "MS", "addr:street_address": "120 HIGHWAY 11 N", "amenity": "post_box", "brand": "United States Postal Service", "brand:wikidata": "Q668687", "collection_times": "Mo-Fr 16:30; Sa 12:00", "indoor": "yes", "note": "ON 12/24 AND 12/31, THIS BOX MAY BE COLLECTED AS EARLY AS 12 NOON.", "nsi_id": "unitedstatespostalservice-a77078", "operator": "United States Postal Service", "operator:short": "USPS", "operator:type": "public", "operator:wikidata": "Q668687", "ref": "3946600022"}, "type": "Feature"}
{"geometry": {"coordinates": [-89.665387345, 30.55757735], "type": "Point"}, "id": "kTCyOR_nrvis_eWrYoKA0otM99U=", "properties": {"@source_uri": "https://tools.usps.com/UspsToolsRestServices/rest/POLocator/findLocations", "@spider": "usps_collection_boxes", "addr:city": "PICAYUNE", "addr:country": "US", "addr:postcode": "39466", "addr:state": "MS", "addr:street_address": "6342 HIGHWAY 11 N", "amenity": "post_box", "brand": "United States Postal Service", "brand:wikidata": "Q668687", "collection_times": "Mo-Fr 15:30; Sa 12:00", "indoor": "yes", "note": "ON 12/24 AND 12/31, THIS BOX MAY BE COLLECTED AS EARLY AS 12 NOON.", "nsi_id": "unitedstatespostalservice-a77078", "operator": "United States Postal Service", "operator:short": "USPS", "operator:type": "public", "operator:wikidata": "Q668687", "ref": "3946600023"}, "type": "Feature"}
{"geometry": {"coordinates": [-89.5349139671, 30.8429230195], "type": "Point"}, "id": "AiJRud-eauDhpPlkuaoQmXqabn4=", "properties": {"@source_uri": "https://tools.usps.com/UspsToolsRestServices/rest/POLocator/findLocations", "@spider": "usps_collection_boxes", "addr:city": "POPLARVILLE", "addr:country": "US", "addr:postcode": "39470", "addr:state": "MS", "addr:street_address": "301 S MAIN ST", "amenity": "post_box", "brand": "United States Postal Service", "brand:wikidata": "Q668687", "collection_times": "Mo-Fr 16:30; Sa 11:00", "note": "ON 12/24 AND 12/31, THIS BOX MAY BE COLLECTED AS EARLY AS 12 NOON.", "nsi_id": "unitedstatespostalservice-a77078", "operator": "United States Postal Service", "operator:short": "USPS", "operator:type": "public", "operator:wikidata": "Q668687", "ref": "3947000000"}, "type": "Feature"}
{"geometry": {"coordinates": [-89.865256, 31.598721], "type": "Point"}, "id": "acwgi1nBCGWMutZvx_Ee4ZwvZmQ=", "properties": {"@source_uri": "https://tools.usps.com/UspsToolsRestServices/rest/POLocator/findLocations", "@spider": "usps_collection_boxes", "addr:city": "PRENTISS", "addr:country": "US", "addr:postcode": "39474", "addr:state": "MS", "addr:street_address": "2112 MOUNT CARMEL AVE", "amenity": "post_box", "brand": "United States Postal Service", "brand:wikidata": "Q668687", "collection_times": "Mo-Fr 16:30; Sa 11:45", "note": "ON 12/24 AND 12/31, THIS BOX MAY BE COLLECTED AS EARLY AS 12 NOON.", "nsi_id": "unitedstatespostalservice-a77078", "operator": "United States Postal Service", "operator:short": "USPS", "operator:type": "public", "operator:wikidata": "Q668687", "ref": "3947400000"}, "type": "Feature"}
{"geometry": {"coordinates": [-89.865256, 31.598721], "type": "Point"}, "id": "qtjw-7d2yoKNZh1wgAGs4sFeNqE=", "properties": {"@source_uri": "https://tools.usps.com/UspsToolsRestServices/rest/POLocator/findLocations", "@spider": "usps_collection_boxes", "addr:city": "PRENTISS", "addr:country": "US", "addr:postcode": "39474", "addr:state": "MS", "addr:street_address": "2112 MOUNT CARMEL AVE", "amenity": "post_box", "brand": "United States Postal Service", "brand:wikidata": "Q668687", "collection_times": "Mo-Fr 16:30; Sa 11:45", "indoor": "yes", "note": "ON 12/24 AND 12/31, THIS BOX MAY BE COLLECTED AS EARLY AS 12 NOON.", "nsi_id": "unitedstatespostalservice-a77078", "operator": "United States Postal Service", "operator:short": "USPS", "operator:type": "public", "operator:wikidata": "Q668687", "ref": "3947400001"}, "type": "Feature"}
{"geometry": {"coordinates": [-89.865217378, 31.598704805], "type": "Point"}, "id": "K6CppltcPB4OUA8Uz5Le3kBQucA=", "properties": {"@source_uri": "https://tools.usps.com/UspsToolsRestServices/rest/POLocator/findLocations", "@spider": "usps_collection_boxes", "addr:city": "PRENTISS", "addr:country": "US", "addr:postcode": "39474", "addr:state": "MS", "addr:street_address": "2122 MOUNT CARMEL AVE", "amenity": "post_box", "brand": "United States Postal Service", "brand:wikidata": "Q668687", "collection_times": "Mo-Fr 16:30; Sa 12:00", "indoor": "yes", "note": "ON 12/24 AND 12/31, THIS BOX MAY BE COLLECTED AS EARLY AS 12 NOON.", "nsi_id": "unitedstatespostalservice-a77078", "operator": "United States Postal Service", "operator:short": "USPS", "operator:type": "public", "operator:wikidata": "Q668687", "ref": "3947400002"}, "type": "Feature"}
{"geometry": {"coordinates": [-89.4056055095, 31.1408641049], "type": "Point"}, "id": "RuP3h_Nk1Mb2MEM0HEQPSqSYBH0=", "properties": {"@source_uri": "https://tools.usps.com/UspsToolsRestServices/rest/POLocator/findLocations", "@spider": "usps_collection_boxes", "addr:city": "PURVIS", "addr:country": "US", "addr:postcode": "39475", "addr:state": "MS", "addr:street_address": "5851 US HWY 11", "amenity": "post_box", "brand": "United States Postal Service", "brand:wikidata": "Q668687", "collection_times": "Mo-Fr 16:45; Sa 12:00", "indoor": "yes", "note": "ON 12/24 AND 12/31, THIS BOX MAY BE COLLECTED AS EARLY AS 12 NOON.", "nsi_id": "unitedstatespostalservice-a77078", "operator": "United States Postal Service", "operator:short": "USPS", "operator:type": "public", "operator:wikidata": "Q668687", "ref": "3947500001"}, "type": "Feature"}
{"geometry": {"coordinates": [-89.405605509, 31.140874079], "type": "Point"}, "id": "qixvmZNmRdju_WW0X_o0W52IvzM=", "properties": {"@source_uri": "https://tools.usps.com/UspsToolsRestServices/rest/POLocator/findLocations", "@spider": "usps_collection_boxes", "addr:city": "PURVIS", "addr:country": "US", "addr:postcode": "39475", "addr:state": "MS", "addr:street_address": "5851 US HIGHWAY 11", "amenity": "post_box", "brand": "United States Postal Service", "brand:wikidata": "Q668687", "collection_times": "Mo-Fr 16:30; Sa 12:00", "note": "ON 12/24 AND 12/31, THIS BOX MAY BE COLLECTED AS EARLY AS 12 NOON.", "nsi_id": "unitedstatespostalservice-a77078", "operator": "United States Postal Service", "operator:short": "USPS", "operator:type": "public", "operator:wikidata": "Q668687", "ref": "3947500002"}, "type": "Feature"}
{"geometry": {"coordinates": [-89.405605509, 31.140874079], "type": "Point"}, "id": "lyOYXP-McH-ARfAI9nriQijcgAc=", "properties": {"@source_uri": "https://tools.usps.com/UspsToolsRestServices/rest/POLocator/findLocations", "@spider": "usps_collection_boxes", "addr:city": "PURVIS", "addr:country": "US", "addr:postcode": "39475", "addr:state": "MS", "addr:street_address": "5851 US HIGHWAY 11", "amenity": "post_box", "brand": "United States Postal Service", "brand:wikidata": "Q668687", "collection_times": "Mo-Fr 16:30; Sa 11:30", "indoor": "yes", "note": "ON 12/24 AND 12/31, THIS BOX MAY BE COLLECTED AS EARLY AS 12 NOON.", "nsi_id": "unitedstatespostalservice-a77078", "operator": "United States Postal Service", "operator:short": "USPS", "operator:type": "public", "operator:wikidata": "Q668687", "ref": "3947500003"}, "type": "Feature"}
{"geometry": {"coordinates": [-88.935759, 31.349989], "type": "Point"}, "id": "jk0vnCs0Pl-eAZ3mhCXQdm6a9b0=", "properties": {"@source_uri": "https://tools.usps.com/UspsToolsRestServices/rest/POLocator/findLocations", "@spider": "usps_collection_boxes", "addr:city": "RICHTON", "addr:country": "US", "addr:postcode": "39476", "addr:state": "MS", "addr:street_address": "201 N FRONT ST", "amenity": "post_box", "brand": "United States Postal Service", "brand:wikidata": "Q668687", "collection_times": "Mo-Fr 16:30; Sa 11:00", "indoor": "yes", "note": "ON 12/24 AND 12/31, THIS BOX MAY BE COLLECTED AS EARLY AS 12 NOON.", "nsi_id": "unitedstatespostalservice-a77078", "operator": "United States Postal Service", "operator:short": "USPS", "operator:type": "public", "operator:wikidata": "Q668687", "ref": "3947600001"}, "type": "Feature"}
{"geometry": {"coordinates": [-88.935759, 31.349989], "type": "Point"}, "id": "KwIAz0K9XaZ-thQJ5_KkfXEYcUc=", "properties": {"@source_uri": "https://tools.usps.com/UspsToolsRestServices/rest/POLocator/findLocations", "@spider": "usps_collection_boxes", "addr:city": "RICHTON", "addr:country": "US", "addr:postcode": "39476", "addr:state": "MS", "addr:street_address": "201 N FRONT ST", "amenity": "post_box", "brand": "United States Postal Service", "brand:wikidata": "Q668687", "collection_times": "Mo-Fr 16:00", "note": "ON 12/24 AND 12/31, THIS BOX MAY BE COLLECTED AS EARLY AS 12 NOON.", "nsi_id": "unitedstatespostalservice-a77078", "operator": "United States Postal Service", "operator:short": "USPS", "operator:type": "public", "operator:wikidata": "Q668687", "ref": "3947600002"}, "type": "Feature"}
{"geometry": {"coordinates": [-88.935742478, 31.349951176], "type": "Point"}, "id": "aw6wEt2y3rvh6HXtmy4hvxF4tPA=", "properties": {"@source_uri": "https://tools.usps.com/UspsToolsRestServices/rest/POLocator/findLocations", "@spider": "usps_collection_boxes", "addr:city": "RICHTON", "addr:country": "US", "addr:postcode": "39476", "addr:state": "MS", "addr:street_address": "201 FRONT ST", "amenity": "post_box", "brand": "United States Postal Service", "brand:wikidata": "Q668687", "collection_times": "Mo-Fr 16:30; Sa 11:00", "indoor": "yes", "note": "ON 12/24 AND 12/31, THIS BOX MAY BE COLLECTED AS EARLY AS 12 NOON.", "nsi_id": "unitedstatespostalservice-a77078", "operator": "United States Postal Service", "operator:short": "USPS", "operator:type": "public", "operator:wikidata": "Q668687", "ref": "3947600003"}, "type": "Feature"}
{"geometry": {"coordinates": [-89.033244236, 31.786729291], "type": "Point"}, "id": "bP1_TPubw_XYG0qiDmvFYW-ROXs=", "properties": {"@source_uri": "https://tools.usps.com/UspsToolsRestServices/rest/POLocator/findLocations", "@spider": "usps_collection_boxes", "addr:city": "SANDERSVILLE", "addr:country": "US", "addr:postcode": "39477", "addr:state": "MS", "addr:street_address": "201 N FRONT ST", "amenity": "post_box", "brand": "United States Postal Service", "brand:wikidata": "Q668687", "collection_times": "Mo-Fr 16:15; Sa 11:30", "note": "ON 12/24 AND 12/31, THIS BOX MAY BE COLLECTED AS EARLY AS 12 NOON.", "nsi_id": "unitedstatespostalservice-a77078", "operator": "United States Postal Service", "operator:short": "USPS", "operator:type": "public", "operator:wikidata": "Q668687", "ref": "3947700000"}, "type": "Feature"}
{"geometry": {"coordinates": [-89.033244236, 31.786729291], "type": "Point"}, "id": "XJAWBFZQ1-KOPFcVWrsi4gBUcAc=", "properties": {"@source_uri": "https://tools.usps.com/UspsToolsRestServices/rest/POLocator/findLocations", "@spider": "usps_collection_boxes", "addr:city": "SANDERSVILLE", "addr:country": "US", "addr:postcode": "39477", "addr:state": "MS", "addr:street_address": "201 N FRONT ST", "amenity": "post_box", "brand": "United States Postal Service", "brand:wikidata": "Q668687", "collection_times": "Mo-Fr 16:00; Sa 11:30", "indoor": "yes", "note": "ON 12/24 AND 12/31, THIS BOX MAY BE COLLECTED AS EARLY AS 12 NOON.", "nsi_id": "unitedstatespostalservice-a77078", "operator": "United States Postal Service", "operator:short": "USPS", "operator:type": "public", "operator:wikidata": "Q668687", "ref": "3947700001"}, "type": "Feature"}
{"geometry": {"coordinates": [-89.033244236, 31.786729291], "type": "Point"}, "id": "UdiembKQ5iU0FKkDjTNPUGFWfJU=", "properties": {"@source_uri": "https://tools.usps.com/UspsToolsRestServices/rest/POLocator/findLocations", "@spider": "usps_collection_boxes", "addr:city": "SANDERSVILLE", "addr:country": "US", "addr:postcode": "39477", "addr:state": "MS", "addr:street_address": "201 N FRONT ST", "amenity": "post_box", "brand": "United States Postal Service", "brand:wikidata": "Q668687", "collection_times": "Mo-Fr 16:15; Sa 11:30", "indoor": "yes", "note": "ON 12/24 AND 12/31, THIS BOX MAY BE COLLECTED AS EARLY AS 12 NOON.", "nsi_id": "unitedstatespostalservice-a77078", "operator": "United States Postal Service", "operator:short": "USPS", "operator:type": "public", "operator:wikidata": "Q668687", "ref": "3947700002"}, "type": "Feature"}
{"geometry": {"coordinates": [-89.801789088, 31.033450203], "type": "Point"}, "id": "beq4A1IbrGfviHwdn10OYMhCGOY=", "properties": {"@source_uri": "https://tools.usps.com/UspsToolsRestServices/rest/POLocator/findLocations", "@spider": "usps_collection_boxes", "addr:city": "SANDY HOOK", "addr:country": "US", "addr:postcode": "39478", "addr:state": "MS", "addr:street_address": "480 JOHN FORD HOME RD", "amenity": "post_box", "brand": "United States Postal Service", "brand:wikidata": "Q668687", "collection_times": "Mo-Fr 12:00; Sa 10:00", "nsi_id": "unitedstatespostalservice-a77078", "operator": "United States Postal Service", "operator:short": "USPS", "operator:type": "public", "operator:wikidata": "Q668687", "ref": "3947800000"}, "type": "Feature"}
{"geometry": {"coordinates": [-89.801789088, 31.033450203], "type": "Point"}, "id": "-m35Wr4LFbPuY-kvWB_UiUsS3Sg=", "properties": {"@source_uri": "https://tools.usps.com/UspsToolsRestServices/rest/POLocator/findLocations", "@spider": "usps_collection_boxes", "addr:city": "SANDY HOOK", "addr:country": "US", "addr:postcode": "39478", "addr:state": "MS", "addr:street_address": "480 JOHN FORD HOME RD", "amenity": "post_box", "brand": "United States Postal Service", "brand:wikidata": "Q668687", "collection_times": "Mo-Fr 12:00; Sa 10:15", "indoor": "yes", "nsi_id": "unitedstatespostalservice-a77078", "operator": "United States Postal Service", "operator:short": "USPS", "operator:type": "public", "operator:wikidata": "Q668687", "ref": "3947800001"}, "type": "Feature"}
{"geometry": {"coordinates": [-89.801789088, 31.033450203], "type": "Point"}, "id": "cNu-HWWRiPaqo9NZgw-0nWzosfg=", "properties": {"@source_uri": "https://tools.usps.com/UspsToolsRestServices/rest/POLocator/findLocations", "@spider": "usps_collection_boxes", "addr:city": "SANDY HOOK", "addr:country": "US", "addr:postcode": "39478", "addr:state": "MS", "addr:street_address": "480 JOHN FORD HOME RD", "amenity": "post_box", "brand": "United States Postal Service", "brand:wikidata": "Q668687", "collection_times": "Mo-Fr 12:00; Sa 10:30", "indoor": "yes", "nsi_id": "unitedstatespostalservice-a77078", "operator": "United States Postal Service", "operator:short": "USPS", "operator:type": "public", "operator:wikidata": "Q668687", "ref": "3947800002"}, "type": "Feature"}
{"geometry": {"coordinates": [-89.498618509, 31.56300534], "type": "Point"}, "id": "e59Uq0XLxAHmUkFqVojaExQEzkg=", "properties": {"@source_uri": "https://tools.usps.com/UspsToolsRestServices/rest/POLocator/findLocations", "@spider": "usps_collection_boxes", "addr:city": "SEMINARY", "addr:country": "US", "addr:postcode": "39479", "addr:state": "MS", "addr:street_address": "205 N OAK ST", "amenity": "post_box", "brand": "United States Postal Service", "brand:wikidata": "Q668687", "collection_times": "Mo-Fr 15:30; Sa 11:00", "note": "ON 12/24 AND 12/31, THIS BOX MAY BE COLLECTED AS EARLY AS 12 NOON.", "nsi_id": "unitedstatespostalservice-a77078", "operator": "United States Postal Service", "operator:short": "USPS", "operator:type": "public", "operator:wikidata": "Q668687", "ref": "3947900000"}, "type": "Feature"}
{"geometry": {"coordinates": [-89.498618509, 31.56300534], "type": "Point"}, "id": "d9WSvfr_f6lURlKSFhYbB2agCBg=", "properties": {"@source_uri": "https://tools.usps.com/UspsToolsRestServices/rest/POLocator/findLocations", "@spider": "usps_collection_boxes", "addr:city": "SEMINARY", "addr:country": "US", "addr:postcode": "39479", "addr:state": "MS", "addr:street_address": "205 N OAK ST", "amenity": "post_box", "brand": "United States Postal Service", "brand:wikidata": "Q668687", "collection_times": "Mo-Fr 16:00; Sa 11:00", "indoor": "yes", "note": "ON 12/24 AND 12/31, THIS BOX MAY BE COLLECTED AS EARLY AS 12 NOON.", "nsi_id": "unitedstatespostalservice-a77078", "operator": "United States Postal Service", "operator:short": "USPS", "operator:type": "public", "operator:wikidata": "Q668687", "ref": "3947900001"}, "type": "Feature"}
{"geometry": {"coordinates": [-89.498618509, 31.56300534], "type": "Point"}, "id": "mcdT9ES7GaxlzOIZ6tRZPXLxhCs=", "properties": {"@source_uri": "https://tools.usps.com/UspsToolsRestServices/rest/POLocator/findLocations", "@spider": "usps_collection_boxes", "addr:city": "SEMINARY", "addr:country": "US", "addr:postcode": "39479", "addr:state": "MS", "addr:street_address": "205 N OAK ST", "amenity": "post_box", "brand": "United States Postal Service", "brand:wikidata": "Q668687", "collection_times": "Mo-Fr 16:00; Sa 11:00", "indoor": "yes", "note": "ON 12/24 AND 12/31, THIS BOX MAY BE COLLECTED AS EARLY AS 12 NOON.", "nsi_id": "unitedstatespostalservice-a77078", "operator": "United States Postal Service", "operator:short": "USPS", "operator:type": "public", "operator:wikidata": "Q668687", "ref": "3947900002"}, "type": "Feature"}
{"geometry": {"coordinates": [-89.2679417321, 31.7511287305], "type": "Point"}, "id": "oIMMarkhy9cmDzt3nyXBb-v7j10=", "properties": {"@source_uri": "https://tools.usps.com/UspsToolsRestServices/rest/POLocator/findLocations", "@spider": "usps_collection_boxes", "addr:city": "SOSO", "addr:country": "US", "addr:postcode": "39480", "addr:state": "MS", "addr:street_address": "1036 HIGHWAY 28 W", "amenity": "post_box", "brand": "United States Postal Service", "brand:wikidata": "Q668687", "collection_times": "Mo-Fr 15:45; Sa 10:00", "note": "ON 12/24 AND 12/31, THIS BOX MAY BE COLLECTED AS EARLY AS 12 NOON.", "nsi_id": "unitedstatespostalservice-a77078", "operator": "United States Postal Service", "operator:short": "USPS", "operator:type": "public", "operator:wikidata": "Q668687", "ref": "3948000000"}, "type": "Feature"}
{"geometry": {"coordinates": [-89.2680216674, 31.7511796416], "type": "Point"}, "id": "R_dPo9kLFf3sedBLsc1wEPHG2Xk=", "properties": {"@source_uri": "https://tools.usps.com/UspsToolsRestServices/rest/POLocator/findLocations", "@spider": "usps_collection_boxes", "addr:city": "SOSO", "addr:country": "US", "addr:postcode": "39480", "addr:state": "MS", "addr:street_address": "1036 HIGHWAY 28 W", "amenity": "post_box", "brand": "United States Postal Service", "brand:wikidata": "Q668687", "collection_times": "Mo-Fr 16:00; Sa 10:00", "indoor": "yes", "note": "ON 12/24 AND 12/31, THIS BOX MAY BE COLLECTED AS EARLY AS 12 NOON.", "nsi_id": "unitedstatespostalservice-a77078", "operator": "United States Postal Service", "operator:short": "USPS", "operator:type": "public", "operator:wikidata": "Q668687", "ref": "3948000001"}, "type": "Feature"}
{"geometry": {"coordinates": [-89.2680216674, 31.7511796416], "type": "Point"}, "id": "dMdZnrvuIXEA97CBFjBTq3o-rYk=", "properties": {"@source_uri": "https://tools.usps.com/UspsToolsRestServices/rest/POLocator/findLocations", "@spider": "usps_collection_boxes", "addr:city": "SOSO", "addr:country": "US", "addr:postcode": "39480", "addr:state": "MS", "addr:street_address": "1036 HIGHWAY 28 W", "amenity": "post_box", "brand": "United States Postal Service", "brand:wikidata": "Q668687", "collection_times": "Mo-Fr 16:00; Sa 10:00", "indoor": "yes", "note": "ON 12/24 AND 12/31, THIS BOX MAY BE COLLECTED AS EARLY AS 12 NOON.", "nsi_id": "unitedstatespostalservice-a77078", "operator": "United States Postal Service", "operator:short": "USPS", "operator:type": "public", "operator:wikidata": "Q668687", "ref": "3948000002"}, "type": "Feature"}
{"geometry": {"coordinates": [-89.263168174, 31.865724639], "type": "Point"}, "id": "VXTC-DY_kuIcMHqQzqTXOhjX9Mw=", "properties": {"@source_uri": "https://tools.usps.com/UspsToolsRestServices/rest/POLocator/findLocations", "@spider": "usps_collection_boxes", "addr:city": "STRINGER", "addr:country": "US", "addr:postcode": "39481", "addr:state": "MS", "addr:street_address": "36 COUNTY ROAD 17", "amenity": "post_box", "brand": "United States Postal Service", "brand:wikidata": "Q668687", "collection_times": "Mo-Fr 11:20; Sa 10:45", "indoor": "yes", "nsi_id": "unitedstatespostalservice-a77078", "operator": "United States Postal Service", "operator:short": "USPS", "operator:type": "public", "operator:wikidata": "Q668687", "ref": "3948100001"}, "type": "Feature"}
{"geometry": {"coordinates": [-89.263168174, 31.865724639], "type": "Point"}, "id": "PCBl_8ItPwRio13QVTzHKbpd6IY=", "properties": {"@source_uri": "https://tools.usps.com/UspsToolsRestServices/rest/POLocator/findLocations", "@spider": "usps_collection_boxes", "addr:city": "STRINGER", "addr:country": "US", "addr:postcode": "39481", "addr:state": "MS", "addr:street_address": "36 COUNTY ROAD 17", "amenity": "post_box", "brand": "United States Postal Service", "brand:wikidata": "Q668687", "collection_times": "Mo-Fr 11:30; Sa 10:45", "nsi_id": "unitedstatespostalservice-a77078", "operator": "United States Postal Service", "operator:short": "USPS", "operator:type": "public", "operator:wikidata": "Q668687", "ref": "3948100002"}, "type": "Feature"}
{"geometry": {"coordinates": [-89.263168174, 31.865724639], "type": "Point"}, "id": "Es-tnR50ZkGJ4bLyn1_Bc-wn0p0=", "properties": {"@source_uri": "https://tools.usps.com/UspsToolsRestServices/rest/POLocator/findLocations", "@spider": "usps_collection_boxes", "addr:city": "STRINGER", "addr:country": "US", "addr:postcode": "39481", "addr:state": "MS", "addr:street_address": "36 COUNTY ROAD 17", "amenity": "post_box", "brand": "United States Postal Service", "brand:wikidata": "Q668687", "collection_times": "Mo-Fr 11:30; Sa 10:45", "indoor": "yes", "nsi_id": "unitedstatespostalservice-a77078", "operator": "United States Postal Service", "operator:short": "USPS", "operator:type": "public", "operator:wikidata": "Q668687", "ref": "3948100003"}, "type": "Feature"}
{"geometry": {"coordinates": [-89.545780287, 31.415706], "type": "Point"}, "id": "b22HKQMuS0ZGzen5X2_qXevCS3k=", "properties": {"@source_uri": "https://tools.usps.com/UspsToolsRestServices/rest/POLocator/findLocations", "@spider": "usps_collection_boxes", "addr:city": "SUMRALL", "addr:country": "US", "addr:postcode": "39482", "addr:state": "MS", "addr:street_address": "4862 HIGHWAY 589", "amenity": "post_box", "brand": "United States Postal Service", "brand:wikidata": "Q668687", "collection_times": "Mo-Fr 16:30; Sa 11:20", "note": "ON 12/24 AND 12/31, THIS BOX MAY BE COLLECTED AS EARLY AS 12 NOON.", "nsi_id": "unitedstatespostalservice-a77078", "operator": "United States Postal Service", "operator:short": "USPS", "operator:type": "public", "operator:wikidata": "Q668687", "ref": "3948200000"}, "type": "Feature"}
{"geometry": {"coordinates": [-89.545780287, 31.415706], "type": "Point"}, "id": "6RCHoyrxbmA3Io68bA5Vzd3M_5U=", "properties": {"@source_uri": "https://tools.usps.com/UspsToolsRestServices/rest/POLocator/findLocations", "@spider": "usps_collection_boxes", "addr:city": "SUMRALL", "addr:country": "US", "addr:postcode": "39482", "addr:state": "MS", "addr:street_address": "4862 HIGHWAY 589", "amenity": "post_box", "brand": "United States Postal Service", "brand:wikidata": "Q668687", "collection_times": "Mo-Fr 17:00; Sa 11:30", "indoor": "yes", "note": "ON 12/24 AND 12/31, THIS BOX MAY BE COLLECTED AS EARLY AS 12 NOON.", "nsi_id": "unitedstatespostalservice-a77078", "operator": "United States Postal Service", "operator:short": "USPS", "operator:type": "public", "operator:wikidata": "Q668687", "ref": "3948200002"}, "type": "Feature"}
{"geometry": {"coordinates": [-89.867325993, 31.233931493], "type": "Point"}, "id": "UXtw0idKki26kpSnzOwyltNvvq8=", "properties": {"@source_uri": "https://tools.usps.com/UspsToolsRestServices/rest/POLocator/findLocations", "@spider": "usps_collection_boxes", "addr:city": "FOXWORTH", "addr:country": "US", "addr:postcode": "39483", "addr:state": "MS", "addr:street_address": "72 HIGHWAY 587", "amenity": "post_box", "brand": "United States Postal Service", "brand:wikidata": "Q668687", "collection_times": "Mo-Fr 16:00; Sa 10:00", "note": "ON 12/24 AND 12/31, THIS BOX MAY BE COLLECTED AS EARLY AS 12 NOON.", "nsi_id": "unitedstatespostalservice-a77078", "operator": "United States Postal Service", "operator:short": "USPS", "operator:type": "public", "operator:wikidata": "Q668687", "ref": "3948300000"}, "type": "Feature"}
{"geometry": {"coordinates": [-89.867325993, 31.233931493], "type": "Point"}, "id": "XA3j4TckTuXrB9OknoPrNb50ta0=", "properties": {"@source_uri": "https://tools.usps.com/UspsToolsRestServices/rest/POLocator/findLocations", "@spider": "usps_collection_boxes", "addr:city": "FOXWORTH", "addr:country": "US", "addr:postcode": "39483", "addr:state": "MS", "addr:street_address": "72 HIGHWAY 587", "amenity": "post_box", "brand": "United States Postal Service", "brand:wikidata": "Q668687", "collection_times": "Mo-Fr 16:30; Sa 10:00", "indoor": "yes", "note": "ON 12/24 AND 12/31, THIS BOX MAY BE COLLECTED AS EARLY AS 12 NOON.", "nsi_id": "unitedstatespostalservice-a77078", "operator": "United States Postal Service", "operator:short": "USPS", "operator:type": "public", "operator:wikidata": "Q668687", "ref": "3948300002"}, "type": "Feature"}
