{"dataset_attributes": {"@spider": "usps_collection_boxes"}, "geometry": {"coordinates": [-89.093084664, 30.367045569], "type": "Point"}, "id": "MrEQ9FEjO2zB36ujd6ZX_bkdCD8=", "properties": {"@spider": "usps_collection_boxes", "addr:city": "GULFPORT", "addr:country": "US", "addr:full": "2421 13TH ST", "addr:postcode": "39501", "addr:state": "MS", "amenity": "post_box", "brand": "United States Postal Service", "brand:wikidata": "Q668687", "collection_times": "Mo-Fr 16:30; Sa 11:45", "name": "USPS COLLECTION BOX - PO LOBBY", "note": "ON 12/24 AND 12/31, THIS BOX MAY BE COLLECTED AS EARLY AS 12 NOON.", "nsi_id": "unitedstatespostalservice-a77078", "operator": "United States Postal Service", "operator:short": "USPS", "operator:type": "public", "operator:wikidata": "Q668687", "ref": "3950100007"}, "type": "Feature"}
{"dataset_attributes": {"@spider": "usps_collection_boxes"}, "geometry": {"coordinates": [-89.093084664, 30.367045569], "type": "Point"}, "id": "-v-5Wy3YY8k9M66wYhlVGPvB7d4=", "properties": {"@spider": "usps_collection_boxes", "addr:city": "GULFPORT", "addr:country": "US", "addr:full": "2421 13TH ST", "addr:postcode": "39501", "addr:state": "MS", "amenity": "post_box", "brand": "United States Postal Service", "brand:wikidata": "Q668687", "collection_times": "Mo-Fr 16:30; Sa 11:45", "name": "USPS COLLECTION BOX - PO LOBBY", "note": "ON 12/24 AND 12/31, THIS BOX MAY BE COLLECTED AS EARLY AS 12 NOON.", "nsi_id": "unitedstatespostalservice-a77078", "operator": "United States Postal Service", "operator:short": "USPS", "operator:type": "public", "operator:wikidata": "Q668687", "ref": "3950100008"}, "type": "Feature"}
{"dataset_attributes": {"@spider": "usps_collection_boxes"}, "geometry": {"coordinates": [-89.093084664, 30.367045569], "type": "Point"}, "id": "NDzmezq50gCY1yBuCxGnCfiOvBs=", "properties": {"@spider": "usps_collection_boxes", "addr:city": "GULFPORT", "addr:country": "US", "addr:full": "2421 13TH ST", "addr:postcode": "39501", "addr:state": "MS", "amenity": "post_box", "brand": "United States Postal Service", "brand:wikidata": "Q668687", "collection_times": "Mo-Fr 16:30; Sa 11:45", "name": "USPS COLLECTION BOX - BLUE BOX", "note": "ON 12/24 AND 12/31, THIS BOX MAY BE COLLECTED AS EARLY AS 12 NOON.", "nsi_id": "unitedstatespostalservice-a77078", "operator": "United States Postal Service", "operator:short": "USPS", "operator:type": "public", "operator:wikidata": "Q668687", "ref": "3950100065"}, "type": "Feature"}
{"dataset_attributes": {"@spider": "usps_collection_boxes"}, "geometry": {"coordinates": [-89.093084664, 30.367045569], "type": "Point"}, "id": "slnJXgcRiRJE27ZEG4NdkmQdJ1s=", "properties": {"@spider": "usps_collection_boxes", "addr:city": "GULFPORT", "addr:country": "US", "addr:full": "2421 13TH ST", "addr:postcode": "39501", "addr:state": "MS", "amenity": "post_box", "brand": "United States Postal Service", "brand:wikidata": "Q668687", "collection_times": "Mo-Fr 16:30; Sa 11:45", "name": "USPS COLLECTION BOX - BLUE BOX", "note": "ON 12/24 AND 12/31, THIS BOX MAY BE COLLECTED AS EARLY AS 12 NOON.", "nsi_id": "unitedstatespostalservice-a77078", "operator": "United States Postal Service", "operator:short": "USPS", "operator:type": "public", "operator:wikidata": "Q668687", "ref": "3950100066"}, "type": "Feature"}
{"dataset_attributes": {"@spider": "usps_collection_boxes"}, "geometry": {"coordinates": [-89.093084664, 30.367045569], "type": "Point"}, "id": "2Dnt3ThWayXNVbasgSnpUfax7iQ=", "properties": {"@spider": "usps_collection_boxes", "addr:city": "GULFPORT", "addr:country": "US", "addr:full": "2421 13TH ST", "addr:postcode": "39501", "addr:state": "MS", "amenity": "post_box", "brand": "United States Postal Service", "brand:wikidata": "Q668687", "collection_times": "Mo-Fr 16:30; Sa 11:45", "name": "USPS COLLECTION BOX - BLUE BOX", "note": "ON 12/24 AND 12/31, THIS BOX MAY BE COLLECTED AS EARLY AS 12 NOON.", "nsi_id": "unitedstatespostalservice-a77078", "operator": "United States Postal Service", "operator:short": "USPS", "operator:type": "public", "operator:wikidata": "Q668687", "ref": "3950100067"}, "type": "Feature"}
{"dataset_attributes": {"@spider": "usps_collection_boxes"}, "geometry": {"coordinates": [-89.093084664, 30.367045569], "type": "Point"}, "id": "vltyJtUR0rbIMJBKm3rdvwiQpPw=", "properties": {"@spider": "usps_collection_boxes", "addr:city": "GULFPORT", "addr:country": "US", "addr:full": "2421 13TH ST", "addr:postcode": "39501", "addr:state": "MS", "amenity": "post_box", "brand": "United States Postal Service", "brand:wikidata": "Q668687", "collection_times": "Mo-Fr 16:30; Sa 11:45", "name": "USPS COLLECTION BOX - BLUE BOX", "note": "ON 12/24 AND 12/31, THIS BOX MAY BE COLLECTED AS EARLY AS 12 NOON.", "nsi_id": "unitedstatespostalservice-a77078", "operator": "United States Postal Service", "operator:short": "USPS", "operator:type": "public", "operator:wikidata": "Q668687", "ref": "3950100068"}, "type": "Feature"}
{"dataset_attributes": {"@spider": "usps_collection_boxes"}, "geometry": {"coordinates": [-89.093084664, 30.367045569], "type": "Point"}, "id": "XWE-7f1RNk2-VgMUD8S5HyFFuZM=", "properties": {"@spider": "usps_collection_boxes", "addr:city": "GULFPORT", "addr:country": "US", "addr:full": "2421 13TH ST", "addr:postcode": "39501", "addr:state": "MS", "amenity": "post_box", "brand": "United States Postal Service", "brand:wikidata": "Q668687", "collection_times": "Mo-Fr 17:00; Sa 12:00", "name": "USPS COLLECTION BOX - PO LOBBY", "note": "ON 12/24 AND 12/31, THIS BOX MAY BE COLLECTED AS EARLY AS 12 NOON.", "nsi_id": "unitedstatespostalservice-a77078", "operator": "United States Postal Service", "operator:short": "USPS", "operator:type": "public", "operator:wikidata": "Q668687", "ref": "3950100070"}, "type": "Feature"}
{"dataset_attributes": {"@spider": "usps_collection_boxes"}, "geometry": {"coordinates": [-89.098610656, 30.445100968], "type": "Point"}, "id": "BfKG4edcOm6h7t0ZBktCSBPkzV4=", "properties": {"@spider": "usps_collection_boxes", "addr:city": "GULFPORT", "addr:country": "US", "addr:full": "11110 HIGHWAY 49", "addr:postcode": "39503", "addr:state": "MS", "amenity": "post_box", "brand": "United States Postal Service", "brand:wikidata": "Q668687", "collection_times": "Mo-Fr 16:30; Sa 14:30", "name": "USPS COLLECTION BOX - BLUE BOX", "note": "ON 12/24 AND 12/31, THIS BOX MAY BE COLLECTED AS EARLY AS 12 NOON.", "nsi_id": "unitedstatespostalservice-a77078", "operator": "United States Postal Service", "operator:short": "USPS", "operator:type": "public", "operator:wikidata": "Q668687", "ref": "3950300000"}, "type": "Feature"}
{"dataset_attributes": {"@spider": "usps_collection_boxes"}, "geometry": {"coordinates": [-89.098610656, 30.445100968], "type": "Point"}, "id": "eA5rNUjwgXAFqZmIrmMha0WpLdk=", "properties": {"@spider": "usps_collection_boxes", "addr:city": "GULFPORT", "addr:country": "US", "addr:full": "11110 HIGHWAY 49", "addr:postcode": "39503", "addr:state": "MS", "amenity": "post_box", "brand": "United States Postal Service", "brand:wikidata": "Q668687", "collection_times": "Mo-Fr 16:30; Sa 14:30", "name": "USPS COLLECTION BOX - BLUE BOX", "note": "ON 12/24 AND 12/31, THIS BOX MAY BE COLLECTED AS EARLY AS 12 NOON.", "nsi_id": "unitedstatespostalservice-a77078", "operator": "United States Postal Service", "operator:short": "USPS", "operator:type": "public", "operator:wikidata": "Q668687", "ref": "3950300001"}, "type": "Feature"}
{"dataset_attributes": {"@spider": "usps_collection_boxes"}, "geometry": {"coordinates": [-89.098610656, 30.445100968], "type": "Point"}, "id": "eXt9biXSMujooYKK6_FN1vpgvRc=", "properties": {"@spider": "usps_collection_boxes", "addr:city": "GULFPORT", "addr:country": "US", "addr:full": "11110 HIGHWAY 49", "addr:postcode": "39503", "addr:state": "MS", "amenity": "post_box", "brand": "United States Postal Service", "brand:wikidata": "Q668687", "collection_times": "Mo-Fr 16:30; Sa 14:30", "name": "USPS COLLECTION BOX - BLUE BOX", "note": "ON 12/24 AND 12/31, THIS BOX MAY BE COLLECTED AS EARLY AS 12 NOON.", "nsi_id": "unitedstatespostalservice-a77078", "operator": "United States Postal Service", "operator:short": "USPS", "operator:type": "public", "operator:wikidata": "Q668687", "ref": "3950300002"}, "type": "Feature"}
{"dataset_attributes": {"@spider": "usps_collection_boxes"}, "geometry": {"coordinates": [-89.042201511, 30.435845805], "type": "Point"}, "id": "bNgzdV1nXnCPg-PgT3cfe2im-OA=", "properties": {"@spider": "usps_collection_boxes", "addr:city": "GULFPORT", "addr:country": "US", "addr:full": "10285 CORPORATE DR", "addr:postcode": "39503", "addr:state": "MS", "amenity": "post_box", "brand": "United States Postal Service", "brand:wikidata": "Q668687", "collection_times": "Mo-Sa 18:30", "name": "USPS COLLECTION BOX - BLUE BOX", "note": "ON 12/24 AND 12/31, THIS BOX MAY BE COLLECTED AS EARLY AS 12 NOON.", "nsi_id": "unitedstatespostalservice-a77078", "operator": "United States Postal Service", "operator:short": "USPS", "operator:type": "public", "operator:wikidata": "Q668687", "ref": "3950300019"}, "type": "Feature"}
{"dataset_attributes": {"@spider": "usps_collection_boxes"}, "geometry": {"coordinates": [-89.042201511, 30.435845805], "type": "Point"}, "id": "QuA00xVD5T-oekOosdq5BkTsi8o=", "properties": {"@spider": "usps_collection_boxes", "addr:city": "GULFPORT", "addr:country": "US", "addr:full": "10285 CORPORATE DR", "addr:postcode": "39503", "addr:state": "MS", "amenity": "post_box", "brand": "United States Postal Service", "brand:wikidata": "Q668687", "collection_times": "Mo-Sa 18:30", "name": "USPS COLLECTION BOX - BLUE BOX", "note": "ON 12/24 AND 12/31, THIS BOX MAY BE COLLECTED AS EARLY AS 12 NOON.", "nsi_id": "unitedstatespostalservice-a77078", "operator": "United States Postal Service", "operator:short": "USPS", "operator:type": "public", "operator:wikidata": "Q668687", "ref": "3950300020"}, "type": "Feature"}
{"dataset_attributes": {"@spider": "usps_collection_boxes"}, "geometry": {"coordinates": [-89.042201511, 30.435845805], "type": "Point"}, "id": "uMFyh0UU2cyPzUD-f-WnaYaIyRw=", "properties": {"@spider": "usps_collection_boxes", "addr:city": "GULFPORT", "addr:country": "US", "addr:full": "10285 CORPORATE DR", "addr:postcode": "39503", "addr:state": "MS", "amenity": "post_box", "brand": "United States Postal Service", "brand:wikidata": "Q668687", "collection_times": "Mo-Sa 18:30", "name": "USPS COLLECTION BOX - BLUE BOX", "note": "ON 12/24 AND 12/31, THIS BOX MAY BE COLLECTED AS EARLY AS 12 NOON.", "nsi_id": "unitedstatespostalservice-a77078", "operator": "United States Postal Service", "operator:short": "USPS", "operator:type": "public", "operator:wikidata": "Q668687", "ref": "3950300021"}, "type": "Feature"}
{"dataset_attributes": {"@spider": "usps_collection_boxes"}, "geometry": {"coordinates": [-89.098610656, 30.445100968], "type": "Point"}, "id": "Fs8Ti06GgypRJ6rrwuVh_ox-4TU=", "properties": {"@spider": "usps_collection_boxes", "addr:city": "GULFPORT", "addr:country": "US", "addr:full": "11110 HIGHWAY 49", "addr:postcode": "39503", "addr:state": "MS", "amenity": "post_box", "brand": "United States Postal Service", "brand:wikidata": "Q668687", "collection_times": "Mo-Fr 16:30; Sa 14:30", "name": "USPS COLLECTION BOX - BLUE BOX", "note": "ON 12/24 AND 12/31, THIS BOX MAY BE COLLECTED AS EARLY AS 12 NOON.", "nsi_id": "unitedstatespostalservice-a77078", "operator": "United States Postal Service", "operator:short": "USPS", "operator:type": "public", "operator:wikidata": "Q668687", "ref": "3950300023"}, "type": "Feature"}
{"dataset_attributes": {"@spider": "usps_collection_boxes"}, "geometry": {"coordinates": [-89.098610656, 30.445100968], "type": "Point"}, "id": "_xxM5UK0w3e8Ipct9vOCuibs0-k=", "properties": {"@spider": "usps_collection_boxes", "addr:city": "GULFPORT", "addr:country": "US", "addr:full": "11110 HIGHWAY 49", "addr:postcode": "39503", "addr:state": "MS", "amenity": "post_box", "brand": "United States Postal Service", "brand:wikidata": "Q668687", "collection_times": "Mo-Fr 16:30; Sa 14:30", "name": "USPS COLLECTION BOX - APC", "note": "ON 12/24 AND 12/31, THIS BOX MAY BE COLLECTED AS EARLY AS 12 NOON.", "nsi_id": "unitedstatespostalservice-a77078", "operator": "United States Postal Service", "operator:short": "USPS", "operator:type": "public", "operator:wikidata": "Q668687", "ref": "3950300029"}, "type": "Feature"}
{"dataset_attributes": {"@spider": "usps_collection_boxes"}, "geometry": {"coordinates": [-89.098610656, 30.445100968], "type": "Point"}, "id": "0gJVnkpAcUTVRo9S1tM-U2VtHww=", "properties": {"@spider": "usps_collection_boxes", "addr:city": "GULFPORT", "addr:country": "US", "addr:full": "11110 HIGHWAY 49", "addr:postcode": "39503", "addr:state": "MS", "amenity": "post_box", "brand": "United States Postal Service", "brand:wikidata": "Q668687", "collection_times": "Mo-Fr 16:30; Sa 14:30", "name": "USPS COLLECTION BOX - PO LOBBY", "note": "ON 12/24 AND 12/31, THIS BOX MAY BE COLLECTED AS EARLY AS 12 NOON.", "nsi_id": "unitedstatespostalservice-a77078", "operator": "United States Postal Service", "operator:short": "USPS", "operator:type": "public", "operator:wikidata": "Q668687", "ref": "3950300030"}, "type": "Feature"}
{"dataset_attributes": {"@spider": "usps_collection_boxes"}, "geometry": {"coordinates": [-89.098610656, 30.445100968], "type": "Point"}, "id": "wnYbPQsNZih7yk1LWT4njwx-sxo=", "properties": {"@spider": "usps_collection_boxes", "addr:city": "GULFPORT", "addr:country": "US", "addr:full": "11110 HIGHWAY 49", "addr:postcode": "39503", "addr:state": "MS", "amenity": "post_box", "brand": "United States Postal Service", "brand:wikidata": "Q668687", "collection_times": "Mo-Fr 17:00; Sa 13:00", "name": "USPS COLLECTION BOX - PO LOBBY", "note": "ON 12/24 AND 12/31, THIS BOX MAY BE COLLECTED AS EARLY AS 12 NOON.", "nsi_id": "unitedstatespostalservice-a77078", "operator": "United States Postal Service", "operator:short": "USPS", "operator:type": "public", "operator:wikidata": "Q668687", "ref": "3950300038"}, "type": "Feature"}
{"dataset_attributes": {"@spider": "usps_collection_boxes"}, "geometry": {"coordinates": [-89.044143314, 30.384612388], "type": "Point"}, "id": "mEjViPv-IwfjYxOk2N65t8NIZ7Y=", "properties": {"@spider": "usps_collection_boxes", "addr:city": "GULFPORT", "addr:country": "US", "addr:full": "363 COURTHOUSE RD", "addr:postcode": "39507", "addr:state": "MS", "amenity": "post_box", "brand": "United States Postal Service", "brand:wikidata": "Q668687", "collection_times": "Mo-Fr 16:50; Sa 11:50", "name": "USPS COLLECTION BOX - BLUE BOX", "note": "ON 12/24 AND 12/31, THIS BOX MAY BE COLLECTED AS EARLY AS 12 NOON.", "nsi_id": "unitedstatespostalservice-a77078", "operator": "United States Postal Service", "operator:short": "USPS", "operator:type": "public", "operator:wikidata": "Q668687", "ref": "3950700026"}, "type": "Feature"}
{"dataset_attributes": {"@spider": "usps_collection_boxes"}, "geometry": {"coordinates": [-89.044143314, 30.384612388], "type": "Point"}, "id": "ycUgEnLZWXpkseAEMM9mWQwfyNk=", "properties": {"@spider": "usps_collection_boxes", "addr:city": "GULFPORT", "addr:country": "US", "addr:full": "363 COURTHOUSE RD", "addr:postcode": "39507", "addr:state": "MS", "amenity": "post_box", "brand": "United States Postal Service", "brand:wikidata": "Q668687", "collection_times": "Mo-Fr 16:50; Sa 11:50", "name": "USPS COLLECTION BOX - BLUE BOX", "note": "ON 12/24 AND 12/31, THIS BOX MAY BE COLLECTED AS EARLY AS 12 NOON.", "nsi_id": "unitedstatespostalservice-a77078", "operator": "United States Postal Service", "operator:short": "USPS", "operator:type": "public", "operator:wikidata": "Q668687", "ref": "3950700027"}, "type": "Feature"}
{"dataset_attributes": {"@spider": "usps_collection_boxes"}, "geometry": {"coordinates": [-89.044143314, 30.384612388], "type": "Point"}, "id": "v3ZPlK8xi-r5dpmWbtfoyKQKwZs=", "properties": {"@spider": "usps_collection_boxes", "addr:city": "GULFPORT", "addr:country": "US", "addr:full": "363 COURTHOUSE RD", "addr:postcode": "39507", "addr:state": "MS", "amenity": "post_box", "brand": "United States Postal Service", "brand:wikidata": "Q668687", "collection_times": "Mo-Fr 16:50; Sa 11:50", "name": "USPS COLLECTION BOX - PO LOBBY", "note": "ON 12/24 AND 12/31, THIS BOX MAY BE COLLECTED AS EARLY AS 12 NOON.", "nsi_id": "unitedstatespostalservice-a77078", "operator": "United States Postal Service", "operator:short": "USPS", "operator:type": "public", "operator:wikidata": "Q668687", "ref": "3950700028"}, "type": "Feature"}
{"dataset_attributes": {"@spider": "usps_collection_boxes"}, "geometry": {"coordinates": [-89.044143314, 30.384612388], "type": "Point"}, "id": "-x-P3MygP_Ju17eHoklTxUyt7Mk=", "properties": {"@spider": "usps_collection_boxes", "addr:city": "GULFPORT", "addr:country": "US", "addr:full": "363 COURTHOUSE RD", "addr:postcode": "39507", "addr:state": "MS", "amenity": "post_box", "brand": "United States Postal Service", "brand:wikidata": "Q668687", "collection_times": "Mo-Fr 16:50; Sa 11:50", "name": "USPS COLLECTION BOX - PO LOBBY", "note": "ON 12/24 AND 12/31, THIS BOX MAY BE COLLECTED AS EARLY AS 12 NOON.", "nsi_id": "unitedstatespostalservice-a77078", "operator": "United States Postal Service", "operator:short": "USPS", "operator:type": "public", "operator:wikidata": "Q668687", "ref": "3950700029"}, "type": "Feature"}
{"dataset_attributes": {"@spider": "usps_collection_boxes"}, "geometry": {"coordinates": [-89.044143314, 30.384612388], "type": "Point"}, "id": "H5dPXLucj-QkHT3kxjmEklP28Gc=", "properties": {"@spider": "usps_collection_boxes", "addr:city": "GULFPORT", "addr:country": "US", "addr:full": "363 COURTHOUSE RD", "addr:postcode": "39507", "addr:state": "MS", "amenity": "post_box", "brand": "United States Postal Service", "brand:wikidata": "Q668687", "collection_times": "Mo-Fr 17:00; Sa 12:00", "name": "USPS COLLECTION BOX - PO LOBBY", "note": "ON 12/24 AND 12/31, THIS BOX MAY BE COLLECTED AS EARLY AS 12 NOON.", "nsi_id": "unitedstatespostalservice-a77078", "operator": "United States Postal Service", "operator:short": "USPS", "operator:type": "public", "operator:wikidata": "Q668687", "ref": "3950700031"}, "type": "Feature"}
{"dataset_attributes": {"@spider": "usps_collection_boxes"}, "geometry": {"coordinates": [-89.3635970308, 30.310965611], "type": "Point"}, "id": "ezQd7a94It72amnBa1ldX_R6FiY=", "properties": {"@spider": "usps_collection_boxes", "addr:city": "BAY ST LOUIS", "addr:country": "US", "addr:full": "1200 HIGHWAY 90", "addr:postcode": "39520", "addr:state": "MS", "amenity": "post_box", "brand": "United States Postal Service", "brand:wikidata": "Q668687", "collection_times": "Mo-Fr 17:00; Sa 12:00", "name": "USPS COLLECTION BOX - BLUE BOX", "note": "ON 12/24 AND 12/31, THIS BOX MAY BE COLLECTED AS EARLY AS 12 NOON.", "nsi_id": "unitedstatespostalservice-a77078", "operator": "United States Postal Service", "operator:short": "USPS", "operator:type": "public", "operator:wikidata": "Q668687", "ref": "3952000000"}, "type": "Feature"}
{"dataset_attributes": {"@spider": "usps_collection_boxes"}, "geometry": {"coordinates": [-89.3796166, 30.38134], "type": "Point"}, "id": "kbZsm1gei5Gvgrh7MiNbsXkGkVY=", "properties": {"@spider": "usps_collection_boxes", "addr:city": "BAY ST LOUIS", "addr:country": "US", "addr:full": "5300 DIAMONDHEAD CIR", "addr:postcode": "39520", "addr:state": "MS", "amenity": "post_box", "brand": "United States Postal Service", "brand:wikidata": "Q668687", "collection_times": "Mo-Sa 12:00", "name": "USPS COLLECTION BOX - BLUE BOX", "nsi_id": "unitedstatespostalservice-a77078", "operator": "United States Postal Service", "operator:short": "USPS", "operator:type": "public", "operator:wikidata": "Q668687", "ref": "3952000006"}, "type": "Feature"}
{"dataset_attributes": {"@spider": "usps_collection_boxes"}, "geometry": {"coordinates": [-89.3635970308, 30.310965611], "type": "Point"}, "id": "9LCuN7s0bravTMlyjtLO_HLNkpo=", "properties": {"@spider": "usps_collection_boxes", "addr:city": "BAY ST LOUIS", "addr:country": "US", "addr:full": "1200 HIGHWAY 90", "addr:postcode": "39520", "addr:state": "MS", "amenity": "post_box", "brand": "United States Postal Service", "brand:wikidata": "Q668687", "collection_times": "Mo-Fr 17:00; Sa 12:00", "name": "USPS COLLECTION BOX - BLUE BOX", "note": "ON 12/24 AND 12/31, THIS BOX MAY BE COLLECTED AS EARLY AS 12 NOON.", "nsi_id": "unitedstatespostalservice-a77078", "operator": "United States Postal Service", "operator:short": "USPS", "operator:type": "public", "operator:wikidata": "Q668687", "ref": "3952000016"}, "type": "Feature"}
{"dataset_attributes": {"@spider": "usps_collection_boxes"}, "geometry": {"coordinates": [-89.3758709586, 30.3760829896], "type": "Point"}, "id": "kHFxwN_KkVTCHb2FDnVAOW2Vyfc=", "properties": {"@spider": "usps_collection_boxes", "addr:city": "BAY ST LOUIS", "addr:country": "US", "addr:full": "4401 KALANI DR", "addr:postcode": "39520", "addr:state": "MS", "amenity": "post_box", "brand": "United States Postal Service", "brand:wikidata": "Q668687", "collection_times": "Mo-Sa 12:30", "name": "USPS COLLECTION BOX - BLUE BOX", "note": "ON 12/24 AND 12/31, THIS BOX MAY BE COLLECTED AS EARLY AS 12 NOON.", "nsi_id": "unitedstatespostalservice-a77078", "operator": "United States Postal Service", "operator:short": "USPS", "operator:type": "public", "operator:wikidata": "Q668687", "ref": "3952000019"}, "type": "Feature"}
{"dataset_attributes": {"@spider": "usps_collection_boxes"}, "geometry": {"coordinates": [-89.3635970308, 30.310965611], "type": "Point"}, "id": "5wam51KxTUExphkv0gxYhYsj44c=", "properties": {"@spider": "usps_collection_boxes", "addr:city": "BAY ST LOUIS", "addr:country": "US", "addr:full": "1200 HIGHWAY 90", "addr:postcode": "39520", "addr:state": "MS", "amenity": "post_box", "brand": "United States Postal Service", "brand:wikidata": "Q668687", "collection_times": "Mo-Fr 17:00; Sa 12:00", "name": "USPS COLLECTION BOX - PO LOBBY", "note": "ON 12/24 AND 12/31, THIS BOX MAY BE COLLECTED AS EARLY AS 12 NOON.", "nsi_id": "unitedstatespostalservice-a77078", "operator": "United States Postal Service", "operator:short": "USPS", "operator:type": "public", "operator:wikidata": "Q668687", "ref": "3952000022"}, "type": "Feature"}
{"dataset_attributes": {"@spider": "usps_collection_boxes"}, "geometry": {"coordinates": [-89.3635970308, 30.310965611], "type": "Point"}, "id": "JOugGf0JNABFSZnlmq3tOFTAEkI=", "properties": {"@spider": "usps_collection_boxes", "addr:city": "BAY ST LOUIS", "addr:country": "US", "addr:full": "1200 HIGHWAY 90", "addr:postcode": "39520", "addr:state": "MS", "amenity": "post_box", "brand": "United States Postal Service", "brand:wikidata": "Q668687", "collection_times": "Mo-Fr 17:00; Sa 12:00", "name": "USPS COLLECTION BOX - PO LOBBY", "note": "ON 12/24 AND 12/31, THIS BOX MAY BE COLLECTED AS EARLY AS 12 NOON.", "nsi_id": "unitedstatespostalservice-a77078", "operator": "United States Postal Service", "operator:short": "USPS", "operator:type": "public", "operator:wikidata": "Q668687", "ref": "3952000023"}, "type": "Feature"}
{"dataset_attributes": {"@spider": "usps_collection_boxes"}, "geometry": {"coordinates": [-89.3737349982, 30.3761989951], "type": "Point"}, "id": "qyxkHqoVTtKJq-rZKao8ZllnTE4=", "properties": {"@spider": "usps_collection_boxes", "addr:city": "BAY ST LOUIS", "addr:country": "US", "addr:full": "4402 E ALOHA DR", "addr:postcode": "39520", "addr:state": "MS", "amenity": "post_box", "brand": "United States Postal Service", "brand:wikidata": "Q668687", "collection_times": "Mo-Fr 16:00; Sa 12:00", "name": "USPS COLLECTION BOX - PO LOBBY", "note": "ON 12/24 AND 12/31, THIS BOX MAY BE COLLECTED AS EARLY AS 12 NOON.", "nsi_id": "unitedstatespostalservice-a77078", "operator": "United States Postal Service", "operator:short": "USPS", "operator:type": "public", "operator:wikidata": "Q668687", "ref": "3952000025"}, "type": "Feature"}
{"dataset_attributes": {"@spider": "usps_collection_boxes"}, "geometry": {"coordinates": [-89.3635970308, 30.310965611], "type": "Point"}, "id": "AO4wbXmCZZSC69LadmFdjAKOfzQ=", "properties": {"@spider": "usps_collection_boxes", "addr:city": "BAY ST LOUIS", "addr:country": "US", "addr:full": "1200 HIGHWAY 90", "addr:postcode": "39520", "addr:state": "MS", "amenity": "post_box", "brand": "United States Postal Service", "brand:wikidata": "Q668687", "collection_times": "Mo-Fr 17:00; Sa 12:00", "name": "USPS COLLECTION BOX - PO LOBBY", "note": "ON 12/24 AND 12/31, THIS BOX MAY BE COLLECTED AS EARLY AS 12 NOON.", "nsi_id": "unitedstatespostalservice-a77078", "operator": "United States Postal Service", "operator:short": "USPS", "operator:type": "public", "operator:wikidata": "Q668687", "ref": "3952000026"}, "type": "Feature"}
{"dataset_attributes": {"@spider": "usps_collection_boxes"}, "geometry": {"coordinates": [-88.995810576, 30.399688463], "type": "Point"}, "id": "bMx8lLTMQ2V6Dg0mWhY4SKRffFk=", "properties": {"@spider": "usps_collection_boxes", "addr:city": "BILOXI", "addr:country": "US", "addr:full": "300 FAULKNER DR", "addr:postcode": "39531", "addr:state": "MS", "amenity": "post_box", "brand": "United States Postal Service", "brand:wikidata": "Q668687", "collection_times": "Mo-Fr 11:00", "name": "USPS COLLECTION BOX - BLUE BOX", "nsi_id": "unitedstatespostalservice-a77078", "operator": "United States Postal Service", "operator:short": "USPS", "operator:type": "public", "operator:wikidata": "Q668687", "ref": "3953100009"}, "type": "Feature"}
{"dataset_attributes": {"@spider": "usps_collection_boxes"}, "geometry": {"coordinates": [-88.994126227, 30.39460593], "type": "Point"}, "id": "gx-X9IlT_g1AiRdz4pfY9vMX2Pk=", "properties": {"@spider": "usps_collection_boxes", "addr:city": "BILOXI", "addr:country": "US", "addr:full": "2781 C T SWITZER SR DR", "addr:postcode": "39531", "addr:state": "MS", "amenity": "post_box", "brand": "United States Postal Service", "brand:wikidata": "Q668687", "collection_times": "Mo-Fr 10:00", "name": "USPS COLLECTION BOX - BLUE BOX", "nsi_id": "unitedstatespostalservice-a77078", "operator": "United States Postal Service", "operator:short": "USPS", "operator:type": "public", "operator:wikidata": "Q668687", "ref": "3953100028"}, "type": "Feature"}
{"dataset_attributes": {"@spider": "usps_collection_boxes"}, "geometry": {"coordinates": [-88.99245, 30.471775517], "type": "Point"}, "id": "r1rSWpbGmhyvf25S38c8CTeN7fo=", "properties": {"@spider": "usps_collection_boxes", "addr:city": "BILOXI", "addr:country": "US", "addr:full": "9221 WOOLMARKET RD", "addr:postcode": "39532", "addr:state": "MS", "amenity": "post_box", "brand": "United States Postal Service", "brand:wikidata": "Q668687", "collection_times": "Mo-Fr 09:00", "name": "USPS COLLECTION BOX - BLUE BOX", "nsi_id": "unitedstatespostalservice-a77078", "operator": "United States Postal Service", "operator:short": "USPS", "operator:type": "public", "operator:wikidata": "Q668687", "ref": "3953200019"}, "type": "Feature"}
{"dataset_attributes": {"@spider": "usps_collection_boxes"}, "geometry": {"coordinates": [-89.444176, 30.405676], "type": "Point"}, "id": "_XUzDAzMZJCt-7J7_cFR3vJ7X_s=", "properties": {"@spider": "usps_collection_boxes", "addr:city": "KILN", "addr:country": "US", "addr:full": "16250 HIGHWAY 603", "addr:postcode": "39556", "addr:state": "MS", "amenity": "post_box", "brand": "United States Postal Service", "brand:wikidata": "Q668687", "collection_times": "Mo-Fr 16:00; Sa 11:25", "name": "USPS COLLECTION BOX - PO LOBBY", "note": "ON 12/24 AND 12/31, THIS BOX MAY BE COLLECTED AS EARLY AS 12 NOON.", "nsi_id": "unitedstatespostalservice-a77078", "operator": "United States Postal Service", "operator:short": "USPS", "operator:type": "public", "operator:wikidata": "Q668687", "ref": "3955600001"}, "type": "Feature"}
{"dataset_attributes": {"@spider": "usps_collection_boxes"}, "geometry": {"coordinates": [-89.444176, 30.405676], "type": "Point"}, "id": "MeVixUkJ_h8NLsHaeFmO953R0bY=", "properties": {"@spider": "usps_collection_boxes", "addr:city": "KILN", "addr:country": "US", "addr:full": "16250 HIGHWAY 603", "addr:postcode": "39556", "addr:state": "MS", "amenity": "post_box", "brand": "United States Postal Service", "brand:wikidata": "Q668687", "collection_times": "Mo-Fr 16:00; Sa 11:25", "name": "USPS COLLECTION BOX - BLUE BOX", "note": "ON 12/24 AND 12/31, THIS BOX MAY BE COLLECTED AS EARLY AS 12 NOON.", "nsi_id": "unitedstatespostalservice-a77078", "operator": "United States Postal Service", "operator:short": "USPS", "operator:type": "public", "operator:wikidata": "Q668687", "ref": "3955600004"}, "type": "Feature"}
{"dataset_attributes": {"@spider": "usps_collection_boxes"}, "geometry": {"coordinates": [-89.44319869, 30.406112267], "type": "Point"}, "id": "LopcQboIpHcNfh8ltt8T4IHuOPE=", "properties": {"@spider": "usps_collection_boxes", "addr:city": "KILN", "addr:country": "US", "addr:full": "16318 HIGHWAY 603", "addr:postcode": "39556", "addr:state": "MS", "amenity": "post_box", "brand": "United States Postal Service", "brand:wikidata": "Q668687", "collection_times": "Mo-Fr 16:00; Sa 11:00", "name": "USPS COLLECTION BOX - PO LOBBY", "note": "ON 12/24 AND 12/31, THIS BOX MAY BE COLLECTED AS EARLY AS 12 NOON.", "nsi_id": "unitedstatespostalservice-a77078", "operator": "United States Postal Service", "operator:short": "USPS", "operator:type": "public", "operator:wikidata": "Q668687", "ref": "3955600005"}, "type": "Feature"}
{"dataset_attributes": {"@spider": "usps_collection_boxes"}, "geometry": {"coordinates": [-89.1528410041, 30.3528740026], "type": "Point"}, "id": "AsaJJcaSe7DDgM3_bxZJr3N6QCM=", "properties": {"@spider": "usps_collection_boxes", "addr:city": "LONG BEACH", "addr:country": "US", "addr:full": "200 KLONDYKE RD", "addr:postcode": "39560", "addr:state": "MS", "amenity": "post_box", "brand": "United States Postal Service", "brand:wikidata": "Q668687", "collection_times": "Mo-Fr 17:00; Sa 12:30", "name": "USPS COLLECTION BOX - BLUE BOX", "note": "ON 12/24 AND 12/31, THIS BOX MAY BE COLLECTED AS EARLY AS 12 NOON.", "nsi_id": "unitedstatespostalservice-a77078", "operator": "United States Postal Service", "operator:short": "USPS", "operator:type": "public", "operator:wikidata": "Q668687", "ref": "3956000000"}, "type": "Feature"}
{"dataset_attributes": {"@spider": "usps_collection_boxes"}, "geometry": {"coordinates": [-89.1528410041, 30.3528740026], "type": "Point"}, "id": "3J4mYmMJr9VdBIKhIxGY6o5YhXk=", "properties": {"@spider": "usps_collection_boxes", "addr:city": "LONG BEACH", "addr:country": "US", "addr:full": "200 KLONDYKE RD", "addr:postcode": "39560", "addr:state": "MS", "amenity": "post_box", "brand": "United States Postal Service", "brand:wikidata": "Q668687", "collection_times": "Mo-Fr 17:00; Sa 12:30", "name": "USPS COLLECTION BOX - BLUE BOX", "note": "ON 12/24 AND 12/31, THIS BOX MAY BE COLLECTED AS EARLY AS 12 NOON.", "nsi_id": "unitedstatespostalservice-a77078", "operator": "United States Postal Service", "operator:short": "USPS", "operator:type": "public", "operator:wikidata": "Q668687", "ref": "3956000002"}, "type": "Feature"}
{"dataset_attributes": {"@spider": "usps_collection_boxes"}, "geometry": {"coordinates": [-89.15318653, 30.352689687], "type": "Point"}, "id": "ByhsewBR9JDDHeEBq3pcn8VaBUE=", "properties": {"@spider": "usps_collection_boxes", "addr:city": "LONG BEACH", "addr:country": "US", "addr:full": "200 KLONDYKE RD", "addr:postcode": "39560", "addr:state": "MS", "amenity": "post_box", "brand": "United States Postal Service", "brand:wikidata": "Q668687", "collection_times": "Mo-Fr 17:00; Sa 12:30", "name": "USPS COLLECTION BOX - PO LOBBY", "note": "ON 12/24 AND 12/31, THIS BOX MAY BE COLLECTED AS EARLY AS 12 NOON.", "nsi_id": "unitedstatespostalservice-a77078", "operator": "United States Postal Service", "operator:short": "USPS", "operator:type": "public", "operator:wikidata": "Q668687", "ref": "3956000009"}, "type": "Feature"}
{"dataset_attributes": {"@spider": "usps_collection_boxes"}, "geometry": {"coordinates": [-89.188450011, 30.4005179975], "type": "Point"}, "id": "LfinCU_DNym8nuUi7-_ojp8Nl4A=", "properties": {"@spider": "usps_collection_boxes", "addr:city": "LONG BEACH", "addr:country": "US", "addr:full": "8102 RED CREEK RD", "addr:postcode": "39560", "addr:state": "MS", "amenity": "post_box", "brand": "United States Postal Service", "brand:wikidata": "Q668687", "collection_times": "Mo-Sa 11:00", "name": "USPS COLLECTION BOX - BLUE BOX", "nsi_id": "unitedstatespostalservice-a77078", "operator": "United States Postal Service", "operator:short": "USPS", "operator:type": "public", "operator:wikidata": "Q668687", "ref": "3956000013"}, "type": "Feature"}
{"dataset_attributes": {"@spider": "usps_collection_boxes"}, "geometry": {"coordinates": [-89.15318653, 30.352689687], "type": "Point"}, "id": "MCmTuchzJAPx-dK1Oetz3gZmp88=", "properties": {"@spider": "usps_collection_boxes", "addr:city": "LONG BEACH", "addr:country": "US", "addr:full": "200 KLONDYKE RD", "addr:postcode": "39560", "addr:state": "MS", "amenity": "post_box", "brand": "United States Postal Service", "brand:wikidata": "Q668687", "collection_times": "Mo-Fr 17:00; Sa 12:30", "name": "USPS COLLECTION BOX - PO LOBBY", "note": "ON 12/24 AND 12/31, THIS BOX MAY BE COLLECTED AS EARLY AS 12 NOON.", "nsi_id": "unitedstatespostalservice-a77078", "operator": "United States Postal Service", "operator:short": "USPS", "operator:type": "public", "operator:wikidata": "Q668687", "ref": "3956000014"}, "type": "Feature"}
{"dataset_attributes": {"@spider": "usps_collection_boxes"}, "geometry": {"coordinates": [-89.138623, 30.711362], "type": "Point"}, "id": "LL-SNKFc5QfgNzh918ewLDMCvug=", "properties": {"@spider": "usps_collection_boxes", "addr:city": "MCHENRY", "addr:country": "US", "addr:full": "16 N MCHENRY AVE", "addr:postcode": "39561", "addr:state": "MS", "amenity": "post_box", "brand": "United States Postal Service", "brand:wikidata": "Q668687", "collection_times": "Mo-Fr 15:00; Sa 10:00", "name": "USPS COLLECTION BOX - BLUE BOX", "note": "ON 12/24 AND 12/31, THIS BOX MAY BE COLLECTED AS EARLY AS 12 NOON.", "nsi_id": "unitedstatespostalservice-a77078", "operator": "United States Postal Service", "operator:short": "USPS", "operator:type": "public", "operator:wikidata": "Q668687", "ref": "3956100000"}, "type": "Feature"}
{"dataset_attributes": {"@spider": "usps_collection_boxes"}, "geometry": {"coordinates": [-89.138623, 30.711362], "type": "Point"}, "id": "RaJXKYwvv2KQYMGHS0Wxqc1Sefw=", "properties": {"@spider": "usps_collection_boxes", "addr:city": "MCHENRY", "addr:country": "US", "addr:full": "16 N MCHENRY AVE", "addr:postcode": "39561", "addr:state": "MS", "amenity": "post_box", "brand": "United States Postal Service", "brand:wikidata": "Q668687", "collection_times": "Mo-Fr 15:00; Sa 10:00", "name": "USPS COLLECTION BOX - PO LOBBY", "note": "ON 12/24 AND 12/31, THIS BOX MAY BE COLLECTED AS EARLY AS 12 NOON.", "nsi_id": "unitedstatespostalservice-a77078", "operator": "United States Postal Service", "operator:short": "USPS", "operator:type": "public", "operator:wikidata": "Q668687", "ref": "3956100001"}, "type": "Feature"}
{"dataset_attributes": {"@spider": "usps_collection_boxes"}, "geometry": {"coordinates": [-89.1386180635, 30.711317405], "type": "Point"}, "id": "TNK767s_PQGi3uGuEXsU_-Q5ylg=", "properties": {"@spider": "usps_collection_boxes", "addr:city": "MCHENRY", "addr:country": "US", "addr:full": "16 N MCHENRY AVE", "addr:postcode": "39561", "addr:state": "MS", "amenity": "post_box", "brand": "United States Postal Service", "brand:wikidata": "Q668687", "collection_times": "Mo-Fr 15:00; Sa 10:30", "name": "USPS COLLECTION BOX - PO LOBBY", "note": "ON 12/24 AND 12/31, THIS BOX MAY BE COLLECTED AS EARLY AS 12 NOON.", "nsi_id": "unitedstatespostalservice-a77078", "operator": "United States Postal Service", "operator:short": "USPS", "operator:type": "public", "operator:wikidata": "Q668687", "ref": "3956100002"}, "type": "Feature"}
{"dataset_attributes": {"@spider": "usps_collection_boxes"}, "geometry": {"coordinates": [-89.243890609, 30.320850625], "type": "Point"}, "id": "svmCbjVL_SPrbNqb-LE4fk4htmM=", "properties": {"@spider": "usps_collection_boxes", "addr:city": "PASS CHRISTIAN", "addr:country": "US", "addr:full": "300 LADNIER ST", "addr:postcode": "39571", "addr:state": "MS", "amenity": "post_box", "brand": "United States Postal Service", "brand:wikidata": "Q668687", "collection_times": "Mo-Fr 14:30; Sa 11:00", "name": "USPS COLLECTION BOX - BLUE BOX", "note": "ON 12/24 AND 12/31, THIS BOX MAY BE COLLECTED AS EARLY AS 12 NOON.", "nsi_id": "unitedstatespostalservice-a77078", "operator": "United States Postal Service", "operator:short": "USPS", "operator:type": "public", "operator:wikidata": "Q668687", "ref": "3957100009"}, "type": "Feature"}
{"dataset_attributes": {"@spider": "usps_collection_boxes"}, "geometry": {"coordinates": [-89.243890609, 30.320850625], "type": "Point"}, "id": "DOHE_Iavl8RA_F5hxjmMLvNco8o=", "properties": {"@spider": "usps_collection_boxes", "addr:city": "PASS CHRISTIAN", "addr:country": "US", "addr:full": "300 LADNIER ST", "addr:postcode": "39571", "addr:state": "MS", "amenity": "post_box", "brand": "United States Postal Service", "brand:wikidata": "Q668687", "collection_times": "Mo-Fr 14:30; Sa 11:00", "name": "USPS COLLECTION BOX - BLUE BOX", "note": "ON 12/24 AND 12/31, THIS BOX MAY BE COLLECTED AS EARLY AS 12 NOON.", "nsi_id": "unitedstatespostalservice-a77078", "operator": "United States Postal Service", "operator:short": "USPS", "operator:type": "public", "operator:wikidata": "Q668687", "ref": "3957100010"}, "type": "Feature"}
{"dataset_attributes": {"@spider": "usps_collection_boxes"}, "geometry": {"coordinates": [-89.243890609, 30.320850625], "type": "Point"}, "id": "hk1hGYPE287Co6SXf4tjR2POcT0=", "properties": {"@spider": "usps_collection_boxes", "addr:city": "PASS CHRISTIAN", "addr:country": "US", "addr:full": "300 LADNIER ST", "addr:postcode": "39571", "addr:state": "MS", "amenity": "post_box", "brand": "United States Postal Service", "brand:wikidata": "Q668687", "collection_times": "Mo-Fr 14:30; Sa 11:00", "name": "USPS COLLECTION BOX - PO LOBBY", "note": "ON 12/24 AND 12/31, THIS BOX MAY BE COLLECTED AS EARLY AS 12 NOON.", "nsi_id": "unitedstatespostalservice-a77078", "operator": "United States Postal Service", "operator:short": "USPS", "operator:type": "public", "operator:wikidata": "Q668687", "ref": "3957100011"}, "type": "Feature"}
{"dataset_attributes": {"@spider": "usps_collection_boxes"}, "geometry": {"coordinates": [-89.243890609, 30.320850625], "type": "Point"}, "id": "EJhPSXoCsMH8RT1xXTl9_wmgqBI=", "properties": {"@spider": "usps_collection_boxes", "addr:city": "PASS CHRISTIAN", "addr:country": "US", "addr:full": "300 LADNIER ST", "addr:postcode": "39571", "addr:state": "MS", "amenity": "post_box", "brand": "United States Postal Service", "brand:wikidata": "Q668687", "collection_times": "Mo-Fr 16:30", "name": "USPS COLLECTION BOX - PO LOBBY", "note": "ON 12/24 AND 12/31, THIS BOX MAY BE COLLECTED AS EARLY AS 12 NOON.", "nsi_id": "unitedstatespostalservice-a77078", "operator": "United States Postal Service", "operator:short": "USPS", "operator:type": "public", "operator:wikidata": "Q668687", "ref": "3957100012"}, "type": "Feature"}
{"dataset_attributes": {"@spider": "usps_collection_boxes"}, "geometry": {"coordinates": [-89.13661464, 30.78411362], "type": "Point"}, "id": "n18sJKNLCaUfEJj8c-XEFLHCx0E=", "properties": {"@spider": "usps_collection_boxes", "addr:city": "PERKINSTON", "addr:country": "US", "addr:full": "145 MAIN ST", "addr:postcode": "39573", "addr:state": "MS", "amenity": "post_box", "brand": "United States Postal Service", "brand:wikidata": "Q668687", "collection_times": "Mo-Fr 16:10; Sa 10:00", "name": "USPS COLLECTION BOX - BLUE BOX", "note": "ON 12/24 AND 12/31, THIS BOX MAY BE COLLECTED AS EARLY AS 12 NOON.", "nsi_id": "unitedstatespostalservice-a77078", "operator": "United States Postal Service", "operator:short": "USPS", "operator:type": "public", "operator:wikidata": "Q668687", "ref": "3957300000"}, "type": "Feature"}
{"dataset_attributes": {"@spider": "usps_collection_boxes"}, "geometry": {"coordinates": [-89.05377, 30.811578], "type": "Point"}, "id": "HCrdPjta4MGzZ9W03P6qU74cMVw=", "properties": {"@spider": "usps_collection_boxes", "addr:city": "PERKINSTON", "addr:country": "US", "addr:full": "1023 KING BEE RD", "addr:postcode": "39573", "addr:state": "MS", "amenity": "post_box", "brand": "United States Postal Service", "brand:wikidata": "Q668687", "collection_times": "Mo-Sa 12:30", "name": "USPS COLLECTION BOX - BLUE BOX", "note": "ON 12/24 AND 12/31, THIS BOX MAY BE COLLECTED AS EARLY AS 12 NOON.", "nsi_id": "unitedstatespostalservice-a77078", "operator": "United States Postal Service", "operator:short": "USPS", "operator:type": "public", "operator:wikidata": "Q668687", "ref": "3957300002"}, "type": "Feature"}
{"dataset_attributes": {"@spider": "usps_collection_boxes"}, "geometry": {"coordinates": [-89.13661464, 30.78411362], "type": "Point"}, "id": "DLn87Bh1PnkjPOWxRkp1valn-rw=", "properties": {"@spider": "usps_collection_boxes", "addr:city": "PERKINSTON", "addr:country": "US", "addr:full": "145 MAIN ST", "addr:postcode": "39573", "addr:state": "MS", "amenity": "post_box", "brand": "United States Postal Service", "brand:wikidata": "Q668687", "collection_times": "Mo-Fr 16:30; Sa 10:00", "name": "USPS COLLECTION BOX - PO LOBBY", "note": "ON 12/24 AND 12/31, THIS BOX MAY BE COLLECTED AS EARLY AS 12 NOON.", "nsi_id": "unitedstatespostalservice-a77078", "operator": "United States Postal Service", "operator:short": "USPS", "operator:type": "public", "operator:wikidata": "Q668687", "ref": "3957300003"}, "type": "Feature"}
{"dataset_attributes": {"@spider": "usps_collection_boxes"}, "geometry": {"coordinates": [-89.131947863, 30.635442238], "type": "Point"}, "id": "V8XNh70tj9HpeNDVoBsySbXdAek=", "properties": {"@spider": "usps_collection_boxes", "addr:city": "SAUCIER", "addr:country": "US", "addr:full": "17690 2ND ST", "addr:postcode": "39574", "addr:state": "MS", "amenity": "post_box", "brand": "United States Postal Service", "brand:wikidata": "Q668687", "collection_times": "Mo-Fr 16:00; Sa 11:00", "name": "USPS COLLECTION BOX - BLUE BOX", "note": "ON 12/24 AND 12/31, THIS BOX MAY BE COLLECTED AS EARLY AS 12 NOON.", "nsi_id": "unitedstatespostalservice-a77078", "operator": "United States Postal Service", "operator:short": "USPS", "operator:type": "public", "operator:wikidata": "Q668687", "ref": "3957400000"}, "type": "Feature"}
{"dataset_attributes": {"@spider": "usps_collection_boxes"}, "geometry": {"coordinates": [-89.131947863, 30.635442238], "type": "Point"}, "id": "r_BZGewf8m41SLGIUUM_3OQRhtI=", "properties": {"@spider": "usps_collection_boxes", "addr:city": "SAUCIER", "addr:country": "US", "addr:full": "17690 2ND ST", "addr:postcode": "39574", "addr:state": "MS", "amenity": "post_box", "brand": "United States Postal Service", "brand:wikidata": "Q668687", "collection_times": "Mo-Fr 16:30; Sa 11:00", "name": "USPS COLLECTION BOX - PO LOBBY", "note": "ON 12/24 AND 12/31, THIS BOX MAY BE COLLECTED AS EARLY AS 12 NOON.", "nsi_id": "unitedstatespostalservice-a77078", "operator": "United States Postal Service", "operator:short": "USPS", "operator:type": "public", "operator:wikidata": "Q668687", "ref": "3957400001"}, "type": "Feature"}
{"dataset_attributes": {"@spider": "usps_collection_boxes"}, "geometry": {"coordinates": [-89.131947863, 30.635442238], "type": "Point"}, "id": "aYdIb8hdx06lfbHM9FGfGqbizn4=", "properties": {"@spider": "usps_collection_boxes", "addr:city": "SAUCIER", "addr:country": "US", "addr:full": "17690 2ND ST", "addr:postcode": "39574", "addr:state": "MS", "amenity": "post_box", "brand": "United States Postal Service", "brand:wikidata": "Q668687", "collection_times": "Mo-Fr 16:30; Sa 11:00", "name": "USPS COLLECTION BOX - PO LOBBY", "note": "ON 12/24 AND 12/31, THIS BOX MAY BE COLLECTED AS EARLY AS 12 NOON.", "nsi_id": "unitedstatespostalservice-a77078", "operator": "United States Postal Service", "operator:short": "USPS", "operator:type": "public", "operator:wikidata": "Q668687", "ref": "3957400002"}, "type": "Feature"}
{"dataset_attributes": {"@spider": "usps_collection_boxes"}, "geometry": {"coordinates": [-89.138749504, 30.855459609], "type": "Point"}, "id": "Zkax-chwGdQn8-SQNMtcnyhNUz8=", "properties": {"@spider": "usps_collection_boxes", "addr:city": "WIGGINS", "addr:country": "US", "addr:full": "125 BORDER AVE W", "addr:postcode": "39577", "addr:state": "MS", "amenity": "post_box", "brand": "United States Postal Service", "brand:wikidata": "Q668687", "collection_times": "Mo-Fr 17:00; Sa 11:00", "name": "USPS COLLECTION BOX - PO LOBBY", "note": "ON 12/24 AND 12/31, THIS BOX MAY BE COLLECTED AS EARLY AS 12 NOON.", "nsi_id": "unitedstatespostalservice-a77078", "operator": "United States Postal Service", "operator:short": "USPS", "operator:type": "public", "operator:wikidata": "Q668687", "ref": "3957700002"}, "type": "Feature"}
{"dataset_attributes": {"@spider": "usps_collection_boxes"}, "geometry": {"coordinates": [-89.138749504, 30.855459609], "type": "Point"}, "id": "GfpvP0UPc3c-cj9ytrFib_SJvKM=", "properties": {"@spider": "usps_collection_boxes", "addr:city": "WIGGINS", "addr:country": "US", "addr:full": "125 BORDER AVE W", "addr:postcode": "39577", "addr:state": "MS", "amenity": "post_box", "brand": "United States Postal Service", "brand:wikidata": "Q668687", "collection_times": "Mo-Fr 16:30; Sa 11:00", "name": "USPS COLLECTION BOX - BLUE BOX", "note": "ON 12/24 AND 12/31, THIS BOX MAY BE COLLECTED AS EARLY AS 12 NOON.", "nsi_id": "unitedstatespostalservice-a77078", "operator": "United States Postal Service", "operator:short": "USPS", "operator:type": "public", "operator:wikidata": "Q668687", "ref": "3957700003"}, "type": "Feature"}
{"dataset_attributes": {"@spider": "usps_collection_boxes"}, "geometry": {"coordinates": [-89.138749504, 30.855459609], "type": "Point"}, "id": "gAi_V_lnukyvka-e3kFR0qaS878=", "properties": {"@spider": "usps_collection_boxes", "addr:city": "WIGGINS", "addr:country": "US", "addr:full": "125 BORDER AVE W", "addr:postcode": "39577", "addr:state": "MS", "amenity": "post_box", "brand": "United States Postal Service", "brand:wikidata": "Q668687", "collection_times": "Mo-Fr 16:30; Sa 11:00", "name": "USPS COLLECTION BOX - BLUE BOX", "note": "ON 12/24 AND 12/31, THIS BOX MAY BE COLLECTED AS EARLY AS 12 NOON.", "nsi_id": "unitedstatespostalservice-a77078", "operator": "United States Postal Service", "operator:short": "USPS", "operator:type": "public", "operator:wikidata": "Q668687", "ref": "3957700004"}, "type": "Feature"}
{"dataset_attributes": {"@spider": "usps_collection_boxes"}, "geometry": {"coordinates": [-89.138749504, 30.855459609], "type": "Point"}, "id": "XRtvuO_GERLjeIje93gI7j9BrpE=", "properties": {"@spider": "usps_collection_boxes", "addr:city": "WIGGINS", "addr:country": "US", "addr:full": "125 BORDER AVE W", "addr:postcode": "39577", "addr:state": "MS", "amenity": "post_box", "brand": "United States Postal Service", "brand:wikidata": "Q668687", "collection_times": "Mo-Fr 16:30", "name": "USPS COLLECTION BOX - PO LOBBY", "note": "ON 12/24 AND 12/31, THIS BOX MAY BE COLLECTED AS EARLY AS 12 NOON.", "nsi_id": "unitedstatespostalservice-a77078", "operator": "United States Postal Service", "operator:short": "USPS", "operator:type": "public", "operator:wikidata": "Q668687", "ref": "3957700005"}, "type": "Feature"}
