{"geometry": {"coordinates": [-90.462580011, 31.580100004], "type": "Point"}, "id": "gchXzSSOkEwWCa_vvxQDrznO81k=", "properties": {"@source_uri": "https://tools.usps.com/UspsToolsRestServices/rest/POLocator/findLocations", "@spider": "usps_collection_boxes", "addr:city": "BROOKHAVEN", "addr:country": "US", "addr:postcode": "39601", "addr:state": "MS", "addr:street_address": "820 BROOKWAY BLVD", "amenity": "post_box", "collection_times": "Mo-Fr 15:00", "note": "ON 12/24 AND 12/31, THIS BOX MAY BE COLLECTED AS EARLY AS 12 NOON.", "nsi_id": "unitedstatespostalservice-a77078", "operator": "United States Postal Service", "operator:short": "USPS", "operator:type": "public", "operator:wikidata": "Q668687", "ref": "3960100001"}, "type": "Feature"}
{"geometry": {"coordinates": [-90.456806852, 31.583021114], "type": "Point"}, "id": "zJ0lv7RImeLVprriJ-UaDR9BMzI=", "properties": {"@source_uri": "https://tools.usps.com/UspsToolsRestServices/rest/POLocator/findLocations", "@spider": "usps_collection_boxes", "addr:city": "BROOKHAVEN", "addr:country": "US", "addr:postcode": "39601", "addr:state": "MS", "addr:street_address": "200 HIGHWAY 51 N", "amenity": "post_box", "collection_times": "Mo-Fr 10:00", "nsi_id": "unitedstatespostalservice-a77078", "operator": "United States Postal Service", "operator:short": "USPS", "operator:type": "public", "operator:wikidata": "Q668687", "ref": "3960100004"}, "type": "Feature"}
{"geometry": {"coordinates": [-90.441845789, 31.576004996], "type": "Point"}, "id": "q40fC7YEpkvNeGKc1Mmnn-j0IbY=", "properties": {"@source_uri": "https://tools.usps.com/UspsToolsRestServices/rest/POLocator/findLocations", "@spider": "usps_collection_boxes", "addr:city": "BROOKHAVEN", "addr:country": "US", "addr:postcode": "39601", "addr:state": "MS", "addr:street_address": "301 S FIRST ST", "amenity": "post_box", "collection_times": "Mo-Fr 13:00", "note": "ON 12/24 AND 12/31, THIS BOX MAY BE COLLECTED AS EARLY AS 12 NOON.", "nsi_id": "unitedstatespostalservice-a77078", "operator": "United States Postal Service", "operator:short": "USPS", "operator:type": "public", "operator:wikidata": "Q668687", "ref": "3960100007"}, "type": "Feature"}
{"geometry": {"coordinates": [-90.444896212, 31.578921698], "type": "Point"}, "id": "AfOVnZSqcWxg3oSf_IFJjDYJR5s=", "properties": {"@source_uri": "https://tools.usps.com/UspsToolsRestServices/rest/POLocator/findLocations", "@spider": "usps_collection_boxes", "addr:city": "BROOKHAVEN", "addr:country": "US", "addr:postcode": "39601", "addr:state": "MS", "addr:street_address": "200 W CHEROKEE ST", "amenity": "post_box", "collection_times": "Mo-Fr 16:25", "note": "ON 12/24 AND 12/31, THIS BOX MAY BE COLLECTED AS EARLY AS 12 NOON.", "nsi_id": "unitedstatespostalservice-a77078", "operator": "United States Postal Service", "operator:short": "USPS", "operator:type": "public", "operator:wikidata": "Q668687", "ref": "3960100011"}, "type": "Feature"}
{"geometry": {"coordinates": [-90.444931601, 31.578793764], "type": "Point"}, "id": "5WEc0TLoAj9584WUHJzuan98sD0=", "properties": {"@source_uri": "https://tools.usps.com/UspsToolsRestServices/rest/POLocator/findLocations", "@spider": "usps_collection_boxes", "addr:city": "BROOKHAVEN", "addr:country": "US", "addr:postcode": "39601", "addr:state": "MS", "addr:street_address": "201 W CHEROKEE ST", "amenity": "post_box", "collection_times": "Mo-Fr 16:25", "note": "ON 12/24 AND 12/31, THIS BOX MAY BE COLLECTED AS EARLY AS 12 NOON.", "nsi_id": "unitedstatespostalservice-a77078", "operator": "United States Postal Service", "operator:short": "USPS", "operator:type": "public", "operator:wikidata": "Q668687", "ref": "3960100012"}, "type": "Feature"}
{"geometry": {"coordinates": [-90.444931601, 31.578793764], "type": "Point"}, "id": "Fm96aahBhIv2UDCtzJBcrgkf2y8=", "properties": {"@source_uri": "https://tools.usps.com/UspsToolsRestServices/rest/POLocator/findLocations", "@spider": "usps_collection_boxes", "addr:city": "BROOKHAVEN", "addr:country": "US", "addr:postcode": "39601", "addr:state": "MS", "addr:street_address": "201 W CHEROKEE ST", "amenity": "post_box", "collection_times": "Mo-Fr 16:25", "indoor": "yes", "note": "ON 12/24 AND 12/31, THIS BOX MAY BE COLLECTED AS EARLY AS 12 NOON.", "nsi_id": "unitedstatespostalservice-a77078", "operator": "United States Postal Service", "operator:short": "USPS", "operator:type": "public", "operator:wikidata": "Q668687", "ref": "3960100013"}, "type": "Feature"}
{"geometry": {"coordinates": [-90.444931601, 31.578793764], "type": "Point"}, "id": "efTQZSFqyXulg-Q-uV1uWj7dYUk=", "properties": {"@source_uri": "https://tools.usps.com/UspsToolsRestServices/rest/POLocator/findLocations", "@spider": "usps_collection_boxes", "addr:city": "BROOKHAVEN", "addr:country": "US", "addr:postcode": "39601", "addr:state": "MS", "addr:street_address": "201 W CHEROKEE ST", "amenity": "post_box", "collection_times": "Mo-Fr 16:25", "indoor": "yes", "note": "ON 12/24 AND 12/31, THIS BOX MAY BE COLLECTED AS EARLY AS 12 NOON.", "nsi_id": "unitedstatespostalservice-a77078", "operator": "United States Postal Service", "operator:short": "USPS", "operator:type": "public", "operator:wikidata": "Q668687", "ref": "3960100014"}, "type": "Feature"}
{"geometry": {"coordinates": [-90.464299978, 31.581670019], "type": "Point"}, "id": "KicrZHkBsbz_jGVnCzHn9qyqJGc=", "properties": {"@source_uri": "https://tools.usps.com/UspsToolsRestServices/rest/POLocator/findLocations", "@spider": "usps_collection_boxes", "addr:city": "BROOKHAVEN", "addr:country": "US", "addr:postcode": "39601", "addr:state": "MS", "addr:street_address": "407 BROOKHAVEN ST", "amenity": "post_box", "collection_times": "Mo-Fr 16:30; Sa 11:00", "indoor": "yes", "note": "ON 12/24 AND 12/31, THIS BOX MAY BE COLLECTED AS EARLY AS 12 NOON.", "nsi_id": "unitedstatespostalservice-a77078", "operator": "United States Postal Service", "operator:short": "USPS", "operator:type": "public", "operator:wikidata": "Q668687", "ref": "3960100036"}, "type": "Feature"}
{"geometry": {"coordinates": [-90.454860027, 31.439579996], "type": "Point"}, "id": "j2677BkTAYEhtaqRW_gYUFFy4KM=", "properties": {"@source_uri": "https://tools.usps.com/UspsToolsRestServices/rest/POLocator/findLocations", "@spider": "usps_collection_boxes", "addr:city": "BOGUE CHITTO", "addr:country": "US", "addr:postcode": "39629", "addr:state": "MS", "addr:street_address": "409 MONTICELLO ST", "amenity": "post_box", "collection_times": "Mo-Fr 15:45; Sa 10:00", "note": "ON 12/24 AND 12/31, THIS BOX MAY BE COLLECTED AS EARLY AS 12 NOON.", "nsi_id": "unitedstatespostalservice-a77078", "operator": "United States Postal Service", "operator:short": "USPS", "operator:type": "public", "operator:wikidata": "Q668687", "ref": "3962900000"}, "type": "Feature"}
{"geometry": {"coordinates": [-90.454860027, 31.439579996], "type": "Point"}, "id": "b1o8E8Ve7WhEG5_KMj48edOww9w=", "properties": {"@source_uri": "https://tools.usps.com/UspsToolsRestServices/rest/POLocator/findLocations", "@spider": "usps_collection_boxes", "addr:city": "BOGUE CHITTO", "addr:country": "US", "addr:postcode": "39629", "addr:state": "MS", "addr:street_address": "409 MONTICELLO ST", "amenity": "post_box", "collection_times": "Mo-Fr 16:00; Sa 10:00", "indoor": "yes", "note": "ON 12/24 AND 12/31, THIS BOX MAY BE COLLECTED AS EARLY AS 12 NOON.", "nsi_id": "unitedstatespostalservice-a77078", "operator": "United States Postal Service", "operator:short": "USPS", "operator:type": "public", "operator:wikidata": "Q668687", "ref": "3962900001"}, "type": "Feature"}
{"geometry": {"coordinates": [-90.454860027, 31.439579996], "type": "Point"}, "id": "e4j2_9q7uCtys9EXLclNNNneeZc=", "properties": {"@source_uri": "https://tools.usps.com/UspsToolsRestServices/rest/POLocator/findLocations", "@spider": "usps_collection_boxes", "addr:city": "BOGUE CHITTO", "addr:country": "US", "addr:postcode": "39629", "addr:state": "MS", "addr:street_address": "409 MONTICELLO ST", "amenity": "post_box", "collection_times": "Mo-Fr 16:00; Sa 10:00", "indoor": "yes", "note": "ON 12/24 AND 12/31, THIS BOX MAY BE COLLECTED AS EARLY AS 12 NOON.", "nsi_id": "unitedstatespostalservice-a77078", "operator": "United States Postal Service", "operator:short": "USPS", "operator:type": "public", "operator:wikidata": "Q668687", "ref": "3962900002"}, "type": "Feature"}
{"geometry": {"coordinates": [-90.843412657, 31.463146471], "type": "Point"}, "id": "a3fLJpnt9ilhvZVI_-0DSdK50g0=", "properties": {"@source_uri": "https://tools.usps.com/UspsToolsRestServices/rest/POLocator/findLocations", "@spider": "usps_collection_boxes", "addr:city": "BUDE", "addr:country": "US", "addr:postcode": "39630", "addr:state": "MS", "addr:street_address": "126 MAIN ST N", "amenity": "post_box", "collection_times": "Mo-Fr 12:00; Sa 10:00", "nsi_id": "unitedstatespostalservice-a77078", "operator": "United States Postal Service", "operator:short": "USPS", "operator:type": "public", "operator:wikidata": "Q668687", "ref": "3963000002"}, "type": "Feature"}
{"geometry": {"coordinates": [-90.843412657, 31.463146471], "type": "Point"}, "id": "UIhD5lOTmoLZByNHHQrJ7KZXYVo=", "properties": {"@source_uri": "https://tools.usps.com/UspsToolsRestServices/rest/POLocator/findLocations", "@spider": "usps_collection_boxes", "addr:city": "BUDE", "addr:country": "US", "addr:postcode": "39630", "addr:state": "MS", "addr:street_address": "126 MAIN ST N", "amenity": "post_box", "collection_times": "Mo-Fr 12:00; Sa 10:00", "indoor": "yes", "nsi_id": "unitedstatespostalservice-a77078", "operator": "United States Postal Service", "operator:short": "USPS", "operator:type": "public", "operator:wikidata": "Q668687", "ref": "3963000003"}, "type": "Feature"}
{"geometry": {"coordinates": [-90.842052797, 31.456430768], "type": "Point"}, "id": "7xRblooyI3s4DcQoSGSQy0HPwwg=", "properties": {"@source_uri": "https://tools.usps.com/UspsToolsRestServices/rest/POLocator/findLocations", "@spider": "usps_collection_boxes", "addr:city": "BUDE", "addr:country": "US", "addr:postcode": "39630", "addr:state": "MS", "addr:street_address": "126 MAIN ST", "amenity": "post_box", "collection_times": "Mo-Fr 12:00; Sa 10:00", "indoor": "yes", "nsi_id": "unitedstatespostalservice-a77078", "operator": "United States Postal Service", "operator:short": "USPS", "operator:type": "public", "operator:wikidata": "Q668687", "ref": "3963000004"}, "type": "Feature"}
{"geometry": {"coordinates": [-91.065288535, 31.088043777], "type": "Point"}, "id": "RFRMfUk9sYjxzLcbJhHXiXa2RU0=", "properties": {"@source_uri": "https://tools.usps.com/UspsToolsRestServices/rest/POLocator/findLocations", "@spider": "usps_collection_boxes", "addr:city": "CENTREVILLE", "addr:country": "US", "addr:postcode": "39631", "addr:state": "MS", "addr:street_address": "310 E MAIN ST", "amenity": "post_box", "collection_times": "Mo-Fr 15:45; Sa 11:00", "note": "ON 12/24 AND 12/31, THIS BOX MAY BE COLLECTED AS EARLY AS 12 NOON.", "nsi_id": "unitedstatespostalservice-a77078", "operator": "United States Postal Service", "operator:short": "USPS", "operator:type": "public", "operator:wikidata": "Q668687", "ref": "3963100000"}, "type": "Feature"}
{"geometry": {"coordinates": [-91.065288535, 31.088043777], "type": "Point"}, "id": "kcRmVV90H5hWpOhEKzD6yTJE1SQ=", "properties": {"@source_uri": "https://tools.usps.com/UspsToolsRestServices/rest/POLocator/findLocations", "@spider": "usps_collection_boxes", "addr:city": "CENTREVILLE", "addr:country": "US", "addr:postcode": "39631", "addr:state": "MS", "addr:street_address": "310 E MAIN ST", "amenity": "post_box", "collection_times": "Mo-Fr 16:00; Sa 11:00", "indoor": "yes", "note": "ON 12/24 AND 12/31, THIS BOX MAY BE COLLECTED AS EARLY AS 12 NOON.", "nsi_id": "unitedstatespostalservice-a77078", "operator": "United States Postal Service", "operator:short": "USPS", "operator:type": "public", "operator:wikidata": "Q668687", "ref": "3963100001"}, "type": "Feature"}
{"geometry": {"coordinates": [-91.065288535, 31.088043777], "type": "Point"}, "id": "bW-S7gBUXUPLbmY39p-oInmlSjQ=", "properties": {"@source_uri": "https://tools.usps.com/UspsToolsRestServices/rest/POLocator/findLocations", "@spider": "usps_collection_boxes", "addr:city": "CENTREVILLE", "addr:country": "US", "addr:postcode": "39631", "addr:state": "MS", "addr:street_address": "310 E MAIN ST", "amenity": "post_box", "collection_times": "Mo-Fr 16:00; Sa 11:00", "indoor": "yes", "note": "ON 12/24 AND 12/31, THIS BOX MAY BE COLLECTED AS EARLY AS 12 NOON.", "nsi_id": "unitedstatespostalservice-a77078", "operator": "United States Postal Service", "operator:short": "USPS", "operator:type": "public", "operator:wikidata": "Q668687", "ref": "3963100002"}, "type": "Feature"}
{"geometry": {"coordinates": [-91.299407227, 31.298550755], "type": "Point"}, "id": "WiANmhSMwvEiO0Ju9IKSTmp--qA=", "properties": {"@source_uri": "https://tools.usps.com/UspsToolsRestServices/rest/POLocator/findLocations", "@spider": "usps_collection_boxes", "addr:city": "CROSBY", "addr:country": "US", "addr:postcode": "39633", "addr:state": "MS", "addr:street_address": "136 W PINE ST", "amenity": "post_box", "collection_times": "Mo-Fr 11:00; Sa 09:45", "nsi_id": "unitedstatespostalservice-a77078", "operator": "United States Postal Service", "operator:short": "USPS", "operator:type": "public", "operator:wikidata": "Q668687", "ref": "3963300000"}, "type": "Feature"}
{"geometry": {"coordinates": [-91.299407227, 31.298550755], "type": "Point"}, "id": "Q9Rvvn7cIM3ePCDCAhYH_T6t6xo=", "properties": {"@source_uri": "https://tools.usps.com/UspsToolsRestServices/rest/POLocator/findLocations", "@spider": "usps_collection_boxes", "addr:city": "CROSBY", "addr:country": "US", "addr:postcode": "39633", "addr:state": "MS", "addr:street_address": "136 W PINE ST", "amenity": "post_box", "collection_times": "Mo-Fr 11:00; Sa 10:00", "indoor": "yes", "nsi_id": "unitedstatespostalservice-a77078", "operator": "United States Postal Service", "operator:short": "USPS", "operator:type": "public", "operator:wikidata": "Q668687", "ref": "3963300002"}, "type": "Feature"}
{"geometry": {"coordinates": [-90.449959967, 31.18574001], "type": "Point"}, "id": "orHNzPwbFbUVqMmi7z_AX86heCs=", "properties": {"@source_uri": "https://tools.usps.com/UspsToolsRestServices/rest/POLocator/findLocations", "@spider": "usps_collection_boxes", "addr:city": "FERNWOOD", "addr:country": "US", "addr:postcode": "39635", "addr:state": "MS", "addr:street_address": "1007 CHERRY DR", "amenity": "post_box", "collection_times": "Mo-Fr 11:00; Sa 08:00", "nsi_id": "unitedstatespostalservice-a77078", "operator": "United States Postal Service", "operator:short": "USPS", "operator:type": "public", "operator:wikidata": "Q668687", "ref": "3963500000"}, "type": "Feature"}
{"geometry": {"coordinates": [-90.449959967, 31.18574001], "type": "Point"}, "id": "cVpmxv008t3ufUzZQAXvyqHiKYA=", "properties": {"@source_uri": "https://tools.usps.com/UspsToolsRestServices/rest/POLocator/findLocations", "@spider": "usps_collection_boxes", "addr:city": "FERNWOOD", "addr:country": "US", "addr:postcode": "39635", "addr:state": "MS", "addr:street_address": "1007 CHERRY DR", "amenity": "post_box", "collection_times": "Mo-Fr 11:00; Sa 08:00", "indoor": "yes", "nsi_id": "unitedstatespostalservice-a77078", "operator": "United States Postal Service", "operator:short": "USPS", "operator:type": "public", "operator:wikidata": "Q668687", "ref": "3963500001"}, "type": "Feature"}
{"geometry": {"coordinates": [-90.449959967, 31.18574001], "type": "Point"}, "id": "eq3v1aP7iHHhCTGiDayDNbVBLXM=", "properties": {"@source_uri": "https://tools.usps.com/UspsToolsRestServices/rest/POLocator/findLocations", "@spider": "usps_collection_boxes", "addr:city": "FERNWOOD", "addr:country": "US", "addr:postcode": "39635", "addr:state": "MS", "addr:street_address": "1007 CHERRY DR", "amenity": "post_box", "collection_times": "Mo-Fr 11:00", "indoor": "yes", "nsi_id": "unitedstatespostalservice-a77078", "operator": "United States Postal Service", "operator:short": "USPS", "operator:type": "public", "operator:wikidata": "Q668687", "ref": "3963500002"}, "type": "Feature"}
{"geometry": {"coordinates": [-91.019357638, 31.197398752], "type": "Point"}, "id": "HvDcFVoSAYBxe94bp04LVpTEQ7U=", "properties": {"@source_uri": "https://tools.usps.com/UspsToolsRestServices/rest/POLocator/findLocations", "@spider": "usps_collection_boxes", "addr:city": "GLOSTER", "addr:country": "US", "addr:postcode": "39638", "addr:state": "MS", "addr:street_address": "200 E MAIN ST", "amenity": "post_box", "collection_times": "Mo-Fr 16:00; Sa 11:00", "note": "ON 12/24 AND 12/31, THIS BOX MAY BE COLLECTED AS EARLY AS 12 NOON.", "nsi_id": "unitedstatespostalservice-a77078", "operator": "United States Postal Service", "operator:short": "USPS", "operator:type": "public", "operator:wikidata": "Q668687", "ref": "3963800000"}, "type": "Feature"}
{"geometry": {"coordinates": [-91.019357638, 31.197398752], "type": "Point"}, "id": "qEKJqAGKyVcUOTjf40Qkzqi2-Ec=", "properties": {"@source_uri": "https://tools.usps.com/UspsToolsRestServices/rest/POLocator/findLocations", "@spider": "usps_collection_boxes", "addr:city": "GLOSTER", "addr:country": "US", "addr:postcode": "39638", "addr:state": "MS", "addr:street_address": "200 E MAIN ST", "amenity": "post_box", "collection_times": "Mo-Fr 16:00; Sa 11:00", "indoor": "yes", "note": "ON 12/24 AND 12/31, THIS BOX MAY BE COLLECTED AS EARLY AS 12 NOON.", "nsi_id": "unitedstatespostalservice-a77078", "operator": "United States Postal Service", "operator:short": "USPS", "operator:type": "public", "operator:wikidata": "Q668687", "ref": "3963800001"}, "type": "Feature"}
{"geometry": {"coordinates": [-91.019357638, 31.197398752], "type": "Point"}, "id": "XBDUT2kEDjPExTUuEUu-_j9hVnk=", "properties": {"@source_uri": "https://tools.usps.com/UspsToolsRestServices/rest/POLocator/findLocations", "@spider": "usps_collection_boxes", "addr:city": "GLOSTER", "addr:country": "US", "addr:postcode": "39638", "addr:state": "MS", "addr:street_address": "200 E MAIN ST", "amenity": "post_box", "collection_times": "Mo-Fr 16:00; Sa 11:00", "indoor": "yes", "note": "ON 12/24 AND 12/31, THIS BOX MAY BE COLLECTED AS EARLY AS 12 NOON.", "nsi_id": "unitedstatespostalservice-a77078", "operator": "United States Postal Service", "operator:short": "USPS", "operator:type": "public", "operator:wikidata": "Q668687", "ref": "3963800002"}, "type": "Feature"}
{"geometry": {"coordinates": [-90.197359999, 31.363689993], "type": "Point"}, "id": "nYq5PPI5H_BjiNmzRmG_o350kFU=", "properties": {"@source_uri": "https://tools.usps.com/UspsToolsRestServices/rest/POLocator/findLocations", "@spider": "usps_collection_boxes", "addr:city": "JAYESS", "addr:country": "US", "addr:postcode": "39641", "addr:state": "MS", "addr:street_address": "624 HIGHWAY 44", "amenity": "post_box", "collection_times": "Mo-Fr 15:45; Sa 10:00", "note": "ON 12/24 AND 12/31, THIS BOX MAY BE COLLECTED AS EARLY AS 12 NOON.", "nsi_id": "unitedstatespostalservice-a77078", "operator": "United States Postal Service", "operator:short": "USPS", "operator:type": "public", "operator:wikidata": "Q668687", "ref": "3964100000"}, "type": "Feature"}
{"geometry": {"coordinates": [-90.197359999, 31.363689993], "type": "Point"}, "id": "ffsV2i9SUWgN4h-hOYYnmUgYgn0=", "properties": {"@source_uri": "https://tools.usps.com/UspsToolsRestServices/rest/POLocator/findLocations", "@spider": "usps_collection_boxes", "addr:city": "JAYESS", "addr:country": "US", "addr:postcode": "39641", "addr:state": "MS", "addr:street_address": "624 HIGHWAY 44", "amenity": "post_box", "collection_times": "Mo-Fr 15:45; Sa 10:00", "indoor": "yes", "note": "ON 12/24 AND 12/31, THIS BOX MAY BE COLLECTED AS EARLY AS 12 NOON.", "nsi_id": "unitedstatespostalservice-a77078", "operator": "United States Postal Service", "operator:short": "USPS", "operator:type": "public", "operator:wikidata": "Q668687", "ref": "3964100001"}, "type": "Feature"}
{"geometry": {"coordinates": [-90.197359999, 31.363689993], "type": "Point"}, "id": "904dMT-0uFWRIQ2D-QBc7xj0uC4=", "properties": {"@source_uri": "https://tools.usps.com/UspsToolsRestServices/rest/POLocator/findLocations", "@spider": "usps_collection_boxes", "addr:city": "JAYESS", "addr:country": "US", "addr:postcode": "39641", "addr:state": "MS", "addr:street_address": "624 HIGHWAY 44", "amenity": "post_box", "collection_times": "Mo-Fr 15:45; Sa 10:00", "indoor": "yes", "note": "ON 12/24 AND 12/31, THIS BOX MAY BE COLLECTED AS EARLY AS 12 NOON.", "nsi_id": "unitedstatespostalservice-a77078", "operator": "United States Postal Service", "operator:short": "USPS", "operator:type": "public", "operator:wikidata": "Q668687", "ref": "3964100002"}, "type": "Feature"}
{"geometry": {"coordinates": [-90.197359999, 31.363689993], "type": "Point"}, "id": "XsQaZPUoU47xUwGaqciYxN7T0x4=", "properties": {"@source_uri": "https://tools.usps.com/UspsToolsRestServices/rest/POLocator/findLocations", "@spider": "usps_collection_boxes", "addr:city": "JAYESS", "addr:country": "US", "addr:postcode": "39641", "addr:state": "MS", "addr:street_address": "624 HIGHWAY 44", "amenity": "post_box", "collection_times": "Mo-Fr 16:00; Sa 10:00", "indoor": "yes", "note": "ON 12/24 AND 12/31, THIS BOX MAY BE COLLECTED AS EARLY AS 12 NOON.", "nsi_id": "unitedstatespostalservice-a77078", "operator": "United States Postal Service", "operator:short": "USPS", "operator:type": "public", "operator:wikidata": "Q668687", "ref": "3964100003"}, "type": "Feature"}
{"geometry": {"coordinates": [-90.003200001, 31.195269982], "type": "Point"}, "id": "UHvxHyQ4tNuXAJM6YFcNejvjdQg=", "properties": {"@source_uri": "https://tools.usps.com/UspsToolsRestServices/rest/POLocator/findLocations", "@spider": "usps_collection_boxes", "addr:city": "KOKOMO", "addr:country": "US", "addr:postcode": "39643", "addr:state": "MS", "addr:street_address": "364 OLD HIGHWAY 24 W", "amenity": "post_box", "collection_times": "Mo-Fr 12:00; Sa 08:00", "nsi_id": "unitedstatespostalservice-a77078", "operator": "United States Postal Service", "operator:short": "USPS", "operator:type": "public", "operator:wikidata": "Q668687", "ref": "3964300001"}, "type": "Feature"}
{"geometry": {"coordinates": [-90.003200001, 31.195269982], "type": "Point"}, "id": "sfEAA_KiTzrRay-ash_kJDeflwI=", "properties": {"@source_uri": "https://tools.usps.com/UspsToolsRestServices/rest/POLocator/findLocations", "@spider": "usps_collection_boxes", "addr:city": "KOKOMO", "addr:country": "US", "addr:postcode": "39643", "addr:state": "MS", "addr:street_address": "364 OLD HIGHWAY 24 W", "amenity": "post_box", "collection_times": "Mo-Fr 12:00; Sa 08:00", "indoor": "yes", "nsi_id": "unitedstatespostalservice-a77078", "operator": "United States Postal Service", "operator:short": "USPS", "operator:type": "public", "operator:wikidata": "Q668687", "ref": "3964300002"}, "type": "Feature"}
{"geometry": {"coordinates": [-90.003200001, 31.195269982], "type": "Point"}, "id": "CRubJceWqgYN-iUPmcIPl1u7eCs=", "properties": {"@source_uri": "https://tools.usps.com/UspsToolsRestServices/rest/POLocator/findLocations", "@spider": "usps_collection_boxes", "addr:city": "KOKOMO", "addr:country": "US", "addr:postcode": "39643", "addr:state": "MS", "addr:street_address": "364 OLD HIGHWAY 24 W", "amenity": "post_box", "collection_times": "Mo-Fr 12:00", "indoor": "yes", "nsi_id": "unitedstatespostalservice-a77078", "operator": "United States Postal Service", "operator:short": "USPS", "operator:type": "public", "operator:wikidata": "Q668687", "ref": "3964300003"}, "type": "Feature"}
{"geometry": {"coordinates": [-90.8054959, 31.1587652], "type": "Point"}, "id": "FuQmZNmL4yvsacbgIk0WxKURqwQ=", "properties": {"@source_uri": "https://tools.usps.com/UspsToolsRestServices/rest/POLocator/findLocations", "@spider": "usps_collection_boxes", "addr:city": "LIBERTY", "addr:country": "US", "addr:postcode": "39645", "addr:state": "MS", "addr:street_address": "1010 E MAIN ST", "amenity": "post_box", "collection_times": "Mo-Fr 16:15; Sa 10:30", "note": "ON 12/24 AND 12/31, THIS BOX MAY BE COLLECTED AS EARLY AS 12 NOON.", "nsi_id": "unitedstatespostalservice-a77078", "operator": "United States Postal Service", "operator:short": "USPS", "operator:type": "public", "operator:wikidata": "Q668687", "ref": "3964500000"}, "type": "Feature"}
{"geometry": {"coordinates": [-90.793732143, 31.160757132], "type": "Point"}, "id": "IXKWmmbJ0vtlGeuJxBA-SDPf1f0=", "properties": {"@source_uri": "https://tools.usps.com/UspsToolsRestServices/rest/POLocator/findLocations", "@spider": "usps_collection_boxes", "addr:city": "LIBERTY", "addr:country": "US", "addr:postcode": "39645", "addr:state": "MS", "addr:street_address": "1010 E MAIN ST", "amenity": "post_box", "collection_times": "Mo-Fr 16:25; Sa 10:30", "indoor": "yes", "note": "ON 12/24 AND 12/31, THIS BOX MAY BE COLLECTED AS EARLY AS 12 NOON.", "nsi_id": "unitedstatespostalservice-a77078", "operator": "United States Postal Service", "operator:short": "USPS", "operator:type": "public", "operator:wikidata": "Q668687", "ref": "3964500001"}, "type": "Feature"}
{"geometry": {"coordinates": [-90.793732143, 31.160757132], "type": "Point"}, "id": "CRYQZo5n8W9XTsOj4PpFVAM2nCQ=", "properties": {"@source_uri": "https://tools.usps.com/UspsToolsRestServices/rest/POLocator/findLocations", "@spider": "usps_collection_boxes", "addr:city": "LIBERTY", "addr:country": "US", "addr:postcode": "39645", "addr:state": "MS", "addr:street_address": "1010 E MAIN ST", "amenity": "post_box", "collection_times": "Mo-Fr 16:30; Sa 10:30", "indoor": "yes", "note": "ON 12/24 AND 12/31, THIS BOX MAY BE COLLECTED AS EARLY AS 12 NOON.", "nsi_id": "unitedstatespostalservice-a77078", "operator": "United States Postal Service", "operator:short": "USPS", "operator:type": "public", "operator:wikidata": "Q668687", "ref": "3964500004"}, "type": "Feature"}
{"geometry": {"coordinates": [-90.707889684, 31.510977469], "type": "Point"}, "id": "JWhyP1juyF-ooHBpVjPbKI7bCJI=", "properties": {"@source_uri": "https://tools.usps.com/UspsToolsRestServices/rest/POLocator/findLocations", "@spider": "usps_collection_boxes", "addr:city": "MCCALL CREEK", "addr:country": "US", "addr:postcode": "39647", "addr:state": "MS", "addr:street_address": "10790 U S HIGHWAY 84 E", "amenity": "post_box", "collection_times": "Mo-Fr 11:00; Sa 08:00", "indoor": "yes", "nsi_id": "unitedstatespostalservice-a77078", "operator": "United States Postal Service", "operator:short": "USPS", "operator:type": "public", "operator:wikidata": "Q668687", "ref": "3964700000"}, "type": "Feature"}
{"geometry": {"coordinates": [-90.707889684, 31.510977469], "type": "Point"}, "id": "beRjS0570Em_g3-RAS-2wnJWv8U=", "properties": {"@source_uri": "https://tools.usps.com/UspsToolsRestServices/rest/POLocator/findLocations", "@spider": "usps_collection_boxes", "addr:city": "MCCALL CREEK", "addr:country": "US", "addr:postcode": "39647", "addr:state": "MS", "addr:street_address": "10790 U S HIGHWAY 84 E", "amenity": "post_box", "collection_times": "Mo-Fr 11:00; Sa 08:00", "nsi_id": "unitedstatespostalservice-a77078", "operator": "United States Postal Service", "operator:short": "USPS", "operator:type": "public", "operator:wikidata": "Q668687", "ref": "3964700001"}, "type": "Feature"}
{"geometry": {"coordinates": [-90.707889684, 31.510977469], "type": "Point"}, "id": "E2nheScpgyLtOzrD13KwpTLTWrk=", "properties": {"@source_uri": "https://tools.usps.com/UspsToolsRestServices/rest/POLocator/findLocations", "@spider": "usps_collection_boxes", "addr:city": "MCCALL CREEK", "addr:country": "US", "addr:postcode": "39647", "addr:state": "MS", "addr:street_address": "10790 U S HIGHWAY 84 E", "amenity": "post_box", "collection_times": "Mo-Fr 11:00", "indoor": "yes", "nsi_id": "unitedstatespostalservice-a77078", "operator": "United States Postal Service", "operator:short": "USPS", "operator:type": "public", "operator:wikidata": "Q668687", "ref": "3964700002"}, "type": "Feature"}
{"geometry": {"coordinates": [-90.473012716, 31.247453025], "type": "Point"}, "id": "BqZoZOqv-ybe0B6YUT37j8FakPM=", "properties": {"@source_uri": "https://tools.usps.com/UspsToolsRestServices/rest/POLocator/findLocations", "@spider": "usps_collection_boxes", "addr:city": "MCCOMB", "addr:country": "US", "addr:postcode": "39648", "addr:state": "MS", "addr:street_address": "1623 DELAWARE AVE", "amenity": "post_box", "collection_times": "Mo-Sa 10:00", "nsi_id": "unitedstatespostalservice-a77078", "operator": "United States Postal Service", "operator:short": "USPS", "operator:type": "public", "operator:wikidata": "Q668687", "ref": "3964800004"}, "type": "Feature"}
{"geometry": {"coordinates": [-90.466629979, 31.247220012], "type": "Point"}, "id": "LndebaW-MZqZn6H_KJCfEK1-USM=", "properties": {"@source_uri": "https://tools.usps.com/UspsToolsRestServices/rest/POLocator/findLocations", "@spider": "usps_collection_boxes", "addr:city": "MCCOMB", "addr:country": "US", "addr:postcode": "39648", "addr:state": "MS", "addr:street_address": "1209 DELAWARE AVE", "amenity": "post_box", "collection_times": "Mo-Sa 10:00", "nsi_id": "unitedstatespostalservice-a77078", "operator": "United States Postal Service", "operator:short": "USPS", "operator:type": "public", "operator:wikidata": "Q668687", "ref": "3964800005"}, "type": "Feature"}
{"geometry": {"coordinates": [-90.452308226, 31.243754237], "type": "Point"}, "id": "zStKLEQkL3JnX9TPsbBLaIyzC6U=", "properties": {"@source_uri": "https://tools.usps.com/UspsToolsRestServices/rest/POLocator/findLocations", "@spider": "usps_collection_boxes", "addr:city": "MCCOMB", "addr:country": "US", "addr:postcode": "39648", "addr:state": "MS", "addr:street_address": "215 MAIN ST", "amenity": "post_box", "collection_times": "Mo-Sa 10:00", "nsi_id": "unitedstatespostalservice-a77078", "operator": "United States Postal Service", "operator:short": "USPS", "operator:type": "public", "operator:wikidata": "Q668687", "ref": "3964800007"}, "type": "Feature"}
{"geometry": {"coordinates": [-90.477029993, 31.249830011], "type": "Point"}, "id": "hUYpkoLtTtdoVGkmDUGgc-Tw86Y=", "properties": {"@source_uri": "https://tools.usps.com/UspsToolsRestServices/rest/POLocator/findLocations", "@spider": "usps_collection_boxes", "addr:city": "MCCOMB", "addr:country": "US", "addr:postcode": "39648", "addr:state": "MS", "addr:street_address": "211 LLEWELLYN AVE", "amenity": "post_box", "collection_times": "Mo-Sa 10:00", "nsi_id": "unitedstatespostalservice-a77078", "operator": "United States Postal Service", "operator:short": "USPS", "operator:type": "public", "operator:wikidata": "Q668687", "ref": "3964800011"}, "type": "Feature"}
{"geometry": {"coordinates": [-90.45701996, 31.245740019], "type": "Point"}, "id": "a1H2KyeHT6AwwiD4wlFB99OoV40=", "properties": {"@source_uri": "https://tools.usps.com/UspsToolsRestServices/rest/POLocator/findLocations", "@spider": "usps_collection_boxes", "addr:city": "MCCOMB", "addr:country": "US", "addr:postcode": "39648", "addr:state": "MS", "addr:street_address": "530 DELAWARE AVE", "amenity": "post_box", "collection_times": "Mo-Fr 17:10; Sa 10:30", "indoor": "yes", "note": "ON 12/24 AND 12/31, THIS BOX MAY BE COLLECTED AS EARLY AS 12 NOON.", "nsi_id": "unitedstatespostalservice-a77078", "operator": "United States Postal Service", "operator:short": "USPS", "operator:type": "public", "operator:wikidata": "Q668687", "ref": "3964800013"}, "type": "Feature"}
{"geometry": {"coordinates": [-90.45701996, 31.245740019], "type": "Point"}, "id": "a7fdH4ARI9DfIN0APOcSKQIwKmI=", "properties": {"@source_uri": "https://tools.usps.com/UspsToolsRestServices/rest/POLocator/findLocations", "@spider": "usps_collection_boxes", "addr:city": "MCCOMB", "addr:country": "US", "addr:postcode": "39648", "addr:state": "MS", "addr:street_address": "530 DELAWARE AVE", "amenity": "post_box", "collection_times": "Mo-Fr 17:10; Sa 10:30", "indoor": "yes", "note": "ON 12/24 AND 12/31, THIS BOX MAY BE COLLECTED AS EARLY AS 12 NOON.", "nsi_id": "unitedstatespostalservice-a77078", "operator": "United States Postal Service", "operator:short": "USPS", "operator:type": "public", "operator:wikidata": "Q668687", "ref": "3964800015"}, "type": "Feature"}
{"geometry": {"coordinates": [-90.471959288, 31.260572999], "type": "Point"}, "id": "ubnf2gbmIaaxUV2KBzfVzim4XW4=", "properties": {"@source_uri": "https://tools.usps.com/UspsToolsRestServices/rest/POLocator/findLocations", "@spider": "usps_collection_boxes", "addr:city": "MCCOMB", "addr:country": "US", "addr:postcode": "39648", "addr:state": "MS", "addr:street_address": "1608 VETERANS BLVD", "amenity": "post_box", "collection_times": "Mo-Sa 10:00", "nsi_id": "unitedstatespostalservice-a77078", "operator": "United States Postal Service", "operator:short": "USPS", "operator:type": "public", "operator:wikidata": "Q668687", "ref": "3964800027"}, "type": "Feature"}
{"geometry": {"coordinates": [-90.45701996, 31.245740019], "type": "Point"}, "id": "a7QnB81kfIteJh9v_oXywVe0mLE=", "properties": {"@source_uri": "https://tools.usps.com/UspsToolsRestServices/rest/POLocator/findLocations", "@spider": "usps_collection_boxes", "addr:city": "MCCOMB", "addr:country": "US", "addr:postcode": "39648", "addr:state": "MS", "addr:street_address": "530 DELAWARE AVE", "amenity": "post_box", "collection_times": "Mo-Fr 17:10; Sa 10:30", "note": "ON 12/24 AND 12/31, THIS BOX MAY BE COLLECTED AS EARLY AS 12 NOON.", "nsi_id": "unitedstatespostalservice-a77078", "operator": "United States Postal Service", "operator:short": "USPS", "operator:type": "public", "operator:wikidata": "Q668687", "ref": "3964800037"}, "type": "Feature"}
{"geometry": {"coordinates": [-90.45701996, 31.245740019], "type": "Point"}, "id": "j8Z57sso7svdNM87XoJZIHXqIZU=", "properties": {"@source_uri": "https://tools.usps.com/UspsToolsRestServices/rest/POLocator/findLocations", "@spider": "usps_collection_boxes", "addr:city": "MCCOMB", "addr:country": "US", "addr:postcode": "39648", "addr:state": "MS", "addr:street_address": "530 DELAWARE AVE", "amenity": "post_box", "collection_times": "Mo-Fr 17:00; Sa 10:30", "indoor": "yes", "note": "ON 12/24 AND 12/31, THIS BOX MAY BE COLLECTED AS EARLY AS 12 NOON.", "nsi_id": "unitedstatespostalservice-a77078", "operator": "United States Postal Service", "operator:short": "USPS", "operator:type": "public", "operator:wikidata": "Q668687", "ref": "3964800042"}, "type": "Feature"}
{"geometry": {"coordinates": [-90.45907998, 31.145430012], "type": "Point"}, "id": "b5GPogrmIMOxZj05RZFB5f-6-3o=", "properties": {"@source_uri": "https://tools.usps.com/UspsToolsRestServices/rest/POLocator/findLocations", "@spider": "usps_collection_boxes", "addr:city": "MAGNOLIA", "addr:country": "US", "addr:postcode": "39652", "addr:state": "MS", "addr:street_address": "205 MAGNOLIA ST", "amenity": "post_box", "collection_times": "Mo-Fr 16:00; Sa 10:45", "note": "ON 12/24 AND 12/31, THIS BOX MAY BE COLLECTED AS EARLY AS 12 NOON.", "nsi_id": "unitedstatespostalservice-a77078", "operator": "United States Postal Service", "operator:short": "USPS", "operator:type": "public", "operator:wikidata": "Q668687", "ref": "3965200000"}, "type": "Feature"}
{"geometry": {"coordinates": [-90.45907998, 31.145430012], "type": "Point"}, "id": "e8TPWJUpbZoyCKIVCEgGzCjGhKo=", "properties": {"@source_uri": "https://tools.usps.com/UspsToolsRestServices/rest/POLocator/findLocations", "@spider": "usps_collection_boxes", "addr:city": "MAGNOLIA", "addr:country": "US", "addr:postcode": "39652", "addr:state": "MS", "addr:street_address": "205 MAGNOLIA ST", "amenity": "post_box", "collection_times": "Mo-Fr 16:00; Sa 10:45", "indoor": "yes", "note": "ON 12/24 AND 12/31, THIS BOX MAY BE COLLECTED AS EARLY AS 12 NOON.", "nsi_id": "unitedstatespostalservice-a77078", "operator": "United States Postal Service", "operator:short": "USPS", "operator:type": "public", "operator:wikidata": "Q668687", "ref": "3965200001"}, "type": "Feature"}
{"geometry": {"coordinates": [-90.45907998, 31.145430012], "type": "Point"}, "id": "h-yAvbEHBlYLOdMCJFAWLgs7bpw=", "properties": {"@source_uri": "https://tools.usps.com/UspsToolsRestServices/rest/POLocator/findLocations", "@spider": "usps_collection_boxes", "addr:city": "MAGNOLIA", "addr:country": "US", "addr:postcode": "39652", "addr:state": "MS", "addr:street_address": "205 MAGNOLIA ST", "amenity": "post_box", "collection_times": "Mo-Fr 16:15; Sa 11:00", "indoor": "yes", "note": "ON 12/24 AND 12/31, THIS BOX MAY BE COLLECTED AS EARLY AS 12 NOON.", "nsi_id": "unitedstatespostalservice-a77078", "operator": "United States Postal Service", "operator:short": "USPS", "operator:type": "public", "operator:wikidata": "Q668687", "ref": "3965200002"}, "type": "Feature"}
{"geometry": {"coordinates": [-90.891184576, 31.471584885], "type": "Point"}, "id": "Ro4vf-Vmk9q8ivPbJnDhInOeuHE=", "properties": {"@source_uri": "https://tools.usps.com/UspsToolsRestServices/rest/POLocator/findLocations", "@spider": "usps_collection_boxes", "addr:city": "MEADVILLE", "addr:country": "US", "addr:postcode": "39653", "addr:state": "MS", "addr:street_address": "10 FIRST ST", "amenity": "post_box", "collection_times": "Mo-Fr 16:00; Sa 08:45", "note": "ON 12/24 AND 12/31, THIS BOX MAY BE COLLECTED AS EARLY AS 12 NOON.", "nsi_id": "unitedstatespostalservice-a77078", "operator": "United States Postal Service", "operator:short": "USPS", "operator:type": "public", "operator:wikidata": "Q668687", "ref": "3965300000"}, "type": "Feature"}
{"geometry": {"coordinates": [-90.891184576, 31.471584885], "type": "Point"}, "id": "79Wwx-owChnt-i97R7gbnYYwnEY=", "properties": {"@source_uri": "https://tools.usps.com/UspsToolsRestServices/rest/POLocator/findLocations", "@spider": "usps_collection_boxes", "addr:city": "MEADVILLE", "addr:country": "US", "addr:postcode": "39653", "addr:state": "MS", "addr:street_address": "10 FIRST ST", "amenity": "post_box", "collection_times": "Mo-Fr 16:00; Sa 08:45", "indoor": "yes", "note": "ON 12/24 AND 12/31, THIS BOX MAY BE COLLECTED AS EARLY AS 12 NOON.", "nsi_id": "unitedstatespostalservice-a77078", "operator": "United States Postal Service", "operator:short": "USPS", "operator:type": "public", "operator:wikidata": "Q668687", "ref": "3965300001"}, "type": "Feature"}
{"geometry": {"coordinates": [-90.891184576, 31.471584885], "type": "Point"}, "id": "Fh-fMH61HT9ySFWOJcQ6JLPd8Q4=", "properties": {"@source_uri": "https://tools.usps.com/UspsToolsRestServices/rest/POLocator/findLocations", "@spider": "usps_collection_boxes", "addr:city": "MEADVILLE", "addr:country": "US", "addr:postcode": "39653", "addr:state": "MS", "addr:street_address": "10 FIRST ST", "amenity": "post_box", "collection_times": "Mo-Fr 16:00; Sa 08:45", "indoor": "yes", "note": "ON 12/24 AND 12/31, THIS BOX MAY BE COLLECTED AS EARLY AS 12 NOON.", "nsi_id": "unitedstatespostalservice-a77078", "operator": "United States Postal Service", "operator:short": "USPS", "operator:type": "public", "operator:wikidata": "Q668687", "ref": "3965300002"}, "type": "Feature"}
{"geometry": {"coordinates": [-90.117439977, 31.559029995], "type": "Point"}, "id": "WdUa5ezV-NisJz9TeOEzqsGmDa4=", "properties": {"@source_uri": "https://tools.usps.com/UspsToolsRestServices/rest/POLocator/findLocations", "@spider": "usps_collection_boxes", "addr:city": "MONTICELLO", "addr:country": "US", "addr:postcode": "39654", "addr:state": "MS", "addr:street_address": "1141 W BROAD ST", "amenity": "post_box", "collection_times": "Mo-Fr 16:00; Sa 12:00", "note": "ON 12/24 AND 12/31, THIS BOX MAY BE COLLECTED AS EARLY AS 12 NOON.", "nsi_id": "unitedstatespostalservice-a77078", "operator": "United States Postal Service", "operator:short": "USPS", "operator:type": "public", "operator:wikidata": "Q668687", "ref": "3965400000"}, "type": "Feature"}
{"geometry": {"coordinates": [-90.117439977, 31.559029995], "type": "Point"}, "id": "c6BJdpclIq5rE34mWPVR72e2vcA=", "properties": {"@source_uri": "https://tools.usps.com/UspsToolsRestServices/rest/POLocator/findLocations", "@spider": "usps_collection_boxes", "addr:city": "MONTICELLO", "addr:country": "US", "addr:postcode": "39654", "addr:state": "MS", "addr:street_address": "1141 W BROAD ST", "amenity": "post_box", "collection_times": "Mo-Fr 16:00; Sa 12:00", "indoor": "yes", "note": "ON 12/24 AND 12/31, THIS BOX MAY BE COLLECTED AS EARLY AS 12 NOON.", "nsi_id": "unitedstatespostalservice-a77078", "operator": "United States Postal Service", "operator:short": "USPS", "operator:type": "public", "operator:wikidata": "Q668687", "ref": "3965400001"}, "type": "Feature"}
{"geometry": {"coordinates": [-90.105756023, 31.553487001], "type": "Point"}, "id": "LlxFm1vqJrjhs27w4X6BgOJji2U=", "properties": {"@source_uri": "https://tools.usps.com/UspsToolsRestServices/rest/POLocator/findLocations", "@spider": "usps_collection_boxes", "addr:city": "MONTICELLO", "addr:country": "US", "addr:postcode": "39654", "addr:state": "MS", "addr:street_address": "410 E BROAD ST", "amenity": "post_box", "collection_times": "Mo-Fr 12:00", "nsi_id": "unitedstatespostalservice-a77078", "operator": "United States Postal Service", "operator:short": "USPS", "operator:type": "public", "operator:wikidata": "Q668687", "ref": "3965400004"}, "type": "Feature"}
{"geometry": {"coordinates": [-90.117439977, 31.559029995], "type": "Point"}, "id": "_8_oFXoVExtSFmjLfn1ONq5UFPI=", "properties": {"@source_uri": "https://tools.usps.com/UspsToolsRestServices/rest/POLocator/findLocations", "@spider": "usps_collection_boxes", "addr:city": "MONTICELLO", "addr:country": "US", "addr:postcode": "39654", "addr:state": "MS", "addr:street_address": "1141 W BROAD ST", "amenity": "post_box", "collection_times": "Mo-Fr 16:00; Sa 12:00", "indoor": "yes", "note": "ON 12/24 AND 12/31, THIS BOX MAY BE COLLECTED AS EARLY AS 12 NOON.", "nsi_id": "unitedstatespostalservice-a77078", "operator": "United States Postal Service", "operator:short": "USPS", "operator:type": "public", "operator:wikidata": "Q668687", "ref": "3965400005"}, "type": "Feature"}
{"geometry": {"coordinates": [-90.117439977, 31.559029995], "type": "Point"}, "id": "g0ZGvGSkbUoK5A52wwua2JTaqzo=", "properties": {"@source_uri": "https://tools.usps.com/UspsToolsRestServices/rest/POLocator/findLocations", "@spider": "usps_collection_boxes", "addr:city": "MONTICELLO", "addr:country": "US", "addr:postcode": "39654", "addr:state": "MS", "addr:street_address": "1141 W BROAD ST", "amenity": "post_box", "collection_times": "Mo-Fr 16:00; Sa 12:00", "indoor": "yes", "note": "ON 12/24 AND 12/31, THIS BOX MAY BE COLLECTED AS EARLY AS 12 NOON.", "nsi_id": "unitedstatespostalservice-a77078", "operator": "United States Postal Service", "operator:short": "USPS", "operator:type": "public", "operator:wikidata": "Q668687", "ref": "3965400006"}, "type": "Feature"}
{"geometry": {"coordinates": [-89.962668453, 31.439321778], "type": "Point"}, "id": "xPZ__KtubqKv6-zeUuTUTEyCp5A=", "properties": {"@source_uri": "https://tools.usps.com/UspsToolsRestServices/rest/POLocator/findLocations", "@spider": "usps_collection_boxes", "addr:city": "OAK VALE", "addr:country": "US", "addr:postcode": "39656", "addr:state": "MS", "addr:street_address": "3RD AVE AVE", "amenity": "post_box", "collection_times": "Mo-Fr 11:00; Sa 08:00", "nsi_id": "unitedstatespostalservice-a77078", "operator": "United States Postal Service", "operator:short": "USPS", "operator:type": "public", "operator:wikidata": "Q668687", "ref": "3965600001"}, "type": "Feature"}
{"geometry": {"coordinates": [-89.9635982, 31.438714729], "type": "Point"}, "id": "JM8hZHnPD8ifdF2R_S5z7rgqRco=", "properties": {"@source_uri": "https://tools.usps.com/UspsToolsRestServices/rest/POLocator/findLocations", "@spider": "usps_collection_boxes", "addr:city": "OAK VALE", "addr:country": "US", "addr:postcode": "39656", "addr:state": "MS", "addr:street_address": "362 THIRD AVE", "amenity": "post_box", "collection_times": "Mo-Fr 11:00", "indoor": "yes", "nsi_id": "unitedstatespostalservice-a77078", "operator": "United States Postal Service", "operator:short": "USPS", "operator:type": "public", "operator:wikidata": "Q668687", "ref": "3965600003"}, "type": "Feature"}
{"geometry": {"coordinates": [-90.478428096, 31.009517242], "type": "Point"}, "id": "RzfVOsGOHk5OUq0jrYJRZrDoBOY=", "properties": {"@source_uri": "https://tools.usps.com/UspsToolsRestServices/rest/POLocator/findLocations", "@spider": "usps_collection_boxes", "addr:city": "OSYKA", "addr:country": "US", "addr:postcode": "39657", "addr:state": "MS", "addr:street_address": "500 W LIBERTY ST", "amenity": "post_box", "collection_times": "Mo-Fr 14:30; Sa 10:00", "note": "ON 12/24 AND 12/31, THIS BOX MAY BE COLLECTED AS EARLY AS 12 NOON.", "nsi_id": "unitedstatespostalservice-a77078", "operator": "United States Postal Service", "operator:short": "USPS", "operator:type": "public", "operator:wikidata": "Q668687", "ref": "3965700000"}, "type": "Feature"}
{"geometry": {"coordinates": [-90.478428096, 31.009517242], "type": "Point"}, "id": "j5fyOjzLZSlpA4m6v4XGH4RY0Ag=", "properties": {"@source_uri": "https://tools.usps.com/UspsToolsRestServices/rest/POLocator/findLocations", "@spider": "usps_collection_boxes", "addr:city": "OSYKA", "addr:country": "US", "addr:postcode": "39657", "addr:state": "MS", "addr:street_address": "500 W LIBERTY ST", "amenity": "post_box", "collection_times": "Mo-Fr 14:30; Sa 10:00", "indoor": "yes", "note": "ON 12/24 AND 12/31, THIS BOX MAY BE COLLECTED AS EARLY AS 12 NOON.", "nsi_id": "unitedstatespostalservice-a77078", "operator": "United States Postal Service", "operator:short": "USPS", "operator:type": "public", "operator:wikidata": "Q668687", "ref": "3965700001"}, "type": "Feature"}
{"geometry": {"coordinates": [-90.478428096, 31.009517242], "type": "Point"}, "id": "3rRgKFKogGB4J5O1Dncbfh6aH7o=", "properties": {"@source_uri": "https://tools.usps.com/UspsToolsRestServices/rest/POLocator/findLocations", "@spider": "usps_collection_boxes", "addr:city": "OSYKA", "addr:country": "US", "addr:postcode": "39657", "addr:state": "MS", "addr:street_address": "500 W LIBERTY ST", "amenity": "post_box", "collection_times": "Mo-Fr 14:30; Sa 10:00", "indoor": "yes", "note": "ON 12/24 AND 12/31, THIS BOX MAY BE COLLECTED AS EARLY AS 12 NOON.", "nsi_id": "unitedstatespostalservice-a77078", "operator": "United States Postal Service", "operator:short": "USPS", "operator:type": "public", "operator:wikidata": "Q668687", "ref": "3965700003"}, "type": "Feature"}
{"geometry": {"coordinates": [-91.066918545, 31.505968722], "type": "Point"}, "id": "eu8oo1BSN6ZBkR6zJXQZmEipaGs=", "properties": {"@source_uri": "https://tools.usps.com/UspsToolsRestServices/rest/POLocator/findLocations", "@spider": "usps_collection_boxes", "addr:city": "ROXIE", "addr:country": "US", "addr:postcode": "39661", "addr:state": "MS", "addr:street_address": "83 EAST BLVD", "amenity": "post_box", "collection_times": "Mo-Fr 11:00; Sa 09:30", "nsi_id": "unitedstatespostalservice-a77078", "operator": "United States Postal Service", "operator:short": "USPS", "operator:type": "public", "operator:wikidata": "Q668687", "ref": "3966100001"}, "type": "Feature"}
{"geometry": {"coordinates": [-91.066918545, 31.505968722], "type": "Point"}, "id": "iPbDSXyXSUMhGQ2f0j27AubONzU=", "properties": {"@source_uri": "https://tools.usps.com/UspsToolsRestServices/rest/POLocator/findLocations", "@spider": "usps_collection_boxes", "addr:city": "ROXIE", "addr:country": "US", "addr:postcode": "39661", "addr:state": "MS", "addr:street_address": "83 EAST BLVD", "amenity": "post_box", "collection_times": "Mo-Fr 11:00; Sa 09:30", "indoor": "yes", "nsi_id": "unitedstatespostalservice-a77078", "operator": "United States Postal Service", "operator:short": "USPS", "operator:type": "public", "operator:wikidata": "Q668687", "ref": "3966100002"}, "type": "Feature"}
{"geometry": {"coordinates": [-91.066918545, 31.505968722], "type": "Point"}, "id": "G3lZYsbxY2HENRM2Ew8cGxx_G8M=", "properties": {"@source_uri": "https://tools.usps.com/UspsToolsRestServices/rest/POLocator/findLocations", "@spider": "usps_collection_boxes", "addr:city": "ROXIE", "addr:country": "US", "addr:postcode": "39661", "addr:state": "MS", "addr:street_address": "83 EAST BLVD", "amenity": "post_box", "collection_times": "Mo-Fr 11:00; Sa 10:00", "indoor": "yes", "nsi_id": "unitedstatespostalservice-a77078", "operator": "United States Postal Service", "operator:short": "USPS", "operator:type": "public", "operator:wikidata": "Q668687", "ref": "3966100003"}, "type": "Feature"}
{"geometry": {"coordinates": [-90.306638556, 31.373656844], "type": "Point"}, "id": "Tz0-mQyyTD3jhSinwPwSXHwP1f8=", "properties": {"@source_uri": "https://tools.usps.com/UspsToolsRestServices/rest/POLocator/findLocations", "@spider": "usps_collection_boxes", "addr:city": "RUTH", "addr:country": "US", "addr:postcode": "39662", "addr:state": "MS", "addr:street_address": "3663 HIGHWAY 583 SE", "amenity": "post_box", "collection_times": "Mo-Fr 12:00; Sa 10:00", "nsi_id": "unitedstatespostalservice-a77078", "operator": "United States Postal Service", "operator:short": "USPS", "operator:type": "public", "operator:wikidata": "Q668687", "ref": "3966200000"}, "type": "Feature"}
{"geometry": {"coordinates": [-90.306638556, 31.373656844], "type": "Point"}, "id": "_szZqIjGjg5LQ8IGVCgHpestM-M=", "properties": {"@source_uri": "https://tools.usps.com/UspsToolsRestServices/rest/POLocator/findLocations", "@spider": "usps_collection_boxes", "addr:city": "RUTH", "addr:country": "US", "addr:postcode": "39662", "addr:state": "MS", "addr:street_address": "3663 HIGHWAY 583 SE", "amenity": "post_box", "collection_times": "Mo-Fr 12:00; Sa 10:00", "indoor": "yes", "nsi_id": "unitedstatespostalservice-a77078", "operator": "United States Postal Service", "operator:short": "USPS", "operator:type": "public", "operator:wikidata": "Q668687", "ref": "3966200001"}, "type": "Feature"}
{"geometry": {"coordinates": [-89.998679976, 31.605700013], "type": "Point"}, "id": "vAMZzWBacNUqMnTe7RScQHAMqwo=", "properties": {"@source_uri": "https://tools.usps.com/UspsToolsRestServices/rest/POLocator/findLocations", "@spider": "usps_collection_boxes", "addr:city": "SILVER CREEK", "addr:country": "US", "addr:postcode": "39663", "addr:state": "MS", "addr:street_address": "56 MAIN AVE", "amenity": "post_box", "collection_times": "Mo-Fr 14:30; Sa 10:00", "note": "ON 12/24 AND 12/31, THIS BOX MAY BE COLLECTED AS EARLY AS 12 NOON.", "nsi_id": "unitedstatespostalservice-a77078", "operator": "United States Postal Service", "operator:short": "USPS", "operator:type": "public", "operator:wikidata": "Q668687", "ref": "3966300000"}, "type": "Feature"}
{"geometry": {"coordinates": [-89.998679976, 31.605700013], "type": "Point"}, "id": "GOc_cj_NzKbFWYiZgqk3TFZdgcA=", "properties": {"@source_uri": "https://tools.usps.com/UspsToolsRestServices/rest/POLocator/findLocations", "@spider": "usps_collection_boxes", "addr:city": "SILVER CREEK", "addr:country": "US", "addr:postcode": "39663", "addr:state": "MS", "addr:street_address": "56 MAIN AVE", "amenity": "post_box", "collection_times": "Mo-Fr 14:30; Sa 10:00", "indoor": "yes", "note": "ON 12/24 AND 12/31, THIS BOX MAY BE COLLECTED AS EARLY AS 12 NOON.", "nsi_id": "unitedstatespostalservice-a77078", "operator": "United States Postal Service", "operator:short": "USPS", "operator:type": "public", "operator:wikidata": "Q668687", "ref": "3966300001"}, "type": "Feature"}
{"geometry": {"coordinates": [-89.998679976, 31.605700013], "type": "Point"}, "id": "t3iv3LWXWfw8w5jre8CXoCM23-M=", "properties": {"@source_uri": "https://tools.usps.com/UspsToolsRestServices/rest/POLocator/findLocations", "@spider": "usps_collection_boxes", "addr:city": "SILVER CREEK", "addr:country": "US", "addr:postcode": "39663", "addr:state": "MS", "addr:street_address": "56 MAIN AVE", "amenity": "post_box", "collection_times": "Mo-Fr 14:30; Sa 10:15", "indoor": "yes", "note": "ON 12/24 AND 12/31, THIS BOX MAY BE COLLECTED AS EARLY AS 12 NOON.", "nsi_id": "unitedstatespostalservice-a77078", "operator": "United States Postal Service", "operator:short": "USPS", "operator:type": "public", "operator:wikidata": "Q668687", "ref": "3966300002"}, "type": "Feature"}
{"geometry": {"coordinates": [-90.62786956, 31.303334166], "type": "Point"}, "id": "jxh0GLFRdSe_9AhxRZkCCA3Rjl0=", "properties": {"@source_uri": "https://tools.usps.com/UspsToolsRestServices/rest/POLocator/findLocations", "@spider": "usps_collection_boxes", "addr:city": "SMITHDALE", "addr:country": "US", "addr:postcode": "39664", "addr:state": "MS", "addr:street_address": "6005 MS HIGHWAY 570", "amenity": "post_box", "collection_times": "Mo-Fr 12:00; Sa 09:15", "nsi_id": "unitedstatespostalservice-a77078", "operator": "United States Postal Service", "operator:short": "USPS", "operator:type": "public", "operator:wikidata": "Q668687", "ref": "3966400000"}, "type": "Feature"}
{"geometry": {"coordinates": [-90.62786956, 31.303334166], "type": "Point"}, "id": "GBuvCU-5AL7yt85ijBoH2OIVz9c=", "properties": {"@source_uri": "https://tools.usps.com/UspsToolsRestServices/rest/POLocator/findLocations", "@spider": "usps_collection_boxes", "addr:city": "SMITHDALE", "addr:country": "US", "addr:postcode": "39664", "addr:state": "MS", "addr:street_address": "6005 MS HIGHWAY 570", "amenity": "post_box", "collection_times": "Mo-Fr 12:00; Sa 09:15", "indoor": "yes", "nsi_id": "unitedstatespostalservice-a77078", "operator": "United States Postal Service", "operator:short": "USPS", "operator:type": "public", "operator:wikidata": "Q668687", "ref": "3966400001"}, "type": "Feature"}
{"geometry": {"coordinates": [-90.6389274, 31.2516353], "type": "Point"}, "id": "to-D2nqChIownpefbQHT5jW6gHI=", "properties": {"@source_uri": "https://tools.usps.com/UspsToolsRestServices/rest/POLocator/findLocations", "@spider": "usps_collection_boxes", "addr:city": "SMITHDALE", "addr:country": "US", "addr:postcode": "39664", "addr:state": "MS", "addr:street_address": "6005 MS HIGHWAY 570", "amenity": "post_box", "collection_times": "Mo-Fr 12:00; Sa 09:30", "indoor": "yes", "nsi_id": "unitedstatespostalservice-a77078", "operator": "United States Postal Service", "operator:short": "USPS", "operator:type": "public", "operator:wikidata": "Q668687", "ref": "3966400002"}, "type": "Feature"}
{"geometry": {"coordinates": [-90.202538044, 31.649531962], "type": "Point"}, "id": "P3eY8PkjIsV5MUX8MvGKJ5YB9sY=", "properties": {"@source_uri": "https://tools.usps.com/UspsToolsRestServices/rest/POLocator/findLocations", "@spider": "usps_collection_boxes", "addr:city": "SONTAG", "addr:country": "US", "addr:postcode": "39665", "addr:state": "MS", "addr:street_address": "903 SONTAG NOLA RD", "amenity": "post_box", "collection_times": "Mo-Fr 11:00; Sa 08:00", "nsi_id": "unitedstatespostalservice-a77078", "operator": "United States Postal Service", "operator:short": "USPS", "operator:type": "public", "operator:wikidata": "Q668687", "ref": "3966500000"}, "type": "Feature"}
{"geometry": {"coordinates": [-90.202538044, 31.649531962], "type": "Point"}, "id": "W9GfRKjVHuIu_CHNKOLct8HIDY0=", "properties": {"@source_uri": "https://tools.usps.com/UspsToolsRestServices/rest/POLocator/findLocations", "@spider": "usps_collection_boxes", "addr:city": "SONTAG", "addr:country": "US", "addr:postcode": "39665", "addr:state": "MS", "addr:street_address": "903 SONTAG NOLA RD", "amenity": "post_box", "collection_times": "Mo-Fr 11:00", "indoor": "yes", "nsi_id": "unitedstatespostalservice-a77078", "operator": "United States Postal Service", "operator:short": "USPS", "operator:type": "public", "operator:wikidata": "Q668687", "ref": "3966500002"}, "type": "Feature"}
{"geometry": {"coordinates": [-90.47214914, 31.28391272], "type": "Point"}, "id": "5klsnUi7ew2GrYMVIwebOKUk_b8=", "properties": {"@source_uri": "https://tools.usps.com/UspsToolsRestServices/rest/POLocator/findLocations", "@spider": "usps_collection_boxes", "addr:city": "SUMMIT", "addr:country": "US", "addr:postcode": "39666", "addr:state": "MS", "addr:street_address": "501 W ROBB ST", "amenity": "post_box", "collection_times": "Mo-Fr 16:00; Sa 09:55", "indoor": "yes", "note": "ON 12/24 AND 12/31, THIS BOX MAY BE COLLECTED AS EARLY AS 12 NOON.", "nsi_id": "unitedstatespostalservice-a77078", "operator": "United States Postal Service", "operator:short": "USPS", "operator:type": "public", "operator:wikidata": "Q668687", "ref": "3966600001"}, "type": "Feature"}
{"geometry": {"coordinates": [-90.47214914, 31.28391272], "type": "Point"}, "id": "srjLJ59IHSrLMKlk3OPqm9FCz_8=", "properties": {"@source_uri": "https://tools.usps.com/UspsToolsRestServices/rest/POLocator/findLocations", "@spider": "usps_collection_boxes", "addr:city": "SUMMIT", "addr:country": "US", "addr:postcode": "39666", "addr:state": "MS", "addr:street_address": "501 W ROBB ST", "amenity": "post_box", "collection_times": "Mo-Fr 16:30; Sa 10:00", "indoor": "yes", "note": "ON 12/24 AND 12/31, THIS BOX MAY BE COLLECTED AS EARLY AS 12 NOON.", "nsi_id": "unitedstatespostalservice-a77078", "operator": "United States Postal Service", "operator:short": "USPS", "operator:type": "public", "operator:wikidata": "Q668687", "ref": "3966600002"}, "type": "Feature"}
{"geometry": {"coordinates": [-90.138523575, 31.11572138], "type": "Point"}, "id": "DZvKknK8Hj0P26-A0TqoIZgO4sU=", "properties": {"@source_uri": "https://tools.usps.com/UspsToolsRestServices/rest/POLocator/findLocations", "@spider": "usps_collection_boxes", "addr:city": "TYLERTOWN", "addr:country": "US", "addr:postcode": "39667", "addr:state": "MS", "addr:street_address": "622 BEULAH AVE", "amenity": "post_box", "collection_times": "Mo-Fr 16:00; Sa 12:00", "indoor": "yes", "note": "ON 12/24 AND 12/31, THIS BOX MAY BE COLLECTED AS EARLY AS 12 NOON.", "nsi_id": "unitedstatespostalservice-a77078", "operator": "United States Postal Service", "operator:short": "USPS", "operator:type": "public", "operator:wikidata": "Q668687", "ref": "3966700003"}, "type": "Feature"}
{"geometry": {"coordinates": [-90.138523575, 31.11572138], "type": "Point"}, "id": "1-3PfoG1hXnVyReI0HHvKN4gSEI=", "properties": {"@source_uri": "https://tools.usps.com/UspsToolsRestServices/rest/POLocator/findLocations", "@spider": "usps_collection_boxes", "addr:city": "TYLERTOWN", "addr:country": "US", "addr:postcode": "39667", "addr:state": "MS", "addr:street_address": "622 BEULAH AVE", "amenity": "post_box", "collection_times": "Mo-Fr 16:00; Sa 12:00", "note": "ON 12/24 AND 12/31, THIS BOX MAY BE COLLECTED AS EARLY AS 12 NOON.", "nsi_id": "unitedstatespostalservice-a77078", "operator": "United States Postal Service", "operator:short": "USPS", "operator:type": "public", "operator:wikidata": "Q668687", "ref": "3966700004"}, "type": "Feature"}
{"geometry": {"coordinates": [-90.138523575, 31.11572138], "type": "Point"}, "id": "9CiLwxJaa_G4QKd9XNELo57ijC0=", "properties": {"@source_uri": "https://tools.usps.com/UspsToolsRestServices/rest/POLocator/findLocations", "@spider": "usps_collection_boxes", "addr:city": "TYLERTOWN", "addr:country": "US", "addr:postcode": "39667", "addr:state": "MS", "addr:street_address": "622 BEULAH AVE", "amenity": "post_box", "collection_times": "Mo-Fr 16:00; Sa 12:00", "indoor": "yes", "note": "ON 12/24 AND 12/31, THIS BOX MAY BE COLLECTED AS EARLY AS 12 NOON.", "nsi_id": "unitedstatespostalservice-a77078", "operator": "United States Postal Service", "operator:short": "USPS", "operator:type": "public", "operator:wikidata": "Q668687", "ref": "3966700005"}, "type": "Feature"}
{"geometry": {"coordinates": [-90.786478775, 31.682849422], "type": "Point"}, "id": "_ouaMFWlI_jMu0Uld6t4uYwpPOc=", "properties": {"@source_uri": "https://tools.usps.com/UspsToolsRestServices/rest/POLocator/findLocations", "@spider": "usps_collection_boxes", "addr:city": "UNION CHURCH", "addr:country": "US", "addr:postcode": "39668", "addr:state": "MS", "addr:street_address": "65 HIGHWAY 550", "amenity": "post_box", "collection_times": "Mo-Fr 11:30; Sa 08:15", "nsi_id": "unitedstatespostalservice-a77078", "operator": "United States Postal Service", "operator:short": "USPS", "operator:type": "public", "operator:wikidata": "Q668687", "ref": "3966800000"}, "type": "Feature"}
{"geometry": {"coordinates": [-90.786478775, 31.682849422], "type": "Point"}, "id": "QOxV4UO6xQwo6reaSjgB3DIuLFY=", "properties": {"@source_uri": "https://tools.usps.com/UspsToolsRestServices/rest/POLocator/findLocations", "@spider": "usps_collection_boxes", "addr:city": "UNION CHURCH", "addr:country": "US", "addr:postcode": "39668", "addr:state": "MS", "addr:street_address": "65 HIGHWAY 550", "amenity": "post_box", "collection_times": "Mo-Fr 11:30; Sa 08:15", "indoor": "yes", "nsi_id": "unitedstatespostalservice-a77078", "operator": "United States Postal Service", "operator:short": "USPS", "operator:type": "public", "operator:wikidata": "Q668687", "ref": "3966800001"}, "type": "Feature"}
{"geometry": {"coordinates": [-90.786478775, 31.682849422], "type": "Point"}, "id": "cvNl7uOU5TWIlQiwGQgi1QRR7Ao=", "properties": {"@source_uri": "https://tools.usps.com/UspsToolsRestServices/rest/POLocator/findLocations", "@spider": "usps_collection_boxes", "addr:city": "UNION CHURCH", "addr:country": "US", "addr:postcode": "39668", "addr:state": "MS", "addr:street_address": "65 HIGHWAY 550", "amenity": "post_box", "collection_times": "Mo-Fr 11:30", "indoor": "yes", "nsi_id": "unitedstatespostalservice-a77078", "operator": "United States Postal Service", "operator:short": "USPS", "operator:type": "public", "operator:wikidata": "Q668687", "ref": "3966800002"}, "type": "Feature"}
{"geometry": {"coordinates": [-91.299025, 31.10297], "type": "Point"}, "id": "DffRSSVHiw-2U4DkZzIMRZcXsmI=", "properties": {"@source_uri": "https://tools.usps.com/UspsToolsRestServices/rest/POLocator/findLocations", "@spider": "usps_collection_boxes", "addr:city": "WOODVILLE", "addr:country": "US", "addr:postcode": "39669", "addr:state": "MS", "addr:street_address": "381 MAIN ST", "amenity": "post_box", "collection_times": "Mo-Fr 15:35; Sa 12:00", "note": "ON 12/24 AND 12/31, THIS BOX MAY BE COLLECTED AS EARLY AS 12 NOON.", "nsi_id": "unitedstatespostalservice-a77078", "operator": "United States Postal Service", "operator:short": "USPS", "operator:type": "public", "operator:wikidata": "Q668687", "ref": "3966900000"}, "type": "Feature"}
{"geometry": {"coordinates": [-91.296702982, 31.10402313], "type": "Point"}, "id": "K4tEX7xlMXV9EO1eQ0ID8UAZrJg=", "properties": {"@source_uri": "https://tools.usps.com/UspsToolsRestServices/rest/POLocator/findLocations", "@spider": "usps_collection_boxes", "addr:city": "WOODVILLE", "addr:country": "US", "addr:postcode": "39669", "addr:state": "MS", "addr:street_address": "381 MAIN ST", "amenity": "post_box", "collection_times": "Mo-Fr 15:45; Sa 12:00", "indoor": "yes", "note": "ON 12/24 AND 12/31, THIS BOX MAY BE COLLECTED AS EARLY AS 12 NOON.", "nsi_id": "unitedstatespostalservice-a77078", "operator": "United States Postal Service", "operator:short": "USPS", "operator:type": "public", "operator:wikidata": "Q668687", "ref": "3966900001"}, "type": "Feature"}
{"geometry": {"coordinates": [-91.296702982, 31.10402313], "type": "Point"}, "id": "oIEkCHgt6GhdUpfrxRT7bwQNsD0=", "properties": {"@source_uri": "https://tools.usps.com/UspsToolsRestServices/rest/POLocator/findLocations", "@spider": "usps_collection_boxes", "addr:city": "WOODVILLE", "addr:country": "US", "addr:postcode": "39669", "addr:state": "MS", "addr:street_address": "381 MAIN ST", "amenity": "post_box", "collection_times": "Mo-Fr 16:00; Sa 11:30", "indoor": "yes", "note": "ON 12/24 AND 12/31, THIS BOX MAY BE COLLECTED AS EARLY AS 12 NOON.", "nsi_id": "unitedstatespostalservice-a77078", "operator": "United States Postal Service", "operator:short": "USPS", "operator:type": "public", "operator:wikidata": "Q668687", "ref": "3966900003"}, "type": "Feature"}
