{"dataset_attributes": {"@spider": "usps_collection_boxes"}, "geometry": {"coordinates": [-89.175559985, 33.311120003], "type": "Point"}, "id": "UfXt-WrdRBzrnbnL77H7OS5yE88=", "properties": {"@spider": "usps_collection_boxes", "addr:city": "ACKERMAN", "addr:country": "US", "addr:full": "1035 W MAIN ST", "addr:postcode": "39735", "addr:state": "MS", "amenity": "post_box", "brand": "United States Postal Service", "brand:wikidata": "Q668687", "collection_times": "Mo-Fr 15:55; Sa 10:25", "name": "USPS COLLECTION BOX - BLUE BOX", "note": "ON 12/24 AND 12/31, THIS BOX MAY BE COLLECTED AS EARLY AS 12 NOON.", "nsi_id": "unitedstatespostalservice-a77078", "operator": "United States Postal Service", "operator:short": "USPS", "operator:type": "public", "operator:wikidata": "Q668687", "ref": "3973500000"}, "type": "Feature"}
{"dataset_attributes": {"@spider": "usps_collection_boxes"}, "geometry": {"coordinates": [-89.175559985, 33.311120003], "type": "Point"}, "id": "hhHfI1dZDcT_Dkj0UsgGR6AKin0=", "properties": {"@spider": "usps_collection_boxes", "addr:city": "ACKERMAN", "addr:country": "US", "addr:full": "1035 W MAIN ST", "addr:postcode": "39735", "addr:state": "MS", "amenity": "post_box", "brand": "United States Postal Service", "brand:wikidata": "Q668687", "collection_times": "Mo-Fr 16:25; Sa 10:25", "name": "USPS COLLECTION BOX - PO LOBBY", "note": "ON 12/24 AND 12/31, THIS BOX MAY BE COLLECTED AS EARLY AS 12 NOON.", "nsi_id": "unitedstatespostalservice-a77078", "operator": "United States Postal Service", "operator:short": "USPS", "operator:type": "public", "operator:wikidata": "Q668687", "ref": "3973500001"}, "type": "Feature"}
{"dataset_attributes": {"@spider": "usps_collection_boxes"}, "geometry": {"coordinates": [-89.175559985, 33.311120003], "type": "Point"}, "id": "41TrpIa_Tt82KBpIBgdaq2qnEts=", "properties": {"@spider": "usps_collection_boxes", "addr:city": "ACKERMAN", "addr:country": "US", "addr:full": "1035 W MAIN ST", "addr:postcode": "39735", "addr:state": "MS", "amenity": "post_box", "brand": "United States Postal Service", "brand:wikidata": "Q668687", "collection_times": "Mo-Fr 16:30; Sa 10:30", "name": "USPS COLLECTION BOX - PO LOBBY", "note": "ON 12/24 AND 12/31, THIS BOX MAY BE COLLECTED AS EARLY AS 12 NOON.", "nsi_id": "unitedstatespostalservice-a77078", "operator": "United States Postal Service", "operator:short": "USPS", "operator:type": "public", "operator:wikidata": "Q668687", "ref": "3973500002"}, "type": "Feature"}
{"dataset_attributes": {"@spider": "usps_collection_boxes"}, "geometry": {"coordinates": [-89.310040495, 33.648541124], "type": "Point"}, "id": "g0bdXcYlLbdYL0IyI33ZwJNTRs0=", "properties": {"@spider": "usps_collection_boxes", "addr:city": "BELLEFONTAINE", "addr:country": "US", "addr:full": "1 HIGHWAY 9", "addr:postcode": "39737", "addr:state": "MS", "amenity": "post_box", "brand": "United States Postal Service", "brand:wikidata": "Q668687", "collection_times": "Mo-Fr 12:00; Sa 11:45", "name": "USPS COLLECTION BOX - BLUE BOX", "nsi_id": "unitedstatespostalservice-a77078", "operator": "United States Postal Service", "operator:short": "USPS", "operator:type": "public", "operator:wikidata": "Q668687", "ref": "3973700000"}, "type": "Feature"}
{"dataset_attributes": {"@spider": "usps_collection_boxes"}, "geometry": {"coordinates": [-89.310040495, 33.648541124], "type": "Point"}, "id": "pLjI4rpIHnxXEDHBlV3Q47LzGIQ=", "properties": {"@spider": "usps_collection_boxes", "addr:city": "BELLEFONTAINE", "addr:country": "US", "addr:full": "1 HIGHWAY 9", "addr:postcode": "39737", "addr:state": "MS", "amenity": "post_box", "brand": "United States Postal Service", "brand:wikidata": "Q668687", "collection_times": "Mo-Fr 11:50; Sa 11:45", "name": "USPS COLLECTION BOX - PO LOBBY", "nsi_id": "unitedstatespostalservice-a77078", "operator": "United States Postal Service", "operator:short": "USPS", "operator:type": "public", "operator:wikidata": "Q668687", "ref": "3973700001"}, "type": "Feature"}
{"dataset_attributes": {"@spider": "usps_collection_boxes"}, "geometry": {"coordinates": [-89.310040495, 33.648541124], "type": "Point"}, "id": "SNHYTAAqR1h8n9TIIFu_cree6m8=", "properties": {"@spider": "usps_collection_boxes", "addr:city": "BELLEFONTAINE", "addr:country": "US", "addr:full": "1 HIGHWAY 9", "addr:postcode": "39737", "addr:state": "MS", "amenity": "post_box", "brand": "United States Postal Service", "brand:wikidata": "Q668687", "collection_times": "Mo-Sa 12:00", "name": "USPS COLLECTION BOX - PO LOBBY", "nsi_id": "unitedstatespostalservice-a77078", "operator": "United States Postal Service", "operator:short": "USPS", "operator:type": "public", "operator:wikidata": "Q668687", "ref": "3973700002"}, "type": "Feature"}
{"dataset_attributes": {"@spider": "usps_collection_boxes"}, "geometry": {"coordinates": [-88.579250019, 33.235549979], "type": "Point"}, "id": "Vv9kShnrywNSa41cV2S1zQ53GbU=", "properties": {"@spider": "usps_collection_boxes", "addr:city": "BROOKSVILLE", "addr:country": "US", "addr:full": "150 DEPOT ST", "addr:postcode": "39739", "addr:state": "MS", "amenity": "post_box", "brand": "United States Postal Service", "brand:wikidata": "Q668687", "collection_times": "Mo-Fr 16:00; Sa 10:00", "name": "USPS COLLECTION BOX - BLUE BOX", "note": "ON 12/24 AND 12/31, THIS BOX MAY BE COLLECTED AS EARLY AS 12 NOON.", "nsi_id": "unitedstatespostalservice-a77078", "operator": "United States Postal Service", "operator:short": "USPS", "operator:type": "public", "operator:wikidata": "Q668687", "ref": "3973900000"}, "type": "Feature"}
{"dataset_attributes": {"@spider": "usps_collection_boxes"}, "geometry": {"coordinates": [-88.579250019, 33.235549979], "type": "Point"}, "id": "Axr7glX7W7WL1_i8pHgg_P2YeaE=", "properties": {"@spider": "usps_collection_boxes", "addr:city": "BROOKSVILLE", "addr:country": "US", "addr:full": "150 DEPOT ST", "addr:postcode": "39739", "addr:state": "MS", "amenity": "post_box", "brand": "United States Postal Service", "brand:wikidata": "Q668687", "collection_times": "Mo-Fr 16:00; Sa 10:00", "name": "USPS COLLECTION BOX - PO LOBBY", "note": "ON 12/24 AND 12/31, THIS BOX MAY BE COLLECTED AS EARLY AS 12 NOON.", "nsi_id": "unitedstatespostalservice-a77078", "operator": "United States Postal Service", "operator:short": "USPS", "operator:type": "public", "operator:wikidata": "Q668687", "ref": "3973900002"}, "type": "Feature"}
{"dataset_attributes": {"@spider": "usps_collection_boxes"}, "geometry": {"coordinates": [-88.6200500227, 33.3019400171], "type": "Point"}, "id": "pvkm_SsIbMIA697GNcrsL8MWJEw=", "properties": {"@spider": "usps_collection_boxes", "addr:city": "CRAWFORD", "addr:country": "US", "addr:full": "290 MAIN ST", "addr:postcode": "39743", "addr:state": "MS", "amenity": "post_box", "brand": "United States Postal Service", "brand:wikidata": "Q668687", "collection_times": "Mo-Fr 11:30; Sa 10:00", "name": "USPS COLLECTION BOX - BLUE BOX", "nsi_id": "unitedstatespostalservice-a77078", "operator": "United States Postal Service", "operator:short": "USPS", "operator:type": "public", "operator:wikidata": "Q668687", "ref": "3974300000"}, "type": "Feature"}
{"dataset_attributes": {"@spider": "usps_collection_boxes"}, "geometry": {"coordinates": [-88.6200500227, 33.3019400171], "type": "Point"}, "id": "L39VP3n6YY99bJRD23cSplqBrC8=", "properties": {"@spider": "usps_collection_boxes", "addr:city": "CRAWFORD", "addr:country": "US", "addr:full": "290 MAIN ST", "addr:postcode": "39743", "addr:state": "MS", "amenity": "post_box", "brand": "United States Postal Service", "brand:wikidata": "Q668687", "collection_times": "Mo-Fr 11:30; Sa 10:00", "name": "USPS COLLECTION BOX - PO LOBBY", "nsi_id": "unitedstatespostalservice-a77078", "operator": "United States Postal Service", "operator:short": "USPS", "operator:type": "public", "operator:wikidata": "Q668687", "ref": "3974300002"}, "type": "Feature"}
{"dataset_attributes": {"@spider": "usps_collection_boxes"}, "geometry": {"coordinates": [-89.268860039, 33.542430021], "type": "Point"}, "id": "qy9XVDSVqNVTo_0fHzUjirJRG7c=", "properties": {"@spider": "usps_collection_boxes", "addr:city": "EUPORA", "addr:country": "US", "addr:full": "107 N DUNN ST", "addr:postcode": "39744", "addr:state": "MS", "amenity": "post_box", "brand": "United States Postal Service", "brand:wikidata": "Q668687", "collection_times": "Mo-Fr 16:30; Sa 11:30", "name": "USPS COLLECTION BOX - BLUE BOX", "note": "ON 12/24 AND 12/31, THIS BOX MAY BE COLLECTED AS EARLY AS 12 NOON.", "nsi_id": "unitedstatespostalservice-a77078", "operator": "United States Postal Service", "operator:short": "USPS", "operator:type": "public", "operator:wikidata": "Q668687", "ref": "3974400000"}, "type": "Feature"}
{"dataset_attributes": {"@spider": "usps_collection_boxes"}, "geometry": {"coordinates": [-89.268860039, 33.542430021], "type": "Point"}, "id": "Nn_tGnepDD9zN_UhpNym3T8gcj8=", "properties": {"@spider": "usps_collection_boxes", "addr:city": "EUPORA", "addr:country": "US", "addr:full": "107 N DUNN ST", "addr:postcode": "39744", "addr:state": "MS", "amenity": "post_box", "brand": "United States Postal Service", "brand:wikidata": "Q668687", "collection_times": "Mo-Fr 16:30; Sa 11:30", "name": "USPS COLLECTION BOX - PO LOBBY", "note": "ON 12/24 AND 12/31, THIS BOX MAY BE COLLECTED AS EARLY AS 12 NOON.", "nsi_id": "unitedstatespostalservice-a77078", "operator": "United States Postal Service", "operator:short": "USPS", "operator:type": "public", "operator:wikidata": "Q668687", "ref": "3974400004"}, "type": "Feature"}
{"dataset_attributes": {"@spider": "usps_collection_boxes"}, "geometry": {"coordinates": [-89.399389992, 33.293379998], "type": "Point"}, "id": "y3Wu6LGPN_AmnDY-PttXlwLnDR0=", "properties": {"@spider": "usps_collection_boxes", "addr:city": "FRENCH CAMP", "addr:country": "US", "addr:full": "6061 MS HIGHWAY 413", "addr:postcode": "39745", "addr:state": "MS", "amenity": "post_box", "brand": "United States Postal Service", "brand:wikidata": "Q668687", "collection_times": "Mo-Fr 16:00; Sa 10:00", "name": "USPS COLLECTION BOX - BLUE BOX", "note": "ON 12/24 AND 12/31, THIS BOX MAY BE COLLECTED AS EARLY AS 12 NOON.", "nsi_id": "unitedstatespostalservice-a77078", "operator": "United States Postal Service", "operator:short": "USPS", "operator:type": "public", "operator:wikidata": "Q668687", "ref": "3974500000"}, "type": "Feature"}
{"dataset_attributes": {"@spider": "usps_collection_boxes"}, "geometry": {"coordinates": [-89.399389992, 33.293379998], "type": "Point"}, "id": "ByPzf-alYdWjP9omHyBgTlXI4mI=", "properties": {"@spider": "usps_collection_boxes", "addr:city": "FRENCH CAMP", "addr:country": "US", "addr:full": "6061 MS HIGHWAY 413", "addr:postcode": "39745", "addr:state": "MS", "amenity": "post_box", "brand": "United States Postal Service", "brand:wikidata": "Q668687", "collection_times": "Mo-Fr 16:00; Sa 10:00", "name": "USPS COLLECTION BOX - PO LOBBY", "note": "ON 12/24 AND 12/31, THIS BOX MAY BE COLLECTED AS EARLY AS 12 NOON.", "nsi_id": "unitedstatespostalservice-a77078", "operator": "United States Postal Service", "operator:short": "USPS", "operator:type": "public", "operator:wikidata": "Q668687", "ref": "3974500001"}, "type": "Feature"}
{"dataset_attributes": {"@spider": "usps_collection_boxes"}, "geometry": {"coordinates": [-89.437168019, 33.342463662], "type": "Point"}, "id": "yOhoX-Tti2HpeyehWj7WfcrPnW8=", "properties": {"@spider": "usps_collection_boxes", "addr:city": "FRENCH CAMP", "addr:country": "US", "addr:full": "1000 MS HIGHWAY 413", "addr:postcode": "39745", "addr:state": "MS", "amenity": "post_box", "brand": "United States Postal Service", "brand:wikidata": "Q668687", "collection_times": "Mo-Fr 16:00; Sa 10:00", "name": "USPS COLLECTION BOX - PO LOBBY", "note": "ON 12/24 AND 12/31, THIS BOX MAY BE COLLECTED AS EARLY AS 12 NOON.", "nsi_id": "unitedstatespostalservice-a77078", "operator": "United States Postal Service", "operator:short": "USPS", "operator:type": "public", "operator:wikidata": "Q668687", "ref": "3974500002"}, "type": "Feature"}
{"dataset_attributes": {"@spider": "usps_collection_boxes"}, "geometry": {"coordinates": [-89.568670936, 33.44115417], "type": "Point"}, "id": "y1m-BOcrjUx49IrSoUta2dkIV1c=", "properties": {"@spider": "usps_collection_boxes", "addr:city": "KILMICHAEL", "addr:country": "US", "addr:full": "205 E MAIN ST", "addr:postcode": "39747", "addr:state": "MS", "amenity": "post_box", "brand": "United States Postal Service", "brand:wikidata": "Q668687", "collection_times": "Mo-Fr 14:30; Sa 11:00", "name": "USPS COLLECTION BOX - BLUE BOX", "note": "ON 12/24 AND 12/31, THIS BOX MAY BE COLLECTED AS EARLY AS 12 NOON.", "nsi_id": "unitedstatespostalservice-a77078", "operator": "United States Postal Service", "operator:short": "USPS", "operator:type": "public", "operator:wikidata": "Q668687", "ref": "3974700000"}, "type": "Feature"}
{"dataset_attributes": {"@spider": "usps_collection_boxes"}, "geometry": {"coordinates": [-89.568670936, 33.44115417], "type": "Point"}, "id": "xAfbYRofTA5R92J5AUtq3Zg8YZg=", "properties": {"@spider": "usps_collection_boxes", "addr:city": "KILMICHAEL", "addr:country": "US", "addr:full": "205 E MAIN ST", "addr:postcode": "39747", "addr:state": "MS", "amenity": "post_box", "brand": "United States Postal Service", "brand:wikidata": "Q668687", "collection_times": "Mo-Fr 14:30; Sa 11:00", "name": "USPS COLLECTION BOX - PO LOBBY", "note": "ON 12/24 AND 12/31, THIS BOX MAY BE COLLECTED AS EARLY AS 12 NOON.", "nsi_id": "unitedstatespostalservice-a77078", "operator": "United States Postal Service", "operator:short": "USPS", "operator:type": "public", "operator:wikidata": "Q668687", "ref": "3974700001"}, "type": "Feature"}
{"dataset_attributes": {"@spider": "usps_collection_boxes"}, "geometry": {"coordinates": [-89.568670936, 33.44115417], "type": "Point"}, "id": "-oa4tcM5UkX3QWl5B9tZCEhwdMY=", "properties": {"@spider": "usps_collection_boxes", "addr:city": "KILMICHAEL", "addr:country": "US", "addr:full": "205 E MAIN ST", "addr:postcode": "39747", "addr:state": "MS", "amenity": "post_box", "brand": "United States Postal Service", "brand:wikidata": "Q668687", "collection_times": "Mo-Fr 14:30; Sa 11:00", "name": "USPS COLLECTION BOX - PO LOBBY", "note": "ON 12/24 AND 12/31, THIS BOX MAY BE COLLECTED AS EARLY AS 12 NOON.", "nsi_id": "unitedstatespostalservice-a77078", "operator": "United States Postal Service", "operator:short": "USPS", "operator:type": "public", "operator:wikidata": "Q668687", "ref": "3974700002"}, "type": "Feature"}
{"dataset_attributes": {"@spider": "usps_collection_boxes"}, "geometry": {"coordinates": [-89.083386174, 33.555525914], "type": "Point"}, "id": "6ji5U9iouK_XVoGj77v36eFCf-k=", "properties": {"@spider": "usps_collection_boxes", "addr:city": "MABEN", "addr:country": "US", "addr:full": "2460 WATER ST", "addr:postcode": "39750", "addr:state": "MS", "amenity": "post_box", "brand": "United States Postal Service", "brand:wikidata": "Q668687", "collection_times": "Mo-Fr 14:30; Sa 09:45", "name": "USPS COLLECTION BOX - BLUE BOX", "note": "ON 12/24 AND 12/31, THIS BOX MAY BE COLLECTED AS EARLY AS 12 NOON.", "nsi_id": "unitedstatespostalservice-a77078", "operator": "United States Postal Service", "operator:short": "USPS", "operator:type": "public", "operator:wikidata": "Q668687", "ref": "3975000000"}, "type": "Feature"}
{"dataset_attributes": {"@spider": "usps_collection_boxes"}, "geometry": {"coordinates": [-89.083386174, 33.555525914], "type": "Point"}, "id": "Rz8MkCTwVDWvYkaLbSz-Xcnadvw=", "properties": {"@spider": "usps_collection_boxes", "addr:city": "MABEN", "addr:country": "US", "addr:full": "2460 WATER ST", "addr:postcode": "39750", "addr:state": "MS", "amenity": "post_box", "brand": "United States Postal Service", "brand:wikidata": "Q668687", "collection_times": "Mo-Fr 14:20; Sa 09:45", "name": "USPS COLLECTION BOX - PO LOBBY", "note": "ON 12/24 AND 12/31, THIS BOX MAY BE COLLECTED AS EARLY AS 12 NOON.", "nsi_id": "unitedstatespostalservice-a77078", "operator": "United States Postal Service", "operator:short": "USPS", "operator:type": "public", "operator:wikidata": "Q668687", "ref": "3975000001"}, "type": "Feature"}
{"dataset_attributes": {"@spider": "usps_collection_boxes"}, "geometry": {"coordinates": [-89.083779989, 33.556339999], "type": "Point"}, "id": "hEE1niiHmG8suSZTzKFjoCB_c8g=", "properties": {"@spider": "usps_collection_boxes", "addr:city": "MABEN", "addr:country": "US", "addr:full": "157 WATER ST", "addr:postcode": "39750", "addr:state": "MS", "amenity": "post_box", "brand": "United States Postal Service", "brand:wikidata": "Q668687", "collection_times": "Mo-Fr 14:30; Sa 10:00", "name": "USPS COLLECTION BOX - PO LOBBY", "note": "ON 12/24 AND 12/31, THIS BOX MAY BE COLLECTED AS EARLY AS 12 NOON.", "nsi_id": "unitedstatespostalservice-a77078", "operator": "United States Postal Service", "operator:short": "USPS", "operator:type": "public", "operator:wikidata": "Q668687", "ref": "3975000002"}, "type": "Feature"}
{"dataset_attributes": {"@spider": "usps_collection_boxes"}, "geometry": {"coordinates": [-89.072467442, 33.728024192], "type": "Point"}, "id": "yILUg6wAreQ2R92aJ2HI2H2Gvk0=", "properties": {"@spider": "usps_collection_boxes", "addr:city": "MANTEE", "addr:country": "US", "addr:full": "125 MAIN ST", "addr:postcode": "39751", "addr:state": "MS", "amenity": "post_box", "brand": "United States Postal Service", "brand:wikidata": "Q668687", "collection_times": "Mo-Fr 12:00", "name": "USPS COLLECTION BOX - BLUE BOX", "nsi_id": "unitedstatespostalservice-a77078", "operator": "United States Postal Service", "operator:short": "USPS", "operator:type": "public", "operator:wikidata": "Q668687", "ref": "3975100000"}, "type": "Feature"}
{"dataset_attributes": {"@spider": "usps_collection_boxes"}, "geometry": {"coordinates": [-89.072467442, 33.728024192], "type": "Point"}, "id": "SsxWDORGZeRaRlbcuuoOVGe7Ckk=", "properties": {"@spider": "usps_collection_boxes", "addr:city": "MANTEE", "addr:country": "US", "addr:full": "125 MAIN ST", "addr:postcode": "39751", "addr:state": "MS", "amenity": "post_box", "brand": "United States Postal Service", "brand:wikidata": "Q668687", "collection_times": "Mo-Fr 12:00", "name": "USPS COLLECTION BOX - PO LOBBY", "nsi_id": "unitedstatespostalservice-a77078", "operator": "United States Postal Service", "operator:short": "USPS", "operator:type": "public", "operator:wikidata": "Q668687", "ref": "3975100002"}, "type": "Feature"}
{"dataset_attributes": {"@spider": "usps_collection_boxes"}, "geometry": {"coordinates": [-89.124010023, 33.536950016], "type": "Point"}, "id": "jQpfZZJTIpzdXm3oi6xRE1kDe2k=", "properties": {"@spider": "usps_collection_boxes", "addr:city": "MATHISTON", "addr:country": "US", "addr:full": "24784 MS HIGHWAY 15", "addr:postcode": "39752", "addr:state": "MS", "amenity": "post_box", "brand": "United States Postal Service", "brand:wikidata": "Q668687", "collection_times": "Mo-Fr 14:30; Sa 10:00", "name": "USPS COLLECTION BOX - BLUE BOX", "note": "ON 12/24 AND 12/31, THIS BOX MAY BE COLLECTED AS EARLY AS 12 NOON.", "nsi_id": "unitedstatespostalservice-a77078", "operator": "United States Postal Service", "operator:short": "USPS", "operator:type": "public", "operator:wikidata": "Q668687", "ref": "3975200000"}, "type": "Feature"}
{"dataset_attributes": {"@spider": "usps_collection_boxes"}, "geometry": {"coordinates": [-89.124010023, 33.536950016], "type": "Point"}, "id": "HFO6upXQSfK3Z41t6xGXF7_63gg=", "properties": {"@spider": "usps_collection_boxes", "addr:city": "MATHISTON", "addr:country": "US", "addr:full": "24784 MS HIGHWAY 15", "addr:postcode": "39752", "addr:state": "MS", "amenity": "post_box", "brand": "United States Postal Service", "brand:wikidata": "Q668687", "collection_times": "Mo-Fr 14:30; Sa 10:00", "name": "USPS COLLECTION BOX - PO LOBBY", "note": "ON 12/24 AND 12/31, THIS BOX MAY BE COLLECTED AS EARLY AS 12 NOON.", "nsi_id": "unitedstatespostalservice-a77078", "operator": "United States Postal Service", "operator:short": "USPS", "operator:type": "public", "operator:wikidata": "Q668687", "ref": "3975200001"}, "type": "Feature"}
{"dataset_attributes": {"@spider": "usps_collection_boxes"}, "geometry": {"coordinates": [-89.124010023, 33.536950016], "type": "Point"}, "id": "8_HiYtRRBGLomyZJQPspoa76qZ0=", "properties": {"@spider": "usps_collection_boxes", "addr:city": "MATHISTON", "addr:country": "US", "addr:full": "24784 MS HIGHWAY 15", "addr:postcode": "39752", "addr:state": "MS", "amenity": "post_box", "brand": "United States Postal Service", "brand:wikidata": "Q668687", "collection_times": "Mo-Fr 14:30; Sa 10:00", "name": "USPS COLLECTION BOX - PO LOBBY", "note": "ON 12/24 AND 12/31, THIS BOX MAY BE COLLECTED AS EARLY AS 12 NOON.", "nsi_id": "unitedstatespostalservice-a77078", "operator": "United States Postal Service", "operator:short": "USPS", "operator:type": "public", "operator:wikidata": "Q668687", "ref": "3975200002"}, "type": "Feature"}
{"dataset_attributes": {"@spider": "usps_collection_boxes"}, "geometry": {"coordinates": [-88.949579808, 33.586214316], "type": "Point"}, "id": "ewNY5n5W8zQ6hlIUsDAT3RIvZl4=", "properties": {"@spider": "usps_collection_boxes", "addr:city": "PHEBA", "addr:country": "US", "addr:full": "101 N BEASLEY RD", "addr:postcode": "39755", "addr:state": "MS", "amenity": "post_box", "brand": "United States Postal Service", "brand:wikidata": "Q668687", "collection_times": "Mo-Fr 11:30; Sa 10:00", "name": "USPS COLLECTION BOX - BLUE BOX", "nsi_id": "unitedstatespostalservice-a77078", "operator": "United States Postal Service", "operator:short": "USPS", "operator:type": "public", "operator:wikidata": "Q668687", "ref": "3975500000"}, "type": "Feature"}
{"dataset_attributes": {"@spider": "usps_collection_boxes"}, "geometry": {"coordinates": [-88.949579808, 33.586214316], "type": "Point"}, "id": "yOU0fUhaVdqK-4wqiGXUdM5a9Fw=", "properties": {"@spider": "usps_collection_boxes", "addr:city": "PHEBA", "addr:country": "US", "addr:full": "101 N BEASLEY RD", "addr:postcode": "39755", "addr:state": "MS", "amenity": "post_box", "brand": "United States Postal Service", "brand:wikidata": "Q668687", "collection_times": "Mo-Fr 11:30; Sa 10:00", "name": "USPS COLLECTION BOX - PO LOBBY", "nsi_id": "unitedstatespostalservice-a77078", "operator": "United States Postal Service", "operator:short": "USPS", "operator:type": "public", "operator:wikidata": "Q668687", "ref": "3975500001"}, "type": "Feature"}
{"dataset_attributes": {"@spider": "usps_collection_boxes"}, "geometry": {"coordinates": [-88.949579808, 33.586214316], "type": "Point"}, "id": "7096cH7C-qts-GwNUEP-4t_uvMc=", "properties": {"@spider": "usps_collection_boxes", "addr:city": "PHEBA", "addr:country": "US", "addr:full": "101 N BEASLEY RD", "addr:postcode": "39755", "addr:state": "MS", "amenity": "post_box", "brand": "United States Postal Service", "brand:wikidata": "Q668687", "collection_times": "Mo-Fr 11:30; Sa 10:00", "name": "USPS COLLECTION BOX - PO LOBBY", "nsi_id": "unitedstatespostalservice-a77078", "operator": "United States Postal Service", "operator:short": "USPS", "operator:type": "public", "operator:wikidata": "Q668687", "ref": "3975500002"}, "type": "Feature"}
{"dataset_attributes": {"@spider": "usps_collection_boxes"}, "geometry": {"coordinates": [-89.435531242, 33.449640678], "type": "Point"}, "id": "JZGlZ-V7M1VklTAIiAq9DtGeqPg=", "properties": {"@spider": "usps_collection_boxes", "addr:city": "STEWART", "addr:country": "US", "addr:full": "35 CHOCTAW ST", "addr:postcode": "39767", "addr:state": "MS", "amenity": "post_box", "brand": "United States Postal Service", "brand:wikidata": "Q668687", "collection_times": "Mo-Fr 11:30; Sa 09:00", "name": "USPS COLLECTION BOX - BLUE BOX", "nsi_id": "unitedstatespostalservice-a77078", "operator": "United States Postal Service", "operator:short": "USPS", "operator:type": "public", "operator:wikidata": "Q668687", "ref": "3976700001"}, "type": "Feature"}
{"dataset_attributes": {"@spider": "usps_collection_boxes"}, "geometry": {"coordinates": [-89.435531242, 33.449640678], "type": "Point"}, "id": "fENrby27ldwLfXRDLx-Q6OFNnHs=", "properties": {"@spider": "usps_collection_boxes", "addr:city": "STEWART", "addr:country": "US", "addr:full": "35 CHOCTAW ST", "addr:postcode": "39767", "addr:state": "MS", "amenity": "post_box", "brand": "United States Postal Service", "brand:wikidata": "Q668687", "collection_times": "Mo-Fr 11:20; Sa 09:00", "name": "USPS COLLECTION BOX - PO LOBBY", "nsi_id": "unitedstatespostalservice-a77078", "operator": "United States Postal Service", "operator:short": "USPS", "operator:type": "public", "operator:wikidata": "Q668687", "ref": "3976700002"}, "type": "Feature"}
{"dataset_attributes": {"@spider": "usps_collection_boxes"}, "geometry": {"coordinates": [-89.435531242, 33.449640678], "type": "Point"}, "id": "p-M9GEsptWi52AQaNFAnZuBdriY=", "properties": {"@spider": "usps_collection_boxes", "addr:city": "STEWART", "addr:country": "US", "addr:full": "35 CHOCTAW ST", "addr:postcode": "39767", "addr:state": "MS", "amenity": "post_box", "brand": "United States Postal Service", "brand:wikidata": "Q668687", "collection_times": "Mo-Fr 11:30; Sa 09:00", "name": "USPS COLLECTION BOX - PO LOBBY", "nsi_id": "unitedstatespostalservice-a77078", "operator": "United States Postal Service", "operator:short": "USPS", "operator:type": "public", "operator:wikidata": "Q668687", "ref": "3976700003"}, "type": "Feature"}
{"dataset_attributes": {"@spider": "usps_collection_boxes"}, "geometry": {"coordinates": [-89.048968986, 33.343157424], "type": "Point"}, "id": "AOEkW5z-hsne1tJD04LQATFiUHY=", "properties": {"@spider": "usps_collection_boxes", "addr:city": "STURGIS", "addr:country": "US", "addr:full": "2738 HIGHWAY 12 W", "addr:postcode": "39769", "addr:state": "MS", "amenity": "post_box", "brand": "United States Postal Service", "brand:wikidata": "Q668687", "collection_times": "Mo-Fr 15:00", "name": "USPS COLLECTION BOX - BLUE BOX", "note": "ON 12/24 AND 12/31, THIS BOX MAY BE COLLECTED AS EARLY AS 12 NOON.", "nsi_id": "unitedstatespostalservice-a77078", "operator": "United States Postal Service", "operator:short": "USPS", "operator:type": "public", "operator:wikidata": "Q668687", "ref": "3976900000"}, "type": "Feature"}
{"dataset_attributes": {"@spider": "usps_collection_boxes"}, "geometry": {"coordinates": [-89.048968986, 33.343157424], "type": "Point"}, "id": "KI85XTUqcW498jt01PyDMmMK8Z0=", "properties": {"@spider": "usps_collection_boxes", "addr:city": "STURGIS", "addr:country": "US", "addr:full": "2738 HIGHWAY 12 W", "addr:postcode": "39769", "addr:state": "MS", "amenity": "post_box", "brand": "United States Postal Service", "brand:wikidata": "Q668687", "collection_times": "Mo-Fr 15:00; Sa 09:00", "name": "USPS COLLECTION BOX - PO LOBBY", "note": "ON 12/24 AND 12/31, THIS BOX MAY BE COLLECTED AS EARLY AS 12 NOON.", "nsi_id": "unitedstatespostalservice-a77078", "operator": "United States Postal Service", "operator:short": "USPS", "operator:type": "public", "operator:wikidata": "Q668687", "ref": "3976900001"}, "type": "Feature"}
{"dataset_attributes": {"@spider": "usps_collection_boxes"}, "geometry": {"coordinates": [-89.048968986, 33.343157424], "type": "Point"}, "id": "_QCzPjjaJUdu7AYSiW_wkXR2pHM=", "properties": {"@spider": "usps_collection_boxes", "addr:city": "STURGIS", "addr:country": "US", "addr:full": "2738 HIGHWAY 12 W", "addr:postcode": "39769", "addr:state": "MS", "amenity": "post_box", "brand": "United States Postal Service", "brand:wikidata": "Q668687", "collection_times": "Mo-Fr 15:00", "name": "USPS COLLECTION BOX - PO LOBBY", "note": "ON 12/24 AND 12/31, THIS BOX MAY BE COLLECTED AS EARLY AS 12 NOON.", "nsi_id": "unitedstatespostalservice-a77078", "operator": "United States Postal Service", "operator:short": "USPS", "operator:type": "public", "operator:wikidata": "Q668687", "ref": "3976900002"}, "type": "Feature"}
{"dataset_attributes": {"@spider": "usps_collection_boxes"}, "geometry": {"coordinates": [-89.278599978, 33.607799981], "type": "Point"}, "id": "pMFsSKB6gd7W_t-ye5b0bUfn7k0=", "properties": {"@spider": "usps_collection_boxes", "addr:city": "WALTHALL", "addr:country": "US", "addr:full": "57 HISTORICAL ST", "addr:postcode": "39771", "addr:state": "MS", "amenity": "post_box", "brand": "United States Postal Service", "brand:wikidata": "Q668687", "collection_times": "Mo-Fr 15:40; Sa 09:00", "name": "USPS COLLECTION BOX - BLUE BOX", "note": "ON 12/24 AND 12/31, THIS BOX MAY BE COLLECTED AS EARLY AS 12 NOON.", "nsi_id": "unitedstatespostalservice-a77078", "operator": "United States Postal Service", "operator:short": "USPS", "operator:type": "public", "operator:wikidata": "Q668687", "ref": "3977100000"}, "type": "Feature"}
{"dataset_attributes": {"@spider": "usps_collection_boxes"}, "geometry": {"coordinates": [-89.278599978, 33.607799981], "type": "Point"}, "id": "2b_0-OdK5zkQ74inEBuPJ4k7Dco=", "properties": {"@spider": "usps_collection_boxes", "addr:city": "WALTHALL", "addr:country": "US", "addr:full": "57 HISTORICAL ST", "addr:postcode": "39771", "addr:state": "MS", "amenity": "post_box", "brand": "United States Postal Service", "brand:wikidata": "Q668687", "collection_times": "Mo-Fr 16:30", "name": "USPS COLLECTION BOX - PO LOBBY", "note": "ON 12/24 AND 12/31, THIS BOX MAY BE COLLECTED AS EARLY AS 12 NOON.", "nsi_id": "unitedstatespostalservice-a77078", "operator": "United States Postal Service", "operator:short": "USPS", "operator:type": "public", "operator:wikidata": "Q668687", "ref": "3977100001"}, "type": "Feature"}
{"dataset_attributes": {"@spider": "usps_collection_boxes"}, "geometry": {"coordinates": [-89.288769993, 33.266280006], "type": "Point"}, "id": "9wkjKcEpioMe4L2iDF0gt7G-_mM=", "properties": {"@spider": "usps_collection_boxes", "addr:city": "WEIR", "addr:country": "US", "addr:full": "800 MAIN ST", "addr:postcode": "39772", "addr:state": "MS", "amenity": "post_box", "brand": "United States Postal Service", "brand:wikidata": "Q668687", "collection_times": "Mo-Fr 14:00", "name": "USPS COLLECTION BOX - BLUE BOX", "note": "ON 12/24 AND 12/31, THIS BOX MAY BE COLLECTED AS EARLY AS 12 NOON.", "nsi_id": "unitedstatespostalservice-a77078", "operator": "United States Postal Service", "operator:short": "USPS", "operator:type": "public", "operator:wikidata": "Q668687", "ref": "3977200002"}, "type": "Feature"}
{"dataset_attributes": {"@spider": "usps_collection_boxes"}, "geometry": {"coordinates": [-89.288769993, 33.266280006], "type": "Point"}, "id": "WQvOJlr_VoC7PuP9N1QtrywThyQ=", "properties": {"@spider": "usps_collection_boxes", "addr:city": "WEIR", "addr:country": "US", "addr:full": "800 MAIN ST", "addr:postcode": "39772", "addr:state": "MS", "amenity": "post_box", "brand": "United States Postal Service", "brand:wikidata": "Q668687", "collection_times": "Mo-Fr 14:00", "name": "USPS COLLECTION BOX - PO LOBBY", "note": "ON 12/24 AND 12/31, THIS BOX MAY BE COLLECTED AS EARLY AS 12 NOON.", "nsi_id": "unitedstatespostalservice-a77078", "operator": "United States Postal Service", "operator:short": "USPS", "operator:type": "public", "operator:wikidata": "Q668687", "ref": "3977200003"}, "type": "Feature"}
{"dataset_attributes": {"@spider": "usps_collection_boxes"}, "geometry": {"coordinates": [-89.051580413, 33.777764915], "type": "Point"}, "id": "dKYrBiPtdl5t4OrZ5OQdaaeDEPU=", "properties": {"@spider": "usps_collection_boxes", "addr:city": "WOODLAND", "addr:country": "US", "addr:full": "109 MARKET ST", "addr:postcode": "39776", "addr:state": "MS", "amenity": "post_box", "brand": "United States Postal Service", "brand:wikidata": "Q668687", "collection_times": "Mo-Fr 15:00", "name": "USPS COLLECTION BOX - BLUE BOX", "note": "ON 12/24 AND 12/31, THIS BOX MAY BE COLLECTED AS EARLY AS 12 NOON.", "nsi_id": "unitedstatespostalservice-a77078", "operator": "United States Postal Service", "operator:short": "USPS", "operator:type": "public", "operator:wikidata": "Q668687", "ref": "3977600000"}, "type": "Feature"}
{"dataset_attributes": {"@spider": "usps_collection_boxes"}, "geometry": {"coordinates": [-89.051580413, 33.777764915], "type": "Point"}, "id": "TiEyk4rqKoHkwE3W2EDFr29IqqA=", "properties": {"@spider": "usps_collection_boxes", "addr:city": "WOODLAND", "addr:country": "US", "addr:full": "109 MARKET ST", "addr:postcode": "39776", "addr:state": "MS", "amenity": "post_box", "brand": "United States Postal Service", "brand:wikidata": "Q668687", "collection_times": "Mo-Fr 15:00", "name": "USPS COLLECTION BOX - PO LOBBY", "note": "ON 12/24 AND 12/31, THIS BOX MAY BE COLLECTED AS EARLY AS 12 NOON.", "nsi_id": "unitedstatespostalservice-a77078", "operator": "United States Postal Service", "operator:short": "USPS", "operator:type": "public", "operator:wikidata": "Q668687", "ref": "3977600002"}, "type": "Feature"}
