{"geometry": {"coordinates": [-84.7261004899, 31.4393263683], "type": "Point"}, "id": "Mw8_Ljrz6URX7OLZqVP8H2T9U7k=", "properties": {"@spider": "usps_collection_boxes", "addr:city": "ARLINGTON", "addr:country": "US", "addr:full": "58 LAUREL AVE NW", "addr:postcode": "39813", "addr:state": "GA", "amenity": "post_box", "brand": "United States Postal Service", "brand:wikidata": "Q668687", "collection_times": "Mo-Fr 16:30; Sa 11:00", "name": "USPS COLLECTION BOX - BLUE BOX", "note": "ON 12/24 AND 12/31, THIS BOX MAY BE COLLECTED AS EARLY AS 12 NOON.", "nsi_id": "unitedstatespostalservice-a77078", "operator": "United States Postal Service", "operator:short": "USPS", "operator:type": "public", "operator:wikidata": "Q668687", "ref": "3981300000"}, "type": "Feature"}
{"geometry": {"coordinates": [-84.725985406, 31.439705922], "type": "Point"}, "id": "pl2qnKUaJCkIttSNB0NllsgVuQ0=", "properties": {"@spider": "usps_collection_boxes", "addr:city": "ARLINGTON", "addr:country": "US", "addr:full": "438 PIONEER RD NW", "addr:postcode": "39813", "addr:state": "GA", "amenity": "post_box", "brand": "United States Postal Service", "brand:wikidata": "Q668687", "collection_times": "Mo-Fr 16:30; Sa 11:00", "name": "USPS COLLECTION BOX - PO LOBBY", "note": "ON 12/24 AND 12/31, THIS BOX MAY BE COLLECTED AS EARLY AS 12 NOON.", "nsi_id": "unitedstatespostalservice-a77078", "operator": "United States Postal Service", "operator:short": "USPS", "operator:type": "public", "operator:wikidata": "Q668687", "ref": "3981300001"}, "type": "Feature"}
{"geometry": {"coordinates": [-84.725985406, 31.439705922], "type": "Point"}, "id": "KQYXQTT-9dGQTXMMc1ENiCC9pMo=", "properties": {"@spider": "usps_collection_boxes", "addr:city": "ARLINGTON", "addr:country": "US", "addr:full": "438 PIONEER RD NW", "addr:postcode": "39813", "addr:state": "GA", "amenity": "post_box", "brand": "United States Postal Service", "brand:wikidata": "Q668687", "collection_times": "Mo-Fr 16:30; Sa 11:00", "name": "USPS COLLECTION BOX - PO LOBBY", "note": "ON 12/24 AND 12/31, THIS BOX MAY BE COLLECTED AS EARLY AS 12 NOON.", "nsi_id": "unitedstatespostalservice-a77078", "operator": "United States Postal Service", "operator:short": "USPS", "operator:type": "public", "operator:wikidata": "Q668687", "ref": "3981300003"}, "type": "Feature"}
{"geometry": {"coordinates": [-84.485473383, 30.749015422], "type": "Point"}, "id": "bUinlML8GyDtUiXrgyBJv8eoNYA=", "properties": {"@spider": "usps_collection_boxes", "addr:city": "ATTAPULGUS", "addr:country": "US", "addr:full": "208 E GRIFFIN AVE", "addr:postcode": "39815", "addr:state": "GA", "amenity": "post_box", "brand": "United States Postal Service", "brand:wikidata": "Q668687", "collection_times": "Mo-Fr 12:30; Sa 10:30", "name": "USPS COLLECTION BOX - BLUE BOX", "note": "ON 12/24 AND 12/31, THIS BOX MAY BE COLLECTED AS EARLY AS 12 NOON.", "nsi_id": "unitedstatespostalservice-a77078", "operator": "United States Postal Service", "operator:short": "USPS", "operator:type": "public", "operator:wikidata": "Q668687", "ref": "3981500000"}, "type": "Feature"}
{"geometry": {"coordinates": [-84.485473383, 30.749015422], "type": "Point"}, "id": "mVhZsEXmoz7QrzBML2wjEID6vG8=", "properties": {"@spider": "usps_collection_boxes", "addr:city": "ATTAPULGUS", "addr:country": "US", "addr:full": "208 E GRIFFIN AVE", "addr:postcode": "39815", "addr:state": "GA", "amenity": "post_box", "brand": "United States Postal Service", "brand:wikidata": "Q668687", "collection_times": "Mo-Fr 12:30; Sa 10:30", "name": "USPS COLLECTION BOX - PO LOBBY", "note": "ON 12/24 AND 12/31, THIS BOX MAY BE COLLECTED AS EARLY AS 12 NOON.", "nsi_id": "unitedstatespostalservice-a77078", "operator": "United States Postal Service", "operator:short": "USPS", "operator:type": "public", "operator:wikidata": "Q668687", "ref": "3981500001"}, "type": "Feature"}
{"geometry": {"coordinates": [-84.485473383, 30.749015422], "type": "Point"}, "id": "LQW-ALVzGn_OdoGsKsewQy7vCPE=", "properties": {"@spider": "usps_collection_boxes", "addr:city": "ATTAPULGUS", "addr:country": "US", "addr:full": "208 E GRIFFIN AVE", "addr:postcode": "39815", "addr:state": "GA", "amenity": "post_box", "brand": "United States Postal Service", "brand:wikidata": "Q668687", "collection_times": "Mo-Fr 12:30; Sa 10:30", "name": "USPS COLLECTION BOX - PO LOBBY", "note": "ON 12/24 AND 12/31, THIS BOX MAY BE COLLECTED AS EARLY AS 12 NOON.", "nsi_id": "unitedstatespostalservice-a77078", "operator": "United States Postal Service", "operator:short": "USPS", "operator:type": "public", "operator:wikidata": "Q668687", "ref": "3981500003"}, "type": "Feature"}
{"geometry": {"coordinates": [-84.5671, 30.911425], "type": "Point"}, "id": "4DsP61tDyoJre4ZaSqkDZgPm1NQ=", "properties": {"@spider": "usps_collection_boxes", "addr:city": "BAINBRIDGE", "addr:country": "US", "addr:full": "401 N WEST ST", "addr:postcode": "39817", "addr:state": "GA", "amenity": "post_box", "brand": "United States Postal Service", "brand:wikidata": "Q668687", "collection_times": "Mo-Sa 17:00", "name": "USPS COLLECTION BOX - BLUE BOX", "note": "ON 12/24 AND 12/31, THIS BOX MAY BE COLLECTED AS EARLY AS 12 NOON.", "nsi_id": "unitedstatespostalservice-a77078", "operator": "United States Postal Service", "operator:short": "USPS", "operator:type": "public", "operator:wikidata": "Q668687", "ref": "3981700000"}, "type": "Feature"}
{"geometry": {"coordinates": [-84.5671, 30.911425], "type": "Point"}, "id": "8MsWsgZbduAsX0qz49D8Q2seQug=", "properties": {"@spider": "usps_collection_boxes", "addr:city": "BAINBRIDGE", "addr:country": "US", "addr:full": "401 N WEST ST", "addr:postcode": "39817", "addr:state": "GA", "amenity": "post_box", "brand": "United States Postal Service", "brand:wikidata": "Q668687", "collection_times": "Mo-Sa 17:00", "name": "USPS COLLECTION BOX - PO LOBBY", "note": "ON 12/24 AND 12/31, THIS BOX MAY BE COLLECTED AS EARLY AS 12 NOON.", "nsi_id": "unitedstatespostalservice-a77078", "operator": "United States Postal Service", "operator:short": "USPS", "operator:type": "public", "operator:wikidata": "Q668687", "ref": "3981700018"}, "type": "Feature"}
{"geometry": {"coordinates": [-84.575584035, 30.905762535], "type": "Point"}, "id": "7zBANStvwIKwSLANuN-kREW2u1E=", "properties": {"@spider": "usps_collection_boxes", "addr:city": "BAINBRIDGE", "addr:country": "US", "addr:full": "101 S BROAD ST", "addr:postcode": "39817", "addr:state": "GA", "amenity": "post_box", "brand": "United States Postal Service", "brand:wikidata": "Q668687", "collection_times": "Mo-Fr 12:00; Sa 10:00", "name": "USPS COLLECTION BOX - BLUE BOX", "nsi_id": "unitedstatespostalservice-a77078", "operator": "United States Postal Service", "operator:short": "USPS", "operator:type": "public", "operator:wikidata": "Q668687", "ref": "3981700022"}, "type": "Feature"}
{"geometry": {"coordinates": [-84.576550083, 30.906588778], "type": "Point"}, "id": "L0ZjWcdMUCTX-7RLyqKy9bq1ejE=", "properties": {"@spider": "usps_collection_boxes", "addr:city": "BAINBRIDGE", "addr:country": "US", "addr:full": "102 W WATER ST", "addr:postcode": "39817", "addr:state": "GA", "amenity": "post_box", "brand": "United States Postal Service", "brand:wikidata": "Q668687", "collection_times": "Mo-Fr 12:00; Sa 10:00", "name": "USPS COLLECTION BOX - BLUE BOX", "nsi_id": "unitedstatespostalservice-a77078", "operator": "United States Postal Service", "operator:short": "USPS", "operator:type": "public", "operator:wikidata": "Q668687", "ref": "3981700023"}, "type": "Feature"}
{"geometry": {"coordinates": [-84.576541237, 30.905772316], "type": "Point"}, "id": "TFbTkdQu3tAWMG5W9ULRsYuimHc=", "properties": {"@spider": "usps_collection_boxes", "addr:city": "BAINBRIDGE", "addr:country": "US", "addr:full": "100 S WEST ST", "addr:postcode": "39817", "addr:state": "GA", "amenity": "post_box", "brand": "United States Postal Service", "brand:wikidata": "Q668687", "collection_times": "Mo-Fr 12:00; Sa 10:00", "name": "USPS COLLECTION BOX - BLUE BOX", "nsi_id": "unitedstatespostalservice-a77078", "operator": "United States Postal Service", "operator:short": "USPS", "operator:type": "public", "operator:wikidata": "Q668687", "ref": "3981700024"}, "type": "Feature"}
{"geometry": {"coordinates": [-84.5671, 30.911425], "type": "Point"}, "id": "6lHhSgSeIfm4wJUJWfkEDhIdP78=", "properties": {"@spider": "usps_collection_boxes", "addr:city": "BAINBRIDGE", "addr:country": "US", "addr:full": "401 N WEST ST", "addr:postcode": "39817", "addr:state": "GA", "amenity": "post_box", "brand": "United States Postal Service", "brand:wikidata": "Q668687", "collection_times": "Mo-Sa 17:00", "name": "USPS COLLECTION BOX - PO LOBBY", "note": "ON 12/24 AND 12/31, THIS BOX MAY BE COLLECTED AS EARLY AS 12 NOON.", "nsi_id": "unitedstatespostalservice-a77078", "operator": "United States Postal Service", "operator:short": "USPS", "operator:type": "public", "operator:wikidata": "Q668687", "ref": "3981700025"}, "type": "Feature"}
{"geometry": {"coordinates": [-84.567840157, 30.90169626], "type": "Point"}, "id": "E9h7oDX5WhFs-l-9MLDCEsWQ9cw=", "properties": {"@spider": "usps_collection_boxes", "addr:city": "BAINBRIDGE", "addr:country": "US", "addr:full": "517 S SCOTT ST", "addr:postcode": "39819", "addr:state": "GA", "amenity": "post_box", "brand": "United States Postal Service", "brand:wikidata": "Q668687", "collection_times": "Mo-Fr 12:00; Sa 10:00", "name": "USPS COLLECTION BOX - BLUE BOX", "nsi_id": "unitedstatespostalservice-a77078", "operator": "United States Postal Service", "operator:short": "USPS", "operator:type": "public", "operator:wikidata": "Q668687", "ref": "3981900000"}, "type": "Feature"}
{"geometry": {"coordinates": [-84.552958367, 30.90389256], "type": "Point"}, "id": "h7Ym9QDjz-7KClgtJ-4fT4zhGLQ=", "properties": {"@spider": "usps_collection_boxes", "addr:city": "BAINBRIDGE", "addr:country": "US", "addr:full": "1509 E SHOTWELL ST", "addr:postcode": "39819", "addr:state": "GA", "amenity": "post_box", "brand": "United States Postal Service", "brand:wikidata": "Q668687", "collection_times": "Mo-Fr 12:00; Sa 10:00", "name": "USPS COLLECTION BOX - BLUE BOX", "nsi_id": "unitedstatespostalservice-a77078", "operator": "United States Postal Service", "operator:short": "USPS", "operator:type": "public", "operator:wikidata": "Q668687", "ref": "3981900002"}, "type": "Feature"}
{"geometry": {"coordinates": [-84.934136177, 31.376105476], "type": "Point"}, "id": "pWc0zJxEhdkaN_8mkAexPo-Dvh8=", "properties": {"@spider": "usps_collection_boxes", "addr:city": "BLAKELY", "addr:country": "US", "addr:full": "2243 S MAIN ST", "addr:postcode": "39823", "addr:state": "GA", "amenity": "post_box", "brand": "United States Postal Service", "brand:wikidata": "Q668687", "collection_times": "Mo-Fr 16:30; Sa 12:00", "name": "USPS COLLECTION BOX - PO LOBBY", "note": "ON 12/24 AND 12/31, THIS BOX MAY BE COLLECTED AS EARLY AS 12 NOON.", "nsi_id": "unitedstatespostalservice-a77078", "operator": "United States Postal Service", "operator:short": "USPS", "operator:type": "public", "operator:wikidata": "Q668687", "ref": "3982300001"}, "type": "Feature"}
{"geometry": {"coordinates": [-84.933458813, 31.377392413], "type": "Point"}, "id": "DG807Dam05of7hfIMlkpzcDkXyw=", "properties": {"@spider": "usps_collection_boxes", "addr:city": "BLAKELY", "addr:country": "US", "addr:full": "42 COURT SQ", "addr:postcode": "39823", "addr:state": "GA", "amenity": "post_box", "brand": "United States Postal Service", "brand:wikidata": "Q668687", "collection_times": "Mo-Fr 16:15; Sa 12:00", "name": "USPS COLLECTION BOX - BLUE BOX", "note": "ON 12/24 AND 12/31, THIS BOX MAY BE COLLECTED AS EARLY AS 12 NOON.", "nsi_id": "unitedstatespostalservice-a77078", "operator": "United States Postal Service", "operator:short": "USPS", "operator:type": "public", "operator:wikidata": "Q668687", "ref": "3982300003"}, "type": "Feature"}
{"geometry": {"coordinates": [-84.934143163, 31.375817476], "type": "Point"}, "id": "aACZFS9Hc6Uu2IOaku-2brtT7Zo=", "properties": {"@spider": "usps_collection_boxes", "addr:city": "BLAKELY", "addr:country": "US", "addr:full": "2213 S MAIN ST", "addr:postcode": "39823", "addr:state": "GA", "amenity": "post_box", "brand": "United States Postal Service", "brand:wikidata": "Q668687", "collection_times": "Mo-Fr 16:30; Sa 12:00", "name": "USPS COLLECTION BOX - BLUE BOX", "note": "ON 12/24 AND 12/31, THIS BOX MAY BE COLLECTED AS EARLY AS 12 NOON.", "nsi_id": "unitedstatespostalservice-a77078", "operator": "United States Postal Service", "operator:short": "USPS", "operator:type": "public", "operator:wikidata": "Q668687", "ref": "3982300004"}, "type": "Feature"}
{"geometry": {"coordinates": [-84.934136177, 31.376105476], "type": "Point"}, "id": "uhDS_R58upVR74IMuJvalYUHIY4=", "properties": {"@spider": "usps_collection_boxes", "addr:city": "BLAKELY", "addr:country": "US", "addr:full": "2243 S MAIN ST", "addr:postcode": "39823", "addr:state": "GA", "amenity": "post_box", "brand": "United States Postal Service", "brand:wikidata": "Q668687", "collection_times": "Mo-Fr 16:30; Sa 12:00", "name": "USPS COLLECTION BOX - PO LOBBY", "note": "ON 12/24 AND 12/31, THIS BOX MAY BE COLLECTED AS EARLY AS 12 NOON.", "nsi_id": "unitedstatespostalservice-a77078", "operator": "United States Postal Service", "operator:short": "USPS", "operator:type": "public", "operator:wikidata": "Q668687", "ref": "3982300008"}, "type": "Feature"}
{"geometry": {"coordinates": [-84.86621407, 31.522047569], "type": "Point"}, "id": "SlOYfdOlLunHd6h5HnehP-BMu8o=", "properties": {"@spider": "usps_collection_boxes", "addr:city": "BLUFFTON", "addr:country": "US", "addr:full": "105 PINE ST N", "addr:postcode": "39824", "addr:state": "GA", "amenity": "post_box", "brand": "United States Postal Service", "brand:wikidata": "Q668687", "collection_times": "Mo-Fr 12:30; Sa 10:30", "name": "USPS COLLECTION BOX - BLUE BOX", "note": "ON 12/24 AND 12/31, THIS BOX MAY BE COLLECTED AS EARLY AS 12 NOON.", "nsi_id": "unitedstatespostalservice-a77078", "operator": "United States Postal Service", "operator:short": "USPS", "operator:type": "public", "operator:wikidata": "Q668687", "ref": "3982400000"}, "type": "Feature"}
{"geometry": {"coordinates": [-84.86621407, 31.522047569], "type": "Point"}, "id": "VHM1sagFlwOOiyN5zAxryStjMfM=", "properties": {"@spider": "usps_collection_boxes", "addr:city": "BLUFFTON", "addr:country": "US", "addr:full": "105 PINE ST N", "addr:postcode": "39824", "addr:state": "GA", "amenity": "post_box", "brand": "United States Postal Service", "brand:wikidata": "Q668687", "collection_times": "Mo-Fr 12:30; Sa 10:30", "name": "USPS COLLECTION BOX - PO LOBBY", "note": "ON 12/24 AND 12/31, THIS BOX MAY BE COLLECTED AS EARLY AS 12 NOON.", "nsi_id": "unitedstatespostalservice-a77078", "operator": "United States Postal Service", "operator:short": "USPS", "operator:type": "public", "operator:wikidata": "Q668687", "ref": "3982400001"}, "type": "Feature"}
{"geometry": {"coordinates": [-84.86621407, 31.522047569], "type": "Point"}, "id": "WgHk9ZDAG9Jd-Q0E9xc2UL_oosA=", "properties": {"@spider": "usps_collection_boxes", "addr:city": "BLUFFTON", "addr:country": "US", "addr:full": "105 PINE ST N", "addr:postcode": "39824", "addr:state": "GA", "amenity": "post_box", "brand": "United States Postal Service", "brand:wikidata": "Q668687", "collection_times": "Mo-Fr 12:30; Sa 10:30", "name": "USPS COLLECTION BOX - PO LOBBY", "note": "ON 12/24 AND 12/31, THIS BOX MAY BE COLLECTED AS EARLY AS 12 NOON.", "nsi_id": "unitedstatespostalservice-a77078", "operator": "United States Postal Service", "operator:short": "USPS", "operator:type": "public", "operator:wikidata": "Q668687", "ref": "3982400003"}, "type": "Feature"}
{"geometry": {"coordinates": [-84.736697304, 30.980525988], "type": "Point"}, "id": "yQglzyVxXnGcGz43q7j2webvLQM=", "properties": {"@spider": "usps_collection_boxes", "addr:city": "BRINSON", "addr:country": "US", "addr:full": "122 RUTHERFORD ST", "addr:postcode": "39825", "addr:state": "GA", "amenity": "post_box", "brand": "United States Postal Service", "brand:wikidata": "Q668687", "collection_times": "Mo-Fr 12:00; Sa 10:45", "name": "USPS COLLECTION BOX - BLUE BOX", "nsi_id": "unitedstatespostalservice-a77078", "operator": "United States Postal Service", "operator:short": "USPS", "operator:type": "public", "operator:wikidata": "Q668687", "ref": "3982500000"}, "type": "Feature"}
{"geometry": {"coordinates": [-84.736697304, 30.980525988], "type": "Point"}, "id": "vDcLYZLTyRm7m_BcM9jjv8ivrTo=", "properties": {"@spider": "usps_collection_boxes", "addr:city": "BRINSON", "addr:country": "US", "addr:full": "122 RUTHERFORD ST", "addr:postcode": "39825", "addr:state": "GA", "amenity": "post_box", "brand": "United States Postal Service", "brand:wikidata": "Q668687", "collection_times": "Mo-Fr 12:00; Sa 10:45", "name": "USPS COLLECTION BOX - PO LOBBY", "nsi_id": "unitedstatespostalservice-a77078", "operator": "United States Postal Service", "operator:short": "USPS", "operator:type": "public", "operator:wikidata": "Q668687", "ref": "3982500001"}, "type": "Feature"}
{"geometry": {"coordinates": [-84.736697304, 30.980525988], "type": "Point"}, "id": "1UOqUS5P78lOfoIRytOzdBECOVo=", "properties": {"@spider": "usps_collection_boxes", "addr:city": "BRINSON", "addr:country": "US", "addr:full": "122 RUTHERFORD ST", "addr:postcode": "39825", "addr:state": "GA", "amenity": "post_box", "brand": "United States Postal Service", "brand:wikidata": "Q668687", "collection_times": "Mo-Fr 12:00; Sa 10:45", "name": "USPS COLLECTION BOX - PO LOBBY", "nsi_id": "unitedstatespostalservice-a77078", "operator": "United States Postal Service", "operator:short": "USPS", "operator:type": "public", "operator:wikidata": "Q668687", "ref": "3982500003"}, "type": "Feature"}
{"geometry": {"coordinates": [-84.364351936, 31.830502342], "type": "Point"}, "id": "X0hF4ZwTUEYclesqRpD3ZRuXY2U=", "properties": {"@spider": "usps_collection_boxes", "addr:city": "BRONWOOD", "addr:country": "US", "addr:full": "122 GEISE ST S", "addr:postcode": "39826", "addr:state": "GA", "amenity": "post_box", "brand": "United States Postal Service", "brand:wikidata": "Q668687", "collection_times": "Mo-Fr 13:00; Sa 14:00", "name": "USPS COLLECTION BOX - BLUE BOX", "note": "ON 12/24 AND 12/31, THIS BOX MAY BE COLLECTED AS EARLY AS 12 NOON.", "nsi_id": "unitedstatespostalservice-a77078", "operator": "United States Postal Service", "operator:short": "USPS", "operator:type": "public", "operator:wikidata": "Q668687", "ref": "3982600000"}, "type": "Feature"}
{"geometry": {"coordinates": [-84.364351936, 31.830502342], "type": "Point"}, "id": "5OfXVUeXML9crAO_cA_tZJ-yulI=", "properties": {"@spider": "usps_collection_boxes", "addr:city": "BRONWOOD", "addr:country": "US", "addr:full": "122 GEISE ST S", "addr:postcode": "39826", "addr:state": "GA", "amenity": "post_box", "brand": "United States Postal Service", "brand:wikidata": "Q668687", "collection_times": "Mo-Fr 12:45; Sa 14:00", "name": "USPS COLLECTION BOX - PO LOBBY", "note": "ON 12/24 AND 12/31, THIS BOX MAY BE COLLECTED AS EARLY AS 12 NOON.", "nsi_id": "unitedstatespostalservice-a77078", "operator": "United States Postal Service", "operator:short": "USPS", "operator:type": "public", "operator:wikidata": "Q668687", "ref": "3982600001"}, "type": "Feature"}
{"geometry": {"coordinates": [-84.364351936, 31.830502342], "type": "Point"}, "id": "u-0ahnC1Ae1OoiuXFSXTiCbantg=", "properties": {"@spider": "usps_collection_boxes", "addr:city": "BRONWOOD", "addr:country": "US", "addr:full": "122 GEISE ST S", "addr:postcode": "39826", "addr:state": "GA", "amenity": "post_box", "brand": "United States Postal Service", "brand:wikidata": "Q668687", "collection_times": "Mo-Fr 12:45; Sa 14:00", "name": "USPS COLLECTION BOX - PO LOBBY", "note": "ON 12/24 AND 12/31, THIS BOX MAY BE COLLECTED AS EARLY AS 12 NOON.", "nsi_id": "unitedstatespostalservice-a77078", "operator": "United States Postal Service", "operator:short": "USPS", "operator:type": "public", "operator:wikidata": "Q668687", "ref": "3982600002"}, "type": "Feature"}
{"geometry": {"coordinates": [-84.209050035, 30.876666116], "type": "Point"}, "id": "XrYUYz_GRmUVNnIKpyTegBr4RhI=", "properties": {"@spider": "usps_collection_boxes", "addr:city": "CAIRO", "addr:country": "US", "addr:full": "110 1ST ST SW", "addr:postcode": "39828", "addr:state": "GA", "amenity": "post_box", "brand": "United States Postal Service", "brand:wikidata": "Q668687", "collection_times": "Mo-Fr 16:30; Sa 12:00", "name": "USPS COLLECTION BOX - BLUE BOX", "note": "ON 12/24 AND 12/31, THIS BOX MAY BE COLLECTED AS EARLY AS 12 NOON.", "nsi_id": "unitedstatespostalservice-a77078", "operator": "United States Postal Service", "operator:short": "USPS", "operator:type": "public", "operator:wikidata": "Q668687", "ref": "3982800000"}, "type": "Feature"}
{"geometry": {"coordinates": [-84.209050035, 30.876666116], "type": "Point"}, "id": "lDeYAjWYLqc7zmQbRxykMXNQ2oM=", "properties": {"@spider": "usps_collection_boxes", "addr:city": "CAIRO", "addr:country": "US", "addr:full": "110 1ST ST SW", "addr:postcode": "39828", "addr:state": "GA", "amenity": "post_box", "brand": "United States Postal Service", "brand:wikidata": "Q668687", "collection_times": "Mo-Fr 16:30; Sa 12:00", "name": "USPS COLLECTION BOX - PO LOBBY", "note": "ON 12/24 AND 12/31, THIS BOX MAY BE COLLECTED AS EARLY AS 12 NOON.", "nsi_id": "unitedstatespostalservice-a77078", "operator": "United States Postal Service", "operator:short": "USPS", "operator:type": "public", "operator:wikidata": "Q668687", "ref": "3982800006"}, "type": "Feature"}
{"geometry": {"coordinates": [-84.209050035, 30.876666116], "type": "Point"}, "id": "_YIVwNU6JhadZoeIZmQjJmVL2bI=", "properties": {"@spider": "usps_collection_boxes", "addr:city": "CAIRO", "addr:country": "US", "addr:full": "110 1ST ST SW", "addr:postcode": "39828", "addr:state": "GA", "amenity": "post_box", "brand": "United States Postal Service", "brand:wikidata": "Q668687", "collection_times": "Mo-Fr 16:30; Sa 12:00", "name": "USPS COLLECTION BOX - PO LOBBY", "note": "ON 12/24 AND 12/31, THIS BOX MAY BE COLLECTED AS EARLY AS 12 NOON.", "nsi_id": "unitedstatespostalservice-a77078", "operator": "United States Postal Service", "operator:short": "USPS", "operator:type": "public", "operator:wikidata": "Q668687", "ref": "3982800011"}, "type": "Feature"}
{"geometry": {"coordinates": [-84.346471547, 30.728021749], "type": "Point"}, "id": "itlDEqAexFJ59x5XjLmeJR-bfBk=", "properties": {"@spider": "usps_collection_boxes", "addr:city": "CALVARY", "addr:country": "US", "addr:full": "6468 GA HIGHWAY 111 S", "addr:postcode": "39829", "addr:state": "GA", "amenity": "post_box", "brand": "United States Postal Service", "brand:wikidata": "Q668687", "collection_times": "Mo-Fr 12:30; Sa 10:30", "name": "USPS COLLECTION BOX - BLUE BOX", "note": "ON 12/24 AND 12/31, THIS BOX MAY BE COLLECTED AS EARLY AS 12 NOON.", "nsi_id": "unitedstatespostalservice-a77078", "operator": "United States Postal Service", "operator:short": "USPS", "operator:type": "public", "operator:wikidata": "Q668687", "ref": "3982900000"}, "type": "Feature"}
{"geometry": {"coordinates": [-84.346471547, 30.728021749], "type": "Point"}, "id": "mK9YMTfQ503tC06INaxd2al2mAE=", "properties": {"@spider": "usps_collection_boxes", "addr:city": "CALVARY", "addr:country": "US", "addr:full": "6468 GA HIGHWAY 111 S", "addr:postcode": "39829", "addr:state": "GA", "amenity": "post_box", "brand": "United States Postal Service", "brand:wikidata": "Q668687", "collection_times": "Mo-Fr 12:30; Sa 10:30", "name": "USPS COLLECTION BOX - PO LOBBY", "note": "ON 12/24 AND 12/31, THIS BOX MAY BE COLLECTED AS EARLY AS 12 NOON.", "nsi_id": "unitedstatespostalservice-a77078", "operator": "United States Postal Service", "operator:short": "USPS", "operator:type": "public", "operator:wikidata": "Q668687", "ref": "3982900001"}, "type": "Feature"}
{"geometry": {"coordinates": [-84.346471547, 30.728021749], "type": "Point"}, "id": "fWoW6A4ryyxbc5lnr85X_k3eIOY=", "properties": {"@spider": "usps_collection_boxes", "addr:city": "CALVARY", "addr:country": "US", "addr:full": "6468 GA HIGHWAY 111 S", "addr:postcode": "39829", "addr:state": "GA", "amenity": "post_box", "brand": "United States Postal Service", "brand:wikidata": "Q668687", "collection_times": "Mo-Fr 12:30; Sa 10:30", "name": "USPS COLLECTION BOX - PO LOBBY", "note": "ON 12/24 AND 12/31, THIS BOX MAY BE COLLECTED AS EARLY AS 12 NOON.", "nsi_id": "unitedstatespostalservice-a77078", "operator": "United States Postal Service", "operator:short": "USPS", "operator:type": "public", "operator:wikidata": "Q668687", "ref": "3982900002"}, "type": "Feature"}
{"geometry": {"coordinates": [-85.036690894, 31.183901361], "type": "Point"}, "id": "H6-UTb4KAEzoPSxKTKSmOqjCYIA=", "properties": {"@spider": "usps_collection_boxes", "addr:city": "CEDAR SPRINGS", "addr:country": "US", "addr:full": "21 SHEFFIELD ST", "addr:postcode": "39832", "addr:state": "GA", "amenity": "post_box", "brand": "United States Postal Service", "brand:wikidata": "Q668687", "collection_times": "Mo-Fr 15:45; Sa 14:15", "name": "USPS COLLECTION BOX - BLUE BOX", "note": "ON 12/24 AND 12/31, THIS BOX MAY BE COLLECTED AS EARLY AS 12 NOON.", "nsi_id": "unitedstatespostalservice-a77078", "operator": "United States Postal Service", "operator:short": "USPS", "operator:type": "public", "operator:wikidata": "Q668687", "ref": "3983200000"}, "type": "Feature"}
{"geometry": {"coordinates": [-85.036690894, 31.183901361], "type": "Point"}, "id": "tMMm8jl_aevW2UyVefeQ4L7a2gA=", "properties": {"@spider": "usps_collection_boxes", "addr:city": "CEDAR SPRINGS", "addr:country": "US", "addr:full": "21 SHEFFIELD ST", "addr:postcode": "39832", "addr:state": "GA", "amenity": "post_box", "brand": "United States Postal Service", "brand:wikidata": "Q668687", "collection_times": "Mo-Fr 15:45; Sa 14:15", "name": "USPS COLLECTION BOX - PO LOBBY", "note": "ON 12/24 AND 12/31, THIS BOX MAY BE COLLECTED AS EARLY AS 12 NOON.", "nsi_id": "unitedstatespostalservice-a77078", "operator": "United States Postal Service", "operator:short": "USPS", "operator:type": "public", "operator:wikidata": "Q668687", "ref": "3983200001"}, "type": "Feature"}
{"geometry": {"coordinates": [-85.036690894, 31.183901361], "type": "Point"}, "id": "evLPDhcz6jSQMlKAJG0juJIJvJU=", "properties": {"@spider": "usps_collection_boxes", "addr:city": "CEDAR SPRINGS", "addr:country": "US", "addr:full": "21 SHEFFIELD ST", "addr:postcode": "39832", "addr:state": "GA", "amenity": "post_box", "brand": "United States Postal Service", "brand:wikidata": "Q668687", "collection_times": "Mo-Fr 15:45; Sa 14:15", "name": "USPS COLLECTION BOX - PO LOBBY", "note": "ON 12/24 AND 12/31, THIS BOX MAY BE COLLECTED AS EARLY AS 12 NOON.", "nsi_id": "unitedstatespostalservice-a77078", "operator": "United States Postal Service", "operator:short": "USPS", "operator:type": "public", "operator:wikidata": "Q668687", "ref": "3983200002"}, "type": "Feature"}
{"geometry": {"coordinates": [-84.431413885, 30.876189344], "type": "Point"}, "id": "5oPPz3DWSgzaxZ7mwahRj5Nmuug=", "properties": {"@spider": "usps_collection_boxes", "addr:city": "CLIMAX", "addr:country": "US", "addr:full": "102 W BROAD ST", "addr:postcode": "39834", "addr:state": "GA", "amenity": "post_box", "brand": "United States Postal Service", "brand:wikidata": "Q668687", "collection_times": "Mo-Fr 15:45; Sa 10:45", "name": "USPS COLLECTION BOX - BLUE BOX", "note": "ON 12/24 AND 12/31, THIS BOX MAY BE COLLECTED AS EARLY AS 12 NOON.", "nsi_id": "unitedstatespostalservice-a77078", "operator": "United States Postal Service", "operator:short": "USPS", "operator:type": "public", "operator:wikidata": "Q668687", "ref": "3983400003"}, "type": "Feature"}
{"geometry": {"coordinates": [-84.431413885, 30.876189344], "type": "Point"}, "id": "55VEeRcU7Rma0IaQGDKK7KY0jx0=", "properties": {"@spider": "usps_collection_boxes", "addr:city": "CLIMAX", "addr:country": "US", "addr:full": "102 W BROAD ST", "addr:postcode": "39834", "addr:state": "GA", "amenity": "post_box", "brand": "United States Postal Service", "brand:wikidata": "Q668687", "collection_times": "Mo-Fr 15:45; Sa 10:45", "name": "USPS COLLECTION BOX - PO LOBBY", "note": "ON 12/24 AND 12/31, THIS BOX MAY BE COLLECTED AS EARLY AS 12 NOON.", "nsi_id": "unitedstatespostalservice-a77078", "operator": "United States Postal Service", "operator:short": "USPS", "operator:type": "public", "operator:wikidata": "Q668687", "ref": "3983400004"}, "type": "Feature"}
{"geometry": {"coordinates": [-84.431413885, 30.876189344], "type": "Point"}, "id": "fAQqkpxXk4bY_KKkIuV73tpQU5A=", "properties": {"@spider": "usps_collection_boxes", "addr:city": "CLIMAX", "addr:country": "US", "addr:full": "102 W BROAD ST", "addr:postcode": "39834", "addr:state": "GA", "amenity": "post_box", "brand": "United States Postal Service", "brand:wikidata": "Q668687", "collection_times": "Mo-Fr 15:45; Sa 10:45", "name": "USPS COLLECTION BOX - PO LOBBY", "note": "ON 12/24 AND 12/31, THIS BOX MAY BE COLLECTED AS EARLY AS 12 NOON.", "nsi_id": "unitedstatespostalservice-a77078", "operator": "United States Postal Service", "operator:short": "USPS", "operator:type": "public", "operator:wikidata": "Q668687", "ref": "3983400005"}, "type": "Feature"}
{"geometry": {"coordinates": [-84.890680208, 31.672237694], "type": "Point"}, "id": "HAUziGAv2CHT3spkXfreA3nnVds=", "properties": {"@spider": "usps_collection_boxes", "addr:city": "COLEMAN", "addr:country": "US", "addr:full": "2623 BAY ST", "addr:postcode": "39836", "addr:state": "GA", "amenity": "post_box", "brand": "United States Postal Service", "brand:wikidata": "Q668687", "collection_times": "Mo-Fr 15:00; Sa 13:00", "name": "USPS COLLECTION BOX - BLUE BOX", "note": "ON 12/24 AND 12/31, THIS BOX MAY BE COLLECTED AS EARLY AS 12 NOON.", "nsi_id": "unitedstatespostalservice-a77078", "operator": "United States Postal Service", "operator:short": "USPS", "operator:type": "public", "operator:wikidata": "Q668687", "ref": "3983600000"}, "type": "Feature"}
{"geometry": {"coordinates": [-84.890680208, 31.672237694], "type": "Point"}, "id": "EcjRhQ6PS90IQD74A1upTONKcPY=", "properties": {"@spider": "usps_collection_boxes", "addr:city": "COLEMAN", "addr:country": "US", "addr:full": "2623 BAY ST", "addr:postcode": "39836", "addr:state": "GA", "amenity": "post_box", "brand": "United States Postal Service", "brand:wikidata": "Q668687", "collection_times": "Mo-Fr 15:00; Sa 13:00", "name": "USPS COLLECTION BOX - PO LOBBY", "note": "ON 12/24 AND 12/31, THIS BOX MAY BE COLLECTED AS EARLY AS 12 NOON.", "nsi_id": "unitedstatespostalservice-a77078", "operator": "United States Postal Service", "operator:short": "USPS", "operator:type": "public", "operator:wikidata": "Q668687", "ref": "3983600001"}, "type": "Feature"}
{"geometry": {"coordinates": [-84.890680208, 31.672237694], "type": "Point"}, "id": "u2FNYcwXsNv29NzAdtXKXZBgT7I=", "properties": {"@spider": "usps_collection_boxes", "addr:city": "COLEMAN", "addr:country": "US", "addr:full": "2623 BAY ST", "addr:postcode": "39836", "addr:state": "GA", "amenity": "post_box", "brand": "United States Postal Service", "brand:wikidata": "Q668687", "collection_times": "Mo-Fr 15:00; Sa 13:00", "name": "USPS COLLECTION BOX - PO LOBBY", "note": "ON 12/24 AND 12/31, THIS BOX MAY BE COLLECTED AS EARLY AS 12 NOON.", "nsi_id": "unitedstatespostalservice-a77078", "operator": "United States Postal Service", "operator:short": "USPS", "operator:type": "public", "operator:wikidata": "Q668687", "ref": "3983600002"}, "type": "Feature"}
{"geometry": {"coordinates": [-84.73378478, 31.171167485], "type": "Point"}, "id": "y3F82S824LkQ4bIgypRP5ACE54Q=", "properties": {"@spider": "usps_collection_boxes", "addr:city": "COLQUITT", "addr:country": "US", "addr:full": "103 W COLLEGE ST", "addr:postcode": "39837", "addr:state": "GA", "amenity": "post_box", "brand": "United States Postal Service", "brand:wikidata": "Q668687", "collection_times": "Mo-Fr 17:00; Sa 12:00", "name": "USPS COLLECTION BOX - BLUE BOX", "note": "ON 12/24 AND 12/31, THIS BOX MAY BE COLLECTED AS EARLY AS 12 NOON.", "nsi_id": "unitedstatespostalservice-a77078", "operator": "United States Postal Service", "operator:short": "USPS", "operator:type": "public", "operator:wikidata": "Q668687", "ref": "3983700001"}, "type": "Feature"}
{"geometry": {"coordinates": [-84.73378478, 31.171167485], "type": "Point"}, "id": "DJK6MExFDZI9TUKjpgAAJG2J6dc=", "properties": {"@spider": "usps_collection_boxes", "addr:city": "COLQUITT", "addr:country": "US", "addr:full": "103 W COLLEGE ST", "addr:postcode": "39837", "addr:state": "GA", "amenity": "post_box", "brand": "United States Postal Service", "brand:wikidata": "Q668687", "collection_times": "Mo-Fr 17:00; Sa 12:00", "name": "USPS COLLECTION BOX - PO LOBBY", "note": "ON 12/24 AND 12/31, THIS BOX MAY BE COLLECTED AS EARLY AS 12 NOON.", "nsi_id": "unitedstatespostalservice-a77078", "operator": "United States Postal Service", "operator:short": "USPS", "operator:type": "public", "operator:wikidata": "Q668687", "ref": "3983700002"}, "type": "Feature"}
{"geometry": {"coordinates": [-84.73378478, 31.171167485], "type": "Point"}, "id": "hAJvP5Q1fVpvraU101syI19PJ4E=", "properties": {"@spider": "usps_collection_boxes", "addr:city": "COLQUITT", "addr:country": "US", "addr:full": "103 W COLLEGE ST", "addr:postcode": "39837", "addr:state": "GA", "amenity": "post_box", "brand": "United States Postal Service", "brand:wikidata": "Q668687", "collection_times": "Mo-Fr 17:00; Sa 12:00", "name": "USPS COLLECTION BOX - PO LOBBY", "note": "ON 12/24 AND 12/31, THIS BOX MAY BE COLLECTED AS EARLY AS 12 NOON.", "nsi_id": "unitedstatespostalservice-a77078", "operator": "United States Postal Service", "operator:short": "USPS", "operator:type": "public", "operator:wikidata": "Q668687", "ref": "3983700004"}, "type": "Feature"}
{"geometry": {"coordinates": [-84.789101656, 31.772380641], "type": "Point"}, "id": "ZOpsTVYOebMEzIFAGzsi6JhaMm0=", "properties": {"@spider": "usps_collection_boxes", "addr:city": "CUTHBERT", "addr:country": "US", "addr:full": "23 COURT ST", "addr:postcode": "39840", "addr:state": "GA", "amenity": "post_box", "brand": "United States Postal Service", "brand:wikidata": "Q668687", "collection_times": "Mo-Fr 17:00; Sa 12:00", "name": "USPS COLLECTION BOX - BLUE BOX", "note": "ON 12/24 AND 12/31, THIS BOX MAY BE COLLECTED AS EARLY AS 12 NOON.", "nsi_id": "unitedstatespostalservice-a77078", "operator": "United States Postal Service", "operator:short": "USPS", "operator:type": "public", "operator:wikidata": "Q668687", "ref": "3984000000"}, "type": "Feature"}
{"geometry": {"coordinates": [-84.789101656, 31.772380641], "type": "Point"}, "id": "Rl1YSCDDPBZpkToctdlljdTI3WU=", "properties": {"@spider": "usps_collection_boxes", "addr:city": "CUTHBERT", "addr:country": "US", "addr:full": "23 COURT ST", "addr:postcode": "39840", "addr:state": "GA", "amenity": "post_box", "brand": "United States Postal Service", "brand:wikidata": "Q668687", "collection_times": "Mo-Fr 17:00; Sa 12:00", "name": "USPS COLLECTION BOX - PO LOBBY", "note": "ON 12/24 AND 12/31, THIS BOX MAY BE COLLECTED AS EARLY AS 12 NOON.", "nsi_id": "unitedstatespostalservice-a77078", "operator": "United States Postal Service", "operator:short": "USPS", "operator:type": "public", "operator:wikidata": "Q668687", "ref": "3984000007"}, "type": "Feature"}
{"geometry": {"coordinates": [-84.789101656, 31.772380641], "type": "Point"}, "id": "S5Miv-TA2z5j5V7vxMmxWYbvSxg=", "properties": {"@spider": "usps_collection_boxes", "addr:city": "CUTHBERT", "addr:country": "US", "addr:full": "23 COURT ST", "addr:postcode": "39840", "addr:state": "GA", "amenity": "post_box", "brand": "United States Postal Service", "brand:wikidata": "Q668687", "collection_times": "Mo-Fr 17:00; Sa 12:00", "name": "USPS COLLECTION BOX - PO LOBBY", "note": "ON 12/24 AND 12/31, THIS BOX MAY BE COLLECTED AS EARLY AS 12 NOON.", "nsi_id": "unitedstatespostalservice-a77078", "operator": "United States Postal Service", "operator:short": "USPS", "operator:type": "public", "operator:wikidata": "Q668687", "ref": "3984000011"}, "type": "Feature"}
{"geometry": {"coordinates": [-84.720621808, 31.299174547], "type": "Point"}, "id": "K0Tt10kUvb4are5Ce7_-3d-vhQ4=", "properties": {"@spider": "usps_collection_boxes", "addr:city": "DAMASCUS", "addr:country": "US", "addr:full": "1290 SAMMONS ST", "addr:postcode": "39841", "addr:state": "GA", "amenity": "post_box", "brand": "United States Postal Service", "brand:wikidata": "Q668687", "collection_times": "Mo-Fr 12:30; Sa 10:30", "name": "USPS COLLECTION BOX - BLUE BOX", "note": "ON 12/24 AND 12/31, THIS BOX MAY BE COLLECTED AS EARLY AS 12 NOON.", "nsi_id": "unitedstatespostalservice-a77078", "operator": "United States Postal Service", "operator:short": "USPS", "operator:type": "public", "operator:wikidata": "Q668687", "ref": "3984100000"}, "type": "Feature"}
{"geometry": {"coordinates": [-84.720621808, 31.299174547], "type": "Point"}, "id": "95revjr4NghEy2UzkCbb4dXlpk0=", "properties": {"@spider": "usps_collection_boxes", "addr:city": "DAMASCUS", "addr:country": "US", "addr:full": "1290 SAMMONS ST", "addr:postcode": "39841", "addr:state": "GA", "amenity": "post_box", "brand": "United States Postal Service", "brand:wikidata": "Q668687", "collection_times": "Mo-Fr 12:30; Sa 10:30", "name": "USPS COLLECTION BOX - PO LOBBY", "note": "ON 12/24 AND 12/31, THIS BOX MAY BE COLLECTED AS EARLY AS 12 NOON.", "nsi_id": "unitedstatespostalservice-a77078", "operator": "United States Postal Service", "operator:short": "USPS", "operator:type": "public", "operator:wikidata": "Q668687", "ref": "3984100001"}, "type": "Feature"}
{"geometry": {"coordinates": [-84.720621808, 31.299174547], "type": "Point"}, "id": "LTxg8XD6SvrAcdOgfs6rWAKtouo=", "properties": {"@spider": "usps_collection_boxes", "addr:city": "DAMASCUS", "addr:country": "US", "addr:full": "1290 SAMMONS ST", "addr:postcode": "39841", "addr:state": "GA", "amenity": "post_box", "brand": "United States Postal Service", "brand:wikidata": "Q668687", "collection_times": "Mo-Fr 12:30; Sa 10:30", "name": "USPS COLLECTION BOX - PO LOBBY", "note": "ON 12/24 AND 12/31, THIS BOX MAY BE COLLECTED AS EARLY AS 12 NOON.", "nsi_id": "unitedstatespostalservice-a77078", "operator": "United States Postal Service", "operator:short": "USPS", "operator:type": "public", "operator:wikidata": "Q668687", "ref": "3984100003"}, "type": "Feature"}
{"geometry": {"coordinates": [-84.44538733, 31.773504796], "type": "Point"}, "id": "OTskG8FQRKfao4ISg4JdAGjDoQg=", "properties": {"@spider": "usps_collection_boxes", "addr:city": "DAWSON", "addr:country": "US", "addr:full": "124 STONEWALL ST SE", "addr:postcode": "39842", "addr:state": "GA", "amenity": "post_box", "brand": "United States Postal Service", "brand:wikidata": "Q668687", "collection_times": "Mo-Fr 16:30; Sa 12:00", "name": "USPS COLLECTION BOX - BLUE BOX", "note": "ON 12/24 AND 12/31, THIS BOX MAY BE COLLECTED AS EARLY AS 12 NOON.", "nsi_id": "unitedstatespostalservice-a77078", "operator": "United States Postal Service", "operator:short": "USPS", "operator:type": "public", "operator:wikidata": "Q668687", "ref": "3984200000"}, "type": "Feature"}
{"geometry": {"coordinates": [-84.44538733, 31.773504796], "type": "Point"}, "id": "WjpqH2flHCn1amHhBa78rP5ydpA=", "properties": {"@spider": "usps_collection_boxes", "addr:city": "DAWSON", "addr:country": "US", "addr:full": "124 STONEWALL ST SE", "addr:postcode": "39842", "addr:state": "GA", "amenity": "post_box", "brand": "United States Postal Service", "brand:wikidata": "Q668687", "collection_times": "Mo-Fr 16:30; Sa 12:00", "name": "USPS COLLECTION BOX - BLUE BOX", "note": "ON 12/24 AND 12/31, THIS BOX MAY BE COLLECTED AS EARLY AS 12 NOON.", "nsi_id": "unitedstatespostalservice-a77078", "operator": "United States Postal Service", "operator:short": "USPS", "operator:type": "public", "operator:wikidata": "Q668687", "ref": "3984200001"}, "type": "Feature"}
{"geometry": {"coordinates": [-84.44575151, 31.773496742], "type": "Point"}, "id": "zfgfrWq1X864xtNDQ1B3yXySggk=", "properties": {"@spider": "usps_collection_boxes", "addr:city": "DAWSON", "addr:country": "US", "addr:full": "101 E LEE ST", "addr:postcode": "39842", "addr:state": "GA", "amenity": "post_box", "brand": "United States Postal Service", "brand:wikidata": "Q668687", "collection_times": "Mo-Sa 10:00", "name": "USPS COLLECTION BOX - BLUE BOX", "nsi_id": "unitedstatespostalservice-a77078", "operator": "United States Postal Service", "operator:short": "USPS", "operator:type": "public", "operator:wikidata": "Q668687", "ref": "3984200004"}, "type": "Feature"}
{"geometry": {"coordinates": [-84.44538733, 31.773504796], "type": "Point"}, "id": "CyhsYJy3tOA3RVq7DwfTN7sT6Bo=", "properties": {"@spider": "usps_collection_boxes", "addr:city": "DAWSON", "addr:country": "US", "addr:full": "124 STONEWALL ST SE", "addr:postcode": "39842", "addr:state": "GA", "amenity": "post_box", "brand": "United States Postal Service", "brand:wikidata": "Q668687", "collection_times": "Mo-Fr 16:30; Sa 12:00", "name": "USPS COLLECTION BOX - PO LOBBY", "note": "ON 12/24 AND 12/31, THIS BOX MAY BE COLLECTED AS EARLY AS 12 NOON.", "nsi_id": "unitedstatespostalservice-a77078", "operator": "United States Postal Service", "operator:short": "USPS", "operator:type": "public", "operator:wikidata": "Q668687", "ref": "3984200007"}, "type": "Feature"}
{"geometry": {"coordinates": [-84.44538733, 31.773504796], "type": "Point"}, "id": "pgy26vv1uaylV-FIANkQeVbE6Ig=", "properties": {"@spider": "usps_collection_boxes", "addr:city": "DAWSON", "addr:country": "US", "addr:full": "124 STONEWALL ST SE", "addr:postcode": "39842", "addr:state": "GA", "amenity": "post_box", "brand": "United States Postal Service", "brand:wikidata": "Q668687", "collection_times": "Mo-Fr 16:30; Sa 12:00", "name": "USPS COLLECTION BOX - PO LOBBY", "note": "ON 12/24 AND 12/31, THIS BOX MAY BE COLLECTED AS EARLY AS 12 NOON.", "nsi_id": "unitedstatespostalservice-a77078", "operator": "United States Postal Service", "operator:short": "USPS", "operator:type": "public", "operator:wikidata": "Q668687", "ref": "3984200010"}, "type": "Feature"}
{"geometry": {"coordinates": [-84.882618783, 31.041923884], "type": "Point"}, "id": "u9mlbVcrB1QeEfFQmHHHVrXwyWE=", "properties": {"@spider": "usps_collection_boxes", "addr:city": "DONALDSONVILLE", "addr:country": "US", "addr:full": "102 W 2ND ST", "addr:postcode": "39845", "addr:state": "GA", "amenity": "post_box", "brand": "United States Postal Service", "brand:wikidata": "Q668687", "collection_times": "Mo-Fr 16:30; Sa 12:00", "name": "USPS COLLECTION BOX - BLUE BOX", "note": "ON 12/24 AND 12/31, THIS BOX MAY BE COLLECTED AS EARLY AS 12 NOON.", "nsi_id": "unitedstatespostalservice-a77078", "operator": "United States Postal Service", "operator:short": "USPS", "operator:type": "public", "operator:wikidata": "Q668687", "ref": "3984500000"}, "type": "Feature"}
{"geometry": {"coordinates": [-84.882618783, 31.041923884], "type": "Point"}, "id": "gHeZ4z2q0tpwer8bmbPSavpium4=", "properties": {"@spider": "usps_collection_boxes", "addr:city": "DONALDSONVILLE", "addr:country": "US", "addr:full": "102 W 2ND ST", "addr:postcode": "39845", "addr:state": "GA", "amenity": "post_box", "brand": "United States Postal Service", "brand:wikidata": "Q668687", "collection_times": "Mo-Fr 16:30; Sa 12:00", "name": "USPS COLLECTION BOX - PO LOBBY", "note": "ON 12/24 AND 12/31, THIS BOX MAY BE COLLECTED AS EARLY AS 12 NOON.", "nsi_id": "unitedstatespostalservice-a77078", "operator": "United States Postal Service", "operator:short": "USPS", "operator:type": "public", "operator:wikidata": "Q668687", "ref": "3984500001"}, "type": "Feature"}
{"geometry": {"coordinates": [-84.882618783, 31.041923884], "type": "Point"}, "id": "ef3XmFLqQvy4H8kypqKkf2kDKLw=", "properties": {"@spider": "usps_collection_boxes", "addr:city": "DONALDSONVILLE", "addr:country": "US", "addr:full": "102 W 2ND ST", "addr:postcode": "39845", "addr:state": "GA", "amenity": "post_box", "brand": "United States Postal Service", "brand:wikidata": "Q668687", "collection_times": "Mo-Fr 16:30; Sa 12:00", "name": "USPS COLLECTION BOX - PO LOBBY", "note": "ON 12/24 AND 12/31, THIS BOX MAY BE COLLECTED AS EARLY AS 12 NOON.", "nsi_id": "unitedstatespostalservice-a77078", "operator": "United States Postal Service", "operator:short": "USPS", "operator:type": "public", "operator:wikidata": "Q668687", "ref": "3984500003"}, "type": "Feature"}
{"geometry": {"coordinates": [-84.7384118, 31.5617402], "type": "Point"}, "id": "TZCsTfceGY3mr-QEVUAg7uO_wVg=", "properties": {"@spider": "usps_collection_boxes", "addr:city": "EDISON", "addr:country": "US", "addr:full": "19372 HARTFORD ST", "addr:postcode": "39846", "addr:state": "GA", "amenity": "post_box", "brand": "United States Postal Service", "brand:wikidata": "Q668687", "collection_times": "Mo-Fr 16:30; Sa 11:00", "name": "USPS COLLECTION BOX - BLUE BOX", "note": "ON 12/24 AND 12/31, THIS BOX MAY BE COLLECTED AS EARLY AS 12 NOON.", "nsi_id": "unitedstatespostalservice-a77078", "operator": "United States Postal Service", "operator:short": "USPS", "operator:type": "public", "operator:wikidata": "Q668687", "ref": "3984600000"}, "type": "Feature"}
{"geometry": {"coordinates": [-84.7368722304, 31.5583924061], "type": "Point"}, "id": "-BxfsS4vD1MucQ4dqrNztwfkPBQ=", "properties": {"@spider": "usps_collection_boxes", "addr:city": "EDISON", "addr:country": "US", "addr:full": "19372 HARTFORD ST", "addr:postcode": "39846", "addr:state": "GA", "amenity": "post_box", "brand": "United States Postal Service", "brand:wikidata": "Q668687", "collection_times": "Mo-Fr 16:30; Sa 11:00", "name": "USPS COLLECTION BOX - PO LOBBY", "note": "ON 12/24 AND 12/31, THIS BOX MAY BE COLLECTED AS EARLY AS 12 NOON.", "nsi_id": "unitedstatespostalservice-a77078", "operator": "United States Postal Service", "operator:short": "USPS", "operator:type": "public", "operator:wikidata": "Q668687", "ref": "3984600001"}, "type": "Feature"}
{"geometry": {"coordinates": [-84.73687223, 31.558392406], "type": "Point"}, "id": "hJlu2f6Jzh50w4qpqIt4zsI8TYE=", "properties": {"@spider": "usps_collection_boxes", "addr:city": "EDISON", "addr:country": "US", "addr:full": "19372 HARTFORD ST", "addr:postcode": "39846", "addr:state": "GA", "amenity": "post_box", "brand": "United States Postal Service", "brand:wikidata": "Q668687", "collection_times": "Mo-Fr 16:30; Sa 11:00", "name": "USPS COLLECTION BOX - PO LOBBY", "note": "ON 12/24 AND 12/31, THIS BOX MAY BE COLLECTED AS EARLY AS 12 NOON.", "nsi_id": "unitedstatespostalservice-a77078", "operator": "United States Postal Service", "operator:short": "USPS", "operator:type": "public", "operator:wikidata": "Q668687", "ref": "3984600003"}, "type": "Feature"}
{"geometry": {"coordinates": [-85.049862235, 31.607306729], "type": "Point"}, "id": "_BHXim62qcRssSJWcGhUFTRImp0=", "properties": {"@spider": "usps_collection_boxes", "addr:city": "FT GAINES", "addr:country": "US", "addr:full": "203 HANCOCK ST S", "addr:postcode": "39851", "addr:state": "GA", "amenity": "post_box", "brand": "United States Postal Service", "brand:wikidata": "Q668687", "collection_times": "Mo-Fr 16:30; Sa 11:30", "name": "USPS COLLECTION BOX - BLUE BOX", "note": "ON 12/24 AND 12/31, THIS BOX MAY BE COLLECTED AS EARLY AS 12 NOON.", "nsi_id": "unitedstatespostalservice-a77078", "operator": "United States Postal Service", "operator:short": "USPS", "operator:type": "public", "operator:wikidata": "Q668687", "ref": "3985100001"}, "type": "Feature"}
{"geometry": {"coordinates": [-85.049862235, 31.607306729], "type": "Point"}, "id": "wG1-_FubRXYEG4rb40KJ2ytpfG4=", "properties": {"@spider": "usps_collection_boxes", "addr:city": "FT GAINES", "addr:country": "US", "addr:full": "203 HANCOCK ST S", "addr:postcode": "39851", "addr:state": "GA", "amenity": "post_box", "brand": "United States Postal Service", "brand:wikidata": "Q668687", "collection_times": "Mo-Fr 16:30; Sa 11:30", "name": "USPS COLLECTION BOX - PO LOBBY", "note": "ON 12/24 AND 12/31, THIS BOX MAY BE COLLECTED AS EARLY AS 12 NOON.", "nsi_id": "unitedstatespostalservice-a77078", "operator": "United States Postal Service", "operator:short": "USPS", "operator:type": "public", "operator:wikidata": "Q668687", "ref": "3985100002"}, "type": "Feature"}
{"geometry": {"coordinates": [-85.049862235, 31.607306729], "type": "Point"}, "id": "bbSj9hgrffCZfhHJ8ahQPNK9c6k=", "properties": {"@spider": "usps_collection_boxes", "addr:city": "FT GAINES", "addr:country": "US", "addr:full": "203 HANCOCK ST S", "addr:postcode": "39851", "addr:state": "GA", "amenity": "post_box", "brand": "United States Postal Service", "brand:wikidata": "Q668687", "collection_times": "Mo-Fr 16:30; Sa 11:30", "name": "USPS COLLECTION BOX - PO LOBBY", "note": "ON 12/24 AND 12/31, THIS BOX MAY BE COLLECTED AS EARLY AS 12 NOON.", "nsi_id": "unitedstatespostalservice-a77078", "operator": "United States Postal Service", "operator:short": "USPS", "operator:type": "public", "operator:wikidata": "Q668687", "ref": "3985100004"}, "type": "Feature"}
{"geometry": {"coordinates": [-84.55394, 30.80195], "type": "Point"}, "id": "pn-idKi2Ut0TNHSkYSW0qZUxj7o=", "properties": {"@spider": "usps_collection_boxes", "addr:city": "FOWLSTOWN", "addr:country": "US", "addr:full": "3408 FOWLSTOWN RD", "addr:postcode": "39852", "addr:state": "GA", "amenity": "post_box", "brand": "United States Postal Service", "brand:wikidata": "Q668687", "collection_times": "Mo-Fr 16:15; Sa 13:15", "name": "USPS COLLECTION BOX - BLUE BOX", "note": "ON 12/24 AND 12/31, THIS BOX MAY BE COLLECTED AS EARLY AS 12 NOON.", "nsi_id": "unitedstatespostalservice-a77078", "operator": "United States Postal Service", "operator:short": "USPS", "operator:type": "public", "operator:wikidata": "Q668687", "ref": "3985200000"}, "type": "Feature"}
{"geometry": {"coordinates": [-84.55394, 30.80195], "type": "Point"}, "id": "00BEpSkX3Q6NGgqRwvMGsXqUUco=", "properties": {"@spider": "usps_collection_boxes", "addr:city": "FOWLSTOWN", "addr:country": "US", "addr:full": "3408 FOWLSTOWN RD", "addr:postcode": "39852", "addr:state": "GA", "amenity": "post_box", "brand": "United States Postal Service", "brand:wikidata": "Q668687", "collection_times": "Mo-Fr 16:30; Sa 13:30", "name": "USPS COLLECTION BOX - PO LOBBY", "note": "ON 12/24 AND 12/31, THIS BOX MAY BE COLLECTED AS EARLY AS 12 NOON.", "nsi_id": "unitedstatespostalservice-a77078", "operator": "United States Postal Service", "operator:short": "USPS", "operator:type": "public", "operator:wikidata": "Q668687", "ref": "3985200001"}, "type": "Feature"}
{"geometry": {"coordinates": [-84.55394, 30.80195], "type": "Point"}, "id": "d0K_41soRfS8snu1dlQvHwQtBAg=", "properties": {"@spider": "usps_collection_boxes", "addr:city": "FOWLSTOWN", "addr:country": "US", "addr:full": "3408 FOWLSTOWN RD", "addr:postcode": "39852", "addr:state": "GA", "amenity": "post_box", "brand": "United States Postal Service", "brand:wikidata": "Q668687", "collection_times": "Mo-Fr 16:30; Sa 13:30", "name": "USPS COLLECTION BOX - PO LOBBY", "note": "ON 12/24 AND 12/31, THIS BOX MAY BE COLLECTED AS EARLY AS 12 NOON.", "nsi_id": "unitedstatespostalservice-a77078", "operator": "United States Postal Service", "operator:short": "USPS", "operator:type": "public", "operator:wikidata": "Q668687", "ref": "3985200002"}, "type": "Feature"}
{"geometry": {"coordinates": [-85.108698685, 31.886450864], "type": "Point"}, "id": "GNk5NfFrgwPfaaMKg1UWG0KAqzY=", "properties": {"@spider": "usps_collection_boxes", "addr:city": "GEORGETOWN", "addr:country": "US", "addr:full": "130 MAIN ST", "addr:postcode": "39854", "addr:state": "GA", "amenity": "post_box", "brand": "United States Postal Service", "brand:wikidata": "Q668687", "collection_times": "Mo-Fr 16:00; Sa 11:00", "name": "USPS COLLECTION BOX - BLUE BOX", "note": "ON 12/24 AND 12/31, THIS BOX MAY BE COLLECTED AS EARLY AS 12 NOON.", "nsi_id": "unitedstatespostalservice-a77078", "operator": "United States Postal Service", "operator:short": "USPS", "operator:type": "public", "operator:wikidata": "Q668687", "ref": "3985400000"}, "type": "Feature"}
{"geometry": {"coordinates": [-85.108698685, 31.886450864], "type": "Point"}, "id": "yXKLSyYWRk9ceAhDb8CICoD9b1g=", "properties": {"@spider": "usps_collection_boxes", "addr:city": "GEORGETOWN", "addr:country": "US", "addr:full": "130 MAIN ST", "addr:postcode": "39854", "addr:state": "GA", "amenity": "post_box", "brand": "United States Postal Service", "brand:wikidata": "Q668687", "collection_times": "Mo-Fr 16:00; Sa 11:00", "name": "USPS COLLECTION BOX - PO LOBBY", "note": "ON 12/24 AND 12/31, THIS BOX MAY BE COLLECTED AS EARLY AS 12 NOON.", "nsi_id": "unitedstatespostalservice-a77078", "operator": "United States Postal Service", "operator:short": "USPS", "operator:type": "public", "operator:wikidata": "Q668687", "ref": "3985400001"}, "type": "Feature"}
{"geometry": {"coordinates": [-85.108698685, 31.886450864], "type": "Point"}, "id": "5jrsTc6dbL9OOPm35ASs05pRcJ8=", "properties": {"@spider": "usps_collection_boxes", "addr:city": "GEORGETOWN", "addr:country": "US", "addr:full": "130 MAIN ST", "addr:postcode": "39854", "addr:state": "GA", "amenity": "post_box", "brand": "United States Postal Service", "brand:wikidata": "Q668687", "collection_times": "Mo-Fr 16:00; Sa 11:00", "name": "USPS COLLECTION BOX - PO LOBBY", "note": "ON 12/24 AND 12/31, THIS BOX MAY BE COLLECTED AS EARLY AS 12 NOON.", "nsi_id": "unitedstatespostalservice-a77078", "operator": "United States Postal Service", "operator:short": "USPS", "operator:type": "public", "operator:wikidata": "Q668687", "ref": "3985400003"}, "type": "Feature"}
{"geometry": {"coordinates": [-84.8128455, 31.013748], "type": "Point"}, "id": "TN2ibFDwQ8Wi_PSd7YcQEPbbvxc=", "properties": {"@spider": "usps_collection_boxes", "addr:city": "IRON CITY", "addr:country": "US", "addr:full": "150 S CHURCH ST", "addr:postcode": "39859", "addr:state": "GA", "amenity": "post_box", "brand": "United States Postal Service", "brand:wikidata": "Q668687", "collection_times": "Mo-Fr 12:00; Sa 10:45", "name": "USPS COLLECTION BOX - BLUE BOX", "nsi_id": "unitedstatespostalservice-a77078", "operator": "United States Postal Service", "operator:short": "USPS", "operator:type": "public", "operator:wikidata": "Q668687", "ref": "3985900000"}, "type": "Feature"}
{"geometry": {"coordinates": [-84.8128455, 31.013748], "type": "Point"}, "id": "2nMk0EUOQE8qxR_YejTtLwUQsDY=", "properties": {"@spider": "usps_collection_boxes", "addr:city": "IRON CITY", "addr:country": "US", "addr:full": "150 S CHURCH ST", "addr:postcode": "39859", "addr:state": "GA", "amenity": "post_box", "brand": "United States Postal Service", "brand:wikidata": "Q668687", "collection_times": "Mo-Fr 12:00; Sa 10:45", "name": "USPS COLLECTION BOX - PO LOBBY", "nsi_id": "unitedstatespostalservice-a77078", "operator": "United States Postal Service", "operator:short": "USPS", "operator:type": "public", "operator:wikidata": "Q668687", "ref": "3985900001"}, "type": "Feature"}
{"geometry": {"coordinates": [-84.8128455, 31.013748], "type": "Point"}, "id": "q2JSTdrr15jruLpwEnqj1YLzSZk=", "properties": {"@spider": "usps_collection_boxes", "addr:city": "IRON CITY", "addr:country": "US", "addr:full": "150 S CHURCH ST", "addr:postcode": "39859", "addr:state": "GA", "amenity": "post_box", "brand": "United States Postal Service", "brand:wikidata": "Q668687", "collection_times": "Mo-Fr 12:00; Sa 10:45", "name": "USPS COLLECTION BOX - PO LOBBY", "nsi_id": "unitedstatespostalservice-a77078", "operator": "United States Postal Service", "operator:short": "USPS", "operator:type": "public", "operator:wikidata": "Q668687", "ref": "3985900003"}, "type": "Feature"}
{"geometry": {"coordinates": [-84.982519238, 31.090612871], "type": "Point"}, "id": "rWrRMijI5L-4kLZBJn_MaKnUiuY=", "properties": {"@spider": "usps_collection_boxes", "addr:city": "JAKIN", "addr:country": "US", "addr:full": "1145 N PEARL ST", "addr:postcode": "39861", "addr:state": "GA", "amenity": "post_box", "brand": "United States Postal Service", "brand:wikidata": "Q668687", "collection_times": "Mo-Fr 11:45; Sa 10:45", "name": "USPS COLLECTION BOX - BLUE BOX", "nsi_id": "unitedstatespostalservice-a77078", "operator": "United States Postal Service", "operator:short": "USPS", "operator:type": "public", "operator:wikidata": "Q668687", "ref": "3986100000"}, "type": "Feature"}
{"geometry": {"coordinates": [-84.982519238, 31.090612871], "type": "Point"}, "id": "c-4rJY3IiIP5A9fqPUaHvy7JluY=", "properties": {"@spider": "usps_collection_boxes", "addr:city": "JAKIN", "addr:country": "US", "addr:full": "1145 N PEARL ST", "addr:postcode": "39861", "addr:state": "GA", "amenity": "post_box", "brand": "United States Postal Service", "brand:wikidata": "Q668687", "collection_times": "Mo-Fr 11:45; Sa 10:45", "name": "USPS COLLECTION BOX - PO LOBBY", "nsi_id": "unitedstatespostalservice-a77078", "operator": "United States Postal Service", "operator:short": "USPS", "operator:type": "public", "operator:wikidata": "Q668687", "ref": "3986100001"}, "type": "Feature"}
{"geometry": {"coordinates": [-84.982519238, 31.090612871], "type": "Point"}, "id": "S7zOu3OviU4Uk9tGE-Y-YDqR1Wk=", "properties": {"@spider": "usps_collection_boxes", "addr:city": "JAKIN", "addr:country": "US", "addr:full": "1145 N PEARL ST", "addr:postcode": "39861", "addr:state": "GA", "amenity": "post_box", "brand": "United States Postal Service", "brand:wikidata": "Q668687", "collection_times": "Mo-Fr 11:45; Sa 10:45", "name": "USPS COLLECTION BOX - PO LOBBY", "nsi_id": "unitedstatespostalservice-a77078", "operator": "United States Postal Service", "operator:short": "USPS", "operator:type": "public", "operator:wikidata": "Q668687", "ref": "3986100003"}, "type": "Feature"}
{"geometry": {"coordinates": [-84.515586895, 31.485024408], "type": "Point"}, "id": "UK5j95xF7WMsq8tphBwJihnAf6s=", "properties": {"@spider": "usps_collection_boxes", "addr:city": "LEARY", "addr:country": "US", "addr:full": "59 COLLEY ST", "addr:postcode": "39862", "addr:state": "GA", "amenity": "post_box", "brand": "United States Postal Service", "brand:wikidata": "Q668687", "collection_times": "Mo-Fr 12:30; Sa 10:00", "name": "USPS COLLECTION BOX - BLUE BOX", "note": "ON 12/24 AND 12/31, THIS BOX MAY BE COLLECTED AS EARLY AS 12 NOON.", "nsi_id": "unitedstatespostalservice-a77078", "operator": "United States Postal Service", "operator:short": "USPS", "operator:type": "public", "operator:wikidata": "Q668687", "ref": "3986200000"}, "type": "Feature"}
{"geometry": {"coordinates": [-84.515586895, 31.485024408], "type": "Point"}, "id": "d0_ikIpFjxca1V3_F81cQ-IyQ8o=", "properties": {"@spider": "usps_collection_boxes", "addr:city": "LEARY", "addr:country": "US", "addr:full": "59 COLLEY ST", "addr:postcode": "39862", "addr:state": "GA", "amenity": "post_box", "brand": "United States Postal Service", "brand:wikidata": "Q668687", "collection_times": "Mo-Fr 12:30; Sa 10:00", "name": "USPS COLLECTION BOX - PO LOBBY", "note": "ON 12/24 AND 12/31, THIS BOX MAY BE COLLECTED AS EARLY AS 12 NOON.", "nsi_id": "unitedstatespostalservice-a77078", "operator": "United States Postal Service", "operator:short": "USPS", "operator:type": "public", "operator:wikidata": "Q668687", "ref": "3986200001"}, "type": "Feature"}
{"geometry": {"coordinates": [-84.515586895, 31.485024408], "type": "Point"}, "id": "KyYKUQeAWxJ1nOBzaOJgmBMCkdo=", "properties": {"@spider": "usps_collection_boxes", "addr:city": "LEARY", "addr:country": "US", "addr:full": "59 COLLEY ST", "addr:postcode": "39862", "addr:state": "GA", "amenity": "post_box", "brand": "United States Postal Service", "brand:wikidata": "Q668687", "collection_times": "Mo-Fr 12:30; Sa 10:00", "name": "USPS COLLECTION BOX - PO LOBBY", "note": "ON 12/24 AND 12/31, THIS BOX MAY BE COLLECTED AS EARLY AS 12 NOON.", "nsi_id": "unitedstatespostalservice-a77078", "operator": "United States Postal Service", "operator:short": "USPS", "operator:type": "public", "operator:wikidata": "Q668687", "ref": "3986200003"}, "type": "Feature"}
{"geometry": {"coordinates": [-84.601185379, 31.53725068], "type": "Point"}, "id": "VXdipcGSPXI6RGpp1mLIvT5h794=", "properties": {"@spider": "usps_collection_boxes", "addr:city": "MORGAN", "addr:country": "US", "addr:full": "11017 DICKEY ST", "addr:postcode": "39866", "addr:state": "GA", "amenity": "post_box", "brand": "United States Postal Service", "brand:wikidata": "Q668687", "collection_times": "Mo-Fr 16:00; Sa 10:30", "name": "USPS COLLECTION BOX - BLUE BOX", "note": "ON 12/24 AND 12/31, THIS BOX MAY BE COLLECTED AS EARLY AS 12 NOON.", "nsi_id": "unitedstatespostalservice-a77078", "operator": "United States Postal Service", "operator:short": "USPS", "operator:type": "public", "operator:wikidata": "Q668687", "ref": "3986600000"}, "type": "Feature"}
{"geometry": {"coordinates": [-84.601185379, 31.53725068], "type": "Point"}, "id": "ha_uRxU27O_drIYkB8ZjtFjJ13g=", "properties": {"@spider": "usps_collection_boxes", "addr:city": "MORGAN", "addr:country": "US", "addr:full": "11017 DICKEY ST", "addr:postcode": "39866", "addr:state": "GA", "amenity": "post_box", "brand": "United States Postal Service", "brand:wikidata": "Q668687", "collection_times": "Mo-Fr 16:00; Sa 10:30", "name": "USPS COLLECTION BOX - PO LOBBY", "note": "ON 12/24 AND 12/31, THIS BOX MAY BE COLLECTED AS EARLY AS 12 NOON.", "nsi_id": "unitedstatespostalservice-a77078", "operator": "United States Postal Service", "operator:short": "USPS", "operator:type": "public", "operator:wikidata": "Q668687", "ref": "3986600001"}, "type": "Feature"}
{"geometry": {"coordinates": [-84.601185379, 31.53725068], "type": "Point"}, "id": "UkuVH7sxjyY5lDoEaejW0nzGvqY=", "properties": {"@spider": "usps_collection_boxes", "addr:city": "MORGAN", "addr:country": "US", "addr:full": "11017 DICKEY ST", "addr:postcode": "39866", "addr:state": "GA", "amenity": "post_box", "brand": "United States Postal Service", "brand:wikidata": "Q668687", "collection_times": "Mo-Fr 16:00; Sa 10:30", "name": "USPS COLLECTION BOX - PO LOBBY", "note": "ON 12/24 AND 12/31, THIS BOX MAY BE COLLECTED AS EARLY AS 12 NOON.", "nsi_id": "unitedstatespostalservice-a77078", "operator": "United States Postal Service", "operator:short": "USPS", "operator:type": "public", "operator:wikidata": "Q668687", "ref": "3986600002"}, "type": "Feature"}
{"geometry": {"coordinates": [-84.3374310473, 31.313015867], "type": "Point"}, "id": "UgH-VbylkUYoanWciY1hfS2rPT8=", "properties": {"@spider": "usps_collection_boxes", "addr:city": "NEWTON", "addr:country": "US", "addr:full": "343 SUNSET BLVD", "addr:postcode": "39870", "addr:state": "GA", "amenity": "post_box", "brand": "United States Postal Service", "brand:wikidata": "Q668687", "collection_times": "Mo-Fr 16:30; Sa 11:00", "name": "USPS COLLECTION BOX - BLUE BOX", "note": "ON 12/24 AND 12/31, THIS BOX MAY BE COLLECTED AS EARLY AS 12 NOON.", "nsi_id": "unitedstatespostalservice-a77078", "operator": "United States Postal Service", "operator:short": "USPS", "operator:type": "public", "operator:wikidata": "Q668687", "ref": "3987000000"}, "type": "Feature"}
{"geometry": {"coordinates": [-84.337431047, 31.313015867], "type": "Point"}, "id": "rLaOBCdV5-wyavahB9ekgAHDVcY=", "properties": {"@spider": "usps_collection_boxes", "addr:city": "NEWTON", "addr:country": "US", "addr:full": "343 SUNSET BLVD", "addr:postcode": "39870", "addr:state": "GA", "amenity": "post_box", "brand": "United States Postal Service", "brand:wikidata": "Q668687", "collection_times": "Mo-Fr 16:30; Sa 11:00", "name": "USPS COLLECTION BOX - PO LOBBY", "note": "ON 12/24 AND 12/31, THIS BOX MAY BE COLLECTED AS EARLY AS 12 NOON.", "nsi_id": "unitedstatespostalservice-a77078", "operator": "United States Postal Service", "operator:short": "USPS", "operator:type": "public", "operator:wikidata": "Q668687", "ref": "3987000001"}, "type": "Feature"}
{"geometry": {"coordinates": [-84.337431047, 31.313015867], "type": "Point"}, "id": "EEsgCC0NcJwbViCtbaJ84h5ZpI4=", "properties": {"@spider": "usps_collection_boxes", "addr:city": "NEWTON", "addr:country": "US", "addr:full": "343 SUNSET BLVD", "addr:postcode": "39870", "addr:state": "GA", "amenity": "post_box", "brand": "United States Postal Service", "brand:wikidata": "Q668687", "collection_times": "Mo-Fr 16:30; Sa 11:00", "name": "USPS COLLECTION BOX - PO LOBBY", "note": "ON 12/24 AND 12/31, THIS BOX MAY BE COLLECTED AS EARLY AS 12 NOON.", "nsi_id": "unitedstatespostalservice-a77078", "operator": "United States Postal Service", "operator:short": "USPS", "operator:type": "public", "operator:wikidata": "Q668687", "ref": "3987000003"}, "type": "Feature"}
{"geometry": {"coordinates": [-84.510376201, 31.893003901], "type": "Point"}, "id": "GoKwX7CJ7zYoym4vvrIy4dzSems=", "properties": {"@spider": "usps_collection_boxes", "addr:city": "PARROTT", "addr:country": "US", "addr:full": "107 OLD DAWSON RD", "addr:postcode": "39877", "addr:state": "GA", "amenity": "post_box", "brand": "United States Postal Service", "brand:wikidata": "Q668687", "collection_times": "Mo-Fr 13:00; Sa 10:30", "name": "USPS COLLECTION BOX - BLUE BOX", "note": "ON 12/24 AND 12/31, THIS BOX MAY BE COLLECTED AS EARLY AS 12 NOON.", "nsi_id": "unitedstatespostalservice-a77078", "operator": "United States Postal Service", "operator:short": "USPS", "operator:type": "public", "operator:wikidata": "Q668687", "ref": "3987700000"}, "type": "Feature"}
{"geometry": {"coordinates": [-84.510376201, 31.893003901], "type": "Point"}, "id": "4MsrlytZc8UmYkorQuYzi3qf4wk=", "properties": {"@spider": "usps_collection_boxes", "addr:city": "PARROTT", "addr:country": "US", "addr:full": "107 OLD DAWSON RD", "addr:postcode": "39877", "addr:state": "GA", "amenity": "post_box", "brand": "United States Postal Service", "brand:wikidata": "Q668687", "collection_times": "Mo-Fr 12:45; Sa 10:30", "name": "USPS COLLECTION BOX - PO LOBBY", "note": "ON 12/24 AND 12/31, THIS BOX MAY BE COLLECTED AS EARLY AS 12 NOON.", "nsi_id": "unitedstatespostalservice-a77078", "operator": "United States Postal Service", "operator:short": "USPS", "operator:type": "public", "operator:wikidata": "Q668687", "ref": "3987700001"}, "type": "Feature"}
{"geometry": {"coordinates": [-84.510376201, 31.893003901], "type": "Point"}, "id": "P4QWpzX-Gp73X1Jm41-Q5cqPYBI=", "properties": {"@spider": "usps_collection_boxes", "addr:city": "PARROTT", "addr:country": "US", "addr:full": "107 OLD DAWSON RD", "addr:postcode": "39877", "addr:state": "GA", "amenity": "post_box", "brand": "United States Postal Service", "brand:wikidata": "Q668687", "collection_times": "Mo-Fr 12:45; Sa 10:30", "name": "USPS COLLECTION BOX - PO LOBBY", "note": "ON 12/24 AND 12/31, THIS BOX MAY BE COLLECTED AS EARLY AS 12 NOON.", "nsi_id": "unitedstatespostalservice-a77078", "operator": "United States Postal Service", "operator:short": "USPS", "operator:type": "public", "operator:wikidata": "Q668687", "ref": "3987700002"}, "type": "Feature"}
{"geometry": {"coordinates": [-84.346953093, 31.720251533], "type": "Point"}, "id": "6gi_EL4s7CHkRnFmAYKga5tSOcw=", "properties": {"@spider": "usps_collection_boxes", "addr:city": "SASSER", "addr:country": "US", "addr:full": "135 E MAIN ST", "addr:postcode": "39885", "addr:state": "GA", "amenity": "post_box", "brand": "United States Postal Service", "brand:wikidata": "Q668687", "collection_times": "Mo-Fr 12:00; Sa 10:30", "name": "USPS COLLECTION BOX - BLUE BOX", "nsi_id": "unitedstatespostalservice-a77078", "operator": "United States Postal Service", "operator:short": "USPS", "operator:type": "public", "operator:wikidata": "Q668687", "ref": "3988500000"}, "type": "Feature"}
{"geometry": {"coordinates": [-84.346953093, 31.720251533], "type": "Point"}, "id": "nMsXQWqOpU7w3AQ5R0j03xiQ9Gk=", "properties": {"@spider": "usps_collection_boxes", "addr:city": "SASSER", "addr:country": "US", "addr:full": "135 E MAIN ST", "addr:postcode": "39885", "addr:state": "GA", "amenity": "post_box", "brand": "United States Postal Service", "brand:wikidata": "Q668687", "collection_times": "Mo-Fr 11:50; Sa 10:30", "name": "USPS COLLECTION BOX - PO LOBBY", "nsi_id": "unitedstatespostalservice-a77078", "operator": "United States Postal Service", "operator:short": "USPS", "operator:type": "public", "operator:wikidata": "Q668687", "ref": "3988500001"}, "type": "Feature"}
{"geometry": {"coordinates": [-84.346953093, 31.720251533], "type": "Point"}, "id": "XmkhHtRqA1D0tlCdUDnRHnNY7K8=", "properties": {"@spider": "usps_collection_boxes", "addr:city": "SASSER", "addr:country": "US", "addr:full": "135 E MAIN ST", "addr:postcode": "39885", "addr:state": "GA", "amenity": "post_box", "brand": "United States Postal Service", "brand:wikidata": "Q668687", "collection_times": "Mo-Fr 11:50; Sa 10:30", "name": "USPS COLLECTION BOX - PO LOBBY", "nsi_id": "unitedstatespostalservice-a77078", "operator": "United States Postal Service", "operator:short": "USPS", "operator:type": "public", "operator:wikidata": "Q668687", "ref": "3988500002"}, "type": "Feature"}
{"geometry": {"coordinates": [-84.6138477, 31.757884324], "type": "Point"}, "id": "UT9jSngkVFh2sOZpuxlm59YH2cQ=", "properties": {"@spider": "usps_collection_boxes", "addr:city": "SHELLMAN", "addr:country": "US", "addr:full": "3247 PEARL ST", "addr:postcode": "39886", "addr:state": "GA", "amenity": "post_box", "brand": "United States Postal Service", "brand:wikidata": "Q668687", "collection_times": "Mo-Fr 16:00; Sa 10:00", "name": "USPS COLLECTION BOX - BLUE BOX", "note": "ON 12/24 AND 12/31, THIS BOX MAY BE COLLECTED AS EARLY AS 12 NOON.", "nsi_id": "unitedstatespostalservice-a77078", "operator": "United States Postal Service", "operator:short": "USPS", "operator:type": "public", "operator:wikidata": "Q668687", "ref": "3988600000"}, "type": "Feature"}
{"geometry": {"coordinates": [-84.6138477, 31.757884324], "type": "Point"}, "id": "K1ob_Fo9nyrpuyBz43bYbP0_Kbs=", "properties": {"@spider": "usps_collection_boxes", "addr:city": "SHELLMAN", "addr:country": "US", "addr:full": "3247 PEARL ST", "addr:postcode": "39886", "addr:state": "GA", "amenity": "post_box", "brand": "United States Postal Service", "brand:wikidata": "Q668687", "collection_times": "Mo-Fr 16:00; Sa 10:00", "name": "USPS COLLECTION BOX - PO LOBBY", "note": "ON 12/24 AND 12/31, THIS BOX MAY BE COLLECTED AS EARLY AS 12 NOON.", "nsi_id": "unitedstatespostalservice-a77078", "operator": "United States Postal Service", "operator:short": "USPS", "operator:type": "public", "operator:wikidata": "Q668687", "ref": "3988600001"}, "type": "Feature"}
{"geometry": {"coordinates": [-84.6138477, 31.757884324], "type": "Point"}, "id": "ZBo_5JZ6KiB-zJbr7FZUyiplCbc=", "properties": {"@spider": "usps_collection_boxes", "addr:city": "SHELLMAN", "addr:country": "US", "addr:full": "3247 PEARL ST", "addr:postcode": "39886", "addr:state": "GA", "amenity": "post_box", "brand": "United States Postal Service", "brand:wikidata": "Q668687", "collection_times": "Mo-Fr 16:00; Sa 10:00", "name": "USPS COLLECTION BOX - PO LOBBY", "note": "ON 12/24 AND 12/31, THIS BOX MAY BE COLLECTED AS EARLY AS 12 NOON.", "nsi_id": "unitedstatespostalservice-a77078", "operator": "United States Postal Service", "operator:short": "USPS", "operator:type": "public", "operator:wikidata": "Q668687", "ref": "3988600003"}, "type": "Feature"}
{"geometry": {"coordinates": [-84.324771, 30.883316372], "type": "Point"}, "id": "6rjfSrsmt8JkN4FmZSnw8899n9U=", "properties": {"@spider": "usps_collection_boxes", "addr:city": "WHIGHAM", "addr:country": "US", "addr:full": "115 W BROAD AVE", "addr:postcode": "39897", "addr:state": "GA", "amenity": "post_box", "brand": "United States Postal Service", "brand:wikidata": "Q668687", "collection_times": "Mo-Fr 16:30; Sa 10:00", "name": "USPS COLLECTION BOX - BLUE BOX", "note": "ON 12/24 AND 12/31, THIS BOX MAY BE COLLECTED AS EARLY AS 12 NOON.", "nsi_id": "unitedstatespostalservice-a77078", "operator": "United States Postal Service", "operator:short": "USPS", "operator:type": "public", "operator:wikidata": "Q668687", "ref": "3989700000"}, "type": "Feature"}
{"geometry": {"coordinates": [-84.324771, 30.883316372], "type": "Point"}, "id": "wqTQx9xogIeM87UIwOn34YFJSds=", "properties": {"@spider": "usps_collection_boxes", "addr:city": "WHIGHAM", "addr:country": "US", "addr:full": "115 W BROAD AVE", "addr:postcode": "39897", "addr:state": "GA", "amenity": "post_box", "brand": "United States Postal Service", "brand:wikidata": "Q668687", "collection_times": "Mo-Fr 16:30; Sa 10:00", "name": "USPS COLLECTION BOX - PO LOBBY", "note": "ON 12/24 AND 12/31, THIS BOX MAY BE COLLECTED AS EARLY AS 12 NOON.", "nsi_id": "unitedstatespostalservice-a77078", "operator": "United States Postal Service", "operator:short": "USPS", "operator:type": "public", "operator:wikidata": "Q668687", "ref": "3989700001"}, "type": "Feature"}
{"geometry": {"coordinates": [-84.324771, 30.883316372], "type": "Point"}, "id": "0pHFyKseqpsm3iKG5eyBs9F-P4E=", "properties": {"@spider": "usps_collection_boxes", "addr:city": "WHIGHAM", "addr:country": "US", "addr:full": "115 W BROAD AVE", "addr:postcode": "39897", "addr:state": "GA", "amenity": "post_box", "brand": "United States Postal Service", "brand:wikidata": "Q668687", "collection_times": "Mo-Fr 16:30; Sa 10:00", "name": "USPS COLLECTION BOX - PO LOBBY", "note": "ON 12/24 AND 12/31, THIS BOX MAY BE COLLECTED AS EARLY AS 12 NOON.", "nsi_id": "unitedstatespostalservice-a77078", "operator": "United States Postal Service", "operator:short": "USPS", "operator:type": "public", "operator:wikidata": "Q668687", "ref": "3989700003"}, "type": "Feature"}
