{"geometry": {"coordinates": [-85.0586909, 38.260472312], "type": "Point"}, "id": "hFhJEsEtO_f0qqrowyLU9dsVxok=", "properties": {"@source_uri": "https://tools.usps.com/UspsToolsRestServices/rest/POLocator/findLocations", "@spider": "usps_collection_boxes", "addr:city": "BAGDAD", "addr:country": "US", "addr:postcode": "40003", "addr:state": "KY", "addr:street_address": "5811 ELMBURG RD", "amenity": "post_box", "collection_times": "Mo-Fr 14:30; Sa 10:45", "note": "ON 12/24 AND 12/31, THIS BOX MAY BE COLLECTED AS EARLY AS 12 NOON.", "nsi_id": "unitedstatespostalservice-a77078", "operator": "United States Postal Service", "operator:short": "USPS", "operator:type": "public", "operator:wikidata": "Q668687", "ref": "4000300001"}, "type": "Feature"}
{"geometry": {"coordinates": [-85.0586909, 38.260472312], "type": "Point"}, "id": "GLFZxtq8MCbc1-hCzA0rOyjEOOM=", "properties": {"@source_uri": "https://tools.usps.com/UspsToolsRestServices/rest/POLocator/findLocations", "@spider": "usps_collection_boxes", "addr:city": "BAGDAD", "addr:country": "US", "addr:postcode": "40003", "addr:state": "KY", "addr:street_address": "5811 ELMBURG RD", "amenity": "post_box", "collection_times": "Mo-Fr 14:30; Sa 11:30", "indoor": "yes", "note": "ON 12/24 AND 12/31, THIS BOX MAY BE COLLECTED AS EARLY AS 12 NOON.", "nsi_id": "unitedstatespostalservice-a77078", "operator": "United States Postal Service", "operator:short": "USPS", "operator:type": "public", "operator:wikidata": "Q668687", "ref": "4000300011"}, "type": "Feature"}
{"geometry": {"coordinates": [-85.475970472, 37.810799515], "type": "Point"}, "id": "Ioi5eMCNknyqbddAA0tKRzB6uxc=", "properties": {"@source_uri": "https://tools.usps.com/UspsToolsRestServices/rest/POLocator/findLocations", "@spider": "usps_collection_boxes", "addr:city": "BARDSTOWN", "addr:country": "US", "addr:postcode": "40004", "addr:state": "KY", "addr:street_address": "510 W STEPHEN FOSTER AVE", "amenity": "post_box", "collection_times": "Mo-Fr 17:00; Sa 12:00", "note": "ON 12/24 AND 12/31, THIS BOX MAY BE COLLECTED AS EARLY AS 12 NOON.", "nsi_id": "unitedstatespostalservice-a77078", "operator": "United States Postal Service", "operator:short": "USPS", "operator:type": "public", "operator:wikidata": "Q668687", "ref": "4000400001"}, "type": "Feature"}
{"geometry": {"coordinates": [-85.4651861, 37.808917], "type": "Point"}, "id": "WzFknJTsnmg4jiNsys782Om5H64=", "properties": {"@source_uri": "https://tools.usps.com/UspsToolsRestServices/rest/POLocator/findLocations", "@spider": "usps_collection_boxes", "addr:city": "BARDSTOWN", "addr:country": "US", "addr:postcode": "40004", "addr:state": "KY", "addr:street_address": "120 E STEPHEN FOSTER AVE", "amenity": "post_box", "collection_times": "Mo-Sa 10:00", "nsi_id": "unitedstatespostalservice-a77078", "operator": "United States Postal Service", "operator:short": "USPS", "operator:type": "public", "operator:wikidata": "Q668687", "ref": "4000400011"}, "type": "Feature"}
{"geometry": {"coordinates": [-85.4666464, 37.809865], "type": "Point"}, "id": "z-4ha2jAOfUoAWxHbUv9HpGiE1c=", "properties": {"@source_uri": "https://tools.usps.com/UspsToolsRestServices/rest/POLocator/findLocations", "@spider": "usps_collection_boxes", "addr:city": "BARDSTOWN", "addr:country": "US", "addr:postcode": "40004", "addr:state": "KY", "addr:street_address": "105 N 3RD ST", "amenity": "post_box", "collection_times": "Mo-Sa 10:00", "nsi_id": "unitedstatespostalservice-a77078", "operator": "United States Postal Service", "operator:short": "USPS", "operator:type": "public", "operator:wikidata": "Q668687", "ref": "4000400012"}, "type": "Feature"}
{"geometry": {"coordinates": [-85.4639116, 37.824965], "type": "Point"}, "id": "xEhqNOPw6kebnCcXwr8FAHfRcII=", "properties": {"@source_uri": "https://tools.usps.com/UspsToolsRestServices/rest/POLocator/findLocations", "@spider": "usps_collection_boxes", "addr:city": "BARDSTOWN", "addr:country": "US", "addr:postcode": "40004", "addr:state": "KY", "addr:street_address": "215 KENTUCKY HOME SQ", "amenity": "post_box", "collection_times": "Mo-Sa 10:00", "nsi_id": "unitedstatespostalservice-a77078", "operator": "United States Postal Service", "operator:short": "USPS", "operator:type": "public", "operator:wikidata": "Q668687", "ref": "4000400018"}, "type": "Feature"}
{"geometry": {"coordinates": [-85.462407, 37.826283], "type": "Point"}, "id": "JInAUgIw9p6_Ycj29T5te5xOS30=", "properties": {"@source_uri": "https://tools.usps.com/UspsToolsRestServices/rest/POLocator/findLocations", "@spider": "usps_collection_boxes", "addr:city": "BARDSTOWN", "addr:country": "US", "addr:postcode": "40004", "addr:state": "KY", "addr:street_address": "90 W JOHN ROWAN BLVD", "amenity": "post_box", "collection_times": "Mo-Sa 13:30", "note": "ON 12/24 AND 12/31, THIS BOX MAY BE COLLECTED AS EARLY AS 12 NOON.", "nsi_id": "unitedstatespostalservice-a77078", "operator": "United States Postal Service", "operator:short": "USPS", "operator:type": "public", "operator:wikidata": "Q668687", "ref": "4000400019"}, "type": "Feature"}
{"geometry": {"coordinates": [-85.4605582058, 37.8368211916], "type": "Point"}, "id": "1g9u6n_i6rzxP3ObxuB0CNedj4o=", "properties": {"@source_uri": "https://tools.usps.com/UspsToolsRestServices/rest/POLocator/findLocations", "@spider": "usps_collection_boxes", "addr:city": "BARDSTOWN", "addr:country": "US", "addr:postcode": "40004", "addr:state": "KY", "addr:street_address": "1405 N 3RD ST", "amenity": "post_box", "collection_times": "Mo-Sa 10:00", "nsi_id": "unitedstatespostalservice-a77078", "operator": "United States Postal Service", "operator:short": "USPS", "operator:type": "public", "operator:wikidata": "Q668687", "ref": "4000400020"}, "type": "Feature"}
{"geometry": {"coordinates": [-85.4639263, 37.828217], "type": "Point"}, "id": "oglyFcAJCkSWyDJ5Mf73K2jwEfo=", "properties": {"@source_uri": "https://tools.usps.com/UspsToolsRestServices/rest/POLocator/findLocations", "@spider": "usps_collection_boxes", "addr:city": "BARDSTOWN", "addr:country": "US", "addr:postcode": "40004", "addr:state": "KY", "addr:street_address": "102 W JOHN ROWAN BLVD", "amenity": "post_box", "collection_times": "Mo-Sa 12:00", "nsi_id": "unitedstatespostalservice-a77078", "operator": "United States Postal Service", "operator:short": "USPS", "operator:type": "public", "operator:wikidata": "Q668687", "ref": "4000400026"}, "type": "Feature"}
{"geometry": {"coordinates": [-85.475970472, 37.810799515], "type": "Point"}, "id": "Nqtt2JusYwa0uBQ0wFhF1LNMmaw=", "properties": {"@source_uri": "https://tools.usps.com/UspsToolsRestServices/rest/POLocator/findLocations", "@spider": "usps_collection_boxes", "addr:city": "BARDSTOWN", "addr:country": "US", "addr:postcode": "40004", "addr:state": "KY", "addr:street_address": "510 W STEPHEN FOSTER AVE", "amenity": "post_box", "collection_times": "Mo-Fr 17:00; Sa 12:00", "indoor": "yes", "note": "ON 12/24 AND 12/31, THIS BOX MAY BE COLLECTED AS EARLY AS 12 NOON.", "nsi_id": "unitedstatespostalservice-a77078", "operator": "United States Postal Service", "operator:short": "USPS", "operator:type": "public", "operator:wikidata": "Q668687", "ref": "4000400032"}, "type": "Feature"}
{"geometry": {"coordinates": [-85.475970472, 37.810799515], "type": "Point"}, "id": "uP2nd44w8gIQMWrJ-K0l4HOI9q4=", "properties": {"@source_uri": "https://tools.usps.com/UspsToolsRestServices/rest/POLocator/findLocations", "@spider": "usps_collection_boxes", "addr:city": "BARDSTOWN", "addr:country": "US", "addr:postcode": "40004", "addr:state": "KY", "addr:street_address": "510 W STEPHEN FOSTER AVE", "amenity": "post_box", "collection_times": "Mo-Fr 17:00; Sa 12:00", "indoor": "yes", "note": "ON 12/24 AND 12/31, THIS BOX MAY BE COLLECTED AS EARLY AS 12 NOON.", "nsi_id": "unitedstatespostalservice-a77078", "operator": "United States Postal Service", "operator:short": "USPS", "operator:type": "public", "operator:wikidata": "Q668687", "ref": "4000400033"}, "type": "Feature"}
{"geometry": {"coordinates": [-85.4755277, 37.825134], "type": "Point"}, "id": "Phw8rIluFh8siDmj8Sf5LPnCvqM=", "properties": {"@source_uri": "https://tools.usps.com/UspsToolsRestServices/rest/POLocator/findLocations", "@spider": "usps_collection_boxes", "addr:city": "BARDSTOWN", "addr:country": "US", "addr:postcode": "40004", "addr:state": "KY", "addr:street_address": "900 CHAMBERS BLVD", "amenity": "post_box", "collection_times": "Mo-Sa 13:00", "note": "ON 12/24 AND 12/31, THIS BOX MAY BE COLLECTED AS EARLY AS 12 NOON.", "nsi_id": "unitedstatespostalservice-a77078", "operator": "United States Postal Service", "operator:short": "USPS", "operator:type": "public", "operator:wikidata": "Q668687", "ref": "4000400035"}, "type": "Feature"}
{"geometry": {"coordinates": [-85.5184331, 37.859066], "type": "Point"}, "id": "6PrFhZ5uz0b68loMxdlQqTIF5Wc=", "properties": {"@source_uri": "https://tools.usps.com/UspsToolsRestServices/rest/POLocator/findLocations", "@spider": "usps_collection_boxes", "addr:city": "BARDSTOWN", "addr:country": "US", "addr:postcode": "40004", "addr:state": "KY", "addr:street_address": "3945 NEW SHEPHERDSVILLE RD", "amenity": "post_box", "collection_times": "Mo-Sa 10:00", "nsi_id": "unitedstatespostalservice-a77078", "operator": "United States Postal Service", "operator:short": "USPS", "operator:type": "public", "operator:wikidata": "Q668687", "ref": "4000400036"}, "type": "Feature"}
{"geometry": {"coordinates": [-85.4344447, 37.800683], "type": "Point"}, "id": "m_RjW0q15YKFgMrPDd4B1B2BumA=", "properties": {"@source_uri": "https://tools.usps.com/UspsToolsRestServices/rest/POLocator/findLocations", "@spider": "usps_collection_boxes", "addr:city": "BARDSTOWN", "addr:country": "US", "addr:postcode": "40004", "addr:state": "KY", "addr:street_address": "3675 E JOHN ROWAN BLVD", "amenity": "post_box", "collection_times": "Mo-Fr 10:00", "nsi_id": "unitedstatespostalservice-a77078", "operator": "United States Postal Service", "operator:short": "USPS", "operator:type": "public", "operator:wikidata": "Q668687", "ref": "4000400037"}, "type": "Feature"}
{"geometry": {"coordinates": [-85.475970472, 37.810799515], "type": "Point"}, "id": "iPSs9jA-R2NycpO3_K5JO8vfkLU=", "properties": {"@source_uri": "https://tools.usps.com/UspsToolsRestServices/rest/POLocator/findLocations", "@spider": "usps_collection_boxes", "addr:city": "BARDSTOWN", "addr:country": "US", "addr:postcode": "40004", "addr:state": "KY", "addr:street_address": "510 W STEPHEN FOSTER AVE", "amenity": "post_box", "collection_times": "Mo-Fr 17:00; Sa 11:30", "indoor": "yes", "note": "ON 12/24 AND 12/31, THIS BOX MAY BE COLLECTED AS EARLY AS 12 NOON.", "nsi_id": "unitedstatespostalservice-a77078", "operator": "United States Postal Service", "operator:short": "USPS", "operator:type": "public", "operator:wikidata": "Q668687", "ref": "4000400043"}, "type": "Feature"}
{"geometry": {"coordinates": [-85.316589814, 38.594960615], "type": "Point"}, "id": "9oYUmzTiqrhc53OGpanK6lV5p5s=", "properties": {"@source_uri": "https://tools.usps.com/UspsToolsRestServices/rest/POLocator/findLocations", "@spider": "usps_collection_boxes", "addr:city": "BEDFORD", "addr:country": "US", "addr:postcode": "40006", "addr:state": "KY", "addr:street_address": "305 HIGHWAY 42 E", "amenity": "post_box", "collection_times": "Mo-Fr 16:00; Sa 12:00", "note": "ON 12/24 AND 12/31, THIS BOX MAY BE COLLECTED AS EARLY AS 12 NOON.", "nsi_id": "unitedstatespostalservice-a77078", "operator": "United States Postal Service", "operator:short": "USPS", "operator:type": "public", "operator:wikidata": "Q668687", "ref": "4000600001"}, "type": "Feature"}
{"geometry": {"coordinates": [-85.316589814, 38.594960615], "type": "Point"}, "id": "eQagN7c_Tlq_B_Pbuo8cIpYHVvM=", "properties": {"@source_uri": "https://tools.usps.com/UspsToolsRestServices/rest/POLocator/findLocations", "@spider": "usps_collection_boxes", "addr:city": "BEDFORD", "addr:country": "US", "addr:postcode": "40006", "addr:state": "KY", "addr:street_address": "305 HIGHWAY 42 E", "amenity": "post_box", "collection_times": "Mo-Fr 16:00; Sa 12:00", "indoor": "yes", "note": "ON 12/24 AND 12/31, THIS BOX MAY BE COLLECTED AS EARLY AS 12 NOON.", "nsi_id": "unitedstatespostalservice-a77078", "operator": "United States Postal Service", "operator:short": "USPS", "operator:type": "public", "operator:wikidata": "Q668687", "ref": "4000600002"}, "type": "Feature"}
{"geometry": {"coordinates": [-85.316589814, 38.594960615], "type": "Point"}, "id": "z_XASMUffAucCEsItg7D9gnEFeg=", "properties": {"@source_uri": "https://tools.usps.com/UspsToolsRestServices/rest/POLocator/findLocations", "@spider": "usps_collection_boxes", "addr:city": "BEDFORD", "addr:country": "US", "addr:postcode": "40006", "addr:state": "KY", "addr:street_address": "305 HIGHWAY 42 E", "amenity": "post_box", "collection_times": "Mo-Fr 16:00; Sa 12:00", "indoor": "yes", "note": "ON 12/24 AND 12/31, THIS BOX MAY BE COLLECTED AS EARLY AS 12 NOON.", "nsi_id": "unitedstatespostalservice-a77078", "operator": "United States Postal Service", "operator:short": "USPS", "operator:type": "public", "operator:wikidata": "Q668687", "ref": "4000600005"}, "type": "Feature"}
{"geometry": {"coordinates": [-85.071524594, 38.402527639], "type": "Point"}, "id": "sQnctv46RT3Esu5j2BRyeTndh8c=", "properties": {"@source_uri": "https://tools.usps.com/UspsToolsRestServices/rest/POLocator/findLocations", "@spider": "usps_collection_boxes", "addr:city": "BETHLEHEM", "addr:country": "US", "addr:postcode": "40007", "addr:state": "KY", "addr:street_address": "3946 BETHLEHEM RD", "amenity": "post_box", "collection_times": "Mo-Sa 12:15", "note": "ON 12/24 AND 12/31, THIS BOX MAY BE COLLECTED AS EARLY AS 12 NOON.", "nsi_id": "unitedstatespostalservice-a77078", "operator": "United States Postal Service", "operator:short": "USPS", "operator:type": "public", "operator:wikidata": "Q668687", "ref": "4000700001"}, "type": "Feature"}
{"geometry": {"coordinates": [-85.071524594, 38.402527639], "type": "Point"}, "id": "7XXc9mtexvY5gX5Aso5KauU8cbc=", "properties": {"@source_uri": "https://tools.usps.com/UspsToolsRestServices/rest/POLocator/findLocations", "@spider": "usps_collection_boxes", "addr:city": "BETHLEHEM", "addr:country": "US", "addr:postcode": "40007", "addr:state": "KY", "addr:street_address": "3946 BETHLEHEM RD", "amenity": "post_box", "collection_times": "Mo-Fr 11:00; Sa 12:30", "indoor": "yes", "note": "ON 12/24 AND 12/31, THIS BOX MAY BE COLLECTED AS EARLY AS 12 NOON.", "nsi_id": "unitedstatespostalservice-a77078", "operator": "United States Postal Service", "operator:short": "USPS", "operator:type": "public", "operator:wikidata": "Q668687", "ref": "4000700005"}, "type": "Feature"}
{"geometry": {"coordinates": [-85.317766698, 37.91342723], "type": "Point"}, "id": "ybGH99dpmxdHlSR7mxNAHWaD3YY=", "properties": {"@source_uri": "https://tools.usps.com/UspsToolsRestServices/rest/POLocator/findLocations", "@spider": "usps_collection_boxes", "addr:city": "BLOOMFIELD", "addr:country": "US", "addr:postcode": "40008", "addr:state": "KY", "addr:street_address": "131 TAYLORSVILLE RD", "amenity": "post_box", "collection_times": "Mo-Fr 16:00; Sa 11:00", "note": "ON 12/24 AND 12/31, THIS BOX MAY BE COLLECTED AS EARLY AS 12 NOON.", "nsi_id": "unitedstatespostalservice-a77078", "operator": "United States Postal Service", "operator:short": "USPS", "operator:type": "public", "operator:wikidata": "Q668687", "ref": "4000800002"}, "type": "Feature"}
{"geometry": {"coordinates": [-85.317766698, 37.91342723], "type": "Point"}, "id": "RlAl5tgAoReD0zfJ2GPW1bj61-4=", "properties": {"@source_uri": "https://tools.usps.com/UspsToolsRestServices/rest/POLocator/findLocations", "@spider": "usps_collection_boxes", "addr:city": "BLOOMFIELD", "addr:country": "US", "addr:postcode": "40008", "addr:state": "KY", "addr:street_address": "131 TAYLORSVILLE RD", "amenity": "post_box", "collection_times": "Mo-Fr 16:00; Sa 11:00", "indoor": "yes", "note": "ON 12/24 AND 12/31, THIS BOX MAY BE COLLECTED AS EARLY AS 12 NOON.", "nsi_id": "unitedstatespostalservice-a77078", "operator": "United States Postal Service", "operator:short": "USPS", "operator:type": "public", "operator:wikidata": "Q668687", "ref": "4000800004"}, "type": "Feature"}
{"geometry": {"coordinates": [-85.317766698, 37.91342723], "type": "Point"}, "id": "c1mXdrCWKJECJKxuuB6fNmfOT_Q=", "properties": {"@source_uri": "https://tools.usps.com/UspsToolsRestServices/rest/POLocator/findLocations", "@spider": "usps_collection_boxes", "addr:city": "BLOOMFIELD", "addr:country": "US", "addr:postcode": "40008", "addr:state": "KY", "addr:street_address": "131 TAYLORSVILLE RD", "amenity": "post_box", "collection_times": "Mo-Fr 16:00; Sa 11:00", "indoor": "yes", "note": "ON 12/24 AND 12/31, THIS BOX MAY BE COLLECTED AS EARLY AS 12 NOON.", "nsi_id": "unitedstatespostalservice-a77078", "operator": "United States Postal Service", "operator:short": "USPS", "operator:type": "public", "operator:wikidata": "Q668687", "ref": "4000800007"}, "type": "Feature"}
{"geometry": {"coordinates": [-85.148848291, 37.493209869], "type": "Point"}, "id": "UCgUjFOYlkNbs6TPf4I6_iQhTg8=", "properties": {"@source_uri": "https://tools.usps.com/UspsToolsRestServices/rest/POLocator/findLocations", "@spider": "usps_collection_boxes", "addr:city": "BRADFORDSVILLE", "addr:country": "US", "addr:postcode": "40009", "addr:state": "KY", "addr:street_address": "112 S 6TH ST", "amenity": "post_box", "collection_times": "Mo-Fr 16:00; Sa 11:45", "note": "ON 12/24 AND 12/31, THIS BOX MAY BE COLLECTED AS EARLY AS 12 NOON.", "nsi_id": "unitedstatespostalservice-a77078", "operator": "United States Postal Service", "operator:short": "USPS", "operator:type": "public", "operator:wikidata": "Q668687", "ref": "4000900001"}, "type": "Feature"}
{"geometry": {"coordinates": [-85.148848291, 37.493209869], "type": "Point"}, "id": "sYoj-17RYwAYyH0R70LZ2Uun1uU=", "properties": {"@source_uri": "https://tools.usps.com/UspsToolsRestServices/rest/POLocator/findLocations", "@spider": "usps_collection_boxes", "addr:city": "BRADFORDSVILLE", "addr:country": "US", "addr:postcode": "40009", "addr:state": "KY", "addr:street_address": "112 S 6TH ST", "amenity": "post_box", "collection_times": "Mo-Fr 16:00; Sa 11:45", "indoor": "yes", "note": "ON 12/24 AND 12/31, THIS BOX MAY BE COLLECTED AS EARLY AS 12 NOON.", "nsi_id": "unitedstatespostalservice-a77078", "operator": "United States Postal Service", "operator:short": "USPS", "operator:type": "public", "operator:wikidata": "Q668687", "ref": "4000900005"}, "type": "Feature"}
{"geometry": {"coordinates": [-85.443137816, 38.373100061], "type": "Point"}, "id": "y5KkCHd-kvpIXfjjmivCmi-jg1M=", "properties": {"@source_uri": "https://tools.usps.com/UspsToolsRestServices/rest/POLocator/findLocations", "@spider": "usps_collection_boxes", "addr:city": "BUCKNER", "addr:country": "US", "addr:postcode": "40010", "addr:state": "KY", "addr:street_address": "4725 W HIGHWAY 146", "amenity": "post_box", "collection_times": "Mo-Fr 16:15; Sa 10:45", "note": "ON 12/24 AND 12/31, THIS BOX MAY BE COLLECTED AS EARLY AS 12 NOON.", "nsi_id": "unitedstatespostalservice-a77078", "operator": "United States Postal Service", "operator:short": "USPS", "operator:type": "public", "operator:wikidata": "Q668687", "ref": "4001000001"}, "type": "Feature"}
{"geometry": {"coordinates": [-85.443137816, 38.373100061], "type": "Point"}, "id": "Nz5zF-2CcTrAgSetz2MN_bIh5QA=", "properties": {"@source_uri": "https://tools.usps.com/UspsToolsRestServices/rest/POLocator/findLocations", "@spider": "usps_collection_boxes", "addr:city": "BUCKNER", "addr:country": "US", "addr:postcode": "40010", "addr:state": "KY", "addr:street_address": "4725 W HIGHWAY 146", "amenity": "post_box", "collection_times": "Mo-Fr 16:15; Sa 10:45", "indoor": "yes", "note": "ON 12/24 AND 12/31, THIS BOX MAY BE COLLECTED AS EARLY AS 12 NOON.", "nsi_id": "unitedstatespostalservice-a77078", "operator": "United States Postal Service", "operator:short": "USPS", "operator:type": "public", "operator:wikidata": "Q668687", "ref": "4001000002"}, "type": "Feature"}
{"geometry": {"coordinates": [-85.443137816, 38.373100061], "type": "Point"}, "id": "o306ZIg58Q8KQay5fcmCkBjJuME=", "properties": {"@source_uri": "https://tools.usps.com/UspsToolsRestServices/rest/POLocator/findLocations", "@spider": "usps_collection_boxes", "addr:city": "BUCKNER", "addr:country": "US", "addr:postcode": "40010", "addr:state": "KY", "addr:street_address": "4725 W HIGHWAY 146", "amenity": "post_box", "collection_times": "Mo-Fr 16:30; Sa 11:00", "indoor": "yes", "note": "ON 12/24 AND 12/31, THIS BOX MAY BE COLLECTED AS EARLY AS 12 NOON.", "nsi_id": "unitedstatespostalservice-a77078", "operator": "United States Postal Service", "operator:short": "USPS", "operator:type": "public", "operator:wikidata": "Q668687", "ref": "4001000005"}, "type": "Feature"}
{"geometry": {"coordinates": [-85.201293526, 38.5237515], "type": "Point"}, "id": "3lZf1XvgEKzPuDTYmFlwt2Ia5PI=", "properties": {"@source_uri": "https://tools.usps.com/UspsToolsRestServices/rest/POLocator/findLocations", "@spider": "usps_collection_boxes", "addr:city": "CAMPBELLSBURG", "addr:country": "US", "addr:postcode": "40011", "addr:state": "KY", "addr:street_address": "8130 MAIN ST", "amenity": "post_box", "collection_times": "Mo-Fr 15:45; Sa 11:00", "note": "ON 12/24 AND 12/31, THIS BOX MAY BE COLLECTED AS EARLY AS 12 NOON.", "nsi_id": "unitedstatespostalservice-a77078", "operator": "United States Postal Service", "operator:short": "USPS", "operator:type": "public", "operator:wikidata": "Q668687", "ref": "4001100001"}, "type": "Feature"}
{"geometry": {"coordinates": [-85.201293526, 38.5237515], "type": "Point"}, "id": "3OEefAAY2luUcYFLONad9YNPNyc=", "properties": {"@source_uri": "https://tools.usps.com/UspsToolsRestServices/rest/POLocator/findLocations", "@spider": "usps_collection_boxes", "addr:city": "CAMPBELLSBURG", "addr:country": "US", "addr:postcode": "40011", "addr:state": "KY", "addr:street_address": "8130 MAIN ST", "amenity": "post_box", "collection_times": "Mo-Fr 15:45; Sa 11:00", "indoor": "yes", "note": "ON 12/24 AND 12/31, THIS BOX MAY BE COLLECTED AS EARLY AS 12 NOON.", "nsi_id": "unitedstatespostalservice-a77078", "operator": "United States Postal Service", "operator:short": "USPS", "operator:type": "public", "operator:wikidata": "Q668687", "ref": "4001100002"}, "type": "Feature"}
{"geometry": {"coordinates": [-85.201293526, 38.5237515], "type": "Point"}, "id": "V9mLw6EbTLLOkD-MJNb_CmEeVig=", "properties": {"@source_uri": "https://tools.usps.com/UspsToolsRestServices/rest/POLocator/findLocations", "@spider": "usps_collection_boxes", "addr:city": "CAMPBELLSBURG", "addr:country": "US", "addr:postcode": "40011", "addr:state": "KY", "addr:street_address": "8130 MAIN ST", "amenity": "post_box", "collection_times": "Mo-Fr 16:00; Sa 11:00", "indoor": "yes", "note": "ON 12/24 AND 12/31, THIS BOX MAY BE COLLECTED AS EARLY AS 12 NOON.", "nsi_id": "unitedstatespostalservice-a77078", "operator": "United States Postal Service", "operator:short": "USPS", "operator:type": "public", "operator:wikidata": "Q668687", "ref": "4001100005"}, "type": "Feature"}
{"geometry": {"coordinates": [-85.222367485, 37.897627331], "type": "Point"}, "id": "B7m-LKeqcBAQ7587O-QQgGnVKrU=", "properties": {"@source_uri": "https://tools.usps.com/UspsToolsRestServices/rest/POLocator/findLocations", "@spider": "usps_collection_boxes", "addr:city": "CHAPLIN", "addr:country": "US", "addr:postcode": "40012", "addr:state": "KY", "addr:street_address": "24 OLD TUNNELL MILL RD", "amenity": "post_box", "collection_times": "Mo-Sa 10:30", "nsi_id": "unitedstatespostalservice-a77078", "operator": "United States Postal Service", "operator:short": "USPS", "operator:type": "public", "operator:wikidata": "Q668687", "ref": "4001200001"}, "type": "Feature"}
{"geometry": {"coordinates": [-85.222367485, 37.897627331], "type": "Point"}, "id": "pFEh5toSM5B09uEYNywbzrUFpp8=", "properties": {"@source_uri": "https://tools.usps.com/UspsToolsRestServices/rest/POLocator/findLocations", "@spider": "usps_collection_boxes", "addr:city": "CHAPLIN", "addr:country": "US", "addr:postcode": "40012", "addr:state": "KY", "addr:street_address": "24 OLD TUNNELL MILL RD", "amenity": "post_box", "collection_times": "Mo-Sa 10:30", "indoor": "yes", "nsi_id": "unitedstatespostalservice-a77078", "operator": "United States Postal Service", "operator:short": "USPS", "operator:type": "public", "operator:wikidata": "Q668687", "ref": "4001200005"}, "type": "Feature"}
{"geometry": {"coordinates": [-85.472663815, 37.895700008], "type": "Point"}, "id": "R_-y0IIu--6HzJRoIiUvc1GBsy4=", "properties": {"@source_uri": "https://tools.usps.com/UspsToolsRestServices/rest/POLocator/findLocations", "@spider": "usps_collection_boxes", "addr:city": "COXS CREEK", "addr:country": "US", "addr:postcode": "40013", "addr:state": "KY", "addr:street_address": "6120 LOUISVILLE RD", "amenity": "post_box", "collection_times": "Mo-Fr 15:15; Sa 10:45", "note": "ON 12/24 AND 12/31, THIS BOX MAY BE COLLECTED AS EARLY AS 12 NOON.", "nsi_id": "unitedstatespostalservice-a77078", "operator": "United States Postal Service", "operator:short": "USPS", "operator:type": "public", "operator:wikidata": "Q668687", "ref": "4001300001"}, "type": "Feature"}
{"geometry": {"coordinates": [-85.472663815, 37.895700008], "type": "Point"}, "id": "zxVMpe8JGdXC1jDELrdJUyCw-y4=", "properties": {"@source_uri": "https://tools.usps.com/UspsToolsRestServices/rest/POLocator/findLocations", "@spider": "usps_collection_boxes", "addr:city": "COXS CREEK", "addr:country": "US", "addr:postcode": "40013", "addr:state": "KY", "addr:street_address": "6120 LOUISVILLE RD", "amenity": "post_box", "collection_times": "Mo-Fr 15:30; Sa 11:00", "indoor": "yes", "note": "ON 12/24 AND 12/31, THIS BOX MAY BE COLLECTED AS EARLY AS 12 NOON.", "nsi_id": "unitedstatespostalservice-a77078", "operator": "United States Postal Service", "operator:short": "USPS", "operator:type": "public", "operator:wikidata": "Q668687", "ref": "4001300007"}, "type": "Feature"}
{"geometry": {"coordinates": [-85.4722138, 38.322776], "type": "Point"}, "id": "TuEwWTFziESgzwsLotiY_wX9cxA=", "properties": {"@source_uri": "https://tools.usps.com/UspsToolsRestServices/rest/POLocator/findLocations", "@spider": "usps_collection_boxes", "addr:city": "CRESTWOOD", "addr:country": "US", "addr:postcode": "40014", "addr:state": "KY", "addr:street_address": "6518 W HIGHWAY 146", "amenity": "post_box", "collection_times": "Mo-Sa 11:00", "nsi_id": "unitedstatespostalservice-a77078", "operator": "United States Postal Service", "operator:short": "USPS", "operator:type": "public", "operator:wikidata": "Q668687", "ref": "4001400003"}, "type": "Feature"}
{"geometry": {"coordinates": [-85.472742957, 38.325826361], "type": "Point"}, "id": "jrXbTZ8JCXwbBHCnWCuZ4swAww0=", "properties": {"@source_uri": "https://tools.usps.com/UspsToolsRestServices/rest/POLocator/findLocations", "@spider": "usps_collection_boxes", "addr:city": "CRESTWOOD", "addr:country": "US", "addr:postcode": "40014", "addr:state": "KY", "addr:street_address": "6815 CENTRAL AVE", "amenity": "post_box", "collection_times": "Mo-Fr 16:30; Sa 11:00", "indoor": "yes", "note": "ON 12/24 AND 12/31, THIS BOX MAY BE COLLECTED AS EARLY AS 12 NOON.", "nsi_id": "unitedstatespostalservice-a77078", "operator": "United States Postal Service", "operator:short": "USPS", "operator:type": "public", "operator:wikidata": "Q668687", "ref": "4001400011"}, "type": "Feature"}
{"geometry": {"coordinates": [-85.452304039, 38.232015358], "type": "Point"}, "id": "iO4ID990QQ8Slcnzo5yqYPJST_s=", "properties": {"@source_uri": "https://tools.usps.com/UspsToolsRestServices/rest/POLocator/findLocations", "@spider": "usps_collection_boxes", "addr:city": "EASTWOOD", "addr:country": "US", "addr:postcode": "40018", "addr:state": "KY", "addr:street_address": "16207 EASTWOOD CUT OFF RD", "amenity": "post_box", "collection_times": "Mo-Fr 16:15; Sa 10:00", "indoor": "yes", "note": "ON 12/24 AND 12/31, THIS BOX MAY BE COLLECTED AS EARLY AS 12 NOON.", "nsi_id": "unitedstatespostalservice-a77078", "operator": "United States Postal Service", "operator:short": "USPS", "operator:type": "public", "operator:wikidata": "Q668687", "ref": "4001800002"}, "type": "Feature"}
{"geometry": {"coordinates": [-85.452304039, 38.232015358], "type": "Point"}, "id": "-E-JT8Iq7j_4sUnS3LlbP04lFrQ=", "properties": {"@source_uri": "https://tools.usps.com/UspsToolsRestServices/rest/POLocator/findLocations", "@spider": "usps_collection_boxes", "addr:city": "EASTWOOD", "addr:country": "US", "addr:postcode": "40018", "addr:state": "KY", "addr:street_address": "16207 EASTWOOD CUT OFF RD", "amenity": "post_box", "collection_times": "Mo-Fr 16:15; Sa 10:00", "indoor": "yes", "note": "ON 12/24 AND 12/31, THIS BOX MAY BE COLLECTED AS EARLY AS 12 NOON.", "nsi_id": "unitedstatespostalservice-a77078", "operator": "United States Postal Service", "operator:short": "USPS", "operator:type": "public", "operator:wikidata": "Q668687", "ref": "4001800005"}, "type": "Feature"}
{"geometry": {"coordinates": [-85.179828383, 38.371152902], "type": "Point"}, "id": "lrPPLwjcPEEDVZuvUmUM-mNKfms=", "properties": {"@source_uri": "https://tools.usps.com/UspsToolsRestServices/rest/POLocator/findLocations", "@spider": "usps_collection_boxes", "addr:city": "EMINENCE", "addr:country": "US", "addr:postcode": "40019", "addr:state": "KY", "addr:street_address": "4827 N MAIN ST", "amenity": "post_box", "collection_times": "Mo-Fr 16:00; Sa 11:00", "note": "ON 12/24 AND 12/31, THIS BOX MAY BE COLLECTED AS EARLY AS 12 NOON.", "nsi_id": "unitedstatespostalservice-a77078", "operator": "United States Postal Service", "operator:short": "USPS", "operator:type": "public", "operator:wikidata": "Q668687", "ref": "4001900001"}, "type": "Feature"}
{"geometry": {"coordinates": [-85.179828383, 38.371152902], "type": "Point"}, "id": "ij7HtPMCrJdSXQCewHHX4b6XIOg=", "properties": {"@source_uri": "https://tools.usps.com/UspsToolsRestServices/rest/POLocator/findLocations", "@spider": "usps_collection_boxes", "addr:city": "EMINENCE", "addr:country": "US", "addr:postcode": "40019", "addr:state": "KY", "addr:street_address": "4827 N MAIN ST", "amenity": "post_box", "collection_times": "Mo-Fr 16:00; Sa 11:00", "indoor": "yes", "note": "ON 12/24 AND 12/31, THIS BOX MAY BE COLLECTED AS EARLY AS 12 NOON.", "nsi_id": "unitedstatespostalservice-a77078", "operator": "United States Postal Service", "operator:short": "USPS", "operator:type": "public", "operator:wikidata": "Q668687", "ref": "4001900003"}, "type": "Feature"}
{"geometry": {"coordinates": [-85.1798289785, 38.3711643829], "type": "Point"}, "id": "qJGU4ZSQrCBUkxpzntujFJKqHck=", "properties": {"@source_uri": "https://tools.usps.com/UspsToolsRestServices/rest/POLocator/findLocations", "@spider": "usps_collection_boxes", "addr:city": "EMINENCE", "addr:country": "US", "addr:postcode": "40019", "addr:state": "KY", "addr:street_address": "4827 N MAIN ST", "amenity": "post_box", "collection_times": "Mo-Fr 10:45", "indoor": "yes", "nsi_id": "unitedstatespostalservice-a77078", "operator": "United States Postal Service", "operator:short": "USPS", "operator:type": "public", "operator:wikidata": "Q668687", "ref": "4001900009"}, "type": "Feature"}
{"geometry": {"coordinates": [-85.383550877, 37.934030693], "type": "Point"}, "id": "5sYlPXAaiZYYQizWPEtLxMRmLw8=", "properties": {"@source_uri": "https://tools.usps.com/UspsToolsRestServices/rest/POLocator/findLocations", "@spider": "usps_collection_boxes", "addr:city": "FAIRFIELD", "addr:country": "US", "addr:postcode": "40020", "addr:state": "KY", "addr:street_address": "104 LITTLE UNION RD", "amenity": "post_box", "collection_times": "Mo-Sa 11:00", "nsi_id": "unitedstatespostalservice-a77078", "operator": "United States Postal Service", "operator:short": "USPS", "operator:type": "public", "operator:wikidata": "Q668687", "ref": "4002000001"}, "type": "Feature"}
{"geometry": {"coordinates": [-85.383550877, 37.934030693], "type": "Point"}, "id": "FnUdu22hrjfmaKH67leuYNmYZ7E=", "properties": {"@source_uri": "https://tools.usps.com/UspsToolsRestServices/rest/POLocator/findLocations", "@spider": "usps_collection_boxes", "addr:city": "FAIRFIELD", "addr:country": "US", "addr:postcode": "40020", "addr:state": "KY", "addr:street_address": "104 LITTLE UNION RD", "amenity": "post_box", "collection_times": "Mo-Sa 11:00", "indoor": "yes", "nsi_id": "unitedstatespostalservice-a77078", "operator": "United States Postal Service", "operator:short": "USPS", "operator:type": "public", "operator:wikidata": "Q668687", "ref": "4002000005"}, "type": "Feature"}
{"geometry": {"coordinates": [-85.318372191, 38.148331192], "type": "Point"}, "id": "gmsSvxrH9o-_awXi7VWnBq5biFc=", "properties": {"@source_uri": "https://tools.usps.com/UspsToolsRestServices/rest/POLocator/findLocations", "@spider": "usps_collection_boxes", "addr:city": "FINCHVILLE", "addr:country": "US", "addr:postcode": "40022", "addr:state": "KY", "addr:street_address": "5655 TAYLORSVILLE RD", "amenity": "post_box", "collection_times": "Mo-Fr 15:45; Sa 11:30", "note": "ON 12/24 AND 12/31, THIS BOX MAY BE COLLECTED AS EARLY AS 12 NOON.", "nsi_id": "unitedstatespostalservice-a77078", "operator": "United States Postal Service", "operator:short": "USPS", "operator:type": "public", "operator:wikidata": "Q668687", "ref": "4002200001"}, "type": "Feature"}
{"geometry": {"coordinates": [-85.318372191, 38.148331192], "type": "Point"}, "id": "u-w19UWUlKX2apPz3d1Zo0FV3vc=", "properties": {"@source_uri": "https://tools.usps.com/UspsToolsRestServices/rest/POLocator/findLocations", "@spider": "usps_collection_boxes", "addr:city": "FINCHVILLE", "addr:country": "US", "addr:postcode": "40022", "addr:state": "KY", "addr:street_address": "5655 TAYLORSVILLE RD", "amenity": "post_box", "collection_times": "Mo-Fr 15:45; Sa 11:30", "indoor": "yes", "note": "ON 12/24 AND 12/31, THIS BOX MAY BE COLLECTED AS EARLY AS 12 NOON.", "nsi_id": "unitedstatespostalservice-a77078", "operator": "United States Postal Service", "operator:short": "USPS", "operator:type": "public", "operator:wikidata": "Q668687", "ref": "4002200005"}, "type": "Feature"}
{"geometry": {"coordinates": [-85.460913324, 38.189360093], "type": "Point"}, "id": "G1gl46y3dPn1PCGFdpQF_Mxx2RY=", "properties": {"@source_uri": "https://tools.usps.com/UspsToolsRestServices/rest/POLocator/findLocations", "@spider": "usps_collection_boxes", "addr:city": "FISHERVILLE", "addr:country": "US", "addr:postcode": "40023", "addr:state": "KY", "addr:street_address": "15125 OLD TAYLORSVILLE RD", "amenity": "post_box", "collection_times": "Mo-Fr 15:00; Sa 13:30", "note": "ON 12/24 AND 12/31, THIS BOX MAY BE COLLECTED AS EARLY AS 12 NOON.", "nsi_id": "unitedstatespostalservice-a77078", "operator": "United States Postal Service", "operator:short": "USPS", "operator:type": "public", "operator:wikidata": "Q668687", "ref": "4002300001"}, "type": "Feature"}
{"geometry": {"coordinates": [-85.460913324, 38.189360093], "type": "Point"}, "id": "deF0aZQy_XiN_8xonnaMYwiEg0c=", "properties": {"@source_uri": "https://tools.usps.com/UspsToolsRestServices/rest/POLocator/findLocations", "@spider": "usps_collection_boxes", "addr:city": "FISHERVILLE", "addr:country": "US", "addr:postcode": "40023", "addr:state": "KY", "addr:street_address": "15125 OLD TAYLORSVILLE RD", "amenity": "post_box", "collection_times": "Mo-Fr 15:00; Sa 13:30", "indoor": "yes", "note": "ON 12/24 AND 12/31, THIS BOX MAY BE COLLECTED AS EARLY AS 12 NOON.", "nsi_id": "unitedstatespostalservice-a77078", "operator": "United States Postal Service", "operator:short": "USPS", "operator:type": "public", "operator:wikidata": "Q668687", "ref": "4002300002"}, "type": "Feature"}
{"geometry": {"coordinates": [-85.460913324, 38.189360093], "type": "Point"}, "id": "DUOQxd-ENhdOAxZgraUh85o4PYQ=", "properties": {"@source_uri": "https://tools.usps.com/UspsToolsRestServices/rest/POLocator/findLocations", "@spider": "usps_collection_boxes", "addr:city": "FISHERVILLE", "addr:country": "US", "addr:postcode": "40023", "addr:state": "KY", "addr:street_address": "15125 OLD TAYLORSVILLE RD", "amenity": "post_box", "collection_times": "Mo-Fr 15:00; Sa 13:30", "indoor": "yes", "note": "ON 12/24 AND 12/31, THIS BOX MAY BE COLLECTED AS EARLY AS 12 NOON.", "nsi_id": "unitedstatespostalservice-a77078", "operator": "United States Postal Service", "operator:short": "USPS", "operator:type": "public", "operator:wikidata": "Q668687", "ref": "4002300005"}, "type": "Feature"}
{"geometry": {"coordinates": [-85.651272239, 38.309514026], "type": "Point"}, "id": "BuXJXkuRbpXD-aQbCpynNmOVkfs=", "properties": {"@source_uri": "https://tools.usps.com/UspsToolsRestServices/rest/POLocator/findLocations", "@spider": "usps_collection_boxes", "addr:city": "GLENVIEW", "addr:country": "US", "addr:postcode": "40025", "addr:state": "KY", "addr:street_address": "4330 GLENVIEW AVE", "amenity": "post_box", "collection_times": "Mo-Fr 11:45; Sa 10:45", "nsi_id": "unitedstatespostalservice-a77078", "operator": "United States Postal Service", "operator:short": "USPS", "operator:type": "public", "operator:wikidata": "Q668687", "ref": "4002500001"}, "type": "Feature"}
{"geometry": {"coordinates": [-85.651272239, 38.309514026], "type": "Point"}, "id": "U9eFiWeqm7LWU0PzSaw9tlSWs7Y=", "properties": {"@source_uri": "https://tools.usps.com/UspsToolsRestServices/rest/POLocator/findLocations", "@spider": "usps_collection_boxes", "addr:city": "GLENVIEW", "addr:country": "US", "addr:postcode": "40025", "addr:state": "KY", "addr:street_address": "4330 GLENVIEW AVE", "amenity": "post_box", "collection_times": "Mo-Fr 12:00; Sa 11:00", "indoor": "yes", "nsi_id": "unitedstatespostalservice-a77078", "operator": "United States Postal Service", "operator:short": "USPS", "operator:type": "public", "operator:wikidata": "Q668687", "ref": "4002500005"}, "type": "Feature"}
{"geometry": {"coordinates": [-85.581047025, 38.392054987], "type": "Point"}, "id": "ycx3jgNjF2T4JpPh0t94fJCCznM=", "properties": {"@source_uri": "https://tools.usps.com/UspsToolsRestServices/rest/POLocator/findLocations", "@spider": "usps_collection_boxes", "addr:city": "GOSHEN", "addr:country": "US", "addr:postcode": "40026", "addr:state": "KY", "addr:street_address": "12340 W HIGHWAY 42", "amenity": "post_box", "collection_times": "Mo-Fr 17:00; Sa 11:30", "note": "ON 12/24 AND 12/31, THIS BOX MAY BE COLLECTED AS EARLY AS 12 NOON.", "nsi_id": "unitedstatespostalservice-a77078", "operator": "United States Postal Service", "operator:short": "USPS", "operator:type": "public", "operator:wikidata": "Q668687", "ref": "4002600001"}, "type": "Feature"}
{"geometry": {"coordinates": [-85.581783695, 38.392208865], "type": "Point"}, "id": "HDOXcrv4obkzyqfANKAQG7Jtcig=", "properties": {"@source_uri": "https://tools.usps.com/UspsToolsRestServices/rest/POLocator/findLocations", "@spider": "usps_collection_boxes", "addr:city": "GOSHEN", "addr:country": "US", "addr:postcode": "40026", "addr:state": "KY", "addr:street_address": "12340 W HIGHWAY 42", "amenity": "post_box", "collection_times": "Mo-Fr 17:00; Sa 11:30", "indoor": "yes", "note": "ON 12/24 AND 12/31, THIS BOX MAY BE COLLECTED AS EARLY AS 12 NOON.", "nsi_id": "unitedstatespostalservice-a77078", "operator": "United States Postal Service", "operator:short": "USPS", "operator:type": "public", "operator:wikidata": "Q668687", "ref": "4002600007"}, "type": "Feature"}
{"geometry": {"coordinates": [-85.634680543, 38.327515857], "type": "Point"}, "id": "G0EnlyNz5QiF-b59A4kjeWSMXeE=", "properties": {"@source_uri": "https://tools.usps.com/UspsToolsRestServices/rest/POLocator/findLocations", "@spider": "usps_collection_boxes", "addr:city": "HARRODS CREEK", "addr:country": "US", "addr:postcode": "40027", "addr:state": "KY", "addr:street_address": "6319 UPPER RIVER RD", "amenity": "post_box", "collection_times": "Mo-Fr 15:45; Sa 11:15", "note": "ON 12/24 AND 12/31, THIS BOX MAY BE COLLECTED AS EARLY AS 12 NOON.", "nsi_id": "unitedstatespostalservice-a77078", "operator": "United States Postal Service", "operator:short": "USPS", "operator:type": "public", "operator:wikidata": "Q668687", "ref": "4002700001"}, "type": "Feature"}
{"geometry": {"coordinates": [-85.634680543, 38.327515857], "type": "Point"}, "id": "ZFx53xczJkm94ijn1Uu1I1Zvhcc=", "properties": {"@source_uri": "https://tools.usps.com/UspsToolsRestServices/rest/POLocator/findLocations", "@spider": "usps_collection_boxes", "addr:city": "HARRODS CREEK", "addr:country": "US", "addr:postcode": "40027", "addr:state": "KY", "addr:street_address": "6319 UPPER RIVER RD", "amenity": "post_box", "collection_times": "Mo-Fr 15:45; Sa 11:15", "indoor": "yes", "note": "ON 12/24 AND 12/31, THIS BOX MAY BE COLLECTED AS EARLY AS 12 NOON.", "nsi_id": "unitedstatespostalservice-a77078", "operator": "United States Postal Service", "operator:short": "USPS", "operator:type": "public", "operator:wikidata": "Q668687", "ref": "4002700002"}, "type": "Feature"}
{"geometry": {"coordinates": [-85.634680543, 38.327515857], "type": "Point"}, "id": "EEfILanfahZ8UzBp4rQNYJ5S_mU=", "properties": {"@source_uri": "https://tools.usps.com/UspsToolsRestServices/rest/POLocator/findLocations", "@spider": "usps_collection_boxes", "addr:city": "HARRODS CREEK", "addr:country": "US", "addr:postcode": "40027", "addr:state": "KY", "addr:street_address": "6319 UPPER RIVER RD", "amenity": "post_box", "collection_times": "Mo-Fr 15:45; Sa 11:15", "indoor": "yes", "note": "ON 12/24 AND 12/31, THIS BOX MAY BE COLLECTED AS EARLY AS 12 NOON.", "nsi_id": "unitedstatespostalservice-a77078", "operator": "United States Postal Service", "operator:short": "USPS", "operator:type": "public", "operator:wikidata": "Q668687", "ref": "4002700005"}, "type": "Feature"}
{"geometry": {"coordinates": [-85.377298557, 38.400906004], "type": "Point"}, "id": "PWGA2qAppMomQBJehnx18HZnYZk=", "properties": {"@source_uri": "https://tools.usps.com/UspsToolsRestServices/rest/POLocator/findLocations", "@spider": "usps_collection_boxes", "addr:city": "LAGRANGE", "addr:country": "US", "addr:postcode": "40031", "addr:state": "KY", "addr:street_address": "108 W CRYSTAL DR", "amenity": "post_box", "collection_times": "Mo-Fr 16:30; Sa 14:30", "note": "ON 12/24 AND 12/31, THIS BOX MAY BE COLLECTED AS EARLY AS 12 NOON.", "nsi_id": "unitedstatespostalservice-a77078", "operator": "United States Postal Service", "operator:short": "USPS", "operator:type": "public", "operator:wikidata": "Q668687", "ref": "4003100001"}, "type": "Feature"}
{"geometry": {"coordinates": [-85.3790243, 38.407725], "type": "Point"}, "id": "4_sYqYB9TQsk-p9zWl9NP1pB05g=", "properties": {"@source_uri": "https://tools.usps.com/UspsToolsRestServices/rest/POLocator/findLocations", "@spider": "usps_collection_boxes", "addr:city": "LAGRANGE", "addr:country": "US", "addr:postcode": "40031", "addr:state": "KY", "addr:street_address": "100 W MAIN ST", "amenity": "post_box", "collection_times": "Mo-Fr 14:30; Sa 13:30", "note": "ON 12/24 AND 12/31, THIS BOX MAY BE COLLECTED AS EARLY AS 12 NOON.", "nsi_id": "unitedstatespostalservice-a77078", "operator": "United States Postal Service", "operator:short": "USPS", "operator:type": "public", "operator:wikidata": "Q668687", "ref": "4003100006"}, "type": "Feature"}
{"geometry": {"coordinates": [-85.3750966, 38.39566], "type": "Point"}, "id": "6PSnPsAaT8VxXJlmpDy56_oNgic=", "properties": {"@source_uri": "https://tools.usps.com/UspsToolsRestServices/rest/POLocator/findLocations", "@spider": "usps_collection_boxes", "addr:city": "LAGRANGE", "addr:country": "US", "addr:postcode": "40031", "addr:state": "KY", "addr:street_address": "1023 SANIBEL WAY", "amenity": "post_box", "collection_times": "Mo-Sa 12:00", "nsi_id": "unitedstatespostalservice-a77078", "operator": "United States Postal Service", "operator:short": "USPS", "operator:type": "public", "operator:wikidata": "Q668687", "ref": "4003100009"}, "type": "Feature"}
{"geometry": {"coordinates": [-85.3673873, 38.393569], "type": "Point"}, "id": "A_0nNkdZCJKYcnjckzl9GlhUBPY=", "properties": {"@source_uri": "https://tools.usps.com/UspsToolsRestServices/rest/POLocator/findLocations", "@spider": "usps_collection_boxes", "addr:city": "LAGRANGE", "addr:country": "US", "addr:postcode": "40031", "addr:state": "KY", "addr:street_address": "2034 S HIGHWAY 53", "amenity": "post_box", "collection_times": "Mo-Sa 10:00", "nsi_id": "unitedstatespostalservice-a77078", "operator": "United States Postal Service", "operator:short": "USPS", "operator:type": "public", "operator:wikidata": "Q668687", "ref": "4003100010"}, "type": "Feature"}
{"geometry": {"coordinates": [-85.377298557, 38.400906004], "type": "Point"}, "id": "2R8z5YMuUAYC6Ui_8YYwTkHLQQo=", "properties": {"@source_uri": "https://tools.usps.com/UspsToolsRestServices/rest/POLocator/findLocations", "@spider": "usps_collection_boxes", "addr:city": "LAGRANGE", "addr:country": "US", "addr:postcode": "40031", "addr:state": "KY", "addr:street_address": "108 W CRYSTAL DR", "amenity": "post_box", "collection_times": "Mo-Fr 16:30; Sa 14:30", "note": "ON 12/24 AND 12/31, THIS BOX MAY BE COLLECTED AS EARLY AS 12 NOON.", "nsi_id": "unitedstatespostalservice-a77078", "operator": "United States Postal Service", "operator:short": "USPS", "operator:type": "public", "operator:wikidata": "Q668687", "ref": "4003100011"}, "type": "Feature"}
{"geometry": {"coordinates": [-85.377298557, 38.400906004], "type": "Point"}, "id": "r2JlZIOlpftAZeS9SzbpEpmQpLg=", "properties": {"@source_uri": "https://tools.usps.com/UspsToolsRestServices/rest/POLocator/findLocations", "@spider": "usps_collection_boxes", "addr:city": "LAGRANGE", "addr:country": "US", "addr:postcode": "40031", "addr:state": "KY", "addr:street_address": "108 W CRYSTAL DR", "amenity": "post_box", "collection_times": "Mo-Fr 16:30; Sa 14:30", "indoor": "yes", "note": "ON 12/24 AND 12/31, THIS BOX MAY BE COLLECTED AS EARLY AS 12 NOON.", "nsi_id": "unitedstatespostalservice-a77078", "operator": "United States Postal Service", "operator:short": "USPS", "operator:type": "public", "operator:wikidata": "Q668687", "ref": "4003100013"}, "type": "Feature"}
{"geometry": {"coordinates": [-85.377298557, 38.400906004], "type": "Point"}, "id": "RrFv7i7gb8WAOovWY1Unwy3QFI0=", "properties": {"@source_uri": "https://tools.usps.com/UspsToolsRestServices/rest/POLocator/findLocations", "@spider": "usps_collection_boxes", "addr:city": "LAGRANGE", "addr:country": "US", "addr:postcode": "40031", "addr:state": "KY", "addr:street_address": "108 W CRYSTAL DR", "amenity": "post_box", "collection_times": "Mo-Fr 16:30; Sa 14:30", "indoor": "yes", "note": "ON 12/24 AND 12/31, THIS BOX MAY BE COLLECTED AS EARLY AS 12 NOON.", "nsi_id": "unitedstatespostalservice-a77078", "operator": "United States Postal Service", "operator:short": "USPS", "operator:type": "public", "operator:wikidata": "Q668687", "ref": "4003100014"}, "type": "Feature"}
{"geometry": {"coordinates": [-85.377298557, 38.400906004], "type": "Point"}, "id": "USIGRxNs1mRmjkgVRNdXOsumka4=", "properties": {"@source_uri": "https://tools.usps.com/UspsToolsRestServices/rest/POLocator/findLocations", "@spider": "usps_collection_boxes", "addr:city": "LAGRANGE", "addr:country": "US", "addr:postcode": "40031", "addr:state": "KY", "addr:street_address": "108 W CRYSTAL DR", "amenity": "post_box", "collection_times": "Mo-Fr 16:30; Sa 11:00", "indoor": "yes", "note": "ON 12/24 AND 12/31, THIS BOX MAY BE COLLECTED AS EARLY AS 12 NOON.", "nsi_id": "unitedstatespostalservice-a77078", "operator": "United States Postal Service", "operator:short": "USPS", "operator:type": "public", "operator:wikidata": "Q668687", "ref": "4003100021"}, "type": "Feature"}
{"geometry": {"coordinates": [-85.252544899, 37.569976454], "type": "Point"}, "id": "0IVr-s1pGhbeQSOE-cyykOuZvaI=", "properties": {"@source_uri": "https://tools.usps.com/UspsToolsRestServices/rest/POLocator/findLocations", "@spider": "usps_collection_boxes", "addr:city": "LEBANON", "addr:country": "US", "addr:postcode": "40033", "addr:state": "KY", "addr:street_address": "101 E MAIN ST", "amenity": "post_box", "collection_times": "Mo-Fr 16:15; Sa 16:00", "note": "ON 12/24 AND 12/31, THIS BOX MAY BE COLLECTED AS EARLY AS 12 NOON.", "nsi_id": "unitedstatespostalservice-a77078", "operator": "United States Postal Service", "operator:short": "USPS", "operator:type": "public", "operator:wikidata": "Q668687", "ref": "4003300001"}, "type": "Feature"}
{"geometry": {"coordinates": [-85.252544899, 37.569976454], "type": "Point"}, "id": "Z_m1cGFXODI4bFSuzPOINROGdlo=", "properties": {"@source_uri": "https://tools.usps.com/UspsToolsRestServices/rest/POLocator/findLocations", "@spider": "usps_collection_boxes", "addr:city": "LEBANON", "addr:country": "US", "addr:postcode": "40033", "addr:state": "KY", "addr:street_address": "101 E MAIN ST", "amenity": "post_box", "collection_times": "Mo-Fr 16:15; Sa 16:00", "indoor": "yes", "note": "ON 12/24 AND 12/31, THIS BOX MAY BE COLLECTED AS EARLY AS 12 NOON.", "nsi_id": "unitedstatespostalservice-a77078", "operator": "United States Postal Service", "operator:short": "USPS", "operator:type": "public", "operator:wikidata": "Q668687", "ref": "4003300032"}, "type": "Feature"}
{"geometry": {"coordinates": [-85.252544899, 37.569976454], "type": "Point"}, "id": "YzBEyB7HIjfJc-TaeZRxyl0iXTw=", "properties": {"@source_uri": "https://tools.usps.com/UspsToolsRestServices/rest/POLocator/findLocations", "@spider": "usps_collection_boxes", "addr:city": "LEBANON", "addr:country": "US", "addr:postcode": "40033", "addr:state": "KY", "addr:street_address": "101 E MAIN ST", "amenity": "post_box", "collection_times": "Mo-Fr 16:15; Sa 11:30", "indoor": "yes", "note": "ON 12/24 AND 12/31, THIS BOX MAY BE COLLECTED AS EARLY AS 12 NOON.", "nsi_id": "unitedstatespostalservice-a77078", "operator": "United States Postal Service", "operator:short": "USPS", "operator:type": "public", "operator:wikidata": "Q668687", "ref": "4003300036"}, "type": "Feature"}
{"geometry": {"coordinates": [-85.398968478, 37.63501618], "type": "Point"}, "id": "IYobevvxRKjtWKHKfj-tMmDXuoQ=", "properties": {"@source_uri": "https://tools.usps.com/UspsToolsRestServices/rest/POLocator/findLocations", "@spider": "usps_collection_boxes", "addr:city": "LORETTO", "addr:country": "US", "addr:postcode": "40037", "addr:state": "KY", "addr:street_address": "4800 HIGHWAY 52", "amenity": "post_box", "collection_times": "Mo-Fr 15:30; Sa 11:15", "note": "ON 12/24 AND 12/31, THIS BOX MAY BE COLLECTED AS EARLY AS 12 NOON.", "nsi_id": "unitedstatespostalservice-a77078", "operator": "United States Postal Service", "operator:short": "USPS", "operator:type": "public", "operator:wikidata": "Q668687", "ref": "4003700001"}, "type": "Feature"}
{"geometry": {"coordinates": [-85.398968478, 37.63501618], "type": "Point"}, "id": "hK1aRk-oC0_0YGlETGvz5EnBwwY=", "properties": {"@source_uri": "https://tools.usps.com/UspsToolsRestServices/rest/POLocator/findLocations", "@spider": "usps_collection_boxes", "addr:city": "LORETTO", "addr:country": "US", "addr:postcode": "40037", "addr:state": "KY", "addr:street_address": "4800 HIGHWAY 52", "amenity": "post_box", "collection_times": "Mo-Fr 15:30; Sa 11:15", "indoor": "yes", "note": "ON 12/24 AND 12/31, THIS BOX MAY BE COLLECTED AS EARLY AS 12 NOON.", "nsi_id": "unitedstatespostalservice-a77078", "operator": "United States Postal Service", "operator:short": "USPS", "operator:type": "public", "operator:wikidata": "Q668687", "ref": "4003700005"}, "type": "Feature"}
{"geometry": {"coordinates": [-85.069321, 37.736084], "type": "Point"}, "id": "V9i2nDSRijY33YEu4zuZGJtoioo=", "properties": {"@source_uri": "https://tools.usps.com/UspsToolsRestServices/rest/POLocator/findLocations", "@spider": "usps_collection_boxes", "addr:city": "MACKVILLE", "addr:country": "US", "addr:postcode": "40040", "addr:state": "KY", "addr:street_address": "10696 MAIN ST", "amenity": "post_box", "collection_times": "Mo-Fr 10:00; Sa 11:15", "nsi_id": "unitedstatespostalservice-a77078", "operator": "United States Postal Service", "operator:short": "USPS", "operator:type": "public", "operator:wikidata": "Q668687", "ref": "4004000001"}, "type": "Feature"}
{"geometry": {"coordinates": [-85.069374, 37.736041], "type": "Point"}, "id": "TwjooGpICMy6wc6PZ7j_iaS_6_g=", "properties": {"@source_uri": "https://tools.usps.com/UspsToolsRestServices/rest/POLocator/findLocations", "@spider": "usps_collection_boxes", "addr:city": "MACKVILLE", "addr:country": "US", "addr:postcode": "40040", "addr:state": "KY", "addr:street_address": "10696 MAIN ST", "amenity": "post_box", "collection_times": "Mo-Fr 10:00; Sa 11:15", "indoor": "yes", "nsi_id": "unitedstatespostalservice-a77078", "operator": "United States Postal Service", "operator:short": "USPS", "operator:type": "public", "operator:wikidata": "Q668687", "ref": "4004000002"}, "type": "Feature"}
{"geometry": {"coordinates": [-85.0693543523, 37.7361092315], "type": "Point"}, "id": "YM_HiB7rFetcepAErmTdm2IIdTk=", "properties": {"@source_uri": "https://tools.usps.com/UspsToolsRestServices/rest/POLocator/findLocations", "@spider": "usps_collection_boxes", "addr:city": "MACKVILLE", "addr:country": "US", "addr:postcode": "40040", "addr:state": "KY", "addr:street_address": "10696 MAIN ST", "amenity": "post_box", "collection_times": "Mo-Fr 10:00; Sa 11:15", "indoor": "yes", "nsi_id": "unitedstatespostalservice-a77078", "operator": "United States Postal Service", "operator:short": "USPS", "operator:type": "public", "operator:wikidata": "Q668687", "ref": "4004000005"}, "type": "Feature"}
{"geometry": {"coordinates": [-85.36974345, 38.724492532], "type": "Point"}, "id": "lZ7g_81iQKcx79ork7GtyxqJVS0=", "properties": {"@source_uri": "https://tools.usps.com/UspsToolsRestServices/rest/POLocator/findLocations", "@spider": "usps_collection_boxes", "addr:city": "MILTON", "addr:country": "US", "addr:postcode": "40045", "addr:state": "KY", "addr:street_address": "21 HIGH ST", "amenity": "post_box", "collection_times": "Mo-Fr 15:45; Sa 12:00", "note": "ON 12/24 AND 12/31, THIS BOX MAY BE COLLECTED AS EARLY AS 12 NOON.", "nsi_id": "unitedstatespostalservice-a77078", "operator": "United States Postal Service", "operator:short": "USPS", "operator:type": "public", "operator:wikidata": "Q668687", "ref": "4004500001"}, "type": "Feature"}
{"geometry": {"coordinates": [-85.36974345, 38.724492532], "type": "Point"}, "id": "GLaJf2-3kR3w8czS3K_lP2fMMDg=", "properties": {"@source_uri": "https://tools.usps.com/UspsToolsRestServices/rest/POLocator/findLocations", "@spider": "usps_collection_boxes", "addr:city": "MILTON", "addr:country": "US", "addr:postcode": "40045", "addr:state": "KY", "addr:street_address": "21 HIGH ST", "amenity": "post_box", "collection_times": "Mo-Fr 16:00; Sa 12:00", "indoor": "yes", "note": "ON 12/24 AND 12/31, THIS BOX MAY BE COLLECTED AS EARLY AS 12 NOON.", "nsi_id": "unitedstatespostalservice-a77078", "operator": "United States Postal Service", "operator:short": "USPS", "operator:type": "public", "operator:wikidata": "Q668687", "ref": "4004500002"}, "type": "Feature"}
{"geometry": {"coordinates": [-85.36974345, 38.724492532], "type": "Point"}, "id": "_iXDxBO2QFx5Cxt58GZbMPxilMg=", "properties": {"@source_uri": "https://tools.usps.com/UspsToolsRestServices/rest/POLocator/findLocations", "@spider": "usps_collection_boxes", "addr:city": "MILTON", "addr:country": "US", "addr:postcode": "40045", "addr:state": "KY", "addr:street_address": "21 HIGH ST", "amenity": "post_box", "collection_times": "Mo-Fr 16:00; Sa 12:00", "indoor": "yes", "note": "ON 12/24 AND 12/31, THIS BOX MAY BE COLLECTED AS EARLY AS 12 NOON.", "nsi_id": "unitedstatespostalservice-a77078", "operator": "United States Postal Service", "operator:short": "USPS", "operator:type": "public", "operator:wikidata": "Q668687", "ref": "4004500005"}, "type": "Feature"}
{"geometry": {"coordinates": [-85.548122504, 38.053766599], "type": "Point"}, "id": "mia16iTdhPxYufoln9AY0NrnkZQ=", "properties": {"@source_uri": "https://tools.usps.com/UspsToolsRestServices/rest/POLocator/findLocations", "@spider": "usps_collection_boxes", "addr:city": "MT WASHINGTON", "addr:country": "US", "addr:postcode": "40047", "addr:state": "KY", "addr:street_address": "645 N BARDSTOWN RD", "amenity": "post_box", "collection_times": "Mo-Fr 16:00; Sa 12:00", "note": "ON 12/24 AND 12/31, THIS BOX MAY BE COLLECTED AS EARLY AS 12 NOON.", "nsi_id": "unitedstatespostalservice-a77078", "operator": "United States Postal Service", "operator:short": "USPS", "operator:type": "public", "operator:wikidata": "Q668687", "ref": "4004700001"}, "type": "Feature"}
{"geometry": {"coordinates": [-85.548122504, 38.053766599], "type": "Point"}, "id": "kZXw4XW7InQ8haemTImoC3Ea9b0=", "properties": {"@source_uri": "https://tools.usps.com/UspsToolsRestServices/rest/POLocator/findLocations", "@spider": "usps_collection_boxes", "addr:city": "MT WASHINGTON", "addr:country": "US", "addr:postcode": "40047", "addr:state": "KY", "addr:street_address": "645 N BARDSTOWN RD", "amenity": "post_box", "collection_times": "Mo-Fr 16:00; Sa 12:00", "indoor": "yes", "note": "ON 12/24 AND 12/31, THIS BOX MAY BE COLLECTED AS EARLY AS 12 NOON.", "nsi_id": "unitedstatespostalservice-a77078", "operator": "United States Postal Service", "operator:short": "USPS", "operator:type": "public", "operator:wikidata": "Q668687", "ref": "4004700002"}, "type": "Feature"}
{"geometry": {"coordinates": [-85.5392916, 38.052372], "type": "Point"}, "id": "1YMWZx_KLWtkGe2gihhM6dZymvg=", "properties": {"@source_uri": "https://tools.usps.com/UspsToolsRestServices/rest/POLocator/findLocations", "@spider": "usps_collection_boxes", "addr:city": "MT WASHINGTON", "addr:country": "US", "addr:postcode": "40047", "addr:state": "KY", "addr:street_address": "200 OAKBROOKE DR", "amenity": "post_box", "collection_times": "Mo-Sa 10:00", "nsi_id": "unitedstatespostalservice-a77078", "operator": "United States Postal Service", "operator:short": "USPS", "operator:type": "public", "operator:wikidata": "Q668687", "ref": "4004700003"}, "type": "Feature"}
{"geometry": {"coordinates": [-85.5490749, 38.043228], "type": "Point"}, "id": "svxJGLrrdx21EoRAn-kz9AWpExA=", "properties": {"@source_uri": "https://tools.usps.com/UspsToolsRestServices/rest/POLocator/findLocations", "@spider": "usps_collection_boxes", "addr:city": "MT WASHINGTON", "addr:country": "US", "addr:postcode": "40047", "addr:state": "KY", "addr:street_address": "10070 HIGHWAY 44 E", "amenity": "post_box", "collection_times": "Mo-Sa 09:30", "nsi_id": "unitedstatespostalservice-a77078", "operator": "United States Postal Service", "operator:short": "USPS", "operator:type": "public", "operator:wikidata": "Q668687", "ref": "4004700004"}, "type": "Feature"}
{"geometry": {"coordinates": [-85.548122504, 38.053766599], "type": "Point"}, "id": "O7BubDacMa4zzfxuyfVD6WcPvJQ=", "properties": {"@source_uri": "https://tools.usps.com/UspsToolsRestServices/rest/POLocator/findLocations", "@spider": "usps_collection_boxes", "addr:city": "MT WASHINGTON", "addr:country": "US", "addr:postcode": "40047", "addr:state": "KY", "addr:street_address": "645 N BARDSTOWN RD", "amenity": "post_box", "collection_times": "Mo-Fr 16:00; Sa 12:00", "indoor": "yes", "note": "ON 12/24 AND 12/31, THIS BOX MAY BE COLLECTED AS EARLY AS 12 NOON.", "nsi_id": "unitedstatespostalservice-a77078", "operator": "United States Postal Service", "operator:short": "USPS", "operator:type": "public", "operator:wikidata": "Q668687", "ref": "4004700010"}, "type": "Feature"}
{"geometry": {"coordinates": [-85.47480069, 37.850657007], "type": "Point"}, "id": "WFxUKWICNYKmks1QIp5yeY4S6TI=", "properties": {"@source_uri": "https://tools.usps.com/UspsToolsRestServices/rest/POLocator/findLocations", "@spider": "usps_collection_boxes", "addr:city": "NAZARETH", "addr:country": "US", "addr:postcode": "40048", "addr:state": "KY", "addr:street_address": "85 VILLAGE DR", "amenity": "post_box", "collection_times": "Mo-Fr 12:00; Sa 11:15", "nsi_id": "unitedstatespostalservice-a77078", "operator": "United States Postal Service", "operator:short": "USPS", "operator:type": "public", "operator:wikidata": "Q668687", "ref": "4004800001"}, "type": "Feature"}
{"geometry": {"coordinates": [-85.47480069, 37.850657007], "type": "Point"}, "id": "FMSktdzwtMU9dx6EwM4ax2x7lAQ=", "properties": {"@source_uri": "https://tools.usps.com/UspsToolsRestServices/rest/POLocator/findLocations", "@spider": "usps_collection_boxes", "addr:city": "NAZARETH", "addr:country": "US", "addr:postcode": "40048", "addr:state": "KY", "addr:street_address": "85 VILLAGE DR", "amenity": "post_box", "collection_times": "Mo-Fr 12:00; Sa 11:15", "indoor": "yes", "nsi_id": "unitedstatespostalservice-a77078", "operator": "United States Postal Service", "operator:short": "USPS", "operator:type": "public", "operator:wikidata": "Q668687", "ref": "4004800005"}, "type": "Feature"}
{"geometry": {"coordinates": [-85.395811578, 37.659267606], "type": "Point"}, "id": "ACunTGKm-Eabzl0LHtVzvEQ2Cog=", "properties": {"@source_uri": "https://tools.usps.com/UspsToolsRestServices/rest/POLocator/findLocations", "@spider": "usps_collection_boxes", "addr:city": "NERINX", "addr:country": "US", "addr:postcode": "40049", "addr:state": "KY", "addr:street_address": "515 NERINX RD", "amenity": "post_box", "collection_times": "Mo-Fr 11:45; Sa 11:00", "nsi_id": "unitedstatespostalservice-a77078", "operator": "United States Postal Service", "operator:short": "USPS", "operator:type": "public", "operator:wikidata": "Q668687", "ref": "4004900001"}, "type": "Feature"}
{"geometry": {"coordinates": [-85.395811578, 37.659267606], "type": "Point"}, "id": "-nhlg3Rc0QS7lRCbqq5p9BvEo2M=", "properties": {"@source_uri": "https://tools.usps.com/UspsToolsRestServices/rest/POLocator/findLocations", "@spider": "usps_collection_boxes", "addr:city": "NERINX", "addr:country": "US", "addr:postcode": "40049", "addr:state": "KY", "addr:street_address": "515 NERINX RD", "amenity": "post_box", "collection_times": "Mo-Fr 11:45; Sa 11:00", "indoor": "yes", "nsi_id": "unitedstatespostalservice-a77078", "operator": "United States Postal Service", "operator:short": "USPS", "operator:type": "public", "operator:wikidata": "Q668687", "ref": "4004900002"}, "type": "Feature"}
{"geometry": {"coordinates": [-85.395811578, 37.659267606], "type": "Point"}, "id": "N3prkKC7azX5-Q8-UYDAc-KFDIM=", "properties": {"@source_uri": "https://tools.usps.com/UspsToolsRestServices/rest/POLocator/findLocations", "@spider": "usps_collection_boxes", "addr:city": "NERINX", "addr:country": "US", "addr:postcode": "40049", "addr:state": "KY", "addr:street_address": "515 NERINX RD", "amenity": "post_box", "collection_times": "Mo-Fr 12:00; Sa 11:00", "indoor": "yes", "nsi_id": "unitedstatespostalservice-a77078", "operator": "United States Postal Service", "operator:short": "USPS", "operator:type": "public", "operator:wikidata": "Q668687", "ref": "4004900006"}, "type": "Feature"}
{"geometry": {"coordinates": [-85.168872356, 38.433866468], "type": "Point"}, "id": "8UeUTsUwDdEa_l6MPNTNfA_OJ3M=", "properties": {"@source_uri": "https://tools.usps.com/UspsToolsRestServices/rest/POLocator/findLocations", "@spider": "usps_collection_boxes", "addr:city": "NEW CASTLE", "addr:country": "US", "addr:postcode": "40050", "addr:state": "KY", "addr:street_address": "50 COURT ST", "amenity": "post_box", "collection_times": "Mo-Fr 16:15; Sa 11:45", "note": "ON 12/24 AND 12/31, THIS BOX MAY BE COLLECTED AS EARLY AS 12 NOON.", "nsi_id": "unitedstatespostalservice-a77078", "operator": "United States Postal Service", "operator:short": "USPS", "operator:type": "public", "operator:wikidata": "Q668687", "ref": "4005000001"}, "type": "Feature"}
{"geometry": {"coordinates": [-85.168872356, 38.433866468], "type": "Point"}, "id": "mHBx1fwuexidM-e7MGvf69REh9M=", "properties": {"@source_uri": "https://tools.usps.com/UspsToolsRestServices/rest/POLocator/findLocations", "@spider": "usps_collection_boxes", "addr:city": "NEW CASTLE", "addr:country": "US", "addr:postcode": "40050", "addr:state": "KY", "addr:street_address": "50 COURT ST", "amenity": "post_box", "collection_times": "Mo-Fr 16:15; Sa 11:45", "indoor": "yes", "note": "ON 12/24 AND 12/31, THIS BOX MAY BE COLLECTED AS EARLY AS 12 NOON.", "nsi_id": "unitedstatespostalservice-a77078", "operator": "United States Postal Service", "operator:short": "USPS", "operator:type": "public", "operator:wikidata": "Q668687", "ref": "4005000002"}, "type": "Feature"}
{"geometry": {"coordinates": [-85.168872356, 38.433866468], "type": "Point"}, "id": "fQa-OxlFBi2MmO-vpnhMxdTe8Xo=", "properties": {"@source_uri": "https://tools.usps.com/UspsToolsRestServices/rest/POLocator/findLocations", "@spider": "usps_collection_boxes", "addr:city": "NEW CASTLE", "addr:country": "US", "addr:postcode": "40050", "addr:state": "KY", "addr:street_address": "50 COURT ST", "amenity": "post_box", "collection_times": "Mo-Fr 16:30; Sa 12:00", "indoor": "yes", "note": "ON 12/24 AND 12/31, THIS BOX MAY BE COLLECTED AS EARLY AS 12 NOON.", "nsi_id": "unitedstatespostalservice-a77078", "operator": "United States Postal Service", "operator:short": "USPS", "operator:type": "public", "operator:wikidata": "Q668687", "ref": "4005000005"}, "type": "Feature"}
{"geometry": {"coordinates": [-85.592535208, 37.658415183], "type": "Point"}, "id": "-gka0OZ1dLfeaN0Egruf4C_N92Q=", "properties": {"@source_uri": "https://tools.usps.com/UspsToolsRestServices/rest/POLocator/findLocations", "@spider": "usps_collection_boxes", "addr:city": "NEW HAVEN", "addr:country": "US", "addr:postcode": "40051", "addr:state": "KY", "addr:street_address": "304 CENTER ST", "amenity": "post_box", "collection_times": "Mo-Fr 15:15; Sa 11:00", "note": "ON 12/24 AND 12/31, THIS BOX MAY BE COLLECTED AS EARLY AS 12 NOON.", "nsi_id": "unitedstatespostalservice-a77078", "operator": "United States Postal Service", "operator:short": "USPS", "operator:type": "public", "operator:wikidata": "Q668687", "ref": "4005100001"}, "type": "Feature"}
{"geometry": {"coordinates": [-85.592535208, 37.658415183], "type": "Point"}, "id": "NRhAFllEazztyrvZcLfSvFs1Hsk=", "properties": {"@source_uri": "https://tools.usps.com/UspsToolsRestServices/rest/POLocator/findLocations", "@spider": "usps_collection_boxes", "addr:city": "NEW HAVEN", "addr:country": "US", "addr:postcode": "40051", "addr:state": "KY", "addr:street_address": "304 CENTER ST", "amenity": "post_box", "collection_times": "Mo-Fr 16:00; Sa 11:00", "indoor": "yes", "note": "ON 12/24 AND 12/31, THIS BOX MAY BE COLLECTED AS EARLY AS 12 NOON.", "nsi_id": "unitedstatespostalservice-a77078", "operator": "United States Postal Service", "operator:short": "USPS", "operator:type": "public", "operator:wikidata": "Q668687", "ref": "4005100006"}, "type": "Feature"}
{"geometry": {"coordinates": [-85.508606925, 37.630783268], "type": "Point"}, "id": "4zAp-IpsLLBZIXu6g0dChcwFQ9o=", "properties": {"@source_uri": "https://tools.usps.com/UspsToolsRestServices/rest/POLocator/findLocations", "@spider": "usps_collection_boxes", "addr:city": "NEW HOPE", "addr:country": "US", "addr:postcode": "40052", "addr:state": "KY", "addr:street_address": "100 CHURCH ST", "amenity": "post_box", "collection_times": "Mo-Fr 14:30; Sa 10:45", "note": "ON 12/24 AND 12/31, THIS BOX MAY BE COLLECTED AS EARLY AS 12 NOON.", "nsi_id": "unitedstatespostalservice-a77078", "operator": "United States Postal Service", "operator:short": "USPS", "operator:type": "public", "operator:wikidata": "Q668687", "ref": "4005200001"}, "type": "Feature"}
{"geometry": {"coordinates": [-85.508606925, 37.630783268], "type": "Point"}, "id": "mlFSIjnMgbCIcG02cYHQOLoY864=", "properties": {"@source_uri": "https://tools.usps.com/UspsToolsRestServices/rest/POLocator/findLocations", "@spider": "usps_collection_boxes", "addr:city": "NEW HOPE", "addr:country": "US", "addr:postcode": "40052", "addr:state": "KY", "addr:street_address": "100 CHURCH ST", "amenity": "post_box", "collection_times": "Mo-Fr 14:30; Sa 10:45", "indoor": "yes", "note": "ON 12/24 AND 12/31, THIS BOX MAY BE COLLECTED AS EARLY AS 12 NOON.", "nsi_id": "unitedstatespostalservice-a77078", "operator": "United States Postal Service", "operator:short": "USPS", "operator:type": "public", "operator:wikidata": "Q668687", "ref": "4005200004"}, "type": "Feature"}
{"geometry": {"coordinates": [-85.3053580298, 38.463698357], "type": "Point"}, "id": "riEFh5tV6iCkkraR-cfMNngsjhc=", "properties": {"@source_uri": "https://tools.usps.com/UspsToolsRestServices/rest/POLocator/findLocations", "@spider": "usps_collection_boxes", "addr:city": "PENDLETON", "addr:country": "US", "addr:postcode": "40055", "addr:state": "KY", "addr:street_address": "1025 PENDLETON RD", "amenity": "post_box", "collection_times": "Mo-Fr 15:30; Sa 10:30", "note": "ON 12/24 AND 12/31, THIS BOX MAY BE COLLECTED AS EARLY AS 12 NOON.", "nsi_id": "unitedstatespostalservice-a77078", "operator": "United States Postal Service", "operator:short": "USPS", "operator:type": "public", "operator:wikidata": "Q668687", "ref": "4005500001"}, "type": "Feature"}
{"geometry": {"coordinates": [-85.2969495, 38.454444], "type": "Point"}, "id": "nN-iWojNfYk6UHbh1QQhrld3rro=", "properties": {"@source_uri": "https://tools.usps.com/UspsToolsRestServices/rest/POLocator/findLocations", "@spider": "usps_collection_boxes", "addr:city": "PENDLETON", "addr:country": "US", "addr:postcode": "40055", "addr:state": "KY", "addr:street_address": "205 PENDLETON RD", "amenity": "post_box", "collection_times": "Mo-Sa 09:00", "nsi_id": "unitedstatespostalservice-a77078", "operator": "United States Postal Service", "operator:short": "USPS", "operator:type": "public", "operator:wikidata": "Q668687", "ref": "4005500004"}, "type": "Feature"}
{"geometry": {"coordinates": [-85.305404916, 38.463792508], "type": "Point"}, "id": "udK6Lq4OGVZaT50OGMLMSM8OJ2g=", "properties": {"@source_uri": "https://tools.usps.com/UspsToolsRestServices/rest/POLocator/findLocations", "@spider": "usps_collection_boxes", "addr:city": "PENDLETON", "addr:country": "US", "addr:postcode": "40055", "addr:state": "KY", "addr:street_address": "1025 PENDLETON RD", "amenity": "post_box", "collection_times": "Mo-Fr 15:30; Sa 10:30", "indoor": "yes", "note": "ON 12/24 AND 12/31, THIS BOX MAY BE COLLECTED AS EARLY AS 12 NOON.", "nsi_id": "unitedstatespostalservice-a77078", "operator": "United States Postal Service", "operator:short": "USPS", "operator:type": "public", "operator:wikidata": "Q668687", "ref": "4005500007"}, "type": "Feature"}
{"geometry": {"coordinates": [-85.486359233, 38.312209243], "type": "Point"}, "id": "elHIjtfZ8dWI_gFW5IniqNfkISU=", "properties": {"@source_uri": "https://tools.usps.com/UspsToolsRestServices/rest/POLocator/findLocations", "@spider": "usps_collection_boxes", "addr:city": "PEWEE VALLEY", "addr:country": "US", "addr:postcode": "40056", "addr:state": "KY", "addr:street_address": "313 LA GRANGE RD", "amenity": "post_box", "collection_times": "Mo-Fr 16:30; Sa 11:00", "note": "ON 12/24 AND 12/31, THIS BOX MAY BE COLLECTED AS EARLY AS 12 NOON.", "nsi_id": "unitedstatespostalservice-a77078", "operator": "United States Postal Service", "operator:short": "USPS", "operator:type": "public", "operator:wikidata": "Q668687", "ref": "4005600001"}, "type": "Feature"}
{"geometry": {"coordinates": [-85.486359233, 38.312209243], "type": "Point"}, "id": "Aa-sJaxZShe0jnAIUT7zdg0SAoU=", "properties": {"@source_uri": "https://tools.usps.com/UspsToolsRestServices/rest/POLocator/findLocations", "@spider": "usps_collection_boxes", "addr:city": "PEWEE VALLEY", "addr:country": "US", "addr:postcode": "40056", "addr:state": "KY", "addr:street_address": "313 LA GRANGE RD", "amenity": "post_box", "collection_times": "Mo-Fr 16:30; Sa 11:00", "indoor": "yes", "note": "ON 12/24 AND 12/31, THIS BOX MAY BE COLLECTED AS EARLY AS 12 NOON.", "nsi_id": "unitedstatespostalservice-a77078", "operator": "United States Postal Service", "operator:short": "USPS", "operator:type": "public", "operator:wikidata": "Q668687", "ref": "4005600002"}, "type": "Feature"}
{"geometry": {"coordinates": [-85.486359233, 38.312209243], "type": "Point"}, "id": "A-kGhYG4h3dRZXCyUu9SHGJ_W-A=", "properties": {"@source_uri": "https://tools.usps.com/UspsToolsRestServices/rest/POLocator/findLocations", "@spider": "usps_collection_boxes", "addr:city": "PEWEE VALLEY", "addr:country": "US", "addr:postcode": "40056", "addr:state": "KY", "addr:street_address": "313 LA GRANGE RD", "amenity": "post_box", "collection_times": "Mo-Fr 16:30; Sa 11:00", "indoor": "yes", "note": "ON 12/24 AND 12/31, THIS BOX MAY BE COLLECTED AS EARLY AS 12 NOON.", "nsi_id": "unitedstatespostalservice-a77078", "operator": "United States Postal Service", "operator:short": "USPS", "operator:type": "public", "operator:wikidata": "Q668687", "ref": "4005600005"}, "type": "Feature"}
{"geometry": {"coordinates": [-85.114258797, 38.347031489], "type": "Point"}, "id": "00SWCUpOxeI7V3Jkw-lFDASEzkM=", "properties": {"@source_uri": "https://tools.usps.com/UspsToolsRestServices/rest/POLocator/findLocations", "@spider": "usps_collection_boxes", "addr:city": "PLEASUREVILLE", "addr:country": "US", "addr:postcode": "40057", "addr:state": "KY", "addr:street_address": "1009 MAIN ST", "amenity": "post_box", "collection_times": "Mo-Fr 14:30; Sa 12:00", "note": "ON 12/24 AND 12/31, THIS BOX MAY BE COLLECTED AS EARLY AS 12 NOON.", "nsi_id": "unitedstatespostalservice-a77078", "operator": "United States Postal Service", "operator:short": "USPS", "operator:type": "public", "operator:wikidata": "Q668687", "ref": "4005700001"}, "type": "Feature"}
{"geometry": {"coordinates": [-85.114258797, 38.347031489], "type": "Point"}, "id": "4k6Y9fA7Z59JhCRVsz0DOwwJ_vQ=", "properties": {"@source_uri": "https://tools.usps.com/UspsToolsRestServices/rest/POLocator/findLocations", "@spider": "usps_collection_boxes", "addr:city": "PLEASUREVILLE", "addr:country": "US", "addr:postcode": "40057", "addr:state": "KY", "addr:street_address": "1009 MAIN ST", "amenity": "post_box", "collection_times": "Mo-Fr 14:30; Sa 12:00", "indoor": "yes", "note": "ON 12/24 AND 12/31, THIS BOX MAY BE COLLECTED AS EARLY AS 12 NOON.", "nsi_id": "unitedstatespostalservice-a77078", "operator": "United States Postal Service", "operator:short": "USPS", "operator:type": "public", "operator:wikidata": "Q668687", "ref": "4005700002"}, "type": "Feature"}
{"geometry": {"coordinates": [-85.114258797, 38.347031489], "type": "Point"}, "id": "eBybWLCuFXvWIwydxRzCDuog1w0=", "properties": {"@source_uri": "https://tools.usps.com/UspsToolsRestServices/rest/POLocator/findLocations", "@spider": "usps_collection_boxes", "addr:city": "PLEASUREVILLE", "addr:country": "US", "addr:postcode": "40057", "addr:state": "KY", "addr:street_address": "1009 MAIN ST", "amenity": "post_box", "collection_times": "Mo-Fr 14:30; Sa 12:00", "indoor": "yes", "note": "ON 12/24 AND 12/31, THIS BOX MAY BE COLLECTED AS EARLY AS 12 NOON.", "nsi_id": "unitedstatespostalservice-a77078", "operator": "United States Postal Service", "operator:short": "USPS", "operator:type": "public", "operator:wikidata": "Q668687", "ref": "4005700005"}, "type": "Feature"}
{"geometry": {"coordinates": [-85.079740713, 38.556102972], "type": "Point"}, "id": "4uGyahxek7ioGAefiCW-ipVqiKU=", "properties": {"@source_uri": "https://tools.usps.com/UspsToolsRestServices/rest/POLocator/findLocations", "@spider": "usps_collection_boxes", "addr:city": "PORT ROYAL", "addr:country": "US", "addr:postcode": "40058", "addr:state": "KY", "addr:street_address": "8240 PORT ROYAL RD", "amenity": "post_box", "collection_times": "Mo-Fr 12:00; Sa 11:15", "nsi_id": "unitedstatespostalservice-a77078", "operator": "United States Postal Service", "operator:short": "USPS", "operator:type": "public", "operator:wikidata": "Q668687", "ref": "4005800002"}, "type": "Feature"}
{"geometry": {"coordinates": [-85.079740713, 38.556102972], "type": "Point"}, "id": "6ejpTzkiSzea6G-8oE19aRtk9LQ=", "properties": {"@source_uri": "https://tools.usps.com/UspsToolsRestServices/rest/POLocator/findLocations", "@spider": "usps_collection_boxes", "addr:city": "PORT ROYAL", "addr:country": "US", "addr:postcode": "40058", "addr:state": "KY", "addr:street_address": "8240 PORT ROYAL RD", "amenity": "post_box", "collection_times": "Mo-Fr 12:00; Sa 11:15", "indoor": "yes", "nsi_id": "unitedstatespostalservice-a77078", "operator": "United States Postal Service", "operator:short": "USPS", "operator:type": "public", "operator:wikidata": "Q668687", "ref": "4005800005"}, "type": "Feature"}
{"geometry": {"coordinates": [-85.6181589913, 38.3441219844], "type": "Point"}, "id": "T5H7FOmLb6OlRO-aP8hHykiDKyM=", "properties": {"@source_uri": "https://tools.usps.com/UspsToolsRestServices/rest/POLocator/findLocations", "@spider": "usps_collection_boxes", "addr:city": "PROSPECT", "addr:country": "US", "addr:postcode": "40059", "addr:state": "KY", "addr:street_address": "9523 US HIGHWAY 42", "amenity": "post_box", "collection_times": "Mo-Fr 16:00; Sa 12:00", "note": "ON 12/24 AND 12/31, THIS BOX MAY BE COLLECTED AS EARLY AS 12 NOON.", "nsi_id": "unitedstatespostalservice-a77078", "operator": "United States Postal Service", "operator:short": "USPS", "operator:type": "public", "operator:wikidata": "Q668687", "ref": "4005900001"}, "type": "Feature"}
{"geometry": {"coordinates": [-85.617293477, 38.34290635], "type": "Point"}, "id": "ZOpT2PhBQV2crtYgMVoyg2LDC8w=", "properties": {"@source_uri": "https://tools.usps.com/UspsToolsRestServices/rest/POLocator/findLocations", "@spider": "usps_collection_boxes", "addr:city": "PROSPECT", "addr:country": "US", "addr:postcode": "40059", "addr:state": "KY", "addr:street_address": "9523 US HIGHWAY 42", "amenity": "post_box", "collection_times": "Mo-Fr 16:00; Sa 12:00", "note": "ON 12/24 AND 12/31, THIS BOX MAY BE COLLECTED AS EARLY AS 12 NOON.", "nsi_id": "unitedstatespostalservice-a77078", "operator": "United States Postal Service", "operator:short": "USPS", "operator:type": "public", "operator:wikidata": "Q668687", "ref": "4005900002"}, "type": "Feature"}
{"geometry": {"coordinates": [-85.617293477, 38.34290635], "type": "Point"}, "id": "_owRmqX5YFp88Ibvpi5mYWehYR0=", "properties": {"@source_uri": "https://tools.usps.com/UspsToolsRestServices/rest/POLocator/findLocations", "@spider": "usps_collection_boxes", "addr:city": "PROSPECT", "addr:country": "US", "addr:postcode": "40059", "addr:state": "KY", "addr:street_address": "9523 US HIGHWAY 42", "amenity": "post_box", "collection_times": "Mo-Fr 16:30; Sa 12:00", "indoor": "yes", "note": "ON 12/24 AND 12/31, THIS BOX MAY BE COLLECTED AS EARLY AS 12 NOON.", "nsi_id": "unitedstatespostalservice-a77078", "operator": "United States Postal Service", "operator:short": "USPS", "operator:type": "public", "operator:wikidata": "Q668687", "ref": "4005900003"}, "type": "Feature"}
{"geometry": {"coordinates": [-85.6229284, 38.339198], "type": "Point"}, "id": "eK7aFhUL8QeuVjAyN_nxmNYt0GA=", "properties": {"@source_uri": "https://tools.usps.com/UspsToolsRestServices/rest/POLocator/findLocations", "@spider": "usps_collection_boxes", "addr:city": "PROSPECT", "addr:country": "US", "addr:postcode": "40059", "addr:state": "KY", "addr:street_address": "5949 TIMBER RIDGE DR", "amenity": "post_box", "collection_times": "Mo-Sa 12:00", "nsi_id": "unitedstatespostalservice-a77078", "operator": "United States Postal Service", "operator:short": "USPS", "operator:type": "public", "operator:wikidata": "Q668687", "ref": "4005900004"}, "type": "Feature"}
{"geometry": {"coordinates": [-85.5666214, 38.32142], "type": "Point"}, "id": "rTx1KcNY0hq79u_6aDqElAdra4g=", "properties": {"@source_uri": "https://tools.usps.com/UspsToolsRestServices/rest/POLocator/findLocations", "@spider": "usps_collection_boxes", "addr:city": "PROSPECT", "addr:country": "US", "addr:postcode": "40059", "addr:state": "KY", "addr:street_address": "9301 DAYFLOWER ST", "amenity": "post_box", "collection_times": "Mo-Fr 14:00; Sa 12:00", "note": "ON 12/24 AND 12/31, THIS BOX MAY BE COLLECTED AS EARLY AS 12 NOON.", "nsi_id": "unitedstatespostalservice-a77078", "operator": "United States Postal Service", "operator:short": "USPS", "operator:type": "public", "operator:wikidata": "Q668687", "ref": "4005900005"}, "type": "Feature"}
{"geometry": {"coordinates": [-85.5659147, 38.323513], "type": "Point"}, "id": "4HqvAvtH508NQkhS5fpCFcpC0uI=", "properties": {"@source_uri": "https://tools.usps.com/UspsToolsRestServices/rest/POLocator/findLocations", "@spider": "usps_collection_boxes", "addr:city": "PROSPECT", "addr:country": "US", "addr:postcode": "40059", "addr:state": "KY", "addr:street_address": "10616 MEETING ST", "amenity": "post_box", "collection_times": "Mo-Sa 12:00", "nsi_id": "unitedstatespostalservice-a77078", "operator": "United States Postal Service", "operator:short": "USPS", "operator:type": "public", "operator:wikidata": "Q668687", "ref": "4005900007"}, "type": "Feature"}
{"geometry": {"coordinates": [-85.5527709, 38.332872], "type": "Point"}, "id": "-sLACne_9VLL3--adrmW2eLV1ps=", "properties": {"@source_uri": "https://tools.usps.com/UspsToolsRestServices/rest/POLocator/findLocations", "@spider": "usps_collection_boxes", "addr:city": "PROSPECT", "addr:country": "US", "addr:postcode": "40059", "addr:state": "KY", "addr:street_address": "10601 WORTHINGTON LN", "amenity": "post_box", "collection_times": "Mo-Sa 12:00", "nsi_id": "unitedstatespostalservice-a77078", "operator": "United States Postal Service", "operator:short": "USPS", "operator:type": "public", "operator:wikidata": "Q668687", "ref": "4005900008"}, "type": "Feature"}
{"geometry": {"coordinates": [-85.617293477, 38.34290635], "type": "Point"}, "id": "gHdjli6lsizoBGu_bIpOGbE6QIM=", "properties": {"@source_uri": "https://tools.usps.com/UspsToolsRestServices/rest/POLocator/findLocations", "@spider": "usps_collection_boxes", "addr:city": "PROSPECT", "addr:country": "US", "addr:postcode": "40059", "addr:state": "KY", "addr:street_address": "9523 US HIGHWAY 42", "amenity": "post_box", "collection_times": "Mo-Fr 16:30; Sa 12:00", "indoor": "yes", "note": "ON 12/24 AND 12/31, THIS BOX MAY BE COLLECTED AS EARLY AS 12 NOON.", "nsi_id": "unitedstatespostalservice-a77078", "operator": "United States Postal Service", "operator:short": "USPS", "operator:type": "public", "operator:wikidata": "Q668687", "ref": "4005900011"}, "type": "Feature"}
{"geometry": {"coordinates": [-85.429136554, 37.560862215], "type": "Point"}, "id": "53Ids6nf75vmEZSSCFXEw3_c9sc=", "properties": {"@source_uri": "https://tools.usps.com/UspsToolsRestServices/rest/POLocator/findLocations", "@spider": "usps_collection_boxes", "addr:city": "RAYWICK", "addr:country": "US", "addr:postcode": "40060", "addr:state": "KY", "addr:street_address": "5805 RAYWICK RD", "amenity": "post_box", "collection_times": "Mo-Fr 12:00; Sa 11:30", "nsi_id": "unitedstatespostalservice-a77078", "operator": "United States Postal Service", "operator:short": "USPS", "operator:type": "public", "operator:wikidata": "Q668687", "ref": "4006000001"}, "type": "Feature"}
{"geometry": {"coordinates": [-85.429136554, 37.560862215], "type": "Point"}, "id": "q47oh9LdjQiYaHozeXAczOEhsdg=", "properties": {"@source_uri": "https://tools.usps.com/UspsToolsRestServices/rest/POLocator/findLocations", "@spider": "usps_collection_boxes", "addr:city": "RAYWICK", "addr:country": "US", "addr:postcode": "40060", "addr:state": "KY", "addr:street_address": "5805 RAYWICK RD", "amenity": "post_box", "collection_times": "Mo-Fr 12:00; Sa 11:30", "indoor": "yes", "nsi_id": "unitedstatespostalservice-a77078", "operator": "United States Postal Service", "operator:short": "USPS", "operator:type": "public", "operator:wikidata": "Q668687", "ref": "4006000005"}, "type": "Feature"}
{"geometry": {"coordinates": [-85.258182889, 37.709061054], "type": "Point"}, "id": "Bc3jsebDBii6RhIdPnICD3cIXxI=", "properties": {"@source_uri": "https://tools.usps.com/UspsToolsRestServices/rest/POLocator/findLocations", "@spider": "usps_collection_boxes", "addr:city": "SAINT CATHARINE", "addr:country": "US", "addr:postcode": "40061", "addr:state": "KY", "addr:street_address": "2645 BARDSTOWN RD", "amenity": "post_box", "collection_times": "Mo-Fr 12:00; Sa 11:30", "nsi_id": "unitedstatespostalservice-a77078", "operator": "United States Postal Service", "operator:short": "USPS", "operator:type": "public", "operator:wikidata": "Q668687", "ref": "4006100000"}, "type": "Feature"}
{"geometry": {"coordinates": [-85.258182889, 37.709061054], "type": "Point"}, "id": "6Y4k73cVX1lqk3gcLr-JGOcIkdM=", "properties": {"@source_uri": "https://tools.usps.com/UspsToolsRestServices/rest/POLocator/findLocations", "@spider": "usps_collection_boxes", "addr:city": "SAINT CATHARINE", "addr:country": "US", "addr:postcode": "40061", "addr:state": "KY", "addr:street_address": "2645 BARDSTOWN RD", "amenity": "post_box", "collection_times": "Mo-Fr 12:00; Sa 11:30", "indoor": "yes", "nsi_id": "unitedstatespostalservice-a77078", "operator": "United States Postal Service", "operator:short": "USPS", "operator:type": "public", "operator:wikidata": "Q668687", "ref": "4006100003"}, "type": "Feature"}
{"geometry": {"coordinates": [-85.344481786, 37.580456794], "type": "Point"}, "id": "e3uo6aa0JGWGZgGoqphuKbU0EKI=", "properties": {"@source_uri": "https://tools.usps.com/UspsToolsRestServices/rest/POLocator/findLocations", "@spider": "usps_collection_boxes", "addr:city": "SAINT MARY", "addr:country": "US", "addr:postcode": "40063", "addr:state": "KY", "addr:street_address": "3880 SAINT MARY RD", "amenity": "post_box", "collection_times": "Mo-Fr 11:45; Sa 09:00", "nsi_id": "unitedstatespostalservice-a77078", "operator": "United States Postal Service", "operator:short": "USPS", "operator:type": "public", "operator:wikidata": "Q668687", "ref": "4006300001"}, "type": "Feature"}
{"geometry": {"coordinates": [-85.344481786, 37.580456794], "type": "Point"}, "id": "SAPDNmcOYfe1lcQT9GpNo8ApWKE=", "properties": {"@source_uri": "https://tools.usps.com/UspsToolsRestServices/rest/POLocator/findLocations", "@spider": "usps_collection_boxes", "addr:city": "SAINT MARY", "addr:country": "US", "addr:postcode": "40063", "addr:state": "KY", "addr:street_address": "3880 SAINT MARY RD", "amenity": "post_box", "collection_times": "Mo-Fr 11:45", "indoor": "yes", "nsi_id": "unitedstatespostalservice-a77078", "operator": "United States Postal Service", "operator:short": "USPS", "operator:type": "public", "operator:wikidata": "Q668687", "ref": "4006300002"}, "type": "Feature"}
{"geometry": {"coordinates": [-85.344481786, 37.580456794], "type": "Point"}, "id": "S35BmnkJtEzmaK99IEq1FFg_QO4=", "properties": {"@source_uri": "https://tools.usps.com/UspsToolsRestServices/rest/POLocator/findLocations", "@spider": "usps_collection_boxes", "addr:city": "SAINT MARY", "addr:country": "US", "addr:postcode": "40063", "addr:state": "KY", "addr:street_address": "3880 SAINT MARY RD", "amenity": "post_box", "collection_times": "Mo-Fr 12:00", "indoor": "yes", "nsi_id": "unitedstatespostalservice-a77078", "operator": "United States Postal Service", "operator:short": "USPS", "operator:type": "public", "operator:wikidata": "Q668687", "ref": "4006300005"}, "type": "Feature"}
{"geometry": {"coordinates": [-85.214260144, 38.211562277], "type": "Point"}, "id": "UWXIrL2QbWmeGH4BBisqCHPyq-E=", "properties": {"@source_uri": "https://tools.usps.com/UspsToolsRestServices/rest/POLocator/findLocations", "@spider": "usps_collection_boxes", "addr:city": "SHELBYVILLE", "addr:country": "US", "addr:postcode": "40065", "addr:state": "KY", "addr:street_address": "401 4TH ST", "amenity": "post_box", "collection_times": "Mo-Fr 17:00; Sa 16:00", "note": "ON 12/24 AND 12/31, THIS BOX MAY BE COLLECTED AS EARLY AS 12 NOON.", "nsi_id": "unitedstatespostalservice-a77078", "operator": "United States Postal Service", "operator:short": "USPS", "operator:type": "public", "operator:wikidata": "Q668687", "ref": "4006500001"}, "type": "Feature"}
{"geometry": {"coordinates": [-85.214260144, 38.211562277], "type": "Point"}, "id": "l5lDedaB9Y2m2B3P9Gdw2Qg8EP0=", "properties": {"@source_uri": "https://tools.usps.com/UspsToolsRestServices/rest/POLocator/findLocations", "@spider": "usps_collection_boxes", "addr:city": "SHELBYVILLE", "addr:country": "US", "addr:postcode": "40065", "addr:state": "KY", "addr:street_address": "401 4TH ST", "amenity": "post_box", "collection_times": "Mo-Fr 17:00; Sa 16:00", "note": "ON 12/24 AND 12/31, THIS BOX MAY BE COLLECTED AS EARLY AS 12 NOON.", "nsi_id": "unitedstatespostalservice-a77078", "operator": "United States Postal Service", "operator:short": "USPS", "operator:type": "public", "operator:wikidata": "Q668687", "ref": "4006500002"}, "type": "Feature"}
{"geometry": {"coordinates": [-85.2142601436, 38.2115622774], "type": "Point"}, "id": "pMwPnv4_RknoJksucGwcaN5j61I=", "properties": {"@source_uri": "https://tools.usps.com/UspsToolsRestServices/rest/POLocator/findLocations", "@spider": "usps_collection_boxes", "addr:city": "SHELBYVILLE", "addr:country": "US", "addr:postcode": "40065", "addr:state": "KY", "addr:street_address": "401 4TH ST", "amenity": "post_box", "collection_times": "Mo-Fr 17:00; Sa 16:00", "note": "ON 12/24 AND 12/31, THIS BOX MAY BE COLLECTED AS EARLY AS 12 NOON.", "nsi_id": "unitedstatespostalservice-a77078", "operator": "United States Postal Service", "operator:short": "USPS", "operator:type": "public", "operator:wikidata": "Q668687", "ref": "4006500003"}, "type": "Feature"}
{"geometry": {"coordinates": [-85.2645499, 38.210113], "type": "Point"}, "id": "SsZtFaFEj_D-XRSW_X4vq1Eryvg=", "properties": {"@source_uri": "https://tools.usps.com/UspsToolsRestServices/rest/POLocator/findLocations", "@spider": "usps_collection_boxes", "addr:city": "SHELBYVILLE", "addr:country": "US", "addr:postcode": "40065", "addr:state": "KY", "addr:street_address": "500 TAYLORSVILLE RD", "amenity": "post_box", "collection_times": "Mo-Sa 11:00", "nsi_id": "unitedstatespostalservice-a77078", "operator": "United States Postal Service", "operator:short": "USPS", "operator:type": "public", "operator:wikidata": "Q668687", "ref": "4006500006"}, "type": "Feature"}
{"geometry": {"coordinates": [-85.2414577, 38.212013], "type": "Point"}, "id": "oq9xsOI1EXy3L52lgGV_o2oTijg=", "properties": {"@source_uri": "https://tools.usps.com/UspsToolsRestServices/rest/POLocator/findLocations", "@spider": "usps_collection_boxes", "addr:city": "SHELBYVILLE", "addr:country": "US", "addr:postcode": "40065", "addr:state": "KY", "addr:street_address": "1622 MIDLAND TRL", "amenity": "post_box", "collection_times": "Mo-Fr 15:30; Sa 15:00", "note": "ON 12/24 AND 12/31, THIS BOX MAY BE COLLECTED AS EARLY AS 12 NOON.", "nsi_id": "unitedstatespostalservice-a77078", "operator": "United States Postal Service", "operator:short": "USPS", "operator:type": "public", "operator:wikidata": "Q668687", "ref": "4006500008"}, "type": "Feature"}
{"geometry": {"coordinates": [-85.2161157, 38.211053], "type": "Point"}, "id": "xF9m_1b8LkYSr0OtJVJL1JOIRxs=", "properties": {"@source_uri": "https://tools.usps.com/UspsToolsRestServices/rest/POLocator/findLocations", "@spider": "usps_collection_boxes", "addr:city": "SHELBYVILLE", "addr:country": "US", "addr:postcode": "40065", "addr:state": "KY", "addr:street_address": "501 MAIN ST", "amenity": "post_box", "collection_times": "Mo-Fr 15:30; Sa 15:00", "note": "ON 12/24 AND 12/31, THIS BOX MAY BE COLLECTED AS EARLY AS 12 NOON.", "nsi_id": "unitedstatespostalservice-a77078", "operator": "United States Postal Service", "operator:short": "USPS", "operator:type": "public", "operator:wikidata": "Q668687", "ref": "4006500012"}, "type": "Feature"}
{"geometry": {"coordinates": [-85.2050523, 38.213578], "type": "Point"}, "id": "q00r9h1nynQxEut1zi1w9MBJ70s=", "properties": {"@source_uri": "https://tools.usps.com/UspsToolsRestServices/rest/POLocator/findLocations", "@spider": "usps_collection_boxes", "addr:city": "SHELBYVILLE", "addr:country": "US", "addr:postcode": "40065", "addr:state": "KY", "addr:street_address": "118 BOONE STATION RD", "amenity": "post_box", "collection_times": "Mo-Sa 11:00", "nsi_id": "unitedstatespostalservice-a77078", "operator": "United States Postal Service", "operator:short": "USPS", "operator:type": "public", "operator:wikidata": "Q668687", "ref": "4006500014"}, "type": "Feature"}
{"geometry": {"coordinates": [-85.214260144, 38.211562277], "type": "Point"}, "id": "MXy-qW3MzJ8s3m91Wrzdyizg9YA=", "properties": {"@source_uri": "https://tools.usps.com/UspsToolsRestServices/rest/POLocator/findLocations", "@spider": "usps_collection_boxes", "addr:city": "SHELBYVILLE", "addr:country": "US", "addr:postcode": "40065", "addr:state": "KY", "addr:street_address": "401 4TH ST", "amenity": "post_box", "collection_times": "Mo-Fr 17:00; Sa 16:00", "indoor": "yes", "note": "ON 12/24 AND 12/31, THIS BOX MAY BE COLLECTED AS EARLY AS 12 NOON.", "nsi_id": "unitedstatespostalservice-a77078", "operator": "United States Postal Service", "operator:short": "USPS", "operator:type": "public", "operator:wikidata": "Q668687", "ref": "4006500015"}, "type": "Feature"}
{"geometry": {"coordinates": [-85.214260144, 38.211562277], "type": "Point"}, "id": "61Y_0L1tQs4P7sxhSepLbqmCsTg=", "properties": {"@source_uri": "https://tools.usps.com/UspsToolsRestServices/rest/POLocator/findLocations", "@spider": "usps_collection_boxes", "addr:city": "SHELBYVILLE", "addr:country": "US", "addr:postcode": "40065", "addr:state": "KY", "addr:street_address": "401 4TH ST", "amenity": "post_box", "collection_times": "Mo-Fr 17:00; Sa 16:00", "indoor": "yes", "note": "ON 12/24 AND 12/31, THIS BOX MAY BE COLLECTED AS EARLY AS 12 NOON.", "nsi_id": "unitedstatespostalservice-a77078", "operator": "United States Postal Service", "operator:short": "USPS", "operator:type": "public", "operator:wikidata": "Q668687", "ref": "4006500017"}, "type": "Feature"}
{"geometry": {"coordinates": [-85.251283, 38.210353], "type": "Point"}, "id": "iCyE6o_CPIA6ZA93_pBNHlJ-g6Y=", "properties": {"@source_uri": "https://tools.usps.com/UspsToolsRestServices/rest/POLocator/findLocations", "@spider": "usps_collection_boxes", "addr:city": "SHELBYVILLE", "addr:country": "US", "addr:postcode": "40065", "addr:state": "KY", "addr:street_address": "140 STONECREST RD", "amenity": "post_box", "collection_times": "Mo-Sa 11:00", "nsi_id": "unitedstatespostalservice-a77078", "operator": "United States Postal Service", "operator:short": "USPS", "operator:type": "public", "operator:wikidata": "Q668687", "ref": "4006500019"}, "type": "Feature"}
{"geometry": {"coordinates": [-85.214260144, 38.211562277], "type": "Point"}, "id": "mzHC8RficLugNZDqXowZWZ6C7Cw=", "properties": {"@source_uri": "https://tools.usps.com/UspsToolsRestServices/rest/POLocator/findLocations", "@spider": "usps_collection_boxes", "addr:city": "SHELBYVILLE", "addr:country": "US", "addr:postcode": "40065", "addr:state": "KY", "addr:street_address": "401 4TH ST", "amenity": "post_box", "collection_times": "Mo-Fr 16:30; Sa 12:00", "indoor": "yes", "note": "ON 12/24 AND 12/31, THIS BOX MAY BE COLLECTED AS EARLY AS 12 NOON.", "nsi_id": "unitedstatespostalservice-a77078", "operator": "United States Postal Service", "operator:short": "USPS", "operator:type": "public", "operator:wikidata": "Q668687", "ref": "4006500024"}, "type": "Feature"}
{"geometry": {"coordinates": [-85.352311776, 38.22219455], "type": "Point"}, "id": "As9Y7-Y1_cvjPVLw9R951c_mPoo=", "properties": {"@source_uri": "https://tools.usps.com/UspsToolsRestServices/rest/POLocator/findLocations", "@spider": "usps_collection_boxes", "addr:city": "SIMPSONVILLE", "addr:country": "US", "addr:postcode": "40067", "addr:state": "KY", "addr:street_address": "6990 SHELBYVILLE RD", "amenity": "post_box", "collection_times": "Mo-Fr 16:15; Sa 09:45", "note": "ON 12/24 AND 12/31, THIS BOX MAY BE COLLECTED AS EARLY AS 12 NOON.", "nsi_id": "unitedstatespostalservice-a77078", "operator": "United States Postal Service", "operator:short": "USPS", "operator:type": "public", "operator:wikidata": "Q668687", "ref": "4006700001"}, "type": "Feature"}
{"geometry": {"coordinates": [-85.352311776, 38.22219455], "type": "Point"}, "id": "VtZNCb609uxx732J6k0EfntFR-s=", "properties": {"@source_uri": "https://tools.usps.com/UspsToolsRestServices/rest/POLocator/findLocations", "@spider": "usps_collection_boxes", "addr:city": "SIMPSONVILLE", "addr:country": "US", "addr:postcode": "40067", "addr:state": "KY", "addr:street_address": "6990 SHELBYVILLE RD", "amenity": "post_box", "collection_times": "Mo-Fr 16:15; Sa 09:45", "indoor": "yes", "note": "ON 12/24 AND 12/31, THIS BOX MAY BE COLLECTED AS EARLY AS 12 NOON.", "nsi_id": "unitedstatespostalservice-a77078", "operator": "United States Postal Service", "operator:short": "USPS", "operator:type": "public", "operator:wikidata": "Q668687", "ref": "4006700002"}, "type": "Feature"}
{"geometry": {"coordinates": [-85.352311776, 38.22219455], "type": "Point"}, "id": "s39b5Dzsv0j06gjfGe0RVIzhEgE=", "properties": {"@source_uri": "https://tools.usps.com/UspsToolsRestServices/rest/POLocator/findLocations", "@spider": "usps_collection_boxes", "addr:city": "SIMPSONVILLE", "addr:country": "US", "addr:postcode": "40067", "addr:state": "KY", "addr:street_address": "6990 SHELBYVILLE RD", "amenity": "post_box", "collection_times": "Mo-Fr 16:30; Sa 10:00", "indoor": "yes", "note": "ON 12/24 AND 12/31, THIS BOX MAY BE COLLECTED AS EARLY AS 12 NOON.", "nsi_id": "unitedstatespostalservice-a77078", "operator": "United States Postal Service", "operator:short": "USPS", "operator:type": "public", "operator:wikidata": "Q668687", "ref": "4006700005"}, "type": "Feature"}
{"geometry": {"coordinates": [-85.2561315, 38.385605536], "type": "Point"}, "id": "LxQnhBEfm4lxzAHjhM9ab0WoYCc=", "properties": {"@source_uri": "https://tools.usps.com/UspsToolsRestServices/rest/POLocator/findLocations", "@spider": "usps_collection_boxes", "addr:city": "SMITHFIELD", "addr:country": "US", "addr:postcode": "40068", "addr:state": "KY", "addr:street_address": "3143 GILTNER RD", "amenity": "post_box", "collection_times": "Mo-Fr 15:45; Sa 10:45", "note": "ON 12/24 AND 12/31, THIS BOX MAY BE COLLECTED AS EARLY AS 12 NOON.", "nsi_id": "unitedstatespostalservice-a77078", "operator": "United States Postal Service", "operator:short": "USPS", "operator:type": "public", "operator:wikidata": "Q668687", "ref": "4006800001"}, "type": "Feature"}
{"geometry": {"coordinates": [-85.2561315, 38.385605536], "type": "Point"}, "id": "F-Lgc82TUTfL0xIe51nut53tQMg=", "properties": {"@source_uri": "https://tools.usps.com/UspsToolsRestServices/rest/POLocator/findLocations", "@spider": "usps_collection_boxes", "addr:city": "SMITHFIELD", "addr:country": "US", "addr:postcode": "40068", "addr:state": "KY", "addr:street_address": "3143 GILTNER RD", "amenity": "post_box", "collection_times": "Mo-Fr 16:00; Sa 11:00", "indoor": "yes", "note": "ON 12/24 AND 12/31, THIS BOX MAY BE COLLECTED AS EARLY AS 12 NOON.", "nsi_id": "unitedstatespostalservice-a77078", "operator": "United States Postal Service", "operator:short": "USPS", "operator:type": "public", "operator:wikidata": "Q668687", "ref": "4006800005"}, "type": "Feature"}
{"geometry": {"coordinates": [-85.22040313, 37.684537131], "type": "Point"}, "id": "q0gQLFHohIf6KiGOg4XyQgBqO5w=", "properties": {"@source_uri": "https://tools.usps.com/UspsToolsRestServices/rest/POLocator/findLocations", "@spider": "usps_collection_boxes", "addr:city": "SPRINGFIELD", "addr:country": "US", "addr:postcode": "40069", "addr:state": "KY", "addr:street_address": "202 E MAIN ST", "amenity": "post_box", "collection_times": "Mo-Fr 16:00; Sa 15:00", "note": "ON 12/24 AND 12/31, THIS BOX MAY BE COLLECTED AS EARLY AS 12 NOON.", "nsi_id": "unitedstatespostalservice-a77078", "operator": "United States Postal Service", "operator:short": "USPS", "operator:type": "public", "operator:wikidata": "Q668687", "ref": "4006900001"}, "type": "Feature"}
{"geometry": {"coordinates": [-85.2343668, 37.690074], "type": "Point"}, "id": "-YSPABDzl7mOO9Vd0LdpYD_Ro6k=", "properties": {"@source_uri": "https://tools.usps.com/UspsToolsRestServices/rest/POLocator/findLocations", "@spider": "usps_collection_boxes", "addr:city": "SPRINGFIELD", "addr:country": "US", "addr:postcode": "40069", "addr:state": "KY", "addr:street_address": "805 BARDSTOWN RD", "amenity": "post_box", "collection_times": "Mo-Sa 12:00", "nsi_id": "unitedstatespostalservice-a77078", "operator": "United States Postal Service", "operator:short": "USPS", "operator:type": "public", "operator:wikidata": "Q668687", "ref": "4006900002"}, "type": "Feature"}
{"geometry": {"coordinates": [-85.22040313, 37.684537131], "type": "Point"}, "id": "_mFu3jhGNHq9pxhS9qjenR0bKRM=", "properties": {"@source_uri": "https://tools.usps.com/UspsToolsRestServices/rest/POLocator/findLocations", "@spider": "usps_collection_boxes", "addr:city": "SPRINGFIELD", "addr:country": "US", "addr:postcode": "40069", "addr:state": "KY", "addr:street_address": "202 E MAIN ST", "amenity": "post_box", "collection_times": "Mo-Fr 16:30; Sa 15:00", "indoor": "yes", "note": "ON 12/24 AND 12/31, THIS BOX MAY BE COLLECTED AS EARLY AS 12 NOON.", "nsi_id": "unitedstatespostalservice-a77078", "operator": "United States Postal Service", "operator:short": "USPS", "operator:type": "public", "operator:wikidata": "Q668687", "ref": "4006900013"}, "type": "Feature"}
{"geometry": {"coordinates": [-85.22040313, 37.684537131], "type": "Point"}, "id": "fLxYJIQ5zQRK-07b7g-OyH0sGGY=", "properties": {"@source_uri": "https://tools.usps.com/UspsToolsRestServices/rest/POLocator/findLocations", "@spider": "usps_collection_boxes", "addr:city": "SPRINGFIELD", "addr:country": "US", "addr:postcode": "40069", "addr:state": "KY", "addr:street_address": "202 E MAIN ST", "amenity": "post_box", "collection_times": "Mo-Fr 16:30; Sa 15:00", "indoor": "yes", "note": "ON 12/24 AND 12/31, THIS BOX MAY BE COLLECTED AS EARLY AS 12 NOON.", "nsi_id": "unitedstatespostalservice-a77078", "operator": "United States Postal Service", "operator:short": "USPS", "operator:type": "public", "operator:wikidata": "Q668687", "ref": "4006900015"}, "type": "Feature"}
{"geometry": {"coordinates": [-85.22040313, 37.684537131], "type": "Point"}, "id": "gSsTll_E3dEfCC42vwXMQkw5yz8=", "properties": {"@source_uri": "https://tools.usps.com/UspsToolsRestServices/rest/POLocator/findLocations", "@spider": "usps_collection_boxes", "addr:city": "SPRINGFIELD", "addr:country": "US", "addr:postcode": "40069", "addr:state": "KY", "addr:street_address": "202 E MAIN ST", "amenity": "post_box", "collection_times": "Mo-Fr 16:30; Sa 12:00", "indoor": "yes", "note": "ON 12/24 AND 12/31, THIS BOX MAY BE COLLECTED AS EARLY AS 12 NOON.", "nsi_id": "unitedstatespostalservice-a77078", "operator": "United States Postal Service", "operator:short": "USPS", "operator:type": "public", "operator:wikidata": "Q668687", "ref": "4006900017"}, "type": "Feature"}
{"geometry": {"coordinates": [-85.3448741, 38.031068], "type": "Point"}, "id": "vulMwsAdBR_86Afs7QQ11p6qAos=", "properties": {"@source_uri": "https://tools.usps.com/UspsToolsRestServices/rest/POLocator/findLocations", "@spider": "usps_collection_boxes", "addr:city": "TAYLORSVILLE", "addr:country": "US", "addr:postcode": "40071", "addr:state": "KY", "addr:street_address": "10 W MAIN ST", "amenity": "post_box", "collection_times": "Mo-Sa 09:00", "nsi_id": "unitedstatespostalservice-a77078", "operator": "United States Postal Service", "operator:short": "USPS", "operator:type": "public", "operator:wikidata": "Q668687", "ref": "4007100003"}, "type": "Feature"}
{"geometry": {"coordinates": [-85.339668877, 38.042913301], "type": "Point"}, "id": "9u-91wq_EQo6ghMQH4wnMWkpKMo=", "properties": {"@source_uri": "https://tools.usps.com/UspsToolsRestServices/rest/POLocator/findLocations", "@spider": "usps_collection_boxes", "addr:city": "TAYLORSVILLE", "addr:country": "US", "addr:postcode": "40071", "addr:state": "KY", "addr:street_address": "800 TAYLORSVILLE RD", "amenity": "post_box", "collection_times": "Mo-Fr 16:00; Sa 11:30", "indoor": "yes", "note": "ON 12/24 AND 12/31, THIS BOX MAY BE COLLECTED AS EARLY AS 12 NOON.", "nsi_id": "unitedstatespostalservice-a77078", "operator": "United States Postal Service", "operator:short": "USPS", "operator:type": "public", "operator:wikidata": "Q668687", "ref": "4007100004"}, "type": "Feature"}
{"geometry": {"coordinates": [-85.339668877, 38.042913301], "type": "Point"}, "id": "Lrh8FXTSQHgAHXtOjEmB0hhKeec=", "properties": {"@source_uri": "https://tools.usps.com/UspsToolsRestServices/rest/POLocator/findLocations", "@spider": "usps_collection_boxes", "addr:city": "TAYLORSVILLE", "addr:country": "US", "addr:postcode": "40071", "addr:state": "KY", "addr:street_address": "800 TAYLORSVILLE RD", "amenity": "post_box", "collection_times": "Mo-Fr 16:00; Sa 11:30", "note": "ON 12/24 AND 12/31, THIS BOX MAY BE COLLECTED AS EARLY AS 12 NOON.", "nsi_id": "unitedstatespostalservice-a77078", "operator": "United States Postal Service", "operator:short": "USPS", "operator:type": "public", "operator:wikidata": "Q668687", "ref": "4007100005"}, "type": "Feature"}
{"geometry": {"coordinates": [-85.339668877, 38.042913301], "type": "Point"}, "id": "ioZr9mgKDn-FiqwBwljyOYO_vsk=", "properties": {"@source_uri": "https://tools.usps.com/UspsToolsRestServices/rest/POLocator/findLocations", "@spider": "usps_collection_boxes", "addr:city": "TAYLORSVILLE", "addr:country": "US", "addr:postcode": "40071", "addr:state": "KY", "addr:street_address": "800 TAYLORSVILLE RD", "amenity": "post_box", "collection_times": "Mo-Fr 16:00; Sa 11:30", "note": "ON 12/24 AND 12/31, THIS BOX MAY BE COLLECTED AS EARLY AS 12 NOON.", "nsi_id": "unitedstatespostalservice-a77078", "operator": "United States Postal Service", "operator:short": "USPS", "operator:type": "public", "operator:wikidata": "Q668687", "ref": "4007100007"}, "type": "Feature"}
{"geometry": {"coordinates": [-85.339668877, 38.042913301], "type": "Point"}, "id": "hkm2Ba1n2ni63S_Y3_zi6oFBRaM=", "properties": {"@source_uri": "https://tools.usps.com/UspsToolsRestServices/rest/POLocator/findLocations", "@spider": "usps_collection_boxes", "addr:city": "TAYLORSVILLE", "addr:country": "US", "addr:postcode": "40071", "addr:state": "KY", "addr:street_address": "800 TAYLORSVILLE RD", "amenity": "post_box", "collection_times": "Mo-Fr 16:00; Sa 11:00", "indoor": "yes", "note": "ON 12/24 AND 12/31, THIS BOX MAY BE COLLECTED AS EARLY AS 12 NOON.", "nsi_id": "unitedstatespostalservice-a77078", "operator": "United States Postal Service", "operator:short": "USPS", "operator:type": "public", "operator:wikidata": "Q668687", "ref": "4007100009"}, "type": "Feature"}
{"geometry": {"coordinates": [-85.075042167, 38.135723334], "type": "Point"}, "id": "FJIAsFizuCiOt8XJW6gTPH3ARrA=", "properties": {"@source_uri": "https://tools.usps.com/UspsToolsRestServices/rest/POLocator/findLocations", "@spider": "usps_collection_boxes", "addr:city": "WADDY", "addr:country": "US", "addr:postcode": "40076", "addr:state": "KY", "addr:street_address": "3100 WADDY RD", "amenity": "post_box", "collection_times": "Mo-Fr 15:15; Sa 10:45", "note": "ON 12/24 AND 12/31, THIS BOX MAY BE COLLECTED AS EARLY AS 12 NOON.", "nsi_id": "unitedstatespostalservice-a77078", "operator": "United States Postal Service", "operator:short": "USPS", "operator:type": "public", "operator:wikidata": "Q668687", "ref": "4007600001"}, "type": "Feature"}
{"geometry": {"coordinates": [-85.075042167, 38.135723334], "type": "Point"}, "id": "7ctU9UoXPscQNHSwdR0HbI2eG1w=", "properties": {"@source_uri": "https://tools.usps.com/UspsToolsRestServices/rest/POLocator/findLocations", "@spider": "usps_collection_boxes", "addr:city": "WADDY", "addr:country": "US", "addr:postcode": "40076", "addr:state": "KY", "addr:street_address": "3100 WADDY RD", "amenity": "post_box", "collection_times": "Mo-Fr 15:15; Sa 10:45", "indoor": "yes", "note": "ON 12/24 AND 12/31, THIS BOX MAY BE COLLECTED AS EARLY AS 12 NOON.", "nsi_id": "unitedstatespostalservice-a77078", "operator": "United States Postal Service", "operator:short": "USPS", "operator:type": "public", "operator:wikidata": "Q668687", "ref": "4007600003"}, "type": "Feature"}
{"geometry": {"coordinates": [-85.0672664, 38.156369], "type": "Point"}, "id": "toqFMkW3NNQc_m3XzRSECr53DYU=", "properties": {"@source_uri": "https://tools.usps.com/UspsToolsRestServices/rest/POLocator/findLocations", "@spider": "usps_collection_boxes", "addr:city": "WADDY", "addr:country": "US", "addr:postcode": "40076", "addr:state": "KY", "addr:street_address": "1670 WADDY RD", "amenity": "post_box", "collection_times": "Mo-Sa 09:30", "nsi_id": "unitedstatespostalservice-a77078", "operator": "United States Postal Service", "operator:short": "USPS", "operator:type": "public", "operator:wikidata": "Q668687", "ref": "4007600004"}, "type": "Feature"}
{"geometry": {"coordinates": [-85.0697514, 38.151813], "type": "Point"}, "id": "XLxq0w7pbYndLWztLaMliXyUtMI=", "properties": {"@source_uri": "https://tools.usps.com/UspsToolsRestServices/rest/POLocator/findLocations", "@spider": "usps_collection_boxes", "addr:city": "WADDY", "addr:country": "US", "addr:postcode": "40076", "addr:state": "KY", "addr:street_address": "1940 WADDY RD", "amenity": "post_box", "collection_times": "Mo-Sa 09:30", "nsi_id": "unitedstatespostalservice-a77078", "operator": "United States Postal Service", "operator:short": "USPS", "operator:type": "public", "operator:wikidata": "Q668687", "ref": "4007600006"}, "type": "Feature"}
{"geometry": {"coordinates": [-85.075042167, 38.135723334], "type": "Point"}, "id": "VBDkhamf4rQZBd7T8d9vbjaVlfM=", "properties": {"@source_uri": "https://tools.usps.com/UspsToolsRestServices/rest/POLocator/findLocations", "@spider": "usps_collection_boxes", "addr:city": "WADDY", "addr:country": "US", "addr:postcode": "40076", "addr:state": "KY", "addr:street_address": "3100 WADDY RD", "amenity": "post_box", "collection_times": "Mo-Fr 15:30; Sa 11:00", "indoor": "yes", "note": "ON 12/24 AND 12/31, THIS BOX MAY BE COLLECTED AS EARLY AS 12 NOON.", "nsi_id": "unitedstatespostalservice-a77078", "operator": "United States Postal Service", "operator:short": "USPS", "operator:type": "public", "operator:wikidata": "Q668687", "ref": "4007600008"}, "type": "Feature"}
{"geometry": {"coordinates": [-85.473970978, 38.478362019], "type": "Point"}, "id": "ZBxfDOv_mECTKcbfbbppKiuts24=", "properties": {"@source_uri": "https://tools.usps.com/UspsToolsRestServices/rest/POLocator/findLocations", "@spider": "usps_collection_boxes", "addr:city": "WESTPORT", "addr:country": "US", "addr:postcode": "40077", "addr:state": "KY", "addr:street_address": "6915 MAIN ST", "amenity": "post_box", "collection_times": "Mo-Fr 13:15; Sa 11:30", "note": "ON 12/24 AND 12/31, THIS BOX MAY BE COLLECTED AS EARLY AS 12 NOON.", "nsi_id": "unitedstatespostalservice-a77078", "operator": "United States Postal Service", "operator:short": "USPS", "operator:type": "public", "operator:wikidata": "Q668687", "ref": "4007700001"}, "type": "Feature"}
{"geometry": {"coordinates": [-85.473970978, 38.478362019], "type": "Point"}, "id": "fWv9hWMrDpb_P998HEVvO1COfJc=", "properties": {"@source_uri": "https://tools.usps.com/UspsToolsRestServices/rest/POLocator/findLocations", "@spider": "usps_collection_boxes", "addr:city": "WESTPORT", "addr:country": "US", "addr:postcode": "40077", "addr:state": "KY", "addr:street_address": "6915 MAIN ST", "amenity": "post_box", "collection_times": "Mo-Fr 13:30; Sa 12:00", "indoor": "yes", "note": "ON 12/24 AND 12/31, THIS BOX MAY BE COLLECTED AS EARLY AS 12 NOON.", "nsi_id": "unitedstatespostalservice-a77078", "operator": "United States Postal Service", "operator:short": "USPS", "operator:type": "public", "operator:wikidata": "Q668687", "ref": "4007700005"}, "type": "Feature"}
{"geometry": {"coordinates": [-85.122279901, 37.806356814], "type": "Point"}, "id": "hkICOFRcy1WtTrCSalP_zdDC-hI=", "properties": {"@source_uri": "https://tools.usps.com/UspsToolsRestServices/rest/POLocator/findLocations", "@spider": "usps_collection_boxes", "addr:city": "WILLISBURG", "addr:country": "US", "addr:postcode": "40078", "addr:state": "KY", "addr:street_address": "6260 HIGHWAY 433", "amenity": "post_box", "collection_times": "Mo-Fr 15:45; Sa 11:15", "note": "ON 12/24 AND 12/31, THIS BOX MAY BE COLLECTED AS EARLY AS 12 NOON.", "nsi_id": "unitedstatespostalservice-a77078", "operator": "United States Postal Service", "operator:short": "USPS", "operator:type": "public", "operator:wikidata": "Q668687", "ref": "4007800001"}, "type": "Feature"}
{"geometry": {"coordinates": [-85.122279901, 37.806356814], "type": "Point"}, "id": "lfxzi-Q8Id_xSKt5gffgqwL8x3o=", "properties": {"@source_uri": "https://tools.usps.com/UspsToolsRestServices/rest/POLocator/findLocations", "@spider": "usps_collection_boxes", "addr:city": "WILLISBURG", "addr:country": "US", "addr:postcode": "40078", "addr:state": "KY", "addr:street_address": "6260 HIGHWAY 433", "amenity": "post_box", "collection_times": "Mo-Fr 15:45; Sa 11:15", "indoor": "yes", "note": "ON 12/24 AND 12/31, THIS BOX MAY BE COLLECTED AS EARLY AS 12 NOON.", "nsi_id": "unitedstatespostalservice-a77078", "operator": "United States Postal Service", "operator:short": "USPS", "operator:type": "public", "operator:wikidata": "Q668687", "ref": "4007800002"}, "type": "Feature"}
{"geometry": {"coordinates": [-85.122279901, 37.806356814], "type": "Point"}, "id": "5lrIqugn6Sitd2kHjNLORPS6_ko=", "properties": {"@source_uri": "https://tools.usps.com/UspsToolsRestServices/rest/POLocator/findLocations", "@spider": "usps_collection_boxes", "addr:city": "WILLISBURG", "addr:country": "US", "addr:postcode": "40078", "addr:state": "KY", "addr:street_address": "6260 HIGHWAY 433", "amenity": "post_box", "collection_times": "Mo-Fr 16:00; Sa 11:30", "indoor": "yes", "note": "ON 12/24 AND 12/31, THIS BOX MAY BE COLLECTED AS EARLY AS 12 NOON.", "nsi_id": "unitedstatespostalservice-a77078", "operator": "United States Postal Service", "operator:short": "USPS", "operator:type": "public", "operator:wikidata": "Q668687", "ref": "4007800005"}, "type": "Feature"}
