{"dataset_attributes": {"@spider": "usps_collection_boxes", "spider:collection_time": "2023-08-31T08:24:48.849802"}, "geometry": {"coordinates": [-86.29382018, 38.064180866], "type": "Point"}, "id": "TGJx0ZENjf4vLnGo-M7paYLubwQ=", "properties": {"@spider": "usps_collection_boxes", "addr:city": "BATTLETOWN", "addr:country": "US", "addr:full": "8800 BATTLETOWN RD", "addr:postcode": "40104", "addr:state": "KY", "amenity": "post_box", "brand": "United States Postal Service", "brand:wikidata": "Q668687", "collection_times": "Mo-Fr 15:00; Sa 10:00", "name": "USPS COLLECTION BOX - BLUE BOX", "note": "ON 12/24 AND 12/31, THIS BOX MAY BE COLLECTED AS EARLY AS 12 NOON.", "nsi_id": "unitedstatespostalservice-a77078", "operator": "United States Postal Service", "operator:short": "USPS", "operator:type": "public", "operator:wikidata": "Q668687", "ref": "4010400001"}, "type": "Feature"}
{"dataset_attributes": {"@spider": "usps_collection_boxes", "spider:collection_time": "2023-08-31T08:24:48.849802"}, "geometry": {"coordinates": [-86.29382018, 38.064180866], "type": "Point"}, "id": "uPmcuPplh-IH9I2ubhPBgVyPC2o=", "properties": {"@spider": "usps_collection_boxes", "addr:city": "BATTLETOWN", "addr:country": "US", "addr:full": "8800 BATTLETOWN RD", "addr:postcode": "40104", "addr:state": "KY", "amenity": "post_box", "brand": "United States Postal Service", "brand:wikidata": "Q668687", "collection_times": "Mo-Fr 15:00; Sa 14:00", "name": "USPS COLLECTION BOX - PO LOBBY", "note": "ON 12/24 AND 12/31, THIS BOX MAY BE COLLECTED AS EARLY AS 12 NOON.", "nsi_id": "unitedstatespostalservice-a77078", "operator": "United States Postal Service", "operator:short": "USPS", "operator:type": "public", "operator:wikidata": "Q668687", "ref": "4010400005"}, "type": "Feature"}
{"dataset_attributes": {"@spider": "usps_collection_boxes", "spider:collection_time": "2023-08-31T08:24:48.849802"}, "geometry": {"coordinates": [-85.671782253, 37.787616847], "type": "Point"}, "id": "EF7HpZLVIgB5DUfke4K9Itv65Ew=", "properties": {"@spider": "usps_collection_boxes", "addr:city": "BOSTON", "addr:country": "US", "addr:full": "105 POST OFFICE CT", "addr:postcode": "40107", "addr:state": "KY", "amenity": "post_box", "brand": "United States Postal Service", "brand:wikidata": "Q668687", "collection_times": "Mo-Fr 15:00; Sa 10:45", "name": "USPS COLLECTION BOX - BLUE BOX", "note": "ON 12/24 AND 12/31, THIS BOX MAY BE COLLECTED AS EARLY AS 12 NOON.", "nsi_id": "unitedstatespostalservice-a77078", "operator": "United States Postal Service", "operator:short": "USPS", "operator:type": "public", "operator:wikidata": "Q668687", "ref": "4010700001"}, "type": "Feature"}
{"dataset_attributes": {"@spider": "usps_collection_boxes", "spider:collection_time": "2023-08-31T08:24:48.849802"}, "geometry": {"coordinates": [-85.671782253, 37.787616847], "type": "Point"}, "id": "2nvThhOn6cb6sX38XkXwff34tV0=", "properties": {"@spider": "usps_collection_boxes", "addr:city": "BOSTON", "addr:country": "US", "addr:full": "105 POST OFFICE CT", "addr:postcode": "40107", "addr:state": "KY", "amenity": "post_box", "brand": "United States Postal Service", "brand:wikidata": "Q668687", "collection_times": "Mo-Fr 15:00; Sa 10:45", "name": "USPS COLLECTION BOX - PO LOBBY", "note": "ON 12/24 AND 12/31, THIS BOX MAY BE COLLECTED AS EARLY AS 12 NOON.", "nsi_id": "unitedstatespostalservice-a77078", "operator": "United States Postal Service", "operator:short": "USPS", "operator:type": "public", "operator:wikidata": "Q668687", "ref": "4010700002"}, "type": "Feature"}
{"dataset_attributes": {"@spider": "usps_collection_boxes", "spider:collection_time": "2023-08-31T08:24:48.849802"}, "geometry": {"coordinates": [-85.671782253, 37.787616847], "type": "Point"}, "id": "i3g39ye-Wk8yIMuX3BHr7EqXYqE=", "properties": {"@spider": "usps_collection_boxes", "addr:city": "BOSTON", "addr:country": "US", "addr:full": "105 POST OFFICE CT", "addr:postcode": "40107", "addr:state": "KY", "amenity": "post_box", "brand": "United States Postal Service", "brand:wikidata": "Q668687", "collection_times": "Mo-Fr 15:00; Sa 10:45", "name": "USPS COLLECTION BOX - PO LOBBY", "note": "ON 12/24 AND 12/31, THIS BOX MAY BE COLLECTED AS EARLY AS 12 NOON.", "nsi_id": "unitedstatespostalservice-a77078", "operator": "United States Postal Service", "operator:short": "USPS", "operator:type": "public", "operator:wikidata": "Q668687", "ref": "4010700005"}, "type": "Feature"}
{"dataset_attributes": {"@spider": "usps_collection_boxes", "spider:collection_time": "2023-08-31T08:24:48.849802"}, "geometry": {"coordinates": [-86.173056122, 38.000134276], "type": "Point"}, "id": "deJYmeS5F63QK1dRIk0c0y4U9Gg=", "properties": {"@spider": "usps_collection_boxes", "addr:city": "BRANDENBURG", "addr:country": "US", "addr:full": "636 HIGH ST", "addr:postcode": "40108", "addr:state": "KY", "amenity": "post_box", "brand": "United States Postal Service", "brand:wikidata": "Q668687", "collection_times": "Mo-Fr 16:15; Sa 15:00", "name": "USPS COLLECTION BOX - BLUE BOX", "note": "ON 12/24 AND 12/31, THIS BOX MAY BE COLLECTED AS EARLY AS 12 NOON.", "nsi_id": "unitedstatespostalservice-a77078", "operator": "United States Postal Service", "operator:short": "USPS", "operator:type": "public", "operator:wikidata": "Q668687", "ref": "4010800001"}, "type": "Feature"}
{"dataset_attributes": {"@spider": "usps_collection_boxes", "spider:collection_time": "2023-08-31T08:24:48.849802"}, "geometry": {"coordinates": [-86.1646486, 37.980532], "type": "Point"}, "id": "FJo4iLB2OEyyuztOOjycocONiOo=", "properties": {"@spider": "usps_collection_boxes", "addr:city": "BRANDENBURG", "addr:country": "US", "addr:full": "610 BYPASS RD", "addr:postcode": "40108", "addr:state": "KY", "amenity": "post_box", "brand": "United States Postal Service", "brand:wikidata": "Q668687", "collection_times": "Mo-Sa 09:00", "name": "USPS COLLECTION BOX - BLUE BOX", "nsi_id": "unitedstatespostalservice-a77078", "operator": "United States Postal Service", "operator:short": "USPS", "operator:type": "public", "operator:wikidata": "Q668687", "ref": "4010800007"}, "type": "Feature"}
{"dataset_attributes": {"@spider": "usps_collection_boxes", "spider:collection_time": "2023-08-31T08:24:48.849802"}, "geometry": {"coordinates": [-86.173056122, 38.000134276], "type": "Point"}, "id": "83fvScaNxW4_oKx-nVsG3wsWuwI=", "properties": {"@spider": "usps_collection_boxes", "addr:city": "BRANDENBURG", "addr:country": "US", "addr:full": "636 HIGH ST", "addr:postcode": "40108", "addr:state": "KY", "amenity": "post_box", "brand": "United States Postal Service", "brand:wikidata": "Q668687", "collection_times": "Mo-Fr 16:15; Sa 15:00", "name": "USPS COLLECTION BOX - BLUE BOX", "note": "ON 12/24 AND 12/31, THIS BOX MAY BE COLLECTED AS EARLY AS 12 NOON.", "nsi_id": "unitedstatespostalservice-a77078", "operator": "United States Postal Service", "operator:short": "USPS", "operator:type": "public", "operator:wikidata": "Q668687", "ref": "4010800010"}, "type": "Feature"}
{"dataset_attributes": {"@spider": "usps_collection_boxes", "spider:collection_time": "2023-08-31T08:24:48.849802"}, "geometry": {"coordinates": [-86.173056122, 38.000134276], "type": "Point"}, "id": "ZX5IxlPtdLD269XzsKRT2LbFwew=", "properties": {"@spider": "usps_collection_boxes", "addr:city": "BRANDENBURG", "addr:country": "US", "addr:full": "636 HIGH ST", "addr:postcode": "40108", "addr:state": "KY", "amenity": "post_box", "brand": "United States Postal Service", "brand:wikidata": "Q668687", "collection_times": "Mo-Fr 16:15; Sa 15:00", "name": "USPS COLLECTION BOX - PO LOBBY", "note": "ON 12/24 AND 12/31, THIS BOX MAY BE COLLECTED AS EARLY AS 12 NOON.", "nsi_id": "unitedstatespostalservice-a77078", "operator": "United States Postal Service", "operator:short": "USPS", "operator:type": "public", "operator:wikidata": "Q668687", "ref": "4010800012"}, "type": "Feature"}
{"dataset_attributes": {"@spider": "usps_collection_boxes", "spider:collection_time": "2023-08-31T08:24:48.849802"}, "geometry": {"coordinates": [-86.173056122, 38.000134276], "type": "Point"}, "id": "ZadyhBR00r5mAdfHhDRo40pxXMk=", "properties": {"@spider": "usps_collection_boxes", "addr:city": "BRANDENBURG", "addr:country": "US", "addr:full": "636 HIGH ST", "addr:postcode": "40108", "addr:state": "KY", "amenity": "post_box", "brand": "United States Postal Service", "brand:wikidata": "Q668687", "collection_times": "Mo-Fr 16:15; Sa 11:00", "name": "USPS COLLECTION BOX - PO LOBBY", "note": "ON 12/24 AND 12/31, THIS BOX MAY BE COLLECTED AS EARLY AS 12 NOON.", "nsi_id": "unitedstatespostalservice-a77078", "operator": "United States Postal Service", "operator:short": "USPS", "operator:type": "public", "operator:wikidata": "Q668687", "ref": "4010800015"}, "type": "Feature"}
{"dataset_attributes": {"@spider": "usps_collection_boxes", "spider:collection_time": "2023-08-31T08:24:48.849802"}, "geometry": {"coordinates": [-85.710380468, 38.05598457], "type": "Point"}, "id": "OMdcTYjFjjXFMoXfx_hfF93Hwm8=", "properties": {"@spider": "usps_collection_boxes", "addr:city": "BROOKS", "addr:country": "US", "addr:full": "3025 CORAL RIDGE RD", "addr:postcode": "40109", "addr:state": "KY", "amenity": "post_box", "brand": "United States Postal Service", "brand:wikidata": "Q668687", "collection_times": "Mo-Fr 16:00; Sa 10:00", "name": "USPS COLLECTION BOX - BLUE BOX", "note": "ON 12/24 AND 12/31, THIS BOX MAY BE COLLECTED AS EARLY AS 12 NOON.", "nsi_id": "unitedstatespostalservice-a77078", "operator": "United States Postal Service", "operator:short": "USPS", "operator:type": "public", "operator:wikidata": "Q668687", "ref": "4010900001"}, "type": "Feature"}
{"dataset_attributes": {"@spider": "usps_collection_boxes", "spider:collection_time": "2023-08-31T08:24:48.849802"}, "geometry": {"coordinates": [-85.710380468, 38.05598457], "type": "Point"}, "id": "x0-r-aC33vxpgBnI7VJ989hSnDk=", "properties": {"@spider": "usps_collection_boxes", "addr:city": "BROOKS", "addr:country": "US", "addr:full": "3025 CORAL RIDGE RD", "addr:postcode": "40109", "addr:state": "KY", "amenity": "post_box", "brand": "United States Postal Service", "brand:wikidata": "Q668687", "collection_times": "Mo-Fr 16:00; Sa 10:00", "name": "USPS COLLECTION BOX - PO LOBBY", "note": "ON 12/24 AND 12/31, THIS BOX MAY BE COLLECTED AS EARLY AS 12 NOON.", "nsi_id": "unitedstatespostalservice-a77078", "operator": "United States Postal Service", "operator:short": "USPS", "operator:type": "public", "operator:wikidata": "Q668687", "ref": "4010900003"}, "type": "Feature"}
{"dataset_attributes": {"@spider": "usps_collection_boxes", "spider:collection_time": "2023-08-31T08:24:48.849802"}, "geometry": {"coordinates": [-85.710380468, 38.05598457], "type": "Point"}, "id": "DDKoxgO4nQ1ZK08E5bJz1a8KMCI=", "properties": {"@spider": "usps_collection_boxes", "addr:city": "BROOKS", "addr:country": "US", "addr:full": "3025 CORAL RIDGE RD", "addr:postcode": "40109", "addr:state": "KY", "amenity": "post_box", "brand": "United States Postal Service", "brand:wikidata": "Q668687", "collection_times": "Mo-Fr 16:00; Sa 10:00", "name": "USPS COLLECTION BOX - PO LOBBY", "note": "ON 12/24 AND 12/31, THIS BOX MAY BE COLLECTED AS EARLY AS 12 NOON.", "nsi_id": "unitedstatespostalservice-a77078", "operator": "United States Postal Service", "operator:short": "USPS", "operator:type": "public", "operator:wikidata": "Q668687", "ref": "4010900007"}, "type": "Feature"}
{"dataset_attributes": {"@spider": "usps_collection_boxes", "spider:collection_time": "2023-08-31T08:24:48.849802"}, "geometry": {"coordinates": [-85.6534593205, 37.9281512274], "type": "Point"}, "id": "lvDLG4PyZZIxAL5-9fETGZQOJkE=", "properties": {"@spider": "usps_collection_boxes", "addr:city": "CLERMONT", "addr:country": "US", "addr:full": "243 HAPPY HOLLOW RD", "addr:postcode": "40110", "addr:state": "KY", "amenity": "post_box", "brand": "United States Postal Service", "brand:wikidata": "Q668687", "collection_times": "Mo-Sa 09:00", "name": "USPS COLLECTION BOX - BLUE BOX", "nsi_id": "unitedstatespostalservice-a77078", "operator": "United States Postal Service", "operator:short": "USPS", "operator:type": "public", "operator:wikidata": "Q668687", "ref": "4011000001"}, "type": "Feature"}
{"dataset_attributes": {"@spider": "usps_collection_boxes", "spider:collection_time": "2023-08-31T08:24:48.849802"}, "geometry": {"coordinates": [-86.632938039, 37.836145571], "type": "Point"}, "id": "4lv0atL0G11a55dKKg3lPkSBWeM=", "properties": {"@spider": "usps_collection_boxes", "addr:city": "CLOVERPORT", "addr:country": "US", "addr:full": "218 POPLAR ST", "addr:postcode": "40111", "addr:state": "KY", "amenity": "post_box", "brand": "United States Postal Service", "brand:wikidata": "Q668687", "collection_times": "Mo-Fr 11:45; Sa 10:00", "name": "USPS COLLECTION BOX - BLUE BOX", "nsi_id": "unitedstatespostalservice-a77078", "operator": "United States Postal Service", "operator:short": "USPS", "operator:type": "public", "operator:wikidata": "Q668687", "ref": "4011100001"}, "type": "Feature"}
{"dataset_attributes": {"@spider": "usps_collection_boxes", "spider:collection_time": "2023-08-31T08:24:48.849802"}, "geometry": {"coordinates": [-86.632938039, 37.836145571], "type": "Point"}, "id": "3eWZpzvGT_kV1p3fbBuw3DX7Iek=", "properties": {"@spider": "usps_collection_boxes", "addr:city": "CLOVERPORT", "addr:country": "US", "addr:full": "218 POPLAR ST", "addr:postcode": "40111", "addr:state": "KY", "amenity": "post_box", "brand": "United States Postal Service", "brand:wikidata": "Q668687", "collection_times": "Mo-Fr 11:45; Sa 10:00", "name": "USPS COLLECTION BOX - PO LOBBY", "nsi_id": "unitedstatespostalservice-a77078", "operator": "United States Postal Service", "operator:short": "USPS", "operator:type": "public", "operator:wikidata": "Q668687", "ref": "4011100005"}, "type": "Feature"}
{"dataset_attributes": {"@spider": "usps_collection_boxes", "spider:collection_time": "2023-08-31T08:24:48.849802"}, "geometry": {"coordinates": [-86.632938039, 37.836145571], "type": "Point"}, "id": "xkP0UMrD6-1xRQSHZMZIP6fdgnE=", "properties": {"@spider": "usps_collection_boxes", "addr:city": "CLOVERPORT", "addr:country": "US", "addr:full": "218 POPLAR ST", "addr:postcode": "40111", "addr:state": "KY", "amenity": "post_box", "brand": "United States Postal Service", "brand:wikidata": "Q668687", "collection_times": "Mo-Fr 11:45; Sa 10:00", "name": "USPS COLLECTION BOX - PO LOBBY", "nsi_id": "unitedstatespostalservice-a77078", "operator": "United States Postal Service", "operator:short": "USPS", "operator:type": "public", "operator:wikidata": "Q668687", "ref": "4011100008"}, "type": "Feature"}
{"dataset_attributes": {"@spider": "usps_collection_boxes", "spider:collection_time": "2023-08-31T08:24:48.849802"}, "geometry": {"coordinates": [-86.254457924, 37.738253699], "type": "Point"}, "id": "-MwvD0aTQiFb5ZsaloHuD1xLHac=", "properties": {"@spider": "usps_collection_boxes", "addr:city": "CUSTER", "addr:country": "US", "addr:full": "6028 E HIGHWAY 86", "addr:postcode": "40115", "addr:state": "KY", "amenity": "post_box", "brand": "United States Postal Service", "brand:wikidata": "Q668687", "collection_times": "Mo-Fr 13:15; Sa 11:15", "name": "USPS COLLECTION BOX - BLUE BOX", "note": "ON 12/24 AND 12/31, THIS BOX MAY BE COLLECTED AS EARLY AS 12 NOON.", "nsi_id": "unitedstatespostalservice-a77078", "operator": "United States Postal Service", "operator:short": "USPS", "operator:type": "public", "operator:wikidata": "Q668687", "ref": "4011500001"}, "type": "Feature"}
{"dataset_attributes": {"@spider": "usps_collection_boxes", "spider:collection_time": "2023-08-31T08:24:48.849802"}, "geometry": {"coordinates": [-86.254457924, 37.738253699], "type": "Point"}, "id": "WPejpLa8vrqCopvDF9SyaBj9UZo=", "properties": {"@spider": "usps_collection_boxes", "addr:city": "CUSTER", "addr:country": "US", "addr:full": "6028 E HIGHWAY 86", "addr:postcode": "40115", "addr:state": "KY", "amenity": "post_box", "brand": "United States Postal Service", "brand:wikidata": "Q668687", "collection_times": "Mo-Fr 13:15; Sa 11:15", "name": "USPS COLLECTION BOX - PO LOBBY", "note": "ON 12/24 AND 12/31, THIS BOX MAY BE COLLECTED AS EARLY AS 12 NOON.", "nsi_id": "unitedstatespostalservice-a77078", "operator": "United States Postal Service", "operator:short": "USPS", "operator:type": "public", "operator:wikidata": "Q668687", "ref": "4011500005"}, "type": "Feature"}
{"dataset_attributes": {"@spider": "usps_collection_boxes", "spider:collection_time": "2023-08-31T08:24:48.849802"}, "geometry": {"coordinates": [-86.177773108, 37.928802142], "type": "Point"}, "id": "ViPXm5pfhxW50vAVIjQx3x0mG0o=", "properties": {"@spider": "usps_collection_boxes", "addr:city": "EKRON", "addr:country": "US", "addr:full": "276 REESE AVE", "addr:postcode": "40117", "addr:state": "KY", "amenity": "post_box", "brand": "United States Postal Service", "brand:wikidata": "Q668687", "collection_times": "Mo-Fr 11:45; Sa 11:15", "name": "USPS COLLECTION BOX - BLUE BOX", "nsi_id": "unitedstatespostalservice-a77078", "operator": "United States Postal Service", "operator:short": "USPS", "operator:type": "public", "operator:wikidata": "Q668687", "ref": "4011700001"}, "type": "Feature"}
{"dataset_attributes": {"@spider": "usps_collection_boxes", "spider:collection_time": "2023-08-31T08:24:48.849802"}, "geometry": {"coordinates": [-86.177773108, 37.928802142], "type": "Point"}, "id": "T4tbgopDSeWAym3Gkz_mzOyOZkc=", "properties": {"@spider": "usps_collection_boxes", "addr:city": "EKRON", "addr:country": "US", "addr:full": "276 REESE AVE", "addr:postcode": "40117", "addr:state": "KY", "amenity": "post_box", "brand": "United States Postal Service", "brand:wikidata": "Q668687", "collection_times": "Mo-Fr 11:45; Sa 11:15", "name": "USPS COLLECTION BOX - PO LOBBY", "nsi_id": "unitedstatespostalservice-a77078", "operator": "United States Postal Service", "operator:short": "USPS", "operator:type": "public", "operator:wikidata": "Q668687", "ref": "4011700002"}, "type": "Feature"}
{"dataset_attributes": {"@spider": "usps_collection_boxes", "spider:collection_time": "2023-08-31T08:24:48.849802"}, "geometry": {"coordinates": [-86.177773108, 37.928802142], "type": "Point"}, "id": "7sHFOXz1VmFFbL2zpTq6-YAMbHk=", "properties": {"@spider": "usps_collection_boxes", "addr:city": "EKRON", "addr:country": "US", "addr:full": "276 REESE AVE", "addr:postcode": "40117", "addr:state": "KY", "amenity": "post_box", "brand": "United States Postal Service", "brand:wikidata": "Q668687", "collection_times": "Mo-Fr 11:45; Sa 11:15", "name": "USPS COLLECTION BOX - PO LOBBY", "nsi_id": "unitedstatespostalservice-a77078", "operator": "United States Postal Service", "operator:short": "USPS", "operator:type": "public", "operator:wikidata": "Q668687", "ref": "4011700005"}, "type": "Feature"}
{"dataset_attributes": {"@spider": "usps_collection_boxes", "spider:collection_time": "2023-08-31T08:24:48.849802"}, "geometry": {"coordinates": [-85.757524017, 38.103937825], "type": "Point"}, "id": "vN9sW-alwk-kRribEHqU_3pQwW0=", "properties": {"@spider": "usps_collection_boxes", "addr:city": "FAIRDALE", "addr:country": "US", "addr:full": "411 MOUNT HOLLY RD", "addr:postcode": "40118", "addr:state": "KY", "amenity": "post_box", "brand": "United States Postal Service", "brand:wikidata": "Q668687", "collection_times": "Mo-Fr 15:45; Sa 12:00", "name": "USPS COLLECTION BOX - BLUE BOX", "note": "ON 12/24 AND 12/31, THIS BOX MAY BE COLLECTED AS EARLY AS 12 NOON.", "nsi_id": "unitedstatespostalservice-a77078", "operator": "United States Postal Service", "operator:short": "USPS", "operator:type": "public", "operator:wikidata": "Q668687", "ref": "4011800001"}, "type": "Feature"}
{"dataset_attributes": {"@spider": "usps_collection_boxes", "spider:collection_time": "2023-08-31T08:24:48.849802"}, "geometry": {"coordinates": [-85.7487742, 38.122673], "type": "Point"}, "id": "44kqPuwHysC4lqFHNJVddH9ym38=", "properties": {"@spider": "usps_collection_boxes", "addr:city": "FAIRDALE", "addr:country": "US", "addr:full": "8804 NATIONAL TPKE", "addr:postcode": "40118", "addr:state": "KY", "amenity": "post_box", "brand": "United States Postal Service", "brand:wikidata": "Q668687", "collection_times": "Mo-Sa 10:30", "name": "USPS COLLECTION BOX - BLUE BOX", "nsi_id": "unitedstatespostalservice-a77078", "operator": "United States Postal Service", "operator:short": "USPS", "operator:type": "public", "operator:wikidata": "Q668687", "ref": "4011800006"}, "type": "Feature"}
{"dataset_attributes": {"@spider": "usps_collection_boxes", "spider:collection_time": "2023-08-31T08:24:48.849802"}, "geometry": {"coordinates": [-85.757524017, 38.103937825], "type": "Point"}, "id": "3JG29fsogQJqLAHe2Ji5GCFc04M=", "properties": {"@spider": "usps_collection_boxes", "addr:city": "FAIRDALE", "addr:country": "US", "addr:full": "411 MOUNT HOLLY RD", "addr:postcode": "40118", "addr:state": "KY", "amenity": "post_box", "brand": "United States Postal Service", "brand:wikidata": "Q668687", "collection_times": "Mo-Fr 16:00; Sa 12:00", "name": "USPS COLLECTION BOX - PO LOBBY", "note": "ON 12/24 AND 12/31, THIS BOX MAY BE COLLECTED AS EARLY AS 12 NOON.", "nsi_id": "unitedstatespostalservice-a77078", "operator": "United States Postal Service", "operator:short": "USPS", "operator:type": "public", "operator:wikidata": "Q668687", "ref": "4011800008"}, "type": "Feature"}
{"dataset_attributes": {"@spider": "usps_collection_boxes", "spider:collection_time": "2023-08-31T08:24:48.849802"}, "geometry": {"coordinates": [-85.757524017, 38.103937825], "type": "Point"}, "id": "Ll1eAjE-kQAvC97liRgkhiyIVmU=", "properties": {"@spider": "usps_collection_boxes", "addr:city": "FAIRDALE", "addr:country": "US", "addr:full": "411 MOUNT HOLLY RD", "addr:postcode": "40118", "addr:state": "KY", "amenity": "post_box", "brand": "United States Postal Service", "brand:wikidata": "Q668687", "collection_times": "Mo-Fr 16:00; Sa 12:00", "name": "USPS COLLECTION BOX - PO LOBBY", "note": "ON 12/24 AND 12/31, THIS BOX MAY BE COLLECTED AS EARLY AS 12 NOON.", "nsi_id": "unitedstatespostalservice-a77078", "operator": "United States Postal Service", "operator:short": "USPS", "operator:type": "public", "operator:wikidata": "Q668687", "ref": "4011800011"}, "type": "Feature"}
{"dataset_attributes": {"@spider": "usps_collection_boxes", "spider:collection_time": "2023-08-31T08:24:48.849802"}, "geometry": {"coordinates": [-86.513071275, 37.596895558], "type": "Point"}, "id": "nvKprA7-aVHsdWbN9d1SHh4H3IA=", "properties": {"@spider": "usps_collection_boxes", "addr:city": "FALLS OF ROUGH", "addr:country": "US", "addr:full": "13647 FALLS OF ROUGH RD", "addr:postcode": "40119", "addr:state": "KY", "amenity": "post_box", "brand": "United States Postal Service", "brand:wikidata": "Q668687", "collection_times": "Mo-Fr 15:15; Sa 10:00", "name": "USPS COLLECTION BOX - BLUE BOX", "note": "ON 12/24 AND 12/31, THIS BOX MAY BE COLLECTED AS EARLY AS 12 NOON.", "nsi_id": "unitedstatespostalservice-a77078", "operator": "United States Postal Service", "operator:short": "USPS", "operator:type": "public", "operator:wikidata": "Q668687", "ref": "4011900001"}, "type": "Feature"}
{"dataset_attributes": {"@spider": "usps_collection_boxes", "spider:collection_time": "2023-08-31T08:24:48.849802"}, "geometry": {"coordinates": [-86.513071275, 37.596895558], "type": "Point"}, "id": "YdwifbheY56hh8izy5_8QQ7dsSA=", "properties": {"@spider": "usps_collection_boxes", "addr:city": "FALLS OF ROUGH", "addr:country": "US", "addr:full": "13647 FALLS OF ROUGH RD", "addr:postcode": "40119", "addr:state": "KY", "amenity": "post_box", "brand": "United States Postal Service", "brand:wikidata": "Q668687", "collection_times": "Mo-Fr 15:15; Sa 10:00", "name": "USPS COLLECTION BOX - PO LOBBY", "note": "ON 12/24 AND 12/31, THIS BOX MAY BE COLLECTED AS EARLY AS 12 NOON.", "nsi_id": "unitedstatespostalservice-a77078", "operator": "United States Postal Service", "operator:short": "USPS", "operator:type": "public", "operator:wikidata": "Q668687", "ref": "4011900003"}, "type": "Feature"}
{"dataset_attributes": {"@spider": "usps_collection_boxes", "spider:collection_time": "2023-08-31T08:24:48.849802"}, "geometry": {"coordinates": [-86.513071275, 37.596895558], "type": "Point"}, "id": "NtagbG_VM7a_NQh3tdOgJWUr5dY=", "properties": {"@spider": "usps_collection_boxes", "addr:city": "FALLS OF ROUGH", "addr:country": "US", "addr:full": "13647 FALLS OF ROUGH RD", "addr:postcode": "40119", "addr:state": "KY", "amenity": "post_box", "brand": "United States Postal Service", "brand:wikidata": "Q668687", "collection_times": "Mo-Fr 15:30; Sa 10:00", "name": "USPS COLLECTION BOX - PO LOBBY", "note": "ON 12/24 AND 12/31, THIS BOX MAY BE COLLECTED AS EARLY AS 12 NOON.", "nsi_id": "unitedstatespostalservice-a77078", "operator": "United States Postal Service", "operator:short": "USPS", "operator:type": "public", "operator:wikidata": "Q668687", "ref": "4011900006"}, "type": "Feature"}
{"dataset_attributes": {"@spider": "usps_collection_boxes", "spider:collection_time": "2023-08-31T08:24:48.849802"}, "geometry": {"coordinates": [-85.957529, 37.899836], "type": "Point"}, "id": "nlXmfYjKRAZx5QDvFK_UxyZz_y8=", "properties": {"@spider": "usps_collection_boxes", "addr:city": "FORT KNOX", "addr:country": "US", "addr:full": "1359 KNOX ST", "addr:postcode": "40121", "addr:state": "KY", "amenity": "post_box", "brand": "United States Postal Service", "brand:wikidata": "Q668687", "collection_times": "Mo-Fr 16:15; Sa 15:00", "name": "USPS COLLECTION BOX - BLUE BOX", "note": "ON 12/24 AND 12/31, THIS BOX MAY BE COLLECTED AS EARLY AS 12 NOON.", "nsi_id": "unitedstatespostalservice-a77078", "operator": "United States Postal Service", "operator:short": "USPS", "operator:type": "public", "operator:wikidata": "Q668687", "ref": "4012100001"}, "type": "Feature"}
{"dataset_attributes": {"@spider": "usps_collection_boxes", "spider:collection_time": "2023-08-31T08:24:48.849802"}, "geometry": {"coordinates": [-85.9509357, 37.884671], "type": "Point"}, "id": "kz2BzgrBpKE_VAAv0LFPUwdsW24=", "properties": {"@spider": "usps_collection_boxes", "addr:city": "FORT KNOX", "addr:country": "US", "addr:full": "127 GOLD VAULT RD", "addr:postcode": "40121", "addr:state": "KY", "amenity": "post_box", "brand": "United States Postal Service", "brand:wikidata": "Q668687", "collection_times": "Mo-Sa 13:00", "name": "USPS COLLECTION BOX - BLUE BOX", "note": "ON 12/24 AND 12/31, THIS BOX MAY BE COLLECTED AS EARLY AS 12 NOON.", "nsi_id": "unitedstatespostalservice-a77078", "operator": "United States Postal Service", "operator:short": "USPS", "operator:type": "public", "operator:wikidata": "Q668687", "ref": "4012100003"}, "type": "Feature"}
{"dataset_attributes": {"@spider": "usps_collection_boxes", "spider:collection_time": "2023-08-31T08:24:48.849802"}, "geometry": {"coordinates": [-85.9538199, 37.902218], "type": "Point"}, "id": "Ys8Cb9c_UiXsEhQPrQFezvO2FQo=", "properties": {"@spider": "usps_collection_boxes", "addr:city": "FORT KNOX", "addr:country": "US", "addr:full": "1307 3RD AVE", "addr:postcode": "40121", "addr:state": "KY", "amenity": "post_box", "brand": "United States Postal Service", "brand:wikidata": "Q668687", "collection_times": "Mo-Sa 12:00", "name": "USPS COLLECTION BOX - BLUE BOX", "nsi_id": "unitedstatespostalservice-a77078", "operator": "United States Postal Service", "operator:short": "USPS", "operator:type": "public", "operator:wikidata": "Q668687", "ref": "4012100005"}, "type": "Feature"}
{"dataset_attributes": {"@spider": "usps_collection_boxes", "spider:collection_time": "2023-08-31T08:24:48.849802"}, "geometry": {"coordinates": [-85.945144, 37.918727], "type": "Point"}, "id": "slxBx_4XOzr_cgJO36fBWP1zTCY=", "properties": {"@spider": "usps_collection_boxes", "addr:city": "FORT KNOX", "addr:country": "US", "addr:full": "5925 RINELAND ST", "addr:postcode": "40121", "addr:state": "KY", "amenity": "post_box", "brand": "United States Postal Service", "brand:wikidata": "Q668687", "collection_times": "Mo-Sa 07:45", "name": "USPS COLLECTION BOX - BLUE BOX", "nsi_id": "unitedstatespostalservice-a77078", "operator": "United States Postal Service", "operator:short": "USPS", "operator:type": "public", "operator:wikidata": "Q668687", "ref": "4012100015"}, "type": "Feature"}
{"dataset_attributes": {"@spider": "usps_collection_boxes", "spider:collection_time": "2023-08-31T08:24:48.849802"}, "geometry": {"coordinates": [-85.9817557, 37.895603], "type": "Point"}, "id": "drNGp47StSH0cXUl8gcFL7vAVLk=", "properties": {"@spider": "usps_collection_boxes", "addr:city": "FORT KNOX", "addr:country": "US", "addr:full": "1615 W CHAFFEE AVE", "addr:postcode": "40121", "addr:state": "KY", "amenity": "post_box", "brand": "United States Postal Service", "brand:wikidata": "Q668687", "collection_times": "Mo-Sa 13:00", "name": "USPS COLLECTION BOX - BLUE BOX", "note": "ON 12/24 AND 12/31, THIS BOX MAY BE COLLECTED AS EARLY AS 12 NOON.", "nsi_id": "unitedstatespostalservice-a77078", "operator": "United States Postal Service", "operator:short": "USPS", "operator:type": "public", "operator:wikidata": "Q668687", "ref": "4012100022"}, "type": "Feature"}
{"dataset_attributes": {"@spider": "usps_collection_boxes", "spider:collection_time": "2023-08-31T08:24:48.849802"}, "geometry": {"coordinates": [-85.957529, 37.899837], "type": "Point"}, "id": "8FuNHsFRJl7pjr6PRl1lz4qGUZs=", "properties": {"@spider": "usps_collection_boxes", "addr:city": "FORT KNOX", "addr:country": "US", "addr:full": "1359 KNOX ST", "addr:postcode": "40121", "addr:state": "KY", "amenity": "post_box", "brand": "United States Postal Service", "brand:wikidata": "Q668687", "collection_times": "Mo-Fr 16:15; Sa 15:00", "name": "USPS COLLECTION BOX - BLUE BOX", "note": "ON 12/24 AND 12/31, THIS BOX MAY BE COLLECTED AS EARLY AS 12 NOON.", "nsi_id": "unitedstatespostalservice-a77078", "operator": "United States Postal Service", "operator:short": "USPS", "operator:type": "public", "operator:wikidata": "Q668687", "ref": "4012100024"}, "type": "Feature"}
{"dataset_attributes": {"@spider": "usps_collection_boxes", "spider:collection_time": "2023-08-31T08:24:48.849802"}, "geometry": {"coordinates": [-85.9450037, 37.865926], "type": "Point"}, "id": "x9pv8RwSQHEI9c4Rh7Fy6ZR3glg=", "properties": {"@spider": "usps_collection_boxes", "addr:city": "FORT KNOX", "addr:country": "US", "addr:full": "9025 ESTRADA AVE", "addr:postcode": "40121", "addr:state": "KY", "amenity": "post_box", "brand": "United States Postal Service", "brand:wikidata": "Q668687", "collection_times": "Mo-Sa 13:00", "name": "USPS COLLECTION BOX - BLUE BOX", "note": "ON 12/24 AND 12/31, THIS BOX MAY BE COLLECTED AS EARLY AS 12 NOON.", "nsi_id": "unitedstatespostalservice-a77078", "operator": "United States Postal Service", "operator:short": "USPS", "operator:type": "public", "operator:wikidata": "Q668687", "ref": "4012100026"}, "type": "Feature"}
{"dataset_attributes": {"@spider": "usps_collection_boxes", "spider:collection_time": "2023-08-31T08:24:48.849802"}, "geometry": {"coordinates": [-85.928170579, 37.900978071], "type": "Point"}, "id": "kuhE9bUgb7T3vX7OitSF1_8sBe8=", "properties": {"@spider": "usps_collection_boxes", "addr:city": "FORT KNOX", "addr:country": "US", "addr:full": "1556 SPEARHEAD DIVISION AVE", "addr:postcode": "40121", "addr:state": "KY", "amenity": "post_box", "brand": "United States Postal Service", "brand:wikidata": "Q668687", "collection_times": "Mo-Fr 12:00; Sa 08:30", "name": "USPS COLLECTION BOX - BLUE BOX", "nsi_id": "unitedstatespostalservice-a77078", "operator": "United States Postal Service", "operator:short": "USPS", "operator:type": "public", "operator:wikidata": "Q668687", "ref": "4012100034"}, "type": "Feature"}
{"dataset_attributes": {"@spider": "usps_collection_boxes", "spider:collection_time": "2023-08-31T08:24:48.849802"}, "geometry": {"coordinates": [-85.957529, 37.899837], "type": "Point"}, "id": "QXmU8DIfLT8pTIcBI6jYwaiyzYo=", "properties": {"@spider": "usps_collection_boxes", "addr:city": "FORT KNOX", "addr:country": "US", "addr:full": "1359 KNOX ST", "addr:postcode": "40121", "addr:state": "KY", "amenity": "post_box", "brand": "United States Postal Service", "brand:wikidata": "Q668687", "collection_times": "Mo-Fr 16:30; Sa 15:00", "name": "USPS COLLECTION BOX - PO LOBBY", "note": "ON 12/24 AND 12/31, THIS BOX MAY BE COLLECTED AS EARLY AS 12 NOON.", "nsi_id": "unitedstatespostalservice-a77078", "operator": "United States Postal Service", "operator:short": "USPS", "operator:type": "public", "operator:wikidata": "Q668687", "ref": "4012100036"}, "type": "Feature"}
{"dataset_attributes": {"@spider": "usps_collection_boxes", "spider:collection_time": "2023-08-31T08:24:48.849802"}, "geometry": {"coordinates": [-85.9413509, 37.880046], "type": "Point"}, "id": "JIqetQ6eFLQmEGeNLTW-uIR8Oac=", "properties": {"@spider": "usps_collection_boxes", "addr:city": "FORT KNOX", "addr:country": "US", "addr:full": "7961 WILSON RD", "addr:postcode": "40121", "addr:state": "KY", "amenity": "post_box", "brand": "United States Postal Service", "brand:wikidata": "Q668687", "collection_times": "Mo-Sa 11:00", "name": "USPS COLLECTION BOX - BLUE BOX", "nsi_id": "unitedstatespostalservice-a77078", "operator": "United States Postal Service", "operator:short": "USPS", "operator:type": "public", "operator:wikidata": "Q668687", "ref": "4012100039"}, "type": "Feature"}
{"dataset_attributes": {"@spider": "usps_collection_boxes", "spider:collection_time": "2023-08-31T08:24:48.849802"}, "geometry": {"coordinates": [-85.936155573, 37.902032814], "type": "Point"}, "id": "NlpsAhqr78pcA2aTVKVMXDimLLE=", "properties": {"@spider": "usps_collection_boxes", "addr:city": "FORT KNOX", "addr:country": "US", "addr:full": "200 BRULE ST", "addr:postcode": "40121", "addr:state": "KY", "amenity": "post_box", "brand": "United States Postal Service", "brand:wikidata": "Q668687", "collection_times": "Mo-Fr 14:30; Sa 12:00", "name": "USPS COLLECTION BOX - BLUE BOX", "note": "ON 12/24 AND 12/31, THIS BOX MAY BE COLLECTED AS EARLY AS 12 NOON.", "nsi_id": "unitedstatespostalservice-a77078", "operator": "United States Postal Service", "operator:short": "USPS", "operator:type": "public", "operator:wikidata": "Q668687", "ref": "4012100051"}, "type": "Feature"}
{"dataset_attributes": {"@spider": "usps_collection_boxes", "spider:collection_time": "2023-08-31T08:24:48.849802"}, "geometry": {"coordinates": [-85.957204889, 37.890168917], "type": "Point"}, "id": "9VK7NlkFYJm13Sn8Om1_vIhSpuY=", "properties": {"@spider": "usps_collection_boxes", "addr:city": "FORT KNOX", "addr:country": "US", "addr:full": "120 N KNOX ST", "addr:postcode": "40121", "addr:state": "KY", "amenity": "post_box", "brand": "United States Postal Service", "brand:wikidata": "Q668687", "collection_times": "Mo-Fr 16:30; Sa 14:00", "name": "USPS COLLECTION BOX - PO LOBBY", "note": "ON 12/24 AND 12/31, THIS BOX MAY BE COLLECTED AS EARLY AS 12 NOON.", "nsi_id": "unitedstatespostalservice-a77078", "operator": "United States Postal Service", "operator:short": "USPS", "operator:type": "public", "operator:wikidata": "Q668687", "ref": "4012100058"}, "type": "Feature"}
{"dataset_attributes": {"@spider": "usps_collection_boxes", "spider:collection_time": "2023-08-31T08:24:48.849802"}, "geometry": {"coordinates": [-85.673428332, 38.071646589], "type": "Point"}, "id": "6CHOdx6NGuTRjrn6TYMJMCuhRLE=", "properties": {"@spider": "usps_collection_boxes", "addr:city": "HILLVIEW", "addr:country": "US", "addr:full": "175 TANYARD SPRINGS BLVD", "addr:postcode": "40129", "addr:state": "KY", "amenity": "post_box", "brand": "United States Postal Service", "brand:wikidata": "Q668687", "collection_times": "Mo-Fr 16:00; Sa 11:45", "name": "USPS COLLECTION BOX - PO LOBBY", "note": "ON 12/24 AND 12/31, THIS BOX MAY BE COLLECTED AS EARLY AS 12 NOON.", "nsi_id": "unitedstatespostalservice-a77078", "operator": "United States Postal Service", "operator:short": "USPS", "operator:type": "public", "operator:wikidata": "Q668687", "ref": "4012900000"}, "type": "Feature"}
{"dataset_attributes": {"@spider": "usps_collection_boxes", "spider:collection_time": "2023-08-31T08:24:48.849802"}, "geometry": {"coordinates": [-85.673428332, 38.071646589], "type": "Point"}, "id": "8Vcg0SHLPuD-ckhcw2ajDIfgw0U=", "properties": {"@spider": "usps_collection_boxes", "addr:city": "HILLVIEW", "addr:country": "US", "addr:full": "175 TANYARD SPRINGS BLVD", "addr:postcode": "40129", "addr:state": "KY", "amenity": "post_box", "brand": "United States Postal Service", "brand:wikidata": "Q668687", "collection_times": "Mo-Fr 16:00; Sa 11:45", "name": "USPS COLLECTION BOX - BLUE BOX", "note": "ON 12/24 AND 12/31, THIS BOX MAY BE COLLECTED AS EARLY AS 12 NOON.", "nsi_id": "unitedstatespostalservice-a77078", "operator": "United States Postal Service", "operator:short": "USPS", "operator:type": "public", "operator:wikidata": "Q668687", "ref": "4012900001"}, "type": "Feature"}
{"dataset_attributes": {"@spider": "usps_collection_boxes", "spider:collection_time": "2023-08-31T08:24:48.849802"}, "geometry": {"coordinates": [-85.673428332, 38.071646589], "type": "Point"}, "id": "V-bGIo77VGueVGOteAxO-0rMJ9A=", "properties": {"@spider": "usps_collection_boxes", "addr:city": "HILLVIEW", "addr:country": "US", "addr:full": "175 TANYARD SPRINGS BLVD", "addr:postcode": "40129", "addr:state": "KY", "amenity": "post_box", "brand": "United States Postal Service", "brand:wikidata": "Q668687", "collection_times": "Mo-Fr 16:00; Sa 11:45", "name": "USPS COLLECTION BOX - BLUE BOX", "note": "ON 12/24 AND 12/31, THIS BOX MAY BE COLLECTED AS EARLY AS 12 NOON.", "nsi_id": "unitedstatespostalservice-a77078", "operator": "United States Postal Service", "operator:short": "USPS", "operator:type": "public", "operator:wikidata": "Q668687", "ref": "4012900002"}, "type": "Feature"}
{"dataset_attributes": {"@spider": "usps_collection_boxes", "spider:collection_time": "2023-08-31T08:24:48.849802"}, "geometry": {"coordinates": [-85.673428332, 38.071646589], "type": "Point"}, "id": "8BufurZ3BObTc10l5hh8iG9zAUU=", "properties": {"@spider": "usps_collection_boxes", "addr:city": "HILLVIEW", "addr:country": "US", "addr:full": "175 TANYARD SPRINGS BLVD", "addr:postcode": "40129", "addr:state": "KY", "amenity": "post_box", "brand": "United States Postal Service", "brand:wikidata": "Q668687", "collection_times": "Mo-Fr 16:00; Sa 12:00", "name": "USPS COLLECTION BOX - PO LOBBY", "note": "ON 12/24 AND 12/31, THIS BOX MAY BE COLLECTED AS EARLY AS 12 NOON.", "nsi_id": "unitedstatespostalservice-a77078", "operator": "United States Postal Service", "operator:short": "USPS", "operator:type": "public", "operator:wikidata": "Q668687", "ref": "4012900005"}, "type": "Feature"}
{"dataset_attributes": {"@spider": "usps_collection_boxes", "spider:collection_time": "2023-08-31T08:24:48.849802"}, "geometry": {"coordinates": [-86.356847441, 37.782699129], "type": "Point"}, "id": "Yxpo2DevwgXtsnos_uG9nUhYWLs=", "properties": {"@spider": "usps_collection_boxes", "addr:city": "GARFIELD", "addr:country": "US", "addr:full": "6621 E HIGHWAY 60", "addr:postcode": "40140", "addr:state": "KY", "amenity": "post_box", "brand": "United States Postal Service", "brand:wikidata": "Q668687", "collection_times": "Mo-Fr 13:30; Sa 10:00", "name": "USPS COLLECTION BOX - BLUE BOX", "note": "ON 12/24 AND 12/31, THIS BOX MAY BE COLLECTED AS EARLY AS 12 NOON.", "nsi_id": "unitedstatespostalservice-a77078", "operator": "United States Postal Service", "operator:short": "USPS", "operator:type": "public", "operator:wikidata": "Q668687", "ref": "4014000001"}, "type": "Feature"}
{"dataset_attributes": {"@spider": "usps_collection_boxes", "spider:collection_time": "2023-08-31T08:24:48.849802"}, "geometry": {"coordinates": [-86.356847441, 37.782699129], "type": "Point"}, "id": "Iog8rEnD4Q__ApcRwC6H6NKrpwo=", "properties": {"@spider": "usps_collection_boxes", "addr:city": "GARFIELD", "addr:country": "US", "addr:full": "6621 E HIGHWAY 60", "addr:postcode": "40140", "addr:state": "KY", "amenity": "post_box", "brand": "United States Postal Service", "brand:wikidata": "Q668687", "collection_times": "Mo-Fr 13:30; Sa 10:00", "name": "USPS COLLECTION BOX - PO LOBBY", "note": "ON 12/24 AND 12/31, THIS BOX MAY BE COLLECTED AS EARLY AS 12 NOON.", "nsi_id": "unitedstatespostalservice-a77078", "operator": "United States Postal Service", "operator:short": "USPS", "operator:type": "public", "operator:wikidata": "Q668687", "ref": "4014000002"}, "type": "Feature"}
{"dataset_attributes": {"@spider": "usps_collection_boxes", "spider:collection_time": "2023-08-31T08:24:48.849802"}, "geometry": {"coordinates": [-86.356847441, 37.782699129], "type": "Point"}, "id": "PiXCqwvIpmDgOq0Md5p5EMx1c3o=", "properties": {"@spider": "usps_collection_boxes", "addr:city": "GARFIELD", "addr:country": "US", "addr:full": "6621 E HIGHWAY 60", "addr:postcode": "40140", "addr:state": "KY", "amenity": "post_box", "brand": "United States Postal Service", "brand:wikidata": "Q668687", "collection_times": "Mo-Fr 15:30; Sa 10:00", "name": "USPS COLLECTION BOX - PO LOBBY", "note": "ON 12/24 AND 12/31, THIS BOX MAY BE COLLECTED AS EARLY AS 12 NOON.", "nsi_id": "unitedstatespostalservice-a77078", "operator": "United States Postal Service", "operator:short": "USPS", "operator:type": "public", "operator:wikidata": "Q668687", "ref": "4014000005"}, "type": "Feature"}
{"dataset_attributes": {"@spider": "usps_collection_boxes", "spider:collection_time": "2023-08-31T08:24:48.849802"}, "geometry": {"coordinates": [-86.221910502, 37.892737952], "type": "Point"}, "id": "lZyPhtpeiGgwl0BxxcKNRysgVKo=", "properties": {"@spider": "usps_collection_boxes", "addr:city": "GUSTON", "addr:country": "US", "addr:full": "835 GUSTON RD", "addr:postcode": "40142", "addr:state": "KY", "amenity": "post_box", "brand": "United States Postal Service", "brand:wikidata": "Q668687", "collection_times": "Mo-Fr 11:45; Sa 10:15", "name": "USPS COLLECTION BOX - BLUE BOX", "nsi_id": "unitedstatespostalservice-a77078", "operator": "United States Postal Service", "operator:short": "USPS", "operator:type": "public", "operator:wikidata": "Q668687", "ref": "4014200001"}, "type": "Feature"}
{"dataset_attributes": {"@spider": "usps_collection_boxes", "spider:collection_time": "2023-08-31T08:24:48.849802"}, "geometry": {"coordinates": [-86.221910502, 37.892737952], "type": "Point"}, "id": "-Rek_9mbzzPOgAk-avHrf25ALmQ=", "properties": {"@spider": "usps_collection_boxes", "addr:city": "GUSTON", "addr:country": "US", "addr:full": "835 GUSTON RD", "addr:postcode": "40142", "addr:state": "KY", "amenity": "post_box", "brand": "United States Postal Service", "brand:wikidata": "Q668687", "collection_times": "Mo-Fr 11:45; Sa 10:15", "name": "USPS COLLECTION BOX - PO LOBBY", "nsi_id": "unitedstatespostalservice-a77078", "operator": "United States Postal Service", "operator:short": "USPS", "operator:type": "public", "operator:wikidata": "Q668687", "ref": "4014200005"}, "type": "Feature"}
{"dataset_attributes": {"@spider": "usps_collection_boxes", "spider:collection_time": "2023-08-31T08:24:48.849802"}, "geometry": {"coordinates": [-86.460976249, 37.780189743], "type": "Point"}, "id": "b9FBLEKESM5OZLypBAXeThTaB2c=", "properties": {"@spider": "usps_collection_boxes", "addr:city": "HARDINSBURG", "addr:country": "US", "addr:full": "234 S MAIN ST", "addr:postcode": "40143", "addr:state": "KY", "amenity": "post_box", "brand": "United States Postal Service", "brand:wikidata": "Q668687", "collection_times": "Mo-Fr 15:45; Sa 12:00", "name": "USPS COLLECTION BOX - BLUE BOX", "note": "ON 12/24 AND 12/31, THIS BOX MAY BE COLLECTED AS EARLY AS 12 NOON.", "nsi_id": "unitedstatespostalservice-a77078", "operator": "United States Postal Service", "operator:short": "USPS", "operator:type": "public", "operator:wikidata": "Q668687", "ref": "4014300001"}, "type": "Feature"}
{"dataset_attributes": {"@spider": "usps_collection_boxes", "spider:collection_time": "2023-08-31T08:24:48.849802"}, "geometry": {"coordinates": [-86.4438566, 37.773146], "type": "Point"}, "id": "5PL5YxpQRR2mn78b_B3ox6naQ4k=", "properties": {"@spider": "usps_collection_boxes", "addr:city": "HARDINSBURG", "addr:country": "US", "addr:full": "511 OLD HIGHWAY 60 STE 8", "addr:postcode": "40143", "addr:state": "KY", "amenity": "post_box", "brand": "United States Postal Service", "brand:wikidata": "Q668687", "collection_times": "Mo-Sa 12:15", "name": "USPS COLLECTION BOX - BLUE BOX", "note": "ON 12/24 AND 12/31, THIS BOX MAY BE COLLECTED AS EARLY AS 12 NOON.", "nsi_id": "unitedstatespostalservice-a77078", "operator": "United States Postal Service", "operator:short": "USPS", "operator:type": "public", "operator:wikidata": "Q668687", "ref": "4014300002"}, "type": "Feature"}
{"dataset_attributes": {"@spider": "usps_collection_boxes", "spider:collection_time": "2023-08-31T08:24:48.849802"}, "geometry": {"coordinates": [-86.4511286, 37.781353], "type": "Point"}, "id": "QXTdhsgDs8ECQFyVC_VyGMkxBDk=", "properties": {"@spider": "usps_collection_boxes", "addr:city": "HARDINSBURG", "addr:country": "US", "addr:full": "111 OLD HIGHWAY 60", "addr:postcode": "40143", "addr:state": "KY", "amenity": "post_box", "brand": "United States Postal Service", "brand:wikidata": "Q668687", "collection_times": "Mo-Sa 12:15", "name": "USPS COLLECTION BOX - BLUE BOX", "note": "ON 12/24 AND 12/31, THIS BOX MAY BE COLLECTED AS EARLY AS 12 NOON.", "nsi_id": "unitedstatespostalservice-a77078", "operator": "United States Postal Service", "operator:short": "USPS", "operator:type": "public", "operator:wikidata": "Q668687", "ref": "4014300003"}, "type": "Feature"}
{"dataset_attributes": {"@spider": "usps_collection_boxes", "spider:collection_time": "2023-08-31T08:24:48.849802"}, "geometry": {"coordinates": [-86.4414163, 37.766367], "type": "Point"}, "id": "JFiphc3KlsnIhaR0hxt45BbYa2c=", "properties": {"@spider": "usps_collection_boxes", "addr:city": "HARDINSBURG", "addr:country": "US", "addr:full": "1011 OLD HIGHWAY 60", "addr:postcode": "40143", "addr:state": "KY", "amenity": "post_box", "brand": "United States Postal Service", "brand:wikidata": "Q668687", "collection_times": "Mo-Sa 12:15", "name": "USPS COLLECTION BOX - BLUE BOX", "note": "ON 12/24 AND 12/31, THIS BOX MAY BE COLLECTED AS EARLY AS 12 NOON.", "nsi_id": "unitedstatespostalservice-a77078", "operator": "United States Postal Service", "operator:short": "USPS", "operator:type": "public", "operator:wikidata": "Q668687", "ref": "4014300004"}, "type": "Feature"}
{"dataset_attributes": {"@spider": "usps_collection_boxes", "spider:collection_time": "2023-08-31T08:24:48.849802"}, "geometry": {"coordinates": [-86.460976249, 37.780189743], "type": "Point"}, "id": "oTjsAAN_9sDg6tx3PsvWGUYA8Kw=", "properties": {"@spider": "usps_collection_boxes", "addr:city": "HARDINSBURG", "addr:country": "US", "addr:full": "234 S MAIN ST", "addr:postcode": "40143", "addr:state": "KY", "amenity": "post_box", "brand": "United States Postal Service", "brand:wikidata": "Q668687", "collection_times": "Mo-Fr 16:00; Sa 12:00", "name": "USPS COLLECTION BOX - PO LOBBY", "note": "ON 12/24 AND 12/31, THIS BOX MAY BE COLLECTED AS EARLY AS 12 NOON.", "nsi_id": "unitedstatespostalservice-a77078", "operator": "United States Postal Service", "operator:short": "USPS", "operator:type": "public", "operator:wikidata": "Q668687", "ref": "4014300005"}, "type": "Feature"}
{"dataset_attributes": {"@spider": "usps_collection_boxes", "spider:collection_time": "2023-08-31T08:24:48.849802"}, "geometry": {"coordinates": [-86.460976249, 37.780189743], "type": "Point"}, "id": "M30In0PamAPX40xx4UixBbqwLmc=", "properties": {"@spider": "usps_collection_boxes", "addr:city": "HARDINSBURG", "addr:country": "US", "addr:full": "234 S MAIN ST", "addr:postcode": "40143", "addr:state": "KY", "amenity": "post_box", "brand": "United States Postal Service", "brand:wikidata": "Q668687", "collection_times": "Mo-Fr 16:00; Sa 12:00", "name": "USPS COLLECTION BOX - PO LOBBY", "note": "ON 12/24 AND 12/31, THIS BOX MAY BE COLLECTED AS EARLY AS 12 NOON.", "nsi_id": "unitedstatespostalservice-a77078", "operator": "United States Postal Service", "operator:short": "USPS", "operator:type": "public", "operator:wikidata": "Q668687", "ref": "4014300008"}, "type": "Feature"}
{"dataset_attributes": {"@spider": "usps_collection_boxes", "spider:collection_time": "2023-08-31T08:24:48.849802"}, "geometry": {"coordinates": [-86.409496202, 37.750735372], "type": "Point"}, "id": "9Zs2eWDwnvftrk_26L2ZGJ8j3zU=", "properties": {"@spider": "usps_collection_boxes", "addr:city": "HARNED", "addr:country": "US", "addr:full": "48 S HIGHWAY 259", "addr:postcode": "40144", "addr:state": "KY", "amenity": "post_box", "brand": "United States Postal Service", "brand:wikidata": "Q668687", "collection_times": "Mo-Fr 15:45; Sa 11:00", "name": "USPS COLLECTION BOX - BLUE BOX", "note": "ON 12/24 AND 12/31, THIS BOX MAY BE COLLECTED AS EARLY AS 12 NOON.", "nsi_id": "unitedstatespostalservice-a77078", "operator": "United States Postal Service", "operator:short": "USPS", "operator:type": "public", "operator:wikidata": "Q668687", "ref": "4014400001"}, "type": "Feature"}
{"dataset_attributes": {"@spider": "usps_collection_boxes", "spider:collection_time": "2023-08-31T08:24:48.849802"}, "geometry": {"coordinates": [-86.4094917021, 37.7507443719], "type": "Point"}, "id": "cyVjl-nNpjrQkZjSHkiBHiyl4Xg=", "properties": {"@spider": "usps_collection_boxes", "addr:city": "HARNED", "addr:country": "US", "addr:full": "48 S HIGHWAY 259", "addr:postcode": "40144", "addr:state": "KY", "amenity": "post_box", "brand": "United States Postal Service", "brand:wikidata": "Q668687", "collection_times": "Mo-Fr 16:00; Sa 11:15", "name": "USPS COLLECTION BOX - PO LOBBY", "note": "ON 12/24 AND 12/31, THIS BOX MAY BE COLLECTED AS EARLY AS 12 NOON.", "nsi_id": "unitedstatespostalservice-a77078", "operator": "United States Postal Service", "operator:short": "USPS", "operator:type": "public", "operator:wikidata": "Q668687", "ref": "4014400002"}, "type": "Feature"}
{"dataset_attributes": {"@spider": "usps_collection_boxes", "spider:collection_time": "2023-08-31T08:24:48.849802"}, "geometry": {"coordinates": [-86.4094917021, 37.7507443719], "type": "Point"}, "id": "9UpktXGTn6YPEg_rLqRFnIswWi8=", "properties": {"@spider": "usps_collection_boxes", "addr:city": "HARNED", "addr:country": "US", "addr:full": "48 S HIGHWAY 259", "addr:postcode": "40144", "addr:state": "KY", "amenity": "post_box", "brand": "United States Postal Service", "brand:wikidata": "Q668687", "collection_times": "Mo-Fr 16:00; Sa 11:15", "name": "USPS COLLECTION BOX - PO LOBBY", "note": "ON 12/24 AND 12/31, THIS BOX MAY BE COLLECTED AS EARLY AS 12 NOON.", "nsi_id": "unitedstatespostalservice-a77078", "operator": "United States Postal Service", "operator:short": "USPS", "operator:type": "public", "operator:wikidata": "Q668687", "ref": "4014400005"}, "type": "Feature"}
{"dataset_attributes": {"@spider": "usps_collection_boxes", "spider:collection_time": "2023-08-31T08:24:48.849802"}, "geometry": {"coordinates": [-86.283945222, 37.881000031], "type": "Point"}, "id": "w_j6Yax4bDA230tCFP7yenYB2dY=", "properties": {"@spider": "usps_collection_boxes", "addr:city": "IRVINGTON", "addr:country": "US", "addr:full": "111 N 1ST ST", "addr:postcode": "40146", "addr:state": "KY", "amenity": "post_box", "brand": "United States Postal Service", "brand:wikidata": "Q668687", "collection_times": "Mo-Fr 16:15; Sa 11:45", "name": "USPS COLLECTION BOX - BLUE BOX", "note": "ON 12/24 AND 12/31, THIS BOX MAY BE COLLECTED AS EARLY AS 12 NOON.", "nsi_id": "unitedstatespostalservice-a77078", "operator": "United States Postal Service", "operator:short": "USPS", "operator:type": "public", "operator:wikidata": "Q668687", "ref": "4014600001"}, "type": "Feature"}
{"dataset_attributes": {"@spider": "usps_collection_boxes", "spider:collection_time": "2023-08-31T08:24:48.849802"}, "geometry": {"coordinates": [-86.283945222, 37.881000031], "type": "Point"}, "id": "x7uiSaiSt0RMZofBKJBhxXAiDjo=", "properties": {"@spider": "usps_collection_boxes", "addr:city": "IRVINGTON", "addr:country": "US", "addr:full": "111 N 1ST ST", "addr:postcode": "40146", "addr:state": "KY", "amenity": "post_box", "brand": "United States Postal Service", "brand:wikidata": "Q668687", "collection_times": "Mo-Fr 16:15; Sa 11:45", "name": "USPS COLLECTION BOX - PO LOBBY", "note": "ON 12/24 AND 12/31, THIS BOX MAY BE COLLECTED AS EARLY AS 12 NOON.", "nsi_id": "unitedstatespostalservice-a77078", "operator": "United States Postal Service", "operator:short": "USPS", "operator:type": "public", "operator:wikidata": "Q668687", "ref": "4014600002"}, "type": "Feature"}
{"dataset_attributes": {"@spider": "usps_collection_boxes", "spider:collection_time": "2023-08-31T08:24:48.849802"}, "geometry": {"coordinates": [-86.283945222, 37.881000031], "type": "Point"}, "id": "nw-Iupxv8uKCuA8KFBhxyjCCvhA=", "properties": {"@spider": "usps_collection_boxes", "addr:city": "IRVINGTON", "addr:country": "US", "addr:full": "111 N 1ST ST", "addr:postcode": "40146", "addr:state": "KY", "amenity": "post_box", "brand": "United States Postal Service", "brand:wikidata": "Q668687", "collection_times": "Mo-Fr 16:30; Sa 12:00", "name": "USPS COLLECTION BOX - PO LOBBY", "note": "ON 12/24 AND 12/31, THIS BOX MAY BE COLLECTED AS EARLY AS 12 NOON.", "nsi_id": "unitedstatespostalservice-a77078", "operator": "United States Postal Service", "operator:short": "USPS", "operator:type": "public", "operator:wikidata": "Q668687", "ref": "4014600005"}, "type": "Feature"}
{"dataset_attributes": {"@spider": "usps_collection_boxes", "spider:collection_time": "2023-08-31T08:24:48.849802"}, "geometry": {"coordinates": [-85.728841914, 37.837233497], "type": "Point"}, "id": "EQ464A39drF7viT78-rxpsnk3Ss=", "properties": {"@spider": "usps_collection_boxes", "addr:city": "LEBANON JCTN", "addr:country": "US", "addr:full": "11716 S PRESTON HWY", "addr:postcode": "40150", "addr:state": "KY", "amenity": "post_box", "brand": "United States Postal Service", "brand:wikidata": "Q668687", "collection_times": "Mo-Fr 15:30; Sa 12:00", "name": "USPS COLLECTION BOX - BLUE BOX", "note": "ON 12/24 AND 12/31, THIS BOX MAY BE COLLECTED AS EARLY AS 12 NOON.", "nsi_id": "unitedstatespostalservice-a77078", "operator": "United States Postal Service", "operator:short": "USPS", "operator:type": "public", "operator:wikidata": "Q668687", "ref": "4015000001"}, "type": "Feature"}
{"dataset_attributes": {"@spider": "usps_collection_boxes", "spider:collection_time": "2023-08-31T08:24:48.849802"}, "geometry": {"coordinates": [-85.7322792, 37.834343], "type": "Point"}, "id": "zQwrENDowm8jqVfUlZvVaOTcfrY=", "properties": {"@spider": "usps_collection_boxes", "addr:city": "LEBANON JCTN", "addr:country": "US", "addr:full": "271 MAIN ST", "addr:postcode": "40150", "addr:state": "KY", "amenity": "post_box", "brand": "United States Postal Service", "brand:wikidata": "Q668687", "collection_times": "Mo-Fr 11:00", "name": "USPS COLLECTION BOX - BLUE BOX", "nsi_id": "unitedstatespostalservice-a77078", "operator": "United States Postal Service", "operator:short": "USPS", "operator:type": "public", "operator:wikidata": "Q668687", "ref": "4015000003"}, "type": "Feature"}
{"dataset_attributes": {"@spider": "usps_collection_boxes", "spider:collection_time": "2023-08-31T08:24:48.849802"}, "geometry": {"coordinates": [-85.728841914, 37.837233497], "type": "Point"}, "id": "xrAfG3Qw5z3sXoSqhEOrTnm2_bU=", "properties": {"@spider": "usps_collection_boxes", "addr:city": "LEBANON JCTN", "addr:country": "US", "addr:full": "11716 S PRESTON HWY", "addr:postcode": "40150", "addr:state": "KY", "amenity": "post_box", "brand": "United States Postal Service", "brand:wikidata": "Q668687", "collection_times": "Mo-Fr 15:30; Sa 12:00", "name": "USPS COLLECTION BOX - PO LOBBY", "note": "ON 12/24 AND 12/31, THIS BOX MAY BE COLLECTED AS EARLY AS 12 NOON.", "nsi_id": "unitedstatespostalservice-a77078", "operator": "United States Postal Service", "operator:short": "USPS", "operator:type": "public", "operator:wikidata": "Q668687", "ref": "4015000005"}, "type": "Feature"}
{"dataset_attributes": {"@spider": "usps_collection_boxes", "spider:collection_time": "2023-08-31T08:24:48.849802"}, "geometry": {"coordinates": [-85.728841914, 37.837233497], "type": "Point"}, "id": "VVMW76GuBzChx316_dnfLlO517I=", "properties": {"@spider": "usps_collection_boxes", "addr:city": "LEBANON JCTN", "addr:country": "US", "addr:full": "11716 S PRESTON HWY", "addr:postcode": "40150", "addr:state": "KY", "amenity": "post_box", "brand": "United States Postal Service", "brand:wikidata": "Q668687", "collection_times": "Mo-Fr 16:00; Sa 12:00", "name": "USPS COLLECTION BOX - PO LOBBY", "note": "ON 12/24 AND 12/31, THIS BOX MAY BE COLLECTED AS EARLY AS 12 NOON.", "nsi_id": "unitedstatespostalservice-a77078", "operator": "United States Postal Service", "operator:short": "USPS", "operator:type": "public", "operator:wikidata": "Q668687", "ref": "4015000008"}, "type": "Feature"}
{"dataset_attributes": {"@spider": "usps_collection_boxes", "spider:collection_time": "2023-08-31T08:24:48.849802"}, "geometry": {"coordinates": [-86.440083974, 37.62464024], "type": "Point"}, "id": "C7EZzgcBVgbCRq-dFCXxhuQkgP4=", "properties": {"@spider": "usps_collection_boxes", "addr:city": "MCDANIELS", "addr:country": "US", "addr:full": "9501 S HIGHWAY 259", "addr:postcode": "40152", "addr:state": "KY", "amenity": "post_box", "brand": "United States Postal Service", "brand:wikidata": "Q668687", "collection_times": "Mo-Fr 14:45; Sa 12:00", "name": "USPS COLLECTION BOX - BLUE BOX", "note": "ON 12/24 AND 12/31, THIS BOX MAY BE COLLECTED AS EARLY AS 12 NOON.", "nsi_id": "unitedstatespostalservice-a77078", "operator": "United States Postal Service", "operator:short": "USPS", "operator:type": "public", "operator:wikidata": "Q668687", "ref": "4015200001"}, "type": "Feature"}
{"dataset_attributes": {"@spider": "usps_collection_boxes", "spider:collection_time": "2023-08-31T08:24:48.849802"}, "geometry": {"coordinates": [-86.440083974, 37.62464024], "type": "Point"}, "id": "JYumuFtoQU3brSKVXXcWbjR6iEw=", "properties": {"@spider": "usps_collection_boxes", "addr:city": "MCDANIELS", "addr:country": "US", "addr:full": "9501 S HIGHWAY 259", "addr:postcode": "40152", "addr:state": "KY", "amenity": "post_box", "brand": "United States Postal Service", "brand:wikidata": "Q668687", "collection_times": "Mo-Fr 14:45; Sa 12:00", "name": "USPS COLLECTION BOX - PO LOBBY", "note": "ON 12/24 AND 12/31, THIS BOX MAY BE COLLECTED AS EARLY AS 12 NOON.", "nsi_id": "unitedstatespostalservice-a77078", "operator": "United States Postal Service", "operator:short": "USPS", "operator:type": "public", "operator:wikidata": "Q668687", "ref": "4015200002"}, "type": "Feature"}
{"dataset_attributes": {"@spider": "usps_collection_boxes", "spider:collection_time": "2023-08-31T08:24:48.849802"}, "geometry": {"coordinates": [-86.440083974, 37.62464024], "type": "Point"}, "id": "8VBjd9beQkZ8ubU5qEefavhyBFA=", "properties": {"@spider": "usps_collection_boxes", "addr:city": "MCDANIELS", "addr:country": "US", "addr:full": "9501 S HIGHWAY 259", "addr:postcode": "40152", "addr:state": "KY", "amenity": "post_box", "brand": "United States Postal Service", "brand:wikidata": "Q668687", "collection_times": "Mo-Fr 14:45; Sa 12:00", "name": "USPS COLLECTION BOX - PO LOBBY", "note": "ON 12/24 AND 12/31, THIS BOX MAY BE COLLECTED AS EARLY AS 12 NOON.", "nsi_id": "unitedstatespostalservice-a77078", "operator": "United States Postal Service", "operator:short": "USPS", "operator:type": "public", "operator:wikidata": "Q668687", "ref": "4015200005"}, "type": "Feature"}
{"dataset_attributes": {"@spider": "usps_collection_boxes", "spider:collection_time": "2023-08-31T08:24:48.849802"}, "geometry": {"coordinates": [-86.519125891, 37.708331879], "type": "Point"}, "id": "9ya-Gc-Nx17LAo_CxRHTNRLxPmA=", "properties": {"@spider": "usps_collection_boxes", "addr:city": "MCQUADY", "addr:country": "US", "addr:full": "6801 S HIGHWAY 261", "addr:postcode": "40153", "addr:state": "KY", "amenity": "post_box", "brand": "United States Postal Service", "brand:wikidata": "Q668687", "collection_times": "Mo-Fr 10:00; Sa 10:15", "name": "USPS COLLECTION BOX - BLUE BOX", "nsi_id": "unitedstatespostalservice-a77078", "operator": "United States Postal Service", "operator:short": "USPS", "operator:type": "public", "operator:wikidata": "Q668687", "ref": "4015300001"}, "type": "Feature"}
{"dataset_attributes": {"@spider": "usps_collection_boxes", "spider:collection_time": "2023-08-31T08:24:48.849802"}, "geometry": {"coordinates": [-86.5191000078, 37.7082099988], "type": "Point"}, "id": "M9vovcDuaW51r1jIECDaXaQ482o=", "properties": {"@spider": "usps_collection_boxes", "addr:city": "MCQUADY", "addr:country": "US", "addr:full": "6801 S HIGHWAY 261", "addr:postcode": "40153", "addr:state": "KY", "amenity": "post_box", "brand": "United States Postal Service", "brand:wikidata": "Q668687", "collection_times": "Mo-Fr 13:00; Sa 10:30", "name": "USPS COLLECTION BOX - PO LOBBY", "note": "ON 12/24 AND 12/31, THIS BOX MAY BE COLLECTED AS EARLY AS 12 NOON.", "nsi_id": "unitedstatespostalservice-a77078", "operator": "United States Postal Service", "operator:short": "USPS", "operator:type": "public", "operator:wikidata": "Q668687", "ref": "4015300005"}, "type": "Feature"}
{"dataset_attributes": {"@spider": "usps_collection_boxes", "spider:collection_time": "2023-08-31T08:24:48.849802"}, "geometry": {"coordinates": [-85.992532632, 37.9384181], "type": "Point"}, "id": "RSPSx1XwmnbFp3s6kd6uxZiI73o=", "properties": {"@spider": "usps_collection_boxes", "addr:city": "MULDRAUGH", "addr:country": "US", "addr:full": "114 S MAIN ST", "addr:postcode": "40155", "addr:state": "KY", "amenity": "post_box", "brand": "United States Postal Service", "brand:wikidata": "Q668687", "collection_times": "Mo-Fr 16:00; Sa 11:00", "name": "USPS COLLECTION BOX - BLUE BOX", "note": "ON 12/24 AND 12/31, THIS BOX MAY BE COLLECTED AS EARLY AS 12 NOON.", "nsi_id": "unitedstatespostalservice-a77078", "operator": "United States Postal Service", "operator:short": "USPS", "operator:type": "public", "operator:wikidata": "Q668687", "ref": "4015500001"}, "type": "Feature"}
{"dataset_attributes": {"@spider": "usps_collection_boxes", "spider:collection_time": "2023-08-31T08:24:48.849802"}, "geometry": {"coordinates": [-85.992532632, 37.9384181], "type": "Point"}, "id": "fj3l2P5jmlWl0xGA5VVZWUW9zqA=", "properties": {"@spider": "usps_collection_boxes", "addr:city": "MULDRAUGH", "addr:country": "US", "addr:full": "114 S MAIN ST", "addr:postcode": "40155", "addr:state": "KY", "amenity": "post_box", "brand": "United States Postal Service", "brand:wikidata": "Q668687", "collection_times": "Mo-Fr 16:00; Sa 11:00", "name": "USPS COLLECTION BOX - PO LOBBY", "note": "ON 12/24 AND 12/31, THIS BOX MAY BE COLLECTED AS EARLY AS 12 NOON.", "nsi_id": "unitedstatespostalservice-a77078", "operator": "United States Postal Service", "operator:short": "USPS", "operator:type": "public", "operator:wikidata": "Q668687", "ref": "4015500006"}, "type": "Feature"}
{"dataset_attributes": {"@spider": "usps_collection_boxes", "spider:collection_time": "2023-08-31T08:24:48.849802"}, "geometry": {"coordinates": [-86.311745308, 37.989695558], "type": "Point"}, "id": "HqQbsa_pbjYtWg6UZwI-o0BHfaM=", "properties": {"@spider": "usps_collection_boxes", "addr:city": "PAYNEVILLE", "addr:country": "US", "addr:full": "5335 PAYNEVILLE RD", "addr:postcode": "40157", "addr:state": "KY", "amenity": "post_box", "brand": "United States Postal Service", "brand:wikidata": "Q668687", "collection_times": "Mo-Fr 15:00; Sa 11:00", "name": "USPS COLLECTION BOX - BLUE BOX", "note": "ON 12/24 AND 12/31, THIS BOX MAY BE COLLECTED AS EARLY AS 12 NOON.", "nsi_id": "unitedstatespostalservice-a77078", "operator": "United States Postal Service", "operator:short": "USPS", "operator:type": "public", "operator:wikidata": "Q668687", "ref": "4015700001"}, "type": "Feature"}
{"dataset_attributes": {"@spider": "usps_collection_boxes", "spider:collection_time": "2023-08-31T08:24:48.849802"}, "geometry": {"coordinates": [-86.311745308, 37.989695558], "type": "Point"}, "id": "-uiWPUHv38UbOhDHbOUMPEizRks=", "properties": {"@spider": "usps_collection_boxes", "addr:city": "PAYNEVILLE", "addr:country": "US", "addr:full": "5335 PAYNEVILLE RD", "addr:postcode": "40157", "addr:state": "KY", "amenity": "post_box", "brand": "United States Postal Service", "brand:wikidata": "Q668687", "collection_times": "Mo-Fr 15:00; Sa 09:30", "name": "USPS COLLECTION BOX - PO LOBBY", "note": "ON 12/24 AND 12/31, THIS BOX MAY BE COLLECTED AS EARLY AS 12 NOON.", "nsi_id": "unitedstatespostalservice-a77078", "operator": "United States Postal Service", "operator:short": "USPS", "operator:type": "public", "operator:wikidata": "Q668687", "ref": "4015700002"}, "type": "Feature"}
{"dataset_attributes": {"@spider": "usps_collection_boxes", "spider:collection_time": "2023-08-31T08:24:48.849802"}, "geometry": {"coordinates": [-86.311745308, 37.989695558], "type": "Point"}, "id": "lAYViPsLiOgre1tT2A_A0AA_Smo=", "properties": {"@spider": "usps_collection_boxes", "addr:city": "PAYNEVILLE", "addr:country": "US", "addr:full": "5335 PAYNEVILLE RD", "addr:postcode": "40157", "addr:state": "KY", "amenity": "post_box", "brand": "United States Postal Service", "brand:wikidata": "Q668687", "collection_times": "Mo-Fr 15:00; Sa 09:30", "name": "USPS COLLECTION BOX - PO LOBBY", "note": "ON 12/24 AND 12/31, THIS BOX MAY BE COLLECTED AS EARLY AS 12 NOON.", "nsi_id": "unitedstatespostalservice-a77078", "operator": "United States Postal Service", "operator:short": "USPS", "operator:type": "public", "operator:wikidata": "Q668687", "ref": "4015700005"}, "type": "Feature"}
{"dataset_attributes": {"@spider": "usps_collection_boxes", "spider:collection_time": "2023-08-31T08:24:48.849802"}, "geometry": {"coordinates": [-85.947333837, 37.83675861], "type": "Point"}, "id": "-HqLpmN9UE6_QybaEDJWlKa9Buk=", "properties": {"@spider": "usps_collection_boxes", "addr:city": "RADCLIFF", "addr:country": "US", "addr:full": "590 W LINCOLN TRAIL BLVD", "addr:postcode": "40160", "addr:state": "KY", "amenity": "post_box", "brand": "United States Postal Service", "brand:wikidata": "Q668687", "collection_times": "Mo-Fr 16:00; Sa 14:00", "name": "USPS COLLECTION BOX - BLUE BOX", "note": "ON 12/24 AND 12/31, THIS BOX MAY BE COLLECTED AS EARLY AS 12 NOON.", "nsi_id": "unitedstatespostalservice-a77078", "operator": "United States Postal Service", "operator:short": "USPS", "operator:type": "public", "operator:wikidata": "Q668687", "ref": "4016000001"}, "type": "Feature"}
{"dataset_attributes": {"@spider": "usps_collection_boxes", "spider:collection_time": "2023-08-31T08:24:48.849802"}, "geometry": {"coordinates": [-85.9185741, 37.808932], "type": "Point"}, "id": "XeBr6J5Ma9QaEvJmhz8-JaiReXo=", "properties": {"@spider": "usps_collection_boxes", "addr:city": "RADCLIFF", "addr:country": "US", "addr:full": "2855 CENTENNIAL AVE", "addr:postcode": "40160", "addr:state": "KY", "amenity": "post_box", "brand": "United States Postal Service", "brand:wikidata": "Q668687", "collection_times": "Mo-Sa 11:00", "name": "USPS COLLECTION BOX - BLUE BOX", "nsi_id": "unitedstatespostalservice-a77078", "operator": "United States Postal Service", "operator:short": "USPS", "operator:type": "public", "operator:wikidata": "Q668687", "ref": "4016000002"}, "type": "Feature"}
{"dataset_attributes": {"@spider": "usps_collection_boxes", "spider:collection_time": "2023-08-31T08:24:48.849802"}, "geometry": {"coordinates": [-85.947333837, 37.83675861], "type": "Point"}, "id": "wSsPTWgH5igw1qa28ub0dpQQc_Y=", "properties": {"@spider": "usps_collection_boxes", "addr:city": "RADCLIFF", "addr:country": "US", "addr:full": "590 W LINCOLN TRAIL BLVD", "addr:postcode": "40160", "addr:state": "KY", "amenity": "post_box", "brand": "United States Postal Service", "brand:wikidata": "Q668687", "collection_times": "Mo-Fr 16:30; Sa 14:00", "name": "USPS COLLECTION BOX - PO LOBBY", "note": "ON 12/24 AND 12/31, THIS BOX MAY BE COLLECTED AS EARLY AS 12 NOON.", "nsi_id": "unitedstatespostalservice-a77078", "operator": "United States Postal Service", "operator:short": "USPS", "operator:type": "public", "operator:wikidata": "Q668687", "ref": "4016000009"}, "type": "Feature"}
{"dataset_attributes": {"@spider": "usps_collection_boxes", "spider:collection_time": "2023-08-31T08:24:48.849802"}, "geometry": {"coordinates": [-85.9161081, 37.792999], "type": "Point"}, "id": "X273SbmBjOAeK2lUz7d-bEo2GRw=", "properties": {"@spider": "usps_collection_boxes", "addr:city": "RADCLIFF", "addr:country": "US", "addr:full": "3939 S DIXIE BLVD", "addr:postcode": "40160", "addr:state": "KY", "amenity": "post_box", "brand": "United States Postal Service", "brand:wikidata": "Q668687", "collection_times": "Mo-Sa 12:00", "name": "USPS COLLECTION BOX - BLUE BOX", "nsi_id": "unitedstatespostalservice-a77078", "operator": "United States Postal Service", "operator:short": "USPS", "operator:type": "public", "operator:wikidata": "Q668687", "ref": "4016000012"}, "type": "Feature"}
{"dataset_attributes": {"@spider": "usps_collection_boxes", "spider:collection_time": "2023-08-31T08:24:48.849802"}, "geometry": {"coordinates": [-85.9470171, 37.849122], "type": "Point"}, "id": "rv1oFWKg-U9K8f4hB0cfoNUXMq4=", "properties": {"@spider": "usps_collection_boxes", "addr:city": "RADCLIFF", "addr:country": "US", "addr:full": "883 N DIXIE BLVD", "addr:postcode": "40160", "addr:state": "KY", "amenity": "post_box", "brand": "United States Postal Service", "brand:wikidata": "Q668687", "collection_times": "Mo-Fr 13:00; Sa 12:30", "name": "USPS COLLECTION BOX - BLUE BOX", "note": "ON 12/24 AND 12/31, THIS BOX MAY BE COLLECTED AS EARLY AS 12 NOON.", "nsi_id": "unitedstatespostalservice-a77078", "operator": "United States Postal Service", "operator:short": "USPS", "operator:type": "public", "operator:wikidata": "Q668687", "ref": "4016000015"}, "type": "Feature"}
{"dataset_attributes": {"@spider": "usps_collection_boxes", "spider:collection_time": "2023-08-31T08:24:48.849802"}, "geometry": {"coordinates": [-85.9156931, 37.799735], "type": "Point"}, "id": "0aIUK2gjNzH3RnzmV7Ft6-InX00=", "properties": {"@spider": "usps_collection_boxes", "addr:city": "RADCLIFF", "addr:country": "US", "addr:full": "102 GATEWAY CROSSING BLVD", "addr:postcode": "40160", "addr:state": "KY", "amenity": "post_box", "brand": "United States Postal Service", "brand:wikidata": "Q668687", "collection_times": "Mo-Sa 11:00", "name": "USPS COLLECTION BOX - BLUE BOX", "nsi_id": "unitedstatespostalservice-a77078", "operator": "United States Postal Service", "operator:short": "USPS", "operator:type": "public", "operator:wikidata": "Q668687", "ref": "4016000016"}, "type": "Feature"}
{"dataset_attributes": {"@spider": "usps_collection_boxes", "spider:collection_time": "2023-08-31T08:24:48.849802"}, "geometry": {"coordinates": [-85.947333837, 37.83675861], "type": "Point"}, "id": "ke60Irx1jtegDroHFt6lgEcY2Dc=", "properties": {"@spider": "usps_collection_boxes", "addr:city": "RADCLIFF", "addr:country": "US", "addr:full": "590 W LINCOLN TRAIL BLVD", "addr:postcode": "40160", "addr:state": "KY", "amenity": "post_box", "brand": "United States Postal Service", "brand:wikidata": "Q668687", "collection_times": "Mo-Fr 16:30; Sa 12:00", "name": "USPS COLLECTION BOX - PO LOBBY", "note": "ON 12/24 AND 12/31, THIS BOX MAY BE COLLECTED AS EARLY AS 12 NOON.", "nsi_id": "unitedstatespostalservice-a77078", "operator": "United States Postal Service", "operator:short": "USPS", "operator:type": "public", "operator:wikidata": "Q668687", "ref": "4016000017"}, "type": "Feature"}
{"dataset_attributes": {"@spider": "usps_collection_boxes", "spider:collection_time": "2023-08-31T08:24:48.849802"}, "geometry": {"coordinates": [-86.420583485, 38.006948954], "type": "Point"}, "id": "cVekjJmI4EL_TA4AasIz3Ho7uYE=", "properties": {"@spider": "usps_collection_boxes", "addr:city": "RHODELIA", "addr:country": "US", "addr:full": "11195 RHODELIA RD", "addr:postcode": "40161", "addr:state": "KY", "amenity": "post_box", "brand": "United States Postal Service", "brand:wikidata": "Q668687", "collection_times": "Mo-Sa 10:45", "name": "USPS COLLECTION BOX - BLUE BOX", "nsi_id": "unitedstatespostalservice-a77078", "operator": "United States Postal Service", "operator:short": "USPS", "operator:type": "public", "operator:wikidata": "Q668687", "ref": "4016100001"}, "type": "Feature"}
{"dataset_attributes": {"@spider": "usps_collection_boxes", "spider:collection_time": "2023-08-31T08:24:48.849802"}, "geometry": {"coordinates": [-86.420583485, 38.006948954], "type": "Point"}, "id": "Nw2loTdS6Ee352lS6-ufoPr6tV0=", "properties": {"@spider": "usps_collection_boxes", "addr:city": "RHODELIA", "addr:country": "US", "addr:full": "11195 RHODELIA RD", "addr:postcode": "40161", "addr:state": "KY", "amenity": "post_box", "brand": "United States Postal Service", "brand:wikidata": "Q668687", "collection_times": "Mo-Sa 10:00", "name": "USPS COLLECTION BOX - PO LOBBY", "nsi_id": "unitedstatespostalservice-a77078", "operator": "United States Postal Service", "operator:short": "USPS", "operator:type": "public", "operator:wikidata": "Q668687", "ref": "4016100003"}, "type": "Feature"}
{"dataset_attributes": {"@spider": "usps_collection_boxes", "spider:collection_time": "2023-08-31T08:24:48.849802"}, "geometry": {"coordinates": [-85.972619731, 37.750757688], "type": "Point"}, "id": "VPnJhqwvq28DWwslSMKe99rNk-U=", "properties": {"@spider": "usps_collection_boxes", "addr:city": "RINEYVILLE", "addr:country": "US", "addr:full": "6127 RINEYVILLE RD", "addr:postcode": "40162", "addr:state": "KY", "amenity": "post_box", "brand": "United States Postal Service", "brand:wikidata": "Q668687", "collection_times": "Mo-Fr 15:45; Sa 10:45", "name": "USPS COLLECTION BOX - BLUE BOX", "note": "ON 12/24 AND 12/31, THIS BOX MAY BE COLLECTED AS EARLY AS 12 NOON.", "nsi_id": "unitedstatespostalservice-a77078", "operator": "United States Postal Service", "operator:short": "USPS", "operator:type": "public", "operator:wikidata": "Q668687", "ref": "4016200001"}, "type": "Feature"}
{"dataset_attributes": {"@spider": "usps_collection_boxes", "spider:collection_time": "2023-08-31T08:24:48.849802"}, "geometry": {"coordinates": [-85.972619731, 37.750757688], "type": "Point"}, "id": "sS3sA7LxX1UjpEz8rn91nzsLJC4=", "properties": {"@spider": "usps_collection_boxes", "addr:city": "RINEYVILLE", "addr:country": "US", "addr:full": "6127 RINEYVILLE RD", "addr:postcode": "40162", "addr:state": "KY", "amenity": "post_box", "brand": "United States Postal Service", "brand:wikidata": "Q668687", "collection_times": "Mo-Fr 15:45; Sa 10:45", "name": "USPS COLLECTION BOX - PO LOBBY", "note": "ON 12/24 AND 12/31, THIS BOX MAY BE COLLECTED AS EARLY AS 12 NOON.", "nsi_id": "unitedstatespostalservice-a77078", "operator": "United States Postal Service", "operator:short": "USPS", "operator:type": "public", "operator:wikidata": "Q668687", "ref": "4016200002"}, "type": "Feature"}
{"dataset_attributes": {"@spider": "usps_collection_boxes", "spider:collection_time": "2023-08-31T08:24:48.849802"}, "geometry": {"coordinates": [-85.972619731, 37.750757688], "type": "Point"}, "id": "200dNZ1AxrO4_gJaWEnHk8c8J-M=", "properties": {"@spider": "usps_collection_boxes", "addr:city": "RINEYVILLE", "addr:country": "US", "addr:full": "6127 RINEYVILLE RD", "addr:postcode": "40162", "addr:state": "KY", "amenity": "post_box", "brand": "United States Postal Service", "brand:wikidata": "Q668687", "collection_times": "Mo-Fr 16:00; Sa 11:00", "name": "USPS COLLECTION BOX - PO LOBBY", "note": "ON 12/24 AND 12/31, THIS BOX MAY BE COLLECTED AS EARLY AS 12 NOON.", "nsi_id": "unitedstatespostalservice-a77078", "operator": "United States Postal Service", "operator:short": "USPS", "operator:type": "public", "operator:wikidata": "Q668687", "ref": "4016200005"}, "type": "Feature"}
{"dataset_attributes": {"@spider": "usps_collection_boxes", "spider:collection_time": "2023-08-31T08:24:48.849802"}, "geometry": {"coordinates": [-85.709865626, 38.002135485], "type": "Point"}, "id": "GV7fcHJqRIHne9HHp6cDS6VOU6c=", "properties": {"@spider": "usps_collection_boxes", "addr:city": "SHEPHERDSVILLE", "addr:country": "US", "addr:full": "921 N BUCKMAN ST", "addr:postcode": "40165", "addr:state": "KY", "amenity": "post_box", "brand": "United States Postal Service", "brand:wikidata": "Q668687", "collection_times": "Mo-Fr 16:30; Sa 14:00", "name": "USPS COLLECTION BOX - BLUE BOX", "note": "ON 12/24 AND 12/31, THIS BOX MAY BE COLLECTED AS EARLY AS 12 NOON.", "nsi_id": "unitedstatespostalservice-a77078", "operator": "United States Postal Service", "operator:short": "USPS", "operator:type": "public", "operator:wikidata": "Q668687", "ref": "4016500001"}, "type": "Feature"}
{"dataset_attributes": {"@spider": "usps_collection_boxes", "spider:collection_time": "2023-08-31T08:24:48.849802"}, "geometry": {"coordinates": [-85.7103411, 37.992275], "type": "Point"}, "id": "k8xBkbUrGZhFunfHJUrLTWU0rs4=", "properties": {"@spider": "usps_collection_boxes", "addr:city": "SHEPHERDSVILLE", "addr:country": "US", "addr:full": "189 ADAM SHEPHERD PKWY", "addr:postcode": "40165", "addr:state": "KY", "amenity": "post_box", "brand": "United States Postal Service", "brand:wikidata": "Q668687", "collection_times": "Mo-Fr 11:00; Sa 10:00", "name": "USPS COLLECTION BOX - BLUE BOX", "nsi_id": "unitedstatespostalservice-a77078", "operator": "United States Postal Service", "operator:short": "USPS", "operator:type": "public", "operator:wikidata": "Q668687", "ref": "4016500004"}, "type": "Feature"}
{"dataset_attributes": {"@spider": "usps_collection_boxes", "spider:collection_time": "2023-08-31T08:24:48.849802"}, "geometry": {"coordinates": [-85.7086466, 37.988792], "type": "Point"}, "id": "ukQQatwMeb65Ugbzu8o9PN3Q-Ts=", "properties": {"@spider": "usps_collection_boxes", "addr:city": "SHEPHERDSVILLE", "addr:country": "US", "addr:full": "445 HIGHWAY 44 E", "addr:postcode": "40165", "addr:state": "KY", "amenity": "post_box", "brand": "United States Postal Service", "brand:wikidata": "Q668687", "collection_times": "Mo-Sa 10:00", "name": "USPS COLLECTION BOX - BLUE BOX", "nsi_id": "unitedstatespostalservice-a77078", "operator": "United States Postal Service", "operator:short": "USPS", "operator:type": "public", "operator:wikidata": "Q668687", "ref": "4016500006"}, "type": "Feature"}
{"dataset_attributes": {"@spider": "usps_collection_boxes", "spider:collection_time": "2023-08-31T08:24:48.849802"}, "geometry": {"coordinates": [-85.7152815, 37.989503], "type": "Point"}, "id": "hUwfWUXnfb5qPCZJVnZmL51hscU=", "properties": {"@spider": "usps_collection_boxes", "addr:city": "SHEPHERDSVILLE", "addr:country": "US", "addr:full": "170 FRANK E SIMON AVE", "addr:postcode": "40165", "addr:state": "KY", "amenity": "post_box", "brand": "United States Postal Service", "brand:wikidata": "Q668687", "collection_times": "Mo-Sa 10:00", "name": "USPS COLLECTION BOX - BLUE BOX", "nsi_id": "unitedstatespostalservice-a77078", "operator": "United States Postal Service", "operator:short": "USPS", "operator:type": "public", "operator:wikidata": "Q668687", "ref": "4016500009"}, "type": "Feature"}
{"dataset_attributes": {"@spider": "usps_collection_boxes", "spider:collection_time": "2023-08-31T08:24:48.849802"}, "geometry": {"coordinates": [-85.7032781, 38.061035], "type": "Point"}, "id": "nZKJUTy57Vvhv5cH-nOiK3VGT-Q=", "properties": {"@spider": "usps_collection_boxes", "addr:city": "SHEPHERDSVILLE", "addr:country": "US", "addr:full": "2050 E BLUE LICK RD", "addr:postcode": "40165", "addr:state": "KY", "amenity": "post_box", "brand": "United States Postal Service", "brand:wikidata": "Q668687", "collection_times": "Mo-Fr 11:00; Sa 10:00", "name": "USPS COLLECTION BOX - BLUE BOX", "nsi_id": "unitedstatespostalservice-a77078", "operator": "United States Postal Service", "operator:short": "USPS", "operator:type": "public", "operator:wikidata": "Q668687", "ref": "4016500011"}, "type": "Feature"}
{"dataset_attributes": {"@spider": "usps_collection_boxes", "spider:collection_time": "2023-08-31T08:24:48.849802"}, "geometry": {"coordinates": [-85.709865626, 38.002135485], "type": "Point"}, "id": "ECWGAxQV7GpHoyPyv4UkO2JaPxU=", "properties": {"@spider": "usps_collection_boxes", "addr:city": "SHEPHERDSVILLE", "addr:country": "US", "addr:full": "921 N BUCKMAN ST", "addr:postcode": "40165", "addr:state": "KY", "amenity": "post_box", "brand": "United States Postal Service", "brand:wikidata": "Q668687", "collection_times": "Mo-Fr 16:30; Sa 14:00", "name": "USPS COLLECTION BOX - PO LOBBY", "note": "ON 12/24 AND 12/31, THIS BOX MAY BE COLLECTED AS EARLY AS 12 NOON.", "nsi_id": "unitedstatespostalservice-a77078", "operator": "United States Postal Service", "operator:short": "USPS", "operator:type": "public", "operator:wikidata": "Q668687", "ref": "4016500012"}, "type": "Feature"}
{"dataset_attributes": {"@spider": "usps_collection_boxes", "spider:collection_time": "2023-08-31T08:24:48.849802"}, "geometry": {"coordinates": [-85.6764682, 38.052397], "type": "Point"}, "id": "XjjHV8WxlCDxQ_A7_3JYCIPmXv0=", "properties": {"@spider": "usps_collection_boxes", "addr:city": "SHEPHERDSVILLE", "addr:country": "US", "addr:full": "3390 BURKLAND BLVD", "addr:postcode": "40165", "addr:state": "KY", "amenity": "post_box", "brand": "United States Postal Service", "brand:wikidata": "Q668687", "collection_times": "Mo-Sa 10:00", "name": "USPS COLLECTION BOX - BLUE BOX", "nsi_id": "unitedstatespostalservice-a77078", "operator": "United States Postal Service", "operator:short": "USPS", "operator:type": "public", "operator:wikidata": "Q668687", "ref": "4016500014"}, "type": "Feature"}
{"dataset_attributes": {"@spider": "usps_collection_boxes", "spider:collection_time": "2023-08-31T08:24:48.849802"}, "geometry": {"coordinates": [-85.6941577, 37.979438], "type": "Point"}, "id": "uNM6BHte9oc5tjhUwH0IS4qvlec=", "properties": {"@spider": "usps_collection_boxes", "addr:city": "SHEPHERDSVILLE", "addr:country": "US", "addr:full": "1090 CEDAR GROVE RD", "addr:postcode": "40165", "addr:state": "KY", "amenity": "post_box", "brand": "United States Postal Service", "brand:wikidata": "Q668687", "collection_times": "Mo-Fr 11:30; Sa 10:00", "name": "USPS COLLECTION BOX - BLUE BOX", "nsi_id": "unitedstatespostalservice-a77078", "operator": "United States Postal Service", "operator:short": "USPS", "operator:type": "public", "operator:wikidata": "Q668687", "ref": "4016500016"}, "type": "Feature"}
{"dataset_attributes": {"@spider": "usps_collection_boxes", "spider:collection_time": "2023-08-31T08:24:48.849802"}, "geometry": {"coordinates": [-85.709865626, 38.002135485], "type": "Point"}, "id": "SPP09NFt9HXkjz2zHSH1z_RX9w4=", "properties": {"@spider": "usps_collection_boxes", "addr:city": "SHEPHERDSVILLE", "addr:country": "US", "addr:full": "921 N BUCKMAN ST", "addr:postcode": "40165", "addr:state": "KY", "amenity": "post_box", "brand": "United States Postal Service", "brand:wikidata": "Q668687", "collection_times": "Mo-Fr 16:30; Sa 14:00", "name": "USPS COLLECTION BOX - PO LOBBY", "note": "ON 12/24 AND 12/31, THIS BOX MAY BE COLLECTED AS EARLY AS 12 NOON.", "nsi_id": "unitedstatespostalservice-a77078", "operator": "United States Postal Service", "operator:short": "USPS", "operator:type": "public", "operator:wikidata": "Q668687", "ref": "4016500018"}, "type": "Feature"}
{"dataset_attributes": {"@spider": "usps_collection_boxes", "spider:collection_time": "2023-08-31T08:24:48.849802"}, "geometry": {"coordinates": [-85.6832719, 37.9236], "type": "Point"}, "id": "HMoNrCFg5PeQKi2sli0RBdnJZwY=", "properties": {"@spider": "usps_collection_boxes", "addr:city": "SHEPHERDSVILLE", "addr:country": "US", "addr:full": "995 CLERMONT RD", "addr:postcode": "40165", "addr:state": "KY", "amenity": "post_box", "brand": "United States Postal Service", "brand:wikidata": "Q668687", "collection_times": "Mo-Sa 10:00", "name": "USPS COLLECTION BOX - BLUE BOX", "nsi_id": "unitedstatespostalservice-a77078", "operator": "United States Postal Service", "operator:short": "USPS", "operator:type": "public", "operator:wikidata": "Q668687", "ref": "4016500021"}, "type": "Feature"}
{"dataset_attributes": {"@spider": "usps_collection_boxes", "spider:collection_time": "2023-08-31T08:24:48.849802"}, "geometry": {"coordinates": [-85.709865626, 38.002135485], "type": "Point"}, "id": "vN7Wv3WurmgsGmHW2bIDzu0MPjU=", "properties": {"@spider": "usps_collection_boxes", "addr:city": "SHEPHERDSVILLE", "addr:country": "US", "addr:full": "921 N BUCKMAN ST", "addr:postcode": "40165", "addr:state": "KY", "amenity": "post_box", "brand": "United States Postal Service", "brand:wikidata": "Q668687", "collection_times": "Mo-Fr 16:30; Sa 12:00", "name": "USPS COLLECTION BOX - PO LOBBY", "note": "ON 12/24 AND 12/31, THIS BOX MAY BE COLLECTED AS EARLY AS 12 NOON.", "nsi_id": "unitedstatespostalservice-a77078", "operator": "United States Postal Service", "operator:short": "USPS", "operator:type": "public", "operator:wikidata": "Q668687", "ref": "4016500024"}, "type": "Feature"}
{"dataset_attributes": {"@spider": "usps_collection_boxes", "spider:collection_time": "2023-08-31T08:24:48.849802"}, "geometry": {"coordinates": [-86.528512822, 37.912100415], "type": "Point"}, "id": "LZD4vnZmGiD2t4MQkD_NYLBIYbo=", "properties": {"@spider": "usps_collection_boxes", "addr:city": "STEPHENSPORT", "addr:country": "US", "addr:full": "9757 E HIGHWAY 144", "addr:postcode": "40170", "addr:state": "KY", "amenity": "post_box", "brand": "United States Postal Service", "brand:wikidata": "Q668687", "collection_times": "Mo-Sa 08:30", "name": "USPS COLLECTION BOX - BLUE BOX", "nsi_id": "unitedstatespostalservice-a77078", "operator": "United States Postal Service", "operator:short": "USPS", "operator:type": "public", "operator:wikidata": "Q668687", "ref": "4017000001"}, "type": "Feature"}
{"dataset_attributes": {"@spider": "usps_collection_boxes", "spider:collection_time": "2023-08-31T08:24:48.849802"}, "geometry": {"coordinates": [-86.528512822, 37.912100415], "type": "Point"}, "id": "TzV6gDcsELkXXf6woZUanXy6-Mc=", "properties": {"@spider": "usps_collection_boxes", "addr:city": "STEPHENSPORT", "addr:country": "US", "addr:full": "9757 E HIGHWAY 144", "addr:postcode": "40170", "addr:state": "KY", "amenity": "post_box", "brand": "United States Postal Service", "brand:wikidata": "Q668687", "collection_times": "Mo-Sa 08:30", "name": "USPS COLLECTION BOX - PO LOBBY", "nsi_id": "unitedstatespostalservice-a77078", "operator": "United States Postal Service", "operator:short": "USPS", "operator:type": "public", "operator:wikidata": "Q668687", "ref": "4017000005"}, "type": "Feature"}
{"dataset_attributes": {"@spider": "usps_collection_boxes", "spider:collection_time": "2023-08-31T08:24:48.849802"}, "geometry": {"coordinates": [-85.974698565, 37.812966739], "type": "Point"}, "id": "hfdoIkljswyHCno2YG8-0COAbPs=", "properties": {"@spider": "usps_collection_boxes", "addr:city": "VINE GROVE", "addr:country": "US", "addr:full": "414 1/2 HIGHLAND AVE", "addr:postcode": "40175", "addr:state": "KY", "amenity": "post_box", "brand": "United States Postal Service", "brand:wikidata": "Q668687", "collection_times": "Mo-Fr 16:00; Sa 15:00", "name": "USPS COLLECTION BOX - BLUE BOX", "note": "ON 12/24 AND 12/31, THIS BOX MAY BE COLLECTED AS EARLY AS 12 NOON.", "nsi_id": "unitedstatespostalservice-a77078", "operator": "United States Postal Service", "operator:short": "USPS", "operator:type": "public", "operator:wikidata": "Q668687", "ref": "4017500001"}, "type": "Feature"}
{"dataset_attributes": {"@spider": "usps_collection_boxes", "spider:collection_time": "2023-08-31T08:24:48.849802"}, "geometry": {"coordinates": [-85.9702799, 37.8167], "type": "Point"}, "id": "K3hYAsjDoyqCiN23AED5VLvolTI=", "properties": {"@spider": "usps_collection_boxes", "addr:city": "VINE GROVE", "addr:country": "US", "addr:full": "536 HIGHLAND AVE", "addr:postcode": "40175", "addr:state": "KY", "amenity": "post_box", "brand": "United States Postal Service", "brand:wikidata": "Q668687", "collection_times": "Mo-Sa 09:00", "name": "USPS COLLECTION BOX - BLUE BOX", "nsi_id": "unitedstatespostalservice-a77078", "operator": "United States Postal Service", "operator:short": "USPS", "operator:type": "public", "operator:wikidata": "Q668687", "ref": "4017500002"}, "type": "Feature"}
{"dataset_attributes": {"@spider": "usps_collection_boxes", "spider:collection_time": "2023-08-31T08:24:48.849802"}, "geometry": {"coordinates": [-85.974698565, 37.812966739], "type": "Point"}, "id": "Am6xaSZ6cOj2XOy1IwQ5RTg5h98=", "properties": {"@spider": "usps_collection_boxes", "addr:city": "VINE GROVE", "addr:country": "US", "addr:full": "414 1/2 HIGHLAND AVE", "addr:postcode": "40175", "addr:state": "KY", "amenity": "post_box", "brand": "United States Postal Service", "brand:wikidata": "Q668687", "collection_times": "Mo-Fr 16:00; Sa 15:00", "name": "USPS COLLECTION BOX - PO LOBBY", "note": "ON 12/24 AND 12/31, THIS BOX MAY BE COLLECTED AS EARLY AS 12 NOON.", "nsi_id": "unitedstatespostalservice-a77078", "operator": "United States Postal Service", "operator:short": "USPS", "operator:type": "public", "operator:wikidata": "Q668687", "ref": "4017500008"}, "type": "Feature"}
{"dataset_attributes": {"@spider": "usps_collection_boxes", "spider:collection_time": "2023-08-31T08:24:48.849802"}, "geometry": {"coordinates": [-86.0601337, 37.832427], "type": "Point"}, "id": "UIzqO3qjfh9Mzh69Z8O0J7L4vc8=", "properties": {"@spider": "usps_collection_boxes", "addr:city": "VINE GROVE", "addr:country": "US", "addr:full": "4055 FLAHERTY RD", "addr:postcode": "40175", "addr:state": "KY", "amenity": "post_box", "brand": "United States Postal Service", "brand:wikidata": "Q668687", "collection_times": "Mo-Sa 09:00", "name": "USPS COLLECTION BOX - BLUE BOX", "nsi_id": "unitedstatespostalservice-a77078", "operator": "United States Postal Service", "operator:short": "USPS", "operator:type": "public", "operator:wikidata": "Q668687", "ref": "4017500009"}, "type": "Feature"}
{"dataset_attributes": {"@spider": "usps_collection_boxes", "spider:collection_time": "2023-08-31T08:24:48.849802"}, "geometry": {"coordinates": [-85.974698565, 37.812966739], "type": "Point"}, "id": "tAhInCRtkjo11nX72Yz54Ced_Fc=", "properties": {"@spider": "usps_collection_boxes", "addr:city": "VINE GROVE", "addr:country": "US", "addr:full": "414 1/2 HIGHLAND AVE", "addr:postcode": "40175", "addr:state": "KY", "amenity": "post_box", "brand": "United States Postal Service", "brand:wikidata": "Q668687", "collection_times": "Mo-Fr 16:00; Sa 12:00", "name": "USPS COLLECTION BOX - PO LOBBY", "note": "ON 12/24 AND 12/31, THIS BOX MAY BE COLLECTED AS EARLY AS 12 NOON.", "nsi_id": "unitedstatespostalservice-a77078", "operator": "United States Postal Service", "operator:short": "USPS", "operator:type": "public", "operator:wikidata": "Q668687", "ref": "4017500012"}, "type": "Feature"}
{"dataset_attributes": {"@spider": "usps_collection_boxes", "spider:collection_time": "2023-08-31T08:24:48.849802"}, "geometry": {"coordinates": [-86.338700591, 37.888890159], "type": "Point"}, "id": "uknjxlHkdQy4iL-ois_oMJyt9ho=", "properties": {"@spider": "usps_collection_boxes", "addr:city": "WEBSTER", "addr:country": "US", "addr:full": "12321 N HIGHWAY 261", "addr:postcode": "40176", "addr:state": "KY", "amenity": "post_box", "brand": "United States Postal Service", "brand:wikidata": "Q668687", "collection_times": "Mo-Sa 09:30", "name": "USPS COLLECTION BOX - BLUE BOX", "nsi_id": "unitedstatespostalservice-a77078", "operator": "United States Postal Service", "operator:short": "USPS", "operator:type": "public", "operator:wikidata": "Q668687", "ref": "4017600001"}, "type": "Feature"}
{"dataset_attributes": {"@spider": "usps_collection_boxes", "spider:collection_time": "2023-08-31T08:24:48.849802"}, "geometry": {"coordinates": [-85.94809607, 37.998926223], "type": "Point"}, "id": "zSQOZTwdLhNutf9bBCR2reIp8nk=", "properties": {"@spider": "usps_collection_boxes", "addr:city": "WEST POINT", "addr:country": "US", "addr:full": "602 MAIN ST", "addr:postcode": "40177", "addr:state": "KY", "amenity": "post_box", "brand": "United States Postal Service", "brand:wikidata": "Q668687", "collection_times": "Mo-Fr 10:45; Sa 09:00", "name": "USPS COLLECTION BOX - BLUE BOX", "nsi_id": "unitedstatespostalservice-a77078", "operator": "United States Postal Service", "operator:short": "USPS", "operator:type": "public", "operator:wikidata": "Q668687", "ref": "4017700001"}, "type": "Feature"}
{"dataset_attributes": {"@spider": "usps_collection_boxes", "spider:collection_time": "2023-08-31T08:24:48.849802"}, "geometry": {"coordinates": [-85.94809607, 37.998926223], "type": "Point"}, "id": "KQmffthJOvogF_fyRW2Kt3r9yGI=", "properties": {"@spider": "usps_collection_boxes", "addr:city": "WEST POINT", "addr:country": "US", "addr:full": "602 MAIN ST", "addr:postcode": "40177", "addr:state": "KY", "amenity": "post_box", "brand": "United States Postal Service", "brand:wikidata": "Q668687", "collection_times": "Mo-Fr 11:30; Sa 09:30", "name": "USPS COLLECTION BOX - PO LOBBY", "nsi_id": "unitedstatespostalservice-a77078", "operator": "United States Postal Service", "operator:short": "USPS", "operator:type": "public", "operator:wikidata": "Q668687", "ref": "4017700008"}, "type": "Feature"}
