{"geometry": {"coordinates": [-85.052138727, 37.578807793], "type": "Point"}, "id": "JTDeex4G-foLQCmQRk32PImqowg=", "properties": {"@spider": "usps_collection_boxes", "addr:city": "GRAVEL SWITCH", "addr:country": "US", "addr:full": "885 GRAVEL SWITCH RD", "addr:postcode": "40328", "addr:state": "KY", "brand": "USPS", "collection_times": "Mo-Fr 12:00; Sa 11:00", "name": "USPS COLLECTION BOX - BLUE BOX", "ref": "4032800000"}, "type": "Feature"}
{"geometry": {"coordinates": [-85.052138727, 37.578807793], "type": "Point"}, "id": "lx0ijR7CPEOgJNbIZA5zjTPfpLQ=", "properties": {"@spider": "usps_collection_boxes", "addr:city": "GRAVEL SWITCH", "addr:country": "US", "addr:full": "885 GRAVEL SWITCH RD", "addr:postcode": "40328", "addr:state": "KY", "brand": "USPS", "collection_times": "Mo-Fr 12:00; Sa 11:00", "name": "USPS COLLECTION BOX - PO LOBBY", "ref": "4032800001"}, "type": "Feature"}
{"geometry": {"coordinates": [-85.052138727, 37.578807793], "type": "Point"}, "id": "igXI6MjuIWLS9RQNUHXYflFWWPI=", "properties": {"@spider": "usps_collection_boxes", "addr:city": "GRAVEL SWITCH", "addr:country": "US", "addr:full": "885 GRAVEL SWITCH RD", "addr:postcode": "40328", "addr:state": "KY", "brand": "USPS", "collection_times": "Mo-Fr 12:00; Sa 11:00", "name": "USPS COLLECTION BOX - PO LOBBY", "ref": "4032800004"}, "type": "Feature"}
{"geometry": {"coordinates": [-84.8432138, 37.745731], "type": "Point"}, "id": "LaJYn6umdt62t9nrq9wolf9ETcM=", "properties": {"@spider": "usps_collection_boxes", "addr:city": "HARRODSBURG", "addr:country": "US", "addr:full": "844 S COLLEGE ST", "addr:postcode": "40330", "addr:state": "KY", "brand": "USPS", "collection_times": "Mo-Sa 10:00", "name": "USPS COLLECTION BOX - BLUE BOX", "ref": "4033000009"}, "type": "Feature"}
{"geometry": {"coordinates": [-84.8435785, 37.75917], "type": "Point"}, "id": "WIjR1NdC0lrixhkuZXktyWttP_4=", "properties": {"@spider": "usps_collection_boxes", "addr:city": "HARRODSBURG", "addr:country": "US", "addr:full": "331 S MAIN ST", "addr:postcode": "40330", "addr:state": "KY", "brand": "USPS", "collection_times": "Mo-Sa 11:00", "name": "USPS COLLECTION BOX - BLUE BOX", "ref": "4033000011"}, "type": "Feature"}
{"geometry": {"coordinates": [-84.843539, 37.76125], "type": "Point"}, "id": "8OEp9dhhoSPutV51YDFBoqGqb7w=", "properties": {"@spider": "usps_collection_boxes", "addr:city": "HARRODSBURG", "addr:country": "US", "addr:full": "200 S MAIN ST", "addr:postcode": "40330", "addr:state": "KY", "brand": "USPS", "collection_times": "Mo-Sa 14:00", "name": "USPS COLLECTION BOX - BLUE BOX", "note": "ON 12/24 AND 12/31, THIS BOX MAY BE COLLECTED AS EARLY AS 12 NOON.", "ref": "4033000012"}, "type": "Feature"}
{"geometry": {"coordinates": [-84.84325963, 37.762594009], "type": "Point"}, "id": "NlXKYvWEGd1CqLfPPSS6IaTzfi4=", "properties": {"@spider": "usps_collection_boxes", "addr:city": "HARRODSBURG", "addr:country": "US", "addr:full": "105 N MAIN ST", "addr:postcode": "40330", "addr:state": "KY", "brand": "USPS", "collection_times": "Mo-Fr 16:30; Sa 16:00", "name": "USPS COLLECTION BOX - PO LOBBY", "note": "ON 12/24 AND 12/31, THIS BOX MAY BE COLLECTED AS EARLY AS 12 NOON.", "ref": "4033000018"}, "type": "Feature"}
{"geometry": {"coordinates": [-84.84325963, 37.762594009], "type": "Point"}, "id": "igj7zR-CFuYaeJreu6QAUx6V9n0=", "properties": {"@spider": "usps_collection_boxes", "addr:city": "HARRODSBURG", "addr:country": "US", "addr:full": "105 N MAIN ST", "addr:postcode": "40330", "addr:state": "KY", "brand": "USPS", "collection_times": "Mo-Fr 16:45; Sa 16:00", "name": "USPS COLLECTION BOX - BLUE BOX", "note": "ON 12/24 AND 12/31, THIS BOX MAY BE COLLECTED AS EARLY AS 12 NOON.", "ref": "4033000019"}, "type": "Feature"}
{"geometry": {"coordinates": [-84.84325963, 37.762594009], "type": "Point"}, "id": "N1tcA7JnrX9Fv6ZBsAHl197BEAE=", "properties": {"@spider": "usps_collection_boxes", "addr:city": "HARRODSBURG", "addr:country": "US", "addr:full": "105 N MAIN ST", "addr:postcode": "40330", "addr:state": "KY", "brand": "USPS", "collection_times": "Mo-Fr 16:45; Sa 16:00", "name": "USPS COLLECTION BOX - BLUE BOX", "note": "ON 12/24 AND 12/31, THIS BOX MAY BE COLLECTED AS EARLY AS 12 NOON.", "ref": "4033000020"}, "type": "Feature"}
{"geometry": {"coordinates": [-84.8561139, 37.751849], "type": "Point"}, "id": "VRWqspLFnfRgO7iMvHzWSdwFnuU=", "properties": {"@spider": "usps_collection_boxes", "addr:city": "HARRODSBURG", "addr:country": "US", "addr:full": "735 PERRYVILLE RD", "addr:postcode": "40330", "addr:state": "KY", "brand": "USPS", "collection_times": "Mo-Sa 09:00", "name": "USPS COLLECTION BOX - BLUE BOX", "ref": "4033000022"}, "type": "Feature"}
{"geometry": {"coordinates": [-84.84325963, 37.762594009], "type": "Point"}, "id": "-OaFV9PdLiBt2hdeN3CVoESjIyg=", "properties": {"@spider": "usps_collection_boxes", "addr:city": "HARRODSBURG", "addr:country": "US", "addr:full": "105 N MAIN ST", "addr:postcode": "40330", "addr:state": "KY", "brand": "USPS", "collection_times": "Mo-Fr 16:30; Sa 12:00", "name": "USPS COLLECTION BOX - PO LOBBY", "note": "ON 12/24 AND 12/31, THIS BOX MAY BE COLLECTED AS EARLY AS 12 NOON.", "ref": "4033000028"}, "type": "Feature"}
{"geometry": {"coordinates": [-84.8967261, 38.035989], "type": "Point"}, "id": "MhwcP98b9Na0d0WanMClGhx9K8o=", "properties": {"@spider": "usps_collection_boxes", "addr:city": "LAWRENCEBURG", "addr:country": "US", "addr:full": "107 W JACKSON ST", "addr:postcode": "40342", "addr:state": "KY", "brand": "USPS", "collection_times": "Mo-Fr 14:30; Sa 12:00", "name": "USPS COLLECTION BOX - BLUE BOX", "note": "ON 12/24 AND 12/31, THIS BOX MAY BE COLLECTED AS EARLY AS 12 NOON.", "ref": "4034200002"}, "type": "Feature"}
{"geometry": {"coordinates": [-84.8957065, 38.03562], "type": "Point"}, "id": "6S4t3JdVecjp7-22v6D88z4sqVY=", "properties": {"@spider": "usps_collection_boxes", "addr:city": "LAWRENCEBURG", "addr:country": "US", "addr:full": "151 S MAIN ST", "addr:postcode": "40342", "addr:state": "KY", "brand": "USPS", "collection_times": "Mo-Fr 14:30; Sa 12:00", "name": "USPS COLLECTION BOX - BLUE BOX", "note": "ON 12/24 AND 12/31, THIS BOX MAY BE COLLECTED AS EARLY AS 12 NOON.", "ref": "4034200003"}, "type": "Feature"}
{"geometry": {"coordinates": [-84.911566522, 38.019325731], "type": "Point"}, "id": "l8UtPMHE9yswIPyCuFhyUGO6Ikg=", "properties": {"@spider": "usps_collection_boxes", "addr:city": "LAWRENCEBURG", "addr:country": "US", "addr:full": "1269 FOX CREEK RD", "addr:postcode": "40342", "addr:state": "KY", "brand": "USPS", "collection_times": "Mo-Fr 17:00; Sa 15:30", "name": "USPS COLLECTION BOX - BLUE BOX", "note": "ON 12/24 AND 12/31, THIS BOX MAY BE COLLECTED AS EARLY AS 12 NOON.", "ref": "4034200009"}, "type": "Feature"}
{"geometry": {"coordinates": [-84.911566522, 38.019325731], "type": "Point"}, "id": "-Wy_sF0CHlGu--nwEgCUW_pNfUQ=", "properties": {"@spider": "usps_collection_boxes", "addr:city": "LAWRENCEBURG", "addr:country": "US", "addr:full": "1269 FOX CREEK RD", "addr:postcode": "40342", "addr:state": "KY", "brand": "USPS", "collection_times": "Mo-Fr 17:00; Sa 15:30", "name": "USPS COLLECTION BOX - PO LOBBY", "note": "ON 12/24 AND 12/31, THIS BOX MAY BE COLLECTED AS EARLY AS 12 NOON.", "ref": "4034200010"}, "type": "Feature"}
{"geometry": {"coordinates": [-84.9006136, 38.035593], "type": "Point"}, "id": "Z33Wo6jVvSQZ0Nm73WAb_6p0EEs=", "properties": {"@spider": "usps_collection_boxes", "addr:city": "LAWRENCEBURG", "addr:country": "US", "addr:full": "201 W WOODFORD ST", "addr:postcode": "40342", "addr:state": "KY", "brand": "USPS", "collection_times": "Mo-Fr 14:30; Sa 12:00", "name": "USPS COLLECTION BOX - BLUE BOX", "note": "ON 12/24 AND 12/31, THIS BOX MAY BE COLLECTED AS EARLY AS 12 NOON.", "ref": "4034200014"}, "type": "Feature"}
{"geometry": {"coordinates": [-84.911566522, 38.019325731], "type": "Point"}, "id": "lt6w73IQQt7DI1mMoHXG8DbXBeQ=", "properties": {"@spider": "usps_collection_boxes", "addr:city": "LAWRENCEBURG", "addr:country": "US", "addr:full": "1269 FOX CREEK RD", "addr:postcode": "40342", "addr:state": "KY", "brand": "USPS", "collection_times": "Mo-Fr 16:30; Sa 12:00", "name": "USPS COLLECTION BOX - PO LOBBY", "note": "ON 12/24 AND 12/31, THIS BOX MAY BE COLLECTED AS EARLY AS 12 NOON.", "ref": "4034200016"}, "type": "Feature"}
