{"geometry": {"coordinates": [-83.94822922, 37.32633658], "type": "Point"}, "id": "A6z4aW65vKP49J0CzPaS-CbOCfI=", "properties": {"@spider": "usps_collection_boxes", "addr:city": "ANNVILLE", "addr:country": "US", "addr:full": "3560 HIGHWAY 3630", "addr:postcode": "40402", "addr:state": "KY", "brand": "USPS", "collection_times": "Mo-Fr 16:00; Sa 12:00", "name": "USPS COLLECTION BOX - BLUE BOX", "note": "ON 12/24 AND 12/31, THIS BOX MAY BE COLLECTED AS EARLY AS 12 NOON.", "ref": "4040200000"}, "type": "Feature"}
{"geometry": {"coordinates": [-83.988865315, 37.290233322], "type": "Point"}, "id": "NC2Jfu8GfEoEJBFgVJHN3zKC8Ik=", "properties": {"@spider": "usps_collection_boxes", "addr:city": "ANNVILLE", "addr:country": "US", "addr:full": "3560 HIGHWAY 30 W", "addr:postcode": "40402", "addr:state": "KY", "brand": "USPS", "collection_times": "Mo-Fr 16:00; Sa 12:00", "name": "USPS COLLECTION BOX - PO LOBBY", "note": "ON 12/24 AND 12/31, THIS BOX MAY BE COLLECTED AS EARLY AS 12 NOON.", "ref": "4040200001"}, "type": "Feature"}
{"geometry": {"coordinates": [-83.94822922, 37.32633658], "type": "Point"}, "id": "fioMA8PpzhUkMQ-bsQLxJ3eA_1k=", "properties": {"@spider": "usps_collection_boxes", "addr:city": "ANNVILLE", "addr:country": "US", "addr:full": "3560 HIGHWAY 3630", "addr:postcode": "40402", "addr:state": "KY", "brand": "USPS", "collection_times": "Mo-Fr 16:00; Sa 12:00", "name": "USPS COLLECTION BOX - PO LOBBY", "note": "ON 12/24 AND 12/31, THIS BOX MAY BE COLLECTED AS EARLY AS 12 NOON.", "ref": "4040200003"}, "type": "Feature"}
{"geometry": {"coordinates": [-84.306549981, 37.567869992], "type": "Point"}, "id": "kOSBzWTutjT4zJJNC1mzTo-7JJ0=", "properties": {"@spider": "usps_collection_boxes", "addr:city": "BEREA", "addr:country": "US", "addr:full": "707 CHESTNUT ST", "addr:postcode": "40403", "addr:state": "KY", "brand": "USPS", "collection_times": "Mo-Fr 10:00; Sa 09:30", "name": "USPS COLLECTION BOX - BLUE BOX", "ref": "4040300006"}, "type": "Feature"}
{"geometry": {"coordinates": [-84.318269977, 37.569370017], "type": "Point"}, "id": "T5lV1P7Pf7kGFAu-Ult8gIcl3fQ=", "properties": {"@spider": "usps_collection_boxes", "addr:city": "BEREA", "addr:country": "US", "addr:full": "274 PAINT LICK RD", "addr:postcode": "40403", "addr:state": "KY", "brand": "USPS", "collection_times": "Mo-Sa 08:30", "name": "USPS COLLECTION BOX - BLUE BOX", "ref": "4040300008"}, "type": "Feature"}
{"geometry": {"coordinates": [-84.317179995, 37.605259985], "type": "Point"}, "id": "QM0S8YmGfV9d-Dw4ASeanixVQAk=", "properties": {"@spider": "usps_collection_boxes", "addr:city": "BEREA", "addr:country": "US", "addr:full": "104 LEGACY DR", "addr:postcode": "40403", "addr:state": "KY", "brand": "USPS", "collection_times": "Mo-Fr 10:00; Sa 09:30", "name": "USPS COLLECTION BOX - BLUE BOX", "ref": "4040300014"}, "type": "Feature"}
{"geometry": {"coordinates": [-84.288613908, 37.586282226], "type": "Point"}, "id": "jOuVwuyndpJcoWwYRGlhLcHmpiU=", "properties": {"@spider": "usps_collection_boxes", "addr:city": "BEREA", "addr:country": "US", "addr:full": "222 GLADES RD", "addr:postcode": "40403", "addr:state": "KY", "brand": "USPS", "collection_times": "Mo-Fr 17:10; Sa 15:45", "name": "USPS COLLECTION BOX - BLUE BOX", "note": "ON 12/24 AND 12/31, THIS BOX MAY BE COLLECTED AS EARLY AS 12 NOON.", "ref": "4040300022"}, "type": "Feature"}
{"geometry": {"coordinates": [-84.288613908, 37.586282226], "type": "Point"}, "id": "pTb6Ts2r_mr-J-hMR_hPVKyLStU=", "properties": {"@spider": "usps_collection_boxes", "addr:city": "BEREA", "addr:country": "US", "addr:full": "222 GLADES RD", "addr:postcode": "40403", "addr:state": "KY", "brand": "USPS", "collection_times": "Mo-Fr 17:10; Sa 15:45", "name": "USPS COLLECTION BOX - BLUE BOX", "note": "ON 12/24 AND 12/31, THIS BOX MAY BE COLLECTED AS EARLY AS 12 NOON.", "ref": "4040300023"}, "type": "Feature"}
{"geometry": {"coordinates": [-84.288613908, 37.586282226], "type": "Point"}, "id": "VxJlz7IB9InU9eJYEJImhFjjf8g=", "properties": {"@spider": "usps_collection_boxes", "addr:city": "BEREA", "addr:country": "US", "addr:full": "222 GLADES RD", "addr:postcode": "40403", "addr:state": "KY", "brand": "USPS", "collection_times": "Mo-Fr 17:10; Sa 15:45", "name": "USPS COLLECTION BOX - PO LOBBY", "note": "ON 12/24 AND 12/31, THIS BOX MAY BE COLLECTED AS EARLY AS 12 NOON.", "ref": "4040300025"}, "type": "Feature"}
{"geometry": {"coordinates": [-84.321369714, 37.588355321], "type": "Point"}, "id": "xURmc5gEOREcbKD_h82VHRwKbSw=", "properties": {"@spider": "usps_collection_boxes", "addr:city": "BEREA", "addr:country": "US", "addr:full": "100 OAK MEADOW DR", "addr:postcode": "40403", "addr:state": "KY", "brand": "USPS", "collection_times": "Mo-Fr 12:00; Sa 11:30", "name": "USPS COLLECTION BOX - BLUE BOX", "ref": "4040300026"}, "type": "Feature"}
{"geometry": {"coordinates": [-84.32321002, 37.596379988], "type": "Point"}, "id": "8f3vMbq9cLMM_FyooKAtf3Y26MM=", "properties": {"@spider": "usps_collection_boxes", "addr:city": "BEREA", "addr:country": "US", "addr:full": "201 PAULINE DR", "addr:postcode": "40403", "addr:state": "KY", "brand": "USPS", "collection_times": "Mo-Sa 12:00", "name": "USPS COLLECTION BOX - BLUE BOX", "ref": "4040300029"}, "type": "Feature"}
{"geometry": {"coordinates": [-84.288613908, 37.586282226], "type": "Point"}, "id": "qoGEaWX-bN5eFBTbXzLmjsLMKQ0=", "properties": {"@spider": "usps_collection_boxes", "addr:city": "BEREA", "addr:country": "US", "addr:full": "222 GLADES RD", "addr:postcode": "40403", "addr:state": "KY", "brand": "USPS", "collection_times": "Mo-Fr 16:30; Sa 12:00", "name": "USPS COLLECTION BOX - PO LOBBY", "note": "ON 12/24 AND 12/31, THIS BOX MAY BE COLLECTED AS EARLY AS 12 NOON.", "ref": "4040300032"}, "type": "Feature"}
{"geometry": {"coordinates": [-84.208820008, 37.556329997], "type": "Point"}, "id": "g_Y1Xwad5ZI13BNrUtO2jafSr2U=", "properties": {"@spider": "usps_collection_boxes", "addr:city": "BIG HILL", "addr:country": "US", "addr:full": "10050 BATTLEFIELD MEMORIAL HWY", "addr:postcode": "40405", "addr:state": "KY", "brand": "USPS", "collection_times": "Mo-Fr 16:00; Sa 11:30", "name": "USPS COLLECTION BOX - BLUE BOX", "note": "ON 12/24 AND 12/31, THIS BOX MAY BE COLLECTED AS EARLY AS 12 NOON.", "ref": "4040500000"}, "type": "Feature"}
{"geometry": {"coordinates": [-84.208820008, 37.556329997], "type": "Point"}, "id": "A8n28ug5_vWTKxYEWuAxYinuGcE=", "properties": {"@spider": "usps_collection_boxes", "addr:city": "BIG HILL", "addr:country": "US", "addr:full": "10050 BATTLEFIELD MEMORIAL HWY", "addr:postcode": "40405", "addr:state": "KY", "brand": "USPS", "collection_times": "Mo-Fr 16:00; Sa 11:30", "name": "USPS COLLECTION BOX - PO LOBBY", "note": "ON 12/24 AND 12/31, THIS BOX MAY BE COLLECTED AS EARLY AS 12 NOON.", "ref": "4040500001"}, "type": "Feature"}
{"geometry": {"coordinates": [-84.208820008, 37.556329997], "type": "Point"}, "id": "ilLu8LqEC8EsqptgH8njJtIY1OA=", "properties": {"@spider": "usps_collection_boxes", "addr:city": "BIG HILL", "addr:country": "US", "addr:full": "10050 BATTLEFIELD MEMORIAL HWY", "addr:postcode": "40405", "addr:state": "KY", "brand": "USPS", "collection_times": "Mo-Fr 16:00; Sa 11:30", "name": "USPS COLLECTION BOX - PO LOBBY", "note": "ON 12/24 AND 12/31, THIS BOX MAY BE COLLECTED AS EARLY AS 12 NOON.", "ref": "4040500003"}, "type": "Feature"}
{"geometry": {"coordinates": [-84.417494034, 37.403985817], "type": "Point"}, "id": "HDUwqyom_7qp7Lc8RqHHaYXsk_M=", "properties": {"@spider": "usps_collection_boxes", "addr:city": "BRODHEAD", "addr:country": "US", "addr:full": "170 W MAIN ST", "addr:postcode": "40409", "addr:state": "KY", "brand": "USPS", "collection_times": "Mo-Fr 15:45; Sa 12:15", "name": "USPS COLLECTION BOX - BLUE BOX", "note": "ON 12/24 AND 12/31, THIS BOX MAY BE COLLECTED AS EARLY AS 12 NOON.", "ref": "4040900000"}, "type": "Feature"}
{"geometry": {"coordinates": [-84.417494034, 37.403985817], "type": "Point"}, "id": "MHY9vnQZSTVbBrArhaT66rA_BHk=", "properties": {"@spider": "usps_collection_boxes", "addr:city": "BRODHEAD", "addr:country": "US", "addr:full": "170 W MAIN ST", "addr:postcode": "40409", "addr:state": "KY", "brand": "USPS", "collection_times": "Mo-Fr 15:45; Sa 12:15", "name": "USPS COLLECTION BOX - PO LOBBY", "note": "ON 12/24 AND 12/31, THIS BOX MAY BE COLLECTED AS EARLY AS 12 NOON.", "ref": "4040900001"}, "type": "Feature"}
{"geometry": {"coordinates": [-84.417494034, 37.403985817], "type": "Point"}, "id": "j62OzPw7lWjiSVamhEBMXboIMhk=", "properties": {"@spider": "usps_collection_boxes", "addr:city": "BRODHEAD", "addr:country": "US", "addr:full": "170 W MAIN ST", "addr:postcode": "40409", "addr:state": "KY", "brand": "USPS", "collection_times": "Mo-Fr 15:30; Sa 12:00", "name": "USPS COLLECTION BOX - PO LOBBY", "note": "ON 12/24 AND 12/31, THIS BOX MAY BE COLLECTED AS EARLY AS 12 NOON.", "ref": "4040900004"}, "type": "Feature"}
{"geometry": {"coordinates": [-84.64739999, 37.71482001], "type": "Point"}, "id": "y0v7cWysoC3oSJNZ0msE5f-b8Ag=", "properties": {"@spider": "usps_collection_boxes", "addr:city": "BRYANTSVILLE", "addr:country": "US", "addr:full": "302 BRYANTSVILLE RD", "addr:postcode": "40410", "addr:state": "KY", "brand": "USPS", "collection_times": "Mo-Fr 16:30; Sa 11:00", "name": "USPS COLLECTION BOX - PO LOBBY", "note": "ON 12/24 AND 12/31, THIS BOX MAY BE COLLECTED AS EARLY AS 12 NOON.", "ref": "4041000000"}, "type": "Feature"}
{"geometry": {"coordinates": [-84.64739999, 37.71482001], "type": "Point"}, "id": "9KF2HM-tjUUbFQWiYrGu9lnHnzQ=", "properties": {"@spider": "usps_collection_boxes", "addr:city": "BRYANTSVILLE", "addr:country": "US", "addr:full": "302 BRYANTSVILLE RD", "addr:postcode": "40410", "addr:state": "KY", "brand": "USPS", "collection_times": "Mo-Fr 16:30; Sa 11:00", "name": "USPS COLLECTION BOX - BLUE BOX", "note": "ON 12/24 AND 12/31, THIS BOX MAY BE COLLECTED AS EARLY AS 12 NOON.", "ref": "4041000001"}, "type": "Feature"}
{"geometry": {"coordinates": [-84.64739999, 37.71482001], "type": "Point"}, "id": "WAk2xUvTQbFhTmZR4ibf_3PTW9c=", "properties": {"@spider": "usps_collection_boxes", "addr:city": "BRYANTSVILLE", "addr:country": "US", "addr:full": "302 BRYANTSVILLE RD", "addr:postcode": "40410", "addr:state": "KY", "brand": "USPS", "collection_times": "Mo-Fr 16:30; Sa 11:30", "name": "USPS COLLECTION BOX - PO LOBBY", "note": "ON 12/24 AND 12/31, THIS BOX MAY BE COLLECTED AS EARLY AS 12 NOON.", "ref": "4041000003"}, "type": "Feature"}
{"geometry": {"coordinates": [-84.505981259, 37.462053145], "type": "Point"}, "id": "WCojRvMcxDVNde6oJk2AhKoHnXk=", "properties": {"@spider": "usps_collection_boxes", "addr:city": "CRAB ORCHARD", "addr:country": "US", "addr:full": "209 MAIN ST", "addr:postcode": "40419", "addr:state": "KY", "brand": "USPS", "collection_times": "Mo-Fr 15:45; Sa 12:30", "name": "USPS COLLECTION BOX - BLUE BOX", "note": "ON 12/24 AND 12/31, THIS BOX MAY BE COLLECTED AS EARLY AS 12 NOON.", "ref": "4041900001"}, "type": "Feature"}
{"geometry": {"coordinates": [-84.505981259, 37.462053145], "type": "Point"}, "id": "wUt97j7Zfl-lJt-AMopeRBbkTU0=", "properties": {"@spider": "usps_collection_boxes", "addr:city": "CRAB ORCHARD", "addr:country": "US", "addr:full": "209 MAIN ST", "addr:postcode": "40419", "addr:state": "KY", "brand": "USPS", "collection_times": "Mo-Fr 15:45; Sa 12:30", "name": "USPS COLLECTION BOX - PO LOBBY", "note": "ON 12/24 AND 12/31, THIS BOX MAY BE COLLECTED AS EARLY AS 12 NOON.", "ref": "4041900002"}, "type": "Feature"}
{"geometry": {"coordinates": [-84.505981259, 37.462053145], "type": "Point"}, "id": "loyazxQp4KKBusLZY2pwWDmpHbg=", "properties": {"@spider": "usps_collection_boxes", "addr:city": "CRAB ORCHARD", "addr:country": "US", "addr:full": "209 MAIN ST", "addr:postcode": "40419", "addr:state": "KY", "brand": "USPS", "collection_times": "Mo-Fr 15:45; Sa 12:30", "name": "USPS COLLECTION BOX - PO LOBBY", "note": "ON 12/24 AND 12/31, THIS BOX MAY BE COLLECTED AS EARLY AS 12 NOON.", "ref": "4041900006"}, "type": "Feature"}
{"geometry": {"coordinates": [-84.772520012, 37.646050014], "type": "Point"}, "id": "crrF5k73JtQZ5zQOWI9IOuWvRu0=", "properties": {"@spider": "usps_collection_boxes", "addr:city": "DANVILLE", "addr:country": "US", "addr:full": "301 W MAIN ST", "addr:postcode": "40422", "addr:state": "KY", "brand": "USPS", "collection_times": "Mo-Fr 14:30; Sa 13:30", "name": "USPS COLLECTION BOX - BLUE BOX", "note": "ON 12/24 AND 12/31, THIS BOX MAY BE COLLECTED AS EARLY AS 12 NOON.", "ref": "4042200007"}, "type": "Feature"}
{"geometry": {"coordinates": [-84.770989979, 37.64615001], "type": "Point"}, "id": "tLFiI3fYVJNtLcuheSZFLJJSWFw=", "properties": {"@spider": "usps_collection_boxes", "addr:city": "DANVILLE", "addr:country": "US", "addr:full": "201 W MAIN ST", "addr:postcode": "40422", "addr:state": "KY", "brand": "USPS", "collection_times": "Mo-Fr 14:30; Sa 13:30", "name": "USPS COLLECTION BOX - BLUE BOX", "note": "ON 12/24 AND 12/31, THIS BOX MAY BE COLLECTED AS EARLY AS 12 NOON.", "ref": "4042200010"}, "type": "Feature"}
{"geometry": {"coordinates": [-84.784570003, 37.617849981], "type": "Point"}, "id": "OnIH4LC4i_y20Zlg4AWda0b3LFk=", "properties": {"@spider": "usps_collection_boxes", "addr:city": "DANVILLE", "addr:country": "US", "addr:full": "204 SKYWATCH DR", "addr:postcode": "40422", "addr:state": "KY", "brand": "USPS", "collection_times": "Mo-Sa 09:00", "name": "USPS COLLECTION BOX - BLUE BOX", "ref": "4042200016"}, "type": "Feature"}
{"geometry": {"coordinates": [-84.774759991, 37.644519982], "type": "Point"}, "id": "S__Vc-UNZmDsQ-_Sfqiz9c26PqA=", "properties": {"@spider": "usps_collection_boxes", "addr:city": "DANVILLE", "addr:country": "US", "addr:full": "410 W WALNUT ST", "addr:postcode": "40422", "addr:state": "KY", "brand": "USPS", "collection_times": "Mo-Fr 14:30; Sa 13:30", "name": "USPS COLLECTION BOX - BLUE BOX", "note": "ON 12/24 AND 12/31, THIS BOX MAY BE COLLECTED AS EARLY AS 12 NOON.", "ref": "4042200023"}, "type": "Feature"}
{"geometry": {"coordinates": [-84.773430035, 37.646460015], "type": "Point"}, "id": "R2I9I6omzG-v8nQQ2j1u3BCpGyU=", "properties": {"@spider": "usps_collection_boxes", "addr:city": "DANVILLE", "addr:country": "US", "addr:full": "321 W MAIN ST", "addr:postcode": "40422", "addr:state": "KY", "brand": "USPS", "collection_times": "Mo-Fr 14:30; Sa 13:30", "name": "USPS COLLECTION BOX - BLUE BOX", "note": "ON 12/24 AND 12/31, THIS BOX MAY BE COLLECTED AS EARLY AS 12 NOON.", "ref": "4042200032"}, "type": "Feature"}
{"geometry": {"coordinates": [-84.770194832, 37.616676364], "type": "Point"}, "id": "sJXchC--t84EbC5BZIkqbKDWttk=", "properties": {"@spider": "usps_collection_boxes", "addr:city": "DANVILLE", "addr:country": "US", "addr:full": "270 JANE TRL", "addr:postcode": "40422", "addr:state": "KY", "brand": "USPS", "collection_times": "Mo-Sa 09:00", "name": "USPS COLLECTION BOX - BLUE BOX", "ref": "4042200033"}, "type": "Feature"}
{"geometry": {"coordinates": [-84.775719971, 37.644080016], "type": "Point"}, "id": "8x7nIvYkC7gFxJGB5gLNukH-554=", "properties": {"@spider": "usps_collection_boxes", "addr:city": "DANVILLE", "addr:country": "US", "addr:full": "459 W MARTIN LUTHER KING BLVD", "addr:postcode": "40422", "addr:state": "KY", "brand": "USPS", "collection_times": "Mo-Fr 14:30; Sa 13:30", "name": "USPS COLLECTION BOX - BLUE BOX", "note": "ON 12/24 AND 12/31, THIS BOX MAY BE COLLECTED AS EARLY AS 12 NOON.", "ref": "4042200034"}, "type": "Feature"}
{"geometry": {"coordinates": [-84.799279992, 37.656019995], "type": "Point"}, "id": "2IVTxbqOV9ZwATjg9_5Wrlq6dNA=", "properties": {"@spider": "usps_collection_boxes", "addr:city": "DANVILLE", "addr:country": "US", "addr:full": "101 MAN O WAR DR", "addr:postcode": "40422", "addr:state": "KY", "brand": "USPS", "collection_times": "Mo-Sa 10:00", "name": "USPS COLLECTION BOX - BLUE BOX", "ref": "4042200036"}, "type": "Feature"}
{"geometry": {"coordinates": [-84.79456552, 37.586526078], "type": "Point"}, "id": "RZ-pCq-3MsdpD0wxUBXbWYdKCFA=", "properties": {"@spider": "usps_collection_boxes", "addr:city": "JUNCTION CITY", "addr:country": "US", "addr:full": "810 W SHELBY ST", "addr:postcode": "40440", "addr:state": "KY", "brand": "USPS", "collection_times": "Mo-Fr 16:00; Sa 10:00", "name": "USPS COLLECTION BOX - PO LOBBY", "note": "ON 12/24 AND 12/31, THIS BOX MAY BE COLLECTED AS EARLY AS 12 NOON.", "ref": "4044000001"}, "type": "Feature"}
{"geometry": {"coordinates": [-84.785601, 37.582192], "type": "Point"}, "id": "H61A-cBdkOLpP2V_HaMqxVoyW48=", "properties": {"@spider": "usps_collection_boxes", "addr:city": "JUNCTION CITY", "addr:country": "US", "addr:full": "100 E SHELBY ST", "addr:postcode": "40440", "addr:state": "KY", "brand": "USPS", "collection_times": "Mo-Sa 12:00", "name": "USPS COLLECTION BOX - BLUE BOX", "ref": "4044000002"}, "type": "Feature"}
{"geometry": {"coordinates": [-84.79456552, 37.586526078], "type": "Point"}, "id": "BXm938PILmmldTrJpSwzrgKPo9U=", "properties": {"@spider": "usps_collection_boxes", "addr:city": "JUNCTION CITY", "addr:country": "US", "addr:full": "810 W SHELBY ST", "addr:postcode": "40440", "addr:state": "KY", "brand": "USPS", "collection_times": "Mo-Fr 16:00; Sa 10:00", "name": "USPS COLLECTION BOX - PO LOBBY", "note": "ON 12/24 AND 12/31, THIS BOX MAY BE COLLECTED AS EARLY AS 12 NOON.", "ref": "4044000004"}, "type": "Feature"}
{"geometry": {"coordinates": [-84.7945655199, 37.5865260777], "type": "Point"}, "id": "NMXuFBoCXN0ecQVgP0P_K6f6WUc=", "properties": {"@spider": "usps_collection_boxes", "addr:city": "JUNCTION CITY", "addr:country": "US", "addr:full": "810 W SHELBY ST", "addr:postcode": "40440", "addr:state": "KY", "brand": "USPS", "collection_times": "Mo-Fr 16:00; Sa 10:00", "name": "USPS COLLECTION BOX - BLUE BOX", "note": "ON 12/24 AND 12/31, THIS BOX MAY BE COLLECTED AS EARLY AS 12 NOON.", "ref": "4044000005"}, "type": "Feature"}
{"geometry": {"coordinates": [-84.218709678, 37.294680273], "type": "Point"}, "id": "44p1fnPPDSM8XeCGBNVG2ftggNU=", "properties": {"@spider": "usps_collection_boxes", "addr:city": "LIVINGSTON", "addr:country": "US", "addr:full": "9121 MAIN ST", "addr:postcode": "40445", "addr:state": "KY", "brand": "USPS", "collection_times": "Mo-Sa 11:30", "name": "USPS COLLECTION BOX - BLUE BOX", "ref": "4044500000"}, "type": "Feature"}
{"geometry": {"coordinates": [-84.218709678, 37.294680273], "type": "Point"}, "id": "FDn-S-o0N5eBuM8JkcdbxGyIJdY=", "properties": {"@spider": "usps_collection_boxes", "addr:city": "LIVINGSTON", "addr:country": "US", "addr:full": "9121 MAIN ST", "addr:postcode": "40445", "addr:state": "KY", "brand": "USPS", "collection_times": "Mo-Sa 11:30", "name": "USPS COLLECTION BOX - PO LOBBY", "ref": "4044500001"}, "type": "Feature"}
{"geometry": {"coordinates": [-84.218709678, 37.294680273], "type": "Point"}, "id": "uOUMK765q5oDoMIpCUxKBB5q4OA=", "properties": {"@spider": "usps_collection_boxes", "addr:city": "LIVINGSTON", "addr:country": "US", "addr:full": "9121 MAIN ST", "addr:postcode": "40445", "addr:state": "KY", "brand": "USPS", "collection_times": "Mo-Sa 11:30", "name": "USPS COLLECTION BOX - PO LOBBY", "ref": "4044500003"}, "type": "Feature"}
{"geometry": {"coordinates": [-84.338894282, 37.35798497], "type": "Point"}, "id": "6HBTfUQVeXluOeEF8n85abVeMGM=", "properties": {"@spider": "usps_collection_boxes", "addr:city": "MOUNT VERNON", "addr:country": "US", "addr:full": "380 RICHMOND ST", "addr:postcode": "40456", "addr:state": "KY", "brand": "USPS", "collection_times": "Mo-Fr 15:45; Sa 12:00", "name": "USPS COLLECTION BOX - BLUE BOX", "note": "ON 12/24 AND 12/31, THIS BOX MAY BE COLLECTED AS EARLY AS 12 NOON.", "ref": "4045600000"}, "type": "Feature"}
{"geometry": {"coordinates": [-84.3382515, 37.352969], "type": "Point"}, "id": "u1wC97f7BtVHYl4vjV_zRqN317U=", "properties": {"@spider": "usps_collection_boxes", "addr:city": "MOUNT VERNON", "addr:country": "US", "addr:full": "205 E MAIN ST", "addr:postcode": "40456", "addr:state": "KY", "brand": "USPS", "collection_times": "Mo-Fr 13:30; Sa 12:00", "name": "USPS COLLECTION BOX - BLUE BOX", "note": "ON 12/24 AND 12/31, THIS BOX MAY BE COLLECTED AS EARLY AS 12 NOON.", "ref": "4045600002"}, "type": "Feature"}
{"geometry": {"coordinates": [-84.338894282, 37.35798497], "type": "Point"}, "id": "au3e8ZlPjbjBIlNTYxY6410ZSfg=", "properties": {"@spider": "usps_collection_boxes", "addr:city": "MOUNT VERNON", "addr:country": "US", "addr:full": "380 RICHMOND ST", "addr:postcode": "40456", "addr:state": "KY", "brand": "USPS", "collection_times": "Mo-Fr 16:00; Sa 12:00", "name": "USPS COLLECTION BOX - PO LOBBY", "note": "ON 12/24 AND 12/31, THIS BOX MAY BE COLLECTED AS EARLY AS 12 NOON.", "ref": "4045600003"}, "type": "Feature"}
{"geometry": {"coordinates": [-84.3362415, 37.366966], "type": "Point"}, "id": "o78f1dy6kYTVfcCe72tswcMH5jY=", "properties": {"@spider": "usps_collection_boxes", "addr:city": "MOUNT VERNON", "addr:country": "US", "addr:full": "1040 RICHMOND ST", "addr:postcode": "40456", "addr:state": "KY", "brand": "USPS", "collection_times": "Mo-Sa 08:00", "name": "USPS COLLECTION BOX - BLUE BOX", "ref": "4045600005"}, "type": "Feature"}
{"geometry": {"coordinates": [-84.338894282, 37.35798497], "type": "Point"}, "id": "gJF9wip8yjBVqe5Mfre7-nDiY9c=", "properties": {"@spider": "usps_collection_boxes", "addr:city": "MOUNT VERNON", "addr:country": "US", "addr:full": "380 RICHMOND ST", "addr:postcode": "40456", "addr:state": "KY", "brand": "USPS", "collection_times": "Mo-Fr 16:00; Sa 12:00", "name": "USPS COLLECTION BOX - PO LOBBY", "note": "ON 12/24 AND 12/31, THIS BOX MAY BE COLLECTED AS EARLY AS 12 NOON.", "ref": "4045600006"}, "type": "Feature"}
{"geometry": {"coordinates": [-84.3148156476, 37.3445766068], "type": "Point"}, "id": "GySSlOzUyjL6Je4A6IwR0wDnmlE=", "properties": {"@spider": "usps_collection_boxes", "addr:city": "MOUNT VERNON", "addr:country": "US", "addr:full": "1681 S WILDERNESS RD", "addr:postcode": "40456", "addr:state": "KY", "brand": "USPS", "collection_times": "Mo-Sa 11:00", "name": "USPS COLLECTION BOX - BLUE BOX", "ref": "4045600009"}, "type": "Feature"}
{"geometry": {"coordinates": [-84.338894282, 37.35798497], "type": "Point"}, "id": "4Z70Qq_LG3wCMWrZlduu1aoVAJo=", "properties": {"@spider": "usps_collection_boxes", "addr:city": "MOUNT VERNON", "addr:country": "US", "addr:full": "380 RICHMOND ST", "addr:postcode": "40456", "addr:state": "KY", "brand": "USPS", "collection_times": "Mo-Fr 16:00; Sa 12:00", "name": "USPS COLLECTION BOX - PO LOBBY", "note": "ON 12/24 AND 12/31, THIS BOX MAY BE COLLECTED AS EARLY AS 12 NOON.", "ref": "4045600010"}, "type": "Feature"}
{"geometry": {"coordinates": [-84.407970004, 37.61743998], "type": "Point"}, "id": "Yu92pdJo2VSSPHnbQHSAVigRAk8=", "properties": {"@spider": "usps_collection_boxes", "addr:city": "PAINT LICK", "addr:country": "US", "addr:full": "11642 RICHMOND RD", "addr:postcode": "40461", "addr:state": "KY", "brand": "USPS", "collection_times": "Mo-Fr 11:00; Sa 10:00", "name": "USPS COLLECTION BOX - BLUE BOX", "ref": "4046100000"}, "type": "Feature"}
{"geometry": {"coordinates": [-84.407970004, 37.61743998], "type": "Point"}, "id": "HGLQKEenV43-OIgADCqfr12fRqE=", "properties": {"@spider": "usps_collection_boxes", "addr:city": "PAINT LICK", "addr:country": "US", "addr:full": "11642 RICHMOND RD", "addr:postcode": "40461", "addr:state": "KY", "brand": "USPS", "collection_times": "Mo-Fr 11:00; Sa 10:00", "name": "USPS COLLECTION BOX - PO LOBBY", "ref": "4046100001"}, "type": "Feature"}
{"geometry": {"coordinates": [-84.407970004, 37.61743998], "type": "Point"}, "id": "uikqi6vTIEy28Zkb2xPTWpXN8Cc=", "properties": {"@spider": "usps_collection_boxes", "addr:city": "PAINT LICK", "addr:country": "US", "addr:full": "11642 RICHMOND RD", "addr:postcode": "40461", "addr:state": "KY", "brand": "USPS", "collection_times": "Mo-Fr 11:00; Sa 10:00", "name": "USPS COLLECTION BOX - PO LOBBY", "ref": "4046100003"}, "type": "Feature"}
{"geometry": {"coordinates": [-84.894706409, 37.5974024], "type": "Point"}, "id": "BRv16FzRCKOZGgMF_HJAW517vxw=", "properties": {"@spider": "usps_collection_boxes", "addr:city": "PARKSVILLE", "addr:country": "US", "addr:full": "8355 LEBANON RD", "addr:postcode": "40464", "addr:state": "KY", "brand": "USPS", "collection_times": "Mo-Fr 13:00; Sa 12:00", "name": "USPS COLLECTION BOX - BLUE BOX", "note": "ON 12/24 AND 12/31, THIS BOX MAY BE COLLECTED AS EARLY AS 12 NOON.", "ref": "4046400000"}, "type": "Feature"}
{"geometry": {"coordinates": [-84.894706409, 37.5974024], "type": "Point"}, "id": "22hWLBY5mZlYtwVNyDliMVTfbko=", "properties": {"@spider": "usps_collection_boxes", "addr:city": "PARKSVILLE", "addr:country": "US", "addr:full": "8355 LEBANON RD", "addr:postcode": "40464", "addr:state": "KY", "brand": "USPS", "collection_times": "Mo-Fr 13:00; Sa 12:00", "name": "USPS COLLECTION BOX - PO LOBBY", "note": "ON 12/24 AND 12/31, THIS BOX MAY BE COLLECTED AS EARLY AS 12 NOON.", "ref": "4046400001"}, "type": "Feature"}
{"geometry": {"coordinates": [-84.894706409, 37.5974024], "type": "Point"}, "id": "jAAcsl7RHwN3xw_zNRkVIDLI01U=", "properties": {"@spider": "usps_collection_boxes", "addr:city": "PARKSVILLE", "addr:country": "US", "addr:full": "8355 LEBANON RD", "addr:postcode": "40464", "addr:state": "KY", "brand": "USPS", "collection_times": "Mo-Fr 13:00; Sa 12:00", "name": "USPS COLLECTION BOX - PO LOBBY", "note": "ON 12/24 AND 12/31, THIS BOX MAY BE COLLECTED AS EARLY AS 12 NOON.", "ref": "4046400004"}, "type": "Feature"}
{"geometry": {"coordinates": [-84.948407673, 37.649824271], "type": "Point"}, "id": "tjggQYgp-OjfM5RtudzOEVUc63I=", "properties": {"@spider": "usps_collection_boxes", "addr:city": "PERRYVILLE", "addr:country": "US", "addr:full": "207 POLK ST", "addr:postcode": "40468", "addr:state": "KY", "brand": "USPS", "collection_times": "Mo-Fr 15:15; Sa 10:30", "name": "USPS COLLECTION BOX - BLUE BOX", "note": "ON 12/24 AND 12/31, THIS BOX MAY BE COLLECTED AS EARLY AS 12 NOON.", "ref": "4046800000"}, "type": "Feature"}
{"geometry": {"coordinates": [-84.948407673, 37.649824271], "type": "Point"}, "id": "d30pt8_VwGLIRfKi7ui-48gmYu4=", "properties": {"@spider": "usps_collection_boxes", "addr:city": "PERRYVILLE", "addr:country": "US", "addr:full": "207 POLK ST", "addr:postcode": "40468", "addr:state": "KY", "brand": "USPS", "collection_times": "Mo-Fr 15:15; Sa 10:30", "name": "USPS COLLECTION BOX - PO LOBBY", "note": "ON 12/24 AND 12/31, THIS BOX MAY BE COLLECTED AS EARLY AS 12 NOON.", "ref": "4046800001"}, "type": "Feature"}
{"geometry": {"coordinates": [-84.948407673, 37.649824271], "type": "Point"}, "id": "BypAelQ6_ve3m9XM88LTnEnxHiQ=", "properties": {"@spider": "usps_collection_boxes", "addr:city": "PERRYVILLE", "addr:country": "US", "addr:full": "207 POLK ST", "addr:postcode": "40468", "addr:state": "KY", "brand": "USPS", "collection_times": "Mo-Fr 15:15; Sa 10:30", "name": "USPS COLLECTION BOX - PO LOBBY", "note": "ON 12/24 AND 12/31, THIS BOX MAY BE COLLECTED AS EARLY AS 12 NOON.", "ref": "4046800003"}, "type": "Feature"}
{"geometry": {"coordinates": [-84.302378514, 37.422429741], "type": "Point"}, "id": "a8aSfGYHc8JUuLXeuRRXpNHa5yE=", "properties": {"@spider": "usps_collection_boxes", "addr:city": "WILDIE", "addr:country": "US", "addr:full": "1419 WILDIE RD", "addr:postcode": "40492", "addr:state": "KY", "brand": "USPS", "collection_times": "Mo-Fr 14:00; Sa 11:15", "name": "USPS COLLECTION BOX - BLUE BOX", "note": "ON 12/24 AND 12/31, THIS BOX MAY BE COLLECTED AS EARLY AS 12 NOON.", "ref": "4049200000"}, "type": "Feature"}
{"geometry": {"coordinates": [-84.302378514, 37.422429741], "type": "Point"}, "id": "mOyf89ZOz0Nfm9s_MNZ0ZNYh8yI=", "properties": {"@spider": "usps_collection_boxes", "addr:city": "WILDIE", "addr:country": "US", "addr:full": "1419 WILDIE RD", "addr:postcode": "40492", "addr:state": "KY", "brand": "USPS", "collection_times": "Mo-Fr 14:00; Sa 11:15", "name": "USPS COLLECTION BOX - PO LOBBY", "note": "ON 12/24 AND 12/31, THIS BOX MAY BE COLLECTED AS EARLY AS 12 NOON.", "ref": "4049200001"}, "type": "Feature"}
{"geometry": {"coordinates": [-84.302378514, 37.422429741], "type": "Point"}, "id": "d8Hp679h_7Isc07h2D7wqhWUmd0=", "properties": {"@spider": "usps_collection_boxes", "addr:city": "WILDIE", "addr:country": "US", "addr:full": "1419 WILDIE RD", "addr:postcode": "40492", "addr:state": "KY", "brand": "USPS", "collection_times": "Mo-Fr 14:00; Sa 11:00", "name": "USPS COLLECTION BOX - PO LOBBY", "note": "ON 12/24 AND 12/31, THIS BOX MAY BE COLLECTED AS EARLY AS 12 NOON.", "ref": "4049200003"}, "type": "Feature"}
