{"geometry": {"coordinates": [-84.4801414, 37.997737], "type": "Point"}, "id": "Qh234et5ctImYeqyLVQ-SC_K85E=", "properties": {"@spider": "usps_collection_boxes", "addr:city": "LEXINGTON", "addr:country": "US", "addr:full": "1050A CHINOE RD", "addr:postcode": "40502", "addr:state": "KY", "brand": "USPS", "collection_times": "Mo-Fr 11:15", "name": "USPS COLLECTION BOX - BLUE BOX", "ref": "4050200005"}, "type": "Feature"}
{"geometry": {"coordinates": [-84.4910961, 38.030208], "type": "Point"}, "id": "NBf4kIr-jZBVvTMuYNbB2s9cTt4=", "properties": {"@spider": "usps_collection_boxes", "addr:city": "LEXINGTON", "addr:country": "US", "addr:full": "801 E EUCLID AVE", "addr:postcode": "40502", "addr:state": "KY", "brand": "USPS", "collection_times": "Mo-Fr 16:45", "name": "USPS COLLECTION BOX - BLUE BOX", "note": "ON 12/24 AND 12/31, THIS BOX MAY BE COLLECTED AS EARLY AS 12 NOON.", "ref": "4050200009"}, "type": "Feature"}
{"geometry": {"coordinates": [-84.4939679, 37.996244], "type": "Point"}, "id": "w8BnJU4w0lSRzN5_wvzg9HkPoHE=", "properties": {"@spider": "usps_collection_boxes", "addr:city": "LEXINGTON", "addr:country": "US", "addr:full": "1055 DOVE RUN RD", "addr:postcode": "40502", "addr:state": "KY", "brand": "USPS", "collection_times": "Mo-Fr 11:30", "name": "USPS COLLECTION BOX - BLUE BOX", "ref": "4050200011"}, "type": "Feature"}
{"geometry": {"coordinates": [-84.4893113, 38.037733], "type": "Point"}, "id": "_Lq452qkc1-n_10cwZf4K95xC1M=", "properties": {"@spider": "usps_collection_boxes", "addr:city": "LEXINGTON", "addr:country": "US", "addr:full": "120 KENTUCKY AVE", "addr:postcode": "40502", "addr:state": "KY", "brand": "USPS", "collection_times": "Mo-Fr 15:45", "name": "USPS COLLECTION BOX - BLUE BOX", "note": "ON 12/24 AND 12/31, THIS BOX MAY BE COLLECTED AS EARLY AS 12 NOON.", "ref": "4050200033"}, "type": "Feature"}
{"geometry": {"coordinates": [-84.4661024, 38.019821], "type": "Point"}, "id": "ndSry7Bnqn0nXmFEvmPPlt1f_Ls=", "properties": {"@spider": "usps_collection_boxes", "addr:city": "LEXINGTON", "addr:country": "US", "addr:full": "2051 RICHMOND RD", "addr:postcode": "40502", "addr:state": "KY", "brand": "USPS", "collection_times": "Mo-Fr 11:00", "name": "USPS COLLECTION BOX - BLUE BOX", "ref": "4050200035"}, "type": "Feature"}
{"geometry": {"coordinates": [-84.4957823, 37.996185], "type": "Point"}, "id": "OkjcT1vqXQ9MojVAdAitdZklABo=", "properties": {"@spider": "usps_collection_boxes", "addr:city": "LEXINGTON", "addr:country": "US", "addr:full": "3347 TATES CREEK RD", "addr:postcode": "40502", "addr:state": "KY", "brand": "USPS", "collection_times": "Mo-Fr 14:30; Sa 13:30", "name": "USPS COLLECTION BOX - BLUE BOX", "note": "ON 12/24 AND 12/31, THIS BOX MAY BE COLLECTED AS EARLY AS 12 NOON.", "ref": "4050200038"}, "type": "Feature"}
{"geometry": {"coordinates": [-84.488031446, 38.019403383], "type": "Point"}, "id": "e3T6koJjztnKLdbpyCig_8sr_1g=", "properties": {"@spider": "usps_collection_boxes", "addr:city": "LEXINGTON", "addr:country": "US", "addr:full": "365 DUKE RD", "addr:postcode": "40502", "addr:state": "KY", "brand": "USPS", "collection_times": "Mo-Fr 18:00; Sa 17:30", "name": "USPS COLLECTION BOX - BLUE BOX", "note": "ON 12/24 AND 12/31, THIS BOX MAY BE COLLECTED AS EARLY AS 12 NOON.", "ref": "4050200040"}, "type": "Feature"}
{"geometry": {"coordinates": [-84.4849978, 38.035812], "type": "Point"}, "id": "lJuKzD_j5wvvntZfLZih777ky8s=", "properties": {"@spider": "usps_collection_boxes", "addr:city": "LEXINGTON", "addr:country": "US", "addr:full": "701 E MAIN ST", "addr:postcode": "40502", "addr:state": "KY", "brand": "USPS", "collection_times": "Mo-Fr 16:00", "name": "USPS COLLECTION BOX - BLUE BOX", "note": "ON 12/24 AND 12/31, THIS BOX MAY BE COLLECTED AS EARLY AS 12 NOON.", "ref": "4050200052"}, "type": "Feature"}
{"geometry": {"coordinates": [-84.488031446, 38.019403383], "type": "Point"}, "id": "4E0xA7pVQvujLr3tGV4U8fyotIg=", "properties": {"@spider": "usps_collection_boxes", "addr:city": "LEXINGTON", "addr:country": "US", "addr:full": "365 DUKE RD STE A", "addr:postcode": "40502", "addr:state": "KY", "brand": "USPS", "collection_times": "Mo-Fr 16:30; Sa 12:00", "name": "USPS COLLECTION BOX - PO LOBBY", "note": "ON 12/24 AND 12/31, THIS BOX MAY BE COLLECTED AS EARLY AS 12 NOON.", "ref": "4050200060"}, "type": "Feature"}
{"geometry": {"coordinates": [-84.5180249, 38.002972], "type": "Point"}, "id": "wYh6-U4E7zWyMmIv-UJz85FHLCs=", "properties": {"@spider": "usps_collection_boxes", "addr:city": "LEXINGTON", "addr:country": "US", "addr:full": "121 MALABU DR", "addr:postcode": "40503", "addr:state": "KY", "brand": "USPS", "collection_times": "Mo-Fr 12:15", "name": "USPS COLLECTION BOX - BLUE BOX", "note": "ON 12/24 AND 12/31, THIS BOX MAY BE COLLECTED AS EARLY AS 12 NOON.", "ref": "4050300014"}, "type": "Feature"}
{"geometry": {"coordinates": [-84.5548875, 38.012598], "type": "Point"}, "id": "bDgVtmwXKGWNRqQJ76dglWstTto=", "properties": {"@spider": "usps_collection_boxes", "addr:city": "LEXINGTON", "addr:country": "US", "addr:full": "3070 HARRODSBURG RD", "addr:postcode": "40503", "addr:state": "KY", "brand": "USPS", "collection_times": "Mo-Fr 14:15; Sa 12:30", "name": "USPS COLLECTION BOX - BLUE BOX", "note": "ON 12/24 AND 12/31, THIS BOX MAY BE COLLECTED AS EARLY AS 12 NOON.", "ref": "4050300016"}, "type": "Feature"}
{"geometry": {"coordinates": [-84.5244842, 38.0074], "type": "Point"}, "id": "618jo8QmqMeC2EQQT-MBnk8JVus=", "properties": {"@spider": "usps_collection_boxes", "addr:city": "LEXINGTON", "addr:country": "US", "addr:full": "2250 REGENCY RD", "addr:postcode": "40503", "addr:state": "KY", "brand": "USPS", "collection_times": "Mo-Fr 12:30", "name": "USPS COLLECTION BOX - BLUE BOX", "note": "ON 12/24 AND 12/31, THIS BOX MAY BE COLLECTED AS EARLY AS 12 NOON.", "ref": "4050300023"}, "type": "Feature"}
{"geometry": {"coordinates": [-84.5264559, 37.995553], "type": "Point"}, "id": "tPKlQLM6BRfCqM-WRj3LqTCvHMA=", "properties": {"@spider": "usps_collection_boxes", "addr:city": "LEXINGTON", "addr:country": "US", "addr:full": "220 LEXINGTON GREEN CIR", "addr:postcode": "40503", "addr:state": "KY", "brand": "USPS", "collection_times": "Mo-Fr 13:45", "name": "USPS COLLECTION BOX - BLUE BOX", "note": "ON 12/24 AND 12/31, THIS BOX MAY BE COLLECTED AS EARLY AS 12 NOON.", "ref": "4050300034"}, "type": "Feature"}
{"geometry": {"coordinates": [-84.526523978, 37.989507005], "type": "Point"}, "id": "GB2cCs1IAP5FKtUKQY7WasIdSpw=", "properties": {"@spider": "usps_collection_boxes", "addr:city": "LEXINGTON", "addr:country": "US", "addr:full": "3395 NICHOLASVILLE RD", "addr:postcode": "40503", "addr:state": "KY", "brand": "USPS", "collection_times": "Mo-Fr 12:00", "name": "USPS COLLECTION BOX - BLUE BOX", "ref": "4050300035"}, "type": "Feature"}
{"geometry": {"coordinates": [-84.5164335, 38.007427], "type": "Point"}, "id": "6jjnZQ7VEneq2PZQppVlfEu7pJ0=", "properties": {"@spider": "usps_collection_boxes", "addr:city": "LEXINGTON", "addr:country": "US", "addr:full": "2220 NICHOLASVILLE RD", "addr:postcode": "40503", "addr:state": "KY", "brand": "USPS", "collection_times": "Mo-Fr 14:00", "name": "USPS COLLECTION BOX - BLUE BOX", "note": "ON 12/24 AND 12/31, THIS BOX MAY BE COLLECTED AS EARLY AS 12 NOON.", "ref": "4050300043"}, "type": "Feature"}
{"geometry": {"coordinates": [-84.5177404, 38.010921], "type": "Point"}, "id": "i5ZYD-ZQMKHaVsUCVhmZQnM1BAE=", "properties": {"@spider": "usps_collection_boxes", "addr:city": "LEXINGTON", "addr:country": "US", "addr:full": "2101 NICHOLASVILLE RD", "addr:postcode": "40503", "addr:state": "KY", "brand": "USPS", "collection_times": "Mo-Fr 13:45", "name": "USPS COLLECTION BOX - BLUE BOX", "note": "ON 12/24 AND 12/31, THIS BOX MAY BE COLLECTED AS EARLY AS 12 NOON.", "ref": "4050300047"}, "type": "Feature"}
{"geometry": {"coordinates": [-84.5182974, 38.000322], "type": "Point"}, "id": "zhT78TXubwiqIdTYpJlD1dKSOnY=", "properties": {"@spider": "usps_collection_boxes", "addr:city": "LEXINGTON", "addr:country": "US", "addr:full": "2537 LARKIN RD", "addr:postcode": "40503", "addr:state": "KY", "brand": "USPS", "collection_times": "Mo-Fr 12:00", "name": "USPS COLLECTION BOX - BLUE BOX", "ref": "4050300060"}, "type": "Feature"}
{"geometry": {"coordinates": [-84.5233562, 38.000284], "type": "Point"}, "id": "AhNMgwBQqZEUSRzLs5mIkOxJXfk=", "properties": {"@spider": "usps_collection_boxes", "addr:city": "LEXINGTON", "addr:country": "US", "addr:full": "160 MOORE DR", "addr:postcode": "40503", "addr:state": "KY", "brand": "USPS", "collection_times": "Mo-Fr 12:00", "name": "USPS COLLECTION BOX - BLUE BOX", "ref": "4050300063"}, "type": "Feature"}
{"geometry": {"coordinates": [-84.5174115, 38.003727], "type": "Point"}, "id": "7ISLSXMm0ToIW-RU5Wc6nHTv5qI=", "properties": {"@spider": "usps_collection_boxes", "addr:city": "LEXINGTON", "addr:country": "US", "addr:full": "2387 PROFESSIONAL HEIGHTS DR", "addr:postcode": "40503", "addr:state": "KY", "brand": "USPS", "collection_times": "Mo-Fr 12:15", "name": "USPS COLLECTION BOX - BLUE BOX", "note": "ON 12/24 AND 12/31, THIS BOX MAY BE COLLECTED AS EARLY AS 12 NOON.", "ref": "4050300069"}, "type": "Feature"}
{"geometry": {"coordinates": [-84.5247799, 38.01645], "type": "Point"}, "id": "_6PYV2eub4ZJdV1IRCEPC0j7QJw=", "properties": {"@spider": "usps_collection_boxes", "addr:city": "LEXINGTON", "addr:country": "US", "addr:full": "306 SOUTHLAND DR", "addr:postcode": "40503", "addr:state": "KY", "brand": "USPS", "collection_times": "Mo-Fr 13:45; Sa 13:15", "name": "USPS COLLECTION BOX - BLUE BOX", "note": "ON 12/24 AND 12/31, THIS BOX MAY BE COLLECTED AS EARLY AS 12 NOON.", "ref": "4050300078"}, "type": "Feature"}
{"geometry": {"coordinates": [-84.5247693, 38.016442], "type": "Point"}, "id": "V7qKX5BjuZypXTVsG1hhJAssjQs=", "properties": {"@spider": "usps_collection_boxes", "addr:city": "LEXINGTON", "addr:country": "US", "addr:full": "306 SOUTHLAND DR", "addr:postcode": "40503", "addr:state": "KY", "brand": "USPS", "collection_times": "Mo-Fr 13:45; Sa 13:15", "name": "USPS COLLECTION BOX - BLUE BOX", "note": "ON 12/24 AND 12/31, THIS BOX MAY BE COLLECTED AS EARLY AS 12 NOON.", "ref": "4050300079"}, "type": "Feature"}
{"geometry": {"coordinates": [-84.5318042, 37.978959], "type": "Point"}, "id": "F3hak4bSjrRqteIEXSN2NQGLHjQ=", "properties": {"@spider": "usps_collection_boxes", "addr:city": "LEXINGTON", "addr:country": "US", "addr:full": "4051 NICHOLASVILLE RD", "addr:postcode": "40503", "addr:state": "KY", "brand": "USPS", "collection_times": "Mo-Fr 11:45", "name": "USPS COLLECTION BOX - BLUE BOX", "ref": "4050300082"}, "type": "Feature"}
{"geometry": {"coordinates": [-84.5136588, 38.017854], "type": "Point"}, "id": "rXeyflYy-gwEnRgHfpQNPJO3YWI=", "properties": {"@spider": "usps_collection_boxes", "addr:city": "LEXINGTON", "addr:country": "US", "addr:full": "1760 NICHOLASVILLE RD", "addr:postcode": "40503", "addr:state": "KY", "brand": "USPS", "collection_times": "Mo-Fr 12:30", "name": "USPS COLLECTION BOX - BLUE BOX", "note": "ON 12/24 AND 12/31, THIS BOX MAY BE COLLECTED AS EARLY AS 12 NOON.", "ref": "4050300091"}, "type": "Feature"}
{"geometry": {"coordinates": [-84.5220084, 38.003199], "type": "Point"}, "id": "Wo53TLMvKNbciRs6fFf7ozHf6q8=", "properties": {"@spider": "usps_collection_boxes", "addr:city": "LEXINGTON", "addr:country": "US", "addr:full": "112 DENNIS DR", "addr:postcode": "40503", "addr:state": "KY", "brand": "USPS", "collection_times": "Mo-Fr 12:00", "name": "USPS COLLECTION BOX - BLUE BOX", "ref": "4050300105"}, "type": "Feature"}
{"geometry": {"coordinates": [-84.5193493, 38.007356], "type": "Point"}, "id": "Tq_lGfyunx4CK86sVKFLaKsgqyM=", "properties": {"@spider": "usps_collection_boxes", "addr:city": "LEXINGTON", "addr:country": "US", "addr:full": "138 BURT RD", "addr:postcode": "40503", "addr:state": "KY", "brand": "USPS", "collection_times": "Mo-Fr 13:45", "name": "USPS COLLECTION BOX - BLUE BOX", "note": "ON 12/24 AND 12/31, THIS BOX MAY BE COLLECTED AS EARLY AS 12 NOON.", "ref": "4050300106"}, "type": "Feature"}
{"geometry": {"coordinates": [-84.5548875, 38.012598], "type": "Point"}, "id": "-BdGB4cGNn_3zjhNFG97jdX4uCE=", "properties": {"@spider": "usps_collection_boxes", "addr:city": "LEXINGTON", "addr:country": "US", "addr:full": "3070 HARRODSBURG RD", "addr:postcode": "40503", "addr:state": "KY", "brand": "USPS", "collection_times": "Mo-Fr 14:15; Sa 12:30", "name": "USPS COLLECTION BOX - BLUE BOX", "note": "ON 12/24 AND 12/31, THIS BOX MAY BE COLLECTED AS EARLY AS 12 NOON.", "ref": "4050300107"}, "type": "Feature"}
{"geometry": {"coordinates": [-84.5454469624, 38.0025689853], "type": "Point"}, "id": "qytRJQPrkkBA4SO4oP-RnAriGOg=", "properties": {"@spider": "usps_collection_boxes", "addr:city": "LEXINGTON", "addr:country": "US", "addr:full": "3101 CLAYS MILL RD", "addr:postcode": "40503", "addr:state": "KY", "brand": "USPS", "collection_times": "Mo-Fr 11:45", "name": "USPS COLLECTION BOX - BLUE BOX", "ref": "4050300108"}, "type": "Feature"}
{"geometry": {"coordinates": [-84.5345949, 37.996105], "type": "Point"}, "id": "LZKBYwyazEDnrP92S5uDFILre_w=", "properties": {"@spider": "usps_collection_boxes", "addr:city": "LEXINGTON", "addr:country": "US", "addr:full": "425 LEWIS HARGETT CIR", "addr:postcode": "40503", "addr:state": "KY", "brand": "USPS", "collection_times": "Mo-Fr 14:00", "name": "USPS COLLECTION BOX - BLUE BOX", "note": "ON 12/24 AND 12/31, THIS BOX MAY BE COLLECTED AS EARLY AS 12 NOON.", "ref": "4050300111"}, "type": "Feature"}
{"geometry": {"coordinates": [-84.5532673, 38.01356], "type": "Point"}, "id": "Zi_eF9uIgp99InZO7Bp-1f9WqU0=", "properties": {"@spider": "usps_collection_boxes", "addr:city": "LEXINGTON", "addr:country": "US", "addr:full": "761 CORPORATE DR", "addr:postcode": "40503", "addr:state": "KY", "brand": "USPS", "collection_times": "Mo-Fr 14:45", "name": "USPS COLLECTION BOX - BLUE BOX", "note": "ON 12/24 AND 12/31, THIS BOX MAY BE COLLECTED AS EARLY AS 12 NOON.", "ref": "4050300116"}, "type": "Feature"}
{"geometry": {"coordinates": [-84.5501272, 38.019451], "type": "Point"}, "id": "MU6x9oVbXdHqpjGPZ7vcHpDmntQ=", "properties": {"@spider": "usps_collection_boxes", "addr:city": "LEXINGTON", "addr:country": "US", "addr:full": "2312 ALEXANDRIA DR", "addr:postcode": "40504", "addr:state": "KY", "brand": "USPS", "collection_times": "Mo-Fr 11:15", "name": "USPS COLLECTION BOX - BLUE BOX", "ref": "4050400000"}, "type": "Feature"}
{"geometry": {"coordinates": [-84.5210072, 38.035386], "type": "Point"}, "id": "NCgLM9XC83maZxh24Sja0g636LQ=", "properties": {"@spider": "usps_collection_boxes", "addr:city": "LEXINGTON", "addr:country": "US", "addr:full": "1221 S BROADWAY", "addr:postcode": "40504", "addr:state": "KY", "brand": "USPS", "collection_times": "Mo-Fr 13:00", "name": "USPS COLLECTION BOX - BLUE BOX", "note": "ON 12/24 AND 12/31, THIS BOX MAY BE COLLECTED AS EARLY AS 12 NOON.", "ref": "4050400012"}, "type": "Feature"}
{"geometry": {"coordinates": [-84.5199153, 38.03121], "type": "Point"}, "id": "iQWYjrW8r_fPN1kukWreKwc8AEI=", "properties": {"@spider": "usps_collection_boxes", "addr:city": "LEXINGTON", "addr:country": "US", "addr:full": "393 WALLER AVE", "addr:postcode": "40504", "addr:state": "KY", "brand": "USPS", "collection_times": "Mo-Fr 13:00", "name": "USPS COLLECTION BOX - BLUE BOX", "note": "ON 12/24 AND 12/31, THIS BOX MAY BE COLLECTED AS EARLY AS 12 NOON.", "ref": "4050400016"}, "type": "Feature"}
{"geometry": {"coordinates": [-84.5289022, 38.031671], "type": "Point"}, "id": "YQIQu4ZtAgWsjepwKM4y2xLGBeM=", "properties": {"@spider": "usps_collection_boxes", "addr:city": "LEXINGTON", "addr:country": "US", "addr:full": "1725 HARRODSBURG RD", "addr:postcode": "40504", "addr:state": "KY", "brand": "USPS", "collection_times": "Mo-Fr 13:15", "name": "USPS COLLECTION BOX - BLUE BOX", "note": "ON 12/24 AND 12/31, THIS BOX MAY BE COLLECTED AS EARLY AS 12 NOON.", "ref": "4050400029"}, "type": "Feature"}
{"geometry": {"coordinates": [-84.5207399, 38.039463], "type": "Point"}, "id": "bKgIff3mohNA9aTXwQb-tbgc6gg=", "properties": {"@spider": "usps_collection_boxes", "addr:city": "LEXINGTON", "addr:country": "US", "addr:full": "1125 RED MILE RD", "addr:postcode": "40504", "addr:state": "KY", "brand": "USPS", "collection_times": "Mo-Fr 13:00", "name": "USPS COLLECTION BOX - BLUE BOX", "note": "ON 12/24 AND 12/31, THIS BOX MAY BE COLLECTED AS EARLY AS 12 NOON.", "ref": "4050400036"}, "type": "Feature"}
{"geometry": {"coordinates": [-84.5410456, 38.030178], "type": "Point"}, "id": "1m5AyPMZQW3bp8maCusOFamYtu8=", "properties": {"@spider": "usps_collection_boxes", "addr:city": "LEXINGTON", "addr:country": "US", "addr:full": "843 LANE ALLEN RD", "addr:postcode": "40504", "addr:state": "KY", "brand": "USPS", "collection_times": "Mo-Fr 13:30", "name": "USPS COLLECTION BOX - BLUE BOX", "note": "ON 12/24 AND 12/31, THIS BOX MAY BE COLLECTED AS EARLY AS 12 NOON.", "ref": "4050400043"}, "type": "Feature"}
{"geometry": {"coordinates": [-84.5277719, 38.032991], "type": "Point"}, "id": "zenaBL9zn3hfDyEGcARt1B1Be2w=", "properties": {"@spider": "usps_collection_boxes", "addr:city": "LEXINGTON", "addr:country": "US", "addr:full": "701 BOB O LINK DR", "addr:postcode": "40504", "addr:state": "KY", "brand": "USPS", "collection_times": "Mo-Fr 13:15", "name": "USPS COLLECTION BOX - BLUE BOX", "note": "ON 12/24 AND 12/31, THIS BOX MAY BE COLLECTED AS EARLY AS 12 NOON.", "ref": "4050400046"}, "type": "Feature"}
{"geometry": {"coordinates": [-84.5534329883, 38.0390479919], "type": "Point"}, "id": "Z3N6Ytk7OFMfPlCJGPYyWMwwGBE=", "properties": {"@spider": "usps_collection_boxes", "addr:city": "LEXINGTON", "addr:country": "US", "addr:full": "1729 ALEXANDRIA DR", "addr:postcode": "40504", "addr:state": "KY", "brand": "USPS", "collection_times": "Mo-Fr 18:00; Sa 17:30", "name": "USPS COLLECTION BOX - BLUE BOX", "note": "ON 12/24 AND 12/31, THIS BOX MAY BE COLLECTED AS EARLY AS 12 NOON.", "ref": "4050400047"}, "type": "Feature"}
{"geometry": {"coordinates": [-84.5289072, 38.031679], "type": "Point"}, "id": "74bHvabqCkOegAGjzzPypHDccBk=", "properties": {"@spider": "usps_collection_boxes", "addr:city": "LEXINGTON", "addr:country": "US", "addr:full": "1725 HARRODSBURG RD", "addr:postcode": "40504", "addr:state": "KY", "brand": "USPS", "collection_times": "Mo-Fr 13:15", "name": "USPS COLLECTION BOX - BLUE BOX", "note": "ON 12/24 AND 12/31, THIS BOX MAY BE COLLECTED AS EARLY AS 12 NOON.", "ref": "4050400053"}, "type": "Feature"}
{"geometry": {"coordinates": [-84.544978705, 38.020095489], "type": "Point"}, "id": "VuIvUKwYJXBAg3jXOfcxxct_FPQ=", "properties": {"@spider": "usps_collection_boxes", "addr:city": "LEXINGTON", "addr:country": "US", "addr:full": "2365 HARRODSBURG RD", "addr:postcode": "40504", "addr:state": "KY", "brand": "USPS", "collection_times": "Mo-Fr 11:15", "name": "USPS COLLECTION BOX - BLUE BOX", "ref": "4050400054"}, "type": "Feature"}
{"geometry": {"coordinates": [-84.5482599, 38.047226], "type": "Point"}, "id": "yOq_4jMpXx417a2TOc-SzERLJLE=", "properties": {"@spider": "usps_collection_boxes", "addr:city": "LEXINGTON", "addr:country": "US", "addr:full": "2189 VERSAILLES RD", "addr:postcode": "40504", "addr:state": "KY", "brand": "USPS", "collection_times": "Mo-Fr 10:45", "name": "USPS COLLECTION BOX - BLUE BOX", "ref": "4050400064"}, "type": "Feature"}
{"geometry": {"coordinates": [-84.5166626, 38.030105], "type": "Point"}, "id": "4VU4VtAPl1FvJiojOqzlG-PKfMw=", "properties": {"@spider": "usps_collection_boxes", "addr:city": "LEXINGTON", "addr:country": "US", "addr:full": "333 WALLER AVE", "addr:postcode": "40504", "addr:state": "KY", "brand": "USPS", "collection_times": "Mo-Fr 12:45", "name": "USPS COLLECTION BOX - BLUE BOX", "note": "ON 12/24 AND 12/31, THIS BOX MAY BE COLLECTED AS EARLY AS 12 NOON.", "ref": "4050400067"}, "type": "Feature"}
{"geometry": {"coordinates": [-84.552515099, 38.03961338], "type": "Point"}, "id": "kNS056KQGox0LabkRT-C3sv1HGE=", "properties": {"@spider": "usps_collection_boxes", "addr:city": "LEXINGTON", "addr:country": "US", "addr:full": "1729 ALEXANDRIA DR", "addr:postcode": "40504", "addr:state": "KY", "brand": "USPS", "collection_times": "Mo-Fr 17:00; Sa 15:30", "name": "USPS COLLECTION BOX - PO LOBBY", "note": "ON 12/24 AND 12/31, THIS BOX MAY BE COLLECTED AS EARLY AS 12 NOON.", "ref": "4050400074"}, "type": "Feature"}
{"geometry": {"coordinates": [-84.5451816, 38.021517], "type": "Point"}, "id": "fD9UQwljhMC5Y52UB4XIl5XfrQw=", "properties": {"@spider": "usps_collection_boxes", "addr:city": "LEXINGTON", "addr:country": "US", "addr:full": "2355 HARRODSBURG RD", "addr:postcode": "40504", "addr:state": "KY", "brand": "USPS", "collection_times": "Mo-Fr 11:15", "name": "USPS COLLECTION BOX - BLUE BOX", "ref": "4050400081"}, "type": "Feature"}
{"geometry": {"coordinates": [-84.552515099, 38.03961338], "type": "Point"}, "id": "gNCTCAaly9S16OyyOAcrvhUA_Uc=", "properties": {"@spider": "usps_collection_boxes", "addr:city": "LEXINGTON", "addr:country": "US", "addr:full": "1729 ALEXANDRIA DR", "addr:postcode": "40504", "addr:state": "KY", "brand": "USPS", "collection_times": "Mo-Fr 17:00; Sa 12:00", "name": "USPS COLLECTION BOX - PO LOBBY", "note": "ON 12/24 AND 12/31, THIS BOX MAY BE COLLECTED AS EARLY AS 12 NOON.", "ref": "4050400089"}, "type": "Feature"}
{"geometry": {"coordinates": [-84.4611642, 38.058932], "type": "Point"}, "id": "B8ReXo-6f5DWi5Wll4PDSOjFb00=", "properties": {"@spider": "usps_collection_boxes", "addr:city": "LEXINGTON", "addr:country": "US", "addr:full": "1650 BRYAN STATION RD", "addr:postcode": "40505", "addr:state": "KY", "brand": "USPS", "collection_times": "Mo-Fr 10:00", "name": "USPS COLLECTION BOX - BLUE BOX", "ref": "4050500008"}, "type": "Feature"}
{"geometry": {"coordinates": [-84.4638512, 37.993887], "type": "Point"}, "id": "Lgr1ueAALxilPjVfCTXwTmwr58Q=", "properties": {"@spider": "usps_collection_boxes", "addr:city": "LEXINGTON", "addr:country": "US", "addr:full": "1511 RUSSELL CAVE RD", "addr:postcode": "40505", "addr:state": "KY", "brand": "USPS", "collection_times": "Mo-Fr 14:30", "name": "USPS COLLECTION BOX - BLUE BOX", "note": "ON 12/24 AND 12/31, THIS BOX MAY BE COLLECTED AS EARLY AS 12 NOON.", "ref": "4050500021"}, "type": "Feature"}
{"geometry": {"coordinates": [-84.454688972, 38.028770018], "type": "Point"}, "id": "qBl8mebOFlQbHWW0lFRv_eZauaA=", "properties": {"@spider": "usps_collection_boxes", "addr:city": "LEXINGTON", "addr:country": "US", "addr:full": "2041 CREATIVE DR", "addr:postcode": "40505", "addr:state": "KY", "brand": "USPS", "collection_times": "Mo-Fr 18:00; Sa 17:30", "name": "USPS COLLECTION BOX - BLUE BOX", "note": "ON 12/24 AND 12/31, THIS BOX MAY BE COLLECTED AS EARLY AS 12 NOON.", "ref": "4050500038"}, "type": "Feature"}
{"geometry": {"coordinates": [-84.4282888, 38.043786], "type": "Point"}, "id": "B2BIwIFhSQmZ7lcgM_BSreC2918=", "properties": {"@spider": "usps_collection_boxes", "addr:city": "LEXINGTON", "addr:country": "US", "addr:full": "2260 EXECUTIVE DR", "addr:postcode": "40505", "addr:state": "KY", "brand": "USPS", "collection_times": "Mo-Fr 16:45", "name": "USPS COLLECTION BOX - BLUE BOX", "note": "ON 12/24 AND 12/31, THIS BOX MAY BE COLLECTED AS EARLY AS 12 NOON.", "ref": "4050500040"}, "type": "Feature"}
{"geometry": {"coordinates": [-84.4282812, 38.043793], "type": "Point"}, "id": "IWdn8yhS6-uxr7TlHuUKnpC1XAo=", "properties": {"@spider": "usps_collection_boxes", "addr:city": "LEXINGTON", "addr:country": "US", "addr:full": "2260 EXECUTIVE DR", "addr:postcode": "40505", "addr:state": "KY", "brand": "USPS", "collection_times": "Mo-Fr 16:45", "name": "USPS COLLECTION BOX - BLUE BOX", "note": "ON 12/24 AND 12/31, THIS BOX MAY BE COLLECTED AS EARLY AS 12 NOON.", "ref": "4050500041"}, "type": "Feature"}
{"geometry": {"coordinates": [-84.4282749, 38.043799], "type": "Point"}, "id": "zaqZSKja7YsR6Ru3slY_JLwus54=", "properties": {"@spider": "usps_collection_boxes", "addr:city": "LEXINGTON", "addr:country": "US", "addr:full": "2260 EXECUTIVE DR", "addr:postcode": "40505", "addr:state": "KY", "brand": "USPS", "collection_times": "Mo-Fr 16:45", "name": "USPS COLLECTION BOX - BLUE BOX", "note": "ON 12/24 AND 12/31, THIS BOX MAY BE COLLECTED AS EARLY AS 12 NOON.", "ref": "4050500042"}, "type": "Feature"}
{"geometry": {"coordinates": [-84.4587652, 38.043429], "type": "Point"}, "id": "DOzP1TdEWrvHNw5B3oqEbkTIAsI=", "properties": {"@spider": "usps_collection_boxes", "addr:city": "LEXINGTON", "addr:country": "US", "addr:full": "1301 WINCHESTER RD", "addr:postcode": "40505", "addr:state": "KY", "brand": "USPS", "collection_times": "Mo-Fr 11:30", "name": "USPS COLLECTION BOX - BLUE BOX", "ref": "4050500050"}, "type": "Feature"}
{"geometry": {"coordinates": [-84.4555791, 38.025074], "type": "Point"}, "id": "vomoUNxgjPM5xa9ZbuehbMb6e8I=", "properties": {"@spider": "usps_collection_boxes", "addr:city": "LEXINGTON", "addr:country": "US", "addr:full": "2224 YOUNG DR", "addr:postcode": "40505", "addr:state": "KY", "brand": "USPS", "collection_times": "Mo-Fr 11:00", "name": "USPS COLLECTION BOX - BLUE BOX", "ref": "4050500053"}, "type": "Feature"}
{"geometry": {"coordinates": [-84.454688972, 38.028770018], "type": "Point"}, "id": "EzbcrBlLqJwIjXfNMYuGzkAarj8=", "properties": {"@spider": "usps_collection_boxes", "addr:city": "LEXINGTON", "addr:country": "US", "addr:full": "2041 CREATIVE DR", "addr:postcode": "40505", "addr:state": "KY", "brand": "USPS", "collection_times": "Mo-Fr 17:00; Sa 15:30", "name": "USPS COLLECTION BOX - APC", "note": "ON 12/24 AND 12/31, THIS BOX MAY BE COLLECTED AS EARLY AS 12 NOON.", "ref": "4050500057"}, "type": "Feature"}
{"geometry": {"coordinates": [-84.454688972, 38.028770018], "type": "Point"}, "id": "C6V6iAl5OrPcK0zmS_epkPbNp0w=", "properties": {"@spider": "usps_collection_boxes", "addr:city": "LEXINGTON", "addr:country": "US", "addr:full": "2041 CREATIVE DR", "addr:postcode": "40505", "addr:state": "KY", "brand": "USPS", "collection_times": "Mo-Fr 17:00; Sa 15:30", "name": "USPS COLLECTION BOX - PO LOBBY", "note": "ON 12/24 AND 12/31, THIS BOX MAY BE COLLECTED AS EARLY AS 12 NOON.", "ref": "4050500058"}, "type": "Feature"}
{"geometry": {"coordinates": [-84.4536992, 38.063539], "type": "Point"}, "id": "hdnX1J6uTZMr3RGWx6TM-RJaCVE=", "properties": {"@spider": "usps_collection_boxes", "addr:city": "LEXINGTON", "addr:country": "US", "addr:full": "1816 BRYAN STATION RD", "addr:postcode": "40505", "addr:state": "KY", "brand": "USPS", "collection_times": "Mo-Fr 10:00", "name": "USPS COLLECTION BOX - BLUE BOX", "ref": "4050500060"}, "type": "Feature"}
{"geometry": {"coordinates": [-84.4571582, 38.044034], "type": "Point"}, "id": "g_nlLNgFT9fFBAwDqM3ZrALSeZ0=", "properties": {"@spider": "usps_collection_boxes", "addr:city": "LEXINGTON", "addr:country": "US", "addr:full": "1315 WINCHESTER RD STE 331", "addr:postcode": "40505", "addr:state": "KY", "brand": "USPS", "collection_times": "Mo-Fr 11:30; Sa 15:00", "name": "USPS COLLECTION BOX - BLUE BOX", "note": "ON 12/24 AND 12/31, THIS BOX MAY BE COLLECTED AS EARLY AS 12 NOON.", "ref": "4050500071"}, "type": "Feature"}
{"geometry": {"coordinates": [-84.455472382, 38.029176064], "type": "Point"}, "id": "4D588_XNApShA6UJJxl4m2Su9MQ=", "properties": {"@spider": "usps_collection_boxes", "addr:city": "LEXINGTON", "addr:country": "US", "addr:full": "2041 CREATIVE DR STE 100", "addr:postcode": "40505", "addr:state": "KY", "brand": "USPS", "collection_times": "Mo-Fr 17:00; Sa 12:00", "name": "USPS COLLECTION BOX - PO LOBBY", "note": "ON 12/24 AND 12/31, THIS BOX MAY BE COLLECTED AS EARLY AS 12 NOON.", "ref": "4050500074"}, "type": "Feature"}
{"geometry": {"coordinates": [-84.4985205, 38.048058], "type": "Point"}, "id": "InbuJFkoB28CEY_tt5SstRi_pOo=", "properties": {"@spider": "usps_collection_boxes", "addr:city": "LEXINGTON", "addr:country": "US", "addr:full": "269 W MAIN ST", "addr:postcode": "40507", "addr:state": "KY", "brand": "USPS", "collection_times": "Mo-Fr 16:30", "name": "USPS COLLECTION BOX - BLUE BOX", "note": "ON 12/24 AND 12/31, THIS BOX MAY BE COLLECTED AS EARLY AS 12 NOON.", "ref": "4050700003"}, "type": "Feature"}
{"geometry": {"coordinates": [-84.4957434389, 38.0451435093], "type": "Point"}, "id": "4fR-KsMe6W0iZJKTrE0ifzKmld8=", "properties": {"@spider": "usps_collection_boxes", "addr:city": "LEXINGTON", "addr:country": "US", "addr:full": "162 E MAIN ST", "addr:postcode": "40507", "addr:state": "KY", "brand": "USPS", "collection_times": "Mo-Fr 16:15", "name": "USPS COLLECTION BOX - BLUE BOX", "note": "ON 12/24 AND 12/31, THIS BOX MAY BE COLLECTED AS EARLY AS 12 NOON.", "ref": "4050700009"}, "type": "Feature"}
{"geometry": {"coordinates": [-84.500676, 38.05002], "type": "Point"}, "id": "6tDkXwLvVxgdzgqVACceA18oros=", "properties": {"@spider": "usps_collection_boxes", "addr:city": "LEXINGTON", "addr:country": "US", "addr:full": "505 W MAIN ST", "addr:postcode": "40507", "addr:state": "KY", "brand": "USPS", "collection_times": "Mo-Fr 16:45", "name": "USPS COLLECTION BOX - BLUE BOX", "note": "ON 12/24 AND 12/31, THIS BOX MAY BE COLLECTED AS EARLY AS 12 NOON.", "ref": "4050700021"}, "type": "Feature"}
{"geometry": {"coordinates": [-84.49786957, 38.045418507], "type": "Point"}, "id": "ZsT40H5LKJdwJ7y9yfabVC5NSBM=", "properties": {"@spider": "usps_collection_boxes", "addr:city": "LEXINGTON", "addr:country": "US", "addr:full": "100 E VINE ST", "addr:postcode": "40507", "addr:state": "KY", "brand": "USPS", "collection_times": "Mo-Fr 15:30", "name": "USPS COLLECTION BOX - BLUE BOX", "note": "ON 12/24 AND 12/31, THIS BOX MAY BE COLLECTED AS EARLY AS 12 NOON.", "ref": "4050700026"}, "type": "Feature"}
{"geometry": {"coordinates": [-84.492528851, 38.040408651], "type": "Point"}, "id": "lSr6i71-jBGPwG2lNyY6zF9bxXk=", "properties": {"@spider": "usps_collection_boxes", "addr:city": "LEXINGTON", "addr:country": "US", "addr:full": "400 OLD VINE ST", "addr:postcode": "40507", "addr:state": "KY", "brand": "USPS", "collection_times": "Mo-Fr 15:45", "name": "USPS COLLECTION BOX - BLUE BOX", "note": "ON 12/24 AND 12/31, THIS BOX MAY BE COLLECTED AS EARLY AS 12 NOON.", "ref": "4050700029"}, "type": "Feature"}
{"geometry": {"coordinates": [-84.4978430329, 38.0486740209], "type": "Point"}, "id": "AsjpDn_rg0srgs4cWtkAwFZR9-k=", "properties": {"@spider": "usps_collection_boxes", "addr:city": "LEXINGTON", "addr:country": "US", "addr:full": "271 W SHORT ST", "addr:postcode": "40507", "addr:state": "KY", "brand": "USPS", "collection_times": "Mo-Fr 16:45", "name": "USPS COLLECTION BOX - BLUE BOX", "note": "ON 12/24 AND 12/31, THIS BOX MAY BE COLLECTED AS EARLY AS 12 NOON.", "ref": "4050700036"}, "type": "Feature"}
{"geometry": {"coordinates": [-84.495224688, 38.047715236], "type": "Point"}, "id": "pcSNyRa1L1kpEAcZDqoQWUqQEwM=", "properties": {"@spider": "usps_collection_boxes", "addr:city": "LEXINGTON", "addr:country": "US", "addr:full": "175 N LIMESTONE", "addr:postcode": "40507", "addr:state": "KY", "brand": "USPS", "collection_times": "Mo-Sa 18:00", "name": "USPS COLLECTION BOX - BLUE BOX", "note": "ON 12/24 AND 12/31, THIS BOX MAY BE COLLECTED AS EARLY AS 12 NOON.", "ref": "4050700040"}, "type": "Feature"}
{"geometry": {"coordinates": [-84.4985205, 38.048058], "type": "Point"}, "id": "6HnFyjdievHHG_oGC2479KFZ0-s=", "properties": {"@spider": "usps_collection_boxes", "addr:city": "LEXINGTON", "addr:country": "US", "addr:full": "269 W MAIN ST", "addr:postcode": "40507", "addr:state": "KY", "brand": "USPS", "collection_times": "Mo-Fr 16:30", "name": "USPS COLLECTION BOX - BLUE BOX", "note": "ON 12/24 AND 12/31, THIS BOX MAY BE COLLECTED AS EARLY AS 12 NOON.", "ref": "4050700045"}, "type": "Feature"}
{"geometry": {"coordinates": [-84.497751718, 38.047056946], "type": "Point"}, "id": "r94FQy4RYFigzvwF_rvFZm_OlYQ=", "properties": {"@spider": "usps_collection_boxes", "addr:city": "LEXINGTON", "addr:country": "US", "addr:full": "167 W MAIN ST", "addr:postcode": "40507", "addr:state": "KY", "brand": "USPS", "collection_times": "Mo-Fr 16:30", "name": "USPS COLLECTION BOX - BLUE BOX", "note": "ON 12/24 AND 12/31, THIS BOX MAY BE COLLECTED AS EARLY AS 12 NOON.", "ref": "4050700048"}, "type": "Feature"}
{"geometry": {"coordinates": [-84.495743439, 38.045143509], "type": "Point"}, "id": "GxCpOYT1VPeWff2lxF9TtuksPNA=", "properties": {"@spider": "usps_collection_boxes", "addr:city": "LEXINGTON", "addr:country": "US", "addr:full": "162 E MAIN ST", "addr:postcode": "40507", "addr:state": "KY", "brand": "USPS", "collection_times": "Mo-Fr 16:15", "name": "USPS COLLECTION BOX - BLUE BOX", "note": "ON 12/24 AND 12/31, THIS BOX MAY BE COLLECTED AS EARLY AS 12 NOON.", "ref": "4050700051"}, "type": "Feature"}
{"geometry": {"coordinates": [-84.493767928, 38.043412639], "type": "Point"}, "id": "1j4uubZV1ES3ZhRztXkWOENc0jI=", "properties": {"@spider": "usps_collection_boxes", "addr:city": "LEXINGTON", "addr:country": "US", "addr:full": "300 E MAIN ST", "addr:postcode": "40507", "addr:state": "KY", "brand": "USPS", "collection_times": "Mo-Fr 16:00", "name": "USPS COLLECTION BOX - BLUE BOX", "note": "ON 12/24 AND 12/31, THIS BOX MAY BE COLLECTED AS EARLY AS 12 NOON.", "ref": "4050700052"}, "type": "Feature"}
{"geometry": {"coordinates": [-84.493767928, 38.043412639], "type": "Point"}, "id": "QPYbv_m48AF8xryzF4_THwzwQ8Q=", "properties": {"@spider": "usps_collection_boxes", "addr:city": "LEXINGTON", "addr:country": "US", "addr:full": "300 E MAIN ST", "addr:postcode": "40507", "addr:state": "KY", "brand": "USPS", "collection_times": "Mo-Fr 16:00", "name": "USPS COLLECTION BOX - BLUE BOX", "note": "ON 12/24 AND 12/31, THIS BOX MAY BE COLLECTED AS EARLY AS 12 NOON.", "ref": "4050700053"}, "type": "Feature"}
{"geometry": {"coordinates": [-84.4927605, 38.043387], "type": "Point"}, "id": "baEhwxGjp33nX_ypiDWnq4Zy5X0=", "properties": {"@spider": "usps_collection_boxes", "addr:city": "LEXINGTON", "addr:country": "US", "addr:full": "301 E MAIN ST", "addr:postcode": "40507", "addr:state": "KY", "brand": "USPS", "collection_times": "Mo-Fr 16:15", "name": "USPS COLLECTION BOX - BLUE BOX", "note": "ON 12/24 AND 12/31, THIS BOX MAY BE COLLECTED AS EARLY AS 12 NOON.", "ref": "4050700054"}, "type": "Feature"}
{"geometry": {"coordinates": [-84.49713, 38.04786], "type": "Point"}, "id": "hVnBR5itU40ANMAZIjrmqzbYC3A=", "properties": {"@spider": "usps_collection_boxes", "addr:city": "LEXINGTON", "addr:country": "US", "addr:full": "215 W SHORT ST", "addr:postcode": "40507", "addr:state": "KY", "brand": "USPS", "collection_times": "Mo-Fr 16:45", "name": "USPS COLLECTION BOX - BLUE BOX", "note": "ON 12/24 AND 12/31, THIS BOX MAY BE COLLECTED AS EARLY AS 12 NOON.", "ref": "4050700055"}, "type": "Feature"}
{"geometry": {"coordinates": [-84.49713, 38.04786], "type": "Point"}, "id": "WU-lcu6B_yATSS0kX0In_hIgld8=", "properties": {"@spider": "usps_collection_boxes", "addr:city": "LEXINGTON", "addr:country": "US", "addr:full": "215 W SHORT ST", "addr:postcode": "40507", "addr:state": "KY", "brand": "USPS", "collection_times": "Mo-Fr 16:45", "name": "USPS COLLECTION BOX - BLUE BOX", "note": "ON 12/24 AND 12/31, THIS BOX MAY BE COLLECTED AS EARLY AS 12 NOON.", "ref": "4050700057"}, "type": "Feature"}
{"geometry": {"coordinates": [-84.495520917, 38.048858884], "type": "Point"}, "id": "Cf6jUz3bx-9Q3j-aMG7EBT_pJtA=", "properties": {"@spider": "usps_collection_boxes", "addr:city": "LEXINGTON", "addr:country": "US", "addr:full": "189 N UPPER ST", "addr:postcode": "40507", "addr:state": "KY", "brand": "USPS", "collection_times": "Mo-Fr 17:00", "name": "USPS COLLECTION BOX - BLUE BOX", "note": "ON 12/24 AND 12/31, THIS BOX MAY BE COLLECTED AS EARLY AS 12 NOON.", "ref": "4050700058"}, "type": "Feature"}
{"geometry": {"coordinates": [-84.499038, 38.046132], "type": "Point"}, "id": "BX_H4OTu2XcGZrvAvbsANoFsW7g=", "properties": {"@spider": "usps_collection_boxes", "addr:city": "LEXINGTON", "addr:country": "US", "addr:full": "110 W VINE ST", "addr:postcode": "40507", "addr:state": "KY", "brand": "USPS", "collection_times": "Mo-Fr 15:30", "name": "USPS COLLECTION BOX - BLUE BOX", "note": "ON 12/24 AND 12/31, THIS BOX MAY BE COLLECTED AS EARLY AS 12 NOON.", "ref": "4050700060"}, "type": "Feature"}
{"geometry": {"coordinates": [-84.499038, 38.046132], "type": "Point"}, "id": "8oEo2TP57kL58AlkUr5vGKPf_nc=", "properties": {"@spider": "usps_collection_boxes", "addr:city": "LEXINGTON", "addr:country": "US", "addr:full": "110 W VINE ST", "addr:postcode": "40507", "addr:state": "KY", "brand": "USPS", "collection_times": "Mo-Fr 15:30", "name": "USPS COLLECTION BOX - BLUE BOX", "note": "ON 12/24 AND 12/31, THIS BOX MAY BE COLLECTED AS EARLY AS 12 NOON.", "ref": "4050700061"}, "type": "Feature"}
{"geometry": {"coordinates": [-84.499533, 38.047941], "type": "Point"}, "id": "l-VdV6G9_DzT_ObDn4hIY0Rbqa4=", "properties": {"@spider": "usps_collection_boxes", "addr:city": "LEXINGTON", "addr:country": "US", "addr:full": "333 W VINE ST", "addr:postcode": "40507", "addr:state": "KY", "brand": "USPS", "collection_times": "Mo-Fr 15:15", "name": "USPS COLLECTION BOX - BLUE BOX", "note": "ON 12/24 AND 12/31, THIS BOX MAY BE COLLECTED AS EARLY AS 12 NOON.", "ref": "4050700064"}, "type": "Feature"}
{"geometry": {"coordinates": [-84.4918264222, 38.0408448523], "type": "Point"}, "id": "KSklFPCzh2or-jQwai0QaAdUI-0=", "properties": {"@spider": "usps_collection_boxes", "addr:city": "LEXINGTON", "addr:country": "US", "addr:full": "400 E VINE ST", "addr:postcode": "40507", "addr:state": "KY", "brand": "USPS", "collection_times": "Mo-Fr 15:45", "name": "USPS COLLECTION BOX - BLUE BOX", "note": "ON 12/24 AND 12/31, THIS BOX MAY BE COLLECTED AS EARLY AS 12 NOON.", "ref": "4050700065"}, "type": "Feature"}
{"geometry": {"coordinates": [-84.491826422, 38.040844852], "type": "Point"}, "id": "Y16JF9HYmRXJsSmvoFYIRPKnrso=", "properties": {"@spider": "usps_collection_boxes", "addr:city": "LEXINGTON", "addr:country": "US", "addr:full": "400 E VINE ST", "addr:postcode": "40507", "addr:state": "KY", "brand": "USPS", "collection_times": "Mo-Fr 15:45", "name": "USPS COLLECTION BOX - BLUE BOX", "note": "ON 12/24 AND 12/31, THIS BOX MAY BE COLLECTED AS EARLY AS 12 NOON.", "ref": "4050700066"}, "type": "Feature"}
{"geometry": {"coordinates": [-84.49786957, 38.045418507], "type": "Point"}, "id": "yq5XYKw0sXL4vwb03fnOAvowsM8=", "properties": {"@spider": "usps_collection_boxes", "addr:city": "LEXINGTON", "addr:country": "US", "addr:full": "100 E VINE ST", "addr:postcode": "40507", "addr:state": "KY", "brand": "USPS", "collection_times": "Mo-Fr 15:30", "name": "USPS COLLECTION BOX - BLUE BOX", "note": "ON 12/24 AND 12/31, THIS BOX MAY BE COLLECTED AS EARLY AS 12 NOON.", "ref": "4050700068"}, "type": "Feature"}
{"geometry": {"coordinates": [-84.4928235, 38.038005], "type": "Point"}, "id": "V1JxM6L3LRxRb6X6G4h641hJKSU=", "properties": {"@spider": "usps_collection_boxes", "addr:city": "LEXINGTON", "addr:country": "US", "addr:full": "465 E HIGH ST", "addr:postcode": "40507", "addr:state": "KY", "brand": "USPS", "collection_times": "Mo-Fr 17:00", "name": "USPS COLLECTION BOX - BLUE BOX", "note": "ON 12/24 AND 12/31, THIS BOX MAY BE COLLECTED AS EARLY AS 12 NOON.", "ref": "4050700074"}, "type": "Feature"}
{"geometry": {"coordinates": [-84.496441235, 38.042962546], "type": "Point"}, "id": "1mSx71nKUBEVm4_aXPzvZtwilo8=", "properties": {"@spider": "usps_collection_boxes", "addr:city": "LEXINGTON", "addr:country": "US", "addr:full": "210 E HIGH ST", "addr:postcode": "40507", "addr:state": "KY", "brand": "USPS", "collection_times": "Mo-Fr 18:00; Sa 17:00", "name": "USPS COLLECTION BOX - BLUE BOX", "note": "ON 12/24 AND 12/31, THIS BOX MAY BE COLLECTED AS EARLY AS 12 NOON.", "ref": "4050700098"}, "type": "Feature"}
{"geometry": {"coordinates": [-84.499564688, 38.045784804], "type": "Point"}, "id": "9KcaXdS8P_OnAb3-jUbYeoA55jU=", "properties": {"@spider": "usps_collection_boxes", "addr:city": "LEXINGTON", "addr:country": "US", "addr:full": "120 W HIGH ST", "addr:postcode": "40507", "addr:state": "KY", "brand": "USPS", "collection_times": "Mo-Fr 17:00", "name": "USPS COLLECTION BOX - BLUE BOX", "note": "ON 12/24 AND 12/31, THIS BOX MAY BE COLLECTED AS EARLY AS 12 NOON.", "ref": "4050700102"}, "type": "Feature"}
{"geometry": {"coordinates": [-84.499564688, 38.045784804], "type": "Point"}, "id": "FP4C8ow4xh1g5FavRA382FTsHNg=", "properties": {"@spider": "usps_collection_boxes", "addr:city": "LEXINGTON", "addr:country": "US", "addr:full": "120 W HIGH ST", "addr:postcode": "40507", "addr:state": "KY", "brand": "USPS", "collection_times": "Mo-Fr 17:00", "name": "USPS COLLECTION BOX - BLUE BOX", "note": "ON 12/24 AND 12/31, THIS BOX MAY BE COLLECTED AS EARLY AS 12 NOON.", "ref": "4050700103"}, "type": "Feature"}
{"geometry": {"coordinates": [-84.4964412352, 38.0429625461], "type": "Point"}, "id": "CbvSGUAX9afs2v9ueSQ0ej_5U9s=", "properties": {"@spider": "usps_collection_boxes", "addr:city": "LEXINGTON", "addr:country": "US", "addr:full": "210 E HIGH ST", "addr:postcode": "40507", "addr:state": "KY", "brand": "USPS", "collection_times": "Mo-Fr 17:00", "name": "USPS COLLECTION BOX - PO LOBBY", "note": "ON 12/24 AND 12/31, THIS BOX MAY BE COLLECTED AS EARLY AS 12 NOON.", "ref": "4050700105"}, "type": "Feature"}
{"geometry": {"coordinates": [-84.4960909637, 38.0459559793], "type": "Point"}, "id": "lpZTFE7T-_2DjXXT-lkKiZw2ffQ=", "properties": {"@spider": "usps_collection_boxes", "addr:city": "LEXINGTON", "addr:country": "US", "addr:full": "137 E MAIN ST", "addr:postcode": "40507", "addr:state": "KY", "brand": "USPS", "collection_times": "Mo-Fr 16:30", "name": "USPS COLLECTION BOX - BLUE BOX", "note": "ON 12/24 AND 12/31, THIS BOX MAY BE COLLECTED AS EARLY AS 12 NOON.", "ref": "4050700108"}, "type": "Feature"}
{"geometry": {"coordinates": [-84.4961473858, 38.0468963286], "type": "Point"}, "id": "wutgoxV9VcZjrK8tM9zbOlDxDuI=", "properties": {"@spider": "usps_collection_boxes", "addr:city": "LEXINGTON", "addr:country": "US", "addr:full": "101 E SHORT ST", "addr:postcode": "40507", "addr:state": "KY", "brand": "USPS", "collection_times": "Mo-Fr 17:00", "name": "USPS COLLECTION BOX - BLUE BOX", "note": "ON 12/24 AND 12/31, THIS BOX MAY BE COLLECTED AS EARLY AS 12 NOON.", "ref": "4050700113"}, "type": "Feature"}
{"geometry": {"coordinates": [-84.5001534219, 38.0477705781], "type": "Point"}, "id": "cs9L7dmwksdOSTyBQIZt1AJAbkQ=", "properties": {"@spider": "usps_collection_boxes", "addr:city": "LEXINGTON", "addr:country": "US", "addr:full": "300 W VINE ST", "addr:postcode": "40507", "addr:state": "KY", "brand": "USPS", "collection_times": "Mo-Fr 15:00; Sa 16:00", "name": "USPS COLLECTION BOX - BLUE BOX", "note": "ON 12/24 AND 12/31, THIS BOX MAY BE COLLECTED AS EARLY AS 12 NOON.", "ref": "4050700121"}, "type": "Feature"}
{"geometry": {"coordinates": [-84.496441235, 38.042962546], "type": "Point"}, "id": "3AQFk2MwjY_tVicfSejYfLLQLYs=", "properties": {"@spider": "usps_collection_boxes", "addr:city": "LEXINGTON", "addr:country": "US", "addr:full": "210 E HIGH ST", "addr:postcode": "40507", "addr:state": "KY", "brand": "USPS", "collection_times": "Mo-Fr 17:00", "name": "USPS COLLECTION BOX - APC", "note": "ON 12/24 AND 12/31, THIS BOX MAY BE COLLECTED AS EARLY AS 12 NOON.", "ref": "4050700124"}, "type": "Feature"}
{"geometry": {"coordinates": [-84.500153422, 38.047770578], "type": "Point"}, "id": "_jrDfn2pK6RcBtWbQORX2x8427g=", "properties": {"@spider": "usps_collection_boxes", "addr:city": "LEXINGTON", "addr:country": "US", "addr:full": "300 W VINE ST", "addr:postcode": "40507", "addr:state": "KY", "brand": "USPS", "collection_times": "Mo-Fr 15:00; Sa 16:00", "name": "USPS COLLECTION BOX - BLUE BOX", "note": "ON 12/24 AND 12/31, THIS BOX MAY BE COLLECTED AS EARLY AS 12 NOON.", "ref": "4050700135"}, "type": "Feature"}
{"geometry": {"coordinates": [-84.496430073, 38.042989482], "type": "Point"}, "id": "u2dDNYJrVayuTWGmh6ypvmvX6HI=", "properties": {"@spider": "usps_collection_boxes", "addr:city": "LEXINGTON", "addr:country": "US", "addr:full": "210 E HIGH ST", "addr:postcode": "40507", "addr:state": "KY", "brand": "USPS", "collection_times": "Mo-Fr 17:00", "name": "USPS COLLECTION BOX - PO LOBBY", "note": "ON 12/24 AND 12/31, THIS BOX MAY BE COLLECTED AS EARLY AS 12 NOON.", "ref": "4050700137"}, "type": "Feature"}
{"geometry": {"coordinates": [-84.5027588, 38.035586], "type": "Point"}, "id": "SgCmOt8AElxocfSSL21A16HfR5g=", "properties": {"@spider": "usps_collection_boxes", "addr:city": "LEXINGTON", "addr:country": "US", "addr:full": "476 ROSE ST", "addr:postcode": "40508", "addr:state": "KY", "brand": "USPS", "collection_times": "Mo-Fr 16:45", "name": "USPS COLLECTION BOX - BLUE BOX", "note": "ON 12/24 AND 12/31, THIS BOX MAY BE COLLECTED AS EARLY AS 12 NOON.", "ref": "4050800008"}, "type": "Feature"}
{"geometry": {"coordinates": [-84.4991246, 38.037073], "type": "Point"}, "id": "7QZrMVLvJ_dnAEGdbZ0UliRQkwM=", "properties": {"@spider": "usps_collection_boxes", "addr:city": "LEXINGTON", "addr:country": "US", "addr:full": "403 LINDEN WALK", "addr:postcode": "40508", "addr:state": "KY", "brand": "USPS", "collection_times": "Mo-Fr 16:45", "name": "USPS COLLECTION BOX - BLUE BOX", "note": "ON 12/24 AND 12/31, THIS BOX MAY BE COLLECTED AS EARLY AS 12 NOON.", "ref": "4050800013"}, "type": "Feature"}
{"geometry": {"coordinates": [-84.5000884, 38.042875], "type": "Point"}, "id": "ijEm58SZcrJUNXkYTXB0pir3LVU=", "properties": {"@spider": "usps_collection_boxes", "addr:city": "LEXINGTON", "addr:country": "US", "addr:full": "135 E MAXWELL ST", "addr:postcode": "40508", "addr:state": "KY", "brand": "USPS", "collection_times": "Mo-Fr 15:00", "name": "USPS COLLECTION BOX - BLUE BOX", "note": "ON 12/24 AND 12/31, THIS BOX MAY BE COLLECTED AS EARLY AS 12 NOON.", "ref": "4050800043"}, "type": "Feature"}
{"geometry": {"coordinates": [-84.4976938, 38.054212], "type": "Point"}, "id": "56UqnX6AOSxQS0dhyyUdZJtDr8Q=", "properties": {"@spider": "usps_collection_boxes", "addr:city": "LEXINGTON", "addr:country": "US", "addr:full": "465 W THIRD ST", "addr:postcode": "40508", "addr:state": "KY", "brand": "USPS", "collection_times": "Mo-Fr 17:00", "name": "USPS COLLECTION BOX - BLUE BOX", "note": "ON 12/24 AND 12/31, THIS BOX MAY BE COLLECTED AS EARLY AS 12 NOON.", "ref": "4050800045"}, "type": "Feature"}
{"geometry": {"coordinates": [-84.5012076, 38.054375], "type": "Point"}, "id": "W15ex48ITZ_gSKvcOnK-9BJ-KBk=", "properties": {"@spider": "usps_collection_boxes", "addr:city": "LEXINGTON", "addr:country": "US", "addr:full": "535 W SECOND ST", "addr:postcode": "40508", "addr:state": "KY", "brand": "USPS", "collection_times": "Mo-Fr 17:00", "name": "USPS COLLECTION BOX - BLUE BOX", "note": "ON 12/24 AND 12/31, THIS BOX MAY BE COLLECTED AS EARLY AS 12 NOON.", "ref": "4050800056"}, "type": "Feature"}
{"geometry": {"coordinates": [-84.4944729, 38.049667], "type": "Point"}, "id": "nW5YuDfcBe1oRcPnomPKlV8W9YA=", "properties": {"@spider": "usps_collection_boxes", "addr:city": "LEXINGTON", "addr:country": "US", "addr:full": "201 MECHANIC ST", "addr:postcode": "40508", "addr:state": "KY", "brand": "USPS", "collection_times": "Mo-Fr 17:00", "name": "USPS COLLECTION BOX - BLUE BOX", "note": "ON 12/24 AND 12/31, THIS BOX MAY BE COLLECTED AS EARLY AS 12 NOON.", "ref": "4050800067"}, "type": "Feature"}
{"geometry": {"coordinates": [-84.5071242, 38.034776], "type": "Point"}, "id": "WAQRipcm6TAY6mQ3LL1Sicy4Tpg=", "properties": {"@spider": "usps_collection_boxes", "addr:city": "LEXINGTON", "addr:country": "US", "addr:full": "125 KENTUCKY CLINIC DR", "addr:postcode": "40508", "addr:state": "KY", "brand": "USPS", "collection_times": "Mo-Fr 16:30", "name": "USPS COLLECTION BOX - BLUE BOX", "note": "ON 12/24 AND 12/31, THIS BOX MAY BE COLLECTED AS EARLY AS 12 NOON.", "ref": "4050800074"}, "type": "Feature"}
{"geometry": {"coordinates": [-84.5087817, 38.033281], "type": "Point"}, "id": "lVO82DKRpTkc8t3VTIjsOYo9aBQ=", "properties": {"@spider": "usps_collection_boxes", "addr:city": "LEXINGTON", "addr:country": "US", "addr:full": "740 S LIMESTONE", "addr:postcode": "40508", "addr:state": "KY", "brand": "USPS", "collection_times": "Mo-Fr 12:45", "name": "USPS COLLECTION BOX - BLUE BOX", "note": "ON 12/24 AND 12/31, THIS BOX MAY BE COLLECTED AS EARLY AS 12 NOON.", "ref": "4050800079"}, "type": "Feature"}
{"geometry": {"coordinates": [-84.4337205, 38.007369], "type": "Point"}, "id": "2AqkYnb3SHL6wlxycwlBKuIPB3o=", "properties": {"@spider": "usps_collection_boxes", "addr:city": "LEXINGTON", "addr:country": "US", "addr:full": "501 DARBY CREEK RD", "addr:postcode": "40509", "addr:state": "KY", "brand": "USPS", "collection_times": "Mo-Fr 15:45", "name": "USPS COLLECTION BOX - BLUE BOX", "note": "ON 12/24 AND 12/31, THIS BOX MAY BE COLLECTED AS EARLY AS 12 NOON.", "ref": "4050900005"}, "type": "Feature"}
{"geometry": {"coordinates": [-84.4544869, 38.019773], "type": "Point"}, "id": "xB-H5fYqPPhZTX67D7R5h7JlWAI=", "properties": {"@spider": "usps_collection_boxes", "addr:city": "LEXINGTON", "addr:country": "US", "addr:full": "1555 E NEW CIRCLE RD", "addr:postcode": "40509", "addr:state": "KY", "brand": "USPS", "collection_times": "Mo-Fr 15:00", "name": "USPS COLLECTION BOX - BLUE BOX", "note": "ON 12/24 AND 12/31, THIS BOX MAY BE COLLECTED AS EARLY AS 12 NOON.", "ref": "4050900006"}, "type": "Feature"}
{"geometry": {"coordinates": [-84.4490005, 38.042196], "type": "Point"}, "id": "AlGWHGdwDFiLcJyFrSHgVZ0JVFM=", "properties": {"@spider": "usps_collection_boxes", "addr:city": "LEXINGTON", "addr:country": "US", "addr:full": "962 BEASLEY ST", "addr:postcode": "40509", "addr:state": "KY", "brand": "USPS", "collection_times": "Mo-Fr 17:00", "name": "USPS COLLECTION BOX - BLUE BOX", "note": "ON 12/24 AND 12/31, THIS BOX MAY BE COLLECTED AS EARLY AS 12 NOON.", "ref": "4050900008"}, "type": "Feature"}
{"geometry": {"coordinates": [-84.4433986, 38.001417], "type": "Point"}, "id": "paNIFfX0NbAM55mkUJlei4P2bIA=", "properties": {"@spider": "usps_collection_boxes", "addr:city": "LEXINGTON", "addr:country": "US", "addr:full": "121 PROSPEROUS PL", "addr:postcode": "40509", "addr:state": "KY", "brand": "USPS", "collection_times": "Mo-Fr 16:00; Sa 14:15", "name": "USPS COLLECTION BOX - BLUE BOX", "note": "ON 12/24 AND 12/31, THIS BOX MAY BE COLLECTED AS EARLY AS 12 NOON.", "ref": "4050900013"}, "type": "Feature"}
{"geometry": {"coordinates": [-84.4441716, 38.00306], "type": "Point"}, "id": "U75Ozfsdptwa1r9VUAt5d_0ajd0=", "properties": {"@spider": "usps_collection_boxes", "addr:city": "LEXINGTON", "addr:country": "US", "addr:full": "3101 RICHMOND RD", "addr:postcode": "40509", "addr:state": "KY", "brand": "USPS", "collection_times": "Mo-Fr 15:15", "name": "USPS COLLECTION BOX - BLUE BOX", "note": "ON 12/24 AND 12/31, THIS BOX MAY BE COLLECTED AS EARLY AS 12 NOON.", "ref": "4050900015"}, "type": "Feature"}
{"geometry": {"coordinates": [-84.4434077, 38.001405], "type": "Point"}, "id": "RA1sBdlw1ms8eq1ZCHUasdQbbzU=", "properties": {"@spider": "usps_collection_boxes", "addr:city": "LEXINGTON", "addr:country": "US", "addr:full": "121 PROSPEROUS PL", "addr:postcode": "40509", "addr:state": "KY", "brand": "USPS", "collection_times": "Mo-Fr 16:00; Sa 14:15", "name": "USPS COLLECTION BOX - BLUE BOX", "note": "ON 12/24 AND 12/31, THIS BOX MAY BE COLLECTED AS EARLY AS 12 NOON.", "ref": "4050900027"}, "type": "Feature"}
{"geometry": {"coordinates": [-84.4489858, 38.042192], "type": "Point"}, "id": "DdvZM8PUwpNh_qgzhbx_tOMrezo=", "properties": {"@spider": "usps_collection_boxes", "addr:city": "LEXINGTON", "addr:country": "US", "addr:full": "962 BEASLEY ST", "addr:postcode": "40509", "addr:state": "KY", "brand": "USPS", "collection_times": "Mo-Fr 17:00", "name": "USPS COLLECTION BOX - BLUE BOX", "note": "ON 12/24 AND 12/31, THIS BOX MAY BE COLLECTED AS EARLY AS 12 NOON.", "ref": "4050900031"}, "type": "Feature"}
{"geometry": {"coordinates": [-84.4410833, 38.003008], "type": "Point"}, "id": "TKHFLLCALTpxFyaDgST2Bc8W4c0=", "properties": {"@spider": "usps_collection_boxes", "addr:city": "LEXINGTON", "addr:country": "US", "addr:full": "161 PROSPEROUS PL", "addr:postcode": "40509", "addr:state": "KY", "brand": "USPS", "collection_times": "Mo-Fr 16:00", "name": "USPS COLLECTION BOX - BLUE BOX", "note": "ON 12/24 AND 12/31, THIS BOX MAY BE COLLECTED AS EARLY AS 12 NOON.", "ref": "4050900032"}, "type": "Feature"}
{"geometry": {"coordinates": [-84.4488006, 38.00444], "type": "Point"}, "id": "XnGYrH5yzDUbujfCq9JSoZk6X_Y=", "properties": {"@spider": "usps_collection_boxes", "addr:city": "LEXINGTON", "addr:country": "US", "addr:full": "2907 RICHMOND RD", "addr:postcode": "40509", "addr:state": "KY", "brand": "USPS", "collection_times": "Mo-Fr 10:45", "name": "USPS COLLECTION BOX - BLUE BOX", "ref": "4050900038"}, "type": "Feature"}
{"geometry": {"coordinates": [-84.4337205, 38.007369], "type": "Point"}, "id": "bgDMpqdOgN31UecO9Ov1Xc6TDVc=", "properties": {"@spider": "usps_collection_boxes", "addr:city": "LEXINGTON", "addr:country": "US", "addr:full": "501 DARBY CREEK RD", "addr:postcode": "40509", "addr:state": "KY", "brand": "USPS", "collection_times": "Mo-Fr 15:45", "name": "USPS COLLECTION BOX - BLUE BOX", "note": "ON 12/24 AND 12/31, THIS BOX MAY BE COLLECTED AS EARLY AS 12 NOON.", "ref": "4050900045"}, "type": "Feature"}
{"geometry": {"coordinates": [-84.4195449, 38.021743], "type": "Point"}, "id": "segD8kqa0LkFE1Y7EoJvZQn4-QI=", "properties": {"@spider": "usps_collection_boxes", "addr:city": "LEXINGTON", "addr:country": "US", "addr:full": "2150 SIR BARTON WAY", "addr:postcode": "40509", "addr:state": "KY", "brand": "USPS", "collection_times": "Mo-Fr 16:45", "name": "USPS COLLECTION BOX - BLUE BOX", "note": "ON 12/24 AND 12/31, THIS BOX MAY BE COLLECTED AS EARLY AS 12 NOON.", "ref": "4050900048"}, "type": "Feature"}
{"geometry": {"coordinates": [-84.4361246, 38.005776], "type": "Point"}, "id": "VKqnXOGzhN2OLe7dXpG3hAv9tR4=", "properties": {"@spider": "usps_collection_boxes", "addr:city": "LEXINGTON", "addr:country": "US", "addr:full": "2800 PALUMBO DR", "addr:postcode": "40509", "addr:state": "KY", "brand": "USPS", "collection_times": "Mo-Fr 11:15", "name": "USPS COLLECTION BOX - BLUE BOX", "ref": "4050900056"}, "type": "Feature"}
{"geometry": {"coordinates": [-84.3834130393, 37.9603599841], "type": "Point"}, "id": "THVq_sEr4NlEMqKp8PTklRt7cw8=", "properties": {"@spider": "usps_collection_boxes", "addr:city": "LEXINGTON", "addr:country": "US", "addr:full": "101 BLUE SKY PKWY", "addr:postcode": "40509", "addr:state": "KY", "brand": "USPS", "collection_times": "Mo-Fr 10:30", "name": "USPS COLLECTION BOX - BLUE BOX", "ref": "4050900057"}, "type": "Feature"}
{"geometry": {"coordinates": [-84.4399424, 38.000755], "type": "Point"}, "id": "OqH8OEE7KruwwNrTGeKEkhwo-LI=", "properties": {"@spider": "usps_collection_boxes", "addr:city": "LEXINGTON", "addr:country": "US", "addr:full": "151 N EAGLE CREEK DR", "addr:postcode": "40509", "addr:state": "KY", "brand": "USPS", "collection_times": "Mo-Fr 16:00", "name": "USPS COLLECTION BOX - BLUE BOX", "note": "ON 12/24 AND 12/31, THIS BOX MAY BE COLLECTED AS EARLY AS 12 NOON.", "ref": "4050900060"}, "type": "Feature"}
{"geometry": {"coordinates": [-84.439947, 38.000762], "type": "Point"}, "id": "faJp_JhAMBtuZd5NkhdXO4KEgOk=", "properties": {"@spider": "usps_collection_boxes", "addr:city": "LEXINGTON", "addr:country": "US", "addr:full": "151 N EAGLE CREEK DR", "addr:postcode": "40509", "addr:state": "KY", "brand": "USPS", "collection_times": "Mo-Fr 16:00", "name": "USPS COLLECTION BOX - BLUE BOX", "note": "ON 12/24 AND 12/31, THIS BOX MAY BE COLLECTED AS EARLY AS 12 NOON.", "ref": "4050900061"}, "type": "Feature"}
{"geometry": {"coordinates": [-84.4222653, 38.015652], "type": "Point"}, "id": "RqDn4ALgDHJBse7i9wRV0_rz4OA=", "properties": {"@spider": "usps_collection_boxes", "addr:city": "LEXINGTON", "addr:country": "US", "addr:full": "1792 ALYSHEBA WAY", "addr:postcode": "40509", "addr:state": "KY", "brand": "USPS", "collection_times": "Mo-Fr 16:15; Sa 14:30", "name": "USPS COLLECTION BOX - BLUE BOX", "note": "ON 12/24 AND 12/31, THIS BOX MAY BE COLLECTED AS EARLY AS 12 NOON.", "ref": "4050900066"}, "type": "Feature"}
{"geometry": {"coordinates": [-84.4222655, 38.015653], "type": "Point"}, "id": "Pp6lz3anlVZAP1drJDNISaQjAX8=", "properties": {"@spider": "usps_collection_boxes", "addr:city": "LEXINGTON", "addr:country": "US", "addr:full": "1792 ALYSHEBA WAY", "addr:postcode": "40509", "addr:state": "KY", "brand": "USPS", "collection_times": "Mo-Fr 16:15; Sa 14:30", "name": "USPS COLLECTION BOX - BLUE BOX", "note": "ON 12/24 AND 12/31, THIS BOX MAY BE COLLECTED AS EARLY AS 12 NOON.", "ref": "4050900067"}, "type": "Feature"}
{"geometry": {"coordinates": [-84.4172080743, 38.0175716127], "type": "Point"}, "id": "XlPX5GYGSo5VXKl_5EaxyHZEbdU=", "properties": {"@spider": "usps_collection_boxes", "addr:city": "LEXINGTON", "addr:country": "US", "addr:full": "1880 PLAUDIT PL", "addr:postcode": "40509", "addr:state": "KY", "brand": "USPS", "collection_times": "Mo-Fr 16:15", "name": "USPS COLLECTION BOX - BLUE BOX", "note": "ON 12/24 AND 12/31, THIS BOX MAY BE COLLECTED AS EARLY AS 12 NOON.", "ref": "4050900069"}, "type": "Feature"}
{"geometry": {"coordinates": [-84.4197133, 38.028042], "type": "Point"}, "id": "8ur1TisZvBJh5LFxasf0rFDNfD8=", "properties": {"@spider": "usps_collection_boxes", "addr:city": "LEXINGTON", "addr:country": "US", "addr:full": "2709 OLD ROSEBUD RD", "addr:postcode": "40509", "addr:state": "KY", "brand": "USPS", "collection_times": "Mo-Fr 16:45", "name": "USPS COLLECTION BOX - BLUE BOX", "note": "ON 12/24 AND 12/31, THIS BOX MAY BE COLLECTED AS EARLY AS 12 NOON.", "ref": "4050900071"}, "type": "Feature"}
{"geometry": {"coordinates": [-84.5481463, 38.062865], "type": "Point"}, "id": "ZN_bkPn-TV69XemsSnZyAyEohJs=", "properties": {"@spider": "usps_collection_boxes", "addr:city": "LEXINGTON", "addr:country": "US", "addr:full": "740 ENTERPRISE DR", "addr:postcode": "40510", "addr:state": "KY", "brand": "USPS", "collection_times": "Mo-Fr 10:30", "name": "USPS COLLECTION BOX - BLUE BOX", "ref": "4051000004"}, "type": "Feature"}
{"geometry": {"coordinates": [-84.5981547, 38.037979], "type": "Point"}, "id": "cpEaYCgRm0OThidbkAJwSWo_KS0=", "properties": {"@spider": "usps_collection_boxes", "addr:city": "LEXINGTON", "addr:country": "US", "addr:full": "4000 VERSAILLES RD", "addr:postcode": "40510", "addr:state": "KY", "brand": "USPS", "collection_times": "Mo-Fr 11:00", "name": "USPS COLLECTION BOX - BLUE BOX", "ref": "4051000008"}, "type": "Feature"}
{"geometry": {"coordinates": [-84.5394227, 38.085348], "type": "Point"}, "id": "1FBOokhxg1r2QSJ_9fJHY4t_QcM=", "properties": {"@spider": "usps_collection_boxes", "addr:city": "LEXINGTON", "addr:country": "US", "addr:full": "501 HORTON CT", "addr:postcode": "40511", "addr:state": "KY", "brand": "USPS", "collection_times": "Mo-Fr 12:45", "name": "USPS COLLECTION BOX - BLUE BOX", "note": "ON 12/24 AND 12/31, THIS BOX MAY BE COLLECTED AS EARLY AS 12 NOON.", "ref": "4051100001"}, "type": "Feature"}
{"geometry": {"coordinates": [-84.519831028, 38.065408994], "type": "Point"}, "id": "C3vBy9dxJ7oayG1yl9PKp4BR4zY=", "properties": {"@spider": "usps_collection_boxes", "addr:city": "LEXINGTON", "addr:country": "US", "addr:full": "1416 N FORBES RD", "addr:postcode": "40511", "addr:state": "KY", "brand": "USPS", "collection_times": "Mo-Fr 10:15", "name": "USPS COLLECTION BOX - BLUE BOX", "ref": "4051100005"}, "type": "Feature"}
{"geometry": {"coordinates": [-84.539150189, 38.081091523], "type": "Point"}, "id": "u7X0xies3vkicvWvLK8HSTodTU8=", "properties": {"@spider": "usps_collection_boxes", "addr:city": "LEXINGTON", "addr:country": "US", "addr:full": "2035 MERCER RD", "addr:postcode": "40511", "addr:state": "KY", "brand": "USPS", "collection_times": "Mo-Fr 12:45", "name": "USPS COLLECTION BOX - BLUE BOX", "note": "ON 12/24 AND 12/31, THIS BOX MAY BE COLLECTED AS EARLY AS 12 NOON.", "ref": "4051100007"}, "type": "Feature"}
{"geometry": {"coordinates": [-84.525813025, 38.06560798], "type": "Point"}, "id": "tUjGDfYJclXFU1_RQUmxhaVodLY=", "properties": {"@spider": "usps_collection_boxes", "addr:city": "LEXINGTON", "addr:country": "US", "addr:full": "1588 LEESTOWN RD", "addr:postcode": "40511", "addr:state": "KY", "brand": "USPS", "collection_times": "Mo-Fr 10:00", "name": "USPS COLLECTION BOX - BLUE BOX", "ref": "4051100014"}, "type": "Feature"}
{"geometry": {"coordinates": [-84.5218499, 38.064973], "type": "Point"}, "id": "N4lJljlTY5cD2IciaHq3jw0ggvU=", "properties": {"@spider": "usps_collection_boxes", "addr:city": "LEXINGTON", "addr:country": "US", "addr:full": "1451 LEESTOWN RD", "addr:postcode": "40511", "addr:state": "KY", "brand": "USPS", "collection_times": "Mo-Fr 10:15", "name": "USPS COLLECTION BOX - BLUE BOX", "ref": "4051100015"}, "type": "Feature"}
{"geometry": {"coordinates": [-84.482235, 38.069946], "type": "Point"}, "id": "YAjtW4Q66P_nJjhhmWiD3QzTYlE=", "properties": {"@spider": "usps_collection_boxes", "addr:city": "LEXINGTON", "addr:country": "US", "addr:full": "455 PARK PL", "addr:postcode": "40511", "addr:state": "KY", "brand": "USPS", "collection_times": "Mo-Fr 09:45", "name": "USPS COLLECTION BOX - BLUE BOX", "ref": "4051100046"}, "type": "Feature"}
{"geometry": {"coordinates": [-84.5432114, 38.076902], "type": "Point"}, "id": "Po0M2iakHVitQjny6f_tYhIYiD4=", "properties": {"@spider": "usps_collection_boxes", "addr:city": "LEXINGTON", "addr:country": "US", "addr:full": "110 TRADE ST", "addr:postcode": "40511", "addr:state": "KY", "brand": "USPS", "collection_times": "Mo-Fr 12:45", "name": "USPS COLLECTION BOX - BLUE BOX", "note": "ON 12/24 AND 12/31, THIS BOX MAY BE COLLECTED AS EARLY AS 12 NOON.", "ref": "4051100057"}, "type": "Feature"}
{"geometry": {"coordinates": [-84.4884199, 38.087465], "type": "Point"}, "id": "K4RGtnBQ6Jc8EiXB0wS4j9JH5cg=", "properties": {"@spider": "usps_collection_boxes", "addr:city": "LEXINGTON", "addr:country": "US", "addr:full": "1510 NEWTOWN PIKE", "addr:postcode": "40511", "addr:state": "KY", "brand": "USPS", "collection_times": "Mo-Fr 11:45", "name": "USPS COLLECTION BOX - BLUE BOX", "ref": "4051100061"}, "type": "Feature"}
{"geometry": {"coordinates": [-84.5489959, 38.082146], "type": "Point"}, "id": "vnulKSwSnC9MmM2fL_P7lEo4Vo8=", "properties": {"@spider": "usps_collection_boxes", "addr:city": "LEXINGTON", "addr:country": "US", "addr:full": "100 VENTURE CT", "addr:postcode": "40511", "addr:state": "KY", "brand": "USPS", "collection_times": "Mo-Fr 12:45", "name": "USPS COLLECTION BOX - BLUE BOX", "note": "ON 12/24 AND 12/31, THIS BOX MAY BE COLLECTED AS EARLY AS 12 NOON.", "ref": "4051100063"}, "type": "Feature"}
{"geometry": {"coordinates": [-84.504577976, 38.077663001], "type": "Point"}, "id": "FlUTywDkKhhkKNCx2yJS9JDSVsA=", "properties": {"@spider": "usps_collection_boxes", "addr:city": "LEXINGTON", "addr:country": "US", "addr:full": "1088 NANDINO BLVD", "addr:postcode": "40511", "addr:state": "KY", "brand": "USPS", "collection_times": "Mo-Sa 20:00", "name": "USPS COLLECTION BOX - BLUE BOX", "note": "ON 12/24 AND 12/31, THIS BOX MAY BE COLLECTED AS EARLY AS 12 NOON.", "ref": "4051100075"}, "type": "Feature"}
{"geometry": {"coordinates": [-84.506253718, 38.077763121], "type": "Point"}, "id": "qZV4L5rYQ-SnzGm34P_0_2Tn1mU=", "properties": {"@spider": "usps_collection_boxes", "addr:city": "LEXINGTON", "addr:country": "US", "addr:full": "1088 NANDINO BLVD", "addr:postcode": "40511", "addr:state": "KY", "brand": "USPS", "collection_times": "Mo-Sa 20:00", "name": "USPS COLLECTION BOX - BLUE BOX", "note": "ON 12/24 AND 12/31, THIS BOX MAY BE COLLECTED AS EARLY AS 12 NOON.", "ref": "4051100079"}, "type": "Feature"}
{"geometry": {"coordinates": [-84.506253718, 38.077763121], "type": "Point"}, "id": "qPR2lZVxv5kcjITAUeHIUFk1Eq8=", "properties": {"@spider": "usps_collection_boxes", "addr:city": "LEXINGTON", "addr:country": "US", "addr:full": "1088 NANDINO BLVD", "addr:postcode": "40511", "addr:state": "KY", "brand": "USPS", "collection_times": "Mo-Sa 20:00", "name": "USPS COLLECTION BOX - PO LOBBY", "note": "ON 12/24 AND 12/31, THIS BOX MAY BE COLLECTED AS EARLY AS 12 NOON.", "ref": "4051100082"}, "type": "Feature"}
{"geometry": {"coordinates": [-84.506253718, 38.077763121], "type": "Point"}, "id": "yvjJwfd9GNGbG2ECODskzZnGb4E=", "properties": {"@spider": "usps_collection_boxes", "addr:city": "LEXINGTON", "addr:country": "US", "addr:full": "1088 NANDINO BLVD", "addr:postcode": "40511", "addr:state": "KY", "brand": "USPS", "collection_times": "Mo-Sa 20:00", "name": "USPS COLLECTION BOX - PO LOBBY", "note": "ON 12/24 AND 12/31, THIS BOX MAY BE COLLECTED AS EARLY AS 12 NOON.", "ref": "4051100083"}, "type": "Feature"}
{"geometry": {"coordinates": [-84.506253718, 38.077763121], "type": "Point"}, "id": "qpnaUqg9bWrIAY21wJAvGcgmuqY=", "properties": {"@spider": "usps_collection_boxes", "addr:city": "LEXINGTON", "addr:country": "US", "addr:full": "1088 NANDINO BLVD", "addr:postcode": "40511", "addr:state": "KY", "brand": "USPS", "collection_times": "Mo-Sa 20:00", "name": "USPS COLLECTION BOX - APC", "note": "ON 12/24 AND 12/31, THIS BOX MAY BE COLLECTED AS EARLY AS 12 NOON.", "ref": "4051100086"}, "type": "Feature"}
{"geometry": {"coordinates": [-84.4804755, 38.070396], "type": "Point"}, "id": "x3xsRSpNqWoAv8vAz_hea5WYf44=", "properties": {"@spider": "usps_collection_boxes", "addr:city": "LEXINGTON", "addr:country": "US", "addr:full": "500 W NEW CIRCLE RD", "addr:postcode": "40511", "addr:state": "KY", "brand": "USPS", "collection_times": "Mo-Fr 09:45", "name": "USPS COLLECTION BOX - BLUE BOX", "ref": "4051100087"}, "type": "Feature"}
{"geometry": {"coordinates": [-84.528289039, 38.067740001], "type": "Point"}, "id": "Sdn_Ruxh89MNnqlBDPUiDd6ILBA=", "properties": {"@spider": "usps_collection_boxes", "addr:city": "LEXINGTON", "addr:country": "US", "addr:full": "1720 SHARKEY WAY", "addr:postcode": "40511", "addr:state": "KY", "brand": "USPS", "collection_times": "Mo-Fr 10:00", "name": "USPS COLLECTION BOX - BLUE BOX", "ref": "4051100089"}, "type": "Feature"}
{"geometry": {"coordinates": [-84.520734, 38.148276], "type": "Point"}, "id": "Bbp3TlWaV_bTLXo54FyrYFlJhvQ=", "properties": {"@spider": "usps_collection_boxes", "addr:city": "LEXINGTON", "addr:country": "US", "addr:full": "4089 IRON WORKS PKWY", "addr:postcode": "40511", "addr:state": "KY", "brand": "USPS", "collection_times": "Mo-Fr 16:15", "name": "USPS COLLECTION BOX - BLUE BOX", "note": "ON 12/24 AND 12/31, THIS BOX MAY BE COLLECTED AS EARLY AS 12 NOON.", "ref": "4051100094"}, "type": "Feature"}
{"geometry": {"coordinates": [-84.4936264, 38.088947], "type": "Point"}, "id": "Bcwi8V8iEiUcCcxGNbDYERaow1U=", "properties": {"@spider": "usps_collection_boxes", "addr:city": "LEXINGTON", "addr:country": "US", "addr:full": "1500 BULL LEA RD", "addr:postcode": "40511", "addr:state": "KY", "brand": "USPS", "collection_times": "Mo-Fr 17:00", "name": "USPS COLLECTION BOX - BLUE BOX", "note": "ON 12/24 AND 12/31, THIS BOX MAY BE COLLECTED AS EARLY AS 12 NOON.", "ref": "4051100097"}, "type": "Feature"}
{"geometry": {"coordinates": [-84.506253718, 38.077763121], "type": "Point"}, "id": "7E0i5nALncOa17rCc7tzWJ1wiZk=", "properties": {"@spider": "usps_collection_boxes", "addr:city": "LEXINGTON", "addr:country": "US", "addr:full": "1088 NANDINO BLVD", "addr:postcode": "40511", "addr:state": "KY", "brand": "USPS", "collection_times": "Mo-Fr 18:00; Sa 17:00", "name": "USPS COLLECTION BOX - PO LOBBY", "note": "ON 12/24 AND 12/31, THIS BOX MAY BE COLLECTED AS EARLY AS 12 NOON.", "ref": "4051100099"}, "type": "Feature"}
{"geometry": {"coordinates": [-84.5712287, 38.004022], "type": "Point"}, "id": "qQ9rUMbqO08HhAy4URYND7Ehsec=", "properties": {"@spider": "usps_collection_boxes", "addr:city": "LEXINGTON", "addr:country": "US", "addr:full": "3735 PALOMAR CENTRE DR", "addr:postcode": "40513", "addr:state": "KY", "brand": "USPS", "collection_times": "Mo-Fr 14:00; Sa 13:00", "name": "USPS COLLECTION BOX - BLUE BOX", "note": "ON 12/24 AND 12/31, THIS BOX MAY BE COLLECTED AS EARLY AS 12 NOON.", "ref": "4051300001"}, "type": "Feature"}
{"geometry": {"coordinates": [-84.5712195, 38.00403], "type": "Point"}, "id": "W3AdjI0keMwJxtJEZz479BtLgM8=", "properties": {"@spider": "usps_collection_boxes", "addr:city": "LEXINGTON", "addr:country": "US", "addr:full": "3735 PALOMAR CENTRE DR", "addr:postcode": "40513", "addr:state": "KY", "brand": "USPS", "collection_times": "Mo-Fr 14:00; Sa 13:00", "name": "USPS COLLECTION BOX - BLUE BOX", "note": "ON 12/24 AND 12/31, THIS BOX MAY BE COLLECTED AS EARLY AS 12 NOON.", "ref": "4051300003"}, "type": "Feature"}
{"geometry": {"coordinates": [-84.5721859879, 38.0065239864], "type": "Point"}, "id": "4I1kC-fUdYIHpon8U-tGLlnm5Jo=", "properties": {"@spider": "usps_collection_boxes", "addr:city": "LEXINGTON", "addr:country": "US", "addr:full": "1088 WELLINGTON WAY", "addr:postcode": "40513", "addr:state": "KY", "brand": "USPS", "collection_times": "Mo-Fr 14:15", "name": "USPS COLLECTION BOX - BLUE BOX", "note": "ON 12/24 AND 12/31, THIS BOX MAY BE COLLECTED AS EARLY AS 12 NOON.", "ref": "4051300011"}, "type": "Feature"}
{"geometry": {"coordinates": [-84.558144172, 38.023482298], "type": "Point"}, "id": "hVwIABLJ4FLKKA3sihT6Z_Hb1Yg=", "properties": {"@spider": "usps_collection_boxes", "addr:city": "LEXINGTON", "addr:country": "US", "addr:full": "1025 MAJESTIC DR", "addr:postcode": "40513", "addr:state": "KY", "brand": "USPS", "collection_times": "Mo-Sa 17:00", "name": "USPS COLLECTION BOX - PO LOBBY", "note": "ON 12/24 AND 12/31, THIS BOX MAY BE COLLECTED AS EARLY AS 12 NOON.", "ref": "4051300014"}, "type": "Feature"}
{"geometry": {"coordinates": [-84.5576380214, 38.0237159822], "type": "Point"}, "id": "pV8Yih1mS4VX6A7ea837EkY0nS8=", "properties": {"@spider": "usps_collection_boxes", "addr:city": "LEXINGTON", "addr:country": "US", "addr:full": "1025 MAJESTIC DR", "addr:postcode": "40513", "addr:state": "KY", "brand": "USPS", "collection_times": "Mo-Fr 18:00; Sa 17:00", "name": "USPS COLLECTION BOX - BLUE BOX", "note": "ON 12/24 AND 12/31, THIS BOX MAY BE COLLECTED AS EARLY AS 12 NOON.", "ref": "4051300015"}, "type": "Feature"}
{"geometry": {"coordinates": [-84.558144172, 38.023482298], "type": "Point"}, "id": "KjtzeRDpnlNWBheLhi66x5qVEIU=", "properties": {"@spider": "usps_collection_boxes", "addr:city": "LEXINGTON", "addr:country": "US", "addr:full": "1025 MAJESTIC DR", "addr:postcode": "40513", "addr:state": "KY", "brand": "USPS", "collection_times": "Mo-Sa 17:00", "name": "USPS COLLECTION BOX - APC", "note": "ON 12/24 AND 12/31, THIS BOX MAY BE COLLECTED AS EARLY AS 12 NOON.", "ref": "4051300021"}, "type": "Feature"}
{"geometry": {"coordinates": [-84.558144172, 38.023482298], "type": "Point"}, "id": "rQumnMjzDZL2Ep4vjamA1lOqCZ8=", "properties": {"@spider": "usps_collection_boxes", "addr:city": "LEXINGTON", "addr:country": "US", "addr:full": "1025 MAJESTIC DR", "addr:postcode": "40513", "addr:state": "KY", "brand": "USPS", "collection_times": "Mo-Fr 17:00; Sa 13:00", "name": "USPS COLLECTION BOX - PO LOBBY", "note": "ON 12/24 AND 12/31, THIS BOX MAY BE COLLECTED AS EARLY AS 12 NOON.", "ref": "4051300026"}, "type": "Feature"}
{"geometry": {"coordinates": [-84.5489835, 37.979496], "type": "Point"}, "id": "VPPYb4tZaYDjx2wkYeDchzaZGvA=", "properties": {"@spider": "usps_collection_boxes", "addr:city": "LEXINGTON", "addr:country": "US", "addr:full": "3650 BOSTON RD", "addr:postcode": "40514", "addr:state": "KY", "brand": "USPS", "collection_times": "Mo-Fr 10:00", "name": "USPS COLLECTION BOX - BLUE BOX", "ref": "4051400000"}, "type": "Feature"}
{"geometry": {"coordinates": [-84.4792519, 37.961794], "type": "Point"}, "id": "PDDJQpBWeC541jiuAu-XiMFAKcQ=", "properties": {"@spider": "usps_collection_boxes", "addr:city": "LEXINGTON", "addr:country": "US", "addr:full": "4750 HARTLAND PKWY", "addr:postcode": "40515", "addr:state": "KY", "brand": "USPS", "collection_times": "Mo-Fr 10:30", "name": "USPS COLLECTION BOX - BLUE BOX", "ref": "4051500004"}, "type": "Feature"}
{"geometry": {"coordinates": [-84.5009653, 37.967346], "type": "Point"}, "id": "tzS_RaO5RptduQul8cH4zkk5rEY=", "properties": {"@spider": "usps_collection_boxes", "addr:city": "LEXINGTON", "addr:country": "US", "addr:full": "4230 SARON DR", "addr:postcode": "40515", "addr:state": "KY", "brand": "USPS", "collection_times": "Mo-Fr 10:15", "name": "USPS COLLECTION BOX - BLUE BOX", "ref": "4051500007"}, "type": "Feature"}
{"geometry": {"coordinates": [-84.4583126, 37.976859], "type": "Point"}, "id": "QyGAx6i7C-w_miCS2F9ezQ5-ye8=", "properties": {"@spider": "usps_collection_boxes", "addr:city": "LEXINGTON", "addr:country": "US", "addr:full": "3429 BUCKHORN DR", "addr:postcode": "40515", "addr:state": "KY", "brand": "USPS", "collection_times": "Mo-Fr 10:30", "name": "USPS COLLECTION BOX - BLUE BOX", "ref": "4051500009"}, "type": "Feature"}
{"geometry": {"coordinates": [-84.516597, 37.988055], "type": "Point"}, "id": "xe8mSeIpVCE0GI14lwn2_aa0CMQ=", "properties": {"@spider": "usps_collection_boxes", "addr:city": "LEXINGTON", "addr:country": "US", "addr:full": "3525 LANSDOWNE DR", "addr:postcode": "40517", "addr:state": "KY", "brand": "USPS", "collection_times": "Mo-Fr 18:00; Sa 17:00", "name": "USPS COLLECTION BOX - BLUE BOX", "note": "ON 12/24 AND 12/31, THIS BOX MAY BE COLLECTED AS EARLY AS 12 NOON.", "ref": "4051700002"}, "type": "Feature"}
{"geometry": {"coordinates": [-84.516597, 37.988055], "type": "Point"}, "id": "M0R8Qzyc70QuqgR1D8HbmRrN2K4=", "properties": {"@spider": "usps_collection_boxes", "addr:city": "LEXINGTON", "addr:country": "US", "addr:full": "3525 LANSDOWNE DR", "addr:postcode": "40517", "addr:state": "KY", "brand": "USPS", "collection_times": "Mo-Sa 17:00", "name": "USPS COLLECTION BOX - APC", "note": "ON 12/24 AND 12/31, THIS BOX MAY BE COLLECTED AS EARLY AS 12 NOON.", "ref": "4051700003"}, "type": "Feature"}
{"geometry": {"coordinates": [-84.459573, 37.98963], "type": "Point"}, "id": "Uwa9xhEZSKMPuKJStg4qEsyOZK0=", "properties": {"@spider": "usps_collection_boxes", "addr:city": "LEXINGTON", "addr:country": "US", "addr:full": "3131 CUSTER DR", "addr:postcode": "40517", "addr:state": "KY", "brand": "USPS", "collection_times": "Mo-Fr 10:45; Sa 14:00", "name": "USPS COLLECTION BOX - BLUE BOX", "note": "ON 12/24 AND 12/31, THIS BOX MAY BE COLLECTED AS EARLY AS 12 NOON.", "ref": "4051700009"}, "type": "Feature"}
{"geometry": {"coordinates": [-84.499497312, 37.973553673], "type": "Point"}, "id": "4UH4l8SGVvZjzwHt__xlin7HPYw=", "properties": {"@spider": "usps_collection_boxes", "addr:city": "LEXINGTON", "addr:country": "US", "addr:full": "4071 TATES CREEK CENTRE DR", "addr:postcode": "40517", "addr:state": "KY", "brand": "USPS", "collection_times": "Mo-Fr 14:00", "name": "USPS COLLECTION BOX - BLUE BOX", "note": "ON 12/24 AND 12/31, THIS BOX MAY BE COLLECTED AS EARLY AS 12 NOON.", "ref": "4051700019"}, "type": "Feature"}
{"geometry": {"coordinates": [-84.499446147, 37.973683005], "type": "Point"}, "id": "k9_8flnLPrE2-zqVRN6L3llCjjU=", "properties": {"@spider": "usps_collection_boxes", "addr:city": "LEXINGTON", "addr:country": "US", "addr:full": "4053 TATES CREEK CENTRE DR", "addr:postcode": "40517", "addr:state": "KY", "brand": "USPS", "collection_times": "Mo-Fr 14:00; Sa 13:30", "name": "USPS COLLECTION BOX - BLUE BOX", "note": "ON 12/24 AND 12/31, THIS BOX MAY BE COLLECTED AS EARLY AS 12 NOON.", "ref": "4051700023"}, "type": "Feature"}
{"geometry": {"coordinates": [-84.455362976, 38.008559044], "type": "Point"}, "id": "XfNE4U5x0V5eYO0b83n0U-xY8eU=", "properties": {"@spider": "usps_collection_boxes", "addr:city": "LEXINGTON", "addr:country": "US", "addr:full": "153 PATCHEN DR", "addr:postcode": "40517", "addr:state": "KY", "brand": "USPS", "collection_times": "Mo-Fr 11:00", "name": "USPS COLLECTION BOX - BLUE BOX", "ref": "4051700028"}, "type": "Feature"}
{"geometry": {"coordinates": [-84.461391, 37.984995], "type": "Point"}, "id": "nm6wrvGnSwrkNKIy1ZD3TjaJwjU=", "properties": {"@spider": "usps_collection_boxes", "addr:city": "LEXINGTON", "addr:country": "US", "addr:full": "3120 PIMLICO PKWY", "addr:postcode": "40517", "addr:state": "KY", "brand": "USPS", "collection_times": "Mo-Fr 10:45", "name": "USPS COLLECTION BOX - BLUE BOX", "ref": "4051700030"}, "type": "Feature"}
{"geometry": {"coordinates": [-84.516597, 37.988055], "type": "Point"}, "id": "TavCAUvlt0iHWypzTR3r1S29uyo=", "properties": {"@spider": "usps_collection_boxes", "addr:city": "LEXINGTON", "addr:country": "US", "addr:full": "3525 LANSDOWNE DR", "addr:postcode": "40517", "addr:state": "KY", "brand": "USPS", "collection_times": "Mo-Fr 18:00; Sa 17:00", "name": "USPS COLLECTION BOX - BLUE BOX", "note": "ON 12/24 AND 12/31, THIS BOX MAY BE COLLECTED AS EARLY AS 12 NOON.", "ref": "4051700033"}, "type": "Feature"}
{"geometry": {"coordinates": [-84.516597, 37.988055], "type": "Point"}, "id": "QHxGMJQsyQaQGDUZfqRg0v_pGDI=", "properties": {"@spider": "usps_collection_boxes", "addr:city": "LEXINGTON", "addr:country": "US", "addr:full": "3525 LANSDOWNE DR", "addr:postcode": "40517", "addr:state": "KY", "brand": "USPS", "collection_times": "Mo-Sa 17:00", "name": "USPS COLLECTION BOX - PO LOBBY", "note": "ON 12/24 AND 12/31, THIS BOX MAY BE COLLECTED AS EARLY AS 12 NOON.", "ref": "4051700034"}, "type": "Feature"}
{"geometry": {"coordinates": [-84.4609469848, 37.9869809924], "type": "Point"}, "id": "LI8kv0mVg49CgxGV0XqDN9pTqUU=", "properties": {"@spider": "usps_collection_boxes", "addr:city": "LEXINGTON", "addr:country": "US", "addr:full": "3199 CUSTER DR", "addr:postcode": "40517", "addr:state": "KY", "brand": "USPS", "collection_times": "Mo-Fr 10:45", "name": "USPS COLLECTION BOX - BLUE BOX", "ref": "4051700035"}, "type": "Feature"}
{"geometry": {"coordinates": [-84.461391, 37.984995], "type": "Point"}, "id": "Bde_yLfoGfD6DS_XfhwM3eW0VW8=", "properties": {"@spider": "usps_collection_boxes", "addr:city": "LEXINGTON", "addr:country": "US", "addr:full": "3120 PIMLICO PKWY", "addr:postcode": "40517", "addr:state": "KY", "brand": "USPS", "collection_times": "Mo-Fr 10:45", "name": "USPS COLLECTION BOX - BLUE BOX", "ref": "4051700036"}, "type": "Feature"}
{"geometry": {"coordinates": [-84.462534344, 37.99478785], "type": "Point"}, "id": "LxviaenvGtlkzfecmn4LecK7JPE=", "properties": {"@spider": "usps_collection_boxes", "addr:city": "LEXINGTON", "addr:country": "US", "addr:full": "699 PERIMETER DR", "addr:postcode": "40517", "addr:state": "KY", "brand": "USPS", "collection_times": "Mo-Fr 14:45; Sa 13:45", "name": "USPS COLLECTION BOX - BLUE BOX", "note": "ON 12/24 AND 12/31, THIS BOX MAY BE COLLECTED AS EARLY AS 12 NOON.", "ref": "4051700037"}, "type": "Feature"}
{"geometry": {"coordinates": [-84.462534344, 37.99478785], "type": "Point"}, "id": "ujx3CPTJNILFYjAw_xZw62S3Aks=", "properties": {"@spider": "usps_collection_boxes", "addr:city": "LEXINGTON", "addr:country": "US", "addr:full": "699 PERIMETER DR", "addr:postcode": "40517", "addr:state": "KY", "brand": "USPS", "collection_times": "Mo-Fr 14:45; Sa 13:45", "name": "USPS COLLECTION BOX - BLUE BOX", "note": "ON 12/24 AND 12/31, THIS BOX MAY BE COLLECTED AS EARLY AS 12 NOON.", "ref": "4051700038"}, "type": "Feature"}
{"geometry": {"coordinates": [-84.46419, 37.994292], "type": "Point"}, "id": "MzYVWnQxXmWJMo90-yGGK_KxYuo=", "properties": {"@spider": "usps_collection_boxes", "addr:city": "LEXINGTON", "addr:country": "US", "addr:full": "2333 ALUMNI PARK PLZ", "addr:postcode": "40517", "addr:state": "KY", "brand": "USPS", "collection_times": "Mo-Fr 14:30; Sa 14:00", "name": "USPS COLLECTION BOX - BLUE BOX", "note": "ON 12/24 AND 12/31, THIS BOX MAY BE COLLECTED AS EARLY AS 12 NOON.", "ref": "4051700053"}, "type": "Feature"}
{"geometry": {"coordinates": [-84.498975745, 37.980176294], "type": "Point"}, "id": "i1Svr555myVgK_ZyxdDNkjZsVfE=", "properties": {"@spider": "usps_collection_boxes", "addr:city": "LEXINGTON", "addr:country": "US", "addr:full": "3620 WALDEN DR", "addr:postcode": "40517", "addr:state": "KY", "brand": "USPS", "collection_times": "Mo-Fr 14:00", "name": "USPS COLLECTION BOX - BLUE BOX", "note": "ON 12/24 AND 12/31, THIS BOX MAY BE COLLECTED AS EARLY AS 12 NOON.", "ref": "4051700058"}, "type": "Feature"}
{"geometry": {"coordinates": [-84.516597, 37.988055], "type": "Point"}, "id": "67TsUM7ILXY4Pi7myMBKM8fXl7g=", "properties": {"@spider": "usps_collection_boxes", "addr:city": "LEXINGTON", "addr:country": "US", "addr:full": "3525 LANSDOWNE DR", "addr:postcode": "40517", "addr:state": "KY", "brand": "USPS", "collection_times": "Mo-Fr 19:00; Sa 17:00", "name": "USPS COLLECTION BOX - PO LOBBY", "note": "ON 12/24 AND 12/31, THIS BOX MAY BE COLLECTED AS EARLY AS 12 NOON.", "ref": "4051700064"}, "type": "Feature"}
