{"dataset_attributes": {"@spider": "usps_collection_boxes", "spider:collection_time": "2023-10-19T08:25:27.646942"}, "geometry": {"coordinates": [-84.879105643, 38.199383322], "type": "Point"}, "id": "2Xv1UqATWOjfahqsiPw1hyLUaLs=", "properties": {"@spider": "usps_collection_boxes", "addr:city": "FRANKFORT", "addr:country": "US", "addr:full": "321 WASHINGTON ST", "addr:postcode": "40601", "addr:state": "KY", "amenity": "post_box", "brand": "United States Postal Service", "brand:wikidata": "Q668687", "collection_times": "Mo-Fr 16:30; Sa 16:15", "name": "USPS COLLECTION BOX - BLUE BOX", "note": "ON 12/24 AND 12/31, THIS BOX MAY BE COLLECTED AS EARLY AS 12 NOON.", "nsi_id": "unitedstatespostalservice-a77078", "operator": "United States Postal Service", "operator:short": "USPS", "operator:type": "public", "operator:wikidata": "Q668687", "ref": "4060100010"}, "type": "Feature"}
{"dataset_attributes": {"@spider": "usps_collection_boxes", "spider:collection_time": "2023-10-19T08:25:27.646942"}, "geometry": {"coordinates": [-84.8618352, 38.196245], "type": "Point"}, "id": "t5EaJFydqyOfo3DfJOdDUA4iy48=", "properties": {"@spider": "usps_collection_boxes", "addr:city": "FRANKFORT", "addr:country": "US", "addr:full": "275 E MAIN ST", "addr:postcode": "40601", "addr:state": "KY", "amenity": "post_box", "brand": "United States Postal Service", "brand:wikidata": "Q668687", "collection_times": "Mo-Sa 11:45", "name": "USPS COLLECTION BOX - BLUE BOX", "nsi_id": "unitedstatespostalservice-a77078", "operator": "United States Postal Service", "operator:short": "USPS", "operator:type": "public", "operator:wikidata": "Q668687", "ref": "4060100013"}, "type": "Feature"}
{"dataset_attributes": {"@spider": "usps_collection_boxes", "spider:collection_time": "2023-10-19T08:25:27.646942"}, "geometry": {"coordinates": [-84.8266845, 38.198921], "type": "Point"}, "id": "6Zgq2_cqb7sWzbEV94sk1fmSf98=", "properties": {"@spider": "usps_collection_boxes", "addr:city": "FRANKFORT", "addr:country": "US", "addr:full": "302 BRIGHTON PARK BLVD", "addr:postcode": "40601", "addr:state": "KY", "amenity": "post_box", "brand": "United States Postal Service", "brand:wikidata": "Q668687", "collection_times": "Mo-Sa 13:45", "name": "USPS COLLECTION BOX - BLUE BOX", "note": "ON 12/24 AND 12/31, THIS BOX MAY BE COLLECTED AS EARLY AS 12 NOON.", "nsi_id": "unitedstatespostalservice-a77078", "operator": "United States Postal Service", "operator:short": "USPS", "operator:type": "public", "operator:wikidata": "Q668687", "ref": "4060100036"}, "type": "Feature"}
{"dataset_attributes": {"@spider": "usps_collection_boxes", "spider:collection_time": "2023-10-19T08:25:27.646942"}, "geometry": {"coordinates": [-84.8202281, 38.196905], "type": "Point"}, "id": "NWDpxHboCwkfLgmoIs_SE2hQgYo=", "properties": {"@spider": "usps_collection_boxes", "addr:city": "FRANKFORT", "addr:country": "US", "addr:full": "400 COUNTRY LN", "addr:postcode": "40601", "addr:state": "KY", "amenity": "post_box", "brand": "United States Postal Service", "brand:wikidata": "Q668687", "collection_times": "Mo-Fr 12:45; Sa 14:15", "name": "USPS COLLECTION BOX - BLUE BOX", "note": "ON 12/24 AND 12/31, THIS BOX MAY BE COLLECTED AS EARLY AS 12 NOON.", "nsi_id": "unitedstatespostalservice-a77078", "operator": "United States Postal Service", "operator:short": "USPS", "operator:type": "public", "operator:wikidata": "Q668687", "ref": "4060100037"}, "type": "Feature"}
{"dataset_attributes": {"@spider": "usps_collection_boxes", "spider:collection_time": "2023-10-19T08:25:27.646942"}, "geometry": {"coordinates": [-84.8848918, 38.183906], "type": "Point"}, "id": "t6sPl_brInhK1RBxn43nfUBjxhI=", "properties": {"@spider": "usps_collection_boxes", "addr:city": "FRANKFORT", "addr:country": "US", "addr:full": "900 LEAWOOD DR", "addr:postcode": "40601", "addr:state": "KY", "amenity": "post_box", "brand": "United States Postal Service", "brand:wikidata": "Q668687", "collection_times": "Mo-Sa 15:30", "name": "USPS COLLECTION BOX - BLUE BOX", "note": "ON 12/24 AND 12/31, THIS BOX MAY BE COLLECTED AS EARLY AS 12 NOON.", "nsi_id": "unitedstatespostalservice-a77078", "operator": "United States Postal Service", "operator:short": "USPS", "operator:type": "public", "operator:wikidata": "Q668687", "ref": "4060100041"}, "type": "Feature"}
{"dataset_attributes": {"@spider": "usps_collection_boxes", "spider:collection_time": "2023-10-19T08:25:27.646942"}, "geometry": {"coordinates": [-84.8763215, 38.186729], "type": "Point"}, "id": "vVMeZDsCoVABzECOWgUepoACY9E=", "properties": {"@spider": "usps_collection_boxes", "addr:city": "FRANKFORT", "addr:country": "US", "addr:full": "700 CAPITOL AVE", "addr:postcode": "40601", "addr:state": "KY", "amenity": "post_box", "brand": "United States Postal Service", "brand:wikidata": "Q668687", "collection_times": "Mo-Fr 16:00; Sa 13:00", "name": "USPS COLLECTION BOX - BLUE BOX", "note": "ON 12/24 AND 12/31, THIS BOX MAY BE COLLECTED AS EARLY AS 12 NOON.", "nsi_id": "unitedstatespostalservice-a77078", "operator": "United States Postal Service", "operator:short": "USPS", "operator:type": "public", "operator:wikidata": "Q668687", "ref": "4060100047"}, "type": "Feature"}
{"dataset_attributes": {"@spider": "usps_collection_boxes", "spider:collection_time": "2023-10-19T08:25:27.646942"}, "geometry": {"coordinates": [-84.8243926, 38.191151], "type": "Point"}, "id": "X-jGty0RRJ5qpHGhIgJWm8evvGU=", "properties": {"@spider": "usps_collection_boxes", "addr:city": "FRANKFORT", "addr:country": "US", "addr:full": "601 VERSAILLES RD", "addr:postcode": "40601", "addr:state": "KY", "amenity": "post_box", "brand": "United States Postal Service", "brand:wikidata": "Q668687", "collection_times": "Sa 14:00", "name": "USPS COLLECTION BOX - BLUE BOX", "note": "ON 12/24 AND 12/31, THIS BOX MAY BE COLLECTED AS EARLY AS 12 NOON.", "nsi_id": "unitedstatespostalservice-a77078", "operator": "United States Postal Service", "operator:short": "USPS", "operator:type": "public", "operator:wikidata": "Q668687", "ref": "4060100054"}, "type": "Feature"}
{"dataset_attributes": {"@spider": "usps_collection_boxes", "spider:collection_time": "2023-10-19T08:25:27.646942"}, "geometry": {"coordinates": [-84.8088721, 38.174568], "type": "Point"}, "id": "5RhPICBnXrZNtNcqXhvCyumfkg0=", "properties": {"@spider": "usps_collection_boxes", "addr:city": "FRANKFORT", "addr:country": "US", "addr:full": "290 CHENAULT RD", "addr:postcode": "40601", "addr:state": "KY", "amenity": "post_box", "brand": "United States Postal Service", "brand:wikidata": "Q668687", "collection_times": "Sa 14:00", "name": "USPS COLLECTION BOX - BLUE BOX", "note": "ON 12/24 AND 12/31, THIS BOX MAY BE COLLECTED AS EARLY AS 12 NOON.", "nsi_id": "unitedstatespostalservice-a77078", "operator": "United States Postal Service", "operator:short": "USPS", "operator:type": "public", "operator:wikidata": "Q668687", "ref": "4060100056"}, "type": "Feature"}
{"dataset_attributes": {"@spider": "usps_collection_boxes", "spider:collection_time": "2023-10-19T08:25:27.646942"}, "geometry": {"coordinates": [-84.8300113, 38.201974], "type": "Point"}, "id": "n1NJ5REZNu98YJBzA5kr9SX0RqE=", "properties": {"@spider": "usps_collection_boxes", "addr:city": "FRANKFORT", "addr:country": "US", "addr:full": "205 EASTWOOD SHOPPING CTR", "addr:postcode": "40601", "addr:state": "KY", "amenity": "post_box", "brand": "United States Postal Service", "brand:wikidata": "Q668687", "collection_times": "Mo-Sa 11:30", "name": "USPS COLLECTION BOX - BLUE BOX", "nsi_id": "unitedstatespostalservice-a77078", "operator": "United States Postal Service", "operator:short": "USPS", "operator:type": "public", "operator:wikidata": "Q668687", "ref": "4060100060"}, "type": "Feature"}
{"dataset_attributes": {"@spider": "usps_collection_boxes", "spider:collection_time": "2023-10-19T08:25:27.646942"}, "geometry": {"coordinates": [-84.8351094135, 38.2045126042], "type": "Point"}, "id": "0pue1SvsqnnkscUPYOGDb_nWUJQ=", "properties": {"@spider": "usps_collection_boxes", "addr:city": "FRANKFORT", "addr:country": "US", "addr:full": "154 VERSAILLES RD", "addr:postcode": "40601", "addr:state": "KY", "amenity": "post_box", "brand": "United States Postal Service", "brand:wikidata": "Q668687", "collection_times": "Mo-Fr 13:00; Sa 14:45", "name": "USPS COLLECTION BOX - BLUE BOX", "note": "ON 12/24 AND 12/31, THIS BOX MAY BE COLLECTED AS EARLY AS 12 NOON.", "nsi_id": "unitedstatespostalservice-a77078", "operator": "United States Postal Service", "operator:short": "USPS", "operator:type": "public", "operator:wikidata": "Q668687", "ref": "4060100063"}, "type": "Feature"}
{"dataset_attributes": {"@spider": "usps_collection_boxes", "spider:collection_time": "2023-10-19T08:25:27.646942"}, "geometry": {"coordinates": [-84.8399854, 38.216076], "type": "Point"}, "id": "YHk26mtklkpaawOa9RVGChJWe3k=", "properties": {"@spider": "usps_collection_boxes", "addr:city": "FRANKFORT", "addr:country": "US", "addr:full": "577 COMANCHE TRL", "addr:postcode": "40601", "addr:state": "KY", "amenity": "post_box", "brand": "United States Postal Service", "brand:wikidata": "Q668687", "collection_times": "Mo-Fr 13:30; Sa 15:00", "name": "USPS COLLECTION BOX - BLUE BOX", "note": "ON 12/24 AND 12/31, THIS BOX MAY BE COLLECTED AS EARLY AS 12 NOON.", "nsi_id": "unitedstatespostalservice-a77078", "operator": "United States Postal Service", "operator:short": "USPS", "operator:type": "public", "operator:wikidata": "Q668687", "ref": "4060100064"}, "type": "Feature"}
{"dataset_attributes": {"@spider": "usps_collection_boxes", "spider:collection_time": "2023-10-19T08:25:27.646942"}, "geometry": {"coordinates": [-84.8786031, 38.197499], "type": "Point"}, "id": "UCVLWacQxV_GqDJBEgoeKRt01fM=", "properties": {"@spider": "usps_collection_boxes", "addr:city": "FRANKFORT", "addr:country": "US", "addr:full": "201 SAINT CLAIR ST", "addr:postcode": "40601", "addr:state": "KY", "amenity": "post_box", "brand": "United States Postal Service", "brand:wikidata": "Q668687", "collection_times": "Mo-Sa 16:30", "name": "USPS COLLECTION BOX - BLUE BOX", "note": "ON 12/24 AND 12/31, THIS BOX MAY BE COLLECTED AS EARLY AS 12 NOON.", "nsi_id": "unitedstatespostalservice-a77078", "operator": "United States Postal Service", "operator:short": "USPS", "operator:type": "public", "operator:wikidata": "Q668687", "ref": "4060100071"}, "type": "Feature"}
{"dataset_attributes": {"@spider": "usps_collection_boxes", "spider:collection_time": "2023-10-19T08:25:27.646942"}, "geometry": {"coordinates": [-84.8772233, 38.199702], "type": "Point"}, "id": "nzCxGDEW68Rr-hi91cKYD06DH54=", "properties": {"@spider": "usps_collection_boxes", "addr:city": "FRANKFORT", "addr:country": "US", "addr:full": "321 W BROADWAY ST", "addr:postcode": "40601", "addr:state": "KY", "amenity": "post_box", "brand": "United States Postal Service", "brand:wikidata": "Q668687", "collection_times": "Mo-Fr 16:45; Sa 16:20", "name": "USPS COLLECTION BOX - BLUE BOX", "note": "ON 12/24 AND 12/31, THIS BOX MAY BE COLLECTED AS EARLY AS 12 NOON.", "nsi_id": "unitedstatespostalservice-a77078", "operator": "United States Postal Service", "operator:short": "USPS", "operator:type": "public", "operator:wikidata": "Q668687", "ref": "4060100072"}, "type": "Feature"}
{"dataset_attributes": {"@spider": "usps_collection_boxes", "spider:collection_time": "2023-10-19T08:25:27.646942"}, "geometry": {"coordinates": [-84.864696428, 38.216322991], "type": "Point"}, "id": "ldhrKSr0_jqMMRd5Uf8W7foZFOo=", "properties": {"@spider": "usps_collection_boxes", "addr:city": "FRANKFORT", "addr:country": "US", "addr:full": "1210 WILKINSON BLVD", "addr:postcode": "40601", "addr:state": "KY", "amenity": "post_box", "brand": "United States Postal Service", "brand:wikidata": "Q668687", "collection_times": "Mo-Fr 17:15; Sa 16:20", "name": "USPS COLLECTION BOX - BLUE BOX", "note": "ON 12/24 AND 12/31, THIS BOX MAY BE COLLECTED AS EARLY AS 12 NOON.", "nsi_id": "unitedstatespostalservice-a77078", "operator": "United States Postal Service", "operator:short": "USPS", "operator:type": "public", "operator:wikidata": "Q668687", "ref": "4060100075"}, "type": "Feature"}
{"dataset_attributes": {"@spider": "usps_collection_boxes", "spider:collection_time": "2023-10-19T08:25:27.646942"}, "geometry": {"coordinates": [-84.816597189, 38.172065632], "type": "Point"}, "id": "9q-J_7gg_lZSUVnN55E1O4DlSlI=", "properties": {"@spider": "usps_collection_boxes", "addr:city": "FRANKFORT", "addr:country": "US", "addr:full": "260 DEMOCRAT DR", "addr:postcode": "40601", "addr:state": "KY", "amenity": "post_box", "brand": "United States Postal Service", "brand:wikidata": "Q668687", "collection_times": "Mo-Fr 11:00", "name": "USPS COLLECTION BOX - BLUE BOX", "nsi_id": "unitedstatespostalservice-a77078", "operator": "United States Postal Service", "operator:short": "USPS", "operator:type": "public", "operator:wikidata": "Q668687", "ref": "4060100096"}, "type": "Feature"}
{"dataset_attributes": {"@spider": "usps_collection_boxes", "spider:collection_time": "2023-10-19T08:25:27.646942"}, "geometry": {"coordinates": [-84.864696428, 38.216322991], "type": "Point"}, "id": "LCX732EcBw2m6WJfOAVOOAp5INo=", "properties": {"@spider": "usps_collection_boxes", "addr:city": "FRANKFORT", "addr:country": "US", "addr:full": "1210 WILKINSON BLVD", "addr:postcode": "40601", "addr:state": "KY", "amenity": "post_box", "brand": "United States Postal Service", "brand:wikidata": "Q668687", "collection_times": "Mo-Fr 17:45; Sa 16:20", "name": "USPS COLLECTION BOX - PO LOBBY", "note": "ON 12/24 AND 12/31, THIS BOX MAY BE COLLECTED AS EARLY AS 12 NOON.", "nsi_id": "unitedstatespostalservice-a77078", "operator": "United States Postal Service", "operator:short": "USPS", "operator:type": "public", "operator:wikidata": "Q668687", "ref": "4060100099"}, "type": "Feature"}
{"dataset_attributes": {"@spider": "usps_collection_boxes", "spider:collection_time": "2023-10-19T08:25:27.646942"}, "geometry": {"coordinates": [-84.8968647, 38.166265], "type": "Point"}, "id": "uHf60huggpcrx-NDYK4KV6HgLgY=", "properties": {"@spider": "usps_collection_boxes", "addr:city": "FRANKFORT", "addr:country": "US", "addr:full": "1305 US HIGHWAY 127 S", "addr:postcode": "40601", "addr:state": "KY", "amenity": "post_box", "brand": "United States Postal Service", "brand:wikidata": "Q668687", "collection_times": "Mo-Fr 14:15; Sa 15:45", "name": "USPS COLLECTION BOX - BLUE BOX", "note": "ON 12/24 AND 12/31, THIS BOX MAY BE COLLECTED AS EARLY AS 12 NOON.", "nsi_id": "unitedstatespostalservice-a77078", "operator": "United States Postal Service", "operator:short": "USPS", "operator:type": "public", "operator:wikidata": "Q668687", "ref": "4060100101"}, "type": "Feature"}
{"dataset_attributes": {"@spider": "usps_collection_boxes", "spider:collection_time": "2023-10-19T08:25:27.646942"}, "geometry": {"coordinates": [-84.8939805, 38.150949], "type": "Point"}, "id": "uSRPcrj_xxKwPqW8UuujNsgoDag=", "properties": {"@spider": "usps_collection_boxes", "addr:city": "FRANKFORT", "addr:country": "US", "addr:full": "1030 BURLINGTON LN", "addr:postcode": "40601", "addr:state": "KY", "amenity": "post_box", "brand": "United States Postal Service", "brand:wikidata": "Q668687", "collection_times": "Mo-Sa 15:30", "name": "USPS COLLECTION BOX - BLUE BOX", "note": "ON 12/24 AND 12/31, THIS BOX MAY BE COLLECTED AS EARLY AS 12 NOON.", "nsi_id": "unitedstatespostalservice-a77078", "operator": "United States Postal Service", "operator:short": "USPS", "operator:type": "public", "operator:wikidata": "Q668687", "ref": "4060100105"}, "type": "Feature"}
{"dataset_attributes": {"@spider": "usps_collection_boxes", "spider:collection_time": "2023-10-19T08:25:27.646942"}, "geometry": {"coordinates": [-84.8786091, 38.197498], "type": "Point"}, "id": "b2xvXOPiVTdyOrBciZ1JzOeUcC8=", "properties": {"@spider": "usps_collection_boxes", "addr:city": "FRANKFORT", "addr:country": "US", "addr:full": "201 SAINT CLAIR ST", "addr:postcode": "40601", "addr:state": "KY", "amenity": "post_box", "brand": "United States Postal Service", "brand:wikidata": "Q668687", "collection_times": "Mo-Sa 08:30", "name": "USPS COLLECTION BOX - BLUE BOX", "nsi_id": "unitedstatespostalservice-a77078", "operator": "United States Postal Service", "operator:short": "USPS", "operator:type": "public", "operator:wikidata": "Q668687", "ref": "4060100109"}, "type": "Feature"}
{"dataset_attributes": {"@spider": "usps_collection_boxes", "spider:collection_time": "2023-10-19T08:25:27.646942"}, "geometry": {"coordinates": [-84.8779551, 38.19861], "type": "Point"}, "id": "Fc_akUdeI04W4nUwAEVFo5BV7oc=", "properties": {"@spider": "usps_collection_boxes", "addr:city": "FRANKFORT", "addr:country": "US", "addr:full": "300 MAIN ST", "addr:postcode": "40601", "addr:state": "KY", "amenity": "post_box", "brand": "United States Postal Service", "brand:wikidata": "Q668687", "collection_times": "Mo-Fr 16:30; Sa 16:15", "name": "USPS COLLECTION BOX - BLUE BOX", "note": "ON 12/24 AND 12/31, THIS BOX MAY BE COLLECTED AS EARLY AS 12 NOON.", "nsi_id": "unitedstatespostalservice-a77078", "operator": "United States Postal Service", "operator:short": "USPS", "operator:type": "public", "operator:wikidata": "Q668687", "ref": "4060100110"}, "type": "Feature"}
{"dataset_attributes": {"@spider": "usps_collection_boxes", "spider:collection_time": "2023-10-19T08:25:27.646942"}, "geometry": {"coordinates": [-84.8149049, 38.183501], "type": "Point"}, "id": "IKReGkR6LbiF_IZLzSVqraJEKQk=", "properties": {"@spider": "usps_collection_boxes", "addr:city": "FRANKFORT", "addr:country": "US", "addr:full": "1024 CAPITAL CENTER DR", "addr:postcode": "40601", "addr:state": "KY", "amenity": "post_box", "brand": "United States Postal Service", "brand:wikidata": "Q668687", "collection_times": "Mo-Fr 12:45", "name": "USPS COLLECTION BOX - BLUE BOX", "note": "ON 12/24 AND 12/31, THIS BOX MAY BE COLLECTED AS EARLY AS 12 NOON.", "nsi_id": "unitedstatespostalservice-a77078", "operator": "United States Postal Service", "operator:short": "USPS", "operator:type": "public", "operator:wikidata": "Q668687", "ref": "4060100113"}, "type": "Feature"}
{"dataset_attributes": {"@spider": "usps_collection_boxes", "spider:collection_time": "2023-10-19T08:25:27.646942"}, "geometry": {"coordinates": [-84.874592, 38.20167], "type": "Point"}, "id": "Fqj5ptdrdtpv-N8dQhsUyg1_0WU=", "properties": {"@spider": "usps_collection_boxes", "addr:city": "FRANKFORT", "addr:country": "US", "addr:full": "200 MERO ST", "addr:postcode": "40601", "addr:state": "KY", "amenity": "post_box", "brand": "United States Postal Service", "brand:wikidata": "Q668687", "collection_times": "Mo-Fr 16:30; Sa 15:00", "name": "USPS COLLECTION BOX - BLUE BOX", "note": "ON 12/24 AND 12/31, THIS BOX MAY BE COLLECTED AS EARLY AS 12 NOON.", "nsi_id": "unitedstatespostalservice-a77078", "operator": "United States Postal Service", "operator:short": "USPS", "operator:type": "public", "operator:wikidata": "Q668687", "ref": "4060100118"}, "type": "Feature"}
{"dataset_attributes": {"@spider": "usps_collection_boxes", "spider:collection_time": "2023-10-19T08:25:27.646942"}, "geometry": {"coordinates": [-84.8759566, 38.198674], "type": "Point"}, "id": "hR6PiiC57UoS6uG1OLTrJAFeXQE=", "properties": {"@spider": "usps_collection_boxes", "addr:city": "FRANKFORT", "addr:country": "US", "addr:full": "200 ANN ST", "addr:postcode": "40601", "addr:state": "KY", "amenity": "post_box", "brand": "United States Postal Service", "brand:wikidata": "Q668687", "collection_times": "Mo-Fr 16:30; Sa 16:15", "name": "USPS COLLECTION BOX - BLUE BOX", "note": "ON 12/24 AND 12/31, THIS BOX MAY BE COLLECTED AS EARLY AS 12 NOON.", "nsi_id": "unitedstatespostalservice-a77078", "operator": "United States Postal Service", "operator:short": "USPS", "operator:type": "public", "operator:wikidata": "Q668687", "ref": "4060100125"}, "type": "Feature"}
{"dataset_attributes": {"@spider": "usps_collection_boxes", "spider:collection_time": "2023-10-19T08:25:27.646942"}, "geometry": {"coordinates": [-84.896979, 38.168655], "type": "Point"}, "id": "iZ9J1i-ZkBFYlE3wF-aLv_ByRC4=", "properties": {"@spider": "usps_collection_boxes", "addr:city": "FRANKFORT", "addr:country": "US", "addr:full": "1301 US 127 SUITE 100 HWY", "addr:postcode": "40601", "addr:state": "KY", "amenity": "post_box", "brand": "United States Postal Service", "brand:wikidata": "Q668687", "collection_times": "Mo-Fr 16:00", "name": "USPS COLLECTION BOX - PO LOBBY", "note": "ON 12/24 AND 12/31, THIS BOX MAY BE COLLECTED AS EARLY AS 12 NOON.", "nsi_id": "unitedstatespostalservice-a77078", "operator": "United States Postal Service", "operator:short": "USPS", "operator:type": "public", "operator:wikidata": "Q668687", "ref": "4060100126"}, "type": "Feature"}
{"dataset_attributes": {"@spider": "usps_collection_boxes", "spider:collection_time": "2023-10-19T08:25:27.646942"}, "geometry": {"coordinates": [-84.878966605, 38.202118534], "type": "Point"}, "id": "rp5fB4Gb59nzp9hFSDlXYXu1E_s=", "properties": {"@spider": "usps_collection_boxes", "addr:city": "FRANKFORT", "addr:country": "US", "addr:full": "405 WILKINSON BLVD", "addr:postcode": "40601", "addr:state": "KY", "amenity": "post_box", "brand": "United States Postal Service", "brand:wikidata": "Q668687", "collection_times": "Mo-Sa 14:00", "name": "USPS COLLECTION BOX - BLUE BOX", "note": "ON 12/24 AND 12/31, THIS BOX MAY BE COLLECTED AS EARLY AS 12 NOON.", "nsi_id": "unitedstatespostalservice-a77078", "operator": "United States Postal Service", "operator:short": "USPS", "operator:type": "public", "operator:wikidata": "Q668687", "ref": "4060100129"}, "type": "Feature"}
{"dataset_attributes": {"@spider": "usps_collection_boxes", "spider:collection_time": "2023-10-19T08:25:27.646942"}, "geometry": {"coordinates": [-84.864696428, 38.216322991], "type": "Point"}, "id": "YkWB3W2owN8IVY4xfm171yxYGNI=", "properties": {"@spider": "usps_collection_boxes", "addr:city": "FRANKFORT", "addr:country": "US", "addr:full": "1210 WILKINSON BLVD", "addr:postcode": "40601", "addr:state": "KY", "amenity": "post_box", "brand": "United States Postal Service", "brand:wikidata": "Q668687", "collection_times": "Mo-Fr 17:00; Sa 12:00", "name": "USPS COLLECTION BOX - PO LOBBY", "note": "ON 12/24 AND 12/31, THIS BOX MAY BE COLLECTED AS EARLY AS 12 NOON.", "nsi_id": "unitedstatespostalservice-a77078", "operator": "United States Postal Service", "operator:short": "USPS", "operator:type": "public", "operator:wikidata": "Q668687", "ref": "4060100132"}, "type": "Feature"}
{"dataset_attributes": {"@spider": "usps_collection_boxes", "spider:collection_time": "2023-10-19T08:25:27.646942"}, "geometry": {"coordinates": [-84.897911179, 38.166215796], "type": "Point"}, "id": "bE273kP5bkGe_DAsOTB2bf86eOA=", "properties": {"@spider": "usps_collection_boxes", "addr:city": "FRANKFORT", "addr:country": "US", "addr:full": "1303 US HIGHWAY 127 S STE 100", "addr:postcode": "40601", "addr:state": "KY", "amenity": "post_box", "brand": "United States Postal Service", "brand:wikidata": "Q668687", "collection_times": "Mo-Fr 16:00", "name": "USPS COLLECTION BOX - PO LOBBY", "note": "ON 12/24 AND 12/31, THIS BOX MAY BE COLLECTED AS EARLY AS 12 NOON.", "nsi_id": "unitedstatespostalservice-a77078", "operator": "United States Postal Service", "operator:short": "USPS", "operator:type": "public", "operator:wikidata": "Q668687", "ref": "4060100133"}, "type": "Feature"}
{"dataset_attributes": {"@spider": "usps_collection_boxes", "spider:collection_time": "2023-10-19T08:25:27.646942"}, "geometry": {"coordinates": [-84.8458500136, 38.189604994], "type": "Point"}, "id": "pbzVf7abao36a8NWRSUco4VxmIw=", "properties": {"@spider": "usps_collection_boxes", "addr:city": "FRANKFORT", "addr:country": "US", "addr:full": "101 SOWER BLVD", "addr:postcode": "40601", "addr:state": "KY", "amenity": "post_box", "brand": "United States Postal Service", "brand:wikidata": "Q668687", "collection_times": "Mo-Sa 11:30", "name": "USPS COLLECTION BOX - BLUE BOX", "nsi_id": "unitedstatespostalservice-a77078", "operator": "United States Postal Service", "operator:short": "USPS", "operator:type": "public", "operator:wikidata": "Q668687", "ref": "4060100140"}, "type": "Feature"}
