{"geometry": {"coordinates": [-84.145946335, 36.703908357], "type": "Point"}, "id": "YRskf3VAxMge7iOdL5r5F7LBnfU=", "properties": {"@spider": "usps_collection_boxes", "addr:city": "EMLYN", "addr:country": "US", "addr:full": "3052 US HIGHWAY 25 W", "addr:postcode": "40730", "addr:state": "KY", "brand": "USPS", "collection_times": "Mo-Fr 13:30; Sa 11:30", "name": "USPS COLLECTION BOX - BLUE BOX", "note": "ON 12/24 AND 12/31, THIS BOX MAY BE COLLECTED AS EARLY AS 12 NOON.", "ref": "4073000000"}, "type": "Feature"}
{"geometry": {"coordinates": [-84.145946335, 36.703908357], "type": "Point"}, "id": "gDilGiND7IAn8sOlE8FmMx2LEfQ=", "properties": {"@spider": "usps_collection_boxes", "addr:city": "EMLYN", "addr:country": "US", "addr:full": "3052 US HIGHWAY 25 W", "addr:postcode": "40730", "addr:state": "KY", "brand": "USPS", "collection_times": "Mo-Fr 13:30; Sa 11:30", "name": "USPS COLLECTION BOX - PO LOBBY", "note": "ON 12/24 AND 12/31, THIS BOX MAY BE COLLECTED AS EARLY AS 12 NOON.", "ref": "4073000001"}, "type": "Feature"}
{"geometry": {"coordinates": [-84.145946335, 36.703908357], "type": "Point"}, "id": "2qq3onZszkzUtoJoF7lrHlakvrU=", "properties": {"@spider": "usps_collection_boxes", "addr:city": "EMLYN", "addr:country": "US", "addr:full": "3052 US HIGHWAY 25 W", "addr:postcode": "40730", "addr:state": "KY", "brand": "USPS", "collection_times": "Mo-Fr 13:30; Sa 11:30", "name": "USPS COLLECTION BOX - PO LOBBY", "note": "ON 12/24 AND 12/31, THIS BOX MAY BE COLLECTED AS EARLY AS 12 NOON.", "ref": "4073000003"}, "type": "Feature"}
{"geometry": {"coordinates": [-83.969961912, 36.71414396], "type": "Point"}, "id": "d5tiSyTC1q0dIRunntCkkGUsZao=", "properties": {"@spider": "usps_collection_boxes", "addr:city": "SILER", "addr:country": "US", "addr:full": "15654 E HIGHWAY 92", "addr:postcode": "40763", "addr:state": "KY", "brand": "USPS", "collection_times": "Mo-Sa 12:00", "name": "USPS COLLECTION BOX - BLUE BOX", "ref": "4076300000"}, "type": "Feature"}
{"geometry": {"coordinates": [-83.969961912, 36.71414396], "type": "Point"}, "id": "vFkNlzjG6j7qfs9gC2VpBXAl-C0=", "properties": {"@spider": "usps_collection_boxes", "addr:city": "SILER", "addr:country": "US", "addr:full": "15654 E HIGHWAY 92", "addr:postcode": "40763", "addr:state": "KY", "brand": "USPS", "collection_times": "Mo-Sa 12:00", "name": "USPS COLLECTION BOX - PO LOBBY", "ref": "4076300001"}, "type": "Feature"}
{"geometry": {"coordinates": [-83.969961912, 36.71414396], "type": "Point"}, "id": "mhij_EoHE4UY_bn4YcVlH8H_mK8=", "properties": {"@spider": "usps_collection_boxes", "addr:city": "SILER", "addr:country": "US", "addr:full": "15654 E HIGHWAY 92", "addr:postcode": "40763", "addr:state": "KY", "brand": "USPS", "collection_times": "Mo-Sa 12:00", "name": "USPS COLLECTION BOX - PO LOBBY", "ref": "4076300003"}, "type": "Feature"}
