{"dataset_attributes": {"@spider": "usps_collection_boxes"}, "geometry": {"coordinates": [-82.95043738, 36.964273517], "type": "Point"}, "id": "GW85QVHlro_MgY9_03EGR1_GlV8=", "properties": {"@spider": "usps_collection_boxes", "addr:city": "BENHAM", "addr:country": "US", "addr:full": "229 MAIN ST STE 1", "addr:postcode": "40807", "addr:state": "KY", "amenity": "post_box", "brand": "United States Postal Service", "brand:wikidata": "Q668687", "collection_times": "Mo-Fr 15:15; Sa 11:15", "name": "USPS COLLECTION BOX - BLUE BOX", "note": "ON 12/24 AND 12/31, THIS BOX MAY BE COLLECTED AS EARLY AS 12 NOON.", "nsi_id": "unitedstatespostalservice-a77078", "operator": "United States Postal Service", "operator:short": "USPS", "operator:type": "public", "operator:wikidata": "Q668687", "ref": "4080700000"}, "type": "Feature"}
{"dataset_attributes": {"@spider": "usps_collection_boxes"}, "geometry": {"coordinates": [-82.95043738, 36.964273517], "type": "Point"}, "id": "lh78aX163EbdA-DjqwxTbhiRDHc=", "properties": {"@spider": "usps_collection_boxes", "addr:city": "BENHAM", "addr:country": "US", "addr:full": "229 MAIN ST STE 1", "addr:postcode": "40807", "addr:state": "KY", "amenity": "post_box", "brand": "United States Postal Service", "brand:wikidata": "Q668687", "collection_times": "Mo-Fr 15:15; Sa 11:15", "name": "USPS COLLECTION BOX - PO LOBBY", "note": "ON 12/24 AND 12/31, THIS BOX MAY BE COLLECTED AS EARLY AS 12 NOON.", "nsi_id": "unitedstatespostalservice-a77078", "operator": "United States Postal Service", "operator:short": "USPS", "operator:type": "public", "operator:wikidata": "Q668687", "ref": "4080700001"}, "type": "Feature"}
{"dataset_attributes": {"@spider": "usps_collection_boxes"}, "geometry": {"coordinates": [-82.95043738, 36.964273517], "type": "Point"}, "id": "GZaJPxZSe18HeT_53n2f9SFAqKw=", "properties": {"@spider": "usps_collection_boxes", "addr:city": "BENHAM", "addr:country": "US", "addr:full": "229 MAIN ST STE 1", "addr:postcode": "40807", "addr:state": "KY", "amenity": "post_box", "brand": "United States Postal Service", "brand:wikidata": "Q668687", "collection_times": "Mo-Fr 15:30; Sa 11:30", "name": "USPS COLLECTION BOX - PO LOBBY", "note": "ON 12/24 AND 12/31, THIS BOX MAY BE COLLECTED AS EARLY AS 12 NOON.", "nsi_id": "unitedstatespostalservice-a77078", "operator": "United States Postal Service", "operator:short": "USPS", "operator:type": "public", "operator:wikidata": "Q668687", "ref": "4080700003"}, "type": "Feature"}
{"dataset_attributes": {"@spider": "usps_collection_boxes"}, "geometry": {"coordinates": [-82.984326783, 36.975919989], "type": "Point"}, "id": "plmJ0CYHf1g1JFvE5sq9tooT4G0=", "properties": {"@spider": "usps_collection_boxes", "addr:city": "CUMBERLAND", "addr:country": "US", "addr:full": "1312 E MAIN ST", "addr:postcode": "40823", "addr:state": "KY", "amenity": "post_box", "brand": "United States Postal Service", "brand:wikidata": "Q668687", "collection_times": "Mo-Sa 16:00", "name": "USPS COLLECTION BOX - BLUE BOX", "note": "ON 12/24 AND 12/31, THIS BOX MAY BE COLLECTED AS EARLY AS 12 NOON.", "nsi_id": "unitedstatespostalservice-a77078", "operator": "United States Postal Service", "operator:short": "USPS", "operator:type": "public", "operator:wikidata": "Q668687", "ref": "4082300000"}, "type": "Feature"}
{"dataset_attributes": {"@spider": "usps_collection_boxes"}, "geometry": {"coordinates": [-82.984326783, 36.975919989], "type": "Point"}, "id": "LfGm0V1EngdbcuTMRRibjl5Fgx8=", "properties": {"@spider": "usps_collection_boxes", "addr:city": "CUMBERLAND", "addr:country": "US", "addr:full": "1312 E MAIN ST", "addr:postcode": "40823", "addr:state": "KY", "amenity": "post_box", "brand": "United States Postal Service", "brand:wikidata": "Q668687", "collection_times": "Mo-Sa 16:00", "name": "USPS COLLECTION BOX - PO LOBBY", "note": "ON 12/24 AND 12/31, THIS BOX MAY BE COLLECTED AS EARLY AS 12 NOON.", "nsi_id": "unitedstatespostalservice-a77078", "operator": "United States Postal Service", "operator:short": "USPS", "operator:type": "public", "operator:wikidata": "Q668687", "ref": "4082300011"}, "type": "Feature"}
{"dataset_attributes": {"@spider": "usps_collection_boxes"}, "geometry": {"coordinates": [-82.984326783, 36.975919989], "type": "Point"}, "id": "hw7TOWQMbo04eHjgd3yDyLncJ4U=", "properties": {"@spider": "usps_collection_boxes", "addr:city": "CUMBERLAND", "addr:country": "US", "addr:full": "1312 E MAIN ST", "addr:postcode": "40823", "addr:state": "KY", "amenity": "post_box", "brand": "United States Postal Service", "brand:wikidata": "Q668687", "collection_times": "Mo-Fr 16:00; Sa 11:00", "name": "USPS COLLECTION BOX - PO LOBBY", "note": "ON 12/24 AND 12/31, THIS BOX MAY BE COLLECTED AS EARLY AS 12 NOON.", "nsi_id": "unitedstatespostalservice-a77078", "operator": "United States Postal Service", "operator:short": "USPS", "operator:type": "public", "operator:wikidata": "Q668687", "ref": "4082300013"}, "type": "Feature"}
{"dataset_attributes": {"@spider": "usps_collection_boxes"}, "geometry": {"coordinates": [-82.793436627, 37.048888298], "type": "Point"}, "id": "Tt-VoaJuPQ7QJO5U5U0F5wql0K8=", "properties": {"@spider": "usps_collection_boxes", "addr:city": "EOLIA", "addr:country": "US", "addr:full": "1364 HIGHWAY 806", "addr:postcode": "40826", "addr:state": "KY", "amenity": "post_box", "brand": "United States Postal Service", "brand:wikidata": "Q668687", "collection_times": "Mo-Sa 10:30", "name": "USPS COLLECTION BOX - BLUE BOX", "nsi_id": "unitedstatespostalservice-a77078", "operator": "United States Postal Service", "operator:short": "USPS", "operator:type": "public", "operator:wikidata": "Q668687", "ref": "4082600000"}, "type": "Feature"}
{"dataset_attributes": {"@spider": "usps_collection_boxes"}, "geometry": {"coordinates": [-82.793436627, 37.048888298], "type": "Point"}, "id": "H86GJ3aN7kU_AVueG_GbQFL4Rzc=", "properties": {"@spider": "usps_collection_boxes", "addr:city": "EOLIA", "addr:country": "US", "addr:full": "1364 HIGHWAY 806", "addr:postcode": "40826", "addr:state": "KY", "amenity": "post_box", "brand": "United States Postal Service", "brand:wikidata": "Q668687", "collection_times": "Mo-Sa 10:30", "name": "USPS COLLECTION BOX - PO LOBBY", "nsi_id": "unitedstatespostalservice-a77078", "operator": "United States Postal Service", "operator:short": "USPS", "operator:type": "public", "operator:wikidata": "Q668687", "ref": "4082600001"}, "type": "Feature"}
{"dataset_attributes": {"@spider": "usps_collection_boxes"}, "geometry": {"coordinates": [-82.793436627, 37.048888298], "type": "Point"}, "id": "665BxwqRi8BwJOjIr7-jDC-uEQA=", "properties": {"@spider": "usps_collection_boxes", "addr:city": "EOLIA", "addr:country": "US", "addr:full": "1364 HIGHWAY 806", "addr:postcode": "40826", "addr:state": "KY", "amenity": "post_box", "brand": "United States Postal Service", "brand:wikidata": "Q668687", "collection_times": "Mo-Sa 10:30", "name": "USPS COLLECTION BOX - PO LOBBY", "nsi_id": "unitedstatespostalservice-a77078", "operator": "United States Postal Service", "operator:short": "USPS", "operator:type": "public", "operator:wikidata": "Q668687", "ref": "4082600003"}, "type": "Feature"}
{"dataset_attributes": {"@spider": "usps_collection_boxes"}, "geometry": {"coordinates": [-82.913782127, 36.964576748], "type": "Point"}, "id": "3f9-Xuj14NHRYj3jDXAhwFmVecI=", "properties": {"@spider": "usps_collection_boxes", "addr:city": "LYNCH", "addr:country": "US", "addr:full": "10 E MAIN ST", "addr:postcode": "40855", "addr:state": "KY", "amenity": "post_box", "brand": "United States Postal Service", "brand:wikidata": "Q668687", "collection_times": "Mo-Fr 13:00; Sa 11:00", "name": "USPS COLLECTION BOX - BLUE BOX", "note": "ON 12/24 AND 12/31, THIS BOX MAY BE COLLECTED AS EARLY AS 12 NOON.", "nsi_id": "unitedstatespostalservice-a77078", "operator": "United States Postal Service", "operator:short": "USPS", "operator:type": "public", "operator:wikidata": "Q668687", "ref": "4085500000"}, "type": "Feature"}
{"dataset_attributes": {"@spider": "usps_collection_boxes"}, "geometry": {"coordinates": [-82.913782127, 36.964576748], "type": "Point"}, "id": "TFM5kUeIc18VMuRfKLxB05cOIHA=", "properties": {"@spider": "usps_collection_boxes", "addr:city": "LYNCH", "addr:country": "US", "addr:full": "10 E MAIN ST", "addr:postcode": "40855", "addr:state": "KY", "amenity": "post_box", "brand": "United States Postal Service", "brand:wikidata": "Q668687", "collection_times": "Mo-Fr 13:00; Sa 11:00", "name": "USPS COLLECTION BOX - PO LOBBY", "note": "ON 12/24 AND 12/31, THIS BOX MAY BE COLLECTED AS EARLY AS 12 NOON.", "nsi_id": "unitedstatespostalservice-a77078", "operator": "United States Postal Service", "operator:short": "USPS", "operator:type": "public", "operator:wikidata": "Q668687", "ref": "4085500001"}, "type": "Feature"}
{"dataset_attributes": {"@spider": "usps_collection_boxes"}, "geometry": {"coordinates": [-82.913782127, 36.964576748], "type": "Point"}, "id": "GvXXEC0jZY1CFcW9QICKN1mzeXA=", "properties": {"@spider": "usps_collection_boxes", "addr:city": "LYNCH", "addr:country": "US", "addr:full": "10 E MAIN ST", "addr:postcode": "40855", "addr:state": "KY", "amenity": "post_box", "brand": "United States Postal Service", "brand:wikidata": "Q668687", "collection_times": "Mo-Fr 12:45; Sa 11:00", "name": "USPS COLLECTION BOX - PO LOBBY", "note": "ON 12/24 AND 12/31, THIS BOX MAY BE COLLECTED AS EARLY AS 12 NOON.", "nsi_id": "unitedstatespostalservice-a77078", "operator": "United States Postal Service", "operator:short": "USPS", "operator:type": "public", "operator:wikidata": "Q668687", "ref": "4085500003"}, "type": "Feature"}
{"dataset_attributes": {"@spider": "usps_collection_boxes"}, "geometry": {"coordinates": [-82.899782242, 37.006742618], "type": "Point"}, "id": "kdOIvSsC-UH6FXpnGbvZNlYj-pc=", "properties": {"@spider": "usps_collection_boxes", "addr:city": "PARTRIDGE", "addr:country": "US", "addr:full": "469 HIGHWAY 3073", "addr:postcode": "40862", "addr:state": "KY", "amenity": "post_box", "brand": "United States Postal Service", "brand:wikidata": "Q668687", "collection_times": "Mo-Fr 11:15; Sa 10:00", "name": "USPS COLLECTION BOX - BLUE BOX", "nsi_id": "unitedstatespostalservice-a77078", "operator": "United States Postal Service", "operator:short": "USPS", "operator:type": "public", "operator:wikidata": "Q668687", "ref": "4086200000"}, "type": "Feature"}
{"dataset_attributes": {"@spider": "usps_collection_boxes"}, "geometry": {"coordinates": [-82.899782242, 37.006742618], "type": "Point"}, "id": "4sJf00AA5sUN5_U9CXkMzZP489M=", "properties": {"@spider": "usps_collection_boxes", "addr:city": "PARTRIDGE", "addr:country": "US", "addr:full": "469 HIGHWAY 3073", "addr:postcode": "40862", "addr:state": "KY", "amenity": "post_box", "brand": "United States Postal Service", "brand:wikidata": "Q668687", "collection_times": "Mo-Fr 11:15; Sa 10:00", "name": "USPS COLLECTION BOX - PO LOBBY", "nsi_id": "unitedstatespostalservice-a77078", "operator": "United States Postal Service", "operator:short": "USPS", "operator:type": "public", "operator:wikidata": "Q668687", "ref": "4086200001"}, "type": "Feature"}
{"dataset_attributes": {"@spider": "usps_collection_boxes"}, "geometry": {"coordinates": [-82.899782242, 37.006742618], "type": "Point"}, "id": "uPSwApbNX6y7YSg4R7RMGHwAV78=", "properties": {"@spider": "usps_collection_boxes", "addr:city": "PARTRIDGE", "addr:country": "US", "addr:full": "469 HIGHWAY 3073", "addr:postcode": "40862", "addr:state": "KY", "amenity": "post_box", "brand": "United States Postal Service", "brand:wikidata": "Q668687", "collection_times": "Mo-Fr 11:15; Sa 10:00", "name": "USPS COLLECTION BOX - PO LOBBY", "nsi_id": "unitedstatespostalservice-a77078", "operator": "United States Postal Service", "operator:short": "USPS", "operator:type": "public", "operator:wikidata": "Q668687", "ref": "4086200003"}, "type": "Feature"}
{"dataset_attributes": {"@spider": "usps_collection_boxes"}, "geometry": {"coordinates": [-83.117535858, 36.944744683], "type": "Point"}, "id": "430Iw3RbMPLrnryOcJ90GCirI-0=", "properties": {"@spider": "usps_collection_boxes", "addr:city": "TOTZ", "addr:country": "US", "addr:full": "11036 HIGHWAY 522", "addr:postcode": "40870", "addr:state": "KY", "amenity": "post_box", "brand": "United States Postal Service", "brand:wikidata": "Q668687", "collection_times": "Mo-Sa 11:00", "name": "USPS COLLECTION BOX - BLUE BOX", "nsi_id": "unitedstatespostalservice-a77078", "operator": "United States Postal Service", "operator:short": "USPS", "operator:type": "public", "operator:wikidata": "Q668687", "ref": "4087000000"}, "type": "Feature"}
{"dataset_attributes": {"@spider": "usps_collection_boxes"}, "geometry": {"coordinates": [-83.117535858, 36.944744683], "type": "Point"}, "id": "am1L14BhOF6Daib4OwN3oN1zjy4=", "properties": {"@spider": "usps_collection_boxes", "addr:city": "TOTZ", "addr:country": "US", "addr:full": "11036 HIGHWAY 522", "addr:postcode": "40870", "addr:state": "KY", "amenity": "post_box", "brand": "United States Postal Service", "brand:wikidata": "Q668687", "collection_times": "Mo-Sa 11:00", "name": "USPS COLLECTION BOX - PO LOBBY", "nsi_id": "unitedstatespostalservice-a77078", "operator": "United States Postal Service", "operator:short": "USPS", "operator:type": "public", "operator:wikidata": "Q668687", "ref": "4087000002"}, "type": "Feature"}
