{"dataset_attributes": {"@spider": "usps_collection_boxes"}, "geometry": {"coordinates": [-83.073977259, 36.905804066], "type": "Point"}, "id": "ecKe8wJNP-g5HYeMQPjke7ccE50=", "properties": {"@spider": "usps_collection_boxes", "addr:city": "CLOSPLINT", "addr:country": "US", "addr:full": "17857 HIGHWAY 38", "addr:postcode": "40927", "addr:state": "KY", "amenity": "post_box", "brand": "United States Postal Service", "brand:wikidata": "Q668687", "collection_times": "Mo-Sa 12:00", "name": "USPS COLLECTION BOX - BLUE BOX", "nsi_id": "unitedstatespostalservice-a77078", "operator": "United States Postal Service", "operator:short": "USPS", "operator:type": "public", "operator:wikidata": "Q668687", "ref": "4092700000"}, "type": "Feature"}
{"dataset_attributes": {"@spider": "usps_collection_boxes"}, "geometry": {"coordinates": [-83.073977259, 36.905804066], "type": "Point"}, "id": "f6haMYVA6voHIPLWHmVPIl6R_CA=", "properties": {"@spider": "usps_collection_boxes", "addr:city": "CLOSPLINT", "addr:country": "US", "addr:full": "17857 HIGHWAY 38", "addr:postcode": "40927", "addr:state": "KY", "amenity": "post_box", "brand": "United States Postal Service", "brand:wikidata": "Q668687", "collection_times": "Mo-Sa 12:00", "name": "USPS COLLECTION BOX - PO LOBBY", "nsi_id": "unitedstatespostalservice-a77078", "operator": "United States Postal Service", "operator:short": "USPS", "operator:type": "public", "operator:wikidata": "Q668687", "ref": "4092700001"}, "type": "Feature"}
{"dataset_attributes": {"@spider": "usps_collection_boxes"}, "geometry": {"coordinates": [-83.073977259, 36.905804066], "type": "Point"}, "id": "UYEAwCO8IzjhYZkqPKdEU3aw-oY=", "properties": {"@spider": "usps_collection_boxes", "addr:city": "CLOSPLINT", "addr:country": "US", "addr:full": "17857 HIGHWAY 38", "addr:postcode": "40927", "addr:state": "KY", "amenity": "post_box", "brand": "United States Postal Service", "brand:wikidata": "Q668687", "collection_times": "Mo-Sa 12:00", "name": "USPS COLLECTION BOX - PO LOBBY", "nsi_id": "unitedstatespostalservice-a77078", "operator": "United States Postal Service", "operator:short": "USPS", "operator:type": "public", "operator:wikidata": "Q668687", "ref": "4092700003"}, "type": "Feature"}
