{"geometry": {"coordinates": [-84.2627036987, 38.9180833619], "type": "Point"}, "id": "QszDLqlhaY3sbnbXXbMuRntycNw=", "properties": {"@spider": "usps_collection_boxes", "addr:city": "CALIFORNIA", "addr:country": "US", "addr:full": "4087 UNION ST", "addr:postcode": "41007", "addr:state": "KY", "brand": "USPS", "collection_times": "Mo-Fr 15:45; Sa 10:45", "name": "USPS COLLECTION BOX - BLUE BOX", "note": "ON 12/24 AND 12/31, THIS BOX MAY BE COLLECTED AS EARLY AS 12 NOON.", "ref": "4100700001"}, "type": "Feature"}
{"geometry": {"coordinates": [-84.2627036987, 38.9180833619], "type": "Point"}, "id": "2ulSWVOqkTC7lEEdQQNp-rQduYA=", "properties": {"@spider": "usps_collection_boxes", "addr:city": "CALIFORNIA", "addr:country": "US", "addr:full": "4087 UNION ST", "addr:postcode": "41007", "addr:state": "KY", "brand": "USPS", "collection_times": "Mo-Fr 15:45; Sa 10:45", "name": "USPS COLLECTION BOX - PO LOBBY", "note": "ON 12/24 AND 12/31, THIS BOX MAY BE COLLECTED AS EARLY AS 12 NOON.", "ref": "4100700002"}, "type": "Feature"}
{"geometry": {"coordinates": [-84.262703699, 38.918083362], "type": "Point"}, "id": "IjG-hunhtawfKqRuuOrE6Ie13Dg=", "properties": {"@spider": "usps_collection_boxes", "addr:city": "CALIFORNIA", "addr:country": "US", "addr:full": "4087 UNION ST", "addr:postcode": "41007", "addr:state": "KY", "brand": "USPS", "collection_times": "Mo-Fr 16:00; Sa 11:00", "name": "USPS COLLECTION BOX - PO LOBBY", "note": "ON 12/24 AND 12/31, THIS BOX MAY BE COLLECTED AS EARLY AS 12 NOON.", "ref": "4100700010"}, "type": "Feature"}
{"geometry": {"coordinates": [-84.366933, 39.029933], "type": "Point"}, "id": "DrPtIHkQF1936A4w9f6Ru9sbC00=", "properties": {"@spider": "usps_collection_boxes", "addr:city": "MELBOURNE", "addr:country": "US", "addr:full": "910 MARY INGLES HWY", "addr:postcode": "41059", "addr:state": "KY", "brand": "USPS", "collection_times": "Mo-Fr 16:15; Sa 10:45", "name": "USPS COLLECTION BOX - BLUE BOX", "note": "ON 12/24 AND 12/31, THIS BOX MAY BE COLLECTED AS EARLY AS 12 NOON.", "ref": "4105900000"}, "type": "Feature"}
{"geometry": {"coordinates": [-84.366933, 39.029933], "type": "Point"}, "id": "9zmmFJ0Cxqrdk6O-qAQohap2moI=", "properties": {"@spider": "usps_collection_boxes", "addr:city": "MELBOURNE", "addr:country": "US", "addr:full": "910 MARY INGLES HWY", "addr:postcode": "41059", "addr:state": "KY", "brand": "USPS", "collection_times": "Mo-Fr 16:15; Sa 10:45", "name": "USPS COLLECTION BOX - PO LOBBY", "note": "ON 12/24 AND 12/31, THIS BOX MAY BE COLLECTED AS EARLY AS 12 NOON.", "ref": "4105900001"}, "type": "Feature"}
{"geometry": {"coordinates": [-84.366934585, 39.029927503], "type": "Point"}, "id": "8QTttaDVsU4BH0y1_aD1PtDpElU=", "properties": {"@spider": "usps_collection_boxes", "addr:city": "MELBOURNE", "addr:country": "US", "addr:full": "910 MARY INGLES HWY", "addr:postcode": "41059", "addr:state": "KY", "brand": "USPS", "collection_times": "Mo-Fr 16:15; Sa 12:00", "name": "USPS COLLECTION BOX - PO LOBBY", "note": "ON 12/24 AND 12/31, THIS BOX MAY BE COLLECTED AS EARLY AS 12 NOON.", "ref": "4105900006"}, "type": "Feature"}
