{"dataset_attributes": {"@spider": "usps_collection_boxes"}, "geometry": {"coordinates": [-82.64147997, 38.477959981], "type": "Point"}, "id": "4bwsDn6kSH1M1k5gUg630ln7nHA=", "properties": {"@spider": "usps_collection_boxes", "addr:city": "ASHLAND", "addr:country": "US", "addr:full": "1500 CARTER AVE", "addr:postcode": "41101", "addr:state": "KY", "amenity": "post_box", "brand": "United States Postal Service", "brand:wikidata": "Q668687", "collection_times": "Mo-Fr 12:30", "name": "USPS COLLECTION BOX - BLUE BOX", "note": "ON 12/24 AND 12/31, THIS BOX MAY BE COLLECTED AS EARLY AS 12 NOON.", "nsi_id": "unitedstatespostalservice-a77078", "operator": "United States Postal Service", "operator:short": "USPS", "operator:type": "public", "operator:wikidata": "Q668687", "ref": "4110100009"}, "type": "Feature"}
{"dataset_attributes": {"@spider": "usps_collection_boxes"}, "geometry": {"coordinates": [-82.646490001, 38.45596], "type": "Point"}, "id": "CY537nxS61ZVqo90cYajJBiN0bw=", "properties": {"@spider": "usps_collection_boxes", "addr:city": "ASHLAND", "addr:country": "US", "addr:full": "2912 BLACKBURN AVE", "addr:postcode": "41101", "addr:state": "KY", "amenity": "post_box", "brand": "United States Postal Service", "brand:wikidata": "Q668687", "collection_times": "Mo-Sa 09:30", "name": "USPS COLLECTION BOX - BLUE BOX", "nsi_id": "unitedstatespostalservice-a77078", "operator": "United States Postal Service", "operator:short": "USPS", "operator:type": "public", "operator:wikidata": "Q668687", "ref": "4110100035"}, "type": "Feature"}
{"dataset_attributes": {"@spider": "usps_collection_boxes"}, "geometry": {"coordinates": [-82.633490005, 38.469500001], "type": "Point"}, "id": "3CzHUmFoIEqWbHOk0Erdf2fjq_Q=", "properties": {"@spider": "usps_collection_boxes", "addr:city": "ASHLAND", "addr:country": "US", "addr:full": "2301 LEXINGTON AVE", "addr:postcode": "41101", "addr:state": "KY", "amenity": "post_box", "brand": "United States Postal Service", "brand:wikidata": "Q668687", "collection_times": "Mo-Sa 09:00", "name": "USPS COLLECTION BOX - BLUE BOX", "nsi_id": "unitedstatespostalservice-a77078", "operator": "United States Postal Service", "operator:short": "USPS", "operator:type": "public", "operator:wikidata": "Q668687", "ref": "4110100045"}, "type": "Feature"}
{"dataset_attributes": {"@spider": "usps_collection_boxes"}, "geometry": {"coordinates": [-82.635599981, 38.475069985], "type": "Point"}, "id": "Wk0FEpIPh-aCpY4Srb3T2H6gu-A=", "properties": {"@spider": "usps_collection_boxes", "addr:city": "ASHLAND", "addr:country": "US", "addr:full": "2000 CARTER AVE", "addr:postcode": "41101", "addr:state": "KY", "amenity": "post_box", "brand": "United States Postal Service", "brand:wikidata": "Q668687", "collection_times": "Mo-Fr 11:30", "name": "USPS COLLECTION BOX - BLUE BOX", "nsi_id": "unitedstatespostalservice-a77078", "operator": "United States Postal Service", "operator:short": "USPS", "operator:type": "public", "operator:wikidata": "Q668687", "ref": "4110100047"}, "type": "Feature"}
{"dataset_attributes": {"@spider": "usps_collection_boxes"}, "geometry": {"coordinates": [-82.646099991, 38.479889998], "type": "Point"}, "id": "WZrUwRLDdWiV1yArX32tWfLaP7g=", "properties": {"@spider": "usps_collection_boxes", "addr:city": "ASHLAND", "addr:country": "US", "addr:full": "1140 CARTER AVE", "addr:postcode": "41101", "addr:state": "KY", "amenity": "post_box", "brand": "United States Postal Service", "brand:wikidata": "Q668687", "collection_times": "Mo-Sa 17:00", "name": "USPS COLLECTION BOX - BLUE BOX", "note": "ON 12/24 AND 12/31, THIS BOX MAY BE COLLECTED AS EARLY AS 12 NOON.", "nsi_id": "unitedstatespostalservice-a77078", "operator": "United States Postal Service", "operator:short": "USPS", "operator:type": "public", "operator:wikidata": "Q668687", "ref": "4110100053"}, "type": "Feature"}
{"dataset_attributes": {"@spider": "usps_collection_boxes"}, "geometry": {"coordinates": [-82.646099991, 38.479889998], "type": "Point"}, "id": "h25tCOGu1LNfJ6VjARhIbOCivAI=", "properties": {"@spider": "usps_collection_boxes", "addr:city": "ASHLAND", "addr:country": "US", "addr:full": "1140 CARTER AVE", "addr:postcode": "41101", "addr:state": "KY", "amenity": "post_box", "brand": "United States Postal Service", "brand:wikidata": "Q668687", "collection_times": "Mo-Sa 17:00", "name": "USPS COLLECTION BOX - BLUE BOX", "note": "ON 12/24 AND 12/31, THIS BOX MAY BE COLLECTED AS EARLY AS 12 NOON.", "nsi_id": "unitedstatespostalservice-a77078", "operator": "United States Postal Service", "operator:short": "USPS", "operator:type": "public", "operator:wikidata": "Q668687", "ref": "4110100055"}, "type": "Feature"}
{"dataset_attributes": {"@spider": "usps_collection_boxes"}, "geometry": {"coordinates": [-82.644695, 38.477295], "type": "Point"}, "id": "ukY3dQJjyZlxmgmXNuwa44J4kak=", "properties": {"@spider": "usps_collection_boxes", "addr:city": "ASHLAND", "addr:country": "US", "addr:full": "1700 MARKET ST", "addr:postcode": "41101", "addr:state": "KY", "amenity": "post_box", "brand": "United States Postal Service", "brand:wikidata": "Q668687", "collection_times": "Mo-Sa 11:00", "name": "USPS COLLECTION BOX - BLUE BOX", "nsi_id": "unitedstatespostalservice-a77078", "operator": "United States Postal Service", "operator:short": "USPS", "operator:type": "public", "operator:wikidata": "Q668687", "ref": "4110100061"}, "type": "Feature"}
{"dataset_attributes": {"@spider": "usps_collection_boxes"}, "geometry": {"coordinates": [-82.646099991, 38.479889998], "type": "Point"}, "id": "X1xDpQCbWAA-nZxdLgMiNMU16Ac=", "properties": {"@spider": "usps_collection_boxes", "addr:city": "ASHLAND", "addr:country": "US", "addr:full": "1140 CARTER AVE", "addr:postcode": "41101", "addr:state": "KY", "amenity": "post_box", "brand": "United States Postal Service", "brand:wikidata": "Q668687", "collection_times": "Mo-Sa 17:00", "name": "USPS COLLECTION BOX - PO LOBBY", "note": "ON 12/24 AND 12/31, THIS BOX MAY BE COLLECTED AS EARLY AS 12 NOON.", "nsi_id": "unitedstatespostalservice-a77078", "operator": "United States Postal Service", "operator:short": "USPS", "operator:type": "public", "operator:wikidata": "Q668687", "ref": "4110100063"}, "type": "Feature"}
{"dataset_attributes": {"@spider": "usps_collection_boxes"}, "geometry": {"coordinates": [-82.642086823, 38.460005407], "type": "Point"}, "id": "CjBBBbTG8jg0FMiX0RMbL3BPmzs=", "properties": {"@spider": "usps_collection_boxes", "addr:city": "ASHLAND", "addr:country": "US", "addr:full": "2900 MOORE ST", "addr:postcode": "41101", "addr:state": "KY", "amenity": "post_box", "brand": "United States Postal Service", "brand:wikidata": "Q668687", "collection_times": "Mo-Sa 11:00", "name": "USPS COLLECTION BOX - BLUE BOX", "nsi_id": "unitedstatespostalservice-a77078", "operator": "United States Postal Service", "operator:short": "USPS", "operator:type": "public", "operator:wikidata": "Q668687", "ref": "4110100064"}, "type": "Feature"}
{"dataset_attributes": {"@spider": "usps_collection_boxes"}, "geometry": {"coordinates": [-82.633060013, 38.471259991], "type": "Point"}, "id": "Wu8TsVdL-1WHKmIySZp4nyKT2hI=", "properties": {"@spider": "usps_collection_boxes", "addr:city": "ASHLAND", "addr:country": "US", "addr:full": "617 23RD ST", "addr:postcode": "41101", "addr:state": "KY", "amenity": "post_box", "brand": "United States Postal Service", "brand:wikidata": "Q668687", "collection_times": "Mo-Sa 09:00", "name": "USPS COLLECTION BOX - BLUE BOX", "nsi_id": "unitedstatespostalservice-a77078", "operator": "United States Postal Service", "operator:short": "USPS", "operator:type": "public", "operator:wikidata": "Q668687", "ref": "4110100068"}, "type": "Feature"}
{"dataset_attributes": {"@spider": "usps_collection_boxes"}, "geometry": {"coordinates": [-82.638909995, 38.480030018], "type": "Point"}, "id": "puYxDFdfnA8gOazSk03quFyjilI=", "properties": {"@spider": "usps_collection_boxes", "addr:city": "ASHLAND", "addr:country": "US", "addr:full": "1539 GREENUP AVE", "addr:postcode": "41101", "addr:state": "KY", "amenity": "post_box", "brand": "United States Postal Service", "brand:wikidata": "Q668687", "collection_times": "Mo-Sa 10:00", "name": "USPS COLLECTION BOX - BLUE BOX", "nsi_id": "unitedstatespostalservice-a77078", "operator": "United States Postal Service", "operator:short": "USPS", "operator:type": "public", "operator:wikidata": "Q668687", "ref": "4110100069"}, "type": "Feature"}
{"dataset_attributes": {"@spider": "usps_collection_boxes"}, "geometry": {"coordinates": [-82.623649986, 38.469040002], "type": "Point"}, "id": "UOQKKweayRSWAebvg1ZbQkK7G2c=", "properties": {"@spider": "usps_collection_boxes", "addr:city": "ASHLAND", "addr:country": "US", "addr:full": "336 29TH ST", "addr:postcode": "41101", "addr:state": "KY", "amenity": "post_box", "brand": "United States Postal Service", "brand:wikidata": "Q668687", "collection_times": "Mo-Sa 13:00", "name": "USPS COLLECTION BOX - BLUE BOX", "note": "ON 12/24 AND 12/31, THIS BOX MAY BE COLLECTED AS EARLY AS 12 NOON.", "nsi_id": "unitedstatespostalservice-a77078", "operator": "United States Postal Service", "operator:short": "USPS", "operator:type": "public", "operator:wikidata": "Q668687", "ref": "4110100070"}, "type": "Feature"}
{"dataset_attributes": {"@spider": "usps_collection_boxes"}, "geometry": {"coordinates": [-82.639950021, 38.478540009], "type": "Point"}, "id": "fGS4kaj7OPPeTi8EqwU2lEM8siQ=", "properties": {"@spider": "usps_collection_boxes", "addr:city": "ASHLAND", "addr:country": "US", "addr:full": "1544 WINCHESTER AVE", "addr:postcode": "41101", "addr:state": "KY", "amenity": "post_box", "brand": "United States Postal Service", "brand:wikidata": "Q668687", "collection_times": "Mo-Sa 10:30", "name": "USPS COLLECTION BOX - BLUE BOX", "nsi_id": "unitedstatespostalservice-a77078", "operator": "United States Postal Service", "operator:short": "USPS", "operator:type": "public", "operator:wikidata": "Q668687", "ref": "4110100076"}, "type": "Feature"}
{"dataset_attributes": {"@spider": "usps_collection_boxes"}, "geometry": {"coordinates": [-82.649589964, 38.477839994], "type": "Point"}, "id": "TuIDUHtB3HUgzqURc-R8ol83SSk=", "properties": {"@spider": "usps_collection_boxes", "addr:city": "ASHLAND", "addr:country": "US", "addr:full": "711 MARTIN LUTHER KING JR BLVD", "addr:postcode": "41101", "addr:state": "KY", "amenity": "post_box", "brand": "United States Postal Service", "brand:wikidata": "Q668687", "collection_times": "Mo-Sa 10:00", "name": "USPS COLLECTION BOX - BLUE BOX", "nsi_id": "unitedstatespostalservice-a77078", "operator": "United States Postal Service", "operator:short": "USPS", "operator:type": "public", "operator:wikidata": "Q668687", "ref": "4110100077"}, "type": "Feature"}
{"dataset_attributes": {"@spider": "usps_collection_boxes"}, "geometry": {"coordinates": [-82.642478733, 38.462658761], "type": "Point"}, "id": "czeQjpq0ESlgYfct2kAGVCV2ZmE=", "properties": {"@spider": "usps_collection_boxes", "addr:city": "ASHLAND", "addr:country": "US", "addr:full": "2000 ASHLAND DR", "addr:postcode": "41101", "addr:state": "KY", "amenity": "post_box", "brand": "United States Postal Service", "brand:wikidata": "Q668687", "collection_times": "Mo-Sa 09:00", "name": "USPS COLLECTION BOX - BLUE BOX", "nsi_id": "unitedstatespostalservice-a77078", "operator": "United States Postal Service", "operator:short": "USPS", "operator:type": "public", "operator:wikidata": "Q668687", "ref": "4110100078"}, "type": "Feature"}
{"dataset_attributes": {"@spider": "usps_collection_boxes"}, "geometry": {"coordinates": [-82.660602648, 38.488485731], "type": "Point"}, "id": "I9_yHCo8_45VFLUOJG0PyR_C820=", "properties": {"@spider": "usps_collection_boxes", "addr:city": "ASHLAND", "addr:country": "US", "addr:full": "201 PROVIDENCE HILL DR", "addr:postcode": "41101", "addr:state": "KY", "amenity": "post_box", "brand": "United States Postal Service", "brand:wikidata": "Q668687", "collection_times": "Mo-Sa 09:00", "name": "USPS COLLECTION BOX - BLUE BOX", "nsi_id": "unitedstatespostalservice-a77078", "operator": "United States Postal Service", "operator:short": "USPS", "operator:type": "public", "operator:wikidata": "Q668687", "ref": "4110100080"}, "type": "Feature"}
{"dataset_attributes": {"@spider": "usps_collection_boxes"}, "geometry": {"coordinates": [-82.646099991, 38.479889998], "type": "Point"}, "id": "kCSlCQ6H9YpJrWS_RrYiSU_rGiI=", "properties": {"@spider": "usps_collection_boxes", "addr:city": "ASHLAND", "addr:country": "US", "addr:full": "1140 CARTER AVE", "addr:postcode": "41101", "addr:state": "KY", "amenity": "post_box", "brand": "United States Postal Service", "brand:wikidata": "Q668687", "collection_times": "Mo-Fr 17:00; Sa 13:00", "name": "USPS COLLECTION BOX - PO LOBBY", "note": "ON 12/24 AND 12/31, THIS BOX MAY BE COLLECTED AS EARLY AS 12 NOON.", "nsi_id": "unitedstatespostalservice-a77078", "operator": "United States Postal Service", "operator:short": "USPS", "operator:type": "public", "operator:wikidata": "Q668687", "ref": "4110100085"}, "type": "Feature"}
{"dataset_attributes": {"@spider": "usps_collection_boxes"}, "geometry": {"coordinates": [-82.6687294, 38.456359], "type": "Point"}, "id": "8NdUGayuAwtUBHcuP2NF3jpDddk=", "properties": {"@spider": "usps_collection_boxes", "addr:city": "ASHLAND", "addr:country": "US", "addr:full": "3501 13TH ST", "addr:postcode": "41102", "addr:state": "KY", "amenity": "post_box", "brand": "United States Postal Service", "brand:wikidata": "Q668687", "collection_times": "Mo-Sa 09:30", "name": "USPS COLLECTION BOX - BLUE BOX", "nsi_id": "unitedstatespostalservice-a77078", "operator": "United States Postal Service", "operator:short": "USPS", "operator:type": "public", "operator:wikidata": "Q668687", "ref": "4110200000"}, "type": "Feature"}
{"dataset_attributes": {"@spider": "usps_collection_boxes"}, "geometry": {"coordinates": [-82.691272892, 38.435516296], "type": "Point"}, "id": "ZIGSKnxOU6j-hyqxNP1wq5aA0pM=", "properties": {"@spider": "usps_collection_boxes", "addr:city": "ASHLAND", "addr:country": "US", "addr:full": "6123 US ROUTE 60", "addr:postcode": "41102", "addr:state": "KY", "amenity": "post_box", "brand": "United States Postal Service", "brand:wikidata": "Q668687", "collection_times": "Mo-Sa 13:00", "name": "USPS COLLECTION BOX - BLUE BOX", "note": "ON 12/24 AND 12/31, THIS BOX MAY BE COLLECTED AS EARLY AS 12 NOON.", "nsi_id": "unitedstatespostalservice-a77078", "operator": "United States Postal Service", "operator:short": "USPS", "operator:type": "public", "operator:wikidata": "Q668687", "ref": "4110200005"}, "type": "Feature"}
{"dataset_attributes": {"@spider": "usps_collection_boxes"}, "geometry": {"coordinates": [-82.670519996, 38.467039996], "type": "Point"}, "id": "gv9RGNuKAn0VoRlbg1KQIVhAolo=", "properties": {"@spider": "usps_collection_boxes", "addr:city": "ASHLAND", "addr:country": "US", "addr:full": "3100 ROBERTS DR", "addr:postcode": "41102", "addr:state": "KY", "amenity": "post_box", "brand": "United States Postal Service", "brand:wikidata": "Q668687", "collection_times": "Mo-Sa 12:30", "name": "USPS COLLECTION BOX - BLUE BOX", "note": "ON 12/24 AND 12/31, THIS BOX MAY BE COLLECTED AS EARLY AS 12 NOON.", "nsi_id": "unitedstatespostalservice-a77078", "operator": "United States Postal Service", "operator:short": "USPS", "operator:type": "public", "operator:wikidata": "Q668687", "ref": "4110200011"}, "type": "Feature"}
{"dataset_attributes": {"@spider": "usps_collection_boxes"}, "geometry": {"coordinates": [-82.714330024, 38.401439995], "type": "Point"}, "id": "7EZgkj-aObVBHyJwMWPPWUGcRC8=", "properties": {"@spider": "usps_collection_boxes", "addr:city": "ASHLAND", "addr:country": "US", "addr:full": "10699 US ROUTE 60", "addr:postcode": "41102", "addr:state": "KY", "amenity": "post_box", "brand": "United States Postal Service", "brand:wikidata": "Q668687", "collection_times": "Mo-Sa 10:00", "name": "USPS COLLECTION BOX - BLUE BOX", "nsi_id": "unitedstatespostalservice-a77078", "operator": "United States Postal Service", "operator:short": "USPS", "operator:type": "public", "operator:wikidata": "Q668687", "ref": "4110200012"}, "type": "Feature"}
{"dataset_attributes": {"@spider": "usps_collection_boxes"}, "geometry": {"coordinates": [-82.843449974, 38.027540016], "type": "Point"}, "id": "O5jQs01oKf5ELYtEFIvCueWpfLQ=", "properties": {"@spider": "usps_collection_boxes", "addr:city": "BLAINE", "addr:country": "US", "addr:full": "30 S HIGHWAY 201", "addr:postcode": "41124", "addr:state": "KY", "amenity": "post_box", "brand": "United States Postal Service", "brand:wikidata": "Q668687", "collection_times": "Mo-Fr 13:00; Sa 10:00", "name": "USPS COLLECTION BOX - BLUE BOX", "note": "ON 12/24 AND 12/31, THIS BOX MAY BE COLLECTED AS EARLY AS 12 NOON.", "nsi_id": "unitedstatespostalservice-a77078", "operator": "United States Postal Service", "operator:short": "USPS", "operator:type": "public", "operator:wikidata": "Q668687", "ref": "4112400000"}, "type": "Feature"}
{"dataset_attributes": {"@spider": "usps_collection_boxes"}, "geometry": {"coordinates": [-82.843449974, 38.027540016], "type": "Point"}, "id": "RM7i7GCsb-UgXKkQB0f36B2XHdE=", "properties": {"@spider": "usps_collection_boxes", "addr:city": "BLAINE", "addr:country": "US", "addr:full": "30 S HIGHWAY 201", "addr:postcode": "41124", "addr:state": "KY", "amenity": "post_box", "brand": "United States Postal Service", "brand:wikidata": "Q668687", "collection_times": "Mo-Fr 13:00; Sa 10:00", "name": "USPS COLLECTION BOX - PO LOBBY", "note": "ON 12/24 AND 12/31, THIS BOX MAY BE COLLECTED AS EARLY AS 12 NOON.", "nsi_id": "unitedstatespostalservice-a77078", "operator": "United States Postal Service", "operator:short": "USPS", "operator:type": "public", "operator:wikidata": "Q668687", "ref": "4112400001"}, "type": "Feature"}
{"dataset_attributes": {"@spider": "usps_collection_boxes"}, "geometry": {"coordinates": [-82.843449974, 38.027540016], "type": "Point"}, "id": "wl7lACZUO7DtafgGzIkujbx8Z0s=", "properties": {"@spider": "usps_collection_boxes", "addr:city": "BLAINE", "addr:country": "US", "addr:full": "30 S HIGHWAY 201", "addr:postcode": "41124", "addr:state": "KY", "amenity": "post_box", "brand": "United States Postal Service", "brand:wikidata": "Q668687", "collection_times": "Mo-Fr 13:00; Sa 10:00", "name": "USPS COLLECTION BOX - PO LOBBY", "note": "ON 12/24 AND 12/31, THIS BOX MAY BE COLLECTED AS EARLY AS 12 NOON.", "nsi_id": "unitedstatespostalservice-a77078", "operator": "United States Postal Service", "operator:short": "USPS", "operator:type": "public", "operator:wikidata": "Q668687", "ref": "4112400003"}, "type": "Feature"}
{"dataset_attributes": {"@spider": "usps_collection_boxes"}, "geometry": {"coordinates": [-82.5981285, 38.415044124], "type": "Point"}, "id": "CIDzxjRyJRCySFUd6w7Jmn3Eamc=", "properties": {"@spider": "usps_collection_boxes", "addr:city": "CATLETTSBURG", "addr:country": "US", "addr:full": "2900 LOUISA ST", "addr:postcode": "41129", "addr:state": "KY", "amenity": "post_box", "brand": "United States Postal Service", "brand:wikidata": "Q668687", "collection_times": "Mo-Fr 16:00; Sa 09:00", "name": "USPS COLLECTION BOX - BLUE BOX", "note": "ON 12/24 AND 12/31, THIS BOX MAY BE COLLECTED AS EARLY AS 12 NOON.", "nsi_id": "unitedstatespostalservice-a77078", "operator": "United States Postal Service", "operator:short": "USPS", "operator:type": "public", "operator:wikidata": "Q668687", "ref": "4112900002"}, "type": "Feature"}
{"dataset_attributes": {"@spider": "usps_collection_boxes"}, "geometry": {"coordinates": [-82.598542225, 38.417919222], "type": "Point"}, "id": "ubmbuqbiXb2_V0dMVxFyNO6Fa9Y=", "properties": {"@spider": "usps_collection_boxes", "addr:city": "CATLETTSBURG", "addr:country": "US", "addr:full": "2501 BROADWAY ST", "addr:postcode": "41129", "addr:state": "KY", "amenity": "post_box", "brand": "United States Postal Service", "brand:wikidata": "Q668687", "collection_times": "Mo-Fr 16:00; Sa 09:00", "name": "USPS COLLECTION BOX - BLUE BOX", "note": "ON 12/24 AND 12/31, THIS BOX MAY BE COLLECTED AS EARLY AS 12 NOON.", "nsi_id": "unitedstatespostalservice-a77078", "operator": "United States Postal Service", "operator:short": "USPS", "operator:type": "public", "operator:wikidata": "Q668687", "ref": "4112900009"}, "type": "Feature"}
{"dataset_attributes": {"@spider": "usps_collection_boxes"}, "geometry": {"coordinates": [-82.601599965, 38.404040019], "type": "Point"}, "id": "JYw0blcTRDqTh1kASkodJ3D8C3w=", "properties": {"@spider": "usps_collection_boxes", "addr:city": "CATLETTSBURG", "addr:country": "US", "addr:full": "3514 COURT ST", "addr:postcode": "41129", "addr:state": "KY", "amenity": "post_box", "brand": "United States Postal Service", "brand:wikidata": "Q668687", "collection_times": "Mo-Sa 16:00", "name": "USPS COLLECTION BOX - PO LOBBY", "note": "ON 12/24 AND 12/31, THIS BOX MAY BE COLLECTED AS EARLY AS 12 NOON.", "nsi_id": "unitedstatespostalservice-a77078", "operator": "United States Postal Service", "operator:short": "USPS", "operator:type": "public", "operator:wikidata": "Q668687", "ref": "4112900012"}, "type": "Feature"}
{"dataset_attributes": {"@spider": "usps_collection_boxes"}, "geometry": {"coordinates": [-82.601599965, 38.404040019], "type": "Point"}, "id": "fD5kxHoOi_2-E7vn8rWY8s3SK8g=", "properties": {"@spider": "usps_collection_boxes", "addr:city": "CATLETTSBURG", "addr:country": "US", "addr:full": "3514 COURT ST", "addr:postcode": "41129", "addr:state": "KY", "amenity": "post_box", "brand": "United States Postal Service", "brand:wikidata": "Q668687", "collection_times": "Mo-Sa 16:00", "name": "USPS COLLECTION BOX - PO LOBBY", "note": "ON 12/24 AND 12/31, THIS BOX MAY BE COLLECTED AS EARLY AS 12 NOON.", "nsi_id": "unitedstatespostalservice-a77078", "operator": "United States Postal Service", "operator:short": "USPS", "operator:type": "public", "operator:wikidata": "Q668687", "ref": "4112900013"}, "type": "Feature"}
{"dataset_attributes": {"@spider": "usps_collection_boxes"}, "geometry": {"coordinates": [-82.600947229, 38.403492759], "type": "Point"}, "id": "4oZTinf7ho3utu1SayGIOu017tk=", "properties": {"@spider": "usps_collection_boxes", "addr:city": "CATLETTSBURG", "addr:country": "US", "addr:full": "3600 LOUISA RD", "addr:postcode": "41129", "addr:state": "KY", "amenity": "post_box", "brand": "United States Postal Service", "brand:wikidata": "Q668687", "collection_times": "Mo-Fr 16:00; Sa 14:45", "name": "USPS COLLECTION BOX - BLUE BOX", "note": "ON 12/24 AND 12/31, THIS BOX MAY BE COLLECTED AS EARLY AS 12 NOON.", "nsi_id": "unitedstatespostalservice-a77078", "operator": "United States Postal Service", "operator:short": "USPS", "operator:type": "public", "operator:wikidata": "Q668687", "ref": "4112900014"}, "type": "Feature"}
{"dataset_attributes": {"@spider": "usps_collection_boxes"}, "geometry": {"coordinates": [-82.601599965, 38.404040019], "type": "Point"}, "id": "c__7tdkFkN4DeQRwmBegtKqGZYQ=", "properties": {"@spider": "usps_collection_boxes", "addr:city": "CATLETTSBURG", "addr:country": "US", "addr:full": "3514 COURT ST", "addr:postcode": "41129", "addr:state": "KY", "amenity": "post_box", "brand": "United States Postal Service", "brand:wikidata": "Q668687", "collection_times": "Mo-Sa 16:00", "name": "USPS COLLECTION BOX - BLUE BOX", "note": "ON 12/24 AND 12/31, THIS BOX MAY BE COLLECTED AS EARLY AS 12 NOON.", "nsi_id": "unitedstatespostalservice-a77078", "operator": "United States Postal Service", "operator:short": "USPS", "operator:type": "public", "operator:wikidata": "Q668687", "ref": "4112900015"}, "type": "Feature"}
{"dataset_attributes": {"@spider": "usps_collection_boxes"}, "geometry": {"coordinates": [-82.698413372, 38.363507234], "type": "Point"}, "id": "qkeWrdoBq5x12EwwB2dkrAZT3qc=", "properties": {"@spider": "usps_collection_boxes", "addr:city": "CATLETTSBURG", "addr:country": "US", "addr:full": "15300 STATE ROUTE 180", "addr:postcode": "41129", "addr:state": "KY", "amenity": "post_box", "brand": "United States Postal Service", "brand:wikidata": "Q668687", "collection_times": "Mo-Sa 10:30", "name": "USPS COLLECTION BOX - BLUE BOX", "nsi_id": "unitedstatespostalservice-a77078", "operator": "United States Postal Service", "operator:short": "USPS", "operator:type": "public", "operator:wikidata": "Q668687", "ref": "4112900017"}, "type": "Feature"}
{"dataset_attributes": {"@spider": "usps_collection_boxes"}, "geometry": {"coordinates": [-82.5981285, 38.415044124], "type": "Point"}, "id": "QW4CtSJ7qbQf-agvu5cbN0x6CKw=", "properties": {"@spider": "usps_collection_boxes", "addr:city": "CATLETTSBURG", "addr:country": "US", "addr:full": "2900 LOUISA ST", "addr:postcode": "41129", "addr:state": "KY", "amenity": "post_box", "brand": "United States Postal Service", "brand:wikidata": "Q668687", "collection_times": "Mo-Fr 16:00; Sa 09:00", "name": "USPS COLLECTION BOX - BLUE BOX", "note": "ON 12/24 AND 12/31, THIS BOX MAY BE COLLECTED AS EARLY AS 12 NOON.", "nsi_id": "unitedstatespostalservice-a77078", "operator": "United States Postal Service", "operator:short": "USPS", "operator:type": "public", "operator:wikidata": "Q668687", "ref": "4112900019"}, "type": "Feature"}
{"dataset_attributes": {"@spider": "usps_collection_boxes"}, "geometry": {"coordinates": [-82.601599965, 38.404040019], "type": "Point"}, "id": "vZP4Vmcl5bL-wbvi-Pe2C-xRUKU=", "properties": {"@spider": "usps_collection_boxes", "addr:city": "CATLETTSBURG", "addr:country": "US", "addr:full": "3514 COURT ST", "addr:postcode": "41129", "addr:state": "KY", "amenity": "post_box", "brand": "United States Postal Service", "brand:wikidata": "Q668687", "collection_times": "Mo-Fr 16:00; Sa 12:00", "name": "USPS COLLECTION BOX - PO LOBBY", "note": "ON 12/24 AND 12/31, THIS BOX MAY BE COLLECTED AS EARLY AS 12 NOON.", "nsi_id": "unitedstatespostalservice-a77078", "operator": "United States Postal Service", "operator:short": "USPS", "operator:type": "public", "operator:wikidata": "Q668687", "ref": "4112900021"}, "type": "Feature"}
{"dataset_attributes": {"@spider": "usps_collection_boxes"}, "geometry": {"coordinates": [-83.075510004, 38.283879989], "type": "Point"}, "id": "oOftE6Tdzb1a-cuqalBtoMeYzjc=", "properties": {"@spider": "usps_collection_boxes", "addr:city": "GRAHN", "addr:country": "US", "addr:full": "61 POST OFFICE AVE", "addr:postcode": "41142", "addr:state": "KY", "amenity": "post_box", "brand": "United States Postal Service", "brand:wikidata": "Q668687", "collection_times": "Mo-Fr 15:45; Sa 11:00", "name": "USPS COLLECTION BOX - BLUE BOX", "note": "ON 12/24 AND 12/31, THIS BOX MAY BE COLLECTED AS EARLY AS 12 NOON.", "nsi_id": "unitedstatespostalservice-a77078", "operator": "United States Postal Service", "operator:short": "USPS", "operator:type": "public", "operator:wikidata": "Q668687", "ref": "4114200000"}, "type": "Feature"}
{"dataset_attributes": {"@spider": "usps_collection_boxes"}, "geometry": {"coordinates": [-83.075510004, 38.283879989], "type": "Point"}, "id": "eOOKuql_thNOcIDo7PmAavVrO4k=", "properties": {"@spider": "usps_collection_boxes", "addr:city": "GRAHN", "addr:country": "US", "addr:full": "61 POST OFFICE AVE", "addr:postcode": "41142", "addr:state": "KY", "amenity": "post_box", "brand": "United States Postal Service", "brand:wikidata": "Q668687", "collection_times": "Mo-Fr 15:45; Sa 11:00", "name": "USPS COLLECTION BOX - PO LOBBY", "note": "ON 12/24 AND 12/31, THIS BOX MAY BE COLLECTED AS EARLY AS 12 NOON.", "nsi_id": "unitedstatespostalservice-a77078", "operator": "United States Postal Service", "operator:short": "USPS", "operator:type": "public", "operator:wikidata": "Q668687", "ref": "4114200001"}, "type": "Feature"}
{"dataset_attributes": {"@spider": "usps_collection_boxes"}, "geometry": {"coordinates": [-83.075510004, 38.283879989], "type": "Point"}, "id": "qlMWb-wVJ3x2_PBeB4Gbph36Un4=", "properties": {"@spider": "usps_collection_boxes", "addr:city": "GRAHN", "addr:country": "US", "addr:full": "61 POST OFFICE AVE", "addr:postcode": "41142", "addr:state": "KY", "amenity": "post_box", "brand": "United States Postal Service", "brand:wikidata": "Q668687", "collection_times": "Mo-Fr 15:45; Sa 11:00", "name": "USPS COLLECTION BOX - PO LOBBY", "note": "ON 12/24 AND 12/31, THIS BOX MAY BE COLLECTED AS EARLY AS 12 NOON.", "nsi_id": "unitedstatespostalservice-a77078", "operator": "United States Postal Service", "operator:short": "USPS", "operator:type": "public", "operator:wikidata": "Q668687", "ref": "4114200003"}, "type": "Feature"}
{"dataset_attributes": {"@spider": "usps_collection_boxes"}, "geometry": {"coordinates": [-82.948729638, 38.332641901], "type": "Point"}, "id": "KTDHbke50hwjFNpwi5VpmqWzHT0=", "properties": {"@spider": "usps_collection_boxes", "addr:city": "GRAYSON", "addr:country": "US", "addr:full": "100 E MAIN ST", "addr:postcode": "41143", "addr:state": "KY", "amenity": "post_box", "brand": "United States Postal Service", "brand:wikidata": "Q668687", "collection_times": "Mo-Fr 15:00; Sa 13:00", "name": "USPS COLLECTION BOX - BLUE BOX", "note": "ON 12/24 AND 12/31, THIS BOX MAY BE COLLECTED AS EARLY AS 12 NOON.", "nsi_id": "unitedstatespostalservice-a77078", "operator": "United States Postal Service", "operator:short": "USPS", "operator:type": "public", "operator:wikidata": "Q668687", "ref": "4114300002"}, "type": "Feature"}
{"dataset_attributes": {"@spider": "usps_collection_boxes"}, "geometry": {"coordinates": [-82.941619997, 38.341419994], "type": "Point"}, "id": "3DwQlY4R9VTp-I-OMHmAPMhZu6Q=", "properties": {"@spider": "usps_collection_boxes", "addr:city": "GRAYSON", "addr:country": "US", "addr:full": "750 N CAROL MALONE BLVD", "addr:postcode": "41143", "addr:state": "KY", "amenity": "post_box", "brand": "United States Postal Service", "brand:wikidata": "Q668687", "collection_times": "Mo-Sa 10:00", "name": "USPS COLLECTION BOX - BLUE BOX", "nsi_id": "unitedstatespostalservice-a77078", "operator": "United States Postal Service", "operator:short": "USPS", "operator:type": "public", "operator:wikidata": "Q668687", "ref": "4114300006"}, "type": "Feature"}
{"dataset_attributes": {"@spider": "usps_collection_boxes"}, "geometry": {"coordinates": [-82.948050787, 38.324796128], "type": "Point"}, "id": "gmpDtEHfdkwLqq7HFjlTzVtk6s0=", "properties": {"@spider": "usps_collection_boxes", "addr:city": "GRAYSON", "addr:country": "US", "addr:full": "390 S CAROL MALONE BLVD", "addr:postcode": "41143", "addr:state": "KY", "amenity": "post_box", "brand": "United States Postal Service", "brand:wikidata": "Q668687", "collection_times": "Mo-Sa 16:30", "name": "USPS COLLECTION BOX - PO LOBBY", "note": "ON 12/24 AND 12/31, THIS BOX MAY BE COLLECTED AS EARLY AS 12 NOON.", "nsi_id": "unitedstatespostalservice-a77078", "operator": "United States Postal Service", "operator:short": "USPS", "operator:type": "public", "operator:wikidata": "Q668687", "ref": "4114300007"}, "type": "Feature"}
{"dataset_attributes": {"@spider": "usps_collection_boxes"}, "geometry": {"coordinates": [-82.948050787, 38.324796128], "type": "Point"}, "id": "035A40ArwttYddDP45BczWJ7FiM=", "properties": {"@spider": "usps_collection_boxes", "addr:city": "GRAYSON", "addr:country": "US", "addr:full": "390 S CAROL MALONE BLVD", "addr:postcode": "41143", "addr:state": "KY", "amenity": "post_box", "brand": "United States Postal Service", "brand:wikidata": "Q668687", "collection_times": "Mo-Sa 16:30", "name": "USPS COLLECTION BOX - BLUE BOX", "note": "ON 12/24 AND 12/31, THIS BOX MAY BE COLLECTED AS EARLY AS 12 NOON.", "nsi_id": "unitedstatespostalservice-a77078", "operator": "United States Postal Service", "operator:short": "USPS", "operator:type": "public", "operator:wikidata": "Q668687", "ref": "4114300008"}, "type": "Feature"}
{"dataset_attributes": {"@spider": "usps_collection_boxes"}, "geometry": {"coordinates": [-82.942609984, 38.347819996], "type": "Point"}, "id": "Tu7rzztUR26vES7j3PEYNBtti7s=", "properties": {"@spider": "usps_collection_boxes", "addr:city": "GRAYSON", "addr:country": "US", "addr:full": "951 N CAROL MALONE BLVD", "addr:postcode": "41143", "addr:state": "KY", "amenity": "post_box", "brand": "United States Postal Service", "brand:wikidata": "Q668687", "collection_times": "Mo-Sa 09:00", "name": "USPS COLLECTION BOX - BLUE BOX", "nsi_id": "unitedstatespostalservice-a77078", "operator": "United States Postal Service", "operator:short": "USPS", "operator:type": "public", "operator:wikidata": "Q668687", "ref": "4114300009"}, "type": "Feature"}
{"dataset_attributes": {"@spider": "usps_collection_boxes"}, "geometry": {"coordinates": [-82.948050787, 38.324796128], "type": "Point"}, "id": "2N8-FlgP5s4hgqZdHXaiEZybuLY=", "properties": {"@spider": "usps_collection_boxes", "addr:city": "GRAYSON", "addr:country": "US", "addr:full": "390 S CAROL MALONE BLVD", "addr:postcode": "41143", "addr:state": "KY", "amenity": "post_box", "brand": "United States Postal Service", "brand:wikidata": "Q668687", "collection_times": "Mo-Fr 16:30; Sa 12:00", "name": "USPS COLLECTION BOX - PO LOBBY", "note": "ON 12/24 AND 12/31, THIS BOX MAY BE COLLECTED AS EARLY AS 12 NOON.", "nsi_id": "unitedstatespostalservice-a77078", "operator": "United States Postal Service", "operator:short": "USPS", "operator:type": "public", "operator:wikidata": "Q668687", "ref": "4114300014"}, "type": "Feature"}
{"dataset_attributes": {"@spider": "usps_collection_boxes"}, "geometry": {"coordinates": [-82.919109977, 38.282070001], "type": "Point"}, "id": "_hpluhh-561WTa-hs8ZWsxzFJmQ=", "properties": {"@spider": "usps_collection_boxes", "addr:city": "HITCHINS", "addr:country": "US", "addr:full": "3625 S STATE HIGHWAY 1", "addr:postcode": "41146", "addr:state": "KY", "amenity": "post_box", "brand": "United States Postal Service", "brand:wikidata": "Q668687", "collection_times": "Mo-Fr 15:45; Sa 11:30", "name": "USPS COLLECTION BOX - BLUE BOX", "note": "ON 12/24 AND 12/31, THIS BOX MAY BE COLLECTED AS EARLY AS 12 NOON.", "nsi_id": "unitedstatespostalservice-a77078", "operator": "United States Postal Service", "operator:short": "USPS", "operator:type": "public", "operator:wikidata": "Q668687", "ref": "4114600000"}, "type": "Feature"}
{"dataset_attributes": {"@spider": "usps_collection_boxes"}, "geometry": {"coordinates": [-82.919109977, 38.282070001], "type": "Point"}, "id": "CaPtXwR6zUWKtNWLL1zEOEydZso=", "properties": {"@spider": "usps_collection_boxes", "addr:city": "HITCHINS", "addr:country": "US", "addr:full": "3625 S STATE HIGHWAY 1", "addr:postcode": "41146", "addr:state": "KY", "amenity": "post_box", "brand": "United States Postal Service", "brand:wikidata": "Q668687", "collection_times": "Mo-Fr 15:45; Sa 11:30", "name": "USPS COLLECTION BOX - PO LOBBY", "note": "ON 12/24 AND 12/31, THIS BOX MAY BE COLLECTED AS EARLY AS 12 NOON.", "nsi_id": "unitedstatespostalservice-a77078", "operator": "United States Postal Service", "operator:short": "USPS", "operator:type": "public", "operator:wikidata": "Q668687", "ref": "4114600001"}, "type": "Feature"}
{"dataset_attributes": {"@spider": "usps_collection_boxes"}, "geometry": {"coordinates": [-82.919109977, 38.282070001], "type": "Point"}, "id": "1KnwY3dLacnsWPpRO7fSM3SIFa8=", "properties": {"@spider": "usps_collection_boxes", "addr:city": "HITCHINS", "addr:country": "US", "addr:full": "3625 S STATE HIGHWAY 1", "addr:postcode": "41146", "addr:state": "KY", "amenity": "post_box", "brand": "United States Postal Service", "brand:wikidata": "Q668687", "collection_times": "Mo-Fr 15:30; Sa 11:15", "name": "USPS COLLECTION BOX - PO LOBBY", "note": "ON 12/24 AND 12/31, THIS BOX MAY BE COLLECTED AS EARLY AS 12 NOON.", "nsi_id": "unitedstatespostalservice-a77078", "operator": "United States Postal Service", "operator:short": "USPS", "operator:type": "public", "operator:wikidata": "Q668687", "ref": "4114600003"}, "type": "Feature"}
{"dataset_attributes": {"@spider": "usps_collection_boxes"}, "geometry": {"coordinates": [-83.007035978, 38.040200063], "type": "Point"}, "id": "JKXxmbkXsizucffG7_8t0NHGpg8=", "properties": {"@spider": "usps_collection_boxes", "addr:city": "ISONVILLE", "addr:country": "US", "addr:full": "5454 S KY 32", "addr:postcode": "41149", "addr:state": "KY", "amenity": "post_box", "brand": "United States Postal Service", "brand:wikidata": "Q668687", "collection_times": "Mo-Fr 12:00; Sa 11:30", "name": "USPS COLLECTION BOX - BLUE BOX", "nsi_id": "unitedstatespostalservice-a77078", "operator": "United States Postal Service", "operator:short": "USPS", "operator:type": "public", "operator:wikidata": "Q668687", "ref": "4114900000"}, "type": "Feature"}
{"dataset_attributes": {"@spider": "usps_collection_boxes"}, "geometry": {"coordinates": [-82.915359998, 38.006459991], "type": "Point"}, "id": "PnAzou3TikBqCXCuZP7u-MuEyl8=", "properties": {"@spider": "usps_collection_boxes", "addr:city": "MARTHA", "addr:country": "US", "addr:full": "247 HIGHWAY 469", "addr:postcode": "41159", "addr:state": "KY", "amenity": "post_box", "brand": "United States Postal Service", "brand:wikidata": "Q668687", "collection_times": "Mo-Fr 12:45; Sa 11:45", "name": "USPS COLLECTION BOX - BLUE BOX", "note": "ON 12/24 AND 12/31, THIS BOX MAY BE COLLECTED AS EARLY AS 12 NOON.", "nsi_id": "unitedstatespostalservice-a77078", "operator": "United States Postal Service", "operator:short": "USPS", "operator:type": "public", "operator:wikidata": "Q668687", "ref": "4115900000"}, "type": "Feature"}
{"dataset_attributes": {"@spider": "usps_collection_boxes"}, "geometry": {"coordinates": [-82.915359998, 38.006459991], "type": "Point"}, "id": "3Ez6HBbDe3c33nbSb3I0cF_x4Jc=", "properties": {"@spider": "usps_collection_boxes", "addr:city": "MARTHA", "addr:country": "US", "addr:full": "247 HIGHWAY 469", "addr:postcode": "41159", "addr:state": "KY", "amenity": "post_box", "brand": "United States Postal Service", "brand:wikidata": "Q668687", "collection_times": "Mo-Fr 12:45; Sa 11:45", "name": "USPS COLLECTION BOX - PO LOBBY", "note": "ON 12/24 AND 12/31, THIS BOX MAY BE COLLECTED AS EARLY AS 12 NOON.", "nsi_id": "unitedstatespostalservice-a77078", "operator": "United States Postal Service", "operator:short": "USPS", "operator:type": "public", "operator:wikidata": "Q668687", "ref": "4115900001"}, "type": "Feature"}
{"dataset_attributes": {"@spider": "usps_collection_boxes"}, "geometry": {"coordinates": [-82.915359998, 38.006459991], "type": "Point"}, "id": "3uTVUCJTxb0uR_-iftfyrELer8o=", "properties": {"@spider": "usps_collection_boxes", "addr:city": "MARTHA", "addr:country": "US", "addr:full": "247 HIGHWAY 469", "addr:postcode": "41159", "addr:state": "KY", "amenity": "post_box", "brand": "United States Postal Service", "brand:wikidata": "Q668687", "collection_times": "Mo-Fr 13:00; Sa 12:00", "name": "USPS COLLECTION BOX - PO LOBBY", "note": "ON 12/24 AND 12/31, THIS BOX MAY BE COLLECTED AS EARLY AS 12 NOON.", "nsi_id": "unitedstatespostalservice-a77078", "operator": "United States Postal Service", "operator:short": "USPS", "operator:type": "public", "operator:wikidata": "Q668687", "ref": "4115900003"}, "type": "Feature"}
{"dataset_attributes": {"@spider": "usps_collection_boxes"}, "geometry": {"coordinates": [-82.780170041, 38.33961998], "type": "Point"}, "id": "jR1UfjnvBHtpl9ndP-BRa1HQ6W0=", "properties": {"@spider": "usps_collection_boxes", "addr:city": "RUSH", "addr:country": "US", "addr:full": "15100 STATE ROUTE 854", "addr:postcode": "41168", "addr:state": "KY", "amenity": "post_box", "brand": "United States Postal Service", "brand:wikidata": "Q668687", "collection_times": "Mo-Fr 14:45; Sa 10:45", "name": "USPS COLLECTION BOX - BLUE BOX", "note": "ON 12/24 AND 12/31, THIS BOX MAY BE COLLECTED AS EARLY AS 12 NOON.", "nsi_id": "unitedstatespostalservice-a77078", "operator": "United States Postal Service", "operator:short": "USPS", "operator:type": "public", "operator:wikidata": "Q668687", "ref": "4116800000"}, "type": "Feature"}
{"dataset_attributes": {"@spider": "usps_collection_boxes"}, "geometry": {"coordinates": [-82.780170041, 38.33961998], "type": "Point"}, "id": "36njHPxcLkpIb5y_zqeYT3uv5dU=", "properties": {"@spider": "usps_collection_boxes", "addr:city": "RUSH", "addr:country": "US", "addr:full": "15100 STATE ROUTE 854", "addr:postcode": "41168", "addr:state": "KY", "amenity": "post_box", "brand": "United States Postal Service", "brand:wikidata": "Q668687", "collection_times": "Mo-Fr 14:45; Sa 10:45", "name": "USPS COLLECTION BOX - PO LOBBY", "note": "ON 12/24 AND 12/31, THIS BOX MAY BE COLLECTED AS EARLY AS 12 NOON.", "nsi_id": "unitedstatespostalservice-a77078", "operator": "United States Postal Service", "operator:short": "USPS", "operator:type": "public", "operator:wikidata": "Q668687", "ref": "4116800001"}, "type": "Feature"}
{"dataset_attributes": {"@spider": "usps_collection_boxes"}, "geometry": {"coordinates": [-82.766520028, 38.370300009], "type": "Point"}, "id": "NtPBfdmk2cL-KeaaUzG7w7J9NzM=", "properties": {"@spider": "usps_collection_boxes", "addr:city": "RUSH", "addr:country": "US", "addr:full": "1965 US ROUTE 60", "addr:postcode": "41168", "addr:state": "KY", "amenity": "post_box", "brand": "United States Postal Service", "brand:wikidata": "Q668687", "collection_times": "Mo-Sa 10:45", "name": "USPS COLLECTION BOX - BLUE BOX", "nsi_id": "unitedstatespostalservice-a77078", "operator": "United States Postal Service", "operator:short": "USPS", "operator:type": "public", "operator:wikidata": "Q668687", "ref": "4116800002"}, "type": "Feature"}
{"dataset_attributes": {"@spider": "usps_collection_boxes"}, "geometry": {"coordinates": [-82.770019976, 38.29319002], "type": "Point"}, "id": "7jS_xaRdkqvVysjG9CjrOruoZqQ=", "properties": {"@spider": "usps_collection_boxes", "addr:city": "RUSH", "addr:country": "US", "addr:full": "2901 PIGEON ROOST RD", "addr:postcode": "41168", "addr:state": "KY", "amenity": "post_box", "brand": "United States Postal Service", "brand:wikidata": "Q668687", "collection_times": "Mo-Sa 07:15", "name": "USPS COLLECTION BOX - BLUE BOX", "nsi_id": "unitedstatespostalservice-a77078", "operator": "United States Postal Service", "operator:short": "USPS", "operator:type": "public", "operator:wikidata": "Q668687", "ref": "4116800003"}, "type": "Feature"}
{"dataset_attributes": {"@spider": "usps_collection_boxes"}, "geometry": {"coordinates": [-82.794387555, 38.353538215], "type": "Point"}, "id": "ZsO-1t_qsvIFA2oNxiQGyGW01tc=", "properties": {"@spider": "usps_collection_boxes", "addr:city": "RUSH", "addr:country": "US", "addr:full": "8088 E US HIGHWAY 60", "addr:postcode": "41168", "addr:state": "KY", "amenity": "post_box", "brand": "United States Postal Service", "brand:wikidata": "Q668687", "collection_times": "Mo-Sa 10:00", "name": "USPS COLLECTION BOX - BLUE BOX", "nsi_id": "unitedstatespostalservice-a77078", "operator": "United States Postal Service", "operator:short": "USPS", "operator:type": "public", "operator:wikidata": "Q668687", "ref": "4116800004"}, "type": "Feature"}
{"dataset_attributes": {"@spider": "usps_collection_boxes"}, "geometry": {"coordinates": [-82.780170041, 38.33961998], "type": "Point"}, "id": "iUUtmVt_g-6dL-7q7zGWgO1YN1s=", "properties": {"@spider": "usps_collection_boxes", "addr:city": "RUSH", "addr:country": "US", "addr:full": "15100 STATE ROUTE 854", "addr:postcode": "41168", "addr:state": "KY", "amenity": "post_box", "brand": "United States Postal Service", "brand:wikidata": "Q668687", "collection_times": "Mo-Fr 14:45; Sa 10:45", "name": "USPS COLLECTION BOX - PO LOBBY", "note": "ON 12/24 AND 12/31, THIS BOX MAY BE COLLECTED AS EARLY AS 12 NOON.", "nsi_id": "unitedstatespostalservice-a77078", "operator": "United States Postal Service", "operator:short": "USPS", "operator:type": "public", "operator:wikidata": "Q668687", "ref": "4116800006"}, "type": "Feature"}
{"dataset_attributes": {"@spider": "usps_collection_boxes"}, "geometry": {"coordinates": [-83.042795004, 38.159654505], "type": "Point"}, "id": "ErkiUld5Mko5hymbKREok3s6m-w=", "properties": {"@spider": "usps_collection_boxes", "addr:city": "SANDY HOOK", "addr:country": "US", "addr:full": "8992 N KY 7", "addr:postcode": "41171", "addr:state": "KY", "amenity": "post_box", "brand": "United States Postal Service", "brand:wikidata": "Q668687", "collection_times": "Mo-Sa 11:00", "name": "USPS COLLECTION BOX - BLUE BOX", "nsi_id": "unitedstatespostalservice-a77078", "operator": "United States Postal Service", "operator:short": "USPS", "operator:type": "public", "operator:wikidata": "Q668687", "ref": "4117100001"}, "type": "Feature"}
{"dataset_attributes": {"@spider": "usps_collection_boxes"}, "geometry": {"coordinates": [-82.905359968, 38.215439989], "type": "Point"}, "id": "8y48T3bpwvGyDfAVhLhoYOr2hIE=", "properties": {"@spider": "usps_collection_boxes", "addr:city": "WILLARD", "addr:country": "US", "addr:full": "8679 S STATE HIGHWAY 1", "addr:postcode": "41181", "addr:state": "KY", "amenity": "post_box", "brand": "United States Postal Service", "brand:wikidata": "Q668687", "collection_times": "Mo-Fr 15:00; Sa 10:30", "name": "USPS COLLECTION BOX - BLUE BOX", "note": "ON 12/24 AND 12/31, THIS BOX MAY BE COLLECTED AS EARLY AS 12 NOON.", "nsi_id": "unitedstatespostalservice-a77078", "operator": "United States Postal Service", "operator:short": "USPS", "operator:type": "public", "operator:wikidata": "Q668687", "ref": "4118100000"}, "type": "Feature"}
{"dataset_attributes": {"@spider": "usps_collection_boxes"}, "geometry": {"coordinates": [-82.905359968, 38.215439989], "type": "Point"}, "id": "j0ypq9bBE5Mnn37ozsNA0V30prg=", "properties": {"@spider": "usps_collection_boxes", "addr:city": "WILLARD", "addr:country": "US", "addr:full": "8679 S STATE HIGHWAY 1", "addr:postcode": "41181", "addr:state": "KY", "amenity": "post_box", "brand": "United States Postal Service", "brand:wikidata": "Q668687", "collection_times": "Mo-Fr 15:00; Sa 10:30", "name": "USPS COLLECTION BOX - PO LOBBY", "note": "ON 12/24 AND 12/31, THIS BOX MAY BE COLLECTED AS EARLY AS 12 NOON.", "nsi_id": "unitedstatespostalservice-a77078", "operator": "United States Postal Service", "operator:short": "USPS", "operator:type": "public", "operator:wikidata": "Q668687", "ref": "4118100001"}, "type": "Feature"}
{"dataset_attributes": {"@spider": "usps_collection_boxes"}, "geometry": {"coordinates": [-82.905359968, 38.215439989], "type": "Point"}, "id": "E_aTVNcLEk3lguS0ynLIPkGI1pg=", "properties": {"@spider": "usps_collection_boxes", "addr:city": "WILLARD", "addr:country": "US", "addr:full": "8679 S STATE HIGHWAY 1", "addr:postcode": "41181", "addr:state": "KY", "amenity": "post_box", "brand": "United States Postal Service", "brand:wikidata": "Q668687", "collection_times": "Mo-Fr 15:30; Sa 12:00", "name": "USPS COLLECTION BOX - PO LOBBY", "note": "ON 12/24 AND 12/31, THIS BOX MAY BE COLLECTED AS EARLY AS 12 NOON.", "nsi_id": "unitedstatespostalservice-a77078", "operator": "United States Postal Service", "operator:short": "USPS", "operator:type": "public", "operator:wikidata": "Q668687", "ref": "4118100003"}, "type": "Feature"}
