{"geometry": {"coordinates": [-82.440885036, 37.828700771], "type": "Point"}, "id": "SW8TZEcFzQQkl9R5a0vDWMwtPAM=", "properties": {"@source_uri": "https://tools.usps.com/UspsToolsRestServices/rest/POLocator/findLocations", "@spider": "usps_collection_boxes", "addr:city": "BEAUTY", "addr:country": "US", "addr:postcode": "41203", "addr:state": "KY", "addr:street_address": "7815 BEAUTY RD", "amenity": "post_box", "collection_times": "Mo-Fr 12:00; Sa 11:30", "nsi_id": "unitedstatespostalservice-a77078", "operator": "United States Postal Service", "operator:short": "USPS", "operator:type": "public", "operator:wikidata": "Q668687", "ref": "4120300000"}, "type": "Feature"}
{"geometry": {"coordinates": [-82.440885036, 37.828700771], "type": "Point"}, "id": "FL_GCwn5tm_JAvNo_yuePs_kXwk=", "properties": {"@source_uri": "https://tools.usps.com/UspsToolsRestServices/rest/POLocator/findLocations", "@spider": "usps_collection_boxes", "addr:city": "BEAUTY", "addr:country": "US", "addr:postcode": "41203", "addr:state": "KY", "addr:street_address": "7815 BEAUTY RD", "amenity": "post_box", "collection_times": "Mo-Fr 12:00; Sa 11:30", "indoor": "yes", "nsi_id": "unitedstatespostalservice-a77078", "operator": "United States Postal Service", "operator:short": "USPS", "operator:type": "public", "operator:wikidata": "Q668687", "ref": "4120300001"}, "type": "Feature"}
{"geometry": {"coordinates": [-82.440885036, 37.828700771], "type": "Point"}, "id": "PZmeO_CAZHamciEN5k0OznvqOn4=", "properties": {"@source_uri": "https://tools.usps.com/UspsToolsRestServices/rest/POLocator/findLocations", "@spider": "usps_collection_boxes", "addr:city": "BEAUTY", "addr:country": "US", "addr:postcode": "41203", "addr:state": "KY", "addr:street_address": "7815 BEAUTY RD", "amenity": "post_box", "collection_times": "Mo-Fr 12:00; Sa 11:30", "indoor": "yes", "nsi_id": "unitedstatespostalservice-a77078", "operator": "United States Postal Service", "operator:short": "USPS", "operator:type": "public", "operator:wikidata": "Q668687", "ref": "4120300003"}, "type": "Feature"}
{"geometry": {"coordinates": [-82.695790392, 37.832425353], "type": "Point"}, "id": "vwO741oxJfqFyPpnGq1qCJH8wEQ=", "properties": {"@source_uri": "https://tools.usps.com/UspsToolsRestServices/rest/POLocator/findLocations", "@spider": "usps_collection_boxes", "addr:city": "BOONS CAMP", "addr:country": "US", "addr:postcode": "41204", "addr:state": "KY", "addr:street_address": "10061 KY ROUTE 40 E", "amenity": "post_box", "collection_times": "Mo-Fr 13:45; Sa 12:45", "note": "ON 12/24 AND 12/31, THIS BOX MAY BE COLLECTED AS EARLY AS 12 NOON.", "nsi_id": "unitedstatespostalservice-a77078", "operator": "United States Postal Service", "operator:short": "USPS", "operator:type": "public", "operator:wikidata": "Q668687", "ref": "4120400000"}, "type": "Feature"}
{"geometry": {"coordinates": [-82.695790392, 37.832425353], "type": "Point"}, "id": "TXKKfunOJ1BRq7x2dNBUABH6oVo=", "properties": {"@source_uri": "https://tools.usps.com/UspsToolsRestServices/rest/POLocator/findLocations", "@spider": "usps_collection_boxes", "addr:city": "BOONS CAMP", "addr:country": "US", "addr:postcode": "41204", "addr:state": "KY", "addr:street_address": "10061 KY ROUTE 40 E", "amenity": "post_box", "collection_times": "Mo-Fr 13:45; Sa 12:45", "indoor": "yes", "note": "ON 12/24 AND 12/31, THIS BOX MAY BE COLLECTED AS EARLY AS 12 NOON.", "nsi_id": "unitedstatespostalservice-a77078", "operator": "United States Postal Service", "operator:short": "USPS", "operator:type": "public", "operator:wikidata": "Q668687", "ref": "4120400002"}, "type": "Feature"}
{"geometry": {"coordinates": [-82.88667265, 37.933027321], "type": "Point"}, "id": "-Rqm3IveRCTqlByeMalBYIKRUyY=", "properties": {"@source_uri": "https://tools.usps.com/UspsToolsRestServices/rest/POLocator/findLocations", "@spider": "usps_collection_boxes", "addr:city": "FLATGAP", "addr:country": "US", "addr:postcode": "41219", "addr:state": "KY", "addr:street_address": "1145 KY ROUTE 689 E", "amenity": "post_box", "collection_times": "Mo-Fr 14:30; Sa 11:00", "note": "ON 12/24 AND 12/31, THIS BOX MAY BE COLLECTED AS EARLY AS 12 NOON.", "nsi_id": "unitedstatespostalservice-a77078", "operator": "United States Postal Service", "operator:short": "USPS", "operator:type": "public", "operator:wikidata": "Q668687", "ref": "4121900000"}, "type": "Feature"}
{"geometry": {"coordinates": [-82.88667265, 37.933027321], "type": "Point"}, "id": "kaW261Adr9HCym2wRN3D75XiypU=", "properties": {"@source_uri": "https://tools.usps.com/UspsToolsRestServices/rest/POLocator/findLocations", "@spider": "usps_collection_boxes", "addr:city": "FLATGAP", "addr:country": "US", "addr:postcode": "41219", "addr:state": "KY", "addr:street_address": "1145 KY ROUTE 689 E", "amenity": "post_box", "collection_times": "Mo-Fr 14:30; Sa 11:00", "indoor": "yes", "note": "ON 12/24 AND 12/31, THIS BOX MAY BE COLLECTED AS EARLY AS 12 NOON.", "nsi_id": "unitedstatespostalservice-a77078", "operator": "United States Postal Service", "operator:short": "USPS", "operator:type": "public", "operator:wikidata": "Q668687", "ref": "4121900001"}, "type": "Feature"}
{"geometry": {"coordinates": [-82.88667265, 37.933027321], "type": "Point"}, "id": "lgbpliBgczk6Tc0YIq9YWtGw1pU=", "properties": {"@source_uri": "https://tools.usps.com/UspsToolsRestServices/rest/POLocator/findLocations", "@spider": "usps_collection_boxes", "addr:city": "FLATGAP", "addr:country": "US", "addr:postcode": "41219", "addr:state": "KY", "addr:street_address": "1145 KY ROUTE 689 E", "amenity": "post_box", "collection_times": "Mo-Fr 14:30; Sa 11:00", "indoor": "yes", "note": "ON 12/24 AND 12/31, THIS BOX MAY BE COLLECTED AS EARLY AS 12 NOON.", "nsi_id": "unitedstatespostalservice-a77078", "operator": "United States Postal Service", "operator:short": "USPS", "operator:type": "public", "operator:wikidata": "Q668687", "ref": "4121900003"}, "type": "Feature"}
{"geometry": {"coordinates": [-82.79424114, 37.785578347], "type": "Point"}, "id": "O6P8r0SaOs2LJlpHtaGpS_aFFnQ=", "properties": {"@source_uri": "https://tools.usps.com/UspsToolsRestServices/rest/POLocator/findLocations", "@spider": "usps_collection_boxes", "addr:city": "HAGERHILL", "addr:country": "US", "addr:postcode": "41222", "addr:state": "KY", "addr:street_address": "1344 KY ROUTE 1428", "amenity": "post_box", "collection_times": "Mo-Fr 14:00; Sa 12:30", "note": "ON 12/24 AND 12/31, THIS BOX MAY BE COLLECTED AS EARLY AS 12 NOON.", "nsi_id": "unitedstatespostalservice-a77078", "operator": "United States Postal Service", "operator:short": "USPS", "operator:type": "public", "operator:wikidata": "Q668687", "ref": "4122200000"}, "type": "Feature"}
{"geometry": {"coordinates": [-82.79424114, 37.785578347], "type": "Point"}, "id": "FcLlX0-nQjQVEFWf1F-vj5Q4wzE=", "properties": {"@source_uri": "https://tools.usps.com/UspsToolsRestServices/rest/POLocator/findLocations", "@spider": "usps_collection_boxes", "addr:city": "HAGERHILL", "addr:country": "US", "addr:postcode": "41222", "addr:state": "KY", "addr:street_address": "1344 KY ROUTE 1428", "amenity": "post_box", "collection_times": "Mo-Fr 14:00; Sa 12:30", "indoor": "yes", "note": "ON 12/24 AND 12/31, THIS BOX MAY BE COLLECTED AS EARLY AS 12 NOON.", "nsi_id": "unitedstatespostalservice-a77078", "operator": "United States Postal Service", "operator:short": "USPS", "operator:type": "public", "operator:wikidata": "Q668687", "ref": "4122200001"}, "type": "Feature"}
{"geometry": {"coordinates": [-82.79424114, 37.785578347], "type": "Point"}, "id": "wvXzyI_PqqT9nTj5CI6-oS8W_Kk=", "properties": {"@source_uri": "https://tools.usps.com/UspsToolsRestServices/rest/POLocator/findLocations", "@spider": "usps_collection_boxes", "addr:city": "HAGERHILL", "addr:country": "US", "addr:postcode": "41222", "addr:state": "KY", "addr:street_address": "1344 KY ROUTE 1428", "amenity": "post_box", "collection_times": "Mo-Fr 14:00; Sa 12:30", "indoor": "yes", "note": "ON 12/24 AND 12/31, THIS BOX MAY BE COLLECTED AS EARLY AS 12 NOON.", "nsi_id": "unitedstatespostalservice-a77078", "operator": "United States Postal Service", "operator:short": "USPS", "operator:type": "public", "operator:wikidata": "Q668687", "ref": "4122200003"}, "type": "Feature"}
{"geometry": {"coordinates": [-82.546270046, 37.868262913], "type": "Point"}, "id": "4uErBsMYAWjRWfr1LSQ6WS7icvs=", "properties": {"@source_uri": "https://tools.usps.com/UspsToolsRestServices/rest/POLocator/findLocations", "@spider": "usps_collection_boxes", "addr:city": "INEZ", "addr:country": "US", "addr:postcode": "41224", "addr:state": "KY", "addr:street_address": "33 PARK PL", "amenity": "post_box", "collection_times": "Mo-Fr 15:45; Sa 13:00", "note": "ON 12/24 AND 12/31, THIS BOX MAY BE COLLECTED AS EARLY AS 12 NOON.", "nsi_id": "unitedstatespostalservice-a77078", "operator": "United States Postal Service", "operator:short": "USPS", "operator:type": "public", "operator:wikidata": "Q668687", "ref": "4122400000"}, "type": "Feature"}
{"geometry": {"coordinates": [-82.5393641, 37.866167], "type": "Point"}, "id": "loXKAc6QJh7Dnxci_K0pGy0OYqw=", "properties": {"@source_uri": "https://tools.usps.com/UspsToolsRestServices/rest/POLocator/findLocations", "@spider": "usps_collection_boxes", "addr:city": "INEZ", "addr:country": "US", "addr:postcode": "41224", "addr:state": "KY", "addr:street_address": "14 COURT ST", "amenity": "post_box", "collection_times": "Mo-Fr 15:30; Sa 10:15", "note": "ON 12/24 AND 12/31, THIS BOX MAY BE COLLECTED AS EARLY AS 12 NOON.", "nsi_id": "unitedstatespostalservice-a77078", "operator": "United States Postal Service", "operator:short": "USPS", "operator:type": "public", "operator:wikidata": "Q668687", "ref": "4122400002"}, "type": "Feature"}
{"geometry": {"coordinates": [-82.546270046, 37.868262913], "type": "Point"}, "id": "Ul66PwhZlTT7YRep2YBjCb6JAW0=", "properties": {"@source_uri": "https://tools.usps.com/UspsToolsRestServices/rest/POLocator/findLocations", "@spider": "usps_collection_boxes", "addr:city": "INEZ", "addr:country": "US", "addr:postcode": "41224", "addr:state": "KY", "addr:street_address": "33 PARK PL", "amenity": "post_box", "collection_times": "Mo-Fr 16:00; Sa 13:00", "indoor": "yes", "note": "ON 12/24 AND 12/31, THIS BOX MAY BE COLLECTED AS EARLY AS 12 NOON.", "nsi_id": "unitedstatespostalservice-a77078", "operator": "United States Postal Service", "operator:short": "USPS", "operator:type": "public", "operator:wikidata": "Q668687", "ref": "4122400003"}, "type": "Feature"}
{"geometry": {"coordinates": [-82.5335889, 37.868661], "type": "Point"}, "id": "sBfaixQOGl2BuvRdQ7q--pRr2p4=", "properties": {"@source_uri": "https://tools.usps.com/UspsToolsRestServices/rest/POLocator/findLocations", "@spider": "usps_collection_boxes", "addr:city": "INEZ", "addr:country": "US", "addr:postcode": "41224", "addr:state": "KY", "addr:street_address": "387 E MAIN ST", "amenity": "post_box", "collection_times": "Mo-Fr 12:00", "nsi_id": "unitedstatespostalservice-a77078", "operator": "United States Postal Service", "operator:short": "USPS", "operator:type": "public", "operator:wikidata": "Q668687", "ref": "4122400004"}, "type": "Feature"}
{"geometry": {"coordinates": [-82.5410989, 37.868535], "type": "Point"}, "id": "BrnYMuzFJgX3TDYnuvRuv0JF6sw=", "properties": {"@source_uri": "https://tools.usps.com/UspsToolsRestServices/rest/POLocator/findLocations", "@spider": "usps_collection_boxes", "addr:city": "INEZ", "addr:country": "US", "addr:postcode": "41224", "addr:state": "KY", "addr:street_address": "30 ROCKCASTLE RD", "amenity": "post_box", "collection_times": "Mo-Sa 10:15", "nsi_id": "unitedstatespostalservice-a77078", "operator": "United States Postal Service", "operator:short": "USPS", "operator:type": "public", "operator:wikidata": "Q668687", "ref": "4122400005"}, "type": "Feature"}
{"geometry": {"coordinates": [-82.5368789, 37.866036], "type": "Point"}, "id": "bp_jr2wcleB3bBYpxQ6Nt3weniY=", "properties": {"@source_uri": "https://tools.usps.com/UspsToolsRestServices/rest/POLocator/findLocations", "@spider": "usps_collection_boxes", "addr:city": "INEZ", "addr:country": "US", "addr:postcode": "41224", "addr:state": "KY", "addr:street_address": "104 E MAIN ST", "amenity": "post_box", "collection_times": "Mo-Fr 12:00; Sa 10:00", "nsi_id": "unitedstatespostalservice-a77078", "operator": "United States Postal Service", "operator:short": "USPS", "operator:type": "public", "operator:wikidata": "Q668687", "ref": "4122400006"}, "type": "Feature"}
{"geometry": {"coordinates": [-82.546270046, 37.868262913], "type": "Point"}, "id": "O8bu4vkk0xdEkDo2WYbzFBhDucs=", "properties": {"@source_uri": "https://tools.usps.com/UspsToolsRestServices/rest/POLocator/findLocations", "@spider": "usps_collection_boxes", "addr:city": "INEZ", "addr:country": "US", "addr:postcode": "41224", "addr:state": "KY", "addr:street_address": "33 PARK PL", "amenity": "post_box", "collection_times": "Mo-Fr 16:00; Sa 12:00", "indoor": "yes", "note": "ON 12/24 AND 12/31, THIS BOX MAY BE COLLECTED AS EARLY AS 12 NOON.", "nsi_id": "unitedstatespostalservice-a77078", "operator": "United States Postal Service", "operator:short": "USPS", "operator:type": "public", "operator:wikidata": "Q668687", "ref": "4122400008"}, "type": "Feature"}
{"geometry": {"coordinates": [-82.6072913, 38.1126662], "type": "Point"}, "id": "3l9S8aczudYjDl7gTvwkEs8EE5o=", "properties": {"@source_uri": "https://tools.usps.com/UspsToolsRestServices/rest/POLocator/findLocations", "@spider": "usps_collection_boxes", "addr:city": "LOUISA", "addr:country": "US", "addr:postcode": "41230", "addr:state": "KY", "addr:street_address": "122 S RICKY SKAGGS BLVD", "amenity": "post_box", "collection_times": "Mo-Fr 14:30; Sa 12:00", "note": "ON 12/24 AND 12/31, THIS BOX MAY BE COLLECTED AS EARLY AS 12 NOON.", "nsi_id": "unitedstatespostalservice-a77078", "operator": "United States Postal Service", "operator:short": "USPS", "operator:type": "public", "operator:wikidata": "Q668687", "ref": "4123000000"}, "type": "Feature"}
{"geometry": {"coordinates": [-82.602999994, 38.114239992], "type": "Point"}, "id": "Npi5T8k2oCJkQdBhphQwv8LmpcA=", "properties": {"@source_uri": "https://tools.usps.com/UspsToolsRestServices/rest/POLocator/findLocations", "@spider": "usps_collection_boxes", "addr:city": "LOUISA", "addr:country": "US", "addr:postcode": "41230", "addr:state": "KY", "addr:street_address": "108 E MADISON ST", "amenity": "post_box", "collection_times": "Mo-Sa 16:30", "note": "ON 12/24 AND 12/31, THIS BOX MAY BE COLLECTED AS EARLY AS 12 NOON.", "nsi_id": "unitedstatespostalservice-a77078", "operator": "United States Postal Service", "operator:short": "USPS", "operator:type": "public", "operator:wikidata": "Q668687", "ref": "4123000005"}, "type": "Feature"}
{"geometry": {"coordinates": [-82.612455, 38.111387], "type": "Point"}, "id": "yClAlr5exbrUgQ5QlQd-HMM5cz0=", "properties": {"@source_uri": "https://tools.usps.com/UspsToolsRestServices/rest/POLocator/findLocations", "@spider": "usps_collection_boxes", "addr:city": "LOUISA", "addr:country": "US", "addr:postcode": "41230", "addr:state": "KY", "addr:street_address": "115 LOUISA PLZ", "amenity": "post_box", "collection_times": "Mo-Sa 10:00", "nsi_id": "unitedstatespostalservice-a77078", "operator": "United States Postal Service", "operator:short": "USPS", "operator:type": "public", "operator:wikidata": "Q668687", "ref": "4123000007"}, "type": "Feature"}
{"geometry": {"coordinates": [-82.619119986, 38.117979997], "type": "Point"}, "id": "YqnjsuTJ33AzokhlImnkhyzQJIE=", "properties": {"@source_uri": "https://tools.usps.com/UspsToolsRestServices/rest/POLocator/findLocations", "@spider": "usps_collection_boxes", "addr:city": "LOUISA", "addr:country": "US", "addr:postcode": "41230", "addr:state": "KY", "addr:street_address": "4301 HWY 2565", "amenity": "post_box", "collection_times": "Mo-Sa 10:00", "nsi_id": "unitedstatespostalservice-a77078", "operator": "United States Postal Service", "operator:short": "USPS", "operator:type": "public", "operator:wikidata": "Q668687", "ref": "4123000011"}, "type": "Feature"}
{"geometry": {"coordinates": [-82.602999994, 38.114239992], "type": "Point"}, "id": "gD_1r0ABV17M6yXurDifCJDmxKA=", "properties": {"@source_uri": "https://tools.usps.com/UspsToolsRestServices/rest/POLocator/findLocations", "@spider": "usps_collection_boxes", "addr:city": "LOUISA", "addr:country": "US", "addr:postcode": "41230", "addr:state": "KY", "addr:street_address": "108 E MADISON ST", "amenity": "post_box", "collection_times": "Mo-Sa 16:30", "indoor": "yes", "note": "ON 12/24 AND 12/31, THIS BOX MAY BE COLLECTED AS EARLY AS 12 NOON.", "nsi_id": "unitedstatespostalservice-a77078", "operator": "United States Postal Service", "operator:short": "USPS", "operator:type": "public", "operator:wikidata": "Q668687", "ref": "4123000012"}, "type": "Feature"}
{"geometry": {"coordinates": [-82.602999994, 38.114239992], "type": "Point"}, "id": "oieXjP6v1sxND6kxDApmxcrgn-4=", "properties": {"@source_uri": "https://tools.usps.com/UspsToolsRestServices/rest/POLocator/findLocations", "@spider": "usps_collection_boxes", "addr:city": "LOUISA", "addr:country": "US", "addr:postcode": "41230", "addr:state": "KY", "addr:street_address": "108 E MADISON ST", "amenity": "post_box", "collection_times": "Mo-Sa 16:30", "indoor": "yes", "note": "ON 12/24 AND 12/31, THIS BOX MAY BE COLLECTED AS EARLY AS 12 NOON.", "nsi_id": "unitedstatespostalservice-a77078", "operator": "United States Postal Service", "operator:short": "USPS", "operator:type": "public", "operator:wikidata": "Q668687", "ref": "4123000013"}, "type": "Feature"}
{"geometry": {"coordinates": [-82.623701283, 38.101990691], "type": "Point"}, "id": "e1DZ0hSoeairDAcK7F-bSegj6xY=", "properties": {"@source_uri": "https://tools.usps.com/UspsToolsRestServices/rest/POLocator/findLocations", "@spider": "usps_collection_boxes", "addr:city": "LOUISA", "addr:country": "US", "addr:postcode": "41230", "addr:state": "KY", "addr:street_address": "275 WALTON DR", "amenity": "post_box", "collection_times": "Mo-Sa 12:00", "nsi_id": "unitedstatespostalservice-a77078", "operator": "United States Postal Service", "operator:short": "USPS", "operator:type": "public", "operator:wikidata": "Q668687", "ref": "4123000016"}, "type": "Feature"}
{"geometry": {"coordinates": [-82.602999994, 38.114239992], "type": "Point"}, "id": "X26oH4_QpQSFUq559LKG_uvQTyY=", "properties": {"@source_uri": "https://tools.usps.com/UspsToolsRestServices/rest/POLocator/findLocations", "@spider": "usps_collection_boxes", "addr:city": "LOUISA", "addr:country": "US", "addr:postcode": "41230", "addr:state": "KY", "addr:street_address": "108 E MADISON ST", "amenity": "post_box", "collection_times": "Mo-Fr 16:30; Sa 12:00", "indoor": "yes", "note": "ON 12/24 AND 12/31, THIS BOX MAY BE COLLECTED AS EARLY AS 12 NOON.", "nsi_id": "unitedstatespostalservice-a77078", "operator": "United States Postal Service", "operator:short": "USPS", "operator:type": "public", "operator:wikidata": "Q668687", "ref": "4123000018"}, "type": "Feature"}
{"geometry": {"coordinates": [-82.401321119, 37.827925211], "type": "Point"}, "id": "SuJ8Hg0cH48o4l4wyZQegWeW4xk=", "properties": {"@source_uri": "https://tools.usps.com/UspsToolsRestServices/rest/POLocator/findLocations", "@spider": "usps_collection_boxes", "addr:city": "LOVELY", "addr:country": "US", "addr:postcode": "41231", "addr:state": "KY", "addr:street_address": "1423 RIVER FRONT RD STE 100", "amenity": "post_box", "collection_times": "Mo-Fr 14:30; Sa 12:00", "note": "ON 12/24 AND 12/31, THIS BOX MAY BE COLLECTED AS EARLY AS 12 NOON.", "nsi_id": "unitedstatespostalservice-a77078", "operator": "United States Postal Service", "operator:short": "USPS", "operator:type": "public", "operator:wikidata": "Q668687", "ref": "4123100000"}, "type": "Feature"}
{"geometry": {"coordinates": [-82.3881236, 37.8171416], "type": "Point"}, "id": "7HnJxjjwCVx0-q8a_TASVV7wXvE=", "properties": {"@source_uri": "https://tools.usps.com/UspsToolsRestServices/rest/POLocator/findLocations", "@spider": "usps_collection_boxes", "addr:city": "LOVELY", "addr:country": "US", "addr:postcode": "41231", "addr:state": "KY", "addr:street_address": "1423 RIVER FRONT RD STE 100", "amenity": "post_box", "collection_times": "Mo-Fr 14:30; Sa 12:00", "indoor": "yes", "note": "ON 12/24 AND 12/31, THIS BOX MAY BE COLLECTED AS EARLY AS 12 NOON.", "nsi_id": "unitedstatespostalservice-a77078", "operator": "United States Postal Service", "operator:short": "USPS", "operator:type": "public", "operator:wikidata": "Q668687", "ref": "4123100001"}, "type": "Feature"}
{"geometry": {"coordinates": [-82.3881236, 37.8171416], "type": "Point"}, "id": "kMVMZSmg-pMwkcClyHdwdpluEQo=", "properties": {"@source_uri": "https://tools.usps.com/UspsToolsRestServices/rest/POLocator/findLocations", "@spider": "usps_collection_boxes", "addr:city": "LOVELY", "addr:country": "US", "addr:postcode": "41231", "addr:state": "KY", "addr:street_address": "1423 RIVER FRONT RD STE 100", "amenity": "post_box", "collection_times": "Mo-Fr 15:00; Sa 12:00", "indoor": "yes", "note": "ON 12/24 AND 12/31, THIS BOX MAY BE COLLECTED AS EARLY AS 12 NOON.", "nsi_id": "unitedstatespostalservice-a77078", "operator": "United States Postal Service", "operator:short": "USPS", "operator:type": "public", "operator:wikidata": "Q668687", "ref": "4123100003"}, "type": "Feature"}
{"geometry": {"coordinates": [-82.732260005, 37.917510019], "type": "Point"}, "id": "dKIe8vGZNT3ThrwLrVOao2Zvd3s=", "properties": {"@source_uri": "https://tools.usps.com/UspsToolsRestServices/rest/POLocator/findLocations", "@spider": "usps_collection_boxes", "addr:city": "LOWMANSVILLE", "addr:country": "US", "addr:postcode": "41232", "addr:state": "KY", "addr:street_address": "48 MAY LN", "amenity": "post_box", "collection_times": "Mo-Fr 14:00; Sa 11:30", "note": "ON 12/24 AND 12/31, THIS BOX MAY BE COLLECTED AS EARLY AS 12 NOON.", "nsi_id": "unitedstatespostalservice-a77078", "operator": "United States Postal Service", "operator:short": "USPS", "operator:type": "public", "operator:wikidata": "Q668687", "ref": "4123200000"}, "type": "Feature"}
{"geometry": {"coordinates": [-82.732260005, 37.917510019], "type": "Point"}, "id": "XwqQLVDLQBGSeHc5wyIgzucXgGk=", "properties": {"@source_uri": "https://tools.usps.com/UspsToolsRestServices/rest/POLocator/findLocations", "@spider": "usps_collection_boxes", "addr:city": "LOWMANSVILLE", "addr:country": "US", "addr:postcode": "41232", "addr:state": "KY", "addr:street_address": "48 MAY LN", "amenity": "post_box", "collection_times": "Mo-Fr 14:00; Sa 11:30", "indoor": "yes", "note": "ON 12/24 AND 12/31, THIS BOX MAY BE COLLECTED AS EARLY AS 12 NOON.", "nsi_id": "unitedstatespostalservice-a77078", "operator": "United States Postal Service", "operator:short": "USPS", "operator:type": "public", "operator:wikidata": "Q668687", "ref": "4123200001"}, "type": "Feature"}
{"geometry": {"coordinates": [-82.732260005, 37.917510019], "type": "Point"}, "id": "Cvo09TaddRxnviQloKQro0iOL7w=", "properties": {"@source_uri": "https://tools.usps.com/UspsToolsRestServices/rest/POLocator/findLocations", "@spider": "usps_collection_boxes", "addr:city": "LOWMANSVILLE", "addr:country": "US", "addr:postcode": "41232", "addr:state": "KY", "addr:street_address": "48 MAY LN", "amenity": "post_box", "collection_times": "Mo-Fr 14:30; Sa 11:15", "indoor": "yes", "note": "ON 12/24 AND 12/31, THIS BOX MAY BE COLLECTED AS EARLY AS 12 NOON.", "nsi_id": "unitedstatespostalservice-a77078", "operator": "United States Postal Service", "operator:short": "USPS", "operator:type": "public", "operator:wikidata": "Q668687", "ref": "4123200003"}, "type": "Feature"}
{"geometry": {"coordinates": [-82.753779534, 37.794545708], "type": "Point"}, "id": "CC-XThgh1PqhCN7_xaFuobA3jyw=", "properties": {"@source_uri": "https://tools.usps.com/UspsToolsRestServices/rest/POLocator/findLocations", "@spider": "usps_collection_boxes", "addr:city": "MEALLY", "addr:country": "US", "addr:postcode": "41234", "addr:state": "KY", "addr:street_address": "3699 KY ROUTE 40 E", "amenity": "post_box", "collection_times": "Mo-Fr 13:00; Sa 11:30", "note": "ON 12/24 AND 12/31, THIS BOX MAY BE COLLECTED AS EARLY AS 12 NOON.", "nsi_id": "unitedstatespostalservice-a77078", "operator": "United States Postal Service", "operator:short": "USPS", "operator:type": "public", "operator:wikidata": "Q668687", "ref": "4123400000"}, "type": "Feature"}
{"geometry": {"coordinates": [-82.753779534, 37.794545708], "type": "Point"}, "id": "wKHymXN3qQdw0VteRoqu1j4JTb0=", "properties": {"@source_uri": "https://tools.usps.com/UspsToolsRestServices/rest/POLocator/findLocations", "@spider": "usps_collection_boxes", "addr:city": "MEALLY", "addr:country": "US", "addr:postcode": "41234", "addr:state": "KY", "addr:street_address": "3699 KY ROUTE 40 E", "amenity": "post_box", "collection_times": "Mo-Fr 13:00; Sa 11:30", "indoor": "yes", "note": "ON 12/24 AND 12/31, THIS BOX MAY BE COLLECTED AS EARLY AS 12 NOON.", "nsi_id": "unitedstatespostalservice-a77078", "operator": "United States Postal Service", "operator:short": "USPS", "operator:type": "public", "operator:wikidata": "Q668687", "ref": "4123400001"}, "type": "Feature"}
{"geometry": {"coordinates": [-82.753779534, 37.794545708], "type": "Point"}, "id": "ARuTjWGiuR_UkpBLW91C4HKUv7U=", "properties": {"@source_uri": "https://tools.usps.com/UspsToolsRestServices/rest/POLocator/findLocations", "@spider": "usps_collection_boxes", "addr:city": "MEALLY", "addr:country": "US", "addr:postcode": "41234", "addr:state": "KY", "addr:street_address": "3699 KY ROUTE 40 E", "amenity": "post_box", "collection_times": "Mo-Fr 13:00; Sa 11:30", "indoor": "yes", "note": "ON 12/24 AND 12/31, THIS BOX MAY BE COLLECTED AS EARLY AS 12 NOON.", "nsi_id": "unitedstatespostalservice-a77078", "operator": "United States Postal Service", "operator:short": "USPS", "operator:type": "public", "operator:wikidata": "Q668687", "ref": "4123400003"}, "type": "Feature"}
{"geometry": {"coordinates": [-82.959215723, 37.803427805], "type": "Point"}, "id": "hc_KCmLXJ0UjHhYxWxQO6ov-Xvs=", "properties": {"@source_uri": "https://tools.usps.com/UspsToolsRestServices/rest/POLocator/findLocations", "@spider": "usps_collection_boxes", "addr:city": "OIL SPRINGS", "addr:country": "US", "addr:postcode": "41238", "addr:state": "KY", "addr:street_address": "8895 KY ROUTE 40 W", "amenity": "post_box", "collection_times": "Mo-Sa 12:00", "nsi_id": "unitedstatespostalservice-a77078", "operator": "United States Postal Service", "operator:short": "USPS", "operator:type": "public", "operator:wikidata": "Q668687", "ref": "4123800000"}, "type": "Feature"}
{"geometry": {"coordinates": [-82.959215723, 37.803427805], "type": "Point"}, "id": "Uf2PVS6vKcUWV9dPAfx-FaDazsg=", "properties": {"@source_uri": "https://tools.usps.com/UspsToolsRestServices/rest/POLocator/findLocations", "@spider": "usps_collection_boxes", "addr:city": "OIL SPRINGS", "addr:country": "US", "addr:postcode": "41238", "addr:state": "KY", "addr:street_address": "8895 KY ROUTE 40 W", "amenity": "post_box", "collection_times": "Mo-Sa 12:00", "indoor": "yes", "nsi_id": "unitedstatespostalservice-a77078", "operator": "United States Postal Service", "operator:short": "USPS", "operator:type": "public", "operator:wikidata": "Q668687", "ref": "4123800001"}, "type": "Feature"}
{"geometry": {"coordinates": [-82.959215723, 37.803427805], "type": "Point"}, "id": "w51uubl3BpZqHyBZ_5L_NVEnRmQ=", "properties": {"@source_uri": "https://tools.usps.com/UspsToolsRestServices/rest/POLocator/findLocations", "@spider": "usps_collection_boxes", "addr:city": "OIL SPRINGS", "addr:country": "US", "addr:postcode": "41238", "addr:state": "KY", "addr:street_address": "8895 KY ROUTE 40 W", "amenity": "post_box", "collection_times": "Mo-Sa 12:00", "indoor": "yes", "nsi_id": "unitedstatespostalservice-a77078", "operator": "United States Postal Service", "operator:short": "USPS", "operator:type": "public", "operator:wikidata": "Q668687", "ref": "4123800004"}, "type": "Feature"}
{"geometry": {"coordinates": [-82.80135, 37.81171], "type": "Point"}, "id": "KGKWkZFgzUWpvD906ywGbDX9iF4=", "properties": {"@source_uri": "https://tools.usps.com/UspsToolsRestServices/rest/POLocator/findLocations", "@spider": "usps_collection_boxes", "addr:city": "PAINTSVILLE", "addr:country": "US", "addr:postcode": "41240", "addr:state": "KY", "addr:street_address": "244 2ND ST", "amenity": "post_box", "collection_times": "Mo-Fr 11:00; Sa 10:30", "nsi_id": "unitedstatespostalservice-a77078", "operator": "United States Postal Service", "operator:short": "USPS", "operator:type": "public", "operator:wikidata": "Q668687", "ref": "4124000000"}, "type": "Feature"}
{"geometry": {"coordinates": [-82.80135, 37.81171], "type": "Point"}, "id": "J9hs1wudQyQXc0VSaS9xqLs-tv8=", "properties": {"@source_uri": "https://tools.usps.com/UspsToolsRestServices/rest/POLocator/findLocations", "@spider": "usps_collection_boxes", "addr:city": "PAINTSVILLE", "addr:country": "US", "addr:postcode": "41240", "addr:state": "KY", "addr:street_address": "404 MAIN ST", "amenity": "post_box", "collection_times": "Mo-Fr 11:00; Sa 10:30", "nsi_id": "unitedstatespostalservice-a77078", "operator": "United States Postal Service", "operator:short": "USPS", "operator:type": "public", "operator:wikidata": "Q668687", "ref": "4124000002"}, "type": "Feature"}
{"geometry": {"coordinates": [-82.80135, 37.81171], "type": "Point"}, "id": "84CoYJfqr_i5FWqcgm3ULyR-2zk=", "properties": {"@source_uri": "https://tools.usps.com/UspsToolsRestServices/rest/POLocator/findLocations", "@spider": "usps_collection_boxes", "addr:city": "PAINTSVILLE", "addr:country": "US", "addr:postcode": "41240", "addr:state": "KY", "addr:street_address": "640 JEFFERSON AVE", "amenity": "post_box", "collection_times": "Mo-Sa 11:45", "nsi_id": "unitedstatespostalservice-a77078", "operator": "United States Postal Service", "operator:short": "USPS", "operator:type": "public", "operator:wikidata": "Q668687", "ref": "4124000003"}, "type": "Feature"}
{"geometry": {"coordinates": [-82.80135, 37.81171], "type": "Point"}, "id": "hA3XrNqNcLYOAFSn2CcbWcrAk7o=", "properties": {"@source_uri": "https://tools.usps.com/UspsToolsRestServices/rest/POLocator/findLocations", "@spider": "usps_collection_boxes", "addr:city": "PAINTSVILLE", "addr:country": "US", "addr:postcode": "41240", "addr:state": "KY", "addr:street_address": "205 MAIN ST", "amenity": "post_box", "collection_times": "Mo-Fr 11:00; Sa 10:30", "nsi_id": "unitedstatespostalservice-a77078", "operator": "United States Postal Service", "operator:short": "USPS", "operator:type": "public", "operator:wikidata": "Q668687", "ref": "4124000006"}, "type": "Feature"}
{"geometry": {"coordinates": [-82.8162534538, 37.8199837111], "type": "Point"}, "id": "VtwMgP3RuJ5ev8vaRIFt9uXv4T8=", "properties": {"@source_uri": "https://tools.usps.com/UspsToolsRestServices/rest/POLocator/findLocations", "@spider": "usps_collection_boxes", "addr:city": "PAINTSVILLE", "addr:country": "US", "addr:postcode": "41240", "addr:state": "KY", "addr:street_address": "313 N MAYO TRL", "amenity": "post_box", "collection_times": "Mo-Sa 09:00", "nsi_id": "unitedstatespostalservice-a77078", "operator": "United States Postal Service", "operator:short": "USPS", "operator:type": "public", "operator:wikidata": "Q668687", "ref": "4124000013"}, "type": "Feature"}
{"geometry": {"coordinates": [-82.817294878, 37.818183803], "type": "Point"}, "id": "aa7eklPoJ6PPCh9WiE3-apgm3Pw=", "properties": {"@source_uri": "https://tools.usps.com/UspsToolsRestServices/rest/POLocator/findLocations", "@spider": "usps_collection_boxes", "addr:city": "PAINTSVILLE", "addr:country": "US", "addr:postcode": "41240", "addr:state": "KY", "addr:street_address": "100 FEDERAL DR # 41240", "amenity": "post_box", "collection_times": "Mo-Sa 16:15", "indoor": "yes", "note": "ON 12/24 AND 12/31, THIS BOX MAY BE COLLECTED AS EARLY AS 12 NOON.", "nsi_id": "unitedstatespostalservice-a77078", "operator": "United States Postal Service", "operator:short": "USPS", "operator:type": "public", "operator:wikidata": "Q668687", "ref": "4124000015"}, "type": "Feature"}
{"geometry": {"coordinates": [-82.817294878, 37.818183803], "type": "Point"}, "id": "QP4KO4xNvtgFqJ-O4tc6KbK_kHA=", "properties": {"@source_uri": "https://tools.usps.com/UspsToolsRestServices/rest/POLocator/findLocations", "@spider": "usps_collection_boxes", "addr:city": "PAINTSVILLE", "addr:country": "US", "addr:postcode": "41240", "addr:state": "KY", "addr:street_address": "100 FEDERAL DR", "amenity": "post_box", "collection_times": "Mo-Sa 16:15", "note": "ON 12/24 AND 12/31, THIS BOX MAY BE COLLECTED AS EARLY AS 12 NOON.", "nsi_id": "unitedstatespostalservice-a77078", "operator": "United States Postal Service", "operator:short": "USPS", "operator:type": "public", "operator:wikidata": "Q668687", "ref": "4124000017"}, "type": "Feature"}
{"geometry": {"coordinates": [-82.8254179856, 37.8232820043], "type": "Point"}, "id": "HerhJdosyGZwbKKzIbGgQFcw7RQ=", "properties": {"@source_uri": "https://tools.usps.com/UspsToolsRestServices/rest/POLocator/findLocations", "@spider": "usps_collection_boxes", "addr:city": "PAINTSVILLE", "addr:country": "US", "addr:postcode": "41240", "addr:state": "KY", "addr:street_address": "470 N MAYO TRL", "amenity": "post_box", "collection_times": "Mo-Sa 09:00", "nsi_id": "unitedstatespostalservice-a77078", "operator": "United States Postal Service", "operator:short": "USPS", "operator:type": "public", "operator:wikidata": "Q668687", "ref": "4124000019"}, "type": "Feature"}
{"geometry": {"coordinates": [-82.817294878, 37.818183803], "type": "Point"}, "id": "ZsYlOERjLe-knvmkzd0L-0YMimo=", "properties": {"@source_uri": "https://tools.usps.com/UspsToolsRestServices/rest/POLocator/findLocations", "@spider": "usps_collection_boxes", "addr:city": "PAINTSVILLE", "addr:country": "US", "addr:postcode": "41240", "addr:state": "KY", "addr:street_address": "100 FEDERAL DR", "amenity": "post_box", "collection_times": "Mo-Fr 16:30; Sa 12:00", "indoor": "yes", "note": "ON 12/24 AND 12/31, THIS BOX MAY BE COLLECTED AS EARLY AS 12 NOON.", "nsi_id": "unitedstatespostalservice-a77078", "operator": "United States Postal Service", "operator:short": "USPS", "operator:type": "public", "operator:wikidata": "Q668687", "ref": "4124000021"}, "type": "Feature"}
{"geometry": {"coordinates": [-82.4492328, 37.7729468], "type": "Point"}, "id": "_P1VvLjgdOHVxV9lj1wXhuyHVLY=", "properties": {"@source_uri": "https://tools.usps.com/UspsToolsRestServices/rest/POLocator/findLocations", "@spider": "usps_collection_boxes", "addr:city": "PILGRIM", "addr:country": "US", "addr:postcode": "41250", "addr:state": "KY", "addr:street_address": "75 EMILY CRK", "amenity": "post_box", "collection_times": "Mo-Fr 14:15; Sa 12:45", "note": "ON 12/24 AND 12/31, THIS BOX MAY BE COLLECTED AS EARLY AS 12 NOON.", "nsi_id": "unitedstatespostalservice-a77078", "operator": "United States Postal Service", "operator:short": "USPS", "operator:type": "public", "operator:wikidata": "Q668687", "ref": "4125000000"}, "type": "Feature"}
{"geometry": {"coordinates": [-82.4492328, 37.7729468], "type": "Point"}, "id": "eaabQWnEi6Q40bwaIEsuzPCiIXo=", "properties": {"@source_uri": "https://tools.usps.com/UspsToolsRestServices/rest/POLocator/findLocations", "@spider": "usps_collection_boxes", "addr:city": "PILGRIM", "addr:country": "US", "addr:postcode": "41250", "addr:state": "KY", "addr:street_address": "75 EMILY CRK", "amenity": "post_box", "collection_times": "Mo-Fr 14:15; Sa 12:45", "indoor": "yes", "note": "ON 12/24 AND 12/31, THIS BOX MAY BE COLLECTED AS EARLY AS 12 NOON.", "nsi_id": "unitedstatespostalservice-a77078", "operator": "United States Postal Service", "operator:short": "USPS", "operator:type": "public", "operator:wikidata": "Q668687", "ref": "4125000001"}, "type": "Feature"}
{"geometry": {"coordinates": [-82.84777325, 37.829055834], "type": "Point"}, "id": "xfttbdQ6ZoadxOMyrS1UH3FVve4=", "properties": {"@source_uri": "https://tools.usps.com/UspsToolsRestServices/rest/POLocator/findLocations", "@spider": "usps_collection_boxes", "addr:city": "STAFFORDSVILLE", "addr:country": "US", "addr:postcode": "41256", "addr:state": "KY", "addr:street_address": "1100 KY ROUTE 40 W", "amenity": "post_box", "collection_times": "Mo-Fr 14:00; Sa 11:00", "note": "ON 12/24 AND 12/31, THIS BOX MAY BE COLLECTED AS EARLY AS 12 NOON.", "nsi_id": "unitedstatespostalservice-a77078", "operator": "United States Postal Service", "operator:short": "USPS", "operator:type": "public", "operator:wikidata": "Q668687", "ref": "4125600000"}, "type": "Feature"}
{"geometry": {"coordinates": [-82.84777325, 37.829055834], "type": "Point"}, "id": "aDf8KyYg6ewU7VJS7b_K8CHgsfo=", "properties": {"@source_uri": "https://tools.usps.com/UspsToolsRestServices/rest/POLocator/findLocations", "@spider": "usps_collection_boxes", "addr:city": "STAFFORDSVILLE", "addr:country": "US", "addr:postcode": "41256", "addr:state": "KY", "addr:street_address": "1100 KY ROUTE 40 W", "amenity": "post_box", "collection_times": "Mo-Fr 14:00; Sa 11:00", "indoor": "yes", "note": "ON 12/24 AND 12/31, THIS BOX MAY BE COLLECTED AS EARLY AS 12 NOON.", "nsi_id": "unitedstatespostalservice-a77078", "operator": "United States Postal Service", "operator:short": "USPS", "operator:type": "public", "operator:wikidata": "Q668687", "ref": "4125600001"}, "type": "Feature"}
{"geometry": {"coordinates": [-82.84777325, 37.829055834], "type": "Point"}, "id": "MgxMgFSnvy__rsx_u5KIQLCFkaI=", "properties": {"@source_uri": "https://tools.usps.com/UspsToolsRestServices/rest/POLocator/findLocations", "@spider": "usps_collection_boxes", "addr:city": "STAFFORDSVILLE", "addr:country": "US", "addr:postcode": "41256", "addr:state": "KY", "addr:street_address": "1100 KY ROUTE 40 W", "amenity": "post_box", "collection_times": "Mo-Fr 14:00; Sa 11:00", "indoor": "yes", "note": "ON 12/24 AND 12/31, THIS BOX MAY BE COLLECTED AS EARLY AS 12 NOON.", "nsi_id": "unitedstatespostalservice-a77078", "operator": "United States Postal Service", "operator:short": "USPS", "operator:type": "public", "operator:wikidata": "Q668687", "ref": "4125600003"}, "type": "Feature"}
{"geometry": {"coordinates": [-82.765761035, 37.820160745], "type": "Point"}, "id": "V6ARXL2SojCjkROzuEt7t8Mc1zI=", "properties": {"@source_uri": "https://tools.usps.com/UspsToolsRestServices/rest/POLocator/findLocations", "@spider": "usps_collection_boxes", "addr:city": "THELMA", "addr:country": "US", "addr:postcode": "41260", "addr:state": "KY", "addr:street_address": "5490 MAIN ST", "amenity": "post_box", "collection_times": "Mo-Fr 14:15; Sa 11:15", "note": "ON 12/24 AND 12/31, THIS BOX MAY BE COLLECTED AS EARLY AS 12 NOON.", "nsi_id": "unitedstatespostalservice-a77078", "operator": "United States Postal Service", "operator:short": "USPS", "operator:type": "public", "operator:wikidata": "Q668687", "ref": "4126000000"}, "type": "Feature"}
{"geometry": {"coordinates": [-82.765761035, 37.820160745], "type": "Point"}, "id": "FwNSZ6ZUY7UfOvT0-ewexs934Hg=", "properties": {"@source_uri": "https://tools.usps.com/UspsToolsRestServices/rest/POLocator/findLocations", "@spider": "usps_collection_boxes", "addr:city": "THELMA", "addr:country": "US", "addr:postcode": "41260", "addr:state": "KY", "addr:street_address": "5490 MAIN ST", "amenity": "post_box", "collection_times": "Mo-Fr 14:15; Sa 11:15", "indoor": "yes", "note": "ON 12/24 AND 12/31, THIS BOX MAY BE COLLECTED AS EARLY AS 12 NOON.", "nsi_id": "unitedstatespostalservice-a77078", "operator": "United States Postal Service", "operator:short": "USPS", "operator:type": "public", "operator:wikidata": "Q668687", "ref": "4126000001"}, "type": "Feature"}
{"geometry": {"coordinates": [-82.765761035, 37.820160745], "type": "Point"}, "id": "Eyx0eI-904GX5gfNfAsIfwAPgdE=", "properties": {"@source_uri": "https://tools.usps.com/UspsToolsRestServices/rest/POLocator/findLocations", "@spider": "usps_collection_boxes", "addr:city": "THELMA", "addr:country": "US", "addr:postcode": "41260", "addr:state": "KY", "addr:street_address": "5490 MAIN ST", "amenity": "post_box", "collection_times": "Mo-Fr 14:30; Sa 11:30", "indoor": "yes", "note": "ON 12/24 AND 12/31, THIS BOX MAY BE COLLECTED AS EARLY AS 12 NOON.", "nsi_id": "unitedstatespostalservice-a77078", "operator": "United States Postal Service", "operator:short": "USPS", "operator:type": "public", "operator:wikidata": "Q668687", "ref": "4126000003"}, "type": "Feature"}
{"geometry": {"coordinates": [-82.5870199, 37.880092], "type": "Point"}, "id": "valARYGQMz_FzzA07OYYKlQiYhE=", "properties": {"@source_uri": "https://tools.usps.com/UspsToolsRestServices/rest/POLocator/findLocations", "@spider": "usps_collection_boxes", "addr:city": "TOMAHAWK", "addr:country": "US", "addr:postcode": "41262", "addr:state": "KY", "addr:street_address": "2691 TOMAHAWK RD", "amenity": "post_box", "collection_times": "Mo-Fr 12:00; Sa 11:30", "nsi_id": "unitedstatespostalservice-a77078", "operator": "United States Postal Service", "operator:short": "USPS", "operator:type": "public", "operator:wikidata": "Q668687", "ref": "4126200000"}, "type": "Feature"}
{"geometry": {"coordinates": [-82.757790784, 37.770862807], "type": "Point"}, "id": "6Z99r1F89C3OyqzAoDoUdrrNMDM=", "properties": {"@source_uri": "https://tools.usps.com/UspsToolsRestServices/rest/POLocator/findLocations", "@spider": "usps_collection_boxes", "addr:city": "VAN LEAR", "addr:country": "US", "addr:postcode": "41265", "addr:state": "KY", "addr:street_address": "55 MILLERS CRK", "amenity": "post_box", "collection_times": "Mo-Fr 13:30; Sa 11:00", "note": "ON 12/24 AND 12/31, THIS BOX MAY BE COLLECTED AS EARLY AS 12 NOON.", "nsi_id": "unitedstatespostalservice-a77078", "operator": "United States Postal Service", "operator:short": "USPS", "operator:type": "public", "operator:wikidata": "Q668687", "ref": "4126500000"}, "type": "Feature"}
{"geometry": {"coordinates": [-82.757790784, 37.770862807], "type": "Point"}, "id": "-bJ6c_5sYDAv8-jZIdu-zaVzKXA=", "properties": {"@source_uri": "https://tools.usps.com/UspsToolsRestServices/rest/POLocator/findLocations", "@spider": "usps_collection_boxes", "addr:city": "VAN LEAR", "addr:country": "US", "addr:postcode": "41265", "addr:state": "KY", "addr:street_address": "55 MILLERS CRK", "amenity": "post_box", "collection_times": "Mo-Fr 13:30; Sa 11:00", "indoor": "yes", "note": "ON 12/24 AND 12/31, THIS BOX MAY BE COLLECTED AS EARLY AS 12 NOON.", "nsi_id": "unitedstatespostalservice-a77078", "operator": "United States Postal Service", "operator:short": "USPS", "operator:type": "public", "operator:wikidata": "Q668687", "ref": "4126500001"}, "type": "Feature"}
{"geometry": {"coordinates": [-82.757790784, 37.770862807], "type": "Point"}, "id": "YoKSqNvcOoY_9kl59s523APdeko=", "properties": {"@source_uri": "https://tools.usps.com/UspsToolsRestServices/rest/POLocator/findLocations", "@spider": "usps_collection_boxes", "addr:city": "VAN LEAR", "addr:country": "US", "addr:postcode": "41265", "addr:state": "KY", "addr:street_address": "55 MILLERS CRK", "amenity": "post_box", "collection_times": "Mo-Fr 13:30; Sa 11:30", "indoor": "yes", "note": "ON 12/24 AND 12/31, THIS BOX MAY BE COLLECTED AS EARLY AS 12 NOON.", "nsi_id": "unitedstatespostalservice-a77078", "operator": "United States Postal Service", "operator:short": "USPS", "operator:type": "public", "operator:wikidata": "Q668687", "ref": "4126500003"}, "type": "Feature"}
{"geometry": {"coordinates": [-82.419421806, 37.843781279], "type": "Point"}, "id": "Ra4DY5deLDqBcOPGsTG9O2bPaVI=", "properties": {"@source_uri": "https://tools.usps.com/UspsToolsRestServices/rest/POLocator/findLocations", "@spider": "usps_collection_boxes", "addr:city": "WARFIELD", "addr:country": "US", "addr:postcode": "41267", "addr:state": "KY", "addr:street_address": "82 FIREHOUSE LN", "amenity": "post_box", "collection_times": "Mo-Fr 14:45; Sa 11:30", "note": "ON 12/24 AND 12/31, THIS BOX MAY BE COLLECTED AS EARLY AS 12 NOON.", "nsi_id": "unitedstatespostalservice-a77078", "operator": "United States Postal Service", "operator:short": "USPS", "operator:type": "public", "operator:wikidata": "Q668687", "ref": "4126700000"}, "type": "Feature"}
{"geometry": {"coordinates": [-82.419421806, 37.843781279], "type": "Point"}, "id": "mzW5Y1WEpyxou8dwLS-bFVP8pzo=", "properties": {"@source_uri": "https://tools.usps.com/UspsToolsRestServices/rest/POLocator/findLocations", "@spider": "usps_collection_boxes", "addr:city": "WARFIELD", "addr:country": "US", "addr:postcode": "41267", "addr:state": "KY", "addr:street_address": "82 FIREHOUSE LN", "amenity": "post_box", "collection_times": "Mo-Fr 14:45; Sa 11:30", "indoor": "yes", "note": "ON 12/24 AND 12/31, THIS BOX MAY BE COLLECTED AS EARLY AS 12 NOON.", "nsi_id": "unitedstatespostalservice-a77078", "operator": "United States Postal Service", "operator:short": "USPS", "operator:type": "public", "operator:wikidata": "Q668687", "ref": "4126700001"}, "type": "Feature"}
{"geometry": {"coordinates": [-82.419421806, 37.843781279], "type": "Point"}, "id": "V77mshwhYSqoJAbsjIPcHNfK9oM=", "properties": {"@source_uri": "https://tools.usps.com/UspsToolsRestServices/rest/POLocator/findLocations", "@spider": "usps_collection_boxes", "addr:city": "WARFIELD", "addr:country": "US", "addr:postcode": "41267", "addr:state": "KY", "addr:street_address": "82 FIREHOUSE LN", "amenity": "post_box", "collection_times": "Mo-Fr 15:00; Sa 11:30", "indoor": "yes", "note": "ON 12/24 AND 12/31, THIS BOX MAY BE COLLECTED AS EARLY AS 12 NOON.", "nsi_id": "unitedstatespostalservice-a77078", "operator": "United States Postal Service", "operator:short": "USPS", "operator:type": "public", "operator:wikidata": "Q668687", "ref": "4126700003"}, "type": "Feature"}
{"geometry": {"coordinates": [-82.779126952, 37.78380925], "type": "Point"}, "id": "B1IfF3t-VBRV6k0sHGNndE9iE2M=", "properties": {"@source_uri": "https://tools.usps.com/UspsToolsRestServices/rest/POLocator/findLocations", "@spider": "usps_collection_boxes", "addr:city": "WEST VAN LEAR", "addr:country": "US", "addr:postcode": "41268", "addr:state": "KY", "addr:street_address": "797 KY ROUTE 302", "amenity": "post_box", "collection_times": "Mo-Fr 13:45; Sa 12:00", "note": "ON 12/24 AND 12/31, THIS BOX MAY BE COLLECTED AS EARLY AS 12 NOON.", "nsi_id": "unitedstatespostalservice-a77078", "operator": "United States Postal Service", "operator:short": "USPS", "operator:type": "public", "operator:wikidata": "Q668687", "ref": "4126800000"}, "type": "Feature"}
{"geometry": {"coordinates": [-82.779126952, 37.78380925], "type": "Point"}, "id": "8Gr8d_rGNR5WeDpcaMVCHJGyKCY=", "properties": {"@source_uri": "https://tools.usps.com/UspsToolsRestServices/rest/POLocator/findLocations", "@spider": "usps_collection_boxes", "addr:city": "WEST VAN LEAR", "addr:country": "US", "addr:postcode": "41268", "addr:state": "KY", "addr:street_address": "797 KY ROUTE 302", "amenity": "post_box", "collection_times": "Mo-Fr 13:45; Sa 12:00", "indoor": "yes", "note": "ON 12/24 AND 12/31, THIS BOX MAY BE COLLECTED AS EARLY AS 12 NOON.", "nsi_id": "unitedstatespostalservice-a77078", "operator": "United States Postal Service", "operator:short": "USPS", "operator:type": "public", "operator:wikidata": "Q668687", "ref": "4126800001"}, "type": "Feature"}
{"geometry": {"coordinates": [-82.779126952, 37.78380925], "type": "Point"}, "id": "_xqlypzoFXb3oC_yUTl5T5O8-b8=", "properties": {"@source_uri": "https://tools.usps.com/UspsToolsRestServices/rest/POLocator/findLocations", "@spider": "usps_collection_boxes", "addr:city": "WEST VAN LEAR", "addr:country": "US", "addr:postcode": "41268", "addr:state": "KY", "addr:street_address": "797 KY ROUTE 302", "amenity": "post_box", "collection_times": "Mo-Fr 13:45; Sa 12:00", "indoor": "yes", "note": "ON 12/24 AND 12/31, THIS BOX MAY BE COLLECTED AS EARLY AS 12 NOON.", "nsi_id": "unitedstatespostalservice-a77078", "operator": "United States Postal Service", "operator:short": "USPS", "operator:type": "public", "operator:wikidata": "Q668687", "ref": "4126800003"}, "type": "Feature"}
{"geometry": {"coordinates": [-82.728914223, 37.825400711], "type": "Point"}, "id": "cE7duHxmhIdDb5_veDG0udVDwqo=", "properties": {"@source_uri": "https://tools.usps.com/UspsToolsRestServices/rest/POLocator/findLocations", "@spider": "usps_collection_boxes", "addr:city": "WILLIAMSPORT", "addr:country": "US", "addr:postcode": "41271", "addr:state": "KY", "addr:street_address": "7540 KY ROUTE 40 E", "amenity": "post_box", "collection_times": "Mo-Sa 11:15", "nsi_id": "unitedstatespostalservice-a77078", "operator": "United States Postal Service", "operator:short": "USPS", "operator:type": "public", "operator:wikidata": "Q668687", "ref": "4127100000"}, "type": "Feature"}
{"geometry": {"coordinates": [-82.728914223, 37.825400711], "type": "Point"}, "id": "VXGX9hjgoTFpETtV-SZmJF3ZRTY=", "properties": {"@source_uri": "https://tools.usps.com/UspsToolsRestServices/rest/POLocator/findLocations", "@spider": "usps_collection_boxes", "addr:city": "WILLIAMSPORT", "addr:country": "US", "addr:postcode": "41271", "addr:state": "KY", "addr:street_address": "7540 KY ROUTE 40 E", "amenity": "post_box", "collection_times": "Mo-Sa 11:15", "indoor": "yes", "nsi_id": "unitedstatespostalservice-a77078", "operator": "United States Postal Service", "operator:short": "USPS", "operator:type": "public", "operator:wikidata": "Q668687", "ref": "4127100001"}, "type": "Feature"}
{"geometry": {"coordinates": [-82.728914223, 37.825400711], "type": "Point"}, "id": "xMAjQasBi4jegZHZJs6ve5jX6aI=", "properties": {"@source_uri": "https://tools.usps.com/UspsToolsRestServices/rest/POLocator/findLocations", "@spider": "usps_collection_boxes", "addr:city": "WILLIAMSPORT", "addr:country": "US", "addr:postcode": "41271", "addr:state": "KY", "addr:street_address": "7540 KY ROUTE 40 E", "amenity": "post_box", "collection_times": "Mo-Sa 11:30", "indoor": "yes", "nsi_id": "unitedstatespostalservice-a77078", "operator": "United States Postal Service", "operator:short": "USPS", "operator:type": "public", "operator:wikidata": "Q668687", "ref": "4127100002"}, "type": "Feature"}
{"geometry": {"coordinates": [-82.804626482, 37.8617385], "type": "Point"}, "id": "VGwngb779fJ4j0M7NNNs6nTXtqo=", "properties": {"@source_uri": "https://tools.usps.com/UspsToolsRestServices/rest/POLocator/findLocations", "@spider": "usps_collection_boxes", "addr:city": "WITTENSVILLE", "addr:country": "US", "addr:postcode": "41274", "addr:state": "KY", "addr:street_address": "3027 N US HIGHWAY 23", "amenity": "post_box", "collection_times": "Mo-Fr 16:15; Sa 12:00", "note": "ON 12/24 AND 12/31, THIS BOX MAY BE COLLECTED AS EARLY AS 12 NOON.", "nsi_id": "unitedstatespostalservice-a77078", "operator": "United States Postal Service", "operator:short": "USPS", "operator:type": "public", "operator:wikidata": "Q668687", "ref": "4127400000"}, "type": "Feature"}
{"geometry": {"coordinates": [-82.804626482, 37.8617385], "type": "Point"}, "id": "AO923M0JbObzJ6THSb03UpmF6kM=", "properties": {"@source_uri": "https://tools.usps.com/UspsToolsRestServices/rest/POLocator/findLocations", "@spider": "usps_collection_boxes", "addr:city": "WITTENSVILLE", "addr:country": "US", "addr:postcode": "41274", "addr:state": "KY", "addr:street_address": "3027 N US HIGHWAY 23", "amenity": "post_box", "collection_times": "Mo-Fr 16:15; Sa 12:00", "indoor": "yes", "note": "ON 12/24 AND 12/31, THIS BOX MAY BE COLLECTED AS EARLY AS 12 NOON.", "nsi_id": "unitedstatespostalservice-a77078", "operator": "United States Postal Service", "operator:short": "USPS", "operator:type": "public", "operator:wikidata": "Q668687", "ref": "4127400001"}, "type": "Feature"}
{"geometry": {"coordinates": [-82.804626482, 37.8617385], "type": "Point"}, "id": "XP40FRkr7Exc1rKSeGdUEqT6yuM=", "properties": {"@source_uri": "https://tools.usps.com/UspsToolsRestServices/rest/POLocator/findLocations", "@spider": "usps_collection_boxes", "addr:city": "WITTENSVILLE", "addr:country": "US", "addr:postcode": "41274", "addr:state": "KY", "addr:street_address": "3027 N US HIGHWAY 23", "amenity": "post_box", "collection_times": "Mo-Fr 16:30; Sa 12:00", "indoor": "yes", "note": "ON 12/24 AND 12/31, THIS BOX MAY BE COLLECTED AS EARLY AS 12 NOON.", "nsi_id": "unitedstatespostalservice-a77078", "operator": "United States Postal Service", "operator:short": "USPS", "operator:type": "public", "operator:wikidata": "Q668687", "ref": "4127400003"}, "type": "Feature"}
