{"geometry": {"coordinates": [-83.554905353, 37.733377883], "type": "Point"}, "id": "AeY-9TXOHk0PbyIn2Gbu7xfdnx4=", "properties": {"@spider": "usps_collection_boxes", "addr:city": "CAMPTON", "addr:country": "US", "addr:full": "175 MOUNTAIN PARKWAY SPUR RD", "addr:postcode": "41301", "addr:state": "KY", "brand": "USPS", "collection_times": "Mo-Sa 17:00", "name": "USPS COLLECTION BOX - PO LOBBY", "note": "ON 12/24 AND 12/31, THIS BOX MAY BE COLLECTED AS EARLY AS 12 NOON.", "ref": "4130100009"}, "type": "Feature"}
{"geometry": {"coordinates": [-83.546987869, 37.734904881], "type": "Point"}, "id": "SVpfEoHlO8hbyJcNUcVM0v4HDgY=", "properties": {"@spider": "usps_collection_boxes", "addr:city": "CAMPTON", "addr:country": "US", "addr:full": "16 COURT ST", "addr:postcode": "41301", "addr:state": "KY", "brand": "USPS", "collection_times": "Mo-Sa 13:30", "name": "USPS COLLECTION BOX - BLUE BOX", "note": "ON 12/24 AND 12/31, THIS BOX MAY BE COLLECTED AS EARLY AS 12 NOON.", "ref": "4130100010"}, "type": "Feature"}
{"geometry": {"coordinates": [-83.554905353, 37.733377883], "type": "Point"}, "id": "2L0-IyW-xIeFq0EHHzQGYbPWWKA=", "properties": {"@spider": "usps_collection_boxes", "addr:city": "CAMPTON", "addr:country": "US", "addr:full": "175 MOUNTAIN PARKWAY SPUR RD", "addr:postcode": "41301", "addr:state": "KY", "brand": "USPS", "collection_times": "Mo-Sa 17:00", "name": "USPS COLLECTION BOX - BLUE BOX", "note": "ON 12/24 AND 12/31, THIS BOX MAY BE COLLECTED AS EARLY AS 12 NOON.", "ref": "4130100011"}, "type": "Feature"}
{"geometry": {"coordinates": [-83.554905353, 37.733377883], "type": "Point"}, "id": "coEvuyJ4C4mD6AwF6jHPCo6cf7E=", "properties": {"@spider": "usps_collection_boxes", "addr:city": "CAMPTON", "addr:country": "US", "addr:full": "175 MOUNTAIN PARKWAY SPUR RD", "addr:postcode": "41301", "addr:state": "KY", "brand": "USPS", "collection_times": "Mo-Fr 16:00; Sa 12:00", "name": "USPS COLLECTION BOX - PO LOBBY", "note": "ON 12/24 AND 12/31, THIS BOX MAY BE COLLECTED AS EARLY AS 12 NOON.", "ref": "4130100016"}, "type": "Feature"}
{"geometry": {"coordinates": [-83.7030799827, 37.571398972], "type": "Point"}, "id": "6iFYJRTCNbPWesx38oRd8h5WuKE=", "properties": {"@spider": "usps_collection_boxes", "addr:city": "BEATTYVILLE", "addr:country": "US", "addr:full": "18 WATER ST", "addr:postcode": "41311", "addr:state": "KY", "brand": "USPS", "collection_times": "Mo-Sa 08:00", "name": "USPS COLLECTION BOX - BLUE BOX", "ref": "4131100004"}, "type": "Feature"}
{"geometry": {"coordinates": [-83.6756622, 37.475366], "type": "Point"}, "id": "KDoqeV_52Qqo0exESc1kuufhZgY=", "properties": {"@spider": "usps_collection_boxes", "addr:city": "BOONEVILLE", "addr:country": "US", "addr:full": "1 POSTAL WAY", "addr:postcode": "41314", "addr:state": "KY", "brand": "USPS", "collection_times": "Mo-Sa 14:00", "name": "USPS COLLECTION BOX - BLUE BOX", "note": "ON 12/24 AND 12/31, THIS BOX MAY BE COLLECTED AS EARLY AS 12 NOON.", "ref": "4131400003"}, "type": "Feature"}
{"geometry": {"coordinates": [-83.2763322179, 37.4758011187], "type": "Point"}, "id": "spBe66QKutfAERgrWV1UC1FWvzs=", "properties": {"@spider": "usps_collection_boxes", "addr:city": "CLAYHOLE", "addr:country": "US", "addr:full": "3757 HIGHWAY 476", "addr:postcode": "41317", "addr:state": "KY", "brand": "USPS", "collection_times": "Mo-Sa 08:00", "name": "USPS COLLECTION BOX - PO LOBBY", "ref": "4131700001"}, "type": "Feature"}
{"geometry": {"coordinates": [-83.2763322179, 37.4758011187], "type": "Point"}, "id": "Lc_3Fxpo2hzhXwzo-dsd4CW6wh4=", "properties": {"@spider": "usps_collection_boxes", "addr:city": "CLAYHOLE", "addr:country": "US", "addr:full": "3757 HIGHWAY 476", "addr:postcode": "41317", "addr:state": "KY", "brand": "USPS", "collection_times": "Mo-Sa 08:00", "name": "USPS COLLECTION BOX - PO LOBBY", "ref": "4131700002"}, "type": "Feature"}
{"geometry": {"coordinates": [-83.290190109, 37.782137698], "type": "Point"}, "id": "tZiKevIcfCq8UIWRQojRovjS1T8=", "properties": {"@spider": "usps_collection_boxes", "addr:city": "HAZEL GREEN", "addr:country": "US", "addr:full": "10491 KY HIGHWAY 191", "addr:postcode": "41332", "addr:state": "KY", "brand": "USPS", "collection_times": "Mo-Fr 15:45; Sa 11:15", "name": "USPS COLLECTION BOX - BLUE BOX", "note": "ON 12/24 AND 12/31, THIS BOX MAY BE COLLECTED AS EARLY AS 12 NOON.", "ref": "4133200000"}, "type": "Feature"}
{"geometry": {"coordinates": [-83.290190109, 37.782137698], "type": "Point"}, "id": "CQrgziy-NcJFJd9Uegb_OhiUYUo=", "properties": {"@spider": "usps_collection_boxes", "addr:city": "HAZEL GREEN", "addr:country": "US", "addr:full": "10491 KY HIGHWAY 191", "addr:postcode": "41332", "addr:state": "KY", "brand": "USPS", "collection_times": "Mo-Fr 16:00; Sa 11:30", "name": "USPS COLLECTION BOX - PO LOBBY", "note": "ON 12/24 AND 12/31, THIS BOX MAY BE COLLECTED AS EARLY AS 12 NOON.", "ref": "4133200001"}, "type": "Feature"}
{"geometry": {"coordinates": [-83.290190109, 37.782137698], "type": "Point"}, "id": "TJMFJe-jF9xO8XApfuNe2vkQmSY=", "properties": {"@spider": "usps_collection_boxes", "addr:city": "HAZEL GREEN", "addr:country": "US", "addr:full": "10491 KY HIGHWAY 191", "addr:postcode": "41332", "addr:state": "KY", "brand": "USPS", "collection_times": "Mo-Fr 16:00; Sa 11:30", "name": "USPS COLLECTION BOX - PO LOBBY", "note": "ON 12/24 AND 12/31, THIS BOX MAY BE COLLECTED AS EARLY AS 12 NOON.", "ref": "4133200003"}, "type": "Feature"}
{"geometry": {"coordinates": [-83.321886338, 37.476173763], "type": "Point"}, "id": "cPbeefu7mlyTnvBY9DVjJ2UkUgg=", "properties": {"@spider": "usps_collection_boxes", "addr:city": "LOST CREEK", "addr:country": "US", "addr:full": "9950 HIGHWAY 15 S", "addr:postcode": "41348", "addr:state": "KY", "brand": "USPS", "collection_times": "Mo-Fr 13:45; Sa 11:00", "name": "USPS COLLECTION BOX - BLUE BOX", "note": "ON 12/24 AND 12/31, THIS BOX MAY BE COLLECTED AS EARLY AS 12 NOON.", "ref": "4134800000"}, "type": "Feature"}
{"geometry": {"coordinates": [-83.321886338, 37.476173763], "type": "Point"}, "id": "Z1yNx44-Cys3CRE19Kv04a_PohE=", "properties": {"@spider": "usps_collection_boxes", "addr:city": "LOST CREEK", "addr:country": "US", "addr:full": "9950 HIGHWAY 15 S", "addr:postcode": "41348", "addr:state": "KY", "brand": "USPS", "collection_times": "Mo-Fr 14:00; Sa 12:00", "name": "USPS COLLECTION BOX - PO LOBBY", "note": "ON 12/24 AND 12/31, THIS BOX MAY BE COLLECTED AS EARLY AS 12 NOON.", "ref": "4134800002"}, "type": "Feature"}
{"geometry": {"coordinates": [-83.35681769, 37.86493774], "type": "Point"}, "id": "nS6LlUJCoPol5Ba5WPhZLs2m8fM=", "properties": {"@spider": "usps_collection_boxes", "addr:city": "MIZE", "addr:country": "US", "addr:full": "8447 HIGHWAY 460 W", "addr:postcode": "41352", "addr:state": "KY", "brand": "USPS", "collection_times": "Mo-Sa 13:00", "name": "USPS COLLECTION BOX - PO LOBBY", "note": "ON 12/24 AND 12/31, THIS BOX MAY BE COLLECTED AS EARLY AS 12 NOON.", "ref": "4135200000"}, "type": "Feature"}
{"geometry": {"coordinates": [-83.35681769, 37.86493774], "type": "Point"}, "id": "cmabbN-bDDk4QD9upRNV_ghsrtM=", "properties": {"@spider": "usps_collection_boxes", "addr:city": "MIZE", "addr:country": "US", "addr:full": "8447 HIGHWAY 460 W", "addr:postcode": "41352", "addr:state": "KY", "brand": "USPS", "collection_times": "Mo-Sa 13:00", "name": "USPS COLLECTION BOX - PO LOBBY", "note": "ON 12/24 AND 12/31, THIS BOX MAY BE COLLECTED AS EARLY AS 12 NOON.", "ref": "4135200001"}, "type": "Feature"}
{"geometry": {"coordinates": [-83.645782056, 37.733823075], "type": "Point"}, "id": "gXDp7wGuZqd0qqEgLLKUDtobrZI=", "properties": {"@spider": "usps_collection_boxes", "addr:city": "ROGERS", "addr:country": "US", "addr:full": "1660 KY 715", "addr:postcode": "41365", "addr:state": "KY", "brand": "USPS", "collection_times": "Mo-Fr 16:00; Sa 10:30", "name": "USPS COLLECTION BOX - BLUE BOX", "note": "ON 12/24 AND 12/31, THIS BOX MAY BE COLLECTED AS EARLY AS 12 NOON.", "ref": "4136500000"}, "type": "Feature"}
{"geometry": {"coordinates": [-83.645782056, 37.733823075], "type": "Point"}, "id": "py7KxQn2abLiFDAq7h5oFPF3eEo=", "properties": {"@spider": "usps_collection_boxes", "addr:city": "ROGERS", "addr:country": "US", "addr:full": "1660 KY 715", "addr:postcode": "41365", "addr:state": "KY", "brand": "USPS", "collection_times": "Mo-Fr 16:00; Sa 10:30", "name": "USPS COLLECTION BOX - PO LOBBY", "note": "ON 12/24 AND 12/31, THIS BOX MAY BE COLLECTED AS EARLY AS 12 NOON.", "ref": "4136500001"}, "type": "Feature"}
{"geometry": {"coordinates": [-83.645782056, 37.733823075], "type": "Point"}, "id": "udM_eOtFU9ZBRtxd4fEL0oKD6Kk=", "properties": {"@spider": "usps_collection_boxes", "addr:city": "ROGERS", "addr:country": "US", "addr:full": "1660 KY 715", "addr:postcode": "41365", "addr:state": "KY", "brand": "USPS", "collection_times": "Mo-Fr 16:00; Sa 10:30", "name": "USPS COLLECTION BOX - PO LOBBY", "note": "ON 12/24 AND 12/31, THIS BOX MAY BE COLLECTED AS EARLY AS 12 NOON.", "ref": "4136500003"}, "type": "Feature"}
{"geometry": {"coordinates": [-83.647305906, 37.584380123], "type": "Point"}, "id": "M3i7km3rAC3Cjg3ZhG6injHaCIc=", "properties": {"@spider": "usps_collection_boxes", "addr:city": "SAINT HELENS", "addr:country": "US", "addr:full": "92 HIGHWAY 2016", "addr:postcode": "41368", "addr:state": "KY", "brand": "USPS", "collection_times": "Mo-Fr 13:30; Sa 11:30", "name": "USPS COLLECTION BOX - PO LOBBY", "note": "ON 12/24 AND 12/31, THIS BOX MAY BE COLLECTED AS EARLY AS 12 NOON.", "ref": "4136800000"}, "type": "Feature"}
{"geometry": {"coordinates": [-83.647305906, 37.584380123], "type": "Point"}, "id": "s65350-H6xy8x5_AJ_OitK_dD24=", "properties": {"@spider": "usps_collection_boxes", "addr:city": "SAINT HELENS", "addr:country": "US", "addr:full": "92 HIGHWAY 2016", "addr:postcode": "41368", "addr:state": "KY", "brand": "USPS", "collection_times": "Mo-Fr 13:30; Sa 11:30", "name": "USPS COLLECTION BOX - BLUE BOX", "note": "ON 12/24 AND 12/31, THIS BOX MAY BE COLLECTED AS EARLY AS 12 NOON.", "ref": "4136800001"}, "type": "Feature"}
{"geometry": {"coordinates": [-83.647305906, 37.584380123], "type": "Point"}, "id": "_Jw-Ao-H6x7FOLf9IhMooWKVqMA=", "properties": {"@spider": "usps_collection_boxes", "addr:city": "SAINT HELENS", "addr:country": "US", "addr:full": "92 HIGHWAY 2016", "addr:postcode": "41368", "addr:state": "KY", "brand": "USPS", "collection_times": "Mo-Fr 13:30; Sa 11:30", "name": "USPS COLLECTION BOX - PO LOBBY", "note": "ON 12/24 AND 12/31, THIS BOX MAY BE COLLECTED AS EARLY AS 12 NOON.", "ref": "4136800003"}, "type": "Feature"}
{"geometry": {"coordinates": [-83.7974852, 37.4673957], "type": "Point"}, "id": "rsEso1IDiRe93RnxjtZxeR7iABE=", "properties": {"@spider": "usps_collection_boxes", "addr:city": "VINCENT", "addr:country": "US", "addr:full": "PO BOX 9998", "addr:postcode": "41386", "addr:state": "KY", "brand": "USPS", "collection_times": "Mo-Sa 10:00", "name": "USPS COLLECTION BOX - BLUE BOX", "ref": "4138600000"}, "type": "Feature"}
{"geometry": {"coordinates": [-83.781888507, 37.45729909], "type": "Point"}, "id": "WNrMsxF5hW9r4Lij8gHs88Do-nw=", "properties": {"@spider": "usps_collection_boxes", "addr:city": "VINCENT", "addr:country": "US", "addr:full": "4474 KY 30 W", "addr:postcode": "41386", "addr:state": "KY", "brand": "USPS", "collection_times": "Mo-Sa 10:30", "name": "USPS COLLECTION BOX - PO LOBBY", "ref": "4138600002"}, "type": "Feature"}
{"geometry": {"coordinates": [-83.679188659, 37.674021087], "type": "Point"}, "id": "xNXDBAyo9PW8mWtZevUnsnz_v58=", "properties": {"@spider": "usps_collection_boxes", "addr:city": "ZOE", "addr:country": "US", "addr:full": "73 ZOE POST OFFICE RD", "addr:postcode": "41397", "addr:state": "KY", "brand": "USPS", "collection_times": "Mo-Fr 14:15; Sa 11:15", "name": "USPS COLLECTION BOX - PO LOBBY", "note": "ON 12/24 AND 12/31, THIS BOX MAY BE COLLECTED AS EARLY AS 12 NOON.", "ref": "4139700000"}, "type": "Feature"}
{"geometry": {"coordinates": [-83.679188659, 37.674021087], "type": "Point"}, "id": "B_cAPpTgk5oRln3_jtBXvEY1TXo=", "properties": {"@spider": "usps_collection_boxes", "addr:city": "ZOE", "addr:country": "US", "addr:full": "73 ZOE POST OFFICE RD", "addr:postcode": "41397", "addr:state": "KY", "brand": "USPS", "collection_times": "Mo-Fr 14:15; Sa 11:15", "name": "USPS COLLECTION BOX - BLUE BOX", "note": "ON 12/24 AND 12/31, THIS BOX MAY BE COLLECTED AS EARLY AS 12 NOON.", "ref": "4139700001"}, "type": "Feature"}
{"geometry": {"coordinates": [-83.679188659, 37.674021087], "type": "Point"}, "id": "20OOPgVWjaYk4R4nCa-6mqH6t-E=", "properties": {"@spider": "usps_collection_boxes", "addr:city": "ZOE", "addr:country": "US", "addr:full": "73 ZOE POST OFFICE RD", "addr:postcode": "41397", "addr:state": "KY", "brand": "USPS", "collection_times": "Mo-Fr 14:30; Sa 11:15", "name": "USPS COLLECTION BOX - PO LOBBY", "note": "ON 12/24 AND 12/31, THIS BOX MAY BE COLLECTED AS EARLY AS 12 NOON.", "ref": "4139700003"}, "type": "Feature"}
