{"dataset_attributes": {"@spider": "usps_collection_boxes"}, "geometry": {"coordinates": [-83.00009, 37.79162], "type": "Point"}, "id": "ptcpdiMIiKR56fAPohSd3iEpNQY=", "properties": {"@spider": "usps_collection_boxes", "addr:city": "FALCON", "addr:country": "US", "addr:full": "PO BOX 9998", "addr:postcode": "41426", "addr:state": "KY", "amenity": "post_box", "brand": "United States Postal Service", "brand:wikidata": "Q668687", "collection_times": "Mo-Fr 12:15; Sa 11:45", "name": "USPS COLLECTION BOX - BLUE BOX", "note": "ON 12/24 AND 12/31, THIS BOX MAY BE COLLECTED AS EARLY AS 12 NOON.", "nsi_id": "unitedstatespostalservice-a77078", "operator": "United States Postal Service", "operator:short": "USPS", "operator:type": "public", "operator:wikidata": "Q668687", "ref": "4142600000"}, "type": "Feature"}
{"dataset_attributes": {"@spider": "usps_collection_boxes"}, "geometry": {"coordinates": [-83.00009, 37.79162], "type": "Point"}, "id": "OcnkOfX481I4tSEVXFjvokHyop4=", "properties": {"@spider": "usps_collection_boxes", "addr:city": "FALCON", "addr:country": "US", "addr:full": "PO BOX 9998", "addr:postcode": "41426", "addr:state": "KY", "amenity": "post_box", "brand": "United States Postal Service", "brand:wikidata": "Q668687", "collection_times": "Mo-Fr 12:15; Sa 11:45", "name": "USPS COLLECTION BOX - PO LOBBY", "note": "ON 12/24 AND 12/31, THIS BOX MAY BE COLLECTED AS EARLY AS 12 NOON.", "nsi_id": "unitedstatespostalservice-a77078", "operator": "United States Postal Service", "operator:short": "USPS", "operator:type": "public", "operator:wikidata": "Q668687", "ref": "4142600001"}, "type": "Feature"}
{"dataset_attributes": {"@spider": "usps_collection_boxes"}, "geometry": {"coordinates": [-83.0235253159, 37.7760368233], "type": "Point"}, "id": "Z8SrbO9Cw23WI9ExwtgS9P6nYNc=", "properties": {"@spider": "usps_collection_boxes", "addr:city": "FALCON", "addr:country": "US", "addr:full": "3891 FALCON RD", "addr:postcode": "41426", "addr:state": "KY", "amenity": "post_box", "brand": "United States Postal Service", "brand:wikidata": "Q668687", "collection_times": "Mo-Fr 12:15; Sa 11:45", "name": "USPS COLLECTION BOX - PO LOBBY", "note": "ON 12/24 AND 12/31, THIS BOX MAY BE COLLECTED AS EARLY AS 12 NOON.", "nsi_id": "unitedstatespostalservice-a77078", "operator": "United States Postal Service", "operator:short": "USPS", "operator:type": "public", "operator:wikidata": "Q668687", "ref": "4142600003"}, "type": "Feature"}
{"dataset_attributes": {"@spider": "usps_collection_boxes"}, "geometry": {"coordinates": [-83.050584069, 37.758790726], "type": "Point"}, "id": "hJ-APioaSzeMR72xpia2Hibe_YQ=", "properties": {"@spider": "usps_collection_boxes", "addr:city": "SALYERSVILLE", "addr:country": "US", "addr:full": "330 E MAPLE ST", "addr:postcode": "41465", "addr:state": "KY", "amenity": "post_box", "brand": "United States Postal Service", "brand:wikidata": "Q668687", "collection_times": "Mo-Sa 16:00", "name": "USPS COLLECTION BOX - PO LOBBY", "note": "ON 12/24 AND 12/31, THIS BOX MAY BE COLLECTED AS EARLY AS 12 NOON.", "nsi_id": "unitedstatespostalservice-a77078", "operator": "United States Postal Service", "operator:short": "USPS", "operator:type": "public", "operator:wikidata": "Q668687", "ref": "4146500002"}, "type": "Feature"}
{"dataset_attributes": {"@spider": "usps_collection_boxes"}, "geometry": {"coordinates": [-83.050584069, 37.758790726], "type": "Point"}, "id": "qRm5GJldFRWthJ1Zoj4Y00qJwPU=", "properties": {"@spider": "usps_collection_boxes", "addr:city": "SALYERSVILLE", "addr:country": "US", "addr:full": "330 E MAPLE ST", "addr:postcode": "41465", "addr:state": "KY", "amenity": "post_box", "brand": "United States Postal Service", "brand:wikidata": "Q668687", "collection_times": "Mo-Sa 16:00", "name": "USPS COLLECTION BOX - BLUE BOX", "note": "ON 12/24 AND 12/31, THIS BOX MAY BE COLLECTED AS EARLY AS 12 NOON.", "nsi_id": "unitedstatespostalservice-a77078", "operator": "United States Postal Service", "operator:short": "USPS", "operator:type": "public", "operator:wikidata": "Q668687", "ref": "4146500003"}, "type": "Feature"}
{"dataset_attributes": {"@spider": "usps_collection_boxes"}, "geometry": {"coordinates": [-83.050584069, 37.758790726], "type": "Point"}, "id": "yZA2qlpPXAKh-yV3uk5hsJuHSx4=", "properties": {"@spider": "usps_collection_boxes", "addr:city": "SALYERSVILLE", "addr:country": "US", "addr:full": "330 E MAPLE ST", "addr:postcode": "41465", "addr:state": "KY", "amenity": "post_box", "brand": "United States Postal Service", "brand:wikidata": "Q668687", "collection_times": "Mo-Fr 16:00; Sa 12:00", "name": "USPS COLLECTION BOX - PO LOBBY", "note": "ON 12/24 AND 12/31, THIS BOX MAY BE COLLECTED AS EARLY AS 12 NOON.", "nsi_id": "unitedstatespostalservice-a77078", "operator": "United States Postal Service", "operator:short": "USPS", "operator:type": "public", "operator:wikidata": "Q668687", "ref": "4146500007"}, "type": "Feature"}
{"dataset_attributes": {"@spider": "usps_collection_boxes"}, "geometry": {"coordinates": [-83.0311287357, 37.6807649385], "type": "Point"}, "id": "zbRpSHzbAP0iYJvrfIEm0viyET8=", "properties": {"@spider": "usps_collection_boxes", "addr:city": "SALYERSVILLE", "addr:country": "US", "addr:full": "6920 SE LICKING RIVER RD", "addr:postcode": "41465", "addr:state": "KY", "amenity": "post_box", "brand": "United States Postal Service", "brand:wikidata": "Q668687", "collection_times": "Mo-Sa 09:00", "name": "USPS COLLECTION BOX - BLUE BOX", "nsi_id": "unitedstatespostalservice-a77078", "operator": "United States Postal Service", "operator:short": "USPS", "operator:type": "public", "operator:wikidata": "Q668687", "ref": "4146500009"}, "type": "Feature"}
