{"geometry": {"coordinates": [-82.5320052, 37.471872], "type": "Point"}, "id": "DmkMiePFVVItZrFaFbe0Y41yWxY=", "properties": {"@spider": "usps_collection_boxes", "addr:city": "PIKEVILLE", "addr:country": "US", "addr:full": "213 S MAYO TRL", "addr:postcode": "41501", "addr:state": "KY", "brand": "USPS", "collection_times": "Mo-Fr 09:30; Sa 09:00", "name": "USPS COLLECTION BOX - BLUE BOX", "ref": "4150100000"}, "type": "Feature"}
{"geometry": {"coordinates": [-82.5243644, 37.451715], "type": "Point"}, "id": "0nMt9EkPIrIvdN9X9Q5NpQX_U4U=", "properties": {"@spider": "usps_collection_boxes", "addr:city": "PIKEVILLE", "addr:country": "US", "addr:full": "1098 S MAYO TRL", "addr:postcode": "41501", "addr:state": "KY", "brand": "USPS", "collection_times": "Mo-Sa 09:00", "name": "USPS COLLECTION BOX - BLUE BOX", "ref": "4150100007"}, "type": "Feature"}
{"geometry": {"coordinates": [-82.5181549309, 37.4802721291], "type": "Point"}, "id": "kpeFbFcm-9S5ntDAmXCJpjAIKQY=", "properties": {"@spider": "usps_collection_boxes", "addr:city": "PIKEVILLE", "addr:country": "US", "addr:full": "208 2ND ST", "addr:postcode": "41501", "addr:state": "KY", "brand": "USPS", "collection_times": "Mo-Fr 16:00; Sa 12:00", "name": "USPS COLLECTION BOX - BLUE BOX", "note": "ON 12/24 AND 12/31, THIS BOX MAY BE COLLECTED AS EARLY AS 12 NOON.", "ref": "4150100011"}, "type": "Feature"}
{"geometry": {"coordinates": [-82.5036256, 37.489893], "type": "Point"}, "id": "OokmoRiPaEGWBaPQ3r4TdDpTApY=", "properties": {"@spider": "usps_collection_boxes", "addr:city": "PIKEVILLE", "addr:country": "US", "addr:full": "387 TOWN MOUNTAIN RD", "addr:postcode": "41501", "addr:state": "KY", "brand": "USPS", "collection_times": "Mo-Fr 12:00; Sa 10:00", "name": "USPS COLLECTION BOX - BLUE BOX", "ref": "4150100014"}, "type": "Feature"}
{"geometry": {"coordinates": [-82.5018861, 37.490472], "type": "Point"}, "id": "Wyv6Js765b-emrAJSXpWoKMAo1g=", "properties": {"@spider": "usps_collection_boxes", "addr:city": "PIKEVILLE", "addr:country": "US", "addr:full": "419 TOWN MOUNTAIN RD", "addr:postcode": "41501", "addr:state": "KY", "brand": "USPS", "collection_times": "Mo-Fr 12:00; Sa 10:00", "name": "USPS COLLECTION BOX - BLUE BOX", "ref": "4150100015"}, "type": "Feature"}
{"geometry": {"coordinates": [-82.5247899, 37.443679], "type": "Point"}, "id": "9BR8F8-ry85ZOxwRbIqWDUTQv-U=", "properties": {"@spider": "usps_collection_boxes", "addr:city": "PIKEVILLE", "addr:country": "US", "addr:full": "1330 S MAYO TRL", "addr:postcode": "41501", "addr:state": "KY", "brand": "USPS", "collection_times": "Mo-Sa 09:00", "name": "USPS COLLECTION BOX - BLUE BOX", "ref": "4150100019"}, "type": "Feature"}
{"geometry": {"coordinates": [-82.5172179843, 37.4797875756], "type": "Point"}, "id": "PeJLk93JLNk9rQMLq_0BqSLFkEs=", "properties": {"@spider": "usps_collection_boxes", "addr:city": "PIKEVILLE", "addr:country": "US", "addr:full": "164 MAIN ST", "addr:postcode": "41501", "addr:state": "KY", "brand": "USPS", "collection_times": "Mo-Fr 16:00; Sa 12:00", "name": "USPS COLLECTION BOX - BLUE BOX", "note": "ON 12/24 AND 12/31, THIS BOX MAY BE COLLECTED AS EARLY AS 12 NOON.", "ref": "4150100020"}, "type": "Feature"}
{"geometry": {"coordinates": [-82.5169860046, 37.4817824316], "type": "Point"}, "id": "iSF7Np0aGAJGF0qLk1dn4fg625o=", "properties": {"@spider": "usps_collection_boxes", "addr:city": "PIKEVILLE", "addr:country": "US", "addr:full": "158 2ND ST", "addr:postcode": "41501", "addr:state": "KY", "brand": "USPS", "collection_times": "Mo-Fr 16:00; Sa 12:00", "name": "USPS COLLECTION BOX - BLUE BOX", "note": "ON 12/24 AND 12/31, THIS BOX MAY BE COLLECTED AS EARLY AS 12 NOON.", "ref": "4150100021"}, "type": "Feature"}
{"geometry": {"coordinates": [-82.5188861524, 37.4789295262], "type": "Point"}, "id": "Gxzt2_JticN9aC1-UW79J4gLUV0=", "properties": {"@spider": "usps_collection_boxes", "addr:city": "PIKEVILLE", "addr:country": "US", "addr:full": "119 CAROLINE AVE", "addr:postcode": "41501", "addr:state": "KY", "brand": "USPS", "collection_times": "Mo-Fr 16:00; Sa 12:00", "name": "USPS COLLECTION BOX - BLUE BOX", "note": "ON 12/24 AND 12/31, THIS BOX MAY BE COLLECTED AS EARLY AS 12 NOON.", "ref": "4150100022"}, "type": "Feature"}
{"geometry": {"coordinates": [-82.54420417, 37.506214914], "type": "Point"}, "id": "z265F8vh3RC89LzWyaBPAU3cR60=", "properties": {"@spider": "usps_collection_boxes", "addr:city": "PIKEVILLE", "addr:country": "US", "addr:full": "281 THOMPSON RD", "addr:postcode": "41501", "addr:state": "KY", "brand": "USPS", "collection_times": "Mo-Sa 17:00", "name": "USPS COLLECTION BOX - BLUE BOX", "note": "ON 12/24 AND 12/31, THIS BOX MAY BE COLLECTED AS EARLY AS 12 NOON.", "ref": "4150100028"}, "type": "Feature"}
{"geometry": {"coordinates": [-82.54420417, 37.506214914], "type": "Point"}, "id": "FbFOInys5JUEPVsVXcLmA4FCG3U=", "properties": {"@spider": "usps_collection_boxes", "addr:city": "PIKEVILLE", "addr:country": "US", "addr:full": "281 THOMPSON RD", "addr:postcode": "41501", "addr:state": "KY", "brand": "USPS", "collection_times": "Mo-Sa 17:00", "name": "USPS COLLECTION BOX - PO LOBBY", "note": "ON 12/24 AND 12/31, THIS BOX MAY BE COLLECTED AS EARLY AS 12 NOON.", "ref": "4150100029"}, "type": "Feature"}
{"geometry": {"coordinates": [-82.5246547, 37.485404], "type": "Point"}, "id": "tdTHoo1r5OJLFLzp95nArQjvMgQ=", "properties": {"@spider": "usps_collection_boxes", "addr:city": "PIKEVILLE", "addr:country": "US", "addr:full": "533 HAMBLEY BLVD", "addr:postcode": "41501", "addr:state": "KY", "brand": "USPS", "collection_times": "Mo-Fr 11:30; Sa 11:00", "name": "USPS COLLECTION BOX - BLUE BOX", "ref": "4150100030"}, "type": "Feature"}
{"geometry": {"coordinates": [-82.5690159, 37.523977], "type": "Point"}, "id": "GCd70TuyFTILPIwVA5scnEJ0QX4=", "properties": {"@spider": "usps_collection_boxes", "addr:city": "PIKEVILLE", "addr:country": "US", "addr:full": "137 WEDDINGTON BRANCH RD", "addr:postcode": "41501", "addr:state": "KY", "brand": "USPS", "collection_times": "Mo-Sa 09:30", "name": "USPS COLLECTION BOX - BLUE BOX", "ref": "4150100033"}, "type": "Feature"}
{"geometry": {"coordinates": [-82.5153213786, 37.4829742348], "type": "Point"}, "id": "3nthoAhm4bRzBJ7Cksaf_YAG2Mg=", "properties": {"@spider": "usps_collection_boxes", "addr:city": "PIKEVILLE", "addr:country": "US", "addr:full": "126 TRIVETTE DR", "addr:postcode": "41501", "addr:state": "KY", "brand": "USPS", "collection_times": "Mo-Fr 16:00; Sa 12:00", "name": "USPS COLLECTION BOX - BLUE BOX", "note": "ON 12/24 AND 12/31, THIS BOX MAY BE COLLECTED AS EARLY AS 12 NOON.", "ref": "4150100034"}, "type": "Feature"}
{"geometry": {"coordinates": [-82.5668954, 37.517779], "type": "Point"}, "id": "QbEsOPIsGCM_GfpVvqqv-sI1Fng=", "properties": {"@spider": "usps_collection_boxes", "addr:city": "PIKEVILLE", "addr:country": "US", "addr:full": "255 CHURCH ST", "addr:postcode": "41501", "addr:state": "KY", "brand": "USPS", "collection_times": "Mo-Fr 09:30; Sa 09:00", "name": "USPS COLLECTION BOX - BLUE BOX", "ref": "4150100037"}, "type": "Feature"}
{"geometry": {"coordinates": [-82.5349706, 37.503131], "type": "Point"}, "id": "xhydT7ISogLB3hQaS8paHAIqEqA=", "properties": {"@spider": "usps_collection_boxes", "addr:city": "PIKEVILLE", "addr:country": "US", "addr:full": "109 PRATER PL", "addr:postcode": "41501", "addr:state": "KY", "brand": "USPS", "collection_times": "Mo-Sa 09:00", "name": "USPS COLLECTION BOX - BLUE BOX", "ref": "4150100039"}, "type": "Feature"}
{"geometry": {"coordinates": [-82.5170023016, 37.4800140862], "type": "Point"}, "id": "qqBml88sbNKYawzWsj5B7wiArJU=", "properties": {"@spider": "usps_collection_boxes", "addr:city": "PIKEVILLE", "addr:country": "US", "addr:full": "178 MAIN ST", "addr:postcode": "41501", "addr:state": "KY", "brand": "USPS", "collection_times": "Mo-Fr 16:00; Sa 12:00", "name": "USPS COLLECTION BOX - BLUE BOX", "note": "ON 12/24 AND 12/31, THIS BOX MAY BE COLLECTED AS EARLY AS 12 NOON.", "ref": "4150100045"}, "type": "Feature"}
{"geometry": {"coordinates": [-82.5154255526, 37.4822005598], "type": "Point"}, "id": "i_vu21-7XDenfzfxUPysu8zhCHA=", "properties": {"@spider": "usps_collection_boxes", "addr:city": "PIKEVILLE", "addr:country": "US", "addr:full": "243 MAIN ST", "addr:postcode": "41501", "addr:state": "KY", "brand": "USPS", "collection_times": "Mo-Fr 16:00; Sa 12:00", "name": "USPS COLLECTION BOX - BLUE BOX", "note": "ON 12/24 AND 12/31, THIS BOX MAY BE COLLECTED AS EARLY AS 12 NOON.", "ref": "4150100046"}, "type": "Feature"}
{"geometry": {"coordinates": [-82.54420417, 37.506214914], "type": "Point"}, "id": "FgC1V5v9w5E9Nw_xOaINYayw0vY=", "properties": {"@spider": "usps_collection_boxes", "addr:city": "PIKEVILLE", "addr:country": "US", "addr:full": "281 THOMPSON RD", "addr:postcode": "41501", "addr:state": "KY", "brand": "USPS", "collection_times": "Mo-Fr 17:00; Sa 12:00", "name": "USPS COLLECTION BOX - PO LOBBY", "note": "ON 12/24 AND 12/31, THIS BOX MAY BE COLLECTED AS EARLY AS 12 NOON.", "ref": "4150100048"}, "type": "Feature"}
{"geometry": {"coordinates": [-82.433601, 37.265973464], "type": "Point"}, "id": "Q1-tiFvBuSWVnIQIR2Rr7bN53Vc=", "properties": {"@spider": "usps_collection_boxes", "addr:city": "ASHCAMP", "addr:country": "US", "addr:full": "6804 ELKHORN CRK", "addr:postcode": "41512", "addr:state": "KY", "brand": "USPS", "collection_times": "Mo-Fr 15:00; Sa 11:30", "name": "USPS COLLECTION BOX - BLUE BOX", "note": "ON 12/24 AND 12/31, THIS BOX MAY BE COLLECTED AS EARLY AS 12 NOON.", "ref": "4151200000"}, "type": "Feature"}
{"geometry": {"coordinates": [-82.433601, 37.265973464], "type": "Point"}, "id": "gmlaiXiodhrBxuiCfI3dslPT2NY=", "properties": {"@spider": "usps_collection_boxes", "addr:city": "ASHCAMP", "addr:country": "US", "addr:full": "6804 ELKHORN CRK", "addr:postcode": "41512", "addr:state": "KY", "brand": "USPS", "collection_times": "Mo-Fr 15:00; Sa 11:30", "name": "USPS COLLECTION BOX - PO LOBBY", "note": "ON 12/24 AND 12/31, THIS BOX MAY BE COLLECTED AS EARLY AS 12 NOON.", "ref": "4151200001"}, "type": "Feature"}
{"geometry": {"coordinates": [-82.433601, 37.265973464], "type": "Point"}, "id": "8sFgTeDcOqG8-8Wai-v5-14NnX4=", "properties": {"@spider": "usps_collection_boxes", "addr:city": "ASHCAMP", "addr:country": "US", "addr:full": "6804 ELKHORN CRK", "addr:postcode": "41512", "addr:state": "KY", "brand": "USPS", "collection_times": "Mo-Fr 15:00; Sa 12:00", "name": "USPS COLLECTION BOX - PO LOBBY", "note": "ON 12/24 AND 12/31, THIS BOX MAY BE COLLECTED AS EARLY AS 12 NOON.", "ref": "4151200003"}, "type": "Feature"}
{"geometry": {"coordinates": [-82.597223564, 37.190689232], "type": "Point"}, "id": "uvGmnGqX4Q8CsWGYsc1tafCaibw=", "properties": {"@spider": "usps_collection_boxes", "addr:city": "BURDINE", "addr:country": "US", "addr:full": "11872 HIGHWAY 805", "addr:postcode": "41517", "addr:state": "KY", "brand": "USPS", "collection_times": "Mo-Fr 15:30; Sa 11:45", "name": "USPS COLLECTION BOX - BLUE BOX", "note": "ON 12/24 AND 12/31, THIS BOX MAY BE COLLECTED AS EARLY AS 12 NOON.", "ref": "4151700000"}, "type": "Feature"}
{"geometry": {"coordinates": [-82.597223564, 37.190689232], "type": "Point"}, "id": "OduGe6Y97Qm-XVxpmAxxC2h0lAE=", "properties": {"@spider": "usps_collection_boxes", "addr:city": "BURDINE", "addr:country": "US", "addr:full": "11872 HIGHWAY 805", "addr:postcode": "41517", "addr:state": "KY", "brand": "USPS", "collection_times": "Mo-Fr 15:30; Sa 11:45", "name": "USPS COLLECTION BOX - PO LOBBY", "note": "ON 12/24 AND 12/31, THIS BOX MAY BE COLLECTED AS EARLY AS 12 NOON.", "ref": "4151700001"}, "type": "Feature"}
{"geometry": {"coordinates": [-82.597223564, 37.190689232], "type": "Point"}, "id": "vAHScejF_qtmBLQezpaLwTK5Ayg=", "properties": {"@spider": "usps_collection_boxes", "addr:city": "BURDINE", "addr:country": "US", "addr:full": "11872 HIGHWAY 805", "addr:postcode": "41517", "addr:state": "KY", "brand": "USPS", "collection_times": "Mo-Fr 15:30; Sa 11:45", "name": "USPS COLLECTION BOX - PO LOBBY", "note": "ON 12/24 AND 12/31, THIS BOX MAY BE COLLECTED AS EARLY AS 12 NOON.", "ref": "4151700003"}, "type": "Feature"}
{"geometry": {"coordinates": [-82.576484238, 37.278925678], "type": "Point"}, "id": "F-7gJ1LBtypP_Hjl167ffovJOdw=", "properties": {"@spider": "usps_collection_boxes", "addr:city": "DORTON", "addr:country": "US", "addr:full": "87 DORTON JENKINS HWY", "addr:postcode": "41520", "addr:state": "KY", "brand": "USPS", "collection_times": "Mo-Fr 15:45; Sa 11:30", "name": "USPS COLLECTION BOX - BLUE BOX", "note": "ON 12/24 AND 12/31, THIS BOX MAY BE COLLECTED AS EARLY AS 12 NOON.", "ref": "4152000000"}, "type": "Feature"}
{"geometry": {"coordinates": [-82.576484238, 37.278925678], "type": "Point"}, "id": "h1xb9qLS4iPQXhgIN0VDbFYddsQ=", "properties": {"@spider": "usps_collection_boxes", "addr:city": "DORTON", "addr:country": "US", "addr:full": "87 DORTON JENKINS HWY", "addr:postcode": "41520", "addr:state": "KY", "brand": "USPS", "collection_times": "Mo-Fr 15:45; Sa 11:30", "name": "USPS COLLECTION BOX - PO LOBBY", "note": "ON 12/24 AND 12/31, THIS BOX MAY BE COLLECTED AS EARLY AS 12 NOON.", "ref": "4152000002"}, "type": "Feature"}
{"geometry": {"coordinates": [-82.576484238, 37.278925678], "type": "Point"}, "id": "SjbSlYLouGg6mYD81B9AVZEJkZI=", "properties": {"@spider": "usps_collection_boxes", "addr:city": "DORTON", "addr:country": "US", "addr:full": "87 DORTON JENKINS HWY", "addr:postcode": "41520", "addr:state": "KY", "brand": "USPS", "collection_times": "Mo-Fr 15:45; Sa 11:30", "name": "USPS COLLECTION BOX - PO LOBBY", "note": "ON 12/24 AND 12/31, THIS BOX MAY BE COLLECTED AS EARLY AS 12 NOON.", "ref": "4152000004"}, "type": "Feature"}
{"geometry": {"coordinates": [-82.511310635, 37.433245943], "type": "Point"}, "id": "7SCGpuCgAC9BWafbvfGdk1B6EnI=", "properties": {"@spider": "usps_collection_boxes", "addr:city": "FORDS BRANCH", "addr:country": "US", "addr:full": "2730 KEWANEE RD", "addr:postcode": "41526", "addr:state": "KY", "brand": "USPS", "collection_times": "Mo-Fr 09:30; Sa 08:30", "name": "USPS COLLECTION BOX - BLUE BOX", "ref": "4152600000"}, "type": "Feature"}
{"geometry": {"coordinates": [-82.511310635, 37.433245943], "type": "Point"}, "id": "A732hJHAXwDsdaCKwJoQiKqsE4E=", "properties": {"@spider": "usps_collection_boxes", "addr:city": "FORDS BRANCH", "addr:country": "US", "addr:full": "2730 KEWANEE RD", "addr:postcode": "41526", "addr:state": "KY", "brand": "USPS", "collection_times": "Mo-Fr 09:30; Sa 08:30", "name": "USPS COLLECTION BOX - PO LOBBY", "ref": "4152600002"}, "type": "Feature"}
{"geometry": {"coordinates": [-82.470806757, 37.290526866], "type": "Point"}, "id": "B6Os52iZcxi1MRv2x-bDMAIICTA=", "properties": {"@spider": "usps_collection_boxes", "addr:city": "HELLIER", "addr:country": "US", "addr:full": "126 ALLEGHENY RD", "addr:postcode": "41534", "addr:state": "KY", "brand": "USPS", "collection_times": "Mo-Fr 15:00; Sa 11:15", "name": "USPS COLLECTION BOX - BLUE BOX", "note": "ON 12/24 AND 12/31, THIS BOX MAY BE COLLECTED AS EARLY AS 12 NOON.", "ref": "4153400000"}, "type": "Feature"}
{"geometry": {"coordinates": [-82.470806757, 37.290526866], "type": "Point"}, "id": "JgLGNHzF3C0Xr9aTyQPErK9eEKk=", "properties": {"@spider": "usps_collection_boxes", "addr:city": "HELLIER", "addr:country": "US", "addr:full": "126 ALLEGHENY RD", "addr:postcode": "41534", "addr:state": "KY", "brand": "USPS", "collection_times": "Mo-Fr 15:00; Sa 11:15", "name": "USPS COLLECTION BOX - PO LOBBY", "note": "ON 12/24 AND 12/31, THIS BOX MAY BE COLLECTED AS EARLY AS 12 NOON.", "ref": "4153400001"}, "type": "Feature"}
{"geometry": {"coordinates": [-82.470806757, 37.290526866], "type": "Point"}, "id": "fYSHQY0OZincpazeIux68HGY5q8=", "properties": {"@spider": "usps_collection_boxes", "addr:city": "HELLIER", "addr:country": "US", "addr:full": "126 ALLEGHENY RD", "addr:postcode": "41534", "addr:state": "KY", "brand": "USPS", "collection_times": "Mo-Fr 15:00; Sa 12:00", "name": "USPS COLLECTION BOX - PO LOBBY", "note": "ON 12/24 AND 12/31, THIS BOX MAY BE COLLECTED AS EARLY AS 12 NOON.", "ref": "4153400003"}, "type": "Feature"}
{"geometry": {"coordinates": [-82.633874288, 37.171743517], "type": "Point"}, "id": "zsDxoPCxCa8H45MTLOcipd1txG8=", "properties": {"@spider": "usps_collection_boxes", "addr:city": "JENKINS", "addr:country": "US", "addr:full": "9382 HIGHWAY 805 STE A", "addr:postcode": "41537", "addr:state": "KY", "brand": "USPS", "collection_times": "Mo-Fr 15:45; Sa 12:15", "name": "USPS COLLECTION BOX - BLUE BOX", "note": "ON 12/24 AND 12/31, THIS BOX MAY BE COLLECTED AS EARLY AS 12 NOON.", "ref": "4153700000"}, "type": "Feature"}
{"geometry": {"coordinates": [-82.633874288, 37.171743517], "type": "Point"}, "id": "bTOYHtA8clyLHsftvLmSOKf3jkM=", "properties": {"@spider": "usps_collection_boxes", "addr:city": "JENKINS", "addr:country": "US", "addr:full": "9382 HIGHWAY 805 STE A", "addr:postcode": "41537", "addr:state": "KY", "brand": "USPS", "collection_times": "Mo-Fr 15:45; Sa 12:15", "name": "USPS COLLECTION BOX - PO LOBBY", "note": "ON 12/24 AND 12/31, THIS BOX MAY BE COLLECTED AS EARLY AS 12 NOON.", "ref": "4153700002"}, "type": "Feature"}
{"geometry": {"coordinates": [-82.633874288, 37.171743517], "type": "Point"}, "id": "Zzd7GY3yFF0bjtfwfcQ5Id2upY8=", "properties": {"@spider": "usps_collection_boxes", "addr:city": "JENKINS", "addr:country": "US", "addr:full": "9382 HIGHWAY 805 STE A", "addr:postcode": "41537", "addr:state": "KY", "brand": "USPS", "collection_times": "Mo-Fr 16:00; Sa 12:00", "name": "USPS COLLECTION BOX - PO LOBBY", "note": "ON 12/24 AND 12/31, THIS BOX MAY BE COLLECTED AS EARLY AS 12 NOON.", "ref": "4153700004"}, "type": "Feature"}
{"geometry": {"coordinates": [-82.584655089, 37.315437308], "type": "Point"}, "id": "nSx4-r-Sj_06po478cuXkkQjM34=", "properties": {"@spider": "usps_collection_boxes", "addr:city": "JONANCY", "addr:country": "US", "addr:full": "3440 KY HIGHWAY 610 W", "addr:postcode": "41538", "addr:state": "KY", "brand": "USPS", "collection_times": "Mo-Fr 12:30; Sa 10:45", "name": "USPS COLLECTION BOX - BLUE BOX", "note": "ON 12/24 AND 12/31, THIS BOX MAY BE COLLECTED AS EARLY AS 12 NOON.", "ref": "4153800000"}, "type": "Feature"}
{"geometry": {"coordinates": [-82.584655089, 37.315437308], "type": "Point"}, "id": "dE1F_I73bpVUIWgTUJnuNpZiUZY=", "properties": {"@spider": "usps_collection_boxes", "addr:city": "JONANCY", "addr:country": "US", "addr:full": "3440 KY HIGHWAY 610 W", "addr:postcode": "41538", "addr:state": "KY", "brand": "USPS", "collection_times": "Mo-Fr 12:30; Sa 10:45", "name": "USPS COLLECTION BOX - PO LOBBY", "note": "ON 12/24 AND 12/31, THIS BOX MAY BE COLLECTED AS EARLY AS 12 NOON.", "ref": "4153800001"}, "type": "Feature"}
{"geometry": {"coordinates": [-82.584655089, 37.315437308], "type": "Point"}, "id": "yRYY9pCQtFlf5ZBG9MJsDBIGLxk=", "properties": {"@spider": "usps_collection_boxes", "addr:city": "JONANCY", "addr:country": "US", "addr:full": "3440 KY HIGHWAY 610 W", "addr:postcode": "41538", "addr:state": "KY", "brand": "USPS", "collection_times": "Mo-Fr 12:30; Sa 10:45", "name": "USPS COLLECTION BOX - PO LOBBY", "note": "ON 12/24 AND 12/31, THIS BOX MAY BE COLLECTED AS EARLY AS 12 NOON.", "ref": "4153800003"}, "type": "Feature"}
{"geometry": {"coordinates": [-82.447623597, 37.51223138], "type": "Point"}, "id": "wnUlh8CVQg8MgGFsNeM-FBjyoWE=", "properties": {"@spider": "usps_collection_boxes", "addr:city": "RACCOON", "addr:country": "US", "addr:full": "68 GRASSY BR", "addr:postcode": "41557", "addr:state": "KY", "brand": "USPS", "collection_times": "Mo-Fr 14:00; Sa 11:30", "name": "USPS COLLECTION BOX - BLUE BOX", "note": "ON 12/24 AND 12/31, THIS BOX MAY BE COLLECTED AS EARLY AS 12 NOON.", "ref": "4155700000"}, "type": "Feature"}
{"geometry": {"coordinates": [-82.447623597, 37.51223138], "type": "Point"}, "id": "2xgDPOctM8jgJQle4hroIFpqXoU=", "properties": {"@spider": "usps_collection_boxes", "addr:city": "RACCOON", "addr:country": "US", "addr:full": "68 GRASSY BR", "addr:postcode": "41557", "addr:state": "KY", "brand": "USPS", "collection_times": "Mo-Fr 14:00; Sa 11:30", "name": "USPS COLLECTION BOX - PO LOBBY", "note": "ON 12/24 AND 12/31, THIS BOX MAY BE COLLECTED AS EARLY AS 12 NOON.", "ref": "4155700001"}, "type": "Feature"}
{"geometry": {"coordinates": [-82.447623597, 37.51223138], "type": "Point"}, "id": "zxOV4NQmo_ub1SwCX9NLWvxOz4g=", "properties": {"@spider": "usps_collection_boxes", "addr:city": "RACCOON", "addr:country": "US", "addr:full": "68 GRASSY BR", "addr:postcode": "41557", "addr:state": "KY", "brand": "USPS", "collection_times": "Mo-Fr 14:00; Sa 11:30", "name": "USPS COLLECTION BOX - PO LOBBY", "note": "ON 12/24 AND 12/31, THIS BOX MAY BE COLLECTED AS EARLY AS 12 NOON.", "ref": "4155700003"}, "type": "Feature"}
{"geometry": {"coordinates": [-82.413984057, 37.368362823], "type": "Point"}, "id": "w-Wc_RgkfxZ9FnvFtrWmthPPSuY=", "properties": {"@spider": "usps_collection_boxes", "addr:city": "REGINA", "addr:country": "US", "addr:full": "10051 REGINA BELCHER HWY", "addr:postcode": "41559", "addr:state": "KY", "brand": "USPS", "collection_times": "Mo-Fr 15:30; Sa 12:00", "name": "USPS COLLECTION BOX - PO LOBBY", "note": "ON 12/24 AND 12/31, THIS BOX MAY BE COLLECTED AS EARLY AS 12 NOON.", "ref": "4155900000"}, "type": "Feature"}
{"geometry": {"coordinates": [-82.413984057, 37.368362823], "type": "Point"}, "id": "UQk9TbCY2cX5qtHzDZy_kbipr4s=", "properties": {"@spider": "usps_collection_boxes", "addr:city": "REGINA", "addr:country": "US", "addr:full": "10051 REGINA BELCHER HWY", "addr:postcode": "41559", "addr:state": "KY", "brand": "USPS", "collection_times": "Mo-Fr 15:30; Sa 12:00", "name": "USPS COLLECTION BOX - BLUE BOX", "note": "ON 12/24 AND 12/31, THIS BOX MAY BE COLLECTED AS EARLY AS 12 NOON.", "ref": "4155900001"}, "type": "Feature"}
{"geometry": {"coordinates": [-82.413984057, 37.368362823], "type": "Point"}, "id": "rRw1R-nbVcpRES6eRdZWpKf26eQ=", "properties": {"@spider": "usps_collection_boxes", "addr:city": "REGINA", "addr:country": "US", "addr:full": "10051 REGINA BELCHER HWY", "addr:postcode": "41559", "addr:state": "KY", "brand": "USPS", "collection_times": "Mo-Fr 15:30; Sa 12:00", "name": "USPS COLLECTION BOX - PO LOBBY", "note": "ON 12/24 AND 12/31, THIS BOX MAY BE COLLECTED AS EARLY AS 12 NOON.", "ref": "4155900003"}, "type": "Feature"}
{"geometry": {"coordinates": [-82.558400369, 37.390353633], "type": "Point"}, "id": "srV8-HJzOgcYQiRCVbhEVt8lhck=", "properties": {"@spider": "usps_collection_boxes", "addr:city": "ROBINSON CREEK", "addr:country": "US", "addr:full": "6500 ROBINSON CREEK RD", "addr:postcode": "41560", "addr:state": "KY", "brand": "USPS", "collection_times": "Mo-Fr 15:30; Sa 11:30", "name": "USPS COLLECTION BOX - BLUE BOX", "note": "ON 12/24 AND 12/31, THIS BOX MAY BE COLLECTED AS EARLY AS 12 NOON.", "ref": "4156000000"}, "type": "Feature"}
{"geometry": {"coordinates": [-82.558400369, 37.390353633], "type": "Point"}, "id": "FGCwe0R0MTg2cgEig4rI9DYKCxg=", "properties": {"@spider": "usps_collection_boxes", "addr:city": "ROBINSON CREEK", "addr:country": "US", "addr:full": "6500 ROBINSON CREEK RD", "addr:postcode": "41560", "addr:state": "KY", "brand": "USPS", "collection_times": "Mo-Fr 15:30; Sa 11:30", "name": "USPS COLLECTION BOX - PO LOBBY", "note": "ON 12/24 AND 12/31, THIS BOX MAY BE COLLECTED AS EARLY AS 12 NOON.", "ref": "4156000001"}, "type": "Feature"}
{"geometry": {"coordinates": [-82.558400369, 37.390353633], "type": "Point"}, "id": "n2rG7UeJb8yKP9GjIexltDSNuu0=", "properties": {"@spider": "usps_collection_boxes", "addr:city": "ROBINSON CREEK", "addr:country": "US", "addr:full": "6500 ROBINSON CREEK RD", "addr:postcode": "41560", "addr:state": "KY", "brand": "USPS", "collection_times": "Mo-Fr 15:30; Sa 11:30", "name": "USPS COLLECTION BOX - PO LOBBY", "note": "ON 12/24 AND 12/31, THIS BOX MAY BE COLLECTED AS EARLY AS 12 NOON.", "ref": "4156000003"}, "type": "Feature"}
{"geometry": {"coordinates": [-82.451010714, 37.328341431], "type": "Point"}, "id": "MMx5O0jTAe-dvZJ4ImLvxlYd70o=", "properties": {"@spider": "usps_collection_boxes", "addr:city": "ROCKHOUSE", "addr:country": "US", "addr:full": "4535 MARROWBONE CREEK RD", "addr:postcode": "41561", "addr:state": "KY", "brand": "USPS", "collection_times": "Mo-Fr 15:00; Sa 11:30", "name": "USPS COLLECTION BOX - BLUE BOX", "note": "ON 12/24 AND 12/31, THIS BOX MAY BE COLLECTED AS EARLY AS 12 NOON.", "ref": "4156100000"}, "type": "Feature"}
{"geometry": {"coordinates": [-82.451010714, 37.328341431], "type": "Point"}, "id": "w8fpG0V13w7vFPa8HkqPqm5JRSI=", "properties": {"@spider": "usps_collection_boxes", "addr:city": "ROCKHOUSE", "addr:country": "US", "addr:full": "4535 MARROWBONE CREEK RD", "addr:postcode": "41561", "addr:state": "KY", "brand": "USPS", "collection_times": "Mo-Fr 15:00; Sa 11:30", "name": "USPS COLLECTION BOX - PO LOBBY", "note": "ON 12/24 AND 12/31, THIS BOX MAY BE COLLECTED AS EARLY AS 12 NOON.", "ref": "4156100001"}, "type": "Feature"}
{"geometry": {"coordinates": [-82.451010714, 37.328341431], "type": "Point"}, "id": "70AVqtKtK1naCNzKrE3WRcbdSAQ=", "properties": {"@spider": "usps_collection_boxes", "addr:city": "ROCKHOUSE", "addr:country": "US", "addr:full": "4535 MARROWBONE CREEK RD", "addr:postcode": "41561", "addr:state": "KY", "brand": "USPS", "collection_times": "Mo-Fr 15:00; Sa 11:30", "name": "USPS COLLECTION BOX - PO LOBBY", "note": "ON 12/24 AND 12/31, THIS BOX MAY BE COLLECTED AS EARLY AS 12 NOON.", "ref": "4156100003"}, "type": "Feature"}
{"geometry": {"coordinates": [-82.517388244, 37.426555969], "type": "Point"}, "id": "mRRVWT3qjcq8Np7AzBcUgU0GIDs=", "properties": {"@spider": "usps_collection_boxes", "addr:city": "SHELBIANA", "addr:country": "US", "addr:full": "147 LONGVIEW DR", "addr:postcode": "41562", "addr:state": "KY", "brand": "USPS", "collection_times": "Mo-Fr 16:00; Sa 12:00", "name": "USPS COLLECTION BOX - BLUE BOX", "note": "ON 12/24 AND 12/31, THIS BOX MAY BE COLLECTED AS EARLY AS 12 NOON.", "ref": "4156200000"}, "type": "Feature"}
{"geometry": {"coordinates": [-82.517388244, 37.426555969], "type": "Point"}, "id": "HGP7Z55uGP7dZqJiJmbQv3WP3r8=", "properties": {"@spider": "usps_collection_boxes", "addr:city": "SHELBIANA", "addr:country": "US", "addr:full": "147 LONGVIEW DR", "addr:postcode": "41562", "addr:state": "KY", "brand": "USPS", "collection_times": "Mo-Fr 16:00; Sa 12:00", "name": "USPS COLLECTION BOX - PO LOBBY", "note": "ON 12/24 AND 12/31, THIS BOX MAY BE COLLECTED AS EARLY AS 12 NOON.", "ref": "4156200001"}, "type": "Feature"}
{"geometry": {"coordinates": [-82.517388244, 37.426555969], "type": "Point"}, "id": "4o1nsCwJfJOubuVC0AI4DCMCgsg=", "properties": {"@spider": "usps_collection_boxes", "addr:city": "SHELBIANA", "addr:country": "US", "addr:full": "147 LONGVIEW DR", "addr:postcode": "41562", "addr:state": "KY", "brand": "USPS", "collection_times": "Mo-Fr 16:00; Sa 12:00", "name": "USPS COLLECTION BOX - PO LOBBY", "note": "ON 12/24 AND 12/31, THIS BOX MAY BE COLLECTED AS EARLY AS 12 NOON.", "ref": "4156200003"}, "type": "Feature"}
{"geometry": {"coordinates": [-82.585688135, 37.33758484], "type": "Point"}, "id": "al3kY5g1bNm1nRL0xFPMnmwtVVE=", "properties": {"@spider": "usps_collection_boxes", "addr:city": "VIRGIE", "addr:country": "US", "addr:full": "1070 KY HIGHWAY 610 W", "addr:postcode": "41572", "addr:state": "KY", "brand": "USPS", "collection_times": "Mo-Fr 15:45; Sa 12:15", "name": "USPS COLLECTION BOX - BLUE BOX", "note": "ON 12/24 AND 12/31, THIS BOX MAY BE COLLECTED AS EARLY AS 12 NOON.", "ref": "4157200000"}, "type": "Feature"}
{"geometry": {"coordinates": [-82.585688135, 37.33758484], "type": "Point"}, "id": "JPsgSSiYg4a51cGuiZxK7KuC5_8=", "properties": {"@spider": "usps_collection_boxes", "addr:city": "VIRGIE", "addr:country": "US", "addr:full": "1070 KY HIGHWAY 610 W", "addr:postcode": "41572", "addr:state": "KY", "brand": "USPS", "collection_times": "Mo-Fr 15:45; Sa 12:15", "name": "USPS COLLECTION BOX - PO LOBBY", "note": "ON 12/24 AND 12/31, THIS BOX MAY BE COLLECTED AS EARLY AS 12 NOON.", "ref": "4157200001"}, "type": "Feature"}
{"geometry": {"coordinates": [-82.585688135, 37.33758484], "type": "Point"}, "id": "cBp5TI4WZZ0Ej_W-T_UhV0PQCq4=", "properties": {"@spider": "usps_collection_boxes", "addr:city": "VIRGIE", "addr:country": "US", "addr:full": "1070 KY HIGHWAY 610 W", "addr:postcode": "41572", "addr:state": "KY", "brand": "USPS", "collection_times": "Mo-Fr 16:00; Sa 12:30", "name": "USPS COLLECTION BOX - PO LOBBY", "note": "ON 12/24 AND 12/31, THIS BOX MAY BE COLLECTED AS EARLY AS 12 NOON.", "ref": "4157200003"}, "type": "Feature"}
