{"geometry": {"coordinates": [-82.720949452, 37.614267624], "type": "Point"}, "id": "1kWZbS8El1pjs7rxx1meH0N2N9M=", "properties": {"@spider": "usps_collection_boxes", "addr:city": "ALLEN", "addr:country": "US", "addr:full": "137 COURT ST", "addr:postcode": "41601", "addr:state": "KY", "brand": "USPS", "collection_times": "Mo-Fr 15:00; Sa 12:30", "name": "USPS COLLECTION BOX - BLUE BOX", "note": "ON 12/24 AND 12/31, THIS BOX MAY BE COLLECTED AS EARLY AS 12 NOON.", "ref": "4160100000"}, "type": "Feature"}
{"geometry": {"coordinates": [-82.720949452, 37.614267624], "type": "Point"}, "id": "9qsW4uIShFMx17k9IpIx9QMa7wg=", "properties": {"@spider": "usps_collection_boxes", "addr:city": "ALLEN", "addr:country": "US", "addr:full": "137 COURT ST", "addr:postcode": "41601", "addr:state": "KY", "brand": "USPS", "collection_times": "Mo-Fr 15:00; Sa 12:30", "name": "USPS COLLECTION BOX - PO LOBBY", "note": "ON 12/24 AND 12/31, THIS BOX MAY BE COLLECTED AS EARLY AS 12 NOON.", "ref": "4160100001"}, "type": "Feature"}
{"geometry": {"coordinates": [-82.720949452, 37.614267624], "type": "Point"}, "id": "A16k1rWAAqsmvUnOTViDDzrogec=", "properties": {"@spider": "usps_collection_boxes", "addr:city": "ALLEN", "addr:country": "US", "addr:full": "137 COURT ST", "addr:postcode": "41601", "addr:state": "KY", "brand": "USPS", "collection_times": "Mo-Fr 15:00; Sa 12:30", "name": "USPS COLLECTION BOX - PO LOBBY", "note": "ON 12/24 AND 12/31, THIS BOX MAY BE COLLECTED AS EARLY AS 12 NOON.", "ref": "4160100003"}, "type": "Feature"}
{"geometry": {"coordinates": [-82.700835654, 37.604116994], "type": "Point"}, "id": "S_x9GTc2RvEOmaJpJXczs6CJHHI=", "properties": {"@spider": "usps_collection_boxes", "addr:city": "BANNER", "addr:country": "US", "addr:full": "54 HALL ADDITION", "addr:postcode": "41603", "addr:state": "KY", "brand": "USPS", "collection_times": "Mo-Fr 15:00; Sa 13:00", "name": "USPS COLLECTION BOX - BLUE BOX", "note": "ON 12/24 AND 12/31, THIS BOX MAY BE COLLECTED AS EARLY AS 12 NOON.", "ref": "4160300000"}, "type": "Feature"}
{"geometry": {"coordinates": [-82.700835654, 37.604116994], "type": "Point"}, "id": "dSKHxqyR5f6SpU-So2tMmzLO9q0=", "properties": {"@spider": "usps_collection_boxes", "addr:city": "BANNER", "addr:country": "US", "addr:full": "54 HALL ADDITION", "addr:postcode": "41603", "addr:state": "KY", "brand": "USPS", "collection_times": "Mo-Fr 15:00; Sa 13:00", "name": "USPS COLLECTION BOX - PO LOBBY", "note": "ON 12/24 AND 12/31, THIS BOX MAY BE COLLECTED AS EARLY AS 12 NOON.", "ref": "4160300001"}, "type": "Feature"}
{"geometry": {"coordinates": [-82.700835654, 37.604116994], "type": "Point"}, "id": "mTl9juByQBaFcGzSSnFhJILLF8A=", "properties": {"@spider": "usps_collection_boxes", "addr:city": "BANNER", "addr:country": "US", "addr:full": "54 HALL ADDITION", "addr:postcode": "41603", "addr:state": "KY", "brand": "USPS", "collection_times": "Mo-Fr 15:00; Sa 13:00", "name": "USPS COLLECTION BOX - PO LOBBY", "note": "ON 12/24 AND 12/31, THIS BOX MAY BE COLLECTED AS EARLY AS 12 NOON.", "ref": "4160300003"}, "type": "Feature"}
{"geometry": {"coordinates": [-82.632812744, 37.545668893], "type": "Point"}, "id": "oYuJFAPB72SEhywRM4ZYM1o4nDI=", "properties": {"@spider": "usps_collection_boxes", "addr:city": "BETSY LAYNE", "addr:country": "US", "addr:full": "11105 US HIGHWAY 23 S STE 101", "addr:postcode": "41605", "addr:state": "KY", "brand": "USPS", "collection_times": "Mo-Fr 15:15; Sa 11:30", "name": "USPS COLLECTION BOX - BLUE BOX", "note": "ON 12/24 AND 12/31, THIS BOX MAY BE COLLECTED AS EARLY AS 12 NOON.", "ref": "4160500000"}, "type": "Feature"}
{"geometry": {"coordinates": [-82.632812744, 37.545668893], "type": "Point"}, "id": "wd7F2VG10Acj3pCQbsc8qKpiL7w=", "properties": {"@spider": "usps_collection_boxes", "addr:city": "BETSY LAYNE", "addr:country": "US", "addr:full": "11105 US HIGHWAY 23 S STE 101", "addr:postcode": "41605", "addr:state": "KY", "brand": "USPS", "collection_times": "Mo-Fr 15:15; Sa 11:30", "name": "USPS COLLECTION BOX - PO LOBBY", "note": "ON 12/24 AND 12/31, THIS BOX MAY BE COLLECTED AS EARLY AS 12 NOON.", "ref": "4160500001"}, "type": "Feature"}
{"geometry": {"coordinates": [-82.632812744, 37.545668893], "type": "Point"}, "id": "-S3rRZsDAP8_4rPZLbp0Aa94mgY=", "properties": {"@spider": "usps_collection_boxes", "addr:city": "BETSY LAYNE", "addr:country": "US", "addr:full": "11105 US HIGHWAY 23 S STE 101", "addr:postcode": "41605", "addr:state": "KY", "brand": "USPS", "collection_times": "Mo-Fr 15:30; Sa 12:00", "name": "USPS COLLECTION BOX - PO LOBBY", "note": "ON 12/24 AND 12/31, THIS BOX MAY BE COLLECTED AS EARLY AS 12 NOON.", "ref": "4160500003"}, "type": "Feature"}
{"geometry": {"coordinates": [-82.717047, 37.355189], "type": "Point"}, "id": "b6EEtoWIt-Ev-hFi23S-8ZRCBtE=", "properties": {"@spider": "usps_collection_boxes", "addr:city": "BYPRO", "addr:country": "US", "addr:full": "21452 KY ROUTE 122", "addr:postcode": "41612", "addr:state": "KY", "brand": "USPS", "collection_times": "Mo-Sa 09:30", "name": "USPS COLLECTION BOX - BLUE BOX", "ref": "4161200002"}, "type": "Feature"}
{"geometry": {"coordinates": [-82.806931974, 37.516599223], "type": "Point"}, "id": "jj6s4pbahV9-KnaB4a44hSjQuqg=", "properties": {"@spider": "usps_collection_boxes", "addr:city": "EASTERN", "addr:country": "US", "addr:full": "356 KY ROUTE 550", "addr:postcode": "41622", "addr:state": "KY", "brand": "USPS", "collection_times": "Mo-Fr 13:00; Sa 11:30", "name": "USPS COLLECTION BOX - BLUE BOX", "note": "ON 12/24 AND 12/31, THIS BOX MAY BE COLLECTED AS EARLY AS 12 NOON.", "ref": "4162200000"}, "type": "Feature"}
{"geometry": {"coordinates": [-82.806931974, 37.516599223], "type": "Point"}, "id": "vxJdAAbRnXCnstYuQ8UUfL-KFw8=", "properties": {"@spider": "usps_collection_boxes", "addr:city": "EASTERN", "addr:country": "US", "addr:full": "356 KY ROUTE 550", "addr:postcode": "41622", "addr:state": "KY", "brand": "USPS", "collection_times": "Mo-Fr 13:00; Sa 11:30", "name": "USPS COLLECTION BOX - PO LOBBY", "note": "ON 12/24 AND 12/31, THIS BOX MAY BE COLLECTED AS EARLY AS 12 NOON.", "ref": "4162200001"}, "type": "Feature"}
{"geometry": {"coordinates": [-82.806931974, 37.516599223], "type": "Point"}, "id": "DYDD_cp2YAWPHO0wFuXnyFtUcDc=", "properties": {"@spider": "usps_collection_boxes", "addr:city": "EASTERN", "addr:country": "US", "addr:full": "356 KY ROUTE 550", "addr:postcode": "41622", "addr:state": "KY", "brand": "USPS", "collection_times": "Mo-Fr 13:00; Sa 11:30", "name": "USPS COLLECTION BOX - PO LOBBY", "note": "ON 12/24 AND 12/31, THIS BOX MAY BE COLLECTED AS EARLY AS 12 NOON.", "ref": "4162200003"}, "type": "Feature"}
{"geometry": {"coordinates": [-82.83416, 37.477853], "type": "Point"}, "id": "2lH60E9Mjce0rWeSFc7e3JKAp0c=", "properties": {"@spider": "usps_collection_boxes", "addr:city": "GARRETT", "addr:country": "US", "addr:full": "451 FRONT ST", "addr:postcode": "41630", "addr:state": "KY", "brand": "USPS", "collection_times": "Mo-Fr 13:00; Sa 12:30", "name": "USPS COLLECTION BOX - BLUE BOX", "note": "ON 12/24 AND 12/31, THIS BOX MAY BE COLLECTED AS EARLY AS 12 NOON.", "ref": "4163000000"}, "type": "Feature"}
{"geometry": {"coordinates": [-82.834162, 37.477855], "type": "Point"}, "id": "_CGx4CcmxwL7kmVSC3uq4BCMV6o=", "properties": {"@spider": "usps_collection_boxes", "addr:city": "GARRETT", "addr:country": "US", "addr:full": "451 FRONT ST", "addr:postcode": "41630", "addr:state": "KY", "brand": "USPS", "collection_times": "Mo-Fr 13:00; Sa 12:30", "name": "USPS COLLECTION BOX - PO LOBBY", "note": "ON 12/24 AND 12/31, THIS BOX MAY BE COLLECTED AS EARLY AS 12 NOON.", "ref": "4163000001"}, "type": "Feature"}
{"geometry": {"coordinates": [-82.83400362, 37.478387924], "type": "Point"}, "id": "1ZzU_k30G1KsiKcujuJMPr9ZAJ8=", "properties": {"@spider": "usps_collection_boxes", "addr:city": "GARRETT", "addr:country": "US", "addr:full": "430 FRONT ST", "addr:postcode": "41630", "addr:state": "KY", "brand": "USPS", "collection_times": "Mo-Fr 13:00; Sa 12:30", "name": "USPS COLLECTION BOX - PO LOBBY", "note": "ON 12/24 AND 12/31, THIS BOX MAY BE COLLECTED AS EARLY AS 12 NOON.", "ref": "4163000003"}, "type": "Feature"}
{"geometry": {"coordinates": [-82.656990325, 37.478096812], "type": "Point"}, "id": "NyQD9PiUMSO2RhDu90bV6nb-TCw=", "properties": {"@spider": "usps_collection_boxes", "addr:city": "GRETHEL", "addr:country": "US", "addr:full": "6789 KY ROUTE 979", "addr:postcode": "41631", "addr:state": "KY", "brand": "USPS", "collection_times": "Mo-Fr 13:45; Sa 12:30", "name": "USPS COLLECTION BOX - BLUE BOX", "note": "ON 12/24 AND 12/31, THIS BOX MAY BE COLLECTED AS EARLY AS 12 NOON.", "ref": "4163100000"}, "type": "Feature"}
{"geometry": {"coordinates": [-82.656990325, 37.478096812], "type": "Point"}, "id": "JIv1WioPaYZpIYT0aDkVK2Dwbxo=", "properties": {"@spider": "usps_collection_boxes", "addr:city": "GRETHEL", "addr:country": "US", "addr:full": "6789 KY ROUTE 979", "addr:postcode": "41631", "addr:state": "KY", "brand": "USPS", "collection_times": "Mo-Fr 13:45; Sa 12:30", "name": "USPS COLLECTION BOX - PO LOBBY", "note": "ON 12/24 AND 12/31, THIS BOX MAY BE COLLECTED AS EARLY AS 12 NOON.", "ref": "4163100001"}, "type": "Feature"}
{"geometry": {"coordinates": [-82.656990325, 37.478096812], "type": "Point"}, "id": "CfucvjCZ5pizfAJ7w2XJ0YSQsF8=", "properties": {"@spider": "usps_collection_boxes", "addr:city": "GRETHEL", "addr:country": "US", "addr:full": "6789 KY ROUTE 979", "addr:postcode": "41631", "addr:state": "KY", "brand": "USPS", "collection_times": "Mo-Fr 13:45; Sa 12:30", "name": "USPS COLLECTION BOX - PO LOBBY", "note": "ON 12/24 AND 12/31, THIS BOX MAY BE COLLECTED AS EARLY AS 12 NOON.", "ref": "4163100003"}, "type": "Feature"}
{"geometry": {"coordinates": [-82.627294486, 37.529886891], "type": "Point"}, "id": "7_0ecWlOsWS9pm139Twev8T9KSQ=", "properties": {"@spider": "usps_collection_boxes", "addr:city": "HAROLD", "addr:country": "US", "addr:full": "107 LAYNESVILLE RD", "addr:postcode": "41635", "addr:state": "KY", "brand": "USPS", "collection_times": "Mo-Sa 15:45", "name": "USPS COLLECTION BOX - BLUE BOX", "note": "ON 12/24 AND 12/31, THIS BOX MAY BE COLLECTED AS EARLY AS 12 NOON.", "ref": "4163500000"}, "type": "Feature"}
{"geometry": {"coordinates": [-82.627294486, 37.529886891], "type": "Point"}, "id": "LNHlu7UrNqpvX2s2apuuL55izgI=", "properties": {"@spider": "usps_collection_boxes", "addr:city": "HAROLD", "addr:country": "US", "addr:full": "107 LAYNESVILLE RD", "addr:postcode": "41635", "addr:state": "KY", "brand": "USPS", "collection_times": "Mo-Sa 15:45", "name": "USPS COLLECTION BOX - PO LOBBY", "note": "ON 12/24 AND 12/31, THIS BOX MAY BE COLLECTED AS EARLY AS 12 NOON.", "ref": "4163500001"}, "type": "Feature"}
{"geometry": {"coordinates": [-82.627294486, 37.529886891], "type": "Point"}, "id": "15RY4ndgE4haWrs5UmqLlGJlYkw=", "properties": {"@spider": "usps_collection_boxes", "addr:city": "HAROLD", "addr:country": "US", "addr:full": "107 LAYNESVILLE RD", "addr:postcode": "41635", "addr:state": "KY", "brand": "USPS", "collection_times": "Mo-Sa 15:45", "name": "USPS COLLECTION BOX - PO LOBBY", "note": "ON 12/24 AND 12/31, THIS BOX MAY BE COLLECTED AS EARLY AS 12 NOON.", "ref": "4163500003"}, "type": "Feature"}
{"geometry": {"coordinates": [-82.839795377, 37.498235935], "type": "Point"}, "id": "0gvRppNOBD5v9F3meiuhJ9_Ck2k=", "properties": {"@spider": "usps_collection_boxes", "addr:city": "HUEYSVILLE", "addr:country": "US", "addr:full": "85 SALT LICK CRK", "addr:postcode": "41640", "addr:state": "KY", "brand": "USPS", "collection_times": "Mo-Fr 13:00; Sa 11:00", "name": "USPS COLLECTION BOX - BLUE BOX", "note": "ON 12/24 AND 12/31, THIS BOX MAY BE COLLECTED AS EARLY AS 12 NOON.", "ref": "4164000000"}, "type": "Feature"}
{"geometry": {"coordinates": [-82.839795377, 37.498235935], "type": "Point"}, "id": "VxGn8K7TDL3uhAoWADlYcLm_uDA=", "properties": {"@spider": "usps_collection_boxes", "addr:city": "HUEYSVILLE", "addr:country": "US", "addr:full": "85 SALT LICK CRK", "addr:postcode": "41640", "addr:state": "KY", "brand": "USPS", "collection_times": "Mo-Fr 13:00; Sa 11:00", "name": "USPS COLLECTION BOX - PO LOBBY", "note": "ON 12/24 AND 12/31, THIS BOX MAY BE COLLECTED AS EARLY AS 12 NOON.", "ref": "4164000001"}, "type": "Feature"}
{"geometry": {"coordinates": [-82.839795377, 37.498235935], "type": "Point"}, "id": "6lMS0MH__UZTe-nffWCNulZDzvk=", "properties": {"@spider": "usps_collection_boxes", "addr:city": "HUEYSVILLE", "addr:country": "US", "addr:full": "85 SALT LICK CRK", "addr:postcode": "41640", "addr:state": "KY", "brand": "USPS", "collection_times": "Mo-Fr 13:00; Sa 11:00", "name": "USPS COLLECTION BOX - PO LOBBY", "note": "ON 12/24 AND 12/31, THIS BOX MAY BE COLLECTED AS EARLY AS 12 NOON.", "ref": "4164000003"}, "type": "Feature"}
{"geometry": {"coordinates": [-82.660392837, 37.589157013], "type": "Point"}, "id": "WF5ZKhbyxTxwMBRTdDuLCviCL_w=", "properties": {"@spider": "usps_collection_boxes", "addr:city": "IVEL", "addr:country": "US", "addr:full": "6367 US HIGHWAY 23 S STE 101", "addr:postcode": "41642", "addr:state": "KY", "brand": "USPS", "collection_times": "Mo-Fr 15:30; Sa 11:30", "name": "USPS COLLECTION BOX - BLUE BOX", "note": "ON 12/24 AND 12/31, THIS BOX MAY BE COLLECTED AS EARLY AS 12 NOON.", "ref": "4164200000"}, "type": "Feature"}
{"geometry": {"coordinates": [-82.660392837, 37.589157013], "type": "Point"}, "id": "26v8UJf2vyP9EpnjH1NxNUh-QZk=", "properties": {"@spider": "usps_collection_boxes", "addr:city": "IVEL", "addr:country": "US", "addr:full": "6367 US HIGHWAY 23 S STE 101", "addr:postcode": "41642", "addr:state": "KY", "brand": "USPS", "collection_times": "Mo-Fr 15:30; Sa 11:30", "name": "USPS COLLECTION BOX - PO LOBBY", "note": "ON 12/24 AND 12/31, THIS BOX MAY BE COLLECTED AS EARLY AS 12 NOON.", "ref": "4164200001"}, "type": "Feature"}
{"geometry": {"coordinates": [-82.660392837, 37.589157013], "type": "Point"}, "id": "KGiZGms0XghA1B0mxVtX7y1m838=", "properties": {"@spider": "usps_collection_boxes", "addr:city": "IVEL", "addr:country": "US", "addr:full": "6367 US HIGHWAY 23 S STE 101", "addr:postcode": "41642", "addr:state": "KY", "brand": "USPS", "collection_times": "Mo-Fr 15:30; Sa 13:00", "name": "USPS COLLECTION BOX - PO LOBBY", "note": "ON 12/24 AND 12/31, THIS BOX MAY BE COLLECTED AS EARLY AS 12 NOON.", "ref": "4164200003"}, "type": "Feature"}
{"geometry": {"coordinates": [-82.826818691, 37.467431053], "type": "Point"}, "id": "hPsvh5bzL8bu-iEHmGmlS60p1Uo=", "properties": {"@spider": "usps_collection_boxes", "addr:city": "LACKEY", "addr:country": "US", "addr:full": "235 KY ROUTE 7", "addr:postcode": "41643", "addr:state": "KY", "brand": "USPS", "collection_times": "Mo-Fr 14:00; Sa 10:45", "name": "USPS COLLECTION BOX - BLUE BOX", "note": "ON 12/24 AND 12/31, THIS BOX MAY BE COLLECTED AS EARLY AS 12 NOON.", "ref": "4164300000"}, "type": "Feature"}
{"geometry": {"coordinates": [-82.826818691, 37.467431053], "type": "Point"}, "id": "6gZklijn-wYiOvxdK0l_pbHWs5k=", "properties": {"@spider": "usps_collection_boxes", "addr:city": "LACKEY", "addr:country": "US", "addr:full": "235 KY ROUTE 7", "addr:postcode": "41643", "addr:state": "KY", "brand": "USPS", "collection_times": "Mo-Fr 14:00; Sa 10:45", "name": "USPS COLLECTION BOX - PO LOBBY", "note": "ON 12/24 AND 12/31, THIS BOX MAY BE COLLECTED AS EARLY AS 12 NOON.", "ref": "4164300001"}, "type": "Feature"}
{"geometry": {"coordinates": [-82.826818691, 37.467431053], "type": "Point"}, "id": "dQKFnSg5YJHtWk1XTNT6HvKr9gc=", "properties": {"@spider": "usps_collection_boxes", "addr:city": "LACKEY", "addr:country": "US", "addr:full": "235 KY ROUTE 7", "addr:postcode": "41643", "addr:state": "KY", "brand": "USPS", "collection_times": "Mo-Fr 14:00; Sa 10:45", "name": "USPS COLLECTION BOX - PO LOBBY", "note": "ON 12/24 AND 12/31, THIS BOX MAY BE COLLECTED AS EARLY AS 12 NOON.", "ref": "4164300003"}, "type": "Feature"}
{"geometry": {"coordinates": [-82.752159162, 37.573935203], "type": "Point"}, "id": "U6pXt9u6NygbjiTZGoQSSW7TTuw=", "properties": {"@spider": "usps_collection_boxes", "addr:city": "MARTIN", "addr:country": "US", "addr:full": "11561 MAIN ST", "addr:postcode": "41649", "addr:state": "KY", "brand": "USPS", "collection_times": "Mo-Fr 15:15; Sa 12:15", "name": "USPS COLLECTION BOX - PO LOBBY", "note": "ON 12/24 AND 12/31, THIS BOX MAY BE COLLECTED AS EARLY AS 12 NOON.", "ref": "4164900002"}, "type": "Feature"}
{"geometry": {"coordinates": [-82.752159162, 37.573935203], "type": "Point"}, "id": "8EfvVHYXHxvLaN0ccOEiUkvN4PM=", "properties": {"@spider": "usps_collection_boxes", "addr:city": "MARTIN", "addr:country": "US", "addr:full": "11561 MAIN ST", "addr:postcode": "41649", "addr:state": "KY", "brand": "USPS", "collection_times": "Mo-Fr 15:15; Sa 12:15", "name": "USPS COLLECTION BOX - BLUE BOX", "note": "ON 12/24 AND 12/31, THIS BOX MAY BE COLLECTED AS EARLY AS 12 NOON.", "ref": "4164900003"}, "type": "Feature"}
{"geometry": {"coordinates": [-82.752159162, 37.573935203], "type": "Point"}, "id": "pUHMSrlIRiRnq16M9QIgv2xfW_c=", "properties": {"@spider": "usps_collection_boxes", "addr:city": "MARTIN", "addr:country": "US", "addr:full": "11561 MAIN ST", "addr:postcode": "41649", "addr:state": "KY", "brand": "USPS", "collection_times": "Mo-Fr 15:15; Sa 11:30", "name": "USPS COLLECTION BOX - PO LOBBY", "note": "ON 12/24 AND 12/31, THIS BOX MAY BE COLLECTED AS EARLY AS 12 NOON.", "ref": "4164900005"}, "type": "Feature"}
{"geometry": {"coordinates": [-82.78113938, 37.656349252], "type": "Point"}, "id": "8UVBD8RN9_AnZ5ezpgwx6FNrpt4=", "properties": {"@spider": "usps_collection_boxes", "addr:city": "PRESTONSBURG", "addr:country": "US", "addr:full": "363 VILLAGE DR", "addr:postcode": "41653", "addr:state": "KY", "brand": "USPS", "collection_times": "Mo-Sa 08:00", "name": "USPS COLLECTION BOX - BLUE BOX", "ref": "4165300000"}, "type": "Feature"}
{"geometry": {"coordinates": [-82.775948466, 37.67120279], "type": "Point"}, "id": "4Eaa6TATOe8XFKGNK699cChoXfo=", "properties": {"@spider": "usps_collection_boxes", "addr:city": "PRESTONSBURG", "addr:country": "US", "addr:full": "67 KY ROUTE 114", "addr:postcode": "41653", "addr:state": "KY", "brand": "USPS", "collection_times": "Mo-Sa 08:00", "name": "USPS COLLECTION BOX - BLUE BOX", "ref": "4165300001"}, "type": "Feature"}
{"geometry": {"coordinates": [-82.7796959, 37.684166196], "type": "Point"}, "id": "ofhSQ0B-K2kf1SqNPP5QeqNIOCs=", "properties": {"@spider": "usps_collection_boxes", "addr:city": "PRESTONSBURG", "addr:country": "US", "addr:full": "186 COLLINS CIR", "addr:postcode": "41653", "addr:state": "KY", "brand": "USPS", "collection_times": "Mo-Fr 11:30; Sa 10:30", "name": "USPS COLLECTION BOX - BLUE BOX", "ref": "4165300002"}, "type": "Feature"}
{"geometry": {"coordinates": [-82.776724495, 37.673084625], "type": "Point"}, "id": "g2D9ssWc38JLiME_q9-S3RCS2bg=", "properties": {"@spider": "usps_collection_boxes", "addr:city": "PRESTONSBURG", "addr:country": "US", "addr:full": "514 N LAKE DR", "addr:postcode": "41653", "addr:state": "KY", "brand": "USPS", "collection_times": "Mo-Fr 13:30; Sa 09:30", "name": "USPS COLLECTION BOX - BLUE BOX", "note": "ON 12/24 AND 12/31, THIS BOX MAY BE COLLECTED AS EARLY AS 12 NOON.", "ref": "4165300003"}, "type": "Feature"}
{"geometry": {"coordinates": [-82.778279253, 37.675573489], "type": "Point"}, "id": "hsWefa6-OcJ5ogTta1j5tYMZON8=", "properties": {"@spider": "usps_collection_boxes", "addr:city": "PRESTONSBURG", "addr:country": "US", "addr:full": "686 N LAKE DR", "addr:postcode": "41653", "addr:state": "KY", "brand": "USPS", "collection_times": "Mo-Fr 14:00; Sa 12:00", "name": "USPS COLLECTION BOX - BLUE BOX", "note": "ON 12/24 AND 12/31, THIS BOX MAY BE COLLECTED AS EARLY AS 12 NOON.", "ref": "4165300004"}, "type": "Feature"}
{"geometry": {"coordinates": [-82.774285914, 37.669408157], "type": "Point"}, "id": "0eki9JeeZAuTxslPo86auHb0oEY=", "properties": {"@spider": "usps_collection_boxes", "addr:city": "PRESTONSBURG", "addr:country": "US", "addr:full": "200 N LAKE DR", "addr:postcode": "41653", "addr:state": "KY", "brand": "USPS", "collection_times": "Mo-Fr 13:00; Sa 11:00", "name": "USPS COLLECTION BOX - BLUE BOX", "note": "ON 12/24 AND 12/31, THIS BOX MAY BE COLLECTED AS EARLY AS 12 NOON.", "ref": "4165300006"}, "type": "Feature"}
{"geometry": {"coordinates": [-82.72208999, 37.660770019], "type": "Point"}, "id": "ODkUjxeDpNzGTq0yvJ34HVbH0NI=", "properties": {"@spider": "usps_collection_boxes", "addr:city": "PRESTONSBURG", "addr:country": "US", "addr:full": "478 MEADOWS BR", "addr:postcode": "41653", "addr:state": "KY", "brand": "USPS", "collection_times": "Mo-Fr 11:00; Sa 10:00", "name": "USPS COLLECTION BOX - BLUE BOX", "ref": "4165300008"}, "type": "Feature"}
{"geometry": {"coordinates": [-82.713261551, 37.664405234], "type": "Point"}, "id": "XTvQkRpEUGYbTXR5MZ7wZ8dFefc=", "properties": {"@spider": "usps_collection_boxes", "addr:city": "PRESTONSBURG", "addr:country": "US", "addr:full": "387 S ROBERTS DR", "addr:postcode": "41653", "addr:state": "KY", "brand": "USPS", "collection_times": "Mo-Fr 11:30; Sa 10:15", "name": "USPS COLLECTION BOX - BLUE BOX", "ref": "4165300009"}, "type": "Feature"}
{"geometry": {"coordinates": [-82.774035118, 37.667681761], "type": "Point"}, "id": "2T7s-mlxqQRpiuqq_Dxu4IvphSw=", "properties": {"@spider": "usps_collection_boxes", "addr:city": "PRESTONSBURG", "addr:country": "US", "addr:full": "170 W COURT ST", "addr:postcode": "41653", "addr:state": "KY", "brand": "USPS", "collection_times": "Mo-Fr 14:45; Sa 12:00", "name": "USPS COLLECTION BOX - BLUE BOX", "note": "ON 12/24 AND 12/31, THIS BOX MAY BE COLLECTED AS EARLY AS 12 NOON.", "ref": "4165300013"}, "type": "Feature"}
{"geometry": {"coordinates": [-82.770853803, 37.665199757], "type": "Point"}, "id": "qyPmgxtfLcs4LxYsVRsUqyhqUpU=", "properties": {"@spider": "usps_collection_boxes", "addr:city": "PRESTONSBURG", "addr:country": "US", "addr:full": "358 S LAKE DR", "addr:postcode": "41653", "addr:state": "KY", "brand": "USPS", "collection_times": "Mo-Fr 14:45; Sa 12:00", "name": "USPS COLLECTION BOX - BLUE BOX", "note": "ON 12/24 AND 12/31, THIS BOX MAY BE COLLECTED AS EARLY AS 12 NOON.", "ref": "4165300015"}, "type": "Feature"}
{"geometry": {"coordinates": [-82.772429904, 37.665064839], "type": "Point"}, "id": "sPbAJZP4Dlwq8Nn2yKfSEUqpKOM=", "properties": {"@spider": "usps_collection_boxes", "addr:city": "PRESTONSBURG", "addr:country": "US", "addr:full": "316 S ARNOLD AVE", "addr:postcode": "41653", "addr:state": "KY", "brand": "USPS", "collection_times": "Mo-Sa 10:00", "name": "USPS COLLECTION BOX - BLUE BOX", "ref": "4165300017"}, "type": "Feature"}
{"geometry": {"coordinates": [-82.71762325, 37.669578878], "type": "Point"}, "id": "gFc-cJpnKXpKo2FRyKtvDj1T8Vk=", "properties": {"@spider": "usps_collection_boxes", "addr:city": "PRESTONSBURG", "addr:country": "US", "addr:full": "77 N ROBERTS DR", "addr:postcode": "41653", "addr:state": "KY", "brand": "USPS", "collection_times": "Mo-Fr 11:30; Sa 10:20", "name": "USPS COLLECTION BOX - BLUE BOX", "ref": "4165300018"}, "type": "Feature"}
{"geometry": {"coordinates": [-82.771962535, 37.66794776], "type": "Point"}, "id": "a2TnjZ8EOnGPvNZZYhgzhkR3tmA=", "properties": {"@spider": "usps_collection_boxes", "addr:city": "PRESTONSBURG", "addr:country": "US", "addr:full": "113 S CENTRAL AVE", "addr:postcode": "41653", "addr:state": "KY", "brand": "USPS", "collection_times": "Mo-Fr 14:45; Sa 12:00", "name": "USPS COLLECTION BOX - BLUE BOX", "note": "ON 12/24 AND 12/31, THIS BOX MAY BE COLLECTED AS EARLY AS 12 NOON.", "ref": "4165300019"}, "type": "Feature"}
{"geometry": {"coordinates": [-82.784820122, 37.659403613], "type": "Point"}, "id": "m7KtxL4k9sIfVVJ2JasRPWbrzKs=", "properties": {"@spider": "usps_collection_boxes", "addr:city": "PRESTONSBURG", "addr:country": "US", "addr:full": "119 FRANKLIN COR", "addr:postcode": "41653", "addr:state": "KY", "brand": "USPS", "collection_times": "Mo-Fr 16:00; Sa 15:00", "name": "USPS COLLECTION BOX - PO LOBBY", "note": "ON 12/24 AND 12/31, THIS BOX MAY BE COLLECTED AS EARLY AS 12 NOON.", "ref": "4165300020"}, "type": "Feature"}
{"geometry": {"coordinates": [-82.784820122, 37.659403613], "type": "Point"}, "id": "bZ-0chbVUEocOuDcfBo8qYu1YnQ=", "properties": {"@spider": "usps_collection_boxes", "addr:city": "PRESTONSBURG", "addr:country": "US", "addr:full": "119 FRANKLIN COR", "addr:postcode": "41653", "addr:state": "KY", "brand": "USPS", "collection_times": "Mo-Fr 16:00; Sa 15:00", "name": "USPS COLLECTION BOX - PO LOBBY", "note": "ON 12/24 AND 12/31, THIS BOX MAY BE COLLECTED AS EARLY AS 12 NOON.", "ref": "4165300021"}, "type": "Feature"}
{"geometry": {"coordinates": [-82.776179769, 37.69551007], "type": "Point"}, "id": "OpdV7bVHETks8Sx7Y_qgQQLFRpI=", "properties": {"@spider": "usps_collection_boxes", "addr:city": "PRESTONSBURG", "addr:country": "US", "addr:full": "112 CLIFFSIDE CIR", "addr:postcode": "41653", "addr:state": "KY", "brand": "USPS", "collection_times": "Mo-Sa 11:00", "name": "USPS COLLECTION BOX - BLUE BOX", "ref": "4165300022"}, "type": "Feature"}
{"geometry": {"coordinates": [-82.766588317, 37.73003079], "type": "Point"}, "id": "r6TnOpTQQcMyexMzr3FAEuOnaCU=", "properties": {"@spider": "usps_collection_boxes", "addr:city": "PRESTONSBURG", "addr:country": "US", "addr:full": "5000 KY ROUTE 321", "addr:postcode": "41653", "addr:state": "KY", "brand": "USPS", "collection_times": "Mo-Sa 09:00", "name": "USPS COLLECTION BOX - BLUE BOX", "ref": "4165300023"}, "type": "Feature"}
{"geometry": {"coordinates": [-82.77497275, 37.667103932], "type": "Point"}, "id": "xBsehRVaAFFxWJyft_9ewpuXZic=", "properties": {"@spider": "usps_collection_boxes", "addr:city": "PRESTONSBURG", "addr:country": "US", "addr:full": "287 W COURT ST", "addr:postcode": "41653", "addr:state": "KY", "brand": "USPS", "collection_times": "Mo-Fr 14:45; Sa 12:00", "name": "USPS COLLECTION BOX - BLUE BOX", "note": "ON 12/24 AND 12/31, THIS BOX MAY BE COLLECTED AS EARLY AS 12 NOON.", "ref": "4165300026"}, "type": "Feature"}
{"geometry": {"coordinates": [-82.773139972, 37.667420012], "type": "Point"}, "id": "fOk5bwY5g5-Y2OLHjISs8yxTW3E=", "properties": {"@spider": "usps_collection_boxes", "addr:city": "PRESTONSBURG", "addr:country": "US", "addr:full": "132 S LAKE DR", "addr:postcode": "41653", "addr:state": "KY", "brand": "USPS", "collection_times": "Mo-Fr 14:45; Sa 12:00", "name": "USPS COLLECTION BOX - BLUE BOX", "note": "ON 12/24 AND 12/31, THIS BOX MAY BE COLLECTED AS EARLY AS 12 NOON.", "ref": "4165300030"}, "type": "Feature"}
{"geometry": {"coordinates": [-82.784820122, 37.659403613], "type": "Point"}, "id": "HLuX5VfA4fywGwpVi3qt7N-0C1M=", "properties": {"@spider": "usps_collection_boxes", "addr:city": "PRESTONSBURG", "addr:country": "US", "addr:full": "119 FRANKLIN COR", "addr:postcode": "41653", "addr:state": "KY", "brand": "USPS", "collection_times": "Mo-Fr 16:00; Sa 15:00", "name": "USPS COLLECTION BOX - BLUE BOX", "note": "ON 12/24 AND 12/31, THIS BOX MAY BE COLLECTED AS EARLY AS 12 NOON.", "ref": "4165300031"}, "type": "Feature"}
{"geometry": {"coordinates": [-82.76275396, 37.728895462], "type": "Point"}, "id": "JhjyTJYHd2heu2z2ud4l0h7NYms=", "properties": {"@spider": "usps_collection_boxes", "addr:city": "PRESTONSBURG", "addr:country": "US", "addr:full": "5230 KY ROUTE 321", "addr:postcode": "41653", "addr:state": "KY", "brand": "USPS", "collection_times": "Mo-Sa 09:00", "name": "USPS COLLECTION BOX - BLUE BOX", "ref": "4165300033"}, "type": "Feature"}
{"geometry": {"coordinates": [-82.78150215, 37.655287566], "type": "Point"}, "id": "VSjJHUBsTcz1mebSc4KSpsZTSJo=", "properties": {"@spider": "usps_collection_boxes", "addr:city": "PRESTONSBURG", "addr:country": "US", "addr:full": "477 VILLAGE DR", "addr:postcode": "41653", "addr:state": "KY", "brand": "USPS", "collection_times": "Mo-Sa 08:00", "name": "USPS COLLECTION BOX - BLUE BOX", "ref": "4165300034"}, "type": "Feature"}
{"geometry": {"coordinates": [-82.769480014, 37.695589996], "type": "Point"}, "id": "NrNtBdywS2FAAn67Tyf-Nxc6kRM=", "properties": {"@spider": "usps_collection_boxes", "addr:city": "PRESTONSBURG", "addr:country": "US", "addr:full": "1897 KY ROUTE 321", "addr:postcode": "41653", "addr:state": "KY", "brand": "USPS", "collection_times": "Mo-Fr 11:00; Sa 10:00", "name": "USPS COLLECTION BOX - BLUE BOX", "ref": "4165300035"}, "type": "Feature"}
{"geometry": {"coordinates": [-82.784820122, 37.659403613], "type": "Point"}, "id": "6rRMlXjdcjke1HGETib4NqTlXV0=", "properties": {"@spider": "usps_collection_boxes", "addr:city": "PRESTONSBURG", "addr:country": "US", "addr:full": "119 FRANKLIN COR", "addr:postcode": "41653", "addr:state": "KY", "brand": "USPS", "collection_times": "Mo-Fr 16:00; Sa 12:00", "name": "USPS COLLECTION BOX - PO LOBBY", "note": "ON 12/24 AND 12/31, THIS BOX MAY BE COLLECTED AS EARLY AS 12 NOON.", "ref": "4165300037"}, "type": "Feature"}
{"geometry": {"coordinates": [-82.745942891, 37.531433273], "type": "Point"}, "id": "ZaWoG6pXWPf-8KUIkLmDEnDtBJY=", "properties": {"@spider": "usps_collection_boxes", "addr:city": "PRINTER", "addr:country": "US", "addr:full": "2928 KY ROUTE 122 STE 2", "addr:postcode": "41655", "addr:state": "KY", "brand": "USPS", "collection_times": "Mo-Fr 15:15; Sa 11:30", "name": "USPS COLLECTION BOX - BLUE BOX", "note": "ON 12/24 AND 12/31, THIS BOX MAY BE COLLECTED AS EARLY AS 12 NOON.", "ref": "4165500000"}, "type": "Feature"}
{"geometry": {"coordinates": [-82.745942891, 37.531433273], "type": "Point"}, "id": "qzmGVFR_rFmRmQQWnzZjBD5X9Us=", "properties": {"@spider": "usps_collection_boxes", "addr:city": "PRINTER", "addr:country": "US", "addr:full": "2928 KY ROUTE 122 STE 2", "addr:postcode": "41655", "addr:state": "KY", "brand": "USPS", "collection_times": "Mo-Fr 15:15; Sa 11:30", "name": "USPS COLLECTION BOX - PO LOBBY", "note": "ON 12/24 AND 12/31, THIS BOX MAY BE COLLECTED AS EARLY AS 12 NOON.", "ref": "4165500001"}, "type": "Feature"}
{"geometry": {"coordinates": [-82.745942891, 37.531433273], "type": "Point"}, "id": "Zt_b4LX5NH018KYsmuZ6E8RWs7Q=", "properties": {"@spider": "usps_collection_boxes", "addr:city": "PRINTER", "addr:country": "US", "addr:full": "2928 KY ROUTE 122 STE 2", "addr:postcode": "41655", "addr:state": "KY", "brand": "USPS", "collection_times": "Mo-Fr 15:00; Sa 11:30", "name": "USPS COLLECTION BOX - PO LOBBY", "note": "ON 12/24 AND 12/31, THIS BOX MAY BE COLLECTED AS EARLY AS 12 NOON.", "ref": "4165500003"}, "type": "Feature"}
{"geometry": {"coordinates": [-82.642714423, 37.565232784], "type": "Point"}, "id": "JFlSw74NKlATkK4oBjEZavw6kIg=", "properties": {"@spider": "usps_collection_boxes", "addr:city": "STANVILLE", "addr:country": "US", "addr:full": "185 E MAIN ST", "addr:postcode": "41659", "addr:state": "KY", "brand": "USPS", "collection_times": "Mo-Fr 15:30; Sa 13:00", "name": "USPS COLLECTION BOX - BLUE BOX", "note": "ON 12/24 AND 12/31, THIS BOX MAY BE COLLECTED AS EARLY AS 12 NOON.", "ref": "4165900000"}, "type": "Feature"}
{"geometry": {"coordinates": [-82.642714423, 37.565232784], "type": "Point"}, "id": "HCx4Y-u-C9m_t0esb-7YHR_vCkc=", "properties": {"@spider": "usps_collection_boxes", "addr:city": "STANVILLE", "addr:country": "US", "addr:full": "185 E MAIN ST", "addr:postcode": "41659", "addr:state": "KY", "brand": "USPS", "collection_times": "Mo-Fr 15:30; Sa 13:00", "name": "USPS COLLECTION BOX - PO LOBBY", "note": "ON 12/24 AND 12/31, THIS BOX MAY BE COLLECTED AS EARLY AS 12 NOON.", "ref": "4165900001"}, "type": "Feature"}
{"geometry": {"coordinates": [-82.642714423, 37.565232784], "type": "Point"}, "id": "w1U0fsg9kA-HD80fbTlKTNpQwjk=", "properties": {"@spider": "usps_collection_boxes", "addr:city": "STANVILLE", "addr:country": "US", "addr:full": "185 E MAIN ST", "addr:postcode": "41659", "addr:state": "KY", "brand": "USPS", "collection_times": "Mo-Fr 15:30; Sa 13:00", "name": "USPS COLLECTION BOX - PO LOBBY", "note": "ON 12/24 AND 12/31, THIS BOX MAY BE COLLECTED AS EARLY AS 12 NOON.", "ref": "4165900003"}, "type": "Feature"}
{"geometry": {"coordinates": [-82.644060699, 37.425393854], "type": "Point"}, "id": "7ptouAcI0s-Y8uZH0J4oNGYW9Wg=", "properties": {"@spider": "usps_collection_boxes", "addr:city": "TEABERRY", "addr:country": "US", "addr:full": "11136 KY ROUTE 979", "addr:postcode": "41660", "addr:state": "KY", "brand": "USPS", "collection_times": "Mo-Fr 14:15; Sa 12:30", "name": "USPS COLLECTION BOX - BLUE BOX", "note": "ON 12/24 AND 12/31, THIS BOX MAY BE COLLECTED AS EARLY AS 12 NOON.", "ref": "4166000000"}, "type": "Feature"}
{"geometry": {"coordinates": [-82.644060699, 37.425393854], "type": "Point"}, "id": "9-liA-G0icfgoQsDg9FgxECy1Kc=", "properties": {"@spider": "usps_collection_boxes", "addr:city": "TEABERRY", "addr:country": "US", "addr:full": "11136 KY ROUTE 979", "addr:postcode": "41660", "addr:state": "KY", "brand": "USPS", "collection_times": "Mo-Fr 14:15; Sa 12:30", "name": "USPS COLLECTION BOX - PO LOBBY", "note": "ON 12/24 AND 12/31, THIS BOX MAY BE COLLECTED AS EARLY AS 12 NOON.", "ref": "4166000001"}, "type": "Feature"}
{"geometry": {"coordinates": [-82.644060699, 37.425393854], "type": "Point"}, "id": "XvpkWshTvOjFZ4P2rZ9P7e7qrng=", "properties": {"@spider": "usps_collection_boxes", "addr:city": "TEABERRY", "addr:country": "US", "addr:full": "11136 KY ROUTE 979", "addr:postcode": "41660", "addr:state": "KY", "brand": "USPS", "collection_times": "Mo-Fr 14:30; Sa 12:30", "name": "USPS COLLECTION BOX - PO LOBBY", "note": "ON 12/24 AND 12/31, THIS BOX MAY BE COLLECTED AS EARLY AS 12 NOON.", "ref": "4166000003"}, "type": "Feature"}
{"geometry": {"coordinates": [-82.806954902, 37.446087112], "type": "Point"}, "id": "RJrOklpVGPXOgnCSrRWEO84UmK4=", "properties": {"@spider": "usps_collection_boxes", "addr:city": "WAYLAND", "addr:country": "US", "addr:full": "2617 KING KELLY COLEMAN HWY", "addr:postcode": "41666", "addr:state": "KY", "brand": "USPS", "collection_times": "Mo-Fr 13:45; Sa 12:30", "name": "USPS COLLECTION BOX - BLUE BOX", "note": "ON 12/24 AND 12/31, THIS BOX MAY BE COLLECTED AS EARLY AS 12 NOON.", "ref": "4166600000"}, "type": "Feature"}
{"geometry": {"coordinates": [-82.806954902, 37.446087112], "type": "Point"}, "id": "8OjRV1WF9Tl_79PBxSTKCJPgWnc=", "properties": {"@spider": "usps_collection_boxes", "addr:city": "WAYLAND", "addr:country": "US", "addr:full": "2617 KING KELLY COLEMAN HWY", "addr:postcode": "41666", "addr:state": "KY", "brand": "USPS", "collection_times": "Mo-Fr 13:45; Sa 12:30", "name": "USPS COLLECTION BOX - PO LOBBY", "note": "ON 12/24 AND 12/31, THIS BOX MAY BE COLLECTED AS EARLY AS 12 NOON.", "ref": "4166600001"}, "type": "Feature"}
{"geometry": {"coordinates": [-82.806954902, 37.446087112], "type": "Point"}, "id": "ZJLHc5jiODTckmYfeVN7mRTmvD8=", "properties": {"@spider": "usps_collection_boxes", "addr:city": "WAYLAND", "addr:country": "US", "addr:full": "2617 KING KELLY COLEMAN HWY", "addr:postcode": "41666", "addr:state": "KY", "brand": "USPS", "collection_times": "Mo-Fr 14:30; Sa 12:30", "name": "USPS COLLECTION BOX - PO LOBBY", "note": "ON 12/24 AND 12/31, THIS BOX MAY BE COLLECTED AS EARLY AS 12 NOON.", "ref": "4166600003"}, "type": "Feature"}
