{"geometry": {"coordinates": [-83.086229, 37.029321], "type": "Point"}, "id": "2KU64fEt3M1TgNfTQ1dCL7YqWxo=", "properties": {"@spider": "usps_collection_boxes", "addr:city": "DELPHIA", "addr:country": "US", "addr:full": "3946 KY HIGHWAY 463 STE 102", "addr:postcode": "41735", "addr:state": "KY", "brand": "USPS", "collection_times": "Mo-Sa 13:30", "name": "USPS COLLECTION BOX - BLUE BOX", "note": "ON 12/24 AND 12/31, THIS BOX MAY BE COLLECTED AS EARLY AS 12 NOON.", "ref": "4173500000"}, "type": "Feature"}
{"geometry": {"coordinates": [-83.086285, 37.029294], "type": "Point"}, "id": "7U0tyWwXGnx-CzHLiwBn09dwymQ=", "properties": {"@spider": "usps_collection_boxes", "addr:city": "DELPHIA", "addr:country": "US", "addr:full": "3946 KY HIGHWAY 463 STE 102", "addr:postcode": "41735", "addr:state": "KY", "brand": "USPS", "collection_times": "Mo-Sa 13:30", "name": "USPS COLLECTION BOX - PO LOBBY", "note": "ON 12/24 AND 12/31, THIS BOX MAY BE COLLECTED AS EARLY AS 12 NOON.", "ref": "4173500001"}, "type": "Feature"}
{"geometry": {"coordinates": [-83.0862515053, 37.0293566024], "type": "Point"}, "id": "3wHLhPc2Cx1D2ORBayYDhNzYwB8=", "properties": {"@spider": "usps_collection_boxes", "addr:city": "DELPHIA", "addr:country": "US", "addr:full": "3946 KY HIGHWAY 463 STE 102", "addr:postcode": "41735", "addr:state": "KY", "brand": "USPS", "collection_times": "Mo-Sa 13:30", "name": "USPS COLLECTION BOX - PO LOBBY", "note": "ON 12/24 AND 12/31, THIS BOX MAY BE COLLECTED AS EARLY AS 12 NOON.", "ref": "4173500003"}, "type": "Feature"}
{"geometry": {"coordinates": [-83.11174606, 37.079778077], "type": "Point"}, "id": "OKlXOkSUJ70gDCHB0-Rat5Cb7xY=", "properties": {"@spider": "usps_collection_boxes", "addr:city": "SLEMP", "addr:country": "US", "addr:full": "45 OWENS BRANCH RD", "addr:postcode": "41763", "addr:state": "KY", "brand": "USPS", "collection_times": "Mo-Fr 14:30; Sa 11:15", "name": "USPS COLLECTION BOX - BLUE BOX", "note": "ON 12/24 AND 12/31, THIS BOX MAY BE COLLECTED AS EARLY AS 12 NOON.", "ref": "4176300000"}, "type": "Feature"}
{"geometry": {"coordinates": [-83.11174606, 37.079778077], "type": "Point"}, "id": "Yw5EuMxv6KJr1CmH-F1ekeScxzM=", "properties": {"@spider": "usps_collection_boxes", "addr:city": "SLEMP", "addr:country": "US", "addr:full": "45 OWENS BRANCH RD", "addr:postcode": "41763", "addr:state": "KY", "brand": "USPS", "collection_times": "Mo-Fr 14:30; Sa 11:30", "name": "USPS COLLECTION BOX - PO LOBBY", "note": "ON 12/24 AND 12/31, THIS BOX MAY BE COLLECTED AS EARLY AS 12 NOON.", "ref": "4176300002"}, "type": "Feature"}
{"geometry": {"coordinates": [-83.218620021, 37.070010005], "type": "Point"}, "id": "a3Qh7wSIxvywKB75bNrlGpd--7U=", "properties": {"@spider": "usps_collection_boxes", "addr:city": "YEADDISS", "addr:country": "US", "addr:full": "11545 CUTSHIN RD", "addr:postcode": "41777", "addr:state": "KY", "brand": "USPS", "collection_times": "Mo-Fr 13:00; Sa 12:00", "name": "USPS COLLECTION BOX - BLUE BOX", "note": "ON 12/24 AND 12/31, THIS BOX MAY BE COLLECTED AS EARLY AS 12 NOON.", "ref": "4177700000"}, "type": "Feature"}
{"geometry": {"coordinates": [-83.218620021, 37.070010005], "type": "Point"}, "id": "virXbsvA_A1RtCRajzpQsIezV5I=", "properties": {"@spider": "usps_collection_boxes", "addr:city": "YEADDISS", "addr:country": "US", "addr:full": "11545 CUTSHIN RD", "addr:postcode": "41777", "addr:state": "KY", "brand": "USPS", "collection_times": "Mo-Fr 13:00; Sa 12:00", "name": "USPS COLLECTION BOX - PO LOBBY", "note": "ON 12/24 AND 12/31, THIS BOX MAY BE COLLECTED AS EARLY AS 12 NOON.", "ref": "4177700001"}, "type": "Feature"}
{"geometry": {"coordinates": [-83.218620021, 37.070010005], "type": "Point"}, "id": "SbzkoaV1J7lvY5Ah6k9xFoGdHFg=", "properties": {"@spider": "usps_collection_boxes", "addr:city": "YEADDISS", "addr:country": "US", "addr:full": "11545 CUTSHIN RD", "addr:postcode": "41777", "addr:state": "KY", "brand": "USPS", "collection_times": "Mo-Fr 13:00; Sa 12:00", "name": "USPS COLLECTION BOX - PO LOBBY", "note": "ON 12/24 AND 12/31, THIS BOX MAY BE COLLECTED AS EARLY AS 12 NOON.", "ref": "4177700003"}, "type": "Feature"}
