{"geometry": {"coordinates": [-82.993305, 37.061477], "type": "Point"}, "id": "Hipw5vbNVG7H21qP9XiTIKmfpqY=", "properties": {"@spider": "usps_collection_boxes", "addr:city": "HALLIE", "addr:country": "US", "addr:full": "3996 HIGHWAY 1103", "addr:postcode": "41821", "addr:state": "KY", "brand": "USPS", "brand:wikidata": "Q668687", "collection_times": "Mo-Sa 11:00", "name": "USPS COLLECTION BOX - BLUE BOX", "ref": "4182100000"}, "type": "Feature"}
{"geometry": {"coordinates": [-82.9932876904, 37.0614925474], "type": "Point"}, "id": "iAmRGLIHtxM5cuf4xZ5vhKeQOM8=", "properties": {"@spider": "usps_collection_boxes", "addr:city": "HALLIE", "addr:country": "US", "addr:full": "3996 HIGHWAY 1103", "addr:postcode": "41821", "addr:state": "KY", "brand": "USPS", "brand:wikidata": "Q668687", "collection_times": "Mo-Sa 11:00", "name": "USPS COLLECTION BOX - PO LOBBY", "ref": "4182100001"}, "type": "Feature"}
{"geometry": {"coordinates": [-82.94880157, 37.214119072], "type": "Point"}, "id": "5bwKgNFU0DomHX7Ycq6qGYbBJ9k=", "properties": {"@spider": "usps_collection_boxes", "addr:city": "RED FOX", "addr:country": "US", "addr:full": "1915 REDFOX RD", "addr:postcode": "41847", "addr:state": "KY", "brand": "USPS", "brand:wikidata": "Q668687", "collection_times": "Mo-Fr 12:15; Sa 11:15", "name": "USPS COLLECTION BOX - BLUE BOX", "note": "ON 12/24 AND 12/31, THIS BOX MAY BE COLLECTED AS EARLY AS 12 NOON.", "ref": "4184700000"}, "type": "Feature"}
{"geometry": {"coordinates": [-82.94880157, 37.214119072], "type": "Point"}, "id": "N_Sqih6X8WVnMN3R_GM8UrI0bJ0=", "properties": {"@spider": "usps_collection_boxes", "addr:city": "RED FOX", "addr:country": "US", "addr:full": "1915 REDFOX RD", "addr:postcode": "41847", "addr:state": "KY", "brand": "USPS", "brand:wikidata": "Q668687", "collection_times": "Mo-Fr 12:15; Sa 11:15", "name": "USPS COLLECTION BOX - PO LOBBY", "note": "ON 12/24 AND 12/31, THIS BOX MAY BE COLLECTED AS EARLY AS 12 NOON.", "ref": "4184700001"}, "type": "Feature"}
{"geometry": {"coordinates": [-82.94880157, 37.214119072], "type": "Point"}, "id": "0dzAFMAB__UjlTH1zhY6Tby47QQ=", "properties": {"@spider": "usps_collection_boxes", "addr:city": "RED FOX", "addr:country": "US", "addr:full": "1915 REDFOX RD", "addr:postcode": "41847", "addr:state": "KY", "brand": "USPS", "brand:wikidata": "Q668687", "collection_times": "Mo-Sa 12:15", "name": "USPS COLLECTION BOX - PO LOBBY", "note": "ON 12/24 AND 12/31, THIS BOX MAY BE COLLECTED AS EARLY AS 12 NOON.", "ref": "4184700003"}, "type": "Feature"}
