{"geometry": {"coordinates": [-88.635030747, 37.071763155], "type": "Point"}, "id": "CnAUFkJAehqometfATs61rH78BI=", "properties": {"@source_uri": "https://tools.usps.com/UspsToolsRestServices/rest/POLocator/findLocations", "@spider": "usps_collection_boxes", "addr:city": "PADUCAH", "addr:country": "US", "addr:postcode": "42001", "addr:state": "KY", "addr:street_address": "2927 BROADWAY ST", "amenity": "post_box", "collection_times": "Mo-Fr 16:30; Sa 12:00", "indoor": "yes", "note": "ON 12/24 AND 12/31, THIS BOX MAY BE COLLECTED AS EARLY AS 12 NOON.", "nsi_id": "unitedstatespostalservice-a77078", "operator": "United States Postal Service", "operator:short": "USPS", "operator:type": "public", "operator:wikidata": "Q668687", "ref": "4200100008"}, "type": "Feature"}
{"geometry": {"coordinates": [-88.6350307472, 37.0717631554], "type": "Point"}, "id": "jCtKe8o5iAa9DQ-R0suGbG1wxRA=", "properties": {"@source_uri": "https://tools.usps.com/UspsToolsRestServices/rest/POLocator/findLocations", "@spider": "usps_collection_boxes", "addr:city": "PADUCAH", "addr:country": "US", "addr:postcode": "42001", "addr:state": "KY", "addr:street_address": "2927 BROADWAY ST", "amenity": "post_box", "collection_times": "Mo-Fr 16:45", "indoor": "yes", "note": "ON 12/24 AND 12/31, THIS BOX MAY BE COLLECTED AS EARLY AS 12 NOON.", "nsi_id": "unitedstatespostalservice-a77078", "operator": "United States Postal Service", "operator:short": "USPS", "operator:type": "public", "operator:wikidata": "Q668687", "ref": "4200100011"}, "type": "Feature"}
{"geometry": {"coordinates": [-88.596708, 37.084612], "type": "Point"}, "id": "DpGyOYHQnTAM_u0w54Qvpm1v3ks=", "properties": {"@source_uri": "https://tools.usps.com/UspsToolsRestServices/rest/POLocator/findLocations", "@spider": "usps_collection_boxes", "addr:city": "PADUCAH", "addr:country": "US", "addr:postcode": "42002", "addr:state": "KY", "addr:street_address": "300 S 4TH ST", "amenity": "post_box", "collection_times": "Mo-Fr 17:30; Sa 17:15", "indoor": "yes", "note": "ON 12/24 AND 12/31, THIS BOX MAY BE COLLECTED AS EARLY AS 12 NOON.", "nsi_id": "unitedstatespostalservice-a77078", "operator": "United States Postal Service", "operator:short": "USPS", "operator:type": "public", "operator:wikidata": "Q668687", "ref": "4200200000"}, "type": "Feature"}
{"geometry": {"coordinates": [-88.596789, 37.08468], "type": "Point"}, "id": "mGjoumWloWr4SQlukXggSlbRdfw=", "properties": {"@source_uri": "https://tools.usps.com/UspsToolsRestServices/rest/POLocator/findLocations", "@spider": "usps_collection_boxes", "addr:city": "PADUCAH", "addr:country": "US", "addr:postcode": "42002", "addr:state": "KY", "addr:street_address": "300 S 4TH ST", "amenity": "post_box", "collection_times": "Mo-Fr 17:30; Sa 17:15", "note": "ON 12/24 AND 12/31, THIS BOX MAY BE COLLECTED AS EARLY AS 12 NOON.", "nsi_id": "unitedstatespostalservice-a77078", "operator": "United States Postal Service", "operator:short": "USPS", "operator:type": "public", "operator:wikidata": "Q668687", "ref": "4200200001"}, "type": "Feature"}
{"geometry": {"coordinates": [-88.5695749, 37.055683], "type": "Point"}, "id": "J9gEiwHcX0kHqpOJbPgkJHxAmRk=", "properties": {"@source_uri": "https://tools.usps.com/UspsToolsRestServices/rest/POLocator/findLocations", "@spider": "usps_collection_boxes", "addr:city": "PADUCAH", "addr:country": "US", "addr:postcode": "42002", "addr:state": "KY", "addr:street_address": "3160 IRVIN COBB DR", "amenity": "post_box", "collection_times": "Mo-Fr 17:00; Sa 15:30", "note": "ON 12/24 AND 12/31, THIS BOX MAY BE COLLECTED AS EARLY AS 12 NOON.", "nsi_id": "unitedstatespostalservice-a77078", "operator": "United States Postal Service", "operator:short": "USPS", "operator:type": "public", "operator:wikidata": "Q668687", "ref": "4200200003"}, "type": "Feature"}
{"geometry": {"coordinates": [-88.627503, 37.073539], "type": "Point"}, "id": "5EizrubUIPWGIg1h59wobuVxm6g=", "properties": {"@source_uri": "https://tools.usps.com/UspsToolsRestServices/rest/POLocator/findLocations", "@spider": "usps_collection_boxes", "addr:city": "PADUCAH", "addr:country": "US", "addr:postcode": "42002", "addr:state": "KY", "addr:street_address": "2601 KENTUCKY AVE", "amenity": "post_box", "collection_times": "Mo-Fr 17:15; Sa 16:15", "note": "ON 12/24 AND 12/31, THIS BOX MAY BE COLLECTED AS EARLY AS 12 NOON.", "nsi_id": "unitedstatespostalservice-a77078", "operator": "United States Postal Service", "operator:short": "USPS", "operator:type": "public", "operator:wikidata": "Q668687", "ref": "4200200006"}, "type": "Feature"}
{"geometry": {"coordinates": [-88.6353473, 37.072283], "type": "Point"}, "id": "NqMM1Q7s3OfAAqJm92r51vml148=", "properties": {"@source_uri": "https://tools.usps.com/UspsToolsRestServices/rest/POLocator/findLocations", "@spider": "usps_collection_boxes", "addr:city": "PADUCAH", "addr:country": "US", "addr:postcode": "42002", "addr:state": "KY", "addr:street_address": "2927 BROADWAY ST", "amenity": "post_box", "collection_times": "Mo-Fr 17:15; Sa 16:15", "note": "ON 12/24 AND 12/31, THIS BOX MAY BE COLLECTED AS EARLY AS 12 NOON.", "nsi_id": "unitedstatespostalservice-a77078", "operator": "United States Postal Service", "operator:short": "USPS", "operator:type": "public", "operator:wikidata": "Q668687", "ref": "4200200023"}, "type": "Feature"}
{"geometry": {"coordinates": [-88.6671819, 37.035811], "type": "Point"}, "id": "9HBa4zEfsWSwaQIBFfh0dBtfpmU=", "properties": {"@source_uri": "https://tools.usps.com/UspsToolsRestServices/rest/POLocator/findLocations", "@spider": "usps_collection_boxes", "addr:city": "PADUCAH", "addr:country": "US", "addr:postcode": "42002", "addr:state": "KY", "addr:street_address": "3101 LONE OAK RD", "amenity": "post_box", "collection_times": "Mo-Fr 16:30; Sa 15:45", "note": "ON 12/24 AND 12/31, THIS BOX MAY BE COLLECTED AS EARLY AS 12 NOON.", "nsi_id": "unitedstatespostalservice-a77078", "operator": "United States Postal Service", "operator:short": "USPS", "operator:type": "public", "operator:wikidata": "Q668687", "ref": "4200200025"}, "type": "Feature"}
{"geometry": {"coordinates": [-88.6606176, 37.039814], "type": "Point"}, "id": "-YDUgGjliPrnBBoUKGEWOWzeY0I=", "properties": {"@source_uri": "https://tools.usps.com/UspsToolsRestServices/rest/POLocator/findLocations", "@spider": "usps_collection_boxes", "addr:city": "PADUCAH", "addr:country": "US", "addr:postcode": "42002", "addr:state": "KY", "addr:street_address": "2850 LONE OAK RD", "amenity": "post_box", "collection_times": "Mo-Fr 16:45; Sa 16:00", "note": "ON 12/24 AND 12/31, THIS BOX MAY BE COLLECTED AS EARLY AS 12 NOON.", "nsi_id": "unitedstatespostalservice-a77078", "operator": "United States Postal Service", "operator:short": "USPS", "operator:type": "public", "operator:wikidata": "Q668687", "ref": "4200200028"}, "type": "Feature"}
{"geometry": {"coordinates": [-88.635045, 37.07173], "type": "Point"}, "id": "-n0NGbU8PUISFVBEfSjnx_E8kRI=", "properties": {"@source_uri": "https://tools.usps.com/UspsToolsRestServices/rest/POLocator/findLocations", "@spider": "usps_collection_boxes", "addr:city": "PADUCAH", "addr:country": "US", "addr:postcode": "42002", "addr:state": "KY", "addr:street_address": "2630 LONE OAK RD", "amenity": "post_box", "collection_times": "Mo-Fr 16:45; Sa 16:00", "note": "ON 12/24 AND 12/31, THIS BOX MAY BE COLLECTED AS EARLY AS 12 NOON.", "nsi_id": "unitedstatespostalservice-a77078", "operator": "United States Postal Service", "operator:short": "USPS", "operator:type": "public", "operator:wikidata": "Q668687", "ref": "4200200029"}, "type": "Feature"}
{"geometry": {"coordinates": [-88.6479586, 37.050735], "type": "Point"}, "id": "WExdEEywg-7VV_buChYYxxWbjN0=", "properties": {"@source_uri": "https://tools.usps.com/UspsToolsRestServices/rest/POLocator/findLocations", "@spider": "usps_collection_boxes", "addr:city": "PADUCAH", "addr:country": "US", "addr:postcode": "42002", "addr:state": "KY", "addr:street_address": "1532 LONE OAK RD", "amenity": "post_box", "collection_times": "Mo-Fr 17:00", "note": "ON 12/24 AND 12/31, THIS BOX MAY BE COLLECTED AS EARLY AS 12 NOON.", "nsi_id": "unitedstatespostalservice-a77078", "operator": "United States Postal Service", "operator:short": "USPS", "operator:type": "public", "operator:wikidata": "Q668687", "ref": "4200200030"}, "type": "Feature"}
{"geometry": {"coordinates": [-88.6439072, 37.053776], "type": "Point"}, "id": "wotcIqP55lgXWJcx1S72fiwlOmk=", "properties": {"@source_uri": "https://tools.usps.com/UspsToolsRestServices/rest/POLocator/findLocations", "@spider": "usps_collection_boxes", "addr:city": "PADUCAH", "addr:country": "US", "addr:postcode": "42002", "addr:state": "KY", "addr:street_address": "225 MEDICAL CENTER DR", "amenity": "post_box", "collection_times": "Mo-Fr 17:00", "note": "ON 12/24 AND 12/31, THIS BOX MAY BE COLLECTED AS EARLY AS 12 NOON.", "nsi_id": "unitedstatespostalservice-a77078", "operator": "United States Postal Service", "operator:short": "USPS", "operator:type": "public", "operator:wikidata": "Q668687", "ref": "4200200031"}, "type": "Feature"}
{"geometry": {"coordinates": [-88.6031823, 37.085838], "type": "Point"}, "id": "DAN3K7tfH2njhPazwjB65QQvcdg=", "properties": {"@source_uri": "https://tools.usps.com/UspsToolsRestServices/rest/POLocator/findLocations", "@spider": "usps_collection_boxes", "addr:city": "PADUCAH", "addr:country": "US", "addr:postcode": "42002", "addr:state": "KY", "addr:street_address": "800 JEFFERSON ST", "amenity": "post_box", "collection_times": "Mo-Fr 17:15; Sa 15:00", "note": "ON 12/24 AND 12/31, THIS BOX MAY BE COLLECTED AS EARLY AS 12 NOON.", "nsi_id": "unitedstatespostalservice-a77078", "operator": "United States Postal Service", "operator:short": "USPS", "operator:type": "public", "operator:wikidata": "Q668687", "ref": "4200200037"}, "type": "Feature"}
{"geometry": {"coordinates": [-88.6172321, 37.079063], "type": "Point"}, "id": "ghY0Oh0Lishb-cDoQqYsLla1veA=", "properties": {"@source_uri": "https://tools.usps.com/UspsToolsRestServices/rest/POLocator/findLocations", "@spider": "usps_collection_boxes", "addr:city": "PADUCAH", "addr:country": "US", "addr:postcode": "42002", "addr:state": "KY", "addr:street_address": "100 FOUNTAIN AVE", "amenity": "post_box", "collection_times": "Mo-Fr 16:30; Sa 14:45", "note": "ON 12/24 AND 12/31, THIS BOX MAY BE COLLECTED AS EARLY AS 12 NOON.", "nsi_id": "unitedstatespostalservice-a77078", "operator": "United States Postal Service", "operator:short": "USPS", "operator:type": "public", "operator:wikidata": "Q668687", "ref": "4200200040"}, "type": "Feature"}
{"geometry": {"coordinates": [-88.6140642, 37.080342], "type": "Point"}, "id": "Jox0WUgkbOHj6gJz95m2T6V4pDM=", "properties": {"@source_uri": "https://tools.usps.com/UspsToolsRestServices/rest/POLocator/findLocations", "@spider": "usps_collection_boxes", "addr:city": "PADUCAH", "addr:country": "US", "addr:postcode": "42002", "addr:state": "KY", "addr:street_address": "1501 BROADWAY ST", "amenity": "post_box", "collection_times": "Mo-Fr 16:30; Sa 14:45", "note": "ON 12/24 AND 12/31, THIS BOX MAY BE COLLECTED AS EARLY AS 12 NOON.", "nsi_id": "unitedstatespostalservice-a77078", "operator": "United States Postal Service", "operator:short": "USPS", "operator:type": "public", "operator:wikidata": "Q668687", "ref": "4200200041"}, "type": "Feature"}
{"geometry": {"coordinates": [-88.5982747, 37.08702], "type": "Point"}, "id": "2Nkgg7FX1Yt6lNHB4iGvMgk1Zy8=", "properties": {"@source_uri": "https://tools.usps.com/UspsToolsRestServices/rest/POLocator/findLocations", "@spider": "usps_collection_boxes", "addr:city": "PADUCAH", "addr:country": "US", "addr:postcode": "42002", "addr:state": "KY", "addr:street_address": "333 BROADWAY ST", "amenity": "post_box", "collection_times": "Mo-Fr 17:30; Sa 15:00", "note": "ON 12/24 AND 12/31, THIS BOX MAY BE COLLECTED AS EARLY AS 12 NOON.", "nsi_id": "unitedstatespostalservice-a77078", "operator": "United States Postal Service", "operator:short": "USPS", "operator:type": "public", "operator:wikidata": "Q668687", "ref": "4200200043"}, "type": "Feature"}
{"geometry": {"coordinates": [-88.5977759, 37.086242], "type": "Point"}, "id": "4-H5UOzFId_5kBRrbVATn_KLQJ0=", "properties": {"@source_uri": "https://tools.usps.com/UspsToolsRestServices/rest/POLocator/findLocations", "@spider": "usps_collection_boxes", "addr:city": "PADUCAH", "addr:country": "US", "addr:postcode": "42002", "addr:state": "KY", "addr:street_address": "100 S 4TH ST", "amenity": "post_box", "collection_times": "Mo-Fr 17:30; Sa 15:00", "note": "ON 12/24 AND 12/31, THIS BOX MAY BE COLLECTED AS EARLY AS 12 NOON.", "nsi_id": "unitedstatespostalservice-a77078", "operator": "United States Postal Service", "operator:short": "USPS", "operator:type": "public", "operator:wikidata": "Q668687", "ref": "4200200044"}, "type": "Feature"}
{"geometry": {"coordinates": [-88.6652953, 37.054974], "type": "Point"}, "id": "ASJ3TRZwc6WFN-vtq_T3uuGRkOU=", "properties": {"@source_uri": "https://tools.usps.com/UspsToolsRestServices/rest/POLocator/findLocations", "@spider": "usps_collection_boxes", "addr:city": "PADUCAH", "addr:country": "US", "addr:postcode": "42002", "addr:state": "KY", "addr:street_address": "296 PECAN DR", "amenity": "post_box", "collection_times": "Mo-Fr 16:15", "note": "ON 12/24 AND 12/31, THIS BOX MAY BE COLLECTED AS EARLY AS 12 NOON.", "nsi_id": "unitedstatespostalservice-a77078", "operator": "United States Postal Service", "operator:short": "USPS", "operator:type": "public", "operator:wikidata": "Q668687", "ref": "4200200051"}, "type": "Feature"}
{"geometry": {"coordinates": [-88.6198064, 37.077859], "type": "Point"}, "id": "80DJWV1q7JoIO76iIhgWwpyiL80=", "properties": {"@source_uri": "https://tools.usps.com/UspsToolsRestServices/rest/POLocator/findLocations", "@spider": "usps_collection_boxes", "addr:city": "PADUCAH", "addr:country": "US", "addr:postcode": "42002", "addr:state": "KY", "addr:street_address": "1900 BROADWAY ST", "amenity": "post_box", "collection_times": "Mo-Fr 16:30; Sa 14:45", "note": "ON 12/24 AND 12/31, THIS BOX MAY BE COLLECTED AS EARLY AS 12 NOON.", "nsi_id": "unitedstatespostalservice-a77078", "operator": "United States Postal Service", "operator:short": "USPS", "operator:type": "public", "operator:wikidata": "Q668687", "ref": "4200200056"}, "type": "Feature"}
{"geometry": {"coordinates": [-88.6353472, 37.064346], "type": "Point"}, "id": "cOwe43QBizIQFgb2xJ98qmfossI=", "properties": {"@source_uri": "https://tools.usps.com/UspsToolsRestServices/rest/POLocator/findLocations", "@spider": "usps_collection_boxes", "addr:city": "PADUCAH", "addr:country": "US", "addr:postcode": "42002", "addr:state": "KY", "addr:street_address": "3100 PARISA DR", "amenity": "post_box", "collection_times": "Mo-Fr 16:00", "note": "ON 12/24 AND 12/31, THIS BOX MAY BE COLLECTED AS EARLY AS 12 NOON.", "nsi_id": "unitedstatespostalservice-a77078", "operator": "United States Postal Service", "operator:short": "USPS", "operator:type": "public", "operator:wikidata": "Q668687", "ref": "4200200066"}, "type": "Feature"}
{"geometry": {"coordinates": [-88.6982533, 37.07186], "type": "Point"}, "id": "_jdWcUMYP_lPw9qvpAKbVQjyaCI=", "properties": {"@source_uri": "https://tools.usps.com/UspsToolsRestServices/rest/POLocator/findLocations", "@spider": "usps_collection_boxes", "addr:city": "PADUCAH", "addr:country": "US", "addr:postcode": "42002", "addr:state": "KY", "addr:street_address": "2755 W PARK DR", "amenity": "post_box", "collection_times": "Mo-Fr 15:45; Sa 14:30", "note": "ON 12/24 AND 12/31, THIS BOX MAY BE COLLECTED AS EARLY AS 12 NOON.", "nsi_id": "unitedstatespostalservice-a77078", "operator": "United States Postal Service", "operator:short": "USPS", "operator:type": "public", "operator:wikidata": "Q668687", "ref": "4200200067"}, "type": "Feature"}
{"geometry": {"coordinates": [-88.6000377, 37.082538], "type": "Point"}, "id": "uJBWiJi-22fMjgy2hsAH5Wnvsro=", "properties": {"@source_uri": "https://tools.usps.com/UspsToolsRestServices/rest/POLocator/findLocations", "@spider": "usps_collection_boxes", "addr:city": "PADUCAH", "addr:country": "US", "addr:postcode": "42002", "addr:state": "KY", "addr:street_address": "300 S 7TH ST", "amenity": "post_box", "collection_times": "Mo-Fr 17:15", "note": "ON 12/24 AND 12/31, THIS BOX MAY BE COLLECTED AS EARLY AS 12 NOON.", "nsi_id": "unitedstatespostalservice-a77078", "operator": "United States Postal Service", "operator:short": "USPS", "operator:type": "public", "operator:wikidata": "Q668687", "ref": "4200200081"}, "type": "Feature"}
{"geometry": {"coordinates": [-88.6480155, 37.049655], "type": "Point"}, "id": "vVZlw1lWx5RzB4jaRnYKMf9sFXM=", "properties": {"@source_uri": "https://tools.usps.com/UspsToolsRestServices/rest/POLocator/findLocations", "@spider": "usps_collection_boxes", "addr:city": "PADUCAH", "addr:country": "US", "addr:postcode": "42002", "addr:state": "KY", "addr:street_address": "1532 LONE OAK RD", "amenity": "post_box", "collection_times": "Mo-Fr 17:00", "note": "ON 12/24 AND 12/31, THIS BOX MAY BE COLLECTED AS EARLY AS 12 NOON.", "nsi_id": "unitedstatespostalservice-a77078", "operator": "United States Postal Service", "operator:short": "USPS", "operator:type": "public", "operator:wikidata": "Q668687", "ref": "4200200088"}, "type": "Feature"}
{"geometry": {"coordinates": [-88.6282733, 37.073374], "type": "Point"}, "id": "5OJJNA5dC9iOv-FnRB9eFjiTyWo=", "properties": {"@source_uri": "https://tools.usps.com/UspsToolsRestServices/rest/POLocator/findLocations", "@spider": "usps_collection_boxes", "addr:city": "PADUCAH", "addr:country": "US", "addr:postcode": "42002", "addr:state": "KY", "addr:street_address": "2605 KENTUCKY AVE", "amenity": "post_box", "collection_times": "Sa 17:15", "note": "ON 12/24 AND 12/31, THIS BOX MAY BE COLLECTED AS EARLY AS 12 NOON.", "nsi_id": "unitedstatespostalservice-a77078", "operator": "United States Postal Service", "operator:short": "USPS", "operator:type": "public", "operator:wikidata": "Q668687", "ref": "4200200091"}, "type": "Feature"}
{"geometry": {"coordinates": [-88.596789, 37.08468], "type": "Point"}, "id": "XkX2sjOLMxGz9HX7opErES9L8XY=", "properties": {"@source_uri": "https://tools.usps.com/UspsToolsRestServices/rest/POLocator/findLocations", "@spider": "usps_collection_boxes", "addr:city": "PADUCAH", "addr:country": "US", "addr:postcode": "42002", "addr:state": "KY", "addr:street_address": "300 S 4TH ST", "amenity": "post_box", "collection_times": "Mo-Fr 17:30; Sa 17:15", "indoor": "yes", "note": "ON 12/24 AND 12/31, THIS BOX MAY BE COLLECTED AS EARLY AS 12 NOON.", "nsi_id": "unitedstatespostalservice-a77078", "operator": "United States Postal Service", "operator:short": "USPS", "operator:type": "public", "operator:wikidata": "Q668687", "ref": "4200200094"}, "type": "Feature"}
{"geometry": {"coordinates": [-88.5299319284, 37.0038364063], "type": "Point"}, "id": "vy-PmWXhXAw7plsqYg5YMFtE_S8=", "properties": {"@source_uri": "https://tools.usps.com/UspsToolsRestServices/rest/POLocator/findLocations", "@spider": "usps_collection_boxes", "addr:city": "PADUCAH", "addr:country": "US", "addr:postcode": "42002", "addr:state": "KY", "addr:street_address": "6135 BENTON RD", "amenity": "post_box", "collection_times": "Mo-Fr 16:30; Sa 15:15", "note": "ON 12/24 AND 12/31, THIS BOX MAY BE COLLECTED AS EARLY AS 12 NOON.", "nsi_id": "unitedstatespostalservice-a77078", "operator": "United States Postal Service", "operator:short": "USPS", "operator:type": "public", "operator:wikidata": "Q668687", "ref": "4200200095"}, "type": "Feature"}
{"geometry": {"coordinates": [-88.596436014, 37.084175161], "type": "Point"}, "id": "nvJo_5bDluuKnRaa8MVYKl6OXXQ=", "properties": {"@source_uri": "https://tools.usps.com/UspsToolsRestServices/rest/POLocator/findLocations", "@spider": "usps_collection_boxes", "addr:city": "PADUCAH", "addr:country": "US", "addr:postcode": "42003", "addr:state": "KY", "addr:street_address": "300 S 4TH ST", "amenity": "post_box", "collection_times": "Mo-Fr 17:00", "indoor": "yes", "note": "ON 12/24 AND 12/31, THIS BOX MAY BE COLLECTED AS EARLY AS 12 NOON.", "nsi_id": "unitedstatespostalservice-a77078", "operator": "United States Postal Service", "operator:short": "USPS", "operator:type": "public", "operator:wikidata": "Q668687", "ref": "4200300004"}, "type": "Feature"}
{"geometry": {"coordinates": [-88.5708652286, 37.0547974048], "type": "Point"}, "id": "FUdmGiBGjfMWadukXoeCNuaudkY=", "properties": {"@source_uri": "https://tools.usps.com/UspsToolsRestServices/rest/POLocator/findLocations", "@spider": "usps_collection_boxes", "addr:city": "PADUCAH", "addr:country": "US", "addr:postcode": "42003", "addr:state": "KY", "addr:street_address": "3160 IRVIN COBB DR", "amenity": "post_box", "collection_times": "Mo-Fr 16:45", "indoor": "yes", "note": "ON 12/24 AND 12/31, THIS BOX MAY BE COLLECTED AS EARLY AS 12 NOON.", "nsi_id": "unitedstatespostalservice-a77078", "operator": "United States Postal Service", "operator:short": "USPS", "operator:type": "public", "operator:wikidata": "Q668687", "ref": "4200300007"}, "type": "Feature"}
{"geometry": {"coordinates": [-89.012264956, 36.790283513], "type": "Point"}, "id": "eFdgDpclMQEjgR4fuimOB1OWIL4=", "properties": {"@source_uri": "https://tools.usps.com/UspsToolsRestServices/rest/POLocator/findLocations", "@spider": "usps_collection_boxes", "addr:city": "ARLINGTON", "addr:country": "US", "addr:postcode": "42021", "addr:state": "KY", "addr:street_address": "178 WALNUT ST", "amenity": "post_box", "collection_times": "Mo-Fr 15:45; Sa 10:45", "note": "ON 12/24 AND 12/31, THIS BOX MAY BE COLLECTED AS EARLY AS 12 NOON.", "nsi_id": "unitedstatespostalservice-a77078", "operator": "United States Postal Service", "operator:short": "USPS", "operator:type": "public", "operator:wikidata": "Q668687", "ref": "4202100000"}, "type": "Feature"}
{"geometry": {"coordinates": [-89.0099861, 36.7902956], "type": "Point"}, "id": "8IH3En7qnfy_Vy8hRtPdwC5Vr7I=", "properties": {"@source_uri": "https://tools.usps.com/UspsToolsRestServices/rest/POLocator/findLocations", "@spider": "usps_collection_boxes", "addr:city": "ARLINGTON", "addr:country": "US", "addr:postcode": "42021", "addr:state": "KY", "addr:street_address": "178 WALNUT ST", "amenity": "post_box", "collection_times": "Mo-Fr 15:45; Sa 10:45", "note": "ON 12/24 AND 12/31, THIS BOX MAY BE COLLECTED AS EARLY AS 12 NOON.", "nsi_id": "unitedstatespostalservice-a77078", "operator": "United States Postal Service", "operator:short": "USPS", "operator:type": "public", "operator:wikidata": "Q668687", "ref": "4202100001"}, "type": "Feature"}
{"geometry": {"coordinates": [-89.0099861, 36.7902956], "type": "Point"}, "id": "sI3CVhj0saE6kIrbf0LFAxTNRnI=", "properties": {"@source_uri": "https://tools.usps.com/UspsToolsRestServices/rest/POLocator/findLocations", "@spider": "usps_collection_boxes", "addr:city": "ARLINGTON", "addr:country": "US", "addr:postcode": "42021", "addr:state": "KY", "addr:street_address": "178 WALNUT ST", "amenity": "post_box", "collection_times": "Mo-Fr 11:30; Sa 11:00", "indoor": "yes", "nsi_id": "unitedstatespostalservice-a77078", "operator": "United States Postal Service", "operator:short": "USPS", "operator:type": "public", "operator:wikidata": "Q668687", "ref": "4202100003"}, "type": "Feature"}
{"geometry": {"coordinates": [-88.946371054, 37.145379762], "type": "Point"}, "id": "uVgsJg2aVvb3o-zf4vEoQffuick=", "properties": {"@source_uri": "https://tools.usps.com/UspsToolsRestServices/rest/POLocator/findLocations", "@spider": "usps_collection_boxes", "addr:city": "BANDANA", "addr:country": "US", "addr:postcode": "42022", "addr:state": "KY", "addr:street_address": "82 ALLEN ST", "amenity": "post_box", "collection_times": "Mo-Sa 12:30", "note": "ON 12/24 AND 12/31, THIS BOX MAY BE COLLECTED AS EARLY AS 12 NOON.", "nsi_id": "unitedstatespostalservice-a77078", "operator": "United States Postal Service", "operator:short": "USPS", "operator:type": "public", "operator:wikidata": "Q668687", "ref": "4202200000"}, "type": "Feature"}
{"geometry": {"coordinates": [-88.946449, 37.145076], "type": "Point"}, "id": "BB3BP8CA541D1HUwV-7DChL64lg=", "properties": {"@source_uri": "https://tools.usps.com/UspsToolsRestServices/rest/POLocator/findLocations", "@spider": "usps_collection_boxes", "addr:city": "BANDANA", "addr:country": "US", "addr:postcode": "42022", "addr:state": "KY", "addr:street_address": "82 ALLEN ST # 42022", "amenity": "post_box", "collection_times": "Mo-Sa 12:30", "indoor": "yes", "note": "ON 12/24 AND 12/31, THIS BOX MAY BE COLLECTED AS EARLY AS 12 NOON.", "nsi_id": "unitedstatespostalservice-a77078", "operator": "United States Postal Service", "operator:short": "USPS", "operator:type": "public", "operator:wikidata": "Q668687", "ref": "4202200001"}, "type": "Feature"}
{"geometry": {"coordinates": [-88.946371054, 37.145379762], "type": "Point"}, "id": "tJ-A7VD7pDaG7VgbVjNuktxXfz4=", "properties": {"@source_uri": "https://tools.usps.com/UspsToolsRestServices/rest/POLocator/findLocations", "@spider": "usps_collection_boxes", "addr:city": "BANDANA", "addr:country": "US", "addr:postcode": "42022", "addr:state": "KY", "addr:street_address": "82 ALLEN ST", "amenity": "post_box", "collection_times": "Mo-Sa 12:30", "indoor": "yes", "note": "ON 12/24 AND 12/31, THIS BOX MAY BE COLLECTED AS EARLY AS 12 NOON.", "nsi_id": "unitedstatespostalservice-a77078", "operator": "United States Postal Service", "operator:short": "USPS", "operator:type": "public", "operator:wikidata": "Q668687", "ref": "4202200003"}, "type": "Feature"}
{"geometry": {"coordinates": [-89.013746, 36.877924], "type": "Point"}, "id": "y38dOws7vqmvnmmLB5acUqkhuYQ=", "properties": {"@source_uri": "https://tools.usps.com/UspsToolsRestServices/rest/POLocator/findLocations", "@spider": "usps_collection_boxes", "addr:city": "BARDWELL", "addr:country": "US", "addr:postcode": "42023", "addr:state": "KY", "addr:street_address": "125 ELM ST # 42023", "amenity": "post_box", "collection_times": "Mo-Fr 15:45; Sa 11:00", "note": "ON 12/24 AND 12/31, THIS BOX MAY BE COLLECTED AS EARLY AS 12 NOON.", "nsi_id": "unitedstatespostalservice-a77078", "operator": "United States Postal Service", "operator:short": "USPS", "operator:type": "public", "operator:wikidata": "Q668687", "ref": "4202300000"}, "type": "Feature"}
{"geometry": {"coordinates": [-89.013746, 36.877924], "type": "Point"}, "id": "4rVSNGUkL4j6ma9TnJdDNJcsgao=", "properties": {"@source_uri": "https://tools.usps.com/UspsToolsRestServices/rest/POLocator/findLocations", "@spider": "usps_collection_boxes", "addr:city": "BARDWELL", "addr:country": "US", "addr:postcode": "42023", "addr:state": "KY", "addr:street_address": "125 ELM ST", "amenity": "post_box", "collection_times": "Mo-Fr 15:45; Sa 11:00", "indoor": "yes", "note": "ON 12/24 AND 12/31, THIS BOX MAY BE COLLECTED AS EARLY AS 12 NOON.", "nsi_id": "unitedstatespostalservice-a77078", "operator": "United States Postal Service", "operator:short": "USPS", "operator:type": "public", "operator:wikidata": "Q668687", "ref": "4202300001"}, "type": "Feature"}
{"geometry": {"coordinates": [-89.0137363447, 36.8779473271], "type": "Point"}, "id": "j7SgMycZUm7pkcxX1LDhqVHnOxA=", "properties": {"@source_uri": "https://tools.usps.com/UspsToolsRestServices/rest/POLocator/findLocations", "@spider": "usps_collection_boxes", "addr:city": "BARDWELL", "addr:country": "US", "addr:postcode": "42023", "addr:state": "KY", "addr:street_address": "125 ELM ST", "amenity": "post_box", "collection_times": "Mo-Fr 15:45; Sa 11:00", "indoor": "yes", "note": "ON 12/24 AND 12/31, THIS BOX MAY BE COLLECTED AS EARLY AS 12 NOON.", "nsi_id": "unitedstatespostalservice-a77078", "operator": "United States Postal Service", "operator:short": "USPS", "operator:type": "public", "operator:wikidata": "Q668687", "ref": "4202300003"}, "type": "Feature"}
{"geometry": {"coordinates": [-89.047184032, 37.051489246], "type": "Point"}, "id": "0BqbLHbJffb-1ZrYh71Q1PMr3R8=", "properties": {"@source_uri": "https://tools.usps.com/UspsToolsRestServices/rest/POLocator/findLocations", "@spider": "usps_collection_boxes", "addr:city": "BARLOW", "addr:country": "US", "addr:postcode": "42024", "addr:state": "KY", "addr:street_address": "117 S 4TH ST", "amenity": "post_box", "collection_times": "Mo-Fr 16:00; Sa 11:00", "note": "ON 12/24 AND 12/31, THIS BOX MAY BE COLLECTED AS EARLY AS 12 NOON.", "nsi_id": "unitedstatespostalservice-a77078", "operator": "United States Postal Service", "operator:short": "USPS", "operator:type": "public", "operator:wikidata": "Q668687", "ref": "4202400000"}, "type": "Feature"}
{"geometry": {"coordinates": [-89.047184032, 37.051489246], "type": "Point"}, "id": "cPQGx3mJYvtRrMqDmaSQUQjEEp8=", "properties": {"@source_uri": "https://tools.usps.com/UspsToolsRestServices/rest/POLocator/findLocations", "@spider": "usps_collection_boxes", "addr:city": "BARLOW", "addr:country": "US", "addr:postcode": "42024", "addr:state": "KY", "addr:street_address": "117 S 4TH ST", "amenity": "post_box", "collection_times": "Mo-Fr 16:00; Sa 11:00", "indoor": "yes", "note": "ON 12/24 AND 12/31, THIS BOX MAY BE COLLECTED AS EARLY AS 12 NOON.", "nsi_id": "unitedstatespostalservice-a77078", "operator": "United States Postal Service", "operator:short": "USPS", "operator:type": "public", "operator:wikidata": "Q668687", "ref": "4202400001"}, "type": "Feature"}
{"geometry": {"coordinates": [-89.047184032, 37.051489246], "type": "Point"}, "id": "EjJGRLUqUS-BVALL8ouBZbyOrF4=", "properties": {"@source_uri": "https://tools.usps.com/UspsToolsRestServices/rest/POLocator/findLocations", "@spider": "usps_collection_boxes", "addr:city": "BARLOW", "addr:country": "US", "addr:postcode": "42024", "addr:state": "KY", "addr:street_address": "117 S 4TH ST", "amenity": "post_box", "collection_times": "Mo-Fr 16:00; Sa 11:00", "indoor": "yes", "note": "ON 12/24 AND 12/31, THIS BOX MAY BE COLLECTED AS EARLY AS 12 NOON.", "nsi_id": "unitedstatespostalservice-a77078", "operator": "United States Postal Service", "operator:short": "USPS", "operator:type": "public", "operator:wikidata": "Q668687", "ref": "4202400003"}, "type": "Feature"}
{"geometry": {"coordinates": [-88.357781, 36.866194], "type": "Point"}, "id": "58hzE_aCuYDThf-wXsNHjrtnmZA=", "properties": {"@source_uri": "https://tools.usps.com/UspsToolsRestServices/rest/POLocator/findLocations", "@spider": "usps_collection_boxes", "addr:city": "BENTON", "addr:country": "US", "addr:postcode": "42025", "addr:state": "KY", "addr:street_address": "219 W 5TH ST", "amenity": "post_box", "collection_times": "Mo-Fr 16:00; Sa 14:00", "indoor": "yes", "note": "ON 12/24 AND 12/31, THIS BOX MAY BE COLLECTED AS EARLY AS 12 NOON.", "nsi_id": "unitedstatespostalservice-a77078", "operator": "United States Postal Service", "operator:short": "USPS", "operator:type": "public", "operator:wikidata": "Q668687", "ref": "4202500000"}, "type": "Feature"}
{"geometry": {"coordinates": [-88.357781, 36.866194], "type": "Point"}, "id": "qqzsDO-_gQWJjMq1yTFFo6RjZa8=", "properties": {"@source_uri": "https://tools.usps.com/UspsToolsRestServices/rest/POLocator/findLocations", "@spider": "usps_collection_boxes", "addr:city": "BENTON", "addr:country": "US", "addr:postcode": "42025", "addr:state": "KY", "addr:street_address": "219 W 5TH ST", "amenity": "post_box", "collection_times": "Mo-Fr 16:00; Sa 14:00", "note": "ON 12/24 AND 12/31, THIS BOX MAY BE COLLECTED AS EARLY AS 12 NOON.", "nsi_id": "unitedstatespostalservice-a77078", "operator": "United States Postal Service", "operator:short": "USPS", "operator:type": "public", "operator:wikidata": "Q668687", "ref": "4202500001"}, "type": "Feature"}
{"geometry": {"coordinates": [-88.3506507, 36.858119], "type": "Point"}, "id": "x4o5TI4vLr20LcnXUb1yB0qvwBo=", "properties": {"@source_uri": "https://tools.usps.com/UspsToolsRestServices/rest/POLocator/findLocations", "@spider": "usps_collection_boxes", "addr:city": "BENTON", "addr:country": "US", "addr:postcode": "42025", "addr:state": "KY", "addr:street_address": "1009 MAIN ST", "amenity": "post_box", "collection_times": "Mo-Fr 14:30; Sa 14:00", "note": "ON 12/24 AND 12/31, THIS BOX MAY BE COLLECTED AS EARLY AS 12 NOON.", "nsi_id": "unitedstatespostalservice-a77078", "operator": "United States Postal Service", "operator:short": "USPS", "operator:type": "public", "operator:wikidata": "Q668687", "ref": "4202500002"}, "type": "Feature"}
{"geometry": {"coordinates": [-88.3503758, 36.857282], "type": "Point"}, "id": "FPZzIQ6Y7asi08qnStRkNT9qQ9M=", "properties": {"@source_uri": "https://tools.usps.com/UspsToolsRestServices/rest/POLocator/findLocations", "@spider": "usps_collection_boxes", "addr:city": "BENTON", "addr:country": "US", "addr:postcode": "42025", "addr:state": "KY", "addr:street_address": "1101 MAIN ST", "amenity": "post_box", "collection_times": "Mo-Fr 14:30; Sa 14:00", "note": "ON 12/24 AND 12/31, THIS BOX MAY BE COLLECTED AS EARLY AS 12 NOON.", "nsi_id": "unitedstatespostalservice-a77078", "operator": "United States Postal Service", "operator:short": "USPS", "operator:type": "public", "operator:wikidata": "Q668687", "ref": "4202500003"}, "type": "Feature"}
{"geometry": {"coordinates": [-88.3439364, 36.925501], "type": "Point"}, "id": "QE_fpxJ5P5BU2NDO2f33apd5zI8=", "properties": {"@source_uri": "https://tools.usps.com/UspsToolsRestServices/rest/POLocator/findLocations", "@spider": "usps_collection_boxes", "addr:city": "BENTON", "addr:country": "US", "addr:postcode": "42025", "addr:state": "KY", "addr:street_address": "23 US HIGHWAY 68 W", "amenity": "post_box", "collection_times": "Mo-Sa 10:00", "nsi_id": "unitedstatespostalservice-a77078", "operator": "United States Postal Service", "operator:short": "USPS", "operator:type": "public", "operator:wikidata": "Q668687", "ref": "4202500007"}, "type": "Feature"}
{"geometry": {"coordinates": [-88.3576528883, 36.8661395304], "type": "Point"}, "id": "FqcEnPIc0kdlultSWEQcDMO-Bm4=", "properties": {"@source_uri": "https://tools.usps.com/UspsToolsRestServices/rest/POLocator/findLocations", "@spider": "usps_collection_boxes", "addr:city": "BENTON", "addr:country": "US", "addr:postcode": "42025", "addr:state": "KY", "addr:street_address": "219 W 5TH ST", "amenity": "post_box", "collection_times": "Mo-Fr 16:30; Sa 12:00", "indoor": "yes", "note": "ON 12/24 AND 12/31, THIS BOX MAY BE COLLECTED AS EARLY AS 12 NOON.", "nsi_id": "unitedstatespostalservice-a77078", "operator": "United States Postal Service", "operator:short": "USPS", "operator:type": "public", "operator:wikidata": "Q668687", "ref": "4202500014"}, "type": "Feature"}
{"geometry": {"coordinates": [-88.628074008, 36.884971246], "type": "Point"}, "id": "39KhBx7_Yz1YKY4hejLmFWtqEtA=", "properties": {"@source_uri": "https://tools.usps.com/UspsToolsRestServices/rest/POLocator/findLocations", "@spider": "usps_collection_boxes", "addr:city": "BOAZ", "addr:country": "US", "addr:postcode": "42027", "addr:state": "KY", "addr:street_address": "1970 MCCRACKEN COUNTY RD", "amenity": "post_box", "collection_times": "Mo-Fr 15:00; Sa 09:30", "note": "ON 12/24 AND 12/31, THIS BOX MAY BE COLLECTED AS EARLY AS 12 NOON.", "nsi_id": "unitedstatespostalservice-a77078", "operator": "United States Postal Service", "operator:short": "USPS", "operator:type": "public", "operator:wikidata": "Q668687", "ref": "4202700000"}, "type": "Feature"}
{"geometry": {"coordinates": [-88.628074008, 36.884971246], "type": "Point"}, "id": "IlZz0d_RbTth-h3rrg5h822YD9k=", "properties": {"@source_uri": "https://tools.usps.com/UspsToolsRestServices/rest/POLocator/findLocations", "@spider": "usps_collection_boxes", "addr:city": "BOAZ", "addr:country": "US", "addr:postcode": "42027", "addr:state": "KY", "addr:street_address": "1970 MCCRACKEN COUNTY RD", "amenity": "post_box", "collection_times": "Mo-Fr 15:00; Sa 09:30", "indoor": "yes", "note": "ON 12/24 AND 12/31, THIS BOX MAY BE COLLECTED AS EARLY AS 12 NOON.", "nsi_id": "unitedstatespostalservice-a77078", "operator": "United States Postal Service", "operator:short": "USPS", "operator:type": "public", "operator:wikidata": "Q668687", "ref": "4202700002"}, "type": "Feature"}
{"geometry": {"coordinates": [-88.628074008, 36.884971246], "type": "Point"}, "id": "GZuF40RduD4VqzK2GlODZu3gIJE=", "properties": {"@source_uri": "https://tools.usps.com/UspsToolsRestServices/rest/POLocator/findLocations", "@spider": "usps_collection_boxes", "addr:city": "BOAZ", "addr:country": "US", "addr:postcode": "42027", "addr:state": "KY", "addr:street_address": "1970 MCCRACKEN COUNTY RD", "amenity": "post_box", "collection_times": "Mo-Fr 15:00; Sa 09:30", "indoor": "yes", "note": "ON 12/24 AND 12/31, THIS BOX MAY BE COLLECTED AS EARLY AS 12 NOON.", "nsi_id": "unitedstatespostalservice-a77078", "operator": "United States Postal Service", "operator:short": "USPS", "operator:type": "public", "operator:wikidata": "Q668687", "ref": "4202700004"}, "type": "Feature"}
{"geometry": {"coordinates": [-88.375691118, 37.232739663], "type": "Point"}, "id": "yP9QRWQ6VcGvo49w57fo5ilJAt0=", "properties": {"@source_uri": "https://tools.usps.com/UspsToolsRestServices/rest/POLocator/findLocations", "@spider": "usps_collection_boxes", "addr:city": "BURNA", "addr:country": "US", "addr:postcode": "42028", "addr:state": "KY", "addr:street_address": "1499 US HIGHWAY 60 E", "amenity": "post_box", "collection_times": "Mo-Fr 13:45; Sa 12:45", "note": "ON 12/24 AND 12/31, THIS BOX MAY BE COLLECTED AS EARLY AS 12 NOON.", "nsi_id": "unitedstatespostalservice-a77078", "operator": "United States Postal Service", "operator:short": "USPS", "operator:type": "public", "operator:wikidata": "Q668687", "ref": "4202800000"}, "type": "Feature"}
{"geometry": {"coordinates": [-88.375691118, 37.232739663], "type": "Point"}, "id": "t4FiJhpIulnudGD7pzlrqcu5898=", "properties": {"@source_uri": "https://tools.usps.com/UspsToolsRestServices/rest/POLocator/findLocations", "@spider": "usps_collection_boxes", "addr:city": "BURNA", "addr:country": "US", "addr:postcode": "42028", "addr:state": "KY", "addr:street_address": "1499 US HIGHWAY 60 E", "amenity": "post_box", "collection_times": "Mo-Fr 13:45; Sa 12:45", "indoor": "yes", "note": "ON 12/24 AND 12/31, THIS BOX MAY BE COLLECTED AS EARLY AS 12 NOON.", "nsi_id": "unitedstatespostalservice-a77078", "operator": "United States Postal Service", "operator:short": "USPS", "operator:type": "public", "operator:wikidata": "Q668687", "ref": "4202800001"}, "type": "Feature"}
{"geometry": {"coordinates": [-88.375691118, 37.232739663], "type": "Point"}, "id": "y0ZDdDopB2sgh0puxbupEGFCulg=", "properties": {"@source_uri": "https://tools.usps.com/UspsToolsRestServices/rest/POLocator/findLocations", "@spider": "usps_collection_boxes", "addr:city": "BURNA", "addr:country": "US", "addr:postcode": "42028", "addr:state": "KY", "addr:street_address": "1499 US HIGHWAY 60 E", "amenity": "post_box", "collection_times": "Mo-Fr 13:45; Sa 12:45", "indoor": "yes", "note": "ON 12/24 AND 12/31, THIS BOX MAY BE COLLECTED AS EARLY AS 12 NOON.", "nsi_id": "unitedstatespostalservice-a77078", "operator": "United States Postal Service", "operator:short": "USPS", "operator:type": "public", "operator:wikidata": "Q668687", "ref": "4202800004"}, "type": "Feature"}
{"geometry": {"coordinates": [-88.34942, 37.026835], "type": "Point"}, "id": "D-oc-tcAECLEiyO4-E5HQuXA59w=", "properties": {"@source_uri": "https://tools.usps.com/UspsToolsRestServices/rest/POLocator/findLocations", "@spider": "usps_collection_boxes", "addr:city": "CALVERT CITY", "addr:country": "US", "addr:postcode": "42029", "addr:state": "KY", "addr:street_address": "134 E 5TH AVE", "amenity": "post_box", "collection_times": "Mo-Fr 15:30; Sa 10:15", "note": "ON 12/24 AND 12/31, THIS BOX MAY BE COLLECTED AS EARLY AS 12 NOON.", "nsi_id": "unitedstatespostalservice-a77078", "operator": "United States Postal Service", "operator:short": "USPS", "operator:type": "public", "operator:wikidata": "Q668687", "ref": "4202900000"}, "type": "Feature"}
{"geometry": {"coordinates": [-88.349487, 37.026872], "type": "Point"}, "id": "xgvMvHwUO6n0_fmslPWXIjqGu70=", "properties": {"@source_uri": "https://tools.usps.com/UspsToolsRestServices/rest/POLocator/findLocations", "@spider": "usps_collection_boxes", "addr:city": "CALVERT CITY", "addr:country": "US", "addr:postcode": "42029", "addr:state": "KY", "addr:street_address": "134 E 5TH AVE", "amenity": "post_box", "collection_times": "Mo-Fr 15:30; Sa 10:15", "indoor": "yes", "note": "ON 12/24 AND 12/31, THIS BOX MAY BE COLLECTED AS EARLY AS 12 NOON.", "nsi_id": "unitedstatespostalservice-a77078", "operator": "United States Postal Service", "operator:short": "USPS", "operator:type": "public", "operator:wikidata": "Q668687", "ref": "4202900002"}, "type": "Feature"}
{"geometry": {"coordinates": [-88.349487, 37.026872], "type": "Point"}, "id": "kcA2O7b5p2TL6Bj6mh7urg0sAOU=", "properties": {"@source_uri": "https://tools.usps.com/UspsToolsRestServices/rest/POLocator/findLocations", "@spider": "usps_collection_boxes", "addr:city": "CALVERT CITY", "addr:country": "US", "addr:postcode": "42029", "addr:state": "KY", "addr:street_address": "134 E 5TH AVE", "amenity": "post_box", "collection_times": "Mo-Fr 15:30; Sa 10:15", "indoor": "yes", "note": "ON 12/24 AND 12/31, THIS BOX MAY BE COLLECTED AS EARLY AS 12 NOON.", "nsi_id": "unitedstatespostalservice-a77078", "operator": "United States Postal Service", "operator:short": "USPS", "operator:type": "public", "operator:wikidata": "Q668687", "ref": "4202900004"}, "type": "Feature"}
{"geometry": {"coordinates": [-88.3496536336, 37.0268596555], "type": "Point"}, "id": "PIOMXWK4fopjQvDpblY-Bk2H7bA=", "properties": {"@source_uri": "https://tools.usps.com/UspsToolsRestServices/rest/POLocator/findLocations", "@spider": "usps_collection_boxes", "addr:city": "CALVERT CITY", "addr:country": "US", "addr:postcode": "42029", "addr:state": "KY", "addr:street_address": "134 E 5TH AVE", "amenity": "post_box", "collection_times": "Mo-Fr 15:30; Sa 10:15", "indoor": "yes", "note": "ON 12/24 AND 12/31, THIS BOX MAY BE COLLECTED AS EARLY AS 12 NOON.", "nsi_id": "unitedstatespostalservice-a77078", "operator": "United States Postal Service", "operator:short": "USPS", "operator:type": "public", "operator:wikidata": "Q668687", "ref": "4202900008"}, "type": "Feature"}
{"geometry": {"coordinates": [-88.993668411, 36.664984863], "type": "Point"}, "id": "cNcc9hCZucTZiyWTw9_hvfFwwIE=", "properties": {"@source_uri": "https://tools.usps.com/UspsToolsRestServices/rest/POLocator/findLocations", "@spider": "usps_collection_boxes", "addr:city": "CLINTON", "addr:country": "US", "addr:postcode": "42031", "addr:state": "KY", "addr:street_address": "304 S WASHINGTON ST", "amenity": "post_box", "collection_times": "Mo-Fr 16:00; Sa 12:00", "indoor": "yes", "note": "ON 12/24 AND 12/31, THIS BOX MAY BE COLLECTED AS EARLY AS 12 NOON.", "nsi_id": "unitedstatespostalservice-a77078", "operator": "United States Postal Service", "operator:short": "USPS", "operator:type": "public", "operator:wikidata": "Q668687", "ref": "4203100000"}, "type": "Feature"}
{"geometry": {"coordinates": [-88.989237, 36.6651981], "type": "Point"}, "id": "XcLQYgOlD5LGYfIdGxO4LwRjCGc=", "properties": {"@source_uri": "https://tools.usps.com/UspsToolsRestServices/rest/POLocator/findLocations", "@spider": "usps_collection_boxes", "addr:city": "CLINTON", "addr:country": "US", "addr:postcode": "42031", "addr:state": "KY", "addr:street_address": "115 E CLAY ST", "amenity": "post_box", "collection_times": "Mo-Sa 12:15", "note": "ON 12/24 AND 12/31, THIS BOX MAY BE COLLECTED AS EARLY AS 12 NOON.", "nsi_id": "unitedstatespostalservice-a77078", "operator": "United States Postal Service", "operator:short": "USPS", "operator:type": "public", "operator:wikidata": "Q668687", "ref": "4203100001"}, "type": "Feature"}
{"geometry": {"coordinates": [-88.993668411, 36.664984863], "type": "Point"}, "id": "f7pejxuReuEuoEQg3pIGpDKAdgs=", "properties": {"@source_uri": "https://tools.usps.com/UspsToolsRestServices/rest/POLocator/findLocations", "@spider": "usps_collection_boxes", "addr:city": "CLINTON", "addr:country": "US", "addr:postcode": "42031", "addr:state": "KY", "addr:street_address": "304 S WASHINGTON ST", "amenity": "post_box", "collection_times": "Mo-Sa 15:45", "note": "ON 12/24 AND 12/31, THIS BOX MAY BE COLLECTED AS EARLY AS 12 NOON.", "nsi_id": "unitedstatespostalservice-a77078", "operator": "United States Postal Service", "operator:short": "USPS", "operator:type": "public", "operator:wikidata": "Q668687", "ref": "4203100006"}, "type": "Feature"}
{"geometry": {"coordinates": [-88.993668411, 36.664984863], "type": "Point"}, "id": "0oeUHFgkO5NRn7oIIkhV8WFaiAE=", "properties": {"@source_uri": "https://tools.usps.com/UspsToolsRestServices/rest/POLocator/findLocations", "@spider": "usps_collection_boxes", "addr:city": "CLINTON", "addr:country": "US", "addr:postcode": "42031", "addr:state": "KY", "addr:street_address": "304 S WASHINGTON ST", "amenity": "post_box", "collection_times": "Mo-Fr 16:00; Sa 12:00", "indoor": "yes", "note": "ON 12/24 AND 12/31, THIS BOX MAY BE COLLECTED AS EARLY AS 12 NOON.", "nsi_id": "unitedstatespostalservice-a77078", "operator": "United States Postal Service", "operator:short": "USPS", "operator:type": "public", "operator:wikidata": "Q668687", "ref": "4203100008"}, "type": "Feature"}
{"geometry": {"coordinates": [-89.104211479, 36.75829323], "type": "Point"}, "id": "qpRDdRaPq_1CqD_gU7xOfZ7bzus=", "properties": {"@source_uri": "https://tools.usps.com/UspsToolsRestServices/rest/POLocator/findLocations", "@spider": "usps_collection_boxes", "addr:city": "COLUMBUS", "addr:country": "US", "addr:postcode": "42032", "addr:state": "KY", "addr:street_address": "55 E HOOVER PKWY", "amenity": "post_box", "collection_times": "Mo-Fr 11:30; Sa 11:15", "nsi_id": "unitedstatespostalservice-a77078", "operator": "United States Postal Service", "operator:short": "USPS", "operator:type": "public", "operator:wikidata": "Q668687", "ref": "4203200000"}, "type": "Feature"}
{"geometry": {"coordinates": [-89.104211479, 36.75829323], "type": "Point"}, "id": "7qqv7BiNHz_v6D2jovG-nVPJ3mE=", "properties": {"@source_uri": "https://tools.usps.com/UspsToolsRestServices/rest/POLocator/findLocations", "@spider": "usps_collection_boxes", "addr:city": "COLUMBUS", "addr:country": "US", "addr:postcode": "42032", "addr:state": "KY", "addr:street_address": "55 E HOOVER PKWY", "amenity": "post_box", "collection_times": "Mo-Fr 11:30; Sa 11:15", "indoor": "yes", "nsi_id": "unitedstatespostalservice-a77078", "operator": "United States Postal Service", "operator:short": "USPS", "operator:type": "public", "operator:wikidata": "Q668687", "ref": "4203200001"}, "type": "Feature"}
{"geometry": {"coordinates": [-89.104211479, 36.75829323], "type": "Point"}, "id": "48YwTN2u9joJsmJMqWX3WHC4Q0Q=", "properties": {"@source_uri": "https://tools.usps.com/UspsToolsRestServices/rest/POLocator/findLocations", "@spider": "usps_collection_boxes", "addr:city": "COLUMBUS", "addr:country": "US", "addr:postcode": "42032", "addr:state": "KY", "addr:street_address": "55 E HOOVER PKWY", "amenity": "post_box", "collection_times": "Mo-Fr 12:00; Sa 11:30", "indoor": "yes", "nsi_id": "unitedstatespostalservice-a77078", "operator": "United States Postal Service", "operator:short": "USPS", "operator:type": "public", "operator:wikidata": "Q668687", "ref": "4203200003"}, "type": "Feature"}
{"geometry": {"coordinates": [-88.082536194, 37.26932113], "type": "Point"}, "id": "IIsadd0lilQvkvb-pYf6Lh5ZpjY=", "properties": {"@source_uri": "https://tools.usps.com/UspsToolsRestServices/rest/POLocator/findLocations", "@spider": "usps_collection_boxes", "addr:city": "CRAYNE", "addr:country": "US", "addr:postcode": "42033", "addr:state": "KY", "addr:street_address": "4577 US HIGHWAY 641", "amenity": "post_box", "collection_times": "Mo-Fr 12:45; Sa 10:30", "note": "ON 12/24 AND 12/31, THIS BOX MAY BE COLLECTED AS EARLY AS 12 NOON.", "nsi_id": "unitedstatespostalservice-a77078", "operator": "United States Postal Service", "operator:short": "USPS", "operator:type": "public", "operator:wikidata": "Q668687", "ref": "4203300000"}, "type": "Feature"}
{"geometry": {"coordinates": [-88.082536194, 37.26932113], "type": "Point"}, "id": "OMgdAtm6_ppoxqfCiRTFqEweXsw=", "properties": {"@source_uri": "https://tools.usps.com/UspsToolsRestServices/rest/POLocator/findLocations", "@spider": "usps_collection_boxes", "addr:city": "CRAYNE", "addr:country": "US", "addr:postcode": "42033", "addr:state": "KY", "addr:street_address": "4577 US HIGHWAY 641", "amenity": "post_box", "collection_times": "Mo-Fr 12:45; Sa 10:30", "indoor": "yes", "note": "ON 12/24 AND 12/31, THIS BOX MAY BE COLLECTED AS EARLY AS 12 NOON.", "nsi_id": "unitedstatespostalservice-a77078", "operator": "United States Postal Service", "operator:short": "USPS", "operator:type": "public", "operator:wikidata": "Q668687", "ref": "4203300001"}, "type": "Feature"}
{"geometry": {"coordinates": [-88.082536194, 37.26932113], "type": "Point"}, "id": "Bj_TVcyHJZU04HSSyrrAGj9BDJU=", "properties": {"@source_uri": "https://tools.usps.com/UspsToolsRestServices/rest/POLocator/findLocations", "@spider": "usps_collection_boxes", "addr:city": "CRAYNE", "addr:country": "US", "addr:postcode": "42033", "addr:state": "KY", "addr:street_address": "4577 US HIGHWAY 641", "amenity": "post_box", "collection_times": "Mo-Fr 12:45; Sa 10:30", "indoor": "yes", "note": "ON 12/24 AND 12/31, THIS BOX MAY BE COLLECTED AS EARLY AS 12 NOON.", "nsi_id": "unitedstatespostalservice-a77078", "operator": "United States Postal Service", "operator:short": "USPS", "operator:type": "public", "operator:wikidata": "Q668687", "ref": "4203300003"}, "type": "Feature"}
{"geometry": {"coordinates": [-88.889833, 36.908381], "type": "Point"}, "id": "iLq3TvQo0XveQXQExh9k3BuZ-2k=", "properties": {"@source_uri": "https://tools.usps.com/UspsToolsRestServices/rest/POLocator/findLocations", "@spider": "usps_collection_boxes", "addr:city": "CUNNINGHAM", "addr:country": "US", "addr:postcode": "42035", "addr:state": "KY", "addr:street_address": "54 STATE ROUTE 1820", "amenity": "post_box", "collection_times": "Mo-Fr 11:45; Sa 11:30", "nsi_id": "unitedstatespostalservice-a77078", "operator": "United States Postal Service", "operator:short": "USPS", "operator:type": "public", "operator:wikidata": "Q668687", "ref": "4203500000"}, "type": "Feature"}
{"geometry": {"coordinates": [-88.889799, 36.9083], "type": "Point"}, "id": "Dh2mxYDp94COEC_EsXbfI8ofZqw=", "properties": {"@source_uri": "https://tools.usps.com/UspsToolsRestServices/rest/POLocator/findLocations", "@spider": "usps_collection_boxes", "addr:city": "CUNNINGHAM", "addr:country": "US", "addr:postcode": "42035", "addr:state": "KY", "addr:street_address": "54 STATE ROUTE 1820", "amenity": "post_box", "collection_times": "Mo-Fr 11:45; Sa 11:30", "indoor": "yes", "nsi_id": "unitedstatespostalservice-a77078", "operator": "United States Postal Service", "operator:short": "USPS", "operator:type": "public", "operator:wikidata": "Q668687", "ref": "4203500001"}, "type": "Feature"}
{"geometry": {"coordinates": [-88.8898368769, 36.908235922], "type": "Point"}, "id": "swNlZaqOBrGJJxqW7Wx1VnmwaZE=", "properties": {"@source_uri": "https://tools.usps.com/UspsToolsRestServices/rest/POLocator/findLocations", "@spider": "usps_collection_boxes", "addr:city": "CUNNINGHAM", "addr:country": "US", "addr:postcode": "42035", "addr:state": "KY", "addr:street_address": "54 STATE ROUTE 1820", "amenity": "post_box", "collection_times": "Mo-Fr 11:45; Sa 11:30", "indoor": "yes", "nsi_id": "unitedstatespostalservice-a77078", "operator": "United States Postal Service", "operator:short": "USPS", "operator:type": "public", "operator:wikidata": "Q668687", "ref": "4203500004"}, "type": "Feature"}
{"geometry": {"coordinates": [-88.2968062, 36.740974492], "type": "Point"}, "id": "bJ02h_b0dQyl9qkTc_HoljMwlwE=", "properties": {"@source_uri": "https://tools.usps.com/UspsToolsRestServices/rest/POLocator/findLocations", "@spider": "usps_collection_boxes", "addr:city": "DEXTER", "addr:country": "US", "addr:postcode": "42036", "addr:state": "KY", "addr:street_address": "4580 RADIO RD", "amenity": "post_box", "collection_times": "Mo-Fr 13:45; Sa 12:45", "note": "ON 12/24 AND 12/31, THIS BOX MAY BE COLLECTED AS EARLY AS 12 NOON.", "nsi_id": "unitedstatespostalservice-a77078", "operator": "United States Postal Service", "operator:short": "USPS", "operator:type": "public", "operator:wikidata": "Q668687", "ref": "4203600000"}, "type": "Feature"}
{"geometry": {"coordinates": [-88.2968062, 36.740974492], "type": "Point"}, "id": "SCBQxxVj2CN9bTiWDWIuKZW9Cs0=", "properties": {"@source_uri": "https://tools.usps.com/UspsToolsRestServices/rest/POLocator/findLocations", "@spider": "usps_collection_boxes", "addr:city": "DEXTER", "addr:country": "US", "addr:postcode": "42036", "addr:state": "KY", "addr:street_address": "4580 RADIO RD", "amenity": "post_box", "collection_times": "Mo-Fr 13:45; Sa 12:45", "indoor": "yes", "note": "ON 12/24 AND 12/31, THIS BOX MAY BE COLLECTED AS EARLY AS 12 NOON.", "nsi_id": "unitedstatespostalservice-a77078", "operator": "United States Postal Service", "operator:short": "USPS", "operator:type": "public", "operator:wikidata": "Q668687", "ref": "4203600001"}, "type": "Feature"}
{"geometry": {"coordinates": [-88.2968062, 36.740974492], "type": "Point"}, "id": "p5vmMoDqFtFPOO6wWENHjgjnO4I=", "properties": {"@source_uri": "https://tools.usps.com/UspsToolsRestServices/rest/POLocator/findLocations", "@spider": "usps_collection_boxes", "addr:city": "DEXTER", "addr:country": "US", "addr:postcode": "42036", "addr:state": "KY", "addr:street_address": "4580 RADIO RD", "amenity": "post_box", "collection_times": "Mo-Fr 13:45; Sa 12:45", "indoor": "yes", "note": "ON 12/24 AND 12/31, THIS BOX MAY BE COLLECTED AS EARLY AS 12 NOON.", "nsi_id": "unitedstatespostalservice-a77078", "operator": "United States Postal Service", "operator:short": "USPS", "operator:type": "public", "operator:wikidata": "Q668687", "ref": "4203600003"}, "type": "Feature"}
{"geometry": {"coordinates": [-88.185408267, 37.159311495], "type": "Point"}, "id": "T0PPwu28uaV9EXDtC1ZaMGXTINI=", "properties": {"@source_uri": "https://tools.usps.com/UspsToolsRestServices/rest/POLocator/findLocations", "@spider": "usps_collection_boxes", "addr:city": "DYCUSBURG", "addr:country": "US", "addr:postcode": "42037", "addr:state": "KY", "addr:street_address": "9699 STATE ROUTE 70", "amenity": "post_box", "collection_times": "Mo-Fr 08:00; Sa 09:00", "nsi_id": "unitedstatespostalservice-a77078", "operator": "United States Postal Service", "operator:short": "USPS", "operator:type": "public", "operator:wikidata": "Q668687", "ref": "4203700000"}, "type": "Feature"}
{"geometry": {"coordinates": [-88.084332582, 37.089938992], "type": "Point"}, "id": "-zyTXWS3cU2XtwxGJi20dNm7DQs=", "properties": {"@source_uri": "https://tools.usps.com/UspsToolsRestServices/rest/POLocator/findLocations", "@spider": "usps_collection_boxes", "addr:city": "EDDYVILLE", "addr:country": "US", "addr:postcode": "42038", "addr:state": "KY", "addr:street_address": "144 COMMERCE ST", "amenity": "post_box", "collection_times": "Mo-Fr 16:00; Sa 12:00", "note": "ON 12/24 AND 12/31, THIS BOX MAY BE COLLECTED AS EARLY AS 12 NOON.", "nsi_id": "unitedstatespostalservice-a77078", "operator": "United States Postal Service", "operator:short": "USPS", "operator:type": "public", "operator:wikidata": "Q668687", "ref": "4203800000"}, "type": "Feature"}
{"geometry": {"coordinates": [-88.084332582, 37.089938992], "type": "Point"}, "id": "7iDE0mbbQyrNzVuEOafbGi9lFbA=", "properties": {"@source_uri": "https://tools.usps.com/UspsToolsRestServices/rest/POLocator/findLocations", "@spider": "usps_collection_boxes", "addr:city": "EDDYVILLE", "addr:country": "US", "addr:postcode": "42038", "addr:state": "KY", "addr:street_address": "144 COMMERCE ST", "amenity": "post_box", "collection_times": "Mo-Fr 16:00; Sa 12:00", "indoor": "yes", "note": "ON 12/24 AND 12/31, THIS BOX MAY BE COLLECTED AS EARLY AS 12 NOON.", "nsi_id": "unitedstatespostalservice-a77078", "operator": "United States Postal Service", "operator:short": "USPS", "operator:type": "public", "operator:wikidata": "Q668687", "ref": "4203800002"}, "type": "Feature"}
{"geometry": {"coordinates": [-88.084332582, 37.089938992], "type": "Point"}, "id": "MQU9LoyeO4_Af8SNk5rqnnp_dYs=", "properties": {"@source_uri": "https://tools.usps.com/UspsToolsRestServices/rest/POLocator/findLocations", "@spider": "usps_collection_boxes", "addr:city": "EDDYVILLE", "addr:country": "US", "addr:postcode": "42038", "addr:state": "KY", "addr:street_address": "144 COMMERCE ST", "amenity": "post_box", "collection_times": "Mo-Fr 16:00; Sa 12:00", "indoor": "yes", "note": "ON 12/24 AND 12/31, THIS BOX MAY BE COLLECTED AS EARLY AS 12 NOON.", "nsi_id": "unitedstatespostalservice-a77078", "operator": "United States Postal Service", "operator:short": "USPS", "operator:type": "public", "operator:wikidata": "Q668687", "ref": "4203800004"}, "type": "Feature"}
{"geometry": {"coordinates": [-88.791699139, 36.798469771], "type": "Point"}, "id": "Fbdv58il_yfvN79GmvxY4hJFaAo=", "properties": {"@source_uri": "https://tools.usps.com/UspsToolsRestServices/rest/POLocator/findLocations", "@spider": "usps_collection_boxes", "addr:city": "FANCY FARM", "addr:country": "US", "addr:postcode": "42039", "addr:state": "KY", "addr:street_address": "23 STATE ROUTE 339 S", "amenity": "post_box", "collection_times": "Mo-Fr 15:30; Sa 10:45", "note": "ON 12/24 AND 12/31, THIS BOX MAY BE COLLECTED AS EARLY AS 12 NOON.", "nsi_id": "unitedstatespostalservice-a77078", "operator": "United States Postal Service", "operator:short": "USPS", "operator:type": "public", "operator:wikidata": "Q668687", "ref": "4203900000"}, "type": "Feature"}
{"geometry": {"coordinates": [-88.791699139, 36.798469771], "type": "Point"}, "id": "rvcgRJE4nMr6Lbe74tzkonYQ-Gk=", "properties": {"@source_uri": "https://tools.usps.com/UspsToolsRestServices/rest/POLocator/findLocations", "@spider": "usps_collection_boxes", "addr:city": "FANCY FARM", "addr:country": "US", "addr:postcode": "42039", "addr:state": "KY", "addr:street_address": "23 STATE ROUTE 339 S", "amenity": "post_box", "collection_times": "Mo-Fr 15:30; Sa 10:45", "indoor": "yes", "note": "ON 12/24 AND 12/31, THIS BOX MAY BE COLLECTED AS EARLY AS 12 NOON.", "nsi_id": "unitedstatespostalservice-a77078", "operator": "United States Postal Service", "operator:short": "USPS", "operator:type": "public", "operator:wikidata": "Q668687", "ref": "4203900001"}, "type": "Feature"}
{"geometry": {"coordinates": [-88.791699139, 36.798469771], "type": "Point"}, "id": "9JQl4FIGa_xhN1D1_MEoDeEfTM0=", "properties": {"@source_uri": "https://tools.usps.com/UspsToolsRestServices/rest/POLocator/findLocations", "@spider": "usps_collection_boxes", "addr:city": "FANCY FARM", "addr:country": "US", "addr:postcode": "42039", "addr:state": "KY", "addr:street_address": "23 STATE ROUTE 339 S", "amenity": "post_box", "collection_times": "Mo-Fr 15:30; Sa 11:00", "indoor": "yes", "note": "ON 12/24 AND 12/31, THIS BOX MAY BE COLLECTED AS EARLY AS 12 NOON.", "nsi_id": "unitedstatespostalservice-a77078", "operator": "United States Postal Service", "operator:short": "USPS", "operator:type": "public", "operator:wikidata": "Q668687", "ref": "4203900004"}, "type": "Feature"}
{"geometry": {"coordinates": [-88.525367522, 36.669619778], "type": "Point"}, "id": "ivUZrJpX1DruGt1C84qOovVD-uM=", "properties": {"@source_uri": "https://tools.usps.com/UspsToolsRestServices/rest/POLocator/findLocations", "@spider": "usps_collection_boxes", "addr:city": "FARMINGTON", "addr:country": "US", "addr:postcode": "42040", "addr:state": "KY", "addr:street_address": "8406 STATE ROUTE 121 S", "amenity": "post_box", "collection_times": "Mo-Fr 13:45; Sa 11:45", "note": "ON 12/24 AND 12/31, THIS BOX MAY BE COLLECTED AS EARLY AS 12 NOON.", "nsi_id": "unitedstatespostalservice-a77078", "operator": "United States Postal Service", "operator:short": "USPS", "operator:type": "public", "operator:wikidata": "Q668687", "ref": "4204000000"}, "type": "Feature"}
{"geometry": {"coordinates": [-88.525367522, 36.669619778], "type": "Point"}, "id": "3OyOWTI0uFTSaW30SbKQwQMb-rs=", "properties": {"@source_uri": "https://tools.usps.com/UspsToolsRestServices/rest/POLocator/findLocations", "@spider": "usps_collection_boxes", "addr:city": "FARMINGTON", "addr:country": "US", "addr:postcode": "42040", "addr:state": "KY", "addr:street_address": "8406 STATE ROUTE 121 S", "amenity": "post_box", "collection_times": "Mo-Fr 13:45; Sa 11:45", "indoor": "yes", "note": "ON 12/24 AND 12/31, THIS BOX MAY BE COLLECTED AS EARLY AS 12 NOON.", "nsi_id": "unitedstatespostalservice-a77078", "operator": "United States Postal Service", "operator:short": "USPS", "operator:type": "public", "operator:wikidata": "Q668687", "ref": "4204000001"}, "type": "Feature"}
{"geometry": {"coordinates": [-88.525367522, 36.669619778], "type": "Point"}, "id": "WooVgUKLWp-1Ix3HPzk67bP8vmI=", "properties": {"@source_uri": "https://tools.usps.com/UspsToolsRestServices/rest/POLocator/findLocations", "@spider": "usps_collection_boxes", "addr:city": "FARMINGTON", "addr:country": "US", "addr:postcode": "42040", "addr:state": "KY", "addr:street_address": "8406 STATE ROUTE 121 S", "amenity": "post_box", "collection_times": "Mo-Fr 13:45; Sa 11:45", "indoor": "yes", "note": "ON 12/24 AND 12/31, THIS BOX MAY BE COLLECTED AS EARLY AS 12 NOON.", "nsi_id": "unitedstatespostalservice-a77078", "operator": "United States Postal Service", "operator:short": "USPS", "operator:type": "public", "operator:wikidata": "Q668687", "ref": "4204000004"}, "type": "Feature"}
{"geometry": {"coordinates": [-88.87242281, 36.504093871], "type": "Point"}, "id": "c3UKKH38mMcxFnWbeP2jrYXsEyw=", "properties": {"@source_uri": "https://tools.usps.com/UspsToolsRestServices/rest/POLocator/findLocations", "@spider": "usps_collection_boxes", "addr:city": "FULTON", "addr:country": "US", "addr:postcode": "42041", "addr:state": "KY", "addr:street_address": "416 WALNUT ST", "amenity": "post_box", "collection_times": "Mo-Fr 16:30; Sa 15:45", "note": "ON 12/24 AND 12/31, THIS BOX MAY BE COLLECTED AS EARLY AS 12 NOON.", "nsi_id": "unitedstatespostalservice-a77078", "operator": "United States Postal Service", "operator:short": "USPS", "operator:type": "public", "operator:wikidata": "Q668687", "ref": "4204100000"}, "type": "Feature"}
{"geometry": {"coordinates": [-88.8762568, 36.491741], "type": "Point"}, "id": "H-FvZJA9pLFiD4ghTytekkXURGg=", "properties": {"@source_uri": "https://tools.usps.com/UspsToolsRestServices/rest/POLocator/findLocations", "@spider": "usps_collection_boxes", "addr:city": "FULTON", "addr:country": "US", "addr:postcode": "42041", "addr:state": "KY", "addr:street_address": "700 MILTON COUNCE RD", "amenity": "post_box", "collection_times": "Mo-Sa 12:00", "nsi_id": "unitedstatespostalservice-a77078", "operator": "United States Postal Service", "operator:short": "USPS", "operator:type": "public", "operator:wikidata": "Q668687", "ref": "4204100003"}, "type": "Feature"}
{"geometry": {"coordinates": [-88.8759699, 36.503786], "type": "Point"}, "id": "qNLxyZEaz4xybFTMQXmnF2p72hQ=", "properties": {"@source_uri": "https://tools.usps.com/UspsToolsRestServices/rest/POLocator/findLocations", "@spider": "usps_collection_boxes", "addr:city": "FULTON", "addr:country": "US", "addr:postcode": "42041", "addr:state": "KY", "addr:street_address": "306 LAKE ST", "amenity": "post_box", "collection_times": "Mo-Sa 12:00", "nsi_id": "unitedstatespostalservice-a77078", "operator": "United States Postal Service", "operator:short": "USPS", "operator:type": "public", "operator:wikidata": "Q668687", "ref": "4204100010"}, "type": "Feature"}
{"geometry": {"coordinates": [-88.87242281, 36.504093871], "type": "Point"}, "id": "wFGH48PMVBfNx1RiFx4IktIRZDc=", "properties": {"@source_uri": "https://tools.usps.com/UspsToolsRestServices/rest/POLocator/findLocations", "@spider": "usps_collection_boxes", "addr:city": "FULTON", "addr:country": "US", "addr:postcode": "42041", "addr:state": "KY", "addr:street_address": "416 WALNUT ST", "amenity": "post_box", "collection_times": "Mo-Fr 16:30; Sa 15:45", "indoor": "yes", "note": "ON 12/24 AND 12/31, THIS BOX MAY BE COLLECTED AS EARLY AS 12 NOON.", "nsi_id": "unitedstatespostalservice-a77078", "operator": "United States Postal Service", "operator:short": "USPS", "operator:type": "public", "operator:wikidata": "Q668687", "ref": "4204100017"}, "type": "Feature"}
{"geometry": {"coordinates": [-88.8999984, 36.516965], "type": "Point"}, "id": "MahZP7GKwoSZiDf3MqX-C32zEiY=", "properties": {"@source_uri": "https://tools.usps.com/UspsToolsRestServices/rest/POLocator/findLocations", "@spider": "usps_collection_boxes", "addr:city": "FULTON", "addr:country": "US", "addr:postcode": "42041", "addr:state": "KY", "addr:street_address": "1405 MIDDLE RD", "amenity": "post_box", "collection_times": "Mo-Sa 10:00", "nsi_id": "unitedstatespostalservice-a77078", "operator": "United States Postal Service", "operator:short": "USPS", "operator:type": "public", "operator:wikidata": "Q668687", "ref": "4204100022"}, "type": "Feature"}
{"geometry": {"coordinates": [-88.87242281, 36.504093871], "type": "Point"}, "id": "v0xZhuDUduZMaxb_efOCmQiheFQ=", "properties": {"@source_uri": "https://tools.usps.com/UspsToolsRestServices/rest/POLocator/findLocations", "@spider": "usps_collection_boxes", "addr:city": "FULTON", "addr:country": "US", "addr:postcode": "42041", "addr:state": "KY", "addr:street_address": "416 WALNUT ST", "amenity": "post_box", "collection_times": "Mo-Fr 16:30; Sa 12:00", "indoor": "yes", "note": "ON 12/24 AND 12/31, THIS BOX MAY BE COLLECTED AS EARLY AS 12 NOON.", "nsi_id": "unitedstatespostalservice-a77078", "operator": "United States Postal Service", "operator:short": "USPS", "operator:type": "public", "operator:wikidata": "Q668687", "ref": "4204100024"}, "type": "Feature"}
{"geometry": {"coordinates": [-88.289528617, 36.997453928], "type": "Point"}, "id": "ZFIj7ZBRYtGBkja2uPkgj7XzNsI=", "properties": {"@source_uri": "https://tools.usps.com/UspsToolsRestServices/rest/POLocator/findLocations", "@spider": "usps_collection_boxes", "addr:city": "GILBERTSVILLE", "addr:country": "US", "addr:postcode": "42044", "addr:state": "KY", "addr:street_address": "119 ADMINISTRATION AVE", "amenity": "post_box", "collection_times": "Mo-Fr 15:45; Sa 11:15", "note": "ON 12/24 AND 12/31, THIS BOX MAY BE COLLECTED AS EARLY AS 12 NOON.", "nsi_id": "unitedstatespostalservice-a77078", "operator": "United States Postal Service", "operator:short": "USPS", "operator:type": "public", "operator:wikidata": "Q668687", "ref": "4204400000"}, "type": "Feature"}
{"geometry": {"coordinates": [-88.289528617, 36.997453928], "type": "Point"}, "id": "pd76eroItjCBmQMpV1L10z6tHM0=", "properties": {"@source_uri": "https://tools.usps.com/UspsToolsRestServices/rest/POLocator/findLocations", "@spider": "usps_collection_boxes", "addr:city": "GILBERTSVILLE", "addr:country": "US", "addr:postcode": "42044", "addr:state": "KY", "addr:street_address": "119 ADMINISTRATION AVE", "amenity": "post_box", "collection_times": "Mo-Fr 15:45; Sa 11:15", "indoor": "yes", "note": "ON 12/24 AND 12/31, THIS BOX MAY BE COLLECTED AS EARLY AS 12 NOON.", "nsi_id": "unitedstatespostalservice-a77078", "operator": "United States Postal Service", "operator:short": "USPS", "operator:type": "public", "operator:wikidata": "Q668687", "ref": "4204400001"}, "type": "Feature"}
{"geometry": {"coordinates": [-88.289528617, 36.997453928], "type": "Point"}, "id": "zis5d4QS72iicu4H3b3JOrmLW6U=", "properties": {"@source_uri": "https://tools.usps.com/UspsToolsRestServices/rest/POLocator/findLocations", "@spider": "usps_collection_boxes", "addr:city": "GILBERTSVILLE", "addr:country": "US", "addr:postcode": "42044", "addr:state": "KY", "addr:street_address": "119 ADMINISTRATION AVE", "amenity": "post_box", "collection_times": "Mo-Fr 15:45; Sa 11:15", "indoor": "yes", "note": "ON 12/24 AND 12/31, THIS BOX MAY BE COLLECTED AS EARLY AS 12 NOON.", "nsi_id": "unitedstatespostalservice-a77078", "operator": "United States Postal Service", "operator:short": "USPS", "operator:type": "public", "operator:wikidata": "Q668687", "ref": "4204400007"}, "type": "Feature"}
{"geometry": {"coordinates": [-88.23533739, 37.003691066], "type": "Point"}, "id": "O_Kd-j6xXTw80whDGgANlrES-Ac=", "properties": {"@source_uri": "https://tools.usps.com/UspsToolsRestServices/rest/POLocator/findLocations", "@spider": "usps_collection_boxes", "addr:city": "GRAND RIVERS", "addr:country": "US", "addr:postcode": "42045", "addr:state": "KY", "addr:street_address": "1818 JH OBRYAN AVE", "amenity": "post_box", "collection_times": "Mo-Fr 14:00; Sa 11:15", "note": "ON 12/24 AND 12/31, THIS BOX MAY BE COLLECTED AS EARLY AS 12 NOON.", "nsi_id": "unitedstatespostalservice-a77078", "operator": "United States Postal Service", "operator:short": "USPS", "operator:type": "public", "operator:wikidata": "Q668687", "ref": "4204500000"}, "type": "Feature"}
{"geometry": {"coordinates": [-88.268181, 37.038288], "type": "Point"}, "id": "E3DZKgQC5vBnNHg644B-iDzUOIE=", "properties": {"@source_uri": "https://tools.usps.com/UspsToolsRestServices/rest/POLocator/findLocations", "@spider": "usps_collection_boxes", "addr:city": "GRAND RIVERS", "addr:country": "US", "addr:postcode": "42045", "addr:state": "KY", "addr:street_address": "720 COMPLEX DR", "amenity": "post_box", "collection_times": "Mo-Sa 13:00", "note": "ON 12/24 AND 12/31, THIS BOX MAY BE COLLECTED AS EARLY AS 12 NOON.", "nsi_id": "unitedstatespostalservice-a77078", "operator": "United States Postal Service", "operator:short": "USPS", "operator:type": "public", "operator:wikidata": "Q668687", "ref": "4204500001"}, "type": "Feature"}
{"geometry": {"coordinates": [-88.23533739, 37.003691066], "type": "Point"}, "id": "LkuXQnIYq5CXFBsk_GfJws77fF0=", "properties": {"@source_uri": "https://tools.usps.com/UspsToolsRestServices/rest/POLocator/findLocations", "@spider": "usps_collection_boxes", "addr:city": "GRAND RIVERS", "addr:country": "US", "addr:postcode": "42045", "addr:state": "KY", "addr:street_address": "1818 JH OBRYAN AVE", "amenity": "post_box", "collection_times": "Mo-Fr 14:00; Sa 11:15", "indoor": "yes", "note": "ON 12/24 AND 12/31, THIS BOX MAY BE COLLECTED AS EARLY AS 12 NOON.", "nsi_id": "unitedstatespostalservice-a77078", "operator": "United States Postal Service", "operator:short": "USPS", "operator:type": "public", "operator:wikidata": "Q668687", "ref": "4204500003"}, "type": "Feature"}
{"geometry": {"coordinates": [-88.23533739, 37.003691066], "type": "Point"}, "id": "zZNhrKW1gSW2GqN93S_wucVaVzc=", "properties": {"@source_uri": "https://tools.usps.com/UspsToolsRestServices/rest/POLocator/findLocations", "@spider": "usps_collection_boxes", "addr:city": "GRAND RIVERS", "addr:country": "US", "addr:postcode": "42045", "addr:state": "KY", "addr:street_address": "1818 JH OBRYAN AVE", "amenity": "post_box", "collection_times": "Mo-Fr 14:00; Sa 11:15", "indoor": "yes", "note": "ON 12/24 AND 12/31, THIS BOX MAY BE COLLECTED AS EARLY AS 12 NOON.", "nsi_id": "unitedstatespostalservice-a77078", "operator": "United States Postal Service", "operator:short": "USPS", "operator:type": "public", "operator:wikidata": "Q668687", "ref": "4204500006"}, "type": "Feature"}
{"geometry": {"coordinates": [-88.371900293, 37.282473529], "type": "Point"}, "id": "nt_7W6Et-Y1qKp-ZIArwHoO1Ob0=", "properties": {"@source_uri": "https://tools.usps.com/UspsToolsRestServices/rest/POLocator/findLocations", "@spider": "usps_collection_boxes", "addr:city": "HAMPTON", "addr:country": "US", "addr:postcode": "42047", "addr:state": "KY", "addr:street_address": "724 MAIN ST", "amenity": "post_box", "collection_times": "Mo-Fr 12:15; Sa 13:00", "note": "ON 12/24 AND 12/31, THIS BOX MAY BE COLLECTED AS EARLY AS 12 NOON.", "nsi_id": "unitedstatespostalservice-a77078", "operator": "United States Postal Service", "operator:short": "USPS", "operator:type": "public", "operator:wikidata": "Q668687", "ref": "4204700000"}, "type": "Feature"}
{"geometry": {"coordinates": [-88.371900293, 37.282473529], "type": "Point"}, "id": "ib-LXq3sMeNwvmAcBnjzirmw_50=", "properties": {"@source_uri": "https://tools.usps.com/UspsToolsRestServices/rest/POLocator/findLocations", "@spider": "usps_collection_boxes", "addr:city": "HAMPTON", "addr:country": "US", "addr:postcode": "42047", "addr:state": "KY", "addr:street_address": "724 MAIN ST", "amenity": "post_box", "collection_times": "Mo-Fr 12:15; Sa 13:00", "indoor": "yes", "note": "ON 12/24 AND 12/31, THIS BOX MAY BE COLLECTED AS EARLY AS 12 NOON.", "nsi_id": "unitedstatespostalservice-a77078", "operator": "United States Postal Service", "operator:short": "USPS", "operator:type": "public", "operator:wikidata": "Q668687", "ref": "4204700001"}, "type": "Feature"}
{"geometry": {"coordinates": [-88.371900293, 37.282473529], "type": "Point"}, "id": "q8thUNXgHLrqT24SuvtBw0wsbG4=", "properties": {"@source_uri": "https://tools.usps.com/UspsToolsRestServices/rest/POLocator/findLocations", "@spider": "usps_collection_boxes", "addr:city": "HAMPTON", "addr:country": "US", "addr:postcode": "42047", "addr:state": "KY", "addr:street_address": "724 MAIN ST", "amenity": "post_box", "collection_times": "Mo-Fr 12:15; Sa 13:00", "indoor": "yes", "note": "ON 12/24 AND 12/31, THIS BOX MAY BE COLLECTED AS EARLY AS 12 NOON.", "nsi_id": "unitedstatespostalservice-a77078", "operator": "United States Postal Service", "operator:short": "USPS", "operator:type": "public", "operator:wikidata": "Q668687", "ref": "4204700003"}, "type": "Feature"}
{"geometry": {"coordinates": [-88.295905826, 36.761741581], "type": "Point"}, "id": "Q8VMmFYj_h46R4YF-1lHkYCIbJM=", "properties": {"@source_uri": "https://tools.usps.com/UspsToolsRestServices/rest/POLocator/findLocations", "@spider": "usps_collection_boxes", "addr:city": "HARDIN", "addr:country": "US", "addr:postcode": "42048", "addr:state": "KY", "addr:street_address": "85 COMMERCE ST", "amenity": "post_box", "collection_times": "Mo-Fr 15:45; Sa 12:15", "note": "ON 12/24 AND 12/31, THIS BOX MAY BE COLLECTED AS EARLY AS 12 NOON.", "nsi_id": "unitedstatespostalservice-a77078", "operator": "United States Postal Service", "operator:short": "USPS", "operator:type": "public", "operator:wikidata": "Q668687", "ref": "4204800001"}, "type": "Feature"}
{"geometry": {"coordinates": [-88.3045086, 36.766384], "type": "Point"}, "id": "K8Wf-JUwqgU9e7vJrx6mV18Qfeo=", "properties": {"@source_uri": "https://tools.usps.com/UspsToolsRestServices/rest/POLocator/findLocations", "@spider": "usps_collection_boxes", "addr:city": "HARDIN", "addr:country": "US", "addr:postcode": "42048", "addr:state": "KY", "addr:street_address": "31 BREWERS HWY", "amenity": "post_box", "collection_times": "Mo-Sa 11:15", "nsi_id": "unitedstatespostalservice-a77078", "operator": "United States Postal Service", "operator:short": "USPS", "operator:type": "public", "operator:wikidata": "Q668687", "ref": "4204800002"}, "type": "Feature"}
{"geometry": {"coordinates": [-88.1489871, 36.776962], "type": "Point"}, "id": "GPVkO0Cr0fBFdYtJQ82z7zMKA0k=", "properties": {"@source_uri": "https://tools.usps.com/UspsToolsRestServices/rest/POLocator/findLocations", "@spider": "usps_collection_boxes", "addr:city": "HARDIN", "addr:country": "US", "addr:postcode": "42048", "addr:state": "KY", "addr:street_address": "16474 US HIGHWAY 68 E", "amenity": "post_box", "collection_times": "Mo-Sa 11:00", "nsi_id": "unitedstatespostalservice-a77078", "operator": "United States Postal Service", "operator:short": "USPS", "operator:type": "public", "operator:wikidata": "Q668687", "ref": "4204800003"}, "type": "Feature"}
{"geometry": {"coordinates": [-88.1386677, 36.759786], "type": "Point"}, "id": "S6BBVzMBsuMkFV_XR1fbzqzYRNM=", "properties": {"@source_uri": "https://tools.usps.com/UspsToolsRestServices/rest/POLocator/findLocations", "@spider": "usps_collection_boxes", "addr:city": "HARDIN", "addr:country": "US", "addr:postcode": "42048", "addr:state": "KY", "addr:street_address": "542 KENLAKE RD", "amenity": "post_box", "collection_times": "Mo-Sa 11:30", "nsi_id": "unitedstatespostalservice-a77078", "operator": "United States Postal Service", "operator:short": "USPS", "operator:type": "public", "operator:wikidata": "Q668687", "ref": "4204800004"}, "type": "Feature"}
{"geometry": {"coordinates": [-88.295905826, 36.761741581], "type": "Point"}, "id": "N40KX99fVsHtL92I53J5I_keF0I=", "properties": {"@source_uri": "https://tools.usps.com/UspsToolsRestServices/rest/POLocator/findLocations", "@spider": "usps_collection_boxes", "addr:city": "HARDIN", "addr:country": "US", "addr:postcode": "42048", "addr:state": "KY", "addr:street_address": "85 COMMERCE ST", "amenity": "post_box", "collection_times": "Mo-Fr 15:45; Sa 12:15", "indoor": "yes", "note": "ON 12/24 AND 12/31, THIS BOX MAY BE COLLECTED AS EARLY AS 12 NOON.", "nsi_id": "unitedstatespostalservice-a77078", "operator": "United States Postal Service", "operator:short": "USPS", "operator:type": "public", "operator:wikidata": "Q668687", "ref": "4204800007"}, "type": "Feature"}
{"geometry": {"coordinates": [-88.3047179, 36.767121], "type": "Point"}, "id": "9dz1Ma9vseHe3q7yt5eobUi8ScE=", "properties": {"@source_uri": "https://tools.usps.com/UspsToolsRestServices/rest/POLocator/findLocations", "@spider": "usps_collection_boxes", "addr:city": "HARDIN", "addr:country": "US", "addr:postcode": "42048", "addr:state": "KY", "addr:street_address": "4154 MURRAY HWY", "amenity": "post_box", "collection_times": "Mo-Fr 10:30; Sa 10:00", "nsi_id": "unitedstatespostalservice-a77078", "operator": "United States Postal Service", "operator:short": "USPS", "operator:type": "public", "operator:wikidata": "Q668687", "ref": "4204800008"}, "type": "Feature"}
{"geometry": {"coordinates": [-88.295905826, 36.761741581], "type": "Point"}, "id": "ZOHV-SEEy9GnOs6NXeKdfwk6Xok=", "properties": {"@source_uri": "https://tools.usps.com/UspsToolsRestServices/rest/POLocator/findLocations", "@spider": "usps_collection_boxes", "addr:city": "HARDIN", "addr:country": "US", "addr:postcode": "42048", "addr:state": "KY", "addr:street_address": "85 COMMERCE ST", "amenity": "post_box", "collection_times": "Mo-Fr 15:45; Sa 12:00", "indoor": "yes", "note": "ON 12/24 AND 12/31, THIS BOX MAY BE COLLECTED AS EARLY AS 12 NOON.", "nsi_id": "unitedstatespostalservice-a77078", "operator": "United States Postal Service", "operator:short": "USPS", "operator:type": "public", "operator:wikidata": "Q668687", "ref": "4204800010"}, "type": "Feature"}
{"geometry": {"coordinates": [-88.32590467, 36.502506367], "type": "Point"}, "id": "nXTCcj2XQQ2ZC7QX-3mnTn5x0as=", "properties": {"@source_uri": "https://tools.usps.com/UspsToolsRestServices/rest/POLocator/findLocations", "@spider": "usps_collection_boxes", "addr:city": "HAZEL", "addr:country": "US", "addr:postcode": "42049", "addr:state": "KY", "addr:street_address": "304 MAIN ST", "amenity": "post_box", "collection_times": "Mo-Fr 15:30; Sa 10:45", "note": "ON 12/24 AND 12/31, THIS BOX MAY BE COLLECTED AS EARLY AS 12 NOON.", "nsi_id": "unitedstatespostalservice-a77078", "operator": "United States Postal Service", "operator:short": "USPS", "operator:type": "public", "operator:wikidata": "Q668687", "ref": "4204900000"}, "type": "Feature"}
{"geometry": {"coordinates": [-88.32590467, 36.502506367], "type": "Point"}, "id": "q1FU8h_d20vwBbA8CvkouXlG800=", "properties": {"@source_uri": "https://tools.usps.com/UspsToolsRestServices/rest/POLocator/findLocations", "@spider": "usps_collection_boxes", "addr:city": "HAZEL", "addr:country": "US", "addr:postcode": "42049", "addr:state": "KY", "addr:street_address": "304 MAIN ST", "amenity": "post_box", "collection_times": "Mo-Fr 15:30; Sa 10:45", "indoor": "yes", "note": "ON 12/24 AND 12/31, THIS BOX MAY BE COLLECTED AS EARLY AS 12 NOON.", "nsi_id": "unitedstatespostalservice-a77078", "operator": "United States Postal Service", "operator:short": "USPS", "operator:type": "public", "operator:wikidata": "Q668687", "ref": "4204900001"}, "type": "Feature"}
{"geometry": {"coordinates": [-88.32590467, 36.502506367], "type": "Point"}, "id": "T_Mf3HF3q6mQ1djrfuyAjmUt6Xs=", "properties": {"@source_uri": "https://tools.usps.com/UspsToolsRestServices/rest/POLocator/findLocations", "@spider": "usps_collection_boxes", "addr:city": "HAZEL", "addr:country": "US", "addr:postcode": "42049", "addr:state": "KY", "addr:street_address": "304 MAIN ST", "amenity": "post_box", "collection_times": "Mo-Fr 16:00; Sa 11:00", "indoor": "yes", "note": "ON 12/24 AND 12/31, THIS BOX MAY BE COLLECTED AS EARLY AS 12 NOON.", "nsi_id": "unitedstatespostalservice-a77078", "operator": "United States Postal Service", "operator:short": "USPS", "operator:type": "public", "operator:wikidata": "Q668687", "ref": "4204900003"}, "type": "Feature"}
{"geometry": {"coordinates": [-89.200391, 36.568407], "type": "Point"}, "id": "_HfPZ-9W0ohdU2fgyIlfukB25PM=", "properties": {"@source_uri": "https://tools.usps.com/UspsToolsRestServices/rest/POLocator/findLocations", "@spider": "usps_collection_boxes", "addr:city": "HICKMAN", "addr:country": "US", "addr:postcode": "42050", "addr:state": "KY", "addr:street_address": "801 BROADWAY ST", "amenity": "post_box", "collection_times": "Mo-Sa 09:30", "nsi_id": "unitedstatespostalservice-a77078", "operator": "United States Postal Service", "operator:short": "USPS", "operator:type": "public", "operator:wikidata": "Q668687", "ref": "4205000000"}, "type": "Feature"}
{"geometry": {"coordinates": [-89.1939333, 36.571483], "type": "Point"}, "id": "-PCmRPdmHinaJsypTGDs781nFeE=", "properties": {"@source_uri": "https://tools.usps.com/UspsToolsRestServices/rest/POLocator/findLocations", "@spider": "usps_collection_boxes", "addr:city": "HICKMAN", "addr:country": "US", "addr:postcode": "42050", "addr:state": "KY", "addr:street_address": "114 E WELLINGTON ST", "amenity": "post_box", "collection_times": "Mo-Sa 13:05", "note": "ON 12/24 AND 12/31, THIS BOX MAY BE COLLECTED AS EARLY AS 12 NOON.", "nsi_id": "unitedstatespostalservice-a77078", "operator": "United States Postal Service", "operator:short": "USPS", "operator:type": "public", "operator:wikidata": "Q668687", "ref": "4205000001"}, "type": "Feature"}
{"geometry": {"coordinates": [-89.1791959, 36.560478], "type": "Point"}, "id": "uDWnGtW6CHmR1eaPfR8lefvw_sk=", "properties": {"@source_uri": "https://tools.usps.com/UspsToolsRestServices/rest/POLocator/findLocations", "@spider": "usps_collection_boxes", "addr:city": "HICKMAN", "addr:country": "US", "addr:postcode": "42050", "addr:state": "KY", "addr:street_address": "2001 S 7TH ST", "amenity": "post_box", "collection_times": "Mo-Sa 13:00", "note": "ON 12/24 AND 12/31, THIS BOX MAY BE COLLECTED AS EARLY AS 12 NOON.", "nsi_id": "unitedstatespostalservice-a77078", "operator": "United States Postal Service", "operator:short": "USPS", "operator:type": "public", "operator:wikidata": "Q668687", "ref": "4205000002"}, "type": "Feature"}
{"geometry": {"coordinates": [-89.193903522, 36.57302065], "type": "Point"}, "id": "Xm328W_f4Qcxv-dvlBgq7Tfs-eM=", "properties": {"@source_uri": "https://tools.usps.com/UspsToolsRestServices/rest/POLocator/findLocations", "@spider": "usps_collection_boxes", "addr:city": "HICKMAN", "addr:country": "US", "addr:postcode": "42050", "addr:state": "KY", "addr:street_address": "201 JACKSON ST", "amenity": "post_box", "collection_times": "Mo-Sa 15:45", "indoor": "yes", "note": "ON 12/24 AND 12/31, THIS BOX MAY BE COLLECTED AS EARLY AS 12 NOON.", "nsi_id": "unitedstatespostalservice-a77078", "operator": "United States Postal Service", "operator:short": "USPS", "operator:type": "public", "operator:wikidata": "Q668687", "ref": "4205000008"}, "type": "Feature"}
{"geometry": {"coordinates": [-89.1933951314, 36.5730306324], "type": "Point"}, "id": "p7AbLVmXqF5uw75-l7Y86i7VoAU=", "properties": {"@source_uri": "https://tools.usps.com/UspsToolsRestServices/rest/POLocator/findLocations", "@spider": "usps_collection_boxes", "addr:city": "HICKMAN", "addr:country": "US", "addr:postcode": "42050", "addr:state": "KY", "addr:street_address": "219 JACKSON ST", "amenity": "post_box", "collection_times": "Mo-Sa 15:45", "note": "ON 12/24 AND 12/31, THIS BOX MAY BE COLLECTED AS EARLY AS 12 NOON.", "nsi_id": "unitedstatespostalservice-a77078", "operator": "United States Postal Service", "operator:short": "USPS", "operator:type": "public", "operator:wikidata": "Q668687", "ref": "4205000009"}, "type": "Feature"}
{"geometry": {"coordinates": [-89.193903522, 36.57302065], "type": "Point"}, "id": "HvJRT3vMDTmAwLLLX8V_fQvr6fY=", "properties": {"@source_uri": "https://tools.usps.com/UspsToolsRestServices/rest/POLocator/findLocations", "@spider": "usps_collection_boxes", "addr:city": "HICKMAN", "addr:country": "US", "addr:postcode": "42050", "addr:state": "KY", "addr:street_address": "201 JACKSON ST", "amenity": "post_box", "collection_times": "Mo-Fr 15:45; Sa 12:00", "indoor": "yes", "note": "ON 12/24 AND 12/31, THIS BOX MAY BE COLLECTED AS EARLY AS 12 NOON.", "nsi_id": "unitedstatespostalservice-a77078", "operator": "United States Postal Service", "operator:short": "USPS", "operator:type": "public", "operator:wikidata": "Q668687", "ref": "4205000012"}, "type": "Feature"}
{"geometry": {"coordinates": [-88.6470669921, 36.8204069868], "type": "Point"}, "id": "hrE_kC8kUBwbfHEHPVDDZOgFILs=", "properties": {"@source_uri": "https://tools.usps.com/UspsToolsRestServices/rest/POLocator/findLocations", "@spider": "usps_collection_boxes", "addr:city": "HICKORY", "addr:country": "US", "addr:postcode": "42051", "addr:state": "KY", "addr:street_address": "1976 STATE ROUTE 1241", "amenity": "post_box", "collection_times": "Mo-Sa 12:45", "note": "ON 12/24 AND 12/31, THIS BOX MAY BE COLLECTED AS EARLY AS 12 NOON.", "nsi_id": "unitedstatespostalservice-a77078", "operator": "United States Postal Service", "operator:short": "USPS", "operator:type": "public", "operator:wikidata": "Q668687", "ref": "4205100000"}, "type": "Feature"}
{"geometry": {"coordinates": [-88.6470669921, 36.8204069868], "type": "Point"}, "id": "wO0-0H9P6Qxt5nVvELylYXEKZCE=", "properties": {"@source_uri": "https://tools.usps.com/UspsToolsRestServices/rest/POLocator/findLocations", "@spider": "usps_collection_boxes", "addr:city": "HICKORY", "addr:country": "US", "addr:postcode": "42051", "addr:state": "KY", "addr:street_address": "1976 STATE ROUTE 1241", "amenity": "post_box", "collection_times": "Mo-Sa 12:45", "indoor": "yes", "note": "ON 12/24 AND 12/31, THIS BOX MAY BE COLLECTED AS EARLY AS 12 NOON.", "nsi_id": "unitedstatespostalservice-a77078", "operator": "United States Postal Service", "operator:short": "USPS", "operator:type": "public", "operator:wikidata": "Q668687", "ref": "4205100001"}, "type": "Feature"}
{"geometry": {"coordinates": [-88.6470669921, 36.8204069868], "type": "Point"}, "id": "DOFGQJcX2MH8p7GGWqPPsifvQWE=", "properties": {"@source_uri": "https://tools.usps.com/UspsToolsRestServices/rest/POLocator/findLocations", "@spider": "usps_collection_boxes", "addr:city": "HICKORY", "addr:country": "US", "addr:postcode": "42051", "addr:state": "KY", "addr:street_address": "1976 STATE ROUTE 1241", "amenity": "post_box", "collection_times": "Mo-Fr 13:00; Sa 12:45", "indoor": "yes", "note": "ON 12/24 AND 12/31, THIS BOX MAY BE COLLECTED AS EARLY AS 12 NOON.", "nsi_id": "unitedstatespostalservice-a77078", "operator": "United States Postal Service", "operator:short": "USPS", "operator:type": "public", "operator:wikidata": "Q668687", "ref": "4205100004"}, "type": "Feature"}
{"geometry": {"coordinates": [-88.8870031, 37.083858], "type": "Point"}, "id": "hV4UibeF-a20m7srWtry7tcO1Ds=", "properties": {"@source_uri": "https://tools.usps.com/UspsToolsRestServices/rest/POLocator/findLocations", "@spider": "usps_collection_boxes", "addr:city": "KEVIL", "addr:country": "US", "addr:postcode": "42053", "addr:state": "KY", "addr:street_address": "253 WALLACE AVE", "amenity": "post_box", "collection_times": "Mo-Fr 15:45; Sa 11:00", "note": "ON 12/24 AND 12/31, THIS BOX MAY BE COLLECTED AS EARLY AS 12 NOON.", "nsi_id": "unitedstatespostalservice-a77078", "operator": "United States Postal Service", "operator:short": "USPS", "operator:type": "public", "operator:wikidata": "Q668687", "ref": "4205300000"}, "type": "Feature"}
{"geometry": {"coordinates": [-88.8872037, 37.083865], "type": "Point"}, "id": "5fdskyD8xhtzaXFBIMFDCBlgLZI=", "properties": {"@source_uri": "https://tools.usps.com/UspsToolsRestServices/rest/POLocator/findLocations", "@spider": "usps_collection_boxes", "addr:city": "KEVIL", "addr:country": "US", "addr:postcode": "42053", "addr:state": "KY", "addr:street_address": "253 WALLACE AVE", "amenity": "post_box", "collection_times": "Mo-Fr 15:45; Sa 11:00", "indoor": "yes", "note": "ON 12/24 AND 12/31, THIS BOX MAY BE COLLECTED AS EARLY AS 12 NOON.", "nsi_id": "unitedstatespostalservice-a77078", "operator": "United States Postal Service", "operator:short": "USPS", "operator:type": "public", "operator:wikidata": "Q668687", "ref": "4205300001"}, "type": "Feature"}
{"geometry": {"coordinates": [-88.887048472, 37.083834], "type": "Point"}, "id": "yHvnKSTcNrHChlCQZ83MPq2CSlk=", "properties": {"@source_uri": "https://tools.usps.com/UspsToolsRestServices/rest/POLocator/findLocations", "@spider": "usps_collection_boxes", "addr:city": "KEVIL", "addr:country": "US", "addr:postcode": "42053", "addr:state": "KY", "addr:street_address": "253 WALLACE AVE E", "amenity": "post_box", "collection_times": "Mo-Fr 16:00; Sa 11:00", "indoor": "yes", "note": "ON 12/24 AND 12/31, THIS BOX MAY BE COLLECTED AS EARLY AS 12 NOON.", "nsi_id": "unitedstatespostalservice-a77078", "operator": "United States Postal Service", "operator:short": "USPS", "operator:type": "public", "operator:wikidata": "Q668687", "ref": "4205300003"}, "type": "Feature"}
{"geometry": {"coordinates": [-88.136921358, 37.061725023], "type": "Point"}, "id": "QuH4etNsZQip840gmifykEx4zlU=", "properties": {"@source_uri": "https://tools.usps.com/UspsToolsRestServices/rest/POLocator/findLocations", "@spider": "usps_collection_boxes", "addr:city": "KUTTAWA", "addr:country": "US", "addr:postcode": "42055", "addr:state": "KY", "addr:street_address": "67 BEECH ST", "amenity": "post_box", "collection_times": "Mo-Sa 14:00", "note": "ON 12/24 AND 12/31, THIS BOX MAY BE COLLECTED AS EARLY AS 12 NOON.", "nsi_id": "unitedstatespostalservice-a77078", "operator": "United States Postal Service", "operator:short": "USPS", "operator:type": "public", "operator:wikidata": "Q668687", "ref": "4205500000"}, "type": "Feature"}
{"geometry": {"coordinates": [-88.136921358, 37.061725023], "type": "Point"}, "id": "ytbBYIVWAL_aqyypHRmOG8V70XE=", "properties": {"@source_uri": "https://tools.usps.com/UspsToolsRestServices/rest/POLocator/findLocations", "@spider": "usps_collection_boxes", "addr:city": "KUTTAWA", "addr:country": "US", "addr:postcode": "42055", "addr:state": "KY", "addr:street_address": "67 BEECH ST", "amenity": "post_box", "collection_times": "Mo-Fr 14:00; Sa 10:45", "indoor": "yes", "note": "ON 12/24 AND 12/31, THIS BOX MAY BE COLLECTED AS EARLY AS 12 NOON.", "nsi_id": "unitedstatespostalservice-a77078", "operator": "United States Postal Service", "operator:short": "USPS", "operator:type": "public", "operator:wikidata": "Q668687", "ref": "4205500003"}, "type": "Feature"}
{"geometry": {"coordinates": [-88.136921358, 37.061725023], "type": "Point"}, "id": "lBpxRvRL178cCTNlOJTWOur17tc=", "properties": {"@source_uri": "https://tools.usps.com/UspsToolsRestServices/rest/POLocator/findLocations", "@spider": "usps_collection_boxes", "addr:city": "KUTTAWA", "addr:country": "US", "addr:postcode": "42055", "addr:state": "KY", "addr:street_address": "67 BEECH ST", "amenity": "post_box", "collection_times": "Mo-Fr 14:00; Sa 11:00", "indoor": "yes", "note": "ON 12/24 AND 12/31, THIS BOX MAY BE COLLECTED AS EARLY AS 12 NOON.", "nsi_id": "unitedstatespostalservice-a77078", "operator": "United States Postal Service", "operator:short": "USPS", "operator:type": "public", "operator:wikidata": "Q668687", "ref": "4205500006"}, "type": "Feature"}
{"geometry": {"coordinates": [-88.973500526, 37.07644373], "type": "Point"}, "id": "fCVpoE641xEcSJzXJNlpduW_z1E=", "properties": {"@source_uri": "https://tools.usps.com/UspsToolsRestServices/rest/POLocator/findLocations", "@spider": "usps_collection_boxes", "addr:city": "LACENTER", "addr:country": "US", "addr:postcode": "42056", "addr:state": "KY", "addr:street_address": "348 BROADWAY", "amenity": "post_box", "collection_times": "Mo-Fr 15:45; Sa 10:45", "note": "ON 12/24 AND 12/31, THIS BOX MAY BE COLLECTED AS EARLY AS 12 NOON.", "nsi_id": "unitedstatespostalservice-a77078", "operator": "United States Postal Service", "operator:short": "USPS", "operator:type": "public", "operator:wikidata": "Q668687", "ref": "4205600000"}, "type": "Feature"}
{"geometry": {"coordinates": [-88.973500526, 37.07644373], "type": "Point"}, "id": "tl-Y7MOOS_Rd_Pp2pEsyymLxj4o=", "properties": {"@source_uri": "https://tools.usps.com/UspsToolsRestServices/rest/POLocator/findLocations", "@spider": "usps_collection_boxes", "addr:city": "LACENTER", "addr:country": "US", "addr:postcode": "42056", "addr:state": "KY", "addr:street_address": "348 BROADWAY", "amenity": "post_box", "collection_times": "Mo-Fr 15:45; Sa 10:45", "indoor": "yes", "note": "ON 12/24 AND 12/31, THIS BOX MAY BE COLLECTED AS EARLY AS 12 NOON.", "nsi_id": "unitedstatespostalservice-a77078", "operator": "United States Postal Service", "operator:short": "USPS", "operator:type": "public", "operator:wikidata": "Q668687", "ref": "4205600001"}, "type": "Feature"}
{"geometry": {"coordinates": [-88.973500526, 37.07644373], "type": "Point"}, "id": "hbpE6dOS5ZCbL6-LT43QbrZbNqk=", "properties": {"@source_uri": "https://tools.usps.com/UspsToolsRestServices/rest/POLocator/findLocations", "@spider": "usps_collection_boxes", "addr:city": "LACENTER", "addr:country": "US", "addr:postcode": "42056", "addr:state": "KY", "addr:street_address": "348 BROADWAY", "amenity": "post_box", "collection_times": "Mo-Fr 16:00; Sa 11:00", "indoor": "yes", "note": "ON 12/24 AND 12/31, THIS BOX MAY BE COLLECTED AS EARLY AS 12 NOON.", "nsi_id": "unitedstatespostalservice-a77078", "operator": "United States Postal Service", "operator:short": "USPS", "operator:type": "public", "operator:wikidata": "Q668687", "ref": "4205600003"}, "type": "Feature"}
{"geometry": {"coordinates": [-88.475699051, 37.0472895], "type": "Point"}, "id": "tNNoVTfWnrQOGvyeppQXi_xa3x0=", "properties": {"@source_uri": "https://tools.usps.com/UspsToolsRestServices/rest/POLocator/findLocations", "@spider": "usps_collection_boxes", "addr:city": "LEDBETTER", "addr:country": "US", "addr:postcode": "42058", "addr:state": "KY", "addr:street_address": "1490 US HIGHWAY 60 W", "amenity": "post_box", "collection_times": "Mo-Fr 13:45; Sa 10:00", "note": "ON 12/24 AND 12/31, THIS BOX MAY BE COLLECTED AS EARLY AS 12 NOON.", "nsi_id": "unitedstatespostalservice-a77078", "operator": "United States Postal Service", "operator:short": "USPS", "operator:type": "public", "operator:wikidata": "Q668687", "ref": "4205800000"}, "type": "Feature"}
{"geometry": {"coordinates": [-88.475699051, 37.0472895], "type": "Point"}, "id": "bjzi2HlsWyQZyUTMxoJUiqqrn4A=", "properties": {"@source_uri": "https://tools.usps.com/UspsToolsRestServices/rest/POLocator/findLocations", "@spider": "usps_collection_boxes", "addr:city": "LEDBETTER", "addr:country": "US", "addr:postcode": "42058", "addr:state": "KY", "addr:street_address": "1490 US HIGHWAY 60 W", "amenity": "post_box", "collection_times": "Mo-Fr 13:45; Sa 10:00", "indoor": "yes", "note": "ON 12/24 AND 12/31, THIS BOX MAY BE COLLECTED AS EARLY AS 12 NOON.", "nsi_id": "unitedstatespostalservice-a77078", "operator": "United States Postal Service", "operator:short": "USPS", "operator:type": "public", "operator:wikidata": "Q668687", "ref": "4205800001"}, "type": "Feature"}
{"geometry": {"coordinates": [-88.475699051, 37.0472895], "type": "Point"}, "id": "GgdL2Xqa00HYUyWWHdQrzUu0sGw=", "properties": {"@source_uri": "https://tools.usps.com/UspsToolsRestServices/rest/POLocator/findLocations", "@spider": "usps_collection_boxes", "addr:city": "LEDBETTER", "addr:country": "US", "addr:postcode": "42058", "addr:state": "KY", "addr:street_address": "1490 US HIGHWAY 60 W", "amenity": "post_box", "collection_times": "Mo-Fr 13:45; Sa 10:00", "indoor": "yes", "note": "ON 12/24 AND 12/31, THIS BOX MAY BE COLLECTED AS EARLY AS 12 NOON.", "nsi_id": "unitedstatespostalservice-a77078", "operator": "United States Postal Service", "operator:short": "USPS", "operator:type": "public", "operator:wikidata": "Q668687", "ref": "4205800003"}, "type": "Feature"}
{"geometry": {"coordinates": [-88.82984313, 36.969946344], "type": "Point"}, "id": "U2rV_IgEgmDIFRUy0d9bMERc8TQ=", "properties": {"@source_uri": "https://tools.usps.com/UspsToolsRestServices/rest/POLocator/findLocations", "@spider": "usps_collection_boxes", "addr:city": "LOVELACEVILLE", "addr:country": "US", "addr:postcode": "42060", "addr:state": "KY", "addr:street_address": "142 N BROADWAY ST", "amenity": "post_box", "collection_times": "Mo-Fr 15:45; Sa 11:00", "note": "ON 12/24 AND 12/31, THIS BOX MAY BE COLLECTED AS EARLY AS 12 NOON.", "nsi_id": "unitedstatespostalservice-a77078", "operator": "United States Postal Service", "operator:short": "USPS", "operator:type": "public", "operator:wikidata": "Q668687", "ref": "4206000000"}, "type": "Feature"}
{"geometry": {"coordinates": [-88.82984313, 36.969946344], "type": "Point"}, "id": "BKLMg4V_ibm2h4XqpM6vMMnzh0c=", "properties": {"@source_uri": "https://tools.usps.com/UspsToolsRestServices/rest/POLocator/findLocations", "@spider": "usps_collection_boxes", "addr:city": "LOVELACEVILLE", "addr:country": "US", "addr:postcode": "42060", "addr:state": "KY", "addr:street_address": "142 N BROADWAY ST", "amenity": "post_box", "collection_times": "Mo-Fr 15:45; Sa 11:00", "indoor": "yes", "note": "ON 12/24 AND 12/31, THIS BOX MAY BE COLLECTED AS EARLY AS 12 NOON.", "nsi_id": "unitedstatespostalservice-a77078", "operator": "United States Postal Service", "operator:short": "USPS", "operator:type": "public", "operator:wikidata": "Q668687", "ref": "4206000001"}, "type": "Feature"}
{"geometry": {"coordinates": [-88.82984313, 36.969946344], "type": "Point"}, "id": "MgIomrUbF8uLTWC-HaafOvuWp4k=", "properties": {"@source_uri": "https://tools.usps.com/UspsToolsRestServices/rest/POLocator/findLocations", "@spider": "usps_collection_boxes", "addr:city": "LOVELACEVILLE", "addr:country": "US", "addr:postcode": "42060", "addr:state": "KY", "addr:street_address": "142 N BROADWAY ST", "amenity": "post_box", "collection_times": "Mo-Fr 15:45; Sa 11:00", "indoor": "yes", "note": "ON 12/24 AND 12/31, THIS BOX MAY BE COLLECTED AS EARLY AS 12 NOON.", "nsi_id": "unitedstatespostalservice-a77078", "operator": "United States Postal Service", "operator:short": "USPS", "operator:type": "public", "operator:wikidata": "Q668687", "ref": "4206000003"}, "type": "Feature"}
{"geometry": {"coordinates": [-88.77371316, 36.885085691], "type": "Point"}, "id": "CRBTN7u_7QHbLLYReJJoPQevZnQ=", "properties": {"@source_uri": "https://tools.usps.com/UspsToolsRestServices/rest/POLocator/findLocations", "@spider": "usps_collection_boxes", "addr:city": "LOWES", "addr:country": "US", "addr:postcode": "42061", "addr:state": "KY", "addr:street_address": "6899 STATE ROUTE 440", "amenity": "post_box", "collection_times": "Mo-Sa 12:45", "indoor": "yes", "note": "ON 12/24 AND 12/31, THIS BOX MAY BE COLLECTED AS EARLY AS 12 NOON.", "nsi_id": "unitedstatespostalservice-a77078", "operator": "United States Postal Service", "operator:short": "USPS", "operator:type": "public", "operator:wikidata": "Q668687", "ref": "4206100000"}, "type": "Feature"}
{"geometry": {"coordinates": [-88.77371316, 36.885085691], "type": "Point"}, "id": "Dy1Dnhy1NSvK4eLr7hneVkguarc=", "properties": {"@source_uri": "https://tools.usps.com/UspsToolsRestServices/rest/POLocator/findLocations", "@spider": "usps_collection_boxes", "addr:city": "LOWES", "addr:country": "US", "addr:postcode": "42061", "addr:state": "KY", "addr:street_address": "6899 STATE ROUTE 440", "amenity": "post_box", "collection_times": "Mo-Sa 12:45", "note": "ON 12/24 AND 12/31, THIS BOX MAY BE COLLECTED AS EARLY AS 12 NOON.", "nsi_id": "unitedstatespostalservice-a77078", "operator": "United States Postal Service", "operator:short": "USPS", "operator:type": "public", "operator:wikidata": "Q668687", "ref": "4206100001"}, "type": "Feature"}
{"geometry": {"coordinates": [-88.77371316, 36.885085691], "type": "Point"}, "id": "Kw9gswTyIfNFgu5FoxKjeLpbkns=", "properties": {"@source_uri": "https://tools.usps.com/UspsToolsRestServices/rest/POLocator/findLocations", "@spider": "usps_collection_boxes", "addr:city": "LOWES", "addr:country": "US", "addr:postcode": "42061", "addr:state": "KY", "addr:street_address": "6899 STATE ROUTE 440", "amenity": "post_box", "collection_times": "Mo-Sa 12:45", "indoor": "yes", "note": "ON 12/24 AND 12/31, THIS BOX MAY BE COLLECTED AS EARLY AS 12 NOON.", "nsi_id": "unitedstatespostalservice-a77078", "operator": "United States Postal Service", "operator:short": "USPS", "operator:type": "public", "operator:wikidata": "Q668687", "ref": "4206100003"}, "type": "Feature"}
{"geometry": {"coordinates": [-88.080654866, 37.332111243], "type": "Point"}, "id": "xlEP378voLrt-PehmPoqRiggeWI=", "properties": {"@source_uri": "https://tools.usps.com/UspsToolsRestServices/rest/POLocator/findLocations", "@spider": "usps_collection_boxes", "addr:city": "MARION", "addr:country": "US", "addr:postcode": "42064", "addr:state": "KY", "addr:street_address": "128 E CARLISLE ST", "amenity": "post_box", "collection_times": "Mo-Fr 16:00; Sa 11:00", "note": "ON 12/24 AND 12/31, THIS BOX MAY BE COLLECTED AS EARLY AS 12 NOON.", "nsi_id": "unitedstatespostalservice-a77078", "operator": "United States Postal Service", "operator:short": "USPS", "operator:type": "public", "operator:wikidata": "Q668687", "ref": "4206400000"}, "type": "Feature"}
{"geometry": {"coordinates": [-88.080654866, 37.332111243], "type": "Point"}, "id": "l4FEpAcfZH28pdAB-AAXkFB6Q4w=", "properties": {"@source_uri": "https://tools.usps.com/UspsToolsRestServices/rest/POLocator/findLocations", "@spider": "usps_collection_boxes", "addr:city": "MARION", "addr:country": "US", "addr:postcode": "42064", "addr:state": "KY", "addr:street_address": "128 E CARLISLE ST", "amenity": "post_box", "collection_times": "Mo-Fr 16:00; Sa 11:00", "indoor": "yes", "note": "ON 12/24 AND 12/31, THIS BOX MAY BE COLLECTED AS EARLY AS 12 NOON.", "nsi_id": "unitedstatespostalservice-a77078", "operator": "United States Postal Service", "operator:short": "USPS", "operator:type": "public", "operator:wikidata": "Q668687", "ref": "4206400006"}, "type": "Feature"}
{"geometry": {"coordinates": [-88.080654866, 37.332111243], "type": "Point"}, "id": "_YC0C7mA5ETS8okeZcq-7aQAaqs=", "properties": {"@source_uri": "https://tools.usps.com/UspsToolsRestServices/rest/POLocator/findLocations", "@spider": "usps_collection_boxes", "addr:city": "MARION", "addr:country": "US", "addr:postcode": "42064", "addr:state": "KY", "addr:street_address": "128 E CARLISLE ST", "amenity": "post_box", "collection_times": "Mo-Fr 16:00; Sa 11:00", "indoor": "yes", "note": "ON 12/24 AND 12/31, THIS BOX MAY BE COLLECTED AS EARLY AS 12 NOON.", "nsi_id": "unitedstatespostalservice-a77078", "operator": "United States Postal Service", "operator:short": "USPS", "operator:type": "public", "operator:wikidata": "Q668687", "ref": "4206400009"}, "type": "Feature"}
{"geometry": {"coordinates": [-88.6592420417, 36.7418390078], "type": "Point"}, "id": "_skv6ym9u4LDRKy8LNqfuxAIg8k=", "properties": {"@source_uri": "https://tools.usps.com/UspsToolsRestServices/rest/POLocator/findLocations", "@spider": "usps_collection_boxes", "addr:city": "MAYFIELD", "addr:country": "US", "addr:postcode": "42066", "addr:state": "KY", "addr:street_address": "1326 W BROADWAY", "amenity": "post_box", "collection_times": "Mo-Sa 14:30", "note": "ON 12/24 AND 12/31, THIS BOX MAY BE COLLECTED AS EARLY AS 12 NOON.", "nsi_id": "unitedstatespostalservice-a77078", "operator": "United States Postal Service", "operator:short": "USPS", "operator:type": "public", "operator:wikidata": "Q668687", "ref": "4206600001"}, "type": "Feature"}
{"geometry": {"coordinates": [-88.6319609585, 36.7418900117], "type": "Point"}, "id": "XMcPY2eYfQy_oC0QBN3yc5QPPGc=", "properties": {"@source_uri": "https://tools.usps.com/UspsToolsRestServices/rest/POLocator/findLocations", "@spider": "usps_collection_boxes", "addr:city": "MAYFIELD", "addr:country": "US", "addr:postcode": "42066", "addr:state": "KY", "addr:street_address": "331 E BROADWAY", "amenity": "post_box", "collection_times": "Mo-Sa 12:00", "nsi_id": "unitedstatespostalservice-a77078", "operator": "United States Postal Service", "operator:short": "USPS", "operator:type": "public", "operator:wikidata": "Q668687", "ref": "4206600009"}, "type": "Feature"}
{"geometry": {"coordinates": [-88.634868976, 36.734600983], "type": "Point"}, "id": "9Kam9TJyq7lte7GIdoO_4pZcvYo=", "properties": {"@source_uri": "https://tools.usps.com/UspsToolsRestServices/rest/POLocator/findLocations", "@spider": "usps_collection_boxes", "addr:city": "MAYFIELD", "addr:country": "US", "addr:postcode": "42066", "addr:state": "KY", "addr:street_address": "635 S 6TH ST", "amenity": "post_box", "collection_times": "Mo-Sa 14:30", "note": "ON 12/24 AND 12/31, THIS BOX MAY BE COLLECTED AS EARLY AS 12 NOON.", "nsi_id": "unitedstatespostalservice-a77078", "operator": "United States Postal Service", "operator:short": "USPS", "operator:type": "public", "operator:wikidata": "Q668687", "ref": "4206600014"}, "type": "Feature"}
{"geometry": {"coordinates": [-88.6267899948, 36.7257830113], "type": "Point"}, "id": "_6TpOocRhCEg3ld1BQEliPPNlpk=", "properties": {"@source_uri": "https://tools.usps.com/UspsToolsRestServices/rest/POLocator/findLocations", "@spider": "usps_collection_boxes", "addr:city": "MAYFIELD", "addr:country": "US", "addr:postcode": "42066", "addr:state": "KY", "addr:street_address": "1102 PARIS RD", "amenity": "post_box", "collection_times": "Mo-Sa 10:00", "nsi_id": "unitedstatespostalservice-a77078", "operator": "United States Postal Service", "operator:short": "USPS", "operator:type": "public", "operator:wikidata": "Q668687", "ref": "4206600018"}, "type": "Feature"}
{"geometry": {"coordinates": [-88.638843004, 36.7294399937], "type": "Point"}, "id": "HP9b0mxCNPQtgj9Y9Q-PUDbptmY=", "properties": {"@source_uri": "https://tools.usps.com/UspsToolsRestServices/rest/POLocator/findLocations", "@spider": "usps_collection_boxes", "addr:city": "MAYFIELD", "addr:country": "US", "addr:postcode": "42066", "addr:state": "KY", "addr:street_address": "300 W FARTHING ST", "amenity": "post_box", "collection_times": "Mo-Sa 14:15", "note": "ON 12/24 AND 12/31, THIS BOX MAY BE COLLECTED AS EARLY AS 12 NOON.", "nsi_id": "unitedstatespostalservice-a77078", "operator": "United States Postal Service", "operator:short": "USPS", "operator:type": "public", "operator:wikidata": "Q668687", "ref": "4206600022"}, "type": "Feature"}
{"geometry": {"coordinates": [-88.63861, 36.732547], "type": "Point"}, "id": "ii1NJEphYOVN8pSMpAo3Ard9mPE=", "properties": {"@source_uri": "https://tools.usps.com/UspsToolsRestServices/rest/POLocator/findLocations", "@spider": "usps_collection_boxes", "addr:city": "MAYFIELD", "addr:country": "US", "addr:postcode": "42066", "addr:state": "KY", "addr:street_address": "225 WEST BROADWAY STREET", "amenity": "post_box", "collection_times": "Mo-Fr 16:30; Sa 16:00", "note": "ON 12/24 AND 12/31, THIS BOX MAY BE COLLECTED AS EARLY AS 12 NOON.", "nsi_id": "unitedstatespostalservice-a77078", "operator": "United States Postal Service", "operator:short": "USPS", "operator:type": "public", "operator:wikidata": "Q668687", "ref": "4206600038"}, "type": "Feature"}
{"geometry": {"coordinates": [-88.63861, 36.732547], "type": "Point"}, "id": "C50qqENcDEZ1-sAv7cM7anbJuO8=", "properties": {"@source_uri": "https://tools.usps.com/UspsToolsRestServices/rest/POLocator/findLocations", "@spider": "usps_collection_boxes", "addr:city": "MAYFIELD", "addr:country": "US", "addr:postcode": "42066", "addr:state": "KY", "addr:street_address": "225 WEST BROADWAY STREET", "amenity": "post_box", "collection_times": "Mo-Fr 16:30; Sa 11:00", "indoor": "yes", "note": "ON 12/24 AND 12/31, THIS BOX MAY BE COLLECTED AS EARLY AS 12 NOON.", "nsi_id": "unitedstatespostalservice-a77078", "operator": "United States Postal Service", "operator:short": "USPS", "operator:type": "public", "operator:wikidata": "Q668687", "ref": "4206600039"}, "type": "Feature"}
{"geometry": {"coordinates": [-88.63861, 36.732547], "type": "Point"}, "id": "ikKLNvcQ6SKYt-m_7DquRD4eh1I=", "properties": {"@source_uri": "https://tools.usps.com/UspsToolsRestServices/rest/POLocator/findLocations", "@spider": "usps_collection_boxes", "addr:city": "MAYFIELD", "addr:country": "US", "addr:postcode": "42066", "addr:state": "KY", "addr:street_address": "225 WEST BROADWAY STREET", "amenity": "post_box", "collection_times": "Mo-Sa 16:00", "indoor": "yes", "note": "ON 12/24 AND 12/31, THIS BOX MAY BE COLLECTED AS EARLY AS 12 NOON.", "nsi_id": "unitedstatespostalservice-a77078", "operator": "United States Postal Service", "operator:short": "USPS", "operator:type": "public", "operator:wikidata": "Q668687", "ref": "4206600040"}, "type": "Feature"}
{"geometry": {"coordinates": [-88.725440479, 36.94666938], "type": "Point"}, "id": "7K-pWmaR1et7lWHfJAxHfy_3G14=", "properties": {"@source_uri": "https://tools.usps.com/UspsToolsRestServices/rest/POLocator/findLocations", "@spider": "usps_collection_boxes", "addr:city": "MELBER", "addr:country": "US", "addr:postcode": "42069", "addr:state": "KY", "addr:street_address": "8650 CLINTON RD", "amenity": "post_box", "collection_times": "Mo-Fr 11:15; Sa 10:45", "nsi_id": "unitedstatespostalservice-a77078", "operator": "United States Postal Service", "operator:short": "USPS", "operator:type": "public", "operator:wikidata": "Q668687", "ref": "4206900000"}, "type": "Feature"}
{"geometry": {"coordinates": [-88.725440479, 36.94666938], "type": "Point"}, "id": "YcsH1ZWAVsckbusLfGENyp_NI3Q=", "properties": {"@source_uri": "https://tools.usps.com/UspsToolsRestServices/rest/POLocator/findLocations", "@spider": "usps_collection_boxes", "addr:city": "MELBER", "addr:country": "US", "addr:postcode": "42069", "addr:state": "KY", "addr:street_address": "8650 CLINTON RD", "amenity": "post_box", "collection_times": "Mo-Fr 11:15; Sa 10:45", "indoor": "yes", "nsi_id": "unitedstatespostalservice-a77078", "operator": "United States Postal Service", "operator:short": "USPS", "operator:type": "public", "operator:wikidata": "Q668687", "ref": "4206900001"}, "type": "Feature"}
{"geometry": {"coordinates": [-88.725440479, 36.94666938], "type": "Point"}, "id": "AY-qP4_AD5lbLUpnhi1_e88ttqw=", "properties": {"@source_uri": "https://tools.usps.com/UspsToolsRestServices/rest/POLocator/findLocations", "@spider": "usps_collection_boxes", "addr:city": "MELBER", "addr:country": "US", "addr:postcode": "42069", "addr:state": "KY", "addr:street_address": "8650 CLINTON RD", "amenity": "post_box", "collection_times": "Mo-Fr 11:15; Sa 10:45", "indoor": "yes", "nsi_id": "unitedstatespostalservice-a77078", "operator": "United States Postal Service", "operator:short": "USPS", "operator:type": "public", "operator:wikidata": "Q668687", "ref": "4206900003"}, "type": "Feature"}
{"geometry": {"coordinates": [-88.3170979, 36.627543], "type": "Point"}, "id": "YGwgqs3T2nlosmQgPUpOWouI4gY=", "properties": {"@source_uri": "https://tools.usps.com/UspsToolsRestServices/rest/POLocator/findLocations", "@spider": "usps_collection_boxes", "addr:city": "MURRAY", "addr:country": "US", "addr:postcode": "42071", "addr:state": "KY", "addr:street_address": "809 N 12TH ST", "amenity": "post_box", "collection_times": "Mo-Sa 11:00", "nsi_id": "unitedstatespostalservice-a77078", "operator": "United States Postal Service", "operator:short": "USPS", "operator:type": "public", "operator:wikidata": "Q668687", "ref": "4207100003"}, "type": "Feature"}
{"geometry": {"coordinates": [-88.3085935302, 36.6074882111], "type": "Point"}, "id": "NzABLptMtRsi9cNdDDwtD3o7mvo=", "properties": {"@source_uri": "https://tools.usps.com/UspsToolsRestServices/rest/POLocator/findLocations", "@spider": "usps_collection_boxes", "addr:city": "MURRAY", "addr:country": "US", "addr:postcode": "42071", "addr:state": "KY", "addr:street_address": "300 S 8TH ST", "amenity": "post_box", "collection_times": "Mo-Fr 14:30; Sa 13:00", "note": "ON 12/24 AND 12/31, THIS BOX MAY BE COLLECTED AS EARLY AS 12 NOON.", "nsi_id": "unitedstatespostalservice-a77078", "operator": "United States Postal Service", "operator:short": "USPS", "operator:type": "public", "operator:wikidata": "Q668687", "ref": "4207100004"}, "type": "Feature"}
{"geometry": {"coordinates": [-88.3020199, 36.609689], "type": "Point"}, "id": "KDwpM_3uYEoaWjD4-tYew_jHaTE=", "properties": {"@source_uri": "https://tools.usps.com/UspsToolsRestServices/rest/POLocator/findLocations", "@spider": "usps_collection_boxes", "addr:city": "MURRAY", "addr:country": "US", "addr:postcode": "42071", "addr:state": "KY", "addr:street_address": "201 S 4TH ST", "amenity": "post_box", "collection_times": "Mo-Fr 15:00; Sa 13:30", "note": "ON 12/24 AND 12/31, THIS BOX MAY BE COLLECTED AS EARLY AS 12 NOON.", "nsi_id": "unitedstatespostalservice-a77078", "operator": "United States Postal Service", "operator:short": "USPS", "operator:type": "public", "operator:wikidata": "Q668687", "ref": "4207100009"}, "type": "Feature"}
{"geometry": {"coordinates": [-88.3158387, 36.598415], "type": "Point"}, "id": "nWh2aKzRM1mkomFpEtPXLre8tqk=", "properties": {"@source_uri": "https://tools.usps.com/UspsToolsRestServices/rest/POLocator/findLocations", "@spider": "usps_collection_boxes", "addr:city": "MURRAY", "addr:country": "US", "addr:postcode": "42071", "addr:state": "KY", "addr:street_address": "906 S 12TH ST", "amenity": "post_box", "collection_times": "Mo-Fr 11:30; Sa 10:00", "nsi_id": "unitedstatespostalservice-a77078", "operator": "United States Postal Service", "operator:short": "USPS", "operator:type": "public", "operator:wikidata": "Q668687", "ref": "4207100012"}, "type": "Feature"}
{"geometry": {"coordinates": [-88.3133274, 36.624902], "type": "Point"}, "id": "IV4VGtcV4E8FIpMv5cNsU4td3TE=", "properties": {"@source_uri": "https://tools.usps.com/UspsToolsRestServices/rest/POLocator/findLocations", "@spider": "usps_collection_boxes", "addr:city": "MURRAY", "addr:country": "US", "addr:postcode": "42071", "addr:state": "KY", "addr:street_address": "808 N 12TH ST", "amenity": "post_box", "collection_times": "Mo-Sa 10:00", "nsi_id": "unitedstatespostalservice-a77078", "operator": "United States Postal Service", "operator:short": "USPS", "operator:type": "public", "operator:wikidata": "Q668687", "ref": "4207100017"}, "type": "Feature"}
{"geometry": {"coordinates": [-88.313704698, 36.616991671], "type": "Point"}, "id": "Z3ROScGOY4jqgOvPtXyj9ohEj9Q=", "properties": {"@source_uri": "https://tools.usps.com/UspsToolsRestServices/rest/POLocator/findLocations", "@spider": "usps_collection_boxes", "addr:city": "MURRAY", "addr:country": "US", "addr:postcode": "42071", "addr:state": "KY", "addr:street_address": "1105 CHESTNUT ST", "amenity": "post_box", "collection_times": "Mo-Fr 16:30; Sa 16:00", "note": "ON 12/24 AND 12/31, THIS BOX MAY BE COLLECTED AS EARLY AS 12 NOON.", "nsi_id": "unitedstatespostalservice-a77078", "operator": "United States Postal Service", "operator:short": "USPS", "operator:type": "public", "operator:wikidata": "Q668687", "ref": "4207100018"}, "type": "Feature"}
{"geometry": {"coordinates": [-88.313704698, 36.616991671], "type": "Point"}, "id": "amInGrQIuA0Ur07pNZWUdvG0yjM=", "properties": {"@source_uri": "https://tools.usps.com/UspsToolsRestServices/rest/POLocator/findLocations", "@spider": "usps_collection_boxes", "addr:city": "MURRAY", "addr:country": "US", "addr:postcode": "42071", "addr:state": "KY", "addr:street_address": "1105 CHESTNUT ST", "amenity": "post_box", "collection_times": "Mo-Fr 16:30; Sa 16:00", "indoor": "yes", "note": "ON 12/24 AND 12/31, THIS BOX MAY BE COLLECTED AS EARLY AS 12 NOON.", "nsi_id": "unitedstatespostalservice-a77078", "operator": "United States Postal Service", "operator:short": "USPS", "operator:type": "public", "operator:wikidata": "Q668687", "ref": "4207100019"}, "type": "Feature"}
{"geometry": {"coordinates": [-88.313704698, 36.616991671], "type": "Point"}, "id": "pscm_aHZY1y9xwwU8D_7ztnplJ0=", "properties": {"@source_uri": "https://tools.usps.com/UspsToolsRestServices/rest/POLocator/findLocations", "@spider": "usps_collection_boxes", "addr:city": "MURRAY", "addr:country": "US", "addr:postcode": "42071", "addr:state": "KY", "addr:street_address": "1105 CHESTNUT ST", "amenity": "post_box", "collection_times": "Mo-Fr 16:30; Sa 16:00", "name": "USPS COLLECTION BOX - APC", "note": "ON 12/24 AND 12/31, THIS BOX MAY BE COLLECTED AS EARLY AS 12 NOON.", "nsi_id": "unitedstatespostalservice-a77078", "operator": "United States Postal Service", "operator:short": "USPS", "operator:type": "public", "operator:wikidata": "Q668687", "ref": "4207100024"}, "type": "Feature"}
{"geometry": {"coordinates": [-88.3966052, 36.698335], "type": "Point"}, "id": "iNp1s2gNE3Z31xl1HMGhEGGOzH8=", "properties": {"@source_uri": "https://tools.usps.com/UspsToolsRestServices/rest/POLocator/findLocations", "@spider": "usps_collection_boxes", "addr:city": "MURRAY", "addr:country": "US", "addr:postcode": "42071", "addr:state": "KY", "addr:street_address": "3918 KIRKSEY RD", "amenity": "post_box", "collection_times": "Mo-Sa 14:00", "note": "ON 12/24 AND 12/31, THIS BOX MAY BE COLLECTED AS EARLY AS 12 NOON.", "nsi_id": "unitedstatespostalservice-a77078", "operator": "United States Postal Service", "operator:short": "USPS", "operator:type": "public", "operator:wikidata": "Q668687", "ref": "4207100030"}, "type": "Feature"}
{"geometry": {"coordinates": [-88.313704698, 36.616991671], "type": "Point"}, "id": "F6d8IFNOlE5W94Z27fMgcPqeMA0=", "properties": {"@source_uri": "https://tools.usps.com/UspsToolsRestServices/rest/POLocator/findLocations", "@spider": "usps_collection_boxes", "addr:city": "MURRAY", "addr:country": "US", "addr:postcode": "42071", "addr:state": "KY", "addr:street_address": "1105 CHESTNUT ST", "amenity": "post_box", "collection_times": "Mo-Fr 16:30; Sa 14:00", "indoor": "yes", "note": "ON 12/24 AND 12/31, THIS BOX MAY BE COLLECTED AS EARLY AS 12 NOON.", "nsi_id": "unitedstatespostalservice-a77078", "operator": "United States Postal Service", "operator:short": "USPS", "operator:type": "public", "operator:wikidata": "Q668687", "ref": "4207100033"}, "type": "Feature"}
{"geometry": {"coordinates": [-88.242986008, 37.264126121], "type": "Point"}, "id": "QaZev-Q6oPiG1kBqYPf5HCn13tc=", "properties": {"@source_uri": "https://tools.usps.com/UspsToolsRestServices/rest/POLocator/findLocations", "@spider": "usps_collection_boxes", "addr:city": "SALEM", "addr:country": "US", "addr:postcode": "42078", "addr:state": "KY", "addr:street_address": "155 E MAIN ST", "amenity": "post_box", "collection_times": "Mo-Fr 15:45; Sa 10:15", "note": "ON 12/24 AND 12/31, THIS BOX MAY BE COLLECTED AS EARLY AS 12 NOON.", "nsi_id": "unitedstatespostalservice-a77078", "operator": "United States Postal Service", "operator:short": "USPS", "operator:type": "public", "operator:wikidata": "Q668687", "ref": "4207800000"}, "type": "Feature"}
{"geometry": {"coordinates": [-88.242986008, 37.264126121], "type": "Point"}, "id": "IFrGD7_dm7vPomChS66nzfft13s=", "properties": {"@source_uri": "https://tools.usps.com/UspsToolsRestServices/rest/POLocator/findLocations", "@spider": "usps_collection_boxes", "addr:city": "SALEM", "addr:country": "US", "addr:postcode": "42078", "addr:state": "KY", "addr:street_address": "155 E MAIN ST", "amenity": "post_box", "collection_times": "Mo-Fr 15:45; Sa 10:15", "indoor": "yes", "note": "ON 12/24 AND 12/31, THIS BOX MAY BE COLLECTED AS EARLY AS 12 NOON.", "nsi_id": "unitedstatespostalservice-a77078", "operator": "United States Postal Service", "operator:short": "USPS", "operator:type": "public", "operator:wikidata": "Q668687", "ref": "4207800001"}, "type": "Feature"}
{"geometry": {"coordinates": [-88.242986008, 37.264126121], "type": "Point"}, "id": "bGG9OcUrGg9C-HmX_95TlBdBYo8=", "properties": {"@source_uri": "https://tools.usps.com/UspsToolsRestServices/rest/POLocator/findLocations", "@spider": "usps_collection_boxes", "addr:city": "SALEM", "addr:country": "US", "addr:postcode": "42078", "addr:state": "KY", "addr:street_address": "155 E MAIN ST", "amenity": "post_box", "collection_times": "Mo-Fr 15:45; Sa 10:15", "indoor": "yes", "note": "ON 12/24 AND 12/31, THIS BOX MAY BE COLLECTED AS EARLY AS 12 NOON.", "nsi_id": "unitedstatespostalservice-a77078", "operator": "United States Postal Service", "operator:short": "USPS", "operator:type": "public", "operator:wikidata": "Q668687", "ref": "4207800003"}, "type": "Feature"}
{"geometry": {"coordinates": [-88.605275902, 36.641208024], "type": "Point"}, "id": "SHJEDq5nTQF8Ik-lo1xTdqeBTL4=", "properties": {"@source_uri": "https://tools.usps.com/UspsToolsRestServices/rest/POLocator/findLocations", "@spider": "usps_collection_boxes", "addr:city": "SEDALIA", "addr:country": "US", "addr:postcode": "42079", "addr:state": "KY", "addr:street_address": "1549 STATE ROUTE 339 E", "amenity": "post_box", "collection_times": "Mo-Fr 12:45; Sa 11:45", "note": "ON 12/24 AND 12/31, THIS BOX MAY BE COLLECTED AS EARLY AS 12 NOON.", "nsi_id": "unitedstatespostalservice-a77078", "operator": "United States Postal Service", "operator:short": "USPS", "operator:type": "public", "operator:wikidata": "Q668687", "ref": "4207900000"}, "type": "Feature"}
{"geometry": {"coordinates": [-88.605275902, 36.641208024], "type": "Point"}, "id": "VpNu9G1o80eRSfYrqov_xAvfRwE=", "properties": {"@source_uri": "https://tools.usps.com/UspsToolsRestServices/rest/POLocator/findLocations", "@spider": "usps_collection_boxes", "addr:city": "SEDALIA", "addr:country": "US", "addr:postcode": "42079", "addr:state": "KY", "addr:street_address": "1549 STATE ROUTE 339 E", "amenity": "post_box", "collection_times": "Mo-Fr 12:45; Sa 11:45", "indoor": "yes", "note": "ON 12/24 AND 12/31, THIS BOX MAY BE COLLECTED AS EARLY AS 12 NOON.", "nsi_id": "unitedstatespostalservice-a77078", "operator": "United States Postal Service", "operator:short": "USPS", "operator:type": "public", "operator:wikidata": "Q668687", "ref": "4207900001"}, "type": "Feature"}
{"geometry": {"coordinates": [-88.605275902, 36.641208024], "type": "Point"}, "id": "CGGW5cwl1DGwkZX7cg6qIWDGPew=", "properties": {"@source_uri": "https://tools.usps.com/UspsToolsRestServices/rest/POLocator/findLocations", "@spider": "usps_collection_boxes", "addr:city": "SEDALIA", "addr:country": "US", "addr:postcode": "42079", "addr:state": "KY", "addr:street_address": "1549 STATE ROUTE 339 E", "amenity": "post_box", "collection_times": "Mo-Fr 13:00; Sa 12:00", "indoor": "yes", "note": "ON 12/24 AND 12/31, THIS BOX MAY BE COLLECTED AS EARLY AS 12 NOON.", "nsi_id": "unitedstatespostalservice-a77078", "operator": "United States Postal Service", "operator:short": "USPS", "operator:type": "public", "operator:wikidata": "Q668687", "ref": "4207900003"}, "type": "Feature"}
{"geometry": {"coordinates": [-88.404715612, 37.139920028], "type": "Point"}, "id": "Y-ja3WEjU8frgy8ek5EKLNekA3c=", "properties": {"@source_uri": "https://tools.usps.com/UspsToolsRestServices/rest/POLocator/findLocations", "@spider": "usps_collection_boxes", "addr:city": "SMITHLAND", "addr:country": "US", "addr:postcode": "42081", "addr:state": "KY", "addr:street_address": "121 E ADAIR ST", "amenity": "post_box", "collection_times": "Mo-Fr 15:45; Sa 11:00", "note": "ON 12/24 AND 12/31, THIS BOX MAY BE COLLECTED AS EARLY AS 12 NOON.", "nsi_id": "unitedstatespostalservice-a77078", "operator": "United States Postal Service", "operator:short": "USPS", "operator:type": "public", "operator:wikidata": "Q668687", "ref": "4208100000"}, "type": "Feature"}
{"geometry": {"coordinates": [-88.404715612, 37.139920028], "type": "Point"}, "id": "sX6nU1il5Bi6YKzVJ0mwfcyJXHw=", "properties": {"@source_uri": "https://tools.usps.com/UspsToolsRestServices/rest/POLocator/findLocations", "@spider": "usps_collection_boxes", "addr:city": "SMITHLAND", "addr:country": "US", "addr:postcode": "42081", "addr:state": "KY", "addr:street_address": "121 E ADAIR ST", "amenity": "post_box", "collection_times": "Mo-Fr 15:45; Sa 11:00", "indoor": "yes", "note": "ON 12/24 AND 12/31, THIS BOX MAY BE COLLECTED AS EARLY AS 12 NOON.", "nsi_id": "unitedstatespostalservice-a77078", "operator": "United States Postal Service", "operator:short": "USPS", "operator:type": "public", "operator:wikidata": "Q668687", "ref": "4208100001"}, "type": "Feature"}
{"geometry": {"coordinates": [-88.404715612, 37.139920028], "type": "Point"}, "id": "M09cWNtVsarTTaBrhQ2uKhhdk_E=", "properties": {"@source_uri": "https://tools.usps.com/UspsToolsRestServices/rest/POLocator/findLocations", "@spider": "usps_collection_boxes", "addr:city": "SMITHLAND", "addr:country": "US", "addr:postcode": "42081", "addr:state": "KY", "addr:street_address": "121 E ADAIR ST", "amenity": "post_box", "collection_times": "Mo-Fr 16:00; Sa 11:00", "indoor": "yes", "note": "ON 12/24 AND 12/31, THIS BOX MAY BE COLLECTED AS EARLY AS 12 NOON.", "nsi_id": "unitedstatespostalservice-a77078", "operator": "United States Postal Service", "operator:short": "USPS", "operator:type": "public", "operator:wikidata": "Q668687", "ref": "4208100003"}, "type": "Feature"}
{"geometry": {"coordinates": [-88.519933226, 36.920684781], "type": "Point"}, "id": "2fsbX_xCRbMG-sfaZe2lR_LvLPc=", "properties": {"@source_uri": "https://tools.usps.com/UspsToolsRestServices/rest/POLocator/findLocations", "@spider": "usps_collection_boxes", "addr:city": "SYMSONIA", "addr:country": "US", "addr:postcode": "42082", "addr:state": "KY", "addr:street_address": "12022 STATE ROUTE 131", "amenity": "post_box", "collection_times": "Mo-Fr 16:00; Sa 11:30", "note": "ON 12/24 AND 12/31, THIS BOX MAY BE COLLECTED AS EARLY AS 12 NOON.", "nsi_id": "unitedstatespostalservice-a77078", "operator": "United States Postal Service", "operator:short": "USPS", "operator:type": "public", "operator:wikidata": "Q668687", "ref": "4208200000"}, "type": "Feature"}
{"geometry": {"coordinates": [-88.519933226, 36.920684781], "type": "Point"}, "id": "7hrJsO0ZxtIZqqLv5LD2iYqj9hA=", "properties": {"@source_uri": "https://tools.usps.com/UspsToolsRestServices/rest/POLocator/findLocations", "@spider": "usps_collection_boxes", "addr:city": "SYMSONIA", "addr:country": "US", "addr:postcode": "42082", "addr:state": "KY", "addr:street_address": "12022 STATE ROUTE 131", "amenity": "post_box", "collection_times": "Mo-Fr 16:00; Sa 11:30", "indoor": "yes", "note": "ON 12/24 AND 12/31, THIS BOX MAY BE COLLECTED AS EARLY AS 12 NOON.", "nsi_id": "unitedstatespostalservice-a77078", "operator": "United States Postal Service", "operator:short": "USPS", "operator:type": "public", "operator:wikidata": "Q668687", "ref": "4208200001"}, "type": "Feature"}
{"geometry": {"coordinates": [-88.519933226, 36.920684781], "type": "Point"}, "id": "Yaqbfza1_j6DKG4XjL7e01WYH5c=", "properties": {"@source_uri": "https://tools.usps.com/UspsToolsRestServices/rest/POLocator/findLocations", "@spider": "usps_collection_boxes", "addr:city": "SYMSONIA", "addr:country": "US", "addr:postcode": "42082", "addr:state": "KY", "addr:street_address": "12022 STATE ROUTE 131", "amenity": "post_box", "collection_times": "Mo-Fr 16:00; Sa 11:30", "indoor": "yes", "note": "ON 12/24 AND 12/31, THIS BOX MAY BE COLLECTED AS EARLY AS 12 NOON.", "nsi_id": "unitedstatespostalservice-a77078", "operator": "United States Postal Service", "operator:short": "USPS", "operator:type": "public", "operator:wikidata": "Q668687", "ref": "4208200003"}, "type": "Feature"}
{"geometry": {"coordinates": [-88.283364622, 37.156133369], "type": "Point"}, "id": "dR8MSCMEtWZSxBHhS7xzvIj2zDc=", "properties": {"@source_uri": "https://tools.usps.com/UspsToolsRestServices/rest/POLocator/findLocations", "@spider": "usps_collection_boxes", "addr:city": "TILINE", "addr:country": "US", "addr:postcode": "42083", "addr:state": "KY", "addr:street_address": "1330 TILINE RD", "amenity": "post_box", "collection_times": "Mo-Sa 13:00", "note": "ON 12/24 AND 12/31, THIS BOX MAY BE COLLECTED AS EARLY AS 12 NOON.", "nsi_id": "unitedstatespostalservice-a77078", "operator": "United States Postal Service", "operator:short": "USPS", "operator:type": "public", "operator:wikidata": "Q668687", "ref": "4208300000"}, "type": "Feature"}
{"geometry": {"coordinates": [-88.283364622, 37.156133369], "type": "Point"}, "id": "ec4AsK4vSbhDh1g1NS2GGrCR3tA=", "properties": {"@source_uri": "https://tools.usps.com/UspsToolsRestServices/rest/POLocator/findLocations", "@spider": "usps_collection_boxes", "addr:city": "TILINE", "addr:country": "US", "addr:postcode": "42083", "addr:state": "KY", "addr:street_address": "1330 TILINE RD", "amenity": "post_box", "collection_times": "Mo-Sa 13:00", "indoor": "yes", "note": "ON 12/24 AND 12/31, THIS BOX MAY BE COLLECTED AS EARLY AS 12 NOON.", "nsi_id": "unitedstatespostalservice-a77078", "operator": "United States Postal Service", "operator:short": "USPS", "operator:type": "public", "operator:wikidata": "Q668687", "ref": "4208300001"}, "type": "Feature"}
{"geometry": {"coordinates": [-88.283364622, 37.156133369], "type": "Point"}, "id": "_la8m9vlM-1aBNrqBtReLn9alfA=", "properties": {"@source_uri": "https://tools.usps.com/UspsToolsRestServices/rest/POLocator/findLocations", "@spider": "usps_collection_boxes", "addr:city": "TILINE", "addr:country": "US", "addr:postcode": "42083", "addr:state": "KY", "addr:street_address": "1330 TILINE RD", "amenity": "post_box", "collection_times": "Mo-Sa 13:00", "indoor": "yes", "note": "ON 12/24 AND 12/31, THIS BOX MAY BE COLLECTED AS EARLY AS 12 NOON.", "nsi_id": "unitedstatespostalservice-a77078", "operator": "United States Postal Service", "operator:short": "USPS", "operator:type": "public", "operator:wikidata": "Q668687", "ref": "4208300003"}, "type": "Feature"}
{"geometry": {"coordinates": [-88.812118222, 36.564444074], "type": "Point"}, "id": "Puuj9cpjQZa_Fxn_Yas5H9O156c=", "properties": {"@source_uri": "https://tools.usps.com/UspsToolsRestServices/rest/POLocator/findLocations", "@spider": "usps_collection_boxes", "addr:city": "WATER VALLEY", "addr:country": "US", "addr:postcode": "42085", "addr:state": "KY", "addr:street_address": "16846 STATE ROUTE 45 S", "amenity": "post_box", "collection_times": "Mo-Fr 13:45; Sa 11:45", "note": "ON 12/24 AND 12/31, THIS BOX MAY BE COLLECTED AS EARLY AS 12 NOON.", "nsi_id": "unitedstatespostalservice-a77078", "operator": "United States Postal Service", "operator:short": "USPS", "operator:type": "public", "operator:wikidata": "Q668687", "ref": "4208500000"}, "type": "Feature"}
{"geometry": {"coordinates": [-88.812118222, 36.564444074], "type": "Point"}, "id": "3KfOzXUo-sY4HvA5wFBm8bahR9U=", "properties": {"@source_uri": "https://tools.usps.com/UspsToolsRestServices/rest/POLocator/findLocations", "@spider": "usps_collection_boxes", "addr:city": "WATER VALLEY", "addr:country": "US", "addr:postcode": "42085", "addr:state": "KY", "addr:street_address": "16846 STATE ROUTE 45 S", "amenity": "post_box", "collection_times": "Mo-Fr 13:45; Sa 11:45", "indoor": "yes", "note": "ON 12/24 AND 12/31, THIS BOX MAY BE COLLECTED AS EARLY AS 12 NOON.", "nsi_id": "unitedstatespostalservice-a77078", "operator": "United States Postal Service", "operator:short": "USPS", "operator:type": "public", "operator:wikidata": "Q668687", "ref": "4208500001"}, "type": "Feature"}
{"geometry": {"coordinates": [-88.812118222, 36.564444074], "type": "Point"}, "id": "GZNzrHFUytV5ok-3qf3M6N5joBA=", "properties": {"@source_uri": "https://tools.usps.com/UspsToolsRestServices/rest/POLocator/findLocations", "@spider": "usps_collection_boxes", "addr:city": "WATER VALLEY", "addr:country": "US", "addr:postcode": "42085", "addr:state": "KY", "addr:street_address": "16846 STATE ROUTE 45 S", "amenity": "post_box", "collection_times": "Mo-Fr 14:00; Sa 13:00", "indoor": "yes", "note": "ON 12/24 AND 12/31, THIS BOX MAY BE COLLECTED AS EARLY AS 12 NOON.", "nsi_id": "unitedstatespostalservice-a77078", "operator": "United States Postal Service", "operator:short": "USPS", "operator:type": "public", "operator:wikidata": "Q668687", "ref": "4208500003"}, "type": "Feature"}
{"geometry": {"coordinates": [-88.755849912, 37.073017589], "type": "Point"}, "id": "-IVrYYUA-pGhT3PXON-IxIasLww=", "properties": {"@source_uri": "https://tools.usps.com/UspsToolsRestServices/rest/POLocator/findLocations", "@spider": "usps_collection_boxes", "addr:city": "WEST PADUCAH", "addr:country": "US", "addr:postcode": "42086", "addr:state": "KY", "addr:street_address": "7475 US HIGHWAY 60 W", "amenity": "post_box", "collection_times": "Mo-Fr 15:45; Sa 10:30", "note": "ON 12/24 AND 12/31, THIS BOX MAY BE COLLECTED AS EARLY AS 12 NOON.", "nsi_id": "unitedstatespostalservice-a77078", "operator": "United States Postal Service", "operator:short": "USPS", "operator:type": "public", "operator:wikidata": "Q668687", "ref": "4208600000"}, "type": "Feature"}
{"geometry": {"coordinates": [-88.755849912, 37.073017589], "type": "Point"}, "id": "b-gMOksMltgTT8H80sC7xpUXBh0=", "properties": {"@source_uri": "https://tools.usps.com/UspsToolsRestServices/rest/POLocator/findLocations", "@spider": "usps_collection_boxes", "addr:city": "WEST PADUCAH", "addr:country": "US", "addr:postcode": "42086", "addr:state": "KY", "addr:street_address": "7475 US HIGHWAY 60 W", "amenity": "post_box", "collection_times": "Mo-Fr 15:45; Sa 10:30", "indoor": "yes", "note": "ON 12/24 AND 12/31, THIS BOX MAY BE COLLECTED AS EARLY AS 12 NOON.", "nsi_id": "unitedstatespostalservice-a77078", "operator": "United States Postal Service", "operator:short": "USPS", "operator:type": "public", "operator:wikidata": "Q668687", "ref": "4208600001"}, "type": "Feature"}
{"geometry": {"coordinates": [-88.755849912, 37.073017589], "type": "Point"}, "id": "a7jAbGsLQmMgE7B2tyO2JHJ9Aho=", "properties": {"@source_uri": "https://tools.usps.com/UspsToolsRestServices/rest/POLocator/findLocations", "@spider": "usps_collection_boxes", "addr:city": "WEST PADUCAH", "addr:country": "US", "addr:postcode": "42086", "addr:state": "KY", "addr:street_address": "7475 US HIGHWAY 60 W", "amenity": "post_box", "collection_times": "Mo-Fr 16:00; Sa 11:00", "indoor": "yes", "note": "ON 12/24 AND 12/31, THIS BOX MAY BE COLLECTED AS EARLY AS 12 NOON.", "nsi_id": "unitedstatespostalservice-a77078", "operator": "United States Postal Service", "operator:short": "USPS", "operator:type": "public", "operator:wikidata": "Q668687", "ref": "4208600003"}, "type": "Feature"}
{"geometry": {"coordinates": [-89.089928822, 36.964870395], "type": "Point"}, "id": "AlGuhvmkVdQWp4WstERc3JOSG68=", "properties": {"@source_uri": "https://tools.usps.com/UspsToolsRestServices/rest/POLocator/findLocations", "@spider": "usps_collection_boxes", "addr:city": "WICKLIFFE", "addr:country": "US", "addr:postcode": "42087", "addr:state": "KY", "addr:street_address": "330 COURT ST", "amenity": "post_box", "collection_times": "Mo-Fr 15:45; Sa 10:00", "note": "ON 12/24 AND 12/31, THIS BOX MAY BE COLLECTED AS EARLY AS 12 NOON.", "nsi_id": "unitedstatespostalservice-a77078", "operator": "United States Postal Service", "operator:short": "USPS", "operator:type": "public", "operator:wikidata": "Q668687", "ref": "4208700000"}, "type": "Feature"}
{"geometry": {"coordinates": [-89.089928822, 36.964870395], "type": "Point"}, "id": "vXg-noeDJALflGvRdabHy5qA9DI=", "properties": {"@source_uri": "https://tools.usps.com/UspsToolsRestServices/rest/POLocator/findLocations", "@spider": "usps_collection_boxes", "addr:city": "WICKLIFFE", "addr:country": "US", "addr:postcode": "42087", "addr:state": "KY", "addr:street_address": "330 COURT ST", "amenity": "post_box", "collection_times": "Mo-Fr 15:45; Sa 10:00", "indoor": "yes", "note": "ON 12/24 AND 12/31, THIS BOX MAY BE COLLECTED AS EARLY AS 12 NOON.", "nsi_id": "unitedstatespostalservice-a77078", "operator": "United States Postal Service", "operator:short": "USPS", "operator:type": "public", "operator:wikidata": "Q668687", "ref": "4208700001"}, "type": "Feature"}
{"geometry": {"coordinates": [-89.089928822, 36.964870395], "type": "Point"}, "id": "HbZ6yOdgdWvAaml_URivHR2RuSc=", "properties": {"@source_uri": "https://tools.usps.com/UspsToolsRestServices/rest/POLocator/findLocations", "@spider": "usps_collection_boxes", "addr:city": "WICKLIFFE", "addr:country": "US", "addr:postcode": "42087", "addr:state": "KY", "addr:street_address": "330 COURT ST", "amenity": "post_box", "collection_times": "Mo-Fr 15:45; Sa 10:00", "indoor": "yes", "note": "ON 12/24 AND 12/31, THIS BOX MAY BE COLLECTED AS EARLY AS 12 NOON.", "nsi_id": "unitedstatespostalservice-a77078", "operator": "United States Postal Service", "operator:short": "USPS", "operator:type": "public", "operator:wikidata": "Q668687", "ref": "4208700002"}, "type": "Feature"}
{"geometry": {"coordinates": [-89.089928822, 36.964870395], "type": "Point"}, "id": "IrBQj9QN6gP_CO11FYVcxavBeX0=", "properties": {"@source_uri": "https://tools.usps.com/UspsToolsRestServices/rest/POLocator/findLocations", "@spider": "usps_collection_boxes", "addr:city": "WICKLIFFE", "addr:country": "US", "addr:postcode": "42087", "addr:state": "KY", "addr:street_address": "330 COURT ST", "amenity": "post_box", "collection_times": "Mo-Fr 16:00; Sa 10:00", "indoor": "yes", "note": "ON 12/24 AND 12/31, THIS BOX MAY BE COLLECTED AS EARLY AS 12 NOON.", "nsi_id": "unitedstatespostalservice-a77078", "operator": "United States Postal Service", "operator:short": "USPS", "operator:type": "public", "operator:wikidata": "Q668687", "ref": "4208700004"}, "type": "Feature"}
{"geometry": {"coordinates": [-88.736012172, 36.641900558], "type": "Point"}, "id": "jEsKSUfEtQqA2xiY7yCwuScy4i8=", "properties": {"@source_uri": "https://tools.usps.com/UspsToolsRestServices/rest/POLocator/findLocations", "@spider": "usps_collection_boxes", "addr:city": "WINGO", "addr:country": "US", "addr:postcode": "42088", "addr:state": "KY", "addr:street_address": "93 LEBANON ST", "amenity": "post_box", "collection_times": "Mo-Fr 14:45; Sa 10:30", "note": "ON 12/24 AND 12/31, THIS BOX MAY BE COLLECTED AS EARLY AS 12 NOON.", "nsi_id": "unitedstatespostalservice-a77078", "operator": "United States Postal Service", "operator:short": "USPS", "operator:type": "public", "operator:wikidata": "Q668687", "ref": "4208800000"}, "type": "Feature"}
{"geometry": {"coordinates": [-88.736012172, 36.641900558], "type": "Point"}, "id": "wkGvby9QpRA3kUFWIbniDBCoods=", "properties": {"@source_uri": "https://tools.usps.com/UspsToolsRestServices/rest/POLocator/findLocations", "@spider": "usps_collection_boxes", "addr:city": "WINGO", "addr:country": "US", "addr:postcode": "42088", "addr:state": "KY", "addr:street_address": "93 LEBANON ST", "amenity": "post_box", "collection_times": "Mo-Fr 14:45; Sa 10:30", "indoor": "yes", "note": "ON 12/24 AND 12/31, THIS BOX MAY BE COLLECTED AS EARLY AS 12 NOON.", "nsi_id": "unitedstatespostalservice-a77078", "operator": "United States Postal Service", "operator:short": "USPS", "operator:type": "public", "operator:wikidata": "Q668687", "ref": "4208800001"}, "type": "Feature"}
{"geometry": {"coordinates": [-88.736012172, 36.641900558], "type": "Point"}, "id": "fH4vf-I-MZQDMmm_2yP0ot__8W4=", "properties": {"@source_uri": "https://tools.usps.com/UspsToolsRestServices/rest/POLocator/findLocations", "@spider": "usps_collection_boxes", "addr:city": "WINGO", "addr:country": "US", "addr:postcode": "42088", "addr:state": "KY", "addr:street_address": "93 LEBANON ST", "amenity": "post_box", "collection_times": "Mo-Fr 15:00; Sa 10:30", "indoor": "yes", "note": "ON 12/24 AND 12/31, THIS BOX MAY BE COLLECTED AS EARLY AS 12 NOON.", "nsi_id": "unitedstatespostalservice-a77078", "operator": "United States Postal Service", "operator:short": "USPS", "operator:type": "public", "operator:wikidata": "Q668687", "ref": "4208800003"}, "type": "Feature"}
