{"dataset_attributes": {"@spider": "usps_collection_boxes", "spider:collection_time": "2024-01-01T08:25:44.650502"}, "geometry": {"coordinates": [-86.431877001, 36.989220989], "type": "Point"}, "id": "WUE9AK_MdXwVSPtmKm84tAJKjTM=", "properties": {"@spider": "usps_collection_boxes", "addr:city": "BOWLING GREEN", "addr:country": "US", "addr:full": "901 LEHMAN AVE", "addr:postcode": "42101", "addr:state": "KY", "amenity": "post_box", "brand": "United States Postal Service", "brand:wikidata": "Q668687", "collection_times": "Mo-Fr 12:00; Sa 09:00", "name": "USPS COLLECTION BOX - BLUE BOX", "nsi_id": "unitedstatespostalservice-a77078", "operator": "United States Postal Service", "operator:short": "USPS", "operator:type": "public", "operator:wikidata": "Q668687", "ref": "4210100003"}, "type": "Feature"}
{"dataset_attributes": {"@spider": "usps_collection_boxes", "spider:collection_time": "2024-01-01T08:25:44.650502"}, "geometry": {"coordinates": [-86.4444862396, 36.9918893596], "type": "Point"}, "id": "INjLu2hFSw5ZkTAfSS87D4jxbaY=", "properties": {"@spider": "usps_collection_boxes", "addr:city": "BOWLING GREEN", "addr:country": "US", "addr:full": "1120 COLLEGE ST", "addr:postcode": "42101", "addr:state": "KY", "amenity": "post_box", "brand": "United States Postal Service", "brand:wikidata": "Q668687", "collection_times": "Mo-Sa 14:00", "name": "USPS COLLECTION BOX - BLUE BOX", "note": "ON 12/24 AND 12/31, THIS BOX MAY BE COLLECTED AS EARLY AS 12 NOON.", "nsi_id": "unitedstatespostalservice-a77078", "operator": "United States Postal Service", "operator:short": "USPS", "operator:type": "public", "operator:wikidata": "Q668687", "ref": "4210100024"}, "type": "Feature"}
{"dataset_attributes": {"@spider": "usps_collection_boxes", "spider:collection_time": "2024-01-01T08:25:44.650502"}, "geometry": {"coordinates": [-86.391189986, 37.011052997], "type": "Point"}, "id": "qNGJQmQOJvjzwmjUR3rXdcwWNjA=", "properties": {"@spider": "usps_collection_boxes", "addr:city": "BOWLING GREEN", "addr:country": "US", "addr:full": "3411 LOUISVILLE RD", "addr:postcode": "42101", "addr:state": "KY", "amenity": "post_box", "brand": "United States Postal Service", "brand:wikidata": "Q668687", "collection_times": "Mo-Sa 09:00", "name": "USPS COLLECTION BOX - BLUE BOX", "nsi_id": "unitedstatespostalservice-a77078", "operator": "United States Postal Service", "operator:short": "USPS", "operator:type": "public", "operator:wikidata": "Q668687", "ref": "4210100048"}, "type": "Feature"}
{"dataset_attributes": {"@spider": "usps_collection_boxes", "spider:collection_time": "2024-01-01T08:25:44.650502"}, "geometry": {"coordinates": [-86.4246519685, 36.9436309798], "type": "Point"}, "id": "0LpfM-xd7Uc2HGUWUs_LT4CVP1o=", "properties": {"@spider": "usps_collection_boxes", "addr:city": "BOWLING GREEN", "addr:country": "US", "addr:full": "2945 SCOTTSVILLE RD", "addr:postcode": "42101", "addr:state": "KY", "amenity": "post_box", "brand": "United States Postal Service", "brand:wikidata": "Q668687", "collection_times": "Mo-Sa 09:00", "name": "USPS COLLECTION BOX - BLUE BOX", "nsi_id": "unitedstatespostalservice-a77078", "operator": "United States Postal Service", "operator:short": "USPS", "operator:type": "public", "operator:wikidata": "Q668687", "ref": "4210100059"}, "type": "Feature"}
{"dataset_attributes": {"@spider": "usps_collection_boxes", "spider:collection_time": "2024-01-01T08:25:44.650502"}, "geometry": {"coordinates": [-86.409376034, 36.924749989], "type": "Point"}, "id": "vPH99kwYk7-tR99ERWTiEAtvuKo=", "properties": {"@spider": "usps_collection_boxes", "addr:city": "BOWLING GREEN", "addr:country": "US", "addr:full": "5300 SCOTTSVILLE RD", "addr:postcode": "42101", "addr:state": "KY", "amenity": "post_box", "brand": "United States Postal Service", "brand:wikidata": "Q668687", "collection_times": "Mo-Fr 17:30; Sa 12:00", "name": "USPS COLLECTION BOX - BLUE BOX", "note": "ON 12/24 AND 12/31, THIS BOX MAY BE COLLECTED AS EARLY AS 12 NOON.", "nsi_id": "unitedstatespostalservice-a77078", "operator": "United States Postal Service", "operator:short": "USPS", "operator:type": "public", "operator:wikidata": "Q668687", "ref": "4210100060"}, "type": "Feature"}
{"dataset_attributes": {"@spider": "usps_collection_boxes", "spider:collection_time": "2024-01-01T08:25:44.650502"}, "geometry": {"coordinates": [-86.430320985, 36.995930996], "type": "Point"}, "id": "eoRZsp5BeTzj6yhRnNvSYtcsDqc=", "properties": {"@spider": "usps_collection_boxes", "addr:city": "BOWLING GREEN", "addr:country": "US", "addr:full": "250 PARK ST", "addr:postcode": "42101", "addr:state": "KY", "amenity": "post_box", "brand": "United States Postal Service", "brand:wikidata": "Q668687", "collection_times": "Mo-Fr 12:00; Sa 09:00", "name": "USPS COLLECTION BOX - BLUE BOX", "nsi_id": "unitedstatespostalservice-a77078", "operator": "United States Postal Service", "operator:short": "USPS", "operator:type": "public", "operator:wikidata": "Q668687", "ref": "4210100063"}, "type": "Feature"}
{"dataset_attributes": {"@spider": "usps_collection_boxes", "spider:collection_time": "2024-01-01T08:25:44.650502"}, "geometry": {"coordinates": [-86.441311001, 37.009393003], "type": "Point"}, "id": "CXwaES_ucG1a7D8ctX_DRx41bJM=", "properties": {"@spider": "usps_collection_boxes", "addr:city": "BOWLING GREEN", "addr:country": "US", "addr:full": "1347 KY HIGHWAY 185", "addr:postcode": "42101", "addr:state": "KY", "amenity": "post_box", "brand": "United States Postal Service", "brand:wikidata": "Q668687", "collection_times": "Mo-Sa 09:00", "name": "USPS COLLECTION BOX - BLUE BOX", "nsi_id": "unitedstatespostalservice-a77078", "operator": "United States Postal Service", "operator:short": "USPS", "operator:type": "public", "operator:wikidata": "Q668687", "ref": "4210100064"}, "type": "Feature"}
{"dataset_attributes": {"@spider": "usps_collection_boxes", "spider:collection_time": "2024-01-01T08:25:44.650502"}, "geometry": {"coordinates": [-86.437395982, 36.994583983], "type": "Point"}, "id": "m1_IfP5NYepdEuGPr-NhqoYmLuA=", "properties": {"@spider": "usps_collection_boxes", "addr:city": "BOWLING GREEN", "addr:country": "US", "addr:full": "628 STATE ST", "addr:postcode": "42101", "addr:state": "KY", "amenity": "post_box", "brand": "United States Postal Service", "brand:wikidata": "Q668687", "collection_times": "Mo-Fr 16:30", "name": "USPS COLLECTION BOX - PO LOBBY", "note": "ON 12/24 AND 12/31, THIS BOX MAY BE COLLECTED AS EARLY AS 12 NOON.", "nsi_id": "unitedstatespostalservice-a77078", "operator": "United States Postal Service", "operator:short": "USPS", "operator:type": "public", "operator:wikidata": "Q668687", "ref": "4210100072"}, "type": "Feature"}
{"dataset_attributes": {"@spider": "usps_collection_boxes", "spider:collection_time": "2024-01-01T08:25:44.650502"}, "geometry": {"coordinates": [-86.442894007, 36.99248398], "type": "Point"}, "id": "6e3JIV1EfrTDjLjkj6kx9VUehVs=", "properties": {"@spider": "usps_collection_boxes", "addr:city": "BOWLING GREEN", "addr:country": "US", "addr:full": "429 E 10TH AVE", "addr:postcode": "42101", "addr:state": "KY", "amenity": "post_box", "brand": "United States Postal Service", "brand:wikidata": "Q668687", "collection_times": "Mo-Fr 12:00; Sa 08:30", "name": "USPS COLLECTION BOX - BLUE BOX", "nsi_id": "unitedstatespostalservice-a77078", "operator": "United States Postal Service", "operator:short": "USPS", "operator:type": "public", "operator:wikidata": "Q668687", "ref": "4210100074"}, "type": "Feature"}
{"dataset_attributes": {"@spider": "usps_collection_boxes", "spider:collection_time": "2024-01-01T08:25:44.650502"}, "geometry": {"coordinates": [-86.43832, 36.990075], "type": "Point"}, "id": "MP5u-_K3rhDSP1PU1DUKiH6adN0=", "properties": {"@spider": "usps_collection_boxes", "addr:city": "BOWLING GREEN", "addr:country": "US", "addr:full": "628 STATE ST", "addr:postcode": "42101", "addr:state": "KY", "amenity": "post_box", "brand": "United States Postal Service", "brand:wikidata": "Q668687", "collection_times": "Mo-Fr 17:00; Sa 14:00", "name": "USPS COLLECTION BOX - BLUE BOX", "note": "ON 12/24 AND 12/31, THIS BOX MAY BE COLLECTED AS EARLY AS 12 NOON.", "nsi_id": "unitedstatespostalservice-a77078", "operator": "United States Postal Service", "operator:short": "USPS", "operator:type": "public", "operator:wikidata": "Q668687", "ref": "4210100076"}, "type": "Feature"}
{"dataset_attributes": {"@spider": "usps_collection_boxes", "spider:collection_time": "2024-01-01T08:25:44.650502"}, "geometry": {"coordinates": [-86.440105013, 36.990194003], "type": "Point"}, "id": "zsfK-zAZirisRq-L06oI0c-1mg0=", "properties": {"@spider": "usps_collection_boxes", "addr:city": "BOWLING GREEN", "addr:country": "US", "addr:full": "948 ELM ST", "addr:postcode": "42101", "addr:state": "KY", "amenity": "post_box", "brand": "United States Postal Service", "brand:wikidata": "Q668687", "collection_times": "Mo-Fr 12:00; Sa 09:00", "name": "USPS COLLECTION BOX - BLUE BOX", "nsi_id": "unitedstatespostalservice-a77078", "operator": "United States Postal Service", "operator:short": "USPS", "operator:type": "public", "operator:wikidata": "Q668687", "ref": "4210100092"}, "type": "Feature"}
{"dataset_attributes": {"@spider": "usps_collection_boxes", "spider:collection_time": "2024-01-01T08:25:44.650502"}, "geometry": {"coordinates": [-86.466534998, 36.960729015], "type": "Point"}, "id": "QR-vV7xQjYHJzpI6C5PWIsbC52g=", "properties": {"@spider": "usps_collection_boxes", "addr:city": "BOWLING GREEN", "addr:country": "US", "addr:full": "711 CAMPBELL LN", "addr:postcode": "42101", "addr:state": "KY", "amenity": "post_box", "brand": "United States Postal Service", "brand:wikidata": "Q668687", "collection_times": "Mo-Fr 17:00; Sa 09:00", "name": "USPS COLLECTION BOX - BLUE BOX", "note": "ON 12/24 AND 12/31, THIS BOX MAY BE COLLECTED AS EARLY AS 12 NOON.", "nsi_id": "unitedstatespostalservice-a77078", "operator": "United States Postal Service", "operator:short": "USPS", "operator:type": "public", "operator:wikidata": "Q668687", "ref": "4210100097"}, "type": "Feature"}
{"dataset_attributes": {"@spider": "usps_collection_boxes", "spider:collection_time": "2024-01-01T08:25:44.650502"}, "geometry": {"coordinates": [-86.471290973, 36.961709991], "type": "Point"}, "id": "tppNQlYscFTwVyeUD9d34LfO5MI=", "properties": {"@spider": "usps_collection_boxes", "addr:city": "BOWLING GREEN", "addr:country": "US", "addr:full": "2413 NASHVILLE RD", "addr:postcode": "42101", "addr:state": "KY", "amenity": "post_box", "brand": "United States Postal Service", "brand:wikidata": "Q668687", "collection_times": "Mo-Sa 09:00", "name": "USPS COLLECTION BOX - BLUE BOX", "nsi_id": "unitedstatespostalservice-a77078", "operator": "United States Postal Service", "operator:short": "USPS", "operator:type": "public", "operator:wikidata": "Q668687", "ref": "4210100099"}, "type": "Feature"}
{"dataset_attributes": {"@spider": "usps_collection_boxes", "spider:collection_time": "2024-01-01T08:25:44.650502"}, "geometry": {"coordinates": [-86.4693238, 36.979204], "type": "Point"}, "id": "6Ev_vvYxVg-j9VUx-rF7g1QTWrg=", "properties": {"@spider": "usps_collection_boxes", "addr:city": "BOWLING GREEN", "addr:country": "US", "addr:full": "1901 RUSSELLVILLE RD", "addr:postcode": "42101", "addr:state": "KY", "amenity": "post_box", "brand": "United States Postal Service", "brand:wikidata": "Q668687", "collection_times": "Mo-Sa 09:00", "name": "USPS COLLECTION BOX - BLUE BOX", "nsi_id": "unitedstatespostalservice-a77078", "operator": "United States Postal Service", "operator:short": "USPS", "operator:type": "public", "operator:wikidata": "Q668687", "ref": "4210100101"}, "type": "Feature"}
{"dataset_attributes": {"@spider": "usps_collection_boxes", "spider:collection_time": "2024-01-01T08:25:44.650502"}, "geometry": {"coordinates": [-86.431652031, 36.962796998], "type": "Point"}, "id": "kyIvJowYvEVpmslx9HvLhRndNI4=", "properties": {"@spider": "usps_collection_boxes", "addr:city": "BOWLING GREEN", "addr:country": "US", "addr:full": "1945 SCOTTSVILLE RD", "addr:postcode": "42101", "addr:state": "KY", "amenity": "post_box", "brand": "United States Postal Service", "brand:wikidata": "Q668687", "collection_times": "Mo-Fr 12:00; Sa 09:00", "name": "USPS COLLECTION BOX - BLUE BOX", "nsi_id": "unitedstatespostalservice-a77078", "operator": "United States Postal Service", "operator:short": "USPS", "operator:type": "public", "operator:wikidata": "Q668687", "ref": "4210100103"}, "type": "Feature"}
{"dataset_attributes": {"@spider": "usps_collection_boxes", "spider:collection_time": "2024-01-01T08:25:44.650502"}, "geometry": {"coordinates": [-86.424592038, 36.951533019], "type": "Point"}, "id": "RpAXDGd1hjO3oS4ZkFNUkZtAs8w=", "properties": {"@spider": "usps_collection_boxes", "addr:city": "BOWLING GREEN", "addr:country": "US", "addr:full": "2530 SCOTTSVILLE RD", "addr:postcode": "42101", "addr:state": "KY", "amenity": "post_box", "brand": "United States Postal Service", "brand:wikidata": "Q668687", "collection_times": "Mo-Sa 09:00", "name": "USPS COLLECTION BOX - BLUE BOX", "nsi_id": "unitedstatespostalservice-a77078", "operator": "United States Postal Service", "operator:short": "USPS", "operator:type": "public", "operator:wikidata": "Q668687", "ref": "4210100105"}, "type": "Feature"}
{"dataset_attributes": {"@spider": "usps_collection_boxes", "spider:collection_time": "2024-01-01T08:25:44.650502"}, "geometry": {"coordinates": [-86.440909005, 36.992303015], "type": "Point"}, "id": "9FB_-n9aVK4no2w7gs40jAS0EPg=", "properties": {"@spider": "usps_collection_boxes", "addr:city": "BOWLING GREEN", "addr:country": "US", "addr:full": "918 STATE ST", "addr:postcode": "42101", "addr:state": "KY", "amenity": "post_box", "brand": "United States Postal Service", "brand:wikidata": "Q668687", "collection_times": "Mo-Fr 12:00; Sa 09:00", "name": "USPS COLLECTION BOX - BLUE BOX", "nsi_id": "unitedstatespostalservice-a77078", "operator": "United States Postal Service", "operator:short": "USPS", "operator:type": "public", "operator:wikidata": "Q668687", "ref": "4210100107"}, "type": "Feature"}
{"dataset_attributes": {"@spider": "usps_collection_boxes", "spider:collection_time": "2024-01-01T08:25:44.650502"}, "geometry": {"coordinates": [-86.433387001, 36.94876301], "type": "Point"}, "id": "nJYSuSEBCewhMoTg1SKyi43iGsk=", "properties": {"@spider": "usps_collection_boxes", "addr:city": "BOWLING GREEN", "addr:country": "US", "addr:full": "150 WALTON AVE", "addr:postcode": "42101", "addr:state": "KY", "amenity": "post_box", "brand": "United States Postal Service", "brand:wikidata": "Q668687", "collection_times": "Mo-Fr 12:00; Sa 09:00", "name": "USPS COLLECTION BOX - BLUE BOX", "nsi_id": "unitedstatespostalservice-a77078", "operator": "United States Postal Service", "operator:short": "USPS", "operator:type": "public", "operator:wikidata": "Q668687", "ref": "4210100109"}, "type": "Feature"}
{"dataset_attributes": {"@spider": "usps_collection_boxes", "spider:collection_time": "2024-01-01T08:25:44.650502"}, "geometry": {"coordinates": [-86.444469973, 36.99431002], "type": "Point"}, "id": "vvLq47BkaBOLmJVKod6oOU6GQmI=", "properties": {"@spider": "usps_collection_boxes", "addr:city": "BOWLING GREEN", "addr:country": "US", "addr:full": "1001 CENTER ST", "addr:postcode": "42101", "addr:state": "KY", "amenity": "post_box", "brand": "United States Postal Service", "brand:wikidata": "Q668687", "collection_times": "Mo-Fr 12:00; Sa 08:30", "name": "USPS COLLECTION BOX - BLUE BOX", "nsi_id": "unitedstatespostalservice-a77078", "operator": "United States Postal Service", "operator:short": "USPS", "operator:type": "public", "operator:wikidata": "Q668687", "ref": "4210100110"}, "type": "Feature"}
{"dataset_attributes": {"@spider": "usps_collection_boxes", "spider:collection_time": "2024-01-01T08:25:44.650502"}, "geometry": {"coordinates": [-86.4468103466, 36.959531658], "type": "Point"}, "id": "5lF7GQCQ2PjDm0bdIlp0ofd6RRM=", "properties": {"@spider": "usps_collection_boxes", "addr:city": "BOWLING GREEN", "addr:country": "US", "addr:full": "1711 DESTINY LN", "addr:postcode": "42101", "addr:state": "KY", "amenity": "post_box", "brand": "United States Postal Service", "brand:wikidata": "Q668687", "collection_times": "Mo-Sa 09:00", "name": "USPS COLLECTION BOX - BLUE BOX", "nsi_id": "unitedstatespostalservice-a77078", "operator": "United States Postal Service", "operator:short": "USPS", "operator:type": "public", "operator:wikidata": "Q668687", "ref": "4210100111"}, "type": "Feature"}
{"dataset_attributes": {"@spider": "usps_collection_boxes", "spider:collection_time": "2024-01-01T08:25:44.650502"}, "geometry": {"coordinates": [-86.4287664, 36.967567], "type": "Point"}, "id": "WDDx_XUwJEPU_aBWHsjD4H4H6yo=", "properties": {"@spider": "usps_collection_boxes", "addr:city": "BOWLING GREEN", "addr:country": "US", "addr:full": "996 WILKINSON TRCE", "addr:postcode": "42101", "addr:state": "KY", "amenity": "post_box", "brand": "United States Postal Service", "brand:wikidata": "Q668687", "collection_times": "Mo-Sa 09:00", "name": "USPS COLLECTION BOX - BLUE BOX", "nsi_id": "unitedstatespostalservice-a77078", "operator": "United States Postal Service", "operator:short": "USPS", "operator:type": "public", "operator:wikidata": "Q668687", "ref": "4210100112"}, "type": "Feature"}
{"dataset_attributes": {"@spider": "usps_collection_boxes", "spider:collection_time": "2024-01-01T08:25:44.650502"}, "geometry": {"coordinates": [-86.437395982, 36.994583983], "type": "Point"}, "id": "LbeBbs0YDFkzNCIaSOUp6owWPUs=", "properties": {"@spider": "usps_collection_boxes", "addr:city": "BOWLING GREEN", "addr:country": "US", "addr:full": "628 STATE ST", "addr:postcode": "42101", "addr:state": "KY", "amenity": "post_box", "brand": "United States Postal Service", "brand:wikidata": "Q668687", "collection_times": "Mo-Fr 16:30; Sa 14:00", "name": "USPS COLLECTION BOX - APC", "note": "ON 12/24 AND 12/31, THIS BOX MAY BE COLLECTED AS EARLY AS 12 NOON.", "nsi_id": "unitedstatespostalservice-a77078", "operator": "United States Postal Service", "operator:short": "USPS", "operator:type": "public", "operator:wikidata": "Q668687", "ref": "4210100117"}, "type": "Feature"}
{"dataset_attributes": {"@spider": "usps_collection_boxes", "spider:collection_time": "2024-01-01T08:25:44.650502"}, "geometry": {"coordinates": [-86.437420038, 36.968727991], "type": "Point"}, "id": "8EAxohgysWefNkNMhJYDRERmeRQ=", "properties": {"@spider": "usps_collection_boxes", "addr:city": "BOWLING GREEN", "addr:country": "US", "addr:full": "1308 WESTEN ST", "addr:postcode": "42101", "addr:state": "KY", "amenity": "post_box", "brand": "United States Postal Service", "brand:wikidata": "Q668687", "collection_times": "Mo-Fr 12:00; Sa 09:00", "name": "USPS COLLECTION BOX - BLUE BOX", "nsi_id": "unitedstatespostalservice-a77078", "operator": "United States Postal Service", "operator:short": "USPS", "operator:type": "public", "operator:wikidata": "Q668687", "ref": "4210100124"}, "type": "Feature"}
{"dataset_attributes": {"@spider": "usps_collection_boxes", "spider:collection_time": "2024-01-01T08:25:44.650502"}, "geometry": {"coordinates": [-86.4393931, 36.995254], "type": "Point"}, "id": "o3-8KZ2He8KhJyorfU447x3_fbo=", "properties": {"@spider": "usps_collection_boxes", "addr:city": "BOWLING GREEN", "addr:country": "US", "addr:full": "710 COLLEGE ST", "addr:postcode": "42101", "addr:state": "KY", "amenity": "post_box", "brand": "United States Postal Service", "brand:wikidata": "Q668687", "collection_times": "Mo-Sa 09:00", "name": "USPS COLLECTION BOX - BLUE BOX", "nsi_id": "unitedstatespostalservice-a77078", "operator": "United States Postal Service", "operator:short": "USPS", "operator:type": "public", "operator:wikidata": "Q668687", "ref": "4210100130"}, "type": "Feature"}
{"dataset_attributes": {"@spider": "usps_collection_boxes", "spider:collection_time": "2024-01-01T08:25:44.650502"}, "geometry": {"coordinates": [-86.477556027, 37.016019987], "type": "Point"}, "id": "VI1WDlc7Gy-_9T8wMU7U2JtSk_k=", "properties": {"@spider": "usps_collection_boxes", "addr:city": "BOWLING GREEN", "addr:country": "US", "addr:full": "2335 BARREN RIVER RD", "addr:postcode": "42101", "addr:state": "KY", "amenity": "post_box", "brand": "United States Postal Service", "brand:wikidata": "Q668687", "collection_times": "Mo-Sa 09:00", "name": "USPS COLLECTION BOX - BLUE BOX", "nsi_id": "unitedstatespostalservice-a77078", "operator": "United States Postal Service", "operator:short": "USPS", "operator:type": "public", "operator:wikidata": "Q668687", "ref": "4210100131"}, "type": "Feature"}
{"dataset_attributes": {"@spider": "usps_collection_boxes", "spider:collection_time": "2024-01-01T08:25:44.650502"}, "geometry": {"coordinates": [-86.437395982, 36.994583983], "type": "Point"}, "id": "GLjpW1SG7iUeRgwBk-T-ZFYiv9M=", "properties": {"@spider": "usps_collection_boxes", "addr:city": "BOWLING GREEN", "addr:country": "US", "addr:full": "628 STATE ST", "addr:postcode": "42101", "addr:state": "KY", "amenity": "post_box", "brand": "United States Postal Service", "brand:wikidata": "Q668687", "collection_times": "Mo-Fr 17:00; Sa 14:00", "name": "USPS COLLECTION BOX - PO LOBBY", "note": "ON 12/24 AND 12/31, THIS BOX MAY BE COLLECTED AS EARLY AS 12 NOON.", "nsi_id": "unitedstatespostalservice-a77078", "operator": "United States Postal Service", "operator:short": "USPS", "operator:type": "public", "operator:wikidata": "Q668687", "ref": "4210100133"}, "type": "Feature"}
{"dataset_attributes": {"@spider": "usps_collection_boxes", "spider:collection_time": "2024-01-01T08:25:44.650502"}, "geometry": {"coordinates": [-86.409376034, 36.924749989], "type": "Point"}, "id": "PTOK9wS0oBTaH0oHxUhe-xjjM-A=", "properties": {"@spider": "usps_collection_boxes", "addr:city": "BOWLING GREEN", "addr:country": "US", "addr:full": "5300 SCOTTSVILLE RD", "addr:postcode": "42101", "addr:state": "KY", "amenity": "post_box", "brand": "United States Postal Service", "brand:wikidata": "Q668687", "collection_times": "Mo-Sa 17:30", "name": "USPS COLLECTION BOX - PO LOBBY", "note": "ON 12/24 AND 12/31, THIS BOX MAY BE COLLECTED AS EARLY AS 12 NOON.", "nsi_id": "unitedstatespostalservice-a77078", "operator": "United States Postal Service", "operator:short": "USPS", "operator:type": "public", "operator:wikidata": "Q668687", "ref": "4210100136"}, "type": "Feature"}
{"dataset_attributes": {"@spider": "usps_collection_boxes", "spider:collection_time": "2024-01-01T08:25:44.650502"}, "geometry": {"coordinates": [-86.409376034, 36.924749989], "type": "Point"}, "id": "1mh-9ylQnKd59nVfw5dlz-iaKns=", "properties": {"@spider": "usps_collection_boxes", "addr:city": "BOWLING GREEN", "addr:country": "US", "addr:full": "5300 SCOTTSVILLE RD", "addr:postcode": "42104", "addr:state": "KY", "amenity": "post_box", "brand": "United States Postal Service", "brand:wikidata": "Q668687", "collection_times": "Mo-Fr 17:30; Sa 14:00", "name": "USPS COLLECTION BOX - PO LOBBY", "note": "ON 12/24 AND 12/31, THIS BOX MAY BE COLLECTED AS EARLY AS 12 NOON.", "nsi_id": "unitedstatespostalservice-a77078", "operator": "United States Postal Service", "operator:short": "USPS", "operator:type": "public", "operator:wikidata": "Q668687", "ref": "4210400008"}, "type": "Feature"}
{"dataset_attributes": {"@spider": "usps_collection_boxes", "spider:collection_time": "2024-01-01T08:25:44.650502"}, "geometry": {"coordinates": [-86.249897, 36.692743], "type": "Point"}, "id": "97w6mxBD7u-bVkbOEI4OB5NBc_A=", "properties": {"@spider": "usps_collection_boxes", "addr:city": "ADOLPHUS", "addr:country": "US", "addr:full": "6422 NEW GALLATIN RD", "addr:postcode": "42120", "addr:state": "KY", "amenity": "post_box", "brand": "United States Postal Service", "brand:wikidata": "Q668687", "collection_times": "Mo-Fr 15:45; Sa 10:45", "name": "USPS COLLECTION BOX - BLUE BOX", "note": "ON 12/24 AND 12/31, THIS BOX MAY BE COLLECTED AS EARLY AS 12 NOON.", "nsi_id": "unitedstatespostalservice-a77078", "operator": "United States Postal Service", "operator:short": "USPS", "operator:type": "public", "operator:wikidata": "Q668687", "ref": "4212000000"}, "type": "Feature"}
{"dataset_attributes": {"@spider": "usps_collection_boxes", "spider:collection_time": "2024-01-01T08:25:44.650502"}, "geometry": {"coordinates": [-86.24989, 36.692673], "type": "Point"}, "id": "UDYG3uqA6mdMXLT-tDE1nPxrVQo=", "properties": {"@spider": "usps_collection_boxes", "addr:city": "ADOLPHUS", "addr:country": "US", "addr:full": "6422 NEW GALLATIN RD", "addr:postcode": "42120", "addr:state": "KY", "amenity": "post_box", "brand": "United States Postal Service", "brand:wikidata": "Q668687", "collection_times": "Mo-Fr 15:45; Sa 10:45", "name": "USPS COLLECTION BOX - PO LOBBY", "note": "ON 12/24 AND 12/31, THIS BOX MAY BE COLLECTED AS EARLY AS 12 NOON.", "nsi_id": "unitedstatespostalservice-a77078", "operator": "United States Postal Service", "operator:short": "USPS", "operator:type": "public", "operator:wikidata": "Q668687", "ref": "4212000001"}, "type": "Feature"}
{"dataset_attributes": {"@spider": "usps_collection_boxes", "spider:collection_time": "2024-01-01T08:25:44.650502"}, "geometry": {"coordinates": [-86.2531375868, 36.6880999322], "type": "Point"}, "id": "ibG3lVpTOtdm9iDui-NdkMhrmk8=", "properties": {"@spider": "usps_collection_boxes", "addr:city": "ADOLPHUS", "addr:country": "US", "addr:full": "6422 NEW GALLATIN RD", "addr:postcode": "42120", "addr:state": "KY", "amenity": "post_box", "brand": "United States Postal Service", "brand:wikidata": "Q668687", "collection_times": "Mo-Fr 15:45; Sa 12:00", "name": "USPS COLLECTION BOX - PO LOBBY", "note": "ON 12/24 AND 12/31, THIS BOX MAY BE COLLECTED AS EARLY AS 12 NOON.", "nsi_id": "unitedstatespostalservice-a77078", "operator": "United States Postal Service", "operator:short": "USPS", "operator:type": "public", "operator:wikidata": "Q668687", "ref": "4212000003"}, "type": "Feature"}
{"dataset_attributes": {"@spider": "usps_collection_boxes", "spider:collection_time": "2024-01-01T08:25:44.650502"}, "geometry": {"coordinates": [-86.35029401, 36.869626989], "type": "Point"}, "id": "5ZoriaqrI1Qq496pUkD_wtQhaBM=", "properties": {"@spider": "usps_collection_boxes", "addr:city": "ALVATON", "addr:country": "US", "addr:full": "10363 ALVATON RD", "addr:postcode": "42122", "addr:state": "KY", "amenity": "post_box", "brand": "United States Postal Service", "brand:wikidata": "Q668687", "collection_times": "Mo-Fr 15:30; Sa 11:45", "name": "USPS COLLECTION BOX - BLUE BOX", "note": "ON 12/24 AND 12/31, THIS BOX MAY BE COLLECTED AS EARLY AS 12 NOON.", "nsi_id": "unitedstatespostalservice-a77078", "operator": "United States Postal Service", "operator:short": "USPS", "operator:type": "public", "operator:wikidata": "Q668687", "ref": "4212200000"}, "type": "Feature"}
{"dataset_attributes": {"@spider": "usps_collection_boxes", "spider:collection_time": "2024-01-01T08:25:44.650502"}, "geometry": {"coordinates": [-86.35029401, 36.869626989], "type": "Point"}, "id": "5do7LzPyCqAgAnF9dw-Yub89d7k=", "properties": {"@spider": "usps_collection_boxes", "addr:city": "ALVATON", "addr:country": "US", "addr:full": "10363 ALVATON RD", "addr:postcode": "42122", "addr:state": "KY", "amenity": "post_box", "brand": "United States Postal Service", "brand:wikidata": "Q668687", "collection_times": "Mo-Fr 15:30; Sa 11:45", "name": "USPS COLLECTION BOX - PO LOBBY", "note": "ON 12/24 AND 12/31, THIS BOX MAY BE COLLECTED AS EARLY AS 12 NOON.", "nsi_id": "unitedstatespostalservice-a77078", "operator": "United States Postal Service", "operator:short": "USPS", "operator:type": "public", "operator:wikidata": "Q668687", "ref": "4212200001"}, "type": "Feature"}
{"dataset_attributes": {"@spider": "usps_collection_boxes", "spider:collection_time": "2024-01-01T08:25:44.650502"}, "geometry": {"coordinates": [-86.35029401, 36.869626989], "type": "Point"}, "id": "DSrbwZGmxAFCKWbYVYlr3Z5CHYE=", "properties": {"@spider": "usps_collection_boxes", "addr:city": "ALVATON", "addr:country": "US", "addr:full": "10363 ALVATON RD", "addr:postcode": "42122", "addr:state": "KY", "amenity": "post_box", "brand": "United States Postal Service", "brand:wikidata": "Q668687", "collection_times": "Mo-Fr 16:00; Sa 12:00", "name": "USPS COLLECTION BOX - PO LOBBY", "note": "ON 12/24 AND 12/31, THIS BOX MAY BE COLLECTED AS EARLY AS 12 NOON.", "nsi_id": "unitedstatespostalservice-a77078", "operator": "United States Postal Service", "operator:short": "USPS", "operator:type": "public", "operator:wikidata": "Q668687", "ref": "4212200004"}, "type": "Feature"}
{"dataset_attributes": {"@spider": "usps_collection_boxes", "spider:collection_time": "2024-01-01T08:25:44.650502"}, "geometry": {"coordinates": [-85.956382, 37.136536], "type": "Point"}, "id": "Dqd-wIIhorrQS65umEHNPV2ZO3g=", "properties": {"@spider": "usps_collection_boxes", "addr:city": "CAVE CITY", "addr:country": "US", "addr:full": "309 BROADWAY ST", "addr:postcode": "42127", "addr:state": "KY", "amenity": "post_box", "brand": "United States Postal Service", "brand:wikidata": "Q668687", "collection_times": "Mo-Fr 14:45; Sa 10:00", "name": "USPS COLLECTION BOX - PO LOBBY", "note": "ON 12/24 AND 12/31, THIS BOX MAY BE COLLECTED AS EARLY AS 12 NOON.", "nsi_id": "unitedstatespostalservice-a77078", "operator": "United States Postal Service", "operator:short": "USPS", "operator:type": "public", "operator:wikidata": "Q668687", "ref": "4212700001"}, "type": "Feature"}
{"dataset_attributes": {"@spider": "usps_collection_boxes", "spider:collection_time": "2024-01-01T08:25:44.650502"}, "geometry": {"coordinates": [-85.956382, 37.136536], "type": "Point"}, "id": "mfJ7QQFYEDOmvlRbUyB_P9Decic=", "properties": {"@spider": "usps_collection_boxes", "addr:city": "CAVE CITY", "addr:country": "US", "addr:full": "309 BROADWAY ST", "addr:postcode": "42127", "addr:state": "KY", "amenity": "post_box", "brand": "United States Postal Service", "brand:wikidata": "Q668687", "collection_times": "Mo-Fr 14:45; Sa 10:00", "name": "USPS COLLECTION BOX - BLUE BOX", "note": "ON 12/24 AND 12/31, THIS BOX MAY BE COLLECTED AS EARLY AS 12 NOON.", "nsi_id": "unitedstatespostalservice-a77078", "operator": "United States Postal Service", "operator:short": "USPS", "operator:type": "public", "operator:wikidata": "Q668687", "ref": "4212700002"}, "type": "Feature"}
{"dataset_attributes": {"@spider": "usps_collection_boxes", "spider:collection_time": "2024-01-01T08:25:44.650502"}, "geometry": {"coordinates": [-85.9566826333, 37.1364367666], "type": "Point"}, "id": "HGgRehTZ_3GhEu3IXPdvWJaGHnw=", "properties": {"@spider": "usps_collection_boxes", "addr:city": "CAVE CITY", "addr:country": "US", "addr:full": "309 BROADWAY ST", "addr:postcode": "42127", "addr:state": "KY", "amenity": "post_box", "brand": "United States Postal Service", "brand:wikidata": "Q668687", "collection_times": "Mo-Fr 15:45; Sa 10:00", "name": "USPS COLLECTION BOX - PO LOBBY", "note": "ON 12/24 AND 12/31, THIS BOX MAY BE COLLECTED AS EARLY AS 12 NOON.", "nsi_id": "unitedstatespostalservice-a77078", "operator": "United States Postal Service", "operator:short": "USPS", "operator:type": "public", "operator:wikidata": "Q668687", "ref": "4212700004"}, "type": "Feature"}
{"dataset_attributes": {"@spider": "usps_collection_boxes", "spider:collection_time": "2024-01-01T08:25:44.650502"}, "geometry": {"coordinates": [-85.610687145, 36.978780413], "type": "Point"}, "id": "FQfrCBonQgxKCF69WOtb7axY0V4=", "properties": {"@spider": "usps_collection_boxes", "addr:city": "EDMONTON", "addr:country": "US", "addr:full": "202 HAMILTON ST", "addr:postcode": "42129", "addr:state": "KY", "amenity": "post_box", "brand": "United States Postal Service", "brand:wikidata": "Q668687", "collection_times": "Mo-Fr 16:00; Sa 11:00", "name": "USPS COLLECTION BOX - BLUE BOX", "note": "ON 12/24 AND 12/31, THIS BOX MAY BE COLLECTED AS EARLY AS 12 NOON.", "nsi_id": "unitedstatespostalservice-a77078", "operator": "United States Postal Service", "operator:short": "USPS", "operator:type": "public", "operator:wikidata": "Q668687", "ref": "4212900001"}, "type": "Feature"}
{"dataset_attributes": {"@spider": "usps_collection_boxes", "spider:collection_time": "2024-01-01T08:25:44.650502"}, "geometry": {"coordinates": [-85.610687145, 36.978780413], "type": "Point"}, "id": "pc8A0mk5ZuMmI7s4ZgjorBFtL5U=", "properties": {"@spider": "usps_collection_boxes", "addr:city": "EDMONTON", "addr:country": "US", "addr:full": "202 HAMILTON ST", "addr:postcode": "42129", "addr:state": "KY", "amenity": "post_box", "brand": "United States Postal Service", "brand:wikidata": "Q668687", "collection_times": "Mo-Fr 16:00; Sa 11:00", "name": "USPS COLLECTION BOX - PO LOBBY", "note": "ON 12/24 AND 12/31, THIS BOX MAY BE COLLECTED AS EARLY AS 12 NOON.", "nsi_id": "unitedstatespostalservice-a77078", "operator": "United States Postal Service", "operator:short": "USPS", "operator:type": "public", "operator:wikidata": "Q668687", "ref": "4212900003"}, "type": "Feature"}
{"dataset_attributes": {"@spider": "usps_collection_boxes", "spider:collection_time": "2024-01-01T08:25:44.650502"}, "geometry": {"coordinates": [-85.6390399, 36.987535], "type": "Point"}, "id": "a8xqCobxWynXNccKe0isxcIBAg4=", "properties": {"@spider": "usps_collection_boxes", "addr:city": "EDMONTON", "addr:country": "US", "addr:full": "1417 W STOCKTON ST", "addr:postcode": "42129", "addr:state": "KY", "amenity": "post_box", "brand": "United States Postal Service", "brand:wikidata": "Q668687", "collection_times": "Mo-Sa 13:00", "name": "USPS COLLECTION BOX - BLUE BOX", "note": "ON 12/24 AND 12/31, THIS BOX MAY BE COLLECTED AS EARLY AS 12 NOON.", "nsi_id": "unitedstatespostalservice-a77078", "operator": "United States Postal Service", "operator:short": "USPS", "operator:type": "public", "operator:wikidata": "Q668687", "ref": "4212900004"}, "type": "Feature"}
{"dataset_attributes": {"@spider": "usps_collection_boxes", "spider:collection_time": "2024-01-01T08:25:44.650502"}, "geometry": {"coordinates": [-85.610687145, 36.978780413], "type": "Point"}, "id": "EVJIWnLEbPjz3IAMS3g3Q33fPa4=", "properties": {"@spider": "usps_collection_boxes", "addr:city": "EDMONTON", "addr:country": "US", "addr:full": "202 HAMILTON ST", "addr:postcode": "42129", "addr:state": "KY", "amenity": "post_box", "brand": "United States Postal Service", "brand:wikidata": "Q668687", "collection_times": "Mo-Fr 16:00; Sa 11:00", "name": "USPS COLLECTION BOX - PO LOBBY", "note": "ON 12/24 AND 12/31, THIS BOX MAY BE COLLECTED AS EARLY AS 12 NOON.", "nsi_id": "unitedstatespostalservice-a77078", "operator": "United States Postal Service", "operator:short": "USPS", "operator:type": "public", "operator:wikidata": "Q668687", "ref": "4212900007"}, "type": "Feature"}
{"dataset_attributes": {"@spider": "usps_collection_boxes", "spider:collection_time": "2024-01-01T08:25:44.650502"}, "geometry": {"coordinates": [-85.96751108, 36.72182404], "type": "Point"}, "id": "fgqxNBUzuezAQZU7yFNr09yDlWQ=", "properties": {"@spider": "usps_collection_boxes", "addr:city": "FOUNTAIN RUN", "addr:country": "US", "addr:full": "200 MAIN ST", "addr:postcode": "42133", "addr:state": "KY", "amenity": "post_box", "brand": "United States Postal Service", "brand:wikidata": "Q668687", "collection_times": "Mo-Fr 15:15; Sa 09:45", "name": "USPS COLLECTION BOX - BLUE BOX", "note": "ON 12/24 AND 12/31, THIS BOX MAY BE COLLECTED AS EARLY AS 12 NOON.", "nsi_id": "unitedstatespostalservice-a77078", "operator": "United States Postal Service", "operator:short": "USPS", "operator:type": "public", "operator:wikidata": "Q668687", "ref": "4213300000"}, "type": "Feature"}
{"dataset_attributes": {"@spider": "usps_collection_boxes", "spider:collection_time": "2024-01-01T08:25:44.650502"}, "geometry": {"coordinates": [-85.96751108, 36.72182404], "type": "Point"}, "id": "faXQm1tkURi4meefv6qgM4M5moo=", "properties": {"@spider": "usps_collection_boxes", "addr:city": "FOUNTAIN RUN", "addr:country": "US", "addr:full": "200 MAIN ST", "addr:postcode": "42133", "addr:state": "KY", "amenity": "post_box", "brand": "United States Postal Service", "brand:wikidata": "Q668687", "collection_times": "Mo-Fr 15:15; Sa 09:45", "name": "USPS COLLECTION BOX - PO LOBBY", "note": "ON 12/24 AND 12/31, THIS BOX MAY BE COLLECTED AS EARLY AS 12 NOON.", "nsi_id": "unitedstatespostalservice-a77078", "operator": "United States Postal Service", "operator:short": "USPS", "operator:type": "public", "operator:wikidata": "Q668687", "ref": "4213300001"}, "type": "Feature"}
{"dataset_attributes": {"@spider": "usps_collection_boxes", "spider:collection_time": "2024-01-01T08:25:44.650502"}, "geometry": {"coordinates": [-85.96751108, 36.72182404], "type": "Point"}, "id": "Y9nUPAQC06pw0CmvhqdILrhBxbM=", "properties": {"@spider": "usps_collection_boxes", "addr:city": "FOUNTAIN RUN", "addr:country": "US", "addr:full": "200 MAIN ST", "addr:postcode": "42133", "addr:state": "KY", "amenity": "post_box", "brand": "United States Postal Service", "brand:wikidata": "Q668687", "collection_times": "Mo-Fr 15:15; Sa 09:45", "name": "USPS COLLECTION BOX - PO LOBBY", "note": "ON 12/24 AND 12/31, THIS BOX MAY BE COLLECTED AS EARLY AS 12 NOON.", "nsi_id": "unitedstatespostalservice-a77078", "operator": "United States Postal Service", "operator:short": "USPS", "operator:type": "public", "operator:wikidata": "Q668687", "ref": "4213300003"}, "type": "Feature"}
{"dataset_attributes": {"@spider": "usps_collection_boxes", "spider:collection_time": "2024-01-01T08:25:44.650502"}, "geometry": {"coordinates": [-86.578394743, 36.730440115], "type": "Point"}, "id": "EXms3iNF8ePpBYYug7CuhplzCLw=", "properties": {"@spider": "usps_collection_boxes", "addr:city": "FRANKLIN", "addr:country": "US", "addr:full": "619 N MAIN ST", "addr:postcode": "42134", "addr:state": "KY", "amenity": "post_box", "brand": "United States Postal Service", "brand:wikidata": "Q668687", "collection_times": "Mo-Fr 16:00; Sa 15:30", "name": "USPS COLLECTION BOX - BLUE BOX", "note": "ON 12/24 AND 12/31, THIS BOX MAY BE COLLECTED AS EARLY AS 12 NOON.", "nsi_id": "unitedstatespostalservice-a77078", "operator": "United States Postal Service", "operator:short": "USPS", "operator:type": "public", "operator:wikidata": "Q668687", "ref": "4213400006"}, "type": "Feature"}
{"dataset_attributes": {"@spider": "usps_collection_boxes", "spider:collection_time": "2024-01-01T08:25:44.650502"}, "geometry": {"coordinates": [-86.578394743, 36.730440115], "type": "Point"}, "id": "sk7HxT27DaxIH7RWXM6GEKcnwyI=", "properties": {"@spider": "usps_collection_boxes", "addr:city": "FRANKLIN", "addr:country": "US", "addr:full": "619 N MAIN ST", "addr:postcode": "42134", "addr:state": "KY", "amenity": "post_box", "brand": "United States Postal Service", "brand:wikidata": "Q668687", "collection_times": "Mo-Fr 16:00; Sa 15:30", "name": "USPS COLLECTION BOX - PO LOBBY", "note": "ON 12/24 AND 12/31, THIS BOX MAY BE COLLECTED AS EARLY AS 12 NOON.", "nsi_id": "unitedstatespostalservice-a77078", "operator": "United States Postal Service", "operator:short": "USPS", "operator:type": "public", "operator:wikidata": "Q668687", "ref": "4213400009"}, "type": "Feature"}
{"dataset_attributes": {"@spider": "usps_collection_boxes", "spider:collection_time": "2024-01-01T08:25:44.650502"}, "geometry": {"coordinates": [-86.578394743, 36.730440115], "type": "Point"}, "id": "5CH6segehny3AzC5Oh79zYi9pwE=", "properties": {"@spider": "usps_collection_boxes", "addr:city": "FRANKLIN", "addr:country": "US", "addr:full": "619 N MAIN ST", "addr:postcode": "42134", "addr:state": "KY", "amenity": "post_box", "brand": "United States Postal Service", "brand:wikidata": "Q668687", "collection_times": "Mo-Fr 16:30; Sa 11:00", "name": "USPS COLLECTION BOX - PO LOBBY", "note": "ON 12/24 AND 12/31, THIS BOX MAY BE COLLECTED AS EARLY AS 12 NOON.", "nsi_id": "unitedstatespostalservice-a77078", "operator": "United States Postal Service", "operator:short": "USPS", "operator:type": "public", "operator:wikidata": "Q668687", "ref": "4213400015"}, "type": "Feature"}
{"dataset_attributes": {"@spider": "usps_collection_boxes", "spider:collection_time": "2024-01-01T08:25:44.650502"}, "geometry": {"coordinates": [-85.793545567, 36.64333621], "type": "Point"}, "id": "1XuGVSQwYVoDDH4b_mFnLZWtBbI=", "properties": {"@spider": "usps_collection_boxes", "addr:city": "GAMALIEL", "addr:country": "US", "addr:full": "106 FOUNTAIN RUN RD", "addr:postcode": "42140", "addr:state": "KY", "amenity": "post_box", "brand": "United States Postal Service", "brand:wikidata": "Q668687", "collection_times": "Mo-Fr 15:30; Sa 10:00", "name": "USPS COLLECTION BOX - BLUE BOX", "note": "ON 12/24 AND 12/31, THIS BOX MAY BE COLLECTED AS EARLY AS 12 NOON.", "nsi_id": "unitedstatespostalservice-a77078", "operator": "United States Postal Service", "operator:short": "USPS", "operator:type": "public", "operator:wikidata": "Q668687", "ref": "4214000000"}, "type": "Feature"}
{"dataset_attributes": {"@spider": "usps_collection_boxes", "spider:collection_time": "2024-01-01T08:25:44.650502"}, "geometry": {"coordinates": [-85.793545567, 36.64333621], "type": "Point"}, "id": "adYk2bwWBRRGnTpSMssWIjfw0lE=", "properties": {"@spider": "usps_collection_boxes", "addr:city": "GAMALIEL", "addr:country": "US", "addr:full": "106 FOUNTAIN RUN RD", "addr:postcode": "42140", "addr:state": "KY", "amenity": "post_box", "brand": "United States Postal Service", "brand:wikidata": "Q668687", "collection_times": "Mo-Fr 15:30; Sa 10:00", "name": "USPS COLLECTION BOX - PO LOBBY", "note": "ON 12/24 AND 12/31, THIS BOX MAY BE COLLECTED AS EARLY AS 12 NOON.", "nsi_id": "unitedstatespostalservice-a77078", "operator": "United States Postal Service", "operator:short": "USPS", "operator:type": "public", "operator:wikidata": "Q668687", "ref": "4214000001"}, "type": "Feature"}
{"dataset_attributes": {"@spider": "usps_collection_boxes", "spider:collection_time": "2024-01-01T08:25:44.650502"}, "geometry": {"coordinates": [-85.793545567, 36.64333621], "type": "Point"}, "id": "U0hvsUslGkKqrPz-_SKsXto1gqo=", "properties": {"@spider": "usps_collection_boxes", "addr:city": "GAMALIEL", "addr:country": "US", "addr:full": "106 FOUNTAIN RUN RD", "addr:postcode": "42140", "addr:state": "KY", "amenity": "post_box", "brand": "United States Postal Service", "brand:wikidata": "Q668687", "collection_times": "Mo-Fr 15:30; Sa 10:00", "name": "USPS COLLECTION BOX - PO LOBBY", "note": "ON 12/24 AND 12/31, THIS BOX MAY BE COLLECTED AS EARLY AS 12 NOON.", "nsi_id": "unitedstatespostalservice-a77078", "operator": "United States Postal Service", "operator:short": "USPS", "operator:type": "public", "operator:wikidata": "Q668687", "ref": "4214000003"}, "type": "Feature"}
{"dataset_attributes": {"@spider": "usps_collection_boxes", "spider:collection_time": "2024-01-01T08:25:44.650502"}, "geometry": {"coordinates": [-85.9023386, 37.01025], "type": "Point"}, "id": "wcgNjWfkoPw0TVmvM6hVIV0FsZ0=", "properties": {"@spider": "usps_collection_boxes", "addr:city": "GLASGOW", "addr:country": "US", "addr:full": "1216 N RACE ST", "addr:postcode": "42141", "addr:state": "KY", "amenity": "post_box", "brand": "United States Postal Service", "brand:wikidata": "Q668687", "collection_times": "Mo-Fr 16:00; Sa 15:30", "name": "USPS COLLECTION BOX - BLUE BOX", "note": "ON 12/24 AND 12/31, THIS BOX MAY BE COLLECTED AS EARLY AS 12 NOON.", "nsi_id": "unitedstatespostalservice-a77078", "operator": "United States Postal Service", "operator:short": "USPS", "operator:type": "public", "operator:wikidata": "Q668687", "ref": "4214100002"}, "type": "Feature"}
{"dataset_attributes": {"@spider": "usps_collection_boxes", "spider:collection_time": "2024-01-01T08:25:44.650502"}, "geometry": {"coordinates": [-85.9066057, 37.015312], "type": "Point"}, "id": "1O6lp7UX97DESxVc7DSuAyi2GWs=", "properties": {"@spider": "usps_collection_boxes", "addr:city": "GLASGOW", "addr:country": "US", "addr:full": "108 BRAVO BLVD", "addr:postcode": "42141", "addr:state": "KY", "amenity": "post_box", "brand": "United States Postal Service", "brand:wikidata": "Q668687", "collection_times": "Mo-Fr 16:00; Sa 15:30", "name": "USPS COLLECTION BOX - BLUE BOX", "note": "ON 12/24 AND 12/31, THIS BOX MAY BE COLLECTED AS EARLY AS 12 NOON.", "nsi_id": "unitedstatespostalservice-a77078", "operator": "United States Postal Service", "operator:short": "USPS", "operator:type": "public", "operator:wikidata": "Q668687", "ref": "4214100004"}, "type": "Feature"}
{"dataset_attributes": {"@spider": "usps_collection_boxes", "spider:collection_time": "2024-01-01T08:25:44.650502"}, "geometry": {"coordinates": [-85.9113799, 37.005036], "type": "Point"}, "id": "WZBNGYXtKKXfGBx93gQo8VB72mQ=", "properties": {"@spider": "usps_collection_boxes", "addr:city": "GLASGOW", "addr:country": "US", "addr:full": "415 HAPPY VALLEY RD", "addr:postcode": "42141", "addr:state": "KY", "amenity": "post_box", "brand": "United States Postal Service", "brand:wikidata": "Q668687", "collection_times": "Mo-Fr 16:00; Sa 15:30", "name": "USPS COLLECTION BOX - BLUE BOX", "note": "ON 12/24 AND 12/31, THIS BOX MAY BE COLLECTED AS EARLY AS 12 NOON.", "nsi_id": "unitedstatespostalservice-a77078", "operator": "United States Postal Service", "operator:short": "USPS", "operator:type": "public", "operator:wikidata": "Q668687", "ref": "4214100006"}, "type": "Feature"}
{"dataset_attributes": {"@spider": "usps_collection_boxes", "spider:collection_time": "2024-01-01T08:25:44.650502"}, "geometry": {"coordinates": [-85.9199666, 37.011672], "type": "Point"}, "id": "80MBYjfH5m1puo1AClEGZ6GoLTo=", "properties": {"@spider": "usps_collection_boxes", "addr:city": "GLASGOW", "addr:country": "US", "addr:full": "1000 STONEHENGE PL", "addr:postcode": "42141", "addr:state": "KY", "amenity": "post_box", "brand": "United States Postal Service", "brand:wikidata": "Q668687", "collection_times": "Mo-Fr 10:30; Sa 10:00", "name": "USPS COLLECTION BOX - BLUE BOX", "nsi_id": "unitedstatespostalservice-a77078", "operator": "United States Postal Service", "operator:short": "USPS", "operator:type": "public", "operator:wikidata": "Q668687", "ref": "4214100007"}, "type": "Feature"}
{"dataset_attributes": {"@spider": "usps_collection_boxes", "spider:collection_time": "2024-01-01T08:25:44.650502"}, "geometry": {"coordinates": [-85.9285214, 37.0157], "type": "Point"}, "id": "7orjZpwwZ75hLLCRbnfZwxY-WSU=", "properties": {"@spider": "usps_collection_boxes", "addr:city": "GLASGOW", "addr:country": "US", "addr:full": "100 COMMERCE DR", "addr:postcode": "42141", "addr:state": "KY", "amenity": "post_box", "brand": "United States Postal Service", "brand:wikidata": "Q668687", "collection_times": "Mo-Fr 16:10; Sa 15:30", "name": "USPS COLLECTION BOX - BLUE BOX", "note": "ON 12/24 AND 12/31, THIS BOX MAY BE COLLECTED AS EARLY AS 12 NOON.", "nsi_id": "unitedstatespostalservice-a77078", "operator": "United States Postal Service", "operator:short": "USPS", "operator:type": "public", "operator:wikidata": "Q668687", "ref": "4214100009"}, "type": "Feature"}
{"dataset_attributes": {"@spider": "usps_collection_boxes", "spider:collection_time": "2024-01-01T08:25:44.650502"}, "geometry": {"coordinates": [-85.9300842, 36.98347], "type": "Point"}, "id": "0rvfZ9GdKcgQEjb-5JMTFBTSg74=", "properties": {"@spider": "usps_collection_boxes", "addr:city": "GLASGOW", "addr:country": "US", "addr:full": "619 S L ROGERS WELLS BLVD", "addr:postcode": "42141", "addr:state": "KY", "amenity": "post_box", "brand": "United States Postal Service", "brand:wikidata": "Q668687", "collection_times": "Mo-Fr 16:25; Sa 15:30", "name": "USPS COLLECTION BOX - BLUE BOX", "note": "ON 12/24 AND 12/31, THIS BOX MAY BE COLLECTED AS EARLY AS 12 NOON.", "nsi_id": "unitedstatespostalservice-a77078", "operator": "United States Postal Service", "operator:short": "USPS", "operator:type": "public", "operator:wikidata": "Q668687", "ref": "4214100013"}, "type": "Feature"}
{"dataset_attributes": {"@spider": "usps_collection_boxes", "spider:collection_time": "2024-01-01T08:25:44.650502"}, "geometry": {"coordinates": [-85.9117386, 36.995872], "type": "Point"}, "id": "ipL1-kOyHaFXhMMj2E-BKoRz_l4=", "properties": {"@spider": "usps_collection_boxes", "addr:city": "GLASGOW", "addr:country": "US", "addr:full": "101 E MAIN ST", "addr:postcode": "42141", "addr:state": "KY", "amenity": "post_box", "brand": "United States Postal Service", "brand:wikidata": "Q668687", "collection_times": "Mo-Fr 16:00; Sa 15:30", "name": "USPS COLLECTION BOX - BLUE BOX", "note": "ON 12/24 AND 12/31, THIS BOX MAY BE COLLECTED AS EARLY AS 12 NOON.", "nsi_id": "unitedstatespostalservice-a77078", "operator": "United States Postal Service", "operator:short": "USPS", "operator:type": "public", "operator:wikidata": "Q668687", "ref": "4214100017"}, "type": "Feature"}
{"dataset_attributes": {"@spider": "usps_collection_boxes", "spider:collection_time": "2024-01-01T08:25:44.650502"}, "geometry": {"coordinates": [-85.9135628, 36.995363], "type": "Point"}, "id": "HBpI8_AIRBTeRrB03YGchNcqkVo=", "properties": {"@spider": "usps_collection_boxes", "addr:city": "GLASGOW", "addr:country": "US", "addr:full": "202 W WASHINGTON ST", "addr:postcode": "42141", "addr:state": "KY", "amenity": "post_box", "brand": "United States Postal Service", "brand:wikidata": "Q668687", "collection_times": "Mo-Fr 16:45; Sa 15:30", "name": "USPS COLLECTION BOX - BLUE BOX", "note": "ON 12/24 AND 12/31, THIS BOX MAY BE COLLECTED AS EARLY AS 12 NOON.", "nsi_id": "unitedstatespostalservice-a77078", "operator": "United States Postal Service", "operator:short": "USPS", "operator:type": "public", "operator:wikidata": "Q668687", "ref": "4214100019"}, "type": "Feature"}
{"dataset_attributes": {"@spider": "usps_collection_boxes", "spider:collection_time": "2024-01-01T08:25:44.650502"}, "geometry": {"coordinates": [-85.9123025, 36.994983], "type": "Point"}, "id": "bYrmPl6ptK8gNvFaf80Njkt6bhg=", "properties": {"@spider": "usps_collection_boxes", "addr:city": "GLASGOW", "addr:country": "US", "addr:full": "101 E WASHINGTON ST", "addr:postcode": "42141", "addr:state": "KY", "amenity": "post_box", "brand": "United States Postal Service", "brand:wikidata": "Q668687", "collection_times": "Mo-Fr 17:00; Sa 15:30", "name": "USPS COLLECTION BOX - BLUE BOX", "note": "ON 12/24 AND 12/31, THIS BOX MAY BE COLLECTED AS EARLY AS 12 NOON.", "nsi_id": "unitedstatespostalservice-a77078", "operator": "United States Postal Service", "operator:short": "USPS", "operator:type": "public", "operator:wikidata": "Q668687", "ref": "4214100029"}, "type": "Feature"}
{"dataset_attributes": {"@spider": "usps_collection_boxes", "spider:collection_time": "2024-01-01T08:25:44.650502"}, "geometry": {"coordinates": [-85.907621697, 36.997709728], "type": "Point"}, "id": "B5q-ub5tLo3xJfPykwGtIBOtkAM=", "properties": {"@spider": "usps_collection_boxes", "addr:city": "GLASGOW", "addr:country": "US", "addr:full": "201 COLUMBIA AVE", "addr:postcode": "42141", "addr:state": "KY", "amenity": "post_box", "brand": "United States Postal Service", "brand:wikidata": "Q668687", "collection_times": "Mo-Fr 17:15; Sa 16:15", "name": "USPS COLLECTION BOX - BLUE BOX", "note": "ON 12/24 AND 12/31, THIS BOX MAY BE COLLECTED AS EARLY AS 12 NOON.", "nsi_id": "unitedstatespostalservice-a77078", "operator": "United States Postal Service", "operator:short": "USPS", "operator:type": "public", "operator:wikidata": "Q668687", "ref": "4214100030"}, "type": "Feature"}
{"dataset_attributes": {"@spider": "usps_collection_boxes", "spider:collection_time": "2024-01-01T08:25:44.650502"}, "geometry": {"coordinates": [-85.916421, 36.997656], "type": "Point"}, "id": "JFyh1DndaKoBFjLORV1aNwwyT8w=", "properties": {"@spider": "usps_collection_boxes", "addr:city": "GLASGOW", "addr:country": "US", "addr:full": "445 W MAIN ST", "addr:postcode": "42141", "addr:state": "KY", "amenity": "post_box", "brand": "United States Postal Service", "brand:wikidata": "Q668687", "collection_times": "Mo-Fr 17:00; Sa 15:45", "name": "USPS COLLECTION BOX - BLUE BOX", "note": "ON 12/24 AND 12/31, THIS BOX MAY BE COLLECTED AS EARLY AS 12 NOON.", "nsi_id": "unitedstatespostalservice-a77078", "operator": "United States Postal Service", "operator:short": "USPS", "operator:type": "public", "operator:wikidata": "Q668687", "ref": "4214100039"}, "type": "Feature"}
{"dataset_attributes": {"@spider": "usps_collection_boxes", "spider:collection_time": "2024-01-01T08:25:44.650502"}, "geometry": {"coordinates": [-85.916421, 36.997656], "type": "Point"}, "id": "WKTD-NWo9PBwK4B0LdTyYTbayII=", "properties": {"@spider": "usps_collection_boxes", "addr:city": "GLASGOW", "addr:country": "US", "addr:full": "445 W MAIN ST", "addr:postcode": "42141", "addr:state": "KY", "amenity": "post_box", "brand": "United States Postal Service", "brand:wikidata": "Q668687", "collection_times": "Mo-Fr 16:45; Sa 15:45", "name": "USPS COLLECTION BOX - PO LOBBY", "note": "ON 12/24 AND 12/31, THIS BOX MAY BE COLLECTED AS EARLY AS 12 NOON.", "nsi_id": "unitedstatespostalservice-a77078", "operator": "United States Postal Service", "operator:short": "USPS", "operator:type": "public", "operator:wikidata": "Q668687", "ref": "4214100042"}, "type": "Feature"}
{"dataset_attributes": {"@spider": "usps_collection_boxes", "spider:collection_time": "2024-01-01T08:25:44.650502"}, "geometry": {"coordinates": [-85.916421, 36.997656], "type": "Point"}, "id": "A6U-PUsCaMzLyNYO891kprFo-j8=", "properties": {"@spider": "usps_collection_boxes", "addr:city": "GLASGOW", "addr:country": "US", "addr:full": "445 W MAIN ST", "addr:postcode": "42141", "addr:state": "KY", "amenity": "post_box", "brand": "United States Postal Service", "brand:wikidata": "Q668687", "collection_times": "Mo-Fr 16:45; Sa 15:45", "name": "USPS COLLECTION BOX - PO LOBBY", "note": "ON 12/24 AND 12/31, THIS BOX MAY BE COLLECTED AS EARLY AS 12 NOON.", "nsi_id": "unitedstatespostalservice-a77078", "operator": "United States Postal Service", "operator:short": "USPS", "operator:type": "public", "operator:wikidata": "Q668687", "ref": "4214100049"}, "type": "Feature"}
{"dataset_attributes": {"@spider": "usps_collection_boxes", "spider:collection_time": "2024-01-01T08:25:44.650502"}, "geometry": {"coordinates": [-85.9352672814, 37.0236620571], "type": "Point"}, "id": "5zlDB-ClAiQAlBqcrymQXIPPfyo=", "properties": {"@spider": "usps_collection_boxes", "addr:city": "GLASGOW", "addr:country": "US", "addr:full": "2393 HAPPY VALLEY RD", "addr:postcode": "42141", "addr:state": "KY", "amenity": "post_box", "brand": "United States Postal Service", "brand:wikidata": "Q668687", "collection_times": "Mo-Sa 11:00", "name": "USPS COLLECTION BOX - BLUE BOX", "nsi_id": "unitedstatespostalservice-a77078", "operator": "United States Postal Service", "operator:short": "USPS", "operator:type": "public", "operator:wikidata": "Q668687", "ref": "4214100053"}, "type": "Feature"}
{"dataset_attributes": {"@spider": "usps_collection_boxes", "spider:collection_time": "2024-01-01T08:25:44.650502"}, "geometry": {"coordinates": [-85.907621697, 36.997709728], "type": "Point"}, "id": "TUMxPMxbQtKQWupcAG0HHO7MmBQ=", "properties": {"@spider": "usps_collection_boxes", "addr:city": "GLASGOW", "addr:country": "US", "addr:full": "201 COLUMBIA AVE", "addr:postcode": "42141", "addr:state": "KY", "amenity": "post_box", "brand": "United States Postal Service", "brand:wikidata": "Q668687", "collection_times": "Mo-Fr 16:30", "name": "USPS COLLECTION BOX - PO LOBBY", "note": "ON 12/24 AND 12/31, THIS BOX MAY BE COLLECTED AS EARLY AS 12 NOON.", "nsi_id": "unitedstatespostalservice-a77078", "operator": "United States Postal Service", "operator:short": "USPS", "operator:type": "public", "operator:wikidata": "Q668687", "ref": "4214100055"}, "type": "Feature"}
{"dataset_attributes": {"@spider": "usps_collection_boxes", "spider:collection_time": "2024-01-01T08:25:44.650502"}, "geometry": {"coordinates": [-85.815069333, 37.100871054], "type": "Point"}, "id": "6HG8ug26YHz_UwkGrd_NBBtcYVg=", "properties": {"@spider": "usps_collection_boxes", "addr:city": "HISEVILLE", "addr:country": "US", "addr:full": "55 W HISEVILLE MAIN ST", "addr:postcode": "42152", "addr:state": "KY", "amenity": "post_box", "brand": "United States Postal Service", "brand:wikidata": "Q668687", "collection_times": "Mo-Fr 11:30; Sa 10:00", "name": "USPS COLLECTION BOX - BLUE BOX", "nsi_id": "unitedstatespostalservice-a77078", "operator": "United States Postal Service", "operator:short": "USPS", "operator:type": "public", "operator:wikidata": "Q668687", "ref": "4215200000"}, "type": "Feature"}
{"dataset_attributes": {"@spider": "usps_collection_boxes", "spider:collection_time": "2024-01-01T08:25:44.650502"}, "geometry": {"coordinates": [-85.815069333, 37.100871054], "type": "Point"}, "id": "vyUgyFpxduhsZJLL7uHz2ePjpoA=", "properties": {"@spider": "usps_collection_boxes", "addr:city": "HISEVILLE", "addr:country": "US", "addr:full": "55 W HISEVILLE MAIN ST", "addr:postcode": "42152", "addr:state": "KY", "amenity": "post_box", "brand": "United States Postal Service", "brand:wikidata": "Q668687", "collection_times": "Mo-Fr 11:30; Sa 10:00", "name": "USPS COLLECTION BOX - PO LOBBY", "nsi_id": "unitedstatespostalservice-a77078", "operator": "United States Postal Service", "operator:short": "USPS", "operator:type": "public", "operator:wikidata": "Q668687", "ref": "4215200001"}, "type": "Feature"}
{"dataset_attributes": {"@spider": "usps_collection_boxes", "spider:collection_time": "2024-01-01T08:25:44.650502"}, "geometry": {"coordinates": [-85.815069333, 37.100871054], "type": "Point"}, "id": "Y07Kzra6q4Nrp7KhMmd69ATuoro=", "properties": {"@spider": "usps_collection_boxes", "addr:city": "HISEVILLE", "addr:country": "US", "addr:full": "55 W HISEVILLE MAIN ST", "addr:postcode": "42152", "addr:state": "KY", "amenity": "post_box", "brand": "United States Postal Service", "brand:wikidata": "Q668687", "collection_times": "Mo-Fr 11:30; Sa 10:00", "name": "USPS COLLECTION BOX - PO LOBBY", "nsi_id": "unitedstatespostalservice-a77078", "operator": "United States Postal Service", "operator:short": "USPS", "operator:type": "public", "operator:wikidata": "Q668687", "ref": "4215200003"}, "type": "Feature"}
{"dataset_attributes": {"@spider": "usps_collection_boxes", "spider:collection_time": "2024-01-01T08:25:44.650502"}, "geometry": {"coordinates": [-85.695160723, 37.078886866], "type": "Point"}, "id": "pv0i2AELomgXo_jdRAaxs_Aa3O4=", "properties": {"@spider": "usps_collection_boxes", "addr:city": "KNOB LICK", "addr:country": "US", "addr:full": "5260 SULPHUR WELL KNOB LICK RD", "addr:postcode": "42154", "addr:state": "KY", "amenity": "post_box", "brand": "United States Postal Service", "brand:wikidata": "Q668687", "collection_times": "Mo-Fr 12:30; Sa 11:30", "name": "USPS COLLECTION BOX - PO LOBBY", "note": "ON 12/24 AND 12/31, THIS BOX MAY BE COLLECTED AS EARLY AS 12 NOON.", "nsi_id": "unitedstatespostalservice-a77078", "operator": "United States Postal Service", "operator:short": "USPS", "operator:type": "public", "operator:wikidata": "Q668687", "ref": "4215400002"}, "type": "Feature"}
{"dataset_attributes": {"@spider": "usps_collection_boxes", "spider:collection_time": "2024-01-01T08:25:44.650502"}, "geometry": {"coordinates": [-86.249065678, 37.042011777], "type": "Point"}, "id": "SZU3LzV92LIHlJerkEoQrmvOI1M=", "properties": {"@spider": "usps_collection_boxes", "addr:city": "OAKLAND", "addr:country": "US", "addr:full": "102 MAIN ST", "addr:postcode": "42159", "addr:state": "KY", "amenity": "post_box", "brand": "United States Postal Service", "brand:wikidata": "Q668687", "collection_times": "Mo-Fr 13:45; Sa 11:45", "name": "USPS COLLECTION BOX - BLUE BOX", "note": "ON 12/24 AND 12/31, THIS BOX MAY BE COLLECTED AS EARLY AS 12 NOON.", "nsi_id": "unitedstatespostalservice-a77078", "operator": "United States Postal Service", "operator:short": "USPS", "operator:type": "public", "operator:wikidata": "Q668687", "ref": "4215900000"}, "type": "Feature"}
{"dataset_attributes": {"@spider": "usps_collection_boxes", "spider:collection_time": "2024-01-01T08:25:44.650502"}, "geometry": {"coordinates": [-86.249065678, 37.042011777], "type": "Point"}, "id": "3eNHpNbGaoB7niRgFx_48gOYXbY=", "properties": {"@spider": "usps_collection_boxes", "addr:city": "OAKLAND", "addr:country": "US", "addr:full": "102 MAIN ST", "addr:postcode": "42159", "addr:state": "KY", "amenity": "post_box", "brand": "United States Postal Service", "brand:wikidata": "Q668687", "collection_times": "Mo-Fr 13:45; Sa 11:45", "name": "USPS COLLECTION BOX - PO LOBBY", "note": "ON 12/24 AND 12/31, THIS BOX MAY BE COLLECTED AS EARLY AS 12 NOON.", "nsi_id": "unitedstatespostalservice-a77078", "operator": "United States Postal Service", "operator:short": "USPS", "operator:type": "public", "operator:wikidata": "Q668687", "ref": "4215900001"}, "type": "Feature"}
{"dataset_attributes": {"@spider": "usps_collection_boxes", "spider:collection_time": "2024-01-01T08:25:44.650502"}, "geometry": {"coordinates": [-86.249065678, 37.042011777], "type": "Point"}, "id": "118RtWAe7yrVWw87rpug82qyPzM=", "properties": {"@spider": "usps_collection_boxes", "addr:city": "OAKLAND", "addr:country": "US", "addr:full": "102 MAIN ST", "addr:postcode": "42159", "addr:state": "KY", "amenity": "post_box", "brand": "United States Postal Service", "brand:wikidata": "Q668687", "collection_times": "Mo-Fr 14:00; Sa 12:00", "name": "USPS COLLECTION BOX - PO LOBBY", "note": "ON 12/24 AND 12/31, THIS BOX MAY BE COLLECTED AS EARLY AS 12 NOON.", "nsi_id": "unitedstatespostalservice-a77078", "operator": "United States Postal Service", "operator:short": "USPS", "operator:type": "public", "operator:wikidata": "Q668687", "ref": "4215900003"}, "type": "Feature"}
{"dataset_attributes": {"@spider": "usps_collection_boxes", "spider:collection_time": "2024-01-01T08:25:44.650502"}, "geometry": {"coordinates": [-86.048345316, 37.093658984], "type": "Point"}, "id": "Y4yOLzTnvWMl2ToZUwzndR3eXAA=", "properties": {"@spider": "usps_collection_boxes", "addr:city": "PARK CITY", "addr:country": "US", "addr:full": "24211 LOUISVILLE RD", "addr:postcode": "42160", "addr:state": "KY", "amenity": "post_box", "brand": "United States Postal Service", "brand:wikidata": "Q668687", "collection_times": "Mo-Sa 11:45", "name": "USPS COLLECTION BOX - BLUE BOX", "nsi_id": "unitedstatespostalservice-a77078", "operator": "United States Postal Service", "operator:short": "USPS", "operator:type": "public", "operator:wikidata": "Q668687", "ref": "4216000000"}, "type": "Feature"}
{"dataset_attributes": {"@spider": "usps_collection_boxes", "spider:collection_time": "2024-01-01T08:25:44.650502"}, "geometry": {"coordinates": [-86.048345316, 37.093658984], "type": "Point"}, "id": "PBwC-Vaa77GkkwXelRd_O3L9JeY=", "properties": {"@spider": "usps_collection_boxes", "addr:city": "PARK CITY", "addr:country": "US", "addr:full": "24211 LOUISVILLE RD", "addr:postcode": "42160", "addr:state": "KY", "amenity": "post_box", "brand": "United States Postal Service", "brand:wikidata": "Q668687", "collection_times": "Mo-Sa 11:45", "name": "USPS COLLECTION BOX - PO LOBBY", "nsi_id": "unitedstatespostalservice-a77078", "operator": "United States Postal Service", "operator:short": "USPS", "operator:type": "public", "operator:wikidata": "Q668687", "ref": "4216000001"}, "type": "Feature"}
{"dataset_attributes": {"@spider": "usps_collection_boxes", "spider:collection_time": "2024-01-01T08:25:44.650502"}, "geometry": {"coordinates": [-86.048345316, 37.093658984], "type": "Point"}, "id": "CeMJ9W2MMaOjDumNyC3INED7Aqw=", "properties": {"@spider": "usps_collection_boxes", "addr:city": "PARK CITY", "addr:country": "US", "addr:full": "24211 LOUISVILLE RD", "addr:postcode": "42160", "addr:state": "KY", "amenity": "post_box", "brand": "United States Postal Service", "brand:wikidata": "Q668687", "collection_times": "Mo-Sa 11:45", "name": "USPS COLLECTION BOX - PO LOBBY", "nsi_id": "unitedstatespostalservice-a77078", "operator": "United States Postal Service", "operator:short": "USPS", "operator:type": "public", "operator:wikidata": "Q668687", "ref": "4216000003"}, "type": "Feature"}
{"dataset_attributes": {"@spider": "usps_collection_boxes", "spider:collection_time": "2024-01-01T08:25:44.650502"}, "geometry": {"coordinates": [-86.187795223, 36.753003554], "type": "Point"}, "id": "MMt2-k0NOYUzoNUla79PRFmgkfQ=", "properties": {"@spider": "usps_collection_boxes", "addr:city": "SCOTTSVILLE", "addr:country": "US", "addr:full": "405 E MAIN ST", "addr:postcode": "42164", "addr:state": "KY", "amenity": "post_box", "brand": "United States Postal Service", "brand:wikidata": "Q668687", "collection_times": "Mo-Fr 16:25; Sa 15:30", "name": "USPS COLLECTION BOX - BLUE BOX", "note": "ON 12/24 AND 12/31, THIS BOX MAY BE COLLECTED AS EARLY AS 12 NOON.", "nsi_id": "unitedstatespostalservice-a77078", "operator": "United States Postal Service", "operator:short": "USPS", "operator:type": "public", "operator:wikidata": "Q668687", "ref": "4216400001"}, "type": "Feature"}
{"dataset_attributes": {"@spider": "usps_collection_boxes", "spider:collection_time": "2024-01-01T08:25:44.650502"}, "geometry": {"coordinates": [-86.1919333, 36.753523], "type": "Point"}, "id": "8FZtbdcmNUScsEPTBgFkd1nG_Tg=", "properties": {"@spider": "usps_collection_boxes", "addr:city": "SCOTTSVILLE", "addr:country": "US", "addr:full": "201 W MAIN ST", "addr:postcode": "42164", "addr:state": "KY", "amenity": "post_box", "brand": "United States Postal Service", "brand:wikidata": "Q668687", "collection_times": "Mo-Sa 09:00", "name": "USPS COLLECTION BOX - BLUE BOX", "nsi_id": "unitedstatespostalservice-a77078", "operator": "United States Postal Service", "operator:short": "USPS", "operator:type": "public", "operator:wikidata": "Q668687", "ref": "4216400006"}, "type": "Feature"}
{"dataset_attributes": {"@spider": "usps_collection_boxes", "spider:collection_time": "2024-01-01T08:25:44.650502"}, "geometry": {"coordinates": [-86.187795223, 36.753003554], "type": "Point"}, "id": "UBO7SUh6wI5Xu6BQudgviDjbEFA=", "properties": {"@spider": "usps_collection_boxes", "addr:city": "SCOTTSVILLE", "addr:country": "US", "addr:full": "405 E MAIN ST", "addr:postcode": "42164", "addr:state": "KY", "amenity": "post_box", "brand": "United States Postal Service", "brand:wikidata": "Q668687", "collection_times": "Mo-Fr 16:25; Sa 15:30", "name": "USPS COLLECTION BOX - PO LOBBY", "note": "ON 12/24 AND 12/31, THIS BOX MAY BE COLLECTED AS EARLY AS 12 NOON.", "nsi_id": "unitedstatespostalservice-a77078", "operator": "United States Postal Service", "operator:short": "USPS", "operator:type": "public", "operator:wikidata": "Q668687", "ref": "4216400009"}, "type": "Feature"}
{"dataset_attributes": {"@spider": "usps_collection_boxes", "spider:collection_time": "2024-01-01T08:25:44.650502"}, "geometry": {"coordinates": [-86.187795223, 36.753003554], "type": "Point"}, "id": "e3rCp4LIDVQTqqigEUCFdj8_-RE=", "properties": {"@spider": "usps_collection_boxes", "addr:city": "SCOTTSVILLE", "addr:country": "US", "addr:full": "405 E MAIN ST", "addr:postcode": "42164", "addr:state": "KY", "amenity": "post_box", "brand": "United States Postal Service", "brand:wikidata": "Q668687", "collection_times": "Mo-Fr 16:30; Sa 11:00", "name": "USPS COLLECTION BOX - PO LOBBY", "note": "ON 12/24 AND 12/31, THIS BOX MAY BE COLLECTED AS EARLY AS 12 NOON.", "nsi_id": "unitedstatespostalservice-a77078", "operator": "United States Postal Service", "operator:short": "USPS", "operator:type": "public", "operator:wikidata": "Q668687", "ref": "4216400011"}, "type": "Feature"}
{"dataset_attributes": {"@spider": "usps_collection_boxes", "spider:collection_time": "2024-01-01T08:25:44.650502"}, "geometry": {"coordinates": [-85.700444214, 36.883728164], "type": "Point"}, "id": "fUI-FRJi-k0v_NNVj1UnPMGddlw=", "properties": {"@spider": "usps_collection_boxes", "addr:city": "SUMMER SHADE", "addr:country": "US", "addr:full": "2653 SUMMER SHADE RD", "addr:postcode": "42166", "addr:state": "KY", "amenity": "post_box", "brand": "United States Postal Service", "brand:wikidata": "Q668687", "collection_times": "Mo-Fr 15:30; Sa 09:45", "name": "USPS COLLECTION BOX - BLUE BOX", "note": "ON 12/24 AND 12/31, THIS BOX MAY BE COLLECTED AS EARLY AS 12 NOON.", "nsi_id": "unitedstatespostalservice-a77078", "operator": "United States Postal Service", "operator:short": "USPS", "operator:type": "public", "operator:wikidata": "Q668687", "ref": "4216600000"}, "type": "Feature"}
{"dataset_attributes": {"@spider": "usps_collection_boxes", "spider:collection_time": "2024-01-01T08:25:44.650502"}, "geometry": {"coordinates": [-85.700444214, 36.883728164], "type": "Point"}, "id": "h2Jr9RI2Itp0pR9YrQ3V0MmLigA=", "properties": {"@spider": "usps_collection_boxes", "addr:city": "SUMMER SHADE", "addr:country": "US", "addr:full": "2653 SUMMER SHADE RD", "addr:postcode": "42166", "addr:state": "KY", "amenity": "post_box", "brand": "United States Postal Service", "brand:wikidata": "Q668687", "collection_times": "Mo-Fr 15:30; Sa 09:45", "name": "USPS COLLECTION BOX - PO LOBBY", "note": "ON 12/24 AND 12/31, THIS BOX MAY BE COLLECTED AS EARLY AS 12 NOON.", "nsi_id": "unitedstatespostalservice-a77078", "operator": "United States Postal Service", "operator:short": "USPS", "operator:type": "public", "operator:wikidata": "Q668687", "ref": "4216600001"}, "type": "Feature"}
{"dataset_attributes": {"@spider": "usps_collection_boxes", "spider:collection_time": "2024-01-01T08:25:44.650502"}, "geometry": {"coordinates": [-85.700444214, 36.883728164], "type": "Point"}, "id": "OWtXnmGAJJvGUb3jIGfX9leYBng=", "properties": {"@spider": "usps_collection_boxes", "addr:city": "SUMMER SHADE", "addr:country": "US", "addr:full": "2653 SUMMER SHADE RD", "addr:postcode": "42166", "addr:state": "KY", "amenity": "post_box", "brand": "United States Postal Service", "brand:wikidata": "Q668687", "collection_times": "Mo-Fr 15:30; Sa 09:45", "name": "USPS COLLECTION BOX - PO LOBBY", "note": "ON 12/24 AND 12/31, THIS BOX MAY BE COLLECTED AS EARLY AS 12 NOON.", "nsi_id": "unitedstatespostalservice-a77078", "operator": "United States Postal Service", "operator:short": "USPS", "operator:type": "public", "operator:wikidata": "Q668687", "ref": "4216600004"}, "type": "Feature"}
{"dataset_attributes": {"@spider": "usps_collection_boxes", "spider:collection_time": "2024-01-01T08:25:44.650502"}, "geometry": {"coordinates": [-85.689035599, 36.710140693], "type": "Point"}, "id": "KF9mdmAeTl003Jgk00id9lVOg1s=", "properties": {"@spider": "usps_collection_boxes", "addr:city": "TOMPKINSVILLE", "addr:country": "US", "addr:full": "203 W PAIGE ST", "addr:postcode": "42167", "addr:state": "KY", "amenity": "post_box", "brand": "United States Postal Service", "brand:wikidata": "Q668687", "collection_times": "Mo-Fr 15:00; Sa 12:00", "name": "USPS COLLECTION BOX - BLUE BOX", "note": "ON 12/24 AND 12/31, THIS BOX MAY BE COLLECTED AS EARLY AS 12 NOON.", "nsi_id": "unitedstatespostalservice-a77078", "operator": "United States Postal Service", "operator:short": "USPS", "operator:type": "public", "operator:wikidata": "Q668687", "ref": "4216700000"}, "type": "Feature"}
{"dataset_attributes": {"@spider": "usps_collection_boxes", "spider:collection_time": "2024-01-01T08:25:44.650502"}, "geometry": {"coordinates": [-85.6922431, 36.701489], "type": "Point"}, "id": "XZYAcmihAvgUQG_F8qJtHxVNMUI=", "properties": {"@spider": "usps_collection_boxes", "addr:city": "TOMPKINSVILLE", "addr:country": "US", "addr:full": "301 N MAIN ST", "addr:postcode": "42167", "addr:state": "KY", "amenity": "post_box", "brand": "United States Postal Service", "brand:wikidata": "Q668687", "collection_times": "Mo-Sa 09:00", "name": "USPS COLLECTION BOX - BLUE BOX", "nsi_id": "unitedstatespostalservice-a77078", "operator": "United States Postal Service", "operator:short": "USPS", "operator:type": "public", "operator:wikidata": "Q668687", "ref": "4216700002"}, "type": "Feature"}
{"dataset_attributes": {"@spider": "usps_collection_boxes", "spider:collection_time": "2024-01-01T08:25:44.650502"}, "geometry": {"coordinates": [-85.6877734, 36.706077], "type": "Point"}, "id": "3AQaBzWdmf6wqjBuTHE1JlmvB7w=", "properties": {"@spider": "usps_collection_boxes", "addr:city": "TOMPKINSVILLE", "addr:country": "US", "addr:full": "704 N MAIN ST", "addr:postcode": "42167", "addr:state": "KY", "amenity": "post_box", "brand": "United States Postal Service", "brand:wikidata": "Q668687", "collection_times": "Mo-Sa 09:00", "name": "USPS COLLECTION BOX - BLUE BOX", "nsi_id": "unitedstatespostalservice-a77078", "operator": "United States Postal Service", "operator:short": "USPS", "operator:type": "public", "operator:wikidata": "Q668687", "ref": "4216700006"}, "type": "Feature"}
{"dataset_attributes": {"@spider": "usps_collection_boxes", "spider:collection_time": "2024-01-01T08:25:44.650502"}, "geometry": {"coordinates": [-85.689035599, 36.710140693], "type": "Point"}, "id": "r9tgyp_3S3zEUPFi61cI829MKuU=", "properties": {"@spider": "usps_collection_boxes", "addr:city": "TOMPKINSVILLE", "addr:country": "US", "addr:full": "203 W PAIGE ST", "addr:postcode": "42167", "addr:state": "KY", "amenity": "post_box", "brand": "United States Postal Service", "brand:wikidata": "Q668687", "collection_times": "Mo-Fr 15:00; Sa 12:00", "name": "USPS COLLECTION BOX - PO LOBBY", "note": "ON 12/24 AND 12/31, THIS BOX MAY BE COLLECTED AS EARLY AS 12 NOON.", "nsi_id": "unitedstatespostalservice-a77078", "operator": "United States Postal Service", "operator:short": "USPS", "operator:type": "public", "operator:wikidata": "Q668687", "ref": "4216700010"}, "type": "Feature"}
{"dataset_attributes": {"@spider": "usps_collection_boxes", "spider:collection_time": "2024-01-01T08:25:44.650502"}, "geometry": {"coordinates": [-85.689035599, 36.710140693], "type": "Point"}, "id": "RH_7UUPu47ZWzrxn1ib2avntz8A=", "properties": {"@spider": "usps_collection_boxes", "addr:city": "TOMPKINSVILLE", "addr:country": "US", "addr:full": "203 W PAIGE ST", "addr:postcode": "42167", "addr:state": "KY", "amenity": "post_box", "brand": "United States Postal Service", "brand:wikidata": "Q668687", "collection_times": "Mo-Fr 15:00; Sa 12:00", "name": "USPS COLLECTION BOX - PO LOBBY", "note": "ON 12/24 AND 12/31, THIS BOX MAY BE COLLECTED AS EARLY AS 12 NOON.", "nsi_id": "unitedstatespostalservice-a77078", "operator": "United States Postal Service", "operator:short": "USPS", "operator:type": "public", "operator:wikidata": "Q668687", "ref": "4216700011"}, "type": "Feature"}
{"dataset_attributes": {"@spider": "usps_collection_boxes", "spider:collection_time": "2024-01-01T08:25:44.650502"}, "geometry": {"coordinates": [-85.689035599, 36.710140693], "type": "Point"}, "id": "MA7fR3_TN21gohr-v0uEhvop26M=", "properties": {"@spider": "usps_collection_boxes", "addr:city": "TOMPKINSVILLE", "addr:country": "US", "addr:full": "203 W PAIGE ST", "addr:postcode": "42167", "addr:state": "KY", "amenity": "post_box", "brand": "United States Postal Service", "brand:wikidata": "Q668687", "collection_times": "Mo-Fr 15:00; Sa 11:30", "name": "USPS COLLECTION BOX - PO LOBBY", "note": "ON 12/24 AND 12/31, THIS BOX MAY BE COLLECTED AS EARLY AS 12 NOON.", "nsi_id": "unitedstatespostalservice-a77078", "operator": "United States Postal Service", "operator:short": "USPS", "operator:type": "public", "operator:wikidata": "Q668687", "ref": "4216700013"}, "type": "Feature"}
{"dataset_attributes": {"@spider": "usps_collection_boxes", "spider:collection_time": "2024-01-01T08:25:44.650502"}, "geometry": {"coordinates": [-86.5298501, 36.840747866], "type": "Point"}, "id": "9Bb29NGGEcLsCCWbSaX_HRxWytw=", "properties": {"@spider": "usps_collection_boxes", "addr:city": "WOODBURN", "addr:country": "US", "addr:full": "250 CLARK ST", "addr:postcode": "42170", "addr:state": "KY", "amenity": "post_box", "brand": "United States Postal Service", "brand:wikidata": "Q668687", "collection_times": "Mo-Fr 15:30; Sa 09:00", "name": "USPS COLLECTION BOX - BLUE BOX", "note": "ON 12/24 AND 12/31, THIS BOX MAY BE COLLECTED AS EARLY AS 12 NOON.", "nsi_id": "unitedstatespostalservice-a77078", "operator": "United States Postal Service", "operator:short": "USPS", "operator:type": "public", "operator:wikidata": "Q668687", "ref": "4217000000"}, "type": "Feature"}
{"dataset_attributes": {"@spider": "usps_collection_boxes", "spider:collection_time": "2024-01-01T08:25:44.650502"}, "geometry": {"coordinates": [-86.5298501, 36.840747866], "type": "Point"}, "id": "DKfEijKb5nxDAayJ6jB1Issd1tg=", "properties": {"@spider": "usps_collection_boxes", "addr:city": "WOODBURN", "addr:country": "US", "addr:full": "250 CLARK ST", "addr:postcode": "42170", "addr:state": "KY", "amenity": "post_box", "brand": "United States Postal Service", "brand:wikidata": "Q668687", "collection_times": "Mo-Fr 15:30; Sa 09:00", "name": "USPS COLLECTION BOX - PO LOBBY", "note": "ON 12/24 AND 12/31, THIS BOX MAY BE COLLECTED AS EARLY AS 12 NOON.", "nsi_id": "unitedstatespostalservice-a77078", "operator": "United States Postal Service", "operator:short": "USPS", "operator:type": "public", "operator:wikidata": "Q668687", "ref": "4217000001"}, "type": "Feature"}
{"dataset_attributes": {"@spider": "usps_collection_boxes", "spider:collection_time": "2024-01-01T08:25:44.650502"}, "geometry": {"coordinates": [-86.5298501, 36.840747866], "type": "Point"}, "id": "OAiCLfDfmCAjS91jN8QcCpm42W8=", "properties": {"@spider": "usps_collection_boxes", "addr:city": "WOODBURN", "addr:country": "US", "addr:full": "250 CLARK ST", "addr:postcode": "42170", "addr:state": "KY", "amenity": "post_box", "brand": "United States Postal Service", "brand:wikidata": "Q668687", "collection_times": "Mo-Fr 15:30; Sa 12:30", "name": "USPS COLLECTION BOX - PO LOBBY", "note": "ON 12/24 AND 12/31, THIS BOX MAY BE COLLECTED AS EARLY AS 12 NOON.", "nsi_id": "unitedstatespostalservice-a77078", "operator": "United States Postal Service", "operator:short": "USPS", "operator:type": "public", "operator:wikidata": "Q668687", "ref": "4217000003"}, "type": "Feature"}
{"dataset_attributes": {"@spider": "usps_collection_boxes", "spider:collection_time": "2024-01-01T08:25:44.650502"}, "geometry": {"coordinates": [-86.209263261, 37.052722469], "type": "Point"}, "id": "JWzKb6EaNeVUGOsRxVoEx34BvWk=", "properties": {"@spider": "usps_collection_boxes", "addr:city": "SMITHS GROVE", "addr:country": "US", "addr:full": "117 W 1ST ST", "addr:postcode": "42171", "addr:state": "KY", "amenity": "post_box", "brand": "United States Postal Service", "brand:wikidata": "Q668687", "collection_times": "Mo-Fr 15:45; Sa 10:00", "name": "USPS COLLECTION BOX - BLUE BOX", "note": "ON 12/24 AND 12/31, THIS BOX MAY BE COLLECTED AS EARLY AS 12 NOON.", "nsi_id": "unitedstatespostalservice-a77078", "operator": "United States Postal Service", "operator:short": "USPS", "operator:type": "public", "operator:wikidata": "Q668687", "ref": "4217100001"}, "type": "Feature"}
{"dataset_attributes": {"@spider": "usps_collection_boxes", "spider:collection_time": "2024-01-01T08:25:44.650502"}, "geometry": {"coordinates": [-86.209263261, 37.052722469], "type": "Point"}, "id": "akgIxNNKKV8s-hF7dLOECh2VVXk=", "properties": {"@spider": "usps_collection_boxes", "addr:city": "SMITHS GROVE", "addr:country": "US", "addr:full": "117 W 1ST ST", "addr:postcode": "42171", "addr:state": "KY", "amenity": "post_box", "brand": "United States Postal Service", "brand:wikidata": "Q668687", "collection_times": "Mo-Fr 16:00; Sa 10:00", "name": "USPS COLLECTION BOX - PO LOBBY", "note": "ON 12/24 AND 12/31, THIS BOX MAY BE COLLECTED AS EARLY AS 12 NOON.", "nsi_id": "unitedstatespostalservice-a77078", "operator": "United States Postal Service", "operator:short": "USPS", "operator:type": "public", "operator:wikidata": "Q668687", "ref": "4217100009"}, "type": "Feature"}
{"dataset_attributes": {"@spider": "usps_collection_boxes", "spider:collection_time": "2024-01-01T08:25:44.650502"}, "geometry": {"coordinates": [-86.209263261, 37.052722469], "type": "Point"}, "id": "4_tyI9rmwzdKWlAEYv9-KH6gM48=", "properties": {"@spider": "usps_collection_boxes", "addr:city": "SMITHS GROVE", "addr:country": "US", "addr:full": "117 W 1ST ST", "addr:postcode": "42171", "addr:state": "KY", "amenity": "post_box", "brand": "United States Postal Service", "brand:wikidata": "Q668687", "collection_times": "Mo-Fr 15:45; Sa 10:00", "name": "USPS COLLECTION BOX - PO LOBBY", "note": "ON 12/24 AND 12/31, THIS BOX MAY BE COLLECTED AS EARLY AS 12 NOON.", "nsi_id": "unitedstatespostalservice-a77078", "operator": "United States Postal Service", "operator:short": "USPS", "operator:type": "public", "operator:wikidata": "Q668687", "ref": "4217100010"}, "type": "Feature"}
