{"geometry": {"coordinates": [-87.812137, 36.866422], "type": "Point"}, "id": "eXRbaDuSO5JzAQpECJoh57VoLbA=", "properties": {"@spider": "usps_collection_boxes", "addr:city": "CADIZ", "addr:country": "US", "addr:full": "72 LAKOTA DR", "addr:postcode": "42211", "addr:state": "KY", "brand": "USPS", "collection_times": "Mo-Sa 16:00", "name": "USPS COLLECTION BOX - BLUE BOX", "note": "ON 12/24 AND 12/31, THIS BOX MAY BE COLLECTED AS EARLY AS 12 NOON.", "ref": "4221100000"}, "type": "Feature"}
{"geometry": {"coordinates": [-87.812137, 36.866422], "type": "Point"}, "id": "us9Cqn4AjuLq1uKI9lp2HNsCxDU=", "properties": {"@spider": "usps_collection_boxes", "addr:city": "CADIZ", "addr:country": "US", "addr:full": "72 LAKOTA DR", "addr:postcode": "42211", "addr:state": "KY", "brand": "USPS", "collection_times": "Mo-Sa 16:00", "name": "USPS COLLECTION BOX - PO LOBBY", "note": "ON 12/24 AND 12/31, THIS BOX MAY BE COLLECTED AS EARLY AS 12 NOON.", "ref": "4221100003"}, "type": "Feature"}
{"geometry": {"coordinates": [-87.812137, 36.866422], "type": "Point"}, "id": "Suj5xyJ7ki2v4s2_vSr7CnECAq0=", "properties": {"@spider": "usps_collection_boxes", "addr:city": "CADIZ", "addr:country": "US", "addr:full": "72 LAKOTA DR", "addr:postcode": "42211", "addr:state": "KY", "brand": "USPS", "collection_times": "Mo-Sa 16:00", "name": "USPS COLLECTION BOX - PO LOBBY", "note": "ON 12/24 AND 12/31, THIS BOX MAY BE COLLECTED AS EARLY AS 12 NOON.", "ref": "4221100005"}, "type": "Feature"}
{"geometry": {"coordinates": [-87.8121357529, 36.8664208113], "type": "Point"}, "id": "LS8vpI_8zIEOpZFluvwCHt9TAds=", "properties": {"@spider": "usps_collection_boxes", "addr:city": "CADIZ", "addr:country": "US", "addr:full": "72 LAKOTA DR", "addr:postcode": "42211", "addr:state": "KY", "brand": "USPS", "collection_times": "Mo-Fr 16:00; Sa 11:30", "name": "USPS COLLECTION BOX - PO LOBBY", "note": "ON 12/24 AND 12/31, THIS BOX MAY BE COLLECTED AS EARLY AS 12 NOON.", "ref": "4221100007"}, "type": "Feature"}
{"geometry": {"coordinates": [-87.45060565, 36.643655573], "type": "Point"}, "id": "3xJnazERr93krXSz9xsS5rM-_OA=", "properties": {"@spider": "usps_collection_boxes", "addr:city": "FORT CAMPBELL", "addr:country": "US", "addr:full": "91 MICHIGAN AVE", "addr:postcode": "42223", "addr:state": "KY", "brand": "USPS", "collection_times": "Mo-Fr 16:00; Sa 15:00", "name": "USPS COLLECTION BOX - BLUE BOX", "note": "ON 12/24 AND 12/31, THIS BOX MAY BE COLLECTED AS EARLY AS 12 NOON.", "ref": "4222300000"}, "type": "Feature"}
{"geometry": {"coordinates": [-87.4681869, 36.668388], "type": "Point"}, "id": "INaVwNnrEnUeVmGFQuYnboy4gkQ=", "properties": {"@spider": "usps_collection_boxes", "addr:city": "FORT CAMPBELL", "addr:country": "US", "addr:full": "4190 MORGAN RD", "addr:postcode": "42223", "addr:state": "KY", "brand": "USPS", "collection_times": "Mo-Fr 12:30; Sa 11:00", "name": "USPS COLLECTION BOX - BLUE BOX", "note": "ON 12/24 AND 12/31, THIS BOX MAY BE COLLECTED AS EARLY AS 12 NOON.", "ref": "4222300002"}, "type": "Feature"}
{"geometry": {"coordinates": [-87.449021, 36.625165], "type": "Point"}, "id": "JAT3CXpwY0Eludqr1xOm4zyXoxs=", "properties": {"@spider": "usps_collection_boxes", "addr:city": "FORT CAMPBELL", "addr:country": "US", "addr:full": "2129 AIRBORNE ST", "addr:postcode": "42223", "addr:state": "KY", "brand": "USPS", "collection_times": "Mo-Fr 12:30; Sa 11:00", "name": "USPS COLLECTION BOX - BLUE BOX", "note": "ON 12/24 AND 12/31, THIS BOX MAY BE COLLECTED AS EARLY AS 12 NOON.", "ref": "4222300004"}, "type": "Feature"}
{"geometry": {"coordinates": [-87.4505715, 36.642226], "type": "Point"}, "id": "sNB_q_3RyIYb-cd1BCJB8nVuq8Q=", "properties": {"@spider": "usps_collection_boxes", "addr:city": "FORT CAMPBELL", "addr:country": "US", "addr:full": "96 MICHIGAN AVE", "addr:postcode": "42223", "addr:state": "KY", "brand": "USPS", "collection_times": "Mo-Fr 12:30; Sa 11:30", "name": "USPS COLLECTION BOX - BLUE BOX", "note": "ON 12/24 AND 12/31, THIS BOX MAY BE COLLECTED AS EARLY AS 12 NOON.", "ref": "4222300006"}, "type": "Feature"}
{"geometry": {"coordinates": [-87.4524222, 36.645295], "type": "Point"}, "id": "IZHSqlLrSKoEDPyKwHE1cuBXRRY=", "properties": {"@spider": "usps_collection_boxes", "addr:city": "FORT CAMPBELL", "addr:country": "US", "addr:full": "2840 BASTOGNE AVE", "addr:postcode": "42223", "addr:state": "KY", "brand": "USPS", "collection_times": "Mo-Fr 12:30; Sa 11:30", "name": "USPS COLLECTION BOX - BLUE BOX", "note": "ON 12/24 AND 12/31, THIS BOX MAY BE COLLECTED AS EARLY AS 12 NOON.", "ref": "4222300015"}, "type": "Feature"}
{"geometry": {"coordinates": [-87.4812195, 36.664568], "type": "Point"}, "id": "750sHYoKzb8WlG_8fG9-uyUKUR0=", "properties": {"@spider": "usps_collection_boxes", "addr:city": "FORT CAMPBELL", "addr:country": "US", "addr:full": "71001 MARKET GARDEN RD", "addr:postcode": "42223", "addr:state": "KY", "brand": "USPS", "collection_times": "Mo-Fr 12:30; Sa 11:00", "name": "USPS COLLECTION BOX - BLUE BOX", "note": "ON 12/24 AND 12/31, THIS BOX MAY BE COLLECTED AS EARLY AS 12 NOON.", "ref": "4222300017"}, "type": "Feature"}
{"geometry": {"coordinates": [-87.4476139, 36.601099], "type": "Point"}, "id": "-O_1tpboRM8MM7sHdOGoGb0U0RI=", "properties": {"@spider": "usps_collection_boxes", "addr:city": "FORT CAMPBELL", "addr:country": "US", "addr:full": "7455 MCAULIFFE LOOP", "addr:postcode": "42223", "addr:state": "KY", "brand": "USPS", "collection_times": "Mo-Sa 10:00", "name": "USPS COLLECTION BOX - BLUE BOX", "ref": "4222300018"}, "type": "Feature"}
{"geometry": {"coordinates": [-87.4530935, 36.602701], "type": "Point"}, "id": "qhVEF94nWr0adM63kwFQoKwlx7M=", "properties": {"@spider": "usps_collection_boxes", "addr:city": "FORT CAMPBELL", "addr:country": "US", "addr:full": "1739 STRIKER BLVD", "addr:postcode": "42223", "addr:state": "KY", "brand": "USPS", "collection_times": "Mo-Sa 10:30", "name": "USPS COLLECTION BOX - BLUE BOX", "ref": "4222300022"}, "type": "Feature"}
{"geometry": {"coordinates": [-87.45060565, 36.643655573], "type": "Point"}, "id": "XrxqiMbj9SC4EUxynlyg1ZyUMAU=", "properties": {"@spider": "usps_collection_boxes", "addr:city": "FORT CAMPBELL", "addr:country": "US", "addr:full": "91 MICHIGAN AVE", "addr:postcode": "42223", "addr:state": "KY", "brand": "USPS", "collection_times": "Mo-Fr 16:00; Sa 15:00", "name": "USPS COLLECTION BOX - PO LOBBY", "note": "ON 12/24 AND 12/31, THIS BOX MAY BE COLLECTED AS EARLY AS 12 NOON.", "ref": "4222300023"}, "type": "Feature"}
{"geometry": {"coordinates": [-87.45060565, 36.643655573], "type": "Point"}, "id": "sYATPodlW3dWLXsm62DsM1akVek=", "properties": {"@spider": "usps_collection_boxes", "addr:city": "FORT CAMPBELL", "addr:country": "US", "addr:full": "91 MICHIGAN AVE", "addr:postcode": "42223", "addr:state": "KY", "brand": "USPS", "collection_times": "Mo-Fr 17:00; Sa 14:00", "name": "USPS COLLECTION BOX - PO LOBBY", "note": "ON 12/24 AND 12/31, THIS BOX MAY BE COLLECTED AS EARLY AS 12 NOON.", "ref": "4222300026"}, "type": "Feature"}
{"geometry": {"coordinates": [-87.4502227789, 36.6433684954], "type": "Point"}, "id": "e1PRwP74fdFEUSV2FNqfIpD4_2U=", "properties": {"@spider": "usps_collection_boxes", "addr:city": "FORT CAMPBELL", "addr:country": "US", "addr:full": "2702 MICHIGAN AVE", "addr:postcode": "42223", "addr:state": "KY", "brand": "USPS", "collection_times": "Mo-Fr 12:30; Sa 11:30", "name": "USPS COLLECTION BOX - BLUE BOX", "note": "ON 12/24 AND 12/31, THIS BOX MAY BE COLLECTED AS EARLY AS 12 NOON.", "ref": "4222300027"}, "type": "Feature"}
{"geometry": {"coordinates": [-87.166570576, 36.648775912], "type": "Point"}, "id": "4oZeaEl6uEWsCaFXkcQ-HsiDYfY=", "properties": {"@spider": "usps_collection_boxes", "addr:city": "GUTHRIE", "addr:country": "US", "addr:full": "202 W PARK ST", "addr:postcode": "42234", "addr:state": "KY", "brand": "USPS", "collection_times": "Mo-Fr 15:30; Sa 11:00", "name": "USPS COLLECTION BOX - BLUE BOX", "note": "ON 12/24 AND 12/31, THIS BOX MAY BE COLLECTED AS EARLY AS 12 NOON.", "ref": "4223400000"}, "type": "Feature"}
{"geometry": {"coordinates": [-87.166570576, 36.648775912], "type": "Point"}, "id": "QM59JlQbN3dL9lC_lu-VzO3_RVQ=", "properties": {"@spider": "usps_collection_boxes", "addr:city": "GUTHRIE", "addr:country": "US", "addr:full": "202 W PARK ST", "addr:postcode": "42234", "addr:state": "KY", "brand": "USPS", "collection_times": "Mo-Fr 15:30; Sa 11:00", "name": "USPS COLLECTION BOX - PO LOBBY", "note": "ON 12/24 AND 12/31, THIS BOX MAY BE COLLECTED AS EARLY AS 12 NOON.", "ref": "4223400001"}, "type": "Feature"}
{"geometry": {"coordinates": [-87.166570576, 36.648775912], "type": "Point"}, "id": "8IcfNhKL54gVEuk8lQx5kuHK8vg=", "properties": {"@spider": "usps_collection_boxes", "addr:city": "GUTHRIE", "addr:country": "US", "addr:full": "202 W PARK ST", "addr:postcode": "42234", "addr:state": "KY", "brand": "USPS", "collection_times": "Mo-Fr 15:30; Sa 11:00", "name": "USPS COLLECTION BOX - PO LOBBY", "note": "ON 12/24 AND 12/31, THIS BOX MAY BE COLLECTED AS EARLY AS 12 NOON.", "ref": "4223400003"}, "type": "Feature"}
{"geometry": {"coordinates": [-87.658338185, 36.659411596], "type": "Point"}, "id": "wDM8ITBaIBiSluPCGI7935ADaVw=", "properties": {"@spider": "usps_collection_boxes", "addr:city": "LAFAYETTE", "addr:country": "US", "addr:full": "101 N MAIN ST", "addr:postcode": "42254", "addr:state": "KY", "brand": "USPS", "collection_times": "Mo-Fr 14:00; Sa 10:15", "name": "USPS COLLECTION BOX - BLUE BOX", "note": "ON 12/24 AND 12/31, THIS BOX MAY BE COLLECTED AS EARLY AS 12 NOON.", "ref": "4225400002"}, "type": "Feature"}
{"geometry": {"coordinates": [-87.442297558, 36.661561962], "type": "Point"}, "id": "DUfsch9TJmgHsH2bWID8EE6q0Ho=", "properties": {"@spider": "usps_collection_boxes", "addr:city": "OAK GROVE", "addr:country": "US", "addr:full": "15124 FORT CAMPBELL BLVD", "addr:postcode": "42262", "addr:state": "KY", "brand": "USPS", "collection_times": "Mo-Fr 15:45; Sa 12:00", "name": "USPS COLLECTION BOX - PO LOBBY", "note": "ON 12/24 AND 12/31, THIS BOX MAY BE COLLECTED AS EARLY AS 12 NOON.", "ref": "4226200000"}, "type": "Feature"}
{"geometry": {"coordinates": [-87.4547118, 36.697157], "type": "Point"}, "id": "t5-gcy3zghZV4bED_-xDnhume80=", "properties": {"@spider": "usps_collection_boxes", "addr:city": "OAK GROVE", "addr:country": "US", "addr:full": "18750 HERNDON OAK GROVE RD", "addr:postcode": "42262", "addr:state": "KY", "brand": "USPS", "collection_times": "Mo-Sa 11:30", "name": "USPS COLLECTION BOX - BLUE BOX", "ref": "4226200001"}, "type": "Feature"}
{"geometry": {"coordinates": [-87.451423, 36.692288], "type": "Point"}, "id": "UR0sWLBl7AaPTN0wd6NOerFfZkg=", "properties": {"@spider": "usps_collection_boxes", "addr:city": "OAK GROVE", "addr:country": "US", "addr:full": "12900 FORT CAMPBELL BLVD", "addr:postcode": "42262", "addr:state": "KY", "brand": "USPS", "collection_times": "Mo-Sa 10:00", "name": "USPS COLLECTION BOX - BLUE BOX", "ref": "4226200002"}, "type": "Feature"}
{"geometry": {"coordinates": [-87.403990015, 36.678750015], "type": "Point"}, "id": "vZJ0w1vZxm1OdGmLpFAg7AAra8Q=", "properties": {"@spider": "usps_collection_boxes", "addr:city": "OAK GROVE", "addr:country": "US", "addr:full": "8190 PEMBROKE OAK GROVE RD", "addr:postcode": "42262", "addr:state": "KY", "brand": "USPS", "collection_times": "Mo-Sa 10:00", "name": "USPS COLLECTION BOX - BLUE BOX", "ref": "4226200003"}, "type": "Feature"}
{"geometry": {"coordinates": [-87.442297558, 36.661561962], "type": "Point"}, "id": "JMEIO6B9wr3E2ZWs9vUEZE2P2Ek=", "properties": {"@spider": "usps_collection_boxes", "addr:city": "OAK GROVE", "addr:country": "US", "addr:full": "15124 FORT CAMPBELL BLVD", "addr:postcode": "42262", "addr:state": "KY", "brand": "USPS", "collection_times": "Mo-Fr 15:45; Sa 12:00", "name": "USPS COLLECTION BOX - BLUE BOX", "note": "ON 12/24 AND 12/31, THIS BOX MAY BE COLLECTED AS EARLY AS 12 NOON.", "ref": "4226200004"}, "type": "Feature"}
{"geometry": {"coordinates": [-87.4405922, 36.667451], "type": "Point"}, "id": "MlC6JiL4EafSxZ5F-AhBC7-u8Fk=", "properties": {"@spider": "usps_collection_boxes", "addr:city": "OAK GROVE", "addr:country": "US", "addr:full": "14800 FORT CAMPBELL BLVD", "addr:postcode": "42262", "addr:state": "KY", "brand": "USPS", "collection_times": "Mo-Sa 11:00", "name": "USPS COLLECTION BOX - BLUE BOX", "ref": "4226200005"}, "type": "Feature"}
{"geometry": {"coordinates": [-87.442297558, 36.661561962], "type": "Point"}, "id": "SzA3h0Sj7r7gaOlxrao19vkn-hs=", "properties": {"@spider": "usps_collection_boxes", "addr:city": "OAK GROVE", "addr:country": "US", "addr:full": "15124 FORT CAMPBELL BLVD", "addr:postcode": "42262", "addr:state": "KY", "brand": "USPS", "collection_times": "Mo-Fr 15:45; Sa 12:00", "name": "USPS COLLECTION BOX - PO LOBBY", "note": "ON 12/24 AND 12/31, THIS BOX MAY BE COLLECTED AS EARLY AS 12 NOON.", "ref": "4226200007"}, "type": "Feature"}
{"geometry": {"coordinates": [-87.263363359, 36.723742049], "type": "Point"}, "id": "iY410RoGEKy8-BX0nmADnBuFtUQ=", "properties": {"@spider": "usps_collection_boxes", "addr:city": "TRENTON", "addr:country": "US", "addr:full": "206 N MAIN ST", "addr:postcode": "42286", "addr:state": "KY", "brand": "USPS", "collection_times": "Mo-Fr 15:45; Sa 12:15", "name": "USPS COLLECTION BOX - BLUE BOX", "note": "ON 12/24 AND 12/31, THIS BOX MAY BE COLLECTED AS EARLY AS 12 NOON.", "ref": "4228600000"}, "type": "Feature"}
{"geometry": {"coordinates": [-87.263363359, 36.723742049], "type": "Point"}, "id": "k3ExWIgEq3eEuLe1u5KvSKzIiac=", "properties": {"@spider": "usps_collection_boxes", "addr:city": "TRENTON", "addr:country": "US", "addr:full": "206 N MAIN ST", "addr:postcode": "42286", "addr:state": "KY", "brand": "USPS", "collection_times": "Mo-Fr 15:45; Sa 12:15", "name": "USPS COLLECTION BOX - PO LOBBY", "note": "ON 12/24 AND 12/31, THIS BOX MAY BE COLLECTED AS EARLY AS 12 NOON.", "ref": "4228600001"}, "type": "Feature"}
{"geometry": {"coordinates": [-87.263363359, 36.723742049], "type": "Point"}, "id": "9s5z69Nqm4Sv2hurxyoxCAshFS0=", "properties": {"@spider": "usps_collection_boxes", "addr:city": "TRENTON", "addr:country": "US", "addr:full": "206 N MAIN ST", "addr:postcode": "42286", "addr:state": "KY", "brand": "USPS", "collection_times": "Mo-Fr 16:00; Sa 12:30", "name": "USPS COLLECTION BOX - PO LOBBY", "note": "ON 12/24 AND 12/31, THIS BOX MAY BE COLLECTED AS EARLY AS 12 NOON.", "ref": "4228600003"}, "type": "Feature"}
