{"geometry": {"coordinates": [-87.1558256, 37.733984], "type": "Point"}, "id": "xH_Cs_Ql8jVn_jzJjbcM8-Rweko=", "properties": {"@source_uri": "https://tools.usps.com/UspsToolsRestServices/rest/POLocator/findLocations", "@spider": "usps_collection_boxes", "addr:city": "OWENSBORO", "addr:country": "US", "addr:postcode": "42301", "addr:state": "KY", "addr:street_address": "3000 TAMARACK RD", "amenity": "post_box", "collection_times": "Mo-Sa 14:00", "note": "ON 12/24 AND 12/31, THIS BOX MAY BE COLLECTED AS EARLY AS 12 NOON.", "nsi_id": "unitedstatespostalservice-a77078", "operator": "United States Postal Service", "operator:short": "USPS", "operator:type": "public", "operator:wikidata": "Q668687", "ref": "4230100008"}, "type": "Feature"}
{"geometry": {"coordinates": [-87.0920649, 37.736813], "type": "Point"}, "id": "85oizXA_GExlrE804BtvxEJuN1M=", "properties": {"@source_uri": "https://tools.usps.com/UspsToolsRestServices/rest/POLocator/findLocations", "@spider": "usps_collection_boxes", "addr:city": "OWENSBORO", "addr:country": "US", "addr:postcode": "42301", "addr:state": "KY", "addr:street_address": "3500 NEW HARTFORD RD", "amenity": "post_box", "collection_times": "Mo-Fr 13:00", "note": "ON 12/24 AND 12/31, THIS BOX MAY BE COLLECTED AS EARLY AS 12 NOON.", "nsi_id": "unitedstatespostalservice-a77078", "operator": "United States Postal Service", "operator:short": "USPS", "operator:type": "public", "operator:wikidata": "Q668687", "ref": "4230100024"}, "type": "Feature"}
{"geometry": {"coordinates": [-87.1215466, 37.737156], "type": "Point"}, "id": "XR-YQUCJ1K1BJ-blP300FzL_hXc=", "properties": {"@source_uri": "https://tools.usps.com/UspsToolsRestServices/rest/POLocator/findLocations", "@spider": "usps_collection_boxes", "addr:city": "OWENSBORO", "addr:country": "US", "addr:postcode": "42301", "addr:state": "KY", "addr:street_address": "1035 TAMARACK RD", "amenity": "post_box", "collection_times": "Mo-Fr 10:00", "nsi_id": "unitedstatespostalservice-a77078", "operator": "United States Postal Service", "operator:short": "USPS", "operator:type": "public", "operator:wikidata": "Q668687", "ref": "4230100027"}, "type": "Feature"}
{"geometry": {"coordinates": [-87.1304226, 37.7417], "type": "Point"}, "id": "Xr0y6eChufbhSC7rrmzrQq3Jjkw=", "properties": {"@source_uri": "https://tools.usps.com/UspsToolsRestServices/rest/POLocator/findLocations", "@spider": "usps_collection_boxes", "addr:city": "OWENSBORO", "addr:country": "US", "addr:postcode": "42301", "addr:state": "KY", "addr:street_address": "1735 SCHERM RD", "amenity": "post_box", "collection_times": "Mo-Fr 09:00", "nsi_id": "unitedstatespostalservice-a77078", "operator": "United States Postal Service", "operator:short": "USPS", "operator:type": "public", "operator:wikidata": "Q668687", "ref": "4230100037"}, "type": "Feature"}
{"geometry": {"coordinates": [-87.1260013, 37.724029], "type": "Point"}, "id": "fsfCQBh33R2Xzd35W6F4BfycjVU=", "properties": {"@source_uri": "https://tools.usps.com/UspsToolsRestServices/rest/POLocator/findLocations", "@spider": "usps_collection_boxes", "addr:city": "OWENSBORO", "addr:country": "US", "addr:postcode": "42301", "addr:state": "KY", "addr:street_address": "4760 FREDERICA ST", "amenity": "post_box", "collection_times": "Mo-Sa 14:00", "note": "ON 12/24 AND 12/31, THIS BOX MAY BE COLLECTED AS EARLY AS 12 NOON.", "nsi_id": "unitedstatespostalservice-a77078", "operator": "United States Postal Service", "operator:short": "USPS", "operator:type": "public", "operator:wikidata": "Q668687", "ref": "4230100042"}, "type": "Feature"}
{"geometry": {"coordinates": [-87.1369252, 37.733237], "type": "Point"}, "id": "f_YQ3YoPMjDgwMReP2UZ0kXvF3k=", "properties": {"@source_uri": "https://tools.usps.com/UspsToolsRestServices/rest/POLocator/findLocations", "@spider": "usps_collection_boxes", "addr:city": "OWENSBORO", "addr:country": "US", "addr:postcode": "42301", "addr:state": "KY", "addr:street_address": "2070 TAMARACK RD", "amenity": "post_box", "collection_times": "Mo-Sa 14:00", "note": "ON 12/24 AND 12/31, THIS BOX MAY BE COLLECTED AS EARLY AS 12 NOON.", "nsi_id": "unitedstatespostalservice-a77078", "operator": "United States Postal Service", "operator:short": "USPS", "operator:type": "public", "operator:wikidata": "Q668687", "ref": "4230100048"}, "type": "Feature"}
{"geometry": {"coordinates": [-87.1305351, 37.771654341], "type": "Point"}, "id": "MMLls3ZQDZwdHRLFpJt3O6luzm0=", "properties": {"@source_uri": "https://tools.usps.com/UspsToolsRestServices/rest/POLocator/findLocations", "@spider": "usps_collection_boxes", "addr:city": "OWENSBORO", "addr:country": "US", "addr:postcode": "42301", "addr:state": "KY", "addr:street_address": "1651 W 4TH ST", "amenity": "post_box", "collection_times": "Mo-Sa 10:00", "nsi_id": "unitedstatespostalservice-a77078", "operator": "United States Postal Service", "operator:short": "USPS", "operator:type": "public", "operator:wikidata": "Q668687", "ref": "4230100060"}, "type": "Feature"}
{"geometry": {"coordinates": [-87.0753347, 37.782073], "type": "Point"}, "id": "eoy_vpex5RDkJCz17s0rPS0byRM=", "properties": {"@source_uri": "https://tools.usps.com/UspsToolsRestServices/rest/POLocator/findLocations", "@spider": "usps_collection_boxes", "addr:city": "OWENSBORO", "addr:country": "US", "addr:postcode": "42301", "addr:state": "KY", "addr:street_address": "3026 E 4TH ST", "amenity": "post_box", "collection_times": "Mo-Sa 10:00", "nsi_id": "unitedstatespostalservice-a77078", "operator": "United States Postal Service", "operator:short": "USPS", "operator:type": "public", "operator:wikidata": "Q668687", "ref": "4230100065"}, "type": "Feature"}
{"geometry": {"coordinates": [-87.1107849, 37.772796], "type": "Point"}, "id": "qjI3xAmRicGlZPZ-rbHMySO49wk=", "properties": {"@source_uri": "https://tools.usps.com/UspsToolsRestServices/rest/POLocator/findLocations", "@spider": "usps_collection_boxes", "addr:city": "OWENSBORO", "addr:country": "US", "addr:postcode": "42301", "addr:state": "KY", "addr:street_address": "101 E 4TH ST", "amenity": "post_box", "collection_times": "Mo-Sa 16:00", "note": "ON 12/24 AND 12/31, THIS BOX MAY BE COLLECTED AS EARLY AS 12 NOON.", "nsi_id": "unitedstatespostalservice-a77078", "operator": "United States Postal Service", "operator:short": "USPS", "operator:type": "public", "operator:wikidata": "Q668687", "ref": "4230100066"}, "type": "Feature"}
{"geometry": {"coordinates": [-87.1018612, 37.745778], "type": "Point"}, "id": "0a-XbBn_zFgxWM5xjWUAoRDIajY=", "properties": {"@source_uri": "https://tools.usps.com/UspsToolsRestServices/rest/POLocator/findLocations", "@spider": "usps_collection_boxes", "addr:city": "OWENSBORO", "addr:country": "US", "addr:postcode": "42301", "addr:state": "KY", "addr:street_address": "2816 VEACH RD", "amenity": "post_box", "collection_times": "Mo-Sa 10:00", "nsi_id": "unitedstatespostalservice-a77078", "operator": "United States Postal Service", "operator:short": "USPS", "operator:type": "public", "operator:wikidata": "Q668687", "ref": "4230100067"}, "type": "Feature"}
{"geometry": {"coordinates": [-87.1507323, 37.754723], "type": "Point"}, "id": "zFW8LDWGpVzo8jvGROgo7UMCF4w=", "properties": {"@source_uri": "https://tools.usps.com/UspsToolsRestServices/rest/POLocator/findLocations", "@spider": "usps_collection_boxes", "addr:city": "OWENSBORO", "addr:country": "US", "addr:postcode": "42301", "addr:state": "KY", "addr:street_address": "1670 STARLITE DR", "amenity": "post_box", "collection_times": "Mo-Sa 10:00", "nsi_id": "unitedstatespostalservice-a77078", "operator": "United States Postal Service", "operator:short": "USPS", "operator:type": "public", "operator:wikidata": "Q668687", "ref": "4230100068"}, "type": "Feature"}
{"geometry": {"coordinates": [-87.1123837, 37.773837], "type": "Point"}, "id": "W1W2dAsxh9PC7xlf2UPTNvBYs0g=", "properties": {"@source_uri": "https://tools.usps.com/UspsToolsRestServices/rest/POLocator/findLocations", "@spider": "usps_collection_boxes", "addr:city": "OWENSBORO", "addr:country": "US", "addr:postcode": "42301", "addr:state": "KY", "addr:street_address": "298 SAINT ANN ST", "amenity": "post_box", "collection_times": "Mo-Sa 16:00", "note": "ON 12/24 AND 12/31, THIS BOX MAY BE COLLECTED AS EARLY AS 12 NOON.", "nsi_id": "unitedstatespostalservice-a77078", "operator": "United States Postal Service", "operator:short": "USPS", "operator:type": "public", "operator:wikidata": "Q668687", "ref": "4230100073"}, "type": "Feature"}
{"geometry": {"coordinates": [-87.0874917, 37.743786], "type": "Point"}, "id": "rZexInAqOG-A7FABbqzyS1VUbQE=", "properties": {"@source_uri": "https://tools.usps.com/UspsToolsRestServices/rest/POLocator/findLocations", "@spider": "usps_collection_boxes", "addr:city": "OWENSBORO", "addr:country": "US", "addr:postcode": "42301", "addr:state": "KY", "addr:street_address": "3400 OLD HARTFORD RD", "amenity": "post_box", "collection_times": "Mo-Fr 13:00", "note": "ON 12/24 AND 12/31, THIS BOX MAY BE COLLECTED AS EARLY AS 12 NOON.", "nsi_id": "unitedstatespostalservice-a77078", "operator": "United States Postal Service", "operator:short": "USPS", "operator:type": "public", "operator:wikidata": "Q668687", "ref": "4230100076"}, "type": "Feature"}
{"geometry": {"coordinates": [-87.1225927, 37.717881], "type": "Point"}, "id": "antl1JcUAghTECfyKocO64eg7dI=", "properties": {"@source_uri": "https://tools.usps.com/UspsToolsRestServices/rest/POLocator/findLocations", "@spider": "usps_collection_boxes", "addr:city": "OWENSBORO", "addr:country": "US", "addr:postcode": "42301", "addr:state": "KY", "addr:street_address": "5151 FREDERICA ST", "amenity": "post_box", "collection_times": "Mo-Fr 10:00", "nsi_id": "unitedstatespostalservice-a77078", "operator": "United States Postal Service", "operator:short": "USPS", "operator:type": "public", "operator:wikidata": "Q668687", "ref": "4230100080"}, "type": "Feature"}
{"geometry": {"coordinates": [-87.1222579885, 37.7530670109], "type": "Point"}, "id": "xBp_uqt7huxKdEMvwrkbU-NLAc0=", "properties": {"@source_uri": "https://tools.usps.com/UspsToolsRestServices/rest/POLocator/findLocations", "@spider": "usps_collection_boxes", "addr:city": "OWENSBORO", "addr:country": "US", "addr:postcode": "42301", "addr:state": "KY", "addr:street_address": "2211 MAYFAIR DR", "amenity": "post_box", "collection_times": "Mo-Fr 15:15", "note": "ON 12/24 AND 12/31, THIS BOX MAY BE COLLECTED AS EARLY AS 12 NOON.", "nsi_id": "unitedstatespostalservice-a77078", "operator": "United States Postal Service", "operator:short": "USPS", "operator:type": "public", "operator:wikidata": "Q668687", "ref": "4230100095"}, "type": "Feature"}
{"geometry": {"coordinates": [-87.1663337, 37.776453], "type": "Point"}, "id": "4NVm4DRwLGi521rEziymFcGihBo=", "properties": {"@source_uri": "https://tools.usps.com/UspsToolsRestServices/rest/POLocator/findLocations", "@spider": "usps_collection_boxes", "addr:city": "OWENSBORO", "addr:country": "US", "addr:postcode": "42301", "addr:state": "KY", "addr:street_address": "54 BON HARBOR HLS", "amenity": "post_box", "collection_times": "Mo-Sa 17:00", "note": "ON 12/24 AND 12/31, THIS BOX MAY BE COLLECTED AS EARLY AS 12 NOON.", "nsi_id": "unitedstatespostalservice-a77078", "operator": "United States Postal Service", "operator:short": "USPS", "operator:type": "public", "operator:wikidata": "Q668687", "ref": "4230100111"}, "type": "Feature"}
{"geometry": {"coordinates": [-87.1153649, 37.750217], "type": "Point"}, "id": "YaCKKa7noN6SajUJuRfgMtl5NjE=", "properties": {"@source_uri": "https://tools.usps.com/UspsToolsRestServices/rest/POLocator/findLocations", "@spider": "usps_collection_boxes", "addr:city": "OWENSBORO", "addr:country": "US", "addr:postcode": "42301", "addr:state": "KY", "addr:street_address": "2736 FREDERICA ST", "amenity": "post_box", "collection_times": "Mo-Sa 16:30", "note": "ON 12/24 AND 12/31, THIS BOX MAY BE COLLECTED AS EARLY AS 12 NOON.", "nsi_id": "unitedstatespostalservice-a77078", "operator": "United States Postal Service", "operator:short": "USPS", "operator:type": "public", "operator:wikidata": "Q668687", "ref": "4230100113"}, "type": "Feature"}
{"geometry": {"coordinates": [-87.0407289, 37.743244], "type": "Point"}, "id": "7cJ9URR3tkG1KpyjN35L9-PbH9Y=", "properties": {"@source_uri": "https://tools.usps.com/UspsToolsRestServices/rest/POLocator/findLocations", "@spider": "usps_collection_boxes", "addr:city": "OWENSBORO", "addr:country": "US", "addr:postcode": "42301", "addr:state": "KY", "addr:street_address": "4510 STATE ROUTE 54", "amenity": "post_box", "collection_times": "Mo-Sa 16:00", "note": "ON 12/24 AND 12/31, THIS BOX MAY BE COLLECTED AS EARLY AS 12 NOON.", "nsi_id": "unitedstatespostalservice-a77078", "operator": "United States Postal Service", "operator:short": "USPS", "operator:type": "public", "operator:wikidata": "Q668687", "ref": "4230100122"}, "type": "Feature"}
{"geometry": {"coordinates": [-87.1675195, 37.776449], "type": "Point"}, "id": "QO4VuQc-rBuK2PJgbg4YQWUOKmk=", "properties": {"@source_uri": "https://tools.usps.com/UspsToolsRestServices/rest/POLocator/findLocations", "@spider": "usps_collection_boxes", "addr:city": "OWENSBORO", "addr:country": "US", "addr:postcode": "42301", "addr:state": "KY", "addr:street_address": "54 BON HARBOR HLS", "amenity": "post_box", "collection_times": "Mo-Sa 17:00", "indoor": "yes", "note": "ON 12/24 AND 12/31, THIS BOX MAY BE COLLECTED AS EARLY AS 12 NOON.", "nsi_id": "unitedstatespostalservice-a77078", "operator": "United States Postal Service", "operator:short": "USPS", "operator:type": "public", "operator:wikidata": "Q668687", "ref": "4230100140"}, "type": "Feature"}
{"geometry": {"coordinates": [-87.1673723, 37.776503], "type": "Point"}, "id": "MqWJHN-PCqxl3OpF2rUbGBeNjJw=", "properties": {"@source_uri": "https://tools.usps.com/UspsToolsRestServices/rest/POLocator/findLocations", "@spider": "usps_collection_boxes", "addr:city": "OWENSBORO", "addr:country": "US", "addr:postcode": "42301", "addr:state": "KY", "addr:street_address": "54 BON HARBOR HLS", "amenity": "post_box", "collection_times": "Mo-Sa 17:00", "indoor": "yes", "note": "ON 12/24 AND 12/31, THIS BOX MAY BE COLLECTED AS EARLY AS 12 NOON.", "nsi_id": "unitedstatespostalservice-a77078", "operator": "United States Postal Service", "operator:short": "USPS", "operator:type": "public", "operator:wikidata": "Q668687", "ref": "4230100141"}, "type": "Feature"}
{"geometry": {"coordinates": [-87.1113878, 37.7564], "type": "Point"}, "id": "KjiZqRNGr329ECgFh-vOVCI0gOM=", "properties": {"@source_uri": "https://tools.usps.com/UspsToolsRestServices/rest/POLocator/findLocations", "@spider": "usps_collection_boxes", "addr:city": "OWENSBORO", "addr:country": "US", "addr:postcode": "42301", "addr:state": "KY", "addr:street_address": "2001 FREDERICA ST", "amenity": "post_box", "collection_times": "Mo-Sa 16:00", "note": "ON 12/24 AND 12/31, THIS BOX MAY BE COLLECTED AS EARLY AS 12 NOON.", "nsi_id": "unitedstatespostalservice-a77078", "operator": "United States Postal Service", "operator:short": "USPS", "operator:type": "public", "operator:wikidata": "Q668687", "ref": "4230100143"}, "type": "Feature"}
{"geometry": {"coordinates": [-87.102827604, 37.758589281], "type": "Point"}, "id": "rEVxFfElNIrDOunOiQ2SZ6qrNF4=", "properties": {"@source_uri": "https://tools.usps.com/UspsToolsRestServices/rest/POLocator/findLocations", "@spider": "usps_collection_boxes", "addr:city": "OWENSBORO", "addr:country": "US", "addr:postcode": "42301", "addr:state": "KY", "addr:street_address": "1828 TRIPLETT ST", "amenity": "post_box", "collection_times": "Mo-Sa 15:00", "note": "ON 12/24 AND 12/31, THIS BOX MAY BE COLLECTED AS EARLY AS 12 NOON.", "nsi_id": "unitedstatespostalservice-a77078", "operator": "United States Postal Service", "operator:short": "USPS", "operator:type": "public", "operator:wikidata": "Q668687", "ref": "4230100150"}, "type": "Feature"}
{"geometry": {"coordinates": [-87.1116299, 37.772312], "type": "Point"}, "id": "rOdU-KoIqYQp1VEN1JzsDXZCIU4=", "properties": {"@source_uri": "https://tools.usps.com/UspsToolsRestServices/rest/POLocator/findLocations", "@spider": "usps_collection_boxes", "addr:city": "OWENSBORO", "addr:country": "US", "addr:postcode": "42301", "addr:state": "KY", "addr:street_address": "118 W 4TH ST", "amenity": "post_box", "collection_times": "Mo-Fr 16:30", "indoor": "yes", "note": "ON 12/24 AND 12/31, THIS BOX MAY BE COLLECTED AS EARLY AS 12 NOON.", "nsi_id": "unitedstatespostalservice-a77078", "operator": "United States Postal Service", "operator:short": "USPS", "operator:type": "public", "operator:wikidata": "Q668687", "ref": "4230100153"}, "type": "Feature"}
{"geometry": {"coordinates": [-87.0993935, 37.767163], "type": "Point"}, "id": "86Ohn3mbNlOSbDAiuLxtBNSbkJ8=", "properties": {"@source_uri": "https://tools.usps.com/UspsToolsRestServices/rest/POLocator/findLocations", "@spider": "usps_collection_boxes", "addr:city": "OWENSBORO", "addr:country": "US", "addr:postcode": "42301", "addr:state": "KY", "addr:street_address": "1000 BRECKENRIDGE ST", "amenity": "post_box", "collection_times": "Mo-Sa 15:00", "note": "ON 12/24 AND 12/31, THIS BOX MAY BE COLLECTED AS EARLY AS 12 NOON.", "nsi_id": "unitedstatespostalservice-a77078", "operator": "United States Postal Service", "operator:short": "USPS", "operator:type": "public", "operator:wikidata": "Q668687", "ref": "4230100157"}, "type": "Feature"}
{"geometry": {"coordinates": [-87.0777191, 37.759087], "type": "Point"}, "id": "rz6g9ZLM9w0GOis8mmwMCa4Zo9U=", "properties": {"@source_uri": "https://tools.usps.com/UspsToolsRestServices/rest/POLocator/findLocations", "@spider": "usps_collection_boxes", "addr:city": "OWENSBORO", "addr:country": "US", "addr:postcode": "42301", "addr:state": "KY", "addr:street_address": "2200 E PARRISH AVE", "amenity": "post_box", "collection_times": "Mo-Sa 16:00", "note": "ON 12/24 AND 12/31, THIS BOX MAY BE COLLECTED AS EARLY AS 12 NOON.", "nsi_id": "unitedstatespostalservice-a77078", "operator": "United States Postal Service", "operator:short": "USPS", "operator:type": "public", "operator:wikidata": "Q668687", "ref": "4230100158"}, "type": "Feature"}
{"geometry": {"coordinates": [-87.1118172, 37.772485], "type": "Point"}, "id": "PBiZoBaqbhZR-axtTwSA_6KWMwQ=", "properties": {"@source_uri": "https://tools.usps.com/UspsToolsRestServices/rest/POLocator/findLocations", "@spider": "usps_collection_boxes", "addr:city": "OWENSBORO", "addr:country": "US", "addr:postcode": "42301", "addr:state": "KY", "addr:street_address": "118 W 4TH ST", "amenity": "post_box", "collection_times": "Mo-Sa 16:30", "note": "ON 12/24 AND 12/31, THIS BOX MAY BE COLLECTED AS EARLY AS 12 NOON.", "nsi_id": "unitedstatespostalservice-a77078", "operator": "United States Postal Service", "operator:short": "USPS", "operator:type": "public", "operator:wikidata": "Q668687", "ref": "4230100159"}, "type": "Feature"}
{"geometry": {"coordinates": [-87.1665630752, 37.7768860441], "type": "Point"}, "id": "-z-pKwQfs8mpx05ourXd3pUTKYM=", "properties": {"@source_uri": "https://tools.usps.com/UspsToolsRestServices/rest/POLocator/findLocations", "@spider": "usps_collection_boxes", "addr:city": "OWENSBORO", "addr:country": "US", "addr:postcode": "42301", "addr:state": "KY", "addr:street_address": "54 BON HARBOR HLS", "amenity": "post_box", "collection_times": "Mo-Fr 16:30; Sa 12:00", "indoor": "yes", "note": "ON 12/24 AND 12/31, THIS BOX MAY BE COLLECTED AS EARLY AS 12 NOON.", "nsi_id": "unitedstatespostalservice-a77078", "operator": "United States Postal Service", "operator:short": "USPS", "operator:type": "public", "operator:wikidata": "Q668687", "ref": "4230100167"}, "type": "Feature"}
{"geometry": {"coordinates": [-87.1356795, 37.7697747], "type": "Point"}, "id": "O1BNfxAAWTujBMqqi7ZEOro62D8=", "properties": {"@source_uri": "https://tools.usps.com/UspsToolsRestServices/rest/POLocator/findLocations", "@spider": "usps_collection_boxes", "addr:city": "OWENSBORO", "addr:country": "US", "addr:postcode": "42301", "addr:state": "KY", "addr:street_address": "54 BON HARBOR HLS", "amenity": "post_box", "collection_times": "Mo-Sa 17:00", "name": "USPS COLLECTION BOX - APC", "note": "ON 12/24 AND 12/31, THIS BOX MAY BE COLLECTED AS EARLY AS 12 NOON.", "nsi_id": "unitedstatespostalservice-a77078", "operator": "United States Postal Service", "operator:short": "USPS", "operator:type": "public", "operator:wikidata": "Q668687", "ref": "4230100174"}, "type": "Feature"}
{"geometry": {"coordinates": [-86.876547161, 37.396458651], "type": "Point"}, "id": "HlxSRH-opd_B5ixfdSrXNJP0YOg=", "properties": {"@source_uri": "https://tools.usps.com/UspsToolsRestServices/rest/POLocator/findLocations", "@spider": "usps_collection_boxes", "addr:city": "BEAVER DAM", "addr:country": "US", "addr:postcode": "42320", "addr:state": "KY", "addr:street_address": "435 S MAIN ST", "amenity": "post_box", "collection_times": "Mo-Fr 16:00; Sa 10:30", "indoor": "yes", "note": "ON 12/24 AND 12/31, THIS BOX MAY BE COLLECTED AS EARLY AS 12 NOON.", "nsi_id": "unitedstatespostalservice-a77078", "operator": "United States Postal Service", "operator:short": "USPS", "operator:type": "public", "operator:wikidata": "Q668687", "ref": "4232000008"}, "type": "Feature"}
{"geometry": {"coordinates": [-86.876547161, 37.396458651], "type": "Point"}, "id": "_WfTLFWdcDp0tR3VG8lENW4JssY=", "properties": {"@source_uri": "https://tools.usps.com/UspsToolsRestServices/rest/POLocator/findLocations", "@spider": "usps_collection_boxes", "addr:city": "BEAVER DAM", "addr:country": "US", "addr:postcode": "42320", "addr:state": "KY", "addr:street_address": "435 S MAIN ST", "amenity": "post_box", "collection_times": "Mo-Fr 16:00; Sa 10:30", "note": "ON 12/24 AND 12/31, THIS BOX MAY BE COLLECTED AS EARLY AS 12 NOON.", "nsi_id": "unitedstatespostalservice-a77078", "operator": "United States Postal Service", "operator:short": "USPS", "operator:type": "public", "operator:wikidata": "Q668687", "ref": "4232000009"}, "type": "Feature"}
{"geometry": {"coordinates": [-86.876547161, 37.396458651], "type": "Point"}, "id": "UUcKnXzYmTufkGxABltYokQhahI=", "properties": {"@source_uri": "https://tools.usps.com/UspsToolsRestServices/rest/POLocator/findLocations", "@spider": "usps_collection_boxes", "addr:city": "BEAVER DAM", "addr:country": "US", "addr:postcode": "42320", "addr:state": "KY", "addr:street_address": "435 S MAIN ST", "amenity": "post_box", "collection_times": "Mo-Fr 16:00; Sa 10:30", "indoor": "yes", "note": "ON 12/24 AND 12/31, THIS BOX MAY BE COLLECTED AS EARLY AS 12 NOON.", "nsi_id": "unitedstatespostalservice-a77078", "operator": "United States Postal Service", "operator:short": "USPS", "operator:type": "public", "operator:wikidata": "Q668687", "ref": "4232000011"}, "type": "Feature"}
{"geometry": {"coordinates": [-87.397613, 37.61548], "type": "Point"}, "id": "dYRbxA0v5tK0cZa259DPK9ipwoM=", "properties": {"@source_uri": "https://tools.usps.com/UspsToolsRestServices/rest/POLocator/findLocations", "@spider": "usps_collection_boxes", "addr:city": "BEECH GROVE", "addr:country": "US", "addr:postcode": "42322", "addr:state": "KY", "addr:street_address": "435 MAIN ST", "amenity": "post_box", "collection_times": "Mo-Fr 10:30; Sa 10:00", "nsi_id": "unitedstatespostalservice-a77078", "operator": "United States Postal Service", "operator:short": "USPS", "operator:type": "public", "operator:wikidata": "Q668687", "ref": "4232200000"}, "type": "Feature"}
{"geometry": {"coordinates": [-87.034786722, 37.17199755], "type": "Point"}, "id": "8psDLKz9JiMSAx-8OJbTUogy-8M=", "properties": {"@source_uri": "https://tools.usps.com/UspsToolsRestServices/rest/POLocator/findLocations", "@spider": "usps_collection_boxes", "addr:city": "BEECHMONT", "addr:country": "US", "addr:postcode": "42323", "addr:state": "KY", "addr:street_address": "3736 MERLE TRAVIS HWY", "amenity": "post_box", "collection_times": "Mo-Fr 15:15; Sa 12:00", "note": "ON 12/24 AND 12/31, THIS BOX MAY BE COLLECTED AS EARLY AS 12 NOON.", "nsi_id": "unitedstatespostalservice-a77078", "operator": "United States Postal Service", "operator:short": "USPS", "operator:type": "public", "operator:wikidata": "Q668687", "ref": "4232300001"}, "type": "Feature"}
{"geometry": {"coordinates": [-87.034786722, 37.17199755], "type": "Point"}, "id": "Gm0Z3vJliSmYco-6AeWUU8IwpNE=", "properties": {"@source_uri": "https://tools.usps.com/UspsToolsRestServices/rest/POLocator/findLocations", "@spider": "usps_collection_boxes", "addr:city": "BEECHMONT", "addr:country": "US", "addr:postcode": "42323", "addr:state": "KY", "addr:street_address": "3736 MERLE TRAVIS HWY", "amenity": "post_box", "collection_times": "Mo-Fr 15:15; Sa 12:00", "indoor": "yes", "note": "ON 12/24 AND 12/31, THIS BOX MAY BE COLLECTED AS EARLY AS 12 NOON.", "nsi_id": "unitedstatespostalservice-a77078", "operator": "United States Postal Service", "operator:short": "USPS", "operator:type": "public", "operator:wikidata": "Q668687", "ref": "4232300003"}, "type": "Feature"}
{"geometry": {"coordinates": [-87.034786722, 37.17199755], "type": "Point"}, "id": "XbE7uCWOjHkcb68cwgCZizhS_SI=", "properties": {"@source_uri": "https://tools.usps.com/UspsToolsRestServices/rest/POLocator/findLocations", "@spider": "usps_collection_boxes", "addr:city": "BEECHMONT", "addr:country": "US", "addr:postcode": "42323", "addr:state": "KY", "addr:street_address": "3736 MERLE TRAVIS HWY", "amenity": "post_box", "collection_times": "Mo-Fr 15:15; Sa 12:00", "indoor": "yes", "note": "ON 12/24 AND 12/31, THIS BOX MAY BE COLLECTED AS EARLY AS 12 NOON.", "nsi_id": "unitedstatespostalservice-a77078", "operator": "United States Postal Service", "operator:short": "USPS", "operator:type": "public", "operator:wikidata": "Q668687", "ref": "4232300005"}, "type": "Feature"}
{"geometry": {"coordinates": [-87.217457327, 37.361195908], "type": "Point"}, "id": "YuMblnkb-h1IbOqPHmXGQOEVnh0=", "properties": {"@source_uri": "https://tools.usps.com/UspsToolsRestServices/rest/POLocator/findLocations", "@spider": "usps_collection_boxes", "addr:city": "BREMEN", "addr:country": "US", "addr:postcode": "42325", "addr:state": "KY", "addr:street_address": "4710 MAIN ST", "amenity": "post_box", "collection_times": "Mo-Fr 14:45; Sa 10:45", "note": "ON 12/24 AND 12/31, THIS BOX MAY BE COLLECTED AS EARLY AS 12 NOON.", "nsi_id": "unitedstatespostalservice-a77078", "operator": "United States Postal Service", "operator:short": "USPS", "operator:type": "public", "operator:wikidata": "Q668687", "ref": "4232500000"}, "type": "Feature"}
{"geometry": {"coordinates": [-87.217457327, 37.361195908], "type": "Point"}, "id": "VZ2ftwtMiSlJQLi5R7UDD06LP88=", "properties": {"@source_uri": "https://tools.usps.com/UspsToolsRestServices/rest/POLocator/findLocations", "@spider": "usps_collection_boxes", "addr:city": "BREMEN", "addr:country": "US", "addr:postcode": "42325", "addr:state": "KY", "addr:street_address": "4710 MAIN ST", "amenity": "post_box", "collection_times": "Mo-Fr 14:45; Sa 10:45", "indoor": "yes", "note": "ON 12/24 AND 12/31, THIS BOX MAY BE COLLECTED AS EARLY AS 12 NOON.", "nsi_id": "unitedstatespostalservice-a77078", "operator": "United States Postal Service", "operator:short": "USPS", "operator:type": "public", "operator:wikidata": "Q668687", "ref": "4232500001"}, "type": "Feature"}
{"geometry": {"coordinates": [-87.217457327, 37.361195908], "type": "Point"}, "id": "xKbFjTbTDgtbPIDrzXB482moHC0=", "properties": {"@source_uri": "https://tools.usps.com/UspsToolsRestServices/rest/POLocator/findLocations", "@spider": "usps_collection_boxes", "addr:city": "BREMEN", "addr:country": "US", "addr:postcode": "42325", "addr:state": "KY", "addr:street_address": "4710 MAIN ST", "amenity": "post_box", "collection_times": "Mo-Fr 15:30; Sa 11:30", "indoor": "yes", "note": "ON 12/24 AND 12/31, THIS BOX MAY BE COLLECTED AS EARLY AS 12 NOON.", "nsi_id": "unitedstatespostalservice-a77078", "operator": "United States Postal Service", "operator:short": "USPS", "operator:type": "public", "operator:wikidata": "Q668687", "ref": "4232500003"}, "type": "Feature"}
{"geometry": {"coordinates": [-87.260050229, 37.536957566], "type": "Point"}, "id": "mSYqUHV4IZL2XFfovoNsONfBeaQ=", "properties": {"@source_uri": "https://tools.usps.com/UspsToolsRestServices/rest/POLocator/findLocations", "@spider": "usps_collection_boxes", "addr:city": "CALHOUN", "addr:country": "US", "addr:postcode": "42327", "addr:state": "KY", "addr:street_address": "310 W 2ND ST", "amenity": "post_box", "collection_times": "Mo-Fr 15:15; Sa 11:15", "note": "ON 12/24 AND 12/31, THIS BOX MAY BE COLLECTED AS EARLY AS 12 NOON.", "nsi_id": "unitedstatespostalservice-a77078", "operator": "United States Postal Service", "operator:short": "USPS", "operator:type": "public", "operator:wikidata": "Q668687", "ref": "4232700000"}, "type": "Feature"}
{"geometry": {"coordinates": [-87.260050229, 37.536957566], "type": "Point"}, "id": "iqW6sXQ22xmWhy1XjBn3y6JAxI4=", "properties": {"@source_uri": "https://tools.usps.com/UspsToolsRestServices/rest/POLocator/findLocations", "@spider": "usps_collection_boxes", "addr:city": "CALHOUN", "addr:country": "US", "addr:postcode": "42327", "addr:state": "KY", "addr:street_address": "310 W 2ND ST", "amenity": "post_box", "collection_times": "Mo-Fr 15:15; Sa 11:15", "indoor": "yes", "note": "ON 12/24 AND 12/31, THIS BOX MAY BE COLLECTED AS EARLY AS 12 NOON.", "nsi_id": "unitedstatespostalservice-a77078", "operator": "United States Postal Service", "operator:short": "USPS", "operator:type": "public", "operator:wikidata": "Q668687", "ref": "4232700001"}, "type": "Feature"}
{"geometry": {"coordinates": [-87.260050229, 37.536957566], "type": "Point"}, "id": "9yv7Wsjb9gwyzoeE33ZZ3AQacYU=", "properties": {"@source_uri": "https://tools.usps.com/UspsToolsRestServices/rest/POLocator/findLocations", "@spider": "usps_collection_boxes", "addr:city": "CALHOUN", "addr:country": "US", "addr:postcode": "42327", "addr:state": "KY", "addr:street_address": "310 W 2ND ST", "amenity": "post_box", "collection_times": "Mo-Fr 15:15; Sa 11:15", "indoor": "yes", "note": "ON 12/24 AND 12/31, THIS BOX MAY BE COLLECTED AS EARLY AS 12 NOON.", "nsi_id": "unitedstatespostalservice-a77078", "operator": "United States Postal Service", "operator:short": "USPS", "operator:type": "public", "operator:wikidata": "Q668687", "ref": "4232700003"}, "type": "Feature"}
{"geometry": {"coordinates": [-86.999811127, 37.417731642], "type": "Point"}, "id": "lUgnbqK5t1FG0SfOQh9Mteh4bBQ=", "properties": {"@source_uri": "https://tools.usps.com/UspsToolsRestServices/rest/POLocator/findLocations", "@spider": "usps_collection_boxes", "addr:city": "CENTERTOWN", "addr:country": "US", "addr:postcode": "42328", "addr:state": "KY", "addr:street_address": "805 MAIN ST", "amenity": "post_box", "collection_times": "Mo-Fr 15:30; Sa 09:45", "note": "ON 12/24 AND 12/31, THIS BOX MAY BE COLLECTED AS EARLY AS 12 NOON.", "nsi_id": "unitedstatespostalservice-a77078", "operator": "United States Postal Service", "operator:short": "USPS", "operator:type": "public", "operator:wikidata": "Q668687", "ref": "4232800000"}, "type": "Feature"}
{"geometry": {"coordinates": [-86.999811127, 37.417731642], "type": "Point"}, "id": "lx7ojNF0mjYFxmrYJ9hwT3kkBCE=", "properties": {"@source_uri": "https://tools.usps.com/UspsToolsRestServices/rest/POLocator/findLocations", "@spider": "usps_collection_boxes", "addr:city": "CENTERTOWN", "addr:country": "US", "addr:postcode": "42328", "addr:state": "KY", "addr:street_address": "805 MAIN ST", "amenity": "post_box", "collection_times": "Mo-Fr 15:30; Sa 09:45", "note": "ON 12/24 AND 12/31, THIS BOX MAY BE COLLECTED AS EARLY AS 12 NOON.", "nsi_id": "unitedstatespostalservice-a77078", "operator": "United States Postal Service", "operator:short": "USPS", "operator:type": "public", "operator:wikidata": "Q668687", "ref": "4232800001"}, "type": "Feature"}
{"geometry": {"coordinates": [-86.999811127, 37.417731642], "type": "Point"}, "id": "Y9dy3B6DzIurAeP7Z0_XAGv7FFM=", "properties": {"@source_uri": "https://tools.usps.com/UspsToolsRestServices/rest/POLocator/findLocations", "@spider": "usps_collection_boxes", "addr:city": "CENTERTOWN", "addr:country": "US", "addr:postcode": "42328", "addr:state": "KY", "addr:street_address": "805 MAIN ST", "amenity": "post_box", "collection_times": "Mo-Fr 15:30; Sa 09:45", "indoor": "yes", "note": "ON 12/24 AND 12/31, THIS BOX MAY BE COLLECTED AS EARLY AS 12 NOON.", "nsi_id": "unitedstatespostalservice-a77078", "operator": "United States Postal Service", "operator:short": "USPS", "operator:type": "public", "operator:wikidata": "Q668687", "ref": "4232800003"}, "type": "Feature"}
{"geometry": {"coordinates": [-87.126445031, 37.292458933], "type": "Point"}, "id": "0GH3uhzrapHqIFv6KoSXheVNhvA=", "properties": {"@source_uri": "https://tools.usps.com/UspsToolsRestServices/rest/POLocator/findLocations", "@spider": "usps_collection_boxes", "addr:city": "CENTRAL CITY", "addr:country": "US", "addr:postcode": "42330", "addr:state": "KY", "addr:street_address": "201 W BROAD ST", "amenity": "post_box", "collection_times": "Mo-Fr 16:00; Sa 15:00", "indoor": "yes", "note": "ON 12/24 AND 12/31, THIS BOX MAY BE COLLECTED AS EARLY AS 12 NOON.", "nsi_id": "unitedstatespostalservice-a77078", "operator": "United States Postal Service", "operator:short": "USPS", "operator:type": "public", "operator:wikidata": "Q668687", "ref": "4233000010"}, "type": "Feature"}
{"geometry": {"coordinates": [-87.126445031, 37.292458933], "type": "Point"}, "id": "zQwuSpeOLZtmizT4LtnfMjkEfqE=", "properties": {"@source_uri": "https://tools.usps.com/UspsToolsRestServices/rest/POLocator/findLocations", "@spider": "usps_collection_boxes", "addr:city": "CENTRAL CITY", "addr:country": "US", "addr:postcode": "42330", "addr:state": "KY", "addr:street_address": "201 W BROAD ST", "amenity": "post_box", "collection_times": "Mo-Fr 16:00; Sa 15:00", "note": "ON 12/24 AND 12/31, THIS BOX MAY BE COLLECTED AS EARLY AS 12 NOON.", "nsi_id": "unitedstatespostalservice-a77078", "operator": "United States Postal Service", "operator:short": "USPS", "operator:type": "public", "operator:wikidata": "Q668687", "ref": "4233000011"}, "type": "Feature"}
{"geometry": {"coordinates": [-87.126445031, 37.292458933], "type": "Point"}, "id": "TPIt_MbFGyCIphyhuAfR4vJn44k=", "properties": {"@source_uri": "https://tools.usps.com/UspsToolsRestServices/rest/POLocator/findLocations", "@spider": "usps_collection_boxes", "addr:city": "CENTRAL CITY", "addr:country": "US", "addr:postcode": "42330", "addr:state": "KY", "addr:street_address": "201 W BROAD ST", "amenity": "post_box", "collection_times": "Mo-Fr 16:00; Sa 15:00", "indoor": "yes", "note": "ON 12/24 AND 12/31, THIS BOX MAY BE COLLECTED AS EARLY AS 12 NOON.", "nsi_id": "unitedstatespostalservice-a77078", "operator": "United States Postal Service", "operator:short": "USPS", "operator:type": "public", "operator:wikidata": "Q668687", "ref": "4233000013"}, "type": "Feature"}
{"geometry": {"coordinates": [-87.093005, 37.252705], "type": "Point"}, "id": "52jtm_AtWhYKxqaGVf-ZeKT3a4U=", "properties": {"@source_uri": "https://tools.usps.com/UspsToolsRestServices/rest/POLocator/findLocations", "@spider": "usps_collection_boxes", "addr:city": "CLEATON", "addr:country": "US", "addr:postcode": "42332", "addr:state": "KY", "addr:street_address": "36 MAIN ST", "amenity": "post_box", "collection_times": "Mo-Fr 15:00; Sa 10:00", "indoor": "yes", "note": "ON 12/24 AND 12/31, THIS BOX MAY BE COLLECTED AS EARLY AS 12 NOON.", "nsi_id": "unitedstatespostalservice-a77078", "operator": "United States Postal Service", "operator:short": "USPS", "operator:type": "public", "operator:wikidata": "Q668687", "ref": "4233200001"}, "type": "Feature"}
{"geometry": {"coordinates": [-87.0930200765, 37.2527329894], "type": "Point"}, "id": "oXRq24ZLrFLOVYISUPP0EuckSpM=", "properties": {"@source_uri": "https://tools.usps.com/UspsToolsRestServices/rest/POLocator/findLocations", "@spider": "usps_collection_boxes", "addr:city": "CLEATON", "addr:country": "US", "addr:postcode": "42332", "addr:state": "KY", "addr:street_address": "36 MAIN ST", "amenity": "post_box", "collection_times": "Mo-Fr 11:00; Sa 10:00", "nsi_id": "unitedstatespostalservice-a77078", "operator": "United States Postal Service", "operator:short": "USPS", "operator:type": "public", "operator:wikidata": "Q668687", "ref": "4233200002"}, "type": "Feature"}
{"geometry": {"coordinates": [-87.0930481525, 37.2527211263], "type": "Point"}, "id": "MPkJGMz1oABhL7cbxXo0zsMPQUc=", "properties": {"@source_uri": "https://tools.usps.com/UspsToolsRestServices/rest/POLocator/findLocations", "@spider": "usps_collection_boxes", "addr:city": "CLEATON", "addr:country": "US", "addr:postcode": "42332", "addr:state": "KY", "addr:street_address": "36 MAIN ST", "amenity": "post_box", "collection_times": "Mo-Fr 15:00; Sa 10:00", "indoor": "yes", "note": "ON 12/24 AND 12/31, THIS BOX MAY BE COLLECTED AS EARLY AS 12 NOON.", "nsi_id": "unitedstatespostalservice-a77078", "operator": "United States Postal Service", "operator:short": "USPS", "operator:type": "public", "operator:wikidata": "Q668687", "ref": "4233200003"}, "type": "Feature"}
{"geometry": {"coordinates": [-87.047061343, 37.218429815], "type": "Point"}, "id": "Yv8so-q3VHFHhqzvRi3kAXH4aug=", "properties": {"@source_uri": "https://tools.usps.com/UspsToolsRestServices/rest/POLocator/findLocations", "@spider": "usps_collection_boxes", "addr:city": "DRAKESBORO", "addr:country": "US", "addr:postcode": "42337", "addr:state": "KY", "addr:street_address": "111 W MOSE RAGER BLVD", "amenity": "post_box", "collection_times": "Mo-Fr 15:30; Sa 10:30", "note": "ON 12/24 AND 12/31, THIS BOX MAY BE COLLECTED AS EARLY AS 12 NOON.", "nsi_id": "unitedstatespostalservice-a77078", "operator": "United States Postal Service", "operator:short": "USPS", "operator:type": "public", "operator:wikidata": "Q668687", "ref": "4233700000"}, "type": "Feature"}
{"geometry": {"coordinates": [-87.047061343, 37.218429815], "type": "Point"}, "id": "C1rUcZteDht4o-0xttJIuKUVPFA=", "properties": {"@source_uri": "https://tools.usps.com/UspsToolsRestServices/rest/POLocator/findLocations", "@spider": "usps_collection_boxes", "addr:city": "DRAKESBORO", "addr:country": "US", "addr:postcode": "42337", "addr:state": "KY", "addr:street_address": "111 W MOSE RAGER BLVD", "amenity": "post_box", "collection_times": "Mo-Fr 15:30; Sa 10:30", "indoor": "yes", "note": "ON 12/24 AND 12/31, THIS BOX MAY BE COLLECTED AS EARLY AS 12 NOON.", "nsi_id": "unitedstatespostalservice-a77078", "operator": "United States Postal Service", "operator:short": "USPS", "operator:type": "public", "operator:wikidata": "Q668687", "ref": "4233700001"}, "type": "Feature"}
{"geometry": {"coordinates": [-87.047061343, 37.218429815], "type": "Point"}, "id": "NVao7rxZtgnr0SD8KthO3JGcMB4=", "properties": {"@source_uri": "https://tools.usps.com/UspsToolsRestServices/rest/POLocator/findLocations", "@spider": "usps_collection_boxes", "addr:city": "DRAKESBORO", "addr:country": "US", "addr:postcode": "42337", "addr:state": "KY", "addr:street_address": "111 W MOSE RAGER BLVD", "amenity": "post_box", "collection_times": "Mo-Fr 15:30; Sa 10:30", "indoor": "yes", "note": "ON 12/24 AND 12/31, THIS BOX MAY BE COLLECTED AS EARLY AS 12 NOON.", "nsi_id": "unitedstatespostalservice-a77078", "operator": "United States Postal Service", "operator:short": "USPS", "operator:type": "public", "operator:wikidata": "Q668687", "ref": "4233700003"}, "type": "Feature"}
{"geometry": {"coordinates": [-86.996334359, 37.073783128], "type": "Point"}, "id": "L6Uj2HoH5FKb2xopkpqEZkWO7Uo=", "properties": {"@source_uri": "https://tools.usps.com/UspsToolsRestServices/rest/POLocator/findLocations", "@spider": "usps_collection_boxes", "addr:city": "DUNMOR", "addr:country": "US", "addr:postcode": "42339", "addr:state": "KY", "addr:street_address": "11230 US HIGHWAY 431 S", "amenity": "post_box", "collection_times": "Mo-Fr 15:00; Sa 12:00", "note": "ON 12/24 AND 12/31, THIS BOX MAY BE COLLECTED AS EARLY AS 12 NOON.", "nsi_id": "unitedstatespostalservice-a77078", "operator": "United States Postal Service", "operator:short": "USPS", "operator:type": "public", "operator:wikidata": "Q668687", "ref": "4233900000"}, "type": "Feature"}
{"geometry": {"coordinates": [-86.996334359, 37.073783128], "type": "Point"}, "id": "BpbDM5wRHE-xw9D9Xg36mb7VoAg=", "properties": {"@source_uri": "https://tools.usps.com/UspsToolsRestServices/rest/POLocator/findLocations", "@spider": "usps_collection_boxes", "addr:city": "DUNMOR", "addr:country": "US", "addr:postcode": "42339", "addr:state": "KY", "addr:street_address": "11230 US HIGHWAY 431 S", "amenity": "post_box", "collection_times": "Mo-Fr 15:00; Sa 12:00", "indoor": "yes", "note": "ON 12/24 AND 12/31, THIS BOX MAY BE COLLECTED AS EARLY AS 12 NOON.", "nsi_id": "unitedstatespostalservice-a77078", "operator": "United States Postal Service", "operator:short": "USPS", "operator:type": "public", "operator:wikidata": "Q668687", "ref": "4233900001"}, "type": "Feature"}
{"geometry": {"coordinates": [-86.996334359, 37.073783128], "type": "Point"}, "id": "wRGYajYH8c5EVnehqONrz84QHmQ=", "properties": {"@source_uri": "https://tools.usps.com/UspsToolsRestServices/rest/POLocator/findLocations", "@spider": "usps_collection_boxes", "addr:city": "DUNMOR", "addr:country": "US", "addr:postcode": "42339", "addr:state": "KY", "addr:street_address": "11230 US HIGHWAY 431 S", "amenity": "post_box", "collection_times": "Mo-Fr 15:00; Sa 11:30", "indoor": "yes", "note": "ON 12/24 AND 12/31, THIS BOX MAY BE COLLECTED AS EARLY AS 12 NOON.", "nsi_id": "unitedstatespostalservice-a77078", "operator": "United States Postal Service", "operator:short": "USPS", "operator:type": "public", "operator:wikidata": "Q668687", "ref": "4233900004"}, "type": "Feature"}
{"geometry": {"coordinates": [-86.715603152, 37.635555832], "type": "Point"}, "id": "pqXUoPDmNnqXoZSvZx7-9_Qa_Ng=", "properties": {"@source_uri": "https://tools.usps.com/UspsToolsRestServices/rest/POLocator/findLocations", "@spider": "usps_collection_boxes", "addr:city": "FORDSVILLE", "addr:country": "US", "addr:postcode": "42343", "addr:state": "KY", "addr:street_address": "25 SMITH ST", "amenity": "post_box", "collection_times": "Mo-Fr 14:30; Sa 10:45", "note": "ON 12/24 AND 12/31, THIS BOX MAY BE COLLECTED AS EARLY AS 12 NOON.", "nsi_id": "unitedstatespostalservice-a77078", "operator": "United States Postal Service", "operator:short": "USPS", "operator:type": "public", "operator:wikidata": "Q668687", "ref": "4234300000"}, "type": "Feature"}
{"geometry": {"coordinates": [-86.715603152, 37.635555832], "type": "Point"}, "id": "pjnZNXc4fV5RhQcezp4Gqveat_w=", "properties": {"@source_uri": "https://tools.usps.com/UspsToolsRestServices/rest/POLocator/findLocations", "@spider": "usps_collection_boxes", "addr:city": "FORDSVILLE", "addr:country": "US", "addr:postcode": "42343", "addr:state": "KY", "addr:street_address": "25 SMITH ST", "amenity": "post_box", "collection_times": "Mo-Fr 14:30; Sa 10:45", "indoor": "yes", "note": "ON 12/24 AND 12/31, THIS BOX MAY BE COLLECTED AS EARLY AS 12 NOON.", "nsi_id": "unitedstatespostalservice-a77078", "operator": "United States Postal Service", "operator:short": "USPS", "operator:type": "public", "operator:wikidata": "Q668687", "ref": "4234300001"}, "type": "Feature"}
{"geometry": {"coordinates": [-86.715603152, 37.635555832], "type": "Point"}, "id": "imSWRsjXMeDjeSdu5nkjRptyDxw=", "properties": {"@source_uri": "https://tools.usps.com/UspsToolsRestServices/rest/POLocator/findLocations", "@spider": "usps_collection_boxes", "addr:city": "FORDSVILLE", "addr:country": "US", "addr:postcode": "42343", "addr:state": "KY", "addr:street_address": "25 SMITH ST", "amenity": "post_box", "collection_times": "Mo-Fr 14:30; Sa 10:45", "indoor": "yes", "note": "ON 12/24 AND 12/31, THIS BOX MAY BE COLLECTED AS EARLY AS 12 NOON.", "nsi_id": "unitedstatespostalservice-a77078", "operator": "United States Postal Service", "operator:short": "USPS", "operator:type": "public", "operator:wikidata": "Q668687", "ref": "4234300003"}, "type": "Feature"}
{"geometry": {"coordinates": [-87.278353526, 37.245602594], "type": "Point"}, "id": "gIStNaJsYEtoiysZAraHU6sItx0=", "properties": {"@source_uri": "https://tools.usps.com/UspsToolsRestServices/rest/POLocator/findLocations", "@spider": "usps_collection_boxes", "addr:city": "GRAHAM", "addr:country": "US", "addr:postcode": "42344", "addr:state": "KY", "addr:street_address": "4909 STATE ROUTE 175 S", "amenity": "post_box", "collection_times": "Mo-Fr 15:30; Sa 11:00", "note": "ON 12/24 AND 12/31, THIS BOX MAY BE COLLECTED AS EARLY AS 12 NOON.", "nsi_id": "unitedstatespostalservice-a77078", "operator": "United States Postal Service", "operator:short": "USPS", "operator:type": "public", "operator:wikidata": "Q668687", "ref": "4234400000"}, "type": "Feature"}
{"geometry": {"coordinates": [-87.278353526, 37.245602594], "type": "Point"}, "id": "fIywjlrQ3K9Hc4xqYYs9CSAlB1Q=", "properties": {"@source_uri": "https://tools.usps.com/UspsToolsRestServices/rest/POLocator/findLocations", "@spider": "usps_collection_boxes", "addr:city": "GRAHAM", "addr:country": "US", "addr:postcode": "42344", "addr:state": "KY", "addr:street_address": "4909 STATE ROUTE 175 S", "amenity": "post_box", "collection_times": "Mo-Fr 15:30; Sa 11:00", "indoor": "yes", "note": "ON 12/24 AND 12/31, THIS BOX MAY BE COLLECTED AS EARLY AS 12 NOON.", "nsi_id": "unitedstatespostalservice-a77078", "operator": "United States Postal Service", "operator:short": "USPS", "operator:type": "public", "operator:wikidata": "Q668687", "ref": "4234400001"}, "type": "Feature"}
{"geometry": {"coordinates": [-87.278353526, 37.245602594], "type": "Point"}, "id": "vQZnQR4AGm-dTORPnvlLsaimht8=", "properties": {"@source_uri": "https://tools.usps.com/UspsToolsRestServices/rest/POLocator/findLocations", "@spider": "usps_collection_boxes", "addr:city": "GRAHAM", "addr:country": "US", "addr:postcode": "42344", "addr:state": "KY", "addr:street_address": "4909 STATE ROUTE 175 S", "amenity": "post_box", "collection_times": "Mo-Fr 15:30; Sa 11:00", "indoor": "yes", "note": "ON 12/24 AND 12/31, THIS BOX MAY BE COLLECTED AS EARLY AS 12 NOON.", "nsi_id": "unitedstatespostalservice-a77078", "operator": "United States Postal Service", "operator:short": "USPS", "operator:type": "public", "operator:wikidata": "Q668687", "ref": "4234400003"}, "type": "Feature"}
{"geometry": {"coordinates": [-87.177515827, 37.200898823], "type": "Point"}, "id": "GQNQFg0YSfd-RP44N8jngESSZUA=", "properties": {"@source_uri": "https://tools.usps.com/UspsToolsRestServices/rest/POLocator/findLocations", "@spider": "usps_collection_boxes", "addr:city": "GREENVILLE", "addr:country": "US", "addr:postcode": "42345", "addr:state": "KY", "addr:street_address": "102 COURT ST", "amenity": "post_box", "collection_times": "Mo-Sa 16:00", "indoor": "yes", "note": "ON 12/24 AND 12/31, THIS BOX MAY BE COLLECTED AS EARLY AS 12 NOON.", "nsi_id": "unitedstatespostalservice-a77078", "operator": "United States Postal Service", "operator:short": "USPS", "operator:type": "public", "operator:wikidata": "Q668687", "ref": "4234500024"}, "type": "Feature"}
{"geometry": {"coordinates": [-87.1782365993, 37.1992499892], "type": "Point"}, "id": "BMlN_k8sKMzHcOmqpvOa9rVPmnU=", "properties": {"@source_uri": "https://tools.usps.com/UspsToolsRestServices/rest/POLocator/findLocations", "@spider": "usps_collection_boxes", "addr:city": "GREENVILLE", "addr:country": "US", "addr:postcode": "42345", "addr:state": "KY", "addr:street_address": "158 S MAIN ST", "amenity": "post_box", "collection_times": "Mo-Sa 15:00", "note": "ON 12/24 AND 12/31, THIS BOX MAY BE COLLECTED AS EARLY AS 12 NOON.", "nsi_id": "unitedstatespostalservice-a77078", "operator": "United States Postal Service", "operator:short": "USPS", "operator:type": "public", "operator:wikidata": "Q668687", "ref": "4234500028"}, "type": "Feature"}
{"geometry": {"coordinates": [-87.177515827, 37.200898823], "type": "Point"}, "id": "CsLbRRqH_nTU0A-VN-EFqAj3rU4=", "properties": {"@source_uri": "https://tools.usps.com/UspsToolsRestServices/rest/POLocator/findLocations", "@spider": "usps_collection_boxes", "addr:city": "GREENVILLE", "addr:country": "US", "addr:postcode": "42345", "addr:state": "KY", "addr:street_address": "102 COURT ST", "amenity": "post_box", "collection_times": "Mo-Fr 16:00; Sa 11:00", "indoor": "yes", "note": "ON 12/24 AND 12/31, THIS BOX MAY BE COLLECTED AS EARLY AS 12 NOON.", "nsi_id": "unitedstatespostalservice-a77078", "operator": "United States Postal Service", "operator:short": "USPS", "operator:type": "public", "operator:wikidata": "Q668687", "ref": "4234500030"}, "type": "Feature"}
{"geometry": {"coordinates": [-86.899408202, 37.444473456], "type": "Point"}, "id": "jtkyCQNqvmMo5xiT-q8GiYw-oMg=", "properties": {"@source_uri": "https://tools.usps.com/UspsToolsRestServices/rest/POLocator/findLocations", "@spider": "usps_collection_boxes", "addr:city": "HARTFORD", "addr:country": "US", "addr:postcode": "42347", "addr:state": "KY", "addr:street_address": "1101 S MAIN ST", "amenity": "post_box", "collection_times": "Mo-Fr 16:00; Sa 15:30", "note": "ON 12/24 AND 12/31, THIS BOX MAY BE COLLECTED AS EARLY AS 12 NOON.", "nsi_id": "unitedstatespostalservice-a77078", "operator": "United States Postal Service", "operator:short": "USPS", "operator:type": "public", "operator:wikidata": "Q668687", "ref": "4234700000"}, "type": "Feature"}
{"geometry": {"coordinates": [-86.9065304, 37.450344], "type": "Point"}, "id": "poazVHe8YQQxJULY5VmoVuRiFhU=", "properties": {"@source_uri": "https://tools.usps.com/UspsToolsRestServices/rest/POLocator/findLocations", "@spider": "usps_collection_boxes", "addr:city": "HARTFORD", "addr:country": "US", "addr:postcode": "42347", "addr:state": "KY", "addr:street_address": "130 E WASHINGTON ST", "amenity": "post_box", "collection_times": "Mo-Fr 09:00", "nsi_id": "unitedstatespostalservice-a77078", "operator": "United States Postal Service", "operator:short": "USPS", "operator:type": "public", "operator:wikidata": "Q668687", "ref": "4234700004"}, "type": "Feature"}
{"geometry": {"coordinates": [-86.9087478, 37.450732], "type": "Point"}, "id": "dTTn_3klbofhc61eE7oHpiUN0wg=", "properties": {"@source_uri": "https://tools.usps.com/UspsToolsRestServices/rest/POLocator/findLocations", "@spider": "usps_collection_boxes", "addr:city": "HARTFORD", "addr:country": "US", "addr:postcode": "42347", "addr:state": "KY", "addr:street_address": "230 S MAIN ST", "amenity": "post_box", "collection_times": "Mo-Fr 09:30; Sa 09:00", "nsi_id": "unitedstatespostalservice-a77078", "operator": "United States Postal Service", "operator:short": "USPS", "operator:type": "public", "operator:wikidata": "Q668687", "ref": "4234700005"}, "type": "Feature"}
{"geometry": {"coordinates": [-86.899408202, 37.444473456], "type": "Point"}, "id": "xDrxqFbPS0UcrVmqkVytwQgdVjg=", "properties": {"@source_uri": "https://tools.usps.com/UspsToolsRestServices/rest/POLocator/findLocations", "@spider": "usps_collection_boxes", "addr:city": "HARTFORD", "addr:country": "US", "addr:postcode": "42347", "addr:state": "KY", "addr:street_address": "1101 S MAIN ST", "amenity": "post_box", "collection_times": "Mo-Fr 16:00; Sa 15:30", "indoor": "yes", "note": "ON 12/24 AND 12/31, THIS BOX MAY BE COLLECTED AS EARLY AS 12 NOON.", "nsi_id": "unitedstatespostalservice-a77078", "operator": "United States Postal Service", "operator:short": "USPS", "operator:type": "public", "operator:wikidata": "Q668687", "ref": "4234700009"}, "type": "Feature"}
{"geometry": {"coordinates": [-86.899408202, 37.444473456], "type": "Point"}, "id": "ELmyQ_RbB0FY-z1w-hgaJX2YAOs=", "properties": {"@source_uri": "https://tools.usps.com/UspsToolsRestServices/rest/POLocator/findLocations", "@spider": "usps_collection_boxes", "addr:city": "HARTFORD", "addr:country": "US", "addr:postcode": "42347", "addr:state": "KY", "addr:street_address": "1101 S MAIN ST", "amenity": "post_box", "collection_times": "Mo-Fr 16:00; Sa 11:00", "indoor": "yes", "note": "ON 12/24 AND 12/31, THIS BOX MAY BE COLLECTED AS EARLY AS 12 NOON.", "nsi_id": "unitedstatespostalservice-a77078", "operator": "United States Postal Service", "operator:short": "USPS", "operator:type": "public", "operator:wikidata": "Q668687", "ref": "4234700013"}, "type": "Feature"}
{"geometry": {"coordinates": [-86.74852361, 37.902169497], "type": "Point"}, "id": "_tvIZao2oN_eRP4gOuPTE7d-Qkw=", "properties": {"@source_uri": "https://tools.usps.com/UspsToolsRestServices/rest/POLocator/findLocations", "@spider": "usps_collection_boxes", "addr:city": "HAWESVILLE", "addr:country": "US", "addr:postcode": "42348", "addr:state": "KY", "addr:street_address": "115 MAIN CROSS ST", "amenity": "post_box", "collection_times": "Mo-Fr 15:45; Sa 10:45", "note": "ON 12/24 AND 12/31, THIS BOX MAY BE COLLECTED AS EARLY AS 12 NOON.", "nsi_id": "unitedstatespostalservice-a77078", "operator": "United States Postal Service", "operator:short": "USPS", "operator:type": "public", "operator:wikidata": "Q668687", "ref": "4234800000"}, "type": "Feature"}
{"geometry": {"coordinates": [-86.74852361, 37.902169497], "type": "Point"}, "id": "loQih9JK8eM2sSFEpqmXloaM4j4=", "properties": {"@source_uri": "https://tools.usps.com/UspsToolsRestServices/rest/POLocator/findLocations", "@spider": "usps_collection_boxes", "addr:city": "HAWESVILLE", "addr:country": "US", "addr:postcode": "42348", "addr:state": "KY", "addr:street_address": "115 MAIN CROSS ST", "amenity": "post_box", "collection_times": "Mo-Fr 15:45; Sa 10:45", "indoor": "yes", "note": "ON 12/24 AND 12/31, THIS BOX MAY BE COLLECTED AS EARLY AS 12 NOON.", "nsi_id": "unitedstatespostalservice-a77078", "operator": "United States Postal Service", "operator:short": "USPS", "operator:type": "public", "operator:wikidata": "Q668687", "ref": "4234800001"}, "type": "Feature"}
{"geometry": {"coordinates": [-86.74852361, 37.902169497], "type": "Point"}, "id": "keqYXr2EwxtGeb_cP7qJxoJs7W0=", "properties": {"@source_uri": "https://tools.usps.com/UspsToolsRestServices/rest/POLocator/findLocations", "@spider": "usps_collection_boxes", "addr:city": "HAWESVILLE", "addr:country": "US", "addr:postcode": "42348", "addr:state": "KY", "addr:street_address": "115 MAIN CROSS ST", "amenity": "post_box", "collection_times": "Mo-Fr 15:45; Sa 10:45", "indoor": "yes", "note": "ON 12/24 AND 12/31, THIS BOX MAY BE COLLECTED AS EARLY AS 12 NOON.", "nsi_id": "unitedstatespostalservice-a77078", "operator": "United States Postal Service", "operator:short": "USPS", "operator:type": "public", "operator:wikidata": "Q668687", "ref": "4234800004"}, "type": "Feature"}
{"geometry": {"coordinates": [-87.145315204, 37.445650188], "type": "Point"}, "id": "tEiIXZ4-Kene3c64-HsmUhr7T1E=", "properties": {"@source_uri": "https://tools.usps.com/UspsToolsRestServices/rest/POLocator/findLocations", "@spider": "usps_collection_boxes", "addr:city": "ISLAND", "addr:country": "US", "addr:postcode": "42350", "addr:state": "KY", "addr:street_address": "120 S 1ST ST", "amenity": "post_box", "collection_times": "Mo-Fr 13:45; Sa 09:45", "note": "ON 12/24 AND 12/31, THIS BOX MAY BE COLLECTED AS EARLY AS 12 NOON.", "nsi_id": "unitedstatespostalservice-a77078", "operator": "United States Postal Service", "operator:short": "USPS", "operator:type": "public", "operator:wikidata": "Q668687", "ref": "4235000000"}, "type": "Feature"}
{"geometry": {"coordinates": [-87.145315204, 37.445650188], "type": "Point"}, "id": "LK_i-Iu6IEC3Q8oLF35u0BN7gos=", "properties": {"@source_uri": "https://tools.usps.com/UspsToolsRestServices/rest/POLocator/findLocations", "@spider": "usps_collection_boxes", "addr:city": "ISLAND", "addr:country": "US", "addr:postcode": "42350", "addr:state": "KY", "addr:street_address": "120 S 1ST ST", "amenity": "post_box", "collection_times": "Mo-Fr 13:45; Sa 09:45", "indoor": "yes", "note": "ON 12/24 AND 12/31, THIS BOX MAY BE COLLECTED AS EARLY AS 12 NOON.", "nsi_id": "unitedstatespostalservice-a77078", "operator": "United States Postal Service", "operator:short": "USPS", "operator:type": "public", "operator:wikidata": "Q668687", "ref": "4235000001"}, "type": "Feature"}
{"geometry": {"coordinates": [-87.145315204, 37.445650188], "type": "Point"}, "id": "oPWIHeujggLdmD-Mwg1UAo1JQE8=", "properties": {"@source_uri": "https://tools.usps.com/UspsToolsRestServices/rest/POLocator/findLocations", "@spider": "usps_collection_boxes", "addr:city": "ISLAND", "addr:country": "US", "addr:postcode": "42350", "addr:state": "KY", "addr:street_address": "120 S 1ST ST", "amenity": "post_box", "collection_times": "Mo-Fr 13:45; Sa 09:30", "indoor": "yes", "note": "ON 12/24 AND 12/31, THIS BOX MAY BE COLLECTED AS EARLY AS 12 NOON.", "nsi_id": "unitedstatespostalservice-a77078", "operator": "United States Postal Service", "operator:short": "USPS", "operator:type": "public", "operator:wikidata": "Q668687", "ref": "4235000003"}, "type": "Feature"}
{"geometry": {"coordinates": [-86.900745837, 37.934581211], "type": "Point"}, "id": "OGV0sKtiY7veI5sd1c1HkQUoXhc=", "properties": {"@source_uri": "https://tools.usps.com/UspsToolsRestServices/rest/POLocator/findLocations", "@spider": "usps_collection_boxes", "addr:city": "LEWISPORT", "addr:country": "US", "addr:postcode": "42351", "addr:state": "KY", "addr:street_address": "550 4TH ST", "amenity": "post_box", "collection_times": "Mo-Fr 15:30; Sa 09:45", "note": "ON 12/24 AND 12/31, THIS BOX MAY BE COLLECTED AS EARLY AS 12 NOON.", "nsi_id": "unitedstatespostalservice-a77078", "operator": "United States Postal Service", "operator:short": "USPS", "operator:type": "public", "operator:wikidata": "Q668687", "ref": "4235100000"}, "type": "Feature"}
{"geometry": {"coordinates": [-86.900745837, 37.934581211], "type": "Point"}, "id": "_vyEJDaTjt6viIuLlMyyauP_FmE=", "properties": {"@source_uri": "https://tools.usps.com/UspsToolsRestServices/rest/POLocator/findLocations", "@spider": "usps_collection_boxes", "addr:city": "LEWISPORT", "addr:country": "US", "addr:postcode": "42351", "addr:state": "KY", "addr:street_address": "550 4TH ST", "amenity": "post_box", "collection_times": "Mo-Fr 15:30; Sa 09:45", "indoor": "yes", "note": "ON 12/24 AND 12/31, THIS BOX MAY BE COLLECTED AS EARLY AS 12 NOON.", "nsi_id": "unitedstatespostalservice-a77078", "operator": "United States Postal Service", "operator:short": "USPS", "operator:type": "public", "operator:wikidata": "Q668687", "ref": "4235100002"}, "type": "Feature"}
{"geometry": {"coordinates": [-86.900745837, 37.934581211], "type": "Point"}, "id": "mquvI_ItRyzECOmUJty4Yq86Ctk=", "properties": {"@source_uri": "https://tools.usps.com/UspsToolsRestServices/rest/POLocator/findLocations", "@spider": "usps_collection_boxes", "addr:city": "LEWISPORT", "addr:country": "US", "addr:postcode": "42351", "addr:state": "KY", "addr:street_address": "550 4TH ST", "amenity": "post_box", "collection_times": "Mo-Fr 15:30; Sa 09:45", "indoor": "yes", "note": "ON 12/24 AND 12/31, THIS BOX MAY BE COLLECTED AS EARLY AS 12 NOON.", "nsi_id": "unitedstatespostalservice-a77078", "operator": "United States Postal Service", "operator:short": "USPS", "operator:type": "public", "operator:wikidata": "Q668687", "ref": "4235100004"}, "type": "Feature"}
{"geometry": {"coordinates": [-87.13480673, 37.487592636], "type": "Point"}, "id": "y__tIQ6g13DUBjeJx2_TWM4h49g=", "properties": {"@source_uri": "https://tools.usps.com/UspsToolsRestServices/rest/POLocator/findLocations", "@spider": "usps_collection_boxes", "addr:city": "LIVERMORE", "addr:country": "US", "addr:postcode": "42352", "addr:state": "KY", "addr:street_address": "214 HILL ST", "amenity": "post_box", "collection_times": "Mo-Fr 15:30; Sa 10:30", "note": "ON 12/24 AND 12/31, THIS BOX MAY BE COLLECTED AS EARLY AS 12 NOON.", "nsi_id": "unitedstatespostalservice-a77078", "operator": "United States Postal Service", "operator:short": "USPS", "operator:type": "public", "operator:wikidata": "Q668687", "ref": "4235200000"}, "type": "Feature"}
{"geometry": {"coordinates": [-87.13480673, 37.487592636], "type": "Point"}, "id": "Hldpgk4FCFdIeI8dxCNCEI9uL5Q=", "properties": {"@source_uri": "https://tools.usps.com/UspsToolsRestServices/rest/POLocator/findLocations", "@spider": "usps_collection_boxes", "addr:city": "LIVERMORE", "addr:country": "US", "addr:postcode": "42352", "addr:state": "KY", "addr:street_address": "214 HILL ST", "amenity": "post_box", "collection_times": "Mo-Fr 15:30; Sa 10:30", "indoor": "yes", "note": "ON 12/24 AND 12/31, THIS BOX MAY BE COLLECTED AS EARLY AS 12 NOON.", "nsi_id": "unitedstatespostalservice-a77078", "operator": "United States Postal Service", "operator:short": "USPS", "operator:type": "public", "operator:wikidata": "Q668687", "ref": "4235200001"}, "type": "Feature"}
{"geometry": {"coordinates": [-87.13480673, 37.487592636], "type": "Point"}, "id": "gn4d_KRk7wQspoLGCctzEBgLY3E=", "properties": {"@source_uri": "https://tools.usps.com/UspsToolsRestServices/rest/POLocator/findLocations", "@spider": "usps_collection_boxes", "addr:city": "LIVERMORE", "addr:country": "US", "addr:postcode": "42352", "addr:state": "KY", "addr:street_address": "214 HILL ST", "amenity": "post_box", "collection_times": "Mo-Fr 15:30; Sa 10:30", "indoor": "yes", "note": "ON 12/24 AND 12/31, THIS BOX MAY BE COLLECTED AS EARLY AS 12 NOON.", "nsi_id": "unitedstatespostalservice-a77078", "operator": "United States Postal Service", "operator:short": "USPS", "operator:type": "public", "operator:wikidata": "Q668687", "ref": "4235200003"}, "type": "Feature"}
{"geometry": {"coordinates": [-86.92329232, 37.380231342], "type": "Point"}, "id": "2aKcNY6Dh6HKaOwtUNnGnapRlOE=", "properties": {"@source_uri": "https://tools.usps.com/UspsToolsRestServices/rest/POLocator/findLocations", "@spider": "usps_collection_boxes", "addr:city": "MCHENRY", "addr:country": "US", "addr:postcode": "42354", "addr:state": "KY", "addr:street_address": "3156 US HIGHWAY 62 W", "amenity": "post_box", "collection_times": "Mo-Fr 15:30; Sa 10:00", "note": "ON 12/24 AND 12/31, THIS BOX MAY BE COLLECTED AS EARLY AS 12 NOON.", "nsi_id": "unitedstatespostalservice-a77078", "operator": "United States Postal Service", "operator:short": "USPS", "operator:type": "public", "operator:wikidata": "Q668687", "ref": "4235400000"}, "type": "Feature"}
{"geometry": {"coordinates": [-86.92329232, 37.380231342], "type": "Point"}, "id": "kIlF6NqpVyDZrEth44nuWG6ow3o=", "properties": {"@source_uri": "https://tools.usps.com/UspsToolsRestServices/rest/POLocator/findLocations", "@spider": "usps_collection_boxes", "addr:city": "MCHENRY", "addr:country": "US", "addr:postcode": "42354", "addr:state": "KY", "addr:street_address": "3156 US HIGHWAY 62 W", "amenity": "post_box", "collection_times": "Mo-Fr 15:30; Sa 10:00", "indoor": "yes", "note": "ON 12/24 AND 12/31, THIS BOX MAY BE COLLECTED AS EARLY AS 12 NOON.", "nsi_id": "unitedstatespostalservice-a77078", "operator": "United States Postal Service", "operator:short": "USPS", "operator:type": "public", "operator:wikidata": "Q668687", "ref": "4235400001"}, "type": "Feature"}
{"geometry": {"coordinates": [-86.92329232, 37.380231342], "type": "Point"}, "id": "zGvTef6-b_aFUh7IzIm4RJbUXNY=", "properties": {"@source_uri": "https://tools.usps.com/UspsToolsRestServices/rest/POLocator/findLocations", "@spider": "usps_collection_boxes", "addr:city": "MCHENRY", "addr:country": "US", "addr:postcode": "42354", "addr:state": "KY", "addr:street_address": "3156 US HIGHWAY 62 W", "amenity": "post_box", "collection_times": "Mo-Fr 15:30; Sa 10:00", "indoor": "yes", "note": "ON 12/24 AND 12/31, THIS BOX MAY BE COLLECTED AS EARLY AS 12 NOON.", "nsi_id": "unitedstatespostalservice-a77078", "operator": "United States Postal Service", "operator:short": "USPS", "operator:type": "public", "operator:wikidata": "Q668687", "ref": "4235400003"}, "type": "Feature"}
{"geometry": {"coordinates": [-86.99491, 37.864357], "type": "Point"}, "id": "3nT6SvHCD7WNNZI_JAAu5YDEKzk=", "properties": {"@source_uri": "https://tools.usps.com/UspsToolsRestServices/rest/POLocator/findLocations", "@spider": "usps_collection_boxes", "addr:city": "MACEO", "addr:country": "US", "addr:postcode": "42355", "addr:state": "KY", "addr:street_address": "10124 HIGHWAY 405", "amenity": "post_box", "collection_times": "Mo-Fr 15:30; Sa 09:45", "indoor": "yes", "note": "ON 12/24 AND 12/31, THIS BOX MAY BE COLLECTED AS EARLY AS 12 NOON.", "nsi_id": "unitedstatespostalservice-a77078", "operator": "United States Postal Service", "operator:short": "USPS", "operator:type": "public", "operator:wikidata": "Q668687", "ref": "4235500002"}, "type": "Feature"}
{"geometry": {"coordinates": [-86.994202953, 37.864061211], "type": "Point"}, "id": "_6eeq8G2qy0brYnIvxJ_nkmbX58=", "properties": {"@source_uri": "https://tools.usps.com/UspsToolsRestServices/rest/POLocator/findLocations", "@spider": "usps_collection_boxes", "addr:city": "MACEO", "addr:country": "US", "addr:postcode": "42355", "addr:state": "KY", "addr:street_address": "10124 STATE ROUTE 405", "amenity": "post_box", "collection_times": "Mo-Fr 15:30; Sa 09:45", "indoor": "yes", "note": "ON 12/24 AND 12/31, THIS BOX MAY BE COLLECTED AS EARLY AS 12 NOON.", "nsi_id": "unitedstatespostalservice-a77078", "operator": "United States Postal Service", "operator:short": "USPS", "operator:type": "public", "operator:wikidata": "Q668687", "ref": "4235500004"}, "type": "Feature"}
{"geometry": {"coordinates": [-86.9942029527, 37.864061211], "type": "Point"}, "id": "eAog2iRX14gvtDZ9u9v50lbIGP0=", "properties": {"@source_uri": "https://tools.usps.com/UspsToolsRestServices/rest/POLocator/findLocations", "@spider": "usps_collection_boxes", "addr:city": "MACEO", "addr:country": "US", "addr:postcode": "42355", "addr:state": "KY", "addr:street_address": "10124 HIGHWAY 405", "amenity": "post_box", "collection_times": "Mo-Fr 15:30; Sa 09:30", "note": "ON 12/24 AND 12/31, THIS BOX MAY BE COLLECTED AS EARLY AS 12 NOON.", "nsi_id": "unitedstatespostalservice-a77078", "operator": "United States Postal Service", "operator:short": "USPS", "operator:type": "public", "operator:wikidata": "Q668687", "ref": "4235500005"}, "type": "Feature"}
{"geometry": {"coordinates": [-86.988787267, 37.733928288], "type": "Point"}, "id": "Hi39pywzvNEEIrxIQmi_5RJwD5A=", "properties": {"@source_uri": "https://tools.usps.com/UspsToolsRestServices/rest/POLocator/findLocations", "@spider": "usps_collection_boxes", "addr:city": "PHILPOT", "addr:country": "US", "addr:postcode": "42366", "addr:state": "KY", "addr:street_address": "6028 STATE ROUTE 54", "amenity": "post_box", "collection_times": "Mo-Fr 15:45; Sa 10:15", "note": "ON 12/24 AND 12/31, THIS BOX MAY BE COLLECTED AS EARLY AS 12 NOON.", "nsi_id": "unitedstatespostalservice-a77078", "operator": "United States Postal Service", "operator:short": "USPS", "operator:type": "public", "operator:wikidata": "Q668687", "ref": "4236600000"}, "type": "Feature"}
{"geometry": {"coordinates": [-86.988787267, 37.733928288], "type": "Point"}, "id": "eCE1Az2Zh0ETO0ggKagHCXzpWSA=", "properties": {"@source_uri": "https://tools.usps.com/UspsToolsRestServices/rest/POLocator/findLocations", "@spider": "usps_collection_boxes", "addr:city": "PHILPOT", "addr:country": "US", "addr:postcode": "42366", "addr:state": "KY", "addr:street_address": "6028 STATE ROUTE 54", "amenity": "post_box", "collection_times": "Mo-Fr 15:45; Sa 10:15", "indoor": "yes", "note": "ON 12/24 AND 12/31, THIS BOX MAY BE COLLECTED AS EARLY AS 12 NOON.", "nsi_id": "unitedstatespostalservice-a77078", "operator": "United States Postal Service", "operator:short": "USPS", "operator:type": "public", "operator:wikidata": "Q668687", "ref": "4236600001"}, "type": "Feature"}
{"geometry": {"coordinates": [-86.988787267, 37.733928288], "type": "Point"}, "id": "k3XJ1kdWcWpfa9Xe5iDa3Wljy28=", "properties": {"@source_uri": "https://tools.usps.com/UspsToolsRestServices/rest/POLocator/findLocations", "@spider": "usps_collection_boxes", "addr:city": "PHILPOT", "addr:country": "US", "addr:postcode": "42366", "addr:state": "KY", "addr:street_address": "6028 STATE ROUTE 54", "amenity": "post_box", "collection_times": "Mo-Fr 16:00; Sa 10:30", "indoor": "yes", "note": "ON 12/24 AND 12/31, THIS BOX MAY BE COLLECTED AS EARLY AS 12 NOON.", "nsi_id": "unitedstatespostalservice-a77078", "operator": "United States Postal Service", "operator:short": "USPS", "operator:type": "public", "operator:wikidata": "Q668687", "ref": "4236600003"}, "type": "Feature"}
{"geometry": {"coordinates": [-87.161918687, 37.232258545], "type": "Point"}, "id": "ZfPIJV7_N93ibAoOhmBIwJFjHTU=", "properties": {"@source_uri": "https://tools.usps.com/UspsToolsRestServices/rest/POLocator/findLocations", "@spider": "usps_collection_boxes", "addr:city": "POWDERLY", "addr:country": "US", "addr:postcode": "42367", "addr:state": "KY", "addr:street_address": "123 COPPER CREEK DR", "amenity": "post_box", "collection_times": "Mo-Fr 15:45; Sa 10:00", "note": "ON 12/24 AND 12/31, THIS BOX MAY BE COLLECTED AS EARLY AS 12 NOON.", "nsi_id": "unitedstatespostalservice-a77078", "operator": "United States Postal Service", "operator:short": "USPS", "operator:type": "public", "operator:wikidata": "Q668687", "ref": "4236700000"}, "type": "Feature"}
{"geometry": {"coordinates": [-87.161918687, 37.232258545], "type": "Point"}, "id": "AeuyPQMFkY0GaI7WoXpg2Y9tBu4=", "properties": {"@source_uri": "https://tools.usps.com/UspsToolsRestServices/rest/POLocator/findLocations", "@spider": "usps_collection_boxes", "addr:city": "POWDERLY", "addr:country": "US", "addr:postcode": "42367", "addr:state": "KY", "addr:street_address": "123 COPPER CREEK DR", "amenity": "post_box", "collection_times": "Mo-Fr 15:45; Sa 10:00", "indoor": "yes", "note": "ON 12/24 AND 12/31, THIS BOX MAY BE COLLECTED AS EARLY AS 12 NOON.", "nsi_id": "unitedstatespostalservice-a77078", "operator": "United States Postal Service", "operator:short": "USPS", "operator:type": "public", "operator:wikidata": "Q668687", "ref": "4236700001"}, "type": "Feature"}
{"geometry": {"coordinates": [-87.161918687, 37.232258545], "type": "Point"}, "id": "eDVEzpvnAf2UqgleALGy-RcW91A=", "properties": {"@source_uri": "https://tools.usps.com/UspsToolsRestServices/rest/POLocator/findLocations", "@spider": "usps_collection_boxes", "addr:city": "POWDERLY", "addr:country": "US", "addr:postcode": "42367", "addr:state": "KY", "addr:street_address": "123 COPPER CREEK DR", "amenity": "post_box", "collection_times": "Mo-Fr 15:45; Sa 10:00", "indoor": "yes", "note": "ON 12/24 AND 12/31, THIS BOX MAY BE COLLECTED AS EARLY AS 12 NOON.", "nsi_id": "unitedstatespostalservice-a77078", "operator": "United States Postal Service", "operator:short": "USPS", "operator:type": "public", "operator:wikidata": "Q668687", "ref": "4236700002"}, "type": "Feature"}
{"geometry": {"coordinates": [-87.161918687, 37.232258545], "type": "Point"}, "id": "1anT3Gpgo6P5dKgzwwr_YZnCu5k=", "properties": {"@source_uri": "https://tools.usps.com/UspsToolsRestServices/rest/POLocator/findLocations", "@spider": "usps_collection_boxes", "addr:city": "POWDERLY", "addr:country": "US", "addr:postcode": "42367", "addr:state": "KY", "addr:street_address": "123 COPPER CREEK DR", "amenity": "post_box", "collection_times": "Mo-Fr 16:00; Sa 12:45", "indoor": "yes", "note": "ON 12/24 AND 12/31, THIS BOX MAY BE COLLECTED AS EARLY AS 12 NOON.", "nsi_id": "unitedstatespostalservice-a77078", "operator": "United States Postal Service", "operator:short": "USPS", "operator:type": "public", "operator:wikidata": "Q668687", "ref": "4236700004"}, "type": "Feature"}
{"geometry": {"coordinates": [-86.995432959, 37.338333862], "type": "Point"}, "id": "-C_Tr_4p_gxh5Y8E1X4qk1nPo80=", "properties": {"@source_uri": "https://tools.usps.com/UspsToolsRestServices/rest/POLocator/findLocations", "@spider": "usps_collection_boxes", "addr:city": "ROCKPORT", "addr:country": "US", "addr:postcode": "42369", "addr:state": "KY", "addr:street_address": "12 MAIN ST", "amenity": "post_box", "collection_times": "Mo-Fr 15:15; Sa 10:30", "note": "ON 12/24 AND 12/31, THIS BOX MAY BE COLLECTED AS EARLY AS 12 NOON.", "nsi_id": "unitedstatespostalservice-a77078", "operator": "United States Postal Service", "operator:short": "USPS", "operator:type": "public", "operator:wikidata": "Q668687", "ref": "4236900000"}, "type": "Feature"}
{"geometry": {"coordinates": [-86.995432959, 37.338333862], "type": "Point"}, "id": "Nbp1VTj9L5SVPdDpqj3cCzYM5Tc=", "properties": {"@source_uri": "https://tools.usps.com/UspsToolsRestServices/rest/POLocator/findLocations", "@spider": "usps_collection_boxes", "addr:city": "ROCKPORT", "addr:country": "US", "addr:postcode": "42369", "addr:state": "KY", "addr:street_address": "12 MAIN ST", "amenity": "post_box", "collection_times": "Mo-Fr 15:15; Sa 10:30", "indoor": "yes", "note": "ON 12/24 AND 12/31, THIS BOX MAY BE COLLECTED AS EARLY AS 12 NOON.", "nsi_id": "unitedstatespostalservice-a77078", "operator": "United States Postal Service", "operator:short": "USPS", "operator:type": "public", "operator:wikidata": "Q668687", "ref": "4236900002"}, "type": "Feature"}
{"geometry": {"coordinates": [-86.995432959, 37.338333862], "type": "Point"}, "id": "iopNcw1NlzT3Vp9_I-k9JCn8Aes=", "properties": {"@source_uri": "https://tools.usps.com/UspsToolsRestServices/rest/POLocator/findLocations", "@spider": "usps_collection_boxes", "addr:city": "ROCKPORT", "addr:country": "US", "addr:postcode": "42369", "addr:state": "KY", "addr:street_address": "12 MAIN ST", "amenity": "post_box", "collection_times": "Mo-Fr 15:15; Sa 10:30", "indoor": "yes", "note": "ON 12/24 AND 12/31, THIS BOX MAY BE COLLECTED AS EARLY AS 12 NOON.", "nsi_id": "unitedstatespostalservice-a77078", "operator": "United States Postal Service", "operator:short": "USPS", "operator:type": "public", "operator:wikidata": "Q668687", "ref": "4236900004"}, "type": "Feature"}
{"geometry": {"coordinates": [-86.740381411, 37.449507589], "type": "Point"}, "id": "-cB2oY3UzX73zVvDDg3ZGcBhADw=", "properties": {"@source_uri": "https://tools.usps.com/UspsToolsRestServices/rest/POLocator/findLocations", "@spider": "usps_collection_boxes", "addr:city": "ROSINE", "addr:country": "US", "addr:postcode": "42370", "addr:state": "KY", "addr:street_address": "25 MCHENRY ST", "amenity": "post_box", "collection_times": "Mo-Fr 13:15; Sa 09:45", "note": "ON 12/24 AND 12/31, THIS BOX MAY BE COLLECTED AS EARLY AS 12 NOON.", "nsi_id": "unitedstatespostalservice-a77078", "operator": "United States Postal Service", "operator:short": "USPS", "operator:type": "public", "operator:wikidata": "Q668687", "ref": "4237000000"}, "type": "Feature"}
{"geometry": {"coordinates": [-86.740381411, 37.449507589], "type": "Point"}, "id": "m50KTIZHVUxgv3DjcMLv3KjJqGs=", "properties": {"@source_uri": "https://tools.usps.com/UspsToolsRestServices/rest/POLocator/findLocations", "@spider": "usps_collection_boxes", "addr:city": "ROSINE", "addr:country": "US", "addr:postcode": "42370", "addr:state": "KY", "addr:street_address": "25 MCHENRY ST", "amenity": "post_box", "collection_times": "Mo-Fr 13:15; Sa 09:45", "indoor": "yes", "note": "ON 12/24 AND 12/31, THIS BOX MAY BE COLLECTED AS EARLY AS 12 NOON.", "nsi_id": "unitedstatespostalservice-a77078", "operator": "United States Postal Service", "operator:short": "USPS", "operator:type": "public", "operator:wikidata": "Q668687", "ref": "4237000001"}, "type": "Feature"}
{"geometry": {"coordinates": [-86.740381411, 37.449507589], "type": "Point"}, "id": "TVuUldywgCwScExPst9LHiAkNB0=", "properties": {"@source_uri": "https://tools.usps.com/UspsToolsRestServices/rest/POLocator/findLocations", "@spider": "usps_collection_boxes", "addr:city": "ROSINE", "addr:country": "US", "addr:postcode": "42370", "addr:state": "KY", "addr:street_address": "25 MCHENRY ST", "amenity": "post_box", "collection_times": "Mo-Fr 13:30; Sa 09:45", "indoor": "yes", "note": "ON 12/24 AND 12/31, THIS BOX MAY BE COLLECTED AS EARLY AS 12 NOON.", "nsi_id": "unitedstatespostalservice-a77078", "operator": "United States Postal Service", "operator:short": "USPS", "operator:type": "public", "operator:wikidata": "Q668687", "ref": "4237000003"}, "type": "Feature"}
{"geometry": {"coordinates": [-87.26604486, 37.415833677], "type": "Point"}, "id": "DHfCSSNwPrFyH-oh5VUPAcqbjJY=", "properties": {"@source_uri": "https://tools.usps.com/UspsToolsRestServices/rest/POLocator/findLocations", "@spider": "usps_collection_boxes", "addr:city": "SACRAMENTO", "addr:country": "US", "addr:postcode": "42372", "addr:state": "KY", "addr:street_address": "315 MAIN ST", "amenity": "post_box", "collection_times": "Mo-Fr 15:00; Sa 10:00", "note": "ON 12/24 AND 12/31, THIS BOX MAY BE COLLECTED AS EARLY AS 12 NOON.", "nsi_id": "unitedstatespostalservice-a77078", "operator": "United States Postal Service", "operator:short": "USPS", "operator:type": "public", "operator:wikidata": "Q668687", "ref": "4237200000"}, "type": "Feature"}
{"geometry": {"coordinates": [-87.26604486, 37.415833677], "type": "Point"}, "id": "Hq7hUIYp7F8vwN2vFVCHBMJOS1M=", "properties": {"@source_uri": "https://tools.usps.com/UspsToolsRestServices/rest/POLocator/findLocations", "@spider": "usps_collection_boxes", "addr:city": "SACRAMENTO", "addr:country": "US", "addr:postcode": "42372", "addr:state": "KY", "addr:street_address": "315 MAIN ST", "amenity": "post_box", "collection_times": "Mo-Fr 15:00; Sa 10:00", "indoor": "yes", "note": "ON 12/24 AND 12/31, THIS BOX MAY BE COLLECTED AS EARLY AS 12 NOON.", "nsi_id": "unitedstatespostalservice-a77078", "operator": "United States Postal Service", "operator:short": "USPS", "operator:type": "public", "operator:wikidata": "Q668687", "ref": "4237200001"}, "type": "Feature"}
{"geometry": {"coordinates": [-87.26604486, 37.415833677], "type": "Point"}, "id": "l3BxmiC1NfT13fs4umLCm6AQGuc=", "properties": {"@source_uri": "https://tools.usps.com/UspsToolsRestServices/rest/POLocator/findLocations", "@spider": "usps_collection_boxes", "addr:city": "SACRAMENTO", "addr:country": "US", "addr:postcode": "42372", "addr:state": "KY", "addr:street_address": "315 MAIN ST", "amenity": "post_box", "collection_times": "Mo-Fr 15:30; Sa 10:00", "indoor": "yes", "note": "ON 12/24 AND 12/31, THIS BOX MAY BE COLLECTED AS EARLY AS 12 NOON.", "nsi_id": "unitedstatespostalservice-a77078", "operator": "United States Postal Service", "operator:short": "USPS", "operator:type": "public", "operator:wikidata": "Q668687", "ref": "4237200003"}, "type": "Feature"}
{"geometry": {"coordinates": [-87.140225177, 37.337190288], "type": "Point"}, "id": "-l04lp0uPoD0-PnihNYX4LCvzrc=", "properties": {"@source_uri": "https://tools.usps.com/UspsToolsRestServices/rest/POLocator/findLocations", "@spider": "usps_collection_boxes", "addr:city": "SOUTH CARROLLTON", "addr:country": "US", "addr:postcode": "42374", "addr:state": "KY", "addr:street_address": "10719 US HIGHWAY 431 N", "amenity": "post_box", "collection_times": "Mo-Fr 16:00; Sa 12:00", "note": "ON 12/24 AND 12/31, THIS BOX MAY BE COLLECTED AS EARLY AS 12 NOON.", "nsi_id": "unitedstatespostalservice-a77078", "operator": "United States Postal Service", "operator:short": "USPS", "operator:type": "public", "operator:wikidata": "Q668687", "ref": "4237400000"}, "type": "Feature"}
{"geometry": {"coordinates": [-87.140225177, 37.337190288], "type": "Point"}, "id": "FPqVqqXCpY0wpB4Lj2WW-QRZMvA=", "properties": {"@source_uri": "https://tools.usps.com/UspsToolsRestServices/rest/POLocator/findLocations", "@spider": "usps_collection_boxes", "addr:city": "SOUTH CARROLLTON", "addr:country": "US", "addr:postcode": "42374", "addr:state": "KY", "addr:street_address": "10719 US HIGHWAY 431 N", "amenity": "post_box", "collection_times": "Mo-Fr 16:00; Sa 12:00", "indoor": "yes", "note": "ON 12/24 AND 12/31, THIS BOX MAY BE COLLECTED AS EARLY AS 12 NOON.", "nsi_id": "unitedstatespostalservice-a77078", "operator": "United States Postal Service", "operator:short": "USPS", "operator:type": "public", "operator:wikidata": "Q668687", "ref": "4237400001"}, "type": "Feature"}
{"geometry": {"coordinates": [-87.140225177, 37.337190288], "type": "Point"}, "id": "IGGR4wFlo06qMdrrndimEoR08B8=", "properties": {"@source_uri": "https://tools.usps.com/UspsToolsRestServices/rest/POLocator/findLocations", "@spider": "usps_collection_boxes", "addr:city": "SOUTH CARROLLTON", "addr:country": "US", "addr:postcode": "42374", "addr:state": "KY", "addr:street_address": "10719 US HIGHWAY 431 N", "amenity": "post_box", "collection_times": "Mo-Fr 16:15; Sa 12:15", "indoor": "yes", "note": "ON 12/24 AND 12/31, THIS BOX MAY BE COLLECTED AS EARLY AS 12 NOON.", "nsi_id": "unitedstatespostalservice-a77078", "operator": "United States Postal Service", "operator:short": "USPS", "operator:type": "public", "operator:wikidata": "Q668687", "ref": "4237400003"}, "type": "Feature"}
{"geometry": {"coordinates": [-87.105667437, 37.603897313], "type": "Point"}, "id": "GZE5URQAO82zNfUPhTYMKKGVNsY=", "properties": {"@source_uri": "https://tools.usps.com/UspsToolsRestServices/rest/POLocator/findLocations", "@spider": "usps_collection_boxes", "addr:city": "UTICA", "addr:country": "US", "addr:postcode": "42376", "addr:state": "KY", "addr:street_address": "10734 US HIGHWAY 431", "amenity": "post_box", "collection_times": "Mo-Fr 15:45; Sa 10:00", "indoor": "yes", "note": "ON 12/24 AND 12/31, THIS BOX MAY BE COLLECTED AS EARLY AS 12 NOON.", "nsi_id": "unitedstatespostalservice-a77078", "operator": "United States Postal Service", "operator:short": "USPS", "operator:type": "public", "operator:wikidata": "Q668687", "ref": "4237600000"}, "type": "Feature"}
{"geometry": {"coordinates": [-87.105667437, 37.603897313], "type": "Point"}, "id": "k4e24mdhJDv4IGWIIRmXkiv0ib4=", "properties": {"@source_uri": "https://tools.usps.com/UspsToolsRestServices/rest/POLocator/findLocations", "@spider": "usps_collection_boxes", "addr:city": "UTICA", "addr:country": "US", "addr:postcode": "42376", "addr:state": "KY", "addr:street_address": "10734 US HIGHWAY 431", "amenity": "post_box", "collection_times": "Mo-Fr 15:45; Sa 10:00", "note": "ON 12/24 AND 12/31, THIS BOX MAY BE COLLECTED AS EARLY AS 12 NOON.", "nsi_id": "unitedstatespostalservice-a77078", "operator": "United States Postal Service", "operator:short": "USPS", "operator:type": "public", "operator:wikidata": "Q668687", "ref": "4237600002"}, "type": "Feature"}
{"geometry": {"coordinates": [-87.105667437, 37.603897313], "type": "Point"}, "id": "oXqm3_t7VTJj3_2TRcrTS8Crjsg=", "properties": {"@source_uri": "https://tools.usps.com/UspsToolsRestServices/rest/POLocator/findLocations", "@spider": "usps_collection_boxes", "addr:city": "UTICA", "addr:country": "US", "addr:postcode": "42376", "addr:state": "KY", "addr:street_address": "10734 US HIGHWAY 431", "amenity": "post_box", "collection_times": "Mo-Fr 16:00; Sa 10:00", "indoor": "yes", "note": "ON 12/24 AND 12/31, THIS BOX MAY BE COLLECTED AS EARLY AS 12 NOON.", "nsi_id": "unitedstatespostalservice-a77078", "operator": "United States Postal Service", "operator:short": "USPS", "operator:type": "public", "operator:wikidata": "Q668687", "ref": "4237600004"}, "type": "Feature"}
{"geometry": {"coordinates": [-86.871591612, 37.682808223], "type": "Point"}, "id": "5Mg0N3lqX6zfN8kJ802q3daKJUs=", "properties": {"@source_uri": "https://tools.usps.com/UspsToolsRestServices/rest/POLocator/findLocations", "@spider": "usps_collection_boxes", "addr:city": "WHITESVILLE", "addr:country": "US", "addr:postcode": "42378", "addr:state": "KY", "addr:street_address": "10575 MAIN CROSS ST", "amenity": "post_box", "collection_times": "Mo-Fr 15:15; Sa 09:30", "note": "ON 12/24 AND 12/31, THIS BOX MAY BE COLLECTED AS EARLY AS 12 NOON.", "nsi_id": "unitedstatespostalservice-a77078", "operator": "United States Postal Service", "operator:short": "USPS", "operator:type": "public", "operator:wikidata": "Q668687", "ref": "4237800000"}, "type": "Feature"}
{"geometry": {"coordinates": [-86.871591612, 37.682808223], "type": "Point"}, "id": "Pldv8M2_9W796_eUhfFHJX5kOvE=", "properties": {"@source_uri": "https://tools.usps.com/UspsToolsRestServices/rest/POLocator/findLocations", "@spider": "usps_collection_boxes", "addr:city": "WHITESVILLE", "addr:country": "US", "addr:postcode": "42378", "addr:state": "KY", "addr:street_address": "10575 MAIN CROSS ST", "amenity": "post_box", "collection_times": "Mo-Fr 15:15; Sa 09:30", "indoor": "yes", "note": "ON 12/24 AND 12/31, THIS BOX MAY BE COLLECTED AS EARLY AS 12 NOON.", "nsi_id": "unitedstatespostalservice-a77078", "operator": "United States Postal Service", "operator:short": "USPS", "operator:type": "public", "operator:wikidata": "Q668687", "ref": "4237800001"}, "type": "Feature"}
{"geometry": {"coordinates": [-86.871591612, 37.682808223], "type": "Point"}, "id": "GExjpoiCPaxYLcvxG51yMqlepSA=", "properties": {"@source_uri": "https://tools.usps.com/UspsToolsRestServices/rest/POLocator/findLocations", "@spider": "usps_collection_boxes", "addr:city": "WHITESVILLE", "addr:country": "US", "addr:postcode": "42378", "addr:state": "KY", "addr:street_address": "10575 MAIN CROSS ST", "amenity": "post_box", "collection_times": "Mo-Fr 15:45; Sa 10:00", "indoor": "yes", "note": "ON 12/24 AND 12/31, THIS BOX MAY BE COLLECTED AS EARLY AS 12 NOON.", "nsi_id": "unitedstatespostalservice-a77078", "operator": "United States Postal Service", "operator:short": "USPS", "operator:type": "public", "operator:wikidata": "Q668687", "ref": "4237800003"}, "type": "Feature"}
