{"geometry": {"coordinates": [-87.462237968, 37.870871573], "type": "Point"}, "id": "yr4U0B_LkoWmCUGK7TVOewh-VEg=", "properties": {"@source_uri": "https://tools.usps.com/UspsToolsRestServices/rest/POLocator/findLocations", "@spider": "usps_collection_boxes", "addr:city": "BASKETT", "addr:country": "US", "addr:postcode": "42402", "addr:state": "KY", "addr:street_address": "1015 2ND AVE", "amenity": "post_box", "brand": "United States Postal Service", "brand:wikidata": "Q668687", "collection_times": "Mo-Fr 15:30; Sa 10:15", "note": "ON 12/24 AND 12/31, THIS BOX MAY BE COLLECTED AS EARLY AS 12 NOON.", "nsi_id": "unitedstatespostalservice-a77078", "operator": "United States Postal Service", "operator:short": "USPS", "operator:type": "public", "operator:wikidata": "Q668687", "ref": "4240200000"}, "type": "Feature"}
{"geometry": {"coordinates": [-87.579044507, 37.83579195], "type": "Point"}, "id": "Zz3zHNev_YLpzJNeworH_TN45X8=", "properties": {"@source_uri": "https://tools.usps.com/UspsToolsRestServices/rest/POLocator/findLocations", "@spider": "usps_collection_boxes", "addr:city": "BASKETT", "addr:country": "US", "addr:postcode": "42402", "addr:state": "KY", "addr:street_address": "1015 2ND AVE", "amenity": "post_box", "brand": "United States Postal Service", "brand:wikidata": "Q668687", "collection_times": "Mo-Fr 15:30; Sa 10:30", "indoor": "yes", "note": "ON 12/24 AND 12/31, THIS BOX MAY BE COLLECTED AS EARLY AS 12 NOON.", "nsi_id": "unitedstatespostalservice-a77078", "operator": "United States Postal Service", "operator:short": "USPS", "operator:type": "public", "operator:wikidata": "Q668687", "ref": "4240200001"}, "type": "Feature"}
{"geometry": {"coordinates": [-87.819980831, 37.475224447], "type": "Point"}, "id": "nIoFAwxAf-Ttrum_yIMZDiV_ALo=", "properties": {"@source_uri": "https://tools.usps.com/UspsToolsRestServices/rest/POLocator/findLocations", "@spider": "usps_collection_boxes", "addr:city": "CLAY", "addr:country": "US", "addr:postcode": "42404", "addr:state": "KY", "addr:street_address": "39 E ELM ST", "amenity": "post_box", "brand": "United States Postal Service", "brand:wikidata": "Q668687", "collection_times": "Mo-Fr 15:30; Sa 09:30", "indoor": "yes", "note": "ON 12/24 AND 12/31, THIS BOX MAY BE COLLECTED AS EARLY AS 12 NOON.", "nsi_id": "unitedstatespostalservice-a77078", "operator": "United States Postal Service", "operator:short": "USPS", "operator:type": "public", "operator:wikidata": "Q668687", "ref": "4240400001"}, "type": "Feature"}
{"geometry": {"coordinates": [-87.819980831, 37.475224447], "type": "Point"}, "id": "SVdiMhY-GfhR7AAeYrZKG6nqZVI=", "properties": {"@source_uri": "https://tools.usps.com/UspsToolsRestServices/rest/POLocator/findLocations", "@spider": "usps_collection_boxes", "addr:city": "CLAY", "addr:country": "US", "addr:postcode": "42404", "addr:state": "KY", "addr:street_address": "39 E ELM ST", "amenity": "post_box", "brand": "United States Postal Service", "brand:wikidata": "Q668687", "collection_times": "Mo-Fr 15:45; Sa 09:30", "note": "ON 12/24 AND 12/31, THIS BOX MAY BE COLLECTED AS EARLY AS 12 NOON.", "nsi_id": "unitedstatespostalservice-a77078", "operator": "United States Postal Service", "operator:short": "USPS", "operator:type": "public", "operator:wikidata": "Q668687", "ref": "4240400002"}, "type": "Feature"}
{"geometry": {"coordinates": [-87.819980831, 37.475224447], "type": "Point"}, "id": "spUnwPJAfSM_5Lw-NAeZera_asM=", "properties": {"@source_uri": "https://tools.usps.com/UspsToolsRestServices/rest/POLocator/findLocations", "@spider": "usps_collection_boxes", "addr:city": "CLAY", "addr:country": "US", "addr:postcode": "42404", "addr:state": "KY", "addr:street_address": "39 E ELM ST", "amenity": "post_box", "brand": "United States Postal Service", "brand:wikidata": "Q668687", "collection_times": "Mo-Fr 15:45; Sa 09:30", "indoor": "yes", "note": "ON 12/24 AND 12/31, THIS BOX MAY BE COLLECTED AS EARLY AS 12 NOON.", "nsi_id": "unitedstatespostalservice-a77078", "operator": "United States Postal Service", "operator:short": "USPS", "operator:type": "public", "operator:wikidata": "Q668687", "ref": "4240400004"}, "type": "Feature"}
{"geometry": {"coordinates": [-87.7035360167, 37.7437920159], "type": "Point"}, "id": "MeMUSegLgADIkB2TN4njknuFUyg=", "properties": {"@source_uri": "https://tools.usps.com/UspsToolsRestServices/rest/POLocator/findLocations", "@spider": "usps_collection_boxes", "addr:city": "CORYDON", "addr:country": "US", "addr:postcode": "42406", "addr:state": "KY", "addr:street_address": "120 MAIN ST", "amenity": "post_box", "brand": "United States Postal Service", "brand:wikidata": "Q668687", "collection_times": "Mo-Fr 15:45; Sa 09:30", "note": "ON 12/24 AND 12/31, THIS BOX MAY BE COLLECTED AS EARLY AS 12 NOON.", "nsi_id": "unitedstatespostalservice-a77078", "operator": "United States Postal Service", "operator:short": "USPS", "operator:type": "public", "operator:wikidata": "Q668687", "ref": "4240600000"}, "type": "Feature"}
{"geometry": {"coordinates": [-87.7035360167, 37.7437920159], "type": "Point"}, "id": "Q-Js6UprBlIbPCsINCWG_fd74RU=", "properties": {"@source_uri": "https://tools.usps.com/UspsToolsRestServices/rest/POLocator/findLocations", "@spider": "usps_collection_boxes", "addr:city": "CORYDON", "addr:country": "US", "addr:postcode": "42406", "addr:state": "KY", "addr:street_address": "120 MAIN ST", "amenity": "post_box", "brand": "United States Postal Service", "brand:wikidata": "Q668687", "collection_times": "Mo-Fr 15:45; Sa 09:30", "indoor": "yes", "note": "ON 12/24 AND 12/31, THIS BOX MAY BE COLLECTED AS EARLY AS 12 NOON.", "nsi_id": "unitedstatespostalservice-a77078", "operator": "United States Postal Service", "operator:short": "USPS", "operator:type": "public", "operator:wikidata": "Q668687", "ref": "4240600001"}, "type": "Feature"}
{"geometry": {"coordinates": [-87.7035360167, 37.7437920159], "type": "Point"}, "id": "kEGFW7XlO_SV9sJUJPEdM87ZovI=", "properties": {"@source_uri": "https://tools.usps.com/UspsToolsRestServices/rest/POLocator/findLocations", "@spider": "usps_collection_boxes", "addr:city": "CORYDON", "addr:country": "US", "addr:postcode": "42406", "addr:state": "KY", "addr:street_address": "120 MAIN ST", "amenity": "post_box", "brand": "United States Postal Service", "brand:wikidata": "Q668687", "collection_times": "Mo-Fr 15:45; Sa 09:30", "indoor": "yes", "note": "ON 12/24 AND 12/31, THIS BOX MAY BE COLLECTED AS EARLY AS 12 NOON.", "nsi_id": "unitedstatespostalservice-a77078", "operator": "United States Postal Service", "operator:short": "USPS", "operator:type": "public", "operator:wikidata": "Q668687", "ref": "4240600004"}, "type": "Feature"}
{"geometry": {"coordinates": [-87.691409577, 37.166298141], "type": "Point"}, "id": "EftcGeuJhRqzoK40QpZck7GyIkk=", "properties": {"@source_uri": "https://tools.usps.com/UspsToolsRestServices/rest/POLocator/findLocations", "@spider": "usps_collection_boxes", "addr:city": "DAWSON SPRINGS", "addr:country": "US", "addr:postcode": "42408", "addr:state": "KY", "addr:street_address": "101 W RAMSEY ST", "amenity": "post_box", "brand": "United States Postal Service", "brand:wikidata": "Q668687", "collection_times": "Mo-Fr 15:45; Sa 11:30", "note": "ON 12/24 AND 12/31, THIS BOX MAY BE COLLECTED AS EARLY AS 12 NOON.", "nsi_id": "unitedstatespostalservice-a77078", "operator": "United States Postal Service", "operator:short": "USPS", "operator:type": "public", "operator:wikidata": "Q668687", "ref": "4240800000"}, "type": "Feature"}
{"geometry": {"coordinates": [-87.691409577, 37.166298141], "type": "Point"}, "id": "_C8S1MkS1e6oYKYDbXahUgQKi4Y=", "properties": {"@source_uri": "https://tools.usps.com/UspsToolsRestServices/rest/POLocator/findLocations", "@spider": "usps_collection_boxes", "addr:city": "DAWSON SPRINGS", "addr:country": "US", "addr:postcode": "42408", "addr:state": "KY", "addr:street_address": "101 W RAMSEY ST", "amenity": "post_box", "brand": "United States Postal Service", "brand:wikidata": "Q668687", "collection_times": "Mo-Fr 15:45; Sa 11:30", "indoor": "yes", "note": "ON 12/24 AND 12/31, THIS BOX MAY BE COLLECTED AS EARLY AS 12 NOON.", "nsi_id": "unitedstatespostalservice-a77078", "operator": "United States Postal Service", "operator:short": "USPS", "operator:type": "public", "operator:wikidata": "Q668687", "ref": "4240800004"}, "type": "Feature"}
{"geometry": {"coordinates": [-87.691409577, 37.166298141], "type": "Point"}, "id": "AIKeskIRKNeOSTu7HOxeudMXwgE=", "properties": {"@source_uri": "https://tools.usps.com/UspsToolsRestServices/rest/POLocator/findLocations", "@spider": "usps_collection_boxes", "addr:city": "DAWSON SPRINGS", "addr:country": "US", "addr:postcode": "42408", "addr:state": "KY", "addr:street_address": "101 W RAMSEY ST", "amenity": "post_box", "brand": "United States Postal Service", "brand:wikidata": "Q668687", "collection_times": "Mo-Fr 15:45; Sa 11:30", "indoor": "yes", "note": "ON 12/24 AND 12/31, THIS BOX MAY BE COLLECTED AS EARLY AS 12 NOON.", "nsi_id": "unitedstatespostalservice-a77078", "operator": "United States Postal Service", "operator:short": "USPS", "operator:type": "public", "operator:wikidata": "Q668687", "ref": "4240800006"}, "type": "Feature"}
{"geometry": {"coordinates": [-87.691344546, 37.516912744], "type": "Point"}, "id": "ZH-B3xJoloG-zOaNClwYdZKuPHo=", "properties": {"@source_uri": "https://tools.usps.com/UspsToolsRestServices/rest/POLocator/findLocations", "@spider": "usps_collection_boxes", "addr:city": "DIXON", "addr:country": "US", "addr:postcode": "42409", "addr:state": "KY", "addr:street_address": "73 US HIGHWAY 41A S", "amenity": "post_box", "brand": "United States Postal Service", "brand:wikidata": "Q668687", "collection_times": "Mo-Fr 15:45; Sa 11:00", "note": "ON 12/24 AND 12/31, THIS BOX MAY BE COLLECTED AS EARLY AS 12 NOON.", "nsi_id": "unitedstatespostalservice-a77078", "operator": "United States Postal Service", "operator:short": "USPS", "operator:type": "public", "operator:wikidata": "Q668687", "ref": "4240900000"}, "type": "Feature"}
{"geometry": {"coordinates": [-87.691344546, 37.516912744], "type": "Point"}, "id": "6-49J2mU8xFhFIHTrm8BhLDeieE=", "properties": {"@source_uri": "https://tools.usps.com/UspsToolsRestServices/rest/POLocator/findLocations", "@spider": "usps_collection_boxes", "addr:city": "DIXON", "addr:country": "US", "addr:postcode": "42409", "addr:state": "KY", "addr:street_address": "73 US HIGHWAY 41A S", "amenity": "post_box", "brand": "United States Postal Service", "brand:wikidata": "Q668687", "collection_times": "Mo-Fr 16:00; Sa 11:30", "indoor": "yes", "note": "ON 12/24 AND 12/31, THIS BOX MAY BE COLLECTED AS EARLY AS 12 NOON.", "nsi_id": "unitedstatespostalservice-a77078", "operator": "United States Postal Service", "operator:short": "USPS", "operator:type": "public", "operator:wikidata": "Q668687", "ref": "4240900001"}, "type": "Feature"}
{"geometry": {"coordinates": [-87.691344546, 37.516912744], "type": "Point"}, "id": "IZuspJl5n9XqEwZTr_Arg5E2m1Y=", "properties": {"@source_uri": "https://tools.usps.com/UspsToolsRestServices/rest/POLocator/findLocations", "@spider": "usps_collection_boxes", "addr:city": "DIXON", "addr:country": "US", "addr:postcode": "42409", "addr:state": "KY", "addr:street_address": "73 US HIGHWAY 41A S", "amenity": "post_box", "brand": "United States Postal Service", "brand:wikidata": "Q668687", "collection_times": "Mo-Fr 16:00; Sa 11:30", "indoor": "yes", "note": "ON 12/24 AND 12/31, THIS BOX MAY BE COLLECTED AS EARLY AS 12 NOON.", "nsi_id": "unitedstatespostalservice-a77078", "operator": "United States Postal Service", "operator:short": "USPS", "operator:type": "public", "operator:wikidata": "Q668687", "ref": "4240900003"}, "type": "Feature"}
{"geometry": {"coordinates": [-87.5119099, 37.274428], "type": "Point"}, "id": "UmGazffxftyMHqv_KMVivRm-x8w=", "properties": {"@source_uri": "https://tools.usps.com/UspsToolsRestServices/rest/POLocator/findLocations", "@spider": "usps_collection_boxes", "addr:city": "EARLINGTON", "addr:country": "US", "addr:postcode": "42410", "addr:state": "KY", "addr:street_address": "107 E MAIN ST", "amenity": "post_box", "brand": "United States Postal Service", "brand:wikidata": "Q668687", "collection_times": "Mo-Sa 12:00", "nsi_id": "unitedstatespostalservice-a77078", "operator": "United States Postal Service", "operator:short": "USPS", "operator:type": "public", "operator:wikidata": "Q668687", "ref": "4241000005"}, "type": "Feature"}
{"geometry": {"coordinates": [-87.509668142, 37.275822563], "type": "Point"}, "id": "6HbEU7p-sF8WNMl6ZUpj1wj6H4M=", "properties": {"@source_uri": "https://tools.usps.com/UspsToolsRestServices/rest/POLocator/findLocations", "@spider": "usps_collection_boxes", "addr:city": "EARLINGTON", "addr:country": "US", "addr:postcode": "42410", "addr:state": "KY", "addr:street_address": "301 E MAIN ST", "amenity": "post_box", "brand": "United States Postal Service", "brand:wikidata": "Q668687", "collection_times": "Mo-Fr 16:00; Sa 12:00", "indoor": "yes", "note": "ON 12/24 AND 12/31, THIS BOX MAY BE COLLECTED AS EARLY AS 12 NOON.", "nsi_id": "unitedstatespostalservice-a77078", "operator": "United States Postal Service", "operator:short": "USPS", "operator:type": "public", "operator:wikidata": "Q668687", "ref": "4241000007"}, "type": "Feature"}
{"geometry": {"coordinates": [-87.509668142, 37.275822563], "type": "Point"}, "id": "5DvODywhwYdTORY8ymmMS4qlCeE=", "properties": {"@source_uri": "https://tools.usps.com/UspsToolsRestServices/rest/POLocator/findLocations", "@spider": "usps_collection_boxes", "addr:city": "EARLINGTON", "addr:country": "US", "addr:postcode": "42410", "addr:state": "KY", "addr:street_address": "301 E MAIN ST", "amenity": "post_box", "brand": "United States Postal Service", "brand:wikidata": "Q668687", "collection_times": "Mo-Fr 16:00; Sa 12:00", "note": "ON 12/24 AND 12/31, THIS BOX MAY BE COLLECTED AS EARLY AS 12 NOON.", "nsi_id": "unitedstatespostalservice-a77078", "operator": "United States Postal Service", "operator:short": "USPS", "operator:type": "public", "operator:wikidata": "Q668687", "ref": "4241000008"}, "type": "Feature"}
{"geometry": {"coordinates": [-87.509668142, 37.275822563], "type": "Point"}, "id": "2HNOP9fbItP_rcWhaeWoWBhCsPM=", "properties": {"@source_uri": "https://tools.usps.com/UspsToolsRestServices/rest/POLocator/findLocations", "@spider": "usps_collection_boxes", "addr:city": "EARLINGTON", "addr:country": "US", "addr:postcode": "42410", "addr:state": "KY", "addr:street_address": "301 E MAIN ST", "amenity": "post_box", "brand": "United States Postal Service", "brand:wikidata": "Q668687", "collection_times": "Mo-Fr 16:00", "indoor": "yes", "note": "ON 12/24 AND 12/31, THIS BOX MAY BE COLLECTED AS EARLY AS 12 NOON.", "nsi_id": "unitedstatespostalservice-a77078", "operator": "United States Postal Service", "operator:short": "USPS", "operator:type": "public", "operator:wikidata": "Q668687", "ref": "4241000010"}, "type": "Feature"}
{"geometry": {"coordinates": [-88.0592594692, 37.2057353005], "type": "Point"}, "id": "OveiL08rPdnbO4mLA6Rc7Uwclk4=", "properties": {"@source_uri": "https://tools.usps.com/UspsToolsRestServices/rest/POLocator/findLocations", "@spider": "usps_collection_boxes", "addr:city": "FREDONIA", "addr:country": "US", "addr:postcode": "42411", "addr:state": "KY", "addr:street_address": "513 CASSIDY AVE", "amenity": "post_box", "brand": "United States Postal Service", "brand:wikidata": "Q668687", "collection_times": "Mo-Fr 15:30; Sa 10:30", "note": "ON 12/24 AND 12/31, THIS BOX MAY BE COLLECTED AS EARLY AS 12 NOON.", "nsi_id": "unitedstatespostalservice-a77078", "operator": "United States Postal Service", "operator:short": "USPS", "operator:type": "public", "operator:wikidata": "Q668687", "ref": "4241100000"}, "type": "Feature"}
{"geometry": {"coordinates": [-88.059255766, 37.205735246], "type": "Point"}, "id": "ahitbn4cmL2wbKnHnOSRtQpRM4Y=", "properties": {"@source_uri": "https://tools.usps.com/UspsToolsRestServices/rest/POLocator/findLocations", "@spider": "usps_collection_boxes", "addr:city": "FREDONIA", "addr:country": "US", "addr:postcode": "42411", "addr:state": "KY", "addr:street_address": "513 CASSIDY AVE", "amenity": "post_box", "brand": "United States Postal Service", "brand:wikidata": "Q668687", "collection_times": "Mo-Fr 15:30; Sa 10:30", "indoor": "yes", "note": "ON 12/24 AND 12/31, THIS BOX MAY BE COLLECTED AS EARLY AS 12 NOON.", "nsi_id": "unitedstatespostalservice-a77078", "operator": "United States Postal Service", "operator:short": "USPS", "operator:type": "public", "operator:wikidata": "Q668687", "ref": "4241100001"}, "type": "Feature"}
{"geometry": {"coordinates": [-88.059259469, 37.205735301], "type": "Point"}, "id": "zn28EzqqUSrfaAiXsxDqX4C_P8c=", "properties": {"@source_uri": "https://tools.usps.com/UspsToolsRestServices/rest/POLocator/findLocations", "@spider": "usps_collection_boxes", "addr:city": "FREDONIA", "addr:country": "US", "addr:postcode": "42411", "addr:state": "KY", "addr:street_address": "513 CASSIDY AVE", "amenity": "post_box", "brand": "United States Postal Service", "brand:wikidata": "Q668687", "collection_times": "Mo-Fr 15:30; Sa 10:30", "indoor": "yes", "note": "ON 12/24 AND 12/31, THIS BOX MAY BE COLLECTED AS EARLY AS 12 NOON.", "nsi_id": "unitedstatespostalservice-a77078", "operator": "United States Postal Service", "operator:short": "USPS", "operator:type": "public", "operator:wikidata": "Q668687", "ref": "4241100003"}, "type": "Feature"}
{"geometry": {"coordinates": [-87.482191112, 37.417291479], "type": "Point"}, "id": "5r134Ij5_Z0cwEtZgpdkcqugRa8=", "properties": {"@source_uri": "https://tools.usps.com/UspsToolsRestServices/rest/POLocator/findLocations", "@spider": "usps_collection_boxes", "addr:city": "HANSON", "addr:country": "US", "addr:postcode": "42413", "addr:state": "KY", "addr:street_address": "50 SUNSET RD", "amenity": "post_box", "brand": "United States Postal Service", "brand:wikidata": "Q668687", "collection_times": "Mo-Fr 15:45; Sa 10:45", "note": "ON 12/24 AND 12/31, THIS BOX MAY BE COLLECTED AS EARLY AS 12 NOON.", "nsi_id": "unitedstatespostalservice-a77078", "operator": "United States Postal Service", "operator:short": "USPS", "operator:type": "public", "operator:wikidata": "Q668687", "ref": "4241300000"}, "type": "Feature"}
{"geometry": {"coordinates": [-87.482191112, 37.417291479], "type": "Point"}, "id": "EH2jMSFoigCTV4JuuxqaT_aZ6ds=", "properties": {"@source_uri": "https://tools.usps.com/UspsToolsRestServices/rest/POLocator/findLocations", "@spider": "usps_collection_boxes", "addr:city": "HANSON", "addr:country": "US", "addr:postcode": "42413", "addr:state": "KY", "addr:street_address": "50 SUNSET RD", "amenity": "post_box", "brand": "United States Postal Service", "brand:wikidata": "Q668687", "collection_times": "Mo-Fr 15:45; Sa 10:45", "indoor": "yes", "note": "ON 12/24 AND 12/31, THIS BOX MAY BE COLLECTED AS EARLY AS 12 NOON.", "nsi_id": "unitedstatespostalservice-a77078", "operator": "United States Postal Service", "operator:short": "USPS", "operator:type": "public", "operator:wikidata": "Q668687", "ref": "4241300001"}, "type": "Feature"}
{"geometry": {"coordinates": [-87.482191112, 37.417291479], "type": "Point"}, "id": "CYXErkN__FQtTAIGP0SEIT4P59A=", "properties": {"@source_uri": "https://tools.usps.com/UspsToolsRestServices/rest/POLocator/findLocations", "@spider": "usps_collection_boxes", "addr:city": "HANSON", "addr:country": "US", "addr:postcode": "42413", "addr:state": "KY", "addr:street_address": "50 SUNSET RD", "amenity": "post_box", "brand": "United States Postal Service", "brand:wikidata": "Q668687", "collection_times": "Mo-Fr 15:45; Sa 10:45", "indoor": "yes", "note": "ON 12/24 AND 12/31, THIS BOX MAY BE COLLECTED AS EARLY AS 12 NOON.", "nsi_id": "unitedstatespostalservice-a77078", "operator": "United States Postal Service", "operator:short": "USPS", "operator:type": "public", "operator:wikidata": "Q668687", "ref": "4241300003"}, "type": "Feature"}
{"geometry": {"coordinates": [-87.593763026, 37.839955665], "type": "Point"}, "id": "QdJVIKeo9imAIVZY6hTfs1X74Ys=", "properties": {"@source_uri": "https://tools.usps.com/UspsToolsRestServices/rest/POLocator/findLocations", "@spider": "usps_collection_boxes", "addr:city": "HENDERSON", "addr:country": "US", "addr:postcode": "42420", "addr:state": "KY", "addr:street_address": "100 1ST ST", "amenity": "post_box", "brand": "United States Postal Service", "brand:wikidata": "Q668687", "collection_times": "Mo-Fr 17:15; Sa 16:15", "note": "ON 12/24 AND 12/31, THIS BOX MAY BE COLLECTED AS EARLY AS 12 NOON.", "nsi_id": "unitedstatespostalservice-a77078", "operator": "United States Postal Service", "operator:short": "USPS", "operator:type": "public", "operator:wikidata": "Q668687", "ref": "4242000027"}, "type": "Feature"}
{"geometry": {"coordinates": [-87.593763026, 37.839955665], "type": "Point"}, "id": "jojpI44WRXNxdpXpGFtkNTXS1GM=", "properties": {"@source_uri": "https://tools.usps.com/UspsToolsRestServices/rest/POLocator/findLocations", "@spider": "usps_collection_boxes", "addr:city": "HENDERSON", "addr:country": "US", "addr:postcode": "42420", "addr:state": "KY", "addr:street_address": "100 1ST ST", "amenity": "post_box", "brand": "United States Postal Service", "brand:wikidata": "Q668687", "collection_times": "Mo-Fr 17:15; Sa 16:15", "note": "ON 12/24 AND 12/31, THIS BOX MAY BE COLLECTED AS EARLY AS 12 NOON.", "nsi_id": "unitedstatespostalservice-a77078", "operator": "United States Postal Service", "operator:short": "USPS", "operator:type": "public", "operator:wikidata": "Q668687", "ref": "4242000028"}, "type": "Feature"}
{"geometry": {"coordinates": [-87.569577, 37.860022], "type": "Point"}, "id": "FffYfXVcW6fvf29GXtgQcM0PYSA=", "properties": {"@source_uri": "https://tools.usps.com/UspsToolsRestServices/rest/POLocator/findLocations", "@spider": "usps_collection_boxes", "addr:city": "HENDERSON", "addr:country": "US", "addr:postcode": "42420", "addr:state": "KY", "addr:street_address": "714 BARRETT BLVD", "amenity": "post_box", "brand": "United States Postal Service", "brand:wikidata": "Q668687", "collection_times": "Mo-Sa 09:30", "nsi_id": "unitedstatespostalservice-a77078", "operator": "United States Postal Service", "operator:short": "USPS", "operator:type": "public", "operator:wikidata": "Q668687", "ref": "4242000034"}, "type": "Feature"}
{"geometry": {"coordinates": [-87.5569295, 37.826994], "type": "Point"}, "id": "3rQKkgBS3S6ypJfh4thVzdaVjXM=", "properties": {"@source_uri": "https://tools.usps.com/UspsToolsRestServices/rest/POLocator/findLocations", "@spider": "usps_collection_boxes", "addr:city": "HENDERSON", "addr:country": "US", "addr:postcode": "42420", "addr:state": "KY", "addr:street_address": "2606 ZION RD", "amenity": "post_box", "brand": "United States Postal Service", "brand:wikidata": "Q668687", "collection_times": "Mo-Sa 09:30", "nsi_id": "unitedstatespostalservice-a77078", "operator": "United States Postal Service", "operator:short": "USPS", "operator:type": "public", "operator:wikidata": "Q668687", "ref": "4242000039"}, "type": "Feature"}
{"geometry": {"coordinates": [-87.5569224, 37.826997], "type": "Point"}, "id": "064mpAfDjyliXM1tZ41TNRAy5Ec=", "properties": {"@source_uri": "https://tools.usps.com/UspsToolsRestServices/rest/POLocator/findLocations", "@spider": "usps_collection_boxes", "addr:city": "HENDERSON", "addr:country": "US", "addr:postcode": "42420", "addr:state": "KY", "addr:street_address": "2606 ZION RD", "amenity": "post_box", "brand": "United States Postal Service", "brand:wikidata": "Q668687", "collection_times": "Mo-Sa 09:30", "nsi_id": "unitedstatespostalservice-a77078", "operator": "United States Postal Service", "operator:short": "USPS", "operator:type": "public", "operator:wikidata": "Q668687", "ref": "4242000040"}, "type": "Feature"}
{"geometry": {"coordinates": [-87.58564, 37.83681], "type": "Point"}, "id": "46FC6MwjbSjdY_QfF7GvyUr3mME=", "properties": {"@source_uri": "https://tools.usps.com/UspsToolsRestServices/rest/POLocator/findLocations", "@spider": "usps_collection_boxes", "addr:city": "HENDERSON", "addr:country": "US", "addr:postcode": "42420", "addr:state": "KY", "addr:street_address": "1704 2ND ST", "amenity": "post_box", "brand": "United States Postal Service", "brand:wikidata": "Q668687", "collection_times": "Mo-Fr 17:00; Sa 12:00", "note": "ON 12/24 AND 12/31, THIS BOX MAY BE COLLECTED AS EARLY AS 12 NOON.", "nsi_id": "unitedstatespostalservice-a77078", "operator": "United States Postal Service", "operator:short": "USPS", "operator:type": "public", "operator:wikidata": "Q668687", "ref": "4242000041"}, "type": "Feature"}
{"geometry": {"coordinates": [-87.593763026, 37.839955665], "type": "Point"}, "id": "kXsYveBu3NjNMzZUgRX4p56WSpw=", "properties": {"@source_uri": "https://tools.usps.com/UspsToolsRestServices/rest/POLocator/findLocations", "@spider": "usps_collection_boxes", "addr:city": "HENDERSON", "addr:country": "US", "addr:postcode": "42420", "addr:state": "KY", "addr:street_address": "100 1ST ST", "amenity": "post_box", "brand": "United States Postal Service", "brand:wikidata": "Q668687", "collection_times": "Mo-Fr 17:30; Sa 16:30", "indoor": "yes", "note": "ON 12/24 AND 12/31, THIS BOX MAY BE COLLECTED AS EARLY AS 12 NOON.", "nsi_id": "unitedstatespostalservice-a77078", "operator": "United States Postal Service", "operator:short": "USPS", "operator:type": "public", "operator:wikidata": "Q668687", "ref": "4242000042"}, "type": "Feature"}
{"geometry": {"coordinates": [-87.5458917, 37.864627], "type": "Point"}, "id": "OFIxpldGd-dXcXpN8y3DMIV2cmo=", "properties": {"@source_uri": "https://tools.usps.com/UspsToolsRestServices/rest/POLocator/findLocations", "@spider": "usps_collection_boxes", "addr:city": "HENDERSON", "addr:country": "US", "addr:postcode": "42420", "addr:state": "KY", "addr:street_address": "2950 US HIGHWAY 60 E", "amenity": "post_box", "brand": "United States Postal Service", "brand:wikidata": "Q668687", "collection_times": "Mo-Sa 10:30", "nsi_id": "unitedstatespostalservice-a77078", "operator": "United States Postal Service", "operator:short": "USPS", "operator:type": "public", "operator:wikidata": "Q668687", "ref": "4242000044"}, "type": "Feature"}
{"geometry": {"coordinates": [-87.593763026, 37.839955665], "type": "Point"}, "id": "_k30OckpGbL09xvy7EV4ynoI-24=", "properties": {"@source_uri": "https://tools.usps.com/UspsToolsRestServices/rest/POLocator/findLocations", "@spider": "usps_collection_boxes", "addr:city": "HENDERSON", "addr:country": "US", "addr:postcode": "42420", "addr:state": "KY", "addr:street_address": "100 1ST ST", "amenity": "post_box", "brand": "United States Postal Service", "brand:wikidata": "Q668687", "collection_times": "Mo-Fr 17:15; Sa 16:15", "name": "USPS COLLECTION BOX - APC", "note": "ON 12/24 AND 12/31, THIS BOX MAY BE COLLECTED AS EARLY AS 12 NOON.", "nsi_id": "unitedstatespostalservice-a77078", "operator": "United States Postal Service", "operator:short": "USPS", "operator:type": "public", "operator:wikidata": "Q668687", "ref": "4242000045"}, "type": "Feature"}
{"geometry": {"coordinates": [-87.593999965, 37.839590003], "type": "Point"}, "id": "DOzEs-PXeHQJ5pb41NUYP7aNBSs=", "properties": {"@source_uri": "https://tools.usps.com/UspsToolsRestServices/rest/POLocator/findLocations", "@spider": "usps_collection_boxes", "addr:city": "HENDERSON", "addr:country": "US", "addr:postcode": "42420", "addr:state": "KY", "addr:street_address": "100 1ST ST", "amenity": "post_box", "brand": "United States Postal Service", "brand:wikidata": "Q668687", "collection_times": "Mo-Fr 16:30; Sa 11:30", "indoor": "yes", "note": "ON 12/24 AND 12/31, THIS BOX MAY BE COLLECTED AS EARLY AS 12 NOON.", "nsi_id": "unitedstatespostalservice-a77078", "operator": "United States Postal Service", "operator:short": "USPS", "operator:type": "public", "operator:wikidata": "Q668687", "ref": "4242000051"}, "type": "Feature"}
{"geometry": {"coordinates": [-87.4978243, 37.327416], "type": "Point"}, "id": "wkweqrGbTss4tnljtfOOfuESSM0=", "properties": {"@source_uri": "https://tools.usps.com/UspsToolsRestServices/rest/POLocator/findLocations", "@spider": "usps_collection_boxes", "addr:city": "MADISONVILLE", "addr:country": "US", "addr:postcode": "42431", "addr:state": "KY", "addr:street_address": "24 UNION ST", "amenity": "post_box", "brand": "United States Postal Service", "brand:wikidata": "Q668687", "collection_times": "Mo-Sa 10:00", "nsi_id": "unitedstatespostalservice-a77078", "operator": "United States Postal Service", "operator:short": "USPS", "operator:type": "public", "operator:wikidata": "Q668687", "ref": "4243100001"}, "type": "Feature"}
{"geometry": {"coordinates": [-87.4766739, 37.31937], "type": "Point"}, "id": "0LDpuwzk7-LSSbQIjCMqqMYwIZI=", "properties": {"@source_uri": "https://tools.usps.com/UspsToolsRestServices/rest/POLocator/findLocations", "@spider": "usps_collection_boxes", "addr:city": "MADISONVILLE", "addr:country": "US", "addr:postcode": "42431", "addr:state": "KY", "addr:street_address": "455 MADISON SQUARE DR", "amenity": "post_box", "brand": "United States Postal Service", "brand:wikidata": "Q668687", "collection_times": "Mo-Sa 10:00", "nsi_id": "unitedstatespostalservice-a77078", "operator": "United States Postal Service", "operator:short": "USPS", "operator:type": "public", "operator:wikidata": "Q668687", "ref": "4243100005"}, "type": "Feature"}
{"geometry": {"coordinates": [-87.4931874, 37.340082], "type": "Point"}, "id": "fFKQs3c7hGs-IAimDgs9YZ_hWU8=", "properties": {"@source_uri": "https://tools.usps.com/UspsToolsRestServices/rest/POLocator/findLocations", "@spider": "usps_collection_boxes", "addr:city": "MADISONVILLE", "addr:country": "US", "addr:postcode": "42431", "addr:state": "KY", "addr:street_address": "900 HOSPITAL DR", "amenity": "post_box", "brand": "United States Postal Service", "brand:wikidata": "Q668687", "collection_times": "Mo-Sa 10:00", "nsi_id": "unitedstatespostalservice-a77078", "operator": "United States Postal Service", "operator:short": "USPS", "operator:type": "public", "operator:wikidata": "Q668687", "ref": "4243100013"}, "type": "Feature"}
{"geometry": {"coordinates": [-87.500696, 37.328421], "type": "Point"}, "id": "bs_mnsuD36_mghSzVEzgWXtrRHI=", "properties": {"@source_uri": "https://tools.usps.com/UspsToolsRestServices/rest/POLocator/findLocations", "@spider": "usps_collection_boxes", "addr:city": "MADISONVILLE", "addr:country": "US", "addr:postcode": "42431", "addr:state": "KY", "addr:street_address": "117 W CENTER ST", "amenity": "post_box", "brand": "United States Postal Service", "brand:wikidata": "Q668687", "collection_times": "Mo-Fr 16:45; Sa 16:00", "note": "ON 12/24 AND 12/31, THIS BOX MAY BE COLLECTED AS EARLY AS 12 NOON.", "nsi_id": "unitedstatespostalservice-a77078", "operator": "United States Postal Service", "operator:short": "USPS", "operator:type": "public", "operator:wikidata": "Q668687", "ref": "4243100017"}, "type": "Feature"}
{"geometry": {"coordinates": [-87.4964619, 37.346078], "type": "Point"}, "id": "AGM3KsZEJOsoFTqJGfxGg0vQOFQ=", "properties": {"@source_uri": "https://tools.usps.com/UspsToolsRestServices/rest/POLocator/findLocations", "@spider": "usps_collection_boxes", "addr:city": "MADISONVILLE", "addr:country": "US", "addr:postcode": "42431", "addr:state": "KY", "addr:street_address": "1062 THORNBERRY DR", "amenity": "post_box", "brand": "United States Postal Service", "brand:wikidata": "Q668687", "collection_times": "Mo-Sa 09:00", "nsi_id": "unitedstatespostalservice-a77078", "operator": "United States Postal Service", "operator:short": "USPS", "operator:type": "public", "operator:wikidata": "Q668687", "ref": "4243100019"}, "type": "Feature"}
{"geometry": {"coordinates": [-87.5103659, 37.305746], "type": "Point"}, "id": "9RRNa3ljUcv1v4mYeZ9U5YGavgo=", "properties": {"@source_uri": "https://tools.usps.com/UspsToolsRestServices/rest/POLocator/findLocations", "@spider": "usps_collection_boxes", "addr:city": "MADISONVILLE", "addr:country": "US", "addr:postcode": "42431", "addr:state": "KY", "addr:street_address": "1771 S MAIN ST", "amenity": "post_box", "brand": "United States Postal Service", "brand:wikidata": "Q668687", "collection_times": "Mo-Sa 13:15", "note": "ON 12/24 AND 12/31, THIS BOX MAY BE COLLECTED AS EARLY AS 12 NOON.", "nsi_id": "unitedstatespostalservice-a77078", "operator": "United States Postal Service", "operator:short": "USPS", "operator:type": "public", "operator:wikidata": "Q668687", "ref": "4243100026"}, "type": "Feature"}
{"geometry": {"coordinates": [-87.500664, 37.328389], "type": "Point"}, "id": "inweeGuvD_0FAamHt6ZCwWqSdhM=", "properties": {"@source_uri": "https://tools.usps.com/UspsToolsRestServices/rest/POLocator/findLocations", "@spider": "usps_collection_boxes", "addr:city": "MADISONVILLE", "addr:country": "US", "addr:postcode": "42431", "addr:state": "KY", "addr:street_address": "117 W CENTER ST", "amenity": "post_box", "brand": "United States Postal Service", "brand:wikidata": "Q668687", "collection_times": "Mo-Fr 16:45; Sa 16:00", "indoor": "yes", "note": "ON 12/24 AND 12/31, THIS BOX MAY BE COLLECTED AS EARLY AS 12 NOON.", "nsi_id": "unitedstatespostalservice-a77078", "operator": "United States Postal Service", "operator:short": "USPS", "operator:type": "public", "operator:wikidata": "Q668687", "ref": "4243100033"}, "type": "Feature"}
{"geometry": {"coordinates": [-87.4903974, 37.349752], "type": "Point"}, "id": "4TcVRiu4_I_jgUD2x_pbGTI4loQ=", "properties": {"@source_uri": "https://tools.usps.com/UspsToolsRestServices/rest/POLocator/findLocations", "@spider": "usps_collection_boxes", "addr:city": "MADISONVILLE", "addr:country": "US", "addr:postcode": "42431", "addr:state": "KY", "addr:street_address": "540 ISLAND FORD RD", "amenity": "post_box", "brand": "United States Postal Service", "brand:wikidata": "Q668687", "collection_times": "Mo-Sa 10:00", "nsi_id": "unitedstatespostalservice-a77078", "operator": "United States Postal Service", "operator:short": "USPS", "operator:type": "public", "operator:wikidata": "Q668687", "ref": "4243100040"}, "type": "Feature"}
{"geometry": {"coordinates": [-87.500664, 37.328389], "type": "Point"}, "id": "9f186qWUXMG6aN1a1t7Klr-IcRE=", "properties": {"@source_uri": "https://tools.usps.com/UspsToolsRestServices/rest/POLocator/findLocations", "@spider": "usps_collection_boxes", "addr:city": "MADISONVILLE", "addr:country": "US", "addr:postcode": "42431", "addr:state": "KY", "addr:street_address": "117 W CENTER ST", "amenity": "post_box", "brand": "United States Postal Service", "brand:wikidata": "Q668687", "collection_times": "Mo-Fr 16:45; Sa 16:00", "note": "ON 12/24 AND 12/31, THIS BOX MAY BE COLLECTED AS EARLY AS 12 NOON.", "nsi_id": "unitedstatespostalservice-a77078", "operator": "United States Postal Service", "operator:short": "USPS", "operator:type": "public", "operator:wikidata": "Q668687", "ref": "4243100049"}, "type": "Feature"}
{"geometry": {"coordinates": [-87.5006811659, 37.3284558386], "type": "Point"}, "id": "-Pd3r-VFTIbWZqC6XZtefWjFVYQ=", "properties": {"@source_uri": "https://tools.usps.com/UspsToolsRestServices/rest/POLocator/findLocations", "@spider": "usps_collection_boxes", "addr:city": "MADISONVILLE", "addr:country": "US", "addr:postcode": "42431", "addr:state": "KY", "addr:street_address": "117 W CENTER ST", "amenity": "post_box", "brand": "United States Postal Service", "brand:wikidata": "Q668687", "collection_times": "Mo-Fr 16:30; Sa 12:00", "indoor": "yes", "note": "ON 12/24 AND 12/31, THIS BOX MAY BE COLLECTED AS EARLY AS 12 NOON.", "nsi_id": "unitedstatespostalservice-a77078", "operator": "United States Postal Service", "operator:short": "USPS", "operator:type": "public", "operator:wikidata": "Q668687", "ref": "4243100052"}, "type": "Feature"}
{"geometry": {"coordinates": [-87.5815449597, 37.3728850053], "type": "Point"}, "id": "eTC2Y7IzrAeEmpF6t4yQguFuVpI=", "properties": {"@source_uri": "https://tools.usps.com/UspsToolsRestServices/rest/POLocator/findLocations", "@spider": "usps_collection_boxes", "addr:city": "MANITOU", "addr:country": "US", "addr:postcode": "42436", "addr:state": "KY", "addr:street_address": "5270 NEBO RD", "amenity": "post_box", "brand": "United States Postal Service", "brand:wikidata": "Q668687", "collection_times": "Mo-Fr 15:20; Sa 12:45", "note": "ON 12/24 AND 12/31, THIS BOX MAY BE COLLECTED AS EARLY AS 12 NOON.", "nsi_id": "unitedstatespostalservice-a77078", "operator": "United States Postal Service", "operator:short": "USPS", "operator:type": "public", "operator:wikidata": "Q668687", "ref": "4243600000"}, "type": "Feature"}
{"geometry": {"coordinates": [-87.5815449597, 37.3728850053], "type": "Point"}, "id": "doATqw_ysQw6N_pqCP7zkmkmWYk=", "properties": {"@source_uri": "https://tools.usps.com/UspsToolsRestServices/rest/POLocator/findLocations", "@spider": "usps_collection_boxes", "addr:city": "MANITOU", "addr:country": "US", "addr:postcode": "42436", "addr:state": "KY", "addr:street_address": "5270 NEBO RD", "amenity": "post_box", "brand": "United States Postal Service", "brand:wikidata": "Q668687", "collection_times": "Mo-Fr 15:30; Sa 13:00", "indoor": "yes", "note": "ON 12/24 AND 12/31, THIS BOX MAY BE COLLECTED AS EARLY AS 12 NOON.", "nsi_id": "unitedstatespostalservice-a77078", "operator": "United States Postal Service", "operator:short": "USPS", "operator:type": "public", "operator:wikidata": "Q668687", "ref": "4243600003"}, "type": "Feature"}
{"geometry": {"coordinates": [-87.918386497, 37.684834385], "type": "Point"}, "id": "Yb-fXqbrbphwBeFJHLEm6mxIkuA=", "properties": {"@source_uri": "https://tools.usps.com/UspsToolsRestServices/rest/POLocator/findLocations", "@spider": "usps_collection_boxes", "addr:city": "MORGANFIELD", "addr:country": "US", "addr:postcode": "42437", "addr:state": "KY", "addr:street_address": "231 W MAIN ST", "amenity": "post_box", "brand": "United States Postal Service", "brand:wikidata": "Q668687", "collection_times": "Mo-Fr 15:45; Sa 15:00", "note": "ON 12/24 AND 12/31, THIS BOX MAY BE COLLECTED AS EARLY AS 12 NOON.", "nsi_id": "unitedstatespostalservice-a77078", "operator": "United States Postal Service", "operator:short": "USPS", "operator:type": "public", "operator:wikidata": "Q668687", "ref": "4243700000"}, "type": "Feature"}
{"geometry": {"coordinates": [-87.918386497, 37.684834385], "type": "Point"}, "id": "reEC6kYro8MOfichJonHrwZZmOg=", "properties": {"@source_uri": "https://tools.usps.com/UspsToolsRestServices/rest/POLocator/findLocations", "@spider": "usps_collection_boxes", "addr:city": "MORGANFIELD", "addr:country": "US", "addr:postcode": "42437", "addr:state": "KY", "addr:street_address": "231 W MAIN ST", "amenity": "post_box", "brand": "United States Postal Service", "brand:wikidata": "Q668687", "collection_times": "Mo-Fr 15:45; Sa 14:45", "indoor": "yes", "note": "ON 12/24 AND 12/31, THIS BOX MAY BE COLLECTED AS EARLY AS 12 NOON.", "nsi_id": "unitedstatespostalservice-a77078", "operator": "United States Postal Service", "operator:short": "USPS", "operator:type": "public", "operator:wikidata": "Q668687", "ref": "4243700013"}, "type": "Feature"}
{"geometry": {"coordinates": [-87.918386497, 37.684834385], "type": "Point"}, "id": "Cov-y9_vIJZNCUOB7GdoS63izh0=", "properties": {"@source_uri": "https://tools.usps.com/UspsToolsRestServices/rest/POLocator/findLocations", "@spider": "usps_collection_boxes", "addr:city": "MORGANFIELD", "addr:country": "US", "addr:postcode": "42437", "addr:state": "KY", "addr:street_address": "231 W MAIN ST", "amenity": "post_box", "brand": "United States Postal Service", "brand:wikidata": "Q668687", "collection_times": "Mo-Fr 15:45; Sa 12:00", "indoor": "yes", "note": "ON 12/24 AND 12/31, THIS BOX MAY BE COLLECTED AS EARLY AS 12 NOON.", "nsi_id": "unitedstatespostalservice-a77078", "operator": "United States Postal Service", "operator:short": "USPS", "operator:type": "public", "operator:wikidata": "Q668687", "ref": "4243700020"}, "type": "Feature"}
{"geometry": {"coordinates": [-87.465962908, 37.241532484], "type": "Point"}, "id": "V0ngK15h2BLMwZUNTUtol6V936c=", "properties": {"@source_uri": "https://tools.usps.com/UspsToolsRestServices/rest/POLocator/findLocations", "@spider": "usps_collection_boxes", "addr:city": "MORTONS GAP", "addr:country": "US", "addr:postcode": "42440", "addr:state": "KY", "addr:street_address": "140 CROSS ST", "amenity": "post_box", "brand": "United States Postal Service", "brand:wikidata": "Q668687", "collection_times": "Mo-Fr 15:30; Sa 11:15", "indoor": "yes", "note": "ON 12/24 AND 12/31, THIS BOX MAY BE COLLECTED AS EARLY AS 12 NOON.", "nsi_id": "unitedstatespostalservice-a77078", "operator": "United States Postal Service", "operator:short": "USPS", "operator:type": "public", "operator:wikidata": "Q668687", "ref": "4244000000"}, "type": "Feature"}
{"geometry": {"coordinates": [-87.465962908, 37.241532484], "type": "Point"}, "id": "YgV32lrT7Y98dDzrwqS0yjjquyE=", "properties": {"@source_uri": "https://tools.usps.com/UspsToolsRestServices/rest/POLocator/findLocations", "@spider": "usps_collection_boxes", "addr:city": "MORTONS GAP", "addr:country": "US", "addr:postcode": "42440", "addr:state": "KY", "addr:street_address": "140 CROSS ST", "amenity": "post_box", "brand": "United States Postal Service", "brand:wikidata": "Q668687", "collection_times": "Mo-Fr 15:30; Sa 11:30", "note": "ON 12/24 AND 12/31, THIS BOX MAY BE COLLECTED AS EARLY AS 12 NOON.", "nsi_id": "unitedstatespostalservice-a77078", "operator": "United States Postal Service", "operator:short": "USPS", "operator:type": "public", "operator:wikidata": "Q668687", "ref": "4244000001"}, "type": "Feature"}
{"geometry": {"coordinates": [-87.465962908, 37.241532484], "type": "Point"}, "id": "DvNCgRhxM2UkhfiQ9bMyuNzcCzQ=", "properties": {"@source_uri": "https://tools.usps.com/UspsToolsRestServices/rest/POLocator/findLocations", "@spider": "usps_collection_boxes", "addr:city": "MORTONS GAP", "addr:country": "US", "addr:postcode": "42440", "addr:state": "KY", "addr:street_address": "140 CROSS ST", "amenity": "post_box", "brand": "United States Postal Service", "brand:wikidata": "Q668687", "collection_times": "Mo-Fr 15:30; Sa 11:30", "indoor": "yes", "note": "ON 12/24 AND 12/31, THIS BOX MAY BE COLLECTED AS EARLY AS 12 NOON.", "nsi_id": "unitedstatespostalservice-a77078", "operator": "United States Postal Service", "operator:short": "USPS", "operator:type": "public", "operator:wikidata": "Q668687", "ref": "4244000003"}, "type": "Feature"}
{"geometry": {"coordinates": [-87.453332177, 37.18737977], "type": "Point"}, "id": "nAfzUoXzmrbtf-FJMYk0tNir_E4=", "properties": {"@source_uri": "https://tools.usps.com/UspsToolsRestServices/rest/POLocator/findLocations", "@spider": "usps_collection_boxes", "addr:city": "NORTONVILLE", "addr:country": "US", "addr:postcode": "42442", "addr:state": "KY", "addr:street_address": "39 E WALNUT ST", "amenity": "post_box", "brand": "United States Postal Service", "brand:wikidata": "Q668687", "collection_times": "Mo-Fr 15:45; Sa 11:00", "note": "ON 12/24 AND 12/31, THIS BOX MAY BE COLLECTED AS EARLY AS 12 NOON.", "nsi_id": "unitedstatespostalservice-a77078", "operator": "United States Postal Service", "operator:short": "USPS", "operator:type": "public", "operator:wikidata": "Q668687", "ref": "4244200000"}, "type": "Feature"}
{"geometry": {"coordinates": [-87.453332177, 37.18737977], "type": "Point"}, "id": "vxaL0zivrArXrRwITM1f6HP_XK0=", "properties": {"@source_uri": "https://tools.usps.com/UspsToolsRestServices/rest/POLocator/findLocations", "@spider": "usps_collection_boxes", "addr:city": "NORTONVILLE", "addr:country": "US", "addr:postcode": "42442", "addr:state": "KY", "addr:street_address": "39 E WALNUT ST", "amenity": "post_box", "brand": "United States Postal Service", "brand:wikidata": "Q668687", "collection_times": "Mo-Fr 15:45; Sa 11:00", "indoor": "yes", "note": "ON 12/24 AND 12/31, THIS BOX MAY BE COLLECTED AS EARLY AS 12 NOON.", "nsi_id": "unitedstatespostalservice-a77078", "operator": "United States Postal Service", "operator:short": "USPS", "operator:type": "public", "operator:wikidata": "Q668687", "ref": "4244200001"}, "type": "Feature"}
{"geometry": {"coordinates": [-87.453332177, 37.18737977], "type": "Point"}, "id": "jil7T9kdL-T_IxAVMMsj0yfYUis=", "properties": {"@source_uri": "https://tools.usps.com/UspsToolsRestServices/rest/POLocator/findLocations", "@spider": "usps_collection_boxes", "addr:city": "NORTONVILLE", "addr:country": "US", "addr:postcode": "42442", "addr:state": "KY", "addr:street_address": "39 E WALNUT ST", "amenity": "post_box", "brand": "United States Postal Service", "brand:wikidata": "Q668687", "collection_times": "Mo-Fr 16:00; Sa 11:00", "indoor": "yes", "note": "ON 12/24 AND 12/31, THIS BOX MAY BE COLLECTED AS EARLY AS 12 NOON.", "nsi_id": "unitedstatespostalservice-a77078", "operator": "United States Postal Service", "operator:short": "USPS", "operator:type": "public", "operator:wikidata": "Q668687", "ref": "4244200003"}, "type": "Feature"}
{"geometry": {"coordinates": [-87.644555542, 37.639424357], "type": "Point"}, "id": "0tRF0DvlB_7JJCLTe-9oC0c6kbM=", "properties": {"@source_uri": "https://tools.usps.com/UspsToolsRestServices/rest/POLocator/findLocations", "@spider": "usps_collection_boxes", "addr:city": "POOLE", "addr:country": "US", "addr:postcode": "42444", "addr:state": "KY", "addr:street_address": "9599 US HIGHWAY 41A N", "amenity": "post_box", "brand": "United States Postal Service", "brand:wikidata": "Q668687", "collection_times": "Mo-Fr 15:45; Sa 10:00", "note": "ON 12/24 AND 12/31, THIS BOX MAY BE COLLECTED AS EARLY AS 12 NOON.", "nsi_id": "unitedstatespostalservice-a77078", "operator": "United States Postal Service", "operator:short": "USPS", "operator:type": "public", "operator:wikidata": "Q668687", "ref": "4244400000"}, "type": "Feature"}
{"geometry": {"coordinates": [-87.644555542, 37.639424357], "type": "Point"}, "id": "9oFuacRHK_swDMszthm17pW8o-o=", "properties": {"@source_uri": "https://tools.usps.com/UspsToolsRestServices/rest/POLocator/findLocations", "@spider": "usps_collection_boxes", "addr:city": "POOLE", "addr:country": "US", "addr:postcode": "42444", "addr:state": "KY", "addr:street_address": "9599 US HIGHWAY 41A N", "amenity": "post_box", "brand": "United States Postal Service", "brand:wikidata": "Q668687", "collection_times": "Mo-Fr 15:45; Sa 10:00", "indoor": "yes", "note": "ON 12/24 AND 12/31, THIS BOX MAY BE COLLECTED AS EARLY AS 12 NOON.", "nsi_id": "unitedstatespostalservice-a77078", "operator": "United States Postal Service", "operator:short": "USPS", "operator:type": "public", "operator:wikidata": "Q668687", "ref": "4244400001"}, "type": "Feature"}
{"geometry": {"coordinates": [-87.644555542, 37.639424357], "type": "Point"}, "id": "RHlORHOcMbGmsUyL1R-Y2AXG3bM=", "properties": {"@source_uri": "https://tools.usps.com/UspsToolsRestServices/rest/POLocator/findLocations", "@spider": "usps_collection_boxes", "addr:city": "POOLE", "addr:country": "US", "addr:postcode": "42444", "addr:state": "KY", "addr:street_address": "9599 US HIGHWAY 41A N", "amenity": "post_box", "brand": "United States Postal Service", "brand:wikidata": "Q668687", "collection_times": "Mo-Fr 15:45; Sa 10:00", "indoor": "yes", "note": "ON 12/24 AND 12/31, THIS BOX MAY BE COLLECTED AS EARLY AS 12 NOON.", "nsi_id": "unitedstatespostalservice-a77078", "operator": "United States Postal Service", "operator:short": "USPS", "operator:type": "public", "operator:wikidata": "Q668687", "ref": "4244400003"}, "type": "Feature"}
{"geometry": {"coordinates": [-87.884210828, 37.108600881], "type": "Point"}, "id": "1ZfK06b_5F5b_1ASRcjKfL3hiYM=", "properties": {"@source_uri": "https://tools.usps.com/UspsToolsRestServices/rest/POLocator/findLocations", "@spider": "usps_collection_boxes", "addr:city": "PRINCETON", "addr:country": "US", "addr:postcode": "42445", "addr:state": "KY", "addr:street_address": "201 W WASHINGTON ST", "amenity": "post_box", "brand": "United States Postal Service", "brand:wikidata": "Q668687", "collection_times": "Mo-Fr 16:00; Sa 15:45", "indoor": "yes", "note": "ON 12/24 AND 12/31, THIS BOX MAY BE COLLECTED AS EARLY AS 12 NOON.", "nsi_id": "unitedstatespostalservice-a77078", "operator": "United States Postal Service", "operator:short": "USPS", "operator:type": "public", "operator:wikidata": "Q668687", "ref": "4244500000"}, "type": "Feature"}
{"geometry": {"coordinates": [-87.884210828, 37.108600881], "type": "Point"}, "id": "wkmKv7Kizf8JSiMhutQgzYhmA9o=", "properties": {"@source_uri": "https://tools.usps.com/UspsToolsRestServices/rest/POLocator/findLocations", "@spider": "usps_collection_boxes", "addr:city": "PRINCETON", "addr:country": "US", "addr:postcode": "42445", "addr:state": "KY", "addr:street_address": "201 W WASHINGTON ST", "amenity": "post_box", "brand": "United States Postal Service", "brand:wikidata": "Q668687", "collection_times": "Mo-Fr 16:00; Sa 15:45", "note": "ON 12/24 AND 12/31, THIS BOX MAY BE COLLECTED AS EARLY AS 12 NOON.", "nsi_id": "unitedstatespostalservice-a77078", "operator": "United States Postal Service", "operator:short": "USPS", "operator:type": "public", "operator:wikidata": "Q668687", "ref": "4244500002"}, "type": "Feature"}
{"geometry": {"coordinates": [-87.9033849, 37.112755], "type": "Point"}, "id": "zMy-mmiCABA485PmGMUIP0bVwPQ=", "properties": {"@source_uri": "https://tools.usps.com/UspsToolsRestServices/rest/POLocator/findLocations", "@spider": "usps_collection_boxes", "addr:city": "PRINCETON", "addr:country": "US", "addr:postcode": "42445", "addr:state": "KY", "addr:street_address": "500 US HIGHWAY 62 W", "amenity": "post_box", "brand": "United States Postal Service", "brand:wikidata": "Q668687", "collection_times": "Mo-Sa 10:00", "nsi_id": "unitedstatespostalservice-a77078", "operator": "United States Postal Service", "operator:short": "USPS", "operator:type": "public", "operator:wikidata": "Q668687", "ref": "4244500009"}, "type": "Feature"}
{"geometry": {"coordinates": [-87.884210828, 37.108600881], "type": "Point"}, "id": "cXnVGuFda_MX8rs0Zw7jvwGxeu0=", "properties": {"@source_uri": "https://tools.usps.com/UspsToolsRestServices/rest/POLocator/findLocations", "@spider": "usps_collection_boxes", "addr:city": "PRINCETON", "addr:country": "US", "addr:postcode": "42445", "addr:state": "KY", "addr:street_address": "201 W WASHINGTON ST", "amenity": "post_box", "brand": "United States Postal Service", "brand:wikidata": "Q668687", "collection_times": "Mo-Fr 16:00; Sa 10:30", "indoor": "yes", "note": "ON 12/24 AND 12/31, THIS BOX MAY BE COLLECTED AS EARLY AS 12 NOON.", "nsi_id": "unitedstatespostalservice-a77078", "operator": "United States Postal Service", "operator:short": "USPS", "operator:type": "public", "operator:wikidata": "Q668687", "ref": "4244500016"}, "type": "Feature"}
{"geometry": {"coordinates": [-87.7328277, 37.410329], "type": "Point"}, "id": "BvNxVY6ktgoU3WEwD9JbSGctTjo=", "properties": {"@source_uri": "https://tools.usps.com/UspsToolsRestServices/rest/POLocator/findLocations", "@spider": "usps_collection_boxes", "addr:city": "PROVIDENCE", "addr:country": "US", "addr:postcode": "42450", "addr:state": "KY", "addr:street_address": "101 US HIGHWAY 41A N", "amenity": "post_box", "brand": "United States Postal Service", "brand:wikidata": "Q668687", "collection_times": "Mo-Sa 10:45", "nsi_id": "unitedstatespostalservice-a77078", "operator": "United States Postal Service", "operator:short": "USPS", "operator:type": "public", "operator:wikidata": "Q668687", "ref": "4245000018"}, "type": "Feature"}
{"geometry": {"coordinates": [-87.76237972, 37.397604906], "type": "Point"}, "id": "bwEnnrFIDXPe-tA4T1E9Oz4dCCo=", "properties": {"@source_uri": "https://tools.usps.com/UspsToolsRestServices/rest/POLocator/findLocations", "@spider": "usps_collection_boxes", "addr:city": "PROVIDENCE", "addr:country": "US", "addr:postcode": "42450", "addr:state": "KY", "addr:street_address": "107 E MAIN ST", "amenity": "post_box", "brand": "United States Postal Service", "brand:wikidata": "Q668687", "collection_times": "Mo-Fr 15:45; Sa 11:45", "indoor": "yes", "note": "ON 12/24 AND 12/31, THIS BOX MAY BE COLLECTED AS EARLY AS 12 NOON.", "nsi_id": "unitedstatespostalservice-a77078", "operator": "United States Postal Service", "operator:short": "USPS", "operator:type": "public", "operator:wikidata": "Q668687", "ref": "4245000019"}, "type": "Feature"}
{"geometry": {"coordinates": [-87.76237972, 37.397604906], "type": "Point"}, "id": "0cXKjFdtzHIEIqPzzXP_MHbcXng=", "properties": {"@source_uri": "https://tools.usps.com/UspsToolsRestServices/rest/POLocator/findLocations", "@spider": "usps_collection_boxes", "addr:city": "PROVIDENCE", "addr:country": "US", "addr:postcode": "42450", "addr:state": "KY", "addr:street_address": "107 E MAIN ST", "amenity": "post_box", "brand": "United States Postal Service", "brand:wikidata": "Q668687", "collection_times": "Mo-Fr 15:45; Sa 11:45", "note": "ON 12/24 AND 12/31, THIS BOX MAY BE COLLECTED AS EARLY AS 12 NOON.", "nsi_id": "unitedstatespostalservice-a77078", "operator": "United States Postal Service", "operator:short": "USPS", "operator:type": "public", "operator:wikidata": "Q668687", "ref": "4245000020"}, "type": "Feature"}
{"geometry": {"coordinates": [-87.76237972, 37.397604906], "type": "Point"}, "id": "DTWx6l12uPIWvF8m7ht4wd_6U_M=", "properties": {"@source_uri": "https://tools.usps.com/UspsToolsRestServices/rest/POLocator/findLocations", "@spider": "usps_collection_boxes", "addr:city": "PROVIDENCE", "addr:country": "US", "addr:postcode": "42450", "addr:state": "KY", "addr:street_address": "107 E MAIN ST", "amenity": "post_box", "brand": "United States Postal Service", "brand:wikidata": "Q668687", "collection_times": "Mo-Fr 15:45; Sa 11:00", "indoor": "yes", "note": "ON 12/24 AND 12/31, THIS BOX MAY BE COLLECTED AS EARLY AS 12 NOON.", "nsi_id": "unitedstatespostalservice-a77078", "operator": "United States Postal Service", "operator:short": "USPS", "operator:type": "public", "operator:wikidata": "Q668687", "ref": "4245000023"}, "type": "Feature"}
{"geometry": {"coordinates": [-87.356064529, 37.851380752], "type": "Point"}, "id": "g7-SVDmhICU005OEpuhgyiHlnQs=", "properties": {"@source_uri": "https://tools.usps.com/UspsToolsRestServices/rest/POLocator/findLocations", "@spider": "usps_collection_boxes", "addr:city": "REED", "addr:country": "US", "addr:postcode": "42451", "addr:state": "KY", "addr:street_address": "16110 US HIGHWAY 60 E", "amenity": "post_box", "brand": "United States Postal Service", "brand:wikidata": "Q668687", "collection_times": "Mo-Fr 15:45; Sa 09:45", "note": "ON 12/24 AND 12/31, THIS BOX MAY BE COLLECTED AS EARLY AS 12 NOON.", "nsi_id": "unitedstatespostalservice-a77078", "operator": "United States Postal Service", "operator:short": "USPS", "operator:type": "public", "operator:wikidata": "Q668687", "ref": "4245100000"}, "type": "Feature"}
{"geometry": {"coordinates": [-87.356064529, 37.851380752], "type": "Point"}, "id": "Px9xBR4NF20_0YZ9bWSkDTr0ek0=", "properties": {"@source_uri": "https://tools.usps.com/UspsToolsRestServices/rest/POLocator/findLocations", "@spider": "usps_collection_boxes", "addr:city": "REED", "addr:country": "US", "addr:postcode": "42451", "addr:state": "KY", "addr:street_address": "16110 US HIGHWAY 60 E", "amenity": "post_box", "brand": "United States Postal Service", "brand:wikidata": "Q668687", "collection_times": "Mo-Fr 15:45; Sa 09:45", "indoor": "yes", "note": "ON 12/24 AND 12/31, THIS BOX MAY BE COLLECTED AS EARLY AS 12 NOON.", "nsi_id": "unitedstatespostalservice-a77078", "operator": "United States Postal Service", "operator:short": "USPS", "operator:type": "public", "operator:wikidata": "Q668687", "ref": "4245100001"}, "type": "Feature"}
{"geometry": {"coordinates": [-87.356064529, 37.851380752], "type": "Point"}, "id": "UcB0CSF3F1dDDIi8MhjEg0_rOGg=", "properties": {"@source_uri": "https://tools.usps.com/UspsToolsRestServices/rest/POLocator/findLocations", "@spider": "usps_collection_boxes", "addr:city": "REED", "addr:country": "US", "addr:postcode": "42451", "addr:state": "KY", "addr:street_address": "16110 US HIGHWAY 60 E", "amenity": "post_box", "brand": "United States Postal Service", "brand:wikidata": "Q668687", "collection_times": "Mo-Fr 15:45; Sa 09:45", "indoor": "yes", "note": "ON 12/24 AND 12/31, THIS BOX MAY BE COLLECTED AS EARLY AS 12 NOON.", "nsi_id": "unitedstatespostalservice-a77078", "operator": "United States Postal Service", "operator:short": "USPS", "operator:type": "public", "operator:wikidata": "Q668687", "ref": "4245100003"}, "type": "Feature"}
{"geometry": {"coordinates": [-87.546772632, 37.673777577], "type": "Point"}, "id": "2_wvV9FUo0UpW2X52G7POb84N0Q=", "properties": {"@source_uri": "https://tools.usps.com/UspsToolsRestServices/rest/POLocator/findLocations", "@spider": "usps_collection_boxes", "addr:city": "ROBARDS", "addr:country": "US", "addr:postcode": "42452", "addr:state": "KY", "addr:street_address": "1204 E RAILROAD ST", "amenity": "post_box", "brand": "United States Postal Service", "brand:wikidata": "Q668687", "collection_times": "Mo-Fr 14:30; Sa 09:30", "note": "ON 12/24 AND 12/31, THIS BOX MAY BE COLLECTED AS EARLY AS 12 NOON.", "nsi_id": "unitedstatespostalservice-a77078", "operator": "United States Postal Service", "operator:short": "USPS", "operator:type": "public", "operator:wikidata": "Q668687", "ref": "4245200000"}, "type": "Feature"}
{"geometry": {"coordinates": [-87.546772632, 37.673777577], "type": "Point"}, "id": "fZSjyxlZSmYm9CV3WOYtyBO6ihY=", "properties": {"@source_uri": "https://tools.usps.com/UspsToolsRestServices/rest/POLocator/findLocations", "@spider": "usps_collection_boxes", "addr:city": "ROBARDS", "addr:country": "US", "addr:postcode": "42452", "addr:state": "KY", "addr:street_address": "1204 E RAILROAD ST", "amenity": "post_box", "brand": "United States Postal Service", "brand:wikidata": "Q668687", "collection_times": "Mo-Fr 14:30; Sa 09:30", "indoor": "yes", "note": "ON 12/24 AND 12/31, THIS BOX MAY BE COLLECTED AS EARLY AS 12 NOON.", "nsi_id": "unitedstatespostalservice-a77078", "operator": "United States Postal Service", "operator:short": "USPS", "operator:type": "public", "operator:wikidata": "Q668687", "ref": "4245200001"}, "type": "Feature"}
{"geometry": {"coordinates": [-87.546772632, 37.673777577], "type": "Point"}, "id": "AYtViFDf2DD28u33CDZERle5Fl4=", "properties": {"@source_uri": "https://tools.usps.com/UspsToolsRestServices/rest/POLocator/findLocations", "@spider": "usps_collection_boxes", "addr:city": "ROBARDS", "addr:country": "US", "addr:postcode": "42452", "addr:state": "KY", "addr:street_address": "1204 E RAILROAD ST", "amenity": "post_box", "brand": "United States Postal Service", "brand:wikidata": "Q668687", "collection_times": "Mo-Fr 14:30; Sa 09:30", "indoor": "yes", "note": "ON 12/24 AND 12/31, THIS BOX MAY BE COLLECTED AS EARLY AS 12 NOON.", "nsi_id": "unitedstatespostalservice-a77078", "operator": "United States Postal Service", "operator:short": "USPS", "operator:type": "public", "operator:wikidata": "Q668687", "ref": "4245200003"}, "type": "Feature"}
{"geometry": {"coordinates": [-87.557336434, 37.182942832], "type": "Point"}, "id": "9WFVyzugzmhwckY-Q8YQSmyV5hM=", "properties": {"@source_uri": "https://tools.usps.com/UspsToolsRestServices/rest/POLocator/findLocations", "@spider": "usps_collection_boxes", "addr:city": "SAINT CHARLES", "addr:country": "US", "addr:postcode": "42453", "addr:state": "KY", "addr:street_address": "6205 NORTONVILLE RD", "amenity": "post_box", "brand": "United States Postal Service", "brand:wikidata": "Q668687", "collection_times": "Mo-Fr 15:15; Sa 11:15", "note": "ON 12/24 AND 12/31, THIS BOX MAY BE COLLECTED AS EARLY AS 12 NOON.", "nsi_id": "unitedstatespostalservice-a77078", "operator": "United States Postal Service", "operator:short": "USPS", "operator:type": "public", "operator:wikidata": "Q668687", "ref": "4245300000"}, "type": "Feature"}
{"geometry": {"coordinates": [-87.557336434, 37.182942832], "type": "Point"}, "id": "bXFgpFVQMMgIm5fqPNlkbrmZyok=", "properties": {"@source_uri": "https://tools.usps.com/UspsToolsRestServices/rest/POLocator/findLocations", "@spider": "usps_collection_boxes", "addr:city": "SAINT CHARLES", "addr:country": "US", "addr:postcode": "42453", "addr:state": "KY", "addr:street_address": "6205 NORTONVILLE RD", "amenity": "post_box", "brand": "United States Postal Service", "brand:wikidata": "Q668687", "collection_times": "Mo-Fr 15:45; Sa 11:45", "indoor": "yes", "note": "ON 12/24 AND 12/31, THIS BOX MAY BE COLLECTED AS EARLY AS 12 NOON.", "nsi_id": "unitedstatespostalservice-a77078", "operator": "United States Postal Service", "operator:short": "USPS", "operator:type": "public", "operator:wikidata": "Q668687", "ref": "4245300003"}, "type": "Feature"}
{"geometry": {"coordinates": [-87.532637848, 37.60745312], "type": "Point"}, "id": "kvxAqeJ3pKop9ayZdJ5a7EEJy4U=", "properties": {"@source_uri": "https://tools.usps.com/UspsToolsRestServices/rest/POLocator/findLocations", "@spider": "usps_collection_boxes", "addr:city": "SEBREE", "addr:country": "US", "addr:postcode": "42455", "addr:state": "KY", "addr:street_address": "32 WATKINS SEBREE RD", "amenity": "post_box", "brand": "United States Postal Service", "brand:wikidata": "Q668687", "collection_times": "Mo-Fr 15:45; Sa 10:15", "note": "ON 12/24 AND 12/31, THIS BOX MAY BE COLLECTED AS EARLY AS 12 NOON.", "nsi_id": "unitedstatespostalservice-a77078", "operator": "United States Postal Service", "operator:short": "USPS", "operator:type": "public", "operator:wikidata": "Q668687", "ref": "4245500000"}, "type": "Feature"}
{"geometry": {"coordinates": [-87.532637848, 37.60745312], "type": "Point"}, "id": "zbspa7jZEbMNKOWJ6bzA4ZkWt7o=", "properties": {"@source_uri": "https://tools.usps.com/UspsToolsRestServices/rest/POLocator/findLocations", "@spider": "usps_collection_boxes", "addr:city": "SEBREE", "addr:country": "US", "addr:postcode": "42455", "addr:state": "KY", "addr:street_address": "32 WATKINS SEBREE RD", "amenity": "post_box", "brand": "United States Postal Service", "brand:wikidata": "Q668687", "collection_times": "Mo-Fr 15:45; Sa 10:15", "indoor": "yes", "note": "ON 12/24 AND 12/31, THIS BOX MAY BE COLLECTED AS EARLY AS 12 NOON.", "nsi_id": "unitedstatespostalservice-a77078", "operator": "United States Postal Service", "operator:short": "USPS", "operator:type": "public", "operator:wikidata": "Q668687", "ref": "4245500001"}, "type": "Feature"}
{"geometry": {"coordinates": [-87.532637848, 37.60745312], "type": "Point"}, "id": "ebOzVECiZm_K6LGfZXxZgemHDwI=", "properties": {"@source_uri": "https://tools.usps.com/UspsToolsRestServices/rest/POLocator/findLocations", "@spider": "usps_collection_boxes", "addr:city": "SEBREE", "addr:country": "US", "addr:postcode": "42455", "addr:state": "KY", "addr:street_address": "32 WATKINS SEBREE RD", "amenity": "post_box", "brand": "United States Postal Service", "brand:wikidata": "Q668687", "collection_times": "Mo-Fr 15:45; Sa 10:15", "indoor": "yes", "note": "ON 12/24 AND 12/31, THIS BOX MAY BE COLLECTED AS EARLY AS 12 NOON.", "nsi_id": "unitedstatespostalservice-a77078", "operator": "United States Postal Service", "operator:short": "USPS", "operator:type": "public", "operator:wikidata": "Q668687", "ref": "4245500003"}, "type": "Feature"}
{"geometry": {"coordinates": [-87.532637848, 37.60745312], "type": "Point"}, "id": "OKB-UVUYjWG4u3ICOogjWD0J1Cs=", "properties": {"@source_uri": "https://tools.usps.com/UspsToolsRestServices/rest/POLocator/findLocations", "@spider": "usps_collection_boxes", "addr:city": "SEBREE", "addr:country": "US", "addr:postcode": "42455", "addr:state": "KY", "addr:street_address": "32 WATKINS SEBREE RD", "amenity": "post_box", "brand": "United States Postal Service", "brand:wikidata": "Q668687", "collection_times": "Mo-Fr 16:00; Sa 10:30", "indoor": "yes", "note": "ON 12/24 AND 12/31, THIS BOX MAY BE COLLECTED AS EARLY AS 12 NOON.", "nsi_id": "unitedstatespostalservice-a77078", "operator": "United States Postal Service", "operator:short": "USPS", "operator:type": "public", "operator:wikidata": "Q668687", "ref": "4245500006"}, "type": "Feature"}
{"geometry": {"coordinates": [-87.50266738, 37.488665642], "type": "Point"}, "id": "98buSdh6YSKY7ApLYjeYugM7SvM=", "properties": {"@source_uri": "https://tools.usps.com/UspsToolsRestServices/rest/POLocator/findLocations", "@spider": "usps_collection_boxes", "addr:city": "SLAUGHTERS", "addr:country": "US", "addr:postcode": "42456", "addr:state": "KY", "addr:street_address": "15452 STATE ROUTE 120 E", "amenity": "post_box", "brand": "United States Postal Service", "brand:wikidata": "Q668687", "collection_times": "Mo-Fr 15:45; Sa 10:00", "note": "ON 12/24 AND 12/31, THIS BOX MAY BE COLLECTED AS EARLY AS 12 NOON.", "nsi_id": "unitedstatespostalservice-a77078", "operator": "United States Postal Service", "operator:short": "USPS", "operator:type": "public", "operator:wikidata": "Q668687", "ref": "4245600000"}, "type": "Feature"}
{"geometry": {"coordinates": [-87.50266738, 37.488665642], "type": "Point"}, "id": "1WX6EulhB7FIow7TKkaGEwKINvI=", "properties": {"@source_uri": "https://tools.usps.com/UspsToolsRestServices/rest/POLocator/findLocations", "@spider": "usps_collection_boxes", "addr:city": "SLAUGHTERS", "addr:country": "US", "addr:postcode": "42456", "addr:state": "KY", "addr:street_address": "15452 STATE ROUTE 120 E", "amenity": "post_box", "brand": "United States Postal Service", "brand:wikidata": "Q668687", "collection_times": "Mo-Fr 16:00; Sa 10:00", "indoor": "yes", "note": "ON 12/24 AND 12/31, THIS BOX MAY BE COLLECTED AS EARLY AS 12 NOON.", "nsi_id": "unitedstatespostalservice-a77078", "operator": "United States Postal Service", "operator:short": "USPS", "operator:type": "public", "operator:wikidata": "Q668687", "ref": "4245600001"}, "type": "Feature"}
{"geometry": {"coordinates": [-87.76176167, 37.798515098], "type": "Point"}, "id": "RZgqoPbbMn-Wzr0JDfn6eafHx8I=", "properties": {"@source_uri": "https://tools.usps.com/UspsToolsRestServices/rest/POLocator/findLocations", "@spider": "usps_collection_boxes", "addr:city": "SMITH MILLS", "addr:country": "US", "addr:postcode": "42457", "addr:state": "KY", "addr:street_address": "6161 STATE ROUTE 136 W", "amenity": "post_box", "brand": "United States Postal Service", "brand:wikidata": "Q668687", "collection_times": "Mo-Sa 11:00", "nsi_id": "unitedstatespostalservice-a77078", "operator": "United States Postal Service", "operator:short": "USPS", "operator:type": "public", "operator:wikidata": "Q668687", "ref": "4245700000"}, "type": "Feature"}
{"geometry": {"coordinates": [-87.76176167, 37.798515098], "type": "Point"}, "id": "Nol-w3Wbyq3f-Jt3E6aesemu3kY=", "properties": {"@source_uri": "https://tools.usps.com/UspsToolsRestServices/rest/POLocator/findLocations", "@spider": "usps_collection_boxes", "addr:city": "SMITH MILLS", "addr:country": "US", "addr:postcode": "42457", "addr:state": "KY", "addr:street_address": "6161 STATE ROUTE 136 W", "amenity": "post_box", "brand": "United States Postal Service", "brand:wikidata": "Q668687", "collection_times": "Mo-Sa 11:00", "indoor": "yes", "nsi_id": "unitedstatespostalservice-a77078", "operator": "United States Postal Service", "operator:short": "USPS", "operator:type": "public", "operator:wikidata": "Q668687", "ref": "4245700001"}, "type": "Feature"}
{"geometry": {"coordinates": [-87.76176167, 37.798515098], "type": "Point"}, "id": "wPTHCru6WpAHEWu9IZ4gWcSiNwA=", "properties": {"@source_uri": "https://tools.usps.com/UspsToolsRestServices/rest/POLocator/findLocations", "@spider": "usps_collection_boxes", "addr:city": "SMITH MILLS", "addr:country": "US", "addr:postcode": "42457", "addr:state": "KY", "addr:street_address": "6161 STATE ROUTE 136 W", "amenity": "post_box", "brand": "United States Postal Service", "brand:wikidata": "Q668687", "collection_times": "Mo-Sa 11:00", "indoor": "yes", "nsi_id": "unitedstatespostalservice-a77078", "operator": "United States Postal Service", "operator:short": "USPS", "operator:type": "public", "operator:wikidata": "Q668687", "ref": "4245700003"}, "type": "Feature"}
{"geometry": {"coordinates": [-87.414890072, 37.859452554], "type": "Point"}, "id": "hffGM7hNo7lG7CWIUH3k4G2MEPA=", "properties": {"@source_uri": "https://tools.usps.com/UspsToolsRestServices/rest/POLocator/findLocations", "@spider": "usps_collection_boxes", "addr:city": "SPOTTSVILLE", "addr:country": "US", "addr:postcode": "42458", "addr:state": "KY", "addr:street_address": "1003 MULBERRY ST", "amenity": "post_box", "brand": "United States Postal Service", "brand:wikidata": "Q668687", "collection_times": "Mo-Fr 15:45; Sa 10:15", "note": "ON 12/24 AND 12/31, THIS BOX MAY BE COLLECTED AS EARLY AS 12 NOON.", "nsi_id": "unitedstatespostalservice-a77078", "operator": "United States Postal Service", "operator:short": "USPS", "operator:type": "public", "operator:wikidata": "Q668687", "ref": "4245800000"}, "type": "Feature"}
{"geometry": {"coordinates": [-87.4274518, 37.8606295], "type": "Point"}, "id": "eJEQ0oa8haZp-ATgdfh2qan-wuc=", "properties": {"@source_uri": "https://tools.usps.com/UspsToolsRestServices/rest/POLocator/findLocations", "@spider": "usps_collection_boxes", "addr:city": "SPOTTSVILLE", "addr:country": "US", "addr:postcode": "42458", "addr:state": "KY", "addr:street_address": "1003 MULBERRY ST", "amenity": "post_box", "brand": "United States Postal Service", "brand:wikidata": "Q668687", "collection_times": "Mo-Fr 15:45; Sa 10:15", "indoor": "yes", "note": "ON 12/24 AND 12/31, THIS BOX MAY BE COLLECTED AS EARLY AS 12 NOON.", "nsi_id": "unitedstatespostalservice-a77078", "operator": "United States Postal Service", "operator:short": "USPS", "operator:type": "public", "operator:wikidata": "Q668687", "ref": "4245800001"}, "type": "Feature"}
{"geometry": {"coordinates": [-87.4274518, 37.8606295], "type": "Point"}, "id": "tcYj7BzOmR9oclKVITO5A7rbI9I=", "properties": {"@source_uri": "https://tools.usps.com/UspsToolsRestServices/rest/POLocator/findLocations", "@spider": "usps_collection_boxes", "addr:city": "SPOTTSVILLE", "addr:country": "US", "addr:postcode": "42458", "addr:state": "KY", "addr:street_address": "1003 MULBERRY ST", "amenity": "post_box", "brand": "United States Postal Service", "brand:wikidata": "Q668687", "collection_times": "Mo-Fr 16:00; Sa 10:15", "indoor": "yes", "note": "ON 12/24 AND 12/31, THIS BOX MAY BE COLLECTED AS EARLY AS 12 NOON.", "nsi_id": "unitedstatespostalservice-a77078", "operator": "United States Postal Service", "operator:short": "USPS", "operator:type": "public", "operator:wikidata": "Q668687", "ref": "4245800003"}, "type": "Feature"}
{"geometry": {"coordinates": [-87.984174266, 37.544923697], "type": "Point"}, "id": "tyTYr4p6u2yw6NhBw4Pu-2EBZJE=", "properties": {"@source_uri": "https://tools.usps.com/UspsToolsRestServices/rest/POLocator/findLocations", "@spider": "usps_collection_boxes", "addr:city": "STURGIS", "addr:country": "US", "addr:postcode": "42459", "addr:state": "KY", "addr:street_address": "409 N MAIN ST", "amenity": "post_box", "brand": "United States Postal Service", "brand:wikidata": "Q668687", "collection_times": "Mo-Fr 15:45; Sa 12:00", "indoor": "yes", "note": "ON 12/24 AND 12/31, THIS BOX MAY BE COLLECTED AS EARLY AS 12 NOON.", "nsi_id": "unitedstatespostalservice-a77078", "operator": "United States Postal Service", "operator:short": "USPS", "operator:type": "public", "operator:wikidata": "Q668687", "ref": "4245900011"}, "type": "Feature"}
{"geometry": {"coordinates": [-87.984174266, 37.544923697], "type": "Point"}, "id": "z40-3Eb1LxNqzrnEOxGSQxRvcvI=", "properties": {"@source_uri": "https://tools.usps.com/UspsToolsRestServices/rest/POLocator/findLocations", "@spider": "usps_collection_boxes", "addr:city": "STURGIS", "addr:country": "US", "addr:postcode": "42459", "addr:state": "KY", "addr:street_address": "409 N MAIN ST", "amenity": "post_box", "brand": "United States Postal Service", "brand:wikidata": "Q668687", "collection_times": "Mo-Fr 15:45; Sa 12:00", "note": "ON 12/24 AND 12/31, THIS BOX MAY BE COLLECTED AS EARLY AS 12 NOON.", "nsi_id": "unitedstatespostalservice-a77078", "operator": "United States Postal Service", "operator:short": "USPS", "operator:type": "public", "operator:wikidata": "Q668687", "ref": "4245900013"}, "type": "Feature"}
{"geometry": {"coordinates": [-87.984174266, 37.544923697], "type": "Point"}, "id": "nB6QK8U64O9Hrt23yzHUJUhM1cg=", "properties": {"@source_uri": "https://tools.usps.com/UspsToolsRestServices/rest/POLocator/findLocations", "@spider": "usps_collection_boxes", "addr:city": "STURGIS", "addr:country": "US", "addr:postcode": "42459", "addr:state": "KY", "addr:street_address": "409 N MAIN ST", "amenity": "post_box", "brand": "United States Postal Service", "brand:wikidata": "Q668687", "collection_times": "Mo-Fr 16:00; Sa 11:00", "indoor": "yes", "note": "ON 12/24 AND 12/31, THIS BOX MAY BE COLLECTED AS EARLY AS 12 NOON.", "nsi_id": "unitedstatespostalservice-a77078", "operator": "United States Postal Service", "operator:short": "USPS", "operator:type": "public", "operator:wikidata": "Q668687", "ref": "4245900015"}, "type": "Feature"}
{"geometry": {"coordinates": [-88.003859304, 37.55020627], "type": "Point"}, "id": "Fplk-E7JTjd6GgbIhHtvAS5dMCM=", "properties": {"@source_uri": "https://tools.usps.com/UspsToolsRestServices/rest/POLocator/findLocations", "@spider": "usps_collection_boxes", "addr:city": "SULLIVAN", "addr:country": "US", "addr:postcode": "42460", "addr:state": "KY", "addr:street_address": "16470 STATE ROUTE 109", "amenity": "post_box", "brand": "United States Postal Service", "brand:wikidata": "Q668687", "collection_times": "Mo-Fr 13:00; Sa 10:00", "note": "ON 12/24 AND 12/31, THIS BOX MAY BE COLLECTED AS EARLY AS 12 NOON.", "nsi_id": "unitedstatespostalservice-a77078", "operator": "United States Postal Service", "operator:short": "USPS", "operator:type": "public", "operator:wikidata": "Q668687", "ref": "4246000000"}, "type": "Feature"}
{"geometry": {"coordinates": [-88.003859304, 37.55020627], "type": "Point"}, "id": "fLi99ZAU8QRBCp4qwgLHMHNEmXQ=", "properties": {"@source_uri": "https://tools.usps.com/UspsToolsRestServices/rest/POLocator/findLocations", "@spider": "usps_collection_boxes", "addr:city": "SULLIVAN", "addr:country": "US", "addr:postcode": "42460", "addr:state": "KY", "addr:street_address": "16470 STATE ROUTE 109", "amenity": "post_box", "brand": "United States Postal Service", "brand:wikidata": "Q668687", "collection_times": "Mo-Fr 13:00; Sa 10:00", "indoor": "yes", "note": "ON 12/24 AND 12/31, THIS BOX MAY BE COLLECTED AS EARLY AS 12 NOON.", "nsi_id": "unitedstatespostalservice-a77078", "operator": "United States Postal Service", "operator:short": "USPS", "operator:type": "public", "operator:wikidata": "Q668687", "ref": "4246000001"}, "type": "Feature"}
{"geometry": {"coordinates": [-88.003859304, 37.55020627], "type": "Point"}, "id": "YUvL6sUeYemnf_xefmUHNwMbMDM=", "properties": {"@source_uri": "https://tools.usps.com/UspsToolsRestServices/rest/POLocator/findLocations", "@spider": "usps_collection_boxes", "addr:city": "SULLIVAN", "addr:country": "US", "addr:postcode": "42460", "addr:state": "KY", "addr:street_address": "16470 STATE ROUTE 109", "amenity": "post_box", "brand": "United States Postal Service", "brand:wikidata": "Q668687", "collection_times": "Mo-Fr 13:00; Sa 10:00", "indoor": "yes", "note": "ON 12/24 AND 12/31, THIS BOX MAY BE COLLECTED AS EARLY AS 12 NOON.", "nsi_id": "unitedstatespostalservice-a77078", "operator": "United States Postal Service", "operator:short": "USPS", "operator:type": "public", "operator:wikidata": "Q668687", "ref": "4246000003"}, "type": "Feature"}
{"geometry": {"coordinates": [-87.935691674, 37.772156639], "type": "Point"}, "id": "eX76GiH2vqZyPX2tT-MzYRiya6w=", "properties": {"@source_uri": "https://tools.usps.com/UspsToolsRestServices/rest/POLocator/findLocations", "@spider": "usps_collection_boxes", "addr:city": "UNIONTOWN", "addr:country": "US", "addr:postcode": "42461", "addr:state": "KY", "addr:street_address": "223 MAIN ST", "amenity": "post_box", "brand": "United States Postal Service", "brand:wikidata": "Q668687", "collection_times": "Mo-Fr 15:45; Sa 12:45", "note": "ON 12/24 AND 12/31, THIS BOX MAY BE COLLECTED AS EARLY AS 12 NOON.", "nsi_id": "unitedstatespostalservice-a77078", "operator": "United States Postal Service", "operator:short": "USPS", "operator:type": "public", "operator:wikidata": "Q668687", "ref": "4246100000"}, "type": "Feature"}
{"geometry": {"coordinates": [-87.935691674, 37.772156639], "type": "Point"}, "id": "HorHzOUI7DmhobqTkQquHAZvv0A=", "properties": {"@source_uri": "https://tools.usps.com/UspsToolsRestServices/rest/POLocator/findLocations", "@spider": "usps_collection_boxes", "addr:city": "UNIONTOWN", "addr:country": "US", "addr:postcode": "42461", "addr:state": "KY", "addr:street_address": "223 MAIN ST", "amenity": "post_box", "brand": "United States Postal Service", "brand:wikidata": "Q668687", "collection_times": "Mo-Fr 15:45; Sa 12:45", "indoor": "yes", "note": "ON 12/24 AND 12/31, THIS BOX MAY BE COLLECTED AS EARLY AS 12 NOON.", "nsi_id": "unitedstatespostalservice-a77078", "operator": "United States Postal Service", "operator:short": "USPS", "operator:type": "public", "operator:wikidata": "Q668687", "ref": "4246100001"}, "type": "Feature"}
{"geometry": {"coordinates": [-87.9360138, 37.771473], "type": "Point"}, "id": "Gr2UcZXDbb0yiA6d8sgGzVHHuJs=", "properties": {"@source_uri": "https://tools.usps.com/UspsToolsRestServices/rest/POLocator/findLocations", "@spider": "usps_collection_boxes", "addr:city": "UNIONTOWN", "addr:country": "US", "addr:postcode": "42461", "addr:state": "KY", "addr:street_address": "620 3RD ST", "amenity": "post_box", "brand": "United States Postal Service", "brand:wikidata": "Q668687", "collection_times": "Mo-Sa 11:00", "nsi_id": "unitedstatespostalservice-a77078", "operator": "United States Postal Service", "operator:short": "USPS", "operator:type": "public", "operator:wikidata": "Q668687", "ref": "4246100002"}, "type": "Feature"}
{"geometry": {"coordinates": [-87.935691674, 37.772156639], "type": "Point"}, "id": "YGeoAcvdnICG04CST4N-qsAfG5A=", "properties": {"@source_uri": "https://tools.usps.com/UspsToolsRestServices/rest/POLocator/findLocations", "@spider": "usps_collection_boxes", "addr:city": "UNIONTOWN", "addr:country": "US", "addr:postcode": "42461", "addr:state": "KY", "addr:street_address": "223 MAIN ST", "amenity": "post_box", "brand": "United States Postal Service", "brand:wikidata": "Q668687", "collection_times": "Mo-Fr 15:45; Sa 12:45", "indoor": "yes", "note": "ON 12/24 AND 12/31, THIS BOX MAY BE COLLECTED AS EARLY AS 12 NOON.", "nsi_id": "unitedstatespostalservice-a77078", "operator": "United States Postal Service", "operator:short": "USPS", "operator:type": "public", "operator:wikidata": "Q668687", "ref": "4246100004"}, "type": "Feature"}
{"geometry": {"coordinates": [-87.814493128, 37.708802729], "type": "Point"}, "id": "G-av8XOFZuOl-Q5sz58H1oBEBxk=", "properties": {"@source_uri": "https://tools.usps.com/UspsToolsRestServices/rest/POLocator/findLocations", "@spider": "usps_collection_boxes", "addr:city": "WAVERLY", "addr:country": "US", "addr:postcode": "42462", "addr:state": "KY", "addr:street_address": "124 N MAPLE ST", "amenity": "post_box", "brand": "United States Postal Service", "brand:wikidata": "Q668687", "collection_times": "Mo-Fr 13:45; Sa 10:00", "note": "ON 12/24 AND 12/31, THIS BOX MAY BE COLLECTED AS EARLY AS 12 NOON.", "nsi_id": "unitedstatespostalservice-a77078", "operator": "United States Postal Service", "operator:short": "USPS", "operator:type": "public", "operator:wikidata": "Q668687", "ref": "4246200000"}, "type": "Feature"}
{"geometry": {"coordinates": [-87.814493128, 37.708802729], "type": "Point"}, "id": "BWbsqm-dnALN5Y9xTjrynkWgJss=", "properties": {"@source_uri": "https://tools.usps.com/UspsToolsRestServices/rest/POLocator/findLocations", "@spider": "usps_collection_boxes", "addr:city": "WAVERLY", "addr:country": "US", "addr:postcode": "42462", "addr:state": "KY", "addr:street_address": "124 N MAPLE ST", "amenity": "post_box", "brand": "United States Postal Service", "brand:wikidata": "Q668687", "collection_times": "Mo-Fr 13:45; Sa 10:00", "note": "ON 12/24 AND 12/31, THIS BOX MAY BE COLLECTED AS EARLY AS 12 NOON.", "nsi_id": "unitedstatespostalservice-a77078", "operator": "United States Postal Service", "operator:short": "USPS", "operator:type": "public", "operator:wikidata": "Q668687", "ref": "4246200001"}, "type": "Feature"}
{"geometry": {"coordinates": [-87.814493128, 37.708802729], "type": "Point"}, "id": "qIk8rnUefGMTYrSgckbQ09yGsIg=", "properties": {"@source_uri": "https://tools.usps.com/UspsToolsRestServices/rest/POLocator/findLocations", "@spider": "usps_collection_boxes", "addr:city": "WAVERLY", "addr:country": "US", "addr:postcode": "42462", "addr:state": "KY", "addr:street_address": "124 N MAPLE ST", "amenity": "post_box", "brand": "United States Postal Service", "brand:wikidata": "Q668687", "collection_times": "Mo-Fr 14:00; Sa 12:00", "indoor": "yes", "note": "ON 12/24 AND 12/31, THIS BOX MAY BE COLLECTED AS EARLY AS 12 NOON.", "nsi_id": "unitedstatespostalservice-a77078", "operator": "United States Postal Service", "operator:short": "USPS", "operator:type": "public", "operator:wikidata": "Q668687", "ref": "4246200003"}, "type": "Feature"}
{"geometry": {"coordinates": [-87.863706681, 37.489460733], "type": "Point"}, "id": "jBbqSsUwKKq6DN3Vxhsi8zSwjjU=", "properties": {"@source_uri": "https://tools.usps.com/UspsToolsRestServices/rest/POLocator/findLocations", "@spider": "usps_collection_boxes", "addr:city": "WHEATCROFT", "addr:country": "US", "addr:postcode": "42463", "addr:state": "KY", "addr:street_address": "18 E BROADWAY ST", "amenity": "post_box", "brand": "United States Postal Service", "brand:wikidata": "Q668687", "collection_times": "Mo-Fr 14:15; Sa 10:30", "note": "ON 12/24 AND 12/31, THIS BOX MAY BE COLLECTED AS EARLY AS 12 NOON.", "nsi_id": "unitedstatespostalservice-a77078", "operator": "United States Postal Service", "operator:short": "USPS", "operator:type": "public", "operator:wikidata": "Q668687", "ref": "4246300000"}, "type": "Feature"}
{"geometry": {"coordinates": [-87.863706681, 37.489460733], "type": "Point"}, "id": "YYIopjSrwdFKG-TbY60RbuiNnU4=", "properties": {"@source_uri": "https://tools.usps.com/UspsToolsRestServices/rest/POLocator/findLocations", "@spider": "usps_collection_boxes", "addr:city": "WHEATCROFT", "addr:country": "US", "addr:postcode": "42463", "addr:state": "KY", "addr:street_address": "18 E BROADWAY ST", "amenity": "post_box", "brand": "United States Postal Service", "brand:wikidata": "Q668687", "collection_times": "Mo-Fr 14:15; Sa 10:30", "indoor": "yes", "note": "ON 12/24 AND 12/31, THIS BOX MAY BE COLLECTED AS EARLY AS 12 NOON.", "nsi_id": "unitedstatespostalservice-a77078", "operator": "United States Postal Service", "operator:short": "USPS", "operator:type": "public", "operator:wikidata": "Q668687", "ref": "4246300001"}, "type": "Feature"}
{"geometry": {"coordinates": [-87.863706681, 37.489460733], "type": "Point"}, "id": "y_C8138HiQ5rq_EngGDJmQMUtgw=", "properties": {"@source_uri": "https://tools.usps.com/UspsToolsRestServices/rest/POLocator/findLocations", "@spider": "usps_collection_boxes", "addr:city": "WHEATCROFT", "addr:country": "US", "addr:postcode": "42463", "addr:state": "KY", "addr:street_address": "18 E BROADWAY ST", "amenity": "post_box", "brand": "United States Postal Service", "brand:wikidata": "Q668687", "collection_times": "Mo-Fr 16:00; Sa 13:00", "indoor": "yes", "note": "ON 12/24 AND 12/31, THIS BOX MAY BE COLLECTED AS EARLY AS 12 NOON.", "nsi_id": "unitedstatespostalservice-a77078", "operator": "United States Postal Service", "operator:short": "USPS", "operator:type": "public", "operator:wikidata": "Q668687", "ref": "4246300003"}, "type": "Feature"}
{"geometry": {"coordinates": [-87.383823767, 37.185688929], "type": "Point"}, "id": "bq6VurCa38d8s38s9Rks_OvISgA=", "properties": {"@source_uri": "https://tools.usps.com/UspsToolsRestServices/rest/POLocator/findLocations", "@spider": "usps_collection_boxes", "addr:city": "WHITEPLAINS", "addr:country": "US", "addr:postcode": "42464", "addr:state": "KY", "addr:street_address": "123 S BOB BRUCE DR", "amenity": "post_box", "brand": "United States Postal Service", "brand:wikidata": "Q668687", "collection_times": "Mo-Fr 15:30; Sa 10:30", "note": "ON 12/24 AND 12/31, THIS BOX MAY BE COLLECTED AS EARLY AS 12 NOON.", "nsi_id": "unitedstatespostalservice-a77078", "operator": "United States Postal Service", "operator:short": "USPS", "operator:type": "public", "operator:wikidata": "Q668687", "ref": "4246400000"}, "type": "Feature"}
{"geometry": {"coordinates": [-87.383823767, 37.185688929], "type": "Point"}, "id": "JLyLVBKVzLj2rcNVbh_RVo1Awyo=", "properties": {"@source_uri": "https://tools.usps.com/UspsToolsRestServices/rest/POLocator/findLocations", "@spider": "usps_collection_boxes", "addr:city": "WHITEPLAINS", "addr:country": "US", "addr:postcode": "42464", "addr:state": "KY", "addr:street_address": "123 S BOB BRUCE DR", "amenity": "post_box", "brand": "United States Postal Service", "brand:wikidata": "Q668687", "collection_times": "Mo-Fr 15:30; Sa 10:30", "indoor": "yes", "note": "ON 12/24 AND 12/31, THIS BOX MAY BE COLLECTED AS EARLY AS 12 NOON.", "nsi_id": "unitedstatespostalservice-a77078", "operator": "United States Postal Service", "operator:short": "USPS", "operator:type": "public", "operator:wikidata": "Q668687", "ref": "4246400001"}, "type": "Feature"}
{"geometry": {"coordinates": [-87.383823767, 37.185688929], "type": "Point"}, "id": "vWbCrb93o7qhVbo11mPF3uehAx4=", "properties": {"@source_uri": "https://tools.usps.com/UspsToolsRestServices/rest/POLocator/findLocations", "@spider": "usps_collection_boxes", "addr:city": "WHITEPLAINS", "addr:country": "US", "addr:postcode": "42464", "addr:state": "KY", "addr:street_address": "123 S BOB BRUCE DR", "amenity": "post_box", "brand": "United States Postal Service", "brand:wikidata": "Q668687", "collection_times": "Mo-Fr 15:30; Sa 09:30", "indoor": "yes", "note": "ON 12/24 AND 12/31, THIS BOX MAY BE COLLECTED AS EARLY AS 12 NOON.", "nsi_id": "unitedstatespostalservice-a77078", "operator": "United States Postal Service", "operator:short": "USPS", "operator:type": "public", "operator:wikidata": "Q668687", "ref": "4246400003"}, "type": "Feature"}
