{"geometry": {"coordinates": [-85.008780828, 37.198855699], "type": "Point"}, "id": "mlBlEZV6hCvCj1rZc2hW1TDmlDQ=", "properties": {"@spider": "usps_collection_boxes", "addr:city": "DUNNVILLE", "addr:country": "US", "addr:full": "10765 S US 127", "addr:postcode": "42528", "addr:state": "KY", "brand": "USPS", "collection_times": "Mo-Fr 15:00; Sa 11:00", "name": "USPS COLLECTION BOX - BLUE BOX", "note": "ON 12/24 AND 12/31, THIS BOX MAY BE COLLECTED AS EARLY AS 12 NOON.", "ref": "4252800000"}, "type": "Feature"}
{"geometry": {"coordinates": [-85.008780828, 37.198855699], "type": "Point"}, "id": "6n6uagj24i8XPgjtlZRkB6iyZrw=", "properties": {"@spider": "usps_collection_boxes", "addr:city": "DUNNVILLE", "addr:country": "US", "addr:full": "10765 S US 127", "addr:postcode": "42528", "addr:state": "KY", "brand": "USPS", "collection_times": "Mo-Fr 15:00; Sa 11:00", "name": "USPS COLLECTION BOX - PO LOBBY", "note": "ON 12/24 AND 12/31, THIS BOX MAY BE COLLECTED AS EARLY AS 12 NOON.", "ref": "4252800001"}, "type": "Feature"}
{"geometry": {"coordinates": [-85.008780828, 37.198855699], "type": "Point"}, "id": "8W1Xlaa0kmvHEBXckSEzJKbV6Os=", "properties": {"@spider": "usps_collection_boxes", "addr:city": "DUNNVILLE", "addr:country": "US", "addr:full": "10765 S US 127", "addr:postcode": "42528", "addr:state": "KY", "brand": "USPS", "collection_times": "Mo-Fr 15:00; Sa 11:00", "name": "USPS COLLECTION BOX - PO LOBBY", "note": "ON 12/24 AND 12/31, THIS BOX MAY BE COLLECTED AS EARLY AS 12 NOON.", "ref": "4252800003"}, "type": "Feature"}
{"geometry": {"coordinates": [-84.939305848, 37.318514313], "type": "Point"}, "id": "8VPeKYpKT1xneHEFCqcUYOXM-a4=", "properties": {"@spider": "usps_collection_boxes", "addr:city": "LIBERTY", "addr:country": "US", "addr:full": "56 HUSTONVILLE ST", "addr:postcode": "42539", "addr:state": "KY", "brand": "USPS", "collection_times": "Mo-Sa 15:30", "name": "USPS COLLECTION BOX - BLUE BOX", "note": "ON 12/24 AND 12/31, THIS BOX MAY BE COLLECTED AS EARLY AS 12 NOON.", "ref": "4253900000"}, "type": "Feature"}
{"geometry": {"coordinates": [-84.9286774, 37.317873], "type": "Point"}, "id": "NZISDKgc87BLL5eO9JAxilpTD88=", "properties": {"@spider": "usps_collection_boxes", "addr:city": "LIBERTY", "addr:country": "US", "addr:full": "21 LIBERTY SQ", "addr:postcode": "42539", "addr:state": "KY", "brand": "USPS", "collection_times": "Mo-Sa 13:15", "name": "USPS COLLECTION BOX - BLUE BOX", "note": "ON 12/24 AND 12/31, THIS BOX MAY BE COLLECTED AS EARLY AS 12 NOON.", "ref": "4253900001"}, "type": "Feature"}
{"geometry": {"coordinates": [-84.939305848, 37.318514313], "type": "Point"}, "id": "jLtpG0aBjckzzU2rLrBHCJRT9tw=", "properties": {"@spider": "usps_collection_boxes", "addr:city": "LIBERTY", "addr:country": "US", "addr:full": "56 HUSTONVILLE ST", "addr:postcode": "42539", "addr:state": "KY", "brand": "USPS", "collection_times": "Mo-Fr 16:00; Sa 15:30", "name": "USPS COLLECTION BOX - PO LOBBY", "note": "ON 12/24 AND 12/31, THIS BOX MAY BE COLLECTED AS EARLY AS 12 NOON.", "ref": "4253900004"}, "type": "Feature"}
{"geometry": {"coordinates": [-84.939305848, 37.318514313], "type": "Point"}, "id": "sEmp923niVIOzFEf7_z0VGMVmGI=", "properties": {"@spider": "usps_collection_boxes", "addr:city": "LIBERTY", "addr:country": "US", "addr:full": "56 HUSTONVILLE ST", "addr:postcode": "42539", "addr:state": "KY", "brand": "USPS", "collection_times": "Mo-Fr 16:00; Sa 12:00", "name": "USPS COLLECTION BOX - PO LOBBY", "note": "ON 12/24 AND 12/31, THIS BOX MAY BE COLLECTED AS EARLY AS 12 NOON.", "ref": "4253900008"}, "type": "Feature"}
{"geometry": {"coordinates": [-84.942302126, 37.118493356], "type": "Point"}, "id": "SMUbqEyDPAYD5kc1e7oKSxnfcW4=", "properties": {"@spider": "usps_collection_boxes", "addr:city": "WINDSOR", "addr:country": "US", "addr:full": "3593 KY 80", "addr:postcode": "42565", "addr:state": "KY", "brand": "USPS", "collection_times": "Mo-Sa 10:00", "name": "USPS COLLECTION BOX - BLUE BOX", "ref": "4256500000"}, "type": "Feature"}
{"geometry": {"coordinates": [-84.942302126, 37.118493356], "type": "Point"}, "id": "2IJLQVSXDyHlemUY5QhMZPr5j5c=", "properties": {"@spider": "usps_collection_boxes", "addr:city": "WINDSOR", "addr:country": "US", "addr:full": "3593 KY 80", "addr:postcode": "42565", "addr:state": "KY", "brand": "USPS", "collection_times": "Mo-Sa 12:00", "name": "USPS COLLECTION BOX - PO LOBBY", "ref": "4256500001"}, "type": "Feature"}
