{"geometry": {"coordinates": [-85.135604342, 36.693130254], "type": "Point"}, "id": "eOcDLnfSpG3uGUj-53G3g92wFRI=", "properties": {"@spider": "usps_collection_boxes", "addr:city": "ALBANY", "addr:country": "US", "addr:full": "401 N CROSS ST", "addr:postcode": "42602", "addr:state": "KY", "brand": "USPS", "collection_times": "Mo-Fr 15:35; Sa 11:00", "name": "USPS COLLECTION BOX - PO LOBBY", "note": "ON 12/24 AND 12/31, THIS BOX MAY BE COLLECTED AS EARLY AS 12 NOON.", "ref": "4260200000"}, "type": "Feature"}
{"geometry": {"coordinates": [-85.1358273, 36.693016], "type": "Point"}, "id": "q4lI9YdCtui2eMWaCeLgOLff26A=", "properties": {"@spider": "usps_collection_boxes", "addr:city": "ALBANY", "addr:country": "US", "addr:full": "401 N CROSS ST", "addr:postcode": "42602", "addr:state": "KY", "brand": "USPS", "collection_times": "Mo-Fr 15:35; Sa 11:00", "name": "USPS COLLECTION BOX - BLUE BOX", "note": "ON 12/24 AND 12/31, THIS BOX MAY BE COLLECTED AS EARLY AS 12 NOON.", "ref": "4260200001"}, "type": "Feature"}
{"geometry": {"coordinates": [-85.1439874, 36.698786], "type": "Point"}, "id": "mBPWsni7rtx6AGXHvbD4sfDEYWc=", "properties": {"@spider": "usps_collection_boxes", "addr:city": "ALBANY", "addr:country": "US", "addr:full": "120 WESTVIEW SHOPPING CTR", "addr:postcode": "42602", "addr:state": "KY", "brand": "USPS", "collection_times": "Mo-Sa 11:00", "name": "USPS COLLECTION BOX - BLUE BOX", "ref": "4260200003"}, "type": "Feature"}
{"geometry": {"coordinates": [-85.1350656, 36.690173], "type": "Point"}, "id": "M1Z4FYU9Fvr3dpnXto1F2Y12V_U=", "properties": {"@spider": "usps_collection_boxes", "addr:city": "ALBANY", "addr:country": "US", "addr:full": "200 S WASHINGTON ST", "addr:postcode": "42602", "addr:state": "KY", "brand": "USPS", "collection_times": "Mo-Sa 11:00", "name": "USPS COLLECTION BOX - BLUE BOX", "ref": "4260200004"}, "type": "Feature"}
{"geometry": {"coordinates": [-85.1358303, 36.693015], "type": "Point"}, "id": "u5zL0YWBCgrOfHjsqT7dZ3xuSS8=", "properties": {"@spider": "usps_collection_boxes", "addr:city": "ALBANY", "addr:country": "US", "addr:full": "401 N CROSS ST", "addr:postcode": "42602", "addr:state": "KY", "brand": "USPS", "collection_times": "Mo-Fr 15:35; Sa 11:00", "name": "USPS COLLECTION BOX - PO LOBBY", "note": "ON 12/24 AND 12/31, THIS BOX MAY BE COLLECTED AS EARLY AS 12 NOON.", "ref": "4260200008"}, "type": "Feature"}
{"geometry": {"coordinates": [-85.1356043422, 36.6931212537], "type": "Point"}, "id": "8D9G_MD1YV4kIfHox4LrRoJ6vWc=", "properties": {"@spider": "usps_collection_boxes", "addr:city": "ALBANY", "addr:country": "US", "addr:full": "401 N CROSS ST", "addr:postcode": "42602", "addr:state": "KY", "brand": "USPS", "collection_times": "Mo-Fr 16:00; Sa 12:00", "name": "USPS COLLECTION BOX - PO LOBBY", "note": "ON 12/24 AND 12/31, THIS BOX MAY BE COLLECTED AS EARLY AS 12 NOON.", "ref": "4260200010"}, "type": "Feature"}
{"geometry": {"coordinates": [-84.999835428, 36.768729804], "type": "Point"}, "id": "cMAuHqFYJNcLYN9c9EBkhD3drEM=", "properties": {"@spider": "usps_collection_boxes", "addr:city": "ALPHA", "addr:country": "US", "addr:full": "234 OLD HAPPY TOP RD", "addr:postcode": "42603", "addr:state": "KY", "brand": "USPS", "collection_times": "Mo-Sa 12:00", "name": "USPS COLLECTION BOX - BLUE BOX", "ref": "4260300000"}, "type": "Feature"}
{"geometry": {"coordinates": [-84.999835428, 36.768729804], "type": "Point"}, "id": "KanLfhbMCMG6bzdPSB6P9l5dHFc=", "properties": {"@spider": "usps_collection_boxes", "addr:city": "ALPHA", "addr:country": "US", "addr:full": "234 OLD HAPPY TOP RD", "addr:postcode": "42603", "addr:state": "KY", "brand": "USPS", "collection_times": "Mo-Sa 12:00", "name": "USPS COLLECTION BOX - PO LOBBY", "ref": "4260300001"}, "type": "Feature"}
{"geometry": {"coordinates": [-84.999835428, 36.768729804], "type": "Point"}, "id": "5eypBruq_yXDp0yiHG4vuJB21kU=", "properties": {"@spider": "usps_collection_boxes", "addr:city": "ALPHA", "addr:country": "US", "addr:full": "234 OLD HAPPY TOP RD", "addr:postcode": "42603", "addr:state": "KY", "brand": "USPS", "collection_times": "Mo-Sa 12:00", "name": "USPS COLLECTION BOX - PO LOBBY", "ref": "4260300003"}, "type": "Feature"}
{"geometry": {"coordinates": [-85.068934437, 36.993407299], "type": "Point"}, "id": "RSr2O3xJ-g2T-vIEQIlpWaXwqEU=", "properties": {"@spider": "usps_collection_boxes", "addr:city": "JAMESTOWN", "addr:country": "US", "addr:full": "66 FAIR OAKS DR", "addr:postcode": "42629", "addr:state": "KY", "brand": "USPS", "collection_times": "Mo-Fr 15:30; Sa 12:00", "name": "USPS COLLECTION BOX - BLUE BOX", "note": "ON 12/24 AND 12/31, THIS BOX MAY BE COLLECTED AS EARLY AS 12 NOON.", "ref": "4262900000"}, "type": "Feature"}
{"geometry": {"coordinates": [-85.0626913, 36.984088], "type": "Point"}, "id": "K-rLBJ1DF8ZrXUhjF8jISBz1BiA=", "properties": {"@spider": "usps_collection_boxes", "addr:city": "JAMESTOWN", "addr:country": "US", "addr:full": "410 MONUMENT SQ", "addr:postcode": "42629", "addr:state": "KY", "brand": "USPS", "collection_times": "Mo-Sa 13:30", "name": "USPS COLLECTION BOX - BLUE BOX", "note": "ON 12/24 AND 12/31, THIS BOX MAY BE COLLECTED AS EARLY AS 12 NOON.", "ref": "4262900004"}, "type": "Feature"}
{"geometry": {"coordinates": [-85.068934437, 36.993407299], "type": "Point"}, "id": "RnVF2NJ2a59WUldQR0GHEFYAICo=", "properties": {"@spider": "usps_collection_boxes", "addr:city": "JAMESTOWN", "addr:country": "US", "addr:full": "66 FAIR OAKS DR", "addr:postcode": "42629", "addr:state": "KY", "brand": "USPS", "collection_times": "Mo-Fr 15:45; Sa 12:00", "name": "USPS COLLECTION BOX - PO LOBBY", "note": "ON 12/24 AND 12/31, THIS BOX MAY BE COLLECTED AS EARLY AS 12 NOON.", "ref": "4262900005"}, "type": "Feature"}
{"geometry": {"coordinates": [-85.068934437, 36.993407299], "type": "Point"}, "id": "T-gJsMZzUXQ3K05Frp15JgCSYcE=", "properties": {"@spider": "usps_collection_boxes", "addr:city": "JAMESTOWN", "addr:country": "US", "addr:full": "66 FAIR OAKS DR", "addr:postcode": "42629", "addr:state": "KY", "brand": "USPS", "collection_times": "Mo-Fr 15:30", "name": "USPS COLLECTION BOX - PO LOBBY", "note": "ON 12/24 AND 12/31, THIS BOX MAY BE COLLECTED AS EARLY AS 12 NOON.", "ref": "4262900007"}, "type": "Feature"}
{"geometry": {"coordinates": [-84.8344265, 36.847235], "type": "Point"}, "id": "GfjJHBsfT0ZMxzhpf9FRteXRNGc=", "properties": {"@spider": "usps_collection_boxes", "addr:city": "MONTICELLO", "addr:country": "US", "addr:full": "1500 N MAIN ST", "addr:postcode": "42633", "addr:state": "KY", "brand": "USPS", "collection_times": "Mo-Sa 09:15", "name": "USPS COLLECTION BOX - BLUE BOX", "ref": "4263300001"}, "type": "Feature"}
{"geometry": {"coordinates": [-84.8489581, 36.856289], "type": "Point"}, "id": "xTowCQ_2989h4AgG8qjQU2xCaPQ=", "properties": {"@spider": "usps_collection_boxes", "addr:city": "MONTICELLO", "addr:country": "US", "addr:full": "75 WALMART PLAZA DR", "addr:postcode": "42633", "addr:state": "KY", "brand": "USPS", "collection_times": "Mo-Sa 10:00", "name": "USPS COLLECTION BOX - BLUE BOX", "ref": "4263300003"}, "type": "Feature"}
{"geometry": {"coordinates": [-84.8449086, 36.858422], "type": "Point"}, "id": "ALDQMg_nitO9HPXZRMQtG9ne68A=", "properties": {"@spider": "usps_collection_boxes", "addr:city": "MONTICELLO", "addr:country": "US", "addr:full": "203 CUMBERLAND XING", "addr:postcode": "42633", "addr:state": "KY", "brand": "USPS", "collection_times": "Mo-Sa 10:00", "name": "USPS COLLECTION BOX - BLUE BOX", "ref": "4263300005"}, "type": "Feature"}
{"geometry": {"coordinates": [-84.8482184, 36.857588], "type": "Point"}, "id": "x6uwAyuDL_tRG7ehD1uCK96RP2Q=", "properties": {"@spider": "usps_collection_boxes", "addr:city": "MONTICELLO", "addr:country": "US", "addr:full": "175 WALMART PLAZA DR", "addr:postcode": "42633", "addr:state": "KY", "brand": "USPS", "collection_times": "Mo-Sa 10:00", "name": "USPS COLLECTION BOX - BLUE BOX", "ref": "4263300013"}, "type": "Feature"}
{"geometry": {"coordinates": [-84.8389908, 36.844461], "type": "Point"}, "id": "lrBIC3dS1MNRoj1UKruwfKg9e1A=", "properties": {"@spider": "usps_collection_boxes", "addr:city": "MONTICELLO", "addr:country": "US", "addr:full": "1215 N MAIN ST", "addr:postcode": "42633", "addr:state": "KY", "brand": "USPS", "collection_times": "Mo-Sa 09:00", "name": "USPS COLLECTION BOX - BLUE BOX", "ref": "4263300016"}, "type": "Feature"}
{"geometry": {"coordinates": [-84.845528937, 36.855225752], "type": "Point"}, "id": "a21BLObxBPp5JrvfWJNM-zcelrg=", "properties": {"@spider": "usps_collection_boxes", "addr:city": "MONTICELLO", "addr:country": "US", "addr:full": "65 BARNES DR", "addr:postcode": "42633", "addr:state": "KY", "brand": "USPS", "collection_times": "Mo-Fr 16:00; Sa 12:00", "name": "USPS COLLECTION BOX - PO LOBBY", "note": "ON 12/24 AND 12/31, THIS BOX MAY BE COLLECTED AS EARLY AS 12 NOON.", "ref": "4263300018"}, "type": "Feature"}
{"geometry": {"coordinates": [-84.8488199, 36.830048], "type": "Point"}, "id": "PCF6prnE-9g2G45U-c9RD9OITLU=", "properties": {"@spider": "usps_collection_boxes", "addr:city": "MONTICELLO", "addr:country": "US", "addr:full": "55 N MAIN ST", "addr:postcode": "42633", "addr:state": "KY", "brand": "USPS", "collection_times": "Mo-Sa 10:00", "name": "USPS COLLECTION BOX - BLUE BOX", "ref": "4263300020"}, "type": "Feature"}
{"geometry": {"coordinates": [-84.8347365, 36.847929], "type": "Point"}, "id": "CO1IaDm77F33sweeEwaXL_ttW2U=", "properties": {"@spider": "usps_collection_boxes", "addr:city": "MONTICELLO", "addr:country": "US", "addr:full": "1520 N MAIN ST", "addr:postcode": "42633", "addr:state": "KY", "brand": "USPS", "collection_times": "Mo-Sa 09:15", "name": "USPS COLLECTION BOX - BLUE BOX", "ref": "4263300022"}, "type": "Feature"}
{"geometry": {"coordinates": [-84.845528937, 36.855225752], "type": "Point"}, "id": "muyCeuZuBBko4ZLmzESfQf0YoTM=", "properties": {"@spider": "usps_collection_boxes", "addr:city": "MONTICELLO", "addr:country": "US", "addr:full": "65 BARNES DR", "addr:postcode": "42633", "addr:state": "KY", "brand": "USPS", "collection_times": "Mo-Fr 15:30; Sa 12:00", "name": "USPS COLLECTION BOX - BLUE BOX", "note": "ON 12/24 AND 12/31, THIS BOX MAY BE COLLECTED AS EARLY AS 12 NOON.", "ref": "4263300024"}, "type": "Feature"}
{"geometry": {"coordinates": [-84.845528937, 36.855225752], "type": "Point"}, "id": "GrlbUEqH3bXbB_9aqzPUAqh3LaQ=", "properties": {"@spider": "usps_collection_boxes", "addr:city": "MONTICELLO", "addr:country": "US", "addr:full": "65 BARNES DR", "addr:postcode": "42633", "addr:state": "KY", "brand": "USPS", "collection_times": "Mo-Fr 16:00; Sa 12:00", "name": "USPS COLLECTION BOX - PO LOBBY", "note": "ON 12/24 AND 12/31, THIS BOX MAY BE COLLECTED AS EARLY AS 12 NOON.", "ref": "4263300026"}, "type": "Feature"}
{"geometry": {"coordinates": [-84.431462, 36.669002], "type": "Point"}, "id": "i6PUfIf0okBM77iwasI9_Of4j6A=", "properties": {"@spider": "usps_collection_boxes", "addr:city": "PINE KNOT", "addr:country": "US", "addr:full": "625 E HIGHWAY 92", "addr:postcode": "42635", "addr:state": "KY", "brand": "USPS", "collection_times": "Mo-Fr 15:30; Sa 11:30", "name": "USPS COLLECTION BOX - BLUE BOX", "note": "ON 12/24 AND 12/31, THIS BOX MAY BE COLLECTED AS EARLY AS 12 NOON.", "ref": "4263500000"}, "type": "Feature"}
{"geometry": {"coordinates": [-84.431418, 36.668999], "type": "Point"}, "id": "fcuMdLM8KsrVbW6Vyzq408Zmacs=", "properties": {"@spider": "usps_collection_boxes", "addr:city": "PINE KNOT", "addr:country": "US", "addr:full": "625 E HIGHWAY 92", "addr:postcode": "42635", "addr:state": "KY", "brand": "USPS", "collection_times": "Mo-Fr 15:30; Sa 11:30", "name": "USPS COLLECTION BOX - PO LOBBY", "note": "ON 12/24 AND 12/31, THIS BOX MAY BE COLLECTED AS EARLY AS 12 NOON.", "ref": "4263500002"}, "type": "Feature"}
{"geometry": {"coordinates": [-84.431473527, 36.66903175], "type": "Point"}, "id": "6V-sqsbykM6ChyTsfgS0jFadbaA=", "properties": {"@spider": "usps_collection_boxes", "addr:city": "PINE KNOT", "addr:country": "US", "addr:full": "625 E HIGHWAY 2792", "addr:postcode": "42635", "addr:state": "KY", "brand": "USPS", "collection_times": "Mo-Fr 15:30; Sa 11:30", "name": "USPS COLLECTION BOX - PO LOBBY", "note": "ON 12/24 AND 12/31, THIS BOX MAY BE COLLECTED AS EARLY AS 12 NOON.", "ref": "4263500004"}, "type": "Feature"}
{"geometry": {"coordinates": [-85.08539586, 37.057787886], "type": "Point"}, "id": "wyWXgpP-O1latu_xL6Grel3P5FA=", "properties": {"@spider": "usps_collection_boxes", "addr:city": "RUSSELL SPRINGS", "addr:country": "US", "addr:full": "414 MAIN ST", "addr:postcode": "42642", "addr:state": "KY", "brand": "USPS", "collection_times": "Mo-Fr 15:45; Sa 13:30", "name": "USPS COLLECTION BOX - BLUE BOX", "note": "ON 12/24 AND 12/31, THIS BOX MAY BE COLLECTED AS EARLY AS 12 NOON.", "ref": "4264200000"}, "type": "Feature"}
{"geometry": {"coordinates": [-85.08539586, 37.057787886], "type": "Point"}, "id": "zRIi9zGoiCqY1lSfaH663rngXQA=", "properties": {"@spider": "usps_collection_boxes", "addr:city": "RUSSELL SPRINGS", "addr:country": "US", "addr:full": "414 MAIN ST", "addr:postcode": "42642", "addr:state": "KY", "brand": "USPS", "collection_times": "Mo-Fr 15:45; Sa 13:30", "name": "USPS COLLECTION BOX - PO LOBBY", "note": "ON 12/24 AND 12/31, THIS BOX MAY BE COLLECTED AS EARLY AS 12 NOON.", "ref": "4264200003"}, "type": "Feature"}
{"geometry": {"coordinates": [-85.08539586, 37.057787886], "type": "Point"}, "id": "DpePd93IwzdPbwmlsVzCCwkVhLI=", "properties": {"@spider": "usps_collection_boxes", "addr:city": "RUSSELL SPRINGS", "addr:country": "US", "addr:full": "414 MAIN ST", "addr:postcode": "42642", "addr:state": "KY", "brand": "USPS", "collection_times": "Mo-Fr 15:45; Sa 12:00", "name": "USPS COLLECTION BOX - PO LOBBY", "note": "ON 12/24 AND 12/31, THIS BOX MAY BE COLLECTED AS EARLY AS 12 NOON.", "ref": "4264200007"}, "type": "Feature"}
{"geometry": {"coordinates": [-84.485870785, 36.703666107], "type": "Point"}, "id": "9ocHqK7IbHlLQTjOBG2mIjrB1Ng=", "properties": {"@spider": "usps_collection_boxes", "addr:city": "STEARNS", "addr:country": "US", "addr:full": "2539 S HIGHWAY 1651", "addr:postcode": "42647", "addr:state": "KY", "brand": "USPS", "collection_times": "Mo-Fr 16:00; Sa 12:00", "name": "USPS COLLECTION BOX - BLUE BOX", "note": "ON 12/24 AND 12/31, THIS BOX MAY BE COLLECTED AS EARLY AS 12 NOON.", "ref": "4264700000"}, "type": "Feature"}
{"geometry": {"coordinates": [-84.485870785, 36.703666107], "type": "Point"}, "id": "UUJJFyp4FhZog7GaAJuQ9Poy0G0=", "properties": {"@spider": "usps_collection_boxes", "addr:city": "STEARNS", "addr:country": "US", "addr:full": "2539 S HIGHWAY 1651", "addr:postcode": "42647", "addr:state": "KY", "brand": "USPS", "collection_times": "Mo-Fr 16:00; Sa 12:00", "name": "USPS COLLECTION BOX - PO LOBBY", "note": "ON 12/24 AND 12/31, THIS BOX MAY BE COLLECTED AS EARLY AS 12 NOON.", "ref": "4264700001"}, "type": "Feature"}
{"geometry": {"coordinates": [-84.485870785, 36.703666107], "type": "Point"}, "id": "-lXwpSWHksFxojNbKEi9f_f6pLo=", "properties": {"@spider": "usps_collection_boxes", "addr:city": "STEARNS", "addr:country": "US", "addr:full": "2539 S HIGHWAY 1651", "addr:postcode": "42647", "addr:state": "KY", "brand": "USPS", "collection_times": "Mo-Fr 16:00; Sa 12:00", "name": "USPS COLLECTION BOX - PO LOBBY", "note": "ON 12/24 AND 12/31, THIS BOX MAY BE COLLECTED AS EARLY AS 12 NOON.", "ref": "4264700003"}, "type": "Feature"}
