{"dataset_attributes": {"@spider": "usps_collection_boxes", "spider:collection_time": "2023-11-28T08:25:58.546046"}, "geometry": {"coordinates": [-85.8393444, 37.711845], "type": "Point"}, "id": "yugVD2zg9ISYL4cM34FlBzhQoS4=", "properties": {"@spider": "usps_collection_boxes", "addr:city": "ELIZABETHTOWN", "addr:country": "US", "addr:full": "3030 RING RD", "addr:postcode": "42701", "addr:state": "KY", "amenity": "post_box", "brand": "United States Postal Service", "brand:wikidata": "Q668687", "collection_times": "Mo-Sa 09:00", "name": "USPS COLLECTION BOX - BLUE BOX", "nsi_id": "unitedstatespostalservice-a77078", "operator": "United States Postal Service", "operator:short": "USPS", "operator:type": "public", "operator:wikidata": "Q668687", "ref": "4270100002"}, "type": "Feature"}
{"dataset_attributes": {"@spider": "usps_collection_boxes", "spider:collection_time": "2023-11-28T08:25:58.546046"}, "geometry": {"coordinates": [-85.878363, 37.730286], "type": "Point"}, "id": "RmWEpjnuYXaiHXl9Nfarsd3aQsE=", "properties": {"@spider": "usps_collection_boxes", "addr:city": "ELIZABETHTOWN", "addr:country": "US", "addr:full": "1650 RING RD", "addr:postcode": "42701", "addr:state": "KY", "amenity": "post_box", "brand": "United States Postal Service", "brand:wikidata": "Q668687", "collection_times": "Mo-Sa 09:00", "name": "USPS COLLECTION BOX - BLUE BOX", "nsi_id": "unitedstatespostalservice-a77078", "operator": "United States Postal Service", "operator:short": "USPS", "operator:type": "public", "operator:wikidata": "Q668687", "ref": "4270100009"}, "type": "Feature"}
{"dataset_attributes": {"@spider": "usps_collection_boxes", "spider:collection_time": "2023-11-28T08:25:58.546046"}, "geometry": {"coordinates": [-85.8641668, 37.697717], "type": "Point"}, "id": "o9bpC7w7pP8A5TN7WlDe7aQ-aX0=", "properties": {"@spider": "usps_collection_boxes", "addr:city": "ELIZABETHTOWN", "addr:country": "US", "addr:full": "325 W DIXIE AVE", "addr:postcode": "42701", "addr:state": "KY", "amenity": "post_box", "brand": "United States Postal Service", "brand:wikidata": "Q668687", "collection_times": "Mo-Sa 10:00", "name": "USPS COLLECTION BOX - BLUE BOX", "nsi_id": "unitedstatespostalservice-a77078", "operator": "United States Postal Service", "operator:short": "USPS", "operator:type": "public", "operator:wikidata": "Q668687", "ref": "4270100010"}, "type": "Feature"}
{"dataset_attributes": {"@spider": "usps_collection_boxes", "spider:collection_time": "2023-11-28T08:25:58.546046"}, "geometry": {"coordinates": [-85.866444, 37.699996], "type": "Point"}, "id": "QIBfNgCAIEVaUSrIZd_d_AovvCY=", "properties": {"@spider": "usps_collection_boxes", "addr:city": "ELIZABETHTOWN", "addr:country": "US", "addr:full": "425 W DIXIE AVE", "addr:postcode": "42701", "addr:state": "KY", "amenity": "post_box", "brand": "United States Postal Service", "brand:wikidata": "Q668687", "collection_times": "Mo-Sa 09:00", "name": "USPS COLLECTION BOX - BLUE BOX", "nsi_id": "unitedstatespostalservice-a77078", "operator": "United States Postal Service", "operator:short": "USPS", "operator:type": "public", "operator:wikidata": "Q668687", "ref": "4270100011"}, "type": "Feature"}
{"dataset_attributes": {"@spider": "usps_collection_boxes", "spider:collection_time": "2023-11-28T08:25:58.546046"}, "geometry": {"coordinates": [-85.8748643, 37.71049], "type": "Point"}, "id": "41Zbg79bL7NJFevtfjenD8CiM0A=", "properties": {"@spider": "usps_collection_boxes", "addr:city": "ELIZABETHTOWN", "addr:country": "US", "addr:full": "912 N DIXIE AVE", "addr:postcode": "42701", "addr:state": "KY", "amenity": "post_box", "brand": "United States Postal Service", "brand:wikidata": "Q668687", "collection_times": "Mo-Sa 09:00", "name": "USPS COLLECTION BOX - BLUE BOX", "nsi_id": "unitedstatespostalservice-a77078", "operator": "United States Postal Service", "operator:short": "USPS", "operator:type": "public", "operator:wikidata": "Q668687", "ref": "4270100013"}, "type": "Feature"}
{"dataset_attributes": {"@spider": "usps_collection_boxes", "spider:collection_time": "2023-11-28T08:25:58.546046"}, "geometry": {"coordinates": [-85.8890699, 37.736877], "type": "Point"}, "id": "bnL5yo4sHgSEQKYQw2W4aE2fDRI=", "properties": {"@spider": "usps_collection_boxes", "addr:city": "ELIZABETHTOWN", "addr:country": "US", "addr:full": "1830 N DIXIE HWY", "addr:postcode": "42701", "addr:state": "KY", "amenity": "post_box", "brand": "United States Postal Service", "brand:wikidata": "Q668687", "collection_times": "Mo-Sa 10:00", "name": "USPS COLLECTION BOX - BLUE BOX", "nsi_id": "unitedstatespostalservice-a77078", "operator": "United States Postal Service", "operator:short": "USPS", "operator:type": "public", "operator:wikidata": "Q668687", "ref": "4270100016"}, "type": "Feature"}
{"dataset_attributes": {"@spider": "usps_collection_boxes", "spider:collection_time": "2023-11-28T08:25:58.546046"}, "geometry": {"coordinates": [-85.8883837, 37.734586], "type": "Point"}, "id": "EDwxZaLX4qJ22FD4yy_UWH676_4=", "properties": {"@spider": "usps_collection_boxes", "addr:city": "ELIZABETHTOWN", "addr:country": "US", "addr:full": "111 TOWNE DR", "addr:postcode": "42701", "addr:state": "KY", "amenity": "post_box", "brand": "United States Postal Service", "brand:wikidata": "Q668687", "collection_times": "Mo-Sa 11:00", "name": "USPS COLLECTION BOX - BLUE BOX", "nsi_id": "unitedstatespostalservice-a77078", "operator": "United States Postal Service", "operator:short": "USPS", "operator:type": "public", "operator:wikidata": "Q668687", "ref": "4270100017"}, "type": "Feature"}
{"dataset_attributes": {"@spider": "usps_collection_boxes", "spider:collection_time": "2023-11-28T08:25:58.546046"}, "geometry": {"coordinates": [-85.8878124, 37.7311], "type": "Point"}, "id": "gkyALGp-avkRwiI4YdopLAq3i3M=", "properties": {"@spider": "usps_collection_boxes", "addr:city": "ELIZABETHTOWN", "addr:country": "US", "addr:full": "1704 N DIXIE HWY", "addr:postcode": "42701", "addr:state": "KY", "amenity": "post_box", "brand": "United States Postal Service", "brand:wikidata": "Q668687", "collection_times": "Mo-Sa 14:00", "name": "USPS COLLECTION BOX - BLUE BOX", "note": "ON 12/24 AND 12/31, THIS BOX MAY BE COLLECTED AS EARLY AS 12 NOON.", "nsi_id": "unitedstatespostalservice-a77078", "operator": "United States Postal Service", "operator:short": "USPS", "operator:type": "public", "operator:wikidata": "Q668687", "ref": "4270100019"}, "type": "Feature"}
{"dataset_attributes": {"@spider": "usps_collection_boxes", "spider:collection_time": "2023-11-28T08:25:58.546046"}, "geometry": {"coordinates": [-85.8746984, 37.708208], "type": "Point"}, "id": "96sTuh4ZgVYiiE-yhfgxD3FC-Q4=", "properties": {"@spider": "usps_collection_boxes", "addr:city": "ELIZABETHTOWN", "addr:country": "US", "addr:full": "805 N DIXIE AVE", "addr:postcode": "42701", "addr:state": "KY", "amenity": "post_box", "brand": "United States Postal Service", "brand:wikidata": "Q668687", "collection_times": "Mo-Sa 09:00", "name": "USPS COLLECTION BOX - BLUE BOX", "nsi_id": "unitedstatespostalservice-a77078", "operator": "United States Postal Service", "operator:short": "USPS", "operator:type": "public", "operator:wikidata": "Q668687", "ref": "4270100024"}, "type": "Feature"}
{"dataset_attributes": {"@spider": "usps_collection_boxes", "spider:collection_time": "2023-11-28T08:25:58.546046"}, "geometry": {"coordinates": [-85.8599919, 37.694011], "type": "Point"}, "id": "ZjY-6OlkPTsxYInGQzd5iMD5zuE=", "properties": {"@spider": "usps_collection_boxes", "addr:city": "ELIZABETHTOWN", "addr:country": "US", "addr:full": "202 W DIXIE AVE", "addr:postcode": "42701", "addr:state": "KY", "amenity": "post_box", "brand": "United States Postal Service", "brand:wikidata": "Q668687", "collection_times": "Mo-Sa 09:00", "name": "USPS COLLECTION BOX - BLUE BOX", "nsi_id": "unitedstatespostalservice-a77078", "operator": "United States Postal Service", "operator:short": "USPS", "operator:type": "public", "operator:wikidata": "Q668687", "ref": "4270100026"}, "type": "Feature"}
{"dataset_attributes": {"@spider": "usps_collection_boxes", "spider:collection_time": "2023-11-28T08:25:58.546046"}, "geometry": {"coordinates": [-85.8578179, 37.693386], "type": "Point"}, "id": "b03vtIoGBNPh9JQUuEFj2K3UEos=", "properties": {"@spider": "usps_collection_boxes", "addr:city": "ELIZABETHTOWN", "addr:country": "US", "addr:full": "23 PUBLIC SQ", "addr:postcode": "42701", "addr:state": "KY", "amenity": "post_box", "brand": "United States Postal Service", "brand:wikidata": "Q668687", "collection_times": "Mo-Sa 09:30", "name": "USPS COLLECTION BOX - BLUE BOX", "nsi_id": "unitedstatespostalservice-a77078", "operator": "United States Postal Service", "operator:short": "USPS", "operator:type": "public", "operator:wikidata": "Q668687", "ref": "4270100027"}, "type": "Feature"}
{"dataset_attributes": {"@spider": "usps_collection_boxes", "spider:collection_time": "2023-11-28T08:25:58.546046"}, "geometry": {"coordinates": [-85.8585585, 37.69306], "type": "Point"}, "id": "ZoGKpzTdg3rxzSSXuNkPXrxjN5s=", "properties": {"@spider": "usps_collection_boxes", "addr:city": "ELIZABETHTOWN", "addr:country": "US", "addr:full": "57 PUBLIC SQ", "addr:postcode": "42701", "addr:state": "KY", "amenity": "post_box", "brand": "United States Postal Service", "brand:wikidata": "Q668687", "collection_times": "Mo-Sa 09:30", "name": "USPS COLLECTION BOX - BLUE BOX", "nsi_id": "unitedstatespostalservice-a77078", "operator": "United States Postal Service", "operator:short": "USPS", "operator:type": "public", "operator:wikidata": "Q668687", "ref": "4270100029"}, "type": "Feature"}
{"dataset_attributes": {"@spider": "usps_collection_boxes", "spider:collection_time": "2023-11-28T08:25:58.546046"}, "geometry": {"coordinates": [-85.837377928, 37.714387383], "type": "Point"}, "id": "Pc8hk3Z_ZxcoPQ0lANeZW1vaZUk=", "properties": {"@spider": "usps_collection_boxes", "addr:city": "ELIZABETHTOWN", "addr:country": "US", "addr:full": "2934 DOLPHIN DR", "addr:postcode": "42701", "addr:state": "KY", "amenity": "post_box", "brand": "United States Postal Service", "brand:wikidata": "Q668687", "collection_times": "Mo-Sa 17:30", "name": "USPS COLLECTION BOX - BLUE BOX", "note": "ON 12/24 AND 12/31, THIS BOX MAY BE COLLECTED AS EARLY AS 12 NOON.", "nsi_id": "unitedstatespostalservice-a77078", "operator": "United States Postal Service", "operator:short": "USPS", "operator:type": "public", "operator:wikidata": "Q668687", "ref": "4270100041"}, "type": "Feature"}
{"dataset_attributes": {"@spider": "usps_collection_boxes", "spider:collection_time": "2023-11-28T08:25:58.546046"}, "geometry": {"coordinates": [-85.8436605, 37.707117], "type": "Point"}, "id": "0jpcCBxWssRt_W728DftK7GNvMs=", "properties": {"@spider": "usps_collection_boxes", "addr:city": "ELIZABETHTOWN", "addr:country": "US", "addr:full": "916 N MULBERRY ST", "addr:postcode": "42701", "addr:state": "KY", "amenity": "post_box", "brand": "United States Postal Service", "brand:wikidata": "Q668687", "collection_times": "Mo-Sa 08:30", "name": "USPS COLLECTION BOX - BLUE BOX", "nsi_id": "unitedstatespostalservice-a77078", "operator": "United States Postal Service", "operator:short": "USPS", "operator:type": "public", "operator:wikidata": "Q668687", "ref": "4270100042"}, "type": "Feature"}
{"dataset_attributes": {"@spider": "usps_collection_boxes", "spider:collection_time": "2023-11-28T08:25:58.546046"}, "geometry": {"coordinates": [-85.8614257, 37.691595], "type": "Point"}, "id": "8hculuS6eTfX1N1hqzsZdHJeGVY=", "properties": {"@spider": "usps_collection_boxes", "addr:city": "ELIZABETHTOWN", "addr:country": "US", "addr:full": "217 S MULBERRY ST", "addr:postcode": "42701", "addr:state": "KY", "amenity": "post_box", "brand": "United States Postal Service", "brand:wikidata": "Q668687", "collection_times": "Mo-Sa 09:30", "name": "USPS COLLECTION BOX - BLUE BOX", "nsi_id": "unitedstatespostalservice-a77078", "operator": "United States Postal Service", "operator:short": "USPS", "operator:type": "public", "operator:wikidata": "Q668687", "ref": "4270100045"}, "type": "Feature"}
{"dataset_attributes": {"@spider": "usps_collection_boxes", "spider:collection_time": "2023-11-28T08:25:58.546046"}, "geometry": {"coordinates": [-85.8574359, 37.692472], "type": "Point"}, "id": "NLhLp8Lk26589fQ36NbcnH17zAE=", "properties": {"@spider": "usps_collection_boxes", "addr:city": "ELIZABETHTOWN", "addr:country": "US", "addr:full": "120 E DIXIE AVE", "addr:postcode": "42701", "addr:state": "KY", "amenity": "post_box", "brand": "United States Postal Service", "brand:wikidata": "Q668687", "collection_times": "Mo-Sa 09:00", "name": "USPS COLLECTION BOX - BLUE BOX", "nsi_id": "unitedstatespostalservice-a77078", "operator": "United States Postal Service", "operator:short": "USPS", "operator:type": "public", "operator:wikidata": "Q668687", "ref": "4270100046"}, "type": "Feature"}
{"dataset_attributes": {"@spider": "usps_collection_boxes", "spider:collection_time": "2023-11-28T08:25:58.546046"}, "geometry": {"coordinates": [-85.8834501538, 37.7212479245], "type": "Point"}, "id": "8DSorxncBboe76l0E5ftjSbOOIs=", "properties": {"@spider": "usps_collection_boxes", "addr:city": "ELIZABETHTOWN", "addr:country": "US", "addr:full": "1239 WOODLAND DR", "addr:postcode": "42701", "addr:state": "KY", "amenity": "post_box", "brand": "United States Postal Service", "brand:wikidata": "Q668687", "collection_times": "Mo-Sa 11:00", "name": "USPS COLLECTION BOX - BLUE BOX", "nsi_id": "unitedstatespostalservice-a77078", "operator": "United States Postal Service", "operator:short": "USPS", "operator:type": "public", "operator:wikidata": "Q668687", "ref": "4270100050"}, "type": "Feature"}
{"dataset_attributes": {"@spider": "usps_collection_boxes", "spider:collection_time": "2023-11-28T08:25:58.546046"}, "geometry": {"coordinates": [-85.8695669, 37.70518], "type": "Point"}, "id": "bt40nauzmUxaaxo5o5ut56iMr08=", "properties": {"@spider": "usps_collection_boxes", "addr:city": "ELIZABETHTOWN", "addr:country": "US", "addr:full": "611 W POPLAR ST", "addr:postcode": "42701", "addr:state": "KY", "amenity": "post_box", "brand": "United States Postal Service", "brand:wikidata": "Q668687", "collection_times": "Mo-Sa 09:00", "name": "USPS COLLECTION BOX - BLUE BOX", "nsi_id": "unitedstatespostalservice-a77078", "operator": "United States Postal Service", "operator:short": "USPS", "operator:type": "public", "operator:wikidata": "Q668687", "ref": "4270100051"}, "type": "Feature"}
{"dataset_attributes": {"@spider": "usps_collection_boxes", "spider:collection_time": "2023-11-28T08:25:58.546046"}, "geometry": {"coordinates": [-85.837383525, 37.714386897], "type": "Point"}, "id": "HbZmFuz6ziV_wKMeRCcIwduOHFk=", "properties": {"@spider": "usps_collection_boxes", "addr:city": "ELIZABETHTOWN", "addr:country": "US", "addr:full": "2934 DOLPHIN DR", "addr:postcode": "42701", "addr:state": "KY", "amenity": "post_box", "brand": "United States Postal Service", "brand:wikidata": "Q668687", "collection_times": "Mo-Sa 17:30", "name": "USPS COLLECTION BOX - PO LOBBY", "note": "ON 12/24 AND 12/31, THIS BOX MAY BE COLLECTED AS EARLY AS 12 NOON.", "nsi_id": "unitedstatespostalservice-a77078", "operator": "United States Postal Service", "operator:short": "USPS", "operator:type": "public", "operator:wikidata": "Q668687", "ref": "4270100052"}, "type": "Feature"}
{"dataset_attributes": {"@spider": "usps_collection_boxes", "spider:collection_time": "2023-11-28T08:25:58.546046"}, "geometry": {"coordinates": [-85.837383525, 37.714386897], "type": "Point"}, "id": "edBxPO9TmqyxBAmrcnztOKJabOM=", "properties": {"@spider": "usps_collection_boxes", "addr:city": "ELIZABETHTOWN", "addr:country": "US", "addr:full": "2934 DOLPHIN DR", "addr:postcode": "42701", "addr:state": "KY", "amenity": "post_box", "brand": "United States Postal Service", "brand:wikidata": "Q668687", "collection_times": "Mo-Sa 17:30", "name": "USPS COLLECTION BOX - PO LOBBY", "note": "ON 12/24 AND 12/31, THIS BOX MAY BE COLLECTED AS EARLY AS 12 NOON.", "nsi_id": "unitedstatespostalservice-a77078", "operator": "United States Postal Service", "operator:short": "USPS", "operator:type": "public", "operator:wikidata": "Q668687", "ref": "4270100053"}, "type": "Feature"}
{"dataset_attributes": {"@spider": "usps_collection_boxes", "spider:collection_time": "2023-11-28T08:25:58.546046"}, "geometry": {"coordinates": [-85.837383525, 37.714386897], "type": "Point"}, "id": "Vp3utBFWX32GUjcmN27T1jc2s6M=", "properties": {"@spider": "usps_collection_boxes", "addr:city": "ELIZABETHTOWN", "addr:country": "US", "addr:full": "2934 DOLPHIN DR", "addr:postcode": "42701", "addr:state": "KY", "amenity": "post_box", "brand": "United States Postal Service", "brand:wikidata": "Q668687", "collection_times": "Mo-Sa 17:30", "name": "USPS COLLECTION BOX - PO LOBBY", "note": "ON 12/24 AND 12/31, THIS BOX MAY BE COLLECTED AS EARLY AS 12 NOON.", "nsi_id": "unitedstatespostalservice-a77078", "operator": "United States Postal Service", "operator:short": "USPS", "operator:type": "public", "operator:wikidata": "Q668687", "ref": "4270100054"}, "type": "Feature"}
{"dataset_attributes": {"@spider": "usps_collection_boxes", "spider:collection_time": "2023-11-28T08:25:58.546046"}, "geometry": {"coordinates": [-85.8473635, 37.678972], "type": "Point"}, "id": "MiwDNvJSBLrVObIrpWVhvBsm-yY=", "properties": {"@spider": "usps_collection_boxes", "addr:city": "ELIZABETHTOWN", "addr:country": "US", "addr:full": "655 E DIXIE AVE", "addr:postcode": "42701", "addr:state": "KY", "amenity": "post_box", "brand": "United States Postal Service", "brand:wikidata": "Q668687", "collection_times": "Mo-Sa 11:00", "name": "USPS COLLECTION BOX - BLUE BOX", "nsi_id": "unitedstatespostalservice-a77078", "operator": "United States Postal Service", "operator:short": "USPS", "operator:type": "public", "operator:wikidata": "Q668687", "ref": "4270100055"}, "type": "Feature"}
{"dataset_attributes": {"@spider": "usps_collection_boxes", "spider:collection_time": "2023-11-28T08:25:58.546046"}, "geometry": {"coordinates": [-85.837383525, 37.714386897], "type": "Point"}, "id": "Rn7pvVAjT9wQb-0VFXBF_jEkSY8=", "properties": {"@spider": "usps_collection_boxes", "addr:city": "ELIZABETHTOWN", "addr:country": "US", "addr:full": "2934 DOLPHIN DR", "addr:postcode": "42701", "addr:state": "KY", "amenity": "post_box", "brand": "United States Postal Service", "brand:wikidata": "Q668687", "collection_times": "Mo-Sa 17:30", "name": "USPS COLLECTION BOX - APC", "note": "ON 12/24 AND 12/31, THIS BOX MAY BE COLLECTED AS EARLY AS 12 NOON.", "nsi_id": "unitedstatespostalservice-a77078", "operator": "United States Postal Service", "operator:short": "USPS", "operator:type": "public", "operator:wikidata": "Q668687", "ref": "4270100056"}, "type": "Feature"}
{"dataset_attributes": {"@spider": "usps_collection_boxes", "spider:collection_time": "2023-11-28T08:25:58.546046"}, "geometry": {"coordinates": [-85.8454738, 37.731354], "type": "Point"}, "id": "eLYQwy1CqpzzxbvbvzLtvUln_yg=", "properties": {"@spider": "usps_collection_boxes", "addr:city": "ELIZABETHTOWN", "addr:country": "US", "addr:full": "2415 RING RD", "addr:postcode": "42701", "addr:state": "KY", "amenity": "post_box", "brand": "United States Postal Service", "brand:wikidata": "Q668687", "collection_times": "Mo-Sa 16:00", "name": "USPS COLLECTION BOX - BLUE BOX", "note": "ON 12/24 AND 12/31, THIS BOX MAY BE COLLECTED AS EARLY AS 12 NOON.", "nsi_id": "unitedstatespostalservice-a77078", "operator": "United States Postal Service", "operator:short": "USPS", "operator:type": "public", "operator:wikidata": "Q668687", "ref": "4270100059"}, "type": "Feature"}
{"dataset_attributes": {"@spider": "usps_collection_boxes", "spider:collection_time": "2023-11-28T08:25:58.546046"}, "geometry": {"coordinates": [-85.8876267, 37.736149], "type": "Point"}, "id": "pd85EXUh6ib_KX6dvy1MQw40sqo=", "properties": {"@spider": "usps_collection_boxes", "addr:city": "ELIZABETHTOWN", "addr:country": "US", "addr:full": "1815 N DIXIE HWY STE 2", "addr:postcode": "42701", "addr:state": "KY", "amenity": "post_box", "brand": "United States Postal Service", "brand:wikidata": "Q668687", "collection_times": "Mo-Sa 16:00", "name": "USPS COLLECTION BOX - BLUE BOX", "note": "ON 12/24 AND 12/31, THIS BOX MAY BE COLLECTED AS EARLY AS 12 NOON.", "nsi_id": "unitedstatespostalservice-a77078", "operator": "United States Postal Service", "operator:short": "USPS", "operator:type": "public", "operator:wikidata": "Q668687", "ref": "4270100060"}, "type": "Feature"}
{"dataset_attributes": {"@spider": "usps_collection_boxes", "spider:collection_time": "2023-11-28T08:25:58.546046"}, "geometry": {"coordinates": [-85.837383525, 37.714386897], "type": "Point"}, "id": "0nh5_G2Ke3eOvyFI7t5fVSovXro=", "properties": {"@spider": "usps_collection_boxes", "addr:city": "ELIZABETHTOWN", "addr:country": "US", "addr:full": "2934 DOLPHIN DR", "addr:postcode": "42701", "addr:state": "KY", "amenity": "post_box", "brand": "United States Postal Service", "brand:wikidata": "Q668687", "collection_times": "Mo-Fr 17:30; Sa 13:00", "name": "USPS COLLECTION BOX - PO LOBBY", "note": "ON 12/24 AND 12/31, THIS BOX MAY BE COLLECTED AS EARLY AS 12 NOON.", "nsi_id": "unitedstatespostalservice-a77078", "operator": "United States Postal Service", "operator:short": "USPS", "operator:type": "public", "operator:wikidata": "Q668687", "ref": "4270100066"}, "type": "Feature"}
{"dataset_attributes": {"@spider": "usps_collection_boxes", "spider:collection_time": "2023-11-28T08:25:58.546046"}, "geometry": {"coordinates": [-86.158330617, 37.542117588], "type": "Point"}, "id": "vpSRGsmKVX_ih3K0rHBGRDUMG4s=", "properties": {"@spider": "usps_collection_boxes", "addr:city": "BIG CLIFTY", "addr:country": "US", "addr:full": "50 MAIN ST", "addr:postcode": "42712", "addr:state": "KY", "amenity": "post_box", "brand": "United States Postal Service", "brand:wikidata": "Q668687", "collection_times": "Mo-Fr 15:15; Sa 09:15", "name": "USPS COLLECTION BOX - BLUE BOX", "note": "ON 12/24 AND 12/31, THIS BOX MAY BE COLLECTED AS EARLY AS 12 NOON.", "nsi_id": "unitedstatespostalservice-a77078", "operator": "United States Postal Service", "operator:short": "USPS", "operator:type": "public", "operator:wikidata": "Q668687", "ref": "4271200000"}, "type": "Feature"}
{"dataset_attributes": {"@spider": "usps_collection_boxes", "spider:collection_time": "2023-11-28T08:25:58.546046"}, "geometry": {"coordinates": [-86.158330617, 37.542117588], "type": "Point"}, "id": "4ZIKVgjLNaIvApRutJyeC9XLwRg=", "properties": {"@spider": "usps_collection_boxes", "addr:city": "BIG CLIFTY", "addr:country": "US", "addr:full": "50 MAIN ST", "addr:postcode": "42712", "addr:state": "KY", "amenity": "post_box", "brand": "United States Postal Service", "brand:wikidata": "Q668687", "collection_times": "Mo-Fr 15:15; Sa 09:15", "name": "USPS COLLECTION BOX - PO LOBBY", "note": "ON 12/24 AND 12/31, THIS BOX MAY BE COLLECTED AS EARLY AS 12 NOON.", "nsi_id": "unitedstatespostalservice-a77078", "operator": "United States Postal Service", "operator:short": "USPS", "operator:type": "public", "operator:wikidata": "Q668687", "ref": "4271200001"}, "type": "Feature"}
{"dataset_attributes": {"@spider": "usps_collection_boxes", "spider:collection_time": "2023-11-28T08:25:58.546046"}, "geometry": {"coordinates": [-86.158330617, 37.542117588], "type": "Point"}, "id": "dHj2J-TXnAsGIouwOMnrFw30b2Q=", "properties": {"@spider": "usps_collection_boxes", "addr:city": "BIG CLIFTY", "addr:country": "US", "addr:full": "50 MAIN ST", "addr:postcode": "42712", "addr:state": "KY", "amenity": "post_box", "brand": "United States Postal Service", "brand:wikidata": "Q668687", "collection_times": "Mo-Fr 15:15; Sa 09:15", "name": "USPS COLLECTION BOX - PO LOBBY", "note": "ON 12/24 AND 12/31, THIS BOX MAY BE COLLECTED AS EARLY AS 12 NOON.", "nsi_id": "unitedstatespostalservice-a77078", "operator": "United States Postal Service", "operator:short": "USPS", "operator:type": "public", "operator:wikidata": "Q668687", "ref": "4271200003"}, "type": "Feature"}
{"dataset_attributes": {"@spider": "usps_collection_boxes", "spider:collection_time": "2023-11-28T08:25:58.546046"}, "geometry": {"coordinates": [-85.902942, 37.378406], "type": "Point"}, "id": "P32tp0hrNB-0iZC_yf-PUwzM_nM=", "properties": {"@spider": "usps_collection_boxes", "addr:city": "BONNIEVILLE", "addr:country": "US", "addr:full": "7692 N DIXIE HWY", "addr:postcode": "42713", "addr:state": "KY", "amenity": "post_box", "brand": "United States Postal Service", "brand:wikidata": "Q668687", "collection_times": "Mo-Fr 15:15; Sa 11:45", "name": "USPS COLLECTION BOX - BLUE BOX", "note": "ON 12/24 AND 12/31, THIS BOX MAY BE COLLECTED AS EARLY AS 12 NOON.", "nsi_id": "unitedstatespostalservice-a77078", "operator": "United States Postal Service", "operator:short": "USPS", "operator:type": "public", "operator:wikidata": "Q668687", "ref": "4271300000"}, "type": "Feature"}
{"dataset_attributes": {"@spider": "usps_collection_boxes", "spider:collection_time": "2023-11-28T08:25:58.546046"}, "geometry": {"coordinates": [-85.9029478178, 37.3784100344], "type": "Point"}, "id": "6GEoNLliLFw7OhxthZ-5rdXm5Pk=", "properties": {"@spider": "usps_collection_boxes", "addr:city": "BONNIEVILLE", "addr:country": "US", "addr:full": "7692 N DIXIE HWY", "addr:postcode": "42713", "addr:state": "KY", "amenity": "post_box", "brand": "United States Postal Service", "brand:wikidata": "Q668687", "collection_times": "Mo-Fr 15:15; Sa 11:45", "name": "USPS COLLECTION BOX - PO LOBBY", "note": "ON 12/24 AND 12/31, THIS BOX MAY BE COLLECTED AS EARLY AS 12 NOON.", "nsi_id": "unitedstatespostalservice-a77078", "operator": "United States Postal Service", "operator:short": "USPS", "operator:type": "public", "operator:wikidata": "Q668687", "ref": "4271300003"}, "type": "Feature"}
{"dataset_attributes": {"@spider": "usps_collection_boxes", "spider:collection_time": "2023-11-28T08:25:58.546046"}, "geometry": {"coordinates": [-85.436302534, 36.957635136], "type": "Point"}, "id": "kNc7INSlE5-maS2BZshcuiI4TGM=", "properties": {"@spider": "usps_collection_boxes", "addr:city": "BREEDING", "addr:country": "US", "addr:full": "35 POST OFFICE LN", "addr:postcode": "42715", "addr:state": "KY", "amenity": "post_box", "brand": "United States Postal Service", "brand:wikidata": "Q668687", "collection_times": "Mo-Fr 11:00; Sa 10:30", "name": "USPS COLLECTION BOX - BLUE BOX", "nsi_id": "unitedstatespostalservice-a77078", "operator": "United States Postal Service", "operator:short": "USPS", "operator:type": "public", "operator:wikidata": "Q668687", "ref": "4271500000"}, "type": "Feature"}
{"dataset_attributes": {"@spider": "usps_collection_boxes", "spider:collection_time": "2023-11-28T08:25:58.546046"}, "geometry": {"coordinates": [-85.436302534, 36.957635136], "type": "Point"}, "id": "OlzXH6IH47SMqH7kjz0U4V2kBfA=", "properties": {"@spider": "usps_collection_boxes", "addr:city": "BREEDING", "addr:country": "US", "addr:full": "35 POST OFFICE LN", "addr:postcode": "42715", "addr:state": "KY", "amenity": "post_box", "brand": "United States Postal Service", "brand:wikidata": "Q668687", "collection_times": "Mo-Fr 10:00; Sa 11:00", "name": "USPS COLLECTION BOX - PO LOBBY", "nsi_id": "unitedstatespostalservice-a77078", "operator": "United States Postal Service", "operator:short": "USPS", "operator:type": "public", "operator:wikidata": "Q668687", "ref": "4271500003"}, "type": "Feature"}
{"dataset_attributes": {"@spider": "usps_collection_boxes", "spider:collection_time": "2023-11-28T08:25:58.546046"}, "geometry": {"coordinates": [-85.699556232, 37.51368232], "type": "Point"}, "id": "m5xN2N6xcTT5P0KS-N0-m3Bhad4=", "properties": {"@spider": "usps_collection_boxes", "addr:city": "BUFFALO", "addr:country": "US", "addr:full": "2159 B GREENSBURG KY", "addr:postcode": "42716", "addr:state": "KY", "amenity": "post_box", "brand": "United States Postal Service", "brand:wikidata": "Q668687", "collection_times": "Mo-Fr 15:30; Sa 12:00", "name": "USPS COLLECTION BOX - BLUE BOX", "note": "ON 12/24 AND 12/31, THIS BOX MAY BE COLLECTED AS EARLY AS 12 NOON.", "nsi_id": "unitedstatespostalservice-a77078", "operator": "United States Postal Service", "operator:short": "USPS", "operator:type": "public", "operator:wikidata": "Q668687", "ref": "4271600002"}, "type": "Feature"}
{"dataset_attributes": {"@spider": "usps_collection_boxes", "spider:collection_time": "2023-11-28T08:25:58.546046"}, "geometry": {"coordinates": [-85.699959996, 37.513509997], "type": "Point"}, "id": "sd44TzOmTJuWGXGQb_V8CKB74N4=", "properties": {"@spider": "usps_collection_boxes", "addr:city": "BUFFALO", "addr:country": "US", "addr:full": "2159B GREENSBURG RD", "addr:postcode": "42716", "addr:state": "KY", "amenity": "post_box", "brand": "United States Postal Service", "brand:wikidata": "Q668687", "collection_times": "Mo-Fr 15:30; Sa 12:00", "name": "USPS COLLECTION BOX - PO LOBBY", "note": "ON 12/24 AND 12/31, THIS BOX MAY BE COLLECTED AS EARLY AS 12 NOON.", "nsi_id": "unitedstatespostalservice-a77078", "operator": "United States Postal Service", "operator:short": "USPS", "operator:type": "public", "operator:wikidata": "Q668687", "ref": "4271600003"}, "type": "Feature"}
{"dataset_attributes": {"@spider": "usps_collection_boxes", "spider:collection_time": "2023-11-28T08:25:58.546046"}, "geometry": {"coordinates": [-85.699959996, 37.513509997], "type": "Point"}, "id": "x-oLcUqqr4YQfG_c4LsLDaa3i8o=", "properties": {"@spider": "usps_collection_boxes", "addr:city": "BUFFALO", "addr:country": "US", "addr:full": "2159B GREENSBURG RD", "addr:postcode": "42716", "addr:state": "KY", "amenity": "post_box", "brand": "United States Postal Service", "brand:wikidata": "Q668687", "collection_times": "Mo-Fr 15:30; Sa 12:00", "name": "USPS COLLECTION BOX - PO LOBBY", "note": "ON 12/24 AND 12/31, THIS BOX MAY BE COLLECTED AS EARLY AS 12 NOON.", "nsi_id": "unitedstatespostalservice-a77078", "operator": "United States Postal Service", "operator:short": "USPS", "operator:type": "public", "operator:wikidata": "Q668687", "ref": "4271600004"}, "type": "Feature"}
{"dataset_attributes": {"@spider": "usps_collection_boxes", "spider:collection_time": "2023-11-28T08:25:58.546046"}, "geometry": {"coordinates": [-85.36973468, 36.790900222], "type": "Point"}, "id": "MyLMKSm6ccLuPGG2KAit8ZG8Jvg=", "properties": {"@spider": "usps_collection_boxes", "addr:city": "BURKESVILLE", "addr:country": "US", "addr:full": "120 N MAIN ST", "addr:postcode": "42717", "addr:state": "KY", "amenity": "post_box", "brand": "United States Postal Service", "brand:wikidata": "Q668687", "collection_times": "Mo-Fr 15:30; Sa 11:30", "name": "USPS COLLECTION BOX - BLUE BOX", "note": "ON 12/24 AND 12/31, THIS BOX MAY BE COLLECTED AS EARLY AS 12 NOON.", "nsi_id": "unitedstatespostalservice-a77078", "operator": "United States Postal Service", "operator:short": "USPS", "operator:type": "public", "operator:wikidata": "Q668687", "ref": "4271700001"}, "type": "Feature"}
{"dataset_attributes": {"@spider": "usps_collection_boxes", "spider:collection_time": "2023-11-28T08:25:58.546046"}, "geometry": {"coordinates": [-85.36973468, 36.790900222], "type": "Point"}, "id": "x64LVbB6m0lRAF7v9Bh-Mhrs_PU=", "properties": {"@spider": "usps_collection_boxes", "addr:city": "BURKESVILLE", "addr:country": "US", "addr:full": "120 N MAIN ST", "addr:postcode": "42717", "addr:state": "KY", "amenity": "post_box", "brand": "United States Postal Service", "brand:wikidata": "Q668687", "collection_times": "Mo-Fr 15:30; Sa 11:30", "name": "USPS COLLECTION BOX - PO LOBBY", "note": "ON 12/24 AND 12/31, THIS BOX MAY BE COLLECTED AS EARLY AS 12 NOON.", "nsi_id": "unitedstatespostalservice-a77078", "operator": "United States Postal Service", "operator:short": "USPS", "operator:type": "public", "operator:wikidata": "Q668687", "ref": "4271700002"}, "type": "Feature"}
{"dataset_attributes": {"@spider": "usps_collection_boxes", "spider:collection_time": "2023-11-28T08:25:58.546046"}, "geometry": {"coordinates": [-85.36973468, 36.790900222], "type": "Point"}, "id": "S5P9-U32Zva060ip28Vf_okRAFI=", "properties": {"@spider": "usps_collection_boxes", "addr:city": "BURKESVILLE", "addr:country": "US", "addr:full": "120 N MAIN ST", "addr:postcode": "42717", "addr:state": "KY", "amenity": "post_box", "brand": "United States Postal Service", "brand:wikidata": "Q668687", "collection_times": "Mo-Fr 15:45; Sa 11:30", "name": "USPS COLLECTION BOX - PO LOBBY", "note": "ON 12/24 AND 12/31, THIS BOX MAY BE COLLECTED AS EARLY AS 12 NOON.", "nsi_id": "unitedstatespostalservice-a77078", "operator": "United States Postal Service", "operator:short": "USPS", "operator:type": "public", "operator:wikidata": "Q668687", "ref": "4271700004"}, "type": "Feature"}
{"dataset_attributes": {"@spider": "usps_collection_boxes", "spider:collection_time": "2023-11-28T08:25:58.546046"}, "geometry": {"coordinates": [-85.3425712, 37.34239], "type": "Point"}, "id": "vPe-xolNF1WfICRHMoyclA7gSnA=", "properties": {"@spider": "usps_collection_boxes", "addr:city": "CAMPBELLSVILLE", "addr:country": "US", "addr:full": "321 E MAIN ST", "addr:postcode": "42718", "addr:state": "KY", "amenity": "post_box", "brand": "United States Postal Service", "brand:wikidata": "Q668687", "collection_times": "Mo-Sa 15:00", "name": "USPS COLLECTION BOX - BLUE BOX", "note": "ON 12/24 AND 12/31, THIS BOX MAY BE COLLECTED AS EARLY AS 12 NOON.", "nsi_id": "unitedstatespostalservice-a77078", "operator": "United States Postal Service", "operator:short": "USPS", "operator:type": "public", "operator:wikidata": "Q668687", "ref": "4271800000"}, "type": "Feature"}
{"dataset_attributes": {"@spider": "usps_collection_boxes", "spider:collection_time": "2023-11-28T08:25:58.546046"}, "geometry": {"coordinates": [-85.3656803, 37.341885], "type": "Point"}, "id": "KUggmasQ70R_31hziqVAOQcyDIE=", "properties": {"@spider": "usps_collection_boxes", "addr:city": "CAMPBELLSVILLE", "addr:country": "US", "addr:full": "399 CAMPBELLSVILLE BYP", "addr:postcode": "42718", "addr:state": "KY", "amenity": "post_box", "brand": "United States Postal Service", "brand:wikidata": "Q668687", "collection_times": "Mo-Sa 09:15", "name": "USPS COLLECTION BOX - BLUE BOX", "nsi_id": "unitedstatespostalservice-a77078", "operator": "United States Postal Service", "operator:short": "USPS", "operator:type": "public", "operator:wikidata": "Q668687", "ref": "4271800008"}, "type": "Feature"}
{"dataset_attributes": {"@spider": "usps_collection_boxes", "spider:collection_time": "2023-11-28T08:25:58.546046"}, "geometry": {"coordinates": [-85.3682775, 37.343125], "type": "Point"}, "id": "nkVinSwBcW_2jy2_-mMUbukR9LU=", "properties": {"@spider": "usps_collection_boxes", "addr:city": "CAMPBELLSVILLE", "addr:country": "US", "addr:full": "399 CAMPBELLSVILLE BYP", "addr:postcode": "42718", "addr:state": "KY", "amenity": "post_box", "brand": "United States Postal Service", "brand:wikidata": "Q668687", "collection_times": "Mo-Sa 09:15", "name": "USPS COLLECTION BOX - BLUE BOX", "nsi_id": "unitedstatespostalservice-a77078", "operator": "United States Postal Service", "operator:short": "USPS", "operator:type": "public", "operator:wikidata": "Q668687", "ref": "4271800009"}, "type": "Feature"}
{"dataset_attributes": {"@spider": "usps_collection_boxes", "spider:collection_time": "2023-11-28T08:25:58.546046"}, "geometry": {"coordinates": [-85.3425747, 37.342375], "type": "Point"}, "id": "w4VnYf_ZI77b4uWGdX84FYA-YTY=", "properties": {"@spider": "usps_collection_boxes", "addr:city": "CAMPBELLSVILLE", "addr:country": "US", "addr:full": "321 E MAIN ST", "addr:postcode": "42718", "addr:state": "KY", "amenity": "post_box", "brand": "United States Postal Service", "brand:wikidata": "Q668687", "collection_times": "Mo-Sa 15:00", "name": "USPS COLLECTION BOX - BLUE BOX", "note": "ON 12/24 AND 12/31, THIS BOX MAY BE COLLECTED AS EARLY AS 12 NOON.", "nsi_id": "unitedstatespostalservice-a77078", "operator": "United States Postal Service", "operator:short": "USPS", "operator:type": "public", "operator:wikidata": "Q668687", "ref": "4271800011"}, "type": "Feature"}
{"dataset_attributes": {"@spider": "usps_collection_boxes", "spider:collection_time": "2023-11-28T08:25:58.546046"}, "geometry": {"coordinates": [-85.329222806, 37.353569631], "type": "Point"}, "id": "lSbPfg1KFA-HRobrm43qQ3G-ugI=", "properties": {"@spider": "usps_collection_boxes", "addr:city": "CAMPBELLSVILLE", "addr:country": "US", "addr:full": "1410 E BROADWAY ST", "addr:postcode": "42718", "addr:state": "KY", "amenity": "post_box", "brand": "United States Postal Service", "brand:wikidata": "Q668687", "collection_times": "Mo-Sa 16:30", "name": "USPS COLLECTION BOX - PO LOBBY", "note": "ON 12/24 AND 12/31, THIS BOX MAY BE COLLECTED AS EARLY AS 12 NOON.", "nsi_id": "unitedstatespostalservice-a77078", "operator": "United States Postal Service", "operator:short": "USPS", "operator:type": "public", "operator:wikidata": "Q668687", "ref": "4271800023"}, "type": "Feature"}
{"dataset_attributes": {"@spider": "usps_collection_boxes", "spider:collection_time": "2023-11-28T08:25:58.546046"}, "geometry": {"coordinates": [-85.3786652, 37.339845], "type": "Point"}, "id": "vtoeKODQ12AUpAQsfvkZbYGL5Rc=", "properties": {"@spider": "usps_collection_boxes", "addr:city": "CAMPBELLSVILLE", "addr:country": "US", "addr:full": "1980 OLD GREENSBURG RD", "addr:postcode": "42718", "addr:state": "KY", "amenity": "post_box", "brand": "United States Postal Service", "brand:wikidata": "Q668687", "collection_times": "Mo-Sa 09:30", "name": "USPS COLLECTION BOX - BLUE BOX", "nsi_id": "unitedstatespostalservice-a77078", "operator": "United States Postal Service", "operator:short": "USPS", "operator:type": "public", "operator:wikidata": "Q668687", "ref": "4271800024"}, "type": "Feature"}
{"dataset_attributes": {"@spider": "usps_collection_boxes", "spider:collection_time": "2023-11-28T08:25:58.546046"}, "geometry": {"coordinates": [-85.329222806, 37.353569631], "type": "Point"}, "id": "bllfIhvXs5jcDTXbjJC2wr6BTr0=", "properties": {"@spider": "usps_collection_boxes", "addr:city": "CAMPBELLSVILLE", "addr:country": "US", "addr:full": "1410 E BROADWAY ST", "addr:postcode": "42718", "addr:state": "KY", "amenity": "post_box", "brand": "United States Postal Service", "brand:wikidata": "Q668687", "collection_times": "Mo-Fr 16:30; Sa 12:00", "name": "USPS COLLECTION BOX - PO LOBBY", "note": "ON 12/24 AND 12/31, THIS BOX MAY BE COLLECTED AS EARLY AS 12 NOON.", "nsi_id": "unitedstatespostalservice-a77078", "operator": "United States Postal Service", "operator:short": "USPS", "operator:type": "public", "operator:wikidata": "Q668687", "ref": "4271800027"}, "type": "Feature"}
{"dataset_attributes": {"@spider": "usps_collection_boxes", "spider:collection_time": "2023-11-28T08:25:58.546046"}, "geometry": {"coordinates": [-85.320276972, 37.180528084], "type": "Point"}, "id": "Tm0Cvovmx-ORsn9WhL7bLg6YEfw=", "properties": {"@spider": "usps_collection_boxes", "addr:city": "CANE VALLEY", "addr:country": "US", "addr:full": "2303 CANE VALLEY RD", "addr:postcode": "42720", "addr:state": "KY", "amenity": "post_box", "brand": "United States Postal Service", "brand:wikidata": "Q668687", "collection_times": "Mo-Sa 09:30", "name": "USPS COLLECTION BOX - PO LOBBY", "nsi_id": "unitedstatespostalservice-a77078", "operator": "United States Postal Service", "operator:short": "USPS", "operator:type": "public", "operator:wikidata": "Q668687", "ref": "4272000000"}, "type": "Feature"}
{"dataset_attributes": {"@spider": "usps_collection_boxes", "spider:collection_time": "2023-11-28T08:25:58.546046"}, "geometry": {"coordinates": [-85.320276972, 37.180528084], "type": "Point"}, "id": "mebuQBeLOlBIsQ9ylVi-mw2PshQ=", "properties": {"@spider": "usps_collection_boxes", "addr:city": "CANE VALLEY", "addr:country": "US", "addr:full": "2303 CANE VALLEY RD", "addr:postcode": "42720", "addr:state": "KY", "amenity": "post_box", "brand": "United States Postal Service", "brand:wikidata": "Q668687", "collection_times": "Mo-Sa 09:30", "name": "USPS COLLECTION BOX - PO LOBBY", "nsi_id": "unitedstatespostalservice-a77078", "operator": "United States Postal Service", "operator:short": "USPS", "operator:type": "public", "operator:wikidata": "Q668687", "ref": "4272000002"}, "type": "Feature"}
{"dataset_attributes": {"@spider": "usps_collection_boxes", "spider:collection_time": "2023-11-28T08:25:58.546046"}, "geometry": {"coordinates": [-86.48817975, 37.424583], "type": "Point"}, "id": "Yp8Z-UPIgh4_fhompHSUyJBdzYU=", "properties": {"@spider": "usps_collection_boxes", "addr:city": "CANEYVILLE", "addr:country": "US", "addr:full": "106 3RD ST", "addr:postcode": "42721", "addr:state": "KY", "amenity": "post_box", "brand": "United States Postal Service", "brand:wikidata": "Q668687", "collection_times": "Mo-Fr 14:30; Sa 10:30", "name": "USPS COLLECTION BOX - BLUE BOX", "note": "ON 12/24 AND 12/31, THIS BOX MAY BE COLLECTED AS EARLY AS 12 NOON.", "nsi_id": "unitedstatespostalservice-a77078", "operator": "United States Postal Service", "operator:short": "USPS", "operator:type": "public", "operator:wikidata": "Q668687", "ref": "4272100000"}, "type": "Feature"}
{"dataset_attributes": {"@spider": "usps_collection_boxes", "spider:collection_time": "2023-11-28T08:25:58.546046"}, "geometry": {"coordinates": [-86.48817975, 37.424583], "type": "Point"}, "id": "FUeDYB0kmE-XOiTiey8S2e05Jbc=", "properties": {"@spider": "usps_collection_boxes", "addr:city": "CANEYVILLE", "addr:country": "US", "addr:full": "106 3RD ST", "addr:postcode": "42721", "addr:state": "KY", "amenity": "post_box", "brand": "United States Postal Service", "brand:wikidata": "Q668687", "collection_times": "Mo-Fr 14:30; Sa 10:30", "name": "USPS COLLECTION BOX - PO LOBBY", "note": "ON 12/24 AND 12/31, THIS BOX MAY BE COLLECTED AS EARLY AS 12 NOON.", "nsi_id": "unitedstatespostalservice-a77078", "operator": "United States Postal Service", "operator:short": "USPS", "operator:type": "public", "operator:wikidata": "Q668687", "ref": "4272100001"}, "type": "Feature"}
{"dataset_attributes": {"@spider": "usps_collection_boxes", "spider:collection_time": "2023-11-28T08:25:58.546046"}, "geometry": {"coordinates": [-86.48817975, 37.424583], "type": "Point"}, "id": "T3wYen2OQMb27MCf8KvDNGIZDUw=", "properties": {"@spider": "usps_collection_boxes", "addr:city": "CANEYVILLE", "addr:country": "US", "addr:full": "106 3RD ST", "addr:postcode": "42721", "addr:state": "KY", "amenity": "post_box", "brand": "United States Postal Service", "brand:wikidata": "Q668687", "collection_times": "Mo-Fr 14:30; Sa 10:30", "name": "USPS COLLECTION BOX - PO LOBBY", "note": "ON 12/24 AND 12/31, THIS BOX MAY BE COLLECTED AS EARLY AS 12 NOON.", "nsi_id": "unitedstatespostalservice-a77078", "operator": "United States Postal Service", "operator:short": "USPS", "operator:type": "public", "operator:wikidata": "Q668687", "ref": "4272100003"}, "type": "Feature"}
{"dataset_attributes": {"@spider": "usps_collection_boxes", "spider:collection_time": "2023-11-28T08:25:58.546046"}, "geometry": {"coordinates": [-85.7345149, 37.272387], "type": "Point"}, "id": "fN2CbOFjqKDtyYnmWmFTOXrPLD4=", "properties": {"@spider": "usps_collection_boxes", "addr:city": "CANMER", "addr:country": "US", "addr:full": "1406 HEDGEPETH RD", "addr:postcode": "42722", "addr:state": "KY", "amenity": "post_box", "brand": "United States Postal Service", "brand:wikidata": "Q668687", "collection_times": "Mo-Sa 10:30", "name": "USPS COLLECTION BOX - BLUE BOX", "nsi_id": "unitedstatespostalservice-a77078", "operator": "United States Postal Service", "operator:short": "USPS", "operator:type": "public", "operator:wikidata": "Q668687", "ref": "4272200002"}, "type": "Feature"}
{"dataset_attributes": {"@spider": "usps_collection_boxes", "spider:collection_time": "2023-11-28T08:25:58.546046"}, "geometry": {"coordinates": [-85.954894901, 37.66467935], "type": "Point"}, "id": "pyV4iV69QzqIrPc9WBPlGn3D3no=", "properties": {"@spider": "usps_collection_boxes", "addr:city": "CECILIA", "addr:country": "US", "addr:full": "422 FEDERAL ST", "addr:postcode": "42724", "addr:state": "KY", "amenity": "post_box", "brand": "United States Postal Service", "brand:wikidata": "Q668687", "collection_times": "Mo-Fr 16:00; Sa 10:00", "name": "USPS COLLECTION BOX - BLUE BOX", "note": "ON 12/24 AND 12/31, THIS BOX MAY BE COLLECTED AS EARLY AS 12 NOON.", "nsi_id": "unitedstatespostalservice-a77078", "operator": "United States Postal Service", "operator:short": "USPS", "operator:type": "public", "operator:wikidata": "Q668687", "ref": "4272400001"}, "type": "Feature"}
{"dataset_attributes": {"@spider": "usps_collection_boxes", "spider:collection_time": "2023-11-28T08:25:58.546046"}, "geometry": {"coordinates": [-85.954894901, 37.66467935], "type": "Point"}, "id": "A_8lgGNd-yk0sFJM8h5uR3jHycg=", "properties": {"@spider": "usps_collection_boxes", "addr:city": "CECILIA", "addr:country": "US", "addr:full": "422 FEDERAL ST", "addr:postcode": "42724", "addr:state": "KY", "amenity": "post_box", "brand": "United States Postal Service", "brand:wikidata": "Q668687", "collection_times": "Mo-Fr 16:00; Sa 10:00", "name": "USPS COLLECTION BOX - PO LOBBY", "note": "ON 12/24 AND 12/31, THIS BOX MAY BE COLLECTED AS EARLY AS 12 NOON.", "nsi_id": "unitedstatespostalservice-a77078", "operator": "United States Postal Service", "operator:short": "USPS", "operator:type": "public", "operator:wikidata": "Q668687", "ref": "4272400002"}, "type": "Feature"}
{"dataset_attributes": {"@spider": "usps_collection_boxes", "spider:collection_time": "2023-11-28T08:25:58.546046"}, "geometry": {"coordinates": [-85.954894901, 37.66467935], "type": "Point"}, "id": "283ywPn_sUhOY5bN3OWTFrEi1NY=", "properties": {"@spider": "usps_collection_boxes", "addr:city": "CECILIA", "addr:country": "US", "addr:full": "422 FEDERAL ST", "addr:postcode": "42724", "addr:state": "KY", "amenity": "post_box", "brand": "United States Postal Service", "brand:wikidata": "Q668687", "collection_times": "Mo-Fr 16:00; Sa 10:00", "name": "USPS COLLECTION BOX - PO LOBBY", "note": "ON 12/24 AND 12/31, THIS BOX MAY BE COLLECTED AS EARLY AS 12 NOON.", "nsi_id": "unitedstatespostalservice-a77078", "operator": "United States Postal Service", "operator:short": "USPS", "operator:type": "public", "operator:wikidata": "Q668687", "ref": "4272400004"}, "type": "Feature"}
{"dataset_attributes": {"@spider": "usps_collection_boxes", "spider:collection_time": "2023-11-28T08:25:58.546046"}, "geometry": {"coordinates": [-86.221357574, 37.495402117], "type": "Point"}, "id": "4MUHNmcyE2GNVaKre8OnDyM3a70=", "properties": {"@spider": "usps_collection_boxes", "addr:city": "CLARKSON", "addr:country": "US", "addr:full": "211 MILLERSTOWN ST", "addr:postcode": "42726", "addr:state": "KY", "amenity": "post_box", "brand": "United States Postal Service", "brand:wikidata": "Q668687", "collection_times": "Mo-Fr 15:15; Sa 11:00", "name": "USPS COLLECTION BOX - BLUE BOX", "note": "ON 12/24 AND 12/31, THIS BOX MAY BE COLLECTED AS EARLY AS 12 NOON.", "nsi_id": "unitedstatespostalservice-a77078", "operator": "United States Postal Service", "operator:short": "USPS", "operator:type": "public", "operator:wikidata": "Q668687", "ref": "4272600000"}, "type": "Feature"}
{"dataset_attributes": {"@spider": "usps_collection_boxes", "spider:collection_time": "2023-11-28T08:25:58.546046"}, "geometry": {"coordinates": [-86.221357574, 37.495402117], "type": "Point"}, "id": "Fj213KyveZijs7Jk28xOgNvP6Dc=", "properties": {"@spider": "usps_collection_boxes", "addr:city": "CLARKSON", "addr:country": "US", "addr:full": "211 MILLERSTOWN ST", "addr:postcode": "42726", "addr:state": "KY", "amenity": "post_box", "brand": "United States Postal Service", "brand:wikidata": "Q668687", "collection_times": "Mo-Fr 15:15; Sa 11:00", "name": "USPS COLLECTION BOX - PO LOBBY", "note": "ON 12/24 AND 12/31, THIS BOX MAY BE COLLECTED AS EARLY AS 12 NOON.", "nsi_id": "unitedstatespostalservice-a77078", "operator": "United States Postal Service", "operator:short": "USPS", "operator:type": "public", "operator:wikidata": "Q668687", "ref": "4272600002"}, "type": "Feature"}
{"dataset_attributes": {"@spider": "usps_collection_boxes", "spider:collection_time": "2023-11-28T08:25:58.546046"}, "geometry": {"coordinates": [-86.221357574, 37.495402117], "type": "Point"}, "id": "d_gZPPjAn-hKWQPcjKV_q8cIey0=", "properties": {"@spider": "usps_collection_boxes", "addr:city": "CLARKSON", "addr:country": "US", "addr:full": "211 MILLERSTOWN ST", "addr:postcode": "42726", "addr:state": "KY", "amenity": "post_box", "brand": "United States Postal Service", "brand:wikidata": "Q668687", "collection_times": "Mo-Fr 15:30; Sa 11:00", "name": "USPS COLLECTION BOX - PO LOBBY", "note": "ON 12/24 AND 12/31, THIS BOX MAY BE COLLECTED AS EARLY AS 12 NOON.", "nsi_id": "unitedstatespostalservice-a77078", "operator": "United States Postal Service", "operator:short": "USPS", "operator:type": "public", "operator:wikidata": "Q668687", "ref": "4272600004"}, "type": "Feature"}
{"dataset_attributes": {"@spider": "usps_collection_boxes", "spider:collection_time": "2023-11-28T08:25:58.546046"}, "geometry": {"coordinates": [-85.361694338, 37.04880929], "type": "Point"}, "id": "s8djYAnjra7BX4xTNFNsvPdbGf0=", "properties": {"@spider": "usps_collection_boxes", "addr:city": "COLUMBIA", "addr:country": "US", "addr:full": "800 BURKESVILLE ST", "addr:postcode": "42728", "addr:state": "KY", "amenity": "post_box", "brand": "United States Postal Service", "brand:wikidata": "Q668687", "collection_times": "Mo-Fr 15:45; Sa 12:00", "name": "USPS COLLECTION BOX - BLUE BOX", "note": "ON 12/24 AND 12/31, THIS BOX MAY BE COLLECTED AS EARLY AS 12 NOON.", "nsi_id": "unitedstatespostalservice-a77078", "operator": "United States Postal Service", "operator:short": "USPS", "operator:type": "public", "operator:wikidata": "Q668687", "ref": "4272800000"}, "type": "Feature"}
{"dataset_attributes": {"@spider": "usps_collection_boxes", "spider:collection_time": "2023-11-28T08:25:58.546046"}, "geometry": {"coordinates": [-85.3064277, 37.102989], "type": "Point"}, "id": "LsGJk7qjtNxJE0qFYLFXOEwL4C0=", "properties": {"@spider": "usps_collection_boxes", "addr:city": "COLUMBIA", "addr:country": "US", "addr:full": "144 PUBLIC SQ", "addr:postcode": "42728", "addr:state": "KY", "amenity": "post_box", "brand": "United States Postal Service", "brand:wikidata": "Q668687", "collection_times": "Mo-Fr 13:00; Sa 11:00", "name": "USPS COLLECTION BOX - BLUE BOX", "note": "ON 12/24 AND 12/31, THIS BOX MAY BE COLLECTED AS EARLY AS 12 NOON.", "nsi_id": "unitedstatespostalservice-a77078", "operator": "United States Postal Service", "operator:short": "USPS", "operator:type": "public", "operator:wikidata": "Q668687", "ref": "4272800005"}, "type": "Feature"}
{"dataset_attributes": {"@spider": "usps_collection_boxes", "spider:collection_time": "2023-11-28T08:25:58.546046"}, "geometry": {"coordinates": [-85.3061805, 37.103301], "type": "Point"}, "id": "dHGBR6WYb_TSV-9_omZrAZnY0cU=", "properties": {"@spider": "usps_collection_boxes", "addr:city": "COLUMBIA", "addr:country": "US", "addr:full": "414 PUBLIC SQ", "addr:postcode": "42728", "addr:state": "KY", "amenity": "post_box", "brand": "United States Postal Service", "brand:wikidata": "Q668687", "collection_times": "Mo-Fr 13:00; Sa 11:00", "name": "USPS COLLECTION BOX - BLUE BOX", "note": "ON 12/24 AND 12/31, THIS BOX MAY BE COLLECTED AS EARLY AS 12 NOON.", "nsi_id": "unitedstatespostalservice-a77078", "operator": "United States Postal Service", "operator:short": "USPS", "operator:type": "public", "operator:wikidata": "Q668687", "ref": "4272800006"}, "type": "Feature"}
{"dataset_attributes": {"@spider": "usps_collection_boxes", "spider:collection_time": "2023-11-28T08:25:58.546046"}, "geometry": {"coordinates": [-85.3059872, 37.102549], "type": "Point"}, "id": "vaAhNUmxsGGLFTyVD5menSElU2Q=", "properties": {"@spider": "usps_collection_boxes", "addr:city": "COLUMBIA", "addr:country": "US", "addr:full": "220 PUBLIC SQ", "addr:postcode": "42728", "addr:state": "KY", "amenity": "post_box", "brand": "United States Postal Service", "brand:wikidata": "Q668687", "collection_times": "Mo-Fr 13:00; Sa 11:00", "name": "USPS COLLECTION BOX - BLUE BOX", "note": "ON 12/24 AND 12/31, THIS BOX MAY BE COLLECTED AS EARLY AS 12 NOON.", "nsi_id": "unitedstatespostalservice-a77078", "operator": "United States Postal Service", "operator:short": "USPS", "operator:type": "public", "operator:wikidata": "Q668687", "ref": "4272800010"}, "type": "Feature"}
{"dataset_attributes": {"@spider": "usps_collection_boxes", "spider:collection_time": "2023-11-28T08:25:58.546046"}, "geometry": {"coordinates": [-85.361694338, 37.04880929], "type": "Point"}, "id": "HbmgAtdRlL0X5zy1uNOOKPfnPQI=", "properties": {"@spider": "usps_collection_boxes", "addr:city": "COLUMBIA", "addr:country": "US", "addr:full": "800 BURKESVILLE ST", "addr:postcode": "42728", "addr:state": "KY", "amenity": "post_box", "brand": "United States Postal Service", "brand:wikidata": "Q668687", "collection_times": "Mo-Fr 15:45; Sa 12:00", "name": "USPS COLLECTION BOX - PO LOBBY", "note": "ON 12/24 AND 12/31, THIS BOX MAY BE COLLECTED AS EARLY AS 12 NOON.", "nsi_id": "unitedstatespostalservice-a77078", "operator": "United States Postal Service", "operator:short": "USPS", "operator:type": "public", "operator:wikidata": "Q668687", "ref": "4272800012"}, "type": "Feature"}
{"dataset_attributes": {"@spider": "usps_collection_boxes", "spider:collection_time": "2023-11-28T08:25:58.546046"}, "geometry": {"coordinates": [-85.361694338, 37.04880929], "type": "Point"}, "id": "zq_kaYi6dwO85jHedOeo6KNAiG8=", "properties": {"@spider": "usps_collection_boxes", "addr:city": "COLUMBIA", "addr:country": "US", "addr:full": "800 BURKESVILLE ST", "addr:postcode": "42728", "addr:state": "KY", "amenity": "post_box", "brand": "United States Postal Service", "brand:wikidata": "Q668687", "collection_times": "Mo-Fr 16:00; Sa 10:30", "name": "USPS COLLECTION BOX - PO LOBBY", "note": "ON 12/24 AND 12/31, THIS BOX MAY BE COLLECTED AS EARLY AS 12 NOON.", "nsi_id": "unitedstatespostalservice-a77078", "operator": "United States Postal Service", "operator:short": "USPS", "operator:type": "public", "operator:wikidata": "Q668687", "ref": "4272800017"}, "type": "Feature"}
{"dataset_attributes": {"@spider": "usps_collection_boxes", "spider:collection_time": "2023-11-28T08:25:58.546046"}, "geometry": {"coordinates": [-86.060366539, 37.305432609], "type": "Point"}, "id": "rKnK-9Uv_velWKfqk7jtPVRh6TI=", "properties": {"@spider": "usps_collection_boxes", "addr:city": "CUB RUN", "addr:country": "US", "addr:full": "12753 CUB RUN HWY", "addr:postcode": "42729", "addr:state": "KY", "amenity": "post_box", "brand": "United States Postal Service", "brand:wikidata": "Q668687", "collection_times": "Mo-Fr 13:45; Sa 10:00", "name": "USPS COLLECTION BOX - BLUE BOX", "note": "ON 12/24 AND 12/31, THIS BOX MAY BE COLLECTED AS EARLY AS 12 NOON.", "nsi_id": "unitedstatespostalservice-a77078", "operator": "United States Postal Service", "operator:short": "USPS", "operator:type": "public", "operator:wikidata": "Q668687", "ref": "4272900000"}, "type": "Feature"}
{"dataset_attributes": {"@spider": "usps_collection_boxes", "spider:collection_time": "2023-11-28T08:25:58.546046"}, "geometry": {"coordinates": [-86.060366539, 37.305432609], "type": "Point"}, "id": "Ed9NvIZlzB4sFl-saf4CtQTTObM=", "properties": {"@spider": "usps_collection_boxes", "addr:city": "CUB RUN", "addr:country": "US", "addr:full": "12753 CUB RUN HWY", "addr:postcode": "42729", "addr:state": "KY", "amenity": "post_box", "brand": "United States Postal Service", "brand:wikidata": "Q668687", "collection_times": "Mo-Fr 13:45; Sa 12:00", "name": "USPS COLLECTION BOX - PO LOBBY", "note": "ON 12/24 AND 12/31, THIS BOX MAY BE COLLECTED AS EARLY AS 12 NOON.", "nsi_id": "unitedstatespostalservice-a77078", "operator": "United States Postal Service", "operator:short": "USPS", "operator:type": "public", "operator:wikidata": "Q668687", "ref": "4272900001"}, "type": "Feature"}
{"dataset_attributes": {"@spider": "usps_collection_boxes", "spider:collection_time": "2023-11-28T08:25:58.546046"}, "geometry": {"coordinates": [-86.060366539, 37.305432609], "type": "Point"}, "id": "okQIGd0ER2RWXb68y49_8FLj_7s=", "properties": {"@spider": "usps_collection_boxes", "addr:city": "CUB RUN", "addr:country": "US", "addr:full": "12753 CUB RUN HWY", "addr:postcode": "42729", "addr:state": "KY", "amenity": "post_box", "brand": "United States Postal Service", "brand:wikidata": "Q668687", "collection_times": "Mo-Fr 13:45; Sa 10:00", "name": "USPS COLLECTION BOX - PO LOBBY", "note": "ON 12/24 AND 12/31, THIS BOX MAY BE COLLECTED AS EARLY AS 12 NOON.", "nsi_id": "unitedstatespostalservice-a77078", "operator": "United States Postal Service", "operator:short": "USPS", "operator:type": "public", "operator:wikidata": "Q668687", "ref": "4272900003"}, "type": "Feature"}
{"dataset_attributes": {"@spider": "usps_collection_boxes", "spider:collection_time": "2023-11-28T08:25:58.546046"}, "geometry": {"coordinates": [-86.056779146, 37.588695297], "type": "Point"}, "id": "9AaB_gQIJsRpRcbfnyeoc28DTho=", "properties": {"@spider": "usps_collection_boxes", "addr:city": "EASTVIEW", "addr:country": "US", "addr:full": "2885 EASTVIEW RD", "addr:postcode": "42732", "addr:state": "KY", "amenity": "post_box", "brand": "United States Postal Service", "brand:wikidata": "Q668687", "collection_times": "Mo-Fr 12:00; Sa 10:00", "name": "USPS COLLECTION BOX - BLUE BOX", "nsi_id": "unitedstatespostalservice-a77078", "operator": "United States Postal Service", "operator:short": "USPS", "operator:type": "public", "operator:wikidata": "Q668687", "ref": "4273200000"}, "type": "Feature"}
{"dataset_attributes": {"@spider": "usps_collection_boxes", "spider:collection_time": "2023-11-28T08:25:58.546046"}, "geometry": {"coordinates": [-86.056779146, 37.588695297], "type": "Point"}, "id": "Y8kRMAUrad9d2DgmpxzhRWBbLkw=", "properties": {"@spider": "usps_collection_boxes", "addr:city": "EASTVIEW", "addr:country": "US", "addr:full": "2885 EASTVIEW RD", "addr:postcode": "42732", "addr:state": "KY", "amenity": "post_box", "brand": "United States Postal Service", "brand:wikidata": "Q668687", "collection_times": "Mo-Fr 12:00; Sa 10:00", "name": "USPS COLLECTION BOX - PO LOBBY", "nsi_id": "unitedstatespostalservice-a77078", "operator": "United States Postal Service", "operator:short": "USPS", "operator:type": "public", "operator:wikidata": "Q668687", "ref": "4273200004"}, "type": "Feature"}
{"dataset_attributes": {"@spider": "usps_collection_boxes", "spider:collection_time": "2023-11-28T08:25:58.546046"}, "geometry": {"coordinates": [-85.9082299832, 37.6012915173], "type": "Point"}, "id": "g18xnhKjZT98DOAzh096i-k50a0=", "properties": {"@spider": "usps_collection_boxes", "addr:city": "GLENDALE", "addr:country": "US", "addr:full": "119 W MAIN", "addr:postcode": "42740", "addr:state": "KY", "amenity": "post_box", "brand": "United States Postal Service", "brand:wikidata": "Q668687", "collection_times": "Mo-Sa 09:30", "name": "USPS COLLECTION BOX - BLUE BOX", "nsi_id": "unitedstatespostalservice-a77078", "operator": "United States Postal Service", "operator:short": "USPS", "operator:type": "public", "operator:wikidata": "Q668687", "ref": "4274000000"}, "type": "Feature"}
{"dataset_attributes": {"@spider": "usps_collection_boxes", "spider:collection_time": "2023-11-28T08:25:58.546046"}, "geometry": {"coordinates": [-85.873253, 37.598742], "type": "Point"}, "id": "FI2JdVlpPqLSfOk9swEWHO3xKtg=", "properties": {"@spider": "usps_collection_boxes", "addr:city": "GLENDALE", "addr:country": "US", "addr:full": "554 GLENDALE HODGENVILLE RD W", "addr:postcode": "42740", "addr:state": "KY", "amenity": "post_box", "brand": "United States Postal Service", "brand:wikidata": "Q668687", "collection_times": "Mo-Sa 09:00", "name": "USPS COLLECTION BOX - BLUE BOX", "nsi_id": "unitedstatespostalservice-a77078", "operator": "United States Postal Service", "operator:short": "USPS", "operator:type": "public", "operator:wikidata": "Q668687", "ref": "4274000002"}, "type": "Feature"}
{"dataset_attributes": {"@spider": "usps_collection_boxes", "spider:collection_time": "2023-11-28T08:25:58.546046"}, "geometry": {"coordinates": [-85.8648542, 37.595735], "type": "Point"}, "id": "-MjDjK6x6uOsgP5lMyXnGfApuCk=", "properties": {"@spider": "usps_collection_boxes", "addr:city": "GLENDALE", "addr:country": "US", "addr:full": "58 GLENDALE HODGENVILLE RD W", "addr:postcode": "42740", "addr:state": "KY", "amenity": "post_box", "brand": "United States Postal Service", "brand:wikidata": "Q668687", "collection_times": "Mo-Sa 09:00", "name": "USPS COLLECTION BOX - BLUE BOX", "nsi_id": "unitedstatespostalservice-a77078", "operator": "United States Postal Service", "operator:short": "USPS", "operator:type": "public", "operator:wikidata": "Q668687", "ref": "4274000003"}, "type": "Feature"}
{"dataset_attributes": {"@spider": "usps_collection_boxes", "spider:collection_time": "2023-11-28T08:25:58.546046"}, "geometry": {"coordinates": [-85.502573, 37.262014], "type": "Point"}, "id": "bDLGGz_A-kNpQIKN6KfXzDwF7P8=", "properties": {"@spider": "usps_collection_boxes", "addr:city": "GREENSBURG", "addr:country": "US", "addr:full": "110 N 1ST ST", "addr:postcode": "42743", "addr:state": "KY", "amenity": "post_box", "brand": "United States Postal Service", "brand:wikidata": "Q668687", "collection_times": "Mo-Fr 14:30; Sa 12:00", "name": "USPS COLLECTION BOX - BLUE BOX", "note": "ON 12/24 AND 12/31, THIS BOX MAY BE COLLECTED AS EARLY AS 12 NOON.", "nsi_id": "unitedstatespostalservice-a77078", "operator": "United States Postal Service", "operator:short": "USPS", "operator:type": "public", "operator:wikidata": "Q668687", "ref": "4274300000"}, "type": "Feature"}
{"dataset_attributes": {"@spider": "usps_collection_boxes", "spider:collection_time": "2023-11-28T08:25:58.546046"}, "geometry": {"coordinates": [-85.5014674, 37.260526], "type": "Point"}, "id": "oroHHwwpozFAtRyk08bKlDzdEY0=", "properties": {"@spider": "usps_collection_boxes", "addr:city": "GREENSBURG", "addr:country": "US", "addr:full": "102 N PUBLIC SQ", "addr:postcode": "42743", "addr:state": "KY", "amenity": "post_box", "brand": "United States Postal Service", "brand:wikidata": "Q668687", "collection_times": "Mo-Fr 14:30; Sa 12:00", "name": "USPS COLLECTION BOX - BLUE BOX", "note": "ON 12/24 AND 12/31, THIS BOX MAY BE COLLECTED AS EARLY AS 12 NOON.", "nsi_id": "unitedstatespostalservice-a77078", "operator": "United States Postal Service", "operator:short": "USPS", "operator:type": "public", "operator:wikidata": "Q668687", "ref": "4274300002"}, "type": "Feature"}
{"dataset_attributes": {"@spider": "usps_collection_boxes", "spider:collection_time": "2023-11-28T08:25:58.546046"}, "geometry": {"coordinates": [-85.5020704, 37.260924], "type": "Point"}, "id": "ZWqziwYuDwmAMRHtgTxSOuJqNaE=", "properties": {"@spider": "usps_collection_boxes", "addr:city": "GREENSBURG", "addr:country": "US", "addr:full": "101 N PUBLIC SQ", "addr:postcode": "42743", "addr:state": "KY", "amenity": "post_box", "brand": "United States Postal Service", "brand:wikidata": "Q668687", "collection_times": "Mo-Fr 14:30; Sa 12:00", "name": "USPS COLLECTION BOX - BLUE BOX", "note": "ON 12/24 AND 12/31, THIS BOX MAY BE COLLECTED AS EARLY AS 12 NOON.", "nsi_id": "unitedstatespostalservice-a77078", "operator": "United States Postal Service", "operator:short": "USPS", "operator:type": "public", "operator:wikidata": "Q668687", "ref": "4274300003"}, "type": "Feature"}
{"dataset_attributes": {"@spider": "usps_collection_boxes", "spider:collection_time": "2023-11-28T08:25:58.546046"}, "geometry": {"coordinates": [-85.5032015, 37.261117], "type": "Point"}, "id": "kAKHp5ftgZdbAM9_q7oRopQYafk=", "properties": {"@spider": "usps_collection_boxes", "addr:city": "GREENSBURG", "addr:country": "US", "addr:full": "203 W COURT ST", "addr:postcode": "42743", "addr:state": "KY", "amenity": "post_box", "brand": "United States Postal Service", "brand:wikidata": "Q668687", "collection_times": "Mo-Fr 14:30; Sa 12:00", "name": "USPS COLLECTION BOX - BLUE BOX", "note": "ON 12/24 AND 12/31, THIS BOX MAY BE COLLECTED AS EARLY AS 12 NOON.", "nsi_id": "unitedstatespostalservice-a77078", "operator": "United States Postal Service", "operator:short": "USPS", "operator:type": "public", "operator:wikidata": "Q668687", "ref": "4274300004"}, "type": "Feature"}
{"dataset_attributes": {"@spider": "usps_collection_boxes", "spider:collection_time": "2023-11-28T08:25:58.546046"}, "geometry": {"coordinates": [-85.4922918, 37.264071], "type": "Point"}, "id": "U7byjejP-xtn8-CYBN5-HEd1Efk=", "properties": {"@spider": "usps_collection_boxes", "addr:city": "GREENSBURG", "addr:country": "US", "addr:full": "200 NANCY ST", "addr:postcode": "42743", "addr:state": "KY", "amenity": "post_box", "brand": "United States Postal Service", "brand:wikidata": "Q668687", "collection_times": "Mo-Sa 10:00", "name": "USPS COLLECTION BOX - BLUE BOX", "nsi_id": "unitedstatespostalservice-a77078", "operator": "United States Postal Service", "operator:short": "USPS", "operator:type": "public", "operator:wikidata": "Q668687", "ref": "4274300010"}, "type": "Feature"}
{"dataset_attributes": {"@spider": "usps_collection_boxes", "spider:collection_time": "2023-11-28T08:25:58.546046"}, "geometry": {"coordinates": [-85.4962149, 37.272831], "type": "Point"}, "id": "b3M0n8q85YDTZiOSfKke27JB2_U=", "properties": {"@spider": "usps_collection_boxes", "addr:city": "GREENSBURG", "addr:country": "US", "addr:full": "863 CAMPBELLSVILLE RD", "addr:postcode": "42743", "addr:state": "KY", "amenity": "post_box", "brand": "United States Postal Service", "brand:wikidata": "Q668687", "collection_times": "Mo-Sa 12:00", "name": "USPS COLLECTION BOX - BLUE BOX", "nsi_id": "unitedstatespostalservice-a77078", "operator": "United States Postal Service", "operator:short": "USPS", "operator:type": "public", "operator:wikidata": "Q668687", "ref": "4274300011"}, "type": "Feature"}
{"dataset_attributes": {"@spider": "usps_collection_boxes", "spider:collection_time": "2023-11-28T08:25:58.546046"}, "geometry": {"coordinates": [-85.495223141, 37.269731449], "type": "Point"}, "id": "NA7kyBdembnSV00QaIEuDAp2-i8=", "properties": {"@spider": "usps_collection_boxes", "addr:city": "GREENSBURG", "addr:country": "US", "addr:full": "45 TUNNELL LN", "addr:postcode": "42743", "addr:state": "KY", "amenity": "post_box", "brand": "United States Postal Service", "brand:wikidata": "Q668687", "collection_times": "Mo-Fr 16:00; Sa 11:00", "name": "USPS COLLECTION BOX - PO LOBBY", "note": "ON 12/24 AND 12/31, THIS BOX MAY BE COLLECTED AS EARLY AS 12 NOON.", "nsi_id": "unitedstatespostalservice-a77078", "operator": "United States Postal Service", "operator:short": "USPS", "operator:type": "public", "operator:wikidata": "Q668687", "ref": "4274300014"}, "type": "Feature"}
{"dataset_attributes": {"@spider": "usps_collection_boxes", "spider:collection_time": "2023-11-28T08:25:58.546046"}, "geometry": {"coordinates": [-85.495223141, 37.269731449], "type": "Point"}, "id": "JRQoP_XxtslTFPg4HLBUfk0WDp0=", "properties": {"@spider": "usps_collection_boxes", "addr:city": "GREENSBURG", "addr:country": "US", "addr:full": "45 TUNNELL LN", "addr:postcode": "42743", "addr:state": "KY", "amenity": "post_box", "brand": "United States Postal Service", "brand:wikidata": "Q668687", "collection_times": "Mo-Fr 16:15; Sa 14:00", "name": "USPS COLLECTION BOX - BLUE BOX", "note": "ON 12/24 AND 12/31, THIS BOX MAY BE COLLECTED AS EARLY AS 12 NOON.", "nsi_id": "unitedstatespostalservice-a77078", "operator": "United States Postal Service", "operator:short": "USPS", "operator:type": "public", "operator:wikidata": "Q668687", "ref": "4274300015"}, "type": "Feature"}
{"dataset_attributes": {"@spider": "usps_collection_boxes", "spider:collection_time": "2023-11-28T08:25:58.546046"}, "geometry": {"coordinates": [-85.4952231413, 37.2697314487], "type": "Point"}, "id": "gZ4TavvIlv7IfE2UDui4wbgq96s=", "properties": {"@spider": "usps_collection_boxes", "addr:city": "GREENSBURG", "addr:country": "US", "addr:full": "45 TUNNELL LN", "addr:postcode": "42743", "addr:state": "KY", "amenity": "post_box", "brand": "United States Postal Service", "brand:wikidata": "Q668687", "collection_times": "Mo-Fr 16:15; Sa 14:00", "name": "USPS COLLECTION BOX - PO LOBBY", "note": "ON 12/24 AND 12/31, THIS BOX MAY BE COLLECTED AS EARLY AS 12 NOON.", "nsi_id": "unitedstatespostalservice-a77078", "operator": "United States Postal Service", "operator:short": "USPS", "operator:type": "public", "operator:wikidata": "Q668687", "ref": "4274300016"}, "type": "Feature"}
{"dataset_attributes": {"@spider": "usps_collection_boxes", "spider:collection_time": "2023-11-28T08:25:58.546046"}, "geometry": {"coordinates": [-85.4952231413, 37.2697314487], "type": "Point"}, "id": "WUXZDmEIWYlpDhxINAbYJZXqtn0=", "properties": {"@spider": "usps_collection_boxes", "addr:city": "GREENSBURG", "addr:country": "US", "addr:full": "45 TUNNELL LN", "addr:postcode": "42743", "addr:state": "KY", "amenity": "post_box", "brand": "United States Postal Service", "brand:wikidata": "Q668687", "collection_times": "Mo-Fr 16:15; Sa 14:00", "name": "USPS COLLECTION BOX - PO LOBBY", "note": "ON 12/24 AND 12/31, THIS BOX MAY BE COLLECTED AS EARLY AS 12 NOON.", "nsi_id": "unitedstatespostalservice-a77078", "operator": "United States Postal Service", "operator:short": "USPS", "operator:type": "public", "operator:wikidata": "Q668687", "ref": "4274300017"}, "type": "Feature"}
{"dataset_attributes": {"@spider": "usps_collection_boxes", "spider:collection_time": "2023-11-28T08:25:58.546046"}, "geometry": {"coordinates": [-85.785910922, 37.25482784], "type": "Point"}, "id": "oG72_93EnHvgy3B9WXfXgB_mBHk=", "properties": {"@spider": "usps_collection_boxes", "addr:city": "HARDYVILLE", "addr:country": "US", "addr:full": "62 N JACKSON HWY", "addr:postcode": "42746", "addr:state": "KY", "amenity": "post_box", "brand": "United States Postal Service", "brand:wikidata": "Q668687", "collection_times": "Mo-Fr 14:30; Sa 09:30", "name": "USPS COLLECTION BOX - BLUE BOX", "note": "ON 12/24 AND 12/31, THIS BOX MAY BE COLLECTED AS EARLY AS 12 NOON.", "nsi_id": "unitedstatespostalservice-a77078", "operator": "United States Postal Service", "operator:short": "USPS", "operator:type": "public", "operator:wikidata": "Q668687", "ref": "4274600000"}, "type": "Feature"}
{"dataset_attributes": {"@spider": "usps_collection_boxes", "spider:collection_time": "2023-11-28T08:25:58.546046"}, "geometry": {"coordinates": [-85.785910922, 37.25482784], "type": "Point"}, "id": "jdeBDK0SfFr-fAg1zh0CoiqxSbA=", "properties": {"@spider": "usps_collection_boxes", "addr:city": "HARDYVILLE", "addr:country": "US", "addr:full": "62 N JACKSON HWY", "addr:postcode": "42746", "addr:state": "KY", "amenity": "post_box", "brand": "United States Postal Service", "brand:wikidata": "Q668687", "collection_times": "Mo-Fr 14:30; Sa 09:30", "name": "USPS COLLECTION BOX - PO LOBBY", "note": "ON 12/24 AND 12/31, THIS BOX MAY BE COLLECTED AS EARLY AS 12 NOON.", "nsi_id": "unitedstatespostalservice-a77078", "operator": "United States Postal Service", "operator:short": "USPS", "operator:type": "public", "operator:wikidata": "Q668687", "ref": "4274600001"}, "type": "Feature"}
{"dataset_attributes": {"@spider": "usps_collection_boxes", "spider:collection_time": "2023-11-28T08:25:58.546046"}, "geometry": {"coordinates": [-85.7388507, 37.2412542], "type": "Point"}, "id": "jLwLgB-_f8T6PJ9YLBoKFI4eHCs=", "properties": {"@spider": "usps_collection_boxes", "addr:city": "HARDYVILLE", "addr:country": "US", "addr:full": "62 N JACKSON HWY", "addr:postcode": "42746", "addr:state": "KY", "amenity": "post_box", "brand": "United States Postal Service", "brand:wikidata": "Q668687", "collection_times": "Mo-Fr 14:30; Sa 09:30", "name": "USPS COLLECTION BOX - PO LOBBY", "note": "ON 12/24 AND 12/31, THIS BOX MAY BE COLLECTED AS EARLY AS 12 NOON.", "nsi_id": "unitedstatespostalservice-a77078", "operator": "United States Postal Service", "operator:short": "USPS", "operator:type": "public", "operator:wikidata": "Q668687", "ref": "4274600004"}, "type": "Feature"}
{"dataset_attributes": {"@spider": "usps_collection_boxes", "spider:collection_time": "2023-11-28T08:25:58.546046"}, "geometry": {"coordinates": [-85.7402904, 37.574367], "type": "Point"}, "id": "-37NH6anBQ-IMhuQ3KqEb8BfPVw=", "properties": {"@spider": "usps_collection_boxes", "addr:city": "HODGENVILLE", "addr:country": "US", "addr:full": "41 LINCOLN SQ", "addr:postcode": "42748", "addr:state": "KY", "amenity": "post_box", "brand": "United States Postal Service", "brand:wikidata": "Q668687", "collection_times": "Mo-Sa 15:00", "name": "USPS COLLECTION BOX - BLUE BOX", "note": "ON 12/24 AND 12/31, THIS BOX MAY BE COLLECTED AS EARLY AS 12 NOON.", "nsi_id": "unitedstatespostalservice-a77078", "operator": "United States Postal Service", "operator:short": "USPS", "operator:type": "public", "operator:wikidata": "Q668687", "ref": "4274800000"}, "type": "Feature"}
{"dataset_attributes": {"@spider": "usps_collection_boxes", "spider:collection_time": "2023-11-28T08:25:58.546046"}, "geometry": {"coordinates": [-85.741337046, 37.57365435], "type": "Point"}, "id": "Sx8EQKpVIYHdAAY9A1umi759NxI=", "properties": {"@spider": "usps_collection_boxes", "addr:city": "HODGENVILLE", "addr:country": "US", "addr:full": "102 S WALTERS AVE", "addr:postcode": "42748", "addr:state": "KY", "amenity": "post_box", "brand": "United States Postal Service", "brand:wikidata": "Q668687", "collection_times": "Mo-Fr 16:30; Sa 16:00", "name": "USPS COLLECTION BOX - BLUE BOX", "note": "ON 12/24 AND 12/31, THIS BOX MAY BE COLLECTED AS EARLY AS 12 NOON.", "nsi_id": "unitedstatespostalservice-a77078", "operator": "United States Postal Service", "operator:short": "USPS", "operator:type": "public", "operator:wikidata": "Q668687", "ref": "4274800005"}, "type": "Feature"}
{"dataset_attributes": {"@spider": "usps_collection_boxes", "spider:collection_time": "2023-11-28T08:25:58.546046"}, "geometry": {"coordinates": [-85.741337046, 37.57365435], "type": "Point"}, "id": "eg1hFoeicD9BFNwcfkASynjuPBU=", "properties": {"@spider": "usps_collection_boxes", "addr:city": "HODGENVILLE", "addr:country": "US", "addr:full": "102 S WALTERS AVE", "addr:postcode": "42748", "addr:state": "KY", "amenity": "post_box", "brand": "United States Postal Service", "brand:wikidata": "Q668687", "collection_times": "Mo-Fr 16:30; Sa 16:00", "name": "USPS COLLECTION BOX - PO LOBBY", "note": "ON 12/24 AND 12/31, THIS BOX MAY BE COLLECTED AS EARLY AS 12 NOON.", "nsi_id": "unitedstatespostalservice-a77078", "operator": "United States Postal Service", "operator:short": "USPS", "operator:type": "public", "operator:wikidata": "Q668687", "ref": "4274800008"}, "type": "Feature"}
{"dataset_attributes": {"@spider": "usps_collection_boxes", "spider:collection_time": "2023-11-28T08:25:58.546046"}, "geometry": {"coordinates": [-85.741337046, 37.57365435], "type": "Point"}, "id": "mN56g6u48cWeLU1n3wOYfidkl88=", "properties": {"@spider": "usps_collection_boxes", "addr:city": "HODGENVILLE", "addr:country": "US", "addr:full": "102 S WALTERS AVE", "addr:postcode": "42748", "addr:state": "KY", "amenity": "post_box", "brand": "United States Postal Service", "brand:wikidata": "Q668687", "collection_times": "Mo-Fr 16:30; Sa 12:00", "name": "USPS COLLECTION BOX - PO LOBBY", "note": "ON 12/24 AND 12/31, THIS BOX MAY BE COLLECTED AS EARLY AS 12 NOON.", "nsi_id": "unitedstatespostalservice-a77078", "operator": "United States Postal Service", "operator:short": "USPS", "operator:type": "public", "operator:wikidata": "Q668687", "ref": "4274800011"}, "type": "Feature"}
{"dataset_attributes": {"@spider": "usps_collection_boxes", "spider:collection_time": "2023-11-28T08:25:58.546046"}, "geometry": {"coordinates": [-85.906475368, 37.180201119], "type": "Point"}, "id": "8B50MrLvTy2DAFIcXO_SUrVNJMg=", "properties": {"@spider": "usps_collection_boxes", "addr:city": "HORSE CAVE", "addr:country": "US", "addr:full": "117 WATER ST", "addr:postcode": "42749", "addr:state": "KY", "amenity": "post_box", "brand": "United States Postal Service", "brand:wikidata": "Q668687", "collection_times": "Mo-Fr 15:45; Sa 09:00", "name": "USPS COLLECTION BOX - BLUE BOX", "note": "ON 12/24 AND 12/31, THIS BOX MAY BE COLLECTED AS EARLY AS 12 NOON.", "nsi_id": "unitedstatespostalservice-a77078", "operator": "United States Postal Service", "operator:short": "USPS", "operator:type": "public", "operator:wikidata": "Q668687", "ref": "4274900001"}, "type": "Feature"}
{"dataset_attributes": {"@spider": "usps_collection_boxes", "spider:collection_time": "2023-11-28T08:25:58.546046"}, "geometry": {"coordinates": [-85.906475368, 37.180201119], "type": "Point"}, "id": "0Zfpz5tVQ8EhuhV8SavypUxEoTg=", "properties": {"@spider": "usps_collection_boxes", "addr:city": "HORSE CAVE", "addr:country": "US", "addr:full": "117 WATER ST", "addr:postcode": "42749", "addr:state": "KY", "amenity": "post_box", "brand": "United States Postal Service", "brand:wikidata": "Q668687", "collection_times": "Mo-Fr 15:45; Sa 09:00", "name": "USPS COLLECTION BOX - PO LOBBY", "note": "ON 12/24 AND 12/31, THIS BOX MAY BE COLLECTED AS EARLY AS 12 NOON.", "nsi_id": "unitedstatespostalservice-a77078", "operator": "United States Postal Service", "operator:short": "USPS", "operator:type": "public", "operator:wikidata": "Q668687", "ref": "4274900007"}, "type": "Feature"}
{"dataset_attributes": {"@spider": "usps_collection_boxes", "spider:collection_time": "2023-11-28T08:25:58.546046"}, "geometry": {"coordinates": [-85.906475368, 37.180201119], "type": "Point"}, "id": "qr84x4-StF28azJp2cqwflXDnT4=", "properties": {"@spider": "usps_collection_boxes", "addr:city": "HORSE CAVE", "addr:country": "US", "addr:full": "117 WATER ST", "addr:postcode": "42749", "addr:state": "KY", "amenity": "post_box", "brand": "United States Postal Service", "brand:wikidata": "Q668687", "collection_times": "Mo-Fr 16:00; Sa 09:00", "name": "USPS COLLECTION BOX - PO LOBBY", "note": "ON 12/24 AND 12/31, THIS BOX MAY BE COLLECTED AS EARLY AS 12 NOON.", "nsi_id": "unitedstatespostalservice-a77078", "operator": "United States Postal Service", "operator:short": "USPS", "operator:type": "public", "operator:wikidata": "Q668687", "ref": "4274900009"}, "type": "Feature"}
{"dataset_attributes": {"@spider": "usps_collection_boxes", "spider:collection_time": "2023-11-28T08:25:58.546046"}, "geometry": {"coordinates": [-86.293908963, 37.478593306], "type": "Point"}, "id": "CnyBCIXJIsU0NF1F1yywIqBY5Wc=", "properties": {"@spider": "usps_collection_boxes", "addr:city": "LEITCHFIELD", "addr:country": "US", "addr:full": "210 S MAIN ST", "addr:postcode": "42754", "addr:state": "KY", "amenity": "post_box", "brand": "United States Postal Service", "brand:wikidata": "Q668687", "collection_times": "Mo-Fr 15:30; Sa 15:00", "name": "USPS COLLECTION BOX - BLUE BOX", "note": "ON 12/24 AND 12/31, THIS BOX MAY BE COLLECTED AS EARLY AS 12 NOON.", "nsi_id": "unitedstatespostalservice-a77078", "operator": "United States Postal Service", "operator:short": "USPS", "operator:type": "public", "operator:wikidata": "Q668687", "ref": "4275400000"}, "type": "Feature"}
{"dataset_attributes": {"@spider": "usps_collection_boxes", "spider:collection_time": "2023-11-28T08:25:58.546046"}, "geometry": {"coordinates": [-86.2950429, 37.47584], "type": "Point"}, "id": "R3qFIT67yqgDug_jEUtaKn9wxFw=", "properties": {"@spider": "usps_collection_boxes", "addr:city": "LEITCHFIELD", "addr:country": "US", "addr:full": "332 S MAIN ST", "addr:postcode": "42754", "addr:state": "KY", "amenity": "post_box", "brand": "United States Postal Service", "brand:wikidata": "Q668687", "collection_times": "Mo-Sa 13:30", "name": "USPS COLLECTION BOX - BLUE BOX", "note": "ON 12/24 AND 12/31, THIS BOX MAY BE COLLECTED AS EARLY AS 12 NOON.", "nsi_id": "unitedstatespostalservice-a77078", "operator": "United States Postal Service", "operator:short": "USPS", "operator:type": "public", "operator:wikidata": "Q668687", "ref": "4275400003"}, "type": "Feature"}
{"dataset_attributes": {"@spider": "usps_collection_boxes", "spider:collection_time": "2023-11-28T08:25:58.546046"}, "geometry": {"coordinates": [-86.2875909, 37.472503], "type": "Point"}, "id": "XIq9hyeVctoMdYBDINtDYilixCs=", "properties": {"@spider": "usps_collection_boxes", "addr:city": "LEITCHFIELD", "addr:country": "US", "addr:full": "908 WALLACE AVE", "addr:postcode": "42754", "addr:state": "KY", "amenity": "post_box", "brand": "United States Postal Service", "brand:wikidata": "Q668687", "collection_times": "Mo-Sa 14:30", "name": "USPS COLLECTION BOX - BLUE BOX", "note": "ON 12/24 AND 12/31, THIS BOX MAY BE COLLECTED AS EARLY AS 12 NOON.", "nsi_id": "unitedstatespostalservice-a77078", "operator": "United States Postal Service", "operator:short": "USPS", "operator:type": "public", "operator:wikidata": "Q668687", "ref": "4275400005"}, "type": "Feature"}
{"dataset_attributes": {"@spider": "usps_collection_boxes", "spider:collection_time": "2023-11-28T08:25:58.546046"}, "geometry": {"coordinates": [-86.2746687, 37.485256], "type": "Point"}, "id": "pkYLiC258H9svefHzoL4O6p75wQ=", "properties": {"@spider": "usps_collection_boxes", "addr:city": "LEITCHFIELD", "addr:country": "US", "addr:full": "1315 ELIZABETHTOWN RD", "addr:postcode": "42754", "addr:state": "KY", "amenity": "post_box", "brand": "United States Postal Service", "brand:wikidata": "Q668687", "collection_times": "Mo-Sa 08:30", "name": "USPS COLLECTION BOX - BLUE BOX", "nsi_id": "unitedstatespostalservice-a77078", "operator": "United States Postal Service", "operator:short": "USPS", "operator:type": "public", "operator:wikidata": "Q668687", "ref": "4275400010"}, "type": "Feature"}
{"dataset_attributes": {"@spider": "usps_collection_boxes", "spider:collection_time": "2023-11-28T08:25:58.546046"}, "geometry": {"coordinates": [-86.293908963, 37.478593306], "type": "Point"}, "id": "qwwh2qjMHc4deWl8e91u4ExM4Ns=", "properties": {"@spider": "usps_collection_boxes", "addr:city": "LEITCHFIELD", "addr:country": "US", "addr:full": "210 S MAIN ST", "addr:postcode": "42754", "addr:state": "KY", "amenity": "post_box", "brand": "United States Postal Service", "brand:wikidata": "Q668687", "collection_times": "Mo-Fr 16:00; Sa 15:00", "name": "USPS COLLECTION BOX - PO LOBBY", "note": "ON 12/24 AND 12/31, THIS BOX MAY BE COLLECTED AS EARLY AS 12 NOON.", "nsi_id": "unitedstatespostalservice-a77078", "operator": "United States Postal Service", "operator:short": "USPS", "operator:type": "public", "operator:wikidata": "Q668687", "ref": "4275400017"}, "type": "Feature"}
{"dataset_attributes": {"@spider": "usps_collection_boxes", "spider:collection_time": "2023-11-28T08:25:58.546046"}, "geometry": {"coordinates": [-86.293908963, 37.478593306], "type": "Point"}, "id": "2eZ7wIRwCd8Xof9ogzIw0GEe3U4=", "properties": {"@spider": "usps_collection_boxes", "addr:city": "LEITCHFIELD", "addr:country": "US", "addr:full": "210 S MAIN ST", "addr:postcode": "42754", "addr:state": "KY", "amenity": "post_box", "brand": "United States Postal Service", "brand:wikidata": "Q668687", "collection_times": "Mo-Fr 16:00; Sa 11:30", "name": "USPS COLLECTION BOX - PO LOBBY", "note": "ON 12/24 AND 12/31, THIS BOX MAY BE COLLECTED AS EARLY AS 12 NOON.", "nsi_id": "unitedstatespostalservice-a77078", "operator": "United States Postal Service", "operator:short": "USPS", "operator:type": "public", "operator:wikidata": "Q668687", "ref": "4275400022"}, "type": "Feature"}
{"dataset_attributes": {"@spider": "usps_collection_boxes", "spider:collection_time": "2023-11-28T08:25:58.546046"}, "geometry": {"coordinates": [-85.742149056, 37.445264417], "type": "Point"}, "id": "aejtH47Cc2UBPpFs0xIlrLxISrE=", "properties": {"@spider": "usps_collection_boxes", "addr:city": "MAGNOLIA", "addr:country": "US", "addr:full": "4900 S L AND N TPKE", "addr:postcode": "42757", "addr:state": "KY", "amenity": "post_box", "brand": "United States Postal Service", "brand:wikidata": "Q668687", "collection_times": "Mo-Fr 15:45; Sa 10:15", "name": "USPS COLLECTION BOX - BLUE BOX", "note": "ON 12/24 AND 12/31, THIS BOX MAY BE COLLECTED AS EARLY AS 12 NOON.", "nsi_id": "unitedstatespostalservice-a77078", "operator": "United States Postal Service", "operator:short": "USPS", "operator:type": "public", "operator:wikidata": "Q668687", "ref": "4275700000"}, "type": "Feature"}
{"dataset_attributes": {"@spider": "usps_collection_boxes", "spider:collection_time": "2023-11-28T08:25:58.546046"}, "geometry": {"coordinates": [-85.7448233, 37.444858], "type": "Point"}, "id": "jDTSN1T70p6yfKmTP4XDka6T8MA=", "properties": {"@spider": "usps_collection_boxes", "addr:city": "MAGNOLIA", "addr:country": "US", "addr:full": "9050 NEW JACKSON HWY", "addr:postcode": "42757", "addr:state": "KY", "amenity": "post_box", "brand": "United States Postal Service", "brand:wikidata": "Q668687", "collection_times": "Mo-Sa 11:00", "name": "USPS COLLECTION BOX - BLUE BOX", "nsi_id": "unitedstatespostalservice-a77078", "operator": "United States Postal Service", "operator:short": "USPS", "operator:type": "public", "operator:wikidata": "Q668687", "ref": "4275700004"}, "type": "Feature"}
{"dataset_attributes": {"@spider": "usps_collection_boxes", "spider:collection_time": "2023-11-28T08:25:58.546046"}, "geometry": {"coordinates": [-85.742149056, 37.445264417], "type": "Point"}, "id": "rpxkdm5f1fvANkeMYmUP8uVGcCg=", "properties": {"@spider": "usps_collection_boxes", "addr:city": "MAGNOLIA", "addr:country": "US", "addr:full": "4900 S L AND N TPKE", "addr:postcode": "42757", "addr:state": "KY", "amenity": "post_box", "brand": "United States Postal Service", "brand:wikidata": "Q668687", "collection_times": "Mo-Fr 16:00; Sa 12:30", "name": "USPS COLLECTION BOX - PO LOBBY", "note": "ON 12/24 AND 12/31, THIS BOX MAY BE COLLECTED AS EARLY AS 12 NOON.", "nsi_id": "unitedstatespostalservice-a77078", "operator": "United States Postal Service", "operator:short": "USPS", "operator:type": "public", "operator:wikidata": "Q668687", "ref": "4275700005"}, "type": "Feature"}
{"dataset_attributes": {"@spider": "usps_collection_boxes", "spider:collection_time": "2023-11-28T08:25:58.546046"}, "geometry": {"coordinates": [-85.197525429, 37.372178486], "type": "Point"}, "id": "U7zZIkg8dPD_AYU7qg6_gSmYzKs=", "properties": {"@spider": "usps_collection_boxes", "addr:city": "MANNSVILLE", "addr:country": "US", "addr:full": "1 FERGUSON RD", "addr:postcode": "42758", "addr:state": "KY", "amenity": "post_box", "brand": "United States Postal Service", "brand:wikidata": "Q668687", "collection_times": "Mo-Fr 12:00; Sa 11:00", "name": "USPS COLLECTION BOX - BLUE BOX", "nsi_id": "unitedstatespostalservice-a77078", "operator": "United States Postal Service", "operator:short": "USPS", "operator:type": "public", "operator:wikidata": "Q668687", "ref": "4275800000"}, "type": "Feature"}
{"dataset_attributes": {"@spider": "usps_collection_boxes", "spider:collection_time": "2023-11-28T08:25:58.546046"}, "geometry": {"coordinates": [-85.197525429, 37.372178486], "type": "Point"}, "id": "bspjxqpwGTfsW6th9HQrJGp3-xo=", "properties": {"@spider": "usps_collection_boxes", "addr:city": "MANNSVILLE", "addr:country": "US", "addr:full": "1 FERGUSON RD", "addr:postcode": "42758", "addr:state": "KY", "amenity": "post_box", "brand": "United States Postal Service", "brand:wikidata": "Q668687", "collection_times": "Mo-Fr 12:00; Sa 11:00", "name": "USPS COLLECTION BOX - PO LOBBY", "nsi_id": "unitedstatespostalservice-a77078", "operator": "United States Postal Service", "operator:short": "USPS", "operator:type": "public", "operator:wikidata": "Q668687", "ref": "4275800003"}, "type": "Feature"}
{"dataset_attributes": {"@spider": "usps_collection_boxes", "spider:collection_time": "2023-11-28T08:25:58.546046"}, "geometry": {"coordinates": [-85.504911, 36.827987], "type": "Point"}, "id": "pdKfgQQOZzYJvSECBAXY7y2f4UQ=", "properties": {"@spider": "usps_collection_boxes", "addr:city": "MARROWBONE", "addr:country": "US", "addr:full": "9573 GLASGOW RD", "addr:postcode": "42759", "addr:state": "KY", "amenity": "post_box", "brand": "United States Postal Service", "brand:wikidata": "Q668687", "collection_times": "Mo-Fr 14:30; Sa 09:15", "name": "USPS COLLECTION BOX - BLUE BOX", "note": "ON 12/24 AND 12/31, THIS BOX MAY BE COLLECTED AS EARLY AS 12 NOON.", "nsi_id": "unitedstatespostalservice-a77078", "operator": "United States Postal Service", "operator:short": "USPS", "operator:type": "public", "operator:wikidata": "Q668687", "ref": "4275900000"}, "type": "Feature"}
{"dataset_attributes": {"@spider": "usps_collection_boxes", "spider:collection_time": "2023-11-28T08:25:58.546046"}, "geometry": {"coordinates": [-85.500525611, 36.829404341], "type": "Point"}, "id": "mdT29kZTDn9m3u5-cwdrnvqQzIA=", "properties": {"@spider": "usps_collection_boxes", "addr:city": "MARROWBONE", "addr:country": "US", "addr:full": "9283 GLASGOW RD", "addr:postcode": "42759", "addr:state": "KY", "amenity": "post_box", "brand": "United States Postal Service", "brand:wikidata": "Q668687", "collection_times": "Mo-Fr 14:30; Sa 09:15", "name": "USPS COLLECTION BOX - PO LOBBY", "note": "ON 12/24 AND 12/31, THIS BOX MAY BE COLLECTED AS EARLY AS 12 NOON.", "nsi_id": "unitedstatespostalservice-a77078", "operator": "United States Postal Service", "operator:short": "USPS", "operator:type": "public", "operator:wikidata": "Q668687", "ref": "4275900003"}, "type": "Feature"}
{"dataset_attributes": {"@spider": "usps_collection_boxes", "spider:collection_time": "2023-11-28T08:25:58.546046"}, "geometry": {"coordinates": [-86.390659651, 37.448271329], "type": "Point"}, "id": "6We443LQ8LrraaKJujTVWf38izc=", "properties": {"@spider": "usps_collection_boxes", "addr:city": "MILLWOOD", "addr:country": "US", "addr:full": "6445 BEAVER DAM RD", "addr:postcode": "42762", "addr:state": "KY", "amenity": "post_box", "brand": "United States Postal Service", "brand:wikidata": "Q668687", "collection_times": "Mo-Fr 15:00; Sa 10:45", "name": "USPS COLLECTION BOX - BLUE BOX", "note": "ON 12/24 AND 12/31, THIS BOX MAY BE COLLECTED AS EARLY AS 12 NOON.", "nsi_id": "unitedstatespostalservice-a77078", "operator": "United States Postal Service", "operator:short": "USPS", "operator:type": "public", "operator:wikidata": "Q668687", "ref": "4276200000"}, "type": "Feature"}
{"dataset_attributes": {"@spider": "usps_collection_boxes", "spider:collection_time": "2023-11-28T08:25:58.546046"}, "geometry": {"coordinates": [-86.390659651, 37.448271329], "type": "Point"}, "id": "k3f2bVNkmM9maP6Y1gOPjp0mUwM=", "properties": {"@spider": "usps_collection_boxes", "addr:city": "MILLWOOD", "addr:country": "US", "addr:full": "6445 BEAVER DAM RD", "addr:postcode": "42762", "addr:state": "KY", "amenity": "post_box", "brand": "United States Postal Service", "brand:wikidata": "Q668687", "collection_times": "Mo-Fr 15:00; Sa 10:45", "name": "USPS COLLECTION BOX - PO LOBBY", "note": "ON 12/24 AND 12/31, THIS BOX MAY BE COLLECTED AS EARLY AS 12 NOON.", "nsi_id": "unitedstatespostalservice-a77078", "operator": "United States Postal Service", "operator:short": "USPS", "operator:type": "public", "operator:wikidata": "Q668687", "ref": "4276200001"}, "type": "Feature"}
{"dataset_attributes": {"@spider": "usps_collection_boxes", "spider:collection_time": "2023-11-28T08:25:58.546046"}, "geometry": {"coordinates": [-86.390659651, 37.448271329], "type": "Point"}, "id": "rUhao0I12VFA5EPrz9JFfS8cdzo=", "properties": {"@spider": "usps_collection_boxes", "addr:city": "MILLWOOD", "addr:country": "US", "addr:full": "6445 BEAVER DAM RD", "addr:postcode": "42762", "addr:state": "KY", "amenity": "post_box", "brand": "United States Postal Service", "brand:wikidata": "Q668687", "collection_times": "Mo-Fr 15:00; Sa 10:45", "name": "USPS COLLECTION BOX - PO LOBBY", "note": "ON 12/24 AND 12/31, THIS BOX MAY BE COLLECTED AS EARLY AS 12 NOON.", "nsi_id": "unitedstatespostalservice-a77078", "operator": "United States Postal Service", "operator:short": "USPS", "operator:type": "public", "operator:wikidata": "Q668687", "ref": "4276200003"}, "type": "Feature"}
{"dataset_attributes": {"@spider": "usps_collection_boxes", "spider:collection_time": "2023-11-28T08:25:58.546046"}, "geometry": {"coordinates": [-85.669246549, 37.453583662], "type": "Point"}, "id": "05idCJwdrxRZcLeuEu7kVY_EYeU=", "properties": {"@spider": "usps_collection_boxes", "addr:city": "MOUNT SHERMAN", "addr:country": "US", "addr:full": "7145 GREENSBURG RD", "addr:postcode": "42764", "addr:state": "KY", "amenity": "post_box", "brand": "United States Postal Service", "brand:wikidata": "Q668687", "collection_times": "Mo-Sa 12:15", "name": "USPS COLLECTION BOX - BLUE BOX", "note": "ON 12/24 AND 12/31, THIS BOX MAY BE COLLECTED AS EARLY AS 12 NOON.", "nsi_id": "unitedstatespostalservice-a77078", "operator": "United States Postal Service", "operator:short": "USPS", "operator:type": "public", "operator:wikidata": "Q668687", "ref": "4276400000"}, "type": "Feature"}
{"dataset_attributes": {"@spider": "usps_collection_boxes", "spider:collection_time": "2023-11-28T08:25:58.546046"}, "geometry": {"coordinates": [-85.669246549, 37.453583662], "type": "Point"}, "id": "Vk01jG1r6aw5_bFn_O5VcgV7q08=", "properties": {"@spider": "usps_collection_boxes", "addr:city": "MOUNT SHERMAN", "addr:country": "US", "addr:full": "7145 GREENSBURG RD", "addr:postcode": "42764", "addr:state": "KY", "amenity": "post_box", "brand": "United States Postal Service", "brand:wikidata": "Q668687", "collection_times": "Mo-Sa 12:15", "name": "USPS COLLECTION BOX - PO LOBBY", "note": "ON 12/24 AND 12/31, THIS BOX MAY BE COLLECTED AS EARLY AS 12 NOON.", "nsi_id": "unitedstatespostalservice-a77078", "operator": "United States Postal Service", "operator:short": "USPS", "operator:type": "public", "operator:wikidata": "Q668687", "ref": "4276400002"}, "type": "Feature"}
{"dataset_attributes": {"@spider": "usps_collection_boxes", "spider:collection_time": "2023-11-28T08:25:58.546046"}, "geometry": {"coordinates": [-85.891237369, 37.270832156], "type": "Point"}, "id": "QF_-hfMt4VSnrlTxn8Sa3cF57Q0=", "properties": {"@spider": "usps_collection_boxes", "addr:city": "MUNFORDVILLE", "addr:country": "US", "addr:full": "215 S WASHINGTON ST", "addr:postcode": "42765", "addr:state": "KY", "amenity": "post_box", "brand": "United States Postal Service", "brand:wikidata": "Q668687", "collection_times": "Mo-Fr 16:00; Sa 10:00", "name": "USPS COLLECTION BOX - BLUE BOX", "note": "ON 12/24 AND 12/31, THIS BOX MAY BE COLLECTED AS EARLY AS 12 NOON.", "nsi_id": "unitedstatespostalservice-a77078", "operator": "United States Postal Service", "operator:short": "USPS", "operator:type": "public", "operator:wikidata": "Q668687", "ref": "4276500001"}, "type": "Feature"}
{"dataset_attributes": {"@spider": "usps_collection_boxes", "spider:collection_time": "2023-11-28T08:25:58.546046"}, "geometry": {"coordinates": [-85.891237369, 37.270832156], "type": "Point"}, "id": "6yGfFoU1JKARhb7K893bcZgK4iE=", "properties": {"@spider": "usps_collection_boxes", "addr:city": "MUNFORDVILLE", "addr:country": "US", "addr:full": "215 S WASHINGTON ST", "addr:postcode": "42765", "addr:state": "KY", "amenity": "post_box", "brand": "United States Postal Service", "brand:wikidata": "Q668687", "collection_times": "Mo-Fr 16:00; Sa 10:00", "name": "USPS COLLECTION BOX - PO LOBBY", "note": "ON 12/24 AND 12/31, THIS BOX MAY BE COLLECTED AS EARLY AS 12 NOON.", "nsi_id": "unitedstatespostalservice-a77078", "operator": "United States Postal Service", "operator:short": "USPS", "operator:type": "public", "operator:wikidata": "Q668687", "ref": "4276500003"}, "type": "Feature"}
{"dataset_attributes": {"@spider": "usps_collection_boxes", "spider:collection_time": "2023-11-28T08:25:58.546046"}, "geometry": {"coordinates": [-85.891237369, 37.270832156], "type": "Point"}, "id": "e2LNuwXJTsi6JlxW9aZq96lmQxw=", "properties": {"@spider": "usps_collection_boxes", "addr:city": "MUNFORDVILLE", "addr:country": "US", "addr:full": "215 S WASHINGTON ST", "addr:postcode": "42765", "addr:state": "KY", "amenity": "post_box", "brand": "United States Postal Service", "brand:wikidata": "Q668687", "collection_times": "Mo-Fr 16:00; Sa 10:00", "name": "USPS COLLECTION BOX - PO LOBBY", "note": "ON 12/24 AND 12/31, THIS BOX MAY BE COLLECTED AS EARLY AS 12 NOON.", "nsi_id": "unitedstatespostalservice-a77078", "operator": "United States Postal Service", "operator:short": "USPS", "operator:type": "public", "operator:wikidata": "Q668687", "ref": "4276500005"}, "type": "Feature"}
{"dataset_attributes": {"@spider": "usps_collection_boxes", "spider:collection_time": "2023-11-28T08:25:58.546046"}, "geometry": {"coordinates": [-85.892255915, 37.524124936], "type": "Point"}, "id": "8YraqmG-iKwajsNDrJEhZxZdu_c=", "properties": {"@spider": "usps_collection_boxes", "addr:city": "SONORA", "addr:country": "US", "addr:full": "204 E WESTERN AVE", "addr:postcode": "42776", "addr:state": "KY", "amenity": "post_box", "brand": "United States Postal Service", "brand:wikidata": "Q668687", "collection_times": "Mo-Fr 15:45; Sa 09:00", "name": "USPS COLLECTION BOX - BLUE BOX", "note": "ON 12/24 AND 12/31, THIS BOX MAY BE COLLECTED AS EARLY AS 12 NOON.", "nsi_id": "unitedstatespostalservice-a77078", "operator": "United States Postal Service", "operator:short": "USPS", "operator:type": "public", "operator:wikidata": "Q668687", "ref": "4277600000"}, "type": "Feature"}
{"dataset_attributes": {"@spider": "usps_collection_boxes", "spider:collection_time": "2023-11-28T08:25:58.546046"}, "geometry": {"coordinates": [-85.892255915, 37.524124936], "type": "Point"}, "id": "vxx2vyLR932S9p9hS2RFVvPmBjs=", "properties": {"@spider": "usps_collection_boxes", "addr:city": "SONORA", "addr:country": "US", "addr:full": "204 E WESTERN AVE", "addr:postcode": "42776", "addr:state": "KY", "amenity": "post_box", "brand": "United States Postal Service", "brand:wikidata": "Q668687", "collection_times": "Mo-Fr 15:45; Sa 09:00", "name": "USPS COLLECTION BOX - PO LOBBY", "note": "ON 12/24 AND 12/31, THIS BOX MAY BE COLLECTED AS EARLY AS 12 NOON.", "nsi_id": "unitedstatespostalservice-a77078", "operator": "United States Postal Service", "operator:short": "USPS", "operator:type": "public", "operator:wikidata": "Q668687", "ref": "4277600003"}, "type": "Feature"}
{"dataset_attributes": {"@spider": "usps_collection_boxes", "spider:collection_time": "2023-11-28T08:25:58.546046"}, "geometry": {"coordinates": [-85.892255915, 37.524124936], "type": "Point"}, "id": "1jKHBY4Cmd-VKtucuWCl366K0iQ=", "properties": {"@spider": "usps_collection_boxes", "addr:city": "SONORA", "addr:country": "US", "addr:full": "204 E WESTERN AVE", "addr:postcode": "42776", "addr:state": "KY", "amenity": "post_box", "brand": "United States Postal Service", "brand:wikidata": "Q668687", "collection_times": "Mo-Fr 15:45; Sa 10:45", "name": "USPS COLLECTION BOX - PO LOBBY", "note": "ON 12/24 AND 12/31, THIS BOX MAY BE COLLECTED AS EARLY AS 12 NOON.", "nsi_id": "unitedstatespostalservice-a77078", "operator": "United States Postal Service", "operator:short": "USPS", "operator:type": "public", "operator:wikidata": "Q668687", "ref": "4277600005"}, "type": "Feature"}
{"dataset_attributes": {"@spider": "usps_collection_boxes", "spider:collection_time": "2023-11-28T08:25:58.546046"}, "geometry": {"coordinates": [-85.544775253, 37.326825936], "type": "Point"}, "id": "FeYkG3ByxKEActPlIdDsGC-lGL4=", "properties": {"@spider": "usps_collection_boxes", "addr:city": "SUMMERSVILLE", "addr:country": "US", "addr:full": "5160 HODGENVILLE RD", "addr:postcode": "42782", "addr:state": "KY", "amenity": "post_box", "brand": "United States Postal Service", "brand:wikidata": "Q668687", "collection_times": "Mo-Fr 15:30; Sa 09:45", "name": "USPS COLLECTION BOX - BLUE BOX", "note": "ON 12/24 AND 12/31, THIS BOX MAY BE COLLECTED AS EARLY AS 12 NOON.", "nsi_id": "unitedstatespostalservice-a77078", "operator": "United States Postal Service", "operator:short": "USPS", "operator:type": "public", "operator:wikidata": "Q668687", "ref": "4278200000"}, "type": "Feature"}
{"dataset_attributes": {"@spider": "usps_collection_boxes", "spider:collection_time": "2023-11-28T08:25:58.546046"}, "geometry": {"coordinates": [-85.544775253, 37.326825936], "type": "Point"}, "id": "Cyb7ECUA1TJqWsxJnr05hIXVK8A=", "properties": {"@spider": "usps_collection_boxes", "addr:city": "SUMMERSVILLE", "addr:country": "US", "addr:full": "5160 HODGENVILLE RD", "addr:postcode": "42782", "addr:state": "KY", "amenity": "post_box", "brand": "United States Postal Service", "brand:wikidata": "Q668687", "collection_times": "Mo-Fr 15:30; Sa 09:45", "name": "USPS COLLECTION BOX - PO LOBBY", "note": "ON 12/24 AND 12/31, THIS BOX MAY BE COLLECTED AS EARLY AS 12 NOON.", "nsi_id": "unitedstatespostalservice-a77078", "operator": "United States Postal Service", "operator:short": "USPS", "operator:type": "public", "operator:wikidata": "Q668687", "ref": "4278200001"}, "type": "Feature"}
{"dataset_attributes": {"@spider": "usps_collection_boxes", "spider:collection_time": "2023-11-28T08:25:58.546046"}, "geometry": {"coordinates": [-85.544775253, 37.326825936], "type": "Point"}, "id": "h2Zr8hqgPTYMoIQdd_5s6NVz_1A=", "properties": {"@spider": "usps_collection_boxes", "addr:city": "SUMMERSVILLE", "addr:country": "US", "addr:full": "5160 HODGENVILLE RD", "addr:postcode": "42782", "addr:state": "KY", "amenity": "post_box", "brand": "United States Postal Service", "brand:wikidata": "Q668687", "collection_times": "Mo-Fr 15:30; Sa 09:45", "name": "USPS COLLECTION BOX - PO LOBBY", "note": "ON 12/24 AND 12/31, THIS BOX MAY BE COLLECTED AS EARLY AS 12 NOON.", "nsi_id": "unitedstatespostalservice-a77078", "operator": "United States Postal Service", "operator:short": "USPS", "operator:type": "public", "operator:wikidata": "Q668687", "ref": "4278200003"}, "type": "Feature"}
{"dataset_attributes": {"@spider": "usps_collection_boxes", "spider:collection_time": "2023-11-28T08:25:58.546046"}, "geometry": {"coordinates": [-85.893793995, 37.46557052], "type": "Point"}, "id": "SsH_QUasoE7mbteVwRFcy_gIkCE=", "properties": {"@spider": "usps_collection_boxes", "addr:city": "UPTON", "addr:country": "US", "addr:full": "111 N WALNUT ST", "addr:postcode": "42784", "addr:state": "KY", "amenity": "post_box", "brand": "United States Postal Service", "brand:wikidata": "Q668687", "collection_times": "Mo-Fr 15:00; Sa 09:30", "name": "USPS COLLECTION BOX - BLUE BOX", "note": "ON 12/24 AND 12/31, THIS BOX MAY BE COLLECTED AS EARLY AS 12 NOON.", "nsi_id": "unitedstatespostalservice-a77078", "operator": "United States Postal Service", "operator:short": "USPS", "operator:type": "public", "operator:wikidata": "Q668687", "ref": "4278400000"}, "type": "Feature"}
{"dataset_attributes": {"@spider": "usps_collection_boxes", "spider:collection_time": "2023-11-28T08:25:58.546046"}, "geometry": {"coordinates": [-85.893793995, 37.46557052], "type": "Point"}, "id": "nzyh5VOEpoYr66LPav97WFkqq08=", "properties": {"@spider": "usps_collection_boxes", "addr:city": "UPTON", "addr:country": "US", "addr:full": "111 N WALNUT ST", "addr:postcode": "42784", "addr:state": "KY", "amenity": "post_box", "brand": "United States Postal Service", "brand:wikidata": "Q668687", "collection_times": "Mo-Fr 14:30; Sa 09:30", "name": "USPS COLLECTION BOX - PO LOBBY", "note": "ON 12/24 AND 12/31, THIS BOX MAY BE COLLECTED AS EARLY AS 12 NOON.", "nsi_id": "unitedstatespostalservice-a77078", "operator": "United States Postal Service", "operator:short": "USPS", "operator:type": "public", "operator:wikidata": "Q668687", "ref": "4278400003"}, "type": "Feature"}
{"dataset_attributes": {"@spider": "usps_collection_boxes", "spider:collection_time": "2023-11-28T08:25:58.546046"}, "geometry": {"coordinates": [-86.032475645, 37.55528363], "type": "Point"}, "id": "HRLZNEoeDCdRX6mCeAXb1a4qgFc=", "properties": {"@spider": "usps_collection_boxes", "addr:city": "WHITE MILLS", "addr:country": "US", "addr:full": "244 WHITE MILLS RD", "addr:postcode": "42788", "addr:state": "KY", "amenity": "post_box", "brand": "United States Postal Service", "brand:wikidata": "Q668687", "collection_times": "Mo-Sa 12:45", "name": "USPS COLLECTION BOX - BLUE BOX", "note": "ON 12/24 AND 12/31, THIS BOX MAY BE COLLECTED AS EARLY AS 12 NOON.", "nsi_id": "unitedstatespostalservice-a77078", "operator": "United States Postal Service", "operator:short": "USPS", "operator:type": "public", "operator:wikidata": "Q668687", "ref": "4278800000"}, "type": "Feature"}
{"dataset_attributes": {"@spider": "usps_collection_boxes", "spider:collection_time": "2023-11-28T08:25:58.546046"}, "geometry": {"coordinates": [-86.032475645, 37.55528363], "type": "Point"}, "id": "BRqa14pJZelNrgt4fvgL5mx5GZY=", "properties": {"@spider": "usps_collection_boxes", "addr:city": "WHITE MILLS", "addr:country": "US", "addr:full": "244 WHITE MILLS RD", "addr:postcode": "42788", "addr:state": "KY", "amenity": "post_box", "brand": "United States Postal Service", "brand:wikidata": "Q668687", "collection_times": "Mo-Sa 12:45", "name": "USPS COLLECTION BOX - PO LOBBY", "note": "ON 12/24 AND 12/31, THIS BOX MAY BE COLLECTED AS EARLY AS 12 NOON.", "nsi_id": "unitedstatespostalservice-a77078", "operator": "United States Postal Service", "operator:short": "USPS", "operator:type": "public", "operator:wikidata": "Q668687", "ref": "4278800001"}, "type": "Feature"}
{"dataset_attributes": {"@spider": "usps_collection_boxes", "spider:collection_time": "2023-11-28T08:25:58.546046"}, "geometry": {"coordinates": [-86.032475645, 37.55528363], "type": "Point"}, "id": "5XLNsmoA--aR56OADowDIkAknq4=", "properties": {"@spider": "usps_collection_boxes", "addr:city": "WHITE MILLS", "addr:country": "US", "addr:full": "244 WHITE MILLS RD", "addr:postcode": "42788", "addr:state": "KY", "amenity": "post_box", "brand": "United States Postal Service", "brand:wikidata": "Q668687", "collection_times": "Mo-Sa 14:45", "name": "USPS COLLECTION BOX - PO LOBBY", "note": "ON 12/24 AND 12/31, THIS BOX MAY BE COLLECTED AS EARLY AS 12 NOON.", "nsi_id": "unitedstatespostalservice-a77078", "operator": "United States Postal Service", "operator:short": "USPS", "operator:type": "public", "operator:wikidata": "Q668687", "ref": "4278800003"}, "type": "Feature"}
