{"geometry": {"coordinates": [-83.1803010996, 40.0749383632], "type": "Point"}, "id": "i-LzjVFHOFGo73Qc9V1aZ5adijs=", "properties": {"@spider": "usps_collection_boxes", "addr:city": "AMLIN", "addr:country": "US", "addr:full": "6931 RINGS RD", "addr:postcode": "43002", "addr:state": "OH", "brand": "USPS", "collection_times": "Mo-Fr 16:00; Sa 09:45", "name": "USPS COLLECTION BOX - BLUE BOX", "note": "ON 12/24 AND 12/31, THIS BOX MAY BE COLLECTED AS EARLY AS 12 NOON.", "ref": "4300200002"}, "type": "Feature"}
{"geometry": {"coordinates": [-83.1803010996, 40.0749383632], "type": "Point"}, "id": "h6M3ftfE7y8SAYBdoBtuFMYhNBk=", "properties": {"@spider": "usps_collection_boxes", "addr:city": "AMLIN", "addr:country": "US", "addr:full": "6931 RINGS RD", "addr:postcode": "43002", "addr:state": "OH", "brand": "USPS", "collection_times": "Mo-Fr 16:00; Sa 09:45", "name": "USPS COLLECTION BOX - PO LOBBY", "note": "ON 12/24 AND 12/31, THIS BOX MAY BE COLLECTED AS EARLY AS 12 NOON.", "ref": "4300200003"}, "type": "Feature"}
{"geometry": {"coordinates": [-83.179441712, 40.076794439], "type": "Point"}, "id": "8lgEFj5x68T35Go2kPBQhHHqcJk=", "properties": {"@spider": "usps_collection_boxes", "addr:city": "AMLIN", "addr:country": "US", "addr:full": "6931 RINGS RD", "addr:postcode": "43002", "addr:state": "OH", "brand": "USPS", "collection_times": "Mo-Fr 16:00; Sa 11:00", "name": "USPS COLLECTION BOX - PO LOBBY", "note": "ON 12/24 AND 12/31, THIS BOX MAY BE COLLECTED AS EARLY AS 12 NOON.", "ref": "4300200005"}, "type": "Feature"}
{"geometry": {"coordinates": [-82.954461, 40.409086], "type": "Point"}, "id": "h3mp1KBD73iuOEaIBpukboNOaxA=", "properties": {"@spider": "usps_collection_boxes", "addr:city": "ASHLEY", "addr:country": "US", "addr:full": "100 E HIGH ST", "addr:postcode": "43003", "addr:state": "OH", "brand": "USPS", "collection_times": "Mo-Fr 16:15; Sa 10:45", "name": "USPS COLLECTION BOX - BLUE BOX", "note": "ON 12/24 AND 12/31, THIS BOX MAY BE COLLECTED AS EARLY AS 12 NOON.", "ref": "4300300000"}, "type": "Feature"}
{"geometry": {"coordinates": [-82.962248229, 40.410909487], "type": "Point"}, "id": "kgqHZ3l9whBaWMICSIaiurVXKNQ=", "properties": {"@spider": "usps_collection_boxes", "addr:city": "ASHLEY", "addr:country": "US", "addr:full": "200 CENTER ST", "addr:postcode": "43003", "addr:state": "OH", "brand": "USPS", "collection_times": "Mo-Sa 09:00", "name": "USPS COLLECTION BOX - BLUE BOX", "ref": "4300300001"}, "type": "Feature"}
{"geometry": {"coordinates": [-82.954581, 40.409063], "type": "Point"}, "id": "5Mkivw9iV66ZPFKUvAEi2kf4GQs=", "properties": {"@spider": "usps_collection_boxes", "addr:city": "ASHLEY", "addr:country": "US", "addr:full": "100 E HIGH ST", "addr:postcode": "43003", "addr:state": "OH", "brand": "USPS", "collection_times": "Mo-Fr 16:15; Sa 10:45", "name": "USPS COLLECTION BOX - PO LOBBY", "note": "ON 12/24 AND 12/31, THIS BOX MAY BE COLLECTED AS EARLY AS 12 NOON.", "ref": "4300300002"}, "type": "Feature"}
{"geometry": {"coordinates": [-82.954503136, 40.409083508], "type": "Point"}, "id": "lRbVXHK9v8G5EDDKLLPtMkZyq1I=", "properties": {"@spider": "usps_collection_boxes", "addr:city": "ASHLEY", "addr:country": "US", "addr:full": "100 E HIGH ST", "addr:postcode": "43003", "addr:state": "OH", "brand": "USPS", "collection_times": "Mo-Fr 16:30; Sa 12:00", "name": "USPS COLLECTION BOX - PO LOBBY", "note": "ON 12/24 AND 12/31, THIS BOX MAY BE COLLECTED AS EARLY AS 12 NOON.", "ref": "4300300006"}, "type": "Feature"}
{"geometry": {"coordinates": [-83.628211, 40.17085], "type": "Point"}, "id": "XbMddJNUFBMfy27OgJRMzPN8gls=", "properties": {"@spider": "usps_collection_boxes", "addr:city": "CABLE", "addr:country": "US", "addr:full": "3582 MAIN ST", "addr:postcode": "43009", "addr:state": "OH", "brand": "USPS", "collection_times": "Mo-Fr 15:45; Sa 10:45", "name": "USPS COLLECTION BOX - BLUE BOX", "note": "ON 12/24 AND 12/31, THIS BOX MAY BE COLLECTED AS EARLY AS 12 NOON.", "ref": "4300900000"}, "type": "Feature"}
{"geometry": {"coordinates": [-83.62817, 40.170881], "type": "Point"}, "id": "rBxUCe-Lu1wRfYYAO7q-2HWVLn0=", "properties": {"@spider": "usps_collection_boxes", "addr:city": "CABLE", "addr:country": "US", "addr:full": "3582 MAIN ST", "addr:postcode": "43009", "addr:state": "OH", "brand": "USPS", "collection_times": "Mo-Fr 15:45; Sa 10:45", "name": "USPS COLLECTION BOX - PO LOBBY", "note": "ON 12/24 AND 12/31, THIS BOX MAY BE COLLECTED AS EARLY AS 12 NOON.", "ref": "4300900001"}, "type": "Feature"}
{"geometry": {"coordinates": [-83.628197968, 40.170926389], "type": "Point"}, "id": "hvMpcvkdaIMXUkvy-nkEGmLgOus=", "properties": {"@spider": "usps_collection_boxes", "addr:city": "CABLE", "addr:country": "US", "addr:full": "3582 MAIN ST", "addr:postcode": "43009", "addr:state": "OH", "brand": "USPS", "collection_times": "Mo-Fr 16:00; Sa 11:30", "name": "USPS COLLECTION BOX - PO LOBBY", "note": "ON 12/24 AND 12/31, THIS BOX MAY BE COLLECTED AS EARLY AS 12 NOON.", "ref": "4300900003"}, "type": "Feature"}
{"geometry": {"coordinates": [-82.696389, 40.305815], "type": "Point"}, "id": "RBPD1oQF3FIRgI3hK845e8twl6E=", "properties": {"@spider": "usps_collection_boxes", "addr:city": "CENTERBURG", "addr:country": "US", "addr:full": "55 N CLAYTON ST", "addr:postcode": "43011", "addr:state": "OH", "brand": "USPS", "collection_times": "Mo-Fr 16:30; Sa 11:45", "name": "USPS COLLECTION BOX - BLUE BOX", "note": "ON 12/24 AND 12/31, THIS BOX MAY BE COLLECTED AS EARLY AS 12 NOON.", "ref": "4301100000"}, "type": "Feature"}
{"geometry": {"coordinates": [-82.696292, 40.305774], "type": "Point"}, "id": "OVl3G52U6os9A9TUaAFgm7Nk6k0=", "properties": {"@spider": "usps_collection_boxes", "addr:city": "CENTERBURG", "addr:country": "US", "addr:full": "55 N CLAYTON ST", "addr:postcode": "43011", "addr:state": "OH", "brand": "USPS", "collection_times": "Mo-Fr 16:30; Sa 11:45", "name": "USPS COLLECTION BOX - PO LOBBY", "note": "ON 12/24 AND 12/31, THIS BOX MAY BE COLLECTED AS EARLY AS 12 NOON.", "ref": "4301100001"}, "type": "Feature"}
{"geometry": {"coordinates": [-82.696431644, 40.305852924], "type": "Point"}, "id": "V3pIwiHsYchT4GwKFGbDd7ESat0=", "properties": {"@spider": "usps_collection_boxes", "addr:city": "CENTERBURG", "addr:country": "US", "addr:full": "55 N CLAYTON ST", "addr:postcode": "43011", "addr:state": "OH", "brand": "USPS", "collection_times": "Mo-Fr 16:30; Sa 12:00", "name": "USPS COLLECTION BOX - PO LOBBY", "note": "ON 12/24 AND 12/31, THIS BOX MAY BE COLLECTED AS EARLY AS 12 NOON.", "ref": "4301100008"}, "type": "Feature"}
{"geometry": {"coordinates": [-82.686982, 40.238595], "type": "Point"}, "id": "N6po5AFdjBqNF_Pq76DeuCIwVKQ=", "properties": {"@spider": "usps_collection_boxes", "addr:city": "CROTON", "addr:country": "US", "addr:full": "14 S HIGH ST", "addr:postcode": "43013", "addr:state": "OH", "brand": "USPS", "collection_times": "Mo-Fr 11:30; Sa 12:00", "name": "USPS COLLECTION BOX - BLUE BOX", "ref": "4301300000"}, "type": "Feature"}
{"geometry": {"coordinates": [-82.687011, 40.238649], "type": "Point"}, "id": "JqCdVIRohWgVrphbKIOI65N2SEA=", "properties": {"@spider": "usps_collection_boxes", "addr:city": "CROTON", "addr:country": "US", "addr:full": "14 S HIGH ST", "addr:postcode": "43013", "addr:state": "OH", "brand": "USPS", "collection_times": "Mo-Fr 11:30; Sa 12:00", "name": "USPS COLLECTION BOX - PO LOBBY", "ref": "4301300001"}, "type": "Feature"}
{"geometry": {"coordinates": [-82.686974439, 40.238637926], "type": "Point"}, "id": "4JaWQUGQQOqo7Z03kxh2fFv0rZA=", "properties": {"@spider": "usps_collection_boxes", "addr:city": "CROTON", "addr:country": "US", "addr:full": "14 S HIGH ST", "addr:postcode": "43013", "addr:state": "OH", "brand": "USPS", "collection_times": "Mo-Fr 12:00; Sa 12:30", "name": "USPS COLLECTION BOX - PO LOBBY", "note": "ON 12/24 AND 12/31, THIS BOX MAY BE COLLECTED AS EARLY AS 12 NOON.", "ref": "4301300004"}, "type": "Feature"}
{"geometry": {"coordinates": [-83.069412218, 40.264962593], "type": "Point"}, "id": "3JvVbuya5KS8-4ckOA22O8CKJp4=", "properties": {"@spider": "usps_collection_boxes", "addr:city": "DELAWARE", "addr:country": "US", "addr:full": "1840 COLUMBUS PIKE", "addr:postcode": "43015", "addr:state": "OH", "brand": "USPS", "collection_times": "Mo-Sa 12:00", "name": "USPS COLLECTION BOX - BLUE BOX", "ref": "4301500005"}, "type": "Feature"}
{"geometry": {"coordinates": [-83.070517712, 40.30702968], "type": "Point"}, "id": "TCE5CmNCH-7_H-szYbwUupfhT6M=", "properties": {"@spider": "usps_collection_boxes", "addr:city": "DELAWARE", "addr:country": "US", "addr:full": "248 N WASHINGTON ST", "addr:postcode": "43015", "addr:state": "OH", "brand": "USPS", "collection_times": "Mo-Fr 15:30; Sa 14:15", "name": "USPS COLLECTION BOX - BLUE BOX", "note": "ON 12/24 AND 12/31, THIS BOX MAY BE COLLECTED AS EARLY AS 12 NOON.", "ref": "4301500011"}, "type": "Feature"}
{"geometry": {"coordinates": [-83.076886591, 40.331727461], "type": "Point"}, "id": "nhovUAGHDxbBsflkaCCnBaZnE8o=", "properties": {"@spider": "usps_collection_boxes", "addr:city": "DELAWARE", "addr:country": "US", "addr:full": "2281 BRUCE RD", "addr:postcode": "43015", "addr:state": "OH", "brand": "USPS", "collection_times": "Mo-Sa 10:15", "name": "USPS COLLECTION BOX - BLUE BOX", "ref": "4301500014"}, "type": "Feature"}
{"geometry": {"coordinates": [-83.067567507, 40.301855864], "type": "Point"}, "id": "lvOL3NnWSpIoodEdnk__ZEXNSp4=", "properties": {"@spider": "usps_collection_boxes", "addr:city": "DELAWARE", "addr:country": "US", "addr:full": "91 N SANDUSKY ST", "addr:postcode": "43015", "addr:state": "OH", "brand": "USPS", "collection_times": "Mo-Fr 16:25; Sa 14:25", "name": "USPS COLLECTION BOX - BLUE BOX", "note": "ON 12/24 AND 12/31, THIS BOX MAY BE COLLECTED AS EARLY AS 12 NOON.", "ref": "4301500017"}, "type": "Feature"}
{"geometry": {"coordinates": [-83.067219846, 40.305717733], "type": "Point"}, "id": "h_c3XDv_odrQBbvfWviLb3A1aw0=", "properties": {"@spider": "usps_collection_boxes", "addr:city": "DELAWARE", "addr:country": "US", "addr:full": "219 N SANDUSKY ST", "addr:postcode": "43015", "addr:state": "OH", "brand": "USPS", "collection_times": "Mo-Fr 14:00; Sa 14:20", "name": "USPS COLLECTION BOX - BLUE BOX", "note": "ON 12/24 AND 12/31, THIS BOX MAY BE COLLECTED AS EARLY AS 12 NOON.", "ref": "4301500018"}, "type": "Feature"}
{"geometry": {"coordinates": [-83.095609462, 40.307157376], "type": "Point"}, "id": "Hqb2mYJmBfXOASfM68c2QgGGb5M=", "properties": {"@spider": "usps_collection_boxes", "addr:city": "DELAWARE", "addr:country": "US", "addr:full": "800 W CENTRAL AVE", "addr:postcode": "43015", "addr:state": "OH", "brand": "USPS", "collection_times": "Mo-Sa 15:00", "name": "USPS COLLECTION BOX - BLUE BOX", "note": "ON 12/24 AND 12/31, THIS BOX MAY BE COLLECTED AS EARLY AS 12 NOON.", "ref": "4301500019"}, "type": "Feature"}
{"geometry": {"coordinates": [-83.090337045, 40.306798331], "type": "Point"}, "id": "Ebpt4o9F7rfNZ318VMQ5NOquVb0=", "properties": {"@spider": "usps_collection_boxes", "addr:city": "DELAWARE", "addr:country": "US", "addr:full": "12 TROY RD", "addr:postcode": "43015", "addr:state": "OH", "brand": "USPS", "collection_times": "Mo-Sa 15:00", "name": "USPS COLLECTION BOX - BLUE BOX", "note": "ON 12/24 AND 12/31, THIS BOX MAY BE COLLECTED AS EARLY AS 12 NOON.", "ref": "4301500020"}, "type": "Feature"}
{"geometry": {"coordinates": [-83.040603192, 40.349369539], "type": "Point"}, "id": "-F_ddRDQ59lFBXC0UUrDf9QScFA=", "properties": {"@spider": "usps_collection_boxes", "addr:city": "DELAWARE", "addr:country": "US", "addr:full": "1330 HANOVER RD", "addr:postcode": "43015", "addr:state": "OH", "brand": "USPS", "collection_times": "Mo-Sa 09:15", "name": "USPS COLLECTION BOX - BLUE BOX", "ref": "4301500026"}, "type": "Feature"}
{"geometry": {"coordinates": [-83.088016307, 40.30570993], "type": "Point"}, "id": "W4wPwJziPjjpU1q8E18IWMNoYt0=", "properties": {"@spider": "usps_collection_boxes", "addr:city": "DELAWARE", "addr:country": "US", "addr:full": "551 W CENTRAL AVE", "addr:postcode": "43015", "addr:state": "OH", "brand": "USPS", "collection_times": "Mo-Sa 15:00", "name": "USPS COLLECTION BOX - BLUE BOX", "note": "ON 12/24 AND 12/31, THIS BOX MAY BE COLLECTED AS EARLY AS 12 NOON.", "ref": "4301500027"}, "type": "Feature"}
{"geometry": {"coordinates": [-83.073056, 40.297986], "type": "Point"}, "id": "_krIb6yN8Mels-38N0dsgagaODw=", "properties": {"@spider": "usps_collection_boxes", "addr:city": "DELAWARE", "addr:country": "US", "addr:full": "35 S LIBERTY ST", "addr:postcode": "43015", "addr:state": "OH", "brand": "USPS", "collection_times": "Mo-Fr 16:45; Sa 14:45", "name": "USPS COLLECTION BOX - BLUE BOX", "note": "ON 12/24 AND 12/31, THIS BOX MAY BE COLLECTED AS EARLY AS 12 NOON.", "ref": "4301500033"}, "type": "Feature"}
{"geometry": {"coordinates": [-83.041538573, 40.296352401], "type": "Point"}, "id": "MJlRHbj-bDPNe7i-4Eepc_91Mao=", "properties": {"@spider": "usps_collection_boxes", "addr:city": "DELAWARE", "addr:country": "US", "addr:full": "585 SUNBURY RD", "addr:postcode": "43015", "addr:state": "OH", "brand": "USPS", "collection_times": "Mo-Sa 13:00", "name": "USPS COLLECTION BOX - BLUE BOX", "note": "ON 12/24 AND 12/31, THIS BOX MAY BE COLLECTED AS EARLY AS 12 NOON.", "ref": "4301500037"}, "type": "Feature"}
{"geometry": {"coordinates": [-83.073094, 40.29795], "type": "Point"}, "id": "cYdiQ6gEhy_YCwGIjjdamQvEhjk=", "properties": {"@spider": "usps_collection_boxes", "addr:city": "DELAWARE", "addr:country": "US", "addr:full": "35 S LIBERTY ST", "addr:postcode": "43015", "addr:state": "OH", "brand": "USPS", "collection_times": "Mo-Sa 17:10", "name": "USPS COLLECTION BOX - PO LOBBY", "note": "ON 12/24 AND 12/31, THIS BOX MAY BE COLLECTED AS EARLY AS 12 NOON.", "ref": "4301500040"}, "type": "Feature"}
{"geometry": {"coordinates": [-83.067677375, 40.300300792], "type": "Point"}, "id": "aY-QhjOMEaWNoqUjkO8ZBABYXME=", "properties": {"@spider": "usps_collection_boxes", "addr:city": "DELAWARE", "addr:country": "US", "addr:full": "43 N SANDUSKY ST", "addr:postcode": "43015", "addr:state": "OH", "brand": "USPS", "collection_times": "Mo-Fr 16:30; Sa 14:50", "name": "USPS COLLECTION BOX - BLUE BOX", "note": "ON 12/24 AND 12/31, THIS BOX MAY BE COLLECTED AS EARLY AS 12 NOON.", "ref": "4301500043"}, "type": "Feature"}
{"geometry": {"coordinates": [-83.109255896, 40.312382668], "type": "Point"}, "id": "y9ogaoudYj8Am5qQDKw0wwV5lAM=", "properties": {"@spider": "usps_collection_boxes", "addr:city": "DELAWARE", "addr:country": "US", "addr:full": "801 N HOUK RD", "addr:postcode": "43015", "addr:state": "OH", "brand": "USPS", "collection_times": "Mo-Sa 13:00", "name": "USPS COLLECTION BOX - BLUE BOX", "note": "ON 12/24 AND 12/31, THIS BOX MAY BE COLLECTED AS EARLY AS 12 NOON.", "ref": "4301500046"}, "type": "Feature"}
{"geometry": {"coordinates": [-83.073094, 40.29795], "type": "Point"}, "id": "HYIrsBCOGJnmpuZ4a9I4oPFBXUY=", "properties": {"@spider": "usps_collection_boxes", "addr:city": "DELAWARE", "addr:country": "US", "addr:full": "35 S LIBERTY ST", "addr:postcode": "43015", "addr:state": "OH", "brand": "USPS", "collection_times": "Mo-Sa 17:10", "name": "USPS COLLECTION BOX - APC", "note": "ON 12/24 AND 12/31, THIS BOX MAY BE COLLECTED AS EARLY AS 12 NOON.", "ref": "4301500047"}, "type": "Feature"}
{"geometry": {"coordinates": [-83.073026785, 40.298254177], "type": "Point"}, "id": "z2fr_QtVCfr3fh5xckC1usyGvtk=", "properties": {"@spider": "usps_collection_boxes", "addr:city": "DELAWARE", "addr:country": "US", "addr:full": "35 S LIBERTY ST", "addr:postcode": "43015", "addr:state": "OH", "brand": "USPS", "collection_times": "Mo-Fr 17:00; Sa 14:00", "name": "USPS COLLECTION BOX - PO LOBBY", "note": "ON 12/24 AND 12/31, THIS BOX MAY BE COLLECTED AS EARLY AS 12 NOON.", "ref": "4301500052"}, "type": "Feature"}
{"geometry": {"coordinates": [-83.168602051, 40.10470547], "type": "Point"}, "id": "sRPIYT0CGoMOdrVcuCezZ8yATuc=", "properties": {"@spider": "usps_collection_boxes", "addr:city": "DUBLIN", "addr:country": "US", "addr:full": "6700 PERIMETER DR", "addr:postcode": "43017", "addr:state": "OH", "brand": "USPS", "collection_times": "Mo-Fr 12:00; Sa 13:25", "name": "USPS COLLECTION BOX - BLUE BOX", "note": "ON 12/24 AND 12/31, THIS BOX MAY BE COLLECTED AS EARLY AS 12 NOON.", "ref": "4301700058"}, "type": "Feature"}
{"geometry": {"coordinates": [-83.151593256, 40.094045432], "type": "Point"}, "id": "-GHUYKCevsphD0-rCsvRQjO451U=", "properties": {"@spider": "usps_collection_boxes", "addr:city": "DUBLIN", "addr:country": "US", "addr:full": "5900 WILCOX PL", "addr:postcode": "43017", "addr:state": "OH", "brand": "USPS", "collection_times": "Mo-Fr 12:00", "name": "USPS COLLECTION BOX - BLUE BOX", "ref": "4301700064"}, "type": "Feature"}
{"geometry": {"coordinates": [-83.148094759, 40.13609748], "type": "Point"}, "id": "eMX3zyY_5OxOysrbTeF_86QDcpk=", "properties": {"@spider": "usps_collection_boxes", "addr:city": "DUBLIN", "addr:country": "US", "addr:full": "6105 MEMORIAL DR", "addr:postcode": "43017", "addr:state": "OH", "brand": "USPS", "collection_times": "Mo-Sa 09:00", "name": "USPS COLLECTION BOX - BLUE BOX", "ref": "4301700072"}, "type": "Feature"}
{"geometry": {"coordinates": [-82.541011237, 40.477257431], "type": "Point"}, "id": "GbE92qg9zMT0D_vgdIm8aIjQOlc=", "properties": {"@spider": "usps_collection_boxes", "addr:city": "FREDERICKTOWN", "addr:country": "US", "addr:full": "128 S MAIN ST", "addr:postcode": "43019", "addr:state": "OH", "brand": "USPS", "collection_times": "Mo-Sa 14:00", "name": "USPS COLLECTION BOX - BLUE BOX", "note": "ON 12/24 AND 12/31, THIS BOX MAY BE COLLECTED AS EARLY AS 12 NOON.", "ref": "4301900001"}, "type": "Feature"}
{"geometry": {"coordinates": [-82.542266521, 40.482964205], "type": "Point"}, "id": "w1zp6C5gQR6Xk93tVJeCiEwmvE8=", "properties": {"@spider": "usps_collection_boxes", "addr:city": "FREDERICKTOWN", "addr:country": "US", "addr:full": "67 N PLEASANT ST", "addr:postcode": "43019", "addr:state": "OH", "brand": "USPS", "collection_times": "Mo-Fr 15:45; Sa 14:30", "name": "USPS COLLECTION BOX - BLUE BOX", "note": "ON 12/24 AND 12/31, THIS BOX MAY BE COLLECTED AS EARLY AS 12 NOON.", "ref": "4301900003"}, "type": "Feature"}
{"geometry": {"coordinates": [-82.551515454, 40.485894821], "type": "Point"}, "id": "N2Vv6okmkHb1h4CG47h9Fb-UlbY=", "properties": {"@spider": "usps_collection_boxes", "addr:city": "FREDERICKTOWN", "addr:country": "US", "addr:full": "14 COLONY DR", "addr:postcode": "43019", "addr:state": "OH", "brand": "USPS", "collection_times": "Mo-Sa 11:30", "name": "USPS COLLECTION BOX - BLUE BOX", "ref": "4301900004"}, "type": "Feature"}
{"geometry": {"coordinates": [-82.542237, 40.482735], "type": "Point"}, "id": "Tvr5yF0NNjBYU2uRkQDCLL5B0Bc=", "properties": {"@spider": "usps_collection_boxes", "addr:city": "FREDERICKTOWN", "addr:country": "US", "addr:full": "67 N PLEASANT ST", "addr:postcode": "43019", "addr:state": "OH", "brand": "USPS", "collection_times": "Mo-Fr 15:45; Sa 11:30", "name": "USPS COLLECTION BOX - PO LOBBY", "note": "ON 12/24 AND 12/31, THIS BOX MAY BE COLLECTED AS EARLY AS 12 NOON.", "ref": "4301900005"}, "type": "Feature"}
{"geometry": {"coordinates": [-82.554272674, 40.479563659], "type": "Point"}, "id": "_EQafquqmkz60ScJU_C9zM5ug5A=", "properties": {"@spider": "usps_collection_boxes", "addr:city": "FREDERICKTOWN", "addr:country": "US", "addr:full": "250 W SANDUSKY ST", "addr:postcode": "43019", "addr:state": "OH", "brand": "USPS", "collection_times": "Mo-Fr 12:30; Sa 11:30", "name": "USPS COLLECTION BOX - BLUE BOX", "note": "ON 12/24 AND 12/31, THIS BOX MAY BE COLLECTED AS EARLY AS 12 NOON.", "ref": "4301900006"}, "type": "Feature"}
{"geometry": {"coordinates": [-82.542266521, 40.482964205], "type": "Point"}, "id": "bNQmmymawcmPL3JiqRCR8D8fMbc=", "properties": {"@spider": "usps_collection_boxes", "addr:city": "FREDERICKTOWN", "addr:country": "US", "addr:full": "67 N PLEASANT ST", "addr:postcode": "43019", "addr:state": "OH", "brand": "USPS", "collection_times": "Mo-Fr 16:00; Sa 11:00", "name": "USPS COLLECTION BOX - PO LOBBY", "note": "ON 12/24 AND 12/31, THIS BOX MAY BE COLLECTED AS EARLY AS 12 NOON.", "ref": "4301900008"}, "type": "Feature"}
{"geometry": {"coordinates": [-82.880459, 40.215437], "type": "Point"}, "id": "BiYqmWtdGyc1O5vW3SAg57fcFWg=", "properties": {"@spider": "usps_collection_boxes", "addr:city": "GALENA", "addr:country": "US", "addr:full": "34 W PARK ST", "addr:postcode": "43021", "addr:state": "OH", "brand": "USPS", "collection_times": "Mo-Fr 16:15; Sa 11:45", "name": "USPS COLLECTION BOX - BLUE BOX", "note": "ON 12/24 AND 12/31, THIS BOX MAY BE COLLECTED AS EARLY AS 12 NOON.", "ref": "4302100000"}, "type": "Feature"}
{"geometry": {"coordinates": [-82.880459, 40.215437], "type": "Point"}, "id": "PFlsZMnJSYQYCwuLbtBz0jdIJpM=", "properties": {"@spider": "usps_collection_boxes", "addr:city": "GALENA", "addr:country": "US", "addr:full": "34 W PARK ST", "addr:postcode": "43021", "addr:state": "OH", "brand": "USPS", "collection_times": "Mo-Fr 16:15; Sa 11:45", "name": "USPS COLLECTION BOX - PO LOBBY", "note": "ON 12/24 AND 12/31, THIS BOX MAY BE COLLECTED AS EARLY AS 12 NOON.", "ref": "4302100001"}, "type": "Feature"}
{"geometry": {"coordinates": [-82.88038209, 40.215453768], "type": "Point"}, "id": "MSQVT3Ox4h6oC7ZaRl2jRqO4sQE=", "properties": {"@spider": "usps_collection_boxes", "addr:city": "GALENA", "addr:country": "US", "addr:full": "34 W PARK ST", "addr:postcode": "43021", "addr:state": "OH", "brand": "USPS", "collection_times": "Mo-Fr 16:30; Sa 12:00", "name": "USPS COLLECTION BOX - PO LOBBY", "note": "ON 12/24 AND 12/31, THIS BOX MAY BE COLLECTED AS EARLY AS 12 NOON.", "ref": "4302100003"}, "type": "Feature"}
{"geometry": {"coordinates": [-82.397129, 40.376924], "type": "Point"}, "id": "oosShWFE7UE6ws3MEynyvMaf9cU=", "properties": {"@spider": "usps_collection_boxes", "addr:city": "GAMBIER", "addr:country": "US", "addr:full": "107 CHASE AVE", "addr:postcode": "43022", "addr:state": "OH", "brand": "USPS", "collection_times": "Mo-Fr 16:15; Sa 12:15", "name": "USPS COLLECTION BOX - BLUE BOX", "note": "ON 12/24 AND 12/31, THIS BOX MAY BE COLLECTED AS EARLY AS 12 NOON.", "ref": "4302200000"}, "type": "Feature"}
{"geometry": {"coordinates": [-82.3971, 40.376833], "type": "Point"}, "id": "7GNm80iXWo7q7ZlfZPquRjq3kgU=", "properties": {"@spider": "usps_collection_boxes", "addr:city": "GAMBIER", "addr:country": "US", "addr:full": "107 CHASE AVE", "addr:postcode": "43022", "addr:state": "OH", "brand": "USPS", "collection_times": "Mo-Fr 16:15; Sa 12:15", "name": "USPS COLLECTION BOX - PO LOBBY", "note": "ON 12/24 AND 12/31, THIS BOX MAY BE COLLECTED AS EARLY AS 12 NOON.", "ref": "4302200001"}, "type": "Feature"}
{"geometry": {"coordinates": [-82.397127916, 40.376988566], "type": "Point"}, "id": "PT1oT4CiyC1TYEsA2faL_NvDDC4=", "properties": {"@spider": "usps_collection_boxes", "addr:city": "GAMBIER", "addr:country": "US", "addr:full": "107 CHASE AVE", "addr:postcode": "43022", "addr:state": "OH", "brand": "USPS", "collection_times": "Mo-Fr 16:00; Sa 12:00", "name": "USPS COLLECTION BOX - PO LOBBY", "note": "ON 12/24 AND 12/31, THIS BOX MAY BE COLLECTED AS EARLY AS 12 NOON.", "ref": "4302200005"}, "type": "Feature"}
{"geometry": {"coordinates": [-82.519379, 40.252738], "type": "Point"}, "id": "74ic2DGl_XqIM7caJ6KK5dvd9b0=", "properties": {"@spider": "usps_collection_boxes", "addr:city": "HOMER", "addr:country": "US", "addr:full": "1080 HOMER RD NW", "addr:postcode": "43027", "addr:state": "OH", "brand": "USPS", "collection_times": "Mo-Fr 11:30; Sa 09:45", "name": "USPS COLLECTION BOX - BLUE BOX", "ref": "4302700000"}, "type": "Feature"}
{"geometry": {"coordinates": [-82.519419, 40.252712], "type": "Point"}, "id": "kAxgU3EKK-4WouUpvJzDP4WouP8=", "properties": {"@spider": "usps_collection_boxes", "addr:city": "HOMER", "addr:country": "US", "addr:full": "1080 HOMER RD NW", "addr:postcode": "43027", "addr:state": "OH", "brand": "USPS", "collection_times": "Mo-Fr 11:30; Sa 09:45", "name": "USPS COLLECTION BOX - PO LOBBY", "ref": "4302700001"}, "type": "Feature"}
{"geometry": {"coordinates": [-82.518920633, 40.252717445], "type": "Point"}, "id": "YSeCzmbP3MGCmGtfBTTyk5ovinY=", "properties": {"@spider": "usps_collection_boxes", "addr:city": "HOMER", "addr:country": "US", "addr:full": "1080 HOMER RD NW", "addr:postcode": "43027", "addr:state": "OH", "brand": "USPS", "collection_times": "Mo-Fr 12:00; Sa 10:00", "name": "USPS COLLECTION BOX - PO LOBBY", "ref": "4302700003"}, "type": "Feature"}
{"geometry": {"coordinates": [-83.488761, 40.122529], "type": "Point"}, "id": "GYb8EPjtg15htOqZ0GlhBpd8rs0=", "properties": {"@spider": "usps_collection_boxes", "addr:city": "IRWIN", "addr:country": "US", "addr:full": "24176 STATE ROUTE 161", "addr:postcode": "43029", "addr:state": "OH", "brand": "USPS", "collection_times": "Mo-Fr 15:45; Sa 10:00", "name": "USPS COLLECTION BOX - BLUE BOX", "note": "ON 12/24 AND 12/31, THIS BOX MAY BE COLLECTED AS EARLY AS 12 NOON.", "ref": "4302900000"}, "type": "Feature"}
{"geometry": {"coordinates": [-83.488776, 40.122504], "type": "Point"}, "id": "g3F2ZFNPXB3OQ4bnSNAPGerxZoY=", "properties": {"@spider": "usps_collection_boxes", "addr:city": "IRWIN", "addr:country": "US", "addr:full": "24176 STATE ROUTE 161", "addr:postcode": "43029", "addr:state": "OH", "brand": "USPS", "collection_times": "Mo-Fr 15:45; Sa 10:00", "name": "USPS COLLECTION BOX - PO LOBBY", "note": "ON 12/24 AND 12/31, THIS BOX MAY BE COLLECTED AS EARLY AS 12 NOON.", "ref": "4302900001"}, "type": "Feature"}
{"geometry": {"coordinates": [-83.488930794, 40.122600752], "type": "Point"}, "id": "5KRRkgX0ClJvMDQVupO0WRn8Zd0=", "properties": {"@spider": "usps_collection_boxes", "addr:city": "IRWIN", "addr:country": "US", "addr:full": "24176 STATE ROUTE 161", "addr:postcode": "43029", "addr:state": "OH", "brand": "USPS", "collection_times": "Mo-Fr 16:00; Sa 14:30", "name": "USPS COLLECTION BOX - PO LOBBY", "note": "ON 12/24 AND 12/31, THIS BOX MAY BE COLLECTED AS EARLY AS 12 NOON.", "ref": "4302900003"}, "type": "Feature"}
{"geometry": {"coordinates": [-82.684196135, 40.153096582], "type": "Point"}, "id": "RhWv0OI63BxxzmtNWqTFu4m1Nc4=", "properties": {"@spider": "usps_collection_boxes", "addr:city": "JOHNSTOWN", "addr:country": "US", "addr:full": "39 S MAIN ST", "addr:postcode": "43031", "addr:state": "OH", "brand": "USPS", "collection_times": "Mo-Sa 09:30", "name": "USPS COLLECTION BOX - BLUE BOX", "ref": "4303100006"}, "type": "Feature"}
{"geometry": {"coordinates": [-82.701048407, 40.147429979], "type": "Point"}, "id": "9A568YvXsusdZtNccA9vp-uvKSA=", "properties": {"@spider": "usps_collection_boxes", "addr:city": "JOHNSTOWN", "addr:country": "US", "addr:full": "625 W COSHOCTON ST", "addr:postcode": "43031", "addr:state": "OH", "brand": "USPS", "collection_times": "Mo-Sa 08:30", "name": "USPS COLLECTION BOX - BLUE BOX", "ref": "4303100014"}, "type": "Feature"}
{"geometry": {"coordinates": [-82.6891519, 40.151209], "type": "Point"}, "id": "HCbPQVFiuP8z8KM9TqXgu6K1Irk=", "properties": {"@spider": "usps_collection_boxes", "addr:city": "JOHNSTOWN", "addr:country": "US", "addr:full": "211 W COSHOCTON ST", "addr:postcode": "43031", "addr:state": "OH", "brand": "USPS", "collection_times": "Mo-Fr 16:15; Sa 11:45", "name": "USPS COLLECTION BOX - BLUE BOX", "note": "ON 12/24 AND 12/31, THIS BOX MAY BE COLLECTED AS EARLY AS 12 NOON.", "ref": "4303100016"}, "type": "Feature"}
{"geometry": {"coordinates": [-82.6887147, 40.150913], "type": "Point"}, "id": "qYyv9y88rpRHzWyMLXiS6aqsQDM=", "properties": {"@spider": "usps_collection_boxes", "addr:city": "JOHNSTOWN", "addr:country": "US", "addr:full": "211 W COSHOCTON ST", "addr:postcode": "43031", "addr:state": "OH", "brand": "USPS", "collection_times": "Mo-Fr 16:15; Sa 11:45", "name": "USPS COLLECTION BOX - PO LOBBY", "note": "ON 12/24 AND 12/31, THIS BOX MAY BE COLLECTED AS EARLY AS 12 NOON.", "ref": "4303100018"}, "type": "Feature"}
{"geometry": {"coordinates": [-82.689199285, 40.151304591], "type": "Point"}, "id": "kXN126g0P1So0W6qPBUUWvxi4gw=", "properties": {"@spider": "usps_collection_boxes", "addr:city": "JOHNSTOWN", "addr:country": "US", "addr:full": "211 W COSHOCTON ST", "addr:postcode": "43031", "addr:state": "OH", "brand": "USPS", "collection_times": "Mo-Fr 16:30; Sa 11:00", "name": "USPS COLLECTION BOX - PO LOBBY", "note": "ON 12/24 AND 12/31, THIS BOX MAY BE COLLECTED AS EARLY AS 12 NOON.", "ref": "4303100021"}, "type": "Feature"}
{"geometry": {"coordinates": [-83.016788, 40.174975], "type": "Point"}, "id": "xxhtogc96-y_yHaVQ8z5CQocIOI=", "properties": {"@spider": "usps_collection_boxes", "addr:city": "LEWIS CENTER", "addr:country": "US", "addr:full": "393 E ORANGE RD", "addr:postcode": "43035", "addr:state": "OH", "brand": "USPS", "collection_times": "Mo-Fr 16:30; Sa 14:00", "name": "USPS COLLECTION BOX - BLUE BOX", "note": "ON 12/24 AND 12/31, THIS BOX MAY BE COLLECTED AS EARLY AS 12 NOON.", "ref": "4303500000"}, "type": "Feature"}
{"geometry": {"coordinates": [-83.00182369, 40.158018076], "type": "Point"}, "id": "t9NFi6p6K9oEeyYqap54dsk1ybQ=", "properties": {"@spider": "usps_collection_boxes", "addr:city": "LEWIS CENTER", "addr:country": "US", "addr:full": "8690 OAK CREEK DR", "addr:postcode": "43035", "addr:state": "OH", "brand": "USPS", "collection_times": "Mo-Sa 11:00", "name": "USPS COLLECTION BOX - BLUE BOX", "ref": "4303500001"}, "type": "Feature"}
{"geometry": {"coordinates": [-83.002510936, 40.153446605], "type": "Point"}, "id": "rjx1uhfhg6qMNNGZaBLJPnzqts4=", "properties": {"@spider": "usps_collection_boxes", "addr:city": "LEWIS CENTER", "addr:country": "US", "addr:full": "1151 BAYRIDGE DR", "addr:postcode": "43035", "addr:state": "OH", "brand": "USPS", "collection_times": "Mo-Fr 11:00; Sa 10:00", "name": "USPS COLLECTION BOX - BLUE BOX", "ref": "4303500002"}, "type": "Feature"}
{"geometry": {"coordinates": [-83.008817183, 40.170811569], "type": "Point"}, "id": "pAH9gAXYYCzSM_Ac63zkwcl4l28=", "properties": {"@spider": "usps_collection_boxes", "addr:city": "LEWIS CENTER", "addr:country": "US", "addr:full": "8145 STRAWBERRY HILL RD", "addr:postcode": "43035", "addr:state": "OH", "brand": "USPS", "collection_times": "Mo-Fr 11:30; Sa 11:00", "name": "USPS COLLECTION BOX - BLUE BOX", "ref": "4303500007"}, "type": "Feature"}
{"geometry": {"coordinates": [-83.034530552, 40.219933211], "type": "Point"}, "id": "LLWbED06k-K4eguwGmykbxFraEo=", "properties": {"@spider": "usps_collection_boxes", "addr:city": "LEWIS CENTER", "addr:country": "US", "addr:full": "5277 COLUMBUS PIKE", "addr:postcode": "43035", "addr:state": "OH", "brand": "USPS", "collection_times": "Mo-Sa 10:15", "name": "USPS COLLECTION BOX - BLUE BOX", "ref": "4303500008"}, "type": "Feature"}
{"geometry": {"coordinates": [-82.997738443, 40.149989456], "type": "Point"}, "id": "V3KNR8VBweEkOqJ95vFSS0v7JTY=", "properties": {"@spider": "usps_collection_boxes", "addr:city": "LEWIS CENTER", "addr:country": "US", "addr:full": "9151 S OLD STATE RD", "addr:postcode": "43035", "addr:state": "OH", "brand": "USPS", "collection_times": "Mo-Fr 12:00; Sa 10:30", "name": "USPS COLLECTION BOX - BLUE BOX", "ref": "4303500009"}, "type": "Feature"}
{"geometry": {"coordinates": [-83.019197327, 40.161033032], "type": "Point"}, "id": "bkwP5Rfg5XMdzSzYmRDAQkR5J6U=", "properties": {"@spider": "usps_collection_boxes", "addr:city": "LEWIS CENTER", "addr:country": "US", "addr:full": "8870 COLUMBUS PIKE", "addr:postcode": "43035", "addr:state": "OH", "brand": "USPS", "collection_times": "Mo-Sa 09:30", "name": "USPS COLLECTION BOX - BLUE BOX", "ref": "4303500011"}, "type": "Feature"}
{"geometry": {"coordinates": [-83.016678, 40.174944], "type": "Point"}, "id": "E-uejDZuVeUp7l_iEFS4cIhpdkc=", "properties": {"@spider": "usps_collection_boxes", "addr:city": "LEWIS CENTER", "addr:country": "US", "addr:full": "393 E ORANGE RD", "addr:postcode": "43035", "addr:state": "OH", "brand": "USPS", "collection_times": "Mo-Fr 16:30; Sa 14:00", "name": "USPS COLLECTION BOX - BLUE BOX", "note": "ON 12/24 AND 12/31, THIS BOX MAY BE COLLECTED AS EARLY AS 12 NOON.", "ref": "4303500015"}, "type": "Feature"}
{"geometry": {"coordinates": [-83.016678, 40.174944], "type": "Point"}, "id": "2Ivq7GqMSezaOTDREWgK7TQsNeA=", "properties": {"@spider": "usps_collection_boxes", "addr:city": "LEWIS CENTER", "addr:country": "US", "addr:full": "393 E ORANGE RD", "addr:postcode": "43035", "addr:state": "OH", "brand": "USPS", "collection_times": "Mo-Fr 16:30; Sa 14:00", "name": "USPS COLLECTION BOX - BLUE BOX", "note": "ON 12/24 AND 12/31, THIS BOX MAY BE COLLECTED AS EARLY AS 12 NOON.", "ref": "4303500016"}, "type": "Feature"}
{"geometry": {"coordinates": [-83.016678, 40.174944], "type": "Point"}, "id": "ugQxcgd5XWwr6TgBMs70hMIfjFY=", "properties": {"@spider": "usps_collection_boxes", "addr:city": "LEWIS CENTER", "addr:country": "US", "addr:full": "393 E ORANGE RD", "addr:postcode": "43035", "addr:state": "OH", "brand": "USPS", "collection_times": "Mo-Fr 17:00; Sa 14:00", "name": "USPS COLLECTION BOX - PO LOBBY", "note": "ON 12/24 AND 12/31, THIS BOX MAY BE COLLECTED AS EARLY AS 12 NOON.", "ref": "4303500018"}, "type": "Feature"}
{"geometry": {"coordinates": [-83.012444026, 40.15594146], "type": "Point"}, "id": "rwj5ZISpTkt9BOVEG6tpU8Tyivk=", "properties": {"@spider": "usps_collection_boxes", "addr:city": "LEWIS CENTER", "addr:country": "US", "addr:full": "737 ENTERPRISE DR", "addr:postcode": "43035", "addr:state": "OH", "brand": "USPS", "collection_times": "Mo-Sa 12:30", "name": "USPS COLLECTION BOX - BLUE BOX", "note": "ON 12/24 AND 12/31, THIS BOX MAY BE COLLECTED AS EARLY AS 12 NOON.", "ref": "4303500019"}, "type": "Feature"}
{"geometry": {"coordinates": [-83.016678, 40.174944], "type": "Point"}, "id": "UKi3DQcTwMjM4V6pOGCP6_v7-mE=", "properties": {"@spider": "usps_collection_boxes", "addr:city": "LEWIS CENTER", "addr:country": "US", "addr:full": "393 E ORANGE RD", "addr:postcode": "43035", "addr:state": "OH", "brand": "USPS", "collection_times": "Mo-Fr 17:00; Sa 14:00", "name": "USPS COLLECTION BOX - APC", "note": "ON 12/24 AND 12/31, THIS BOX MAY BE COLLECTED AS EARLY AS 12 NOON.", "ref": "4303500020"}, "type": "Feature"}
{"geometry": {"coordinates": [-83.017469001, 40.174989523], "type": "Point"}, "id": "MmvcZL0xm0yTv7y81c9AGT2mTaA=", "properties": {"@spider": "usps_collection_boxes", "addr:city": "LEWIS CENTER", "addr:country": "US", "addr:full": "393 E ORANGE RD", "addr:postcode": "43035", "addr:state": "OH", "brand": "USPS", "collection_times": "Mo-Fr 17:00; Sa 14:00", "name": "USPS COLLECTION BOX - PO LOBBY", "note": "ON 12/24 AND 12/31, THIS BOX MAY BE COLLECTED AS EARLY AS 12 NOON.", "ref": "4303500023"}, "type": "Feature"}
{"geometry": {"coordinates": [-83.26226, 40.354067], "type": "Point"}, "id": "8Pgihl1gAG3i4QcpQJEwQYJnkJo=", "properties": {"@spider": "usps_collection_boxes", "addr:city": "MAGNETIC SPGS", "addr:country": "US", "addr:full": "57 S MAIN ST", "addr:postcode": "43036", "addr:state": "OH", "brand": "USPS", "collection_times": "Mo-Fr 10:30; Sa 11:00", "name": "USPS COLLECTION BOX - BLUE BOX", "ref": "4303600000"}, "type": "Feature"}
{"geometry": {"coordinates": [-83.262229, 40.354049], "type": "Point"}, "id": "mjNwWvakzRwMkj7b9mQ39ynBOZg=", "properties": {"@spider": "usps_collection_boxes", "addr:city": "MAGNETIC SPGS", "addr:country": "US", "addr:full": "57 S MAIN ST", "addr:postcode": "43036", "addr:state": "OH", "brand": "USPS", "collection_times": "Mo-Fr 10:30; Sa 11:00", "name": "USPS COLLECTION BOX - PO LOBBY", "ref": "4303600001"}, "type": "Feature"}
{"geometry": {"coordinates": [-83.262285527, 40.354066784], "type": "Point"}, "id": "KfriAQXu6kXS9LIgOG296WZnjRM=", "properties": {"@spider": "usps_collection_boxes", "addr:city": "MAGNETIC SPGS", "addr:country": "US", "addr:full": "57 S MAIN ST", "addr:postcode": "43036", "addr:state": "OH", "brand": "USPS", "collection_times": "Mo-Fr 11:00; Sa 11:15", "name": "USPS COLLECTION BOX - PO LOBBY", "ref": "4303600003"}, "type": "Feature"}
{"geometry": {"coordinates": [-82.353563, 40.269995], "type": "Point"}, "id": "MgKCod1N43t2-J67qw-liDtDVT4=", "properties": {"@spider": "usps_collection_boxes", "addr:city": "MARTINSBURG", "addr:country": "US", "addr:full": "110 E LIBERTY ST", "addr:postcode": "43037", "addr:state": "OH", "brand": "USPS", "collection_times": "Mo-Fr 15:15; Sa 10:45", "name": "USPS COLLECTION BOX - BLUE BOX", "note": "ON 12/24 AND 12/31, THIS BOX MAY BE COLLECTED AS EARLY AS 12 NOON.", "ref": "4303700000"}, "type": "Feature"}
{"geometry": {"coordinates": [-82.353605, 40.26997], "type": "Point"}, "id": "YhBv2uA2eC5Anb5R5JFV8gnaj88=", "properties": {"@spider": "usps_collection_boxes", "addr:city": "MARTINSBURG", "addr:country": "US", "addr:full": "110 E LIBERTY ST", "addr:postcode": "43037", "addr:state": "OH", "brand": "USPS", "collection_times": "Mo-Fr 15:30; Sa 10:45", "name": "USPS COLLECTION BOX - PO LOBBY", "note": "ON 12/24 AND 12/31, THIS BOX MAY BE COLLECTED AS EARLY AS 12 NOON.", "ref": "4303700001"}, "type": "Feature"}
{"geometry": {"coordinates": [-82.35328005, 40.269969449], "type": "Point"}, "id": "fE5mZpdPnZvK005atTjjMyl8dqk=", "properties": {"@spider": "usps_collection_boxes", "addr:city": "MARTINSBURG", "addr:country": "US", "addr:full": "110 E LIBERTY ST", "addr:postcode": "43037", "addr:state": "OH", "brand": "USPS", "collection_times": "Mo-Fr 15:30; Sa 11:00", "name": "USPS COLLECTION BOX - PO LOBBY", "note": "ON 12/24 AND 12/31, THIS BOX MAY BE COLLECTED AS EARLY AS 12 NOON.", "ref": "4303700003"}, "type": "Feature"}
{"geometry": {"coordinates": [-83.371689077, 40.228446112], "type": "Point"}, "id": "smd49HhZ8cZ5c5dvJHPJUFesTHI=", "properties": {"@spider": "usps_collection_boxes", "addr:city": "MARYSVILLE", "addr:country": "US", "addr:full": "700 STOCKDALE DR", "addr:postcode": "43040", "addr:state": "OH", "brand": "USPS", "collection_times": "Mo-Fr 13:30; Sa 12:00", "name": "USPS COLLECTION BOX - BLUE BOX", "note": "ON 12/24 AND 12/31, THIS BOX MAY BE COLLECTED AS EARLY AS 12 NOON.", "ref": "4304000003"}, "type": "Feature"}
{"geometry": {"coordinates": [-83.375367253, 40.223504285], "type": "Point"}, "id": "esR2or1zERVVjzPCvcNz7mo22uM=", "properties": {"@spider": "usps_collection_boxes", "addr:city": "MARYSVILLE", "addr:country": "US", "addr:full": "376 ROSEHILL DR", "addr:postcode": "43040", "addr:state": "OH", "brand": "USPS", "collection_times": "Mo-Fr 13:30; Sa 12:00", "name": "USPS COLLECTION BOX - BLUE BOX", "note": "ON 12/24 AND 12/31, THIS BOX MAY BE COLLECTED AS EARLY AS 12 NOON.", "ref": "4304000004"}, "type": "Feature"}
{"geometry": {"coordinates": [-83.369421848, 40.235456542], "type": "Point"}, "id": "GtjgR9sR4lL4VX-YoqIxuBLlr0I=", "properties": {"@spider": "usps_collection_boxes", "addr:city": "MARYSVILLE", "addr:country": "US", "addr:full": "233 W 6TH ST", "addr:postcode": "43040", "addr:state": "OH", "brand": "USPS", "collection_times": "Mo-Fr 14:45; Sa 12:00", "name": "USPS COLLECTION BOX - BLUE BOX", "note": "ON 12/24 AND 12/31, THIS BOX MAY BE COLLECTED AS EARLY AS 12 NOON.", "ref": "4304000013"}, "type": "Feature"}
{"geometry": {"coordinates": [-83.372139189, 40.23677046], "type": "Point"}, "id": "yYny-aXiZz7WfJvUnoEtEyCcQXU=", "properties": {"@spider": "usps_collection_boxes", "addr:city": "MARYSVILLE", "addr:country": "US", "addr:full": "332 W 5TH ST", "addr:postcode": "43040", "addr:state": "OH", "brand": "USPS", "collection_times": "Mo-Sa 09:15", "name": "USPS COLLECTION BOX - BLUE BOX", "ref": "4304000015"}, "type": "Feature"}
{"geometry": {"coordinates": [-83.366303624, 40.243388624], "type": "Point"}, "id": "6phagtOkF0xS-OFrpbjWXCv7DNA=", "properties": {"@spider": "usps_collection_boxes", "addr:city": "MARYSVILLE", "addr:country": "US", "addr:full": "546 N MAIN ST", "addr:postcode": "43040", "addr:state": "OH", "brand": "USPS", "collection_times": "Mo-Sa 11:00", "name": "USPS COLLECTION BOX - BLUE BOX", "ref": "4304000016"}, "type": "Feature"}
{"geometry": {"coordinates": [-83.344459981, 40.240619596], "type": "Point"}, "id": "x6Z4HjNb5rOoZhxZWF9l8GiGe9w=", "properties": {"@spider": "usps_collection_boxes", "addr:city": "MARYSVILLE", "addr:country": "US", "addr:full": "16495 SQUARE DR", "addr:postcode": "43040", "addr:state": "OH", "brand": "USPS", "collection_times": "Mo-Sa 09:15", "name": "USPS COLLECTION BOX - BLUE BOX", "ref": "4304000017"}, "type": "Feature"}
{"geometry": {"coordinates": [-83.388033006, 40.2403656], "type": "Point"}, "id": "Vf1TMtyaNt8NU_vvos-mZkDe8OI=", "properties": {"@spider": "usps_collection_boxes", "addr:city": "MARYSVILLE", "addr:country": "US", "addr:full": "1169 W 5TH ST", "addr:postcode": "43040", "addr:state": "OH", "brand": "USPS", "collection_times": "Mo-Sa 10:00", "name": "USPS COLLECTION BOX - BLUE BOX", "ref": "4304000018"}, "type": "Feature"}
{"geometry": {"coordinates": [-83.368953162, 40.236517502], "type": "Point"}, "id": "2XdCGARED7t_jq7sh6Jt-sxpZMc=", "properties": {"@spider": "usps_collection_boxes", "addr:city": "MARYSVILLE", "addr:country": "US", "addr:full": "215 W 5TH ST", "addr:postcode": "43040", "addr:state": "OH", "brand": "USPS", "collection_times": "Mo-Fr 14:45; Sa 12:00", "name": "USPS COLLECTION BOX - BLUE BOX", "note": "ON 12/24 AND 12/31, THIS BOX MAY BE COLLECTED AS EARLY AS 12 NOON.", "ref": "4304000019"}, "type": "Feature"}
{"geometry": {"coordinates": [-83.366767, 40.237663], "type": "Point"}, "id": "DG5Fhquv4yknYGXIrzYetRMQEjU=", "properties": {"@spider": "usps_collection_boxes", "addr:city": "MARYSVILLE", "addr:country": "US", "addr:full": "202 N MAIN ST", "addr:postcode": "43040", "addr:state": "OH", "brand": "USPS", "collection_times": "Mo-Sa 16:30", "name": "USPS COLLECTION BOX - BLUE BOX", "note": "ON 12/24 AND 12/31, THIS BOX MAY BE COLLECTED AS EARLY AS 12 NOON.", "ref": "4304000021"}, "type": "Feature"}
{"geometry": {"coordinates": [-83.368553012, 40.223308034], "type": "Point"}, "id": "AAwn6s5A8Feoec0MNl-4p56cvXk=", "properties": {"@spider": "usps_collection_boxes", "addr:city": "MARYSVILLE", "addr:country": "US", "addr:full": "220 GREENWOOD BLVD", "addr:postcode": "43040", "addr:state": "OH", "brand": "USPS", "collection_times": "Mo-Sa 10:15", "name": "USPS COLLECTION BOX - BLUE BOX", "ref": "4304000023"}, "type": "Feature"}
{"geometry": {"coordinates": [-83.363863419, 40.263534475], "type": "Point"}, "id": "r_Pie-E9QxKfEytV3T_grh8uM2I=", "properties": {"@spider": "usps_collection_boxes", "addr:city": "MARYSVILLE", "addr:country": "US", "addr:full": "18000 STATE ROUTE 4", "addr:postcode": "43040", "addr:state": "OH", "brand": "USPS", "collection_times": "Mo-Sa 10:00", "name": "USPS COLLECTION BOX - BLUE BOX", "ref": "4304000024"}, "type": "Feature"}
{"geometry": {"coordinates": [-83.366811, 40.237586], "type": "Point"}, "id": "FN6PPtA3Y7ocNBHS-dajb7O0uKk=", "properties": {"@spider": "usps_collection_boxes", "addr:city": "MARYSVILLE", "addr:country": "US", "addr:full": "202 N MAIN ST", "addr:postcode": "43040", "addr:state": "OH", "brand": "USPS", "collection_times": "Mo-Sa 16:30", "name": "USPS COLLECTION BOX - BLUE BOX", "note": "ON 12/24 AND 12/31, THIS BOX MAY BE COLLECTED AS EARLY AS 12 NOON.", "ref": "4304000027"}, "type": "Feature"}
{"geometry": {"coordinates": [-83.340472556, 40.240232398], "type": "Point"}, "id": "DUFXndi0rJEu0wSr1HKoBXlO00w=", "properties": {"@spider": "usps_collection_boxes", "addr:city": "MARYSVILLE", "addr:country": "US", "addr:full": "15715 US HIGHWAY 36", "addr:postcode": "43040", "addr:state": "OH", "brand": "USPS", "collection_times": "Mo-Sa 09:00", "name": "USPS COLLECTION BOX - BLUE BOX", "ref": "4304000030"}, "type": "Feature"}
{"geometry": {"coordinates": [-83.366811, 40.237586], "type": "Point"}, "id": "ZICcTPXiEJC3cbcZ0mCZRmd7uCg=", "properties": {"@spider": "usps_collection_boxes", "addr:city": "MARYSVILLE", "addr:country": "US", "addr:full": "202 N MAIN ST", "addr:postcode": "43040", "addr:state": "OH", "brand": "USPS", "collection_times": "Mo-Sa 16:30", "name": "USPS COLLECTION BOX - PO LOBBY", "note": "ON 12/24 AND 12/31, THIS BOX MAY BE COLLECTED AS EARLY AS 12 NOON.", "ref": "4304000031"}, "type": "Feature"}
{"geometry": {"coordinates": [-83.368881318, 40.231090667], "type": "Point"}, "id": "dP7OSBXvh-PCLZvLmqY5rr266WA=", "properties": {"@spider": "usps_collection_boxes", "addr:city": "MARYSVILLE", "addr:country": "US", "addr:full": "500 LONDON AVE", "addr:postcode": "43040", "addr:state": "OH", "brand": "USPS", "collection_times": "Mo-Sa 11:00", "name": "USPS COLLECTION BOX - BLUE BOX", "ref": "4304000034"}, "type": "Feature"}
{"geometry": {"coordinates": [-83.366755909, 40.2378109], "type": "Point"}, "id": "QUju4m9tb8fiMcI-PVm6jNX5GaY=", "properties": {"@spider": "usps_collection_boxes", "addr:city": "MARYSVILLE", "addr:country": "US", "addr:full": "202 N MAIN ST", "addr:postcode": "43040", "addr:state": "OH", "brand": "USPS", "collection_times": "Mo-Fr 16:30; Sa 13:00", "name": "USPS COLLECTION BOX - PO LOBBY", "note": "ON 12/24 AND 12/31, THIS BOX MAY BE COLLECTED AS EARLY AS 12 NOON.", "ref": "4304000038"}, "type": "Feature"}
{"geometry": {"coordinates": [-83.555051, 40.071196], "type": "Point"}, "id": "moJGbu20Z_Vwjh-qaZfEHcwf4Oo=", "properties": {"@spider": "usps_collection_boxes", "addr:city": "MECHANICSBURG", "addr:country": "US", "addr:full": "40 S MAIN ST", "addr:postcode": "43044", "addr:state": "OH", "brand": "USPS", "collection_times": "Mo-Fr 16:30; Sa 11:45", "name": "USPS COLLECTION BOX - BLUE BOX", "note": "ON 12/24 AND 12/31, THIS BOX MAY BE COLLECTED AS EARLY AS 12 NOON.", "ref": "4304400007"}, "type": "Feature"}
{"geometry": {"coordinates": [-83.555051, 40.071196], "type": "Point"}, "id": "WN2R1OHorwHI_l4s1Fch39EHvLs=", "properties": {"@spider": "usps_collection_boxes", "addr:city": "MECHANICSBURG", "addr:country": "US", "addr:full": "40 S MAIN ST", "addr:postcode": "43044", "addr:state": "OH", "brand": "USPS", "collection_times": "Mo-Fr 16:30; Sa 11:45", "name": "USPS COLLECTION BOX - PO LOBBY", "note": "ON 12/24 AND 12/31, THIS BOX MAY BE COLLECTED AS EARLY AS 12 NOON.", "ref": "4304400009"}, "type": "Feature"}
{"geometry": {"coordinates": [-83.554993551, 40.071182584], "type": "Point"}, "id": "GdKPkJlPpJEgGOmt7ykKoJ2qTMI=", "properties": {"@spider": "usps_collection_boxes", "addr:city": "MECHANICSBURG", "addr:country": "US", "addr:full": "40 S MAIN ST", "addr:postcode": "43044", "addr:state": "OH", "brand": "USPS", "collection_times": "Mo-Fr 16:30; Sa 12:00", "name": "USPS COLLECTION BOX - PO LOBBY", "note": "ON 12/24 AND 12/31, THIS BOX MAY BE COLLECTED AS EARLY AS 12 NOON.", "ref": "4304400011"}, "type": "Feature"}
{"geometry": {"coordinates": [-83.434239, 40.178601], "type": "Point"}, "id": "T1jnm0la8qGV9kbYhPUfgmhlyrU=", "properties": {"@spider": "usps_collection_boxes", "addr:city": "MILFORD CENTER", "addr:country": "US", "addr:full": "21 E STATE ST", "addr:postcode": "43045", "addr:state": "OH", "brand": "USPS", "collection_times": "Mo-Fr 16:00; Sa 10:15", "name": "USPS COLLECTION BOX - BLUE BOX", "note": "ON 12/24 AND 12/31, THIS BOX MAY BE COLLECTED AS EARLY AS 12 NOON.", "ref": "4304500000"}, "type": "Feature"}
{"geometry": {"coordinates": [-83.434219, 40.178624], "type": "Point"}, "id": "hJn1Etmj9qtIR0aawtZ1yhlnCgc=", "properties": {"@spider": "usps_collection_boxes", "addr:city": "MILFORD CENTER", "addr:country": "US", "addr:full": "21 E STATE ST", "addr:postcode": "43045", "addr:state": "OH", "brand": "USPS", "collection_times": "Mo-Fr 16:00; Sa 10:15", "name": "USPS COLLECTION BOX - PO LOBBY", "note": "ON 12/24 AND 12/31, THIS BOX MAY BE COLLECTED AS EARLY AS 12 NOON.", "ref": "4304500001"}, "type": "Feature"}
{"geometry": {"coordinates": [-83.434220795, 40.178593217], "type": "Point"}, "id": "hh8P4gPGqlr8k-R18Zo0UdTR9QQ=", "properties": {"@spider": "usps_collection_boxes", "addr:city": "MILFORD CENTER", "addr:country": "US", "addr:full": "21 E STATE ST", "addr:postcode": "43045", "addr:state": "OH", "brand": "USPS", "collection_times": "Mo-Fr 16:00; Sa 11:00", "name": "USPS COLLECTION BOX - PO LOBBY", "note": "ON 12/24 AND 12/31, THIS BOX MAY BE COLLECTED AS EARLY AS 12 NOON.", "ref": "4304500005"}, "type": "Feature"}
{"geometry": {"coordinates": [-82.631217, 40.346259], "type": "Point"}, "id": "0QsC2fl0sYNnnzA1_QWs6v8zm0o=", "properties": {"@spider": "usps_collection_boxes", "addr:city": "MOUNT LIBERTY", "addr:country": "US", "addr:full": "7088 COLUMBUS RD", "addr:postcode": "43048", "addr:state": "OH", "brand": "USPS", "collection_times": "Mo-Fr 16:15; Sa 09:45", "name": "USPS COLLECTION BOX - BLUE BOX", "note": "ON 12/24 AND 12/31, THIS BOX MAY BE COLLECTED AS EARLY AS 12 NOON.", "ref": "4304800000"}, "type": "Feature"}
{"geometry": {"coordinates": [-82.631217, 40.346259], "type": "Point"}, "id": "5mr3CET9kpP3QPKCQtI9k13xFEE=", "properties": {"@spider": "usps_collection_boxes", "addr:city": "MOUNT LIBERTY", "addr:country": "US", "addr:full": "7088 COLUMBUS RD", "addr:postcode": "43048", "addr:state": "OH", "brand": "USPS", "collection_times": "Mo-Fr 16:15; Sa 09:45", "name": "USPS COLLECTION BOX - PO LOBBY", "note": "ON 12/24 AND 12/31, THIS BOX MAY BE COLLECTED AS EARLY AS 12 NOON.", "ref": "4304800001"}, "type": "Feature"}
{"geometry": {"coordinates": [-82.630331691, 40.346671603], "type": "Point"}, "id": "9hJ-53HpxLnzMmhb2URcqKdEu2o=", "properties": {"@spider": "usps_collection_boxes", "addr:city": "MOUNT LIBERTY", "addr:country": "US", "addr:full": "7088 COLUMBUS RD", "addr:postcode": "43048", "addr:state": "OH", "brand": "USPS", "collection_times": "Mo-Fr 16:30; Sa 10:00", "name": "USPS COLLECTION BOX - PO LOBBY", "note": "ON 12/24 AND 12/31, THIS BOX MAY BE COLLECTED AS EARLY AS 12 NOON.", "ref": "4304800003"}, "type": "Feature"}
{"geometry": {"coordinates": [-82.485456183, 40.392520848], "type": "Point"}, "id": "wGn70hdz6aMSKYhJvloiGLnxEHg=", "properties": {"@spider": "usps_collection_boxes", "addr:city": "MOUNT VERNON", "addr:country": "US", "addr:full": "100 S MAIN ST", "addr:postcode": "43050", "addr:state": "OH", "brand": "USPS", "collection_times": "Mo-Sa 15:00", "name": "USPS COLLECTION BOX - BLUE BOX", "note": "ON 12/24 AND 12/31, THIS BOX MAY BE COLLECTED AS EARLY AS 12 NOON.", "ref": "4305000002"}, "type": "Feature"}
{"geometry": {"coordinates": [-82.484868649, 40.393443835], "type": "Point"}, "id": "_r9hJjneBIFHjfGEDWI4fJv0qV8=", "properties": {"@spider": "usps_collection_boxes", "addr:city": "MOUNT VERNON", "addr:country": "US", "addr:full": "1 PUBLIC SQ", "addr:postcode": "43050", "addr:state": "OH", "brand": "USPS", "collection_times": "Mo-Fr 14:45; Sa 11:45", "name": "USPS COLLECTION BOX - BLUE BOX", "note": "ON 12/24 AND 12/31, THIS BOX MAY BE COLLECTED AS EARLY AS 12 NOON.", "ref": "4305000006"}, "type": "Feature"}
{"geometry": {"coordinates": [-82.447965099, 40.402272251], "type": "Point"}, "id": "8G_qSrEppp5zKMNLpAMwpL0dVSs=", "properties": {"@spider": "usps_collection_boxes", "addr:city": "MOUNT VERNON", "addr:country": "US", "addr:full": "1320 COSHOCTON AVE", "addr:postcode": "43050", "addr:state": "OH", "brand": "USPS", "collection_times": "Mo-Sa 10:15", "name": "USPS COLLECTION BOX - BLUE BOX", "ref": "4305000020"}, "type": "Feature"}
{"geometry": {"coordinates": [-82.460197964, 40.399104906], "type": "Point"}, "id": "MR62hYfyd8m7bQchElBl0QeHCPA=", "properties": {"@spider": "usps_collection_boxes", "addr:city": "MOUNT VERNON", "addr:country": "US", "addr:full": "855 COSHOCTON AVE", "addr:postcode": "43050", "addr:state": "OH", "brand": "USPS", "collection_times": "Mo-Sa 14:15", "name": "USPS COLLECTION BOX - BLUE BOX", "note": "ON 12/24 AND 12/31, THIS BOX MAY BE COLLECTED AS EARLY AS 12 NOON.", "ref": "4305000035"}, "type": "Feature"}
{"geometry": {"coordinates": [-82.441741527, 40.402455493], "type": "Point"}, "id": "hZSR7bIVdNmiOj1QcvRGftlWbF0=", "properties": {"@spider": "usps_collection_boxes", "addr:city": "MOUNT VERNON", "addr:country": "US", "addr:full": "1575 COSHOCTON AVE", "addr:postcode": "43050", "addr:state": "OH", "brand": "USPS", "collection_times": "Mo-Sa 11:00", "name": "USPS COLLECTION BOX - BLUE BOX", "ref": "4305000038"}, "type": "Feature"}
{"geometry": {"coordinates": [-82.482351889, 40.393461454], "type": "Point"}, "id": "yU2YdpZXSZneW1RsLQWwiR2coQE=", "properties": {"@spider": "usps_collection_boxes", "addr:city": "MOUNT VERNON", "addr:country": "US", "addr:full": "117 E HIGH  (REAR) ST", "addr:postcode": "43050", "addr:state": "OH", "brand": "USPS", "collection_times": "Mo-Fr 14:45; Sa 14:15", "name": "USPS COLLECTION BOX - BLUE BOX", "note": "ON 12/24 AND 12/31, THIS BOX MAY BE COLLECTED AS EARLY AS 12 NOON.", "ref": "4305000040"}, "type": "Feature"}
{"geometry": {"coordinates": [-82.486240491, 40.390864438], "type": "Point"}, "id": "141JOBKEey7yltp5edYSnAl-kv8=", "properties": {"@spider": "usps_collection_boxes", "addr:city": "MOUNT VERNON", "addr:country": "US", "addr:full": "11 W OHIO AVE", "addr:postcode": "43050", "addr:state": "OH", "brand": "USPS", "collection_times": "Mo-Fr 14:45; Sa 13:45", "name": "USPS COLLECTION BOX - BLUE BOX", "note": "ON 12/24 AND 12/31, THIS BOX MAY BE COLLECTED AS EARLY AS 12 NOON.", "ref": "4305000043"}, "type": "Feature"}
{"geometry": {"coordinates": [-82.4865728, 40.394159], "type": "Point"}, "id": "1FdR75Q07smMYXfGOCS7zU2LmHY=", "properties": {"@spider": "usps_collection_boxes", "addr:city": "MOUNT VERNON", "addr:country": "US", "addr:full": "101 W HIGH ST", "addr:postcode": "43050", "addr:state": "OH", "brand": "USPS", "collection_times": "Mo-Fr 17:00; Sa 15:00", "name": "USPS COLLECTION BOX - BLUE BOX", "note": "ON 12/24 AND 12/31, THIS BOX MAY BE COLLECTED AS EARLY AS 12 NOON.", "ref": "4305000045"}, "type": "Feature"}
{"geometry": {"coordinates": [-82.4869888, 40.394115], "type": "Point"}, "id": "leaULC0ybG8g_u9x47vQlk_oH4E=", "properties": {"@spider": "usps_collection_boxes", "addr:city": "MOUNT VERNON", "addr:country": "US", "addr:full": "101 W HIGH ST", "addr:postcode": "43050", "addr:state": "OH", "brand": "USPS", "collection_times": "Mo-Fr 17:00; Sa 15:00", "name": "USPS COLLECTION BOX - PO LOBBY", "note": "ON 12/24 AND 12/31, THIS BOX MAY BE COLLECTED AS EARLY AS 12 NOON.", "ref": "4305000047"}, "type": "Feature"}
{"geometry": {"coordinates": [-82.487018808, 40.393685479], "type": "Point"}, "id": "stnU8ozRw-GAjWZke49MVT8ifoE=", "properties": {"@spider": "usps_collection_boxes", "addr:city": "MOUNT VERNON", "addr:country": "US", "addr:full": "101 W HIGH ST", "addr:postcode": "43050", "addr:state": "OH", "brand": "USPS", "collection_times": "Mo-Fr 16:30; Sa 12:00", "name": "USPS COLLECTION BOX - PO LOBBY", "note": "ON 12/24 AND 12/31, THIS BOX MAY BE COLLECTED AS EARLY AS 12 NOON.", "ref": "4305000052"}, "type": "Feature"}
{"geometry": {"coordinates": [-82.811283, 40.081645], "type": "Point"}, "id": "0ietXHcJdJnRZYjFnTla9JtnzDs=", "properties": {"@spider": "usps_collection_boxes", "addr:city": "NEW ALBANY", "addr:country": "US", "addr:full": "102 W MAIN ST", "addr:postcode": "43054", "addr:state": "OH", "brand": "USPS", "collection_times": "Mo-Fr 16:30; Sa 14:15", "name": "USPS COLLECTION BOX - PO LOBBY", "note": "ON 12/24 AND 12/31, THIS BOX MAY BE COLLECTED AS EARLY AS 12 NOON.", "ref": "4305400001"}, "type": "Feature"}
{"geometry": {"coordinates": [-82.811283, 40.081645], "type": "Point"}, "id": "rTjnwQ4X8pRFhSWduJ4oqvgkVlI=", "properties": {"@spider": "usps_collection_boxes", "addr:city": "NEW ALBANY", "addr:country": "US", "addr:full": "102 W MAIN ST", "addr:postcode": "43054", "addr:state": "OH", "brand": "USPS", "collection_times": "Mo-Fr 16:30; Sa 14:15", "name": "USPS COLLECTION BOX - BLUE BOX", "note": "ON 12/24 AND 12/31, THIS BOX MAY BE COLLECTED AS EARLY AS 12 NOON.", "ref": "4305400002"}, "type": "Feature"}
{"geometry": {"coordinates": [-82.822950972, 40.093375115], "type": "Point"}, "id": "BfZX386ZOznWCNDya6UG1e9YlTU=", "properties": {"@spider": "usps_collection_boxes", "addr:city": "NEW ALBANY", "addr:country": "US", "addr:full": "5525 NEW ALBANY RD", "addr:postcode": "43054", "addr:state": "OH", "brand": "USPS", "collection_times": "Mo-Sa 09:00", "name": "USPS COLLECTION BOX - BLUE BOX", "ref": "4305400004"}, "type": "Feature"}
{"geometry": {"coordinates": [-82.811322502, 40.081700275], "type": "Point"}, "id": "X2GMVICu3O8Xtgg2ENPO1bfveTA=", "properties": {"@spider": "usps_collection_boxes", "addr:city": "NEW ALBANY", "addr:country": "US", "addr:full": "102 W MAIN ST", "addr:postcode": "43054", "addr:state": "OH", "brand": "USPS", "collection_times": "Mo-Fr 17:30; Sa 14:00", "name": "USPS COLLECTION BOX - PO LOBBY", "note": "ON 12/24 AND 12/31, THIS BOX MAY BE COLLECTED AS EARLY AS 12 NOON.", "ref": "4305400007"}, "type": "Feature"}
{"geometry": {"coordinates": [-82.8192577061, 40.1054174445], "type": "Point"}, "id": "ryxJFagIlppU-onLYJ-81hNTgpc=", "properties": {"@spider": "usps_collection_boxes", "addr:city": "NEW ALBANY", "addr:country": "US", "addr:full": "7400 W CAMPUS RD", "addr:postcode": "43054", "addr:state": "OH", "brand": "USPS", "collection_times": "Mo-Sa 09:45", "name": "USPS COLLECTION BOX - BLUE BOX", "ref": "4305400008"}, "type": "Feature"}
{"geometry": {"coordinates": [-83.556149192, 40.2230055], "type": "Point"}, "id": "NWg8dZGHCXbyVE90ADmgsjrxnKs=", "properties": {"@spider": "usps_collection_boxes", "addr:city": "NORTH LEWISBURG", "addr:country": "US", "addr:full": "24 E MAPLE ST", "addr:postcode": "43060", "addr:state": "OH", "brand": "USPS", "collection_times": "Mo-Fr 15:30; Sa 10:45", "name": "USPS COLLECTION BOX - BLUE BOX", "note": "ON 12/24 AND 12/31, THIS BOX MAY BE COLLECTED AS EARLY AS 12 NOON.", "ref": "4306000000"}, "type": "Feature"}
{"geometry": {"coordinates": [-83.556149192, 40.2230055], "type": "Point"}, "id": "IaE4cHVM2CgShMs7KKzUQy1MqSI=", "properties": {"@spider": "usps_collection_boxes", "addr:city": "NORTH LEWISBURG", "addr:country": "US", "addr:full": "24 E MAPLE ST", "addr:postcode": "43060", "addr:state": "OH", "brand": "USPS", "collection_times": "Mo-Fr 16:30; Sa 10:45", "name": "USPS COLLECTION BOX - PO LOBBY", "note": "ON 12/24 AND 12/31, THIS BOX MAY BE COLLECTED AS EARLY AS 12 NOON.", "ref": "4306000001"}, "type": "Feature"}
{"geometry": {"coordinates": [-83.556149192, 40.2230055], "type": "Point"}, "id": "F5hkSZ3fye5FVNbFEmrSxPXBGAE=", "properties": {"@spider": "usps_collection_boxes", "addr:city": "NORTH LEWISBURG", "addr:country": "US", "addr:full": "24 E MAPLE ST", "addr:postcode": "43060", "addr:state": "OH", "brand": "USPS", "collection_times": "Mo-Fr 16:30; Sa 11:00", "name": "USPS COLLECTION BOX - PO LOBBY", "note": "ON 12/24 AND 12/31, THIS BOX MAY BE COLLECTED AS EARLY AS 12 NOON.", "ref": "4306000005"}, "type": "Feature"}
{"geometry": {"coordinates": [-83.221712, 40.265791], "type": "Point"}, "id": "RmnpVM7586131MenwVnmwdNTPsE=", "properties": {"@spider": "usps_collection_boxes", "addr:city": "OSTRANDER", "addr:country": "US", "addr:full": "420 W NORTH ST", "addr:postcode": "43061", "addr:state": "OH", "brand": "USPS", "collection_times": "Mo-Fr 16:15; Sa 11:00", "name": "USPS COLLECTION BOX - BLUE BOX", "note": "ON 12/24 AND 12/31, THIS BOX MAY BE COLLECTED AS EARLY AS 12 NOON.", "ref": "4306100000"}, "type": "Feature"}
{"geometry": {"coordinates": [-83.221641, 40.265766], "type": "Point"}, "id": "fNYQKQkd8aX_g7I8iCP8z1637ZE=", "properties": {"@spider": "usps_collection_boxes", "addr:city": "OSTRANDER", "addr:country": "US", "addr:full": "420 W NORTH ST", "addr:postcode": "43061", "addr:state": "OH", "brand": "USPS", "collection_times": "Mo-Fr 16:15; Sa 11:00", "name": "USPS COLLECTION BOX - PO LOBBY", "note": "ON 12/24 AND 12/31, THIS BOX MAY BE COLLECTED AS EARLY AS 12 NOON.", "ref": "4306100001"}, "type": "Feature"}
{"geometry": {"coordinates": [-83.220222305, 40.265827457], "type": "Point"}, "id": "PNrUdaNttZ1FQqhZ-L8GQHjM9Po=", "properties": {"@spider": "usps_collection_boxes", "addr:city": "OSTRANDER", "addr:country": "US", "addr:full": "420 W NORTH ST", "addr:postcode": "43061", "addr:state": "OH", "brand": "USPS", "collection_times": "Mo-Fr 16:15; Sa 11:00", "name": "USPS COLLECTION BOX - PO LOBBY", "note": "ON 12/24 AND 12/31, THIS BOX MAY BE COLLECTED AS EARLY AS 12 NOON.", "ref": "4306100006"}, "type": "Feature"}
{"geometry": {"coordinates": [-83.267325566, 40.107891594], "type": "Point"}, "id": "yfoJ5UThINrwdOLfy9vyVEqjwKM=", "properties": {"@spider": "usps_collection_boxes", "addr:city": "PLAIN CITY", "addr:country": "US", "addr:full": "111 W MAIN ST", "addr:postcode": "43064", "addr:state": "OH", "brand": "USPS", "collection_times": "Mo-Sa 12:00", "name": "USPS COLLECTION BOX - BLUE BOX", "ref": "4306400003"}, "type": "Feature"}
{"geometry": {"coordinates": [-83.268255, 40.106766], "type": "Point"}, "id": "0AbTn-9uVHa8sua22ALzadNyCDo=", "properties": {"@spider": "usps_collection_boxes", "addr:city": "PLAIN CITY", "addr:country": "US", "addr:full": "219 MAPLE ST", "addr:postcode": "43064", "addr:state": "OH", "brand": "USPS", "collection_times": "Mo-Fr 16:15; Sa 15:15", "name": "USPS COLLECTION BOX - BLUE BOX", "note": "ON 12/24 AND 12/31, THIS BOX MAY BE COLLECTED AS EARLY AS 12 NOON.", "ref": "4306400008"}, "type": "Feature"}
{"geometry": {"coordinates": [-83.26829, 40.106712], "type": "Point"}, "id": "G7fyaj42Pvz9mRDLjuUDYko4P1Q=", "properties": {"@spider": "usps_collection_boxes", "addr:city": "PLAIN CITY", "addr:country": "US", "addr:full": "219 MAPLE ST", "addr:postcode": "43064", "addr:state": "OH", "brand": "USPS", "collection_times": "Mo-Fr 16:15; Sa 15:15", "name": "USPS COLLECTION BOX - BLUE BOX", "note": "ON 12/24 AND 12/31, THIS BOX MAY BE COLLECTED AS EARLY AS 12 NOON.", "ref": "4306400009"}, "type": "Feature"}
{"geometry": {"coordinates": [-83.26829, 40.106712], "type": "Point"}, "id": "h2S78Fx2GUGiY4I4YiWGNeZi_9Q=", "properties": {"@spider": "usps_collection_boxes", "addr:city": "PLAIN CITY", "addr:country": "US", "addr:full": "219 MAPLE ST", "addr:postcode": "43064", "addr:state": "OH", "brand": "USPS", "collection_times": "Mo-Fr 16:30; Sa 15:45", "name": "USPS COLLECTION BOX - PO LOBBY", "note": "ON 12/24 AND 12/31, THIS BOX MAY BE COLLECTED AS EARLY AS 12 NOON.", "ref": "4306400010"}, "type": "Feature"}
{"geometry": {"coordinates": [-83.268327763, 40.106794526], "type": "Point"}, "id": "ByhcxgJRBpg17JlaozQ5x8_b5T4=", "properties": {"@spider": "usps_collection_boxes", "addr:city": "PLAIN CITY", "addr:country": "US", "addr:full": "219 MAPLE ST", "addr:postcode": "43064", "addr:state": "OH", "brand": "USPS", "collection_times": "Mo-Fr 16:30; Sa 12:00", "name": "USPS COLLECTION BOX - PO LOBBY", "note": "ON 12/24 AND 12/31, THIS BOX MAY BE COLLECTED AS EARLY AS 12 NOON.", "ref": "4306400013"}, "type": "Feature"}
{"geometry": {"coordinates": [-83.0726652, 40.162619], "type": "Point"}, "id": "P7l1DVcnGK-tcH209dle4A-VZgs=", "properties": {"@spider": "usps_collection_boxes", "addr:city": "POWELL", "addr:country": "US", "addr:full": "40 GRACE DR", "addr:postcode": "43065", "addr:state": "OH", "brand": "USPS", "collection_times": "Mo-Fr 17:00; Sa 14:00", "name": "USPS COLLECTION BOX - BLUE BOX", "note": "ON 12/24 AND 12/31, THIS BOX MAY BE COLLECTED AS EARLY AS 12 NOON.", "ref": "4306500001"}, "type": "Feature"}
{"geometry": {"coordinates": [-83.074168, 40.163252], "type": "Point"}, "id": "AtuOYfQfI6etiAuhKWZtQiYfW08=", "properties": {"@spider": "usps_collection_boxes", "addr:city": "POWELL", "addr:country": "US", "addr:full": "40 GRACE DR", "addr:postcode": "43065", "addr:state": "OH", "brand": "USPS", "collection_times": "Mo-Fr 17:00; Sa 14:00", "name": "USPS COLLECTION BOX - PO LOBBY", "note": "ON 12/24 AND 12/31, THIS BOX MAY BE COLLECTED AS EARLY AS 12 NOON.", "ref": "4306500005"}, "type": "Feature"}
{"geometry": {"coordinates": [-83.074168, 40.163252], "type": "Point"}, "id": "hka43CKZSdVG7Xkrp_0sXJUGHbw=", "properties": {"@spider": "usps_collection_boxes", "addr:city": "POWELL", "addr:country": "US", "addr:full": "40 GRACE DR", "addr:postcode": "43065", "addr:state": "OH", "brand": "USPS", "collection_times": "Mo-Fr 17:00; Sa 14:00", "name": "USPS COLLECTION BOX - APC", "note": "ON 12/24 AND 12/31, THIS BOX MAY BE COLLECTED AS EARLY AS 12 NOON.", "ref": "4306500007"}, "type": "Feature"}
{"geometry": {"coordinates": [-83.073178335, 40.162915297], "type": "Point"}, "id": "YqGJmDLJYXaXcN5Z08C7ta_yiyw=", "properties": {"@spider": "usps_collection_boxes", "addr:city": "POWELL", "addr:country": "US", "addr:full": "40 GRACE DR", "addr:postcode": "43065", "addr:state": "OH", "brand": "USPS", "collection_times": "Mo-Fr 18:00; Sa 14:00", "name": "USPS COLLECTION BOX - PO LOBBY", "note": "ON 12/24 AND 12/31, THIS BOX MAY BE COLLECTED AS EARLY AS 12 NOON.", "ref": "4306500017"}, "type": "Feature"}
{"geometry": {"coordinates": [-83.150186, 40.382961], "type": "Point"}, "id": "0n55G0NwqlbctDltZqTlTkRJnZ8=", "properties": {"@spider": "usps_collection_boxes", "addr:city": "RADNOR", "addr:country": "US", "addr:full": "4355 STATE ROUTE 203", "addr:postcode": "43066", "addr:state": "OH", "brand": "USPS", "collection_times": "Mo-Fr 14:30; Sa 12:30", "name": "USPS COLLECTION BOX - BLUE BOX", "note": "ON 12/24 AND 12/31, THIS BOX MAY BE COLLECTED AS EARLY AS 12 NOON.", "ref": "4306600000"}, "type": "Feature"}
{"geometry": {"coordinates": [-83.150186175, 40.382956195], "type": "Point"}, "id": "UreKaERVF4tyuRWkXBXE9R_8bpE=", "properties": {"@spider": "usps_collection_boxes", "addr:city": "RADNOR", "addr:country": "US", "addr:full": "4355 STATE ROUTE 203", "addr:postcode": "43066", "addr:state": "OH", "brand": "USPS", "collection_times": "Mo-Fr 14:30; Sa 12:30", "name": "USPS COLLECTION BOX - PO LOBBY", "note": "ON 12/24 AND 12/31, THIS BOX MAY BE COLLECTED AS EARLY AS 12 NOON.", "ref": "4306600001"}, "type": "Feature"}
{"geometry": {"coordinates": [-83.150186175, 40.382956195], "type": "Point"}, "id": "ON8AEMAsVfMpJlCBGukb16p9Wmo=", "properties": {"@spider": "usps_collection_boxes", "addr:city": "RADNOR", "addr:country": "US", "addr:full": "4355 STATE ROUTE 203", "addr:postcode": "43066", "addr:state": "OH", "brand": "USPS", "collection_times": "Mo-Fr 15:00; Sa 13:00", "name": "USPS COLLECTION BOX - PO LOBBY", "note": "ON 12/24 AND 12/31, THIS BOX MAY BE COLLECTED AS EARLY AS 12 NOON.", "ref": "4306600004"}, "type": "Feature"}
{"geometry": {"coordinates": [-83.4669558, 40.334717], "type": "Point"}, "id": "7-vPu_nLXeDduRYCu1Lc0lbdqmc=", "properties": {"@spider": "usps_collection_boxes", "addr:city": "RAYMOND", "addr:country": "US", "addr:full": "21655 MAIN ST", "addr:postcode": "43067", "addr:state": "OH", "brand": "USPS", "collection_times": "Mo-Fr 14:30; Sa 10:30", "name": "USPS COLLECTION BOX - BLUE BOX", "note": "ON 12/24 AND 12/31, THIS BOX MAY BE COLLECTED AS EARLY AS 12 NOON.", "ref": "4306700000"}, "type": "Feature"}
{"geometry": {"coordinates": [-83.4670515, 40.334616], "type": "Point"}, "id": "P_cpjc8_RDJhn7jNSypS-B8KL-k=", "properties": {"@spider": "usps_collection_boxes", "addr:city": "RAYMOND", "addr:country": "US", "addr:full": "21655 MAIN ST", "addr:postcode": "43067", "addr:state": "OH", "brand": "USPS", "collection_times": "Mo-Fr 14:30; Sa 10:30", "name": "USPS COLLECTION BOX - PO LOBBY", "note": "ON 12/24 AND 12/31, THIS BOX MAY BE COLLECTED AS EARLY AS 12 NOON.", "ref": "4306700001"}, "type": "Feature"}
{"geometry": {"coordinates": [-83.416110478, 40.340766152], "type": "Point"}, "id": "WB8srcAuZ0ziBLHtvinNaCKz6cQ=", "properties": {"@spider": "usps_collection_boxes", "addr:city": "RAYMOND", "addr:country": "US", "addr:full": "18992 STATE ROUTE 347", "addr:postcode": "43067", "addr:state": "OH", "brand": "USPS", "collection_times": "Mo-Sa 11:00", "name": "USPS COLLECTION BOX - BLUE BOX", "ref": "4306700002"}, "type": "Feature"}
{"geometry": {"coordinates": [-83.466809202, 40.334755769], "type": "Point"}, "id": "RmhnIdQZ-pxeAoki8w2Al04aXAk=", "properties": {"@spider": "usps_collection_boxes", "addr:city": "RAYMOND", "addr:country": "US", "addr:full": "21655 MAIN ST", "addr:postcode": "43067", "addr:state": "OH", "brand": "USPS", "collection_times": "Mo-Fr 14:30; Sa 11:00", "name": "USPS COLLECTION BOX - PO LOBBY", "note": "ON 12/24 AND 12/31, THIS BOX MAY BE COLLECTED AS EARLY AS 12 NOON.", "ref": "4306700005"}, "type": "Feature"}
{"geometry": {"coordinates": [-83.960198, 40.218553], "type": "Point"}, "id": "rOye3O3xNKDqWKuekC5ZdI12TvM=", "properties": {"@spider": "usps_collection_boxes", "addr:city": "ROSEWOOD", "addr:country": "US", "addr:full": "6492 KISER LAKE RD", "addr:postcode": "43070", "addr:state": "OH", "brand": "USPS", "collection_times": "Mo-Fr 15:45; Sa 11:15", "name": "USPS COLLECTION BOX - BLUE BOX", "note": "ON 12/24 AND 12/31, THIS BOX MAY BE COLLECTED AS EARLY AS 12 NOON.", "ref": "4307000000"}, "type": "Feature"}
{"geometry": {"coordinates": [-83.96017, 40.218482], "type": "Point"}, "id": "_JdMTQFcwwJiIewrlbmG7E8BUqQ=", "properties": {"@spider": "usps_collection_boxes", "addr:city": "ROSEWOOD", "addr:country": "US", "addr:full": "6492 KISER LAKE RD", "addr:postcode": "43070", "addr:state": "OH", "brand": "USPS", "collection_times": "Mo-Fr 15:45; Sa 11:15", "name": "USPS COLLECTION BOX - PO LOBBY", "note": "ON 12/24 AND 12/31, THIS BOX MAY BE COLLECTED AS EARLY AS 12 NOON.", "ref": "4307000001"}, "type": "Feature"}
{"geometry": {"coordinates": [-83.960187547, 40.218644326], "type": "Point"}, "id": "ri4rJrTo_2dzGVgWdNKw3scLzPY=", "properties": {"@spider": "usps_collection_boxes", "addr:city": "ROSEWOOD", "addr:country": "US", "addr:full": "6492 KISER LAKE RD", "addr:postcode": "43070", "addr:state": "OH", "brand": "USPS", "collection_times": "Mo-Fr 16:00; Sa 11:30", "name": "USPS COLLECTION BOX - PO LOBBY", "note": "ON 12/24 AND 12/31, THIS BOX MAY BE COLLECTED AS EARLY AS 12 NOON.", "ref": "4307000003"}, "type": "Feature"}
{"geometry": {"coordinates": [-83.958192, 40.128314], "type": "Point"}, "id": "4armwjscJY_3Ik0nHVz5AoSbR2Q=", "properties": {"@spider": "usps_collection_boxes", "addr:city": "SAINT PARIS", "addr:country": "US", "addr:full": "131 E MAIN ST", "addr:postcode": "43072", "addr:state": "OH", "brand": "USPS", "collection_times": "Mo-Fr 16:00; Sa 10:45", "name": "USPS COLLECTION BOX - PO LOBBY", "note": "ON 12/24 AND 12/31, THIS BOX MAY BE COLLECTED AS EARLY AS 12 NOON.", "ref": "4307200002"}, "type": "Feature"}
{"geometry": {"coordinates": [-83.958248, 40.12835], "type": "Point"}, "id": "TD5dcoAvpNgYs50wQTb-o-g66Wg=", "properties": {"@spider": "usps_collection_boxes", "addr:city": "SAINT PARIS", "addr:country": "US", "addr:full": "131 E MAIN ST", "addr:postcode": "43072", "addr:state": "OH", "brand": "USPS", "collection_times": "Mo-Fr 15:30; Sa 11:00", "name": "USPS COLLECTION BOX - BLUE BOX", "note": "ON 12/24 AND 12/31, THIS BOX MAY BE COLLECTED AS EARLY AS 12 NOON.", "ref": "4307200003"}, "type": "Feature"}
{"geometry": {"coordinates": [-83.958221214, 40.128259234], "type": "Point"}, "id": "WbQw1dB5TlxdEAQX6kv3kzH_84U=", "properties": {"@spider": "usps_collection_boxes", "addr:city": "SAINT PARIS", "addr:country": "US", "addr:full": "131 E MAIN ST", "addr:postcode": "43072", "addr:state": "OH", "brand": "USPS", "collection_times": "Mo-Fr 16:00; Sa 11:00", "name": "USPS COLLECTION BOX - PO LOBBY", "note": "ON 12/24 AND 12/31, THIS BOX MAY BE COLLECTED AS EARLY AS 12 NOON.", "ref": "4307200009"}, "type": "Feature"}
{"geometry": {"coordinates": [-82.924931327, 40.266419459], "type": "Point"}, "id": "Rlhpw1u1zfXbzLLC_hVEchNMPMM=", "properties": {"@spider": "usps_collection_boxes", "addr:city": "SUNBURY", "addr:country": "US", "addr:full": "7735 E STATE ROUTE 37", "addr:postcode": "43074", "addr:state": "OH", "brand": "USPS", "collection_times": "Mo-Sa 10:15", "name": "USPS COLLECTION BOX - BLUE BOX", "ref": "4307400001"}, "type": "Feature"}
{"geometry": {"coordinates": [-82.867850665, 40.250002493], "type": "Point"}, "id": "u6KKEN6L_IuXwjxMmhjo-qphLYE=", "properties": {"@spider": "usps_collection_boxes", "addr:city": "SUNBURY", "addr:country": "US", "addr:full": "150 REED WAY", "addr:postcode": "43074", "addr:state": "OH", "brand": "USPS", "collection_times": "Mo-Sa 09:00", "name": "USPS COLLECTION BOX - BLUE BOX", "ref": "4307400002"}, "type": "Feature"}
{"geometry": {"coordinates": [-82.866435, 40.241575], "type": "Point"}, "id": "jcxJpdbxXBt7qX_o9WWrW7-U7hM=", "properties": {"@spider": "usps_collection_boxes", "addr:city": "SUNBURY", "addr:country": "US", "addr:full": "267 W GRANVILLE ST", "addr:postcode": "43074", "addr:state": "OH", "brand": "USPS", "collection_times": "Mo-Fr 16:15; Sa 12:00", "name": "USPS COLLECTION BOX - BLUE BOX", "note": "ON 12/24 AND 12/31, THIS BOX MAY BE COLLECTED AS EARLY AS 12 NOON.", "ref": "4307400003"}, "type": "Feature"}
{"geometry": {"coordinates": [-82.866474, 40.241609], "type": "Point"}, "id": "thfj4UC2WUDFryUTw631kCY3ENk=", "properties": {"@spider": "usps_collection_boxes", "addr:city": "SUNBURY", "addr:country": "US", "addr:full": "267 W GRANVILLE ST", "addr:postcode": "43074", "addr:state": "OH", "brand": "USPS", "collection_times": "Mo-Fr 16:15; Sa 12:00", "name": "USPS COLLECTION BOX - PO LOBBY", "note": "ON 12/24 AND 12/31, THIS BOX MAY BE COLLECTED AS EARLY AS 12 NOON.", "ref": "4307400005"}, "type": "Feature"}
{"geometry": {"coordinates": [-82.866474, 40.241609], "type": "Point"}, "id": "EkND39CQpiJQbDLG6s8GaNfgEQQ=", "properties": {"@spider": "usps_collection_boxes", "addr:city": "SUNBURY", "addr:country": "US", "addr:full": "267 W GRANVILLE ST", "addr:postcode": "43074", "addr:state": "OH", "brand": "USPS", "collection_times": "Mo-Fr 16:15; Sa 12:00", "name": "USPS COLLECTION BOX - BLUE BOX", "note": "ON 12/24 AND 12/31, THIS BOX MAY BE COLLECTED AS EARLY AS 12 NOON.", "ref": "4307400007"}, "type": "Feature"}
{"geometry": {"coordinates": [-82.858480407, 40.242965489], "type": "Point"}, "id": "emIDvgywDO3VJkj_X4EaCAMiXUk=", "properties": {"@spider": "usps_collection_boxes", "addr:city": "SUNBURY", "addr:country": "US", "addr:full": "50 E CHERRY ST", "addr:postcode": "43074", "addr:state": "OH", "brand": "USPS", "collection_times": "Mo-Fr 10:00", "name": "USPS COLLECTION BOX - BLUE BOX", "ref": "4307400008"}, "type": "Feature"}
{"geometry": {"coordinates": [-82.866283805, 40.241566481], "type": "Point"}, "id": "wuCfL6oejJ-qtnNgm5oGdV1jvtw=", "properties": {"@spider": "usps_collection_boxes", "addr:city": "SUNBURY", "addr:country": "US", "addr:full": "267 W GRANVILLE ST", "addr:postcode": "43074", "addr:state": "OH", "brand": "USPS", "collection_times": "Mo-Fr 16:30; Sa 12:00", "name": "USPS COLLECTION BOX - PO LOBBY", "note": "ON 12/24 AND 12/31, THIS BOX MAY BE COLLECTED AS EARLY AS 12 NOON.", "ref": "4307400013"}, "type": "Feature"}
{"geometry": {"coordinates": [-83.340401, 40.138905], "type": "Point"}, "id": "XueVIZkKBBQ_JjhBnKzVkOfs3o4=", "properties": {"@spider": "usps_collection_boxes", "addr:city": "UNIONVLLE CTR", "addr:country": "US", "addr:full": "110 W MAIN ST", "addr:postcode": "43077", "addr:state": "OH", "brand": "USPS", "collection_times": "Mo-Fr 11:30; Sa 10:45", "name": "USPS COLLECTION BOX - BLUE BOX", "ref": "4307700000"}, "type": "Feature"}
{"geometry": {"coordinates": [-83.34039, 40.138931], "type": "Point"}, "id": "Ppfmf-i2FKNc0YDiK3yXm3GE_m0=", "properties": {"@spider": "usps_collection_boxes", "addr:city": "UNIONVLLE CTR", "addr:country": "US", "addr:full": "110 W MAIN ST", "addr:postcode": "43077", "addr:state": "OH", "brand": "USPS", "collection_times": "Mo-Fr 11:30; Sa 10:45", "name": "USPS COLLECTION BOX - PO LOBBY", "ref": "4307700001"}, "type": "Feature"}
{"geometry": {"coordinates": [-83.340339578, 40.138882955], "type": "Point"}, "id": "bO8-Sq8A4WczBL1N4vB1GmDF4mg=", "properties": {"@spider": "usps_collection_boxes", "addr:city": "UNIONVLLE CTR", "addr:country": "US", "addr:full": "110 W MAIN ST", "addr:postcode": "43077", "addr:state": "OH", "brand": "USPS", "collection_times": "Mo-Fr 12:00; Sa 11:00", "name": "USPS COLLECTION BOX - PO LOBBY", "ref": "4307700003"}, "type": "Feature"}
{"geometry": {"coordinates": [-83.732431087, 40.106842436], "type": "Point"}, "id": "5pQ3WLop_Dt3w-dfRMw3XashFig=", "properties": {"@spider": "usps_collection_boxes", "addr:city": "URBANA", "addr:country": "US", "addr:full": "848 SCIOTO ST", "addr:postcode": "43078", "addr:state": "OH", "brand": "USPS", "collection_times": "Mo-Sa 14:15", "name": "USPS COLLECTION BOX - BLUE BOX", "note": "ON 12/24 AND 12/31, THIS BOX MAY BE COLLECTED AS EARLY AS 12 NOON.", "ref": "4307800011"}, "type": "Feature"}
{"geometry": {"coordinates": [-83.781212227, 40.030676088], "type": "Point"}, "id": "sFBKs40HACYMGqTUhFhlwgAmC0s=", "properties": {"@spider": "usps_collection_boxes", "addr:city": "URBANA", "addr:country": "US", "addr:full": "5646 SPRINGFIELD URBANA PIKE", "addr:postcode": "43078", "addr:state": "OH", "brand": "USPS", "collection_times": "Mo-Sa 10:15", "name": "USPS COLLECTION BOX - BLUE BOX", "ref": "4307800019"}, "type": "Feature"}
{"geometry": {"coordinates": [-83.751002466, 40.108020464], "type": "Point"}, "id": "gV7Yg41STml0JNLN8XMfhlWjfAg=", "properties": {"@spider": "usps_collection_boxes", "addr:city": "URBANA", "addr:country": "US", "addr:full": "126 SCIOTO ST", "addr:postcode": "43078", "addr:state": "OH", "brand": "USPS", "collection_times": "Mo-Sa 14:45", "name": "USPS COLLECTION BOX - BLUE BOX", "note": "ON 12/24 AND 12/31, THIS BOX MAY BE COLLECTED AS EARLY AS 12 NOON.", "ref": "4307800023"}, "type": "Feature"}
{"geometry": {"coordinates": [-83.752608, 40.106952], "type": "Point"}, "id": "IskSsHB-WOpSfIdJEDG9CsMLXis=", "properties": {"@spider": "usps_collection_boxes", "addr:city": "URBANA", "addr:country": "US", "addr:full": "200 S MAIN ST", "addr:postcode": "43078", "addr:state": "OH", "brand": "USPS", "collection_times": "Mo-Fr 17:00; Sa 16:30", "name": "USPS COLLECTION BOX - BLUE BOX", "note": "ON 12/24 AND 12/31, THIS BOX MAY BE COLLECTED AS EARLY AS 12 NOON.", "ref": "4307800029"}, "type": "Feature"}
{"geometry": {"coordinates": [-83.752608, 40.106952], "type": "Point"}, "id": "5Rt9nyQ32xKNZ4c_Dfzc9UOaU_g=", "properties": {"@spider": "usps_collection_boxes", "addr:city": "URBANA", "addr:country": "US", "addr:full": "200 S MAIN ST", "addr:postcode": "43078", "addr:state": "OH", "brand": "USPS", "collection_times": "Mo-Sa 16:30", "name": "USPS COLLECTION BOX - PO LOBBY", "note": "ON 12/24 AND 12/31, THIS BOX MAY BE COLLECTED AS EARLY AS 12 NOON.", "ref": "4307800034"}, "type": "Feature"}
{"geometry": {"coordinates": [-83.756208207, 40.090623042], "type": "Point"}, "id": "4D5abKxk-2LsnfB6iGGXNTx3EVg=", "properties": {"@spider": "usps_collection_boxes", "addr:city": "URBANA", "addr:country": "US", "addr:full": "1512 S US HIGHWAY 68", "addr:postcode": "43078", "addr:state": "OH", "brand": "USPS", "collection_times": "Mo-Fr 13:00; Sa 12:00", "name": "USPS COLLECTION BOX - BLUE BOX", "note": "ON 12/24 AND 12/31, THIS BOX MAY BE COLLECTED AS EARLY AS 12 NOON.", "ref": "4307800039"}, "type": "Feature"}
{"geometry": {"coordinates": [-83.752552267, 40.108301088], "type": "Point"}, "id": "vwINZnZiR0AEpSJOsTJ0Djt_Rvc=", "properties": {"@spider": "usps_collection_boxes", "addr:city": "URBANA", "addr:country": "US", "addr:full": "40 MONUMENT SQ", "addr:postcode": "43078", "addr:state": "OH", "brand": "USPS", "collection_times": "Mo-Sa 14:45", "name": "USPS COLLECTION BOX - BLUE BOX", "note": "ON 12/24 AND 12/31, THIS BOX MAY BE COLLECTED AS EARLY AS 12 NOON.", "ref": "4307800040"}, "type": "Feature"}
{"geometry": {"coordinates": [-83.752356862, 40.109046454], "type": "Point"}, "id": "GW8WNeOsjBnFunuxHx2ko-b8GSw=", "properties": {"@spider": "usps_collection_boxes", "addr:city": "URBANA", "addr:country": "US", "addr:full": "127 N MAIN ST", "addr:postcode": "43078", "addr:state": "OH", "brand": "USPS", "collection_times": "Mo-Sa 14:45", "name": "USPS COLLECTION BOX - BLUE BOX", "note": "ON 12/24 AND 12/31, THIS BOX MAY BE COLLECTED AS EARLY AS 12 NOON.", "ref": "4307800041"}, "type": "Feature"}
{"geometry": {"coordinates": [-83.720902624, 40.106092531], "type": "Point"}, "id": "SyePa9jJ9s9Slqr0chqNYKpugjA=", "properties": {"@spider": "usps_collection_boxes", "addr:city": "URBANA", "addr:country": "US", "addr:full": "1637 E US HIGHWAY 36", "addr:postcode": "43078", "addr:state": "OH", "brand": "USPS", "collection_times": "Mo-Sa 09:45", "name": "USPS COLLECTION BOX - BLUE BOX", "ref": "4307800042"}, "type": "Feature"}
{"geometry": {"coordinates": [-83.752667496, 40.106747493], "type": "Point"}, "id": "pIH3gb8beFm0WZRjwhvEuFcKyGA=", "properties": {"@spider": "usps_collection_boxes", "addr:city": "URBANA", "addr:country": "US", "addr:full": "200 S MAIN ST", "addr:postcode": "43078", "addr:state": "OH", "brand": "USPS", "collection_times": "Mo-Fr 16:30; Sa 12:00", "name": "USPS COLLECTION BOX - PO LOBBY", "note": "ON 12/24 AND 12/31, THIS BOX MAY BE COLLECTED AS EARLY AS 12 NOON.", "ref": "4307800046"}, "type": "Feature"}
{"geometry": {"coordinates": [-82.452642, 40.234735], "type": "Point"}, "id": "2Z3NmptV7uL7jgVl-gCnfESgUng=", "properties": {"@spider": "usps_collection_boxes", "addr:city": "UTICA", "addr:country": "US", "addr:full": "20 N MAIN ST", "addr:postcode": "43080", "addr:state": "OH", "brand": "USPS", "collection_times": "Mo-Fr 15:30; Sa 11:00", "name": "USPS COLLECTION BOX - BLUE BOX", "note": "ON 12/24 AND 12/31, THIS BOX MAY BE COLLECTED AS EARLY AS 12 NOON.", "ref": "4308000000"}, "type": "Feature"}
{"geometry": {"coordinates": [-82.452642, 40.234735], "type": "Point"}, "id": "-ZSg3JltH_P3Sq8ZmSomJ59NE_U=", "properties": {"@spider": "usps_collection_boxes", "addr:city": "UTICA", "addr:country": "US", "addr:full": "20 N MAIN ST", "addr:postcode": "43080", "addr:state": "OH", "brand": "USPS", "collection_times": "Mo-Fr 16:00; Sa 11:00", "name": "USPS COLLECTION BOX - PO LOBBY", "note": "ON 12/24 AND 12/31, THIS BOX MAY BE COLLECTED AS EARLY AS 12 NOON.", "ref": "4308000002"}, "type": "Feature"}
{"geometry": {"coordinates": [-82.452606745, 40.234696596], "type": "Point"}, "id": "9FZhBa1xrcmgtWOu2GMsFPa9sTM=", "properties": {"@spider": "usps_collection_boxes", "addr:city": "UTICA", "addr:country": "US", "addr:full": "20 N MAIN ST", "addr:postcode": "43080", "addr:state": "OH", "brand": "USPS", "collection_times": "Mo-Fr 16:00; Sa 11:00", "name": "USPS COLLECTION BOX - PO LOBBY", "note": "ON 12/24 AND 12/31, THIS BOX MAY BE COLLECTED AS EARLY AS 12 NOON.", "ref": "4308000008"}, "type": "Feature"}
{"geometry": {"coordinates": [-82.886214529, 40.114843732], "type": "Point"}, "id": "_QkaGTGyNbIB9f2kH15pq2zTORk=", "properties": {"@spider": "usps_collection_boxes", "addr:city": "WESTERVILLE", "addr:country": "US", "addr:full": "275 S SUNBURY RD", "addr:postcode": "43081", "addr:state": "OH", "brand": "USPS", "collection_times": "Mo-Sa 09:00", "name": "USPS COLLECTION BOX - BLUE BOX", "ref": "4308100013"}, "type": "Feature"}
{"geometry": {"coordinates": [-82.891632135, 40.097581475], "type": "Point"}, "id": "TrtdxMVVzHIXLvbk-sXuCvvELIY=", "properties": {"@spider": "usps_collection_boxes", "addr:city": "WESTERVILLE", "addr:country": "US", "addr:full": "1165 COLONY DR", "addr:postcode": "43081", "addr:state": "OH", "brand": "USPS", "collection_times": "Mo-Sa 09:00", "name": "USPS COLLECTION BOX - BLUE BOX", "ref": "4308100014"}, "type": "Feature"}
{"geometry": {"coordinates": [-82.948090574, 40.145931457], "type": "Point"}, "id": "lYSaWtWJ97oIliWWS0vd-vYm-Dw=", "properties": {"@spider": "usps_collection_boxes", "addr:city": "WESTERVILLE", "addr:country": "US", "addr:full": "550 POLARIS PKWY", "addr:postcode": "43081", "addr:state": "OH", "brand": "USPS", "collection_times": "Mo-Sa 15:00", "name": "USPS COLLECTION BOX - BLUE BOX", "note": "ON 12/24 AND 12/31, THIS BOX MAY BE COLLECTED AS EARLY AS 12 NOON.", "ref": "4308100031"}, "type": "Feature"}
{"geometry": {"coordinates": [-82.922031707, 40.149702538], "type": "Point"}, "id": "relnnhznKUbMrmu_bJcK4wcBmdQ=", "properties": {"@spider": "usps_collection_boxes", "addr:city": "WESTERVILLE", "addr:country": "US", "addr:full": "7345 STATE ROUTE 3", "addr:postcode": "43081", "addr:state": "OH", "brand": "USPS", "collection_times": "Mo-Sa 09:00", "name": "USPS COLLECTION BOX - BLUE BOX", "ref": "4308100071"}, "type": "Feature"}
{"geometry": {"coordinates": [-82.920305, 40.141151], "type": "Point"}, "id": "MpJfBHHjV4y0Co_udSresWyCdwE=", "properties": {"@spider": "usps_collection_boxes", "addr:city": "WESTERVILLE", "addr:country": "US", "addr:full": "617 MCCORKLE BLVD", "addr:postcode": "43081", "addr:state": "OH", "brand": "USPS", "collection_times": "Mo-Fr 17:00; Sa 15:00", "name": "USPS COLLECTION BOX - BLUE BOX", "note": "ON 12/24 AND 12/31, THIS BOX MAY BE COLLECTED AS EARLY AS 12 NOON.", "ref": "4308100074"}, "type": "Feature"}
{"geometry": {"coordinates": [-82.920285, 40.141241], "type": "Point"}, "id": "MRXMI2hnXcM7Yov0ISHYkKHf_y4=", "properties": {"@spider": "usps_collection_boxes", "addr:city": "WESTERVILLE", "addr:country": "US", "addr:full": "617 MCCORKLE BLVD", "addr:postcode": "43081", "addr:state": "OH", "brand": "USPS", "collection_times": "Mo-Fr 17:00; Sa 15:00", "name": "USPS COLLECTION BOX - BLUE BOX", "note": "ON 12/24 AND 12/31, THIS BOX MAY BE COLLECTED AS EARLY AS 12 NOON.", "ref": "4308100076"}, "type": "Feature"}
{"geometry": {"coordinates": [-82.920285, 40.141241], "type": "Point"}, "id": "bm_Iwy9R0ULnE8uSI6dgmFDUUls=", "properties": {"@spider": "usps_collection_boxes", "addr:city": "WESTERVILLE", "addr:country": "US", "addr:full": "617 MCCORKLE BLVD", "addr:postcode": "43081", "addr:state": "OH", "brand": "USPS", "collection_times": "Mo-Fr 17:00; Sa 15:00", "name": "USPS COLLECTION BOX - BLUE BOX", "note": "ON 12/24 AND 12/31, THIS BOX MAY BE COLLECTED AS EARLY AS 12 NOON.", "ref": "4308100077"}, "type": "Feature"}
{"geometry": {"coordinates": [-82.920285, 40.141241], "type": "Point"}, "id": "1X3wziJ4An6sOMM74GYiMJJ98rc=", "properties": {"@spider": "usps_collection_boxes", "addr:city": "WESTERVILLE", "addr:country": "US", "addr:full": "617 MCCORKLE BLVD", "addr:postcode": "43081", "addr:state": "OH", "brand": "USPS", "collection_times": "Mo-Fr 17:00; Sa 15:00", "name": "USPS COLLECTION BOX - PO LOBBY", "note": "ON 12/24 AND 12/31, THIS BOX MAY BE COLLECTED AS EARLY AS 12 NOON.", "ref": "4308100079"}, "type": "Feature"}
{"geometry": {"coordinates": [-82.920285, 40.141241], "type": "Point"}, "id": "Yp16QYBd6422DIk4hRdhQ9kDynI=", "properties": {"@spider": "usps_collection_boxes", "addr:city": "WESTERVILLE", "addr:country": "US", "addr:full": "617 MCCORKLE BLVD", "addr:postcode": "43081", "addr:state": "OH", "brand": "USPS", "collection_times": "Mo-Fr 17:00; Sa 15:00", "name": "USPS COLLECTION BOX - PO LOBBY", "note": "ON 12/24 AND 12/31, THIS BOX MAY BE COLLECTED AS EARLY AS 12 NOON.", "ref": "4308100081"}, "type": "Feature"}
{"geometry": {"coordinates": [-82.920285, 40.141241], "type": "Point"}, "id": "8W8ornWxURaKMU4O0RGk8JKqAjI=", "properties": {"@spider": "usps_collection_boxes", "addr:city": "WESTERVILLE", "addr:country": "US", "addr:full": "617 MCCORKLE BLVD", "addr:postcode": "43081", "addr:state": "OH", "brand": "USPS", "collection_times": "Mo-Fr 17:00; Sa 15:00", "name": "USPS COLLECTION BOX - APC", "note": "ON 12/24 AND 12/31, THIS BOX MAY BE COLLECTED AS EARLY AS 12 NOON.", "ref": "4308100082"}, "type": "Feature"}
{"geometry": {"coordinates": [-82.928130148, 40.147745421], "type": "Point"}, "id": "Y0QNpZKiSWZJP-0YNrLPeyoDwFI=", "properties": {"@spider": "usps_collection_boxes", "addr:city": "WESTERVILLE", "addr:country": "US", "addr:full": "100 POLARIS PKWY", "addr:postcode": "43081", "addr:state": "OH", "brand": "USPS", "collection_times": "Mo-Sa 13:00", "name": "USPS COLLECTION BOX - BLUE BOX", "note": "ON 12/24 AND 12/31, THIS BOX MAY BE COLLECTED AS EARLY AS 12 NOON.", "ref": "4308100090"}, "type": "Feature"}
{"geometry": {"coordinates": [-82.920224929, 40.141439465], "type": "Point"}, "id": "Wk8tE-aQoIAQexh9_DFrDd7biek=", "properties": {"@spider": "usps_collection_boxes", "addr:city": "WESTERVILLE", "addr:country": "US", "addr:full": "617 MCCORKLE BLVD", "addr:postcode": "43081", "addr:state": "OH", "brand": "USPS", "collection_times": "Mo-Fr 18:00; Sa 15:00", "name": "USPS COLLECTION BOX - PO LOBBY", "note": "ON 12/24 AND 12/31, THIS BOX MAY BE COLLECTED AS EARLY AS 12 NOON.", "ref": "4308100106"}, "type": "Feature"}
{"geometry": {"coordinates": [-83.8281847484, 40.1090173125], "type": "Point"}, "id": "3Xb7ACi7h6nEKR_PRkCKL7Li2R8=", "properties": {"@spider": "usps_collection_boxes", "addr:city": "WESTVILLE", "addr:country": "US", "addr:full": "3987 W US HIGHWAY 36", "addr:postcode": "43083", "addr:state": "OH", "brand": "USPS", "collection_times": "Mo-Fr 16:15; Sa 10:15", "name": "USPS COLLECTION BOX - BLUE BOX", "note": "ON 12/24 AND 12/31, THIS BOX MAY BE COLLECTED AS EARLY AS 12 NOON.", "ref": "4308300000"}, "type": "Feature"}
{"geometry": {"coordinates": [-83.8281847484, 40.1090173125], "type": "Point"}, "id": "jtCFUlC2VSYPo4eiGlJRAa6k0iM=", "properties": {"@spider": "usps_collection_boxes", "addr:city": "WESTVILLE", "addr:country": "US", "addr:full": "3987 W US HIGHWAY 36", "addr:postcode": "43083", "addr:state": "OH", "brand": "USPS", "collection_times": "Mo-Fr 16:30; Sa 10:15", "name": "USPS COLLECTION BOX - PO LOBBY", "note": "ON 12/24 AND 12/31, THIS BOX MAY BE COLLECTED AS EARLY AS 12 NOON.", "ref": "4308300001"}, "type": "Feature"}
{"geometry": {"coordinates": [-83.837264202, 40.109522543], "type": "Point"}, "id": "d-qaNfqHVZmh9ia9Dnh4awc3woA=", "properties": {"@spider": "usps_collection_boxes", "addr:city": "WESTVILLE", "addr:country": "US", "addr:full": "3987 W US HIGHWAY 36", "addr:postcode": "43083", "addr:state": "OH", "brand": "USPS", "collection_times": "Mo-Fr 16:30; Sa 11:00", "name": "USPS COLLECTION BOX - PO LOBBY", "note": "ON 12/24 AND 12/31, THIS BOX MAY BE COLLECTED AS EARLY AS 12 NOON.", "ref": "4308300003"}, "type": "Feature"}
{"geometry": {"coordinates": [-83.528576, 40.17499], "type": "Point"}, "id": "TMCThxFs1OWmlpRE0gJ4lLb7UMQ=", "properties": {"@spider": "usps_collection_boxes", "addr:city": "WOODSTOCK", "addr:country": "US", "addr:full": "111 BURNWELL ST", "addr:postcode": "43084", "addr:state": "OH", "brand": "USPS", "collection_times": "Mo-Fr 15:30; Sa 10:15", "name": "USPS COLLECTION BOX - BLUE BOX", "note": "ON 12/24 AND 12/31, THIS BOX MAY BE COLLECTED AS EARLY AS 12 NOON.", "ref": "4308400000"}, "type": "Feature"}
{"geometry": {"coordinates": [-83.52854, 40.174998], "type": "Point"}, "id": "qFPi3P6TXGwcBPAO7H9rIXGaJR0=", "properties": {"@spider": "usps_collection_boxes", "addr:city": "WOODSTOCK", "addr:country": "US", "addr:full": "111 BURNWELL ST", "addr:postcode": "43084", "addr:state": "OH", "brand": "USPS", "collection_times": "Mo-Fr 15:30; Sa 10:15", "name": "USPS COLLECTION BOX - PO LOBBY", "note": "ON 12/24 AND 12/31, THIS BOX MAY BE COLLECTED AS EARLY AS 12 NOON.", "ref": "4308400001"}, "type": "Feature"}
{"geometry": {"coordinates": [-83.528654566, 40.174144271], "type": "Point"}, "id": "CK1ds3Te_BUlnPpubjZfgmKBikw=", "properties": {"@spider": "usps_collection_boxes", "addr:city": "WOODSTOCK", "addr:country": "US", "addr:full": "111 BURNWELL ST", "addr:postcode": "43084", "addr:state": "OH", "brand": "USPS", "collection_times": "Mo-Fr 16:30; Sa 13:30", "name": "USPS COLLECTION BOX - PO LOBBY", "note": "ON 12/24 AND 12/31, THIS BOX MAY BE COLLECTED AS EARLY AS 12 NOON.", "ref": "4308400003"}, "type": "Feature"}
{"geometry": {"coordinates": [-82.995779936, 40.145708947], "type": "Point"}, "id": "PEXGcM2OeXz4o08uamno7FfwBF4=", "properties": {"@spider": "usps_collection_boxes", "addr:city": "COLUMBUS", "addr:country": "US", "addr:full": "8947 ANTARES AVE", "addr:postcode": "43085", "addr:state": "OH", "brand": "USPS", "collection_times": "Mo-Fr 12:00", "name": "USPS COLLECTION BOX - BLUE BOX", "ref": "4308500058"}, "type": "Feature"}
{"geometry": {"coordinates": [-82.967486543, 40.145660612], "type": "Point"}, "id": "gayYQuBOGiO8YrgEttgZTjOvja4=", "properties": {"@spider": "usps_collection_boxes", "addr:city": "COLUMBUS", "addr:country": "US", "addr:full": "8700 ORION PL", "addr:postcode": "43085", "addr:state": "OH", "brand": "USPS", "collection_times": "Mo-Fr 09:00", "name": "USPS COLLECTION BOX - BLUE BOX", "ref": "4308500063"}, "type": "Feature"}
{"geometry": {"coordinates": [-82.975350417, 40.144879207], "type": "Point"}, "id": "GKPmLyS2W3oApBsfrIH9bYVqeig=", "properties": {"@spider": "usps_collection_boxes", "addr:city": "COLUMBUS", "addr:country": "US", "addr:full": "8800 LYRA DR", "addr:postcode": "43085", "addr:state": "OH", "brand": "USPS", "collection_times": "Mo-Fr 09:00", "name": "USPS COLLECTION BOX - BLUE BOX", "ref": "4308500065"}, "type": "Feature"}
