{"geometry": {"coordinates": [-82.747881, 39.466849], "type": "Point"}, "id": "X19IoD5S99PktzR7hS2BPCQSQaQ=", "properties": {"@spider": "usps_collection_boxes", "addr:city": "ADELPHI", "addr:country": "US", "addr:full": "19333 CONCORD ST", "addr:postcode": "43101", "addr:state": "OH", "brand": "USPS", "collection_times": "Mo-Fr 11:00; Sa 10:15", "name": "USPS COLLECTION BOX - BLUE BOX", "ref": "4310100000"}, "type": "Feature"}
{"geometry": {"coordinates": [-82.742433, 39.649232], "type": "Point"}, "id": "3Fx6KuIo9HKM9EjvU4sipShFZt8=", "properties": {"@spider": "usps_collection_boxes", "addr:city": "AMANDA", "addr:country": "US", "addr:full": "144 E MAIN ST", "addr:postcode": "43102", "addr:state": "OH", "brand": "USPS", "collection_times": "Mo-Fr 15:45; Sa 10:45", "name": "USPS COLLECTION BOX - BLUE BOX", "note": "ON 12/24 AND 12/31, THIS BOX MAY BE COLLECTED AS EARLY AS 12 NOON.", "ref": "4310200000"}, "type": "Feature"}
{"geometry": {"coordinates": [-82.742491, 39.649218], "type": "Point"}, "id": "w2G6fR6CnfRsbkH6MM1q76U1mhk=", "properties": {"@spider": "usps_collection_boxes", "addr:city": "AMANDA", "addr:country": "US", "addr:full": "144 E MAIN ST", "addr:postcode": "43102", "addr:state": "OH", "brand": "USPS", "collection_times": "Mo-Fr 15:45; Sa 10:45", "name": "USPS COLLECTION BOX - PO LOBBY", "note": "ON 12/24 AND 12/31, THIS BOX MAY BE COLLECTED AS EARLY AS 12 NOON.", "ref": "4310200001"}, "type": "Feature"}
{"geometry": {"coordinates": [-82.741876764, 39.649127406], "type": "Point"}, "id": "gtHUYnrpU5wGcME5NGMQTVKcfOc=", "properties": {"@spider": "usps_collection_boxes", "addr:city": "AMANDA", "addr:country": "US", "addr:full": "144 E MAIN ST", "addr:postcode": "43102", "addr:state": "OH", "brand": "USPS", "collection_times": "Mo-Fr 16:00; Sa 11:00", "name": "USPS COLLECTION BOX - PO LOBBY", "note": "ON 12/24 AND 12/31, THIS BOX MAY BE COLLECTED AS EARLY AS 12 NOON.", "ref": "4310200006"}, "type": "Feature"}
{"geometry": {"coordinates": [-82.954566036, 39.720611515], "type": "Point"}, "id": "IMOMeSK35MBzjOyRLG6Uhw2ltj8=", "properties": {"@spider": "usps_collection_boxes", "addr:city": "S BLOOMFIELD", "addr:country": "US", "addr:full": "363 RANDOLPH ST", "addr:postcode": "43103", "addr:state": "OH", "brand": "USPS", "collection_times": "Mo-Sa 11:00", "name": "USPS COLLECTION BOX - BLUE BOX", "ref": "4310300000"}, "type": "Feature"}
{"geometry": {"coordinates": [-82.949297479, 39.713912286], "type": "Point"}, "id": "eGHedzUBA8PQs40V1LT9SV6U8-s=", "properties": {"@spider": "usps_collection_boxes", "addr:city": "S BLOOMFIELD", "addr:country": "US", "addr:full": "154 MAIN ST E", "addr:postcode": "43103", "addr:state": "OH", "brand": "USPS", "collection_times": "Mo-Sa 08:45", "name": "USPS COLLECTION BOX - BLUE BOX", "ref": "4310300001"}, "type": "Feature"}
{"geometry": {"coordinates": [-82.962171842, 39.715355829], "type": "Point"}, "id": "EV50ANqF7qMxnE6SisO6FskY-XY=", "properties": {"@spider": "usps_collection_boxes", "addr:city": "S BLOOMFIELD", "addr:country": "US", "addr:full": "99 MILLER AVE", "addr:postcode": "43103", "addr:state": "OH", "brand": "USPS", "collection_times": "Mo-Sa 09:00", "name": "USPS COLLECTION BOX - BLUE BOX", "ref": "4310300002"}, "type": "Feature"}
{"geometry": {"coordinates": [-82.95733901, 39.713860875], "type": "Point"}, "id": "zRnjYWCXZm10IFf_DcCR5fCMPiw=", "properties": {"@spider": "usps_collection_boxes", "addr:city": "S BLOOMFIELD", "addr:country": "US", "addr:full": "35 SCIOTO ST", "addr:postcode": "43103", "addr:state": "OH", "brand": "USPS", "collection_times": "Mo-Fr 09:30; Sa 09:00", "name": "USPS COLLECTION BOX - BLUE BOX", "ref": "4310300003"}, "type": "Feature"}
{"geometry": {"coordinates": [-82.958276369, 39.718257988], "type": "Point"}, "id": "XRuDVvxKw9w3IB0RQHEUvW0ROzI=", "properties": {"@spider": "usps_collection_boxes", "addr:city": "S BLOOMFIELD", "addr:country": "US", "addr:full": "238 JEFFERSON AVE", "addr:postcode": "43103", "addr:state": "OH", "brand": "USPS", "collection_times": "Mo-Sa 09:30", "name": "USPS COLLECTION BOX - BLUE BOX", "ref": "4310300004"}, "type": "Feature"}
{"geometry": {"coordinates": [-82.9868386053, 39.7172173725], "type": "Point"}, "id": "W_D7dxzPq_-PKsBC7CKNKBWaYRE=", "properties": {"@spider": "usps_collection_boxes", "addr:city": "S BLOOMFIELD", "addr:country": "US", "addr:full": "5003 S WALNUT ST", "addr:postcode": "43103", "addr:state": "OH", "brand": "USPS", "collection_times": "Mo-Sa 13:00", "name": "USPS COLLECTION BOX - BLUE BOX", "note": "ON 12/24 AND 12/31, THIS BOX MAY BE COLLECTED AS EARLY AS 12 NOON.", "ref": "4310300005"}, "type": "Feature"}
{"geometry": {"coordinates": [-82.983736457, 39.717412125], "type": "Point"}, "id": "iRNQAOyxMSVfPjMsLNR5btPDy9c=", "properties": {"@spider": "usps_collection_boxes", "addr:city": "S BLOOMFIELD", "addr:country": "US", "addr:full": "5020 EAST ST", "addr:postcode": "43103", "addr:state": "OH", "brand": "USPS", "collection_times": "Mo-Sa 11:00", "name": "USPS COLLECTION BOX - BLUE BOX", "ref": "4310300006"}, "type": "Feature"}
{"geometry": {"coordinates": [-82.95345, 39.713154], "type": "Point"}, "id": "qiHwRRPyamawYPSuWS3njanW8Iw=", "properties": {"@spider": "usps_collection_boxes", "addr:city": "S BLOOMFIELD", "addr:country": "US", "addr:full": "3 MAIN ST E", "addr:postcode": "43103", "addr:state": "OH", "brand": "USPS", "collection_times": "Mo-Fr 16:15; Sa 15:30", "name": "USPS COLLECTION BOX - BLUE BOX", "note": "ON 12/24 AND 12/31, THIS BOX MAY BE COLLECTED AS EARLY AS 12 NOON.", "ref": "4310300007"}, "type": "Feature"}
{"geometry": {"coordinates": [-82.953555, 39.713181], "type": "Point"}, "id": "GQUdhrl3lrW_4S0xPgpcLQQji0o=", "properties": {"@spider": "usps_collection_boxes", "addr:city": "S BLOOMFIELD", "addr:country": "US", "addr:full": "3 MAIN ST E", "addr:postcode": "43103", "addr:state": "OH", "brand": "USPS", "collection_times": "Mo-Fr 16:30; Sa 15:30", "name": "USPS COLLECTION BOX - PO LOBBY", "note": "ON 12/24 AND 12/31, THIS BOX MAY BE COLLECTED AS EARLY AS 12 NOON.", "ref": "4310300008"}, "type": "Feature"}
{"geometry": {"coordinates": [-82.953559498, 39.713149543], "type": "Point"}, "id": "BTbp0aHwMOeGV5AXbPDqpCDG6kM=", "properties": {"@spider": "usps_collection_boxes", "addr:city": "S BLOOMFIELD", "addr:country": "US", "addr:full": "3 MAIN ST E", "addr:postcode": "43103", "addr:state": "OH", "brand": "USPS", "collection_times": "Mo-Fr 16:30; Sa 12:00", "name": "USPS COLLECTION BOX - PO LOBBY", "note": "ON 12/24 AND 12/31, THIS BOX MAY BE COLLECTED AS EARLY AS 12 NOON.", "ref": "4310300010"}, "type": "Feature"}
{"geometry": {"coordinates": [-83.396523, 39.606306], "type": "Point"}, "id": "1mab0tp9x1WYKM26NHiQVwh_eXk=", "properties": {"@spider": "usps_collection_boxes", "addr:city": "BLOOMINGBURG", "addr:country": "US", "addr:full": "50 MAIN ST", "addr:postcode": "43106", "addr:state": "OH", "brand": "USPS", "collection_times": "Mo-Fr 16:30; Sa 11:15", "name": "USPS COLLECTION BOX - BLUE BOX", "note": "ON 12/24 AND 12/31, THIS BOX MAY BE COLLECTED AS EARLY AS 12 NOON.", "ref": "4310600000"}, "type": "Feature"}
{"geometry": {"coordinates": [-83.396523, 39.606306], "type": "Point"}, "id": "PqV2A0aBgCX3_Ph2QAeKRps8tbg=", "properties": {"@spider": "usps_collection_boxes", "addr:city": "BLOOMINGBURG", "addr:country": "US", "addr:full": "50 MAIN ST", "addr:postcode": "43106", "addr:state": "OH", "brand": "USPS", "collection_times": "Mo-Fr 16:30; Sa 11:15", "name": "USPS COLLECTION BOX - PO LOBBY", "note": "ON 12/24 AND 12/31, THIS BOX MAY BE COLLECTED AS EARLY AS 12 NOON.", "ref": "4310600001"}, "type": "Feature"}
{"geometry": {"coordinates": [-83.396558503, 39.606299718], "type": "Point"}, "id": "R7BPGXk7O372zxModn3_wHxnyhM=", "properties": {"@spider": "usps_collection_boxes", "addr:city": "BLOOMINGBURG", "addr:country": "US", "addr:full": "50 MAIN ST", "addr:postcode": "43106", "addr:state": "OH", "brand": "USPS", "collection_times": "Mo-Fr 16:30; Sa 12:30", "name": "USPS COLLECTION BOX - PO LOBBY", "note": "ON 12/24 AND 12/31, THIS BOX MAY BE COLLECTED AS EARLY AS 12 NOON.", "ref": "4310600003"}, "type": "Feature"}
{"geometry": {"coordinates": [-82.944090245, 39.603970215], "type": "Point"}, "id": "SEdwiz_H7896Cy_E-pIdTKFDUKw=", "properties": {"@spider": "usps_collection_boxes", "addr:city": "CIRCLEVILLE", "addr:country": "US", "addr:full": "233 N COURT ST", "addr:postcode": "43113", "addr:state": "OH", "brand": "USPS", "collection_times": "Mo-Sa 09:00", "name": "USPS COLLECTION BOX - BLUE BOX", "ref": "4311300000"}, "type": "Feature"}
{"geometry": {"coordinates": [-82.94489189, 39.601786181], "type": "Point"}, "id": "20gCXe-uLGfdr1hmGx3mzaJNj4w=", "properties": {"@spider": "usps_collection_boxes", "addr:city": "CIRCLEVILLE", "addr:country": "US", "addr:full": "101 E MAIN ST", "addr:postcode": "43113", "addr:state": "OH", "brand": "USPS", "collection_times": "Mo-Sa 08:30", "name": "USPS COLLECTION BOX - BLUE BOX", "ref": "4311300002"}, "type": "Feature"}
{"geometry": {"coordinates": [-82.939580246, 39.620854445], "type": "Point"}, "id": "55Kaiqutxxf_OyBxPsl9lIf8G2E=", "properties": {"@spider": "usps_collection_boxes", "addr:city": "CIRCLEVILLE", "addr:country": "US", "addr:full": "120 MORRIS RD", "addr:postcode": "43113", "addr:state": "OH", "brand": "USPS", "collection_times": "Mo-Sa 12:00", "name": "USPS COLLECTION BOX - BLUE BOX", "ref": "4311300010"}, "type": "Feature"}
{"geometry": {"coordinates": [-82.948906694, 39.583199375], "type": "Point"}, "id": "wksCFYnnFumXzsfRWqoIlnCuYns=", "properties": {"@spider": "usps_collection_boxes", "addr:city": "CIRCLEVILLE", "addr:country": "US", "addr:full": "1470 CIRCLEVILLE PLAZA DR", "addr:postcode": "43113", "addr:state": "OH", "brand": "USPS", "collection_times": "Mo-Sa 09:30", "name": "USPS COLLECTION BOX - BLUE BOX", "ref": "4311300011"}, "type": "Feature"}
{"geometry": {"coordinates": [-82.924940514, 39.601869265], "type": "Point"}, "id": "aSiaVoE7bzFPBxxJZ1q_fHbrvUQ=", "properties": {"@spider": "usps_collection_boxes", "addr:city": "CIRCLEVILLE", "addr:country": "US", "addr:full": "460 LANCASTER PIKE", "addr:postcode": "43113", "addr:state": "OH", "brand": "USPS", "collection_times": "Mo-Sa 09:30", "name": "USPS COLLECTION BOX - BLUE BOX", "ref": "4311300012"}, "type": "Feature"}
{"geometry": {"coordinates": [-82.945998478, 39.60003512], "type": "Point"}, "id": "tw0I28465W5_Mk7uBEytkrwe694=", "properties": {"@spider": "usps_collection_boxes", "addr:city": "CIRCLEVILLE", "addr:country": "US", "addr:full": "224 S COURT ST", "addr:postcode": "43113", "addr:state": "OH", "brand": "USPS", "collection_times": "Mo-Fr 16:00; Sa 12:30", "name": "USPS COLLECTION BOX - BLUE BOX", "note": "ON 12/24 AND 12/31, THIS BOX MAY BE COLLECTED AS EARLY AS 12 NOON.", "ref": "4311300013"}, "type": "Feature"}
{"geometry": {"coordinates": [-82.945998478, 39.60003512], "type": "Point"}, "id": "wPT11TVg_VxaCpJztwczSA_Szco=", "properties": {"@spider": "usps_collection_boxes", "addr:city": "CIRCLEVILLE", "addr:country": "US", "addr:full": "224 S COURT ST", "addr:postcode": "43113", "addr:state": "OH", "brand": "USPS", "collection_times": "Mo-Fr 16:00; Sa 12:30", "name": "USPS COLLECTION BOX - BLUE BOX", "note": "ON 12/24 AND 12/31, THIS BOX MAY BE COLLECTED AS EARLY AS 12 NOON.", "ref": "4311300014"}, "type": "Feature"}
{"geometry": {"coordinates": [-82.945998478, 39.60003512], "type": "Point"}, "id": "pqZhh59P4wKkn91Wwzk9lpYIAxY=", "properties": {"@spider": "usps_collection_boxes", "addr:city": "CIRCLEVILLE", "addr:country": "US", "addr:full": "224 S COURT ST", "addr:postcode": "43113", "addr:state": "OH", "brand": "USPS", "collection_times": "Mo-Fr 16:00; Sa 12:30", "name": "USPS COLLECTION BOX - BLUE BOX", "note": "ON 12/24 AND 12/31, THIS BOX MAY BE COLLECTED AS EARLY AS 12 NOON.", "ref": "4311300017"}, "type": "Feature"}
{"geometry": {"coordinates": [-82.940010156, 39.619885693], "type": "Point"}, "id": "enqN5EbNAaO549vpvV_UPIGohbg=", "properties": {"@spider": "usps_collection_boxes", "addr:city": "CIRCLEVILLE", "addr:country": "US", "addr:full": "1180 N COURT ST", "addr:postcode": "43113", "addr:state": "OH", "brand": "USPS", "collection_times": "Mo-Sa 09:00", "name": "USPS COLLECTION BOX - BLUE BOX", "ref": "4311300019"}, "type": "Feature"}
{"geometry": {"coordinates": [-82.932089009, 39.599011845], "type": "Point"}, "id": "PpjzUt67I88wo8_nmO-LFZMUT2s=", "properties": {"@spider": "usps_collection_boxes", "addr:city": "CIRCLEVILLE", "addr:country": "US", "addr:full": "175 LANCASTER PIKE", "addr:postcode": "43113", "addr:state": "OH", "brand": "USPS", "collection_times": "Mo-Sa 09:00", "name": "USPS COLLECTION BOX - BLUE BOX", "ref": "4311300020"}, "type": "Feature"}
{"geometry": {"coordinates": [-82.928156, 39.584829], "type": "Point"}, "id": "EN5V5Zrp0YbBYerBTitH_2K2EOk=", "properties": {"@spider": "usps_collection_boxes", "addr:city": "CIRCLEVILLE", "addr:country": "US", "addr:full": "1191 KINGSTON PIKE", "addr:postcode": "43113", "addr:state": "OH", "brand": "USPS", "collection_times": "Mo-Fr 16:00; Sa 15:30", "name": "USPS COLLECTION BOX - BLUE BOX", "note": "ON 12/24 AND 12/31, THIS BOX MAY BE COLLECTED AS EARLY AS 12 NOON.", "ref": "4311300021"}, "type": "Feature"}
{"geometry": {"coordinates": [-82.928119, 39.584852], "type": "Point"}, "id": "Le9cwPQwL-Duai6HjgtG5K4TMno=", "properties": {"@spider": "usps_collection_boxes", "addr:city": "CIRCLEVILLE", "addr:country": "US", "addr:full": "1191 KINGSTON PIKE", "addr:postcode": "43113", "addr:state": "OH", "brand": "USPS", "collection_times": "Mo-Fr 16:00; Sa 15:30", "name": "USPS COLLECTION BOX - BLUE BOX", "note": "ON 12/24 AND 12/31, THIS BOX MAY BE COLLECTED AS EARLY AS 12 NOON.", "ref": "4311300022"}, "type": "Feature"}
{"geometry": {"coordinates": [-82.945998478, 39.60003512], "type": "Point"}, "id": "I9XVNBVwNceND3U02gnJEOQIGOs=", "properties": {"@spider": "usps_collection_boxes", "addr:city": "CIRCLEVILLE", "addr:country": "US", "addr:full": "224 S COURT ST", "addr:postcode": "43113", "addr:state": "OH", "brand": "USPS", "collection_times": "Mo-Fr 16:30; Sa 12:00", "name": "USPS COLLECTION BOX - PO LOBBY", "note": "ON 12/24 AND 12/31, THIS BOX MAY BE COLLECTED AS EARLY AS 12 NOON.", "ref": "4311300023"}, "type": "Feature"}
{"geometry": {"coordinates": [-82.945998478, 39.60003512], "type": "Point"}, "id": "gpPXb3pL_y35QCw2RC71mgo7C3A=", "properties": {"@spider": "usps_collection_boxes", "addr:city": "CIRCLEVILLE", "addr:country": "US", "addr:full": "224 S COURT ST", "addr:postcode": "43113", "addr:state": "OH", "brand": "USPS", "collection_times": "Mo-Fr 16:30; Sa 12:00", "name": "USPS COLLECTION BOX - PO LOBBY", "note": "ON 12/24 AND 12/31, THIS BOX MAY BE COLLECTED AS EARLY AS 12 NOON.", "ref": "4311300026"}, "type": "Feature"}
{"geometry": {"coordinates": [-83.154076, 39.505301], "type": "Point"}, "id": "-TsWJDKUotEx2iTBMIYhwFi5TPk=", "properties": {"@spider": "usps_collection_boxes", "addr:city": "CLARKSBURG", "addr:country": "US", "addr:full": "17343 HIGH ST", "addr:postcode": "43115", "addr:state": "OH", "brand": "USPS", "collection_times": "Mo-Fr 15:30; Sa 10:15", "name": "USPS COLLECTION BOX - BLUE BOX", "note": "ON 12/24 AND 12/31, THIS BOX MAY BE COLLECTED AS EARLY AS 12 NOON.", "ref": "4311500000"}, "type": "Feature"}
{"geometry": {"coordinates": [-83.154077, 39.505273], "type": "Point"}, "id": "wqjf_BiSJBOFMQBRyi5RbdfH1O8=", "properties": {"@spider": "usps_collection_boxes", "addr:city": "CLARKSBURG", "addr:country": "US", "addr:full": "17343 HIGH ST", "addr:postcode": "43115", "addr:state": "OH", "brand": "USPS", "collection_times": "Mo-Fr 15:30; Sa 10:15", "name": "USPS COLLECTION BOX - PO LOBBY", "note": "ON 12/24 AND 12/31, THIS BOX MAY BE COLLECTED AS EARLY AS 12 NOON.", "ref": "4311500001"}, "type": "Feature"}
{"geometry": {"coordinates": [-83.153938468, 39.505330005], "type": "Point"}, "id": "XoWKUUbbGIdkgUcnB5dO-x9fDm0=", "properties": {"@spider": "usps_collection_boxes", "addr:city": "CLARKSBURG", "addr:country": "US", "addr:full": "17343 HIGH ST", "addr:postcode": "43115", "addr:state": "OH", "brand": "USPS", "collection_times": "Mo-Fr 15:30; Sa 12:30", "name": "USPS COLLECTION BOX - PO LOBBY", "note": "ON 12/24 AND 12/31, THIS BOX MAY BE COLLECTED AS EARLY AS 12 NOON.", "ref": "4311500004"}, "type": "Feature"}
{"geometry": {"coordinates": [-83.058178, 39.768942], "type": "Point"}, "id": "PTym9R560uSXxHnnNS_8EAL-ta0=", "properties": {"@spider": "usps_collection_boxes", "addr:city": "COMMERCIAL POINT", "addr:country": "US", "addr:full": "12 BELSHAZZAR ST", "addr:postcode": "43116", "addr:state": "OH", "brand": "USPS", "collection_times": "Mo-Fr 15:45; Sa 09:45", "name": "USPS COLLECTION BOX - BLUE BOX", "note": "ON 12/24 AND 12/31, THIS BOX MAY BE COLLECTED AS EARLY AS 12 NOON.", "ref": "4311600000"}, "type": "Feature"}
{"geometry": {"coordinates": [-83.058164, 39.768853], "type": "Point"}, "id": "xuYwP36RYspigETWn3L2WTJ3zdY=", "properties": {"@spider": "usps_collection_boxes", "addr:city": "COMMERCIAL POINT", "addr:country": "US", "addr:full": "12 BELSHAZZAR ST", "addr:postcode": "43116", "addr:state": "OH", "brand": "USPS", "collection_times": "Mo-Fr 16:00; Sa 09:45", "name": "USPS COLLECTION BOX - PO LOBBY", "note": "ON 12/24 AND 12/31, THIS BOX MAY BE COLLECTED AS EARLY AS 12 NOON.", "ref": "4311600001"}, "type": "Feature"}
{"geometry": {"coordinates": [-83.058312107, 39.769158698], "type": "Point"}, "id": "6YDGMSZPNxVhdJjyOQ_ELwxTAkw=", "properties": {"@spider": "usps_collection_boxes", "addr:city": "COMMERCIAL POINT", "addr:country": "US", "addr:full": "12 BELSHAZZAR ST", "addr:postcode": "43116", "addr:state": "OH", "brand": "USPS", "collection_times": "Mo-Fr 16:00; Sa 12:30", "name": "USPS COLLECTION BOX - PO LOBBY", "note": "ON 12/24 AND 12/31, THIS BOX MAY BE COLLECTED AS EARLY AS 12 NOON.", "ref": "4311600003"}, "type": "Feature"}
{"geometry": {"coordinates": [-83.155214, 39.941926], "type": "Point"}, "id": "ba80WsCRHtjqa5OCpPTTdk5fAAM=", "properties": {"@spider": "usps_collection_boxes", "addr:city": "GALLOWAY", "addr:country": "US", "addr:full": "5820 SULLIVANT AVE", "addr:postcode": "43119", "addr:state": "OH", "brand": "USPS", "collection_times": "Mo-Fr 16:15; Sa 12:45", "name": "USPS COLLECTION BOX - PO LOBBY", "note": "ON 12/24 AND 12/31, THIS BOX MAY BE COLLECTED AS EARLY AS 12 NOON.", "ref": "4311900003"}, "type": "Feature"}
{"geometry": {"coordinates": [-83.155295044, 39.941966209], "type": "Point"}, "id": "j5Rp5CuPxMOjdGEIdaMzlobdU0s=", "properties": {"@spider": "usps_collection_boxes", "addr:city": "GALLOWAY", "addr:country": "US", "addr:full": "5820 SULLIVANT AVE", "addr:postcode": "43119", "addr:state": "OH", "brand": "USPS", "collection_times": "Mo-Fr 17:00; Sa 14:00", "name": "USPS COLLECTION BOX - PO LOBBY", "note": "ON 12/24 AND 12/31, THIS BOX MAY BE COLLECTED AS EARLY AS 12 NOON.", "ref": "4311900006"}, "type": "Feature"}
{"geometry": {"coordinates": [-83.1552950436, 39.941966209], "type": "Point"}, "id": "s-roSxqxuMNRk25yyovBqmHI-U0=", "properties": {"@spider": "usps_collection_boxes", "addr:city": "GALLOWAY", "addr:country": "US", "addr:full": "5820 SULLIVANT AVE", "addr:postcode": "43119", "addr:state": "OH", "brand": "USPS", "collection_times": "Mo-Fr 16:15; Sa 12:45", "name": "USPS COLLECTION BOX - BLUE BOX", "note": "ON 12/24 AND 12/31, THIS BOX MAY BE COLLECTED AS EARLY AS 12 NOON.", "ref": "4311900007"}, "type": "Feature"}
{"geometry": {"coordinates": [-83.171212, 39.809235], "type": "Point"}, "id": "DvwHSdE6mi54UU0nPkIs0_rF5E8=", "properties": {"@spider": "usps_collection_boxes", "addr:city": "HARRISBURG", "addr:country": "US", "addr:full": "1019 COLUMBUS ST", "addr:postcode": "43126", "addr:state": "OH", "brand": "USPS", "collection_times": "Mo-Fr 15:45; Sa 09:45", "name": "USPS COLLECTION BOX - BLUE BOX", "note": "ON 12/24 AND 12/31, THIS BOX MAY BE COLLECTED AS EARLY AS 12 NOON.", "ref": "4312600000"}, "type": "Feature"}
{"geometry": {"coordinates": [-83.171278, 39.809272], "type": "Point"}, "id": "nvXx7PIloiQgeIzV-9cfFCxlHfg=", "properties": {"@spider": "usps_collection_boxes", "addr:city": "HARRISBURG", "addr:country": "US", "addr:full": "1019 COLUMBUS ST", "addr:postcode": "43126", "addr:state": "OH", "brand": "USPS", "collection_times": "Mo-Fr 15:45; Sa 09:45", "name": "USPS COLLECTION BOX - PO LOBBY", "note": "ON 12/24 AND 12/31, THIS BOX MAY BE COLLECTED AS EARLY AS 12 NOON.", "ref": "4312600001"}, "type": "Feature"}
{"geometry": {"coordinates": [-83.171198242, 39.809219689], "type": "Point"}, "id": "CCQEI1acuMA87qrrnG0s2U5-yh0=", "properties": {"@spider": "usps_collection_boxes", "addr:city": "HARRISBURG", "addr:country": "US", "addr:full": "1019 COLUMBUS ST", "addr:postcode": "43126", "addr:state": "OH", "brand": "USPS", "collection_times": "Mo-Fr 16:00; Sa 10:00", "name": "USPS COLLECTION BOX - PO LOBBY", "note": "ON 12/24 AND 12/31, THIS BOX MAY BE COLLECTED AS EARLY AS 12 NOON.", "ref": "4312600003"}, "type": "Feature"}
{"geometry": {"coordinates": [-83.601862789, 39.620063585], "type": "Point"}, "id": "PsI1ZvOzPSPiwZ8j-3RkphrltXc=", "properties": {"@spider": "usps_collection_boxes", "addr:city": "JEFFERSONVILLE", "addr:country": "US", "addr:full": "8365 FACTORY SHOPS BLVD", "addr:postcode": "43128", "addr:state": "OH", "brand": "USPS", "collection_times": "Mo-Sa 13:00", "name": "USPS COLLECTION BOX - BLUE BOX", "note": "ON 12/24 AND 12/31, THIS BOX MAY BE COLLECTED AS EARLY AS 12 NOON.", "ref": "4312800004"}, "type": "Feature"}
{"geometry": {"coordinates": [-83.603374132, 39.617301629], "type": "Point"}, "id": "L-ZS5-MCK1XhV5CyzZRgnuEcgn8=", "properties": {"@spider": "usps_collection_boxes", "addr:city": "JEFFERSONVILLE", "addr:country": "US", "addr:full": "12403 US HIGHWAY 35 NW", "addr:postcode": "43128", "addr:state": "OH", "brand": "USPS", "collection_times": "Mo-Sa 13:00", "name": "USPS COLLECTION BOX - BLUE BOX", "note": "ON 12/24 AND 12/31, THIS BOX MAY BE COLLECTED AS EARLY AS 12 NOON.", "ref": "4312800005"}, "type": "Feature"}
{"geometry": {"coordinates": [-83.56275, 39.653693], "type": "Point"}, "id": "FHfSL_CTQwyjNCZyKwAAfem47k4=", "properties": {"@spider": "usps_collection_boxes", "addr:city": "JEFFERSONVILLE", "addr:country": "US", "addr:full": "12 S MAIN ST", "addr:postcode": "43128", "addr:state": "OH", "brand": "USPS", "collection_times": "Mo-Fr 13:30; Sa 11:45", "name": "USPS COLLECTION BOX - BLUE BOX", "note": "ON 12/24 AND 12/31, THIS BOX MAY BE COLLECTED AS EARLY AS 12 NOON.", "ref": "4312800006"}, "type": "Feature"}
{"geometry": {"coordinates": [-83.5347619, 39.641019078], "type": "Point"}, "id": "I5bKeJlW76d-VOShOXO0thmrjiY=", "properties": {"@spider": "usps_collection_boxes", "addr:city": "JEFFERSONVILLE", "addr:country": "US", "addr:full": "9735 STATE ROUTE 41", "addr:postcode": "43128", "addr:state": "OH", "brand": "USPS", "collection_times": "Mo-Sa 13:00", "name": "USPS COLLECTION BOX - BLUE BOX", "note": "ON 12/24 AND 12/31, THIS BOX MAY BE COLLECTED AS EARLY AS 12 NOON.", "ref": "4312800007"}, "type": "Feature"}
{"geometry": {"coordinates": [-83.601580343, 39.621489623], "type": "Point"}, "id": "K5pg3dqAxYcLxgAgH47GD-nfbOI=", "properties": {"@spider": "usps_collection_boxes", "addr:city": "JEFFERSONVILLE", "addr:country": "US", "addr:full": "8600 FACTORY SHOPS BLVD", "addr:postcode": "43128", "addr:state": "OH", "brand": "USPS", "collection_times": "Mo-Sa 13:00", "name": "USPS COLLECTION BOX - BLUE BOX", "note": "ON 12/24 AND 12/31, THIS BOX MAY BE COLLECTED AS EARLY AS 12 NOON.", "ref": "4312800008"}, "type": "Feature"}
{"geometry": {"coordinates": [-83.562784, 39.653682], "type": "Point"}, "id": "XK6ZPrJS2vIeF4UUuLKHNlswsQU=", "properties": {"@spider": "usps_collection_boxes", "addr:city": "JEFFERSONVILLE", "addr:country": "US", "addr:full": "12 S MAIN ST", "addr:postcode": "43128", "addr:state": "OH", "brand": "USPS", "collection_times": "Mo-Fr 13:30; Sa 11:45", "name": "USPS COLLECTION BOX - PO LOBBY", "note": "ON 12/24 AND 12/31, THIS BOX MAY BE COLLECTED AS EARLY AS 12 NOON.", "ref": "4312800009"}, "type": "Feature"}
{"geometry": {"coordinates": [-83.612243074, 39.621387154], "type": "Point"}, "id": "oA1Fl3sb8utJrm85HdHYiTiRNnQ=", "properties": {"@spider": "usps_collection_boxes", "addr:city": "JEFFERSONVILLE", "addr:country": "US", "addr:full": "13023 US 35 NW", "addr:postcode": "43128", "addr:state": "OH", "brand": "USPS", "collection_times": "Mo-Sa 13:00", "name": "USPS COLLECTION BOX - BLUE BOX", "note": "ON 12/24 AND 12/31, THIS BOX MAY BE COLLECTED AS EARLY AS 12 NOON.", "ref": "4312800010"}, "type": "Feature"}
{"geometry": {"coordinates": [-83.562770008, 39.653695518], "type": "Point"}, "id": "2QRThyDXWKzJHeIO6FTjOetU11o=", "properties": {"@spider": "usps_collection_boxes", "addr:city": "JEFFERSONVILLE", "addr:country": "US", "addr:full": "12 S MAIN ST", "addr:postcode": "43128", "addr:state": "OH", "brand": "USPS", "collection_times": "Mo-Fr 14:30; Sa 12:00", "name": "USPS COLLECTION BOX - PO LOBBY", "note": "ON 12/24 AND 12/31, THIS BOX MAY BE COLLECTED AS EARLY AS 12 NOON.", "ref": "4312800015"}, "type": "Feature"}
{"geometry": {"coordinates": [-82.738657, 39.472749], "type": "Point"}, "id": "DRGKD2TMO7L0kkC2E1FHKDTp0zE=", "properties": {"@spider": "usps_collection_boxes", "addr:city": "LAURELVILLE", "addr:country": "US", "addr:full": "16088 PIKE ST", "addr:postcode": "43135", "addr:state": "OH", "brand": "USPS", "collection_times": "Mo-Fr 15:45; Sa 11:15", "name": "USPS COLLECTION BOX - BLUE BOX", "note": "ON 12/24 AND 12/31, THIS BOX MAY BE COLLECTED AS EARLY AS 12 NOON.", "ref": "4313500000"}, "type": "Feature"}
{"geometry": {"coordinates": [-82.738716277, 39.472816767], "type": "Point"}, "id": "nvq3yQ6Bw0f-QWgHZUBrQKpLiMQ=", "properties": {"@spider": "usps_collection_boxes", "addr:city": "LAURELVILLE", "addr:country": "US", "addr:full": "16088 PIKE ST", "addr:postcode": "43135", "addr:state": "OH", "brand": "USPS", "collection_times": "Mo-Fr 15:45; Sa 11:15", "name": "USPS COLLECTION BOX - PO LOBBY", "note": "ON 12/24 AND 12/31, THIS BOX MAY BE COLLECTED AS EARLY AS 12 NOON.", "ref": "4313500001"}, "type": "Feature"}
{"geometry": {"coordinates": [-82.7761105, 39.556523], "type": "Point"}, "id": "A-l93I_kCBVXC6dWnBlJeZ3cKYY=", "properties": {"@spider": "usps_collection_boxes", "addr:city": "LAURELVILLE", "addr:country": "US", "addr:full": "25 HARRISON ST", "addr:postcode": "43135", "addr:state": "OH", "brand": "USPS", "collection_times": "Mo-Sa 10:00", "name": "USPS COLLECTION BOX - BLUE BOX", "ref": "4313500002"}, "type": "Feature"}
{"geometry": {"coordinates": [-82.738716277, 39.472816767], "type": "Point"}, "id": "7tcIZkz3aREW-n_oIPbhHknM5Y8=", "properties": {"@spider": "usps_collection_boxes", "addr:city": "LAURELVILLE", "addr:country": "US", "addr:full": "16088 PIKE ST", "addr:postcode": "43135", "addr:state": "OH", "brand": "USPS", "collection_times": "Mo-Fr 16:00; Sa 11:00", "name": "USPS COLLECTION BOX - PO LOBBY", "note": "ON 12/24 AND 12/31, THIS BOX MAY BE COLLECTED AS EARLY AS 12 NOON.", "ref": "4313500009"}, "type": "Feature"}
{"geometry": {"coordinates": [-82.967076124, 39.807907114], "type": "Point"}, "id": "tXAbd0RHmx-Q7Cq1LyVQDvtuLCI=", "properties": {"@spider": "usps_collection_boxes", "addr:city": "LOCKBOURNE", "addr:country": "US", "addr:full": "1 MECHANIC ST", "addr:postcode": "43137", "addr:state": "OH", "brand": "USPS", "collection_times": "Mo-Fr 16:00; Sa 10:30", "name": "USPS COLLECTION BOX - BLUE BOX", "note": "ON 12/24 AND 12/31, THIS BOX MAY BE COLLECTED AS EARLY AS 12 NOON.", "ref": "4313700005"}, "type": "Feature"}
{"geometry": {"coordinates": [-82.967076124, 39.807907114], "type": "Point"}, "id": "Wysi60FQOqs_W9GE8PZRhZK-FUY=", "properties": {"@spider": "usps_collection_boxes", "addr:city": "LOCKBOURNE", "addr:country": "US", "addr:full": "1 MECHANIC ST", "addr:postcode": "43137", "addr:state": "OH", "brand": "USPS", "collection_times": "Mo-Fr 16:00; Sa 10:30", "name": "USPS COLLECTION BOX - PO LOBBY", "note": "ON 12/24 AND 12/31, THIS BOX MAY BE COLLECTED AS EARLY AS 12 NOON.", "ref": "4313700006"}, "type": "Feature"}
{"geometry": {"coordinates": [-82.967076124, 39.807907114], "type": "Point"}, "id": "k0rWLvEVjFGmk7GKNXeAAXkE4vc=", "properties": {"@spider": "usps_collection_boxes", "addr:city": "LOCKBOURNE", "addr:country": "US", "addr:full": "1 MECHANICS ST", "addr:postcode": "43137", "addr:state": "OH", "brand": "USPS", "collection_times": "Mo-Fr 15:45; Sa 10:30", "name": "USPS COLLECTION BOX - PO LOBBY", "note": "ON 12/24 AND 12/31, THIS BOX MAY BE COLLECTED AS EARLY AS 12 NOON.", "ref": "4313700010"}, "type": "Feature"}
{"geometry": {"coordinates": [-83.378929672, 39.952583049], "type": "Point"}, "id": "qY6g6ZO30FQNDNaC8fEATrScEv8=", "properties": {"@spider": "usps_collection_boxes", "addr:city": "LONDON", "addr:country": "US", "addr:full": "940 US HIGHWAY 42 NE", "addr:postcode": "43140", "addr:state": "OH", "brand": "USPS", "collection_times": "Mo-Sa 10:00", "name": "USPS COLLECTION BOX - BLUE BOX", "ref": "4314000004"}, "type": "Feature"}
{"geometry": {"coordinates": [-83.497782693, 39.948273509], "type": "Point"}, "id": "wMkVXWoEtBs-lVXpuiVQ-PAFb60=", "properties": {"@spider": "usps_collection_boxes", "addr:city": "LONDON", "addr:country": "US", "addr:full": "3180 OLD COLUMBUS RD", "addr:postcode": "43140", "addr:state": "OH", "brand": "USPS", "collection_times": "Mo-Sa 11:00", "name": "USPS COLLECTION BOX - BLUE BOX", "ref": "4314000006"}, "type": "Feature"}
{"geometry": {"coordinates": [-83.448457272, 39.88634744], "type": "Point"}, "id": "gULy52Z-7tUT8s5h8jSPAkMdnDU=", "properties": {"@spider": "usps_collection_boxes", "addr:city": "LONDON", "addr:country": "US", "addr:full": "2 S MAIN ST", "addr:postcode": "43140", "addr:state": "OH", "brand": "USPS", "collection_times": "Mo-Sa 09:00", "name": "USPS COLLECTION BOX - BLUE BOX", "ref": "4314000007"}, "type": "Feature"}
{"geometry": {"coordinates": [-83.446731478, 39.884770854], "type": "Point"}, "id": "_hqZdcbCAEZRHGfLv7IVV1ZkPNs=", "properties": {"@spider": "usps_collection_boxes", "addr:city": "LONDON", "addr:country": "US", "addr:full": "100 S MAIN ST", "addr:postcode": "43140", "addr:state": "OH", "brand": "USPS", "collection_times": "Mo-Sa 09:00", "name": "USPS COLLECTION BOX - BLUE BOX", "ref": "4314000010"}, "type": "Feature"}
{"geometry": {"coordinates": [-83.45503503, 39.891947532], "type": "Point"}, "id": "rX97h1NSHkDs_fdQXhfmUByxrxo=", "properties": {"@spider": "usps_collection_boxes", "addr:city": "LONDON", "addr:country": "US", "addr:full": "210 N MAIN ST", "addr:postcode": "43140", "addr:state": "OH", "brand": "USPS", "collection_times": "Mo-Sa 09:00", "name": "USPS COLLECTION BOX - BLUE BOX", "ref": "4314000011"}, "type": "Feature"}
{"geometry": {"coordinates": [-83.449007, 39.885182], "type": "Point"}, "id": "Ut5xL6Vi3OalORNGMwPtgtFVmYM=", "properties": {"@spider": "usps_collection_boxes", "addr:city": "LONDON", "addr:country": "US", "addr:full": "25 S OAK ST", "addr:postcode": "43140", "addr:state": "OH", "brand": "USPS", "collection_times": "Mo-Fr 16:30; Sa 15:30", "name": "USPS COLLECTION BOX - BLUE BOX", "note": "ON 12/24 AND 12/31, THIS BOX MAY BE COLLECTED AS EARLY AS 12 NOON.", "ref": "4314000016"}, "type": "Feature"}
{"geometry": {"coordinates": [-83.449343, 39.884861], "type": "Point"}, "id": "xPdio5VQbJbvAf16oNKF6cnznGw=", "properties": {"@spider": "usps_collection_boxes", "addr:city": "LONDON", "addr:country": "US", "addr:full": "25 S OAK ST", "addr:postcode": "43140", "addr:state": "OH", "brand": "USPS", "collection_times": "Mo-Fr 16:30; Sa 15:30", "name": "USPS COLLECTION BOX - PO LOBBY", "note": "ON 12/24 AND 12/31, THIS BOX MAY BE COLLECTED AS EARLY AS 12 NOON.", "ref": "4314000017"}, "type": "Feature"}
{"geometry": {"coordinates": [-83.448950751, 39.885131599], "type": "Point"}, "id": "5CMygTUVcMiqm3EEK_yzfbMKA9g=", "properties": {"@spider": "usps_collection_boxes", "addr:city": "LONDON", "addr:country": "US", "addr:full": "25 S OAK ST", "addr:postcode": "43140", "addr:state": "OH", "brand": "USPS", "collection_times": "Mo-Fr 16:30; Sa 12:00", "name": "USPS COLLECTION BOX - PO LOBBY", "note": "ON 12/24 AND 12/31, THIS BOX MAY BE COLLECTED AS EARLY AS 12 NOON.", "ref": "4314000022"}, "type": "Feature"}
{"geometry": {"coordinates": [-83.588455, 39.591275], "type": "Point"}, "id": "_6Y0dGJttTrPQPdQZhHZdlUbUbA=", "properties": {"@spider": "usps_collection_boxes", "addr:city": "MILLEDGEVILLE", "addr:country": "US", "addr:full": "8118 CHURCH ST", "addr:postcode": "43142", "addr:state": "OH", "brand": "USPS", "collection_times": "Mo-Fr 15:45; Sa 09:45", "name": "USPS COLLECTION BOX - BLUE BOX", "note": "ON 12/24 AND 12/31, THIS BOX MAY BE COLLECTED AS EARLY AS 12 NOON.", "ref": "4314200000"}, "type": "Feature"}
{"geometry": {"coordinates": [-83.588478, 39.591183], "type": "Point"}, "id": "U1Kfl35irpg3t3aHQdfCg-rYzbU=", "properties": {"@spider": "usps_collection_boxes", "addr:city": "MILLEDGEVILLE", "addr:country": "US", "addr:full": "8118 CHURCH ST", "addr:postcode": "43142", "addr:state": "OH", "brand": "USPS", "collection_times": "Mo-Fr 15:45; Sa 09:45", "name": "USPS COLLECTION BOX - PO LOBBY", "note": "ON 12/24 AND 12/31, THIS BOX MAY BE COLLECTED AS EARLY AS 12 NOON.", "ref": "4314200001"}, "type": "Feature"}
{"geometry": {"coordinates": [-83.588455773, 39.591280351], "type": "Point"}, "id": "y63LgtNpCaPdX8nJRECZOic2ywI=", "properties": {"@spider": "usps_collection_boxes", "addr:city": "MILLEDGEVILLE", "addr:country": "US", "addr:full": "8118 CHURCH ST", "addr:postcode": "43142", "addr:state": "OH", "brand": "USPS", "collection_times": "Mo-Fr 16:00; Sa 10:00", "name": "USPS COLLECTION BOX - PO LOBBY", "note": "ON 12/24 AND 12/31, THIS BOX MAY BE COLLECTED AS EARLY AS 12 NOON.", "ref": "4314200003"}, "type": "Feature"}
{"geometry": {"coordinates": [-83.268478501, 39.7141885], "type": "Point"}, "id": "J2oXFBCiaxj-E8slQmVAYlw0JhE=", "properties": {"@spider": "usps_collection_boxes", "addr:city": "MOUNT STERLING", "addr:country": "US", "addr:full": "299 YANKEETOWN ST", "addr:postcode": "43143", "addr:state": "OH", "brand": "USPS", "collection_times": "Mo-Sa 10:30", "name": "USPS COLLECTION BOX - BLUE BOX", "ref": "4314300001"}, "type": "Feature"}
{"geometry": {"coordinates": [-83.266810905, 39.720663409], "type": "Point"}, "id": "_gBLKC81AxQz8tz6lYOf12af7U8=", "properties": {"@spider": "usps_collection_boxes", "addr:city": "MOUNT STERLING", "addr:country": "US", "addr:full": "47 N LONDON ST", "addr:postcode": "43143", "addr:state": "OH", "brand": "USPS", "collection_times": "Mo-Fr 11:00; Sa 10:30", "name": "USPS COLLECTION BOX - BLUE BOX", "ref": "4314300002"}, "type": "Feature"}
{"geometry": {"coordinates": [-83.265818, 39.718812], "type": "Point"}, "id": "xeDfXyXnN7Hu2D3XdTxEqKbG-AI=", "properties": {"@spider": "usps_collection_boxes", "addr:city": "MOUNT STERLING", "addr:country": "US", "addr:full": "34 W COLUMBUS ST", "addr:postcode": "43143", "addr:state": "OH", "brand": "USPS", "collection_times": "Mo-Fr 16:30; Sa 10:30", "name": "USPS COLLECTION BOX - BLUE BOX", "note": "ON 12/24 AND 12/31, THIS BOX MAY BE COLLECTED AS EARLY AS 12 NOON.", "ref": "4314300006"}, "type": "Feature"}
{"geometry": {"coordinates": [-83.265818, 39.718812], "type": "Point"}, "id": "GonqNIp98Y_gG_S18tdwGBen6Hc=", "properties": {"@spider": "usps_collection_boxes", "addr:city": "MOUNT STERLING", "addr:country": "US", "addr:full": "34 W COLUMBUS ST", "addr:postcode": "43143", "addr:state": "OH", "brand": "USPS", "collection_times": "Mo-Fr 16:30; Sa 10:30", "name": "USPS COLLECTION BOX - PO LOBBY", "note": "ON 12/24 AND 12/31, THIS BOX MAY BE COLLECTED AS EARLY AS 12 NOON.", "ref": "4314300007"}, "type": "Feature"}
{"geometry": {"coordinates": [-83.2659479, 39.718759421], "type": "Point"}, "id": "7iSHIRHzlr8pueCtbm_YRTIcbkg=", "properties": {"@spider": "usps_collection_boxes", "addr:city": "MOUNT STERLING", "addr:country": "US", "addr:full": "34 W COLUMBUS ST", "addr:postcode": "43143", "addr:state": "OH", "brand": "USPS", "collection_times": "Mo-Fr 16:30; Sa 10:30", "name": "USPS COLLECTION BOX - PO LOBBY", "note": "ON 12/24 AND 12/31, THIS BOX MAY BE COLLECTED AS EARLY AS 12 NOON.", "ref": "4314300013"}, "type": "Feature"}
{"geometry": {"coordinates": [-83.257181, 39.554499], "type": "Point"}, "id": "Kk5Ij_Czx6aMFZ_HYeKqjEteoj4=", "properties": {"@spider": "usps_collection_boxes", "addr:city": "NEW HOLLAND", "addr:country": "US", "addr:full": "100 N MAIN ST", "addr:postcode": "43145", "addr:state": "OH", "brand": "USPS", "collection_times": "Mo-Fr 15:45; Sa 10:30", "name": "USPS COLLECTION BOX - BLUE BOX", "note": "ON 12/24 AND 12/31, THIS BOX MAY BE COLLECTED AS EARLY AS 12 NOON.", "ref": "4314500000"}, "type": "Feature"}
{"geometry": {"coordinates": [-83.257181, 39.554499], "type": "Point"}, "id": "jGIn9P0uvt_wYXT1ok_huBO-rQE=", "properties": {"@spider": "usps_collection_boxes", "addr:city": "NEW HOLLAND", "addr:country": "US", "addr:full": "100 N MAIN ST", "addr:postcode": "43145", "addr:state": "OH", "brand": "USPS", "collection_times": "Mo-Fr 15:45; Sa 10:30", "name": "USPS COLLECTION BOX - PO LOBBY", "note": "ON 12/24 AND 12/31, THIS BOX MAY BE COLLECTED AS EARLY AS 12 NOON.", "ref": "4314500001"}, "type": "Feature"}
{"geometry": {"coordinates": [-83.257092174, 39.554380634], "type": "Point"}, "id": "LiITxgXY7WbkULdndwBtrrHvCrg=", "properties": {"@spider": "usps_collection_boxes", "addr:city": "NEW HOLLAND", "addr:country": "US", "addr:full": "100 N MAIN ST", "addr:postcode": "43145", "addr:state": "OH", "brand": "USPS", "collection_times": "Mo-Fr 15:30; Sa 12:30", "name": "USPS COLLECTION BOX - PO LOBBY", "note": "ON 12/24 AND 12/31, THIS BOX MAY BE COLLECTED AS EARLY AS 12 NOON.", "ref": "4314500005"}, "type": "Feature"}
{"geometry": {"coordinates": [-83.150351959, 39.80555077], "type": "Point"}, "id": "85iP2u1GHeDoBGJoh8kgx-moALM=", "properties": {"@spider": "usps_collection_boxes", "addr:city": "ORIENT", "addr:country": "US", "addr:full": "7820 STAHL RD", "addr:postcode": "43146", "addr:state": "OH", "brand": "USPS", "collection_times": "Mo-Fr 15:45; Sa 10:45", "name": "USPS COLLECTION BOX - BLUE BOX", "note": "ON 12/24 AND 12/31, THIS BOX MAY BE COLLECTED AS EARLY AS 12 NOON.", "ref": "4314600000"}, "type": "Feature"}
{"geometry": {"coordinates": [-83.150351959, 39.80555077], "type": "Point"}, "id": "L06XJXcaKhF6eJzwpseB_G20i2M=", "properties": {"@spider": "usps_collection_boxes", "addr:city": "ORIENT", "addr:country": "US", "addr:full": "7820 STAHL RD", "addr:postcode": "43146", "addr:state": "OH", "brand": "USPS", "collection_times": "Mo-Fr 15:45; Sa 10:45", "name": "USPS COLLECTION BOX - PO LOBBY", "note": "ON 12/24 AND 12/31, THIS BOX MAY BE COLLECTED AS EARLY AS 12 NOON.", "ref": "4314600001"}, "type": "Feature"}
{"geometry": {"coordinates": [-83.212768588, 39.774677815], "type": "Point"}, "id": "qlHFxSLBHf2IIH9sQZlXZPJzq48=", "properties": {"@spider": "usps_collection_boxes", "addr:city": "ORIENT", "addr:country": "US", "addr:full": "11500 US HIGHWAY 62", "addr:postcode": "43146", "addr:state": "OH", "brand": "USPS", "collection_times": "Mo-Sa 11:00", "name": "USPS COLLECTION BOX - BLUE BOX", "ref": "4314600002"}, "type": "Feature"}
{"geometry": {"coordinates": [-83.150351959, 39.80555077], "type": "Point"}, "id": "soWQPQTSd3tEUuhL3YbixZYWCxs=", "properties": {"@spider": "usps_collection_boxes", "addr:city": "ORIENT", "addr:country": "US", "addr:full": "7820 STAHL RD", "addr:postcode": "43146", "addr:state": "OH", "brand": "USPS", "collection_times": "Mo-Fr 16:00; Sa 11:00", "name": "USPS COLLECTION BOX - PO LOBBY", "note": "ON 12/24 AND 12/31, THIS BOX MAY BE COLLECTED AS EARLY AS 12 NOON.", "ref": "4314600009"}, "type": "Feature"}
{"geometry": {"coordinates": [-83.477814, 39.733357], "type": "Point"}, "id": "PhQrUTRNeeXPeTj2Zq0eKJuhRfI=", "properties": {"@spider": "usps_collection_boxes", "addr:city": "SEDALIA", "addr:country": "US", "addr:full": "61 FEDERAL ST SW", "addr:postcode": "43151", "addr:state": "OH", "brand": "USPS", "collection_times": "Mo-Fr 11:30; Sa 09:45", "name": "USPS COLLECTION BOX - BLUE BOX", "ref": "4315100000"}, "type": "Feature"}
{"geometry": {"coordinates": [-83.477853, 39.733384], "type": "Point"}, "id": "0DUt8adtWLHaaPq7DEXjXVgvxzY=", "properties": {"@spider": "usps_collection_boxes", "addr:city": "SEDALIA", "addr:country": "US", "addr:full": "61 FEDERAL ST SW", "addr:postcode": "43151", "addr:state": "OH", "brand": "USPS", "collection_times": "Mo-Fr 11:30; Sa 09:45", "name": "USPS COLLECTION BOX - PO LOBBY", "ref": "4315100001"}, "type": "Feature"}
{"geometry": {"coordinates": [-83.477721526, 39.733352467], "type": "Point"}, "id": "qP-b_sTli3jPlCl4WvnD3Yq4xNA=", "properties": {"@spider": "usps_collection_boxes", "addr:city": "SEDALIA", "addr:country": "US", "addr:full": "61 FEDERAL ST SW", "addr:postcode": "43151", "addr:state": "OH", "brand": "USPS", "collection_times": "Mo-Fr 12:00; Sa 10:00", "name": "USPS COLLECTION BOX - PO LOBBY", "ref": "4315100003"}, "type": "Feature"}
{"geometry": {"coordinates": [-83.612067, 39.737461], "type": "Point"}, "id": "7IlcFNUgXZjBdxu0RHR48NW86zM=", "properties": {"@spider": "usps_collection_boxes", "addr:city": "SOUTH SOLON", "addr:country": "US", "addr:full": "7230 E MAIN ST", "addr:postcode": "43153", "addr:state": "OH", "brand": "USPS", "collection_times": "Mo-Fr 11:30; Sa 09:45", "name": "USPS COLLECTION BOX - BLUE BOX", "ref": "4315300000"}, "type": "Feature"}
{"geometry": {"coordinates": [-83.612023, 39.737432], "type": "Point"}, "id": "7Q21PZ8DoWdQMtXzXSG2EeP18Ek=", "properties": {"@spider": "usps_collection_boxes", "addr:city": "SOUTH SOLON", "addr:country": "US", "addr:full": "7230 E MAIN ST", "addr:postcode": "43153", "addr:state": "OH", "brand": "USPS", "collection_times": "Mo-Fr 11:30; Sa 09:45", "name": "USPS COLLECTION BOX - PO LOBBY", "ref": "4315300001"}, "type": "Feature"}
{"geometry": {"coordinates": [-83.612549169, 39.737475512], "type": "Point"}, "id": "RZ8XgJbOWbzSh_zbVYrNv-yKnIk=", "properties": {"@spider": "usps_collection_boxes", "addr:city": "SOUTH SOLON", "addr:country": "US", "addr:full": "7230 E MAIN ST", "addr:postcode": "43153", "addr:state": "OH", "brand": "USPS", "collection_times": "Mo-Fr 16:00; Sa 13:00", "name": "USPS COLLECTION BOX - PO LOBBY", "note": "ON 12/24 AND 12/31, THIS BOX MAY BE COLLECTED AS EARLY AS 12 NOON.", "ref": "4315300004"}, "type": "Feature"}
{"geometry": {"coordinates": [-82.831022, 39.605154], "type": "Point"}, "id": "dndclT1S5vP2bbxX533aCSqHlnI=", "properties": {"@spider": "usps_collection_boxes", "addr:city": "STOUTSVILLE", "addr:country": "US", "addr:full": "11438 MAIN ST", "addr:postcode": "43154", "addr:state": "OH", "brand": "USPS", "collection_times": "Mo-Fr 15:45; Sa 10:15", "name": "USPS COLLECTION BOX - BLUE BOX", "note": "ON 12/24 AND 12/31, THIS BOX MAY BE COLLECTED AS EARLY AS 12 NOON.", "ref": "4315400000"}, "type": "Feature"}
{"geometry": {"coordinates": [-82.831093, 39.605131], "type": "Point"}, "id": "WljGxV1whZj4ufUbSvkvOcjA7Lw=", "properties": {"@spider": "usps_collection_boxes", "addr:city": "STOUTSVILLE", "addr:country": "US", "addr:full": "11438 MAIN ST", "addr:postcode": "43154", "addr:state": "OH", "brand": "USPS", "collection_times": "Mo-Fr 15:45; Sa 10:15", "name": "USPS COLLECTION BOX - PO LOBBY", "note": "ON 12/24 AND 12/31, THIS BOX MAY BE COLLECTED AS EARLY AS 12 NOON.", "ref": "4315400001"}, "type": "Feature"}
{"geometry": {"coordinates": [-82.831179798, 39.605155438], "type": "Point"}, "id": "fImFETwjKlA71q0wZHVqplzw0F8=", "properties": {"@spider": "usps_collection_boxes", "addr:city": "STOUTSVILLE", "addr:country": "US", "addr:full": "11438 MAIN ST", "addr:postcode": "43154", "addr:state": "OH", "brand": "USPS", "collection_times": "Mo-Fr 16:00; Sa 12:00", "name": "USPS COLLECTION BOX - PO LOBBY", "note": "ON 12/24 AND 12/31, THIS BOX MAY BE COLLECTED AS EARLY AS 12 NOON.", "ref": "4315400005"}, "type": "Feature"}
{"geometry": {"coordinates": [-83.439321195, 39.535211066], "type": "Point"}, "id": "2uR59fc0PL7DZGIrkOVBtWLv5Gk=", "properties": {"@spider": "usps_collection_boxes", "addr:city": "WSHNGTN CT HS", "addr:country": "US", "addr:full": "133 S MAIN ST", "addr:postcode": "43160", "addr:state": "OH", "brand": "USPS", "collection_times": "Mo-Sa 12:00", "name": "USPS COLLECTION BOX - BLUE BOX", "ref": "4316000004"}, "type": "Feature"}
{"geometry": {"coordinates": [-83.435258706, 39.538866927], "type": "Point"}, "id": "hjh6ddR_6EsTP7JYcTHEPAir-dI=", "properties": {"@spider": "usps_collection_boxes", "addr:city": "WSHNGTN CT HS", "addr:country": "US", "addr:full": "40 WASHINGTON SQ", "addr:postcode": "43160", "addr:state": "OH", "brand": "USPS", "collection_times": "Mo-Sa 11:00", "name": "USPS COLLECTION BOX - BLUE BOX", "ref": "4316000020"}, "type": "Feature"}
{"geometry": {"coordinates": [-83.441249, 39.536435], "type": "Point"}, "id": "CpJUXHEE43VBeOgjpw_1DL7S6fE=", "properties": {"@spider": "usps_collection_boxes", "addr:city": "WSHNGTN CT HS", "addr:country": "US", "addr:full": "129 W MARKET ST", "addr:postcode": "43160", "addr:state": "OH", "brand": "USPS", "collection_times": "Mo-Fr 16:45; Sa 15:45", "name": "USPS COLLECTION BOX - BLUE BOX", "note": "ON 12/24 AND 12/31, THIS BOX MAY BE COLLECTED AS EARLY AS 12 NOON.", "ref": "4316000023"}, "type": "Feature"}
{"geometry": {"coordinates": [-83.43956928, 39.535998451], "type": "Point"}, "id": "VX19URhlh14FWT8w3vdKe13LeEk=", "properties": {"@spider": "usps_collection_boxes", "addr:city": "WSHNGTN CT HS", "addr:country": "US", "addr:full": "110 E COURT ST", "addr:postcode": "43160", "addr:state": "OH", "brand": "USPS", "collection_times": "Mo-Sa 12:00", "name": "USPS COLLECTION BOX - BLUE BOX", "ref": "4316000027"}, "type": "Feature"}
{"geometry": {"coordinates": [-83.441249, 39.536435], "type": "Point"}, "id": "tgZSVI463rUaFumJKuEWCrG6E48=", "properties": {"@spider": "usps_collection_boxes", "addr:city": "WSHNGTN CT HS", "addr:country": "US", "addr:full": "129 W MARKET ST", "addr:postcode": "43160", "addr:state": "OH", "brand": "USPS", "collection_times": "Mo-Fr 16:45; Sa 15:45", "name": "USPS COLLECTION BOX - PO LOBBY", "note": "ON 12/24 AND 12/31, THIS BOX MAY BE COLLECTED AS EARLY AS 12 NOON.", "ref": "4316000030"}, "type": "Feature"}
{"geometry": {"coordinates": [-83.438937192, 39.536421326], "type": "Point"}, "id": "Li79z7TDAvf_CeVd80tNei9gnjY=", "properties": {"@spider": "usps_collection_boxes", "addr:city": "WSHNGTN CT HS", "addr:country": "US", "addr:full": "150 E COURT ST", "addr:postcode": "43160", "addr:state": "OH", "brand": "USPS", "collection_times": "Mo-Fr 14:30; Sa 14:00", "name": "USPS COLLECTION BOX - BLUE BOX", "note": "ON 12/24 AND 12/31, THIS BOX MAY BE COLLECTED AS EARLY AS 12 NOON.", "ref": "4316000031"}, "type": "Feature"}
{"geometry": {"coordinates": [-83.451824265, 39.528462336], "type": "Point"}, "id": "eJW5zWeo0Uer4d1e5nIxjXqKzqI=", "properties": {"@spider": "usps_collection_boxes", "addr:city": "WSHNGTN CT HS", "addr:country": "US", "addr:full": "1397 LEESBURG AVE", "addr:postcode": "43160", "addr:state": "OH", "brand": "USPS", "collection_times": "Mo-Sa 09:00", "name": "USPS COLLECTION BOX - BLUE BOX", "ref": "4316000032"}, "type": "Feature"}
{"geometry": {"coordinates": [-83.441814593, 39.53601259], "type": "Point"}, "id": "u35-P95NksLepP3YfxFyIeIJsuQ=", "properties": {"@spider": "usps_collection_boxes", "addr:city": "WSHNGTN CT HS", "addr:country": "US", "addr:full": "129 W MARKET ST", "addr:postcode": "43160", "addr:state": "OH", "brand": "USPS", "collection_times": "Mo-Fr 16:30; Sa 12:00", "name": "USPS COLLECTION BOX - PO LOBBY", "note": "ON 12/24 AND 12/31, THIS BOX MAY BE COLLECTED AS EARLY AS 12 NOON.", "ref": "4316000035"}, "type": "Feature"}
{"geometry": {"coordinates": [-83.265034467, 39.944914837], "type": "Point"}, "id": "UZZcK_AiGRXWhkLxJ2pl9g4kOXE=", "properties": {"@spider": "usps_collection_boxes", "addr:city": "WEST JEFFERSON", "addr:country": "US", "addr:full": "139 E MAIN ST", "addr:postcode": "43162", "addr:state": "OH", "brand": "USPS", "collection_times": "Mo-Sa 09:00", "name": "USPS COLLECTION BOX - BLUE BOX", "ref": "4316200003"}, "type": "Feature"}
{"geometry": {"coordinates": [-83.27569, 39.944404], "type": "Point"}, "id": "l0xITUDyMcOclUACeWlYFIwbJGU=", "properties": {"@spider": "usps_collection_boxes", "addr:city": "WEST JEFFERSON", "addr:country": "US", "addr:full": "249 W MAIN ST", "addr:postcode": "43162", "addr:state": "OH", "brand": "USPS", "collection_times": "Mo-Fr 16:00; Sa 11:45", "name": "USPS COLLECTION BOX - BLUE BOX", "note": "ON 12/24 AND 12/31, THIS BOX MAY BE COLLECTED AS EARLY AS 12 NOON.", "ref": "4316200010"}, "type": "Feature"}
{"geometry": {"coordinates": [-83.275809, 39.944424], "type": "Point"}, "id": "pU5MRqcRCAuKGgmU69XwFF2H2lQ=", "properties": {"@spider": "usps_collection_boxes", "addr:city": "WEST JEFFERSON", "addr:country": "US", "addr:full": "249 W MAIN ST", "addr:postcode": "43162", "addr:state": "OH", "brand": "USPS", "collection_times": "Mo-Fr 16:00; Sa 11:45", "name": "USPS COLLECTION BOX - PO LOBBY", "note": "ON 12/24 AND 12/31, THIS BOX MAY BE COLLECTED AS EARLY AS 12 NOON.", "ref": "4316200011"}, "type": "Feature"}
{"geometry": {"coordinates": [-83.275552415, 39.944407528], "type": "Point"}, "id": "OnxSoqwlQi_Qo_mkir6PnPKYs5w=", "properties": {"@spider": "usps_collection_boxes", "addr:city": "WEST JEFFERSON", "addr:country": "US", "addr:full": "249 W MAIN ST", "addr:postcode": "43162", "addr:state": "OH", "brand": "USPS", "collection_times": "Mo-Fr 16:15; Sa 12:00", "name": "USPS COLLECTION BOX - PO LOBBY", "note": "ON 12/24 AND 12/31, THIS BOX MAY BE COLLECTED AS EARLY AS 12 NOON.", "ref": "4316200018"}, "type": "Feature"}
{"geometry": {"coordinates": [-83.120229, 39.584795], "type": "Point"}, "id": "T3cgy7jN_OCMqDEjie40bLjcqSg=", "properties": {"@spider": "usps_collection_boxes", "addr:city": "WILLIAMSPORT", "addr:country": "US", "addr:full": "109 S WATER ST", "addr:postcode": "43164", "addr:state": "OH", "brand": "USPS", "collection_times": "Mo-Fr 16:00; Sa 10:15", "name": "USPS COLLECTION BOX - BLUE BOX", "note": "ON 12/24 AND 12/31, THIS BOX MAY BE COLLECTED AS EARLY AS 12 NOON.", "ref": "4316400000"}, "type": "Feature"}
{"geometry": {"coordinates": [-83.120194, 39.584788], "type": "Point"}, "id": "w3kHrg3sNuIPf3gVKiOigD1TSUA=", "properties": {"@spider": "usps_collection_boxes", "addr:city": "WILLIAMSPORT", "addr:country": "US", "addr:full": "109 S WATER ST", "addr:postcode": "43164", "addr:state": "OH", "brand": "USPS", "collection_times": "Mo-Fr 16:00; Sa 10:15", "name": "USPS COLLECTION BOX - PO LOBBY", "note": "ON 12/24 AND 12/31, THIS BOX MAY BE COLLECTED AS EARLY AS 12 NOON.", "ref": "4316400001"}, "type": "Feature"}
{"geometry": {"coordinates": [-83.120236689, 39.584862168], "type": "Point"}, "id": "e-WaE6_HsvdxdWJVxQ2Rev1wjTk=", "properties": {"@spider": "usps_collection_boxes", "addr:city": "WILLIAMSPORT", "addr:country": "US", "addr:full": "109 S WATER ST", "addr:postcode": "43164", "addr:state": "OH", "brand": "USPS", "collection_times": "Mo-Fr 16:00; Sa 11:00", "name": "USPS COLLECTION BOX - PO LOBBY", "note": "ON 12/24 AND 12/31, THIS BOX MAY BE COLLECTED AS EARLY AS 12 NOON.", "ref": "4316400005"}, "type": "Feature"}
