{"geometry": {"coordinates": [-83.137734246, 39.951862498], "type": "Point"}, "id": "Lgsh87qq6bWhpVN64sWUCqyy5ZI=", "properties": {"@spider": "usps_collection_boxes", "addr:city": "COLUMBUS", "addr:country": "US", "addr:full": "5100 W BROAD ST", "addr:postcode": "43228", "addr:state": "OH", "brand": "USPS", "collection_times": "Mo-Fr 11:00", "name": "USPS COLLECTION BOX - BLUE BOX", "ref": "4322800006"}, "type": "Feature"}
{"geometry": {"coordinates": [-83.132415618, 39.961534493], "type": "Point"}, "id": "2s4WS2F5gstUoRliS0AZ7LHkmRg=", "properties": {"@spider": "usps_collection_boxes", "addr:city": "COLUMBUS", "addr:country": "US", "addr:full": "4880 HAMDEN WAY", "addr:postcode": "43228", "addr:state": "OH", "brand": "USPS", "collection_times": "Mo-Fr 09:00", "name": "USPS COLLECTION BOX - BLUE BOX", "ref": "4322800011"}, "type": "Feature"}
{"geometry": {"coordinates": [-83.130815441, 39.93939418], "type": "Point"}, "id": "Fr-aKVd91QjKsPOD1REUImtYW0Q=", "properties": {"@spider": "usps_collection_boxes", "addr:city": "COLUMBUS", "addr:country": "US", "addr:full": "4926 CHERRY CREEK PKWY N", "addr:postcode": "43228", "addr:state": "OH", "brand": "USPS", "collection_times": "Mo-Fr 11:00", "name": "USPS COLLECTION BOX - BLUE BOX", "ref": "4322800013"}, "type": "Feature"}
{"geometry": {"coordinates": [-83.140462984, 39.939834175], "type": "Point"}, "id": "DZKyUVAzP-zNWFIjqjGScSosiTA=", "properties": {"@spider": "usps_collection_boxes", "addr:city": "COLUMBUS", "addr:country": "US", "addr:full": "5269 BRANDENBUSH CT", "addr:postcode": "43228", "addr:state": "OH", "brand": "USPS", "collection_times": "Mo-Fr 11:00", "name": "USPS COLLECTION BOX - BLUE BOX", "ref": "4322800015"}, "type": "Feature"}
{"geometry": {"coordinates": [-83.143480888, 39.930963885], "type": "Point"}, "id": "KJowFo_6L3-u3f6wgbmBQsRjvYM=", "properties": {"@spider": "usps_collection_boxes", "addr:city": "COLUMBUS", "addr:country": "US", "addr:full": "5499 HALL RD", "addr:postcode": "43228", "addr:state": "OH", "brand": "USPS", "collection_times": "Mo-Fr 11:00", "name": "USPS COLLECTION BOX - BLUE BOX", "ref": "4322800018"}, "type": "Feature"}
{"geometry": {"coordinates": [-83.128365429, 39.952306481], "type": "Point"}, "id": "cieve4tcsjgKtdjg_B_FeEdArso=", "properties": {"@spider": "usps_collection_boxes", "addr:city": "COLUMBUS", "addr:country": "US", "addr:full": "4770 W BROAD ST", "addr:postcode": "43228", "addr:state": "OH", "brand": "USPS", "collection_times": "Mo-Fr 11:00", "name": "USPS COLLECTION BOX - BLUE BOX", "ref": "4322800041"}, "type": "Feature"}
{"geometry": {"coordinates": [-83.150703121, 39.982769085], "type": "Point"}, "id": "KbcHtQrrblwLzISkuTCIq0y3Myk=", "properties": {"@spider": "usps_collection_boxes", "addr:city": "COLUMBUS", "addr:country": "US", "addr:full": "1539 HILLIARD ROME RD", "addr:postcode": "43228", "addr:state": "OH", "brand": "USPS", "collection_times": "Mo-Fr 15:00", "name": "USPS COLLECTION BOX - BLUE BOX", "note": "ON 12/24 AND 12/31, THIS BOX MAY BE COLLECTED AS EARLY AS 12 NOON.", "ref": "4322800053"}, "type": "Feature"}
{"geometry": {"coordinates": [-83.11938908, 39.920756739], "type": "Point"}, "id": "4Nl9yBpFpeumfPXfXkOXCGoRzGA=", "properties": {"@spider": "usps_collection_boxes", "addr:city": "COLUMBUS", "addr:country": "US", "addr:full": "1621 GEORGESVILLE SQUARE DR", "addr:postcode": "43228", "addr:state": "OH", "brand": "USPS", "collection_times": "Mo-Fr 09:00", "name": "USPS COLLECTION BOX - BLUE BOX", "ref": "4322800055"}, "type": "Feature"}
{"geometry": {"coordinates": [-83.119322639, 39.920704772], "type": "Point"}, "id": "tXnHTIW95mrmXHj0FHIrbROKGiQ=", "properties": {"@spider": "usps_collection_boxes", "addr:city": "COLUMBUS", "addr:country": "US", "addr:full": "1625 GEORGESVILLE SQUARE DR", "addr:postcode": "43228", "addr:state": "OH", "brand": "USPS", "collection_times": "Mo-Fr 09:00", "name": "USPS COLLECTION BOX - BLUE BOX", "ref": "4322800056"}, "type": "Feature"}
