{"dataset_attributes": {"@spider": "usps_collection_boxes"}, "geometry": {"coordinates": [-83.1201807, 40.601016], "type": "Point"}, "id": "Y7KPy864jVizvu6M0RWFvAOBoxI=", "properties": {"@spider": "usps_collection_boxes", "addr:city": "MARION", "addr:country": "US", "addr:full": "725 RICHMOND AVE", "addr:postcode": "43302", "addr:state": "OH", "amenity": "post_box", "brand": "United States Postal Service", "brand:wikidata": "Q668687", "collection_times": "Mo-Sa 10:00", "name": "USPS COLLECTION BOX - BLUE BOX", "nsi_id": "unitedstatespostalservice-a77078", "operator": "United States Postal Service", "operator:short": "USPS", "operator:type": "public", "operator:wikidata": "Q668687", "ref": "4330200019"}, "type": "Feature"}
{"dataset_attributes": {"@spider": "usps_collection_boxes"}, "geometry": {"coordinates": [-83.1285105, 40.571305], "type": "Point"}, "id": "qQbzG6wx3G4WEiO0aBj12trJU90=", "properties": {"@spider": "usps_collection_boxes", "addr:city": "MARION", "addr:country": "US", "addr:full": "1000 MCKINLEY PARK DR", "addr:postcode": "43302", "addr:state": "OH", "amenity": "post_box", "brand": "United States Postal Service", "brand:wikidata": "Q668687", "collection_times": "Mo-Sa 10:00", "name": "USPS COLLECTION BOX - BLUE BOX", "nsi_id": "unitedstatespostalservice-a77078", "operator": "United States Postal Service", "operator:short": "USPS", "operator:type": "public", "operator:wikidata": "Q668687", "ref": "4330200021"}, "type": "Feature"}
{"dataset_attributes": {"@spider": "usps_collection_boxes"}, "geometry": {"coordinates": [-83.1247449, 40.570516], "type": "Point"}, "id": "qf-DoR3sqaGRwlg7Oha8S2hmYV8=", "properties": {"@spider": "usps_collection_boxes", "addr:city": "MARION", "addr:country": "US", "addr:full": "101 EXECUTIVE DR", "addr:postcode": "43302", "addr:state": "OH", "amenity": "post_box", "brand": "United States Postal Service", "brand:wikidata": "Q668687", "collection_times": "Mo-Sa 12:00", "name": "USPS COLLECTION BOX - BLUE BOX", "nsi_id": "unitedstatespostalservice-a77078", "operator": "United States Postal Service", "operator:short": "USPS", "operator:type": "public", "operator:wikidata": "Q668687", "ref": "4330200023"}, "type": "Feature"}
{"dataset_attributes": {"@spider": "usps_collection_boxes"}, "geometry": {"coordinates": [-83.1147005, 40.5891], "type": "Point"}, "id": "36LYNTZfvz0lAlHSHecjk1cIR3E=", "properties": {"@spider": "usps_collection_boxes", "addr:city": "MARION", "addr:country": "US", "addr:full": "613 E CENTER ST", "addr:postcode": "43302", "addr:state": "OH", "amenity": "post_box", "brand": "United States Postal Service", "brand:wikidata": "Q668687", "collection_times": "Mo-Sa 10:00", "name": "USPS COLLECTION BOX - BLUE BOX", "nsi_id": "unitedstatespostalservice-a77078", "operator": "United States Postal Service", "operator:short": "USPS", "operator:type": "public", "operator:wikidata": "Q668687", "ref": "4330200029"}, "type": "Feature"}
{"dataset_attributes": {"@spider": "usps_collection_boxes"}, "geometry": {"coordinates": [-83.1202618, 40.561338], "type": "Point"}, "id": "-54IvH3_oiRegqPn4og5b1et2q4=", "properties": {"@spider": "usps_collection_boxes", "addr:city": "MARION", "addr:country": "US", "addr:full": "1421 MARION WALDO RD", "addr:postcode": "43302", "addr:state": "OH", "amenity": "post_box", "brand": "United States Postal Service", "brand:wikidata": "Q668687", "collection_times": "Mo-Sa 11:00", "name": "USPS COLLECTION BOX - BLUE BOX", "nsi_id": "unitedstatespostalservice-a77078", "operator": "United States Postal Service", "operator:short": "USPS", "operator:type": "public", "operator:wikidata": "Q668687", "ref": "4330200033"}, "type": "Feature"}
{"dataset_attributes": {"@spider": "usps_collection_boxes"}, "geometry": {"coordinates": [-83.0938211, 40.582132], "type": "Point"}, "id": "GArtEuxco_52AcMChvcN8UZQoM0=", "properties": {"@spider": "usps_collection_boxes", "addr:city": "MARION", "addr:country": "US", "addr:full": "1348 MOUNT VERNON AVE", "addr:postcode": "43302", "addr:state": "OH", "amenity": "post_box", "brand": "United States Postal Service", "brand:wikidata": "Q668687", "collection_times": "Mo-Sa 10:00", "name": "USPS COLLECTION BOX - BLUE BOX", "nsi_id": "unitedstatespostalservice-a77078", "operator": "United States Postal Service", "operator:short": "USPS", "operator:type": "public", "operator:wikidata": "Q668687", "ref": "4330200037"}, "type": "Feature"}
{"dataset_attributes": {"@spider": "usps_collection_boxes"}, "geometry": {"coordinates": [-83.089779866, 40.58096659], "type": "Point"}, "id": "plVlOWjx-zOCYmK5uFsNvmV7QPA=", "properties": {"@spider": "usps_collection_boxes", "addr:city": "MARION", "addr:country": "US", "addr:full": "1465 MOUNT VERNON AVE", "addr:postcode": "43302", "addr:state": "OH", "amenity": "post_box", "brand": "United States Postal Service", "brand:wikidata": "Q668687", "collection_times": "Mo-Sa 10:30", "name": "USPS COLLECTION BOX - BLUE BOX", "nsi_id": "unitedstatespostalservice-a77078", "operator": "United States Postal Service", "operator:short": "USPS", "operator:type": "public", "operator:wikidata": "Q668687", "ref": "4330200038"}, "type": "Feature"}
{"dataset_attributes": {"@spider": "usps_collection_boxes"}, "geometry": {"coordinates": [-83.0997587, 40.575428], "type": "Point"}, "id": "mdb1afX5DNnLUM0wwGVnmAi5kkE=", "properties": {"@spider": "usps_collection_boxes", "addr:city": "MARION", "addr:country": "US", "addr:full": "1051 CHATEAU DR", "addr:postcode": "43302", "addr:state": "OH", "amenity": "post_box", "brand": "United States Postal Service", "brand:wikidata": "Q668687", "collection_times": "Mo-Sa 10:00", "name": "USPS COLLECTION BOX - BLUE BOX", "nsi_id": "unitedstatespostalservice-a77078", "operator": "United States Postal Service", "operator:short": "USPS", "operator:type": "public", "operator:wikidata": "Q668687", "ref": "4330200039"}, "type": "Feature"}
{"dataset_attributes": {"@spider": "usps_collection_boxes"}, "geometry": {"coordinates": [-83.1019722799, 40.5897255149], "type": "Point"}, "id": "PutmM6st3l78kHSrUH_PEy1HxCY=", "properties": {"@spider": "usps_collection_boxes", "addr:city": "MARION", "addr:country": "US", "addr:full": "1100 E CENTER ST", "addr:postcode": "43302", "addr:state": "OH", "amenity": "post_box", "brand": "United States Postal Service", "brand:wikidata": "Q668687", "collection_times": "Mo-Sa 10:00", "name": "USPS COLLECTION BOX - BLUE BOX", "nsi_id": "unitedstatespostalservice-a77078", "operator": "United States Postal Service", "operator:short": "USPS", "operator:type": "public", "operator:wikidata": "Q668687", "ref": "4330200048"}, "type": "Feature"}
{"dataset_attributes": {"@spider": "usps_collection_boxes"}, "geometry": {"coordinates": [-83.0867473, 40.583263], "type": "Point"}, "id": "ScdNlinnYcJwB0eQKGI0qiPBB8w=", "properties": {"@spider": "usps_collection_boxes", "addr:city": "MARION", "addr:country": "US", "addr:full": "1598 MARION MOUNT GILEAD RD", "addr:postcode": "43302", "addr:state": "OH", "amenity": "post_box", "brand": "United States Postal Service", "brand:wikidata": "Q668687", "collection_times": "Mo-Sa 12:00", "name": "USPS COLLECTION BOX - BLUE BOX", "nsi_id": "unitedstatespostalservice-a77078", "operator": "United States Postal Service", "operator:short": "USPS", "operator:type": "public", "operator:wikidata": "Q668687", "ref": "4330200050"}, "type": "Feature"}
{"dataset_attributes": {"@spider": "usps_collection_boxes"}, "geometry": {"coordinates": [-83.1177884, 40.562679], "type": "Point"}, "id": "ALjoVlk1_hWbkcb9I7aYccMuy9w=", "properties": {"@spider": "usps_collection_boxes", "addr:city": "MARION", "addr:country": "US", "addr:full": "1428 MARION WALDO RD", "addr:postcode": "43302", "addr:state": "OH", "amenity": "post_box", "brand": "United States Postal Service", "brand:wikidata": "Q668687", "collection_times": "Mo-Sa 09:30", "name": "USPS COLLECTION BOX - BLUE BOX", "nsi_id": "unitedstatespostalservice-a77078", "operator": "United States Postal Service", "operator:short": "USPS", "operator:type": "public", "operator:wikidata": "Q668687", "ref": "4330200052"}, "type": "Feature"}
{"dataset_attributes": {"@spider": "usps_collection_boxes"}, "geometry": {"coordinates": [-83.124549, 40.564018], "type": "Point"}, "id": "uhTLZVGet9zl7FkIgMXEh6NQTZM=", "properties": {"@spider": "usps_collection_boxes", "addr:city": "MARION", "addr:country": "US", "addr:full": "230 BARKS RD W", "addr:postcode": "43302", "addr:state": "OH", "amenity": "post_box", "brand": "United States Postal Service", "brand:wikidata": "Q668687", "collection_times": "Mo-Sa 17:00", "name": "USPS COLLECTION BOX - BLUE BOX", "note": "ON 12/24 AND 12/31, THIS BOX MAY BE COLLECTED AS EARLY AS 12 NOON.", "nsi_id": "unitedstatespostalservice-a77078", "operator": "United States Postal Service", "operator:short": "USPS", "operator:type": "public", "operator:wikidata": "Q668687", "ref": "4330200056"}, "type": "Feature"}
{"dataset_attributes": {"@spider": "usps_collection_boxes"}, "geometry": {"coordinates": [-83.124667, 40.563991], "type": "Point"}, "id": "DeSHImeH2ShCZ9RxeLJ45KXio8o=", "properties": {"@spider": "usps_collection_boxes", "addr:city": "MARION", "addr:country": "US", "addr:full": "230 BARKS RD W", "addr:postcode": "43302", "addr:state": "OH", "amenity": "post_box", "brand": "United States Postal Service", "brand:wikidata": "Q668687", "collection_times": "Mo-Sa 17:00", "name": "USPS COLLECTION BOX - PO LOBBY", "note": "ON 12/24 AND 12/31, THIS BOX MAY BE COLLECTED AS EARLY AS 12 NOON.", "nsi_id": "unitedstatespostalservice-a77078", "operator": "United States Postal Service", "operator:short": "USPS", "operator:type": "public", "operator:wikidata": "Q668687", "ref": "4330200058"}, "type": "Feature"}
{"dataset_attributes": {"@spider": "usps_collection_boxes"}, "geometry": {"coordinates": [-83.124504, 40.564015522], "type": "Point"}, "id": "N7lliLyeB673IP6O6z1dz7sKbrw=", "properties": {"@spider": "usps_collection_boxes", "addr:city": "MARION", "addr:country": "US", "addr:full": "230 BARKS RD W", "addr:postcode": "43302", "addr:state": "OH", "amenity": "post_box", "brand": "United States Postal Service", "brand:wikidata": "Q668687", "collection_times": "Mo-Fr 17:00; Sa 13:00", "name": "USPS COLLECTION BOX - PO LOBBY", "note": "ON 12/24 AND 12/31, THIS BOX MAY BE COLLECTED AS EARLY AS 12 NOON.", "nsi_id": "unitedstatespostalservice-a77078", "operator": "United States Postal Service", "operator:short": "USPS", "operator:type": "public", "operator:wikidata": "Q668687", "ref": "4330200075"}, "type": "Feature"}
{"dataset_attributes": {"@spider": "usps_collection_boxes"}, "geometry": {"coordinates": [-82.968858, 40.635922], "type": "Point"}, "id": "lgtO5GEK3wM6TJc4CO-HPrUcZmc=", "properties": {"@spider": "usps_collection_boxes", "addr:city": "CALEDONIA", "addr:country": "US", "addr:full": "128 S MAIN ST", "addr:postcode": "43314", "addr:state": "OH", "amenity": "post_box", "brand": "United States Postal Service", "brand:wikidata": "Q668687", "collection_times": "Mo-Fr 16:30; Sa 10:45", "name": "USPS COLLECTION BOX - BLUE BOX", "note": "ON 12/24 AND 12/31, THIS BOX MAY BE COLLECTED AS EARLY AS 12 NOON.", "nsi_id": "unitedstatespostalservice-a77078", "operator": "United States Postal Service", "operator:short": "USPS", "operator:type": "public", "operator:wikidata": "Q668687", "ref": "4331400000"}, "type": "Feature"}
{"dataset_attributes": {"@spider": "usps_collection_boxes"}, "geometry": {"coordinates": [-82.968858, 40.635922], "type": "Point"}, "id": "7V7o9O2lhoPrNPIipkou1eYWh00=", "properties": {"@spider": "usps_collection_boxes", "addr:city": "CALEDONIA", "addr:country": "US", "addr:full": "128 S MAIN ST", "addr:postcode": "43314", "addr:state": "OH", "amenity": "post_box", "brand": "United States Postal Service", "brand:wikidata": "Q668687", "collection_times": "Mo-Fr 16:30; Sa 10:45", "name": "USPS COLLECTION BOX - PO LOBBY", "note": "ON 12/24 AND 12/31, THIS BOX MAY BE COLLECTED AS EARLY AS 12 NOON.", "nsi_id": "unitedstatespostalservice-a77078", "operator": "United States Postal Service", "operator:short": "USPS", "operator:type": "public", "operator:wikidata": "Q668687", "ref": "4331400002"}, "type": "Feature"}
{"dataset_attributes": {"@spider": "usps_collection_boxes"}, "geometry": {"coordinates": [-82.968825775, 40.635819], "type": "Point"}, "id": "Lsm3-WmBwgvwf8qfh8Awhv084lw=", "properties": {"@spider": "usps_collection_boxes", "addr:city": "CALEDONIA", "addr:country": "US", "addr:full": "128 S MAIN ST", "addr:postcode": "43314", "addr:state": "OH", "amenity": "post_box", "brand": "United States Postal Service", "brand:wikidata": "Q668687", "collection_times": "Mo-Fr 16:30; Sa 11:00", "name": "USPS COLLECTION BOX - PO LOBBY", "note": "ON 12/24 AND 12/31, THIS BOX MAY BE COLLECTED AS EARLY AS 12 NOON.", "nsi_id": "unitedstatespostalservice-a77078", "operator": "United States Postal Service", "operator:short": "USPS", "operator:type": "public", "operator:wikidata": "Q668687", "ref": "4331400008"}, "type": "Feature"}
{"dataset_attributes": {"@spider": "usps_collection_boxes"}, "geometry": {"coordinates": [-82.8943941, 40.499519], "type": "Point"}, "id": "FTU58c2WgKZY0jAExGd2UcVSTtw=", "properties": {"@spider": "usps_collection_boxes", "addr:city": "CARDINGTON", "addr:country": "US", "addr:full": "201 S MARION ST", "addr:postcode": "43315", "addr:state": "OH", "amenity": "post_box", "brand": "United States Postal Service", "brand:wikidata": "Q668687", "collection_times": "Mo-Fr 15:55; Sa 15:15", "name": "USPS COLLECTION BOX - BLUE BOX", "note": "ON 12/24 AND 12/31, THIS BOX MAY BE COLLECTED AS EARLY AS 12 NOON.", "nsi_id": "unitedstatespostalservice-a77078", "operator": "United States Postal Service", "operator:short": "USPS", "operator:type": "public", "operator:wikidata": "Q668687", "ref": "4331500007"}, "type": "Feature"}
{"dataset_attributes": {"@spider": "usps_collection_boxes"}, "geometry": {"coordinates": [-82.894248, 40.499761], "type": "Point"}, "id": "sDnXm2DZfwtuFN2xtkhbM82bRI4=", "properties": {"@spider": "usps_collection_boxes", "addr:city": "CARDINGTON", "addr:country": "US", "addr:full": "201 S MARION ST", "addr:postcode": "43315", "addr:state": "OH", "amenity": "post_box", "brand": "United States Postal Service", "brand:wikidata": "Q668687", "collection_times": "Mo-Fr 16:15; Sa 15:30", "name": "USPS COLLECTION BOX - PO LOBBY", "note": "ON 12/24 AND 12/31, THIS BOX MAY BE COLLECTED AS EARLY AS 12 NOON.", "nsi_id": "unitedstatespostalservice-a77078", "operator": "United States Postal Service", "operator:short": "USPS", "operator:type": "public", "operator:wikidata": "Q668687", "ref": "4331500008"}, "type": "Feature"}
{"dataset_attributes": {"@spider": "usps_collection_boxes"}, "geometry": {"coordinates": [-82.894276681, 40.499577], "type": "Point"}, "id": "KT72iQ6pNR2uheMGxKt4q82m9Jc=", "properties": {"@spider": "usps_collection_boxes", "addr:city": "CARDINGTON", "addr:country": "US", "addr:full": "201 S MARION ST", "addr:postcode": "43315", "addr:state": "OH", "amenity": "post_box", "brand": "United States Postal Service", "brand:wikidata": "Q668687", "collection_times": "Mo-Fr 16:30; Sa 12:00", "name": "USPS COLLECTION BOX - PO LOBBY", "note": "ON 12/24 AND 12/31, THIS BOX MAY BE COLLECTED AS EARLY AS 12 NOON.", "nsi_id": "unitedstatespostalservice-a77078", "operator": "United States Postal Service", "operator:short": "USPS", "operator:type": "public", "operator:wikidata": "Q668687", "ref": "4331500010"}, "type": "Feature"}
{"dataset_attributes": {"@spider": "usps_collection_boxes"}, "geometry": {"coordinates": [-82.682684, 40.479801], "type": "Point"}, "id": "f__uckGl6O6dFf_NX8N2HXO2fDE=", "properties": {"@spider": "usps_collection_boxes", "addr:city": "CHESTERVILLE", "addr:country": "US", "addr:full": "44 E SANDUSKY ST", "addr:postcode": "43317", "addr:state": "OH", "amenity": "post_box", "brand": "United States Postal Service", "brand:wikidata": "Q668687", "collection_times": "Mo-Fr 11:30; Sa 10:15", "name": "USPS COLLECTION BOX - BLUE BOX", "nsi_id": "unitedstatespostalservice-a77078", "operator": "United States Postal Service", "operator:short": "USPS", "operator:type": "public", "operator:wikidata": "Q668687", "ref": "4331700000"}, "type": "Feature"}
{"dataset_attributes": {"@spider": "usps_collection_boxes"}, "geometry": {"coordinates": [-82.682763, 40.479858], "type": "Point"}, "id": "KcO-PqNc_d8YYxrKNS6DzgkZ_w4=", "properties": {"@spider": "usps_collection_boxes", "addr:city": "CHESTERVILLE", "addr:country": "US", "addr:full": "44 E SANDUSKY ST", "addr:postcode": "43317", "addr:state": "OH", "amenity": "post_box", "brand": "United States Postal Service", "brand:wikidata": "Q668687", "collection_times": "Mo-Fr 11:30; Sa 10:15", "name": "USPS COLLECTION BOX - PO LOBBY", "nsi_id": "unitedstatespostalservice-a77078", "operator": "United States Postal Service", "operator:short": "USPS", "operator:type": "public", "operator:wikidata": "Q668687", "ref": "4331700001"}, "type": "Feature"}
{"dataset_attributes": {"@spider": "usps_collection_boxes"}, "geometry": {"coordinates": [-82.682681794, 40.479786367], "type": "Point"}, "id": "RNNWcRNgESU_a4Ix9IZkSQUE-N0=", "properties": {"@spider": "usps_collection_boxes", "addr:city": "CHESTERVILLE", "addr:country": "US", "addr:full": "44 E SANDUSKY ST", "addr:postcode": "43317", "addr:state": "OH", "amenity": "post_box", "brand": "United States Postal Service", "brand:wikidata": "Q668687", "collection_times": "Mo-Fr 12:00; Sa 10:30", "name": "USPS COLLECTION BOX - PO LOBBY", "nsi_id": "unitedstatespostalservice-a77078", "operator": "United States Postal Service", "operator:short": "USPS", "operator:type": "public", "operator:wikidata": "Q668687", "ref": "4331700003"}, "type": "Feature"}
{"dataset_attributes": {"@spider": "usps_collection_boxes"}, "geometry": {"coordinates": [-82.862612, 40.557904], "type": "Point"}, "id": "21v9A02iHyV3i9uooa4O7sa2kns=", "properties": {"@spider": "usps_collection_boxes", "addr:city": "EDISON", "addr:country": "US", "addr:full": "101 N BOUNDARY ST", "addr:postcode": "43320", "addr:state": "OH", "amenity": "post_box", "brand": "United States Postal Service", "brand:wikidata": "Q668687", "collection_times": "Mo-Fr 16:30; Sa 09:45", "name": "USPS COLLECTION BOX - BLUE BOX", "note": "ON 12/24 AND 12/31, THIS BOX MAY BE COLLECTED AS EARLY AS 12 NOON.", "nsi_id": "unitedstatespostalservice-a77078", "operator": "United States Postal Service", "operator:short": "USPS", "operator:type": "public", "operator:wikidata": "Q668687", "ref": "4332000000"}, "type": "Feature"}
{"dataset_attributes": {"@spider": "usps_collection_boxes"}, "geometry": {"coordinates": [-82.86258, 40.557813], "type": "Point"}, "id": "qHB4FC7xBX9OpT824G_129cBuRs=", "properties": {"@spider": "usps_collection_boxes", "addr:city": "EDISON", "addr:country": "US", "addr:full": "101 N BOUNDARY ST", "addr:postcode": "43320", "addr:state": "OH", "amenity": "post_box", "brand": "United States Postal Service", "brand:wikidata": "Q668687", "collection_times": "Mo-Fr 16:30; Sa 09:45", "name": "USPS COLLECTION BOX - PO LOBBY", "note": "ON 12/24 AND 12/31, THIS BOX MAY BE COLLECTED AS EARLY AS 12 NOON.", "nsi_id": "unitedstatespostalservice-a77078", "operator": "United States Postal Service", "operator:short": "USPS", "operator:type": "public", "operator:wikidata": "Q668687", "ref": "4332000001"}, "type": "Feature"}
{"dataset_attributes": {"@spider": "usps_collection_boxes"}, "geometry": {"coordinates": [-82.862625308, 40.557693582], "type": "Point"}, "id": "N2lDuqlvUxexPPdiBjtGGdNz9W8=", "properties": {"@spider": "usps_collection_boxes", "addr:city": "EDISON", "addr:country": "US", "addr:full": "101 N BOUNDARY ST", "addr:postcode": "43320", "addr:state": "OH", "amenity": "post_box", "brand": "United States Postal Service", "brand:wikidata": "Q668687", "collection_times": "Mo-Fr 17:00; Sa 13:00", "name": "USPS COLLECTION BOX - PO LOBBY", "note": "ON 12/24 AND 12/31, THIS BOX MAY BE COLLECTED AS EARLY AS 12 NOON.", "nsi_id": "unitedstatespostalservice-a77078", "operator": "United States Postal Service", "operator:short": "USPS", "operator:type": "public", "operator:wikidata": "Q668687", "ref": "4332000004"}, "type": "Feature"}
{"dataset_attributes": {"@spider": "usps_collection_boxes"}, "geometry": {"coordinates": [-82.82741, 40.462992], "type": "Point"}, "id": "Rat2s50vng0N1eNf-drFegs593A=", "properties": {"@spider": "usps_collection_boxes", "addr:city": "FULTON", "addr:country": "US", "addr:full": "114 E MAIN ST", "addr:postcode": "43321", "addr:state": "OH", "amenity": "post_box", "brand": "United States Postal Service", "brand:wikidata": "Q668687", "collection_times": "Mo-Fr 16:00; Sa 09:45", "name": "USPS COLLECTION BOX - BLUE BOX", "note": "ON 12/24 AND 12/31, THIS BOX MAY BE COLLECTED AS EARLY AS 12 NOON.", "nsi_id": "unitedstatespostalservice-a77078", "operator": "United States Postal Service", "operator:short": "USPS", "operator:type": "public", "operator:wikidata": "Q668687", "ref": "4332100000"}, "type": "Feature"}
{"dataset_attributes": {"@spider": "usps_collection_boxes"}, "geometry": {"coordinates": [-82.82741, 40.462992], "type": "Point"}, "id": "S0QaGqQFuFVCzvBlr4dFZYaJBRg=", "properties": {"@spider": "usps_collection_boxes", "addr:city": "FULTON", "addr:country": "US", "addr:full": "114 E MAIN ST", "addr:postcode": "43321", "addr:state": "OH", "amenity": "post_box", "brand": "United States Postal Service", "brand:wikidata": "Q668687", "collection_times": "Mo-Fr 16:00; Sa 09:45", "name": "USPS COLLECTION BOX - PO LOBBY", "note": "ON 12/24 AND 12/31, THIS BOX MAY BE COLLECTED AS EARLY AS 12 NOON.", "nsi_id": "unitedstatespostalservice-a77078", "operator": "United States Postal Service", "operator:short": "USPS", "operator:type": "public", "operator:wikidata": "Q668687", "ref": "4332100001"}, "type": "Feature"}
{"dataset_attributes": {"@spider": "usps_collection_boxes"}, "geometry": {"coordinates": [-82.827083263, 40.462928529], "type": "Point"}, "id": "kKLgGrAp6b9M1d-GF4z16zA16e0=", "properties": {"@spider": "usps_collection_boxes", "addr:city": "FULTON", "addr:country": "US", "addr:full": "114 E MAIN ST", "addr:postcode": "43321", "addr:state": "OH", "amenity": "post_box", "brand": "United States Postal Service", "brand:wikidata": "Q668687", "collection_times": "Mo-Fr 16:00; Sa 14:30", "name": "USPS COLLECTION BOX - PO LOBBY", "note": "ON 12/24 AND 12/31, THIS BOX MAY BE COLLECTED AS EARLY AS 12 NOON.", "nsi_id": "unitedstatespostalservice-a77078", "operator": "United States Postal Service", "operator:short": "USPS", "operator:type": "public", "operator:wikidata": "Q668687", "ref": "4332100003"}, "type": "Feature"}
{"dataset_attributes": {"@spider": "usps_collection_boxes"}, "geometry": {"coordinates": [-82.846741, 40.6693], "type": "Point"}, "id": "GLGfOwFUBg93VMK0HHrY-BqiieM=", "properties": {"@spider": "usps_collection_boxes", "addr:city": "IBERIA", "addr:country": "US", "addr:full": "3570 STATE ROUTE 309", "addr:postcode": "43325", "addr:state": "OH", "amenity": "post_box", "brand": "United States Postal Service", "brand:wikidata": "Q668687", "collection_times": "Mo-Fr 16:10; Sa 09:45", "name": "USPS COLLECTION BOX - BLUE BOX", "note": "ON 12/24 AND 12/31, THIS BOX MAY BE COLLECTED AS EARLY AS 12 NOON.", "nsi_id": "unitedstatespostalservice-a77078", "operator": "United States Postal Service", "operator:short": "USPS", "operator:type": "public", "operator:wikidata": "Q668687", "ref": "4332500000"}, "type": "Feature"}
{"dataset_attributes": {"@spider": "usps_collection_boxes"}, "geometry": {"coordinates": [-82.846741, 40.6693], "type": "Point"}, "id": "rvSnv_2H9ghhEh_WSXyBO6azhgQ=", "properties": {"@spider": "usps_collection_boxes", "addr:city": "IBERIA", "addr:country": "US", "addr:full": "3570 STATE ROUTE 309", "addr:postcode": "43325", "addr:state": "OH", "amenity": "post_box", "brand": "United States Postal Service", "brand:wikidata": "Q668687", "collection_times": "Mo-Fr 16:15; Sa 09:45", "name": "USPS COLLECTION BOX - PO LOBBY", "note": "ON 12/24 AND 12/31, THIS BOX MAY BE COLLECTED AS EARLY AS 12 NOON.", "nsi_id": "unitedstatespostalservice-a77078", "operator": "United States Postal Service", "operator:short": "USPS", "operator:type": "public", "operator:wikidata": "Q668687", "ref": "4332500001"}, "type": "Feature"}
{"dataset_attributes": {"@spider": "usps_collection_boxes"}, "geometry": {"coordinates": [-82.846763764, 40.669393349], "type": "Point"}, "id": "R4LzBM5DSpA5m_xQCeG-zQcyJn8=", "properties": {"@spider": "usps_collection_boxes", "addr:city": "IBERIA", "addr:country": "US", "addr:full": "3570 STATE ROUTE 309", "addr:postcode": "43325", "addr:state": "OH", "amenity": "post_box", "brand": "United States Postal Service", "brand:wikidata": "Q668687", "collection_times": "Mo-Fr 16:30; Sa 10:15", "name": "USPS COLLECTION BOX - PO LOBBY", "note": "ON 12/24 AND 12/31, THIS BOX MAY BE COLLECTED AS EARLY AS 12 NOON.", "nsi_id": "unitedstatespostalservice-a77078", "operator": "United States Postal Service", "operator:short": "USPS", "operator:type": "public", "operator:wikidata": "Q668687", "ref": "4332500003"}, "type": "Feature"}
{"dataset_attributes": {"@spider": "usps_collection_boxes"}, "geometry": {"coordinates": [-82.811079, 40.397794], "type": "Point"}, "id": "uN34QpNIN2Pd-6ORIk9VgZkMG5o=", "properties": {"@spider": "usps_collection_boxes", "addr:city": "MARENGO", "addr:country": "US", "addr:full": "97 S MAIN ST", "addr:postcode": "43334", "addr:state": "OH", "amenity": "post_box", "brand": "United States Postal Service", "brand:wikidata": "Q668687", "collection_times": "Mo-Fr 16:30; Sa 11:45", "name": "USPS COLLECTION BOX - BLUE BOX", "note": "ON 12/24 AND 12/31, THIS BOX MAY BE COLLECTED AS EARLY AS 12 NOON.", "nsi_id": "unitedstatespostalservice-a77078", "operator": "United States Postal Service", "operator:short": "USPS", "operator:type": "public", "operator:wikidata": "Q668687", "ref": "4333400000"}, "type": "Feature"}
{"dataset_attributes": {"@spider": "usps_collection_boxes"}, "geometry": {"coordinates": [-82.8110612, 40.400265], "type": "Point"}, "id": "zhoTxOF0dgxWDp3jPlubV-rXYKA=", "properties": {"@spider": "usps_collection_boxes", "addr:city": "MARENGO", "addr:country": "US", "addr:full": "19 S MAIN ST", "addr:postcode": "43334", "addr:state": "OH", "amenity": "post_box", "brand": "United States Postal Service", "brand:wikidata": "Q668687", "collection_times": "Mo-Sa 11:00", "name": "USPS COLLECTION BOX - BLUE BOX", "nsi_id": "unitedstatespostalservice-a77078", "operator": "United States Postal Service", "operator:short": "USPS", "operator:type": "public", "operator:wikidata": "Q668687", "ref": "4333400001"}, "type": "Feature"}
{"dataset_attributes": {"@spider": "usps_collection_boxes"}, "geometry": {"coordinates": [-82.811045, 40.397724], "type": "Point"}, "id": "qQP5hYNlnSQj_hJNYWhBaUYKKkA=", "properties": {"@spider": "usps_collection_boxes", "addr:city": "MARENGO", "addr:country": "US", "addr:full": "97 S MAIN ST", "addr:postcode": "43334", "addr:state": "OH", "amenity": "post_box", "brand": "United States Postal Service", "brand:wikidata": "Q668687", "collection_times": "Mo-Fr 16:30; Sa 11:45", "name": "USPS COLLECTION BOX - PO LOBBY", "note": "ON 12/24 AND 12/31, THIS BOX MAY BE COLLECTED AS EARLY AS 12 NOON.", "nsi_id": "unitedstatespostalservice-a77078", "operator": "United States Postal Service", "operator:short": "USPS", "operator:type": "public", "operator:wikidata": "Q668687", "ref": "4333400002"}, "type": "Feature"}
{"dataset_attributes": {"@spider": "usps_collection_boxes"}, "geometry": {"coordinates": [-82.811087046, 40.397830889], "type": "Point"}, "id": "--ASUfi6USybShcRbDBFgKPe3-8=", "properties": {"@spider": "usps_collection_boxes", "addr:city": "MARENGO", "addr:country": "US", "addr:full": "97 S MAIN ST", "addr:postcode": "43334", "addr:state": "OH", "amenity": "post_box", "brand": "United States Postal Service", "brand:wikidata": "Q668687", "collection_times": "Mo-Fr 16:30; Sa 12:00", "name": "USPS COLLECTION BOX - PO LOBBY", "note": "ON 12/24 AND 12/31, THIS BOX MAY BE COLLECTED AS EARLY AS 12 NOON.", "nsi_id": "unitedstatespostalservice-a77078", "operator": "United States Postal Service", "operator:short": "USPS", "operator:type": "public", "operator:wikidata": "Q668687", "ref": "4333400010"}, "type": "Feature"}
{"dataset_attributes": {"@spider": "usps_collection_boxes"}, "geometry": {"coordinates": [-82.8468537, 40.547644], "type": "Point"}, "id": "2nbxVNOLv8SviVgurlJkdW1V1HM=", "properties": {"@spider": "usps_collection_boxes", "addr:city": "MOUNT GILEAD", "addr:country": "US", "addr:full": "555 W MARION RD", "addr:postcode": "43338", "addr:state": "OH", "amenity": "post_box", "brand": "United States Postal Service", "brand:wikidata": "Q668687", "collection_times": "Mo-Sa 09:45", "name": "USPS COLLECTION BOX - BLUE BOX", "nsi_id": "unitedstatespostalservice-a77078", "operator": "United States Postal Service", "operator:short": "USPS", "operator:type": "public", "operator:wikidata": "Q668687", "ref": "4333800011"}, "type": "Feature"}
{"dataset_attributes": {"@spider": "usps_collection_boxes"}, "geometry": {"coordinates": [-82.829791, 40.549351], "type": "Point"}, "id": "da7PklVWyA2w_4Y2pUtW4othGpE=", "properties": {"@spider": "usps_collection_boxes", "addr:city": "MOUNT GILEAD", "addr:country": "US", "addr:full": "37 W HIGH ST", "addr:postcode": "43338", "addr:state": "OH", "amenity": "post_box", "brand": "United States Postal Service", "brand:wikidata": "Q668687", "collection_times": "Mo-Fr 16:30; Sa 15:00", "name": "USPS COLLECTION BOX - PO LOBBY", "note": "ON 12/24 AND 12/31, THIS BOX MAY BE COLLECTED AS EARLY AS 12 NOON.", "nsi_id": "unitedstatespostalservice-a77078", "operator": "United States Postal Service", "operator:short": "USPS", "operator:type": "public", "operator:wikidata": "Q668687", "ref": "4333800013"}, "type": "Feature"}
{"dataset_attributes": {"@spider": "usps_collection_boxes"}, "geometry": {"coordinates": [-82.8297584, 40.549025], "type": "Point"}, "id": "VDZRtkcUH_G7ArDYEg1m371Jfow=", "properties": {"@spider": "usps_collection_boxes", "addr:city": "MOUNT GILEAD", "addr:country": "US", "addr:full": "27 W HIGH ST", "addr:postcode": "43338", "addr:state": "OH", "amenity": "post_box", "brand": "United States Postal Service", "brand:wikidata": "Q668687", "collection_times": "Mo-Fr 16:30; Sa 15:00", "name": "USPS COLLECTION BOX - BLUE BOX", "note": "ON 12/24 AND 12/31, THIS BOX MAY BE COLLECTED AS EARLY AS 12 NOON.", "nsi_id": "unitedstatespostalservice-a77078", "operator": "United States Postal Service", "operator:short": "USPS", "operator:type": "public", "operator:wikidata": "Q668687", "ref": "4333800014"}, "type": "Feature"}
{"dataset_attributes": {"@spider": "usps_collection_boxes"}, "geometry": {"coordinates": [-82.8269529, 40.549827], "type": "Point"}, "id": "7p6VeZOIYXmW2RcUF5VDWFnEMDg=", "properties": {"@spider": "usps_collection_boxes", "addr:city": "MOUNT GILEAD", "addr:country": "US", "addr:full": "48 E HIGH ST", "addr:postcode": "43338", "addr:state": "OH", "amenity": "post_box", "brand": "United States Postal Service", "brand:wikidata": "Q668687", "collection_times": "Mo-Fr 09:00", "name": "USPS COLLECTION BOX - BLUE BOX", "nsi_id": "unitedstatespostalservice-a77078", "operator": "United States Postal Service", "operator:short": "USPS", "operator:type": "public", "operator:wikidata": "Q668687", "ref": "4333800015"}, "type": "Feature"}
{"dataset_attributes": {"@spider": "usps_collection_boxes"}, "geometry": {"coordinates": [-82.829855546, 40.549345638], "type": "Point"}, "id": "zeCZHUUif8RHYFdpNQIH-9P2X3E=", "properties": {"@spider": "usps_collection_boxes", "addr:city": "MOUNT GILEAD", "addr:country": "US", "addr:full": "37 W HIGH ST", "addr:postcode": "43338", "addr:state": "OH", "amenity": "post_box", "brand": "United States Postal Service", "brand:wikidata": "Q668687", "collection_times": "Mo-Fr 16:30; Sa 12:30", "name": "USPS COLLECTION BOX - PO LOBBY", "note": "ON 12/24 AND 12/31, THIS BOX MAY BE COLLECTED AS EARLY AS 12 NOON.", "nsi_id": "unitedstatespostalservice-a77078", "operator": "United States Postal Service", "operator:short": "USPS", "operator:type": "public", "operator:wikidata": "Q668687", "ref": "4333800017"}, "type": "Feature"}
{"dataset_attributes": {"@spider": "usps_collection_boxes"}, "geometry": {"coordinates": [-82.6627752, 40.620969], "type": "Point"}, "id": "eHvhX4SG3Iy-oFIuGTA8-sIxj_o=", "properties": {"@spider": "usps_collection_boxes", "addr:city": "SHAUCK", "addr:country": "US", "addr:full": "7500 STATE ROUTE 314", "addr:postcode": "43349", "addr:state": "OH", "amenity": "post_box", "brand": "United States Postal Service", "brand:wikidata": "Q668687", "collection_times": "Mo-Fr 10:00; Sa 11:00", "name": "USPS COLLECTION BOX - BLUE BOX", "nsi_id": "unitedstatespostalservice-a77078", "operator": "United States Postal Service", "operator:short": "USPS", "operator:type": "public", "operator:wikidata": "Q668687", "ref": "4334900000"}, "type": "Feature"}
{"dataset_attributes": {"@spider": "usps_collection_boxes"}, "geometry": {"coordinates": [-82.701321, 40.394367], "type": "Point"}, "id": "ut50hmDm5vPXu42LhWEm60kFXIY=", "properties": {"@spider": "usps_collection_boxes", "addr:city": "SPARTA", "addr:country": "US", "addr:full": "8 W MAIN ST", "addr:postcode": "43350", "addr:state": "OH", "amenity": "post_box", "brand": "United States Postal Service", "brand:wikidata": "Q668687", "collection_times": "Mo-Fr 15:15; Sa 10:15", "name": "USPS COLLECTION BOX - BLUE BOX", "note": "ON 12/24 AND 12/31, THIS BOX MAY BE COLLECTED AS EARLY AS 12 NOON.", "nsi_id": "unitedstatespostalservice-a77078", "operator": "United States Postal Service", "operator:short": "USPS", "operator:type": "public", "operator:wikidata": "Q668687", "ref": "4335000000"}, "type": "Feature"}
{"dataset_attributes": {"@spider": "usps_collection_boxes"}, "geometry": {"coordinates": [-82.701346, 40.394318], "type": "Point"}, "id": "UpswWRxeo97-nBWCCvkde0MZgrc=", "properties": {"@spider": "usps_collection_boxes", "addr:city": "SPARTA", "addr:country": "US", "addr:full": "8 W MAIN ST", "addr:postcode": "43350", "addr:state": "OH", "amenity": "post_box", "brand": "United States Postal Service", "brand:wikidata": "Q668687", "collection_times": "Mo-Fr 15:15; Sa 10:15", "name": "USPS COLLECTION BOX - PO LOBBY", "note": "ON 12/24 AND 12/31, THIS BOX MAY BE COLLECTED AS EARLY AS 12 NOON.", "nsi_id": "unitedstatespostalservice-a77078", "operator": "United States Postal Service", "operator:short": "USPS", "operator:type": "public", "operator:wikidata": "Q668687", "ref": "4335000001"}, "type": "Feature"}
{"dataset_attributes": {"@spider": "usps_collection_boxes"}, "geometry": {"coordinates": [-82.701347128, 40.39433715], "type": "Point"}, "id": "RCUYvnXqgzXwWF3LBYd7HYYb-TI=", "properties": {"@spider": "usps_collection_boxes", "addr:city": "SPARTA", "addr:country": "US", "addr:full": "8 W MAIN ST", "addr:postcode": "43350", "addr:state": "OH", "amenity": "post_box", "brand": "United States Postal Service", "brand:wikidata": "Q668687", "collection_times": "Mo-Fr 15:15; Sa 12:00", "name": "USPS COLLECTION BOX - PO LOBBY", "note": "ON 12/24 AND 12/31, THIS BOX MAY BE COLLECTED AS EARLY AS 12 NOON.", "nsi_id": "unitedstatespostalservice-a77078", "operator": "United States Postal Service", "operator:short": "USPS", "operator:type": "public", "operator:wikidata": "Q668687", "ref": "4335000003"}, "type": "Feature"}
{"dataset_attributes": {"@spider": "usps_collection_boxes"}, "geometry": {"coordinates": [-83.077112, 40.45878], "type": "Point"}, "id": "3Vj7TohxR8DcIFCXmBYO-yuwsI8=", "properties": {"@spider": "usps_collection_boxes", "addr:city": "WALDO", "addr:country": "US", "addr:full": "117 S MARION ST", "addr:postcode": "43356", "addr:state": "OH", "amenity": "post_box", "brand": "United States Postal Service", "brand:wikidata": "Q668687", "collection_times": "Mo-Fr 16:00; Sa 12:30", "name": "USPS COLLECTION BOX - BLUE BOX", "note": "ON 12/24 AND 12/31, THIS BOX MAY BE COLLECTED AS EARLY AS 12 NOON.", "nsi_id": "unitedstatespostalservice-a77078", "operator": "United States Postal Service", "operator:short": "USPS", "operator:type": "public", "operator:wikidata": "Q668687", "ref": "4335600000"}, "type": "Feature"}
{"dataset_attributes": {"@spider": "usps_collection_boxes"}, "geometry": {"coordinates": [-83.077088, 40.458816], "type": "Point"}, "id": "KQ4n1PYa49m2Oh3P5hxou2AC_Zw=", "properties": {"@spider": "usps_collection_boxes", "addr:city": "WALDO", "addr:country": "US", "addr:full": "117 S MARION ST", "addr:postcode": "43356", "addr:state": "OH", "amenity": "post_box", "brand": "United States Postal Service", "brand:wikidata": "Q668687", "collection_times": "Mo-Fr 16:00; Sa 12:30", "name": "USPS COLLECTION BOX - PO LOBBY", "note": "ON 12/24 AND 12/31, THIS BOX MAY BE COLLECTED AS EARLY AS 12 NOON.", "nsi_id": "unitedstatespostalservice-a77078", "operator": "United States Postal Service", "operator:short": "USPS", "operator:type": "public", "operator:wikidata": "Q668687", "ref": "4335600001"}, "type": "Feature"}
{"dataset_attributes": {"@spider": "usps_collection_boxes"}, "geometry": {"coordinates": [-83.077152453, 40.458881944], "type": "Point"}, "id": "jX2Kmme5AfhKKLGUE2XVUlNVaq0=", "properties": {"@spider": "usps_collection_boxes", "addr:city": "WALDO", "addr:country": "US", "addr:full": "117 S MARION ST", "addr:postcode": "43356", "addr:state": "OH", "amenity": "post_box", "brand": "United States Postal Service", "brand:wikidata": "Q668687", "collection_times": "Mo-Fr 16:00; Sa 13:00", "name": "USPS COLLECTION BOX - PO LOBBY", "note": "ON 12/24 AND 12/31, THIS BOX MAY BE COLLECTED AS EARLY AS 12 NOON.", "nsi_id": "unitedstatespostalservice-a77078", "operator": "United States Postal Service", "operator:short": "USPS", "operator:type": "public", "operator:wikidata": "Q668687", "ref": "4335600003"}, "type": "Feature"}
