{"dataset_attributes": {"@spider": "usps_collection_boxes"}, "geometry": {"coordinates": [-82.975582341, 41.305145792], "type": "Point"}, "id": "XsZzSHMcQWgcC1dz6uWKy-Rn0ik=", "properties": {"@spider": "usps_collection_boxes", "addr:city": "CLYDE", "addr:country": "US", "addr:full": "131 W BUCKEYE ST", "addr:postcode": "43410", "addr:state": "OH", "amenity": "post_box", "brand": "United States Postal Service", "brand:wikidata": "Q668687", "collection_times": "Mo-Fr 16:30; Sa 15:30", "name": "USPS COLLECTION BOX - BLUE BOX", "note": "ON 12/24 AND 12/31, THIS BOX MAY BE COLLECTED AS EARLY AS 12 NOON.", "nsi_id": "unitedstatespostalservice-a77078", "operator": "United States Postal Service", "operator:short": "USPS", "operator:type": "public", "operator:wikidata": "Q668687", "ref": "4341000000"}, "type": "Feature"}
{"dataset_attributes": {"@spider": "usps_collection_boxes"}, "geometry": {"coordinates": [-82.975582341, 41.305145792], "type": "Point"}, "id": "DGs_t3WleUUWihcJpVEqsVa3L5U=", "properties": {"@spider": "usps_collection_boxes", "addr:city": "CLYDE", "addr:country": "US", "addr:full": "131 W BUCKEYE ST", "addr:postcode": "43410", "addr:state": "OH", "amenity": "post_box", "brand": "United States Postal Service", "brand:wikidata": "Q668687", "collection_times": "Mo-Fr 16:30; Sa 15:30", "name": "USPS COLLECTION BOX - BLUE BOX", "note": "ON 12/24 AND 12/31, THIS BOX MAY BE COLLECTED AS EARLY AS 12 NOON.", "nsi_id": "unitedstatespostalservice-a77078", "operator": "United States Postal Service", "operator:short": "USPS", "operator:type": "public", "operator:wikidata": "Q668687", "ref": "4341000002"}, "type": "Feature"}
{"dataset_attributes": {"@spider": "usps_collection_boxes"}, "geometry": {"coordinates": [-82.975582341, 41.305145792], "type": "Point"}, "id": "3FQiiNZLl_SdazIUH6P7KEMWh_E=", "properties": {"@spider": "usps_collection_boxes", "addr:city": "CLYDE", "addr:country": "US", "addr:full": "131 W BUCKEYE ST", "addr:postcode": "43410", "addr:state": "OH", "amenity": "post_box", "brand": "United States Postal Service", "brand:wikidata": "Q668687", "collection_times": "Mo-Fr 16:30; Sa 15:30", "name": "USPS COLLECTION BOX - BLUE BOX", "note": "ON 12/24 AND 12/31, THIS BOX MAY BE COLLECTED AS EARLY AS 12 NOON.", "nsi_id": "unitedstatespostalservice-a77078", "operator": "United States Postal Service", "operator:short": "USPS", "operator:type": "public", "operator:wikidata": "Q668687", "ref": "4341000004"}, "type": "Feature"}
{"dataset_attributes": {"@spider": "usps_collection_boxes"}, "geometry": {"coordinates": [-82.975582341, 41.305145792], "type": "Point"}, "id": "lWNYTt3ZUvk3ojAGQiNPcA-BWj8=", "properties": {"@spider": "usps_collection_boxes", "addr:city": "CLYDE", "addr:country": "US", "addr:full": "131 W BUCKEYE ST", "addr:postcode": "43410", "addr:state": "OH", "amenity": "post_box", "brand": "United States Postal Service", "brand:wikidata": "Q668687", "collection_times": "Mo-Fr 16:30; Sa 15:30", "name": "USPS COLLECTION BOX - PO LOBBY", "note": "ON 12/24 AND 12/31, THIS BOX MAY BE COLLECTED AS EARLY AS 12 NOON.", "nsi_id": "unitedstatespostalservice-a77078", "operator": "United States Postal Service", "operator:short": "USPS", "operator:type": "public", "operator:wikidata": "Q668687", "ref": "4341000005"}, "type": "Feature"}
{"dataset_attributes": {"@spider": "usps_collection_boxes"}, "geometry": {"coordinates": [-82.975582341, 41.305145792], "type": "Point"}, "id": "xBKA1DpLIb4LmGQ7kCoQb_jiYGk=", "properties": {"@spider": "usps_collection_boxes", "addr:city": "CLYDE", "addr:country": "US", "addr:full": "131 W BUCKEYE ST", "addr:postcode": "43410", "addr:state": "OH", "amenity": "post_box", "brand": "United States Postal Service", "brand:wikidata": "Q668687", "collection_times": "Mo-Fr 16:30; Sa 15:30", "name": "USPS COLLECTION BOX - PO LOBBY", "note": "ON 12/24 AND 12/31, THIS BOX MAY BE COLLECTED AS EARLY AS 12 NOON.", "nsi_id": "unitedstatespostalservice-a77078", "operator": "United States Postal Service", "operator:short": "USPS", "operator:type": "public", "operator:wikidata": "Q668687", "ref": "4341000006"}, "type": "Feature"}
{"dataset_attributes": {"@spider": "usps_collection_boxes"}, "geometry": {"coordinates": [-82.975582341, 41.305145792], "type": "Point"}, "id": "ZmQ9-VRUJsIipgp1PJmjYveygio=", "properties": {"@spider": "usps_collection_boxes", "addr:city": "CLYDE", "addr:country": "US", "addr:full": "131 W BUCKEYE ST", "addr:postcode": "43410", "addr:state": "OH", "amenity": "post_box", "brand": "United States Postal Service", "brand:wikidata": "Q668687", "collection_times": "Mo-Fr 16:30; Sa 15:30", "name": "USPS COLLECTION BOX - PO LOBBY", "note": "ON 12/24 AND 12/31, THIS BOX MAY BE COLLECTED AS EARLY AS 12 NOON.", "nsi_id": "unitedstatespostalservice-a77078", "operator": "United States Postal Service", "operator:short": "USPS", "operator:type": "public", "operator:wikidata": "Q668687", "ref": "4341000007"}, "type": "Feature"}
{"dataset_attributes": {"@spider": "usps_collection_boxes"}, "geometry": {"coordinates": [-82.9848299, 41.301566], "type": "Point"}, "id": "X8FwNF6vf_gXQia-nsCQ3hIphYw=", "properties": {"@spider": "usps_collection_boxes", "addr:city": "CLYDE", "addr:country": "US", "addr:full": "505 W MAPLE ST", "addr:postcode": "43410", "addr:state": "OH", "amenity": "post_box", "brand": "United States Postal Service", "brand:wikidata": "Q668687", "collection_times": "Mo-Sa 11:00", "name": "USPS COLLECTION BOX - BLUE BOX", "nsi_id": "unitedstatespostalservice-a77078", "operator": "United States Postal Service", "operator:short": "USPS", "operator:type": "public", "operator:wikidata": "Q668687", "ref": "4341000008"}, "type": "Feature"}
{"dataset_attributes": {"@spider": "usps_collection_boxes"}, "geometry": {"coordinates": [-82.9747958, 41.305203], "type": "Point"}, "id": "vwLahmS7yWcIPuZA3gfVQWD9cvs=", "properties": {"@spider": "usps_collection_boxes", "addr:city": "CLYDE", "addr:country": "US", "addr:full": "100 S MAIN ST", "addr:postcode": "43410", "addr:state": "OH", "amenity": "post_box", "brand": "United States Postal Service", "brand:wikidata": "Q668687", "collection_times": "Mo-Sa 15:00", "name": "USPS COLLECTION BOX - BLUE BOX", "note": "ON 12/24 AND 12/31, THIS BOX MAY BE COLLECTED AS EARLY AS 12 NOON.", "nsi_id": "unitedstatespostalservice-a77078", "operator": "United States Postal Service", "operator:short": "USPS", "operator:type": "public", "operator:wikidata": "Q668687", "ref": "4341000010"}, "type": "Feature"}
{"dataset_attributes": {"@spider": "usps_collection_boxes"}, "geometry": {"coordinates": [-82.9899661, 41.313418], "type": "Point"}, "id": "WrwgQ0w4oON9q3cZ509MJqaZ0Rk=", "properties": {"@spider": "usps_collection_boxes", "addr:city": "CLYDE", "addr:country": "US", "addr:full": "1005 W MCPHERSON HWY", "addr:postcode": "43410", "addr:state": "OH", "amenity": "post_box", "brand": "United States Postal Service", "brand:wikidata": "Q668687", "collection_times": "Mo-Sa 13:00", "name": "USPS COLLECTION BOX - BLUE BOX", "note": "ON 12/24 AND 12/31, THIS BOX MAY BE COLLECTED AS EARLY AS 12 NOON.", "nsi_id": "unitedstatespostalservice-a77078", "operator": "United States Postal Service", "operator:short": "USPS", "operator:type": "public", "operator:wikidata": "Q668687", "ref": "4341000016"}, "type": "Feature"}
{"dataset_attributes": {"@spider": "usps_collection_boxes"}, "geometry": {"coordinates": [-83.0082761, 41.318334], "type": "Point"}, "id": "EKakoRi7layp5g6NW6C3390geH8=", "properties": {"@spider": "usps_collection_boxes", "addr:city": "CLYDE", "addr:country": "US", "addr:full": "1455 W MCPHERSON HWY", "addr:postcode": "43410", "addr:state": "OH", "amenity": "post_box", "brand": "United States Postal Service", "brand:wikidata": "Q668687", "collection_times": "Mo-Sa 13:00", "name": "USPS COLLECTION BOX - BLUE BOX", "note": "ON 12/24 AND 12/31, THIS BOX MAY BE COLLECTED AS EARLY AS 12 NOON.", "nsi_id": "unitedstatespostalservice-a77078", "operator": "United States Postal Service", "operator:short": "USPS", "operator:type": "public", "operator:wikidata": "Q668687", "ref": "4341000021"}, "type": "Feature"}
{"dataset_attributes": {"@spider": "usps_collection_boxes"}, "geometry": {"coordinates": [-82.9587449, 41.367936], "type": "Point"}, "id": "IABZH6xqPtBvRNInyJ_RrkqkHyo=", "properties": {"@spider": "usps_collection_boxes", "addr:city": "CLYDE", "addr:country": "US", "addr:full": "888 N COUNTY ROAD 260", "addr:postcode": "43410", "addr:state": "OH", "amenity": "post_box", "brand": "United States Postal Service", "brand:wikidata": "Q668687", "collection_times": "Mo-Sa 11:00", "name": "USPS COLLECTION BOX - BLUE BOX", "nsi_id": "unitedstatespostalservice-a77078", "operator": "United States Postal Service", "operator:short": "USPS", "operator:type": "public", "operator:wikidata": "Q668687", "ref": "4341000022"}, "type": "Feature"}
{"dataset_attributes": {"@spider": "usps_collection_boxes"}, "geometry": {"coordinates": [-82.9565499, 41.369007], "type": "Point"}, "id": "Vac0aozZ6RCRkDEyZrFZD27HC0U=", "properties": {"@spider": "usps_collection_boxes", "addr:city": "CLYDE", "addr:country": "US", "addr:full": "1012 N COUNTY ROAD 260", "addr:postcode": "43410", "addr:state": "OH", "amenity": "post_box", "brand": "United States Postal Service", "brand:wikidata": "Q668687", "collection_times": "Mo-Sa 11:00", "name": "USPS COLLECTION BOX - BLUE BOX", "nsi_id": "unitedstatespostalservice-a77078", "operator": "United States Postal Service", "operator:short": "USPS", "operator:type": "public", "operator:wikidata": "Q668687", "ref": "4341000023"}, "type": "Feature"}
{"dataset_attributes": {"@spider": "usps_collection_boxes"}, "geometry": {"coordinates": [-82.9917424, 41.315191], "type": "Point"}, "id": "4ms101wxcyu6KqElydoJNHyZioE=", "properties": {"@spider": "usps_collection_boxes", "addr:city": "CLYDE", "addr:country": "US", "addr:full": "1062 W MCPHERSON HWY", "addr:postcode": "43410", "addr:state": "OH", "amenity": "post_box", "brand": "United States Postal Service", "brand:wikidata": "Q668687", "collection_times": "Mo-Sa 09:30", "name": "USPS COLLECTION BOX - BLUE BOX", "nsi_id": "unitedstatespostalservice-a77078", "operator": "United States Postal Service", "operator:short": "USPS", "operator:type": "public", "operator:wikidata": "Q668687", "ref": "4341000024"}, "type": "Feature"}
{"dataset_attributes": {"@spider": "usps_collection_boxes"}, "geometry": {"coordinates": [-82.975582341, 41.305145792], "type": "Point"}, "id": "vqsmRmHCUgG6Qmw_N4wRRKCGS08=", "properties": {"@spider": "usps_collection_boxes", "addr:city": "CLYDE", "addr:country": "US", "addr:full": "131 W BUCKEYE ST", "addr:postcode": "43410", "addr:state": "OH", "amenity": "post_box", "brand": "United States Postal Service", "brand:wikidata": "Q668687", "collection_times": "Mo-Fr 16:30; Sa 12:00", "name": "USPS COLLECTION BOX - PO LOBBY", "note": "ON 12/24 AND 12/31, THIS BOX MAY BE COLLECTED AS EARLY AS 12 NOON.", "nsi_id": "unitedstatespostalservice-a77078", "operator": "United States Postal Service", "operator:short": "USPS", "operator:type": "public", "operator:wikidata": "Q668687", "ref": "4341000027"}, "type": "Feature"}
{"dataset_attributes": {"@spider": "usps_collection_boxes"}, "geometry": {"coordinates": [-83.1052266, 41.338708], "type": "Point"}, "id": "TJf1KiduHkVKSSIN_uT3cUs5-e8=", "properties": {"@spider": "usps_collection_boxes", "addr:city": "FREMONT", "addr:country": "US", "addr:full": "465 MORRISON ST", "addr:postcode": "43420", "addr:state": "OH", "amenity": "post_box", "brand": "United States Postal Service", "brand:wikidata": "Q668687", "collection_times": "Mo-Sa 10:00", "name": "USPS COLLECTION BOX - BLUE BOX", "nsi_id": "unitedstatespostalservice-a77078", "operator": "United States Postal Service", "operator:short": "USPS", "operator:type": "public", "operator:wikidata": "Q668687", "ref": "4342000012"}, "type": "Feature"}
{"dataset_attributes": {"@spider": "usps_collection_boxes"}, "geometry": {"coordinates": [-83.1335121, 41.34636], "type": "Point"}, "id": "a2Tigcn95sIy392d5uVzbTo6ULw=", "properties": {"@spider": "usps_collection_boxes", "addr:city": "FREMONT", "addr:country": "US", "addr:full": "101 S GRANVILLE BLVD", "addr:postcode": "43420", "addr:state": "OH", "amenity": "post_box", "brand": "United States Postal Service", "brand:wikidata": "Q668687", "collection_times": "Mo-Fr 10:30; Sa 09:15", "name": "USPS COLLECTION BOX - BLUE BOX", "nsi_id": "unitedstatespostalservice-a77078", "operator": "United States Postal Service", "operator:short": "USPS", "operator:type": "public", "operator:wikidata": "Q668687", "ref": "4342000020"}, "type": "Feature"}
{"dataset_attributes": {"@spider": "usps_collection_boxes"}, "geometry": {"coordinates": [-83.1231384, 41.355184], "type": "Point"}, "id": "hjSZ1h7SY9c4J60pQobMWbtbhXw=", "properties": {"@spider": "usps_collection_boxes", "addr:city": "FREMONT", "addr:country": "US", "addr:full": "1073 HAZEL ST", "addr:postcode": "43420", "addr:state": "OH", "amenity": "post_box", "brand": "United States Postal Service", "brand:wikidata": "Q668687", "collection_times": "Mo-Fr 13:00; Sa 10:00", "name": "USPS COLLECTION BOX - BLUE BOX", "note": "ON 12/24 AND 12/31, THIS BOX MAY BE COLLECTED AS EARLY AS 12 NOON.", "nsi_id": "unitedstatespostalservice-a77078", "operator": "United States Postal Service", "operator:short": "USPS", "operator:type": "public", "operator:wikidata": "Q668687", "ref": "4342000039"}, "type": "Feature"}
{"dataset_attributes": {"@spider": "usps_collection_boxes"}, "geometry": {"coordinates": [-83.0948023, 41.341955], "type": "Point"}, "id": "IxPyEDQDbB0PyJSh_bghjIhRREE=", "properties": {"@spider": "usps_collection_boxes", "addr:city": "FREMONT", "addr:country": "US", "addr:full": "1315 E STATE ST", "addr:postcode": "43420", "addr:state": "OH", "amenity": "post_box", "brand": "United States Postal Service", "brand:wikidata": "Q668687", "collection_times": "Mo-Sa 13:00", "name": "USPS COLLECTION BOX - BLUE BOX", "note": "ON 12/24 AND 12/31, THIS BOX MAY BE COLLECTED AS EARLY AS 12 NOON.", "nsi_id": "unitedstatespostalservice-a77078", "operator": "United States Postal Service", "operator:short": "USPS", "operator:type": "public", "operator:wikidata": "Q668687", "ref": "4342000043"}, "type": "Feature"}
{"dataset_attributes": {"@spider": "usps_collection_boxes"}, "geometry": {"coordinates": [-83.113496, 41.343701], "type": "Point"}, "id": "S3jae7DMikecPWTbC8us9xRsIOU=", "properties": {"@spider": "usps_collection_boxes", "addr:city": "FREMONT", "addr:country": "US", "addr:full": "323 S FRONT ST", "addr:postcode": "43420", "addr:state": "OH", "amenity": "post_box", "brand": "United States Postal Service", "brand:wikidata": "Q668687", "collection_times": "Mo-Sa 11:00", "name": "USPS COLLECTION BOX - BLUE BOX", "nsi_id": "unitedstatespostalservice-a77078", "operator": "United States Postal Service", "operator:short": "USPS", "operator:type": "public", "operator:wikidata": "Q668687", "ref": "4342000047"}, "type": "Feature"}
{"dataset_attributes": {"@spider": "usps_collection_boxes"}, "geometry": {"coordinates": [-83.1148163, 41.346577], "type": "Point"}, "id": "efEVca5h6SLAWp5SH6Gv_UFT5TU=", "properties": {"@spider": "usps_collection_boxes", "addr:city": "FREMONT", "addr:country": "US", "addr:full": "400 CROGHAN ST", "addr:postcode": "43420", "addr:state": "OH", "amenity": "post_box", "brand": "United States Postal Service", "brand:wikidata": "Q668687", "collection_times": "Mo-Sa 09:00", "name": "USPS COLLECTION BOX - BLUE BOX", "nsi_id": "unitedstatespostalservice-a77078", "operator": "United States Postal Service", "operator:short": "USPS", "operator:type": "public", "operator:wikidata": "Q668687", "ref": "4342000049"}, "type": "Feature"}
{"dataset_attributes": {"@spider": "usps_collection_boxes"}, "geometry": {"coordinates": [-83.1373426, 41.356845], "type": "Point"}, "id": "CbTmbgLkvuWf9em9cv2jLovL2MY=", "properties": {"@spider": "usps_collection_boxes", "addr:city": "FREMONT", "addr:country": "US", "addr:full": "2001 W STATE ST", "addr:postcode": "43420", "addr:state": "OH", "amenity": "post_box", "brand": "United States Postal Service", "brand:wikidata": "Q668687", "collection_times": "Mo-Fr 13:00; Sa 12:00", "name": "USPS COLLECTION BOX - BLUE BOX", "note": "ON 12/24 AND 12/31, THIS BOX MAY BE COLLECTED AS EARLY AS 12 NOON.", "nsi_id": "unitedstatespostalservice-a77078", "operator": "United States Postal Service", "operator:short": "USPS", "operator:type": "public", "operator:wikidata": "Q668687", "ref": "4342000050"}, "type": "Feature"}
{"dataset_attributes": {"@spider": "usps_collection_boxes"}, "geometry": {"coordinates": [-83.1200623, 41.346518], "type": "Point"}, "id": "vA4Lvi0q46_XjMmUacKbn1X96eI=", "properties": {"@spider": "usps_collection_boxes", "addr:city": "FREMONT", "addr:country": "US", "addr:full": "810 CROGHAN ST", "addr:postcode": "43420", "addr:state": "OH", "amenity": "post_box", "brand": "United States Postal Service", "brand:wikidata": "Q668687", "collection_times": "Mo-Sa 10:00", "name": "USPS COLLECTION BOX - BLUE BOX", "nsi_id": "unitedstatespostalservice-a77078", "operator": "United States Postal Service", "operator:short": "USPS", "operator:type": "public", "operator:wikidata": "Q668687", "ref": "4342000052"}, "type": "Feature"}
{"dataset_attributes": {"@spider": "usps_collection_boxes"}, "geometry": {"coordinates": [-83.1181159, 41.346816], "type": "Point"}, "id": "zuPkTHUNsYoPIGYaSXeij0wG3Jk=", "properties": {"@spider": "usps_collection_boxes", "addr:city": "FREMONT", "addr:country": "US", "addr:full": "100 N PARK ST", "addr:postcode": "43420", "addr:state": "OH", "amenity": "post_box", "brand": "United States Postal Service", "brand:wikidata": "Q668687", "collection_times": "Mo-Fr 16:00; Sa 11:00", "name": "USPS COLLECTION BOX - BLUE BOX", "note": "ON 12/24 AND 12/31, THIS BOX MAY BE COLLECTED AS EARLY AS 12 NOON.", "nsi_id": "unitedstatespostalservice-a77078", "operator": "United States Postal Service", "operator:short": "USPS", "operator:type": "public", "operator:wikidata": "Q668687", "ref": "4342000053"}, "type": "Feature"}
{"dataset_attributes": {"@spider": "usps_collection_boxes"}, "geometry": {"coordinates": [-83.131073, 41.32779], "type": "Point"}, "id": "9pUYttCZbNvSFzKfPLq2TLwh36g=", "properties": {"@spider": "usps_collection_boxes", "addr:city": "FREMONT", "addr:country": "US", "addr:full": "1600 RIVER ST", "addr:postcode": "43420", "addr:state": "OH", "amenity": "post_box", "brand": "United States Postal Service", "brand:wikidata": "Q668687", "collection_times": "Mo-Sa 13:00", "name": "USPS COLLECTION BOX - BLUE BOX", "note": "ON 12/24 AND 12/31, THIS BOX MAY BE COLLECTED AS EARLY AS 12 NOON.", "nsi_id": "unitedstatespostalservice-a77078", "operator": "United States Postal Service", "operator:short": "USPS", "operator:type": "public", "operator:wikidata": "Q668687", "ref": "4342000055"}, "type": "Feature"}
{"dataset_attributes": {"@spider": "usps_collection_boxes"}, "geometry": {"coordinates": [-83.1039674, 41.333813], "type": "Point"}, "id": "8Yr4c0QZasrDa4KIl04n5UF3WEg=", "properties": {"@spider": "usps_collection_boxes", "addr:city": "FREMONT", "addr:country": "US", "addr:full": "914 QUAIL DR", "addr:postcode": "43420", "addr:state": "OH", "amenity": "post_box", "brand": "United States Postal Service", "brand:wikidata": "Q668687", "collection_times": "Mo-Fr 11:00; Sa 10:30", "name": "USPS COLLECTION BOX - BLUE BOX", "nsi_id": "unitedstatespostalservice-a77078", "operator": "United States Postal Service", "operator:short": "USPS", "operator:type": "public", "operator:wikidata": "Q668687", "ref": "4342000060"}, "type": "Feature"}
{"dataset_attributes": {"@spider": "usps_collection_boxes"}, "geometry": {"coordinates": [-83.097197, 41.35353], "type": "Point"}, "id": "JupwDPLqAWWQQfvo-GdHCIaeIqw=", "properties": {"@spider": "usps_collection_boxes", "addr:city": "FREMONT", "addr:country": "US", "addr:full": "607 WALNUT ST", "addr:postcode": "43420", "addr:state": "OH", "amenity": "post_box", "brand": "United States Postal Service", "brand:wikidata": "Q668687", "collection_times": "Mo-Sa 11:00", "name": "USPS COLLECTION BOX - BLUE BOX", "nsi_id": "unitedstatespostalservice-a77078", "operator": "United States Postal Service", "operator:short": "USPS", "operator:type": "public", "operator:wikidata": "Q668687", "ref": "4342000063"}, "type": "Feature"}
{"dataset_attributes": {"@spider": "usps_collection_boxes"}, "geometry": {"coordinates": [-83.1327635, 41.370763], "type": "Point"}, "id": "8NaK0rWz42r_4rexWSSyYcS8e9o=", "properties": {"@spider": "usps_collection_boxes", "addr:city": "FREMONT", "addr:country": "US", "addr:full": "1825 N STATE ROUTE 19", "addr:postcode": "43420", "addr:state": "OH", "amenity": "post_box", "brand": "United States Postal Service", "brand:wikidata": "Q668687", "collection_times": "Mo-Fr 13:00; Sa 12:00", "name": "USPS COLLECTION BOX - BLUE BOX", "note": "ON 12/24 AND 12/31, THIS BOX MAY BE COLLECTED AS EARLY AS 12 NOON.", "nsi_id": "unitedstatespostalservice-a77078", "operator": "United States Postal Service", "operator:short": "USPS", "operator:type": "public", "operator:wikidata": "Q668687", "ref": "4342000065"}, "type": "Feature"}
{"dataset_attributes": {"@spider": "usps_collection_boxes"}, "geometry": {"coordinates": [-83.1381852, 41.359359], "type": "Point"}, "id": "2IzXGbfq37bdwCGxCbrmVr13uPs=", "properties": {"@spider": "usps_collection_boxes", "addr:city": "FREMONT", "addr:country": "US", "addr:full": "1140 OAK HARBOR RD", "addr:postcode": "43420", "addr:state": "OH", "amenity": "post_box", "brand": "United States Postal Service", "brand:wikidata": "Q668687", "collection_times": "Mo-Fr 13:00; Sa 11:00", "name": "USPS COLLECTION BOX - BLUE BOX", "note": "ON 12/24 AND 12/31, THIS BOX MAY BE COLLECTED AS EARLY AS 12 NOON.", "nsi_id": "unitedstatespostalservice-a77078", "operator": "United States Postal Service", "operator:short": "USPS", "operator:type": "public", "operator:wikidata": "Q668687", "ref": "4342000067"}, "type": "Feature"}
{"dataset_attributes": {"@spider": "usps_collection_boxes"}, "geometry": {"coordinates": [-83.1300463, 41.361532], "type": "Point"}, "id": "LWvItrdgBhrDgHTS0Et9BC7_z3s=", "properties": {"@spider": "usps_collection_boxes", "addr:city": "FREMONT", "addr:country": "US", "addr:full": "1504 NORTH ST", "addr:postcode": "43420", "addr:state": "OH", "amenity": "post_box", "brand": "United States Postal Service", "brand:wikidata": "Q668687", "collection_times": "Mo-Sa 10:00", "name": "USPS COLLECTION BOX - BLUE BOX", "nsi_id": "unitedstatespostalservice-a77078", "operator": "United States Postal Service", "operator:short": "USPS", "operator:type": "public", "operator:wikidata": "Q668687", "ref": "4342000074"}, "type": "Feature"}
{"dataset_attributes": {"@spider": "usps_collection_boxes"}, "geometry": {"coordinates": [-83.1092363, 41.366794], "type": "Point"}, "id": "ZXnj5yvQJT7WwG-yZy_9NMaW0rE=", "properties": {"@spider": "usps_collection_boxes", "addr:city": "FREMONT", "addr:country": "US", "addr:full": "1730 PORT CLINTON RD", "addr:postcode": "43420", "addr:state": "OH", "amenity": "post_box", "brand": "United States Postal Service", "brand:wikidata": "Q668687", "collection_times": "Mo-Fr 13:00; Sa 11:00", "name": "USPS COLLECTION BOX - BLUE BOX", "note": "ON 12/24 AND 12/31, THIS BOX MAY BE COLLECTED AS EARLY AS 12 NOON.", "nsi_id": "unitedstatespostalservice-a77078", "operator": "United States Postal Service", "operator:short": "USPS", "operator:type": "public", "operator:wikidata": "Q668687", "ref": "4342000076"}, "type": "Feature"}
{"dataset_attributes": {"@spider": "usps_collection_boxes"}, "geometry": {"coordinates": [-83.1070468, 41.380444], "type": "Point"}, "id": "riB8hMZ3-w4aVDTVyxiLs6rbScU=", "properties": {"@spider": "usps_collection_boxes", "addr:city": "FREMONT", "addr:country": "US", "addr:full": "2420 PORT CLINTON RD", "addr:postcode": "43420", "addr:state": "OH", "amenity": "post_box", "brand": "United States Postal Service", "brand:wikidata": "Q668687", "collection_times": "Mo-Fr 13:00; Sa 11:00", "name": "USPS COLLECTION BOX - BLUE BOX", "note": "ON 12/24 AND 12/31, THIS BOX MAY BE COLLECTED AS EARLY AS 12 NOON.", "nsi_id": "unitedstatespostalservice-a77078", "operator": "United States Postal Service", "operator:short": "USPS", "operator:type": "public", "operator:wikidata": "Q668687", "ref": "4342000078"}, "type": "Feature"}
{"dataset_attributes": {"@spider": "usps_collection_boxes"}, "geometry": {"coordinates": [-83.0477076, 41.326548], "type": "Point"}, "id": "zYNz6MIz2GIIKqnpZQ5EKfYYgbE=", "properties": {"@spider": "usps_collection_boxes", "addr:city": "FREMONT", "addr:country": "US", "addr:full": "740 COUNTY ROAD 212", "addr:postcode": "43420", "addr:state": "OH", "amenity": "post_box", "brand": "United States Postal Service", "brand:wikidata": "Q668687", "collection_times": "Mo-Sa 11:30", "name": "USPS COLLECTION BOX - BLUE BOX", "nsi_id": "unitedstatespostalservice-a77078", "operator": "United States Postal Service", "operator:short": "USPS", "operator:type": "public", "operator:wikidata": "Q668687", "ref": "4342000081"}, "type": "Feature"}
{"dataset_attributes": {"@spider": "usps_collection_boxes"}, "geometry": {"coordinates": [-83.114947424, 41.374482483], "type": "Point"}, "id": "b_kAUm9KjQr4RP_btpw9FVc2nuI=", "properties": {"@spider": "usps_collection_boxes", "addr:city": "FREMONT", "addr:country": "US", "addr:full": "2120 ENTERPRISE ST", "addr:postcode": "43420", "addr:state": "OH", "amenity": "post_box", "brand": "United States Postal Service", "brand:wikidata": "Q668687", "collection_times": "Mo-Fr 17:00; Sa 15:00", "name": "USPS COLLECTION BOX - PO LOBBY", "note": "ON 12/24 AND 12/31, THIS BOX MAY BE COLLECTED AS EARLY AS 12 NOON.", "nsi_id": "unitedstatespostalservice-a77078", "operator": "United States Postal Service", "operator:short": "USPS", "operator:type": "public", "operator:wikidata": "Q668687", "ref": "4342000083"}, "type": "Feature"}
{"dataset_attributes": {"@spider": "usps_collection_boxes"}, "geometry": {"coordinates": [-83.1135347, 41.344466], "type": "Point"}, "id": "MOYkhLAXRfAXANaqA_iLd5XU6S4=", "properties": {"@spider": "usps_collection_boxes", "addr:city": "FREMONT", "addr:country": "US", "addr:full": "227 S FRONT ST", "addr:postcode": "43420", "addr:state": "OH", "amenity": "post_box", "brand": "United States Postal Service", "brand:wikidata": "Q668687", "collection_times": "Mo-Fr 16:00; Sa 13:00", "name": "USPS COLLECTION BOX - BLUE BOX", "note": "ON 12/24 AND 12/31, THIS BOX MAY BE COLLECTED AS EARLY AS 12 NOON.", "nsi_id": "unitedstatespostalservice-a77078", "operator": "United States Postal Service", "operator:short": "USPS", "operator:type": "public", "operator:wikidata": "Q668687", "ref": "4342000085"}, "type": "Feature"}
{"dataset_attributes": {"@spider": "usps_collection_boxes"}, "geometry": {"coordinates": [-83.0796681, 41.356399], "type": "Point"}, "id": "TOU2JDgbSAk22oyygHAM2e3dp9g=", "properties": {"@spider": "usps_collection_boxes", "addr:city": "FREMONT", "addr:country": "US", "addr:full": "2511 COUNTRYSIDE DR", "addr:postcode": "43420", "addr:state": "OH", "amenity": "post_box", "brand": "United States Postal Service", "brand:wikidata": "Q668687", "collection_times": "Mo-Sa 09:00", "name": "USPS COLLECTION BOX - BLUE BOX", "nsi_id": "unitedstatespostalservice-a77078", "operator": "United States Postal Service", "operator:short": "USPS", "operator:type": "public", "operator:wikidata": "Q668687", "ref": "4342000086"}, "type": "Feature"}
{"dataset_attributes": {"@spider": "usps_collection_boxes"}, "geometry": {"coordinates": [-83.114947424, 41.374482483], "type": "Point"}, "id": "68eYLEP3uIRfH0D0d6714Z_p1BE=", "properties": {"@spider": "usps_collection_boxes", "addr:city": "FREMONT", "addr:country": "US", "addr:full": "2120 ENTERPRISE ST", "addr:postcode": "43420", "addr:state": "OH", "amenity": "post_box", "brand": "United States Postal Service", "brand:wikidata": "Q668687", "collection_times": "Mo-Fr 17:00; Sa 15:00", "name": "USPS COLLECTION BOX - BLUE BOX", "note": "ON 12/24 AND 12/31, THIS BOX MAY BE COLLECTED AS EARLY AS 12 NOON.", "nsi_id": "unitedstatespostalservice-a77078", "operator": "United States Postal Service", "operator:short": "USPS", "operator:type": "public", "operator:wikidata": "Q668687", "ref": "4342000087"}, "type": "Feature"}
{"dataset_attributes": {"@spider": "usps_collection_boxes"}, "geometry": {"coordinates": [-83.1143319, 41.345476], "type": "Point"}, "id": "wW1hN7oBs8v9v62Kze6sNogpTJ0=", "properties": {"@spider": "usps_collection_boxes", "addr:city": "FREMONT", "addr:country": "US", "addr:full": "315 GARRISON ST", "addr:postcode": "43420", "addr:state": "OH", "amenity": "post_box", "brand": "United States Postal Service", "brand:wikidata": "Q668687", "collection_times": "Mo-Fr 12:00; Sa 11:00", "name": "USPS COLLECTION BOX - BLUE BOX", "nsi_id": "unitedstatespostalservice-a77078", "operator": "United States Postal Service", "operator:short": "USPS", "operator:type": "public", "operator:wikidata": "Q668687", "ref": "4342000088"}, "type": "Feature"}
{"dataset_attributes": {"@spider": "usps_collection_boxes"}, "geometry": {"coordinates": [-83.1035720292, 41.3454790047], "type": "Point"}, "id": "H7qGgof2SYNeU1pyNVlDPscDlbs=", "properties": {"@spider": "usps_collection_boxes", "addr:city": "FREMONT", "addr:country": "US", "addr:full": "600 E. STATE ST", "addr:postcode": "43420", "addr:state": "OH", "amenity": "post_box", "brand": "United States Postal Service", "brand:wikidata": "Q668687", "collection_times": "Mo-Fr 11:00; Sa 10:00", "name": "USPS COLLECTION BOX - BLUE BOX", "nsi_id": "unitedstatespostalservice-a77078", "operator": "United States Postal Service", "operator:short": "USPS", "operator:type": "public", "operator:wikidata": "Q668687", "ref": "4342000090"}, "type": "Feature"}
{"dataset_attributes": {"@spider": "usps_collection_boxes"}, "geometry": {"coordinates": [-83.1032699, 41.336715], "type": "Point"}, "id": "C2seSjNNICZ31EDj2-vsXN4qLvw=", "properties": {"@spider": "usps_collection_boxes", "addr:city": "FREMONT", "addr:country": "US", "addr:full": "725 S BUCHANAN ST", "addr:postcode": "43420", "addr:state": "OH", "amenity": "post_box", "brand": "United States Postal Service", "brand:wikidata": "Q668687", "collection_times": "Mo-Fr 11:00; Sa 10:00", "name": "USPS COLLECTION BOX - BLUE BOX", "nsi_id": "unitedstatespostalservice-a77078", "operator": "United States Postal Service", "operator:short": "USPS", "operator:type": "public", "operator:wikidata": "Q668687", "ref": "4342000091"}, "type": "Feature"}
{"dataset_attributes": {"@spider": "usps_collection_boxes"}, "geometry": {"coordinates": [-83.114947424, 41.374482483], "type": "Point"}, "id": "Poq2M3-Sge7kQcNj_YOC9YPa62k=", "properties": {"@spider": "usps_collection_boxes", "addr:city": "FREMONT", "addr:country": "US", "addr:full": "2120 ENTERPRISE ST", "addr:postcode": "43420", "addr:state": "OH", "amenity": "post_box", "brand": "United States Postal Service", "brand:wikidata": "Q668687", "collection_times": "Mo-Fr 17:00; Sa 12:00", "name": "USPS COLLECTION BOX - PO LOBBY", "note": "ON 12/24 AND 12/31, THIS BOX MAY BE COLLECTED AS EARLY AS 12 NOON.", "nsi_id": "unitedstatespostalservice-a77078", "operator": "United States Postal Service", "operator:short": "USPS", "operator:type": "public", "operator:wikidata": "Q668687", "ref": "4342000099"}, "type": "Feature"}
{"dataset_attributes": {"@spider": "usps_collection_boxes"}, "geometry": {"coordinates": [-82.871589555, 41.505501949], "type": "Point"}, "id": "N2nLC0OWE-heK-_4OxSpHUDtDOA=", "properties": {"@spider": "usps_collection_boxes", "addr:city": "GYPSUM", "addr:country": "US", "addr:full": "2 MACKEY LN", "addr:postcode": "43433", "addr:state": "OH", "amenity": "post_box", "brand": "United States Postal Service", "brand:wikidata": "Q668687", "collection_times": "Mo-Fr 15:45; Sa 12:00", "name": "USPS COLLECTION BOX - PO LOBBY", "note": "ON 12/24 AND 12/31, THIS BOX MAY BE COLLECTED AS EARLY AS 12 NOON.", "nsi_id": "unitedstatespostalservice-a77078", "operator": "United States Postal Service", "operator:short": "USPS", "operator:type": "public", "operator:wikidata": "Q668687", "ref": "4343300000"}, "type": "Feature"}
{"dataset_attributes": {"@spider": "usps_collection_boxes"}, "geometry": {"coordinates": [-82.871589555, 41.505501949], "type": "Point"}, "id": "mVgmVgCsIVTbVX5mNH14kgfVwCY=", "properties": {"@spider": "usps_collection_boxes", "addr:city": "GYPSUM", "addr:country": "US", "addr:full": "2 MACKEY LN", "addr:postcode": "43433", "addr:state": "OH", "amenity": "post_box", "brand": "United States Postal Service", "brand:wikidata": "Q668687", "collection_times": "Mo-Fr 15:45; Sa 11:45", "name": "USPS COLLECTION BOX - BLUE BOX", "note": "ON 12/24 AND 12/31, THIS BOX MAY BE COLLECTED AS EARLY AS 12 NOON.", "nsi_id": "unitedstatespostalservice-a77078", "operator": "United States Postal Service", "operator:short": "USPS", "operator:type": "public", "operator:wikidata": "Q668687", "ref": "4343300001"}, "type": "Feature"}
{"dataset_attributes": {"@spider": "usps_collection_boxes"}, "geometry": {"coordinates": [-82.871589555, 41.505501949], "type": "Point"}, "id": "7lSGPtAF-h0dv6l4TjDQgugQYUw=", "properties": {"@spider": "usps_collection_boxes", "addr:city": "GYPSUM", "addr:country": "US", "addr:full": "2 MACKEY LN", "addr:postcode": "43433", "addr:state": "OH", "amenity": "post_box", "brand": "United States Postal Service", "brand:wikidata": "Q668687", "collection_times": "Mo-Fr 15:45; Sa 11:45", "name": "USPS COLLECTION BOX - PO LOBBY", "note": "ON 12/24 AND 12/31, THIS BOX MAY BE COLLECTED AS EARLY AS 12 NOON.", "nsi_id": "unitedstatespostalservice-a77078", "operator": "United States Postal Service", "operator:short": "USPS", "operator:type": "public", "operator:wikidata": "Q668687", "ref": "4343300005"}, "type": "Feature"}
{"dataset_attributes": {"@spider": "usps_collection_boxes"}, "geometry": {"coordinates": [-82.723421134, 41.595948211], "type": "Point"}, "id": "SUq0w1Pi58kBbJLmBkB-yq_CIgc=", "properties": {"@spider": "usps_collection_boxes", "addr:city": "KELLEY ISLAND", "addr:country": "US", "addr:full": "427 W LAKESHORE DR", "addr:postcode": "43438", "addr:state": "OH", "amenity": "post_box", "brand": "United States Postal Service", "brand:wikidata": "Q668687", "collection_times": "Mo-Sa 08:00", "name": "USPS COLLECTION BOX - BLUE BOX", "nsi_id": "unitedstatespostalservice-a77078", "operator": "United States Postal Service", "operator:short": "USPS", "operator:type": "public", "operator:wikidata": "Q668687", "ref": "4343800000"}, "type": "Feature"}
{"dataset_attributes": {"@spider": "usps_collection_boxes"}, "geometry": {"coordinates": [-82.723421134, 41.595948211], "type": "Point"}, "id": "JwUFkoThE77ftbd-cKM6wQuK93E=", "properties": {"@spider": "usps_collection_boxes", "addr:city": "KELLEY ISLAND", "addr:country": "US", "addr:full": "427 W LAKESHORE DR", "addr:postcode": "43438", "addr:state": "OH", "amenity": "post_box", "brand": "United States Postal Service", "brand:wikidata": "Q668687", "collection_times": "Mo-Sa 08:00", "name": "USPS COLLECTION BOX - PO LOBBY", "nsi_id": "unitedstatespostalservice-a77078", "operator": "United States Postal Service", "operator:short": "USPS", "operator:type": "public", "operator:wikidata": "Q668687", "ref": "4343800001"}, "type": "Feature"}
{"dataset_attributes": {"@spider": "usps_collection_boxes"}, "geometry": {"coordinates": [-82.723421134, 41.595948211], "type": "Point"}, "id": "1ZaG16h1VqoaA1zZq5YKAr5EPp4=", "properties": {"@spider": "usps_collection_boxes", "addr:city": "KELLEY ISLAND", "addr:country": "US", "addr:full": "427 W LAKESHORE DR", "addr:postcode": "43438", "addr:state": "OH", "amenity": "post_box", "brand": "United States Postal Service", "brand:wikidata": "Q668687", "collection_times": "Mo-Fr 15:00; Sa 12:00", "name": "USPS COLLECTION BOX - PO LOBBY", "note": "ON 12/24 AND 12/31, THIS BOX MAY BE COLLECTED AS EARLY AS 12 NOON.", "nsi_id": "unitedstatespostalservice-a77078", "operator": "United States Postal Service", "operator:short": "USPS", "operator:type": "public", "operator:wikidata": "Q668687", "ref": "4343800004"}, "type": "Feature"}
{"dataset_attributes": {"@spider": "usps_collection_boxes"}, "geometry": {"coordinates": [-83.043604279, 41.516792413], "type": "Point"}, "id": "QyF54z8pF00mtaxUQX7jz8jwRJE=", "properties": {"@spider": "usps_collection_boxes", "addr:city": "LACARNE", "addr:country": "US", "addr:full": "89 N MONROE ST", "addr:postcode": "43439", "addr:state": "OH", "amenity": "post_box", "brand": "United States Postal Service", "brand:wikidata": "Q668687", "collection_times": "Mo-Fr 16:00; Sa 11:45", "name": "USPS COLLECTION BOX - PO LOBBY", "note": "ON 12/24 AND 12/31, THIS BOX MAY BE COLLECTED AS EARLY AS 12 NOON.", "nsi_id": "unitedstatespostalservice-a77078", "operator": "United States Postal Service", "operator:short": "USPS", "operator:type": "public", "operator:wikidata": "Q668687", "ref": "4343900000"}, "type": "Feature"}
{"dataset_attributes": {"@spider": "usps_collection_boxes"}, "geometry": {"coordinates": [-83.043604279, 41.516792413], "type": "Point"}, "id": "SD4ztexhZNvVPUxoEg4IF8hKcwU=", "properties": {"@spider": "usps_collection_boxes", "addr:city": "LACARNE", "addr:country": "US", "addr:full": "89 N MONROE ST", "addr:postcode": "43439", "addr:state": "OH", "amenity": "post_box", "brand": "United States Postal Service", "brand:wikidata": "Q668687", "collection_times": "Mo-Fr 16:00; Sa 11:30", "name": "USPS COLLECTION BOX - BLUE BOX", "note": "ON 12/24 AND 12/31, THIS BOX MAY BE COLLECTED AS EARLY AS 12 NOON.", "nsi_id": "unitedstatespostalservice-a77078", "operator": "United States Postal Service", "operator:short": "USPS", "operator:type": "public", "operator:wikidata": "Q668687", "ref": "4343900001"}, "type": "Feature"}
{"dataset_attributes": {"@spider": "usps_collection_boxes"}, "geometry": {"coordinates": [-83.043604279, 41.516792413], "type": "Point"}, "id": "92psUdbgKO_aAVdEfGA428YpgNs=", "properties": {"@spider": "usps_collection_boxes", "addr:city": "LACARNE", "addr:country": "US", "addr:full": "89 N MONROE ST", "addr:postcode": "43439", "addr:state": "OH", "amenity": "post_box", "brand": "United States Postal Service", "brand:wikidata": "Q668687", "collection_times": "Mo-Fr 16:00; Sa 12:00", "name": "USPS COLLECTION BOX - PO LOBBY", "note": "ON 12/24 AND 12/31, THIS BOX MAY BE COLLECTED AS EARLY AS 12 NOON.", "nsi_id": "unitedstatespostalservice-a77078", "operator": "United States Postal Service", "operator:short": "USPS", "operator:type": "public", "operator:wikidata": "Q668687", "ref": "4343900004"}, "type": "Feature"}
{"dataset_attributes": {"@spider": "usps_collection_boxes"}, "geometry": {"coordinates": [-82.740522945, 41.539495472], "type": "Point"}, "id": "b9YLqa-ASA_rvX3qbLoB8w-U44o=", "properties": {"@spider": "usps_collection_boxes", "addr:city": "LKSID MARBLHD", "addr:country": "US", "addr:full": "1306 W MAIN ST", "addr:postcode": "43440", "addr:state": "OH", "amenity": "post_box", "brand": "United States Postal Service", "brand:wikidata": "Q668687", "collection_times": "Mo-Fr 15:45; Sa 12:00", "name": "USPS COLLECTION BOX - PO LOBBY", "note": "ON 12/24 AND 12/31, THIS BOX MAY BE COLLECTED AS EARLY AS 12 NOON.", "nsi_id": "unitedstatespostalservice-a77078", "operator": "United States Postal Service", "operator:short": "USPS", "operator:type": "public", "operator:wikidata": "Q668687", "ref": "4344000000"}, "type": "Feature"}
{"dataset_attributes": {"@spider": "usps_collection_boxes"}, "geometry": {"coordinates": [-82.740522945, 41.539495472], "type": "Point"}, "id": "lYwkjsknPwVWWkHCaDih67mJSIE=", "properties": {"@spider": "usps_collection_boxes", "addr:city": "LKSID MARBLHD", "addr:country": "US", "addr:full": "1306 W MAIN ST", "addr:postcode": "43440", "addr:state": "OH", "amenity": "post_box", "brand": "United States Postal Service", "brand:wikidata": "Q668687", "collection_times": "Mo-Fr 15:45; Sa 12:00", "name": "USPS COLLECTION BOX - PO LOBBY", "note": "ON 12/24 AND 12/31, THIS BOX MAY BE COLLECTED AS EARLY AS 12 NOON.", "nsi_id": "unitedstatespostalservice-a77078", "operator": "United States Postal Service", "operator:short": "USPS", "operator:type": "public", "operator:wikidata": "Q668687", "ref": "4344000001"}, "type": "Feature"}
{"dataset_attributes": {"@spider": "usps_collection_boxes"}, "geometry": {"coordinates": [-82.740522945, 41.539495472], "type": "Point"}, "id": "30B2ZRlSAqmtoWIfH5gBnKIBHMc=", "properties": {"@spider": "usps_collection_boxes", "addr:city": "LKSID MARBLHD", "addr:country": "US", "addr:full": "1306 W MAIN ST", "addr:postcode": "43440", "addr:state": "OH", "amenity": "post_box", "brand": "United States Postal Service", "brand:wikidata": "Q668687", "collection_times": "Mo-Fr 15:45; Sa 12:00", "name": "USPS COLLECTION BOX - BLUE BOX", "note": "ON 12/24 AND 12/31, THIS BOX MAY BE COLLECTED AS EARLY AS 12 NOON.", "nsi_id": "unitedstatespostalservice-a77078", "operator": "United States Postal Service", "operator:short": "USPS", "operator:type": "public", "operator:wikidata": "Q668687", "ref": "4344000003"}, "type": "Feature"}
{"dataset_attributes": {"@spider": "usps_collection_boxes"}, "geometry": {"coordinates": [-82.7501212, 41.544039], "type": "Point"}, "id": "1wiK07uOJw1Brkn-L_Cr0BvnKDo=", "properties": {"@spider": "usps_collection_boxes", "addr:city": "LKSID MARBLHD", "addr:country": "US", "addr:full": "236 WALNUT AVE", "addr:postcode": "43440", "addr:state": "OH", "amenity": "post_box", "brand": "United States Postal Service", "brand:wikidata": "Q668687", "collection_times": "Mo-Sa 09:00", "name": "USPS COLLECTION BOX - BLUE BOX", "nsi_id": "unitedstatespostalservice-a77078", "operator": "United States Postal Service", "operator:short": "USPS", "operator:type": "public", "operator:wikidata": "Q668687", "ref": "4344000005"}, "type": "Feature"}
{"dataset_attributes": {"@spider": "usps_collection_boxes"}, "geometry": {"coordinates": [-82.7532821, 41.541968], "type": "Point"}, "id": "pPgH8npDUsD91PDrWT5EkhBfPAg=", "properties": {"@spider": "usps_collection_boxes", "addr:city": "LKSID MARBLHD", "addr:country": "US", "addr:full": "395 N ERIE BEACH RD", "addr:postcode": "43440", "addr:state": "OH", "amenity": "post_box", "brand": "United States Postal Service", "brand:wikidata": "Q668687", "collection_times": "Mo-Sa 09:00", "name": "USPS COLLECTION BOX - BLUE BOX", "nsi_id": "unitedstatespostalservice-a77078", "operator": "United States Postal Service", "operator:short": "USPS", "operator:type": "public", "operator:wikidata": "Q668687", "ref": "4344000015"}, "type": "Feature"}
{"dataset_attributes": {"@spider": "usps_collection_boxes"}, "geometry": {"coordinates": [-82.7815794, 41.506383], "type": "Point"}, "id": "kagy56f9hO8jhOHwm4D4QVjV0fE=", "properties": {"@spider": "usps_collection_boxes", "addr:city": "LKSID MARBLHD", "addr:country": "US", "addr:full": "7948 E BAYSHORE RD", "addr:postcode": "43440", "addr:state": "OH", "amenity": "post_box", "brand": "United States Postal Service", "brand:wikidata": "Q668687", "collection_times": "Mo-Sa 10:00", "name": "USPS COLLECTION BOX - BLUE BOX", "nsi_id": "unitedstatespostalservice-a77078", "operator": "United States Postal Service", "operator:short": "USPS", "operator:type": "public", "operator:wikidata": "Q668687", "ref": "4344000016"}, "type": "Feature"}
{"dataset_attributes": {"@spider": "usps_collection_boxes"}, "geometry": {"coordinates": [-82.8240116, 41.529409], "type": "Point"}, "id": "7ny4lmbtZcaVY6VPXVKWpZNa7qY=", "properties": {"@spider": "usps_collection_boxes", "addr:city": "LKSID MARBLHD", "addr:country": "US", "addr:full": "5706 EAST HARBOR RD", "addr:postcode": "43440", "addr:state": "OH", "amenity": "post_box", "brand": "United States Postal Service", "brand:wikidata": "Q668687", "collection_times": "Mo-Sa 09:00", "name": "USPS COLLECTION BOX - BLUE BOX", "nsi_id": "unitedstatespostalservice-a77078", "operator": "United States Postal Service", "operator:short": "USPS", "operator:type": "public", "operator:wikidata": "Q668687", "ref": "4344000017"}, "type": "Feature"}
{"dataset_attributes": {"@spider": "usps_collection_boxes"}, "geometry": {"coordinates": [-82.8294999, 41.526581], "type": "Point"}, "id": "2yUJmWbxBbV-YvWdBMo7w853_hg=", "properties": {"@spider": "usps_collection_boxes", "addr:city": "LKSID MARBLHD", "addr:country": "US", "addr:full": "259 S BRIDGE RD", "addr:postcode": "43440", "addr:state": "OH", "amenity": "post_box", "brand": "United States Postal Service", "brand:wikidata": "Q668687", "collection_times": "Mo-Sa 11:00", "name": "USPS COLLECTION BOX - BLUE BOX", "nsi_id": "unitedstatespostalservice-a77078", "operator": "United States Postal Service", "operator:short": "USPS", "operator:type": "public", "operator:wikidata": "Q668687", "ref": "4344000018"}, "type": "Feature"}
{"dataset_attributes": {"@spider": "usps_collection_boxes"}, "geometry": {"coordinates": [-82.740522945, 41.539495472], "type": "Point"}, "id": "8E1r11Xw0H5RkXNqYOkBx3hBsNY=", "properties": {"@spider": "usps_collection_boxes", "addr:city": "LKSID MARBLHD", "addr:country": "US", "addr:full": "1306 W MAIN ST", "addr:postcode": "43440", "addr:state": "OH", "amenity": "post_box", "brand": "United States Postal Service", "brand:wikidata": "Q668687", "collection_times": "Mo-Fr 16:30; Sa 12:00", "name": "USPS COLLECTION BOX - PO LOBBY", "note": "ON 12/24 AND 12/31, THIS BOX MAY BE COLLECTED AS EARLY AS 12 NOON.", "nsi_id": "unitedstatespostalservice-a77078", "operator": "United States Postal Service", "operator:short": "USPS", "operator:type": "public", "operator:wikidata": "Q668687", "ref": "4344000021"}, "type": "Feature"}
{"dataset_attributes": {"@spider": "usps_collection_boxes"}, "geometry": {"coordinates": [-82.812474, 41.683326], "type": "Point"}, "id": "NwtawrVSOVhLjpA6QYdXmIBh_a8=", "properties": {"@spider": "usps_collection_boxes", "addr:city": "MIDDLEBASS", "addr:country": "US", "addr:full": "830 FOX RD", "addr:postcode": "43446", "addr:state": "OH", "amenity": "post_box", "brand": "United States Postal Service", "brand:wikidata": "Q668687", "collection_times": "Mo-Sa 08:45", "name": "USPS COLLECTION BOX - BLUE BOX", "nsi_id": "unitedstatespostalservice-a77078", "operator": "United States Postal Service", "operator:short": "USPS", "operator:type": "public", "operator:wikidata": "Q668687", "ref": "4344600000"}, "type": "Feature"}
{"dataset_attributes": {"@spider": "usps_collection_boxes"}, "geometry": {"coordinates": [-82.812395759, 41.682715669], "type": "Point"}, "id": "M_LZzvn5gttyiJY5wvs-J_t5zCs=", "properties": {"@spider": "usps_collection_boxes", "addr:city": "MIDDLEBASS", "addr:country": "US", "addr:full": "891 FOX RD", "addr:postcode": "43446", "addr:state": "OH", "amenity": "post_box", "brand": "United States Postal Service", "brand:wikidata": "Q668687", "collection_times": "Mo-Fr 14:00; Sa 12:00", "name": "USPS COLLECTION BOX - PO LOBBY", "note": "ON 12/24 AND 12/31, THIS BOX MAY BE COLLECTED AS EARLY AS 12 NOON.", "nsi_id": "unitedstatespostalservice-a77078", "operator": "United States Postal Service", "operator:short": "USPS", "operator:type": "public", "operator:wikidata": "Q668687", "ref": "4344600003"}, "type": "Feature"}
{"dataset_attributes": {"@spider": "usps_collection_boxes"}, "geometry": {"coordinates": [-83.14743583, 41.508512612], "type": "Point"}, "id": "pSiM9VQqCJyX_jFEuz4R_qnjvsE=", "properties": {"@spider": "usps_collection_boxes", "addr:city": "OAK HARBOR", "addr:country": "US", "addr:full": "126 N CHURCH ST", "addr:postcode": "43449", "addr:state": "OH", "amenity": "post_box", "brand": "United States Postal Service", "brand:wikidata": "Q668687", "collection_times": "Mo-Fr 16:30; Sa 15:00", "name": "USPS COLLECTION BOX - BLUE BOX", "note": "ON 12/24 AND 12/31, THIS BOX MAY BE COLLECTED AS EARLY AS 12 NOON.", "nsi_id": "unitedstatespostalservice-a77078", "operator": "United States Postal Service", "operator:short": "USPS", "operator:type": "public", "operator:wikidata": "Q668687", "ref": "4344900010"}, "type": "Feature"}
{"dataset_attributes": {"@spider": "usps_collection_boxes"}, "geometry": {"coordinates": [-83.1522139, 41.508516], "type": "Point"}, "id": "er_euWCLdcBfJbz8V-Fh4zKyA_c=", "properties": {"@spider": "usps_collection_boxes", "addr:city": "OAK HARBOR", "addr:country": "US", "addr:full": "404 W MAIN ST", "addr:postcode": "43449", "addr:state": "OH", "amenity": "post_box", "brand": "United States Postal Service", "brand:wikidata": "Q668687", "collection_times": "Mo-Sa 09:00", "name": "USPS COLLECTION BOX - BLUE BOX", "nsi_id": "unitedstatespostalservice-a77078", "operator": "United States Postal Service", "operator:short": "USPS", "operator:type": "public", "operator:wikidata": "Q668687", "ref": "4344900013"}, "type": "Feature"}
{"dataset_attributes": {"@spider": "usps_collection_boxes"}, "geometry": {"coordinates": [-83.1451368, 41.51325], "type": "Point"}, "id": "tS28kYVWuwHwb2ohSEoZXL7pSPU=", "properties": {"@spider": "usps_collection_boxes", "addr:city": "OAK HARBOR", "addr:country": "US", "addr:full": "321 N LOCUST ST", "addr:postcode": "43449", "addr:state": "OH", "amenity": "post_box", "brand": "United States Postal Service", "brand:wikidata": "Q668687", "collection_times": "Mo-Sa 09:00", "name": "USPS COLLECTION BOX - BLUE BOX", "nsi_id": "unitedstatespostalservice-a77078", "operator": "United States Postal Service", "operator:short": "USPS", "operator:type": "public", "operator:wikidata": "Q668687", "ref": "4344900015"}, "type": "Feature"}
{"dataset_attributes": {"@spider": "usps_collection_boxes"}, "geometry": {"coordinates": [-83.1488933, 41.507582], "type": "Point"}, "id": "nHGQLnmKf1EtV1fW6WaeViaP6cg=", "properties": {"@spider": "usps_collection_boxes", "addr:city": "OAK HARBOR", "addr:country": "US", "addr:full": "279 W WATER ST", "addr:postcode": "43449", "addr:state": "OH", "amenity": "post_box", "brand": "United States Postal Service", "brand:wikidata": "Q668687", "collection_times": "Mo-Sa 09:30", "name": "USPS COLLECTION BOX - BLUE BOX", "nsi_id": "unitedstatespostalservice-a77078", "operator": "United States Postal Service", "operator:short": "USPS", "operator:type": "public", "operator:wikidata": "Q668687", "ref": "4344900017"}, "type": "Feature"}
{"dataset_attributes": {"@spider": "usps_collection_boxes"}, "geometry": {"coordinates": [-83.14743583, 41.508512612], "type": "Point"}, "id": "mVIb0ZREYGjKUrvJRKl3_iZlT4I=", "properties": {"@spider": "usps_collection_boxes", "addr:city": "OAK HARBOR", "addr:country": "US", "addr:full": "126 N CHURCH ST", "addr:postcode": "43449", "addr:state": "OH", "amenity": "post_box", "brand": "United States Postal Service", "brand:wikidata": "Q668687", "collection_times": "Mo-Fr 16:30; Sa 15:00", "name": "USPS COLLECTION BOX - PO LOBBY", "note": "ON 12/24 AND 12/31, THIS BOX MAY BE COLLECTED AS EARLY AS 12 NOON.", "nsi_id": "unitedstatespostalservice-a77078", "operator": "United States Postal Service", "operator:short": "USPS", "operator:type": "public", "operator:wikidata": "Q668687", "ref": "4344900018"}, "type": "Feature"}
{"dataset_attributes": {"@spider": "usps_collection_boxes"}, "geometry": {"coordinates": [-83.14743583, 41.508512612], "type": "Point"}, "id": "xH1Xwfw4MfNgYKt6vj6BHgWHfZk=", "properties": {"@spider": "usps_collection_boxes", "addr:city": "OAK HARBOR", "addr:country": "US", "addr:full": "126 N CHURCH ST", "addr:postcode": "43449", "addr:state": "OH", "amenity": "post_box", "brand": "United States Postal Service", "brand:wikidata": "Q668687", "collection_times": "Mo-Fr 16:30; Sa 12:00", "name": "USPS COLLECTION BOX - PO LOBBY", "note": "ON 12/24 AND 12/31, THIS BOX MAY BE COLLECTED AS EARLY AS 12 NOON.", "nsi_id": "unitedstatespostalservice-a77078", "operator": "United States Postal Service", "operator:short": "USPS", "operator:type": "public", "operator:wikidata": "Q668687", "ref": "4344900021"}, "type": "Feature"}
{"dataset_attributes": {"@spider": "usps_collection_boxes"}, "geometry": {"coordinates": [-82.9373694, 41.512022], "type": "Point"}, "id": "zEKIZzb7cuCRqylRSUpBLHU3om4=", "properties": {"@spider": "usps_collection_boxes", "addr:city": "PORT CLINTON", "addr:country": "US", "addr:full": "235 E 2ND ST", "addr:postcode": "43452", "addr:state": "OH", "amenity": "post_box", "brand": "United States Postal Service", "brand:wikidata": "Q668687", "collection_times": "Mo-Sa 12:45", "name": "USPS COLLECTION BOX - BLUE BOX", "note": "ON 12/24 AND 12/31, THIS BOX MAY BE COLLECTED AS EARLY AS 12 NOON.", "nsi_id": "unitedstatespostalservice-a77078", "operator": "United States Postal Service", "operator:short": "USPS", "operator:type": "public", "operator:wikidata": "Q668687", "ref": "4345200000"}, "type": "Feature"}
{"dataset_attributes": {"@spider": "usps_collection_boxes"}, "geometry": {"coordinates": [-82.9526859, 41.50963], "type": "Point"}, "id": "pi2P-NHr9HIjZzcJEOdb2AndJvo=", "properties": {"@spider": "usps_collection_boxes", "addr:city": "PORT CLINTON", "addr:country": "US", "addr:full": "715 BATAAN LN", "addr:postcode": "43452", "addr:state": "OH", "amenity": "post_box", "brand": "United States Postal Service", "brand:wikidata": "Q668687", "collection_times": "Mo-Sa 10:00", "name": "USPS COLLECTION BOX - BLUE BOX", "nsi_id": "unitedstatespostalservice-a77078", "operator": "United States Postal Service", "operator:short": "USPS", "operator:type": "public", "operator:wikidata": "Q668687", "ref": "4345200002"}, "type": "Feature"}
{"dataset_attributes": {"@spider": "usps_collection_boxes"}, "geometry": {"coordinates": [-82.9409686, 41.511852], "type": "Point"}, "id": "yuKSi_Z_fMVcjBto2BoZWJGD8bs=", "properties": {"@spider": "usps_collection_boxes", "addr:city": "PORT CLINTON", "addr:country": "US", "addr:full": "201 MADISON ST", "addr:postcode": "43452", "addr:state": "OH", "amenity": "post_box", "brand": "United States Postal Service", "brand:wikidata": "Q668687", "collection_times": "Mo-Sa 12:45", "name": "USPS COLLECTION BOX - BLUE BOX", "note": "ON 12/24 AND 12/31, THIS BOX MAY BE COLLECTED AS EARLY AS 12 NOON.", "nsi_id": "unitedstatespostalservice-a77078", "operator": "United States Postal Service", "operator:short": "USPS", "operator:type": "public", "operator:wikidata": "Q668687", "ref": "4345200003"}, "type": "Feature"}
{"dataset_attributes": {"@spider": "usps_collection_boxes"}, "geometry": {"coordinates": [-82.943218, 41.512329], "type": "Point"}, "id": "YGtXUBCuiFy6sJ8akqCVWb1q_Tw=", "properties": {"@spider": "usps_collection_boxes", "addr:city": "PORT CLINTON", "addr:country": "US", "addr:full": "120 MONROE ST", "addr:postcode": "43452", "addr:state": "OH", "amenity": "post_box", "brand": "United States Postal Service", "brand:wikidata": "Q668687", "collection_times": "Mo-Fr 16:15; Sa 15:30", "name": "USPS COLLECTION BOX - BLUE BOX", "note": "ON 12/24 AND 12/31, THIS BOX MAY BE COLLECTED AS EARLY AS 12 NOON.", "nsi_id": "unitedstatespostalservice-a77078", "operator": "United States Postal Service", "operator:short": "USPS", "operator:type": "public", "operator:wikidata": "Q668687", "ref": "4345200006"}, "type": "Feature"}
{"dataset_attributes": {"@spider": "usps_collection_boxes"}, "geometry": {"coordinates": [-82.9399707, 41.509543], "type": "Point"}, "id": "Do61PIquE080-Mka8qnxphboY_s=", "properties": {"@spider": "usps_collection_boxes", "addr:city": "PORT CLINTON", "addr:country": "US", "addr:full": "315 MADISON ST", "addr:postcode": "43452", "addr:state": "OH", "amenity": "post_box", "brand": "United States Postal Service", "brand:wikidata": "Q668687", "collection_times": "Mo-Fr 15:00", "name": "USPS COLLECTION BOX - BLUE BOX", "note": "ON 12/24 AND 12/31, THIS BOX MAY BE COLLECTED AS EARLY AS 12 NOON.", "nsi_id": "unitedstatespostalservice-a77078", "operator": "United States Postal Service", "operator:short": "USPS", "operator:type": "public", "operator:wikidata": "Q668687", "ref": "4345200009"}, "type": "Feature"}
{"dataset_attributes": {"@spider": "usps_collection_boxes"}, "geometry": {"coordinates": [-82.9198421, 41.514092], "type": "Point"}, "id": "SnCDnFsQeJMHLAvQEWKIEd6UqoI=", "properties": {"@spider": "usps_collection_boxes", "addr:city": "PORT CLINTON", "addr:country": "US", "addr:full": "1634 E PERRY ST", "addr:postcode": "43452", "addr:state": "OH", "amenity": "post_box", "brand": "United States Postal Service", "brand:wikidata": "Q668687", "collection_times": "Mo-Sa 09:00", "name": "USPS COLLECTION BOX - BLUE BOX", "nsi_id": "unitedstatespostalservice-a77078", "operator": "United States Postal Service", "operator:short": "USPS", "operator:type": "public", "operator:wikidata": "Q668687", "ref": "4345200010"}, "type": "Feature"}
{"dataset_attributes": {"@spider": "usps_collection_boxes"}, "geometry": {"coordinates": [-82.9107121, 41.513615], "type": "Point"}, "id": "EjbChWS7rfUB2wuGpBroAbFsfGY=", "properties": {"@spider": "usps_collection_boxes", "addr:city": "PORT CLINTON", "addr:country": "US", "addr:full": "1860 E PERRY ST", "addr:postcode": "43452", "addr:state": "OH", "amenity": "post_box", "brand": "United States Postal Service", "brand:wikidata": "Q668687", "collection_times": "Mo-Sa 11:00", "name": "USPS COLLECTION BOX - BLUE BOX", "nsi_id": "unitedstatespostalservice-a77078", "operator": "United States Postal Service", "operator:short": "USPS", "operator:type": "public", "operator:wikidata": "Q668687", "ref": "4345200011"}, "type": "Feature"}
{"dataset_attributes": {"@spider": "usps_collection_boxes"}, "geometry": {"coordinates": [-82.8561148, 41.523085], "type": "Point"}, "id": "o-WDWB3iBiYjutdx3Mso1bJ8xLU=", "properties": {"@spider": "usps_collection_boxes", "addr:city": "PORT CLINTON", "addr:country": "US", "addr:full": "3994 EAST HARBOR RD", "addr:postcode": "43452", "addr:state": "OH", "amenity": "post_box", "brand": "United States Postal Service", "brand:wikidata": "Q668687", "collection_times": "Mo-Sa 13:00", "name": "USPS COLLECTION BOX - BLUE BOX", "note": "ON 12/24 AND 12/31, THIS BOX MAY BE COLLECTED AS EARLY AS 12 NOON.", "nsi_id": "unitedstatespostalservice-a77078", "operator": "United States Postal Service", "operator:short": "USPS", "operator:type": "public", "operator:wikidata": "Q668687", "ref": "4345200013"}, "type": "Feature"}
{"dataset_attributes": {"@spider": "usps_collection_boxes"}, "geometry": {"coordinates": [-82.8629105, 41.520657], "type": "Point"}, "id": "wZ_Ic9q7QaPAO3O7_1ibbLS79BE=", "properties": {"@spider": "usps_collection_boxes", "addr:city": "PORT CLINTON", "addr:country": "US", "addr:full": "2826 EAST HARBOR RD", "addr:postcode": "43452", "addr:state": "OH", "amenity": "post_box", "brand": "United States Postal Service", "brand:wikidata": "Q668687", "collection_times": "Mo-Sa 10:00", "name": "USPS COLLECTION BOX - BLUE BOX", "nsi_id": "unitedstatespostalservice-a77078", "operator": "United States Postal Service", "operator:short": "USPS", "operator:type": "public", "operator:wikidata": "Q668687", "ref": "4345200014"}, "type": "Feature"}
{"dataset_attributes": {"@spider": "usps_collection_boxes"}, "geometry": {"coordinates": [-82.8585246, 41.508056], "type": "Point"}, "id": "TFurAvhs68Sy7Ysdj5sL2NvQiao=", "properties": {"@spider": "usps_collection_boxes", "addr:city": "PORT CLINTON", "addr:country": "US", "addr:full": "3800 E STATE RD", "addr:postcode": "43452", "addr:state": "OH", "amenity": "post_box", "brand": "United States Postal Service", "brand:wikidata": "Q668687", "collection_times": "Mo-Sa 10:00", "name": "USPS COLLECTION BOX - BLUE BOX", "nsi_id": "unitedstatespostalservice-a77078", "operator": "United States Postal Service", "operator:short": "USPS", "operator:type": "public", "operator:wikidata": "Q668687", "ref": "4345200015"}, "type": "Feature"}
{"dataset_attributes": {"@spider": "usps_collection_boxes"}, "geometry": {"coordinates": [-82.9172186, 41.513363], "type": "Point"}, "id": "CDnENZb-F8uhob6EmDNUPOxfhds=", "properties": {"@spider": "usps_collection_boxes", "addr:city": "PORT CLINTON", "addr:country": "US", "addr:full": "100 MORNINGSIDE DR", "addr:postcode": "43452", "addr:state": "OH", "amenity": "post_box", "brand": "United States Postal Service", "brand:wikidata": "Q668687", "collection_times": "Mo-Sa 09:00", "name": "USPS COLLECTION BOX - BLUE BOX", "nsi_id": "unitedstatespostalservice-a77078", "operator": "United States Postal Service", "operator:short": "USPS", "operator:type": "public", "operator:wikidata": "Q668687", "ref": "4345200023"}, "type": "Feature"}
{"dataset_attributes": {"@spider": "usps_collection_boxes"}, "geometry": {"coordinates": [-82.9302149, 41.512121], "type": "Point"}, "id": "xu6i4SlSGZwdLYtXJYCIVetHh-Y=", "properties": {"@spider": "usps_collection_boxes", "addr:city": "PORT CLINTON", "addr:country": "US", "addr:full": "129 LINCOLN DR", "addr:postcode": "43452", "addr:state": "OH", "amenity": "post_box", "brand": "United States Postal Service", "brand:wikidata": "Q668687", "collection_times": "Mo-Sa 12:50", "name": "USPS COLLECTION BOX - BLUE BOX", "note": "ON 12/24 AND 12/31, THIS BOX MAY BE COLLECTED AS EARLY AS 12 NOON.", "nsi_id": "unitedstatespostalservice-a77078", "operator": "United States Postal Service", "operator:short": "USPS", "operator:type": "public", "operator:wikidata": "Q668687", "ref": "4345200028"}, "type": "Feature"}
{"dataset_attributes": {"@spider": "usps_collection_boxes"}, "geometry": {"coordinates": [-82.943218, 41.512329], "type": "Point"}, "id": "gQ60WsWgvxXs9Dqq11e4LBGl-cc=", "properties": {"@spider": "usps_collection_boxes", "addr:city": "PORT CLINTON", "addr:country": "US", "addr:full": "120 MONROE ST", "addr:postcode": "43452", "addr:state": "OH", "amenity": "post_box", "brand": "United States Postal Service", "brand:wikidata": "Q668687", "collection_times": "Mo-Fr 16:30; Sa 15:30", "name": "USPS COLLECTION BOX - BLUE BOX", "note": "ON 12/24 AND 12/31, THIS BOX MAY BE COLLECTED AS EARLY AS 12 NOON.", "nsi_id": "unitedstatespostalservice-a77078", "operator": "United States Postal Service", "operator:short": "USPS", "operator:type": "public", "operator:wikidata": "Q668687", "ref": "4345200035"}, "type": "Feature"}
{"dataset_attributes": {"@spider": "usps_collection_boxes"}, "geometry": {"coordinates": [-82.941566, 41.511885], "type": "Point"}, "id": "5WH1VGf6p3tk1GWmQdaLx63FmKo=", "properties": {"@spider": "usps_collection_boxes", "addr:city": "PORT CLINTON", "addr:country": "US", "addr:full": "121 W 2ND ST", "addr:postcode": "43452", "addr:state": "OH", "amenity": "post_box", "brand": "United States Postal Service", "brand:wikidata": "Q668687", "collection_times": "Mo-Fr 16:30; Sa 15:30", "name": "USPS COLLECTION BOX - BLUE BOX", "note": "ON 12/24 AND 12/31, THIS BOX MAY BE COLLECTED AS EARLY AS 12 NOON.", "nsi_id": "unitedstatespostalservice-a77078", "operator": "United States Postal Service", "operator:short": "USPS", "operator:type": "public", "operator:wikidata": "Q668687", "ref": "4345200036"}, "type": "Feature"}
{"dataset_attributes": {"@spider": "usps_collection_boxes"}, "geometry": {"coordinates": [-82.941504, 41.511912], "type": "Point"}, "id": "_-DXMi59p9B4jjqmJ3d3oXb3aAo=", "properties": {"@spider": "usps_collection_boxes", "addr:city": "PORT CLINTON", "addr:country": "US", "addr:full": "121 W 2ND ST", "addr:postcode": "43452", "addr:state": "OH", "amenity": "post_box", "brand": "United States Postal Service", "brand:wikidata": "Q668687", "collection_times": "Mo-Fr 16:30; Sa 15:30", "name": "USPS COLLECTION BOX - PO LOBBY", "note": "ON 12/24 AND 12/31, THIS BOX MAY BE COLLECTED AS EARLY AS 12 NOON.", "nsi_id": "unitedstatespostalservice-a77078", "operator": "United States Postal Service", "operator:short": "USPS", "operator:type": "public", "operator:wikidata": "Q668687", "ref": "4345200037"}, "type": "Feature"}
{"dataset_attributes": {"@spider": "usps_collection_boxes"}, "geometry": {"coordinates": [-82.8594838, 41.52393], "type": "Point"}, "id": "19RQVP0r0sPZ7a-Zf0sZxYptS3M=", "properties": {"@spider": "usps_collection_boxes", "addr:city": "PORT CLINTON", "addr:country": "US", "addr:full": "3805 EAST HARBOR RD", "addr:postcode": "43452", "addr:state": "OH", "amenity": "post_box", "brand": "United States Postal Service", "brand:wikidata": "Q668687", "collection_times": "Mo-Sa 12:45", "name": "USPS COLLECTION BOX - BLUE BOX", "note": "ON 12/24 AND 12/31, THIS BOX MAY BE COLLECTED AS EARLY AS 12 NOON.", "nsi_id": "unitedstatespostalservice-a77078", "operator": "United States Postal Service", "operator:short": "USPS", "operator:type": "public", "operator:wikidata": "Q668687", "ref": "4345200040"}, "type": "Feature"}
{"dataset_attributes": {"@spider": "usps_collection_boxes"}, "geometry": {"coordinates": [-82.9028249, 41.514307], "type": "Point"}, "id": "8rtq5d8nvVRhm2pGbHiDKQ7KjK0=", "properties": {"@spider": "usps_collection_boxes", "addr:city": "PORT CLINTON", "addr:country": "US", "addr:full": "2028 EAST HARBOR RD", "addr:postcode": "43452", "addr:state": "OH", "amenity": "post_box", "brand": "United States Postal Service", "brand:wikidata": "Q668687", "collection_times": "Mo-Sa 12:00", "name": "USPS COLLECTION BOX - BLUE BOX", "nsi_id": "unitedstatespostalservice-a77078", "operator": "United States Postal Service", "operator:short": "USPS", "operator:type": "public", "operator:wikidata": "Q668687", "ref": "4345200041"}, "type": "Feature"}
{"dataset_attributes": {"@spider": "usps_collection_boxes"}, "geometry": {"coordinates": [-82.8366139, 41.584626], "type": "Point"}, "id": "HHjeYx3sBfp7H3iR_WgIqAFsp6o=", "properties": {"@spider": "usps_collection_boxes", "addr:city": "PORT CLINTON", "addr:country": "US", "addr:full": "4184 N CROGAN ST", "addr:postcode": "43452", "addr:state": "OH", "amenity": "post_box", "brand": "United States Postal Service", "brand:wikidata": "Q668687", "collection_times": "Mo-Sa 11:30", "name": "USPS COLLECTION BOX - BLUE BOX", "nsi_id": "unitedstatespostalservice-a77078", "operator": "United States Postal Service", "operator:short": "USPS", "operator:type": "public", "operator:wikidata": "Q668687", "ref": "4345200042"}, "type": "Feature"}
{"dataset_attributes": {"@spider": "usps_collection_boxes"}, "geometry": {"coordinates": [-82.9424025, 41.5118794846], "type": "Point"}, "id": "Kt6m3xEn2sKZSoRsgOdcmzBeRpw=", "properties": {"@spider": "usps_collection_boxes", "addr:city": "PORT CLINTON", "addr:country": "US", "addr:full": "121 W 2ND ST", "addr:postcode": "43452", "addr:state": "OH", "amenity": "post_box", "brand": "United States Postal Service", "brand:wikidata": "Q668687", "collection_times": "Mo-Fr 16:30; Sa 12:00", "name": "USPS COLLECTION BOX - PO LOBBY", "note": "ON 12/24 AND 12/31, THIS BOX MAY BE COLLECTED AS EARLY AS 12 NOON.", "nsi_id": "unitedstatespostalservice-a77078", "operator": "United States Postal Service", "operator:short": "USPS", "operator:type": "public", "operator:wikidata": "Q668687", "ref": "4345200045"}, "type": "Feature"}
{"dataset_attributes": {"@spider": "usps_collection_boxes"}, "geometry": {"coordinates": [-82.816673031, 41.648293339], "type": "Point"}, "id": "gTzDZS8w5nsUS4Z9YySZdkmeAbc=", "properties": {"@spider": "usps_collection_boxes", "addr:city": "PUT IN BAY", "addr:country": "US", "addr:full": "425 LANGRAM RD", "addr:postcode": "43456", "addr:state": "OH", "amenity": "post_box", "brand": "United States Postal Service", "brand:wikidata": "Q668687", "collection_times": "Mo-Sa 07:45", "name": "USPS COLLECTION BOX - BLUE BOX", "nsi_id": "unitedstatespostalservice-a77078", "operator": "United States Postal Service", "operator:short": "USPS", "operator:type": "public", "operator:wikidata": "Q668687", "ref": "4345600000"}, "type": "Feature"}
{"dataset_attributes": {"@spider": "usps_collection_boxes"}, "geometry": {"coordinates": [-82.816673031, 41.648293339], "type": "Point"}, "id": "qsq-HTqDT77EccBRdiQuOrjv3RE=", "properties": {"@spider": "usps_collection_boxes", "addr:city": "PUT IN BAY", "addr:country": "US", "addr:full": "425 LANGRAM RD", "addr:postcode": "43456", "addr:state": "OH", "amenity": "post_box", "brand": "United States Postal Service", "brand:wikidata": "Q668687", "collection_times": "Mo-Sa 08:45", "name": "USPS COLLECTION BOX - PO LOBBY", "nsi_id": "unitedstatespostalservice-a77078", "operator": "United States Postal Service", "operator:short": "USPS", "operator:type": "public", "operator:wikidata": "Q668687", "ref": "4345600001"}, "type": "Feature"}
{"dataset_attributes": {"@spider": "usps_collection_boxes"}, "geometry": {"coordinates": [-82.816673031, 41.648293339], "type": "Point"}, "id": "52LIeySFTw8WIeNh1Hm7dUhZRig=", "properties": {"@spider": "usps_collection_boxes", "addr:city": "PUT IN BAY", "addr:country": "US", "addr:full": "425 LANGRAM RD", "addr:postcode": "43456", "addr:state": "OH", "amenity": "post_box", "brand": "United States Postal Service", "brand:wikidata": "Q668687", "collection_times": "Mo-Sa 08:45", "name": "USPS COLLECTION BOX - PO LOBBY", "nsi_id": "unitedstatespostalservice-a77078", "operator": "United States Postal Service", "operator:short": "USPS", "operator:type": "public", "operator:wikidata": "Q668687", "ref": "4345600002"}, "type": "Feature"}
{"dataset_attributes": {"@spider": "usps_collection_boxes"}, "geometry": {"coordinates": [-82.816673031, 41.648293339], "type": "Point"}, "id": "o_4p4wyaouj4y0IGKN7WnBREtnM=", "properties": {"@spider": "usps_collection_boxes", "addr:city": "PUT IN BAY", "addr:country": "US", "addr:full": "425 LANGRAM RD", "addr:postcode": "43456", "addr:state": "OH", "amenity": "post_box", "brand": "United States Postal Service", "brand:wikidata": "Q668687", "collection_times": "Mo-Sa 09:00", "name": "USPS COLLECTION BOX - PO LOBBY", "nsi_id": "unitedstatespostalservice-a77078", "operator": "United States Postal Service", "operator:short": "USPS", "operator:type": "public", "operator:wikidata": "Q668687", "ref": "4345600005"}, "type": "Feature"}
{"dataset_attributes": {"@spider": "usps_collection_boxes"}, "geometry": {"coordinates": [-82.934652711, 41.386705801], "type": "Point"}, "id": "JxDT4i7TdOjeringUSJglG21DuA=", "properties": {"@spider": "usps_collection_boxes", "addr:city": "VICKERY", "addr:country": "US", "addr:full": "5110 COUNTY ROAD 247", "addr:postcode": "43464", "addr:state": "OH", "amenity": "post_box", "brand": "United States Postal Service", "brand:wikidata": "Q668687", "collection_times": "Mo-Fr 16:15; Sa 11:15", "name": "USPS COLLECTION BOX - BLUE BOX", "note": "ON 12/24 AND 12/31, THIS BOX MAY BE COLLECTED AS EARLY AS 12 NOON.", "nsi_id": "unitedstatespostalservice-a77078", "operator": "United States Postal Service", "operator:short": "USPS", "operator:type": "public", "operator:wikidata": "Q668687", "ref": "4346400000"}, "type": "Feature"}
{"dataset_attributes": {"@spider": "usps_collection_boxes"}, "geometry": {"coordinates": [-82.934652711, 41.386705801], "type": "Point"}, "id": "N-X3GIxR9g3ZCTMyZlQXczsxyvg=", "properties": {"@spider": "usps_collection_boxes", "addr:city": "VICKERY", "addr:country": "US", "addr:full": "5110 COUNTY ROAD 247", "addr:postcode": "43464", "addr:state": "OH", "amenity": "post_box", "brand": "United States Postal Service", "brand:wikidata": "Q668687", "collection_times": "Mo-Fr 16:15; Sa 11:15", "name": "USPS COLLECTION BOX - PO LOBBY", "note": "ON 12/24 AND 12/31, THIS BOX MAY BE COLLECTED AS EARLY AS 12 NOON.", "nsi_id": "unitedstatespostalservice-a77078", "operator": "United States Postal Service", "operator:short": "USPS", "operator:type": "public", "operator:wikidata": "Q668687", "ref": "4346400001"}, "type": "Feature"}
{"dataset_attributes": {"@spider": "usps_collection_boxes"}, "geometry": {"coordinates": [-82.934652711, 41.386705801], "type": "Point"}, "id": "7spmogZbDkgGlhSw85tDsRPJV_E=", "properties": {"@spider": "usps_collection_boxes", "addr:city": "VICKERY", "addr:country": "US", "addr:full": "5110 COUNTY ROAD 247", "addr:postcode": "43464", "addr:state": "OH", "amenity": "post_box", "brand": "United States Postal Service", "brand:wikidata": "Q668687", "collection_times": "Mo-Fr 16:15; Sa 11:30", "name": "USPS COLLECTION BOX - PO LOBBY", "note": "ON 12/24 AND 12/31, THIS BOX MAY BE COLLECTED AS EARLY AS 12 NOON.", "nsi_id": "unitedstatespostalservice-a77078", "operator": "United States Postal Service", "operator:short": "USPS", "operator:type": "public", "operator:wikidata": "Q668687", "ref": "4346400004"}, "type": "Feature"}
