{"geometry": {"coordinates": [-83.5449161, 41.641732], "type": "Point"}, "id": "SgyXVEd0pbJlJ86TGUeJXvBOOKE=", "properties": {"@source_uri": "https://tools.usps.com/UspsToolsRestServices/rest/POLocator/findLocations", "@spider": "usps_collection_boxes", "addr:city": "TOLEDO", "addr:country": "US", "addr:postcode": "43601", "addr:state": "OH", "addr:street_address": "435 S SAINT CLAIR ST", "amenity": "post_box", "collection_times": "Mo-Fr 17:30; Sa 17:00", "note": "ON 12/24 AND 12/31, THIS BOX MAY BE COLLECTED AS EARLY AS 12 NOON.", "nsi_id": "unitedstatespostalservice-a77078", "operator": "United States Postal Service", "operator:short": "USPS", "operator:type": "public", "operator:wikidata": "Q668687", "ref": "4360100001"}, "type": "Feature"}
{"geometry": {"coordinates": [-83.545035229, 41.641688714], "type": "Point"}, "id": "Pg7F_RWomxwiaEeaqfxyjfy6bL8=", "properties": {"@source_uri": "https://tools.usps.com/UspsToolsRestServices/rest/POLocator/findLocations", "@spider": "usps_collection_boxes", "addr:city": "TOLEDO", "addr:country": "US", "addr:postcode": "43601", "addr:state": "OH", "addr:street_address": "435 S SAINT CLAIR ST", "amenity": "post_box", "collection_times": "Mo-Fr 17:30; Sa 17:00", "note": "ON 12/24 AND 12/31, THIS BOX MAY BE COLLECTED AS EARLY AS 12 NOON.", "nsi_id": "unitedstatespostalservice-a77078", "operator": "United States Postal Service", "operator:short": "USPS", "operator:type": "public", "operator:wikidata": "Q668687", "ref": "4360100002"}, "type": "Feature"}
{"geometry": {"coordinates": [-83.54507, 41.641707], "type": "Point"}, "id": "2LlX_DexHoTF3FTwIcqD8YBgypM=", "properties": {"@source_uri": "https://tools.usps.com/UspsToolsRestServices/rest/POLocator/findLocations", "@spider": "usps_collection_boxes", "addr:city": "TOLEDO", "addr:country": "US", "addr:postcode": "43601", "addr:state": "OH", "addr:street_address": "435 S SAINT CLAIR ST", "amenity": "post_box", "collection_times": "Mo-Fr 17:30", "indoor": "yes", "note": "ON 12/24 AND 12/31, THIS BOX MAY BE COLLECTED AS EARLY AS 12 NOON.", "nsi_id": "unitedstatespostalservice-a77078", "operator": "United States Postal Service", "operator:short": "USPS", "operator:type": "public", "operator:wikidata": "Q668687", "ref": "4360100006"}, "type": "Feature"}
{"geometry": {"coordinates": [-83.54507, 41.641707], "type": "Point"}, "id": "FYA9DoF6QlWlyZ1eN7wU32M9KWw=", "properties": {"@source_uri": "https://tools.usps.com/UspsToolsRestServices/rest/POLocator/findLocations", "@spider": "usps_collection_boxes", "addr:city": "TOLEDO", "addr:country": "US", "addr:postcode": "43601", "addr:state": "OH", "addr:street_address": "435 S SAINT CLAIR ST", "amenity": "post_box", "collection_times": "Mo-Fr 17:30", "indoor": "yes", "note": "ON 12/24 AND 12/31, THIS BOX MAY BE COLLECTED AS EARLY AS 12 NOON.", "nsi_id": "unitedstatespostalservice-a77078", "operator": "United States Postal Service", "operator:short": "USPS", "operator:type": "public", "operator:wikidata": "Q668687", "ref": "4360100007"}, "type": "Feature"}
{"geometry": {"coordinates": [-83.54507, 41.641707], "type": "Point"}, "id": "JOYbw0UNDi5tBCkkyCA9Cfwh6tQ=", "properties": {"@source_uri": "https://tools.usps.com/UspsToolsRestServices/rest/POLocator/findLocations", "@spider": "usps_collection_boxes", "addr:city": "TOLEDO", "addr:country": "US", "addr:postcode": "43601", "addr:state": "OH", "addr:street_address": "435 S SAINT CLAIR ST", "amenity": "post_box", "collection_times": "Mo-Fr 17:30", "indoor": "yes", "note": "ON 12/24 AND 12/31, THIS BOX MAY BE COLLECTED AS EARLY AS 12 NOON.", "nsi_id": "unitedstatespostalservice-a77078", "operator": "United States Postal Service", "operator:short": "USPS", "operator:type": "public", "operator:wikidata": "Q668687", "ref": "4360100008"}, "type": "Feature"}
{"geometry": {"coordinates": [-83.545035229, 41.641688714], "type": "Point"}, "id": "hmQIgHtHckrcdiMkizcE7I11FDQ=", "properties": {"@source_uri": "https://tools.usps.com/UspsToolsRestServices/rest/POLocator/findLocations", "@spider": "usps_collection_boxes", "addr:city": "TOLEDO", "addr:country": "US", "addr:postcode": "43601", "addr:state": "OH", "addr:street_address": "435 S SAINT CLAIR ST", "amenity": "post_box", "collection_times": "Mo-Fr 17:30; Sa 17:00", "indoor": "yes", "note": "ON 12/24 AND 12/31, THIS BOX MAY BE COLLECTED AS EARLY AS 12 NOON.", "nsi_id": "unitedstatespostalservice-a77078", "operator": "United States Postal Service", "operator:short": "USPS", "operator:type": "public", "operator:wikidata": "Q668687", "ref": "4360100018"}, "type": "Feature"}
{"geometry": {"coordinates": [-83.5365434, 41.654011], "type": "Point"}, "id": "HPIsMjgfTb5fCdyory8S-crvRlo=", "properties": {"@source_uri": "https://tools.usps.com/UspsToolsRestServices/rest/POLocator/findLocations", "@spider": "usps_collection_boxes", "addr:city": "TOLEDO", "addr:country": "US", "addr:postcode": "43604", "addr:state": "OH", "addr:street_address": "625 ADAMS ST", "amenity": "post_box", "collection_times": "Mo-Fr 11:45; Sa 13:00", "note": "ON 12/24 AND 12/31, THIS BOX MAY BE COLLECTED AS EARLY AS 12 NOON.", "nsi_id": "unitedstatespostalservice-a77078", "operator": "United States Postal Service", "operator:short": "USPS", "operator:type": "public", "operator:wikidata": "Q668687", "ref": "4360400038"}, "type": "Feature"}
{"geometry": {"coordinates": [-83.5353888, 41.652361], "type": "Point"}, "id": "qz9UnBkTUhzda-A48v4UQBJ65Zo=", "properties": {"@source_uri": "https://tools.usps.com/UspsToolsRestServices/rest/POLocator/findLocations", "@spider": "usps_collection_boxes", "addr:city": "TOLEDO", "addr:country": "US", "addr:postcode": "43604", "addr:state": "OH", "addr:street_address": "319 N SUPERIOR ST", "amenity": "post_box", "collection_times": "Mo-Fr 11:30; Sa 13:30", "note": "ON 12/24 AND 12/31, THIS BOX MAY BE COLLECTED AS EARLY AS 12 NOON.", "nsi_id": "unitedstatespostalservice-a77078", "operator": "United States Postal Service", "operator:short": "USPS", "operator:type": "public", "operator:wikidata": "Q668687", "ref": "4360400041"}, "type": "Feature"}
{"geometry": {"coordinates": [-83.5327649, 41.654409], "type": "Point"}, "id": "DWSs1bc390V2YWzuq4HZoykYPw4=", "properties": {"@source_uri": "https://tools.usps.com/UspsToolsRestServices/rest/POLocator/findLocations", "@spider": "usps_collection_boxes", "addr:city": "TOLEDO", "addr:country": "US", "addr:postcode": "43604", "addr:state": "OH", "addr:street_address": "400 JACKSON ST", "amenity": "post_box", "collection_times": "Mo-Fr 11:15; Sa 13:30", "note": "ON 12/24 AND 12/31, THIS BOX MAY BE COLLECTED AS EARLY AS 12 NOON.", "nsi_id": "unitedstatespostalservice-a77078", "operator": "United States Postal Service", "operator:short": "USPS", "operator:type": "public", "operator:wikidata": "Q668687", "ref": "4360400052"}, "type": "Feature"}
{"geometry": {"coordinates": [-83.539835, 41.65356], "type": "Point"}, "id": "xfeXZRLnTW2QW2x4oTH2dQZka4E=", "properties": {"@source_uri": "https://tools.usps.com/UspsToolsRestServices/rest/POLocator/findLocations", "@spider": "usps_collection_boxes", "addr:city": "TOLEDO", "addr:country": "US", "addr:postcode": "43604", "addr:state": "OH", "addr:street_address": "600 N ERIE ST", "amenity": "post_box", "collection_times": "Mo-Fr 11:00; Sa 13:15", "note": "ON 12/24 AND 12/31, THIS BOX MAY BE COLLECTED AS EARLY AS 12 NOON.", "nsi_id": "unitedstatespostalservice-a77078", "operator": "United States Postal Service", "operator:short": "USPS", "operator:type": "public", "operator:wikidata": "Q668687", "ref": "4360400067"}, "type": "Feature"}
{"geometry": {"coordinates": [-83.5374163726, 41.6516301281], "type": "Point"}, "id": "FifQn4IVsUskthOG9TulnlY227s=", "properties": {"@source_uri": "https://tools.usps.com/UspsToolsRestServices/rest/POLocator/findLocations", "@spider": "usps_collection_boxes", "addr:city": "TOLEDO", "addr:country": "US", "addr:postcode": "43604", "addr:state": "OH", "addr:street_address": "243 N HURON ST", "amenity": "post_box", "collection_times": "Mo-Fr 13:00; Sa 14:00", "note": "ON 12/24 AND 12/31, THIS BOX MAY BE COLLECTED AS EARLY AS 12 NOON.", "nsi_id": "unitedstatespostalservice-a77078", "operator": "United States Postal Service", "operator:short": "USPS", "operator:type": "public", "operator:wikidata": "Q668687", "ref": "4360400074"}, "type": "Feature"}
{"geometry": {"coordinates": [-83.5358949928, 41.6517955775], "type": "Point"}, "id": "lVoGbwqF4xAsowJgNhkGDAj32aA=", "properties": {"@source_uri": "https://tools.usps.com/UspsToolsRestServices/rest/POLocator/findLocations", "@spider": "usps_collection_boxes", "addr:city": "TOLEDO", "addr:country": "US", "addr:postcode": "43604", "addr:state": "OH", "addr:street_address": "501 MADISON AVE", "amenity": "post_box", "collection_times": "Mo-Fr 12:45; Sa 13:45", "note": "ON 12/24 AND 12/31, THIS BOX MAY BE COLLECTED AS EARLY AS 12 NOON.", "nsi_id": "unitedstatespostalservice-a77078", "operator": "United States Postal Service", "operator:short": "USPS", "operator:type": "public", "operator:wikidata": "Q668687", "ref": "4360400094"}, "type": "Feature"}
{"geometry": {"coordinates": [-83.5327449, 41.655248], "type": "Point"}, "id": "b5twtBVAZA39RTYTEYX_YL8H0dI=", "properties": {"@source_uri": "https://tools.usps.com/UspsToolsRestServices/rest/POLocator/findLocations", "@spider": "usps_collection_boxes", "addr:city": "TOLEDO", "addr:country": "US", "addr:postcode": "43604", "addr:state": "OH", "addr:street_address": "541 N SUPERIOR ST", "amenity": "post_box", "collection_times": "Mo-Fr 11:15; Sa 13:30", "note": "ON 12/24 AND 12/31, THIS BOX MAY BE COLLECTED AS EARLY AS 12 NOON.", "nsi_id": "unitedstatespostalservice-a77078", "operator": "United States Postal Service", "operator:short": "USPS", "operator:type": "public", "operator:wikidata": "Q668687", "ref": "4360400105"}, "type": "Feature"}
{"geometry": {"coordinates": [-83.5354816023, 41.6516341543], "type": "Point"}, "id": "HghSu_-y2-FduO8EQwx3WSv0jRk=", "properties": {"@source_uri": "https://tools.usps.com/UspsToolsRestServices/rest/POLocator/findLocations", "@spider": "usps_collection_boxes", "addr:city": "TOLEDO", "addr:country": "US", "addr:postcode": "43604", "addr:state": "OH", "addr:street_address": "405 MADISON AVE", "amenity": "post_box", "collection_times": "Mo-Fr 12:30; Sa 13:45", "note": "ON 12/24 AND 12/31, THIS BOX MAY BE COLLECTED AS EARLY AS 12 NOON.", "nsi_id": "unitedstatespostalservice-a77078", "operator": "United States Postal Service", "operator:short": "USPS", "operator:type": "public", "operator:wikidata": "Q668687", "ref": "4360400112"}, "type": "Feature"}
{"geometry": {"coordinates": [-83.536191, 41.649894], "type": "Point"}, "id": "DqLZKpAjWHwfM83Z4ZtEyWZyQsg=", "properties": {"@source_uri": "https://tools.usps.com/UspsToolsRestServices/rest/POLocator/findLocations", "@spider": "usps_collection_boxes", "addr:city": "TOLEDO", "addr:country": "US", "addr:postcode": "43604", "addr:state": "OH", "addr:street_address": "401 JEFFERSON AVE", "amenity": "post_box", "collection_times": "Mo-Fr 11:45; Sa 15:00", "note": "ON 12/24 AND 12/31, THIS BOX MAY BE COLLECTED AS EARLY AS 12 NOON.", "nsi_id": "unitedstatespostalservice-a77078", "operator": "United States Postal Service", "operator:short": "USPS", "operator:type": "public", "operator:wikidata": "Q668687", "ref": "4360400113"}, "type": "Feature"}
{"geometry": {"coordinates": [-83.536024, 41.64835], "type": "Point"}, "id": "b4FlhnVsGVwKaLOVL7ge2_ZWaEo=", "properties": {"@source_uri": "https://tools.usps.com/UspsToolsRestServices/rest/POLocator/findLocations", "@spider": "usps_collection_boxes", "addr:city": "TOLEDO", "addr:country": "US", "addr:postcode": "43604", "addr:state": "OH", "addr:street_address": "4 SEAGATE", "amenity": "post_box", "collection_times": "Mo-Fr 13:30", "note": "ON 12/24 AND 12/31, THIS BOX MAY BE COLLECTED AS EARLY AS 12 NOON.", "nsi_id": "unitedstatespostalservice-a77078", "operator": "United States Postal Service", "operator:short": "USPS", "operator:type": "public", "operator:wikidata": "Q668687", "ref": "4360400133"}, "type": "Feature"}
{"geometry": {"coordinates": [-83.5356861, 41.652037], "type": "Point"}, "id": "VLouk2r2kt3_A8ukm7rP4S-vdYA=", "properties": {"@source_uri": "https://tools.usps.com/UspsToolsRestServices/rest/POLocator/findLocations", "@spider": "usps_collection_boxes", "addr:city": "TOLEDO", "addr:country": "US", "addr:postcode": "43604", "addr:state": "OH", "addr:street_address": "420 MADISON AVE", "amenity": "post_box", "collection_times": "Mo-Fr 12:45", "note": "ON 12/24 AND 12/31, THIS BOX MAY BE COLLECTED AS EARLY AS 12 NOON.", "nsi_id": "unitedstatespostalservice-a77078", "operator": "United States Postal Service", "operator:short": "USPS", "operator:type": "public", "operator:wikidata": "Q668687", "ref": "4360400136"}, "type": "Feature"}
{"geometry": {"coordinates": [-83.5376955, 41.652678], "type": "Point"}, "id": "sIDrUL4vUNyFsFJnAktlb66J9qw=", "properties": {"@source_uri": "https://tools.usps.com/UspsToolsRestServices/rest/POLocator/findLocations", "@spider": "usps_collection_boxes", "addr:city": "TOLEDO", "addr:country": "US", "addr:postcode": "43604", "addr:state": "OH", "addr:street_address": "626 MADISON AVE", "amenity": "post_box", "collection_times": "Mo-Fr 13:15; Sa 14:15", "note": "ON 12/24 AND 12/31, THIS BOX MAY BE COLLECTED AS EARLY AS 12 NOON.", "nsi_id": "unitedstatespostalservice-a77078", "operator": "United States Postal Service", "operator:short": "USPS", "operator:type": "public", "operator:wikidata": "Q668687", "ref": "4360400163"}, "type": "Feature"}
{"geometry": {"coordinates": [-83.535697024, 41.653903998], "type": "Point"}, "id": "v9ZoAoKXK4fVSl9fZBcx24n_ahY=", "properties": {"@source_uri": "https://tools.usps.com/UspsToolsRestServices/rest/POLocator/findLocations", "@spider": "usps_collection_boxes", "addr:city": "TOLEDO", "addr:country": "US", "addr:postcode": "43604", "addr:state": "OH", "addr:street_address": "405 N HURON ST", "amenity": "post_box", "collection_times": "Mo-Fr 11:30; Sa 13:00", "note": "ON 12/24 AND 12/31, THIS BOX MAY BE COLLECTED AS EARLY AS 12 NOON.", "nsi_id": "unitedstatespostalservice-a77078", "operator": "United States Postal Service", "operator:short": "USPS", "operator:type": "public", "operator:wikidata": "Q668687", "ref": "4360400173"}, "type": "Feature"}
{"geometry": {"coordinates": [-83.5285786, 41.653964], "type": "Point"}, "id": "9QH0KRtMwvNIJZq2T3S5L5UsfB0=", "properties": {"@source_uri": "https://tools.usps.com/UspsToolsRestServices/rest/POLocator/findLocations", "@spider": "usps_collection_boxes", "addr:city": "TOLEDO", "addr:country": "US", "addr:postcode": "43604", "addr:state": "OH", "addr:street_address": "1 MARITIME PLZ", "amenity": "post_box", "collection_times": "Mo-Fr 14:00; Sa 12:45", "note": "ON 12/24 AND 12/31, THIS BOX MAY BE COLLECTED AS EARLY AS 12 NOON.", "nsi_id": "unitedstatespostalservice-a77078", "operator": "United States Postal Service", "operator:short": "USPS", "operator:type": "public", "operator:wikidata": "Q668687", "ref": "4360400187"}, "type": "Feature"}
{"geometry": {"coordinates": [-83.539835, 41.65356], "type": "Point"}, "id": "pmkH5hskoBGAcXVWQhZxzSx7Oo4=", "properties": {"@source_uri": "https://tools.usps.com/UspsToolsRestServices/rest/POLocator/findLocations", "@spider": "usps_collection_boxes", "addr:city": "TOLEDO", "addr:country": "US", "addr:postcode": "43604", "addr:state": "OH", "addr:street_address": "125 WATER ST", "amenity": "post_box", "collection_times": "Mo-Fr 12:00; Sa 12:30", "note": "ON 12/24 AND 12/31, THIS BOX MAY BE COLLECTED AS EARLY AS 12 NOON.", "nsi_id": "unitedstatespostalservice-a77078", "operator": "United States Postal Service", "operator:short": "USPS", "operator:type": "public", "operator:wikidata": "Q668687", "ref": "4360400193"}, "type": "Feature"}
{"geometry": {"coordinates": [-83.5550836, 41.643617], "type": "Point"}, "id": "XA14aERphIczisXiPlAsJqal9P4=", "properties": {"@source_uri": "https://tools.usps.com/UspsToolsRestServices/rest/POLocator/findLocations", "@spider": "usps_collection_boxes", "addr:city": "TOLEDO", "addr:country": "US", "addr:postcode": "43604", "addr:state": "OH", "addr:street_address": "525 HAMILTON ST", "amenity": "post_box", "collection_times": "Mo-Fr 09:30; Sa 11:45", "nsi_id": "unitedstatespostalservice-a77078", "operator": "United States Postal Service", "operator:short": "USPS", "operator:type": "public", "operator:wikidata": "Q668687", "ref": "4360400200"}, "type": "Feature"}
{"geometry": {"coordinates": [-83.5394122, 41.655494], "type": "Point"}, "id": "5zNIBh3xUyH1mXOLLHDvwAko4Rg=", "properties": {"@source_uri": "https://tools.usps.com/UspsToolsRestServices/rest/POLocator/findLocations", "@spider": "usps_collection_boxes", "addr:city": "TOLEDO", "addr:country": "US", "addr:postcode": "43604", "addr:state": "OH", "addr:street_address": "1000 ADAMS ST", "amenity": "post_box", "collection_times": "Mo-Fr 11:30; Sa 13:00", "note": "ON 12/24 AND 12/31, THIS BOX MAY BE COLLECTED AS EARLY AS 12 NOON.", "nsi_id": "unitedstatespostalservice-a77078", "operator": "United States Postal Service", "operator:short": "USPS", "operator:type": "public", "operator:wikidata": "Q668687", "ref": "4360400208"}, "type": "Feature"}
{"geometry": {"coordinates": [-83.5377383, 41.656975], "type": "Point"}, "id": "jFnA6IW0DOi58OFqNapCHvwHAig=", "properties": {"@source_uri": "https://tools.usps.com/UspsToolsRestServices/rest/POLocator/findLocations", "@spider": "usps_collection_boxes", "addr:city": "TOLEDO", "addr:country": "US", "addr:postcode": "43604", "addr:state": "OH", "addr:street_address": "1701 CANTON AVE", "amenity": "post_box", "collection_times": "Mo-Fr 10:15; Sa 12:15", "note": "ON 12/24 AND 12/31, THIS BOX MAY BE COLLECTED AS EARLY AS 12 NOON.", "nsi_id": "unitedstatespostalservice-a77078", "operator": "United States Postal Service", "operator:short": "USPS", "operator:type": "public", "operator:wikidata": "Q668687", "ref": "4360400210"}, "type": "Feature"}
{"geometry": {"coordinates": [-83.5383487, 41.652368], "type": "Point"}, "id": "oRrasTQwxc4T4CR5Y8D-cy5VJfg=", "properties": {"@source_uri": "https://tools.usps.com/UspsToolsRestServices/rest/POLocator/findLocations", "@spider": "usps_collection_boxes", "addr:city": "TOLEDO", "addr:country": "US", "addr:postcode": "43604", "addr:state": "OH", "addr:street_address": "235 N ERIE ST", "amenity": "post_box", "collection_times": "Mo-Fr 16:30; Sa 15:15", "note": "ON 12/24 AND 12/31, THIS BOX MAY BE COLLECTED AS EARLY AS 12 NOON.", "nsi_id": "unitedstatespostalservice-a77078", "operator": "United States Postal Service", "operator:short": "USPS", "operator:type": "public", "operator:wikidata": "Q668687", "ref": "4360400214"}, "type": "Feature"}
{"geometry": {"coordinates": [-83.538564, 41.651995], "type": "Point"}, "id": "cwQyNHOL3PAnQVIHCE73fCx_yIM=", "properties": {"@source_uri": "https://tools.usps.com/UspsToolsRestServices/rest/POLocator/findLocations", "@spider": "usps_collection_boxes", "addr:city": "TOLEDO", "addr:country": "US", "addr:postcode": "43604", "addr:state": "OH", "addr:street_address": "235 N ERIE ST", "amenity": "post_box", "collection_times": "Mo-Fr 16:30", "indoor": "yes", "note": "ON 12/24 AND 12/31, THIS BOX MAY BE COLLECTED AS EARLY AS 12 NOON.", "nsi_id": "unitedstatespostalservice-a77078", "operator": "United States Postal Service", "operator:short": "USPS", "operator:type": "public", "operator:wikidata": "Q668687", "ref": "4360400215"}, "type": "Feature"}
{"geometry": {"coordinates": [-83.538564, 41.651995], "type": "Point"}, "id": "aH8H3xDXTOSZXVUnHry827IWHhE=", "properties": {"@source_uri": "https://tools.usps.com/UspsToolsRestServices/rest/POLocator/findLocations", "@spider": "usps_collection_boxes", "addr:city": "TOLEDO", "addr:country": "US", "addr:postcode": "43604", "addr:state": "OH", "addr:street_address": "235 N ERIE ST", "amenity": "post_box", "collection_times": "Mo-Fr 16:30", "indoor": "yes", "note": "ON 12/24 AND 12/31, THIS BOX MAY BE COLLECTED AS EARLY AS 12 NOON.", "nsi_id": "unitedstatespostalservice-a77078", "operator": "United States Postal Service", "operator:short": "USPS", "operator:type": "public", "operator:wikidata": "Q668687", "ref": "4360400216"}, "type": "Feature"}
{"geometry": {"coordinates": [-83.5348204, 41.656474], "type": "Point"}, "id": "1wvs4yzqdL7WFIeh_kNRWFTCJLk=", "properties": {"@source_uri": "https://tools.usps.com/UspsToolsRestServices/rest/POLocator/findLocations", "@spider": "usps_collection_boxes", "addr:city": "TOLEDO", "addr:country": "US", "addr:postcode": "43604", "addr:state": "OH", "addr:street_address": "555 N ERIE ST", "amenity": "post_box", "collection_times": "Mo-Fr 11:00; Sa 13:15", "note": "ON 12/24 AND 12/31, THIS BOX MAY BE COLLECTED AS EARLY AS 12 NOON.", "nsi_id": "unitedstatespostalservice-a77078", "operator": "United States Postal Service", "operator:short": "USPS", "operator:type": "public", "operator:wikidata": "Q668687", "ref": "4360400219"}, "type": "Feature"}
{"geometry": {"coordinates": [-83.5393329, 41.651607], "type": "Point"}, "id": "KuPOmdwlROUrhA0j8U3sEdmDNso=", "properties": {"@source_uri": "https://tools.usps.com/UspsToolsRestServices/rest/POLocator/findLocations", "@spider": "usps_collection_boxes", "addr:city": "TOLEDO", "addr:country": "US", "addr:postcode": "43604", "addr:state": "OH", "addr:street_address": "701 JEFFERSON AVE", "amenity": "post_box", "collection_times": "Mo-Fr 11:00; Sa 15:00", "note": "ON 12/24 AND 12/31, THIS BOX MAY BE COLLECTED AS EARLY AS 12 NOON.", "nsi_id": "unitedstatespostalservice-a77078", "operator": "United States Postal Service", "operator:short": "USPS", "operator:type": "public", "operator:wikidata": "Q668687", "ref": "4360400221"}, "type": "Feature"}
{"geometry": {"coordinates": [-83.5444994761, 41.6541829928], "type": "Point"}, "id": "55ceWAq4gLzoHpl5RZ51nXqNWeY=", "properties": {"@source_uri": "https://tools.usps.com/UspsToolsRestServices/rest/POLocator/findLocations", "@spider": "usps_collection_boxes", "addr:city": "TOLEDO", "addr:country": "US", "addr:postcode": "43604", "addr:state": "OH", "addr:street_address": "1300 JEFFERSON AVE", "amenity": "post_box", "collection_times": "Mo-Fr 10:45; Sa 14:45", "note": "ON 12/24 AND 12/31, THIS BOX MAY BE COLLECTED AS EARLY AS 12 NOON.", "nsi_id": "unitedstatespostalservice-a77078", "operator": "United States Postal Service", "operator:short": "USPS", "operator:type": "public", "operator:wikidata": "Q668687", "ref": "4360400222"}, "type": "Feature"}
{"geometry": {"coordinates": [-83.5395983, 41.653045], "type": "Point"}, "id": "R-Nr_xu2_GMzacFgVaq4FIDZS_U=", "properties": {"@source_uri": "https://tools.usps.com/UspsToolsRestServices/rest/POLocator/findLocations", "@spider": "usps_collection_boxes", "addr:city": "TOLEDO", "addr:country": "US", "addr:postcode": "43604", "addr:state": "OH", "addr:street_address": "811 MADISON AVE", "amenity": "post_box", "collection_times": "Mo-Fr 13:15", "note": "ON 12/24 AND 12/31, THIS BOX MAY BE COLLECTED AS EARLY AS 12 NOON.", "nsi_id": "unitedstatespostalservice-a77078", "operator": "United States Postal Service", "operator:short": "USPS", "operator:type": "public", "operator:wikidata": "Q668687", "ref": "4360400226"}, "type": "Feature"}
{"geometry": {"coordinates": [-83.540941, 41.654185], "type": "Point"}, "id": "sDLy21ZGex3foY7roMGJjfBq7u4=", "properties": {"@source_uri": "https://tools.usps.com/UspsToolsRestServices/rest/POLocator/findLocations", "@spider": "usps_collection_boxes", "addr:city": "TOLEDO", "addr:country": "US", "addr:postcode": "43604", "addr:state": "OH", "addr:street_address": "1001 MADISON AVE", "amenity": "post_box", "collection_times": "Mo-Sa 14:45", "note": "ON 12/24 AND 12/31, THIS BOX MAY BE COLLECTED AS EARLY AS 12 NOON.", "nsi_id": "unitedstatespostalservice-a77078", "operator": "United States Postal Service", "operator:short": "USPS", "operator:type": "public", "operator:wikidata": "Q668687", "ref": "4360400228"}, "type": "Feature"}
{"geometry": {"coordinates": [-83.5457691, 41.656522], "type": "Point"}, "id": "nDBZTzfrH3eGt8mldIWGyuE-jUw=", "properties": {"@source_uri": "https://tools.usps.com/UspsToolsRestServices/rest/POLocator/findLocations", "@spider": "usps_collection_boxes", "addr:city": "TOLEDO", "addr:country": "US", "addr:postcode": "43604", "addr:state": "OH", "addr:street_address": "1600 MADISON AVE", "amenity": "post_box", "collection_times": "Mo-Fr 14:30; Sa 14:15", "note": "ON 12/24 AND 12/31, THIS BOX MAY BE COLLECTED AS EARLY AS 12 NOON.", "nsi_id": "unitedstatespostalservice-a77078", "operator": "United States Postal Service", "operator:short": "USPS", "operator:type": "public", "operator:wikidata": "Q668687", "ref": "4360400230"}, "type": "Feature"}
{"geometry": {"coordinates": [-83.5392352, 41.654228], "type": "Point"}, "id": "V_Df5wkt9ozmZ8skDo7xsGd_Tec=", "properties": {"@source_uri": "https://tools.usps.com/UspsToolsRestServices/rest/POLocator/findLocations", "@spider": "usps_collection_boxes", "addr:city": "TOLEDO", "addr:country": "US", "addr:postcode": "43604", "addr:state": "OH", "addr:street_address": "1722 MADISON AVE", "amenity": "post_box", "collection_times": "Mo-Fr 14:30; Sa 14:15", "note": "ON 12/24 AND 12/31, THIS BOX MAY BE COLLECTED AS EARLY AS 12 NOON.", "nsi_id": "unitedstatespostalservice-a77078", "operator": "United States Postal Service", "operator:short": "USPS", "operator:type": "public", "operator:wikidata": "Q668687", "ref": "4360400232"}, "type": "Feature"}
{"geometry": {"coordinates": [-83.5392352, 41.654228], "type": "Point"}, "id": "Fb9UqnlJc8tVXS3yF73ZJx-GvKQ=", "properties": {"@source_uri": "https://tools.usps.com/UspsToolsRestServices/rest/POLocator/findLocations", "@spider": "usps_collection_boxes", "addr:city": "TOLEDO", "addr:country": "US", "addr:postcode": "43604", "addr:state": "OH", "addr:street_address": "2130 MADISON AVE", "amenity": "post_box", "collection_times": "Mo-Sa 14:30", "note": "ON 12/24 AND 12/31, THIS BOX MAY BE COLLECTED AS EARLY AS 12 NOON.", "nsi_id": "unitedstatespostalservice-a77078", "operator": "United States Postal Service", "operator:short": "USPS", "operator:type": "public", "operator:wikidata": "Q668687", "ref": "4360400233"}, "type": "Feature"}
{"geometry": {"coordinates": [-83.539835, 41.65356], "type": "Point"}, "id": "KC8mIlMDUp66sZ8ysIpjaXcaWPI=", "properties": {"@source_uri": "https://tools.usps.com/UspsToolsRestServices/rest/POLocator/findLocations", "@spider": "usps_collection_boxes", "addr:city": "TOLEDO", "addr:country": "US", "addr:postcode": "43604", "addr:state": "OH", "addr:street_address": "2225 MADISON AVE", "amenity": "post_box", "collection_times": "Mo-Fr 14:45; Sa 14:30", "note": "ON 12/24 AND 12/31, THIS BOX MAY BE COLLECTED AS EARLY AS 12 NOON.", "nsi_id": "unitedstatespostalservice-a77078", "operator": "United States Postal Service", "operator:short": "USPS", "operator:type": "public", "operator:wikidata": "Q668687", "ref": "4360400234"}, "type": "Feature"}
{"geometry": {"coordinates": [-83.539835, 41.65356], "type": "Point"}, "id": "PkDw0Ucm6wEZxl6R_E4Q1hO76UI=", "properties": {"@source_uri": "https://tools.usps.com/UspsToolsRestServices/rest/POLocator/findLocations", "@spider": "usps_collection_boxes", "addr:city": "TOLEDO", "addr:country": "US", "addr:postcode": "43604", "addr:state": "OH", "addr:street_address": "316 N MICHIGAN ST", "amenity": "post_box", "collection_times": "Mo-Fr 10:30; Sa 12:30", "note": "ON 12/24 AND 12/31, THIS BOX MAY BE COLLECTED AS EARLY AS 12 NOON.", "nsi_id": "unitedstatespostalservice-a77078", "operator": "United States Postal Service", "operator:short": "USPS", "operator:type": "public", "operator:wikidata": "Q668687", "ref": "4360400237"}, "type": "Feature"}
{"geometry": {"coordinates": [-83.5393911, 41.654184], "type": "Point"}, "id": "0XFP8Ro4v2zDa8TK0f8yOT3eI4c=", "properties": {"@source_uri": "https://tools.usps.com/UspsToolsRestServices/rest/POLocator/findLocations", "@spider": "usps_collection_boxes", "addr:city": "TOLEDO", "addr:country": "US", "addr:postcode": "43604", "addr:state": "OH", "addr:street_address": "325 N MICHIGAN ST", "amenity": "post_box", "collection_times": "Mo-Fr 10:30; Sa 12:30", "note": "ON 12/24 AND 12/31, THIS BOX MAY BE COLLECTED AS EARLY AS 12 NOON.", "nsi_id": "unitedstatespostalservice-a77078", "operator": "United States Postal Service", "operator:short": "USPS", "operator:type": "public", "operator:wikidata": "Q668687", "ref": "4360400238"}, "type": "Feature"}
{"geometry": {"coordinates": [-83.5392352, 41.654228], "type": "Point"}, "id": "rSy4MpSl6fuuXD0IDBhXSXIjR0s=", "properties": {"@source_uri": "https://tools.usps.com/UspsToolsRestServices/rest/POLocator/findLocations", "@spider": "usps_collection_boxes", "addr:city": "TOLEDO", "addr:country": "US", "addr:postcode": "43604", "addr:state": "OH", "addr:street_address": "427 N MICHIGAN ST", "amenity": "post_box", "collection_times": "Mo-Fr 09:45; Sa 12:15", "note": "ON 12/24 AND 12/31, THIS BOX MAY BE COLLECTED AS EARLY AS 12 NOON.", "nsi_id": "unitedstatespostalservice-a77078", "operator": "United States Postal Service", "operator:short": "USPS", "operator:type": "public", "operator:wikidata": "Q668687", "ref": "4360400239"}, "type": "Feature"}
{"geometry": {"coordinates": [-83.5569478, 41.658937], "type": "Point"}, "id": "smxRktt9x-_Gz-LNBv52pE52FrM=", "properties": {"@source_uri": "https://tools.usps.com/UspsToolsRestServices/rest/POLocator/findLocations", "@spider": "usps_collection_boxes", "addr:city": "TOLEDO", "addr:country": "US", "addr:postcode": "43604", "addr:state": "OH", "addr:street_address": "1838 PARKWOOD AVE", "amenity": "post_box", "collection_times": "Mo-Fr 09:30; Sa 11:45", "nsi_id": "unitedstatespostalservice-a77078", "operator": "United States Postal Service", "operator:short": "USPS", "operator:type": "public", "operator:wikidata": "Q668687", "ref": "4360400242"}, "type": "Feature"}
{"geometry": {"coordinates": [-83.5364688, 41.657661], "type": "Point"}, "id": "4LwVLsGgQH0pNLt9zi8WUPWSEOA=", "properties": {"@source_uri": "https://tools.usps.com/UspsToolsRestServices/rest/POLocator/findLocations", "@spider": "usps_collection_boxes", "addr:city": "TOLEDO", "addr:country": "US", "addr:postcode": "43604", "addr:state": "OH", "addr:street_address": "1716 SPIELBUSCH AVE", "amenity": "post_box", "collection_times": "Mo-Fr 14:00; Sa 12:15", "note": "ON 12/24 AND 12/31, THIS BOX MAY BE COLLECTED AS EARLY AS 12 NOON.", "nsi_id": "unitedstatespostalservice-a77078", "operator": "United States Postal Service", "operator:short": "USPS", "operator:type": "public", "operator:wikidata": "Q668687", "ref": "4360400244"}, "type": "Feature"}
{"geometry": {"coordinates": [-83.5430649, 41.656646], "type": "Point"}, "id": "h7Uqa03nnBexIwsQeH1ojJZQBwA=", "properties": {"@source_uri": "https://tools.usps.com/UspsToolsRestServices/rest/POLocator/findLocations", "@spider": "usps_collection_boxes", "addr:city": "TOLEDO", "addr:country": "US", "addr:postcode": "43604", "addr:state": "OH", "addr:street_address": "333 14TH ST", "amenity": "post_box", "collection_times": "Mo-Fr 10:45; Sa 12:45", "note": "ON 12/24 AND 12/31, THIS BOX MAY BE COLLECTED AS EARLY AS 12 NOON.", "nsi_id": "unitedstatespostalservice-a77078", "operator": "United States Postal Service", "operator:short": "USPS", "operator:type": "public", "operator:wikidata": "Q668687", "ref": "4360400248"}, "type": "Feature"}
{"geometry": {"coordinates": [-83.5322631067, 41.657242537], "type": "Point"}, "id": "cq2iUk_rZVwXp8wqbR2daFgoasg=", "properties": {"@source_uri": "https://tools.usps.com/UspsToolsRestServices/rest/POLocator/findLocations", "@spider": "usps_collection_boxes", "addr:city": "TOLEDO", "addr:country": "US", "addr:postcode": "43604", "addr:state": "OH", "addr:street_address": "615 CHERRY ST", "amenity": "post_box", "collection_times": "Mo-Fr 10:30; Sa 12:45", "note": "ON 12/24 AND 12/31, THIS BOX MAY BE COLLECTED AS EARLY AS 12 NOON.", "nsi_id": "unitedstatespostalservice-a77078", "operator": "United States Postal Service", "operator:short": "USPS", "operator:type": "public", "operator:wikidata": "Q668687", "ref": "4360400251"}, "type": "Feature"}
{"geometry": {"coordinates": [-83.5382148625, 41.6524466051], "type": "Point"}, "id": "W5W1SNBMysvaWok0d83sHaV6m_A=", "properties": {"@source_uri": "https://tools.usps.com/UspsToolsRestServices/rest/POLocator/findLocations", "@spider": "usps_collection_boxes", "addr:city": "TOLEDO", "addr:country": "US", "addr:postcode": "43604", "addr:state": "OH", "addr:street_address": "235 N ERIE ST", "amenity": "post_box", "collection_times": "Mo-Fr 16:30", "indoor": "yes", "note": "ON 12/24 AND 12/31, THIS BOX MAY BE COLLECTED AS EARLY AS 12 NOON.", "nsi_id": "unitedstatespostalservice-a77078", "operator": "United States Postal Service", "operator:short": "USPS", "operator:type": "public", "operator:wikidata": "Q668687", "ref": "4360400254"}, "type": "Feature"}
{"geometry": {"coordinates": [-83.5011434, 41.643165], "type": "Point"}, "id": "Un_FRNG6vRaiZwXvUtGXNEyYOyc=", "properties": {"@source_uri": "https://tools.usps.com/UspsToolsRestServices/rest/POLocator/findLocations", "@spider": "usps_collection_boxes", "addr:city": "TOLEDO", "addr:country": "US", "addr:postcode": "43605", "addr:state": "OH", "addr:street_address": "722 DEARBORN AVE", "amenity": "post_box", "collection_times": "Mo-Fr 12:30; Sa 12:00", "note": "ON 12/24 AND 12/31, THIS BOX MAY BE COLLECTED AS EARLY AS 12 NOON.", "nsi_id": "unitedstatespostalservice-a77078", "operator": "United States Postal Service", "operator:short": "USPS", "operator:type": "public", "operator:wikidata": "Q668687", "ref": "4360500003"}, "type": "Feature"}
{"geometry": {"coordinates": [-83.4873046, 41.658675], "type": "Point"}, "id": "9aDzv8L9trjYbexuCvjvUIxXmBQ=", "properties": {"@source_uri": "https://tools.usps.com/UspsToolsRestServices/rest/POLocator/findLocations", "@spider": "usps_collection_boxes", "addr:city": "TOLEDO", "addr:country": "US", "addr:postcode": "43605", "addr:state": "OH", "addr:street_address": "2553 CONSAUL ST", "amenity": "post_box", "collection_times": "Mo-Fr 14:15; Sa 13:30", "note": "ON 12/24 AND 12/31, THIS BOX MAY BE COLLECTED AS EARLY AS 12 NOON.", "nsi_id": "unitedstatespostalservice-a77078", "operator": "United States Postal Service", "operator:short": "USPS", "operator:type": "public", "operator:wikidata": "Q668687", "ref": "4360500014"}, "type": "Feature"}
{"geometry": {"coordinates": [-83.5200188, 41.617861], "type": "Point"}, "id": "ZXxaJjf07azkGupEDdOO9nhsUWA=", "properties": {"@source_uri": "https://tools.usps.com/UspsToolsRestServices/rest/POLocator/findLocations", "@spider": "usps_collection_boxes", "addr:city": "TOLEDO", "addr:country": "US", "addr:postcode": "43605", "addr:state": "OH", "addr:street_address": "1831 SCHOMBERG ST", "amenity": "post_box", "collection_times": "Mo-Fr 12:00; Sa 11:30", "nsi_id": "unitedstatespostalservice-a77078", "operator": "United States Postal Service", "operator:short": "USPS", "operator:type": "public", "operator:wikidata": "Q668687", "ref": "4360500022"}, "type": "Feature"}
{"geometry": {"coordinates": [-83.5284969, 41.641558], "type": "Point"}, "id": "ybcSCOoYT9ZNBHomOwZYHw86meY=", "properties": {"@source_uri": "https://tools.usps.com/UspsToolsRestServices/rest/POLocator/findLocations", "@spider": "usps_collection_boxes", "addr:city": "TOLEDO", "addr:country": "US", "addr:postcode": "43605", "addr:state": "OH", "addr:street_address": "101 GREENWOOD AVE", "amenity": "post_box", "collection_times": "Mo-Sa 09:30", "nsi_id": "unitedstatespostalservice-a77078", "operator": "United States Postal Service", "operator:short": "USPS", "operator:type": "public", "operator:wikidata": "Q668687", "ref": "4360500033"}, "type": "Feature"}
{"geometry": {"coordinates": [-83.5112757311, 41.6364029351], "type": "Point"}, "id": "hgCKJr5V0f1vldvvM-k76abDxGo=", "properties": {"@source_uri": "https://tools.usps.com/UspsToolsRestServices/rest/POLocator/findLocations", "@spider": "usps_collection_boxes", "addr:city": "TOLEDO", "addr:country": "US", "addr:postcode": "43605", "addr:state": "OH", "addr:street_address": "1321 NAVARRE AVE", "amenity": "post_box", "collection_times": "Mo-Sa 11:00", "nsi_id": "unitedstatespostalservice-a77078", "operator": "United States Postal Service", "operator:short": "USPS", "operator:type": "public", "operator:wikidata": "Q668687", "ref": "4360500051"}, "type": "Feature"}
{"geometry": {"coordinates": [-83.524897, 41.621527], "type": "Point"}, "id": "ylqKhCV6Fn-mvSrIu7eRZMqBI78=", "properties": {"@source_uri": "https://tools.usps.com/UspsToolsRestServices/rest/POLocator/findLocations", "@spider": "usps_collection_boxes", "addr:city": "TOLEDO", "addr:country": "US", "addr:postcode": "43605", "addr:state": "OH", "addr:street_address": "1602 OAK ST", "amenity": "post_box", "collection_times": "Mo-Fr 12:00; Sa 11:30", "nsi_id": "unitedstatespostalservice-a77078", "operator": "United States Postal Service", "operator:short": "USPS", "operator:type": "public", "operator:wikidata": "Q668687", "ref": "4360500056"}, "type": "Feature"}
{"geometry": {"coordinates": [-83.521412478, 41.646676839], "type": "Point"}, "id": "Nj10wHy90rfK6r77ozIAOFgHy8w=", "properties": {"@source_uri": "https://tools.usps.com/UspsToolsRestServices/rest/POLocator/findLocations", "@spider": "usps_collection_boxes", "addr:city": "TOLEDO", "addr:country": "US", "addr:postcode": "43605", "addr:state": "OH", "addr:street_address": "225 MAIN ST", "amenity": "post_box", "collection_times": "Mo-Fr 17:00; Sa 14:45", "note": "ON 12/24 AND 12/31, THIS BOX MAY BE COLLECTED AS EARLY AS 12 NOON.", "nsi_id": "unitedstatespostalservice-a77078", "operator": "United States Postal Service", "operator:short": "USPS", "operator:type": "public", "operator:wikidata": "Q668687", "ref": "4360500070"}, "type": "Feature"}
{"geometry": {"coordinates": [-83.5050374, 41.643559], "type": "Point"}, "id": "QuEfFDuS6uRnSDbsBPyP3sn-RaQ=", "properties": {"@source_uri": "https://tools.usps.com/UspsToolsRestServices/rest/POLocator/findLocations", "@spider": "usps_collection_boxes", "addr:city": "TOLEDO", "addr:country": "US", "addr:postcode": "43605", "addr:state": "OH", "addr:street_address": "1822 STARR AVE", "amenity": "post_box", "collection_times": "Mo-Sa 15:00", "note": "ON 12/24 AND 12/31, THIS BOX MAY BE COLLECTED AS EARLY AS 12 NOON.", "nsi_id": "unitedstatespostalservice-a77078", "operator": "United States Postal Service", "operator:short": "USPS", "operator:type": "public", "operator:wikidata": "Q668687", "ref": "4360500072"}, "type": "Feature"}
{"geometry": {"coordinates": [-83.5182026, 41.643252], "type": "Point"}, "id": "-SguC1tDLIKmN6o4_FOu-5DG1BE=", "properties": {"@source_uri": "https://tools.usps.com/UspsToolsRestServices/rest/POLocator/findLocations", "@spider": "usps_collection_boxes", "addr:city": "TOLEDO", "addr:country": "US", "addr:postcode": "43605", "addr:state": "OH", "addr:street_address": "718 STARR AVE", "amenity": "post_box", "collection_times": "Mo-Sa 15:00", "note": "ON 12/24 AND 12/31, THIS BOX MAY BE COLLECTED AS EARLY AS 12 NOON.", "nsi_id": "unitedstatespostalservice-a77078", "operator": "United States Postal Service", "operator:short": "USPS", "operator:type": "public", "operator:wikidata": "Q668687", "ref": "4360500091"}, "type": "Feature"}
{"geometry": {"coordinates": [-83.521412478, 41.646676839], "type": "Point"}, "id": "BiUUqGX7G4vnwTUxsQybIjDvd5s=", "properties": {"@source_uri": "https://tools.usps.com/UspsToolsRestServices/rest/POLocator/findLocations", "@spider": "usps_collection_boxes", "addr:city": "TOLEDO", "addr:country": "US", "addr:postcode": "43605", "addr:state": "OH", "addr:street_address": "225 MAIN ST", "amenity": "post_box", "collection_times": "Mo-Fr 17:00; Sa 14:00", "indoor": "yes", "note": "ON 12/24 AND 12/31, THIS BOX MAY BE COLLECTED AS EARLY AS 12 NOON.", "nsi_id": "unitedstatespostalservice-a77078", "operator": "United States Postal Service", "operator:short": "USPS", "operator:type": "public", "operator:wikidata": "Q668687", "ref": "4360500092"}, "type": "Feature"}
{"geometry": {"coordinates": [-83.521412478, 41.646676839], "type": "Point"}, "id": "i-QZgXAQ6EAnYTO50qH_SYfP14M=", "properties": {"@source_uri": "https://tools.usps.com/UspsToolsRestServices/rest/POLocator/findLocations", "@spider": "usps_collection_boxes", "addr:city": "TOLEDO", "addr:country": "US", "addr:postcode": "43605", "addr:state": "OH", "addr:street_address": "225 MAIN ST", "amenity": "post_box", "collection_times": "Mo-Fr 16:30; Sa 14:45", "indoor": "yes", "note": "ON 12/24 AND 12/31, THIS BOX MAY BE COLLECTED AS EARLY AS 12 NOON.", "nsi_id": "unitedstatespostalservice-a77078", "operator": "United States Postal Service", "operator:short": "USPS", "operator:type": "public", "operator:wikidata": "Q668687", "ref": "4360500095"}, "type": "Feature"}
{"geometry": {"coordinates": [-83.5711545, 41.666071], "type": "Point"}, "id": "KC0C09x3ExfU9sj6uVvo1dT8nOs=", "properties": {"@source_uri": "https://tools.usps.com/UspsToolsRestServices/rest/POLocator/findLocations", "@spider": "usps_collection_boxes", "addr:city": "OTTAWA HILLS", "addr:country": "US", "addr:postcode": "43606", "addr:state": "OH", "addr:street_address": "3050 MONROE ST", "amenity": "post_box", "collection_times": "Mo-Fr 09:45; Sa 12:00", "nsi_id": "unitedstatespostalservice-a77078", "operator": "United States Postal Service", "operator:short": "USPS", "operator:type": "public", "operator:wikidata": "Q668687", "ref": "4360600007"}, "type": "Feature"}
{"geometry": {"coordinates": [-83.6281974, 41.67806], "type": "Point"}, "id": "fehyt0Jwv8DzrAoSizYVlcTROKA=", "properties": {"@source_uri": "https://tools.usps.com/UspsToolsRestServices/rest/POLocator/findLocations", "@spider": "usps_collection_boxes", "addr:city": "OTTAWA HILLS", "addr:country": "US", "addr:postcode": "43606", "addr:state": "OH", "addr:street_address": "3130 EXECUTIVE PKWY", "amenity": "post_box", "collection_times": "Mo-Fr 15:45; Sa 15:15", "note": "ON 12/24 AND 12/31, THIS BOX MAY BE COLLECTED AS EARLY AS 12 NOON.", "nsi_id": "unitedstatespostalservice-a77078", "operator": "United States Postal Service", "operator:short": "USPS", "operator:type": "public", "operator:wikidata": "Q668687", "ref": "4360600010"}, "type": "Feature"}
{"geometry": {"coordinates": [-83.6241217, 41.679598], "type": "Point"}, "id": "SacBaQgmpQz_9iqf6SYqjvWlN_A=", "properties": {"@source_uri": "https://tools.usps.com/UspsToolsRestServices/rest/POLocator/findLocations", "@spider": "usps_collection_boxes", "addr:city": "OTTAWA HILLS", "addr:country": "US", "addr:postcode": "43606", "addr:state": "OH", "addr:street_address": "3311 SECOR RD", "amenity": "post_box", "collection_times": "Mo-Fr 11:30; Sa 12:00", "nsi_id": "unitedstatespostalservice-a77078", "operator": "United States Postal Service", "operator:short": "USPS", "operator:type": "public", "operator:wikidata": "Q668687", "ref": "4360600014"}, "type": "Feature"}
{"geometry": {"coordinates": [-83.6288671, 41.681979], "type": "Point"}, "id": "dp6twgj47q74-4AH-O9plaj09Jk=", "properties": {"@source_uri": "https://tools.usps.com/UspsToolsRestServices/rest/POLocator/findLocations", "@spider": "usps_collection_boxes", "addr:city": "OTTAWA HILLS", "addr:country": "US", "addr:postcode": "43606", "addr:state": "OH", "addr:street_address": "3361 EXECUTIVE PKWY", "amenity": "post_box", "collection_times": "Mo-Fr 16:00; Sa 15:45", "note": "ON 12/24 AND 12/31, THIS BOX MAY BE COLLECTED AS EARLY AS 12 NOON.", "nsi_id": "unitedstatespostalservice-a77078", "operator": "United States Postal Service", "operator:short": "USPS", "operator:type": "public", "operator:wikidata": "Q668687", "ref": "4360600016"}, "type": "Feature"}
{"geometry": {"coordinates": [-83.6257535, 41.678692], "type": "Point"}, "id": "rUgqpBubMJySaQ1uBDW_JGuHjr0=", "properties": {"@source_uri": "https://tools.usps.com/UspsToolsRestServices/rest/POLocator/findLocations", "@spider": "usps_collection_boxes", "addr:city": "OTTAWA HILLS", "addr:country": "US", "addr:postcode": "43606", "addr:state": "OH", "addr:street_address": "3408 W CENTRAL AVE", "amenity": "post_box", "collection_times": "Mo-Fr 11:30; Sa 12:00", "nsi_id": "unitedstatespostalservice-a77078", "operator": "United States Postal Service", "operator:short": "USPS", "operator:type": "public", "operator:wikidata": "Q668687", "ref": "4360600017"}, "type": "Feature"}
{"geometry": {"coordinates": [-83.6267506, 41.678113], "type": "Point"}, "id": "ai8YJttwTwC774PqxYtXtfUwyX8=", "properties": {"@source_uri": "https://tools.usps.com/UspsToolsRestServices/rest/POLocator/findLocations", "@spider": "usps_collection_boxes", "addr:city": "OTTAWA HILLS", "addr:country": "US", "addr:postcode": "43606", "addr:state": "OH", "addr:street_address": "3450 W CENTRAL AVE", "amenity": "post_box", "collection_times": "Mo-Fr 15:45; Sa 15:15", "note": "ON 12/24 AND 12/31, THIS BOX MAY BE COLLECTED AS EARLY AS 12 NOON.", "nsi_id": "unitedstatespostalservice-a77078", "operator": "United States Postal Service", "operator:short": "USPS", "operator:type": "public", "operator:wikidata": "Q668687", "ref": "4360600018"}, "type": "Feature"}
{"geometry": {"coordinates": [-83.6243326, 41.682481], "type": "Point"}, "id": "_Kdk4ZWg92dJFeMbrGy06OTa3ek=", "properties": {"@source_uri": "https://tools.usps.com/UspsToolsRestServices/rest/POLocator/findLocations", "@spider": "usps_collection_boxes", "addr:city": "OTTAWA HILLS", "addr:country": "US", "addr:postcode": "43606", "addr:state": "OH", "addr:street_address": "3550 EXECUTIVE PKWY", "amenity": "post_box", "collection_times": "Mo-Fr 16:15; Sa 15:45", "note": "ON 12/24 AND 12/31, THIS BOX MAY BE COLLECTED AS EARLY AS 12 NOON.", "nsi_id": "unitedstatespostalservice-a77078", "operator": "United States Postal Service", "operator:short": "USPS", "operator:type": "public", "operator:wikidata": "Q668687", "ref": "4360600022"}, "type": "Feature"}
{"geometry": {"coordinates": [-83.6391281, 41.676936], "type": "Point"}, "id": "BHONHzrM5iye9wSqXx45Dv6AeF8=", "properties": {"@source_uri": "https://tools.usps.com/UspsToolsRestServices/rest/POLocator/findLocations", "@spider": "usps_collection_boxes", "addr:city": "OTTAWA HILLS", "addr:country": "US", "addr:postcode": "43606", "addr:state": "OH", "addr:street_address": "4029 W CENTRAL AVE", "amenity": "post_box", "collection_times": "Mo-Fr 13:00; Sa 13:30", "note": "ON 12/24 AND 12/31, THIS BOX MAY BE COLLECTED AS EARLY AS 12 NOON.", "nsi_id": "unitedstatespostalservice-a77078", "operator": "United States Postal Service", "operator:short": "USPS", "operator:type": "public", "operator:wikidata": "Q668687", "ref": "4360600024"}, "type": "Feature"}
{"geometry": {"coordinates": [-83.6091488, 41.682977], "type": "Point"}, "id": "OsND8MIAvTNQIsPps3Rl2ymrJJ8=", "properties": {"@source_uri": "https://tools.usps.com/UspsToolsRestServices/rest/POLocator/findLocations", "@spider": "usps_collection_boxes", "addr:city": "OTTAWA HILLS", "addr:country": "US", "addr:postcode": "43606", "addr:state": "OH", "addr:street_address": "4271 MONROE ST", "amenity": "post_box", "collection_times": "Mo-Fr 14:00; Sa 14:30", "note": "ON 12/24 AND 12/31, THIS BOX MAY BE COLLECTED AS EARLY AS 12 NOON.", "nsi_id": "unitedstatespostalservice-a77078", "operator": "United States Postal Service", "operator:short": "USPS", "operator:type": "public", "operator:wikidata": "Q668687", "ref": "4360600026"}, "type": "Feature"}
{"geometry": {"coordinates": [-83.6113468, 41.684016], "type": "Point"}, "id": "esU1lRhQP1tGiy1-vIkbKvDbCjI=", "properties": {"@source_uri": "https://tools.usps.com/UspsToolsRestServices/rest/POLocator/findLocations", "@spider": "usps_collection_boxes", "addr:city": "OTTAWA HILLS", "addr:country": "US", "addr:postcode": "43606", "addr:state": "OH", "addr:street_address": "4333 MONROE ST", "amenity": "post_box", "collection_times": "Mo-Fr 14:00; Sa 14:15", "note": "ON 12/24 AND 12/31, THIS BOX MAY BE COLLECTED AS EARLY AS 12 NOON.", "nsi_id": "unitedstatespostalservice-a77078", "operator": "United States Postal Service", "operator:short": "USPS", "operator:type": "public", "operator:wikidata": "Q668687", "ref": "4360600027"}, "type": "Feature"}
{"geometry": {"coordinates": [-83.6276823, 41.663881], "type": "Point"}, "id": "o_6s0iTUfqkBKXA2hIhgW1s3jxM=", "properties": {"@source_uri": "https://tools.usps.com/UspsToolsRestServices/rest/POLocator/findLocations", "@spider": "usps_collection_boxes", "addr:city": "OTTAWA HILLS", "addr:country": "US", "addr:postcode": "43606", "addr:state": "OH", "addr:street_address": "3498 BROOKSIDE RD", "amenity": "post_box", "collection_times": "Mo-Fr 10:45; Sa 11:15", "nsi_id": "unitedstatespostalservice-a77078", "operator": "United States Postal Service", "operator:short": "USPS", "operator:type": "public", "operator:wikidata": "Q668687", "ref": "4360600039"}, "type": "Feature"}
{"geometry": {"coordinates": [-83.5915507, 41.677943], "type": "Point"}, "id": "BMg1hN21xgHvqXpF2SO5LE6aJv8=", "properties": {"@source_uri": "https://tools.usps.com/UspsToolsRestServices/rest/POLocator/findLocations", "@spider": "usps_collection_boxes", "addr:city": "OTTAWA HILLS", "addr:country": "US", "addr:postcode": "43606", "addr:state": "OH", "addr:street_address": "2000 W CENTRAL AVE", "amenity": "post_box", "collection_times": "Mo-Fr 15:15; Sa 15:00", "note": "ON 12/24 AND 12/31, THIS BOX MAY BE COLLECTED AS EARLY AS 12 NOON.", "nsi_id": "unitedstatespostalservice-a77078", "operator": "United States Postal Service", "operator:short": "USPS", "operator:type": "public", "operator:wikidata": "Q668687", "ref": "4360600042"}, "type": "Feature"}
{"geometry": {"coordinates": [-83.6274170054, 41.6732700084], "type": "Point"}, "id": "MPJlkTJeW3SqEbn74B1w5wpJINw=", "properties": {"@source_uri": "https://tools.usps.com/UspsToolsRestServices/rest/POLocator/findLocations", "@spider": "usps_collection_boxes", "addr:city": "OTTAWA HILLS", "addr:country": "US", "addr:postcode": "43606", "addr:state": "OH", "addr:street_address": "3475 CHRISTIE BLVD", "amenity": "post_box", "collection_times": "Mo-Fr 10:30; Sa 11:00", "nsi_id": "unitedstatespostalservice-a77078", "operator": "United States Postal Service", "operator:short": "USPS", "operator:type": "public", "operator:wikidata": "Q668687", "ref": "4360600049"}, "type": "Feature"}
{"geometry": {"coordinates": [-83.6373494, 41.672723], "type": "Point"}, "id": "vgaVFsAQ86rRgzVLwNhMTef7j6o=", "properties": {"@source_uri": "https://tools.usps.com/UspsToolsRestServices/rest/POLocator/findLocations", "@spider": "usps_collection_boxes", "addr:city": "OTTAWA HILLS", "addr:country": "US", "addr:postcode": "43606", "addr:state": "OH", "addr:street_address": "2809 JODORE AVE", "amenity": "post_box", "collection_times": "Mo-Fr 10:30; Sa 11:00", "nsi_id": "unitedstatespostalservice-a77078", "operator": "United States Postal Service", "operator:short": "USPS", "operator:type": "public", "operator:wikidata": "Q668687", "ref": "4360600052"}, "type": "Feature"}
{"geometry": {"coordinates": [-83.6264713, 41.668914], "type": "Point"}, "id": "NXqNsZFQIM-wfMIzsjbVnDADiqg=", "properties": {"@source_uri": "https://tools.usps.com/UspsToolsRestServices/rest/POLocator/findLocations", "@spider": "usps_collection_boxes", "addr:city": "OTTAWA HILLS", "addr:country": "US", "addr:postcode": "43606", "addr:state": "OH", "addr:street_address": "2454 HEMPSTEAD RD", "amenity": "post_box", "collection_times": "Mo-Fr 10:45; Sa 11:15", "nsi_id": "unitedstatespostalservice-a77078", "operator": "United States Postal Service", "operator:short": "USPS", "operator:type": "public", "operator:wikidata": "Q668687", "ref": "4360600053"}, "type": "Feature"}
{"geometry": {"coordinates": [-83.6214769, 41.67656], "type": "Point"}, "id": "SlUtxATOuye2A-mKdWHQDhvkKU4=", "properties": {"@source_uri": "https://tools.usps.com/UspsToolsRestServices/rest/POLocator/findLocations", "@spider": "usps_collection_boxes", "addr:city": "OTTAWA HILLS", "addr:country": "US", "addr:postcode": "43606", "addr:state": "OH", "addr:street_address": "3225 MARKWAY RD", "amenity": "post_box", "collection_times": "Mo-Fr 11:15; Sa 11:45", "nsi_id": "unitedstatespostalservice-a77078", "operator": "United States Postal Service", "operator:short": "USPS", "operator:type": "public", "operator:wikidata": "Q668687", "ref": "4360600057"}, "type": "Feature"}
{"geometry": {"coordinates": [-83.5696209, 41.6602], "type": "Point"}, "id": "_JQm71JpR3l3yEMYYocSiDpeGMc=", "properties": {"@source_uri": "https://tools.usps.com/UspsToolsRestServices/rest/POLocator/findLocations", "@spider": "usps_collection_boxes", "addr:city": "OTTAWA HILLS", "addr:country": "US", "addr:postcode": "43606", "addr:state": "OH", "addr:street_address": "1080 W WOODRUFF AVE", "amenity": "post_box", "collection_times": "Mo-Fr 09:30; Sa 11:45", "nsi_id": "unitedstatespostalservice-a77078", "operator": "United States Postal Service", "operator:short": "USPS", "operator:type": "public", "operator:wikidata": "Q668687", "ref": "4360600066"}, "type": "Feature"}
{"geometry": {"coordinates": [-83.6136042, 41.67761], "type": "Point"}, "id": "SAsU0tyg1pkKtFnSSAw66tNfHHI=", "properties": {"@source_uri": "https://tools.usps.com/UspsToolsRestServices/rest/POLocator/findLocations", "@spider": "usps_collection_boxes", "addr:city": "OTTAWA HILLS", "addr:country": "US", "addr:postcode": "43606", "addr:state": "OH", "addr:street_address": "2860 W CENTRAL AVE", "amenity": "post_box", "collection_times": "Mo-Fr 11:15; Sa 11:45", "nsi_id": "unitedstatespostalservice-a77078", "operator": "United States Postal Service", "operator:short": "USPS", "operator:type": "public", "operator:wikidata": "Q668687", "ref": "4360600067"}, "type": "Feature"}
{"geometry": {"coordinates": [-83.6182932485, 41.6823074851], "type": "Point"}, "id": "mVuPTaM3A9Fe2lUWqtXiYpI3T3Y=", "properties": {"@source_uri": "https://tools.usps.com/UspsToolsRestServices/rest/POLocator/findLocations", "@spider": "usps_collection_boxes", "addr:city": "OTTAWA HILLS", "addr:country": "US", "addr:postcode": "43606", "addr:state": "OH", "addr:street_address": "3049 ILGER AVE", "amenity": "post_box", "collection_times": "Mo-Fr 11:15; Sa 11:45", "nsi_id": "unitedstatespostalservice-a77078", "operator": "United States Postal Service", "operator:short": "USPS", "operator:type": "public", "operator:wikidata": "Q668687", "ref": "4360600070"}, "type": "Feature"}
{"geometry": {"coordinates": [-83.6339755, 41.675111], "type": "Point"}, "id": "pW6hdNS-7kG3BPJqZ5QSkb-zY70=", "properties": {"@source_uri": "https://tools.usps.com/UspsToolsRestServices/rest/POLocator/findLocations", "@spider": "usps_collection_boxes", "addr:city": "OTTAWA HILLS", "addr:country": "US", "addr:postcode": "43606", "addr:state": "OH", "addr:street_address": "2938 ISHA LAYE WAY", "amenity": "post_box", "collection_times": "Mo-Fr 10:30; Sa 11:00", "nsi_id": "unitedstatespostalservice-a77078", "operator": "United States Postal Service", "operator:short": "USPS", "operator:type": "public", "operator:wikidata": "Q668687", "ref": "4360600072"}, "type": "Feature"}
{"geometry": {"coordinates": [-83.6134399, 41.670725], "type": "Point"}, "id": "b6UyGL4lkQv7NbWKK2IvQpUsnFg=", "properties": {"@source_uri": "https://tools.usps.com/UspsToolsRestServices/rest/POLocator/findLocations", "@spider": "usps_collection_boxes", "addr:city": "OTTAWA HILLS", "addr:country": "US", "addr:postcode": "43606", "addr:state": "OH", "addr:street_address": "2903 KENWOOD BLVD", "amenity": "post_box", "collection_times": "Mo-Fr 11:15; Sa 11:45", "nsi_id": "unitedstatespostalservice-a77078", "operator": "United States Postal Service", "operator:short": "USPS", "operator:type": "public", "operator:wikidata": "Q668687", "ref": "4360600077"}, "type": "Feature"}
{"geometry": {"coordinates": [-83.6186347, 41.672874], "type": "Point"}, "id": "t8ejFpdXnOhPS6z8gPR9Z12H1iw=", "properties": {"@source_uri": "https://tools.usps.com/UspsToolsRestServices/rest/POLocator/findLocations", "@spider": "usps_collection_boxes", "addr:city": "OTTAWA HILLS", "addr:country": "US", "addr:postcode": "43606", "addr:state": "OH", "addr:street_address": "2673 MIDDLESEX DR", "amenity": "post_box", "collection_times": "Mo-Fr 10:30; Sa 11:00", "nsi_id": "unitedstatespostalservice-a77078", "operator": "United States Postal Service", "operator:short": "USPS", "operator:type": "public", "operator:wikidata": "Q668687", "ref": "4360600080"}, "type": "Feature"}
{"geometry": {"coordinates": [-83.6051156, 41.675288], "type": "Point"}, "id": "TPK5M8c2wmlRvLZMBV8oRELFL4M=", "properties": {"@source_uri": "https://tools.usps.com/UspsToolsRestServices/rest/POLocator/findLocations", "@spider": "usps_collection_boxes", "addr:city": "OTTAWA HILLS", "addr:country": "US", "addr:postcode": "43606", "addr:state": "OH", "addr:street_address": "2846 MERRIMAC BLVD", "amenity": "post_box", "collection_times": "Mo-Fr 14:45; Sa 14:30", "note": "ON 12/24 AND 12/31, THIS BOX MAY BE COLLECTED AS EARLY AS 12 NOON.", "nsi_id": "unitedstatespostalservice-a77078", "operator": "United States Postal Service", "operator:short": "USPS", "operator:type": "public", "operator:wikidata": "Q668687", "ref": "4360600081"}, "type": "Feature"}
{"geometry": {"coordinates": [-83.5882529, 41.673019], "type": "Point"}, "id": "uJeIlC8ASxq4uubPnUcI3jTZ8-A=", "properties": {"@source_uri": "https://tools.usps.com/UspsToolsRestServices/rest/POLocator/findLocations", "@spider": "usps_collection_boxes", "addr:city": "OTTAWA HILLS", "addr:country": "US", "addr:postcode": "43606", "addr:state": "OH", "addr:street_address": "3729 MONROE ST", "amenity": "post_box", "collection_times": "Mo-Sa 15:00", "note": "ON 12/24 AND 12/31, THIS BOX MAY BE COLLECTED AS EARLY AS 12 NOON.", "nsi_id": "unitedstatespostalservice-a77078", "operator": "United States Postal Service", "operator:short": "USPS", "operator:type": "public", "operator:wikidata": "Q668687", "ref": "4360600097"}, "type": "Feature"}
{"geometry": {"coordinates": [-83.6283279, 41.684232], "type": "Point"}, "id": "H5_vnEhF9jR898skdxYdbDoGhfk=", "properties": {"@source_uri": "https://tools.usps.com/UspsToolsRestServices/rest/POLocator/findLocations", "@spider": "usps_collection_boxes", "addr:city": "OTTAWA HILLS", "addr:country": "US", "addr:postcode": "43606", "addr:state": "OH", "addr:street_address": "3454 OAK ALLEY CT", "amenity": "post_box", "collection_times": "Mo-Fr 16:00; Sa 15:45", "note": "ON 12/24 AND 12/31, THIS BOX MAY BE COLLECTED AS EARLY AS 12 NOON.", "nsi_id": "unitedstatespostalservice-a77078", "operator": "United States Postal Service", "operator:short": "USPS", "operator:type": "public", "operator:wikidata": "Q668687", "ref": "4360600125"}, "type": "Feature"}
{"geometry": {"coordinates": [-83.628607, 41.679494], "type": "Point"}, "id": "QQA-H83fCWqql2ifnIfXSuXFVIo=", "properties": {"@source_uri": "https://tools.usps.com/UspsToolsRestServices/rest/POLocator/findLocations", "@spider": "usps_collection_boxes", "addr:city": "OTTAWA HILLS", "addr:country": "US", "addr:postcode": "43606", "addr:state": "OH", "addr:street_address": "3103 EXECUTIVE PKWY", "amenity": "post_box", "collection_times": "Mo-Fr 16:15; Sa 15:45", "note": "ON 12/24 AND 12/31, THIS BOX MAY BE COLLECTED AS EARLY AS 12 NOON.", "nsi_id": "unitedstatespostalservice-a77078", "operator": "United States Postal Service", "operator:short": "USPS", "operator:type": "public", "operator:wikidata": "Q668687", "ref": "4360600127"}, "type": "Feature"}
{"geometry": {"coordinates": [-83.6137239, 41.660352], "type": "Point"}, "id": "DPqi76eShJc-X0-lLggnKvzX9oo=", "properties": {"@source_uri": "https://tools.usps.com/UspsToolsRestServices/rest/POLocator/findLocations", "@spider": "usps_collection_boxes", "addr:city": "OTTAWA HILLS", "addr:country": "US", "addr:postcode": "43606", "addr:state": "OH", "addr:street_address": "2801 W BANCROFT ST", "amenity": "post_box", "collection_times": "Mo-Fr 11:00; Sa 11:30", "nsi_id": "unitedstatespostalservice-a77078", "operator": "United States Postal Service", "operator:short": "USPS", "operator:type": "public", "operator:wikidata": "Q668687", "ref": "4360600131"}, "type": "Feature"}
{"geometry": {"coordinates": [-83.6169696, 41.666612], "type": "Point"}, "id": "vJED0X6f6OJgUyWcull63XKdEpA=", "properties": {"@source_uri": "https://tools.usps.com/UspsToolsRestServices/rest/POLocator/findLocations", "@spider": "usps_collection_boxes", "addr:city": "OTTAWA HILLS", "addr:country": "US", "addr:postcode": "43606", "addr:state": "OH", "addr:street_address": "2365 BARRINGTON DR", "amenity": "post_box", "collection_times": "Mo-Fr 11:00; Sa 11:30", "nsi_id": "unitedstatespostalservice-a77078", "operator": "United States Postal Service", "operator:short": "USPS", "operator:type": "public", "operator:wikidata": "Q668687", "ref": "4360600135"}, "type": "Feature"}
{"geometry": {"coordinates": [-83.6351882, 41.689901], "type": "Point"}, "id": "qOwo8iIKMNVCG0vpHrGBI70KLZU=", "properties": {"@source_uri": "https://tools.usps.com/UspsToolsRestServices/rest/POLocator/findLocations", "@spider": "usps_collection_boxes", "addr:city": "OTTAWA HILLS", "addr:country": "US", "addr:postcode": "43606", "addr:state": "OH", "addr:street_address": "3922 WOODLEY RD", "amenity": "post_box", "collection_times": "Mo-Fr 13:15; Sa 13:30", "note": "ON 12/24 AND 12/31, THIS BOX MAY BE COLLECTED AS EARLY AS 12 NOON.", "nsi_id": "unitedstatespostalservice-a77078", "operator": "United States Postal Service", "operator:short": "USPS", "operator:type": "public", "operator:wikidata": "Q668687", "ref": "4360600137"}, "type": "Feature"}
{"geometry": {"coordinates": [-83.6284523, 41.683244], "type": "Point"}, "id": "gPooJF_QzViAwc8BJhtsFUGQdU4=", "properties": {"@source_uri": "https://tools.usps.com/UspsToolsRestServices/rest/POLocator/findLocations", "@spider": "usps_collection_boxes", "addr:city": "OTTAWA HILLS", "addr:country": "US", "addr:postcode": "43606", "addr:state": "OH", "addr:street_address": "3425 EXECUTIVE PKWY", "amenity": "post_box", "collection_times": "Mo-Fr 16:00; Sa 15:30", "note": "ON 12/24 AND 12/31, THIS BOX MAY BE COLLECTED AS EARLY AS 12 NOON.", "nsi_id": "unitedstatespostalservice-a77078", "operator": "United States Postal Service", "operator:short": "USPS", "operator:type": "public", "operator:wikidata": "Q668687", "ref": "4360600145"}, "type": "Feature"}
{"geometry": {"coordinates": [-83.6287005, 41.680893], "type": "Point"}, "id": "2W3bxJaYelboiPiAuRl7eT_g3eY=", "properties": {"@source_uri": "https://tools.usps.com/UspsToolsRestServices/rest/POLocator/findLocations", "@spider": "usps_collection_boxes", "addr:city": "OTTAWA HILLS", "addr:country": "US", "addr:postcode": "43606", "addr:state": "OH", "addr:street_address": "3320 EXECUTIVE PKWY", "amenity": "post_box", "collection_times": "Mo-Fr 15:45; Sa 15:30", "note": "ON 12/24 AND 12/31, THIS BOX MAY BE COLLECTED AS EARLY AS 12 NOON.", "nsi_id": "unitedstatespostalservice-a77078", "operator": "United States Postal Service", "operator:short": "USPS", "operator:type": "public", "operator:wikidata": "Q668687", "ref": "4360600150"}, "type": "Feature"}
{"geometry": {"coordinates": [-83.626969999, 41.682693992], "type": "Point"}, "id": "AqEiI20BWzCdXfrn5DY7bkGvPaY=", "properties": {"@source_uri": "https://tools.usps.com/UspsToolsRestServices/rest/POLocator/findLocations", "@spider": "usps_collection_boxes", "addr:city": "OTTAWA HILLS", "addr:country": "US", "addr:postcode": "43606", "addr:state": "OH", "addr:street_address": "3501 EXECUTIVE PKWY", "amenity": "post_box", "collection_times": "Mo-Fr 16:00; Sa 15:30", "note": "ON 12/24 AND 12/31, THIS BOX MAY BE COLLECTED AS EARLY AS 12 NOON.", "nsi_id": "unitedstatespostalservice-a77078", "operator": "United States Postal Service", "operator:short": "USPS", "operator:type": "public", "operator:wikidata": "Q668687", "ref": "4360600152"}, "type": "Feature"}
{"geometry": {"coordinates": [-83.6073749, 41.676192], "type": "Point"}, "id": "xh5o9wE4FC-WBnB1gYQJ8brZAXs=", "properties": {"@source_uri": "https://tools.usps.com/UspsToolsRestServices/rest/POLocator/findLocations", "@spider": "usps_collection_boxes", "addr:city": "OTTAWA HILLS", "addr:country": "US", "addr:postcode": "43606", "addr:state": "OH", "addr:street_address": "2941 HAUGHTON DR", "amenity": "post_box", "collection_times": "Mo-Fr 17:00; Sa 14:00", "indoor": "yes", "note": "ON 12/24 AND 12/31, THIS BOX MAY BE COLLECTED AS EARLY AS 12 NOON.", "nsi_id": "unitedstatespostalservice-a77078", "operator": "United States Postal Service", "operator:short": "USPS", "operator:type": "public", "operator:wikidata": "Q668687", "ref": "4360600154"}, "type": "Feature"}
{"geometry": {"coordinates": [-83.618777023, 41.662821002], "type": "Point"}, "id": "689A4XkYlOwhnP6et5Kp_IVsuXc=", "properties": {"@source_uri": "https://tools.usps.com/UspsToolsRestServices/rest/POLocator/findLocations", "@spider": "usps_collection_boxes", "addr:city": "OTTAWA HILLS", "addr:country": "US", "addr:postcode": "43606", "addr:state": "OH", "addr:street_address": "3111 W BANCROFT ST", "amenity": "post_box", "collection_times": "Mo-Fr 11:00; Sa 11:30", "nsi_id": "unitedstatespostalservice-a77078", "operator": "United States Postal Service", "operator:short": "USPS", "operator:type": "public", "operator:wikidata": "Q668687", "ref": "4360600156"}, "type": "Feature"}
{"geometry": {"coordinates": [-83.60642924, 41.676150699], "type": "Point"}, "id": "h1YiMVygZe5jPfXXlzIbN77xA0E=", "properties": {"@source_uri": "https://tools.usps.com/UspsToolsRestServices/rest/POLocator/findLocations", "@spider": "usps_collection_boxes", "addr:city": "OTTAWA HILLS", "addr:country": "US", "addr:postcode": "43606", "addr:state": "OH", "addr:street_address": "2941 HAUGHTON DR", "amenity": "post_box", "collection_times": "Mo-Fr 17:00; Sa 12:30", "indoor": "yes", "note": "ON 12/24 AND 12/31, THIS BOX MAY BE COLLECTED AS EARLY AS 12 NOON.", "nsi_id": "unitedstatespostalservice-a77078", "operator": "United States Postal Service", "operator:short": "USPS", "operator:type": "public", "operator:wikidata": "Q668687", "ref": "4360600166"}, "type": "Feature"}
{"geometry": {"coordinates": [-83.5807629, 41.65276], "type": "Point"}, "id": "diCj1Q9cvis4tPxKaP3HsoEq4yg=", "properties": {"@source_uri": "https://tools.usps.com/UspsToolsRestServices/rest/POLocator/findLocations", "@spider": "usps_collection_boxes", "addr:city": "TOLEDO", "addr:country": "US", "addr:postcode": "43607", "addr:state": "OH", "addr:street_address": "1609 DORR ST", "amenity": "post_box", "collection_times": "Mo-Fr 17:00; Sa 16:00", "note": "ON 12/24 AND 12/31, THIS BOX MAY BE COLLECTED AS EARLY AS 12 NOON.", "nsi_id": "unitedstatespostalservice-a77078", "operator": "United States Postal Service", "operator:short": "USPS", "operator:type": "public", "operator:wikidata": "Q668687", "ref": "4360700002"}, "type": "Feature"}
{"geometry": {"coordinates": [-83.6276373, 41.63794], "type": "Point"}, "id": "-JVMyaPKChqpo53fa0kM2xZZ56A=", "properties": {"@source_uri": "https://tools.usps.com/UspsToolsRestServices/rest/POLocator/findLocations", "@spider": "usps_collection_boxes", "addr:city": "TOLEDO", "addr:country": "US", "addr:postcode": "43607", "addr:state": "OH", "addr:street_address": "3539 HILL AVE", "amenity": "post_box", "collection_times": "Mo-Fr 12:30; Sa 12:00", "note": "ON 12/24 AND 12/31, THIS BOX MAY BE COLLECTED AS EARLY AS 12 NOON.", "nsi_id": "unitedstatespostalservice-a77078", "operator": "United States Postal Service", "operator:short": "USPS", "operator:type": "public", "operator:wikidata": "Q668687", "ref": "4360700028"}, "type": "Feature"}
{"geometry": {"coordinates": [-83.6406433, 41.651903], "type": "Point"}, "id": "N-TBspIpnd7yIrED5N0zvNZEX90=", "properties": {"@source_uri": "https://tools.usps.com/UspsToolsRestServices/rest/POLocator/findLocations", "@spider": "usps_collection_boxes", "addr:city": "TOLEDO", "addr:country": "US", "addr:postcode": "43607", "addr:state": "OH", "addr:street_address": "4184 DORCHESTER DR", "amenity": "post_box", "collection_times": "Mo-Fr 12:45; Sa 12:15", "note": "ON 12/24 AND 12/31, THIS BOX MAY BE COLLECTED AS EARLY AS 12 NOON.", "nsi_id": "unitedstatespostalservice-a77078", "operator": "United States Postal Service", "operator:short": "USPS", "operator:type": "public", "operator:wikidata": "Q668687", "ref": "4360700036"}, "type": "Feature"}
{"geometry": {"coordinates": [-83.626907, 41.652465], "type": "Point"}, "id": "W1F5lq1pXZFVanHMnIBHU-Jek8w=", "properties": {"@source_uri": "https://tools.usps.com/UspsToolsRestServices/rest/POLocator/findLocations", "@spider": "usps_collection_boxes", "addr:city": "TOLEDO", "addr:country": "US", "addr:postcode": "43607", "addr:state": "OH", "addr:street_address": "3525 DORR ST", "amenity": "post_box", "collection_times": "Mo-Sa 09:30", "nsi_id": "unitedstatespostalservice-a77078", "operator": "United States Postal Service", "operator:short": "USPS", "operator:type": "public", "operator:wikidata": "Q668687", "ref": "4360700037"}, "type": "Feature"}
{"geometry": {"coordinates": [-83.608205013, 41.638629991], "type": "Point"}, "id": "lOKn5wagZjma3_JNiSyRgX2NCp8=", "properties": {"@source_uri": "https://tools.usps.com/UspsToolsRestServices/rest/POLocator/findLocations", "@spider": "usps_collection_boxes", "addr:city": "TOLEDO", "addr:country": "US", "addr:postcode": "43607", "addr:state": "OH", "addr:street_address": "2698 HILL AVE", "amenity": "post_box", "collection_times": "Mo-Fr 12:30; Sa 12:00", "note": "ON 12/24 AND 12/31, THIS BOX MAY BE COLLECTED AS EARLY AS 12 NOON.", "nsi_id": "unitedstatespostalservice-a77078", "operator": "United States Postal Service", "operator:short": "USPS", "operator:type": "public", "operator:wikidata": "Q668687", "ref": "4360700089"}, "type": "Feature"}
{"geometry": {"coordinates": [-83.580649, 41.65293], "type": "Point"}, "id": "dOuOzQ7VLkm19ELG0oC1tISrPIU=", "properties": {"@source_uri": "https://tools.usps.com/UspsToolsRestServices/rest/POLocator/findLocations", "@spider": "usps_collection_boxes", "addr:city": "TOLEDO", "addr:country": "US", "addr:postcode": "43607", "addr:state": "OH", "addr:street_address": "1609 DORR ST", "amenity": "post_box", "collection_times": "Mo-Fr 16:00; Sa 14:00", "indoor": "yes", "note": "ON 12/24 AND 12/31, THIS BOX MAY BE COLLECTED AS EARLY AS 12 NOON.", "nsi_id": "unitedstatespostalservice-a77078", "operator": "United States Postal Service", "operator:short": "USPS", "operator:type": "public", "operator:wikidata": "Q668687", "ref": "4360700095"}, "type": "Feature"}
{"geometry": {"coordinates": [-83.580903, 41.65289447], "type": "Point"}, "id": "b9nytlcz6eLRTSIFVG7rggQHE3c=", "properties": {"@source_uri": "https://tools.usps.com/UspsToolsRestServices/rest/POLocator/findLocations", "@spider": "usps_collection_boxes", "addr:city": "TOLEDO", "addr:country": "US", "addr:postcode": "43607", "addr:state": "OH", "addr:street_address": "1609 DORR ST", "amenity": "post_box", "collection_times": "Mo-Fr 16:00; Sa 14:30", "indoor": "yes", "note": "ON 12/24 AND 12/31, THIS BOX MAY BE COLLECTED AS EARLY AS 12 NOON.", "nsi_id": "unitedstatespostalservice-a77078", "operator": "United States Postal Service", "operator:short": "USPS", "operator:type": "public", "operator:wikidata": "Q668687", "ref": "4360700098"}, "type": "Feature"}
{"geometry": {"coordinates": [-83.5433395, 41.669376], "type": "Point"}, "id": "eWzMlIxo8ZO5d-GLo4Wz5vqE3zo=", "properties": {"@source_uri": "https://tools.usps.com/UspsToolsRestServices/rest/POLocator/findLocations", "@spider": "usps_collection_boxes", "addr:city": "TOLEDO", "addr:country": "US", "addr:postcode": "43608", "addr:state": "OH", "addr:street_address": "2409 CHERRY ST", "amenity": "post_box", "collection_times": "Mo-Fr 10:00; Sa 12:00", "nsi_id": "unitedstatespostalservice-a77078", "operator": "United States Postal Service", "operator:short": "USPS", "operator:type": "public", "operator:wikidata": "Q668687", "ref": "4360800001"}, "type": "Feature"}
{"geometry": {"coordinates": [-83.5408300178, 41.6685799983], "type": "Point"}, "id": "jMAZVGeJ6Petba2U_-dUZ-BRLS8=", "properties": {"@source_uri": "https://tools.usps.com/UspsToolsRestServices/rest/POLocator/findLocations", "@spider": "usps_collection_boxes", "addr:city": "TOLEDO", "addr:country": "US", "addr:postcode": "43608", "addr:state": "OH", "addr:street_address": "2222 CHERRY ST", "amenity": "post_box", "collection_times": "Mo-Fr 10:00; Sa 12:00", "nsi_id": "unitedstatespostalservice-a77078", "operator": "United States Postal Service", "operator:short": "USPS", "operator:type": "public", "operator:wikidata": "Q668687", "ref": "4360800016"}, "type": "Feature"}
{"geometry": {"coordinates": [-83.5398499, 41.677045], "type": "Point"}, "id": "d4gqp11aOLeMsLH6Ztxe8OYAUN0=", "properties": {"@source_uri": "https://tools.usps.com/UspsToolsRestServices/rest/POLocator/findLocations", "@spider": "usps_collection_boxes", "addr:city": "TOLEDO", "addr:country": "US", "addr:postcode": "43608", "addr:state": "OH", "addr:street_address": "2905 LAGRANGE ST", "amenity": "post_box", "collection_times": "Mo-Fr 12:15; Sa 10:45", "note": "ON 12/24 AND 12/31, THIS BOX MAY BE COLLECTED AS EARLY AS 12 NOON.", "nsi_id": "unitedstatespostalservice-a77078", "operator": "United States Postal Service", "operator:short": "USPS", "operator:type": "public", "operator:wikidata": "Q668687", "ref": "4360800019"}, "type": "Feature"}
{"geometry": {"coordinates": [-83.5362852, 41.685141], "type": "Point"}, "id": "5vkC_M9AgmKJQwEVDV_dM4PTtMw=", "properties": {"@source_uri": "https://tools.usps.com/UspsToolsRestServices/rest/POLocator/findLocations", "@spider": "usps_collection_boxes", "addr:city": "TOLEDO", "addr:country": "US", "addr:postcode": "43608", "addr:state": "OH", "addr:street_address": "3402 ELM ST", "amenity": "post_box", "collection_times": "Mo-Sa 15:00", "note": "ON 12/24 AND 12/31, THIS BOX MAY BE COLLECTED AS EARLY AS 12 NOON.", "nsi_id": "unitedstatespostalservice-a77078", "operator": "United States Postal Service", "operator:short": "USPS", "operator:type": "public", "operator:wikidata": "Q668687", "ref": "4360800021"}, "type": "Feature"}
{"geometry": {"coordinates": [-83.518345245, 41.68819888], "type": "Point"}, "id": "jRu9kHgERK0DxoA7IDrWsOUZK7U=", "properties": {"@source_uri": "https://tools.usps.com/UspsToolsRestServices/rest/POLocator/findLocations", "@spider": "usps_collection_boxes", "addr:city": "TOLEDO", "addr:country": "US", "addr:postcode": "43608", "addr:state": "OH", "addr:street_address": "3570 S EXPRESSWAY DR", "amenity": "post_box", "collection_times": "Mo-Fr 12:00; Sa 10:30", "nsi_id": "unitedstatespostalservice-a77078", "operator": "United States Postal Service", "operator:short": "USPS", "operator:type": "public", "operator:wikidata": "Q668687", "ref": "4360800039"}, "type": "Feature"}
{"geometry": {"coordinates": [-83.532452373, 41.6865293945], "type": "Point"}, "id": "zsd6QTThz06KyWL9Pa_EPbTeUOM=", "properties": {"@source_uri": "https://tools.usps.com/UspsToolsRestServices/rest/POLocator/findLocations", "@spider": "usps_collection_boxes", "addr:city": "TOLEDO", "addr:country": "US", "addr:postcode": "43608", "addr:state": "OH", "addr:street_address": "549 E MANHATTAN BLVD", "amenity": "post_box", "collection_times": "Mo-Fr 17:00; Sa 15:45", "note": "ON 12/24 AND 12/31, THIS BOX MAY BE COLLECTED AS EARLY AS 12 NOON.", "nsi_id": "unitedstatespostalservice-a77078", "operator": "United States Postal Service", "operator:short": "USPS", "operator:type": "public", "operator:wikidata": "Q668687", "ref": "4360800052"}, "type": "Feature"}
{"geometry": {"coordinates": [-83.5264395, 41.684544], "type": "Point"}, "id": "xRVX_jfUcdMAxrql3deD1blBMxQ=", "properties": {"@source_uri": "https://tools.usps.com/UspsToolsRestServices/rest/POLocator/findLocations", "@spider": "usps_collection_boxes", "addr:city": "TOLEDO", "addr:country": "US", "addr:postcode": "43608", "addr:state": "OH", "addr:street_address": "3360 STICKNEY AVE", "amenity": "post_box", "collection_times": "Mo-Sa 09:30", "nsi_id": "unitedstatespostalservice-a77078", "operator": "United States Postal Service", "operator:short": "USPS", "operator:type": "public", "operator:wikidata": "Q668687", "ref": "4360800054"}, "type": "Feature"}
{"geometry": {"coordinates": [-83.532452373, 41.6865293945], "type": "Point"}, "id": "DUrR_KNa0a-lciqdf2ejEOqtyXs=", "properties": {"@source_uri": "https://tools.usps.com/UspsToolsRestServices/rest/POLocator/findLocations", "@spider": "usps_collection_boxes", "addr:city": "TOLEDO", "addr:country": "US", "addr:postcode": "43608", "addr:state": "OH", "addr:street_address": "549 E MANHATTAN BLVD", "amenity": "post_box", "collection_times": "Mo-Fr 17:00", "indoor": "yes", "note": "ON 12/24 AND 12/31, THIS BOX MAY BE COLLECTED AS EARLY AS 12 NOON.", "nsi_id": "unitedstatespostalservice-a77078", "operator": "United States Postal Service", "operator:short": "USPS", "operator:type": "public", "operator:wikidata": "Q668687", "ref": "4360800070"}, "type": "Feature"}
{"geometry": {"coordinates": [-83.532452373, 41.686529395], "type": "Point"}, "id": "MPC4oNQj8R9sTh1WHxILE4J1AaU=", "properties": {"@source_uri": "https://tools.usps.com/UspsToolsRestServices/rest/POLocator/findLocations", "@spider": "usps_collection_boxes", "addr:city": "TOLEDO", "addr:country": "US", "addr:postcode": "43608", "addr:state": "OH", "addr:street_address": "549 E MANHATTAN BLVD", "amenity": "post_box", "collection_times": "Mo-Fr 16:30; Sa 12:00", "indoor": "yes", "note": "ON 12/24 AND 12/31, THIS BOX MAY BE COLLECTED AS EARLY AS 12 NOON.", "nsi_id": "unitedstatespostalservice-a77078", "operator": "United States Postal Service", "operator:short": "USPS", "operator:type": "public", "operator:wikidata": "Q668687", "ref": "4360800071"}, "type": "Feature"}
{"geometry": {"coordinates": [-83.6078235, 41.628462], "type": "Point"}, "id": "zDb9msRBSwG__CnMUl_9sWbPOK8=", "properties": {"@source_uri": "https://tools.usps.com/UspsToolsRestServices/rest/POLocator/findLocations", "@spider": "usps_collection_boxes", "addr:city": "TOLEDO", "addr:country": "US", "addr:postcode": "43609", "addr:state": "OH", "addr:street_address": "2707 AIRPORT HWY", "amenity": "post_box", "collection_times": "Mo-Fr 09:45; Sa 09:30", "nsi_id": "unitedstatespostalservice-a77078", "operator": "United States Postal Service", "operator:short": "USPS", "operator:type": "public", "operator:wikidata": "Q668687", "ref": "4360900005"}, "type": "Feature"}
{"geometry": {"coordinates": [-83.6213594, 41.625415], "type": "Point"}, "id": "mkil78qWj9KkG60M7z8WhMLF4pk=", "properties": {"@source_uri": "https://tools.usps.com/UspsToolsRestServices/rest/POLocator/findLocations", "@spider": "usps_collection_boxes", "addr:city": "TOLEDO", "addr:country": "US", "addr:postcode": "43609", "addr:state": "OH", "addr:street_address": "3326 AIRPORT HWY", "amenity": "post_box", "collection_times": "Mo-Fr 09:30; Sa 09:15", "nsi_id": "unitedstatespostalservice-a77078", "operator": "United States Postal Service", "operator:short": "USPS", "operator:type": "public", "operator:wikidata": "Q668687", "ref": "4360900007"}, "type": "Feature"}
{"geometry": {"coordinates": [-83.5579577, 41.629718], "type": "Point"}, "id": "vw0areVmSf7Dc-S9-e5k__z3UMo=", "properties": {"@source_uri": "https://tools.usps.com/UspsToolsRestServices/rest/POLocator/findLocations", "@spider": "usps_collection_boxes", "addr:city": "TOLEDO", "addr:country": "US", "addr:postcode": "43609", "addr:state": "OH", "addr:street_address": "1705 BROADWAY ST", "amenity": "post_box", "collection_times": "Mo-Fr 09:30; Sa 09:15", "nsi_id": "unitedstatespostalservice-a77078", "operator": "United States Postal Service", "operator:short": "USPS", "operator:type": "public", "operator:wikidata": "Q668687", "ref": "4360900055"}, "type": "Feature"}
{"geometry": {"coordinates": [-83.5870144, 41.623427], "type": "Point"}, "id": "wRSrFVjwrKLIe3-sC6Ajk2-aWfk=", "properties": {"@source_uri": "https://tools.usps.com/UspsToolsRestServices/rest/POLocator/findLocations", "@spider": "usps_collection_boxes", "addr:city": "TOLEDO", "addr:country": "US", "addr:postcode": "43609", "addr:state": "OH", "addr:street_address": "1806 ARLINGTON AVE", "amenity": "post_box", "collection_times": "Mo-Fr 09:45; Sa 09:30", "nsi_id": "unitedstatespostalservice-a77078", "operator": "United States Postal Service", "operator:short": "USPS", "operator:type": "public", "operator:wikidata": "Q668687", "ref": "4360900060"}, "type": "Feature"}
{"geometry": {"coordinates": [-83.5998989141, 41.6304330447], "type": "Point"}, "id": "a4nmuYkCOK5wNsV4i6fL_8MSaIs=", "properties": {"@source_uri": "https://tools.usps.com/UspsToolsRestServices/rest/POLocator/findLocations", "@spider": "usps_collection_boxes", "addr:city": "TOLEDO", "addr:country": "US", "addr:postcode": "43609", "addr:state": "OH", "addr:street_address": "2330 AIRPORT HWY", "amenity": "post_box", "collection_times": "Mo-Fr 09:30; Sa 09:15", "nsi_id": "unitedstatespostalservice-a77078", "operator": "United States Postal Service", "operator:short": "USPS", "operator:type": "public", "operator:wikidata": "Q668687", "ref": "4360900064"}, "type": "Feature"}
{"geometry": {"coordinates": [-83.553259988, 41.665919008], "type": "Point"}, "id": "_WDLcQnMlcnPP03Hw_5H_eWdM2U=", "properties": {"@source_uri": "https://tools.usps.com/UspsToolsRestServices/rest/POLocator/findLocations", "@spider": "usps_collection_boxes", "addr:city": "TOLEDO", "addr:country": "US", "addr:postcode": "43610", "addr:state": "OH", "addr:street_address": "2280 ASHLAND AVE", "amenity": "post_box", "collection_times": "Mo-Fr 17:00; Sa 14:00", "indoor": "yes", "note": "ON 12/24 AND 12/31, THIS BOX MAY BE COLLECTED AS EARLY AS 12 NOON.", "nsi_id": "unitedstatespostalservice-a77078", "operator": "United States Postal Service", "operator:short": "USPS", "operator:type": "public", "operator:wikidata": "Q668687", "ref": "4361000032"}, "type": "Feature"}
{"geometry": {"coordinates": [-83.4897459, 41.705026], "type": "Point"}, "id": "4hK_8nT7FnEPKrI6CO4N41YruJ8=", "properties": {"@source_uri": "https://tools.usps.com/UspsToolsRestServices/rest/POLocator/findLocations", "@spider": "usps_collection_boxes", "addr:city": "TOLEDO", "addr:country": "US", "addr:postcode": "43611", "addr:state": "OH", "addr:street_address": "4503 286TH ST", "amenity": "post_box", "collection_times": "Mo-Fr 14:15; Sa 13:00", "note": "ON 12/24 AND 12/31, THIS BOX MAY BE COLLECTED AS EARLY AS 12 NOON.", "nsi_id": "unitedstatespostalservice-a77078", "operator": "United States Postal Service", "operator:short": "USPS", "operator:type": "public", "operator:wikidata": "Q668687", "ref": "4361100001"}, "type": "Feature"}
{"geometry": {"coordinates": [-83.4792474, 41.705977], "type": "Point"}, "id": "UooylNoyRdKCPuSxCTYiQzMRxgY=", "properties": {"@source_uri": "https://tools.usps.com/UspsToolsRestServices/rest/POLocator/findLocations", "@spider": "usps_collection_boxes", "addr:city": "TOLEDO", "addr:country": "US", "addr:postcode": "43611", "addr:state": "OH", "addr:street_address": "2755 104TH ST", "amenity": "post_box", "collection_times": "Mo-Fr 14:15; Sa 13:00", "note": "ON 12/24 AND 12/31, THIS BOX MAY BE COLLECTED AS EARLY AS 12 NOON.", "nsi_id": "unitedstatespostalservice-a77078", "operator": "United States Postal Service", "operator:short": "USPS", "operator:type": "public", "operator:wikidata": "Q668687", "ref": "4361100002"}, "type": "Feature"}
{"geometry": {"coordinates": [-83.4892531, 41.709062], "type": "Point"}, "id": "VgWJUwGW91-BNOlazRBaoR8puqo=", "properties": {"@source_uri": "https://tools.usps.com/UspsToolsRestServices/rest/POLocator/findLocations", "@spider": "usps_collection_boxes", "addr:city": "TOLEDO", "addr:country": "US", "addr:postcode": "43611", "addr:state": "OH", "addr:street_address": "4801 287TH ST", "amenity": "post_box", "collection_times": "Mo-Fr 14:15; Sa 12:45", "note": "ON 12/24 AND 12/31, THIS BOX MAY BE COLLECTED AS EARLY AS 12 NOON.", "nsi_id": "unitedstatespostalservice-a77078", "operator": "United States Postal Service", "operator:short": "USPS", "operator:type": "public", "operator:wikidata": "Q668687", "ref": "4361100004"}, "type": "Feature"}
{"geometry": {"coordinates": [-83.4744406, 41.720046], "type": "Point"}, "id": "odfIuHKkmE1jPFcJ5_S2tpkx5Lc=", "properties": {"@source_uri": "https://tools.usps.com/UspsToolsRestServices/rest/POLocator/findLocations", "@spider": "usps_collection_boxes", "addr:city": "TOLEDO", "addr:country": "US", "addr:postcode": "43611", "addr:state": "OH", "addr:street_address": "3002 131ST ST", "amenity": "post_box", "collection_times": "Mo-Fr 13:45; Sa 12:30", "note": "ON 12/24 AND 12/31, THIS BOX MAY BE COLLECTED AS EARLY AS 12 NOON.", "nsi_id": "unitedstatespostalservice-a77078", "operator": "United States Postal Service", "operator:short": "USPS", "operator:type": "public", "operator:wikidata": "Q668687", "ref": "4361100008"}, "type": "Feature"}
{"geometry": {"coordinates": [-83.4788999, 41.730831], "type": "Point"}, "id": "hOOdAqSoq-6xYhZ7ioQ5CVjn_uo=", "properties": {"@source_uri": "https://tools.usps.com/UspsToolsRestServices/rest/POLocator/findLocations", "@spider": "usps_collection_boxes", "addr:city": "TOLEDO", "addr:country": "US", "addr:postcode": "43611", "addr:state": "OH", "addr:street_address": "6200 N SUMMIT ST", "amenity": "post_box", "collection_times": "Mo-Fr 14:00; Sa 12:30", "note": "ON 12/24 AND 12/31, THIS BOX MAY BE COLLECTED AS EARLY AS 12 NOON.", "nsi_id": "unitedstatespostalservice-a77078", "operator": "United States Postal Service", "operator:short": "USPS", "operator:type": "public", "operator:wikidata": "Q668687", "ref": "4361100012"}, "type": "Feature"}
{"geometry": {"coordinates": [-83.5104186, 41.671489], "type": "Point"}, "id": "yAmVwj0j4r1LWZbpesmKqTgUgUQ=", "properties": {"@source_uri": "https://tools.usps.com/UspsToolsRestServices/rest/POLocator/findLocations", "@spider": "usps_collection_boxes", "addr:city": "TOLEDO", "addr:country": "US", "addr:postcode": "43611", "addr:state": "OH", "addr:street_address": "732 GALENA ST", "amenity": "post_box", "collection_times": "Mo-Sa 12:00", "nsi_id": "unitedstatespostalservice-a77078", "operator": "United States Postal Service", "operator:short": "USPS", "operator:type": "public", "operator:wikidata": "Q668687", "ref": "4361100022"}, "type": "Feature"}
{"geometry": {"coordinates": [-83.47719, 41.715215], "type": "Point"}, "id": "wffY7IEJvw9EVsaXJ32ITkbZOZM=", "properties": {"@source_uri": "https://tools.usps.com/UspsToolsRestServices/rest/POLocator/findLocations", "@spider": "usps_collection_boxes", "addr:city": "TOLEDO", "addr:country": "US", "addr:postcode": "43611", "addr:state": "OH", "addr:street_address": "4445 N SUMMIT ST", "amenity": "post_box", "collection_times": "Mo-Fr 17:00; Sa 15:30", "note": "ON 12/24 AND 12/31, THIS BOX MAY BE COLLECTED AS EARLY AS 12 NOON.", "nsi_id": "unitedstatespostalservice-a77078", "operator": "United States Postal Service", "operator:short": "USPS", "operator:type": "public", "operator:wikidata": "Q668687", "ref": "4361100025"}, "type": "Feature"}
{"geometry": {"coordinates": [-83.4786180237, 41.7086120097], "type": "Point"}, "id": "9NAh-Gk9OH9Hq9H8-4maT3K7l4k=", "properties": {"@source_uri": "https://tools.usps.com/UspsToolsRestServices/rest/POLocator/findLocations", "@spider": "usps_collection_boxes", "addr:city": "TOLEDO", "addr:country": "US", "addr:postcode": "43611", "addr:state": "OH", "addr:street_address": "4730 N SUMMIT ST", "amenity": "post_box", "collection_times": "Mo-Fr 13:45; Sa 12:15", "note": "ON 12/24 AND 12/31, THIS BOX MAY BE COLLECTED AS EARLY AS 12 NOON.", "nsi_id": "unitedstatespostalservice-a77078", "operator": "United States Postal Service", "operator:short": "USPS", "operator:type": "public", "operator:wikidata": "Q668687", "ref": "4361100027"}, "type": "Feature"}
{"geometry": {"coordinates": [-83.4790696, 41.716373], "type": "Point"}, "id": "J1trgQORfTVtTjOSjz420jbeCdo=", "properties": {"@source_uri": "https://tools.usps.com/UspsToolsRestServices/rest/POLocator/findLocations", "@spider": "usps_collection_boxes", "addr:city": "TOLEDO", "addr:country": "US", "addr:postcode": "43611", "addr:state": "OH", "addr:street_address": "5198 N SUMMIT ST", "amenity": "post_box", "collection_times": "Mo-Sa 09:30", "nsi_id": "unitedstatespostalservice-a77078", "operator": "United States Postal Service", "operator:short": "USPS", "operator:type": "public", "operator:wikidata": "Q668687", "ref": "4361100030"}, "type": "Feature"}
{"geometry": {"coordinates": [-83.4794149, 41.719253], "type": "Point"}, "id": "Kp_MSxqNGBnDBP8HfKG0mvHOBdU=", "properties": {"@source_uri": "https://tools.usps.com/UspsToolsRestServices/rest/POLocator/findLocations", "@spider": "usps_collection_boxes", "addr:city": "TOLEDO", "addr:country": "US", "addr:postcode": "43611", "addr:state": "OH", "addr:street_address": "5417 N SUMMIT ST", "amenity": "post_box", "collection_times": "Mo-Fr 14:00; Sa 12:45", "note": "ON 12/24 AND 12/31, THIS BOX MAY BE COLLECTED AS EARLY AS 12 NOON.", "nsi_id": "unitedstatespostalservice-a77078", "operator": "United States Postal Service", "operator:short": "USPS", "operator:type": "public", "operator:wikidata": "Q668687", "ref": "4361100031"}, "type": "Feature"}
{"geometry": {"coordinates": [-83.501043, 41.71335], "type": "Point"}, "id": "cjYK40Siv0iMM8IIEAoPXYvL7Z4=", "properties": {"@source_uri": "https://tools.usps.com/UspsToolsRestServices/rest/POLocator/findLocations", "@spider": "usps_collection_boxes", "addr:city": "TOLEDO", "addr:country": "US", "addr:postcode": "43611", "addr:state": "OH", "addr:street_address": "5201 SUDER AVE", "amenity": "post_box", "collection_times": "Mo-Fr 13:30; Sa 12:15", "note": "ON 12/24 AND 12/31, THIS BOX MAY BE COLLECTED AS EARLY AS 12 NOON.", "nsi_id": "unitedstatespostalservice-a77078", "operator": "United States Postal Service", "operator:short": "USPS", "operator:type": "public", "operator:wikidata": "Q668687", "ref": "4361100037"}, "type": "Feature"}
{"geometry": {"coordinates": [-83.5001549, 41.705329], "type": "Point"}, "id": "JrtE3GOsLu5GNeM0L83onyZf8Q0=", "properties": {"@source_uri": "https://tools.usps.com/UspsToolsRestServices/rest/POLocator/findLocations", "@spider": "usps_collection_boxes", "addr:city": "TOLEDO", "addr:country": "US", "addr:postcode": "43611", "addr:state": "OH", "addr:street_address": "4633 SUDER AVE", "amenity": "post_box", "collection_times": "Mo-Sa 09:30", "nsi_id": "unitedstatespostalservice-a77078", "operator": "United States Postal Service", "operator:short": "USPS", "operator:type": "public", "operator:wikidata": "Q668687", "ref": "4361100038"}, "type": "Feature"}
{"geometry": {"coordinates": [-83.47719, 41.715215], "type": "Point"}, "id": "XQgiguTCeIgJ8mAfS1lPvm1u0iI=", "properties": {"@source_uri": "https://tools.usps.com/UspsToolsRestServices/rest/POLocator/findLocations", "@spider": "usps_collection_boxes", "addr:city": "TOLEDO", "addr:country": "US", "addr:postcode": "43611", "addr:state": "OH", "addr:street_address": "4445 N SUMMIT ST", "amenity": "post_box", "collection_times": "Mo-Fr 17:00; Sa 12:00", "indoor": "yes", "note": "ON 12/24 AND 12/31, THIS BOX MAY BE COLLECTED AS EARLY AS 12 NOON.", "nsi_id": "unitedstatespostalservice-a77078", "operator": "United States Postal Service", "operator:short": "USPS", "operator:type": "public", "operator:wikidata": "Q668687", "ref": "4361100039"}, "type": "Feature"}
{"geometry": {"coordinates": [-83.47719, 41.715215], "type": "Point"}, "id": "3Tc7dHvCKolz1saM2Y-Ukcg7ftQ=", "properties": {"@source_uri": "https://tools.usps.com/UspsToolsRestServices/rest/POLocator/findLocations", "@spider": "usps_collection_boxes", "addr:city": "TOLEDO", "addr:country": "US", "addr:postcode": "43611", "addr:state": "OH", "addr:street_address": "4445 N SUMMIT ST", "amenity": "post_box", "collection_times": "Mo-Fr 17:00; Sa 12:00", "indoor": "yes", "note": "ON 12/24 AND 12/31, THIS BOX MAY BE COLLECTED AS EARLY AS 12 NOON.", "nsi_id": "unitedstatespostalservice-a77078", "operator": "United States Postal Service", "operator:short": "USPS", "operator:type": "public", "operator:wikidata": "Q668687", "ref": "4361100042"}, "type": "Feature"}
{"geometry": {"coordinates": [-83.5642566, 41.719934], "type": "Point"}, "id": "wQ0G8fMj8IheMFcsc9KKXv3Jjbk=", "properties": {"@source_uri": "https://tools.usps.com/UspsToolsRestServices/rest/POLocator/findLocations", "@spider": "usps_collection_boxes", "addr:city": "TOLEDO", "addr:country": "US", "addr:postcode": "43612", "addr:state": "OH", "addr:street_address": "833 W ALEXIS RD", "amenity": "post_box", "collection_times": "Mo-Fr 13:00; Sa 11:30", "note": "ON 12/24 AND 12/31, THIS BOX MAY BE COLLECTED AS EARLY AS 12 NOON.", "nsi_id": "unitedstatespostalservice-a77078", "operator": "United States Postal Service", "operator:short": "USPS", "operator:type": "public", "operator:wikidata": "Q668687", "ref": "4361200007"}, "type": "Feature"}
{"geometry": {"coordinates": [-83.5655477, 41.724511], "type": "Point"}, "id": "L6dhxNwU1PtxHi4fkrT_7_9_syI=", "properties": {"@source_uri": "https://tools.usps.com/UspsToolsRestServices/rest/POLocator/findLocations", "@spider": "usps_collection_boxes", "addr:city": "TOLEDO", "addr:country": "US", "addr:postcode": "43612", "addr:state": "OH", "addr:street_address": "5860 LEWIS AVE", "amenity": "post_box", "collection_times": "Mo-Fr 13:00; Sa 11:30", "note": "ON 12/24 AND 12/31, THIS BOX MAY BE COLLECTED AS EARLY AS 12 NOON.", "nsi_id": "unitedstatespostalservice-a77078", "operator": "United States Postal Service", "operator:short": "USPS", "operator:type": "public", "operator:wikidata": "Q668687", "ref": "4361200010"}, "type": "Feature"}
{"geometry": {"coordinates": [-83.5562252, 41.703222], "type": "Point"}, "id": "kQqzyT7syaL52GAJLYWVuiB34f0=", "properties": {"@source_uri": "https://tools.usps.com/UspsToolsRestServices/rest/POLocator/findLocations", "@spider": "usps_collection_boxes", "addr:city": "TOLEDO", "addr:country": "US", "addr:postcode": "43612", "addr:state": "OH", "addr:street_address": "459 CALIFORNIA BLVD", "amenity": "post_box", "collection_times": "Mo-Fr 12:30; Sa 11:00", "note": "ON 12/24 AND 12/31, THIS BOX MAY BE COLLECTED AS EARLY AS 12 NOON.", "nsi_id": "unitedstatespostalservice-a77078", "operator": "United States Postal Service", "operator:short": "USPS", "operator:type": "public", "operator:wikidata": "Q668687", "ref": "4361200012"}, "type": "Feature"}
{"geometry": {"coordinates": [-83.556309, 41.705688], "type": "Point"}, "id": "ta0hvwUcX5Isf1l3IBAKI4yaw5g=", "properties": {"@source_uri": "https://tools.usps.com/UspsToolsRestServices/rest/POLocator/findLocations", "@spider": "usps_collection_boxes", "addr:city": "TOLEDO", "addr:country": "US", "addr:postcode": "43612", "addr:state": "OH", "addr:street_address": "455 W CAPISTRANO AVE", "amenity": "post_box", "collection_times": "Mo-Fr 12:30; Sa 11:00", "note": "ON 12/24 AND 12/31, THIS BOX MAY BE COLLECTED AS EARLY AS 12 NOON.", "nsi_id": "unitedstatespostalservice-a77078", "operator": "United States Postal Service", "operator:short": "USPS", "operator:type": "public", "operator:wikidata": "Q668687", "ref": "4361200013"}, "type": "Feature"}
{"geometry": {"coordinates": [-83.5568211, 41.715638], "type": "Point"}, "id": "HWoAbKNDmcaNKCbEUAPK7BMZGWc=", "properties": {"@source_uri": "https://tools.usps.com/UspsToolsRestServices/rest/POLocator/findLocations", "@spider": "usps_collection_boxes", "addr:city": "TOLEDO", "addr:country": "US", "addr:postcode": "43612", "addr:state": "OH", "addr:street_address": "5435 BENNETT RD", "amenity": "post_box", "collection_times": "Mo-Fr 13:15; Sa 11:45", "note": "ON 12/24 AND 12/31, THIS BOX MAY BE COLLECTED AS EARLY AS 12 NOON.", "nsi_id": "unitedstatespostalservice-a77078", "operator": "United States Postal Service", "operator:short": "USPS", "operator:type": "public", "operator:wikidata": "Q668687", "ref": "4361200015"}, "type": "Feature"}
{"geometry": {"coordinates": [-83.5658271, 41.700295], "type": "Point"}, "id": "4VloO1q80mq95k5PpvyvqYZCF9s=", "properties": {"@source_uri": "https://tools.usps.com/UspsToolsRestServices/rest/POLocator/findLocations", "@spider": "usps_collection_boxes", "addr:city": "TOLEDO", "addr:country": "US", "addr:postcode": "43612", "addr:state": "OH", "addr:street_address": "4502 LEWIS AVE", "amenity": "post_box", "collection_times": "Mo-Fr 12:45; Sa 11:15", "note": "ON 12/24 AND 12/31, THIS BOX MAY BE COLLECTED AS EARLY AS 12 NOON.", "nsi_id": "unitedstatespostalservice-a77078", "operator": "United States Postal Service", "operator:short": "USPS", "operator:type": "public", "operator:wikidata": "Q668687", "ref": "4361200031"}, "type": "Feature"}
{"geometry": {"coordinates": [-83.5183015, 41.70844], "type": "Point"}, "id": "eGIdymSxSZZyLr8yW9AsMZnx6wo=", "properties": {"@source_uri": "https://tools.usps.com/UspsToolsRestServices/rest/POLocator/findLocations", "@spider": "usps_collection_boxes", "addr:city": "TOLEDO", "addr:country": "US", "addr:postcode": "43612", "addr:state": "OH", "addr:street_address": "5015 ENTERPRISE BLVD", "amenity": "post_box", "collection_times": "Mo-Fr 13:30; Sa 11:45", "note": "ON 12/24 AND 12/31, THIS BOX MAY BE COLLECTED AS EARLY AS 12 NOON.", "nsi_id": "unitedstatespostalservice-a77078", "operator": "United States Postal Service", "operator:short": "USPS", "operator:type": "public", "operator:wikidata": "Q668687", "ref": "4361200034"}, "type": "Feature"}
{"geometry": {"coordinates": [-83.5661659, 41.703963], "type": "Point"}, "id": "NpAi0r_coKXCFLKcoAq696lPmIw=", "properties": {"@source_uri": "https://tools.usps.com/UspsToolsRestServices/rest/POLocator/findLocations", "@spider": "usps_collection_boxes", "addr:city": "TOLEDO", "addr:country": "US", "addr:postcode": "43612", "addr:state": "OH", "addr:street_address": "4801 LEWIS AVE", "amenity": "post_box", "collection_times": "Mo-Fr 12:45; Sa 11:15", "note": "ON 12/24 AND 12/31, THIS BOX MAY BE COLLECTED AS EARLY AS 12 NOON.", "nsi_id": "unitedstatespostalservice-a77078", "operator": "United States Postal Service", "operator:short": "USPS", "operator:type": "public", "operator:wikidata": "Q668687", "ref": "4361200048"}, "type": "Feature"}
{"geometry": {"coordinates": [-83.5660091, 41.711708], "type": "Point"}, "id": "xTyehZKWGK17XcQprfs_OElSGGY=", "properties": {"@source_uri": "https://tools.usps.com/UspsToolsRestServices/rest/POLocator/findLocations", "@spider": "usps_collection_boxes", "addr:city": "TOLEDO", "addr:country": "US", "addr:postcode": "43612", "addr:state": "OH", "addr:street_address": "945 MAYFAIR BLVD", "amenity": "post_box", "collection_times": "Mo-Fr 12:45; Sa 11:15", "note": "ON 12/24 AND 12/31, THIS BOX MAY BE COLLECTED AS EARLY AS 12 NOON.", "nsi_id": "unitedstatespostalservice-a77078", "operator": "United States Postal Service", "operator:short": "USPS", "operator:type": "public", "operator:wikidata": "Q668687", "ref": "4361200049"}, "type": "Feature"}
{"geometry": {"coordinates": [-83.5455147, 41.723657], "type": "Point"}, "id": "AUDXwAFOx2IHhiXW29rZioI1cM4=", "properties": {"@source_uri": "https://tools.usps.com/UspsToolsRestServices/rest/POLocator/findLocations", "@spider": "usps_collection_boxes", "addr:city": "TOLEDO", "addr:country": "US", "addr:postcode": "43612", "addr:state": "OH", "addr:street_address": "5801 TELETOWNE DR", "amenity": "post_box", "collection_times": "Mo-Fr 15:15; Sa 14:00", "note": "ON 12/24 AND 12/31, THIS BOX MAY BE COLLECTED AS EARLY AS 12 NOON.", "nsi_id": "unitedstatespostalservice-a77078", "operator": "United States Postal Service", "operator:short": "USPS", "operator:type": "public", "operator:wikidata": "Q668687", "ref": "4361200058"}, "type": "Feature"}
{"geometry": {"coordinates": [-83.5723876, 41.693013], "type": "Point"}, "id": "ZhpL4I-dr4I98DEBeoF61l2fJIY=", "properties": {"@source_uri": "https://tools.usps.com/UspsToolsRestServices/rest/POLocator/findLocations", "@spider": "usps_collection_boxes", "addr:city": "TOLEDO", "addr:country": "US", "addr:postcode": "43612", "addr:state": "OH", "addr:street_address": "1320 W SYLVANIA AVE", "amenity": "post_box", "collection_times": "Mo-Fr 12:30; Sa 11:00", "note": "ON 12/24 AND 12/31, THIS BOX MAY BE COLLECTED AS EARLY AS 12 NOON.", "nsi_id": "unitedstatespostalservice-a77078", "operator": "United States Postal Service", "operator:short": "USPS", "operator:type": "public", "operator:wikidata": "Q668687", "ref": "4361200062"}, "type": "Feature"}
{"geometry": {"coordinates": [-83.578235, 41.697215], "type": "Point"}, "id": "4jz0Y4QReJ77rxpX-GdB87YIwrQ=", "properties": {"@source_uri": "https://tools.usps.com/UspsToolsRestServices/rest/POLocator/findLocations", "@spider": "usps_collection_boxes", "addr:city": "TOLEDO", "addr:country": "US", "addr:postcode": "43612", "addr:state": "OH", "addr:street_address": "735 SANDRALEE DR", "amenity": "post_box", "collection_times": "Mo-Fr 13:15; Sa 11:45", "note": "ON 12/24 AND 12/31, THIS BOX MAY BE COLLECTED AS EARLY AS 12 NOON.", "nsi_id": "unitedstatespostalservice-a77078", "operator": "United States Postal Service", "operator:short": "USPS", "operator:type": "public", "operator:wikidata": "Q668687", "ref": "4361200066"}, "type": "Feature"}
{"geometry": {"coordinates": [-83.581541612, 41.692382497], "type": "Point"}, "id": "Ji0-HZpxh_RcVHvE3biafTdQKF4=", "properties": {"@source_uri": "https://tools.usps.com/UspsToolsRestServices/rest/POLocator/findLocations", "@spider": "usps_collection_boxes", "addr:city": "TOLEDO", "addr:country": "US", "addr:postcode": "43612", "addr:state": "OH", "addr:street_address": "1568 W SYLVANIA AVE", "amenity": "post_box", "collection_times": "Mo-Fr 17:00; Sa 16:15", "note": "ON 12/24 AND 12/31, THIS BOX MAY BE COLLECTED AS EARLY AS 12 NOON.", "nsi_id": "unitedstatespostalservice-a77078", "operator": "United States Postal Service", "operator:short": "USPS", "operator:type": "public", "operator:wikidata": "Q668687", "ref": "4361200079"}, "type": "Feature"}
{"geometry": {"coordinates": [-83.5469976, 41.714871], "type": "Point"}, "id": "2BS_nkJAQMLxg5zvOVB6mol-TaY=", "properties": {"@source_uri": "https://tools.usps.com/UspsToolsRestServices/rest/POLocator/findLocations", "@spider": "usps_collection_boxes", "addr:city": "TOLEDO", "addr:country": "US", "addr:postcode": "43612", "addr:state": "OH", "addr:street_address": "5348 TELEGRAPH RD", "amenity": "post_box", "collection_times": "Mo-Fr 15:15; Sa 14:00", "note": "ON 12/24 AND 12/31, THIS BOX MAY BE COLLECTED AS EARLY AS 12 NOON.", "nsi_id": "unitedstatespostalservice-a77078", "operator": "United States Postal Service", "operator:short": "USPS", "operator:type": "public", "operator:wikidata": "Q668687", "ref": "4361200082"}, "type": "Feature"}
{"geometry": {"coordinates": [-83.5849371, 41.710904], "type": "Point"}, "id": "9PA3zAFF3oJJjX6G8qrTMqg2ULY=", "properties": {"@source_uri": "https://tools.usps.com/UspsToolsRestServices/rest/POLocator/findLocations", "@spider": "usps_collection_boxes", "addr:city": "TOLEDO", "addr:country": "US", "addr:postcode": "43612", "addr:state": "OH", "addr:street_address": "1630 COINING DR", "amenity": "post_box", "collection_times": "Mo-Fr 15:15; Sa 14:00", "note": "ON 12/24 AND 12/31, THIS BOX MAY BE COLLECTED AS EARLY AS 12 NOON.", "nsi_id": "unitedstatespostalservice-a77078", "operator": "United States Postal Service", "operator:short": "USPS", "operator:type": "public", "operator:wikidata": "Q668687", "ref": "4361200086"}, "type": "Feature"}
{"geometry": {"coordinates": [-83.5609125, 41.720136], "type": "Point"}, "id": "1MYHRiBp_VxUjKlMAeJugrbqPVo=", "properties": {"@source_uri": "https://tools.usps.com/UspsToolsRestServices/rest/POLocator/findLocations", "@spider": "usps_collection_boxes", "addr:city": "TOLEDO", "addr:country": "US", "addr:postcode": "43612", "addr:state": "OH", "addr:street_address": "817 W ALEXIS RD", "amenity": "post_box", "collection_times": "Mo-Fr 13:00; Sa 11:30", "note": "ON 12/24 AND 12/31, THIS BOX MAY BE COLLECTED AS EARLY AS 12 NOON.", "nsi_id": "unitedstatespostalservice-a77078", "operator": "United States Postal Service", "operator:short": "USPS", "operator:type": "public", "operator:wikidata": "Q668687", "ref": "4361200088"}, "type": "Feature"}
{"geometry": {"coordinates": [-83.581541612, 41.692382497], "type": "Point"}, "id": "6dSVSbuHaO_xa6G0vCmMsTCyggY=", "properties": {"@source_uri": "https://tools.usps.com/UspsToolsRestServices/rest/POLocator/findLocations", "@spider": "usps_collection_boxes", "addr:city": "TOLEDO", "addr:country": "US", "addr:postcode": "43612", "addr:state": "OH", "addr:street_address": "1568 W SYLVANIA AVE", "amenity": "post_box", "collection_times": "Mo-Fr 17:00; Sa 13:45", "indoor": "yes", "note": "ON 12/24 AND 12/31, THIS BOX MAY BE COLLECTED AS EARLY AS 12 NOON.", "nsi_id": "unitedstatespostalservice-a77078", "operator": "United States Postal Service", "operator:short": "USPS", "operator:type": "public", "operator:wikidata": "Q668687", "ref": "4361200089"}, "type": "Feature"}
{"geometry": {"coordinates": [-83.5525691, 41.689079], "type": "Point"}, "id": "6JfiNiNLli9QJik1yIbcq8G9rY4=", "properties": {"@source_uri": "https://tools.usps.com/UspsToolsRestServices/rest/POLocator/findLocations", "@spider": "usps_collection_boxes", "addr:city": "TOLEDO", "addr:country": "US", "addr:postcode": "43612", "addr:state": "OH", "addr:street_address": "300 PHILLIPS AVE", "amenity": "post_box", "collection_times": "Mo-Fr 12:15; Sa 10:45", "note": "ON 12/24 AND 12/31, THIS BOX MAY BE COLLECTED AS EARLY AS 12 NOON.", "nsi_id": "unitedstatespostalservice-a77078", "operator": "United States Postal Service", "operator:short": "USPS", "operator:type": "public", "operator:wikidata": "Q668687", "ref": "4361200091"}, "type": "Feature"}
{"geometry": {"coordinates": [-83.581541612, 41.692382497], "type": "Point"}, "id": "3ma5F4lX9cxWI0c_UapS-ZeMXdU=", "properties": {"@source_uri": "https://tools.usps.com/UspsToolsRestServices/rest/POLocator/findLocations", "@spider": "usps_collection_boxes", "addr:city": "TOLEDO", "addr:country": "US", "addr:postcode": "43612", "addr:state": "OH", "addr:street_address": "1568 W SYLVANIA AVE", "amenity": "post_box", "collection_times": "Mo-Fr 17:00; Sa 12:00", "indoor": "yes", "note": "ON 12/24 AND 12/31, THIS BOX MAY BE COLLECTED AS EARLY AS 12 NOON.", "nsi_id": "unitedstatespostalservice-a77078", "operator": "United States Postal Service", "operator:short": "USPS", "operator:type": "public", "operator:wikidata": "Q668687", "ref": "4361200098"}, "type": "Feature"}
{"geometry": {"coordinates": [-83.6166177, 41.692046], "type": "Point"}, "id": "1ldVAKBaAGqAt-HL9HdaP6HX5jw=", "properties": {"@source_uri": "https://tools.usps.com/UspsToolsRestServices/rest/POLocator/findLocations", "@spider": "usps_collection_boxes", "addr:city": "TOLEDO", "addr:country": "US", "addr:postcode": "43613", "addr:state": "OH", "addr:street_address": "3030 W SYLVANIA AVE", "amenity": "post_box", "collection_times": "Mo-Fr 16:30; Sa 15:30", "note": "ON 12/24 AND 12/31, THIS BOX MAY BE COLLECTED AS EARLY AS 12 NOON.", "nsi_id": "unitedstatespostalservice-a77078", "operator": "United States Postal Service", "operator:short": "USPS", "operator:type": "public", "operator:wikidata": "Q668687", "ref": "4361300005"}, "type": "Feature"}
{"geometry": {"coordinates": [-83.6048374, 41.722031], "type": "Point"}, "id": "LmSA6Q9KWFszy_HgZDSGD4_TNiE=", "properties": {"@source_uri": "https://tools.usps.com/UspsToolsRestServices/rest/POLocator/findLocations", "@spider": "usps_collection_boxes", "addr:city": "TOLEDO", "addr:country": "US", "addr:postcode": "43613", "addr:state": "OH", "addr:street_address": "5830 DOUGLAS RD", "amenity": "post_box", "collection_times": "Mo-Fr 15:30; Sa 14:30", "note": "ON 12/24 AND 12/31, THIS BOX MAY BE COLLECTED AS EARLY AS 12 NOON.", "nsi_id": "unitedstatespostalservice-a77078", "operator": "United States Postal Service", "operator:short": "USPS", "operator:type": "public", "operator:wikidata": "Q668687", "ref": "4361300007"}, "type": "Feature"}
{"geometry": {"coordinates": [-83.5983267, 41.721362], "type": "Point"}, "id": "4-ZAtrirDJz1Uo5fSRYOlEda8uY=", "properties": {"@source_uri": "https://tools.usps.com/UspsToolsRestServices/rest/POLocator/findLocations", "@spider": "usps_collection_boxes", "addr:city": "TOLEDO", "addr:country": "US", "addr:postcode": "43613", "addr:state": "OH", "addr:street_address": "2208 W ALEXIS RD", "amenity": "post_box", "collection_times": "Mo-Fr 15:30; Sa 14:15", "note": "ON 12/24 AND 12/31, THIS BOX MAY BE COLLECTED AS EARLY AS 12 NOON.", "nsi_id": "unitedstatespostalservice-a77078", "operator": "United States Postal Service", "operator:short": "USPS", "operator:type": "public", "operator:wikidata": "Q668687", "ref": "4361300009"}, "type": "Feature"}
{"geometry": {"coordinates": [-83.6133613, 41.688849], "type": "Point"}, "id": "VGOAlmLkL7wFi22jUngbuioPjoo=", "properties": {"@source_uri": "https://tools.usps.com/UspsToolsRestServices/rest/POLocator/findLocations", "@spider": "usps_collection_boxes", "addr:city": "TOLEDO", "addr:country": "US", "addr:postcode": "43613", "addr:state": "OH", "addr:street_address": "3802 ELMHURST RD", "amenity": "post_box", "collection_times": "Mo-Fr 16:30; Sa 15:30", "note": "ON 12/24 AND 12/31, THIS BOX MAY BE COLLECTED AS EARLY AS 12 NOON.", "nsi_id": "unitedstatespostalservice-a77078", "operator": "United States Postal Service", "operator:short": "USPS", "operator:type": "public", "operator:wikidata": "Q668687", "ref": "4361300013"}, "type": "Feature"}
{"geometry": {"coordinates": [-83.600836, 41.703905], "type": "Point"}, "id": "HowNyr4SwJUyUMCF7yjkkGqH9ek=", "properties": {"@source_uri": "https://tools.usps.com/UspsToolsRestServices/rest/POLocator/findLocations", "@spider": "usps_collection_boxes", "addr:city": "TOLEDO", "addr:country": "US", "addr:postcode": "43613", "addr:state": "OH", "addr:street_address": "3754 STANNARD DR", "amenity": "post_box", "collection_times": "Mo-Fr 16:30; Sa 15:30", "note": "ON 12/24 AND 12/31, THIS BOX MAY BE COLLECTED AS EARLY AS 12 NOON.", "nsi_id": "unitedstatespostalservice-a77078", "operator": "United States Postal Service", "operator:short": "USPS", "operator:type": "public", "operator:wikidata": "Q668687", "ref": "4361300015"}, "type": "Feature"}
{"geometry": {"coordinates": [-83.6202081, 41.720101], "type": "Point"}, "id": "AK6uqcU8zr5-rYDqqHwg6tJpvwo=", "properties": {"@source_uri": "https://tools.usps.com/UspsToolsRestServices/rest/POLocator/findLocations", "@spider": "usps_collection_boxes", "addr:city": "TOLEDO", "addr:country": "US", "addr:postcode": "43613", "addr:state": "OH", "addr:street_address": "3148 TREMAINSVILLE RD", "amenity": "post_box", "collection_times": "Mo-Fr 15:45; Sa 14:30", "note": "ON 12/24 AND 12/31, THIS BOX MAY BE COLLECTED AS EARLY AS 12 NOON.", "nsi_id": "unitedstatespostalservice-a77078", "operator": "United States Postal Service", "operator:short": "USPS", "operator:type": "public", "operator:wikidata": "Q668687", "ref": "4361300019"}, "type": "Feature"}
{"geometry": {"coordinates": [-83.6162657, 41.716505], "type": "Point"}, "id": "xIGKXE_z7l6x4_4KFc916F56nfo=", "properties": {"@source_uri": "https://tools.usps.com/UspsToolsRestServices/rest/POLocator/findLocations", "@spider": "usps_collection_boxes", "addr:city": "TOLEDO", "addr:country": "US", "addr:postcode": "43613", "addr:state": "OH", "addr:street_address": "2975 TREMAINSVILLE RD", "amenity": "post_box", "collection_times": "Mo-Fr 15:45; Sa 14:30", "note": "ON 12/24 AND 12/31, THIS BOX MAY BE COLLECTED AS EARLY AS 12 NOON.", "nsi_id": "unitedstatespostalservice-a77078", "operator": "United States Postal Service", "operator:short": "USPS", "operator:type": "public", "operator:wikidata": "Q668687", "ref": "4361300024"}, "type": "Feature"}
{"geometry": {"coordinates": [-83.6107934, 41.706355], "type": "Point"}, "id": "laiEhnPiDJBo0uAWWYvJTLwta9w=", "properties": {"@source_uri": "https://tools.usps.com/UspsToolsRestServices/rest/POLocator/findLocations", "@spider": "usps_collection_boxes", "addr:city": "TOLEDO", "addr:country": "US", "addr:postcode": "43613", "addr:state": "OH", "addr:street_address": "4938 W BOWEN RD", "amenity": "post_box", "collection_times": "Mo-Fr 16:00; Sa 15:00", "note": "ON 12/24 AND 12/31, THIS BOX MAY BE COLLECTED AS EARLY AS 12 NOON.", "nsi_id": "unitedstatespostalservice-a77078", "operator": "United States Postal Service", "operator:short": "USPS", "operator:type": "public", "operator:wikidata": "Q668687", "ref": "4361300029"}, "type": "Feature"}
{"geometry": {"coordinates": [-83.5928435, 41.706676], "type": "Point"}, "id": "fvNAsRdzWDPXlUOpnLuK-ledLaM=", "properties": {"@source_uri": "https://tools.usps.com/UspsToolsRestServices/rest/POLocator/findLocations", "@spider": "usps_collection_boxes", "addr:city": "TOLEDO", "addr:country": "US", "addr:postcode": "43613", "addr:state": "OH", "addr:street_address": "2021 W LASKEY RD", "amenity": "post_box", "collection_times": "Mo-Fr 16:15; Sa 15:00", "note": "ON 12/24 AND 12/31, THIS BOX MAY BE COLLECTED AS EARLY AS 12 NOON.", "nsi_id": "unitedstatespostalservice-a77078", "operator": "United States Postal Service", "operator:short": "USPS", "operator:type": "public", "operator:wikidata": "Q668687", "ref": "4361300031"}, "type": "Feature"}
{"geometry": {"coordinates": [-83.5874133, 41.704946], "type": "Point"}, "id": "h6F78JO-6OLMVCuZb2xgn8Xw77E=", "properties": {"@source_uri": "https://tools.usps.com/UspsToolsRestServices/rest/POLocator/findLocations", "@spider": "usps_collection_boxes", "addr:city": "TOLEDO", "addr:country": "US", "addr:postcode": "43613", "addr:state": "OH", "addr:street_address": "4925 JACKMAN RD", "amenity": "post_box", "collection_times": "Mo-Fr 16:15; Sa 15:15", "note": "ON 12/24 AND 12/31, THIS BOX MAY BE COLLECTED AS EARLY AS 12 NOON.", "nsi_id": "unitedstatespostalservice-a77078", "operator": "United States Postal Service", "operator:short": "USPS", "operator:type": "public", "operator:wikidata": "Q668687", "ref": "4361300034"}, "type": "Feature"}
{"geometry": {"coordinates": [-83.5858799, 41.714035], "type": "Point"}, "id": "MGI8ty2qOMSw5Aa_3gmvMXMAxZY=", "properties": {"@source_uri": "https://tools.usps.com/UspsToolsRestServices/rest/POLocator/findLocations", "@spider": "usps_collection_boxes", "addr:city": "TOLEDO", "addr:country": "US", "addr:postcode": "43613", "addr:state": "OH", "addr:street_address": "5411 JACKMAN RD", "amenity": "post_box", "collection_times": "Mo-Fr 15:30; Sa 14:15", "note": "ON 12/24 AND 12/31, THIS BOX MAY BE COLLECTED AS EARLY AS 12 NOON.", "nsi_id": "unitedstatespostalservice-a77078", "operator": "United States Postal Service", "operator:short": "USPS", "operator:type": "public", "operator:wikidata": "Q668687", "ref": "4361300038"}, "type": "Feature"}
{"geometry": {"coordinates": [-83.6238939, 41.724284], "type": "Point"}, "id": "jYmY2XuaMw2D0EOHfcdokdUZfwM=", "properties": {"@source_uri": "https://tools.usps.com/UspsToolsRestServices/rest/POLocator/findLocations", "@spider": "usps_collection_boxes", "addr:city": "TOLEDO", "addr:country": "US", "addr:postcode": "43613", "addr:state": "OH", "addr:street_address": "6008 SECOR RD", "amenity": "post_box", "collection_times": "Mo-Fr 15:45; Sa 14:45", "note": "ON 12/24 AND 12/31, THIS BOX MAY BE COLLECTED AS EARLY AS 12 NOON.", "nsi_id": "unitedstatespostalservice-a77078", "operator": "United States Postal Service", "operator:short": "USPS", "operator:type": "public", "operator:wikidata": "Q668687", "ref": "4361300040"}, "type": "Feature"}
{"geometry": {"coordinates": [-83.6208819, 41.687444], "type": "Point"}, "id": "w2LNQlg_53TVtHaiRK9O1nExeVk=", "properties": {"@source_uri": "https://tools.usps.com/UspsToolsRestServices/rest/POLocator/findLocations", "@spider": "usps_collection_boxes", "addr:city": "TOLEDO", "addr:country": "US", "addr:postcode": "43613", "addr:state": "OH", "addr:street_address": "4533 MONROE ST", "amenity": "post_box", "collection_times": "Mo-Fr 14:00; Sa 14:15", "note": "ON 12/24 AND 12/31, THIS BOX MAY BE COLLECTED AS EARLY AS 12 NOON.", "nsi_id": "unitedstatespostalservice-a77078", "operator": "United States Postal Service", "operator:short": "USPS", "operator:type": "public", "operator:wikidata": "Q668687", "ref": "4361300041"}, "type": "Feature"}
{"geometry": {"coordinates": [-83.6062878, 41.692859], "type": "Point"}, "id": "ul6ogsuattNKkq2H6KvvCAj5lNM=", "properties": {"@source_uri": "https://tools.usps.com/UspsToolsRestServices/rest/POLocator/findLocations", "@spider": "usps_collection_boxes", "addr:city": "TOLEDO", "addr:country": "US", "addr:postcode": "43613", "addr:state": "OH", "addr:street_address": "2600 W SYLVANIA AVE", "amenity": "post_box", "collection_times": "Mo-Fr 16:30; Sa 15:30", "note": "ON 12/24 AND 12/31, THIS BOX MAY BE COLLECTED AS EARLY AS 12 NOON.", "nsi_id": "unitedstatespostalservice-a77078", "operator": "United States Postal Service", "operator:short": "USPS", "operator:type": "public", "operator:wikidata": "Q668687", "ref": "4361300042"}, "type": "Feature"}
{"geometry": {"coordinates": [-83.6071273, 41.709098], "type": "Point"}, "id": "vSOpvP-8-S6zXRZwlMgwpU1gheg=", "properties": {"@source_uri": "https://tools.usps.com/UspsToolsRestServices/rest/POLocator/findLocations", "@spider": "usps_collection_boxes", "addr:city": "TOLEDO", "addr:country": "US", "addr:postcode": "43613", "addr:state": "OH", "addr:street_address": "2618 TREMAINSVILLE RD", "amenity": "post_box", "collection_times": "Mo-Fr 17:00; Sa 16:00", "note": "ON 12/24 AND 12/31, THIS BOX MAY BE COLLECTED AS EARLY AS 12 NOON.", "nsi_id": "unitedstatespostalservice-a77078", "operator": "United States Postal Service", "operator:short": "USPS", "operator:type": "public", "operator:wikidata": "Q668687", "ref": "4361300053"}, "type": "Feature"}
{"geometry": {"coordinates": [-83.60702, 41.708799], "type": "Point"}, "id": "L5Y155Js7JUZc1PdxeqKEeMk7H4=", "properties": {"@source_uri": "https://tools.usps.com/UspsToolsRestServices/rest/POLocator/findLocations", "@spider": "usps_collection_boxes", "addr:city": "TOLEDO", "addr:country": "US", "addr:postcode": "43613", "addr:state": "OH", "addr:street_address": "2618 TREMAINSVILLE RD", "amenity": "post_box", "collection_times": "Mo-Fr 17:00; Sa 14:00", "indoor": "yes", "note": "ON 12/24 AND 12/31, THIS BOX MAY BE COLLECTED AS EARLY AS 12 NOON.", "nsi_id": "unitedstatespostalservice-a77078", "operator": "United States Postal Service", "operator:short": "USPS", "operator:type": "public", "operator:wikidata": "Q668687", "ref": "4361300057"}, "type": "Feature"}
{"geometry": {"coordinates": [-83.5881759, 41.720201], "type": "Point"}, "id": "GRM2OjnI9kg6qSRYIukLHfMgqMc=", "properties": {"@source_uri": "https://tools.usps.com/UspsToolsRestServices/rest/POLocator/findLocations", "@spider": "usps_collection_boxes", "addr:city": "TOLEDO", "addr:country": "US", "addr:postcode": "43613", "addr:state": "OH", "addr:street_address": "1801 W ALEXIS RD", "amenity": "post_box", "collection_times": "Mo-Fr 15:30; Sa 14:15", "note": "ON 12/24 AND 12/31, THIS BOX MAY BE COLLECTED AS EARLY AS 12 NOON.", "nsi_id": "unitedstatespostalservice-a77078", "operator": "United States Postal Service", "operator:short": "USPS", "operator:type": "public", "operator:wikidata": "Q668687", "ref": "4361300060"}, "type": "Feature"}
{"geometry": {"coordinates": [-83.5998923, 41.706884], "type": "Point"}, "id": "9sqsGuAZPSeDuHUA8tyDxohC0YY=", "properties": {"@source_uri": "https://tools.usps.com/UspsToolsRestServices/rest/POLocator/findLocations", "@spider": "usps_collection_boxes", "addr:city": "TOLEDO", "addr:country": "US", "addr:postcode": "43613", "addr:state": "OH", "addr:street_address": "2310 W LASKEY RD", "amenity": "post_box", "collection_times": "Mo-Fr 16:15; Sa 13:00", "note": "ON 12/24 AND 12/31, THIS BOX MAY BE COLLECTED AS EARLY AS 12 NOON.", "nsi_id": "unitedstatespostalservice-a77078", "operator": "United States Postal Service", "operator:short": "USPS", "operator:type": "public", "operator:wikidata": "Q668687", "ref": "4361300065"}, "type": "Feature"}
{"geometry": {"coordinates": [-83.6071953674, 41.7089511482], "type": "Point"}, "id": "RChrCPVYQG0ikXhcOlBNP1JRyZY=", "properties": {"@source_uri": "https://tools.usps.com/UspsToolsRestServices/rest/POLocator/findLocations", "@spider": "usps_collection_boxes", "addr:city": "TOLEDO", "addr:country": "US", "addr:postcode": "43613", "addr:state": "OH", "addr:street_address": "2618 TREMAINSVILLE RD", "amenity": "post_box", "collection_times": "Mo-Fr 17:00; Sa 12:00", "indoor": "yes", "note": "ON 12/24 AND 12/31, THIS BOX MAY BE COLLECTED AS EARLY AS 12 NOON.", "nsi_id": "unitedstatespostalservice-a77078", "operator": "United States Postal Service", "operator:short": "USPS", "operator:type": "public", "operator:wikidata": "Q668687", "ref": "4361300072"}, "type": "Feature"}
{"geometry": {"coordinates": [-83.6267504, 41.611182], "type": "Point"}, "id": "brh6jbtQpZIvcFGzpINXypXuzx0=", "properties": {"@source_uri": "https://tools.usps.com/UspsToolsRestServices/rest/POLocator/findLocations", "@spider": "usps_collection_boxes", "addr:city": "TOLEDO", "addr:country": "US", "addr:postcode": "43614", "addr:state": "OH", "addr:street_address": "1544 S BYRNE RD", "amenity": "post_box", "collection_times": "Mo-Sa 10:30", "nsi_id": "unitedstatespostalservice-a77078", "operator": "United States Postal Service", "operator:short": "USPS", "operator:type": "public", "operator:wikidata": "Q668687", "ref": "4361400002"}, "type": "Feature"}
{"geometry": {"coordinates": [-83.6158526, 41.619971], "type": "Point"}, "id": "_whFapWicwe7qMWvwCAzD6HIjNs=", "properties": {"@source_uri": "https://tools.usps.com/UspsToolsRestServices/rest/POLocator/findLocations", "@spider": "usps_collection_boxes", "addr:city": "TOLEDO", "addr:country": "US", "addr:postcode": "43614", "addr:state": "OH", "addr:street_address": "3000 ARLINGTON AVE", "amenity": "post_box", "collection_times": "Mo-Fr 11:15; Sa 10:45", "nsi_id": "unitedstatespostalservice-a77078", "operator": "United States Postal Service", "operator:short": "USPS", "operator:type": "public", "operator:wikidata": "Q668687", "ref": "4361400005"}, "type": "Feature"}
{"geometry": {"coordinates": [-83.6465595, 41.595706], "type": "Point"}, "id": "7FItJUYkVRhx9girKu-4-FgfC1M=", "properties": {"@source_uri": "https://tools.usps.com/UspsToolsRestServices/rest/POLocator/findLocations", "@spider": "usps_collection_boxes", "addr:city": "TOLEDO", "addr:country": "US", "addr:postcode": "43614", "addr:state": "OH", "addr:street_address": "4400 HEATHERDOWNS BLVD", "amenity": "post_box", "collection_times": "Mo-Fr 10:45; Sa 10:30", "nsi_id": "unitedstatespostalservice-a77078", "operator": "United States Postal Service", "operator:short": "USPS", "operator:type": "public", "operator:wikidata": "Q668687", "ref": "4361400006"}, "type": "Feature"}
{"geometry": {"coordinates": [-83.6623437, 41.60318], "type": "Point"}, "id": "kWhX2rTO3hAPXV7fE7uZueRt-GM=", "properties": {"@source_uri": "https://tools.usps.com/UspsToolsRestServices/rest/POLocator/findLocations", "@spider": "usps_collection_boxes", "addr:city": "TOLEDO", "addr:country": "US", "addr:postcode": "43614", "addr:state": "OH", "addr:street_address": "5109 GLENDALE AVE", "amenity": "post_box", "collection_times": "Mo-Fr 11:00; Sa 10:45", "nsi_id": "unitedstatespostalservice-a77078", "operator": "United States Postal Service", "operator:short": "USPS", "operator:type": "public", "operator:wikidata": "Q668687", "ref": "4361400007"}, "type": "Feature"}
{"geometry": {"coordinates": [-83.6717029585, 41.6031780195], "type": "Point"}, "id": "4wtcSBfJmZLSIg4Bp8XddhM49TE=", "properties": {"@source_uri": "https://tools.usps.com/UspsToolsRestServices/rest/POLocator/findLocations", "@spider": "usps_collection_boxes", "addr:city": "TOLEDO", "addr:country": "US", "addr:postcode": "43614", "addr:state": "OH", "addr:street_address": "5566 SOUTHWYCK BLVD", "amenity": "post_box", "collection_times": "Mo-Fr 11:00; Sa 10:45", "nsi_id": "unitedstatespostalservice-a77078", "operator": "United States Postal Service", "operator:short": "USPS", "operator:type": "public", "operator:wikidata": "Q668687", "ref": "4361400009"}, "type": "Feature"}
{"geometry": {"coordinates": [-83.6611262, 41.601935], "type": "Point"}, "id": "glSqJev4rkpEig5CJAmnpccFk0A=", "properties": {"@source_uri": "https://tools.usps.com/UspsToolsRestServices/rest/POLocator/findLocations", "@spider": "usps_collection_boxes", "addr:city": "TOLEDO", "addr:country": "US", "addr:postcode": "43614", "addr:state": "OH", "addr:street_address": "5020 RYAN RD", "amenity": "post_box", "collection_times": "Mo-Fr 10:45; Sa 10:30", "nsi_id": "unitedstatespostalservice-a77078", "operator": "United States Postal Service", "operator:short": "USPS", "operator:type": "public", "operator:wikidata": "Q668687", "ref": "4361400013"}, "type": "Feature"}
{"geometry": {"coordinates": [-83.5869859, 41.612678], "type": "Point"}, "id": "iykkzZNI8kVpCclNA4lX77XtXGA=", "properties": {"@source_uri": "https://tools.usps.com/UspsToolsRestServices/rest/POLocator/findLocations", "@spider": "usps_collection_boxes", "addr:city": "TOLEDO", "addr:country": "US", "addr:postcode": "43614", "addr:state": "OH", "addr:street_address": "1456 HARVARD BLVD", "amenity": "post_box", "collection_times": "Mo-Fr 09:45; Sa 09:30", "nsi_id": "unitedstatespostalservice-a77078", "operator": "United States Postal Service", "operator:short": "USPS", "operator:type": "public", "operator:wikidata": "Q668687", "ref": "4361400015"}, "type": "Feature"}
{"geometry": {"coordinates": [-83.6257, 41.60333], "type": "Point"}, "id": "7zfzwprEiZPcHPPT-nLORWcepIU=", "properties": {"@source_uri": "https://tools.usps.com/UspsToolsRestServices/rest/POLocator/findLocations", "@spider": "usps_collection_boxes", "addr:city": "TOLEDO", "addr:country": "US", "addr:postcode": "43614", "addr:state": "OH", "addr:street_address": "2159 ROCKSPRING RD", "amenity": "post_box", "collection_times": "Mo-Fr 11:00; Sa 10:45", "nsi_id": "unitedstatespostalservice-a77078", "operator": "United States Postal Service", "operator:short": "USPS", "operator:type": "public", "operator:wikidata": "Q668687", "ref": "4361400019"}, "type": "Feature"}
{"geometry": {"coordinates": [-83.6104689, 41.599219], "type": "Point"}, "id": "9hmHw9C6NJMboP8kjZU4tAG0Zws=", "properties": {"@source_uri": "https://tools.usps.com/UspsToolsRestServices/rest/POLocator/findLocations", "@spider": "usps_collection_boxes", "addr:city": "TOLEDO", "addr:country": "US", "addr:postcode": "43614", "addr:state": "OH", "addr:street_address": "3662 RUGBY DR", "amenity": "post_box", "collection_times": "Mo-Fr 10:00; Sa 09:45", "nsi_id": "unitedstatespostalservice-a77078", "operator": "United States Postal Service", "operator:short": "USPS", "operator:type": "public", "operator:wikidata": "Q668687", "ref": "4361400027"}, "type": "Feature"}
{"geometry": {"coordinates": [-83.6100337, 41.593595], "type": "Point"}, "id": "0zcm5E71319lnm0yN0yQ1tN-N1Y=", "properties": {"@source_uri": "https://tools.usps.com/UspsToolsRestServices/rest/POLocator/findLocations", "@spider": "usps_collection_boxes", "addr:city": "TOLEDO", "addr:country": "US", "addr:postcode": "43614", "addr:state": "OH", "addr:street_address": "2755 COPLAND BLVD", "amenity": "post_box", "collection_times": "Mo-Fr 10:00; Sa 09:45", "nsi_id": "unitedstatespostalservice-a77078", "operator": "United States Postal Service", "operator:short": "USPS", "operator:type": "public", "operator:wikidata": "Q668687", "ref": "4361400028"}, "type": "Feature"}
{"geometry": {"coordinates": [-83.619609, 41.603048], "type": "Point"}, "id": "xRSdnHvsWt2v9uc9ciTCjGRP6C8=", "properties": {"@source_uri": "https://tools.usps.com/UspsToolsRestServices/rest/POLocator/findLocations", "@spider": "usps_collection_boxes", "addr:city": "TOLEDO", "addr:country": "US", "addr:postcode": "43614", "addr:state": "OH", "addr:street_address": "3162 GLENCAIRN AVE", "amenity": "post_box", "collection_times": "Mo-Fr 10:15; Sa 10:00", "nsi_id": "unitedstatespostalservice-a77078", "operator": "United States Postal Service", "operator:short": "USPS", "operator:type": "public", "operator:wikidata": "Q668687", "ref": "4361400031"}, "type": "Feature"}
{"geometry": {"coordinates": [-83.6630499, 41.594706], "type": "Point"}, "id": "s4dM8SXcrFYsnIZY4EbkHTGoS6E=", "properties": {"@source_uri": "https://tools.usps.com/UspsToolsRestServices/rest/POLocator/findLocations", "@spider": "usps_collection_boxes", "addr:city": "TOLEDO", "addr:country": "US", "addr:postcode": "43614", "addr:state": "OH", "addr:street_address": "5106 HEATHERDOWNS BLVD", "amenity": "post_box", "collection_times": "Mo-Fr 10:45; Sa 10:30", "nsi_id": "unitedstatespostalservice-a77078", "operator": "United States Postal Service", "operator:short": "USPS", "operator:type": "public", "operator:wikidata": "Q668687", "ref": "4361400037"}, "type": "Feature"}
{"geometry": {"coordinates": [-83.6344411, 41.606104], "type": "Point"}, "id": "Hqxt0pw4gJfzlLJJeFP9dHXtgeg=", "properties": {"@source_uri": "https://tools.usps.com/UspsToolsRestServices/rest/POLocator/findLocations", "@spider": "usps_collection_boxes", "addr:city": "TOLEDO", "addr:country": "US", "addr:postcode": "43614", "addr:state": "OH", "addr:street_address": "3901 SHADYLAWN DR", "amenity": "post_box", "collection_times": "Mo-Fr 10:30; Sa 10:15", "nsi_id": "unitedstatespostalservice-a77078", "operator": "United States Postal Service", "operator:short": "USPS", "operator:type": "public", "operator:wikidata": "Q668687", "ref": "4361400050"}, "type": "Feature"}
{"geometry": {"coordinates": [-83.6224814, 41.61303], "type": "Point"}, "id": "1pFTjJEI8Taic8Sem_gLwx34s6I=", "properties": {"@source_uri": "https://tools.usps.com/UspsToolsRestServices/rest/POLocator/findLocations", "@spider": "usps_collection_boxes", "addr:city": "TOLEDO", "addr:country": "US", "addr:postcode": "43614", "addr:state": "OH", "addr:street_address": "1453 S BYRNE RD", "amenity": "post_box", "collection_times": "Mo-Sa 10:30", "nsi_id": "unitedstatespostalservice-a77078", "operator": "United States Postal Service", "operator:short": "USPS", "operator:type": "public", "operator:wikidata": "Q668687", "ref": "4361400053"}, "type": "Feature"}
{"geometry": {"coordinates": [-83.6225213, 41.615128], "type": "Point"}, "id": "FD-lJP0327WtzAdaNR4P8uLQINc=", "properties": {"@source_uri": "https://tools.usps.com/UspsToolsRestServices/rest/POLocator/findLocations", "@spider": "usps_collection_boxes", "addr:city": "TOLEDO", "addr:country": "US", "addr:postcode": "43614", "addr:state": "OH", "addr:street_address": "1339 S BYRNE RD", "amenity": "post_box", "collection_times": "Mo-Sa 10:15", "nsi_id": "unitedstatespostalservice-a77078", "operator": "United States Postal Service", "operator:short": "USPS", "operator:type": "public", "operator:wikidata": "Q668687", "ref": "4361400054"}, "type": "Feature"}
{"geometry": {"coordinates": [-83.6704009975, 41.605218007], "type": "Point"}, "id": "pLe4RjY--jhc8WadnOwrfwU9kqM=", "properties": {"@source_uri": "https://tools.usps.com/UspsToolsRestServices/rest/POLocator/findLocations", "@spider": "usps_collection_boxes", "addr:city": "TOLEDO", "addr:country": "US", "addr:postcode": "43614", "addr:state": "OH", "addr:street_address": "5700 SOUTHWYCK BLVD", "amenity": "post_box", "collection_times": "Mo-Fr 11:00; Sa 10:45", "nsi_id": "unitedstatespostalservice-a77078", "operator": "United States Postal Service", "operator:short": "USPS", "operator:type": "public", "operator:wikidata": "Q668687", "ref": "4361400064"}, "type": "Feature"}
{"geometry": {"coordinates": [-83.6237599, 41.600383], "type": "Point"}, "id": "NPKLmy55PqY6WL_HLHx9YhgBe5c=", "properties": {"@source_uri": "https://tools.usps.com/UspsToolsRestServices/rest/POLocator/findLocations", "@spider": "usps_collection_boxes", "addr:city": "TOLEDO", "addr:country": "US", "addr:postcode": "43614", "addr:state": "OH", "addr:street_address": "2155 S BYRNE RD", "amenity": "post_box", "collection_times": "Mo-Sa 10:00", "nsi_id": "unitedstatespostalservice-a77078", "operator": "United States Postal Service", "operator:short": "USPS", "operator:type": "public", "operator:wikidata": "Q668687", "ref": "4361400071"}, "type": "Feature"}
{"geometry": {"coordinates": [-83.6059536, 41.611074], "type": "Point"}, "id": "Ef8hGfp8MIlBU6g93mseHBJa5_A=", "properties": {"@source_uri": "https://tools.usps.com/UspsToolsRestServices/rest/POLocator/findLocations", "@spider": "usps_collection_boxes", "addr:city": "TOLEDO", "addr:country": "US", "addr:postcode": "43614", "addr:state": "OH", "addr:street_address": "2555 GLENDALE AVE", "amenity": "post_box", "collection_times": "Mo-Fr 10:15; Sa 10:00", "nsi_id": "unitedstatespostalservice-a77078", "operator": "United States Postal Service", "operator:short": "USPS", "operator:type": "public", "operator:wikidata": "Q668687", "ref": "4361400079"}, "type": "Feature"}
{"geometry": {"coordinates": [-83.5997785, 41.61905], "type": "Point"}, "id": "AA8XGHNnrW_BEG2N-NxYPyEG3gk=", "properties": {"@source_uri": "https://tools.usps.com/UspsToolsRestServices/rest/POLocator/findLocations", "@spider": "usps_collection_boxes", "addr:city": "TOLEDO", "addr:country": "US", "addr:postcode": "43614", "addr:state": "OH", "addr:street_address": "1144 S DETROIT AVE", "amenity": "post_box", "collection_times": "Mo-Fr 17:00; Sa 13:45", "note": "ON 12/24 AND 12/31, THIS BOX MAY BE COLLECTED AS EARLY AS 12 NOON.", "nsi_id": "unitedstatespostalservice-a77078", "operator": "United States Postal Service", "operator:short": "USPS", "operator:type": "public", "operator:wikidata": "Q668687", "ref": "4361400081"}, "type": "Feature"}
{"geometry": {"coordinates": [-83.599654, 41.618858], "type": "Point"}, "id": "xu50Q5Ix8Ltugmb56VBf-UupXNI=", "properties": {"@source_uri": "https://tools.usps.com/UspsToolsRestServices/rest/POLocator/findLocations", "@spider": "usps_collection_boxes", "addr:city": "TOLEDO", "addr:country": "US", "addr:postcode": "43614", "addr:state": "OH", "addr:street_address": "1144 S DETROIT AVE", "amenity": "post_box", "collection_times": "Mo-Fr 14:00; Sa 13:45", "indoor": "yes", "note": "ON 12/24 AND 12/31, THIS BOX MAY BE COLLECTED AS EARLY AS 12 NOON.", "nsi_id": "unitedstatespostalservice-a77078", "operator": "United States Postal Service", "operator:short": "USPS", "operator:type": "public", "operator:wikidata": "Q668687", "ref": "4361400083"}, "type": "Feature"}
{"geometry": {"coordinates": [-83.599654, 41.618858], "type": "Point"}, "id": "NLCjFx5Xx1s4AoVppOmV1fr6cz4=", "properties": {"@source_uri": "https://tools.usps.com/UspsToolsRestServices/rest/POLocator/findLocations", "@spider": "usps_collection_boxes", "addr:city": "TOLEDO", "addr:country": "US", "addr:postcode": "43614", "addr:state": "OH", "addr:street_address": "1144 S DETROIT AVE", "amenity": "post_box", "collection_times": "Mo-Fr 17:00; Sa 13:45", "indoor": "yes", "note": "ON 12/24 AND 12/31, THIS BOX MAY BE COLLECTED AS EARLY AS 12 NOON.", "nsi_id": "unitedstatespostalservice-a77078", "operator": "United States Postal Service", "operator:short": "USPS", "operator:type": "public", "operator:wikidata": "Q668687", "ref": "4361400084"}, "type": "Feature"}
{"geometry": {"coordinates": [-83.599654, 41.618858], "type": "Point"}, "id": "-gk61KsuLHRn2K4SmYsHP4ccggU=", "properties": {"@source_uri": "https://tools.usps.com/UspsToolsRestServices/rest/POLocator/findLocations", "@spider": "usps_collection_boxes", "addr:city": "TOLEDO", "addr:country": "US", "addr:postcode": "43614", "addr:state": "OH", "addr:street_address": "1144 S DETROIT AVE", "amenity": "post_box", "collection_times": "Mo-Fr 17:00; Sa 13:45", "name": "USPS COLLECTION BOX - APC", "note": "ON 12/24 AND 12/31, THIS BOX MAY BE COLLECTED AS EARLY AS 12 NOON.", "nsi_id": "unitedstatespostalservice-a77078", "operator": "United States Postal Service", "operator:short": "USPS", "operator:type": "public", "operator:wikidata": "Q668687", "ref": "4361400085"}, "type": "Feature"}
{"geometry": {"coordinates": [-83.59982145, 41.618653898], "type": "Point"}, "id": "0eOJgmAVecP9xwVHGSUxxYTRMlU=", "properties": {"@source_uri": "https://tools.usps.com/UspsToolsRestServices/rest/POLocator/findLocations", "@spider": "usps_collection_boxes", "addr:city": "TOLEDO", "addr:country": "US", "addr:postcode": "43614", "addr:state": "OH", "addr:street_address": "1144 S DETROIT AVE", "amenity": "post_box", "collection_times": "Mo-Fr 17:00; Sa 12:00", "indoor": "yes", "note": "ON 12/24 AND 12/31, THIS BOX MAY BE COLLECTED AS EARLY AS 12 NOON.", "nsi_id": "unitedstatespostalservice-a77078", "operator": "United States Postal Service", "operator:short": "USPS", "operator:type": "public", "operator:wikidata": "Q668687", "ref": "4361400094"}, "type": "Feature"}
{"geometry": {"coordinates": [-83.6743186, 41.615179], "type": "Point"}, "id": "glWpIZIZfo_lQxEu_DvrLf-kdKI=", "properties": {"@source_uri": "https://tools.usps.com/UspsToolsRestServices/rest/POLocator/findLocations", "@spider": "usps_collection_boxes", "addr:city": "TOLEDO", "addr:country": "US", "addr:postcode": "43615", "addr:state": "OH", "addr:street_address": "1414 BARONIAL PLAZA DR", "amenity": "post_box", "collection_times": "Mo-Sa 15:30", "note": "ON 12/24 AND 12/31, THIS BOX MAY BE COLLECTED AS EARLY AS 12 NOON.", "nsi_id": "unitedstatespostalservice-a77078", "operator": "United States Postal Service", "operator:short": "USPS", "operator:type": "public", "operator:wikidata": "Q668687", "ref": "4361500002"}, "type": "Feature"}
{"geometry": {"coordinates": [-83.6627706, 41.658671], "type": "Point"}, "id": "9T8IWkmE04YsgdqxLcFiMe6PkPY=", "properties": {"@source_uri": "https://tools.usps.com/UspsToolsRestServices/rest/POLocator/findLocations", "@spider": "usps_collection_boxes", "addr:city": "TOLEDO", "addr:country": "US", "addr:postcode": "43615", "addr:state": "OH", "addr:street_address": "1903 COPLEY DR", "amenity": "post_box", "collection_times": "Mo-Fr 12:45; Sa 12:15", "note": "ON 12/24 AND 12/31, THIS BOX MAY BE COLLECTED AS EARLY AS 12 NOON.", "nsi_id": "unitedstatespostalservice-a77078", "operator": "United States Postal Service", "operator:short": "USPS", "operator:type": "public", "operator:wikidata": "Q668687", "ref": "4361500003"}, "type": "Feature"}
{"geometry": {"coordinates": [-83.6610011, 41.6560304], "type": "Point"}, "id": "HN2kwQLR2ECmxm67T0iWvnfG_Xg=", "properties": {"@source_uri": "https://tools.usps.com/UspsToolsRestServices/rest/POLocator/findLocations", "@spider": "usps_collection_boxes", "addr:city": "TOLEDO", "addr:country": "US", "addr:postcode": "43615", "addr:state": "OH", "addr:street_address": "300 S BYRNE RD", "amenity": "post_box", "collection_times": "Mo-Fr 12:30; Sa 12:00", "note": "ON 12/24 AND 12/31, THIS BOX MAY BE COLLECTED AS EARLY AS 12 NOON.", "nsi_id": "unitedstatespostalservice-a77078", "operator": "United States Postal Service", "operator:short": "USPS", "operator:type": "public", "operator:wikidata": "Q668687", "ref": "4361500005"}, "type": "Feature"}
{"geometry": {"coordinates": [-83.6671236, 41.632651], "type": "Point"}, "id": "8SnYwvhkWso2CDUXAuwBPtzsDw8=", "properties": {"@source_uri": "https://tools.usps.com/UspsToolsRestServices/rest/POLocator/findLocations", "@spider": "usps_collection_boxes", "addr:city": "TOLEDO", "addr:country": "US", "addr:postcode": "43615", "addr:state": "OH", "addr:street_address": "340 S REYNOLDS RD", "amenity": "post_box", "collection_times": "Mo-Fr 14:45; Sa 14:30", "note": "ON 12/24 AND 12/31, THIS BOX MAY BE COLLECTED AS EARLY AS 12 NOON.", "nsi_id": "unitedstatespostalservice-a77078", "operator": "United States Postal Service", "operator:short": "USPS", "operator:type": "public", "operator:wikidata": "Q668687", "ref": "4361500007"}, "type": "Feature"}
{"geometry": {"coordinates": [-83.6455408, 41.677236], "type": "Point"}, "id": "w2WNQvyHd7fwclH9F1Q7xco9BM0=", "properties": {"@source_uri": "https://tools.usps.com/UspsToolsRestServices/rest/POLocator/findLocations", "@spider": "usps_collection_boxes", "addr:city": "TOLEDO", "addr:country": "US", "addr:postcode": "43615", "addr:state": "OH", "addr:street_address": "4338 W CENTRAL AVE", "amenity": "post_box", "collection_times": "Mo-Fr 13:00; Sa 13:30", "note": "ON 12/24 AND 12/31, THIS BOX MAY BE COLLECTED AS EARLY AS 12 NOON.", "nsi_id": "unitedstatespostalservice-a77078", "operator": "United States Postal Service", "operator:short": "USPS", "operator:type": "public", "operator:wikidata": "Q668687", "ref": "4361500009"}, "type": "Feature"}
{"geometry": {"coordinates": [-83.6688958, 41.652844], "type": "Point"}, "id": "e9Cud2XPsuSmD7M_LTDJYgFGsvs=", "properties": {"@source_uri": "https://tools.usps.com/UspsToolsRestServices/rest/POLocator/findLocations", "@spider": "usps_collection_boxes", "addr:city": "TOLEDO", "addr:country": "US", "addr:postcode": "43615", "addr:state": "OH", "addr:street_address": "5353 DORR ST", "amenity": "post_box", "collection_times": "Mo-Fr 13:00; Sa 12:30", "note": "ON 12/24 AND 12/31, THIS BOX MAY BE COLLECTED AS EARLY AS 12 NOON.", "nsi_id": "unitedstatespostalservice-a77078", "operator": "United States Postal Service", "operator:short": "USPS", "operator:type": "public", "operator:wikidata": "Q668687", "ref": "4361500011"}, "type": "Feature"}
{"geometry": {"coordinates": [-83.6851194, 41.677571], "type": "Point"}, "id": "hV3ZwA50Tm70gWyQ5pqZLVW1Bis=", "properties": {"@source_uri": "https://tools.usps.com/UspsToolsRestServices/rest/POLocator/findLocations", "@spider": "usps_collection_boxes", "addr:city": "TOLEDO", "addr:country": "US", "addr:postcode": "43615", "addr:state": "OH", "addr:street_address": "5956 W CENTRAL AVE", "amenity": "post_box", "collection_times": "Mo-Fr 13:30; Sa 13:00", "note": "ON 12/24 AND 12/31, THIS BOX MAY BE COLLECTED AS EARLY AS 12 NOON.", "nsi_id": "unitedstatespostalservice-a77078", "operator": "United States Postal Service", "operator:short": "USPS", "operator:type": "public", "operator:wikidata": "Q668687", "ref": "4361500013"}, "type": "Feature"}
{"geometry": {"coordinates": [-83.6610011, 41.6560304], "type": "Point"}, "id": "7zK6nh3uw6qQM65IqQjv6AaJXnQ=", "properties": {"@source_uri": "https://tools.usps.com/UspsToolsRestServices/rest/POLocator/findLocations", "@spider": "usps_collection_boxes", "addr:city": "TOLEDO", "addr:country": "US", "addr:postcode": "43615", "addr:state": "OH", "addr:street_address": "5255 AIRPORT HWY", "amenity": "post_box", "collection_times": "Mo-Sa 15:30", "note": "ON 12/24 AND 12/31, THIS BOX MAY BE COLLECTED AS EARLY AS 12 NOON.", "nsi_id": "unitedstatespostalservice-a77078", "operator": "United States Postal Service", "operator:short": "USPS", "operator:type": "public", "operator:wikidata": "Q668687", "ref": "4361500018"}, "type": "Feature"}
{"geometry": {"coordinates": [-83.6748215, 41.676924], "type": "Point"}, "id": "Fkwn-ep6zt5u9abhC3R-5Z3UQL4=", "properties": {"@source_uri": "https://tools.usps.com/UspsToolsRestServices/rest/POLocator/findLocations", "@spider": "usps_collection_boxes", "addr:city": "TOLEDO", "addr:country": "US", "addr:postcode": "43615", "addr:state": "OH", "addr:street_address": "5532 W CENTRAL AVE", "amenity": "post_box", "collection_times": "Mo-Fr 13:30; Sa 12:45", "note": "ON 12/24 AND 12/31, THIS BOX MAY BE COLLECTED AS EARLY AS 12 NOON.", "nsi_id": "unitedstatespostalservice-a77078", "operator": "United States Postal Service", "operator:short": "USPS", "operator:type": "public", "operator:wikidata": "Q668687", "ref": "4361500024"}, "type": "Feature"}
{"geometry": {"coordinates": [-83.682888022, 41.653403012], "type": "Point"}, "id": "yaJMpX_0nmBF4nr3-GgDYVePnyQ=", "properties": {"@source_uri": "https://tools.usps.com/UspsToolsRestServices/rest/POLocator/findLocations", "@spider": "usps_collection_boxes", "addr:city": "TOLEDO", "addr:country": "US", "addr:postcode": "43615", "addr:state": "OH", "addr:street_address": "1235 N HOLLAND SYLVANIA RD", "amenity": "post_box", "collection_times": "Mo-Fr 13:00; Sa 12:30", "note": "ON 12/24 AND 12/31, THIS BOX MAY BE COLLECTED AS EARLY AS 12 NOON.", "nsi_id": "unitedstatespostalservice-a77078", "operator": "United States Postal Service", "operator:short": "USPS", "operator:type": "public", "operator:wikidata": "Q668687", "ref": "4361500025"}, "type": "Feature"}
{"geometry": {"coordinates": [-83.6654941, 41.653274], "type": "Point"}, "id": "GTA8ZpDXUzu_BIxkm89z_bHurDU=", "properties": {"@source_uri": "https://tools.usps.com/UspsToolsRestServices/rest/POLocator/findLocations", "@spider": "usps_collection_boxes", "addr:city": "TOLEDO", "addr:country": "US", "addr:postcode": "43615", "addr:state": "OH", "addr:street_address": "1345 N REYNOLDS RD", "amenity": "post_box", "collection_times": "Mo-Fr 14:45; Sa 14:30", "note": "ON 12/24 AND 12/31, THIS BOX MAY BE COLLECTED AS EARLY AS 12 NOON.", "nsi_id": "unitedstatespostalservice-a77078", "operator": "United States Postal Service", "operator:short": "USPS", "operator:type": "public", "operator:wikidata": "Q668687", "ref": "4361500027"}, "type": "Feature"}
{"geometry": {"coordinates": [-83.6653641, 41.638035], "type": "Point"}, "id": "kr_SZ0_OqXgyLvkp_WiErnlTQl0=", "properties": {"@source_uri": "https://tools.usps.com/UspsToolsRestServices/rest/POLocator/findLocations", "@spider": "usps_collection_boxes", "addr:city": "TOLEDO", "addr:country": "US", "addr:postcode": "43615", "addr:state": "OH", "addr:street_address": "4 S REYNOLDS RD", "amenity": "post_box", "collection_times": "Mo-Sa 12:45", "note": "ON 12/24 AND 12/31, THIS BOX MAY BE COLLECTED AS EARLY AS 12 NOON.", "nsi_id": "unitedstatespostalservice-a77078", "operator": "United States Postal Service", "operator:short": "USPS", "operator:type": "public", "operator:wikidata": "Q668687", "ref": "4361500032"}, "type": "Feature"}
{"geometry": {"coordinates": [-83.6858436, 41.661679], "type": "Point"}, "id": "VwOIIAct1g0RP7ywbYeYZhMb1QA=", "properties": {"@source_uri": "https://tools.usps.com/UspsToolsRestServices/rest/POLocator/findLocations", "@spider": "usps_collection_boxes", "addr:city": "TOLEDO", "addr:country": "US", "addr:postcode": "43615", "addr:state": "OH", "addr:street_address": "6020 W BANCROFT ST", "amenity": "post_box", "collection_times": "Mo-Fr 17:00; Sa 16:00", "note": "ON 12/24 AND 12/31, THIS BOX MAY BE COLLECTED AS EARLY AS 12 NOON.", "nsi_id": "unitedstatespostalservice-a77078", "operator": "United States Postal Service", "operator:short": "USPS", "operator:type": "public", "operator:wikidata": "Q668687", "ref": "4361500038"}, "type": "Feature"}
{"geometry": {"coordinates": [-83.6678241, 41.669853], "type": "Point"}, "id": "GEs6-fKZOgZfY-lXta2HJ4sNCtQ=", "properties": {"@source_uri": "https://tools.usps.com/UspsToolsRestServices/rest/POLocator/findLocations", "@spider": "usps_collection_boxes", "addr:city": "TOLEDO", "addr:country": "US", "addr:postcode": "43615", "addr:state": "OH", "addr:street_address": "2600 N REYNOLDS RD", "amenity": "post_box", "collection_times": "Mo-Fr 13:45; Sa 13:30", "note": "ON 12/24 AND 12/31, THIS BOX MAY BE COLLECTED AS EARLY AS 12 NOON.", "nsi_id": "unitedstatespostalservice-a77078", "operator": "United States Postal Service", "operator:short": "USPS", "operator:type": "public", "operator:wikidata": "Q668687", "ref": "4361500041"}, "type": "Feature"}
{"geometry": {"coordinates": [-83.6486263, 41.687249], "type": "Point"}, "id": "XjoDxJyEX4ZE2OcAgZEF3GYeaOI=", "properties": {"@source_uri": "https://tools.usps.com/UspsToolsRestServices/rest/POLocator/findLocations", "@spider": "usps_collection_boxes", "addr:city": "TOLEDO", "addr:country": "US", "addr:postcode": "43615", "addr:state": "OH", "addr:street_address": "3744 WESTCHESTER RD", "amenity": "post_box", "collection_times": "Mo-Fr 13:00; Sa 13:15", "note": "ON 12/24 AND 12/31, THIS BOX MAY BE COLLECTED AS EARLY AS 12 NOON.", "nsi_id": "unitedstatespostalservice-a77078", "operator": "United States Postal Service", "operator:short": "USPS", "operator:type": "public", "operator:wikidata": "Q668687", "ref": "4361500043"}, "type": "Feature"}
{"geometry": {"coordinates": [-83.6758205, 41.624438], "type": "Point"}, "id": "hThrkCcSNi7IgHzorkqq5BD5mII=", "properties": {"@source_uri": "https://tools.usps.com/UspsToolsRestServices/rest/POLocator/findLocations", "@spider": "usps_collection_boxes", "addr:city": "TOLEDO", "addr:country": "US", "addr:postcode": "43615", "addr:state": "OH", "addr:street_address": "5702 ANGOLA RD", "amenity": "post_box", "collection_times": "Mo-Fr 15:00; Sa 14:45", "note": "ON 12/24 AND 12/31, THIS BOX MAY BE COLLECTED AS EARLY AS 12 NOON.", "nsi_id": "unitedstatespostalservice-a77078", "operator": "United States Postal Service", "operator:short": "USPS", "operator:type": "public", "operator:wikidata": "Q668687", "ref": "4361500047"}, "type": "Feature"}
{"geometry": {"coordinates": [-83.6690266, 41.615615], "type": "Point"}, "id": "bD9OTGtRCHv5fBzjyJ_UHnYvxm4=", "properties": {"@source_uri": "https://tools.usps.com/UspsToolsRestServices/rest/POLocator/findLocations", "@spider": "usps_collection_boxes", "addr:city": "TOLEDO", "addr:country": "US", "addr:postcode": "43615", "addr:state": "OH", "addr:street_address": "5501 AIRPORT HWY", "amenity": "post_box", "collection_times": "Mo-Sa 15:30", "note": "ON 12/24 AND 12/31, THIS BOX MAY BE COLLECTED AS EARLY AS 12 NOON.", "nsi_id": "unitedstatespostalservice-a77078", "operator": "United States Postal Service", "operator:short": "USPS", "operator:type": "public", "operator:wikidata": "Q668687", "ref": "4361500054"}, "type": "Feature"}
{"geometry": {"coordinates": [-83.6852611, 41.662185], "type": "Point"}, "id": "Y-pbZnqRpV61gei8yVjLHRJCKy4=", "properties": {"@source_uri": "https://tools.usps.com/UspsToolsRestServices/rest/POLocator/findLocations", "@spider": "usps_collection_boxes", "addr:city": "TOLEDO", "addr:country": "US", "addr:postcode": "43615", "addr:state": "OH", "addr:street_address": "6020 W BANCROFT ST", "amenity": "post_box", "collection_times": "Mo-Fr 17:00; Sa 16:00", "indoor": "yes", "note": "ON 12/24 AND 12/31, THIS BOX MAY BE COLLECTED AS EARLY AS 12 NOON.", "nsi_id": "unitedstatespostalservice-a77078", "operator": "United States Postal Service", "operator:short": "USPS", "operator:type": "public", "operator:wikidata": "Q668687", "ref": "4361500056"}, "type": "Feature"}
{"geometry": {"coordinates": [-83.6424961, 41.630831], "type": "Point"}, "id": "VS4OsTmHaY6HJcjyKM_h7HSNjPA=", "properties": {"@source_uri": "https://tools.usps.com/UspsToolsRestServices/rest/POLocator/findLocations", "@spider": "usps_collection_boxes", "addr:city": "TOLEDO", "addr:country": "US", "addr:postcode": "43615", "addr:state": "OH", "addr:street_address": "4223 SOUTH AVE", "amenity": "post_box", "collection_times": "Mo-Fr 15:00; Sa 14:45", "note": "ON 12/24 AND 12/31, THIS BOX MAY BE COLLECTED AS EARLY AS 12 NOON.", "nsi_id": "unitedstatespostalservice-a77078", "operator": "United States Postal Service", "operator:short": "USPS", "operator:type": "public", "operator:wikidata": "Q668687", "ref": "4361500058"}, "type": "Feature"}
{"geometry": {"coordinates": [-83.6858354, 41.661683], "type": "Point"}, "id": "KuHt8MvS11We81FxzhD-uCUhw2c=", "properties": {"@source_uri": "https://tools.usps.com/UspsToolsRestServices/rest/POLocator/findLocations", "@spider": "usps_collection_boxes", "addr:city": "TOLEDO", "addr:country": "US", "addr:postcode": "43615", "addr:state": "OH", "addr:street_address": "6020 W BANCROFT ST", "amenity": "post_box", "collection_times": "Mo-Fr 17:00; Sa 16:00", "note": "ON 12/24 AND 12/31, THIS BOX MAY BE COLLECTED AS EARLY AS 12 NOON.", "nsi_id": "unitedstatespostalservice-a77078", "operator": "United States Postal Service", "operator:short": "USPS", "operator:type": "public", "operator:wikidata": "Q668687", "ref": "4361500061"}, "type": "Feature"}
{"geometry": {"coordinates": [-83.6438484, 41.620523], "type": "Point"}, "id": "Lhdn7XKBm8JhwAz8yB5DZPorrMc=", "properties": {"@source_uri": "https://tools.usps.com/UspsToolsRestServices/rest/POLocator/findLocations", "@spider": "usps_collection_boxes", "addr:city": "TOLEDO", "addr:country": "US", "addr:postcode": "43615", "addr:state": "OH", "addr:street_address": "4230 AIRPORT HWY", "amenity": "post_box", "collection_times": "Mo-Fr 15:00; Sa 14:45", "note": "ON 12/24 AND 12/31, THIS BOX MAY BE COLLECTED AS EARLY AS 12 NOON.", "nsi_id": "unitedstatespostalservice-a77078", "operator": "United States Postal Service", "operator:short": "USPS", "operator:type": "public", "operator:wikidata": "Q668687", "ref": "4361500064"}, "type": "Feature"}
{"geometry": {"coordinates": [-83.6725971, 41.61483], "type": "Point"}, "id": "ArHI3UXpTT9-gGtZDb5IJj7KJuY=", "properties": {"@source_uri": "https://tools.usps.com/UspsToolsRestServices/rest/POLocator/findLocations", "@spider": "usps_collection_boxes", "addr:city": "TOLEDO", "addr:country": "US", "addr:postcode": "43615", "addr:state": "OH", "addr:street_address": "5555 AIRPORT HWY", "amenity": "post_box", "collection_times": "Mo-Sa 15:30", "note": "ON 12/24 AND 12/31, THIS BOX MAY BE COLLECTED AS EARLY AS 12 NOON.", "nsi_id": "unitedstatespostalservice-a77078", "operator": "United States Postal Service", "operator:short": "USPS", "operator:type": "public", "operator:wikidata": "Q668687", "ref": "4361500065"}, "type": "Feature"}
{"geometry": {"coordinates": [-83.6853235, 41.662165], "type": "Point"}, "id": "eCNm0Wr__EZNjyxozymxgWdkFwc=", "properties": {"@source_uri": "https://tools.usps.com/UspsToolsRestServices/rest/POLocator/findLocations", "@spider": "usps_collection_boxes", "addr:city": "TOLEDO", "addr:country": "US", "addr:postcode": "43615", "addr:state": "OH", "addr:street_address": "6020 W BANCROFT ST", "amenity": "post_box", "collection_times": "Mo-Fr 17:00; Sa 16:45", "name": "USPS COLLECTION BOX - APC", "note": "ON 12/24 AND 12/31, THIS BOX MAY BE COLLECTED AS EARLY AS 12 NOON.", "nsi_id": "unitedstatespostalservice-a77078", "operator": "United States Postal Service", "operator:short": "USPS", "operator:type": "public", "operator:wikidata": "Q668687", "ref": "4361500069"}, "type": "Feature"}
{"geometry": {"coordinates": [-83.6542802539, 41.6585427172], "type": "Point"}, "id": "UnzIBLthfyXPFxQcbiCE5_G8rFI=", "properties": {"@source_uri": "https://tools.usps.com/UspsToolsRestServices/rest/POLocator/findLocations", "@spider": "usps_collection_boxes", "addr:city": "TOLEDO", "addr:country": "US", "addr:postcode": "43615", "addr:state": "OH", "addr:street_address": "1929 PENN RD", "amenity": "post_box", "collection_times": "Mo-Fr 12:45; Sa 12:15", "note": "ON 12/24 AND 12/31, THIS BOX MAY BE COLLECTED AS EARLY AS 12 NOON.", "nsi_id": "unitedstatespostalservice-a77078", "operator": "United States Postal Service", "operator:short": "USPS", "operator:type": "public", "operator:wikidata": "Q668687", "ref": "4361500076"}, "type": "Feature"}
{"geometry": {"coordinates": [-83.686182427, 41.661483437], "type": "Point"}, "id": "JheQvg6kfRsRiRm1f6YozUSaskw=", "properties": {"@source_uri": "https://tools.usps.com/UspsToolsRestServices/rest/POLocator/findLocations", "@spider": "usps_collection_boxes", "addr:city": "TOLEDO", "addr:country": "US", "addr:postcode": "43615", "addr:state": "OH", "addr:street_address": "6020 W BANCROFT ST", "amenity": "post_box", "collection_times": "Mo-Fr 17:30; Sa 13:30", "indoor": "yes", "note": "ON 12/24 AND 12/31, THIS BOX MAY BE COLLECTED AS EARLY AS 12 NOON.", "nsi_id": "unitedstatespostalservice-a77078", "operator": "United States Postal Service", "operator:short": "USPS", "operator:type": "public", "operator:wikidata": "Q668687", "ref": "4361500077"}, "type": "Feature"}
{"geometry": {"coordinates": [-83.503664, 41.627704], "type": "Point"}, "id": "M9GoecIGC-dps9SlW8Y5MuEmmCQ=", "properties": {"@source_uri": "https://tools.usps.com/UspsToolsRestServices/rest/POLocator/findLocations", "@spider": "usps_collection_boxes", "addr:city": "OREGON", "addr:country": "US", "addr:postcode": "43616", "addr:state": "OH", "addr:street_address": "1855 WOODVILLE RD", "amenity": "post_box", "collection_times": "Mo-Sa 12:30", "note": "ON 12/24 AND 12/31, THIS BOX MAY BE COLLECTED AS EARLY AS 12 NOON.", "nsi_id": "unitedstatespostalservice-a77078", "operator": "United States Postal Service", "operator:short": "USPS", "operator:type": "public", "operator:wikidata": "Q668687", "ref": "4361600002"}, "type": "Feature"}
{"geometry": {"coordinates": [-83.48441, 41.642245], "type": "Point"}, "id": "2CWy0VBf8NXQFYG5Hpr-VrProcs=", "properties": {"@source_uri": "https://tools.usps.com/UspsToolsRestServices/rest/POLocator/findLocations", "@spider": "usps_collection_boxes", "addr:city": "OREGON", "addr:country": "US", "addr:postcode": "43616", "addr:state": "OH", "addr:street_address": "2260 STARR AVE", "amenity": "post_box", "collection_times": "Mo-Sa 10:00", "nsi_id": "unitedstatespostalservice-a77078", "operator": "United States Postal Service", "operator:short": "USPS", "operator:type": "public", "operator:wikidata": "Q668687", "ref": "4361600003"}, "type": "Feature"}
{"geometry": {"coordinates": [-83.482299, 41.629533], "type": "Point"}, "id": "OV-GHL_blmOd4L5Dv0Th-t26TgU=", "properties": {"@source_uri": "https://tools.usps.com/UspsToolsRestServices/rest/POLocator/findLocations", "@spider": "usps_collection_boxes", "addr:city": "OREGON", "addr:country": "US", "addr:postcode": "43616", "addr:state": "OH", "addr:street_address": "2707 PICKLE RD", "amenity": "post_box", "collection_times": "Mo-Sa 09:00", "nsi_id": "unitedstatespostalservice-a77078", "operator": "United States Postal Service", "operator:short": "USPS", "operator:type": "public", "operator:wikidata": "Q668687", "ref": "4361600006"}, "type": "Feature"}
{"geometry": {"coordinates": [-83.470107, 41.638024], "type": "Point"}, "id": "jYjFqfDgKf-zcPEht5INkoFe35w=", "properties": {"@source_uri": "https://tools.usps.com/UspsToolsRestServices/rest/POLocator/findLocations", "@spider": "usps_collection_boxes", "addr:city": "OREGON", "addr:country": "US", "addr:postcode": "43616", "addr:state": "OH", "addr:street_address": "3301 NAVARRE AVE", "amenity": "post_box", "collection_times": "Mo-Sa 11:30", "nsi_id": "unitedstatespostalservice-a77078", "operator": "United States Postal Service", "operator:short": "USPS", "operator:type": "public", "operator:wikidata": "Q668687", "ref": "4361600009"}, "type": "Feature"}
{"geometry": {"coordinates": [-83.4313056, 41.635226], "type": "Point"}, "id": "45YFvGIpLEM_VPyE_PSdI-AaR_I=", "properties": {"@source_uri": "https://tools.usps.com/UspsToolsRestServices/rest/POLocator/findLocations", "@spider": "usps_collection_boxes", "addr:city": "OREGON", "addr:country": "US", "addr:postcode": "43616", "addr:state": "OH", "addr:street_address": "930 S WYNN RD", "amenity": "post_box", "collection_times": "Mo-Sa 12:00", "nsi_id": "unitedstatespostalservice-a77078", "operator": "United States Postal Service", "operator:short": "USPS", "operator:type": "public", "operator:wikidata": "Q668687", "ref": "4361600010"}, "type": "Feature"}
{"geometry": {"coordinates": [-83.4198849, 41.6521], "type": "Point"}, "id": "IZ5FuzEaaWu2btFU8Fr9nipiAw0=", "properties": {"@source_uri": "https://tools.usps.com/UspsToolsRestServices/rest/POLocator/findLocations", "@spider": "usps_collection_boxes", "addr:city": "OREGON", "addr:country": "US", "addr:postcode": "43616", "addr:state": "OH", "addr:street_address": "5330 SEAMAN RD", "amenity": "post_box", "collection_times": "Mo-Sa 11:30", "nsi_id": "unitedstatespostalservice-a77078", "operator": "United States Postal Service", "operator:short": "USPS", "operator:type": "public", "operator:wikidata": "Q668687", "ref": "4361600011"}, "type": "Feature"}
{"geometry": {"coordinates": [-83.4095843, 41.688662], "type": "Point"}, "id": "3ZASLXgZAA6IeknuIrBkU7DV1TM=", "properties": {"@source_uri": "https://tools.usps.com/UspsToolsRestServices/rest/POLocator/findLocations", "@spider": "usps_collection_boxes", "addr:city": "OREGON", "addr:country": "US", "addr:postcode": "43616", "addr:state": "OH", "addr:street_address": "1950 N STADIUM RD", "amenity": "post_box", "collection_times": "Mo-Sa 10:30", "nsi_id": "unitedstatespostalservice-a77078", "operator": "United States Postal Service", "operator:short": "USPS", "operator:type": "public", "operator:wikidata": "Q668687", "ref": "4361600014"}, "type": "Feature"}
{"geometry": {"coordinates": [-83.4870071, 41.641746], "type": "Point"}, "id": "p3C4Db1721b_YYzK7daBps95CXc=", "properties": {"@source_uri": "https://tools.usps.com/UspsToolsRestServices/rest/POLocator/findLocations", "@spider": "usps_collection_boxes", "addr:city": "OREGON", "addr:country": "US", "addr:postcode": "43616", "addr:state": "OH", "addr:street_address": "2545 EASTMORELAND DR", "amenity": "post_box", "collection_times": "Mo-Sa 10:30", "nsi_id": "unitedstatespostalservice-a77078", "operator": "United States Postal Service", "operator:short": "USPS", "operator:type": "public", "operator:wikidata": "Q668687", "ref": "4361600019"}, "type": "Feature"}
{"geometry": {"coordinates": [-83.4715376, 41.645064], "type": "Point"}, "id": "NCjb_gm82mYYCUYl2XPXFb-FrRs=", "properties": {"@source_uri": "https://tools.usps.com/UspsToolsRestServices/rest/POLocator/findLocations", "@spider": "usps_collection_boxes", "addr:city": "OREGON", "addr:country": "US", "addr:postcode": "43616", "addr:state": "OH", "addr:street_address": "344 EASTHAMPTON DR", "amenity": "post_box", "collection_times": "Mo-Sa 11:30", "nsi_id": "unitedstatespostalservice-a77078", "operator": "United States Postal Service", "operator:short": "USPS", "operator:type": "public", "operator:wikidata": "Q668687", "ref": "4361600031"}, "type": "Feature"}
{"geometry": {"coordinates": [-83.4751568, 41.634357], "type": "Point"}, "id": "5PBazOTM-qX1DIlrmfR0RW58KcE=", "properties": {"@source_uri": "https://tools.usps.com/UspsToolsRestServices/rest/POLocator/findLocations", "@spider": "usps_collection_boxes", "addr:city": "OREGON", "addr:country": "US", "addr:postcode": "43616", "addr:state": "OH", "addr:street_address": "3054 DUSTIN RD", "amenity": "post_box", "collection_times": "Mo-Sa 14:45", "note": "ON 12/24 AND 12/31, THIS BOX MAY BE COLLECTED AS EARLY AS 12 NOON.", "nsi_id": "unitedstatespostalservice-a77078", "operator": "United States Postal Service", "operator:short": "USPS", "operator:type": "public", "operator:wikidata": "Q668687", "ref": "4361600035"}, "type": "Feature"}
{"geometry": {"coordinates": [-83.4788119, 41.633725], "type": "Point"}, "id": "PmMwS3GxVRcJZGPunJ4Dtx2ICFo=", "properties": {"@source_uri": "https://tools.usps.com/UspsToolsRestServices/rest/POLocator/findLocations", "@spider": "usps_collection_boxes", "addr:city": "OREGON", "addr:country": "US", "addr:postcode": "43616", "addr:state": "OH", "addr:street_address": "2930 DUSTIN RD", "amenity": "post_box", "collection_times": "Mo-Sa 09:00", "nsi_id": "unitedstatespostalservice-a77078", "operator": "United States Postal Service", "operator:short": "USPS", "operator:type": "public", "operator:wikidata": "Q668687", "ref": "4361600036"}, "type": "Feature"}
{"geometry": {"coordinates": [-83.4808154, 41.621057], "type": "Point"}, "id": "RJhx7hLDhpiWcwoHH7_CGdTEVmQ=", "properties": {"@source_uri": "https://tools.usps.com/UspsToolsRestServices/rest/POLocator/findLocations", "@spider": "usps_collection_boxes", "addr:city": "OREGON", "addr:country": "US", "addr:postcode": "43616", "addr:state": "OH", "addr:street_address": "2751 BAY PARK DR", "amenity": "post_box", "collection_times": "Mo-Sa 09:00", "nsi_id": "unitedstatespostalservice-a77078", "operator": "United States Postal Service", "operator:short": "USPS", "operator:type": "public", "operator:wikidata": "Q668687", "ref": "4361600040"}, "type": "Feature"}
{"geometry": {"coordinates": [-83.476133, 41.634505], "type": "Point"}, "id": "ohxV-OZ3V4zt707pYjmLNdOZy4k=", "properties": {"@source_uri": "https://tools.usps.com/UspsToolsRestServices/rest/POLocator/findLocations", "@spider": "usps_collection_boxes", "addr:city": "OREGON", "addr:country": "US", "addr:postcode": "43616", "addr:state": "OH", "addr:street_address": "3054 DUSTIN RD", "amenity": "post_box", "collection_times": "Mo-Fr 17:15; Sa 13:45", "indoor": "yes", "note": "ON 12/24 AND 12/31, THIS BOX MAY BE COLLECTED AS EARLY AS 12 NOON.", "nsi_id": "unitedstatespostalservice-a77078", "operator": "United States Postal Service", "operator:short": "USPS", "operator:type": "public", "operator:wikidata": "Q668687", "ref": "4361600042"}, "type": "Feature"}
{"geometry": {"coordinates": [-83.476133, 41.634505], "type": "Point"}, "id": "NBPYwc0wZYQXrl3piLJxcpRexw8=", "properties": {"@source_uri": "https://tools.usps.com/UspsToolsRestServices/rest/POLocator/findLocations", "@spider": "usps_collection_boxes", "addr:city": "OREGON", "addr:country": "US", "addr:postcode": "43616", "addr:state": "OH", "addr:street_address": "3054 DUSTIN RD", "amenity": "post_box", "collection_times": "Mo-Fr 17:15; Sa 12:00", "name": "USPS COLLECTION BOX - APC", "note": "ON 12/24 AND 12/31, THIS BOX MAY BE COLLECTED AS EARLY AS 12 NOON.", "nsi_id": "unitedstatespostalservice-a77078", "operator": "United States Postal Service", "operator:short": "USPS", "operator:type": "public", "operator:wikidata": "Q668687", "ref": "4361600043"}, "type": "Feature"}
{"geometry": {"coordinates": [-83.47498145, 41.634496524], "type": "Point"}, "id": "yVvxjtq6Knb5LWMoOwzBPnBPvIk=", "properties": {"@source_uri": "https://tools.usps.com/UspsToolsRestServices/rest/POLocator/findLocations", "@spider": "usps_collection_boxes", "addr:city": "OREGON", "addr:country": "US", "addr:postcode": "43616", "addr:state": "OH", "addr:street_address": "3054 DUSTIN RD", "amenity": "post_box", "collection_times": "Mo-Fr 17:00; Sa 12:00", "indoor": "yes", "note": "ON 12/24 AND 12/31, THIS BOX MAY BE COLLECTED AS EARLY AS 12 NOON.", "nsi_id": "unitedstatespostalservice-a77078", "operator": "United States Postal Service", "operator:short": "USPS", "operator:type": "public", "operator:wikidata": "Q668687", "ref": "4361600050"}, "type": "Feature"}
{"geometry": {"coordinates": [-83.7041899, 41.675923], "type": "Point"}, "id": "lUhlQEoxw9XPQAt7hxPWoIhEb6A=", "properties": {"@source_uri": "https://tools.usps.com/UspsToolsRestServices/rest/POLocator/findLocations", "@spider": "usps_collection_boxes", "addr:city": "TOLEDO", "addr:country": "US", "addr:postcode": "43617", "addr:state": "OH", "addr:street_address": "6710 W CENTRAL AVE", "amenity": "post_box", "collection_times": "Mo-Fr 13:30; Sa 13:00", "note": "ON 12/24 AND 12/31, THIS BOX MAY BE COLLECTED AS EARLY AS 12 NOON.", "nsi_id": "unitedstatespostalservice-a77078", "operator": "United States Postal Service", "operator:short": "USPS", "operator:type": "public", "operator:wikidata": "Q668687", "ref": "4361700001"}, "type": "Feature"}
{"geometry": {"coordinates": [-83.7050094, 41.66499], "type": "Point"}, "id": "b4Vxpxs03eHmlHyv9HDL0P2pwrI=", "properties": {"@source_uri": "https://tools.usps.com/UspsToolsRestServices/rest/POLocator/findLocations", "@spider": "usps_collection_boxes", "addr:city": "TOLEDO", "addr:country": "US", "addr:postcode": "43617", "addr:state": "OH", "addr:street_address": "2428 CHRISWOOD RD", "amenity": "post_box", "collection_times": "Mo-Fr 13:15; Sa 12:30", "note": "ON 12/24 AND 12/31, THIS BOX MAY BE COLLECTED AS EARLY AS 12 NOON.", "nsi_id": "unitedstatespostalservice-a77078", "operator": "United States Postal Service", "operator:short": "USPS", "operator:type": "public", "operator:wikidata": "Q668687", "ref": "4361700002"}, "type": "Feature"}
{"geometry": {"coordinates": [-83.7003999, 41.676318], "type": "Point"}, "id": "YCv6KFFM1O4nTJfTTXAg1ymXQOk=", "properties": {"@source_uri": "https://tools.usps.com/UspsToolsRestServices/rest/POLocator/findLocations", "@spider": "usps_collection_boxes", "addr:city": "TOLEDO", "addr:country": "US", "addr:postcode": "43617", "addr:state": "OH", "addr:street_address": "6610 W CENTRAL AVE", "amenity": "post_box", "collection_times": "Mo-Fr 13:30; Sa 13:00", "note": "ON 12/24 AND 12/31, THIS BOX MAY BE COLLECTED AS EARLY AS 12 NOON.", "nsi_id": "unitedstatespostalservice-a77078", "operator": "United States Postal Service", "operator:short": "USPS", "operator:type": "public", "operator:wikidata": "Q668687", "ref": "4361700010"}, "type": "Feature"}
{"geometry": {"coordinates": [-83.7071559, 41.674942], "type": "Point"}, "id": "OYvMoWD27RfFVFbIHvI_X-1VtMM=", "properties": {"@source_uri": "https://tools.usps.com/UspsToolsRestServices/rest/POLocator/findLocations", "@spider": "usps_collection_boxes", "addr:city": "TOLEDO", "addr:country": "US", "addr:postcode": "43617", "addr:state": "OH", "addr:street_address": "6800 W CENTRAL AVE", "amenity": "post_box", "collection_times": "Mo-Fr 13:30; Sa 13:00", "note": "ON 12/24 AND 12/31, THIS BOX MAY BE COLLECTED AS EARLY AS 12 NOON.", "nsi_id": "unitedstatespostalservice-a77078", "operator": "United States Postal Service", "operator:short": "USPS", "operator:type": "public", "operator:wikidata": "Q668687", "ref": "4361700011"}, "type": "Feature"}
{"geometry": {"coordinates": [-83.7182699627, 41.6764949875], "type": "Point"}, "id": "YMaIz1pqt-yBCCUAiEKFEaozJFM=", "properties": {"@source_uri": "https://tools.usps.com/UspsToolsRestServices/rest/POLocator/findLocations", "@spider": "usps_collection_boxes", "addr:city": "TOLEDO", "addr:country": "US", "addr:postcode": "43617", "addr:state": "OH", "addr:street_address": "7240 W CENTRAL AVE", "amenity": "post_box", "collection_times": "Mo-Fr 13:45; Sa 13:15", "note": "ON 12/24 AND 12/31, THIS BOX MAY BE COLLECTED AS EARLY AS 12 NOON.", "nsi_id": "unitedstatespostalservice-a77078", "operator": "United States Postal Service", "operator:short": "USPS", "operator:type": "public", "operator:wikidata": "Q668687", "ref": "4361700012"}, "type": "Feature"}
{"geometry": {"coordinates": [-83.5371609, 41.61273], "type": "Point"}, "id": "o3vNWO-S1abFbJI9IHqbqH92rT8=", "properties": {"@source_uri": "https://tools.usps.com/UspsToolsRestServices/rest/POLocator/findLocations", "@spider": "usps_collection_boxes", "addr:city": "NORTHWOOD", "addr:country": "US", "addr:postcode": "43619", "addr:state": "OH", "addr:street_address": "2214 SHEFFIELD PL", "amenity": "post_box", "collection_times": "Mo-Sa 09:00", "nsi_id": "unitedstatespostalservice-a77078", "operator": "United States Postal Service", "operator:short": "USPS", "operator:type": "public", "operator:wikidata": "Q668687", "ref": "4361900004"}, "type": "Feature"}
{"geometry": {"coordinates": [-83.4889919, 41.618467], "type": "Point"}, "id": "W3z45ft59lk9iyvZHiCdVxxNAA4=", "properties": {"@source_uri": "https://tools.usps.com/UspsToolsRestServices/rest/POLocator/findLocations", "@spider": "usps_collection_boxes", "addr:city": "NORTHWOOD", "addr:country": "US", "addr:postcode": "43619", "addr:state": "OH", "addr:street_address": "2513 WOODVILLE RD", "amenity": "post_box", "collection_times": "Mo-Sa 09:30", "nsi_id": "unitedstatespostalservice-a77078", "operator": "United States Postal Service", "operator:short": "USPS", "operator:type": "public", "operator:wikidata": "Q668687", "ref": "4361900006"}, "type": "Feature"}
{"geometry": {"coordinates": [-83.4875856, 41.616281], "type": "Point"}, "id": "HqluMQBsgx74wYtHHnJpfo-m060=", "properties": {"@source_uri": "https://tools.usps.com/UspsToolsRestServices/rest/POLocator/findLocations", "@spider": "usps_collection_boxes", "addr:city": "NORTHWOOD", "addr:country": "US", "addr:postcode": "43619", "addr:state": "OH", "addr:street_address": "2680 WOODVILLE RD", "amenity": "post_box", "collection_times": "Mo-Sa 09:30", "nsi_id": "unitedstatespostalservice-a77078", "operator": "United States Postal Service", "operator:short": "USPS", "operator:type": "public", "operator:wikidata": "Q668687", "ref": "4361900008"}, "type": "Feature"}
{"geometry": {"coordinates": [-83.537596, 41.607853], "type": "Point"}, "id": "RtUFKZTOqLrgEMtHCTaK7CGTOnQ=", "properties": {"@source_uri": "https://tools.usps.com/UspsToolsRestServices/rest/POLocator/findLocations", "@spider": "usps_collection_boxes", "addr:city": "NORTHWOOD", "addr:country": "US", "addr:postcode": "43619", "addr:state": "OH", "addr:street_address": "2523 OREGON RD", "amenity": "post_box", "collection_times": "Mo-Sa 09:00", "nsi_id": "unitedstatespostalservice-a77078", "operator": "United States Postal Service", "operator:short": "USPS", "operator:type": "public", "operator:wikidata": "Q668687", "ref": "4361900015"}, "type": "Feature"}
{"geometry": {"coordinates": [-83.5527268, 41.66618], "type": "Point"}, "id": "MnCdzI-yBfVguMj7C3QK8vyFgro=", "properties": {"@source_uri": "https://tools.usps.com/UspsToolsRestServices/rest/POLocator/findLocations", "@spider": "usps_collection_boxes", "addr:city": "TOLEDO", "addr:country": "US", "addr:postcode": "43620", "addr:state": "OH", "addr:street_address": "2280 ASHLAND AVE", "amenity": "post_box", "collection_times": "Mo-Fr 17:00; Sa 16:00", "note": "ON 12/24 AND 12/31, THIS BOX MAY BE COLLECTED AS EARLY AS 12 NOON.", "nsi_id": "unitedstatespostalservice-a77078", "operator": "United States Postal Service", "operator:short": "USPS", "operator:type": "public", "operator:wikidata": "Q668687", "ref": "4362000010"}, "type": "Feature"}
{"geometry": {"coordinates": [-83.5532855266, 41.6659535409], "type": "Point"}, "id": "MBRVhQ9k9PV89gI8lkbc3BUZ1r8=", "properties": {"@source_uri": "https://tools.usps.com/UspsToolsRestServices/rest/POLocator/findLocations", "@spider": "usps_collection_boxes", "addr:city": "TOLEDO", "addr:country": "US", "addr:postcode": "43620", "addr:state": "OH", "addr:street_address": "2280 ASHLAND AVE", "amenity": "post_box", "collection_times": "Mo-Fr 17:00; Sa 09:30", "indoor": "yes", "note": "ON 12/24 AND 12/31, THIS BOX MAY BE COLLECTED AS EARLY AS 12 NOON.", "nsi_id": "unitedstatespostalservice-a77078", "operator": "United States Postal Service", "operator:short": "USPS", "operator:type": "public", "operator:wikidata": "Q668687", "ref": "4362000020"}, "type": "Feature"}
{"geometry": {"coordinates": [-83.5532855266, 41.6659535409], "type": "Point"}, "id": "2I4nTO_b4t5eyWENYVXWFvyhSNw=", "properties": {"@source_uri": "https://tools.usps.com/UspsToolsRestServices/rest/POLocator/findLocations", "@spider": "usps_collection_boxes", "addr:city": "TOLEDO", "addr:country": "US", "addr:postcode": "43620", "addr:state": "OH", "addr:street_address": "2280 ASHLAND AVE", "amenity": "post_box", "collection_times": "Mo-Fr 16:30", "indoor": "yes", "note": "ON 12/24 AND 12/31, THIS BOX MAY BE COLLECTED AS EARLY AS 12 NOON.", "nsi_id": "unitedstatespostalservice-a77078", "operator": "United States Postal Service", "operator:short": "USPS", "operator:type": "public", "operator:wikidata": "Q668687", "ref": "4362000022"}, "type": "Feature"}
{"geometry": {"coordinates": [-83.6249047, 41.706402], "type": "Point"}, "id": "16ZoW1pzIN9NtIGiuyANtZS7XLY=", "properties": {"@source_uri": "https://tools.usps.com/UspsToolsRestServices/rest/POLocator/findLocations", "@spider": "usps_collection_boxes", "addr:city": "TOLEDO", "addr:country": "US", "addr:postcode": "43623", "addr:state": "OH", "addr:street_address": "3332 W LASKEY RD", "amenity": "post_box", "collection_times": "Mo-Fr 14:30; Sa 12:00", "note": "ON 12/24 AND 12/31, THIS BOX MAY BE COLLECTED AS EARLY AS 12 NOON.", "nsi_id": "unitedstatespostalservice-a77078", "operator": "United States Postal Service", "operator:short": "USPS", "operator:type": "public", "operator:wikidata": "Q668687", "ref": "4362300001"}, "type": "Feature"}
{"geometry": {"coordinates": [-83.6455974, 41.691874], "type": "Point"}, "id": "-MLVoNprvjo-ePvY3VhPh8WHaHo=", "properties": {"@source_uri": "https://tools.usps.com/UspsToolsRestServices/rest/POLocator/findLocations", "@spider": "usps_collection_boxes", "addr:city": "TOLEDO", "addr:country": "US", "addr:postcode": "43623", "addr:state": "OH", "addr:street_address": "4352 W SYLVANIA AVE", "amenity": "post_box", "collection_times": "Mo-Fr 12:30; Sa 13:00", "note": "ON 12/24 AND 12/31, THIS BOX MAY BE COLLECTED AS EARLY AS 12 NOON.", "nsi_id": "unitedstatespostalservice-a77078", "operator": "United States Postal Service", "operator:short": "USPS", "operator:type": "public", "operator:wikidata": "Q668687", "ref": "4362300003"}, "type": "Feature"}
{"geometry": {"coordinates": [-83.6435678, 41.691905], "type": "Point"}, "id": "2jU-acoQ2bkZqVxhv6O8akp4mNU=", "properties": {"@source_uri": "https://tools.usps.com/UspsToolsRestServices/rest/POLocator/findLocations", "@spider": "usps_collection_boxes", "addr:city": "TOLEDO", "addr:country": "US", "addr:postcode": "43623", "addr:state": "OH", "addr:street_address": "4210 W SYLVANIA AVE", "amenity": "post_box", "collection_times": "Mo-Sa 13:15", "note": "ON 12/24 AND 12/31, THIS BOX MAY BE COLLECTED AS EARLY AS 12 NOON.", "nsi_id": "unitedstatespostalservice-a77078", "operator": "United States Postal Service", "operator:short": "USPS", "operator:type": "public", "operator:wikidata": "Q668687", "ref": "4362300004"}, "type": "Feature"}
{"geometry": {"coordinates": [-83.6241354, 41.695316], "type": "Point"}, "id": "Kts5z5_dOsGAFfC7hqYwEJL45EA=", "properties": {"@source_uri": "https://tools.usps.com/UspsToolsRestServices/rest/POLocator/findLocations", "@spider": "usps_collection_boxes", "addr:city": "TOLEDO", "addr:country": "US", "addr:postcode": "43623", "addr:state": "OH", "addr:street_address": "4235 SECOR RD", "amenity": "post_box", "collection_times": "Mo-Fr 11:30; Sa 12:00", "nsi_id": "unitedstatespostalservice-a77078", "operator": "United States Postal Service", "operator:short": "USPS", "operator:type": "public", "operator:wikidata": "Q668687", "ref": "4362300007"}, "type": "Feature"}
{"geometry": {"coordinates": [-83.6453091, 41.698132], "type": "Point"}, "id": "cDSX22ENzK-ZbgGzsa87MeCQK2M=", "properties": {"@source_uri": "https://tools.usps.com/UspsToolsRestServices/rest/POLocator/findLocations", "@spider": "usps_collection_boxes", "addr:city": "TOLEDO", "addr:country": "US", "addr:postcode": "43623", "addr:state": "OH", "addr:street_address": "4427 TALMADGE RD", "amenity": "post_box", "collection_times": "Mo-Fr 12:15; Sa 12:45", "note": "ON 12/24 AND 12/31, THIS BOX MAY BE COLLECTED AS EARLY AS 12 NOON.", "nsi_id": "unitedstatespostalservice-a77078", "operator": "United States Postal Service", "operator:short": "USPS", "operator:type": "public", "operator:wikidata": "Q668687", "ref": "4362300008"}, "type": "Feature"}
{"geometry": {"coordinates": [-83.643994, 41.699599], "type": "Point"}, "id": "O_O26qB-XXIwjDgdlBRa7LK093Q=", "properties": {"@source_uri": "https://tools.usps.com/UspsToolsRestServices/rest/POLocator/findLocations", "@spider": "usps_collection_boxes", "addr:city": "TOLEDO", "addr:country": "US", "addr:postcode": "43623", "addr:state": "OH", "addr:street_address": "4620 TALMADGE RD", "amenity": "post_box", "collection_times": "Mo-Fr 11:45; Sa 12:15", "note": "ON 12/24 AND 12/31, THIS BOX MAY BE COLLECTED AS EARLY AS 12 NOON.", "nsi_id": "unitedstatespostalservice-a77078", "operator": "United States Postal Service", "operator:short": "USPS", "operator:type": "public", "operator:wikidata": "Q668687", "ref": "4362300009"}, "type": "Feature"}
{"geometry": {"coordinates": [-83.6346206, 41.693808], "type": "Point"}, "id": "s7MNF4m1zwkJ_LlMhhFVHwDAeGI=", "properties": {"@source_uri": "https://tools.usps.com/UspsToolsRestServices/rest/POLocator/findLocations", "@spider": "usps_collection_boxes", "addr:city": "TOLEDO", "addr:country": "US", "addr:postcode": "43623", "addr:state": "OH", "addr:street_address": "4841 MONROE ST", "amenity": "post_box", "collection_times": "Mo-Sa 13:15", "note": "ON 12/24 AND 12/31, THIS BOX MAY BE COLLECTED AS EARLY AS 12 NOON.", "nsi_id": "unitedstatespostalservice-a77078", "operator": "United States Postal Service", "operator:short": "USPS", "operator:type": "public", "operator:wikidata": "Q668687", "ref": "4362300010"}, "type": "Feature"}
{"geometry": {"coordinates": [-83.6576531, 41.702245], "type": "Point"}, "id": "4XtwfCLchY0oCLywdW-RlNMNlV8=", "properties": {"@source_uri": "https://tools.usps.com/UspsToolsRestServices/rest/POLocator/findLocations", "@spider": "usps_collection_boxes", "addr:city": "TOLEDO", "addr:country": "US", "addr:postcode": "43623", "addr:state": "OH", "addr:street_address": "5333 MONROE ST", "amenity": "post_box", "collection_times": "Mo-Sa 12:15", "note": "ON 12/24 AND 12/31, THIS BOX MAY BE COLLECTED AS EARLY AS 12 NOON.", "nsi_id": "unitedstatespostalservice-a77078", "operator": "United States Postal Service", "operator:short": "USPS", "operator:type": "public", "operator:wikidata": "Q668687", "ref": "4362300011"}, "type": "Feature"}
{"geometry": {"coordinates": [-83.6491691, 41.696003], "type": "Point"}, "id": "A0e8kCoh5pbTMfm3klWjsEXstjM=", "properties": {"@source_uri": "https://tools.usps.com/UspsToolsRestServices/rest/POLocator/findLocations", "@spider": "usps_collection_boxes", "addr:city": "TOLEDO", "addr:country": "US", "addr:postcode": "43623", "addr:state": "OH", "addr:street_address": "4268 ROSE GARDEN DR", "amenity": "post_box", "collection_times": "Mo-Fr 12:30; Sa 13:00", "note": "ON 12/24 AND 12/31, THIS BOX MAY BE COLLECTED AS EARLY AS 12 NOON.", "nsi_id": "unitedstatespostalservice-a77078", "operator": "United States Postal Service", "operator:short": "USPS", "operator:type": "public", "operator:wikidata": "Q668687", "ref": "4362300020"}, "type": "Feature"}
{"geometry": {"coordinates": [-83.6288733, 41.720382], "type": "Point"}, "id": "NY6403YP6wzLxQwEb0Sy50IN8P4=", "properties": {"@source_uri": "https://tools.usps.com/UspsToolsRestServices/rest/POLocator/findLocations", "@spider": "usps_collection_boxes", "addr:city": "TOLEDO", "addr:country": "US", "addr:postcode": "43623", "addr:state": "OH", "addr:street_address": "3455 W ALEXIS RD", "amenity": "post_box", "collection_times": "Mo-Fr 14:30; Sa 12:00", "note": "ON 12/24 AND 12/31, THIS BOX MAY BE COLLECTED AS EARLY AS 12 NOON.", "nsi_id": "unitedstatespostalservice-a77078", "operator": "United States Postal Service", "operator:short": "USPS", "operator:type": "public", "operator:wikidata": "Q668687", "ref": "4362300022"}, "type": "Feature"}
{"geometry": {"coordinates": [-83.6464464, 41.704377], "type": "Point"}, "id": "EcWb_XDT0k5CpN7UZTHYvXIDCp0=", "properties": {"@source_uri": "https://tools.usps.com/UspsToolsRestServices/rest/POLocator/findLocations", "@spider": "usps_collection_boxes", "addr:city": "TOLEDO", "addr:country": "US", "addr:postcode": "43623", "addr:state": "OH", "addr:street_address": "1000 REGENCY CT", "amenity": "post_box", "collection_times": "Mo-Fr 11:45; Sa 12:15", "note": "ON 12/24 AND 12/31, THIS BOX MAY BE COLLECTED AS EARLY AS 12 NOON.", "nsi_id": "unitedstatespostalservice-a77078", "operator": "United States Postal Service", "operator:short": "USPS", "operator:type": "public", "operator:wikidata": "Q668687", "ref": "4362300023"}, "type": "Feature"}
{"geometry": {"coordinates": [-83.6314279, 41.689951], "type": "Point"}, "id": "UsMpCIRcUoX60NfnkNo6KEQg8rM=", "properties": {"@source_uri": "https://tools.usps.com/UspsToolsRestServices/rest/POLocator/findLocations", "@spider": "usps_collection_boxes", "addr:city": "TOLEDO", "addr:country": "US", "addr:postcode": "43623", "addr:state": "OH", "addr:street_address": "3900 SUNFOREST CT", "amenity": "post_box", "collection_times": "Mo-Sa 13:00", "note": "ON 12/24 AND 12/31, THIS BOX MAY BE COLLECTED AS EARLY AS 12 NOON.", "nsi_id": "unitedstatespostalservice-a77078", "operator": "United States Postal Service", "operator:short": "USPS", "operator:type": "public", "operator:wikidata": "Q668687", "ref": "4362300026"}, "type": "Feature"}
{"geometry": {"coordinates": [-83.6493209, 41.698926], "type": "Point"}, "id": "C2OfXnVZ4Ks7siYoGIRg5uAGJCo=", "properties": {"@source_uri": "https://tools.usps.com/UspsToolsRestServices/rest/POLocator/findLocations", "@spider": "usps_collection_boxes", "addr:city": "TOLEDO", "addr:country": "US", "addr:postcode": "43623", "addr:state": "OH", "addr:street_address": "5151 MONROE ST", "amenity": "post_box", "collection_times": "Mo-Fr 17:00; Sa 15:45", "note": "ON 12/24 AND 12/31, THIS BOX MAY BE COLLECTED AS EARLY AS 12 NOON.", "nsi_id": "unitedstatespostalservice-a77078", "operator": "United States Postal Service", "operator:short": "USPS", "operator:type": "public", "operator:wikidata": "Q668687", "ref": "4362300031"}, "type": "Feature"}
{"geometry": {"coordinates": [-83.648291, 41.700324], "type": "Point"}, "id": "6AMX3nfotR5XnifetDpjkj8xyWE=", "properties": {"@source_uri": "https://tools.usps.com/UspsToolsRestServices/rest/POLocator/findLocations", "@spider": "usps_collection_boxes", "addr:city": "TOLEDO", "addr:country": "US", "addr:postcode": "43623", "addr:state": "OH", "addr:street_address": "5151 MONROE ST", "amenity": "post_box", "collection_times": "Mo-Fr 17:00; Sa 13:45", "indoor": "yes", "note": "ON 12/24 AND 12/31, THIS BOX MAY BE COLLECTED AS EARLY AS 12 NOON.", "nsi_id": "unitedstatespostalservice-a77078", "operator": "United States Postal Service", "operator:short": "USPS", "operator:type": "public", "operator:wikidata": "Q668687", "ref": "4362300032"}, "type": "Feature"}
{"geometry": {"coordinates": [-83.6880306, 41.693898], "type": "Point"}, "id": "V0HK4rav5dK6Ja_yYcXFfzpBdFI=", "properties": {"@source_uri": "https://tools.usps.com/UspsToolsRestServices/rest/POLocator/findLocations", "@spider": "usps_collection_boxes", "addr:city": "TOLEDO", "addr:country": "US", "addr:postcode": "43623", "addr:state": "OH", "addr:street_address": "4159 N HOLLAND SYLVANIA RD", "amenity": "post_box", "collection_times": "Mo-Fr 12:45; Sa 13:15", "note": "ON 12/24 AND 12/31, THIS BOX MAY BE COLLECTED AS EARLY AS 12 NOON.", "nsi_id": "unitedstatespostalservice-a77078", "operator": "United States Postal Service", "operator:short": "USPS", "operator:type": "public", "operator:wikidata": "Q668687", "ref": "4362300037"}, "type": "Feature"}
{"geometry": {"coordinates": [-83.6402573, 41.69634], "type": "Point"}, "id": "wyeGaiCPRxv0b13-EaLCT8w_cwI=", "properties": {"@source_uri": "https://tools.usps.com/UspsToolsRestServices/rest/POLocator/findLocations", "@spider": "usps_collection_boxes", "addr:city": "TOLEDO", "addr:country": "US", "addr:postcode": "43623", "addr:state": "OH", "addr:street_address": "5001 MONROE ST", "amenity": "post_box", "collection_times": "Mo-Sa 13:00", "note": "ON 12/24 AND 12/31, THIS BOX MAY BE COLLECTED AS EARLY AS 12 NOON.", "nsi_id": "unitedstatespostalservice-a77078", "operator": "United States Postal Service", "operator:short": "USPS", "operator:type": "public", "operator:wikidata": "Q668687", "ref": "4362300038"}, "type": "Feature"}
{"geometry": {"coordinates": [-83.6334933, 41.713396], "type": "Point"}, "id": "DDRNVnHqIUR4LqBd7dRCguRph9U=", "properties": {"@source_uri": "https://tools.usps.com/UspsToolsRestServices/rest/POLocator/findLocations", "@spider": "usps_collection_boxes", "addr:city": "TOLEDO", "addr:country": "US", "addr:postcode": "43623", "addr:state": "OH", "addr:street_address": "3650 MCGREGOR LN", "amenity": "post_box", "collection_times": "Mo-Fr 14:30; Sa 12:00", "note": "ON 12/24 AND 12/31, THIS BOX MAY BE COLLECTED AS EARLY AS 12 NOON.", "nsi_id": "unitedstatespostalservice-a77078", "operator": "United States Postal Service", "operator:short": "USPS", "operator:type": "public", "operator:wikidata": "Q668687", "ref": "4362300044"}, "type": "Feature"}
{"geometry": {"coordinates": [-83.6365838, 41.695932], "type": "Point"}, "id": "zbyfho8f4uNWqBz7ImKRGHIGEWg=", "properties": {"@source_uri": "https://tools.usps.com/UspsToolsRestServices/rest/POLocator/findLocations", "@spider": "usps_collection_boxes", "addr:city": "TOLEDO", "addr:country": "US", "addr:postcode": "43623", "addr:state": "OH", "addr:street_address": "4895 MONROE ST", "amenity": "post_box", "collection_times": "Mo-Sa 13:00", "note": "ON 12/24 AND 12/31, THIS BOX MAY BE COLLECTED AS EARLY AS 12 NOON.", "nsi_id": "unitedstatespostalservice-a77078", "operator": "United States Postal Service", "operator:short": "USPS", "operator:type": "public", "operator:wikidata": "Q668687", "ref": "4362300045"}, "type": "Feature"}
{"geometry": {"coordinates": [-83.6464983, 41.701453], "type": "Point"}, "id": "C2HO4XVJfo75uAl89LBJsXHR9NQ=", "properties": {"@source_uri": "https://tools.usps.com/UspsToolsRestServices/rest/POLocator/findLocations", "@spider": "usps_collection_boxes", "addr:city": "TOLEDO", "addr:country": "US", "addr:postcode": "43623", "addr:state": "OH", "addr:street_address": "4701 TALMADGE RD", "amenity": "post_box", "collection_times": "Mo-Fr 11:45; Sa 12:15", "note": "ON 12/24 AND 12/31, THIS BOX MAY BE COLLECTED AS EARLY AS 12 NOON.", "nsi_id": "unitedstatespostalservice-a77078", "operator": "United States Postal Service", "operator:short": "USPS", "operator:type": "public", "operator:wikidata": "Q668687", "ref": "4362300050"}, "type": "Feature"}
{"geometry": {"coordinates": [-83.6337254, 41.692022], "type": "Point"}, "id": "vypQM3_vzjnAhbNSBSJ8zQofrIQ=", "properties": {"@source_uri": "https://tools.usps.com/UspsToolsRestServices/rest/POLocator/findLocations", "@spider": "usps_collection_boxes", "addr:city": "TOLEDO", "addr:country": "US", "addr:postcode": "43623", "addr:state": "OH", "addr:street_address": "3740 W SYLVANIA AVE", "amenity": "post_box", "collection_times": "Mo-Sa 13:00", "note": "ON 12/24 AND 12/31, THIS BOX MAY BE COLLECTED AS EARLY AS 12 NOON.", "nsi_id": "unitedstatespostalservice-a77078", "operator": "United States Postal Service", "operator:short": "USPS", "operator:type": "public", "operator:wikidata": "Q668687", "ref": "4362300052"}, "type": "Feature"}
{"geometry": {"coordinates": [-83.688997464, 41.6957088521], "type": "Point"}, "id": "l4gRP3TxEzw_l3F1SEdXlAjaEFw=", "properties": {"@source_uri": "https://tools.usps.com/UspsToolsRestServices/rest/POLocator/findLocations", "@spider": "usps_collection_boxes", "addr:city": "TOLEDO", "addr:country": "US", "addr:postcode": "43623", "addr:state": "OH", "addr:street_address": "4340 N HOLLAND SYLVANIA RD", "amenity": "post_box", "collection_times": "Mo-Fr 12:45; Sa 13:15", "note": "ON 12/24 AND 12/31, THIS BOX MAY BE COLLECTED AS EARLY AS 12 NOON.", "nsi_id": "unitedstatespostalservice-a77078", "operator": "United States Postal Service", "operator:short": "USPS", "operator:type": "public", "operator:wikidata": "Q668687", "ref": "4362300055"}, "type": "Feature"}
{"geometry": {"coordinates": [-83.6252929, 41.693316], "type": "Point"}, "id": "mZTbMet37jzu6AhqFMoA1zZnTts=", "properties": {"@source_uri": "https://tools.usps.com/UspsToolsRestServices/rest/POLocator/findLocations", "@spider": "usps_collection_boxes", "addr:city": "TOLEDO", "addr:country": "US", "addr:postcode": "43623", "addr:state": "OH", "addr:street_address": "3404 W SYLVANIA AVE", "amenity": "post_box", "collection_times": "Mo-Fr 11:30; Sa 12:00", "nsi_id": "unitedstatespostalservice-a77078", "operator": "United States Postal Service", "operator:short": "USPS", "operator:type": "public", "operator:wikidata": "Q668687", "ref": "4362300056"}, "type": "Feature"}
{"geometry": {"coordinates": [-83.648291, 41.700324], "type": "Point"}, "id": "JZrmWH6OEMldD7Uyy_jzP-SQW3o=", "properties": {"@source_uri": "https://tools.usps.com/UspsToolsRestServices/rest/POLocator/findLocations", "@spider": "usps_collection_boxes", "addr:city": "TOLEDO", "addr:country": "US", "addr:postcode": "43623", "addr:state": "OH", "addr:street_address": "5151 MONROE ST", "amenity": "post_box", "collection_times": "Mo-Fr 17:00; Sa 13:45", "name": "USPS COLLECTION BOX - APC", "note": "ON 12/24 AND 12/31, THIS BOX MAY BE COLLECTED AS EARLY AS 12 NOON.", "nsi_id": "unitedstatespostalservice-a77078", "operator": "United States Postal Service", "operator:short": "USPS", "operator:type": "public", "operator:wikidata": "Q668687", "ref": "4362300057"}, "type": "Feature"}
{"geometry": {"coordinates": [-83.6452099, 41.695205], "type": "Point"}, "id": "DN4PJMtyt2MEULcUc25h0YtqYxs=", "properties": {"@source_uri": "https://tools.usps.com/UspsToolsRestServices/rest/POLocator/findLocations", "@spider": "usps_collection_boxes", "addr:city": "TOLEDO", "addr:country": "US", "addr:postcode": "43623", "addr:state": "OH", "addr:street_address": "4217 TALMADGE RD", "amenity": "post_box", "collection_times": "Mo-Fr 12:30; Sa 12:45", "note": "ON 12/24 AND 12/31, THIS BOX MAY BE COLLECTED AS EARLY AS 12 NOON.", "nsi_id": "unitedstatespostalservice-a77078", "operator": "United States Postal Service", "operator:short": "USPS", "operator:type": "public", "operator:wikidata": "Q668687", "ref": "4362300062"}, "type": "Feature"}
{"geometry": {"coordinates": [-83.648730759, 41.700473425], "type": "Point"}, "id": "EI2utGKm0l8w0z6XSThTcY99v9k=", "properties": {"@source_uri": "https://tools.usps.com/UspsToolsRestServices/rest/POLocator/findLocations", "@spider": "usps_collection_boxes", "addr:city": "TOLEDO", "addr:country": "US", "addr:postcode": "43623", "addr:state": "OH", "addr:street_address": "5151 MONROE ST", "amenity": "post_box", "collection_times": "Mo-Fr 17:00; Sa 12:00", "indoor": "yes", "note": "ON 12/24 AND 12/31, THIS BOX MAY BE COLLECTED AS EARLY AS 12 NOON.", "nsi_id": "unitedstatespostalservice-a77078", "operator": "United States Postal Service", "operator:short": "USPS", "operator:type": "public", "operator:wikidata": "Q668687", "ref": "4362300075"}, "type": "Feature"}
