{"geometry": {"coordinates": [-82.0158783, 39.950075], "type": "Point"}, "id": "TW5_4-_CbvsvX9JKBw1uOI0b6Ng=", "properties": {"@source_uri": "https://tools.usps.com/UspsToolsRestServices/rest/POLocator/findLocations", "@spider": "usps_collection_boxes", "addr:city": "ZANESVILLE", "addr:country": "US", "addr:postcode": "43701", "addr:state": "OH", "addr:street_address": "900 MCINTIRE AVE", "amenity": "post_box", "collection_times": "Mo-Fr 17:00; Sa 16:00", "note": "ON 12/24 AND 12/31, THIS BOX MAY BE COLLECTED AS EARLY AS 12 NOON.", "nsi_id": "unitedstatespostalservice-a77078", "operator": "United States Postal Service", "operator:short": "USPS", "operator:type": "public", "operator:wikidata": "Q668687", "ref": "4370100004"}, "type": "Feature"}
{"geometry": {"coordinates": [-82.0095, 39.958845], "type": "Point"}, "id": "NHevqCUDv4JyvqmxEZKomj0CKnE=", "properties": {"@source_uri": "https://tools.usps.com/UspsToolsRestServices/rest/POLocator/findLocations", "@spider": "usps_collection_boxes", "addr:city": "ZANESVILLE", "addr:country": "US", "addr:postcode": "43701", "addr:state": "OH", "addr:street_address": "900 MCINTIRE AVE", "amenity": "post_box", "collection_times": "Mo-Fr 17:00; Sa 16:00", "indoor": "yes", "note": "ON 12/24 AND 12/31, THIS BOX MAY BE COLLECTED AS EARLY AS 12 NOON.", "nsi_id": "unitedstatespostalservice-a77078", "operator": "United States Postal Service", "operator:short": "USPS", "operator:type": "public", "operator:wikidata": "Q668687", "ref": "4370100007"}, "type": "Feature"}
{"geometry": {"coordinates": [-82.018816422, 39.981599919], "type": "Point"}, "id": "3feADvcC07ZtDGokEWoRVmYRY_Q=", "properties": {"@source_uri": "https://tools.usps.com/UspsToolsRestServices/rest/POLocator/findLocations", "@spider": "usps_collection_boxes", "addr:city": "ZANESVILLE", "addr:country": "US", "addr:postcode": "43701", "addr:state": "OH", "addr:street_address": "3257 MAPLE AVE", "amenity": "post_box", "collection_times": "Mo-Sa 16:30", "note": "ON 12/24 AND 12/31, THIS BOX MAY BE COLLECTED AS EARLY AS 12 NOON.", "nsi_id": "unitedstatespostalservice-a77078", "operator": "United States Postal Service", "operator:short": "USPS", "operator:type": "public", "operator:wikidata": "Q668687", "ref": "4370100010"}, "type": "Feature"}
{"geometry": {"coordinates": [-82.0399511, 39.895606], "type": "Point"}, "id": "ypGf-GF7inmHdeGoWE-jqMV3GF8=", "properties": {"@source_uri": "https://tools.usps.com/UspsToolsRestServices/rest/POLocator/findLocations", "@spider": "usps_collection_boxes", "addr:city": "ZANESVILLE", "addr:country": "US", "addr:postcode": "43701", "addr:state": "OH", "addr:street_address": "2750 MAYSVILLE PIKE", "amenity": "post_box", "collection_times": "Mo-Sa 13:00", "note": "ON 12/24 AND 12/31, THIS BOX MAY BE COLLECTED AS EARLY AS 12 NOON.", "nsi_id": "unitedstatespostalservice-a77078", "operator": "United States Postal Service", "operator:short": "USPS", "operator:type": "public", "operator:wikidata": "Q668687", "ref": "4370100011"}, "type": "Feature"}
{"geometry": {"coordinates": [-82.0158652, 39.975186], "type": "Point"}, "id": "wdTsF1P1Mo8WA5IbbWGM1grhysc=", "properties": {"@source_uri": "https://tools.usps.com/UspsToolsRestServices/rest/POLocator/findLocations", "@spider": "usps_collection_boxes", "addr:city": "ZANESVILLE", "addr:country": "US", "addr:postcode": "43701", "addr:state": "OH", "addr:street_address": "2951 MAPLE AVE", "amenity": "post_box", "collection_times": "Mo-Fr 10:00; Sa 09:00", "nsi_id": "unitedstatespostalservice-a77078", "operator": "United States Postal Service", "operator:short": "USPS", "operator:type": "public", "operator:wikidata": "Q668687", "ref": "4370100018"}, "type": "Feature"}
{"geometry": {"coordinates": [-82.0018224, 39.946175], "type": "Point"}, "id": "l01IRe3R_k6Fu6L0Qy-raHMmWd8=", "properties": {"@source_uri": "https://tools.usps.com/UspsToolsRestServices/rest/POLocator/findLocations", "@spider": "usps_collection_boxes", "addr:city": "ZANESVILLE", "addr:country": "US", "addr:postcode": "43701", "addr:state": "OH", "addr:street_address": "601 UNDERWOOD ST", "amenity": "post_box", "collection_times": "Mo-Sa 09:00", "nsi_id": "unitedstatespostalservice-a77078", "operator": "United States Postal Service", "operator:short": "USPS", "operator:type": "public", "operator:wikidata": "Q668687", "ref": "4370100025"}, "type": "Feature"}
{"geometry": {"coordinates": [-82.0042679, 39.943495], "type": "Point"}, "id": "vsOC5heVOZfC_j2grWOnoRaq-y8=", "properties": {"@source_uri": "https://tools.usps.com/UspsToolsRestServices/rest/POLocator/findLocations", "@spider": "usps_collection_boxes", "addr:city": "ZANESVILLE", "addr:country": "US", "addr:postcode": "43701", "addr:state": "OH", "addr:street_address": "623 SHINNICK ST", "amenity": "post_box", "collection_times": "Mo-Sa 09:00", "nsi_id": "unitedstatespostalservice-a77078", "operator": "United States Postal Service", "operator:short": "USPS", "operator:type": "public", "operator:wikidata": "Q668687", "ref": "4370100026"}, "type": "Feature"}
{"geometry": {"coordinates": [-82.0063531, 39.941915], "type": "Point"}, "id": "VTaK1dELo3dpRVAXvn2bAvNQfLY=", "properties": {"@source_uri": "https://tools.usps.com/UspsToolsRestServices/rest/POLocator/findLocations", "@spider": "usps_collection_boxes", "addr:city": "ZANESVILLE", "addr:country": "US", "addr:postcode": "43701", "addr:state": "OH", "addr:street_address": "505 MARKET ST", "amenity": "post_box", "collection_times": "Mo-Sa 09:00", "nsi_id": "unitedstatespostalservice-a77078", "operator": "United States Postal Service", "operator:short": "USPS", "operator:type": "public", "operator:wikidata": "Q668687", "ref": "4370100039"}, "type": "Feature"}
{"geometry": {"coordinates": [-82.024642, 39.982994], "type": "Point"}, "id": "_bQj8lkqB2HB7UnUfuYnXpqM8fk=", "properties": {"@source_uri": "https://tools.usps.com/UspsToolsRestServices/rest/POLocator/findLocations", "@spider": "usps_collection_boxes", "addr:city": "ZANESVILLE", "addr:country": "US", "addr:postcode": "43701", "addr:state": "OH", "addr:street_address": "3389 FAIRWAY LN", "amenity": "post_box", "collection_times": "Mo-Sa 09:00", "nsi_id": "unitedstatespostalservice-a77078", "operator": "United States Postal Service", "operator:short": "USPS", "operator:type": "public", "operator:wikidata": "Q668687", "ref": "4370100057"}, "type": "Feature"}
{"geometry": {"coordinates": [-82.0100728, 39.974582], "type": "Point"}, "id": "KL5CI2t-ru-zO6mcgGrXS-CLHEs=", "properties": {"@source_uri": "https://tools.usps.com/UspsToolsRestServices/rest/POLocator/findLocations", "@spider": "usps_collection_boxes", "addr:city": "ZANESVILLE", "addr:country": "US", "addr:postcode": "43701", "addr:state": "OH", "addr:street_address": "2800 MAPLE AVE", "amenity": "post_box", "collection_times": "Mo-Sa 09:00", "nsi_id": "unitedstatespostalservice-a77078", "operator": "United States Postal Service", "operator:short": "USPS", "operator:type": "public", "operator:wikidata": "Q668687", "ref": "4370100062"}, "type": "Feature"}
{"geometry": {"coordinates": [-82.0073739914, 39.9408599967], "type": "Point"}, "id": "7-sm1Km83cUxdKGSNyLgcirAMB8=", "properties": {"@source_uri": "https://tools.usps.com/UspsToolsRestServices/rest/POLocator/findLocations", "@spider": "usps_collection_boxes", "addr:city": "ZANESVILLE", "addr:country": "US", "addr:postcode": "43701", "addr:state": "OH", "addr:street_address": "28 N 4TH ST", "amenity": "post_box", "collection_times": "Mo-Sa 16:30", "note": "ON 12/24 AND 12/31, THIS BOX MAY BE COLLECTED AS EARLY AS 12 NOON.", "nsi_id": "unitedstatespostalservice-a77078", "operator": "United States Postal Service", "operator:short": "USPS", "operator:type": "public", "operator:wikidata": "Q668687", "ref": "4370100065"}, "type": "Feature"}
{"geometry": {"coordinates": [-82.011521, 39.973156], "type": "Point"}, "id": "JvWA0AlxfvFNF_W0Z7pRh6X10Gs=", "properties": {"@source_uri": "https://tools.usps.com/UspsToolsRestServices/rest/POLocator/findLocations", "@spider": "usps_collection_boxes", "addr:city": "ZANESVILLE", "addr:country": "US", "addr:postcode": "43701", "addr:state": "OH", "addr:street_address": "2746 MAPLE AVE", "amenity": "post_box", "collection_times": "Mo-Sa 09:00", "nsi_id": "unitedstatespostalservice-a77078", "operator": "United States Postal Service", "operator:short": "USPS", "operator:type": "public", "operator:wikidata": "Q668687", "ref": "4370100067"}, "type": "Feature"}
{"geometry": {"coordinates": [-82.0109713, 39.948757], "type": "Point"}, "id": "0o-C9vIPxMWTVSnPBxIkW0zNS3Y=", "properties": {"@source_uri": "https://tools.usps.com/UspsToolsRestServices/rest/POLocator/findLocations", "@spider": "usps_collection_boxes", "addr:city": "ZANESVILLE", "addr:country": "US", "addr:postcode": "43701", "addr:state": "OH", "addr:street_address": "235 MARKET ST", "amenity": "post_box", "collection_times": "Mo-Sa 09:00", "nsi_id": "unitedstatespostalservice-a77078", "operator": "United States Postal Service", "operator:short": "USPS", "operator:type": "public", "operator:wikidata": "Q668687", "ref": "4370100068"}, "type": "Feature"}
{"geometry": {"coordinates": [-82.0013277, 39.943585], "type": "Point"}, "id": "JjkxcWXLyj2d79L2pyrEg-xm_t8=", "properties": {"@source_uri": "https://tools.usps.com/UspsToolsRestServices/rest/POLocator/findLocations", "@spider": "usps_collection_boxes", "addr:city": "ZANESVILLE", "addr:country": "US", "addr:postcode": "43701", "addr:state": "OH", "addr:street_address": "225 UNDERWOOD ST", "amenity": "post_box", "collection_times": "Mo-Sa 09:00", "nsi_id": "unitedstatespostalservice-a77078", "operator": "United States Postal Service", "operator:short": "USPS", "operator:type": "public", "operator:wikidata": "Q668687", "ref": "4370100069"}, "type": "Feature"}
{"geometry": {"coordinates": [-82.0095321, 39.960588], "type": "Point"}, "id": "Qre_KsoAu6d-WeyAAyvNFrFcAY0=", "properties": {"@source_uri": "https://tools.usps.com/UspsToolsRestServices/rest/POLocator/findLocations", "@spider": "usps_collection_boxes", "addr:city": "ZANESVILLE", "addr:country": "US", "addr:postcode": "43701", "addr:state": "OH", "addr:street_address": "1846 DRESDEN RD", "amenity": "post_box", "collection_times": "Mo-Sa 09:00", "nsi_id": "unitedstatespostalservice-a77078", "operator": "United States Postal Service", "operator:short": "USPS", "operator:type": "public", "operator:wikidata": "Q668687", "ref": "4370100070"}, "type": "Feature"}
{"geometry": {"coordinates": [-82.0189792, 39.985366], "type": "Point"}, "id": "MB8OD6rwCliG0sm5xaHIkZZ3kgY=", "properties": {"@source_uri": "https://tools.usps.com/UspsToolsRestServices/rest/POLocator/findLocations", "@spider": "usps_collection_boxes", "addr:city": "ZANESVILLE", "addr:country": "US", "addr:postcode": "43701", "addr:state": "OH", "addr:street_address": "1100 BRANDYWINE BLVD", "amenity": "post_box", "collection_times": "Mo-Sa 11:00", "nsi_id": "unitedstatespostalservice-a77078", "operator": "United States Postal Service", "operator:short": "USPS", "operator:type": "public", "operator:wikidata": "Q668687", "ref": "4370100079"}, "type": "Feature"}
{"geometry": {"coordinates": [-81.9811343, 39.943803], "type": "Point"}, "id": "Elh2XOu2y47FIEwd6hDWjPKF1xU=", "properties": {"@source_uri": "https://tools.usps.com/UspsToolsRestServices/rest/POLocator/findLocations", "@spider": "usps_collection_boxes", "addr:city": "ZANESVILLE", "addr:country": "US", "addr:postcode": "43701", "addr:state": "OH", "addr:street_address": "106 SUNRISE CENTER DR", "amenity": "post_box", "collection_times": "Mo-Sa 09:00", "nsi_id": "unitedstatespostalservice-a77078", "operator": "United States Postal Service", "operator:short": "USPS", "operator:type": "public", "operator:wikidata": "Q668687", "ref": "4370100083"}, "type": "Feature"}
{"geometry": {"coordinates": [-82.0204604, 39.903551], "type": "Point"}, "id": "BV42a8wMCelyKCUB6d1IJLisOHE=", "properties": {"@source_uri": "https://tools.usps.com/UspsToolsRestServices/rest/POLocator/findLocations", "@spider": "usps_collection_boxes", "addr:city": "ZANESVILLE", "addr:country": "US", "addr:postcode": "43701", "addr:state": "OH", "addr:street_address": "5 N MAYSVILLE AVE", "amenity": "post_box", "collection_times": "Mo-Sa 16:00", "note": "ON 12/24 AND 12/31, THIS BOX MAY BE COLLECTED AS EARLY AS 12 NOON.", "nsi_id": "unitedstatespostalservice-a77078", "operator": "United States Postal Service", "operator:short": "USPS", "operator:type": "public", "operator:wikidata": "Q668687", "ref": "4370100089"}, "type": "Feature"}
{"geometry": {"coordinates": [-82.0184815, 39.894779], "type": "Point"}, "id": "Zs1rjE1Vkkomat0yyB7KonqeMA4=", "properties": {"@source_uri": "https://tools.usps.com/UspsToolsRestServices/rest/POLocator/findLocations", "@spider": "usps_collection_boxes", "addr:city": "ZANESVILLE", "addr:country": "US", "addr:postcode": "43701", "addr:state": "OH", "addr:street_address": "1 CROWN CIR", "amenity": "post_box", "collection_times": "Mo-Sa 09:00", "nsi_id": "unitedstatespostalservice-a77078", "operator": "United States Postal Service", "operator:short": "USPS", "operator:type": "public", "operator:wikidata": "Q668687", "ref": "4370100095"}, "type": "Feature"}
{"geometry": {"coordinates": [-81.9999391, 39.90476], "type": "Point"}, "id": "qL30Tvm0UPu5wBUGvvIoooY6dcY=", "properties": {"@source_uri": "https://tools.usps.com/UspsToolsRestServices/rest/POLocator/findLocations", "@spider": "usps_collection_boxes", "addr:city": "ZANESVILLE", "addr:country": "US", "addr:postcode": "43701", "addr:state": "OH", "addr:street_address": "2200 S RIVER RD", "amenity": "post_box", "collection_times": "Mo-Sa 08:30", "nsi_id": "unitedstatespostalservice-a77078", "operator": "United States Postal Service", "operator:short": "USPS", "operator:type": "public", "operator:wikidata": "Q668687", "ref": "4370100098"}, "type": "Feature"}
{"geometry": {"coordinates": [-82.0102413, 39.967378], "type": "Point"}, "id": "qgZf_H04htFCvdwfnQVsDw5Sz7Y=", "properties": {"@source_uri": "https://tools.usps.com/UspsToolsRestServices/rest/POLocator/findLocations", "@spider": "usps_collection_boxes", "addr:city": "ZANESVILLE", "addr:country": "US", "addr:postcode": "43701", "addr:state": "OH", "addr:street_address": "615 TAYLOR ST", "amenity": "post_box", "collection_times": "Mo-Sa 09:00", "nsi_id": "unitedstatespostalservice-a77078", "operator": "United States Postal Service", "operator:short": "USPS", "operator:type": "public", "operator:wikidata": "Q668687", "ref": "4370100103"}, "type": "Feature"}
{"geometry": {"coordinates": [-82.0109713, 39.948757], "type": "Point"}, "id": "x3zdKH1_xzeAmxjC2Hxa3tcYwPY=", "properties": {"@source_uri": "https://tools.usps.com/UspsToolsRestServices/rest/POLocator/findLocations", "@spider": "usps_collection_boxes", "addr:city": "ZANESVILLE", "addr:country": "US", "addr:postcode": "43701", "addr:state": "OH", "addr:street_address": "1006 CULBERTSON AVE", "amenity": "post_box", "collection_times": "Mo-Sa 09:00", "nsi_id": "unitedstatespostalservice-a77078", "operator": "United States Postal Service", "operator:short": "USPS", "operator:type": "public", "operator:wikidata": "Q668687", "ref": "4370100111"}, "type": "Feature"}
{"geometry": {"coordinates": [-82.0323779, 39.96081], "type": "Point"}, "id": "xCCK_gtO72zb2MvVzdZ_ZKon9BE=", "properties": {"@source_uri": "https://tools.usps.com/UspsToolsRestServices/rest/POLocator/findLocations", "@spider": "usps_collection_boxes", "addr:city": "ZANESVILLE", "addr:country": "US", "addr:postcode": "43701", "addr:state": "OH", "addr:street_address": "1425 NEWARK RD", "amenity": "post_box", "collection_times": "Mo-Sa 09:00", "nsi_id": "unitedstatespostalservice-a77078", "operator": "United States Postal Service", "operator:short": "USPS", "operator:type": "public", "operator:wikidata": "Q668687", "ref": "4370100123"}, "type": "Feature"}
{"geometry": {"coordinates": [-82.0064771, 39.939069], "type": "Point"}, "id": "ybkli_LEVDAPprN1RSQaaK4bvko=", "properties": {"@source_uri": "https://tools.usps.com/UspsToolsRestServices/rest/POLocator/findLocations", "@spider": "usps_collection_boxes", "addr:city": "ZANESVILLE", "addr:country": "US", "addr:postcode": "43701", "addr:state": "OH", "addr:street_address": "56 S 5TH ST", "amenity": "post_box", "collection_times": "Mo-Sa 09:00", "nsi_id": "unitedstatespostalservice-a77078", "operator": "United States Postal Service", "operator:short": "USPS", "operator:type": "public", "operator:wikidata": "Q668687", "ref": "4370100132"}, "type": "Feature"}
{"geometry": {"coordinates": [-82.0223812, 39.988836], "type": "Point"}, "id": "UbHGZCBz9SuMlmLCvszm2l-AyMI=", "properties": {"@source_uri": "https://tools.usps.com/UspsToolsRestServices/rest/POLocator/findLocations", "@spider": "usps_collection_boxes", "addr:city": "ZANESVILLE", "addr:country": "US", "addr:postcode": "43701", "addr:state": "OH", "addr:street_address": "3606 MAPLE AVE", "amenity": "post_box", "collection_times": "Mo-Sa 14:30", "note": "ON 12/24 AND 12/31, THIS BOX MAY BE COLLECTED AS EARLY AS 12 NOON.", "nsi_id": "unitedstatespostalservice-a77078", "operator": "United States Postal Service", "operator:short": "USPS", "operator:type": "public", "operator:wikidata": "Q668687", "ref": "4370100141"}, "type": "Feature"}
{"geometry": {"coordinates": [-82.0223785, 39.988834], "type": "Point"}, "id": "d6MuSxnPz_KxxntDBUnheF8Y_PE=", "properties": {"@source_uri": "https://tools.usps.com/UspsToolsRestServices/rest/POLocator/findLocations", "@spider": "usps_collection_boxes", "addr:city": "ZANESVILLE", "addr:country": "US", "addr:postcode": "43701", "addr:state": "OH", "addr:street_address": "1259 MUIRWOOD DR", "amenity": "post_box", "collection_times": "Mo-Sa 14:30", "note": "ON 12/24 AND 12/31, THIS BOX MAY BE COLLECTED AS EARLY AS 12 NOON.", "nsi_id": "unitedstatespostalservice-a77078", "operator": "United States Postal Service", "operator:short": "USPS", "operator:type": "public", "operator:wikidata": "Q668687", "ref": "4370100142"}, "type": "Feature"}
{"geometry": {"coordinates": [-81.997600528, 39.949712306], "type": "Point"}, "id": "PbjQRpWoFYOGfmiQVtRau2JiT2A=", "properties": {"@source_uri": "https://tools.usps.com/UspsToolsRestServices/rest/POLocator/findLocations", "@spider": "usps_collection_boxes", "addr:city": "ZANESVILLE", "addr:country": "US", "addr:postcode": "43701", "addr:state": "OH", "addr:street_address": "1035 ZANE ST", "amenity": "post_box", "collection_times": "Mo-Sa 16:00", "note": "ON 12/24 AND 12/31, THIS BOX MAY BE COLLECTED AS EARLY AS 12 NOON.", "nsi_id": "unitedstatespostalservice-a77078", "operator": "United States Postal Service", "operator:short": "USPS", "operator:type": "public", "operator:wikidata": "Q668687", "ref": "4370100147"}, "type": "Feature"}
{"geometry": {"coordinates": [-82.0064164, 39.943588], "type": "Point"}, "id": "QaMcuPfYjZ8Cw6HCWdYv4mSdDNw=", "properties": {"@source_uri": "https://tools.usps.com/UspsToolsRestServices/rest/POLocator/findLocations", "@spider": "usps_collection_boxes", "addr:city": "ZANESVILLE", "addr:country": "US", "addr:postcode": "43701", "addr:state": "OH", "addr:street_address": "499 SHINNICK ST", "amenity": "post_box", "collection_times": "Mo-Sa 09:00", "nsi_id": "unitedstatespostalservice-a77078", "operator": "United States Postal Service", "operator:short": "USPS", "operator:type": "public", "operator:wikidata": "Q668687", "ref": "4370100148"}, "type": "Feature"}
{"geometry": {"coordinates": [-82.0095, 39.958845], "type": "Point"}, "id": "nI6Xo4ffbTmjgMRGLaFE5G54KNM=", "properties": {"@source_uri": "https://tools.usps.com/UspsToolsRestServices/rest/POLocator/findLocations", "@spider": "usps_collection_boxes", "addr:city": "ZANESVILLE", "addr:country": "US", "addr:postcode": "43701", "addr:state": "OH", "addr:street_address": "900 MCINTIRE AVE", "amenity": "post_box", "collection_times": "Mo-Fr 17:00; Sa 16:00", "indoor": "yes", "note": "ON 12/24 AND 12/31, THIS BOX MAY BE COLLECTED AS EARLY AS 12 NOON.", "nsi_id": "unitedstatespostalservice-a77078", "operator": "United States Postal Service", "operator:short": "USPS", "operator:type": "public", "operator:wikidata": "Q668687", "ref": "4370100149"}, "type": "Feature"}
{"geometry": {"coordinates": [-82.0155659, 39.949618], "type": "Point"}, "id": "rjbco6ZR9XZ4Rt8vy8l5UxC5ets=", "properties": {"@source_uri": "https://tools.usps.com/UspsToolsRestServices/rest/POLocator/findLocations", "@spider": "usps_collection_boxes", "addr:city": "ZANESVILLE", "addr:country": "US", "addr:postcode": "43701", "addr:state": "OH", "addr:street_address": "900 MCINTIRE AVE", "amenity": "post_box", "collection_times": "Mo-Fr 17:00; Sa 16:00", "indoor": "yes", "note": "ON 12/24 AND 12/31, THIS BOX MAY BE COLLECTED AS EARLY AS 12 NOON.", "nsi_id": "unitedstatespostalservice-a77078", "operator": "United States Postal Service", "operator:short": "USPS", "operator:type": "public", "operator:wikidata": "Q668687", "ref": "4370100150"}, "type": "Feature"}
{"geometry": {"coordinates": [-82.021451, 39.982428], "type": "Point"}, "id": "qErpMftcHudtmuNptI48uAIdz6Q=", "properties": {"@source_uri": "https://tools.usps.com/UspsToolsRestServices/rest/POLocator/findLocations", "@spider": "usps_collection_boxes", "addr:city": "ZANESVILLE", "addr:country": "US", "addr:postcode": "43701", "addr:state": "OH", "addr:street_address": "3387 MAPLE AVE", "amenity": "post_box", "collection_times": "Mo-Sa 09:00", "nsi_id": "unitedstatespostalservice-a77078", "operator": "United States Postal Service", "operator:short": "USPS", "operator:type": "public", "operator:wikidata": "Q668687", "ref": "4370100152"}, "type": "Feature"}
{"geometry": {"coordinates": [-82.0218924, 39.987674], "type": "Point"}, "id": "oyrS0Es3q9wAlr2ATfrvtRl8pSg=", "properties": {"@source_uri": "https://tools.usps.com/UspsToolsRestServices/rest/POLocator/findLocations", "@spider": "usps_collection_boxes", "addr:city": "ZANESVILLE", "addr:country": "US", "addr:postcode": "43701", "addr:state": "OH", "addr:street_address": "3546 MAPLE AVE", "amenity": "post_box", "collection_times": "Mo-Sa 09:30", "nsi_id": "unitedstatespostalservice-a77078", "operator": "United States Postal Service", "operator:short": "USPS", "operator:type": "public", "operator:wikidata": "Q668687", "ref": "4370100155"}, "type": "Feature"}
{"geometry": {"coordinates": [-82.0064399, 39.940918], "type": "Point"}, "id": "3U8DwELLN24Hyxk2FgDBAirK2YE=", "properties": {"@source_uri": "https://tools.usps.com/UspsToolsRestServices/rest/POLocator/findLocations", "@spider": "usps_collection_boxes", "addr:city": "ZANESVILLE", "addr:country": "US", "addr:postcode": "43701", "addr:state": "OH", "addr:street_address": "22 N 5TH ST", "amenity": "post_box", "collection_times": "Mo-Sa 16:30", "note": "ON 12/24 AND 12/31, THIS BOX MAY BE COLLECTED AS EARLY AS 12 NOON.", "nsi_id": "unitedstatespostalservice-a77078", "operator": "United States Postal Service", "operator:short": "USPS", "operator:type": "public", "operator:wikidata": "Q668687", "ref": "4370100157"}, "type": "Feature"}
{"geometry": {"coordinates": [-81.997600528, 39.949712306], "type": "Point"}, "id": "_BmDhu1ag1mbxehCgT5dzllKV-8=", "properties": {"@source_uri": "https://tools.usps.com/UspsToolsRestServices/rest/POLocator/findLocations", "@spider": "usps_collection_boxes", "addr:city": "ZANESVILLE", "addr:country": "US", "addr:postcode": "43701", "addr:state": "OH", "addr:street_address": "1035 ZANE ST", "amenity": "post_box", "collection_times": "Mo-Fr 17:00; Sa 12:00", "indoor": "yes", "note": "ON 12/24 AND 12/31, THIS BOX MAY BE COLLECTED AS EARLY AS 12 NOON.", "nsi_id": "unitedstatespostalservice-a77078", "operator": "United States Postal Service", "operator:short": "USPS", "operator:type": "public", "operator:wikidata": "Q668687", "ref": "4370100158"}, "type": "Feature"}
{"geometry": {"coordinates": [-81.997600528, 39.949712306], "type": "Point"}, "id": "7bq5xCrmfQ3XYZ_LIHkEx35lnsU=", "properties": {"@source_uri": "https://tools.usps.com/UspsToolsRestServices/rest/POLocator/findLocations", "@spider": "usps_collection_boxes", "addr:city": "ZANESVILLE", "addr:country": "US", "addr:postcode": "43701", "addr:state": "OH", "addr:street_address": "1035 ZANE ST", "amenity": "post_box", "collection_times": "Mo-Fr 17:00; Sa 12:00", "indoor": "yes", "note": "ON 12/24 AND 12/31, THIS BOX MAY BE COLLECTED AS EARLY AS 12 NOON.", "nsi_id": "unitedstatespostalservice-a77078", "operator": "United States Postal Service", "operator:short": "USPS", "operator:type": "public", "operator:wikidata": "Q668687", "ref": "4370100166"}, "type": "Feature"}
{"geometry": {"coordinates": [-81.57389512, 39.832204348], "type": "Point"}, "id": "a3dwOi3spJCZvktjZ3PsXZ_8xQg=", "properties": {"@source_uri": "https://tools.usps.com/UspsToolsRestServices/rest/POLocator/findLocations", "@spider": "usps_collection_boxes", "addr:city": "AVA", "addr:country": "US", "addr:postcode": "43711", "addr:state": "OH", "addr:street_address": "50614 STATE ROUTE 821", "amenity": "post_box", "collection_times": "Mo-Fr 10:30; Sa 09:45", "nsi_id": "unitedstatespostalservice-a77078", "operator": "United States Postal Service", "operator:short": "USPS", "operator:type": "public", "operator:wikidata": "Q668687", "ref": "4371100000"}, "type": "Feature"}
{"geometry": {"coordinates": [-81.57389512, 39.832204348], "type": "Point"}, "id": "sYLVHRjZonbkBjHoYre9M9sfNbk=", "properties": {"@source_uri": "https://tools.usps.com/UspsToolsRestServices/rest/POLocator/findLocations", "@spider": "usps_collection_boxes", "addr:city": "AVA", "addr:country": "US", "addr:postcode": "43711", "addr:state": "OH", "addr:street_address": "50614 STATE ROUTE 821", "amenity": "post_box", "collection_times": "Mo-Fr 10:30; Sa 09:45", "indoor": "yes", "nsi_id": "unitedstatespostalservice-a77078", "operator": "United States Postal Service", "operator:short": "USPS", "operator:type": "public", "operator:wikidata": "Q668687", "ref": "4371100001"}, "type": "Feature"}
{"geometry": {"coordinates": [-81.57389512, 39.832204348], "type": "Point"}, "id": "EJSSQkMbXT4jzp6sBlgGe3Cj0N8=", "properties": {"@source_uri": "https://tools.usps.com/UspsToolsRestServices/rest/POLocator/findLocations", "@spider": "usps_collection_boxes", "addr:city": "AVA", "addr:country": "US", "addr:postcode": "43711", "addr:state": "OH", "addr:street_address": "50614 STATE ROUTE 821", "amenity": "post_box", "collection_times": "Mo-Sa 11:00", "indoor": "yes", "nsi_id": "unitedstatespostalservice-a77078", "operator": "United States Postal Service", "operator:short": "USPS", "operator:type": "public", "operator:wikidata": "Q668687", "ref": "4371100003"}, "type": "Feature"}
{"geometry": {"coordinates": [-81.176599252, 39.988807036], "type": "Point"}, "id": "iaBxKl__K45Id7qC4HrPJ0WjU7o=", "properties": {"@source_uri": "https://tools.usps.com/UspsToolsRestServices/rest/POLocator/findLocations", "@spider": "usps_collection_boxes", "addr:city": "BARNESVILLE", "addr:country": "US", "addr:postcode": "43713", "addr:state": "OH", "addr:street_address": "116 E CHURCH ST", "amenity": "post_box", "collection_times": "Mo-Fr 16:45; Sa 12:00", "note": "ON 12/24 AND 12/31, THIS BOX MAY BE COLLECTED AS EARLY AS 12 NOON.", "nsi_id": "unitedstatespostalservice-a77078", "operator": "United States Postal Service", "operator:short": "USPS", "operator:type": "public", "operator:wikidata": "Q668687", "ref": "4371300000"}, "type": "Feature"}
{"geometry": {"coordinates": [-81.1892392, 39.99311], "type": "Point"}, "id": "FiHKIiexIsbGWh2n3-45BR7sP6c=", "properties": {"@source_uri": "https://tools.usps.com/UspsToolsRestServices/rest/POLocator/findLocations", "@spider": "usps_collection_boxes", "addr:city": "BARNESVILLE", "addr:country": "US", "addr:postcode": "43713", "addr:state": "OH", "addr:street_address": "639 W MAIN ST", "amenity": "post_box", "collection_times": "Mo-Sa 10:15", "nsi_id": "unitedstatespostalservice-a77078", "operator": "United States Postal Service", "operator:short": "USPS", "operator:type": "public", "operator:wikidata": "Q668687", "ref": "4371300010"}, "type": "Feature"}
{"geometry": {"coordinates": [-81.1750361, 39.987286], "type": "Point"}, "id": "3ZkR-DQkOmQEB-ckcVhtzJs8ndk=", "properties": {"@source_uri": "https://tools.usps.com/UspsToolsRestServices/rest/POLocator/findLocations", "@spider": "usps_collection_boxes", "addr:city": "BARNESVILLE", "addr:country": "US", "addr:postcode": "43713", "addr:state": "OH", "addr:street_address": "204 E MAIN ST", "amenity": "post_box", "collection_times": "Mo-Sa 10:30", "nsi_id": "unitedstatespostalservice-a77078", "operator": "United States Postal Service", "operator:short": "USPS", "operator:type": "public", "operator:wikidata": "Q668687", "ref": "4371300011"}, "type": "Feature"}
{"geometry": {"coordinates": [-81.176599252, 39.988807036], "type": "Point"}, "id": "Y2F89n9jiTV9eaRpmk2N0-2xwPA=", "properties": {"@source_uri": "https://tools.usps.com/UspsToolsRestServices/rest/POLocator/findLocations", "@spider": "usps_collection_boxes", "addr:city": "BARNESVILLE", "addr:country": "US", "addr:postcode": "43713", "addr:state": "OH", "addr:street_address": "116 E CHURCH ST", "amenity": "post_box", "collection_times": "Mo-Fr 16:45; Sa 12:00", "indoor": "yes", "note": "ON 12/24 AND 12/31, THIS BOX MAY BE COLLECTED AS EARLY AS 12 NOON.", "nsi_id": "unitedstatespostalservice-a77078", "operator": "United States Postal Service", "operator:short": "USPS", "operator:type": "public", "operator:wikidata": "Q668687", "ref": "4371300017"}, "type": "Feature"}
{"geometry": {"coordinates": [-81.176599252, 39.988807036], "type": "Point"}, "id": "Rj5qCc1u5evau-gBdriLEWc4xS4=", "properties": {"@source_uri": "https://tools.usps.com/UspsToolsRestServices/rest/POLocator/findLocations", "@spider": "usps_collection_boxes", "addr:city": "BARNESVILLE", "addr:country": "US", "addr:postcode": "43713", "addr:state": "OH", "addr:street_address": "116 E CHURCH ST", "amenity": "post_box", "collection_times": "Mo-Fr 16:30; Sa 12:00", "indoor": "yes", "note": "ON 12/24 AND 12/31, THIS BOX MAY BE COLLECTED AS EARLY AS 12 NOON.", "nsi_id": "unitedstatespostalservice-a77078", "operator": "United States Postal Service", "operator:short": "USPS", "operator:type": "public", "operator:wikidata": "Q668687", "ref": "4371300020"}, "type": "Feature"}
{"geometry": {"coordinates": [-81.037049527, 39.848567468], "type": "Point"}, "id": "Z6rDklFUsCymiCGf9cw-b4ZCSI0=", "properties": {"@source_uri": "https://tools.usps.com/UspsToolsRestServices/rest/POLocator/findLocations", "@spider": "usps_collection_boxes", "addr:city": "BEALLSVILLE", "addr:country": "US", "addr:postcode": "43716", "addr:state": "OH", "addr:street_address": "52731 OHIO AVE", "amenity": "post_box", "collection_times": "Mo-Fr 14:30; Sa 10:15", "note": "ON 12/24 AND 12/31, THIS BOX MAY BE COLLECTED AS EARLY AS 12 NOON.", "nsi_id": "unitedstatespostalservice-a77078", "operator": "United States Postal Service", "operator:short": "USPS", "operator:type": "public", "operator:wikidata": "Q668687", "ref": "4371600000"}, "type": "Feature"}
{"geometry": {"coordinates": [-81.037049527, 39.848567468], "type": "Point"}, "id": "hpDsh0RWM9i1Jfb2TJatwB247bo=", "properties": {"@source_uri": "https://tools.usps.com/UspsToolsRestServices/rest/POLocator/findLocations", "@spider": "usps_collection_boxes", "addr:city": "BEALLSVILLE", "addr:country": "US", "addr:postcode": "43716", "addr:state": "OH", "addr:street_address": "52731 OHIO AVE", "amenity": "post_box", "collection_times": "Mo-Fr 14:30; Sa 10:15", "indoor": "yes", "note": "ON 12/24 AND 12/31, THIS BOX MAY BE COLLECTED AS EARLY AS 12 NOON.", "nsi_id": "unitedstatespostalservice-a77078", "operator": "United States Postal Service", "operator:short": "USPS", "operator:type": "public", "operator:wikidata": "Q668687", "ref": "4371600001"}, "type": "Feature"}
{"geometry": {"coordinates": [-81.037049527, 39.848567468], "type": "Point"}, "id": "s8j2w_zHdBINMn1qCy-5n0jDiho=", "properties": {"@source_uri": "https://tools.usps.com/UspsToolsRestServices/rest/POLocator/findLocations", "@spider": "usps_collection_boxes", "addr:city": "BEALLSVILLE", "addr:country": "US", "addr:postcode": "43716", "addr:state": "OH", "addr:street_address": "52731 OHIO AVE", "amenity": "post_box", "collection_times": "Mo-Fr 14:30; Sa 11:00", "indoor": "yes", "note": "ON 12/24 AND 12/31, THIS BOX MAY BE COLLECTED AS EARLY AS 12 NOON.", "nsi_id": "unitedstatespostalservice-a77078", "operator": "United States Postal Service", "operator:short": "USPS", "operator:type": "public", "operator:wikidata": "Q668687", "ref": "4371600005"}, "type": "Feature"}
{"geometry": {"coordinates": [-81.551319507, 39.785272125], "type": "Point"}, "id": "_sekjpvrSwx7gDFDAZfuTvUjxZE=", "properties": {"@source_uri": "https://tools.usps.com/UspsToolsRestServices/rest/POLocator/findLocations", "@spider": "usps_collection_boxes", "addr:city": "BELLE VALLEY", "addr:country": "US", "addr:postcode": "43717", "addr:state": "OH", "addr:street_address": "200 LIBERTY ST", "amenity": "post_box", "collection_times": "Mo-Fr 11:30; Sa 09:45", "nsi_id": "unitedstatespostalservice-a77078", "operator": "United States Postal Service", "operator:short": "USPS", "operator:type": "public", "operator:wikidata": "Q668687", "ref": "4371700000"}, "type": "Feature"}
{"geometry": {"coordinates": [-81.551319507, 39.785272125], "type": "Point"}, "id": "eiZW_fZZs_2FBfwlX1EUK2zJxA4=", "properties": {"@source_uri": "https://tools.usps.com/UspsToolsRestServices/rest/POLocator/findLocations", "@spider": "usps_collection_boxes", "addr:city": "BELLE VALLEY", "addr:country": "US", "addr:postcode": "43717", "addr:state": "OH", "addr:street_address": "200 LIBERTY ST", "amenity": "post_box", "collection_times": "Mo-Fr 11:30; Sa 09:45", "indoor": "yes", "nsi_id": "unitedstatespostalservice-a77078", "operator": "United States Postal Service", "operator:short": "USPS", "operator:type": "public", "operator:wikidata": "Q668687", "ref": "4371700001"}, "type": "Feature"}
{"geometry": {"coordinates": [-81.551319507, 39.785272125], "type": "Point"}, "id": "D6wSkOVIwv_Gl9yTw5vVN8B7-a4=", "properties": {"@source_uri": "https://tools.usps.com/UspsToolsRestServices/rest/POLocator/findLocations", "@spider": "usps_collection_boxes", "addr:city": "BELLE VALLEY", "addr:country": "US", "addr:postcode": "43717", "addr:state": "OH", "addr:street_address": "200 LIBERTY ST", "amenity": "post_box", "collection_times": "Mo-Fr 12:00; Sa 10:15", "indoor": "yes", "nsi_id": "unitedstatespostalservice-a77078", "operator": "United States Postal Service", "operator:short": "USPS", "operator:type": "public", "operator:wikidata": "Q668687", "ref": "4371700003"}, "type": "Feature"}
{"geometry": {"coordinates": [-81.041956214, 40.029046682], "type": "Point"}, "id": "dN66hEAF9y7t21ktRIA7kh3uKbA=", "properties": {"@source_uri": "https://tools.usps.com/UspsToolsRestServices/rest/POLocator/findLocations", "@spider": "usps_collection_boxes", "addr:city": "BELMONT", "addr:country": "US", "addr:postcode": "43718", "addr:state": "OH", "addr:street_address": "128 W MAIN ST", "amenity": "post_box", "collection_times": "Mo-Fr 16:00; Sa 10:45", "note": "ON 12/24 AND 12/31, THIS BOX MAY BE COLLECTED AS EARLY AS 12 NOON.", "nsi_id": "unitedstatespostalservice-a77078", "operator": "United States Postal Service", "operator:short": "USPS", "operator:type": "public", "operator:wikidata": "Q668687", "ref": "4371800000"}, "type": "Feature"}
{"geometry": {"coordinates": [-81.041956214, 40.029046682], "type": "Point"}, "id": "5zLQty-1ERILf4hjn9RcRIu40AU=", "properties": {"@source_uri": "https://tools.usps.com/UspsToolsRestServices/rest/POLocator/findLocations", "@spider": "usps_collection_boxes", "addr:city": "BELMONT", "addr:country": "US", "addr:postcode": "43718", "addr:state": "OH", "addr:street_address": "128 W MAIN ST", "amenity": "post_box", "collection_times": "Mo-Fr 16:00; Sa 10:45", "indoor": "yes", "note": "ON 12/24 AND 12/31, THIS BOX MAY BE COLLECTED AS EARLY AS 12 NOON.", "nsi_id": "unitedstatespostalservice-a77078", "operator": "United States Postal Service", "operator:short": "USPS", "operator:type": "public", "operator:wikidata": "Q668687", "ref": "4371800001"}, "type": "Feature"}
{"geometry": {"coordinates": [-81.041956214, 40.029046682], "type": "Point"}, "id": "oNGDbrShzssmnsrFpSgyaUF4tII=", "properties": {"@source_uri": "https://tools.usps.com/UspsToolsRestServices/rest/POLocator/findLocations", "@spider": "usps_collection_boxes", "addr:city": "BELMONT", "addr:country": "US", "addr:postcode": "43718", "addr:state": "OH", "addr:street_address": "128 W MAIN ST", "amenity": "post_box", "collection_times": "Mo-Fr 16:30; Sa 11:00", "indoor": "yes", "note": "ON 12/24 AND 12/31, THIS BOX MAY BE COLLECTED AS EARLY AS 12 NOON.", "nsi_id": "unitedstatespostalservice-a77078", "operator": "United States Postal Service", "operator:short": "USPS", "operator:type": "public", "operator:wikidata": "Q668687", "ref": "4371800006"}, "type": "Feature"}
{"geometry": {"coordinates": [-81.072356441, 40.015791794], "type": "Point"}, "id": "NFovc0-gbmpMtB76fqj0hBYrrjg=", "properties": {"@source_uri": "https://tools.usps.com/UspsToolsRestServices/rest/POLocator/findLocations", "@spider": "usps_collection_boxes", "addr:city": "BETHESDA", "addr:country": "US", "addr:postcode": "43719", "addr:state": "OH", "addr:street_address": "111 S MAIN ST", "amenity": "post_box", "collection_times": "Mo-Fr 16:15; Sa 10:45", "note": "ON 12/24 AND 12/31, THIS BOX MAY BE COLLECTED AS EARLY AS 12 NOON.", "nsi_id": "unitedstatespostalservice-a77078", "operator": "United States Postal Service", "operator:short": "USPS", "operator:type": "public", "operator:wikidata": "Q668687", "ref": "4371900000"}, "type": "Feature"}
{"geometry": {"coordinates": [-81.0730177, 40.022509], "type": "Point"}, "id": "k1lqEXYM4kaioFtTaiqTLcITQ8w=", "properties": {"@source_uri": "https://tools.usps.com/UspsToolsRestServices/rest/POLocator/findLocations", "@spider": "usps_collection_boxes", "addr:city": "BETHESDA", "addr:country": "US", "addr:postcode": "43719", "addr:state": "OH", "addr:street_address": "200 BELMONT RD", "amenity": "post_box", "collection_times": "Mo-Sa 09:00", "nsi_id": "unitedstatespostalservice-a77078", "operator": "United States Postal Service", "operator:short": "USPS", "operator:type": "public", "operator:wikidata": "Q668687", "ref": "4371900002"}, "type": "Feature"}
{"geometry": {"coordinates": [-81.072356441, 40.015791794], "type": "Point"}, "id": "zZurbSR-JmlTC8N1_GMq-Crdvgc=", "properties": {"@source_uri": "https://tools.usps.com/UspsToolsRestServices/rest/POLocator/findLocations", "@spider": "usps_collection_boxes", "addr:city": "BETHESDA", "addr:country": "US", "addr:postcode": "43719", "addr:state": "OH", "addr:street_address": "111 S MAIN ST", "amenity": "post_box", "collection_times": "Mo-Fr 16:15; Sa 10:45", "indoor": "yes", "note": "ON 12/24 AND 12/31, THIS BOX MAY BE COLLECTED AS EARLY AS 12 NOON.", "nsi_id": "unitedstatespostalservice-a77078", "operator": "United States Postal Service", "operator:short": "USPS", "operator:type": "public", "operator:wikidata": "Q668687", "ref": "4371900003"}, "type": "Feature"}
{"geometry": {"coordinates": [-81.072356441, 40.015791794], "type": "Point"}, "id": "eFlcqsO1SizSE8hTpWV12iY4X-o=", "properties": {"@source_uri": "https://tools.usps.com/UspsToolsRestServices/rest/POLocator/findLocations", "@spider": "usps_collection_boxes", "addr:city": "BETHESDA", "addr:country": "US", "addr:postcode": "43719", "addr:state": "OH", "addr:street_address": "111 S MAIN ST", "amenity": "post_box", "collection_times": "Mo-Fr 16:00; Sa 11:00", "indoor": "yes", "note": "ON 12/24 AND 12/31, THIS BOX MAY BE COLLECTED AS EARLY AS 12 NOON.", "nsi_id": "unitedstatespostalservice-a77078", "operator": "United States Postal Service", "operator:short": "USPS", "operator:type": "public", "operator:wikidata": "Q668687", "ref": "4371900006"}, "type": "Feature"}
{"geometry": {"coordinates": [-81.891942744, 39.80297369], "type": "Point"}, "id": "mL-aBRs5f3j7XUvzEWEeLlq-6Gg=", "properties": {"@source_uri": "https://tools.usps.com/UspsToolsRestServices/rest/POLocator/findLocations", "@spider": "usps_collection_boxes", "addr:city": "BLUE ROCK", "addr:country": "US", "addr:postcode": "43720", "addr:state": "OH", "addr:street_address": "8780 S RIVER RD", "amenity": "post_box", "collection_times": "Mo-Fr 15:30; Sa 13:00", "note": "ON 12/24 AND 12/31, THIS BOX MAY BE COLLECTED AS EARLY AS 12 NOON.", "nsi_id": "unitedstatespostalservice-a77078", "operator": "United States Postal Service", "operator:short": "USPS", "operator:type": "public", "operator:wikidata": "Q668687", "ref": "4372000000"}, "type": "Feature"}
{"geometry": {"coordinates": [-81.891942744, 39.80297369], "type": "Point"}, "id": "zi5aLCuwBtfawUx7MCo7tNq1s2Q=", "properties": {"@source_uri": "https://tools.usps.com/UspsToolsRestServices/rest/POLocator/findLocations", "@spider": "usps_collection_boxes", "addr:city": "BLUE ROCK", "addr:country": "US", "addr:postcode": "43720", "addr:state": "OH", "addr:street_address": "8780 S RIVER RD", "amenity": "post_box", "collection_times": "Mo-Fr 15:30; Sa 13:00", "indoor": "yes", "note": "ON 12/24 AND 12/31, THIS BOX MAY BE COLLECTED AS EARLY AS 12 NOON.", "nsi_id": "unitedstatespostalservice-a77078", "operator": "United States Postal Service", "operator:short": "USPS", "operator:type": "public", "operator:wikidata": "Q668687", "ref": "4372000001"}, "type": "Feature"}
{"geometry": {"coordinates": [-81.891942744, 39.80297369], "type": "Point"}, "id": "RoM4DvgNTXbfK62zgWXL4ZqxhPg=", "properties": {"@source_uri": "https://tools.usps.com/UspsToolsRestServices/rest/POLocator/findLocations", "@spider": "usps_collection_boxes", "addr:city": "BLUE ROCK", "addr:country": "US", "addr:postcode": "43720", "addr:state": "OH", "addr:street_address": "8780 S RIVER RD", "amenity": "post_box", "collection_times": "Mo-Fr 16:00; Sa 13:15", "indoor": "yes", "note": "ON 12/24 AND 12/31, THIS BOX MAY BE COLLECTED AS EARLY AS 12 NOON.", "nsi_id": "unitedstatespostalservice-a77078", "operator": "United States Postal Service", "operator:short": "USPS", "operator:type": "public", "operator:wikidata": "Q668687", "ref": "4372000003"}, "type": "Feature"}
{"geometry": {"coordinates": [-81.520662007, 39.914501374], "type": "Point"}, "id": "PBnFtPEsCkhwmcvnvZs5jkMNq2Q=", "properties": {"@source_uri": "https://tools.usps.com/UspsToolsRestServices/rest/POLocator/findLocations", "@spider": "usps_collection_boxes", "addr:city": "BUFFALO", "addr:country": "US", "addr:postcode": "43722", "addr:state": "OH", "addr:street_address": "11985 CLAY PIKE RD", "amenity": "post_box", "collection_times": "Mo-Fr 15:45; Sa 10:15", "note": "ON 12/24 AND 12/31, THIS BOX MAY BE COLLECTED AS EARLY AS 12 NOON.", "nsi_id": "unitedstatespostalservice-a77078", "operator": "United States Postal Service", "operator:short": "USPS", "operator:type": "public", "operator:wikidata": "Q668687", "ref": "4372200000"}, "type": "Feature"}
{"geometry": {"coordinates": [-81.520662007, 39.914501374], "type": "Point"}, "id": "6KiubQmKCQN3UyfSKhesOWZjVYk=", "properties": {"@source_uri": "https://tools.usps.com/UspsToolsRestServices/rest/POLocator/findLocations", "@spider": "usps_collection_boxes", "addr:city": "BUFFALO", "addr:country": "US", "addr:postcode": "43722", "addr:state": "OH", "addr:street_address": "11985 CLAY PIKE RD", "amenity": "post_box", "collection_times": "Mo-Fr 15:45; Sa 10:15", "indoor": "yes", "note": "ON 12/24 AND 12/31, THIS BOX MAY BE COLLECTED AS EARLY AS 12 NOON.", "nsi_id": "unitedstatespostalservice-a77078", "operator": "United States Postal Service", "operator:short": "USPS", "operator:type": "public", "operator:wikidata": "Q668687", "ref": "4372200001"}, "type": "Feature"}
{"geometry": {"coordinates": [-81.520662007, 39.914501374], "type": "Point"}, "id": "VM8rn48qxmK5u0Sk4Y5zmjIPlGk=", "properties": {"@source_uri": "https://tools.usps.com/UspsToolsRestServices/rest/POLocator/findLocations", "@spider": "usps_collection_boxes", "addr:city": "BUFFALO", "addr:country": "US", "addr:postcode": "43722", "addr:state": "OH", "addr:street_address": "11985 CLAY PIKE RD", "amenity": "post_box", "collection_times": "Mo-Fr 16:00; Sa 10:30", "indoor": "yes", "note": "ON 12/24 AND 12/31, THIS BOX MAY BE COLLECTED AS EARLY AS 12 NOON.", "nsi_id": "unitedstatespostalservice-a77078", "operator": "United States Postal Service", "operator:short": "USPS", "operator:type": "public", "operator:wikidata": "Q668687", "ref": "4372200003"}, "type": "Feature"}
{"geometry": {"coordinates": [-81.538104305, 39.968219517], "type": "Point"}, "id": "WuoA325zQ-bcB2cYgPnyVNYUPeQ=", "properties": {"@source_uri": "https://tools.usps.com/UspsToolsRestServices/rest/POLocator/findLocations", "@spider": "usps_collection_boxes", "addr:city": "BYESVILLE", "addr:country": "US", "addr:postcode": "43723", "addr:state": "OH", "addr:street_address": "209 WATSON AVE", "amenity": "post_box", "collection_times": "Mo-Fr 16:00; Sa 12:00", "note": "ON 12/24 AND 12/31, THIS BOX MAY BE COLLECTED AS EARLY AS 12 NOON.", "nsi_id": "unitedstatespostalservice-a77078", "operator": "United States Postal Service", "operator:short": "USPS", "operator:type": "public", "operator:wikidata": "Q668687", "ref": "4372300002"}, "type": "Feature"}
{"geometry": {"coordinates": [-81.538104305, 39.968219517], "type": "Point"}, "id": "ZXYI6PNjIflI4_fuQjYRUp7MNxw=", "properties": {"@source_uri": "https://tools.usps.com/UspsToolsRestServices/rest/POLocator/findLocations", "@spider": "usps_collection_boxes", "addr:city": "BYESVILLE", "addr:country": "US", "addr:postcode": "43723", "addr:state": "OH", "addr:street_address": "209 WATSON AVE", "amenity": "post_box", "collection_times": "Mo-Fr 16:15; Sa 12:00", "indoor": "yes", "note": "ON 12/24 AND 12/31, THIS BOX MAY BE COLLECTED AS EARLY AS 12 NOON.", "nsi_id": "unitedstatespostalservice-a77078", "operator": "United States Postal Service", "operator:short": "USPS", "operator:type": "public", "operator:wikidata": "Q668687", "ref": "4372300014"}, "type": "Feature"}
{"geometry": {"coordinates": [-81.538104305, 39.968219517], "type": "Point"}, "id": "K9pKDEbxWxHS0gV79Nanc7Gm2ko=", "properties": {"@source_uri": "https://tools.usps.com/UspsToolsRestServices/rest/POLocator/findLocations", "@spider": "usps_collection_boxes", "addr:city": "BYESVILLE", "addr:country": "US", "addr:postcode": "43723", "addr:state": "OH", "addr:street_address": "209 WATSON AVE", "amenity": "post_box", "collection_times": "Mo-Fr 16:15; Sa 12:00", "indoor": "yes", "note": "ON 12/24 AND 12/31, THIS BOX MAY BE COLLECTED AS EARLY AS 12 NOON.", "nsi_id": "unitedstatespostalservice-a77078", "operator": "United States Postal Service", "operator:short": "USPS", "operator:type": "public", "operator:wikidata": "Q668687", "ref": "4372300020"}, "type": "Feature"}
{"geometry": {"coordinates": [-81.516725685, 39.748725754], "type": "Point"}, "id": "zLkJ7p19tjMt9fHJ4ljT7qlk5Kw=", "properties": {"@source_uri": "https://tools.usps.com/UspsToolsRestServices/rest/POLocator/findLocations", "@spider": "usps_collection_boxes", "addr:city": "CALDWELL", "addr:country": "US", "addr:postcode": "43724", "addr:state": "OH", "addr:street_address": "601 WEST ST", "amenity": "post_box", "collection_times": "Mo-Fr 16:00; Sa 12:00", "note": "ON 12/24 AND 12/31, THIS BOX MAY BE COLLECTED AS EARLY AS 12 NOON.", "nsi_id": "unitedstatespostalservice-a77078", "operator": "United States Postal Service", "operator:short": "USPS", "operator:type": "public", "operator:wikidata": "Q668687", "ref": "4372400002"}, "type": "Feature"}
{"geometry": {"coordinates": [-81.516184, 39.746835], "type": "Point"}, "id": "MXvP6Lkhr81jQUmJ2w1MhtHzMKc=", "properties": {"@source_uri": "https://tools.usps.com/UspsToolsRestServices/rest/POLocator/findLocations", "@spider": "usps_collection_boxes", "addr:city": "CALDWELL", "addr:country": "US", "addr:postcode": "43724", "addr:state": "OH", "addr:street_address": "398 MAIN ST", "amenity": "post_box", "collection_times": "Mo-Sa 09:00", "nsi_id": "unitedstatespostalservice-a77078", "operator": "United States Postal Service", "operator:short": "USPS", "operator:type": "public", "operator:wikidata": "Q668687", "ref": "4372400009"}, "type": "Feature"}
{"geometry": {"coordinates": [-81.516725685, 39.748725754], "type": "Point"}, "id": "JvZYp6NbhFxRsabseO15-QMW_L0=", "properties": {"@source_uri": "https://tools.usps.com/UspsToolsRestServices/rest/POLocator/findLocations", "@spider": "usps_collection_boxes", "addr:city": "CALDWELL", "addr:country": "US", "addr:postcode": "43724", "addr:state": "OH", "addr:street_address": "601 WEST ST", "amenity": "post_box", "collection_times": "Mo-Fr 16:00; Sa 12:00", "indoor": "yes", "note": "ON 12/24 AND 12/31, THIS BOX MAY BE COLLECTED AS EARLY AS 12 NOON.", "nsi_id": "unitedstatespostalservice-a77078", "operator": "United States Postal Service", "operator:short": "USPS", "operator:type": "public", "operator:wikidata": "Q668687", "ref": "4372400013"}, "type": "Feature"}
{"geometry": {"coordinates": [-81.516725685, 39.748725754], "type": "Point"}, "id": "HOyRtlRp3AvSeR4FOgn28IFU9YA=", "properties": {"@source_uri": "https://tools.usps.com/UspsToolsRestServices/rest/POLocator/findLocations", "@spider": "usps_collection_boxes", "addr:city": "CALDWELL", "addr:country": "US", "addr:postcode": "43724", "addr:state": "OH", "addr:street_address": "601 WEST ST", "amenity": "post_box", "collection_times": "Mo-Fr 16:00; Sa 12:00", "indoor": "yes", "note": "ON 12/24 AND 12/31, THIS BOX MAY BE COLLECTED AS EARLY AS 12 NOON.", "nsi_id": "unitedstatespostalservice-a77078", "operator": "United States Postal Service", "operator:short": "USPS", "operator:type": "public", "operator:wikidata": "Q668687", "ref": "4372400023"}, "type": "Feature"}
{"geometry": {"coordinates": [-81.5972149, 40.02326], "type": "Point"}, "id": "1QTzTmGx_jY5vyXuYDX2AM-CHTQ=", "properties": {"@source_uri": "https://tools.usps.com/UspsToolsRestServices/rest/POLocator/findLocations", "@spider": "usps_collection_boxes", "addr:city": "CAMBRIDGE", "addr:country": "US", "addr:postcode": "43725", "addr:state": "OH", "addr:street_address": "224 DEWEY AVE", "amenity": "post_box", "collection_times": "Mo-Sa 10:00", "nsi_id": "unitedstatespostalservice-a77078", "operator": "United States Postal Service", "operator:short": "USPS", "operator:type": "public", "operator:wikidata": "Q668687", "ref": "4372500001"}, "type": "Feature"}
{"geometry": {"coordinates": [-81.587061503, 40.024662518], "type": "Point"}, "id": "dAvLMKjmmyn82lqCZZoqmsPjahQ=", "properties": {"@source_uri": "https://tools.usps.com/UspsToolsRestServices/rest/POLocator/findLocations", "@spider": "usps_collection_boxes", "addr:city": "CAMBRIDGE", "addr:country": "US", "addr:postcode": "43725", "addr:state": "OH", "addr:street_address": "954 WHEELING AVE", "amenity": "post_box", "collection_times": "Mo-Fr 16:45; Sa 15:30", "note": "ON 12/24 AND 12/31, THIS BOX MAY BE COLLECTED AS EARLY AS 12 NOON.", "nsi_id": "unitedstatespostalservice-a77078", "operator": "United States Postal Service", "operator:short": "USPS", "operator:type": "public", "operator:wikidata": "Q668687", "ref": "4372500003"}, "type": "Feature"}
{"geometry": {"coordinates": [-81.5774754, 40.038185], "type": "Point"}, "id": "NoqNqhyR4xZq8pfpcKQ2M-TPUj4=", "properties": {"@source_uri": "https://tools.usps.com/UspsToolsRestServices/rest/POLocator/findLocations", "@spider": "usps_collection_boxes", "addr:city": "CAMBRIDGE", "addr:country": "US", "addr:postcode": "43725", "addr:state": "OH", "addr:street_address": "1205 CLARK ST", "amenity": "post_box", "collection_times": "Mo-Sa 09:00", "nsi_id": "unitedstatespostalservice-a77078", "operator": "United States Postal Service", "operator:short": "USPS", "operator:type": "public", "operator:wikidata": "Q668687", "ref": "4372500024"}, "type": "Feature"}
{"geometry": {"coordinates": [-81.5814808, 40.011034], "type": "Point"}, "id": "OrFd9gkb3bXreaKv-C0PXfkZNgs=", "properties": {"@source_uri": "https://tools.usps.com/UspsToolsRestServices/rest/POLocator/findLocations", "@spider": "usps_collection_boxes", "addr:city": "CAMBRIDGE", "addr:country": "US", "addr:postcode": "43725", "addr:state": "OH", "addr:street_address": "1225 WOODLAWN AVE", "amenity": "post_box", "collection_times": "Mo-Sa 10:00", "nsi_id": "unitedstatespostalservice-a77078", "operator": "United States Postal Service", "operator:short": "USPS", "operator:type": "public", "operator:wikidata": "Q668687", "ref": "4372500026"}, "type": "Feature"}
{"geometry": {"coordinates": [-81.5965495, 40.0251], "type": "Point"}, "id": "VTyEQSowuiHjIR4W3vc8qNeC0HA=", "properties": {"@source_uri": "https://tools.usps.com/UspsToolsRestServices/rest/POLocator/findLocations", "@spider": "usps_collection_boxes", "addr:city": "CAMBRIDGE", "addr:country": "US", "addr:postcode": "43725", "addr:state": "OH", "addr:street_address": "407 WHEELING AVE", "amenity": "post_box", "collection_times": "Mo-Sa 09:00", "nsi_id": "unitedstatespostalservice-a77078", "operator": "United States Postal Service", "operator:short": "USPS", "operator:type": "public", "operator:wikidata": "Q668687", "ref": "4372500031"}, "type": "Feature"}
{"geometry": {"coordinates": [-81.5915914, 40.024761], "type": "Point"}, "id": "kJL9njc_BDfKyxQ7NA8KxoYNkGA=", "properties": {"@source_uri": "https://tools.usps.com/UspsToolsRestServices/rest/POLocator/findLocations", "@spider": "usps_collection_boxes", "addr:city": "CAMBRIDGE", "addr:country": "US", "addr:postcode": "43725", "addr:state": "OH", "addr:street_address": "700 WHEELING AVE", "amenity": "post_box", "collection_times": "Mo-Sa 09:00", "nsi_id": "unitedstatespostalservice-a77078", "operator": "United States Postal Service", "operator:short": "USPS", "operator:type": "public", "operator:wikidata": "Q668687", "ref": "4372500032"}, "type": "Feature"}
{"geometry": {"coordinates": [-81.587061503, 40.024662518], "type": "Point"}, "id": "SnFz7PQMZ8zWDazZUITCBauqwtc=", "properties": {"@source_uri": "https://tools.usps.com/UspsToolsRestServices/rest/POLocator/findLocations", "@spider": "usps_collection_boxes", "addr:city": "CAMBRIDGE", "addr:country": "US", "addr:postcode": "43725", "addr:state": "OH", "addr:street_address": "954 WHEELING AVE", "amenity": "post_box", "collection_times": "Mo-Fr 16:45; Sa 15:30", "indoor": "yes", "note": "ON 12/24 AND 12/31, THIS BOX MAY BE COLLECTED AS EARLY AS 12 NOON.", "nsi_id": "unitedstatespostalservice-a77078", "operator": "United States Postal Service", "operator:short": "USPS", "operator:type": "public", "operator:wikidata": "Q668687", "ref": "4372500039"}, "type": "Feature"}
{"geometry": {"coordinates": [-81.587061503, 40.024662518], "type": "Point"}, "id": "k9F6qZR8A5bwvyHjwp7vPSZJwTo=", "properties": {"@source_uri": "https://tools.usps.com/UspsToolsRestServices/rest/POLocator/findLocations", "@spider": "usps_collection_boxes", "addr:city": "CAMBRIDGE", "addr:country": "US", "addr:postcode": "43725", "addr:state": "OH", "addr:street_address": "954 WHEELING AVE", "amenity": "post_box", "collection_times": "Mo-Fr 16:45; Sa 15:30", "indoor": "yes", "note": "ON 12/24 AND 12/31, THIS BOX MAY BE COLLECTED AS EARLY AS 12 NOON.", "nsi_id": "unitedstatespostalservice-a77078", "operator": "United States Postal Service", "operator:short": "USPS", "operator:type": "public", "operator:wikidata": "Q668687", "ref": "4372500040"}, "type": "Feature"}
{"geometry": {"coordinates": [-81.5642872, 40.027065], "type": "Point"}, "id": "l4LxeC_uqYp1_12vEI8gGSoUdzs=", "properties": {"@source_uri": "https://tools.usps.com/UspsToolsRestServices/rest/POLocator/findLocations", "@spider": "usps_collection_boxes", "addr:city": "CAMBRIDGE", "addr:country": "US", "addr:postcode": "43725", "addr:state": "OH", "addr:street_address": "55 S 23RD ST", "amenity": "post_box", "collection_times": "Mo-Sa 09:00", "nsi_id": "unitedstatespostalservice-a77078", "operator": "United States Postal Service", "operator:short": "USPS", "operator:type": "public", "operator:wikidata": "Q668687", "ref": "4372500046"}, "type": "Feature"}
{"geometry": {"coordinates": [-81.5738771, 39.996153], "type": "Point"}, "id": "NMi_OB6LSKqaBXAOY7xviYbCbq0=", "properties": {"@source_uri": "https://tools.usps.com/UspsToolsRestServices/rest/POLocator/findLocations", "@spider": "usps_collection_boxes", "addr:city": "CAMBRIDGE", "addr:country": "US", "addr:postcode": "43725", "addr:state": "OH", "addr:street_address": "61600 SOUTHGATE RD", "amenity": "post_box", "collection_times": "Mo-Sa 09:00", "nsi_id": "unitedstatespostalservice-a77078", "operator": "United States Postal Service", "operator:short": "USPS", "operator:type": "public", "operator:wikidata": "Q668687", "ref": "4372500047"}, "type": "Feature"}
{"geometry": {"coordinates": [-81.5760074, 39.991647], "type": "Point"}, "id": "RTbF3cc4SLRjJuO-FYNoWedcbrw=", "properties": {"@source_uri": "https://tools.usps.com/UspsToolsRestServices/rest/POLocator/findLocations", "@spider": "usps_collection_boxes", "addr:city": "CAMBRIDGE", "addr:country": "US", "addr:postcode": "43725", "addr:state": "OH", "addr:street_address": "61279 SOUTHGATE RD", "amenity": "post_box", "collection_times": "Mo-Sa 09:00", "nsi_id": "unitedstatespostalservice-a77078", "operator": "United States Postal Service", "operator:short": "USPS", "operator:type": "public", "operator:wikidata": "Q668687", "ref": "4372500048"}, "type": "Feature"}
{"geometry": {"coordinates": [-81.5759183, 39.989872], "type": "Point"}, "id": "vl8-ukQAtFh5eQ1MYqqBij15Uqw=", "properties": {"@source_uri": "https://tools.usps.com/UspsToolsRestServices/rest/POLocator/findLocations", "@spider": "usps_collection_boxes", "addr:city": "CAMBRIDGE", "addr:country": "US", "addr:postcode": "43725", "addr:state": "OH", "addr:street_address": "61205 SOUTHGATE RD", "amenity": "post_box", "collection_times": "Mo-Sa 09:00", "nsi_id": "unitedstatespostalservice-a77078", "operator": "United States Postal Service", "operator:short": "USPS", "operator:type": "public", "operator:wikidata": "Q668687", "ref": "4372500050"}, "type": "Feature"}
{"geometry": {"coordinates": [-81.5897491, 40.024944], "type": "Point"}, "id": "m-q3S-OjUVkVK_KhxVvjtgYerek=", "properties": {"@source_uri": "https://tools.usps.com/UspsToolsRestServices/rest/POLocator/findLocations", "@spider": "usps_collection_boxes", "addr:city": "CAMBRIDGE", "addr:country": "US", "addr:postcode": "43725", "addr:state": "OH", "addr:street_address": "801 WHEELING AVE", "amenity": "post_box", "collection_times": "Mo-Sa 09:00", "nsi_id": "unitedstatespostalservice-a77078", "operator": "United States Postal Service", "operator:short": "USPS", "operator:type": "public", "operator:wikidata": "Q668687", "ref": "4372500052"}, "type": "Feature"}
{"geometry": {"coordinates": [-81.587061503, 40.024662518], "type": "Point"}, "id": "ZOA1l177CYDuRYhdB-XrhjsKUco=", "properties": {"@source_uri": "https://tools.usps.com/UspsToolsRestServices/rest/POLocator/findLocations", "@spider": "usps_collection_boxes", "addr:city": "CAMBRIDGE", "addr:country": "US", "addr:postcode": "43725", "addr:state": "OH", "addr:street_address": "954 WHEELING AVE", "amenity": "post_box", "collection_times": "Mo-Fr 17:30; Sa 13:00", "indoor": "yes", "note": "ON 12/24 AND 12/31, THIS BOX MAY BE COLLECTED AS EARLY AS 12 NOON.", "nsi_id": "unitedstatespostalservice-a77078", "operator": "United States Postal Service", "operator:short": "USPS", "operator:type": "public", "operator:wikidata": "Q668687", "ref": "4372500056"}, "type": "Feature"}
{"geometry": {"coordinates": [-81.828267214, 39.898625027], "type": "Point"}, "id": "eQNGEaMMY0h69YcZHgu4OEktJKE=", "properties": {"@source_uri": "https://tools.usps.com/UspsToolsRestServices/rest/POLocator/findLocations", "@spider": "usps_collection_boxes", "addr:city": "CHANDLERSVILLE", "addr:country": "US", "addr:postcode": "43727", "addr:state": "OH", "addr:street_address": "8875 CHANDLERSVILLE RD", "amenity": "post_box", "collection_times": "Mo-Fr 10:30; Sa 11:30", "nsi_id": "unitedstatespostalservice-a77078", "operator": "United States Postal Service", "operator:short": "USPS", "operator:type": "public", "operator:wikidata": "Q668687", "ref": "4372700000"}, "type": "Feature"}
{"geometry": {"coordinates": [-81.828267214, 39.898625027], "type": "Point"}, "id": "hMmIHBDQ9TVvM2pyRqzfOfbv8TI=", "properties": {"@source_uri": "https://tools.usps.com/UspsToolsRestServices/rest/POLocator/findLocations", "@spider": "usps_collection_boxes", "addr:city": "CHANDLERSVILLE", "addr:country": "US", "addr:postcode": "43727", "addr:state": "OH", "addr:street_address": "8875 CHANDLERSVILLE RD", "amenity": "post_box", "collection_times": "Mo-Fr 10:30; Sa 11:30", "indoor": "yes", "nsi_id": "unitedstatespostalservice-a77078", "operator": "United States Postal Service", "operator:short": "USPS", "operator:type": "public", "operator:wikidata": "Q668687", "ref": "4372700001"}, "type": "Feature"}
{"geometry": {"coordinates": [-81.828267214, 39.898625027], "type": "Point"}, "id": "MG7QvRiHlD09fK0nyOctoI4_GT8=", "properties": {"@source_uri": "https://tools.usps.com/UspsToolsRestServices/rest/POLocator/findLocations", "@spider": "usps_collection_boxes", "addr:city": "CHANDLERSVILLE", "addr:country": "US", "addr:postcode": "43727", "addr:state": "OH", "addr:street_address": "8875 CHANDLERSVILLE RD", "amenity": "post_box", "collection_times": "Mo-Fr 11:00; Sa 12:00", "indoor": "yes", "nsi_id": "unitedstatespostalservice-a77078", "operator": "United States Postal Service", "operator:short": "USPS", "operator:type": "public", "operator:wikidata": "Q668687", "ref": "4372700005"}, "type": "Feature"}
{"geometry": {"coordinates": [-81.865379767, 39.489953124], "type": "Point"}, "id": "7PG4k0KDwXXe6KtKTOaW9fUdZJQ=", "properties": {"@source_uri": "https://tools.usps.com/UspsToolsRestServices/rest/POLocator/findLocations", "@spider": "usps_collection_boxes", "addr:city": "CHESTERHILL", "addr:country": "US", "addr:postcode": "43728", "addr:state": "OH", "addr:street_address": "7402 MARION ST", "amenity": "post_box", "collection_times": "Mo-Fr 11:30; Sa 09:45", "nsi_id": "unitedstatespostalservice-a77078", "operator": "United States Postal Service", "operator:short": "USPS", "operator:type": "public", "operator:wikidata": "Q668687", "ref": "4372800000"}, "type": "Feature"}
{"geometry": {"coordinates": [-81.865379767, 39.489953124], "type": "Point"}, "id": "ceYCTiTuDiK0OGBnfrM8peHMojc=", "properties": {"@source_uri": "https://tools.usps.com/UspsToolsRestServices/rest/POLocator/findLocations", "@spider": "usps_collection_boxes", "addr:city": "CHESTERHILL", "addr:country": "US", "addr:postcode": "43728", "addr:state": "OH", "addr:street_address": "7402 MARION ST", "amenity": "post_box", "collection_times": "Mo-Fr 11:30; Sa 09:45", "indoor": "yes", "nsi_id": "unitedstatespostalservice-a77078", "operator": "United States Postal Service", "operator:short": "USPS", "operator:type": "public", "operator:wikidata": "Q668687", "ref": "4372800001"}, "type": "Feature"}
{"geometry": {"coordinates": [-81.865379767, 39.489953124], "type": "Point"}, "id": "VY3zC4tw4_w69o7tpjyNc3H2adA=", "properties": {"@source_uri": "https://tools.usps.com/UspsToolsRestServices/rest/POLocator/findLocations", "@spider": "usps_collection_boxes", "addr:city": "CHESTERHILL", "addr:country": "US", "addr:postcode": "43728", "addr:state": "OH", "addr:street_address": "7402 MARION ST", "amenity": "post_box", "collection_times": "Mo-Fr 11:30; Sa 10:00", "indoor": "yes", "nsi_id": "unitedstatespostalservice-a77078", "operator": "United States Postal Service", "operator:short": "USPS", "operator:type": "public", "operator:wikidata": "Q668687", "ref": "4372800004"}, "type": "Feature"}
{"geometry": {"coordinates": [-82.089458921, 39.604260479], "type": "Point"}, "id": "eaIsY07gkILAdJSsQVwrRTMP3vA=", "properties": {"@source_uri": "https://tools.usps.com/UspsToolsRestServices/rest/POLocator/findLocations", "@spider": "usps_collection_boxes", "addr:city": "CORNING", "addr:country": "US", "addr:postcode": "43730", "addr:state": "OH", "addr:street_address": "105 WASHINGTON ST", "amenity": "post_box", "collection_times": "Mo-Fr 15:45; Sa 10:45", "note": "ON 12/24 AND 12/31, THIS BOX MAY BE COLLECTED AS EARLY AS 12 NOON.", "nsi_id": "unitedstatespostalservice-a77078", "operator": "United States Postal Service", "operator:short": "USPS", "operator:type": "public", "operator:wikidata": "Q668687", "ref": "4373000000"}, "type": "Feature"}
{"geometry": {"coordinates": [-82.089458921, 39.604260479], "type": "Point"}, "id": "jfaFl-sKg83RbtNPvli8wDauo3U=", "properties": {"@source_uri": "https://tools.usps.com/UspsToolsRestServices/rest/POLocator/findLocations", "@spider": "usps_collection_boxes", "addr:city": "CORNING", "addr:country": "US", "addr:postcode": "43730", "addr:state": "OH", "addr:street_address": "105 WASHINGTON ST", "amenity": "post_box", "collection_times": "Mo-Fr 15:45; Sa 10:45", "indoor": "yes", "note": "ON 12/24 AND 12/31, THIS BOX MAY BE COLLECTED AS EARLY AS 12 NOON.", "nsi_id": "unitedstatespostalservice-a77078", "operator": "United States Postal Service", "operator:short": "USPS", "operator:type": "public", "operator:wikidata": "Q668687", "ref": "4373000001"}, "type": "Feature"}
{"geometry": {"coordinates": [-82.089458921, 39.604260479], "type": "Point"}, "id": "57qgEcq-nMiQ0dcr86k5WYrFdTA=", "properties": {"@source_uri": "https://tools.usps.com/UspsToolsRestServices/rest/POLocator/findLocations", "@spider": "usps_collection_boxes", "addr:city": "CORNING", "addr:country": "US", "addr:postcode": "43730", "addr:state": "OH", "addr:street_address": "105 WASHINGTON ST", "amenity": "post_box", "collection_times": "Mo-Fr 16:00; Sa 12:00", "indoor": "yes", "note": "ON 12/24 AND 12/31, THIS BOX MAY BE COLLECTED AS EARLY AS 12 NOON.", "nsi_id": "unitedstatespostalservice-a77078", "operator": "United States Postal Service", "operator:short": "USPS", "operator:type": "public", "operator:wikidata": "Q668687", "ref": "4373000005"}, "type": "Feature"}
{"geometry": {"coordinates": [-82.093939056, 39.769249014], "type": "Point"}, "id": "PHTsgVBAsMF4KHy1Wu6GyTI8Lkk=", "properties": {"@source_uri": "https://tools.usps.com/UspsToolsRestServices/rest/POLocator/findLocations", "@spider": "usps_collection_boxes", "addr:city": "CROOKSVILLE", "addr:country": "US", "addr:postcode": "43731", "addr:state": "OH", "addr:street_address": "200 E MAIN ST", "amenity": "post_box", "collection_times": "Mo-Fr 16:15; Sa 12:00", "note": "ON 12/24 AND 12/31, THIS BOX MAY BE COLLECTED AS EARLY AS 12 NOON.", "nsi_id": "unitedstatespostalservice-a77078", "operator": "United States Postal Service", "operator:short": "USPS", "operator:type": "public", "operator:wikidata": "Q668687", "ref": "4373100000"}, "type": "Feature"}
{"geometry": {"coordinates": [-82.1000357, 39.76855], "type": "Point"}, "id": "89KaEHPAxT8lsjkujMn-dVUyfMk=", "properties": {"@source_uri": "https://tools.usps.com/UspsToolsRestServices/rest/POLocator/findLocations", "@spider": "usps_collection_boxes", "addr:city": "CROOKSVILLE", "addr:country": "US", "addr:postcode": "43731", "addr:state": "OH", "addr:street_address": "120 S BUCKEYE ST", "amenity": "post_box", "collection_times": "Mo-Sa 08:30", "nsi_id": "unitedstatespostalservice-a77078", "operator": "United States Postal Service", "operator:short": "USPS", "operator:type": "public", "operator:wikidata": "Q668687", "ref": "4373100012"}, "type": "Feature"}
{"geometry": {"coordinates": [-82.093939056, 39.769249014], "type": "Point"}, "id": "NhbN3A-uZwITInYgaakj3-z_JGU=", "properties": {"@source_uri": "https://tools.usps.com/UspsToolsRestServices/rest/POLocator/findLocations", "@spider": "usps_collection_boxes", "addr:city": "CROOKSVILLE", "addr:country": "US", "addr:postcode": "43731", "addr:state": "OH", "addr:street_address": "200 E MAIN ST", "amenity": "post_box", "collection_times": "Mo-Fr 16:15; Sa 12:00", "indoor": "yes", "note": "ON 12/24 AND 12/31, THIS BOX MAY BE COLLECTED AS EARLY AS 12 NOON.", "nsi_id": "unitedstatespostalservice-a77078", "operator": "United States Postal Service", "operator:short": "USPS", "operator:type": "public", "operator:wikidata": "Q668687", "ref": "4373100016"}, "type": "Feature"}
{"geometry": {"coordinates": [-82.0960395, 39.777517], "type": "Point"}, "id": "aJVXxd_bpKTq1Mb4N_5tujHOsIA=", "properties": {"@source_uri": "https://tools.usps.com/UspsToolsRestServices/rest/POLocator/findLocations", "@spider": "usps_collection_boxes", "addr:city": "CROOKSVILLE", "addr:country": "US", "addr:postcode": "43731", "addr:state": "OH", "addr:street_address": "726 CHINA ST", "amenity": "post_box", "collection_times": "Mo-Sa 12:00", "nsi_id": "unitedstatespostalservice-a77078", "operator": "United States Postal Service", "operator:short": "USPS", "operator:type": "public", "operator:wikidata": "Q668687", "ref": "4373100017"}, "type": "Feature"}
{"geometry": {"coordinates": [-82.093939056, 39.769249014], "type": "Point"}, "id": "3x3W49R08h-TUbWaBTLybl0i9uo=", "properties": {"@source_uri": "https://tools.usps.com/UspsToolsRestServices/rest/POLocator/findLocations", "@spider": "usps_collection_boxes", "addr:city": "CROOKSVILLE", "addr:country": "US", "addr:postcode": "43731", "addr:state": "OH", "addr:street_address": "200 E MAIN ST", "amenity": "post_box", "collection_times": "Mo-Fr 16:30; Sa 12:00", "indoor": "yes", "note": "ON 12/24 AND 12/31, THIS BOX MAY BE COLLECTED AS EARLY AS 12 NOON.", "nsi_id": "unitedstatespostalservice-a77078", "operator": "United States Postal Service", "operator:short": "USPS", "operator:type": "public", "operator:wikidata": "Q668687", "ref": "4373100022"}, "type": "Feature"}
{"geometry": {"coordinates": [-81.661627708, 39.850102835], "type": "Point"}, "id": "px4r2sBJqSGnFTPphOK8iZNOruc=", "properties": {"@source_uri": "https://tools.usps.com/UspsToolsRestServices/rest/POLocator/findLocations", "@spider": "usps_collection_boxes", "addr:city": "CUMBERLAND", "addr:country": "US", "addr:postcode": "43732", "addr:state": "OH", "addr:street_address": "301 MILL ST", "amenity": "post_box", "collection_times": "Mo-Fr 15:30; Sa 10:15", "note": "ON 12/24 AND 12/31, THIS BOX MAY BE COLLECTED AS EARLY AS 12 NOON.", "nsi_id": "unitedstatespostalservice-a77078", "operator": "United States Postal Service", "operator:short": "USPS", "operator:type": "public", "operator:wikidata": "Q668687", "ref": "4373200000"}, "type": "Feature"}
{"geometry": {"coordinates": [-81.661627708, 39.850102835], "type": "Point"}, "id": "mUMMYDF8hVS04dBmJMJHIHPPOpY=", "properties": {"@source_uri": "https://tools.usps.com/UspsToolsRestServices/rest/POLocator/findLocations", "@spider": "usps_collection_boxes", "addr:city": "CUMBERLAND", "addr:country": "US", "addr:postcode": "43732", "addr:state": "OH", "addr:street_address": "301 MILL ST", "amenity": "post_box", "collection_times": "Mo-Fr 15:30; Sa 10:15", "indoor": "yes", "note": "ON 12/24 AND 12/31, THIS BOX MAY BE COLLECTED AS EARLY AS 12 NOON.", "nsi_id": "unitedstatespostalservice-a77078", "operator": "United States Postal Service", "operator:short": "USPS", "operator:type": "public", "operator:wikidata": "Q668687", "ref": "4373200001"}, "type": "Feature"}
{"geometry": {"coordinates": [-81.661627708, 39.850102835], "type": "Point"}, "id": "lLbmmuMqSe2zODTXzGhsI3pRHss=", "properties": {"@source_uri": "https://tools.usps.com/UspsToolsRestServices/rest/POLocator/findLocations", "@spider": "usps_collection_boxes", "addr:city": "CUMBERLAND", "addr:country": "US", "addr:postcode": "43732", "addr:state": "OH", "addr:street_address": "301 MILL ST", "amenity": "post_box", "collection_times": "Mo-Fr 16:00; Sa 12:00", "indoor": "yes", "note": "ON 12/24 AND 12/31, THIS BOX MAY BE COLLECTED AS EARLY AS 12 NOON.", "nsi_id": "unitedstatespostalservice-a77078", "operator": "United States Postal Service", "operator:short": "USPS", "operator:type": "public", "operator:wikidata": "Q668687", "ref": "4373200005"}, "type": "Feature"}
{"geometry": {"coordinates": [-81.541128758, 39.921848975], "type": "Point"}, "id": "84I_yg5vfZEjXyC9AbeeTB9jgak=", "properties": {"@source_uri": "https://tools.usps.com/UspsToolsRestServices/rest/POLocator/findLocations", "@spider": "usps_collection_boxes", "addr:city": "DERWENT", "addr:country": "US", "addr:postcode": "43733", "addr:state": "OH", "addr:street_address": "10936 CLAY PIKE RD", "amenity": "post_box", "collection_times": "Mo-Fr 13:30; Sa 10:15", "note": "ON 12/24 AND 12/31, THIS BOX MAY BE COLLECTED AS EARLY AS 12 NOON.", "nsi_id": "unitedstatespostalservice-a77078", "operator": "United States Postal Service", "operator:short": "USPS", "operator:type": "public", "operator:wikidata": "Q668687", "ref": "4373300000"}, "type": "Feature"}
{"geometry": {"coordinates": [-81.541128758, 39.921848975], "type": "Point"}, "id": "-b_pq72sCjOYhylQTFbmDNmB1RI=", "properties": {"@source_uri": "https://tools.usps.com/UspsToolsRestServices/rest/POLocator/findLocations", "@spider": "usps_collection_boxes", "addr:city": "DERWENT", "addr:country": "US", "addr:postcode": "43733", "addr:state": "OH", "addr:street_address": "10936 CLAY PIKE RD", "amenity": "post_box", "collection_times": "Mo-Fr 13:30; Sa 10:15", "indoor": "yes", "note": "ON 12/24 AND 12/31, THIS BOX MAY BE COLLECTED AS EARLY AS 12 NOON.", "nsi_id": "unitedstatespostalservice-a77078", "operator": "United States Postal Service", "operator:short": "USPS", "operator:type": "public", "operator:wikidata": "Q668687", "ref": "4373300001"}, "type": "Feature"}
{"geometry": {"coordinates": [-81.541128758, 39.921848975], "type": "Point"}, "id": "_U9FjPfhaGP2ynEEz53nZv-TryQ=", "properties": {"@source_uri": "https://tools.usps.com/UspsToolsRestServices/rest/POLocator/findLocations", "@spider": "usps_collection_boxes", "addr:city": "DERWENT", "addr:country": "US", "addr:postcode": "43733", "addr:state": "OH", "addr:street_address": "10936 CLAY PIKE RD", "amenity": "post_box", "collection_times": "Mo-Fr 14:00; Sa 10:00", "indoor": "yes", "note": "ON 12/24 AND 12/31, THIS BOX MAY BE COLLECTED AS EARLY AS 12 NOON.", "nsi_id": "unitedstatespostalservice-a77078", "operator": "United States Postal Service", "operator:short": "USPS", "operator:type": "public", "operator:wikidata": "Q668687", "ref": "4373300003"}, "type": "Feature"}
{"geometry": {"coordinates": [-81.913107322, 39.872512151], "type": "Point"}, "id": "_4fzmOosa8xiqw4drtqYT7MfHV8=", "properties": {"@source_uri": "https://tools.usps.com/UspsToolsRestServices/rest/POLocator/findLocations", "@spider": "usps_collection_boxes", "addr:city": "DUNCAN FALLS", "addr:country": "US", "addr:postcode": "43734", "addr:state": "OH", "addr:street_address": "315 MAIN ST", "amenity": "post_box", "collection_times": "Mo-Fr 16:00; Sa 09:45", "note": "ON 12/24 AND 12/31, THIS BOX MAY BE COLLECTED AS EARLY AS 12 NOON.", "nsi_id": "unitedstatespostalservice-a77078", "operator": "United States Postal Service", "operator:short": "USPS", "operator:type": "public", "operator:wikidata": "Q668687", "ref": "4373400000"}, "type": "Feature"}
{"geometry": {"coordinates": [-81.913107322, 39.872512151], "type": "Point"}, "id": "n6lcDc4Takq9R2Q8qNSnqTvet8A=", "properties": {"@source_uri": "https://tools.usps.com/UspsToolsRestServices/rest/POLocator/findLocations", "@spider": "usps_collection_boxes", "addr:city": "DUNCAN FALLS", "addr:country": "US", "addr:postcode": "43734", "addr:state": "OH", "addr:street_address": "315 MAIN ST", "amenity": "post_box", "collection_times": "Mo-Fr 16:00; Sa 09:45", "indoor": "yes", "note": "ON 12/24 AND 12/31, THIS BOX MAY BE COLLECTED AS EARLY AS 12 NOON.", "nsi_id": "unitedstatespostalservice-a77078", "operator": "United States Postal Service", "operator:short": "USPS", "operator:type": "public", "operator:wikidata": "Q668687", "ref": "4373400001"}, "type": "Feature"}
{"geometry": {"coordinates": [-81.913107322, 39.872512151], "type": "Point"}, "id": "T5OAGE0dzpOYk_PwntpeKgEQy3g=", "properties": {"@source_uri": "https://tools.usps.com/UspsToolsRestServices/rest/POLocator/findLocations", "@spider": "usps_collection_boxes", "addr:city": "DUNCAN FALLS", "addr:country": "US", "addr:postcode": "43734", "addr:state": "OH", "addr:street_address": "315 MAIN ST", "amenity": "post_box", "collection_times": "Mo-Fr 16:00; Sa 09:45", "indoor": "yes", "note": "ON 12/24 AND 12/31, THIS BOX MAY BE COLLECTED AS EARLY AS 12 NOON.", "nsi_id": "unitedstatespostalservice-a77078", "operator": "United States Postal Service", "operator:short": "USPS", "operator:type": "public", "operator:wikidata": "Q668687", "ref": "4373400004"}, "type": "Feature"}
{"geometry": {"coordinates": [-82.122764757, 39.850040558], "type": "Point"}, "id": "thWqv7cVFLCyEexgWgQGNBs2u7s=", "properties": {"@source_uri": "https://tools.usps.com/UspsToolsRestServices/rest/POLocator/findLocations", "@spider": "usps_collection_boxes", "addr:city": "EAST FULTONHAM", "addr:country": "US", "addr:postcode": "43735", "addr:state": "OH", "addr:street_address": "6970 AXLINE AVE", "amenity": "post_box", "collection_times": "Mo-Fr 11:00; Sa 10:30", "nsi_id": "unitedstatespostalservice-a77078", "operator": "United States Postal Service", "operator:short": "USPS", "operator:type": "public", "operator:wikidata": "Q668687", "ref": "4373500000"}, "type": "Feature"}
{"geometry": {"coordinates": [-82.122764757, 39.850040558], "type": "Point"}, "id": "-yhKHrDviNj_gf6UxI3Q90SLIh4=", "properties": {"@source_uri": "https://tools.usps.com/UspsToolsRestServices/rest/POLocator/findLocations", "@spider": "usps_collection_boxes", "addr:city": "EAST FULTONHAM", "addr:country": "US", "addr:postcode": "43735", "addr:state": "OH", "addr:street_address": "6970 AXLINE AVE", "amenity": "post_box", "collection_times": "Mo-Fr 11:00; Sa 10:30", "indoor": "yes", "nsi_id": "unitedstatespostalservice-a77078", "operator": "United States Postal Service", "operator:short": "USPS", "operator:type": "public", "operator:wikidata": "Q668687", "ref": "4373500001"}, "type": "Feature"}
{"geometry": {"coordinates": [-82.122764757, 39.850040558], "type": "Point"}, "id": "CW4aqz0_vrW1Leg4ER0eu0dACq0=", "properties": {"@source_uri": "https://tools.usps.com/UspsToolsRestServices/rest/POLocator/findLocations", "@spider": "usps_collection_boxes", "addr:city": "EAST FULTONHAM", "addr:country": "US", "addr:postcode": "43735", "addr:state": "OH", "addr:street_address": "6970 AXLINE AVE", "amenity": "post_box", "collection_times": "Mo-Fr 16:30; Sa 14:15", "indoor": "yes", "note": "ON 12/24 AND 12/31, THIS BOX MAY BE COLLECTED AS EARLY AS 12 NOON.", "nsi_id": "unitedstatespostalservice-a77078", "operator": "United States Postal Service", "operator:short": "USPS", "operator:type": "public", "operator:wikidata": "Q668687", "ref": "4373500003"}, "type": "Feature"}
{"geometry": {"coordinates": [-82.328083643, 39.886658367], "type": "Point"}, "id": "kctU_zHyDHvNs5jXwppJzs_zZhQ=", "properties": {"@source_uri": "https://tools.usps.com/UspsToolsRestServices/rest/POLocator/findLocations", "@spider": "usps_collection_boxes", "addr:city": "GLENFORD", "addr:country": "US", "addr:postcode": "43739", "addr:state": "OH", "addr:street_address": "4627 STATE ROUTE 204", "amenity": "post_box", "collection_times": "Mo-Fr 15:30; Sa 10:15", "note": "ON 12/24 AND 12/31, THIS BOX MAY BE COLLECTED AS EARLY AS 12 NOON.", "nsi_id": "unitedstatespostalservice-a77078", "operator": "United States Postal Service", "operator:short": "USPS", "operator:type": "public", "operator:wikidata": "Q668687", "ref": "4373900000"}, "type": "Feature"}
{"geometry": {"coordinates": [-82.328083643, 39.886658367], "type": "Point"}, "id": "hLBPfCNFxvcQGUON-vscOp22FaE=", "properties": {"@source_uri": "https://tools.usps.com/UspsToolsRestServices/rest/POLocator/findLocations", "@spider": "usps_collection_boxes", "addr:city": "GLENFORD", "addr:country": "US", "addr:postcode": "43739", "addr:state": "OH", "addr:street_address": "4627 STATE ROUTE 204", "amenity": "post_box", "collection_times": "Mo-Fr 15:30; Sa 10:15", "indoor": "yes", "note": "ON 12/24 AND 12/31, THIS BOX MAY BE COLLECTED AS EARLY AS 12 NOON.", "nsi_id": "unitedstatespostalservice-a77078", "operator": "United States Postal Service", "operator:short": "USPS", "operator:type": "public", "operator:wikidata": "Q668687", "ref": "4373900001"}, "type": "Feature"}
{"geometry": {"coordinates": [-82.2571185, 39.94691], "type": "Point"}, "id": "Uf1sq14njl2KRVNmMsmP-_gLtyk=", "properties": {"@source_uri": "https://tools.usps.com/UspsToolsRestServices/rest/POLocator/findLocations", "@spider": "usps_collection_boxes", "addr:city": "GLENFORD", "addr:country": "US", "addr:postcode": "43739", "addr:state": "OH", "addr:street_address": "15564 MAIN ST", "amenity": "post_box", "collection_times": "Mo-Sa 10:00", "nsi_id": "unitedstatespostalservice-a77078", "operator": "United States Postal Service", "operator:short": "USPS", "operator:type": "public", "operator:wikidata": "Q668687", "ref": "4373900003"}, "type": "Feature"}
{"geometry": {"coordinates": [-82.328083643, 39.886658367], "type": "Point"}, "id": "yf_6Epoxvq4u904MuZMl3G02jr8=", "properties": {"@source_uri": "https://tools.usps.com/UspsToolsRestServices/rest/POLocator/findLocations", "@spider": "usps_collection_boxes", "addr:city": "GLENFORD", "addr:country": "US", "addr:postcode": "43739", "addr:state": "OH", "addr:street_address": "4627 STATE ROUTE 204", "amenity": "post_box", "collection_times": "Mo-Fr 16:15; Sa 10:30", "indoor": "yes", "note": "ON 12/24 AND 12/31, THIS BOX MAY BE COLLECTED AS EARLY AS 12 NOON.", "nsi_id": "unitedstatespostalservice-a77078", "operator": "United States Postal Service", "operator:short": "USPS", "operator:type": "public", "operator:wikidata": "Q668687", "ref": "4373900009"}, "type": "Feature"}
{"geometry": {"coordinates": [-82.215214282, 39.951381846], "type": "Point"}, "id": "4KVYFCR-SKgANzHCNFVmx92XkF0=", "properties": {"@source_uri": "https://tools.usps.com/UspsToolsRestServices/rest/POLocator/findLocations", "@spider": "usps_collection_boxes", "addr:city": "GRATIOT", "addr:country": "US", "addr:postcode": "43740", "addr:state": "OH", "addr:street_address": "349 MAIN ST", "amenity": "post_box", "collection_times": "Mo-Fr 11:30; Sa 10:15", "nsi_id": "unitedstatespostalservice-a77078", "operator": "United States Postal Service", "operator:short": "USPS", "operator:type": "public", "operator:wikidata": "Q668687", "ref": "4374000000"}, "type": "Feature"}
{"geometry": {"coordinates": [-82.215214282, 39.951381846], "type": "Point"}, "id": "Q_nu3ySD8BhWnR_hJuE9k06_iGo=", "properties": {"@source_uri": "https://tools.usps.com/UspsToolsRestServices/rest/POLocator/findLocations", "@spider": "usps_collection_boxes", "addr:city": "GRATIOT", "addr:country": "US", "addr:postcode": "43740", "addr:state": "OH", "addr:street_address": "349 MAIN ST", "amenity": "post_box", "collection_times": "Mo-Fr 11:30; Sa 10:15", "indoor": "yes", "nsi_id": "unitedstatespostalservice-a77078", "operator": "United States Postal Service", "operator:short": "USPS", "operator:type": "public", "operator:wikidata": "Q668687", "ref": "4374000001"}, "type": "Feature"}
{"geometry": {"coordinates": [-82.215214282, 39.951381846], "type": "Point"}, "id": "sywW8cZyWsn1vnGSsU7-De2qtHE=", "properties": {"@source_uri": "https://tools.usps.com/UspsToolsRestServices/rest/POLocator/findLocations", "@spider": "usps_collection_boxes", "addr:city": "GRATIOT", "addr:country": "US", "addr:postcode": "43740", "addr:state": "OH", "addr:street_address": "349 MAIN ST", "amenity": "post_box", "collection_times": "Mo-Fr 12:00; Sa 10:30", "indoor": "yes", "nsi_id": "unitedstatespostalservice-a77078", "operator": "United States Postal Service", "operator:short": "USPS", "operator:type": "public", "operator:wikidata": "Q668687", "ref": "4374000004"}, "type": "Feature"}
{"geometry": {"coordinates": [-81.100254303, 39.850766995], "type": "Point"}, "id": "IZZ68Ucxg5N8tWdc-MpITVK5zbM=", "properties": {"@source_uri": "https://tools.usps.com/UspsToolsRestServices/rest/POLocator/findLocations", "@spider": "usps_collection_boxes", "addr:city": "JERUSALEM", "addr:country": "US", "addr:postcode": "43747", "addr:state": "OH", "addr:street_address": "51666 MAIN ST", "amenity": "post_box", "collection_times": "Mo-Fr 11:30", "nsi_id": "unitedstatespostalservice-a77078", "operator": "United States Postal Service", "operator:short": "USPS", "operator:type": "public", "operator:wikidata": "Q668687", "ref": "4374700000"}, "type": "Feature"}
{"geometry": {"coordinates": [-81.100254303, 39.850766995], "type": "Point"}, "id": "vkECZp_Ga0nF5M5lWKGL2w4Qr-A=", "properties": {"@source_uri": "https://tools.usps.com/UspsToolsRestServices/rest/POLocator/findLocations", "@spider": "usps_collection_boxes", "addr:city": "JERUSALEM", "addr:country": "US", "addr:postcode": "43747", "addr:state": "OH", "addr:street_address": "51666 MAIN ST", "amenity": "post_box", "collection_times": "Mo-Fr 11:30; Sa 12:30", "indoor": "yes", "note": "ON 12/24 AND 12/31, THIS BOX MAY BE COLLECTED AS EARLY AS 12 NOON.", "nsi_id": "unitedstatespostalservice-a77078", "operator": "United States Postal Service", "operator:short": "USPS", "operator:type": "public", "operator:wikidata": "Q668687", "ref": "4374700001"}, "type": "Feature"}
{"geometry": {"coordinates": [-81.100254303, 39.850766995], "type": "Point"}, "id": "kztiZWB8y-IyFrx20qcvRI6A8cc=", "properties": {"@source_uri": "https://tools.usps.com/UspsToolsRestServices/rest/POLocator/findLocations", "@spider": "usps_collection_boxes", "addr:city": "JERUSALEM", "addr:country": "US", "addr:postcode": "43747", "addr:state": "OH", "addr:street_address": "51666 MAIN ST", "amenity": "post_box", "collection_times": "Mo-Sa 13:00", "indoor": "yes", "note": "ON 12/24 AND 12/31, THIS BOX MAY BE COLLECTED AS EARLY AS 12 NOON.", "nsi_id": "unitedstatespostalservice-a77078", "operator": "United States Postal Service", "operator:short": "USPS", "operator:type": "public", "operator:wikidata": "Q668687", "ref": "4374700005"}, "type": "Feature"}
{"geometry": {"coordinates": [-82.300481727, 39.721196536], "type": "Point"}, "id": "kk1BZ04qipRc4ow002kgP-Uvb4w=", "properties": {"@source_uri": "https://tools.usps.com/UspsToolsRestServices/rest/POLocator/findLocations", "@spider": "usps_collection_boxes", "addr:city": "JUNCTION CITY", "addr:country": "US", "addr:postcode": "43748", "addr:state": "OH", "addr:street_address": "114 W MAIN ST", "amenity": "post_box", "collection_times": "Mo-Fr 16:15; Sa 10:15", "note": "ON 12/24 AND 12/31, THIS BOX MAY BE COLLECTED AS EARLY AS 12 NOON.", "nsi_id": "unitedstatespostalservice-a77078", "operator": "United States Postal Service", "operator:short": "USPS", "operator:type": "public", "operator:wikidata": "Q668687", "ref": "4374800000"}, "type": "Feature"}
{"geometry": {"coordinates": [-82.300481727, 39.721196536], "type": "Point"}, "id": "-9c4SUgCG56lInzXMhUaNDeBlrE=", "properties": {"@source_uri": "https://tools.usps.com/UspsToolsRestServices/rest/POLocator/findLocations", "@spider": "usps_collection_boxes", "addr:city": "JUNCTION CITY", "addr:country": "US", "addr:postcode": "43748", "addr:state": "OH", "addr:street_address": "114 W MAIN ST", "amenity": "post_box", "collection_times": "Mo-Fr 16:30; Sa 10:15", "indoor": "yes", "note": "ON 12/24 AND 12/31, THIS BOX MAY BE COLLECTED AS EARLY AS 12 NOON.", "nsi_id": "unitedstatespostalservice-a77078", "operator": "United States Postal Service", "operator:short": "USPS", "operator:type": "public", "operator:wikidata": "Q668687", "ref": "4374800001"}, "type": "Feature"}
{"geometry": {"coordinates": [-82.300481727, 39.721196536], "type": "Point"}, "id": "7HngBJDkW6iTu4q5KU1wHhe-wYI=", "properties": {"@source_uri": "https://tools.usps.com/UspsToolsRestServices/rest/POLocator/findLocations", "@spider": "usps_collection_boxes", "addr:city": "JUNCTION CITY", "addr:country": "US", "addr:postcode": "43748", "addr:state": "OH", "addr:street_address": "114 W MAIN ST", "amenity": "post_box", "collection_times": "Mo-Fr 16:30; Sa 10:30", "indoor": "yes", "note": "ON 12/24 AND 12/31, THIS BOX MAY BE COLLECTED AS EARLY AS 12 NOON.", "nsi_id": "unitedstatespostalservice-a77078", "operator": "United States Postal Service", "operator:short": "USPS", "operator:type": "public", "operator:wikidata": "Q668687", "ref": "4374800005"}, "type": "Feature"}
{"geometry": {"coordinates": [-81.572946441, 40.149838991], "type": "Point"}, "id": "AfAXV7kU02Zy5_jqda9bM3tzSCw=", "properties": {"@source_uri": "https://tools.usps.com/UspsToolsRestServices/rest/POLocator/findLocations", "@spider": "usps_collection_boxes", "addr:city": "KIMBOLTON", "addr:country": "US", "addr:postcode": "43749", "addr:state": "OH", "addr:street_address": "114 S MAIN ST", "amenity": "post_box", "collection_times": "Mo-Fr 16:30; Sa 14:30", "note": "ON 12/24 AND 12/31, THIS BOX MAY BE COLLECTED AS EARLY AS 12 NOON.", "nsi_id": "unitedstatespostalservice-a77078", "operator": "United States Postal Service", "operator:short": "USPS", "operator:type": "public", "operator:wikidata": "Q668687", "ref": "4374900000"}, "type": "Feature"}
{"geometry": {"coordinates": [-81.572946441, 40.149838991], "type": "Point"}, "id": "WNkeXwKWVLVkL75VSgG_9ynmyXI=", "properties": {"@source_uri": "https://tools.usps.com/UspsToolsRestServices/rest/POLocator/findLocations", "@spider": "usps_collection_boxes", "addr:city": "KIMBOLTON", "addr:country": "US", "addr:postcode": "43749", "addr:state": "OH", "addr:street_address": "114 S MAIN ST", "amenity": "post_box", "collection_times": "Mo-Fr 16:30; Sa 14:30", "indoor": "yes", "note": "ON 12/24 AND 12/31, THIS BOX MAY BE COLLECTED AS EARLY AS 12 NOON.", "nsi_id": "unitedstatespostalservice-a77078", "operator": "United States Postal Service", "operator:short": "USPS", "operator:type": "public", "operator:wikidata": "Q668687", "ref": "4374900001"}, "type": "Feature"}
{"geometry": {"coordinates": [-81.572946441, 40.149838991], "type": "Point"}, "id": "QuqOqqxgUrYmyUwELo8ZRT7SgHQ=", "properties": {"@source_uri": "https://tools.usps.com/UspsToolsRestServices/rest/POLocator/findLocations", "@spider": "usps_collection_boxes", "addr:city": "KIMBOLTON", "addr:country": "US", "addr:postcode": "43749", "addr:state": "OH", "addr:street_address": "114 S MAIN ST", "amenity": "post_box", "collection_times": "Mo-Fr 17:00; Sa 15:00", "indoor": "yes", "note": "ON 12/24 AND 12/31, THIS BOX MAY BE COLLECTED AS EARLY AS 12 NOON.", "nsi_id": "unitedstatespostalservice-a77078", "operator": "United States Postal Service", "operator:short": "USPS", "operator:type": "public", "operator:wikidata": "Q668687", "ref": "4374900005"}, "type": "Feature"}
{"geometry": {"coordinates": [-81.217602388, 39.764911515], "type": "Point"}, "id": "_wYwwt76DSiqcBw_mCZpAT2aeV8=", "properties": {"@source_uri": "https://tools.usps.com/UspsToolsRestServices/rest/POLocator/findLocations", "@spider": "usps_collection_boxes", "addr:city": "STAFFORD", "addr:country": "US", "addr:postcode": "43754", "addr:state": "OH", "addr:street_address": "33212 RAILROAD ST", "amenity": "post_box", "collection_times": "Mo-Fr 16:30; Sa 10:00", "note": "ON 12/24 AND 12/31, THIS BOX MAY BE COLLECTED AS EARLY AS 12 NOON.", "nsi_id": "unitedstatespostalservice-a77078", "operator": "United States Postal Service", "operator:short": "USPS", "operator:type": "public", "operator:wikidata": "Q668687", "ref": "4375400000"}, "type": "Feature"}
{"geometry": {"coordinates": [-81.217602388, 39.764911515], "type": "Point"}, "id": "p_MavqFGaTwGav2AEN4R1KlK9A8=", "properties": {"@source_uri": "https://tools.usps.com/UspsToolsRestServices/rest/POLocator/findLocations", "@spider": "usps_collection_boxes", "addr:city": "STAFFORD", "addr:country": "US", "addr:postcode": "43754", "addr:state": "OH", "addr:street_address": "33212 RAILROAD ST", "amenity": "post_box", "collection_times": "Mo-Fr 16:30; Sa 10:00", "indoor": "yes", "note": "ON 12/24 AND 12/31, THIS BOX MAY BE COLLECTED AS EARLY AS 12 NOON.", "nsi_id": "unitedstatespostalservice-a77078", "operator": "United States Postal Service", "operator:short": "USPS", "operator:type": "public", "operator:wikidata": "Q668687", "ref": "4375400001"}, "type": "Feature"}
{"geometry": {"coordinates": [-81.2765121, 39.713522], "type": "Point"}, "id": "hdlo_sWPinPXqSHyrzobUK1Esj4=", "properties": {"@source_uri": "https://tools.usps.com/UspsToolsRestServices/rest/POLocator/findLocations", "@spider": "usps_collection_boxes", "addr:city": "STAFFORD", "addr:country": "US", "addr:postcode": "43754", "addr:state": "OH", "addr:street_address": "42385 MILL ST", "amenity": "post_box", "collection_times": "Mo-Sa 08:30", "nsi_id": "unitedstatespostalservice-a77078", "operator": "United States Postal Service", "operator:short": "USPS", "operator:type": "public", "operator:wikidata": "Q668687", "ref": "4375400002"}, "type": "Feature"}
{"geometry": {"coordinates": [-81.217602388, 39.764911515], "type": "Point"}, "id": "2WwrOY7nHJg-vMC9jRqn8p_8Jl0=", "properties": {"@source_uri": "https://tools.usps.com/UspsToolsRestServices/rest/POLocator/findLocations", "@spider": "usps_collection_boxes", "addr:city": "STAFFORD", "addr:country": "US", "addr:postcode": "43754", "addr:state": "OH", "addr:street_address": "33212 RAILROAD ST", "amenity": "post_box", "collection_times": "Mo-Fr 16:30; Sa 13:00", "indoor": "yes", "note": "ON 12/24 AND 12/31, THIS BOX MAY BE COLLECTED AS EARLY AS 12 NOON.", "nsi_id": "unitedstatespostalservice-a77078", "operator": "United States Postal Service", "operator:short": "USPS", "operator:type": "public", "operator:wikidata": "Q668687", "ref": "4375400005"}, "type": "Feature"}
{"geometry": {"coordinates": [-81.459196676, 39.984874743], "type": "Point"}, "id": "OVmgMZiPUaE9zBlWbrwnvSX6RKY=", "properties": {"@source_uri": "https://tools.usps.com/UspsToolsRestServices/rest/POLocator/findLocations", "@spider": "usps_collection_boxes", "addr:city": "LORE CITY", "addr:country": "US", "addr:postcode": "43755", "addr:state": "OH", "addr:street_address": "200 MAIN ST NW", "amenity": "post_box", "collection_times": "Mo-Fr 13:30; Sa 10:15", "note": "ON 12/24 AND 12/31, THIS BOX MAY BE COLLECTED AS EARLY AS 12 NOON.", "nsi_id": "unitedstatespostalservice-a77078", "operator": "United States Postal Service", "operator:short": "USPS", "operator:type": "public", "operator:wikidata": "Q668687", "ref": "4375500000"}, "type": "Feature"}
{"geometry": {"coordinates": [-81.459196676, 39.984874743], "type": "Point"}, "id": "vLOdXxUMVx1j_7zaIUnxUbyy_ok=", "properties": {"@source_uri": "https://tools.usps.com/UspsToolsRestServices/rest/POLocator/findLocations", "@spider": "usps_collection_boxes", "addr:city": "LORE CITY", "addr:country": "US", "addr:postcode": "43755", "addr:state": "OH", "addr:street_address": "200 MAIN ST NW", "amenity": "post_box", "collection_times": "Mo-Fr 13:30; Sa 10:15", "indoor": "yes", "note": "ON 12/24 AND 12/31, THIS BOX MAY BE COLLECTED AS EARLY AS 12 NOON.", "nsi_id": "unitedstatespostalservice-a77078", "operator": "United States Postal Service", "operator:short": "USPS", "operator:type": "public", "operator:wikidata": "Q668687", "ref": "4375500001"}, "type": "Feature"}
{"geometry": {"coordinates": [-81.459196676, 39.984874743], "type": "Point"}, "id": "dzJqfAXTTUR2c_JVxmmvvcR3aNk=", "properties": {"@source_uri": "https://tools.usps.com/UspsToolsRestServices/rest/POLocator/findLocations", "@spider": "usps_collection_boxes", "addr:city": "LORE CITY", "addr:country": "US", "addr:postcode": "43755", "addr:state": "OH", "addr:street_address": "200 MAIN ST NW", "amenity": "post_box", "collection_times": "Mo-Fr 14:00; Sa 10:30", "indoor": "yes", "note": "ON 12/24 AND 12/31, THIS BOX MAY BE COLLECTED AS EARLY AS 12 NOON.", "nsi_id": "unitedstatespostalservice-a77078", "operator": "United States Postal Service", "operator:short": "USPS", "operator:type": "public", "operator:wikidata": "Q668687", "ref": "4375500005"}, "type": "Feature"}
{"geometry": {"coordinates": [-81.853295047, 39.648032015], "type": "Point"}, "id": "CeC-2HdCOQfCmpFJgJHNbZHjFr8=", "properties": {"@source_uri": "https://tools.usps.com/UspsToolsRestServices/rest/POLocator/findLocations", "@spider": "usps_collection_boxes", "addr:city": "MCCONNELSVILLE", "addr:country": "US", "addr:postcode": "43756", "addr:state": "OH", "addr:street_address": "83 S KENNEBEC AVE", "amenity": "post_box", "collection_times": "Mo-Fr 16:15; Sa 14:00", "note": "ON 12/24 AND 12/31, THIS BOX MAY BE COLLECTED AS EARLY AS 12 NOON.", "nsi_id": "unitedstatespostalservice-a77078", "operator": "United States Postal Service", "operator:short": "USPS", "operator:type": "public", "operator:wikidata": "Q668687", "ref": "4375600001"}, "type": "Feature"}
{"geometry": {"coordinates": [-81.8529716, 39.648842], "type": "Point"}, "id": "DPIQ-ungNJqhatXQYMZb8ZSWhg0=", "properties": {"@source_uri": "https://tools.usps.com/UspsToolsRestServices/rest/POLocator/findLocations", "@spider": "usps_collection_boxes", "addr:city": "MCCONNELSVILLE", "addr:country": "US", "addr:postcode": "43756", "addr:state": "OH", "addr:street_address": "19 E MAIN ST", "amenity": "post_box", "collection_times": "Mo-Sa 12:00", "nsi_id": "unitedstatespostalservice-a77078", "operator": "United States Postal Service", "operator:short": "USPS", "operator:type": "public", "operator:wikidata": "Q668687", "ref": "4375600004"}, "type": "Feature"}
{"geometry": {"coordinates": [-81.853295047, 39.648032015], "type": "Point"}, "id": "BqrTt7F6VD4s5erGlwc6RrYeIdU=", "properties": {"@source_uri": "https://tools.usps.com/UspsToolsRestServices/rest/POLocator/findLocations", "@spider": "usps_collection_boxes", "addr:city": "MCCONNELSVILLE", "addr:country": "US", "addr:postcode": "43756", "addr:state": "OH", "addr:street_address": "83 S KENNEBEC AVE", "amenity": "post_box", "collection_times": "Mo-Fr 16:15; Sa 14:00", "indoor": "yes", "note": "ON 12/24 AND 12/31, THIS BOX MAY BE COLLECTED AS EARLY AS 12 NOON.", "nsi_id": "unitedstatespostalservice-a77078", "operator": "United States Postal Service", "operator:short": "USPS", "operator:type": "public", "operator:wikidata": "Q668687", "ref": "4375600014"}, "type": "Feature"}
{"geometry": {"coordinates": [-81.8511249, 39.648769], "type": "Point"}, "id": "sGjANQw_-gsmYjERKV_Enf_aPn0=", "properties": {"@source_uri": "https://tools.usps.com/UspsToolsRestServices/rest/POLocator/findLocations", "@spider": "usps_collection_boxes", "addr:city": "MCCONNELSVILLE", "addr:country": "US", "addr:postcode": "43756", "addr:state": "OH", "addr:street_address": "155 E MAIN ST", "amenity": "post_box", "collection_times": "Mo-Sa 12:00", "nsi_id": "unitedstatespostalservice-a77078", "operator": "United States Postal Service", "operator:short": "USPS", "operator:type": "public", "operator:wikidata": "Q668687", "ref": "4375600015"}, "type": "Feature"}
{"geometry": {"coordinates": [-81.853295047, 39.648032015], "type": "Point"}, "id": "6dwUm4sTgSn50nEf5K6Ldkvj5_w=", "properties": {"@source_uri": "https://tools.usps.com/UspsToolsRestServices/rest/POLocator/findLocations", "@spider": "usps_collection_boxes", "addr:city": "MCCONNELSVILLE", "addr:country": "US", "addr:postcode": "43756", "addr:state": "OH", "addr:street_address": "83 S KENNEBEC AVE", "amenity": "post_box", "collection_times": "Mo-Fr 16:15; Sa 12:00", "indoor": "yes", "note": "ON 12/24 AND 12/31, THIS BOX MAY BE COLLECTED AS EARLY AS 12 NOON.", "nsi_id": "unitedstatespostalservice-a77078", "operator": "United States Postal Service", "operator:short": "USPS", "operator:type": "public", "operator:wikidata": "Q668687", "ref": "4375600017"}, "type": "Feature"}
{"geometry": {"coordinates": [-81.862847803, 39.650160886], "type": "Point"}, "id": "qrqprd8e4tRKWfBD_jVRcd5UNTQ=", "properties": {"@source_uri": "https://tools.usps.com/UspsToolsRestServices/rest/POLocator/findLocations", "@spider": "usps_collection_boxes", "addr:city": "MALTA", "addr:country": "US", "addr:postcode": "43758", "addr:state": "OH", "addr:street_address": "534 N MAIN ST", "amenity": "post_box", "collection_times": "Mo-Fr 16:00; Sa 11:45", "note": "ON 12/24 AND 12/31, THIS BOX MAY BE COLLECTED AS EARLY AS 12 NOON.", "nsi_id": "unitedstatespostalservice-a77078", "operator": "United States Postal Service", "operator:short": "USPS", "operator:type": "public", "operator:wikidata": "Q668687", "ref": "4375800000"}, "type": "Feature"}
{"geometry": {"coordinates": [-81.862847803, 39.650160886], "type": "Point"}, "id": "sdvf3GoK1PIOl481tUy7XxcM-Pg=", "properties": {"@source_uri": "https://tools.usps.com/UspsToolsRestServices/rest/POLocator/findLocations", "@spider": "usps_collection_boxes", "addr:city": "MALTA", "addr:country": "US", "addr:postcode": "43758", "addr:state": "OH", "addr:street_address": "534 N MAIN ST", "amenity": "post_box", "collection_times": "Mo-Fr 16:00; Sa 11:45", "indoor": "yes", "note": "ON 12/24 AND 12/31, THIS BOX MAY BE COLLECTED AS EARLY AS 12 NOON.", "nsi_id": "unitedstatespostalservice-a77078", "operator": "United States Postal Service", "operator:short": "USPS", "operator:type": "public", "operator:wikidata": "Q668687", "ref": "4375800001"}, "type": "Feature"}
{"geometry": {"coordinates": [-81.862847803, 39.650160886], "type": "Point"}, "id": "VPyhBYFppsOQ_IzSEAGHvct93PU=", "properties": {"@source_uri": "https://tools.usps.com/UspsToolsRestServices/rest/POLocator/findLocations", "@spider": "usps_collection_boxes", "addr:city": "MALTA", "addr:country": "US", "addr:postcode": "43758", "addr:state": "OH", "addr:street_address": "534 N MAIN ST", "amenity": "post_box", "collection_times": "Mo-Fr 16:00; Sa 12:00", "indoor": "yes", "note": "ON 12/24 AND 12/31, THIS BOX MAY BE COLLECTED AS EARLY AS 12 NOON.", "nsi_id": "unitedstatespostalservice-a77078", "operator": "United States Postal Service", "operator:short": "USPS", "operator:type": "public", "operator:wikidata": "Q668687", "ref": "4375800003"}, "type": "Feature"}
{"geometry": {"coordinates": [-81.068975067, 40.064372928], "type": "Point"}, "id": "4K754nzAn6Dwiu-hotL9c80Qs1U=", "properties": {"@source_uri": "https://tools.usps.com/UspsToolsRestServices/rest/POLocator/findLocations", "@spider": "usps_collection_boxes", "addr:city": "MORRISTOWN", "addr:country": "US", "addr:postcode": "43759", "addr:state": "OH", "addr:street_address": "126 E MAIN ST", "amenity": "post_box", "collection_times": "Mo-Fr 12:30; Sa 10:15", "note": "ON 12/24 AND 12/31, THIS BOX MAY BE COLLECTED AS EARLY AS 12 NOON.", "nsi_id": "unitedstatespostalservice-a77078", "operator": "United States Postal Service", "operator:short": "USPS", "operator:type": "public", "operator:wikidata": "Q668687", "ref": "4375900000"}, "type": "Feature"}
{"geometry": {"coordinates": [-81.068975067, 40.064372928], "type": "Point"}, "id": "sj3E0LA-e08uQmsL1MtBgymfrKQ=", "properties": {"@source_uri": "https://tools.usps.com/UspsToolsRestServices/rest/POLocator/findLocations", "@spider": "usps_collection_boxes", "addr:city": "MORRISTOWN", "addr:country": "US", "addr:postcode": "43759", "addr:state": "OH", "addr:street_address": "126 E MAIN ST", "amenity": "post_box", "collection_times": "Mo-Fr 12:30; Sa 10:15", "indoor": "yes", "note": "ON 12/24 AND 12/31, THIS BOX MAY BE COLLECTED AS EARLY AS 12 NOON.", "nsi_id": "unitedstatespostalservice-a77078", "operator": "United States Postal Service", "operator:short": "USPS", "operator:type": "public", "operator:wikidata": "Q668687", "ref": "4375900001"}, "type": "Feature"}
{"geometry": {"coordinates": [-81.068975067, 40.064372928], "type": "Point"}, "id": "0hbmAqF4EofwwSm9EloUcLnwjf0=", "properties": {"@source_uri": "https://tools.usps.com/UspsToolsRestServices/rest/POLocator/findLocations", "@spider": "usps_collection_boxes", "addr:city": "MORRISTOWN", "addr:country": "US", "addr:postcode": "43759", "addr:state": "OH", "addr:street_address": "126 E MAIN ST", "amenity": "post_box", "collection_times": "Mo-Fr 14:00; Sa 10:15", "indoor": "yes", "note": "ON 12/24 AND 12/31, THIS BOX MAY BE COLLECTED AS EARLY AS 12 NOON.", "nsi_id": "unitedstatespostalservice-a77078", "operator": "United States Postal Service", "operator:short": "USPS", "operator:type": "public", "operator:wikidata": "Q668687", "ref": "4375900003"}, "type": "Feature"}
{"geometry": {"coordinates": [-82.136100062, 39.662736337], "type": "Point"}, "id": "YqRLXiGbAvMfxFjdj2WPqZOvRgM=", "properties": {"@source_uri": "https://tools.usps.com/UspsToolsRestServices/rest/POLocator/findLocations", "@spider": "usps_collection_boxes", "addr:city": "MOXAHALA", "addr:country": "US", "addr:postcode": "43761", "addr:state": "OH", "addr:street_address": "3310 STATE ROUTE 13 SE", "amenity": "post_box", "collection_times": "Mo-Fr 10:30; Sa 10:15", "nsi_id": "unitedstatespostalservice-a77078", "operator": "United States Postal Service", "operator:short": "USPS", "operator:type": "public", "operator:wikidata": "Q668687", "ref": "4376100000"}, "type": "Feature"}
{"geometry": {"coordinates": [-82.136100062, 39.662736337], "type": "Point"}, "id": "5DYeqUwM-luQj8RK5dY-AHysVIM=", "properties": {"@source_uri": "https://tools.usps.com/UspsToolsRestServices/rest/POLocator/findLocations", "@spider": "usps_collection_boxes", "addr:city": "MOXAHALA", "addr:country": "US", "addr:postcode": "43761", "addr:state": "OH", "addr:street_address": "3310 STATE ROUTE 13 SE", "amenity": "post_box", "collection_times": "Mo-Fr 10:30; Sa 10:15", "indoor": "yes", "nsi_id": "unitedstatespostalservice-a77078", "operator": "United States Postal Service", "operator:short": "USPS", "operator:type": "public", "operator:wikidata": "Q668687", "ref": "4376100001"}, "type": "Feature"}
{"geometry": {"coordinates": [-82.136100062, 39.662736337], "type": "Point"}, "id": "iBQsuJ_0lrkeDo9QeUsTSi_n6bo=", "properties": {"@source_uri": "https://tools.usps.com/UspsToolsRestServices/rest/POLocator/findLocations", "@spider": "usps_collection_boxes", "addr:city": "MOXAHALA", "addr:country": "US", "addr:postcode": "43761", "addr:state": "OH", "addr:street_address": "3310 STATE ROUTE 13 SE", "amenity": "post_box", "collection_times": "Mo-Fr 11:00; Sa 10:30", "indoor": "yes", "nsi_id": "unitedstatespostalservice-a77078", "operator": "United States Postal Service", "operator:short": "USPS", "operator:type": "public", "operator:wikidata": "Q668687", "ref": "4376100003"}, "type": "Feature"}
{"geometry": {"coordinates": [-81.73543303, 39.993603483], "type": "Point"}, "id": "2QJd7s7bGIwuPBxxyBsmbBqfhP0=", "properties": {"@source_uri": "https://tools.usps.com/UspsToolsRestServices/rest/POLocator/findLocations", "@spider": "usps_collection_boxes", "addr:city": "NEW CONCORD", "addr:country": "US", "addr:postcode": "43762", "addr:state": "OH", "addr:street_address": "61 W MAIN ST", "amenity": "post_box", "collection_times": "Mo-Fr 16:45; Sa 12:00", "note": "ON 12/24 AND 12/31, THIS BOX MAY BE COLLECTED AS EARLY AS 12 NOON.", "nsi_id": "unitedstatespostalservice-a77078", "operator": "United States Postal Service", "operator:short": "USPS", "operator:type": "public", "operator:wikidata": "Q668687", "ref": "4376200002"}, "type": "Feature"}
{"geometry": {"coordinates": [-81.7321164, 39.993716], "type": "Point"}, "id": "Qatr0k3qxDEktWXMEH4htyoro7A=", "properties": {"@source_uri": "https://tools.usps.com/UspsToolsRestServices/rest/POLocator/findLocations", "@spider": "usps_collection_boxes", "addr:city": "NEW CONCORD", "addr:country": "US", "addr:postcode": "43762", "addr:state": "OH", "addr:street_address": "41 E MAIN ST", "amenity": "post_box", "collection_times": "Mo-Sa 09:00", "nsi_id": "unitedstatespostalservice-a77078", "operator": "United States Postal Service", "operator:short": "USPS", "operator:type": "public", "operator:wikidata": "Q668687", "ref": "4376200003"}, "type": "Feature"}
{"geometry": {"coordinates": [-81.7402699, 39.993174], "type": "Point"}, "id": "pxnzhi3eZ6PrZ7D-TRIttONxqGo=", "properties": {"@source_uri": "https://tools.usps.com/UspsToolsRestServices/rest/POLocator/findLocations", "@spider": "usps_collection_boxes", "addr:city": "NEW CONCORD", "addr:country": "US", "addr:postcode": "43762", "addr:state": "OH", "addr:street_address": "168 W MAIN ST", "amenity": "post_box", "collection_times": "Mo-Sa 09:30", "nsi_id": "unitedstatespostalservice-a77078", "operator": "United States Postal Service", "operator:short": "USPS", "operator:type": "public", "operator:wikidata": "Q668687", "ref": "4376200004"}, "type": "Feature"}
{"geometry": {"coordinates": [-81.73543303, 39.993603483], "type": "Point"}, "id": "LdvZve9FnsC40FT6WEZgLHH__TU=", "properties": {"@source_uri": "https://tools.usps.com/UspsToolsRestServices/rest/POLocator/findLocations", "@spider": "usps_collection_boxes", "addr:city": "NEW CONCORD", "addr:country": "US", "addr:postcode": "43762", "addr:state": "OH", "addr:street_address": "61 W MAIN ST", "amenity": "post_box", "collection_times": "Mo-Fr 16:45; Sa 12:00", "indoor": "yes", "note": "ON 12/24 AND 12/31, THIS BOX MAY BE COLLECTED AS EARLY AS 12 NOON.", "nsi_id": "unitedstatespostalservice-a77078", "operator": "United States Postal Service", "operator:short": "USPS", "operator:type": "public", "operator:wikidata": "Q668687", "ref": "4376200008"}, "type": "Feature"}
{"geometry": {"coordinates": [-81.73543303, 39.993603483], "type": "Point"}, "id": "yJsbYy5lxZ4dKPTnWAqbSbi5er0=", "properties": {"@source_uri": "https://tools.usps.com/UspsToolsRestServices/rest/POLocator/findLocations", "@spider": "usps_collection_boxes", "addr:city": "NEW CONCORD", "addr:country": "US", "addr:postcode": "43762", "addr:state": "OH", "addr:street_address": "61 W MAIN ST", "amenity": "post_box", "collection_times": "Mo-Fr 16:30; Sa 12:00", "indoor": "yes", "note": "ON 12/24 AND 12/31, THIS BOX MAY BE COLLECTED AS EARLY AS 12 NOON.", "nsi_id": "unitedstatespostalservice-a77078", "operator": "United States Postal Service", "operator:short": "USPS", "operator:type": "public", "operator:wikidata": "Q668687", "ref": "4376200013"}, "type": "Feature"}
{"geometry": {"coordinates": [-82.208805, 39.713502], "type": "Point"}, "id": "Ifz-fiIovG6a1SiA2QTloxAp-DE=", "properties": {"@source_uri": "https://tools.usps.com/UspsToolsRestServices/rest/POLocator/findLocations", "@spider": "usps_collection_boxes", "addr:city": "NEW LEXINGTON", "addr:country": "US", "addr:postcode": "43764", "addr:state": "OH", "addr:street_address": "200 W BROWN ST REAR", "amenity": "post_box", "collection_times": "Mo-Fr 16:45; Sa 15:00", "note": "ON 12/24 AND 12/31, THIS BOX MAY BE COLLECTED AS EARLY AS 12 NOON.", "nsi_id": "unitedstatespostalservice-a77078", "operator": "United States Postal Service", "operator:short": "USPS", "operator:type": "public", "operator:wikidata": "Q668687", "ref": "4376400001"}, "type": "Feature"}
{"geometry": {"coordinates": [-82.2101389, 39.717693], "type": "Point"}, "id": "annjgYn3rRxCG8-AUlvH3c2YI1I=", "properties": {"@source_uri": "https://tools.usps.com/UspsToolsRestServices/rest/POLocator/findLocations", "@spider": "usps_collection_boxes", "addr:city": "NEW LEXINGTON", "addr:country": "US", "addr:postcode": "43764", "addr:state": "OH", "addr:street_address": "510 N MAIN ST", "amenity": "post_box", "collection_times": "Mo-Sa 12:00", "nsi_id": "unitedstatespostalservice-a77078", "operator": "United States Postal Service", "operator:short": "USPS", "operator:type": "public", "operator:wikidata": "Q668687", "ref": "4376400002"}, "type": "Feature"}
{"geometry": {"coordinates": [-82.2035674, 39.721768], "type": "Point"}, "id": "wCxIHRoVrMndPhO73preju_CJD0=", "properties": {"@source_uri": "https://tools.usps.com/UspsToolsRestServices/rest/POLocator/findLocations", "@spider": "usps_collection_boxes", "addr:city": "NEW LEXINGTON", "addr:country": "US", "addr:postcode": "43764", "addr:state": "OH", "addr:street_address": "610 CARROLL ST", "amenity": "post_box", "collection_times": "Mo-Sa 12:00", "nsi_id": "unitedstatespostalservice-a77078", "operator": "United States Postal Service", "operator:short": "USPS", "operator:type": "public", "operator:wikidata": "Q668687", "ref": "4376400003"}, "type": "Feature"}
{"geometry": {"coordinates": [-82.208964735, 39.713377201], "type": "Point"}, "id": "kto9iyHpZC1hpeIvQi5OOE1P12s=", "properties": {"@source_uri": "https://tools.usps.com/UspsToolsRestServices/rest/POLocator/findLocations", "@spider": "usps_collection_boxes", "addr:city": "NEW LEXINGTON", "addr:country": "US", "addr:postcode": "43764", "addr:state": "OH", "addr:street_address": "200 W BROWN ST", "amenity": "post_box", "collection_times": "Mo-Fr 16:45; Sa 15:00", "indoor": "yes", "note": "ON 12/24 AND 12/31, THIS BOX MAY BE COLLECTED AS EARLY AS 12 NOON.", "nsi_id": "unitedstatespostalservice-a77078", "operator": "United States Postal Service", "operator:short": "USPS", "operator:type": "public", "operator:wikidata": "Q668687", "ref": "4376400006"}, "type": "Feature"}
{"geometry": {"coordinates": [-82.208964735, 39.713377201], "type": "Point"}, "id": "W6XEnJl_WTraRiMQDUfk_noSOio=", "properties": {"@source_uri": "https://tools.usps.com/UspsToolsRestServices/rest/POLocator/findLocations", "@spider": "usps_collection_boxes", "addr:city": "NEW LEXINGTON", "addr:country": "US", "addr:postcode": "43764", "addr:state": "OH", "addr:street_address": "200 W BROWN ST", "amenity": "post_box", "collection_times": "Mo-Fr 16:30; Sa 12:00", "indoor": "yes", "note": "ON 12/24 AND 12/31, THIS BOX MAY BE COLLECTED AS EARLY AS 12 NOON.", "nsi_id": "unitedstatespostalservice-a77078", "operator": "United States Postal Service", "operator:short": "USPS", "operator:type": "public", "operator:wikidata": "Q668687", "ref": "4376400012"}, "type": "Feature"}
{"geometry": {"coordinates": [-82.240349275, 39.578907039], "type": "Point"}, "id": "NSLTg7ZTP-Pq2NL8MQL-VoKbzgI=", "properties": {"@source_uri": "https://tools.usps.com/UspsToolsRestServices/rest/POLocator/findLocations", "@spider": "usps_collection_boxes", "addr:city": "NEW STRAITSVL", "addr:country": "US", "addr:postcode": "43766", "addr:state": "OH", "addr:street_address": "214 W MAIN ST", "amenity": "post_box", "collection_times": "Mo-Fr 15:45; Sa 14:15", "note": "ON 12/24 AND 12/31, THIS BOX MAY BE COLLECTED AS EARLY AS 12 NOON.", "nsi_id": "unitedstatespostalservice-a77078", "operator": "United States Postal Service", "operator:short": "USPS", "operator:type": "public", "operator:wikidata": "Q668687", "ref": "4376600000"}, "type": "Feature"}
{"geometry": {"coordinates": [-82.240349275, 39.578907039], "type": "Point"}, "id": "Fv-_TxPgAJ3DwFeRgQEUqcUWn8c=", "properties": {"@source_uri": "https://tools.usps.com/UspsToolsRestServices/rest/POLocator/findLocations", "@spider": "usps_collection_boxes", "addr:city": "NEW STRAITSVL", "addr:country": "US", "addr:postcode": "43766", "addr:state": "OH", "addr:street_address": "214 W MAIN ST", "amenity": "post_box", "collection_times": "Mo-Fr 15:45; Sa 14:15", "indoor": "yes", "note": "ON 12/24 AND 12/31, THIS BOX MAY BE COLLECTED AS EARLY AS 12 NOON.", "nsi_id": "unitedstatespostalservice-a77078", "operator": "United States Postal Service", "operator:short": "USPS", "operator:type": "public", "operator:wikidata": "Q668687", "ref": "4376600001"}, "type": "Feature"}
{"geometry": {"coordinates": [-82.240349275, 39.578907039], "type": "Point"}, "id": "QMEeLeuAMrQioORW6zXlPGoZJEU=", "properties": {"@source_uri": "https://tools.usps.com/UspsToolsRestServices/rest/POLocator/findLocations", "@spider": "usps_collection_boxes", "addr:city": "NEW STRAITSVL", "addr:country": "US", "addr:postcode": "43766", "addr:state": "OH", "addr:street_address": "214 W MAIN ST", "amenity": "post_box", "collection_times": "Mo-Fr 16:00; Sa 14:45", "indoor": "yes", "note": "ON 12/24 AND 12/31, THIS BOX MAY BE COLLECTED AS EARLY AS 12 NOON.", "nsi_id": "unitedstatespostalservice-a77078", "operator": "United States Postal Service", "operator:short": "USPS", "operator:type": "public", "operator:wikidata": "Q668687", "ref": "4376600005"}, "type": "Feature"}
{"geometry": {"coordinates": [-81.792497739, 39.985109245], "type": "Point"}, "id": "vm01GNCs59LP6lO1WtvCLshIqeo=", "properties": {"@source_uri": "https://tools.usps.com/UspsToolsRestServices/rest/POLocator/findLocations", "@spider": "usps_collection_boxes", "addr:city": "NORWICH", "addr:country": "US", "addr:postcode": "43767", "addr:state": "OH", "addr:street_address": "10445 MAIN ST", "amenity": "post_box", "collection_times": "Mo-Fr 16:00; Sa 10:15", "note": "ON 12/24 AND 12/31, THIS BOX MAY BE COLLECTED AS EARLY AS 12 NOON.", "nsi_id": "unitedstatespostalservice-a77078", "operator": "United States Postal Service", "operator:short": "USPS", "operator:type": "public", "operator:wikidata": "Q668687", "ref": "4376700000"}, "type": "Feature"}
{"geometry": {"coordinates": [-81.792497739, 39.985109245], "type": "Point"}, "id": "iX-dh4rJ-LozHI4IcrUETPz7YQI=", "properties": {"@source_uri": "https://tools.usps.com/UspsToolsRestServices/rest/POLocator/findLocations", "@spider": "usps_collection_boxes", "addr:city": "NORWICH", "addr:country": "US", "addr:postcode": "43767", "addr:state": "OH", "addr:street_address": "10445 MAIN ST", "amenity": "post_box", "collection_times": "Mo-Fr 16:00; Sa 10:15", "indoor": "yes", "note": "ON 12/24 AND 12/31, THIS BOX MAY BE COLLECTED AS EARLY AS 12 NOON.", "nsi_id": "unitedstatespostalservice-a77078", "operator": "United States Postal Service", "operator:short": "USPS", "operator:type": "public", "operator:wikidata": "Q668687", "ref": "4376700001"}, "type": "Feature"}
{"geometry": {"coordinates": [-81.792497739, 39.985109245], "type": "Point"}, "id": "3qhRuLll2uywQ4NOkaWi6ZKOjFw=", "properties": {"@source_uri": "https://tools.usps.com/UspsToolsRestServices/rest/POLocator/findLocations", "@spider": "usps_collection_boxes", "addr:city": "NORWICH", "addr:country": "US", "addr:postcode": "43767", "addr:state": "OH", "addr:street_address": "10445 MAIN ST", "amenity": "post_box", "collection_times": "Mo-Fr 16:30; Sa 12:30", "indoor": "yes", "note": "ON 12/24 AND 12/31, THIS BOX MAY BE COLLECTED AS EARLY AS 12 NOON.", "nsi_id": "unitedstatespostalservice-a77078", "operator": "United States Postal Service", "operator:short": "USPS", "operator:type": "public", "operator:wikidata": "Q668687", "ref": "4376700004"}, "type": "Feature"}
{"geometry": {"coordinates": [-81.444346329, 40.038402762], "type": "Point"}, "id": "JrUDgygbRGI81uXfz4osWm1y_dI=", "properties": {"@source_uri": "https://tools.usps.com/UspsToolsRestServices/rest/POLocator/findLocations", "@spider": "usps_collection_boxes", "addr:city": "OLD WASHINGTON", "addr:country": "US", "addr:postcode": "43768", "addr:state": "OH", "addr:street_address": "204 OLD NATIONAL RD", "amenity": "post_box", "collection_times": "Mo-Fr 11:30; Sa 10:15", "nsi_id": "unitedstatespostalservice-a77078", "operator": "United States Postal Service", "operator:short": "USPS", "operator:type": "public", "operator:wikidata": "Q668687", "ref": "4376800000"}, "type": "Feature"}
{"geometry": {"coordinates": [-81.444346329, 40.038402762], "type": "Point"}, "id": "49sJXeiNM7XocOs6S7HTFwn4oFk=", "properties": {"@source_uri": "https://tools.usps.com/UspsToolsRestServices/rest/POLocator/findLocations", "@spider": "usps_collection_boxes", "addr:city": "OLD WASHINGTON", "addr:country": "US", "addr:postcode": "43768", "addr:state": "OH", "addr:street_address": "204 OLD NATIONAL RD", "amenity": "post_box", "collection_times": "Mo-Fr 11:30; Sa 10:15", "indoor": "yes", "nsi_id": "unitedstatespostalservice-a77078", "operator": "United States Postal Service", "operator:short": "USPS", "operator:type": "public", "operator:wikidata": "Q668687", "ref": "4376800001"}, "type": "Feature"}
{"geometry": {"coordinates": [-81.444346329, 40.038402762], "type": "Point"}, "id": "zhddq2Fu859k-OgZ-GGOODo6U_c=", "properties": {"@source_uri": "https://tools.usps.com/UspsToolsRestServices/rest/POLocator/findLocations", "@spider": "usps_collection_boxes", "addr:city": "OLD WASHINGTON", "addr:country": "US", "addr:postcode": "43768", "addr:state": "OH", "addr:street_address": "204 OLD NATIONAL RD", "amenity": "post_box", "collection_times": "Mo-Fr 12:00; Sa 10:15", "indoor": "yes", "nsi_id": "unitedstatespostalservice-a77078", "operator": "United States Postal Service", "operator:short": "USPS", "operator:type": "public", "operator:wikidata": "Q668687", "ref": "4376800003"}, "type": "Feature"}
{"geometry": {"coordinates": [-81.908637851, 39.861707721], "type": "Point"}, "id": "j_IiOI1m8AxB7uuqpf_6q1dTvkM=", "properties": {"@source_uri": "https://tools.usps.com/UspsToolsRestServices/rest/POLocator/findLocations", "@spider": "usps_collection_boxes", "addr:city": "PHILO", "addr:country": "US", "addr:postcode": "43771", "addr:state": "OH", "addr:street_address": "265 MAIN ST", "amenity": "post_box", "collection_times": "Mo-Fr 16:00; Sa 10:15", "note": "ON 12/24 AND 12/31, THIS BOX MAY BE COLLECTED AS EARLY AS 12 NOON.", "nsi_id": "unitedstatespostalservice-a77078", "operator": "United States Postal Service", "operator:short": "USPS", "operator:type": "public", "operator:wikidata": "Q668687", "ref": "4377100000"}, "type": "Feature"}
{"geometry": {"coordinates": [-81.908637851, 39.861707721], "type": "Point"}, "id": "4ohq86LIBM2nBdU62W-aak2Md28=", "properties": {"@source_uri": "https://tools.usps.com/UspsToolsRestServices/rest/POLocator/findLocations", "@spider": "usps_collection_boxes", "addr:city": "PHILO", "addr:country": "US", "addr:postcode": "43771", "addr:state": "OH", "addr:street_address": "265 MAIN ST", "amenity": "post_box", "collection_times": "Mo-Fr 16:00; Sa 10:15", "indoor": "yes", "note": "ON 12/24 AND 12/31, THIS BOX MAY BE COLLECTED AS EARLY AS 12 NOON.", "nsi_id": "unitedstatespostalservice-a77078", "operator": "United States Postal Service", "operator:short": "USPS", "operator:type": "public", "operator:wikidata": "Q668687", "ref": "4377100001"}, "type": "Feature"}
{"geometry": {"coordinates": [-81.908637851, 39.861707721], "type": "Point"}, "id": "rfLS2CBl9zIdbEV_oyiQOB3ioSA=", "properties": {"@source_uri": "https://tools.usps.com/UspsToolsRestServices/rest/POLocator/findLocations", "@spider": "usps_collection_boxes", "addr:city": "PHILO", "addr:country": "US", "addr:postcode": "43771", "addr:state": "OH", "addr:street_address": "265 MAIN ST", "amenity": "post_box", "collection_times": "Mo-Fr 16:15; Sa 11:00", "indoor": "yes", "note": "ON 12/24 AND 12/31, THIS BOX MAY BE COLLECTED AS EARLY AS 12 NOON.", "nsi_id": "unitedstatespostalservice-a77078", "operator": "United States Postal Service", "operator:short": "USPS", "operator:type": "public", "operator:wikidata": "Q668687", "ref": "4377100005"}, "type": "Feature"}
{"geometry": {"coordinates": [-81.546755165, 39.903616897], "type": "Point"}, "id": "wbRY0jl3AO05PwMqYwou1l5U0ko=", "properties": {"@source_uri": "https://tools.usps.com/UspsToolsRestServices/rest/POLocator/findLocations", "@spider": "usps_collection_boxes", "addr:city": "PLEASANT CITY", "addr:country": "US", "addr:postcode": "43772", "addr:state": "OH", "addr:street_address": "210 MAIN ST", "amenity": "post_box", "collection_times": "Mo-Fr 13:30; Sa 10:15", "note": "ON 12/24 AND 12/31, THIS BOX MAY BE COLLECTED AS EARLY AS 12 NOON.", "nsi_id": "unitedstatespostalservice-a77078", "operator": "United States Postal Service", "operator:short": "USPS", "operator:type": "public", "operator:wikidata": "Q668687", "ref": "4377200000"}, "type": "Feature"}
{"geometry": {"coordinates": [-81.546755165, 39.903616897], "type": "Point"}, "id": "i4kQIOsox-oqiLbrCUAnoDBIJl8=", "properties": {"@source_uri": "https://tools.usps.com/UspsToolsRestServices/rest/POLocator/findLocations", "@spider": "usps_collection_boxes", "addr:city": "PLEASANT CITY", "addr:country": "US", "addr:postcode": "43772", "addr:state": "OH", "addr:street_address": "210 MAIN ST", "amenity": "post_box", "collection_times": "Mo-Fr 13:45; Sa 10:15", "indoor": "yes", "note": "ON 12/24 AND 12/31, THIS BOX MAY BE COLLECTED AS EARLY AS 12 NOON.", "nsi_id": "unitedstatespostalservice-a77078", "operator": "United States Postal Service", "operator:short": "USPS", "operator:type": "public", "operator:wikidata": "Q668687", "ref": "4377200001"}, "type": "Feature"}
{"geometry": {"coordinates": [-81.546755165, 39.903616897], "type": "Point"}, "id": "tt9ttK7zdl3fFLnlrvLujtawD7I=", "properties": {"@source_uri": "https://tools.usps.com/UspsToolsRestServices/rest/POLocator/findLocations", "@spider": "usps_collection_boxes", "addr:city": "PLEASANT CITY", "addr:country": "US", "addr:postcode": "43772", "addr:state": "OH", "addr:street_address": "210 MAIN ST", "amenity": "post_box", "collection_times": "Mo-Fr 13:45; Sa 10:15", "indoor": "yes", "note": "ON 12/24 AND 12/31, THIS BOX MAY BE COLLECTED AS EARLY AS 12 NOON.", "nsi_id": "unitedstatespostalservice-a77078", "operator": "United States Postal Service", "operator:short": "USPS", "operator:type": "public", "operator:wikidata": "Q668687", "ref": "4377200005"}, "type": "Feature"}
{"geometry": {"coordinates": [-81.298438204, 39.971208803], "type": "Point"}, "id": "dk8n8xznE0g0VymBQrGSgf75apY=", "properties": {"@source_uri": "https://tools.usps.com/UspsToolsRestServices/rest/POLocator/findLocations", "@spider": "usps_collection_boxes", "addr:city": "QUAKER CITY", "addr:country": "US", "addr:postcode": "43773", "addr:state": "OH", "addr:street_address": "151 SOUTH ST", "amenity": "post_box", "collection_times": "Mo-Fr 15:45; Sa 10:45", "note": "ON 12/24 AND 12/31, THIS BOX MAY BE COLLECTED AS EARLY AS 12 NOON.", "nsi_id": "unitedstatespostalservice-a77078", "operator": "United States Postal Service", "operator:short": "USPS", "operator:type": "public", "operator:wikidata": "Q668687", "ref": "4377300000"}, "type": "Feature"}
{"geometry": {"coordinates": [-81.298438204, 39.971208803], "type": "Point"}, "id": "_6bUKXYDYV9_ZhuKnP1TvmAX1Qo=", "properties": {"@source_uri": "https://tools.usps.com/UspsToolsRestServices/rest/POLocator/findLocations", "@spider": "usps_collection_boxes", "addr:city": "QUAKER CITY", "addr:country": "US", "addr:postcode": "43773", "addr:state": "OH", "addr:street_address": "151 SOUTH ST", "amenity": "post_box", "collection_times": "Mo-Fr 15:45; Sa 10:45", "indoor": "yes", "note": "ON 12/24 AND 12/31, THIS BOX MAY BE COLLECTED AS EARLY AS 12 NOON.", "nsi_id": "unitedstatespostalservice-a77078", "operator": "United States Postal Service", "operator:short": "USPS", "operator:type": "public", "operator:wikidata": "Q668687", "ref": "4377300001"}, "type": "Feature"}
{"geometry": {"coordinates": [-81.298438204, 39.971208803], "type": "Point"}, "id": "VgIFUK2R2-yUTJ_5HEfL6wjKrYc=", "properties": {"@source_uri": "https://tools.usps.com/UspsToolsRestServices/rest/POLocator/findLocations", "@spider": "usps_collection_boxes", "addr:city": "QUAKER CITY", "addr:country": "US", "addr:postcode": "43773", "addr:state": "OH", "addr:street_address": "151 SOUTH ST", "amenity": "post_box", "collection_times": "Mo-Fr 16:00; Sa 11:00", "indoor": "yes", "note": "ON 12/24 AND 12/31, THIS BOX MAY BE COLLECTED AS EARLY AS 12 NOON.", "nsi_id": "unitedstatespostalservice-a77078", "operator": "United States Postal Service", "operator:short": "USPS", "operator:type": "public", "operator:wikidata": "Q668687", "ref": "4377300011"}, "type": "Feature"}
{"geometry": {"coordinates": [-82.0728128, 39.805045], "type": "Point"}, "id": "Sbnh1YhFdLh7IhKJH1wEzJhRMiU=", "properties": {"@source_uri": "https://tools.usps.com/UspsToolsRestServices/rest/POLocator/findLocations", "@spider": "usps_collection_boxes", "addr:city": "ROSEVILLE", "addr:country": "US", "addr:postcode": "43777", "addr:state": "OH", "addr:street_address": "55 N MAIN ST", "amenity": "post_box", "collection_times": "Mo-Sa 09:00", "nsi_id": "unitedstatespostalservice-a77078", "operator": "United States Postal Service", "operator:short": "USPS", "operator:type": "public", "operator:wikidata": "Q668687", "ref": "4377700004"}, "type": "Feature"}
{"geometry": {"coordinates": [-82.072374996, 39.808646571], "type": "Point"}, "id": "WI_KXM1LUwwlCIUpzTMFDVjhNp0=", "properties": {"@source_uri": "https://tools.usps.com/UspsToolsRestServices/rest/POLocator/findLocations", "@spider": "usps_collection_boxes", "addr:city": "ROSEVILLE", "addr:country": "US", "addr:postcode": "43777", "addr:state": "OH", "addr:street_address": "226 N MAIN ST", "amenity": "post_box", "collection_times": "Mo-Fr 16:00; Sa 11:30", "note": "ON 12/24 AND 12/31, THIS BOX MAY BE COLLECTED AS EARLY AS 12 NOON.", "nsi_id": "unitedstatespostalservice-a77078", "operator": "United States Postal Service", "operator:short": "USPS", "operator:type": "public", "operator:wikidata": "Q668687", "ref": "4377700005"}, "type": "Feature"}
{"geometry": {"coordinates": [-82.072374996, 39.808646571], "type": "Point"}, "id": "6uvxrgAL8T7jkq1FzyqayN25yt4=", "properties": {"@source_uri": "https://tools.usps.com/UspsToolsRestServices/rest/POLocator/findLocations", "@spider": "usps_collection_boxes", "addr:city": "ROSEVILLE", "addr:country": "US", "addr:postcode": "43777", "addr:state": "OH", "addr:street_address": "226 N MAIN ST", "amenity": "post_box", "collection_times": "Mo-Fr 16:00; Sa 11:30", "indoor": "yes", "note": "ON 12/24 AND 12/31, THIS BOX MAY BE COLLECTED AS EARLY AS 12 NOON.", "nsi_id": "unitedstatespostalservice-a77078", "operator": "United States Postal Service", "operator:short": "USPS", "operator:type": "public", "operator:wikidata": "Q668687", "ref": "4377700007"}, "type": "Feature"}
{"geometry": {"coordinates": [-82.072374996, 39.808646571], "type": "Point"}, "id": "WIoLzju9Zhz5R0yelO_Pw1_ynG8=", "properties": {"@source_uri": "https://tools.usps.com/UspsToolsRestServices/rest/POLocator/findLocations", "@spider": "usps_collection_boxes", "addr:city": "ROSEVILLE", "addr:country": "US", "addr:postcode": "43777", "addr:state": "OH", "addr:street_address": "226 N MAIN ST", "amenity": "post_box", "collection_times": "Mo-Fr 16:00; Sa 11:30", "indoor": "yes", "note": "ON 12/24 AND 12/31, THIS BOX MAY BE COLLECTED AS EARLY AS 12 NOON.", "nsi_id": "unitedstatespostalservice-a77078", "operator": "United States Postal Service", "operator:short": "USPS", "operator:type": "public", "operator:wikidata": "Q668687", "ref": "4377700014"}, "type": "Feature"}
{"geometry": {"coordinates": [-81.462374238, 39.935057542], "type": "Point"}, "id": "WDYyB6N579GCcO0h061CQEO8HOI=", "properties": {"@source_uri": "https://tools.usps.com/UspsToolsRestServices/rest/POLocator/findLocations", "@spider": "usps_collection_boxes", "addr:city": "SENECAVILLE", "addr:country": "US", "addr:postcode": "43780", "addr:state": "OH", "addr:street_address": "206 HIGH ST", "amenity": "post_box", "collection_times": "Mo-Fr 13:30; Sa 10:45", "note": "ON 12/24 AND 12/31, THIS BOX MAY BE COLLECTED AS EARLY AS 12 NOON.", "nsi_id": "unitedstatespostalservice-a77078", "operator": "United States Postal Service", "operator:short": "USPS", "operator:type": "public", "operator:wikidata": "Q668687", "ref": "4378000000"}, "type": "Feature"}
{"geometry": {"coordinates": [-81.462374238, 39.935057542], "type": "Point"}, "id": "iXJqxjg4x9FQziNfAv2oNePSatQ=", "properties": {"@source_uri": "https://tools.usps.com/UspsToolsRestServices/rest/POLocator/findLocations", "@spider": "usps_collection_boxes", "addr:city": "SENECAVILLE", "addr:country": "US", "addr:postcode": "43780", "addr:state": "OH", "addr:street_address": "206 HIGH ST", "amenity": "post_box", "collection_times": "Mo-Fr 13:45; Sa 10:45", "indoor": "yes", "note": "ON 12/24 AND 12/31, THIS BOX MAY BE COLLECTED AS EARLY AS 12 NOON.", "nsi_id": "unitedstatespostalservice-a77078", "operator": "United States Postal Service", "operator:short": "USPS", "operator:type": "public", "operator:wikidata": "Q668687", "ref": "4378000001"}, "type": "Feature"}
{"geometry": {"coordinates": [-81.462374238, 39.935057542], "type": "Point"}, "id": "dCibeRb3VE7deRQFk3WVHyqIZTc=", "properties": {"@source_uri": "https://tools.usps.com/UspsToolsRestServices/rest/POLocator/findLocations", "@spider": "usps_collection_boxes", "addr:city": "SENECAVILLE", "addr:country": "US", "addr:postcode": "43780", "addr:state": "OH", "addr:street_address": "206 HIGH ST", "amenity": "post_box", "collection_times": "Mo-Fr 13:45; Sa 11:00", "indoor": "yes", "note": "ON 12/24 AND 12/31, THIS BOX MAY BE COLLECTED AS EARLY AS 12 NOON.", "nsi_id": "unitedstatespostalservice-a77078", "operator": "United States Postal Service", "operator:short": "USPS", "operator:type": "public", "operator:wikidata": "Q668687", "ref": "4378000005"}, "type": "Feature"}
{"geometry": {"coordinates": [-82.2115799, 39.604238], "type": "Point"}, "id": "mNe5AVkC6WsBMsYDrvrl5j-rTs8=", "properties": {"@source_uri": "https://tools.usps.com/UspsToolsRestServices/rest/POLocator/findLocations", "@spider": "usps_collection_boxes", "addr:city": "SHAWNEE", "addr:country": "US", "addr:postcode": "43782", "addr:state": "OH", "addr:street_address": "111 2ND ST", "amenity": "post_box", "collection_times": "Mo-Sa 10:30", "nsi_id": "unitedstatespostalservice-a77078", "operator": "United States Postal Service", "operator:short": "USPS", "operator:type": "public", "operator:wikidata": "Q668687", "ref": "4378200000"}, "type": "Feature"}
{"geometry": {"coordinates": [-82.2996047, 39.807369], "type": "Point"}, "id": "vN72sts1ZYVcYFu_LZWV51coa0Y=", "properties": {"@source_uri": "https://tools.usps.com/UspsToolsRestServices/rest/POLocator/findLocations", "@spider": "usps_collection_boxes", "addr:city": "SOMERSET", "addr:country": "US", "addr:postcode": "43783", "addr:state": "OH", "addr:street_address": "100 PUBLIC SQ", "amenity": "post_box", "collection_times": "Mo-Sa 12:00", "nsi_id": "unitedstatespostalservice-a77078", "operator": "United States Postal Service", "operator:short": "USPS", "operator:type": "public", "operator:wikidata": "Q668687", "ref": "4378300000"}, "type": "Feature"}
{"geometry": {"coordinates": [-82.294551514, 39.801963352], "type": "Point"}, "id": "Pw2Mfmw_Et3BY85Z00ifGhogBKo=", "properties": {"@source_uri": "https://tools.usps.com/UspsToolsRestServices/rest/POLocator/findLocations", "@spider": "usps_collection_boxes", "addr:city": "SOMERSET", "addr:country": "US", "addr:postcode": "43783", "addr:state": "OH", "addr:street_address": "320 S COLUMBUS ST", "amenity": "post_box", "collection_times": "Mo-Fr 16:30; Sa 11:15", "indoor": "yes", "note": "ON 12/24 AND 12/31, THIS BOX MAY BE COLLECTED AS EARLY AS 12 NOON.", "nsi_id": "unitedstatespostalservice-a77078", "operator": "United States Postal Service", "operator:short": "USPS", "operator:type": "public", "operator:wikidata": "Q668687", "ref": "4378300001"}, "type": "Feature"}
{"geometry": {"coordinates": [-82.294551514, 39.801963352], "type": "Point"}, "id": "0iIJxLV2CVGahXw5smvTbJSzpzU=", "properties": {"@source_uri": "https://tools.usps.com/UspsToolsRestServices/rest/POLocator/findLocations", "@spider": "usps_collection_boxes", "addr:city": "SOMERSET", "addr:country": "US", "addr:postcode": "43783", "addr:state": "OH", "addr:street_address": "320 S COLUMBUS ST", "amenity": "post_box", "collection_times": "Mo-Fr 16:30; Sa 11:15", "note": "ON 12/24 AND 12/31, THIS BOX MAY BE COLLECTED AS EARLY AS 12 NOON.", "nsi_id": "unitedstatespostalservice-a77078", "operator": "United States Postal Service", "operator:short": "USPS", "operator:type": "public", "operator:wikidata": "Q668687", "ref": "4378300002"}, "type": "Feature"}
{"geometry": {"coordinates": [-82.294551514, 39.801963352], "type": "Point"}, "id": "1xFxhVweiL0CWh0gNcHjcfXMges=", "properties": {"@source_uri": "https://tools.usps.com/UspsToolsRestServices/rest/POLocator/findLocations", "@spider": "usps_collection_boxes", "addr:city": "SOMERSET", "addr:country": "US", "addr:postcode": "43783", "addr:state": "OH", "addr:street_address": "320 S COLUMBUS ST", "amenity": "post_box", "collection_times": "Mo-Fr 16:30; Sa 11:30", "indoor": "yes", "note": "ON 12/24 AND 12/31, THIS BOX MAY BE COLLECTED AS EARLY AS 12 NOON.", "nsi_id": "unitedstatespostalservice-a77078", "operator": "United States Postal Service", "operator:short": "USPS", "operator:type": "public", "operator:wikidata": "Q668687", "ref": "4378300007"}, "type": "Feature"}
{"geometry": {"coordinates": [-81.79028209, 39.549051503], "type": "Point"}, "id": "VerDwk3vM5aIsC-qKD2z1-VroD4=", "properties": {"@source_uri": "https://tools.usps.com/UspsToolsRestServices/rest/POLocator/findLocations", "@spider": "usps_collection_boxes", "addr:city": "STOCKPORT", "addr:country": "US", "addr:postcode": "43787", "addr:state": "OH", "addr:street_address": "1975 MAIN ST", "amenity": "post_box", "collection_times": "Mo-Fr 15:00; Sa 10:45", "note": "ON 12/24 AND 12/31, THIS BOX MAY BE COLLECTED AS EARLY AS 12 NOON.", "nsi_id": "unitedstatespostalservice-a77078", "operator": "United States Postal Service", "operator:short": "USPS", "operator:type": "public", "operator:wikidata": "Q668687", "ref": "4378700001"}, "type": "Feature"}
{"geometry": {"coordinates": [-81.79028209, 39.549051503], "type": "Point"}, "id": "PPiXskm0HBSpbrheoaFks2pB42A=", "properties": {"@source_uri": "https://tools.usps.com/UspsToolsRestServices/rest/POLocator/findLocations", "@spider": "usps_collection_boxes", "addr:city": "STOCKPORT", "addr:country": "US", "addr:postcode": "43787", "addr:state": "OH", "addr:street_address": "1975 MAIN ST", "amenity": "post_box", "collection_times": "Mo-Fr 15:00; Sa 10:45", "indoor": "yes", "note": "ON 12/24 AND 12/31, THIS BOX MAY BE COLLECTED AS EARLY AS 12 NOON.", "nsi_id": "unitedstatespostalservice-a77078", "operator": "United States Postal Service", "operator:short": "USPS", "operator:type": "public", "operator:wikidata": "Q668687", "ref": "4378700002"}, "type": "Feature"}
{"geometry": {"coordinates": [-81.79028209, 39.549051503], "type": "Point"}, "id": "l6tmcM3v272JxZwlHzN5q-VxkhU=", "properties": {"@source_uri": "https://tools.usps.com/UspsToolsRestServices/rest/POLocator/findLocations", "@spider": "usps_collection_boxes", "addr:city": "STOCKPORT", "addr:country": "US", "addr:postcode": "43787", "addr:state": "OH", "addr:street_address": "1975 MAIN ST", "amenity": "post_box", "collection_times": "Mo-Fr 15:45; Sa 14:00", "indoor": "yes", "note": "ON 12/24 AND 12/31, THIS BOX MAY BE COLLECTED AS EARLY AS 12 NOON.", "nsi_id": "unitedstatespostalservice-a77078", "operator": "United States Postal Service", "operator:short": "USPS", "operator:type": "public", "operator:wikidata": "Q668687", "ref": "4378700005"}, "type": "Feature"}
{"geometry": {"coordinates": [-81.336282014, 39.796898374], "type": "Point"}, "id": "TFcd1f0obJzlBMtZGqHtinUuFdE=", "properties": {"@source_uri": "https://tools.usps.com/UspsToolsRestServices/rest/POLocator/findLocations", "@spider": "usps_collection_boxes", "addr:city": "SUMMERFIELD", "addr:country": "US", "addr:postcode": "43788", "addr:state": "OH", "addr:street_address": "300 W CROSS ST", "amenity": "post_box", "collection_times": "Mo-Fr 11:30; Sa 10:15", "nsi_id": "unitedstatespostalservice-a77078", "operator": "United States Postal Service", "operator:short": "USPS", "operator:type": "public", "operator:wikidata": "Q668687", "ref": "4378800000"}, "type": "Feature"}
{"geometry": {"coordinates": [-81.336282014, 39.796898374], "type": "Point"}, "id": "iUADx1_SEJ5E9Hlmbbe7gyl5kjA=", "properties": {"@source_uri": "https://tools.usps.com/UspsToolsRestServices/rest/POLocator/findLocations", "@spider": "usps_collection_boxes", "addr:city": "SUMMERFIELD", "addr:country": "US", "addr:postcode": "43788", "addr:state": "OH", "addr:street_address": "300 W CROSS ST", "amenity": "post_box", "collection_times": "Mo-Fr 11:30; Sa 10:15", "indoor": "yes", "nsi_id": "unitedstatespostalservice-a77078", "operator": "United States Postal Service", "operator:short": "USPS", "operator:type": "public", "operator:wikidata": "Q668687", "ref": "4378800001"}, "type": "Feature"}
{"geometry": {"coordinates": [-81.336282014, 39.796898374], "type": "Point"}, "id": "g5pAZaAlGQpTTu2AirHMMwFrB9Q=", "properties": {"@source_uri": "https://tools.usps.com/UspsToolsRestServices/rest/POLocator/findLocations", "@spider": "usps_collection_boxes", "addr:city": "SUMMERFIELD", "addr:country": "US", "addr:postcode": "43788", "addr:state": "OH", "addr:street_address": "300 W CROSS ST", "amenity": "post_box", "collection_times": "Mo-Fr 11:30; Sa 10:30", "indoor": "yes", "nsi_id": "unitedstatespostalservice-a77078", "operator": "United States Postal Service", "operator:short": "USPS", "operator:type": "public", "operator:wikidata": "Q668687", "ref": "4378800004"}, "type": "Feature"}
{"geometry": {"coordinates": [-82.090158035, 39.878168747], "type": "Point"}, "id": "yWMURnzgN3IoqsOBK3PJMXwr7ek=", "properties": {"@source_uri": "https://tools.usps.com/UspsToolsRestServices/rest/POLocator/findLocations", "@spider": "usps_collection_boxes", "addr:city": "WHITE COTTAGE", "addr:country": "US", "addr:postcode": "43791", "addr:state": "OH", "addr:street_address": "3880 ROBERTS ADDITION", "amenity": "post_box", "collection_times": "Mo-Fr 11:00; Sa 10:00", "nsi_id": "unitedstatespostalservice-a77078", "operator": "United States Postal Service", "operator:short": "USPS", "operator:type": "public", "operator:wikidata": "Q668687", "ref": "4379100000"}, "type": "Feature"}
{"geometry": {"coordinates": [-82.090158035, 39.878168747], "type": "Point"}, "id": "dlQzssME8rHcfoLa6Ik1xvj4xlw=", "properties": {"@source_uri": "https://tools.usps.com/UspsToolsRestServices/rest/POLocator/findLocations", "@spider": "usps_collection_boxes", "addr:city": "WHITE COTTAGE", "addr:country": "US", "addr:postcode": "43791", "addr:state": "OH", "addr:street_address": "3880 ROBERTS ADDITION", "amenity": "post_box", "collection_times": "Mo-Fr 11:00; Sa 10:00", "indoor": "yes", "nsi_id": "unitedstatespostalservice-a77078", "operator": "United States Postal Service", "operator:short": "USPS", "operator:type": "public", "operator:wikidata": "Q668687", "ref": "4379100001"}, "type": "Feature"}
{"geometry": {"coordinates": [-82.090158035, 39.878168747], "type": "Point"}, "id": "a31MRZJ9JJMfXXW2QSM6U-nV_qA=", "properties": {"@source_uri": "https://tools.usps.com/UspsToolsRestServices/rest/POLocator/findLocations", "@spider": "usps_collection_boxes", "addr:city": "WHITE COTTAGE", "addr:country": "US", "addr:postcode": "43791", "addr:state": "OH", "addr:street_address": "3880 ROBERTS ADDITION", "amenity": "post_box", "collection_times": "Mo-Fr 11:30; Sa 10:30", "indoor": "yes", "nsi_id": "unitedstatespostalservice-a77078", "operator": "United States Postal Service", "operator:short": "USPS", "operator:type": "public", "operator:wikidata": "Q668687", "ref": "4379100003"}, "type": "Feature"}
{"geometry": {"coordinates": [-81.115460783, 39.763391846], "type": "Point"}, "id": "HkGPtGZjuCesB6XlPXjwmQHAnIs=", "properties": {"@source_uri": "https://tools.usps.com/UspsToolsRestServices/rest/POLocator/findLocations", "@spider": "usps_collection_boxes", "addr:city": "WOODSFIELD", "addr:country": "US", "addr:postcode": "43793", "addr:state": "OH", "addr:street_address": "125 N MAIN ST", "amenity": "post_box", "collection_times": "Mo-Fr 16:00; Sa 12:00", "note": "ON 12/24 AND 12/31, THIS BOX MAY BE COLLECTED AS EARLY AS 12 NOON.", "nsi_id": "unitedstatespostalservice-a77078", "operator": "United States Postal Service", "operator:short": "USPS", "operator:type": "public", "operator:wikidata": "Q668687", "ref": "4379300001"}, "type": "Feature"}
{"geometry": {"coordinates": [-81.115460783, 39.763391846], "type": "Point"}, "id": "A9EutpyxOJyFyHpdvfmXRJtrNg0=", "properties": {"@source_uri": "https://tools.usps.com/UspsToolsRestServices/rest/POLocator/findLocations", "@spider": "usps_collection_boxes", "addr:city": "WOODSFIELD", "addr:country": "US", "addr:postcode": "43793", "addr:state": "OH", "addr:street_address": "125 N MAIN ST", "amenity": "post_box", "collection_times": "Mo-Fr 16:00; Sa 12:00", "indoor": "yes", "note": "ON 12/24 AND 12/31, THIS BOX MAY BE COLLECTED AS EARLY AS 12 NOON.", "nsi_id": "unitedstatespostalservice-a77078", "operator": "United States Postal Service", "operator:short": "USPS", "operator:type": "public", "operator:wikidata": "Q668687", "ref": "4379300023"}, "type": "Feature"}
{"geometry": {"coordinates": [-81.0109486, 39.716986], "type": "Point"}, "id": "9857fswW2HlR1jAxAHggKWUKLW4=", "properties": {"@source_uri": "https://tools.usps.com/UspsToolsRestServices/rest/POLocator/findLocations", "@spider": "usps_collection_boxes", "addr:city": "WOODSFIELD", "addr:country": "US", "addr:postcode": "43793", "addr:state": "OH", "addr:street_address": "42988 SIX POINTS RD", "amenity": "post_box", "collection_times": "Mo-Sa 11:00", "nsi_id": "unitedstatespostalservice-a77078", "operator": "United States Postal Service", "operator:short": "USPS", "operator:type": "public", "operator:wikidata": "Q668687", "ref": "4379300024"}, "type": "Feature"}
{"geometry": {"coordinates": [-81.115460783, 39.763391846], "type": "Point"}, "id": "ID5VJzq-fyBmz0kHcpV5FEVXyv4=", "properties": {"@source_uri": "https://tools.usps.com/UspsToolsRestServices/rest/POLocator/findLocations", "@spider": "usps_collection_boxes", "addr:city": "WOODSFIELD", "addr:country": "US", "addr:postcode": "43793", "addr:state": "OH", "addr:street_address": "125 N MAIN ST", "amenity": "post_box", "collection_times": "Mo-Fr 16:15; Sa 12:00", "indoor": "yes", "note": "ON 12/24 AND 12/31, THIS BOX MAY BE COLLECTED AS EARLY AS 12 NOON.", "nsi_id": "unitedstatespostalservice-a77078", "operator": "United States Postal Service", "operator:short": "USPS", "operator:type": "public", "operator:wikidata": "Q668687", "ref": "4379300030"}, "type": "Feature"}
