{"geometry": {"coordinates": [-81.88239923, 40.070295817], "type": "Point"}, "id": "bgmUZ7maHIHKumVKeV68UCXMLYk=", "properties": {"@source_uri": "https://tools.usps.com/UspsToolsRestServices/rest/POLocator/findLocations", "@spider": "usps_collection_boxes", "addr:city": "ADAMSVILLE", "addr:country": "US", "addr:postcode": "43802", "addr:state": "OH", "addr:street_address": "8125 EAST ST", "amenity": "post_box", "collection_times": "Mo-Fr 11:30; Sa 10:15", "nsi_id": "unitedstatespostalservice-a77078", "operator": "United States Postal Service", "operator:short": "USPS", "operator:type": "public", "operator:wikidata": "Q668687", "ref": "4380200000"}, "type": "Feature"}
{"geometry": {"coordinates": [-81.88239923, 40.070295817], "type": "Point"}, "id": "En_4ZGJQJI89w7BUg7zyTq8wm6w=", "properties": {"@source_uri": "https://tools.usps.com/UspsToolsRestServices/rest/POLocator/findLocations", "@spider": "usps_collection_boxes", "addr:city": "ADAMSVILLE", "addr:country": "US", "addr:postcode": "43802", "addr:state": "OH", "addr:street_address": "8125 EAST ST", "amenity": "post_box", "collection_times": "Mo-Fr 11:30; Sa 10:15", "indoor": "yes", "nsi_id": "unitedstatespostalservice-a77078", "operator": "United States Postal Service", "operator:short": "USPS", "operator:type": "public", "operator:wikidata": "Q668687", "ref": "4380200001"}, "type": "Feature"}
{"geometry": {"coordinates": [-81.88239923, 40.070295817], "type": "Point"}, "id": "if3xJvA4FGWTHNZVuzSQlFx6zHs=", "properties": {"@source_uri": "https://tools.usps.com/UspsToolsRestServices/rest/POLocator/findLocations", "@spider": "usps_collection_boxes", "addr:city": "ADAMSVILLE", "addr:country": "US", "addr:postcode": "43802", "addr:state": "OH", "addr:street_address": "8125 EAST ST", "amenity": "post_box", "collection_times": "Mo-Fr 12:00; Sa 11:00", "indoor": "yes", "nsi_id": "unitedstatespostalservice-a77078", "operator": "United States Postal Service", "operator:short": "USPS", "operator:type": "public", "operator:wikidata": "Q668687", "ref": "4380200004"}, "type": "Feature"}
{"geometry": {"coordinates": [-81.702020995, 40.440760093], "type": "Point"}, "id": "-gv9608u9BoD3G_zL1p7HuM3wwo=", "properties": {"@source_uri": "https://tools.usps.com/UspsToolsRestServices/rest/POLocator/findLocations", "@spider": "usps_collection_boxes", "addr:city": "BALTIC", "addr:country": "US", "addr:postcode": "43804", "addr:state": "OH", "addr:street_address": "105 N RAY ST", "amenity": "post_box", "collection_times": "Mo-Fr 16:00; Sa 10:15", "note": "ON 12/24 AND 12/31, THIS BOX MAY BE COLLECTED AS EARLY AS 12 NOON.", "nsi_id": "unitedstatespostalservice-a77078", "operator": "United States Postal Service", "operator:short": "USPS", "operator:type": "public", "operator:wikidata": "Q668687", "ref": "4380400000"}, "type": "Feature"}
{"geometry": {"coordinates": [-81.702020995, 40.440760093], "type": "Point"}, "id": "lxqcSf3_q_sjeSQ3bBygwFunQoM=", "properties": {"@source_uri": "https://tools.usps.com/UspsToolsRestServices/rest/POLocator/findLocations", "@spider": "usps_collection_boxes", "addr:city": "BALTIC", "addr:country": "US", "addr:postcode": "43804", "addr:state": "OH", "addr:street_address": "105 N RAY ST", "amenity": "post_box", "collection_times": "Mo-Fr 16:15; Sa 10:15", "indoor": "yes", "note": "ON 12/24 AND 12/31, THIS BOX MAY BE COLLECTED AS EARLY AS 12 NOON.", "nsi_id": "unitedstatespostalservice-a77078", "operator": "United States Postal Service", "operator:short": "USPS", "operator:type": "public", "operator:wikidata": "Q668687", "ref": "4380400001"}, "type": "Feature"}
{"geometry": {"coordinates": [-81.702020995, 40.440760093], "type": "Point"}, "id": "MIRx1bduGgnV12PkhlSDsQVFN0A=", "properties": {"@source_uri": "https://tools.usps.com/UspsToolsRestServices/rest/POLocator/findLocations", "@spider": "usps_collection_boxes", "addr:city": "BALTIC", "addr:country": "US", "addr:postcode": "43804", "addr:state": "OH", "addr:street_address": "105 N RAY ST", "amenity": "post_box", "collection_times": "Mo-Fr 16:15; Sa 10:00", "indoor": "yes", "note": "ON 12/24 AND 12/31, THIS BOX MAY BE COLLECTED AS EARLY AS 12 NOON.", "nsi_id": "unitedstatespostalservice-a77078", "operator": "United States Postal Service", "operator:short": "USPS", "operator:type": "public", "operator:wikidata": "Q668687", "ref": "4380400005"}, "type": "Feature"}
{"geometry": {"coordinates": [-81.892489739, 40.184094526], "type": "Point"}, "id": "LZrBTV2PoOmkjCGzu9wT4KRP7ec=", "properties": {"@source_uri": "https://tools.usps.com/UspsToolsRestServices/rest/POLocator/findLocations", "@spider": "usps_collection_boxes", "addr:city": "CONESVILLE", "addr:country": "US", "addr:postcode": "43811", "addr:state": "OH", "addr:street_address": "504 MARQUAND AVE", "amenity": "post_box", "collection_times": "Mo-Fr 16:00; Sa 10:15", "indoor": "yes", "note": "ON 12/24 AND 12/31, THIS BOX MAY BE COLLECTED AS EARLY AS 12 NOON.", "nsi_id": "unitedstatespostalservice-a77078", "operator": "United States Postal Service", "operator:short": "USPS", "operator:type": "public", "operator:wikidata": "Q668687", "ref": "4381100001"}, "type": "Feature"}
{"geometry": {"coordinates": [-81.892489739, 40.184094526], "type": "Point"}, "id": "38c_9Ov2LjIy08Eez8a0aAcxVDc=", "properties": {"@source_uri": "https://tools.usps.com/UspsToolsRestServices/rest/POLocator/findLocations", "@spider": "usps_collection_boxes", "addr:city": "CONESVILLE", "addr:country": "US", "addr:postcode": "43811", "addr:state": "OH", "addr:street_address": "504 MARQUAND AVE", "amenity": "post_box", "collection_times": "Mo-Fr 16:00; Sa 10:15", "note": "ON 12/24 AND 12/31, THIS BOX MAY BE COLLECTED AS EARLY AS 12 NOON.", "nsi_id": "unitedstatespostalservice-a77078", "operator": "United States Postal Service", "operator:short": "USPS", "operator:type": "public", "operator:wikidata": "Q668687", "ref": "4381100002"}, "type": "Feature"}
{"geometry": {"coordinates": [-81.892489739, 40.184094526], "type": "Point"}, "id": "RaZtRHtRRKXCXZUF18s6KHg4P2o=", "properties": {"@source_uri": "https://tools.usps.com/UspsToolsRestServices/rest/POLocator/findLocations", "@spider": "usps_collection_boxes", "addr:city": "CONESVILLE", "addr:country": "US", "addr:postcode": "43811", "addr:state": "OH", "addr:street_address": "504 MARQUAND AVE", "amenity": "post_box", "collection_times": "Mo-Fr 16:30; Sa 13:00", "indoor": "yes", "note": "ON 12/24 AND 12/31, THIS BOX MAY BE COLLECTED AS EARLY AS 12 NOON.", "nsi_id": "unitedstatespostalservice-a77078", "operator": "United States Postal Service", "operator:short": "USPS", "operator:type": "public", "operator:wikidata": "Q668687", "ref": "4381100004"}, "type": "Feature"}
{"geometry": {"coordinates": [-81.8624899, 40.27521], "type": "Point"}, "id": "P-Y7yGYthInzUlF8yDmuMeM1jPQ=", "properties": {"@source_uri": "https://tools.usps.com/UspsToolsRestServices/rest/POLocator/findLocations", "@spider": "usps_collection_boxes", "addr:city": "COSHOCTON", "addr:country": "US", "addr:postcode": "43812", "addr:state": "OH", "addr:street_address": "516 CHESTNUT ST", "amenity": "post_box", "collection_times": "Mo-Fr 17:15; Sa 17:00", "note": "ON 12/24 AND 12/31, THIS BOX MAY BE COLLECTED AS EARLY AS 12 NOON.", "nsi_id": "unitedstatespostalservice-a77078", "operator": "United States Postal Service", "operator:short": "USPS", "operator:type": "public", "operator:wikidata": "Q668687", "ref": "4381200000"}, "type": "Feature"}
{"geometry": {"coordinates": [-81.8764973, 40.279283], "type": "Point"}, "id": "qxR4joCcQoHDTYRFgjYiHni6rn8=", "properties": {"@source_uri": "https://tools.usps.com/UspsToolsRestServices/rest/POLocator/findLocations", "@spider": "usps_collection_boxes", "addr:city": "COSHOCTON", "addr:country": "US", "addr:postcode": "43812", "addr:state": "OH", "addr:street_address": "403 N WHITEWOMAN ST", "amenity": "post_box", "collection_times": "Mo-Sa 09:00", "nsi_id": "unitedstatespostalservice-a77078", "operator": "United States Postal Service", "operator:short": "USPS", "operator:type": "public", "operator:wikidata": "Q668687", "ref": "4381200006"}, "type": "Feature"}
{"geometry": {"coordinates": [-81.8534505, 40.257813], "type": "Point"}, "id": "J5OBN057eqAuWD3E8-SsmIE3GRg=", "properties": {"@source_uri": "https://tools.usps.com/UspsToolsRestServices/rest/POLocator/findLocations", "@spider": "usps_collection_boxes", "addr:city": "COSHOCTON", "addr:country": "US", "addr:postcode": "43812", "addr:state": "OH", "addr:street_address": "1100 FAIRY FALLS DR", "amenity": "post_box", "collection_times": "Mo-Sa 10:30", "nsi_id": "unitedstatespostalservice-a77078", "operator": "United States Postal Service", "operator:short": "USPS", "operator:type": "public", "operator:wikidata": "Q668687", "ref": "4381200016"}, "type": "Feature"}
{"geometry": {"coordinates": [-81.8589991, 40.266678], "type": "Point"}, "id": "u3fMSx7noHMMbffgRmymztg5Goc=", "properties": {"@source_uri": "https://tools.usps.com/UspsToolsRestServices/rest/POLocator/findLocations", "@spider": "usps_collection_boxes", "addr:city": "COSHOCTON", "addr:country": "US", "addr:postcode": "43812", "addr:state": "OH", "addr:street_address": "724 S 7TH ST", "amenity": "post_box", "collection_times": "Mo-Fr 16:45; Sa 16:30", "note": "ON 12/24 AND 12/31, THIS BOX MAY BE COLLECTED AS EARLY AS 12 NOON.", "nsi_id": "unitedstatespostalservice-a77078", "operator": "United States Postal Service", "operator:short": "USPS", "operator:type": "public", "operator:wikidata": "Q668687", "ref": "4381200020"}, "type": "Feature"}
{"geometry": {"coordinates": [-81.8670764, 40.275305], "type": "Point"}, "id": "jlIm2nHKZX5YpLp5inVpRciU0Ds=", "properties": {"@source_uri": "https://tools.usps.com/UspsToolsRestServices/rest/POLocator/findLocations", "@spider": "usps_collection_boxes", "addr:city": "COSHOCTON", "addr:country": "US", "addr:postcode": "43812", "addr:state": "OH", "addr:street_address": "234 CHESTNUT ST", "amenity": "post_box", "collection_times": "Mo-Fr 16:45; Sa 16:30", "note": "ON 12/24 AND 12/31, THIS BOX MAY BE COLLECTED AS EARLY AS 12 NOON.", "nsi_id": "unitedstatespostalservice-a77078", "operator": "United States Postal Service", "operator:short": "USPS", "operator:type": "public", "operator:wikidata": "Q668687", "ref": "4381200024"}, "type": "Feature"}
{"geometry": {"coordinates": [-81.8725716, 40.269622], "type": "Point"}, "id": "trOFd0RQvJPDGHcWM-8GS4IKPKU=", "properties": {"@source_uri": "https://tools.usps.com/UspsToolsRestServices/rest/POLocator/findLocations", "@spider": "usps_collection_boxes", "addr:city": "COSHOCTON", "addr:country": "US", "addr:postcode": "43812", "addr:state": "OH", "addr:street_address": "499 DOWNTOWNER PLZ", "amenity": "post_box", "collection_times": "Mo-Fr 16:45; Sa 16:30", "note": "ON 12/24 AND 12/31, THIS BOX MAY BE COLLECTED AS EARLY AS 12 NOON.", "nsi_id": "unitedstatespostalservice-a77078", "operator": "United States Postal Service", "operator:short": "USPS", "operator:type": "public", "operator:wikidata": "Q668687", "ref": "4381200032"}, "type": "Feature"}
{"geometry": {"coordinates": [-81.8677438, 40.260677], "type": "Point"}, "id": "qUpi3bBV1GDMmMEgDx-jNUht5TI=", "properties": {"@source_uri": "https://tools.usps.com/UspsToolsRestServices/rest/POLocator/findLocations", "@spider": "usps_collection_boxes", "addr:city": "COSHOCTON", "addr:country": "US", "addr:postcode": "43812", "addr:state": "OH", "addr:street_address": "830 S 2ND ST", "amenity": "post_box", "collection_times": "Mo-Fr 16:45; Sa 16:30", "note": "ON 12/24 AND 12/31, THIS BOX MAY BE COLLECTED AS EARLY AS 12 NOON.", "nsi_id": "unitedstatespostalservice-a77078", "operator": "United States Postal Service", "operator:short": "USPS", "operator:type": "public", "operator:wikidata": "Q668687", "ref": "4381200035"}, "type": "Feature"}
{"geometry": {"coordinates": [-81.8651241, 40.273138], "type": "Point"}, "id": "x50TdoltPgLClTveo_jcjlI-jqk=", "properties": {"@source_uri": "https://tools.usps.com/UspsToolsRestServices/rest/POLocator/findLocations", "@spider": "usps_collection_boxes", "addr:city": "COSHOCTON", "addr:country": "US", "addr:postcode": "43812", "addr:state": "OH", "addr:street_address": "120 S 4TH ST", "amenity": "post_box", "collection_times": "Mo-Fr 16:45; Sa 16:30", "note": "ON 12/24 AND 12/31, THIS BOX MAY BE COLLECTED AS EARLY AS 12 NOON.", "nsi_id": "unitedstatespostalservice-a77078", "operator": "United States Postal Service", "operator:short": "USPS", "operator:type": "public", "operator:wikidata": "Q668687", "ref": "4381200043"}, "type": "Feature"}
{"geometry": {"coordinates": [-81.8626866, 40.275121], "type": "Point"}, "id": "xF3TgokG9ZayPZWnhX5xahVFGlE=", "properties": {"@source_uri": "https://tools.usps.com/UspsToolsRestServices/rest/POLocator/findLocations", "@spider": "usps_collection_boxes", "addr:city": "COSHOCTON", "addr:country": "US", "addr:postcode": "43812", "addr:state": "OH", "addr:street_address": "516 CHESTNUT ST", "amenity": "post_box", "collection_times": "Mo-Fr 17:15; Sa 17:00", "indoor": "yes", "note": "ON 12/24 AND 12/31, THIS BOX MAY BE COLLECTED AS EARLY AS 12 NOON.", "nsi_id": "unitedstatespostalservice-a77078", "operator": "United States Postal Service", "operator:short": "USPS", "operator:type": "public", "operator:wikidata": "Q668687", "ref": "4381200045"}, "type": "Feature"}
{"geometry": {"coordinates": [-81.8599397, 40.273324], "type": "Point"}, "id": "_zEmjiA9xcO0cJvPDtbJyLnhHP8=", "properties": {"@source_uri": "https://tools.usps.com/UspsToolsRestServices/rest/POLocator/findLocations", "@spider": "usps_collection_boxes", "addr:city": "COSHOCTON", "addr:country": "US", "addr:postcode": "43812", "addr:state": "OH", "addr:street_address": "655 MAIN ST", "amenity": "post_box", "collection_times": "Mo-Fr 16:45; Sa 16:30", "note": "ON 12/24 AND 12/31, THIS BOX MAY BE COLLECTED AS EARLY AS 12 NOON.", "nsi_id": "unitedstatespostalservice-a77078", "operator": "United States Postal Service", "operator:short": "USPS", "operator:type": "public", "operator:wikidata": "Q668687", "ref": "4381200046"}, "type": "Feature"}
{"geometry": {"coordinates": [-81.7194549, 40.209519], "type": "Point"}, "id": "x0vYjLak_12LYAqfc4Y5hXEl1PM=", "properties": {"@source_uri": "https://tools.usps.com/UspsToolsRestServices/rest/POLocator/findLocations", "@spider": "usps_collection_boxes", "addr:city": "COSHOCTON", "addr:country": "US", "addr:postcode": "43812", "addr:state": "OH", "addr:street_address": "103 MAIN ST", "amenity": "post_box", "collection_times": "Mo-Sa 10:00", "nsi_id": "unitedstatespostalservice-a77078", "operator": "United States Postal Service", "operator:short": "USPS", "operator:type": "public", "operator:wikidata": "Q668687", "ref": "4381200047"}, "type": "Feature"}
{"geometry": {"coordinates": [-81.8514219, 40.295157], "type": "Point"}, "id": "WZCx0p3205G-g54b1mEL36A1jWU=", "properties": {"@source_uri": "https://tools.usps.com/UspsToolsRestServices/rest/POLocator/findLocations", "@spider": "usps_collection_boxes", "addr:city": "COSHOCTON", "addr:country": "US", "addr:postcode": "43812", "addr:state": "OH", "addr:street_address": "23605 TOWNSHIP ROAD 202", "amenity": "post_box", "collection_times": "Mo-Sa 10:30", "nsi_id": "unitedstatespostalservice-a77078", "operator": "United States Postal Service", "operator:short": "USPS", "operator:type": "public", "operator:wikidata": "Q668687", "ref": "4381200048"}, "type": "Feature"}
{"geometry": {"coordinates": [-81.862740136, 40.274910449], "type": "Point"}, "id": "mOeCIlmYvsNi7up8Gzb0yM6mh1Q=", "properties": {"@source_uri": "https://tools.usps.com/UspsToolsRestServices/rest/POLocator/findLocations", "@spider": "usps_collection_boxes", "addr:city": "COSHOCTON", "addr:country": "US", "addr:postcode": "43812", "addr:state": "OH", "addr:street_address": "516 CHESTNUT ST FRNT", "amenity": "post_box", "collection_times": "Mo-Fr 17:30; Sa 13:00", "indoor": "yes", "note": "ON 12/24 AND 12/31, THIS BOX MAY BE COLLECTED AS EARLY AS 12 NOON.", "nsi_id": "unitedstatespostalservice-a77078", "operator": "United States Postal Service", "operator:short": "USPS", "operator:type": "public", "operator:wikidata": "Q668687", "ref": "4381200051"}, "type": "Feature"}
{"geometry": {"coordinates": [-82.014949728, 40.124470651], "type": "Point"}, "id": "AJkVBA9Q-1u82jDGYQ9JrE85JTQ=", "properties": {"@source_uri": "https://tools.usps.com/UspsToolsRestServices/rest/POLocator/findLocations", "@spider": "usps_collection_boxes", "addr:city": "DRESDEN", "addr:country": "US", "addr:postcode": "43821", "addr:state": "OH", "addr:street_address": "25 W 4TH ST", "amenity": "post_box", "collection_times": "Mo-Fr 16:00; Sa 10:45", "note": "ON 12/24 AND 12/31, THIS BOX MAY BE COLLECTED AS EARLY AS 12 NOON.", "nsi_id": "unitedstatespostalservice-a77078", "operator": "United States Postal Service", "operator:short": "USPS", "operator:type": "public", "operator:wikidata": "Q668687", "ref": "4382100000"}, "type": "Feature"}
{"geometry": {"coordinates": [-82.014949728, 40.124470651], "type": "Point"}, "id": "SNF8QeuGGpIR5FxpQwNwk9IFGI4=", "properties": {"@source_uri": "https://tools.usps.com/UspsToolsRestServices/rest/POLocator/findLocations", "@spider": "usps_collection_boxes", "addr:city": "DRESDEN", "addr:country": "US", "addr:postcode": "43821", "addr:state": "OH", "addr:street_address": "25 W 4TH ST", "amenity": "post_box", "collection_times": "Mo-Fr 16:00; Sa 10:45", "indoor": "yes", "note": "ON 12/24 AND 12/31, THIS BOX MAY BE COLLECTED AS EARLY AS 12 NOON.", "nsi_id": "unitedstatespostalservice-a77078", "operator": "United States Postal Service", "operator:short": "USPS", "operator:type": "public", "operator:wikidata": "Q668687", "ref": "4382100003"}, "type": "Feature"}
{"geometry": {"coordinates": [-82.014949728, 40.124470651], "type": "Point"}, "id": "s0PU3hEk9BBDjxOOxL1G2EWz_eU=", "properties": {"@source_uri": "https://tools.usps.com/UspsToolsRestServices/rest/POLocator/findLocations", "@spider": "usps_collection_boxes", "addr:city": "DRESDEN", "addr:country": "US", "addr:postcode": "43821", "addr:state": "OH", "addr:street_address": "25 W 4TH ST", "amenity": "post_box", "collection_times": "Mo-Fr 16:00; Sa 11:00", "indoor": "yes", "note": "ON 12/24 AND 12/31, THIS BOX MAY BE COLLECTED AS EARLY AS 12 NOON.", "nsi_id": "unitedstatespostalservice-a77078", "operator": "United States Postal Service", "operator:short": "USPS", "operator:type": "public", "operator:wikidata": "Q668687", "ref": "4382100008"}, "type": "Feature"}
{"geometry": {"coordinates": [-82.116805607, 40.118326575], "type": "Point"}, "id": "bC54hoqoNWPNhImkz3d1HG_TTy8=", "properties": {"@source_uri": "https://tools.usps.com/UspsToolsRestServices/rest/POLocator/findLocations", "@spider": "usps_collection_boxes", "addr:city": "FRAZEYSBURG", "addr:country": "US", "addr:postcode": "43822", "addr:state": "OH", "addr:street_address": "24 N STATE ST", "amenity": "post_box", "collection_times": "Mo-Fr 15:45; Sa 10:15", "note": "ON 12/24 AND 12/31, THIS BOX MAY BE COLLECTED AS EARLY AS 12 NOON.", "nsi_id": "unitedstatespostalservice-a77078", "operator": "United States Postal Service", "operator:short": "USPS", "operator:type": "public", "operator:wikidata": "Q668687", "ref": "4382200000"}, "type": "Feature"}
{"geometry": {"coordinates": [-82.116805607, 40.118326575], "type": "Point"}, "id": "SQGmVBiRQoKHvbmIAoLPGfjWW-I=", "properties": {"@source_uri": "https://tools.usps.com/UspsToolsRestServices/rest/POLocator/findLocations", "@spider": "usps_collection_boxes", "addr:city": "FRAZEYSBURG", "addr:country": "US", "addr:postcode": "43822", "addr:state": "OH", "addr:street_address": "24 N STATE ST", "amenity": "post_box", "collection_times": "Mo-Fr 15:45; Sa 10:15", "indoor": "yes", "note": "ON 12/24 AND 12/31, THIS BOX MAY BE COLLECTED AS EARLY AS 12 NOON.", "nsi_id": "unitedstatespostalservice-a77078", "operator": "United States Postal Service", "operator:short": "USPS", "operator:type": "public", "operator:wikidata": "Q668687", "ref": "4382200001"}, "type": "Feature"}
{"geometry": {"coordinates": [-82.116805607, 40.118326575], "type": "Point"}, "id": "2HDyDrmbukgeczjfKjrtJ_KO0nQ=", "properties": {"@source_uri": "https://tools.usps.com/UspsToolsRestServices/rest/POLocator/findLocations", "@spider": "usps_collection_boxes", "addr:city": "FRAZEYSBURG", "addr:country": "US", "addr:postcode": "43822", "addr:state": "OH", "addr:street_address": "24 N STATE ST", "amenity": "post_box", "collection_times": "Mo-Fr 16:00; Sa 10:30", "indoor": "yes", "note": "ON 12/24 AND 12/31, THIS BOX MAY BE COLLECTED AS EARLY AS 12 NOON.", "nsi_id": "unitedstatespostalservice-a77078", "operator": "United States Postal Service", "operator:short": "USPS", "operator:type": "public", "operator:wikidata": "Q668687", "ref": "4382200006"}, "type": "Feature"}
{"geometry": {"coordinates": [-81.737579032, 40.330173207], "type": "Point"}, "id": "Mwx2EIAPWZCj-x_wmokgiE1vG4s=", "properties": {"@source_uri": "https://tools.usps.com/UspsToolsRestServices/rest/POLocator/findLocations", "@spider": "usps_collection_boxes", "addr:city": "FRESNO", "addr:country": "US", "addr:postcode": "43824", "addr:state": "OH", "addr:street_address": "54259 TOWNSHIP ROAD 172", "amenity": "post_box", "collection_times": "Mo-Fr 15:30; Sa 12:45", "note": "ON 12/24 AND 12/31, THIS BOX MAY BE COLLECTED AS EARLY AS 12 NOON.", "nsi_id": "unitedstatespostalservice-a77078", "operator": "United States Postal Service", "operator:short": "USPS", "operator:type": "public", "operator:wikidata": "Q668687", "ref": "4382400000"}, "type": "Feature"}
{"geometry": {"coordinates": [-81.737579032, 40.330173207], "type": "Point"}, "id": "1cJu4tcwvaJMIyk5aD93cXqKKs8=", "properties": {"@source_uri": "https://tools.usps.com/UspsToolsRestServices/rest/POLocator/findLocations", "@spider": "usps_collection_boxes", "addr:city": "FRESNO", "addr:country": "US", "addr:postcode": "43824", "addr:state": "OH", "addr:street_address": "54259 TOWNSHIP ROAD 172", "amenity": "post_box", "collection_times": "Mo-Fr 15:30; Sa 12:45", "indoor": "yes", "note": "ON 12/24 AND 12/31, THIS BOX MAY BE COLLECTED AS EARLY AS 12 NOON.", "nsi_id": "unitedstatespostalservice-a77078", "operator": "United States Postal Service", "operator:short": "USPS", "operator:type": "public", "operator:wikidata": "Q668687", "ref": "4382400001"}, "type": "Feature"}
{"geometry": {"coordinates": [-81.737579032, 40.330173207], "type": "Point"}, "id": "K_6F8VaWSwiP70mNRBo19-_Cvro=", "properties": {"@source_uri": "https://tools.usps.com/UspsToolsRestServices/rest/POLocator/findLocations", "@spider": "usps_collection_boxes", "addr:city": "FRESNO", "addr:country": "US", "addr:postcode": "43824", "addr:state": "OH", "addr:street_address": "54259 TOWNSHIP ROAD 172", "amenity": "post_box", "collection_times": "Mo-Fr 16:00; Sa 13:15", "indoor": "yes", "note": "ON 12/24 AND 12/31, THIS BOX MAY BE COLLECTED AS EARLY AS 12 NOON.", "nsi_id": "unitedstatespostalservice-a77078", "operator": "United States Postal Service", "operator:short": "USPS", "operator:type": "public", "operator:wikidata": "Q668687", "ref": "4382400006"}, "type": "Feature"}
{"geometry": {"coordinates": [-82.178136653, 40.06955523], "type": "Point"}, "id": "sYfNJIcii4BtVYOK8TNHuJcMiT4=", "properties": {"@source_uri": "https://tools.usps.com/UspsToolsRestServices/rest/POLocator/findLocations", "@spider": "usps_collection_boxes", "addr:city": "NASHPORT", "addr:country": "US", "addr:postcode": "43830", "addr:state": "OH", "addr:street_address": "7764 OBANNON RD", "amenity": "post_box", "collection_times": "Mo-Fr 16:00; Sa 11:00", "note": "ON 12/24 AND 12/31, THIS BOX MAY BE COLLECTED AS EARLY AS 12 NOON.", "nsi_id": "unitedstatespostalservice-a77078", "operator": "United States Postal Service", "operator:short": "USPS", "operator:type": "public", "operator:wikidata": "Q668687", "ref": "4383000000"}, "type": "Feature"}
{"geometry": {"coordinates": [-82.0438559, 40.036757], "type": "Point"}, "id": "CJJedcJN7u5jk2dIHLKs15PuucA=", "properties": {"@source_uri": "https://tools.usps.com/UspsToolsRestServices/rest/POLocator/findLocations", "@spider": "usps_collection_boxes", "addr:city": "NASHPORT", "addr:country": "US", "addr:postcode": "43830", "addr:state": "OH", "addr:street_address": "6220 FRAZEYSBURG RD", "amenity": "post_box", "collection_times": "Mo-Sa 11:00", "nsi_id": "unitedstatespostalservice-a77078", "operator": "United States Postal Service", "operator:short": "USPS", "operator:type": "public", "operator:wikidata": "Q668687", "ref": "4383000003"}, "type": "Feature"}
{"geometry": {"coordinates": [-82.1777599, 40.06956], "type": "Point"}, "id": "GTcWbRM0HJNV78t68Wl8Y4MHEwY=", "properties": {"@source_uri": "https://tools.usps.com/UspsToolsRestServices/rest/POLocator/findLocations", "@spider": "usps_collection_boxes", "addr:city": "NASHPORT", "addr:country": "US", "addr:postcode": "43830", "addr:state": "OH", "addr:street_address": "7764 OBANNON (PO LOBBY) RD", "amenity": "post_box", "collection_times": "Mo-Fr 16:30; Sa 11:30", "indoor": "yes", "note": "ON 12/24 AND 12/31, THIS BOX MAY BE COLLECTED AS EARLY AS 12 NOON.", "nsi_id": "unitedstatespostalservice-a77078", "operator": "United States Postal Service", "operator:short": "USPS", "operator:type": "public", "operator:wikidata": "Q668687", "ref": "4383000004"}, "type": "Feature"}
{"geometry": {"coordinates": [-82.178136653, 40.06955523], "type": "Point"}, "id": "1sdTsRE7_qYQJORTXakEmemifgU=", "properties": {"@source_uri": "https://tools.usps.com/UspsToolsRestServices/rest/POLocator/findLocations", "@spider": "usps_collection_boxes", "addr:city": "NASHPORT", "addr:country": "US", "addr:postcode": "43830", "addr:state": "OH", "addr:street_address": "7764 OBANNON RD", "amenity": "post_box", "collection_times": "Mo-Fr 16:30; Sa 11:30", "indoor": "yes", "note": "ON 12/24 AND 12/31, THIS BOX MAY BE COLLECTED AS EARLY AS 12 NOON.", "nsi_id": "unitedstatespostalservice-a77078", "operator": "United States Postal Service", "operator:short": "USPS", "operator:type": "public", "operator:wikidata": "Q668687", "ref": "4383000011"}, "type": "Feature"}
{"geometry": {"coordinates": [-81.6086509, 40.270521], "type": "Point"}, "id": "0DZlR4FVgJ6zHWcAV0XcHdO-gx0=", "properties": {"@source_uri": "https://tools.usps.com/UspsToolsRestServices/rest/POLocator/findLocations", "@spider": "usps_collection_boxes", "addr:city": "NEWCOMERSTOWN", "addr:country": "US", "addr:postcode": "43832", "addr:state": "OH", "addr:street_address": "245 W STATE ST", "amenity": "post_box", "collection_times": "Mo-Sa 11:45", "nsi_id": "unitedstatespostalservice-a77078", "operator": "United States Postal Service", "operator:short": "USPS", "operator:type": "public", "operator:wikidata": "Q668687", "ref": "4383200004"}, "type": "Feature"}
{"geometry": {"coordinates": [-81.6031004, 40.27266], "type": "Point"}, "id": "ghS8z4-fCK2gfNraQ_-lRaAsZxc=", "properties": {"@source_uri": "https://tools.usps.com/UspsToolsRestServices/rest/POLocator/findLocations", "@spider": "usps_collection_boxes", "addr:city": "NEWCOMERSTOWN", "addr:country": "US", "addr:postcode": "43832", "addr:state": "OH", "addr:street_address": "316 S COLLEGE ST", "amenity": "post_box", "collection_times": "Mo-Sa 12:00", "nsi_id": "unitedstatespostalservice-a77078", "operator": "United States Postal Service", "operator:short": "USPS", "operator:type": "public", "operator:wikidata": "Q668687", "ref": "4383200012"}, "type": "Feature"}
{"geometry": {"coordinates": [-81.6075266, 40.275741], "type": "Point"}, "id": "f7W2D8sT5d8s6DckTot8TMIX20w=", "properties": {"@source_uri": "https://tools.usps.com/UspsToolsRestServices/rest/POLocator/findLocations", "@spider": "usps_collection_boxes", "addr:city": "NEWCOMERSTOWN", "addr:country": "US", "addr:postcode": "43832", "addr:state": "OH", "addr:street_address": "140 W MAIN ST", "amenity": "post_box", "collection_times": "Mo-Fr 15:00; Sa 11:45", "note": "ON 12/24 AND 12/31, THIS BOX MAY BE COLLECTED AS EARLY AS 12 NOON.", "nsi_id": "unitedstatespostalservice-a77078", "operator": "United States Postal Service", "operator:short": "USPS", "operator:type": "public", "operator:wikidata": "Q668687", "ref": "4383200014"}, "type": "Feature"}
{"geometry": {"coordinates": [-81.607067875, 40.274961729], "type": "Point"}, "id": "KDUg_DN3s1wMvSrajOcVyWa01is=", "properties": {"@source_uri": "https://tools.usps.com/UspsToolsRestServices/rest/POLocator/findLocations", "@spider": "usps_collection_boxes", "addr:city": "NEWCOMERSTOWN", "addr:country": "US", "addr:postcode": "43832", "addr:state": "OH", "addr:street_address": "133 W CANAL ST", "amenity": "post_box", "collection_times": "Mo-Fr 16:00; Sa 11:45", "indoor": "yes", "note": "ON 12/24 AND 12/31, THIS BOX MAY BE COLLECTED AS EARLY AS 12 NOON.", "nsi_id": "unitedstatespostalservice-a77078", "operator": "United States Postal Service", "operator:short": "USPS", "operator:type": "public", "operator:wikidata": "Q668687", "ref": "4383200019"}, "type": "Feature"}
{"geometry": {"coordinates": [-81.6167833, 40.27007], "type": "Point"}, "id": "sYpXdTWZkn676PcUWcTsaD4_6kI=", "properties": {"@source_uri": "https://tools.usps.com/UspsToolsRestServices/rest/POLocator/findLocations", "@spider": "usps_collection_boxes", "addr:city": "NEWCOMERSTOWN", "addr:country": "US", "addr:postcode": "43832", "addr:state": "OH", "addr:street_address": "814 MILL ALY", "amenity": "post_box", "collection_times": "Mo-Sa 12:00", "nsi_id": "unitedstatespostalservice-a77078", "operator": "United States Postal Service", "operator:short": "USPS", "operator:type": "public", "operator:wikidata": "Q668687", "ref": "4383200021"}, "type": "Feature"}
{"geometry": {"coordinates": [-81.6454623, 40.355212], "type": "Point"}, "id": "Ak6BVRxOOOEs2r65EqL1w3TbAo0=", "properties": {"@source_uri": "https://tools.usps.com/UspsToolsRestServices/rest/POLocator/findLocations", "@spider": "usps_collection_boxes", "addr:city": "NEWCOMERSTOWN", "addr:country": "US", "addr:postcode": "43832", "addr:state": "OH", "addr:street_address": "59505 COUNTY RD", "amenity": "post_box", "collection_times": "Mo-Sa 12:00", "nsi_id": "unitedstatespostalservice-a77078", "operator": "United States Postal Service", "operator:short": "USPS", "operator:type": "public", "operator:wikidata": "Q668687", "ref": "4383200022"}, "type": "Feature"}
{"geometry": {"coordinates": [-81.607067875, 40.274961729], "type": "Point"}, "id": "B6Un5isHsSQEAA91Twyk0CFzkLA=", "properties": {"@source_uri": "https://tools.usps.com/UspsToolsRestServices/rest/POLocator/findLocations", "@spider": "usps_collection_boxes", "addr:city": "NEWCOMERSTOWN", "addr:country": "US", "addr:postcode": "43832", "addr:state": "OH", "addr:street_address": "133 W CANAL ST", "amenity": "post_box", "collection_times": "Mo-Fr 16:00; Sa 11:45", "note": "ON 12/24 AND 12/31, THIS BOX MAY BE COLLECTED AS EARLY AS 12 NOON.", "nsi_id": "unitedstatespostalservice-a77078", "operator": "United States Postal Service", "operator:short": "USPS", "operator:type": "public", "operator:wikidata": "Q668687", "ref": "4383200023"}, "type": "Feature"}
{"geometry": {"coordinates": [-81.607067875, 40.274961729], "type": "Point"}, "id": "i2889oTCyqwdJryiX-E6WXYal00=", "properties": {"@source_uri": "https://tools.usps.com/UspsToolsRestServices/rest/POLocator/findLocations", "@spider": "usps_collection_boxes", "addr:city": "NEWCOMERSTOWN", "addr:country": "US", "addr:postcode": "43832", "addr:state": "OH", "addr:street_address": "133 W CANAL ST", "amenity": "post_box", "collection_times": "Mo-Fr 16:15; Sa 12:00", "indoor": "yes", "note": "ON 12/24 AND 12/31, THIS BOX MAY BE COLLECTED AS EARLY AS 12 NOON.", "nsi_id": "unitedstatespostalservice-a77078", "operator": "United States Postal Service", "operator:short": "USPS", "operator:type": "public", "operator:wikidata": "Q668687", "ref": "4383200027"}, "type": "Feature"}
{"geometry": {"coordinates": [-81.519319, 40.327333], "type": "Point"}, "id": "VRCQGOShJ0gUeCDwsyKp_EO_jOw=", "properties": {"@source_uri": "https://tools.usps.com/UspsToolsRestServices/rest/POLocator/findLocations", "@spider": "usps_collection_boxes", "addr:city": "PORT WASHINGTON", "addr:country": "US", "addr:postcode": "43837", "addr:state": "OH", "addr:street_address": "103 S SAINT CLAIRSVILLE RD", "amenity": "post_box", "collection_times": "Mo-Fr 15:45; Sa 10:15", "note": "ON 12/24 AND 12/31, THIS BOX MAY BE COLLECTED AS EARLY AS 12 NOON.", "nsi_id": "unitedstatespostalservice-a77078", "operator": "United States Postal Service", "operator:short": "USPS", "operator:type": "public", "operator:wikidata": "Q668687", "ref": "4383700000"}, "type": "Feature"}
{"geometry": {"coordinates": [-81.51932, 40.327332], "type": "Point"}, "id": "XMsh4o4-Cgh-TAohNaqcot5AHEg=", "properties": {"@source_uri": "https://tools.usps.com/UspsToolsRestServices/rest/POLocator/findLocations", "@spider": "usps_collection_boxes", "addr:city": "PORT WASHINGTON", "addr:country": "US", "addr:postcode": "43837", "addr:state": "OH", "addr:street_address": "103 S SAINT CLAIRSVILLE RD", "amenity": "post_box", "collection_times": "Mo-Fr 15:45; Sa 10:15", "indoor": "yes", "note": "ON 12/24 AND 12/31, THIS BOX MAY BE COLLECTED AS EARLY AS 12 NOON.", "nsi_id": "unitedstatespostalservice-a77078", "operator": "United States Postal Service", "operator:short": "USPS", "operator:type": "public", "operator:wikidata": "Q668687", "ref": "4383700001"}, "type": "Feature"}
{"geometry": {"coordinates": [-81.519275755, 40.327302291], "type": "Point"}, "id": "nvJ0GTFK-SxGN5Bu491WjjSqrVY=", "properties": {"@source_uri": "https://tools.usps.com/UspsToolsRestServices/rest/POLocator/findLocations", "@spider": "usps_collection_boxes", "addr:city": "PORT WASHINGTON", "addr:country": "US", "addr:postcode": "43837", "addr:state": "OH", "addr:street_address": "103 SAINT CLAIRSVILLE RD SW", "amenity": "post_box", "collection_times": "Mo-Fr 16:00; Sa 13:15", "indoor": "yes", "note": "ON 12/24 AND 12/31, THIS BOX MAY BE COLLECTED AS EARLY AS 12 NOON.", "nsi_id": "unitedstatespostalservice-a77078", "operator": "United States Postal Service", "operator:short": "USPS", "operator:type": "public", "operator:wikidata": "Q668687", "ref": "4383700005"}, "type": "Feature"}
{"geometry": {"coordinates": [-81.560301721, 40.397317536], "type": "Point"}, "id": "eqCkldMQxJy9BE5H89TwxwnUefI=", "properties": {"@source_uri": "https://tools.usps.com/UspsToolsRestServices/rest/POLocator/findLocations", "@spider": "usps_collection_boxes", "addr:city": "STONE CREEK", "addr:country": "US", "addr:postcode": "43840", "addr:state": "OH", "addr:street_address": "107 W JEFFERSON ST", "amenity": "post_box", "collection_times": "Mo-Fr 15:45; Sa 10:15", "note": "ON 12/24 AND 12/31, THIS BOX MAY BE COLLECTED AS EARLY AS 12 NOON.", "nsi_id": "unitedstatespostalservice-a77078", "operator": "United States Postal Service", "operator:short": "USPS", "operator:type": "public", "operator:wikidata": "Q668687", "ref": "4384000000"}, "type": "Feature"}
{"geometry": {"coordinates": [-81.560301721, 40.397317536], "type": "Point"}, "id": "kk7Jl9CdzIOXzv3IK40rFWR-SOM=", "properties": {"@source_uri": "https://tools.usps.com/UspsToolsRestServices/rest/POLocator/findLocations", "@spider": "usps_collection_boxes", "addr:city": "STONE CREEK", "addr:country": "US", "addr:postcode": "43840", "addr:state": "OH", "addr:street_address": "107 W JEFFERSON ST", "amenity": "post_box", "collection_times": "Mo-Fr 15:45; Sa 10:15", "indoor": "yes", "note": "ON 12/24 AND 12/31, THIS BOX MAY BE COLLECTED AS EARLY AS 12 NOON.", "nsi_id": "unitedstatespostalservice-a77078", "operator": "United States Postal Service", "operator:short": "USPS", "operator:type": "public", "operator:wikidata": "Q668687", "ref": "4384000001"}, "type": "Feature"}
{"geometry": {"coordinates": [-81.560301721, 40.397317536], "type": "Point"}, "id": "FnLCYsFdz6A0mK9oeJnEUuxwP3U=", "properties": {"@source_uri": "https://tools.usps.com/UspsToolsRestServices/rest/POLocator/findLocations", "@spider": "usps_collection_boxes", "addr:city": "STONE CREEK", "addr:country": "US", "addr:postcode": "43840", "addr:state": "OH", "addr:street_address": "107 W JEFFERSON ST", "amenity": "post_box", "collection_times": "Mo-Fr 15:45; Sa 14:00", "indoor": "yes", "note": "ON 12/24 AND 12/31, THIS BOX MAY BE COLLECTED AS EARLY AS 12 NOON.", "nsi_id": "unitedstatespostalservice-a77078", "operator": "United States Postal Service", "operator:short": "USPS", "operator:type": "public", "operator:wikidata": "Q668687", "ref": "4384000004"}, "type": "Feature"}
{"geometry": {"coordinates": [-82.009575113, 40.143757798], "type": "Point"}, "id": "PYKTMp6Q23khVDBVD0vt20EYC4U=", "properties": {"@source_uri": "https://tools.usps.com/UspsToolsRestServices/rest/POLocator/findLocations", "@spider": "usps_collection_boxes", "addr:city": "TRINWAY", "addr:country": "US", "addr:postcode": "43842", "addr:state": "OH", "addr:street_address": "12925 MAIN ST", "amenity": "post_box", "collection_times": "Mo-Fr 16:00; Sa 10:45", "note": "ON 12/24 AND 12/31, THIS BOX MAY BE COLLECTED AS EARLY AS 12 NOON.", "nsi_id": "unitedstatespostalservice-a77078", "operator": "United States Postal Service", "operator:short": "USPS", "operator:type": "public", "operator:wikidata": "Q668687", "ref": "4384200000"}, "type": "Feature"}
{"geometry": {"coordinates": [-82.009575113, 40.143757798], "type": "Point"}, "id": "1RInsfMzZe9xWDt4XXFS6G7XhtA=", "properties": {"@source_uri": "https://tools.usps.com/UspsToolsRestServices/rest/POLocator/findLocations", "@spider": "usps_collection_boxes", "addr:city": "TRINWAY", "addr:country": "US", "addr:postcode": "43842", "addr:state": "OH", "addr:street_address": "12925 MAIN ST", "amenity": "post_box", "collection_times": "Mo-Fr 16:00; Sa 10:45", "indoor": "yes", "note": "ON 12/24 AND 12/31, THIS BOX MAY BE COLLECTED AS EARLY AS 12 NOON.", "nsi_id": "unitedstatespostalservice-a77078", "operator": "United States Postal Service", "operator:short": "USPS", "operator:type": "public", "operator:wikidata": "Q668687", "ref": "4384200001"}, "type": "Feature"}
{"geometry": {"coordinates": [-82.009575113, 40.143757798], "type": "Point"}, "id": "f5q9Vn3hBSMzLNo7IOcgW9mfYiY=", "properties": {"@source_uri": "https://tools.usps.com/UspsToolsRestServices/rest/POLocator/findLocations", "@spider": "usps_collection_boxes", "addr:city": "TRINWAY", "addr:country": "US", "addr:postcode": "43842", "addr:state": "OH", "addr:street_address": "12925 MAIN ST", "amenity": "post_box", "collection_times": "Mo-Fr 16:30; Sa 11:15", "indoor": "yes", "note": "ON 12/24 AND 12/31, THIS BOX MAY BE COLLECTED AS EARLY AS 12 NOON.", "nsi_id": "unitedstatespostalservice-a77078", "operator": "United States Postal Service", "operator:short": "USPS", "operator:type": "public", "operator:wikidata": "Q668687", "ref": "4384200003"}, "type": "Feature"}
{"geometry": {"coordinates": [-82.147671247, 40.35973985], "type": "Point"}, "id": "wLEXkyRnUiFD09bzIjyRwgF5YrM=", "properties": {"@source_uri": "https://tools.usps.com/UspsToolsRestServices/rest/POLocator/findLocations", "@spider": "usps_collection_boxes", "addr:city": "WALHONDING", "addr:country": "US", "addr:postcode": "43843", "addr:state": "OH", "addr:street_address": "33118 STATE ROUTE 715", "amenity": "post_box", "collection_times": "Mo-Fr 16:00; Sa 10:15", "note": "ON 12/24 AND 12/31, THIS BOX MAY BE COLLECTED AS EARLY AS 12 NOON.", "nsi_id": "unitedstatespostalservice-a77078", "operator": "United States Postal Service", "operator:short": "USPS", "operator:type": "public", "operator:wikidata": "Q668687", "ref": "4384300000"}, "type": "Feature"}
{"geometry": {"coordinates": [-82.147671247, 40.35973985], "type": "Point"}, "id": "UeZCKA_iOFsOnE-NMgLvRRp5Spk=", "properties": {"@source_uri": "https://tools.usps.com/UspsToolsRestServices/rest/POLocator/findLocations", "@spider": "usps_collection_boxes", "addr:city": "WALHONDING", "addr:country": "US", "addr:postcode": "43843", "addr:state": "OH", "addr:street_address": "33118 STATE ROUTE 715", "amenity": "post_box", "collection_times": "Mo-Fr 16:00; Sa 10:15", "indoor": "yes", "note": "ON 12/24 AND 12/31, THIS BOX MAY BE COLLECTED AS EARLY AS 12 NOON.", "nsi_id": "unitedstatespostalservice-a77078", "operator": "United States Postal Service", "operator:short": "USPS", "operator:type": "public", "operator:wikidata": "Q668687", "ref": "4384300001"}, "type": "Feature"}
{"geometry": {"coordinates": [-82.147671247, 40.35973985], "type": "Point"}, "id": "wS-5cUeflVqGU30COYYxHSIX-f0=", "properties": {"@source_uri": "https://tools.usps.com/UspsToolsRestServices/rest/POLocator/findLocations", "@spider": "usps_collection_boxes", "addr:city": "WALHONDING", "addr:country": "US", "addr:postcode": "43843", "addr:state": "OH", "addr:street_address": "33118 STATE ROUTE 715", "amenity": "post_box", "collection_times": "Mo-Fr 16:00; Sa 12:00", "indoor": "yes", "note": "ON 12/24 AND 12/31, THIS BOX MAY BE COLLECTED AS EARLY AS 12 NOON.", "nsi_id": "unitedstatespostalservice-a77078", "operator": "United States Postal Service", "operator:short": "USPS", "operator:type": "public", "operator:wikidata": "Q668687", "ref": "4384300004"}, "type": "Feature"}
{"geometry": {"coordinates": [-81.995102497, 40.333094488], "type": "Point"}, "id": "ETQgtOCvmV2yHhyUeOJmI5fdTgM=", "properties": {"@source_uri": "https://tools.usps.com/UspsToolsRestServices/rest/POLocator/findLocations", "@spider": "usps_collection_boxes", "addr:city": "WARSAW", "addr:country": "US", "addr:postcode": "43844", "addr:state": "OH", "addr:street_address": "803 E MAIN ST", "amenity": "post_box", "collection_times": "Mo-Fr 16:15; Sa 10:45", "note": "ON 12/24 AND 12/31, THIS BOX MAY BE COLLECTED AS EARLY AS 12 NOON.", "nsi_id": "unitedstatespostalservice-a77078", "operator": "United States Postal Service", "operator:short": "USPS", "operator:type": "public", "operator:wikidata": "Q668687", "ref": "4384400000"}, "type": "Feature"}
{"geometry": {"coordinates": [-81.995102497, 40.333094488], "type": "Point"}, "id": "3udaKZDmUu68duAU0w-POHCTl_4=", "properties": {"@source_uri": "https://tools.usps.com/UspsToolsRestServices/rest/POLocator/findLocations", "@spider": "usps_collection_boxes", "addr:city": "WARSAW", "addr:country": "US", "addr:postcode": "43844", "addr:state": "OH", "addr:street_address": "803 E MAIN ST", "amenity": "post_box", "collection_times": "Mo-Fr 16:15; Sa 10:45", "indoor": "yes", "note": "ON 12/24 AND 12/31, THIS BOX MAY BE COLLECTED AS EARLY AS 12 NOON.", "nsi_id": "unitedstatespostalservice-a77078", "operator": "United States Postal Service", "operator:short": "USPS", "operator:type": "public", "operator:wikidata": "Q668687", "ref": "4384400001"}, "type": "Feature"}
{"geometry": {"coordinates": [-81.995102497, 40.333094488], "type": "Point"}, "id": "iDTog4VKBgiL_6jYb5I9ZRFKn5M=", "properties": {"@source_uri": "https://tools.usps.com/UspsToolsRestServices/rest/POLocator/findLocations", "@spider": "usps_collection_boxes", "addr:city": "WARSAW", "addr:country": "US", "addr:postcode": "43844", "addr:state": "OH", "addr:street_address": "803 E MAIN ST", "amenity": "post_box", "collection_times": "Mo-Fr 16:30; Sa 11:00", "indoor": "yes", "note": "ON 12/24 AND 12/31, THIS BOX MAY BE COLLECTED AS EARLY AS 12 NOON.", "nsi_id": "unitedstatespostalservice-a77078", "operator": "United States Postal Service", "operator:short": "USPS", "operator:type": "public", "operator:wikidata": "Q668687", "ref": "4384400006"}, "type": "Feature"}
{"geometry": {"coordinates": [-81.758709204, 40.276952824], "type": "Point"}, "id": "9FC3cm_5waHfSkYzYb8pCEFAMx4=", "properties": {"@source_uri": "https://tools.usps.com/UspsToolsRestServices/rest/POLocator/findLocations", "@spider": "usps_collection_boxes", "addr:city": "WEST LAFAYETTE", "addr:country": "US", "addr:postcode": "43845", "addr:state": "OH", "addr:street_address": "501 W MAIN ST", "amenity": "post_box", "collection_times": "Mo-Fr 16:20; Sa 11:45", "note": "ON 12/24 AND 12/31, THIS BOX MAY BE COLLECTED AS EARLY AS 12 NOON.", "nsi_id": "unitedstatespostalservice-a77078", "operator": "United States Postal Service", "operator:short": "USPS", "operator:type": "public", "operator:wikidata": "Q668687", "ref": "4384500000"}, "type": "Feature"}
{"geometry": {"coordinates": [-81.7556631, 40.277533], "type": "Point"}, "id": "xXtKWSLNlIucZU5Ii1O9R9F97Ds=", "properties": {"@source_uri": "https://tools.usps.com/UspsToolsRestServices/rest/POLocator/findLocations", "@spider": "usps_collection_boxes", "addr:city": "WEST LAFAYETTE", "addr:country": "US", "addr:postcode": "43845", "addr:state": "OH", "addr:street_address": "324 FAIRVIEW ST", "amenity": "post_box", "collection_times": "Mo-Sa 09:00", "nsi_id": "unitedstatespostalservice-a77078", "operator": "United States Postal Service", "operator:short": "USPS", "operator:type": "public", "operator:wikidata": "Q668687", "ref": "4384500007"}, "type": "Feature"}
{"geometry": {"coordinates": [-81.758709204, 40.276952824], "type": "Point"}, "id": "sO5VER05SADryyTMqmtwRk3yFMI=", "properties": {"@source_uri": "https://tools.usps.com/UspsToolsRestServices/rest/POLocator/findLocations", "@spider": "usps_collection_boxes", "addr:city": "WEST LAFAYETTE", "addr:country": "US", "addr:postcode": "43845", "addr:state": "OH", "addr:street_address": "501 W MAIN ST", "amenity": "post_box", "collection_times": "Mo-Fr 16:20; Sa 11:45", "indoor": "yes", "note": "ON 12/24 AND 12/31, THIS BOX MAY BE COLLECTED AS EARLY AS 12 NOON.", "nsi_id": "unitedstatespostalservice-a77078", "operator": "United States Postal Service", "operator:short": "USPS", "operator:type": "public", "operator:wikidata": "Q668687", "ref": "4384500009"}, "type": "Feature"}
{"geometry": {"coordinates": [-81.758709204, 40.276952824], "type": "Point"}, "id": "mSETr4a_2cdS7NWvz1CuLwf0Cw8=", "properties": {"@source_uri": "https://tools.usps.com/UspsToolsRestServices/rest/POLocator/findLocations", "@spider": "usps_collection_boxes", "addr:city": "WEST LAFAYETTE", "addr:country": "US", "addr:postcode": "43845", "addr:state": "OH", "addr:street_address": "501 W MAIN ST", "amenity": "post_box", "collection_times": "Mo-Fr 16:30; Sa 12:00", "indoor": "yes", "note": "ON 12/24 AND 12/31, THIS BOX MAY BE COLLECTED AS EARLY AS 12 NOON.", "nsi_id": "unitedstatespostalservice-a77078", "operator": "United States Postal Service", "operator:short": "USPS", "operator:type": "public", "operator:wikidata": "Q668687", "ref": "4384500016"}, "type": "Feature"}
