{"geometry": {"coordinates": [-80.873116518, 40.21871127], "type": "Point"}, "id": "bdQY06Ho6LPlKhE_T0lHxDjc8nU=", "properties": {"@source_uri": "https://tools.usps.com/UspsToolsRestServices/rest/POLocator/findLocations", "@spider": "usps_collection_boxes", "addr:city": "ADENA", "addr:country": "US", "addr:postcode": "43901", "addr:state": "OH", "addr:street_address": "16 W MAIN ST", "amenity": "post_box", "collection_times": "Mo-Fr 15:45; Sa 11:30", "indoor": "yes", "note": "ON 12/24 AND 12/31, THIS BOX MAY BE COLLECTED AS EARLY AS 12 NOON.", "nsi_id": "unitedstatespostalservice-a77078", "operator": "United States Postal Service", "operator:short": "USPS", "operator:type": "public", "operator:wikidata": "Q668687", "ref": "4390100000"}, "type": "Feature"}
{"geometry": {"coordinates": [-80.873116518, 40.21871127], "type": "Point"}, "id": "8BxIKIHZ0DBsyNr4AuYGag5y77Q=", "properties": {"@source_uri": "https://tools.usps.com/UspsToolsRestServices/rest/POLocator/findLocations", "@spider": "usps_collection_boxes", "addr:city": "ADENA", "addr:country": "US", "addr:postcode": "43901", "addr:state": "OH", "addr:street_address": "16 W MAIN ST", "amenity": "post_box", "collection_times": "Mo-Fr 15:45; Sa 11:30", "note": "ON 12/24 AND 12/31, THIS BOX MAY BE COLLECTED AS EARLY AS 12 NOON.", "nsi_id": "unitedstatespostalservice-a77078", "operator": "United States Postal Service", "operator:short": "USPS", "operator:type": "public", "operator:wikidata": "Q668687", "ref": "4390100001"}, "type": "Feature"}
{"geometry": {"coordinates": [-80.873116518, 40.21871127], "type": "Point"}, "id": "OhD7ONDy3ewvsP_asGObUtSIVD4=", "properties": {"@source_uri": "https://tools.usps.com/UspsToolsRestServices/rest/POLocator/findLocations", "@spider": "usps_collection_boxes", "addr:city": "ADENA", "addr:country": "US", "addr:postcode": "43901", "addr:state": "OH", "addr:street_address": "16 W MAIN ST", "amenity": "post_box", "collection_times": "Mo-Fr 15:45; Sa 11:00", "indoor": "yes", "note": "ON 12/24 AND 12/31, THIS BOX MAY BE COLLECTED AS EARLY AS 12 NOON.", "nsi_id": "unitedstatespostalservice-a77078", "operator": "United States Postal Service", "operator:short": "USPS", "operator:type": "public", "operator:wikidata": "Q668687", "ref": "4390100005"}, "type": "Feature"}
{"geometry": {"coordinates": [-80.923765128, 40.473282209], "type": "Point"}, "id": "zNkfuYhBOSFLNm2R48UFCoBQcKk=", "properties": {"@source_uri": "https://tools.usps.com/UspsToolsRestServices/rest/POLocator/findLocations", "@spider": "usps_collection_boxes", "addr:city": "AMSTERDAM", "addr:country": "US", "addr:postcode": "43903", "addr:state": "OH", "addr:street_address": "116 S MAIN ST", "amenity": "post_box", "collection_times": "Mo-Fr 14:30; Sa 11:30", "note": "ON 12/24 AND 12/31, THIS BOX MAY BE COLLECTED AS EARLY AS 12 NOON.", "nsi_id": "unitedstatespostalservice-a77078", "operator": "United States Postal Service", "operator:short": "USPS", "operator:type": "public", "operator:wikidata": "Q668687", "ref": "4390300000"}, "type": "Feature"}
{"geometry": {"coordinates": [-80.923765128, 40.473282209], "type": "Point"}, "id": "Bb1H5ZNFygV_BIciv_ZbWoUVRAE=", "properties": {"@source_uri": "https://tools.usps.com/UspsToolsRestServices/rest/POLocator/findLocations", "@spider": "usps_collection_boxes", "addr:city": "AMSTERDAM", "addr:country": "US", "addr:postcode": "43903", "addr:state": "OH", "addr:street_address": "116 S MAIN ST", "amenity": "post_box", "collection_times": "Mo-Fr 14:30; Sa 11:30", "indoor": "yes", "note": "ON 12/24 AND 12/31, THIS BOX MAY BE COLLECTED AS EARLY AS 12 NOON.", "nsi_id": "unitedstatespostalservice-a77078", "operator": "United States Postal Service", "operator:short": "USPS", "operator:type": "public", "operator:wikidata": "Q668687", "ref": "4390300001"}, "type": "Feature"}
{"geometry": {"coordinates": [-80.923765128, 40.473282209], "type": "Point"}, "id": "SGasejjfQDIuWx1Pxf39bE9fjXI=", "properties": {"@source_uri": "https://tools.usps.com/UspsToolsRestServices/rest/POLocator/findLocations", "@spider": "usps_collection_boxes", "addr:city": "AMSTERDAM", "addr:country": "US", "addr:postcode": "43903", "addr:state": "OH", "addr:street_address": "116 S MAIN ST", "amenity": "post_box", "collection_times": "Mo-Fr 14:30; Sa 11:30", "indoor": "yes", "note": "ON 12/24 AND 12/31, THIS BOX MAY BE COLLECTED AS EARLY AS 12 NOON.", "nsi_id": "unitedstatespostalservice-a77078", "operator": "United States Postal Service", "operator:short": "USPS", "operator:type": "public", "operator:wikidata": "Q668687", "ref": "4390300004"}, "type": "Feature"}
{"geometry": {"coordinates": [-80.843586635, 40.105672441], "type": "Point"}, "id": "GNYp3Uo-oXQmcTFiGnT-J48YMsk=", "properties": {"@source_uri": "https://tools.usps.com/UspsToolsRestServices/rest/POLocator/findLocations", "@spider": "usps_collection_boxes", "addr:city": "BARTON", "addr:country": "US", "addr:postcode": "43905", "addr:state": "OH", "addr:street_address": "70659 MAIN ST", "amenity": "post_box", "collection_times": "Mo-Fr 12:00; Sa 10:00", "nsi_id": "unitedstatespostalservice-a77078", "operator": "United States Postal Service", "operator:short": "USPS", "operator:type": "public", "operator:wikidata": "Q668687", "ref": "4390500000"}, "type": "Feature"}
{"geometry": {"coordinates": [-80.843586635, 40.105672441], "type": "Point"}, "id": "mNQOZA9LWklfFKQvJbnkst-EPGU=", "properties": {"@source_uri": "https://tools.usps.com/UspsToolsRestServices/rest/POLocator/findLocations", "@spider": "usps_collection_boxes", "addr:city": "BARTON", "addr:country": "US", "addr:postcode": "43905", "addr:state": "OH", "addr:street_address": "70659 MAIN ST", "amenity": "post_box", "collection_times": "Mo-Fr 12:00; Sa 10:00", "indoor": "yes", "nsi_id": "unitedstatespostalservice-a77078", "operator": "United States Postal Service", "operator:short": "USPS", "operator:type": "public", "operator:wikidata": "Q668687", "ref": "4390500003"}, "type": "Feature"}
{"geometry": {"coordinates": [-80.744933582, 40.015755811], "type": "Point"}, "id": "ywifxL0bqQVsKyFz14pda4HIjMQ=", "properties": {"@source_uri": "https://tools.usps.com/UspsToolsRestServices/rest/POLocator/findLocations", "@spider": "usps_collection_boxes", "addr:city": "BELLAIRE", "addr:country": "US", "addr:postcode": "43906", "addr:state": "OH", "addr:street_address": "451 33RD ST", "amenity": "post_box", "collection_times": "Mo-Fr 17:00; Sa 15:30", "note": "ON 12/24 AND 12/31, THIS BOX MAY BE COLLECTED AS EARLY AS 12 NOON.", "nsi_id": "unitedstatespostalservice-a77078", "operator": "United States Postal Service", "operator:short": "USPS", "operator:type": "public", "operator:wikidata": "Q668687", "ref": "4390600000"}, "type": "Feature"}
{"geometry": {"coordinates": [-80.7488123, 40.011787], "type": "Point"}, "id": "MnTtTXvWp_bfvR80Zg5ncV2qWJ4=", "properties": {"@source_uri": "https://tools.usps.com/UspsToolsRestServices/rest/POLocator/findLocations", "@spider": "usps_collection_boxes", "addr:city": "BELLAIRE", "addr:country": "US", "addr:postcode": "43906", "addr:state": "OH", "addr:street_address": "400 IMPERIAL PLZ", "amenity": "post_box", "collection_times": "Mo-Sa 12:00", "nsi_id": "unitedstatespostalservice-a77078", "operator": "United States Postal Service", "operator:short": "USPS", "operator:type": "public", "operator:wikidata": "Q668687", "ref": "4390600008"}, "type": "Feature"}
{"geometry": {"coordinates": [-80.7431007, 40.013945], "type": "Point"}, "id": "t2QzZgrDY-XCb9_2dNjmLoHzeZ0=", "properties": {"@source_uri": "https://tools.usps.com/UspsToolsRestServices/rest/POLocator/findLocations", "@spider": "usps_collection_boxes", "addr:city": "BELLAIRE", "addr:country": "US", "addr:postcode": "43906", "addr:state": "OH", "addr:street_address": "3198 BELMONT ST", "amenity": "post_box", "collection_times": "Mo-Sa 12:00", "nsi_id": "unitedstatespostalservice-a77078", "operator": "United States Postal Service", "operator:short": "USPS", "operator:type": "public", "operator:wikidata": "Q668687", "ref": "4390600009"}, "type": "Feature"}
{"geometry": {"coordinates": [-80.7416984, 40.02086], "type": "Point"}, "id": "KBOmhaDkNFFH0hD_es1xe4YRmm4=", "properties": {"@source_uri": "https://tools.usps.com/UspsToolsRestServices/rest/POLocator/findLocations", "@spider": "usps_collection_boxes", "addr:city": "BELLAIRE", "addr:country": "US", "addr:postcode": "43906", "addr:state": "OH", "addr:street_address": "3800 JEFFERSON ST", "amenity": "post_box", "collection_times": "Mo-Sa 12:00", "nsi_id": "unitedstatespostalservice-a77078", "operator": "United States Postal Service", "operator:short": "USPS", "operator:type": "public", "operator:wikidata": "Q668687", "ref": "4390600012"}, "type": "Feature"}
{"geometry": {"coordinates": [-80.7398915, 40.029668], "type": "Point"}, "id": "R-scXYUOXuD1PoAFnpD8lp5US0w=", "properties": {"@source_uri": "https://tools.usps.com/UspsToolsRestServices/rest/POLocator/findLocations", "@spider": "usps_collection_boxes", "addr:city": "BELLAIRE", "addr:country": "US", "addr:postcode": "43906", "addr:state": "OH", "addr:street_address": "4696 NOBLE ST", "amenity": "post_box", "collection_times": "Mo-Sa 11:30", "nsi_id": "unitedstatespostalservice-a77078", "operator": "United States Postal Service", "operator:short": "USPS", "operator:type": "public", "operator:wikidata": "Q668687", "ref": "4390600017"}, "type": "Feature"}
{"geometry": {"coordinates": [-80.7394255, 40.028352], "type": "Point"}, "id": "hnAgYWMr4f4rxoWaP0f3uNddzhY=", "properties": {"@source_uri": "https://tools.usps.com/UspsToolsRestServices/rest/POLocator/findLocations", "@spider": "usps_collection_boxes", "addr:city": "BELLAIRE", "addr:country": "US", "addr:postcode": "43906", "addr:state": "OH", "addr:street_address": "4595 JEFFERSON ST", "amenity": "post_box", "collection_times": "Mo-Sa 10:00", "nsi_id": "unitedstatespostalservice-a77078", "operator": "United States Postal Service", "operator:short": "USPS", "operator:type": "public", "operator:wikidata": "Q668687", "ref": "4390600020"}, "type": "Feature"}
{"geometry": {"coordinates": [-80.7475241, 40.011185], "type": "Point"}, "id": "pzTnSA7cJFZZ5Q5s2wgttrGMGfo=", "properties": {"@source_uri": "https://tools.usps.com/UspsToolsRestServices/rest/POLocator/findLocations", "@spider": "usps_collection_boxes", "addr:city": "BELLAIRE", "addr:country": "US", "addr:postcode": "43906", "addr:state": "OH", "addr:street_address": "400 28TH ST", "amenity": "post_box", "collection_times": "Mo-Sa 12:00", "nsi_id": "unitedstatespostalservice-a77078", "operator": "United States Postal Service", "operator:short": "USPS", "operator:type": "public", "operator:wikidata": "Q668687", "ref": "4390600021"}, "type": "Feature"}
{"geometry": {"coordinates": [-80.744933582, 40.015755811], "type": "Point"}, "id": "MojVxAtdgGU0o43tXRpzg6V-K9M=", "properties": {"@source_uri": "https://tools.usps.com/UspsToolsRestServices/rest/POLocator/findLocations", "@spider": "usps_collection_boxes", "addr:city": "BELLAIRE", "addr:country": "US", "addr:postcode": "43906", "addr:state": "OH", "addr:street_address": "451 33RD ST", "amenity": "post_box", "collection_times": "Mo-Fr 17:00; Sa 12:00", "indoor": "yes", "note": "ON 12/24 AND 12/31, THIS BOX MAY BE COLLECTED AS EARLY AS 12 NOON.", "nsi_id": "unitedstatespostalservice-a77078", "operator": "United States Postal Service", "operator:short": "USPS", "operator:type": "public", "operator:wikidata": "Q668687", "ref": "4390600023"}, "type": "Feature"}
{"geometry": {"coordinates": [-80.9945124, 40.271011], "type": "Point"}, "id": "2cue7C-iSYlpFmzWOGlrDWdZuRw=", "properties": {"@source_uri": "https://tools.usps.com/UspsToolsRestServices/rest/POLocator/findLocations", "@spider": "usps_collection_boxes", "addr:city": "CADIZ", "addr:country": "US", "addr:postcode": "43907", "addr:state": "OH", "addr:street_address": "300 E MARKET ST", "amenity": "post_box", "collection_times": "Mo-Sa 11:30", "nsi_id": "unitedstatespostalservice-a77078", "operator": "United States Postal Service", "operator:short": "USPS", "operator:type": "public", "operator:wikidata": "Q668687", "ref": "4390700003"}, "type": "Feature"}
{"geometry": {"coordinates": [-80.9819349, 40.263872], "type": "Point"}, "id": "SLBGS52zfKUNRZoaSKBpyXAMets=", "properties": {"@source_uri": "https://tools.usps.com/UspsToolsRestServices/rest/POLocator/findLocations", "@spider": "usps_collection_boxes", "addr:city": "CADIZ", "addr:country": "US", "addr:postcode": "43907", "addr:state": "OH", "addr:street_address": "775 E MARKET ST", "amenity": "post_box", "collection_times": "Mo-Sa 14:00", "note": "ON 12/24 AND 12/31, THIS BOX MAY BE COLLECTED AS EARLY AS 12 NOON.", "nsi_id": "unitedstatespostalservice-a77078", "operator": "United States Postal Service", "operator:short": "USPS", "operator:type": "public", "operator:wikidata": "Q668687", "ref": "4390700005"}, "type": "Feature"}
{"geometry": {"coordinates": [-80.9977038, 40.273091], "type": "Point"}, "id": "xtzTjzetF89SkXZVBNUMQPOo5No=", "properties": {"@source_uri": "https://tools.usps.com/UspsToolsRestServices/rest/POLocator/findLocations", "@spider": "usps_collection_boxes", "addr:city": "CADIZ", "addr:country": "US", "addr:postcode": "43907", "addr:state": "OH", "addr:street_address": "100 W MARKET ST", "amenity": "post_box", "collection_times": "Mo-Fr 14:45", "note": "ON 12/24 AND 12/31, THIS BOX MAY BE COLLECTED AS EARLY AS 12 NOON.", "nsi_id": "unitedstatespostalservice-a77078", "operator": "United States Postal Service", "operator:short": "USPS", "operator:type": "public", "operator:wikidata": "Q668687", "ref": "4390700006"}, "type": "Feature"}
{"geometry": {"coordinates": [-80.9840234, 40.289772], "type": "Point"}, "id": "bl34UKSmw3orLaBPJ6GywUxktsQ=", "properties": {"@source_uri": "https://tools.usps.com/UspsToolsRestServices/rest/POLocator/findLocations", "@spider": "usps_collection_boxes", "addr:city": "CADIZ", "addr:country": "US", "addr:postcode": "43907", "addr:state": "OH", "addr:street_address": "538 N MAIN ST", "amenity": "post_box", "collection_times": "Mo-Fr 09:30", "nsi_id": "unitedstatespostalservice-a77078", "operator": "United States Postal Service", "operator:short": "USPS", "operator:type": "public", "operator:wikidata": "Q668687", "ref": "4390700009"}, "type": "Feature"}
{"geometry": {"coordinates": [-80.999645349, 40.288455426], "type": "Point"}, "id": "UGQfGv666l4bXfHfFmQxYGDdfNo=", "properties": {"@source_uri": "https://tools.usps.com/UspsToolsRestServices/rest/POLocator/findLocations", "@spider": "usps_collection_boxes", "addr:city": "CADIZ", "addr:country": "US", "addr:postcode": "43907", "addr:state": "OH", "addr:street_address": "82422 CADIZ-JEWETT RD", "amenity": "post_box", "collection_times": "Mo-Fr 17:00; Sa 12:00", "indoor": "yes", "note": "ON 12/24 AND 12/31, THIS BOX MAY BE COLLECTED AS EARLY AS 12 NOON.", "nsi_id": "unitedstatespostalservice-a77078", "operator": "United States Postal Service", "operator:short": "USPS", "operator:type": "public", "operator:wikidata": "Q668687", "ref": "4390700011"}, "type": "Feature"}
{"geometry": {"coordinates": [-80.9996453485, 40.2884554257], "type": "Point"}, "id": "--sTAZ_KDbP36Zd806t54KoT7Ts=", "properties": {"@source_uri": "https://tools.usps.com/UspsToolsRestServices/rest/POLocator/findLocations", "@spider": "usps_collection_boxes", "addr:city": "CADIZ", "addr:country": "US", "addr:postcode": "43907", "addr:state": "OH", "addr:street_address": "82422 CADIZ JEWETT RD", "amenity": "post_box", "collection_times": "Mo-Fr 17:00; Sa 15:45", "note": "ON 12/24 AND 12/31, THIS BOX MAY BE COLLECTED AS EARLY AS 12 NOON.", "nsi_id": "unitedstatespostalservice-a77078", "operator": "United States Postal Service", "operator:short": "USPS", "operator:type": "public", "operator:wikidata": "Q668687", "ref": "4390700012"}, "type": "Feature"}
{"geometry": {"coordinates": [-80.9996453485, 40.2884554257], "type": "Point"}, "id": "D82stoj6gf2-GsBV_Ydv6xoWpOU=", "properties": {"@source_uri": "https://tools.usps.com/UspsToolsRestServices/rest/POLocator/findLocations", "@spider": "usps_collection_boxes", "addr:city": "CADIZ", "addr:country": "US", "addr:postcode": "43907", "addr:state": "OH", "addr:street_address": "82422 CADIZ JEWETT RD", "amenity": "post_box", "collection_times": "Mo-Fr 17:00; Sa 15:45", "indoor": "yes", "note": "ON 12/24 AND 12/31, THIS BOX MAY BE COLLECTED AS EARLY AS 12 NOON.", "nsi_id": "unitedstatespostalservice-a77078", "operator": "United States Postal Service", "operator:short": "USPS", "operator:type": "public", "operator:wikidata": "Q668687", "ref": "4390700013"}, "type": "Feature"}
{"geometry": {"coordinates": [-80.883254141, 40.519353785], "type": "Point"}, "id": "x9wMVQlaGBH2Ualw2YjeaaVLWjk=", "properties": {"@source_uri": "https://tools.usps.com/UspsToolsRestServices/rest/POLocator/findLocations", "@spider": "usps_collection_boxes", "addr:city": "BERGHOLZ", "addr:country": "US", "addr:postcode": "43908", "addr:state": "OH", "addr:street_address": "254 2ND ST", "amenity": "post_box", "collection_times": "Mo-Fr 16:45; Sa 11:30", "note": "ON 12/24 AND 12/31, THIS BOX MAY BE COLLECTED AS EARLY AS 12 NOON.", "nsi_id": "unitedstatespostalservice-a77078", "operator": "United States Postal Service", "operator:short": "USPS", "operator:type": "public", "operator:wikidata": "Q668687", "ref": "4390800001"}, "type": "Feature"}
{"geometry": {"coordinates": [-80.883254141, 40.519353785], "type": "Point"}, "id": "Ih4evK9i1VkJ7-EcdzTrG65Pszc=", "properties": {"@source_uri": "https://tools.usps.com/UspsToolsRestServices/rest/POLocator/findLocations", "@spider": "usps_collection_boxes", "addr:city": "BERGHOLZ", "addr:country": "US", "addr:postcode": "43908", "addr:state": "OH", "addr:street_address": "254 2ND ST", "amenity": "post_box", "collection_times": "Mo-Fr 16:30; Sa 11:30", "indoor": "yes", "note": "ON 12/24 AND 12/31, THIS BOX MAY BE COLLECTED AS EARLY AS 12 NOON.", "nsi_id": "unitedstatespostalservice-a77078", "operator": "United States Postal Service", "operator:short": "USPS", "operator:type": "public", "operator:wikidata": "Q668687", "ref": "4390800003"}, "type": "Feature"}
{"geometry": {"coordinates": [-80.817381135, 40.067062868], "type": "Point"}, "id": "zUcA6lk3-Weud3O9o3Dvz5Tgcx8=", "properties": {"@source_uri": "https://tools.usps.com/UspsToolsRestServices/rest/POLocator/findLocations", "@spider": "usps_collection_boxes", "addr:city": "BLAINE", "addr:country": "US", "addr:postcode": "43909", "addr:state": "OH", "addr:street_address": "53739 NATIONAL RD", "amenity": "post_box", "collection_times": "Mo-Fr 16:45; Sa 10:00", "note": "ON 12/24 AND 12/31, THIS BOX MAY BE COLLECTED AS EARLY AS 12 NOON.", "nsi_id": "unitedstatespostalservice-a77078", "operator": "United States Postal Service", "operator:short": "USPS", "operator:type": "public", "operator:wikidata": "Q668687", "ref": "4390900000"}, "type": "Feature"}
{"geometry": {"coordinates": [-80.817381135, 40.067062868], "type": "Point"}, "id": "MlW9tVGPjnKbfBJaTtx1dOJx8xA=", "properties": {"@source_uri": "https://tools.usps.com/UspsToolsRestServices/rest/POLocator/findLocations", "@spider": "usps_collection_boxes", "addr:city": "BLAINE", "addr:country": "US", "addr:postcode": "43909", "addr:state": "OH", "addr:street_address": "53739 NATIONAL RD", "amenity": "post_box", "collection_times": "Mo-Fr 16:45; Sa 10:00", "indoor": "yes", "note": "ON 12/24 AND 12/31, THIS BOX MAY BE COLLECTED AS EARLY AS 12 NOON.", "nsi_id": "unitedstatespostalservice-a77078", "operator": "United States Postal Service", "operator:short": "USPS", "operator:type": "public", "operator:wikidata": "Q668687", "ref": "4390900004"}, "type": "Feature"}
{"geometry": {"coordinates": [-80.81628799, 40.342046276], "type": "Point"}, "id": "HvihBh1ESZb5fvb5vZ9yC1eTqQQ=", "properties": {"@source_uri": "https://tools.usps.com/UspsToolsRestServices/rest/POLocator/findLocations", "@spider": "usps_collection_boxes", "addr:city": "BLOOMINGDALE", "addr:country": "US", "addr:postcode": "43910", "addr:state": "OH", "addr:street_address": "111 HIGH ST", "amenity": "post_box", "collection_times": "Mo-Fr 16:30; Sa 11:30", "note": "ON 12/24 AND 12/31, THIS BOX MAY BE COLLECTED AS EARLY AS 12 NOON.", "nsi_id": "unitedstatespostalservice-a77078", "operator": "United States Postal Service", "operator:short": "USPS", "operator:type": "public", "operator:wikidata": "Q668687", "ref": "4391000000"}, "type": "Feature"}
{"geometry": {"coordinates": [-80.7524595, 40.07118], "type": "Point"}, "id": "mRI9Jxw9KYI3UvQOZSuCz46WlbM=", "properties": {"@source_uri": "https://tools.usps.com/UspsToolsRestServices/rest/POLocator/findLocations", "@spider": "usps_collection_boxes", "addr:city": "BRIDGEPORT", "addr:country": "US", "addr:postcode": "43912", "addr:state": "OH", "addr:street_address": "703 MAIN ST", "amenity": "post_box", "collection_times": "Mo-Sa 13:00", "note": "ON 12/24 AND 12/31, THIS BOX MAY BE COLLECTED AS EARLY AS 12 NOON.", "nsi_id": "unitedstatespostalservice-a77078", "operator": "United States Postal Service", "operator:short": "USPS", "operator:type": "public", "operator:wikidata": "Q668687", "ref": "4391200005"}, "type": "Feature"}
{"geometry": {"coordinates": [-80.7615093, 40.070736], "type": "Point"}, "id": "dL-FvRZrai6QmIRWMSybez2AMiI=", "properties": {"@source_uri": "https://tools.usps.com/UspsToolsRestServices/rest/POLocator/findLocations", "@spider": "usps_collection_boxes", "addr:city": "BRIDGEPORT", "addr:country": "US", "addr:postcode": "43912", "addr:state": "OH", "addr:street_address": "906 NATIONAL RD", "amenity": "post_box", "collection_times": "Mo-Sa 12:00", "nsi_id": "unitedstatespostalservice-a77078", "operator": "United States Postal Service", "operator:short": "USPS", "operator:type": "public", "operator:wikidata": "Q668687", "ref": "4391200006"}, "type": "Feature"}
{"geometry": {"coordinates": [-80.768579, 40.067558], "type": "Point"}, "id": "jb56jEzn0oyuwYjSGR8shgDuihI=", "properties": {"@source_uri": "https://tools.usps.com/UspsToolsRestServices/rest/POLocator/findLocations", "@spider": "usps_collection_boxes", "addr:city": "BRIDGEPORT", "addr:country": "US", "addr:postcode": "43912", "addr:state": "OH", "addr:street_address": "56130 NATIONAL RD", "amenity": "post_box", "collection_times": "Mo-Sa 14:45", "note": "ON 12/24 AND 12/31, THIS BOX MAY BE COLLECTED AS EARLY AS 12 NOON.", "nsi_id": "unitedstatespostalservice-a77078", "operator": "United States Postal Service", "operator:short": "USPS", "operator:type": "public", "operator:wikidata": "Q668687", "ref": "4391200008"}, "type": "Feature"}
{"geometry": {"coordinates": [-80.7432915, 40.07024], "type": "Point"}, "id": "1yZjxkkjuqBksCJheWOUXnQ3yTM=", "properties": {"@source_uri": "https://tools.usps.com/UspsToolsRestServices/rest/POLocator/findLocations", "@spider": "usps_collection_boxes", "addr:city": "BRIDGEPORT", "addr:country": "US", "addr:postcode": "43912", "addr:state": "OH", "addr:street_address": "320 HOWARD ST", "amenity": "post_box", "collection_times": "Mo-Sa 14:30", "note": "ON 12/24 AND 12/31, THIS BOX MAY BE COLLECTED AS EARLY AS 12 NOON.", "nsi_id": "unitedstatespostalservice-a77078", "operator": "United States Postal Service", "operator:short": "USPS", "operator:type": "public", "operator:wikidata": "Q668687", "ref": "4391200012"}, "type": "Feature"}
{"geometry": {"coordinates": [-80.740886587, 40.069780882], "type": "Point"}, "id": "seh0JHF5EdfG-YEuVti-KPGe4YM=", "properties": {"@source_uri": "https://tools.usps.com/UspsToolsRestServices/rest/POLocator/findLocations", "@spider": "usps_collection_boxes", "addr:city": "BRIDGEPORT", "addr:country": "US", "addr:postcode": "43912", "addr:state": "OH", "addr:street_address": "300 S LINCOLN AVE", "amenity": "post_box", "collection_times": "Mo-Fr 17:00; Sa 12:00", "note": "ON 12/24 AND 12/31, THIS BOX MAY BE COLLECTED AS EARLY AS 12 NOON.", "nsi_id": "unitedstatespostalservice-a77078", "operator": "United States Postal Service", "operator:short": "USPS", "operator:type": "public", "operator:wikidata": "Q668687", "ref": "4391200015"}, "type": "Feature"}
{"geometry": {"coordinates": [-80.740886587, 40.069780882], "type": "Point"}, "id": "uSqJYjSWq4sb1TuVzl3TweggpzM=", "properties": {"@source_uri": "https://tools.usps.com/UspsToolsRestServices/rest/POLocator/findLocations", "@spider": "usps_collection_boxes", "addr:city": "BRIDGEPORT", "addr:country": "US", "addr:postcode": "43912", "addr:state": "OH", "addr:street_address": "300 S LINCOLN AVE", "amenity": "post_box", "collection_times": "Mo-Fr 17:00; Sa 12:00", "indoor": "yes", "note": "ON 12/24 AND 12/31, THIS BOX MAY BE COLLECTED AS EARLY AS 12 NOON.", "nsi_id": "unitedstatespostalservice-a77078", "operator": "United States Postal Service", "operator:short": "USPS", "operator:type": "public", "operator:wikidata": "Q668687", "ref": "4391200025"}, "type": "Feature"}
{"geometry": {"coordinates": [-80.629199999, 40.264964632], "type": "Point"}, "id": "hO8YHWSmjBLf_7Gc2IwpjQ2iUx8=", "properties": {"@source_uri": "https://tools.usps.com/UspsToolsRestServices/rest/POLocator/findLocations", "@spider": "usps_collection_boxes", "addr:city": "BRILLIANT", "addr:country": "US", "addr:postcode": "43913", "addr:state": "OH", "addr:street_address": "801 3RD ST", "amenity": "post_box", "collection_times": "Mo-Fr 16:15; Sa 11:30", "note": "ON 12/24 AND 12/31, THIS BOX MAY BE COLLECTED AS EARLY AS 12 NOON.", "nsi_id": "unitedstatespostalservice-a77078", "operator": "United States Postal Service", "operator:short": "USPS", "operator:type": "public", "operator:wikidata": "Q668687", "ref": "4391300000"}, "type": "Feature"}
{"geometry": {"coordinates": [-80.6350752, 40.262335], "type": "Point"}, "id": "PM2pns937cJTw5x-8K2J2OF0XKk=", "properties": {"@source_uri": "https://tools.usps.com/UspsToolsRestServices/rest/POLocator/findLocations", "@spider": "usps_collection_boxes", "addr:city": "BRILLIANT", "addr:country": "US", "addr:postcode": "43913", "addr:state": "OH", "addr:street_address": "1000 GILCHRIST ST", "amenity": "post_box", "collection_times": "Mo-Sa 10:30", "nsi_id": "unitedstatespostalservice-a77078", "operator": "United States Postal Service", "operator:short": "USPS", "operator:type": "public", "operator:wikidata": "Q668687", "ref": "4391300002"}, "type": "Feature"}
{"geometry": {"coordinates": [-80.6297755, 40.263252], "type": "Point"}, "id": "mZCq3RuMo4_6eKi7XHrgT5AX7N4=", "properties": {"@source_uri": "https://tools.usps.com/UspsToolsRestServices/rest/POLocator/findLocations", "@spider": "usps_collection_boxes", "addr:city": "BRILLIANT", "addr:country": "US", "addr:postcode": "43913", "addr:state": "OH", "addr:street_address": "900 2ND ST", "amenity": "post_box", "collection_times": "Mo-Sa 11:30", "nsi_id": "unitedstatespostalservice-a77078", "operator": "United States Postal Service", "operator:short": "USPS", "operator:type": "public", "operator:wikidata": "Q668687", "ref": "4391300003"}, "type": "Feature"}
{"geometry": {"coordinates": [-80.629199999, 40.264964632], "type": "Point"}, "id": "POJue1TblGgBt4CbHSqL0Z17Ypg=", "properties": {"@source_uri": "https://tools.usps.com/UspsToolsRestServices/rest/POLocator/findLocations", "@spider": "usps_collection_boxes", "addr:city": "BRILLIANT", "addr:country": "US", "addr:postcode": "43913", "addr:state": "OH", "addr:street_address": "801 3RD ST", "amenity": "post_box", "collection_times": "Mo-Fr 16:30; Sa 12:00", "indoor": "yes", "note": "ON 12/24 AND 12/31, THIS BOX MAY BE COLLECTED AS EARLY AS 12 NOON.", "nsi_id": "unitedstatespostalservice-a77078", "operator": "United States Postal Service", "operator:short": "USPS", "operator:type": "public", "operator:wikidata": "Q668687", "ref": "4391300007"}, "type": "Feature"}
{"geometry": {"coordinates": [-80.944535586, 39.767911512], "type": "Point"}, "id": "cjFGWqOxbOEElHpYYdITZaRv0HM=", "properties": {"@source_uri": "https://tools.usps.com/UspsToolsRestServices/rest/POLocator/findLocations", "@spider": "usps_collection_boxes", "addr:city": "CAMERON", "addr:country": "US", "addr:postcode": "43914", "addr:state": "OH", "addr:street_address": "48126 MAIN ST", "amenity": "post_box", "collection_times": "Mo-Sa 10:00", "nsi_id": "unitedstatespostalservice-a77078", "operator": "United States Postal Service", "operator:short": "USPS", "operator:type": "public", "operator:wikidata": "Q668687", "ref": "4391400000"}, "type": "Feature"}
{"geometry": {"coordinates": [-80.944535586, 39.767911512], "type": "Point"}, "id": "KZGrUWuSzfnCNucvV4YmEXRF_qI=", "properties": {"@source_uri": "https://tools.usps.com/UspsToolsRestServices/rest/POLocator/findLocations", "@spider": "usps_collection_boxes", "addr:city": "CAMERON", "addr:country": "US", "addr:postcode": "43914", "addr:state": "OH", "addr:street_address": "48126 MAIN ST", "amenity": "post_box", "collection_times": "Mo-Sa 10:00", "indoor": "yes", "nsi_id": "unitedstatespostalservice-a77078", "operator": "United States Postal Service", "operator:short": "USPS", "operator:type": "public", "operator:wikidata": "Q668687", "ref": "4391400001"}, "type": "Feature"}
{"geometry": {"coordinates": [-80.944535586, 39.767911512], "type": "Point"}, "id": "MWInoUIFn5c_4aSD57be581hbiY=", "properties": {"@source_uri": "https://tools.usps.com/UspsToolsRestServices/rest/POLocator/findLocations", "@spider": "usps_collection_boxes", "addr:city": "CAMERON", "addr:country": "US", "addr:postcode": "43914", "addr:state": "OH", "addr:street_address": "48126 MAIN ST", "amenity": "post_box", "collection_times": "Mo-Sa 11:45", "indoor": "yes", "nsi_id": "unitedstatespostalservice-a77078", "operator": "United States Postal Service", "operator:short": "USPS", "operator:type": "public", "operator:wikidata": "Q668687", "ref": "4391400003"}, "type": "Feature"}
{"geometry": {"coordinates": [-80.868871014, 39.770887506], "type": "Point"}, "id": "jJxDYCA-NN06T58Gjb9hP1fyeIA=", "properties": {"@source_uri": "https://tools.usps.com/UspsToolsRestServices/rest/POLocator/findLocations", "@spider": "usps_collection_boxes", "addr:city": "CLARINGTON", "addr:country": "US", "addr:postcode": "43915", "addr:state": "OH", "addr:street_address": "506 MARKET ST", "amenity": "post_box", "collection_times": "Mo-Fr 14:45; Sa 10:30", "note": "ON 12/24 AND 12/31, THIS BOX MAY BE COLLECTED AS EARLY AS 12 NOON.", "nsi_id": "unitedstatespostalservice-a77078", "operator": "United States Postal Service", "operator:short": "USPS", "operator:type": "public", "operator:wikidata": "Q668687", "ref": "4391500000"}, "type": "Feature"}
{"geometry": {"coordinates": [-80.868871014, 39.770887506], "type": "Point"}, "id": "opoplBiTxoOEwPEC7d9PrmZz2fA=", "properties": {"@source_uri": "https://tools.usps.com/UspsToolsRestServices/rest/POLocator/findLocations", "@spider": "usps_collection_boxes", "addr:city": "CLARINGTON", "addr:country": "US", "addr:postcode": "43915", "addr:state": "OH", "addr:street_address": "506 MARKET ST", "amenity": "post_box", "collection_times": "Mo-Fr 14:45; Sa 10:30", "indoor": "yes", "note": "ON 12/24 AND 12/31, THIS BOX MAY BE COLLECTED AS EARLY AS 12 NOON.", "nsi_id": "unitedstatespostalservice-a77078", "operator": "United States Postal Service", "operator:short": "USPS", "operator:type": "public", "operator:wikidata": "Q668687", "ref": "4391500001"}, "type": "Feature"}
{"geometry": {"coordinates": [-80.868871014, 39.770887506], "type": "Point"}, "id": "uRN6oHVaftxEJQBWsePefOTq25w=", "properties": {"@source_uri": "https://tools.usps.com/UspsToolsRestServices/rest/POLocator/findLocations", "@spider": "usps_collection_boxes", "addr:city": "CLARINGTON", "addr:country": "US", "addr:postcode": "43915", "addr:state": "OH", "addr:street_address": "506 MARKET ST", "amenity": "post_box", "collection_times": "Mo-Fr 14:45; Sa 10:00", "indoor": "yes", "note": "ON 12/24 AND 12/31, THIS BOX MAY BE COLLECTED AS EARLY AS 12 NOON.", "nsi_id": "unitedstatespostalservice-a77078", "operator": "United States Postal Service", "operator:short": "USPS", "operator:type": "public", "operator:wikidata": "Q668687", "ref": "4391500004"}, "type": "Feature"}
{"geometry": {"coordinates": [-80.814347518, 40.129179407], "type": "Point"}, "id": "4XBUUCU3DgOmr49QxDiIYhSf4zE=", "properties": {"@source_uri": "https://tools.usps.com/UspsToolsRestServices/rest/POLocator/findLocations", "@spider": "usps_collection_boxes", "addr:city": "COLERAIN", "addr:country": "US", "addr:postcode": "43916", "addr:state": "OH", "addr:street_address": "72120 STATE ROUTE 250", "amenity": "post_box", "collection_times": "Mo-Fr 16:15; Sa 11:45", "note": "ON 12/24 AND 12/31, THIS BOX MAY BE COLLECTED AS EARLY AS 12 NOON.", "nsi_id": "unitedstatespostalservice-a77078", "operator": "United States Postal Service", "operator:short": "USPS", "operator:type": "public", "operator:wikidata": "Q668687", "ref": "4391600000"}, "type": "Feature"}
{"geometry": {"coordinates": [-80.814347518, 40.129179407], "type": "Point"}, "id": "x2_SkcTHp2BatpXMTz9H3Fn1ZC8=", "properties": {"@source_uri": "https://tools.usps.com/UspsToolsRestServices/rest/POLocator/findLocations", "@spider": "usps_collection_boxes", "addr:city": "COLERAIN", "addr:country": "US", "addr:postcode": "43916", "addr:state": "OH", "addr:street_address": "72120 STATE ROUTE 250", "amenity": "post_box", "collection_times": "Mo-Fr 16:15; Sa 11:45", "indoor": "yes", "note": "ON 12/24 AND 12/31, THIS BOX MAY BE COLLECTED AS EARLY AS 12 NOON.", "nsi_id": "unitedstatespostalservice-a77078", "operator": "United States Postal Service", "operator:short": "USPS", "operator:type": "public", "operator:wikidata": "Q668687", "ref": "4391600004"}, "type": "Feature"}
{"geometry": {"coordinates": [-80.771947903, 40.201034326], "type": "Point"}, "id": "u7ewkejVCyNzAlPQSngmGr4filE=", "properties": {"@source_uri": "https://tools.usps.com/UspsToolsRestServices/rest/POLocator/findLocations", "@spider": "usps_collection_boxes", "addr:city": "DILLONVALE", "addr:country": "US", "addr:postcode": "43917", "addr:state": "OH", "addr:street_address": "132 SMITHFIELD ST", "amenity": "post_box", "collection_times": "Mo-Fr 15:45; Sa 11:15", "note": "ON 12/24 AND 12/31, THIS BOX MAY BE COLLECTED AS EARLY AS 12 NOON.", "nsi_id": "unitedstatespostalservice-a77078", "operator": "United States Postal Service", "operator:short": "USPS", "operator:type": "public", "operator:wikidata": "Q668687", "ref": "4391700000"}, "type": "Feature"}
{"geometry": {"coordinates": [-80.7755822, 40.1986019], "type": "Point"}, "id": "UaWW2ZIpOFrVrjmpKVLzF7HdJew=", "properties": {"@source_uri": "https://tools.usps.com/UspsToolsRestServices/rest/POLocator/findLocations", "@spider": "usps_collection_boxes", "addr:city": "DILLONVALE", "addr:country": "US", "addr:postcode": "43917", "addr:state": "OH", "addr:street_address": "132 SMITHFIELD ST", "amenity": "post_box", "collection_times": "Mo-Fr 15:45; Sa 11:15", "indoor": "yes", "note": "ON 12/24 AND 12/31, THIS BOX MAY BE COLLECTED AS EARLY AS 12 NOON.", "nsi_id": "unitedstatespostalservice-a77078", "operator": "United States Postal Service", "operator:short": "USPS", "operator:type": "public", "operator:wikidata": "Q668687", "ref": "4391700001"}, "type": "Feature"}
{"geometry": {"coordinates": [-80.7755822, 40.1986019], "type": "Point"}, "id": "IQkES2UFJRQn8di48mOibEsTUW8=", "properties": {"@source_uri": "https://tools.usps.com/UspsToolsRestServices/rest/POLocator/findLocations", "@spider": "usps_collection_boxes", "addr:city": "DILLONVALE", "addr:country": "US", "addr:postcode": "43917", "addr:state": "OH", "addr:street_address": "132 SMITHFIELD ST", "amenity": "post_box", "collection_times": "Mo-Fr 16:00; Sa 11:15", "indoor": "yes", "note": "ON 12/24 AND 12/31, THIS BOX MAY BE COLLECTED AS EARLY AS 12 NOON.", "nsi_id": "unitedstatespostalservice-a77078", "operator": "United States Postal Service", "operator:short": "USPS", "operator:type": "public", "operator:wikidata": "Q668687", "ref": "4391700004"}, "type": "Feature"}
{"geometry": {"coordinates": [-80.579748382, 40.672720747], "type": "Point"}, "id": "CJUiZqTHOOcwo0C3-FmNnVeIR54=", "properties": {"@source_uri": "https://tools.usps.com/UspsToolsRestServices/rest/POLocator/findLocations", "@spider": "usps_collection_boxes", "addr:city": "EAST LIVERPOOL", "addr:country": "US", "addr:postcode": "43920", "addr:state": "OH", "addr:street_address": "15713 STATE ROUTE 170", "amenity": "post_box", "collection_times": "Mo-Fr 17:00; Sa 12:45", "note": "ON 12/24 AND 12/31, THIS BOX MAY BE COLLECTED AS EARLY AS 12 NOON.", "nsi_id": "unitedstatespostalservice-a77078", "operator": "United States Postal Service", "operator:short": "USPS", "operator:type": "public", "operator:wikidata": "Q668687", "ref": "4392000004"}, "type": "Feature"}
{"geometry": {"coordinates": [-80.5776352, 40.618482], "type": "Point"}, "id": "6sc9Q-xsqltPXVOBhCQho_38H54=", "properties": {"@source_uri": "https://tools.usps.com/UspsToolsRestServices/rest/POLocator/findLocations", "@spider": "usps_collection_boxes", "addr:city": "EAST LIVERPOOL", "addr:country": "US", "addr:postcode": "43920", "addr:state": "OH", "addr:street_address": "212 E 5TH ST", "amenity": "post_box", "collection_times": "Mo-Sa 14:45", "note": "ON 12/24 AND 12/31, THIS BOX MAY BE COLLECTED AS EARLY AS 12 NOON.", "nsi_id": "unitedstatespostalservice-a77078", "operator": "United States Postal Service", "operator:short": "USPS", "operator:type": "public", "operator:wikidata": "Q668687", "ref": "4392000009"}, "type": "Feature"}
{"geometry": {"coordinates": [-80.5416647, 40.637927], "type": "Point"}, "id": "qnV78BCwv93vlfyDdKN9tF35j_U=", "properties": {"@source_uri": "https://tools.usps.com/UspsToolsRestServices/rest/POLocator/findLocations", "@spider": "usps_collection_boxes", "addr:city": "EAST LIVERPOOL", "addr:country": "US", "addr:postcode": "43920", "addr:state": "OH", "addr:street_address": "1577 PENNSYLVANIA AVE", "amenity": "post_box", "collection_times": "Mo-Sa 14:30", "note": "ON 12/24 AND 12/31, THIS BOX MAY BE COLLECTED AS EARLY AS 12 NOON.", "nsi_id": "unitedstatespostalservice-a77078", "operator": "United States Postal Service", "operator:short": "USPS", "operator:type": "public", "operator:wikidata": "Q668687", "ref": "4392000018"}, "type": "Feature"}
{"geometry": {"coordinates": [-80.576547082, 40.6188014129], "type": "Point"}, "id": "em-xQD0pWnDYT0DhIApAwEqaBMs=", "properties": {"@source_uri": "https://tools.usps.com/UspsToolsRestServices/rest/POLocator/findLocations", "@spider": "usps_collection_boxes", "addr:city": "EAST LIVERPOOL", "addr:country": "US", "addr:postcode": "43920", "addr:state": "OH", "addr:street_address": "515 WALNUT ST", "amenity": "post_box", "collection_times": "Mo-Sa 17:00", "note": "ON 12/24 AND 12/31, THIS BOX MAY BE COLLECTED AS EARLY AS 12 NOON.", "nsi_id": "unitedstatespostalservice-a77078", "operator": "United States Postal Service", "operator:short": "USPS", "operator:type": "public", "operator:wikidata": "Q668687", "ref": "4392000020"}, "type": "Feature"}
{"geometry": {"coordinates": [-80.576547082, 40.6188014129], "type": "Point"}, "id": "QlvzX2Ltmnt0_oiCAp1Jow3Pc54=", "properties": {"@source_uri": "https://tools.usps.com/UspsToolsRestServices/rest/POLocator/findLocations", "@spider": "usps_collection_boxes", "addr:city": "EAST LIVERPOOL", "addr:country": "US", "addr:postcode": "43920", "addr:state": "OH", "addr:street_address": "515 WALNUT ST", "amenity": "post_box", "collection_times": "Mo-Sa 17:00", "indoor": "yes", "note": "ON 12/24 AND 12/31, THIS BOX MAY BE COLLECTED AS EARLY AS 12 NOON.", "nsi_id": "unitedstatespostalservice-a77078", "operator": "United States Postal Service", "operator:short": "USPS", "operator:type": "public", "operator:wikidata": "Q668687", "ref": "4392000023"}, "type": "Feature"}
{"geometry": {"coordinates": [-80.5747663, 40.659206], "type": "Point"}, "id": "vRz8U4RIISBl4clKHMwgb7E7VhQ=", "properties": {"@source_uri": "https://tools.usps.com/UspsToolsRestServices/rest/POLocator/findLocations", "@spider": "usps_collection_boxes", "addr:city": "EAST LIVERPOOL", "addr:country": "US", "addr:postcode": "43920", "addr:state": "OH", "addr:street_address": "16687 SAINT CLAIR AVE", "amenity": "post_box", "collection_times": "Mo-Sa 12:00", "nsi_id": "unitedstatespostalservice-a77078", "operator": "United States Postal Service", "operator:short": "USPS", "operator:type": "public", "operator:wikidata": "Q668687", "ref": "4392000027"}, "type": "Feature"}
{"geometry": {"coordinates": [-80.5871468, 40.66424], "type": "Point"}, "id": "SPKkdhtKwTIT12BAaciDyFr1Aoc=", "properties": {"@source_uri": "https://tools.usps.com/UspsToolsRestServices/rest/POLocator/findLocations", "@spider": "usps_collection_boxes", "addr:city": "EAST LIVERPOOL", "addr:country": "US", "addr:postcode": "43920", "addr:state": "OH", "addr:street_address": "16280 DRESDEN AVE", "amenity": "post_box", "collection_times": "Mo-Sa 09:30", "nsi_id": "unitedstatespostalservice-a77078", "operator": "United States Postal Service", "operator:short": "USPS", "operator:type": "public", "operator:wikidata": "Q668687", "ref": "4392000029"}, "type": "Feature"}
{"geometry": {"coordinates": [-80.579748382, 40.672720747], "type": "Point"}, "id": "xm5l0aIjo3rfqu2hLt5STn44Jdk=", "properties": {"@source_uri": "https://tools.usps.com/UspsToolsRestServices/rest/POLocator/findLocations", "@spider": "usps_collection_boxes", "addr:city": "EAST LIVERPOOL", "addr:country": "US", "addr:postcode": "43920", "addr:state": "OH", "addr:street_address": "15713 STATE ROUTE 170", "amenity": "post_box", "collection_times": "Mo-Fr 17:00; Sa 12:45", "indoor": "yes", "note": "ON 12/24 AND 12/31, THIS BOX MAY BE COLLECTED AS EARLY AS 12 NOON.", "nsi_id": "unitedstatespostalservice-a77078", "operator": "United States Postal Service", "operator:short": "USPS", "operator:type": "public", "operator:wikidata": "Q668687", "ref": "4392000030"}, "type": "Feature"}
{"geometry": {"coordinates": [-80.5806221, 40.620469], "type": "Point"}, "id": "ZnRNhXeX4EFa9BH783RFVGU4BjI=", "properties": {"@source_uri": "https://tools.usps.com/UspsToolsRestServices/rest/POLocator/findLocations", "@spider": "usps_collection_boxes", "addr:city": "EAST LIVERPOOL", "addr:country": "US", "addr:postcode": "43920", "addr:state": "OH", "addr:street_address": "126 W 6 TH ST", "amenity": "post_box", "collection_times": "Mo-Sa 14:45", "note": "ON 12/24 AND 12/31, THIS BOX MAY BE COLLECTED AS EARLY AS 12 NOON.", "nsi_id": "unitedstatespostalservice-a77078", "operator": "United States Postal Service", "operator:short": "USPS", "operator:type": "public", "operator:wikidata": "Q668687", "ref": "4392000036"}, "type": "Feature"}
{"geometry": {"coordinates": [-80.579748382, 40.672720747], "type": "Point"}, "id": "rcXYx7-aibz3sswRGHlEoT_ZfHk=", "properties": {"@source_uri": "https://tools.usps.com/UspsToolsRestServices/rest/POLocator/findLocations", "@spider": "usps_collection_boxes", "addr:city": "EAST LIVERPOOL", "addr:country": "US", "addr:postcode": "43920", "addr:state": "OH", "addr:street_address": "15713 STATE ROUTE 170", "amenity": "post_box", "collection_times": "Mo-Fr 17:00; Sa 12:00", "indoor": "yes", "note": "ON 12/24 AND 12/31, THIS BOX MAY BE COLLECTED AS EARLY AS 12 NOON.", "nsi_id": "unitedstatespostalservice-a77078", "operator": "United States Postal Service", "operator:short": "USPS", "operator:type": "public", "operator:wikidata": "Q668687", "ref": "4392000039"}, "type": "Feature"}
{"geometry": {"coordinates": [-80.576547082, 40.6188014129], "type": "Point"}, "id": "38jjthSLaN0Je7mSr8d5SKCNHGQ=", "properties": {"@source_uri": "https://tools.usps.com/UspsToolsRestServices/rest/POLocator/findLocations", "@spider": "usps_collection_boxes", "addr:city": "EAST LIVERPOOL", "addr:country": "US", "addr:postcode": "43920", "addr:state": "OH", "addr:street_address": "515 WALNUT ST", "amenity": "post_box", "collection_times": "Mo-Fr 17:00; Sa 12:00", "indoor": "yes", "note": "ON 12/24 AND 12/31, THIS BOX MAY BE COLLECTED AS EARLY AS 12 NOON.", "nsi_id": "unitedstatespostalservice-a77078", "operator": "United States Postal Service", "operator:short": "USPS", "operator:type": "public", "operator:wikidata": "Q668687", "ref": "4392000040"}, "type": "Feature"}
{"geometry": {"coordinates": [-80.8579654821, 40.4500739132], "type": "Point"}, "id": "R7GZjkgllMvL9XYPFEPwkX64LlU=", "properties": {"@source_uri": "https://tools.usps.com/UspsToolsRestServices/rest/POLocator/findLocations", "@spider": "usps_collection_boxes", "addr:city": "EAST SPRINGFIELD", "addr:country": "US", "addr:postcode": "43925", "addr:state": "OH", "addr:street_address": "9889 COUNTY HIGHWAY 39", "amenity": "post_box", "collection_times": "Mo-Fr 16:30; Sa 11:00", "note": "ON 12/24 AND 12/31, THIS BOX MAY BE COLLECTED AS EARLY AS 12 NOON.", "nsi_id": "unitedstatespostalservice-a77078", "operator": "United States Postal Service", "operator:short": "USPS", "operator:type": "public", "operator:wikidata": "Q668687", "ref": "4392500001"}, "type": "Feature"}
{"geometry": {"coordinates": [-80.857938558, 40.450039627], "type": "Point"}, "id": "ci7BJU0PDkbtJuyps6dvWNYiNW4=", "properties": {"@source_uri": "https://tools.usps.com/UspsToolsRestServices/rest/POLocator/findLocations", "@spider": "usps_collection_boxes", "addr:city": "EAST SPRINGFIELD", "addr:country": "US", "addr:postcode": "43925", "addr:state": "OH", "addr:street_address": "9889 COUNTY ROAD 39", "amenity": "post_box", "collection_times": "Mo-Fr 16:30; Sa 11:00", "indoor": "yes", "note": "ON 12/24 AND 12/31, THIS BOX MAY BE COLLECTED AS EARLY AS 12 NOON.", "nsi_id": "unitedstatespostalservice-a77078", "operator": "United States Postal Service", "operator:short": "USPS", "operator:type": "public", "operator:wikidata": "Q668687", "ref": "4392500003"}, "type": "Feature"}
{"geometry": {"coordinates": [-80.624285777, 40.511612917], "type": "Point"}, "id": "XsNwA7vt2Yy5MRjkaoxkiIsPP-k=", "properties": {"@source_uri": "https://tools.usps.com/UspsToolsRestServices/rest/POLocator/findLocations", "@spider": "usps_collection_boxes", "addr:city": "EMPIRE", "addr:country": "US", "addr:postcode": "43926", "addr:state": "OH", "addr:street_address": "170 NESSLEY ST", "amenity": "post_box", "collection_times": "Mo-Fr 12:00; Sa 11:30", "indoor": "yes", "nsi_id": "unitedstatespostalservice-a77078", "operator": "United States Postal Service", "operator:short": "USPS", "operator:type": "public", "operator:wikidata": "Q668687", "ref": "4392600000"}, "type": "Feature"}
{"geometry": {"coordinates": [-80.624285777, 40.511612917], "type": "Point"}, "id": "286mT4hs4obXNIKq1ru7Hyv5DtI=", "properties": {"@source_uri": "https://tools.usps.com/UspsToolsRestServices/rest/POLocator/findLocations", "@spider": "usps_collection_boxes", "addr:city": "EMPIRE", "addr:country": "US", "addr:postcode": "43926", "addr:state": "OH", "addr:street_address": "170 NESSLEY ST", "amenity": "post_box", "collection_times": "Mo-Fr 12:00; Sa 11:30", "nsi_id": "unitedstatespostalservice-a77078", "operator": "United States Postal Service", "operator:short": "USPS", "operator:type": "public", "operator:wikidata": "Q668687", "ref": "4392600001"}, "type": "Feature"}
{"geometry": {"coordinates": [-80.624285777, 40.511612917], "type": "Point"}, "id": "5wFyzy5IteSvoHp5NJleO6h7oRI=", "properties": {"@source_uri": "https://tools.usps.com/UspsToolsRestServices/rest/POLocator/findLocations", "@spider": "usps_collection_boxes", "addr:city": "EMPIRE", "addr:country": "US", "addr:postcode": "43926", "addr:state": "OH", "addr:street_address": "170 NESSLEY ST", "amenity": "post_box", "collection_times": "Mo-Fr 12:00; Sa 11:00", "indoor": "yes", "nsi_id": "unitedstatespostalservice-a77078", "operator": "United States Postal Service", "operator:short": "USPS", "operator:type": "public", "operator:wikidata": "Q668687", "ref": "4392600003"}, "type": "Feature"}
{"geometry": {"coordinates": [-80.889694655, 40.007427462], "type": "Point"}, "id": "2nG6H7dExNuxas4aSYdVAAbuG94=", "properties": {"@source_uri": "https://tools.usps.com/UspsToolsRestServices/rest/POLocator/findLocations", "@spider": "usps_collection_boxes", "addr:city": "GLENCOE", "addr:country": "US", "addr:postcode": "43928", "addr:state": "OH", "addr:street_address": "50073 1ST ST", "amenity": "post_box", "collection_times": "Mo-Fr 16:15; Sa 10:00", "note": "ON 12/24 AND 12/31, THIS BOX MAY BE COLLECTED AS EARLY AS 12 NOON.", "nsi_id": "unitedstatespostalservice-a77078", "operator": "United States Postal Service", "operator:short": "USPS", "operator:type": "public", "operator:wikidata": "Q668687", "ref": "4392800001"}, "type": "Feature"}
{"geometry": {"coordinates": [-80.889694655, 40.007427462], "type": "Point"}, "id": "_vigpvDW3y9Q0VtgrnnPz7rUx7c=", "properties": {"@source_uri": "https://tools.usps.com/UspsToolsRestServices/rest/POLocator/findLocations", "@spider": "usps_collection_boxes", "addr:city": "GLENCOE", "addr:country": "US", "addr:postcode": "43928", "addr:state": "OH", "addr:street_address": "50073 1ST ST", "amenity": "post_box", "collection_times": "Mo-Fr 16:15; Sa 10:00", "indoor": "yes", "note": "ON 12/24 AND 12/31, THIS BOX MAY BE COLLECTED AS EARLY AS 12 NOON.", "nsi_id": "unitedstatespostalservice-a77078", "operator": "United States Postal Service", "operator:short": "USPS", "operator:type": "public", "operator:wikidata": "Q668687", "ref": "4392800003"}, "type": "Feature"}
{"geometry": {"coordinates": [-80.707194761, 40.557084234], "type": "Point"}, "id": "UKA2hlFYb7Y7argPOpEMW1E1RKA=", "properties": {"@source_uri": "https://tools.usps.com/UspsToolsRestServices/rest/POLocator/findLocations", "@spider": "usps_collection_boxes", "addr:city": "HAMMONDSVILLE", "addr:country": "US", "addr:postcode": "43930", "addr:state": "OH", "addr:street_address": "15481 STATE ROUTE 213", "amenity": "post_box", "collection_times": "Mo-Sa 11:30", "nsi_id": "unitedstatespostalservice-a77078", "operator": "United States Postal Service", "operator:short": "USPS", "operator:type": "public", "operator:wikidata": "Q668687", "ref": "4393000000"}, "type": "Feature"}
{"geometry": {"coordinates": [-80.707194761, 40.557084234], "type": "Point"}, "id": "tzVzWXhLtIQeK1j2Ul78VUKABYo=", "properties": {"@source_uri": "https://tools.usps.com/UspsToolsRestServices/rest/POLocator/findLocations", "@spider": "usps_collection_boxes", "addr:city": "HAMMONDSVILLE", "addr:country": "US", "addr:postcode": "43930", "addr:state": "OH", "addr:street_address": "15481 STATE ROUTE 213", "amenity": "post_box", "collection_times": "Mo-Fr 11:30; Sa 11:00", "indoor": "yes", "nsi_id": "unitedstatespostalservice-a77078", "operator": "United States Postal Service", "operator:short": "USPS", "operator:type": "public", "operator:wikidata": "Q668687", "ref": "4393000003"}, "type": "Feature"}
{"geometry": {"coordinates": [-80.870260552, 39.663752468], "type": "Point"}, "id": "T9GknFkGl37SyjgTagGI5W-pD-o=", "properties": {"@source_uri": "https://tools.usps.com/UspsToolsRestServices/rest/POLocator/findLocations", "@spider": "usps_collection_boxes", "addr:city": "HANNIBAL", "addr:country": "US", "addr:postcode": "43931", "addr:state": "OH", "addr:street_address": "52758 BOSTON HILL RD", "amenity": "post_box", "collection_times": "Mo-Fr 16:15; Sa 11:15", "note": "ON 12/24 AND 12/31, THIS BOX MAY BE COLLECTED AS EARLY AS 12 NOON.", "nsi_id": "unitedstatespostalservice-a77078", "operator": "United States Postal Service", "operator:short": "USPS", "operator:type": "public", "operator:wikidata": "Q668687", "ref": "4393100000"}, "type": "Feature"}
{"geometry": {"coordinates": [-80.870260552, 39.663752468], "type": "Point"}, "id": "GYRynqpg7O-EkPreDopi7Wd-l1Q=", "properties": {"@source_uri": "https://tools.usps.com/UspsToolsRestServices/rest/POLocator/findLocations", "@spider": "usps_collection_boxes", "addr:city": "HANNIBAL", "addr:country": "US", "addr:postcode": "43931", "addr:state": "OH", "addr:street_address": "52758 BOSTON HILL RD", "amenity": "post_box", "collection_times": "Mo-Fr 16:15; Sa 11:30", "indoor": "yes", "note": "ON 12/24 AND 12/31, THIS BOX MAY BE COLLECTED AS EARLY AS 12 NOON.", "nsi_id": "unitedstatespostalservice-a77078", "operator": "United States Postal Service", "operator:short": "USPS", "operator:type": "public", "operator:wikidata": "Q668687", "ref": "4393100001"}, "type": "Feature"}
{"geometry": {"coordinates": [-80.870260552, 39.663752468], "type": "Point"}, "id": "F2AFVXPyCI2SsFkR0BcFMyFYraQ=", "properties": {"@source_uri": "https://tools.usps.com/UspsToolsRestServices/rest/POLocator/findLocations", "@spider": "usps_collection_boxes", "addr:city": "HANNIBAL", "addr:country": "US", "addr:postcode": "43931", "addr:state": "OH", "addr:street_address": "52758 BOSTON HILL RD", "amenity": "post_box", "collection_times": "Mo-Fr 16:15; Sa 11:30", "indoor": "yes", "note": "ON 12/24 AND 12/31, THIS BOX MAY BE COLLECTED AS EARLY AS 12 NOON.", "nsi_id": "unitedstatespostalservice-a77078", "operator": "United States Postal Service", "operator:short": "USPS", "operator:type": "public", "operator:wikidata": "Q668687", "ref": "4393100002"}, "type": "Feature"}
{"geometry": {"coordinates": [-80.870260552, 39.663752468], "type": "Point"}, "id": "G4ocykNlPCfH_OTmzmmXnHZ0TPc=", "properties": {"@source_uri": "https://tools.usps.com/UspsToolsRestServices/rest/POLocator/findLocations", "@spider": "usps_collection_boxes", "addr:city": "HANNIBAL", "addr:country": "US", "addr:postcode": "43931", "addr:state": "OH", "addr:street_address": "52758 BOSTON HILL RD", "amenity": "post_box", "collection_times": "Mo-Fr 16:15; Sa 11:30", "indoor": "yes", "note": "ON 12/24 AND 12/31, THIS BOX MAY BE COLLECTED AS EARLY AS 12 NOON.", "nsi_id": "unitedstatespostalservice-a77078", "operator": "United States Postal Service", "operator:short": "USPS", "operator:type": "public", "operator:wikidata": "Q668687", "ref": "4393100004"}, "type": "Feature"}
{"geometry": {"coordinates": [-80.727690438, 40.567384382], "type": "Point"}, "id": "4mnFWTLgfB3-PQq_MaE7y2Ao58M=", "properties": {"@source_uri": "https://tools.usps.com/UspsToolsRestServices/rest/POLocator/findLocations", "@spider": "usps_collection_boxes", "addr:city": "IRONDALE", "addr:country": "US", "addr:postcode": "43932", "addr:state": "OH", "addr:street_address": "210 EAST AVE", "amenity": "post_box", "collection_times": "Mo-Fr 16:00; Sa 14:00", "note": "ON 12/24 AND 12/31, THIS BOX MAY BE COLLECTED AS EARLY AS 12 NOON.", "nsi_id": "unitedstatespostalservice-a77078", "operator": "United States Postal Service", "operator:short": "USPS", "operator:type": "public", "operator:wikidata": "Q668687", "ref": "4393200000"}, "type": "Feature"}
{"geometry": {"coordinates": [-80.727690438, 40.567384382], "type": "Point"}, "id": "MuiW88sWDy0k0ioKBCvhGFaqmKE=", "properties": {"@source_uri": "https://tools.usps.com/UspsToolsRestServices/rest/POLocator/findLocations", "@spider": "usps_collection_boxes", "addr:city": "IRONDALE", "addr:country": "US", "addr:postcode": "43932", "addr:state": "OH", "addr:street_address": "210 EAST AVE", "amenity": "post_box", "collection_times": "Mo-Fr 16:00; Sa 14:00", "indoor": "yes", "note": "ON 12/24 AND 12/31, THIS BOX MAY BE COLLECTED AS EARLY AS 12 NOON.", "nsi_id": "unitedstatespostalservice-a77078", "operator": "United States Postal Service", "operator:short": "USPS", "operator:type": "public", "operator:wikidata": "Q668687", "ref": "4393200003"}, "type": "Feature"}
{"geometry": {"coordinates": [-80.904787621, 39.96553804], "type": "Point"}, "id": "mBDm8pmeGHxQ8TgjGY2IoWGlGhM=", "properties": {"@source_uri": "https://tools.usps.com/UspsToolsRestServices/rest/POLocator/findLocations", "@spider": "usps_collection_boxes", "addr:city": "JACOBSBURG", "addr:country": "US", "addr:postcode": "43933", "addr:state": "OH", "addr:street_address": "60630 MAIN ST", "amenity": "post_box", "collection_times": "Mo-Fr 16:45; Sa 10:30", "note": "ON 12/24 AND 12/31, THIS BOX MAY BE COLLECTED AS EARLY AS 12 NOON.", "nsi_id": "unitedstatespostalservice-a77078", "operator": "United States Postal Service", "operator:short": "USPS", "operator:type": "public", "operator:wikidata": "Q668687", "ref": "4393300001"}, "type": "Feature"}
{"geometry": {"coordinates": [-80.9351641, 39.907389], "type": "Point"}, "id": "lnE051Ge4GW4mvgwX1vZkeZGMdM=", "properties": {"@source_uri": "https://tools.usps.com/UspsToolsRestServices/rest/POLocator/findLocations", "@spider": "usps_collection_boxes", "addr:city": "JACOBSBURG", "addr:country": "US", "addr:postcode": "43933", "addr:state": "OH", "addr:street_address": "48100 MAIN ST", "amenity": "post_box", "collection_times": "Mo-Sa 10:30", "nsi_id": "unitedstatespostalservice-a77078", "operator": "United States Postal Service", "operator:short": "USPS", "operator:type": "public", "operator:wikidata": "Q668687", "ref": "4393300002"}, "type": "Feature"}
{"geometry": {"coordinates": [-80.8516399, 40.013173], "type": "Point"}, "id": "d8rgmD0xbLzEQFWSxSxvyVpBEHw=", "properties": {"@source_uri": "https://tools.usps.com/UspsToolsRestServices/rest/POLocator/findLocations", "@spider": "usps_collection_boxes", "addr:city": "JACOBSBURG", "addr:country": "US", "addr:postcode": "43933", "addr:state": "OH", "addr:street_address": "64100 MAIN ST", "amenity": "post_box", "collection_times": "Mo-Sa 10:00", "nsi_id": "unitedstatespostalservice-a77078", "operator": "United States Postal Service", "operator:short": "USPS", "operator:type": "public", "operator:wikidata": "Q668687", "ref": "4393300003"}, "type": "Feature"}
{"geometry": {"coordinates": [-80.904787621, 39.96553804], "type": "Point"}, "id": "1mTdGlVjMxGHcIRN1ze6p1Ybae0=", "properties": {"@source_uri": "https://tools.usps.com/UspsToolsRestServices/rest/POLocator/findLocations", "@spider": "usps_collection_boxes", "addr:city": "JACOBSBURG", "addr:country": "US", "addr:postcode": "43933", "addr:state": "OH", "addr:street_address": "60630 MAIN ST", "amenity": "post_box", "collection_times": "Mo-Fr 16:45; Sa 10:30", "indoor": "yes", "note": "ON 12/24 AND 12/31, THIS BOX MAY BE COLLECTED AS EARLY AS 12 NOON.", "nsi_id": "unitedstatespostalservice-a77078", "operator": "United States Postal Service", "operator:short": "USPS", "operator:type": "public", "operator:wikidata": "Q668687", "ref": "4393300005"}, "type": "Feature"}
{"geometry": {"coordinates": [-80.789477367, 40.073450437], "type": "Point"}, "id": "dSLOBhIeqhcVlX4SyXhI6vTlJvI=", "properties": {"@source_uri": "https://tools.usps.com/UspsToolsRestServices/rest/POLocator/findLocations", "@spider": "usps_collection_boxes", "addr:city": "LANSING", "addr:country": "US", "addr:postcode": "43934", "addr:state": "OH", "addr:street_address": "55157 NATIONAL RD", "amenity": "post_box", "collection_times": "Mo-Fr 16:00; Sa 11:00", "note": "ON 12/24 AND 12/31, THIS BOX MAY BE COLLECTED AS EARLY AS 12 NOON.", "nsi_id": "unitedstatespostalservice-a77078", "operator": "United States Postal Service", "operator:short": "USPS", "operator:type": "public", "operator:wikidata": "Q668687", "ref": "4393400001"}, "type": "Feature"}
{"geometry": {"coordinates": [-80.789477367, 40.073450437], "type": "Point"}, "id": "Pr60YW7NSD_urBK5fSsM1iLZstY=", "properties": {"@source_uri": "https://tools.usps.com/UspsToolsRestServices/rest/POLocator/findLocations", "@spider": "usps_collection_boxes", "addr:city": "LANSING", "addr:country": "US", "addr:postcode": "43934", "addr:state": "OH", "addr:street_address": "55157 NATIONAL RD", "amenity": "post_box", "collection_times": "Mo-Fr 16:15; Sa 11:30", "indoor": "yes", "note": "ON 12/24 AND 12/31, THIS BOX MAY BE COLLECTED AS EARLY AS 12 NOON.", "nsi_id": "unitedstatespostalservice-a77078", "operator": "United States Postal Service", "operator:short": "USPS", "operator:type": "public", "operator:wikidata": "Q668687", "ref": "4393400003"}, "type": "Feature"}
{"geometry": {"coordinates": [-80.723597, 40.097541], "type": "Point"}, "id": "ByKgj5xIT0UEO1zVh3ZKzcdsYf8=", "properties": {"@source_uri": "https://tools.usps.com/UspsToolsRestServices/rest/POLocator/findLocations", "@spider": "usps_collection_boxes", "addr:city": "MARTINS FERRY", "addr:country": "US", "addr:postcode": "43935", "addr:state": "OH", "addr:street_address": "101 N 5TH ST", "amenity": "post_box", "collection_times": "Mo-Fr 16:30; Sa 15:15", "note": "ON 12/24 AND 12/31, THIS BOX MAY BE COLLECTED AS EARLY AS 12 NOON.", "nsi_id": "unitedstatespostalservice-a77078", "operator": "United States Postal Service", "operator:short": "USPS", "operator:type": "public", "operator:wikidata": "Q668687", "ref": "4393500003"}, "type": "Feature"}
{"geometry": {"coordinates": [-80.735043, 40.085562], "type": "Point"}, "id": "lk2nKWHEvgQEIUNgLJagmbbMJvk=", "properties": {"@source_uri": "https://tools.usps.com/UspsToolsRestServices/rest/POLocator/findLocations", "@spider": "usps_collection_boxes", "addr:city": "MARTINS FERRY", "addr:country": "US", "addr:postcode": "43935", "addr:state": "OH", "addr:street_address": "400 AETNA ST", "amenity": "post_box", "collection_times": "Mo-Sa 09:30", "nsi_id": "unitedstatespostalservice-a77078", "operator": "United States Postal Service", "operator:short": "USPS", "operator:type": "public", "operator:wikidata": "Q668687", "ref": "4393500004"}, "type": "Feature"}
{"geometry": {"coordinates": [-80.7253252, 40.09612], "type": "Point"}, "id": "d4U-z3nSCGCvgV5syUeQ4Za9otU=", "properties": {"@source_uri": "https://tools.usps.com/UspsToolsRestServices/rest/POLocator/findLocations", "@spider": "usps_collection_boxes", "addr:city": "MARTINS FERRY", "addr:country": "US", "addr:postcode": "43935", "addr:state": "OH", "addr:street_address": "35 S 5TH ST", "amenity": "post_box", "collection_times": "Mo-Sa 14:00", "note": "ON 12/24 AND 12/31, THIS BOX MAY BE COLLECTED AS EARLY AS 12 NOON.", "nsi_id": "unitedstatespostalservice-a77078", "operator": "United States Postal Service", "operator:short": "USPS", "operator:type": "public", "operator:wikidata": "Q668687", "ref": "4393500026"}, "type": "Feature"}
{"geometry": {"coordinates": [-80.7235913772, 40.0976310204], "type": "Point"}, "id": "xGV4BToZNFaWEhYdXXYqA1hyeZc=", "properties": {"@source_uri": "https://tools.usps.com/UspsToolsRestServices/rest/POLocator/findLocations", "@spider": "usps_collection_boxes", "addr:city": "MARTINS FERRY", "addr:country": "US", "addr:postcode": "43935", "addr:state": "OH", "addr:street_address": "101 N 5TH ST", "amenity": "post_box", "collection_times": "Mo-Fr 16:30; Sa 12:00", "indoor": "yes", "note": "ON 12/24 AND 12/31, THIS BOX MAY BE COLLECTED AS EARLY AS 12 NOON.", "nsi_id": "unitedstatespostalservice-a77078", "operator": "United States Postal Service", "operator:short": "USPS", "operator:type": "public", "operator:wikidata": "Q668687", "ref": "4393500034"}, "type": "Feature"}
{"geometry": {"coordinates": [-80.7403259039, 40.0696530429], "type": "Point"}, "id": "XtPvxeej1i1btdf8tDWFWRQYZMc=", "properties": {"@source_uri": "https://tools.usps.com/UspsToolsRestServices/rest/POLocator/findLocations", "@spider": "usps_collection_boxes", "addr:city": "MAYNARD", "addr:country": "US", "addr:postcode": "43937", "addr:state": "OH", "addr:street_address": "71660 HALL ST", "amenity": "post_box", "collection_times": "Mo-Fr 16:00; Sa 10:00", "note": "ON 12/24 AND 12/31, THIS BOX MAY BE COLLECTED AS EARLY AS 12 NOON.", "nsi_id": "unitedstatespostalservice-a77078", "operator": "United States Postal Service", "operator:short": "USPS", "operator:type": "public", "operator:wikidata": "Q668687", "ref": "4393700001"}, "type": "Feature"}
{"geometry": {"coordinates": [-80.876320599, 40.122060874], "type": "Point"}, "id": "qxBjaC1ubl-yJ79LUVNFW9TJwek=", "properties": {"@source_uri": "https://tools.usps.com/UspsToolsRestServices/rest/POLocator/findLocations", "@spider": "usps_collection_boxes", "addr:city": "MAYNARD", "addr:country": "US", "addr:postcode": "43937", "addr:state": "OH", "addr:street_address": "71480 HALL ST", "amenity": "post_box", "collection_times": "Mo-Fr 16:00; Sa 10:00", "indoor": "yes", "note": "ON 12/24 AND 12/31, THIS BOX MAY BE COLLECTED AS EARLY AS 12 NOON.", "nsi_id": "unitedstatespostalservice-a77078", "operator": "United States Postal Service", "operator:short": "USPS", "operator:type": "public", "operator:wikidata": "Q668687", "ref": "4393700003"}, "type": "Feature"}
{"geometry": {"coordinates": [-80.606992425, 40.319908407], "type": "Point"}, "id": "yFhwNDsZP4N4d7P8TIZn_guAh4Q=", "properties": {"@source_uri": "https://tools.usps.com/UspsToolsRestServices/rest/POLocator/findLocations", "@spider": "usps_collection_boxes", "addr:city": "MINGO JUNCTION", "addr:country": "US", "addr:postcode": "43938", "addr:state": "OH", "addr:street_address": "679 COMMERCIAL ST", "amenity": "post_box", "collection_times": "Mo-Fr 16:30; Sa 12:00", "note": "ON 12/24 AND 12/31, THIS BOX MAY BE COLLECTED AS EARLY AS 12 NOON.", "nsi_id": "unitedstatespostalservice-a77078", "operator": "United States Postal Service", "operator:short": "USPS", "operator:type": "public", "operator:wikidata": "Q668687", "ref": "4393800000"}, "type": "Feature"}
{"geometry": {"coordinates": [-80.6318755, 40.331986], "type": "Point"}, "id": "K2R1gLFGdcZb7biUxokQu6PQaWI=", "properties": {"@source_uri": "https://tools.usps.com/UspsToolsRestServices/rest/POLocator/findLocations", "@spider": "usps_collection_boxes", "addr:city": "MINGO JUNCTION", "addr:country": "US", "addr:postcode": "43938", "addr:state": "OH", "addr:street_address": "109 BATTLE RUN RD", "amenity": "post_box", "collection_times": "Mo-Sa 14:30", "note": "ON 12/24 AND 12/31, THIS BOX MAY BE COLLECTED AS EARLY AS 12 NOON.", "nsi_id": "unitedstatespostalservice-a77078", "operator": "United States Postal Service", "operator:short": "USPS", "operator:type": "public", "operator:wikidata": "Q668687", "ref": "4393800009"}, "type": "Feature"}
{"geometry": {"coordinates": [-80.606992425, 40.319908407], "type": "Point"}, "id": "BOLf_fy9buFHuV63xNSgdnUG2qw=", "properties": {"@source_uri": "https://tools.usps.com/UspsToolsRestServices/rest/POLocator/findLocations", "@spider": "usps_collection_boxes", "addr:city": "MINGO JUNCTION", "addr:country": "US", "addr:postcode": "43938", "addr:state": "OH", "addr:street_address": "679 COMMERCIAL ST", "amenity": "post_box", "collection_times": "Mo-Fr 16:30; Sa 12:00", "indoor": "yes", "note": "ON 12/24 AND 12/31, THIS BOX MAY BE COLLECTED AS EARLY AS 12 NOON.", "nsi_id": "unitedstatespostalservice-a77078", "operator": "United States Postal Service", "operator:short": "USPS", "operator:type": "public", "operator:wikidata": "Q668687", "ref": "4393800013"}, "type": "Feature"}
{"geometry": {"coordinates": [-80.79856355, 40.175534355], "type": "Point"}, "id": "5lPOZZgz5B_GedAlfkJlJVkCunY=", "properties": {"@source_uri": "https://tools.usps.com/UspsToolsRestServices/rest/POLocator/findLocations", "@spider": "usps_collection_boxes", "addr:city": "MOUNT PLEASANT", "addr:country": "US", "addr:postcode": "43939", "addr:state": "OH", "addr:street_address": "243 UNION ST", "amenity": "post_box", "collection_times": "Mo-Fr 16:15; Sa 11:00", "note": "ON 12/24 AND 12/31, THIS BOX MAY BE COLLECTED AS EARLY AS 12 NOON.", "nsi_id": "unitedstatespostalservice-a77078", "operator": "United States Postal Service", "operator:short": "USPS", "operator:type": "public", "operator:wikidata": "Q668687", "ref": "4393900000"}, "type": "Feature"}
{"geometry": {"coordinates": [-80.79856355, 40.175534355], "type": "Point"}, "id": "uUu9PSVomrZk4Zlrl3TG5N2JpSk=", "properties": {"@source_uri": "https://tools.usps.com/UspsToolsRestServices/rest/POLocator/findLocations", "@spider": "usps_collection_boxes", "addr:city": "MOUNT PLEASANT", "addr:country": "US", "addr:postcode": "43939", "addr:state": "OH", "addr:street_address": "243 UNION ST", "amenity": "post_box", "collection_times": "Mo-Fr 16:15; Sa 11:00", "indoor": "yes", "note": "ON 12/24 AND 12/31, THIS BOX MAY BE COLLECTED AS EARLY AS 12 NOON.", "nsi_id": "unitedstatespostalservice-a77078", "operator": "United States Postal Service", "operator:short": "USPS", "operator:type": "public", "operator:wikidata": "Q668687", "ref": "4393900003"}, "type": "Feature"}
{"geometry": {"coordinates": [-80.814150927, 40.027243364], "type": "Point"}, "id": "1vAUAjz3SaLSTkS9dF4tPHtclKg=", "properties": {"@source_uri": "https://tools.usps.com/UspsToolsRestServices/rest/POLocator/findLocations", "@spider": "usps_collection_boxes", "addr:city": "NEFFS", "addr:country": "US", "addr:postcode": "43940", "addr:state": "OH", "addr:street_address": "54061 PIKE ST", "amenity": "post_box", "collection_times": "Mo-Fr 16:00; Sa 10:30", "note": "ON 12/24 AND 12/31, THIS BOX MAY BE COLLECTED AS EARLY AS 12 NOON.", "nsi_id": "unitedstatespostalservice-a77078", "operator": "United States Postal Service", "operator:short": "USPS", "operator:type": "public", "operator:wikidata": "Q668687", "ref": "4394000001"}, "type": "Feature"}
{"geometry": {"coordinates": [-80.814150927, 40.027243364], "type": "Point"}, "id": "lxYVNNv9qvU5o4aarm1-vt5Ywdk=", "properties": {"@source_uri": "https://tools.usps.com/UspsToolsRestServices/rest/POLocator/findLocations", "@spider": "usps_collection_boxes", "addr:city": "NEFFS", "addr:country": "US", "addr:postcode": "43940", "addr:state": "OH", "addr:street_address": "54061 PIKE ST", "amenity": "post_box", "collection_times": "Mo-Fr 16:00; Sa 10:30", "indoor": "yes", "note": "ON 12/24 AND 12/31, THIS BOX MAY BE COLLECTED AS EARLY AS 12 NOON.", "nsi_id": "unitedstatespostalservice-a77078", "operator": "United States Postal Service", "operator:short": "USPS", "operator:type": "public", "operator:wikidata": "Q668687", "ref": "4394000003"}, "type": "Feature"}
{"geometry": {"coordinates": [-80.800622707, 39.866602693], "type": "Point"}, "id": "3GKHtZOZyHOm2zb4z3ToNDQFIaw=", "properties": {"@source_uri": "https://tools.usps.com/UspsToolsRestServices/rest/POLocator/findLocations", "@spider": "usps_collection_boxes", "addr:city": "POWHATAN POINT", "addr:country": "US", "addr:postcode": "43942", "addr:state": "OH", "addr:street_address": "335 HIGHWAY 7 N", "amenity": "post_box", "collection_times": "Mo-Fr 14:15; Sa 12:00", "note": "ON 12/24 AND 12/31, THIS BOX MAY BE COLLECTED AS EARLY AS 12 NOON.", "nsi_id": "unitedstatespostalservice-a77078", "operator": "United States Postal Service", "operator:short": "USPS", "operator:type": "public", "operator:wikidata": "Q668687", "ref": "4394200001"}, "type": "Feature"}
{"geometry": {"coordinates": [-80.800622707, 39.866602693], "type": "Point"}, "id": "fMTrM9BsbXb_2-z-yngNT_GpxiE=", "properties": {"@source_uri": "https://tools.usps.com/UspsToolsRestServices/rest/POLocator/findLocations", "@spider": "usps_collection_boxes", "addr:city": "POWHATAN POINT", "addr:country": "US", "addr:postcode": "43942", "addr:state": "OH", "addr:street_address": "335 HIGHWAY 7 N", "amenity": "post_box", "collection_times": "Mo-Fr 14:00; Sa 12:00", "indoor": "yes", "note": "ON 12/24 AND 12/31, THIS BOX MAY BE COLLECTED AS EARLY AS 12 NOON.", "nsi_id": "unitedstatespostalservice-a77078", "operator": "United States Postal Service", "operator:short": "USPS", "operator:type": "public", "operator:wikidata": "Q668687", "ref": "4394200009"}, "type": "Feature"}
{"geometry": {"coordinates": [-80.764902, 40.27869], "type": "Point"}, "id": "ab2SE7PSbj08eJ75pUVKWe7FtCs=", "properties": {"@source_uri": "https://tools.usps.com/UspsToolsRestServices/rest/POLocator/findLocations", "@spider": "usps_collection_boxes", "addr:city": "RAYLAND", "addr:country": "US", "addr:postcode": "43943", "addr:state": "OH", "addr:street_address": "140 MAIN ST", "amenity": "post_box", "collection_times": "Mo-Fr 16:30; Sa 12:00", "indoor": "yes", "note": "ON 12/24 AND 12/31, THIS BOX MAY BE COLLECTED AS EARLY AS 12 NOON.", "nsi_id": "unitedstatespostalservice-a77078", "operator": "United States Postal Service", "operator:short": "USPS", "operator:type": "public", "operator:wikidata": "Q668687", "ref": "4394300000"}, "type": "Feature"}
{"geometry": {"coordinates": [-80.764835, 40.278716], "type": "Point"}, "id": "F1pgCeOGZ3GASfrAcS45HXcqvd0=", "properties": {"@source_uri": "https://tools.usps.com/UspsToolsRestServices/rest/POLocator/findLocations", "@spider": "usps_collection_boxes", "addr:city": "RAYLAND", "addr:country": "US", "addr:postcode": "43943", "addr:state": "OH", "addr:street_address": "140 MAIN ST", "amenity": "post_box", "collection_times": "Mo-Fr 16:30; Sa 12:00", "note": "ON 12/24 AND 12/31, THIS BOX MAY BE COLLECTED AS EARLY AS 12 NOON.", "nsi_id": "unitedstatespostalservice-a77078", "operator": "United States Postal Service", "operator:short": "USPS", "operator:type": "public", "operator:wikidata": "Q668687", "ref": "4394300001"}, "type": "Feature"}
{"geometry": {"coordinates": [-80.6919941546, 40.1822875748], "type": "Point"}, "id": "OpSvLsEr3Ed5qiO2oNdmr5tS2To=", "properties": {"@source_uri": "https://tools.usps.com/UspsToolsRestServices/rest/POLocator/findLocations", "@spider": "usps_collection_boxes", "addr:city": "RAYLAND", "addr:country": "US", "addr:postcode": "43943", "addr:state": "OH", "addr:street_address": "140 MAIN ST", "amenity": "post_box", "collection_times": "Mo-Fr 16:30; Sa 12:00", "indoor": "yes", "note": "ON 12/24 AND 12/31, THIS BOX MAY BE COLLECTED AS EARLY AS 12 NOON.", "nsi_id": "unitedstatespostalservice-a77078", "operator": "United States Postal Service", "operator:short": "USPS", "operator:type": "public", "operator:wikidata": "Q668687", "ref": "4394300004"}, "type": "Feature"}
{"geometry": {"coordinates": [-80.771982, 40.43321], "type": "Point"}, "id": "nlN07Fuz1gdS8F_zCAzpPuz6pnA=", "properties": {"@source_uri": "https://tools.usps.com/UspsToolsRestServices/rest/POLocator/findLocations", "@spider": "usps_collection_boxes", "addr:city": "RICHMOND", "addr:country": "US", "addr:postcode": "43944", "addr:state": "OH", "addr:street_address": "36 E MAIN ST", "amenity": "post_box", "collection_times": "Mo-Fr 16:45; Sa 11:45", "note": "ON 12/24 AND 12/31, THIS BOX MAY BE COLLECTED AS EARLY AS 12 NOON.", "nsi_id": "unitedstatespostalservice-a77078", "operator": "United States Postal Service", "operator:short": "USPS", "operator:type": "public", "operator:wikidata": "Q668687", "ref": "4394400001"}, "type": "Feature"}
{"geometry": {"coordinates": [-80.771992, 40.433247], "type": "Point"}, "id": "fpXLZoB3cOTvBNVIC7XPgobOBco=", "properties": {"@source_uri": "https://tools.usps.com/UspsToolsRestServices/rest/POLocator/findLocations", "@spider": "usps_collection_boxes", "addr:city": "RICHMOND", "addr:country": "US", "addr:postcode": "43944", "addr:state": "OH", "addr:street_address": "36 E MAIN ST", "amenity": "post_box", "collection_times": "Mo-Fr 16:45; Sa 11:45", "indoor": "yes", "note": "ON 12/24 AND 12/31, THIS BOX MAY BE COLLECTED AS EARLY AS 12 NOON.", "nsi_id": "unitedstatespostalservice-a77078", "operator": "United States Postal Service", "operator:short": "USPS", "operator:type": "public", "operator:wikidata": "Q668687", "ref": "4394400002"}, "type": "Feature"}
{"geometry": {"coordinates": [-80.7717344968, 40.4330842159], "type": "Point"}, "id": "yLqPG9mqBEFwCV438XFDvTWKtgI=", "properties": {"@source_uri": "https://tools.usps.com/UspsToolsRestServices/rest/POLocator/findLocations", "@spider": "usps_collection_boxes", "addr:city": "RICHMOND", "addr:country": "US", "addr:postcode": "43944", "addr:state": "OH", "addr:street_address": "36 E MAIN ST", "amenity": "post_box", "collection_times": "Mo-Fr 16:45; Sa 11:45", "indoor": "yes", "note": "ON 12/24 AND 12/31, THIS BOX MAY BE COLLECTED AS EARLY AS 12 NOON.", "nsi_id": "unitedstatespostalservice-a77078", "operator": "United States Postal Service", "operator:short": "USPS", "operator:type": "public", "operator:wikidata": "Q668687", "ref": "4394400005"}, "type": "Feature"}
{"geometry": {"coordinates": [-80.835365667, 40.623365769], "type": "Point"}, "id": "KdwVTr6RyZKUale2nS3mMpAgmVY=", "properties": {"@source_uri": "https://tools.usps.com/UspsToolsRestServices/rest/POLocator/findLocations", "@spider": "usps_collection_boxes", "addr:city": "SALINEVILLE", "addr:country": "US", "addr:postcode": "43945", "addr:state": "OH", "addr:street_address": "37 W MAIN ST", "amenity": "post_box", "collection_times": "Mo-Fr 15:30; Sa 12:00", "note": "ON 12/24 AND 12/31, THIS BOX MAY BE COLLECTED AS EARLY AS 12 NOON.", "nsi_id": "unitedstatespostalservice-a77078", "operator": "United States Postal Service", "operator:short": "USPS", "operator:type": "public", "operator:wikidata": "Q668687", "ref": "4394500001"}, "type": "Feature"}
{"geometry": {"coordinates": [-80.8455082, 40.622992], "type": "Point"}, "id": "x9e291c-qIwB0V9ERc3msXJous8=", "properties": {"@source_uri": "https://tools.usps.com/UspsToolsRestServices/rest/POLocator/findLocations", "@spider": "usps_collection_boxes", "addr:city": "SALINEVILLE", "addr:country": "US", "addr:postcode": "43945", "addr:state": "OH", "addr:street_address": "611 JEFFERSON ST", "amenity": "post_box", "collection_times": "Mo-Sa 12:00", "nsi_id": "unitedstatespostalservice-a77078", "operator": "United States Postal Service", "operator:short": "USPS", "operator:type": "public", "operator:wikidata": "Q668687", "ref": "4394500004"}, "type": "Feature"}
{"geometry": {"coordinates": [-80.835365667, 40.623365769], "type": "Point"}, "id": "qqLull-ehX_c3E1bRmFQTVPX_SA=", "properties": {"@source_uri": "https://tools.usps.com/UspsToolsRestServices/rest/POLocator/findLocations", "@spider": "usps_collection_boxes", "addr:city": "SALINEVILLE", "addr:country": "US", "addr:postcode": "43945", "addr:state": "OH", "addr:street_address": "37 W MAIN ST", "amenity": "post_box", "collection_times": "Mo-Fr 15:45; Sa 12:00", "indoor": "yes", "note": "ON 12/24 AND 12/31, THIS BOX MAY BE COLLECTED AS EARLY AS 12 NOON.", "nsi_id": "unitedstatespostalservice-a77078", "operator": "United States Postal Service", "operator:short": "USPS", "operator:type": "public", "operator:wikidata": "Q668687", "ref": "4394500007"}, "type": "Feature"}
{"geometry": {"coordinates": [-80.9081977, 39.6226328], "type": "Point"}, "id": "UyS6csv-TzbxBIWxev4fgQny9ng=", "properties": {"@source_uri": "https://tools.usps.com/UspsToolsRestServices/rest/POLocator/findLocations", "@spider": "usps_collection_boxes", "addr:city": "SARDIS", "addr:country": "US", "addr:postcode": "43946", "addr:state": "OH", "addr:street_address": "37296 5TH AVE", "amenity": "post_box", "collection_times": "Mo-Fr 16:15; Sa 09:45", "note": "ON 12/24 AND 12/31, THIS BOX MAY BE COLLECTED AS EARLY AS 12 NOON.", "nsi_id": "unitedstatespostalservice-a77078", "operator": "United States Postal Service", "operator:short": "USPS", "operator:type": "public", "operator:wikidata": "Q668687", "ref": "4394600000"}, "type": "Feature"}
{"geometry": {"coordinates": [-80.9081977, 39.6226328], "type": "Point"}, "id": "f597uIZlpMdTQwXe4Tptz0DG3gQ=", "properties": {"@source_uri": "https://tools.usps.com/UspsToolsRestServices/rest/POLocator/findLocations", "@spider": "usps_collection_boxes", "addr:city": "SARDIS", "addr:country": "US", "addr:postcode": "43946", "addr:state": "OH", "addr:street_address": "37296 5TH AVE", "amenity": "post_box", "collection_times": "Mo-Fr 16:15; Sa 09:45", "indoor": "yes", "note": "ON 12/24 AND 12/31, THIS BOX MAY BE COLLECTED AS EARLY AS 12 NOON.", "nsi_id": "unitedstatespostalservice-a77078", "operator": "United States Postal Service", "operator:short": "USPS", "operator:type": "public", "operator:wikidata": "Q668687", "ref": "4394600001"}, "type": "Feature"}
{"geometry": {"coordinates": [-80.9081977, 39.6226328], "type": "Point"}, "id": "ZbHr7wY9JRIyQpsRImCAP2YRz1o=", "properties": {"@source_uri": "https://tools.usps.com/UspsToolsRestServices/rest/POLocator/findLocations", "@spider": "usps_collection_boxes", "addr:city": "SARDIS", "addr:country": "US", "addr:postcode": "43946", "addr:state": "OH", "addr:street_address": "37296 5TH AVE", "amenity": "post_box", "collection_times": "Mo-Fr 16:45; Sa 10:00", "indoor": "yes", "note": "ON 12/24 AND 12/31, THIS BOX MAY BE COLLECTED AS EARLY AS 12 NOON.", "nsi_id": "unitedstatespostalservice-a77078", "operator": "United States Postal Service", "operator:short": "USPS", "operator:type": "public", "operator:wikidata": "Q668687", "ref": "4394600003"}, "type": "Feature"}
{"geometry": {"coordinates": [-80.748799, 39.970395], "type": "Point"}, "id": "lklMAbvvYkUuMFCK4glsn7NJZWc=", "properties": {"@source_uri": "https://tools.usps.com/UspsToolsRestServices/rest/POLocator/findLocations", "@spider": "usps_collection_boxes", "addr:city": "SHADYSIDE", "addr:country": "US", "addr:postcode": "43947", "addr:state": "OH", "addr:street_address": "3989 LINCOLN AVE", "amenity": "post_box", "collection_times": "Mo-Fr 16:45; Sa 12:15", "note": "ON 12/24 AND 12/31, THIS BOX MAY BE COLLECTED AS EARLY AS 12 NOON.", "nsi_id": "unitedstatespostalservice-a77078", "operator": "United States Postal Service", "operator:short": "USPS", "operator:type": "public", "operator:wikidata": "Q668687", "ref": "4394700003"}, "type": "Feature"}
{"geometry": {"coordinates": [-80.7495292, 39.971604], "type": "Point"}, "id": "yityYFDP43ppS26GvQm-yV6KFEY=", "properties": {"@source_uri": "https://tools.usps.com/UspsToolsRestServices/rest/POLocator/findLocations", "@spider": "usps_collection_boxes", "addr:city": "SHADYSIDE", "addr:country": "US", "addr:postcode": "43947", "addr:state": "OH", "addr:street_address": "91 W 40TH ST", "amenity": "post_box", "collection_times": "Mo-Sa 09:45", "nsi_id": "unitedstatespostalservice-a77078", "operator": "United States Postal Service", "operator:short": "USPS", "operator:type": "public", "operator:wikidata": "Q668687", "ref": "4394700006"}, "type": "Feature"}
{"geometry": {"coordinates": [-80.7438283, 39.973917], "type": "Point"}, "id": "U9864sQp9mfe4QIzriTUFOi_5vs=", "properties": {"@source_uri": "https://tools.usps.com/UspsToolsRestServices/rest/POLocator/findLocations", "@spider": "usps_collection_boxes", "addr:city": "SHADYSIDE", "addr:country": "US", "addr:postcode": "43947", "addr:state": "OH", "addr:street_address": "3701 LINCOLN AVE", "amenity": "post_box", "collection_times": "Mo-Sa 12:00", "nsi_id": "unitedstatespostalservice-a77078", "operator": "United States Postal Service", "operator:short": "USPS", "operator:type": "public", "operator:wikidata": "Q668687", "ref": "4394700011"}, "type": "Feature"}
{"geometry": {"coordinates": [-80.7482644, 39.971985], "type": "Point"}, "id": "SrJaw9nWHzJE3Q_EzUc0dWp9NoQ=", "properties": {"@source_uri": "https://tools.usps.com/UspsToolsRestServices/rest/POLocator/findLocations", "@spider": "usps_collection_boxes", "addr:city": "SHADYSIDE", "addr:country": "US", "addr:postcode": "43947", "addr:state": "OH", "addr:street_address": "3900 CENTRAL AVE", "amenity": "post_box", "collection_times": "Mo-Sa 14:30", "note": "ON 12/24 AND 12/31, THIS BOX MAY BE COLLECTED AS EARLY AS 12 NOON.", "nsi_id": "unitedstatespostalservice-a77078", "operator": "United States Postal Service", "operator:short": "USPS", "operator:type": "public", "operator:wikidata": "Q668687", "ref": "4394700015"}, "type": "Feature"}
{"geometry": {"coordinates": [-80.7560184, 39.96893], "type": "Point"}, "id": "rTnI86Fy1zdpieUuXph_9Vv0I_g=", "properties": {"@source_uri": "https://tools.usps.com/UspsToolsRestServices/rest/POLocator/findLocations", "@spider": "usps_collection_boxes", "addr:city": "SHADYSIDE", "addr:country": "US", "addr:postcode": "43947", "addr:state": "OH", "addr:street_address": "65 W 47TH ST", "amenity": "post_box", "collection_times": "Mo-Sa 12:00", "nsi_id": "unitedstatespostalservice-a77078", "operator": "United States Postal Service", "operator:short": "USPS", "operator:type": "public", "operator:wikidata": "Q668687", "ref": "4394700023"}, "type": "Feature"}
{"geometry": {"coordinates": [-80.7487903433, 39.9704731309], "type": "Point"}, "id": "bVSndSVzmDxNuRaFOVeGWk-Qs9k=", "properties": {"@source_uri": "https://tools.usps.com/UspsToolsRestServices/rest/POLocator/findLocations", "@spider": "usps_collection_boxes", "addr:city": "SHADYSIDE", "addr:country": "US", "addr:postcode": "43947", "addr:state": "OH", "addr:street_address": "3989 LINCOLN AVE", "amenity": "post_box", "collection_times": "Mo-Fr 16:30; Sa 12:00", "indoor": "yes", "note": "ON 12/24 AND 12/31, THIS BOX MAY BE COLLECTED AS EARLY AS 12 NOON.", "nsi_id": "unitedstatespostalservice-a77078", "operator": "United States Postal Service", "operator:short": "USPS", "operator:type": "public", "operator:wikidata": "Q668687", "ref": "4394700026"}, "type": "Feature"}
{"geometry": {"coordinates": [-80.781174, 40.270753], "type": "Point"}, "id": "XAH74W_yDP54YTowq4mgoPtdH3I=", "properties": {"@source_uri": "https://tools.usps.com/UspsToolsRestServices/rest/POLocator/findLocations", "@spider": "usps_collection_boxes", "addr:city": "SMITHFIELD", "addr:country": "US", "addr:postcode": "43948", "addr:state": "OH", "addr:street_address": "1303 MAIN ST", "amenity": "post_box", "collection_times": "Mo-Fr 16:45; Sa 11:45", "note": "ON 12/24 AND 12/31, THIS BOX MAY BE COLLECTED AS EARLY AS 12 NOON.", "nsi_id": "unitedstatespostalservice-a77078", "operator": "United States Postal Service", "operator:short": "USPS", "operator:type": "public", "operator:wikidata": "Q668687", "ref": "4394800000"}, "type": "Feature"}
{"geometry": {"coordinates": [-80.781088, 40.27081], "type": "Point"}, "id": "UaPj8q5QGmNWVOs3JrjtLm3RKlA=", "properties": {"@source_uri": "https://tools.usps.com/UspsToolsRestServices/rest/POLocator/findLocations", "@spider": "usps_collection_boxes", "addr:city": "SMITHFIELD", "addr:country": "US", "addr:postcode": "43948", "addr:state": "OH", "addr:street_address": "1303 MAIN ST", "amenity": "post_box", "collection_times": "Mo-Fr 16:00; Sa 11:45", "indoor": "yes", "note": "ON 12/24 AND 12/31, THIS BOX MAY BE COLLECTED AS EARLY AS 12 NOON.", "nsi_id": "unitedstatespostalservice-a77078", "operator": "United States Postal Service", "operator:short": "USPS", "operator:type": "public", "operator:wikidata": "Q668687", "ref": "4394800001"}, "type": "Feature"}
{"geometry": {"coordinates": [-80.7811790553, 40.2707945236], "type": "Point"}, "id": "mO3KcA9ThpG0zPgzJ0_JbwvSj9I=", "properties": {"@source_uri": "https://tools.usps.com/UspsToolsRestServices/rest/POLocator/findLocations", "@spider": "usps_collection_boxes", "addr:city": "SMITHFIELD", "addr:country": "US", "addr:postcode": "43948", "addr:state": "OH", "addr:street_address": "1303 MAIN ST", "amenity": "post_box", "collection_times": "Mo-Fr 16:45; Sa 11:45", "indoor": "yes", "note": "ON 12/24 AND 12/31, THIS BOX MAY BE COLLECTED AS EARLY AS 12 NOON.", "nsi_id": "unitedstatespostalservice-a77078", "operator": "United States Postal Service", "operator:short": "USPS", "operator:type": "public", "operator:wikidata": "Q668687", "ref": "4394800003"}, "type": "Feature"}
{"geometry": {"coordinates": [-80.9050084, 40.0797], "type": "Point"}, "id": "dWsctEvseznHabdYyjxLTTJsLZI=", "properties": {"@source_uri": "https://tools.usps.com/UspsToolsRestServices/rest/POLocator/findLocations", "@spider": "usps_collection_boxes", "addr:city": "ST CLAIRSVLE", "addr:country": "US", "addr:postcode": "43950", "addr:state": "OH", "addr:street_address": "203 W MAIN ST", "amenity": "post_box", "collection_times": "Mo-Sa 15:00", "note": "ON 12/24 AND 12/31, THIS BOX MAY BE COLLECTED AS EARLY AS 12 NOON.", "nsi_id": "unitedstatespostalservice-a77078", "operator": "United States Postal Service", "operator:short": "USPS", "operator:type": "public", "operator:wikidata": "Q668687", "ref": "4395000000"}, "type": "Feature"}
{"geometry": {"coordinates": [-80.9170885, 40.075312], "type": "Point"}, "id": "JHnLpOkzYiPrIdrDp4pfMNmp--I=", "properties": {"@source_uri": "https://tools.usps.com/UspsToolsRestServices/rest/POLocator/findLocations", "@spider": "usps_collection_boxes", "addr:city": "ST CLAIRSVLE", "addr:country": "US", "addr:postcode": "43950", "addr:state": "OH", "addr:street_address": "107 PLAZA DR", "amenity": "post_box", "collection_times": "Mo-Sa 09:30", "nsi_id": "unitedstatespostalservice-a77078", "operator": "United States Postal Service", "operator:short": "USPS", "operator:type": "public", "operator:wikidata": "Q668687", "ref": "4395000001"}, "type": "Feature"}
{"geometry": {"coordinates": [-80.9011475, 40.080526], "type": "Point"}, "id": "2IMEiPuyPbQ-SL-M-cQzApp6ZYE=", "properties": {"@source_uri": "https://tools.usps.com/UspsToolsRestServices/rest/POLocator/findLocations", "@spider": "usps_collection_boxes", "addr:city": "ST CLAIRSVLE", "addr:country": "US", "addr:postcode": "43950", "addr:state": "OH", "addr:street_address": "101 W MAIN ST", "amenity": "post_box", "collection_times": "Mo-Sa 15:00", "note": "ON 12/24 AND 12/31, THIS BOX MAY BE COLLECTED AS EARLY AS 12 NOON.", "nsi_id": "unitedstatespostalservice-a77078", "operator": "United States Postal Service", "operator:short": "USPS", "operator:type": "public", "operator:wikidata": "Q668687", "ref": "4395000002"}, "type": "Feature"}
{"geometry": {"coordinates": [-80.8683021, 40.067672], "type": "Point"}, "id": "UCbRTUUk2qAxpnztJWRz1WXw7fA=", "properties": {"@source_uri": "https://tools.usps.com/UspsToolsRestServices/rest/POLocator/findLocations", "@spider": "usps_collection_boxes", "addr:city": "ST CLAIRSVLE", "addr:country": "US", "addr:postcode": "43950", "addr:state": "OH", "addr:street_address": "67800 MALL RING RD", "amenity": "post_box", "collection_times": "Mo-Sa 10:00", "nsi_id": "unitedstatespostalservice-a77078", "operator": "United States Postal Service", "operator:short": "USPS", "operator:type": "public", "operator:wikidata": "Q668687", "ref": "4395000008"}, "type": "Feature"}
{"geometry": {"coordinates": [-80.897888, 40.073544], "type": "Point"}, "id": "5HULW4YIEHlEihwkCTBw8i9F6Wo=", "properties": {"@source_uri": "https://tools.usps.com/UspsToolsRestServices/rest/POLocator/findLocations", "@spider": "usps_collection_boxes", "addr:city": "ST CLAIRSVLE", "addr:country": "US", "addr:postcode": "43950", "addr:state": "OH", "addr:street_address": "123 HIGH ST", "amenity": "post_box", "collection_times": "Mo-Sa 12:00", "nsi_id": "unitedstatespostalservice-a77078", "operator": "United States Postal Service", "operator:short": "USPS", "operator:type": "public", "operator:wikidata": "Q668687", "ref": "4395000009"}, "type": "Feature"}
{"geometry": {"coordinates": [-80.8996876, 40.080649], "type": "Point"}, "id": "TrYV3BI9Bo2WVpb1F4YVLy3ubco=", "properties": {"@source_uri": "https://tools.usps.com/UspsToolsRestServices/rest/POLocator/findLocations", "@spider": "usps_collection_boxes", "addr:city": "ST CLAIRSVLE", "addr:country": "US", "addr:postcode": "43950", "addr:state": "OH", "addr:street_address": "126 E MAIN ST", "amenity": "post_box", "collection_times": "Mo-Sa 15:00", "note": "ON 12/24 AND 12/31, THIS BOX MAY BE COLLECTED AS EARLY AS 12 NOON.", "nsi_id": "unitedstatespostalservice-a77078", "operator": "United States Postal Service", "operator:short": "USPS", "operator:type": "public", "operator:wikidata": "Q668687", "ref": "4395000011"}, "type": "Feature"}
{"geometry": {"coordinates": [-80.9023344, 40.080142], "type": "Point"}, "id": "KwvdOMVXLUoezkgROiscjD87Y0I=", "properties": {"@source_uri": "https://tools.usps.com/UspsToolsRestServices/rest/POLocator/findLocations", "@spider": "usps_collection_boxes", "addr:city": "ST CLAIRSVLE", "addr:country": "US", "addr:postcode": "43950", "addr:state": "OH", "addr:street_address": "154 W MAIN ST", "amenity": "post_box", "collection_times": "Mo-Sa 15:00", "note": "ON 12/24 AND 12/31, THIS BOX MAY BE COLLECTED AS EARLY AS 12 NOON.", "nsi_id": "unitedstatespostalservice-a77078", "operator": "United States Postal Service", "operator:short": "USPS", "operator:type": "public", "operator:wikidata": "Q668687", "ref": "4395000012"}, "type": "Feature"}
{"geometry": {"coordinates": [-80.911754151, 40.077676642], "type": "Point"}, "id": "eb-GDZAac26H3O4XAgYkJKsThj8=", "properties": {"@source_uri": "https://tools.usps.com/UspsToolsRestServices/rest/POLocator/findLocations", "@spider": "usps_collection_boxes", "addr:city": "ST CLAIRSVLE", "addr:country": "US", "addr:postcode": "43950", "addr:state": "OH", "addr:street_address": "2 RESERVOIR RD", "amenity": "post_box", "collection_times": "Mo-Fr 17:00; Sa 16:15", "note": "ON 12/24 AND 12/31, THIS BOX MAY BE COLLECTED AS EARLY AS 12 NOON.", "nsi_id": "unitedstatespostalservice-a77078", "operator": "United States Postal Service", "operator:short": "USPS", "operator:type": "public", "operator:wikidata": "Q668687", "ref": "4395000017"}, "type": "Feature"}
{"geometry": {"coordinates": [-80.872346, 40.075141], "type": "Point"}, "id": "XgObae8P6YSaDeOZa9xu7m7kN7A=", "properties": {"@source_uri": "https://tools.usps.com/UspsToolsRestServices/rest/POLocator/findLocations", "@spider": "usps_collection_boxes", "addr:city": "ST CLAIRSVLE", "addr:country": "US", "addr:postcode": "43950", "addr:state": "OH", "addr:street_address": "50789 VALLEY PLAZA DR", "amenity": "post_box", "collection_times": "Mo-Sa 10:00", "nsi_id": "unitedstatespostalservice-a77078", "operator": "United States Postal Service", "operator:short": "USPS", "operator:type": "public", "operator:wikidata": "Q668687", "ref": "4395000018"}, "type": "Feature"}
{"geometry": {"coordinates": [-80.9370874, 40.123179], "type": "Point"}, "id": "slxT-FIRJ5x7Hj5qSrjAf1x2Acg=", "properties": {"@source_uri": "https://tools.usps.com/UspsToolsRestServices/rest/POLocator/findLocations", "@spider": "usps_collection_boxes", "addr:city": "ST CLAIRSVLE", "addr:country": "US", "addr:postcode": "43950", "addr:state": "OH", "addr:street_address": "71336 MAIN ST", "amenity": "post_box", "collection_times": "Mo-Sa 10:00", "nsi_id": "unitedstatespostalservice-a77078", "operator": "United States Postal Service", "operator:short": "USPS", "operator:type": "public", "operator:wikidata": "Q668687", "ref": "4395000021"}, "type": "Feature"}
{"geometry": {"coordinates": [-80.911754151, 40.077676642], "type": "Point"}, "id": "BsTha0idmRRz97MlPYdrM_K1tM0=", "properties": {"@source_uri": "https://tools.usps.com/UspsToolsRestServices/rest/POLocator/findLocations", "@spider": "usps_collection_boxes", "addr:city": "ST CLAIRSVLE", "addr:country": "US", "addr:postcode": "43950", "addr:state": "OH", "addr:street_address": "2 RESERVOIR RD", "amenity": "post_box", "collection_times": "Mo-Fr 17:00; Sa 13:00", "indoor": "yes", "note": "ON 12/24 AND 12/31, THIS BOX MAY BE COLLECTED AS EARLY AS 12 NOON.", "nsi_id": "unitedstatespostalservice-a77078", "operator": "United States Postal Service", "operator:short": "USPS", "operator:type": "public", "operator:wikidata": "Q668687", "ref": "4395000031"}, "type": "Feature"}
{"geometry": {"coordinates": [-81.017268163, 40.110986159], "type": "Point"}, "id": "a0oDEqPqUKRaU6YUcToMD1MFnsk=", "properties": {"@source_uri": "https://tools.usps.com/UspsToolsRestServices/rest/POLocator/findLocations", "@spider": "usps_collection_boxes", "addr:city": "LAFFERTY", "addr:country": "US", "addr:postcode": "43951", "addr:state": "OH", "addr:street_address": "43126 MOUNT HOPE RD", "amenity": "post_box", "collection_times": "Mo-Fr 16:00; Sa 09:45", "indoor": "yes", "note": "ON 12/24 AND 12/31, THIS BOX MAY BE COLLECTED AS EARLY AS 12 NOON.", "nsi_id": "unitedstatespostalservice-a77078", "operator": "United States Postal Service", "operator:short": "USPS", "operator:type": "public", "operator:wikidata": "Q668687", "ref": "4395100000"}, "type": "Feature"}
{"geometry": {"coordinates": [-81.017268163, 40.110986159], "type": "Point"}, "id": "S29G5UM9jYM6aXVCI7nKCwsrg3M=", "properties": {"@source_uri": "https://tools.usps.com/UspsToolsRestServices/rest/POLocator/findLocations", "@spider": "usps_collection_boxes", "addr:city": "LAFFERTY", "addr:country": "US", "addr:postcode": "43951", "addr:state": "OH", "addr:street_address": "43126 MOUNT HOPE RD", "amenity": "post_box", "collection_times": "Mo-Fr 16:00; Sa 09:45", "note": "ON 12/24 AND 12/31, THIS BOX MAY BE COLLECTED AS EARLY AS 12 NOON.", "nsi_id": "unitedstatespostalservice-a77078", "operator": "United States Postal Service", "operator:short": "USPS", "operator:type": "public", "operator:wikidata": "Q668687", "ref": "4395100001"}, "type": "Feature"}
{"geometry": {"coordinates": [-81.017268163, 40.110986159], "type": "Point"}, "id": "83VvsmKgjKWef7ueuMQda-xC6NA=", "properties": {"@source_uri": "https://tools.usps.com/UspsToolsRestServices/rest/POLocator/findLocations", "@spider": "usps_collection_boxes", "addr:city": "LAFFERTY", "addr:country": "US", "addr:postcode": "43951", "addr:state": "OH", "addr:street_address": "43126 MOUNT HOPE RD", "amenity": "post_box", "collection_times": "Mo-Fr 16:00; Sa 09:45", "indoor": "yes", "note": "ON 12/24 AND 12/31, THIS BOX MAY BE COLLECTED AS EARLY AS 12 NOON.", "nsi_id": "unitedstatespostalservice-a77078", "operator": "United States Postal Service", "operator:short": "USPS", "operator:type": "public", "operator:wikidata": "Q668687", "ref": "4395100003"}, "type": "Feature"}
{"geometry": {"coordinates": [-80.647637, 40.367559], "type": "Point"}, "id": "5itd3Oo8OsO_FmCoIUPeqt04Wdo=", "properties": {"@source_uri": "https://tools.usps.com/UspsToolsRestServices/rest/POLocator/findLocations", "@spider": "usps_collection_boxes", "addr:city": "STEUBENVILLE", "addr:country": "US", "addr:postcode": "43952", "addr:state": "OH", "addr:street_address": "407 COLONIAL DR", "amenity": "post_box", "collection_times": "Mo-Sa 10:00", "nsi_id": "unitedstatespostalservice-a77078", "operator": "United States Postal Service", "operator:short": "USPS", "operator:type": "public", "operator:wikidata": "Q668687", "ref": "4395200001"}, "type": "Feature"}
{"geometry": {"coordinates": [-80.641953, 40.368149], "type": "Point"}, "id": "lGJvPwM-L9cBs65ULvy-2TmQiIE=", "properties": {"@source_uri": "https://tools.usps.com/UspsToolsRestServices/rest/POLocator/findLocations", "@spider": "usps_collection_boxes", "addr:city": "STEUBENVILLE", "addr:country": "US", "addr:postcode": "43952", "addr:state": "OH", "addr:street_address": "324 S HOLLYWOOD BLVD", "amenity": "post_box", "collection_times": "Mo-Sa 11:00", "nsi_id": "unitedstatespostalservice-a77078", "operator": "United States Postal Service", "operator:short": "USPS", "operator:type": "public", "operator:wikidata": "Q668687", "ref": "4395200008"}, "type": "Feature"}
{"geometry": {"coordinates": [-80.640991, 40.368527], "type": "Point"}, "id": "WTMGhdG1OEzCa1zqjQ1QSJ8PF2U=", "properties": {"@source_uri": "https://tools.usps.com/UspsToolsRestServices/rest/POLocator/findLocations", "@spider": "usps_collection_boxes", "addr:city": "STEUBENVILLE", "addr:country": "US", "addr:postcode": "43952", "addr:state": "OH", "addr:street_address": "264 S HOLLYWOOD BLVD", "amenity": "post_box", "collection_times": "Mo-Sa 11:00", "nsi_id": "unitedstatespostalservice-a77078", "operator": "United States Postal Service", "operator:short": "USPS", "operator:type": "public", "operator:wikidata": "Q668687", "ref": "4395200009"}, "type": "Feature"}
{"geometry": {"coordinates": [-80.6281377, 40.363891], "type": "Point"}, "id": "XSC_VSuxJR7-MS5-meFMOxasb5U=", "properties": {"@source_uri": "https://tools.usps.com/UspsToolsRestServices/rest/POLocator/findLocations", "@spider": "usps_collection_boxes", "addr:city": "STEUBENVILLE", "addr:country": "US", "addr:postcode": "43952", "addr:state": "OH", "addr:street_address": "300 LAWSON AVE", "amenity": "post_box", "collection_times": "Mo-Sa 10:30", "nsi_id": "unitedstatespostalservice-a77078", "operator": "United States Postal Service", "operator:short": "USPS", "operator:type": "public", "operator:wikidata": "Q668687", "ref": "4395200014"}, "type": "Feature"}
{"geometry": {"coordinates": [-80.6284069, 40.348978], "type": "Point"}, "id": "Yj9_3h8HcHq7eZzeoX6kqo7tqEM=", "properties": {"@source_uri": "https://tools.usps.com/UspsToolsRestServices/rest/POLocator/findLocations", "@spider": "usps_collection_boxes", "addr:city": "STEUBENVILLE", "addr:country": "US", "addr:postcode": "43952", "addr:state": "OH", "addr:street_address": "1101 LINCOLN AVE", "amenity": "post_box", "collection_times": "Mo-Sa 11:00", "nsi_id": "unitedstatespostalservice-a77078", "operator": "United States Postal Service", "operator:short": "USPS", "operator:type": "public", "operator:wikidata": "Q668687", "ref": "4395200017"}, "type": "Feature"}
{"geometry": {"coordinates": [-80.6327322, 40.352844], "type": "Point"}, "id": "AlV64ivN96iAhFPamVIj6WzE7FU=", "properties": {"@source_uri": "https://tools.usps.com/UspsToolsRestServices/rest/POLocator/findLocations", "@spider": "usps_collection_boxes", "addr:city": "STEUBENVILLE", "addr:country": "US", "addr:postcode": "43952", "addr:state": "OH", "addr:street_address": "502 LINCOLN BLVD", "amenity": "post_box", "collection_times": "Mo-Sa 10:00", "nsi_id": "unitedstatespostalservice-a77078", "operator": "United States Postal Service", "operator:short": "USPS", "operator:type": "public", "operator:wikidata": "Q668687", "ref": "4395200018"}, "type": "Feature"}
{"geometry": {"coordinates": [-80.6139357, 40.359745], "type": "Point"}, "id": "a4vQ8-12jx7xMRu5kVSoAnYSAKo=", "properties": {"@source_uri": "https://tools.usps.com/UspsToolsRestServices/rest/POLocator/findLocations", "@spider": "usps_collection_boxes", "addr:city": "STEUBENVILLE", "addr:country": "US", "addr:postcode": "43952", "addr:state": "OH", "addr:street_address": "301 MARKET ST", "amenity": "post_box", "collection_times": "Mo-Sa 12:00", "nsi_id": "unitedstatespostalservice-a77078", "operator": "United States Postal Service", "operator:short": "USPS", "operator:type": "public", "operator:wikidata": "Q668687", "ref": "4395200026"}, "type": "Feature"}
{"geometry": {"coordinates": [-80.6147356, 40.369812], "type": "Point"}, "id": "bMMXACMoHz0ZG2Y5ZcRNJLUu008=", "properties": {"@source_uri": "https://tools.usps.com/UspsToolsRestServices/rest/POLocator/findLocations", "@spider": "usps_collection_boxes", "addr:city": "STEUBENVILLE", "addr:country": "US", "addr:postcode": "43952", "addr:state": "OH", "addr:street_address": "720 N 7TH ST", "amenity": "post_box", "collection_times": "Mo-Sa 11:00", "nsi_id": "unitedstatespostalservice-a77078", "operator": "United States Postal Service", "operator:short": "USPS", "operator:type": "public", "operator:wikidata": "Q668687", "ref": "4395200029"}, "type": "Feature"}
{"geometry": {"coordinates": [-80.6153905, 40.360079], "type": "Point"}, "id": "f1O34HwVioQxQJp6-jXHdsUtcp4=", "properties": {"@source_uri": "https://tools.usps.com/UspsToolsRestServices/rest/POLocator/findLocations", "@spider": "usps_collection_boxes", "addr:city": "STEUBENVILLE", "addr:country": "US", "addr:postcode": "43952", "addr:state": "OH", "addr:street_address": "401 MARKET ST", "amenity": "post_box", "collection_times": "Mo-Sa 12:00", "nsi_id": "unitedstatespostalservice-a77078", "operator": "United States Postal Service", "operator:short": "USPS", "operator:type": "public", "operator:wikidata": "Q668687", "ref": "4395200045"}, "type": "Feature"}
{"geometry": {"coordinates": [-80.6261366, 40.354716], "type": "Point"}, "id": "tBUETaKr6YpImThD8KOZmeqiB70=", "properties": {"@source_uri": "https://tools.usps.com/UspsToolsRestServices/rest/POLocator/findLocations", "@spider": "usps_collection_boxes", "addr:city": "STEUBENVILLE", "addr:country": "US", "addr:postcode": "43952", "addr:state": "OH", "addr:street_address": "380 SUMMIT AVE", "amenity": "post_box", "collection_times": "Mo-Sa 12:00", "nsi_id": "unitedstatespostalservice-a77078", "operator": "United States Postal Service", "operator:short": "USPS", "operator:type": "public", "operator:wikidata": "Q668687", "ref": "4395200050"}, "type": "Feature"}
{"geometry": {"coordinates": [-80.6758149, 40.369511], "type": "Point"}, "id": "Iq0LP29PRsDxFTGn1MyKNRoNL7o=", "properties": {"@source_uri": "https://tools.usps.com/UspsToolsRestServices/rest/POLocator/findLocations", "@spider": "usps_collection_boxes", "addr:city": "STEUBENVILLE", "addr:country": "US", "addr:postcode": "43952", "addr:state": "OH", "addr:street_address": "4229 MALL DR", "amenity": "post_box", "collection_times": "Mo-Sa 10:00", "nsi_id": "unitedstatespostalservice-a77078", "operator": "United States Postal Service", "operator:short": "USPS", "operator:type": "public", "operator:wikidata": "Q668687", "ref": "4395200052"}, "type": "Feature"}
{"geometry": {"coordinates": [-80.6709522, 40.367005], "type": "Point"}, "id": "p0PkiX-kB79j2Ot7PuiAZp2sDm8=", "properties": {"@source_uri": "https://tools.usps.com/UspsToolsRestServices/rest/POLocator/findLocations", "@spider": "usps_collection_boxes", "addr:city": "STEUBENVILLE", "addr:country": "US", "addr:postcode": "43952", "addr:state": "OH", "addr:street_address": "100 MALL DR", "amenity": "post_box", "collection_times": "Mo-Sa 10:00", "nsi_id": "unitedstatespostalservice-a77078", "operator": "United States Postal Service", "operator:short": "USPS", "operator:type": "public", "operator:wikidata": "Q668687", "ref": "4395200056"}, "type": "Feature"}
{"geometry": {"coordinates": [-80.6147581, 40.359849], "type": "Point"}, "id": "Ruy9x70QEVX7lt46SyMoAMq1A8I=", "properties": {"@source_uri": "https://tools.usps.com/UspsToolsRestServices/rest/POLocator/findLocations", "@spider": "usps_collection_boxes", "addr:city": "STEUBENVILLE", "addr:country": "US", "addr:postcode": "43952", "addr:state": "OH", "addr:street_address": "339 MARKET ST", "amenity": "post_box", "collection_times": "Mo-Sa 12:00", "nsi_id": "unitedstatespostalservice-a77078", "operator": "United States Postal Service", "operator:short": "USPS", "operator:type": "public", "operator:wikidata": "Q668687", "ref": "4395200060"}, "type": "Feature"}
{"geometry": {"coordinates": [-80.6661259, 40.382035], "type": "Point"}, "id": "QpKA8YMX7GNghtHMA33UPoiFeYM=", "properties": {"@source_uri": "https://tools.usps.com/UspsToolsRestServices/rest/POLocator/findLocations", "@spider": "usps_collection_boxes", "addr:city": "STEUBENVILLE", "addr:country": "US", "addr:postcode": "43952", "addr:state": "OH", "addr:street_address": "600 BUENA VISTA BLVD", "amenity": "post_box", "collection_times": "Mo-Sa 12:00", "nsi_id": "unitedstatespostalservice-a77078", "operator": "United States Postal Service", "operator:short": "USPS", "operator:type": "public", "operator:wikidata": "Q668687", "ref": "4395200072"}, "type": "Feature"}
{"geometry": {"coordinates": [-80.6592608, 40.367718], "type": "Point"}, "id": "sL5YAqEi1IyecU93lj13EJj15Lw=", "properties": {"@source_uri": "https://tools.usps.com/UspsToolsRestServices/rest/POLocator/findLocations", "@spider": "usps_collection_boxes", "addr:city": "STEUBENVILLE", "addr:country": "US", "addr:postcode": "43952", "addr:state": "OH", "addr:street_address": "3200 JOHNSON RD", "amenity": "post_box", "collection_times": "Mo-Sa 11:00", "nsi_id": "unitedstatespostalservice-a77078", "operator": "United States Postal Service", "operator:short": "USPS", "operator:type": "public", "operator:wikidata": "Q668687", "ref": "4395200074"}, "type": "Feature"}
{"geometry": {"coordinates": [-80.6445817, 40.376209], "type": "Point"}, "id": "koUeVa2qIgjRlvR7sjQlzRzFoW4=", "properties": {"@source_uri": "https://tools.usps.com/UspsToolsRestServices/rest/POLocator/findLocations", "@spider": "usps_collection_boxes", "addr:city": "STEUBENVILLE", "addr:country": "US", "addr:postcode": "43952", "addr:state": "OH", "addr:street_address": "2500 ALVARADO BLVD", "amenity": "post_box", "collection_times": "Mo-Sa 12:00", "nsi_id": "unitedstatespostalservice-a77078", "operator": "United States Postal Service", "operator:short": "USPS", "operator:type": "public", "operator:wikidata": "Q668687", "ref": "4395200075"}, "type": "Feature"}
{"geometry": {"coordinates": [-80.636974, 40.37022], "type": "Point"}, "id": "-V1Q4qM28f_VaKZo9QXi_OIGAJI=", "properties": {"@source_uri": "https://tools.usps.com/UspsToolsRestServices/rest/POLocator/findLocations", "@spider": "usps_collection_boxes", "addr:city": "STEUBENVILLE", "addr:country": "US", "addr:postcode": "43952", "addr:state": "OH", "addr:street_address": "1920 ESTELLE AVE", "amenity": "post_box", "collection_times": "Mo-Sa 12:00", "nsi_id": "unitedstatespostalservice-a77078", "operator": "United States Postal Service", "operator:short": "USPS", "operator:type": "public", "operator:wikidata": "Q668687", "ref": "4395200079"}, "type": "Feature"}
{"geometry": {"coordinates": [-80.6729234, 40.376443], "type": "Point"}, "id": "HTwwYr6ZruMRM6Esd9B-kf_z2dQ=", "properties": {"@source_uri": "https://tools.usps.com/UspsToolsRestServices/rest/POLocator/findLocations", "@spider": "usps_collection_boxes", "addr:city": "STEUBENVILLE", "addr:country": "US", "addr:postcode": "43952", "addr:state": "OH", "addr:street_address": "4000 SUNSET BLVD", "amenity": "post_box", "collection_times": "Mo-Sa 11:00", "nsi_id": "unitedstatespostalservice-a77078", "operator": "United States Postal Service", "operator:short": "USPS", "operator:type": "public", "operator:wikidata": "Q668687", "ref": "4395200085"}, "type": "Feature"}
{"geometry": {"coordinates": [-80.6355499, 40.370592], "type": "Point"}, "id": "8QQEn_BDbjXhDLgfCb4_vrCI2xU=", "properties": {"@source_uri": "https://tools.usps.com/UspsToolsRestServices/rest/POLocator/findLocations", "@spider": "usps_collection_boxes", "addr:city": "STEUBENVILLE", "addr:country": "US", "addr:postcode": "43952", "addr:state": "OH", "addr:street_address": "141 BRADY CIR W", "amenity": "post_box", "collection_times": "Mo-Sa 10:30", "nsi_id": "unitedstatespostalservice-a77078", "operator": "United States Postal Service", "operator:short": "USPS", "operator:type": "public", "operator:wikidata": "Q668687", "ref": "4395200101"}, "type": "Feature"}
{"geometry": {"coordinates": [-80.6297299, 40.3714], "type": "Point"}, "id": "lwCeY5adSCxhGgpOShi1Kp5N1KY=", "properties": {"@source_uri": "https://tools.usps.com/UspsToolsRestServices/rest/POLocator/findLocations", "@spider": "usps_collection_boxes", "addr:city": "STEUBENVILLE", "addr:country": "US", "addr:postcode": "43952", "addr:state": "OH", "addr:street_address": "1600 OREGON AVE", "amenity": "post_box", "collection_times": "Mo-Sa 10:00", "nsi_id": "unitedstatespostalservice-a77078", "operator": "United States Postal Service", "operator:short": "USPS", "operator:type": "public", "operator:wikidata": "Q668687", "ref": "4395200104"}, "type": "Feature"}
{"geometry": {"coordinates": [-80.613373419, 40.360022781], "type": "Point"}, "id": "Q1Ui1-OqNFqoUXufJnKGfR2GoyY=", "properties": {"@source_uri": "https://tools.usps.com/UspsToolsRestServices/rest/POLocator/findLocations", "@spider": "usps_collection_boxes", "addr:city": "STEUBENVILLE", "addr:country": "US", "addr:postcode": "43952", "addr:state": "OH", "addr:street_address": "150 N 3RD ST", "amenity": "post_box", "collection_times": "Mo-Fr 18:00; Sa 17:00", "note": "ON 12/24 AND 12/31, THIS BOX MAY BE COLLECTED AS EARLY AS 12 NOON.", "nsi_id": "unitedstatespostalservice-a77078", "operator": "United States Postal Service", "operator:short": "USPS", "operator:type": "public", "operator:wikidata": "Q668687", "ref": "4395200107"}, "type": "Feature"}
{"geometry": {"coordinates": [-80.6567881, 40.419843], "type": "Point"}, "id": "fgaWy0db9fMM-z1S1zRisBGTAv4=", "properties": {"@source_uri": "https://tools.usps.com/UspsToolsRestServices/rest/POLocator/findLocations", "@spider": "usps_collection_boxes", "addr:city": "STEUBENVILLE", "addr:country": "US", "addr:postcode": "43952", "addr:state": "OH", "addr:street_address": "28 TWP RD 281", "amenity": "post_box", "collection_times": "Mo-Sa 10:00", "nsi_id": "unitedstatespostalservice-a77078", "operator": "United States Postal Service", "operator:short": "USPS", "operator:type": "public", "operator:wikidata": "Q668687", "ref": "4395200109"}, "type": "Feature"}
{"geometry": {"coordinates": [-80.6171108, 40.359776], "type": "Point"}, "id": "z3NaLTGksFon2r4x98_BCXk2t2o=", "properties": {"@source_uri": "https://tools.usps.com/UspsToolsRestServices/rest/POLocator/findLocations", "@spider": "usps_collection_boxes", "addr:city": "STEUBENVILLE", "addr:country": "US", "addr:postcode": "43952", "addr:state": "OH", "addr:street_address": "125 S 5TH ST", "amenity": "post_box", "collection_times": "Mo-Sa 12:00", "nsi_id": "unitedstatespostalservice-a77078", "operator": "United States Postal Service", "operator:short": "USPS", "operator:type": "public", "operator:wikidata": "Q668687", "ref": "4395200115"}, "type": "Feature"}
{"geometry": {"coordinates": [-80.6169803458, 40.36053925], "type": "Point"}, "id": "rYet7tVLRc2ScZh2zLeQaVnfIvg=", "properties": {"@source_uri": "https://tools.usps.com/UspsToolsRestServices/rest/POLocator/findLocations", "@spider": "usps_collection_boxes", "addr:city": "STEUBENVILLE", "addr:country": "US", "addr:postcode": "43952", "addr:state": "OH", "addr:street_address": "500 MARKET ST", "amenity": "post_box", "collection_times": "Mo-Sa 12:00", "nsi_id": "unitedstatespostalservice-a77078", "operator": "United States Postal Service", "operator:short": "USPS", "operator:type": "public", "operator:wikidata": "Q668687", "ref": "4395200119"}, "type": "Feature"}
{"geometry": {"coordinates": [-80.6109142, 40.361221], "type": "Point"}, "id": "RLS9F07meKeDKV8n5qlrBxZH6vA=", "properties": {"@source_uri": "https://tools.usps.com/UspsToolsRestServices/rest/POLocator/findLocations", "@spider": "usps_collection_boxes", "addr:city": "STEUBENVILLE", "addr:country": "US", "addr:postcode": "43952", "addr:state": "OH", "addr:street_address": "16001 STATE ROUTE 7", "amenity": "post_box", "collection_times": "Mo-Sa 09:00", "nsi_id": "unitedstatespostalservice-a77078", "operator": "United States Postal Service", "operator:short": "USPS", "operator:type": "public", "operator:wikidata": "Q668687", "ref": "4395200123"}, "type": "Feature"}
{"geometry": {"coordinates": [-80.6516649, 40.374118], "type": "Point"}, "id": "MtEpz9dx5VKF1wjU8ZWYEOIYDr4=", "properties": {"@source_uri": "https://tools.usps.com/UspsToolsRestServices/rest/POLocator/findLocations", "@spider": "usps_collection_boxes", "addr:city": "STEUBENVILLE", "addr:country": "US", "addr:postcode": "43952", "addr:state": "OH", "addr:street_address": "2700 SUNSET BLVD", "amenity": "post_box", "collection_times": "Mo-Sa 12:00", "nsi_id": "unitedstatespostalservice-a77078", "operator": "United States Postal Service", "operator:short": "USPS", "operator:type": "public", "operator:wikidata": "Q668687", "ref": "4395200128"}, "type": "Feature"}
{"geometry": {"coordinates": [-80.613373419, 40.360022781], "type": "Point"}, "id": "JyZU-rfCfPa_-z4pHNLZhVl_Nww=", "properties": {"@source_uri": "https://tools.usps.com/UspsToolsRestServices/rest/POLocator/findLocations", "@spider": "usps_collection_boxes", "addr:city": "STEUBENVILLE", "addr:country": "US", "addr:postcode": "43952", "addr:state": "OH", "addr:street_address": "150 N 3RD ST", "amenity": "post_box", "collection_times": "Mo-Fr 17:00; Sa 12:00", "indoor": "yes", "note": "ON 12/24 AND 12/31, THIS BOX MAY BE COLLECTED AS EARLY AS 12 NOON.", "nsi_id": "unitedstatespostalservice-a77078", "operator": "United States Postal Service", "operator:short": "USPS", "operator:type": "public", "operator:wikidata": "Q668687", "ref": "4395200134"}, "type": "Feature"}
{"geometry": {"coordinates": [-80.702845, 40.38255], "type": "Point"}, "id": "EHwFbuXMYa-gNEWrox5KFVLSeuU=", "properties": {"@source_uri": "https://tools.usps.com/UspsToolsRestServices/rest/POLocator/findLocations", "@spider": "usps_collection_boxes", "addr:city": "STEUBENVILLE", "addr:country": "US", "addr:postcode": "43953", "addr:state": "OH", "addr:street_address": "201 LURAY DR", "amenity": "post_box", "collection_times": "Mo-Fr 17:00; Sa 12:00", "indoor": "yes", "note": "ON 12/24 AND 12/31, THIS BOX MAY BE COLLECTED AS EARLY AS 12 NOON.", "nsi_id": "unitedstatespostalservice-a77078", "operator": "United States Postal Service", "operator:short": "USPS", "operator:type": "public", "operator:wikidata": "Q668687", "ref": "4395300001"}, "type": "Feature"}
{"geometry": {"coordinates": [-80.702845, 40.38255], "type": "Point"}, "id": "9gQefEGXM_J5ijvxYwO7Bt4_MFw=", "properties": {"@source_uri": "https://tools.usps.com/UspsToolsRestServices/rest/POLocator/findLocations", "@spider": "usps_collection_boxes", "addr:city": "STEUBENVILLE", "addr:country": "US", "addr:postcode": "43953", "addr:state": "OH", "addr:street_address": "201 LURAY DR", "amenity": "post_box", "collection_times": "Mo-Fr 17:00; Sa 12:00", "indoor": "yes", "note": "ON 12/24 AND 12/31, THIS BOX MAY BE COLLECTED AS EARLY AS 12 NOON.", "nsi_id": "unitedstatespostalservice-a77078", "operator": "United States Postal Service", "operator:short": "USPS", "operator:type": "public", "operator:wikidata": "Q668687", "ref": "4395300002"}, "type": "Feature"}
{"geometry": {"coordinates": [-80.702845, 40.38255], "type": "Point"}, "id": "Gkbg8bcv1cBMKAfojURQU1C_uxs=", "properties": {"@source_uri": "https://tools.usps.com/UspsToolsRestServices/rest/POLocator/findLocations", "@spider": "usps_collection_boxes", "addr:city": "STEUBENVILLE", "addr:country": "US", "addr:postcode": "43953", "addr:state": "OH", "addr:street_address": "201 LURAY DR", "amenity": "post_box", "collection_times": "Mo-Fr 17:00; Sa 12:00", "indoor": "yes", "note": "ON 12/24 AND 12/31, THIS BOX MAY BE COLLECTED AS EARLY AS 12 NOON.", "nsi_id": "unitedstatespostalservice-a77078", "operator": "United States Postal Service", "operator:short": "USPS", "operator:type": "public", "operator:wikidata": "Q668687", "ref": "4395300003"}, "type": "Feature"}
{"geometry": {"coordinates": [-80.702845, 40.38255], "type": "Point"}, "id": "xU5B5qeOCgR7px52FM6BS-CsjEg=", "properties": {"@source_uri": "https://tools.usps.com/UspsToolsRestServices/rest/POLocator/findLocations", "@spider": "usps_collection_boxes", "addr:city": "STEUBENVILLE", "addr:country": "US", "addr:postcode": "43953", "addr:state": "OH", "addr:street_address": "201 LURAY DR", "amenity": "post_box", "collection_times": "Mo-Fr 17:00; Sa 12:00", "note": "ON 12/24 AND 12/31, THIS BOX MAY BE COLLECTED AS EARLY AS 12 NOON.", "nsi_id": "unitedstatespostalservice-a77078", "operator": "United States Postal Service", "operator:short": "USPS", "operator:type": "public", "operator:wikidata": "Q668687", "ref": "4395300004"}, "type": "Feature"}
{"geometry": {"coordinates": [-80.7165427, 40.376024], "type": "Point"}, "id": "zOHOJKRekBNnwJMrKgPPxCJg4eA=", "properties": {"@source_uri": "https://tools.usps.com/UspsToolsRestServices/rest/POLocator/findLocations", "@spider": "usps_collection_boxes", "addr:city": "STEUBENVILLE", "addr:country": "US", "addr:postcode": "43953", "addr:state": "OH", "addr:street_address": "498 CADIZ RD", "amenity": "post_box", "collection_times": "Mo-Sa 12:00", "nsi_id": "unitedstatespostalservice-a77078", "operator": "United States Postal Service", "operator:short": "USPS", "operator:type": "public", "operator:wikidata": "Q668687", "ref": "4395300009"}, "type": "Feature"}
{"geometry": {"coordinates": [-80.7275133, 40.384758], "type": "Point"}, "id": "h0Jcf32R19jDEhdDKzXvbOBg3NM=", "properties": {"@source_uri": "https://tools.usps.com/UspsToolsRestServices/rest/POLocator/findLocations", "@spider": "usps_collection_boxes", "addr:city": "STEUBENVILLE", "addr:country": "US", "addr:postcode": "43953", "addr:state": "OH", "addr:street_address": "100 CONCORD DR", "amenity": "post_box", "collection_times": "Mo-Sa 10:00", "nsi_id": "unitedstatespostalservice-a77078", "operator": "United States Postal Service", "operator:short": "USPS", "operator:type": "public", "operator:wikidata": "Q668687", "ref": "4395300010"}, "type": "Feature"}
{"geometry": {"coordinates": [-80.7040091, 40.374532], "type": "Point"}, "id": "DhbaPkGnL6XIqSVaasnoKFv8Vj4=", "properties": {"@source_uri": "https://tools.usps.com/UspsToolsRestServices/rest/POLocator/findLocations", "@spider": "usps_collection_boxes", "addr:city": "STEUBENVILLE", "addr:country": "US", "addr:postcode": "43953", "addr:state": "OH", "addr:street_address": "864 MAIN ST", "amenity": "post_box", "collection_times": "Mo-Sa 10:00", "nsi_id": "unitedstatespostalservice-a77078", "operator": "United States Postal Service", "operator:short": "USPS", "operator:type": "public", "operator:wikidata": "Q668687", "ref": "4395300014"}, "type": "Feature"}
{"geometry": {"coordinates": [-80.6878814, 40.369759], "type": "Point"}, "id": "Ild7R5i7hhGYken5av66zO5mQT8=", "properties": {"@source_uri": "https://tools.usps.com/UspsToolsRestServices/rest/POLocator/findLocations", "@spider": "usps_collection_boxes", "addr:city": "STEUBENVILLE", "addr:country": "US", "addr:postcode": "43953", "addr:state": "OH", "addr:street_address": "100 MAIN ST", "amenity": "post_box", "collection_times": "Mo-Sa 10:00", "nsi_id": "unitedstatespostalservice-a77078", "operator": "United States Postal Service", "operator:short": "USPS", "operator:type": "public", "operator:wikidata": "Q668687", "ref": "4395300015"}, "type": "Feature"}
{"geometry": {"coordinates": [-80.6893739, 40.372664], "type": "Point"}, "id": "BdQ3V0l2Khv9e0xRPDKQ3jMgvTE=", "properties": {"@source_uri": "https://tools.usps.com/UspsToolsRestServices/rest/POLocator/findLocations", "@spider": "usps_collection_boxes", "addr:city": "STEUBENVILLE", "addr:country": "US", "addr:postcode": "43953", "addr:state": "OH", "addr:street_address": "208 MAIN ST", "amenity": "post_box", "collection_times": "Mo-Sa 10:00", "nsi_id": "unitedstatespostalservice-a77078", "operator": "United States Postal Service", "operator:short": "USPS", "operator:type": "public", "operator:wikidata": "Q668687", "ref": "4395300018"}, "type": "Feature"}
{"geometry": {"coordinates": [-80.702965628, 40.382528057], "type": "Point"}, "id": "_H8wSBjdv0fh2MQ0Qxwhfnx2lPo=", "properties": {"@source_uri": "https://tools.usps.com/UspsToolsRestServices/rest/POLocator/findLocations", "@spider": "usps_collection_boxes", "addr:city": "STEUBENVILLE", "addr:country": "US", "addr:postcode": "43953", "addr:state": "OH", "addr:street_address": "210 LURAY DR", "amenity": "post_box", "collection_times": "Mo-Fr 17:00; Sa 12:00", "indoor": "yes", "note": "ON 12/24 AND 12/31, THIS BOX MAY BE COLLECTED AS EARLY AS 12 NOON.", "nsi_id": "unitedstatespostalservice-a77078", "operator": "United States Postal Service", "operator:short": "USPS", "operator:type": "public", "operator:wikidata": "Q668687", "ref": "4395300020"}, "type": "Feature"}
{"geometry": {"coordinates": [-80.626528383, 40.52001776], "type": "Point"}, "id": "chCqH8tAhiEc_59PC6RowrIUr-o=", "properties": {"@source_uri": "https://tools.usps.com/UspsToolsRestServices/rest/POLocator/findLocations", "@spider": "usps_collection_boxes", "addr:city": "STRATTON", "addr:country": "US", "addr:postcode": "43961", "addr:state": "OH", "addr:street_address": "107 2ND AVE", "amenity": "post_box", "collection_times": "Mo-Fr 16:45; Sa 11:00", "note": "ON 12/24 AND 12/31, THIS BOX MAY BE COLLECTED AS EARLY AS 12 NOON.", "nsi_id": "unitedstatespostalservice-a77078", "operator": "United States Postal Service", "operator:short": "USPS", "operator:type": "public", "operator:wikidata": "Q668687", "ref": "4396100000"}, "type": "Feature"}
{"geometry": {"coordinates": [-80.626528383, 40.52001776], "type": "Point"}, "id": "W0hUR5v3gBwsb532KOVUQ7L3Mb8=", "properties": {"@source_uri": "https://tools.usps.com/UspsToolsRestServices/rest/POLocator/findLocations", "@spider": "usps_collection_boxes", "addr:city": "STRATTON", "addr:country": "US", "addr:postcode": "43961", "addr:state": "OH", "addr:street_address": "107 2ND AVE", "amenity": "post_box", "collection_times": "Mo-Fr 16:30; Sa 11:00", "indoor": "yes", "note": "ON 12/24 AND 12/31, THIS BOX MAY BE COLLECTED AS EARLY AS 12 NOON.", "nsi_id": "unitedstatespostalservice-a77078", "operator": "United States Postal Service", "operator:short": "USPS", "operator:type": "public", "operator:wikidata": "Q668687", "ref": "4396100003"}, "type": "Feature"}
{"geometry": {"coordinates": [-80.886303, 40.678491], "type": "Point"}, "id": "sC2b3wBB1nogUH1So9gz7uuYWsw=", "properties": {"@source_uri": "https://tools.usps.com/UspsToolsRestServices/rest/POLocator/findLocations", "@spider": "usps_collection_boxes", "addr:city": "SUMMITVILLE", "addr:country": "US", "addr:postcode": "43962", "addr:state": "OH", "addr:street_address": "15521 STATE ROUTE 644", "amenity": "post_box", "collection_times": "Mo-Fr 16:15; Sa 11:30", "note": "ON 12/24 AND 12/31, THIS BOX MAY BE COLLECTED AS EARLY AS 12 NOON.", "nsi_id": "unitedstatespostalservice-a77078", "operator": "United States Postal Service", "operator:short": "USPS", "operator:type": "public", "operator:wikidata": "Q668687", "ref": "4396200001"}, "type": "Feature"}
{"geometry": {"coordinates": [-80.8862967547, 40.6780885321], "type": "Point"}, "id": "129JaPpuQA7VJ__Xa8shobC_sJI=", "properties": {"@source_uri": "https://tools.usps.com/UspsToolsRestServices/rest/POLocator/findLocations", "@spider": "usps_collection_boxes", "addr:city": "SUMMITVILLE", "addr:country": "US", "addr:postcode": "43962", "addr:state": "OH", "addr:street_address": "15521 STATE ROUTE 644", "amenity": "post_box", "collection_times": "Mo-Fr 16:30; Sa 11:45", "indoor": "yes", "note": "ON 12/24 AND 12/31, THIS BOX MAY BE COLLECTED AS EARLY AS 12 NOON.", "nsi_id": "unitedstatespostalservice-a77078", "operator": "United States Postal Service", "operator:short": "USPS", "operator:type": "public", "operator:wikidata": "Q668687", "ref": "4396200003"}, "type": "Feature"}
{"geometry": {"coordinates": [-80.697992829, 40.168282471], "type": "Point"}, "id": "sH2-XZMWK-ix_4S1uMfYn0TYIrY=", "properties": {"@source_uri": "https://tools.usps.com/UspsToolsRestServices/rest/POLocator/findLocations", "@spider": "usps_collection_boxes", "addr:city": "TILTONSVILLE", "addr:country": "US", "addr:postcode": "43963", "addr:state": "OH", "addr:street_address": "218 GRANDVIEW AVE", "amenity": "post_box", "collection_times": "Mo-Fr 16:30; Sa 12:00", "note": "ON 12/24 AND 12/31, THIS BOX MAY BE COLLECTED AS EARLY AS 12 NOON.", "nsi_id": "unitedstatespostalservice-a77078", "operator": "United States Postal Service", "operator:short": "USPS", "operator:type": "public", "operator:wikidata": "Q668687", "ref": "4396300002"}, "type": "Feature"}
{"geometry": {"coordinates": [-80.6963369, 40.169997], "type": "Point"}, "id": "FONONn-cUYUi2izjDTx3qqJwSVs=", "properties": {"@source_uri": "https://tools.usps.com/UspsToolsRestServices/rest/POLocator/findLocations", "@spider": "usps_collection_boxes", "addr:city": "TILTONSVILLE", "addr:country": "US", "addr:postcode": "43963", "addr:state": "OH", "addr:street_address": "115 3RD ST", "amenity": "post_box", "collection_times": "Mo-Sa 09:00", "nsi_id": "unitedstatespostalservice-a77078", "operator": "United States Postal Service", "operator:short": "USPS", "operator:type": "public", "operator:wikidata": "Q668687", "ref": "4396300003"}, "type": "Feature"}
{"geometry": {"coordinates": [-80.6937199, 40.178345], "type": "Point"}, "id": "B9FxrYeP2G3CfAGmJATgukhee6Q=", "properties": {"@source_uri": "https://tools.usps.com/UspsToolsRestServices/rest/POLocator/findLocations", "@spider": "usps_collection_boxes", "addr:city": "TILTONSVILLE", "addr:country": "US", "addr:postcode": "43963", "addr:state": "OH", "addr:street_address": "703 WALDEN AVE", "amenity": "post_box", "collection_times": "Mo-Fr 11:30; Sa 10:00", "nsi_id": "unitedstatespostalservice-a77078", "operator": "United States Postal Service", "operator:short": "USPS", "operator:type": "public", "operator:wikidata": "Q668687", "ref": "4396300005"}, "type": "Feature"}
{"geometry": {"coordinates": [-80.697992829, 40.168282471], "type": "Point"}, "id": "XVUeea9wC_ok9cdfTFmNhdSGs4o=", "properties": {"@source_uri": "https://tools.usps.com/UspsToolsRestServices/rest/POLocator/findLocations", "@spider": "usps_collection_boxes", "addr:city": "TILTONSVILLE", "addr:country": "US", "addr:postcode": "43963", "addr:state": "OH", "addr:street_address": "218 GRANDVIEW AVE", "amenity": "post_box", "collection_times": "Mo-Fr 16:30; Sa 12:00", "indoor": "yes", "note": "ON 12/24 AND 12/31, THIS BOX MAY BE COLLECTED AS EARLY AS 12 NOON.", "nsi_id": "unitedstatespostalservice-a77078", "operator": "United States Postal Service", "operator:short": "USPS", "operator:type": "public", "operator:wikidata": "Q668687", "ref": "4396300009"}, "type": "Feature"}
{"geometry": {"coordinates": [-80.6009544, 40.46407], "type": "Point"}, "id": "TGEQB3eWKac6xEYXWFhPNjFw-QU=", "properties": {"@source_uri": "https://tools.usps.com/UspsToolsRestServices/rest/POLocator/findLocations", "@spider": "usps_collection_boxes", "addr:city": "TORONTO", "addr:country": "US", "addr:postcode": "43964", "addr:state": "OH", "addr:street_address": "105 S 4TH ST", "amenity": "post_box", "collection_times": "Mo-Fr 17:00; Sa 14:00", "note": "ON 12/24 AND 12/31, THIS BOX MAY BE COLLECTED AS EARLY AS 12 NOON.", "nsi_id": "unitedstatespostalservice-a77078", "operator": "United States Postal Service", "operator:short": "USPS", "operator:type": "public", "operator:wikidata": "Q668687", "ref": "4396400001"}, "type": "Feature"}
{"geometry": {"coordinates": [-80.601779, 40.468811], "type": "Point"}, "id": "u5Jh8dNsuTgUBIkLn5JVLbIXbHU=", "properties": {"@source_uri": "https://tools.usps.com/UspsToolsRestServices/rest/POLocator/findLocations", "@spider": "usps_collection_boxes", "addr:city": "TORONTO", "addr:country": "US", "addr:postcode": "43964", "addr:state": "OH", "addr:street_address": "524 N 5TH ST", "amenity": "post_box", "collection_times": "Mo-Sa 09:30", "nsi_id": "unitedstatespostalservice-a77078", "operator": "United States Postal Service", "operator:short": "USPS", "operator:type": "public", "operator:wikidata": "Q668687", "ref": "4396400008"}, "type": "Feature"}
{"geometry": {"coordinates": [-80.6110734, 40.458239], "type": "Point"}, "id": "dWBsiJMUHall381WrrTUmqtNVTY=", "properties": {"@source_uri": "https://tools.usps.com/UspsToolsRestServices/rest/POLocator/findLocations", "@spider": "usps_collection_boxes", "addr:city": "TORONTO", "addr:country": "US", "addr:postcode": "43964", "addr:state": "OH", "addr:street_address": "934 BANFIELD AVE", "amenity": "post_box", "collection_times": "Mo-Sa 12:00", "nsi_id": "unitedstatespostalservice-a77078", "operator": "United States Postal Service", "operator:short": "USPS", "operator:type": "public", "operator:wikidata": "Q668687", "ref": "4396400013"}, "type": "Feature"}
{"geometry": {"coordinates": [-80.613264, 40.451532], "type": "Point"}, "id": "SVphC0WdMyZeOV1Eh-rLETiHxOQ=", "properties": {"@source_uri": "https://tools.usps.com/UspsToolsRestServices/rest/POLocator/findLocations", "@spider": "usps_collection_boxes", "addr:city": "TORONTO", "addr:country": "US", "addr:postcode": "43964", "addr:state": "OH", "addr:street_address": "1840 FRANKLIN ST", "amenity": "post_box", "collection_times": "Mo-Sa 09:30", "nsi_id": "unitedstatespostalservice-a77078", "operator": "United States Postal Service", "operator:short": "USPS", "operator:type": "public", "operator:wikidata": "Q668687", "ref": "4396400017"}, "type": "Feature"}
{"geometry": {"coordinates": [-80.601039039, 40.46410887], "type": "Point"}, "id": "-ndQ7kNk31V4S72LAdOqIWXruso=", "properties": {"@source_uri": "https://tools.usps.com/UspsToolsRestServices/rest/POLocator/findLocations", "@spider": "usps_collection_boxes", "addr:city": "TORONTO", "addr:country": "US", "addr:postcode": "43964", "addr:state": "OH", "addr:street_address": "106 S 4TH ST", "amenity": "post_box", "collection_times": "Mo-Fr 17:00; Sa 12:00", "indoor": "yes", "note": "ON 12/24 AND 12/31, THIS BOX MAY BE COLLECTED AS EARLY AS 12 NOON.", "nsi_id": "unitedstatespostalservice-a77078", "operator": "United States Postal Service", "operator:short": "USPS", "operator:type": "public", "operator:wikidata": "Q668687", "ref": "4396400019"}, "type": "Feature"}
{"geometry": {"coordinates": [-80.9378619065, 40.0223068032], "type": "Point"}, "id": "QAFPi0jp2CvJCiKOhBvCN3mNSrs=", "properties": {"@source_uri": "https://tools.usps.com/UspsToolsRestServices/rest/POLocator/findLocations", "@spider": "usps_collection_boxes", "addr:city": "WARNOCK", "addr:country": "US", "addr:postcode": "43967", "addr:state": "OH", "addr:street_address": "47590 W BROOKLYN ST", "amenity": "post_box", "collection_times": "Mo-Fr 15:15; Sa 10:00", "note": "ON 12/24 AND 12/31, THIS BOX MAY BE COLLECTED AS EARLY AS 12 NOON.", "nsi_id": "unitedstatespostalservice-a77078", "operator": "United States Postal Service", "operator:short": "USPS", "operator:type": "public", "operator:wikidata": "Q668687", "ref": "4396700000"}, "type": "Feature"}
{"geometry": {"coordinates": [-80.9389346961, 40.0225784996], "type": "Point"}, "id": "bW-77aEawhjxVhPHyV4uPmLCo80=", "properties": {"@source_uri": "https://tools.usps.com/UspsToolsRestServices/rest/POLocator/findLocations", "@spider": "usps_collection_boxes", "addr:city": "WARNOCK", "addr:country": "US", "addr:postcode": "43967", "addr:state": "OH", "addr:street_address": "47590 W BROOKLYN ST", "amenity": "post_box", "collection_times": "Mo-Fr 15:15; Sa 10:00", "indoor": "yes", "note": "ON 12/24 AND 12/31, THIS BOX MAY BE COLLECTED AS EARLY AS 12 NOON.", "nsi_id": "unitedstatespostalservice-a77078", "operator": "United States Postal Service", "operator:short": "USPS", "operator:type": "public", "operator:wikidata": "Q668687", "ref": "4396700003"}, "type": "Feature"}
{"geometry": {"coordinates": [-80.650237462, 40.601966457], "type": "Point"}, "id": "0G2iBIgB7BeN2NitjKs0k1kUObw=", "properties": {"@source_uri": "https://tools.usps.com/UspsToolsRestServices/rest/POLocator/findLocations", "@spider": "usps_collection_boxes", "addr:city": "WELLSVILLE", "addr:country": "US", "addr:postcode": "43968", "addr:state": "OH", "addr:street_address": "1075 MAIN ST", "amenity": "post_box", "collection_times": "Mo-Sa 17:00", "note": "ON 12/24 AND 12/31, THIS BOX MAY BE COLLECTED AS EARLY AS 12 NOON.", "nsi_id": "unitedstatespostalservice-a77078", "operator": "United States Postal Service", "operator:short": "USPS", "operator:type": "public", "operator:wikidata": "Q668687", "ref": "4396800010"}, "type": "Feature"}
{"geometry": {"coordinates": [-80.650237462, 40.601966457], "type": "Point"}, "id": "bWbT29iwBRX1tjcuGQ3l7_2shuw=", "properties": {"@source_uri": "https://tools.usps.com/UspsToolsRestServices/rest/POLocator/findLocations", "@spider": "usps_collection_boxes", "addr:city": "WELLSVILLE", "addr:country": "US", "addr:postcode": "43968", "addr:state": "OH", "addr:street_address": "1075 MAIN ST", "amenity": "post_box", "collection_times": "Mo-Sa 17:00", "indoor": "yes", "note": "ON 12/24 AND 12/31, THIS BOX MAY BE COLLECTED AS EARLY AS 12 NOON.", "nsi_id": "unitedstatespostalservice-a77078", "operator": "United States Postal Service", "operator:short": "USPS", "operator:type": "public", "operator:wikidata": "Q668687", "ref": "4396800011"}, "type": "Feature"}
{"geometry": {"coordinates": [-80.650237462, 40.601966457], "type": "Point"}, "id": "0aR0hSMxHJKOextYfqOl0YPmyxM=", "properties": {"@source_uri": "https://tools.usps.com/UspsToolsRestServices/rest/POLocator/findLocations", "@spider": "usps_collection_boxes", "addr:city": "WELLSVILLE", "addr:country": "US", "addr:postcode": "43968", "addr:state": "OH", "addr:street_address": "1075 MAIN ST", "amenity": "post_box", "collection_times": "Mo-Fr 17:00; Sa 12:00", "indoor": "yes", "note": "ON 12/24 AND 12/31, THIS BOX MAY BE COLLECTED AS EARLY AS 12 NOON.", "nsi_id": "unitedstatespostalservice-a77078", "operator": "United States Postal Service", "operator:short": "USPS", "operator:type": "public", "operator:wikidata": "Q668687", "ref": "4396800016"}, "type": "Feature"}
{"geometry": {"coordinates": [-80.705219014, 40.159242282], "type": "Point"}, "id": "4clbdGN--rw3ZRXBOOCcav_nQeE=", "properties": {"@source_uri": "https://tools.usps.com/UspsToolsRestServices/rest/POLocator/findLocations", "@spider": "usps_collection_boxes", "addr:city": "YORKVILLE", "addr:country": "US", "addr:postcode": "43971", "addr:state": "OH", "addr:street_address": "325 PUBLIC RD", "amenity": "post_box", "collection_times": "Mo-Fr 15:30; Sa 11:15", "note": "ON 12/24 AND 12/31, THIS BOX MAY BE COLLECTED AS EARLY AS 12 NOON.", "nsi_id": "unitedstatespostalservice-a77078", "operator": "United States Postal Service", "operator:short": "USPS", "operator:type": "public", "operator:wikidata": "Q668687", "ref": "4397100001"}, "type": "Feature"}
{"geometry": {"coordinates": [-80.705219014, 40.159242282], "type": "Point"}, "id": "G1-rmaNI2gbLhNrIv2yOfN_0Ztg=", "properties": {"@source_uri": "https://tools.usps.com/UspsToolsRestServices/rest/POLocator/findLocations", "@spider": "usps_collection_boxes", "addr:city": "YORKVILLE", "addr:country": "US", "addr:postcode": "43971", "addr:state": "OH", "addr:street_address": "325 PUBLIC RD", "amenity": "post_box", "collection_times": "Mo-Sa 11:30", "indoor": "yes", "nsi_id": "unitedstatespostalservice-a77078", "operator": "United States Postal Service", "operator:short": "USPS", "operator:type": "public", "operator:wikidata": "Q668687", "ref": "4397100006"}, "type": "Feature"}
{"geometry": {"coordinates": [-81.266720355, 40.2097568], "type": "Point"}, "id": "q4rvDJ7_YFrevBtzkOhU2rKyz8s=", "properties": {"@source_uri": "https://tools.usps.com/UspsToolsRestServices/rest/POLocator/findLocations", "@spider": "usps_collection_boxes", "addr:city": "FREEPORT", "addr:country": "US", "addr:postcode": "43973", "addr:state": "OH", "addr:street_address": "101 S PHILADELPHIA ST", "amenity": "post_box", "collection_times": "Mo-Fr 16:00; Sa 11:45", "note": "ON 12/24 AND 12/31, THIS BOX MAY BE COLLECTED AS EARLY AS 12 NOON.", "nsi_id": "unitedstatespostalservice-a77078", "operator": "United States Postal Service", "operator:short": "USPS", "operator:type": "public", "operator:wikidata": "Q668687", "ref": "4397300001"}, "type": "Feature"}
{"geometry": {"coordinates": [-81.266720355, 40.2097568], "type": "Point"}, "id": "kf9gij1y1OffIICK84BLY-geWOM=", "properties": {"@source_uri": "https://tools.usps.com/UspsToolsRestServices/rest/POLocator/findLocations", "@spider": "usps_collection_boxes", "addr:city": "FREEPORT", "addr:country": "US", "addr:postcode": "43973", "addr:state": "OH", "addr:street_address": "101 S PHILADELPHIA ST", "amenity": "post_box", "collection_times": "Mo-Fr 16:00; Sa 11:45", "indoor": "yes", "note": "ON 12/24 AND 12/31, THIS BOX MAY BE COLLECTED AS EARLY AS 12 NOON.", "nsi_id": "unitedstatespostalservice-a77078", "operator": "United States Postal Service", "operator:short": "USPS", "operator:type": "public", "operator:wikidata": "Q668687", "ref": "4397300004"}, "type": "Feature"}
{"geometry": {"coordinates": [-80.887728, 40.181629], "type": "Point"}, "id": "f6onjXE71haRcCv8V0LjpAZJ4-A=", "properties": {"@source_uri": "https://tools.usps.com/UspsToolsRestServices/rest/POLocator/findLocations", "@spider": "usps_collection_boxes", "addr:city": "HARRISVILLE", "addr:country": "US", "addr:postcode": "43974", "addr:state": "OH", "addr:street_address": "49364 MAIN ST", "amenity": "post_box", "collection_times": "Mo-Fr 12:00; Sa 11:00", "indoor": "yes", "nsi_id": "unitedstatespostalservice-a77078", "operator": "United States Postal Service", "operator:short": "USPS", "operator:type": "public", "operator:wikidata": "Q668687", "ref": "4397400000"}, "type": "Feature"}
{"geometry": {"coordinates": [-80.887608, 40.18161], "type": "Point"}, "id": "NW5hp1Nf9vfdizghvPuqi47v6Xc=", "properties": {"@source_uri": "https://tools.usps.com/UspsToolsRestServices/rest/POLocator/findLocations", "@spider": "usps_collection_boxes", "addr:city": "HARRISVILLE", "addr:country": "US", "addr:postcode": "43974", "addr:state": "OH", "addr:street_address": "49364 MAIN ST", "amenity": "post_box", "collection_times": "Mo-Fr 12:00; Sa 11:00", "nsi_id": "unitedstatespostalservice-a77078", "operator": "United States Postal Service", "operator:short": "USPS", "operator:type": "public", "operator:wikidata": "Q668687", "ref": "4397400001"}, "type": "Feature"}
{"geometry": {"coordinates": [-80.8877600255, 40.1816194566], "type": "Point"}, "id": "8ekn5vf2uFUClcnm_qsZY6MKaCM=", "properties": {"@source_uri": "https://tools.usps.com/UspsToolsRestServices/rest/POLocator/findLocations", "@spider": "usps_collection_boxes", "addr:city": "HARRISVILLE", "addr:country": "US", "addr:postcode": "43974", "addr:state": "OH", "addr:street_address": "49364 MAIN ST", "amenity": "post_box", "collection_times": "Mo-Fr 12:00; Sa 11:00", "indoor": "yes", "nsi_id": "unitedstatespostalservice-a77078", "operator": "United States Postal Service", "operator:short": "USPS", "operator:type": "public", "operator:wikidata": "Q668687", "ref": "4397400003"}, "type": "Feature"}
{"geometry": {"coordinates": [-80.90329154, 40.328400732], "type": "Point"}, "id": "dOtIUYqIEs0vJRPxM9mKkdbvMlo=", "properties": {"@source_uri": "https://tools.usps.com/UspsToolsRestServices/rest/POLocator/findLocations", "@spider": "usps_collection_boxes", "addr:city": "HOPEDALE", "addr:country": "US", "addr:postcode": "43976", "addr:state": "OH", "addr:street_address": "165 MILLER STATION RD", "amenity": "post_box", "collection_times": "Mo-Fr 15:45; Sa 11:45", "note": "ON 12/24 AND 12/31, THIS BOX MAY BE COLLECTED AS EARLY AS 12 NOON.", "nsi_id": "unitedstatespostalservice-a77078", "operator": "United States Postal Service", "operator:short": "USPS", "operator:type": "public", "operator:wikidata": "Q668687", "ref": "4397600000"}, "type": "Feature"}
{"geometry": {"coordinates": [-80.90329154, 40.328400732], "type": "Point"}, "id": "0IM1DH9CH31OuGA5q372DPWT0LY=", "properties": {"@source_uri": "https://tools.usps.com/UspsToolsRestServices/rest/POLocator/findLocations", "@spider": "usps_collection_boxes", "addr:city": "HOPEDALE", "addr:country": "US", "addr:postcode": "43976", "addr:state": "OH", "addr:street_address": "165 MILLER STATION RD", "amenity": "post_box", "collection_times": "Mo-Fr 16:00; Sa 12:00", "indoor": "yes", "note": "ON 12/24 AND 12/31, THIS BOX MAY BE COLLECTED AS EARLY AS 12 NOON.", "nsi_id": "unitedstatespostalservice-a77078", "operator": "United States Postal Service", "operator:short": "USPS", "operator:type": "public", "operator:wikidata": "Q668687", "ref": "4397600003"}, "type": "Feature"}
{"geometry": {"coordinates": [-80.996006161, 40.181020711], "type": "Point"}, "id": "0YV-FQ7veGDl-qC9IlN_LATOgFk=", "properties": {"@source_uri": "https://tools.usps.com/UspsToolsRestServices/rest/POLocator/findLocations", "@spider": "usps_collection_boxes", "addr:city": "NEW ATHENS", "addr:country": "US", "addr:postcode": "43981", "addr:state": "OH", "addr:street_address": "128 S MAIN ST", "amenity": "post_box", "collection_times": "Mo-Fr 15:45; Sa 10:45", "indoor": "yes", "note": "ON 12/24 AND 12/31, THIS BOX MAY BE COLLECTED AS EARLY AS 12 NOON.", "nsi_id": "unitedstatespostalservice-a77078", "operator": "United States Postal Service", "operator:short": "USPS", "operator:type": "public", "operator:wikidata": "Q668687", "ref": "4398100000"}, "type": "Feature"}
{"geometry": {"coordinates": [-80.996006161, 40.181020711], "type": "Point"}, "id": "bAXd0X5ABiXC70XghSv_ZVK7tiM=", "properties": {"@source_uri": "https://tools.usps.com/UspsToolsRestServices/rest/POLocator/findLocations", "@spider": "usps_collection_boxes", "addr:city": "NEW ATHENS", "addr:country": "US", "addr:postcode": "43981", "addr:state": "OH", "addr:street_address": "128 S MAIN ST", "amenity": "post_box", "collection_times": "Mo-Fr 15:45; Sa 10:45", "note": "ON 12/24 AND 12/31, THIS BOX MAY BE COLLECTED AS EARLY AS 12 NOON.", "nsi_id": "unitedstatespostalservice-a77078", "operator": "United States Postal Service", "operator:short": "USPS", "operator:type": "public", "operator:wikidata": "Q668687", "ref": "4398100001"}, "type": "Feature"}
{"geometry": {"coordinates": [-80.996006161, 40.181020711], "type": "Point"}, "id": "TEeJmuvRtkN0zzFJKHA7AgfMsBc=", "properties": {"@source_uri": "https://tools.usps.com/UspsToolsRestServices/rest/POLocator/findLocations", "@spider": "usps_collection_boxes", "addr:city": "NEW ATHENS", "addr:country": "US", "addr:postcode": "43981", "addr:state": "OH", "addr:street_address": "128 S MAIN ST", "amenity": "post_box", "collection_times": "Mo-Fr 15:45; Sa 10:45", "indoor": "yes", "note": "ON 12/24 AND 12/31, THIS BOX MAY BE COLLECTED AS EARLY AS 12 NOON.", "nsi_id": "unitedstatespostalservice-a77078", "operator": "United States Postal Service", "operator:short": "USPS", "operator:type": "public", "operator:wikidata": "Q668687", "ref": "4398100003"}, "type": "Feature"}
{"geometry": {"coordinates": [-81.207369185, 40.188685991], "type": "Point"}, "id": "N9eL_9AsADY4rczzvtbxY6e2rzo=", "properties": {"@source_uri": "https://tools.usps.com/UspsToolsRestServices/rest/POLocator/findLocations", "@spider": "usps_collection_boxes", "addr:city": "PIEDMONT", "addr:country": "US", "addr:postcode": "43983", "addr:state": "OH", "addr:street_address": "33031 W MAIN ST", "amenity": "post_box", "collection_times": "Mo-Fr 16:00; Sa 11:30", "indoor": "yes", "note": "ON 12/24 AND 12/31, THIS BOX MAY BE COLLECTED AS EARLY AS 12 NOON.", "nsi_id": "unitedstatespostalservice-a77078", "operator": "United States Postal Service", "operator:short": "USPS", "operator:type": "public", "operator:wikidata": "Q668687", "ref": "4398300000"}, "type": "Feature"}
{"geometry": {"coordinates": [-81.207369185, 40.188685991], "type": "Point"}, "id": "sYbyccszzT0RQoxNHZEMRBGLbI8=", "properties": {"@source_uri": "https://tools.usps.com/UspsToolsRestServices/rest/POLocator/findLocations", "@spider": "usps_collection_boxes", "addr:city": "PIEDMONT", "addr:country": "US", "addr:postcode": "43983", "addr:state": "OH", "addr:street_address": "33031 W MAIN ST", "amenity": "post_box", "collection_times": "Mo-Fr 16:00; Sa 11:30", "note": "ON 12/24 AND 12/31, THIS BOX MAY BE COLLECTED AS EARLY AS 12 NOON.", "nsi_id": "unitedstatespostalservice-a77078", "operator": "United States Postal Service", "operator:short": "USPS", "operator:type": "public", "operator:wikidata": "Q668687", "ref": "4398300001"}, "type": "Feature"}
{"geometry": {"coordinates": [-81.207369185, 40.188685991], "type": "Point"}, "id": "JPlj07UKLHXbgBGDY-af0KONnh4=", "properties": {"@source_uri": "https://tools.usps.com/UspsToolsRestServices/rest/POLocator/findLocations", "@spider": "usps_collection_boxes", "addr:city": "PIEDMONT", "addr:country": "US", "addr:postcode": "43983", "addr:state": "OH", "addr:street_address": "33031 W MAIN ST", "amenity": "post_box", "collection_times": "Mo-Fr 16:00; Sa 11:30", "indoor": "yes", "note": "ON 12/24 AND 12/31, THIS BOX MAY BE COLLECTED AS EARLY AS 12 NOON.", "nsi_id": "unitedstatespostalservice-a77078", "operator": "United States Postal Service", "operator:short": "USPS", "operator:type": "public", "operator:wikidata": "Q668687", "ref": "4398300003"}, "type": "Feature"}
{"geometry": {"coordinates": [-81.133091205, 40.162105743], "type": "Point"}, "id": "qYMuV2lmB8Y90RaH7uV4Ivmvv4s=", "properties": {"@source_uri": "https://tools.usps.com/UspsToolsRestServices/rest/POLocator/findLocations", "@spider": "usps_collection_boxes", "addr:city": "HOLLOWAY", "addr:country": "US", "addr:postcode": "43985", "addr:state": "OH", "addr:street_address": "120 E MAIN ST", "amenity": "post_box", "collection_times": "Mo-Fr 14:30; Sa 12:00", "note": "ON 12/24 AND 12/31, THIS BOX MAY BE COLLECTED AS EARLY AS 12 NOON.", "nsi_id": "unitedstatespostalservice-a77078", "operator": "United States Postal Service", "operator:short": "USPS", "operator:type": "public", "operator:wikidata": "Q668687", "ref": "4398500000"}, "type": "Feature"}
{"geometry": {"coordinates": [-81.133091205, 40.162105743], "type": "Point"}, "id": "g2k6sJTT8d_ziqg6HCOwHYoxNz0=", "properties": {"@source_uri": "https://tools.usps.com/UspsToolsRestServices/rest/POLocator/findLocations", "@spider": "usps_collection_boxes", "addr:city": "HOLLOWAY", "addr:country": "US", "addr:postcode": "43985", "addr:state": "OH", "addr:street_address": "120 E MAIN ST", "amenity": "post_box", "collection_times": "Mo-Fr 14:30; Sa 12:00", "indoor": "yes", "note": "ON 12/24 AND 12/31, THIS BOX MAY BE COLLECTED AS EARLY AS 12 NOON.", "nsi_id": "unitedstatespostalservice-a77078", "operator": "United States Postal Service", "operator:short": "USPS", "operator:type": "public", "operator:wikidata": "Q668687", "ref": "4398500001"}, "type": "Feature"}
{"geometry": {"coordinates": [-81.0661235, 40.149551], "type": "Point"}, "id": "nQhCByl2IU7tvgMTLxm5iK3-J6k=", "properties": {"@source_uri": "https://tools.usps.com/UspsToolsRestServices/rest/POLocator/findLocations", "@spider": "usps_collection_boxes", "addr:city": "HOLLOWAY", "addr:country": "US", "addr:postcode": "43985", "addr:state": "OH", "addr:street_address": "210 HIGH ST", "amenity": "post_box", "collection_times": "Mo-Sa 11:30", "nsi_id": "unitedstatespostalservice-a77078", "operator": "United States Postal Service", "operator:short": "USPS", "operator:type": "public", "operator:wikidata": "Q668687", "ref": "4398500002"}, "type": "Feature"}
{"geometry": {"coordinates": [-81.133091205, 40.162105743], "type": "Point"}, "id": "HIb_womjeIRHxImDuqncaYRmUQw=", "properties": {"@source_uri": "https://tools.usps.com/UspsToolsRestServices/rest/POLocator/findLocations", "@spider": "usps_collection_boxes", "addr:city": "HOLLOWAY", "addr:country": "US", "addr:postcode": "43985", "addr:state": "OH", "addr:street_address": "120 E MAIN ST", "amenity": "post_box", "collection_times": "Mo-Fr 14:30; Sa 12:00", "indoor": "yes", "note": "ON 12/24 AND 12/31, THIS BOX MAY BE COLLECTED AS EARLY AS 12 NOON.", "nsi_id": "unitedstatespostalservice-a77078", "operator": "United States Postal Service", "operator:short": "USPS", "operator:type": "public", "operator:wikidata": "Q668687", "ref": "4398500004"}, "type": "Feature"}
{"geometry": {"coordinates": [-81.003619216, 40.367689395], "type": "Point"}, "id": "LfX6UfXmUU0QghPvEcVkPl8C9aw=", "properties": {"@source_uri": "https://tools.usps.com/UspsToolsRestServices/rest/POLocator/findLocations", "@spider": "usps_collection_boxes", "addr:city": "JEWETT", "addr:country": "US", "addr:postcode": "43986", "addr:state": "OH", "addr:street_address": "102 W MAIN ST", "amenity": "post_box", "collection_times": "Mo-Fr 16:15; Sa 12:00", "note": "ON 12/24 AND 12/31, THIS BOX MAY BE COLLECTED AS EARLY AS 12 NOON.", "nsi_id": "unitedstatespostalservice-a77078", "operator": "United States Postal Service", "operator:short": "USPS", "operator:type": "public", "operator:wikidata": "Q668687", "ref": "4398600000"}, "type": "Feature"}
{"geometry": {"coordinates": [-81.0338352, 40.403382], "type": "Point"}, "id": "J4W_umAUbzpGuBsc6GNlaLgR_CM=", "properties": {"@source_uri": "https://tools.usps.com/UspsToolsRestServices/rest/POLocator/findLocations", "@spider": "usps_collection_boxes", "addr:city": "JEWETT", "addr:country": "US", "addr:postcode": "43986", "addr:state": "OH", "addr:street_address": "41450 RUMLEY RD E", "amenity": "post_box", "collection_times": "Mo-Sa 11:45", "nsi_id": "unitedstatespostalservice-a77078", "operator": "United States Postal Service", "operator:short": "USPS", "operator:type": "public", "operator:wikidata": "Q668687", "ref": "4398600003"}, "type": "Feature"}
{"geometry": {"coordinates": [-81.003579982, 40.367959999], "type": "Point"}, "id": "AccOhVi207v45wc9YPUSNpk84Gk=", "properties": {"@source_uri": "https://tools.usps.com/UspsToolsRestServices/rest/POLocator/findLocations", "@spider": "usps_collection_boxes", "addr:city": "JEWETT", "addr:country": "US", "addr:postcode": "43986", "addr:state": "OH", "addr:street_address": "102 W MAIN ST", "amenity": "post_box", "collection_times": "Mo-Fr 16:15; Sa 12:00", "indoor": "yes", "note": "ON 12/24 AND 12/31, THIS BOX MAY BE COLLECTED AS EARLY AS 12 NOON.", "nsi_id": "unitedstatespostalservice-a77078", "operator": "United States Postal Service", "operator:short": "USPS", "operator:type": "public", "operator:wikidata": "Q668687", "ref": "4398600006"}, "type": "Feature"}
{"geometry": {"coordinates": [-81.085165269, 40.396234191], "type": "Point"}, "id": "1ZtU19Np9aGo4PwfOGMdbYVj-Wk=", "properties": {"@source_uri": "https://tools.usps.com/UspsToolsRestServices/rest/POLocator/findLocations", "@spider": "usps_collection_boxes", "addr:city": "SCIO", "addr:country": "US", "addr:postcode": "43988", "addr:state": "OH", "addr:street_address": "114 E MAIN ST", "amenity": "post_box", "collection_times": "Mo-Fr 16:00; Sa 12:00", "note": "ON 12/24 AND 12/31, THIS BOX MAY BE COLLECTED AS EARLY AS 12 NOON.", "nsi_id": "unitedstatespostalservice-a77078", "operator": "United States Postal Service", "operator:short": "USPS", "operator:type": "public", "operator:wikidata": "Q668687", "ref": "4398800001"}, "type": "Feature"}
{"geometry": {"coordinates": [-81.0900842, 40.405396], "type": "Point"}, "id": "OrURdHvbRtZQiLvlzKF1LKNw9Js=", "properties": {"@source_uri": "https://tools.usps.com/UspsToolsRestServices/rest/POLocator/findLocations", "@spider": "usps_collection_boxes", "addr:city": "SCIO", "addr:country": "US", "addr:postcode": "43988", "addr:state": "OH", "addr:street_address": "38450 ALLENSWORTH DR", "amenity": "post_box", "collection_times": "Mo-Sa 10:00", "nsi_id": "unitedstatespostalservice-a77078", "operator": "United States Postal Service", "operator:short": "USPS", "operator:type": "public", "operator:wikidata": "Q668687", "ref": "4398800002"}, "type": "Feature"}
{"geometry": {"coordinates": [-81.085165269, 40.396234191], "type": "Point"}, "id": "Vh8_1CVcfnduojN7sEJO49v6Wlg=", "properties": {"@source_uri": "https://tools.usps.com/UspsToolsRestServices/rest/POLocator/findLocations", "@spider": "usps_collection_boxes", "addr:city": "SCIO", "addr:country": "US", "addr:postcode": "43988", "addr:state": "OH", "addr:street_address": "114 E MAIN ST", "amenity": "post_box", "collection_times": "Mo-Fr 16:15; Sa 12:00", "indoor": "yes", "note": "ON 12/24 AND 12/31, THIS BOX MAY BE COLLECTED AS EARLY AS 12 NOON.", "nsi_id": "unitedstatespostalservice-a77078", "operator": "United States Postal Service", "operator:short": "USPS", "operator:type": "public", "operator:wikidata": "Q668687", "ref": "4398800007"}, "type": "Feature"}
