{"geometry": {"coordinates": [-81.9862474, 41.494142], "type": "Point"}, "id": "_P4hl17PPKhli8MjiFVfM5Eu01g=", "properties": {"@spider": "usps_collection_boxes", "addr:city": "AVON LAKE", "addr:country": "US", "addr:full": "375 LEAR RD", "addr:postcode": "44012", "addr:state": "OH", "brand": "USPS", "collection_times": "Mo-Sa 09:30", "name": "USPS COLLECTION BOX - BLUE BOX", "ref": "4401200000"}, "type": "Feature"}
{"geometry": {"coordinates": [-81.9883309, 41.508796], "type": "Point"}, "id": "89LDOjmX9JtZNzEEGZQYaET1UUg=", "properties": {"@spider": "usps_collection_boxes", "addr:city": "AVON LAKE", "addr:country": "US", "addr:full": "32085 ELECTRIC BLVD", "addr:postcode": "44012", "addr:state": "OH", "brand": "USPS", "collection_times": "Mo-Sa 11:00", "name": "USPS COLLECTION BOX - BLUE BOX", "ref": "4401200004"}, "type": "Feature"}
{"geometry": {"coordinates": [-82.0257973, 41.502711], "type": "Point"}, "id": "IBH5UXT6GIz9bxQXmlTvIaKhxyU=", "properties": {"@spider": "usps_collection_boxes", "addr:city": "AVON LAKE", "addr:country": "US", "addr:full": "254 BERKSHIRE RD", "addr:postcode": "44012", "addr:state": "OH", "brand": "USPS", "collection_times": "Mo-Fr 12:30; Sa 12:00", "name": "USPS COLLECTION BOX - BLUE BOX", "note": "ON 12/24 AND 12/31, THIS BOX MAY BE COLLECTED AS EARLY AS 12 NOON.", "ref": "4401200005"}, "type": "Feature"}
{"geometry": {"coordinates": [-82.0128355, 41.509501], "type": "Point"}, "id": "iLdQVoAjQqi4-AJofPFND07gfls=", "properties": {"@spider": "usps_collection_boxes", "addr:city": "AVON LAKE", "addr:country": "US", "addr:full": "32649 ELECTRIC BLVD", "addr:postcode": "44012", "addr:state": "OH", "brand": "USPS", "collection_times": "Mo-Sa 10:30", "name": "USPS COLLECTION BOX - BLUE BOX", "ref": "4401200010"}, "type": "Feature"}
{"geometry": {"coordinates": [-82.0186096772, 41.5105286123], "type": "Point"}, "id": "GtkU4OFiTwxX-meJatR0yMzkmfg=", "properties": {"@spider": "usps_collection_boxes", "addr:city": "AVON LAKE", "addr:country": "US", "addr:full": "150 AVON BELDEN RD", "addr:postcode": "44012", "addr:state": "OH", "brand": "USPS", "collection_times": "Mo-Sa 11:00", "name": "USPS COLLECTION BOX - BLUE BOX", "ref": "4401200011"}, "type": "Feature"}
{"geometry": {"coordinates": [-82.324181, 41.429543], "type": "Point"}, "id": "COhacpOfDVcDdfuP4eijA1rxszI=", "properties": {"@spider": "usps_collection_boxes", "addr:city": "VERMILION", "addr:country": "US", "addr:full": "3807 EDGEWATER DR", "addr:postcode": "44089", "addr:state": "OH", "brand": "USPS", "collection_times": "Mo-Sa 09:15", "name": "USPS COLLECTION BOX - BLUE BOX", "ref": "4408900000"}, "type": "Feature"}
{"geometry": {"coordinates": [-82.3369312, 41.425352], "type": "Point"}, "id": "k5HEu9m6EX8mzE6VIT9aeaN5k-8=", "properties": {"@spider": "usps_collection_boxes", "addr:city": "VERMILION", "addr:country": "US", "addr:full": "4208 LIBERTY AVE", "addr:postcode": "44089", "addr:state": "OH", "brand": "USPS", "collection_times": "Mo-Fr 16:00; Sa 15:00", "name": "USPS COLLECTION BOX - BLUE BOX", "note": "ON 12/24 AND 12/31, THIS BOX MAY BE COLLECTED AS EARLY AS 12 NOON.", "ref": "4408900002"}, "type": "Feature"}
{"geometry": {"coordinates": [-82.3432199, 41.423545], "type": "Point"}, "id": "EfcS-kYM1WjrZ-YjFUrNrBoYPOY=", "properties": {"@spider": "usps_collection_boxes", "addr:city": "VERMILION", "addr:country": "US", "addr:full": "4453 LIBERTY AVE", "addr:postcode": "44089", "addr:state": "OH", "brand": "USPS", "collection_times": "Mo-Sa 10:45", "name": "USPS COLLECTION BOX - BLUE BOX", "ref": "4408900003"}, "type": "Feature"}
{"geometry": {"coordinates": [-82.350006, 41.424003], "type": "Point"}, "id": "_aqiT-p9BW4JmQxsjbQ9GEtv2b0=", "properties": {"@spider": "usps_collection_boxes", "addr:city": "VERMILION", "addr:country": "US", "addr:full": "4721 LIBERTY AVE", "addr:postcode": "44089", "addr:state": "OH", "brand": "USPS", "collection_times": "Mo-Fr 16:15; Sa 15:15", "name": "USPS COLLECTION BOX - BLUE BOX", "note": "ON 12/24 AND 12/31, THIS BOX MAY BE COLLECTED AS EARLY AS 12 NOON.", "ref": "4408900004"}, "type": "Feature"}
{"geometry": {"coordinates": [-82.3646084, 41.422177], "type": "Point"}, "id": "zdQ5s33lr6mYkidiumVX2LwiBGo=", "properties": {"@spider": "usps_collection_boxes", "addr:city": "VERMILION", "addr:country": "US", "addr:full": "5502 LIBERTY AVE", "addr:postcode": "44089", "addr:state": "OH", "brand": "USPS", "collection_times": "Mo-Sa 10:00", "name": "USPS COLLECTION BOX - BLUE BOX", "ref": "4408900005"}, "type": "Feature"}
{"geometry": {"coordinates": [-82.339819, 41.424924], "type": "Point"}, "id": "nIWjBhkXt6vg2fVZAcPFcjkhfaE=", "properties": {"@spider": "usps_collection_boxes", "addr:city": "VERMILION", "addr:country": "US", "addr:full": "4325 LIBERTY AVE", "addr:postcode": "44089", "addr:state": "OH", "brand": "USPS", "collection_times": "Mo-Fr 17:00; Sa 15:30", "name": "USPS COLLECTION BOX - PO LOBBY", "note": "ON 12/24 AND 12/31, THIS BOX MAY BE COLLECTED AS EARLY AS 12 NOON.", "ref": "4408900007"}, "type": "Feature"}
{"geometry": {"coordinates": [-82.339819, 41.424951], "type": "Point"}, "id": "DrQpKNtu6sQKoJgSgpmsbxqpLlc=", "properties": {"@spider": "usps_collection_boxes", "addr:city": "VERMILION", "addr:country": "US", "addr:full": "4325 LIBERTY AVE", "addr:postcode": "44089", "addr:state": "OH", "brand": "USPS", "collection_times": "Mo-Fr 17:00; Sa 15:30", "name": "USPS COLLECTION BOX - BLUE BOX", "note": "ON 12/24 AND 12/31, THIS BOX MAY BE COLLECTED AS EARLY AS 12 NOON.", "ref": "4408900009"}, "type": "Feature"}
{"geometry": {"coordinates": [-82.3657499, 41.408761], "type": "Point"}, "id": "AxZf02mdNijh7yAZzdswZgvH9K8=", "properties": {"@spider": "usps_collection_boxes", "addr:city": "VERMILION", "addr:country": "US", "addr:full": "1317 STATE ST", "addr:postcode": "44089", "addr:state": "OH", "brand": "USPS", "collection_times": "Mo-Fr 16:00; Sa 15:00", "name": "USPS COLLECTION BOX - BLUE BOX", "note": "ON 12/24 AND 12/31, THIS BOX MAY BE COLLECTED AS EARLY AS 12 NOON.", "ref": "4408900016"}, "type": "Feature"}
{"geometry": {"coordinates": [-82.339819, 41.424951], "type": "Point"}, "id": "4DcfvS5zibLiHPdH32ZMd1uclko=", "properties": {"@spider": "usps_collection_boxes", "addr:city": "VERMILION", "addr:country": "US", "addr:full": "4325 LIBERTY AVE", "addr:postcode": "44089", "addr:state": "OH", "brand": "USPS", "collection_times": "Mo-Fr 17:00; Sa 15:30", "name": "USPS COLLECTION BOX - BLUE BOX", "note": "ON 12/24 AND 12/31, THIS BOX MAY BE COLLECTED AS EARLY AS 12 NOON.", "ref": "4408900022"}, "type": "Feature"}
{"geometry": {"coordinates": [-82.339819, 41.424951], "type": "Point"}, "id": "FDcJsxsXvVFm81xCvM-ay0UHaUI=", "properties": {"@spider": "usps_collection_boxes", "addr:city": "VERMILION", "addr:country": "US", "addr:full": "4325 LIBERTY AVE", "addr:postcode": "44089", "addr:state": "OH", "brand": "USPS", "collection_times": "Mo-Fr 17:00; Sa 15:30", "name": "USPS COLLECTION BOX - PO LOBBY", "note": "ON 12/24 AND 12/31, THIS BOX MAY BE COLLECTED AS EARLY AS 12 NOON.", "ref": "4408900023"}, "type": "Feature"}
{"geometry": {"coordinates": [-82.339983, 41.424915511], "type": "Point"}, "id": "GLJ-YETxRZ-SJjXd7a8J9NKm51E=", "properties": {"@spider": "usps_collection_boxes", "addr:city": "VERMILION", "addr:country": "US", "addr:full": "4325 LIBERTY AVE", "addr:postcode": "44089", "addr:state": "OH", "brand": "USPS", "collection_times": "Mo-Fr 17:00; Sa 14:00", "name": "USPS COLLECTION BOX - PO LOBBY", "note": "ON 12/24 AND 12/31, THIS BOX MAY BE COLLECTED AS EARLY AS 12 NOON.", "ref": "4408900025"}, "type": "Feature"}
