{"geometry": {"coordinates": [-81.9598101884, 41.490738199], "type": "Point"}, "id": "uRF_anSjbRtLYMUiie59JydB0PU=", "properties": {"@spider": "usps_collection_boxes", "addr:city": "CLEVELAND", "addr:country": "US", "addr:full": "332 BRADLEY RD", "addr:postcode": "44140", "addr:state": "OH", "brand": "USPS", "collection_times": "Mo-Sa 09:00", "name": "USPS COLLECTION BOX - BLUE BOX", "ref": "4414000003"}, "type": "Feature"}
{"geometry": {"coordinates": [-81.960016491, 41.484249], "type": "Point"}, "id": "KLR3ec-WJ6PG3FLzlS53QN7lfBA=", "properties": {"@spider": "usps_collection_boxes", "addr:city": "CLEVELAND", "addr:country": "US", "addr:full": "492 BRADLEY RD", "addr:postcode": "44140", "addr:state": "OH", "brand": "USPS", "collection_times": "Mo-Sa 09:15", "name": "USPS COLLECTION BOX - BLUE BOX", "ref": "4414000004"}, "type": "Feature"}
{"geometry": {"coordinates": [-81.9210194, 41.485438], "type": "Point"}, "id": "23nMGLtTqU3_LYcdtGQgfk9qY9Y=", "properties": {"@spider": "usps_collection_boxes", "addr:city": "CLEVELAND", "addr:country": "US", "addr:full": "350 DOVER CENTER RD", "addr:postcode": "44140", "addr:state": "OH", "brand": "USPS", "collection_times": "Mo-Sa 09:00", "name": "USPS COLLECTION BOX - BLUE BOX", "ref": "4414000007"}, "type": "Feature"}
{"geometry": {"coordinates": [-81.9308149, 41.482061], "type": "Point"}, "id": "dS9pjKo8yeuhFureRxnsUwoDLRk=", "properties": {"@spider": "usps_collection_boxes", "addr:city": "CLEVELAND", "addr:country": "US", "addr:full": "28109 OSBORN RD", "addr:postcode": "44140", "addr:state": "OH", "brand": "USPS", "collection_times": "Mo-Sa 10:30", "name": "USPS COLLECTION BOX - BLUE BOX", "ref": "4414000011"}, "type": "Feature"}
{"geometry": {"coordinates": [-81.9225654, 41.484845], "type": "Point"}, "id": "H9X_6TNvc8GsgTGHr1vz2VAwopw=", "properties": {"@spider": "usps_collection_boxes", "addr:city": "CLEVELAND", "addr:country": "US", "addr:full": "27323 WOLF RD", "addr:postcode": "44140", "addr:state": "OH", "brand": "USPS", "collection_times": "Mo-Sa 09:30", "name": "USPS COLLECTION BOX - BLUE BOX", "ref": "4414000013"}, "type": "Feature"}
{"geometry": {"coordinates": [-81.9508076693, 41.4635302289], "type": "Point"}, "id": "piWcij3scFvO7h2MNNibkRYCqq4=", "properties": {"@spider": "usps_collection_boxes", "addr:city": "CLEVELAND", "addr:country": "US", "addr:full": "1991 CROCKER RD", "addr:postcode": "44145", "addr:state": "OH", "brand": "USPS", "collection_times": "Mo-Sa 10:30", "name": "USPS COLLECTION BOX - BLUE BOX", "ref": "4414500021"}, "type": "Feature"}
{"geometry": {"coordinates": [-81.9567699, 41.462877], "type": "Point"}, "id": "4CyVghc4ZdroOpijb9c3nOMzDLE=", "properties": {"@spider": "usps_collection_boxes", "addr:city": "CLEVELAND", "addr:country": "US", "addr:full": "30400 DETROIT RD", "addr:postcode": "44145", "addr:state": "OH", "brand": "USPS", "collection_times": "Mo-Sa 10:30", "name": "USPS COLLECTION BOX - BLUE BOX", "ref": "4414500028"}, "type": "Feature"}
{"geometry": {"coordinates": [-81.9567654, 41.462886], "type": "Point"}, "id": "6e_jK-p99U5APzJBx5mkeoO8Nr8=", "properties": {"@spider": "usps_collection_boxes", "addr:city": "CLEVELAND", "addr:country": "US", "addr:full": "30400 DETROIT RD", "addr:postcode": "44145", "addr:state": "OH", "brand": "USPS", "collection_times": "Mo-Sa 10:30", "name": "USPS COLLECTION BOX - BLUE BOX", "ref": "4414500051"}, "type": "Feature"}
{"geometry": {"coordinates": [-81.9551655, 41.463944], "type": "Point"}, "id": "XLKpjLddOs4NhveoIr7c9HRlmBI=", "properties": {"@spider": "usps_collection_boxes", "addr:city": "CLEVELAND", "addr:country": "US", "addr:full": "1650 CROSSINGS PKWY", "addr:postcode": "44145", "addr:state": "OH", "brand": "USPS", "collection_times": "Mo-Sa 10:30", "name": "USPS COLLECTION BOX - BLUE BOX", "ref": "4414500053"}, "type": "Feature"}
{"geometry": {"coordinates": [-81.9385375, 41.473878], "type": "Point"}, "id": "djfkipzAUX4fAXF31fV8De4-MVE=", "properties": {"@spider": "usps_collection_boxes", "addr:city": "CLEVELAND", "addr:country": "US", "addr:full": "28045 RANNEY PKWY", "addr:postcode": "44145", "addr:state": "OH", "brand": "USPS", "collection_times": "Mo-Sa 13:30", "name": "USPS COLLECTION BOX - BLUE BOX", "note": "ON 12/24 AND 12/31, THIS BOX MAY BE COLLECTED AS EARLY AS 12 NOON.", "ref": "4414500054"}, "type": "Feature"}
{"geometry": {"coordinates": [-81.9403645, 41.473795], "type": "Point"}, "id": "m50nWvhdUelvobVn5re1AihzzRE=", "properties": {"@spider": "usps_collection_boxes", "addr:city": "CLEVELAND", "addr:country": "US", "addr:full": "28605 RANNEY PKWY", "addr:postcode": "44145", "addr:state": "OH", "brand": "USPS", "collection_times": "Mo-Sa 13:30", "name": "USPS COLLECTION BOX - BLUE BOX", "note": "ON 12/24 AND 12/31, THIS BOX MAY BE COLLECTED AS EARLY AS 12 NOON.", "ref": "4414500055"}, "type": "Feature"}
{"geometry": {"coordinates": [-81.9500766, 41.462542], "type": "Point"}, "id": "3lqpVpFJEIu70cjk8c33b_4yTsY=", "properties": {"@spider": "usps_collection_boxes", "addr:city": "CLEVELAND", "addr:country": "US", "addr:full": "1991 CROCKER RD", "addr:postcode": "44145", "addr:state": "OH", "brand": "USPS", "collection_times": "Mo-Sa 10:30", "name": "USPS COLLECTION BOX - BLUE BOX", "ref": "4414500073"}, "type": "Feature"}
{"geometry": {"coordinates": [-81.9509188, 41.459213], "type": "Point"}, "id": "skvu8JoIr_vTXe7Hsarc_HBH3B0=", "properties": {"@spider": "usps_collection_boxes", "addr:city": "CLEVELAND", "addr:country": "US", "addr:full": "159 MAIN ST", "addr:postcode": "44145", "addr:state": "OH", "brand": "USPS", "collection_times": "Mo-Fr 10:30", "name": "USPS COLLECTION BOX - BLUE BOX", "ref": "4414500089"}, "type": "Feature"}
