{"geometry": {"coordinates": [-81.5143049, 41.042733], "type": "Point"}, "id": "43AK21tsfCc_3hj5YA7NPOM756s=", "properties": {"@source_uri": "https://tools.usps.com/UspsToolsRestServices/rest/POLocator/findLocations", "@spider": "usps_collection_boxes", "addr:city": "AKRON", "addr:country": "US", "addr:postcode": "44301", "addr:state": "OH", "addr:street_address": "353 REED AVE", "amenity": "post_box", "collection_times": "Mo-Sa 12:00", "nsi_id": "unitedstatespostalservice-a77078", "operator": "United States Postal Service", "operator:short": "USPS", "operator:type": "public", "operator:wikidata": "Q668687", "ref": "4430100007"}, "type": "Feature"}
{"geometry": {"coordinates": [-81.5197852, 41.044946], "type": "Point"}, "id": "731ld1U0roApMv8O5qa1ZgSEQTc=", "properties": {"@source_uri": "https://tools.usps.com/UspsToolsRestServices/rest/POLocator/findLocations", "@spider": "usps_collection_boxes", "addr:city": "AKRON", "addr:country": "US", "addr:postcode": "44301", "addr:state": "OH", "addr:street_address": "199 IDO AVE", "amenity": "post_box", "collection_times": "Mo-Sa 09:00", "nsi_id": "unitedstatespostalservice-a77078", "operator": "United States Postal Service", "operator:short": "USPS", "operator:type": "public", "operator:wikidata": "Q668687", "ref": "4430100010"}, "type": "Feature"}
{"geometry": {"coordinates": [-81.5096518, 41.051218], "type": "Point"}, "id": "YF4ldGbB0fX6hwBiKiFpS8xPjpk=", "properties": {"@source_uri": "https://tools.usps.com/UspsToolsRestServices/rest/POLocator/findLocations", "@spider": "usps_collection_boxes", "addr:city": "AKRON", "addr:country": "US", "addr:postcode": "44301", "addr:state": "OH", "addr:street_address": "1115 BROWN ST", "amenity": "post_box", "collection_times": "Mo-Sa 09:00", "nsi_id": "unitedstatespostalservice-a77078", "operator": "United States Postal Service", "operator:short": "USPS", "operator:type": "public", "operator:wikidata": "Q668687", "ref": "4430100013"}, "type": "Feature"}
{"geometry": {"coordinates": [-81.51003, 41.042421], "type": "Point"}, "id": "S5Y1p_N5iOf1KKIN9UE8F55v12k=", "properties": {"@source_uri": "https://tools.usps.com/UspsToolsRestServices/rest/POLocator/findLocations", "@spider": "usps_collection_boxes", "addr:city": "AKRON", "addr:country": "US", "addr:postcode": "44301", "addr:state": "OH", "addr:street_address": "1441 BROWN ST", "amenity": "post_box", "collection_times": "Mo-Sa 13:30", "note": "ON 12/24 AND 12/31, THIS BOX MAY BE COLLECTED AS EARLY AS 12 NOON.", "nsi_id": "unitedstatespostalservice-a77078", "operator": "United States Postal Service", "operator:short": "USPS", "operator:type": "public", "operator:wikidata": "Q668687", "ref": "4430100014"}, "type": "Feature"}
{"geometry": {"coordinates": [-81.5405469, 41.087533], "type": "Point"}, "id": "tBQQHmTFUH2gLPV6sBbT4579BNc=", "properties": {"@source_uri": "https://tools.usps.com/UspsToolsRestServices/rest/POLocator/findLocations", "@spider": "usps_collection_boxes", "addr:city": "AKRON", "addr:country": "US", "addr:postcode": "44302", "addr:state": "OH", "addr:street_address": "634 W EXCHANGE ST", "amenity": "post_box", "collection_times": "Mo-Fr 17:00; Sa 15:00", "note": "ON 12/24 AND 12/31, THIS BOX MAY BE COLLECTED AS EARLY AS 12 NOON.", "nsi_id": "unitedstatespostalservice-a77078", "operator": "United States Postal Service", "operator:short": "USPS", "operator:type": "public", "operator:wikidata": "Q668687", "ref": "4430200031"}, "type": "Feature"}
{"geometry": {"coordinates": [-81.5256533, 41.079935], "type": "Point"}, "id": "K0alJdKRsn1oIhLR_fkfvbEwa_I=", "properties": {"@source_uri": "https://tools.usps.com/UspsToolsRestServices/rest/POLocator/findLocations", "@spider": "usps_collection_boxes", "addr:city": "AKRON", "addr:country": "US", "addr:postcode": "44302", "addr:state": "OH", "addr:street_address": "300 LOCUST ST", "amenity": "post_box", "collection_times": "Mo-Fr 12:30", "note": "ON 12/24 AND 12/31, THIS BOX MAY BE COLLECTED AS EARLY AS 12 NOON.", "nsi_id": "unitedstatespostalservice-a77078", "operator": "United States Postal Service", "operator:short": "USPS", "operator:type": "public", "operator:wikidata": "Q668687", "ref": "4430200033"}, "type": "Feature"}
{"geometry": {"coordinates": [-81.5415014, 41.086978], "type": "Point"}, "id": "hQ2eKoGoqVwHSYWQIl-Mj4NhpDc=", "properties": {"@source_uri": "https://tools.usps.com/UspsToolsRestServices/rest/POLocator/findLocations", "@spider": "usps_collection_boxes", "addr:city": "AKRON", "addr:country": "US", "addr:postcode": "44302", "addr:state": "OH", "addr:street_address": "634 W EXCHANGE ST", "amenity": "post_box", "collection_times": "Mo-Fr 17:00; Sa 14:00", "indoor": "yes", "note": "ON 12/24 AND 12/31, THIS BOX MAY BE COLLECTED AS EARLY AS 12 NOON.", "nsi_id": "unitedstatespostalservice-a77078", "operator": "United States Postal Service", "operator:short": "USPS", "operator:type": "public", "operator:wikidata": "Q668687", "ref": "4430200037"}, "type": "Feature"}
{"geometry": {"coordinates": [-81.5410073, 41.086773], "type": "Point"}, "id": "ucGBG2Jss3f_QdXlnCQPqFnzCuk=", "properties": {"@source_uri": "https://tools.usps.com/UspsToolsRestServices/rest/POLocator/findLocations", "@spider": "usps_collection_boxes", "addr:city": "AKRON", "addr:country": "US", "addr:postcode": "44302", "addr:state": "OH", "addr:street_address": "634 W EXCHANGE ST", "amenity": "post_box", "collection_times": "Mo-Fr 17:00; Sa 14:00", "indoor": "yes", "note": "ON 12/24 AND 12/31, THIS BOX MAY BE COLLECTED AS EARLY AS 12 NOON.", "nsi_id": "unitedstatespostalservice-a77078", "operator": "United States Postal Service", "operator:short": "USPS", "operator:type": "public", "operator:wikidata": "Q668687", "ref": "4430200038"}, "type": "Feature"}
{"geometry": {"coordinates": [-81.5326522, 41.084759], "type": "Point"}, "id": "skBHuT2oVL2LcdJgFo4IwvuoFQE=", "properties": {"@source_uri": "https://tools.usps.com/UspsToolsRestServices/rest/POLocator/findLocations", "@spider": "usps_collection_boxes", "addr:city": "AKRON", "addr:country": "US", "addr:postcode": "44302", "addr:state": "OH", "addr:street_address": "315 S MAPLE ST", "amenity": "post_box", "collection_times": "Mo-Sa 14:00", "note": "ON 12/24 AND 12/31, THIS BOX MAY BE COLLECTED AS EARLY AS 12 NOON.", "nsi_id": "unitedstatespostalservice-a77078", "operator": "United States Postal Service", "operator:short": "USPS", "operator:type": "public", "operator:wikidata": "Q668687", "ref": "4430200040"}, "type": "Feature"}
{"geometry": {"coordinates": [-81.539391, 41.087348], "type": "Point"}, "id": "L6CGAXkmTlZj6aUSIfVEl8vVo0E=", "properties": {"@source_uri": "https://tools.usps.com/UspsToolsRestServices/rest/POLocator/findLocations", "@spider": "usps_collection_boxes", "addr:city": "AKRON", "addr:country": "US", "addr:postcode": "44302", "addr:state": "OH", "addr:street_address": "634 W EXCHANGE ST", "amenity": "post_box", "collection_times": "Mo-Fr 17:00; Sa 15:00", "note": "ON 12/24 AND 12/31, THIS BOX MAY BE COLLECTED AS EARLY AS 12 NOON.", "nsi_id": "unitedstatespostalservice-a77078", "operator": "United States Postal Service", "operator:short": "USPS", "operator:type": "public", "operator:wikidata": "Q668687", "ref": "4430200042"}, "type": "Feature"}
{"geometry": {"coordinates": [-81.539443008, 41.087320416], "type": "Point"}, "id": "35VykJKucgjByxZcwbHD2ez18f0=", "properties": {"@source_uri": "https://tools.usps.com/UspsToolsRestServices/rest/POLocator/findLocations", "@spider": "usps_collection_boxes", "addr:city": "AKRON", "addr:country": "US", "addr:postcode": "44302", "addr:state": "OH", "addr:street_address": "634 W EXCHANGE ST", "amenity": "post_box", "collection_times": "Mo-Fr 17:00; Sa 12:00", "indoor": "yes", "note": "ON 12/24 AND 12/31, THIS BOX MAY BE COLLECTED AS EARLY AS 12 NOON.", "nsi_id": "unitedstatespostalservice-a77078", "operator": "United States Postal Service", "operator:short": "USPS", "operator:type": "public", "operator:wikidata": "Q668687", "ref": "4430200043"}, "type": "Feature"}
{"geometry": {"coordinates": [-81.5448444, 41.118296], "type": "Point"}, "id": "JUK5VBkkx4EOlJ82gQk5TuyKOis=", "properties": {"@source_uri": "https://tools.usps.com/UspsToolsRestServices/rest/POLocator/findLocations", "@spider": "usps_collection_boxes", "addr:city": "AKRON", "addr:country": "US", "addr:postcode": "44303", "addr:state": "OH", "addr:street_address": "775 DELAWARE AVE", "amenity": "post_box", "collection_times": "Mo-Fr 12:00; Sa 13:00", "note": "ON 12/24 AND 12/31, THIS BOX MAY BE COLLECTED AS EARLY AS 12 NOON.", "nsi_id": "unitedstatespostalservice-a77078", "operator": "United States Postal Service", "operator:short": "USPS", "operator:type": "public", "operator:wikidata": "Q668687", "ref": "4430300006"}, "type": "Feature"}
{"geometry": {"coordinates": [-81.5441851, 41.101993], "type": "Point"}, "id": "JKywgmR83tM6lVTtpGwhyu37jbU=", "properties": {"@source_uri": "https://tools.usps.com/UspsToolsRestServices/rest/POLocator/findLocations", "@spider": "usps_collection_boxes", "addr:city": "AKRON", "addr:country": "US", "addr:postcode": "44303", "addr:state": "OH", "addr:street_address": "214 N HIGHLAND AVE", "amenity": "post_box", "collection_times": "Mo-Sa 15:30", "note": "ON 12/24 AND 12/31, THIS BOX MAY BE COLLECTED AS EARLY AS 12 NOON.", "nsi_id": "unitedstatespostalservice-a77078", "operator": "United States Postal Service", "operator:short": "USPS", "operator:type": "public", "operator:wikidata": "Q668687", "ref": "4430300007"}, "type": "Feature"}
{"geometry": {"coordinates": [-81.5337504, 41.112483], "type": "Point"}, "id": "EZwAQXzCAXohyDXGNwWLiDoLdEY=", "properties": {"@source_uri": "https://tools.usps.com/UspsToolsRestServices/rest/POLocator/findLocations", "@spider": "usps_collection_boxes", "addr:city": "AKRON", "addr:country": "US", "addr:postcode": "44303", "addr:state": "OH", "addr:street_address": "740 EAGLENEST AVE", "amenity": "post_box", "collection_times": "Mo-Sa 13:30", "note": "ON 12/24 AND 12/31, THIS BOX MAY BE COLLECTED AS EARLY AS 12 NOON.", "nsi_id": "unitedstatespostalservice-a77078", "operator": "United States Postal Service", "operator:short": "USPS", "operator:type": "public", "operator:wikidata": "Q668687", "ref": "4430300008"}, "type": "Feature"}
{"geometry": {"coordinates": [-81.5425968, 41.108244], "type": "Point"}, "id": "jtMl5uwYF_4JJo9g6i5FSciH8Xg=", "properties": {"@source_uri": "https://tools.usps.com/UspsToolsRestServices/rest/POLocator/findLocations", "@spider": "usps_collection_boxes", "addr:city": "AKRON", "addr:country": "US", "addr:postcode": "44303", "addr:state": "OH", "addr:street_address": "591 MERRIMAN RD", "amenity": "post_box", "collection_times": "Mo-Sa 10:00", "nsi_id": "unitedstatespostalservice-a77078", "operator": "United States Postal Service", "operator:short": "USPS", "operator:type": "public", "operator:wikidata": "Q668687", "ref": "4430300009"}, "type": "Feature"}
{"geometry": {"coordinates": [-81.5458771, 41.099255], "type": "Point"}, "id": "W0j2vIP18pvHvbqqjM6Jr2B4CIQ=", "properties": {"@source_uri": "https://tools.usps.com/UspsToolsRestServices/rest/POLocator/findLocations", "@spider": "usps_collection_boxes", "addr:city": "AKRON", "addr:country": "US", "addr:postcode": "44303", "addr:state": "OH", "addr:street_address": "80 N PORTAGE PATH", "amenity": "post_box", "collection_times": "Mo-Sa 10:00", "nsi_id": "unitedstatespostalservice-a77078", "operator": "United States Postal Service", "operator:short": "USPS", "operator:type": "public", "operator:wikidata": "Q668687", "ref": "4430300020"}, "type": "Feature"}
{"geometry": {"coordinates": [-81.5449192, 41.097045], "type": "Point"}, "id": "k6t2Sm1MZ1aloh2a6JUNKcUyjzY=", "properties": {"@source_uri": "https://tools.usps.com/UspsToolsRestServices/rest/POLocator/findLocations", "@spider": "usps_collection_boxes", "addr:city": "AKRON", "addr:country": "US", "addr:postcode": "44303", "addr:state": "OH", "addr:street_address": "860 W MARKET ST", "amenity": "post_box", "collection_times": "Mo-Sa 12:00", "nsi_id": "unitedstatespostalservice-a77078", "operator": "United States Postal Service", "operator:short": "USPS", "operator:type": "public", "operator:wikidata": "Q668687", "ref": "4430300025"}, "type": "Feature"}
{"geometry": {"coordinates": [-81.5409111, 41.095529], "type": "Point"}, "id": "5Qkm67_ndetqwBBoTMgiGmoPzFM=", "properties": {"@source_uri": "https://tools.usps.com/UspsToolsRestServices/rest/POLocator/findLocations", "@spider": "usps_collection_boxes", "addr:city": "AKRON", "addr:country": "US", "addr:postcode": "44303", "addr:state": "OH", "addr:street_address": "733 W MARKET ST", "amenity": "post_box", "collection_times": "Mo-Sa 11:30", "nsi_id": "unitedstatespostalservice-a77078", "operator": "United States Postal Service", "operator:short": "USPS", "operator:type": "public", "operator:wikidata": "Q668687", "ref": "4430300027"}, "type": "Feature"}
{"geometry": {"coordinates": [-81.5310020193, 41.0915800096], "type": "Point"}, "id": "ceyeJ4Qa5IzWFNligZJsgBXsu8Y=", "properties": {"@source_uri": "https://tools.usps.com/UspsToolsRestServices/rest/POLocator/findLocations", "@spider": "usps_collection_boxes", "addr:city": "AKRON", "addr:country": "US", "addr:postcode": "44303", "addr:state": "OH", "addr:street_address": "425 W MARKET ST", "amenity": "post_box", "collection_times": "Mo-Sa 10:00", "nsi_id": "unitedstatespostalservice-a77078", "operator": "United States Postal Service", "operator:short": "USPS", "operator:type": "public", "operator:wikidata": "Q668687", "ref": "4430300028"}, "type": "Feature"}
{"geometry": {"coordinates": [-81.5236455, 41.088271], "type": "Point"}, "id": "FiVZ2JX1BgwODhdrve6rsWMvmMs=", "properties": {"@source_uri": "https://tools.usps.com/UspsToolsRestServices/rest/POLocator/findLocations", "@spider": "usps_collection_boxes", "addr:city": "AKRON", "addr:country": "US", "addr:postcode": "44303", "addr:state": "OH", "addr:street_address": "183 W MARKET ST", "amenity": "post_box", "collection_times": "Mo-Sa 12:00", "nsi_id": "unitedstatespostalservice-a77078", "operator": "United States Postal Service", "operator:short": "USPS", "operator:type": "public", "operator:wikidata": "Q668687", "ref": "4430300029"}, "type": "Feature"}
{"geometry": {"coordinates": [-81.5310083, 41.090597], "type": "Point"}, "id": "ORRODeIXypTT50Psxn9tMKRqZrw=", "properties": {"@source_uri": "https://tools.usps.com/UspsToolsRestServices/rest/POLocator/findLocations", "@spider": "usps_collection_boxes", "addr:city": "AKRON", "addr:country": "US", "addr:postcode": "44303", "addr:state": "OH", "addr:street_address": "400 W MARKET ST", "amenity": "post_box", "collection_times": "Mo-Sa 10:00", "nsi_id": "unitedstatespostalservice-a77078", "operator": "United States Postal Service", "operator:short": "USPS", "operator:type": "public", "operator:wikidata": "Q668687", "ref": "4430300031"}, "type": "Feature"}
{"geometry": {"coordinates": [-81.507243, 41.0799488], "type": "Point"}, "id": "tjFpU5yH3Ne5-opuuTuXx6QG4yg=", "properties": {"@source_uri": "https://tools.usps.com/UspsToolsRestServices/rest/POLocator/findLocations", "@spider": "usps_collection_boxes", "addr:city": "AKRON", "addr:country": "US", "addr:postcode": "44304", "addr:state": "OH", "addr:street_address": "141 N FORGE ST", "amenity": "post_box", "collection_times": "Mo-Sa 10:00", "nsi_id": "unitedstatespostalservice-a77078", "operator": "United States Postal Service", "operator:short": "USPS", "operator:type": "public", "operator:wikidata": "Q668687", "ref": "4430400008"}, "type": "Feature"}
{"geometry": {"coordinates": [-81.5066444, 41.080513], "type": "Point"}, "id": "LQ3mI3Dp8qwRgh1JXETU_hbcsaU=", "properties": {"@source_uri": "https://tools.usps.com/UspsToolsRestServices/rest/POLocator/findLocations", "@spider": "usps_collection_boxes", "addr:city": "AKRON", "addr:country": "US", "addr:postcode": "44304", "addr:state": "OH", "addr:street_address": "29 S FORGE ST", "amenity": "post_box", "collection_times": "Mo-Fr 10:00", "nsi_id": "unitedstatespostalservice-a77078", "operator": "United States Postal Service", "operator:short": "USPS", "operator:type": "public", "operator:wikidata": "Q668687", "ref": "4430400028"}, "type": "Feature"}
{"geometry": {"coordinates": [-81.4999125, 41.081865], "type": "Point"}, "id": "NsSibMO8f_k4o1kOhshjOJWfILs=", "properties": {"@source_uri": "https://tools.usps.com/UspsToolsRestServices/rest/POLocator/findLocations", "@spider": "usps_collection_boxes", "addr:city": "AKRON", "addr:country": "US", "addr:postcode": "44304", "addr:state": "OH", "addr:street_address": "95 ARCH ST", "amenity": "post_box", "collection_times": "Mo-Sa 10:00", "nsi_id": "unitedstatespostalservice-a77078", "operator": "United States Postal Service", "operator:short": "USPS", "operator:type": "public", "operator:wikidata": "Q668687", "ref": "4430400031"}, "type": "Feature"}
{"geometry": {"coordinates": [-81.4999226, 41.081872], "type": "Point"}, "id": "jO-DWvp4i77H3Q8478XVVmvLkk4=", "properties": {"@source_uri": "https://tools.usps.com/UspsToolsRestServices/rest/POLocator/findLocations", "@spider": "usps_collection_boxes", "addr:city": "AKRON", "addr:country": "US", "addr:postcode": "44304", "addr:state": "OH", "addr:street_address": "95 ARCH ST", "amenity": "post_box", "collection_times": "Mo-Sa 10:00", "nsi_id": "unitedstatespostalservice-a77078", "operator": "United States Postal Service", "operator:short": "USPS", "operator:type": "public", "operator:wikidata": "Q668687", "ref": "4430400032"}, "type": "Feature"}
{"geometry": {"coordinates": [-81.4672725, 41.06677], "type": "Point"}, "id": "2xewdeWZtcpyI8CxZREikuTPFN4=", "properties": {"@source_uri": "https://tools.usps.com/UspsToolsRestServices/rest/POLocator/findLocations", "@spider": "usps_collection_boxes", "addr:city": "AKRON", "addr:country": "US", "addr:postcode": "44305", "addr:state": "OH", "addr:street_address": "1696 SHAW AVE", "amenity": "post_box", "collection_times": "Mo-Sa 09:00", "nsi_id": "unitedstatespostalservice-a77078", "operator": "United States Postal Service", "operator:short": "USPS", "operator:type": "public", "operator:wikidata": "Q668687", "ref": "4430500008"}, "type": "Feature"}
{"geometry": {"coordinates": [-81.480294, 41.06367], "type": "Point"}, "id": "3OgLogzCY-UKaaV10VIEIfwLgTY=", "properties": {"@source_uri": "https://tools.usps.com/UspsToolsRestServices/rest/POLocator/findLocations", "@spider": "usps_collection_boxes", "addr:city": "AKRON", "addr:country": "US", "addr:postcode": "44305", "addr:state": "OH", "addr:street_address": "1200 E MARKET ST", "amenity": "post_box", "collection_times": "Mo-Sa 09:00", "nsi_id": "unitedstatespostalservice-a77078", "operator": "United States Postal Service", "operator:short": "USPS", "operator:type": "public", "operator:wikidata": "Q668687", "ref": "4430500010"}, "type": "Feature"}
{"geometry": {"coordinates": [-81.4417359, 41.070794], "type": "Point"}, "id": "m8RvaDH_GipJUKHUhmJ7mp_4etk=", "properties": {"@source_uri": "https://tools.usps.com/UspsToolsRestServices/rest/POLocator/findLocations", "@spider": "usps_collection_boxes", "addr:city": "AKRON", "addr:country": "US", "addr:postcode": "44305", "addr:state": "OH", "addr:street_address": "255 DARROW RD", "amenity": "post_box", "collection_times": "Mo-Sa 10:30", "nsi_id": "unitedstatespostalservice-a77078", "operator": "United States Postal Service", "operator:short": "USPS", "operator:type": "public", "operator:wikidata": "Q668687", "ref": "4430500014"}, "type": "Feature"}
{"geometry": {"coordinates": [-81.4635961, 41.073873], "type": "Point"}, "id": "StaOjc5kG_0fc3-whdxrARThlds=", "properties": {"@source_uri": "https://tools.usps.com/UspsToolsRestServices/rest/POLocator/findLocations", "@spider": "usps_collection_boxes", "addr:city": "AKRON", "addr:country": "US", "addr:postcode": "44305", "addr:state": "OH", "addr:street_address": "1763 GOODYEAR BLVD", "amenity": "post_box", "collection_times": "Mo-Sa 09:00", "nsi_id": "unitedstatespostalservice-a77078", "operator": "United States Postal Service", "operator:short": "USPS", "operator:type": "public", "operator:wikidata": "Q668687", "ref": "4430500025"}, "type": "Feature"}
{"geometry": {"coordinates": [-81.4756886, 41.05816], "type": "Point"}, "id": "yhV9qXUHX47P9ZHq6bfXemGUu3M=", "properties": {"@source_uri": "https://tools.usps.com/UspsToolsRestServices/rest/POLocator/findLocations", "@spider": "usps_collection_boxes", "addr:city": "AKRON", "addr:country": "US", "addr:postcode": "44305", "addr:state": "OH", "addr:street_address": "210 E INNOVATION WAY", "amenity": "post_box", "collection_times": "Mo-Sa 09:00", "nsi_id": "unitedstatespostalservice-a77078", "operator": "United States Postal Service", "operator:short": "USPS", "operator:type": "public", "operator:wikidata": "Q668687", "ref": "4430500034"}, "type": "Feature"}
{"geometry": {"coordinates": [-81.4740429, 41.059076], "type": "Point"}, "id": "h2n94-oxi4bHZcPyGTE9ScwaNX8=", "properties": {"@source_uri": "https://tools.usps.com/UspsToolsRestServices/rest/POLocator/findLocations", "@spider": "usps_collection_boxes", "addr:city": "AKRON", "addr:country": "US", "addr:postcode": "44305", "addr:state": "OH", "addr:street_address": "201 S MARTHA AVE", "amenity": "post_box", "collection_times": "Mo-Sa 09:00", "nsi_id": "unitedstatespostalservice-a77078", "operator": "United States Postal Service", "operator:short": "USPS", "operator:type": "public", "operator:wikidata": "Q668687", "ref": "4430500039"}, "type": "Feature"}
{"geometry": {"coordinates": [-81.4483469, 41.072634], "type": "Point"}, "id": "b_xhXmVRYH2VLuSd78uY0QhPc7A=", "properties": {"@source_uri": "https://tools.usps.com/UspsToolsRestServices/rest/POLocator/findLocations", "@spider": "usps_collection_boxes", "addr:city": "AKRON", "addr:country": "US", "addr:postcode": "44305", "addr:state": "OH", "addr:street_address": "2077 NEWTON ST", "amenity": "post_box", "collection_times": "Mo-Sa 09:00", "nsi_id": "unitedstatespostalservice-a77078", "operator": "United States Postal Service", "operator:short": "USPS", "operator:type": "public", "operator:wikidata": "Q668687", "ref": "4430500041"}, "type": "Feature"}
{"geometry": {"coordinates": [-81.4260687, 41.062804], "type": "Point"}, "id": "5livPZDiBlbe-EEYt9YPl4Ehgps=", "properties": {"@source_uri": "https://tools.usps.com/UspsToolsRestServices/rest/POLocator/findLocations", "@spider": "usps_collection_boxes", "addr:city": "AKRON", "addr:country": "US", "addr:postcode": "44305", "addr:state": "OH", "addr:street_address": "300 KENNEDY RD", "amenity": "post_box", "collection_times": "Mo-Sa 10:00", "nsi_id": "unitedstatespostalservice-a77078", "operator": "United States Postal Service", "operator:short": "USPS", "operator:type": "public", "operator:wikidata": "Q668687", "ref": "4430500046"}, "type": "Feature"}
{"geometry": {"coordinates": [-81.4674609, 41.084003], "type": "Point"}, "id": "_mWtIbpeHeSh9HsGnpGOvP0QzMs=", "properties": {"@source_uri": "https://tools.usps.com/UspsToolsRestServices/rest/POLocator/findLocations", "@spider": "usps_collection_boxes", "addr:city": "AKRON", "addr:country": "US", "addr:postcode": "44305", "addr:state": "OH", "addr:street_address": "780 BRITTAIN RD", "amenity": "post_box", "collection_times": "Mo-Sa 09:00", "nsi_id": "unitedstatespostalservice-a77078", "operator": "United States Postal Service", "operator:short": "USPS", "operator:type": "public", "operator:wikidata": "Q668687", "ref": "4430500054"}, "type": "Feature"}
{"geometry": {"coordinates": [-81.4404649, 41.072965], "type": "Point"}, "id": "a9rY6irtZxmmO1ZM-taUY5EmiT4=", "properties": {"@source_uri": "https://tools.usps.com/UspsToolsRestServices/rest/POLocator/findLocations", "@spider": "usps_collection_boxes", "addr:city": "AKRON", "addr:country": "US", "addr:postcode": "44305", "addr:state": "OH", "addr:street_address": "370 NEWTON CIR", "amenity": "post_box", "collection_times": "Mo-Sa 09:00", "nsi_id": "unitedstatespostalservice-a77078", "operator": "United States Postal Service", "operator:short": "USPS", "operator:type": "public", "operator:wikidata": "Q668687", "ref": "4430500055"}, "type": "Feature"}
{"geometry": {"coordinates": [-81.5001477, 41.046987], "type": "Point"}, "id": "HZh0nMpI5IPbLU85Q2GtJ8thNR0=", "properties": {"@source_uri": "https://tools.usps.com/UspsToolsRestServices/rest/POLocator/findLocations", "@spider": "usps_collection_boxes", "addr:city": "AKRON", "addr:country": "US", "addr:postcode": "44306", "addr:state": "OH", "addr:street_address": "745 E ARCHWOOD AVE", "amenity": "post_box", "collection_times": "Mo-Sa 09:00", "nsi_id": "unitedstatespostalservice-a77078", "operator": "United States Postal Service", "operator:short": "USPS", "operator:type": "public", "operator:wikidata": "Q668687", "ref": "4430600005"}, "type": "Feature"}
{"geometry": {"coordinates": [-81.4932757, 41.033342], "type": "Point"}, "id": "tlbJQJJ6pT7cuSSIHSXBcrRdex0=", "properties": {"@source_uri": "https://tools.usps.com/UspsToolsRestServices/rest/POLocator/findLocations", "@spider": "usps_collection_boxes", "addr:city": "AKRON", "addr:country": "US", "addr:postcode": "44306", "addr:state": "OH", "addr:street_address": "1400 S ARLINGTON ST", "amenity": "post_box", "collection_times": "Mo-Sa 09:00", "nsi_id": "unitedstatespostalservice-a77078", "operator": "United States Postal Service", "operator:short": "USPS", "operator:type": "public", "operator:wikidata": "Q668687", "ref": "4430600017"}, "type": "Feature"}
{"geometry": {"coordinates": [-81.491283478, 41.038389], "type": "Point"}, "id": "-W7E5-xCYvZ6V90pV0tulwIjQoo=", "properties": {"@source_uri": "https://tools.usps.com/UspsToolsRestServices/rest/POLocator/findLocations", "@spider": "usps_collection_boxes", "addr:city": "AKRON", "addr:country": "US", "addr:postcode": "44306", "addr:state": "OH", "addr:street_address": "1237 S ARLINGTON ST", "amenity": "post_box", "collection_times": "Mo-Fr 17:00; Sa 15:00", "note": "ON 12/24 AND 12/31, THIS BOX MAY BE COLLECTED AS EARLY AS 12 NOON.", "nsi_id": "unitedstatespostalservice-a77078", "operator": "United States Postal Service", "operator:short": "USPS", "operator:type": "public", "operator:wikidata": "Q668687", "ref": "4430600052"}, "type": "Feature"}
{"geometry": {"coordinates": [-81.463432914, 41.02798182], "type": "Point"}, "id": "MtAeJGyzI7wyUDXhS1rvappIMjk=", "properties": {"@source_uri": "https://tools.usps.com/UspsToolsRestServices/rest/POLocator/findLocations", "@spider": "usps_collection_boxes", "addr:city": "AKRON", "addr:country": "US", "addr:postcode": "44306", "addr:state": "OH", "addr:street_address": "1208 MASSILLON RD", "amenity": "post_box", "collection_times": "Mo-Fr 09:00", "nsi_id": "unitedstatespostalservice-a77078", "operator": "United States Postal Service", "operator:short": "USPS", "operator:type": "public", "operator:wikidata": "Q668687", "ref": "4430600055"}, "type": "Feature"}
{"geometry": {"coordinates": [-81.4903959, 41.038192], "type": "Point"}, "id": "EY2UEpK6-04IPRquSC_yBqiR-5o=", "properties": {"@source_uri": "https://tools.usps.com/UspsToolsRestServices/rest/POLocator/findLocations", "@spider": "usps_collection_boxes", "addr:city": "AKRON", "addr:country": "US", "addr:postcode": "44306", "addr:state": "OH", "addr:street_address": "1237 S ARLINGTON ST", "amenity": "post_box", "collection_times": "Mo-Fr 17:00; Sa 15:00", "indoor": "yes", "note": "ON 12/24 AND 12/31, THIS BOX MAY BE COLLECTED AS EARLY AS 12 NOON.", "nsi_id": "unitedstatespostalservice-a77078", "operator": "United States Postal Service", "operator:short": "USPS", "operator:type": "public", "operator:wikidata": "Q668687", "ref": "4430600062"}, "type": "Feature"}
{"geometry": {"coordinates": [-81.4906629, 41.027988], "type": "Point"}, "id": "ALDx6a0RJHWWDUrYHEqprjysM5s=", "properties": {"@source_uri": "https://tools.usps.com/UspsToolsRestServices/rest/POLocator/findLocations", "@spider": "usps_collection_boxes", "addr:city": "AKRON", "addr:country": "US", "addr:postcode": "44306", "addr:state": "OH", "addr:street_address": "1000 ARLINGTON CIR", "amenity": "post_box", "collection_times": "Mo-Sa 09:00", "nsi_id": "unitedstatespostalservice-a77078", "operator": "United States Postal Service", "operator:short": "USPS", "operator:type": "public", "operator:wikidata": "Q668687", "ref": "4430600064"}, "type": "Feature"}
{"geometry": {"coordinates": [-81.4904279, 41.038214], "type": "Point"}, "id": "zC9Wh0XZvaPWMWVH20y6zrR0Yds=", "properties": {"@source_uri": "https://tools.usps.com/UspsToolsRestServices/rest/POLocator/findLocations", "@spider": "usps_collection_boxes", "addr:city": "AKRON", "addr:country": "US", "addr:postcode": "44306", "addr:state": "OH", "addr:street_address": "1237 S ARLINGTON ST", "amenity": "post_box", "collection_times": "Mo-Fr 17:00; Sa 15:00", "indoor": "yes", "note": "ON 12/24 AND 12/31, THIS BOX MAY BE COLLECTED AS EARLY AS 12 NOON.", "nsi_id": "unitedstatespostalservice-a77078", "operator": "United States Postal Service", "operator:short": "USPS", "operator:type": "public", "operator:wikidata": "Q668687", "ref": "4430600065"}, "type": "Feature"}
{"geometry": {"coordinates": [-81.4910819, 41.0385], "type": "Point"}, "id": "Uk0Kea7ZJqnEVKjW4lwXRN28iaI=", "properties": {"@source_uri": "https://tools.usps.com/UspsToolsRestServices/rest/POLocator/findLocations", "@spider": "usps_collection_boxes", "addr:city": "AKRON", "addr:country": "US", "addr:postcode": "44306", "addr:state": "OH", "addr:street_address": "1237 S ARLINGTON ST", "amenity": "post_box", "collection_times": "Mo-Fr 17:00; Sa 15:00", "note": "ON 12/24 AND 12/31, THIS BOX MAY BE COLLECTED AS EARLY AS 12 NOON.", "nsi_id": "unitedstatespostalservice-a77078", "operator": "United States Postal Service", "operator:short": "USPS", "operator:type": "public", "operator:wikidata": "Q668687", "ref": "4430600070"}, "type": "Feature"}
{"geometry": {"coordinates": [-81.491251951, 41.038292683], "type": "Point"}, "id": "JVsRBBOAMirm00S6G_S5Uf8HvaI=", "properties": {"@source_uri": "https://tools.usps.com/UspsToolsRestServices/rest/POLocator/findLocations", "@spider": "usps_collection_boxes", "addr:city": "AKRON", "addr:country": "US", "addr:postcode": "44306", "addr:state": "OH", "addr:street_address": "1237 S ARLINGTON ST", "amenity": "post_box", "collection_times": "Mo-Fr 17:00; Sa 12:00", "indoor": "yes", "note": "ON 12/24 AND 12/31, THIS BOX MAY BE COLLECTED AS EARLY AS 12 NOON.", "nsi_id": "unitedstatespostalservice-a77078", "operator": "United States Postal Service", "operator:short": "USPS", "operator:type": "public", "operator:wikidata": "Q668687", "ref": "4430600071"}, "type": "Feature"}
{"geometry": {"coordinates": [-81.5287712, 41.076982], "type": "Point"}, "id": "Tt-QV_7fo0VOkryq0jpYTxLjK6Q=", "properties": {"@source_uri": "https://tools.usps.com/UspsToolsRestServices/rest/POLocator/findLocations", "@spider": "usps_collection_boxes", "addr:city": "AKRON", "addr:country": "US", "addr:postcode": "44307", "addr:state": "OH", "addr:street_address": "414 PINE ST", "amenity": "post_box", "collection_times": "Mo-Sa 14:30", "note": "ON 12/24 AND 12/31, THIS BOX MAY BE COLLECTED AS EARLY AS 12 NOON.", "nsi_id": "unitedstatespostalservice-a77078", "operator": "United States Postal Service", "operator:short": "USPS", "operator:type": "public", "operator:wikidata": "Q668687", "ref": "4430700010"}, "type": "Feature"}
{"geometry": {"coordinates": [-81.5282783, 41.077761], "type": "Point"}, "id": "BYa-4TiX8_sL_s5YQeBoDb_Dqik=", "properties": {"@source_uri": "https://tools.usps.com/UspsToolsRestServices/rest/POLocator/findLocations", "@spider": "usps_collection_boxes", "addr:city": "AKRON", "addr:country": "US", "addr:postcode": "44307", "addr:state": "OH", "addr:street_address": "157 W CEDAR ST", "amenity": "post_box", "collection_times": "Mo-Fr 11:00", "nsi_id": "unitedstatespostalservice-a77078", "operator": "United States Postal Service", "operator:short": "USPS", "operator:type": "public", "operator:wikidata": "Q668687", "ref": "4430700014"}, "type": "Feature"}
{"geometry": {"coordinates": [-81.5280572, 41.076651], "type": "Point"}, "id": "i5SLTyX1FV2s_1O6oNzc8W8cwBo=", "properties": {"@source_uri": "https://tools.usps.com/UspsToolsRestServices/rest/POLocator/findLocations", "@spider": "usps_collection_boxes", "addr:city": "AKRON", "addr:country": "US", "addr:postcode": "44307", "addr:state": "OH", "addr:street_address": "400 LOCUST ST", "amenity": "post_box", "collection_times": "Mo-Sa 14:30", "note": "ON 12/24 AND 12/31, THIS BOX MAY BE COLLECTED AS EARLY AS 12 NOON.", "nsi_id": "unitedstatespostalservice-a77078", "operator": "United States Postal Service", "operator:short": "USPS", "operator:type": "public", "operator:wikidata": "Q668687", "ref": "4430700024"}, "type": "Feature"}
{"geometry": {"coordinates": [-81.5327185, 41.078047], "type": "Point"}, "id": "J3981FALst8LT3FHoeOtg7Ip74I=", "properties": {"@source_uri": "https://tools.usps.com/UspsToolsRestServices/rest/POLocator/findLocations", "@spider": "usps_collection_boxes", "addr:city": "AKRON", "addr:country": "US", "addr:postcode": "44307", "addr:state": "OH", "addr:street_address": "400 WABASH AVE", "amenity": "post_box", "collection_times": "Mo-Fr 12:00", "nsi_id": "unitedstatespostalservice-a77078", "operator": "United States Postal Service", "operator:short": "USPS", "operator:type": "public", "operator:wikidata": "Q668687", "ref": "4430700029"}, "type": "Feature"}
{"geometry": {"coordinates": [-81.5207168, 41.080916], "type": "Point"}, "id": "Ze6JVq_YOSjEgJXfncteLVr3nlU=", "properties": {"@source_uri": "https://tools.usps.com/UspsToolsRestServices/rest/POLocator/findLocations", "@spider": "usps_collection_boxes", "addr:city": "AKRON", "addr:country": "US", "addr:postcode": "44308", "addr:state": "OH", "addr:street_address": "50 W BOWERY ST", "amenity": "post_box", "collection_times": "Mo-Fr 14:00", "note": "ON 12/24 AND 12/31, THIS BOX MAY BE COLLECTED AS EARLY AS 12 NOON.", "nsi_id": "unitedstatespostalservice-a77078", "operator": "United States Postal Service", "operator:short": "USPS", "operator:type": "public", "operator:wikidata": "Q668687", "ref": "4430800002"}, "type": "Feature"}
{"geometry": {"coordinates": [-81.5144058, 41.084739], "type": "Point"}, "id": "B-BzynZ9AqJeMTCCb_5YWHOhftA=", "properties": {"@source_uri": "https://tools.usps.com/UspsToolsRestServices/rest/POLocator/findLocations", "@spider": "usps_collection_boxes", "addr:city": "AKRON", "addr:country": "US", "addr:postcode": "44308", "addr:state": "OH", "addr:street_address": "85 E MARKET ST", "amenity": "post_box", "collection_times": "Mo-Fr 12:00", "nsi_id": "unitedstatespostalservice-a77078", "operator": "United States Postal Service", "operator:short": "USPS", "operator:type": "public", "operator:wikidata": "Q668687", "ref": "4430800009"}, "type": "Feature"}
{"geometry": {"coordinates": [-81.5158657, 41.080427], "type": "Point"}, "id": "TC8XdV7YxSwLuyZddNqN8m_Gshc=", "properties": {"@source_uri": "https://tools.usps.com/UspsToolsRestServices/rest/POLocator/findLocations", "@spider": "usps_collection_boxes", "addr:city": "AKRON", "addr:country": "US", "addr:postcode": "44308", "addr:state": "OH", "addr:street_address": "177 S BROADWAY ST", "amenity": "post_box", "collection_times": "Mo-Fr 10:00", "nsi_id": "unitedstatespostalservice-a77078", "operator": "United States Postal Service", "operator:short": "USPS", "operator:type": "public", "operator:wikidata": "Q668687", "ref": "4430800010"}, "type": "Feature"}
{"geometry": {"coordinates": [-81.5171035, 41.079546], "type": "Point"}, "id": "MCJEChYHXHHb6sR6Bs_mtrpayNA=", "properties": {"@source_uri": "https://tools.usps.com/UspsToolsRestServices/rest/POLocator/findLocations", "@spider": "usps_collection_boxes", "addr:city": "AKRON", "addr:country": "US", "addr:postcode": "44308", "addr:state": "OH", "addr:street_address": "209 S HIGH ST", "amenity": "post_box", "collection_times": "Mo-Fr 12:00", "nsi_id": "unitedstatespostalservice-a77078", "operator": "United States Postal Service", "operator:short": "USPS", "operator:type": "public", "operator:wikidata": "Q668687", "ref": "4430800012"}, "type": "Feature"}
{"geometry": {"coordinates": [-81.5183893, 41.077199], "type": "Point"}, "id": "g0q34xzKkfNQbFTfrAVCxbd7eUs=", "properties": {"@source_uri": "https://tools.usps.com/UspsToolsRestServices/rest/POLocator/findLocations", "@spider": "usps_collection_boxes", "addr:city": "AKRON", "addr:country": "US", "addr:postcode": "44308", "addr:state": "OH", "addr:street_address": "277 S BROADWAY ST", "amenity": "post_box", "collection_times": "Mo-Fr 09:30", "nsi_id": "unitedstatespostalservice-a77078", "operator": "United States Postal Service", "operator:short": "USPS", "operator:type": "public", "operator:wikidata": "Q668687", "ref": "4430800013"}, "type": "Feature"}
{"geometry": {"coordinates": [-81.5212094, 41.07549], "type": "Point"}, "id": "qkZZ-FwgB1ggClshY-pVHzchbdA=", "properties": {"@source_uri": "https://tools.usps.com/UspsToolsRestServices/rest/POLocator/findLocations", "@spider": "usps_collection_boxes", "addr:city": "AKRON", "addr:country": "US", "addr:postcode": "44308", "addr:state": "OH", "addr:street_address": "44 E EXCHANGE ST", "amenity": "post_box", "collection_times": "Mo-Fr 09:30", "nsi_id": "unitedstatespostalservice-a77078", "operator": "United States Postal Service", "operator:short": "USPS", "operator:type": "public", "operator:wikidata": "Q668687", "ref": "4430800019"}, "type": "Feature"}
{"geometry": {"coordinates": [-81.5165963, 41.082191], "type": "Point"}, "id": "TvUKx76vwrH0SU9YefkNiyH1dd8=", "properties": {"@source_uri": "https://tools.usps.com/UspsToolsRestServices/rest/POLocator/findLocations", "@spider": "usps_collection_boxes", "addr:city": "AKRON", "addr:country": "US", "addr:postcode": "44308", "addr:state": "OH", "addr:street_address": "68 E MILL ST", "amenity": "post_box", "collection_times": "Mo-Fr 15:00", "note": "ON 12/24 AND 12/31, THIS BOX MAY BE COLLECTED AS EARLY AS 12 NOON.", "nsi_id": "unitedstatespostalservice-a77078", "operator": "United States Postal Service", "operator:short": "USPS", "operator:type": "public", "operator:wikidata": "Q668687", "ref": "4430800020"}, "type": "Feature"}
{"geometry": {"coordinates": [-81.5166299, 41.080029], "type": "Point"}, "id": "eSOvD3qxzrNic--fo1A97g4CQ2k=", "properties": {"@source_uri": "https://tools.usps.com/UspsToolsRestServices/rest/POLocator/findLocations", "@spider": "usps_collection_boxes", "addr:city": "AKRON", "addr:country": "US", "addr:postcode": "44308", "addr:state": "OH", "addr:street_address": "161 S HIGH ST", "amenity": "post_box", "collection_times": "Mo-Fr 10:00", "nsi_id": "unitedstatespostalservice-a77078", "operator": "United States Postal Service", "operator:short": "USPS", "operator:type": "public", "operator:wikidata": "Q668687", "ref": "4430800025"}, "type": "Feature"}
{"geometry": {"coordinates": [-81.5185557, 41.079269], "type": "Point"}, "id": "xX_4iwqfTb0tChWz3hyJJrTlUxA=", "properties": {"@source_uri": "https://tools.usps.com/UspsToolsRestServices/rest/POLocator/findLocations", "@spider": "usps_collection_boxes", "addr:city": "AKRON", "addr:country": "US", "addr:postcode": "44308", "addr:state": "OH", "addr:street_address": "217 S HIGH ST", "amenity": "post_box", "collection_times": "Mo-Fr 15:00", "note": "ON 12/24 AND 12/31, THIS BOX MAY BE COLLECTED AS EARLY AS 12 NOON.", "nsi_id": "unitedstatespostalservice-a77078", "operator": "United States Postal Service", "operator:short": "USPS", "operator:type": "public", "operator:wikidata": "Q668687", "ref": "4430800027"}, "type": "Feature"}
{"geometry": {"coordinates": [-81.5181091, 41.082245], "type": "Point"}, "id": "E_-FOqAkCZ7XkihURzmIrjnsojw=", "properties": {"@source_uri": "https://tools.usps.com/UspsToolsRestServices/rest/POLocator/findLocations", "@spider": "usps_collection_boxes", "addr:city": "AKRON", "addr:country": "US", "addr:postcode": "44308", "addr:state": "OH", "addr:street_address": "106 S MAIN ST", "amenity": "post_box", "collection_times": "Mo-Fr 15:00", "note": "ON 12/24 AND 12/31, THIS BOX MAY BE COLLECTED AS EARLY AS 12 NOON.", "nsi_id": "unitedstatespostalservice-a77078", "operator": "United States Postal Service", "operator:short": "USPS", "operator:type": "public", "operator:wikidata": "Q668687", "ref": "4430800029"}, "type": "Feature"}
{"geometry": {"coordinates": [-81.5176021, 41.081687], "type": "Point"}, "id": "qQfgNYCiKOhKL88fIe4ijYumzuE=", "properties": {"@source_uri": "https://tools.usps.com/UspsToolsRestServices/rest/POLocator/findLocations", "@spider": "usps_collection_boxes", "addr:city": "AKRON", "addr:country": "US", "addr:postcode": "44308", "addr:state": "OH", "addr:street_address": "121 S MAIN ST", "amenity": "post_box", "collection_times": "Mo-Fr 11:30", "nsi_id": "unitedstatespostalservice-a77078", "operator": "United States Postal Service", "operator:short": "USPS", "operator:type": "public", "operator:wikidata": "Q668687", "ref": "4430800048"}, "type": "Feature"}
{"geometry": {"coordinates": [-81.5200581, 41.079642], "type": "Point"}, "id": "B7BmiBzBap5LXVxWp8YmS3r2DYA=", "properties": {"@source_uri": "https://tools.usps.com/UspsToolsRestServices/rest/POLocator/findLocations", "@spider": "usps_collection_boxes", "addr:city": "AKRON", "addr:country": "US", "addr:postcode": "44308", "addr:state": "OH", "addr:street_address": "209 S MAIN ST", "amenity": "post_box", "collection_times": "Mo-Fr 12:00", "nsi_id": "unitedstatespostalservice-a77078", "operator": "United States Postal Service", "operator:short": "USPS", "operator:type": "public", "operator:wikidata": "Q668687", "ref": "4430800049"}, "type": "Feature"}
{"geometry": {"coordinates": [-81.5149992, 41.080572], "type": "Point"}, "id": "xgN0WXgn24AsrFa8MvwKvhJAfVs=", "properties": {"@source_uri": "https://tools.usps.com/UspsToolsRestServices/rest/POLocator/findLocations", "@spider": "usps_collection_boxes", "addr:city": "AKRON", "addr:country": "US", "addr:postcode": "44308", "addr:state": "OH", "addr:street_address": "135 S BROADWAY ST", "amenity": "post_box", "collection_times": "Mo-Fr 10:00", "nsi_id": "unitedstatespostalservice-a77078", "operator": "United States Postal Service", "operator:short": "USPS", "operator:type": "public", "operator:wikidata": "Q668687", "ref": "4430800056"}, "type": "Feature"}
{"geometry": {"coordinates": [-81.5180626, 41.083419], "type": "Point"}, "id": "L0D_iekfmLUvKg5nc1beQ_vWruE=", "properties": {"@source_uri": "https://tools.usps.com/UspsToolsRestServices/rest/POLocator/findLocations", "@spider": "usps_collection_boxes", "addr:city": "AKRON", "addr:country": "US", "addr:postcode": "44308", "addr:state": "OH", "addr:street_address": "76 S MAIN ST", "amenity": "post_box", "collection_times": "Mo-Fr 13:00", "note": "ON 12/24 AND 12/31, THIS BOX MAY BE COLLECTED AS EARLY AS 12 NOON.", "nsi_id": "unitedstatespostalservice-a77078", "operator": "United States Postal Service", "operator:short": "USPS", "operator:type": "public", "operator:wikidata": "Q668687", "ref": "4430800060"}, "type": "Feature"}
{"geometry": {"coordinates": [-81.515390173, 41.082203882], "type": "Point"}, "id": "TxSGQmMAb-WrcEGdOf6xFupVJgE=", "properties": {"@source_uri": "https://tools.usps.com/UspsToolsRestServices/rest/POLocator/findLocations", "@spider": "usps_collection_boxes", "addr:city": "AKRON", "addr:country": "US", "addr:postcode": "44308", "addr:state": "OH", "addr:street_address": "75 S BROADWAY ST", "amenity": "post_box", "collection_times": "Mo-Fr 11:00", "nsi_id": "unitedstatespostalservice-a77078", "operator": "United States Postal Service", "operator:short": "USPS", "operator:type": "public", "operator:wikidata": "Q668687", "ref": "4430800062"}, "type": "Feature"}
{"geometry": {"coordinates": [-81.5165781, 41.080039], "type": "Point"}, "id": "YBAWs8yQ4S4mBvDa-P9EKrzTMlI=", "properties": {"@source_uri": "https://tools.usps.com/UspsToolsRestServices/rest/POLocator/findLocations", "@spider": "usps_collection_boxes", "addr:city": "AKRON", "addr:country": "US", "addr:postcode": "44308", "addr:state": "OH", "addr:street_address": "161 S HIGH ST", "amenity": "post_box", "collection_times": "Mo-Fr 10:00", "nsi_id": "unitedstatespostalservice-a77078", "operator": "United States Postal Service", "operator:short": "USPS", "operator:type": "public", "operator:wikidata": "Q668687", "ref": "4430800066"}, "type": "Feature"}
{"geometry": {"coordinates": [-81.5177299, 41.0805], "type": "Point"}, "id": "Mu0y52NUkpkHRmXguibtN5P3BBc=", "properties": {"@source_uri": "https://tools.usps.com/UspsToolsRestServices/rest/POLocator/findLocations", "@spider": "usps_collection_boxes", "addr:city": "AKRON", "addr:country": "US", "addr:postcode": "44308", "addr:state": "OH", "addr:street_address": "166 S HIGH ST", "amenity": "post_box", "collection_times": "Mo-Fr 15:00", "note": "ON 12/24 AND 12/31, THIS BOX MAY BE COLLECTED AS EARLY AS 12 NOON.", "nsi_id": "unitedstatespostalservice-a77078", "operator": "United States Postal Service", "operator:short": "USPS", "operator:type": "public", "operator:wikidata": "Q668687", "ref": "4430800067"}, "type": "Feature"}
{"geometry": {"coordinates": [-81.517788753, 41.080592703], "type": "Point"}, "id": "0B5VqIaQDfFpB80s0bT3psBOvR0=", "properties": {"@source_uri": "https://tools.usps.com/UspsToolsRestServices/rest/POLocator/findLocations", "@spider": "usps_collection_boxes", "addr:city": "AKRON", "addr:country": "US", "addr:postcode": "44308", "addr:state": "OH", "addr:street_address": "166 S HIGH ST", "amenity": "post_box", "collection_times": "Mo-Fr 15:00", "note": "ON 12/24 AND 12/31, THIS BOX MAY BE COLLECTED AS EARLY AS 12 NOON.", "nsi_id": "unitedstatespostalservice-a77078", "operator": "United States Postal Service", "operator:short": "USPS", "operator:type": "public", "operator:wikidata": "Q668687", "ref": "4430800068"}, "type": "Feature"}
{"geometry": {"coordinates": [-81.517914, 41.084973], "type": "Point"}, "id": "Iyyi19EZmZj5n4k1kwGTol28mMQ=", "properties": {"@source_uri": "https://tools.usps.com/UspsToolsRestServices/rest/POLocator/findLocations", "@spider": "usps_collection_boxes", "addr:city": "AKRON", "addr:country": "US", "addr:postcode": "44308", "addr:state": "OH", "addr:street_address": "2 S MAIN ST", "amenity": "post_box", "collection_times": "Mo-Fr 12:30", "note": "ON 12/24 AND 12/31, THIS BOX MAY BE COLLECTED AS EARLY AS 12 NOON.", "nsi_id": "unitedstatespostalservice-a77078", "operator": "United States Postal Service", "operator:short": "USPS", "operator:type": "public", "operator:wikidata": "Q668687", "ref": "4430800074"}, "type": "Feature"}
{"geometry": {"coordinates": [-81.5174529, 41.083368], "type": "Point"}, "id": "4kVDww35KrgvDSe0tcIxVcqTAOc=", "properties": {"@source_uri": "https://tools.usps.com/UspsToolsRestServices/rest/POLocator/findLocations", "@spider": "usps_collection_boxes", "addr:city": "AKRON", "addr:country": "US", "addr:postcode": "44308", "addr:state": "OH", "addr:street_address": "50 S MAIN ST", "amenity": "post_box", "collection_times": "Mo-Fr 13:00", "note": "ON 12/24 AND 12/31, THIS BOX MAY BE COLLECTED AS EARLY AS 12 NOON.", "nsi_id": "unitedstatespostalservice-a77078", "operator": "United States Postal Service", "operator:short": "USPS", "operator:type": "public", "operator:wikidata": "Q668687", "ref": "4430800085"}, "type": "Feature"}
{"geometry": {"coordinates": [-81.516803997, 41.08566402], "type": "Point"}, "id": "NlcOdWeGP_PsLFJ4ExrHvXXdeuo=", "properties": {"@source_uri": "https://tools.usps.com/UspsToolsRestServices/rest/POLocator/findLocations", "@spider": "usps_collection_boxes", "addr:city": "AKRON", "addr:country": "US", "addr:postcode": "44308", "addr:state": "OH", "addr:street_address": "10 N MAIN ST", "amenity": "post_box", "collection_times": "Mo-Fr 13:00", "note": "ON 12/24 AND 12/31, THIS BOX MAY BE COLLECTED AS EARLY AS 12 NOON.", "nsi_id": "unitedstatespostalservice-a77078", "operator": "United States Postal Service", "operator:short": "USPS", "operator:type": "public", "operator:wikidata": "Q668687", "ref": "4430800086"}, "type": "Feature"}
{"geometry": {"coordinates": [-81.5191673, 41.076023], "type": "Point"}, "id": "xbmTSzmRGVTHdXV_SNNG-rduQMM=", "properties": {"@source_uri": "https://tools.usps.com/UspsToolsRestServices/rest/POLocator/findLocations", "@spider": "usps_collection_boxes", "addr:city": "AKRON", "addr:country": "US", "addr:postcode": "44308", "addr:state": "OH", "addr:street_address": "333 S BROADWAY ST", "amenity": "post_box", "collection_times": "Mo-Fr 10:00", "nsi_id": "unitedstatespostalservice-a77078", "operator": "United States Postal Service", "operator:short": "USPS", "operator:type": "public", "operator:wikidata": "Q668687", "ref": "4430800094"}, "type": "Feature"}
{"geometry": {"coordinates": [-81.5173577, 41.081002], "type": "Point"}, "id": "4Nj9N-zeJMSUnjNGauxCkVm7ncU=", "properties": {"@source_uri": "https://tools.usps.com/UspsToolsRestServices/rest/POLocator/findLocations", "@spider": "usps_collection_boxes", "addr:city": "AKRON", "addr:country": "US", "addr:postcode": "44308", "addr:state": "OH", "addr:street_address": "146 S HIGH ST", "amenity": "post_box", "collection_times": "Mo-Fr 15:00", "note": "ON 12/24 AND 12/31, THIS BOX MAY BE COLLECTED AS EARLY AS 12 NOON.", "nsi_id": "unitedstatespostalservice-a77078", "operator": "United States Postal Service", "operator:short": "USPS", "operator:type": "public", "operator:wikidata": "Q668687", "ref": "4430800095"}, "type": "Feature"}
{"geometry": {"coordinates": [-81.5144743, 41.082111], "type": "Point"}, "id": "dBt-irzK2hb2yDCCKB6_iynbVpI=", "properties": {"@source_uri": "https://tools.usps.com/UspsToolsRestServices/rest/POLocator/findLocations", "@spider": "usps_collection_boxes", "addr:city": "AKRON", "addr:country": "US", "addr:postcode": "44308", "addr:state": "OH", "addr:street_address": "80 S SUMMIT ST", "amenity": "post_box", "collection_times": "Mo-Fr 11:00", "nsi_id": "unitedstatespostalservice-a77078", "operator": "United States Postal Service", "operator:short": "USPS", "operator:type": "public", "operator:wikidata": "Q668687", "ref": "4430800104"}, "type": "Feature"}
{"geometry": {"coordinates": [-81.5187268, 41.081607], "type": "Point"}, "id": "p1kJttm8BYPjl8uOXqTgMpSOhB0=", "properties": {"@source_uri": "https://tools.usps.com/UspsToolsRestServices/rest/POLocator/findLocations", "@spider": "usps_collection_boxes", "addr:city": "AKRON", "addr:country": "US", "addr:postcode": "44308", "addr:state": "OH", "addr:street_address": "137 S MAIN ST", "amenity": "post_box", "collection_times": "Mo-Fr 12:00", "nsi_id": "unitedstatespostalservice-a77078", "operator": "United States Postal Service", "operator:short": "USPS", "operator:type": "public", "operator:wikidata": "Q668687", "ref": "4430800105"}, "type": "Feature"}
{"geometry": {"coordinates": [-81.5150952, 41.077414], "type": "Point"}, "id": "vHdlB6DQev6Ow7dtz0oQiynWFbM=", "properties": {"@source_uri": "https://tools.usps.com/UspsToolsRestServices/rest/POLocator/findLocations", "@spider": "usps_collection_boxes", "addr:city": "AKRON", "addr:country": "US", "addr:postcode": "44308", "addr:state": "OH", "addr:street_address": "150 UNIVERSITY AVE", "amenity": "post_box", "collection_times": "Mo-Fr 10:00", "nsi_id": "unitedstatespostalservice-a77078", "operator": "United States Postal Service", "operator:short": "USPS", "operator:type": "public", "operator:wikidata": "Q668687", "ref": "4430800111"}, "type": "Feature"}
{"geometry": {"coordinates": [-81.520473, 41.065478], "type": "Point"}, "id": "5bj9Nlf9WtE0Id7c6WcjwDh_uQk=", "properties": {"@source_uri": "https://tools.usps.com/UspsToolsRestServices/rest/POLocator/findLocations", "@spider": "usps_collection_boxes", "addr:city": "AKRON", "addr:country": "US", "addr:postcode": "44309", "addr:state": "OH", "addr:street_address": "675 WOLF LEDGES PKWY", "amenity": "post_box", "collection_times": "Mo-Fr 18:30; Sa 17:00", "indoor": "yes", "note": "ON 12/24 AND 12/31, THIS BOX MAY BE COLLECTED AS EARLY AS 12 NOON.", "nsi_id": "unitedstatespostalservice-a77078", "operator": "United States Postal Service", "operator:short": "USPS", "operator:type": "public", "operator:wikidata": "Q668687", "ref": "4430900003"}, "type": "Feature"}
{"geometry": {"coordinates": [-81.520473, 41.065479], "type": "Point"}, "id": "CuigJn6u3amBlpQbXGbF4dCzMME=", "properties": {"@source_uri": "https://tools.usps.com/UspsToolsRestServices/rest/POLocator/findLocations", "@spider": "usps_collection_boxes", "addr:city": "AKRON", "addr:country": "US", "addr:postcode": "44309", "addr:state": "OH", "addr:street_address": "675 WOLF LEDGES PKWY", "amenity": "post_box", "collection_times": "Mo-Fr 18:30; Sa 17:00", "indoor": "yes", "note": "ON 12/24 AND 12/31, THIS BOX MAY BE COLLECTED AS EARLY AS 12 NOON.", "nsi_id": "unitedstatespostalservice-a77078", "operator": "United States Postal Service", "operator:short": "USPS", "operator:type": "public", "operator:wikidata": "Q668687", "ref": "4430900004"}, "type": "Feature"}
{"geometry": {"coordinates": [-81.5191920016, 41.0652359813], "type": "Point"}, "id": "7-9LUMGEZb0Gqv-PfWnQW-B-bPw=", "properties": {"@source_uri": "https://tools.usps.com/UspsToolsRestServices/rest/POLocator/findLocations", "@spider": "usps_collection_boxes", "addr:city": "AKRON", "addr:country": "US", "addr:postcode": "44309", "addr:state": "OH", "addr:street_address": "675 WOLF LEDGES", "amenity": "post_box", "collection_times": "Mo-Fr 18:30; Sa 17:00", "note": "ON 12/24 AND 12/31, THIS BOX MAY BE COLLECTED AS EARLY AS 12 NOON.", "nsi_id": "unitedstatespostalservice-a77078", "operator": "United States Postal Service", "operator:short": "USPS", "operator:type": "public", "operator:wikidata": "Q668687", "ref": "4430900006"}, "type": "Feature"}
{"geometry": {"coordinates": [-81.520473, 41.065479], "type": "Point"}, "id": "77Y5B8zMd4a9dgj9CuK49Bhu-gs=", "properties": {"@source_uri": "https://tools.usps.com/UspsToolsRestServices/rest/POLocator/findLocations", "@spider": "usps_collection_boxes", "addr:city": "AKRON", "addr:country": "US", "addr:postcode": "44309", "addr:state": "OH", "addr:street_address": "675 WOLF LEDGES PKWY", "amenity": "post_box", "collection_times": "Mo-Fr 18:30; Sa 17:00", "name": "USPS COLLECTION BOX - APC", "note": "ON 12/24 AND 12/31, THIS BOX MAY BE COLLECTED AS EARLY AS 12 NOON.", "nsi_id": "unitedstatespostalservice-a77078", "operator": "United States Postal Service", "operator:short": "USPS", "operator:type": "public", "operator:wikidata": "Q668687", "ref": "4430900010"}, "type": "Feature"}
{"geometry": {"coordinates": [-81.5204460319, 41.0652984971], "type": "Point"}, "id": "x-CNvoFwHKG60mc3gNBHnt53xBc=", "properties": {"@source_uri": "https://tools.usps.com/UspsToolsRestServices/rest/POLocator/findLocations", "@spider": "usps_collection_boxes", "addr:city": "AKRON", "addr:country": "US", "addr:postcode": "44309", "addr:state": "OH", "addr:street_address": "675 WOLF LEDGES PKWY", "amenity": "post_box", "collection_times": "Mo-Fr 18:00; Sa 15:00", "indoor": "yes", "note": "ON 12/24 AND 12/31, THIS BOX MAY BE COLLECTED AS EARLY AS 12 NOON.", "nsi_id": "unitedstatespostalservice-a77078", "operator": "United States Postal Service", "operator:short": "USPS", "operator:type": "public", "operator:wikidata": "Q668687", "ref": "4430900013"}, "type": "Feature"}
{"geometry": {"coordinates": [-81.4664722, 41.103711], "type": "Point"}, "id": "oFYA_37JOm5Qzft7kYO_JXJBTCo=", "properties": {"@source_uri": "https://tools.usps.com/UspsToolsRestServices/rest/POLocator/findLocations", "@spider": "usps_collection_boxes", "addr:city": "AKRON", "addr:country": "US", "addr:postcode": "44310", "addr:state": "OH", "addr:street_address": "1510 BRITTAIN RD", "amenity": "post_box", "collection_times": "Mo-Sa 09:00", "nsi_id": "unitedstatespostalservice-a77078", "operator": "United States Postal Service", "operator:short": "USPS", "operator:type": "public", "operator:wikidata": "Q668687", "ref": "4431000001"}, "type": "Feature"}
{"geometry": {"coordinates": [-81.4701221, 41.105905], "type": "Point"}, "id": "dzABY6rCkYy8H9nIdBZm71xPN4Q=", "properties": {"@source_uri": "https://tools.usps.com/UspsToolsRestServices/rest/POLocator/findLocations", "@spider": "usps_collection_boxes", "addr:city": "AKRON", "addr:country": "US", "addr:postcode": "44310", "addr:state": "OH", "addr:street_address": "1435 BETANA AVE", "amenity": "post_box", "collection_times": "Mo-Sa 11:00", "nsi_id": "unitedstatespostalservice-a77078", "operator": "United States Postal Service", "operator:short": "USPS", "operator:type": "public", "operator:wikidata": "Q668687", "ref": "4431000006"}, "type": "Feature"}
{"geometry": {"coordinates": [-81.4947894, 41.094623], "type": "Point"}, "id": "KyOLE4VANyH9YSQg2sbcGDJrE0Y=", "properties": {"@source_uri": "https://tools.usps.com/UspsToolsRestServices/rest/POLocator/findLocations", "@spider": "usps_collection_boxes", "addr:city": "AKRON", "addr:country": "US", "addr:postcode": "44310", "addr:state": "OH", "addr:street_address": "694 DAMON ST", "amenity": "post_box", "collection_times": "Mo-Sa 11:00", "nsi_id": "unitedstatespostalservice-a77078", "operator": "United States Postal Service", "operator:short": "USPS", "operator:type": "public", "operator:wikidata": "Q668687", "ref": "4431000036"}, "type": "Feature"}
{"geometry": {"coordinates": [-81.4950459, 41.097872], "type": "Point"}, "id": "0iFQ1zKMrHCZe63KevF3Al8UGn4=", "properties": {"@source_uri": "https://tools.usps.com/UspsToolsRestServices/rest/POLocator/findLocations", "@spider": "usps_collection_boxes", "addr:city": "AKRON", "addr:country": "US", "addr:postcode": "44310", "addr:state": "OH", "addr:street_address": "601 FOUSE AVE", "amenity": "post_box", "collection_times": "Mo-Sa 11:45", "nsi_id": "unitedstatespostalservice-a77078", "operator": "United States Postal Service", "operator:short": "USPS", "operator:type": "public", "operator:wikidata": "Q668687", "ref": "4431000042"}, "type": "Feature"}
{"geometry": {"coordinates": [-81.5038827, 41.096765], "type": "Point"}, "id": "-rS5_kNXFCzh6VQPy0U_wGSpWLs=", "properties": {"@source_uri": "https://tools.usps.com/UspsToolsRestServices/rest/POLocator/findLocations", "@spider": "usps_collection_boxes", "addr:city": "AKRON", "addr:country": "US", "addr:postcode": "44310", "addr:state": "OH", "addr:street_address": "406 ZELLER AVE", "amenity": "post_box", "collection_times": "Mo-Sa 12:30", "note": "ON 12/24 AND 12/31, THIS BOX MAY BE COLLECTED AS EARLY AS 12 NOON.", "nsi_id": "unitedstatespostalservice-a77078", "operator": "United States Postal Service", "operator:short": "USPS", "operator:type": "public", "operator:wikidata": "Q668687", "ref": "4431000047"}, "type": "Feature"}
{"geometry": {"coordinates": [-81.4885233, 41.098809], "type": "Point"}, "id": "p3gZ2TnjScfSQdYBeNXzQ65HGQs=", "properties": {"@source_uri": "https://tools.usps.com/UspsToolsRestServices/rest/POLocator/findLocations", "@spider": "usps_collection_boxes", "addr:city": "AKRON", "addr:country": "US", "addr:postcode": "44310", "addr:state": "OH", "addr:street_address": "1024 HOME AVE", "amenity": "post_box", "collection_times": "Mo-Sa 12:00", "nsi_id": "unitedstatespostalservice-a77078", "operator": "United States Postal Service", "operator:short": "USPS", "operator:type": "public", "operator:wikidata": "Q668687", "ref": "4431000051"}, "type": "Feature"}
{"geometry": {"coordinates": [-81.474861, 41.110908], "type": "Point"}, "id": "nLvtm6rZ4mfJtlTzJhw-O_yYrdY=", "properties": {"@source_uri": "https://tools.usps.com/UspsToolsRestServices/rest/POLocator/findLocations", "@spider": "usps_collection_boxes", "addr:city": "AKRON", "addr:country": "US", "addr:postcode": "44310", "addr:state": "OH", "addr:street_address": "1101 INDEPENDENCE AVE", "amenity": "post_box", "collection_times": "Mo-Sa 10:00", "nsi_id": "unitedstatespostalservice-a77078", "operator": "United States Postal Service", "operator:short": "USPS", "operator:type": "public", "operator:wikidata": "Q668687", "ref": "4431000058"}, "type": "Feature"}
{"geometry": {"coordinates": [-81.4744654, 41.112959], "type": "Point"}, "id": "yoi6EEEOni_M8CbmS3OccbKo6K0=", "properties": {"@source_uri": "https://tools.usps.com/UspsToolsRestServices/rest/POLocator/findLocations", "@spider": "usps_collection_boxes", "addr:city": "AKRON", "addr:country": "US", "addr:postcode": "44310", "addr:state": "OH", "addr:street_address": "1111 INDEPENDENCE AVE", "amenity": "post_box", "collection_times": "Mo-Sa 10:00", "nsi_id": "unitedstatespostalservice-a77078", "operator": "United States Postal Service", "operator:short": "USPS", "operator:type": "public", "operator:wikidata": "Q668687", "ref": "4431000059"}, "type": "Feature"}
{"geometry": {"coordinates": [-81.4805153, 41.102812], "type": "Point"}, "id": "Somh3FKtYoo7aoyyV_EZ-shHeb8=", "properties": {"@source_uri": "https://tools.usps.com/UspsToolsRestServices/rest/POLocator/findLocations", "@spider": "usps_collection_boxes", "addr:city": "AKRON", "addr:country": "US", "addr:postcode": "44310", "addr:state": "OH", "addr:street_address": "1498 INDUSTRIAL PKWY", "amenity": "post_box", "collection_times": "Mo-Sa 10:30", "nsi_id": "unitedstatespostalservice-a77078", "operator": "United States Postal Service", "operator:short": "USPS", "operator:type": "public", "operator:wikidata": "Q668687", "ref": "4431000061"}, "type": "Feature"}
{"geometry": {"coordinates": [-81.5103433, 41.113335], "type": "Point"}, "id": "zKUhDIC-fdsoybVOBvCaO-tzZjo=", "properties": {"@source_uri": "https://tools.usps.com/UspsToolsRestServices/rest/POLocator/findLocations", "@spider": "usps_collection_boxes", "addr:city": "AKRON", "addr:country": "US", "addr:postcode": "44310", "addr:state": "OH", "addr:street_address": "1025 N MAIN ST", "amenity": "post_box", "collection_times": "Mo-Sa 09:00", "nsi_id": "unitedstatespostalservice-a77078", "operator": "United States Postal Service", "operator:short": "USPS", "operator:type": "public", "operator:wikidata": "Q668687", "ref": "4431000065"}, "type": "Feature"}
{"geometry": {"coordinates": [-81.5116440139, 41.1015030095], "type": "Point"}, "id": "7l2xxJXnFYdxYX28Y3zNmvuZsas=", "properties": {"@source_uri": "https://tools.usps.com/UspsToolsRestServices/rest/POLocator/findLocations", "@spider": "usps_collection_boxes", "addr:city": "AKRON", "addr:country": "US", "addr:postcode": "44310", "addr:state": "OH", "addr:street_address": "600 N MAIN ST", "amenity": "post_box", "collection_times": "Mo-Sa 09:00", "nsi_id": "unitedstatespostalservice-a77078", "operator": "United States Postal Service", "operator:short": "USPS", "operator:type": "public", "operator:wikidata": "Q668687", "ref": "4431000067"}, "type": "Feature"}
{"geometry": {"coordinates": [-81.5031841, 41.09982], "type": "Point"}, "id": "s8OgkIsdVSddAODKVeHfm78zbv4=", "properties": {"@source_uri": "https://tools.usps.com/UspsToolsRestServices/rest/POLocator/findLocations", "@spider": "usps_collection_boxes", "addr:city": "AKRON", "addr:country": "US", "addr:postcode": "44310", "addr:state": "OH", "addr:street_address": "513 MARVIEW AVE", "amenity": "post_box", "collection_times": "Mo-Sa 11:00", "nsi_id": "unitedstatespostalservice-a77078", "operator": "United States Postal Service", "operator:short": "USPS", "operator:type": "public", "operator:wikidata": "Q668687", "ref": "4431000072"}, "type": "Feature"}
{"geometry": {"coordinates": [-81.4981341, 41.113627], "type": "Point"}, "id": "HIu9ESpu92R3Sm_oo2JycR3qJN4=", "properties": {"@source_uri": "https://tools.usps.com/UspsToolsRestServices/rest/POLocator/findLocations", "@spider": "usps_collection_boxes", "addr:city": "AKRON", "addr:country": "US", "addr:postcode": "44310", "addr:state": "OH", "addr:street_address": "574 E CUYAHOGA FALLS AVE", "amenity": "post_box", "collection_times": "Mo-Fr 17:00; Sa 15:00", "note": "ON 12/24 AND 12/31, THIS BOX MAY BE COLLECTED AS EARLY AS 12 NOON.", "nsi_id": "unitedstatespostalservice-a77078", "operator": "United States Postal Service", "operator:short": "USPS", "operator:type": "public", "operator:wikidata": "Q668687", "ref": "4431000076"}, "type": "Feature"}
{"geometry": {"coordinates": [-81.468311, 41.101712], "type": "Point"}, "id": "Kh2ggDrTaNzhWz6xtcb2JWR8v84=", "properties": {"@source_uri": "https://tools.usps.com/UspsToolsRestServices/rest/POLocator/findLocations", "@spider": "usps_collection_boxes", "addr:city": "AKRON", "addr:country": "US", "addr:postcode": "44310", "addr:state": "OH", "addr:street_address": "1288 E TALLMADGE AVE", "amenity": "post_box", "collection_times": "Mo-Sa 10:00", "nsi_id": "unitedstatespostalservice-a77078", "operator": "United States Postal Service", "operator:short": "USPS", "operator:type": "public", "operator:wikidata": "Q668687", "ref": "4431000080"}, "type": "Feature"}
{"geometry": {"coordinates": [-81.4960936, 41.102154], "type": "Point"}, "id": "bYDVUuAzaG_V84CY1aTmCUXCz8U=", "properties": {"@source_uri": "https://tools.usps.com/UspsToolsRestServices/rest/POLocator/findLocations", "@spider": "usps_collection_boxes", "addr:city": "AKRON", "addr:country": "US", "addr:postcode": "44310", "addr:state": "OH", "addr:street_address": "530 E TALLMADGE AVE", "amenity": "post_box", "collection_times": "Mo-Sa 09:30", "nsi_id": "unitedstatespostalservice-a77078", "operator": "United States Postal Service", "operator:short": "USPS", "operator:type": "public", "operator:wikidata": "Q668687", "ref": "4431000081"}, "type": "Feature"}
{"geometry": {"coordinates": [-81.4805194, 41.102801], "type": "Point"}, "id": "qXf31OhoGur48fNcmbzmq0HhGgQ=", "properties": {"@source_uri": "https://tools.usps.com/UspsToolsRestServices/rest/POLocator/findLocations", "@spider": "usps_collection_boxes", "addr:city": "AKRON", "addr:country": "US", "addr:postcode": "44310", "addr:state": "OH", "addr:street_address": "1498 INDUSTRIAL PKWY", "amenity": "post_box", "collection_times": "Mo-Sa 10:30", "nsi_id": "unitedstatespostalservice-a77078", "operator": "United States Postal Service", "operator:short": "USPS", "operator:type": "public", "operator:wikidata": "Q668687", "ref": "4431000087"}, "type": "Feature"}
{"geometry": {"coordinates": [-81.4982071, 41.113507], "type": "Point"}, "id": "bPpCNCKBjRSj0QrUv3k3mjYzTVs=", "properties": {"@source_uri": "https://tools.usps.com/UspsToolsRestServices/rest/POLocator/findLocations", "@spider": "usps_collection_boxes", "addr:city": "AKRON", "addr:country": "US", "addr:postcode": "44310", "addr:state": "OH", "addr:street_address": "574 E CUYAHOGA FALLS AVE", "amenity": "post_box", "collection_times": "Mo-Fr 17:00; Sa 15:00", "indoor": "yes", "note": "ON 12/24 AND 12/31, THIS BOX MAY BE COLLECTED AS EARLY AS 12 NOON.", "nsi_id": "unitedstatespostalservice-a77078", "operator": "United States Postal Service", "operator:short": "USPS", "operator:type": "public", "operator:wikidata": "Q668687", "ref": "4431000090"}, "type": "Feature"}
{"geometry": {"coordinates": [-81.4817861, 41.10201], "type": "Point"}, "id": "4aKn5PAPHnjGdinrqZRB8Fxv6DI=", "properties": {"@source_uri": "https://tools.usps.com/UspsToolsRestServices/rest/POLocator/findLocations", "@spider": "usps_collection_boxes", "addr:city": "AKRON", "addr:country": "US", "addr:postcode": "44310", "addr:state": "OH", "addr:street_address": "904 E TALLMADGE AVE", "amenity": "post_box", "collection_times": "Mo-Sa 09:30", "nsi_id": "unitedstatespostalservice-a77078", "operator": "United States Postal Service", "operator:short": "USPS", "operator:type": "public", "operator:wikidata": "Q668687", "ref": "4431000093"}, "type": "Feature"}
{"geometry": {"coordinates": [-81.4781057, 41.100333], "type": "Point"}, "id": "a0K05mqaOI71gKwo-SN-iEOlAoI=", "properties": {"@source_uri": "https://tools.usps.com/UspsToolsRestServices/rest/POLocator/findLocations", "@spider": "usps_collection_boxes", "addr:city": "AKRON", "addr:country": "US", "addr:postcode": "44310", "addr:state": "OH", "addr:street_address": "1030 E TALLMADGE AVE", "amenity": "post_box", "collection_times": "Mo-Sa 11:00", "nsi_id": "unitedstatespostalservice-a77078", "operator": "United States Postal Service", "operator:short": "USPS", "operator:type": "public", "operator:wikidata": "Q668687", "ref": "4431000097"}, "type": "Feature"}
{"geometry": {"coordinates": [-81.4781204, 41.100337], "type": "Point"}, "id": "v-7OtIAtuCPauN6sENzX72vDgXc=", "properties": {"@source_uri": "https://tools.usps.com/UspsToolsRestServices/rest/POLocator/findLocations", "@spider": "usps_collection_boxes", "addr:city": "AKRON", "addr:country": "US", "addr:postcode": "44310", "addr:state": "OH", "addr:street_address": "1030 E TALLMADGE AVE", "amenity": "post_box", "collection_times": "Mo-Sa 11:00", "nsi_id": "unitedstatespostalservice-a77078", "operator": "United States Postal Service", "operator:short": "USPS", "operator:type": "public", "operator:wikidata": "Q668687", "ref": "4431000100"}, "type": "Feature"}
{"geometry": {"coordinates": [-81.4981549, 41.113653], "type": "Point"}, "id": "64fnI61AxT6y1zSwik-cxwlFofg=", "properties": {"@source_uri": "https://tools.usps.com/UspsToolsRestServices/rest/POLocator/findLocations", "@spider": "usps_collection_boxes", "addr:city": "AKRON", "addr:country": "US", "addr:postcode": "44310", "addr:state": "OH", "addr:street_address": "574 E CUYAHOGA FALLS AVE", "amenity": "post_box", "collection_times": "Mo-Fr 17:00; Sa 15:00", "note": "ON 12/24 AND 12/31, THIS BOX MAY BE COLLECTED AS EARLY AS 12 NOON.", "nsi_id": "unitedstatespostalservice-a77078", "operator": "United States Postal Service", "operator:short": "USPS", "operator:type": "public", "operator:wikidata": "Q668687", "ref": "4431000101"}, "type": "Feature"}
{"geometry": {"coordinates": [-81.5211662, 41.060026], "type": "Point"}, "id": "eoXk8B8C-_wz9Ol5ZKIMEyqreRk=", "properties": {"@source_uri": "https://tools.usps.com/UspsToolsRestServices/rest/POLocator/findLocations", "@spider": "usps_collection_boxes", "addr:city": "AKRON", "addr:country": "US", "addr:postcode": "44311", "addr:state": "OH", "addr:street_address": "205 E CROSIER ST", "amenity": "post_box", "collection_times": "Mo-Fr 10:00", "nsi_id": "unitedstatespostalservice-a77078", "operator": "United States Postal Service", "operator:short": "USPS", "operator:type": "public", "operator:wikidata": "Q668687", "ref": "4431100001"}, "type": "Feature"}
{"geometry": {"coordinates": [-81.5235304, 41.074238], "type": "Point"}, "id": "8B5ywREB9ffH6Y7xV_CyJzSRyHQ=", "properties": {"@source_uri": "https://tools.usps.com/UspsToolsRestServices/rest/POLocator/findLocations", "@spider": "usps_collection_boxes", "addr:city": "AKRON", "addr:country": "US", "addr:postcode": "44311", "addr:state": "OH", "addr:street_address": "445 S MAIN ST", "amenity": "post_box", "collection_times": "Mo-Fr 11:00", "nsi_id": "unitedstatespostalservice-a77078", "operator": "United States Postal Service", "operator:short": "USPS", "operator:type": "public", "operator:wikidata": "Q668687", "ref": "4431100002"}, "type": "Feature"}
{"geometry": {"coordinates": [-81.5247655, 41.059415], "type": "Point"}, "id": "Pptea7sKEhNv7fCnolFlsxkVgVM=", "properties": {"@source_uri": "https://tools.usps.com/UspsToolsRestServices/rest/POLocator/findLocations", "@spider": "usps_collection_boxes", "addr:city": "AKRON", "addr:country": "US", "addr:postcode": "44311", "addr:state": "OH", "addr:street_address": "998 SWEITZER AVE", "amenity": "post_box", "collection_times": "Mo-Fr 10:00", "nsi_id": "unitedstatespostalservice-a77078", "operator": "United States Postal Service", "operator:short": "USPS", "operator:type": "public", "operator:wikidata": "Q668687", "ref": "4431100011"}, "type": "Feature"}
{"geometry": {"coordinates": [-81.5184235, 41.070407], "type": "Point"}, "id": "rS5DJg5v7PGkoBPth5EIYQzjOpU=", "properties": {"@source_uri": "https://tools.usps.com/UspsToolsRestServices/rest/POLocator/findLocations", "@spider": "usps_collection_boxes", "addr:city": "AKRON", "addr:country": "US", "addr:postcode": "44311", "addr:state": "OH", "addr:street_address": "470 GRANT ST", "amenity": "post_box", "collection_times": "Mo-Fr 10:00", "nsi_id": "unitedstatespostalservice-a77078", "operator": "United States Postal Service", "operator:short": "USPS", "operator:type": "public", "operator:wikidata": "Q668687", "ref": "4431100015"}, "type": "Feature"}
{"geometry": {"coordinates": [-81.5187366, 41.06724], "type": "Point"}, "id": "iXKq5hyJf3rPrf9EqRS7DkreemQ=", "properties": {"@source_uri": "https://tools.usps.com/UspsToolsRestServices/rest/POLocator/findLocations", "@spider": "usps_collection_boxes", "addr:city": "AKRON", "addr:country": "US", "addr:postcode": "44311", "addr:state": "OH", "addr:street_address": "319 PALMYRA AVE", "amenity": "post_box", "collection_times": "Mo-Fr 10:00", "nsi_id": "unitedstatespostalservice-a77078", "operator": "United States Postal Service", "operator:short": "USPS", "operator:type": "public", "operator:wikidata": "Q668687", "ref": "4431100016"}, "type": "Feature"}
{"geometry": {"coordinates": [-81.5195131, 41.072686], "type": "Point"}, "id": "LWriVXWdBQgiFPIqfanvW0loae0=", "properties": {"@source_uri": "https://tools.usps.com/UspsToolsRestServices/rest/POLocator/findLocations", "@spider": "usps_collection_boxes", "addr:city": "AKRON", "addr:country": "US", "addr:postcode": "44311", "addr:state": "OH", "addr:street_address": "411 WOLF LEDGES PKWY", "amenity": "post_box", "collection_times": "Mo-Fr 15:15", "note": "ON 12/24 AND 12/31, THIS BOX MAY BE COLLECTED AS EARLY AS 12 NOON.", "nsi_id": "unitedstatespostalservice-a77078", "operator": "United States Postal Service", "operator:short": "USPS", "operator:type": "public", "operator:wikidata": "Q668687", "ref": "4431100025"}, "type": "Feature"}
{"geometry": {"coordinates": [-81.525069, 41.072288], "type": "Point"}, "id": "8PTtPT7tJGosTdRXVGQJMm-G6oc=", "properties": {"@source_uri": "https://tools.usps.com/UspsToolsRestServices/rest/POLocator/findLocations", "@spider": "usps_collection_boxes", "addr:city": "AKRON", "addr:country": "US", "addr:postcode": "44311", "addr:state": "OH", "addr:street_address": "520 S MAIN ST", "amenity": "post_box", "collection_times": "Mo-Fr 13:30", "note": "ON 12/24 AND 12/31, THIS BOX MAY BE COLLECTED AS EARLY AS 12 NOON.", "nsi_id": "unitedstatespostalservice-a77078", "operator": "United States Postal Service", "operator:short": "USPS", "operator:type": "public", "operator:wikidata": "Q668687", "ref": "4431100028"}, "type": "Feature"}
{"geometry": {"coordinates": [-81.525069, 41.072288], "type": "Point"}, "id": "7n6bRaXDs6FxLlgxVDCXyMauDXo=", "properties": {"@source_uri": "https://tools.usps.com/UspsToolsRestServices/rest/POLocator/findLocations", "@spider": "usps_collection_boxes", "addr:city": "AKRON", "addr:country": "US", "addr:postcode": "44311", "addr:state": "OH", "addr:street_address": "520 S MAIN ST", "amenity": "post_box", "collection_times": "Mo-Fr 13:30", "note": "ON 12/24 AND 12/31, THIS BOX MAY BE COLLECTED AS EARLY AS 12 NOON.", "nsi_id": "unitedstatespostalservice-a77078", "operator": "United States Postal Service", "operator:short": "USPS", "operator:type": "public", "operator:wikidata": "Q668687", "ref": "4431100029"}, "type": "Feature"}
{"geometry": {"coordinates": [-81.523126, 41.074661], "type": "Point"}, "id": "YAHo32yMtW_NLAZOdPtSzyo8ebQ=", "properties": {"@source_uri": "https://tools.usps.com/UspsToolsRestServices/rest/POLocator/findLocations", "@spider": "usps_collection_boxes", "addr:city": "AKRON", "addr:country": "US", "addr:postcode": "44311", "addr:state": "OH", "addr:street_address": "388 S MAIN ST", "amenity": "post_box", "collection_times": "Mo-Fr 09:00", "nsi_id": "unitedstatespostalservice-a77078", "operator": "United States Postal Service", "operator:short": "USPS", "operator:type": "public", "operator:wikidata": "Q668687", "ref": "4431100033"}, "type": "Feature"}
{"geometry": {"coordinates": [-81.5232895, 41.074736], "type": "Point"}, "id": "zc0O3g3OO7pS5tvaD24yf-ksG6c=", "properties": {"@source_uri": "https://tools.usps.com/UspsToolsRestServices/rest/POLocator/findLocations", "@spider": "usps_collection_boxes", "addr:city": "AKRON", "addr:country": "US", "addr:postcode": "44311", "addr:state": "OH", "addr:street_address": "388 S MAIN ST", "amenity": "post_box", "collection_times": "Mo-Fr 09:00", "nsi_id": "unitedstatespostalservice-a77078", "operator": "United States Postal Service", "operator:short": "USPS", "operator:type": "public", "operator:wikidata": "Q668687", "ref": "4431100034"}, "type": "Feature"}
{"geometry": {"coordinates": [-81.5252733, 41.071839], "type": "Point"}, "id": "lxEOPENUy1Jr40OaUinq6ieWrf4=", "properties": {"@source_uri": "https://tools.usps.com/UspsToolsRestServices/rest/POLocator/findLocations", "@spider": "usps_collection_boxes", "addr:city": "AKRON", "addr:country": "US", "addr:postcode": "44311", "addr:state": "OH", "addr:street_address": "1 GOJO PLZ", "amenity": "post_box", "collection_times": "Mo-Fr 14:00", "note": "ON 12/24 AND 12/31, THIS BOX MAY BE COLLECTED AS EARLY AS 12 NOON.", "nsi_id": "unitedstatespostalservice-a77078", "operator": "United States Postal Service", "operator:short": "USPS", "operator:type": "public", "operator:wikidata": "Q668687", "ref": "4431100036"}, "type": "Feature"}
{"geometry": {"coordinates": [-81.523527, 41.068872], "type": "Point"}, "id": "ncCvY_ihkPuUMlmP-M-upB3NWCk=", "properties": {"@source_uri": "https://tools.usps.com/UspsToolsRestServices/rest/POLocator/findLocations", "@spider": "usps_collection_boxes", "addr:city": "AKRON", "addr:country": "US", "addr:postcode": "44311", "addr:state": "OH", "addr:street_address": "631 S BROADWAY ST", "amenity": "post_box", "collection_times": "Mo-Fr 09:00", "nsi_id": "unitedstatespostalservice-a77078", "operator": "United States Postal Service", "operator:short": "USPS", "operator:type": "public", "operator:wikidata": "Q668687", "ref": "4431100037"}, "type": "Feature"}
{"geometry": {"coordinates": [-81.4260447, 41.03145], "type": "Point"}, "id": "qCDtbac45E6DQ7tnJWOA9LFoVsc=", "properties": {"@source_uri": "https://tools.usps.com/UspsToolsRestServices/rest/POLocator/findLocations", "@spider": "usps_collection_boxes", "addr:city": "AKRON", "addr:country": "US", "addr:postcode": "44312", "addr:state": "OH", "addr:street_address": "2801 E WATERLOO RD", "amenity": "post_box", "collection_times": "Mo-Sa 09:00", "nsi_id": "unitedstatespostalservice-a77078", "operator": "United States Postal Service", "operator:short": "USPS", "operator:type": "public", "operator:wikidata": "Q668687", "ref": "4431200001"}, "type": "Feature"}
{"geometry": {"coordinates": [-81.4142104, 41.027698], "type": "Point"}, "id": "BtKUda-N3Eb4Z7X-urgI4yrvwLk=", "properties": {"@source_uri": "https://tools.usps.com/UspsToolsRestServices/rest/POLocator/findLocations", "@spider": "usps_collection_boxes", "addr:city": "AKRON", "addr:country": "US", "addr:postcode": "44312", "addr:state": "OH", "addr:street_address": "3271 E WATERLOO RD", "amenity": "post_box", "collection_times": "Mo-Sa 10:30", "nsi_id": "unitedstatespostalservice-a77078", "operator": "United States Postal Service", "operator:short": "USPS", "operator:type": "public", "operator:wikidata": "Q668687", "ref": "4431200002"}, "type": "Feature"}
{"geometry": {"coordinates": [-81.4300473, 41.044546], "type": "Point"}, "id": "ShOGPQ3WJe9YuFy9V0QWoLQplW8=", "properties": {"@source_uri": "https://tools.usps.com/UspsToolsRestServices/rest/POLocator/findLocations", "@spider": "usps_collection_boxes", "addr:city": "AKRON", "addr:country": "US", "addr:postcode": "44312", "addr:state": "OH", "addr:street_address": "2790 ALBRECHT AVE", "amenity": "post_box", "collection_times": "Mo-Sa 11:30", "nsi_id": "unitedstatespostalservice-a77078", "operator": "United States Postal Service", "operator:short": "USPS", "operator:type": "public", "operator:wikidata": "Q668687", "ref": "4431200003"}, "type": "Feature"}
{"geometry": {"coordinates": [-81.458269, 41.048767], "type": "Point"}, "id": "Mk720jQFuoNO9pHPfGQJnGjEkIM=", "properties": {"@source_uri": "https://tools.usps.com/UspsToolsRestServices/rest/POLocator/findLocations", "@spider": "usps_collection_boxes", "addr:city": "AKRON", "addr:country": "US", "addr:postcode": "44312", "addr:state": "OH", "addr:street_address": "1926 BAKER AVE", "amenity": "post_box", "collection_times": "Mo-Sa 09:45", "nsi_id": "unitedstatespostalservice-a77078", "operator": "United States Postal Service", "operator:short": "USPS", "operator:type": "public", "operator:wikidata": "Q668687", "ref": "4431200008"}, "type": "Feature"}
{"geometry": {"coordinates": [-81.4232023, 41.024391], "type": "Point"}, "id": "PwXTw-xXdOtcwZMJp5xE6oUph74=", "properties": {"@source_uri": "https://tools.usps.com/UspsToolsRestServices/rest/POLocator/findLocations", "@spider": "usps_collection_boxes", "addr:city": "AKRON", "addr:country": "US", "addr:postcode": "44312", "addr:state": "OH", "addr:street_address": "1500 CANTON RD", "amenity": "post_box", "collection_times": "Mo-Sa 10:00", "nsi_id": "unitedstatespostalservice-a77078", "operator": "United States Postal Service", "operator:short": "USPS", "operator:type": "public", "operator:wikidata": "Q668687", "ref": "4431200013"}, "type": "Feature"}
{"geometry": {"coordinates": [-81.4383328, 41.050134], "type": "Point"}, "id": "a0VupP8vus1DumzmGZJ6ynXcuEI=", "properties": {"@source_uri": "https://tools.usps.com/UspsToolsRestServices/rest/POLocator/findLocations", "@spider": "usps_collection_boxes", "addr:city": "AKRON", "addr:country": "US", "addr:postcode": "44312", "addr:state": "OH", "addr:street_address": "480 CANTON RD", "amenity": "post_box", "collection_times": "Mo-Sa 08:00", "nsi_id": "unitedstatespostalservice-a77078", "operator": "United States Postal Service", "operator:short": "USPS", "operator:type": "public", "operator:wikidata": "Q668687", "ref": "4431200014"}, "type": "Feature"}
{"geometry": {"coordinates": [-81.4292168, 41.056386], "type": "Point"}, "id": "9CTzy-DdSd1UAxlzolZy88ExSdc=", "properties": {"@source_uri": "https://tools.usps.com/UspsToolsRestServices/rest/POLocator/findLocations", "@spider": "usps_collection_boxes", "addr:city": "AKRON", "addr:country": "US", "addr:postcode": "44312", "addr:state": "OH", "addr:street_address": "52 HIGHGROVE BLVD", "amenity": "post_box", "collection_times": "Mo-Sa 14:00", "note": "ON 12/24 AND 12/31, THIS BOX MAY BE COLLECTED AS EARLY AS 12 NOON.", "nsi_id": "unitedstatespostalservice-a77078", "operator": "United States Postal Service", "operator:short": "USPS", "operator:type": "public", "operator:wikidata": "Q668687", "ref": "4431200017"}, "type": "Feature"}
{"geometry": {"coordinates": [-81.4621061746, 40.9955046808], "type": "Point"}, "id": "Nuj24MC_rPxlCV70h0XNTHDaGuM=", "properties": {"@source_uri": "https://tools.usps.com/UspsToolsRestServices/rest/POLocator/findLocations", "@spider": "usps_collection_boxes", "addr:city": "AKRON", "addr:country": "US", "addr:postcode": "44312", "addr:state": "OH", "addr:street_address": "2425 MASSILLON RD", "amenity": "post_box", "collection_times": "Mo-Sa 09:30", "nsi_id": "unitedstatespostalservice-a77078", "operator": "United States Postal Service", "operator:short": "USPS", "operator:type": "public", "operator:wikidata": "Q668687", "ref": "4431200026"}, "type": "Feature"}
{"geometry": {"coordinates": [-81.4386481553, 40.9757123175], "type": "Point"}, "id": "HyENdPsLkYiR2-e_6KIM4Avl4wE=", "properties": {"@source_uri": "https://tools.usps.com/UspsToolsRestServices/rest/POLocator/findLocations", "@spider": "usps_collection_boxes", "addr:city": "AKRON", "addr:country": "US", "addr:postcode": "44312", "addr:state": "OH", "addr:street_address": "2361 E TURKEYFOOT LAKE RD", "amenity": "post_box", "collection_times": "Mo-Sa 12:30", "note": "ON 12/24 AND 12/31, THIS BOX MAY BE COLLECTED AS EARLY AS 12 NOON.", "nsi_id": "unitedstatespostalservice-a77078", "operator": "United States Postal Service", "operator:short": "USPS", "operator:type": "public", "operator:wikidata": "Q668687", "ref": "4431200029"}, "type": "Feature"}
{"geometry": {"coordinates": [-81.4440229, 41.049053], "type": "Point"}, "id": "YAFO7tVksC_9K_haYrocSSSwWuc=", "properties": {"@source_uri": "https://tools.usps.com/UspsToolsRestServices/rest/POLocator/findLocations", "@spider": "usps_collection_boxes", "addr:city": "AKRON", "addr:country": "US", "addr:postcode": "44312", "addr:state": "OH", "addr:street_address": "2420 WEDGEWOOD DR", "amenity": "post_box", "collection_times": "Mo-Fr 16:45; Sa 15:00", "note": "ON 12/24 AND 12/31, THIS BOX MAY BE COLLECTED AS EARLY AS 12 NOON.", "nsi_id": "unitedstatespostalservice-a77078", "operator": "United States Postal Service", "operator:short": "USPS", "operator:type": "public", "operator:wikidata": "Q668687", "ref": "4431200035"}, "type": "Feature"}
{"geometry": {"coordinates": [-81.439072, 41.049877], "type": "Point"}, "id": "bZC4pSHDiz2UVIFMXE7PvDChl9E=", "properties": {"@source_uri": "https://tools.usps.com/UspsToolsRestServices/rest/POLocator/findLocations", "@spider": "usps_collection_boxes", "addr:city": "AKRON", "addr:country": "US", "addr:postcode": "44312", "addr:state": "OH", "addr:street_address": "2525 WEDGEWOOD DR", "amenity": "post_box", "collection_times": "Mo-Sa 08:15", "nsi_id": "unitedstatespostalservice-a77078", "operator": "United States Postal Service", "operator:short": "USPS", "operator:type": "public", "operator:wikidata": "Q668687", "ref": "4431200037"}, "type": "Feature"}
{"geometry": {"coordinates": [-81.443799, 41.049296], "type": "Point"}, "id": "BsLM0hfnq0RC20ny4zfQgwBEGi0=", "properties": {"@source_uri": "https://tools.usps.com/UspsToolsRestServices/rest/POLocator/findLocations", "@spider": "usps_collection_boxes", "addr:city": "AKRON", "addr:country": "US", "addr:postcode": "44312", "addr:state": "OH", "addr:street_address": "2390 WEDGEWOOD DR", "amenity": "post_box", "collection_times": "Mo-Fr 17:00; Sa 15:00", "note": "ON 12/24 AND 12/31, THIS BOX MAY BE COLLECTED AS EARLY AS 12 NOON.", "nsi_id": "unitedstatespostalservice-a77078", "operator": "United States Postal Service", "operator:short": "USPS", "operator:type": "public", "operator:wikidata": "Q668687", "ref": "4431200038"}, "type": "Feature"}
{"geometry": {"coordinates": [-81.4581519, 41.005925], "type": "Point"}, "id": "c3tdJXdoqE5Xu5nn0L4SxNxlgj8=", "properties": {"@source_uri": "https://tools.usps.com/UspsToolsRestServices/rest/POLocator/findLocations", "@spider": "usps_collection_boxes", "addr:city": "AKRON", "addr:country": "US", "addr:postcode": "44312", "addr:state": "OH", "addr:street_address": "2140 MARTIN CREST DR", "amenity": "post_box", "collection_times": "Mo-Sa 09:30", "nsi_id": "unitedstatespostalservice-a77078", "operator": "United States Postal Service", "operator:short": "USPS", "operator:type": "public", "operator:wikidata": "Q668687", "ref": "4431200042"}, "type": "Feature"}
{"geometry": {"coordinates": [-81.4363003, 41.044328], "type": "Point"}, "id": "P_78j0Scbr9aEfe2V7EgqZVTK6U=", "properties": {"@source_uri": "https://tools.usps.com/UspsToolsRestServices/rest/POLocator/findLocations", "@spider": "usps_collection_boxes", "addr:city": "AKRON", "addr:country": "US", "addr:postcode": "44312", "addr:state": "OH", "addr:street_address": "711 CANTON RD", "amenity": "post_box", "collection_times": "Mo-Sa 10:00", "nsi_id": "unitedstatespostalservice-a77078", "operator": "United States Postal Service", "operator:short": "USPS", "operator:type": "public", "operator:wikidata": "Q668687", "ref": "4431200044"}, "type": "Feature"}
{"geometry": {"coordinates": [-81.4438509, 41.049252], "type": "Point"}, "id": "qu0qbMWWbmocOcvKoMPOvMEFyiQ=", "properties": {"@source_uri": "https://tools.usps.com/UspsToolsRestServices/rest/POLocator/findLocations", "@spider": "usps_collection_boxes", "addr:city": "AKRON", "addr:country": "US", "addr:postcode": "44312", "addr:state": "OH", "addr:street_address": "2390 WEDGEWOOD DR", "amenity": "post_box", "collection_times": "Mo-Fr 17:00; Sa 15:00", "note": "ON 12/24 AND 12/31, THIS BOX MAY BE COLLECTED AS EARLY AS 12 NOON.", "nsi_id": "unitedstatespostalservice-a77078", "operator": "United States Postal Service", "operator:short": "USPS", "operator:type": "public", "operator:wikidata": "Q668687", "ref": "4431200048"}, "type": "Feature"}
{"geometry": {"coordinates": [-81.4437429, 41.049214], "type": "Point"}, "id": "sYJszsHGBkH-Hl_HjVhCMrZoNi8=", "properties": {"@source_uri": "https://tools.usps.com/UspsToolsRestServices/rest/POLocator/findLocations", "@spider": "usps_collection_boxes", "addr:city": "AKRON", "addr:country": "US", "addr:postcode": "44312", "addr:state": "OH", "addr:street_address": "2390 WEDGEWOOD DR", "amenity": "post_box", "collection_times": "Mo-Fr 17:00; Sa 15:00", "indoor": "yes", "note": "ON 12/24 AND 12/31, THIS BOX MAY BE COLLECTED AS EARLY AS 12 NOON.", "nsi_id": "unitedstatespostalservice-a77078", "operator": "United States Postal Service", "operator:short": "USPS", "operator:type": "public", "operator:wikidata": "Q668687", "ref": "4431200050"}, "type": "Feature"}
{"geometry": {"coordinates": [-81.4454649, 41.057354], "type": "Point"}, "id": "aPHsM8KsM5HNMn_LxZTbLOBEshY=", "properties": {"@source_uri": "https://tools.usps.com/UspsToolsRestServices/rest/POLocator/findLocations", "@spider": "usps_collection_boxes", "addr:city": "AKRON", "addr:country": "US", "addr:postcode": "44312", "addr:state": "OH", "addr:street_address": "2331 E MARKET ST", "amenity": "post_box", "collection_times": "Mo-Sa 08:15", "nsi_id": "unitedstatespostalservice-a77078", "operator": "United States Postal Service", "operator:short": "USPS", "operator:type": "public", "operator:wikidata": "Q668687", "ref": "4431200051"}, "type": "Feature"}
{"geometry": {"coordinates": [-81.4531304, 41.032969], "type": "Point"}, "id": "bu_BAMKufKYjNI4r3utHwToh6W4=", "properties": {"@source_uri": "https://tools.usps.com/UspsToolsRestServices/rest/POLocator/findLocations", "@spider": "usps_collection_boxes", "addr:city": "AKRON", "addr:country": "US", "addr:postcode": "44312", "addr:state": "OH", "addr:street_address": "2215 E WATERLOO RD", "amenity": "post_box", "collection_times": "Mo-Sa 09:45", "nsi_id": "unitedstatespostalservice-a77078", "operator": "United States Postal Service", "operator:short": "USPS", "operator:type": "public", "operator:wikidata": "Q668687", "ref": "4431200064"}, "type": "Feature"}
{"geometry": {"coordinates": [-81.4929612, 40.976352], "type": "Point"}, "id": "3GZZFs5U9MFFyy9ThUQWSD-P8BM=", "properties": {"@source_uri": "https://tools.usps.com/UspsToolsRestServices/rest/POLocator/findLocations", "@spider": "usps_collection_boxes", "addr:city": "AKRON", "addr:country": "US", "addr:postcode": "44312", "addr:state": "OH", "addr:street_address": "3465 S ARLINGTON RD", "amenity": "post_box", "collection_times": "Mo-Sa 10:00", "nsi_id": "unitedstatespostalservice-a77078", "operator": "United States Postal Service", "operator:short": "USPS", "operator:type": "public", "operator:wikidata": "Q668687", "ref": "4431200065"}, "type": "Feature"}
{"geometry": {"coordinates": [-81.443313388, 41.04969054], "type": "Point"}, "id": "uQ378BJrGCqISZXfS9LWnTTCHNw=", "properties": {"@source_uri": "https://tools.usps.com/UspsToolsRestServices/rest/POLocator/findLocations", "@spider": "usps_collection_boxes", "addr:city": "AKRON", "addr:country": "US", "addr:postcode": "44312", "addr:state": "OH", "addr:street_address": "2390 WEDGEWOOD DR", "amenity": "post_box", "collection_times": "Mo-Fr 17:00; Sa 12:00", "indoor": "yes", "note": "ON 12/24 AND 12/31, THIS BOX MAY BE COLLECTED AS EARLY AS 12 NOON.", "nsi_id": "unitedstatespostalservice-a77078", "operator": "United States Postal Service", "operator:short": "USPS", "operator:type": "public", "operator:wikidata": "Q668687", "ref": "4431200072"}, "type": "Feature"}
{"geometry": {"coordinates": [-81.5794478, 41.142336], "type": "Point"}, "id": "4kqStCIa3swwCGj9zr7vID0pO1Q=", "properties": {"@source_uri": "https://tools.usps.com/UspsToolsRestServices/rest/POLocator/findLocations", "@spider": "usps_collection_boxes", "addr:city": "AKRON", "addr:country": "US", "addr:postcode": "44313", "addr:state": "OH", "addr:street_address": "1840 BROOKWOOD DR", "amenity": "post_box", "collection_times": "Mo-Sa 10:30", "nsi_id": "unitedstatespostalservice-a77078", "operator": "United States Postal Service", "operator:short": "USPS", "operator:type": "public", "operator:wikidata": "Q668687", "ref": "4431300003"}, "type": "Feature"}
{"geometry": {"coordinates": [-81.5980974, 41.122989], "type": "Point"}, "id": "QQ92CWcbrkeHO4JoDKZf6yLW_Q0=", "properties": {"@source_uri": "https://tools.usps.com/UspsToolsRestServices/rest/POLocator/findLocations", "@spider": "usps_collection_boxes", "addr:city": "AKRON", "addr:country": "US", "addr:postcode": "44313", "addr:state": "OH", "addr:street_address": "2603 W MARKET ST", "amenity": "post_box", "collection_times": "Mo-Sa 11:00", "nsi_id": "unitedstatespostalservice-a77078", "operator": "United States Postal Service", "operator:short": "USPS", "operator:type": "public", "operator:wikidata": "Q668687", "ref": "4431300005"}, "type": "Feature"}
{"geometry": {"coordinates": [-81.5874272, 41.118069], "type": "Point"}, "id": "YIGWFrybZfotNotCoccbY-Jrw-E=", "properties": {"@source_uri": "https://tools.usps.com/UspsToolsRestServices/rest/POLocator/findLocations", "@spider": "usps_collection_boxes", "addr:city": "AKRON", "addr:country": "US", "addr:postcode": "44313", "addr:state": "OH", "addr:street_address": "2108 BRAEWICK CIR", "amenity": "post_box", "collection_times": "Mo-Sa 11:30", "nsi_id": "unitedstatespostalservice-a77078", "operator": "United States Postal Service", "operator:short": "USPS", "operator:type": "public", "operator:wikidata": "Q668687", "ref": "4431300010"}, "type": "Feature"}
{"geometry": {"coordinates": [-81.5622123, 41.121824], "type": "Point"}, "id": "UgnO51Uo5ukqGAUx_rdYiYP5sT0=", "properties": {"@source_uri": "https://tools.usps.com/UspsToolsRestServices/rest/POLocator/findLocations", "@spider": "usps_collection_boxes", "addr:city": "AKRON", "addr:country": "US", "addr:postcode": "44313", "addr:state": "OH", "addr:street_address": "594 CASTLE BLVD", "amenity": "post_box", "collection_times": "Mo-Sa 09:00", "nsi_id": "unitedstatespostalservice-a77078", "operator": "United States Postal Service", "operator:short": "USPS", "operator:type": "public", "operator:wikidata": "Q668687", "ref": "4431300012"}, "type": "Feature"}
{"geometry": {"coordinates": [-81.5622773, 41.101264], "type": "Point"}, "id": "olS73u70vjdrGcfQ5l5ALP7qllQ=", "properties": {"@source_uri": "https://tools.usps.com/UspsToolsRestServices/rest/POLocator/findLocations", "@spider": "usps_collection_boxes", "addr:city": "AKRON", "addr:country": "US", "addr:postcode": "44313", "addr:state": "OH", "addr:street_address": "1432 JEFFERSON AVE", "amenity": "post_box", "collection_times": "Mo-Sa 11:00", "nsi_id": "unitedstatespostalservice-a77078", "operator": "United States Postal Service", "operator:short": "USPS", "operator:type": "public", "operator:wikidata": "Q668687", "ref": "4431300016"}, "type": "Feature"}
{"geometry": {"coordinates": [-81.579296066, 41.137479831], "type": "Point"}, "id": "fMXKWVReZSeo4GSVJv-dsfzTHng=", "properties": {"@source_uri": "https://tools.usps.com/UspsToolsRestServices/rest/POLocator/findLocations", "@spider": "usps_collection_boxes", "addr:city": "AKRON", "addr:country": "US", "addr:postcode": "44313", "addr:state": "OH", "addr:street_address": "929 HAMPTON RIDGE DR", "amenity": "post_box", "collection_times": "Mo-Sa 12:30", "note": "ON 12/24 AND 12/31, THIS BOX MAY BE COLLECTED AS EARLY AS 12 NOON.", "nsi_id": "unitedstatespostalservice-a77078", "operator": "United States Postal Service", "operator:short": "USPS", "operator:type": "public", "operator:wikidata": "Q668687", "ref": "4431300022"}, "type": "Feature"}
{"geometry": {"coordinates": [-81.5656593, 41.107585], "type": "Point"}, "id": "G7B9BiRv3agQT1MD8x-6dktZ8zM=", "properties": {"@source_uri": "https://tools.usps.com/UspsToolsRestServices/rest/POLocator/findLocations", "@spider": "usps_collection_boxes", "addr:city": "AKRON", "addr:country": "US", "addr:postcode": "44313", "addr:state": "OH", "addr:street_address": "1546 W MARKET ST", "amenity": "post_box", "collection_times": "Mo-Fr 15:45; Sa 11:15", "note": "ON 12/24 AND 12/31, THIS BOX MAY BE COLLECTED AS EARLY AS 12 NOON.", "nsi_id": "unitedstatespostalservice-a77078", "operator": "United States Postal Service", "operator:short": "USPS", "operator:type": "public", "operator:wikidata": "Q668687", "ref": "4431300026"}, "type": "Feature"}
{"geometry": {"coordinates": [-81.5456442, 41.097179], "type": "Point"}, "id": "l0deu7Pns1Z-WmKz9vz0JKGHXKI=", "properties": {"@source_uri": "https://tools.usps.com/UspsToolsRestServices/rest/POLocator/findLocations", "@spider": "usps_collection_boxes", "addr:city": "AKRON", "addr:country": "US", "addr:postcode": "44313", "addr:state": "OH", "addr:street_address": "900 W MARKET ST", "amenity": "post_box", "collection_times": "Mo-Sa 12:00", "nsi_id": "unitedstatespostalservice-a77078", "operator": "United States Postal Service", "operator:short": "USPS", "operator:type": "public", "operator:wikidata": "Q668687", "ref": "4431300035"}, "type": "Feature"}
{"geometry": {"coordinates": [-81.583269, 41.10057], "type": "Point"}, "id": "4a9ukv8O6u_YT6B1sXrvNhF5ytA=", "properties": {"@source_uri": "https://tools.usps.com/UspsToolsRestServices/rest/POLocator/findLocations", "@spider": "usps_collection_boxes", "addr:city": "AKRON", "addr:country": "US", "addr:postcode": "44313", "addr:state": "OH", "addr:street_address": "945 MULL AVE", "amenity": "post_box", "collection_times": "Mo-Sa 09:00", "nsi_id": "unitedstatespostalservice-a77078", "operator": "United States Postal Service", "operator:short": "USPS", "operator:type": "public", "operator:wikidata": "Q668687", "ref": "4431300037"}, "type": "Feature"}
{"geometry": {"coordinates": [-81.5482849, 41.13456], "type": "Point"}, "id": "GFhDy7Ex6hYp13sHCOdUjvhxnzE=", "properties": {"@source_uri": "https://tools.usps.com/UspsToolsRestServices/rest/POLocator/findLocations", "@spider": "usps_collection_boxes", "addr:city": "AKRON", "addr:country": "US", "addr:postcode": "44313", "addr:state": "OH", "addr:street_address": "1460 N PORTAGE PATH", "amenity": "post_box", "collection_times": "Mo-Sa 09:30", "nsi_id": "unitedstatespostalservice-a77078", "operator": "United States Postal Service", "operator:short": "USPS", "operator:type": "public", "operator:wikidata": "Q668687", "ref": "4431300039"}, "type": "Feature"}
{"geometry": {"coordinates": [-81.5741939664, 41.113132984], "type": "Point"}, "id": "dyt2vvzaFnqvn8KVeKMXA72pkfM=", "properties": {"@source_uri": "https://tools.usps.com/UspsToolsRestServices/rest/POLocator/findLocations", "@spider": "usps_collection_boxes", "addr:city": "AKRON", "addr:country": "US", "addr:postcode": "44313", "addr:state": "OH", "addr:street_address": "1835 W MARKET ST", "amenity": "post_box", "collection_times": "Mo-Sa 11:00", "nsi_id": "unitedstatespostalservice-a77078", "operator": "United States Postal Service", "operator:short": "USPS", "operator:type": "public", "operator:wikidata": "Q668687", "ref": "4431300052"}, "type": "Feature"}
{"geometry": {"coordinates": [-81.5522649, 41.136159], "type": "Point"}, "id": "LnXtWbKc57o-5YnQR9Lmph3Cflo=", "properties": {"@source_uri": "https://tools.usps.com/UspsToolsRestServices/rest/POLocator/findLocations", "@spider": "usps_collection_boxes", "addr:city": "AKRON", "addr:country": "US", "addr:postcode": "44313", "addr:state": "OH", "addr:street_address": "1326 WEATHERVANE LN", "amenity": "post_box", "collection_times": "Mo-Fr 15:45; Sa 10:45", "note": "ON 12/24 AND 12/31, THIS BOX MAY BE COLLECTED AS EARLY AS 12 NOON.", "nsi_id": "unitedstatespostalservice-a77078", "operator": "United States Postal Service", "operator:short": "USPS", "operator:type": "public", "operator:wikidata": "Q668687", "ref": "4431300055"}, "type": "Feature"}
{"geometry": {"coordinates": [-81.5874426, 41.118091], "type": "Point"}, "id": "YbkEdGL-KoYVu2lAC_cWx4eOmrE=", "properties": {"@source_uri": "https://tools.usps.com/UspsToolsRestServices/rest/POLocator/findLocations", "@spider": "usps_collection_boxes", "addr:city": "AKRON", "addr:country": "US", "addr:postcode": "44313", "addr:state": "OH", "addr:street_address": "2108 BRAEWICK CIR", "amenity": "post_box", "collection_times": "Mo-Sa 11:30", "nsi_id": "unitedstatespostalservice-a77078", "operator": "United States Postal Service", "operator:short": "USPS", "operator:type": "public", "operator:wikidata": "Q668687", "ref": "4431300061"}, "type": "Feature"}
{"geometry": {"coordinates": [-81.5656471, 41.107582], "type": "Point"}, "id": "fLryj8IcHDqDKCrfIcnXnLHq9tI=", "properties": {"@source_uri": "https://tools.usps.com/UspsToolsRestServices/rest/POLocator/findLocations", "@spider": "usps_collection_boxes", "addr:city": "AKRON", "addr:country": "US", "addr:postcode": "44313", "addr:state": "OH", "addr:street_address": "1546 W MARKET ST", "amenity": "post_box", "collection_times": "Mo-Sa 11:00", "nsi_id": "unitedstatespostalservice-a77078", "operator": "United States Postal Service", "operator:short": "USPS", "operator:type": "public", "operator:wikidata": "Q668687", "ref": "4431300063"}, "type": "Feature"}
{"geometry": {"coordinates": [-81.5479686, 41.136878], "type": "Point"}, "id": "1ZEePz72YtBVpofp4odB9Qdyed8=", "properties": {"@source_uri": "https://tools.usps.com/UspsToolsRestServices/rest/POLocator/findLocations", "@spider": "usps_collection_boxes", "addr:city": "AKRON", "addr:country": "US", "addr:postcode": "44313", "addr:state": "OH", "addr:street_address": "1562 AKRON PENINSULA RD", "amenity": "post_box", "collection_times": "Mo-Sa 11:30", "nsi_id": "unitedstatespostalservice-a77078", "operator": "United States Postal Service", "operator:short": "USPS", "operator:type": "public", "operator:wikidata": "Q668687", "ref": "4431300064"}, "type": "Feature"}
{"geometry": {"coordinates": [-81.5765617, 41.11198], "type": "Point"}, "id": "tviyuUFq58kGT4stjDsw7g7YQyE=", "properties": {"@source_uri": "https://tools.usps.com/UspsToolsRestServices/rest/POLocator/findLocations", "@spider": "usps_collection_boxes", "addr:city": "AKRON", "addr:country": "US", "addr:postcode": "44313", "addr:state": "OH", "addr:street_address": "1900 W MARKET ST", "amenity": "post_box", "collection_times": "Sa 11:15", "nsi_id": "unitedstatespostalservice-a77078", "operator": "United States Postal Service", "operator:short": "USPS", "operator:type": "public", "operator:wikidata": "Q668687", "ref": "4431300068"}, "type": "Feature"}
{"geometry": {"coordinates": [-81.5522658, 41.13615], "type": "Point"}, "id": "yc-AOmdQRx07Ngjk5rjEgxpLXIE=", "properties": {"@source_uri": "https://tools.usps.com/UspsToolsRestServices/rest/POLocator/findLocations", "@spider": "usps_collection_boxes", "addr:city": "AKRON", "addr:country": "US", "addr:postcode": "44313", "addr:state": "OH", "addr:street_address": "1326 WEATHERVANE LN", "amenity": "post_box", "collection_times": "Mo-Fr 15:45; Sa 10:45", "note": "ON 12/24 AND 12/31, THIS BOX MAY BE COLLECTED AS EARLY AS 12 NOON.", "nsi_id": "unitedstatespostalservice-a77078", "operator": "United States Postal Service", "operator:short": "USPS", "operator:type": "public", "operator:wikidata": "Q668687", "ref": "4431300069"}, "type": "Feature"}
{"geometry": {"coordinates": [-81.575423, 41.039273], "type": "Point"}, "id": "8Ch3jOtYzPQYWdKEmjPn9I3diE4=", "properties": {"@source_uri": "https://tools.usps.com/UspsToolsRestServices/rest/POLocator/findLocations", "@spider": "usps_collection_boxes", "addr:city": "AKRON", "addr:country": "US", "addr:postcode": "44314", "addr:state": "OH", "addr:street_address": "2394 EAST AVE", "amenity": "post_box", "collection_times": "Mo-Fr 17:00; Sa 15:00", "note": "ON 12/24 AND 12/31, THIS BOX MAY BE COLLECTED AS EARLY AS 12 NOON.", "nsi_id": "unitedstatespostalservice-a77078", "operator": "United States Postal Service", "operator:short": "USPS", "operator:type": "public", "operator:wikidata": "Q668687", "ref": "4431400001"}, "type": "Feature"}
{"geometry": {"coordinates": [-81.576292, 41.039166], "type": "Point"}, "id": "qQNh3yW0K-81j7-P0Jze99jxjEM=", "properties": {"@source_uri": "https://tools.usps.com/UspsToolsRestServices/rest/POLocator/findLocations", "@spider": "usps_collection_boxes", "addr:city": "AKRON", "addr:country": "US", "addr:postcode": "44314", "addr:state": "OH", "addr:street_address": "2394 EAST AVE", "amenity": "post_box", "collection_times": "Mo-Fr 17:00; Sa 15:00", "indoor": "yes", "note": "ON 12/24 AND 12/31, THIS BOX MAY BE COLLECTED AS EARLY AS 12 NOON.", "nsi_id": "unitedstatespostalservice-a77078", "operator": "United States Postal Service", "operator:short": "USPS", "operator:type": "public", "operator:wikidata": "Q668687", "ref": "4431400003"}, "type": "Feature"}
{"geometry": {"coordinates": [-81.570814, 41.045146], "type": "Point"}, "id": "aBeSPv7TGrmF9jrVsEEIHe5qWWE=", "properties": {"@source_uri": "https://tools.usps.com/UspsToolsRestServices/rest/POLocator/findLocations", "@spider": "usps_collection_boxes", "addr:city": "AKRON", "addr:country": "US", "addr:postcode": "44314", "addr:state": "OH", "addr:street_address": "2147 EAST AVE", "amenity": "post_box", "collection_times": "Mo-Sa 13:00", "note": "ON 12/24 AND 12/31, THIS BOX MAY BE COLLECTED AS EARLY AS 12 NOON.", "nsi_id": "unitedstatespostalservice-a77078", "operator": "United States Postal Service", "operator:short": "USPS", "operator:type": "public", "operator:wikidata": "Q668687", "ref": "4431400015"}, "type": "Feature"}
{"geometry": {"coordinates": [-81.5552446, 41.0439], "type": "Point"}, "id": "desorqaLUnv78lF22h6U6oQbQz8=", "properties": {"@source_uri": "https://tools.usps.com/UspsToolsRestServices/rest/POLocator/findLocations", "@spider": "usps_collection_boxes", "addr:city": "AKRON", "addr:country": "US", "addr:postcode": "44314", "addr:state": "OH", "addr:street_address": "873 KENMORE BLVD", "amenity": "post_box", "collection_times": "Mo-Sa 09:00", "nsi_id": "unitedstatespostalservice-a77078", "operator": "United States Postal Service", "operator:short": "USPS", "operator:type": "public", "operator:wikidata": "Q668687", "ref": "4431400029"}, "type": "Feature"}
{"geometry": {"coordinates": [-81.5512905, 41.031597], "type": "Point"}, "id": "Rgb3vPgnS5hCJ757nJpFDgCF5mI=", "properties": {"@source_uri": "https://tools.usps.com/UspsToolsRestServices/rest/POLocator/findLocations", "@spider": "usps_collection_boxes", "addr:city": "AKRON", "addr:country": "US", "addr:postcode": "44314", "addr:state": "OH", "addr:street_address": "690 W WATERLOO RD", "amenity": "post_box", "collection_times": "Mo-Sa 09:15", "nsi_id": "unitedstatespostalservice-a77078", "operator": "United States Postal Service", "operator:short": "USPS", "operator:type": "public", "operator:wikidata": "Q668687", "ref": "4431400032"}, "type": "Feature"}
{"geometry": {"coordinates": [-81.5439533, 41.030134], "type": "Point"}, "id": "5atHbOfUINrXlxaL-bQmoDvo7qQ=", "properties": {"@source_uri": "https://tools.usps.com/UspsToolsRestServices/rest/POLocator/findLocations", "@spider": "usps_collection_boxes", "addr:city": "AKRON", "addr:country": "US", "addr:postcode": "44314", "addr:state": "OH", "addr:street_address": "485 W WATERLOO RD", "amenity": "post_box", "collection_times": "Mo-Sa 09:45", "nsi_id": "unitedstatespostalservice-a77078", "operator": "United States Postal Service", "operator:short": "USPS", "operator:type": "public", "operator:wikidata": "Q668687", "ref": "4431400038"}, "type": "Feature"}
{"geometry": {"coordinates": [-81.5635274, 41.026562], "type": "Point"}, "id": "5yKmyA_SHRyI53QfPZHKySS6vY4=", "properties": {"@source_uri": "https://tools.usps.com/UspsToolsRestServices/rest/POLocator/findLocations", "@spider": "usps_collection_boxes", "addr:city": "AKRON", "addr:country": "US", "addr:postcode": "44314", "addr:state": "OH", "addr:street_address": "2814 WINGATE AVE", "amenity": "post_box", "collection_times": "Mo-Sa 11:00", "nsi_id": "unitedstatespostalservice-a77078", "operator": "United States Postal Service", "operator:short": "USPS", "operator:type": "public", "operator:wikidata": "Q668687", "ref": "4431400041"}, "type": "Feature"}
{"geometry": {"coordinates": [-81.576, 41.039388], "type": "Point"}, "id": "Lgn66rAu8tDnoeRTgGE3bYTBBK0=", "properties": {"@source_uri": "https://tools.usps.com/UspsToolsRestServices/rest/POLocator/findLocations", "@spider": "usps_collection_boxes", "addr:city": "AKRON", "addr:country": "US", "addr:postcode": "44314", "addr:state": "OH", "addr:street_address": "2394 EAST AVE", "amenity": "post_box", "collection_times": "Mo-Fr 17:00; Sa 15:00", "name": "USPS COLLECTION BOX - EXPRESS", "note": "ON 12/24 AND 12/31, THIS BOX MAY BE COLLECTED AS EARLY AS 12 NOON.", "nsi_id": "unitedstatespostalservice-a77078", "operator": "United States Postal Service", "operator:short": "USPS", "operator:type": "public", "operator:wikidata": "Q668687", "ref": "4431400044"}, "type": "Feature"}
{"geometry": {"coordinates": [-81.5532660305, 41.0240660007], "type": "Point"}, "id": "UdFx0Q-eBd_V7a5QuOi7MXBlzGg=", "properties": {"@source_uri": "https://tools.usps.com/UspsToolsRestServices/rest/POLocator/findLocations", "@spider": "usps_collection_boxes", "addr:city": "AKRON", "addr:country": "US", "addr:postcode": "44314", "addr:state": "OH", "addr:street_address": "666 CARNEGIE AVE", "amenity": "post_box", "collection_times": "Mo-Sa 12:00", "nsi_id": "unitedstatespostalservice-a77078", "operator": "United States Postal Service", "operator:short": "USPS", "operator:type": "public", "operator:wikidata": "Q668687", "ref": "4431400046"}, "type": "Feature"}
{"geometry": {"coordinates": [-81.576292, 41.039166], "type": "Point"}, "id": "HE1NdQ3NfBJfDT1e7ndkkO5AeIU=", "properties": {"@source_uri": "https://tools.usps.com/UspsToolsRestServices/rest/POLocator/findLocations", "@spider": "usps_collection_boxes", "addr:city": "AKRON", "addr:country": "US", "addr:postcode": "44314", "addr:state": "OH", "addr:street_address": "2394 EAST AVE", "amenity": "post_box", "collection_times": "Mo-Fr 17:00; Sa 15:00", "indoor": "yes", "note": "ON 12/24 AND 12/31, THIS BOX MAY BE COLLECTED AS EARLY AS 12 NOON.", "nsi_id": "unitedstatespostalservice-a77078", "operator": "United States Postal Service", "operator:short": "USPS", "operator:type": "public", "operator:wikidata": "Q668687", "ref": "4431400047"}, "type": "Feature"}
{"geometry": {"coordinates": [-81.575389567, 41.039212022], "type": "Point"}, "id": "sld9aykUzj5Z1SNxoyitqeoYqUA=", "properties": {"@source_uri": "https://tools.usps.com/UspsToolsRestServices/rest/POLocator/findLocations", "@spider": "usps_collection_boxes", "addr:city": "AKRON", "addr:country": "US", "addr:postcode": "44314", "addr:state": "OH", "addr:street_address": "2394 EAST AVE", "amenity": "post_box", "collection_times": "Mo-Fr 17:00; Sa 12:00", "indoor": "yes", "note": "ON 12/24 AND 12/31, THIS BOX MAY BE COLLECTED AS EARLY AS 12 NOON.", "nsi_id": "unitedstatespostalservice-a77078", "operator": "United States Postal Service", "operator:short": "USPS", "operator:type": "public", "operator:wikidata": "Q668687", "ref": "4431400050"}, "type": "Feature"}
{"geometry": {"coordinates": [-81.5244862, 41.02223], "type": "Point"}, "id": "Ir-HPJYbTVGpIe0SYcg3ioys1Bo=", "properties": {"@source_uri": "https://tools.usps.com/UspsToolsRestServices/rest/POLocator/findLocations", "@spider": "usps_collection_boxes", "addr:city": "AKRON", "addr:country": "US", "addr:postcode": "44319", "addr:state": "OH", "addr:street_address": "66 HANNA PKWY", "amenity": "post_box", "collection_times": "Mo-Fr 14:00", "note": "ON 12/24 AND 12/31, THIS BOX MAY BE COLLECTED AS EARLY AS 12 NOON.", "nsi_id": "unitedstatespostalservice-a77078", "operator": "United States Postal Service", "operator:short": "USPS", "operator:type": "public", "operator:wikidata": "Q668687", "ref": "4431900004"}, "type": "Feature"}
{"geometry": {"coordinates": [-81.5205123, 40.977658], "type": "Point"}, "id": "SaXKK9OIqJZat48CYNicX-Q1ALo=", "properties": {"@source_uri": "https://tools.usps.com/UspsToolsRestServices/rest/POLocator/findLocations", "@spider": "usps_collection_boxes", "addr:city": "AKRON", "addr:country": "US", "addr:postcode": "44319", "addr:state": "OH", "addr:street_address": "4019 S MAIN ST", "amenity": "post_box", "collection_times": "Mo-Sa 10:00", "nsi_id": "unitedstatespostalservice-a77078", "operator": "United States Postal Service", "operator:short": "USPS", "operator:type": "public", "operator:wikidata": "Q668687", "ref": "4431900007"}, "type": "Feature"}
{"geometry": {"coordinates": [-81.5299647, 40.957542], "type": "Point"}, "id": "2UFiNTGW8Zl7r5z8GvRtps0OIx0=", "properties": {"@source_uri": "https://tools.usps.com/UspsToolsRestServices/rest/POLocator/findLocations", "@spider": "usps_collection_boxes", "addr:city": "AKRON", "addr:country": "US", "addr:postcode": "44319", "addr:state": "OH", "addr:street_address": "4875 S MAIN ST", "amenity": "post_box", "collection_times": "Mo-Sa 14:00", "note": "ON 12/24 AND 12/31, THIS BOX MAY BE COLLECTED AS EARLY AS 12 NOON.", "nsi_id": "unitedstatespostalservice-a77078", "operator": "United States Postal Service", "operator:short": "USPS", "operator:type": "public", "operator:wikidata": "Q668687", "ref": "4431900008"}, "type": "Feature"}
{"geometry": {"coordinates": [-81.5558618, 41.00607], "type": "Point"}, "id": "s3uY8OGTGRUi7Ox6xRAxAbBR4ic=", "properties": {"@source_uri": "https://tools.usps.com/UspsToolsRestServices/rest/POLocator/findLocations", "@spider": "usps_collection_boxes", "addr:city": "AKRON", "addr:country": "US", "addr:postcode": "44319", "addr:state": "OH", "addr:street_address": "3444 MANCHESTER RD", "amenity": "post_box", "collection_times": "Mo-Sa 11:30", "nsi_id": "unitedstatespostalservice-a77078", "operator": "United States Postal Service", "operator:short": "USPS", "operator:type": "public", "operator:wikidata": "Q668687", "ref": "4431900009"}, "type": "Feature"}
{"geometry": {"coordinates": [-81.5695277, 40.941362], "type": "Point"}, "id": "GTpidwg-UdJ7H42tkDaJKjsKYO0=", "properties": {"@source_uri": "https://tools.usps.com/UspsToolsRestServices/rest/POLocator/findLocations", "@spider": "usps_collection_boxes", "addr:city": "AKRON", "addr:country": "US", "addr:postcode": "44319", "addr:state": "OH", "addr:street_address": "6020 MANCHESTER RD", "amenity": "post_box", "collection_times": "Mo-Sa 12:00", "nsi_id": "unitedstatespostalservice-a77078", "operator": "United States Postal Service", "operator:short": "USPS", "operator:type": "public", "operator:wikidata": "Q668687", "ref": "4431900010"}, "type": "Feature"}
{"geometry": {"coordinates": [-81.5685084, 40.93772], "type": "Point"}, "id": "Pxg3ReE7bBUa6Rp6NYi5KKKGE-w=", "properties": {"@source_uri": "https://tools.usps.com/UspsToolsRestServices/rest/POLocator/findLocations", "@spider": "usps_collection_boxes", "addr:city": "AKRON", "addr:country": "US", "addr:postcode": "44319", "addr:state": "OH", "addr:street_address": "955 W NIMISILA RD", "amenity": "post_box", "collection_times": "Mo-Sa 09:30", "nsi_id": "unitedstatespostalservice-a77078", "operator": "United States Postal Service", "operator:short": "USPS", "operator:type": "public", "operator:wikidata": "Q668687", "ref": "4431900011"}, "type": "Feature"}
{"geometry": {"coordinates": [-81.5519508, 41.012771], "type": "Point"}, "id": "CXBSueNjbllEdWMQL1UioWmFAy0=", "properties": {"@source_uri": "https://tools.usps.com/UspsToolsRestServices/rest/POLocator/findLocations", "@spider": "usps_collection_boxes", "addr:city": "AKRON", "addr:country": "US", "addr:postcode": "44319", "addr:state": "OH", "addr:street_address": "3235 MANCHESTER RD", "amenity": "post_box", "collection_times": "Mo-Sa 10:00", "nsi_id": "unitedstatespostalservice-a77078", "operator": "United States Postal Service", "operator:short": "USPS", "operator:type": "public", "operator:wikidata": "Q668687", "ref": "4431900012"}, "type": "Feature"}
{"geometry": {"coordinates": [-81.5359437, 40.995549], "type": "Point"}, "id": "LQEOE4jo6xz3HQhppPAclpvubeQ=", "properties": {"@source_uri": "https://tools.usps.com/UspsToolsRestServices/rest/POLocator/findLocations", "@spider": "usps_collection_boxes", "addr:city": "AKRON", "addr:country": "US", "addr:postcode": "44319", "addr:state": "OH", "addr:street_address": "470 PORTAGE LAKES DR", "amenity": "post_box", "collection_times": "Mo-Sa 09:30", "nsi_id": "unitedstatespostalservice-a77078", "operator": "United States Postal Service", "operator:short": "USPS", "operator:type": "public", "operator:wikidata": "Q668687", "ref": "4431900013"}, "type": "Feature"}
{"geometry": {"coordinates": [-81.5125402, 41.027704], "type": "Point"}, "id": "4yhjQoKqnqkcWH-8UD64jTM2F3U=", "properties": {"@source_uri": "https://tools.usps.com/UspsToolsRestServices/rest/POLocator/findLocations", "@spider": "usps_collection_boxes", "addr:city": "AKRON", "addr:country": "US", "addr:postcode": "44319", "addr:state": "OH", "addr:street_address": "400 E WATERLOO RD", "amenity": "post_box", "collection_times": "Mo-Sa 09:30", "nsi_id": "unitedstatespostalservice-a77078", "operator": "United States Postal Service", "operator:short": "USPS", "operator:type": "public", "operator:wikidata": "Q668687", "ref": "4431900016"}, "type": "Feature"}
{"geometry": {"coordinates": [-81.510487, 41.027026], "type": "Point"}, "id": "5BP8QKY92pidzZ7h07xXPwQEJLw=", "properties": {"@source_uri": "https://tools.usps.com/UspsToolsRestServices/rest/POLocator/findLocations", "@spider": "usps_collection_boxes", "addr:city": "AKRON", "addr:country": "US", "addr:postcode": "44319", "addr:state": "OH", "addr:street_address": "2001 BROWN ST", "amenity": "post_box", "collection_times": "Mo-Fr 17:00; Sa 15:00", "indoor": "yes", "note": "ON 12/24 AND 12/31, THIS BOX MAY BE COLLECTED AS EARLY AS 12 NOON.", "nsi_id": "unitedstatespostalservice-a77078", "operator": "United States Postal Service", "operator:short": "USPS", "operator:type": "public", "operator:wikidata": "Q668687", "ref": "4431900020"}, "type": "Feature"}
{"geometry": {"coordinates": [-81.510487, 41.027026], "type": "Point"}, "id": "SRQZ6FSPQTMwTDGhOZOZehonBgM=", "properties": {"@source_uri": "https://tools.usps.com/UspsToolsRestServices/rest/POLocator/findLocations", "@spider": "usps_collection_boxes", "addr:city": "AKRON", "addr:country": "US", "addr:postcode": "44319", "addr:state": "OH", "addr:street_address": "2001 BROWN ST", "amenity": "post_box", "collection_times": "Mo-Fr 17:00; Sa 15:00", "indoor": "yes", "note": "ON 12/24 AND 12/31, THIS BOX MAY BE COLLECTED AS EARLY AS 12 NOON.", "nsi_id": "unitedstatespostalservice-a77078", "operator": "United States Postal Service", "operator:short": "USPS", "operator:type": "public", "operator:wikidata": "Q668687", "ref": "4431900021"}, "type": "Feature"}
{"geometry": {"coordinates": [-81.510487, 41.027026], "type": "Point"}, "id": "ZaAyKwjFgMDVVchDhuugdb8l0zs=", "properties": {"@source_uri": "https://tools.usps.com/UspsToolsRestServices/rest/POLocator/findLocations", "@spider": "usps_collection_boxes", "addr:city": "AKRON", "addr:country": "US", "addr:postcode": "44319", "addr:state": "OH", "addr:street_address": "2001 BROWN ST", "amenity": "post_box", "collection_times": "Mo-Fr 17:00; Sa 15:00", "note": "ON 12/24 AND 12/31, THIS BOX MAY BE COLLECTED AS EARLY AS 12 NOON.", "nsi_id": "unitedstatespostalservice-a77078", "operator": "United States Postal Service", "operator:short": "USPS", "operator:type": "public", "operator:wikidata": "Q668687", "ref": "4431900022"}, "type": "Feature"}
{"geometry": {"coordinates": [-81.510455093, 41.026617], "type": "Point"}, "id": "XgjbdlQ8is10CuqPZqAssZzBKHI=", "properties": {"@source_uri": "https://tools.usps.com/UspsToolsRestServices/rest/POLocator/findLocations", "@spider": "usps_collection_boxes", "addr:city": "AKRON", "addr:country": "US", "addr:postcode": "44319", "addr:state": "OH", "addr:street_address": "2001 BROWN ST", "amenity": "post_box", "collection_times": "Mo-Fr 17:00; Sa 12:00", "indoor": "yes", "note": "ON 12/24 AND 12/31, THIS BOX MAY BE COLLECTED AS EARLY AS 12 NOON.", "nsi_id": "unitedstatespostalservice-a77078", "operator": "United States Postal Service", "operator:short": "USPS", "operator:type": "public", "operator:wikidata": "Q668687", "ref": "4431900029"}, "type": "Feature"}
{"geometry": {"coordinates": [-81.5860296, 41.103059], "type": "Point"}, "id": "_KcQjvGhGR4tQng8pib5BKIOlJU=", "properties": {"@source_uri": "https://tools.usps.com/UspsToolsRestServices/rest/POLocator/findLocations", "@spider": "usps_collection_boxes", "addr:city": "AKRON", "addr:country": "US", "addr:postcode": "44320", "addr:state": "OH", "addr:street_address": "477 WHITE POND DR", "amenity": "post_box", "collection_times": "Mo-Sa 12:00", "nsi_id": "unitedstatespostalservice-a77078", "operator": "United States Postal Service", "operator:short": "USPS", "operator:type": "public", "operator:wikidata": "Q668687", "ref": "4432000039"}, "type": "Feature"}
{"geometry": {"coordinates": [-81.5729247, 41.08372], "type": "Point"}, "id": "lwh1tyeAe6v85CYE--eWTqQgr3E=", "properties": {"@source_uri": "https://tools.usps.com/UspsToolsRestServices/rest/POLocator/findLocations", "@spider": "usps_collection_boxes", "addr:city": "AKRON", "addr:country": "US", "addr:postcode": "44320", "addr:state": "OH", "addr:street_address": "942 FREDERICK BLVD", "amenity": "post_box", "collection_times": "Mo-Sa 10:00", "nsi_id": "unitedstatespostalservice-a77078", "operator": "United States Postal Service", "operator:short": "USPS", "operator:type": "public", "operator:wikidata": "Q668687", "ref": "4432000054"}, "type": "Feature"}
{"geometry": {"coordinates": [-81.5864277, 41.102233], "type": "Point"}, "id": "2YhaoGdD5IFEKtJDbWR7u5oRidk=", "properties": {"@source_uri": "https://tools.usps.com/UspsToolsRestServices/rest/POLocator/findLocations", "@spider": "usps_collection_boxes", "addr:city": "AKRON", "addr:country": "US", "addr:postcode": "44320", "addr:state": "OH", "addr:street_address": "490 WHITE POND DR", "amenity": "post_box", "collection_times": "Mo-Fr 15:30; Sa 11:00", "note": "ON 12/24 AND 12/31, THIS BOX MAY BE COLLECTED AS EARLY AS 12 NOON.", "nsi_id": "unitedstatespostalservice-a77078", "operator": "United States Postal Service", "operator:short": "USPS", "operator:type": "public", "operator:wikidata": "Q668687", "ref": "4432000056"}, "type": "Feature"}
{"geometry": {"coordinates": [-81.5686526, 41.067288], "type": "Point"}, "id": "E7EY9UOUEpNdwOyJofTMs0Dd_jI=", "properties": {"@source_uri": "https://tools.usps.com/UspsToolsRestServices/rest/POLocator/findLocations", "@spider": "usps_collection_boxes", "addr:city": "AKRON", "addr:country": "US", "addr:postcode": "44320", "addr:state": "OH", "addr:street_address": "1525 S HAWKINS AVE", "amenity": "post_box", "collection_times": "Mo-Sa 09:45", "nsi_id": "unitedstatespostalservice-a77078", "operator": "United States Postal Service", "operator:short": "USPS", "operator:type": "public", "operator:wikidata": "Q668687", "ref": "4432000058"}, "type": "Feature"}
{"geometry": {"coordinates": [-81.5885003, 41.095721], "type": "Point"}, "id": "WpxfBUbXIGDJRLtjL1xKVgLZ2g4=", "properties": {"@source_uri": "https://tools.usps.com/UspsToolsRestServices/rest/POLocator/findLocations", "@spider": "usps_collection_boxes", "addr:city": "AKRON", "addr:country": "US", "addr:postcode": "44320", "addr:state": "OH", "addr:street_address": "787 WHITE POND DR", "amenity": "post_box", "collection_times": "Mo-Sa 09:45", "nsi_id": "unitedstatespostalservice-a77078", "operator": "United States Postal Service", "operator:short": "USPS", "operator:type": "public", "operator:wikidata": "Q668687", "ref": "4432000060"}, "type": "Feature"}
{"geometry": {"coordinates": [-81.5774506, 41.063362], "type": "Point"}, "id": "Gwdb6fGXZv8h7pgicZm8f1DF1iU=", "properties": {"@source_uri": "https://tools.usps.com/UspsToolsRestServices/rest/POLocator/findLocations", "@spider": "usps_collection_boxes", "addr:city": "AKRON", "addr:country": "US", "addr:postcode": "44320", "addr:state": "OH", "addr:street_address": "1557 VERNONODOM BLVD", "amenity": "post_box", "collection_times": "Mo-Fr 11:00", "nsi_id": "unitedstatespostalservice-a77078", "operator": "United States Postal Service", "operator:short": "USPS", "operator:type": "public", "operator:wikidata": "Q668687", "ref": "4432000061"}, "type": "Feature"}
{"geometry": {"coordinates": [-81.5871924, 41.102145], "type": "Point"}, "id": "Mb6C_vcL_pqFx5XhMgJz6l0sXuE=", "properties": {"@source_uri": "https://tools.usps.com/UspsToolsRestServices/rest/POLocator/findLocations", "@spider": "usps_collection_boxes", "addr:city": "AKRON", "addr:country": "US", "addr:postcode": "44320", "addr:state": "OH", "addr:street_address": "544 WHITE POND DR", "amenity": "post_box", "collection_times": "Mo-Sa 11:30", "nsi_id": "unitedstatespostalservice-a77078", "operator": "United States Postal Service", "operator:short": "USPS", "operator:type": "public", "operator:wikidata": "Q668687", "ref": "4432000063"}, "type": "Feature"}
{"geometry": {"coordinates": [-81.6195227, 41.093139], "type": "Point"}, "id": "ZIkqTwGzDXWCxohnncgiSe4v5vI=", "properties": {"@source_uri": "https://tools.usps.com/UspsToolsRestServices/rest/POLocator/findLocations", "@spider": "usps_collection_boxes", "addr:city": "COPLEY", "addr:country": "US", "addr:postcode": "44321", "addr:state": "OH", "addr:street_address": "1450 JACOBY RD", "amenity": "post_box", "collection_times": "Mo-Sa 12:00", "nsi_id": "unitedstatespostalservice-a77078", "operator": "United States Postal Service", "operator:short": "USPS", "operator:type": "public", "operator:wikidata": "Q668687", "ref": "4432100003"}, "type": "Feature"}
{"geometry": {"coordinates": [-81.6511779, 41.110812], "type": "Point"}, "id": "m_24ORJc0SeEUc8w5wSBHphZly0=", "properties": {"@source_uri": "https://tools.usps.com/UspsToolsRestServices/rest/POLocator/findLocations", "@spider": "usps_collection_boxes", "addr:city": "COPLEY", "addr:country": "US", "addr:postcode": "44321", "addr:state": "OH", "addr:street_address": "3840 RIDGEWOOD RD", "amenity": "post_box", "collection_times": "Mo-Fr 17:00; Sa 14:00", "note": "ON 12/24 AND 12/31, THIS BOX MAY BE COLLECTED AS EARLY AS 12 NOON.", "nsi_id": "unitedstatespostalservice-a77078", "operator": "United States Postal Service", "operator:short": "USPS", "operator:type": "public", "operator:wikidata": "Q668687", "ref": "4432100005"}, "type": "Feature"}
{"geometry": {"coordinates": [-81.6557111, 41.133175], "type": "Point"}, "id": "DmOJ0Kw7UmQwKlDmFWBogHaikcQ=", "properties": {"@source_uri": "https://tools.usps.com/UspsToolsRestServices/rest/POLocator/findLocations", "@spider": "usps_collection_boxes", "addr:city": "COPLEY", "addr:country": "US", "addr:postcode": "44321", "addr:state": "OH", "addr:street_address": "98 HUNT CLUB DR", "amenity": "post_box", "collection_times": "Mo-Fr 12:00; Sa 11:45", "nsi_id": "unitedstatespostalservice-a77078", "operator": "United States Postal Service", "operator:short": "USPS", "operator:type": "public", "operator:wikidata": "Q668687", "ref": "4432100008"}, "type": "Feature"}
{"geometry": {"coordinates": [-81.654284634, 41.128358038], "type": "Point"}, "id": "hgE7I1fs_Oq7V8e11rGJyR052_Y=", "properties": {"@source_uri": "https://tools.usps.com/UspsToolsRestServices/rest/POLocator/findLocations", "@spider": "usps_collection_boxes", "addr:city": "COPLEY", "addr:country": "US", "addr:postcode": "44321", "addr:state": "OH", "addr:street_address": "189 MONTROSE WEST AVE", "amenity": "post_box", "collection_times": "Mo-Fr 13:45; Sa 11:45", "note": "ON 12/24 AND 12/31, THIS BOX MAY BE COLLECTED AS EARLY AS 12 NOON.", "nsi_id": "unitedstatespostalservice-a77078", "operator": "United States Postal Service", "operator:short": "USPS", "operator:type": "public", "operator:wikidata": "Q668687", "ref": "4432100009"}, "type": "Feature"}
{"geometry": {"coordinates": [-81.6507879, 41.11106], "type": "Point"}, "id": "G26PBHrZ2sh1yhCv9i6TTS3UtUg=", "properties": {"@source_uri": "https://tools.usps.com/UspsToolsRestServices/rest/POLocator/findLocations", "@spider": "usps_collection_boxes", "addr:city": "COPLEY", "addr:country": "US", "addr:postcode": "44321", "addr:state": "OH", "addr:street_address": "3840 RIDGEWOOD RD", "amenity": "post_box", "collection_times": "Mo-Fr 17:00; Sa 14:00", "indoor": "yes", "note": "ON 12/24 AND 12/31, THIS BOX MAY BE COLLECTED AS EARLY AS 12 NOON.", "nsi_id": "unitedstatespostalservice-a77078", "operator": "United States Postal Service", "operator:short": "USPS", "operator:type": "public", "operator:wikidata": "Q668687", "ref": "4432100012"}, "type": "Feature"}
{"geometry": {"coordinates": [-81.6450111, 41.096043], "type": "Point"}, "id": "Zst7-aelRCqHFaw1_cU_vi8j_c4=", "properties": {"@source_uri": "https://tools.usps.com/UspsToolsRestServices/rest/POLocator/findLocations", "@spider": "usps_collection_boxes", "addr:city": "COPLEY", "addr:country": "US", "addr:postcode": "44321", "addr:state": "OH", "addr:street_address": "1540 S CLEVELAND MASSILLON RD", "amenity": "post_box", "collection_times": "Mo-Sa 15:00", "note": "ON 12/24 AND 12/31, THIS BOX MAY BE COLLECTED AS EARLY AS 12 NOON.", "nsi_id": "unitedstatespostalservice-a77078", "operator": "United States Postal Service", "operator:short": "USPS", "operator:type": "public", "operator:wikidata": "Q668687", "ref": "4432100016"}, "type": "Feature"}
{"geometry": {"coordinates": [-81.6507759, 41.111066], "type": "Point"}, "id": "95FVf8PtRlZuvIHzQbRgmaiK9KI=", "properties": {"@source_uri": "https://tools.usps.com/UspsToolsRestServices/rest/POLocator/findLocations", "@spider": "usps_collection_boxes", "addr:city": "COPLEY", "addr:country": "US", "addr:postcode": "44321", "addr:state": "OH", "addr:street_address": "3840 RIDGEWOOD RD", "amenity": "post_box", "collection_times": "Mo-Fr 17:00; Sa 14:00", "indoor": "yes", "note": "ON 12/24 AND 12/31, THIS BOX MAY BE COLLECTED AS EARLY AS 12 NOON.", "nsi_id": "unitedstatespostalservice-a77078", "operator": "United States Postal Service", "operator:short": "USPS", "operator:type": "public", "operator:wikidata": "Q668687", "ref": "4432100017"}, "type": "Feature"}
{"geometry": {"coordinates": [-81.6511583, 41.110803], "type": "Point"}, "id": "jaNuJFlIcpkEZIxkbqpzPnsC-1w=", "properties": {"@source_uri": "https://tools.usps.com/UspsToolsRestServices/rest/POLocator/findLocations", "@spider": "usps_collection_boxes", "addr:city": "COPLEY", "addr:country": "US", "addr:postcode": "44321", "addr:state": "OH", "addr:street_address": "3840 RIDGEWOOD RD", "amenity": "post_box", "collection_times": "Mo-Fr 17:00; Sa 14:00", "note": "ON 12/24 AND 12/31, THIS BOX MAY BE COLLECTED AS EARLY AS 12 NOON.", "nsi_id": "unitedstatespostalservice-a77078", "operator": "United States Postal Service", "operator:short": "USPS", "operator:type": "public", "operator:wikidata": "Q668687", "ref": "4432100022"}, "type": "Feature"}
{"geometry": {"coordinates": [-81.650820693, 41.11150447], "type": "Point"}, "id": "VvEGviDci0gODxNFeFWArgNb1WM=", "properties": {"@source_uri": "https://tools.usps.com/UspsToolsRestServices/rest/POLocator/findLocations", "@spider": "usps_collection_boxes", "addr:city": "COPLEY", "addr:country": "US", "addr:postcode": "44321", "addr:state": "OH", "addr:street_address": "3840 RIDGEWOOD RD", "amenity": "post_box", "collection_times": "Mo-Fr 17:00; Sa 12:00", "indoor": "yes", "note": "ON 12/24 AND 12/31, THIS BOX MAY BE COLLECTED AS EARLY AS 12 NOON.", "nsi_id": "unitedstatespostalservice-a77078", "operator": "United States Postal Service", "operator:short": "USPS", "operator:type": "public", "operator:wikidata": "Q668687", "ref": "4432100025"}, "type": "Feature"}
{"geometry": {"coordinates": [-81.6142979, 41.133705], "type": "Point"}, "id": "MNalYSRzzfPfYMvORmiqOjcRM3s=", "properties": {"@source_uri": "https://tools.usps.com/UspsToolsRestServices/rest/POLocator/findLocations", "@spider": "usps_collection_boxes", "addr:city": "FAIRLAWN", "addr:country": "US", "addr:postcode": "44333", "addr:state": "OH", "addr:street_address": "115 GHENT RD", "amenity": "post_box", "collection_times": "Mo-Fr 15:45; Sa 10:45", "note": "ON 12/24 AND 12/31, THIS BOX MAY BE COLLECTED AS EARLY AS 12 NOON.", "nsi_id": "unitedstatespostalservice-a77078", "operator": "United States Postal Service", "operator:short": "USPS", "operator:type": "public", "operator:wikidata": "Q668687", "ref": "4433300001"}, "type": "Feature"}
{"geometry": {"coordinates": [-81.600715862, 41.12381279], "type": "Point"}, "id": "SatWVLG2php4SMRF5bQx6ol2UJU=", "properties": {"@source_uri": "https://tools.usps.com/UspsToolsRestServices/rest/POLocator/findLocations", "@spider": "usps_collection_boxes", "addr:city": "FAIRLAWN", "addr:country": "US", "addr:postcode": "44333", "addr:state": "OH", "addr:street_address": "2711 W MARKET ST", "amenity": "post_box", "collection_times": "Mo-Fr 16:30; Sa 14:00", "note": "ON 12/24 AND 12/31, THIS BOX MAY BE COLLECTED AS EARLY AS 12 NOON.", "nsi_id": "unitedstatespostalservice-a77078", "operator": "United States Postal Service", "operator:short": "USPS", "operator:type": "public", "operator:wikidata": "Q668687", "ref": "4433300004"}, "type": "Feature"}
{"geometry": {"coordinates": [-81.6374319, 41.135052], "type": "Point"}, "id": "ZX5-r275OtWonPBKNeT80y6Xp2g=", "properties": {"@source_uri": "https://tools.usps.com/UspsToolsRestServices/rest/POLocator/findLocations", "@spider": "usps_collection_boxes", "addr:city": "FAIRLAWN", "addr:country": "US", "addr:postcode": "44333", "addr:state": "OH", "addr:street_address": "3900 W MARKET ST", "amenity": "post_box", "collection_times": "Mo-Fr 14:00; Sa 12:30", "note": "ON 12/24 AND 12/31, THIS BOX MAY BE COLLECTED AS EARLY AS 12 NOON.", "nsi_id": "unitedstatespostalservice-a77078", "operator": "United States Postal Service", "operator:short": "USPS", "operator:type": "public", "operator:wikidata": "Q668687", "ref": "4433300008"}, "type": "Feature"}
{"geometry": {"coordinates": [-81.6422796, 41.137517], "type": "Point"}, "id": "fZdW59GCfniCJZDx9i9QSzlysXI=", "properties": {"@source_uri": "https://tools.usps.com/UspsToolsRestServices/rest/POLocator/findLocations", "@spider": "usps_collection_boxes", "addr:city": "FAIRLAWN", "addr:country": "US", "addr:postcode": "44333", "addr:state": "OH", "addr:street_address": "3979 W MARKET ST", "amenity": "post_box", "collection_times": "Mo-Sa 13:00", "note": "ON 12/24 AND 12/31, THIS BOX MAY BE COLLECTED AS EARLY AS 12 NOON.", "nsi_id": "unitedstatespostalservice-a77078", "operator": "United States Postal Service", "operator:short": "USPS", "operator:type": "public", "operator:wikidata": "Q668687", "ref": "4433300010"}, "type": "Feature"}
{"geometry": {"coordinates": [-81.6356322, 41.150463], "type": "Point"}, "id": "OEfLhmWyCWCQUVXV5qWUo9XQkPU=", "properties": {"@source_uri": "https://tools.usps.com/UspsToolsRestServices/rest/POLocator/findLocations", "@spider": "usps_collection_boxes", "addr:city": "FAIRLAWN", "addr:country": "US", "addr:postcode": "44333", "addr:state": "OH", "addr:street_address": "525 N CLEVELAND MASSILLON RD", "amenity": "post_box", "collection_times": "Mo-Sa 11:30", "nsi_id": "unitedstatespostalservice-a77078", "operator": "United States Postal Service", "operator:short": "USPS", "operator:type": "public", "operator:wikidata": "Q668687", "ref": "4433300013"}, "type": "Feature"}
{"geometry": {"coordinates": [-81.609387, 41.126019], "type": "Point"}, "id": "ss7qLpfzQaM17Lhk7G7ddJj0X9U=", "properties": {"@source_uri": "https://tools.usps.com/UspsToolsRestServices/rest/POLocator/findLocations", "@spider": "usps_collection_boxes", "addr:city": "FAIRLAWN", "addr:country": "US", "addr:postcode": "44333", "addr:state": "OH", "addr:street_address": "55 S MILLER RD", "amenity": "post_box", "collection_times": "Mo-Sa 10:30", "nsi_id": "unitedstatespostalservice-a77078", "operator": "United States Postal Service", "operator:short": "USPS", "operator:type": "public", "operator:wikidata": "Q668687", "ref": "4433300015"}, "type": "Feature"}
{"geometry": {"coordinates": [-81.6269857, 41.133318], "type": "Point"}, "id": "RraikTGm0f9Y20xSetz7q17ib34=", "properties": {"@source_uri": "https://tools.usps.com/UspsToolsRestServices/rest/POLocator/findLocations", "@spider": "usps_collection_boxes", "addr:city": "FAIRLAWN", "addr:country": "US", "addr:postcode": "44333", "addr:state": "OH", "addr:street_address": "3487 S SMITH RD", "amenity": "post_box", "collection_times": "Mo-Sa 11:00", "nsi_id": "unitedstatespostalservice-a77078", "operator": "United States Postal Service", "operator:short": "USPS", "operator:type": "public", "operator:wikidata": "Q668687", "ref": "4433300016"}, "type": "Feature"}
{"geometry": {"coordinates": [-81.6269856, 41.133309], "type": "Point"}, "id": "AYFldkD76z1vDNXSY9DIkidjgQA=", "properties": {"@source_uri": "https://tools.usps.com/UspsToolsRestServices/rest/POLocator/findLocations", "@spider": "usps_collection_boxes", "addr:city": "FAIRLAWN", "addr:country": "US", "addr:postcode": "44333", "addr:state": "OH", "addr:street_address": "3487 S SMITH RD", "amenity": "post_box", "collection_times": "Mo-Fr 15:45; Sa 12:30", "note": "ON 12/24 AND 12/31, THIS BOX MAY BE COLLECTED AS EARLY AS 12 NOON.", "nsi_id": "unitedstatespostalservice-a77078", "operator": "United States Postal Service", "operator:short": "USPS", "operator:type": "public", "operator:wikidata": "Q668687", "ref": "4433300017"}, "type": "Feature"}
{"geometry": {"coordinates": [-81.600688466, 41.12379959], "type": "Point"}, "id": "g6aeKBc9lOrtBHkuEhgjQxyd1UQ=", "properties": {"@source_uri": "https://tools.usps.com/UspsToolsRestServices/rest/POLocator/findLocations", "@spider": "usps_collection_boxes", "addr:city": "FAIRLAWN", "addr:country": "US", "addr:postcode": "44333", "addr:state": "OH", "addr:street_address": "2711 W MARKET ST", "amenity": "post_box", "collection_times": "Mo-Fr 16:30; Sa 14:00", "name": "USPS COLLECTION BOX - EXPRESS", "note": "ON 12/24 AND 12/31, THIS BOX MAY BE COLLECTED AS EARLY AS 12 NOON.", "nsi_id": "unitedstatespostalservice-a77078", "operator": "United States Postal Service", "operator:short": "USPS", "operator:type": "public", "operator:wikidata": "Q668687", "ref": "4433300021"}, "type": "Feature"}
{"geometry": {"coordinates": [-81.600761, 41.123793], "type": "Point"}, "id": "OgNfqlZiG11XFiArP0UGj7s5k9I=", "properties": {"@source_uri": "https://tools.usps.com/UspsToolsRestServices/rest/POLocator/findLocations", "@spider": "usps_collection_boxes", "addr:city": "FAIRLAWN", "addr:country": "US", "addr:postcode": "44333", "addr:state": "OH", "addr:street_address": "2711 W MARKET ST", "amenity": "post_box", "collection_times": "Mo-Fr 17:00; Sa 14:00", "indoor": "yes", "note": "ON 12/24 AND 12/31, THIS BOX MAY BE COLLECTED AS EARLY AS 12 NOON.", "nsi_id": "unitedstatespostalservice-a77078", "operator": "United States Postal Service", "operator:short": "USPS", "operator:type": "public", "operator:wikidata": "Q668687", "ref": "4433300022"}, "type": "Feature"}
{"geometry": {"coordinates": [-81.6136507, 41.129106], "type": "Point"}, "id": "HVZDNN-LrDBaWVa50SdulWN0Q_0=", "properties": {"@source_uri": "https://tools.usps.com/UspsToolsRestServices/rest/POLocator/findLocations", "@spider": "usps_collection_boxes", "addr:city": "FAIRLAWN", "addr:country": "US", "addr:postcode": "44333", "addr:state": "OH", "addr:street_address": "3090 W MARKET ST", "amenity": "post_box", "collection_times": "Mo-Sa 10:00", "nsi_id": "unitedstatespostalservice-a77078", "operator": "United States Postal Service", "operator:short": "USPS", "operator:type": "public", "operator:wikidata": "Q668687", "ref": "4433300029"}, "type": "Feature"}
{"geometry": {"coordinates": [-81.6136175, 41.129111], "type": "Point"}, "id": "OW1twM9QVydbUJXL5yPgBsfH5dk=", "properties": {"@source_uri": "https://tools.usps.com/UspsToolsRestServices/rest/POLocator/findLocations", "@spider": "usps_collection_boxes", "addr:city": "FAIRLAWN", "addr:country": "US", "addr:postcode": "44333", "addr:state": "OH", "addr:street_address": "3090 W MARKET ST", "amenity": "post_box", "collection_times": "Mo-Sa 10:00", "nsi_id": "unitedstatespostalservice-a77078", "operator": "United States Postal Service", "operator:short": "USPS", "operator:type": "public", "operator:wikidata": "Q668687", "ref": "4433300030"}, "type": "Feature"}
{"geometry": {"coordinates": [-81.6183799, 41.131352], "type": "Point"}, "id": "9w6VkT9nZnplTsJ918QMuBH0KiA=", "properties": {"@source_uri": "https://tools.usps.com/UspsToolsRestServices/rest/POLocator/findLocations", "@spider": "usps_collection_boxes", "addr:city": "FAIRLAWN", "addr:country": "US", "addr:postcode": "44333", "addr:state": "OH", "addr:street_address": "3250 W MARKET ST", "amenity": "post_box", "collection_times": "Mo-Sa 11:00", "nsi_id": "unitedstatespostalservice-a77078", "operator": "United States Postal Service", "operator:short": "USPS", "operator:type": "public", "operator:wikidata": "Q668687", "ref": "4433300031"}, "type": "Feature"}
{"geometry": {"coordinates": [-81.6183846, 41.131344], "type": "Point"}, "id": "5EFyQuGxUV-UEAWweZFKJip0ibM=", "properties": {"@source_uri": "https://tools.usps.com/UspsToolsRestServices/rest/POLocator/findLocations", "@spider": "usps_collection_boxes", "addr:city": "FAIRLAWN", "addr:country": "US", "addr:postcode": "44333", "addr:state": "OH", "addr:street_address": "3250 W MARKET ST", "amenity": "post_box", "collection_times": "Mo-Sa 11:00", "nsi_id": "unitedstatespostalservice-a77078", "operator": "United States Postal Service", "operator:short": "USPS", "operator:type": "public", "operator:wikidata": "Q668687", "ref": "4433300032"}, "type": "Feature"}
{"geometry": {"coordinates": [-81.6183847, 41.131336], "type": "Point"}, "id": "Lr2UcvZpcFzI5_CX2RbIF3ICLMo=", "properties": {"@source_uri": "https://tools.usps.com/UspsToolsRestServices/rest/POLocator/findLocations", "@spider": "usps_collection_boxes", "addr:city": "FAIRLAWN", "addr:country": "US", "addr:postcode": "44333", "addr:state": "OH", "addr:street_address": "3250 W MARKET ST", "amenity": "post_box", "collection_times": "Mo-Sa 11:00", "nsi_id": "unitedstatespostalservice-a77078", "operator": "United States Postal Service", "operator:short": "USPS", "operator:type": "public", "operator:wikidata": "Q668687", "ref": "4433300033"}, "type": "Feature"}
{"geometry": {"coordinates": [-81.6126058, 41.130862], "type": "Point"}, "id": "J3uXoXBT1lzlWWlvP6SDE1G0EUA=", "properties": {"@source_uri": "https://tools.usps.com/UspsToolsRestServices/rest/POLocator/findLocations", "@spider": "usps_collection_boxes", "addr:city": "FAIRLAWN", "addr:country": "US", "addr:postcode": "44333", "addr:state": "OH", "addr:street_address": "41 MERZ BLVD", "amenity": "post_box", "collection_times": "Mo-Sa 11:00", "nsi_id": "unitedstatespostalservice-a77078", "operator": "United States Postal Service", "operator:short": "USPS", "operator:type": "public", "operator:wikidata": "Q668687", "ref": "4433300041"}, "type": "Feature"}
{"geometry": {"coordinates": [-81.612609, 41.13085], "type": "Point"}, "id": "uaLd6cI_cUFZLNNfmd7lBCf7sFk=", "properties": {"@source_uri": "https://tools.usps.com/UspsToolsRestServices/rest/POLocator/findLocations", "@spider": "usps_collection_boxes", "addr:city": "FAIRLAWN", "addr:country": "US", "addr:postcode": "44333", "addr:state": "OH", "addr:street_address": "41 MERZ BLVD", "amenity": "post_box", "collection_times": "Mo-Sa 11:00", "nsi_id": "unitedstatespostalservice-a77078", "operator": "United States Postal Service", "operator:short": "USPS", "operator:type": "public", "operator:wikidata": "Q668687", "ref": "4433300042"}, "type": "Feature"}
{"geometry": {"coordinates": [-81.6375989, 41.144168], "type": "Point"}, "id": "kjmpm3V8YQboW6HLJ_ijqDqS1QA=", "properties": {"@source_uri": "https://tools.usps.com/UspsToolsRestServices/rest/POLocator/findLocations", "@spider": "usps_collection_boxes", "addr:city": "FAIRLAWN", "addr:country": "US", "addr:postcode": "44333", "addr:state": "OH", "addr:street_address": "300 N CLEVELAND MASSILLON RD", "amenity": "post_box", "collection_times": "Mo-Sa 11:00", "nsi_id": "unitedstatespostalservice-a77078", "operator": "United States Postal Service", "operator:short": "USPS", "operator:type": "public", "operator:wikidata": "Q668687", "ref": "4433300047"}, "type": "Feature"}
{"geometry": {"coordinates": [-81.6501485, 41.140188], "type": "Point"}, "id": "Rpix8ZMrlN1vp-akp-emkAl0FGw=", "properties": {"@source_uri": "https://tools.usps.com/UspsToolsRestServices/rest/POLocator/findLocations", "@spider": "usps_collection_boxes", "addr:city": "FAIRLAWN", "addr:country": "US", "addr:postcode": "44333", "addr:state": "OH", "addr:street_address": "3885 EMBASSY PKWY", "amenity": "post_box", "collection_times": "Mo-Sa 11:00", "nsi_id": "unitedstatespostalservice-a77078", "operator": "United States Postal Service", "operator:short": "USPS", "operator:type": "public", "operator:wikidata": "Q668687", "ref": "4433300048"}, "type": "Feature"}
{"geometry": {"coordinates": [-81.6501347, 41.140173], "type": "Point"}, "id": "le4bslKzk4BTBmF22drcA2KAy1s=", "properties": {"@source_uri": "https://tools.usps.com/UspsToolsRestServices/rest/POLocator/findLocations", "@spider": "usps_collection_boxes", "addr:city": "FAIRLAWN", "addr:country": "US", "addr:postcode": "44333", "addr:state": "OH", "addr:street_address": "3885 EMBASSY PKWY", "amenity": "post_box", "collection_times": "Mo-Sa 11:00", "nsi_id": "unitedstatespostalservice-a77078", "operator": "United States Postal Service", "operator:short": "USPS", "operator:type": "public", "operator:wikidata": "Q668687", "ref": "4433300049"}, "type": "Feature"}
{"geometry": {"coordinates": [-81.6360742, 41.158508], "type": "Point"}, "id": "BPnU7v9VhPadMZWzWXBKNt2fVfI=", "properties": {"@source_uri": "https://tools.usps.com/UspsToolsRestServices/rest/POLocator/findLocations", "@spider": "usps_collection_boxes", "addr:city": "FAIRLAWN", "addr:country": "US", "addr:postcode": "44333", "addr:state": "OH", "addr:street_address": "843 N CLEVELAND MASSILLON RD", "amenity": "post_box", "collection_times": "Mo-Sa 12:00", "nsi_id": "unitedstatespostalservice-a77078", "operator": "United States Postal Service", "operator:short": "USPS", "operator:type": "public", "operator:wikidata": "Q668687", "ref": "4433300052"}, "type": "Feature"}
{"geometry": {"coordinates": [-81.6455211, 41.131607], "type": "Point"}, "id": "D-lCyWU3n1dqQCqjaLcm2dthIV0=", "properties": {"@source_uri": "https://tools.usps.com/UspsToolsRestServices/rest/POLocator/findLocations", "@spider": "usps_collection_boxes", "addr:city": "FAIRLAWN", "addr:country": "US", "addr:postcode": "44333", "addr:state": "OH", "addr:street_address": "4040 W MARKET ST", "amenity": "post_box", "collection_times": "Mo-Sa 10:00", "nsi_id": "unitedstatespostalservice-a77078", "operator": "United States Postal Service", "operator:short": "USPS", "operator:type": "public", "operator:wikidata": "Q668687", "ref": "4433300058"}, "type": "Feature"}
{"geometry": {"coordinates": [-81.6352699, 41.133197], "type": "Point"}, "id": "xEeiL0_N7v55sn0Tzht82mc57js=", "properties": {"@source_uri": "https://tools.usps.com/UspsToolsRestServices/rest/POLocator/findLocations", "@spider": "usps_collection_boxes", "addr:city": "FAIRLAWN", "addr:country": "US", "addr:postcode": "44333", "addr:state": "OH", "addr:street_address": "3750 W MARKET ST", "amenity": "post_box", "collection_times": "Mo-Sa 11:00", "nsi_id": "unitedstatespostalservice-a77078", "operator": "United States Postal Service", "operator:short": "USPS", "operator:type": "public", "operator:wikidata": "Q668687", "ref": "4433300059"}, "type": "Feature"}
{"geometry": {"coordinates": [-81.6534674, 41.137802], "type": "Point"}, "id": "RMmqHdqXAD1XwIjq2RKZtfETWns=", "properties": {"@source_uri": "https://tools.usps.com/UspsToolsRestServices/rest/POLocator/findLocations", "@spider": "usps_collection_boxes", "addr:city": "FAIRLAWN", "addr:country": "US", "addr:postcode": "44333", "addr:state": "OH", "addr:street_address": "4040 EMBASSY PKWY", "amenity": "post_box", "collection_times": "Mo-Sa 11:15", "nsi_id": "unitedstatespostalservice-a77078", "operator": "United States Postal Service", "operator:short": "USPS", "operator:type": "public", "operator:wikidata": "Q668687", "ref": "4433300060"}, "type": "Feature"}
{"geometry": {"coordinates": [-81.6307271, 41.13328], "type": "Point"}, "id": "VfrL_wrwqKNTdRVjm8uSu5JnrK8=", "properties": {"@source_uri": "https://tools.usps.com/UspsToolsRestServices/rest/POLocator/findLocations", "@spider": "usps_collection_boxes", "addr:city": "FAIRLAWN", "addr:country": "US", "addr:postcode": "44333", "addr:state": "OH", "addr:street_address": "3624 W MARKET ST", "amenity": "post_box", "collection_times": "Mo-Sa 09:30", "nsi_id": "unitedstatespostalservice-a77078", "operator": "United States Postal Service", "operator:short": "USPS", "operator:type": "public", "operator:wikidata": "Q668687", "ref": "4433300062"}, "type": "Feature"}
{"geometry": {"coordinates": [-81.6464923, 41.125992], "type": "Point"}, "id": "y6V4IjKukhHBVtZiCBzzppzQB_g=", "properties": {"@source_uri": "https://tools.usps.com/UspsToolsRestServices/rest/POLocator/findLocations", "@spider": "usps_collection_boxes", "addr:city": "FAIRLAWN", "addr:country": "US", "addr:postcode": "44333", "addr:state": "OH", "addr:street_address": "3800 ROSEMONT BLVD", "amenity": "post_box", "collection_times": "Mo-Sa 09:00", "nsi_id": "unitedstatespostalservice-a77078", "operator": "United States Postal Service", "operator:short": "USPS", "operator:type": "public", "operator:wikidata": "Q668687", "ref": "4433300063"}, "type": "Feature"}
{"geometry": {"coordinates": [-81.6253591, 41.134823], "type": "Point"}, "id": "dHMMXnU689c3CIF0lcuoCTG4z8c=", "properties": {"@source_uri": "https://tools.usps.com/UspsToolsRestServices/rest/POLocator/findLocations", "@spider": "usps_collection_boxes", "addr:city": "FAIRLAWN", "addr:country": "US", "addr:postcode": "44333", "addr:state": "OH", "addr:street_address": "3480 W MARKET ST", "amenity": "post_box", "collection_times": "Mo-Fr 15:45; Sa 12:30", "note": "ON 12/24 AND 12/31, THIS BOX MAY BE COLLECTED AS EARLY AS 12 NOON.", "nsi_id": "unitedstatespostalservice-a77078", "operator": "United States Postal Service", "operator:short": "USPS", "operator:type": "public", "operator:wikidata": "Q668687", "ref": "4433300064"}, "type": "Feature"}
{"geometry": {"coordinates": [-81.6050268, 41.125985], "type": "Point"}, "id": "I-iVcwGCxyJNlN4a_gQzq2KVI30=", "properties": {"@source_uri": "https://tools.usps.com/UspsToolsRestServices/rest/POLocator/findLocations", "@spider": "usps_collection_boxes", "addr:city": "FAIRLAWN", "addr:country": "US", "addr:postcode": "44333", "addr:state": "OH", "addr:street_address": "2801 W MARKET ST", "amenity": "post_box", "collection_times": "Mo-Sa 15:30", "note": "ON 12/24 AND 12/31, THIS BOX MAY BE COLLECTED AS EARLY AS 12 NOON.", "nsi_id": "unitedstatespostalservice-a77078", "operator": "United States Postal Service", "operator:short": "USPS", "operator:type": "public", "operator:wikidata": "Q668687", "ref": "4433300066"}, "type": "Feature"}
{"geometry": {"coordinates": [-81.6425068, 41.141898], "type": "Point"}, "id": "ffepsOWk4zsTgPuzKlpd9Ar3zzI=", "properties": {"@source_uri": "https://tools.usps.com/UspsToolsRestServices/rest/POLocator/findLocations", "@spider": "usps_collection_boxes", "addr:city": "FAIRLAWN", "addr:country": "US", "addr:postcode": "44333", "addr:state": "OH", "addr:street_address": "301 SPRINGSIDE DR", "amenity": "post_box", "collection_times": "Mo-Fr 15:30; Sa 12:00", "note": "ON 12/24 AND 12/31, THIS BOX MAY BE COLLECTED AS EARLY AS 12 NOON.", "nsi_id": "unitedstatespostalservice-a77078", "operator": "United States Postal Service", "operator:short": "USPS", "operator:type": "public", "operator:wikidata": "Q668687", "ref": "4433300068"}, "type": "Feature"}
{"geometry": {"coordinates": [-81.6103979, 41.114397], "type": "Point"}, "id": "XvCjXzkm0B2pw4Lfk2bWeY94F8w=", "properties": {"@source_uri": "https://tools.usps.com/UspsToolsRestServices/rest/POLocator/findLocations", "@spider": "usps_collection_boxes", "addr:city": "FAIRLAWN", "addr:country": "US", "addr:postcode": "44333", "addr:state": "OH", "addr:street_address": "484 S MILLER RD", "amenity": "post_box", "collection_times": "Mo-Sa 15:00", "note": "ON 12/24 AND 12/31, THIS BOX MAY BE COLLECTED AS EARLY AS 12 NOON.", "nsi_id": "unitedstatespostalservice-a77078", "operator": "United States Postal Service", "operator:short": "USPS", "operator:type": "public", "operator:wikidata": "Q668687", "ref": "4433300069"}, "type": "Feature"}
{"geometry": {"coordinates": [-81.600761, 41.123793], "type": "Point"}, "id": "1piGAE-dertjILSg40SJ37uyhnM=", "properties": {"@source_uri": "https://tools.usps.com/UspsToolsRestServices/rest/POLocator/findLocations", "@spider": "usps_collection_boxes", "addr:city": "FAIRLAWN", "addr:country": "US", "addr:postcode": "44333", "addr:state": "OH", "addr:street_address": "2711 W MARKET ST", "amenity": "post_box", "collection_times": "Mo-Fr 17:00; Sa 14:00", "indoor": "yes", "note": "ON 12/24 AND 12/31, THIS BOX MAY BE COLLECTED AS EARLY AS 12 NOON.", "nsi_id": "unitedstatespostalservice-a77078", "operator": "United States Postal Service", "operator:short": "USPS", "operator:type": "public", "operator:wikidata": "Q668687", "ref": "4433300076"}, "type": "Feature"}
{"geometry": {"coordinates": [-81.6501082, 41.140168], "type": "Point"}, "id": "zDQyLhttnUHwiF8Hhev7d3pS_2k=", "properties": {"@source_uri": "https://tools.usps.com/UspsToolsRestServices/rest/POLocator/findLocations", "@spider": "usps_collection_boxes", "addr:city": "FAIRLAWN", "addr:country": "US", "addr:postcode": "44333", "addr:state": "OH", "addr:street_address": "3885 EMBASSY PKWY", "amenity": "post_box", "collection_times": "Mo-Fr 15:30; Sa 10:15", "note": "ON 12/24 AND 12/31, THIS BOX MAY BE COLLECTED AS EARLY AS 12 NOON.", "nsi_id": "unitedstatespostalservice-a77078", "operator": "United States Postal Service", "operator:short": "USPS", "operator:type": "public", "operator:wikidata": "Q668687", "ref": "4433300078"}, "type": "Feature"}
{"geometry": {"coordinates": [-81.6425068, 41.14189], "type": "Point"}, "id": "OIySxAwFVdz_WSLxhdQJNIUYUmY=", "properties": {"@source_uri": "https://tools.usps.com/UspsToolsRestServices/rest/POLocator/findLocations", "@spider": "usps_collection_boxes", "addr:city": "FAIRLAWN", "addr:country": "US", "addr:postcode": "44333", "addr:state": "OH", "addr:street_address": "301 SPRINGSIDE DR", "amenity": "post_box", "collection_times": "Mo-Sa 11:00", "nsi_id": "unitedstatespostalservice-a77078", "operator": "United States Postal Service", "operator:short": "USPS", "operator:type": "public", "operator:wikidata": "Q668687", "ref": "4433300081"}, "type": "Feature"}
{"geometry": {"coordinates": [-81.600761, 41.123793], "type": "Point"}, "id": "SHp3Eom5y0NgqzgUeLU-CAQ0AfY=", "properties": {"@source_uri": "https://tools.usps.com/UspsToolsRestServices/rest/POLocator/findLocations", "@spider": "usps_collection_boxes", "addr:city": "FAIRLAWN", "addr:country": "US", "addr:postcode": "44333", "addr:state": "OH", "addr:street_address": "2711 W MARKET ST", "amenity": "post_box", "collection_times": "Mo-Fr 17:00; Sa 14:00", "name": "USPS COLLECTION BOX - APC", "note": "ON 12/24 AND 12/31, THIS BOX MAY BE COLLECTED AS EARLY AS 12 NOON.", "nsi_id": "unitedstatespostalservice-a77078", "operator": "United States Postal Service", "operator:short": "USPS", "operator:type": "public", "operator:wikidata": "Q668687", "ref": "4433300086"}, "type": "Feature"}
{"geometry": {"coordinates": [-81.647208, 41.139013], "type": "Point"}, "id": "uhiySbQoESKWAtwI-kRLHQrD09s=", "properties": {"@source_uri": "https://tools.usps.com/UspsToolsRestServices/rest/POLocator/findLocations", "@spider": "usps_collection_boxes", "addr:city": "FAIRLAWN", "addr:country": "US", "addr:postcode": "44333", "addr:state": "OH", "addr:street_address": "130 SPRINGSIDE DR", "amenity": "post_box", "collection_times": "Mo-Sa 11:00", "nsi_id": "unitedstatespostalservice-a77078", "operator": "United States Postal Service", "operator:short": "USPS", "operator:type": "public", "operator:wikidata": "Q668687", "ref": "4433300087"}, "type": "Feature"}
{"geometry": {"coordinates": [-81.600688466, 41.12379959], "type": "Point"}, "id": "kdelGRO50j0BrRsPdo0gTHYNUw4=", "properties": {"@source_uri": "https://tools.usps.com/UspsToolsRestServices/rest/POLocator/findLocations", "@spider": "usps_collection_boxes", "addr:city": "FAIRLAWN", "addr:country": "US", "addr:postcode": "44333", "addr:state": "OH", "addr:street_address": "2711 W MARKET ST", "amenity": "post_box", "collection_times": "Mo-Fr 16:30; Sa 14:00", "note": "ON 12/24 AND 12/31, THIS BOX MAY BE COLLECTED AS EARLY AS 12 NOON.", "nsi_id": "unitedstatespostalservice-a77078", "operator": "United States Postal Service", "operator:short": "USPS", "operator:type": "public", "operator:wikidata": "Q668687", "ref": "4433300093"}, "type": "Feature"}
{"geometry": {"coordinates": [-81.6439722, 41.117699], "type": "Point"}, "id": "ju_EBK-Qc1uB7GDnZxAHAxd3V4M=", "properties": {"@source_uri": "https://tools.usps.com/UspsToolsRestServices/rest/POLocator/findLocations", "@spider": "usps_collection_boxes", "addr:city": "FAIRLAWN", "addr:country": "US", "addr:postcode": "44333", "addr:state": "OH", "addr:street_address": "3585 RIDGE PARK DR", "amenity": "post_box", "collection_times": "Mo-Sa 09:00", "nsi_id": "unitedstatespostalservice-a77078", "operator": "United States Postal Service", "operator:short": "USPS", "operator:type": "public", "operator:wikidata": "Q668687", "ref": "4433300094"}, "type": "Feature"}
{"geometry": {"coordinates": [-81.614301, 41.133713], "type": "Point"}, "id": "cizLM2qkAaQKe4Vq4mUufnsSJ2w=", "properties": {"@source_uri": "https://tools.usps.com/UspsToolsRestServices/rest/POLocator/findLocations", "@spider": "usps_collection_boxes", "addr:city": "FAIRLAWN", "addr:country": "US", "addr:postcode": "44333", "addr:state": "OH", "addr:street_address": "115 GHENT RD", "amenity": "post_box", "collection_times": "Mo-Sa 11:30", "nsi_id": "unitedstatespostalservice-a77078", "operator": "United States Postal Service", "operator:short": "USPS", "operator:type": "public", "operator:wikidata": "Q668687", "ref": "4433300097"}, "type": "Feature"}
{"geometry": {"coordinates": [-81.600715862, 41.12381279], "type": "Point"}, "id": "Y2taA616ui-rs2Yqv4qeZ527KKY=", "properties": {"@source_uri": "https://tools.usps.com/UspsToolsRestServices/rest/POLocator/findLocations", "@spider": "usps_collection_boxes", "addr:city": "FAIRLAWN", "addr:country": "US", "addr:postcode": "44333", "addr:state": "OH", "addr:street_address": "2711 W MARKET ST", "amenity": "post_box", "collection_times": "Mo-Fr 18:00; Sa 14:00", "indoor": "yes", "note": "ON 12/24 AND 12/31, THIS BOX MAY BE COLLECTED AS EARLY AS 12 NOON.", "nsi_id": "unitedstatespostalservice-a77078", "operator": "United States Postal Service", "operator:short": "USPS", "operator:type": "public", "operator:wikidata": "Q668687", "ref": "4433300104"}, "type": "Feature"}
