{"geometry": {"coordinates": [-80.941521693, 41.024490542], "type": "Point"}, "id": "522l7H_NeuNlOP6pi7ly3cpsjTg=", "properties": {"@source_uri": "https://tools.usps.com/UspsToolsRestServices/rest/POLocator/findLocations", "@spider": "usps_collection_boxes", "addr:city": "BERLIN CENTER", "addr:country": "US", "addr:postcode": "44401", "addr:state": "OH", "addr:street_address": "15401 W AKRON CANFIELD RD", "amenity": "post_box", "collection_times": "Mo-Fr 14:45; Sa 11:30", "note": "ON 12/24 AND 12/31, THIS BOX MAY BE COLLECTED AS EARLY AS 12 NOON.", "nsi_id": "unitedstatespostalservice-a77078", "operator": "United States Postal Service", "operator:short": "USPS", "operator:type": "public", "operator:wikidata": "Q668687", "ref": "4440100000"}, "type": "Feature"}
{"geometry": {"coordinates": [-80.941521693, 41.024490542], "type": "Point"}, "id": "U26N7HXpEwehbXUybui1R7-QPzU=", "properties": {"@source_uri": "https://tools.usps.com/UspsToolsRestServices/rest/POLocator/findLocations", "@spider": "usps_collection_boxes", "addr:city": "BERLIN CENTER", "addr:country": "US", "addr:postcode": "44401", "addr:state": "OH", "addr:street_address": "15401 W AKRON CANFIELD RD", "amenity": "post_box", "collection_times": "Mo-Fr 14:45; Sa 11:45", "indoor": "yes", "note": "ON 12/24 AND 12/31, THIS BOX MAY BE COLLECTED AS EARLY AS 12 NOON.", "nsi_id": "unitedstatespostalservice-a77078", "operator": "United States Postal Service", "operator:short": "USPS", "operator:type": "public", "operator:wikidata": "Q668687", "ref": "4440100003"}, "type": "Feature"}
{"geometry": {"coordinates": [-80.867143, 41.387399], "type": "Point"}, "id": "VCTZsn35RX2Q2usemP3ucBuYTF4=", "properties": {"@source_uri": "https://tools.usps.com/UspsToolsRestServices/rest/POLocator/findLocations", "@spider": "usps_collection_boxes", "addr:city": "BRISTOLVILLE", "addr:country": "US", "addr:postcode": "44402", "addr:state": "OH", "addr:street_address": "1850 GREENVILLE RD", "amenity": "post_box", "collection_times": "Mo-Fr 16:15; Sa 12:00", "note": "ON 12/24 AND 12/31, THIS BOX MAY BE COLLECTED AS EARLY AS 12 NOON.", "nsi_id": "unitedstatespostalservice-a77078", "operator": "United States Postal Service", "operator:short": "USPS", "operator:type": "public", "operator:wikidata": "Q668687", "ref": "4440200000"}, "type": "Feature"}
{"geometry": {"coordinates": [-80.86707, 41.387397], "type": "Point"}, "id": "5mRym1pQX5gP0tyNUxhR3rR_gKw=", "properties": {"@source_uri": "https://tools.usps.com/UspsToolsRestServices/rest/POLocator/findLocations", "@spider": "usps_collection_boxes", "addr:city": "BRISTOLVILLE", "addr:country": "US", "addr:postcode": "44402", "addr:state": "OH", "addr:street_address": "1850 GREENVILLE RD", "amenity": "post_box", "collection_times": "Mo-Fr 16:15; Sa 12:00", "indoor": "yes", "note": "ON 12/24 AND 12/31, THIS BOX MAY BE COLLECTED AS EARLY AS 12 NOON.", "nsi_id": "unitedstatespostalservice-a77078", "operator": "United States Postal Service", "operator:short": "USPS", "operator:type": "public", "operator:wikidata": "Q668687", "ref": "4440200001"}, "type": "Feature"}
{"geometry": {"coordinates": [-80.8670337485, 41.3873795043], "type": "Point"}, "id": "vAN1Qj7HC7sgcPbVID7N2MyIvYw=", "properties": {"@source_uri": "https://tools.usps.com/UspsToolsRestServices/rest/POLocator/findLocations", "@spider": "usps_collection_boxes", "addr:city": "BRISTOLVILLE", "addr:country": "US", "addr:postcode": "44402", "addr:state": "OH", "addr:street_address": "1850 STATE ROUTE 88", "amenity": "post_box", "collection_times": "Mo-Fr 16:30; Sa 12:00", "indoor": "yes", "note": "ON 12/24 AND 12/31, THIS BOX MAY BE COLLECTED AS EARLY AS 12 NOON.", "nsi_id": "unitedstatespostalservice-a77078", "operator": "United States Postal Service", "operator:short": "USPS", "operator:type": "public", "operator:wikidata": "Q668687", "ref": "4440200003"}, "type": "Feature"}
{"geometry": {"coordinates": [-80.570233, 41.234238], "type": "Point"}, "id": "wCQSL_0nYODLXGSSO-mNe9wq7r0=", "properties": {"@source_uri": "https://tools.usps.com/UspsToolsRestServices/rest/POLocator/findLocations", "@spider": "usps_collection_boxes", "addr:city": "BROOKFIELD", "addr:country": "US", "addr:postcode": "44403", "addr:state": "OH", "addr:street_address": "6875 WARREN SHARON RD", "amenity": "post_box", "collection_times": "Mo-Fr 16:30; Sa 12:00", "note": "ON 12/24 AND 12/31, THIS BOX MAY BE COLLECTED AS EARLY AS 12 NOON.", "nsi_id": "unitedstatespostalservice-a77078", "operator": "United States Postal Service", "operator:short": "USPS", "operator:type": "public", "operator:wikidata": "Q668687", "ref": "4440300000"}, "type": "Feature"}
{"geometry": {"coordinates": [-80.5702, 41.23421], "type": "Point"}, "id": "MB6PEfUa0c3eNh-Vpc1Joe90oFc=", "properties": {"@source_uri": "https://tools.usps.com/UspsToolsRestServices/rest/POLocator/findLocations", "@spider": "usps_collection_boxes", "addr:city": "BROOKFIELD", "addr:country": "US", "addr:postcode": "44403", "addr:state": "OH", "addr:street_address": "6875 WARREN SHARON RD", "amenity": "post_box", "collection_times": "Mo-Fr 16:30; Sa 12:00", "indoor": "yes", "note": "ON 12/24 AND 12/31, THIS BOX MAY BE COLLECTED AS EARLY AS 12 NOON.", "nsi_id": "unitedstatespostalservice-a77078", "operator": "United States Postal Service", "operator:short": "USPS", "operator:type": "public", "operator:wikidata": "Q668687", "ref": "4440300001"}, "type": "Feature"}
{"geometry": {"coordinates": [-80.5723413, 41.245305], "type": "Point"}, "id": "8Cy_3F8daUww34QH6_aBC5BV7YY=", "properties": {"@source_uri": "https://tools.usps.com/UspsToolsRestServices/rest/POLocator/findLocations", "@spider": "usps_collection_boxes", "addr:city": "BROOKFIELD", "addr:country": "US", "addr:postcode": "44403", "addr:state": "OH", "addr:street_address": "1011 STATE ROUTE 7 NE", "amenity": "post_box", "collection_times": "Mo-Sa 10:30", "nsi_id": "unitedstatespostalservice-a77078", "operator": "United States Postal Service", "operator:short": "USPS", "operator:type": "public", "operator:wikidata": "Q668687", "ref": "4440300002"}, "type": "Feature"}
{"geometry": {"coordinates": [-80.5588676, 41.228185], "type": "Point"}, "id": "0gpOIb5sPTZU0Pp_pEMfmAo6qz8=", "properties": {"@source_uri": "https://tools.usps.com/UspsToolsRestServices/rest/POLocator/findLocations", "@spider": "usps_collection_boxes", "addr:city": "BROOKFIELD", "addr:country": "US", "addr:postcode": "44403", "addr:state": "OH", "addr:street_address": "7100 BROOKWOOD DR", "amenity": "post_box", "collection_times": "Mo-Sa 10:30", "nsi_id": "unitedstatespostalservice-a77078", "operator": "United States Postal Service", "operator:short": "USPS", "operator:type": "public", "operator:wikidata": "Q668687", "ref": "4440300005"}, "type": "Feature"}
{"geometry": {"coordinates": [-80.5702221618, 41.2342365221], "type": "Point"}, "id": "FF-8CsomSrzGOP1eZI-uX4YTgwI=", "properties": {"@source_uri": "https://tools.usps.com/UspsToolsRestServices/rest/POLocator/findLocations", "@spider": "usps_collection_boxes", "addr:city": "BROOKFIELD", "addr:country": "US", "addr:postcode": "44403", "addr:state": "OH", "addr:street_address": "6875 WARREN SHARON RD", "amenity": "post_box", "collection_times": "Mo-Fr 16:30; Sa 12:00", "indoor": "yes", "note": "ON 12/24 AND 12/31, THIS BOX MAY BE COLLECTED AS EARLY AS 12 NOON.", "nsi_id": "unitedstatespostalservice-a77078", "operator": "United States Postal Service", "operator:short": "USPS", "operator:type": "public", "operator:wikidata": "Q668687", "ref": "4440300007"}, "type": "Feature"}
{"geometry": {"coordinates": [-80.593646976, 41.076782665], "type": "Point"}, "id": "ALc0Colk0-FIxC5MqXP81MAQinE=", "properties": {"@source_uri": "https://tools.usps.com/UspsToolsRestServices/rest/POLocator/findLocations", "@spider": "usps_collection_boxes", "addr:city": "CAMPBELL", "addr:country": "US", "addr:postcode": "44405", "addr:state": "OH", "addr:street_address": "220 12TH ST", "amenity": "post_box", "collection_times": "Mo-Fr 16:30; Sa 14:00", "note": "ON 12/24 AND 12/31, THIS BOX MAY BE COLLECTED AS EARLY AS 12 NOON.", "nsi_id": "unitedstatespostalservice-a77078", "operator": "United States Postal Service", "operator:short": "USPS", "operator:type": "public", "operator:wikidata": "Q668687", "ref": "4440500000"}, "type": "Feature"}
{"geometry": {"coordinates": [-80.593646976, 41.076782665], "type": "Point"}, "id": "fCyMo-xorRp08dh1VIUm94KQklw=", "properties": {"@source_uri": "https://tools.usps.com/UspsToolsRestServices/rest/POLocator/findLocations", "@spider": "usps_collection_boxes", "addr:city": "CAMPBELL", "addr:country": "US", "addr:postcode": "44405", "addr:state": "OH", "addr:street_address": "220 12TH ST", "amenity": "post_box", "collection_times": "Mo-Fr 16:30; Sa 14:00", "indoor": "yes", "note": "ON 12/24 AND 12/31, THIS BOX MAY BE COLLECTED AS EARLY AS 12 NOON.", "nsi_id": "unitedstatespostalservice-a77078", "operator": "United States Postal Service", "operator:short": "USPS", "operator:type": "public", "operator:wikidata": "Q668687", "ref": "4440500001"}, "type": "Feature"}
{"geometry": {"coordinates": [-80.593646976, 41.076782665], "type": "Point"}, "id": "elceNDA6w4uAO0nz6M-1-h-LsHI=", "properties": {"@source_uri": "https://tools.usps.com/UspsToolsRestServices/rest/POLocator/findLocations", "@spider": "usps_collection_boxes", "addr:city": "CAMPBELL", "addr:country": "US", "addr:postcode": "44405", "addr:state": "OH", "addr:street_address": "220 12TH ST", "amenity": "post_box", "collection_times": "Mo-Fr 16:30; Sa 12:00", "indoor": "yes", "note": "ON 12/24 AND 12/31, THIS BOX MAY BE COLLECTED AS EARLY AS 12 NOON.", "nsi_id": "unitedstatespostalservice-a77078", "operator": "United States Postal Service", "operator:short": "USPS", "operator:type": "public", "operator:wikidata": "Q668687", "ref": "4440500030"}, "type": "Feature"}
{"geometry": {"coordinates": [-80.7439381, 41.025765], "type": "Point"}, "id": "gHRFN7T2KYKW_TD5Oi3aN3Mn9sk=", "properties": {"@source_uri": "https://tools.usps.com/UspsToolsRestServices/rest/POLocator/findLocations", "@spider": "usps_collection_boxes", "addr:city": "CANFIELD", "addr:country": "US", "addr:postcode": "44406", "addr:state": "OH", "addr:street_address": "584 E MAIN ST", "amenity": "post_box", "collection_times": "Mo-Sa 10:00", "nsi_id": "unitedstatespostalservice-a77078", "operator": "United States Postal Service", "operator:short": "USPS", "operator:type": "public", "operator:wikidata": "Q668687", "ref": "4440600001"}, "type": "Feature"}
{"geometry": {"coordinates": [-80.7610353, 41.023919], "type": "Point"}, "id": "LW6LHlbJC3V9e6UMUUM6plESdHE=", "properties": {"@source_uri": "https://tools.usps.com/UspsToolsRestServices/rest/POLocator/findLocations", "@spider": "usps_collection_boxes", "addr:city": "CANFIELD", "addr:country": "US", "addr:postcode": "44406", "addr:state": "OH", "addr:street_address": "20 S BROAD ST", "amenity": "post_box", "collection_times": "Mo-Sa 14:00", "note": "ON 12/24 AND 12/31, THIS BOX MAY BE COLLECTED AS EARLY AS 12 NOON.", "nsi_id": "unitedstatespostalservice-a77078", "operator": "United States Postal Service", "operator:short": "USPS", "operator:type": "public", "operator:wikidata": "Q668687", "ref": "4440600005"}, "type": "Feature"}
{"geometry": {"coordinates": [-80.7111244, 41.025552], "type": "Point"}, "id": "PswatxfezGpUyuN-_FfDkOdmOaY=", "properties": {"@source_uri": "https://tools.usps.com/UspsToolsRestServices/rest/POLocator/findLocations", "@spider": "usps_collection_boxes", "addr:city": "CANFIELD", "addr:country": "US", "addr:postcode": "44406", "addr:state": "OH", "addr:street_address": "3770 STARRS CENTRE DR", "amenity": "post_box", "collection_times": "Mo-Fr 12:00; Sa 11:30", "nsi_id": "unitedstatespostalservice-a77078", "operator": "United States Postal Service", "operator:short": "USPS", "operator:type": "public", "operator:wikidata": "Q668687", "ref": "4440600010"}, "type": "Feature"}
{"geometry": {"coordinates": [-80.760947949, 41.026158168], "type": "Point"}, "id": "TPnGrfyUeuJ2y9pS1yhN8IpGrJY=", "properties": {"@source_uri": "https://tools.usps.com/UspsToolsRestServices/rest/POLocator/findLocations", "@spider": "usps_collection_boxes", "addr:city": "CANFIELD", "addr:country": "US", "addr:postcode": "44406", "addr:state": "OH", "addr:street_address": "44 N BROAD ST", "amenity": "post_box", "collection_times": "Mo-Fr 17:00; Sa 13:30", "note": "ON 12/24 AND 12/31, THIS BOX MAY BE COLLECTED AS EARLY AS 12 NOON.", "nsi_id": "unitedstatespostalservice-a77078", "operator": "United States Postal Service", "operator:short": "USPS", "operator:type": "public", "operator:wikidata": "Q668687", "ref": "4440600013"}, "type": "Feature"}
{"geometry": {"coordinates": [-80.7486088, 41.023954], "type": "Point"}, "id": "Dk4WcG0Y4srOmpWItZCjgwULbUM=", "properties": {"@source_uri": "https://tools.usps.com/UspsToolsRestServices/rest/POLocator/findLocations", "@spider": "usps_collection_boxes", "addr:city": "CANFIELD", "addr:country": "US", "addr:postcode": "44406", "addr:state": "OH", "addr:street_address": "423 E MAIN ST", "amenity": "post_box", "collection_times": "Mo-Sa 14:30", "note": "ON 12/24 AND 12/31, THIS BOX MAY BE COLLECTED AS EARLY AS 12 NOON.", "nsi_id": "unitedstatespostalservice-a77078", "operator": "United States Postal Service", "operator:short": "USPS", "operator:type": "public", "operator:wikidata": "Q668687", "ref": "4440600019"}, "type": "Feature"}
{"geometry": {"coordinates": [-80.7118426, 41.02206], "type": "Point"}, "id": "e1GMcFY6MdMOJKZTQEwormzUCwM=", "properties": {"@source_uri": "https://tools.usps.com/UspsToolsRestServices/rest/POLocator/findLocations", "@spider": "usps_collection_boxes", "addr:city": "CANFIELD", "addr:country": "US", "addr:postcode": "44406", "addr:state": "OH", "addr:street_address": "6674 TIPPECANOE RD", "amenity": "post_box", "collection_times": "Mo-Sa 10:00", "nsi_id": "unitedstatespostalservice-a77078", "operator": "United States Postal Service", "operator:short": "USPS", "operator:type": "public", "operator:wikidata": "Q668687", "ref": "4440600022"}, "type": "Feature"}
{"geometry": {"coordinates": [-80.760947949, 41.026158168], "type": "Point"}, "id": "-AE1B0m3FcjLlRCisSahu747beU=", "properties": {"@source_uri": "https://tools.usps.com/UspsToolsRestServices/rest/POLocator/findLocations", "@spider": "usps_collection_boxes", "addr:city": "CANFIELD", "addr:country": "US", "addr:postcode": "44406", "addr:state": "OH", "addr:street_address": "44 N BROAD ST", "amenity": "post_box", "collection_times": "Mo-Fr 17:00; Sa 13:30", "indoor": "yes", "note": "ON 12/24 AND 12/31, THIS BOX MAY BE COLLECTED AS EARLY AS 12 NOON.", "nsi_id": "unitedstatespostalservice-a77078", "operator": "United States Postal Service", "operator:short": "USPS", "operator:type": "public", "operator:wikidata": "Q668687", "ref": "4440600023"}, "type": "Feature"}
{"geometry": {"coordinates": [-80.7136757, 41.023369], "type": "Point"}, "id": "Ya9x7HxUC1M_XGQNXprRTfRZ3JE=", "properties": {"@source_uri": "https://tools.usps.com/UspsToolsRestServices/rest/POLocator/findLocations", "@spider": "usps_collection_boxes", "addr:city": "CANFIELD", "addr:country": "US", "addr:postcode": "44406", "addr:state": "OH", "addr:street_address": "3701 BUSINESS SERVICE RD", "amenity": "post_box", "collection_times": "Mo-Sa 10:00", "nsi_id": "unitedstatespostalservice-a77078", "operator": "United States Postal Service", "operator:short": "USPS", "operator:type": "public", "operator:wikidata": "Q668687", "ref": "4440600024"}, "type": "Feature"}
{"geometry": {"coordinates": [-80.7102535, 41.022324], "type": "Point"}, "id": "ZI_DhryBJC2YUfCxwbzmioO-Qn0=", "properties": {"@source_uri": "https://tools.usps.com/UspsToolsRestServices/rest/POLocator/findLocations", "@spider": "usps_collection_boxes", "addr:city": "CANFIELD", "addr:country": "US", "addr:postcode": "44406", "addr:state": "OH", "addr:street_address": "6715 TIPPECANOE RD", "amenity": "post_box", "collection_times": "Mo-Fr 12:00; Sa 10:00", "nsi_id": "unitedstatespostalservice-a77078", "operator": "United States Postal Service", "operator:short": "USPS", "operator:type": "public", "operator:wikidata": "Q668687", "ref": "4440600027"}, "type": "Feature"}
{"geometry": {"coordinates": [-80.760947949, 41.026158168], "type": "Point"}, "id": "DJnPIKqW6mlpi6OhA_4pIilXcvw=", "properties": {"@source_uri": "https://tools.usps.com/UspsToolsRestServices/rest/POLocator/findLocations", "@spider": "usps_collection_boxes", "addr:city": "CANFIELD", "addr:country": "US", "addr:postcode": "44406", "addr:state": "OH", "addr:street_address": "44 N BROAD ST", "amenity": "post_box", "collection_times": "Mo-Fr 17:00; Sa 13:00", "indoor": "yes", "note": "ON 12/24 AND 12/31, THIS BOX MAY BE COLLECTED AS EARLY AS 12 NOON.", "nsi_id": "unitedstatespostalservice-a77078", "operator": "United States Postal Service", "operator:short": "USPS", "operator:type": "public", "operator:wikidata": "Q668687", "ref": "4440600030"}, "type": "Feature"}
{"geometry": {"coordinates": [-80.69398, 40.886097], "type": "Point"}, "id": "U-aeTmSZOMQfbqGUli5gBIJ8rbY=", "properties": {"@source_uri": "https://tools.usps.com/UspsToolsRestServices/rest/POLocator/findLocations", "@spider": "usps_collection_boxes", "addr:city": "COLUMBIANA", "addr:country": "US", "addr:postcode": "44408", "addr:state": "OH", "addr:street_address": "149 S MAIN ST", "amenity": "post_box", "collection_times": "Mo-Fr 16:45; Sa 13:00", "note": "ON 12/24 AND 12/31, THIS BOX MAY BE COLLECTED AS EARLY AS 12 NOON.", "nsi_id": "unitedstatespostalservice-a77078", "operator": "United States Postal Service", "operator:short": "USPS", "operator:type": "public", "operator:wikidata": "Q668687", "ref": "4440800001"}, "type": "Feature"}
{"geometry": {"coordinates": [-80.69398, 40.886097], "type": "Point"}, "id": "edCOvRQ6mvfD7SU6sT3EE7xhHgo=", "properties": {"@source_uri": "https://tools.usps.com/UspsToolsRestServices/rest/POLocator/findLocations", "@spider": "usps_collection_boxes", "addr:city": "COLUMBIANA", "addr:country": "US", "addr:postcode": "44408", "addr:state": "OH", "addr:street_address": "149 S MAIN ST", "amenity": "post_box", "collection_times": "Mo-Fr 16:45; Sa 13:00", "indoor": "yes", "note": "ON 12/24 AND 12/31, THIS BOX MAY BE COLLECTED AS EARLY AS 12 NOON.", "nsi_id": "unitedstatespostalservice-a77078", "operator": "United States Postal Service", "operator:short": "USPS", "operator:type": "public", "operator:wikidata": "Q668687", "ref": "4440800003"}, "type": "Feature"}
{"geometry": {"coordinates": [-80.6944312, 40.886901], "type": "Point"}, "id": "kEoP7OVNUCc_zha_gk_Gcj20Gtc=", "properties": {"@source_uri": "https://tools.usps.com/UspsToolsRestServices/rest/POLocator/findLocations", "@spider": "usps_collection_boxes", "addr:city": "COLUMBIANA", "addr:country": "US", "addr:postcode": "44408", "addr:state": "OH", "addr:street_address": "123 S MAIN ST", "amenity": "post_box", "collection_times": "Mo-Fr 15:00; Sa 14:30", "note": "ON 12/24 AND 12/31, THIS BOX MAY BE COLLECTED AS EARLY AS 12 NOON.", "nsi_id": "unitedstatespostalservice-a77078", "operator": "United States Postal Service", "operator:short": "USPS", "operator:type": "public", "operator:wikidata": "Q668687", "ref": "4440800005"}, "type": "Feature"}
{"geometry": {"coordinates": [-80.6945726, 40.893438], "type": "Point"}, "id": "fGaUTVphAxNgtWW8tknwJgNymjQ=", "properties": {"@source_uri": "https://tools.usps.com/UspsToolsRestServices/rest/POLocator/findLocations", "@spider": "usps_collection_boxes", "addr:city": "COLUMBIANA", "addr:country": "US", "addr:postcode": "44408", "addr:state": "OH", "addr:street_address": "315 N MAIN ST", "amenity": "post_box", "collection_times": "Mo-Sa 14:00", "note": "ON 12/24 AND 12/31, THIS BOX MAY BE COLLECTED AS EARLY AS 12 NOON.", "nsi_id": "unitedstatespostalservice-a77078", "operator": "United States Postal Service", "operator:short": "USPS", "operator:type": "public", "operator:wikidata": "Q668687", "ref": "4440800006"}, "type": "Feature"}
{"geometry": {"coordinates": [-80.6989193, 40.901126], "type": "Point"}, "id": "uynPpoC8id_QV4nC4jMZfwwVUrE=", "properties": {"@source_uri": "https://tools.usps.com/UspsToolsRestServices/rest/POLocator/findLocations", "@spider": "usps_collection_boxes", "addr:city": "COLUMBIANA", "addr:country": "US", "addr:postcode": "44408", "addr:state": "OH", "addr:street_address": "903 STATE ROUTE 46", "amenity": "post_box", "collection_times": "Mo-Sa 11:30", "nsi_id": "unitedstatespostalservice-a77078", "operator": "United States Postal Service", "operator:short": "USPS", "operator:type": "public", "operator:wikidata": "Q668687", "ref": "4440800013"}, "type": "Feature"}
{"geometry": {"coordinates": [-80.6973795, 40.902098], "type": "Point"}, "id": "Sd3ejBzbGq_Y6KcRUHqOiFqVvlI=", "properties": {"@source_uri": "https://tools.usps.com/UspsToolsRestServices/rest/POLocator/findLocations", "@spider": "usps_collection_boxes", "addr:city": "COLUMBIANA", "addr:country": "US", "addr:postcode": "44408", "addr:state": "OH", "addr:street_address": "112 COUNTY LINE RD W", "amenity": "post_box", "collection_times": "Mo-Sa 11:00", "nsi_id": "unitedstatespostalservice-a77078", "operator": "United States Postal Service", "operator:short": "USPS", "operator:type": "public", "operator:wikidata": "Q668687", "ref": "4440800014"}, "type": "Feature"}
{"geometry": {"coordinates": [-80.693758428, 40.886078274], "type": "Point"}, "id": "Eq6VqR8U931xIs6HUzlh2N8dKPQ=", "properties": {"@source_uri": "https://tools.usps.com/UspsToolsRestServices/rest/POLocator/findLocations", "@spider": "usps_collection_boxes", "addr:city": "COLUMBIANA", "addr:country": "US", "addr:postcode": "44408", "addr:state": "OH", "addr:street_address": "149 S MAIN ST STE 2", "amenity": "post_box", "collection_times": "Mo-Fr 17:00; Sa 12:00", "indoor": "yes", "note": "ON 12/24 AND 12/31, THIS BOX MAY BE COLLECTED AS EARLY AS 12 NOON.", "nsi_id": "unitedstatespostalservice-a77078", "operator": "United States Postal Service", "operator:short": "USPS", "operator:type": "public", "operator:wikidata": "Q668687", "ref": "4440800019"}, "type": "Feature"}
{"geometry": {"coordinates": [-80.726899784, 41.324983745], "type": "Point"}, "id": "UZELYDgZXxVGWmElmdE_V2P7ZXw=", "properties": {"@source_uri": "https://tools.usps.com/UspsToolsRestServices/rest/POLocator/findLocations", "@spider": "usps_collection_boxes", "addr:city": "CORTLAND", "addr:country": "US", "addr:postcode": "44410", "addr:state": "OH", "addr:street_address": "307 S HIGH ST", "amenity": "post_box", "collection_times": "Mo-Fr 17:00; Sa 12:00", "indoor": "yes", "note": "ON 12/24 AND 12/31, THIS BOX MAY BE COLLECTED AS EARLY AS 12 NOON.", "nsi_id": "unitedstatespostalservice-a77078", "operator": "United States Postal Service", "operator:short": "USPS", "operator:type": "public", "operator:wikidata": "Q668687", "ref": "4441000000"}, "type": "Feature"}
{"geometry": {"coordinates": [-80.726899784, 41.324983745], "type": "Point"}, "id": "SWfwh_41Y3pfmeTDrzhV9nA1x50=", "properties": {"@source_uri": "https://tools.usps.com/UspsToolsRestServices/rest/POLocator/findLocations", "@spider": "usps_collection_boxes", "addr:city": "CORTLAND", "addr:country": "US", "addr:postcode": "44410", "addr:state": "OH", "addr:street_address": "307 S HIGH ST", "amenity": "post_box", "collection_times": "Mo-Fr 17:00; Sa 12:00", "indoor": "yes", "note": "ON 12/24 AND 12/31, THIS BOX MAY BE COLLECTED AS EARLY AS 12 NOON.", "nsi_id": "unitedstatespostalservice-a77078", "operator": "United States Postal Service", "operator:short": "USPS", "operator:type": "public", "operator:wikidata": "Q668687", "ref": "4441000001"}, "type": "Feature"}
{"geometry": {"coordinates": [-80.726899784, 41.324983745], "type": "Point"}, "id": "W8Eh6Hfc7l_wsQ3xli4mfBf8D5g=", "properties": {"@source_uri": "https://tools.usps.com/UspsToolsRestServices/rest/POLocator/findLocations", "@spider": "usps_collection_boxes", "addr:city": "CORTLAND", "addr:country": "US", "addr:postcode": "44410", "addr:state": "OH", "addr:street_address": "307 S HIGH ST", "amenity": "post_box", "collection_times": "Mo-Fr 17:00; Sa 12:00", "note": "ON 12/24 AND 12/31, THIS BOX MAY BE COLLECTED AS EARLY AS 12 NOON.", "nsi_id": "unitedstatespostalservice-a77078", "operator": "United States Postal Service", "operator:short": "USPS", "operator:type": "public", "operator:wikidata": "Q668687", "ref": "4441000004"}, "type": "Feature"}
{"geometry": {"coordinates": [-80.759623, 41.288448], "type": "Point"}, "id": "JgUBdrDYN7eOnD2RrvWG5mMFLd4=", "properties": {"@source_uri": "https://tools.usps.com/UspsToolsRestServices/rest/POLocator/findLocations", "@spider": "usps_collection_boxes", "addr:city": "CORTLAND", "addr:country": "US", "addr:postcode": "44410", "addr:state": "OH", "addr:street_address": "3093 IVY HILL CIR", "amenity": "post_box", "collection_times": "Mo-Sa 10:30", "nsi_id": "unitedstatespostalservice-a77078", "operator": "United States Postal Service", "operator:short": "USPS", "operator:type": "public", "operator:wikidata": "Q668687", "ref": "4441000006"}, "type": "Feature"}
{"geometry": {"coordinates": [-80.726899784, 41.324983745], "type": "Point"}, "id": "SxieKoCURwmoeRDNt964TlXJF3w=", "properties": {"@source_uri": "https://tools.usps.com/UspsToolsRestServices/rest/POLocator/findLocations", "@spider": "usps_collection_boxes", "addr:city": "CORTLAND", "addr:country": "US", "addr:postcode": "44410", "addr:state": "OH", "addr:street_address": "307 S HIGH ST", "amenity": "post_box", "collection_times": "Mo-Fr 17:00; Sa 12:00", "indoor": "yes", "note": "ON 12/24 AND 12/31, THIS BOX MAY BE COLLECTED AS EARLY AS 12 NOON.", "nsi_id": "unitedstatespostalservice-a77078", "operator": "United States Postal Service", "operator:short": "USPS", "operator:type": "public", "operator:wikidata": "Q668687", "ref": "4441000011"}, "type": "Feature"}
{"geometry": {"coordinates": [-81.050439341, 41.026057879], "type": "Point"}, "id": "VYOZgC5aIFFEhW_2UgVyaRDoCas=", "properties": {"@source_uri": "https://tools.usps.com/UspsToolsRestServices/rest/POLocator/findLocations", "@spider": "usps_collection_boxes", "addr:city": "DEERFIELD", "addr:country": "US", "addr:postcode": "44411", "addr:state": "OH", "addr:street_address": "1365 STATE ROUTE 14", "amenity": "post_box", "collection_times": "Mo-Fr 16:00; Sa 11:45", "note": "ON 12/24 AND 12/31, THIS BOX MAY BE COLLECTED AS EARLY AS 12 NOON.", "nsi_id": "unitedstatespostalservice-a77078", "operator": "United States Postal Service", "operator:short": "USPS", "operator:type": "public", "operator:wikidata": "Q668687", "ref": "4441100000"}, "type": "Feature"}
{"geometry": {"coordinates": [-81.050439341, 41.026057879], "type": "Point"}, "id": "OJH8a5qsUcqZ-kgrt7D4smsPn1s=", "properties": {"@source_uri": "https://tools.usps.com/UspsToolsRestServices/rest/POLocator/findLocations", "@spider": "usps_collection_boxes", "addr:city": "DEERFIELD", "addr:country": "US", "addr:postcode": "44411", "addr:state": "OH", "addr:street_address": "1365 STATE ROUTE 14", "amenity": "post_box", "collection_times": "Mo-Fr 16:30; Sa 11:30", "indoor": "yes", "note": "ON 12/24 AND 12/31, THIS BOX MAY BE COLLECTED AS EARLY AS 12 NOON.", "nsi_id": "unitedstatespostalservice-a77078", "operator": "United States Postal Service", "operator:short": "USPS", "operator:type": "public", "operator:wikidata": "Q668687", "ref": "4441100001"}, "type": "Feature"}
{"geometry": {"coordinates": [-81.050439341, 41.026057879], "type": "Point"}, "id": "YhteYYjtT1Sz1GYUf8lel1vs2N0=", "properties": {"@source_uri": "https://tools.usps.com/UspsToolsRestServices/rest/POLocator/findLocations", "@spider": "usps_collection_boxes", "addr:city": "DEERFIELD", "addr:country": "US", "addr:postcode": "44411", "addr:state": "OH", "addr:street_address": "1365 STATE ROUTE 14", "amenity": "post_box", "collection_times": "Mo-Fr 16:30; Sa 11:30", "indoor": "yes", "note": "ON 12/24 AND 12/31, THIS BOX MAY BE COLLECTED AS EARLY AS 12 NOON.", "nsi_id": "unitedstatespostalservice-a77078", "operator": "United States Postal Service", "operator:short": "USPS", "operator:type": "public", "operator:wikidata": "Q668687", "ref": "4441100004"}, "type": "Feature"}
{"geometry": {"coordinates": [-81.026249, 41.098719], "type": "Point"}, "id": "YGSHJhEq7lKvxKAhKNC7Rr6qpfA=", "properties": {"@source_uri": "https://tools.usps.com/UspsToolsRestServices/rest/POLocator/findLocations", "@spider": "usps_collection_boxes", "addr:city": "DIAMOND", "addr:country": "US", "addr:postcode": "44412", "addr:state": "OH", "addr:street_address": "10096 TALLMADGE RD", "amenity": "post_box", "collection_times": "Mo-Fr 16:15; Sa 11:45", "note": "ON 12/24 AND 12/31, THIS BOX MAY BE COLLECTED AS EARLY AS 12 NOON.", "nsi_id": "unitedstatespostalservice-a77078", "operator": "United States Postal Service", "operator:short": "USPS", "operator:type": "public", "operator:wikidata": "Q668687", "ref": "4441200000"}, "type": "Feature"}
{"geometry": {"coordinates": [-81.026293, 41.098746], "type": "Point"}, "id": "bz2yFRYYrWtk4H-C_hYxb7Rr_E0=", "properties": {"@source_uri": "https://tools.usps.com/UspsToolsRestServices/rest/POLocator/findLocations", "@spider": "usps_collection_boxes", "addr:city": "DIAMOND", "addr:country": "US", "addr:postcode": "44412", "addr:state": "OH", "addr:street_address": "10096 TALLMADGE RD", "amenity": "post_box", "collection_times": "Mo-Fr 16:15; Sa 11:45", "indoor": "yes", "note": "ON 12/24 AND 12/31, THIS BOX MAY BE COLLECTED AS EARLY AS 12 NOON.", "nsi_id": "unitedstatespostalservice-a77078", "operator": "United States Postal Service", "operator:short": "USPS", "operator:type": "public", "operator:wikidata": "Q668687", "ref": "4441200001"}, "type": "Feature"}
{"geometry": {"coordinates": [-81.0258830255, 41.0987125273], "type": "Point"}, "id": "k2iCdcKPCSUr6-KD8Jsvh7QzUe0=", "properties": {"@source_uri": "https://tools.usps.com/UspsToolsRestServices/rest/POLocator/findLocations", "@spider": "usps_collection_boxes", "addr:city": "DIAMOND", "addr:country": "US", "addr:postcode": "44412", "addr:state": "OH", "addr:street_address": "10096 TALLMADGE RD", "amenity": "post_box", "collection_times": "Mo-Fr 16:30; Sa 12:30", "indoor": "yes", "note": "ON 12/24 AND 12/31, THIS BOX MAY BE COLLECTED AS EARLY AS 12 NOON.", "nsi_id": "unitedstatespostalservice-a77078", "operator": "United States Postal Service", "operator:short": "USPS", "operator:type": "public", "operator:wikidata": "Q668687", "ref": "4441200003"}, "type": "Feature"}
{"geometry": {"coordinates": [-80.539896816, 40.836303], "type": "Point"}, "id": "pVx9hdwm4pUHP-Bl_nnzNNdKQOE=", "properties": {"@source_uri": "https://tools.usps.com/UspsToolsRestServices/rest/POLocator/findLocations", "@spider": "usps_collection_boxes", "addr:city": "EAST PALESTINE", "addr:country": "US", "addr:postcode": "44413", "addr:state": "OH", "addr:street_address": "269 N MARKET ST", "amenity": "post_box", "collection_times": "Mo-Fr 16:30; Sa 16:15", "note": "ON 12/24 AND 12/31, THIS BOX MAY BE COLLECTED AS EARLY AS 12 NOON.", "nsi_id": "unitedstatespostalservice-a77078", "operator": "United States Postal Service", "operator:short": "USPS", "operator:type": "public", "operator:wikidata": "Q668687", "ref": "4441300000"}, "type": "Feature"}
{"geometry": {"coordinates": [-80.539896816, 40.836303], "type": "Point"}, "id": "5qO5IJ1fgCrIR6XepYyqr1dhkZk=", "properties": {"@source_uri": "https://tools.usps.com/UspsToolsRestServices/rest/POLocator/findLocations", "@spider": "usps_collection_boxes", "addr:city": "EAST PALESTINE", "addr:country": "US", "addr:postcode": "44413", "addr:state": "OH", "addr:street_address": "269 N MARKET ST", "amenity": "post_box", "collection_times": "Mo-Fr 16:30; Sa 16:15", "indoor": "yes", "note": "ON 12/24 AND 12/31, THIS BOX MAY BE COLLECTED AS EARLY AS 12 NOON.", "nsi_id": "unitedstatespostalservice-a77078", "operator": "United States Postal Service", "operator:short": "USPS", "operator:type": "public", "operator:wikidata": "Q668687", "ref": "4441300002"}, "type": "Feature"}
{"geometry": {"coordinates": [-80.539959, 40.834948], "type": "Point"}, "id": "VDiOIZBV8SGm5FM4E3MBE-4_T-U=", "properties": {"@source_uri": "https://tools.usps.com/UspsToolsRestServices/rest/POLocator/findLocations", "@spider": "usps_collection_boxes", "addr:city": "EAST PALESTINE", "addr:country": "US", "addr:postcode": "44413", "addr:state": "OH", "addr:street_address": "187 N MARKET ST", "amenity": "post_box", "collection_times": "Mo-Sa 15:00", "note": "ON 12/24 AND 12/31, THIS BOX MAY BE COLLECTED AS EARLY AS 12 NOON.", "nsi_id": "unitedstatespostalservice-a77078", "operator": "United States Postal Service", "operator:short": "USPS", "operator:type": "public", "operator:wikidata": "Q668687", "ref": "4441300013"}, "type": "Feature"}
{"geometry": {"coordinates": [-80.539896816, 40.836303], "type": "Point"}, "id": "u5a5xaL4c6TO38gUJcwvLRl9Ppk=", "properties": {"@source_uri": "https://tools.usps.com/UspsToolsRestServices/rest/POLocator/findLocations", "@spider": "usps_collection_boxes", "addr:city": "EAST PALESTINE", "addr:country": "US", "addr:postcode": "44413", "addr:state": "OH", "addr:street_address": "269 N MARKET ST", "amenity": "post_box", "collection_times": "Mo-Fr 16:30; Sa 12:00", "indoor": "yes", "note": "ON 12/24 AND 12/31, THIS BOX MAY BE COLLECTED AS EARLY AS 12 NOON.", "nsi_id": "unitedstatespostalservice-a77078", "operator": "United States Postal Service", "operator:short": "USPS", "operator:type": "public", "operator:wikidata": "Q668687", "ref": "4441300024"}, "type": "Feature"}
{"geometry": {"coordinates": [-80.699489036, 40.762561263], "type": "Point"}, "id": "Ptm7zyr7_LekqCMfVGbAI6JetFc=", "properties": {"@source_uri": "https://tools.usps.com/UspsToolsRestServices/rest/POLocator/findLocations", "@spider": "usps_collection_boxes", "addr:city": "ELKTON", "addr:country": "US", "addr:postcode": "44415", "addr:state": "OH", "addr:street_address": "42188 STATE ROUTE 154", "amenity": "post_box", "collection_times": "Mo-Fr 15:45; Sa 12:00", "note": "ON 12/24 AND 12/31, THIS BOX MAY BE COLLECTED AS EARLY AS 12 NOON.", "nsi_id": "unitedstatespostalservice-a77078", "operator": "United States Postal Service", "operator:short": "USPS", "operator:type": "public", "operator:wikidata": "Q668687", "ref": "4441500000"}, "type": "Feature"}
{"geometry": {"coordinates": [-80.699489036, 40.762561263], "type": "Point"}, "id": "4sYnvBZJxifpMmBPrFajy_ebSHE=", "properties": {"@source_uri": "https://tools.usps.com/UspsToolsRestServices/rest/POLocator/findLocations", "@spider": "usps_collection_boxes", "addr:city": "ELKTON", "addr:country": "US", "addr:postcode": "44415", "addr:state": "OH", "addr:street_address": "42188 STATE ROUTE 154", "amenity": "post_box", "collection_times": "Mo-Fr 15:45; Sa 11:45", "indoor": "yes", "note": "ON 12/24 AND 12/31, THIS BOX MAY BE COLLECTED AS EARLY AS 12 NOON.", "nsi_id": "unitedstatespostalservice-a77078", "operator": "United States Postal Service", "operator:short": "USPS", "operator:type": "public", "operator:wikidata": "Q668687", "ref": "4441500002"}, "type": "Feature"}
{"geometry": {"coordinates": [-80.858358, 41.031396], "type": "Point"}, "id": "kiW2WKpkreGQ5vnsIy3Qwib0xjo=", "properties": {"@source_uri": "https://tools.usps.com/UspsToolsRestServices/rest/POLocator/findLocations", "@spider": "usps_collection_boxes", "addr:city": "ELLSWORTH", "addr:country": "US", "addr:postcode": "44416", "addr:state": "OH", "addr:street_address": "6036 S SALEM WARREN RD", "amenity": "post_box", "collection_times": "Mo-Fr 15:45; Sa 10:45", "note": "ON 12/24 AND 12/31, THIS BOX MAY BE COLLECTED AS EARLY AS 12 NOON.", "nsi_id": "unitedstatespostalservice-a77078", "operator": "United States Postal Service", "operator:short": "USPS", "operator:type": "public", "operator:wikidata": "Q668687", "ref": "4441600002"}, "type": "Feature"}
{"geometry": {"coordinates": [-80.858358, 41.031396], "type": "Point"}, "id": "2HalS1nKrYAdHSQd3n2O7uRpFfQ=", "properties": {"@source_uri": "https://tools.usps.com/UspsToolsRestServices/rest/POLocator/findLocations", "@spider": "usps_collection_boxes", "addr:city": "ELLSWORTH", "addr:country": "US", "addr:postcode": "44416", "addr:state": "OH", "addr:street_address": "6036 S SALEM WARREN RD", "amenity": "post_box", "collection_times": "Mo-Fr 16:15; Sa 11:15", "indoor": "yes", "note": "ON 12/24 AND 12/31, THIS BOX MAY BE COLLECTED AS EARLY AS 12 NOON.", "nsi_id": "unitedstatespostalservice-a77078", "operator": "United States Postal Service", "operator:short": "USPS", "operator:type": "public", "operator:wikidata": "Q668687", "ref": "4441600003"}, "type": "Feature"}
{"geometry": {"coordinates": [-80.85745639, 41.031245011], "type": "Point"}, "id": "imv4WEffqkuwhQLmkFbBX5oGZA4=", "properties": {"@source_uri": "https://tools.usps.com/UspsToolsRestServices/rest/POLocator/findLocations", "@spider": "usps_collection_boxes", "addr:city": "ELLSWORTH", "addr:country": "US", "addr:postcode": "44416", "addr:state": "OH", "addr:street_address": "6036 S SALEM WARREN RD", "amenity": "post_box", "collection_times": "Mo-Fr 16:15; Sa 11:30", "indoor": "yes", "note": "ON 12/24 AND 12/31, THIS BOX MAY BE COLLECTED AS EARLY AS 12 NOON.", "nsi_id": "unitedstatespostalservice-a77078", "operator": "United States Postal Service", "operator:short": "USPS", "operator:type": "public", "operator:wikidata": "Q668687", "ref": "4441600005"}, "type": "Feature"}
{"geometry": {"coordinates": [-80.655669, 41.311154], "type": "Point"}, "id": "Fd5gFOoBD0-ggaxrVegMpxf2kf4=", "properties": {"@source_uri": "https://tools.usps.com/UspsToolsRestServices/rest/POLocator/findLocations", "@spider": "usps_collection_boxes", "addr:city": "FOWLER", "addr:country": "US", "addr:postcode": "44418", "addr:state": "OH", "addr:street_address": "3455 YOUNGSTOWN KINGSVILLE RD", "amenity": "post_box", "collection_times": "Mo-Fr 14:45; Sa 11:30", "note": "ON 12/24 AND 12/31, THIS BOX MAY BE COLLECTED AS EARLY AS 12 NOON.", "nsi_id": "unitedstatespostalservice-a77078", "operator": "United States Postal Service", "operator:short": "USPS", "operator:type": "public", "operator:wikidata": "Q668687", "ref": "4441800000"}, "type": "Feature"}
{"geometry": {"coordinates": [-80.655669, 41.311154], "type": "Point"}, "id": "mPknt4849OUi3d8Z9-uARvafr60=", "properties": {"@source_uri": "https://tools.usps.com/UspsToolsRestServices/rest/POLocator/findLocations", "@spider": "usps_collection_boxes", "addr:city": "FOWLER", "addr:country": "US", "addr:postcode": "44418", "addr:state": "OH", "addr:street_address": "3455 YOUNGSTOWN KINGSVILLE RD", "amenity": "post_box", "collection_times": "Mo-Fr 14:45; Sa 11:30", "indoor": "yes", "note": "ON 12/24 AND 12/31, THIS BOX MAY BE COLLECTED AS EARLY AS 12 NOON.", "nsi_id": "unitedstatespostalservice-a77078", "operator": "United States Postal Service", "operator:short": "USPS", "operator:type": "public", "operator:wikidata": "Q668687", "ref": "4441800001"}, "type": "Feature"}
{"geometry": {"coordinates": [-80.655669, 41.311154], "type": "Point"}, "id": "B_tPBmLObDcH9TgCQhM-lvkN1ng=", "properties": {"@source_uri": "https://tools.usps.com/UspsToolsRestServices/rest/POLocator/findLocations", "@spider": "usps_collection_boxes", "addr:city": "FOWLER", "addr:country": "US", "addr:postcode": "44418", "addr:state": "OH", "addr:street_address": "3455 YOUNGSTOWN KINGSVILLE RD", "amenity": "post_box", "collection_times": "Mo-Fr 14:45; Sa 11:30", "indoor": "yes", "note": "ON 12/24 AND 12/31, THIS BOX MAY BE COLLECTED AS EARLY AS 12 NOON.", "nsi_id": "unitedstatespostalservice-a77078", "operator": "United States Postal Service", "operator:short": "USPS", "operator:type": "public", "operator:wikidata": "Q668687", "ref": "4441800002"}, "type": "Feature"}
{"geometry": {"coordinates": [-80.6562680856, 41.3107970183], "type": "Point"}, "id": "H7zCALrrFaCXJUsvsVX3r-HtdHk=", "properties": {"@source_uri": "https://tools.usps.com/UspsToolsRestServices/rest/POLocator/findLocations", "@spider": "usps_collection_boxes", "addr:city": "FOWLER", "addr:country": "US", "addr:postcode": "44418", "addr:state": "OH", "addr:street_address": "3455 YOUNGSTOWN KINGSVILLE RD", "amenity": "post_box", "collection_times": "Mo-Fr 14:45; Sa 11:45", "indoor": "yes", "note": "ON 12/24 AND 12/31, THIS BOX MAY BE COLLECTED AS EARLY AS 12 NOON.", "nsi_id": "unitedstatespostalservice-a77078", "operator": "United States Postal Service", "operator:short": "USPS", "operator:type": "public", "operator:wikidata": "Q668687", "ref": "4441800004"}, "type": "Feature"}
{"geometry": {"coordinates": [-80.702675498, 41.154686864], "type": "Point"}, "id": "9HQxlzgOK414mBua5jkF-ipqAsU=", "properties": {"@source_uri": "https://tools.usps.com/UspsToolsRestServices/rest/POLocator/findLocations", "@spider": "usps_collection_boxes", "addr:city": "GIRARD", "addr:country": "US", "addr:postcode": "44420", "addr:state": "OH", "addr:street_address": "19 N MARKET ST", "amenity": "post_box", "collection_times": "Mo-Fr 17:00; Sa 15:30", "note": "ON 12/24 AND 12/31, THIS BOX MAY BE COLLECTED AS EARLY AS 12 NOON.", "nsi_id": "unitedstatespostalservice-a77078", "operator": "United States Postal Service", "operator:short": "USPS", "operator:type": "public", "operator:wikidata": "Q668687", "ref": "4442000002"}, "type": "Feature"}
{"geometry": {"coordinates": [-80.6839318, 41.141022], "type": "Point"}, "id": "DqQDh2FqlqwjDMrXackCJfbH5Lw=", "properties": {"@source_uri": "https://tools.usps.com/UspsToolsRestServices/rest/POLocator/findLocations", "@spider": "usps_collection_boxes", "addr:city": "GIRARD", "addr:country": "US", "addr:postcode": "44420", "addr:state": "OH", "addr:street_address": "15 S DAVIS ST", "amenity": "post_box", "collection_times": "Mo-Sa 12:00", "nsi_id": "unitedstatespostalservice-a77078", "operator": "United States Postal Service", "operator:short": "USPS", "operator:type": "public", "operator:wikidata": "Q668687", "ref": "4442000017"}, "type": "Feature"}
{"geometry": {"coordinates": [-80.717632, 41.140938], "type": "Point"}, "id": "W-hYiZPC7JV35KIQroYHqsB7gRM=", "properties": {"@source_uri": "https://tools.usps.com/UspsToolsRestServices/rest/POLocator/findLocations", "@spider": "usps_collection_boxes", "addr:city": "GIRARD", "addr:country": "US", "addr:postcode": "44420", "addr:state": "OH", "addr:street_address": "1 PETRO PL", "amenity": "post_box", "collection_times": "Mo-Sa 11:30", "nsi_id": "unitedstatespostalservice-a77078", "operator": "United States Postal Service", "operator:short": "USPS", "operator:type": "public", "operator:wikidata": "Q668687", "ref": "4442000020"}, "type": "Feature"}
{"geometry": {"coordinates": [-80.6646104, 41.192538], "type": "Point"}, "id": "Gcn39km8-9oQJDnaY0tGmsZfftE=", "properties": {"@source_uri": "https://tools.usps.com/UspsToolsRestServices/rest/POLocator/findLocations", "@spider": "usps_collection_boxes", "addr:city": "GIRARD", "addr:country": "US", "addr:postcode": "44420", "addr:state": "OH", "addr:street_address": "6470 BELMONT AVE", "amenity": "post_box", "collection_times": "Mo-Sa 11:00", "nsi_id": "unitedstatespostalservice-a77078", "operator": "United States Postal Service", "operator:short": "USPS", "operator:type": "public", "operator:wikidata": "Q668687", "ref": "4442000023"}, "type": "Feature"}
{"geometry": {"coordinates": [-80.6869099, 41.162232], "type": "Point"}, "id": "kX3KUdUxhOyaXngUTyL-BXc7P64=", "properties": {"@source_uri": "https://tools.usps.com/UspsToolsRestServices/rest/POLocator/findLocations", "@spider": "usps_collection_boxes", "addr:city": "GIRARD", "addr:country": "US", "addr:postcode": "44420", "addr:state": "OH", "addr:street_address": "660 CHURCHILL RD", "amenity": "post_box", "collection_times": "Mo-Sa 14:00", "note": "ON 12/24 AND 12/31, THIS BOX MAY BE COLLECTED AS EARLY AS 12 NOON.", "nsi_id": "unitedstatespostalservice-a77078", "operator": "United States Postal Service", "operator:short": "USPS", "operator:type": "public", "operator:wikidata": "Q668687", "ref": "4442000026"}, "type": "Feature"}
{"geometry": {"coordinates": [-80.6922411, 41.161965], "type": "Point"}, "id": "ZB7VdOFOnjRf96rAynunyCbFSa0=", "properties": {"@source_uri": "https://tools.usps.com/UspsToolsRestServices/rest/POLocator/findLocations", "@spider": "usps_collection_boxes", "addr:city": "GIRARD", "addr:country": "US", "addr:postcode": "44420", "addr:state": "OH", "addr:street_address": "722 N HIGHLAND AVE", "amenity": "post_box", "collection_times": "Mo-Sa 11:30", "nsi_id": "unitedstatespostalservice-a77078", "operator": "United States Postal Service", "operator:short": "USPS", "operator:type": "public", "operator:wikidata": "Q668687", "ref": "4442000027"}, "type": "Feature"}
{"geometry": {"coordinates": [-80.7020352, 41.1591], "type": "Point"}, "id": "GI1uoUnTHavVQ_B1izv84ULAe6I=", "properties": {"@source_uri": "https://tools.usps.com/UspsToolsRestServices/rest/POLocator/findLocations", "@spider": "usps_collection_boxes", "addr:city": "GIRARD", "addr:country": "US", "addr:postcode": "44420", "addr:state": "OH", "addr:street_address": "17 CHERRY ST", "amenity": "post_box", "collection_times": "Mo-Sa 13:00", "note": "ON 12/24 AND 12/31, THIS BOX MAY BE COLLECTED AS EARLY AS 12 NOON.", "nsi_id": "unitedstatespostalservice-a77078", "operator": "United States Postal Service", "operator:short": "USPS", "operator:type": "public", "operator:wikidata": "Q668687", "ref": "4442000032"}, "type": "Feature"}
{"geometry": {"coordinates": [-80.702675498, 41.154686864], "type": "Point"}, "id": "Imt6jFbSNkNeQwriiOwrr6NQUpA=", "properties": {"@source_uri": "https://tools.usps.com/UspsToolsRestServices/rest/POLocator/findLocations", "@spider": "usps_collection_boxes", "addr:city": "GIRARD", "addr:country": "US", "addr:postcode": "44420", "addr:state": "OH", "addr:street_address": "19 N MARKET ST", "amenity": "post_box", "collection_times": "Mo-Fr 17:00; Sa 15:30", "indoor": "yes", "note": "ON 12/24 AND 12/31, THIS BOX MAY BE COLLECTED AS EARLY AS 12 NOON.", "nsi_id": "unitedstatespostalservice-a77078", "operator": "United States Postal Service", "operator:short": "USPS", "operator:type": "public", "operator:wikidata": "Q668687", "ref": "4442000034"}, "type": "Feature"}
{"geometry": {"coordinates": [-80.6693287, 41.155308], "type": "Point"}, "id": "JkFjYkbbY3zMyxkH5a7YBsObxuY=", "properties": {"@source_uri": "https://tools.usps.com/UspsToolsRestServices/rest/POLocator/findLocations", "@spider": "usps_collection_boxes", "addr:city": "GIRARD", "addr:country": "US", "addr:postcode": "44420", "addr:state": "OH", "addr:street_address": "1601 MOTOR INN DR", "amenity": "post_box", "collection_times": "Mo-Sa 10:00", "nsi_id": "unitedstatespostalservice-a77078", "operator": "United States Postal Service", "operator:short": "USPS", "operator:type": "public", "operator:wikidata": "Q668687", "ref": "4442000035"}, "type": "Feature"}
{"geometry": {"coordinates": [-80.7026015, 41.155785], "type": "Point"}, "id": "Q-e7z_GOSEgtao7Cr3NKrCSVdU0=", "properties": {"@source_uri": "https://tools.usps.com/UspsToolsRestServices/rest/POLocator/findLocations", "@spider": "usps_collection_boxes", "addr:city": "GIRARD", "addr:country": "US", "addr:postcode": "44420", "addr:state": "OH", "addr:street_address": "99 N MARKET ST", "amenity": "post_box", "collection_times": "Mo-Sa 14:00", "note": "ON 12/24 AND 12/31, THIS BOX MAY BE COLLECTED AS EARLY AS 12 NOON.", "nsi_id": "unitedstatespostalservice-a77078", "operator": "United States Postal Service", "operator:short": "USPS", "operator:type": "public", "operator:wikidata": "Q668687", "ref": "4442000037"}, "type": "Feature"}
{"geometry": {"coordinates": [-80.702675498, 41.154686864], "type": "Point"}, "id": "D3PGPgmM4AXwiO8EaWCigc1IZIQ=", "properties": {"@source_uri": "https://tools.usps.com/UspsToolsRestServices/rest/POLocator/findLocations", "@spider": "usps_collection_boxes", "addr:city": "GIRARD", "addr:country": "US", "addr:postcode": "44420", "addr:state": "OH", "addr:street_address": "19 N MARKET ST", "amenity": "post_box", "collection_times": "Mo-Fr 17:00; Sa 12:00", "indoor": "yes", "note": "ON 12/24 AND 12/31, THIS BOX MAY BE COLLECTED AS EARLY AS 12 NOON.", "nsi_id": "unitedstatespostalservice-a77078", "operator": "United States Postal Service", "operator:short": "USPS", "operator:type": "public", "operator:wikidata": "Q668687", "ref": "4442000041"}, "type": "Feature"}
{"geometry": {"coordinates": [-80.790738771, 40.941618192], "type": "Point"}, "id": "Ofk5ay_yjBb9V-8aUlwBIChowpg=", "properties": {"@source_uri": "https://tools.usps.com/UspsToolsRestServices/rest/POLocator/findLocations", "@spider": "usps_collection_boxes", "addr:city": "GREENFORD", "addr:country": "US", "addr:postcode": "44422", "addr:state": "OH", "addr:street_address": "12184 LISBON RD", "amenity": "post_box", "collection_times": "Mo-Fr 16:30; Sa 11:15", "note": "ON 12/24 AND 12/31, THIS BOX MAY BE COLLECTED AS EARLY AS 12 NOON.", "nsi_id": "unitedstatespostalservice-a77078", "operator": "United States Postal Service", "operator:short": "USPS", "operator:type": "public", "operator:wikidata": "Q668687", "ref": "4442200000"}, "type": "Feature"}
{"geometry": {"coordinates": [-80.790738771, 40.941618192], "type": "Point"}, "id": "LWV4pe-Y8JqLhgVT72qlSdHDYfs=", "properties": {"@source_uri": "https://tools.usps.com/UspsToolsRestServices/rest/POLocator/findLocations", "@spider": "usps_collection_boxes", "addr:city": "GREENFORD", "addr:country": "US", "addr:postcode": "44422", "addr:state": "OH", "addr:street_address": "12184 LISBON RD", "amenity": "post_box", "collection_times": "Mo-Fr 16:30; Sa 11:30", "indoor": "yes", "note": "ON 12/24 AND 12/31, THIS BOX MAY BE COLLECTED AS EARLY AS 12 NOON.", "nsi_id": "unitedstatespostalservice-a77078", "operator": "United States Postal Service", "operator:short": "USPS", "operator:type": "public", "operator:wikidata": "Q668687", "ref": "4442200003"}, "type": "Feature"}
{"geometry": {"coordinates": [-80.9375805, 40.752030532], "type": "Point"}, "id": "qHAMw57Vt4dfgWVi4uhxiSw43_s=", "properties": {"@source_uri": "https://tools.usps.com/UspsToolsRestServices/rest/POLocator/findLocations", "@spider": "usps_collection_boxes", "addr:city": "HANOVERTON", "addr:country": "US", "addr:postcode": "44423", "addr:state": "OH", "addr:street_address": "29959 MARKET ST", "amenity": "post_box", "collection_times": "Mo-Fr 16:00; Sa 11:30", "note": "ON 12/24 AND 12/31, THIS BOX MAY BE COLLECTED AS EARLY AS 12 NOON.", "nsi_id": "unitedstatespostalservice-a77078", "operator": "United States Postal Service", "operator:short": "USPS", "operator:type": "public", "operator:wikidata": "Q668687", "ref": "4442300000"}, "type": "Feature"}
{"geometry": {"coordinates": [-80.9375805, 40.752030532], "type": "Point"}, "id": "z9vcG6U9udWZfSWNUvbSrZq9PBc=", "properties": {"@source_uri": "https://tools.usps.com/UspsToolsRestServices/rest/POLocator/findLocations", "@spider": "usps_collection_boxes", "addr:city": "HANOVERTON", "addr:country": "US", "addr:postcode": "44423", "addr:state": "OH", "addr:street_address": "29959 MARKET ST", "amenity": "post_box", "collection_times": "Mo-Fr 16:00; Sa 11:30", "indoor": "yes", "note": "ON 12/24 AND 12/31, THIS BOX MAY BE COLLECTED AS EARLY AS 12 NOON.", "nsi_id": "unitedstatespostalservice-a77078", "operator": "United States Postal Service", "operator:short": "USPS", "operator:type": "public", "operator:wikidata": "Q668687", "ref": "4442300001"}, "type": "Feature"}
{"geometry": {"coordinates": [-80.9375805, 40.752030532], "type": "Point"}, "id": "S9CSJFstEhvy9U2wpuywNqgwOD4=", "properties": {"@source_uri": "https://tools.usps.com/UspsToolsRestServices/rest/POLocator/findLocations", "@spider": "usps_collection_boxes", "addr:city": "HANOVERTON", "addr:country": "US", "addr:postcode": "44423", "addr:state": "OH", "addr:street_address": "29959 MARKET ST", "amenity": "post_box", "collection_times": "Mo-Fr 16:00; Sa 11:30", "indoor": "yes", "note": "ON 12/24 AND 12/31, THIS BOX MAY BE COLLECTED AS EARLY AS 12 NOON.", "nsi_id": "unitedstatespostalservice-a77078", "operator": "United States Postal Service", "operator:short": "USPS", "operator:type": "public", "operator:wikidata": "Q668687", "ref": "4442300004"}, "type": "Feature"}
{"geometry": {"coordinates": [-80.5711815, 41.311571489], "type": "Point"}, "id": "YmPunWMAJlK9N8JL-nHzl86iGSE=", "properties": {"@source_uri": "https://tools.usps.com/UspsToolsRestServices/rest/POLocator/findLocations", "@spider": "usps_collection_boxes", "addr:city": "HARTFORD", "addr:country": "US", "addr:postcode": "44424", "addr:state": "OH", "addr:street_address": "6893 STATE ROUTE 305", "amenity": "post_box", "collection_times": "Mo-Fr 16:30; Sa 11:30", "indoor": "yes", "note": "ON 12/24 AND 12/31, THIS BOX MAY BE COLLECTED AS EARLY AS 12 NOON.", "nsi_id": "unitedstatespostalservice-a77078", "operator": "United States Postal Service", "operator:short": "USPS", "operator:type": "public", "operator:wikidata": "Q668687", "ref": "4442400000"}, "type": "Feature"}
{"geometry": {"coordinates": [-80.5711815, 41.311571489], "type": "Point"}, "id": "zXYzEO0KVTx_LfbHz18NgiF7rtM=", "properties": {"@source_uri": "https://tools.usps.com/UspsToolsRestServices/rest/POLocator/findLocations", "@spider": "usps_collection_boxes", "addr:city": "HARTFORD", "addr:country": "US", "addr:postcode": "44424", "addr:state": "OH", "addr:street_address": "6893 STATE ROUTE 305", "amenity": "post_box", "collection_times": "Mo-Fr 16:30; Sa 11:30", "note": "ON 12/24 AND 12/31, THIS BOX MAY BE COLLECTED AS EARLY AS 12 NOON.", "nsi_id": "unitedstatespostalservice-a77078", "operator": "United States Postal Service", "operator:short": "USPS", "operator:type": "public", "operator:wikidata": "Q668687", "ref": "4442400001"}, "type": "Feature"}
{"geometry": {"coordinates": [-80.5711815, 41.311571489], "type": "Point"}, "id": "P1nIr5G156FknzC1s9S9dCC2XXM=", "properties": {"@source_uri": "https://tools.usps.com/UspsToolsRestServices/rest/POLocator/findLocations", "@spider": "usps_collection_boxes", "addr:city": "HARTFORD", "addr:country": "US", "addr:postcode": "44424", "addr:state": "OH", "addr:street_address": "6893 STATE ROUTE 305", "amenity": "post_box", "collection_times": "Mo-Fr 16:30; Sa 11:30", "indoor": "yes", "note": "ON 12/24 AND 12/31, THIS BOX MAY BE COLLECTED AS EARLY AS 12 NOON.", "nsi_id": "unitedstatespostalservice-a77078", "operator": "United States Postal Service", "operator:short": "USPS", "operator:type": "public", "operator:wikidata": "Q668687", "ref": "4442400003"}, "type": "Feature"}
{"geometry": {"coordinates": [-80.5670704, 41.155739], "type": "Point"}, "id": "5NAYeuXaqy_zuAh84nCrhA745Ow=", "properties": {"@source_uri": "https://tools.usps.com/UspsToolsRestServices/rest/POLocator/findLocations", "@spider": "usps_collection_boxes", "addr:city": "HUBBARD", "addr:country": "US", "addr:postcode": "44425", "addr:state": "OH", "addr:street_address": "121 E LIBERTY ST", "amenity": "post_box", "collection_times": "Mo-Sa 14:00", "note": "ON 12/24 AND 12/31, THIS BOX MAY BE COLLECTED AS EARLY AS 12 NOON.", "nsi_id": "unitedstatespostalservice-a77078", "operator": "United States Postal Service", "operator:short": "USPS", "operator:type": "public", "operator:wikidata": "Q668687", "ref": "4442500000"}, "type": "Feature"}
{"geometry": {"coordinates": [-80.6049821, 41.148935], "type": "Point"}, "id": "8ZtJvRWw9oq90rq0LcDDToq28ok=", "properties": {"@source_uri": "https://tools.usps.com/UspsToolsRestServices/rest/POLocator/findLocations", "@spider": "usps_collection_boxes", "addr:city": "HUBBARD", "addr:country": "US", "addr:postcode": "44425", "addr:state": "OH", "addr:street_address": "5925 YOUNGSTOWN HUBBARD RD", "amenity": "post_box", "collection_times": "Mo-Sa 08:30", "nsi_id": "unitedstatespostalservice-a77078", "operator": "United States Postal Service", "operator:short": "USPS", "operator:type": "public", "operator:wikidata": "Q668687", "ref": "4442500003"}, "type": "Feature"}
{"geometry": {"coordinates": [-80.5801149, 41.15602], "type": "Point"}, "id": "GHU3qSiVNlPMPbnJpBVqemO2_uI=", "properties": {"@source_uri": "https://tools.usps.com/UspsToolsRestServices/rest/POLocator/findLocations", "@spider": "usps_collection_boxes", "addr:city": "HUBBARD", "addr:country": "US", "addr:postcode": "44425", "addr:state": "OH", "addr:street_address": "619 W LIBERTY ST", "amenity": "post_box", "collection_times": "Mo-Sa 14:00", "note": "ON 12/24 AND 12/31, THIS BOX MAY BE COLLECTED AS EARLY AS 12 NOON.", "nsi_id": "unitedstatespostalservice-a77078", "operator": "United States Postal Service", "operator:short": "USPS", "operator:type": "public", "operator:wikidata": "Q668687", "ref": "4442500009"}, "type": "Feature"}
{"geometry": {"coordinates": [-80.583761886, 41.156352528], "type": "Point"}, "id": "Zl6ff5d29Uhvuiy0TVS8HZC9CnA=", "properties": {"@source_uri": "https://tools.usps.com/UspsToolsRestServices/rest/POLocator/findLocations", "@spider": "usps_collection_boxes", "addr:city": "HUBBARD", "addr:country": "US", "addr:postcode": "44425", "addr:state": "OH", "addr:street_address": "880 W LIBERTY ST", "amenity": "post_box", "collection_times": "Mo-Sa 14:00", "note": "ON 12/24 AND 12/31, THIS BOX MAY BE COLLECTED AS EARLY AS 12 NOON.", "nsi_id": "unitedstatespostalservice-a77078", "operator": "United States Postal Service", "operator:short": "USPS", "operator:type": "public", "operator:wikidata": "Q668687", "ref": "4442500010"}, "type": "Feature"}
{"geometry": {"coordinates": [-80.5732768, 41.156518], "type": "Point"}, "id": "6rr9_Vyz3XRMiCgwpm6-Y1IXlmY=", "properties": {"@source_uri": "https://tools.usps.com/UspsToolsRestServices/rest/POLocator/findLocations", "@spider": "usps_collection_boxes", "addr:city": "HUBBARD", "addr:country": "US", "addr:postcode": "44425", "addr:state": "OH", "addr:street_address": "220 W LIBERTY ST", "amenity": "post_box", "collection_times": "Mo-Sa 14:00", "note": "ON 12/24 AND 12/31, THIS BOX MAY BE COLLECTED AS EARLY AS 12 NOON.", "nsi_id": "unitedstatespostalservice-a77078", "operator": "United States Postal Service", "operator:short": "USPS", "operator:type": "public", "operator:wikidata": "Q668687", "ref": "4442500012"}, "type": "Feature"}
{"geometry": {"coordinates": [-80.5667085, 41.178372], "type": "Point"}, "id": "qHT3pg9FP9E2eDGi9Xx50EMt4FM=", "properties": {"@source_uri": "https://tools.usps.com/UspsToolsRestServices/rest/POLocator/findLocations", "@spider": "usps_collection_boxes", "addr:city": "HUBBARD", "addr:country": "US", "addr:postcode": "44425", "addr:state": "OH", "addr:street_address": "6965 TRUCK WORLD BLVD", "amenity": "post_box", "collection_times": "Mo-Sa 08:30", "nsi_id": "unitedstatespostalservice-a77078", "operator": "United States Postal Service", "operator:short": "USPS", "operator:type": "public", "operator:wikidata": "Q668687", "ref": "4442500016"}, "type": "Feature"}
{"geometry": {"coordinates": [-80.567550084, 41.156451512], "type": "Point"}, "id": "p6p9TZqBfhe-l5LedQkwHfdzHTw=", "properties": {"@source_uri": "https://tools.usps.com/UspsToolsRestServices/rest/POLocator/findLocations", "@spider": "usps_collection_boxes", "addr:city": "HUBBARD", "addr:country": "US", "addr:postcode": "44425", "addr:state": "OH", "addr:street_address": "44 E LIBERTY ST", "amenity": "post_box", "collection_times": "Mo-Fr 17:00; Sa 15:00", "note": "ON 12/24 AND 12/31, THIS BOX MAY BE COLLECTED AS EARLY AS 12 NOON.", "nsi_id": "unitedstatespostalservice-a77078", "operator": "United States Postal Service", "operator:short": "USPS", "operator:type": "public", "operator:wikidata": "Q668687", "ref": "4442500018"}, "type": "Feature"}
{"geometry": {"coordinates": [-80.567550084, 41.156451512], "type": "Point"}, "id": "EP2ew2CSHg5vSmeKVXCbthdWbAs=", "properties": {"@source_uri": "https://tools.usps.com/UspsToolsRestServices/rest/POLocator/findLocations", "@spider": "usps_collection_boxes", "addr:city": "HUBBARD", "addr:country": "US", "addr:postcode": "44425", "addr:state": "OH", "addr:street_address": "44 E LIBERTY ST", "amenity": "post_box", "collection_times": "Mo-Fr 17:00; Sa 15:00", "indoor": "yes", "note": "ON 12/24 AND 12/31, THIS BOX MAY BE COLLECTED AS EARLY AS 12 NOON.", "nsi_id": "unitedstatespostalservice-a77078", "operator": "United States Postal Service", "operator:short": "USPS", "operator:type": "public", "operator:wikidata": "Q668687", "ref": "4442500020"}, "type": "Feature"}
{"geometry": {"coordinates": [-80.5698837, 41.182635], "type": "Point"}, "id": "3LL4C8GlpqgTCcZ0u5MogEBI66Q=", "properties": {"@source_uri": "https://tools.usps.com/UspsToolsRestServices/rest/POLocator/findLocations", "@spider": "usps_collection_boxes", "addr:city": "HUBBARD", "addr:country": "US", "addr:postcode": "44425", "addr:state": "OH", "addr:street_address": "2226 N MAIN ST", "amenity": "post_box", "collection_times": "Mo-Sa 08:30", "nsi_id": "unitedstatespostalservice-a77078", "operator": "United States Postal Service", "operator:short": "USPS", "operator:type": "public", "operator:wikidata": "Q668687", "ref": "4442500021"}, "type": "Feature"}
{"geometry": {"coordinates": [-80.567550084, 41.156451512], "type": "Point"}, "id": "fmDpeU9lwuubcVOLm2r3NHpagj0=", "properties": {"@source_uri": "https://tools.usps.com/UspsToolsRestServices/rest/POLocator/findLocations", "@spider": "usps_collection_boxes", "addr:city": "HUBBARD", "addr:country": "US", "addr:postcode": "44425", "addr:state": "OH", "addr:street_address": "44 E LIBERTY ST", "amenity": "post_box", "collection_times": "Mo-Fr 17:00; Sa 12:00", "indoor": "yes", "note": "ON 12/24 AND 12/31, THIS BOX MAY BE COLLECTED AS EARLY AS 12 NOON.", "nsi_id": "unitedstatespostalservice-a77078", "operator": "United States Postal Service", "operator:short": "USPS", "operator:type": "public", "operator:wikidata": "Q668687", "ref": "4442500024"}, "type": "Feature"}
{"geometry": {"coordinates": [-80.955563, 40.735411], "type": "Point"}, "id": "8p4VlLJiHwP3qJi3yc4DyNIzYWo=", "properties": {"@source_uri": "https://tools.usps.com/UspsToolsRestServices/rest/POLocator/findLocations", "@spider": "usps_collection_boxes", "addr:city": "KENSINGTON", "addr:country": "US", "addr:postcode": "44427", "addr:state": "OH", "addr:street_address": "11011 STATE ROUTE 644", "amenity": "post_box", "collection_times": "Mo-Fr 16:00; Sa 11:45", "note": "ON 12/24 AND 12/31, THIS BOX MAY BE COLLECTED AS EARLY AS 12 NOON.", "nsi_id": "unitedstatespostalservice-a77078", "operator": "United States Postal Service", "operator:short": "USPS", "operator:type": "public", "operator:wikidata": "Q668687", "ref": "4442700002"}, "type": "Feature"}
{"geometry": {"coordinates": [-80.589606, 41.446723], "type": "Point"}, "id": "mPN-L3mm03Lx6QN2fNXPzUNUaXQ=", "properties": {"@source_uri": "https://tools.usps.com/UspsToolsRestServices/rest/POLocator/findLocations", "@spider": "usps_collection_boxes", "addr:city": "KINSMAN", "addr:country": "US", "addr:postcode": "44428", "addr:state": "OH", "addr:street_address": "8289 STATE ST", "amenity": "post_box", "collection_times": "Mo-Fr 16:15; Sa 11:45", "note": "ON 12/24 AND 12/31, THIS BOX MAY BE COLLECTED AS EARLY AS 12 NOON.", "nsi_id": "unitedstatespostalservice-a77078", "operator": "United States Postal Service", "operator:short": "USPS", "operator:type": "public", "operator:wikidata": "Q668687", "ref": "4442800000"}, "type": "Feature"}
{"geometry": {"coordinates": [-80.58958, 41.446749], "type": "Point"}, "id": "a4nIzSeZMECgVWqnQXgHPj3kQck=", "properties": {"@source_uri": "https://tools.usps.com/UspsToolsRestServices/rest/POLocator/findLocations", "@spider": "usps_collection_boxes", "addr:city": "KINSMAN", "addr:country": "US", "addr:postcode": "44428", "addr:state": "OH", "addr:street_address": "8289 STATE ST", "amenity": "post_box", "collection_times": "Mo-Fr 16:15; Sa 11:45", "indoor": "yes", "note": "ON 12/24 AND 12/31, THIS BOX MAY BE COLLECTED AS EARLY AS 12 NOON.", "nsi_id": "unitedstatespostalservice-a77078", "operator": "United States Postal Service", "operator:short": "USPS", "operator:type": "public", "operator:wikidata": "Q668687", "ref": "4442800002"}, "type": "Feature"}
{"geometry": {"coordinates": [-80.5894605224, 41.4464247044], "type": "Point"}, "id": "3ogdGFw9jZoRfzXbYulGD3gsSDg=", "properties": {"@source_uri": "https://tools.usps.com/UspsToolsRestServices/rest/POLocator/findLocations", "@spider": "usps_collection_boxes", "addr:city": "KINSMAN", "addr:country": "US", "addr:postcode": "44428", "addr:state": "OH", "addr:street_address": "8289 STATE ST", "amenity": "post_box", "collection_times": "Mo-Fr 16:00; Sa 12:00", "indoor": "yes", "note": "ON 12/24 AND 12/31, THIS BOX MAY BE COLLECTED AS EARLY AS 12 NOON.", "nsi_id": "unitedstatespostalservice-a77078", "operator": "United States Postal Service", "operator:short": "USPS", "operator:type": "public", "operator:wikidata": "Q668687", "ref": "4442800004"}, "type": "Feature"}
{"geometry": {"coordinates": [-80.991043602, 41.096269824], "type": "Point"}, "id": "z_XiJmGrX5o55D7SXDxXIUKorb4=", "properties": {"@source_uri": "https://tools.usps.com/UspsToolsRestServices/rest/POLocator/findLocations", "@spider": "usps_collection_boxes", "addr:city": "LAKE MILTON", "addr:country": "US", "addr:postcode": "44429", "addr:state": "OH", "addr:street_address": "17839 MAHONING AVE", "amenity": "post_box", "collection_times": "Mo-Fr 16:15; Sa 11:30", "indoor": "yes", "note": "ON 12/24 AND 12/31, THIS BOX MAY BE COLLECTED AS EARLY AS 12 NOON.", "nsi_id": "unitedstatespostalservice-a77078", "operator": "United States Postal Service", "operator:short": "USPS", "operator:type": "public", "operator:wikidata": "Q668687", "ref": "4442900000"}, "type": "Feature"}
{"geometry": {"coordinates": [-80.991043602, 41.096269824], "type": "Point"}, "id": "zEzQaeYTPcS6t5kQR_tS833MLSY=", "properties": {"@source_uri": "https://tools.usps.com/UspsToolsRestServices/rest/POLocator/findLocations", "@spider": "usps_collection_boxes", "addr:city": "LAKE MILTON", "addr:country": "US", "addr:postcode": "44429", "addr:state": "OH", "addr:street_address": "17839 MAHONING AVE", "amenity": "post_box", "collection_times": "Mo-Fr 16:15; Sa 11:30", "note": "ON 12/24 AND 12/31, THIS BOX MAY BE COLLECTED AS EARLY AS 12 NOON.", "nsi_id": "unitedstatespostalservice-a77078", "operator": "United States Postal Service", "operator:short": "USPS", "operator:type": "public", "operator:wikidata": "Q668687", "ref": "4442900001"}, "type": "Feature"}
{"geometry": {"coordinates": [-80.991043602, 41.096269824], "type": "Point"}, "id": "ugsq1KzsF7cSAonT6FPPuDVMTPA=", "properties": {"@source_uri": "https://tools.usps.com/UspsToolsRestServices/rest/POLocator/findLocations", "@spider": "usps_collection_boxes", "addr:city": "LAKE MILTON", "addr:country": "US", "addr:postcode": "44429", "addr:state": "OH", "addr:street_address": "17839 MAHONING AVE", "amenity": "post_box", "collection_times": "Mo-Fr 16:30; Sa 11:30", "indoor": "yes", "note": "ON 12/24 AND 12/31, THIS BOX MAY BE COLLECTED AS EARLY AS 12 NOON.", "nsi_id": "unitedstatespostalservice-a77078", "operator": "United States Postal Service", "operator:short": "USPS", "operator:type": "public", "operator:wikidata": "Q668687", "ref": "4442900003"}, "type": "Feature"}
{"geometry": {"coordinates": [-80.869146097, 41.23913171], "type": "Point"}, "id": "7M-JSTbImsiEreRUorNyxyAj0kw=", "properties": {"@source_uri": "https://tools.usps.com/UspsToolsRestServices/rest/POLocator/findLocations", "@spider": "usps_collection_boxes", "addr:city": "LEAVITTSBURG", "addr:country": "US", "addr:postcode": "44430", "addr:state": "OH", "addr:street_address": "3825 W MARKET ST", "amenity": "post_box", "collection_times": "Mo-Fr 16:15; Sa 11:15", "note": "ON 12/24 AND 12/31, THIS BOX MAY BE COLLECTED AS EARLY AS 12 NOON.", "nsi_id": "unitedstatespostalservice-a77078", "operator": "United States Postal Service", "operator:short": "USPS", "operator:type": "public", "operator:wikidata": "Q668687", "ref": "4443000001"}, "type": "Feature"}
{"geometry": {"coordinates": [-80.869146097, 41.23913171], "type": "Point"}, "id": "siKigShfw8SINTPpuCuT4CNDehE=", "properties": {"@source_uri": "https://tools.usps.com/UspsToolsRestServices/rest/POLocator/findLocations", "@spider": "usps_collection_boxes", "addr:city": "LEAVITTSBURG", "addr:country": "US", "addr:postcode": "44430", "addr:state": "OH", "addr:street_address": "3825 W MARKET ST", "amenity": "post_box", "collection_times": "Mo-Fr 16:15; Sa 11:15", "indoor": "yes", "note": "ON 12/24 AND 12/31, THIS BOX MAY BE COLLECTED AS EARLY AS 12 NOON.", "nsi_id": "unitedstatespostalservice-a77078", "operator": "United States Postal Service", "operator:short": "USPS", "operator:type": "public", "operator:wikidata": "Q668687", "ref": "4443000003"}, "type": "Feature"}
{"geometry": {"coordinates": [-80.869146097, 41.23913171], "type": "Point"}, "id": "zkachEnd8DuZ1f-YPJVeedtd_EU=", "properties": {"@source_uri": "https://tools.usps.com/UspsToolsRestServices/rest/POLocator/findLocations", "@spider": "usps_collection_boxes", "addr:city": "LEAVITTSBURG", "addr:country": "US", "addr:postcode": "44430", "addr:state": "OH", "addr:street_address": "3825 W MARKET ST", "amenity": "post_box", "collection_times": "Mo-Fr 17:00; Sa 12:00", "indoor": "yes", "note": "ON 12/24 AND 12/31, THIS BOX MAY BE COLLECTED AS EARLY AS 12 NOON.", "nsi_id": "unitedstatespostalservice-a77078", "operator": "United States Postal Service", "operator:short": "USPS", "operator:type": "public", "operator:wikidata": "Q668687", "ref": "4443000005"}, "type": "Feature"}
{"geometry": {"coordinates": [-80.757333277, 40.877599294], "type": "Point"}, "id": "suBkXl7sLZOfxLDFQG1Vim3ocLg=", "properties": {"@source_uri": "https://tools.usps.com/UspsToolsRestServices/rest/POLocator/findLocations", "@spider": "usps_collection_boxes", "addr:city": "LEETONIA", "addr:country": "US", "addr:postcode": "44431", "addr:state": "OH", "addr:street_address": "235 MAIN ST", "amenity": "post_box", "collection_times": "Mo-Fr 16:15; Sa 12:00", "indoor": "yes", "note": "ON 12/24 AND 12/31, THIS BOX MAY BE COLLECTED AS EARLY AS 12 NOON.", "nsi_id": "unitedstatespostalservice-a77078", "operator": "United States Postal Service", "operator:short": "USPS", "operator:type": "public", "operator:wikidata": "Q668687", "ref": "4443100000"}, "type": "Feature"}
{"geometry": {"coordinates": [-80.75723, 40.877594], "type": "Point"}, "id": "kkCFDsOy-Dm2Mpmfy9M2CgDMahY=", "properties": {"@source_uri": "https://tools.usps.com/UspsToolsRestServices/rest/POLocator/findLocations", "@spider": "usps_collection_boxes", "addr:city": "LEETONIA", "addr:country": "US", "addr:postcode": "44431", "addr:state": "OH", "addr:street_address": "234 MAIN ST", "amenity": "post_box", "collection_times": "Mo-Fr 16:15; Sa 12:00", "note": "ON 12/24 AND 12/31, THIS BOX MAY BE COLLECTED AS EARLY AS 12 NOON.", "nsi_id": "unitedstatespostalservice-a77078", "operator": "United States Postal Service", "operator:short": "USPS", "operator:type": "public", "operator:wikidata": "Q668687", "ref": "4443100002"}, "type": "Feature"}
{"geometry": {"coordinates": [-80.757333277, 40.877599294], "type": "Point"}, "id": "21QT3ni0RxNkqb17mdaSpaTRSEU=", "properties": {"@source_uri": "https://tools.usps.com/UspsToolsRestServices/rest/POLocator/findLocations", "@spider": "usps_collection_boxes", "addr:city": "LEETONIA", "addr:country": "US", "addr:postcode": "44431", "addr:state": "OH", "addr:street_address": "235 MAIN ST", "amenity": "post_box", "collection_times": "Mo-Fr 16:30; Sa 12:00", "indoor": "yes", "note": "ON 12/24 AND 12/31, THIS BOX MAY BE COLLECTED AS EARLY AS 12 NOON.", "nsi_id": "unitedstatespostalservice-a77078", "operator": "United States Postal Service", "operator:short": "USPS", "operator:type": "public", "operator:wikidata": "Q668687", "ref": "4443100014"}, "type": "Feature"}
{"geometry": {"coordinates": [-80.772878259, 40.785264], "type": "Point"}, "id": "BO6smA9OnsLW6ddzBxw9WvoSh_E=", "properties": {"@source_uri": "https://tools.usps.com/UspsToolsRestServices/rest/POLocator/findLocations", "@spider": "usps_collection_boxes", "addr:city": "LISBON", "addr:country": "US", "addr:postcode": "44432", "addr:state": "OH", "addr:street_address": "7983 DICKEY DR", "amenity": "post_box", "collection_times": "Mo-Fr 16:30; Sa 15:30", "indoor": "yes", "note": "ON 12/24 AND 12/31, THIS BOX MAY BE COLLECTED AS EARLY AS 12 NOON.", "nsi_id": "unitedstatespostalservice-a77078", "operator": "United States Postal Service", "operator:short": "USPS", "operator:type": "public", "operator:wikidata": "Q668687", "ref": "4443200000"}, "type": "Feature"}
{"geometry": {"coordinates": [-80.772878259, 40.785264], "type": "Point"}, "id": "hlUebVPJfdchLpdUVzT_63m_kw0=", "properties": {"@source_uri": "https://tools.usps.com/UspsToolsRestServices/rest/POLocator/findLocations", "@spider": "usps_collection_boxes", "addr:city": "LISBON", "addr:country": "US", "addr:postcode": "44432", "addr:state": "OH", "addr:street_address": "7983 DICKEY DR", "amenity": "post_box", "collection_times": "Mo-Fr 16:30; Sa 15:30", "note": "ON 12/24 AND 12/31, THIS BOX MAY BE COLLECTED AS EARLY AS 12 NOON.", "nsi_id": "unitedstatespostalservice-a77078", "operator": "United States Postal Service", "operator:short": "USPS", "operator:type": "public", "operator:wikidata": "Q668687", "ref": "4443200002"}, "type": "Feature"}
{"geometry": {"coordinates": [-80.7671202799, 40.7721485179], "type": "Point"}, "id": "mWY8W6FNL-B6ELVncLVA37HcIWE=", "properties": {"@source_uri": "https://tools.usps.com/UspsToolsRestServices/rest/POLocator/findLocations", "@spider": "usps_collection_boxes", "addr:city": "LISBON", "addr:country": "US", "addr:postcode": "44432", "addr:state": "OH", "addr:street_address": "118 E LINCOLN WAY", "amenity": "post_box", "collection_times": "Mo-Sa 15:00", "note": "ON 12/24 AND 12/31, THIS BOX MAY BE COLLECTED AS EARLY AS 12 NOON.", "nsi_id": "unitedstatespostalservice-a77078", "operator": "United States Postal Service", "operator:short": "USPS", "operator:type": "public", "operator:wikidata": "Q668687", "ref": "4443200003"}, "type": "Feature"}
{"geometry": {"coordinates": [-80.7685854, 40.772519], "type": "Point"}, "id": "RIvKIEuTF0fiK8tHblgYqUK6Chk=", "properties": {"@source_uri": "https://tools.usps.com/UspsToolsRestServices/rest/POLocator/findLocations", "@spider": "usps_collection_boxes", "addr:city": "LISBON", "addr:country": "US", "addr:postcode": "44432", "addr:state": "OH", "addr:street_address": "38 N PARK AVE", "amenity": "post_box", "collection_times": "Mo-Sa 15:00", "note": "ON 12/24 AND 12/31, THIS BOX MAY BE COLLECTED AS EARLY AS 12 NOON.", "nsi_id": "unitedstatespostalservice-a77078", "operator": "United States Postal Service", "operator:short": "USPS", "operator:type": "public", "operator:wikidata": "Q668687", "ref": "4443200005"}, "type": "Feature"}
{"geometry": {"coordinates": [-80.7770984, 40.788816], "type": "Point"}, "id": "wWfziMJc2oPUk_2dE0T0fR09KrQ=", "properties": {"@source_uri": "https://tools.usps.com/UspsToolsRestServices/rest/POLocator/findLocations", "@spider": "usps_collection_boxes", "addr:city": "LISBON", "addr:country": "US", "addr:postcode": "44432", "addr:state": "OH", "addr:street_address": "7735 STATE ROUTE 45", "amenity": "post_box", "collection_times": "Mo-Sa 09:30", "nsi_id": "unitedstatespostalservice-a77078", "operator": "United States Postal Service", "operator:short": "USPS", "operator:type": "public", "operator:wikidata": "Q668687", "ref": "4443200011"}, "type": "Feature"}
{"geometry": {"coordinates": [-80.7648362, 40.772314], "type": "Point"}, "id": "xdcTHvmypuWzEHTv6LVSFwq2loo=", "properties": {"@source_uri": "https://tools.usps.com/UspsToolsRestServices/rest/POLocator/findLocations", "@spider": "usps_collection_boxes", "addr:city": "LISBON", "addr:country": "US", "addr:postcode": "44432", "addr:state": "OH", "addr:street_address": "303 E LINCOLN WAY", "amenity": "post_box", "collection_times": "Mo-Sa 09:30", "nsi_id": "unitedstatespostalservice-a77078", "operator": "United States Postal Service", "operator:short": "USPS", "operator:type": "public", "operator:wikidata": "Q668687", "ref": "4443200015"}, "type": "Feature"}
{"geometry": {"coordinates": [-80.7688561, 40.771886], "type": "Point"}, "id": "4kB5jBHEfgtAgJpAT5gaoUwekr8=", "properties": {"@source_uri": "https://tools.usps.com/UspsToolsRestServices/rest/POLocator/findLocations", "@spider": "usps_collection_boxes", "addr:city": "LISBON", "addr:country": "US", "addr:postcode": "44432", "addr:state": "OH", "addr:street_address": "105 S MARKET ST", "amenity": "post_box", "collection_times": "Mo-Sa 15:00", "note": "ON 12/24 AND 12/31, THIS BOX MAY BE COLLECTED AS EARLY AS 12 NOON.", "nsi_id": "unitedstatespostalservice-a77078", "operator": "United States Postal Service", "operator:short": "USPS", "operator:type": "public", "operator:wikidata": "Q668687", "ref": "4443200019"}, "type": "Feature"}
{"geometry": {"coordinates": [-80.772878259, 40.785264], "type": "Point"}, "id": "KUXD68WYiOaMgaD8SzVAefnCyZ8=", "properties": {"@source_uri": "https://tools.usps.com/UspsToolsRestServices/rest/POLocator/findLocations", "@spider": "usps_collection_boxes", "addr:city": "LISBON", "addr:country": "US", "addr:postcode": "44432", "addr:state": "OH", "addr:street_address": "7983 DICKEY DR", "amenity": "post_box", "collection_times": "Mo-Fr 16:30; Sa 12:00", "indoor": "yes", "note": "ON 12/24 AND 12/31, THIS BOX MAY BE COLLECTED AS EARLY AS 12 NOON.", "nsi_id": "unitedstatespostalservice-a77078", "operator": "United States Postal Service", "operator:short": "USPS", "operator:type": "public", "operator:wikidata": "Q668687", "ref": "4443200021"}, "type": "Feature"}
{"geometry": {"coordinates": [-80.5359388, 41.036452], "type": "Point"}, "id": "Jk37eAgX-oXAWw8TvxE9m8ENCqY=", "properties": {"@source_uri": "https://tools.usps.com/UspsToolsRestServices/rest/POLocator/findLocations", "@spider": "usps_collection_boxes", "addr:city": "LOWELLVILLE", "addr:country": "US", "addr:postcode": "44436", "addr:state": "OH", "addr:street_address": "140 E LIBERTY ST", "amenity": "post_box", "collection_times": "Mo-Fr 14:00; Sa 12:00", "note": "ON 12/24 AND 12/31, THIS BOX MAY BE COLLECTED AS EARLY AS 12 NOON.", "nsi_id": "unitedstatespostalservice-a77078", "operator": "United States Postal Service", "operator:short": "USPS", "operator:type": "public", "operator:wikidata": "Q668687", "ref": "4443600002"}, "type": "Feature"}
{"geometry": {"coordinates": [-80.53607083, 41.037524192], "type": "Point"}, "id": "Acy8VHNe4sWm9fbxNGAzTGJzFdk=", "properties": {"@source_uri": "https://tools.usps.com/UspsToolsRestServices/rest/POLocator/findLocations", "@spider": "usps_collection_boxes", "addr:city": "LOWELLVILLE", "addr:country": "US", "addr:postcode": "44436", "addr:state": "OH", "addr:street_address": "10 E LIBERTY ST", "amenity": "post_box", "collection_times": "Mo-Fr 16:30; Sa 12:00", "note": "ON 12/24 AND 12/31, THIS BOX MAY BE COLLECTED AS EARLY AS 12 NOON.", "nsi_id": "unitedstatespostalservice-a77078", "operator": "United States Postal Service", "operator:short": "USPS", "operator:type": "public", "operator:wikidata": "Q668687", "ref": "4443600004"}, "type": "Feature"}
{"geometry": {"coordinates": [-80.53607083, 41.037524192], "type": "Point"}, "id": "tqQwWjSiAT4YL5ZFNr9KlGvsmzI=", "properties": {"@source_uri": "https://tools.usps.com/UspsToolsRestServices/rest/POLocator/findLocations", "@spider": "usps_collection_boxes", "addr:city": "LOWELLVILLE", "addr:country": "US", "addr:postcode": "44436", "addr:state": "OH", "addr:street_address": "10 E LIBERTY ST", "amenity": "post_box", "collection_times": "Mo-Fr 16:30; Sa 12:00", "indoor": "yes", "note": "ON 12/24 AND 12/31, THIS BOX MAY BE COLLECTED AS EARLY AS 12 NOON.", "nsi_id": "unitedstatespostalservice-a77078", "operator": "United States Postal Service", "operator:short": "USPS", "operator:type": "public", "operator:wikidata": "Q668687", "ref": "4443600005"}, "type": "Feature"}
{"geometry": {"coordinates": [-80.53607083, 41.037524192], "type": "Point"}, "id": "bt62vZWDA2k5G-4zPVRFQeS7hoU=", "properties": {"@source_uri": "https://tools.usps.com/UspsToolsRestServices/rest/POLocator/findLocations", "@spider": "usps_collection_boxes", "addr:city": "LOWELLVILLE", "addr:country": "US", "addr:postcode": "44436", "addr:state": "OH", "addr:street_address": "10 E LIBERTY ST", "amenity": "post_box", "collection_times": "Mo-Fr 16:30; Sa 12:00", "indoor": "yes", "note": "ON 12/24 AND 12/31, THIS BOX MAY BE COLLECTED AS EARLY AS 12 NOON.", "nsi_id": "unitedstatespostalservice-a77078", "operator": "United States Postal Service", "operator:short": "USPS", "operator:type": "public", "operator:wikidata": "Q668687", "ref": "4443600007"}, "type": "Feature"}
{"geometry": {"coordinates": [-80.724398498, 41.163174], "type": "Point"}, "id": "m_QzEux5D5tx2Zg9wlxjDjIrtHI=", "properties": {"@source_uri": "https://tools.usps.com/UspsToolsRestServices/rest/POLocator/findLocations", "@spider": "usps_collection_boxes", "addr:city": "MCDONALD", "addr:country": "US", "addr:postcode": "44437", "addr:state": "OH", "addr:street_address": "500 OHIO AVE", "amenity": "post_box", "collection_times": "Mo-Fr 17:00; Sa 11:45", "note": "ON 12/24 AND 12/31, THIS BOX MAY BE COLLECTED AS EARLY AS 12 NOON.", "nsi_id": "unitedstatespostalservice-a77078", "operator": "United States Postal Service", "operator:short": "USPS", "operator:type": "public", "operator:wikidata": "Q668687", "ref": "4443700000"}, "type": "Feature"}
{"geometry": {"coordinates": [-80.724398498, 41.163174], "type": "Point"}, "id": "b8E3Mk6wmrGs1W7ZLkmEdSBE_3o=", "properties": {"@source_uri": "https://tools.usps.com/UspsToolsRestServices/rest/POLocator/findLocations", "@spider": "usps_collection_boxes", "addr:city": "MCDONALD", "addr:country": "US", "addr:postcode": "44437", "addr:state": "OH", "addr:street_address": "500 OHIO AVE", "amenity": "post_box", "collection_times": "Mo-Fr 17:00; Sa 11:45", "indoor": "yes", "note": "ON 12/24 AND 12/31, THIS BOX MAY BE COLLECTED AS EARLY AS 12 NOON.", "nsi_id": "unitedstatespostalservice-a77078", "operator": "United States Postal Service", "operator:short": "USPS", "operator:type": "public", "operator:wikidata": "Q668687", "ref": "4443700002"}, "type": "Feature"}
{"geometry": {"coordinates": [-80.724398498, 41.163174], "type": "Point"}, "id": "96jbCHEhgYK2tGKb1WVvoKwRVo8=", "properties": {"@source_uri": "https://tools.usps.com/UspsToolsRestServices/rest/POLocator/findLocations", "@spider": "usps_collection_boxes", "addr:city": "MCDONALD", "addr:country": "US", "addr:postcode": "44437", "addr:state": "OH", "addr:street_address": "500 OHIO AVE", "amenity": "post_box", "collection_times": "Mo-Fr 17:00; Sa 12:00", "indoor": "yes", "note": "ON 12/24 AND 12/31, THIS BOX MAY BE COLLECTED AS EARLY AS 12 NOON.", "nsi_id": "unitedstatespostalservice-a77078", "operator": "United States Postal Service", "operator:short": "USPS", "operator:type": "public", "operator:wikidata": "Q668687", "ref": "4443700011"}, "type": "Feature"}
{"geometry": {"coordinates": [-80.5249305, 41.220748], "type": "Point"}, "id": "VICOnscScm4tXOSNkJrWWeT_VHQ=", "properties": {"@source_uri": "https://tools.usps.com/UspsToolsRestServices/rest/POLocator/findLocations", "@spider": "usps_collection_boxes", "addr:city": "MASURY", "addr:country": "US", "addr:postcode": "44438", "addr:state": "OH", "addr:street_address": "7835 ELM ST", "amenity": "post_box", "collection_times": "Mo-Fr 17:00; Sa 12:00", "indoor": "yes", "note": "ON 12/24 AND 12/31, THIS BOX MAY BE COLLECTED AS EARLY AS 12 NOON.", "nsi_id": "unitedstatespostalservice-a77078", "operator": "United States Postal Service", "operator:short": "USPS", "operator:type": "public", "operator:wikidata": "Q668687", "ref": "4443800001"}, "type": "Feature"}
{"geometry": {"coordinates": [-80.5358835, 41.208053489], "type": "Point"}, "id": "PkhZZ18BGeVSaUWW1W1Gm9nieQU=", "properties": {"@source_uri": "https://tools.usps.com/UspsToolsRestServices/rest/POLocator/findLocations", "@spider": "usps_collection_boxes", "addr:city": "MASURY", "addr:country": "US", "addr:postcode": "44438", "addr:state": "OH", "addr:street_address": "7835 ELM ST", "amenity": "post_box", "collection_times": "Mo-Fr 17:00; Sa 11:45", "note": "ON 12/24 AND 12/31, THIS BOX MAY BE COLLECTED AS EARLY AS 12 NOON.", "nsi_id": "unitedstatespostalservice-a77078", "operator": "United States Postal Service", "operator:short": "USPS", "operator:type": "public", "operator:wikidata": "Q668687", "ref": "4443800003"}, "type": "Feature"}
{"geometry": {"coordinates": [-80.5244074, 41.226692], "type": "Point"}, "id": "_JgMz98B3Xv2uF7TP_E5WJFwHNM=", "properties": {"@source_uri": "https://tools.usps.com/UspsToolsRestServices/rest/POLocator/findLocations", "@spider": "usps_collection_boxes", "addr:city": "MASURY", "addr:country": "US", "addr:postcode": "44438", "addr:state": "OH", "addr:street_address": "655 BROOKFIELD AVE", "amenity": "post_box", "collection_times": "Mo-Sa 12:30", "note": "ON 12/24 AND 12/31, THIS BOX MAY BE COLLECTED AS EARLY AS 12 NOON.", "nsi_id": "unitedstatespostalservice-a77078", "operator": "United States Postal Service", "operator:short": "USPS", "operator:type": "public", "operator:wikidata": "Q668687", "ref": "4443800006"}, "type": "Feature"}
{"geometry": {"coordinates": [-80.5249305, 41.220748], "type": "Point"}, "id": "u2X_43P_r16XJp1NKFisP8fVA6E=", "properties": {"@source_uri": "https://tools.usps.com/UspsToolsRestServices/rest/POLocator/findLocations", "@spider": "usps_collection_boxes", "addr:city": "MASURY", "addr:country": "US", "addr:postcode": "44438", "addr:state": "OH", "addr:street_address": "7835 ELM ST", "amenity": "post_box", "collection_times": "Mo-Fr 17:00; Sa 12:00", "indoor": "yes", "note": "ON 12/24 AND 12/31, THIS BOX MAY BE COLLECTED AS EARLY AS 12 NOON.", "nsi_id": "unitedstatespostalservice-a77078", "operator": "United States Postal Service", "operator:short": "USPS", "operator:type": "public", "operator:wikidata": "Q668687", "ref": "4443800008"}, "type": "Feature"}
{"geometry": {"coordinates": [-80.955811266, 41.458361489], "type": "Point"}, "id": "98dYtIdL9_sZaSRUaWSXb3jcnO8=", "properties": {"@source_uri": "https://tools.usps.com/UspsToolsRestServices/rest/POLocator/findLocations", "@spider": "usps_collection_boxes", "addr:city": "MESOPOTAMIA", "addr:country": "US", "addr:postcode": "44439", "addr:state": "OH", "addr:street_address": "4370 KINSMAN RD", "amenity": "post_box", "collection_times": "Mo-Fr 16:00; Sa 11:15", "note": "ON 12/24 AND 12/31, THIS BOX MAY BE COLLECTED AS EARLY AS 12 NOON.", "nsi_id": "unitedstatespostalservice-a77078", "operator": "United States Postal Service", "operator:short": "USPS", "operator:type": "public", "operator:wikidata": "Q668687", "ref": "4443900000"}, "type": "Feature"}
{"geometry": {"coordinates": [-80.955811266, 41.458361489], "type": "Point"}, "id": "Ti2DnY1DchBkNM20u-v-bbQSks0=", "properties": {"@source_uri": "https://tools.usps.com/UspsToolsRestServices/rest/POLocator/findLocations", "@spider": "usps_collection_boxes", "addr:city": "MESOPOTAMIA", "addr:country": "US", "addr:postcode": "44439", "addr:state": "OH", "addr:street_address": "4370 KINSMAN RD", "amenity": "post_box", "collection_times": "Mo-Fr 16:00; Sa 11:15", "indoor": "yes", "note": "ON 12/24 AND 12/31, THIS BOX MAY BE COLLECTED AS EARLY AS 12 NOON.", "nsi_id": "unitedstatespostalservice-a77078", "operator": "United States Postal Service", "operator:short": "USPS", "operator:type": "public", "operator:wikidata": "Q668687", "ref": "4443900001"}, "type": "Feature"}
{"geometry": {"coordinates": [-80.955811266, 41.458361489], "type": "Point"}, "id": "lpf8gnCHIXO1yy6rTr0eC40kUjI=", "properties": {"@source_uri": "https://tools.usps.com/UspsToolsRestServices/rest/POLocator/findLocations", "@spider": "usps_collection_boxes", "addr:city": "MESOPOTAMIA", "addr:country": "US", "addr:postcode": "44439", "addr:state": "OH", "addr:street_address": "4370 KINSMAN RD", "amenity": "post_box", "collection_times": "Mo-Fr 16:30; Sa 11:30", "indoor": "yes", "note": "ON 12/24 AND 12/31, THIS BOX MAY BE COLLECTED AS EARLY AS 12 NOON.", "nsi_id": "unitedstatespostalservice-a77078", "operator": "United States Postal Service", "operator:short": "USPS", "operator:type": "public", "operator:wikidata": "Q668687", "ref": "4443900003"}, "type": "Feature"}
{"geometry": {"coordinates": [-80.7686233033, 41.1326068261], "type": "Point"}, "id": "O05O74iZL0DY0ByeaujQm1GBYIg=", "properties": {"@source_uri": "https://tools.usps.com/UspsToolsRestServices/rest/POLocator/findLocations", "@spider": "usps_collection_boxes", "addr:city": "MINERAL RIDGE", "addr:country": "US", "addr:postcode": "44440", "addr:state": "OH", "addr:street_address": "1318 MAIN ST", "amenity": "post_box", "collection_times": "Mo-Sa 13:00", "note": "ON 12/24 AND 12/31, THIS BOX MAY BE COLLECTED AS EARLY AS 12 NOON.", "nsi_id": "unitedstatespostalservice-a77078", "operator": "United States Postal Service", "operator:short": "USPS", "operator:type": "public", "operator:wikidata": "Q668687", "ref": "4444000002"}, "type": "Feature"}
{"geometry": {"coordinates": [-80.538745712, 40.790287603], "type": "Point"}, "id": "1Nzf7GB8dvTpco-L_7PTYra-CtA=", "properties": {"@source_uri": "https://tools.usps.com/UspsToolsRestServices/rest/POLocator/findLocations", "@spider": "usps_collection_boxes", "addr:city": "NEGLEY", "addr:country": "US", "addr:postcode": "44441", "addr:state": "OH", "addr:street_address": "7560 COMMERCE ST", "amenity": "post_box", "collection_times": "Mo-Fr 16:15; Sa 11:15", "note": "ON 12/24 AND 12/31, THIS BOX MAY BE COLLECTED AS EARLY AS 12 NOON.", "nsi_id": "unitedstatespostalservice-a77078", "operator": "United States Postal Service", "operator:short": "USPS", "operator:type": "public", "operator:wikidata": "Q668687", "ref": "4444100000"}, "type": "Feature"}
{"geometry": {"coordinates": [-80.538745712, 40.790287603], "type": "Point"}, "id": "0lcpENEwnlJuUYOSwqxenadLYUo=", "properties": {"@source_uri": "https://tools.usps.com/UspsToolsRestServices/rest/POLocator/findLocations", "@spider": "usps_collection_boxes", "addr:city": "NEGLEY", "addr:country": "US", "addr:postcode": "44441", "addr:state": "OH", "addr:street_address": "7560 COMMERCE ST", "amenity": "post_box", "collection_times": "Mo-Fr 16:15; Sa 11:30", "indoor": "yes", "note": "ON 12/24 AND 12/31, THIS BOX MAY BE COLLECTED AS EARLY AS 12 NOON.", "nsi_id": "unitedstatespostalservice-a77078", "operator": "United States Postal Service", "operator:short": "USPS", "operator:type": "public", "operator:wikidata": "Q668687", "ref": "4444100003"}, "type": "Feature"}
{"geometry": {"coordinates": [-80.5625984, 40.967141], "type": "Point"}, "id": "CDcFSQ7P1CEahF6lCpVwnDyxRgM=", "properties": {"@source_uri": "https://tools.usps.com/UspsToolsRestServices/rest/POLocator/findLocations", "@spider": "usps_collection_boxes", "addr:city": "NEW MIDDLETOWN", "addr:country": "US", "addr:postcode": "44442", "addr:state": "OH", "addr:street_address": "10399 MAIN ST", "amenity": "post_box", "collection_times": "Mo-Fr 16:25; Sa 11:45", "note": "ON 12/24 AND 12/31, THIS BOX MAY BE COLLECTED AS EARLY AS 12 NOON.", "nsi_id": "unitedstatespostalservice-a77078", "operator": "United States Postal Service", "operator:short": "USPS", "operator:type": "public", "operator:wikidata": "Q668687", "ref": "4444200000"}, "type": "Feature"}
{"geometry": {"coordinates": [-80.5621883, 40.967196], "type": "Point"}, "id": "1QFH58lUMReCl9om5ABNCxf2AsM=", "properties": {"@source_uri": "https://tools.usps.com/UspsToolsRestServices/rest/POLocator/findLocations", "@spider": "usps_collection_boxes", "addr:city": "NEW MIDDLETOWN", "addr:country": "US", "addr:postcode": "44442", "addr:state": "OH", "addr:street_address": "10399 MAIN ST", "amenity": "post_box", "collection_times": "Mo-Fr 16:45; Sa 12:00", "indoor": "yes", "note": "ON 12/24 AND 12/31, THIS BOX MAY BE COLLECTED AS EARLY AS 12 NOON.", "nsi_id": "unitedstatespostalservice-a77078", "operator": "United States Postal Service", "operator:short": "USPS", "operator:type": "public", "operator:wikidata": "Q668687", "ref": "4444200001"}, "type": "Feature"}
{"geometry": {"coordinates": [-80.5627390911, 40.9671602726], "type": "Point"}, "id": "H3vLky4N-n240uLKEiS6dWYi5oo=", "properties": {"@source_uri": "https://tools.usps.com/UspsToolsRestServices/rest/POLocator/findLocations", "@spider": "usps_collection_boxes", "addr:city": "NEW MIDDLETOWN", "addr:country": "US", "addr:postcode": "44442", "addr:state": "OH", "addr:street_address": "10399 MAIN ST", "amenity": "post_box", "collection_times": "Mo-Fr 16:30; Sa 12:00", "indoor": "yes", "note": "ON 12/24 AND 12/31, THIS BOX MAY BE COLLECTED AS EARLY AS 12 NOON.", "nsi_id": "unitedstatespostalservice-a77078", "operator": "United States Postal Service", "operator:short": "USPS", "operator:type": "public", "operator:wikidata": "Q668687", "ref": "4444200003"}, "type": "Feature"}
{"geometry": {"coordinates": [-80.607768084, 40.917110921], "type": "Point"}, "id": "9UZYCQMvqWvA9D9JKonvHmGLw1I=", "properties": {"@source_uri": "https://tools.usps.com/UspsToolsRestServices/rest/POLocator/findLocations", "@spider": "usps_collection_boxes", "addr:city": "NEW SPRINGFIELD", "addr:country": "US", "addr:postcode": "44443", "addr:state": "OH", "addr:street_address": "13813 GRANT ST", "amenity": "post_box", "collection_times": "Mo-Fr 16:00; Sa 12:00", "note": "ON 12/24 AND 12/31, THIS BOX MAY BE COLLECTED AS EARLY AS 12 NOON.", "nsi_id": "unitedstatespostalservice-a77078", "operator": "United States Postal Service", "operator:short": "USPS", "operator:type": "public", "operator:wikidata": "Q668687", "ref": "4444300002"}, "type": "Feature"}
{"geometry": {"coordinates": [-80.607768084, 40.917110921], "type": "Point"}, "id": "ROB64T03TMq_OLY2AXhvBBlq-nY=", "properties": {"@source_uri": "https://tools.usps.com/UspsToolsRestServices/rest/POLocator/findLocations", "@spider": "usps_collection_boxes", "addr:city": "NEW SPRINGFIELD", "addr:country": "US", "addr:postcode": "44443", "addr:state": "OH", "addr:street_address": "13813 GRANT ST", "amenity": "post_box", "collection_times": "Mo-Fr 16:30; Sa 12:00", "indoor": "yes", "note": "ON 12/24 AND 12/31, THIS BOX MAY BE COLLECTED AS EARLY AS 12 NOON.", "nsi_id": "unitedstatespostalservice-a77078", "operator": "United States Postal Service", "operator:short": "USPS", "operator:type": "public", "operator:wikidata": "Q668687", "ref": "4444300005"}, "type": "Feature"}
{"geometry": {"coordinates": [-80.979696917, 41.190568008], "type": "Point"}, "id": "VIOWAH4fBp329wUbIqrCx1cGljo=", "properties": {"@source_uri": "https://tools.usps.com/UspsToolsRestServices/rest/POLocator/findLocations", "@spider": "usps_collection_boxes", "addr:city": "NEWTON FALLS", "addr:country": "US", "addr:postcode": "44444", "addr:state": "OH", "addr:street_address": "112 RIDGE RD", "amenity": "post_box", "collection_times": "Mo-Fr 17:00; Sa 15:15", "indoor": "yes", "note": "ON 12/24 AND 12/31, THIS BOX MAY BE COLLECTED AS EARLY AS 12 NOON.", "nsi_id": "unitedstatespostalservice-a77078", "operator": "United States Postal Service", "operator:short": "USPS", "operator:type": "public", "operator:wikidata": "Q668687", "ref": "4444400001"}, "type": "Feature"}
{"geometry": {"coordinates": [-80.979696917, 41.190568008], "type": "Point"}, "id": "SkLXkVky1VfK11NqCyHl7yxFX6s=", "properties": {"@source_uri": "https://tools.usps.com/UspsToolsRestServices/rest/POLocator/findLocations", "@spider": "usps_collection_boxes", "addr:city": "NEWTON FALLS", "addr:country": "US", "addr:postcode": "44444", "addr:state": "OH", "addr:street_address": "112 RIDGE RD", "amenity": "post_box", "collection_times": "Mo-Fr 17:00; Sa 15:15", "note": "ON 12/24 AND 12/31, THIS BOX MAY BE COLLECTED AS EARLY AS 12 NOON.", "nsi_id": "unitedstatespostalservice-a77078", "operator": "United States Postal Service", "operator:short": "USPS", "operator:type": "public", "operator:wikidata": "Q668687", "ref": "4444400002"}, "type": "Feature"}
{"geometry": {"coordinates": [-80.9772647, 41.18881], "type": "Point"}, "id": "z4eE3OymD1OB3RfKTgaHeqUBnyI=", "properties": {"@source_uri": "https://tools.usps.com/UspsToolsRestServices/rest/POLocator/findLocations", "@spider": "usps_collection_boxes", "addr:city": "NEWTON FALLS", "addr:country": "US", "addr:postcode": "44444", "addr:state": "OH", "addr:street_address": "19 N CANAL ST", "amenity": "post_box", "collection_times": "Mo-Sa 14:15", "note": "ON 12/24 AND 12/31, THIS BOX MAY BE COLLECTED AS EARLY AS 12 NOON.", "nsi_id": "unitedstatespostalservice-a77078", "operator": "United States Postal Service", "operator:short": "USPS", "operator:type": "public", "operator:wikidata": "Q668687", "ref": "4444400006"}, "type": "Feature"}
{"geometry": {"coordinates": [-80.9706599, 41.186498], "type": "Point"}, "id": "gRsxkzAJExMan_jIiIiLjd78gwg=", "properties": {"@source_uri": "https://tools.usps.com/UspsToolsRestServices/rest/POLocator/findLocations", "@spider": "usps_collection_boxes", "addr:city": "NEWTON FALLS", "addr:country": "US", "addr:postcode": "44444", "addr:state": "OH", "addr:street_address": "175 E BROAD ST", "amenity": "post_box", "collection_times": "Mo-Sa 13:00", "note": "ON 12/24 AND 12/31, THIS BOX MAY BE COLLECTED AS EARLY AS 12 NOON.", "nsi_id": "unitedstatespostalservice-a77078", "operator": "United States Postal Service", "operator:short": "USPS", "operator:type": "public", "operator:wikidata": "Q668687", "ref": "4444400007"}, "type": "Feature"}
{"geometry": {"coordinates": [-80.979696917, 41.190568008], "type": "Point"}, "id": "j-HbHKYvUxPUcSW35oRDuqzILTU=", "properties": {"@source_uri": "https://tools.usps.com/UspsToolsRestServices/rest/POLocator/findLocations", "@spider": "usps_collection_boxes", "addr:city": "NEWTON FALLS", "addr:country": "US", "addr:postcode": "44444", "addr:state": "OH", "addr:street_address": "112 RIDGE RD", "amenity": "post_box", "collection_times": "Mo-Fr 17:00; Sa 12:00", "indoor": "yes", "note": "ON 12/24 AND 12/31, THIS BOX MAY BE COLLECTED AS EARLY AS 12 NOON.", "nsi_id": "unitedstatespostalservice-a77078", "operator": "United States Postal Service", "operator:short": "USPS", "operator:type": "public", "operator:wikidata": "Q668687", "ref": "4444400009"}, "type": "Feature"}
{"geometry": {"coordinates": [-80.614815785, 40.8447092], "type": "Point"}, "id": "s5jFhehvhCI3pUv_sIp3HKhQtEw=", "properties": {"@source_uri": "https://tools.usps.com/UspsToolsRestServices/rest/POLocator/findLocations", "@spider": "usps_collection_boxes", "addr:city": "NEW WATERFORD", "addr:country": "US", "addr:postcode": "44445", "addr:state": "OH", "addr:street_address": "3818 W MAIN ST", "amenity": "post_box", "collection_times": "Mo-Fr 16:30; Sa 11:45", "note": "ON 12/24 AND 12/31, THIS BOX MAY BE COLLECTED AS EARLY AS 12 NOON.", "nsi_id": "unitedstatespostalservice-a77078", "operator": "United States Postal Service", "operator:short": "USPS", "operator:type": "public", "operator:wikidata": "Q668687", "ref": "4444500000"}, "type": "Feature"}
{"geometry": {"coordinates": [-80.614815785, 40.8447092], "type": "Point"}, "id": "vViHCMke14O4w7eNlfnF0RIERr8=", "properties": {"@source_uri": "https://tools.usps.com/UspsToolsRestServices/rest/POLocator/findLocations", "@spider": "usps_collection_boxes", "addr:city": "NEW WATERFORD", "addr:country": "US", "addr:postcode": "44445", "addr:state": "OH", "addr:street_address": "3818 W MAIN ST", "amenity": "post_box", "collection_times": "Mo-Fr 16:30; Sa 11:45", "indoor": "yes", "note": "ON 12/24 AND 12/31, THIS BOX MAY BE COLLECTED AS EARLY AS 12 NOON.", "nsi_id": "unitedstatespostalservice-a77078", "operator": "United States Postal Service", "operator:short": "USPS", "operator:type": "public", "operator:wikidata": "Q668687", "ref": "4444500001"}, "type": "Feature"}
{"geometry": {"coordinates": [-80.614815785, 40.8447092], "type": "Point"}, "id": "xgyAFqN4WIejCrrswqC-H6f1cqg=", "properties": {"@source_uri": "https://tools.usps.com/UspsToolsRestServices/rest/POLocator/findLocations", "@spider": "usps_collection_boxes", "addr:city": "NEW WATERFORD", "addr:country": "US", "addr:postcode": "44445", "addr:state": "OH", "addr:street_address": "3818 W MAIN ST", "amenity": "post_box", "collection_times": "Mo-Fr 16:30; Sa 12:00", "indoor": "yes", "note": "ON 12/24 AND 12/31, THIS BOX MAY BE COLLECTED AS EARLY AS 12 NOON.", "nsi_id": "unitedstatespostalservice-a77078", "operator": "United States Postal Service", "operator:short": "USPS", "operator:type": "public", "operator:wikidata": "Q668687", "ref": "4444500003"}, "type": "Feature"}
{"geometry": {"coordinates": [-80.766282, 41.180354], "type": "Point"}, "id": "wbUgHz_WKoOqRq7v8LEdlSPdYTo=", "properties": {"@source_uri": "https://tools.usps.com/UspsToolsRestServices/rest/POLocator/findLocations", "@spider": "usps_collection_boxes", "addr:city": "NILES", "addr:country": "US", "addr:postcode": "44446", "addr:state": "OH", "addr:street_address": "43 W PARK AVE", "amenity": "post_box", "collection_times": "Mo-Fr 17:00; Sa 15:00", "indoor": "yes", "note": "ON 12/24 AND 12/31, THIS BOX MAY BE COLLECTED AS EARLY AS 12 NOON.", "nsi_id": "unitedstatespostalservice-a77078", "operator": "United States Postal Service", "operator:short": "USPS", "operator:type": "public", "operator:wikidata": "Q668687", "ref": "4444600000"}, "type": "Feature"}
{"geometry": {"coordinates": [-80.766203, 41.180378], "type": "Point"}, "id": "DE7LWtAD9UREw371D-35EMnLH-4=", "properties": {"@source_uri": "https://tools.usps.com/UspsToolsRestServices/rest/POLocator/findLocations", "@spider": "usps_collection_boxes", "addr:city": "NILES", "addr:country": "US", "addr:postcode": "44446", "addr:state": "OH", "addr:street_address": "43 W PARK AVE", "amenity": "post_box", "collection_times": "Mo-Fr 17:00; Sa 15:00", "note": "ON 12/24 AND 12/31, THIS BOX MAY BE COLLECTED AS EARLY AS 12 NOON.", "nsi_id": "unitedstatespostalservice-a77078", "operator": "United States Postal Service", "operator:short": "USPS", "operator:type": "public", "operator:wikidata": "Q668687", "ref": "4444600002"}, "type": "Feature"}
{"geometry": {"coordinates": [-80.766028, 41.180283], "type": "Point"}, "id": "6bA8w-usFKEob65rQFDkjvTTnPw=", "properties": {"@source_uri": "https://tools.usps.com/UspsToolsRestServices/rest/POLocator/findLocations", "@spider": "usps_collection_boxes", "addr:city": "NILES", "addr:country": "US", "addr:postcode": "44446", "addr:state": "OH", "addr:street_address": "1 FRANKLIN ALY", "amenity": "post_box", "collection_times": "Mo-Fr 17:00; Sa 15:00", "note": "ON 12/24 AND 12/31, THIS BOX MAY BE COLLECTED AS EARLY AS 12 NOON.", "nsi_id": "unitedstatespostalservice-a77078", "operator": "United States Postal Service", "operator:short": "USPS", "operator:type": "public", "operator:wikidata": "Q668687", "ref": "4444600003"}, "type": "Feature"}
{"geometry": {"coordinates": [-80.7519187, 41.213215], "type": "Point"}, "id": "-0r1qSsNSevx8rWFpGd8ApJhw1I=", "properties": {"@source_uri": "https://tools.usps.com/UspsToolsRestServices/rest/POLocator/findLocations", "@spider": "usps_collection_boxes", "addr:city": "NILES", "addr:country": "US", "addr:postcode": "44446", "addr:state": "OH", "addr:street_address": "5555 YOUNGSTOWN WARREN RD", "amenity": "post_box", "collection_times": "Mo-Sa 14:00", "note": "ON 12/24 AND 12/31, THIS BOX MAY BE COLLECTED AS EARLY AS 12 NOON.", "nsi_id": "unitedstatespostalservice-a77078", "operator": "United States Postal Service", "operator:short": "USPS", "operator:type": "public", "operator:wikidata": "Q668687", "ref": "4444600011"}, "type": "Feature"}
{"geometry": {"coordinates": [-80.7285385, 41.198106], "type": "Point"}, "id": "t91OnndW1NF3SOGXUm2KnNwbkqs=", "properties": {"@source_uri": "https://tools.usps.com/UspsToolsRestServices/rest/POLocator/findLocations", "@spider": "usps_collection_boxes", "addr:city": "NILES", "addr:country": "US", "addr:postcode": "44446", "addr:state": "OH", "addr:street_address": "815 YOUNGSTOWN WARREN RD", "amenity": "post_box", "collection_times": "Mo-Sa 13:45", "note": "ON 12/24 AND 12/31, THIS BOX MAY BE COLLECTED AS EARLY AS 12 NOON.", "nsi_id": "unitedstatespostalservice-a77078", "operator": "United States Postal Service", "operator:short": "USPS", "operator:type": "public", "operator:wikidata": "Q668687", "ref": "4444600013"}, "type": "Feature"}
{"geometry": {"coordinates": [-80.7423415, 41.205426], "type": "Point"}, "id": "IX5s6uIlRbVlPskqufbh6lFlU8Y=", "properties": {"@source_uri": "https://tools.usps.com/UspsToolsRestServices/rest/POLocator/findLocations", "@spider": "usps_collection_boxes", "addr:city": "NILES", "addr:country": "US", "addr:postcode": "44446", "addr:state": "OH", "addr:street_address": "6010 YOUNGSTOWN WARREN RD", "amenity": "post_box", "collection_times": "Mo-Sa 13:00", "note": "ON 12/24 AND 12/31, THIS BOX MAY BE COLLECTED AS EARLY AS 12 NOON.", "nsi_id": "unitedstatespostalservice-a77078", "operator": "United States Postal Service", "operator:short": "USPS", "operator:type": "public", "operator:wikidata": "Q668687", "ref": "4444600014"}, "type": "Feature"}
{"geometry": {"coordinates": [-80.740751, 41.206788], "type": "Point"}, "id": "SAB28oSC3qpgQAO6S6sGUhe2qsw=", "properties": {"@source_uri": "https://tools.usps.com/UspsToolsRestServices/rest/POLocator/findLocations", "@spider": "usps_collection_boxes", "addr:city": "NILES", "addr:country": "US", "addr:postcode": "44446", "addr:state": "OH", "addr:street_address": "6281 YOUNGSTOWN RD", "amenity": "post_box", "collection_times": "Mo-Sa 13:00", "note": "ON 12/24 AND 12/31, THIS BOX MAY BE COLLECTED AS EARLY AS 12 NOON.", "nsi_id": "unitedstatespostalservice-a77078", "operator": "United States Postal Service", "operator:short": "USPS", "operator:type": "public", "operator:wikidata": "Q668687", "ref": "4444600015"}, "type": "Feature"}
{"geometry": {"coordinates": [-80.7845249, 41.175025], "type": "Point"}, "id": "U2idIaX8rjPL1M_TR3lODd5h8rA=", "properties": {"@source_uri": "https://tools.usps.com/UspsToolsRestServices/rest/POLocator/findLocations", "@spider": "usps_collection_boxes", "addr:city": "NILES", "addr:country": "US", "addr:postcode": "44446", "addr:state": "OH", "addr:street_address": "1 VALENCIA DR", "amenity": "post_box", "collection_times": "Mo-Sa 13:30", "note": "ON 12/24 AND 12/31, THIS BOX MAY BE COLLECTED AS EARLY AS 12 NOON.", "nsi_id": "unitedstatespostalservice-a77078", "operator": "United States Postal Service", "operator:short": "USPS", "operator:type": "public", "operator:wikidata": "Q668687", "ref": "4444600017"}, "type": "Feature"}
{"geometry": {"coordinates": [-80.7645705, 41.19132], "type": "Point"}, "id": "lFWr_gfiiEZlB0MBqlyWVTYuvUg=", "properties": {"@source_uri": "https://tools.usps.com/UspsToolsRestServices/rest/POLocator/findLocations", "@spider": "usps_collection_boxes", "addr:city": "NILES", "addr:country": "US", "addr:postcode": "44446", "addr:state": "OH", "addr:street_address": "903 JOHN ST", "amenity": "post_box", "collection_times": "Mo-Sa 11:00", "nsi_id": "unitedstatespostalservice-a77078", "operator": "United States Postal Service", "operator:short": "USPS", "operator:type": "public", "operator:wikidata": "Q668687", "ref": "4444600020"}, "type": "Feature"}
{"geometry": {"coordinates": [-80.7534189, 41.182434], "type": "Point"}, "id": "3vaHZxvBtYrYz2FwkJnrfgpXR2E=", "properties": {"@source_uri": "https://tools.usps.com/UspsToolsRestServices/rest/POLocator/findLocations", "@spider": "usps_collection_boxes", "addr:city": "NILES", "addr:country": "US", "addr:postcode": "44446", "addr:state": "OH", "addr:street_address": "501 ROBBINS AVE", "amenity": "post_box", "collection_times": "Mo-Sa 11:00", "nsi_id": "unitedstatespostalservice-a77078", "operator": "United States Postal Service", "operator:short": "USPS", "operator:type": "public", "operator:wikidata": "Q668687", "ref": "4444600021"}, "type": "Feature"}
{"geometry": {"coordinates": [-80.7662523, 41.179176], "type": "Point"}, "id": "G0a1CZA4PFU1e_5lqiuTiFuP_0I=", "properties": {"@source_uri": "https://tools.usps.com/UspsToolsRestServices/rest/POLocator/findLocations", "@spider": "usps_collection_boxes", "addr:city": "NILES", "addr:country": "US", "addr:postcode": "44446", "addr:state": "OH", "addr:street_address": "34 W STATE ST", "amenity": "post_box", "collection_times": "Mo-Sa 14:00", "note": "ON 12/24 AND 12/31, THIS BOX MAY BE COLLECTED AS EARLY AS 12 NOON.", "nsi_id": "unitedstatespostalservice-a77078", "operator": "United States Postal Service", "operator:short": "USPS", "operator:type": "public", "operator:wikidata": "Q668687", "ref": "4444600022"}, "type": "Feature"}
{"geometry": {"coordinates": [-80.7402566, 41.179618], "type": "Point"}, "id": "C3_W1fj9FB0z2FWe7wbugte4HTA=", "properties": {"@source_uri": "https://tools.usps.com/UspsToolsRestServices/rest/POLocator/findLocations", "@spider": "usps_collection_boxes", "addr:city": "NILES", "addr:country": "US", "addr:postcode": "44446", "addr:state": "OH", "addr:street_address": "204 RUSSELL AVE", "amenity": "post_box", "collection_times": "Mo-Sa 10:00", "nsi_id": "unitedstatespostalservice-a77078", "operator": "United States Postal Service", "operator:short": "USPS", "operator:type": "public", "operator:wikidata": "Q668687", "ref": "4444600034"}, "type": "Feature"}
{"geometry": {"coordinates": [-80.7337431, 41.187128], "type": "Point"}, "id": "14qnO6tRbVwrTiR5d7aFSKeOn9M=", "properties": {"@source_uri": "https://tools.usps.com/UspsToolsRestServices/rest/POLocator/findLocations", "@spider": "usps_collection_boxes", "addr:city": "NILES", "addr:country": "US", "addr:postcode": "44446", "addr:state": "OH", "addr:street_address": "401 BONNIE BRAE AVE", "amenity": "post_box", "collection_times": "Mo-Sa 11:00", "nsi_id": "unitedstatespostalservice-a77078", "operator": "United States Postal Service", "operator:short": "USPS", "operator:type": "public", "operator:wikidata": "Q668687", "ref": "4444600039"}, "type": "Feature"}
{"geometry": {"coordinates": [-80.7654575, 41.201866], "type": "Point"}, "id": "51xrU8qZ0A8mt3nUTyYNSPyoLx4=", "properties": {"@source_uri": "https://tools.usps.com/UspsToolsRestServices/rest/POLocator/findLocations", "@spider": "usps_collection_boxes", "addr:city": "NILES", "addr:country": "US", "addr:postcode": "44446", "addr:state": "OH", "addr:street_address": "5 CAMROSE DR", "amenity": "post_box", "collection_times": "Mo-Sa 14:00", "note": "ON 12/24 AND 12/31, THIS BOX MAY BE COLLECTED AS EARLY AS 12 NOON.", "nsi_id": "unitedstatespostalservice-a77078", "operator": "United States Postal Service", "operator:short": "USPS", "operator:type": "public", "operator:wikidata": "Q668687", "ref": "4444600040"}, "type": "Feature"}
{"geometry": {"coordinates": [-80.7650633, 41.181513], "type": "Point"}, "id": "3kjzUKo-6_vcwrsmDV5QqJ2RNJQ=", "properties": {"@source_uri": "https://tools.usps.com/UspsToolsRestServices/rest/POLocator/findLocations", "@spider": "usps_collection_boxes", "addr:city": "NILES", "addr:country": "US", "addr:postcode": "44446", "addr:state": "OH", "addr:street_address": "55 N MAIN ST", "amenity": "post_box", "collection_times": "Mo-Sa 14:00", "note": "ON 12/24 AND 12/31, THIS BOX MAY BE COLLECTED AS EARLY AS 12 NOON.", "nsi_id": "unitedstatespostalservice-a77078", "operator": "United States Postal Service", "operator:short": "USPS", "operator:type": "public", "operator:wikidata": "Q668687", "ref": "4444600042"}, "type": "Feature"}
{"geometry": {"coordinates": [-80.766579, 41.197947], "type": "Point"}, "id": "6PnYZL3h8WOhqLjwUN8Qpy6CMnk=", "properties": {"@source_uri": "https://tools.usps.com/UspsToolsRestServices/rest/POLocator/findLocations", "@spider": "usps_collection_boxes", "addr:city": "NILES", "addr:country": "US", "addr:postcode": "44446", "addr:state": "OH", "addr:street_address": "26 CASSANDRA DR", "amenity": "post_box", "collection_times": "Mo-Sa 11:00", "nsi_id": "unitedstatespostalservice-a77078", "operator": "United States Postal Service", "operator:short": "USPS", "operator:type": "public", "operator:wikidata": "Q668687", "ref": "4444600043"}, "type": "Feature"}
{"geometry": {"coordinates": [-80.7195754, 41.182209], "type": "Point"}, "id": "CE0NW1EoOf_ID_2-flipBjTYmnE=", "properties": {"@source_uri": "https://tools.usps.com/UspsToolsRestServices/rest/POLocator/findLocations", "@spider": "usps_collection_boxes", "addr:city": "NILES", "addr:country": "US", "addr:postcode": "44446", "addr:state": "OH", "addr:street_address": "2 YOUNGSTOWN WARREN RD", "amenity": "post_box", "collection_times": "Mo-Sa 11:30", "nsi_id": "unitedstatespostalservice-a77078", "operator": "United States Postal Service", "operator:short": "USPS", "operator:type": "public", "operator:wikidata": "Q668687", "ref": "4444600044"}, "type": "Feature"}
{"geometry": {"coordinates": [-80.7461707, 41.199765], "type": "Point"}, "id": "OPxFL5-JR8E2DnMsLAWz4gTkRnU=", "properties": {"@source_uri": "https://tools.usps.com/UspsToolsRestServices/rest/POLocator/findLocations", "@spider": "usps_collection_boxes", "addr:city": "NILES", "addr:country": "US", "addr:postcode": "44446", "addr:state": "OH", "addr:street_address": "19 ANDREA BLVD", "amenity": "post_box", "collection_times": "Mo-Sa 11:00", "nsi_id": "unitedstatespostalservice-a77078", "operator": "United States Postal Service", "operator:short": "USPS", "operator:type": "public", "operator:wikidata": "Q668687", "ref": "4444600045"}, "type": "Feature"}
{"geometry": {"coordinates": [-80.7482783, 41.196643], "type": "Point"}, "id": "po1iInzKtuko79weyLtpVLspk0s=", "properties": {"@source_uri": "https://tools.usps.com/UspsToolsRestServices/rest/POLocator/findLocations", "@spider": "usps_collection_boxes", "addr:city": "NILES", "addr:country": "US", "addr:postcode": "44446", "addr:state": "OH", "addr:street_address": "2 EASTWOOD ARMS BLVD", "amenity": "post_box", "collection_times": "Mo-Sa 14:00", "note": "ON 12/24 AND 12/31, THIS BOX MAY BE COLLECTED AS EARLY AS 12 NOON.", "nsi_id": "unitedstatespostalservice-a77078", "operator": "United States Postal Service", "operator:short": "USPS", "operator:type": "public", "operator:wikidata": "Q668687", "ref": "4444600046"}, "type": "Feature"}
{"geometry": {"coordinates": [-80.7624176, 41.20744], "type": "Point"}, "id": "6tGonfCJ2OSBMOmtFaceTxY5NgE=", "properties": {"@source_uri": "https://tools.usps.com/UspsToolsRestServices/rest/POLocator/findLocations", "@spider": "usps_collection_boxes", "addr:city": "NILES", "addr:country": "US", "addr:postcode": "44446", "addr:state": "OH", "addr:street_address": "1225 1/2 NORTH RD", "amenity": "post_box", "collection_times": "Mo-Sa 14:30", "note": "ON 12/24 AND 12/31, THIS BOX MAY BE COLLECTED AS EARLY AS 12 NOON.", "nsi_id": "unitedstatespostalservice-a77078", "operator": "United States Postal Service", "operator:short": "USPS", "operator:type": "public", "operator:wikidata": "Q668687", "ref": "4444600047"}, "type": "Feature"}
{"geometry": {"coordinates": [-80.7466114, 41.193565], "type": "Point"}, "id": "Icshy1tha785uKBH7uecySWVEq4=", "properties": {"@source_uri": "https://tools.usps.com/UspsToolsRestServices/rest/POLocator/findLocations", "@spider": "usps_collection_boxes", "addr:city": "NILES", "addr:country": "US", "addr:postcode": "44446", "addr:state": "OH", "addr:street_address": "1003 N BENTLEY AVE", "amenity": "post_box", "collection_times": "Mo-Sa 13:00", "note": "ON 12/24 AND 12/31, THIS BOX MAY BE COLLECTED AS EARLY AS 12 NOON.", "nsi_id": "unitedstatespostalservice-a77078", "operator": "United States Postal Service", "operator:short": "USPS", "operator:type": "public", "operator:wikidata": "Q668687", "ref": "4444600048"}, "type": "Feature"}
{"geometry": {"coordinates": [-80.7469372, 41.21338], "type": "Point"}, "id": "Vy5I-f4H7yFPVC1m9jvagkeJVTY=", "properties": {"@source_uri": "https://tools.usps.com/UspsToolsRestServices/rest/POLocator/findLocations", "@spider": "usps_collection_boxes", "addr:city": "NILES", "addr:country": "US", "addr:postcode": "44446", "addr:state": "OH", "addr:street_address": "918 GREAT EAST PLZ", "amenity": "post_box", "collection_times": "Mo-Sa 10:00", "nsi_id": "unitedstatespostalservice-a77078", "operator": "United States Postal Service", "operator:short": "USPS", "operator:type": "public", "operator:wikidata": "Q668687", "ref": "4444600050"}, "type": "Feature"}
{"geometry": {"coordinates": [-80.7595945, 41.183964], "type": "Point"}, "id": "6QAAxY-2LsZDSQtwrAvOacyyGk8=", "properties": {"@source_uri": "https://tools.usps.com/UspsToolsRestServices/rest/POLocator/findLocations", "@spider": "usps_collection_boxes", "addr:city": "NILES", "addr:country": "US", "addr:postcode": "44446", "addr:state": "OH", "addr:street_address": "48 VIENNA AVE", "amenity": "post_box", "collection_times": "Mo-Sa 10:00", "nsi_id": "unitedstatespostalservice-a77078", "operator": "United States Postal Service", "operator:short": "USPS", "operator:type": "public", "operator:wikidata": "Q668687", "ref": "4444600052"}, "type": "Feature"}
{"geometry": {"coordinates": [-80.7246409, 41.199617], "type": "Point"}, "id": "yo0x4y0OMo5JeoObWFcUyXuoFUU=", "properties": {"@source_uri": "https://tools.usps.com/UspsToolsRestServices/rest/POLocator/findLocations", "@spider": "usps_collection_boxes", "addr:city": "NILES", "addr:country": "US", "addr:postcode": "44446", "addr:state": "OH", "addr:street_address": "810 NOB HILL DR", "amenity": "post_box", "collection_times": "Mo-Sa 10:00", "nsi_id": "unitedstatespostalservice-a77078", "operator": "United States Postal Service", "operator:short": "USPS", "operator:type": "public", "operator:wikidata": "Q668687", "ref": "4444600054"}, "type": "Feature"}
{"geometry": {"coordinates": [-80.7665120569, 41.1803544885], "type": "Point"}, "id": "mNVuAfL1KZ1RVOstD6y987ymz84=", "properties": {"@source_uri": "https://tools.usps.com/UspsToolsRestServices/rest/POLocator/findLocations", "@spider": "usps_collection_boxes", "addr:city": "NILES", "addr:country": "US", "addr:postcode": "44446", "addr:state": "OH", "addr:street_address": "43 W PARK AVE", "amenity": "post_box", "collection_times": "Mo-Fr 17:00; Sa 12:00", "indoor": "yes", "note": "ON 12/24 AND 12/31, THIS BOX MAY BE COLLECTED AS EARLY AS 12 NOON.", "nsi_id": "unitedstatespostalservice-a77078", "operator": "United States Postal Service", "operator:short": "USPS", "operator:type": "public", "operator:wikidata": "Q668687", "ref": "4444600063"}, "type": "Feature"}
{"geometry": {"coordinates": [-80.720969029, 41.202146994], "type": "Point"}, "id": "5yt6k3oc-8Pd_mh28wqw7vdTczc=", "properties": {"@source_uri": "https://tools.usps.com/UspsToolsRestServices/rest/POLocator/findLocations", "@spider": "usps_collection_boxes", "addr:city": "NILES", "addr:country": "US", "addr:postcode": "44446", "addr:state": "OH", "addr:street_address": "2654 OAK FOREST DR", "amenity": "post_box", "collection_times": "Mo-Sa 10:30", "nsi_id": "unitedstatespostalservice-a77078", "operator": "United States Postal Service", "operator:short": "USPS", "operator:type": "public", "operator:wikidata": "Q668687", "ref": "4444600066"}, "type": "Feature"}
{"geometry": {"coordinates": [-81.012559144, 40.986073606], "type": "Point"}, "id": "JKZHsPCgs-64Ivp1S4mQgl9BxdE=", "properties": {"@source_uri": "https://tools.usps.com/UspsToolsRestServices/rest/POLocator/findLocations", "@spider": "usps_collection_boxes", "addr:city": "NORTH BENTON", "addr:country": "US", "addr:postcode": "44449", "addr:state": "OH", "addr:street_address": "9131 12TH ST", "amenity": "post_box", "collection_times": "Mo-Fr 15:45; Sa 11:45", "note": "ON 12/24 AND 12/31, THIS BOX MAY BE COLLECTED AS EARLY AS 12 NOON.", "nsi_id": "unitedstatespostalservice-a77078", "operator": "United States Postal Service", "operator:short": "USPS", "operator:type": "public", "operator:wikidata": "Q668687", "ref": "4444900000"}, "type": "Feature"}
{"geometry": {"coordinates": [-81.012559144, 40.986073606], "type": "Point"}, "id": "uBKNYkO5wSp91f5XbVMaujSvQFc=", "properties": {"@source_uri": "https://tools.usps.com/UspsToolsRestServices/rest/POLocator/findLocations", "@spider": "usps_collection_boxes", "addr:city": "NORTH BENTON", "addr:country": "US", "addr:postcode": "44449", "addr:state": "OH", "addr:street_address": "9131 12TH ST", "amenity": "post_box", "collection_times": "Mo-Fr 15:45; Sa 12:00", "indoor": "yes", "note": "ON 12/24 AND 12/31, THIS BOX MAY BE COLLECTED AS EARLY AS 12 NOON.", "nsi_id": "unitedstatespostalservice-a77078", "operator": "United States Postal Service", "operator:short": "USPS", "operator:type": "public", "operator:wikidata": "Q668687", "ref": "4444900003"}, "type": "Feature"}
{"geometry": {"coordinates": [-80.868448684, 41.462270528], "type": "Point"}, "id": "9fkli0gJ7jZgDjBVRWY-dFkJfls=", "properties": {"@source_uri": "https://tools.usps.com/UspsToolsRestServices/rest/POLocator/findLocations", "@spider": "usps_collection_boxes", "addr:city": "N BLOOMFIELD", "addr:country": "US", "addr:postcode": "44450", "addr:state": "OH", "addr:street_address": "8829 STATE ROUTE 45", "amenity": "post_box", "collection_times": "Mo-Fr 15:00; Sa 11:45", "note": "ON 12/24 AND 12/31, THIS BOX MAY BE COLLECTED AS EARLY AS 12 NOON.", "nsi_id": "unitedstatespostalservice-a77078", "operator": "United States Postal Service", "operator:short": "USPS", "operator:type": "public", "operator:wikidata": "Q668687", "ref": "4445000001"}, "type": "Feature"}
{"geometry": {"coordinates": [-80.7573, 41.461965], "type": "Point"}, "id": "MqaP3Yizweoe6s_U2Xob82xZry4=", "properties": {"@source_uri": "https://tools.usps.com/UspsToolsRestServices/rest/POLocator/findLocations", "@spider": "usps_collection_boxes", "addr:city": "N BLOOMFIELD", "addr:country": "US", "addr:postcode": "44450", "addr:state": "OH", "addr:street_address": "8829 STATE ROUTE 45", "amenity": "post_box", "collection_times": "Mo-Fr 15:00; Sa 11:45", "indoor": "yes", "note": "ON 12/24 AND 12/31, THIS BOX MAY BE COLLECTED AS EARLY AS 12 NOON.", "nsi_id": "unitedstatespostalservice-a77078", "operator": "United States Postal Service", "operator:short": "USPS", "operator:type": "public", "operator:wikidata": "Q668687", "ref": "4445000003"}, "type": "Feature"}
{"geometry": {"coordinates": [-80.857134, 41.096083], "type": "Point"}, "id": "1BCxZ4c-tGPpDxn0zMDUsg83jcM=", "properties": {"@source_uri": "https://tools.usps.com/UspsToolsRestServices/rest/POLocator/findLocations", "@spider": "usps_collection_boxes", "addr:city": "NORTH JACKSON", "addr:country": "US", "addr:postcode": "44451", "addr:state": "OH", "addr:street_address": "263 S SALEM WARREN RD", "amenity": "post_box", "collection_times": "Mo-Fr 16:45; Sa 11:45", "indoor": "yes", "note": "ON 12/24 AND 12/31, THIS BOX MAY BE COLLECTED AS EARLY AS 12 NOON.", "nsi_id": "unitedstatespostalservice-a77078", "operator": "United States Postal Service", "operator:short": "USPS", "operator:type": "public", "operator:wikidata": "Q668687", "ref": "4445100001"}, "type": "Feature"}
{"geometry": {"coordinates": [-80.857169, 41.09607], "type": "Point"}, "id": "XTgxm2RCGK2ytwfYhnz5qAkBt7k=", "properties": {"@source_uri": "https://tools.usps.com/UspsToolsRestServices/rest/POLocator/findLocations", "@spider": "usps_collection_boxes", "addr:city": "NORTH JACKSON", "addr:country": "US", "addr:postcode": "44451", "addr:state": "OH", "addr:street_address": "263 S SALEM WARREN RD", "amenity": "post_box", "collection_times": "Mo-Fr 16:30; Sa 11:30", "note": "ON 12/24 AND 12/31, THIS BOX MAY BE COLLECTED AS EARLY AS 12 NOON.", "nsi_id": "unitedstatespostalservice-a77078", "operator": "United States Postal Service", "operator:short": "USPS", "operator:type": "public", "operator:wikidata": "Q668687", "ref": "4445100002"}, "type": "Feature"}
{"geometry": {"coordinates": [-80.857135037, 41.0960151094], "type": "Point"}, "id": "P5N66yA1qsQmJPXbMDFO5UYJIUw=", "properties": {"@source_uri": "https://tools.usps.com/UspsToolsRestServices/rest/POLocator/findLocations", "@spider": "usps_collection_boxes", "addr:city": "NORTH JACKSON", "addr:country": "US", "addr:postcode": "44451", "addr:state": "OH", "addr:street_address": "263 S SALEM WARREN RD", "amenity": "post_box", "collection_times": "Mo-Fr 16:30; Sa 11:30", "indoor": "yes", "note": "ON 12/24 AND 12/31, THIS BOX MAY BE COLLECTED AS EARLY AS 12 NOON.", "nsi_id": "unitedstatespostalservice-a77078", "operator": "United States Postal Service", "operator:short": "USPS", "operator:type": "public", "operator:wikidata": "Q668687", "ref": "4445100004"}, "type": "Feature"}
{"geometry": {"coordinates": [-80.657850072, 40.94872], "type": "Point"}, "id": "PRsSIY5Z7wWcdco_G4ZFnLIWc6M=", "properties": {"@source_uri": "https://tools.usps.com/UspsToolsRestServices/rest/POLocator/findLocations", "@spider": "usps_collection_boxes", "addr:city": "NORTH LIMA", "addr:country": "US", "addr:postcode": "44452", "addr:state": "OH", "addr:street_address": "11675 SOUTH AVE", "amenity": "post_box", "collection_times": "Mo-Fr 16:30; Sa 11:30", "note": "ON 12/24 AND 12/31, THIS BOX MAY BE COLLECTED AS EARLY AS 12 NOON.", "nsi_id": "unitedstatespostalservice-a77078", "operator": "United States Postal Service", "operator:short": "USPS", "operator:type": "public", "operator:wikidata": "Q668687", "ref": "4445200000"}, "type": "Feature"}
{"geometry": {"coordinates": [-80.657850072, 40.94872], "type": "Point"}, "id": "m4VCw8ZCPmLdjLNFBbYCt6DgK_0=", "properties": {"@source_uri": "https://tools.usps.com/UspsToolsRestServices/rest/POLocator/findLocations", "@spider": "usps_collection_boxes", "addr:city": "NORTH LIMA", "addr:country": "US", "addr:postcode": "44452", "addr:state": "OH", "addr:street_address": "11675 SOUTH AVE", "amenity": "post_box", "collection_times": "Mo-Fr 16:14; Sa 11:29", "indoor": "yes", "note": "ON 12/24 AND 12/31, THIS BOX MAY BE COLLECTED AS EARLY AS 12 NOON.", "nsi_id": "unitedstatespostalservice-a77078", "operator": "United States Postal Service", "operator:short": "USPS", "operator:type": "public", "operator:wikidata": "Q668687", "ref": "4445200001"}, "type": "Feature"}
{"geometry": {"coordinates": [-80.6620189, 40.985367], "type": "Point"}, "id": "zaBA9I3GZWXTXdxacSpe_AQJV4I=", "properties": {"@source_uri": "https://tools.usps.com/UspsToolsRestServices/rest/POLocator/findLocations", "@spider": "usps_collection_boxes", "addr:city": "NORTH LIMA", "addr:country": "US", "addr:postcode": "44452", "addr:state": "OH", "addr:street_address": "9159 MARKET ST", "amenity": "post_box", "collection_times": "Mo-Sa 11:00", "nsi_id": "unitedstatespostalservice-a77078", "operator": "United States Postal Service", "operator:short": "USPS", "operator:type": "public", "operator:wikidata": "Q668687", "ref": "4445200002"}, "type": "Feature"}
{"geometry": {"coordinates": [-80.6605080146, 40.9591619908], "type": "Point"}, "id": "oczSLulGmylhGGROwQMRo9ai6Cg=", "properties": {"@source_uri": "https://tools.usps.com/UspsToolsRestServices/rest/POLocator/findLocations", "@spider": "usps_collection_boxes", "addr:city": "NORTH LIMA", "addr:country": "US", "addr:postcode": "44452", "addr:state": "OH", "addr:street_address": "10920 MARKET ST", "amenity": "post_box", "collection_times": "Mo-Sa 11:30", "nsi_id": "unitedstatespostalservice-a77078", "operator": "United States Postal Service", "operator:short": "USPS", "operator:type": "public", "operator:wikidata": "Q668687", "ref": "4445200003"}, "type": "Feature"}
{"geometry": {"coordinates": [-80.657850072, 40.94872], "type": "Point"}, "id": "-FNUWRz9aEHPmiRRUtqMzVKYFw0=", "properties": {"@source_uri": "https://tools.usps.com/UspsToolsRestServices/rest/POLocator/findLocations", "@spider": "usps_collection_boxes", "addr:city": "NORTH LIMA", "addr:country": "US", "addr:postcode": "44452", "addr:state": "OH", "addr:street_address": "11675 SOUTH AVE", "amenity": "post_box", "collection_times": "Mo-Fr 16:30; Sa 11:30", "indoor": "yes", "note": "ON 12/24 AND 12/31, THIS BOX MAY BE COLLECTED AS EARLY AS 12 NOON.", "nsi_id": "unitedstatespostalservice-a77078", "operator": "United States Postal Service", "operator:short": "USPS", "operator:type": "public", "operator:wikidata": "Q668687", "ref": "4445200005"}, "type": "Feature"}
{"geometry": {"coordinates": [-80.519204, 41.338328], "type": "Point"}, "id": "lNemfzW52NvK_8d3KJE2QixiZVg=", "properties": {"@source_uri": "https://tools.usps.com/UspsToolsRestServices/rest/POLocator/findLocations", "@spider": "usps_collection_boxes", "addr:city": "ORANGEVILLE", "addr:country": "US", "addr:postcode": "44453", "addr:state": "OH", "addr:street_address": "7401 STATELINE RD", "amenity": "post_box", "collection_times": "Mo-Fr 16:30; Sa 11:30", "indoor": "yes", "note": "ON 12/24 AND 12/31, THIS BOX MAY BE COLLECTED AS EARLY AS 12 NOON.", "nsi_id": "unitedstatespostalservice-a77078", "operator": "United States Postal Service", "operator:short": "USPS", "operator:type": "public", "operator:wikidata": "Q668687", "ref": "4445300000"}, "type": "Feature"}
{"geometry": {"coordinates": [-80.519168, 41.338325], "type": "Point"}, "id": "-8D-aGgTyY7IpuYgWLJJkIt4F1A=", "properties": {"@source_uri": "https://tools.usps.com/UspsToolsRestServices/rest/POLocator/findLocations", "@spider": "usps_collection_boxes", "addr:city": "ORANGEVILLE", "addr:country": "US", "addr:postcode": "44453", "addr:state": "OH", "addr:street_address": "7401 STATELINE RD", "amenity": "post_box", "collection_times": "Mo-Fr 16:30; Sa 11:30", "note": "ON 12/24 AND 12/31, THIS BOX MAY BE COLLECTED AS EARLY AS 12 NOON.", "nsi_id": "unitedstatespostalservice-a77078", "operator": "United States Postal Service", "operator:short": "USPS", "operator:type": "public", "operator:wikidata": "Q668687", "ref": "4445300001"}, "type": "Feature"}
{"geometry": {"coordinates": [-80.5192095745, 41.338467], "type": "Point"}, "id": "cNIpR8HPY6gbE6bLRU2oFi2r6Yo=", "properties": {"@source_uri": "https://tools.usps.com/UspsToolsRestServices/rest/POLocator/findLocations", "@spider": "usps_collection_boxes", "addr:city": "ORANGEVILLE", "addr:country": "US", "addr:postcode": "44453", "addr:state": "OH", "addr:street_address": "7401 STATELINE RD", "amenity": "post_box", "collection_times": "Mo-Fr 16:30; Sa 12:00", "indoor": "yes", "note": "ON 12/24 AND 12/31, THIS BOX MAY BE COLLECTED AS EARLY AS 12 NOON.", "nsi_id": "unitedstatespostalservice-a77078", "operator": "United States Postal Service", "operator:short": "USPS", "operator:type": "public", "operator:wikidata": "Q668687", "ref": "4445300003"}, "type": "Feature"}
{"geometry": {"coordinates": [-80.531495954, 40.911980984], "type": "Point"}, "id": "Bv11z5UNEe0i-6RwnHH2celISdg=", "properties": {"@source_uri": "https://tools.usps.com/UspsToolsRestServices/rest/POLocator/findLocations", "@spider": "usps_collection_boxes", "addr:city": "PETERSBURG", "addr:country": "US", "addr:postcode": "44454", "addr:state": "OH", "addr:street_address": "6363 E GARFIELD RD", "amenity": "post_box", "collection_times": "Mo-Fr 16:30; Sa 11:15", "note": "ON 12/24 AND 12/31, THIS BOX MAY BE COLLECTED AS EARLY AS 12 NOON.", "nsi_id": "unitedstatespostalservice-a77078", "operator": "United States Postal Service", "operator:short": "USPS", "operator:type": "public", "operator:wikidata": "Q668687", "ref": "4445400001"}, "type": "Feature"}
{"geometry": {"coordinates": [-80.531495954, 40.911980984], "type": "Point"}, "id": "BmRME6s4I_QuJd2U8RS5Ww53T9w=", "properties": {"@source_uri": "https://tools.usps.com/UspsToolsRestServices/rest/POLocator/findLocations", "@spider": "usps_collection_boxes", "addr:city": "PETERSBURG", "addr:country": "US", "addr:postcode": "44454", "addr:state": "OH", "addr:street_address": "6363 E GARFIELD RD", "amenity": "post_box", "collection_times": "Mo-Fr 16:15; Sa 11:15", "indoor": "yes", "note": "ON 12/24 AND 12/31, THIS BOX MAY BE COLLECTED AS EARLY AS 12 NOON.", "nsi_id": "unitedstatespostalservice-a77078", "operator": "United States Postal Service", "operator:short": "USPS", "operator:type": "public", "operator:wikidata": "Q668687", "ref": "4445400003"}, "type": "Feature"}
{"geometry": {"coordinates": [-80.626382575, 40.791490502], "type": "Point"}, "id": "Jl0oE4w0pK1XWCOvlwcJsgmINcU=", "properties": {"@source_uri": "https://tools.usps.com/UspsToolsRestServices/rest/POLocator/findLocations", "@spider": "usps_collection_boxes", "addr:city": "ROGERS", "addr:country": "US", "addr:postcode": "44455", "addr:state": "OH", "addr:street_address": "7529 DEPOT ST", "amenity": "post_box", "collection_times": "Mo-Fr 11:00; Sa 23:00", "note": "ON 12/24 AND 12/31, THIS BOX MAY BE COLLECTED AS EARLY AS 12 NOON.", "nsi_id": "unitedstatespostalservice-a77078", "operator": "United States Postal Service", "operator:short": "USPS", "operator:type": "public", "operator:wikidata": "Q668687", "ref": "4445500000"}, "type": "Feature"}
{"geometry": {"coordinates": [-80.626382575, 40.791490502], "type": "Point"}, "id": "hQrJNlWpWboT9sS56Xuojy-cJKg=", "properties": {"@source_uri": "https://tools.usps.com/UspsToolsRestServices/rest/POLocator/findLocations", "@spider": "usps_collection_boxes", "addr:city": "ROGERS", "addr:country": "US", "addr:postcode": "44455", "addr:state": "OH", "addr:street_address": "7529 DEPOT ST", "amenity": "post_box", "collection_times": "Mo-Fr 16:00; Sa 12:00", "indoor": "yes", "note": "ON 12/24 AND 12/31, THIS BOX MAY BE COLLECTED AS EARLY AS 12 NOON.", "nsi_id": "unitedstatespostalservice-a77078", "operator": "United States Postal Service", "operator:short": "USPS", "operator:type": "public", "operator:wikidata": "Q668687", "ref": "4445500001"}, "type": "Feature"}
{"geometry": {"coordinates": [-80.626382575, 40.791490502], "type": "Point"}, "id": "qka_uxTXYD6wfrKMv_cjWFyztXI=", "properties": {"@source_uri": "https://tools.usps.com/UspsToolsRestServices/rest/POLocator/findLocations", "@spider": "usps_collection_boxes", "addr:city": "ROGERS", "addr:country": "US", "addr:postcode": "44455", "addr:state": "OH", "addr:street_address": "7529 DEPOT ST", "amenity": "post_box", "collection_times": "Mo-Fr 16:00; Sa 12:00", "indoor": "yes", "note": "ON 12/24 AND 12/31, THIS BOX MAY BE COLLECTED AS EARLY AS 12 NOON.", "nsi_id": "unitedstatespostalservice-a77078", "operator": "United States Postal Service", "operator:short": "USPS", "operator:type": "public", "operator:wikidata": "Q668687", "ref": "4445500003"}, "type": "Feature"}
{"geometry": {"coordinates": [-80.8690014, 40.918305], "type": "Point"}, "id": "T4UaAUyo9xEVQOcKfNd49xkZoUQ=", "properties": {"@source_uri": "https://tools.usps.com/UspsToolsRestServices/rest/POLocator/findLocations", "@spider": "usps_collection_boxes", "addr:city": "SALEM", "addr:country": "US", "addr:postcode": "44460", "addr:state": "OH", "addr:street_address": "1601 GOSHEN RD", "amenity": "post_box", "collection_times": "Mo-Sa 14:00", "note": "ON 12/24 AND 12/31, THIS BOX MAY BE COLLECTED AS EARLY AS 12 NOON.", "nsi_id": "unitedstatespostalservice-a77078", "operator": "United States Postal Service", "operator:short": "USPS", "operator:type": "public", "operator:wikidata": "Q668687", "ref": "4446000002"}, "type": "Feature"}
{"geometry": {"coordinates": [-80.8374399, 40.888763], "type": "Point"}, "id": "mZiTFylqoZ_VbYD3mK_19IEnAwc=", "properties": {"@source_uri": "https://tools.usps.com/UspsToolsRestServices/rest/POLocator/findLocations", "@spider": "usps_collection_boxes", "addr:city": "SALEM", "addr:country": "US", "addr:postcode": "44460", "addr:state": "OH", "addr:street_address": "1434 FRANKLIN RD", "amenity": "post_box", "collection_times": "Mo-Sa 10:30", "nsi_id": "unitedstatespostalservice-a77078", "operator": "United States Postal Service", "operator:short": "USPS", "operator:type": "public", "operator:wikidata": "Q668687", "ref": "4446000010"}, "type": "Feature"}
{"geometry": {"coordinates": [-80.8304018445, 40.8989252527], "type": "Point"}, "id": "lU0LnWsPXhOgsHG4rHe35AY0fr8=", "properties": {"@source_uri": "https://tools.usps.com/UspsToolsRestServices/rest/POLocator/findLocations", "@spider": "usps_collection_boxes", "addr:city": "SALEM", "addr:country": "US", "addr:postcode": "44460", "addr:state": "OH", "addr:street_address": "2400 SOUTHEAST BLVD", "amenity": "post_box", "collection_times": "Mo-Sa 12:30", "note": "ON 12/24 AND 12/31, THIS BOX MAY BE COLLECTED AS EARLY AS 12 NOON.", "nsi_id": "unitedstatespostalservice-a77078", "operator": "United States Postal Service", "operator:short": "USPS", "operator:type": "public", "operator:wikidata": "Q668687", "ref": "4446000014"}, "type": "Feature"}
{"geometry": {"coordinates": [-80.8312378, 40.898632], "type": "Point"}, "id": "oy2UBuG4xARdQ4k5Urzh4L1nEoQ=", "properties": {"@source_uri": "https://tools.usps.com/UspsToolsRestServices/rest/POLocator/findLocations", "@spider": "usps_collection_boxes", "addr:city": "SALEM", "addr:country": "US", "addr:postcode": "44460", "addr:state": "OH", "addr:street_address": "2295 MONROE AVE", "amenity": "post_box", "collection_times": "Mo-Sa 12:30", "note": "ON 12/24 AND 12/31, THIS BOX MAY BE COLLECTED AS EARLY AS 12 NOON.", "nsi_id": "unitedstatespostalservice-a77078", "operator": "United States Postal Service", "operator:short": "USPS", "operator:type": "public", "operator:wikidata": "Q668687", "ref": "4446000015"}, "type": "Feature"}
{"geometry": {"coordinates": [-80.8270585, 40.900178], "type": "Point"}, "id": "OphgQSsOUgZ3mJOqKKcsDHsA7Ak=", "properties": {"@source_uri": "https://tools.usps.com/UspsToolsRestServices/rest/POLocator/findLocations", "@spider": "usps_collection_boxes", "addr:city": "SALEM", "addr:country": "US", "addr:postcode": "44460", "addr:state": "OH", "addr:street_address": "2401 E STATE ST", "amenity": "post_box", "collection_times": "Mo-Sa 09:30", "nsi_id": "unitedstatespostalservice-a77078", "operator": "United States Postal Service", "operator:short": "USPS", "operator:type": "public", "operator:wikidata": "Q668687", "ref": "4446000016"}, "type": "Feature"}
{"geometry": {"coordinates": [-80.8275895, 40.90282], "type": "Point"}, "id": "WJ80An0F8kgR7cdTbeNf_FpDYgw=", "properties": {"@source_uri": "https://tools.usps.com/UspsToolsRestServices/rest/POLocator/findLocations", "@spider": "usps_collection_boxes", "addr:city": "SALEM", "addr:country": "US", "addr:postcode": "44460", "addr:state": "OH", "addr:street_address": "2356 E STATE ST", "amenity": "post_box", "collection_times": "Mo-Sa 11:30", "nsi_id": "unitedstatespostalservice-a77078", "operator": "United States Postal Service", "operator:short": "USPS", "operator:type": "public", "operator:wikidata": "Q668687", "ref": "4446000017"}, "type": "Feature"}
{"geometry": {"coordinates": [-80.8327758, 40.901956], "type": "Point"}, "id": "pHyneF3dHFYzCrkm_thHi66j2a4=", "properties": {"@source_uri": "https://tools.usps.com/UspsToolsRestServices/rest/POLocator/findLocations", "@spider": "usps_collection_boxes", "addr:city": "SALEM", "addr:country": "US", "addr:postcode": "44460", "addr:state": "OH", "addr:street_address": "2020 E STATE ST", "amenity": "post_box", "collection_times": "Mo-Fr 13:30; Sa 09:00", "note": "ON 12/24 AND 12/31, THIS BOX MAY BE COLLECTED AS EARLY AS 12 NOON.", "nsi_id": "unitedstatespostalservice-a77078", "operator": "United States Postal Service", "operator:short": "USPS", "operator:type": "public", "operator:wikidata": "Q668687", "ref": "4446000018"}, "type": "Feature"}
{"geometry": {"coordinates": [-80.8320159, 40.900807], "type": "Point"}, "id": "mOeG-3mIKj1X-KgDLDwfQjeOdA0=", "properties": {"@source_uri": "https://tools.usps.com/UspsToolsRestServices/rest/POLocator/findLocations", "@spider": "usps_collection_boxes", "addr:city": "SALEM", "addr:country": "US", "addr:postcode": "44460", "addr:state": "OH", "addr:street_address": "1995 E STATE ST", "amenity": "post_box", "collection_times": "Mo-Fr 13:30; Sa 13:00", "note": "ON 12/24 AND 12/31, THIS BOX MAY BE COLLECTED AS EARLY AS 12 NOON.", "nsi_id": "unitedstatespostalservice-a77078", "operator": "United States Postal Service", "operator:short": "USPS", "operator:type": "public", "operator:wikidata": "Q668687", "ref": "4446000019"}, "type": "Feature"}
{"geometry": {"coordinates": [-80.8450238, 40.901016], "type": "Point"}, "id": "_6tXmQo3Wd4h2lzRKS_Pb6-XVmE=", "properties": {"@source_uri": "https://tools.usps.com/UspsToolsRestServices/rest/POLocator/findLocations", "@spider": "usps_collection_boxes", "addr:city": "SALEM", "addr:country": "US", "addr:postcode": "44460", "addr:state": "OH", "addr:street_address": "1156 E STATE ST", "amenity": "post_box", "collection_times": "Mo-Sa 15:00", "note": "ON 12/24 AND 12/31, THIS BOX MAY BE COLLECTED AS EARLY AS 12 NOON.", "nsi_id": "unitedstatespostalservice-a77078", "operator": "United States Postal Service", "operator:short": "USPS", "operator:type": "public", "operator:wikidata": "Q668687", "ref": "4446000021"}, "type": "Feature"}
{"geometry": {"coordinates": [-80.8539518, 40.902224], "type": "Point"}, "id": "bkwm5FjLWAs1Qm7iRYH5T4GuqV0=", "properties": {"@source_uri": "https://tools.usps.com/UspsToolsRestServices/rest/POLocator/findLocations", "@spider": "usps_collection_boxes", "addr:city": "SALEM", "addr:country": "US", "addr:postcode": "44460", "addr:state": "OH", "addr:street_address": "436 E 2ND ST", "amenity": "post_box", "collection_times": "Mo-Sa 15:00", "note": "ON 12/24 AND 12/31, THIS BOX MAY BE COLLECTED AS EARLY AS 12 NOON.", "nsi_id": "unitedstatespostalservice-a77078", "operator": "United States Postal Service", "operator:short": "USPS", "operator:type": "public", "operator:wikidata": "Q668687", "ref": "4446000032"}, "type": "Feature"}
{"geometry": {"coordinates": [-80.8558947, 40.90206], "type": "Point"}, "id": "Gb8CD_CRZ4oPmY4khtC73Xkim0w=", "properties": {"@source_uri": "https://tools.usps.com/UspsToolsRestServices/rest/POLocator/findLocations", "@spider": "usps_collection_boxes", "addr:city": "SALEM", "addr:country": "US", "addr:postcode": "44460", "addr:state": "OH", "addr:street_address": "123 N BROADWAY AVE", "amenity": "post_box", "collection_times": "Mo-Sa 15:00", "note": "ON 12/24 AND 12/31, THIS BOX MAY BE COLLECTED AS EARLY AS 12 NOON.", "nsi_id": "unitedstatespostalservice-a77078", "operator": "United States Postal Service", "operator:short": "USPS", "operator:type": "public", "operator:wikidata": "Q668687", "ref": "4446000033"}, "type": "Feature"}
{"geometry": {"coordinates": [-80.8551075, 40.90093], "type": "Point"}, "id": "SddxIGYsCOGOdg_Xtd5vqrv347A=", "properties": {"@source_uri": "https://tools.usps.com/UspsToolsRestServices/rest/POLocator/findLocations", "@spider": "usps_collection_boxes", "addr:city": "SALEM", "addr:country": "US", "addr:postcode": "44460", "addr:state": "OH", "addr:street_address": "315 E STATE ST", "amenity": "post_box", "collection_times": "Mo-Sa 15:00", "note": "ON 12/24 AND 12/31, THIS BOX MAY BE COLLECTED AS EARLY AS 12 NOON.", "nsi_id": "unitedstatespostalservice-a77078", "operator": "United States Postal Service", "operator:short": "USPS", "operator:type": "public", "operator:wikidata": "Q668687", "ref": "4446000037"}, "type": "Feature"}
{"geometry": {"coordinates": [-80.8537929, 40.900947], "type": "Point"}, "id": "5QJ8GU1t6BB4R0wlkecRKUQCc9U=", "properties": {"@source_uri": "https://tools.usps.com/UspsToolsRestServices/rest/POLocator/findLocations", "@spider": "usps_collection_boxes", "addr:city": "SALEM", "addr:country": "US", "addr:postcode": "44460", "addr:state": "OH", "addr:street_address": "503 E STATE ST", "amenity": "post_box", "collection_times": "Mo-Sa 15:00", "note": "ON 12/24 AND 12/31, THIS BOX MAY BE COLLECTED AS EARLY AS 12 NOON.", "nsi_id": "unitedstatespostalservice-a77078", "operator": "United States Postal Service", "operator:short": "USPS", "operator:type": "public", "operator:wikidata": "Q668687", "ref": "4446000038"}, "type": "Feature"}
{"geometry": {"coordinates": [-80.8525715, 40.901012], "type": "Point"}, "id": "DnTxcpKF3EPwv91QG0ZSjV1ADK4=", "properties": {"@source_uri": "https://tools.usps.com/UspsToolsRestServices/rest/POLocator/findLocations", "@spider": "usps_collection_boxes", "addr:city": "SALEM", "addr:country": "US", "addr:postcode": "44460", "addr:state": "OH", "addr:street_address": "600 E STATE ST", "amenity": "post_box", "collection_times": "Mo-Sa 15:00", "note": "ON 12/24 AND 12/31, THIS BOX MAY BE COLLECTED AS EARLY AS 12 NOON.", "nsi_id": "unitedstatespostalservice-a77078", "operator": "United States Postal Service", "operator:short": "USPS", "operator:type": "public", "operator:wikidata": "Q668687", "ref": "4446000039"}, "type": "Feature"}
{"geometry": {"coordinates": [-80.852235741, 40.898870267], "type": "Point"}, "id": "xrOkSbNAVwUPcT748LxkVcxTqTw=", "properties": {"@source_uri": "https://tools.usps.com/UspsToolsRestServices/rest/POLocator/findLocations", "@spider": "usps_collection_boxes", "addr:city": "SALEM", "addr:country": "US", "addr:postcode": "44460", "addr:state": "OH", "addr:street_address": "275 PENN AVE", "amenity": "post_box", "collection_times": "Mo-Fr 17:00; Sa 16:00", "note": "ON 12/24 AND 12/31, THIS BOX MAY BE COLLECTED AS EARLY AS 12 NOON.", "nsi_id": "unitedstatespostalservice-a77078", "operator": "United States Postal Service", "operator:short": "USPS", "operator:type": "public", "operator:wikidata": "Q668687", "ref": "4446000042"}, "type": "Feature"}
{"geometry": {"coordinates": [-80.852235741, 40.898870267], "type": "Point"}, "id": "zjK1NWnEnPfdl4FxHkslf6XLpc0=", "properties": {"@source_uri": "https://tools.usps.com/UspsToolsRestServices/rest/POLocator/findLocations", "@spider": "usps_collection_boxes", "addr:city": "SALEM", "addr:country": "US", "addr:postcode": "44460", "addr:state": "OH", "addr:street_address": "275 PENN AVE", "amenity": "post_box", "collection_times": "Mo-Fr 17:00; Sa 16:00", "indoor": "yes", "note": "ON 12/24 AND 12/31, THIS BOX MAY BE COLLECTED AS EARLY AS 12 NOON.", "nsi_id": "unitedstatespostalservice-a77078", "operator": "United States Postal Service", "operator:short": "USPS", "operator:type": "public", "operator:wikidata": "Q668687", "ref": "4446000047"}, "type": "Feature"}
{"geometry": {"coordinates": [-80.8427964, 40.879161], "type": "Point"}, "id": "1-cBn-v-K32ZfSbDxwI0izvRFPA=", "properties": {"@source_uri": "https://tools.usps.com/UspsToolsRestServices/rest/POLocator/findLocations", "@spider": "usps_collection_boxes", "addr:city": "SALEM", "addr:country": "US", "addr:postcode": "44460", "addr:state": "OH", "addr:street_address": "1827 S LINCOLN AVE", "amenity": "post_box", "collection_times": "Mo-Sa 09:30", "nsi_id": "unitedstatespostalservice-a77078", "operator": "United States Postal Service", "operator:short": "USPS", "operator:type": "public", "operator:wikidata": "Q668687", "ref": "4446000048"}, "type": "Feature"}
{"geometry": {"coordinates": [-80.852235741, 40.898870267], "type": "Point"}, "id": "9HL21a1p7GhHwmGF1ouw-nFjeW8=", "properties": {"@source_uri": "https://tools.usps.com/UspsToolsRestServices/rest/POLocator/findLocations", "@spider": "usps_collection_boxes", "addr:city": "SALEM", "addr:country": "US", "addr:postcode": "44460", "addr:state": "OH", "addr:street_address": "275 PENN AVE", "amenity": "post_box", "collection_times": "Mo-Fr 17:00; Sa 16:00", "note": "ON 12/24 AND 12/31, THIS BOX MAY BE COLLECTED AS EARLY AS 12 NOON.", "nsi_id": "unitedstatespostalservice-a77078", "operator": "United States Postal Service", "operator:short": "USPS", "operator:type": "public", "operator:wikidata": "Q668687", "ref": "4446000050"}, "type": "Feature"}
{"geometry": {"coordinates": [-80.8167644, 40.900147], "type": "Point"}, "id": "4S3ar7R5ZdUhnd5XVeow6LArGU4=", "properties": {"@source_uri": "https://tools.usps.com/UspsToolsRestServices/rest/POLocator/findLocations", "@spider": "usps_collection_boxes", "addr:city": "SALEM", "addr:country": "US", "addr:postcode": "44460", "addr:state": "OH", "addr:street_address": "2875 E STATE ST", "amenity": "post_box", "collection_times": "Mo-Sa 10:00", "nsi_id": "unitedstatespostalservice-a77078", "operator": "United States Postal Service", "operator:short": "USPS", "operator:type": "public", "operator:wikidata": "Q668687", "ref": "4446000051"}, "type": "Feature"}
{"geometry": {"coordinates": [-80.852235741, 40.898870267], "type": "Point"}, "id": "3VX2f2XD3bNNDqbMGj9S3WXznSM=", "properties": {"@source_uri": "https://tools.usps.com/UspsToolsRestServices/rest/POLocator/findLocations", "@spider": "usps_collection_boxes", "addr:city": "SALEM", "addr:country": "US", "addr:postcode": "44460", "addr:state": "OH", "addr:street_address": "275 PENN AVE", "amenity": "post_box", "collection_times": "Mo-Fr 17:00; Sa 12:00", "indoor": "yes", "note": "ON 12/24 AND 12/31, THIS BOX MAY BE COLLECTED AS EARLY AS 12 NOON.", "nsi_id": "unitedstatespostalservice-a77078", "operator": "United States Postal Service", "operator:short": "USPS", "operator:type": "public", "operator:wikidata": "Q668687", "ref": "4446000056"}, "type": "Feature"}
{"geometry": {"coordinates": [-80.9645199764, 41.2956748503], "type": "Point"}, "id": "RE0-pirnax5RVMc1UVT9gWBsfco=", "properties": {"@source_uri": "https://tools.usps.com/UspsToolsRestServices/rest/POLocator/findLocations", "@spider": "usps_collection_boxes", "addr:city": "SOUTHINGTON", "addr:country": "US", "addr:postcode": "44470", "addr:state": "OH", "addr:street_address": "2870 OAKWOOD AVE", "amenity": "post_box", "collection_times": "Mo-Sa 11:00", "nsi_id": "unitedstatespostalservice-a77078", "operator": "United States Postal Service", "operator:short": "USPS", "operator:type": "public", "operator:wikidata": "Q668687", "ref": "4447000000"}, "type": "Feature"}
{"geometry": {"coordinates": [-80.955856, 41.308001], "type": "Point"}, "id": "g2XMNM_riSKHUXAbb6_OOIxxJrU=", "properties": {"@source_uri": "https://tools.usps.com/UspsToolsRestServices/rest/POLocator/findLocations", "@spider": "usps_collection_boxes", "addr:city": "SOUTHINGTON", "addr:country": "US", "addr:postcode": "44470", "addr:state": "OH", "addr:street_address": "3307 STATE ROUTE 534", "amenity": "post_box", "collection_times": "Mo-Fr 16:00; Sa 11:45", "note": "ON 12/24 AND 12/31, THIS BOX MAY BE COLLECTED AS EARLY AS 12 NOON.", "nsi_id": "unitedstatespostalservice-a77078", "operator": "United States Postal Service", "operator:short": "USPS", "operator:type": "public", "operator:wikidata": "Q668687", "ref": "4447000001"}, "type": "Feature"}
{"geometry": {"coordinates": [-80.9558565601, 41.307804], "type": "Point"}, "id": "AMYFSdsuAFmFLr0np_qYyMnX7W8=", "properties": {"@source_uri": "https://tools.usps.com/UspsToolsRestServices/rest/POLocator/findLocations", "@spider": "usps_collection_boxes", "addr:city": "SOUTHINGTON", "addr:country": "US", "addr:postcode": "44470", "addr:state": "OH", "addr:street_address": "3307 STATE ROUTE 534", "amenity": "post_box", "collection_times": "Mo-Fr 16:00; Sa 11:45", "indoor": "yes", "note": "ON 12/24 AND 12/31, THIS BOX MAY BE COLLECTED AS EARLY AS 12 NOON.", "nsi_id": "unitedstatespostalservice-a77078", "operator": "United States Postal Service", "operator:short": "USPS", "operator:type": "public", "operator:wikidata": "Q668687", "ref": "4447000002"}, "type": "Feature"}
{"geometry": {"coordinates": [-80.9558565601, 41.307804], "type": "Point"}, "id": "1cx1lzbibZYwplmp2koRAyKfyN0=", "properties": {"@source_uri": "https://tools.usps.com/UspsToolsRestServices/rest/POLocator/findLocations", "@spider": "usps_collection_boxes", "addr:city": "SOUTHINGTON", "addr:country": "US", "addr:postcode": "44470", "addr:state": "OH", "addr:street_address": "3307 STATE ROUTE 534", "amenity": "post_box", "collection_times": "Mo-Fr 16:00; Sa 12:00", "indoor": "yes", "note": "ON 12/24 AND 12/31, THIS BOX MAY BE COLLECTED AS EARLY AS 12 NOON.", "nsi_id": "unitedstatespostalservice-a77078", "operator": "United States Postal Service", "operator:short": "USPS", "operator:type": "public", "operator:wikidata": "Q668687", "ref": "4447000004"}, "type": "Feature"}
{"geometry": {"coordinates": [-80.588877144, 41.055189001], "type": "Point"}, "id": "UBbiM0xvjPoS2A34DjIJiNT0TH4=", "properties": {"@source_uri": "https://tools.usps.com/UspsToolsRestServices/rest/POLocator/findLocations", "@spider": "usps_collection_boxes", "addr:city": "STRUTHERS", "addr:country": "US", "addr:postcode": "44471", "addr:state": "OH", "addr:street_address": "195 S BRIDGE ST", "amenity": "post_box", "collection_times": "Mo-Fr 17:00; Sa 15:45", "indoor": "yes", "note": "ON 12/24 AND 12/31, THIS BOX MAY BE COLLECTED AS EARLY AS 12 NOON.", "nsi_id": "unitedstatespostalservice-a77078", "operator": "United States Postal Service", "operator:short": "USPS", "operator:type": "public", "operator:wikidata": "Q668687", "ref": "4447100000"}, "type": "Feature"}
{"geometry": {"coordinates": [-80.588877144, 41.055189001], "type": "Point"}, "id": "oK5Bwoj1ycH-Op8daaDav_1z6qQ=", "properties": {"@source_uri": "https://tools.usps.com/UspsToolsRestServices/rest/POLocator/findLocations", "@spider": "usps_collection_boxes", "addr:city": "STRUTHERS", "addr:country": "US", "addr:postcode": "44471", "addr:state": "OH", "addr:street_address": "195 S BRIDGE ST", "amenity": "post_box", "collection_times": "Mo-Fr 17:00; Sa 15:45", "note": "ON 12/24 AND 12/31, THIS BOX MAY BE COLLECTED AS EARLY AS 12 NOON.", "nsi_id": "unitedstatespostalservice-a77078", "operator": "United States Postal Service", "operator:short": "USPS", "operator:type": "public", "operator:wikidata": "Q668687", "ref": "4447100001"}, "type": "Feature"}
{"geometry": {"coordinates": [-80.6156116, 41.05893], "type": "Point"}, "id": "G3G-yZg_GT6ckACdhaQAZmVQZAY=", "properties": {"@source_uri": "https://tools.usps.com/UspsToolsRestServices/rest/POLocator/findLocations", "@spider": "usps_collection_boxes", "addr:city": "STRUTHERS", "addr:country": "US", "addr:postcode": "44471", "addr:state": "OH", "addr:street_address": "460 YOUNGSTOWN POLAND RD", "amenity": "post_box", "collection_times": "Mo-Sa 15:00", "note": "ON 12/24 AND 12/31, THIS BOX MAY BE COLLECTED AS EARLY AS 12 NOON.", "nsi_id": "unitedstatespostalservice-a77078", "operator": "United States Postal Service", "operator:short": "USPS", "operator:type": "public", "operator:wikidata": "Q668687", "ref": "4447100008"}, "type": "Feature"}
{"geometry": {"coordinates": [-80.5914535, 41.056389], "type": "Point"}, "id": "cuWs2g8QrRJWp3FBk_Yf9btbcu0=", "properties": {"@source_uri": "https://tools.usps.com/UspsToolsRestServices/rest/POLocator/findLocations", "@spider": "usps_collection_boxes", "addr:city": "STRUTHERS", "addr:country": "US", "addr:postcode": "44471", "addr:state": "OH", "addr:street_address": "6 ELM ST", "amenity": "post_box", "collection_times": "Mo-Sa 15:00", "note": "ON 12/24 AND 12/31, THIS BOX MAY BE COLLECTED AS EARLY AS 12 NOON.", "nsi_id": "unitedstatespostalservice-a77078", "operator": "United States Postal Service", "operator:short": "USPS", "operator:type": "public", "operator:wikidata": "Q668687", "ref": "4447100011"}, "type": "Feature"}
{"geometry": {"coordinates": [-80.6036683, 41.055626], "type": "Point"}, "id": "522ESR8g2Pt-J1q66gOT10Hv3cw=", "properties": {"@source_uri": "https://tools.usps.com/UspsToolsRestServices/rest/POLocator/findLocations", "@spider": "usps_collection_boxes", "addr:city": "STRUTHERS", "addr:country": "US", "addr:postcode": "44471", "addr:state": "OH", "addr:street_address": "581 5TH ST", "amenity": "post_box", "collection_times": "Mo-Sa 15:00", "note": "ON 12/24 AND 12/31, THIS BOX MAY BE COLLECTED AS EARLY AS 12 NOON.", "nsi_id": "unitedstatespostalservice-a77078", "operator": "United States Postal Service", "operator:short": "USPS", "operator:type": "public", "operator:wikidata": "Q668687", "ref": "4447100016"}, "type": "Feature"}
{"geometry": {"coordinates": [-80.6033799, 41.043434], "type": "Point"}, "id": "WyldMFb5omJe99BnDXlR3F2nC44=", "properties": {"@source_uri": "https://tools.usps.com/UspsToolsRestServices/rest/POLocator/findLocations", "@spider": "usps_collection_boxes", "addr:city": "STRUTHERS", "addr:country": "US", "addr:postcode": "44471", "addr:state": "OH", "addr:street_address": "1024 5TH ST", "amenity": "post_box", "collection_times": "Mo-Sa 15:00", "note": "ON 12/24 AND 12/31, THIS BOX MAY BE COLLECTED AS EARLY AS 12 NOON.", "nsi_id": "unitedstatespostalservice-a77078", "operator": "United States Postal Service", "operator:short": "USPS", "operator:type": "public", "operator:wikidata": "Q668687", "ref": "4447100028"}, "type": "Feature"}
{"geometry": {"coordinates": [-80.6155503, 41.044733], "type": "Point"}, "id": "18jy0-1E9CTKTzI4O45vot6ph4A=", "properties": {"@source_uri": "https://tools.usps.com/UspsToolsRestServices/rest/POLocator/findLocations", "@spider": "usps_collection_boxes", "addr:city": "STRUTHERS", "addr:country": "US", "addr:postcode": "44471", "addr:state": "OH", "addr:street_address": "1000 YOUNGSTOWN POLAND RD", "amenity": "post_box", "collection_times": "Mo-Sa 13:30", "note": "ON 12/24 AND 12/31, THIS BOX MAY BE COLLECTED AS EARLY AS 12 NOON.", "nsi_id": "unitedstatespostalservice-a77078", "operator": "United States Postal Service", "operator:short": "USPS", "operator:type": "public", "operator:wikidata": "Q668687", "ref": "4447100031"}, "type": "Feature"}
{"geometry": {"coordinates": [-80.588877144, 41.055189001], "type": "Point"}, "id": "eOolzpOtd4JEcuuqSG00GiHi768=", "properties": {"@source_uri": "https://tools.usps.com/UspsToolsRestServices/rest/POLocator/findLocations", "@spider": "usps_collection_boxes", "addr:city": "STRUTHERS", "addr:country": "US", "addr:postcode": "44471", "addr:state": "OH", "addr:street_address": "195 S BRIDGE ST", "amenity": "post_box", "collection_times": "Mo-Fr 17:00; Sa 12:00", "indoor": "yes", "note": "ON 12/24 AND 12/31, THIS BOX MAY BE COLLECTED AS EARLY AS 12 NOON.", "nsi_id": "unitedstatespostalservice-a77078", "operator": "United States Postal Service", "operator:short": "USPS", "operator:type": "public", "operator:wikidata": "Q668687", "ref": "4447100034"}, "type": "Feature"}
{"geometry": {"coordinates": [-80.660289, 41.237797], "type": "Point"}, "id": "e2tI8Td5JrR1UlV2tUW4VbDmfXA=", "properties": {"@source_uri": "https://tools.usps.com/UspsToolsRestServices/rest/POLocator/findLocations", "@spider": "usps_collection_boxes", "addr:city": "VIENNA", "addr:country": "US", "addr:postcode": "44473", "addr:state": "OH", "addr:street_address": "4411 WARREN SHARON RD", "amenity": "post_box", "collection_times": "Mo-Fr 16:30; Sa 11:45", "note": "ON 12/24 AND 12/31, THIS BOX MAY BE COLLECTED AS EARLY AS 12 NOON.", "nsi_id": "unitedstatespostalservice-a77078", "operator": "United States Postal Service", "operator:short": "USPS", "operator:type": "public", "operator:wikidata": "Q668687", "ref": "4447300000"}, "type": "Feature"}
{"geometry": {"coordinates": [-80.660382, 41.23777], "type": "Point"}, "id": "HK1MVGF6f6d0ZsZFhmqoj1-9CsI=", "properties": {"@source_uri": "https://tools.usps.com/UspsToolsRestServices/rest/POLocator/findLocations", "@spider": "usps_collection_boxes", "addr:city": "VIENNA", "addr:country": "US", "addr:postcode": "44473", "addr:state": "OH", "addr:street_address": "4411 WARREN SHARON RD", "amenity": "post_box", "collection_times": "Mo-Fr 16:30; Sa 11:45", "indoor": "yes", "note": "ON 12/24 AND 12/31, THIS BOX MAY BE COLLECTED AS EARLY AS 12 NOON.", "nsi_id": "unitedstatespostalservice-a77078", "operator": "United States Postal Service", "operator:short": "USPS", "operator:type": "public", "operator:wikidata": "Q668687", "ref": "4447300001"}, "type": "Feature"}
{"geometry": {"coordinates": [-80.6741485, 41.268412], "type": "Point"}, "id": "8rLrUGCriz57CqdUd21a3Yaq6mM=", "properties": {"@source_uri": "https://tools.usps.com/UspsToolsRestServices/rest/POLocator/findLocations", "@spider": "usps_collection_boxes", "addr:city": "VIENNA", "addr:country": "US", "addr:postcode": "44473", "addr:state": "OH", "addr:street_address": "3976 KING GRAVES RD", "amenity": "post_box", "collection_times": "Mo-Fr 10:00", "nsi_id": "unitedstatespostalservice-a77078", "operator": "United States Postal Service", "operator:short": "USPS", "operator:type": "public", "operator:wikidata": "Q668687", "ref": "4447300002"}, "type": "Feature"}
{"geometry": {"coordinates": [-80.660412, 41.2377924965], "type": "Point"}, "id": "tDScZIZGxe-rDgae14ToYBtajSQ=", "properties": {"@source_uri": "https://tools.usps.com/UspsToolsRestServices/rest/POLocator/findLocations", "@spider": "usps_collection_boxes", "addr:city": "VIENNA", "addr:country": "US", "addr:postcode": "44473", "addr:state": "OH", "addr:street_address": "4411 WARREN SHARON RD", "amenity": "post_box", "collection_times": "Mo-Fr 16:30; Sa 12:00", "indoor": "yes", "note": "ON 12/24 AND 12/31, THIS BOX MAY BE COLLECTED AS EARLY AS 12 NOON.", "nsi_id": "unitedstatespostalservice-a77078", "operator": "United States Postal Service", "operator:short": "USPS", "operator:type": "public", "operator:wikidata": "Q668687", "ref": "4447300004"}, "type": "Feature"}
{"geometry": {"coordinates": [-80.815851587, 41.237573489], "type": "Point"}, "id": "B2cKk36IRILliwPpfSpzqIzyYHs=", "properties": {"@source_uri": "https://tools.usps.com/UspsToolsRestServices/rest/POLocator/findLocations", "@spider": "usps_collection_boxes", "addr:city": "WARREN", "addr:country": "US", "addr:postcode": "44481", "addr:state": "OH", "addr:street_address": "201 HIGH ST NE", "amenity": "post_box", "collection_times": "Mo-Sa 17:00", "indoor": "yes", "note": "ON 12/24 AND 12/31, THIS BOX MAY BE COLLECTED AS EARLY AS 12 NOON.", "nsi_id": "unitedstatespostalservice-a77078", "operator": "United States Postal Service", "operator:short": "USPS", "operator:type": "public", "operator:wikidata": "Q668687", "ref": "4448100006"}, "type": "Feature"}
{"geometry": {"coordinates": [-80.7993883, 41.235125], "type": "Point"}, "id": "zaYqV7PF0BgA1wO89dgO4Rx1F1A=", "properties": {"@source_uri": "https://tools.usps.com/UspsToolsRestServices/rest/POLocator/findLocations", "@spider": "usps_collection_boxes", "addr:city": "WARREN", "addr:country": "US", "addr:postcode": "44481", "addr:state": "OH", "addr:street_address": "1350 E MARKET ST", "amenity": "post_box", "collection_times": "Mo-Sa 09:30", "nsi_id": "unitedstatespostalservice-a77078", "operator": "United States Postal Service", "operator:short": "USPS", "operator:type": "public", "operator:wikidata": "Q668687", "ref": "4448100013"}, "type": "Feature"}
{"geometry": {"coordinates": [-80.8021722, 41.266911], "type": "Point"}, "id": "mkKTJ0Z7VOfGi3W0csSz2goa49I=", "properties": {"@source_uri": "https://tools.usps.com/UspsToolsRestServices/rest/POLocator/findLocations", "@spider": "usps_collection_boxes", "addr:city": "WARREN", "addr:country": "US", "addr:postcode": "44481", "addr:state": "OH", "addr:street_address": "3181 LARCHMONT AVE NE", "amenity": "post_box", "collection_times": "Mo-Sa 11:00", "nsi_id": "unitedstatespostalservice-a77078", "operator": "United States Postal Service", "operator:short": "USPS", "operator:type": "public", "operator:wikidata": "Q668687", "ref": "4448100015"}, "type": "Feature"}
{"geometry": {"coordinates": [-80.7927856, 41.254868], "type": "Point"}, "id": "I5Q3Ne3VZUUVRk0QgYfyPPcgvmc=", "properties": {"@source_uri": "https://tools.usps.com/UspsToolsRestServices/rest/POLocator/findLocations", "@spider": "usps_collection_boxes", "addr:city": "WARREN", "addr:country": "US", "addr:postcode": "44481", "addr:state": "OH", "addr:street_address": "2073 ELM RD NE", "amenity": "post_box", "collection_times": "Mo-Sa 11:00", "nsi_id": "unitedstatespostalservice-a77078", "operator": "United States Postal Service", "operator:short": "USPS", "operator:type": "public", "operator:wikidata": "Q668687", "ref": "4448100017"}, "type": "Feature"}
{"geometry": {"coordinates": [-80.8180958, 41.238669], "type": "Point"}, "id": "qfYWWCGtr8LwloRb8vqdkh7C_9I=", "properties": {"@source_uri": "https://tools.usps.com/UspsToolsRestServices/rest/POLocator/findLocations", "@spider": "usps_collection_boxes", "addr:city": "WARREN", "addr:country": "US", "addr:postcode": "44481", "addr:state": "OH", "addr:street_address": "280 N PARK AVE", "amenity": "post_box", "collection_times": "Mo-Fr 10:15; Sa 10:00", "nsi_id": "unitedstatespostalservice-a77078", "operator": "United States Postal Service", "operator:short": "USPS", "operator:type": "public", "operator:wikidata": "Q668687", "ref": "4448100026"}, "type": "Feature"}
{"geometry": {"coordinates": [-80.8499511, 41.165448], "type": "Point"}, "id": "23Am9pMmK2wwRzcRtLn8FvJlP-I=", "properties": {"@source_uri": "https://tools.usps.com/UspsToolsRestServices/rest/POLocator/findLocations", "@spider": "usps_collection_boxes", "addr:city": "WARREN", "addr:country": "US", "addr:postcode": "44481", "addr:state": "OH", "addr:street_address": "1455 SALT SPRINGS RD", "amenity": "post_box", "collection_times": "Mo-Sa 09:30", "nsi_id": "unitedstatespostalservice-a77078", "operator": "United States Postal Service", "operator:short": "USPS", "operator:type": "public", "operator:wikidata": "Q668687", "ref": "4448100029"}, "type": "Feature"}
{"geometry": {"coordinates": [-80.8169509, 41.23439], "type": "Point"}, "id": "cbNBx0t-6lfc5_DMbwVjDMe1bFs=", "properties": {"@source_uri": "https://tools.usps.com/UspsToolsRestServices/rest/POLocator/findLocations", "@spider": "usps_collection_boxes", "addr:city": "WARREN", "addr:country": "US", "addr:postcode": "44481", "addr:state": "OH", "addr:street_address": "141 SOUTH ST SE", "amenity": "post_box", "collection_times": "Mo-Fr 09:30", "nsi_id": "unitedstatespostalservice-a77078", "operator": "United States Postal Service", "operator:short": "USPS", "operator:type": "public", "operator:wikidata": "Q668687", "ref": "4448100030"}, "type": "Feature"}
{"geometry": {"coordinates": [-80.9175031, 41.16388], "type": "Point"}, "id": "mFJaR_SQ_MJOQPcbb7sB_-fpGww=", "properties": {"@source_uri": "https://tools.usps.com/UspsToolsRestServices/rest/POLocator/findLocations", "@spider": "usps_collection_boxes", "addr:city": "WARREN", "addr:country": "US", "addr:postcode": "44481", "addr:state": "OH", "addr:street_address": "3260 SALT SPRINGS RD", "amenity": "post_box", "collection_times": "Mo-Sa 11:00", "nsi_id": "unitedstatespostalservice-a77078", "operator": "United States Postal Service", "operator:short": "USPS", "operator:type": "public", "operator:wikidata": "Q668687", "ref": "4448100035"}, "type": "Feature"}
{"geometry": {"coordinates": [-80.8195503, 41.237535], "type": "Point"}, "id": "Xrz60e4kZFKgdNVyDboJeYfxR7U=", "properties": {"@source_uri": "https://tools.usps.com/UspsToolsRestServices/rest/POLocator/findLocations", "@spider": "usps_collection_boxes", "addr:city": "WARREN", "addr:country": "US", "addr:postcode": "44481", "addr:state": "OH", "addr:street_address": "160 HIGH ST NW", "amenity": "post_box", "collection_times": "Mo-Fr 15:00; Sa 10:00", "note": "ON 12/24 AND 12/31, THIS BOX MAY BE COLLECTED AS EARLY AS 12 NOON.", "nsi_id": "unitedstatespostalservice-a77078", "operator": "United States Postal Service", "operator:short": "USPS", "operator:type": "public", "operator:wikidata": "Q668687", "ref": "4448100037"}, "type": "Feature"}
{"geometry": {"coordinates": [-80.7862236, 41.238949], "type": "Point"}, "id": "ISmotZ5xI038-izFGG6wXt6TBEQ=", "properties": {"@source_uri": "https://tools.usps.com/UspsToolsRestServices/rest/POLocator/findLocations", "@spider": "usps_collection_boxes", "addr:city": "WARREN", "addr:country": "US", "addr:postcode": "44481", "addr:state": "OH", "addr:street_address": "270 GARFIELD DR NE", "amenity": "post_box", "collection_times": "Mo-Sa 10:30", "nsi_id": "unitedstatespostalservice-a77078", "operator": "United States Postal Service", "operator:short": "USPS", "operator:type": "public", "operator:wikidata": "Q668687", "ref": "4448100038"}, "type": "Feature"}
{"geometry": {"coordinates": [-80.7760058, 41.253964], "type": "Point"}, "id": "mLiSVpcrTEwF29IL9I5HK3lanyk=", "properties": {"@source_uri": "https://tools.usps.com/UspsToolsRestServices/rest/POLocator/findLocations", "@spider": "usps_collection_boxes", "addr:city": "WARREN", "addr:country": "US", "addr:postcode": "44481", "addr:state": "OH", "addr:street_address": "1650 CRANBERRY LN NE", "amenity": "post_box", "collection_times": "Mo-Sa 11:00", "nsi_id": "unitedstatespostalservice-a77078", "operator": "United States Postal Service", "operator:short": "USPS", "operator:type": "public", "operator:wikidata": "Q668687", "ref": "4448100041"}, "type": "Feature"}
{"geometry": {"coordinates": [-80.8329321, 41.259704], "type": "Point"}, "id": "dJrxuurIiqqb_sXo05nzujbn1f8=", "properties": {"@source_uri": "https://tools.usps.com/UspsToolsRestServices/rest/POLocator/findLocations", "@spider": "usps_collection_boxes", "addr:city": "WARREN", "addr:country": "US", "addr:postcode": "44481", "addr:state": "OH", "addr:street_address": "2700 MAHONING AVE NW", "amenity": "post_box", "collection_times": "Mo-Sa 09:30", "nsi_id": "unitedstatespostalservice-a77078", "operator": "United States Postal Service", "operator:short": "USPS", "operator:type": "public", "operator:wikidata": "Q668687", "ref": "4448100042"}, "type": "Feature"}
{"geometry": {"coordinates": [-80.8234257, 41.239195], "type": "Point"}, "id": "sFyYpSimj2s6C6EsIMghelnmhbU=", "properties": {"@source_uri": "https://tools.usps.com/UspsToolsRestServices/rest/POLocator/findLocations", "@spider": "usps_collection_boxes", "addr:city": "WARREN", "addr:country": "US", "addr:postcode": "44481", "addr:state": "OH", "addr:street_address": "391 MAHONING AVE NW", "amenity": "post_box", "collection_times": "Mo-Sa 09:30", "nsi_id": "unitedstatespostalservice-a77078", "operator": "United States Postal Service", "operator:short": "USPS", "operator:type": "public", "operator:wikidata": "Q668687", "ref": "4448100043"}, "type": "Feature"}
{"geometry": {"coordinates": [-80.8458754, 41.284055], "type": "Point"}, "id": "r25Jszin3A1SMkA0E-h0HaWCn4I=", "properties": {"@source_uri": "https://tools.usps.com/UspsToolsRestServices/rest/POLocator/findLocations", "@spider": "usps_collection_boxes", "addr:city": "WARREN", "addr:country": "US", "addr:postcode": "44481", "addr:state": "OH", "addr:street_address": "4617 MAHONING AVE NW", "amenity": "post_box", "collection_times": "Mo-Fr 15:00; Sa 11:00", "note": "ON 12/24 AND 12/31, THIS BOX MAY BE COLLECTED AS EARLY AS 12 NOON.", "nsi_id": "unitedstatespostalservice-a77078", "operator": "United States Postal Service", "operator:short": "USPS", "operator:type": "public", "operator:wikidata": "Q668687", "ref": "4448100045"}, "type": "Feature"}
{"geometry": {"coordinates": [-80.8293205, 41.290778], "type": "Point"}, "id": "TH3ZZNqE8njKPgMv-anuisg3osU=", "properties": {"@source_uri": "https://tools.usps.com/UspsToolsRestServices/rest/POLocator/findLocations", "@spider": "usps_collection_boxes", "addr:city": "WARREN", "addr:country": "US", "addr:postcode": "44481", "addr:state": "OH", "addr:street_address": "632 CHAMPION AVE E", "amenity": "post_box", "collection_times": "Mo-Sa 09:30", "nsi_id": "unitedstatespostalservice-a77078", "operator": "United States Postal Service", "operator:short": "USPS", "operator:type": "public", "operator:wikidata": "Q668687", "ref": "4448100046"}, "type": "Feature"}
{"geometry": {"coordinates": [-80.8395427, 41.270943], "type": "Point"}, "id": "reol4GQRUNn8FulZBUvpDaF0izo=", "properties": {"@source_uri": "https://tools.usps.com/UspsToolsRestServices/rest/POLocator/findLocations", "@spider": "usps_collection_boxes", "addr:city": "WARREN", "addr:country": "US", "addr:postcode": "44481", "addr:state": "OH", "addr:street_address": "3991 MAHONING AVE NW", "amenity": "post_box", "collection_times": "Mo-Fr 13:30; Sa 11:00", "note": "ON 12/24 AND 12/31, THIS BOX MAY BE COLLECTED AS EARLY AS 12 NOON.", "nsi_id": "unitedstatespostalservice-a77078", "operator": "United States Postal Service", "operator:short": "USPS", "operator:type": "public", "operator:wikidata": "Q668687", "ref": "4448100048"}, "type": "Feature"}
{"geometry": {"coordinates": [-80.8045991, 41.17464], "type": "Point"}, "id": "UgIswOyejiOwbj_-_UKNqtkK060=", "properties": {"@source_uri": "https://tools.usps.com/UspsToolsRestServices/rest/POLocator/findLocations", "@spider": "usps_collection_boxes", "addr:city": "WARREN", "addr:country": "US", "addr:postcode": "44481", "addr:state": "OH", "addr:street_address": "302 EDGEWATER PINES DR SW", "amenity": "post_box", "collection_times": "Mo-Sa 09:30", "nsi_id": "unitedstatespostalservice-a77078", "operator": "United States Postal Service", "operator:short": "USPS", "operator:type": "public", "operator:wikidata": "Q668687", "ref": "4448100056"}, "type": "Feature"}
{"geometry": {"coordinates": [-80.804391, 41.177163], "type": "Point"}, "id": "hZgX0BIhu2j7B2lXHJmbO78J99I=", "properties": {"@source_uri": "https://tools.usps.com/UspsToolsRestServices/rest/POLocator/findLocations", "@spider": "usps_collection_boxes", "addr:city": "WARREN", "addr:country": "US", "addr:postcode": "44481", "addr:state": "OH", "addr:street_address": "206 FOREST GLEN RD SW", "amenity": "post_box", "collection_times": "Mo-Sa 09:00", "nsi_id": "unitedstatespostalservice-a77078", "operator": "United States Postal Service", "operator:short": "USPS", "operator:type": "public", "operator:wikidata": "Q668687", "ref": "4448100058"}, "type": "Feature"}
{"geometry": {"coordinates": [-80.8801906384, 41.1442024813], "type": "Point"}, "id": "8f4Wr7najvDDIGnxUdUlTLXHhwE=", "properties": {"@source_uri": "https://tools.usps.com/UspsToolsRestServices/rest/POLocator/findLocations", "@spider": "usps_collection_boxes", "addr:city": "WARREN", "addr:country": "US", "addr:postcode": "44481", "addr:state": "OH", "addr:street_address": "2300 HALLOCK YOUNG RD SW", "amenity": "post_box", "collection_times": "Mo-Sa 09:00", "nsi_id": "unitedstatespostalservice-a77078", "operator": "United States Postal Service", "operator:short": "USPS", "operator:type": "public", "operator:wikidata": "Q668687", "ref": "4448100059"}, "type": "Feature"}
{"geometry": {"coordinates": [-80.8195459, 41.237573], "type": "Point"}, "id": "2Ds42_328EQZgwrWbWpLImJPA6o=", "properties": {"@source_uri": "https://tools.usps.com/UspsToolsRestServices/rest/POLocator/findLocations", "@spider": "usps_collection_boxes", "addr:city": "WARREN", "addr:country": "US", "addr:postcode": "44481", "addr:state": "OH", "addr:street_address": "160 HIGH ST NW", "amenity": "post_box", "collection_times": "Mo-Fr 15:00; Sa 10:00", "note": "ON 12/24 AND 12/31, THIS BOX MAY BE COLLECTED AS EARLY AS 12 NOON.", "nsi_id": "unitedstatespostalservice-a77078", "operator": "United States Postal Service", "operator:short": "USPS", "operator:type": "public", "operator:wikidata": "Q668687", "ref": "4448100061"}, "type": "Feature"}
{"geometry": {"coordinates": [-80.8199986, 41.235925], "type": "Point"}, "id": "JlDYyP9YY520R32-Qmx32cLx7rc=", "properties": {"@source_uri": "https://tools.usps.com/UspsToolsRestServices/rest/POLocator/findLocations", "@spider": "usps_collection_boxes", "addr:city": "WARREN", "addr:country": "US", "addr:postcode": "44481", "addr:state": "OH", "addr:street_address": "108 MAIN AVE SW", "amenity": "post_box", "collection_times": "Mo-Fr 12:00; Sa 10:00", "nsi_id": "unitedstatespostalservice-a77078", "operator": "United States Postal Service", "operator:short": "USPS", "operator:type": "public", "operator:wikidata": "Q668687", "ref": "4448100064"}, "type": "Feature"}
{"geometry": {"coordinates": [-80.8178664, 41.235906], "type": "Point"}, "id": "3_xxsiIoSCoCKq9ApKFpJkYlz-U=", "properties": {"@source_uri": "https://tools.usps.com/UspsToolsRestServices/rest/POLocator/findLocations", "@spider": "usps_collection_boxes", "addr:city": "WARREN", "addr:country": "US", "addr:postcode": "44481", "addr:state": "OH", "addr:street_address": "103 W MARKET ST", "amenity": "post_box", "collection_times": "Mo-Fr 14:00; Sa 10:00", "note": "ON 12/24 AND 12/31, THIS BOX MAY BE COLLECTED AS EARLY AS 12 NOON.", "nsi_id": "unitedstatespostalservice-a77078", "operator": "United States Postal Service", "operator:short": "USPS", "operator:type": "public", "operator:wikidata": "Q668687", "ref": "4448100068"}, "type": "Feature"}
{"geometry": {"coordinates": [-80.815851587, 41.237573489], "type": "Point"}, "id": "WkJ8slvXS_w_Bg8BEZtL3kbxy8s=", "properties": {"@source_uri": "https://tools.usps.com/UspsToolsRestServices/rest/POLocator/findLocations", "@spider": "usps_collection_boxes", "addr:city": "WARREN", "addr:country": "US", "addr:postcode": "44481", "addr:state": "OH", "addr:street_address": "201 HIGH ST NE", "amenity": "post_box", "collection_times": "Mo-Fr 17:00; Sa 13:00", "indoor": "yes", "note": "ON 12/24 AND 12/31, THIS BOX MAY BE COLLECTED AS EARLY AS 12 NOON.", "nsi_id": "unitedstatespostalservice-a77078", "operator": "United States Postal Service", "operator:short": "USPS", "operator:type": "public", "operator:wikidata": "Q668687", "ref": "4448100078"}, "type": "Feature"}
{"geometry": {"coordinates": [-80.790429499, 41.214730429], "type": "Point"}, "id": "4dIzGYW7WSHKvxymeUL3kDpkzew=", "properties": {"@source_uri": "https://tools.usps.com/UspsToolsRestServices/rest/POLocator/findLocations", "@spider": "usps_collection_boxes", "addr:city": "WARREN", "addr:country": "US", "addr:postcode": "44484", "addr:state": "OH", "addr:street_address": "2807 NILES RD SE", "amenity": "post_box", "collection_times": "Mo-Sa 17:00", "note": "ON 12/24 AND 12/31, THIS BOX MAY BE COLLECTED AS EARLY AS 12 NOON.", "nsi_id": "unitedstatespostalservice-a77078", "operator": "United States Postal Service", "operator:short": "USPS", "operator:type": "public", "operator:wikidata": "Q668687", "ref": "4448400000"}, "type": "Feature"}
{"geometry": {"coordinates": [-80.7472193, 41.238188], "type": "Point"}, "id": "rw_xWhnXTPU6uRjS-kd4fM6TPQk=", "properties": {"@source_uri": "https://tools.usps.com/UspsToolsRestServices/rest/POLocator/findLocations", "@spider": "usps_collection_boxes", "addr:city": "WARREN", "addr:country": "US", "addr:postcode": "44484", "addr:state": "OH", "addr:street_address": "8044 E MARKET ST", "amenity": "post_box", "collection_times": "Mo-Sa 10:00", "nsi_id": "unitedstatespostalservice-a77078", "operator": "United States Postal Service", "operator:short": "USPS", "operator:type": "public", "operator:wikidata": "Q668687", "ref": "4448400003"}, "type": "Feature"}
{"geometry": {"coordinates": [-80.7679019, 41.237553], "type": "Point"}, "id": "4bwRhwOiUQGL4TgtG07_CNLPQwk=", "properties": {"@source_uri": "https://tools.usps.com/UspsToolsRestServices/rest/POLocator/findLocations", "@spider": "usps_collection_boxes", "addr:city": "WARREN", "addr:country": "US", "addr:postcode": "44484", "addr:state": "OH", "addr:street_address": "3843 E MARKET ST", "amenity": "post_box", "collection_times": "Mo-Sa 09:45", "nsi_id": "unitedstatespostalservice-a77078", "operator": "United States Postal Service", "operator:short": "USPS", "operator:type": "public", "operator:wikidata": "Q668687", "ref": "4448400006"}, "type": "Feature"}
{"geometry": {"coordinates": [-80.7849076, 41.227895], "type": "Point"}, "id": "PsbM5tTiXe4ybkVYw2dOhrU90z0=", "properties": {"@source_uri": "https://tools.usps.com/UspsToolsRestServices/rest/POLocator/findLocations", "@spider": "usps_collection_boxes", "addr:city": "WARREN", "addr:country": "US", "addr:postcode": "44484", "addr:state": "OH", "addr:street_address": "920 PERKINS WOOD BLVD SE", "amenity": "post_box", "collection_times": "Mo-Sa 10:00", "nsi_id": "unitedstatespostalservice-a77078", "operator": "United States Postal Service", "operator:short": "USPS", "operator:type": "public", "operator:wikidata": "Q668687", "ref": "4448400013"}, "type": "Feature"}
{"geometry": {"coordinates": [-80.782827, 41.222296], "type": "Point"}, "id": "kOjVYr8ltaPBE4UJaEuekhWqP3E=", "properties": {"@source_uri": "https://tools.usps.com/UspsToolsRestServices/rest/POLocator/findLocations", "@spider": "usps_collection_boxes", "addr:city": "WARREN", "addr:country": "US", "addr:postcode": "44484", "addr:state": "OH", "addr:street_address": "2911 YOUNGSTOWN RD SE", "amenity": "post_box", "collection_times": "Mo-Sa 10:30", "nsi_id": "unitedstatespostalservice-a77078", "operator": "United States Postal Service", "operator:short": "USPS", "operator:type": "public", "operator:wikidata": "Q668687", "ref": "4448400014"}, "type": "Feature"}
{"geometry": {"coordinates": [-80.778323484, 41.231565], "type": "Point"}, "id": "ORU_zC-UkChT3CKo7uSIPnad9lg=", "properties": {"@source_uri": "https://tools.usps.com/UspsToolsRestServices/rest/POLocator/findLocations", "@spider": "usps_collection_boxes", "addr:city": "WARREN", "addr:country": "US", "addr:postcode": "44484", "addr:state": "OH", "addr:street_address": "667 EASTLAND AVE SE", "amenity": "post_box", "collection_times": "Mo-Sa 10:00", "nsi_id": "unitedstatespostalservice-a77078", "operator": "United States Postal Service", "operator:short": "USPS", "operator:type": "public", "operator:wikidata": "Q668687", "ref": "4448400015"}, "type": "Feature"}
{"geometry": {"coordinates": [-80.76219, 41.224713], "type": "Point"}, "id": "NhW9ZnFPosXwjzXDRYa9y6TCv04=", "properties": {"@source_uri": "https://tools.usps.com/UspsToolsRestServices/rest/POLocator/findLocations", "@spider": "usps_collection_boxes", "addr:city": "WARREN", "addr:country": "US", "addr:postcode": "44484", "addr:state": "OH", "addr:street_address": "4300 HARVARD DR SE", "amenity": "post_box", "collection_times": "Mo-Sa 10:00", "nsi_id": "unitedstatespostalservice-a77078", "operator": "United States Postal Service", "operator:short": "USPS", "operator:type": "public", "operator:wikidata": "Q668687", "ref": "4448400016"}, "type": "Feature"}
{"geometry": {"coordinates": [-80.7639117, 41.211708], "type": "Point"}, "id": "q2jup34ba0xIHaCAMe-mlQuxSD4=", "properties": {"@source_uri": "https://tools.usps.com/UspsToolsRestServices/rest/POLocator/findLocations", "@spider": "usps_collection_boxes", "addr:city": "WARREN", "addr:country": "US", "addr:postcode": "44484", "addr:state": "OH", "addr:street_address": "2012 NORTH RD SE", "amenity": "post_box", "collection_times": "Mo-Sa 10:00", "nsi_id": "unitedstatespostalservice-a77078", "operator": "United States Postal Service", "operator:short": "USPS", "operator:type": "public", "operator:wikidata": "Q668687", "ref": "4448400018"}, "type": "Feature"}
{"geometry": {"coordinates": [-80.7415126, 41.237611], "type": "Point"}, "id": "Z5aYNcFmbLwsTYJaLeXZF33Igvs=", "properties": {"@source_uri": "https://tools.usps.com/UspsToolsRestServices/rest/POLocator/findLocations", "@spider": "usps_collection_boxes", "addr:city": "WARREN", "addr:country": "US", "addr:postcode": "44484", "addr:state": "OH", "addr:street_address": "8260 E MARKET ST", "amenity": "post_box", "collection_times": "Mo-Sa 10:00", "nsi_id": "unitedstatespostalservice-a77078", "operator": "United States Postal Service", "operator:short": "USPS", "operator:type": "public", "operator:wikidata": "Q668687", "ref": "4448400019"}, "type": "Feature"}
{"geometry": {"coordinates": [-80.7331099, 41.237152], "type": "Point"}, "id": "v194mOteVJlJlyshVjTzAL02jXY=", "properties": {"@source_uri": "https://tools.usps.com/UspsToolsRestServices/rest/POLocator/findLocations", "@spider": "usps_collection_boxes", "addr:city": "WARREN", "addr:country": "US", "addr:postcode": "44484", "addr:state": "OH", "addr:street_address": "8700 E MARKET ST", "amenity": "post_box", "collection_times": "Mo-Sa 10:00", "nsi_id": "unitedstatespostalservice-a77078", "operator": "United States Postal Service", "operator:short": "USPS", "operator:type": "public", "operator:wikidata": "Q668687", "ref": "4448400023"}, "type": "Feature"}
{"geometry": {"coordinates": [-80.7415624, 41.239442], "type": "Point"}, "id": "mBj66nvSjzBh0XFh6_Anml8cUOY=", "properties": {"@source_uri": "https://tools.usps.com/UspsToolsRestServices/rest/POLocator/findLocations", "@spider": "usps_collection_boxes", "addr:city": "WARREN", "addr:country": "US", "addr:postcode": "44484", "addr:state": "OH", "addr:street_address": "205 NILES CORTLAND RD NE", "amenity": "post_box", "collection_times": "Mo-Fr 15:15; Sa 12:00", "note": "ON 12/24 AND 12/31, THIS BOX MAY BE COLLECTED AS EARLY AS 12 NOON.", "nsi_id": "unitedstatespostalservice-a77078", "operator": "United States Postal Service", "operator:short": "USPS", "operator:type": "public", "operator:wikidata": "Q668687", "ref": "4448400026"}, "type": "Feature"}
{"geometry": {"coordinates": [-80.790429499, 41.214730429], "type": "Point"}, "id": "LqLYhM0vFIS-keeMGIAreQhBU24=", "properties": {"@source_uri": "https://tools.usps.com/UspsToolsRestServices/rest/POLocator/findLocations", "@spider": "usps_collection_boxes", "addr:city": "WARREN", "addr:country": "US", "addr:postcode": "44484", "addr:state": "OH", "addr:street_address": "2807 NILES RD SE", "amenity": "post_box", "collection_times": "Mo-Sa 17:00", "indoor": "yes", "note": "ON 12/24 AND 12/31, THIS BOX MAY BE COLLECTED AS EARLY AS 12 NOON.", "nsi_id": "unitedstatespostalservice-a77078", "operator": "United States Postal Service", "operator:short": "USPS", "operator:type": "public", "operator:wikidata": "Q668687", "ref": "4448400030"}, "type": "Feature"}
{"geometry": {"coordinates": [-80.790429499, 41.214730429], "type": "Point"}, "id": "Zh3mFoTluIbXiSXA_FvMu26Rbn8=", "properties": {"@source_uri": "https://tools.usps.com/UspsToolsRestServices/rest/POLocator/findLocations", "@spider": "usps_collection_boxes", "addr:city": "WARREN", "addr:country": "US", "addr:postcode": "44484", "addr:state": "OH", "addr:street_address": "2807 NILES RD SE", "amenity": "post_box", "collection_times": "Mo-Fr 17:00; Sa 12:00", "indoor": "yes", "note": "ON 12/24 AND 12/31, THIS BOX MAY BE COLLECTED AS EARLY AS 12 NOON.", "nsi_id": "unitedstatespostalservice-a77078", "operator": "United States Postal Service", "operator:short": "USPS", "operator:type": "public", "operator:wikidata": "Q668687", "ref": "4448400034"}, "type": "Feature"}
{"geometry": {"coordinates": [-80.8361689843, 41.2347139983], "type": "Point"}, "id": "D7dLMcQTYmtuabRi4RoCHsCfizI=", "properties": {"@source_uri": "https://tools.usps.com/UspsToolsRestServices/rest/POLocator/findLocations", "@spider": "usps_collection_boxes", "addr:city": "WARREN", "addr:country": "US", "addr:postcode": "44485", "addr:state": "OH", "addr:street_address": "1312 W MARKET ST", "amenity": "post_box", "collection_times": "Mo-Sa 15:00", "note": "ON 12/24 AND 12/31, THIS BOX MAY BE COLLECTED AS EARLY AS 12 NOON.", "nsi_id": "unitedstatespostalservice-a77078", "operator": "United States Postal Service", "operator:short": "USPS", "operator:type": "public", "operator:wikidata": "Q668687", "ref": "4448500000"}, "type": "Feature"}
{"geometry": {"coordinates": [-80.8356544, 41.221808], "type": "Point"}, "id": "4dxJBThvJibfTCVX0r6CBqBMFRI=", "properties": {"@source_uri": "https://tools.usps.com/UspsToolsRestServices/rest/POLocator/findLocations", "@spider": "usps_collection_boxes", "addr:city": "WARREN", "addr:country": "US", "addr:postcode": "44485", "addr:state": "OH", "addr:street_address": "1244 5TH ST SW", "amenity": "post_box", "collection_times": "Mo-Sa 10:00", "nsi_id": "unitedstatespostalservice-a77078", "operator": "United States Postal Service", "operator:short": "USPS", "operator:type": "public", "operator:wikidata": "Q668687", "ref": "4448500005"}, "type": "Feature"}
{"geometry": {"coordinates": [-80.8572033, 41.251491], "type": "Point"}, "id": "G4KvHQe-rc5dp3RcpkexpY_MoQ0=", "properties": {"@source_uri": "https://tools.usps.com/UspsToolsRestServices/rest/POLocator/findLocations", "@spider": "usps_collection_boxes", "addr:city": "WARREN", "addr:country": "US", "addr:postcode": "44485", "addr:state": "OH", "addr:street_address": "2565 PARKMAN RD NW", "amenity": "post_box", "collection_times": "Mo-Sa 11:15", "nsi_id": "unitedstatespostalservice-a77078", "operator": "United States Postal Service", "operator:short": "USPS", "operator:type": "public", "operator:wikidata": "Q668687", "ref": "4448500007"}, "type": "Feature"}
{"geometry": {"coordinates": [-80.8431161, 41.244823], "type": "Point"}, "id": "e9XeveJw4Hbyt3bvCmmvx0H7hTU=", "properties": {"@source_uri": "https://tools.usps.com/UspsToolsRestServices/rest/POLocator/findLocations", "@spider": "usps_collection_boxes", "addr:city": "WARREN", "addr:country": "US", "addr:postcode": "44485", "addr:state": "OH", "addr:street_address": "1560 PARKMAN RD NW", "amenity": "post_box", "collection_times": "Mo-Sa 11:00", "nsi_id": "unitedstatespostalservice-a77078", "operator": "United States Postal Service", "operator:short": "USPS", "operator:type": "public", "operator:wikidata": "Q668687", "ref": "4448500011"}, "type": "Feature"}
{"geometry": {"coordinates": [-80.8278279, 41.235112], "type": "Point"}, "id": "GSCfVgq_HTujIV7u1IzQflF81ww=", "properties": {"@source_uri": "https://tools.usps.com/UspsToolsRestServices/rest/POLocator/findLocations", "@spider": "usps_collection_boxes", "addr:city": "WARREN", "addr:country": "US", "addr:postcode": "44485", "addr:state": "OH", "addr:street_address": "700 BUCKEYE ST NW", "amenity": "post_box", "collection_times": "Mo-Sa 10:00", "nsi_id": "unitedstatespostalservice-a77078", "operator": "United States Postal Service", "operator:short": "USPS", "operator:type": "public", "operator:wikidata": "Q668687", "ref": "4448500015"}, "type": "Feature"}
{"geometry": {"coordinates": [-80.764156, 40.900618], "type": "Point"}, "id": "OgYVEHx1Zo549N3mX1ZM2SSzWPw=", "properties": {"@source_uri": "https://tools.usps.com/UspsToolsRestServices/rest/POLocator/findLocations", "@spider": "usps_collection_boxes", "addr:city": "WASHINGTONVILLE", "addr:country": "US", "addr:postcode": "44490", "addr:state": "OH", "addr:street_address": "195 E MAIN ST", "amenity": "post_box", "collection_times": "Mo-Fr 12:00; Sa 11:30", "nsi_id": "unitedstatespostalservice-a77078", "operator": "United States Postal Service", "operator:short": "USPS", "operator:type": "public", "operator:wikidata": "Q668687", "ref": "4449000000"}, "type": "Feature"}
{"geometry": {"coordinates": [-80.764047, 40.900644], "type": "Point"}, "id": "NnQeMANhYPJjeM27eQhg8_meq30=", "properties": {"@source_uri": "https://tools.usps.com/UspsToolsRestServices/rest/POLocator/findLocations", "@spider": "usps_collection_boxes", "addr:city": "WASHINGTONVILLE", "addr:country": "US", "addr:postcode": "44490", "addr:state": "OH", "addr:street_address": "195 E MAIN ST", "amenity": "post_box", "collection_times": "Mo-Fr 12:00; Sa 11:30", "indoor": "yes", "nsi_id": "unitedstatespostalservice-a77078", "operator": "United States Postal Service", "operator:short": "USPS", "operator:type": "public", "operator:wikidata": "Q668687", "ref": "4449000001"}, "type": "Feature"}
{"geometry": {"coordinates": [-80.7748366, 40.900935], "type": "Point"}, "id": "T6YrULhBN2ue9-FSi2DYqiOuKjA=", "properties": {"@source_uri": "https://tools.usps.com/UspsToolsRestServices/rest/POLocator/findLocations", "@spider": "usps_collection_boxes", "addr:city": "WASHINGTONVILLE", "addr:country": "US", "addr:postcode": "44490", "addr:state": "OH", "addr:street_address": "900 W MAIN ST", "amenity": "post_box", "collection_times": "Mo-Sa 11:30", "nsi_id": "unitedstatespostalservice-a77078", "operator": "United States Postal Service", "operator:short": "USPS", "operator:type": "public", "operator:wikidata": "Q668687", "ref": "4449000002"}, "type": "Feature"}
{"geometry": {"coordinates": [-80.7641641676, 40.9006124851], "type": "Point"}, "id": "vqN3wiKn7_qirsz3WrigVbXo5u4=", "properties": {"@source_uri": "https://tools.usps.com/UspsToolsRestServices/rest/POLocator/findLocations", "@spider": "usps_collection_boxes", "addr:city": "WASHINGTONVILLE", "addr:country": "US", "addr:postcode": "44490", "addr:state": "OH", "addr:street_address": "195 E MAIN ST", "amenity": "post_box", "collection_times": "Mo-Fr 12:00; Sa 11:30", "indoor": "yes", "nsi_id": "unitedstatespostalservice-a77078", "operator": "United States Postal Service", "operator:short": "USPS", "operator:type": "public", "operator:wikidata": "Q668687", "ref": "4449000004"}, "type": "Feature"}
{"geometry": {"coordinates": [-80.961915, 41.350625], "type": "Point"}, "id": "FVRCK_vv2a-RPm3tExahoOA2Ttc=", "properties": {"@source_uri": "https://tools.usps.com/UspsToolsRestServices/rest/POLocator/findLocations", "@spider": "usps_collection_boxes", "addr:city": "WEST FARMINGTON", "addr:country": "US", "addr:postcode": "44491", "addr:state": "OH", "addr:street_address": "226 E MAIN ST", "amenity": "post_box", "collection_times": "Mo-Fr 14:30; Sa 11:15", "indoor": "yes", "note": "ON 12/24 AND 12/31, THIS BOX MAY BE COLLECTED AS EARLY AS 12 NOON.", "nsi_id": "unitedstatespostalservice-a77078", "operator": "United States Postal Service", "operator:short": "USPS", "operator:type": "public", "operator:wikidata": "Q668687", "ref": "4449100000"}, "type": "Feature"}
{"geometry": {"coordinates": [-80.971061, 41.390309], "type": "Point"}, "id": "5v62pMJGfwwbkirkO3c1IV4EWT0=", "properties": {"@source_uri": "https://tools.usps.com/UspsToolsRestServices/rest/POLocator/findLocations", "@spider": "usps_collection_boxes", "addr:city": "WEST FARMINGTON", "addr:country": "US", "addr:postcode": "44491", "addr:state": "OH", "addr:street_address": "226 E MAIN ST", "amenity": "post_box", "collection_times": "Mo-Fr 14:45; Sa 11:15", "note": "ON 12/24 AND 12/31, THIS BOX MAY BE COLLECTED AS EARLY AS 12 NOON.", "nsi_id": "unitedstatespostalservice-a77078", "operator": "United States Postal Service", "operator:short": "USPS", "operator:type": "public", "operator:wikidata": "Q668687", "ref": "4449100001"}, "type": "Feature"}
{"geometry": {"coordinates": [-80.961915, 41.350625], "type": "Point"}, "id": "IfB0D3Dorb608XI2qzJmuT4Q5i8=", "properties": {"@source_uri": "https://tools.usps.com/UspsToolsRestServices/rest/POLocator/findLocations", "@spider": "usps_collection_boxes", "addr:city": "WEST FARMINGTON", "addr:country": "US", "addr:postcode": "44491", "addr:state": "OH", "addr:street_address": "226 E MAIN ST", "amenity": "post_box", "collection_times": "Mo-Fr 14:30; Sa 11:15", "indoor": "yes", "note": "ON 12/24 AND 12/31, THIS BOX MAY BE COLLECTED AS EARLY AS 12 NOON.", "nsi_id": "unitedstatespostalservice-a77078", "operator": "United States Postal Service", "operator:short": "USPS", "operator:type": "public", "operator:wikidata": "Q668687", "ref": "4449100004"}, "type": "Feature"}
{"geometry": {"coordinates": [-80.895752885, 40.828110464], "type": "Point"}, "id": "RCmCm6CYdgm6POcfIpIjgIMslq4=", "properties": {"@source_uri": "https://tools.usps.com/UspsToolsRestServices/rest/POLocator/findLocations", "@spider": "usps_collection_boxes", "addr:city": "WINONA", "addr:country": "US", "addr:postcode": "44493", "addr:state": "OH", "addr:street_address": "32036 WINONA RD", "amenity": "post_box", "collection_times": "Mo-Fr 16:30; Sa 11:30", "indoor": "yes", "note": "ON 12/24 AND 12/31, THIS BOX MAY BE COLLECTED AS EARLY AS 12 NOON.", "nsi_id": "unitedstatespostalservice-a77078", "operator": "United States Postal Service", "operator:short": "USPS", "operator:type": "public", "operator:wikidata": "Q668687", "ref": "4449300000"}, "type": "Feature"}
{"geometry": {"coordinates": [-80.895752885, 40.828110464], "type": "Point"}, "id": "PG6HcvAvN25t79INLC-SYmiVXn8=", "properties": {"@source_uri": "https://tools.usps.com/UspsToolsRestServices/rest/POLocator/findLocations", "@spider": "usps_collection_boxes", "addr:city": "WINONA", "addr:country": "US", "addr:postcode": "44493", "addr:state": "OH", "addr:street_address": "32036 WINONA RD", "amenity": "post_box", "collection_times": "Mo-Fr 16:30; Sa 11:30", "note": "ON 12/24 AND 12/31, THIS BOX MAY BE COLLECTED AS EARLY AS 12 NOON.", "nsi_id": "unitedstatespostalservice-a77078", "operator": "United States Postal Service", "operator:short": "USPS", "operator:type": "public", "operator:wikidata": "Q668687", "ref": "4449300002"}, "type": "Feature"}
{"geometry": {"coordinates": [-80.895752885, 40.828110464], "type": "Point"}, "id": "iqTHgOUnMnyrcLWfntclRNVVU9U=", "properties": {"@source_uri": "https://tools.usps.com/UspsToolsRestServices/rest/POLocator/findLocations", "@spider": "usps_collection_boxes", "addr:city": "WINONA", "addr:country": "US", "addr:postcode": "44493", "addr:state": "OH", "addr:street_address": "32036 WINONA RD", "amenity": "post_box", "collection_times": "Mo-Fr 16:30; Sa 11:30", "indoor": "yes", "note": "ON 12/24 AND 12/31, THIS BOX MAY BE COLLECTED AS EARLY AS 12 NOON.", "nsi_id": "unitedstatespostalservice-a77078", "operator": "United States Postal Service", "operator:short": "USPS", "operator:type": "public", "operator:wikidata": "Q668687", "ref": "4449300004"}, "type": "Feature"}
