{"geometry": {"coordinates": [-80.647656, 41.098296], "type": "Point"}, "id": "rlU62gMQLloXf_WLSmp84tgfr3g=", "properties": {"@source_uri": "https://tools.usps.com/UspsToolsRestServices/rest/POLocator/findLocations", "@spider": "usps_collection_boxes", "addr:city": "YOUNGSTOWN", "addr:country": "US", "addr:full": "99 S WALNUT ST", "addr:postcode": "44501", "addr:state": "OH", "amenity": "post_box", "brand": "United States Postal Service", "brand:wikidata": "Q668687", "collection_times": "Mo-Fr 19:00; Sa 17:00", "note": "ON 12/24 AND 12/31, THIS BOX MAY BE COLLECTED AS EARLY AS 12 NOON.", "nsi_id": "unitedstatespostalservice-a77078", "operator": "United States Postal Service", "operator:short": "USPS", "operator:type": "public", "operator:wikidata": "Q668687", "ref": "4450100000"}, "type": "Feature"}
{"geometry": {"coordinates": [-80.647656, 41.098296], "type": "Point"}, "id": "S3rXXWFkQgcQCiLRN21q5MSdsic=", "properties": {"@source_uri": "https://tools.usps.com/UspsToolsRestServices/rest/POLocator/findLocations", "@spider": "usps_collection_boxes", "addr:city": "YOUNGSTOWN", "addr:country": "US", "addr:full": "99 S WALNUT ST", "addr:postcode": "44501", "addr:state": "OH", "amenity": "post_box", "brand": "United States Postal Service", "brand:wikidata": "Q668687", "collection_times": "Mo-Sa 17:00", "name": "USPS COLLECTION BOX - EXPRESS", "note": "ON 12/24 AND 12/31, THIS BOX MAY BE COLLECTED AS EARLY AS 12 NOON.", "nsi_id": "unitedstatespostalservice-a77078", "operator": "United States Postal Service", "operator:short": "USPS", "operator:type": "public", "operator:wikidata": "Q668687", "ref": "4450100001"}, "type": "Feature"}
{"geometry": {"coordinates": [-80.647656, 41.098296], "type": "Point"}, "id": "bJx5ZsN9Z099sl1FtCoBDWpUzQg=", "properties": {"@source_uri": "https://tools.usps.com/UspsToolsRestServices/rest/POLocator/findLocations", "@spider": "usps_collection_boxes", "addr:city": "YOUNGSTOWN", "addr:country": "US", "addr:full": "99 S WALNUT ST", "addr:postcode": "44501", "addr:state": "OH", "amenity": "post_box", "brand": "United States Postal Service", "brand:wikidata": "Q668687", "collection_times": "Mo-Fr 19:00; Sa 17:00", "indoor": "yes", "note": "ON 12/24 AND 12/31, THIS BOX MAY BE COLLECTED AS EARLY AS 12 NOON.", "nsi_id": "unitedstatespostalservice-a77078", "operator": "United States Postal Service", "operator:short": "USPS", "operator:type": "public", "operator:wikidata": "Q668687", "ref": "4450100002"}, "type": "Feature"}
{"geometry": {"coordinates": [-80.6476748502, 41.0982634146], "type": "Point"}, "id": "r5sgm0Lk2Y8khjSe_OblZEFJigE=", "properties": {"@source_uri": "https://tools.usps.com/UspsToolsRestServices/rest/POLocator/findLocations", "@spider": "usps_collection_boxes", "addr:city": "YOUNGSTOWN", "addr:country": "US", "addr:full": "99 S WALNUT ST", "addr:postcode": "44501", "addr:state": "OH", "amenity": "post_box", "brand": "United States Postal Service", "brand:wikidata": "Q668687", "collection_times": "Mo-Fr 17:00; Sa 12:00", "indoor": "yes", "note": "ON 12/24 AND 12/31, THIS BOX MAY BE COLLECTED AS EARLY AS 12 NOON.", "nsi_id": "unitedstatespostalservice-a77078", "operator": "United States Postal Service", "operator:short": "USPS", "operator:type": "public", "operator:wikidata": "Q668687", "ref": "4450100006"}, "type": "Feature"}
{"geometry": {"coordinates": [-80.6684729, 41.113683], "type": "Point"}, "id": "iwDXpO0Kyn0RT3H34b1J4bOyDv4=", "properties": {"@source_uri": "https://tools.usps.com/UspsToolsRestServices/rest/POLocator/findLocations", "@spider": "usps_collection_boxes", "addr:city": "YOUNGSTOWN", "addr:country": "US", "addr:full": "1223 TEAMSTER DR", "addr:postcode": "44502", "addr:state": "OH", "amenity": "post_box", "brand": "United States Postal Service", "brand:wikidata": "Q668687", "collection_times": "Mo-Sa 12:00", "nsi_id": "unitedstatespostalservice-a77078", "operator": "United States Postal Service", "operator:short": "USPS", "operator:type": "public", "operator:wikidata": "Q668687", "ref": "4450200001"}, "type": "Feature"}
{"geometry": {"coordinates": [-80.6587239, 41.096089], "type": "Point"}, "id": "qeOlx49lBFaG1RKO0aOQmQTYmko=", "properties": {"@source_uri": "https://tools.usps.com/UspsToolsRestServices/rest/POLocator/findLocations", "@spider": "usps_collection_boxes", "addr:city": "YOUNGSTOWN", "addr:country": "US", "addr:full": "345 OAK HILL AVE", "addr:postcode": "44502", "addr:state": "OH", "amenity": "post_box", "brand": "United States Postal Service", "brand:wikidata": "Q668687", "collection_times": "Mo-Sa 09:00", "nsi_id": "unitedstatespostalservice-a77078", "operator": "United States Postal Service", "operator:short": "USPS", "operator:type": "public", "operator:wikidata": "Q668687", "ref": "4450200023"}, "type": "Feature"}
{"geometry": {"coordinates": [-80.6356669, 41.060946], "type": "Point"}, "id": "0VcLDAMTjP6QH7Y_IZ8ShoWWMDE=", "properties": {"@source_uri": "https://tools.usps.com/UspsToolsRestServices/rest/POLocator/findLocations", "@spider": "usps_collection_boxes", "addr:city": "YOUNGSTOWN", "addr:country": "US", "addr:full": "920 E MIDLOTHIAN BLVD", "addr:postcode": "44502", "addr:state": "OH", "amenity": "post_box", "brand": "United States Postal Service", "brand:wikidata": "Q668687", "collection_times": "Mo-Sa 12:30", "note": "ON 12/24 AND 12/31, THIS BOX MAY BE COLLECTED AS EARLY AS 12 NOON.", "nsi_id": "unitedstatespostalservice-a77078", "operator": "United States Postal Service", "operator:short": "USPS", "operator:type": "public", "operator:wikidata": "Q668687", "ref": "4450200035"}, "type": "Feature"}
{"geometry": {"coordinates": [-80.6446934, 41.061066], "type": "Point"}, "id": "PCsovvlBT7Yyk4FWTAnIrd6V2Ik=", "properties": {"@source_uri": "https://tools.usps.com/UspsToolsRestServices/rest/POLocator/findLocations", "@spider": "usps_collection_boxes", "addr:city": "YOUNGSTOWN", "addr:country": "US", "addr:full": "540 E MIDLOTHIAN BLVD", "addr:postcode": "44502", "addr:state": "OH", "amenity": "post_box", "brand": "United States Postal Service", "brand:wikidata": "Q668687", "collection_times": "Mo-Sa 10:30", "nsi_id": "unitedstatespostalservice-a77078", "operator": "United States Postal Service", "operator:short": "USPS", "operator:type": "public", "operator:wikidata": "Q668687", "ref": "4450200036"}, "type": "Feature"}
{"geometry": {"coordinates": [-80.6490373, 41.098368], "type": "Point"}, "id": "vqZjp9ZgltqFD3g-gHYDrzeTxck=", "properties": {"@source_uri": "https://tools.usps.com/UspsToolsRestServices/rest/POLocator/findLocations", "@spider": "usps_collection_boxes", "addr:city": "YOUNGSTOWN", "addr:country": "US", "addr:full": "25 E BOARDMAN ST", "addr:postcode": "44503", "addr:state": "OH", "amenity": "post_box", "brand": "United States Postal Service", "brand:wikidata": "Q668687", "collection_times": "Mo-Fr 14:00", "note": "ON 12/24 AND 12/31, THIS BOX MAY BE COLLECTED AS EARLY AS 12 NOON.", "nsi_id": "unitedstatespostalservice-a77078", "operator": "United States Postal Service", "operator:short": "USPS", "operator:type": "public", "operator:wikidata": "Q668687", "ref": "4450300002"}, "type": "Feature"}
{"geometry": {"coordinates": [-80.6510547, 41.099907], "type": "Point"}, "id": "7cWWiM3uwc2DZoxcFTgVLRW13mA=", "properties": {"@source_uri": "https://tools.usps.com/UspsToolsRestServices/rest/POLocator/findLocations", "@spider": "usps_collection_boxes", "addr:city": "YOUNGSTOWN", "addr:country": "US", "addr:full": "26 S PHELPS ST", "addr:postcode": "44503", "addr:state": "OH", "amenity": "post_box", "brand": "United States Postal Service", "brand:wikidata": "Q668687", "collection_times": "Mo-Fr 13:30; Sa 11:30", "note": "ON 12/24 AND 12/31, THIS BOX MAY BE COLLECTED AS EARLY AS 12 NOON.", "nsi_id": "unitedstatespostalservice-a77078", "operator": "United States Postal Service", "operator:short": "USPS", "operator:type": "public", "operator:wikidata": "Q668687", "ref": "4450300003"}, "type": "Feature"}
{"geometry": {"coordinates": [-80.6535796, 41.101874], "type": "Point"}, "id": "1DQIPolO6d_TzVkMRumCymadfZE=", "properties": {"@source_uri": "https://tools.usps.com/UspsToolsRestServices/rest/POLocator/findLocations", "@spider": "usps_collection_boxes", "addr:city": "YOUNGSTOWN", "addr:country": "US", "addr:full": "275 W FEDERAL ST", "addr:postcode": "44503", "addr:state": "OH", "amenity": "post_box", "brand": "United States Postal Service", "brand:wikidata": "Q668687", "collection_times": "Mo-Fr 13:30", "note": "ON 12/24 AND 12/31, THIS BOX MAY BE COLLECTED AS EARLY AS 12 NOON.", "nsi_id": "unitedstatespostalservice-a77078", "operator": "United States Postal Service", "operator:short": "USPS", "operator:type": "public", "operator:wikidata": "Q668687", "ref": "4450300004"}, "type": "Feature"}
{"geometry": {"coordinates": [-80.6481899, 41.099567], "type": "Point"}, "id": "_wajdZUszuugGCUaUB3N5gEJLgY=", "properties": {"@source_uri": "https://tools.usps.com/UspsToolsRestServices/rest/POLocator/findLocations", "@spider": "usps_collection_boxes", "addr:city": "YOUNGSTOWN", "addr:country": "US", "addr:full": "100 E FEDERAL ST", "addr:postcode": "44503", "addr:state": "OH", "amenity": "post_box", "brand": "United States Postal Service", "brand:wikidata": "Q668687", "collection_times": "Mo-Fr 14:00; Sa 12:00", "note": "ON 12/24 AND 12/31, THIS BOX MAY BE COLLECTED AS EARLY AS 12 NOON.", "nsi_id": "unitedstatespostalservice-a77078", "operator": "United States Postal Service", "operator:short": "USPS", "operator:type": "public", "operator:wikidata": "Q668687", "ref": "4450300005"}, "type": "Feature"}
{"geometry": {"coordinates": [-80.6489673, 41.100378], "type": "Point"}, "id": "pxjrAJW4PSvHIq6sxEgz7pTc23w=", "properties": {"@source_uri": "https://tools.usps.com/UspsToolsRestServices/rest/POLocator/findLocations", "@spider": "usps_collection_boxes", "addr:city": "YOUNGSTOWN", "addr:country": "US", "addr:full": "6 FEDERAL PLAZA C W", "addr:postcode": "44503", "addr:state": "OH", "amenity": "post_box", "brand": "United States Postal Service", "brand:wikidata": "Q668687", "collection_times": "Mo-Fr 13:45; Sa 12:00", "note": "ON 12/24 AND 12/31, THIS BOX MAY BE COLLECTED AS EARLY AS 12 NOON.", "nsi_id": "unitedstatespostalservice-a77078", "operator": "United States Postal Service", "operator:short": "USPS", "operator:type": "public", "operator:wikidata": "Q668687", "ref": "4450300007"}, "type": "Feature"}
{"geometry": {"coordinates": [-80.6505075, 41.102938], "type": "Point"}, "id": "3MUQefNxCcECzm67E5Ox_sgiiR8=", "properties": {"@source_uri": "https://tools.usps.com/UspsToolsRestServices/rest/POLocator/findLocations", "@spider": "usps_collection_boxes", "addr:city": "YOUNGSTOWN", "addr:country": "US", "addr:full": "144 W WOOD ST", "addr:postcode": "44503", "addr:state": "OH", "amenity": "post_box", "brand": "United States Postal Service", "brand:wikidata": "Q668687", "collection_times": "Mo-Fr 13:30; Sa 09:00", "note": "ON 12/24 AND 12/31, THIS BOX MAY BE COLLECTED AS EARLY AS 12 NOON.", "nsi_id": "unitedstatespostalservice-a77078", "operator": "United States Postal Service", "operator:short": "USPS", "operator:type": "public", "operator:wikidata": "Q668687", "ref": "4450300012"}, "type": "Feature"}
{"geometry": {"coordinates": [-80.6495311, 41.099632], "type": "Point"}, "id": "oena8Aums5kMxyh4CNI-ElWQ2Jg=", "properties": {"@source_uri": "https://tools.usps.com/UspsToolsRestServices/rest/POLocator/findLocations", "@spider": "usps_collection_boxes", "addr:city": "YOUNGSTOWN", "addr:country": "US", "addr:full": "1 W FEDERAL ST", "addr:postcode": "44503", "addr:state": "OH", "amenity": "post_box", "brand": "United States Postal Service", "brand:wikidata": "Q668687", "collection_times": "Mo-Fr 13:45; Sa 09:30", "note": "ON 12/24 AND 12/31, THIS BOX MAY BE COLLECTED AS EARLY AS 12 NOON.", "nsi_id": "unitedstatespostalservice-a77078", "operator": "United States Postal Service", "operator:short": "USPS", "operator:type": "public", "operator:wikidata": "Q668687", "ref": "4450300023"}, "type": "Feature"}
{"geometry": {"coordinates": [-80.6495621, 41.099662], "type": "Point"}, "id": "thgTKunmJ8YxPBbQt6o7B4MLBfg=", "properties": {"@source_uri": "https://tools.usps.com/UspsToolsRestServices/rest/POLocator/findLocations", "@spider": "usps_collection_boxes", "addr:city": "YOUNGSTOWN", "addr:country": "US", "addr:full": "1 W FEDERAL ST", "addr:postcode": "44503", "addr:state": "OH", "amenity": "post_box", "brand": "United States Postal Service", "brand:wikidata": "Q668687", "collection_times": "Mo-Fr 13:45; Sa 09:30", "note": "ON 12/24 AND 12/31, THIS BOX MAY BE COLLECTED AS EARLY AS 12 NOON.", "nsi_id": "unitedstatespostalservice-a77078", "operator": "United States Postal Service", "operator:short": "USPS", "operator:type": "public", "operator:wikidata": "Q668687", "ref": "4450300024"}, "type": "Feature"}
{"geometry": {"coordinates": [-80.6496958266, 41.0990234608], "type": "Point"}, "id": "mobBSBUsTnEBJ6V0qATfCXhYtUE=", "properties": {"@source_uri": "https://tools.usps.com/UspsToolsRestServices/rest/POLocator/findLocations", "@spider": "usps_collection_boxes", "addr:city": "YOUNGSTOWN", "addr:country": "US", "addr:full": "21 E BOARDMAN ST", "addr:postcode": "44503", "addr:state": "OH", "amenity": "post_box", "brand": "United States Postal Service", "brand:wikidata": "Q668687", "collection_times": "Mo-Fr 13:30", "note": "ON 12/24 AND 12/31, THIS BOX MAY BE COLLECTED AS EARLY AS 12 NOON.", "nsi_id": "unitedstatespostalservice-a77078", "operator": "United States Postal Service", "operator:short": "USPS", "operator:type": "public", "operator:wikidata": "Q668687", "ref": "4450300037"}, "type": "Feature"}
{"geometry": {"coordinates": [-80.6455584, 41.098975], "type": "Point"}, "id": "e9nHE2O2SqKMYDQARL-1P96GQUE=", "properties": {"@source_uri": "https://tools.usps.com/UspsToolsRestServices/rest/POLocator/findLocations", "@spider": "usps_collection_boxes", "addr:city": "YOUNGSTOWN", "addr:country": "US", "addr:full": "250 E FEDERAL ST", "addr:postcode": "44503", "addr:state": "OH", "amenity": "post_box", "brand": "United States Postal Service", "brand:wikidata": "Q668687", "collection_times": "Mo-Fr 14:00", "note": "ON 12/24 AND 12/31, THIS BOX MAY BE COLLECTED AS EARLY AS 12 NOON.", "nsi_id": "unitedstatespostalservice-a77078", "operator": "United States Postal Service", "operator:short": "USPS", "operator:type": "public", "operator:wikidata": "Q668687", "ref": "4450300042"}, "type": "Feature"}
{"geometry": {"coordinates": [-80.6465108, 41.099414], "type": "Point"}, "id": "VEQtJ5YL3OFkok9jYNNPOWNaHkI=", "properties": {"@source_uri": "https://tools.usps.com/UspsToolsRestServices/rest/POLocator/findLocations", "@spider": "usps_collection_boxes", "addr:city": "YOUNGSTOWN", "addr:country": "US", "addr:full": "201 E COMMERCE ST", "addr:postcode": "44503", "addr:state": "OH", "amenity": "post_box", "brand": "United States Postal Service", "brand:wikidata": "Q668687", "collection_times": "Mo-Fr 14:00; Sa 11:00", "note": "ON 12/24 AND 12/31, THIS BOX MAY BE COLLECTED AS EARLY AS 12 NOON.", "nsi_id": "unitedstatespostalservice-a77078", "operator": "United States Postal Service", "operator:short": "USPS", "operator:type": "public", "operator:wikidata": "Q668687", "ref": "4450300043"}, "type": "Feature"}
{"geometry": {"coordinates": [-80.649586981, 41.10121199], "type": "Point"}, "id": "-43XpXboI2ioJzIzArow7japScE=", "properties": {"@source_uri": "https://tools.usps.com/UspsToolsRestServices/rest/POLocator/findLocations", "@spider": "usps_collection_boxes", "addr:city": "YOUNGSTOWN", "addr:country": "US", "addr:full": "20 COMMERCE ST", "addr:postcode": "44503", "addr:state": "OH", "amenity": "post_box", "brand": "United States Postal Service", "brand:wikidata": "Q668687", "collection_times": "Mo-Fr 13:30; Sa 12:00", "note": "ON 12/24 AND 12/31, THIS BOX MAY BE COLLECTED AS EARLY AS 12 NOON.", "nsi_id": "unitedstatespostalservice-a77078", "operator": "United States Postal Service", "operator:short": "USPS", "operator:type": "public", "operator:wikidata": "Q668687", "ref": "4450300050"}, "type": "Feature"}
{"geometry": {"coordinates": [-80.6516176, 41.099838], "type": "Point"}, "id": "NmBISKAGk1J-GO_Mt-iLFPpg_6k=", "properties": {"@source_uri": "https://tools.usps.com/UspsToolsRestServices/rest/POLocator/findLocations", "@spider": "usps_collection_boxes", "addr:city": "YOUNGSTOWN", "addr:country": "US", "addr:full": "26 S PHELPS ST", "addr:postcode": "44503", "addr:state": "OH", "amenity": "post_box", "brand": "United States Postal Service", "brand:wikidata": "Q668687", "collection_times": "Mo-Fr 13:30; Sa 11:30", "note": "ON 12/24 AND 12/31, THIS BOX MAY BE COLLECTED AS EARLY AS 12 NOON.", "nsi_id": "unitedstatespostalservice-a77078", "operator": "United States Postal Service", "operator:short": "USPS", "operator:type": "public", "operator:wikidata": "Q668687", "ref": "4450300062"}, "type": "Feature"}
{"geometry": {"coordinates": [-80.6523822, 41.100198], "type": "Point"}, "id": "mQcPI5NkSo782e9DLcO1b3Mn--I=", "properties": {"@source_uri": "https://tools.usps.com/UspsToolsRestServices/rest/POLocator/findLocations", "@spider": "usps_collection_boxes", "addr:city": "YOUNGSTOWN", "addr:country": "US", "addr:full": "131 W BOARDMAN ST", "addr:postcode": "44503", "addr:state": "OH", "amenity": "post_box", "brand": "United States Postal Service", "brand:wikidata": "Q668687", "collection_times": "Mo-Fr 13:30; Sa 12:00", "note": "ON 12/24 AND 12/31, THIS BOX MAY BE COLLECTED AS EARLY AS 12 NOON.", "nsi_id": "unitedstatespostalservice-a77078", "operator": "United States Postal Service", "operator:short": "USPS", "operator:type": "public", "operator:wikidata": "Q668687", "ref": "4450300064"}, "type": "Feature"}
{"geometry": {"coordinates": [-80.6524511, 41.102252], "type": "Point"}, "id": "c2kmr8xb-fScRAFh6FfeiXHjWWA=", "properties": {"@source_uri": "https://tools.usps.com/UspsToolsRestServices/rest/POLocator/findLocations", "@spider": "usps_collection_boxes", "addr:city": "YOUNGSTOWN", "addr:country": "US", "addr:full": "242 W FEDERAL ST", "addr:postcode": "44503", "addr:state": "OH", "amenity": "post_box", "brand": "United States Postal Service", "brand:wikidata": "Q668687", "collection_times": "Mo-Fr 13:30; Sa 12:00", "note": "ON 12/24 AND 12/31, THIS BOX MAY BE COLLECTED AS EARLY AS 12 NOON.", "nsi_id": "unitedstatespostalservice-a77078", "operator": "United States Postal Service", "operator:short": "USPS", "operator:type": "public", "operator:wikidata": "Q668687", "ref": "4450300067"}, "type": "Feature"}
{"geometry": {"coordinates": [-80.6514826, 41.118268], "type": "Point"}, "id": "0xj45hB1D-i7OmNytC228z2S4-c=", "properties": {"@source_uri": "https://tools.usps.com/UspsToolsRestServices/rest/POLocator/findLocations", "@spider": "usps_collection_boxes", "addr:city": "YOUNGSTOWN", "addr:country": "US", "addr:full": "1350 5TH AVE", "addr:postcode": "44504", "addr:state": "OH", "amenity": "post_box", "brand": "United States Postal Service", "brand:wikidata": "Q668687", "collection_times": "Mo-Sa 09:00", "nsi_id": "unitedstatespostalservice-a77078", "operator": "United States Postal Service", "operator:short": "USPS", "operator:type": "public", "operator:wikidata": "Q668687", "ref": "4450400005"}, "type": "Feature"}
{"geometry": {"coordinates": [-80.6570796, 41.134242], "type": "Point"}, "id": "YnfBnyr5mMS9L-R1IA8SyuGgH9k=", "properties": {"@source_uri": "https://tools.usps.com/UspsToolsRestServices/rest/POLocator/findLocations", "@spider": "usps_collection_boxes", "addr:city": "YOUNGSTOWN", "addr:country": "US", "addr:full": "500 GYPSY LN", "addr:postcode": "44504", "addr:state": "OH", "amenity": "post_box", "brand": "United States Postal Service", "brand:wikidata": "Q668687", "collection_times": "Mo-Sa 15:15", "note": "ON 12/24 AND 12/31, THIS BOX MAY BE COLLECTED AS EARLY AS 12 NOON.", "nsi_id": "unitedstatespostalservice-a77078", "operator": "United States Postal Service", "operator:short": "USPS", "operator:type": "public", "operator:wikidata": "Q668687", "ref": "4450400006"}, "type": "Feature"}
{"geometry": {"coordinates": [-80.6600039, 41.13383], "type": "Point"}, "id": "ZmDxHJMRi7vIqgAl1gKALVz-ssE=", "properties": {"@source_uri": "https://tools.usps.com/UspsToolsRestServices/rest/POLocator/findLocations", "@spider": "usps_collection_boxes", "addr:city": "YOUNGSTOWN", "addr:country": "US", "addr:full": "526 GYPSY LN", "addr:postcode": "44504", "addr:state": "OH", "amenity": "post_box", "brand": "United States Postal Service", "brand:wikidata": "Q668687", "collection_times": "Mo-Sa 15:10", "note": "ON 12/24 AND 12/31, THIS BOX MAY BE COLLECTED AS EARLY AS 12 NOON.", "nsi_id": "unitedstatespostalservice-a77078", "operator": "United States Postal Service", "operator:short": "USPS", "operator:type": "public", "operator:wikidata": "Q668687", "ref": "4450400007"}, "type": "Feature"}
{"geometry": {"coordinates": [-80.6545595, 41.112935], "type": "Point"}, "id": "Wsipx9fAVK9aRHJHXChRbVoVP6s=", "properties": {"@source_uri": "https://tools.usps.com/UspsToolsRestServices/rest/POLocator/findLocations", "@spider": "usps_collection_boxes", "addr:city": "YOUNGSTOWN", "addr:country": "US", "addr:full": "1001 BELMONT AVE", "addr:postcode": "44504", "addr:state": "OH", "amenity": "post_box", "brand": "United States Postal Service", "brand:wikidata": "Q668687", "collection_times": "Mo-Sa 10:00", "nsi_id": "unitedstatespostalservice-a77078", "operator": "United States Postal Service", "operator:short": "USPS", "operator:type": "public", "operator:wikidata": "Q668687", "ref": "4450400008"}, "type": "Feature"}
{"geometry": {"coordinates": [-80.6559539, 41.114406], "type": "Point"}, "id": "ct-SipHIvbLX9N78SDNNhXODZoU=", "properties": {"@source_uri": "https://tools.usps.com/UspsToolsRestServices/rest/POLocator/findLocations", "@spider": "usps_collection_boxes", "addr:city": "YOUNGSTOWN", "addr:country": "US", "addr:full": "1044 BELMONT AVE", "addr:postcode": "44504", "addr:state": "OH", "amenity": "post_box", "brand": "United States Postal Service", "brand:wikidata": "Q668687", "collection_times": "Mo-Fr 13:00; Sa 10:00", "note": "ON 12/24 AND 12/31, THIS BOX MAY BE COLLECTED AS EARLY AS 12 NOON.", "nsi_id": "unitedstatespostalservice-a77078", "operator": "United States Postal Service", "operator:short": "USPS", "operator:type": "public", "operator:wikidata": "Q668687", "ref": "4450400017"}, "type": "Feature"}
{"geometry": {"coordinates": [-80.5873209, 41.090238], "type": "Point"}, "id": "B8_-hjMSGIa903rpgpVCBJrYgo4=", "properties": {"@source_uri": "https://tools.usps.com/UspsToolsRestServices/rest/POLocator/findLocations", "@spider": "usps_collection_boxes", "addr:city": "YOUNGSTOWN", "addr:country": "US", "addr:full": "769 MCCARTNEY RD", "addr:postcode": "44505", "addr:state": "OH", "amenity": "post_box", "brand": "United States Postal Service", "brand:wikidata": "Q668687", "collection_times": "Mo-Sa 09:30", "nsi_id": "unitedstatespostalservice-a77078", "operator": "United States Postal Service", "operator:short": "USPS", "operator:type": "public", "operator:wikidata": "Q668687", "ref": "4450500001"}, "type": "Feature"}
{"geometry": {"coordinates": [-80.664988, 41.168113], "type": "Point"}, "id": "ku2JGIgWqsSL3jTJ7kP81Qc_9Fk=", "properties": {"@source_uri": "https://tools.usps.com/UspsToolsRestServices/rest/POLocator/findLocations", "@spider": "usps_collection_boxes", "addr:city": "YOUNGSTOWN", "addr:country": "US", "addr:full": "4800 BELMONT AVE", "addr:postcode": "44505", "addr:state": "OH", "amenity": "post_box", "brand": "United States Postal Service", "brand:wikidata": "Q668687", "collection_times": "Mo-Sa 11:15", "nsi_id": "unitedstatespostalservice-a77078", "operator": "United States Postal Service", "operator:short": "USPS", "operator:type": "public", "operator:wikidata": "Q668687", "ref": "4450500011"}, "type": "Feature"}
{"geometry": {"coordinates": [-80.6667599, 41.148411], "type": "Point"}, "id": "sn5P8xk3K0aimsCg5ohfmsvmDTI=", "properties": {"@source_uri": "https://tools.usps.com/UspsToolsRestServices/rest/POLocator/findLocations", "@spider": "usps_collection_boxes", "addr:city": "YOUNGSTOWN", "addr:country": "US", "addr:full": "3622 BELMONT AVE", "addr:postcode": "44505", "addr:state": "OH", "amenity": "post_box", "brand": "United States Postal Service", "brand:wikidata": "Q668687", "collection_times": "Mo-Sa 09:45", "nsi_id": "unitedstatespostalservice-a77078", "operator": "United States Postal Service", "operator:short": "USPS", "operator:type": "public", "operator:wikidata": "Q668687", "ref": "4450500012"}, "type": "Feature"}
{"geometry": {"coordinates": [-80.6636957, 41.152808], "type": "Point"}, "id": "kMTl4D26MAK0Qpvrc0gPhGJ1UF0=", "properties": {"@source_uri": "https://tools.usps.com/UspsToolsRestServices/rest/POLocator/findLocations", "@spider": "usps_collection_boxes", "addr:city": "YOUNGSTOWN", "addr:country": "US", "addr:full": "3999 BELMONT AVE", "addr:postcode": "44505", "addr:state": "OH", "amenity": "post_box", "brand": "United States Postal Service", "brand:wikidata": "Q668687", "collection_times": "Mo-Sa 10:00", "nsi_id": "unitedstatespostalservice-a77078", "operator": "United States Postal Service", "operator:short": "USPS", "operator:type": "public", "operator:wikidata": "Q668687", "ref": "4450500013"}, "type": "Feature"}
{"geometry": {"coordinates": [-80.664137, 41.136957], "type": "Point"}, "id": "JmAAxMeCpjikpGoRpCuY5Qee_Mg=", "properties": {"@source_uri": "https://tools.usps.com/UspsToolsRestServices/rest/POLocator/findLocations", "@spider": "usps_collection_boxes", "addr:city": "YOUNGSTOWN", "addr:country": "US", "addr:full": "17 COLONIAL DR", "addr:postcode": "44505", "addr:state": "OH", "amenity": "post_box", "brand": "United States Postal Service", "brand:wikidata": "Q668687", "collection_times": "Mo-Sa 09:45", "nsi_id": "unitedstatespostalservice-a77078", "operator": "United States Postal Service", "operator:short": "USPS", "operator:type": "public", "operator:wikidata": "Q668687", "ref": "4450500014"}, "type": "Feature"}
{"geometry": {"coordinates": [-80.6417826, 41.161573], "type": "Point"}, "id": "glyHm4ziCDcMI6iGp-zhMadoOvY=", "properties": {"@source_uri": "https://tools.usps.com/UspsToolsRestServices/rest/POLocator/findLocations", "@spider": "usps_collection_boxes", "addr:city": "YOUNGSTOWN", "addr:country": "US", "addr:full": "1315 CHURCHILL HUBBARD RD", "addr:postcode": "44505", "addr:state": "OH", "amenity": "post_box", "brand": "United States Postal Service", "brand:wikidata": "Q668687", "collection_times": "Mo-Sa 09:30", "nsi_id": "unitedstatespostalservice-a77078", "operator": "United States Postal Service", "operator:short": "USPS", "operator:type": "public", "operator:wikidata": "Q668687", "ref": "4450500017"}, "type": "Feature"}
{"geometry": {"coordinates": [-80.5822756, 41.117692], "type": "Point"}, "id": "9vyLOQvcpi9to_-zPKB5tWfpy88=", "properties": {"@source_uri": "https://tools.usps.com/UspsToolsRestServices/rest/POLocator/findLocations", "@spider": "usps_collection_boxes", "addr:city": "YOUNGSTOWN", "addr:country": "US", "addr:full": "3211 MCGUFFEY RD", "addr:postcode": "44505", "addr:state": "OH", "amenity": "post_box", "brand": "United States Postal Service", "brand:wikidata": "Q668687", "collection_times": "Mo-Sa 13:00", "note": "ON 12/24 AND 12/31, THIS BOX MAY BE COLLECTED AS EARLY AS 12 NOON.", "nsi_id": "unitedstatespostalservice-a77078", "operator": "United States Postal Service", "operator:short": "USPS", "operator:type": "public", "operator:wikidata": "Q668687", "ref": "4450500019"}, "type": "Feature"}
{"geometry": {"coordinates": [-80.6283805, 41.125665], "type": "Point"}, "id": "z_lHuMm3qNjayJQ139nEcy2FjaU=", "properties": {"@source_uri": "https://tools.usps.com/UspsToolsRestServices/rest/POLocator/findLocations", "@spider": "usps_collection_boxes", "addr:city": "YOUNGSTOWN", "addr:country": "US", "addr:full": "1900 HUBBARD RD", "addr:postcode": "44505", "addr:state": "OH", "amenity": "post_box", "brand": "United States Postal Service", "brand:wikidata": "Q668687", "collection_times": "Mo-Sa 14:00", "note": "ON 12/24 AND 12/31, THIS BOX MAY BE COLLECTED AS EARLY AS 12 NOON.", "nsi_id": "unitedstatespostalservice-a77078", "operator": "United States Postal Service", "operator:short": "USPS", "operator:type": "public", "operator:wikidata": "Q668687", "ref": "4450500020"}, "type": "Feature"}
{"geometry": {"coordinates": [-80.6118147, 41.092448], "type": "Point"}, "id": "LOQLa_u4PUT0WE1rji47jR9jhqk=", "properties": {"@source_uri": "https://tools.usps.com/UspsToolsRestServices/rest/POLocator/findLocations", "@spider": "usps_collection_boxes", "addr:city": "YOUNGSTOWN", "addr:country": "US", "addr:full": "1140 KENDIS CIR", "addr:postcode": "44505", "addr:state": "OH", "amenity": "post_box", "brand": "United States Postal Service", "brand:wikidata": "Q668687", "collection_times": "Mo-Sa 10:30", "nsi_id": "unitedstatespostalservice-a77078", "operator": "United States Postal Service", "operator:short": "USPS", "operator:type": "public", "operator:wikidata": "Q668687", "ref": "4450500023"}, "type": "Feature"}
{"geometry": {"coordinates": [-80.6229743, 41.112878], "type": "Point"}, "id": "8kENOS2ewDIrGzqmRSkXqLfg0EM=", "properties": {"@source_uri": "https://tools.usps.com/UspsToolsRestServices/rest/POLocator/findLocations", "@spider": "usps_collection_boxes", "addr:city": "YOUNGSTOWN", "addr:country": "US", "addr:full": "933 PLAZAVIEW CT", "addr:postcode": "44505", "addr:state": "OH", "amenity": "post_box", "brand": "United States Postal Service", "brand:wikidata": "Q668687", "collection_times": "Mo-Sa 14:00", "note": "ON 12/24 AND 12/31, THIS BOX MAY BE COLLECTED AS EARLY AS 12 NOON.", "nsi_id": "unitedstatespostalservice-a77078", "operator": "United States Postal Service", "operator:short": "USPS", "operator:type": "public", "operator:wikidata": "Q668687", "ref": "4450500025"}, "type": "Feature"}
{"geometry": {"coordinates": [-80.6338683, 41.161859], "type": "Point"}, "id": "JidSK390o92OHfDPxQJY07BKBz0=", "properties": {"@source_uri": "https://tools.usps.com/UspsToolsRestServices/rest/POLocator/findLocations", "@spider": "usps_collection_boxes", "addr:city": "YOUNGSTOWN", "addr:country": "US", "addr:full": "4429 LOGAN WAY", "addr:postcode": "44505", "addr:state": "OH", "amenity": "post_box", "brand": "United States Postal Service", "brand:wikidata": "Q668687", "collection_times": "Mo-Sa 12:00", "nsi_id": "unitedstatespostalservice-a77078", "operator": "United States Postal Service", "operator:short": "USPS", "operator:type": "public", "operator:wikidata": "Q668687", "ref": "4450500029"}, "type": "Feature"}
{"geometry": {"coordinates": [-80.5892009, 41.09122], "type": "Point"}, "id": "vWyMEzw5xhi_vL9mMyAY8_FiVWo=", "properties": {"@source_uri": "https://tools.usps.com/UspsToolsRestServices/rest/POLocator/findLocations", "@spider": "usps_collection_boxes", "addr:city": "YOUNGSTOWN", "addr:country": "US", "addr:full": "2896 MCCARTNEY RD", "addr:postcode": "44505", "addr:state": "OH", "amenity": "post_box", "brand": "United States Postal Service", "brand:wikidata": "Q668687", "collection_times": "Mo-Sa 09:30", "nsi_id": "unitedstatespostalservice-a77078", "operator": "United States Postal Service", "operator:short": "USPS", "operator:type": "public", "operator:wikidata": "Q668687", "ref": "4450500030"}, "type": "Feature"}
{"geometry": {"coordinates": [-80.6631953, 41.148528], "type": "Point"}, "id": "jOiAO43HHvIqxtpDH6vltT4SBXQ=", "properties": {"@source_uri": "https://tools.usps.com/UspsToolsRestServices/rest/POLocator/findLocations", "@spider": "usps_collection_boxes", "addr:city": "YOUNGSTOWN", "addr:country": "US", "addr:full": "3551 BELMONT AVE", "addr:postcode": "44505", "addr:state": "OH", "amenity": "post_box", "brand": "United States Postal Service", "brand:wikidata": "Q668687", "collection_times": "Mo-Sa 10:00", "nsi_id": "unitedstatespostalservice-a77078", "operator": "United States Postal Service", "operator:short": "USPS", "operator:type": "public", "operator:wikidata": "Q668687", "ref": "4450500032"}, "type": "Feature"}
{"geometry": {"coordinates": [-80.6649547, 41.171228], "type": "Point"}, "id": "KllvLC_E-4vUyPv2VydcnXCLF8c=", "properties": {"@source_uri": "https://tools.usps.com/UspsToolsRestServices/rest/POLocator/findLocations", "@spider": "usps_collection_boxes", "addr:city": "YOUNGSTOWN", "addr:country": "US", "addr:full": "5048 BELMONT AVE", "addr:postcode": "44505", "addr:state": "OH", "amenity": "post_box", "brand": "United States Postal Service", "brand:wikidata": "Q668687", "collection_times": "Mo-Sa 11:00", "nsi_id": "unitedstatespostalservice-a77078", "operator": "United States Postal Service", "operator:short": "USPS", "operator:type": "public", "operator:wikidata": "Q668687", "ref": "4450500039"}, "type": "Feature"}
{"geometry": {"coordinates": [-80.6629242, 41.141057], "type": "Point"}, "id": "qWxDkCj1Sn_TlHr6Fz3ZSkbTeCc=", "properties": {"@source_uri": "https://tools.usps.com/UspsToolsRestServices/rest/POLocator/findLocations", "@spider": "usps_collection_boxes", "addr:city": "YOUNGSTOWN", "addr:country": "US", "addr:full": "50 TRUMBULL CT", "addr:postcode": "44505", "addr:state": "OH", "amenity": "post_box", "brand": "United States Postal Service", "brand:wikidata": "Q668687", "collection_times": "Mo-Sa 09:30", "nsi_id": "unitedstatespostalservice-a77078", "operator": "United States Postal Service", "operator:short": "USPS", "operator:type": "public", "operator:wikidata": "Q668687", "ref": "4450500040"}, "type": "Feature"}
{"geometry": {"coordinates": [-80.6642540255, 41.1336524978], "type": "Point"}, "id": "UAf8Nidcrm9FUuLVJZH_cdtH-m4=", "properties": {"@source_uri": "https://tools.usps.com/UspsToolsRestServices/rest/POLocator/findLocations", "@spider": "usps_collection_boxes", "addr:city": "YOUNGSTOWN", "addr:country": "US", "addr:full": "669 GYPSY LN UNIT 22", "addr:postcode": "44505", "addr:state": "OH", "amenity": "post_box", "brand": "United States Postal Service", "brand:wikidata": "Q668687", "collection_times": "Mo-Fr 17:00; Sa 12:00", "note": "ON 12/24 AND 12/31, THIS BOX MAY BE COLLECTED AS EARLY AS 12 NOON.", "nsi_id": "unitedstatespostalservice-a77078", "operator": "United States Postal Service", "operator:short": "USPS", "operator:type": "public", "operator:wikidata": "Q668687", "ref": "4450500044"}, "type": "Feature"}
{"geometry": {"coordinates": [-80.6642540255, 41.1336524978], "type": "Point"}, "id": "nKWV55-ySdGhsjEt48JleHtIjSw=", "properties": {"@source_uri": "https://tools.usps.com/UspsToolsRestServices/rest/POLocator/findLocations", "@spider": "usps_collection_boxes", "addr:city": "YOUNGSTOWN", "addr:country": "US", "addr:full": "669 GYPSY LN UNIT 22", "addr:postcode": "44505", "addr:state": "OH", "amenity": "post_box", "brand": "United States Postal Service", "brand:wikidata": "Q668687", "collection_times": "Mo-Fr 17:00; Sa 12:00", "indoor": "yes", "note": "ON 12/24 AND 12/31, THIS BOX MAY BE COLLECTED AS EARLY AS 12 NOON.", "nsi_id": "unitedstatespostalservice-a77078", "operator": "United States Postal Service", "operator:short": "USPS", "operator:type": "public", "operator:wikidata": "Q668687", "ref": "4450500045"}, "type": "Feature"}
{"geometry": {"coordinates": [-80.6642540255, 41.1336524978], "type": "Point"}, "id": "oSG-4Xz_f6o1PH1an6G7osHOkhs=", "properties": {"@source_uri": "https://tools.usps.com/UspsToolsRestServices/rest/POLocator/findLocations", "@spider": "usps_collection_boxes", "addr:city": "YOUNGSTOWN", "addr:country": "US", "addr:full": "669 GYPSY LN UNIT 22", "addr:postcode": "44505", "addr:state": "OH", "amenity": "post_box", "brand": "United States Postal Service", "brand:wikidata": "Q668687", "collection_times": "Mo-Fr 17:00", "indoor": "yes", "note": "ON 12/24 AND 12/31, THIS BOX MAY BE COLLECTED AS EARLY AS 12 NOON.", "nsi_id": "unitedstatespostalservice-a77078", "operator": "United States Postal Service", "operator:short": "USPS", "operator:type": "public", "operator:wikidata": "Q668687", "ref": "4450500046"}, "type": "Feature"}
{"geometry": {"coordinates": [-80.6598088, 41.086419], "type": "Point"}, "id": "LtrgTxACJCofS490hfivbDDXChA=", "properties": {"@source_uri": "https://tools.usps.com/UspsToolsRestServices/rest/POLocator/findLocations", "@spider": "usps_collection_boxes", "addr:city": "YOUNGSTOWN", "addr:country": "US", "addr:full": "1400 OAK HILL AVE", "addr:postcode": "44507", "addr:state": "OH", "amenity": "post_box", "brand": "United States Postal Service", "brand:wikidata": "Q668687", "collection_times": "Mo-Sa 09:45", "nsi_id": "unitedstatespostalservice-a77078", "operator": "United States Postal Service", "operator:short": "USPS", "operator:type": "public", "operator:wikidata": "Q668687", "ref": "4450700009"}, "type": "Feature"}
{"geometry": {"coordinates": [-80.6616214, 41.062606], "type": "Point"}, "id": "zkWvNZaiS-K-XbtIa9UrSdNXD0s=", "properties": {"@source_uri": "https://tools.usps.com/UspsToolsRestServices/rest/POLocator/findLocations", "@spider": "usps_collection_boxes", "addr:city": "YOUNGSTOWN", "addr:country": "US", "addr:full": "3625 MARKET ST", "addr:postcode": "44507", "addr:state": "OH", "amenity": "post_box", "brand": "United States Postal Service", "brand:wikidata": "Q668687", "collection_times": "Mo-Sa 10:30", "nsi_id": "unitedstatespostalservice-a77078", "operator": "United States Postal Service", "operator:short": "USPS", "operator:type": "public", "operator:wikidata": "Q668687", "ref": "4450700014"}, "type": "Feature"}
{"geometry": {"coordinates": [-80.6572436, 41.076145], "type": "Point"}, "id": "0bvoLWLxUcGimHO63H_NtZ90yj4=", "properties": {"@source_uri": "https://tools.usps.com/UspsToolsRestServices/rest/POLocator/findLocations", "@spider": "usps_collection_boxes", "addr:city": "YOUNGSTOWN", "addr:country": "US", "addr:full": "2400 MARKET ST", "addr:postcode": "44507", "addr:state": "OH", "amenity": "post_box", "brand": "United States Postal Service", "brand:wikidata": "Q668687", "collection_times": "Mo-Fr 10:30; Sa 12:00", "nsi_id": "unitedstatespostalservice-a77078", "operator": "United States Postal Service", "operator:short": "USPS", "operator:type": "public", "operator:wikidata": "Q668687", "ref": "4450700019"}, "type": "Feature"}
{"geometry": {"coordinates": [-80.6640599, 41.085515], "type": "Point"}, "id": "kR-yBm4Z3PZEtQklfJsQzMyWUYA=", "properties": {"@source_uri": "https://tools.usps.com/UspsToolsRestServices/rest/POLocator/findLocations", "@spider": "usps_collection_boxes", "addr:city": "YOUNGSTOWN", "addr:country": "US", "addr:full": "1528 HILLMAN ST", "addr:postcode": "44507", "addr:state": "OH", "amenity": "post_box", "brand": "United States Postal Service", "brand:wikidata": "Q668687", "collection_times": "Mo-Sa 09:00", "nsi_id": "unitedstatespostalservice-a77078", "operator": "United States Postal Service", "operator:short": "USPS", "operator:type": "public", "operator:wikidata": "Q668687", "ref": "4450700029"}, "type": "Feature"}
{"geometry": {"coordinates": [-80.7109742, 41.112794], "type": "Point"}, "id": "rCI5vu2G6mK36ftos9YoNL_HUrY=", "properties": {"@source_uri": "https://tools.usps.com/UspsToolsRestServices/rest/POLocator/findLocations", "@spider": "usps_collection_boxes", "addr:city": "YOUNGSTOWN", "addr:country": "US", "addr:full": "527 N MERIDIAN RD", "addr:postcode": "44509", "addr:state": "OH", "amenity": "post_box", "brand": "United States Postal Service", "brand:wikidata": "Q668687", "collection_times": "Mo-Sa 13:00", "note": "ON 12/24 AND 12/31, THIS BOX MAY BE COLLECTED AS EARLY AS 12 NOON.", "nsi_id": "unitedstatespostalservice-a77078", "operator": "United States Postal Service", "operator:short": "USPS", "operator:type": "public", "operator:wikidata": "Q668687", "ref": "4450900000"}, "type": "Feature"}
{"geometry": {"coordinates": [-80.7082878, 41.102783], "type": "Point"}, "id": "kCvcbA8tM7Cm2w6yiAK4kHFL4q0=", "properties": {"@source_uri": "https://tools.usps.com/UspsToolsRestServices/rest/POLocator/findLocations", "@spider": "usps_collection_boxes", "addr:city": "YOUNGSTOWN", "addr:country": "US", "addr:full": "3309 MAHONING AVE", "addr:postcode": "44509", "addr:state": "OH", "amenity": "post_box", "brand": "United States Postal Service", "brand:wikidata": "Q668687", "collection_times": "Mo-Sa 09:30", "nsi_id": "unitedstatespostalservice-a77078", "operator": "United States Postal Service", "operator:short": "USPS", "operator:type": "public", "operator:wikidata": "Q668687", "ref": "4450900009"}, "type": "Feature"}
{"geometry": {"coordinates": [-80.6831893, 41.101979], "type": "Point"}, "id": "C3kALYl3FD5nyiWDMQHVMDHx1k4=", "properties": {"@source_uri": "https://tools.usps.com/UspsToolsRestServices/rest/POLocator/findLocations", "@spider": "usps_collection_boxes", "addr:city": "YOUNGSTOWN", "addr:country": "US", "addr:full": "1647 MAHONING AVE", "addr:postcode": "44509", "addr:state": "OH", "amenity": "post_box", "brand": "United States Postal Service", "brand:wikidata": "Q668687", "collection_times": "Mo-Sa 10:00", "nsi_id": "unitedstatespostalservice-a77078", "operator": "United States Postal Service", "operator:short": "USPS", "operator:type": "public", "operator:wikidata": "Q668687", "ref": "4450900013"}, "type": "Feature"}
{"geometry": {"coordinates": [-80.6988299, 41.107445], "type": "Point"}, "id": "Ko5WlZodAo9HR30MiAmjfCS-x30=", "properties": {"@source_uri": "https://tools.usps.com/UspsToolsRestServices/rest/POLocator/findLocations", "@spider": "usps_collection_boxes", "addr:city": "YOUNGSTOWN", "addr:country": "US", "addr:full": "402 W HEIGHTS AVE", "addr:postcode": "44509", "addr:state": "OH", "amenity": "post_box", "brand": "United States Postal Service", "brand:wikidata": "Q668687", "collection_times": "Mo-Sa 09:30", "nsi_id": "unitedstatespostalservice-a77078", "operator": "United States Postal Service", "operator:short": "USPS", "operator:type": "public", "operator:wikidata": "Q668687", "ref": "4450900014"}, "type": "Feature"}
{"geometry": {"coordinates": [-80.7105703, 41.100968], "type": "Point"}, "id": "MbY_G97biaxmGoTfoFn04wSxiys=", "properties": {"@source_uri": "https://tools.usps.com/UspsToolsRestServices/rest/POLocator/findLocations", "@spider": "usps_collection_boxes", "addr:city": "YOUNGSTOWN", "addr:country": "US", "addr:full": "109 S MERIDIAN RD", "addr:postcode": "44509", "addr:state": "OH", "amenity": "post_box", "brand": "United States Postal Service", "brand:wikidata": "Q668687", "collection_times": "Mo-Sa 11:30", "nsi_id": "unitedstatespostalservice-a77078", "operator": "United States Postal Service", "operator:short": "USPS", "operator:type": "public", "operator:wikidata": "Q668687", "ref": "4450900020"}, "type": "Feature"}
{"geometry": {"coordinates": [-80.690422, 41.102604], "type": "Point"}, "id": "JFXjjhMr0Gmr6YOavW3hPBqPG5A=", "properties": {"@source_uri": "https://tools.usps.com/UspsToolsRestServices/rest/POLocator/findLocations", "@spider": "usps_collection_boxes", "addr:city": "YOUNGSTOWN", "addr:country": "US", "addr:full": "2030 MAHONING AVE", "addr:postcode": "44509", "addr:state": "OH", "amenity": "post_box", "brand": "United States Postal Service", "brand:wikidata": "Q668687", "collection_times": "Mo-Fr 16:00; Sa 12:00", "name": "USPS COLLECTION BOX - EXPRESS", "note": "ON 12/24 AND 12/31, THIS BOX MAY BE COLLECTED AS EARLY AS 12 NOON.", "nsi_id": "unitedstatespostalservice-a77078", "operator": "United States Postal Service", "operator:short": "USPS", "operator:type": "public", "operator:wikidata": "Q668687", "ref": "4450900022"}, "type": "Feature"}
{"geometry": {"coordinates": [-80.690379, 41.102575], "type": "Point"}, "id": "N6-D8iV-Idft9dd-GKjPCCgvM98=", "properties": {"@source_uri": "https://tools.usps.com/UspsToolsRestServices/rest/POLocator/findLocations", "@spider": "usps_collection_boxes", "addr:city": "YOUNGSTOWN", "addr:country": "US", "addr:full": "2030 MAHONING AVE", "addr:postcode": "44509", "addr:state": "OH", "amenity": "post_box", "brand": "United States Postal Service", "brand:wikidata": "Q668687", "collection_times": "Mo-Fr 16:00; Sa 12:00", "note": "ON 12/24 AND 12/31, THIS BOX MAY BE COLLECTED AS EARLY AS 12 NOON.", "nsi_id": "unitedstatespostalservice-a77078", "operator": "United States Postal Service", "operator:short": "USPS", "operator:type": "public", "operator:wikidata": "Q668687", "ref": "4450900023"}, "type": "Feature"}
{"geometry": {"coordinates": [-80.7119274, 41.124762], "type": "Point"}, "id": "cda2FUuSWNnQF8lboFN8COFdzpA=", "properties": {"@source_uri": "https://tools.usps.com/UspsToolsRestServices/rest/POLocator/findLocations", "@spider": "usps_collection_boxes", "addr:city": "YOUNGSTOWN", "addr:country": "US", "addr:full": "1040 N MERIDIAN RD", "addr:postcode": "44509", "addr:state": "OH", "amenity": "post_box", "brand": "United States Postal Service", "brand:wikidata": "Q668687", "collection_times": "Mo-Sa 11:00", "nsi_id": "unitedstatespostalservice-a77078", "operator": "United States Postal Service", "operator:short": "USPS", "operator:type": "public", "operator:wikidata": "Q668687", "ref": "4450900025"}, "type": "Feature"}
{"geometry": {"coordinates": [-80.690379, 41.102575], "type": "Point"}, "id": "m7_i0EsBI-qTQJbwRbVpnXvgQTc=", "properties": {"@source_uri": "https://tools.usps.com/UspsToolsRestServices/rest/POLocator/findLocations", "@spider": "usps_collection_boxes", "addr:city": "YOUNGSTOWN", "addr:country": "US", "addr:full": "2030 MAHONING AVE", "addr:postcode": "44509", "addr:state": "OH", "amenity": "post_box", "brand": "United States Postal Service", "brand:wikidata": "Q668687", "collection_times": "Mo-Fr 16:00; Sa 12:00", "indoor": "yes", "note": "ON 12/24 AND 12/31, THIS BOX MAY BE COLLECTED AS EARLY AS 12 NOON.", "nsi_id": "unitedstatespostalservice-a77078", "operator": "United States Postal Service", "operator:short": "USPS", "operator:type": "public", "operator:wikidata": "Q668687", "ref": "4450900027"}, "type": "Feature"}
{"geometry": {"coordinates": [-80.7053609, 41.129838], "type": "Point"}, "id": "tg2wG0P9jKYsCRD1S6B0zqkrhaM=", "properties": {"@source_uri": "https://tools.usps.com/UspsToolsRestServices/rest/POLocator/findLocations", "@spider": "usps_collection_boxes", "addr:city": "YOUNGSTOWN", "addr:country": "US", "addr:full": "2870 SALT SPRINGS RD", "addr:postcode": "44509", "addr:state": "OH", "amenity": "post_box", "brand": "United States Postal Service", "brand:wikidata": "Q668687", "collection_times": "Mo-Sa 10:30", "nsi_id": "unitedstatespostalservice-a77078", "operator": "United States Postal Service", "operator:short": "USPS", "operator:type": "public", "operator:wikidata": "Q668687", "ref": "4450900028"}, "type": "Feature"}
{"geometry": {"coordinates": [-80.7119193, 41.120144], "type": "Point"}, "id": "KV6G4hcoXfV9kWCglumgpeYtgHY=", "properties": {"@source_uri": "https://tools.usps.com/UspsToolsRestServices/rest/POLocator/findLocations", "@spider": "usps_collection_boxes", "addr:city": "YOUNGSTOWN", "addr:country": "US", "addr:full": "850 N MERIDIAN RD", "addr:postcode": "44509", "addr:state": "OH", "amenity": "post_box", "brand": "United States Postal Service", "brand:wikidata": "Q668687", "collection_times": "Mo-Sa 09:00", "nsi_id": "unitedstatespostalservice-a77078", "operator": "United States Postal Service", "operator:short": "USPS", "operator:type": "public", "operator:wikidata": "Q668687", "ref": "4450900032"}, "type": "Feature"}
{"geometry": {"coordinates": [-80.690958356, 41.102621453], "type": "Point"}, "id": "nuT7z8czc52eRD-UxDln-XMLHrk=", "properties": {"@source_uri": "https://tools.usps.com/UspsToolsRestServices/rest/POLocator/findLocations", "@spider": "usps_collection_boxes", "addr:city": "YOUNGSTOWN", "addr:country": "US", "addr:full": "2030 MAHONING AVE", "addr:postcode": "44509", "addr:state": "OH", "amenity": "post_box", "brand": "United States Postal Service", "brand:wikidata": "Q668687", "collection_times": "Mo-Fr 16:00; Sa 12:00", "indoor": "yes", "note": "ON 12/24 AND 12/31, THIS BOX MAY BE COLLECTED AS EARLY AS 12 NOON.", "nsi_id": "unitedstatespostalservice-a77078", "operator": "United States Postal Service", "operator:short": "USPS", "operator:type": "public", "operator:wikidata": "Q668687", "ref": "4450900034"}, "type": "Feature"}
{"geometry": {"coordinates": [-80.6578649, 41.115484], "type": "Point"}, "id": "kbX35_LhVy3HOuTMuVcPjDo0XsE=", "properties": {"@source_uri": "https://tools.usps.com/UspsToolsRestServices/rest/POLocator/findLocations", "@spider": "usps_collection_boxes", "addr:city": "YOUNGSTOWN", "addr:country": "US", "addr:full": "540 PARMALEE AVE", "addr:postcode": "44510", "addr:state": "OH", "amenity": "post_box", "brand": "United States Postal Service", "brand:wikidata": "Q668687", "collection_times": "Mo-Sa 09:15", "nsi_id": "unitedstatespostalservice-a77078", "operator": "United States Postal Service", "operator:short": "USPS", "operator:type": "public", "operator:wikidata": "Q668687", "ref": "4451000008"}, "type": "Feature"}
{"geometry": {"coordinates": [-80.707798, 41.062759], "type": "Point"}, "id": "KZ0U8jfUjEmMwbOlEjXk3HblLM4=", "properties": {"@source_uri": "https://tools.usps.com/UspsToolsRestServices/rest/POLocator/findLocations", "@spider": "usps_collection_boxes", "addr:city": "YOUNGSTOWN", "addr:country": "US", "addr:full": "3307 CANFIELD RD", "addr:postcode": "44511", "addr:state": "OH", "amenity": "post_box", "brand": "United States Postal Service", "brand:wikidata": "Q668687", "collection_times": "Mo-Fr 17:00; Sa 12:00", "note": "ON 12/24 AND 12/31, THIS BOX MAY BE COLLECTED AS EARLY AS 12 NOON.", "nsi_id": "unitedstatespostalservice-a77078", "operator": "United States Postal Service", "operator:short": "USPS", "operator:type": "public", "operator:wikidata": "Q668687", "ref": "4451100001"}, "type": "Feature"}
{"geometry": {"coordinates": [-80.7052625, 41.0647282], "type": "Point"}, "id": "RINti8S26YJXKkngQMS9WiNTbtw=", "properties": {"@source_uri": "https://tools.usps.com/UspsToolsRestServices/rest/POLocator/findLocations", "@spider": "usps_collection_boxes", "addr:city": "YOUNGSTOWN", "addr:country": "US", "addr:full": "3375 CANFIELD RD", "addr:postcode": "44511", "addr:state": "OH", "amenity": "post_box", "brand": "United States Postal Service", "brand:wikidata": "Q668687", "collection_times": "Mo-Fr 17:00; Sa 12:00", "note": "ON 12/24 AND 12/31, THIS BOX MAY BE COLLECTED AS EARLY AS 12 NOON.", "nsi_id": "unitedstatespostalservice-a77078", "operator": "United States Postal Service", "operator:short": "USPS", "operator:type": "public", "operator:wikidata": "Q668687", "ref": "4451100002"}, "type": "Feature"}
{"geometry": {"coordinates": [-80.708267, 41.06297], "type": "Point"}, "id": "_Blywtyz017bjEIumgkjX6EOil0=", "properties": {"@source_uri": "https://tools.usps.com/UspsToolsRestServices/rest/POLocator/findLocations", "@spider": "usps_collection_boxes", "addr:city": "YOUNGSTOWN", "addr:country": "US", "addr:full": "3375 CANFIELD RD", "addr:postcode": "44511", "addr:state": "OH", "amenity": "post_box", "brand": "United States Postal Service", "brand:wikidata": "Q668687", "collection_times": "Mo-Fr 17:00; Sa 12:00", "note": "ON 12/24 AND 12/31, THIS BOX MAY BE COLLECTED AS EARLY AS 12 NOON.", "nsi_id": "unitedstatespostalservice-a77078", "operator": "United States Postal Service", "operator:short": "USPS", "operator:type": "public", "operator:wikidata": "Q668687", "ref": "4451100003"}, "type": "Feature"}
{"geometry": {"coordinates": [-80.7287181, 41.068233], "type": "Point"}, "id": "Gpwwhf6VykEmPiG7flPd3zG31es=", "properties": {"@source_uri": "https://tools.usps.com/UspsToolsRestServices/rest/POLocator/findLocations", "@spider": "usps_collection_boxes", "addr:city": "YOUNGSTOWN", "addr:country": "US", "addr:full": "4351 KIRK RD", "addr:postcode": "44511", "addr:state": "OH", "amenity": "post_box", "brand": "United States Postal Service", "brand:wikidata": "Q668687", "collection_times": "Mo-Sa 10:30", "nsi_id": "unitedstatespostalservice-a77078", "operator": "United States Postal Service", "operator:short": "USPS", "operator:type": "public", "operator:wikidata": "Q668687", "ref": "4451100004"}, "type": "Feature"}
{"geometry": {"coordinates": [-80.7001871, 41.084901], "type": "Point"}, "id": "SQxDkoR3OKXmw9Ydm5pHHBjUwbw=", "properties": {"@source_uri": "https://tools.usps.com/UspsToolsRestServices/rest/POLocator/findLocations", "@spider": "usps_collection_boxes", "addr:city": "YOUNGSTOWN", "addr:country": "US", "addr:full": "1260 S SCHENLEY AVE", "addr:postcode": "44511", "addr:state": "OH", "amenity": "post_box", "brand": "United States Postal Service", "brand:wikidata": "Q668687", "collection_times": "Mo-Sa 10:45", "nsi_id": "unitedstatespostalservice-a77078", "operator": "United States Postal Service", "operator:short": "USPS", "operator:type": "public", "operator:wikidata": "Q668687", "ref": "4451100005"}, "type": "Feature"}
{"geometry": {"coordinates": [-80.7108557, 41.064213], "type": "Point"}, "id": "3W_uTxBOLFNbwuN3rZf3xvDG7s0=", "properties": {"@source_uri": "https://tools.usps.com/UspsToolsRestServices/rest/POLocator/findLocations", "@spider": "usps_collection_boxes", "addr:city": "YOUNGSTOWN", "addr:country": "US", "addr:full": "3623 S MERIDIAN RD", "addr:postcode": "44511", "addr:state": "OH", "amenity": "post_box", "brand": "United States Postal Service", "brand:wikidata": "Q668687", "collection_times": "Mo-Sa 10:45", "nsi_id": "unitedstatespostalservice-a77078", "operator": "United States Postal Service", "operator:short": "USPS", "operator:type": "public", "operator:wikidata": "Q668687", "ref": "4451100006"}, "type": "Feature"}
{"geometry": {"coordinates": [-80.7077149, 41.065463], "type": "Point"}, "id": "IBkYK6b6VvJTtsSlGuN5aLg70Wo=", "properties": {"@source_uri": "https://tools.usps.com/UspsToolsRestServices/rest/POLocator/findLocations", "@spider": "usps_collection_boxes", "addr:city": "YOUNGSTOWN", "addr:country": "US", "addr:full": "3390 FLO LOR DR", "addr:postcode": "44511", "addr:state": "OH", "amenity": "post_box", "brand": "United States Postal Service", "brand:wikidata": "Q668687", "collection_times": "Mo-Sa 14:30", "note": "ON 12/24 AND 12/31, THIS BOX MAY BE COLLECTED AS EARLY AS 12 NOON.", "nsi_id": "unitedstatespostalservice-a77078", "operator": "United States Postal Service", "operator:short": "USPS", "operator:type": "public", "operator:wikidata": "Q668687", "ref": "4451100008"}, "type": "Feature"}
{"geometry": {"coordinates": [-80.6841244, 41.065001], "type": "Point"}, "id": "pfuhddB1No5pZ71dyBJtffhmBeI=", "properties": {"@source_uri": "https://tools.usps.com/UspsToolsRestServices/rest/POLocator/findLocations", "@spider": "usps_collection_boxes", "addr:city": "YOUNGSTOWN", "addr:country": "US", "addr:full": "3503 ARDEN BLVD", "addr:postcode": "44511", "addr:state": "OH", "amenity": "post_box", "brand": "United States Postal Service", "brand:wikidata": "Q668687", "collection_times": "Mo-Sa 11:45", "nsi_id": "unitedstatespostalservice-a77078", "operator": "United States Postal Service", "operator:short": "USPS", "operator:type": "public", "operator:wikidata": "Q668687", "ref": "4451100009"}, "type": "Feature"}
{"geometry": {"coordinates": [-80.6757284, 41.072733], "type": "Point"}, "id": "FEU0trrFAz_Q9R29SRwScThLioc=", "properties": {"@source_uri": "https://tools.usps.com/UspsToolsRestServices/rest/POLocator/findLocations", "@spider": "usps_collection_boxes", "addr:city": "YOUNGSTOWN", "addr:country": "US", "addr:full": "2642 GLENWOOD AVE", "addr:postcode": "44511", "addr:state": "OH", "amenity": "post_box", "brand": "United States Postal Service", "brand:wikidata": "Q668687", "collection_times": "Mo-Sa 09:30", "nsi_id": "unitedstatespostalservice-a77078", "operator": "United States Postal Service", "operator:short": "USPS", "operator:type": "public", "operator:wikidata": "Q668687", "ref": "4451100016"}, "type": "Feature"}
{"geometry": {"coordinates": [-80.708743502, 41.063129614], "type": "Point"}, "id": "tTwvyb6jX__i4z7A52LAhDzepf8=", "properties": {"@source_uri": "https://tools.usps.com/UspsToolsRestServices/rest/POLocator/findLocations", "@spider": "usps_collection_boxes", "addr:city": "YOUNGSTOWN", "addr:country": "US", "addr:full": "3375 CANFIELD RD", "addr:postcode": "44511", "addr:state": "OH", "amenity": "post_box", "brand": "United States Postal Service", "brand:wikidata": "Q668687", "collection_times": "Mo-Fr 17:00; Sa 12:00", "indoor": "yes", "note": "ON 12/24 AND 12/31, THIS BOX MAY BE COLLECTED AS EARLY AS 12 NOON.", "nsi_id": "unitedstatespostalservice-a77078", "operator": "United States Postal Service", "operator:short": "USPS", "operator:type": "public", "operator:wikidata": "Q668687", "ref": "4451100022"}, "type": "Feature"}
{"geometry": {"coordinates": [-80.6633724, 41.05993], "type": "Point"}, "id": "UOG34fXy8pGmQj0hnQcPkdiElO8=", "properties": {"@source_uri": "https://tools.usps.com/UspsToolsRestServices/rest/POLocator/findLocations", "@spider": "usps_collection_boxes", "addr:city": "YOUNGSTOWN", "addr:country": "US", "addr:full": "4005 HILLMAN WAY", "addr:postcode": "44512", "addr:state": "OH", "amenity": "post_box", "brand": "United States Postal Service", "brand:wikidata": "Q668687", "collection_times": "Mo-Sa 09:30", "nsi_id": "unitedstatespostalservice-a77078", "operator": "United States Postal Service", "operator:short": "USPS", "operator:type": "public", "operator:wikidata": "Q668687", "ref": "4451200002"}, "type": "Feature"}
{"geometry": {"coordinates": [-80.662918, 41.04162], "type": "Point"}, "id": "9rrRim1iRlGahh5jSRXqZlAH9hk=", "properties": {"@source_uri": "https://tools.usps.com/UspsToolsRestServices/rest/POLocator/findLocations", "@spider": "usps_collection_boxes", "addr:city": "YOUNGSTOWN", "addr:country": "US", "addr:full": "5500 MARKET ST", "addr:postcode": "44512", "addr:state": "OH", "amenity": "post_box", "brand": "United States Postal Service", "brand:wikidata": "Q668687", "collection_times": "Mo-Sa 09:30", "nsi_id": "unitedstatespostalservice-a77078", "operator": "United States Postal Service", "operator:short": "USPS", "operator:type": "public", "operator:wikidata": "Q668687", "ref": "4451200007"}, "type": "Feature"}
{"geometry": {"coordinates": [-80.6625631, 41.028863], "type": "Point"}, "id": "0XsbVtH5Cl5vNJZDv2-e8m7CcEw=", "properties": {"@source_uri": "https://tools.usps.com/UspsToolsRestServices/rest/POLocator/findLocations", "@spider": "usps_collection_boxes", "addr:city": "YOUNGSTOWN", "addr:country": "US", "addr:full": "6911 MARKET ST", "addr:postcode": "44512", "addr:state": "OH", "amenity": "post_box", "brand": "United States Postal Service", "brand:wikidata": "Q668687", "collection_times": "Mo-Fr 13:30; Sa 09:30", "note": "ON 12/24 AND 12/31, THIS BOX MAY BE COLLECTED AS EARLY AS 12 NOON.", "nsi_id": "unitedstatespostalservice-a77078", "operator": "United States Postal Service", "operator:short": "USPS", "operator:type": "public", "operator:wikidata": "Q668687", "ref": "4451200008"}, "type": "Feature"}
{"geometry": {"coordinates": [-80.6397929, 41.051329], "type": "Point"}, "id": "dW7UQb7wOjRthLPYCOIl5zbNzu0=", "properties": {"@source_uri": "https://tools.usps.com/UspsToolsRestServices/rest/POLocator/findLocations", "@spider": "usps_collection_boxes", "addr:city": "YOUNGSTOWN", "addr:country": "US", "addr:full": "4634 SIMON RD", "addr:postcode": "44512", "addr:state": "OH", "amenity": "post_box", "brand": "United States Postal Service", "brand:wikidata": "Q668687", "collection_times": "Mo-Sa 11:30", "nsi_id": "unitedstatespostalservice-a77078", "operator": "United States Postal Service", "operator:short": "USPS", "operator:type": "public", "operator:wikidata": "Q668687", "ref": "4451200019"}, "type": "Feature"}
{"geometry": {"coordinates": [-80.6696971, 40.988566], "type": "Point"}, "id": "NB_tVDUWlu4haRZex9Vkm8sBwkI=", "properties": {"@source_uri": "https://tools.usps.com/UspsToolsRestServices/rest/POLocator/findLocations", "@spider": "usps_collection_boxes", "addr:city": "YOUNGSTOWN", "addr:country": "US", "addr:full": "8600 GLENWOOD AVE", "addr:postcode": "44512", "addr:state": "OH", "amenity": "post_box", "brand": "United States Postal Service", "brand:wikidata": "Q668687", "collection_times": "Mo-Sa 11:00", "nsi_id": "unitedstatespostalservice-a77078", "operator": "United States Postal Service", "operator:short": "USPS", "operator:type": "public", "operator:wikidata": "Q668687", "ref": "4451200020"}, "type": "Feature"}
{"geometry": {"coordinates": [-80.6859839, 41.0241], "type": "Point"}, "id": "4xZgpS0LlDXHDYnkOAIGW5sRu1k=", "properties": {"@source_uri": "https://tools.usps.com/UspsToolsRestServices/rest/POLocator/findLocations", "@spider": "usps_collection_boxes", "addr:city": "YOUNGSTOWN", "addr:country": "US", "addr:full": "833 BOARDMAN CANFIELD RD", "addr:postcode": "44512", "addr:state": "OH", "amenity": "post_box", "brand": "United States Postal Service", "brand:wikidata": "Q668687", "collection_times": "Mo-Sa 10:30", "nsi_id": "unitedstatespostalservice-a77078", "operator": "United States Postal Service", "operator:short": "USPS", "operator:type": "public", "operator:wikidata": "Q668687", "ref": "4451200022"}, "type": "Feature"}
{"geometry": {"coordinates": [-80.7041023, 41.025198], "type": "Point"}, "id": "T7N2uG5dSAaDanZUHIHPRPPdAIc=", "properties": {"@source_uri": "https://tools.usps.com/UspsToolsRestServices/rest/POLocator/findLocations", "@spider": "usps_collection_boxes", "addr:city": "YOUNGSTOWN", "addr:country": "US", "addr:full": "1280 BOARDMAN CANFIELD RD", "addr:postcode": "44512", "addr:state": "OH", "amenity": "post_box", "brand": "United States Postal Service", "brand:wikidata": "Q668687", "collection_times": "Mo-Sa 10:00", "nsi_id": "unitedstatespostalservice-a77078", "operator": "United States Postal Service", "operator:short": "USPS", "operator:type": "public", "operator:wikidata": "Q668687", "ref": "4451200023"}, "type": "Feature"}
{"geometry": {"coordinates": [-80.6482795, 41.025355], "type": "Point"}, "id": "S50RoQG4i7lIGnL40S7-5VMfWJ0=", "properties": {"@source_uri": "https://tools.usps.com/UspsToolsRestServices/rest/POLocator/findLocations", "@spider": "usps_collection_boxes", "addr:city": "YOUNGSTOWN", "addr:country": "US", "addr:full": "374 BOARDMAN POLAND RD", "addr:postcode": "44512", "addr:state": "OH", "amenity": "post_box", "brand": "United States Postal Service", "brand:wikidata": "Q668687", "collection_times": "Mo-Sa 11:00", "nsi_id": "unitedstatespostalservice-a77078", "operator": "United States Postal Service", "operator:short": "USPS", "operator:type": "public", "operator:wikidata": "Q668687", "ref": "4451200024"}, "type": "Feature"}
{"geometry": {"coordinates": [-80.6377834, 41.058741], "type": "Point"}, "id": "8rY3BaqiOGP6Qq3ja-D2nKBunr8=", "properties": {"@source_uri": "https://tools.usps.com/UspsToolsRestServices/rest/POLocator/findLocations", "@spider": "usps_collection_boxes", "addr:city": "YOUNGSTOWN", "addr:country": "US", "addr:full": "4001 SIMON RD", "addr:postcode": "44512", "addr:state": "OH", "amenity": "post_box", "brand": "United States Postal Service", "brand:wikidata": "Q668687", "collection_times": "Mo-Sa 09:45", "nsi_id": "unitedstatespostalservice-a77078", "operator": "United States Postal Service", "operator:short": "USPS", "operator:type": "public", "operator:wikidata": "Q668687", "ref": "4451200026"}, "type": "Feature"}
{"geometry": {"coordinates": [-80.6351704, 41.055865], "type": "Point"}, "id": "VpweALtPYLqbCXzcyMMx74vTc24=", "properties": {"@source_uri": "https://tools.usps.com/UspsToolsRestServices/rest/POLocator/findLocations", "@spider": "usps_collection_boxes", "addr:city": "YOUNGSTOWN", "addr:country": "US", "addr:full": "4200 LAKE PARK RD", "addr:postcode": "44512", "addr:state": "OH", "amenity": "post_box", "brand": "United States Postal Service", "brand:wikidata": "Q668687", "collection_times": "Mo-Sa 09:45", "nsi_id": "unitedstatespostalservice-a77078", "operator": "United States Postal Service", "operator:short": "USPS", "operator:type": "public", "operator:wikidata": "Q668687", "ref": "4451200028"}, "type": "Feature"}
{"geometry": {"coordinates": [-80.6689252, 41.023951], "type": "Point"}, "id": "8jYgzD79D1qYD8pLIYf6gssx46M=", "properties": {"@source_uri": "https://tools.usps.com/UspsToolsRestServices/rest/POLocator/findLocations", "@spider": "usps_collection_boxes", "addr:city": "YOUNGSTOWN", "addr:country": "US", "addr:full": "201 BOARDMAN CANFIELD RD", "addr:postcode": "44512", "addr:state": "OH", "amenity": "post_box", "brand": "United States Postal Service", "brand:wikidata": "Q668687", "collection_times": "Mo-Sa 10:00", "nsi_id": "unitedstatespostalservice-a77078", "operator": "United States Postal Service", "operator:short": "USPS", "operator:type": "public", "operator:wikidata": "Q668687", "ref": "4451200030"}, "type": "Feature"}
{"geometry": {"coordinates": [-80.6418613, 41.025195], "type": "Point"}, "id": "urtzz5ufq7D3vIDnGdr0bdHvtog=", "properties": {"@source_uri": "https://tools.usps.com/UspsToolsRestServices/rest/POLocator/findLocations", "@spider": "usps_collection_boxes", "addr:city": "YOUNGSTOWN", "addr:country": "US", "addr:full": "724 BOARDMAN POLAND RD", "addr:postcode": "44512", "addr:state": "OH", "amenity": "post_box", "brand": "United States Postal Service", "brand:wikidata": "Q668687", "collection_times": "Mo-Sa 11:00", "nsi_id": "unitedstatespostalservice-a77078", "operator": "United States Postal Service", "operator:short": "USPS", "operator:type": "public", "operator:wikidata": "Q668687", "ref": "4451200032"}, "type": "Feature"}
{"geometry": {"coordinates": [-80.6394482, 41.023722], "type": "Point"}, "id": "gbOyfoWulN4DZoV2-FaHlNyDw_g=", "properties": {"@source_uri": "https://tools.usps.com/UspsToolsRestServices/rest/POLocator/findLocations", "@spider": "usps_collection_boxes", "addr:city": "YOUNGSTOWN", "addr:country": "US", "addr:full": "813 BOARDMAN POLAND RD", "addr:postcode": "44512", "addr:state": "OH", "amenity": "post_box", "brand": "United States Postal Service", "brand:wikidata": "Q668687", "collection_times": "Mo-Sa 10:00", "nsi_id": "unitedstatespostalservice-a77078", "operator": "United States Postal Service", "operator:short": "USPS", "operator:type": "public", "operator:wikidata": "Q668687", "ref": "4451200033"}, "type": "Feature"}
{"geometry": {"coordinates": [-80.7054709, 41.032609], "type": "Point"}, "id": "k6EqOyjaW6EgpTlMj3R-i9X3Zj4=", "properties": {"@source_uri": "https://tools.usps.com/UspsToolsRestServices/rest/POLocator/findLocations", "@spider": "usps_collection_boxes", "addr:city": "YOUNGSTOWN", "addr:country": "US", "addr:full": "6801 LOCKWOOD BLVD", "addr:postcode": "44512", "addr:state": "OH", "amenity": "post_box", "brand": "United States Postal Service", "brand:wikidata": "Q668687", "collection_times": "Mo-Sa 12:00", "nsi_id": "unitedstatespostalservice-a77078", "operator": "United States Postal Service", "operator:short": "USPS", "operator:type": "public", "operator:wikidata": "Q668687", "ref": "4451200035"}, "type": "Feature"}
{"geometry": {"coordinates": [-80.6844624, 41.02173], "type": "Point"}, "id": "IpvyOaabX-YD9WMCkfOdVGpjJWQ=", "properties": {"@source_uri": "https://tools.usps.com/UspsToolsRestServices/rest/POLocator/findLocations", "@spider": "usps_collection_boxes", "addr:city": "YOUNGSTOWN", "addr:country": "US", "addr:full": "7400 WEST BLVD", "addr:postcode": "44512", "addr:state": "OH", "amenity": "post_box", "brand": "United States Postal Service", "brand:wikidata": "Q668687", "collection_times": "Mo-Sa 11:00", "nsi_id": "unitedstatespostalservice-a77078", "operator": "United States Postal Service", "operator:short": "USPS", "operator:type": "public", "operator:wikidata": "Q668687", "ref": "4451200036"}, "type": "Feature"}
{"geometry": {"coordinates": [-80.7061226, 41.024364], "type": "Point"}, "id": "6QmUxbNa9ktgDqDzRXPJYyD8ZqU=", "properties": {"@source_uri": "https://tools.usps.com/UspsToolsRestServices/rest/POLocator/findLocations", "@spider": "usps_collection_boxes", "addr:city": "YOUNGSTOWN", "addr:country": "US", "addr:full": "1393 BOARDMAN CANFIELD RD", "addr:postcode": "44512", "addr:state": "OH", "amenity": "post_box", "brand": "United States Postal Service", "brand:wikidata": "Q668687", "collection_times": "Mo-Fr 13:30; Sa 09:30", "note": "ON 12/24 AND 12/31, THIS BOX MAY BE COLLECTED AS EARLY AS 12 NOON.", "nsi_id": "unitedstatespostalservice-a77078", "operator": "United States Postal Service", "operator:short": "USPS", "operator:type": "public", "operator:wikidata": "Q668687", "ref": "4451200037"}, "type": "Feature"}
{"geometry": {"coordinates": [-80.6820030409, 41.0266433608], "type": "Point"}, "id": "mmkO8AYQK6qGcN0SkzAlOHNE44w=", "properties": {"@source_uri": "https://tools.usps.com/UspsToolsRestServices/rest/POLocator/findLocations", "@spider": "usps_collection_boxes", "addr:city": "YOUNGSTOWN", "addr:country": "US", "addr:full": "7057 WEST BLVD", "addr:postcode": "44512", "addr:state": "OH", "amenity": "post_box", "brand": "United States Postal Service", "brand:wikidata": "Q668687", "collection_times": "Mo-Sa 10:00", "nsi_id": "unitedstatespostalservice-a77078", "operator": "United States Postal Service", "operator:short": "USPS", "operator:type": "public", "operator:wikidata": "Q668687", "ref": "4451200038"}, "type": "Feature"}
{"geometry": {"coordinates": [-80.6818947, 41.025281], "type": "Point"}, "id": "qVLf76G63lCZ131McDNzwuCAmTM=", "properties": {"@source_uri": "https://tools.usps.com/UspsToolsRestServices/rest/POLocator/findLocations", "@spider": "usps_collection_boxes", "addr:city": "YOUNGSTOWN", "addr:country": "US", "addr:full": "7087 WEST BLVD", "addr:postcode": "44512", "addr:state": "OH", "amenity": "post_box", "brand": "United States Postal Service", "brand:wikidata": "Q668687", "collection_times": "Mo-Sa 09:45", "nsi_id": "unitedstatespostalservice-a77078", "operator": "United States Postal Service", "operator:short": "USPS", "operator:type": "public", "operator:wikidata": "Q668687", "ref": "4451200039"}, "type": "Feature"}
{"geometry": {"coordinates": [-80.6343639, 41.037958], "type": "Point"}, "id": "scSadrozJnbT3oZ1IE9Uu5ZbC_4=", "properties": {"@source_uri": "https://tools.usps.com/UspsToolsRestServices/rest/POLocator/findLocations", "@spider": "usps_collection_boxes", "addr:city": "YOUNGSTOWN", "addr:country": "US", "addr:full": "6151 SOUTH AVE", "addr:postcode": "44512", "addr:state": "OH", "amenity": "post_box", "brand": "United States Postal Service", "brand:wikidata": "Q668687", "collection_times": "Mo-Sa 10:30", "nsi_id": "unitedstatespostalservice-a77078", "operator": "United States Postal Service", "operator:short": "USPS", "operator:type": "public", "operator:wikidata": "Q668687", "ref": "4451200040"}, "type": "Feature"}
{"geometry": {"coordinates": [-80.6629482, 41.049886], "type": "Point"}, "id": "j48IE2FRZBBXzFtAzgnAhR2D6X4=", "properties": {"@source_uri": "https://tools.usps.com/UspsToolsRestServices/rest/POLocator/findLocations", "@spider": "usps_collection_boxes", "addr:city": "YOUNGSTOWN", "addr:country": "US", "addr:full": "4822 MARKET ST", "addr:postcode": "44512", "addr:state": "OH", "amenity": "post_box", "brand": "United States Postal Service", "brand:wikidata": "Q668687", "collection_times": "Mo-Sa 10:30", "nsi_id": "unitedstatespostalservice-a77078", "operator": "United States Postal Service", "operator:short": "USPS", "operator:type": "public", "operator:wikidata": "Q668687", "ref": "4451200046"}, "type": "Feature"}
{"geometry": {"coordinates": [-80.6626215, 41.052577], "type": "Point"}, "id": "xVQpJN0twscdxa0d-C0ztYyB2mQ=", "properties": {"@source_uri": "https://tools.usps.com/UspsToolsRestServices/rest/POLocator/findLocations", "@spider": "usps_collection_boxes", "addr:city": "YOUNGSTOWN", "addr:country": "US", "addr:full": "4521 MARKET ST", "addr:postcode": "44512", "addr:state": "OH", "amenity": "post_box", "brand": "United States Postal Service", "brand:wikidata": "Q668687", "collection_times": "Mo-Fr 09:00; Sa 08:30", "nsi_id": "unitedstatespostalservice-a77078", "operator": "United States Postal Service", "operator:short": "USPS", "operator:type": "public", "operator:wikidata": "Q668687", "ref": "4451200048"}, "type": "Feature"}
{"geometry": {"coordinates": [-80.6610638, 41.032773], "type": "Point"}, "id": "ABBD5qxbG6nEQVqLk3KPYcz0LQ0=", "properties": {"@source_uri": "https://tools.usps.com/UspsToolsRestServices/rest/POLocator/findLocations", "@spider": "usps_collection_boxes", "addr:city": "YOUNGSTOWN", "addr:country": "US", "addr:full": "6505 MARKET ST", "addr:postcode": "44512", "addr:state": "OH", "amenity": "post_box", "brand": "United States Postal Service", "brand:wikidata": "Q668687", "collection_times": "Mo-Fr 13:30; Sa 08:30", "note": "ON 12/24 AND 12/31, THIS BOX MAY BE COLLECTED AS EARLY AS 12 NOON.", "nsi_id": "unitedstatespostalservice-a77078", "operator": "United States Postal Service", "operator:short": "USPS", "operator:type": "public", "operator:wikidata": "Q668687", "ref": "4451200050"}, "type": "Feature"}
{"geometry": {"coordinates": [-80.6629311, 41.032744], "type": "Point"}, "id": "vl8E9tQfGmTKb5vOQa_TpwhOJiI=", "properties": {"@source_uri": "https://tools.usps.com/UspsToolsRestServices/rest/POLocator/findLocations", "@spider": "usps_collection_boxes", "addr:city": "YOUNGSTOWN", "addr:country": "US", "addr:full": "6426 MARKET ST", "addr:postcode": "44512", "addr:state": "OH", "amenity": "post_box", "brand": "United States Postal Service", "brand:wikidata": "Q668687", "collection_times": "Mo-Sa 09:30", "nsi_id": "unitedstatespostalservice-a77078", "operator": "United States Postal Service", "operator:short": "USPS", "operator:type": "public", "operator:wikidata": "Q668687", "ref": "4451200051"}, "type": "Feature"}
{"geometry": {"coordinates": [-80.6624370258, 41.0405710158], "type": "Point"}, "id": "di4Rp7TMo7mR0e3XgzV5tDNZA54=", "properties": {"@source_uri": "https://tools.usps.com/UspsToolsRestServices/rest/POLocator/findLocations", "@spider": "usps_collection_boxes", "addr:city": "YOUNGSTOWN", "addr:country": "US", "addr:full": "5701 MARKET ST", "addr:postcode": "44512", "addr:state": "OH", "amenity": "post_box", "brand": "United States Postal Service", "brand:wikidata": "Q668687", "collection_times": "Mo-Sa 09:00", "nsi_id": "unitedstatespostalservice-a77078", "operator": "United States Postal Service", "operator:short": "USPS", "operator:type": "public", "operator:wikidata": "Q668687", "ref": "4451200053"}, "type": "Feature"}
{"geometry": {"coordinates": [-80.6629316, 41.048102], "type": "Point"}, "id": "ykusXGv2QvuJ86zC3NEhac_BjWs=", "properties": {"@source_uri": "https://tools.usps.com/UspsToolsRestServices/rest/POLocator/findLocations", "@spider": "usps_collection_boxes", "addr:city": "YOUNGSTOWN", "addr:country": "US", "addr:full": "5020 MARKET ST", "addr:postcode": "44512", "addr:state": "OH", "amenity": "post_box", "brand": "United States Postal Service", "brand:wikidata": "Q668687", "collection_times": "Mo-Sa 10:30", "nsi_id": "unitedstatespostalservice-a77078", "operator": "United States Postal Service", "operator:short": "USPS", "operator:type": "public", "operator:wikidata": "Q668687", "ref": "4451200054"}, "type": "Feature"}
{"geometry": {"coordinates": [-80.6631314, 41.008502], "type": "Point"}, "id": "8EZA4Xm_NQbrXx2yu5f1EQRX0ng=", "properties": {"@source_uri": "https://tools.usps.com/UspsToolsRestServices/rest/POLocator/findLocations", "@spider": "usps_collection_boxes", "addr:city": "YOUNGSTOWN", "addr:country": "US", "addr:full": "7880 MARKET ST", "addr:postcode": "44512", "addr:state": "OH", "amenity": "post_box", "brand": "United States Postal Service", "brand:wikidata": "Q668687", "collection_times": "Mo-Sa 10:45", "nsi_id": "unitedstatespostalservice-a77078", "operator": "United States Postal Service", "operator:short": "USPS", "operator:type": "public", "operator:wikidata": "Q668687", "ref": "4451200055"}, "type": "Feature"}
{"geometry": {"coordinates": [-80.6593836, 41.014369], "type": "Point"}, "id": "-6EpvYU_0zVoVenOmH0ztKdWFO4=", "properties": {"@source_uri": "https://tools.usps.com/UspsToolsRestServices/rest/POLocator/findLocations", "@spider": "usps_collection_boxes", "addr:city": "YOUNGSTOWN", "addr:country": "US", "addr:full": "100 DEBARTOLO PL", "addr:postcode": "44512", "addr:state": "OH", "amenity": "post_box", "brand": "United States Postal Service", "brand:wikidata": "Q668687", "collection_times": "Mo-Fr 13:30", "note": "ON 12/24 AND 12/31, THIS BOX MAY BE COLLECTED AS EARLY AS 12 NOON.", "nsi_id": "unitedstatespostalservice-a77078", "operator": "United States Postal Service", "operator:short": "USPS", "operator:type": "public", "operator:wikidata": "Q668687", "ref": "4451200059"}, "type": "Feature"}
{"geometry": {"coordinates": [-80.654987, 41.01464], "type": "Point"}, "id": "iCgRQkMuG_pHT4CCtDxgtS9wGLE=", "properties": {"@source_uri": "https://tools.usps.com/UspsToolsRestServices/rest/POLocator/findLocations", "@spider": "usps_collection_boxes", "addr:city": "YOUNGSTOWN", "addr:country": "US", "addr:full": "250 DEBARTOLO PL", "addr:postcode": "44512", "addr:state": "OH", "amenity": "post_box", "brand": "United States Postal Service", "brand:wikidata": "Q668687", "collection_times": "Mo-Fr 13:30", "note": "ON 12/24 AND 12/31, THIS BOX MAY BE COLLECTED AS EARLY AS 12 NOON.", "nsi_id": "unitedstatespostalservice-a77078", "operator": "United States Postal Service", "operator:short": "USPS", "operator:type": "public", "operator:wikidata": "Q668687", "ref": "4451200061"}, "type": "Feature"}
{"geometry": {"coordinates": [-80.6895574, 41.023795], "type": "Point"}, "id": "oCcWtjSI0z2oC5DdNxGtbyghZ74=", "properties": {"@source_uri": "https://tools.usps.com/UspsToolsRestServices/rest/POLocator/findLocations", "@spider": "usps_collection_boxes", "addr:city": "YOUNGSTOWN", "addr:country": "US", "addr:full": "965 BOARDMAN CANFIELD RD", "addr:postcode": "44512", "addr:state": "OH", "amenity": "post_box", "brand": "United States Postal Service", "brand:wikidata": "Q668687", "collection_times": "Mo-Sa 13:45", "note": "ON 12/24 AND 12/31, THIS BOX MAY BE COLLECTED AS EARLY AS 12 NOON.", "nsi_id": "unitedstatespostalservice-a77078", "operator": "United States Postal Service", "operator:short": "USPS", "operator:type": "public", "operator:wikidata": "Q668687", "ref": "4451200063"}, "type": "Feature"}
{"geometry": {"coordinates": [-80.6458174, 41.022429], "type": "Point"}, "id": "BccpVEtS1tJTZCZlPUDYLaN7b78=", "properties": {"@source_uri": "https://tools.usps.com/UspsToolsRestServices/rest/POLocator/findLocations", "@spider": "usps_collection_boxes", "addr:city": "YOUNGSTOWN", "addr:country": "US", "addr:full": "431 BOARDMAN POLAND RD", "addr:postcode": "44512", "addr:state": "OH", "amenity": "post_box", "brand": "United States Postal Service", "brand:wikidata": "Q668687", "collection_times": "Mo-Sa 13:00", "note": "ON 12/24 AND 12/31, THIS BOX MAY BE COLLECTED AS EARLY AS 12 NOON.", "nsi_id": "unitedstatespostalservice-a77078", "operator": "United States Postal Service", "operator:short": "USPS", "operator:type": "public", "operator:wikidata": "Q668687", "ref": "4451200066"}, "type": "Feature"}
{"geometry": {"coordinates": [-80.6718852, 41.023982], "type": "Point"}, "id": "KkSlycsCkN6xLPzKKNYa87X8JDQ=", "properties": {"@source_uri": "https://tools.usps.com/UspsToolsRestServices/rest/POLocator/findLocations", "@spider": "usps_collection_boxes", "addr:city": "YOUNGSTOWN", "addr:country": "US", "addr:full": "285 BOARDMAN CANFIELD RD", "addr:postcode": "44512", "addr:state": "OH", "amenity": "post_box", "brand": "United States Postal Service", "brand:wikidata": "Q668687", "collection_times": "Mo-Sa 10:00", "nsi_id": "unitedstatespostalservice-a77078", "operator": "United States Postal Service", "operator:short": "USPS", "operator:type": "public", "operator:wikidata": "Q668687", "ref": "4451200067"}, "type": "Feature"}
{"geometry": {"coordinates": [-80.6793272, 41.027971], "type": "Point"}, "id": "UFJgRJ3ls_NgILW-7RxgF4IPWDE=", "properties": {"@source_uri": "https://tools.usps.com/UspsToolsRestServices/rest/POLocator/findLocations", "@spider": "usps_collection_boxes", "addr:city": "YOUNGSTOWN", "addr:country": "US", "addr:full": "500 BOARDMAN CANFIELD RD", "addr:postcode": "44512", "addr:state": "OH", "amenity": "post_box", "brand": "United States Postal Service", "brand:wikidata": "Q668687", "collection_times": "Mo-Sa 13:45", "note": "ON 12/24 AND 12/31, THIS BOX MAY BE COLLECTED AS EARLY AS 12 NOON.", "nsi_id": "unitedstatespostalservice-a77078", "operator": "United States Postal Service", "operator:short": "USPS", "operator:type": "public", "operator:wikidata": "Q668687", "ref": "4451200069"}, "type": "Feature"}
{"geometry": {"coordinates": [-80.6747141, 41.023381], "type": "Point"}, "id": "HLIg07iw3PzRPo0W37zTptC2K0Y=", "properties": {"@source_uri": "https://tools.usps.com/UspsToolsRestServices/rest/POLocator/findLocations", "@spider": "usps_collection_boxes", "addr:city": "YOUNGSTOWN", "addr:country": "US", "addr:full": "407 BOARDMAN CANFIELD RD", "addr:postcode": "44512", "addr:state": "OH", "amenity": "post_box", "brand": "United States Postal Service", "brand:wikidata": "Q668687", "collection_times": "Mo-Fr 17:00; Sa 14:00", "note": "ON 12/24 AND 12/31, THIS BOX MAY BE COLLECTED AS EARLY AS 12 NOON.", "nsi_id": "unitedstatespostalservice-a77078", "operator": "United States Postal Service", "operator:short": "USPS", "operator:type": "public", "operator:wikidata": "Q668687", "ref": "4451200070"}, "type": "Feature"}
{"geometry": {"coordinates": [-80.6752831, 41.023853], "type": "Point"}, "id": "QMjT9IREzldwMH2oVJbyg6SEurs=", "properties": {"@source_uri": "https://tools.usps.com/UspsToolsRestServices/rest/POLocator/findLocations", "@spider": "usps_collection_boxes", "addr:city": "YOUNGSTOWN", "addr:country": "US", "addr:full": "407 BOARDMAN CANFIELD RD", "addr:postcode": "44512", "addr:state": "OH", "amenity": "post_box", "brand": "United States Postal Service", "brand:wikidata": "Q668687", "collection_times": "Mo-Fr 17:45; Sa 16:15", "indoor": "yes", "note": "ON 12/24 AND 12/31, THIS BOX MAY BE COLLECTED AS EARLY AS 12 NOON.", "nsi_id": "unitedstatespostalservice-a77078", "operator": "United States Postal Service", "operator:short": "USPS", "operator:type": "public", "operator:wikidata": "Q668687", "ref": "4451200072"}, "type": "Feature"}
{"geometry": {"coordinates": [-80.6745818, 41.02389], "type": "Point"}, "id": "q9Gz2zJantuf9hKnlOz7dTofC6M=", "properties": {"@source_uri": "https://tools.usps.com/UspsToolsRestServices/rest/POLocator/findLocations", "@spider": "usps_collection_boxes", "addr:city": "YOUNGSTOWN", "addr:country": "US", "addr:full": "407 BOARDMAN CANFIELD RD", "addr:postcode": "44512", "addr:state": "OH", "amenity": "post_box", "brand": "United States Postal Service", "brand:wikidata": "Q668687", "collection_times": "Mo-Fr 17:00; Sa 14:00", "note": "ON 12/24 AND 12/31, THIS BOX MAY BE COLLECTED AS EARLY AS 12 NOON.", "nsi_id": "unitedstatespostalservice-a77078", "operator": "United States Postal Service", "operator:short": "USPS", "operator:type": "public", "operator:wikidata": "Q668687", "ref": "4451200073"}, "type": "Feature"}
{"geometry": {"coordinates": [-80.6745001, 41.023914], "type": "Point"}, "id": "TJ_D088pdtXLQU6g57NPu_3I4IE=", "properties": {"@source_uri": "https://tools.usps.com/UspsToolsRestServices/rest/POLocator/findLocations", "@spider": "usps_collection_boxes", "addr:city": "YOUNGSTOWN", "addr:country": "US", "addr:full": "407 BOARDMAN CANFIELD RD", "addr:postcode": "44512", "addr:state": "OH", "amenity": "post_box", "brand": "United States Postal Service", "brand:wikidata": "Q668687", "collection_times": "Mo-Fr 17:00; Sa 14:00", "name": "USPS COLLECTION BOX - EXPRESS", "note": "ON 12/24 AND 12/31, THIS BOX MAY BE COLLECTED AS EARLY AS 12 NOON.", "nsi_id": "unitedstatespostalservice-a77078", "operator": "United States Postal Service", "operator:short": "USPS", "operator:type": "public", "operator:wikidata": "Q668687", "ref": "4451200074"}, "type": "Feature"}
{"geometry": {"coordinates": [-80.6616718, 40.997544], "type": "Point"}, "id": "vuVDpXE_OzGOEaX-hazKixd3h1w=", "properties": {"@source_uri": "https://tools.usps.com/UspsToolsRestServices/rest/POLocator/findLocations", "@spider": "usps_collection_boxes", "addr:city": "YOUNGSTOWN", "addr:country": "US", "addr:full": "8299 MARKET ST", "addr:postcode": "44512", "addr:state": "OH", "amenity": "post_box", "brand": "United States Postal Service", "brand:wikidata": "Q668687", "collection_times": "Mo-Sa 10:00", "nsi_id": "unitedstatespostalservice-a77078", "operator": "United States Postal Service", "operator:short": "USPS", "operator:type": "public", "operator:wikidata": "Q668687", "ref": "4451200075"}, "type": "Feature"}
{"geometry": {"coordinates": [-80.6363295, 41.010592], "type": "Point"}, "id": "Z-C6mRPu8VLZZVM-ZluOQztcVNk=", "properties": {"@source_uri": "https://tools.usps.com/UspsToolsRestServices/rest/POLocator/findLocations", "@spider": "usps_collection_boxes", "addr:city": "YOUNGSTOWN", "addr:country": "US", "addr:full": "953 AUBURN HILLS DR", "addr:postcode": "44512", "addr:state": "OH", "amenity": "post_box", "brand": "United States Postal Service", "brand:wikidata": "Q668687", "collection_times": "Mo-Sa 14:15", "note": "ON 12/24 AND 12/31, THIS BOX MAY BE COLLECTED AS EARLY AS 12 NOON.", "nsi_id": "unitedstatespostalservice-a77078", "operator": "United States Postal Service", "operator:short": "USPS", "operator:type": "public", "operator:wikidata": "Q668687", "ref": "4451200079"}, "type": "Feature"}
{"geometry": {"coordinates": [-80.6850509, 41.023651], "type": "Point"}, "id": "OCdL5tT8I9MPzNgfrwuJMPJXnrg=", "properties": {"@source_uri": "https://tools.usps.com/UspsToolsRestServices/rest/POLocator/findLocations", "@spider": "usps_collection_boxes", "addr:city": "YOUNGSTOWN", "addr:country": "US", "addr:full": "755 BOARDMAN CANFIELD RD", "addr:postcode": "44512", "addr:state": "OH", "amenity": "post_box", "brand": "United States Postal Service", "brand:wikidata": "Q668687", "collection_times": "Mo-Fr 13:30; Sa 10:30", "note": "ON 12/24 AND 12/31, THIS BOX MAY BE COLLECTED AS EARLY AS 12 NOON.", "nsi_id": "unitedstatespostalservice-a77078", "operator": "United States Postal Service", "operator:short": "USPS", "operator:type": "public", "operator:wikidata": "Q668687", "ref": "4451200080"}, "type": "Feature"}
{"geometry": {"coordinates": [-80.7105712, 41.026239], "type": "Point"}, "id": "mO6Ho_STD3Lr5hugjltGrjsbkKs=", "properties": {"@source_uri": "https://tools.usps.com/UspsToolsRestServices/rest/POLocator/findLocations", "@spider": "usps_collection_boxes", "addr:city": "YOUNGSTOWN", "addr:country": "US", "addr:full": "7100 LOCKWOOD BLVD", "addr:postcode": "44512", "addr:state": "OH", "amenity": "post_box", "brand": "United States Postal Service", "brand:wikidata": "Q668687", "collection_times": "Mo-Fr 15:00; Sa 08:30", "note": "ON 12/24 AND 12/31, THIS BOX MAY BE COLLECTED AS EARLY AS 12 NOON.", "nsi_id": "unitedstatespostalservice-a77078", "operator": "United States Postal Service", "operator:short": "USPS", "operator:type": "public", "operator:wikidata": "Q668687", "ref": "4451200083"}, "type": "Feature"}
{"geometry": {"coordinates": [-80.6552214, 41.029044], "type": "Point"}, "id": "nqTIcq7MwXSVamrzWvOj4fBtMYQ=", "properties": {"@source_uri": "https://tools.usps.com/UspsToolsRestServices/rest/POLocator/findLocations", "@spider": "usps_collection_boxes", "addr:city": "YOUNGSTOWN", "addr:country": "US", "addr:full": "6981 SOUTHERN BLVD", "addr:postcode": "44512", "addr:state": "OH", "amenity": "post_box", "brand": "United States Postal Service", "brand:wikidata": "Q668687", "collection_times": "Mo-Sa 09:00", "nsi_id": "unitedstatespostalservice-a77078", "operator": "United States Postal Service", "operator:short": "USPS", "operator:type": "public", "operator:wikidata": "Q668687", "ref": "4451200084"}, "type": "Feature"}
{"geometry": {"coordinates": [-80.6629433, 41.049892], "type": "Point"}, "id": "av9qABbesip32RVY5iPUV6ECzO8=", "properties": {"@source_uri": "https://tools.usps.com/UspsToolsRestServices/rest/POLocator/findLocations", "@spider": "usps_collection_boxes", "addr:city": "YOUNGSTOWN", "addr:country": "US", "addr:full": "4822 MARKET ST", "addr:postcode": "44512", "addr:state": "OH", "amenity": "post_box", "brand": "United States Postal Service", "brand:wikidata": "Q668687", "collection_times": "Mo-Sa 10:30", "nsi_id": "unitedstatespostalservice-a77078", "operator": "United States Postal Service", "operator:short": "USPS", "operator:type": "public", "operator:wikidata": "Q668687", "ref": "4451200092"}, "type": "Feature"}
{"geometry": {"coordinates": [-80.6752153, 41.023873], "type": "Point"}, "id": "c88bd55RMNSjkVAE2Ktu3scFSyU=", "properties": {"@source_uri": "https://tools.usps.com/UspsToolsRestServices/rest/POLocator/findLocations", "@spider": "usps_collection_boxes", "addr:city": "YOUNGSTOWN", "addr:country": "US", "addr:full": "407 BOARDMAN CANFIELD RD", "addr:postcode": "44512", "addr:state": "OH", "amenity": "post_box", "brand": "United States Postal Service", "brand:wikidata": "Q668687", "collection_times": "Mo-Fr 17:45; Sa 16:15", "name": "USPS COLLECTION BOX - APC", "note": "ON 12/24 AND 12/31, THIS BOX MAY BE COLLECTED AS EARLY AS 12 NOON.", "nsi_id": "unitedstatespostalservice-a77078", "operator": "United States Postal Service", "operator:short": "USPS", "operator:type": "public", "operator:wikidata": "Q668687", "ref": "4451200093"}, "type": "Feature"}
{"geometry": {"coordinates": [-80.6375894, 41.028432], "type": "Point"}, "id": "7nStYudecSnvQPbVT6vqW5l4Bak=", "properties": {"@source_uri": "https://tools.usps.com/UspsToolsRestServices/rest/POLocator/findLocations", "@spider": "usps_collection_boxes", "addr:city": "YOUNGSTOWN", "addr:country": "US", "addr:full": "950 WINDHAM CT", "addr:postcode": "44512", "addr:state": "OH", "amenity": "post_box", "brand": "United States Postal Service", "brand:wikidata": "Q668687", "collection_times": "Mo-Fr 13:30; Sa 11:00", "note": "ON 12/24 AND 12/31, THIS BOX MAY BE COLLECTED AS EARLY AS 12 NOON.", "nsi_id": "unitedstatespostalservice-a77078", "operator": "United States Postal Service", "operator:short": "USPS", "operator:type": "public", "operator:wikidata": "Q668687", "ref": "4451200095"}, "type": "Feature"}
{"geometry": {"coordinates": [-80.674973277, 41.024414498], "type": "Point"}, "id": "ggXg6uVJqqJTAxSKr6TyAwDkcEQ=", "properties": {"@source_uri": "https://tools.usps.com/UspsToolsRestServices/rest/POLocator/findLocations", "@spider": "usps_collection_boxes", "addr:city": "YOUNGSTOWN", "addr:country": "US", "addr:full": "407 BOARDMAN CANFIELD RD", "addr:postcode": "44512", "addr:state": "OH", "amenity": "post_box", "brand": "United States Postal Service", "brand:wikidata": "Q668687", "collection_times": "Mo-Fr 17:30; Sa 14:00", "indoor": "yes", "note": "ON 12/24 AND 12/31, THIS BOX MAY BE COLLECTED AS EARLY AS 12 NOON.", "nsi_id": "unitedstatespostalservice-a77078", "operator": "United States Postal Service", "operator:short": "USPS", "operator:type": "public", "operator:wikidata": "Q668687", "ref": "4451200108"}, "type": "Feature"}
{"geometry": {"coordinates": [-80.617775, 41.024227], "type": "Point"}, "id": "weq4sy9uToiDrfsL1_DXUcBwxlY=", "properties": {"@source_uri": "https://tools.usps.com/UspsToolsRestServices/rest/POLocator/findLocations", "@spider": "usps_collection_boxes", "addr:city": "POLAND", "addr:country": "US", "addr:full": "125 W MCKINLEY WAY", "addr:postcode": "44514", "addr:state": "OH", "amenity": "post_box", "brand": "United States Postal Service", "brand:wikidata": "Q668687", "collection_times": "Mo-Fr 17:00; Sa 16:00", "note": "ON 12/24 AND 12/31, THIS BOX MAY BE COLLECTED AS EARLY AS 12 NOON.", "nsi_id": "unitedstatespostalservice-a77078", "operator": "United States Postal Service", "operator:short": "USPS", "operator:type": "public", "operator:wikidata": "Q668687", "ref": "4451400000"}, "type": "Feature"}
{"geometry": {"coordinates": [-80.617675, 41.024254], "type": "Point"}, "id": "0N64FfK93CiKh4f6dQJtCJXikao=", "properties": {"@source_uri": "https://tools.usps.com/UspsToolsRestServices/rest/POLocator/findLocations", "@spider": "usps_collection_boxes", "addr:city": "POLAND", "addr:country": "US", "addr:full": "125 W MCKINLEY WAY", "addr:postcode": "44514", "addr:state": "OH", "amenity": "post_box", "brand": "United States Postal Service", "brand:wikidata": "Q668687", "collection_times": "Mo-Fr 17:00; Sa 16:00", "name": "USPS COLLECTION BOX - EXPRESS", "note": "ON 12/24 AND 12/31, THIS BOX MAY BE COLLECTED AS EARLY AS 12 NOON.", "nsi_id": "unitedstatespostalservice-a77078", "operator": "United States Postal Service", "operator:short": "USPS", "operator:type": "public", "operator:wikidata": "Q668687", "ref": "4451400001"}, "type": "Feature"}
{"geometry": {"coordinates": [-80.630399, 41.024287], "type": "Point"}, "id": "5l5xvSekaVtf4KIcVG7dVRW_jcU=", "properties": {"@source_uri": "https://tools.usps.com/UspsToolsRestServices/rest/POLocator/findLocations", "@spider": "usps_collection_boxes", "addr:city": "POLAND", "addr:country": "US", "addr:full": "1300 BOARDMAN POLAND RD", "addr:postcode": "44514", "addr:state": "OH", "amenity": "post_box", "brand": "United States Postal Service", "brand:wikidata": "Q668687", "collection_times": "Mo-Sa 09:30", "nsi_id": "unitedstatespostalservice-a77078", "operator": "United States Postal Service", "operator:short": "USPS", "operator:type": "public", "operator:wikidata": "Q668687", "ref": "4451400003"}, "type": "Feature"}
{"geometry": {"coordinates": [-80.614982, 41.024855], "type": "Point"}, "id": "CFR7qsuBP_g6_f9yN7zOPcjl3og=", "properties": {"@source_uri": "https://tools.usps.com/UspsToolsRestServices/rest/POLocator/findLocations", "@spider": "usps_collection_boxes", "addr:city": "POLAND", "addr:country": "US", "addr:full": "30 N MAIN ST", "addr:postcode": "44514", "addr:state": "OH", "amenity": "post_box", "brand": "United States Postal Service", "brand:wikidata": "Q668687", "collection_times": "Mo-Sa 09:00", "nsi_id": "unitedstatespostalservice-a77078", "operator": "United States Postal Service", "operator:short": "USPS", "operator:type": "public", "operator:wikidata": "Q668687", "ref": "4451400004"}, "type": "Feature"}
{"geometry": {"coordinates": [-80.6127258, 41.022972], "type": "Point"}, "id": "C75MAkPue4wAbJI_FRZYsfhpHw8=", "properties": {"@source_uri": "https://tools.usps.com/UspsToolsRestServices/rest/POLocator/findLocations", "@spider": "usps_collection_boxes", "addr:city": "POLAND", "addr:country": "US", "addr:full": "202 S MAIN ST", "addr:postcode": "44514", "addr:state": "OH", "amenity": "post_box", "brand": "United States Postal Service", "brand:wikidata": "Q668687", "collection_times": "Mo-Sa 09:30", "nsi_id": "unitedstatespostalservice-a77078", "operator": "United States Postal Service", "operator:short": "USPS", "operator:type": "public", "operator:wikidata": "Q668687", "ref": "4451400005"}, "type": "Feature"}
{"geometry": {"coordinates": [-80.6213628, 41.054875], "type": "Point"}, "id": "vCF_BtW7f7mVfTgJRL62P4ZJ6xA=", "properties": {"@source_uri": "https://tools.usps.com/UspsToolsRestServices/rest/POLocator/findLocations", "@spider": "usps_collection_boxes", "addr:city": "POLAND", "addr:country": "US", "addr:full": "4427 SHERIDAN RD", "addr:postcode": "44514", "addr:state": "OH", "amenity": "post_box", "brand": "United States Postal Service", "brand:wikidata": "Q668687", "collection_times": "Mo-Sa 12:00", "nsi_id": "unitedstatespostalservice-a77078", "operator": "United States Postal Service", "operator:short": "USPS", "operator:type": "public", "operator:wikidata": "Q668687", "ref": "4451400011"}, "type": "Feature"}
{"geometry": {"coordinates": [-80.6025321, 41.029633], "type": "Point"}, "id": "JLCqKcaGWY7w1xawsSqa_dH71DU=", "properties": {"@source_uri": "https://tools.usps.com/UspsToolsRestServices/rest/POLocator/findLocations", "@spider": "usps_collection_boxes", "addr:city": "POLAND", "addr:country": "US", "addr:full": "2602 ALGONQUIN DR", "addr:postcode": "44514", "addr:state": "OH", "amenity": "post_box", "brand": "United States Postal Service", "brand:wikidata": "Q668687", "collection_times": "Mo-Sa 10:30", "nsi_id": "unitedstatespostalservice-a77078", "operator": "United States Postal Service", "operator:short": "USPS", "operator:type": "public", "operator:wikidata": "Q668687", "ref": "4451400012"}, "type": "Feature"}
{"geometry": {"coordinates": [-80.6364755, 40.990536], "type": "Point"}, "id": "BWYaLUrVFAyl__HBmz4D2g41WL4=", "properties": {"@source_uri": "https://tools.usps.com/UspsToolsRestServices/rest/POLocator/findLocations", "@spider": "usps_collection_boxes", "addr:city": "POLAND", "addr:country": "US", "addr:full": "835 SOUTHWESTERN RUN", "addr:postcode": "44514", "addr:state": "OH", "amenity": "post_box", "brand": "United States Postal Service", "brand:wikidata": "Q668687", "collection_times": "Mo-Sa 11:00", "nsi_id": "unitedstatespostalservice-a77078", "operator": "United States Postal Service", "operator:short": "USPS", "operator:type": "public", "operator:wikidata": "Q668687", "ref": "4451400013"}, "type": "Feature"}
{"geometry": {"coordinates": [-80.6364817, 40.990539], "type": "Point"}, "id": "-FDTUSIGO7NZShpq9RH9MDYVuBo=", "properties": {"@source_uri": "https://tools.usps.com/UspsToolsRestServices/rest/POLocator/findLocations", "@spider": "usps_collection_boxes", "addr:city": "POLAND", "addr:country": "US", "addr:full": "835 SOUTHWESTERN RUN", "addr:postcode": "44514", "addr:state": "OH", "amenity": "post_box", "brand": "United States Postal Service", "brand:wikidata": "Q668687", "collection_times": "Mo-Sa 11:00", "nsi_id": "unitedstatespostalservice-a77078", "operator": "United States Postal Service", "operator:short": "USPS", "operator:type": "public", "operator:wikidata": "Q668687", "ref": "4451400014"}, "type": "Feature"}
{"geometry": {"coordinates": [-80.6333049, 40.991662], "type": "Point"}, "id": "zcdAUn8NzR5l4RBr-1TWJswcI3Y=", "properties": {"@source_uri": "https://tools.usps.com/UspsToolsRestServices/rest/POLocator/findLocations", "@spider": "usps_collection_boxes", "addr:city": "POLAND", "addr:country": "US", "addr:full": "8433 SOUTH AVE", "addr:postcode": "44514", "addr:state": "OH", "amenity": "post_box", "brand": "United States Postal Service", "brand:wikidata": "Q668687", "collection_times": "Mo-Sa 09:30", "nsi_id": "unitedstatespostalservice-a77078", "operator": "United States Postal Service", "operator:short": "USPS", "operator:type": "public", "operator:wikidata": "Q668687", "ref": "4451400015"}, "type": "Feature"}
{"geometry": {"coordinates": [-80.5930807, 41.02416], "type": "Point"}, "id": "e2n4MJkoNJNUyWkP1sU62ckqDek=", "properties": {"@source_uri": "https://tools.usps.com/UspsToolsRestServices/rest/POLocator/findLocations", "@spider": "usps_collection_boxes", "addr:city": "POLAND", "addr:country": "US", "addr:full": "3130 CENTER RD", "addr:postcode": "44514", "addr:state": "OH", "amenity": "post_box", "brand": "United States Postal Service", "brand:wikidata": "Q668687", "collection_times": "Mo-Sa 11:00", "nsi_id": "unitedstatespostalservice-a77078", "operator": "United States Postal Service", "operator:short": "USPS", "operator:type": "public", "operator:wikidata": "Q668687", "ref": "4451400016"}, "type": "Feature"}
{"geometry": {"coordinates": [-80.5885062, 41.00565], "type": "Point"}, "id": "BbDP6Zx9mCSna18it-lWC4b40Og=", "properties": {"@source_uri": "https://tools.usps.com/UspsToolsRestServices/rest/POLocator/findLocations", "@spider": "usps_collection_boxes", "addr:city": "POLAND", "addr:country": "US", "addr:full": "3339 DOBBINS RD", "addr:postcode": "44514", "addr:state": "OH", "amenity": "post_box", "brand": "United States Postal Service", "brand:wikidata": "Q668687", "collection_times": "Mo-Sa 13:30", "note": "ON 12/24 AND 12/31, THIS BOX MAY BE COLLECTED AS EARLY AS 12 NOON.", "nsi_id": "unitedstatespostalservice-a77078", "operator": "United States Postal Service", "operator:short": "USPS", "operator:type": "public", "operator:wikidata": "Q668687", "ref": "4451400017"}, "type": "Feature"}
{"geometry": {"coordinates": [-80.6161289, 41.025443], "type": "Point"}, "id": "nM584KUjzNz1hmFeok0gW8oeT84=", "properties": {"@source_uri": "https://tools.usps.com/UspsToolsRestServices/rest/POLocator/findLocations", "@spider": "usps_collection_boxes", "addr:city": "POLAND", "addr:country": "US", "addr:full": "25 SHERIDAN RD", "addr:postcode": "44514", "addr:state": "OH", "amenity": "post_box", "brand": "United States Postal Service", "brand:wikidata": "Q668687", "collection_times": "Mo-Sa 15:00", "note": "ON 12/24 AND 12/31, THIS BOX MAY BE COLLECTED AS EARLY AS 12 NOON.", "nsi_id": "unitedstatespostalservice-a77078", "operator": "United States Postal Service", "operator:short": "USPS", "operator:type": "public", "operator:wikidata": "Q668687", "ref": "4451400021"}, "type": "Feature"}
{"geometry": {"coordinates": [-80.617675, 41.024254], "type": "Point"}, "id": "cOF0kOPIEAR7CmlYugtl0LXsCcU=", "properties": {"@source_uri": "https://tools.usps.com/UspsToolsRestServices/rest/POLocator/findLocations", "@spider": "usps_collection_boxes", "addr:city": "POLAND", "addr:country": "US", "addr:full": "125 W MCKINLEY WAY", "addr:postcode": "44514", "addr:state": "OH", "amenity": "post_box", "brand": "United States Postal Service", "brand:wikidata": "Q668687", "collection_times": "Mo-Fr 17:00; Sa 16:00", "indoor": "yes", "note": "ON 12/24 AND 12/31, THIS BOX MAY BE COLLECTED AS EARLY AS 12 NOON.", "nsi_id": "unitedstatespostalservice-a77078", "operator": "United States Postal Service", "operator:short": "USPS", "operator:type": "public", "operator:wikidata": "Q668687", "ref": "4451400022"}, "type": "Feature"}
{"geometry": {"coordinates": [-80.617675, 41.024254], "type": "Point"}, "id": "40jEjmhrcJxzVuaRZ0R0TzTtB28=", "properties": {"@source_uri": "https://tools.usps.com/UspsToolsRestServices/rest/POLocator/findLocations", "@spider": "usps_collection_boxes", "addr:city": "POLAND", "addr:country": "US", "addr:full": "125 W MCKINLEY WAY", "addr:postcode": "44514", "addr:state": "OH", "amenity": "post_box", "brand": "United States Postal Service", "brand:wikidata": "Q668687", "collection_times": "Mo-Fr 17:00; Sa 16:00", "name": "USPS COLLECTION BOX - APC", "note": "ON 12/24 AND 12/31, THIS BOX MAY BE COLLECTED AS EARLY AS 12 NOON.", "nsi_id": "unitedstatespostalservice-a77078", "operator": "United States Postal Service", "operator:short": "USPS", "operator:type": "public", "operator:wikidata": "Q668687", "ref": "4451400023"}, "type": "Feature"}
{"geometry": {"coordinates": [-80.617675, 41.024254], "type": "Point"}, "id": "2Q9klADbsuSQTpkTvd3YnkT3t2M=", "properties": {"@source_uri": "https://tools.usps.com/UspsToolsRestServices/rest/POLocator/findLocations", "@spider": "usps_collection_boxes", "addr:city": "POLAND", "addr:country": "US", "addr:full": "125 W MCKINLEY WAY", "addr:postcode": "44514", "addr:state": "OH", "amenity": "post_box", "brand": "United States Postal Service", "brand:wikidata": "Q668687", "collection_times": "Mo-Fr 17:00; Sa 16:00", "indoor": "yes", "note": "ON 12/24 AND 12/31, THIS BOX MAY BE COLLECTED AS EARLY AS 12 NOON.", "nsi_id": "unitedstatespostalservice-a77078", "operator": "United States Postal Service", "operator:short": "USPS", "operator:type": "public", "operator:wikidata": "Q668687", "ref": "4451400024"}, "type": "Feature"}
{"geometry": {"coordinates": [-80.6299589, 41.022309], "type": "Point"}, "id": "OT5wiEGJtNqABJ7qXe6M09PHIsM=", "properties": {"@source_uri": "https://tools.usps.com/UspsToolsRestServices/rest/POLocator/findLocations", "@spider": "usps_collection_boxes", "addr:city": "POLAND", "addr:country": "US", "addr:full": "1275 BOARDMAN POLAND RD", "addr:postcode": "44514", "addr:state": "OH", "amenity": "post_box", "brand": "United States Postal Service", "brand:wikidata": "Q668687", "collection_times": "Mo-Sa 10:30", "nsi_id": "unitedstatespostalservice-a77078", "operator": "United States Postal Service", "operator:short": "USPS", "operator:type": "public", "operator:wikidata": "Q668687", "ref": "4451400025"}, "type": "Feature"}
{"geometry": {"coordinates": [-80.6017608, 41.019681], "type": "Point"}, "id": "DiOtaDO1ruO8gXDDtHeKn00geW4=", "properties": {"@source_uri": "https://tools.usps.com/UspsToolsRestServices/rest/POLocator/findLocations", "@spider": "usps_collection_boxes", "addr:city": "POLAND", "addr:country": "US", "addr:full": "110 NESBITT ST", "addr:postcode": "44514", "addr:state": "OH", "amenity": "post_box", "brand": "United States Postal Service", "brand:wikidata": "Q668687", "collection_times": "Mo-Sa 11:00", "nsi_id": "unitedstatespostalservice-a77078", "operator": "United States Postal Service", "operator:short": "USPS", "operator:type": "public", "operator:wikidata": "Q668687", "ref": "4451400026"}, "type": "Feature"}
{"geometry": {"coordinates": [-80.6328066, 41.021789], "type": "Point"}, "id": "NW0YPH7mXmGrrNtSXO9dwyNB9YY=", "properties": {"@source_uri": "https://tools.usps.com/UspsToolsRestServices/rest/POLocator/findLocations", "@spider": "usps_collection_boxes", "addr:city": "POLAND", "addr:country": "US", "addr:full": "1040 S COMMONS PL", "addr:postcode": "44514", "addr:state": "OH", "amenity": "post_box", "brand": "United States Postal Service", "brand:wikidata": "Q668687", "collection_times": "Mo-Sa 10:00", "nsi_id": "unitedstatespostalservice-a77078", "operator": "United States Postal Service", "operator:short": "USPS", "operator:type": "public", "operator:wikidata": "Q668687", "ref": "4451400027"}, "type": "Feature"}
{"geometry": {"coordinates": [-80.617748684, 41.024174249], "type": "Point"}, "id": "luWhGVmfm9cMHAHldVuQcKUm7KQ=", "properties": {"@source_uri": "https://tools.usps.com/UspsToolsRestServices/rest/POLocator/findLocations", "@spider": "usps_collection_boxes", "addr:city": "POLAND", "addr:country": "US", "addr:full": "125 W MCKINLEY WAY", "addr:postcode": "44514", "addr:state": "OH", "amenity": "post_box", "brand": "United States Postal Service", "brand:wikidata": "Q668687", "collection_times": "Mo-Fr 17:00; Sa 13:00", "indoor": "yes", "note": "ON 12/24 AND 12/31, THIS BOX MAY BE COLLECTED AS EARLY AS 12 NOON.", "nsi_id": "unitedstatespostalservice-a77078", "operator": "United States Postal Service", "operator:short": "USPS", "operator:type": "public", "operator:wikidata": "Q668687", "ref": "4451400031"}, "type": "Feature"}
{"geometry": {"coordinates": [-80.774571, 41.10176], "type": "Point"}, "id": "wnOov1yxHLaP5Jsrsc1dfvB2QSo=", "properties": {"@source_uri": "https://tools.usps.com/UspsToolsRestServices/rest/POLocator/findLocations", "@spider": "usps_collection_boxes", "addr:city": "YOUNGSTOWN", "addr:country": "US", "addr:full": "6000 MAHONING AVE", "addr:postcode": "44515", "addr:state": "OH", "amenity": "post_box", "brand": "United States Postal Service", "brand:wikidata": "Q668687", "collection_times": "Mo-Fr 17:00; Sa 14:30", "note": "ON 12/24 AND 12/31, THIS BOX MAY BE COLLECTED AS EARLY AS 12 NOON.", "nsi_id": "unitedstatespostalservice-a77078", "operator": "United States Postal Service", "operator:short": "USPS", "operator:type": "public", "operator:wikidata": "Q668687", "ref": "4451500001"}, "type": "Feature"}
{"geometry": {"coordinates": [-80.774571, 41.10176], "type": "Point"}, "id": "13Mu42ErltT7E2pyr_6CRGYOBgM=", "properties": {"@source_uri": "https://tools.usps.com/UspsToolsRestServices/rest/POLocator/findLocations", "@spider": "usps_collection_boxes", "addr:city": "YOUNGSTOWN", "addr:country": "US", "addr:full": "6000 MAHONING AVE", "addr:postcode": "44515", "addr:state": "OH", "amenity": "post_box", "brand": "United States Postal Service", "brand:wikidata": "Q668687", "collection_times": "Mo-Fr 17:00; Sa 14:30", "name": "USPS COLLECTION BOX - EXPRESS", "note": "ON 12/24 AND 12/31, THIS BOX MAY BE COLLECTED AS EARLY AS 12 NOON.", "nsi_id": "unitedstatespostalservice-a77078", "operator": "United States Postal Service", "operator:short": "USPS", "operator:type": "public", "operator:wikidata": "Q668687", "ref": "4451500002"}, "type": "Feature"}
{"geometry": {"coordinates": [-80.7306918, 41.082138], "type": "Point"}, "id": "j6qzeTgICFM6osXWP4Q2eodPq8k=", "properties": {"@source_uri": "https://tools.usps.com/UspsToolsRestServices/rest/POLocator/findLocations", "@spider": "usps_collection_boxes", "addr:city": "YOUNGSTOWN", "addr:country": "US", "addr:full": "1731 S RACCOON RD", "addr:postcode": "44515", "addr:state": "OH", "amenity": "post_box", "brand": "United States Postal Service", "brand:wikidata": "Q668687", "collection_times": "Mo-Fr 11:30; Sa 11:00", "nsi_id": "unitedstatespostalservice-a77078", "operator": "United States Postal Service", "operator:short": "USPS", "operator:type": "public", "operator:wikidata": "Q668687", "ref": "4451500005"}, "type": "Feature"}
{"geometry": {"coordinates": [-80.7558473, 41.098938], "type": "Point"}, "id": "btP7qe-6jZiQjhySUbnC2b9NQD8=", "properties": {"@source_uri": "https://tools.usps.com/UspsToolsRestServices/rest/POLocator/findLocations", "@spider": "usps_collection_boxes", "addr:city": "YOUNGSTOWN", "addr:country": "US", "addr:full": "5211 MAHONING AVE", "addr:postcode": "44515", "addr:state": "OH", "amenity": "post_box", "brand": "United States Postal Service", "brand:wikidata": "Q668687", "collection_times": "Mo-Sa 10:00", "nsi_id": "unitedstatespostalservice-a77078", "operator": "United States Postal Service", "operator:short": "USPS", "operator:type": "public", "operator:wikidata": "Q668687", "ref": "4451500007"}, "type": "Feature"}
{"geometry": {"coordinates": [-80.7848206, 41.101341], "type": "Point"}, "id": "M_XxJSMPfRTlpBWf71792BS5YFc=", "properties": {"@source_uri": "https://tools.usps.com/UspsToolsRestServices/rest/POLocator/findLocations", "@spider": "usps_collection_boxes", "addr:city": "YOUNGSTOWN", "addr:country": "US", "addr:full": "44 VICTORIA RD", "addr:postcode": "44515", "addr:state": "OH", "amenity": "post_box", "brand": "United States Postal Service", "brand:wikidata": "Q668687", "collection_times": "Mo-Fr 10:10; Sa 09:30", "nsi_id": "unitedstatespostalservice-a77078", "operator": "United States Postal Service", "operator:short": "USPS", "operator:type": "public", "operator:wikidata": "Q668687", "ref": "4451500009"}, "type": "Feature"}
{"geometry": {"coordinates": [-80.7795278, 41.11153], "type": "Point"}, "id": "MQi78FhUAgvcVAd99_wwwQvb6YE=", "properties": {"@source_uri": "https://tools.usps.com/UspsToolsRestServices/rest/POLocator/findLocations", "@spider": "usps_collection_boxes", "addr:city": "YOUNGSTOWN", "addr:country": "US", "addr:full": "380 VICTORIA RD", "addr:postcode": "44515", "addr:state": "OH", "amenity": "post_box", "brand": "United States Postal Service", "brand:wikidata": "Q668687", "collection_times": "Mo-Sa 09:30", "nsi_id": "unitedstatespostalservice-a77078", "operator": "United States Postal Service", "operator:short": "USPS", "operator:type": "public", "operator:wikidata": "Q668687", "ref": "4451500011"}, "type": "Feature"}
{"geometry": {"coordinates": [-80.7608023, 41.099362], "type": "Point"}, "id": "jqZQjxNcWRebjIPQxqPTPRfesz8=", "properties": {"@source_uri": "https://tools.usps.com/UspsToolsRestServices/rest/POLocator/findLocations", "@spider": "usps_collection_boxes", "addr:city": "YOUNGSTOWN", "addr:country": "US", "addr:full": "5437 MAHONING AVE", "addr:postcode": "44515", "addr:state": "OH", "amenity": "post_box", "brand": "United States Postal Service", "brand:wikidata": "Q668687", "collection_times": "Mo-Fr 15:00; Sa 09:00", "note": "ON 12/24 AND 12/31, THIS BOX MAY BE COLLECTED AS EARLY AS 12 NOON.", "nsi_id": "unitedstatespostalservice-a77078", "operator": "United States Postal Service", "operator:short": "USPS", "operator:type": "public", "operator:wikidata": "Q668687", "ref": "4451500015"}, "type": "Feature"}
{"geometry": {"coordinates": [-80.723509, 41.103434], "type": "Point"}, "id": "Dwm-ztKpEujnAngtZK2exjHljNU=", "properties": {"@source_uri": "https://tools.usps.com/UspsToolsRestServices/rest/POLocator/findLocations", "@spider": "usps_collection_boxes", "addr:city": "YOUNGSTOWN", "addr:country": "US", "addr:full": "33 N WICKLIFFE CIR", "addr:postcode": "44515", "addr:state": "OH", "amenity": "post_box", "brand": "United States Postal Service", "brand:wikidata": "Q668687", "collection_times": "Mo-Sa 09:00", "nsi_id": "unitedstatespostalservice-a77078", "operator": "United States Postal Service", "operator:short": "USPS", "operator:type": "public", "operator:wikidata": "Q668687", "ref": "4451500017"}, "type": "Feature"}
{"geometry": {"coordinates": [-80.7486557, 41.097647], "type": "Point"}, "id": "ddklJogHDAKa-pIWS0cU0O0x7H8=", "properties": {"@source_uri": "https://tools.usps.com/UspsToolsRestServices/rest/POLocator/findLocations", "@spider": "usps_collection_boxes", "addr:city": "YOUNGSTOWN", "addr:country": "US", "addr:full": "100 WESTCHESTER DR", "addr:postcode": "44515", "addr:state": "OH", "amenity": "post_box", "brand": "United States Postal Service", "brand:wikidata": "Q668687", "collection_times": "Mo-Sa 10:45", "nsi_id": "unitedstatespostalservice-a77078", "operator": "United States Postal Service", "operator:short": "USPS", "operator:type": "public", "operator:wikidata": "Q668687", "ref": "4451500018"}, "type": "Feature"}
{"geometry": {"coordinates": [-80.7258357, 41.102457], "type": "Point"}, "id": "i4wauWnuXVJZlO2msBxoULZsWks=", "properties": {"@source_uri": "https://tools.usps.com/UspsToolsRestServices/rest/POLocator/findLocations", "@spider": "usps_collection_boxes", "addr:city": "YOUNGSTOWN", "addr:country": "US", "addr:full": "4195 MAHONING AVE", "addr:postcode": "44515", "addr:state": "OH", "amenity": "post_box", "brand": "United States Postal Service", "brand:wikidata": "Q668687", "collection_times": "Mo-Sa 09:30", "nsi_id": "unitedstatespostalservice-a77078", "operator": "United States Postal Service", "operator:short": "USPS", "operator:type": "public", "operator:wikidata": "Q668687", "ref": "4451500020"}, "type": "Feature"}
{"geometry": {"coordinates": [-80.7642879, 41.1025], "type": "Point"}, "id": "gQiJrmk-SbTyZJdpLviipFasnd4=", "properties": {"@source_uri": "https://tools.usps.com/UspsToolsRestServices/rest/POLocator/findLocations", "@spider": "usps_collection_boxes", "addr:city": "YOUNGSTOWN", "addr:country": "US", "addr:full": "60 N CANFIELD NILES RD", "addr:postcode": "44515", "addr:state": "OH", "amenity": "post_box", "brand": "United States Postal Service", "brand:wikidata": "Q668687", "collection_times": "Mo-Sa 09:00", "nsi_id": "unitedstatespostalservice-a77078", "operator": "United States Postal Service", "operator:short": "USPS", "operator:type": "public", "operator:wikidata": "Q668687", "ref": "4451500022"}, "type": "Feature"}
{"geometry": {"coordinates": [-80.7631019, 41.100787], "type": "Point"}, "id": "sXvL71GRACMHoAJtBSpksNPkz2o=", "properties": {"@source_uri": "https://tools.usps.com/UspsToolsRestServices/rest/POLocator/findLocations", "@spider": "usps_collection_boxes", "addr:city": "YOUNGSTOWN", "addr:country": "US", "addr:full": "25 N CANFIELD NILES RD", "addr:postcode": "44515", "addr:state": "OH", "amenity": "post_box", "brand": "United States Postal Service", "brand:wikidata": "Q668687", "collection_times": "Mo-Sa 09:00", "nsi_id": "unitedstatespostalservice-a77078", "operator": "United States Postal Service", "operator:short": "USPS", "operator:type": "public", "operator:wikidata": "Q668687", "ref": "4451500023"}, "type": "Feature"}
{"geometry": {"coordinates": [-80.7649095, 41.098055], "type": "Point"}, "id": "VKfP2YbhwRLxkqHZC6abX7pW_TA=", "properties": {"@source_uri": "https://tools.usps.com/UspsToolsRestServices/rest/POLocator/findLocations", "@spider": "usps_collection_boxes", "addr:city": "YOUNGSTOWN", "addr:country": "US", "addr:full": "5509 MAHONING AVE", "addr:postcode": "44515", "addr:state": "OH", "amenity": "post_box", "brand": "United States Postal Service", "brand:wikidata": "Q668687", "collection_times": "Mo-Fr 11:30; Sa 10:30", "nsi_id": "unitedstatespostalservice-a77078", "operator": "United States Postal Service", "operator:short": "USPS", "operator:type": "public", "operator:wikidata": "Q668687", "ref": "4451500025"}, "type": "Feature"}
{"geometry": {"coordinates": [-80.7325753, 41.101698], "type": "Point"}, "id": "N7ogQYtO1nQkGtG4U7OAap51LlE=", "properties": {"@source_uri": "https://tools.usps.com/UspsToolsRestServices/rest/POLocator/findLocations", "@spider": "usps_collection_boxes", "addr:city": "YOUNGSTOWN", "addr:country": "US", "addr:full": "4409 MAHONING AVE", "addr:postcode": "44515", "addr:state": "OH", "amenity": "post_box", "brand": "United States Postal Service", "brand:wikidata": "Q668687", "collection_times": "Mo-Sa 09:00", "nsi_id": "unitedstatespostalservice-a77078", "operator": "United States Postal Service", "operator:short": "USPS", "operator:type": "public", "operator:wikidata": "Q668687", "ref": "4451500026"}, "type": "Feature"}
{"geometry": {"coordinates": [-80.7378459, 41.094761], "type": "Point"}, "id": "eQHgza2FIH2gQ9ZL5nGX7Ghnf-0=", "properties": {"@source_uri": "https://tools.usps.com/UspsToolsRestServices/rest/POLocator/findLocations", "@spider": "usps_collection_boxes", "addr:city": "YOUNGSTOWN", "addr:country": "US", "addr:full": "478 S RACCOON RD", "addr:postcode": "44515", "addr:state": "OH", "amenity": "post_box", "brand": "United States Postal Service", "brand:wikidata": "Q668687", "collection_times": "Mo-Sa 11:00", "nsi_id": "unitedstatespostalservice-a77078", "operator": "United States Postal Service", "operator:short": "USPS", "operator:type": "public", "operator:wikidata": "Q668687", "ref": "4451500029"}, "type": "Feature"}
{"geometry": {"coordinates": [-80.7368619, 41.068786], "type": "Point"}, "id": "F9MsPUht8D8nCoaWM_O1ZPSmBUo=", "properties": {"@source_uri": "https://tools.usps.com/UspsToolsRestServices/rest/POLocator/findLocations", "@spider": "usps_collection_boxes", "addr:city": "YOUNGSTOWN", "addr:country": "US", "addr:full": "4500 KIRK RD", "addr:postcode": "44515", "addr:state": "OH", "amenity": "post_box", "brand": "United States Postal Service", "brand:wikidata": "Q668687", "collection_times": "Mo-Fr 15:00; Sa 11:00", "note": "ON 12/24 AND 12/31, THIS BOX MAY BE COLLECTED AS EARLY AS 12 NOON.", "nsi_id": "unitedstatespostalservice-a77078", "operator": "United States Postal Service", "operator:short": "USPS", "operator:type": "public", "operator:wikidata": "Q668687", "ref": "4451500030"}, "type": "Feature"}
{"geometry": {"coordinates": [-80.7217522, 41.089933], "type": "Point"}, "id": "Vm_Iy_j-mLprvhKwvy1ivAKYRLE=", "properties": {"@source_uri": "https://tools.usps.com/UspsToolsRestServices/rest/POLocator/findLocations", "@spider": "usps_collection_boxes", "addr:city": "YOUNGSTOWN", "addr:country": "US", "addr:full": "1050 COMPASS WEST DR", "addr:postcode": "44515", "addr:state": "OH", "amenity": "post_box", "brand": "United States Postal Service", "brand:wikidata": "Q668687", "collection_times": "Mo-Fr 10:15; Sa 09:00", "nsi_id": "unitedstatespostalservice-a77078", "operator": "United States Postal Service", "operator:short": "USPS", "operator:type": "public", "operator:wikidata": "Q668687", "ref": "4451500031"}, "type": "Feature"}
{"geometry": {"coordinates": [-80.7486633, 41.097661], "type": "Point"}, "id": "X-oSuIEE6MFCMqVbOz2Ld7TBSNY=", "properties": {"@source_uri": "https://tools.usps.com/UspsToolsRestServices/rest/POLocator/findLocations", "@spider": "usps_collection_boxes", "addr:city": "YOUNGSTOWN", "addr:country": "US", "addr:full": "100 WESTCHESTER DR", "addr:postcode": "44515", "addr:state": "OH", "amenity": "post_box", "brand": "United States Postal Service", "brand:wikidata": "Q668687", "collection_times": "Mo-Sa 10:45", "nsi_id": "unitedstatespostalservice-a77078", "operator": "United States Postal Service", "operator:short": "USPS", "operator:type": "public", "operator:wikidata": "Q668687", "ref": "4451500037"}, "type": "Feature"}
{"geometry": {"coordinates": [-80.774571, 41.10176], "type": "Point"}, "id": "jg039n2ckkrjc383Tl0QJ6ZuK7Q=", "properties": {"@source_uri": "https://tools.usps.com/UspsToolsRestServices/rest/POLocator/findLocations", "@spider": "usps_collection_boxes", "addr:city": "YOUNGSTOWN", "addr:country": "US", "addr:full": "6000 MAHONING AVE", "addr:postcode": "44515", "addr:state": "OH", "amenity": "post_box", "brand": "United States Postal Service", "brand:wikidata": "Q668687", "collection_times": "Mo-Fr 17:00; Sa 16:00", "indoor": "yes", "note": "ON 12/24 AND 12/31, THIS BOX MAY BE COLLECTED AS EARLY AS 12 NOON.", "nsi_id": "unitedstatespostalservice-a77078", "operator": "United States Postal Service", "operator:short": "USPS", "operator:type": "public", "operator:wikidata": "Q668687", "ref": "4451500039"}, "type": "Feature"}
{"geometry": {"coordinates": [-80.7657507, 41.122469], "type": "Point"}, "id": "vjqqIdBcgSqJgZhvdVuv52p74EM=", "properties": {"@source_uri": "https://tools.usps.com/UspsToolsRestServices/rest/POLocator/findLocations", "@spider": "usps_collection_boxes", "addr:city": "YOUNGSTOWN", "addr:country": "US", "addr:full": "5400 76 DR", "addr:postcode": "44515", "addr:state": "OH", "amenity": "post_box", "brand": "United States Postal Service", "brand:wikidata": "Q668687", "collection_times": "Mo-Fr 10:15; Sa 09:00", "nsi_id": "unitedstatespostalservice-a77078", "operator": "United States Postal Service", "operator:short": "USPS", "operator:type": "public", "operator:wikidata": "Q668687", "ref": "4451500040"}, "type": "Feature"}
{"geometry": {"coordinates": [-80.774571, 41.10176], "type": "Point"}, "id": "k0M7d3U9ew7tzU3QLTvhC69q3w0=", "properties": {"@source_uri": "https://tools.usps.com/UspsToolsRestServices/rest/POLocator/findLocations", "@spider": "usps_collection_boxes", "addr:city": "YOUNGSTOWN", "addr:country": "US", "addr:full": "6000 MAHONING AVE", "addr:postcode": "44515", "addr:state": "OH", "amenity": "post_box", "brand": "United States Postal Service", "brand:wikidata": "Q668687", "collection_times": "Mo-Fr 17:00; Sa 16:00", "name": "USPS COLLECTION BOX - APC", "note": "ON 12/24 AND 12/31, THIS BOX MAY BE COLLECTED AS EARLY AS 12 NOON.", "nsi_id": "unitedstatespostalservice-a77078", "operator": "United States Postal Service", "operator:short": "USPS", "operator:type": "public", "operator:wikidata": "Q668687", "ref": "4451500042"}, "type": "Feature"}
{"geometry": {"coordinates": [-80.77345251, 41.099605527], "type": "Point"}, "id": "6rltW9Y70pIiiYkIgRckJLm_V_Q=", "properties": {"@source_uri": "https://tools.usps.com/UspsToolsRestServices/rest/POLocator/findLocations", "@spider": "usps_collection_boxes", "addr:city": "YOUNGSTOWN", "addr:country": "US", "addr:full": "6000 MAHONING AVE", "addr:postcode": "44515", "addr:state": "OH", "amenity": "post_box", "brand": "United States Postal Service", "brand:wikidata": "Q668687", "collection_times": "Mo-Fr 17:00; Sa 13:00", "indoor": "yes", "note": "ON 12/24 AND 12/31, THIS BOX MAY BE COLLECTED AS EARLY AS 12 NOON.", "nsi_id": "unitedstatespostalservice-a77078", "operator": "United States Postal Service", "operator:short": "USPS", "operator:type": "public", "operator:wikidata": "Q668687", "ref": "4451500046"}, "type": "Feature"}
