{"geometry": {"coordinates": [-84.055888, 38.776123], "type": "Point"}, "id": "vJcKz5iF5o8Dltn0wMYxXJcj2sg=", "properties": {"@spider": "usps_collection_boxes", "addr:city": "N GEORGETOWN", "addr:country": "US", "addr:full": "27416 MAIN ST", "addr:postcode": "44665", "addr:state": "OH", "brand": "USPS", "collection_times": "Mo-Fr 16:00; Sa 10:45", "name": "USPS COLLECTION BOX - PO LOBBY", "note": "ON 12/24 AND 12/31, THIS BOX MAY BE COLLECTED AS EARLY AS 12 NOON.", "ref": "4466500001"}, "type": "Feature"}
{"geometry": {"coordinates": [-84.055888, 38.776123], "type": "Point"}, "id": "iRNC7xQ1GPJnv1DNv9-tRSFpW88=", "properties": {"@spider": "usps_collection_boxes", "addr:city": "N GEORGETOWN", "addr:country": "US", "addr:full": "27416 MAIN ST", "addr:postcode": "44665", "addr:state": "OH", "brand": "USPS", "collection_times": "Mo-Fr 16:00; Sa 10:45", "name": "USPS COLLECTION BOX - BLUE BOX", "note": "ON 12/24 AND 12/31, THIS BOX MAY BE COLLECTED AS EARLY AS 12 NOON.", "ref": "4466500002"}, "type": "Feature"}
