{"geometry": {"coordinates": [-81.3750568, 40.79804], "type": "Point"}, "id": "fJSDYsFRFhO9OHSG88b36Hz_RdI=", "properties": {"@source_uri": "https://tools.usps.com/UspsToolsRestServices/rest/POLocator/findLocations", "@spider": "usps_collection_boxes", "addr:city": "CANTON", "addr:country": "US", "addr:postcode": "44702", "addr:state": "OH", "addr:street_address": "110 CENTRAL PLZ S", "amenity": "post_box", "collection_times": "Mo-Fr 11:00", "nsi_id": "unitedstatespostalservice-a77078", "operator": "United States Postal Service", "operator:short": "USPS", "operator:type": "public", "operator:wikidata": "Q668687", "ref": "4470200061"}, "type": "Feature"}
{"geometry": {"coordinates": [-81.3733099, 40.798046], "type": "Point"}, "id": "8QONE6JS51To_oE9KrK1Qq3k6_s=", "properties": {"@source_uri": "https://tools.usps.com/UspsToolsRestServices/rest/POLocator/findLocations", "@spider": "usps_collection_boxes", "addr:city": "CANTON", "addr:country": "US", "addr:postcode": "44702", "addr:state": "OH", "addr:street_address": "237 TUSCARAWAS ST E", "amenity": "post_box", "collection_times": "Mo-Fr 11:00", "nsi_id": "unitedstatespostalservice-a77078", "operator": "United States Postal Service", "operator:short": "USPS", "operator:type": "public", "operator:wikidata": "Q668687", "ref": "4470200066"}, "type": "Feature"}
{"geometry": {"coordinates": [-81.3745004, 40.797151], "type": "Point"}, "id": "B6V2vHprX9glnSMMLjn35x_D9JY=", "properties": {"@source_uri": "https://tools.usps.com/UspsToolsRestServices/rest/POLocator/findLocations", "@spider": "usps_collection_boxes", "addr:city": "CANTON", "addr:country": "US", "addr:postcode": "44702", "addr:state": "OH", "addr:street_address": "220 MARKET AVE S", "amenity": "post_box", "collection_times": "Mo-Fr 11:00", "nsi_id": "unitedstatespostalservice-a77078", "operator": "United States Postal Service", "operator:short": "USPS", "operator:type": "public", "operator:wikidata": "Q668687", "ref": "4470200067"}, "type": "Feature"}
{"geometry": {"coordinates": [-81.3723764, 40.796641], "type": "Point"}, "id": "L7VskFtW8Fc_71tnqSApYYoHVMc=", "properties": {"@source_uri": "https://tools.usps.com/UspsToolsRestServices/rest/POLocator/findLocations", "@spider": "usps_collection_boxes", "addr:city": "CANTON", "addr:country": "US", "addr:postcode": "44702", "addr:state": "OH", "addr:street_address": "250 REX AVE SE", "amenity": "post_box", "collection_times": "Mo-Fr 11:00", "nsi_id": "unitedstatespostalservice-a77078", "operator": "United States Postal Service", "operator:short": "USPS", "operator:type": "public", "operator:wikidata": "Q668687", "ref": "4470200069"}, "type": "Feature"}
{"geometry": {"coordinates": [-81.3729825, 40.799979], "type": "Point"}, "id": "JmXZMHYtOAgaOxmwFAyDhJHjGog=", "properties": {"@source_uri": "https://tools.usps.com/UspsToolsRestServices/rest/POLocator/findLocations", "@spider": "usps_collection_boxes", "addr:city": "CANTON", "addr:country": "US", "addr:postcode": "44702", "addr:state": "OH", "addr:street_address": "201 3RD ST NE", "amenity": "post_box", "collection_times": "Mo-Fr 11:00", "nsi_id": "unitedstatespostalservice-a77078", "operator": "United States Postal Service", "operator:short": "USPS", "operator:type": "public", "operator:wikidata": "Q668687", "ref": "4470200070"}, "type": "Feature"}
{"geometry": {"coordinates": [-81.3773609, 40.799008], "type": "Point"}, "id": "vPDq_Jin0F0pRfQvugckowWhXlU=", "properties": {"@source_uri": "https://tools.usps.com/UspsToolsRestServices/rest/POLocator/findLocations", "@spider": "usps_collection_boxes", "addr:city": "CANTON", "addr:country": "US", "addr:postcode": "44702", "addr:state": "OH", "addr:street_address": "315 TUSCARAWAS ST W", "amenity": "post_box", "collection_times": "Mo-Fr 11:00", "nsi_id": "unitedstatespostalservice-a77078", "operator": "United States Postal Service", "operator:short": "USPS", "operator:type": "public", "operator:wikidata": "Q668687", "ref": "4470200077"}, "type": "Feature"}
{"geometry": {"coordinates": [-81.37531, 40.799685], "type": "Point"}, "id": "RUe_QYyeY5_EP5vjUgF14C0EZPs=", "properties": {"@source_uri": "https://tools.usps.com/UspsToolsRestServices/rest/POLocator/findLocations", "@spider": "usps_collection_boxes", "addr:city": "CANTON", "addr:country": "US", "addr:postcode": "44702", "addr:state": "OH", "addr:street_address": "201 CLEVELAND AVE", "amenity": "post_box", "collection_times": "Mo-Sa 11:00", "nsi_id": "unitedstatespostalservice-a77078", "operator": "United States Postal Service", "operator:short": "USPS", "operator:type": "public", "operator:wikidata": "Q668687", "ref": "4470200079"}, "type": "Feature"}
{"geometry": {"coordinates": [-81.3760719, 40.79596], "type": "Point"}, "id": "5zbzyDbIoLbTR5IK_eydN_LVqek=", "properties": {"@source_uri": "https://tools.usps.com/UspsToolsRestServices/rest/POLocator/findLocations", "@spider": "usps_collection_boxes", "addr:city": "CANTON", "addr:country": "US", "addr:postcode": "44702", "addr:state": "OH", "addr:street_address": "220 4TH ST SW", "amenity": "post_box", "collection_times": "Mo-Sa 17:00", "note": "ON 12/24 AND 12/31, THIS BOX MAY BE COLLECTED AS EARLY AS 12 NOON.", "nsi_id": "unitedstatespostalservice-a77078", "operator": "United States Postal Service", "operator:short": "USPS", "operator:type": "public", "operator:wikidata": "Q668687", "ref": "4470200082"}, "type": "Feature"}
{"geometry": {"coordinates": [-81.376605, 40.796564], "type": "Point"}, "id": "qZgqK0-UVux40o1_M4jf4hnArkY=", "properties": {"@source_uri": "https://tools.usps.com/UspsToolsRestServices/rest/POLocator/findLocations", "@spider": "usps_collection_boxes", "addr:city": "CANTON", "addr:country": "US", "addr:postcode": "44702", "addr:state": "OH", "addr:street_address": "220 4TH ST SW", "amenity": "post_box", "collection_times": "Mo-Fr 17:00; Sa 16:00", "indoor": "yes", "note": "ON 12/24 AND 12/31, THIS BOX MAY BE COLLECTED AS EARLY AS 12 NOON.", "nsi_id": "unitedstatespostalservice-a77078", "operator": "United States Postal Service", "operator:short": "USPS", "operator:type": "public", "operator:wikidata": "Q668687", "ref": "4470200085"}, "type": "Feature"}
{"geometry": {"coordinates": [-81.376605, 40.796564], "type": "Point"}, "id": "aDwcoBRChFGUn128V3si0M6A1No=", "properties": {"@source_uri": "https://tools.usps.com/UspsToolsRestServices/rest/POLocator/findLocations", "@spider": "usps_collection_boxes", "addr:city": "CANTON", "addr:country": "US", "addr:postcode": "44702", "addr:state": "OH", "addr:street_address": "220 4TH ST SW", "amenity": "post_box", "collection_times": "Mo-Fr 17:00; Sa 16:00", "indoor": "yes", "note": "ON 12/24 AND 12/31, THIS BOX MAY BE COLLECTED AS EARLY AS 12 NOON.", "nsi_id": "unitedstatespostalservice-a77078", "operator": "United States Postal Service", "operator:short": "USPS", "operator:type": "public", "operator:wikidata": "Q668687", "ref": "4470200086"}, "type": "Feature"}
{"geometry": {"coordinates": [-81.3741434, 40.799965], "type": "Point"}, "id": "MhKmPRGA2pi2pxa8YFMHOuYYp08=", "properties": {"@source_uri": "https://tools.usps.com/UspsToolsRestServices/rest/POLocator/findLocations", "@spider": "usps_collection_boxes", "addr:city": "CANTON", "addr:country": "US", "addr:postcode": "44702", "addr:state": "OH", "addr:street_address": "300 MARKET AVE N", "amenity": "post_box", "collection_times": "Mo-Sa 11:00", "nsi_id": "unitedstatespostalservice-a77078", "operator": "United States Postal Service", "operator:short": "USPS", "operator:type": "public", "operator:wikidata": "Q668687", "ref": "4470200088"}, "type": "Feature"}
{"geometry": {"coordinates": [-81.3722124, 40.803211], "type": "Point"}, "id": "O0Lguu2gsuNg8au_7vMR6GVh_fY=", "properties": {"@source_uri": "https://tools.usps.com/UspsToolsRestServices/rest/POLocator/findLocations", "@spider": "usps_collection_boxes", "addr:city": "CANTON", "addr:country": "US", "addr:postcode": "44702", "addr:state": "OH", "addr:street_address": "800 MARKET AVE N", "amenity": "post_box", "collection_times": "Mo-Sa 11:00", "nsi_id": "unitedstatespostalservice-a77078", "operator": "United States Postal Service", "operator:short": "USPS", "operator:type": "public", "operator:wikidata": "Q668687", "ref": "4470200091"}, "type": "Feature"}
{"geometry": {"coordinates": [-81.3801682, 40.799361], "type": "Point"}, "id": "HOa6BySHkhEslz2CN5MvgC0QqWY=", "properties": {"@source_uri": "https://tools.usps.com/UspsToolsRestServices/rest/POLocator/findLocations", "@spider": "usps_collection_boxes", "addr:city": "CANTON", "addr:country": "US", "addr:postcode": "44702", "addr:state": "OH", "addr:street_address": "700 TUSCARAWAS ST W", "amenity": "post_box", "collection_times": "Mo-Fr 11:15", "nsi_id": "unitedstatespostalservice-a77078", "operator": "United States Postal Service", "operator:short": "USPS", "operator:type": "public", "operator:wikidata": "Q668687", "ref": "4470200094"}, "type": "Feature"}
{"geometry": {"coordinates": [-81.3764424, 40.799128], "type": "Point"}, "id": "JJ9M9MnNttt2HWMQz16slLH4xH4=", "properties": {"@source_uri": "https://tools.usps.com/UspsToolsRestServices/rest/POLocator/findLocations", "@spider": "usps_collection_boxes", "addr:city": "CANTON", "addr:country": "US", "addr:postcode": "44702", "addr:state": "OH", "addr:street_address": "116 CLEVELAND AVE NW", "amenity": "post_box", "collection_times": "Mo-Fr 11:30", "nsi_id": "unitedstatespostalservice-a77078", "operator": "United States Postal Service", "operator:short": "USPS", "operator:type": "public", "operator:wikidata": "Q668687", "ref": "4470200095"}, "type": "Feature"}
{"geometry": {"coordinates": [-81.3734624, 40.798996], "type": "Point"}, "id": "_Yf9onwK4EU_fSWLnLVTqCBRVNI=", "properties": {"@source_uri": "https://tools.usps.com/UspsToolsRestServices/rest/POLocator/findLocations", "@spider": "usps_collection_boxes", "addr:city": "CANTON", "addr:country": "US", "addr:postcode": "44702", "addr:state": "OH", "addr:street_address": "202 2ND ST NE", "amenity": "post_box", "collection_times": "Mo-Fr 11:00", "nsi_id": "unitedstatespostalservice-a77078", "operator": "United States Postal Service", "operator:short": "USPS", "operator:type": "public", "operator:wikidata": "Q668687", "ref": "4470200098"}, "type": "Feature"}
{"geometry": {"coordinates": [-81.3753489, 40.80149], "type": "Point"}, "id": "k2JOlQ-GdrHB96IolNwNdAyCKnU=", "properties": {"@source_uri": "https://tools.usps.com/UspsToolsRestServices/rest/POLocator/findLocations", "@spider": "usps_collection_boxes", "addr:city": "CANTON", "addr:country": "US", "addr:postcode": "44702", "addr:state": "OH", "addr:street_address": "340 5TH ST NW", "amenity": "post_box", "collection_times": "Mo-Fr 11:30", "nsi_id": "unitedstatespostalservice-a77078", "operator": "United States Postal Service", "operator:short": "USPS", "operator:type": "public", "operator:wikidata": "Q668687", "ref": "4470200103"}, "type": "Feature"}
{"geometry": {"coordinates": [-81.3792676, 40.797786], "type": "Point"}, "id": "opAdfCTEEfRHvsjGniyXe7HqPD0=", "properties": {"@source_uri": "https://tools.usps.com/UspsToolsRestServices/rest/POLocator/findLocations", "@spider": "usps_collection_boxes", "addr:city": "CANTON", "addr:country": "US", "addr:postcode": "44702", "addr:state": "OH", "addr:street_address": "401 MCKINLEY AVE SW", "amenity": "post_box", "collection_times": "Mo-Fr 11:00", "nsi_id": "unitedstatespostalservice-a77078", "operator": "United States Postal Service", "operator:short": "USPS", "operator:type": "public", "operator:wikidata": "Q668687", "ref": "4470200108"}, "type": "Feature"}
{"geometry": {"coordinates": [-81.376436913, 40.796505755], "type": "Point"}, "id": "4hD-K5UlN4kdKb6Ca3xfWGFhM18=", "properties": {"@source_uri": "https://tools.usps.com/UspsToolsRestServices/rest/POLocator/findLocations", "@spider": "usps_collection_boxes", "addr:city": "CANTON", "addr:country": "US", "addr:postcode": "44702", "addr:state": "OH", "addr:street_address": "220 4TH ST SW", "amenity": "post_box", "collection_times": "Mo-Sa 17:00", "indoor": "yes", "note": "ON 12/24 AND 12/31, THIS BOX MAY BE COLLECTED AS EARLY AS 12 NOON.", "nsi_id": "unitedstatespostalservice-a77078", "operator": "United States Postal Service", "operator:short": "USPS", "operator:type": "public", "operator:wikidata": "Q668687", "ref": "4470200110"}, "type": "Feature"}
{"geometry": {"coordinates": [-81.3722635, 40.813896], "type": "Point"}, "id": "3qJLYNDieIMwFq5earlSSr2HP-A=", "properties": {"@source_uri": "https://tools.usps.com/UspsToolsRestServices/rest/POLocator/findLocations", "@spider": "usps_collection_boxes", "addr:city": "CANTON", "addr:country": "US", "addr:postcode": "44703", "addr:state": "OH", "addr:street_address": "205 15TH ST NW", "amenity": "post_box", "collection_times": "Mo-Fr 14:00", "note": "ON 12/24 AND 12/31, THIS BOX MAY BE COLLECTED AS EARLY AS 12 NOON.", "nsi_id": "unitedstatespostalservice-a77078", "operator": "United States Postal Service", "operator:short": "USPS", "operator:type": "public", "operator:wikidata": "Q668687", "ref": "4470300027"}, "type": "Feature"}
{"geometry": {"coordinates": [-81.3490474, 40.828421], "type": "Point"}, "id": "7cK0uZ8MMBbX2mBNyePlXLwmG8o=", "properties": {"@source_uri": "https://tools.usps.com/UspsToolsRestServices/rest/POLocator/findLocations", "@spider": "usps_collection_boxes", "addr:city": "CANTON", "addr:country": "US", "addr:postcode": "44705", "addr:state": "OH", "addr:street_address": "1930 SPANGLER RD NE", "amenity": "post_box", "collection_times": "Mo-Fr 17:00; Sa 16:15", "note": "ON 12/24 AND 12/31, THIS BOX MAY BE COLLECTED AS EARLY AS 12 NOON.", "nsi_id": "unitedstatespostalservice-a77078", "operator": "United States Postal Service", "operator:short": "USPS", "operator:type": "public", "operator:wikidata": "Q668687", "ref": "4470500059"}, "type": "Feature"}
{"geometry": {"coordinates": [-81.3490299, 40.828412], "type": "Point"}, "id": "kczP0b91H2D3GA5gkaAt9K8LPIA=", "properties": {"@source_uri": "https://tools.usps.com/UspsToolsRestServices/rest/POLocator/findLocations", "@spider": "usps_collection_boxes", "addr:city": "CANTON", "addr:country": "US", "addr:postcode": "44705", "addr:state": "OH", "addr:street_address": "1930 SPANGLER RD NE", "amenity": "post_box", "collection_times": "Mo-Fr 17:00; Sa 16:15", "name": "USPS COLLECTION BOX - EXPRESS", "note": "ON 12/24 AND 12/31, THIS BOX MAY BE COLLECTED AS EARLY AS 12 NOON.", "nsi_id": "unitedstatespostalservice-a77078", "operator": "United States Postal Service", "operator:short": "USPS", "operator:type": "public", "operator:wikidata": "Q668687", "ref": "4470500060"}, "type": "Feature"}
{"geometry": {"coordinates": [-81.349981, 40.828535], "type": "Point"}, "id": "-KDXxrLApWAa56vJFDZxPuJVILk=", "properties": {"@source_uri": "https://tools.usps.com/UspsToolsRestServices/rest/POLocator/findLocations", "@spider": "usps_collection_boxes", "addr:city": "CANTON", "addr:country": "US", "addr:postcode": "44705", "addr:state": "OH", "addr:street_address": "1930 SPANGLER RD NE", "amenity": "post_box", "collection_times": "Mo-Fr 17:00; Sa 16:15", "indoor": "yes", "note": "ON 12/24 AND 12/31, THIS BOX MAY BE COLLECTED AS EARLY AS 12 NOON.", "nsi_id": "unitedstatespostalservice-a77078", "operator": "United States Postal Service", "operator:short": "USPS", "operator:type": "public", "operator:wikidata": "Q668687", "ref": "4470500061"}, "type": "Feature"}
{"geometry": {"coordinates": [-81.3250973, 40.819678], "type": "Point"}, "id": "Zcx2qJKM-nEZcoDeJCNSLZ0vwE0=", "properties": {"@source_uri": "https://tools.usps.com/UspsToolsRestServices/rest/POLocator/findLocations", "@spider": "usps_collection_boxes", "addr:city": "CANTON", "addr:country": "US", "addr:postcode": "44705", "addr:state": "OH", "addr:street_address": "3501 MAHONING RD NE", "amenity": "post_box", "collection_times": "Mo-Sa 13:00", "note": "ON 12/24 AND 12/31, THIS BOX MAY BE COLLECTED AS EARLY AS 12 NOON.", "nsi_id": "unitedstatespostalservice-a77078", "operator": "United States Postal Service", "operator:short": "USPS", "operator:type": "public", "operator:wikidata": "Q668687", "ref": "4470500062"}, "type": "Feature"}
{"geometry": {"coordinates": [-81.3490846918, 40.8284555062], "type": "Point"}, "id": "Y7nLwxol_E-uDp7FaKdt99aw5YM=", "properties": {"@source_uri": "https://tools.usps.com/UspsToolsRestServices/rest/POLocator/findLocations", "@spider": "usps_collection_boxes", "addr:city": "CANTON", "addr:country": "US", "addr:postcode": "44705", "addr:state": "OH", "addr:street_address": "1930 SPANGLER RD NE", "amenity": "post_box", "collection_times": "Mo-Fr 17:00; Sa 12:00", "indoor": "yes", "note": "ON 12/24 AND 12/31, THIS BOX MAY BE COLLECTED AS EARLY AS 12 NOON.", "nsi_id": "unitedstatespostalservice-a77078", "operator": "United States Postal Service", "operator:short": "USPS", "operator:type": "public", "operator:wikidata": "Q668687", "ref": "4470500067"}, "type": "Feature"}
{"geometry": {"coordinates": [-81.3997106, 40.783587], "type": "Point"}, "id": "CuoSGvPtAeNgpP4pIKk12RMo1p8=", "properties": {"@source_uri": "https://tools.usps.com/UspsToolsRestServices/rest/POLocator/findLocations", "@spider": "usps_collection_boxes", "addr:city": "CANTON", "addr:country": "US", "addr:postcode": "44706", "addr:state": "OH", "addr:street_address": "2226 15TH ST SW", "amenity": "post_box", "collection_times": "Mo-Sa 10:00", "nsi_id": "unitedstatespostalservice-a77078", "operator": "United States Postal Service", "operator:short": "USPS", "operator:type": "public", "operator:wikidata": "Q668687", "ref": "4470600052"}, "type": "Feature"}
{"geometry": {"coordinates": [-81.4086118, 40.780626], "type": "Point"}, "id": "IcG9Obr_y6GabIkxL0gYRId0AhE=", "properties": {"@source_uri": "https://tools.usps.com/UspsToolsRestServices/rest/POLocator/findLocations", "@spider": "usps_collection_boxes", "addr:city": "CANTON", "addr:country": "US", "addr:postcode": "44706", "addr:state": "OH", "addr:street_address": "3004 17TH ST SW", "amenity": "post_box", "collection_times": "Mo-Fr 12:30; Sa 10:00", "note": "ON 12/24 AND 12/31, THIS BOX MAY BE COLLECTED AS EARLY AS 12 NOON.", "nsi_id": "unitedstatespostalservice-a77078", "operator": "United States Postal Service", "operator:short": "USPS", "operator:type": "public", "operator:wikidata": "Q668687", "ref": "4470600053"}, "type": "Feature"}
{"geometry": {"coordinates": [-81.4703427, 40.755878], "type": "Point"}, "id": "410Y6e9iaZ0Bvro50QRqJSl11Po=", "properties": {"@source_uri": "https://tools.usps.com/UspsToolsRestServices/rest/POLocator/findLocations", "@spider": "usps_collection_boxes", "addr:city": "CANTON", "addr:country": "US", "addr:postcode": "44706", "addr:state": "OH", "addr:street_address": "6195 NAVARRE RD SW", "amenity": "post_box", "collection_times": "Mo-Fr 11:00; Sa 10:30", "nsi_id": "unitedstatespostalservice-a77078", "operator": "United States Postal Service", "operator:short": "USPS", "operator:type": "public", "operator:wikidata": "Q668687", "ref": "4470600055"}, "type": "Feature"}
{"geometry": {"coordinates": [-81.3949979, 40.778633], "type": "Point"}, "id": "yGxZy58p1Cn9VoCjmK-iAWfOZls=", "properties": {"@source_uri": "https://tools.usps.com/UspsToolsRestServices/rest/POLocator/findLocations", "@spider": "usps_collection_boxes", "addr:city": "CANTON", "addr:country": "US", "addr:postcode": "44706", "addr:state": "OH", "addr:street_address": "1835 DUEBER AVE SW", "amenity": "post_box", "collection_times": "Mo-Fr 12:30; Sa 10:00", "note": "ON 12/24 AND 12/31, THIS BOX MAY BE COLLECTED AS EARLY AS 12 NOON.", "nsi_id": "unitedstatespostalservice-a77078", "operator": "United States Postal Service", "operator:short": "USPS", "operator:type": "public", "operator:wikidata": "Q668687", "ref": "4470600057"}, "type": "Feature"}
{"geometry": {"coordinates": [-81.3981805, 40.78879], "type": "Point"}, "id": "RijdZPfxV2Ja200elPFpZyh2OdA=", "properties": {"@source_uri": "https://tools.usps.com/UspsToolsRestServices/rest/POLocator/findLocations", "@spider": "usps_collection_boxes", "addr:city": "CANTON", "addr:country": "US", "addr:postcode": "44706", "addr:state": "OH", "addr:street_address": "1260 HARRISON AVE SW", "amenity": "post_box", "collection_times": "Mo-Fr 12:30; Sa 10:00", "note": "ON 12/24 AND 12/31, THIS BOX MAY BE COLLECTED AS EARLY AS 12 NOON.", "nsi_id": "unitedstatespostalservice-a77078", "operator": "United States Postal Service", "operator:short": "USPS", "operator:type": "public", "operator:wikidata": "Q668687", "ref": "4470600058"}, "type": "Feature"}
{"geometry": {"coordinates": [-81.406577, 40.728008], "type": "Point"}, "id": "Fb2_hQqqu9HSRLMxtYw9Qq6RscI=", "properties": {"@source_uri": "https://tools.usps.com/UspsToolsRestServices/rest/POLocator/findLocations", "@spider": "usps_collection_boxes", "addr:city": "CANTON", "addr:country": "US", "addr:postcode": "44706", "addr:state": "OH", "addr:street_address": "5600 JOLEDA DR SW", "amenity": "post_box", "collection_times": "Mo-Fr 13:00; Sa 10:45", "note": "ON 12/24 AND 12/31, THIS BOX MAY BE COLLECTED AS EARLY AS 12 NOON.", "nsi_id": "unitedstatespostalservice-a77078", "operator": "United States Postal Service", "operator:short": "USPS", "operator:type": "public", "operator:wikidata": "Q668687", "ref": "4470600059"}, "type": "Feature"}
{"geometry": {"coordinates": [-81.4378695, 40.781679], "type": "Point"}, "id": "fTjLXNGiBu9RsBklgYx3Sf51HXo=", "properties": {"@source_uri": "https://tools.usps.com/UspsToolsRestServices/rest/POLocator/findLocations", "@spider": "usps_collection_boxes", "addr:city": "CANTON", "addr:country": "US", "addr:postcode": "44706", "addr:state": "OH", "addr:street_address": "1818 HOPPLE AVE SW", "amenity": "post_box", "collection_times": "Mo-Fr 10:30; Sa 10:15", "nsi_id": "unitedstatespostalservice-a77078", "operator": "United States Postal Service", "operator:short": "USPS", "operator:type": "public", "operator:wikidata": "Q668687", "ref": "4470600060"}, "type": "Feature"}
{"geometry": {"coordinates": [-81.3936223, 40.797789], "type": "Point"}, "id": "NApTv7IvFEDqL31N3mDbrvG3Aak=", "properties": {"@source_uri": "https://tools.usps.com/UspsToolsRestServices/rest/POLocator/findLocations", "@spider": "usps_collection_boxes", "addr:city": "CANTON", "addr:country": "US", "addr:postcode": "44706", "addr:state": "OH", "addr:street_address": "220 DUEBER AVE SW", "amenity": "post_box", "collection_times": "Mo-Fr 12:00; Sa 12:15", "name": "USPS COLLECTION BOX - EXPRESS", "note": "ON 12/24 AND 12/31, THIS BOX MAY BE COLLECTED AS EARLY AS 12 NOON.", "nsi_id": "unitedstatespostalservice-a77078", "operator": "United States Postal Service", "operator:short": "USPS", "operator:type": "public", "operator:wikidata": "Q668687", "ref": "4470600062"}, "type": "Feature"}
{"geometry": {"coordinates": [-81.3674119, 40.743984], "type": "Point"}, "id": "RKjqzI4CnYXtugLxaHW-E7_C0Ic=", "properties": {"@source_uri": "https://tools.usps.com/UspsToolsRestServices/rest/POLocator/findLocations", "@spider": "usps_collection_boxes", "addr:city": "CANTON", "addr:country": "US", "addr:postcode": "44707", "addr:state": "OH", "addr:street_address": "4711 CENTRAL AVE SE", "amenity": "post_box", "collection_times": "Mo-Fr 13:30", "note": "ON 12/24 AND 12/31, THIS BOX MAY BE COLLECTED AS EARLY AS 12 NOON.", "nsi_id": "unitedstatespostalservice-a77078", "operator": "United States Postal Service", "operator:short": "USPS", "operator:type": "public", "operator:wikidata": "Q668687", "ref": "4470700032"}, "type": "Feature"}
{"geometry": {"coordinates": [-81.3823895, 40.764116], "type": "Point"}, "id": "PR8wP-UWSnkUWKjxGDitrIVhh64=", "properties": {"@source_uri": "https://tools.usps.com/UspsToolsRestServices/rest/POLocator/findLocations", "@spider": "usps_collection_boxes", "addr:city": "CANTON", "addr:country": "US", "addr:postcode": "44707", "addr:state": "OH", "addr:street_address": "3003 CLEVELAND AVE SW", "amenity": "post_box", "collection_times": "Mo-Fr 12:30; Sa 11:00", "note": "ON 12/24 AND 12/31, THIS BOX MAY BE COLLECTED AS EARLY AS 12 NOON.", "nsi_id": "unitedstatespostalservice-a77078", "operator": "United States Postal Service", "operator:short": "USPS", "operator:type": "public", "operator:wikidata": "Q668687", "ref": "4470700033"}, "type": "Feature"}
{"geometry": {"coordinates": [-81.3373886, 40.791208], "type": "Point"}, "id": "hBplBKWUXz7N7duCtg5QaiTFCHI=", "properties": {"@source_uri": "https://tools.usps.com/UspsToolsRestServices/rest/POLocator/findLocations", "@spider": "usps_collection_boxes", "addr:city": "CANTON", "addr:country": "US", "addr:postcode": "44707", "addr:state": "OH", "addr:street_address": "2741 LINCOLN ST E", "amenity": "post_box", "collection_times": "Mo-Sa 15:00", "note": "ON 12/24 AND 12/31, THIS BOX MAY BE COLLECTED AS EARLY AS 12 NOON.", "nsi_id": "unitedstatespostalservice-a77078", "operator": "United States Postal Service", "operator:short": "USPS", "operator:type": "public", "operator:wikidata": "Q668687", "ref": "4470700034"}, "type": "Feature"}
{"geometry": {"coordinates": [-81.3720431, 40.742943], "type": "Point"}, "id": "CX8RYyvSBk9RZp9LIjZTnTCVRt0=", "properties": {"@source_uri": "https://tools.usps.com/UspsToolsRestServices/rest/POLocator/findLocations", "@spider": "usps_collection_boxes", "addr:city": "CANTON", "addr:country": "US", "addr:postcode": "44707", "addr:state": "OH", "addr:street_address": "4724 CLEVELAND AVE SW", "amenity": "post_box", "collection_times": "Mo-Fr 13:30; Sa 11:00", "note": "ON 12/24 AND 12/31, THIS BOX MAY BE COLLECTED AS EARLY AS 12 NOON.", "nsi_id": "unitedstatespostalservice-a77078", "operator": "United States Postal Service", "operator:short": "USPS", "operator:type": "public", "operator:wikidata": "Q668687", "ref": "4470700035"}, "type": "Feature"}
{"geometry": {"coordinates": [-81.3468188, 40.778865], "type": "Point"}, "id": "jTrNEY09jxibM7hkxCA-o52n920=", "properties": {"@source_uri": "https://tools.usps.com/UspsToolsRestServices/rest/POLocator/findLocations", "@spider": "usps_collection_boxes", "addr:city": "CANTON", "addr:country": "US", "addr:postcode": "44707", "addr:state": "OH", "addr:street_address": "1660 WAYNESBURG DR SE", "amenity": "post_box", "collection_times": "Mo-Fr 12:30", "note": "ON 12/24 AND 12/31, THIS BOX MAY BE COLLECTED AS EARLY AS 12 NOON.", "nsi_id": "unitedstatespostalservice-a77078", "operator": "United States Postal Service", "operator:short": "USPS", "operator:type": "public", "operator:wikidata": "Q668687", "ref": "4470700036"}, "type": "Feature"}
{"geometry": {"coordinates": [-81.3488885, 40.793512], "type": "Point"}, "id": "3wpNPpVYIE8Mx80akV9vjKtwYV0=", "properties": {"@source_uri": "https://tools.usps.com/UspsToolsRestServices/rest/POLocator/findLocations", "@spider": "usps_collection_boxes", "addr:city": "CANTON", "addr:country": "US", "addr:postcode": "44707", "addr:state": "OH", "addr:street_address": "2103 TUSCARAWAS ST E", "amenity": "post_box", "collection_times": "Mo-Fr 12:30", "note": "ON 12/24 AND 12/31, THIS BOX MAY BE COLLECTED AS EARLY AS 12 NOON.", "nsi_id": "unitedstatespostalservice-a77078", "operator": "United States Postal Service", "operator:short": "USPS", "operator:type": "public", "operator:wikidata": "Q668687", "ref": "4470700038"}, "type": "Feature"}
{"geometry": {"coordinates": [-81.372086173, 40.742816909], "type": "Point"}, "id": "MMjxDosnxz-CrjjY2Z1Y-_HeRxs=", "properties": {"@source_uri": "https://tools.usps.com/UspsToolsRestServices/rest/POLocator/findLocations", "@spider": "usps_collection_boxes", "addr:city": "CANTON", "addr:country": "US", "addr:postcode": "44707", "addr:state": "OH", "addr:street_address": "4724 CLEVELAND AVE S", "amenity": "post_box", "collection_times": "Mo-Sa 12:00", "indoor": "yes", "nsi_id": "unitedstatespostalservice-a77078", "operator": "United States Postal Service", "operator:short": "USPS", "operator:type": "public", "operator:wikidata": "Q668687", "ref": "4470700040"}, "type": "Feature"}
{"geometry": {"coordinates": [-81.4293095, 40.829626], "type": "Point"}, "id": "AIA1utnc0ugbAciQK21moAWNohg=", "properties": {"@source_uri": "https://tools.usps.com/UspsToolsRestServices/rest/POLocator/findLocations", "@spider": "usps_collection_boxes", "addr:city": "CANTON", "addr:country": "US", "addr:postcode": "44708", "addr:state": "OH", "addr:street_address": "2500 CHARING CROSS RD NW", "amenity": "post_box", "collection_times": "Mo-Sa 12:00", "nsi_id": "unitedstatespostalservice-a77078", "operator": "United States Postal Service", "operator:short": "USPS", "operator:type": "public", "operator:wikidata": "Q668687", "ref": "4470800058"}, "type": "Feature"}
{"geometry": {"coordinates": [-81.4325576, 40.832851], "type": "Point"}, "id": "QG_WqCRtLvHw-cZegzWbuxV00bc=", "properties": {"@source_uri": "https://tools.usps.com/UspsToolsRestServices/rest/POLocator/findLocations", "@spider": "usps_collection_boxes", "addr:city": "CANTON", "addr:country": "US", "addr:postcode": "44708", "addr:state": "OH", "addr:street_address": "4730 HILLS & DALE RD NW", "amenity": "post_box", "collection_times": "Mo-Sa 11:00", "nsi_id": "unitedstatespostalservice-a77078", "operator": "United States Postal Service", "operator:short": "USPS", "operator:type": "public", "operator:wikidata": "Q668687", "ref": "4470800059"}, "type": "Feature"}
{"geometry": {"coordinates": [-81.4427567, 40.796992], "type": "Point"}, "id": "HJdxssS2B3uFkc7uJ_azKsVyoUU=", "properties": {"@source_uri": "https://tools.usps.com/UspsToolsRestServices/rest/POLocator/findLocations", "@spider": "usps_collection_boxes", "addr:city": "CANTON", "addr:country": "US", "addr:postcode": "44708", "addr:state": "OH", "addr:street_address": "150 SARATOGA AVE NW", "amenity": "post_box", "collection_times": "Mo-Sa 09:45", "nsi_id": "unitedstatespostalservice-a77078", "operator": "United States Postal Service", "operator:short": "USPS", "operator:type": "public", "operator:wikidata": "Q668687", "ref": "4470800060"}, "type": "Feature"}
{"geometry": {"coordinates": [-81.4072813, 40.798758], "type": "Point"}, "id": "rY-zF7vjeZswHMM33S4jHQUlMig=", "properties": {"@source_uri": "https://tools.usps.com/UspsToolsRestServices/rest/POLocator/findLocations", "@spider": "usps_collection_boxes", "addr:city": "CANTON", "addr:country": "US", "addr:postcode": "44708", "addr:state": "OH", "addr:street_address": "2915 TUSCARAWAS ST W", "amenity": "post_box", "collection_times": "Mo-Sa 09:45", "nsi_id": "unitedstatespostalservice-a77078", "operator": "United States Postal Service", "operator:short": "USPS", "operator:type": "public", "operator:wikidata": "Q668687", "ref": "4470800061"}, "type": "Feature"}
{"geometry": {"coordinates": [-81.4471783, 40.794299], "type": "Point"}, "id": "IzAwCC3mrHdbtQ3zGAvkieNtVxc=", "properties": {"@source_uri": "https://tools.usps.com/UspsToolsRestServices/rest/POLocator/findLocations", "@spider": "usps_collection_boxes", "addr:city": "CANTON", "addr:country": "US", "addr:postcode": "44708", "addr:state": "OH", "addr:street_address": "5127 TUSCARAWAS ST W", "amenity": "post_box", "collection_times": "Mo-Sa 11:45", "nsi_id": "unitedstatespostalservice-a77078", "operator": "United States Postal Service", "operator:short": "USPS", "operator:type": "public", "operator:wikidata": "Q668687", "ref": "4470800062"}, "type": "Feature"}
{"geometry": {"coordinates": [-81.4259619, 40.831295], "type": "Point"}, "id": "_QCoPePpmcgb4AzNnZtNLXz6JNE=", "properties": {"@source_uri": "https://tools.usps.com/UspsToolsRestServices/rest/POLocator/findLocations", "@spider": "usps_collection_boxes", "addr:city": "CANTON", "addr:country": "US", "addr:postcode": "44708", "addr:state": "OH", "addr:street_address": "2905 WHIPPLE AVE NW", "amenity": "post_box", "collection_times": "Mo-Sa 10:00", "nsi_id": "unitedstatespostalservice-a77078", "operator": "United States Postal Service", "operator:short": "USPS", "operator:type": "public", "operator:wikidata": "Q668687", "ref": "4470800063"}, "type": "Feature"}
{"geometry": {"coordinates": [-81.4179142, 40.797005], "type": "Point"}, "id": "BJJ7FNBSb7ISOLNrKqoFlPFg7Ks=", "properties": {"@source_uri": "https://tools.usps.com/UspsToolsRestServices/rest/POLocator/findLocations", "@spider": "usps_collection_boxes", "addr:city": "CANTON", "addr:country": "US", "addr:postcode": "44708", "addr:state": "OH", "addr:street_address": "3720 TUSCARAWAS ST W", "amenity": "post_box", "collection_times": "Mo-Sa 10:45", "nsi_id": "unitedstatespostalservice-a77078", "operator": "United States Postal Service", "operator:short": "USPS", "operator:type": "public", "operator:wikidata": "Q668687", "ref": "4470800067"}, "type": "Feature"}
{"geometry": {"coordinates": [-81.3965883, 40.812777], "type": "Point"}, "id": "af3LhEtwoB0_Qn2RcAVKn0ZGANI=", "properties": {"@source_uri": "https://tools.usps.com/UspsToolsRestServices/rest/POLocator/findLocations", "@spider": "usps_collection_boxes", "addr:city": "CANTON", "addr:country": "US", "addr:postcode": "44708", "addr:state": "OH", "addr:street_address": "1320 MERCY DR NW", "amenity": "post_box", "collection_times": "Mo-Sa 09:30", "nsi_id": "unitedstatespostalservice-a77078", "operator": "United States Postal Service", "operator:short": "USPS", "operator:type": "public", "operator:wikidata": "Q668687", "ref": "4470800069"}, "type": "Feature"}
{"geometry": {"coordinates": [-81.4220606, 40.797036], "type": "Point"}, "id": "73bJwn_aWPxxpxXM-NXFpO7Ai3s=", "properties": {"@source_uri": "https://tools.usps.com/UspsToolsRestServices/rest/POLocator/findLocations", "@spider": "usps_collection_boxes", "addr:city": "CANTON", "addr:country": "US", "addr:postcode": "44708", "addr:state": "OH", "addr:street_address": "4025 TUSCARAWAS ST W", "amenity": "post_box", "collection_times": "Mo-Fr 17:00; Sa 16:00", "indoor": "yes", "note": "ON 12/24 AND 12/31, THIS BOX MAY BE COLLECTED AS EARLY AS 12 NOON.", "nsi_id": "unitedstatespostalservice-a77078", "operator": "United States Postal Service", "operator:short": "USPS", "operator:type": "public", "operator:wikidata": "Q668687", "ref": "4470800071"}, "type": "Feature"}
{"geometry": {"coordinates": [-81.4040748127, 40.7989365828], "type": "Point"}, "id": "7IH_qlJdi5GdgW7nIBT_F5SBpiE=", "properties": {"@source_uri": "https://tools.usps.com/UspsToolsRestServices/rest/POLocator/findLocations", "@spider": "usps_collection_boxes", "addr:city": "CANTON", "addr:country": "US", "addr:postcode": "44708", "addr:state": "OH", "addr:street_address": "2600 TUSCARAWAS ST W", "amenity": "post_box", "collection_times": "Mo-Sa 09:00", "nsi_id": "unitedstatespostalservice-a77078", "operator": "United States Postal Service", "operator:short": "USPS", "operator:type": "public", "operator:wikidata": "Q668687", "ref": "4470800072"}, "type": "Feature"}
{"geometry": {"coordinates": [-81.4221528, 40.796981], "type": "Point"}, "id": "JU7Sqd6ZLHLeRO8U_EVYGY2zFck=", "properties": {"@source_uri": "https://tools.usps.com/UspsToolsRestServices/rest/POLocator/findLocations", "@spider": "usps_collection_boxes", "addr:city": "CANTON", "addr:country": "US", "addr:postcode": "44708", "addr:state": "OH", "addr:street_address": "4025 TUSCARAWAS ST W", "amenity": "post_box", "collection_times": "Mo-Fr 17:00; Sa 16:00", "name": "USPS COLLECTION BOX - APC", "note": "ON 12/24 AND 12/31, THIS BOX MAY BE COLLECTED AS EARLY AS 12 NOON.", "nsi_id": "unitedstatespostalservice-a77078", "operator": "United States Postal Service", "operator:short": "USPS", "operator:type": "public", "operator:wikidata": "Q668687", "ref": "4470800075"}, "type": "Feature"}
{"geometry": {"coordinates": [-81.421515178, 40.796922373], "type": "Point"}, "id": "PTO_tfBfzDlSJhUzYgCBdIqLC-8=", "properties": {"@source_uri": "https://tools.usps.com/UspsToolsRestServices/rest/POLocator/findLocations", "@spider": "usps_collection_boxes", "addr:city": "CANTON", "addr:country": "US", "addr:postcode": "44708", "addr:state": "OH", "addr:street_address": "4025 TUSCARAWAS ST W", "amenity": "post_box", "collection_times": "Mo-Fr 17:30; Sa 12:00", "indoor": "yes", "note": "ON 12/24 AND 12/31, THIS BOX MAY BE COLLECTED AS EARLY AS 12 NOON.", "nsi_id": "unitedstatespostalservice-a77078", "operator": "United States Postal Service", "operator:short": "USPS", "operator:type": "public", "operator:wikidata": "Q668687", "ref": "4470800081"}, "type": "Feature"}
{"geometry": {"coordinates": [-81.4303754, 40.8102475], "type": "Point"}, "id": "xvzgD0w9yqGxLuLM4WvAZ8xxW-Y=", "properties": {"@source_uri": "https://tools.usps.com/UspsToolsRestServices/rest/POLocator/findLocations", "@spider": "usps_collection_boxes", "addr:city": "CANTON", "addr:country": "US", "addr:postcode": "44708", "addr:state": "OH", "addr:street_address": "4025 TUSCARAWAS ST W", "amenity": "post_box", "collection_times": "Mo-Fr 17:00; Sa 16:00", "note": "ON 12/24 AND 12/31, THIS BOX MAY BE COLLECTED AS EARLY AS 12 NOON.", "nsi_id": "unitedstatespostalservice-a77078", "operator": "United States Postal Service", "operator:short": "USPS", "operator:type": "public", "operator:wikidata": "Q668687", "ref": "4470800084"}, "type": "Feature"}
{"geometry": {"coordinates": [-81.3763682, 40.819571], "type": "Point"}, "id": "kEdVhTRRU9Ja34HvukEDVGC1FWQ=", "properties": {"@source_uri": "https://tools.usps.com/UspsToolsRestServices/rest/POLocator/findLocations", "@spider": "usps_collection_boxes", "addr:city": "CANTON", "addr:country": "US", "addr:postcode": "44709", "addr:state": "OH", "addr:street_address": "500 19TH ST NW", "amenity": "post_box", "collection_times": "Mo-Sa 14:30", "note": "ON 12/24 AND 12/31, THIS BOX MAY BE COLLECTED AS EARLY AS 12 NOON.", "nsi_id": "unitedstatespostalservice-a77078", "operator": "United States Postal Service", "operator:short": "USPS", "operator:type": "public", "operator:wikidata": "Q668687", "ref": "4470900054"}, "type": "Feature"}
{"geometry": {"coordinates": [-81.3699388, 40.823911], "type": "Point"}, "id": "HFf6ZL8VbuOXMJIeXrD4StNopXo=", "properties": {"@source_uri": "https://tools.usps.com/UspsToolsRestServices/rest/POLocator/findLocations", "@spider": "usps_collection_boxes", "addr:city": "CANTON", "addr:country": "US", "addr:postcode": "44709", "addr:state": "OH", "addr:street_address": "163 25TH ST NW", "amenity": "post_box", "collection_times": "Mo-Sa 11:00", "nsi_id": "unitedstatespostalservice-a77078", "operator": "United States Postal Service", "operator:short": "USPS", "operator:type": "public", "operator:wikidata": "Q668687", "ref": "4470900055"}, "type": "Feature"}
{"geometry": {"coordinates": [-81.3834265, 40.831375], "type": "Point"}, "id": "xP60qlaRQezXScA0tF9kXAMbK0A=", "properties": {"@source_uri": "https://tools.usps.com/UspsToolsRestServices/rest/POLocator/findLocations", "@spider": "usps_collection_boxes", "addr:city": "CANTON", "addr:country": "US", "addr:postcode": "44709", "addr:state": "OH", "addr:street_address": "1122 30TH ST NW", "amenity": "post_box", "collection_times": "Mo-Sa 11:00", "nsi_id": "unitedstatespostalservice-a77078", "operator": "United States Postal Service", "operator:short": "USPS", "operator:type": "public", "operator:wikidata": "Q668687", "ref": "4470900056"}, "type": "Feature"}
{"geometry": {"coordinates": [-81.3838161, 40.832015], "type": "Point"}, "id": "v6JFHzI8iSssvdys51mLkweccrQ=", "properties": {"@source_uri": "https://tools.usps.com/UspsToolsRestServices/rest/POLocator/findLocations", "@spider": "usps_collection_boxes", "addr:city": "CANTON", "addr:country": "US", "addr:postcode": "44709", "addr:state": "OH", "addr:street_address": "1201 30TH ST NW", "amenity": "post_box", "collection_times": "Mo-Fr 10:00", "nsi_id": "unitedstatespostalservice-a77078", "operator": "United States Postal Service", "operator:short": "USPS", "operator:type": "public", "operator:wikidata": "Q668687", "ref": "4470900057"}, "type": "Feature"}
{"geometry": {"coordinates": [-81.3811446, 40.835323], "type": "Point"}, "id": "Z1hEzD7gCcvLpaB2t439I9ib8iE=", "properties": {"@source_uri": "https://tools.usps.com/UspsToolsRestServices/rest/POLocator/findLocations", "@spider": "usps_collection_boxes", "addr:city": "CANTON", "addr:country": "US", "addr:postcode": "44709", "addr:state": "OH", "addr:street_address": "904 34TH ST NW", "amenity": "post_box", "collection_times": "Mo-Fr 14:00", "note": "ON 12/24 AND 12/31, THIS BOX MAY BE COLLECTED AS EARLY AS 12 NOON.", "nsi_id": "unitedstatespostalservice-a77078", "operator": "United States Postal Service", "operator:short": "USPS", "operator:type": "public", "operator:wikidata": "Q668687", "ref": "4470900058"}, "type": "Feature"}
{"geometry": {"coordinates": [-81.3927626, 40.849578], "type": "Point"}, "id": "8oiabYfpPVzd1dhF4GDNQnGKBpY=", "properties": {"@source_uri": "https://tools.usps.com/UspsToolsRestServices/rest/POLocator/findLocations", "@spider": "usps_collection_boxes", "addr:city": "CANTON", "addr:country": "US", "addr:postcode": "44709", "addr:state": "OH", "addr:street_address": "4626 CLEVELAND AVE NW", "amenity": "post_box", "collection_times": "Mo-Sa 09:00", "nsi_id": "unitedstatespostalservice-a77078", "operator": "United States Postal Service", "operator:short": "USPS", "operator:type": "public", "operator:wikidata": "Q668687", "ref": "4470900061"}, "type": "Feature"}
{"geometry": {"coordinates": [-81.3820134, 40.831758], "type": "Point"}, "id": "jd5g6A82Y6F42ywpla3hEX4-KtE=", "properties": {"@source_uri": "https://tools.usps.com/UspsToolsRestServices/rest/POLocator/findLocations", "@spider": "usps_collection_boxes", "addr:city": "CANTON", "addr:country": "US", "addr:postcode": "44709", "addr:state": "OH", "addr:street_address": "3014 CROMER AVE NW", "amenity": "post_box", "collection_times": "Mo-Sa 10:00", "nsi_id": "unitedstatespostalservice-a77078", "operator": "United States Postal Service", "operator:short": "USPS", "operator:type": "public", "operator:wikidata": "Q668687", "ref": "4470900062"}, "type": "Feature"}
{"geometry": {"coordinates": [-81.3919421, 40.820975], "type": "Point"}, "id": "q7eTzNybI4gX4dylBfCRJrL4exI=", "properties": {"@source_uri": "https://tools.usps.com/UspsToolsRestServices/rest/POLocator/findLocations", "@spider": "usps_collection_boxes", "addr:city": "CANTON", "addr:country": "US", "addr:postcode": "44709", "addr:state": "OH", "addr:street_address": "2223 FULTON RD NW", "amenity": "post_box", "collection_times": "Mo-Fr 11:45", "nsi_id": "unitedstatespostalservice-a77078", "operator": "United States Postal Service", "operator:short": "USPS", "operator:type": "public", "operator:wikidata": "Q668687", "ref": "4470900063"}, "type": "Feature"}
{"geometry": {"coordinates": [-81.3788273, 40.827555], "type": "Point"}, "id": "omDwNBGXmE8REnSDQ0VqRWNS0pc=", "properties": {"@source_uri": "https://tools.usps.com/UspsToolsRestServices/rest/POLocator/findLocations", "@spider": "usps_collection_boxes", "addr:city": "CANTON", "addr:country": "US", "addr:postcode": "44709", "addr:state": "OH", "addr:street_address": "515 25TH ST NW", "amenity": "post_box", "collection_times": "Mo-Fr 15:30", "note": "ON 12/24 AND 12/31, THIS BOX MAY BE COLLECTED AS EARLY AS 12 NOON.", "nsi_id": "unitedstatespostalservice-a77078", "operator": "United States Postal Service", "operator:short": "USPS", "operator:type": "public", "operator:wikidata": "Q668687", "ref": "4470900064"}, "type": "Feature"}
{"geometry": {"coordinates": [-81.3856931, 40.82731], "type": "Point"}, "id": "HN0RiL1Sbn6by2m1nRnKRyp13wA=", "properties": {"@source_uri": "https://tools.usps.com/UspsToolsRestServices/rest/POLocator/findLocations", "@spider": "usps_collection_boxes", "addr:city": "CANTON", "addr:country": "US", "addr:postcode": "44709", "addr:state": "OH", "addr:street_address": "2633 CLEVELAND AVE NW", "amenity": "post_box", "collection_times": "Mo-Fr 09:00", "nsi_id": "unitedstatespostalservice-a77078", "operator": "United States Postal Service", "operator:short": "USPS", "operator:type": "public", "operator:wikidata": "Q668687", "ref": "4470900065"}, "type": "Feature"}
{"geometry": {"coordinates": [-81.4173713, 40.857338], "type": "Point"}, "id": "Umn5uc5C-O7LrLGzpd8oFVXI11o=", "properties": {"@source_uri": "https://tools.usps.com/UspsToolsRestServices/rest/POLocator/findLocations", "@spider": "usps_collection_boxes", "addr:city": "CANTON", "addr:country": "US", "addr:postcode": "44709", "addr:state": "OH", "addr:street_address": "5300 BROADMOOR CIR NW", "amenity": "post_box", "collection_times": "Mo-Sa 11:45", "nsi_id": "unitedstatespostalservice-a77078", "operator": "United States Postal Service", "operator:short": "USPS", "operator:type": "public", "operator:wikidata": "Q668687", "ref": "4470900066"}, "type": "Feature"}
{"geometry": {"coordinates": [-81.4101664, 40.791698], "type": "Point"}, "id": "sHhcV9expI2PldtoUzAagihgTlI=", "properties": {"@source_uri": "https://tools.usps.com/UspsToolsRestServices/rest/POLocator/findLocations", "@spider": "usps_collection_boxes", "addr:city": "CANTON", "addr:country": "US", "addr:postcode": "44710", "addr:state": "OH", "addr:street_address": "3050 11TH ST SW", "amenity": "post_box", "collection_times": "Mo-Fr 11:00; Sa 10:00", "nsi_id": "unitedstatespostalservice-a77078", "operator": "United States Postal Service", "operator:short": "USPS", "operator:type": "public", "operator:wikidata": "Q668687", "ref": "4471000026"}, "type": "Feature"}
{"geometry": {"coordinates": [-81.4384066, 40.788311], "type": "Point"}, "id": "dVjAEKesCCCSJuEaEI1NKMMdAfY=", "properties": {"@source_uri": "https://tools.usps.com/UspsToolsRestServices/rest/POLocator/findLocations", "@spider": "usps_collection_boxes", "addr:city": "CANTON", "addr:country": "US", "addr:postcode": "44710", "addr:state": "OH", "addr:street_address": "4853 14TH ST SW", "amenity": "post_box", "collection_times": "Mo-Sa 10:30", "nsi_id": "unitedstatespostalservice-a77078", "operator": "United States Postal Service", "operator:short": "USPS", "operator:type": "public", "operator:wikidata": "Q668687", "ref": "4471000027"}, "type": "Feature"}
{"geometry": {"coordinates": [-81.4041310183, 40.7961379973], "type": "Point"}, "id": "cCsGPod8n7u-U-RdOlKBRCPVmZU=", "properties": {"@source_uri": "https://tools.usps.com/UspsToolsRestServices/rest/POLocator/findLocations", "@spider": "usps_collection_boxes", "addr:city": "CANTON", "addr:country": "US", "addr:postcode": "44710", "addr:state": "OH", "addr:street_address": "2600 6TH ST SW", "amenity": "post_box", "collection_times": "Mo-Sa 10:00", "nsi_id": "unitedstatespostalservice-a77078", "operator": "United States Postal Service", "operator:short": "USPS", "operator:type": "public", "operator:wikidata": "Q668687", "ref": "4471000030"}, "type": "Feature"}
{"geometry": {"coordinates": [-81.3853510674, 40.8272161927], "type": "Point"}, "id": "LWR0SXssAIudEJTL4dRXS_WYuV8=", "properties": {"@source_uri": "https://tools.usps.com/UspsToolsRestServices/rest/POLocator/findLocations", "@spider": "usps_collection_boxes", "addr:city": "CANTON", "addr:country": "US", "addr:postcode": "44711", "addr:state": "OH", "addr:street_address": "2650 CLEVELAND AVE NW", "amenity": "post_box", "collection_times": "Mo-Fr 18:30; Sa 17:00", "note": "ON 12/24 AND 12/31, THIS BOX MAY BE COLLECTED AS EARLY AS 12 NOON.", "nsi_id": "unitedstatespostalservice-a77078", "operator": "United States Postal Service", "operator:short": "USPS", "operator:type": "public", "operator:wikidata": "Q668687", "ref": "4471100012"}, "type": "Feature"}
{"geometry": {"coordinates": [-81.385339, 40.827129], "type": "Point"}, "id": "aUz_q70Mm__q18hu3wcB41kIY-0=", "properties": {"@source_uri": "https://tools.usps.com/UspsToolsRestServices/rest/POLocator/findLocations", "@spider": "usps_collection_boxes", "addr:city": "CANTON", "addr:country": "US", "addr:postcode": "44711", "addr:state": "OH", "addr:street_address": "2650 CLEVELAND AVE NW", "amenity": "post_box", "collection_times": "Mo-Fr 18:30; Sa 17:00", "indoor": "yes", "note": "ON 12/24 AND 12/31, THIS BOX MAY BE COLLECTED AS EARLY AS 12 NOON.", "nsi_id": "unitedstatespostalservice-a77078", "operator": "United States Postal Service", "operator:short": "USPS", "operator:type": "public", "operator:wikidata": "Q668687", "ref": "4471100014"}, "type": "Feature"}
{"geometry": {"coordinates": [-81.385339, 40.827129], "type": "Point"}, "id": "_NvNFRubRztqTGxRlNjfYCBvY2s=", "properties": {"@source_uri": "https://tools.usps.com/UspsToolsRestServices/rest/POLocator/findLocations", "@spider": "usps_collection_boxes", "addr:city": "CANTON", "addr:country": "US", "addr:postcode": "44711", "addr:state": "OH", "addr:street_address": "2650 CLEVELAND AVE NW", "amenity": "post_box", "collection_times": "Mo-Fr 18:30; Sa 17:00", "name": "USPS COLLECTION BOX - APC", "note": "ON 12/24 AND 12/31, THIS BOX MAY BE COLLECTED AS EARLY AS 12 NOON.", "nsi_id": "unitedstatespostalservice-a77078", "operator": "United States Postal Service", "operator:short": "USPS", "operator:type": "public", "operator:wikidata": "Q668687", "ref": "4471100015"}, "type": "Feature"}
{"geometry": {"coordinates": [-81.385421477, 40.827354463], "type": "Point"}, "id": "E53Nmao1QSeRMdF2nffgKTwSUPQ=", "properties": {"@source_uri": "https://tools.usps.com/UspsToolsRestServices/rest/POLocator/findLocations", "@spider": "usps_collection_boxes", "addr:city": "CANTON", "addr:country": "US", "addr:postcode": "44711", "addr:state": "OH", "addr:street_address": "2650 CLEVELAND AVE NW", "amenity": "post_box", "collection_times": "Mo-Sa 17:00", "indoor": "yes", "note": "ON 12/24 AND 12/31, THIS BOX MAY BE COLLECTED AS EARLY AS 12 NOON.", "nsi_id": "unitedstatespostalservice-a77078", "operator": "United States Postal Service", "operator:short": "USPS", "operator:type": "public", "operator:wikidata": "Q668687", "ref": "4471100019"}, "type": "Feature"}
{"geometry": {"coordinates": [-81.3640011, 40.831448], "type": "Point"}, "id": "8LoJSA542-JUfHxULFDvZfMOyx4=", "properties": {"@source_uri": "https://tools.usps.com/UspsToolsRestServices/rest/POLocator/findLocations", "@spider": "usps_collection_boxes", "addr:city": "CANTON", "addr:country": "US", "addr:postcode": "44714", "addr:state": "OH", "addr:street_address": "807 30TH ST NE", "amenity": "post_box", "collection_times": "Mo-Sa 10:00", "nsi_id": "unitedstatespostalservice-a77078", "operator": "United States Postal Service", "operator:short": "USPS", "operator:type": "public", "operator:wikidata": "Q668687", "ref": "4471400019"}, "type": "Feature"}
{"geometry": {"coordinates": [-81.4256885, 40.854784], "type": "Point"}, "id": "FPnE_fP8FlGdSZDcxjN1R1U5SeE=", "properties": {"@source_uri": "https://tools.usps.com/UspsToolsRestServices/rest/POLocator/findLocations", "@spider": "usps_collection_boxes", "addr:city": "CANTON", "addr:country": "US", "addr:postcode": "44718", "addr:state": "OH", "addr:street_address": "4150 BELDEN VILLAGE ST NW", "amenity": "post_box", "collection_times": "Mo-Sa 08:30", "nsi_id": "unitedstatespostalservice-a77078", "operator": "United States Postal Service", "operator:short": "USPS", "operator:type": "public", "operator:wikidata": "Q668687", "ref": "4471800050"}, "type": "Feature"}
{"geometry": {"coordinates": [-81.434874202, 40.845447608], "type": "Point"}, "id": "iNMkMcbUuNo_JPl0m-GbrcRwT0Q=", "properties": {"@source_uri": "https://tools.usps.com/UspsToolsRestServices/rest/POLocator/findLocations", "@spider": "usps_collection_boxes", "addr:city": "CANTON", "addr:country": "US", "addr:postcode": "44718", "addr:state": "OH", "addr:street_address": "4420 DRESSLER RD NW", "amenity": "post_box", "collection_times": "Mo-Fr 17:00; Sa 14:00", "note": "ON 12/24 AND 12/31, THIS BOX MAY BE COLLECTED AS EARLY AS 12 NOON.", "nsi_id": "unitedstatespostalservice-a77078", "operator": "United States Postal Service", "operator:short": "USPS", "operator:type": "public", "operator:wikidata": "Q668687", "ref": "4471800053"}, "type": "Feature"}
{"geometry": {"coordinates": [-81.4221449, 40.835615], "type": "Point"}, "id": "IxYcfGr3gWacne4HHnD-_oKIRoA=", "properties": {"@source_uri": "https://tools.usps.com/UspsToolsRestServices/rest/POLocator/findLocations", "@spider": "usps_collection_boxes", "addr:city": "CANTON", "addr:country": "US", "addr:postcode": "44718", "addr:state": "OH", "addr:street_address": "3978 FULTON DR NW", "amenity": "post_box", "collection_times": "Mo-Sa 08:30", "nsi_id": "unitedstatespostalservice-a77078", "operator": "United States Postal Service", "operator:short": "USPS", "operator:type": "public", "operator:wikidata": "Q668687", "ref": "4471800055"}, "type": "Feature"}
{"geometry": {"coordinates": [-81.4278938, 40.851135], "type": "Point"}, "id": "EIkXEvEXGHA4rJ81OMPHG3nCzxU=", "properties": {"@source_uri": "https://tools.usps.com/UspsToolsRestServices/rest/POLocator/findLocations", "@spider": "usps_collection_boxes", "addr:city": "CANTON", "addr:country": "US", "addr:postcode": "44718", "addr:state": "OH", "addr:street_address": "4825 HIGBEE AVE NW", "amenity": "post_box", "collection_times": "Mo-Sa 09:45", "nsi_id": "unitedstatespostalservice-a77078", "operator": "United States Postal Service", "operator:short": "USPS", "operator:type": "public", "operator:wikidata": "Q668687", "ref": "4471800057"}, "type": "Feature"}
{"geometry": {"coordinates": [-81.434895, 40.845083], "type": "Point"}, "id": "rqfb1orWZkXLaeJ1AxRcdvff9GE=", "properties": {"@source_uri": "https://tools.usps.com/UspsToolsRestServices/rest/POLocator/findLocations", "@spider": "usps_collection_boxes", "addr:city": "CANTON", "addr:country": "US", "addr:postcode": "44718", "addr:state": "OH", "addr:street_address": "4420 DRESSLER RD NW", "amenity": "post_box", "collection_times": "Mo-Fr 17:00; Sa 15:00", "name": "USPS COLLECTION BOX - APC", "note": "ON 12/24 AND 12/31, THIS BOX MAY BE COLLECTED AS EARLY AS 12 NOON.", "nsi_id": "unitedstatespostalservice-a77078", "operator": "United States Postal Service", "operator:short": "USPS", "operator:type": "public", "operator:wikidata": "Q668687", "ref": "4471800069"}, "type": "Feature"}
{"geometry": {"coordinates": [-81.434867664, 40.845375136], "type": "Point"}, "id": "sfa5TtLipU_pX73CazbD2rqfoto=", "properties": {"@source_uri": "https://tools.usps.com/UspsToolsRestServices/rest/POLocator/findLocations", "@spider": "usps_collection_boxes", "addr:city": "CANTON", "addr:country": "US", "addr:postcode": "44718", "addr:state": "OH", "addr:street_address": "4420 DRESSLER RD NW", "amenity": "post_box", "collection_times": "Mo-Fr 17:30; Sa 12:00", "indoor": "yes", "note": "ON 12/24 AND 12/31, THIS BOX MAY BE COLLECTED AS EARLY AS 12 NOON.", "nsi_id": "unitedstatespostalservice-a77078", "operator": "United States Postal Service", "operator:short": "USPS", "operator:type": "public", "operator:wikidata": "Q668687", "ref": "4471800077"}, "type": "Feature"}
{"geometry": {"coordinates": [-81.4162434, 40.8881475], "type": "Point"}, "id": "dCcXDveNOxtTWYN6ZANO0gNdqWs=", "properties": {"@source_uri": "https://tools.usps.com/UspsToolsRestServices/rest/POLocator/findLocations", "@spider": "usps_collection_boxes", "addr:city": "NORTH CANTON", "addr:country": "US", "addr:postcode": "44720", "addr:state": "OH", "addr:street_address": "2215 APPLEGROVE ST NW", "amenity": "post_box", "collection_times": "Mo-Fr 09:00; Sa 09:30", "nsi_id": "unitedstatespostalservice-a77078", "operator": "United States Postal Service", "operator:short": "USPS", "operator:type": "public", "operator:wikidata": "Q668687", "ref": "4472000104"}, "type": "Feature"}
{"geometry": {"coordinates": [-81.4162434, 40.8881475], "type": "Point"}, "id": "wSVHsCSyZZiYc8Peig9sGS8tuFA=", "properties": {"@source_uri": "https://tools.usps.com/UspsToolsRestServices/rest/POLocator/findLocations", "@spider": "usps_collection_boxes", "addr:city": "NORTH CANTON", "addr:country": "US", "addr:postcode": "44720", "addr:state": "OH", "addr:street_address": "605 GLENWOOD ST SW", "amenity": "post_box", "collection_times": "Mo-Sa 14:00", "note": "ON 12/24 AND 12/31, THIS BOX MAY BE COLLECTED AS EARLY AS 12 NOON.", "nsi_id": "unitedstatespostalservice-a77078", "operator": "United States Postal Service", "operator:short": "USPS", "operator:type": "public", "operator:wikidata": "Q668687", "ref": "4472000105"}, "type": "Feature"}
{"geometry": {"coordinates": [-81.4162434, 40.8881475], "type": "Point"}, "id": "QNKti0UhPXGpDpBaR55UPX3IjcA=", "properties": {"@source_uri": "https://tools.usps.com/UspsToolsRestServices/rest/POLocator/findLocations", "@spider": "usps_collection_boxes", "addr:city": "NORTH CANTON", "addr:country": "US", "addr:postcode": "44720", "addr:state": "OH", "addr:street_address": "1430 N MAIN ST", "amenity": "post_box", "collection_times": "Mo-Sa 09:15", "nsi_id": "unitedstatespostalservice-a77078", "operator": "United States Postal Service", "operator:short": "USPS", "operator:type": "public", "operator:wikidata": "Q668687", "ref": "4472000106"}, "type": "Feature"}
{"geometry": {"coordinates": [-81.4162434, 40.8881475], "type": "Point"}, "id": "NubissyTuOYHHyXVCya_dSshESc=", "properties": {"@source_uri": "https://tools.usps.com/UspsToolsRestServices/rest/POLocator/findLocations", "@spider": "usps_collection_boxes", "addr:city": "NORTH CANTON", "addr:country": "US", "addr:postcode": "44720", "addr:state": "OH", "addr:street_address": "1312 S MAIN ST", "amenity": "post_box", "collection_times": "Mo-Sa 09:30", "nsi_id": "unitedstatespostalservice-a77078", "operator": "United States Postal Service", "operator:short": "USPS", "operator:type": "public", "operator:wikidata": "Q668687", "ref": "4472000107"}, "type": "Feature"}
{"geometry": {"coordinates": [-81.4162434, 40.8881475], "type": "Point"}, "id": "O49Wj884uyN0N7val1MfWUQ8yKU=", "properties": {"@source_uri": "https://tools.usps.com/UspsToolsRestServices/rest/POLocator/findLocations", "@spider": "usps_collection_boxes", "addr:city": "NORTH CANTON", "addr:country": "US", "addr:postcode": "44720", "addr:state": "OH", "addr:street_address": "5950 MAYFAIR RD", "amenity": "post_box", "collection_times": "Mo-Fr 13:30; Sa 11:45", "note": "ON 12/24 AND 12/31, THIS BOX MAY BE COLLECTED AS EARLY AS 12 NOON.", "nsi_id": "unitedstatespostalservice-a77078", "operator": "United States Postal Service", "operator:short": "USPS", "operator:type": "public", "operator:wikidata": "Q668687", "ref": "4472000109"}, "type": "Feature"}
{"geometry": {"coordinates": [-81.4162434, 40.8881475], "type": "Point"}, "id": "K5JEVx_mvD2F-iVni60l33adGWk=", "properties": {"@source_uri": "https://tools.usps.com/UspsToolsRestServices/rest/POLocator/findLocations", "@spider": "usps_collection_boxes", "addr:city": "NORTH CANTON", "addr:country": "US", "addr:postcode": "44720", "addr:state": "OH", "addr:street_address": "105 WALSH AVE SE", "amenity": "post_box", "collection_times": "Mo-Sa 15:00", "note": "ON 12/24 AND 12/31, THIS BOX MAY BE COLLECTED AS EARLY AS 12 NOON.", "nsi_id": "unitedstatespostalservice-a77078", "operator": "United States Postal Service", "operator:short": "USPS", "operator:type": "public", "operator:wikidata": "Q668687", "ref": "4472000112"}, "type": "Feature"}
{"geometry": {"coordinates": [-81.4162434, 40.8881475], "type": "Point"}, "id": "0_aZyJNiD0mYjP_pC0ev10ZwZXs=", "properties": {"@source_uri": "https://tools.usps.com/UspsToolsRestServices/rest/POLocator/findLocations", "@spider": "usps_collection_boxes", "addr:city": "NORTH CANTON", "addr:country": "US", "addr:postcode": "44720", "addr:state": "OH", "addr:street_address": "4925 PORTAGE ST NW", "amenity": "post_box", "collection_times": "Mo-Sa 09:00", "nsi_id": "unitedstatespostalservice-a77078", "operator": "United States Postal Service", "operator:short": "USPS", "operator:type": "public", "operator:wikidata": "Q668687", "ref": "4472000119"}, "type": "Feature"}
{"geometry": {"coordinates": [-81.4162434, 40.8881475], "type": "Point"}, "id": "yzJFdJ9-HdqyMFSri-yWXC6aDIc=", "properties": {"@source_uri": "https://tools.usps.com/UspsToolsRestServices/rest/POLocator/findLocations", "@spider": "usps_collection_boxes", "addr:city": "NORTH CANTON", "addr:country": "US", "addr:postcode": "44720", "addr:state": "OH", "addr:street_address": "5555 WHIPPLE AVE NW", "amenity": "post_box", "collection_times": "Mo-Sa 10:30", "nsi_id": "unitedstatespostalservice-a77078", "operator": "United States Postal Service", "operator:short": "USPS", "operator:type": "public", "operator:wikidata": "Q668687", "ref": "4472000120"}, "type": "Feature"}
{"geometry": {"coordinates": [-81.4162434, 40.8881475], "type": "Point"}, "id": "QH5MEvF1DuRG-VnG1RKzfy3vEbY=", "properties": {"@source_uri": "https://tools.usps.com/UspsToolsRestServices/rest/POLocator/findLocations", "@spider": "usps_collection_boxes", "addr:city": "NORTH CANTON", "addr:country": "US", "addr:postcode": "44720", "addr:state": "OH", "addr:street_address": "6493 STRIP AVE NW", "amenity": "post_box", "collection_times": "Mo-Sa 09:00", "nsi_id": "unitedstatespostalservice-a77078", "operator": "United States Postal Service", "operator:short": "USPS", "operator:type": "public", "operator:wikidata": "Q668687", "ref": "4472000121"}, "type": "Feature"}
{"geometry": {"coordinates": [-81.4162434, 40.8881475], "type": "Point"}, "id": "3Xr04AoIkp_l5fY-Z5naOg9hPrU=", "properties": {"@source_uri": "https://tools.usps.com/UspsToolsRestServices/rest/POLocator/findLocations", "@spider": "usps_collection_boxes", "addr:city": "NORTH CANTON", "addr:country": "US", "addr:postcode": "44720", "addr:state": "OH", "addr:street_address": "5430 LAUBY RD", "amenity": "post_box", "collection_times": "Mo-Sa 11:00", "nsi_id": "unitedstatespostalservice-a77078", "operator": "United States Postal Service", "operator:short": "USPS", "operator:type": "public", "operator:wikidata": "Q668687", "ref": "4472000122"}, "type": "Feature"}
{"geometry": {"coordinates": [-81.4162434, 40.8881475], "type": "Point"}, "id": "sYyy6NqA1NRrlLLMoexijeZk5lM=", "properties": {"@source_uri": "https://tools.usps.com/UspsToolsRestServices/rest/POLocator/findLocations", "@spider": "usps_collection_boxes", "addr:city": "NORTH CANTON", "addr:country": "US", "addr:postcode": "44720", "addr:state": "OH", "addr:street_address": "907 E MAPLE ST", "amenity": "post_box", "collection_times": "Mo-Sa 12:00", "nsi_id": "unitedstatespostalservice-a77078", "operator": "United States Postal Service", "operator:short": "USPS", "operator:type": "public", "operator:wikidata": "Q668687", "ref": "4472000124"}, "type": "Feature"}
{"geometry": {"coordinates": [-81.4162434, 40.8881475], "type": "Point"}, "id": "Zl-VskqPNqA9O3hDJbeJkGy-9Mw=", "properties": {"@source_uri": "https://tools.usps.com/UspsToolsRestServices/rest/POLocator/findLocations", "@spider": "usps_collection_boxes", "addr:city": "NORTH CANTON", "addr:country": "US", "addr:postcode": "44720", "addr:state": "OH", "addr:street_address": "7237 WHIPPLE AVE NW", "amenity": "post_box", "collection_times": "Mo-Sa 10:00", "nsi_id": "unitedstatespostalservice-a77078", "operator": "United States Postal Service", "operator:short": "USPS", "operator:type": "public", "operator:wikidata": "Q668687", "ref": "4472000125"}, "type": "Feature"}
{"geometry": {"coordinates": [-81.4162434, 40.8881475], "type": "Point"}, "id": "9-fx7hysYKTztbR59mEFDWh-_Wg=", "properties": {"@source_uri": "https://tools.usps.com/UspsToolsRestServices/rest/POLocator/findLocations", "@spider": "usps_collection_boxes", "addr:city": "NORTH CANTON", "addr:country": "US", "addr:postcode": "44720", "addr:state": "OH", "addr:street_address": "100 WILBUR DR NE", "amenity": "post_box", "collection_times": "Mo-Sa 09:30", "nsi_id": "unitedstatespostalservice-a77078", "operator": "United States Postal Service", "operator:short": "USPS", "operator:type": "public", "operator:wikidata": "Q668687", "ref": "4472000126"}, "type": "Feature"}
{"geometry": {"coordinates": [-81.4162434, 40.8881475], "type": "Point"}, "id": "1h30Bdz9hLWZCFnFDjNAOy1Erh4=", "properties": {"@source_uri": "https://tools.usps.com/UspsToolsRestServices/rest/POLocator/findLocations", "@spider": "usps_collection_boxes", "addr:city": "NORTH CANTON", "addr:country": "US", "addr:postcode": "44720", "addr:state": "OH", "addr:street_address": "239 PORTAGE ST NW", "amenity": "post_box", "collection_times": "Mo-Fr 13:00; Sa 09:00", "note": "ON 12/24 AND 12/31, THIS BOX MAY BE COLLECTED AS EARLY AS 12 NOON.", "nsi_id": "unitedstatespostalservice-a77078", "operator": "United States Postal Service", "operator:short": "USPS", "operator:type": "public", "operator:wikidata": "Q668687", "ref": "4472000127"}, "type": "Feature"}
{"geometry": {"coordinates": [-81.4162434, 40.8881475], "type": "Point"}, "id": "ij7r_sdCLMogCUFGCWF0qyd6WY4=", "properties": {"@source_uri": "https://tools.usps.com/UspsToolsRestServices/rest/POLocator/findLocations", "@spider": "usps_collection_boxes", "addr:city": "NORTH CANTON", "addr:country": "US", "addr:postcode": "44720", "addr:state": "OH", "addr:street_address": "1695 N MAIN ST", "amenity": "post_box", "collection_times": "Mo-Sa 11:15", "nsi_id": "unitedstatespostalservice-a77078", "operator": "United States Postal Service", "operator:short": "USPS", "operator:type": "public", "operator:wikidata": "Q668687", "ref": "4472000128"}, "type": "Feature"}
{"geometry": {"coordinates": [-81.4162434, 40.8881475], "type": "Point"}, "id": "eQWxf8meHFCfaWArQiUk5g5OcPA=", "properties": {"@source_uri": "https://tools.usps.com/UspsToolsRestServices/rest/POLocator/findLocations", "@spider": "usps_collection_boxes", "addr:city": "NORTH CANTON", "addr:country": "US", "addr:postcode": "44720", "addr:state": "OH", "addr:street_address": "2201 E MAPLE ST", "amenity": "post_box", "collection_times": "Mo-Fr 17:30; Sa 15:30", "note": "ON 12/24 AND 12/31, THIS BOX MAY BE COLLECTED AS EARLY AS 12 NOON.", "nsi_id": "unitedstatespostalservice-a77078", "operator": "United States Postal Service", "operator:short": "USPS", "operator:type": "public", "operator:wikidata": "Q668687", "ref": "4472000139"}, "type": "Feature"}
{"geometry": {"coordinates": [-81.398085, 40.872635], "type": "Point"}, "id": "kDQCJdYbbWzD8zi8Ehw2-YdBsOc=", "properties": {"@source_uri": "https://tools.usps.com/UspsToolsRestServices/rest/POLocator/findLocations", "@spider": "usps_collection_boxes", "addr:city": "NORTH CANTON", "addr:country": "US", "addr:postcode": "44720", "addr:state": "OH", "addr:street_address": "2201 E MAPLE ST", "amenity": "post_box", "collection_times": "Mo-Fr 17:30; Sa 12:00", "indoor": "yes", "note": "ON 12/24 AND 12/31, THIS BOX MAY BE COLLECTED AS EARLY AS 12 NOON.", "nsi_id": "unitedstatespostalservice-a77078", "operator": "United States Postal Service", "operator:short": "USPS", "operator:type": "public", "operator:wikidata": "Q668687", "ref": "4472000140"}, "type": "Feature"}
{"geometry": {"coordinates": [-81.398085, 40.872635], "type": "Point"}, "id": "PlesQuPOvIOGhUTlBk-x-3iwywM=", "properties": {"@source_uri": "https://tools.usps.com/UspsToolsRestServices/rest/POLocator/findLocations", "@spider": "usps_collection_boxes", "addr:city": "NORTH CANTON", "addr:country": "US", "addr:postcode": "44720", "addr:state": "OH", "addr:street_address": "2201 E MAPLE ST", "amenity": "post_box", "collection_times": "Mo-Fr 17:45; Sa 12:15", "indoor": "yes", "note": "ON 12/24 AND 12/31, THIS BOX MAY BE COLLECTED AS EARLY AS 12 NOON.", "nsi_id": "unitedstatespostalservice-a77078", "operator": "United States Postal Service", "operator:short": "USPS", "operator:type": "public", "operator:wikidata": "Q668687", "ref": "4472000141"}, "type": "Feature"}
{"geometry": {"coordinates": [-81.398085, 40.872635], "type": "Point"}, "id": "aFD6l9UjjWHl3JiaOUQ-bHZku7o=", "properties": {"@source_uri": "https://tools.usps.com/UspsToolsRestServices/rest/POLocator/findLocations", "@spider": "usps_collection_boxes", "addr:city": "NORTH CANTON", "addr:country": "US", "addr:postcode": "44720", "addr:state": "OH", "addr:street_address": "1983 E MAPLE ST", "amenity": "post_box", "collection_times": "Mo-Sa 12:00", "nsi_id": "unitedstatespostalservice-a77078", "operator": "United States Postal Service", "operator:short": "USPS", "operator:type": "public", "operator:wikidata": "Q668687", "ref": "4472000145"}, "type": "Feature"}
{"geometry": {"coordinates": [-81.3630876, 40.864278], "type": "Point"}, "id": "YsO0pN60lPnxlJIwpGlc2XSe1bs=", "properties": {"@source_uri": "https://tools.usps.com/UspsToolsRestServices/rest/POLocator/findLocations", "@spider": "usps_collection_boxes", "addr:city": "CANTON", "addr:country": "US", "addr:postcode": "44721", "addr:state": "OH", "addr:street_address": "700 NE WEST CMNS", "amenity": "post_box", "collection_times": "Mo-Sa 15:00", "note": "ON 12/24 AND 12/31, THIS BOX MAY BE COLLECTED AS EARLY AS 12 NOON.", "nsi_id": "unitedstatespostalservice-a77078", "operator": "United States Postal Service", "operator:short": "USPS", "operator:type": "public", "operator:wikidata": "Q668687", "ref": "4472100007"}, "type": "Feature"}
{"geometry": {"coordinates": [-81.3343065937, 40.8728731224], "type": "Point"}, "id": "W9Whq1d-XAKzCI43V0tVerDc-kQ=", "properties": {"@source_uri": "https://tools.usps.com/UspsToolsRestServices/rest/POLocator/findLocations", "@spider": "usps_collection_boxes", "addr:city": "CANTON", "addr:country": "US", "addr:postcode": "44721", "addr:state": "OH", "addr:street_address": "6336 MIDDLEBRANCH AVE NE", "amenity": "post_box", "collection_times": "Mo-Sa 12:15", "note": "ON 12/24 AND 12/31, THIS BOX MAY BE COLLECTED AS EARLY AS 12 NOON.", "nsi_id": "unitedstatespostalservice-a77078", "operator": "United States Postal Service", "operator:short": "USPS", "operator:type": "public", "operator:wikidata": "Q668687", "ref": "4472100008"}, "type": "Feature"}
{"geometry": {"coordinates": [-81.284839, 40.787264], "type": "Point"}, "id": "Kc4GWQ5fVa7FaH0NvOuSyxDOI_E=", "properties": {"@source_uri": "https://tools.usps.com/UspsToolsRestServices/rest/POLocator/findLocations", "@spider": "usps_collection_boxes", "addr:city": "EAST CANTON", "addr:country": "US", "addr:postcode": "44730", "addr:state": "OH", "addr:street_address": "117 NASSAU ST W", "amenity": "post_box", "collection_times": "Mo-Fr 13:00; Sa 11:30", "note": "ON 12/24 AND 12/31, THIS BOX MAY BE COLLECTED AS EARLY AS 12 NOON.", "nsi_id": "unitedstatespostalservice-a77078", "operator": "United States Postal Service", "operator:short": "USPS", "operator:type": "public", "operator:wikidata": "Q668687", "ref": "4473000005"}, "type": "Feature"}
{"geometry": {"coordinates": [-81.2903317, 40.787985], "type": "Point"}, "id": "QVNULsQKU_gw8cU35ZmWW93EIDs=", "properties": {"@source_uri": "https://tools.usps.com/UspsToolsRestServices/rest/POLocator/findLocations", "@spider": "usps_collection_boxes", "addr:city": "EAST CANTON", "addr:country": "US", "addr:postcode": "44730", "addr:state": "OH", "addr:street_address": "406 NOBLE ST W", "amenity": "post_box", "collection_times": "Mo-Fr 11:15; Sa 11:30", "nsi_id": "unitedstatespostalservice-a77078", "operator": "United States Postal Service", "operator:short": "USPS", "operator:type": "public", "operator:wikidata": "Q668687", "ref": "4473000006"}, "type": "Feature"}
{"geometry": {"coordinates": [-81.2821473, 40.788904], "type": "Point"}, "id": "zq-7sL_LZ8zi8bJXpPHHpI1t7PA=", "properties": {"@source_uri": "https://tools.usps.com/UspsToolsRestServices/rest/POLocator/findLocations", "@spider": "usps_collection_boxes", "addr:city": "EAST CANTON", "addr:country": "US", "addr:postcode": "44730", "addr:state": "OH", "addr:street_address": "224 WOOD ST N", "amenity": "post_box", "collection_times": "Mo-Fr 11:15; Sa 11:30", "nsi_id": "unitedstatespostalservice-a77078", "operator": "United States Postal Service", "operator:short": "USPS", "operator:type": "public", "operator:wikidata": "Q668687", "ref": "4473000007"}, "type": "Feature"}
{"geometry": {"coordinates": [-81.2848099, 40.787248], "type": "Point"}, "id": "NAZyfb3MImmazDIgyeRlWSxsoyA=", "properties": {"@source_uri": "https://tools.usps.com/UspsToolsRestServices/rest/POLocator/findLocations", "@spider": "usps_collection_boxes", "addr:city": "EAST CANTON", "addr:country": "US", "addr:postcode": "44730", "addr:state": "OH", "addr:street_address": "117 NASSAU ST W", "amenity": "post_box", "collection_times": "Mo-Fr 13:00; Sa 12:00", "indoor": "yes", "note": "ON 12/24 AND 12/31, THIS BOX MAY BE COLLECTED AS EARLY AS 12 NOON.", "nsi_id": "unitedstatespostalservice-a77078", "operator": "United States Postal Service", "operator:short": "USPS", "operator:type": "public", "operator:wikidata": "Q668687", "ref": "4473000008"}, "type": "Feature"}
{"geometry": {"coordinates": [-81.284859723, 40.787241504], "type": "Point"}, "id": "7BigmSnp8NOzBoQQNlWEvEwKQTk=", "properties": {"@source_uri": "https://tools.usps.com/UspsToolsRestServices/rest/POLocator/findLocations", "@spider": "usps_collection_boxes", "addr:city": "EAST CANTON", "addr:country": "US", "addr:postcode": "44730", "addr:state": "OH", "addr:street_address": "117 NASSAU ST W", "amenity": "post_box", "collection_times": "Mo-Sa 13:00", "indoor": "yes", "note": "ON 12/24 AND 12/31, THIS BOX MAY BE COLLECTED AS EARLY AS 12 NOON.", "nsi_id": "unitedstatespostalservice-a77078", "operator": "United States Postal Service", "operator:short": "USPS", "operator:type": "public", "operator:wikidata": "Q668687", "ref": "4473000009"}, "type": "Feature"}
