{"geometry": {"coordinates": [-82.8398394, 41.274366], "type": "Point"}, "id": "NTOjufJILlaT95RqfPK0lgO-mms=", "properties": {"@spider": "usps_collection_boxes", "addr:city": "BELLEVUE", "addr:country": "US", "addr:full": "120 NORTH ST", "addr:postcode": "44811", "addr:state": "OH", "brand": "USPS", "collection_times": "Mo-Sa 14:30", "name": "USPS COLLECTION BOX - BLUE BOX", "note": "ON 12/24 AND 12/31, THIS BOX MAY BE COLLECTED AS EARLY AS 12 NOON.", "ref": "4481100004"}, "type": "Feature"}
{"geometry": {"coordinates": [-82.8421464, 41.27695], "type": "Point"}, "id": "MZtFmL0RGU8PiGHOcL2Zw8XR4Bk=", "properties": {"@spider": "usps_collection_boxes", "addr:city": "BELLEVUE", "addr:country": "US", "addr:full": "259 NORTHWEST ST", "addr:postcode": "44811", "addr:state": "OH", "brand": "USPS", "collection_times": "Mo-Sa 09:00", "name": "USPS COLLECTION BOX - BLUE BOX", "ref": "4481100007"}, "type": "Feature"}
{"geometry": {"coordinates": [-82.8424744, 41.274986], "type": "Point"}, "id": "uRyAJ-qdBB8ns8awvxOgBmKwQkc=", "properties": {"@spider": "usps_collection_boxes", "addr:city": "BELLEVUE", "addr:country": "US", "addr:full": "228 W MAIN ST", "addr:postcode": "44811", "addr:state": "OH", "brand": "USPS", "collection_times": "Mo-Sa 14:00", "name": "USPS COLLECTION BOX - BLUE BOX", "note": "ON 12/24 AND 12/31, THIS BOX MAY BE COLLECTED AS EARLY AS 12 NOON.", "ref": "4481100008"}, "type": "Feature"}
{"geometry": {"coordinates": [-82.838887, 41.273983], "type": "Point"}, "id": "FPngme10LzeZhqmjl6LEBR6H8lg=", "properties": {"@spider": "usps_collection_boxes", "addr:city": "BELLEVUE", "addr:country": "US", "addr:full": "114 N SANDUSKY ST", "addr:postcode": "44811", "addr:state": "OH", "brand": "USPS", "collection_times": "Mo-Fr 17:00; Sa 15:30", "name": "USPS COLLECTION BOX - BLUE BOX", "note": "ON 12/24 AND 12/31, THIS BOX MAY BE COLLECTED AS EARLY AS 12 NOON.", "ref": "4481100012"}, "type": "Feature"}
{"geometry": {"coordinates": [-82.8586526, 41.263253], "type": "Point"}, "id": "vGEEQZn-6S4CE3lv46wTkPk-6B0=", "properties": {"@spider": "usps_collection_boxes", "addr:city": "BELLEVUE", "addr:country": "US", "addr:full": "855 KILBOURNE ST", "addr:postcode": "44811", "addr:state": "OH", "brand": "USPS", "collection_times": "Mo-Sa 13:00", "name": "USPS COLLECTION BOX - BLUE BOX", "note": "ON 12/24 AND 12/31, THIS BOX MAY BE COLLECTED AS EARLY AS 12 NOON.", "ref": "4481100022"}, "type": "Feature"}
{"geometry": {"coordinates": [-82.838887, 41.273983], "type": "Point"}, "id": "iuCalBg2rI49Zw2TcXgWNBB9VKk=", "properties": {"@spider": "usps_collection_boxes", "addr:city": "BELLEVUE", "addr:country": "US", "addr:full": "114 N SANDUSKY ST", "addr:postcode": "44811", "addr:state": "OH", "brand": "USPS", "collection_times": "Mo-Fr 17:00; Sa 15:30", "name": "USPS COLLECTION BOX - BLUE BOX", "note": "ON 12/24 AND 12/31, THIS BOX MAY BE COLLECTED AS EARLY AS 12 NOON.", "ref": "4481100038"}, "type": "Feature"}
{"geometry": {"coordinates": [-82.838810721, 41.274217535], "type": "Point"}, "id": "kVyMv5KFL-LQLqhKELwEJ3jL2_g=", "properties": {"@spider": "usps_collection_boxes", "addr:city": "BELLEVUE", "addr:country": "US", "addr:full": "140 N SANDUSKY ST", "addr:postcode": "44811", "addr:state": "OH", "brand": "USPS", "collection_times": "Mo-Fr 17:00; Sa 15:30", "name": "USPS COLLECTION BOX - PO LOBBY", "note": "ON 12/24 AND 12/31, THIS BOX MAY BE COLLECTED AS EARLY AS 12 NOON.", "ref": "4481100041"}, "type": "Feature"}
{"geometry": {"coordinates": [-82.5124522, 40.621025], "type": "Point"}, "id": "KUnUZdBuGqjrzZVoJxRiMuQcirc=", "properties": {"@spider": "usps_collection_boxes", "addr:city": "BELLVILLE", "addr:country": "US", "addr:full": "105 BELL ST", "addr:postcode": "44813", "addr:state": "OH", "brand": "USPS", "collection_times": "Mo-Fr 17:00; Sa 12:00", "name": "USPS COLLECTION BOX - PO LOBBY", "note": "ON 12/24 AND 12/31, THIS BOX MAY BE COLLECTED AS EARLY AS 12 NOON.", "ref": "4481300001"}, "type": "Feature"}
{"geometry": {"coordinates": [-82.5125421, 40.621008], "type": "Point"}, "id": "n5sOTRLmqu9sNN5Al575IOiKDfQ=", "properties": {"@spider": "usps_collection_boxes", "addr:city": "BELLVILLE", "addr:country": "US", "addr:full": "105 BELL ST", "addr:postcode": "44813", "addr:state": "OH", "brand": "USPS", "collection_times": "Mo-Fr 17:00; Sa 12:00", "name": "USPS COLLECTION BOX - BLUE BOX", "note": "ON 12/24 AND 12/31, THIS BOX MAY BE COLLECTED AS EARLY AS 12 NOON.", "ref": "4481300002"}, "type": "Feature"}
{"geometry": {"coordinates": [-82.512523845, 40.62098809], "type": "Point"}, "id": "gpWnxaIGY6jrsQpWkW2c0xzTCzI=", "properties": {"@spider": "usps_collection_boxes", "addr:city": "BELLVILLE", "addr:country": "US", "addr:full": "105 BELL ST", "addr:postcode": "44813", "addr:state": "OH", "brand": "USPS", "collection_times": "Mo-Fr 17:00; Sa 12:00", "name": "USPS COLLECTION BOX - PO LOBBY", "note": "ON 12/24 AND 12/31, THIS BOX MAY BE COLLECTED AS EARLY AS 12 NOON.", "ref": "4481300004"}, "type": "Feature"}
{"geometry": {"coordinates": [-82.49341, 41.325143], "type": "Point"}, "id": "-GUoHoEzz10_9I1PCg2PGv58rvU=", "properties": {"@spider": "usps_collection_boxes", "addr:city": "BERLIN HEIGHTS", "addr:country": "US", "addr:full": "2 E MAIN ST", "addr:postcode": "44814", "addr:state": "OH", "brand": "USPS", "collection_times": "Mo-Fr 16:30; Sa 12:00", "name": "USPS COLLECTION BOX - BLUE BOX", "note": "ON 12/24 AND 12/31, THIS BOX MAY BE COLLECTED AS EARLY AS 12 NOON.", "ref": "4481400001"}, "type": "Feature"}
{"geometry": {"coordinates": [-82.49341, 41.325143], "type": "Point"}, "id": "3-aUQmhLq5b3gwJSTAjRQ367IJc=", "properties": {"@spider": "usps_collection_boxes", "addr:city": "BERLIN HEIGHTS", "addr:country": "US", "addr:full": "2 E MAIN ST", "addr:postcode": "44814", "addr:state": "OH", "brand": "USPS", "collection_times": "Mo-Fr 16:30; Sa 12:00", "name": "USPS COLLECTION BOX - PO LOBBY", "note": "ON 12/24 AND 12/31, THIS BOX MAY BE COLLECTED AS EARLY AS 12 NOON.", "ref": "4481400002"}, "type": "Feature"}
{"geometry": {"coordinates": [-82.493168228, 41.325199311], "type": "Point"}, "id": "bCh-q2z67QdNKB3OWMqJaMDsA9M=", "properties": {"@spider": "usps_collection_boxes", "addr:city": "BERLIN HEIGHTS", "addr:country": "US", "addr:full": "2 E MAIN ST", "addr:postcode": "44814", "addr:state": "OH", "brand": "USPS", "collection_times": "Mo-Fr 16:30; Sa 12:00", "name": "USPS COLLECTION BOX - PO LOBBY", "note": "ON 12/24 AND 12/31, THIS BOX MAY BE COLLECTED AS EARLY AS 12 NOON.", "ref": "4481400004"}, "type": "Feature"}
{"geometry": {"coordinates": [-82.426181, 40.588496], "type": "Point"}, "id": "RszupVNpnJzrz7nXgPBTbISJTzU=", "properties": {"@spider": "usps_collection_boxes", "addr:city": "BUTLER", "addr:country": "US", "addr:full": "14 W ELM ST", "addr:postcode": "44822", "addr:state": "OH", "brand": "USPS", "collection_times": "Mo-Fr 16:30; Sa 11:00", "name": "USPS COLLECTION BOX - BLUE BOX", "note": "ON 12/24 AND 12/31, THIS BOX MAY BE COLLECTED AS EARLY AS 12 NOON.", "ref": "4482200001"}, "type": "Feature"}
{"geometry": {"coordinates": [-82.426157, 40.588475], "type": "Point"}, "id": "cJdPlusqZnoyWgxt23zs7kPUZk8=", "properties": {"@spider": "usps_collection_boxes", "addr:city": "BUTLER", "addr:country": "US", "addr:full": "14 W ELM ST", "addr:postcode": "44822", "addr:state": "OH", "brand": "USPS", "collection_times": "Mo-Fr 16:30; Sa 11:00", "name": "USPS COLLECTION BOX - PO LOBBY", "note": "ON 12/24 AND 12/31, THIS BOX MAY BE COLLECTED AS EARLY AS 12 NOON.", "ref": "4482200002"}, "type": "Feature"}
{"geometry": {"coordinates": [-82.426351599, 40.588429483], "type": "Point"}, "id": "SqI5QXeb3jDXVF_XWRAia6Zuyz8=", "properties": {"@spider": "usps_collection_boxes", "addr:city": "BUTLER", "addr:country": "US", "addr:full": "14 W ELM ST", "addr:postcode": "44822", "addr:state": "OH", "brand": "USPS", "collection_times": "Mo-Fr 16:30; Sa 11:00", "name": "USPS COLLECTION BOX - PO LOBBY", "note": "ON 12/24 AND 12/31, THIS BOX MAY BE COLLECTED AS EARLY AS 12 NOON.", "ref": "4482200004"}, "type": "Feature"}
{"geometry": {"coordinates": [-82.8063, 41.400152], "type": "Point"}, "id": "JNESfp11jXYgT6RgiBFWodCCxsg=", "properties": {"@spider": "usps_collection_boxes", "addr:city": "CASTALIA", "addr:country": "US", "addr:full": "105 N WATER ST", "addr:postcode": "44824", "addr:state": "OH", "brand": "USPS", "collection_times": "Mo-Fr 16:30; Sa 12:00", "name": "USPS COLLECTION BOX - BLUE BOX", "note": "ON 12/24 AND 12/31, THIS BOX MAY BE COLLECTED AS EARLY AS 12 NOON.", "ref": "4482400001"}, "type": "Feature"}
{"geometry": {"coordinates": [-82.806325854, 41.400145434], "type": "Point"}, "id": "_O58UxuLIxEVUeb1MHxxQ0c8MX0=", "properties": {"@spider": "usps_collection_boxes", "addr:city": "CASTALIA", "addr:country": "US", "addr:full": "105 N WATER ST", "addr:postcode": "44824", "addr:state": "OH", "brand": "USPS", "collection_times": "Mo-Fr 16:45; Sa 12:00", "name": "USPS COLLECTION BOX - PO LOBBY", "note": "ON 12/24 AND 12/31, THIS BOX MAY BE COLLECTED AS EARLY AS 12 NOON.", "ref": "4482400004"}, "type": "Feature"}
{"geometry": {"coordinates": [-82.492687, 41.25844], "type": "Point"}, "id": "0ZwQOcVBCKDZOQyax3Fm2b9vL7M=", "properties": {"@spider": "usps_collection_boxes", "addr:city": "COLLINS", "addr:country": "US", "addr:full": "2728 N RAILROAD ST", "addr:postcode": "44826", "addr:state": "OH", "brand": "USPS", "collection_times": "Mo-Fr 16:15; Sa 11:30", "name": "USPS COLLECTION BOX - BLUE BOX", "note": "ON 12/24 AND 12/31, THIS BOX MAY BE COLLECTED AS EARLY AS 12 NOON.", "ref": "4482600001"}, "type": "Feature"}
{"geometry": {"coordinates": [-82.492631413, 41.258472464], "type": "Point"}, "id": "U4Fm4zVI5kbsxzW0iAIwUjpL7io=", "properties": {"@spider": "usps_collection_boxes", "addr:city": "COLLINS", "addr:country": "US", "addr:full": "2728 N RAILROAD ST", "addr:postcode": "44826", "addr:state": "OH", "brand": "USPS", "collection_times": "Mo-Fr 16:15; Sa 12:00", "name": "USPS COLLECTION BOX - PO LOBBY", "note": "ON 12/24 AND 12/31, THIS BOX MAY BE COLLECTED AS EARLY AS 12 NOON.", "ref": "4482600004"}, "type": "Feature"}
{"geometry": {"coordinates": [-82.8613128877, 41.2339805188], "type": "Point"}, "id": "DPHjqqwzNMYujAgS6DRGEJV_mKw=", "properties": {"@spider": "usps_collection_boxes", "addr:city": "FLAT ROCK", "addr:country": "US", "addr:full": "15909 JEFFERSON ST", "addr:postcode": "44828", "addr:state": "OH", "brand": "USPS", "collection_times": "Mo-Fr 16:30; Sa 11:00", "name": "USPS COLLECTION BOX - BLUE BOX", "note": "ON 12/24 AND 12/31, THIS BOX MAY BE COLLECTED AS EARLY AS 12 NOON.", "ref": "4482800001"}, "type": "Feature"}
{"geometry": {"coordinates": [-82.8613128877, 41.2339805188], "type": "Point"}, "id": "Zobyk-_UJknod_P9di7dUSayOxY=", "properties": {"@spider": "usps_collection_boxes", "addr:city": "FLAT ROCK", "addr:country": "US", "addr:full": "15909 JEFFERSON ST", "addr:postcode": "44828", "addr:state": "OH", "brand": "USPS", "collection_times": "Mo-Fr 16:30; Sa 11:00", "name": "USPS COLLECTION BOX - PO LOBBY", "note": "ON 12/24 AND 12/31, THIS BOX MAY BE COLLECTED AS EARLY AS 12 NOON.", "ref": "4482800003"}, "type": "Feature"}
{"geometry": {"coordinates": [-83.052036, 41.256397], "type": "Point"}, "id": "ObXw_McKyTHj5txV5vHJtIfY8vA=", "properties": {"@spider": "usps_collection_boxes", "addr:city": "GREEN SPRINGS", "addr:country": "US", "addr:full": "108 S BROADWAY ST", "addr:postcode": "44836", "addr:state": "OH", "brand": "USPS", "collection_times": "Mo-Fr 16:15; Sa 12:00", "name": "USPS COLLECTION BOX - BLUE BOX", "note": "ON 12/24 AND 12/31, THIS BOX MAY BE COLLECTED AS EARLY AS 12 NOON.", "ref": "4483600001"}, "type": "Feature"}
{"geometry": {"coordinates": [-83.052072, 41.256396], "type": "Point"}, "id": "DyJMjcowtVuRzhvHPaMg813aHi0=", "properties": {"@spider": "usps_collection_boxes", "addr:city": "GREEN SPRINGS", "addr:country": "US", "addr:full": "108 S BROADWAY ST", "addr:postcode": "44836", "addr:state": "OH", "brand": "USPS", "collection_times": "Mo-Fr 16:15; Sa 12:00", "name": "USPS COLLECTION BOX - BLUE BOX", "note": "ON 12/24 AND 12/31, THIS BOX MAY BE COLLECTED AS EARLY AS 12 NOON.", "ref": "4483600003"}, "type": "Feature"}
{"geometry": {"coordinates": [-83.052035479, 41.256288503], "type": "Point"}, "id": "T1EaxwHPa1jdrCCKP7YHs9brwJw=", "properties": {"@spider": "usps_collection_boxes", "addr:city": "GREEN SPRINGS", "addr:country": "US", "addr:full": "108 S BROADWAY ST", "addr:postcode": "44836", "addr:state": "OH", "brand": "USPS", "collection_times": "Mo-Fr 16:15; Sa 12:00", "name": "USPS COLLECTION BOX - PO LOBBY", "note": "ON 12/24 AND 12/31, THIS BOX MAY BE COLLECTED AS EARLY AS 12 NOON.", "ref": "4483600005"}, "type": "Feature"}
{"geometry": {"coordinates": [-82.5437387, 41.388305], "type": "Point"}, "id": "KD3cmJBjmjWiH8rpy5iIwirCJu0=", "properties": {"@spider": "usps_collection_boxes", "addr:city": "HURON", "addr:country": "US", "addr:full": "412 CLEVELAND RD E", "addr:postcode": "44839", "addr:state": "OH", "brand": "USPS", "collection_times": "Mo-Sa 09:30", "name": "USPS COLLECTION BOX - BLUE BOX", "ref": "4483900004"}, "type": "Feature"}
{"geometry": {"coordinates": [-82.5946347, 41.397458], "type": "Point"}, "id": "2pfkH2I2IpXST5armSqoRKJoHis=", "properties": {"@spider": "usps_collection_boxes", "addr:city": "HURON", "addr:country": "US", "addr:full": "1 UNIVERSITY DR", "addr:postcode": "44839", "addr:state": "OH", "brand": "USPS", "collection_times": "Mo-Fr 12:00", "name": "USPS COLLECTION BOX - BLUE BOX", "ref": "4483900006"}, "type": "Feature"}
{"geometry": {"coordinates": [-82.5604929, 41.39862], "type": "Point"}, "id": "jz4OdZUXPhV_htZPgOV_StByvXI=", "properties": {"@spider": "usps_collection_boxes", "addr:city": "HURON", "addr:country": "US", "addr:full": "525 CLEVELAND RD W", "addr:postcode": "44839", "addr:state": "OH", "brand": "USPS", "collection_times": "Mo-Sa 09:15", "name": "USPS COLLECTION BOX - BLUE BOX", "ref": "4483900008"}, "type": "Feature"}
{"geometry": {"coordinates": [-82.555977, 41.393097], "type": "Point"}, "id": "ymInbmZbOusvOHvOLRwmhm8qyyI=", "properties": {"@spider": "usps_collection_boxes", "addr:city": "HURON", "addr:country": "US", "addr:full": "378 MAIN ST", "addr:postcode": "44839", "addr:state": "OH", "brand": "USPS", "collection_times": "Mo-Sa 17:00", "name": "USPS COLLECTION BOX - PO LOBBY", "note": "ON 12/24 AND 12/31, THIS BOX MAY BE COLLECTED AS EARLY AS 12 NOON.", "ref": "4483900009"}, "type": "Feature"}
{"geometry": {"coordinates": [-82.555977, 41.393097], "type": "Point"}, "id": "C9--wIcEhIqO_MTQJpGUX-YJGdw=", "properties": {"@spider": "usps_collection_boxes", "addr:city": "HURON", "addr:country": "US", "addr:full": "378 MAIN ST", "addr:postcode": "44839", "addr:state": "OH", "brand": "USPS", "collection_times": "Mo-Sa 17:00", "name": "USPS COLLECTION BOX - PO LOBBY", "note": "ON 12/24 AND 12/31, THIS BOX MAY BE COLLECTED AS EARLY AS 12 NOON.", "ref": "4483900014"}, "type": "Feature"}
{"geometry": {"coordinates": [-82.555977, 41.393097], "type": "Point"}, "id": "-Wbr9zWjL1AlM-g_D39dSg4evOk=", "properties": {"@spider": "usps_collection_boxes", "addr:city": "HURON", "addr:country": "US", "addr:full": "378 MAIN ST", "addr:postcode": "44839", "addr:state": "OH", "brand": "USPS", "collection_times": "Mo-Sa 17:00", "name": "USPS COLLECTION BOX - BLUE BOX", "note": "ON 12/24 AND 12/31, THIS BOX MAY BE COLLECTED AS EARLY AS 12 NOON.", "ref": "4483900015"}, "type": "Feature"}
{"geometry": {"coordinates": [-82.555977, 41.393097], "type": "Point"}, "id": "-67mohoc12nvKxBre3htEdPOajs=", "properties": {"@spider": "usps_collection_boxes", "addr:city": "HURON", "addr:country": "US", "addr:full": "378 MAIN ST", "addr:postcode": "44839", "addr:state": "OH", "brand": "USPS", "collection_times": "Mo-Sa 17:00", "name": "USPS COLLECTION BOX - BLUE BOX", "note": "ON 12/24 AND 12/31, THIS BOX MAY BE COLLECTED AS EARLY AS 12 NOON.", "ref": "4483900016"}, "type": "Feature"}
{"geometry": {"coordinates": [-82.55603996, 41.392990216], "type": "Point"}, "id": "rNXG-imOTWgAmyEKYlU0yQLIQuo=", "properties": {"@spider": "usps_collection_boxes", "addr:city": "HURON", "addr:country": "US", "addr:full": "378 MAIN ST", "addr:postcode": "44839", "addr:state": "OH", "brand": "USPS", "collection_times": "Mo-Fr 17:00; Sa 12:00", "name": "USPS COLLECTION BOX - PO LOBBY", "note": "ON 12/24 AND 12/31, THIS BOX MAY BE COLLECTED AS EARLY AS 12 NOON.", "ref": "4483900018"}, "type": "Feature"}
{"geometry": {"coordinates": [-82.604138, 41.298375], "type": "Point"}, "id": "YXInBOFnipG-rJ_frFMKZYoWtQU=", "properties": {"@spider": "usps_collection_boxes", "addr:city": "MILAN", "addr:country": "US", "addr:full": "11 E CHURCH ST", "addr:postcode": "44846", "addr:state": "OH", "brand": "USPS", "collection_times": "Mo-Fr 17:00; Sa 12:15", "name": "USPS COLLECTION BOX - PO LOBBY", "note": "ON 12/24 AND 12/31, THIS BOX MAY BE COLLECTED AS EARLY AS 12 NOON.", "ref": "4484600003"}, "type": "Feature"}
{"geometry": {"coordinates": [-82.604169, 41.29833], "type": "Point"}, "id": "OoU5eGecDaSDh7nH95EzTLJzZOo=", "properties": {"@spider": "usps_collection_boxes", "addr:city": "MILAN", "addr:country": "US", "addr:full": "11 E CHURCH ST", "addr:postcode": "44846", "addr:state": "OH", "brand": "USPS", "collection_times": "Mo-Fr 17:00; Sa 12:15", "name": "USPS COLLECTION BOX - BLUE BOX", "note": "ON 12/24 AND 12/31, THIS BOX MAY BE COLLECTED AS EARLY AS 12 NOON.", "ref": "4484600004"}, "type": "Feature"}
{"geometry": {"coordinates": [-82.604375104, 41.298263046], "type": "Point"}, "id": "e9Tx71bOwnf-pkQTY5OAVX5Xxlo=", "properties": {"@spider": "usps_collection_boxes", "addr:city": "MILAN", "addr:country": "US", "addr:full": "11 E CHURCH ST", "addr:postcode": "44846", "addr:state": "OH", "brand": "USPS", "collection_times": "Mo-Fr 17:00; Sa 12:00", "name": "USPS COLLECTION BOX - PO LOBBY", "note": "ON 12/24 AND 12/31, THIS BOX MAY BE COLLECTED AS EARLY AS 12 NOON.", "ref": "4484600007"}, "type": "Feature"}
{"geometry": {"coordinates": [-82.694965, 41.244183], "type": "Point"}, "id": "0pIhelrWVLlT2cVluHVeEkCUCW4=", "properties": {"@spider": "usps_collection_boxes", "addr:city": "MONROEVILLE", "addr:country": "US", "addr:full": "10 N MAIN ST", "addr:postcode": "44847", "addr:state": "OH", "brand": "USPS", "collection_times": "Mo-Fr 16:30; Sa 12:00", "name": "USPS COLLECTION BOX - BLUE BOX", "note": "ON 12/24 AND 12/31, THIS BOX MAY BE COLLECTED AS EARLY AS 12 NOON.", "ref": "4484700002"}, "type": "Feature"}
{"geometry": {"coordinates": [-82.694933447, 41.244178232], "type": "Point"}, "id": "TrX6_VuES6K51VEH8mX9nu7Aw_A=", "properties": {"@spider": "usps_collection_boxes", "addr:city": "MONROEVILLE", "addr:country": "US", "addr:full": "10 N MAIN ST", "addr:postcode": "44847", "addr:state": "OH", "brand": "USPS", "collection_times": "Mo-Fr 16:30; Sa 12:00", "name": "USPS COLLECTION BOX - PO LOBBY", "note": "ON 12/24 AND 12/31, THIS BOX MAY BE COLLECTED AS EARLY AS 12 NOON.", "ref": "4484700005"}, "type": "Feature"}
{"geometry": {"coordinates": [-82.6198116, 41.246838], "type": "Point"}, "id": "RVFRrdawHUpyxp5PL4a74nva8jU=", "properties": {"@spider": "usps_collection_boxes", "addr:city": "NORWALK", "addr:country": "US", "addr:full": "117 WHITTLESEY AVE", "addr:postcode": "44857", "addr:state": "OH", "brand": "USPS", "collection_times": "Mo-Sa 11:00", "name": "USPS COLLECTION BOX - BLUE BOX", "ref": "4485700001"}, "type": "Feature"}
{"geometry": {"coordinates": [-82.6140511, 41.259662], "type": "Point"}, "id": "upgiDwJWq8d1vRkYj9-yBmuYYwE=", "properties": {"@spider": "usps_collection_boxes", "addr:city": "NORWALK", "addr:country": "US", "addr:full": "201 MILAN AVE", "addr:postcode": "44857", "addr:state": "OH", "brand": "USPS", "collection_times": "Mo-Sa 10:15", "name": "USPS COLLECTION BOX - BLUE BOX", "ref": "4485700003"}, "type": "Feature"}
{"geometry": {"coordinates": [-82.6115678, 41.256651], "type": "Point"}, "id": "wfibhMOUfonRo5d7jN4MbmHRlJs=", "properties": {"@spider": "usps_collection_boxes", "addr:city": "NORWALK", "addr:country": "US", "addr:full": "180 MILAN AVE", "addr:postcode": "44857", "addr:state": "OH", "brand": "USPS", "collection_times": "Mo-Sa 10:00", "name": "USPS COLLECTION BOX - BLUE BOX", "ref": "4485700004"}, "type": "Feature"}
{"geometry": {"coordinates": [-82.615944, 41.24286], "type": "Point"}, "id": "BnnwYruXXlmP_D54Msf3VA57XNg=", "properties": {"@spider": "usps_collection_boxes", "addr:city": "NORWALK", "addr:country": "US", "addr:full": "16 WHITTLESEY AVE", "addr:postcode": "44857", "addr:state": "OH", "brand": "USPS", "collection_times": "Mo-Sa 17:00", "name": "USPS COLLECTION BOX - BLUE BOX", "note": "ON 12/24 AND 12/31, THIS BOX MAY BE COLLECTED AS EARLY AS 12 NOON.", "ref": "4485700015"}, "type": "Feature"}
{"geometry": {"coordinates": [-82.616, 41.242876], "type": "Point"}, "id": "jz5Vg3DLI-xS4P8zwF2ACcGctRk=", "properties": {"@spider": "usps_collection_boxes", "addr:city": "NORWALK", "addr:country": "US", "addr:full": "16 WHITTLESEY AVE", "addr:postcode": "44857", "addr:state": "OH", "brand": "USPS", "collection_times": "Mo-Sa 17:00", "name": "USPS COLLECTION BOX - BLUE BOX", "note": "ON 12/24 AND 12/31, THIS BOX MAY BE COLLECTED AS EARLY AS 12 NOON.", "ref": "4485700016"}, "type": "Feature"}
{"geometry": {"coordinates": [-82.616, 41.242876], "type": "Point"}, "id": "ZoLA0M_OJDcnG5Po1dzia4QbtfI=", "properties": {"@spider": "usps_collection_boxes", "addr:city": "NORWALK", "addr:country": "US", "addr:full": "16 WHITTLESEY AVE", "addr:postcode": "44857", "addr:state": "OH", "brand": "USPS", "collection_times": "Mo-Sa 17:00", "name": "USPS COLLECTION BOX - BLUE BOX", "note": "ON 12/24 AND 12/31, THIS BOX MAY BE COLLECTED AS EARLY AS 12 NOON.", "ref": "4485700018"}, "type": "Feature"}
{"geometry": {"coordinates": [-82.616, 41.242876], "type": "Point"}, "id": "1cIEn5_vqlD6QttoMof8dX279RE=", "properties": {"@spider": "usps_collection_boxes", "addr:city": "NORWALK", "addr:country": "US", "addr:full": "16 WHITTLESEY AVE", "addr:postcode": "44857", "addr:state": "OH", "brand": "USPS", "collection_times": "Mo-Sa 17:00", "name": "USPS COLLECTION BOX - PO LOBBY", "note": "ON 12/24 AND 12/31, THIS BOX MAY BE COLLECTED AS EARLY AS 12 NOON.", "ref": "4485700020"}, "type": "Feature"}
{"geometry": {"coordinates": [-82.612354, 41.255557], "type": "Point"}, "id": "YKDUeswwBbmlwueL2eaKfhrco1Q=", "properties": {"@spider": "usps_collection_boxes", "addr:city": "NORWALK", "addr:country": "US", "addr:full": "171 MILAN AVE", "addr:postcode": "44857", "addr:state": "OH", "brand": "USPS", "collection_times": "Mo-Fr 10:45; Sa 10:30", "name": "USPS COLLECTION BOX - BLUE BOX", "ref": "4485700027"}, "type": "Feature"}
{"geometry": {"coordinates": [-82.6131396, 41.258357], "type": "Point"}, "id": "Vg_FeM_3a155inJvN8RS_IO51vo=", "properties": {"@spider": "usps_collection_boxes", "addr:city": "NORWALK", "addr:country": "US", "addr:full": "201 CLINE ST", "addr:postcode": "44857", "addr:state": "OH", "brand": "USPS", "collection_times": "Mo-Sa 10:30", "name": "USPS COLLECTION BOX - BLUE BOX", "ref": "4485700028"}, "type": "Feature"}
{"geometry": {"coordinates": [-82.616014984, 41.242936001], "type": "Point"}, "id": "HTiBktSFqdkl6T5w7atzWLUaGSw=", "properties": {"@spider": "usps_collection_boxes", "addr:city": "NORWALK", "addr:country": "US", "addr:full": "16 WHITTLESEY AVE", "addr:postcode": "44857", "addr:state": "OH", "brand": "USPS", "collection_times": "Mo-Fr 17:00; Sa 12:00", "name": "USPS COLLECTION BOX - PO LOBBY", "note": "ON 12/24 AND 12/31, THIS BOX MAY BE COLLECTED AS EARLY AS 12 NOON.", "ref": "4485700035"}, "type": "Feature"}
{"geometry": {"coordinates": [-82.7018233, 41.458736], "type": "Point"}, "id": "zBwTpiGFXLX4eMxlVfaNk5o3hv0=", "properties": {"@spider": "usps_collection_boxes", "addr:city": "SANDUSKY", "addr:country": "US", "addr:full": "222 MEIGS ST", "addr:postcode": "44870", "addr:state": "OH", "brand": "USPS", "collection_times": "Mo-Fr 16:15; Sa 12:00", "name": "USPS COLLECTION BOX - BLUE BOX", "note": "ON 12/24 AND 12/31, THIS BOX MAY BE COLLECTED AS EARLY AS 12 NOON.", "ref": "4487000004"}, "type": "Feature"}
{"geometry": {"coordinates": [-82.664667, 41.440602], "type": "Point"}, "id": "2Ov0kUPS02d3Wr6L0uFx_I1UrgY=", "properties": {"@spider": "usps_collection_boxes", "addr:city": "SANDUSKY", "addr:country": "US", "addr:full": "127 PALMER DR", "addr:postcode": "44870", "addr:state": "OH", "brand": "USPS", "collection_times": "Mo-Sa 10:30", "name": "USPS COLLECTION BOX - BLUE BOX", "ref": "4487000007"}, "type": "Feature"}
{"geometry": {"coordinates": [-82.666852041, 41.415065828], "type": "Point"}, "id": "yao_bDJqknEfB-cn35gFckshUCg=", "properties": {"@spider": "usps_collection_boxes", "addr:city": "SANDUSKY", "addr:country": "US", "addr:full": "5002 TIMBER COMMONS DR", "addr:postcode": "44870", "addr:state": "OH", "brand": "USPS", "collection_times": "Mo-Sa 14:30", "name": "USPS COLLECTION BOX - BLUE BOX", "note": "ON 12/24 AND 12/31, THIS BOX MAY BE COLLECTED AS EARLY AS 12 NOON.", "ref": "4487000009"}, "type": "Feature"}
{"geometry": {"coordinates": [-82.7360995, 41.440393], "type": "Point"}, "id": "icHZu6bPjP4C718xry99hu4F1OI=", "properties": {"@spider": "usps_collection_boxes", "addr:city": "SANDUSKY", "addr:country": "US", "addr:full": "2609 VENICE RD", "addr:postcode": "44870", "addr:state": "OH", "brand": "USPS", "collection_times": "Mo-Sa 14:45", "name": "USPS COLLECTION BOX - BLUE BOX", "note": "ON 12/24 AND 12/31, THIS BOX MAY BE COLLECTED AS EARLY AS 12 NOON.", "ref": "4487000011"}, "type": "Feature"}
{"geometry": {"coordinates": [-82.6819413, 41.42015], "type": "Point"}, "id": "rYqU34f7F5y7S7Yio1OVia1IFbQ=", "properties": {"@spider": "usps_collection_boxes", "addr:city": "SANDUSKY", "addr:country": "US", "addr:full": "3416 COLUMBUS AVE", "addr:postcode": "44870", "addr:state": "OH", "brand": "USPS", "collection_times": "Mo-Fr 14:30; Sa 13:00", "name": "USPS COLLECTION BOX - BLUE BOX", "note": "ON 12/24 AND 12/31, THIS BOX MAY BE COLLECTED AS EARLY AS 12 NOON.", "ref": "4487000016"}, "type": "Feature"}
{"geometry": {"coordinates": [-82.7096811, 41.455858], "type": "Point"}, "id": "m2RiQtNM5vxMtDihcq99trCru1c=", "properties": {"@spider": "usps_collection_boxes", "addr:city": "SANDUSKY", "addr:country": "US", "addr:full": "173 E WASHINGTON ROW", "addr:postcode": "44870", "addr:state": "OH", "brand": "USPS", "collection_times": "Mo-Fr 16:30; Sa 12:00", "name": "USPS COLLECTION BOX - BLUE BOX", "note": "ON 12/24 AND 12/31, THIS BOX MAY BE COLLECTED AS EARLY AS 12 NOON.", "ref": "4487000021"}, "type": "Feature"}
{"geometry": {"coordinates": [-82.6950681, 41.447123], "type": "Point"}, "id": "GY64iMJ_n-ki8mK73M6QheK0FEg=", "properties": {"@spider": "usps_collection_boxes", "addr:city": "SANDUSKY", "addr:country": "US", "addr:full": "1104 ERIE BLVD", "addr:postcode": "44870", "addr:state": "OH", "brand": "USPS", "collection_times": "Mo-Sa 11:00", "name": "USPS COLLECTION BOX - BLUE BOX", "ref": "4487000022"}, "type": "Feature"}
{"geometry": {"coordinates": [-82.7829521, 41.447126], "type": "Point"}, "id": "AHTpOk2hcDp2xzitoF4l-UtVcdk=", "properties": {"@spider": "usps_collection_boxes", "addr:city": "SANDUSKY", "addr:country": "US", "addr:full": "101 LANDRUSH ST", "addr:postcode": "44870", "addr:state": "OH", "brand": "USPS", "collection_times": "Mo-Sa 10:00", "name": "USPS COLLECTION BOX - BLUE BOX", "ref": "4487000029"}, "type": "Feature"}
{"geometry": {"coordinates": [-82.6955394, 41.445229], "type": "Point"}, "id": "UF0rfNY7cOZDgiTr9lcVL6eK0P8=", "properties": {"@spider": "usps_collection_boxes", "addr:city": "SANDUSKY", "addr:country": "US", "addr:full": "1040 CLEVELAND RD", "addr:postcode": "44870", "addr:state": "OH", "brand": "USPS", "collection_times": "Mo-Fr 16:00; Sa 15:00", "name": "USPS COLLECTION BOX - BLUE BOX", "note": "ON 12/24 AND 12/31, THIS BOX MAY BE COLLECTED AS EARLY AS 12 NOON.", "ref": "4487000034"}, "type": "Feature"}
{"geometry": {"coordinates": [-82.6955329, 41.445231], "type": "Point"}, "id": "nLlNOxlQTgvOhfzrlU9rZa610Rc=", "properties": {"@spider": "usps_collection_boxes", "addr:city": "SANDUSKY", "addr:country": "US", "addr:full": "1040 CLEVELAND RD", "addr:postcode": "44870", "addr:state": "OH", "brand": "USPS", "collection_times": "Mo-Fr 16:00; Sa 15:00", "name": "USPS COLLECTION BOX - BLUE BOX", "note": "ON 12/24 AND 12/31, THIS BOX MAY BE COLLECTED AS EARLY AS 12 NOON.", "ref": "4487000035"}, "type": "Feature"}
{"geometry": {"coordinates": [-82.7027314, 41.434975], "type": "Point"}, "id": "xqGTubAoTSRoG_4iM_PvuFOgkoE=", "properties": {"@spider": "usps_collection_boxes", "addr:city": "SANDUSKY", "addr:country": "US", "addr:full": "2220 CALDWELL ST", "addr:postcode": "44870", "addr:state": "OH", "brand": "USPS", "collection_times": "Mo-Fr 17:15; Sa 16:00", "name": "USPS COLLECTION BOX - BLUE BOX", "note": "ON 12/24 AND 12/31, THIS BOX MAY BE COLLECTED AS EARLY AS 12 NOON.", "ref": "4487000042"}, "type": "Feature"}
{"geometry": {"coordinates": [-82.7082524, 41.457003], "type": "Point"}, "id": "ymX5zbQ7p0MImjUa-uLQ0wbo2Rc=", "properties": {"@spider": "usps_collection_boxes", "addr:city": "SANDUSKY", "addr:country": "US", "addr:full": "200 HANCOCK ST", "addr:postcode": "44870", "addr:state": "OH", "brand": "USPS", "collection_times": "Mo-Fr 16:30; Sa 12:00", "name": "USPS COLLECTION BOX - BLUE BOX", "note": "ON 12/24 AND 12/31, THIS BOX MAY BE COLLECTED AS EARLY AS 12 NOON.", "ref": "4487000043"}, "type": "Feature"}
{"geometry": {"coordinates": [-82.7126112, 41.454732], "type": "Point"}, "id": "kaHuXuxfYscD7WT3CKzdd0GnNu0=", "properties": {"@spider": "usps_collection_boxes", "addr:city": "SANDUSKY", "addr:country": "US", "addr:full": "237 W WASHINGTON ROW", "addr:postcode": "44870", "addr:state": "OH", "brand": "USPS", "collection_times": "Mo-Fr 17:00; Sa 14:00", "name": "USPS COLLECTION BOX - BLUE BOX", "note": "ON 12/24 AND 12/31, THIS BOX MAY BE COLLECTED AS EARLY AS 12 NOON.", "ref": "4487000044"}, "type": "Feature"}
{"geometry": {"coordinates": [-82.7126096, 41.454716], "type": "Point"}, "id": "cCvc0mQyubSJeVu_rVgzkjgWIPE=", "properties": {"@spider": "usps_collection_boxes", "addr:city": "SANDUSKY", "addr:country": "US", "addr:full": "237 W WASHINGTON ROW", "addr:postcode": "44870", "addr:state": "OH", "brand": "USPS", "collection_times": "Mo-Fr 17:00; Sa 14:00", "name": "USPS COLLECTION BOX - BLUE BOX", "note": "ON 12/24 AND 12/31, THIS BOX MAY BE COLLECTED AS EARLY AS 12 NOON.", "ref": "4487000046"}, "type": "Feature"}
{"geometry": {"coordinates": [-82.7125981, 41.454727], "type": "Point"}, "id": "E_-XaFD90RhxnGIu7q4GA5PUo-0=", "properties": {"@spider": "usps_collection_boxes", "addr:city": "SANDUSKY", "addr:country": "US", "addr:full": "237 W WASHINGTON ROW", "addr:postcode": "44870", "addr:state": "OH", "brand": "USPS", "collection_times": "Mo-Fr 17:00; Sa 14:00", "name": "USPS COLLECTION BOX - BLUE BOX", "note": "ON 12/24 AND 12/31, THIS BOX MAY BE COLLECTED AS EARLY AS 12 NOON.", "ref": "4487000048"}, "type": "Feature"}
{"geometry": {"coordinates": [-82.7101209, 41.45369], "type": "Point"}, "id": "rbzTExPO6R5g-sTlT-zeGcoznqU=", "properties": {"@spider": "usps_collection_boxes", "addr:city": "SANDUSKY", "addr:country": "US", "addr:full": "402 COLUMBUS AVE", "addr:postcode": "44870", "addr:state": "OH", "brand": "USPS", "collection_times": "Mo-Sa 14:00", "name": "USPS COLLECTION BOX - BLUE BOX", "note": "ON 12/24 AND 12/31, THIS BOX MAY BE COLLECTED AS EARLY AS 12 NOON.", "ref": "4487000053"}, "type": "Feature"}
{"geometry": {"coordinates": [-82.679389336, 41.423562], "type": "Point"}, "id": "1zC_oxJF7JN7rKzBXQ1jcPKkHGY=", "properties": {"@spider": "usps_collection_boxes", "addr:city": "SANDUSKY", "addr:country": "US", "addr:full": "3700 MILAN RD", "addr:postcode": "44870", "addr:state": "OH", "brand": "USPS", "collection_times": "Mo-Sa 14:45", "name": "USPS COLLECTION BOX - BLUE BOX", "note": "ON 12/24 AND 12/31, THIS BOX MAY BE COLLECTED AS EARLY AS 12 NOON.", "ref": "4487000055"}, "type": "Feature"}
{"geometry": {"coordinates": [-82.7717121, 41.444746965], "type": "Point"}, "id": "2WKTrTPl8P_KZ_WzTf8WeE-GFJY=", "properties": {"@spider": "usps_collection_boxes", "addr:city": "SANDUSKY", "addr:country": "US", "addr:full": "303 FREMONT AVE", "addr:postcode": "44870", "addr:state": "OH", "brand": "USPS", "collection_times": "Mo-Sa 14:45", "name": "USPS COLLECTION BOX - BLUE BOX", "note": "ON 12/24 AND 12/31, THIS BOX MAY BE COLLECTED AS EARLY AS 12 NOON.", "ref": "4487000056"}, "type": "Feature"}
{"geometry": {"coordinates": [-82.6869799, 41.415623], "type": "Point"}, "id": "An4X5PMk77l_j1fc4-NcHwDnhUE=", "properties": {"@spider": "usps_collection_boxes", "addr:city": "SANDUSKY", "addr:country": "US", "addr:full": "3708 COLUMBUS AVE", "addr:postcode": "44870", "addr:state": "OH", "brand": "USPS", "collection_times": "Mo-Fr 14:30; Sa 13:00", "name": "USPS COLLECTION BOX - BLUE BOX", "note": "ON 12/24 AND 12/31, THIS BOX MAY BE COLLECTED AS EARLY AS 12 NOON.", "ref": "4487000057"}, "type": "Feature"}
{"geometry": {"coordinates": [-82.6700976, 41.417735], "type": "Point"}, "id": "KrYAWMIjOWAbz18s-0uadIKm8cw=", "properties": {"@spider": "usps_collection_boxes", "addr:city": "SANDUSKY", "addr:country": "US", "addr:full": "4314 MILAN RD", "addr:postcode": "44870", "addr:state": "OH", "brand": "USPS", "collection_times": "Mo-Fr 16:00; Sa 14:00", "name": "USPS COLLECTION BOX - BLUE BOX", "note": "ON 12/24 AND 12/31, THIS BOX MAY BE COLLECTED AS EARLY AS 12 NOON.", "ref": "4487000060"}, "type": "Feature"}
{"geometry": {"coordinates": [-82.6748471, 41.442612], "type": "Point"}, "id": "3DZd7YHDsA76VthvfA0JtX4X6d8=", "properties": {"@spider": "usps_collection_boxes", "addr:city": "SANDUSKY", "addr:country": "US", "addr:full": "230 MARINA POINT DR", "addr:postcode": "44870", "addr:state": "OH", "brand": "USPS", "collection_times": "Mo-Sa 11:00", "name": "USPS COLLECTION BOX - BLUE BOX", "ref": "4487000062"}, "type": "Feature"}
{"geometry": {"coordinates": [-82.7024531, 41.435091], "type": "Point"}, "id": "p5rkcsTyVwqDIh35pAwGw6zqAmc=", "properties": {"@spider": "usps_collection_boxes", "addr:city": "SANDUSKY", "addr:country": "US", "addr:full": "2220 CALDWELL ST", "addr:postcode": "44870", "addr:state": "OH", "brand": "USPS", "collection_times": "Mo-Fr 17:15; Sa 16:00", "name": "USPS COLLECTION BOX - BLUE BOX", "note": "ON 12/24 AND 12/31, THIS BOX MAY BE COLLECTED AS EARLY AS 12 NOON.", "ref": "4487000063"}, "type": "Feature"}
{"geometry": {"coordinates": [-82.7027233, 41.43499], "type": "Point"}, "id": "G01-A39wUYiVdFJa_8GCPbQJ9r4=", "properties": {"@spider": "usps_collection_boxes", "addr:city": "SANDUSKY", "addr:country": "US", "addr:full": "2220 CALDWELL ST", "addr:postcode": "44870", "addr:state": "OH", "brand": "USPS", "collection_times": "Mo-Fr 17:15; Sa 16:00", "name": "USPS COLLECTION BOX - BLUE BOX", "note": "ON 12/24 AND 12/31, THIS BOX MAY BE COLLECTED AS EARLY AS 12 NOON.", "ref": "4487000065"}, "type": "Feature"}
{"geometry": {"coordinates": [-82.7027268, 41.434986], "type": "Point"}, "id": "BrRhf5N9EaxQhOaUXpJ0aYIv47s=", "properties": {"@spider": "usps_collection_boxes", "addr:city": "SANDUSKY", "addr:country": "US", "addr:full": "2220 CALDWELL ST", "addr:postcode": "44870", "addr:state": "OH", "brand": "USPS", "collection_times": "Mo-Fr 17:15; Sa 16:00", "name": "USPS COLLECTION BOX - BLUE BOX", "note": "ON 12/24 AND 12/31, THIS BOX MAY BE COLLECTED AS EARLY AS 12 NOON.", "ref": "4487000067"}, "type": "Feature"}
{"geometry": {"coordinates": [-82.7024649, 41.435094], "type": "Point"}, "id": "m2eEDKvBN7j-dk1sO9SRwQLOxMs=", "properties": {"@spider": "usps_collection_boxes", "addr:city": "SANDUSKY", "addr:country": "US", "addr:full": "2220 CALDWELL ST", "addr:postcode": "44870", "addr:state": "OH", "brand": "USPS", "collection_times": "Mo-Fr 17:15; Sa 16:00", "name": "USPS COLLECTION BOX - BLUE BOX", "note": "ON 12/24 AND 12/31, THIS BOX MAY BE COLLECTED AS EARLY AS 12 NOON.", "ref": "4487000068"}, "type": "Feature"}
{"geometry": {"coordinates": [-82.7024529, 41.435091], "type": "Point"}, "id": "ZlkDbH4wqozTd7Jo9w7PxAfpv3A=", "properties": {"@spider": "usps_collection_boxes", "addr:city": "SANDUSKY", "addr:country": "US", "addr:full": "2220 CALDWELL ST", "addr:postcode": "44870", "addr:state": "OH", "brand": "USPS", "collection_times": "Mo-Fr 17:15; Sa 16:00", "name": "USPS COLLECTION BOX - BLUE BOX", "note": "ON 12/24 AND 12/31, THIS BOX MAY BE COLLECTED AS EARLY AS 12 NOON.", "ref": "4487000069"}, "type": "Feature"}
{"geometry": {"coordinates": [-82.7024586, 41.434667], "type": "Point"}, "id": "nrBceP6bYxK9sogWsMIQ-3K7O8Y=", "properties": {"@spider": "usps_collection_boxes", "addr:city": "SANDUSKY", "addr:country": "US", "addr:full": "2220 CALDWELL ST", "addr:postcode": "44870", "addr:state": "OH", "brand": "USPS", "collection_times": "Mo-Fr 17:15; Sa 16:00", "name": "USPS COLLECTION BOX - PO LOBBY", "note": "ON 12/24 AND 12/31, THIS BOX MAY BE COLLECTED AS EARLY AS 12 NOON.", "ref": "4487000070"}, "type": "Feature"}
{"geometry": {"coordinates": [-82.7024207, 41.434694], "type": "Point"}, "id": "A7nZBjhdiHvGHXyqvHS4FU6yA6w=", "properties": {"@spider": "usps_collection_boxes", "addr:city": "SANDUSKY", "addr:country": "US", "addr:full": "2220 CALDWELL ST", "addr:postcode": "44870", "addr:state": "OH", "brand": "USPS", "collection_times": "Mo-Fr 17:15; Sa 16:00", "name": "USPS COLLECTION BOX - PO LOBBY", "note": "ON 12/24 AND 12/31, THIS BOX MAY BE COLLECTED AS EARLY AS 12 NOON.", "ref": "4487000071"}, "type": "Feature"}
{"geometry": {"coordinates": [-82.7024428, 41.434681], "type": "Point"}, "id": "lqMWnKnVV1Owgt0_s-E4b7PDXlI=", "properties": {"@spider": "usps_collection_boxes", "addr:city": "SANDUSKY", "addr:country": "US", "addr:full": "2220 CALDWELL ST", "addr:postcode": "44870", "addr:state": "OH", "brand": "USPS", "collection_times": "Mo-Fr 17:15; Sa 16:00", "name": "USPS COLLECTION BOX - PO LOBBY", "note": "ON 12/24 AND 12/31, THIS BOX MAY BE COLLECTED AS EARLY AS 12 NOON.", "ref": "4487000072"}, "type": "Feature"}
{"geometry": {"coordinates": [-82.7024752, 41.434661], "type": "Point"}, "id": "AU56FG2VQ8hQuGm-YOBR4d9y14k=", "properties": {"@spider": "usps_collection_boxes", "addr:city": "SANDUSKY", "addr:country": "US", "addr:full": "2220 CALDWELL ST", "addr:postcode": "44870", "addr:state": "OH", "brand": "USPS", "collection_times": "Mo-Fr 17:15; Sa 16:00", "name": "USPS COLLECTION BOX - PO LOBBY", "note": "ON 12/24 AND 12/31, THIS BOX MAY BE COLLECTED AS EARLY AS 12 NOON.", "ref": "4487000073"}, "type": "Feature"}
{"geometry": {"coordinates": [-82.7024482, 41.434692], "type": "Point"}, "id": "qzFSJ82lJP5IZIyWkfGEYbei6Wo=", "properties": {"@spider": "usps_collection_boxes", "addr:city": "SANDUSKY", "addr:country": "US", "addr:full": "2220 CALDWELL ST", "addr:postcode": "44870", "addr:state": "OH", "brand": "USPS", "collection_times": "Mo-Fr 17:15; Sa 16:00", "name": "USPS COLLECTION BOX - PO LOBBY", "note": "ON 12/24 AND 12/31, THIS BOX MAY BE COLLECTED AS EARLY AS 12 NOON.", "ref": "4487000074"}, "type": "Feature"}
{"geometry": {"coordinates": [-82.7113772, 41.455227], "type": "Point"}, "id": "aJqQ2Mle4cHaSms9pHyQKSxocvY=", "properties": {"@spider": "usps_collection_boxes", "addr:city": "SANDUSKY", "addr:country": "US", "addr:full": "247 COLUMBUS AVE", "addr:postcode": "44870", "addr:state": "OH", "brand": "USPS", "collection_times": "Mo-Sa 14:00", "name": "USPS COLLECTION BOX - BLUE BOX", "note": "ON 12/24 AND 12/31, THIS BOX MAY BE COLLECTED AS EARLY AS 12 NOON.", "ref": "4487000080"}, "type": "Feature"}
{"geometry": {"coordinates": [-82.7024759, 41.434666], "type": "Point"}, "id": "wgAaQU-OUnUg2_jnYS8JKhNujOQ=", "properties": {"@spider": "usps_collection_boxes", "addr:city": "SANDUSKY", "addr:country": "US", "addr:full": "2220 CALDWELL ST", "addr:postcode": "44870", "addr:state": "OH", "brand": "USPS", "collection_times": "Mo-Fr 17:15; Sa 16:00", "name": "USPS COLLECTION BOX - APC", "note": "ON 12/24 AND 12/31, THIS BOX MAY BE COLLECTED AS EARLY AS 12 NOON.", "ref": "4487000084"}, "type": "Feature"}
{"geometry": {"coordinates": [-82.702542206, 41.434196092], "type": "Point"}, "id": "K4reYyL4oKPLp90pAchoqoh2NUQ=", "properties": {"@spider": "usps_collection_boxes", "addr:city": "SANDUSKY", "addr:country": "US", "addr:full": "2220 CALDWELL ST", "addr:postcode": "44870", "addr:state": "OH", "brand": "USPS", "collection_times": "Mo-Fr 17:00; Sa 12:00", "name": "USPS COLLECTION BOX - PO LOBBY", "note": "ON 12/24 AND 12/31, THIS BOX MAY BE COLLECTED AS EARLY AS 12 NOON.", "ref": "4487000093"}, "type": "Feature"}
{"geometry": {"coordinates": [-82.4028881, 41.254784], "type": "Point"}, "id": "lFM9aYCJUvdoj9C4PmTX27RWKW8=", "properties": {"@spider": "usps_collection_boxes", "addr:city": "WAKEMAN", "addr:country": "US", "addr:full": "16 W MAIN ST", "addr:postcode": "44889", "addr:state": "OH", "brand": "USPS", "collection_times": "Mo-Fr 16:30; Sa 11:45", "name": "USPS COLLECTION BOX - BLUE BOX", "note": "ON 12/24 AND 12/31, THIS BOX MAY BE COLLECTED AS EARLY AS 12 NOON.", "ref": "4488900002"}, "type": "Feature"}
{"geometry": {"coordinates": [-82.3919024, 41.254667], "type": "Point"}, "id": "faohj3K11iApIVGgGzgUgH2GId4=", "properties": {"@spider": "usps_collection_boxes", "addr:city": "WAKEMAN", "addr:country": "US", "addr:full": "64 E MAIN ST", "addr:postcode": "44889", "addr:state": "OH", "brand": "USPS", "collection_times": "Mo-Sa 10:00", "name": "USPS COLLECTION BOX - BLUE BOX", "ref": "4488900003"}, "type": "Feature"}
{"geometry": {"coordinates": [-82.3542505, 41.330356], "type": "Point"}, "id": "JENylJILUSZ_abJz9wbnK3gqdOE=", "properties": {"@spider": "usps_collection_boxes", "addr:city": "WAKEMAN", "addr:country": "US", "addr:full": "11011 CHAPEL ST", "addr:postcode": "44889", "addr:state": "OH", "brand": "USPS", "collection_times": "Mo-Sa 10:30", "name": "USPS COLLECTION BOX - BLUE BOX", "ref": "4488900005"}, "type": "Feature"}
{"geometry": {"coordinates": [-82.402851578, 41.254759445], "type": "Point"}, "id": "9Wd0JClrqQLLrEWZV3YIldh3xqQ=", "properties": {"@spider": "usps_collection_boxes", "addr:city": "WAKEMAN", "addr:country": "US", "addr:full": "16 W MAIN ST", "addr:postcode": "44889", "addr:state": "OH", "brand": "USPS", "collection_times": "Mo-Fr 16:30; Sa 12:00", "name": "USPS COLLECTION BOX - PO LOBBY", "note": "ON 12/24 AND 12/31, THIS BOX MAY BE COLLECTED AS EARLY AS 12 NOON.", "ref": "4488900007"}, "type": "Feature"}
