{"geometry": {"coordinates": [-84.289820717, 39.563566075], "type": "Point"}, "id": "jHX6AK-ybvUNRpOPJ21oyY1NvJo=", "properties": {"@spider": "usps_collection_boxes", "addr:city": "MIDDLETOWN", "addr:country": "US", "addr:full": "712 E 2ND ST", "addr:postcode": "45005", "addr:state": "OH", "brand": "USPS", "collection_times": "Mo-Fr 17:00; Sa 16:00", "name": "USPS COLLECTION BOX - BLUE BOX", "note": "ON 12/24 AND 12/31, THIS BOX MAY BE COLLECTED AS EARLY AS 12 NOON.", "ref": "4500500009"}, "type": "Feature"}
{"geometry": {"coordinates": [-84.2710839, 39.5642], "type": "Point"}, "id": "i8kG5jGhibHDE4GN_pMfJMetm4U=", "properties": {"@spider": "usps_collection_boxes", "addr:city": "MIDDLETOWN", "addr:country": "US", "addr:full": "8401 CLAUDE THOMAS RD", "addr:postcode": "45005", "addr:state": "OH", "brand": "USPS", "collection_times": "Mo-Fr 11:15; Sa 09:00", "name": "USPS COLLECTION BOX - BLUE BOX", "ref": "4500500024"}, "type": "Feature"}
{"geometry": {"coordinates": [-84.323923011, 39.584081818], "type": "Point"}, "id": "khuugY6Rk1IgybSKiCkkce8FQf4=", "properties": {"@spider": "usps_collection_boxes", "addr:city": "MIDDLETOWN", "addr:country": "US", "addr:full": "769 CENTRAL AVE", "addr:postcode": "45005", "addr:state": "OH", "brand": "USPS", "collection_times": "Mo-Fr 15:45; Sa 12:00", "name": "USPS COLLECTION BOX - BLUE BOX", "note": "ON 12/24 AND 12/31, THIS BOX MAY BE COLLECTED AS EARLY AS 12 NOON.", "ref": "4500500025"}, "type": "Feature"}
{"geometry": {"coordinates": [-84.3039589, 39.560384], "type": "Point"}, "id": "SrD914ReCkeyaJ_3pZg7Tmfa8Ls=", "properties": {"@spider": "usps_collection_boxes", "addr:city": "MIDDLETOWN", "addr:country": "US", "addr:full": "345 S MAIN ST", "addr:postcode": "45005", "addr:state": "OH", "brand": "USPS", "collection_times": "Mo-Sa 11:00", "name": "USPS COLLECTION BOX - BLUE BOX", "ref": "4500500027"}, "type": "Feature"}
{"geometry": {"coordinates": [-84.3262661, 39.494565], "type": "Point"}, "id": "dlUlelBXuXBofXUdvsGRfKjL6co=", "properties": {"@spider": "usps_collection_boxes", "addr:city": "MIDDLETOWN", "addr:country": "US", "addr:full": "3471 VILLAGE DR", "addr:postcode": "45005", "addr:state": "OH", "brand": "USPS", "collection_times": "Mo-Fr 13:00; Sa 11:00", "name": "USPS COLLECTION BOX - BLUE BOX", "note": "ON 12/24 AND 12/31, THIS BOX MAY BE COLLECTED AS EARLY AS 12 NOON.", "ref": "4500500028"}, "type": "Feature"}
{"geometry": {"coordinates": [-84.3313239, 39.495646], "type": "Point"}, "id": "7uRhoObQPcAoSq7mhHS9iX8q9ao=", "properties": {"@spider": "usps_collection_boxes", "addr:city": "MIDDLETOWN", "addr:country": "US", "addr:full": "3461 TOWNE BLVD", "addr:postcode": "45005", "addr:state": "OH", "brand": "USPS", "collection_times": "Mo-Fr 13:00; Sa 11:00", "name": "USPS COLLECTION BOX - BLUE BOX", "note": "ON 12/24 AND 12/31, THIS BOX MAY BE COLLECTED AS EARLY AS 12 NOON.", "ref": "4500500029"}, "type": "Feature"}
{"geometry": {"coordinates": [-84.289820717, 39.563566075], "type": "Point"}, "id": "-LSXKiy7t4lJlmMa9mQMjrjfeik=", "properties": {"@spider": "usps_collection_boxes", "addr:city": "MIDDLETOWN", "addr:country": "US", "addr:full": "712 E 2ND ST", "addr:postcode": "45005", "addr:state": "OH", "brand": "USPS", "collection_times": "Mo-Fr 17:00; Sa 16:00", "name": "USPS COLLECTION BOX - BLUE BOX", "note": "ON 12/24 AND 12/31, THIS BOX MAY BE COLLECTED AS EARLY AS 12 NOON.", "ref": "4500500033"}, "type": "Feature"}
{"geometry": {"coordinates": [-84.289820717, 39.563566075], "type": "Point"}, "id": "9p2qEmgnw_26-wfP-7HrBR3Pw2w=", "properties": {"@spider": "usps_collection_boxes", "addr:city": "MIDDLETOWN", "addr:country": "US", "addr:full": "712 E 2ND ST", "addr:postcode": "45005", "addr:state": "OH", "brand": "USPS", "collection_times": "Mo-Fr 17:00; Sa 16:00", "name": "USPS COLLECTION BOX - PO LOBBY", "note": "ON 12/24 AND 12/31, THIS BOX MAY BE COLLECTED AS EARLY AS 12 NOON.", "ref": "4500500034"}, "type": "Feature"}
{"geometry": {"coordinates": [-84.323923011, 39.584081818], "type": "Point"}, "id": "coHezwjeMKvuDZ8MYUOHiLdfnMw=", "properties": {"@spider": "usps_collection_boxes", "addr:city": "MIDDLETOWN", "addr:country": "US", "addr:full": "769 CENTRAL AVE", "addr:postcode": "45005", "addr:state": "OH", "brand": "USPS", "collection_times": "Mo-Fr 15:45; Sa 12:00", "name": "USPS COLLECTION BOX - PO LOBBY", "note": "ON 12/24 AND 12/31, THIS BOX MAY BE COLLECTED AS EARLY AS 12 NOON.", "ref": "4500500035"}, "type": "Feature"}
{"geometry": {"coordinates": [-84.289820717, 39.563566075], "type": "Point"}, "id": "wG9rp5X2bMNyMD741opBl1qHbbg=", "properties": {"@spider": "usps_collection_boxes", "addr:city": "MIDDLETOWN", "addr:country": "US", "addr:full": "712 E 2ND ST", "addr:postcode": "45005", "addr:state": "OH", "brand": "USPS", "collection_times": "Mo-Fr 17:00; Sa 16:00", "name": "USPS COLLECTION BOX - PO LOBBY", "note": "ON 12/24 AND 12/31, THIS BOX MAY BE COLLECTED AS EARLY AS 12 NOON.", "ref": "4500500036"}, "type": "Feature"}
{"geometry": {"coordinates": [-84.323923011, 39.584081818], "type": "Point"}, "id": "uQjSrGztQIrrOB-3TSzaHBdcYzI=", "properties": {"@spider": "usps_collection_boxes", "addr:city": "MIDDLETOWN", "addr:country": "US", "addr:full": "769 CENTRAL AVE", "addr:postcode": "45005", "addr:state": "OH", "brand": "USPS", "collection_times": "Mo-Fr 16:00; Sa 12:00", "name": "USPS COLLECTION BOX - PO LOBBY", "note": "ON 12/24 AND 12/31, THIS BOX MAY BE COLLECTED AS EARLY AS 12 NOON.", "ref": "4500500041"}, "type": "Feature"}
{"geometry": {"coordinates": [-84.289820717, 39.563566075], "type": "Point"}, "id": "xastBEb5cxcg3qoP-DDgq6kvNu0=", "properties": {"@spider": "usps_collection_boxes", "addr:city": "MIDDLETOWN", "addr:country": "US", "addr:full": "712 E 2ND ST", "addr:postcode": "45005", "addr:state": "OH", "brand": "USPS", "collection_times": "Mo-Fr 17:00; Sa 12:00", "name": "USPS COLLECTION BOX - PO LOBBY", "note": "ON 12/24 AND 12/31, THIS BOX MAY BE COLLECTED AS EARLY AS 12 NOON.", "ref": "4500500042"}, "type": "Feature"}
{"geometry": {"coordinates": [-84.010774457, 39.50361811], "type": "Point"}, "id": "_6-MSioaCyajo3_UnuOu9eOfEnc=", "properties": {"@spider": "usps_collection_boxes", "addr:city": "HARVEYSBURG", "addr:country": "US", "addr:full": "46 W MAIN ST", "addr:postcode": "45032", "addr:state": "OH", "brand": "USPS", "collection_times": "Mo-Fr 16:00; Sa 12:00", "name": "USPS COLLECTION BOX - BLUE BOX", "note": "ON 12/24 AND 12/31, THIS BOX MAY BE COLLECTED AS EARLY AS 12 NOON.", "ref": "4503200001"}, "type": "Feature"}
{"geometry": {"coordinates": [-84.010774457, 39.50361811], "type": "Point"}, "id": "wQeq9Sn6FKTXdNKIBBInntoBpTw=", "properties": {"@spider": "usps_collection_boxes", "addr:city": "HARVEYSBURG", "addr:country": "US", "addr:full": "46 W MAIN ST", "addr:postcode": "45032", "addr:state": "OH", "brand": "USPS", "collection_times": "Mo-Fr 16:00; Sa 12:00", "name": "USPS COLLECTION BOX - PO LOBBY", "note": "ON 12/24 AND 12/31, THIS BOX MAY BE COLLECTED AS EARLY AS 12 NOON.", "ref": "4503200002"}, "type": "Feature"}
{"geometry": {"coordinates": [-84.010774457, 39.50361811], "type": "Point"}, "id": "-NGpkXaEou2Nm4x9FFAfdbhxrC8=", "properties": {"@spider": "usps_collection_boxes", "addr:city": "HARVEYSBURG", "addr:country": "US", "addr:full": "46 W MAIN ST", "addr:postcode": "45032", "addr:state": "OH", "brand": "USPS", "collection_times": "Mo-Fr 16:00; Sa 12:00", "name": "USPS COLLECTION BOX - PO LOBBY", "note": "ON 12/24 AND 12/31, THIS BOX MAY BE COLLECTED AS EARLY AS 12 NOON.", "ref": "4503200005"}, "type": "Feature"}
{"geometry": {"coordinates": [-84.252478527, 39.356921601], "type": "Point"}, "id": "UQk4UNUUm_magNbG5Kn4WzJTrDk=", "properties": {"@spider": "usps_collection_boxes", "addr:city": "KINGS MILLS", "addr:country": "US", "addr:full": "1985 KING AVE", "addr:postcode": "45034", "addr:state": "OH", "brand": "USPS", "collection_times": "Mo-Fr 16:00; Sa 11:00", "name": "USPS COLLECTION BOX - BLUE BOX", "note": "ON 12/24 AND 12/31, THIS BOX MAY BE COLLECTED AS EARLY AS 12 NOON.", "ref": "4503400001"}, "type": "Feature"}
{"geometry": {"coordinates": [-84.252478527, 39.356921601], "type": "Point"}, "id": "gbXZR-R6IPl0r6IGhdmBxEKfY-Y=", "properties": {"@spider": "usps_collection_boxes", "addr:city": "KINGS MILLS", "addr:country": "US", "addr:full": "1985 KING AVE", "addr:postcode": "45034", "addr:state": "OH", "brand": "USPS", "collection_times": "Mo-Fr 17:00; Sa 11:30", "name": "USPS COLLECTION BOX - PO LOBBY", "note": "ON 12/24 AND 12/31, THIS BOX MAY BE COLLECTED AS EARLY AS 12 NOON.", "ref": "4503400002"}, "type": "Feature"}
{"geometry": {"coordinates": [-84.252478527, 39.356921601], "type": "Point"}, "id": "JZQrZNaxBy2BWCmpf5uG3fucJzw=", "properties": {"@spider": "usps_collection_boxes", "addr:city": "KINGS MILLS", "addr:country": "US", "addr:full": "1985 KING AVE", "addr:postcode": "45034", "addr:state": "OH", "brand": "USPS", "collection_times": "Mo-Fr 16:30; Sa 11:30", "name": "USPS COLLECTION BOX - PO LOBBY", "note": "ON 12/24 AND 12/31, THIS BOX MAY BE COLLECTED AS EARLY AS 12 NOON.", "ref": "4503400006"}, "type": "Feature"}
{"geometry": {"coordinates": [-84.203541996, 39.438412436], "type": "Point"}, "id": "BDWFq7aAMq81YiMyTLu-x9Bysuc=", "properties": {"@spider": "usps_collection_boxes", "addr:city": "LEBANON", "addr:country": "US", "addr:full": "230 NEW ST", "addr:postcode": "45036", "addr:state": "OH", "brand": "USPS", "collection_times": "Mo-Fr 17:00; Sa 15:15", "name": "USPS COLLECTION BOX - BLUE BOX", "note": "ON 12/24 AND 12/31, THIS BOX MAY BE COLLECTED AS EARLY AS 12 NOON.", "ref": "4503600001"}, "type": "Feature"}
{"geometry": {"coordinates": [-84.2030806, 39.435229], "type": "Point"}, "id": "TGyWTvmlK3k3LuHwvVboX0skJ20=", "properties": {"@spider": "usps_collection_boxes", "addr:city": "LEBANON", "addr:country": "US", "addr:full": "312 E SILVER ST", "addr:postcode": "45036", "addr:state": "OH", "brand": "USPS", "collection_times": "Mo-Sa 09:30", "name": "USPS COLLECTION BOX - BLUE BOX", "ref": "4503600008"}, "type": "Feature"}
{"geometry": {"coordinates": [-84.1921408, 39.433868], "type": "Point"}, "id": "KOV52OPUlLjrIPsbNzVo76jq8AE=", "properties": {"@spider": "usps_collection_boxes", "addr:city": "LEBANON", "addr:country": "US", "addr:full": "726 E MAIN ST", "addr:postcode": "45036", "addr:state": "OH", "brand": "USPS", "collection_times": "Mo-Sa 10:30", "name": "USPS COLLECTION BOX - BLUE BOX", "ref": "4503600009"}, "type": "Feature"}
{"geometry": {"coordinates": [-84.2166906, 39.430462], "type": "Point"}, "id": "gKrR3q0JOuLXALQ1r25lWTwpC10=", "properties": {"@spider": "usps_collection_boxes", "addr:city": "LEBANON", "addr:country": "US", "addr:full": "500 CINCINNATI AVE", "addr:postcode": "45036", "addr:state": "OH", "brand": "USPS", "collection_times": "Mo-Sa 10:30", "name": "USPS COLLECTION BOX - BLUE BOX", "ref": "4503600010"}, "type": "Feature"}
{"geometry": {"coordinates": [-84.203541996, 39.438412436], "type": "Point"}, "id": "k9OmoPCmHHpndVLaXZUwEB3wuGM=", "properties": {"@spider": "usps_collection_boxes", "addr:city": "LEBANON", "addr:country": "US", "addr:full": "230 NEW ST", "addr:postcode": "45036", "addr:state": "OH", "brand": "USPS", "collection_times": "Mo-Fr 17:00; Sa 15:15", "name": "USPS COLLECTION BOX - BLUE BOX", "note": "ON 12/24 AND 12/31, THIS BOX MAY BE COLLECTED AS EARLY AS 12 NOON.", "ref": "4503600011"}, "type": "Feature"}
{"geometry": {"coordinates": [-84.203541996, 39.438412436], "type": "Point"}, "id": "-e3ivxbf7qiDTKCBlgeJnjBcqUU=", "properties": {"@spider": "usps_collection_boxes", "addr:city": "LEBANON", "addr:country": "US", "addr:full": "230 NEW ST", "addr:postcode": "45036", "addr:state": "OH", "brand": "USPS", "collection_times": "Mo-Fr 17:00; Sa 15:15", "name": "USPS COLLECTION BOX - PO LOBBY", "note": "ON 12/24 AND 12/31, THIS BOX MAY BE COLLECTED AS EARLY AS 12 NOON.", "ref": "4503600012"}, "type": "Feature"}
{"geometry": {"coordinates": [-84.2073109, 39.45741], "type": "Point"}, "id": "dD75bc8n0d_d11RY_WInagRGGNQ=", "properties": {"@spider": "usps_collection_boxes", "addr:city": "LEBANON", "addr:country": "US", "addr:full": "201 MILLER RD", "addr:postcode": "45036", "addr:state": "OH", "brand": "USPS", "collection_times": "Mo-Sa 10:00", "name": "USPS COLLECTION BOX - BLUE BOX", "ref": "4503600015"}, "type": "Feature"}
{"geometry": {"coordinates": [-84.1886528, 39.450267], "type": "Point"}, "id": "5vtL4IbWBzA4Y0z52Ua6gKvH0mk=", "properties": {"@spider": "usps_collection_boxes", "addr:city": "LEBANON", "addr:country": "US", "addr:full": "1030 HUNTERS RUN DR", "addr:postcode": "45036", "addr:state": "OH", "brand": "USPS", "collection_times": "Mo-Sa 10:00", "name": "USPS COLLECTION BOX - BLUE BOX", "ref": "4503600026"}, "type": "Feature"}
{"geometry": {"coordinates": [-84.2090978, 39.431805], "type": "Point"}, "id": "WbIntHCyw_U93wQmseDWl5M1fq4=", "properties": {"@spider": "usps_collection_boxes", "addr:city": "LEBANON", "addr:country": "US", "addr:full": "6 CINCINNATI AVE", "addr:postcode": "45036", "addr:state": "OH", "brand": "USPS", "collection_times": "Mo-Sa 10:30", "name": "USPS COLLECTION BOX - BLUE BOX", "ref": "4503600028"}, "type": "Feature"}
{"geometry": {"coordinates": [-84.1897735, 39.445925], "type": "Point"}, "id": "lvch06CElQH6YhkpyUl36AnzqeY=", "properties": {"@spider": "usps_collection_boxes", "addr:city": "LEBANON", "addr:country": "US", "addr:full": "777 COLUMBUS AVE", "addr:postcode": "45036", "addr:state": "OH", "brand": "USPS", "collection_times": "Mo-Sa 10:00", "name": "USPS COLLECTION BOX - BLUE BOX", "ref": "4503600031"}, "type": "Feature"}
{"geometry": {"coordinates": [-84.203541996, 39.438412436], "type": "Point"}, "id": "5CP0Dt1k2LlZnN60H-rtqghL-T8=", "properties": {"@spider": "usps_collection_boxes", "addr:city": "LEBANON", "addr:country": "US", "addr:full": "230 NEW ST", "addr:postcode": "45036", "addr:state": "OH", "brand": "USPS", "collection_times": "Mo-Fr 17:00; Sa 15:15", "name": "USPS COLLECTION BOX - PO LOBBY", "note": "ON 12/24 AND 12/31, THIS BOX MAY BE COLLECTED AS EARLY AS 12 NOON.", "ref": "4503600034"}, "type": "Feature"}
{"geometry": {"coordinates": [-84.2206553, 39.392042], "type": "Point"}, "id": "q0kOTG05Z1f18THO3gsn9VX9DQ0=", "properties": {"@spider": "usps_collection_boxes", "addr:city": "LEBANON", "addr:country": "US", "addr:full": "3000 HENKLE DR", "addr:postcode": "45036", "addr:state": "OH", "brand": "USPS", "collection_times": "Mo-Fr 10:00", "name": "USPS COLLECTION BOX - BLUE BOX", "ref": "4503600036"}, "type": "Feature"}
{"geometry": {"coordinates": [-84.203541996, 39.438412436], "type": "Point"}, "id": "AG1cAxrMUZxmifFIYX7WJWbRL3Q=", "properties": {"@spider": "usps_collection_boxes", "addr:city": "LEBANON", "addr:country": "US", "addr:full": "230 NEW ST", "addr:postcode": "45036", "addr:state": "OH", "brand": "USPS", "collection_times": "Mo-Fr 17:00; Sa 15:15", "name": "USPS COLLECTION BOX - APC", "note": "ON 12/24 AND 12/31, THIS BOX MAY BE COLLECTED AS EARLY AS 12 NOON.", "ref": "4503600037"}, "type": "Feature"}
{"geometry": {"coordinates": [-84.1977209, 39.44028], "type": "Point"}, "id": "92kA1fJZyGKkeQi7l3D9s0pvTaE=", "properties": {"@spider": "usps_collection_boxes", "addr:city": "LEBANON", "addr:country": "US", "addr:full": "489 LALUZ BLVD", "addr:postcode": "45036", "addr:state": "OH", "brand": "USPS", "collection_times": "Mo-Sa 12:00", "name": "USPS COLLECTION BOX - BLUE BOX", "ref": "4503600038"}, "type": "Feature"}
{"geometry": {"coordinates": [-84.2082866, 39.433484], "type": "Point"}, "id": "R9y9OR7dpd7yU7QIV6LYXmOZ8Js=", "properties": {"@spider": "usps_collection_boxes", "addr:city": "LEBANON", "addr:country": "US", "addr:full": "50 S BROADWAY ST", "addr:postcode": "45036", "addr:state": "OH", "brand": "USPS", "collection_times": "Mo-Sa 10:00", "name": "USPS COLLECTION BOX - BLUE BOX", "ref": "4503600040"}, "type": "Feature"}
{"geometry": {"coordinates": [-84.2084364, 39.4345], "type": "Point"}, "id": "36NBbPse5kdynMXHtc_IWM6Y5LU=", "properties": {"@spider": "usps_collection_boxes", "addr:city": "LEBANON", "addr:country": "US", "addr:full": "12 W MULBERRY ST", "addr:postcode": "45036", "addr:state": "OH", "brand": "USPS", "collection_times": "Mo-Fr 10:30; Sa 10:00", "name": "USPS COLLECTION BOX - BLUE BOX", "ref": "4503600041"}, "type": "Feature"}
{"geometry": {"coordinates": [-84.203541996, 39.438412436], "type": "Point"}, "id": "ESarJHLmiQ4wxPHmk-7li0IyFcA=", "properties": {"@spider": "usps_collection_boxes", "addr:city": "LEBANON", "addr:country": "US", "addr:full": "230 NEW ST", "addr:postcode": "45036", "addr:state": "OH", "brand": "USPS", "collection_times": "Mo-Fr 17:00; Sa 13:00", "name": "USPS COLLECTION BOX - PO LOBBY", "note": "ON 12/24 AND 12/31, THIS BOX MAY BE COLLECTED AS EARLY AS 12 NOON.", "ref": "4503600045"}, "type": "Feature"}
{"geometry": {"coordinates": [-84.220866488, 39.319958085], "type": "Point"}, "id": "ZS5sjaHiofYA1nRCRtyTfHyj-lY=", "properties": {"@spider": "usps_collection_boxes", "addr:city": "MAINEVILLE", "addr:country": "US", "addr:full": "7878 S STATE ROUTE 48", "addr:postcode": "45039", "addr:state": "OH", "brand": "USPS", "collection_times": "Mo-Fr 16:30; Sa 11:00", "name": "USPS COLLECTION BOX - PO LOBBY", "note": "ON 12/24 AND 12/31, THIS BOX MAY BE COLLECTED AS EARLY AS 12 NOON.", "ref": "4503900000"}, "type": "Feature"}
{"geometry": {"coordinates": [-84.2812794, 39.332471], "type": "Point"}, "id": "61tNiZpbtM7ljrscxbimI4EBHHE=", "properties": {"@spider": "usps_collection_boxes", "addr:city": "MAINEVILLE", "addr:country": "US", "addr:full": "7264 COLUMBIA RD", "addr:postcode": "45039", "addr:state": "OH", "brand": "USPS", "collection_times": "Mo-Sa 10:00", "name": "USPS COLLECTION BOX - BLUE BOX", "ref": "4503900003"}, "type": "Feature"}
{"geometry": {"coordinates": [-84.220866488, 39.319958085], "type": "Point"}, "id": "2_AhMaMrwblHSiywb7wFYJBWeCQ=", "properties": {"@spider": "usps_collection_boxes", "addr:city": "MAINEVILLE", "addr:country": "US", "addr:full": "7878 S STATE ROUTE 48", "addr:postcode": "45039", "addr:state": "OH", "brand": "USPS", "collection_times": "Mo-Fr 16:30; Sa 11:00", "name": "USPS COLLECTION BOX - PO LOBBY", "note": "ON 12/24 AND 12/31, THIS BOX MAY BE COLLECTED AS EARLY AS 12 NOON.", "ref": "4503900006"}, "type": "Feature"}
{"geometry": {"coordinates": [-84.220866488, 39.319958085], "type": "Point"}, "id": "uaTnpbx-CwoY4JS8lxmzmEvHOTU=", "properties": {"@spider": "usps_collection_boxes", "addr:city": "MAINEVILLE", "addr:country": "US", "addr:full": "7878 S STATE ROUTE 48", "addr:postcode": "45039", "addr:state": "OH", "brand": "USPS", "collection_times": "Mo-Fr 16:30; Sa 11:00", "name": "USPS COLLECTION BOX - BLUE BOX", "note": "ON 12/24 AND 12/31, THIS BOX MAY BE COLLECTED AS EARLY AS 12 NOON.", "ref": "4503900007"}, "type": "Feature"}
{"geometry": {"coordinates": [-84.2732039, 39.311966], "type": "Point"}, "id": "HnycEGUcLWHvAcy98fP-53ZOtwE=", "properties": {"@spider": "usps_collection_boxes", "addr:city": "MAINEVILLE", "addr:country": "US", "addr:full": "2894 W US HIGHWAY 22 AND 3", "addr:postcode": "45039", "addr:state": "OH", "brand": "USPS", "collection_times": "Mo-Fr 12:30; Sa 10:00", "name": "USPS COLLECTION BOX - BLUE BOX", "note": "ON 12/24 AND 12/31, THIS BOX MAY BE COLLECTED AS EARLY AS 12 NOON.", "ref": "4503900009"}, "type": "Feature"}
{"geometry": {"coordinates": [-84.2204783, 39.349881], "type": "Point"}, "id": "keODWtCalPx7xC4aRE8Aaj9SJtI=", "properties": {"@spider": "usps_collection_boxes", "addr:city": "MAINEVILLE", "addr:country": "US", "addr:full": "5705 S STATE ROUTE 48", "addr:postcode": "45039", "addr:state": "OH", "brand": "USPS", "collection_times": "Mo-Sa 11:00", "name": "USPS COLLECTION BOX - BLUE BOX", "ref": "4503900010"}, "type": "Feature"}
{"geometry": {"coordinates": [-84.220866488, 39.319958085], "type": "Point"}, "id": "d5LBdbW7dSwnV1MWUlKHseruzTU=", "properties": {"@spider": "usps_collection_boxes", "addr:city": "MAINEVILLE", "addr:country": "US", "addr:full": "7878 S STATE ROUTE 48", "addr:postcode": "45039", "addr:state": "OH", "brand": "USPS", "collection_times": "Mo-Fr 17:00; Sa 12:00", "name": "USPS COLLECTION BOX - PO LOBBY", "note": "ON 12/24 AND 12/31, THIS BOX MAY BE COLLECTED AS EARLY AS 12 NOON.", "ref": "4503900016"}, "type": "Feature"}
{"geometry": {"coordinates": [-84.329711999, 39.347681122], "type": "Point"}, "id": "p3FlLNCtJ8O1aqXan9Z4mdN-4no=", "properties": {"@spider": "usps_collection_boxes", "addr:city": "MASON", "addr:country": "US", "addr:full": "6338 SNIDER RD", "addr:postcode": "45040", "addr:state": "OH", "brand": "USPS", "collection_times": "Mo-Fr 17:00; Sa 15:00", "name": "USPS COLLECTION BOX - PO LOBBY", "note": "ON 12/24 AND 12/31, THIS BOX MAY BE COLLECTED AS EARLY AS 12 NOON.", "ref": "4504000000"}, "type": "Feature"}
{"geometry": {"coordinates": [-84.329711999, 39.347681122], "type": "Point"}, "id": "nBpGNhIPRIMiXuiFqXyVvqRPHo8=", "properties": {"@spider": "usps_collection_boxes", "addr:city": "MASON", "addr:country": "US", "addr:full": "6338 SNIDER RD", "addr:postcode": "45040", "addr:state": "OH", "brand": "USPS", "collection_times": "Mo-Fr 17:00; Sa 15:00", "name": "USPS COLLECTION BOX - BLUE BOX", "note": "ON 12/24 AND 12/31, THIS BOX MAY BE COLLECTED AS EARLY AS 12 NOON.", "ref": "4504000001"}, "type": "Feature"}
{"geometry": {"coordinates": [-84.329711999, 39.347681122], "type": "Point"}, "id": "zJN0nZH6AsyUKPt8ZKDon8t9DSE=", "properties": {"@spider": "usps_collection_boxes", "addr:city": "MASON", "addr:country": "US", "addr:full": "6338 SNIDER RD", "addr:postcode": "45040", "addr:state": "OH", "brand": "USPS", "collection_times": "Mo-Fr 17:00; Sa 15:00", "name": "USPS COLLECTION BOX - BLUE BOX", "note": "ON 12/24 AND 12/31, THIS BOX MAY BE COLLECTED AS EARLY AS 12 NOON.", "ref": "4504000002"}, "type": "Feature"}
{"geometry": {"coordinates": [-84.2864177, 39.314775], "type": "Point"}, "id": "nKrJAHUFPo3IkX_Lj1SS3JVZSWk=", "properties": {"@spider": "usps_collection_boxes", "addr:city": "MASON", "addr:country": "US", "addr:full": "3530 IRWIN SIMPSON RD", "addr:postcode": "45040", "addr:state": "OH", "brand": "USPS", "collection_times": "Mo-Sa 10:00", "name": "USPS COLLECTION BOX - BLUE BOX", "ref": "4504000005"}, "type": "Feature"}
{"geometry": {"coordinates": [-84.3081926, 39.3018], "type": "Point"}, "id": "_N_Qlw41n5fNmVt0hUTqC7eZWZM=", "properties": {"@spider": "usps_collection_boxes", "addr:city": "MASON", "addr:country": "US", "addr:full": "4605 DUKE DR", "addr:postcode": "45040", "addr:state": "OH", "brand": "USPS", "collection_times": "Mo-Fr 14:00; Sa 10:00", "name": "USPS COLLECTION BOX - BLUE BOX", "note": "ON 12/24 AND 12/31, THIS BOX MAY BE COLLECTED AS EARLY AS 12 NOON.", "ref": "4504000017"}, "type": "Feature"}
{"geometry": {"coordinates": [-84.3128436, 39.298856], "type": "Point"}, "id": "6XWIH82Q6eCyQvxbauS9W793qOg=", "properties": {"@spider": "usps_collection_boxes", "addr:city": "MASON", "addr:country": "US", "addr:full": "9560 S MASON MONTGOMERY RD", "addr:postcode": "45040", "addr:state": "OH", "brand": "USPS", "collection_times": "Mo-Sa 10:00", "name": "USPS COLLECTION BOX - BLUE BOX", "ref": "4504000025"}, "type": "Feature"}
{"geometry": {"coordinates": [-84.3403844, 39.339382], "type": "Point"}, "id": "0JPkJQj64wBYV51hBLkjlfoUMIE=", "properties": {"@spider": "usps_collection_boxes", "addr:city": "MASON", "addr:country": "US", "addr:full": "1065 READING RD", "addr:postcode": "45040", "addr:state": "OH", "brand": "USPS", "collection_times": "Mo-Sa 12:00", "name": "USPS COLLECTION BOX - BLUE BOX", "ref": "4504000027"}, "type": "Feature"}
{"geometry": {"coordinates": [-84.3139188, 39.358687], "type": "Point"}, "id": "Ui7dXp0SgvJrM4OKy6RkYe8q99I=", "properties": {"@spider": "usps_collection_boxes", "addr:city": "MASON", "addr:country": "US", "addr:full": "226 READING RD", "addr:postcode": "45040", "addr:state": "OH", "brand": "USPS", "collection_times": "Mo-Fr 13:00; Sa 11:00", "name": "USPS COLLECTION BOX - BLUE BOX", "note": "ON 12/24 AND 12/31, THIS BOX MAY BE COLLECTED AS EARLY AS 12 NOON.", "ref": "4504000033"}, "type": "Feature"}
{"geometry": {"coordinates": [-84.329711999, 39.347681122], "type": "Point"}, "id": "SGEUGtVSQcaZ2sWoiwCDNzRATGA=", "properties": {"@spider": "usps_collection_boxes", "addr:city": "MASON", "addr:country": "US", "addr:full": "6338 SNIDER RD", "addr:postcode": "45040", "addr:state": "OH", "brand": "USPS", "collection_times": "Mo-Fr 17:00; Sa 15:00", "name": "USPS COLLECTION BOX - PO LOBBY", "note": "ON 12/24 AND 12/31, THIS BOX MAY BE COLLECTED AS EARLY AS 12 NOON.", "ref": "4504000034"}, "type": "Feature"}
{"geometry": {"coordinates": [-84.3028252, 39.31525], "type": "Point"}, "id": "RdZDwd12bONuc9TY3x49sMqJc_o=", "properties": {"@spider": "usps_collection_boxes", "addr:city": "MASON", "addr:country": "US", "addr:full": "8585 DUKE BLVD", "addr:postcode": "45040", "addr:state": "OH", "brand": "USPS", "collection_times": "Mo-Fr 15:00", "name": "USPS COLLECTION BOX - BLUE BOX", "note": "ON 12/24 AND 12/31, THIS BOX MAY BE COLLECTED AS EARLY AS 12 NOON.", "ref": "4504000035"}, "type": "Feature"}
{"geometry": {"coordinates": [-84.329711999, 39.347681122], "type": "Point"}, "id": "FFXrJM8vYCKiPX7AG-0Z34xT2m4=", "properties": {"@spider": "usps_collection_boxes", "addr:city": "MASON", "addr:country": "US", "addr:full": "6338 SNIDER RD", "addr:postcode": "45040", "addr:state": "OH", "brand": "USPS", "collection_times": "Mo-Fr 17:00; Sa 15:00", "name": "USPS COLLECTION BOX - BLUE BOX", "note": "ON 12/24 AND 12/31, THIS BOX MAY BE COLLECTED AS EARLY AS 12 NOON.", "ref": "4504000036"}, "type": "Feature"}
{"geometry": {"coordinates": [-84.2680226, 39.358091], "type": "Point"}, "id": "9tuCITbtvBgVIjYRWGcxMziqj6M=", "properties": {"@spider": "usps_collection_boxes", "addr:city": "MASON", "addr:country": "US", "addr:full": "5542 STATE ROUTE 741", "addr:postcode": "45040", "addr:state": "OH", "brand": "USPS", "collection_times": "Mo-Sa 10:30", "name": "USPS COLLECTION BOX - BLUE BOX", "ref": "4504000037"}, "type": "Feature"}
{"geometry": {"coordinates": [-84.3152127, 39.318568], "type": "Point"}, "id": "IYRCSBIDoSQ4OASqPtX46S9JgV0=", "properties": {"@spider": "usps_collection_boxes", "addr:city": "MASON", "addr:country": "US", "addr:full": "8211 ARBOR SQUARE DR", "addr:postcode": "45040", "addr:state": "OH", "brand": "USPS", "collection_times": "Mo-Sa 10:00", "name": "USPS COLLECTION BOX - BLUE BOX", "ref": "4504000038"}, "type": "Feature"}
{"geometry": {"coordinates": [-84.329711999, 39.347681122], "type": "Point"}, "id": "5UxqOC7WVuXrYzTQxYTlZzg37Bg=", "properties": {"@spider": "usps_collection_boxes", "addr:city": "MASON", "addr:country": "US", "addr:full": "6338 SNIDER RD", "addr:postcode": "45040", "addr:state": "OH", "brand": "USPS", "collection_times": "Mo-Fr 17:00; Sa 15:00", "name": "USPS COLLECTION BOX - APC", "note": "ON 12/24 AND 12/31, THIS BOX MAY BE COLLECTED AS EARLY AS 12 NOON.", "ref": "4504000039"}, "type": "Feature"}
{"geometry": {"coordinates": [-84.3077179, 39.35341], "type": "Point"}, "id": "zXNF65XuHoRoxBYvAl2BNG4Wh0A=", "properties": {"@spider": "usps_collection_boxes", "addr:city": "MASON", "addr:country": "US", "addr:full": "6000 S MASON MONTGOMERY RD", "addr:postcode": "45040", "addr:state": "OH", "brand": "USPS", "collection_times": "Mo-Fr 15:00; Sa 10:00", "name": "USPS COLLECTION BOX - BLUE BOX", "note": "ON 12/24 AND 12/31, THIS BOX MAY BE COLLECTED AS EARLY AS 12 NOON.", "ref": "4504000041"}, "type": "Feature"}
{"geometry": {"coordinates": [-84.329711999, 39.347681122], "type": "Point"}, "id": "ZRDhTDq8Glsun0PB3qwh3-xU30M=", "properties": {"@spider": "usps_collection_boxes", "addr:city": "MASON", "addr:country": "US", "addr:full": "6338 SNIDER RD", "addr:postcode": "45040", "addr:state": "OH", "brand": "USPS", "collection_times": "Mo-Fr 17:00; Sa 12:00", "name": "USPS COLLECTION BOX - PO LOBBY", "note": "ON 12/24 AND 12/31, THIS BOX MAY BE COLLECTED AS EARLY AS 12 NOON.", "ref": "4504000046"}, "type": "Feature"}
{"geometry": {"coordinates": [-84.3717604, 39.52341], "type": "Point"}, "id": "4D8P-zoGCfraE8qKsCgsWgdi2Kg=", "properties": {"@spider": "usps_collection_boxes", "addr:city": "MIDDLETOWN", "addr:country": "US", "addr:full": "1000 N UNIVERSITY BLVD", "addr:postcode": "45042", "addr:state": "OH", "brand": "USPS", "collection_times": "Mo-Fr 15:00; Sa 12:30", "name": "USPS COLLECTION BOX - BLUE BOX", "note": "ON 12/24 AND 12/31, THIS BOX MAY BE COLLECTED AS EARLY AS 12 NOON.", "ref": "4504200002"}, "type": "Feature"}
{"geometry": {"coordinates": [-84.3527504, 39.524811], "type": "Point"}, "id": "JjIPadCGDe3TWj97Sp80yOHLOTs=", "properties": {"@spider": "usps_collection_boxes", "addr:city": "MIDDLETOWN", "addr:country": "US", "addr:full": "1040 SUMMITT DR", "addr:postcode": "45042", "addr:state": "OH", "brand": "USPS", "collection_times": "Mo-Fr 15:00; Sa 12:30", "name": "USPS COLLECTION BOX - BLUE BOX", "note": "ON 12/24 AND 12/31, THIS BOX MAY BE COLLECTED AS EARLY AS 12 NOON.", "ref": "4504200004"}, "type": "Feature"}
{"geometry": {"coordinates": [-84.3547758, 39.51217], "type": "Point"}, "id": "bkm5sSoUB3FuJy4EIqDkQQJN40g=", "properties": {"@spider": "usps_collection_boxes", "addr:city": "MIDDLETOWN", "addr:country": "US", "addr:full": "62 N BREIEL BLVD", "addr:postcode": "45042", "addr:state": "OH", "brand": "USPS", "collection_times": "Mo-Fr 15:00; Sa 12:30", "name": "USPS COLLECTION BOX - BLUE BOX", "note": "ON 12/24 AND 12/31, THIS BOX MAY BE COLLECTED AS EARLY AS 12 NOON.", "ref": "4504200005"}, "type": "Feature"}
{"geometry": {"coordinates": [-84.3689457, 39.529438], "type": "Point"}, "id": "Ln4ozMvB4Np8AN2iOeTgUrfa6bM=", "properties": {"@spider": "usps_collection_boxes", "addr:city": "MIDDLETOWN", "addr:country": "US", "addr:full": "3405 VANNEST AVE", "addr:postcode": "45042", "addr:state": "OH", "brand": "USPS", "collection_times": "Mo-Sa 11:00", "name": "USPS COLLECTION BOX - BLUE BOX", "ref": "4504200019"}, "type": "Feature"}
{"geometry": {"coordinates": [-84.3521235, 39.502609], "type": "Point"}, "id": "k_xe5YSaWNMUPLq7htNpS70sZRk=", "properties": {"@spider": "usps_collection_boxes", "addr:city": "LIBERTY TWP", "addr:country": "US", "addr:full": "4473 MARIE DR", "addr:postcode": "45044", "addr:state": "OH", "brand": "USPS", "collection_times": "Mo-Sa 10:00", "name": "USPS COLLECTION BOX - BLUE BOX", "ref": "4504400015"}, "type": "Feature"}
{"geometry": {"coordinates": [-84.3498759, 39.500796], "type": "Point"}, "id": "dDlmmSO8pEml_HJ2dNbcQxvAf_Q=", "properties": {"@spider": "usps_collection_boxes", "addr:city": "LIBERTY TWP", "addr:country": "US", "addr:full": "4601 ROOSEVELT BLVD", "addr:postcode": "45044", "addr:state": "OH", "brand": "USPS", "collection_times": "Mo-Sa 10:00", "name": "USPS COLLECTION BOX - BLUE BOX", "ref": "4504400019"}, "type": "Feature"}
{"geometry": {"coordinates": [-84.3458849, 39.50326], "type": "Point"}, "id": "D1JX4VpF3O4aClFlofDA3qhqpHU=", "properties": {"@spider": "usps_collection_boxes", "addr:city": "LIBERTY TWP", "addr:country": "US", "addr:full": "700 S MARSHALL RD", "addr:postcode": "45044", "addr:state": "OH", "brand": "USPS", "collection_times": "Mo-Sa 10:00", "name": "USPS COLLECTION BOX - BLUE BOX", "ref": "4504400020"}, "type": "Feature"}
{"geometry": {"coordinates": [-84.3602947, 39.499993], "type": "Point"}, "id": "8hCyBPxgJKS38Kez18i1-ap5s2o=", "properties": {"@spider": "usps_collection_boxes", "addr:city": "LIBERTY TWP", "addr:country": "US", "addr:full": "4017 ROOSEVELT BLVD", "addr:postcode": "45044", "addr:state": "OH", "brand": "USPS", "collection_times": "Mo-Sa 12:30", "name": "USPS COLLECTION BOX - BLUE BOX", "note": "ON 12/24 AND 12/31, THIS BOX MAY BE COLLECTED AS EARLY AS 12 NOON.", "ref": "4504400023"}, "type": "Feature"}
{"geometry": {"coordinates": [-84.3647709, 39.511409], "type": "Point"}, "id": "fysaaUuQfq2vBOPzkTPIXlHnpbU=", "properties": {"@spider": "usps_collection_boxes", "addr:city": "LIBERTY TWP", "addr:country": "US", "addr:full": "3701 CENTRAL AVE", "addr:postcode": "45044", "addr:state": "OH", "brand": "USPS", "collection_times": "Mo-Sa 10:00", "name": "USPS COLLECTION BOX - BLUE BOX", "ref": "4504400024"}, "type": "Feature"}
{"geometry": {"coordinates": [-84.3550604, 39.509652], "type": "Point"}, "id": "8DKsdY525rnPYXPuyglMKez55J8=", "properties": {"@spider": "usps_collection_boxes", "addr:city": "LIBERTY TWP", "addr:country": "US", "addr:full": "20 S BREIEL BLVD", "addr:postcode": "45044", "addr:state": "OH", "brand": "USPS", "collection_times": "Mo-Fr 15:00; Sa 12:30", "name": "USPS COLLECTION BOX - BLUE BOX", "note": "ON 12/24 AND 12/31, THIS BOX MAY BE COLLECTED AS EARLY AS 12 NOON.", "ref": "4504400062"}, "type": "Feature"}
{"geometry": {"coordinates": [-84.3761846208, 39.3809505737], "type": "Point"}, "id": "_Z-MFCXcilbGC9MmdxAtU4aNdbs=", "properties": {"@spider": "usps_collection_boxes", "addr:city": "LIBERTY TWP", "addr:country": "US", "addr:full": "6752 CINCINNATI DAYTON RD", "addr:postcode": "45044", "addr:state": "OH", "brand": "USPS", "collection_times": "Mo-Sa 10:00", "name": "USPS COLLECTION BOX - BLUE BOX", "ref": "4504400063"}, "type": "Feature"}
{"geometry": {"coordinates": [-84.3275786, 39.48844], "type": "Point"}, "id": "zhjSxKupYQrRMaID8ikRw-Sw4bY=", "properties": {"@spider": "usps_collection_boxes", "addr:city": "LIBERTY TWP", "addr:country": "US", "addr:full": "2900 TOWNE BLVD", "addr:postcode": "45044", "addr:state": "OH", "brand": "USPS", "collection_times": "Mo-Sa 12:30", "name": "USPS COLLECTION BOX - BLUE BOX", "note": "ON 12/24 AND 12/31, THIS BOX MAY BE COLLECTED AS EARLY AS 12 NOON.", "ref": "4504400065"}, "type": "Feature"}
{"geometry": {"coordinates": [-84.3741917, 39.38474], "type": "Point"}, "id": "cJCuD8iFic2CUpKihGBh6lCVg44=", "properties": {"@spider": "usps_collection_boxes", "addr:city": "LIBERTY TWP", "addr:country": "US", "addr:full": "6583 CINCINNATI DAYTON RD", "addr:postcode": "45044", "addr:state": "OH", "brand": "USPS", "collection_times": "Mo-Sa 10:00", "name": "USPS COLLECTION BOX - BLUE BOX", "ref": "4504400071"}, "type": "Feature"}
{"geometry": {"coordinates": [-84.3310509, 39.481273], "type": "Point"}, "id": "cY_F1_hXonPtN1x0_O_6vRYPkuI=", "properties": {"@spider": "usps_collection_boxes", "addr:city": "LIBERTY TWP", "addr:country": "US", "addr:full": "2535 BRIDGEWOOD DR", "addr:postcode": "45044", "addr:state": "OH", "brand": "USPS", "collection_times": "Mo-Sa 10:00", "name": "USPS COLLECTION BOX - BLUE BOX", "ref": "4504400072"}, "type": "Feature"}
{"geometry": {"coordinates": [-84.3570216, 39.50296], "type": "Point"}, "id": "fVMicWz3nKWCnqgjd1qYVEtNOWA=", "properties": {"@spider": "usps_collection_boxes", "addr:city": "LIBERTY TWP", "addr:country": "US", "addr:full": "4220 GRAND AVE", "addr:postcode": "45044", "addr:state": "OH", "brand": "USPS", "collection_times": "Mo-Fr 15:00; Sa 12:15", "name": "USPS COLLECTION BOX - BLUE BOX", "note": "ON 12/24 AND 12/31, THIS BOX MAY BE COLLECTED AS EARLY AS 12 NOON.", "ref": "4504400075"}, "type": "Feature"}
{"geometry": {"coordinates": [-84.3754364, 39.37683], "type": "Point"}, "id": "iX2OVLwsE519YTRgLmWiip2FIz4=", "properties": {"@spider": "usps_collection_boxes", "addr:city": "LIBERTY TWP", "addr:country": "US", "addr:full": "7300 YANKEE RD", "addr:postcode": "45044", "addr:state": "OH", "brand": "USPS", "collection_times": "Mo-Sa 11:00", "name": "USPS COLLECTION BOX - BLUE BOX", "ref": "4504400076"}, "type": "Feature"}
{"geometry": {"coordinates": [-84.362704679, 39.440398243], "type": "Point"}, "id": "Sik-sm7lPszhcpoxhpoi3Wn8grM=", "properties": {"@spider": "usps_collection_boxes", "addr:city": "MONROE", "addr:country": "US", "addr:full": "301 S MAIN ST", "addr:postcode": "45050", "addr:state": "OH", "brand": "USPS", "collection_times": "Mo-Fr 16:30; Sa 12:00", "name": "USPS COLLECTION BOX - PO LOBBY", "note": "ON 12/24 AND 12/31, THIS BOX MAY BE COLLECTED AS EARLY AS 12 NOON.", "ref": "4505000001"}, "type": "Feature"}
{"geometry": {"coordinates": [-84.3594563, 39.444282], "type": "Point"}, "id": "s5PgRVYu3lGWot0yAVt1iMQOXXI=", "properties": {"@spider": "usps_collection_boxes", "addr:city": "MONROE", "addr:country": "US", "addr:full": "2 EAST AVE", "addr:postcode": "45050", "addr:state": "OH", "brand": "USPS", "collection_times": "Mo-Sa 13:00", "name": "USPS COLLECTION BOX - BLUE BOX", "note": "ON 12/24 AND 12/31, THIS BOX MAY BE COLLECTED AS EARLY AS 12 NOON.", "ref": "4505000002"}, "type": "Feature"}
{"geometry": {"coordinates": [-84.362704679, 39.440398243], "type": "Point"}, "id": "DhYcbpgKeF4NBICeknVx-BiFG3w=", "properties": {"@spider": "usps_collection_boxes", "addr:city": "MONROE", "addr:country": "US", "addr:full": "301 S MAIN ST", "addr:postcode": "45050", "addr:state": "OH", "brand": "USPS", "collection_times": "Mo-Fr 16:30; Sa 12:00", "name": "USPS COLLECTION BOX - BLUE BOX", "note": "ON 12/24 AND 12/31, THIS BOX MAY BE COLLECTED AS EARLY AS 12 NOON.", "ref": "4505000004"}, "type": "Feature"}
{"geometry": {"coordinates": [-84.362704679, 39.440398243], "type": "Point"}, "id": "O6372E1jZcbd_zQm0q9VIM187e0=", "properties": {"@spider": "usps_collection_boxes", "addr:city": "MONROE", "addr:country": "US", "addr:full": "301 S MAIN ST", "addr:postcode": "45050", "addr:state": "OH", "brand": "USPS", "collection_times": "Mo-Fr 16:30; Sa 12:00", "name": "USPS COLLECTION BOX - PO LOBBY", "note": "ON 12/24 AND 12/31, THIS BOX MAY BE COLLECTED AS EARLY AS 12 NOON.", "ref": "4505000008"}, "type": "Feature"}
{"geometry": {"coordinates": [-84.362704679, 39.440398243], "type": "Point"}, "id": "o0gEIixIltNB-o1Pt1GQwLxyDzY=", "properties": {"@spider": "usps_collection_boxes", "addr:city": "MONROE", "addr:country": "US", "addr:full": "301 S MAIN ST", "addr:postcode": "45050", "addr:state": "OH", "brand": "USPS", "collection_times": "Mo-Fr 16:30; Sa 12:00", "name": "USPS COLLECTION BOX - BLUE BOX", "note": "ON 12/24 AND 12/31, THIS BOX MAY BE COLLECTED AS EARLY AS 12 NOON.", "ref": "4505000011"}, "type": "Feature"}
{"geometry": {"coordinates": [-84.362704679, 39.440398243], "type": "Point"}, "id": "hrCki_oLH-z8n63qVxMY8-I9ytc=", "properties": {"@spider": "usps_collection_boxes", "addr:city": "MONROE", "addr:country": "US", "addr:full": "301 S MAIN ST", "addr:postcode": "45050", "addr:state": "OH", "brand": "USPS", "collection_times": "Mo-Fr 16:30; Sa 12:00", "name": "USPS COLLECTION BOX - PO LOBBY", "note": "ON 12/24 AND 12/31, THIS BOX MAY BE COLLECTED AS EARLY AS 12 NOON.", "ref": "4505000015"}, "type": "Feature"}
{"geometry": {"coordinates": [-84.211999607, 39.371944427], "type": "Point"}, "id": "RzFFsL8BWRHrW84AIz77wmkRNFk=", "properties": {"@spider": "usps_collection_boxes", "addr:city": "SOUTH LEBANON", "addr:country": "US", "addr:full": "219 E FOREST AVE", "addr:postcode": "45065", "addr:state": "OH", "brand": "USPS", "collection_times": "Mo-Fr 16:30; Sa 11:45", "name": "USPS COLLECTION BOX - BLUE BOX", "note": "ON 12/24 AND 12/31, THIS BOX MAY BE COLLECTED AS EARLY AS 12 NOON.", "ref": "4506500001"}, "type": "Feature"}
{"geometry": {"coordinates": [-84.211999607, 39.371944427], "type": "Point"}, "id": "uiENNMwrnIfOsNeOeGKlIg-I_zM=", "properties": {"@spider": "usps_collection_boxes", "addr:city": "SOUTH LEBANON", "addr:country": "US", "addr:full": "219 E FOREST AVE", "addr:postcode": "45065", "addr:state": "OH", "brand": "USPS", "collection_times": "Mo-Fr 16:30; Sa 11:45", "name": "USPS COLLECTION BOX - PO LOBBY", "note": "ON 12/24 AND 12/31, THIS BOX MAY BE COLLECTED AS EARLY AS 12 NOON.", "ref": "4506500008"}, "type": "Feature"}
{"geometry": {"coordinates": [-84.211999607, 39.371944427], "type": "Point"}, "id": "KPUhuPKFdmOe5-PYnZiB3C1UayQ=", "properties": {"@spider": "usps_collection_boxes", "addr:city": "SOUTH LEBANON", "addr:country": "US", "addr:full": "219 E FOREST AVE", "addr:postcode": "45065", "addr:state": "OH", "brand": "USPS", "collection_times": "Mo-Fr 16:30; Sa 11:45", "name": "USPS COLLECTION BOX - PO LOBBY", "note": "ON 12/24 AND 12/31, THIS BOX MAY BE COLLECTED AS EARLY AS 12 NOON.", "ref": "4506500009"}, "type": "Feature"}
{"geometry": {"coordinates": [-84.211999607, 39.371944427], "type": "Point"}, "id": "BVIp9SbaRiBu0zcZ0YFyFDr88UA=", "properties": {"@spider": "usps_collection_boxes", "addr:city": "SOUTH LEBANON", "addr:country": "US", "addr:full": "219 E FOREST AVE", "addr:postcode": "45065", "addr:state": "OH", "brand": "USPS", "collection_times": "Mo-Fr 17:00; Sa 12:00", "name": "USPS COLLECTION BOX - PO LOBBY", "note": "ON 12/24 AND 12/31, THIS BOX MAY BE COLLECTED AS EARLY AS 12 NOON.", "ref": "4506500013"}, "type": "Feature"}
{"geometry": {"coordinates": [-84.255588804, 39.560448521], "type": "Point"}, "id": "LenKNnhwiKuOTaAZKlTBbUHsk1k=", "properties": {"@spider": "usps_collection_boxes", "addr:city": "SPRINGBORO", "addr:country": "US", "addr:full": "55 S PIONEER BLVD", "addr:postcode": "45066", "addr:state": "OH", "brand": "USPS", "collection_times": "Mo-Fr 16:30; Sa 14:30", "name": "USPS COLLECTION BOX - BLUE BOX", "note": "ON 12/24 AND 12/31, THIS BOX MAY BE COLLECTED AS EARLY AS 12 NOON.", "ref": "4506600013"}, "type": "Feature"}
{"geometry": {"coordinates": [-84.255588804, 39.560448521], "type": "Point"}, "id": "-EGbVufTyrTXF19fQx3wS96ziw8=", "properties": {"@spider": "usps_collection_boxes", "addr:city": "SPRINGBORO", "addr:country": "US", "addr:full": "55 S PIONEER BLVD", "addr:postcode": "45066", "addr:state": "OH", "brand": "USPS", "collection_times": "Mo-Fr 17:00; Sa 14:30", "name": "USPS COLLECTION BOX - PO LOBBY", "note": "ON 12/24 AND 12/31, THIS BOX MAY BE COLLECTED AS EARLY AS 12 NOON.", "ref": "4506600014"}, "type": "Feature"}
{"geometry": {"coordinates": [-84.255588804, 39.560448521], "type": "Point"}, "id": "ORKtStr7T9W5Rm_EDGyoP5KBZMc=", "properties": {"@spider": "usps_collection_boxes", "addr:city": "SPRINGBORO", "addr:country": "US", "addr:full": "55 S PIONEER BLVD", "addr:postcode": "45066", "addr:state": "OH", "brand": "USPS", "collection_times": "Mo-Fr 17:00; Sa 14:30", "name": "USPS COLLECTION BOX - PO LOBBY", "note": "ON 12/24 AND 12/31, THIS BOX MAY BE COLLECTED AS EARLY AS 12 NOON.", "ref": "4506600015"}, "type": "Feature"}
{"geometry": {"coordinates": [-84.255588804, 39.560448521], "type": "Point"}, "id": "p3vgVGP2w_9bbgLAFbpxGY3bueQ=", "properties": {"@spider": "usps_collection_boxes", "addr:city": "SPRINGBORO", "addr:country": "US", "addr:full": "55 S PIONEER BLVD", "addr:postcode": "45066", "addr:state": "OH", "brand": "USPS", "collection_times": "Mo-Fr 17:00; Sa 14:30", "name": "USPS COLLECTION BOX - PO LOBBY", "note": "ON 12/24 AND 12/31, THIS BOX MAY BE COLLECTED AS EARLY AS 12 NOON.", "ref": "4506600016"}, "type": "Feature"}
{"geometry": {"coordinates": [-84.2299682, 39.579047], "type": "Point"}, "id": "qqPq9SXYpp687pJXGDjPAXs4Q3w=", "properties": {"@spider": "usps_collection_boxes", "addr:city": "SPRINGBORO", "addr:country": "US", "addr:full": "2 REMICK BLVD", "addr:postcode": "45066", "addr:state": "OH", "brand": "USPS", "collection_times": "Mo-Sa 12:00", "name": "USPS COLLECTION BOX - BLUE BOX", "ref": "4506600017"}, "type": "Feature"}
{"geometry": {"coordinates": [-84.255588804, 39.560448521], "type": "Point"}, "id": "hCIaoosfQYlAL-5SIAg5f6dvLNQ=", "properties": {"@spider": "usps_collection_boxes", "addr:city": "SPRINGBORO", "addr:country": "US", "addr:full": "55 S PIONEER BLVD", "addr:postcode": "45066", "addr:state": "OH", "brand": "USPS", "collection_times": "Mo-Fr 17:00; Sa 14:30", "name": "USPS COLLECTION BOX - APC", "note": "ON 12/24 AND 12/31, THIS BOX MAY BE COLLECTED AS EARLY AS 12 NOON.", "ref": "4506600018"}, "type": "Feature"}
{"geometry": {"coordinates": [-84.255588804, 39.560448521], "type": "Point"}, "id": "fU1miIAlWzXKds7utMKn827l24M=", "properties": {"@spider": "usps_collection_boxes", "addr:city": "SPRINGBORO", "addr:country": "US", "addr:full": "55 S PIONEER BLVD", "addr:postcode": "45066", "addr:state": "OH", "brand": "USPS", "collection_times": "Mo-Fr 16:30; Sa 14:30", "name": "USPS COLLECTION BOX - BLUE BOX", "note": "ON 12/24 AND 12/31, THIS BOX MAY BE COLLECTED AS EARLY AS 12 NOON.", "ref": "4506600022"}, "type": "Feature"}
{"geometry": {"coordinates": [-84.255588804, 39.560448521], "type": "Point"}, "id": "1LkQhQ6SgSad70y9KLj6SCYMHck=", "properties": {"@spider": "usps_collection_boxes", "addr:city": "SPRINGBORO", "addr:country": "US", "addr:full": "55 S PIONEER BLVD", "addr:postcode": "45066", "addr:state": "OH", "brand": "USPS", "collection_times": "Mo-Fr 17:00; Sa 12:00", "name": "USPS COLLECTION BOX - PO LOBBY", "note": "ON 12/24 AND 12/31, THIS BOX MAY BE COLLECTED AS EARLY AS 12 NOON.", "ref": "4506600024"}, "type": "Feature"}
{"geometry": {"coordinates": [-84.087327729, 39.529976628], "type": "Point"}, "id": "boiPhN_HBm9HxsZS0d-ObiI-okk=", "properties": {"@spider": "usps_collection_boxes", "addr:city": "WAYNESVILLE", "addr:country": "US", "addr:full": "235 MIAMI ST", "addr:postcode": "45068", "addr:state": "OH", "brand": "USPS", "collection_times": "Mo-Fr 16:00; Sa 11:30", "name": "USPS COLLECTION BOX - BLUE BOX", "note": "ON 12/24 AND 12/31, THIS BOX MAY BE COLLECTED AS EARLY AS 12 NOON.", "ref": "4506800001"}, "type": "Feature"}
{"geometry": {"coordinates": [-84.087327729, 39.529976628], "type": "Point"}, "id": "FXpNOyeaaYS6Z5nDkVI_8Xz30V4=", "properties": {"@spider": "usps_collection_boxes", "addr:city": "WAYNESVILLE", "addr:country": "US", "addr:full": "235 MIAMI ST", "addr:postcode": "45068", "addr:state": "OH", "brand": "USPS", "collection_times": "Mo-Fr 16:00; Sa 11:30", "name": "USPS COLLECTION BOX - PO LOBBY", "note": "ON 12/24 AND 12/31, THIS BOX MAY BE COLLECTED AS EARLY AS 12 NOON.", "ref": "4506800002"}, "type": "Feature"}
{"geometry": {"coordinates": [-84.087327729, 39.529976628], "type": "Point"}, "id": "5xO4dvNcQv-T8WacnPCU_RCp0_c=", "properties": {"@spider": "usps_collection_boxes", "addr:city": "WAYNESVILLE", "addr:country": "US", "addr:full": "235 MIAMI ST", "addr:postcode": "45068", "addr:state": "OH", "brand": "USPS", "collection_times": "Mo-Fr 16:30; Sa 12:00", "name": "USPS COLLECTION BOX - PO LOBBY", "note": "ON 12/24 AND 12/31, THIS BOX MAY BE COLLECTED AS EARLY AS 12 NOON.", "ref": "4506800012"}, "type": "Feature"}
{"geometry": {"coordinates": [-84.3647266, 39.35173], "type": "Point"}, "id": "BdyTdWSrAlu31EO0AByqnYTWmOA=", "properties": {"@spider": "usps_collection_boxes", "addr:city": "WEST CHESTER", "addr:country": "US", "addr:full": "7743 TYLERSVILLE RD", "addr:postcode": "45069", "addr:state": "OH", "brand": "USPS", "collection_times": "Mo-Fr 16:00; Sa 15:30", "name": "USPS COLLECTION BOX - BLUE BOX", "note": "ON 12/24 AND 12/31, THIS BOX MAY BE COLLECTED AS EARLY AS 12 NOON.", "ref": "4506900003"}, "type": "Feature"}
{"geometry": {"coordinates": [-84.3702241, 39.352174], "type": "Point"}, "id": "3QUyxPRtA-VE1QQHislpobSjAG4=", "properties": {"@spider": "usps_collection_boxes", "addr:city": "WEST CHESTER", "addr:country": "US", "addr:full": "7665 MONARCH CT", "addr:postcode": "45069", "addr:state": "OH", "brand": "USPS", "collection_times": "Mo-Fr 16:00; Sa 15:30", "name": "USPS COLLECTION BOX - BLUE BOX", "note": "ON 12/24 AND 12/31, THIS BOX MAY BE COLLECTED AS EARLY AS 12 NOON.", "ref": "4506900029"}, "type": "Feature"}
{"geometry": {"coordinates": [-84.3627749, 39.354317], "type": "Point"}, "id": "lvacU-T2sesC1K-GiZM1hhwtszI=", "properties": {"@spider": "usps_collection_boxes", "addr:city": "WEST CHESTER", "addr:country": "US", "addr:full": "7702 VOA DR", "addr:postcode": "45069", "addr:state": "OH", "brand": "USPS", "collection_times": "Mo-Fr 16:00; Sa 15:30", "name": "USPS COLLECTION BOX - BLUE BOX", "note": "ON 12/24 AND 12/31, THIS BOX MAY BE COLLECTED AS EARLY AS 12 NOON.", "ref": "4506900040"}, "type": "Feature"}
{"geometry": {"coordinates": [-84.3670466, 39.356593], "type": "Point"}, "id": "S8jgQkG3RmXVxGEjzR1-hHOuL1s=", "properties": {"@spider": "usps_collection_boxes", "addr:city": "WEST CHESTER", "addr:country": "US", "addr:full": "7777 UNIVERSITY DR", "addr:postcode": "45069", "addr:state": "OH", "brand": "USPS", "collection_times": "Mo-Sa 13:00", "name": "USPS COLLECTION BOX - BLUE BOX", "note": "ON 12/24 AND 12/31, THIS BOX MAY BE COLLECTED AS EARLY AS 12 NOON.", "ref": "4506900046"}, "type": "Feature"}
{"geometry": {"coordinates": [-84.367509, 39.358239], "type": "Point"}, "id": "K75DOrSsIbrKRVoPsNquR3t5V1I=", "properties": {"@spider": "usps_collection_boxes", "addr:city": "WEST CHESTER", "addr:country": "US", "addr:full": "7777 UNIVERSITY DR", "addr:postcode": "45069", "addr:state": "OH", "brand": "USPS", "collection_times": "Mo-Fr 16:00; Sa 15:30", "name": "USPS COLLECTION BOX - BLUE BOX", "note": "ON 12/24 AND 12/31, THIS BOX MAY BE COLLECTED AS EARLY AS 12 NOON.", "ref": "4506900050"}, "type": "Feature"}
{"geometry": {"coordinates": [-84.3733624, 39.372556], "type": "Point"}, "id": "rZ9Xr84GtWPN6MxYJVQMdxI2kX4=", "properties": {"@spider": "usps_collection_boxes", "addr:city": "WEST CHESTER", "addr:country": "US", "addr:full": "7550 BALES ST", "addr:postcode": "45069", "addr:state": "OH", "brand": "USPS", "collection_times": "Mo-Sa 15:00", "name": "USPS COLLECTION BOX - BLUE BOX", "note": "ON 12/24 AND 12/31, THIS BOX MAY BE COLLECTED AS EARLY AS 12 NOON.", "ref": "4506900055"}, "type": "Feature"}
