{"geometry": {"coordinates": [-83.760152595, 38.65501429], "type": "Point"}, "id": "N0i96x-tBZQr7YcubzTu6Dm-f3E=", "properties": {"@source_uri": "https://tools.usps.com/UspsToolsRestServices/rest/POLocator/findLocations", "@spider": "usps_collection_boxes", "addr:city": "ABERDEEN", "addr:country": "US", "addr:postcode": "45101", "addr:state": "OH", "addr:street_address": "720 US HIGHWAY 52", "amenity": "post_box", "collection_times": "Mo-Fr 16:00; Sa 11:45", "indoor": "yes", "note": "ON 12/24 AND 12/31, THIS BOX MAY BE COLLECTED AS EARLY AS 12 NOON.", "nsi_id": "unitedstatespostalservice-a77078", "operator": "United States Postal Service", "operator:short": "USPS", "operator:type": "public", "operator:wikidata": "Q668687", "ref": "4510100000"}, "type": "Feature"}
{"geometry": {"coordinates": [-83.7598613, 38.6674275], "type": "Point"}, "id": "XLMyXYidDhRbU9BvbNUYnKbHwks=", "properties": {"@source_uri": "https://tools.usps.com/UspsToolsRestServices/rest/POLocator/findLocations", "@spider": "usps_collection_boxes", "addr:city": "ABERDEEN", "addr:country": "US", "addr:postcode": "45101", "addr:state": "OH", "addr:street_address": "1730 US HIGHWAY 52", "amenity": "post_box", "collection_times": "Mo-Fr 12:00; Sa 11:45", "nsi_id": "unitedstatespostalservice-a77078", "operator": "United States Postal Service", "operator:short": "USPS", "operator:type": "public", "operator:wikidata": "Q668687", "ref": "4510100001"}, "type": "Feature"}
{"geometry": {"coordinates": [-83.760152595, 38.65501429], "type": "Point"}, "id": "k2csFpLPwpihxjR2-iAL94INNyM=", "properties": {"@source_uri": "https://tools.usps.com/UspsToolsRestServices/rest/POLocator/findLocations", "@spider": "usps_collection_boxes", "addr:city": "ABERDEEN", "addr:country": "US", "addr:postcode": "45101", "addr:state": "OH", "addr:street_address": "720 US HIGHWAY 52", "amenity": "post_box", "collection_times": "Mo-Fr 16:00; Sa 11:45", "note": "ON 12/24 AND 12/31, THIS BOX MAY BE COLLECTED AS EARLY AS 12 NOON.", "nsi_id": "unitedstatespostalservice-a77078", "operator": "United States Postal Service", "operator:short": "USPS", "operator:type": "public", "operator:wikidata": "Q668687", "ref": "4510100002"}, "type": "Feature"}
{"geometry": {"coordinates": [-83.760152595, 38.65501429], "type": "Point"}, "id": "nefINpFl-J0dHbmF96cXbn-QwiM=", "properties": {"@source_uri": "https://tools.usps.com/UspsToolsRestServices/rest/POLocator/findLocations", "@spider": "usps_collection_boxes", "addr:city": "ABERDEEN", "addr:country": "US", "addr:postcode": "45101", "addr:state": "OH", "addr:street_address": "720 US HIGHWAY 52", "amenity": "post_box", "collection_times": "Mo-Fr 16:00; Sa 11:30", "indoor": "yes", "note": "ON 12/24 AND 12/31, THIS BOX MAY BE COLLECTED AS EARLY AS 12 NOON.", "nsi_id": "unitedstatespostalservice-a77078", "operator": "United States Postal Service", "operator:short": "USPS", "operator:type": "public", "operator:wikidata": "Q668687", "ref": "4510100006"}, "type": "Feature"}
{"geometry": {"coordinates": [-84.219802504, 39.028325554], "type": "Point"}, "id": "gH5K3dYHmSTWXCdjqPv2xdba4Zk=", "properties": {"@source_uri": "https://tools.usps.com/UspsToolsRestServices/rest/POLocator/findLocations", "@spider": "usps_collection_boxes", "addr:city": "AMELIA", "addr:country": "US", "addr:postcode": "45102", "addr:state": "OH", "addr:street_address": "7 S KLINE AVE", "amenity": "post_box", "collection_times": "Mo-Fr 17:00; Sa 14:30", "note": "ON 12/24 AND 12/31, THIS BOX MAY BE COLLECTED AS EARLY AS 12 NOON.", "nsi_id": "unitedstatespostalservice-a77078", "operator": "United States Postal Service", "operator:short": "USPS", "operator:type": "public", "operator:wikidata": "Q668687", "ref": "4510200000"}, "type": "Feature"}
{"geometry": {"coordinates": [-84.219802504, 39.028325554], "type": "Point"}, "id": "cU6hzCEu_I4vwqoNTldSPaUIC70=", "properties": {"@source_uri": "https://tools.usps.com/UspsToolsRestServices/rest/POLocator/findLocations", "@spider": "usps_collection_boxes", "addr:city": "AMELIA", "addr:country": "US", "addr:postcode": "45102", "addr:state": "OH", "addr:street_address": "7 S KLINE AVE", "amenity": "post_box", "collection_times": "Mo-Fr 17:00; Sa 14:30", "note": "ON 12/24 AND 12/31, THIS BOX MAY BE COLLECTED AS EARLY AS 12 NOON.", "nsi_id": "unitedstatespostalservice-a77078", "operator": "United States Postal Service", "operator:short": "USPS", "operator:type": "public", "operator:wikidata": "Q668687", "ref": "4510200001"}, "type": "Feature"}
{"geometry": {"coordinates": [-84.2438275, 39.047928], "type": "Point"}, "id": "pLX62evB4gaTPijxfN0HOadZkY4=", "properties": {"@source_uri": "https://tools.usps.com/UspsToolsRestServices/rest/POLocator/findLocations", "@spider": "usps_collection_boxes", "addr:city": "AMELIA", "addr:country": "US", "addr:postcode": "45102", "addr:state": "OH", "addr:street_address": "1260 W OHIO PIKE", "amenity": "post_box", "collection_times": "Mo-Fr 13:30; Sa 10:30", "note": "ON 12/24 AND 12/31, THIS BOX MAY BE COLLECTED AS EARLY AS 12 NOON.", "nsi_id": "unitedstatespostalservice-a77078", "operator": "United States Postal Service", "operator:short": "USPS", "operator:type": "public", "operator:wikidata": "Q668687", "ref": "4510200004"}, "type": "Feature"}
{"geometry": {"coordinates": [-84.2004827, 39.018116], "type": "Point"}, "id": "4FR6lilABDv6iD6kwrjNYBsXzUE=", "properties": {"@source_uri": "https://tools.usps.com/UspsToolsRestServices/rest/POLocator/findLocations", "@spider": "usps_collection_boxes", "addr:city": "AMELIA", "addr:country": "US", "addr:postcode": "45102", "addr:state": "OH", "addr:street_address": "1783 E OHIO PIKE", "amenity": "post_box", "collection_times": "Mo-Sa 10:00", "nsi_id": "unitedstatespostalservice-a77078", "operator": "United States Postal Service", "operator:short": "USPS", "operator:type": "public", "operator:wikidata": "Q668687", "ref": "4510200005"}, "type": "Feature"}
{"geometry": {"coordinates": [-84.219802504, 39.028325554], "type": "Point"}, "id": "Fw6SYB0qY9uKdJnWrmef3mhGb3c=", "properties": {"@source_uri": "https://tools.usps.com/UspsToolsRestServices/rest/POLocator/findLocations", "@spider": "usps_collection_boxes", "addr:city": "AMELIA", "addr:country": "US", "addr:postcode": "45102", "addr:state": "OH", "addr:street_address": "7 S KLINE AVE", "amenity": "post_box", "collection_times": "Mo-Fr 17:00; Sa 14:30", "indoor": "yes", "note": "ON 12/24 AND 12/31, THIS BOX MAY BE COLLECTED AS EARLY AS 12 NOON.", "nsi_id": "unitedstatespostalservice-a77078", "operator": "United States Postal Service", "operator:short": "USPS", "operator:type": "public", "operator:wikidata": "Q668687", "ref": "4510200010"}, "type": "Feature"}
{"geometry": {"coordinates": [-84.219802504, 39.028325554], "type": "Point"}, "id": "EXjEILmJufRCEm9o_u_b8YNi7SY=", "properties": {"@source_uri": "https://tools.usps.com/UspsToolsRestServices/rest/POLocator/findLocations", "@spider": "usps_collection_boxes", "addr:city": "AMELIA", "addr:country": "US", "addr:postcode": "45102", "addr:state": "OH", "addr:street_address": "7 S KLINE AVE", "amenity": "post_box", "collection_times": "Mo-Fr 17:00; Sa 12:00", "indoor": "yes", "note": "ON 12/24 AND 12/31, THIS BOX MAY BE COLLECTED AS EARLY AS 12 NOON.", "nsi_id": "unitedstatespostalservice-a77078", "operator": "United States Postal Service", "operator:short": "USPS", "operator:type": "public", "operator:wikidata": "Q668687", "ref": "4510200015"}, "type": "Feature"}
{"geometry": {"coordinates": [-84.186722386, 39.081905271], "type": "Point"}, "id": "WGPmyTEGZMrobV_l4TbEgaWZl3E=", "properties": {"@source_uri": "https://tools.usps.com/UspsToolsRestServices/rest/POLocator/findLocations", "@spider": "usps_collection_boxes", "addr:city": "BATAVIA", "addr:country": "US", "addr:postcode": "45103", "addr:state": "OH", "addr:street_address": "575 W MAIN ST", "amenity": "post_box", "collection_times": "Mo-Fr 17:30; Sa 16:30", "note": "ON 12/24 AND 12/31, THIS BOX MAY BE COLLECTED AS EARLY AS 12 NOON.", "nsi_id": "unitedstatespostalservice-a77078", "operator": "United States Postal Service", "operator:short": "USPS", "operator:type": "public", "operator:wikidata": "Q668687", "ref": "4510300000"}, "type": "Feature"}
{"geometry": {"coordinates": [-84.1181636, 39.064637], "type": "Point"}, "id": "G9fOvtkUBinkMg9vgGkoz4a9BmU=", "properties": {"@source_uri": "https://tools.usps.com/UspsToolsRestServices/rest/POLocator/findLocations", "@spider": "usps_collection_boxes", "addr:city": "BATAVIA", "addr:country": "US", "addr:postcode": "45103", "addr:state": "OH", "addr:street_address": "2615 BATAVIA WILLIAMSBURG PIKE", "amenity": "post_box", "collection_times": "Mo-Sa 11:00", "nsi_id": "unitedstatespostalservice-a77078", "operator": "United States Postal Service", "operator:short": "USPS", "operator:type": "public", "operator:wikidata": "Q668687", "ref": "4510300005"}, "type": "Feature"}
{"geometry": {"coordinates": [-84.2573778, 39.095566], "type": "Point"}, "id": "9650DwB8_rjZt618V2YWQ1IZ6xk=", "properties": {"@source_uri": "https://tools.usps.com/UspsToolsRestServices/rest/POLocator/findLocations", "@spider": "usps_collection_boxes", "addr:city": "BATAVIA", "addr:country": "US", "addr:postcode": "45103", "addr:state": "OH", "addr:street_address": "2 SPOTSWOOD CMN", "amenity": "post_box", "collection_times": "Mo-Sa 10:00", "nsi_id": "unitedstatespostalservice-a77078", "operator": "United States Postal Service", "operator:short": "USPS", "operator:type": "public", "operator:wikidata": "Q668687", "ref": "4510300006"}, "type": "Feature"}
{"geometry": {"coordinates": [-84.2529524, 39.103402], "type": "Point"}, "id": "WLkfGXSHZOmxinLoXRlcXfrvyro=", "properties": {"@source_uri": "https://tools.usps.com/UspsToolsRestServices/rest/POLocator/findLocations", "@spider": "usps_collection_boxes", "addr:city": "BATAVIA", "addr:country": "US", "addr:postcode": "45103", "addr:state": "OH", "addr:street_address": "4584 WILLOWBROOK PT", "amenity": "post_box", "collection_times": "Mo-Sa 13:00", "note": "ON 12/24 AND 12/31, THIS BOX MAY BE COLLECTED AS EARLY AS 12 NOON.", "nsi_id": "unitedstatespostalservice-a77078", "operator": "United States Postal Service", "operator:short": "USPS", "operator:type": "public", "operator:wikidata": "Q668687", "ref": "4510300016"}, "type": "Feature"}
{"geometry": {"coordinates": [-84.2440964, 39.086974], "type": "Point"}, "id": "ukEDano_C3RFavsNnIgI-jyBvTI=", "properties": {"@source_uri": "https://tools.usps.com/UspsToolsRestServices/rest/POLocator/findLocations", "@spider": "usps_collection_boxes", "addr:city": "BATAVIA", "addr:country": "US", "addr:postcode": "45103", "addr:state": "OH", "addr:street_address": "4412 EASTWOOD DR", "amenity": "post_box", "collection_times": "Mo-Sa 13:00", "note": "ON 12/24 AND 12/31, THIS BOX MAY BE COLLECTED AS EARLY AS 12 NOON.", "nsi_id": "unitedstatespostalservice-a77078", "operator": "United States Postal Service", "operator:short": "USPS", "operator:type": "public", "operator:wikidata": "Q668687", "ref": "4510300017"}, "type": "Feature"}
{"geometry": {"coordinates": [-84.2218239, 39.085415], "type": "Point"}, "id": "yLuN0DbJKv84FAKoBCDJc1v-2ZY=", "properties": {"@source_uri": "https://tools.usps.com/UspsToolsRestServices/rest/POLocator/findLocations", "@spider": "usps_collection_boxes", "addr:city": "BATAVIA", "addr:country": "US", "addr:postcode": "45103", "addr:state": "OH", "addr:street_address": "100 STONELICK WOODS DR", "amenity": "post_box", "collection_times": "Mo-Sa 11:00", "nsi_id": "unitedstatespostalservice-a77078", "operator": "United States Postal Service", "operator:short": "USPS", "operator:type": "public", "operator:wikidata": "Q668687", "ref": "4510300018"}, "type": "Feature"}
{"geometry": {"coordinates": [-84.1790619, 39.07759], "type": "Point"}, "id": "F6Zy2-Kh0Fl5QBi-45kCSuwB-oc=", "properties": {"@source_uri": "https://tools.usps.com/UspsToolsRestServices/rest/POLocator/findLocations", "@spider": "usps_collection_boxes", "addr:city": "BATAVIA", "addr:country": "US", "addr:postcode": "45103", "addr:state": "OH", "addr:street_address": "101 E MAIN ST", "amenity": "post_box", "collection_times": "Mo-Fr 15:30; Sa 14:30", "note": "ON 12/24 AND 12/31, THIS BOX MAY BE COLLECTED AS EARLY AS 12 NOON.", "nsi_id": "unitedstatespostalservice-a77078", "operator": "United States Postal Service", "operator:short": "USPS", "operator:type": "public", "operator:wikidata": "Q668687", "ref": "4510300019"}, "type": "Feature"}
{"geometry": {"coordinates": [-84.186722386, 39.081905271], "type": "Point"}, "id": "QMIfaiFapjbxSImw213kCVc4JtQ=", "properties": {"@source_uri": "https://tools.usps.com/UspsToolsRestServices/rest/POLocator/findLocations", "@spider": "usps_collection_boxes", "addr:city": "BATAVIA", "addr:country": "US", "addr:postcode": "45103", "addr:state": "OH", "addr:street_address": "575 W MAIN ST", "amenity": "post_box", "collection_times": "Mo-Fr 17:30; Sa 16:30", "indoor": "yes", "note": "ON 12/24 AND 12/31, THIS BOX MAY BE COLLECTED AS EARLY AS 12 NOON.", "nsi_id": "unitedstatespostalservice-a77078", "operator": "United States Postal Service", "operator:short": "USPS", "operator:type": "public", "operator:wikidata": "Q668687", "ref": "4510300023"}, "type": "Feature"}
{"geometry": {"coordinates": [-84.186722386, 39.081905271], "type": "Point"}, "id": "X01yo7OyfFtE3h4mIM-A9cU4L0Y=", "properties": {"@source_uri": "https://tools.usps.com/UspsToolsRestServices/rest/POLocator/findLocations", "@spider": "usps_collection_boxes", "addr:city": "BATAVIA", "addr:country": "US", "addr:postcode": "45103", "addr:state": "OH", "addr:street_address": "575 W MAIN ST", "amenity": "post_box", "collection_times": "Mo-Fr 17:30; Sa 12:30", "indoor": "yes", "note": "ON 12/24 AND 12/31, THIS BOX MAY BE COLLECTED AS EARLY AS 12 NOON.", "nsi_id": "unitedstatespostalservice-a77078", "operator": "United States Postal Service", "operator:short": "USPS", "operator:type": "public", "operator:wikidata": "Q668687", "ref": "4510300026"}, "type": "Feature"}
{"geometry": {"coordinates": [-83.612056132, 38.750807734], "type": "Point"}, "id": "nTdxcQ9RcTXfS689wTcV9jg1x5E=", "properties": {"@source_uri": "https://tools.usps.com/UspsToolsRestServices/rest/POLocator/findLocations", "@spider": "usps_collection_boxes", "addr:city": "BENTONVILLE", "addr:country": "US", "addr:postcode": "45105", "addr:state": "OH", "addr:street_address": "7785 STATE ROUTE 41", "amenity": "post_box", "collection_times": "Mo-Sa 16:15", "note": "ON 12/24 AND 12/31, THIS BOX MAY BE COLLECTED AS EARLY AS 12 NOON.", "nsi_id": "unitedstatespostalservice-a77078", "operator": "United States Postal Service", "operator:short": "USPS", "operator:type": "public", "operator:wikidata": "Q668687", "ref": "4510500001"}, "type": "Feature"}
{"geometry": {"coordinates": [-83.612056132, 38.750807734], "type": "Point"}, "id": "exoaIhATkDDd6J9a118DeJyg2SY=", "properties": {"@source_uri": "https://tools.usps.com/UspsToolsRestServices/rest/POLocator/findLocations", "@spider": "usps_collection_boxes", "addr:city": "BENTONVILLE", "addr:country": "US", "addr:postcode": "45105", "addr:state": "OH", "addr:street_address": "7785 STATE ROUTE 41", "amenity": "post_box", "collection_times": "Mo-Sa 16:15", "indoor": "yes", "note": "ON 12/24 AND 12/31, THIS BOX MAY BE COLLECTED AS EARLY AS 12 NOON.", "nsi_id": "unitedstatespostalservice-a77078", "operator": "United States Postal Service", "operator:short": "USPS", "operator:type": "public", "operator:wikidata": "Q668687", "ref": "4510500002"}, "type": "Feature"}
{"geometry": {"coordinates": [-83.612056132, 38.750807734], "type": "Point"}, "id": "J-aGK1kbTa_VTtldZjDRroxgpBE=", "properties": {"@source_uri": "https://tools.usps.com/UspsToolsRestServices/rest/POLocator/findLocations", "@spider": "usps_collection_boxes", "addr:city": "BENTONVILLE", "addr:country": "US", "addr:postcode": "45105", "addr:state": "OH", "addr:street_address": "7785 STATE ROUTE 41", "amenity": "post_box", "collection_times": "Mo-Sa 17:00", "indoor": "yes", "note": "ON 12/24 AND 12/31, THIS BOX MAY BE COLLECTED AS EARLY AS 12 NOON.", "nsi_id": "unitedstatespostalservice-a77078", "operator": "United States Postal Service", "operator:short": "USPS", "operator:type": "public", "operator:wikidata": "Q668687", "ref": "4510500004"}, "type": "Feature"}
{"geometry": {"coordinates": [-84.0772460048, 38.9653130011], "type": "Point"}, "id": "jkEzIolvTuq3pp4dhEFBMofeOFc=", "properties": {"@source_uri": "https://tools.usps.com/UspsToolsRestServices/rest/POLocator/findLocations", "@spider": "usps_collection_boxes", "addr:city": "BETHEL", "addr:country": "US", "addr:postcode": "45106", "addr:state": "OH", "addr:street_address": "213 N EAST ST", "amenity": "post_box", "collection_times": "Mo-Fr 17:00; Sa 14:00", "note": "ON 12/24 AND 12/31, THIS BOX MAY BE COLLECTED AS EARLY AS 12 NOON.", "nsi_id": "unitedstatespostalservice-a77078", "operator": "United States Postal Service", "operator:short": "USPS", "operator:type": "public", "operator:wikidata": "Q668687", "ref": "4510600001"}, "type": "Feature"}
{"geometry": {"coordinates": [-84.0772460048, 38.9653130011], "type": "Point"}, "id": "1fUiwDnBJFWQx9tHZU7pDcLtYcY=", "properties": {"@source_uri": "https://tools.usps.com/UspsToolsRestServices/rest/POLocator/findLocations", "@spider": "usps_collection_boxes", "addr:city": "BETHEL", "addr:country": "US", "addr:postcode": "45106", "addr:state": "OH", "addr:street_address": "213 N EAST ST", "amenity": "post_box", "collection_times": "Mo-Fr 17:00; Sa 14:00", "indoor": "yes", "note": "ON 12/24 AND 12/31, THIS BOX MAY BE COLLECTED AS EARLY AS 12 NOON.", "nsi_id": "unitedstatespostalservice-a77078", "operator": "United States Postal Service", "operator:short": "USPS", "operator:type": "public", "operator:wikidata": "Q668687", "ref": "4510600011"}, "type": "Feature"}
{"geometry": {"coordinates": [-84.0772460048, 38.9653130011], "type": "Point"}, "id": "axL5gZP5EaH5bF6_bkKzU1WsBYw=", "properties": {"@source_uri": "https://tools.usps.com/UspsToolsRestServices/rest/POLocator/findLocations", "@spider": "usps_collection_boxes", "addr:city": "BETHEL", "addr:country": "US", "addr:postcode": "45106", "addr:state": "OH", "addr:street_address": "213 N EAST ST", "amenity": "post_box", "collection_times": "Mo-Fr 17:00; Sa 12:00", "indoor": "yes", "note": "ON 12/24 AND 12/31, THIS BOX MAY BE COLLECTED AS EARLY AS 12 NOON.", "nsi_id": "unitedstatespostalservice-a77078", "operator": "United States Postal Service", "operator:short": "USPS", "operator:type": "public", "operator:wikidata": "Q668687", "ref": "4510600015"}, "type": "Feature"}
{"geometry": {"coordinates": [-83.9886016, 39.29311], "type": "Point"}, "id": "wpuvQO3fnOSkneSsLSforeqh_Rc=", "properties": {"@source_uri": "https://tools.usps.com/UspsToolsRestServices/rest/POLocator/findLocations", "@spider": "usps_collection_boxes", "addr:city": "BLANCHESTER", "addr:country": "US", "addr:postcode": "45107", "addr:state": "OH", "addr:street_address": "102 S BROADWAY ST", "amenity": "post_box", "collection_times": "Mo-Sa 09:00", "nsi_id": "unitedstatespostalservice-a77078", "operator": "United States Postal Service", "operator:short": "USPS", "operator:type": "public", "operator:wikidata": "Q668687", "ref": "4510700000"}, "type": "Feature"}
{"geometry": {"coordinates": [-83.9921917, 39.292091], "type": "Point"}, "id": "DgVYTOOhZXUVXsawsE5ir7wG4lU=", "properties": {"@source_uri": "https://tools.usps.com/UspsToolsRestServices/rest/POLocator/findLocations", "@spider": "usps_collection_boxes", "addr:city": "BLANCHESTER", "addr:country": "US", "addr:postcode": "45107", "addr:state": "OH", "addr:street_address": "402 W CENTER ST", "amenity": "post_box", "collection_times": "Mo-Sa 10:45", "nsi_id": "unitedstatespostalservice-a77078", "operator": "United States Postal Service", "operator:short": "USPS", "operator:type": "public", "operator:wikidata": "Q668687", "ref": "4510700003"}, "type": "Feature"}
{"geometry": {"coordinates": [-83.9775506, 39.280588], "type": "Point"}, "id": "XCo6lbkDzB29gcaB0lRbyO_9My0=", "properties": {"@source_uri": "https://tools.usps.com/UspsToolsRestServices/rest/POLocator/findLocations", "@spider": "usps_collection_boxes", "addr:city": "BLANCHESTER", "addr:country": "US", "addr:postcode": "45107", "addr:state": "OH", "addr:street_address": "7529 FAIRGROUND RD", "amenity": "post_box", "collection_times": "Mo-Sa 11:00", "nsi_id": "unitedstatespostalservice-a77078", "operator": "United States Postal Service", "operator:short": "USPS", "operator:type": "public", "operator:wikidata": "Q668687", "ref": "4510700004"}, "type": "Feature"}
{"geometry": {"coordinates": [-83.9844593, 39.29709], "type": "Point"}, "id": "bN1OyIOKpSJcVfLvj-5QJ1e0QSE=", "properties": {"@source_uri": "https://tools.usps.com/UspsToolsRestServices/rest/POLocator/findLocations", "@spider": "usps_collection_boxes", "addr:city": "BLANCHESTER", "addr:country": "US", "addr:postcode": "45107", "addr:state": "OH", "addr:street_address": "415 E CENTER ST", "amenity": "post_box", "collection_times": "Mo-Sa 10:00", "nsi_id": "unitedstatespostalservice-a77078", "operator": "United States Postal Service", "operator:short": "USPS", "operator:type": "public", "operator:wikidata": "Q668687", "ref": "4510700007"}, "type": "Feature"}
{"geometry": {"coordinates": [-83.986583099, 39.293134511], "type": "Point"}, "id": "z5pYPR0qDKYBB0rAxAMdmw9IQAk=", "properties": {"@source_uri": "https://tools.usps.com/UspsToolsRestServices/rest/POLocator/findLocations", "@spider": "usps_collection_boxes", "addr:city": "BLANCHESTER", "addr:country": "US", "addr:postcode": "45107", "addr:state": "OH", "addr:street_address": "115 S WRIGHT ST", "amenity": "post_box", "collection_times": "Mo-Fr 17:00; Sa 12:00", "note": "ON 12/24 AND 12/31, THIS BOX MAY BE COLLECTED AS EARLY AS 12 NOON.", "nsi_id": "unitedstatespostalservice-a77078", "operator": "United States Postal Service", "operator:short": "USPS", "operator:type": "public", "operator:wikidata": "Q668687", "ref": "4510700012"}, "type": "Feature"}
{"geometry": {"coordinates": [-83.986583099, 39.293134511], "type": "Point"}, "id": "vTcsUZkHQD3ApdJtRebeZSsHngo=", "properties": {"@source_uri": "https://tools.usps.com/UspsToolsRestServices/rest/POLocator/findLocations", "@spider": "usps_collection_boxes", "addr:city": "BLANCHESTER", "addr:country": "US", "addr:postcode": "45107", "addr:state": "OH", "addr:street_address": "115 S WRIGHT ST", "amenity": "post_box", "collection_times": "Mo-Fr 17:00; Sa 12:00", "indoor": "yes", "note": "ON 12/24 AND 12/31, THIS BOX MAY BE COLLECTED AS EARLY AS 12 NOON.", "nsi_id": "unitedstatespostalservice-a77078", "operator": "United States Postal Service", "operator:short": "USPS", "operator:type": "public", "operator:wikidata": "Q668687", "ref": "4510700015"}, "type": "Feature"}
{"geometry": {"coordinates": [-83.986583099, 39.293134511], "type": "Point"}, "id": "Gje2f4Q73FlA30jcsiAK0ZWZ4Ug=", "properties": {"@source_uri": "https://tools.usps.com/UspsToolsRestServices/rest/POLocator/findLocations", "@spider": "usps_collection_boxes", "addr:city": "BLANCHESTER", "addr:country": "US", "addr:postcode": "45107", "addr:state": "OH", "addr:street_address": "115 S WRIGHT ST", "amenity": "post_box", "collection_times": "Mo-Fr 17:00; Sa 12:00", "indoor": "yes", "note": "ON 12/24 AND 12/31, THIS BOX MAY BE COLLECTED AS EARLY AS 12 NOON.", "nsi_id": "unitedstatespostalservice-a77078", "operator": "United States Postal Service", "operator:short": "USPS", "operator:type": "public", "operator:wikidata": "Q668687", "ref": "4510700016"}, "type": "Feature"}
{"geometry": {"coordinates": [-83.986583099, 39.293134511], "type": "Point"}, "id": "HlkUlAyU97JUD0UBCZNUKFjXLD0=", "properties": {"@source_uri": "https://tools.usps.com/UspsToolsRestServices/rest/POLocator/findLocations", "@spider": "usps_collection_boxes", "addr:city": "BLANCHESTER", "addr:country": "US", "addr:postcode": "45107", "addr:state": "OH", "addr:street_address": "115 S WRIGHT ST", "amenity": "post_box", "collection_times": "Mo-Fr 17:00; Sa 12:00", "indoor": "yes", "note": "ON 12/24 AND 12/31, THIS BOX MAY BE COLLECTED AS EARLY AS 12 NOON.", "nsi_id": "unitedstatespostalservice-a77078", "operator": "United States Postal Service", "operator:short": "USPS", "operator:type": "public", "operator:wikidata": "Q668687", "ref": "4510700022"}, "type": "Feature"}
{"geometry": {"coordinates": [-84.1404929963, 38.7931959838], "type": "Point"}, "id": "VAlYhSPCGsaoscNP1Dma0CP9d50=", "properties": {"@source_uri": "https://tools.usps.com/UspsToolsRestServices/rest/POLocator/findLocations", "@spider": "usps_collection_boxes", "addr:city": "CHILO", "addr:country": "US", "addr:postcode": "45112", "addr:state": "OH", "addr:street_address": "302 WASHINGTON ST", "amenity": "post_box", "collection_times": "Mo-Fr 13:30; Sa 11:15", "note": "ON 12/24 AND 12/31, THIS BOX MAY BE COLLECTED AS EARLY AS 12 NOON.", "nsi_id": "unitedstatespostalservice-a77078", "operator": "United States Postal Service", "operator:short": "USPS", "operator:type": "public", "operator:wikidata": "Q668687", "ref": "4511200001"}, "type": "Feature"}
{"geometry": {"coordinates": [-84.1404929963, 38.7931959838], "type": "Point"}, "id": "V49kyiyiJugB5nXRcEfZSKiqur8=", "properties": {"@source_uri": "https://tools.usps.com/UspsToolsRestServices/rest/POLocator/findLocations", "@spider": "usps_collection_boxes", "addr:city": "CHILO", "addr:country": "US", "addr:postcode": "45112", "addr:state": "OH", "addr:street_address": "302 WASHINGTON ST", "amenity": "post_box", "collection_times": "Mo-Fr 13:30; Sa 11:15", "indoor": "yes", "note": "ON 12/24 AND 12/31, THIS BOX MAY BE COLLECTED AS EARLY AS 12 NOON.", "nsi_id": "unitedstatespostalservice-a77078", "operator": "United States Postal Service", "operator:short": "USPS", "operator:type": "public", "operator:wikidata": "Q668687", "ref": "4511200002"}, "type": "Feature"}
{"geometry": {"coordinates": [-84.1404929963, 38.7931959838], "type": "Point"}, "id": "3DiFdoHe8BovdImvaZgpTG7HXGQ=", "properties": {"@source_uri": "https://tools.usps.com/UspsToolsRestServices/rest/POLocator/findLocations", "@spider": "usps_collection_boxes", "addr:city": "CHILO", "addr:country": "US", "addr:postcode": "45112", "addr:state": "OH", "addr:street_address": "302 WASHINGTON ST", "amenity": "post_box", "collection_times": "Mo-Fr 16:15; Sa 12:00", "indoor": "yes", "note": "ON 12/24 AND 12/31, THIS BOX MAY BE COLLECTED AS EARLY AS 12 NOON.", "nsi_id": "unitedstatespostalservice-a77078", "operator": "United States Postal Service", "operator:short": "USPS", "operator:type": "public", "operator:wikidata": "Q668687", "ref": "4511200005"}, "type": "Feature"}
{"geometry": {"coordinates": [-83.987175354, 39.403728536], "type": "Point"}, "id": "R4ycGwjPd0NV7pMSENQ21dYfZkE=", "properties": {"@source_uri": "https://tools.usps.com/UspsToolsRestServices/rest/POLocator/findLocations", "@spider": "usps_collection_boxes", "addr:city": "CLARKSVILLE", "addr:country": "US", "addr:postcode": "45113", "addr:state": "OH", "addr:street_address": "75 SPRING HILL RD", "amenity": "post_box", "collection_times": "Mo-Fr 16:00; Sa 11:00", "note": "ON 12/24 AND 12/31, THIS BOX MAY BE COLLECTED AS EARLY AS 12 NOON.", "nsi_id": "unitedstatespostalservice-a77078", "operator": "United States Postal Service", "operator:short": "USPS", "operator:type": "public", "operator:wikidata": "Q668687", "ref": "4511300001"}, "type": "Feature"}
{"geometry": {"coordinates": [-83.987405, 39.404035], "type": "Point"}, "id": "OizwsHaYn97OKBm5bMR1gWrYQUU=", "properties": {"@source_uri": "https://tools.usps.com/UspsToolsRestServices/rest/POLocator/findLocations", "@spider": "usps_collection_boxes", "addr:city": "CLARKSVILLE", "addr:country": "US", "addr:postcode": "45113", "addr:state": "OH", "addr:street_address": "75 SPRINGHILL RD", "amenity": "post_box", "collection_times": "Mo-Fr 16:30; Sa 11:30", "indoor": "yes", "note": "ON 12/24 AND 12/31, THIS BOX MAY BE COLLECTED AS EARLY AS 12 NOON.", "nsi_id": "unitedstatespostalservice-a77078", "operator": "United States Postal Service", "operator:short": "USPS", "operator:type": "public", "operator:wikidata": "Q668687", "ref": "4511300002"}, "type": "Feature"}
{"geometry": {"coordinates": [-83.987175354, 39.403728536], "type": "Point"}, "id": "fykmpx3T_gJGfWsBSNWHf31aDKk=", "properties": {"@source_uri": "https://tools.usps.com/UspsToolsRestServices/rest/POLocator/findLocations", "@spider": "usps_collection_boxes", "addr:city": "CLARKSVILLE", "addr:country": "US", "addr:postcode": "45113", "addr:state": "OH", "addr:street_address": "75 SPRING HILL RD", "amenity": "post_box", "collection_times": "Mo-Fr 16:30; Sa 11:30", "indoor": "yes", "note": "ON 12/24 AND 12/31, THIS BOX MAY BE COLLECTED AS EARLY AS 12 NOON.", "nsi_id": "unitedstatespostalservice-a77078", "operator": "United States Postal Service", "operator:short": "USPS", "operator:type": "public", "operator:wikidata": "Q668687", "ref": "4511300008"}, "type": "Feature"}
{"geometry": {"coordinates": [-83.704135153, 38.815304437], "type": "Point"}, "id": "naLoq7XX2fdItvbwnIYOMbS7jLM=", "properties": {"@source_uri": "https://tools.usps.com/UspsToolsRestServices/rest/POLocator/findLocations", "@spider": "usps_collection_boxes", "addr:city": "DECATUR", "addr:country": "US", "addr:postcode": "45115", "addr:state": "OH", "addr:street_address": "6471 HUFF HILL RD", "amenity": "post_box", "collection_times": "Mo-Fr 16:00; Sa 11:00", "note": "ON 12/24 AND 12/31, THIS BOX MAY BE COLLECTED AS EARLY AS 12 NOON.", "nsi_id": "unitedstatespostalservice-a77078", "operator": "United States Postal Service", "operator:short": "USPS", "operator:type": "public", "operator:wikidata": "Q668687", "ref": "4511500000"}, "type": "Feature"}
{"geometry": {"coordinates": [-83.704135153, 38.815304437], "type": "Point"}, "id": "ZkI9CRdJMsgG7U8lzoQ67qEe4PQ=", "properties": {"@source_uri": "https://tools.usps.com/UspsToolsRestServices/rest/POLocator/findLocations", "@spider": "usps_collection_boxes", "addr:city": "DECATUR", "addr:country": "US", "addr:postcode": "45115", "addr:state": "OH", "addr:street_address": "6471 HUFF HILL RD", "amenity": "post_box", "collection_times": "Mo-Fr 16:00; Sa 11:00", "indoor": "yes", "note": "ON 12/24 AND 12/31, THIS BOX MAY BE COLLECTED AS EARLY AS 12 NOON.", "nsi_id": "unitedstatespostalservice-a77078", "operator": "United States Postal Service", "operator:short": "USPS", "operator:type": "public", "operator:wikidata": "Q668687", "ref": "4511500001"}, "type": "Feature"}
{"geometry": {"coordinates": [-83.704135153, 38.815304437], "type": "Point"}, "id": "23gEEakmWUYBYXSy5o4pn0a6Uw4=", "properties": {"@source_uri": "https://tools.usps.com/UspsToolsRestServices/rest/POLocator/findLocations", "@spider": "usps_collection_boxes", "addr:city": "DECATUR", "addr:country": "US", "addr:postcode": "45115", "addr:state": "OH", "addr:street_address": "6471 HUFF HILL RD", "amenity": "post_box", "collection_times": "Mo-Fr 16:30; Sa 12:00", "indoor": "yes", "note": "ON 12/24 AND 12/31, THIS BOX MAY BE COLLECTED AS EARLY AS 12 NOON.", "nsi_id": "unitedstatespostalservice-a77078", "operator": "United States Postal Service", "operator:short": "USPS", "operator:type": "public", "operator:wikidata": "Q668687", "ref": "4511500004"}, "type": "Feature"}
{"geometry": {"coordinates": [-83.932308284, 39.185229583], "type": "Point"}, "id": "_McNQ3wwl3-qDzlT_UhBrWjO85M=", "properties": {"@source_uri": "https://tools.usps.com/UspsToolsRestServices/rest/POLocator/findLocations", "@spider": "usps_collection_boxes", "addr:city": "FAYETTEVILLE", "addr:country": "US", "addr:postcode": "45118", "addr:state": "OH", "addr:street_address": "201 S APPLE ST", "amenity": "post_box", "collection_times": "Mo-Fr 16:00; Sa 11:30", "note": "ON 12/24 AND 12/31, THIS BOX MAY BE COLLECTED AS EARLY AS 12 NOON.", "nsi_id": "unitedstatespostalservice-a77078", "operator": "United States Postal Service", "operator:short": "USPS", "operator:type": "public", "operator:wikidata": "Q668687", "ref": "4511800001"}, "type": "Feature"}
{"geometry": {"coordinates": [-83.9295209, 39.1853693], "type": "Point"}, "id": "M_fPQGygr3XsMJBjfaZvXsp9sKs=", "properties": {"@source_uri": "https://tools.usps.com/UspsToolsRestServices/rest/POLocator/findLocations", "@spider": "usps_collection_boxes", "addr:city": "FAYETTEVILLE", "addr:country": "US", "addr:postcode": "45118", "addr:state": "OH", "addr:street_address": "201 S APPLE ST", "amenity": "post_box", "collection_times": "Mo-Fr 16:00; Sa 11:30", "indoor": "yes", "note": "ON 12/24 AND 12/31, THIS BOX MAY BE COLLECTED AS EARLY AS 12 NOON.", "nsi_id": "unitedstatespostalservice-a77078", "operator": "United States Postal Service", "operator:short": "USPS", "operator:type": "public", "operator:wikidata": "Q668687", "ref": "4511800002"}, "type": "Feature"}
{"geometry": {"coordinates": [-83.9295209, 39.1853693], "type": "Point"}, "id": "pViX_JuijcBW4lGGKD_orN-2GOM=", "properties": {"@source_uri": "https://tools.usps.com/UspsToolsRestServices/rest/POLocator/findLocations", "@spider": "usps_collection_boxes", "addr:city": "FAYETTEVILLE", "addr:country": "US", "addr:postcode": "45118", "addr:state": "OH", "addr:street_address": "201 S APPLE ST", "amenity": "post_box", "collection_times": "Mo-Fr 16:00; Sa 11:30", "indoor": "yes", "note": "ON 12/24 AND 12/31, THIS BOX MAY BE COLLECTED AS EARLY AS 12 NOON.", "nsi_id": "unitedstatespostalservice-a77078", "operator": "United States Postal Service", "operator:short": "USPS", "operator:type": "public", "operator:wikidata": "Q668687", "ref": "4511800010"}, "type": "Feature"}
{"geometry": {"coordinates": [-84.0004964827, 38.8772291923], "type": "Point"}, "id": "xoeuviFrIOwhJmnY7WPogHkMxxQ=", "properties": {"@source_uri": "https://tools.usps.com/UspsToolsRestServices/rest/POLocator/findLocations", "@spider": "usps_collection_boxes", "addr:city": "FEESBURG", "addr:country": "US", "addr:postcode": "45119", "addr:state": "OH", "addr:street_address": "8696 STATE ROUTE 505", "amenity": "post_box", "collection_times": "Mo-Fr 16:30; Sa 11:30", "note": "ON 12/24 AND 12/31, THIS BOX MAY BE COLLECTED AS EARLY AS 12 NOON.", "nsi_id": "unitedstatespostalservice-a77078", "operator": "United States Postal Service", "operator:short": "USPS", "operator:type": "public", "operator:wikidata": "Q668687", "ref": "4511900001"}, "type": "Feature"}
{"geometry": {"coordinates": [-84.0004964827, 38.8772291923], "type": "Point"}, "id": "j8v-q8oVu2XhYBdSqzPrmPItWzc=", "properties": {"@source_uri": "https://tools.usps.com/UspsToolsRestServices/rest/POLocator/findLocations", "@spider": "usps_collection_boxes", "addr:city": "FEESBURG", "addr:country": "US", "addr:postcode": "45119", "addr:state": "OH", "addr:street_address": "8696 STATE ROUTE 505", "amenity": "post_box", "collection_times": "Mo-Fr 16:15; Sa 11:15", "indoor": "yes", "note": "ON 12/24 AND 12/31, THIS BOX MAY BE COLLECTED AS EARLY AS 12 NOON.", "nsi_id": "unitedstatespostalservice-a77078", "operator": "United States Postal Service", "operator:short": "USPS", "operator:type": "public", "operator:wikidata": "Q668687", "ref": "4511900002"}, "type": "Feature"}
{"geometry": {"coordinates": [-84.0004964827, 38.8772291923], "type": "Point"}, "id": "lmXVHD3Ozo1PgSdqOVlA2NLsYac=", "properties": {"@source_uri": "https://tools.usps.com/UspsToolsRestServices/rest/POLocator/findLocations", "@spider": "usps_collection_boxes", "addr:city": "FEESBURG", "addr:country": "US", "addr:postcode": "45119", "addr:state": "OH", "addr:street_address": "8696 STATE ROUTE 505", "amenity": "post_box", "collection_times": "Mo-Fr 16:30; Sa 12:00", "indoor": "yes", "note": "ON 12/24 AND 12/31, THIS BOX MAY BE COLLECTED AS EARLY AS 12 NOON.", "nsi_id": "unitedstatespostalservice-a77078", "operator": "United States Postal Service", "operator:short": "USPS", "operator:type": "public", "operator:wikidata": "Q668687", "ref": "4511900005"}, "type": "Feature"}
{"geometry": {"coordinates": [-84.096342953, 38.838930633], "type": "Point"}, "id": "wubLEYS5GD04fK5aDiqvoqKjK0k=", "properties": {"@source_uri": "https://tools.usps.com/UspsToolsRestServices/rest/POLocator/findLocations", "@spider": "usps_collection_boxes", "addr:city": "FELICITY", "addr:country": "US", "addr:postcode": "45120", "addr:state": "OH", "addr:street_address": "323 W WALNUT ST", "amenity": "post_box", "collection_times": "Mo-Fr 16:30; Sa 12:00", "note": "ON 12/24 AND 12/31, THIS BOX MAY BE COLLECTED AS EARLY AS 12 NOON.", "nsi_id": "unitedstatespostalservice-a77078", "operator": "United States Postal Service", "operator:short": "USPS", "operator:type": "public", "operator:wikidata": "Q668687", "ref": "4512000000"}, "type": "Feature"}
{"geometry": {"coordinates": [-84.096342953, 38.838930633], "type": "Point"}, "id": "MwZPTCJvOvhQjXFT4abpRBuxBwQ=", "properties": {"@source_uri": "https://tools.usps.com/UspsToolsRestServices/rest/POLocator/findLocations", "@spider": "usps_collection_boxes", "addr:city": "FELICITY", "addr:country": "US", "addr:postcode": "45120", "addr:state": "OH", "addr:street_address": "323 W WALNUT ST", "amenity": "post_box", "collection_times": "Mo-Fr 16:30; Sa 12:00", "indoor": "yes", "note": "ON 12/24 AND 12/31, THIS BOX MAY BE COLLECTED AS EARLY AS 12 NOON.", "nsi_id": "unitedstatespostalservice-a77078", "operator": "United States Postal Service", "operator:short": "USPS", "operator:type": "public", "operator:wikidata": "Q668687", "ref": "4512000001"}, "type": "Feature"}
{"geometry": {"coordinates": [-84.096342953, 38.838930633], "type": "Point"}, "id": "V88JK6ACrOVySwb0b7vFX9z01J4=", "properties": {"@source_uri": "https://tools.usps.com/UspsToolsRestServices/rest/POLocator/findLocations", "@spider": "usps_collection_boxes", "addr:city": "FELICITY", "addr:country": "US", "addr:postcode": "45120", "addr:state": "OH", "addr:street_address": "323 W WALNUT ST", "amenity": "post_box", "collection_times": "Mo-Fr 16:30; Sa 12:00", "indoor": "yes", "note": "ON 12/24 AND 12/31, THIS BOX MAY BE COLLECTED AS EARLY AS 12 NOON.", "nsi_id": "unitedstatespostalservice-a77078", "operator": "United States Postal Service", "operator:short": "USPS", "operator:type": "public", "operator:wikidata": "Q668687", "ref": "4512000006"}, "type": "Feature"}
{"geometry": {"coordinates": [-83.903232829, 38.865977497], "type": "Point"}, "id": "qSvGrHPAP95_JKg7aROs8qLKUqc=", "properties": {"@source_uri": "https://tools.usps.com/UspsToolsRestServices/rest/POLocator/findLocations", "@spider": "usps_collection_boxes", "addr:city": "GEORGETOWN", "addr:country": "US", "addr:postcode": "45121", "addr:state": "OH", "addr:street_address": "201 E GRANT AVE", "amenity": "post_box", "collection_times": "Mo-Fr 17:00; Sa 16:00", "note": "ON 12/24 AND 12/31, THIS BOX MAY BE COLLECTED AS EARLY AS 12 NOON.", "nsi_id": "unitedstatespostalservice-a77078", "operator": "United States Postal Service", "operator:short": "USPS", "operator:type": "public", "operator:wikidata": "Q668687", "ref": "4512100002"}, "type": "Feature"}
{"geometry": {"coordinates": [-83.8862533, 38.86314], "type": "Point"}, "id": "tDxjSvrJdp3SjXL9UE69MbfQ0tI=", "properties": {"@source_uri": "https://tools.usps.com/UspsToolsRestServices/rest/POLocator/findLocations", "@spider": "usps_collection_boxes", "addr:city": "GEORGETOWN", "addr:country": "US", "addr:postcode": "45121", "addr:state": "OH", "addr:street_address": "4901 STATE ROUTE 125", "amenity": "post_box", "collection_times": "Mo-Sa 10:30", "nsi_id": "unitedstatespostalservice-a77078", "operator": "United States Postal Service", "operator:short": "USPS", "operator:type": "public", "operator:wikidata": "Q668687", "ref": "4512100006"}, "type": "Feature"}
{"geometry": {"coordinates": [-83.9044747, 38.865408], "type": "Point"}, "id": "YdF4UtyJCx5mMHPo5FgiKCu7lbo=", "properties": {"@source_uri": "https://tools.usps.com/UspsToolsRestServices/rest/POLocator/findLocations", "@spider": "usps_collection_boxes", "addr:city": "GEORGETOWN", "addr:country": "US", "addr:postcode": "45121", "addr:state": "OH", "addr:street_address": "120 S MAIN ST", "amenity": "post_box", "collection_times": "Mo-Fr 14:00; Sa 11:00", "note": "ON 12/24 AND 12/31, THIS BOX MAY BE COLLECTED AS EARLY AS 12 NOON.", "nsi_id": "unitedstatespostalservice-a77078", "operator": "United States Postal Service", "operator:short": "USPS", "operator:type": "public", "operator:wikidata": "Q668687", "ref": "4512100022"}, "type": "Feature"}
{"geometry": {"coordinates": [-83.9034716, 38.867096], "type": "Point"}, "id": "al1DySIwjGbx_9HbRDafG_9n7hU=", "properties": {"@source_uri": "https://tools.usps.com/UspsToolsRestServices/rest/POLocator/findLocations", "@spider": "usps_collection_boxes", "addr:city": "GEORGETOWN", "addr:country": "US", "addr:postcode": "45121", "addr:state": "OH", "addr:street_address": "201 N APPLE ST", "amenity": "post_box", "collection_times": "Mo-Sa 12:30", "note": "ON 12/24 AND 12/31, THIS BOX MAY BE COLLECTED AS EARLY AS 12 NOON.", "nsi_id": "unitedstatespostalservice-a77078", "operator": "United States Postal Service", "operator:short": "USPS", "operator:type": "public", "operator:wikidata": "Q668687", "ref": "4512100023"}, "type": "Feature"}
{"geometry": {"coordinates": [-83.903232829, 38.865977497], "type": "Point"}, "id": "DpEJCSkRX7PIPHPNCZ9g00_Nijw=", "properties": {"@source_uri": "https://tools.usps.com/UspsToolsRestServices/rest/POLocator/findLocations", "@spider": "usps_collection_boxes", "addr:city": "GEORGETOWN", "addr:country": "US", "addr:postcode": "45121", "addr:state": "OH", "addr:street_address": "201 E GRANT AVE", "amenity": "post_box", "collection_times": "Mo-Fr 17:00; Sa 16:00", "indoor": "yes", "note": "ON 12/24 AND 12/31, THIS BOX MAY BE COLLECTED AS EARLY AS 12 NOON.", "nsi_id": "unitedstatespostalservice-a77078", "operator": "United States Postal Service", "operator:short": "USPS", "operator:type": "public", "operator:wikidata": "Q668687", "ref": "4512100024"}, "type": "Feature"}
{"geometry": {"coordinates": [-83.9010666, 38.875166], "type": "Point"}, "id": "GJNKRH10o1rzsRaUYwImzPdwY3s=", "properties": {"@source_uri": "https://tools.usps.com/UspsToolsRestServices/rest/POLocator/findLocations", "@spider": "usps_collection_boxes", "addr:city": "GEORGETOWN", "addr:country": "US", "addr:postcode": "45121", "addr:state": "OH", "addr:street_address": "800 MOUNT ORAB PIKE", "amenity": "post_box", "collection_times": "Mo-Sa 09:00", "nsi_id": "unitedstatespostalservice-a77078", "operator": "United States Postal Service", "operator:short": "USPS", "operator:type": "public", "operator:wikidata": "Q668687", "ref": "4512100026"}, "type": "Feature"}
{"geometry": {"coordinates": [-83.903232829, 38.865977497], "type": "Point"}, "id": "J-oAPqPi5bmLACv8LFDt3mDHTC8=", "properties": {"@source_uri": "https://tools.usps.com/UspsToolsRestServices/rest/POLocator/findLocations", "@spider": "usps_collection_boxes", "addr:city": "GEORGETOWN", "addr:country": "US", "addr:postcode": "45121", "addr:state": "OH", "addr:street_address": "201 E GRANT AVE", "amenity": "post_box", "collection_times": "Mo-Fr 17:00; Sa 12:00", "indoor": "yes", "note": "ON 12/24 AND 12/31, THIS BOX MAY BE COLLECTED AS EARLY AS 12 NOON.", "nsi_id": "unitedstatespostalservice-a77078", "operator": "United States Postal Service", "operator:short": "USPS", "operator:type": "public", "operator:wikidata": "Q668687", "ref": "4512100032"}, "type": "Feature"}
{"geometry": {"coordinates": [-84.1732990109, 39.2258249825], "type": "Point"}, "id": "IIMG42ugGZjugm-NUzPNSyglMUs=", "properties": {"@source_uri": "https://tools.usps.com/UspsToolsRestServices/rest/POLocator/findLocations", "@spider": "usps_collection_boxes", "addr:city": "GOSHEN", "addr:country": "US", "addr:postcode": "45122", "addr:state": "OH", "addr:street_address": "1785 STATE ROUTE 28", "amenity": "post_box", "collection_times": "Mo-Fr 11:30; Sa 10:00", "nsi_id": "unitedstatespostalservice-a77078", "operator": "United States Postal Service", "operator:short": "USPS", "operator:type": "public", "operator:wikidata": "Q668687", "ref": "4512200003"}, "type": "Feature"}
{"geometry": {"coordinates": [-84.152748, 39.239955], "type": "Point"}, "id": "kKrmmjREYqh8IlbwvkGpxKHZfrQ=", "properties": {"@source_uri": "https://tools.usps.com/UspsToolsRestServices/rest/POLocator/findLocations", "@spider": "usps_collection_boxes", "addr:city": "GOSHEN", "addr:country": "US", "addr:postcode": "45122", "addr:state": "OH", "addr:street_address": "1978 OLD STATE RT 28", "amenity": "post_box", "collection_times": "Mo-Fr 16:15; Sa 11:45", "indoor": "yes", "note": "ON 12/24 AND 12/31, THIS BOX MAY BE COLLECTED AS EARLY AS 12 NOON.", "nsi_id": "unitedstatespostalservice-a77078", "operator": "United States Postal Service", "operator:short": "USPS", "operator:type": "public", "operator:wikidata": "Q668687", "ref": "4512200006"}, "type": "Feature"}
{"geometry": {"coordinates": [-84.1647320353, 39.2315160014], "type": "Point"}, "id": "0yJ3b6WM8BFwFmebaqDoFBb0xTM=", "properties": {"@source_uri": "https://tools.usps.com/UspsToolsRestServices/rest/POLocator/findLocations", "@spider": "usps_collection_boxes", "addr:city": "GOSHEN", "addr:country": "US", "addr:postcode": "45122", "addr:state": "OH", "addr:street_address": "6725 DICK FLYNN BLVD", "amenity": "post_box", "collection_times": "Mo-Fr 11:30; Sa 10:00", "nsi_id": "unitedstatespostalservice-a77078", "operator": "United States Postal Service", "operator:short": "USPS", "operator:type": "public", "operator:wikidata": "Q668687", "ref": "4512200007"}, "type": "Feature"}
{"geometry": {"coordinates": [-84.152748, 39.239955], "type": "Point"}, "id": "COtZ8BguxyCqzJuGFu8pE13uqKg=", "properties": {"@source_uri": "https://tools.usps.com/UspsToolsRestServices/rest/POLocator/findLocations", "@spider": "usps_collection_boxes", "addr:city": "GOSHEN", "addr:country": "US", "addr:postcode": "45122", "addr:state": "OH", "addr:street_address": "1978 OLD STATE RT 28", "amenity": "post_box", "collection_times": "Mo-Fr 16:15; Sa 11:45", "note": "ON 12/24 AND 12/31, THIS BOX MAY BE COLLECTED AS EARLY AS 12 NOON.", "nsi_id": "unitedstatespostalservice-a77078", "operator": "United States Postal Service", "operator:short": "USPS", "operator:type": "public", "operator:wikidata": "Q668687", "ref": "4512200008"}, "type": "Feature"}
{"geometry": {"coordinates": [-84.15274647, 39.239953552], "type": "Point"}, "id": "n2ERUcDRgbcGWyE4h-CG0-deO4c=", "properties": {"@source_uri": "https://tools.usps.com/UspsToolsRestServices/rest/POLocator/findLocations", "@spider": "usps_collection_boxes", "addr:city": "GOSHEN", "addr:country": "US", "addr:postcode": "45122", "addr:state": "OH", "addr:street_address": "1978 MAIN ST", "amenity": "post_box", "collection_times": "Mo-Fr 16:30; Sa 12:00", "indoor": "yes", "note": "ON 12/24 AND 12/31, THIS BOX MAY BE COLLECTED AS EARLY AS 12 NOON.", "nsi_id": "unitedstatespostalservice-a77078", "operator": "United States Postal Service", "operator:short": "USPS", "operator:type": "public", "operator:wikidata": "Q668687", "ref": "4512200017"}, "type": "Feature"}
{"geometry": {"coordinates": [-83.3844884, 39.351179], "type": "Point"}, "id": "Y-E58IPFILUJaFGd2bvTQi13mbU=", "properties": {"@source_uri": "https://tools.usps.com/UspsToolsRestServices/rest/POLocator/findLocations", "@spider": "usps_collection_boxes", "addr:city": "GREENFIELD", "addr:country": "US", "addr:postcode": "45123", "addr:state": "OH", "addr:street_address": "344 JEFFERSON ST", "amenity": "post_box", "collection_times": "Mo-Sa 14:30", "note": "ON 12/24 AND 12/31, THIS BOX MAY BE COLLECTED AS EARLY AS 12 NOON.", "nsi_id": "unitedstatespostalservice-a77078", "operator": "United States Postal Service", "operator:short": "USPS", "operator:type": "public", "operator:wikidata": "Q668687", "ref": "4512300004"}, "type": "Feature"}
{"geometry": {"coordinates": [-83.3996926, 39.349512], "type": "Point"}, "id": "ucnzvXdqklBRTBPr-Jng2aerabE=", "properties": {"@source_uri": "https://tools.usps.com/UspsToolsRestServices/rest/POLocator/findLocations", "@spider": "usps_collection_boxes", "addr:city": "GREENFIELD", "addr:country": "US", "addr:postcode": "45123", "addr:state": "OH", "addr:street_address": "200 N 11TH ST", "amenity": "post_box", "collection_times": "Mo-Sa 14:00", "note": "ON 12/24 AND 12/31, THIS BOX MAY BE COLLECTED AS EARLY AS 12 NOON.", "nsi_id": "unitedstatespostalservice-a77078", "operator": "United States Postal Service", "operator:short": "USPS", "operator:type": "public", "operator:wikidata": "Q668687", "ref": "4512300007"}, "type": "Feature"}
{"geometry": {"coordinates": [-83.38211706, 39.35180002], "type": "Point"}, "id": "c-nFkhmoOdMED_eEIKebmzKvtbs=", "properties": {"@source_uri": "https://tools.usps.com/UspsToolsRestServices/rest/POLocator/findLocations", "@spider": "usps_collection_boxes", "addr:city": "GREENFIELD", "addr:country": "US", "addr:postcode": "45123", "addr:state": "OH", "addr:street_address": "233 JEFFERSON ST", "amenity": "post_box", "collection_times": "Mo-Fr 16:45; Sa 12:00", "note": "ON 12/24 AND 12/31, THIS BOX MAY BE COLLECTED AS EARLY AS 12 NOON.", "nsi_id": "unitedstatespostalservice-a77078", "operator": "United States Postal Service", "operator:short": "USPS", "operator:type": "public", "operator:wikidata": "Q668687", "ref": "4512300015"}, "type": "Feature"}
{"geometry": {"coordinates": [-83.38211706, 39.35180002], "type": "Point"}, "id": "C3US8qu41Hzwnd7XEu9h7Ne18dI=", "properties": {"@source_uri": "https://tools.usps.com/UspsToolsRestServices/rest/POLocator/findLocations", "@spider": "usps_collection_boxes", "addr:city": "GREENFIELD", "addr:country": "US", "addr:postcode": "45123", "addr:state": "OH", "addr:street_address": "233 JEFFERSON ST", "amenity": "post_box", "collection_times": "Mo-Fr 16:45; Sa 12:00", "indoor": "yes", "note": "ON 12/24 AND 12/31, THIS BOX MAY BE COLLECTED AS EARLY AS 12 NOON.", "nsi_id": "unitedstatespostalservice-a77078", "operator": "United States Postal Service", "operator:short": "USPS", "operator:type": "public", "operator:wikidata": "Q668687", "ref": "4512300019"}, "type": "Feature"}
{"geometry": {"coordinates": [-83.38211706, 39.35180002], "type": "Point"}, "id": "zNhIn_8oSZEq_26qyeLIU5cmB6E=", "properties": {"@source_uri": "https://tools.usps.com/UspsToolsRestServices/rest/POLocator/findLocations", "@spider": "usps_collection_boxes", "addr:city": "GREENFIELD", "addr:country": "US", "addr:postcode": "45123", "addr:state": "OH", "addr:street_address": "233 JEFFERSON ST", "amenity": "post_box", "collection_times": "Mo-Fr 16:45; Sa 12:00", "indoor": "yes", "note": "ON 12/24 AND 12/31, THIS BOX MAY BE COLLECTED AS EARLY AS 12 NOON.", "nsi_id": "unitedstatespostalservice-a77078", "operator": "United States Postal Service", "operator:short": "USPS", "operator:type": "public", "operator:wikidata": "Q668687", "ref": "4512300020"}, "type": "Feature"}
{"geometry": {"coordinates": [-83.38211706, 39.35180002], "type": "Point"}, "id": "dFgTeajhf9qIEYvVitLZvfkgkQE=", "properties": {"@source_uri": "https://tools.usps.com/UspsToolsRestServices/rest/POLocator/findLocations", "@spider": "usps_collection_boxes", "addr:city": "GREENFIELD", "addr:country": "US", "addr:postcode": "45123", "addr:state": "OH", "addr:street_address": "233 JEFFERSON ST", "amenity": "post_box", "collection_times": "Mo-Fr 16:45; Sa 12:00", "indoor": "yes", "note": "ON 12/24 AND 12/31, THIS BOX MAY BE COLLECTED AS EARLY AS 12 NOON.", "nsi_id": "unitedstatespostalservice-a77078", "operator": "United States Postal Service", "operator:short": "USPS", "operator:type": "public", "operator:wikidata": "Q668687", "ref": "4512300028"}, "type": "Feature"}
{"geometry": {"coordinates": [-83.9874609858, 38.9211290138], "type": "Point"}, "id": "AM7LKfEjbXFjYOocFJWyM1KanRU=", "properties": {"@source_uri": "https://tools.usps.com/UspsToolsRestServices/rest/POLocator/findLocations", "@spider": "usps_collection_boxes", "addr:city": "HAMERSVILLE", "addr:country": "US", "addr:postcode": "45130", "addr:state": "OH", "addr:street_address": "202 W MAIN ST", "amenity": "post_box", "collection_times": "Mo-Fr 16:30; Sa 12:00", "note": "ON 12/24 AND 12/31, THIS BOX MAY BE COLLECTED AS EARLY AS 12 NOON.", "nsi_id": "unitedstatespostalservice-a77078", "operator": "United States Postal Service", "operator:short": "USPS", "operator:type": "public", "operator:wikidata": "Q668687", "ref": "4513000001"}, "type": "Feature"}
{"geometry": {"coordinates": [-83.9874609858, 38.9211290138], "type": "Point"}, "id": "tjLh9ZrUu-B4DwQ3flhg1feLAcM=", "properties": {"@source_uri": "https://tools.usps.com/UspsToolsRestServices/rest/POLocator/findLocations", "@spider": "usps_collection_boxes", "addr:city": "HAMERSVILLE", "addr:country": "US", "addr:postcode": "45130", "addr:state": "OH", "addr:street_address": "202 W MAIN ST", "amenity": "post_box", "collection_times": "Mo-Fr 16:30; Sa 12:00", "indoor": "yes", "note": "ON 12/24 AND 12/31, THIS BOX MAY BE COLLECTED AS EARLY AS 12 NOON.", "nsi_id": "unitedstatespostalservice-a77078", "operator": "United States Postal Service", "operator:short": "USPS", "operator:type": "public", "operator:wikidata": "Q668687", "ref": "4513000002"}, "type": "Feature"}
{"geometry": {"coordinates": [-83.9874609858, 38.9211290138], "type": "Point"}, "id": "7gYLADrP9I_VP3mSXAyl0RiCA5g=", "properties": {"@source_uri": "https://tools.usps.com/UspsToolsRestServices/rest/POLocator/findLocations", "@spider": "usps_collection_boxes", "addr:city": "HAMERSVILLE", "addr:country": "US", "addr:postcode": "45130", "addr:state": "OH", "addr:street_address": "202 W MAIN ST", "amenity": "post_box", "collection_times": "Mo-Fr 16:30; Sa 12:00", "indoor": "yes", "note": "ON 12/24 AND 12/31, THIS BOX MAY BE COLLECTED AS EARLY AS 12 NOON.", "nsi_id": "unitedstatespostalservice-a77078", "operator": "United States Postal Service", "operator:short": "USPS", "operator:type": "public", "operator:wikidata": "Q668687", "ref": "4513000009"}, "type": "Feature"}
{"geometry": {"coordinates": [-83.9675259702, 38.7890730094], "type": "Point"}, "id": "5iGZhUzf39CiCRuDhOMlrj8oOZk=", "properties": {"@source_uri": "https://tools.usps.com/UspsToolsRestServices/rest/POLocator/findLocations", "@spider": "usps_collection_boxes", "addr:city": "HIGGINSPORT", "addr:country": "US", "addr:postcode": "45131", "addr:state": "OH", "addr:street_address": "400 WASHINGTON ST", "amenity": "post_box", "collection_times": "Mo-Fr 16:15; Sa 11:45", "note": "ON 12/24 AND 12/31, THIS BOX MAY BE COLLECTED AS EARLY AS 12 NOON.", "nsi_id": "unitedstatespostalservice-a77078", "operator": "United States Postal Service", "operator:short": "USPS", "operator:type": "public", "operator:wikidata": "Q668687", "ref": "4513100000"}, "type": "Feature"}
{"geometry": {"coordinates": [-83.9675259702, 38.7890730094], "type": "Point"}, "id": "sr_n6aWpE8ARsGQVXgJEF3PZikk=", "properties": {"@source_uri": "https://tools.usps.com/UspsToolsRestServices/rest/POLocator/findLocations", "@spider": "usps_collection_boxes", "addr:city": "HIGGINSPORT", "addr:country": "US", "addr:postcode": "45131", "addr:state": "OH", "addr:street_address": "400 WASHINGTON ST", "amenity": "post_box", "collection_times": "Mo-Fr 16:15; Sa 11:45", "indoor": "yes", "note": "ON 12/24 AND 12/31, THIS BOX MAY BE COLLECTED AS EARLY AS 12 NOON.", "nsi_id": "unitedstatespostalservice-a77078", "operator": "United States Postal Service", "operator:short": "USPS", "operator:type": "public", "operator:wikidata": "Q668687", "ref": "4513100001"}, "type": "Feature"}
{"geometry": {"coordinates": [-83.9675259702, 38.7890730094], "type": "Point"}, "id": "3uJoFaMsKmR-sch78hUo12za0_E=", "properties": {"@source_uri": "https://tools.usps.com/UspsToolsRestServices/rest/POLocator/findLocations", "@spider": "usps_collection_boxes", "addr:city": "HIGGINSPORT", "addr:country": "US", "addr:postcode": "45131", "addr:state": "OH", "addr:street_address": "400 WASHINGTON ST", "amenity": "post_box", "collection_times": "Mo-Fr 16:15; Sa 11:45", "indoor": "yes", "note": "ON 12/24 AND 12/31, THIS BOX MAY BE COLLECTED AS EARLY AS 12 NOON.", "nsi_id": "unitedstatespostalservice-a77078", "operator": "United States Postal Service", "operator:short": "USPS", "operator:type": "public", "operator:wikidata": "Q668687", "ref": "4513100002"}, "type": "Feature"}
{"geometry": {"coordinates": [-83.9675259702, 38.7890730094], "type": "Point"}, "id": "bu7ZfypqEG_kheeqnS93i83Nq90=", "properties": {"@source_uri": "https://tools.usps.com/UspsToolsRestServices/rest/POLocator/findLocations", "@spider": "usps_collection_boxes", "addr:city": "HIGGINSPORT", "addr:country": "US", "addr:postcode": "45131", "addr:state": "OH", "addr:street_address": "400 WASHINGTON ST", "amenity": "post_box", "collection_times": "Mo-Fr 16:15; Sa 12:00", "indoor": "yes", "note": "ON 12/24 AND 12/31, THIS BOX MAY BE COLLECTED AS EARLY AS 12 NOON.", "nsi_id": "unitedstatespostalservice-a77078", "operator": "United States Postal Service", "operator:short": "USPS", "operator:type": "public", "operator:wikidata": "Q668687", "ref": "4513100005"}, "type": "Feature"}
{"geometry": {"coordinates": [-83.599126565, 39.344241678], "type": "Point"}, "id": "72RrIiAxEWHtT5n-2Oci6x9hRwA=", "properties": {"@source_uri": "https://tools.usps.com/UspsToolsRestServices/rest/POLocator/findLocations", "@spider": "usps_collection_boxes", "addr:city": "HIGHLAND", "addr:country": "US", "addr:postcode": "45132", "addr:state": "OH", "addr:street_address": "7914 W MAIN ST", "amenity": "post_box", "collection_times": "Mo-Fr 16:15; Sa 11:15", "note": "ON 12/24 AND 12/31, THIS BOX MAY BE COLLECTED AS EARLY AS 12 NOON.", "nsi_id": "unitedstatespostalservice-a77078", "operator": "United States Postal Service", "operator:short": "USPS", "operator:type": "public", "operator:wikidata": "Q668687", "ref": "4513200001"}, "type": "Feature"}
{"geometry": {"coordinates": [-83.599126565, 39.344241678], "type": "Point"}, "id": "GlxUuWhI0YGwcR9U6PAxdg4NzUM=", "properties": {"@source_uri": "https://tools.usps.com/UspsToolsRestServices/rest/POLocator/findLocations", "@spider": "usps_collection_boxes", "addr:city": "HIGHLAND", "addr:country": "US", "addr:postcode": "45132", "addr:state": "OH", "addr:street_address": "7914 W MAIN ST", "amenity": "post_box", "collection_times": "Mo-Fr 16:15; Sa 11:15", "indoor": "yes", "note": "ON 12/24 AND 12/31, THIS BOX MAY BE COLLECTED AS EARLY AS 12 NOON.", "nsi_id": "unitedstatespostalservice-a77078", "operator": "United States Postal Service", "operator:short": "USPS", "operator:type": "public", "operator:wikidata": "Q668687", "ref": "4513200002"}, "type": "Feature"}
{"geometry": {"coordinates": [-83.599126565, 39.344241678], "type": "Point"}, "id": "ApouNiUkoexfQzZSxWObJoNA74Q=", "properties": {"@source_uri": "https://tools.usps.com/UspsToolsRestServices/rest/POLocator/findLocations", "@spider": "usps_collection_boxes", "addr:city": "HIGHLAND", "addr:country": "US", "addr:postcode": "45132", "addr:state": "OH", "addr:street_address": "7914 W MAIN ST", "amenity": "post_box", "collection_times": "Mo-Fr 16:15; Sa 12:15", "indoor": "yes", "note": "ON 12/24 AND 12/31, THIS BOX MAY BE COLLECTED AS EARLY AS 12 NOON.", "nsi_id": "unitedstatespostalservice-a77078", "operator": "United States Postal Service", "operator:short": "USPS", "operator:type": "public", "operator:wikidata": "Q668687", "ref": "4513200005"}, "type": "Feature"}
{"geometry": {"coordinates": [-83.6121422, 39.211679], "type": "Point"}, "id": "8Jnd2iWI-vIjGQL81hhwgn8neng=", "properties": {"@source_uri": "https://tools.usps.com/UspsToolsRestServices/rest/POLocator/findLocations", "@spider": "usps_collection_boxes", "addr:city": "HILLSBORO", "addr:country": "US", "addr:postcode": "45133", "addr:state": "OH", "addr:street_address": "737 N WEST ST", "amenity": "post_box", "collection_times": "Mo-Sa 09:00", "nsi_id": "unitedstatespostalservice-a77078", "operator": "United States Postal Service", "operator:short": "USPS", "operator:type": "public", "operator:wikidata": "Q668687", "ref": "4513300003"}, "type": "Feature"}
{"geometry": {"coordinates": [-83.6080034, 39.205833], "type": "Point"}, "id": "LF3ylGiRqbCMYMP-5Z586LhC_i0=", "properties": {"@source_uri": "https://tools.usps.com/UspsToolsRestServices/rest/POLocator/findLocations", "@spider": "usps_collection_boxes", "addr:city": "HILLSBORO", "addr:country": "US", "addr:postcode": "45133", "addr:state": "OH", "addr:street_address": "399 WILLOW ST", "amenity": "post_box", "collection_times": "Mo-Sa 09:00", "nsi_id": "unitedstatespostalservice-a77078", "operator": "United States Postal Service", "operator:short": "USPS", "operator:type": "public", "operator:wikidata": "Q668687", "ref": "4513300005"}, "type": "Feature"}
{"geometry": {"coordinates": [-83.6086803, 39.203105], "type": "Point"}, "id": "e_O2nDMdg9s8QY-ro8XbYjzXT6Q=", "properties": {"@source_uri": "https://tools.usps.com/UspsToolsRestServices/rest/POLocator/findLocations", "@spider": "usps_collection_boxes", "addr:city": "HILLSBORO", "addr:country": "US", "addr:postcode": "45133", "addr:state": "OH", "addr:street_address": "134 N EAST ST", "amenity": "post_box", "collection_times": "Mo-Sa 09:00", "nsi_id": "unitedstatespostalservice-a77078", "operator": "United States Postal Service", "operator:short": "USPS", "operator:type": "public", "operator:wikidata": "Q668687", "ref": "4513300006"}, "type": "Feature"}
{"geometry": {"coordinates": [-83.6129313, 39.196067], "type": "Point"}, "id": "X9uv8Y9wPZ7fnSxmn_FP4U5sZBc=", "properties": {"@source_uri": "https://tools.usps.com/UspsToolsRestServices/rest/POLocator/findLocations", "@spider": "usps_collection_boxes", "addr:city": "HILLSBORO", "addr:country": "US", "addr:postcode": "45133", "addr:state": "OH", "addr:street_address": "620 S HIGH ST", "amenity": "post_box", "collection_times": "Mo-Sa 09:00", "nsi_id": "unitedstatespostalservice-a77078", "operator": "United States Postal Service", "operator:short": "USPS", "operator:type": "public", "operator:wikidata": "Q668687", "ref": "4513300008"}, "type": "Feature"}
{"geometry": {"coordinates": [-83.6182615, 39.196888], "type": "Point"}, "id": "Ra8gwhIDXTkoR_ujRmjXLz3GbS4=", "properties": {"@source_uri": "https://tools.usps.com/UspsToolsRestServices/rest/POLocator/findLocations", "@spider": "usps_collection_boxes", "addr:city": "HILLSBORO", "addr:country": "US", "addr:postcode": "45133", "addr:state": "OH", "addr:street_address": "470 S ELM ST", "amenity": "post_box", "collection_times": "Mo-Sa 09:00", "nsi_id": "unitedstatespostalservice-a77078", "operator": "United States Postal Service", "operator:short": "USPS", "operator:type": "public", "operator:wikidata": "Q668687", "ref": "4513300010"}, "type": "Feature"}
{"geometry": {"coordinates": [-83.6276289, 39.20055], "type": "Point"}, "id": "3OuUggCEaW6z_SqChGYfyJQuNsM=", "properties": {"@source_uri": "https://tools.usps.com/UspsToolsRestServices/rest/POLocator/findLocations", "@spider": "usps_collection_boxes", "addr:city": "HILLSBORO", "addr:country": "US", "addr:postcode": "45133", "addr:state": "OH", "addr:street_address": "233 S GLENN ST", "amenity": "post_box", "collection_times": "Mo-Sa 09:00", "nsi_id": "unitedstatespostalservice-a77078", "operator": "United States Postal Service", "operator:short": "USPS", "operator:type": "public", "operator:wikidata": "Q668687", "ref": "4513300012"}, "type": "Feature"}
{"geometry": {"coordinates": [-83.6144347, 39.201176], "type": "Point"}, "id": "jljqLsukEAwxnSSc0y8NjQBXe30=", "properties": {"@source_uri": "https://tools.usps.com/UspsToolsRestServices/rest/POLocator/findLocations", "@spider": "usps_collection_boxes", "addr:city": "HILLSBORO", "addr:country": "US", "addr:postcode": "45133", "addr:state": "OH", "addr:street_address": "199 W WALNUT ST", "amenity": "post_box", "collection_times": "Mo-Sa 09:00", "nsi_id": "unitedstatespostalservice-a77078", "operator": "United States Postal Service", "operator:short": "USPS", "operator:type": "public", "operator:wikidata": "Q668687", "ref": "4513300014"}, "type": "Feature"}
{"geometry": {"coordinates": [-83.6207573, 39.224739], "type": "Point"}, "id": "t1HRZWnBqj11BfUtxm72mRBbado=", "properties": {"@source_uri": "https://tools.usps.com/UspsToolsRestServices/rest/POLocator/findLocations", "@spider": "usps_collection_boxes", "addr:city": "HILLSBORO", "addr:country": "US", "addr:postcode": "45133", "addr:state": "OH", "addr:street_address": "575 HARRY SAUNER RD", "amenity": "post_box", "collection_times": "Mo-Sa 11:00", "nsi_id": "unitedstatespostalservice-a77078", "operator": "United States Postal Service", "operator:short": "USPS", "operator:type": "public", "operator:wikidata": "Q668687", "ref": "4513300015"}, "type": "Feature"}
{"geometry": {"coordinates": [-83.6113773, 39.202081], "type": "Point"}, "id": "Dpk861XUa2IS14LYUuLMCGVR-zA=", "properties": {"@source_uri": "https://tools.usps.com/UspsToolsRestServices/rest/POLocator/findLocations", "@spider": "usps_collection_boxes", "addr:city": "HILLSBORO", "addr:country": "US", "addr:postcode": "45133", "addr:state": "OH", "addr:street_address": "101 E MAIN ST", "amenity": "post_box", "collection_times": "Mo-Sa 13:30", "note": "ON 12/24 AND 12/31, THIS BOX MAY BE COLLECTED AS EARLY AS 12 NOON.", "nsi_id": "unitedstatespostalservice-a77078", "operator": "United States Postal Service", "operator:short": "USPS", "operator:type": "public", "operator:wikidata": "Q668687", "ref": "4513300016"}, "type": "Feature"}
{"geometry": {"coordinates": [-83.6112947, 39.202225], "type": "Point"}, "id": "zC1xqqmxjPUVda-h3rr-guzoqls=", "properties": {"@source_uri": "https://tools.usps.com/UspsToolsRestServices/rest/POLocator/findLocations", "@spider": "usps_collection_boxes", "addr:city": "HILLSBORO", "addr:country": "US", "addr:postcode": "45133", "addr:state": "OH", "addr:street_address": "100 E MAIN ST", "amenity": "post_box", "collection_times": "Mo-Sa 13:30", "note": "ON 12/24 AND 12/31, THIS BOX MAY BE COLLECTED AS EARLY AS 12 NOON.", "nsi_id": "unitedstatespostalservice-a77078", "operator": "United States Postal Service", "operator:short": "USPS", "operator:type": "public", "operator:wikidata": "Q668687", "ref": "4513300019"}, "type": "Feature"}
{"geometry": {"coordinates": [-83.6117109, 39.202097], "type": "Point"}, "id": "3MVBZIy8CBSxL6BNFH2jFufHPc4=", "properties": {"@source_uri": "https://tools.usps.com/UspsToolsRestServices/rest/POLocator/findLocations", "@spider": "usps_collection_boxes", "addr:city": "HILLSBORO", "addr:country": "US", "addr:postcode": "45133", "addr:state": "OH", "addr:street_address": "101 S HIGH ST", "amenity": "post_box", "collection_times": "Mo-Sa 13:30", "note": "ON 12/24 AND 12/31, THIS BOX MAY BE COLLECTED AS EARLY AS 12 NOON.", "nsi_id": "unitedstatespostalservice-a77078", "operator": "United States Postal Service", "operator:short": "USPS", "operator:type": "public", "operator:wikidata": "Q668687", "ref": "4513300020"}, "type": "Feature"}
{"geometry": {"coordinates": [-83.6195376, 39.199238], "type": "Point"}, "id": "xoOh4Ddiq9izR_SGikdMCELFk0E=", "properties": {"@source_uri": "https://tools.usps.com/UspsToolsRestServices/rest/POLocator/findLocations", "@spider": "usps_collection_boxes", "addr:city": "HILLSBORO", "addr:country": "US", "addr:postcode": "45133", "addr:state": "OH", "addr:street_address": "405 W PLEASANT ST", "amenity": "post_box", "collection_times": "Mo-Sa 09:00", "nsi_id": "unitedstatespostalservice-a77078", "operator": "United States Postal Service", "operator:short": "USPS", "operator:type": "public", "operator:wikidata": "Q668687", "ref": "4513300022"}, "type": "Feature"}
{"geometry": {"coordinates": [-83.611308, 39.205288], "type": "Point"}, "id": "_w3WFJSf8xh-Z8z2kA2Ku0fyZAA=", "properties": {"@source_uri": "https://tools.usps.com/UspsToolsRestServices/rest/POLocator/findLocations", "@spider": "usps_collection_boxes", "addr:city": "HILLSBORO", "addr:country": "US", "addr:postcode": "45133", "addr:state": "OH", "addr:street_address": "301 N HIGH ST", "amenity": "post_box", "collection_times": "Mo-Sa 17:00", "note": "ON 12/24 AND 12/31, THIS BOX MAY BE COLLECTED AS EARLY AS 12 NOON.", "nsi_id": "unitedstatespostalservice-a77078", "operator": "United States Postal Service", "operator:short": "USPS", "operator:type": "public", "operator:wikidata": "Q668687", "ref": "4513300023"}, "type": "Feature"}
{"geometry": {"coordinates": [-83.6113266, 39.205276], "type": "Point"}, "id": "3lqeXIlkb5nCFqfZRVFaiQe_XiM=", "properties": {"@source_uri": "https://tools.usps.com/UspsToolsRestServices/rest/POLocator/findLocations", "@spider": "usps_collection_boxes", "addr:city": "HILLSBORO", "addr:country": "US", "addr:postcode": "45133", "addr:state": "OH", "addr:street_address": "301 N HIGH ST", "amenity": "post_box", "collection_times": "Mo-Sa 17:00", "indoor": "yes", "note": "ON 12/24 AND 12/31, THIS BOX MAY BE COLLECTED AS EARLY AS 12 NOON.", "nsi_id": "unitedstatespostalservice-a77078", "operator": "United States Postal Service", "operator:short": "USPS", "operator:type": "public", "operator:wikidata": "Q668687", "ref": "4513300025"}, "type": "Feature"}
{"geometry": {"coordinates": [-83.6280595, 39.204188], "type": "Point"}, "id": "-tbXm4b-m_IBO9rB1qcFEIu5PQE=", "properties": {"@source_uri": "https://tools.usps.com/UspsToolsRestServices/rest/POLocator/findLocations", "@spider": "usps_collection_boxes", "addr:city": "HILLSBORO", "addr:country": "US", "addr:postcode": "45133", "addr:state": "OH", "addr:street_address": "888 W MAIN ST", "amenity": "post_box", "collection_times": "Mo-Sa 09:00", "nsi_id": "unitedstatespostalservice-a77078", "operator": "United States Postal Service", "operator:short": "USPS", "operator:type": "public", "operator:wikidata": "Q668687", "ref": "4513300027"}, "type": "Feature"}
{"geometry": {"coordinates": [-83.4839363, 39.199148], "type": "Point"}, "id": "Ie9brO4X3ngWpc9B4iWr2jIGlKk=", "properties": {"@source_uri": "https://tools.usps.com/UspsToolsRestServices/rest/POLocator/findLocations", "@spider": "usps_collection_boxes", "addr:city": "HILLSBORO", "addr:country": "US", "addr:postcode": "45133", "addr:state": "OH", "addr:street_address": "11115 N SHORE DR", "amenity": "post_box", "collection_times": "Mo-Sa 10:00", "nsi_id": "unitedstatespostalservice-a77078", "operator": "United States Postal Service", "operator:short": "USPS", "operator:type": "public", "operator:wikidata": "Q668687", "ref": "4513300028"}, "type": "Feature"}
{"geometry": {"coordinates": [-83.4351424, 39.202636], "type": "Point"}, "id": "XajTYKRH-ylU46S-3u65JGqr-5M=", "properties": {"@source_uri": "https://tools.usps.com/UspsToolsRestServices/rest/POLocator/findLocations", "@spider": "usps_collection_boxes", "addr:city": "HILLSBORO", "addr:country": "US", "addr:postcode": "45133", "addr:state": "OH", "addr:street_address": "6941 STATE ROUTE 753", "amenity": "post_box", "collection_times": "Mo-Sa 12:00", "nsi_id": "unitedstatespostalservice-a77078", "operator": "United States Postal Service", "operator:short": "USPS", "operator:type": "public", "operator:wikidata": "Q668687", "ref": "4513300029"}, "type": "Feature"}
{"geometry": {"coordinates": [-83.610873442, 39.205189204], "type": "Point"}, "id": "CWTexhIULui3G667E5VaE_goa90=", "properties": {"@source_uri": "https://tools.usps.com/UspsToolsRestServices/rest/POLocator/findLocations", "@spider": "usps_collection_boxes", "addr:city": "HILLSBORO", "addr:country": "US", "addr:postcode": "45133", "addr:state": "OH", "addr:street_address": "301 N HIGH ST SIDE", "amenity": "post_box", "collection_times": "Mo-Fr 17:00; Sa 12:00", "indoor": "yes", "note": "ON 12/24 AND 12/31, THIS BOX MAY BE COLLECTED AS EARLY AS 12 NOON.", "nsi_id": "unitedstatespostalservice-a77078", "operator": "United States Postal Service", "operator:short": "USPS", "operator:type": "public", "operator:wikidata": "Q668687", "ref": "4513300033"}, "type": "Feature"}
{"geometry": {"coordinates": [-83.554316704, 39.345839485], "type": "Point"}, "id": "Xi9wUJ3AOQqnrY-G4DqZzQEKaqI=", "properties": {"@source_uri": "https://tools.usps.com/UspsToolsRestServices/rest/POLocator/findLocations", "@spider": "usps_collection_boxes", "addr:city": "LEESBURG", "addr:country": "US", "addr:postcode": "45135", "addr:state": "OH", "addr:street_address": "44 E MAIN ST", "amenity": "post_box", "collection_times": "Mo-Fr 16:00; Sa 12:00", "note": "ON 12/24 AND 12/31, THIS BOX MAY BE COLLECTED AS EARLY AS 12 NOON.", "nsi_id": "unitedstatespostalservice-a77078", "operator": "United States Postal Service", "operator:short": "USPS", "operator:type": "public", "operator:wikidata": "Q668687", "ref": "4513500000"}, "type": "Feature"}
{"geometry": {"coordinates": [-83.554316704, 39.345839485], "type": "Point"}, "id": "EHh5zgN1Hm9GqJfegAUcB5TXMsU=", "properties": {"@source_uri": "https://tools.usps.com/UspsToolsRestServices/rest/POLocator/findLocations", "@spider": "usps_collection_boxes", "addr:city": "LEESBURG", "addr:country": "US", "addr:postcode": "45135", "addr:state": "OH", "addr:street_address": "44 E MAIN ST", "amenity": "post_box", "collection_times": "Mo-Fr 16:00; Sa 12:00", "indoor": "yes", "note": "ON 12/24 AND 12/31, THIS BOX MAY BE COLLECTED AS EARLY AS 12 NOON.", "nsi_id": "unitedstatespostalservice-a77078", "operator": "United States Postal Service", "operator:short": "USPS", "operator:type": "public", "operator:wikidata": "Q668687", "ref": "4513500002"}, "type": "Feature"}
{"geometry": {"coordinates": [-83.554316704, 39.345839485], "type": "Point"}, "id": "nU6GPvNTHRMYCy7p01ffAHsW2oY=", "properties": {"@source_uri": "https://tools.usps.com/UspsToolsRestServices/rest/POLocator/findLocations", "@spider": "usps_collection_boxes", "addr:city": "LEESBURG", "addr:country": "US", "addr:postcode": "45135", "addr:state": "OH", "addr:street_address": "44 E MAIN ST", "amenity": "post_box", "collection_times": "Mo-Fr 16:00; Sa 12:00", "indoor": "yes", "note": "ON 12/24 AND 12/31, THIS BOX MAY BE COLLECTED AS EARLY AS 12 NOON.", "nsi_id": "unitedstatespostalservice-a77078", "operator": "United States Postal Service", "operator:short": "USPS", "operator:type": "public", "operator:wikidata": "Q668687", "ref": "4513500008"}, "type": "Feature"}
{"geometry": {"coordinates": [-84.26600588, 39.267263273], "type": "Point"}, "id": "j1eRjViMlEsRn_em0dtoKJ4ox3c=", "properties": {"@source_uri": "https://tools.usps.com/UspsToolsRestServices/rest/POLocator/findLocations", "@spider": "usps_collection_boxes", "addr:city": "LOVELAND", "addr:country": "US", "addr:postcode": "45140", "addr:state": "OH", "addr:street_address": "200 LOVELAND MADEIRA RD", "amenity": "post_box", "collection_times": "Mo-Fr 17:15; Sa 16:15", "indoor": "yes", "note": "ON 12/24 AND 12/31, THIS BOX MAY BE COLLECTED AS EARLY AS 12 NOON.", "nsi_id": "unitedstatespostalservice-a77078", "operator": "United States Postal Service", "operator:short": "USPS", "operator:type": "public", "operator:wikidata": "Q668687", "ref": "4514000000"}, "type": "Feature"}
{"geometry": {"coordinates": [-84.26600588, 39.267263273], "type": "Point"}, "id": "yt574c0qvyh_Ntdkf2D8vH8FU9c=", "properties": {"@source_uri": "https://tools.usps.com/UspsToolsRestServices/rest/POLocator/findLocations", "@spider": "usps_collection_boxes", "addr:city": "LOVELAND", "addr:country": "US", "addr:postcode": "45140", "addr:state": "OH", "addr:street_address": "200 LOVELAND MADEIRA RD", "amenity": "post_box", "collection_times": "Mo-Fr 17:15; Sa 16:15", "note": "ON 12/24 AND 12/31, THIS BOX MAY BE COLLECTED AS EARLY AS 12 NOON.", "nsi_id": "unitedstatespostalservice-a77078", "operator": "United States Postal Service", "operator:short": "USPS", "operator:type": "public", "operator:wikidata": "Q668687", "ref": "4514000002"}, "type": "Feature"}
{"geometry": {"coordinates": [-84.2921054, 39.29797], "type": "Point"}, "id": "HWnevkT8IqqboJc1BXMhyOzw2ng=", "properties": {"@source_uri": "https://tools.usps.com/UspsToolsRestServices/rest/POLocator/findLocations", "@spider": "usps_collection_boxes", "addr:city": "LOVELAND", "addr:country": "US", "addr:postcode": "45140", "addr:state": "OH", "addr:street_address": "901 HERITAGE GRN", "amenity": "post_box", "collection_times": "Mo-Sa 12:00", "nsi_id": "unitedstatespostalservice-a77078", "operator": "United States Postal Service", "operator:short": "USPS", "operator:type": "public", "operator:wikidata": "Q668687", "ref": "4514000006"}, "type": "Feature"}
{"geometry": {"coordinates": [-84.2912526, 39.245471], "type": "Point"}, "id": "HyU97DIwQ-JMBHyc0rwIVPcCXgc=", "properties": {"@source_uri": "https://tools.usps.com/UspsToolsRestServices/rest/POLocator/findLocations", "@spider": "usps_collection_boxes", "addr:city": "LOVELAND", "addr:country": "US", "addr:postcode": "45140", "addr:state": "OH", "addr:street_address": "100 ARROWHEAD TRL", "amenity": "post_box", "collection_times": "Mo-Sa 11:00", "nsi_id": "unitedstatespostalservice-a77078", "operator": "United States Postal Service", "operator:short": "USPS", "operator:type": "public", "operator:wikidata": "Q668687", "ref": "4514000009"}, "type": "Feature"}
{"geometry": {"coordinates": [-84.1994611, 39.20327], "type": "Point"}, "id": "4ziTUFCdRShsyGI2QuCniaTiX9I=", "properties": {"@source_uri": "https://tools.usps.com/UspsToolsRestServices/rest/POLocator/findLocations", "@spider": "usps_collection_boxes", "addr:city": "LOVELAND", "addr:country": "US", "addr:postcode": "45140", "addr:state": "OH", "addr:street_address": "101 GARDEN DR", "amenity": "post_box", "collection_times": "Mo-Sa 11:00", "nsi_id": "unitedstatespostalservice-a77078", "operator": "United States Postal Service", "operator:short": "USPS", "operator:type": "public", "operator:wikidata": "Q668687", "ref": "4514000010"}, "type": "Feature"}
{"geometry": {"coordinates": [-84.3045136, 39.273956], "type": "Point"}, "id": "J7EdZOuhrYxkhgImhSAjZ59w630=", "properties": {"@source_uri": "https://tools.usps.com/UspsToolsRestServices/rest/POLocator/findLocations", "@spider": "usps_collection_boxes", "addr:city": "LOVELAND", "addr:country": "US", "addr:postcode": "45140", "addr:state": "OH", "addr:street_address": "4000 WHITE CHAPEL LN", "amenity": "post_box", "collection_times": "Mo-Sa 10:00", "nsi_id": "unitedstatespostalservice-a77078", "operator": "United States Postal Service", "operator:short": "USPS", "operator:type": "public", "operator:wikidata": "Q668687", "ref": "4514000011"}, "type": "Feature"}
{"geometry": {"coordinates": [-84.2008727, 39.226962], "type": "Point"}, "id": "rZvnk984vhsgmYnnNZdn-Aymm2E=", "properties": {"@source_uri": "https://tools.usps.com/UspsToolsRestServices/rest/POLocator/findLocations", "@spider": "usps_collection_boxes", "addr:city": "LOVELAND", "addr:country": "US", "addr:postcode": "45140", "addr:state": "OH", "addr:street_address": "160 CLUB DR", "amenity": "post_box", "collection_times": "Mo-Sa 11:00", "nsi_id": "unitedstatespostalservice-a77078", "operator": "United States Postal Service", "operator:short": "USPS", "operator:type": "public", "operator:wikidata": "Q668687", "ref": "4514000012"}, "type": "Feature"}
{"geometry": {"coordinates": [-84.2938535, 39.246347], "type": "Point"}, "id": "ve-ZgkVoZLAwR3VPwXSIc6q4YB0=", "properties": {"@source_uri": "https://tools.usps.com/UspsToolsRestServices/rest/POLocator/findLocations", "@spider": "usps_collection_boxes", "addr:city": "LOVELAND", "addr:country": "US", "addr:postcode": "45140", "addr:state": "OH", "addr:street_address": "368 BRIDGE ST", "amenity": "post_box", "collection_times": "Mo-Fr 10:00; Sa 13:00", "note": "ON 12/24 AND 12/31, THIS BOX MAY BE COLLECTED AS EARLY AS 12 NOON.", "nsi_id": "unitedstatespostalservice-a77078", "operator": "United States Postal Service", "operator:short": "USPS", "operator:type": "public", "operator:wikidata": "Q668687", "ref": "4514000013"}, "type": "Feature"}
{"geometry": {"coordinates": [-84.2957321, 39.254717], "type": "Point"}, "id": "DW0JIZRn8OcEu44gQvs0KyPqItg=", "properties": {"@source_uri": "https://tools.usps.com/UspsToolsRestServices/rest/POLocator/findLocations", "@spider": "usps_collection_boxes", "addr:city": "LOVELAND", "addr:country": "US", "addr:postcode": "45140", "addr:state": "OH", "addr:street_address": "10675 LOVELAND MADEIRA RD", "amenity": "post_box", "collection_times": "Mo-Fr 11:00; Sa 10:30", "nsi_id": "unitedstatespostalservice-a77078", "operator": "United States Postal Service", "operator:short": "USPS", "operator:type": "public", "operator:wikidata": "Q668687", "ref": "4514000014"}, "type": "Feature"}
{"geometry": {"coordinates": [-84.2872116, 39.222037], "type": "Point"}, "id": "oC5yw2cyinphYVf1bP-lEmEp6Uw=", "properties": {"@source_uri": "https://tools.usps.com/UspsToolsRestServices/rest/POLocator/findLocations", "@spider": "usps_collection_boxes", "addr:city": "LOVELAND", "addr:country": "US", "addr:postcode": "45140", "addr:state": "OH", "addr:street_address": "420 WARDS CORNER RD", "amenity": "post_box", "collection_times": "Mo-Sa 10:00", "nsi_id": "unitedstatespostalservice-a77078", "operator": "United States Postal Service", "operator:short": "USPS", "operator:type": "public", "operator:wikidata": "Q668687", "ref": "4514000016"}, "type": "Feature"}
{"geometry": {"coordinates": [-84.3009515663, 39.2869049497], "type": "Point"}, "id": "SJ-_gcHwqMAbOHK-DnPnDnaJ2Kw=", "properties": {"@source_uri": "https://tools.usps.com/UspsToolsRestServices/rest/POLocator/findLocations", "@spider": "usps_collection_boxes", "addr:city": "LOVELAND", "addr:country": "US", "addr:postcode": "45140", "addr:state": "OH", "addr:street_address": "200 CARRINGTON LN", "amenity": "post_box", "collection_times": "Mo-Sa 10:00", "nsi_id": "unitedstatespostalservice-a77078", "operator": "United States Postal Service", "operator:short": "USPS", "operator:type": "public", "operator:wikidata": "Q668687", "ref": "4514000018"}, "type": "Feature"}
{"geometry": {"coordinates": [-84.2991134, 39.284118], "type": "Point"}, "id": "lHxjj5qkG8tAaIL8GhLqr1wJ_O8=", "properties": {"@source_uri": "https://tools.usps.com/UspsToolsRestServices/rest/POLocator/findLocations", "@spider": "usps_collection_boxes", "addr:city": "LOVELAND", "addr:country": "US", "addr:postcode": "45140", "addr:state": "OH", "addr:street_address": "101 NORTHEAST DR", "amenity": "post_box", "collection_times": "Mo-Sa 10:00", "nsi_id": "unitedstatespostalservice-a77078", "operator": "United States Postal Service", "operator:short": "USPS", "operator:type": "public", "operator:wikidata": "Q668687", "ref": "4514000019"}, "type": "Feature"}
{"geometry": {"coordinates": [-84.1971506, 39.216778], "type": "Point"}, "id": "HkO7TEa2hZTQ_-lEvG2zY0spKA0=", "properties": {"@source_uri": "https://tools.usps.com/UspsToolsRestServices/rest/POLocator/findLocations", "@spider": "usps_collection_boxes", "addr:city": "LOVELAND", "addr:country": "US", "addr:postcode": "45140", "addr:state": "OH", "addr:street_address": "1517 STATE ROUTE 28", "amenity": "post_box", "collection_times": "Mo-Sa 12:00", "nsi_id": "unitedstatespostalservice-a77078", "operator": "United States Postal Service", "operator:short": "USPS", "operator:type": "public", "operator:wikidata": "Q668687", "ref": "4514000033"}, "type": "Feature"}
{"geometry": {"coordinates": [-84.2884485, 39.29188], "type": "Point"}, "id": "GHEq-cGOfbpeQq_GZo2MNcAT2mQ=", "properties": {"@source_uri": "https://tools.usps.com/UspsToolsRestServices/rest/POLocator/findLocations", "@spider": "usps_collection_boxes", "addr:city": "LOVELAND", "addr:country": "US", "addr:postcode": "45140", "addr:state": "OH", "addr:street_address": "9980 HANOVER WAY", "amenity": "post_box", "collection_times": "Mo-Sa 11:15", "nsi_id": "unitedstatespostalservice-a77078", "operator": "United States Postal Service", "operator:short": "USPS", "operator:type": "public", "operator:wikidata": "Q668687", "ref": "4514000037"}, "type": "Feature"}
{"geometry": {"coordinates": [-84.2841849, 39.22314], "type": "Point"}, "id": "KRymYwBg57-TWYL1we7ixMbbcj0=", "properties": {"@source_uri": "https://tools.usps.com/UspsToolsRestServices/rest/POLocator/findLocations", "@spider": "usps_collection_boxes", "addr:city": "LOVELAND", "addr:country": "US", "addr:postcode": "45140", "addr:state": "OH", "addr:street_address": "6281 TRI RIDGE BLVD", "amenity": "post_box", "collection_times": "Mo-Sa 10:00", "nsi_id": "unitedstatespostalservice-a77078", "operator": "United States Postal Service", "operator:short": "USPS", "operator:type": "public", "operator:wikidata": "Q668687", "ref": "4514000038"}, "type": "Feature"}
{"geometry": {"coordinates": [-84.2832184, 39.223162], "type": "Point"}, "id": "RkPdFMjMA2ki_t8kwaVPC70kA_g=", "properties": {"@source_uri": "https://tools.usps.com/UspsToolsRestServices/rest/POLocator/findLocations", "@spider": "usps_collection_boxes", "addr:city": "LOVELAND", "addr:country": "US", "addr:postcode": "45140", "addr:state": "OH", "addr:street_address": "6279 TRI RIDGE BLVD", "amenity": "post_box", "collection_times": "Mo-Sa 10:00", "nsi_id": "unitedstatespostalservice-a77078", "operator": "United States Postal Service", "operator:short": "USPS", "operator:type": "public", "operator:wikidata": "Q668687", "ref": "4514000039"}, "type": "Feature"}
{"geometry": {"coordinates": [-84.26600588, 39.267263273], "type": "Point"}, "id": "wKNyrOfnc6d_Mw379RXSq-C4R8Y=", "properties": {"@source_uri": "https://tools.usps.com/UspsToolsRestServices/rest/POLocator/findLocations", "@spider": "usps_collection_boxes", "addr:city": "LOVELAND", "addr:country": "US", "addr:postcode": "45140", "addr:state": "OH", "addr:street_address": "200 LOVELAND MADEIRA RD", "amenity": "post_box", "collection_times": "Mo-Fr 17:15; Sa 16:15", "name": "USPS COLLECTION BOX - APC", "note": "ON 12/24 AND 12/31, THIS BOX MAY BE COLLECTED AS EARLY AS 12 NOON.", "nsi_id": "unitedstatespostalservice-a77078", "operator": "United States Postal Service", "operator:short": "USPS", "operator:type": "public", "operator:wikidata": "Q668687", "ref": "4514000041"}, "type": "Feature"}
{"geometry": {"coordinates": [-84.26600588, 39.267263273], "type": "Point"}, "id": "lZUImvPmYmWGfSgFPxjgPux8qE4=", "properties": {"@source_uri": "https://tools.usps.com/UspsToolsRestServices/rest/POLocator/findLocations", "@spider": "usps_collection_boxes", "addr:city": "LOVELAND", "addr:country": "US", "addr:postcode": "45140", "addr:state": "OH", "addr:street_address": "200 LOVELAND MADEIRA RD", "amenity": "post_box", "collection_times": "Mo-Fr 17:30; Sa 14:00", "indoor": "yes", "note": "ON 12/24 AND 12/31, THIS BOX MAY BE COLLECTED AS EARLY AS 12 NOON.", "nsi_id": "unitedstatespostalservice-a77078", "operator": "United States Postal Service", "operator:short": "USPS", "operator:type": "public", "operator:wikidata": "Q668687", "ref": "4514000045"}, "type": "Feature"}
{"geometry": {"coordinates": [-83.792409414, 39.244750975], "type": "Point"}, "id": "E1EUgGUL6J2XTwX1qFUF7qKlKDw=", "properties": {"@source_uri": "https://tools.usps.com/UspsToolsRestServices/rest/POLocator/findLocations", "@spider": "usps_collection_boxes", "addr:city": "LYNCHBURG", "addr:country": "US", "addr:postcode": "45142", "addr:state": "OH", "addr:street_address": "264 N MAIN ST", "amenity": "post_box", "collection_times": "Mo-Fr 15:45; Sa 11:30", "note": "ON 12/24 AND 12/31, THIS BOX MAY BE COLLECTED AS EARLY AS 12 NOON.", "nsi_id": "unitedstatespostalservice-a77078", "operator": "United States Postal Service", "operator:short": "USPS", "operator:type": "public", "operator:wikidata": "Q668687", "ref": "4514200002"}, "type": "Feature"}
{"geometry": {"coordinates": [-83.7906124, 39.2210204], "type": "Point"}, "id": "RkuzJzjvFQivRVG8WYVYcmLOZgs=", "properties": {"@source_uri": "https://tools.usps.com/UspsToolsRestServices/rest/POLocator/findLocations", "@spider": "usps_collection_boxes", "addr:city": "LYNCHBURG", "addr:country": "US", "addr:postcode": "45142", "addr:state": "OH", "addr:street_address": "264 N MAIN ST", "amenity": "post_box", "collection_times": "Mo-Fr 16:00; Sa 12:00", "indoor": "yes", "note": "ON 12/24 AND 12/31, THIS BOX MAY BE COLLECTED AS EARLY AS 12 NOON.", "nsi_id": "unitedstatespostalservice-a77078", "operator": "United States Postal Service", "operator:short": "USPS", "operator:type": "public", "operator:wikidata": "Q668687", "ref": "4514200006"}, "type": "Feature"}
{"geometry": {"coordinates": [-83.7906124, 39.2210204], "type": "Point"}, "id": "dQpsNHcjrOrBcaUyAbcovmfM52s=", "properties": {"@source_uri": "https://tools.usps.com/UspsToolsRestServices/rest/POLocator/findLocations", "@spider": "usps_collection_boxes", "addr:city": "LYNCHBURG", "addr:country": "US", "addr:postcode": "45142", "addr:state": "OH", "addr:street_address": "264 N MAIN ST", "amenity": "post_box", "collection_times": "Mo-Fr 16:00; Sa 12:00", "indoor": "yes", "note": "ON 12/24 AND 12/31, THIS BOX MAY BE COLLECTED AS EARLY AS 12 NOON.", "nsi_id": "unitedstatespostalservice-a77078", "operator": "United States Postal Service", "operator:short": "USPS", "operator:type": "public", "operator:wikidata": "Q668687", "ref": "4514200007"}, "type": "Feature"}
{"geometry": {"coordinates": [-83.609271429, 38.688199628], "type": "Point"}, "id": "TJLa52460z75X9cTeg7p26fYnnw=", "properties": {"@source_uri": "https://tools.usps.com/UspsToolsRestServices/rest/POLocator/findLocations", "@spider": "usps_collection_boxes", "addr:city": "MANCHESTER", "addr:country": "US", "addr:postcode": "45144", "addr:state": "OH", "addr:street_address": "301 PIKE ST", "amenity": "post_box", "collection_times": "Mo-Fr 16:30; Sa 12:00", "note": "ON 12/24 AND 12/31, THIS BOX MAY BE COLLECTED AS EARLY AS 12 NOON.", "nsi_id": "unitedstatespostalservice-a77078", "operator": "United States Postal Service", "operator:short": "USPS", "operator:type": "public", "operator:wikidata": "Q668687", "ref": "4514400001"}, "type": "Feature"}
{"geometry": {"coordinates": [-83.6086429, 38.692007], "type": "Point"}, "id": "0fky-LdO23h7Qt6qsqwKKndLdbU=", "properties": {"@source_uri": "https://tools.usps.com/UspsToolsRestServices/rest/POLocator/findLocations", "@spider": "usps_collection_boxes", "addr:city": "MANCHESTER", "addr:country": "US", "addr:postcode": "45144", "addr:state": "OH", "addr:street_address": "206 E 8TH ST", "amenity": "post_box", "collection_times": "Mo-Sa 09:00", "nsi_id": "unitedstatespostalservice-a77078", "operator": "United States Postal Service", "operator:short": "USPS", "operator:type": "public", "operator:wikidata": "Q668687", "ref": "4514400005"}, "type": "Feature"}
{"geometry": {"coordinates": [-83.6048011, 38.692146], "type": "Point"}, "id": "cwREAFh4AJf96PJOUTClginquzI=", "properties": {"@source_uri": "https://tools.usps.com/UspsToolsRestServices/rest/POLocator/findLocations", "@spider": "usps_collection_boxes", "addr:city": "MANCHESTER", "addr:country": "US", "addr:postcode": "45144", "addr:state": "OH", "addr:street_address": "415 E 7TH ST", "amenity": "post_box", "collection_times": "Mo-Sa 09:00", "nsi_id": "unitedstatespostalservice-a77078", "operator": "United States Postal Service", "operator:short": "USPS", "operator:type": "public", "operator:wikidata": "Q668687", "ref": "4514400006"}, "type": "Feature"}
{"geometry": {"coordinates": [-83.600921, 38.693011], "type": "Point"}, "id": "-UUPqSyOEHooX07uta-wMxh-C8Q=", "properties": {"@source_uri": "https://tools.usps.com/UspsToolsRestServices/rest/POLocator/findLocations", "@spider": "usps_collection_boxes", "addr:city": "MANCHESTER", "addr:country": "US", "addr:postcode": "45144", "addr:state": "OH", "addr:street_address": "613 E 7TH ST", "amenity": "post_box", "collection_times": "Mo-Sa 09:00", "nsi_id": "unitedstatespostalservice-a77078", "operator": "United States Postal Service", "operator:short": "USPS", "operator:type": "public", "operator:wikidata": "Q668687", "ref": "4514400007"}, "type": "Feature"}
{"geometry": {"coordinates": [-83.609271429, 38.688199628], "type": "Point"}, "id": "npSQHEysi72s-xbz7ihMNW-naRQ=", "properties": {"@source_uri": "https://tools.usps.com/UspsToolsRestServices/rest/POLocator/findLocations", "@spider": "usps_collection_boxes", "addr:city": "MANCHESTER", "addr:country": "US", "addr:postcode": "45144", "addr:state": "OH", "addr:street_address": "301 PIKE ST", "amenity": "post_box", "collection_times": "Mo-Fr 16:30; Sa 12:00", "indoor": "yes", "note": "ON 12/24 AND 12/31, THIS BOX MAY BE COLLECTED AS EARLY AS 12 NOON.", "nsi_id": "unitedstatespostalservice-a77078", "operator": "United States Postal Service", "operator:short": "USPS", "operator:type": "public", "operator:wikidata": "Q668687", "ref": "4514400009"}, "type": "Feature"}
{"geometry": {"coordinates": [-83.609271429, 38.688199628], "type": "Point"}, "id": "9ixjCopdd8I2dwTJasANA0YN3ro=", "properties": {"@source_uri": "https://tools.usps.com/UspsToolsRestServices/rest/POLocator/findLocations", "@spider": "usps_collection_boxes", "addr:city": "MANCHESTER", "addr:country": "US", "addr:postcode": "45144", "addr:state": "OH", "addr:street_address": "301 PIKE ST", "amenity": "post_box", "collection_times": "Mo-Fr 17:00; Sa 12:00", "indoor": "yes", "note": "ON 12/24 AND 12/31, THIS BOX MAY BE COLLECTED AS EARLY AS 12 NOON.", "nsi_id": "unitedstatespostalservice-a77078", "operator": "United States Postal Service", "operator:short": "USPS", "operator:type": "public", "operator:wikidata": "Q668687", "ref": "4514400016"}, "type": "Feature"}
{"geometry": {"coordinates": [-84.299515061, 39.212622255], "type": "Point"}, "id": "zJLnOrSHwBqciVAF1XuByoVodW0=", "properties": {"@source_uri": "https://tools.usps.com/UspsToolsRestServices/rest/POLocator/findLocations", "@spider": "usps_collection_boxes", "addr:city": "MIAMIVILLE", "addr:country": "US", "addr:postcode": "45147", "addr:state": "OH", "addr:street_address": "352 CENTER ST", "amenity": "post_box", "collection_times": "Mo-Fr 16:30; Sa 12:00", "indoor": "yes", "note": "ON 12/24 AND 12/31, THIS BOX MAY BE COLLECTED AS EARLY AS 12 NOON.", "nsi_id": "unitedstatespostalservice-a77078", "operator": "United States Postal Service", "operator:short": "USPS", "operator:type": "public", "operator:wikidata": "Q668687", "ref": "4514700001"}, "type": "Feature"}
{"geometry": {"coordinates": [-84.299515061, 39.212622255], "type": "Point"}, "id": "ybsTCb50lJ-YMQRTyoL3D5uxIC4=", "properties": {"@source_uri": "https://tools.usps.com/UspsToolsRestServices/rest/POLocator/findLocations", "@spider": "usps_collection_boxes", "addr:city": "MIAMIVILLE", "addr:country": "US", "addr:postcode": "45147", "addr:state": "OH", "addr:street_address": "352 CENTER ST", "amenity": "post_box", "collection_times": "Mo-Fr 16:00; Sa 11:30", "note": "ON 12/24 AND 12/31, THIS BOX MAY BE COLLECTED AS EARLY AS 12 NOON.", "nsi_id": "unitedstatespostalservice-a77078", "operator": "United States Postal Service", "operator:short": "USPS", "operator:type": "public", "operator:wikidata": "Q668687", "ref": "4514700002"}, "type": "Feature"}
{"geometry": {"coordinates": [-84.299515061, 39.212622255], "type": "Point"}, "id": "rwiuSc2L5tUnNXKdiMLD-GXEtco=", "properties": {"@source_uri": "https://tools.usps.com/UspsToolsRestServices/rest/POLocator/findLocations", "@spider": "usps_collection_boxes", "addr:city": "MIAMIVILLE", "addr:country": "US", "addr:postcode": "45147", "addr:state": "OH", "addr:street_address": "352 CENTER ST", "amenity": "post_box", "collection_times": "Mo-Fr 16:30; Sa 12:00", "indoor": "yes", "note": "ON 12/24 AND 12/31, THIS BOX MAY BE COLLECTED AS EARLY AS 12 NOON.", "nsi_id": "unitedstatespostalservice-a77078", "operator": "United States Postal Service", "operator:short": "USPS", "operator:type": "public", "operator:wikidata": "Q668687", "ref": "4514700005"}, "type": "Feature"}
{"geometry": {"coordinates": [-84.27156681, 39.183967407], "type": "Point"}, "id": "EuLTKRQTL--SZfZ18LDCzh8ReQ0=", "properties": {"@source_uri": "https://tools.usps.com/UspsToolsRestServices/rest/POLocator/findLocations", "@spider": "usps_collection_boxes", "addr:city": "MILFORD", "addr:country": "US", "addr:postcode": "45150", "addr:state": "OH", "addr:street_address": "100 CASTLEBERRY CT", "amenity": "post_box", "collection_times": "Mo-Fr 17:00; Sa 13:30", "note": "ON 12/24 AND 12/31, THIS BOX MAY BE COLLECTED AS EARLY AS 12 NOON.", "nsi_id": "unitedstatespostalservice-a77078", "operator": "United States Postal Service", "operator:short": "USPS", "operator:type": "public", "operator:wikidata": "Q668687", "ref": "4515000002"}, "type": "Feature"}
{"geometry": {"coordinates": [-84.27156681, 39.183967407], "type": "Point"}, "id": "HJ-uM8C5tEAr-aoHHMOKViTdVgI=", "properties": {"@source_uri": "https://tools.usps.com/UspsToolsRestServices/rest/POLocator/findLocations", "@spider": "usps_collection_boxes", "addr:city": "MILFORD", "addr:country": "US", "addr:postcode": "45150", "addr:state": "OH", "addr:street_address": "100 CASTLEBERRY CT", "amenity": "post_box", "collection_times": "Mo-Fr 17:00; Sa 13:30", "note": "ON 12/24 AND 12/31, THIS BOX MAY BE COLLECTED AS EARLY AS 12 NOON.", "nsi_id": "unitedstatespostalservice-a77078", "operator": "United States Postal Service", "operator:short": "USPS", "operator:type": "public", "operator:wikidata": "Q668687", "ref": "4515000003"}, "type": "Feature"}
{"geometry": {"coordinates": [-84.2516594, 39.155309], "type": "Point"}, "id": "WayRII1GJi3AvnTbHEqahN10wBE=", "properties": {"@source_uri": "https://tools.usps.com/UspsToolsRestServices/rest/POLocator/findLocations", "@spider": "usps_collection_boxes", "addr:city": "MILFORD", "addr:country": "US", "addr:postcode": "45150", "addr:state": "OH", "addr:street_address": "2001 FORD CIR", "amenity": "post_box", "collection_times": "Mo-Sa 09:30", "nsi_id": "unitedstatespostalservice-a77078", "operator": "United States Postal Service", "operator:short": "USPS", "operator:type": "public", "operator:wikidata": "Q668687", "ref": "4515000010"}, "type": "Feature"}
{"geometry": {"coordinates": [-84.2785849, 39.174681], "type": "Point"}, "id": "lwJVgBvmxlNEt-l3th2Z1EnT3XM=", "properties": {"@source_uri": "https://tools.usps.com/UspsToolsRestServices/rest/POLocator/findLocations", "@spider": "usps_collection_boxes", "addr:city": "MILFORD", "addr:country": "US", "addr:postcode": "45150", "addr:state": "OH", "addr:street_address": "933 LILA AVE", "amenity": "post_box", "collection_times": "Mo-Fr 15:00; Sa 10:00", "note": "ON 12/24 AND 12/31, THIS BOX MAY BE COLLECTED AS EARLY AS 12 NOON.", "nsi_id": "unitedstatespostalservice-a77078", "operator": "United States Postal Service", "operator:short": "USPS", "operator:type": "public", "operator:wikidata": "Q668687", "ref": "4515000017"}, "type": "Feature"}
{"geometry": {"coordinates": [-84.2641876, 39.178803], "type": "Point"}, "id": "UqfRGX_-agn9ffVJxzR8vXPJKkk=", "properties": {"@source_uri": "https://tools.usps.com/UspsToolsRestServices/rest/POLocator/findLocations", "@spider": "usps_collection_boxes", "addr:city": "MILFORD", "addr:country": "US", "addr:postcode": "45150", "addr:state": "OH", "addr:street_address": "826 STATE ROUTE 131", "amenity": "post_box", "collection_times": "Mo-Sa 12:00", "nsi_id": "unitedstatespostalservice-a77078", "operator": "United States Postal Service", "operator:short": "USPS", "operator:type": "public", "operator:wikidata": "Q668687", "ref": "4515000023"}, "type": "Feature"}
{"geometry": {"coordinates": [-84.2743887, 39.167936], "type": "Point"}, "id": "lD8XemfyHNul-oNBuYxn8ZBPPdM=", "properties": {"@source_uri": "https://tools.usps.com/UspsToolsRestServices/rest/POLocator/findLocations", "@spider": "usps_collection_boxes", "addr:city": "MILFORD", "addr:country": "US", "addr:postcode": "45150", "addr:state": "OH", "addr:street_address": "400 MILFORD PKWY", "amenity": "post_box", "collection_times": "Mo-Sa 09:30", "nsi_id": "unitedstatespostalservice-a77078", "operator": "United States Postal Service", "operator:short": "USPS", "operator:type": "public", "operator:wikidata": "Q668687", "ref": "4515000024"}, "type": "Feature"}
{"geometry": {"coordinates": [-84.2553999, 39.153748], "type": "Point"}, "id": "7LnMav4r155C6N100ywonEsrXoY=", "properties": {"@source_uri": "https://tools.usps.com/UspsToolsRestServices/rest/POLocator/findLocations", "@spider": "usps_collection_boxes", "addr:city": "MILFORD", "addr:country": "US", "addr:postcode": "45150", "addr:state": "OH", "addr:street_address": "55 W TECHNE CENTER DR", "amenity": "post_box", "collection_times": "Mo-Sa 10:00", "nsi_id": "unitedstatespostalservice-a77078", "operator": "United States Postal Service", "operator:short": "USPS", "operator:type": "public", "operator:wikidata": "Q668687", "ref": "4515000025"}, "type": "Feature"}
{"geometry": {"coordinates": [-84.2961571, 39.173083], "type": "Point"}, "id": "kRlsIxTydEaKA8Yiux3SFelHbTE=", "properties": {"@source_uri": "https://tools.usps.com/UspsToolsRestServices/rest/POLocator/findLocations", "@spider": "usps_collection_boxes", "addr:city": "MILFORD", "addr:country": "US", "addr:postcode": "45150", "addr:state": "OH", "addr:street_address": "101 MAIN ST", "amenity": "post_box", "collection_times": "Mo-Sa 11:30", "nsi_id": "unitedstatespostalservice-a77078", "operator": "United States Postal Service", "operator:short": "USPS", "operator:type": "public", "operator:wikidata": "Q668687", "ref": "4515000030"}, "type": "Feature"}
{"geometry": {"coordinates": [-84.2954291, 39.174744], "type": "Point"}, "id": "8YCWPtTY_uElwL8WRgwmssJmJnY=", "properties": {"@source_uri": "https://tools.usps.com/UspsToolsRestServices/rest/POLocator/findLocations", "@spider": "usps_collection_boxes", "addr:city": "MILFORD", "addr:country": "US", "addr:postcode": "45150", "addr:state": "OH", "addr:street_address": "235 MAIN ST", "amenity": "post_box", "collection_times": "Mo-Sa 11:30", "nsi_id": "unitedstatespostalservice-a77078", "operator": "United States Postal Service", "operator:short": "USPS", "operator:type": "public", "operator:wikidata": "Q668687", "ref": "4515000031"}, "type": "Feature"}
{"geometry": {"coordinates": [-84.2519014, 39.191037], "type": "Point"}, "id": "Sy2coCyqoFMNU9yHWh_uVZWw2nY=", "properties": {"@source_uri": "https://tools.usps.com/UspsToolsRestServices/rest/POLocator/findLocations", "@spider": "usps_collection_boxes", "addr:city": "MILFORD", "addr:country": "US", "addr:postcode": "45150", "addr:state": "OH", "addr:street_address": "931 STATE ROUTE 28", "amenity": "post_box", "collection_times": "Mo-Sa 09:00", "nsi_id": "unitedstatespostalservice-a77078", "operator": "United States Postal Service", "operator:short": "USPS", "operator:type": "public", "operator:wikidata": "Q668687", "ref": "4515000038"}, "type": "Feature"}
{"geometry": {"coordinates": [-84.236852362, 39.175054536], "type": "Point"}, "id": "ecwy2iB01Y1aErW36ART0LMemLM=", "properties": {"@source_uri": "https://tools.usps.com/UspsToolsRestServices/rest/POLocator/findLocations", "@spider": "usps_collection_boxes", "addr:city": "MILFORD", "addr:country": "US", "addr:postcode": "45150", "addr:state": "OH", "addr:street_address": "1137 STATE ROUTE 131", "amenity": "post_box", "collection_times": "Mo-Sa 12:00", "nsi_id": "unitedstatespostalservice-a77078", "operator": "United States Postal Service", "operator:short": "USPS", "operator:type": "public", "operator:wikidata": "Q668687", "ref": "4515000040"}, "type": "Feature"}
{"geometry": {"coordinates": [-84.2735223, 39.18224], "type": "Point"}, "id": "JpXxL_ysrfhjlVBWfQeOyrDdAN8=", "properties": {"@source_uri": "https://tools.usps.com/UspsToolsRestServices/rest/POLocator/findLocations", "@spider": "usps_collection_boxes", "addr:city": "MILFORD", "addr:country": "US", "addr:postcode": "45150", "addr:state": "OH", "addr:street_address": "1145 MAIN ST", "amenity": "post_box", "collection_times": "Mo-Sa 09:30", "nsi_id": "unitedstatespostalservice-a77078", "operator": "United States Postal Service", "operator:short": "USPS", "operator:type": "public", "operator:wikidata": "Q668687", "ref": "4515000041"}, "type": "Feature"}
{"geometry": {"coordinates": [-84.2670204, 39.186105], "type": "Point"}, "id": "kPx9yROM60ZNwDBgttlfuB-eTW0=", "properties": {"@source_uri": "https://tools.usps.com/UspsToolsRestServices/rest/POLocator/findLocations", "@spider": "usps_collection_boxes", "addr:city": "MILFORD", "addr:country": "US", "addr:postcode": "45150", "addr:state": "OH", "addr:street_address": "5718 SIGNAL HILL CT STE B", "amenity": "post_box", "collection_times": "Mo-Sa 10:00", "nsi_id": "unitedstatespostalservice-a77078", "operator": "United States Postal Service", "operator:short": "USPS", "operator:type": "public", "operator:wikidata": "Q668687", "ref": "4515000042"}, "type": "Feature"}
{"geometry": {"coordinates": [-84.27156681, 39.183967407], "type": "Point"}, "id": "D72QLvkHDbygimPMBIHmqWf3JGU=", "properties": {"@source_uri": "https://tools.usps.com/UspsToolsRestServices/rest/POLocator/findLocations", "@spider": "usps_collection_boxes", "addr:city": "MILFORD", "addr:country": "US", "addr:postcode": "45150", "addr:state": "OH", "addr:street_address": "100 CASTLEBERRY CT", "amenity": "post_box", "collection_times": "Mo-Fr 17:00; Sa 13:30", "indoor": "yes", "note": "ON 12/24 AND 12/31, THIS BOX MAY BE COLLECTED AS EARLY AS 12 NOON.", "nsi_id": "unitedstatespostalservice-a77078", "operator": "United States Postal Service", "operator:short": "USPS", "operator:type": "public", "operator:wikidata": "Q668687", "ref": "4515000046"}, "type": "Feature"}
{"geometry": {"coordinates": [-84.2549122, 39.196006], "type": "Point"}, "id": "L0PPhUqvGO6bEvhCYGdT6Hj5DdU=", "properties": {"@source_uri": "https://tools.usps.com/UspsToolsRestServices/rest/POLocator/findLocations", "@spider": "usps_collection_boxes", "addr:city": "MILFORD", "addr:country": "US", "addr:postcode": "45150", "addr:state": "OH", "addr:street_address": "6227 WATCHCREEK WAY", "amenity": "post_box", "collection_times": "Mo-Sa 10:00", "nsi_id": "unitedstatespostalservice-a77078", "operator": "United States Postal Service", "operator:short": "USPS", "operator:type": "public", "operator:wikidata": "Q668687", "ref": "4515000047"}, "type": "Feature"}
{"geometry": {"coordinates": [-84.2811734, 39.176782], "type": "Point"}, "id": "AUwij7K3Bb6DkEmYQFW8GIYLxIU=", "properties": {"@source_uri": "https://tools.usps.com/UspsToolsRestServices/rest/POLocator/findLocations", "@spider": "usps_collection_boxes", "addr:city": "MILFORD", "addr:country": "US", "addr:postcode": "45150", "addr:state": "OH", "addr:street_address": "869 LILA AVE", "amenity": "post_box", "collection_times": "Mo-Sa 10:00", "nsi_id": "unitedstatespostalservice-a77078", "operator": "United States Postal Service", "operator:short": "USPS", "operator:type": "public", "operator:wikidata": "Q668687", "ref": "4515000048"}, "type": "Feature"}
{"geometry": {"coordinates": [-84.250142, 39.153447], "type": "Point"}, "id": "LLjslmIPk1aWgfPrRO362EDq7to=", "properties": {"@source_uri": "https://tools.usps.com/UspsToolsRestServices/rest/POLocator/findLocations", "@spider": "usps_collection_boxes", "addr:city": "MILFORD", "addr:country": "US", "addr:postcode": "45150", "addr:state": "OH", "addr:street_address": "400 TECHNE CENTER DR", "amenity": "post_box", "collection_times": "Mo-Fr 09:30; Sa 09:00", "nsi_id": "unitedstatespostalservice-a77078", "operator": "United States Postal Service", "operator:short": "USPS", "operator:type": "public", "operator:wikidata": "Q668687", "ref": "4515000051"}, "type": "Feature"}
{"geometry": {"coordinates": [-84.27156681, 39.183967407], "type": "Point"}, "id": "8GJT5GDR-82Yt4tEyZG-DIIo8FQ=", "properties": {"@source_uri": "https://tools.usps.com/UspsToolsRestServices/rest/POLocator/findLocations", "@spider": "usps_collection_boxes", "addr:city": "MILFORD", "addr:country": "US", "addr:postcode": "45150", "addr:state": "OH", "addr:street_address": "100 CASTLEBERRY CT", "amenity": "post_box", "collection_times": "Mo-Fr 17:00; Sa 13:30", "indoor": "yes", "note": "ON 12/24 AND 12/31, THIS BOX MAY BE COLLECTED AS EARLY AS 12 NOON.", "nsi_id": "unitedstatespostalservice-a77078", "operator": "United States Postal Service", "operator:short": "USPS", "operator:type": "public", "operator:wikidata": "Q668687", "ref": "4515000052"}, "type": "Feature"}
{"geometry": {"coordinates": [-84.27156681, 39.183967407], "type": "Point"}, "id": "xkoXtDD-dSZ5gx-Zw0JVyY9QUqQ=", "properties": {"@source_uri": "https://tools.usps.com/UspsToolsRestServices/rest/POLocator/findLocations", "@spider": "usps_collection_boxes", "addr:city": "MILFORD", "addr:country": "US", "addr:postcode": "45150", "addr:state": "OH", "addr:street_address": "100 CASTLEBERRY CT", "amenity": "post_box", "collection_times": "Mo-Fr 17:00; Sa 13:30", "indoor": "yes", "note": "ON 12/24 AND 12/31, THIS BOX MAY BE COLLECTED AS EARLY AS 12 NOON.", "nsi_id": "unitedstatespostalservice-a77078", "operator": "United States Postal Service", "operator:short": "USPS", "operator:type": "public", "operator:wikidata": "Q668687", "ref": "4515000053"}, "type": "Feature"}
{"geometry": {"coordinates": [-84.27156681, 39.183967407], "type": "Point"}, "id": "fkggEU8yuSJgdow6-lYsxgruhXg=", "properties": {"@source_uri": "https://tools.usps.com/UspsToolsRestServices/rest/POLocator/findLocations", "@spider": "usps_collection_boxes", "addr:city": "MILFORD", "addr:country": "US", "addr:postcode": "45150", "addr:state": "OH", "addr:street_address": "100 CASTLEBERRY CT", "amenity": "post_box", "collection_times": "Mo-Fr 17:00; Sa 13:30", "name": "USPS COLLECTION BOX - APC", "note": "ON 12/24 AND 12/31, THIS BOX MAY BE COLLECTED AS EARLY AS 12 NOON.", "nsi_id": "unitedstatespostalservice-a77078", "operator": "United States Postal Service", "operator:short": "USPS", "operator:type": "public", "operator:wikidata": "Q668687", "ref": "4515000054"}, "type": "Feature"}
{"geometry": {"coordinates": [-84.27156681, 39.183967407], "type": "Point"}, "id": "Pn24LxRiy72tjJAWjL_xG6TJoIY=", "properties": {"@source_uri": "https://tools.usps.com/UspsToolsRestServices/rest/POLocator/findLocations", "@spider": "usps_collection_boxes", "addr:city": "MILFORD", "addr:country": "US", "addr:postcode": "45150", "addr:state": "OH", "addr:street_address": "100 CASTLEBERRY CT", "amenity": "post_box", "collection_times": "Mo-Fr 17:00; Sa 13:00", "indoor": "yes", "note": "ON 12/24 AND 12/31, THIS BOX MAY BE COLLECTED AS EARLY AS 12 NOON.", "nsi_id": "unitedstatespostalservice-a77078", "operator": "United States Postal Service", "operator:short": "USPS", "operator:type": "public", "operator:wikidata": "Q668687", "ref": "4515000062"}, "type": "Feature"}
{"geometry": {"coordinates": [-84.142177721, 39.356070597], "type": "Point"}, "id": "-emgXT7yhIDk71l4y2-50iolKUY=", "properties": {"@source_uri": "https://tools.usps.com/UspsToolsRestServices/rest/POLocator/findLocations", "@spider": "usps_collection_boxes", "addr:city": "MORROW", "addr:country": "US", "addr:postcode": "45152", "addr:state": "OH", "addr:street_address": "531 W PIKE ST", "amenity": "post_box", "collection_times": "Mo-Fr 16:30; Sa 12:00", "note": "ON 12/24 AND 12/31, THIS BOX MAY BE COLLECTED AS EARLY AS 12 NOON.", "nsi_id": "unitedstatespostalservice-a77078", "operator": "United States Postal Service", "operator:short": "USPS", "operator:type": "public", "operator:wikidata": "Q668687", "ref": "4515200002"}, "type": "Feature"}
{"geometry": {"coordinates": [-84.142177721, 39.356070597], "type": "Point"}, "id": "9P0hv91rcS6IzwSMtssiT_1iTao=", "properties": {"@source_uri": "https://tools.usps.com/UspsToolsRestServices/rest/POLocator/findLocations", "@spider": "usps_collection_boxes", "addr:city": "MORROW", "addr:country": "US", "addr:postcode": "45152", "addr:state": "OH", "addr:street_address": "531 W PIKE ST", "amenity": "post_box", "collection_times": "Mo-Fr 17:00; Sa 12:00", "indoor": "yes", "note": "ON 12/24 AND 12/31, THIS BOX MAY BE COLLECTED AS EARLY AS 12 NOON.", "nsi_id": "unitedstatespostalservice-a77078", "operator": "United States Postal Service", "operator:short": "USPS", "operator:type": "public", "operator:wikidata": "Q668687", "ref": "4515200003"}, "type": "Feature"}
{"geometry": {"coordinates": [-84.142177721, 39.356070597], "type": "Point"}, "id": "ynoo0ZzIEMjwaGHiWbC0iKHbI8w=", "properties": {"@source_uri": "https://tools.usps.com/UspsToolsRestServices/rest/POLocator/findLocations", "@spider": "usps_collection_boxes", "addr:city": "MORROW", "addr:country": "US", "addr:postcode": "45152", "addr:state": "OH", "addr:street_address": "531 W PIKE ST", "amenity": "post_box", "collection_times": "Mo-Fr 17:00; Sa 12:00", "indoor": "yes", "note": "ON 12/24 AND 12/31, THIS BOX MAY BE COLLECTED AS EARLY AS 12 NOON.", "nsi_id": "unitedstatespostalservice-a77078", "operator": "United States Postal Service", "operator:short": "USPS", "operator:type": "public", "operator:wikidata": "Q668687", "ref": "4515200006"}, "type": "Feature"}
{"geometry": {"coordinates": [-84.22386, 38.85824], "type": "Point"}, "id": "C-eRmpS-9DrgWDWUHYHanTajUO4=", "properties": {"@source_uri": "https://tools.usps.com/UspsToolsRestServices/rest/POLocator/findLocations", "@spider": "usps_collection_boxes", "addr:city": "MOSCOW", "addr:country": "US", "addr:postcode": "45153", "addr:state": "OH", "addr:street_address": "30 WELLS ST", "amenity": "post_box", "collection_times": "Mo-Fr 14:00; Sa 11:00", "note": "ON 12/24 AND 12/31, THIS BOX MAY BE COLLECTED AS EARLY AS 12 NOON.", "nsi_id": "unitedstatespostalservice-a77078", "operator": "United States Postal Service", "operator:short": "USPS", "operator:type": "public", "operator:wikidata": "Q668687", "ref": "4515300001"}, "type": "Feature"}
{"geometry": {"coordinates": [-84.226069027, 38.858031512], "type": "Point"}, "id": "xZHzxomjJqrZo_FGlE4_MJ464Vg=", "properties": {"@source_uri": "https://tools.usps.com/UspsToolsRestServices/rest/POLocator/findLocations", "@spider": "usps_collection_boxes", "addr:city": "MOSCOW", "addr:country": "US", "addr:postcode": "45153", "addr:state": "OH", "addr:street_address": "30 WELLS ST", "amenity": "post_box", "collection_times": "Mo-Fr 14:00; Sa 11:00", "indoor": "yes", "note": "ON 12/24 AND 12/31, THIS BOX MAY BE COLLECTED AS EARLY AS 12 NOON.", "nsi_id": "unitedstatespostalservice-a77078", "operator": "United States Postal Service", "operator:short": "USPS", "operator:type": "public", "operator:wikidata": "Q668687", "ref": "4515300002"}, "type": "Feature"}
{"geometry": {"coordinates": [-84.226069027, 38.858031512], "type": "Point"}, "id": "4cILBExWoI-3ZSlLk0YwLuek2Eo=", "properties": {"@source_uri": "https://tools.usps.com/UspsToolsRestServices/rest/POLocator/findLocations", "@spider": "usps_collection_boxes", "addr:city": "MOSCOW", "addr:country": "US", "addr:postcode": "45153", "addr:state": "OH", "addr:street_address": "30 WELLS ST", "amenity": "post_box", "collection_times": "Mo-Fr 14:30; Sa 11:15", "indoor": "yes", "note": "ON 12/24 AND 12/31, THIS BOX MAY BE COLLECTED AS EARLY AS 12 NOON.", "nsi_id": "unitedstatespostalservice-a77078", "operator": "United States Postal Service", "operator:short": "USPS", "operator:type": "public", "operator:wikidata": "Q668687", "ref": "4515300008"}, "type": "Feature"}
{"geometry": {"coordinates": [-83.918449467, 39.02740682], "type": "Point"}, "id": "7xclbyooo4ZsK1VW-4H0rNP4DyI=", "properties": {"@source_uri": "https://tools.usps.com/UspsToolsRestServices/rest/POLocator/findLocations", "@spider": "usps_collection_boxes", "addr:city": "MOUNT ORAB", "addr:country": "US", "addr:postcode": "45154", "addr:state": "OH", "addr:street_address": "202 E MAIN ST", "amenity": "post_box", "collection_times": "Mo-Fr 16:45; Sa 11:45", "note": "ON 12/24 AND 12/31, THIS BOX MAY BE COLLECTED AS EARLY AS 12 NOON.", "nsi_id": "unitedstatespostalservice-a77078", "operator": "United States Postal Service", "operator:short": "USPS", "operator:type": "public", "operator:wikidata": "Q668687", "ref": "4515400000"}, "type": "Feature"}
{"geometry": {"coordinates": [-83.918449467, 39.02740682], "type": "Point"}, "id": "hXGV3byMdCzGtChLdLs1M05Zi3g=", "properties": {"@source_uri": "https://tools.usps.com/UspsToolsRestServices/rest/POLocator/findLocations", "@spider": "usps_collection_boxes", "addr:city": "MOUNT ORAB", "addr:country": "US", "addr:postcode": "45154", "addr:state": "OH", "addr:street_address": "202 E MAIN ST", "amenity": "post_box", "collection_times": "Mo-Fr 17:00; Sa 12:00", "indoor": "yes", "note": "ON 12/24 AND 12/31, THIS BOX MAY BE COLLECTED AS EARLY AS 12 NOON.", "nsi_id": "unitedstatespostalservice-a77078", "operator": "United States Postal Service", "operator:short": "USPS", "operator:type": "public", "operator:wikidata": "Q668687", "ref": "4515400001"}, "type": "Feature"}
{"geometry": {"coordinates": [-83.918449467, 39.02740682], "type": "Point"}, "id": "A-r9MeojS-mHX2r1S-qo5jqtKDE=", "properties": {"@source_uri": "https://tools.usps.com/UspsToolsRestServices/rest/POLocator/findLocations", "@spider": "usps_collection_boxes", "addr:city": "MOUNT ORAB", "addr:country": "US", "addr:postcode": "45154", "addr:state": "OH", "addr:street_address": "202 E MAIN ST", "amenity": "post_box", "collection_times": "Mo-Fr 17:00; Sa 12:00", "indoor": "yes", "note": "ON 12/24 AND 12/31, THIS BOX MAY BE COLLECTED AS EARLY AS 12 NOON.", "nsi_id": "unitedstatespostalservice-a77078", "operator": "United States Postal Service", "operator:short": "USPS", "operator:type": "public", "operator:wikidata": "Q668687", "ref": "4515400010"}, "type": "Feature"}
{"geometry": {"coordinates": [-83.748539965, 39.038421643], "type": "Point"}, "id": "OIzuzBqe7M2AQjArd0BY3AudeTo=", "properties": {"@source_uri": "https://tools.usps.com/UspsToolsRestServices/rest/POLocator/findLocations", "@spider": "usps_collection_boxes", "addr:city": "MOWRYSTOWN", "addr:country": "US", "addr:postcode": "45155", "addr:state": "OH", "addr:street_address": "2 W MAIN ST", "amenity": "post_box", "collection_times": "Mo-Fr 16:00; Sa 11:45", "indoor": "yes", "note": "ON 12/24 AND 12/31, THIS BOX MAY BE COLLECTED AS EARLY AS 12 NOON.", "nsi_id": "unitedstatespostalservice-a77078", "operator": "United States Postal Service", "operator:short": "USPS", "operator:type": "public", "operator:wikidata": "Q668687", "ref": "4515500000"}, "type": "Feature"}
{"geometry": {"coordinates": [-83.748539965, 39.038421643], "type": "Point"}, "id": "n_ndE0b6RK2XxkyzNyj7cFfQL0s=", "properties": {"@source_uri": "https://tools.usps.com/UspsToolsRestServices/rest/POLocator/findLocations", "@spider": "usps_collection_boxes", "addr:city": "MOWRYSTOWN", "addr:country": "US", "addr:postcode": "45155", "addr:state": "OH", "addr:street_address": "2 W MAIN ST", "amenity": "post_box", "collection_times": "Mo-Fr 16:00; Sa 11:30", "note": "ON 12/24 AND 12/31, THIS BOX MAY BE COLLECTED AS EARLY AS 12 NOON.", "nsi_id": "unitedstatespostalservice-a77078", "operator": "United States Postal Service", "operator:short": "USPS", "operator:type": "public", "operator:wikidata": "Q668687", "ref": "4515500001"}, "type": "Feature"}
{"geometry": {"coordinates": [-83.748539965, 39.038421643], "type": "Point"}, "id": "GySoYiZ_x5Y1iGrxEM_3PqiPLcY=", "properties": {"@source_uri": "https://tools.usps.com/UspsToolsRestServices/rest/POLocator/findLocations", "@spider": "usps_collection_boxes", "addr:city": "MOWRYSTOWN", "addr:country": "US", "addr:postcode": "45155", "addr:state": "OH", "addr:street_address": "2 W MAIN ST", "amenity": "post_box", "collection_times": "Mo-Fr 16:00; Sa 12:00", "indoor": "yes", "note": "ON 12/24 AND 12/31, THIS BOX MAY BE COLLECTED AS EARLY AS 12 NOON.", "nsi_id": "unitedstatespostalservice-a77078", "operator": "United States Postal Service", "operator:short": "USPS", "operator:type": "public", "operator:wikidata": "Q668687", "ref": "4515500004"}, "type": "Feature"}
{"geometry": {"coordinates": [-84.279985, 38.95222], "type": "Point"}, "id": "oARU99mlPvKHWNIpXWlRRRtKypk=", "properties": {"@source_uri": "https://tools.usps.com/UspsToolsRestServices/rest/POLocator/findLocations", "@spider": "usps_collection_boxes", "addr:city": "NEW RICHMOND", "addr:country": "US", "addr:postcode": "45157", "addr:state": "OH", "addr:street_address": "1041 OLD US 52", "amenity": "post_box", "collection_times": "Mo-Sa 10:00", "nsi_id": "unitedstatespostalservice-a77078", "operator": "United States Postal Service", "operator:short": "USPS", "operator:type": "public", "operator:wikidata": "Q668687", "ref": "4515700000"}, "type": "Feature"}
{"geometry": {"coordinates": [-84.283481004, 38.954685678], "type": "Point"}, "id": "6aTquIolHbZA7xZ7Mh6IHjvLYCk=", "properties": {"@source_uri": "https://tools.usps.com/UspsToolsRestServices/rest/POLocator/findLocations", "@spider": "usps_collection_boxes", "addr:city": "NEW RICHMOND", "addr:country": "US", "addr:postcode": "45157", "addr:state": "OH", "addr:street_address": "501 MARKET ST", "amenity": "post_box", "collection_times": "Mo-Fr 16:45; Sa 12:15", "note": "ON 12/24 AND 12/31, THIS BOX MAY BE COLLECTED AS EARLY AS 12 NOON.", "nsi_id": "unitedstatespostalservice-a77078", "operator": "United States Postal Service", "operator:short": "USPS", "operator:type": "public", "operator:wikidata": "Q668687", "ref": "4515700002"}, "type": "Feature"}
{"geometry": {"coordinates": [-84.283481004, 38.954685678], "type": "Point"}, "id": "wVtcImX4hBLcy51Hhi3GlGay3Dc=", "properties": {"@source_uri": "https://tools.usps.com/UspsToolsRestServices/rest/POLocator/findLocations", "@spider": "usps_collection_boxes", "addr:city": "NEW RICHMOND", "addr:country": "US", "addr:postcode": "45157", "addr:state": "OH", "addr:street_address": "501 MARKET ST", "amenity": "post_box", "collection_times": "Mo-Fr 17:00; Sa 13:00", "indoor": "yes", "note": "ON 12/24 AND 12/31, THIS BOX MAY BE COLLECTED AS EARLY AS 12 NOON.", "nsi_id": "unitedstatespostalservice-a77078", "operator": "United States Postal Service", "operator:short": "USPS", "operator:type": "public", "operator:wikidata": "Q668687", "ref": "4515700003"}, "type": "Feature"}
{"geometry": {"coordinates": [-84.283481004, 38.954685678], "type": "Point"}, "id": "lm1O03chs8vIClmPbsj8ByBk87k=", "properties": {"@source_uri": "https://tools.usps.com/UspsToolsRestServices/rest/POLocator/findLocations", "@spider": "usps_collection_boxes", "addr:city": "NEW RICHMOND", "addr:country": "US", "addr:postcode": "45157", "addr:state": "OH", "addr:street_address": "501 MARKET ST", "amenity": "post_box", "collection_times": "Mo-Fr 17:00; Sa 12:00", "indoor": "yes", "note": "ON 12/24 AND 12/31, THIS BOX MAY BE COLLECTED AS EARLY AS 12 NOON.", "nsi_id": "unitedstatespostalservice-a77078", "operator": "United States Postal Service", "operator:short": "USPS", "operator:type": "public", "operator:wikidata": "Q668687", "ref": "4515700014"}, "type": "Feature"}
{"geometry": {"coordinates": [-84.086208692, 39.181977512], "type": "Point"}, "id": "9aPW70uG4tIUNiCpK_bLOtPZlTU=", "properties": {"@source_uri": "https://tools.usps.com/UspsToolsRestServices/rest/POLocator/findLocations", "@spider": "usps_collection_boxes", "addr:city": "NEWTONSVILLE", "addr:country": "US", "addr:postcode": "45158", "addr:state": "OH", "addr:street_address": "854 WRIGHT ST", "amenity": "post_box", "collection_times": "Mo-Fr 16:00; Sa 11:15", "note": "ON 12/24 AND 12/31, THIS BOX MAY BE COLLECTED AS EARLY AS 12 NOON.", "nsi_id": "unitedstatespostalservice-a77078", "operator": "United States Postal Service", "operator:short": "USPS", "operator:type": "public", "operator:wikidata": "Q668687", "ref": "4515800001"}, "type": "Feature"}
{"geometry": {"coordinates": [-84.086208692, 39.181977512], "type": "Point"}, "id": "439dWe7RpIIHO-yWhr1WO9wdavo=", "properties": {"@source_uri": "https://tools.usps.com/UspsToolsRestServices/rest/POLocator/findLocations", "@spider": "usps_collection_boxes", "addr:city": "NEWTONSVILLE", "addr:country": "US", "addr:postcode": "45158", "addr:state": "OH", "addr:street_address": "854 WRIGHT ST", "amenity": "post_box", "collection_times": "Mo-Fr 16:00; Sa 11:15", "indoor": "yes", "note": "ON 12/24 AND 12/31, THIS BOX MAY BE COLLECTED AS EARLY AS 12 NOON.", "nsi_id": "unitedstatespostalservice-a77078", "operator": "United States Postal Service", "operator:short": "USPS", "operator:type": "public", "operator:wikidata": "Q668687", "ref": "4515800002"}, "type": "Feature"}
{"geometry": {"coordinates": [-84.086208692, 39.181977512], "type": "Point"}, "id": "LiB06U0oeWCXIf9mYfZWgnZxSAc=", "properties": {"@source_uri": "https://tools.usps.com/UspsToolsRestServices/rest/POLocator/findLocations", "@spider": "usps_collection_boxes", "addr:city": "NEWTONSVILLE", "addr:country": "US", "addr:postcode": "45158", "addr:state": "OH", "addr:street_address": "854 WRIGHT ST", "amenity": "post_box", "collection_times": "Mo-Fr 16:30; Sa 11:30", "indoor": "yes", "note": "ON 12/24 AND 12/31, THIS BOX MAY BE COLLECTED AS EARLY AS 12 NOON.", "nsi_id": "unitedstatespostalservice-a77078", "operator": "United States Postal Service", "operator:short": "USPS", "operator:type": "public", "operator:wikidata": "Q668687", "ref": "4515800006"}, "type": "Feature"}
{"geometry": {"coordinates": [-83.692509591, 39.323190699], "type": "Point"}, "id": "pkYbCg4Bxy4Toft9bVQxUgbeayk=", "properties": {"@source_uri": "https://tools.usps.com/UspsToolsRestServices/rest/POLocator/findLocations", "@spider": "usps_collection_boxes", "addr:city": "NEW VIENNA", "addr:country": "US", "addr:postcode": "45159", "addr:state": "OH", "addr:street_address": "209 W MAIN ST", "amenity": "post_box", "collection_times": "Mo-Fr 16:00; Sa 11:30", "note": "ON 12/24 AND 12/31, THIS BOX MAY BE COLLECTED AS EARLY AS 12 NOON.", "nsi_id": "unitedstatespostalservice-a77078", "operator": "United States Postal Service", "operator:short": "USPS", "operator:type": "public", "operator:wikidata": "Q668687", "ref": "4515900001"}, "type": "Feature"}
{"geometry": {"coordinates": [-83.6969778, 39.327217], "type": "Point"}, "id": "Ez7vl8k-Y7A5GuuTCzeKBhfseWw=", "properties": {"@source_uri": "https://tools.usps.com/UspsToolsRestServices/rest/POLocator/findLocations", "@spider": "usps_collection_boxes", "addr:city": "NEW VIENNA", "addr:country": "US", "addr:postcode": "45159", "addr:state": "OH", "addr:street_address": "299 N SOUTH ST", "amenity": "post_box", "collection_times": "Mo-Sa 09:00", "nsi_id": "unitedstatespostalservice-a77078", "operator": "United States Postal Service", "operator:short": "USPS", "operator:type": "public", "operator:wikidata": "Q668687", "ref": "4515900002"}, "type": "Feature"}
{"geometry": {"coordinates": [-83.692509591, 39.323190699], "type": "Point"}, "id": "jpfcEmVqhdiEt2UpxO1oCvVpB-A=", "properties": {"@source_uri": "https://tools.usps.com/UspsToolsRestServices/rest/POLocator/findLocations", "@spider": "usps_collection_boxes", "addr:city": "NEW VIENNA", "addr:country": "US", "addr:postcode": "45159", "addr:state": "OH", "addr:street_address": "209 W MAIN ST", "amenity": "post_box", "collection_times": "Mo-Fr 16:00; Sa 11:30", "indoor": "yes", "note": "ON 12/24 AND 12/31, THIS BOX MAY BE COLLECTED AS EARLY AS 12 NOON.", "nsi_id": "unitedstatespostalservice-a77078", "operator": "United States Postal Service", "operator:short": "USPS", "operator:type": "public", "operator:wikidata": "Q668687", "ref": "4515900003"}, "type": "Feature"}
{"geometry": {"coordinates": [-83.692509591, 39.323190699], "type": "Point"}, "id": "TW81-o--i8eOebk17GA-sUFwAZA=", "properties": {"@source_uri": "https://tools.usps.com/UspsToolsRestServices/rest/POLocator/findLocations", "@spider": "usps_collection_boxes", "addr:city": "NEW VIENNA", "addr:country": "US", "addr:postcode": "45159", "addr:state": "OH", "addr:street_address": "209 W MAIN ST", "amenity": "post_box", "collection_times": "Mo-Fr 16:15; Sa 11:45", "indoor": "yes", "note": "ON 12/24 AND 12/31, THIS BOX MAY BE COLLECTED AS EARLY AS 12 NOON.", "nsi_id": "unitedstatespostalservice-a77078", "operator": "United States Postal Service", "operator:short": "USPS", "operator:type": "public", "operator:wikidata": "Q668687", "ref": "4515900009"}, "type": "Feature"}
{"geometry": {"coordinates": [-84.139339792, 39.122126155], "type": "Point"}, "id": "hPVViJTt4Fo1QDC7frU8KmKBbOM=", "properties": {"@source_uri": "https://tools.usps.com/UspsToolsRestServices/rest/POLocator/findLocations", "@spider": "usps_collection_boxes", "addr:city": "OWENSVILLE", "addr:country": "US", "addr:postcode": "45160", "addr:state": "OH", "addr:street_address": "285 W MAIN ST", "amenity": "post_box", "collection_times": "Mo-Fr 16:15; Sa 11:15", "note": "ON 12/24 AND 12/31, THIS BOX MAY BE COLLECTED AS EARLY AS 12 NOON.", "nsi_id": "unitedstatespostalservice-a77078", "operator": "United States Postal Service", "operator:short": "USPS", "operator:type": "public", "operator:wikidata": "Q668687", "ref": "4516000002"}, "type": "Feature"}
{"geometry": {"coordinates": [-84.139339792, 39.122126155], "type": "Point"}, "id": "7w-uffXdblpb_9TYW817NJSmg_w=", "properties": {"@source_uri": "https://tools.usps.com/UspsToolsRestServices/rest/POLocator/findLocations", "@spider": "usps_collection_boxes", "addr:city": "OWENSVILLE", "addr:country": "US", "addr:postcode": "45160", "addr:state": "OH", "addr:street_address": "285 W MAIN ST", "amenity": "post_box", "collection_times": "Mo-Fr 16:15; Sa 11:15", "indoor": "yes", "note": "ON 12/24 AND 12/31, THIS BOX MAY BE COLLECTED AS EARLY AS 12 NOON.", "nsi_id": "unitedstatespostalservice-a77078", "operator": "United States Postal Service", "operator:short": "USPS", "operator:type": "public", "operator:wikidata": "Q668687", "ref": "4516000003"}, "type": "Feature"}
{"geometry": {"coordinates": [-84.139339792, 39.122126155], "type": "Point"}, "id": "Gn4s_qQo50WvXgJvdL4mdMM1Q8A=", "properties": {"@source_uri": "https://tools.usps.com/UspsToolsRestServices/rest/POLocator/findLocations", "@spider": "usps_collection_boxes", "addr:city": "OWENSVILLE", "addr:country": "US", "addr:postcode": "45160", "addr:state": "OH", "addr:street_address": "285 W MAIN ST", "amenity": "post_box", "collection_times": "Mo-Fr 16:15; Sa 11:15", "indoor": "yes", "note": "ON 12/24 AND 12/31, THIS BOX MAY BE COLLECTED AS EARLY AS 12 NOON.", "nsi_id": "unitedstatespostalservice-a77078", "operator": "United States Postal Service", "operator:short": "USPS", "operator:type": "public", "operator:wikidata": "Q668687", "ref": "4516000004"}, "type": "Feature"}
{"geometry": {"coordinates": [-84.139339792, 39.122126155], "type": "Point"}, "id": "uuoYrcNzFFW5nBOmACc-9gl2Yis=", "properties": {"@source_uri": "https://tools.usps.com/UspsToolsRestServices/rest/POLocator/findLocations", "@spider": "usps_collection_boxes", "addr:city": "OWENSVILLE", "addr:country": "US", "addr:postcode": "45160", "addr:state": "OH", "addr:street_address": "285 W MAIN ST", "amenity": "post_box", "collection_times": "Mo-Fr 16:15; Sa 11:15", "indoor": "yes", "note": "ON 12/24 AND 12/31, THIS BOX MAY BE COLLECTED AS EARLY AS 12 NOON.", "nsi_id": "unitedstatespostalservice-a77078", "operator": "United States Postal Service", "operator:short": "USPS", "operator:type": "public", "operator:wikidata": "Q668687", "ref": "4516000005"}, "type": "Feature"}
{"geometry": {"coordinates": [-84.139339792, 39.122126155], "type": "Point"}, "id": "QGHyKdfOnZX9qnU-HXDbf2nAb4o=", "properties": {"@source_uri": "https://tools.usps.com/UspsToolsRestServices/rest/POLocator/findLocations", "@spider": "usps_collection_boxes", "addr:city": "OWENSVILLE", "addr:country": "US", "addr:postcode": "45160", "addr:state": "OH", "addr:street_address": "285 W MAIN ST", "amenity": "post_box", "collection_times": "Mo-Fr 16:30; Sa 12:00", "indoor": "yes", "note": "ON 12/24 AND 12/31, THIS BOX MAY BE COLLECTED AS EARLY AS 12 NOON.", "nsi_id": "unitedstatespostalservice-a77078", "operator": "United States Postal Service", "operator:short": "USPS", "operator:type": "public", "operator:wikidata": "Q668687", "ref": "4516000008"}, "type": "Feature"}
{"geometry": {"coordinates": [-84.1128339731, 39.2793539955], "type": "Point"}, "id": "cHstujPnLlwncEUInuEfGEuOAPk=", "properties": {"@source_uri": "https://tools.usps.com/UspsToolsRestServices/rest/POLocator/findLocations", "@spider": "usps_collection_boxes", "addr:city": "PLEASANT PLAIN", "addr:country": "US", "addr:postcode": "45162", "addr:state": "OH", "addr:street_address": "10069 STATE ROUTE 132", "amenity": "post_box", "collection_times": "Mo-Fr 16:00; Sa 11:45", "note": "ON 12/24 AND 12/31, THIS BOX MAY BE COLLECTED AS EARLY AS 12 NOON.", "nsi_id": "unitedstatespostalservice-a77078", "operator": "United States Postal Service", "operator:short": "USPS", "operator:type": "public", "operator:wikidata": "Q668687", "ref": "4516200000"}, "type": "Feature"}
{"geometry": {"coordinates": [-84.1128339731, 39.2793539955], "type": "Point"}, "id": "DzbLBLj1hRUiyc006ioT9qhpAmM=", "properties": {"@source_uri": "https://tools.usps.com/UspsToolsRestServices/rest/POLocator/findLocations", "@spider": "usps_collection_boxes", "addr:city": "PLEASANT PLAIN", "addr:country": "US", "addr:postcode": "45162", "addr:state": "OH", "addr:street_address": "10069 STATE ROUTE 132", "amenity": "post_box", "collection_times": "Mo-Fr 16:00; Sa 11:45", "indoor": "yes", "note": "ON 12/24 AND 12/31, THIS BOX MAY BE COLLECTED AS EARLY AS 12 NOON.", "nsi_id": "unitedstatespostalservice-a77078", "operator": "United States Postal Service", "operator:short": "USPS", "operator:type": "public", "operator:wikidata": "Q668687", "ref": "4516200001"}, "type": "Feature"}
{"geometry": {"coordinates": [-84.1128339731, 39.2793539955], "type": "Point"}, "id": "E5VRWp9wDhSQhmO1UM1Vy18Pi1M=", "properties": {"@source_uri": "https://tools.usps.com/UspsToolsRestServices/rest/POLocator/findLocations", "@spider": "usps_collection_boxes", "addr:city": "PLEASANT PLAIN", "addr:country": "US", "addr:postcode": "45162", "addr:state": "OH", "addr:street_address": "10069 STATE ROUTE 132", "amenity": "post_box", "collection_times": "Mo-Fr 16:00; Sa 11:30", "indoor": "yes", "note": "ON 12/24 AND 12/31, THIS BOX MAY BE COLLECTED AS EARLY AS 12 NOON.", "nsi_id": "unitedstatespostalservice-a77078", "operator": "United States Postal Service", "operator:short": "USPS", "operator:type": "public", "operator:wikidata": "Q668687", "ref": "4516200006"}, "type": "Feature"}
{"geometry": {"coordinates": [-83.7862361, 39.552247016], "type": "Point"}, "id": "z3TmQ-ZJ020u4hXdS6vSK3vPjSU=", "properties": {"@source_uri": "https://tools.usps.com/UspsToolsRestServices/rest/POLocator/findLocations", "@spider": "usps_collection_boxes", "addr:city": "PORT WILLIAM", "addr:country": "US", "addr:postcode": "45164", "addr:state": "OH", "addr:street_address": "227 MAIN ST", "amenity": "post_box", "collection_times": "Mo-Fr 12:00; Sa 11:00", "indoor": "yes", "nsi_id": "unitedstatespostalservice-a77078", "operator": "United States Postal Service", "operator:short": "USPS", "operator:type": "public", "operator:wikidata": "Q668687", "ref": "4516400000"}, "type": "Feature"}
{"geometry": {"coordinates": [-83.7862361, 39.552247016], "type": "Point"}, "id": "Uw4LYksmbAy3yb_FAyx7iqJi774=", "properties": {"@source_uri": "https://tools.usps.com/UspsToolsRestServices/rest/POLocator/findLocations", "@spider": "usps_collection_boxes", "addr:city": "PORT WILLIAM", "addr:country": "US", "addr:postcode": "45164", "addr:state": "OH", "addr:street_address": "227 MAIN ST", "amenity": "post_box", "collection_times": "Mo-Fr 12:00; Sa 11:30", "indoor": "yes", "nsi_id": "unitedstatespostalservice-a77078", "operator": "United States Postal Service", "operator:short": "USPS", "operator:type": "public", "operator:wikidata": "Q668687", "ref": "4516400002"}, "type": "Feature"}
{"geometry": {"coordinates": [-83.676249558, 39.482327304], "type": "Point"}, "id": "-01aEDtDJ_LDUqIYMIiYPrcBGK8=", "properties": {"@source_uri": "https://tools.usps.com/UspsToolsRestServices/rest/POLocator/findLocations", "@spider": "usps_collection_boxes", "addr:city": "REESVILLE", "addr:country": "US", "addr:postcode": "45166", "addr:state": "OH", "addr:street_address": "540 N STATE ROUTE 72", "amenity": "post_box", "collection_times": "Mo-Fr 16:30; Sa 11:30", "note": "ON 12/24 AND 12/31, THIS BOX MAY BE COLLECTED AS EARLY AS 12 NOON.", "nsi_id": "unitedstatespostalservice-a77078", "operator": "United States Postal Service", "operator:short": "USPS", "operator:type": "public", "operator:wikidata": "Q668687", "ref": "4516600000"}, "type": "Feature"}
{"geometry": {"coordinates": [-83.676249558, 39.482327304], "type": "Point"}, "id": "z98ZmhwXdokRPDTgwuhbv6S8ccg=", "properties": {"@source_uri": "https://tools.usps.com/UspsToolsRestServices/rest/POLocator/findLocations", "@spider": "usps_collection_boxes", "addr:city": "REESVILLE", "addr:country": "US", "addr:postcode": "45166", "addr:state": "OH", "addr:street_address": "540 N STATE ROUTE 72", "amenity": "post_box", "collection_times": "Mo-Fr 16:30; Sa 11:30", "indoor": "yes", "note": "ON 12/24 AND 12/31, THIS BOX MAY BE COLLECTED AS EARLY AS 12 NOON.", "nsi_id": "unitedstatespostalservice-a77078", "operator": "United States Postal Service", "operator:short": "USPS", "operator:type": "public", "operator:wikidata": "Q668687", "ref": "4516600001"}, "type": "Feature"}
{"geometry": {"coordinates": [-83.676249558, 39.482327304], "type": "Point"}, "id": "9lA4HnfxKBM6IXKE1KqeVwV2Qk0=", "properties": {"@source_uri": "https://tools.usps.com/UspsToolsRestServices/rest/POLocator/findLocations", "@spider": "usps_collection_boxes", "addr:city": "REESVILLE", "addr:country": "US", "addr:postcode": "45166", "addr:state": "OH", "addr:street_address": "540 N STATE ROUTE 72", "amenity": "post_box", "collection_times": "Mo-Fr 16:30; Sa 12:00", "indoor": "yes", "note": "ON 12/24 AND 12/31, THIS BOX MAY BE COLLECTED AS EARLY AS 12 NOON.", "nsi_id": "unitedstatespostalservice-a77078", "operator": "United States Postal Service", "operator:short": "USPS", "operator:type": "public", "operator:wikidata": "Q668687", "ref": "4516600004"}, "type": "Feature"}
{"geometry": {"coordinates": [-83.8441929705, 38.7443639798], "type": "Point"}, "id": "7ZVH6Ctx1-zyqVvLaHW-xWIHHpU=", "properties": {"@source_uri": "https://tools.usps.com/UspsToolsRestServices/rest/POLocator/findLocations", "@spider": "usps_collection_boxes", "addr:city": "RIPLEY", "addr:country": "US", "addr:postcode": "45167", "addr:state": "OH", "addr:street_address": "100 S 2ND ST", "amenity": "post_box", "collection_times": "Mo-Fr 16:00; Sa 11:30", "note": "ON 12/24 AND 12/31, THIS BOX MAY BE COLLECTED AS EARLY AS 12 NOON.", "nsi_id": "unitedstatespostalservice-a77078", "operator": "United States Postal Service", "operator:short": "USPS", "operator:type": "public", "operator:wikidata": "Q668687", "ref": "4516700001"}, "type": "Feature"}
{"geometry": {"coordinates": [-83.8441929705, 38.7443639798], "type": "Point"}, "id": "QpnkF7MqsRiVmSL1SajOvrbPG0k=", "properties": {"@source_uri": "https://tools.usps.com/UspsToolsRestServices/rest/POLocator/findLocations", "@spider": "usps_collection_boxes", "addr:city": "RIPLEY", "addr:country": "US", "addr:postcode": "45167", "addr:state": "OH", "addr:street_address": "100 S 2ND ST", "amenity": "post_box", "collection_times": "Mo-Fr 16:00; Sa 11:30", "indoor": "yes", "note": "ON 12/24 AND 12/31, THIS BOX MAY BE COLLECTED AS EARLY AS 12 NOON.", "nsi_id": "unitedstatespostalservice-a77078", "operator": "United States Postal Service", "operator:short": "USPS", "operator:type": "public", "operator:wikidata": "Q668687", "ref": "4516700007"}, "type": "Feature"}
{"geometry": {"coordinates": [-83.8441929705, 38.7443639798], "type": "Point"}, "id": "hgCvBJXPpJkn7JK5NMK212_bspk=", "properties": {"@source_uri": "https://tools.usps.com/UspsToolsRestServices/rest/POLocator/findLocations", "@spider": "usps_collection_boxes", "addr:city": "RIPLEY", "addr:country": "US", "addr:postcode": "45167", "addr:state": "OH", "addr:street_address": "100 S 2ND ST", "amenity": "post_box", "collection_times": "Mo-Fr 17:00; Sa 12:00", "indoor": "yes", "note": "ON 12/24 AND 12/31, THIS BOX MAY BE COLLECTED AS EARLY AS 12 NOON.", "nsi_id": "unitedstatespostalservice-a77078", "operator": "United States Postal Service", "operator:short": "USPS", "operator:type": "public", "operator:wikidata": "Q668687", "ref": "4516700013"}, "type": "Feature"}
{"geometry": {"coordinates": [-83.7866507, 38.866757], "type": "Point"}, "id": "tv7xHite-LOQYM3nZVjme1SsDe0=", "properties": {"@source_uri": "https://tools.usps.com/UspsToolsRestServices/rest/POLocator/findLocations", "@spider": "usps_collection_boxes", "addr:city": "RUSSELLVILLE", "addr:country": "US", "addr:postcode": "45168", "addr:state": "OH", "addr:street_address": "6 E MAIN ST", "amenity": "post_box", "collection_times": "Mo-Fr 12:00; Sa 11:00", "nsi_id": "unitedstatespostalservice-a77078", "operator": "United States Postal Service", "operator:short": "USPS", "operator:type": "public", "operator:wikidata": "Q668687", "ref": "4516800000"}, "type": "Feature"}
{"geometry": {"coordinates": [-83.63658738, 39.488895346], "type": "Point"}, "id": "YGiEdmLLJWYGsQPXGJe823COsmQ=", "properties": {"@source_uri": "https://tools.usps.com/UspsToolsRestServices/rest/POLocator/findLocations", "@spider": "usps_collection_boxes", "addr:city": "SABINA", "addr:country": "US", "addr:postcode": "45169", "addr:state": "OH", "addr:street_address": "39 N HOWARD ST", "amenity": "post_box", "collection_times": "Mo-Fr 16:30; Sa 12:00", "indoor": "yes", "note": "ON 12/24 AND 12/31, THIS BOX MAY BE COLLECTED AS EARLY AS 12 NOON.", "nsi_id": "unitedstatespostalservice-a77078", "operator": "United States Postal Service", "operator:short": "USPS", "operator:type": "public", "operator:wikidata": "Q668687", "ref": "4516900000"}, "type": "Feature"}
{"geometry": {"coordinates": [-83.63658738, 39.488895346], "type": "Point"}, "id": "lr0uDVdGkbRM5pYtBjIz2rLujhI=", "properties": {"@source_uri": "https://tools.usps.com/UspsToolsRestServices/rest/POLocator/findLocations", "@spider": "usps_collection_boxes", "addr:city": "SABINA", "addr:country": "US", "addr:postcode": "45169", "addr:state": "OH", "addr:street_address": "39 N HOWARD ST", "amenity": "post_box", "collection_times": "Mo-Fr 16:30; Sa 12:00", "note": "ON 12/24 AND 12/31, THIS BOX MAY BE COLLECTED AS EARLY AS 12 NOON.", "nsi_id": "unitedstatespostalservice-a77078", "operator": "United States Postal Service", "operator:short": "USPS", "operator:type": "public", "operator:wikidata": "Q668687", "ref": "4516900001"}, "type": "Feature"}
{"geometry": {"coordinates": [-83.63658738, 39.488895346], "type": "Point"}, "id": "jwHqZJlSs5YCZkdMzG7N3bcRBHE=", "properties": {"@source_uri": "https://tools.usps.com/UspsToolsRestServices/rest/POLocator/findLocations", "@spider": "usps_collection_boxes", "addr:city": "SABINA", "addr:country": "US", "addr:postcode": "45169", "addr:state": "OH", "addr:street_address": "39 N HOWARD ST", "amenity": "post_box", "collection_times": "Mo-Fr 16:30; Sa 12:00", "indoor": "yes", "note": "ON 12/24 AND 12/31, THIS BOX MAY BE COLLECTED AS EARLY AS 12 NOON.", "nsi_id": "unitedstatespostalservice-a77078", "operator": "United States Postal Service", "operator:short": "USPS", "operator:type": "public", "operator:wikidata": "Q668687", "ref": "4516900010"}, "type": "Feature"}
{"geometry": {"coordinates": [-83.8089429605, 39.0082630045], "type": "Point"}, "id": "wp1jmJ3yTbr5A5bBeS6VpYcneLI=", "properties": {"@source_uri": "https://tools.usps.com/UspsToolsRestServices/rest/POLocator/findLocations", "@spider": "usps_collection_boxes", "addr:city": "SARDINIA", "addr:country": "US", "addr:postcode": "45171", "addr:state": "OH", "addr:street_address": "104 BROAD ST", "amenity": "post_box", "collection_times": "Mo-Fr 16:30; Sa 11:30", "note": "ON 12/24 AND 12/31, THIS BOX MAY BE COLLECTED AS EARLY AS 12 NOON.", "nsi_id": "unitedstatespostalservice-a77078", "operator": "United States Postal Service", "operator:short": "USPS", "operator:type": "public", "operator:wikidata": "Q668687", "ref": "4517100001"}, "type": "Feature"}
{"geometry": {"coordinates": [-83.8100480306, 39.0135850101], "type": "Point"}, "id": "wHnb2gOih3Pix93S0uMU4D0up84=", "properties": {"@source_uri": "https://tools.usps.com/UspsToolsRestServices/rest/POLocator/findLocations", "@spider": "usps_collection_boxes", "addr:city": "SARDINIA", "addr:country": "US", "addr:postcode": "45171", "addr:state": "OH", "addr:street_address": "7110 BACHMAN RD", "amenity": "post_box", "collection_times": "Mo-Sa 13:00", "note": "ON 12/24 AND 12/31, THIS BOX MAY BE COLLECTED AS EARLY AS 12 NOON.", "nsi_id": "unitedstatespostalservice-a77078", "operator": "United States Postal Service", "operator:short": "USPS", "operator:type": "public", "operator:wikidata": "Q668687", "ref": "4517100004"}, "type": "Feature"}
{"geometry": {"coordinates": [-83.8089429605, 39.0082630045], "type": "Point"}, "id": "orpTq4yWk8mrYTYH3LligCagmy4=", "properties": {"@source_uri": "https://tools.usps.com/UspsToolsRestServices/rest/POLocator/findLocations", "@spider": "usps_collection_boxes", "addr:city": "SARDINIA", "addr:country": "US", "addr:postcode": "45171", "addr:state": "OH", "addr:street_address": "104 BROAD ST", "amenity": "post_box", "collection_times": "Mo-Fr 16:30; Sa 11:30", "indoor": "yes", "note": "ON 12/24 AND 12/31, THIS BOX MAY BE COLLECTED AS EARLY AS 12 NOON.", "nsi_id": "unitedstatespostalservice-a77078", "operator": "United States Postal Service", "operator:short": "USPS", "operator:type": "public", "operator:wikidata": "Q668687", "ref": "4517100005"}, "type": "Feature"}
{"geometry": {"coordinates": [-83.8089429605, 39.0082630045], "type": "Point"}, "id": "WbwkEx2sI7ejpCA0IbZmZvlksKQ=", "properties": {"@source_uri": "https://tools.usps.com/UspsToolsRestServices/rest/POLocator/findLocations", "@spider": "usps_collection_boxes", "addr:city": "SARDINIA", "addr:country": "US", "addr:postcode": "45171", "addr:state": "OH", "addr:street_address": "104 BROAD ST", "amenity": "post_box", "collection_times": "Mo-Fr 17:00; Sa 11:30", "indoor": "yes", "note": "ON 12/24 AND 12/31, THIS BOX MAY BE COLLECTED AS EARLY AS 12 NOON.", "nsi_id": "unitedstatespostalservice-a77078", "operator": "United States Postal Service", "operator:short": "USPS", "operator:type": "public", "operator:wikidata": "Q668687", "ref": "4517100012"}, "type": "Feature"}
{"geometry": {"coordinates": [-83.386766677, 39.072688388], "type": "Point"}, "id": "tJ7nFdRclob1-TrMh0NZWCW3N4s=", "properties": {"@source_uri": "https://tools.usps.com/UspsToolsRestServices/rest/POLocator/findLocations", "@spider": "usps_collection_boxes", "addr:city": "SINKING SPRING", "addr:country": "US", "addr:postcode": "45172", "addr:state": "OH", "addr:street_address": "103 S MAIN ST", "amenity": "post_box", "collection_times": "Mo-Sa 10:00", "nsi_id": "unitedstatespostalservice-a77078", "operator": "United States Postal Service", "operator:short": "USPS", "operator:type": "public", "operator:wikidata": "Q668687", "ref": "4517200001"}, "type": "Feature"}
{"geometry": {"coordinates": [-83.386766677, 39.072688388], "type": "Point"}, "id": "1IsqBcnd9eo3lUql3OTpn0W9xIw=", "properties": {"@source_uri": "https://tools.usps.com/UspsToolsRestServices/rest/POLocator/findLocations", "@spider": "usps_collection_boxes", "addr:city": "SINKING SPRING", "addr:country": "US", "addr:postcode": "45172", "addr:state": "OH", "addr:street_address": "103 S MAIN ST", "amenity": "post_box", "collection_times": "Mo-Sa 10:00", "indoor": "yes", "nsi_id": "unitedstatespostalservice-a77078", "operator": "United States Postal Service", "operator:short": "USPS", "operator:type": "public", "operator:wikidata": "Q668687", "ref": "4517200002"}, "type": "Feature"}
{"geometry": {"coordinates": [-83.386766677, 39.072688388], "type": "Point"}, "id": "IZArk67dCc3YI0OnMtSMyRM8Mqo=", "properties": {"@source_uri": "https://tools.usps.com/UspsToolsRestServices/rest/POLocator/findLocations", "@spider": "usps_collection_boxes", "addr:city": "SINKING SPRING", "addr:country": "US", "addr:postcode": "45172", "addr:state": "OH", "addr:street_address": "103 S MAIN ST", "amenity": "post_box", "collection_times": "Mo-Sa 13:00", "indoor": "yes", "note": "ON 12/24 AND 12/31, THIS BOX MAY BE COLLECTED AS EARLY AS 12 NOON.", "nsi_id": "unitedstatespostalservice-a77078", "operator": "United States Postal Service", "operator:short": "USPS", "operator:type": "public", "operator:wikidata": "Q668687", "ref": "4517200005"}, "type": "Feature"}
{"geometry": {"coordinates": [-84.308154288, 39.163010188], "type": "Point"}, "id": "8Y65GMRjNSu66BHspTugbPAPW4c=", "properties": {"@source_uri": "https://tools.usps.com/UspsToolsRestServices/rest/POLocator/findLocations", "@spider": "usps_collection_boxes", "addr:city": "TERRACE PARK", "addr:country": "US", "addr:postcode": "45174", "addr:state": "OH", "addr:street_address": "409 TERRACE PL", "amenity": "post_box", "collection_times": "Mo-Fr 16:45; Sa 11:45", "note": "ON 12/24 AND 12/31, THIS BOX MAY BE COLLECTED AS EARLY AS 12 NOON.", "nsi_id": "unitedstatespostalservice-a77078", "operator": "United States Postal Service", "operator:short": "USPS", "operator:type": "public", "operator:wikidata": "Q668687", "ref": "4517400001"}, "type": "Feature"}
{"geometry": {"coordinates": [-84.3096568, 39.164894], "type": "Point"}, "id": "46yVfwhME319-e302f6-_v2jPY0=", "properties": {"@source_uri": "https://tools.usps.com/UspsToolsRestServices/rest/POLocator/findLocations", "@spider": "usps_collection_boxes", "addr:city": "TERRACE PARK", "addr:country": "US", "addr:postcode": "45174", "addr:state": "OH", "addr:street_address": "705 WOOSTER PIKE", "amenity": "post_box", "collection_times": "Mo-Sa 10:00", "nsi_id": "unitedstatespostalservice-a77078", "operator": "United States Postal Service", "operator:short": "USPS", "operator:type": "public", "operator:wikidata": "Q668687", "ref": "4517400006"}, "type": "Feature"}
{"geometry": {"coordinates": [-84.308154288, 39.163010188], "type": "Point"}, "id": "_Qt0-cxFesUQq9Ao6tcNHhLHYrA=", "properties": {"@source_uri": "https://tools.usps.com/UspsToolsRestServices/rest/POLocator/findLocations", "@spider": "usps_collection_boxes", "addr:city": "TERRACE PARK", "addr:country": "US", "addr:postcode": "45174", "addr:state": "OH", "addr:street_address": "409 TERRACE PL", "amenity": "post_box", "collection_times": "Mo-Fr 17:00; Sa 12:00", "indoor": "yes", "note": "ON 12/24 AND 12/31, THIS BOX MAY BE COLLECTED AS EARLY AS 12 NOON.", "nsi_id": "unitedstatespostalservice-a77078", "operator": "United States Postal Service", "operator:short": "USPS", "operator:type": "public", "operator:wikidata": "Q668687", "ref": "4517400008"}, "type": "Feature"}
{"geometry": {"coordinates": [-84.308154288, 39.163010188], "type": "Point"}, "id": "tdeeQZWgeSeiZ9LXjyiQCuOuxxw=", "properties": {"@source_uri": "https://tools.usps.com/UspsToolsRestServices/rest/POLocator/findLocations", "@spider": "usps_collection_boxes", "addr:city": "TERRACE PARK", "addr:country": "US", "addr:postcode": "45174", "addr:state": "OH", "addr:street_address": "409 TERRACE PL", "amenity": "post_box", "collection_times": "Mo-Fr 17:00; Sa 12:00", "indoor": "yes", "note": "ON 12/24 AND 12/31, THIS BOX MAY BE COLLECTED AS EARLY AS 12 NOON.", "nsi_id": "unitedstatespostalservice-a77078", "operator": "United States Postal Service", "operator:short": "USPS", "operator:type": "public", "operator:wikidata": "Q668687", "ref": "4517400011"}, "type": "Feature"}
{"geometry": {"coordinates": [-84.0576809, 39.056525], "type": "Point"}, "id": "5mishorUxfBM9SN8slObrwltVTE=", "properties": {"@source_uri": "https://tools.usps.com/UspsToolsRestServices/rest/POLocator/findLocations", "@spider": "usps_collection_boxes", "addr:city": "WILLIAMSBURG", "addr:country": "US", "addr:postcode": "45176", "addr:state": "OH", "addr:street_address": "609 W MAIN ST", "amenity": "post_box", "collection_times": "Mo-Sa 12:30", "note": "ON 12/24 AND 12/31, THIS BOX MAY BE COLLECTED AS EARLY AS 12 NOON.", "nsi_id": "unitedstatespostalservice-a77078", "operator": "United States Postal Service", "operator:short": "USPS", "operator:type": "public", "operator:wikidata": "Q668687", "ref": "4517600001"}, "type": "Feature"}
{"geometry": {"coordinates": [-84.05392948, 39.054618219], "type": "Point"}, "id": "dJ5TDaaYE1hsn98EOxdXT6yQ3Zc=", "properties": {"@source_uri": "https://tools.usps.com/UspsToolsRestServices/rest/POLocator/findLocations", "@spider": "usps_collection_boxes", "addr:city": "WILLIAMSBURG", "addr:country": "US", "addr:postcode": "45176", "addr:state": "OH", "addr:street_address": "332 W MAIN ST", "amenity": "post_box", "collection_times": "Mo-Fr 17:00; Sa 12:30", "indoor": "yes", "note": "ON 12/24 AND 12/31, THIS BOX MAY BE COLLECTED AS EARLY AS 12 NOON.", "nsi_id": "unitedstatespostalservice-a77078", "operator": "United States Postal Service", "operator:short": "USPS", "operator:type": "public", "operator:wikidata": "Q668687", "ref": "4517600002"}, "type": "Feature"}
{"geometry": {"coordinates": [-84.0507629, 39.0529], "type": "Point"}, "id": "31REFpjVcWHUYNxkSml5NwsZ1Lw=", "properties": {"@source_uri": "https://tools.usps.com/UspsToolsRestServices/rest/POLocator/findLocations", "@spider": "usps_collection_boxes", "addr:city": "WILLIAMSBURG", "addr:country": "US", "addr:postcode": "45176", "addr:state": "OH", "addr:street_address": "102 W MAIN ST", "amenity": "post_box", "collection_times": "Mo-Fr 14:30; Sa 12:30", "note": "ON 12/24 AND 12/31, THIS BOX MAY BE COLLECTED AS EARLY AS 12 NOON.", "nsi_id": "unitedstatespostalservice-a77078", "operator": "United States Postal Service", "operator:short": "USPS", "operator:type": "public", "operator:wikidata": "Q668687", "ref": "4517600003"}, "type": "Feature"}
{"geometry": {"coordinates": [-84.05392948, 39.054618219], "type": "Point"}, "id": "pRIr5y5IwR1BzHiwQazCGVRqbqU=", "properties": {"@source_uri": "https://tools.usps.com/UspsToolsRestServices/rest/POLocator/findLocations", "@spider": "usps_collection_boxes", "addr:city": "WILLIAMSBURG", "addr:country": "US", "addr:postcode": "45176", "addr:state": "OH", "addr:street_address": "332 W MAIN ST", "amenity": "post_box", "collection_times": "Mo-Fr 17:00; Sa 12:30", "indoor": "yes", "note": "ON 12/24 AND 12/31, THIS BOX MAY BE COLLECTED AS EARLY AS 12 NOON.", "nsi_id": "unitedstatespostalservice-a77078", "operator": "United States Postal Service", "operator:short": "USPS", "operator:type": "public", "operator:wikidata": "Q668687", "ref": "4517600010"}, "type": "Feature"}
{"geometry": {"coordinates": [-83.8272664, 39.444557], "type": "Point"}, "id": "3WV2Gz1WO_ljRbCUtetxZJUyJfY=", "properties": {"@source_uri": "https://tools.usps.com/UspsToolsRestServices/rest/POLocator/findLocations", "@spider": "usps_collection_boxes", "addr:city": "WILMINGTON", "addr:country": "US", "addr:postcode": "45177", "addr:state": "OH", "addr:street_address": "43 S WALNUT ST", "amenity": "post_box", "collection_times": "Mo-Fr 15:30; Sa 10:00", "note": "ON 12/24 AND 12/31, THIS BOX MAY BE COLLECTED AS EARLY AS 12 NOON.", "nsi_id": "unitedstatespostalservice-a77078", "operator": "United States Postal Service", "operator:short": "USPS", "operator:type": "public", "operator:wikidata": "Q668687", "ref": "4517700009"}, "type": "Feature"}
{"geometry": {"coordinates": [-83.847023476, 39.4474604996], "type": "Point"}, "id": "LaNKSBZt2TbScHTktMHqzx1WaXE=", "properties": {"@source_uri": "https://tools.usps.com/UspsToolsRestServices/rest/POLocator/findLocations", "@spider": "usps_collection_boxes", "addr:city": "WILMINGTON", "addr:country": "US", "addr:postcode": "45177", "addr:state": "OH", "addr:street_address": "1052 W LOCUST ST", "amenity": "post_box", "collection_times": "Mo-Sa 10:00", "nsi_id": "unitedstatespostalservice-a77078", "operator": "United States Postal Service", "operator:short": "USPS", "operator:type": "public", "operator:wikidata": "Q668687", "ref": "4517700040"}, "type": "Feature"}
{"geometry": {"coordinates": [-83.803659117, 39.452360027], "type": "Point"}, "id": "sOYG83du8w00Qln_0GAbS0mDBR8=", "properties": {"@source_uri": "https://tools.usps.com/UspsToolsRestServices/rest/POLocator/findLocations", "@spider": "usps_collection_boxes", "addr:city": "WILMINGTON", "addr:country": "US", "addr:postcode": "45177", "addr:state": "OH", "addr:street_address": "1515 ALEX DR", "amenity": "post_box", "collection_times": "Mo-Fr 17:00; Sa 16:00", "note": "ON 12/24 AND 12/31, THIS BOX MAY BE COLLECTED AS EARLY AS 12 NOON.", "nsi_id": "unitedstatespostalservice-a77078", "operator": "United States Postal Service", "operator:short": "USPS", "operator:type": "public", "operator:wikidata": "Q668687", "ref": "4517700045"}, "type": "Feature"}
{"geometry": {"coordinates": [-83.803659117, 39.452360027], "type": "Point"}, "id": "62WrW4Z66zgiYiAnTdrr2OaAg2k=", "properties": {"@source_uri": "https://tools.usps.com/UspsToolsRestServices/rest/POLocator/findLocations", "@spider": "usps_collection_boxes", "addr:city": "WILMINGTON", "addr:country": "US", "addr:postcode": "45177", "addr:state": "OH", "addr:street_address": "1515 ALEX DR", "amenity": "post_box", "collection_times": "Mo-Fr 17:00; Sa 16:00", "indoor": "yes", "note": "ON 12/24 AND 12/31, THIS BOX MAY BE COLLECTED AS EARLY AS 12 NOON.", "nsi_id": "unitedstatespostalservice-a77078", "operator": "United States Postal Service", "operator:short": "USPS", "operator:type": "public", "operator:wikidata": "Q668687", "ref": "4517700048"}, "type": "Feature"}
{"geometry": {"coordinates": [-83.803659117, 39.452360027], "type": "Point"}, "id": "Jes5cYSfJY9CQw6XJWPbNKXUqc0=", "properties": {"@source_uri": "https://tools.usps.com/UspsToolsRestServices/rest/POLocator/findLocations", "@spider": "usps_collection_boxes", "addr:city": "WILMINGTON", "addr:country": "US", "addr:postcode": "45177", "addr:state": "OH", "addr:street_address": "1515 ALEX DR", "amenity": "post_box", "collection_times": "Mo-Fr 17:00; Sa 16:00", "indoor": "yes", "note": "ON 12/24 AND 12/31, THIS BOX MAY BE COLLECTED AS EARLY AS 12 NOON.", "nsi_id": "unitedstatespostalservice-a77078", "operator": "United States Postal Service", "operator:short": "USPS", "operator:type": "public", "operator:wikidata": "Q668687", "ref": "4517700049"}, "type": "Feature"}
{"geometry": {"coordinates": [-83.803659117, 39.452360027], "type": "Point"}, "id": "hqdG-RKCnYLXEpjgWAksUQCuzkc=", "properties": {"@source_uri": "https://tools.usps.com/UspsToolsRestServices/rest/POLocator/findLocations", "@spider": "usps_collection_boxes", "addr:city": "WILMINGTON", "addr:country": "US", "addr:postcode": "45177", "addr:state": "OH", "addr:street_address": "1515 ALEX DR", "amenity": "post_box", "collection_times": "Mo-Fr 17:00; Sa 16:00", "indoor": "yes", "note": "ON 12/24 AND 12/31, THIS BOX MAY BE COLLECTED AS EARLY AS 12 NOON.", "nsi_id": "unitedstatespostalservice-a77078", "operator": "United States Postal Service", "operator:short": "USPS", "operator:type": "public", "operator:wikidata": "Q668687", "ref": "4517700050"}, "type": "Feature"}
{"geometry": {"coordinates": [-83.8321831, 39.433025], "type": "Point"}, "id": "ptAI6GBlgS1VeVohzq-ma59DHEE=", "properties": {"@source_uri": "https://tools.usps.com/UspsToolsRestServices/rest/POLocator/findLocations", "@spider": "usps_collection_boxes", "addr:city": "WILMINGTON", "addr:country": "US", "addr:postcode": "45177", "addr:state": "OH", "addr:street_address": "953 S SOUTH ST", "amenity": "post_box", "collection_times": "Mo-Sa 15:00", "note": "ON 12/24 AND 12/31, THIS BOX MAY BE COLLECTED AS EARLY AS 12 NOON.", "nsi_id": "unitedstatespostalservice-a77078", "operator": "United States Postal Service", "operator:short": "USPS", "operator:type": "public", "operator:wikidata": "Q668687", "ref": "4517700051"}, "type": "Feature"}
{"geometry": {"coordinates": [-83.8268878, 39.445373], "type": "Point"}, "id": "dYp2mBFRpHdLQ9IabCr50ysAN8o=", "properties": {"@source_uri": "https://tools.usps.com/UspsToolsRestServices/rest/POLocator/findLocations", "@spider": "usps_collection_boxes", "addr:city": "WILMINGTON", "addr:country": "US", "addr:postcode": "45177", "addr:state": "OH", "addr:street_address": "103 E MAIN ST", "amenity": "post_box", "collection_times": "Mo-Fr 15:30; Sa 15:00", "note": "ON 12/24 AND 12/31, THIS BOX MAY BE COLLECTED AS EARLY AS 12 NOON.", "nsi_id": "unitedstatespostalservice-a77078", "operator": "United States Postal Service", "operator:short": "USPS", "operator:type": "public", "operator:wikidata": "Q668687", "ref": "4517700053"}, "type": "Feature"}
{"geometry": {"coordinates": [-83.803659117, 39.452360027], "type": "Point"}, "id": "VndAa7Fj-hOw4TGzpOmn6xfehkg=", "properties": {"@source_uri": "https://tools.usps.com/UspsToolsRestServices/rest/POLocator/findLocations", "@spider": "usps_collection_boxes", "addr:city": "WILMINGTON", "addr:country": "US", "addr:postcode": "45177", "addr:state": "OH", "addr:street_address": "1515 ALEX DR", "amenity": "post_box", "collection_times": "Mo-Fr 17:00; Sa 12:00", "indoor": "yes", "note": "ON 12/24 AND 12/31, THIS BOX MAY BE COLLECTED AS EARLY AS 12 NOON.", "nsi_id": "unitedstatespostalservice-a77078", "operator": "United States Postal Service", "operator:short": "USPS", "operator:type": "public", "operator:wikidata": "Q668687", "ref": "4517700056"}, "type": "Feature"}
