{"geometry": {"coordinates": [-84.337583231, 39.144266097], "type": "Point"}, "id": "XODX7XIWAwoIz4gPHAKLOfWOr7Y=", "properties": {"@spider": "usps_collection_boxes", "addr:city": "CINCINNATI", "addr:country": "US", "addr:full": "8288 WOOSTER PIKE", "addr:postcode": "45227", "addr:state": "OH", "brand": "USPS", "collection_times": "Mo-Sa 10:00", "name": "USPS COLLECTION BOX - BLUE BOX", "ref": "4522700042"}, "type": "Feature"}
{"geometry": {"coordinates": [-84.359867364, 39.072982612], "type": "Point"}, "id": "AoHY-3pXeQXV8mjMWErVHmCRwxs=", "properties": {"@spider": "usps_collection_boxes", "addr:city": "CINCINNATI", "addr:country": "US", "addr:full": "7171 BEECHMONT AVE", "addr:postcode": "45230", "addr:state": "OH", "brand": "USPS", "collection_times": "Mo-Sa 09:00", "name": "USPS COLLECTION BOX - BLUE BOX", "ref": "4523000017"}, "type": "Feature"}
{"geometry": {"coordinates": [-84.352143889, 39.075180582], "type": "Point"}, "id": "J_qD3IjgQFgG0D93KftzXnCqKrA=", "properties": {"@spider": "usps_collection_boxes", "addr:city": "CINCINNATI", "addr:country": "US", "addr:full": "7741 5 MILE RD", "addr:postcode": "45230", "addr:state": "OH", "brand": "USPS", "collection_times": "Mo-Fr 09:00", "name": "USPS COLLECTION BOX - BLUE BOX", "ref": "4523000021"}, "type": "Feature"}
{"geometry": {"coordinates": [-84.351435617, 39.085429651], "type": "Point"}, "id": "MxSxVgVxEv33ACs7c_X7LqorXhk=", "properties": {"@spider": "usps_collection_boxes", "addr:city": "CINCINNATI", "addr:country": "US", "addr:full": "8000 5 MILE RD", "addr:postcode": "45230", "addr:state": "OH", "brand": "USPS", "collection_times": "Mo-Fr 09:00", "name": "USPS COLLECTION BOX - BLUE BOX", "ref": "4523000023"}, "type": "Feature"}
{"geometry": {"coordinates": [-84.353484035, 39.069298512], "type": "Point"}, "id": "IfHj1iSdzVoB8e-B_f3HrN2yhaI=", "properties": {"@spider": "usps_collection_boxes", "addr:city": "CINCINNATI", "addr:country": "US", "addr:full": "1080 NIMITZVIEW DR", "addr:postcode": "45230", "addr:state": "OH", "brand": "USPS", "collection_times": "Mo-Sa 09:00", "name": "USPS COLLECTION BOX - BLUE BOX", "ref": "4523000024"}, "type": "Feature"}
{"geometry": {"coordinates": [-84.351668803, 39.066360736], "type": "Point"}, "id": "307IdXK5lxC9bRO9lqf9kIrSqPU=", "properties": {"@spider": "usps_collection_boxes", "addr:city": "CINCINNATI", "addr:country": "US", "addr:full": "7400 JAGER CT", "addr:postcode": "45230", "addr:state": "OH", "brand": "USPS", "collection_times": "Mo-Fr 09:00", "name": "USPS COLLECTION BOX - BLUE BOX", "ref": "4523000026"}, "type": "Feature"}
{"geometry": {"coordinates": [-84.370892613, 39.203726755], "type": "Point"}, "id": "1rqwG_OJ_nBM1MqR46AQHwwsxys=", "properties": {"@spider": "usps_collection_boxes", "addr:city": "BLUE ASH", "addr:country": "US", "addr:full": "8025 HOSBROOK RD", "addr:postcode": "45236", "addr:state": "OH", "brand": "USPS", "collection_times": "Mo-Fr 15:30", "name": "USPS COLLECTION BOX - BLUE BOX", "note": "ON 12/24 AND 12/31, THIS BOX MAY BE COLLECTED AS EARLY AS 12 NOON.", "ref": "4523600075"}, "type": "Feature"}
{"geometry": {"coordinates": [-84.366837854, 39.205799754], "type": "Point"}, "id": "STCgQ_Z7PdLQvZRNp4CX71Akbdk=", "properties": {"@spider": "usps_collection_boxes", "addr:city": "BLUE ASH", "addr:country": "US", "addr:full": "8230 MONTGOMERY RD", "addr:postcode": "45236", "addr:state": "OH", "brand": "USPS", "collection_times": "Mo-Fr 15:30", "name": "USPS COLLECTION BOX - BLUE BOX", "note": "ON 12/24 AND 12/31, THIS BOX MAY BE COLLECTED AS EARLY AS 12 NOON.", "ref": "4523600082"}, "type": "Feature"}
{"geometry": {"coordinates": [-84.355799311, 39.226520052], "type": "Point"}, "id": "oNUzhLTy-m1TiDzmg7k-nst-psE=", "properties": {"@spider": "usps_collection_boxes", "addr:city": "BLUE ASH", "addr:country": "US", "addr:full": "7817 COOPER RD", "addr:postcode": "45242", "addr:state": "OH", "brand": "USPS", "collection_times": "Mo-Fr 16:15; Sa 10:30", "name": "USPS COLLECTION BOX - BLUE BOX", "note": "ON 12/24 AND 12/31, THIS BOX MAY BE COLLECTED AS EARLY AS 12 NOON.", "ref": "4524200016"}, "type": "Feature"}
{"geometry": {"coordinates": [-84.34929372, 39.238585772], "type": "Point"}, "id": "prw9kibTKOzCqI11bjCCvlCBjNg=", "properties": {"@spider": "usps_collection_boxes", "addr:city": "BLUE ASH", "addr:country": "US", "addr:full": "9979 MONTGOMERY RD", "addr:postcode": "45242", "addr:state": "OH", "brand": "USPS", "collection_times": "Mo-Fr 15:45; Sa 11:00", "name": "USPS COLLECTION BOX - BLUE BOX", "note": "ON 12/24 AND 12/31, THIS BOX MAY BE COLLECTED AS EARLY AS 12 NOON.", "ref": "4524200048"}, "type": "Feature"}
{"geometry": {"coordinates": [-84.345385594, 39.259716421], "type": "Point"}, "id": "wHwUpAZRx8qQtGxy1r0cmTQ2Ayk=", "properties": {"@spider": "usps_collection_boxes", "addr:city": "BLUE ASH", "addr:country": "US", "addr:full": "7950 VILLAGE DR", "addr:postcode": "45242", "addr:state": "OH", "brand": "USPS", "collection_times": "Mo-Sa 09:00", "name": "USPS COLLECTION BOX - BLUE BOX", "ref": "4524200060"}, "type": "Feature"}
{"geometry": {"coordinates": [-84.344076002, 39.251673356], "type": "Point"}, "id": "0zpLdg225HVTvDNsXPgSweYcM1Y=", "properties": {"@spider": "usps_collection_boxes", "addr:city": "BLUE ASH", "addr:country": "US", "addr:full": "10545 MONTGOMERY RD", "addr:postcode": "45242", "addr:state": "OH", "brand": "USPS", "collection_times": "Mo-Fr 09:00", "name": "USPS COLLECTION BOX - BLUE BOX", "ref": "4524200062"}, "type": "Feature"}
{"geometry": {"coordinates": [-84.344344376, 39.250546302], "type": "Point"}, "id": "w1XH1IQT5aQRA_bDZhFe398VCSc=", "properties": {"@spider": "usps_collection_boxes", "addr:city": "BLUE ASH", "addr:country": "US", "addr:full": "10495 MONTGOMERY RD", "addr:postcode": "45242", "addr:state": "OH", "brand": "USPS", "collection_times": "Mo-Fr 16:30", "name": "USPS COLLECTION BOX - BLUE BOX", "note": "ON 12/24 AND 12/31, THIS BOX MAY BE COLLECTED AS EARLY AS 12 NOON.", "ref": "4524200065"}, "type": "Feature"}
{"geometry": {"coordinates": [-84.340782537, 39.261284716], "type": "Point"}, "id": "h0SoAAGT4jbvVDRRALe-wKiYEGc=", "properties": {"@spider": "usps_collection_boxes", "addr:city": "BLUE ASH", "addr:country": "US", "addr:full": "8150 CORPORATE PARK DR", "addr:postcode": "45242", "addr:state": "OH", "brand": "USPS", "collection_times": "Mo-Fr 16:30", "name": "USPS COLLECTION BOX - BLUE BOX", "note": "ON 12/24 AND 12/31, THIS BOX MAY BE COLLECTED AS EARLY AS 12 NOON.", "ref": "4524200068"}, "type": "Feature"}
{"geometry": {"coordinates": [-84.340782537, 39.261284716], "type": "Point"}, "id": "37JCPc99Plsv-3woGSpiLbXJXyc=", "properties": {"@spider": "usps_collection_boxes", "addr:city": "BLUE ASH", "addr:country": "US", "addr:full": "8150 CORPORATE PARK DR", "addr:postcode": "45242", "addr:state": "OH", "brand": "USPS", "collection_times": "Mo-Fr 16:30", "name": "USPS COLLECTION BOX - BLUE BOX", "note": "ON 12/24 AND 12/31, THIS BOX MAY BE COLLECTED AS EARLY AS 12 NOON.", "ref": "4524200069"}, "type": "Feature"}
{"geometry": {"coordinates": [-84.356674552, 39.222080926], "type": "Point"}, "id": "enIl8v1nBbXD8LYBTtd_oNH5XIw=", "properties": {"@spider": "usps_collection_boxes", "addr:city": "BLUE ASH", "addr:country": "US", "addr:full": "9157 MONTGOMERY RD", "addr:postcode": "45242", "addr:state": "OH", "brand": "USPS", "collection_times": "Mo-Fr 15:00", "name": "USPS COLLECTION BOX - BLUE BOX", "note": "ON 12/24 AND 12/31, THIS BOX MAY BE COLLECTED AS EARLY AS 12 NOON.", "ref": "4524200073"}, "type": "Feature"}
{"geometry": {"coordinates": [-84.356620444, 39.222038107], "type": "Point"}, "id": "YYyyCiUJvGkb9egOWOhH1Jbyj5o=", "properties": {"@spider": "usps_collection_boxes", "addr:city": "BLUE ASH", "addr:country": "US", "addr:full": "9200 MONTGOMERY RD", "addr:postcode": "45242", "addr:state": "OH", "brand": "USPS", "collection_times": "Mo-Fr 16:15", "name": "USPS COLLECTION BOX - BLUE BOX", "note": "ON 12/24 AND 12/31, THIS BOX MAY BE COLLECTED AS EARLY AS 12 NOON.", "ref": "4524200075"}, "type": "Feature"}
{"geometry": {"coordinates": [-84.343288216, 39.255655595], "type": "Point"}, "id": "3xz1Qs2R_CpXdY-zjAqYmRBfk1o=", "properties": {"@spider": "usps_collection_boxes", "addr:city": "BLUE ASH", "addr:country": "US", "addr:full": "10620 MONTGOMERY RD", "addr:postcode": "45242", "addr:state": "OH", "brand": "USPS", "collection_times": "Mo-Fr 09:00", "name": "USPS COLLECTION BOX - BLUE BOX", "ref": "4524200087"}, "type": "Feature"}
{"geometry": {"coordinates": [-84.3613122111, 39.1895310824], "type": "Point"}, "id": "Pl5v4HMkhzKWRbkjoxfnybMylW4=", "properties": {"@spider": "usps_collection_boxes", "addr:city": "CINCINNATI", "addr:country": "US", "addr:full": "7737 LAUREL AVE", "addr:postcode": "45243", "addr:state": "OH", "brand": "USPS", "collection_times": "Mo-Fr 17:00; Sa 13:00", "name": "USPS COLLECTION BOX - BLUE BOX", "note": "ON 12/24 AND 12/31, THIS BOX MAY BE COLLECTED AS EARLY AS 12 NOON.", "ref": "4524300039"}, "type": "Feature"}
{"geometry": {"coordinates": [-84.3613122111, 39.1895310824], "type": "Point"}, "id": "Rt8YCKB_pyi6t6T_uof9UbHsfK8=", "properties": {"@spider": "usps_collection_boxes", "addr:city": "CINCINNATI", "addr:country": "US", "addr:full": "7737 LAUREL AVE", "addr:postcode": "45243", "addr:state": "OH", "brand": "USPS", "collection_times": "Mo-Fr 17:00; Sa 13:00", "name": "USPS COLLECTION BOX - BLUE BOX", "note": "ON 12/24 AND 12/31, THIS BOX MAY BE COLLECTED AS EARLY AS 12 NOON.", "ref": "4524300040"}, "type": "Feature"}
{"geometry": {"coordinates": [-84.3613122111, 39.1895310824], "type": "Point"}, "id": "BppyMDnz1OanT-8qtjP9O1qT-qg=", "properties": {"@spider": "usps_collection_boxes", "addr:city": "CINCINNATI", "addr:country": "US", "addr:full": "7737 LAUREL AVE", "addr:postcode": "45243", "addr:state": "OH", "brand": "USPS", "collection_times": "Mo-Fr 17:00; Sa 13:00", "name": "USPS COLLECTION BOX - BLUE BOX", "note": "ON 12/24 AND 12/31, THIS BOX MAY BE COLLECTED AS EARLY AS 12 NOON.", "ref": "4524300041"}, "type": "Feature"}
{"geometry": {"coordinates": [-84.345266621, 39.182508597], "type": "Point"}, "id": "FJNw_0upzNkhSvA2wWDIFLuxtUk=", "properties": {"@spider": "usps_collection_boxes", "addr:city": "CINCINNATI", "addr:country": "US", "addr:full": "6525 DRAKE RD", "addr:postcode": "45243", "addr:state": "OH", "brand": "USPS", "collection_times": "Mo-Sa 09:00", "name": "USPS COLLECTION BOX - BLUE BOX", "ref": "4524300048"}, "type": "Feature"}
{"geometry": {"coordinates": [-84.363332821, 39.188367526], "type": "Point"}, "id": "woSAAVfokLnzPkd-tmxwv0qIh-s=", "properties": {"@spider": "usps_collection_boxes", "addr:city": "CINCINNATI", "addr:country": "US", "addr:full": "7001 MIAMI AVE", "addr:postcode": "45243", "addr:state": "OH", "brand": "USPS", "collection_times": "Mo-Sa 09:00", "name": "USPS COLLECTION BOX - BLUE BOX", "ref": "4524300058"}, "type": "Feature"}
{"geometry": {"coordinates": [-84.3613122111, 39.1895310824], "type": "Point"}, "id": "n1xtX0NW_YMfbYgKKjUIRuS2PQU=", "properties": {"@spider": "usps_collection_boxes", "addr:city": "CINCINNATI", "addr:country": "US", "addr:full": "7737 LAUREL AVE", "addr:postcode": "45243", "addr:state": "OH", "brand": "USPS", "collection_times": "Mo-Fr 17:00; Sa 13:00", "name": "USPS COLLECTION BOX - PO LOBBY", "note": "ON 12/24 AND 12/31, THIS BOX MAY BE COLLECTED AS EARLY AS 12 NOON.", "ref": "4524300060"}, "type": "Feature"}
{"geometry": {"coordinates": [-84.3613122111, 39.1895310824], "type": "Point"}, "id": "tnMgwdXBiQXEayBRZ1KNcRxvb54=", "properties": {"@spider": "usps_collection_boxes", "addr:city": "CINCINNATI", "addr:country": "US", "addr:full": "7737 LAUREL AVE", "addr:postcode": "45243", "addr:state": "OH", "brand": "USPS", "collection_times": "Mo-Fr 17:00; Sa 13:00", "name": "USPS COLLECTION BOX - APC", "note": "ON 12/24 AND 12/31, THIS BOX MAY BE COLLECTED AS EARLY AS 12 NOON.", "ref": "4524300063"}, "type": "Feature"}
{"geometry": {"coordinates": [-84.3613122111, 39.1895310824], "type": "Point"}, "id": "Ul8QPsMYccJnNNb6wtF-GWFHezY=", "properties": {"@spider": "usps_collection_boxes", "addr:city": "CINCINNATI", "addr:country": "US", "addr:full": "7737 LAUREL AVE", "addr:postcode": "45243", "addr:state": "OH", "brand": "USPS", "collection_times": "Mo-Fr 17:00; Sa 13:00", "name": "USPS COLLECTION BOX - BLUE BOX", "note": "ON 12/24 AND 12/31, THIS BOX MAY BE COLLECTED AS EARLY AS 12 NOON.", "ref": "4524300065"}, "type": "Feature"}
{"geometry": {"coordinates": [-84.3613122111, 39.1895310824], "type": "Point"}, "id": "ljeUfOkAvz73qD38Xxs1bUFNm6Y=", "properties": {"@spider": "usps_collection_boxes", "addr:city": "CINCINNATI", "addr:country": "US", "addr:full": "7737 LAUREL AVE", "addr:postcode": "45243", "addr:state": "OH", "brand": "USPS", "collection_times": "Mo-Fr 18:00; Sa 13:00", "name": "USPS COLLECTION BOX - PO LOBBY", "note": "ON 12/24 AND 12/31, THIS BOX MAY BE COLLECTED AS EARLY AS 12 NOON.", "ref": "4524300068"}, "type": "Feature"}
{"geometry": {"coordinates": [-84.273183864, 39.102628024], "type": "Point"}, "id": "scQ46HOAun-GXbi-GdANcb6VJdw=", "properties": {"@spider": "usps_collection_boxes", "addr:city": "CINCINNATI", "addr:country": "US", "addr:full": "4601 EASTGATE BLVD", "addr:postcode": "45245", "addr:state": "OH", "brand": "USPS", "collection_times": "Mo-Sa 09:00", "name": "USPS COLLECTION BOX - BLUE BOX", "ref": "4524500006"}, "type": "Feature"}
{"geometry": {"coordinates": [-84.266298878, 39.05919937], "type": "Point"}, "id": "0uHfom9VqFbNRb_HIkSD1wjiR_Q=", "properties": {"@spider": "usps_collection_boxes", "addr:city": "CINCINNATI", "addr:country": "US", "addr:full": "975 OHIO PIKE", "addr:postcode": "45245", "addr:state": "OH", "brand": "USPS", "collection_times": "Mo-Sa 09:00", "name": "USPS COLLECTION BOX - BLUE BOX", "ref": "4524500015"}, "type": "Feature"}
{"geometry": {"coordinates": [-84.287488207, 39.065113141], "type": "Point"}, "id": "AjwoXTI1CFk5vpnn5Kn11qZYxXA=", "properties": {"@spider": "usps_collection_boxes", "addr:city": "CINCINNATI", "addr:country": "US", "addr:full": "723 OHIO PIKE", "addr:postcode": "45245", "addr:state": "OH", "brand": "USPS", "collection_times": "Mo-Sa 09:00", "name": "USPS COLLECTION BOX - BLUE BOX", "ref": "4524500018"}, "type": "Feature"}
{"geometry": {"coordinates": [-84.264714442, 39.096282997], "type": "Point"}, "id": "hh-OekOryYdjkKkXe4snk9j0qvE=", "properties": {"@spider": "usps_collection_boxes", "addr:city": "CINCINNATI", "addr:country": "US", "addr:full": "888 EASTGATE NORTH DR", "addr:postcode": "45245", "addr:state": "OH", "brand": "USPS", "collection_times": "Mo-Sa 09:00", "name": "USPS COLLECTION BOX - BLUE BOX", "ref": "4524500019"}, "type": "Feature"}
{"geometry": {"coordinates": [-84.274737177, 39.090827016], "type": "Point"}, "id": "hQWUyAjAm2l88ESSgbOqo4m6DZA=", "properties": {"@spider": "usps_collection_boxes", "addr:city": "CINCINNATI", "addr:country": "US", "addr:full": "4350 AICHOLTZ RD", "addr:postcode": "45245", "addr:state": "OH", "brand": "USPS", "collection_times": "Mo-Fr 14:30; Sa 13:30", "name": "USPS COLLECTION BOX - BLUE BOX", "note": "ON 12/24 AND 12/31, THIS BOX MAY BE COLLECTED AS EARLY AS 12 NOON.", "ref": "4524500020"}, "type": "Feature"}
{"geometry": {"coordinates": [-84.286317401, 39.08989253], "type": "Point"}, "id": "X5smoMiisy6fWfHbggxaI_8lbbA=", "properties": {"@spider": "usps_collection_boxes", "addr:city": "CINCINNATI", "addr:country": "US", "addr:full": "4289 IVY POINTE BLVD", "addr:postcode": "45245", "addr:state": "OH", "brand": "USPS", "collection_times": "Mo-Fr 09:00", "name": "USPS COLLECTION BOX - BLUE BOX", "ref": "4524500023"}, "type": "Feature"}
{"geometry": {"coordinates": [-84.323244592, 39.2902911], "type": "Point"}, "id": "gFfDLKFPjhqT8sNHdJNQVGcYu5U=", "properties": {"@spider": "usps_collection_boxes", "addr:city": "CINCINNATI", "addr:country": "US", "addr:full": "12131 SYCAMORE TERRACE DR", "addr:postcode": "45249", "addr:state": "OH", "brand": "USPS", "collection_times": "Mo-Sa 09:00", "name": "USPS COLLECTION BOX - BLUE BOX", "ref": "4524900002"}, "type": "Feature"}
{"geometry": {"coordinates": [-84.327562197, 39.272181675], "type": "Point"}, "id": "PfgrtG0epQm7M40PR-WJIW6mpLI=", "properties": {"@spider": "usps_collection_boxes", "addr:city": "CINCINNATI", "addr:country": "US", "addr:full": "11354 MONTGOMERY RD", "addr:postcode": "45249", "addr:state": "OH", "brand": "USPS", "collection_times": "Mo-Fr 14:00; Sa 12:00", "name": "USPS COLLECTION BOX - BLUE BOX", "note": "ON 12/24 AND 12/31, THIS BOX MAY BE COLLECTED AS EARLY AS 12 NOON.", "ref": "4524900009"}, "type": "Feature"}
{"geometry": {"coordinates": [-84.322112189, 39.276417949], "type": "Point"}, "id": "K6g6J-tfFQmAGdoZrTHcwMWObpA=", "properties": {"@spider": "usps_collection_boxes", "addr:city": "CINCINNATI", "addr:country": "US", "addr:full": "8726 REDCLOUD CT", "addr:postcode": "45249", "addr:state": "OH", "brand": "USPS", "collection_times": "Mo-Sa 09:00", "name": "USPS COLLECTION BOX - BLUE BOX", "ref": "4524900014"}, "type": "Feature"}
{"geometry": {"coordinates": [-84.323088, 39.286503], "type": "Point"}, "id": "SzYbcmNGTHZjA_Zc_aEC6kuePKw=", "properties": {"@spider": "usps_collection_boxes", "addr:city": "CINCINNATI", "addr:country": "US", "addr:full": "8650 GOVERNORS HILL DR", "addr:postcode": "45249", "addr:state": "OH", "brand": "USPS", "collection_times": "Mo-Fr 09:00", "name": "USPS COLLECTION BOX - BLUE BOX", "ref": "4524900017"}, "type": "Feature"}
{"geometry": {"coordinates": [-84.318360107, 39.289425931], "type": "Point"}, "id": "mbaVRad2-knLSG1SlXNwMshZpY0=", "properties": {"@spider": "usps_collection_boxes", "addr:city": "CINCINNATI", "addr:country": "US", "addr:full": "8845 GOVERNORS HILL DR", "addr:postcode": "45249", "addr:state": "OH", "brand": "USPS", "collection_times": "Mo-Fr 09:00", "name": "USPS COLLECTION BOX - BLUE BOX", "ref": "4524900018"}, "type": "Feature"}
{"geometry": {"coordinates": [-84.307832315, 39.28657031], "type": "Point"}, "id": "euwxN-6Tv5QHZB26o3n8efMK_30=", "properties": {"@spider": "usps_collection_boxes", "addr:city": "CINCINNATI", "addr:country": "US", "addr:full": "11923 MONTGOMERY RD", "addr:postcode": "45249", "addr:state": "OH", "brand": "USPS", "collection_times": "Mo-Fr 09:00", "name": "USPS COLLECTION BOX - BLUE BOX", "ref": "4524900025"}, "type": "Feature"}
{"geometry": {"coordinates": [-84.328240376, 39.273304356], "type": "Point"}, "id": "CzFCoRJ_MrskuyLKyPStGLqkU-0=", "properties": {"@spider": "usps_collection_boxes", "addr:city": "CINCINNATI", "addr:country": "US", "addr:full": "8534 E KEMPER RD", "addr:postcode": "45249", "addr:state": "OH", "brand": "USPS", "collection_times": "Mo-Fr 12:00", "name": "USPS COLLECTION BOX - BLUE BOX", "ref": "4524900034"}, "type": "Feature"}
{"geometry": {"coordinates": [-84.302282001, 39.290939451], "type": "Point"}, "id": "IlIOb2eC8E0puRLJewZ3LD3k_to=", "properties": {"@spider": "usps_collection_boxes", "addr:city": "CINCINNATI", "addr:country": "US", "addr:full": "9370 FIELDS ERTEL RD", "addr:postcode": "45249", "addr:state": "OH", "brand": "USPS", "collection_times": "Mo-Fr 17:00; Sa 15:45", "name": "USPS COLLECTION BOX - PO LOBBY", "note": "ON 12/24 AND 12/31, THIS BOX MAY BE COLLECTED AS EARLY AS 12 NOON.", "ref": "4524900035"}, "type": "Feature"}
{"geometry": {"coordinates": [-84.302282001, 39.290939451], "type": "Point"}, "id": "hBFA4f2uIuS28BHfQmo1eMgVAEw=", "properties": {"@spider": "usps_collection_boxes", "addr:city": "CINCINNATI", "addr:country": "US", "addr:full": "9370 FIELDS ERTEL RD", "addr:postcode": "45249", "addr:state": "OH", "brand": "USPS", "collection_times": "Mo-Fr 17:00; Sa 15:45", "name": "USPS COLLECTION BOX - PO LOBBY", "note": "ON 12/24 AND 12/31, THIS BOX MAY BE COLLECTED AS EARLY AS 12 NOON.", "ref": "4524900036"}, "type": "Feature"}
{"geometry": {"coordinates": [-84.302309996, 39.291812982], "type": "Point"}, "id": "IUrN2zfsD0jkhLLVkJ7lQRyU7ec=", "properties": {"@spider": "usps_collection_boxes", "addr:city": "CINCINNATI", "addr:country": "US", "addr:full": "9370 FIELDS ERTEL RD", "addr:postcode": "45249", "addr:state": "OH", "brand": "USPS", "collection_times": "Mo-Fr 17:00; Sa 15:45", "name": "USPS COLLECTION BOX - BLUE BOX", "note": "ON 12/24 AND 12/31, THIS BOX MAY BE COLLECTED AS EARLY AS 12 NOON.", "ref": "4524900038"}, "type": "Feature"}
{"geometry": {"coordinates": [-84.302282001, 39.290939451], "type": "Point"}, "id": "wtgOQDgoDq_rr4PoYHMzlooPKSE=", "properties": {"@spider": "usps_collection_boxes", "addr:city": "CINCINNATI", "addr:country": "US", "addr:full": "9370 FIELDS ERTEL RD", "addr:postcode": "45249", "addr:state": "OH", "brand": "USPS", "collection_times": "Mo-Fr 17:00; Sa 15:45", "name": "USPS COLLECTION BOX - BLUE BOX", "note": "ON 12/24 AND 12/31, THIS BOX MAY BE COLLECTED AS EARLY AS 12 NOON.", "ref": "4524900039"}, "type": "Feature"}
{"geometry": {"coordinates": [-84.302282001, 39.290939451], "type": "Point"}, "id": "PD9Y-4G7zi1_TeOcWyGPR6K-uoo=", "properties": {"@spider": "usps_collection_boxes", "addr:city": "CINCINNATI", "addr:country": "US", "addr:full": "9370 FIELDS ERTEL RD", "addr:postcode": "45249", "addr:state": "OH", "brand": "USPS", "collection_times": "Mo-Fr 17:00; Sa 15:45", "name": "USPS COLLECTION BOX - BLUE BOX", "note": "ON 12/24 AND 12/31, THIS BOX MAY BE COLLECTED AS EARLY AS 12 NOON.", "ref": "4524900040"}, "type": "Feature"}
{"geometry": {"coordinates": [-84.316339293, 39.285527919], "type": "Point"}, "id": "UmIMEjRyDVk5h1-5l8V_fRii4LY=", "properties": {"@spider": "usps_collection_boxes", "addr:city": "CINCINNATI", "addr:country": "US", "addr:full": "11841 MASON MONTGOMERY RD", "addr:postcode": "45249", "addr:state": "OH", "brand": "USPS", "collection_times": "Mo-Fr 09:00", "name": "USPS COLLECTION BOX - BLUE BOX", "ref": "4524900041"}, "type": "Feature"}
{"geometry": {"coordinates": [-84.323088, 39.286503], "type": "Point"}, "id": "-Y7plTicBNwQFFil6b06rwuy090=", "properties": {"@spider": "usps_collection_boxes", "addr:city": "CINCINNATI", "addr:country": "US", "addr:full": "8650 GOVERNORS HILL DR", "addr:postcode": "45249", "addr:state": "OH", "brand": "USPS", "collection_times": "Mo-Fr 09:00", "name": "USPS COLLECTION BOX - BLUE BOX", "ref": "4524900043"}, "type": "Feature"}
{"geometry": {"coordinates": [-84.302282001, 39.290939451], "type": "Point"}, "id": "C2B_F8iIG4rzCXyihhCEe7WmW7o=", "properties": {"@spider": "usps_collection_boxes", "addr:city": "CINCINNATI", "addr:country": "US", "addr:full": "9370 FIELDS ERTEL RD", "addr:postcode": "45249", "addr:state": "OH", "brand": "USPS", "collection_times": "Mo-Fr 17:00; Sa 15:45", "name": "USPS COLLECTION BOX - APC", "note": "ON 12/24 AND 12/31, THIS BOX MAY BE COLLECTED AS EARLY AS 12 NOON.", "ref": "4524900044"}, "type": "Feature"}
{"geometry": {"coordinates": [-84.302282001, 39.290939451], "type": "Point"}, "id": "G0KEOqfk_2jj8g0d_vwK3aOPjzk=", "properties": {"@spider": "usps_collection_boxes", "addr:city": "CINCINNATI", "addr:country": "US", "addr:full": "9370 FIELDS ERTEL RD", "addr:postcode": "45249", "addr:state": "OH", "brand": "USPS", "collection_times": "Mo-Fr 18:00; Sa 15:00", "name": "USPS COLLECTION BOX - PO LOBBY", "note": "ON 12/24 AND 12/31, THIS BOX MAY BE COLLECTED AS EARLY AS 12 NOON.", "ref": "4524900052"}, "type": "Feature"}
{"geometry": {"coordinates": [-84.332108607, 39.075524749], "type": "Point"}, "id": "_7_vP1fyEaKdn3nyZlKL9oN7Voo=", "properties": {"@spider": "usps_collection_boxes", "addr:city": "CINCINNATI", "addr:country": "US", "addr:full": "1320 NAGEL RD", "addr:postcode": "45255", "addr:state": "OH", "brand": "USPS", "collection_times": "Mo-Fr 17:00; Sa 16:00", "name": "USPS COLLECTION BOX - BLUE BOX", "note": "ON 12/24 AND 12/31, THIS BOX MAY BE COLLECTED AS EARLY AS 12 NOON.", "ref": "4525500002"}, "type": "Feature"}
{"geometry": {"coordinates": [-84.332108607, 39.075524749], "type": "Point"}, "id": "07nagJ-ajSuwiQOeRrPiUdxwU-k=", "properties": {"@spider": "usps_collection_boxes", "addr:city": "CINCINNATI", "addr:country": "US", "addr:full": "1320 NAGEL RD", "addr:postcode": "45255", "addr:state": "OH", "brand": "USPS", "collection_times": "Mo-Fr 17:00; Sa 16:00", "name": "USPS COLLECTION BOX - PO LOBBY", "note": "ON 12/24 AND 12/31, THIS BOX MAY BE COLLECTED AS EARLY AS 12 NOON.", "ref": "4525500006"}, "type": "Feature"}
{"geometry": {"coordinates": [-84.348368476, 39.084346435], "type": "Point"}, "id": "_lQ-rPPKRDVWCDk9-gSh2rpTF4Y=", "properties": {"@spider": "usps_collection_boxes", "addr:city": "CINCINNATI", "addr:country": "US", "addr:full": "7500 STATE RD", "addr:postcode": "45255", "addr:state": "OH", "brand": "USPS", "collection_times": "Mo-Fr 09:00", "name": "USPS COLLECTION BOX - BLUE BOX", "ref": "4525500007"}, "type": "Feature"}
{"geometry": {"coordinates": [-84.320721618, 39.072280528], "type": "Point"}, "id": "QU53jg1xydlT1WGjp9nWycqGTSc=", "properties": {"@spider": "usps_collection_boxes", "addr:city": "CINCINNATI", "addr:country": "US", "addr:full": "8435 BEECHMONT AVE", "addr:postcode": "45255", "addr:state": "OH", "brand": "USPS", "collection_times": "Mo-Sa 09:00", "name": "USPS COLLECTION BOX - BLUE BOX", "ref": "4525500009"}, "type": "Feature"}
{"geometry": {"coordinates": [-84.312474431, 39.071771562], "type": "Point"}, "id": "t2gVV2TRQFPX9PTHWVNyfzjsV-I=", "properties": {"@spider": "usps_collection_boxes", "addr:city": "CINCINNATI", "addr:country": "US", "addr:full": "431 OHIO PIKE", "addr:postcode": "45255", "addr:state": "OH", "brand": "USPS", "collection_times": "Mo-Fr 09:00", "name": "USPS COLLECTION BOX - BLUE BOX", "ref": "4525500014"}, "type": "Feature"}
{"geometry": {"coordinates": [-84.313374619, 39.071928928], "type": "Point"}, "id": "Z3JkIrWSvyyuiiytvFnliAg4Ydw=", "properties": {"@spider": "usps_collection_boxes", "addr:city": "CINCINNATI", "addr:country": "US", "addr:full": "8800 BEECHMONT AVE", "addr:postcode": "45255", "addr:state": "OH", "brand": "USPS", "collection_times": "Mo-Sa 09:00", "name": "USPS COLLECTION BOX - BLUE BOX", "ref": "4525500015"}, "type": "Feature"}
{"geometry": {"coordinates": [-84.348206336, 39.072853621], "type": "Point"}, "id": "vgrbpMQ0pCzLAItRlfgEg5Amn5s=", "properties": {"@spider": "usps_collection_boxes", "addr:city": "CINCINNATI", "addr:country": "US", "addr:full": "7580 BEECHMONT AVE", "addr:postcode": "45255", "addr:state": "OH", "brand": "USPS", "collection_times": "Mo-Sa 09:00", "name": "USPS COLLECTION BOX - BLUE BOX", "ref": "4525500025"}, "type": "Feature"}
{"geometry": {"coordinates": [-84.301487939, 39.071026943], "type": "Point"}, "id": "mrP0R_cnWqNRvzYcqWxhfe9X4nI=", "properties": {"@spider": "usps_collection_boxes", "addr:city": "CINCINNATI", "addr:country": "US", "addr:full": "4030 MOUNT CARMEL TOBASCO RD", "addr:postcode": "45255", "addr:state": "OH", "brand": "USPS", "collection_times": "Mo-Fr 09:00", "name": "USPS COLLECTION BOX - BLUE BOX", "ref": "4525500029"}, "type": "Feature"}
{"geometry": {"coordinates": [-84.332108607, 39.075524749], "type": "Point"}, "id": "4Nf3goDYGdJtZvAg_ieoACIXe-Q=", "properties": {"@spider": "usps_collection_boxes", "addr:city": "CINCINNATI", "addr:country": "US", "addr:full": "1320 NAGEL RD", "addr:postcode": "45255", "addr:state": "OH", "brand": "USPS", "collection_times": "Mo-Fr 17:00; Sa 16:00", "name": "USPS COLLECTION BOX - PO LOBBY", "note": "ON 12/24 AND 12/31, THIS BOX MAY BE COLLECTED AS EARLY AS 12 NOON.", "ref": "4525500032"}, "type": "Feature"}
{"geometry": {"coordinates": [-84.332108607, 39.075524749], "type": "Point"}, "id": "qaAbYAOaz5f6T3qTayfYgrV6VBU=", "properties": {"@spider": "usps_collection_boxes", "addr:city": "CINCINNATI", "addr:country": "US", "addr:full": "1320 NAGEL RD", "addr:postcode": "45255", "addr:state": "OH", "brand": "USPS", "collection_times": "Mo-Fr 17:00; Sa 16:00", "name": "USPS COLLECTION BOX - BLUE BOX", "note": "ON 12/24 AND 12/31, THIS BOX MAY BE COLLECTED AS EARLY AS 12 NOON.", "ref": "4525500033"}, "type": "Feature"}
{"geometry": {"coordinates": [-84.332108607, 39.075524749], "type": "Point"}, "id": "3gxwaJgqB5ZTS6f8yLReJOaT9DU=", "properties": {"@spider": "usps_collection_boxes", "addr:city": "CINCINNATI", "addr:country": "US", "addr:full": "1320 NAGEL RD", "addr:postcode": "45255", "addr:state": "OH", "brand": "USPS", "collection_times": "Mo-Fr 17:00; Sa 16:00", "name": "USPS COLLECTION BOX - APC", "note": "ON 12/24 AND 12/31, THIS BOX MAY BE COLLECTED AS EARLY AS 12 NOON.", "ref": "4525500034"}, "type": "Feature"}
{"geometry": {"coordinates": [-84.332108607, 39.075524749], "type": "Point"}, "id": "m8YNf5VHi_k67YaLytnNTvzeTqw=", "properties": {"@spider": "usps_collection_boxes", "addr:city": "CINCINNATI", "addr:country": "US", "addr:full": "1320 NAGEL RD", "addr:postcode": "45255", "addr:state": "OH", "brand": "USPS", "collection_times": "Mo-Fr 17:00; Sa 16:00", "name": "USPS COLLECTION BOX - BLUE BOX", "note": "ON 12/24 AND 12/31, THIS BOX MAY BE COLLECTED AS EARLY AS 12 NOON.", "ref": "4525500038"}, "type": "Feature"}
{"geometry": {"coordinates": [-84.332108607, 39.075524749], "type": "Point"}, "id": "k6KhV8xkQ4iBFUXFkfxqJo14Gj0=", "properties": {"@spider": "usps_collection_boxes", "addr:city": "CINCINNATI", "addr:country": "US", "addr:full": "1320 NAGEL RD", "addr:postcode": "45255", "addr:state": "OH", "brand": "USPS", "collection_times": "Mo-Fr 18:00; Sa 15:00", "name": "USPS COLLECTION BOX - PO LOBBY", "note": "ON 12/24 AND 12/31, THIS BOX MAY BE COLLECTED AS EARLY AS 12 NOON.", "ref": "4525500042"}, "type": "Feature"}
