{"geometry": {"coordinates": [-84.023907403, 39.709482634], "type": "Point"}, "id": "xBbfbtdTtP57juZnpqwOBS7el4I=", "properties": {"@spider": "usps_collection_boxes", "addr:city": "ALPHA", "addr:country": "US", "addr:full": "748 ALPHA RD", "addr:postcode": "45301", "addr:state": "OH", "brand": "USPS", "collection_times": "Mo-Fr 17:00; Sa 12:00", "name": "USPS COLLECTION BOX - BLUE BOX", "note": "ON 12/24 AND 12/31, THIS BOX MAY BE COLLECTED AS EARLY AS 12 NOON.", "ref": "4530100000"}, "type": "Feature"}
{"geometry": {"coordinates": [-84.023907403, 39.709482634], "type": "Point"}, "id": "IEwoBpdIE_uwyZdq7mz83drr9eo=", "properties": {"@spider": "usps_collection_boxes", "addr:city": "ALPHA", "addr:country": "US", "addr:full": "748 ALPHA RD", "addr:postcode": "45301", "addr:state": "OH", "brand": "USPS", "collection_times": "Mo-Fr 17:00; Sa 12:00", "name": "USPS COLLECTION BOX - PO LOBBY", "note": "ON 12/24 AND 12/31, THIS BOX MAY BE COLLECTED AS EARLY AS 12 NOON.", "ref": "4530100001"}, "type": "Feature"}
{"geometry": {"coordinates": [-84.023907403, 39.709482634], "type": "Point"}, "id": "q1K2toSey9QB2K6SP3H_PMkCy2s=", "properties": {"@spider": "usps_collection_boxes", "addr:city": "ALPHA", "addr:country": "US", "addr:full": "748 ALPHA RD", "addr:postcode": "45301", "addr:state": "OH", "brand": "USPS", "collection_times": "Mo-Fr 17:00; Sa 12:00", "name": "USPS COLLECTION BOX - PO LOBBY", "note": "ON 12/24 AND 12/31, THIS BOX MAY BE COLLECTED AS EARLY AS 12 NOON.", "ref": "4530100004"}, "type": "Feature"}
{"geometry": {"coordinates": [-84.0748291, 39.636358], "type": "Point"}, "id": "Nwk_9HMQnDeSumZAhkbstNidaN8=", "properties": {"@spider": "usps_collection_boxes", "addr:city": "BELLBROOK", "addr:country": "US", "addr:full": "118 W FRANKLIN ST", "addr:postcode": "45305", "addr:state": "OH", "brand": "USPS", "collection_times": "Mo-Sa 10:45", "name": "USPS COLLECTION BOX - BLUE BOX", "ref": "4530500001"}, "type": "Feature"}
{"geometry": {"coordinates": [-84.1023208, 39.63769], "type": "Point"}, "id": "BL-Hc9JWikOuJpgvWkEyz64PX7U=", "properties": {"@spider": "usps_collection_boxes", "addr:city": "BELLBROOK", "addr:country": "US", "addr:full": "2010 S LAKEMAN DR", "addr:postcode": "45305", "addr:state": "OH", "brand": "USPS", "collection_times": "Mo-Sa 10:45", "name": "USPS COLLECTION BOX - BLUE BOX", "ref": "4530500003"}, "type": "Feature"}
{"geometry": {"coordinates": [-84.069359537, 39.636721289], "type": "Point"}, "id": "3ZyoUbHQaJXfFr7tOVRe5pchNfk=", "properties": {"@spider": "usps_collection_boxes", "addr:city": "BELLBROOK", "addr:country": "US", "addr:full": "22 N EAST ST", "addr:postcode": "45305", "addr:state": "OH", "brand": "USPS", "collection_times": "Mo-Fr 16:30; Sa 12:00", "name": "USPS COLLECTION BOX - BLUE BOX", "note": "ON 12/24 AND 12/31, THIS BOX MAY BE COLLECTED AS EARLY AS 12 NOON.", "ref": "4530500005"}, "type": "Feature"}
{"geometry": {"coordinates": [-84.069359537, 39.636721289], "type": "Point"}, "id": "cMu7RTNP7T4qRKlF-dF4Zfykun0=", "properties": {"@spider": "usps_collection_boxes", "addr:city": "BELLBROOK", "addr:country": "US", "addr:full": "22 N EAST ST", "addr:postcode": "45305", "addr:state": "OH", "brand": "USPS", "collection_times": "Mo-Fr 16:30; Sa 12:00", "name": "USPS COLLECTION BOX - PO LOBBY", "note": "ON 12/24 AND 12/31, THIS BOX MAY BE COLLECTED AS EARLY AS 12 NOON.", "ref": "4530500006"}, "type": "Feature"}
{"geometry": {"coordinates": [-84.069359537, 39.636721289], "type": "Point"}, "id": "jiSTkIU5MRkm9F0Zl3UI8McD9Wk=", "properties": {"@spider": "usps_collection_boxes", "addr:city": "BELLBROOK", "addr:country": "US", "addr:full": "22 N EAST ST", "addr:postcode": "45305", "addr:state": "OH", "brand": "USPS", "collection_times": "Mo-Fr 16:30; Sa 12:00", "name": "USPS COLLECTION BOX - PO LOBBY", "note": "ON 12/24 AND 12/31, THIS BOX MAY BE COLLECTED AS EARLY AS 12 NOON.", "ref": "4530500010"}, "type": "Feature"}
{"geometry": {"coordinates": [-83.724365496, 39.580819292], "type": "Point"}, "id": "Szrr9C8yzaJjr0mO2pRWly8KmtU=", "properties": {"@spider": "usps_collection_boxes", "addr:city": "BOWERSVILLE", "addr:country": "US", "addr:full": "3180 MAYSVILLE ST", "addr:postcode": "45307", "addr:state": "OH", "brand": "USPS", "collection_times": "Mo-Fr 15:00; Sa 11:15", "name": "USPS COLLECTION BOX - BLUE BOX", "note": "ON 12/24 AND 12/31, THIS BOX MAY BE COLLECTED AS EARLY AS 12 NOON.", "ref": "4530700000"}, "type": "Feature"}
{"geometry": {"coordinates": [-83.724365496, 39.580819292], "type": "Point"}, "id": "HbvfiGcpssmYczXmO3Ny1eJm2h4=", "properties": {"@spider": "usps_collection_boxes", "addr:city": "BOWERSVILLE", "addr:country": "US", "addr:full": "3180 MAYSVILLE ST", "addr:postcode": "45307", "addr:state": "OH", "brand": "USPS", "collection_times": "Mo-Fr 15:00; Sa 11:15", "name": "USPS COLLECTION BOX - PO LOBBY", "note": "ON 12/24 AND 12/31, THIS BOX MAY BE COLLECTED AS EARLY AS 12 NOON.", "ref": "4530700001"}, "type": "Feature"}
{"geometry": {"coordinates": [-83.724365496, 39.580819292], "type": "Point"}, "id": "iP5QlPGiS5GMCOpAXmfFMnL_OVk=", "properties": {"@spider": "usps_collection_boxes", "addr:city": "BOWERSVILLE", "addr:country": "US", "addr:full": "3180 MAYSVILLE ST", "addr:postcode": "45307", "addr:state": "OH", "brand": "USPS", "collection_times": "Mo-Fr 16:30; Sa 12:15", "name": "USPS COLLECTION BOX - PO LOBBY", "note": "ON 12/24 AND 12/31, THIS BOX MAY BE COLLECTED AS EARLY AS 12 NOON.", "ref": "4530700004"}, "type": "Feature"}
{"geometry": {"coordinates": [-84.129534, 40.053309], "type": "Point"}, "id": "LkhzZvTwyOi0n-CD-ISZVLkgibQ=", "properties": {"@spider": "usps_collection_boxes", "addr:city": "CASSTOWN", "addr:country": "US", "addr:full": "101A N MAIN ST", "addr:postcode": "45312", "addr:state": "OH", "brand": "USPS", "collection_times": "Mo-Fr 16:00; Sa 11:30", "name": "USPS COLLECTION BOX - BLUE BOX", "note": "ON 12/24 AND 12/31, THIS BOX MAY BE COLLECTED AS EARLY AS 12 NOON.", "ref": "4531200000"}, "type": "Feature"}
{"geometry": {"coordinates": [-84.129534, 40.05331], "type": "Point"}, "id": "jMYzjmSwE-hJtiYOgVA3UFEQVmY=", "properties": {"@spider": "usps_collection_boxes", "addr:city": "CASSTOWN", "addr:country": "US", "addr:full": "101A N MAIN ST", "addr:postcode": "45312", "addr:state": "OH", "brand": "USPS", "collection_times": "Mo-Fr 16:00; Sa 11:30", "name": "USPS COLLECTION BOX - PO LOBBY", "note": "ON 12/24 AND 12/31, THIS BOX MAY BE COLLECTED AS EARLY AS 12 NOON.", "ref": "4531200001"}, "type": "Feature"}
{"geometry": {"coordinates": [-84.129534336, 40.053345622], "type": "Point"}, "id": "u9UbQ_weSI0yCPH1lfus5UrWmhc=", "properties": {"@spider": "usps_collection_boxes", "addr:city": "CASSTOWN", "addr:country": "US", "addr:full": "101 N MAIN ST", "addr:postcode": "45312", "addr:state": "OH", "brand": "USPS", "collection_times": "Mo-Fr 16:30; Sa 11:30", "name": "USPS COLLECTION BOX - PO LOBBY", "note": "ON 12/24 AND 12/31, THIS BOX MAY BE COLLECTED AS EARLY AS 12 NOON.", "ref": "4531200005"}, "type": "Feature"}
{"geometry": {"coordinates": [-83.807387693, 39.742529348], "type": "Point"}, "id": "-hD0PtL_s9bwNHiOYVNDecnbLf0=", "properties": {"@spider": "usps_collection_boxes", "addr:city": "CEDARVILLE", "addr:country": "US", "addr:full": "102 N MAIN ST", "addr:postcode": "45314", "addr:state": "OH", "brand": "USPS", "collection_times": "Mo-Fr 16:00; Sa 12:00", "name": "USPS COLLECTION BOX - BLUE BOX", "note": "ON 12/24 AND 12/31, THIS BOX MAY BE COLLECTED AS EARLY AS 12 NOON.", "ref": "4531400001"}, "type": "Feature"}
{"geometry": {"coordinates": [-83.807387693, 39.742529348], "type": "Point"}, "id": "CPZoK1fegVXApMhL18rE_Nmad6E=", "properties": {"@spider": "usps_collection_boxes", "addr:city": "CEDARVILLE", "addr:country": "US", "addr:full": "102 N MAIN ST", "addr:postcode": "45314", "addr:state": "OH", "brand": "USPS", "collection_times": "Mo-Fr 16:00; Sa 12:00", "name": "USPS COLLECTION BOX - PO LOBBY", "note": "ON 12/24 AND 12/31, THIS BOX MAY BE COLLECTED AS EARLY AS 12 NOON.", "ref": "4531400003"}, "type": "Feature"}
{"geometry": {"coordinates": [-83.807387693, 39.742529348], "type": "Point"}, "id": "_f98WmqhJToWu5nZVpiwxdJKRDo=", "properties": {"@spider": "usps_collection_boxes", "addr:city": "CEDARVILLE", "addr:country": "US", "addr:full": "102 N MAIN ST", "addr:postcode": "45314", "addr:state": "OH", "brand": "USPS", "collection_times": "Mo-Fr 16:30; Sa 12:00", "name": "USPS COLLECTION BOX - PO LOBBY", "note": "ON 12/24 AND 12/31, THIS BOX MAY BE COLLECTED AS EARLY AS 12 NOON.", "ref": "4531400007"}, "type": "Feature"}
{"geometry": {"coordinates": [-84.36073519, 39.863618749], "type": "Point"}, "id": "-_4AlsFHwdc7POV-X35wuOMxjJM=", "properties": {"@spider": "usps_collection_boxes", "addr:city": "CLAYTON", "addr:country": "US", "addr:full": "196 TALMADGE RD", "addr:postcode": "45315", "addr:state": "OH", "brand": "USPS", "collection_times": "Mo-Fr 16:15; Sa 12:00", "name": "USPS COLLECTION BOX - BLUE BOX", "note": "ON 12/24 AND 12/31, THIS BOX MAY BE COLLECTED AS EARLY AS 12 NOON.", "ref": "4531500000"}, "type": "Feature"}
{"geometry": {"coordinates": [-84.3297226, 39.856745], "type": "Point"}, "id": "LNnCZMJa0I7Mi1bbrdwZUD05Qp0=", "properties": {"@spider": "usps_collection_boxes", "addr:city": "CLAYTON", "addr:country": "US", "addr:full": "7700 HOKE RD", "addr:postcode": "45315", "addr:state": "OH", "brand": "USPS", "collection_times": "Mo-Sa 09:30", "name": "USPS COLLECTION BOX - BLUE BOX", "ref": "4531500001"}, "type": "Feature"}
{"geometry": {"coordinates": [-84.36073519, 39.863618749], "type": "Point"}, "id": "f1JQPCgol0NBch3rQRFVVLKnjmA=", "properties": {"@spider": "usps_collection_boxes", "addr:city": "CLAYTON", "addr:country": "US", "addr:full": "196 TALMADGE RD", "addr:postcode": "45315", "addr:state": "OH", "brand": "USPS", "collection_times": "Mo-Fr 16:15; Sa 12:00", "name": "USPS COLLECTION BOX - PO LOBBY", "note": "ON 12/24 AND 12/31, THIS BOX MAY BE COLLECTED AS EARLY AS 12 NOON.", "ref": "4531500002"}, "type": "Feature"}
{"geometry": {"coordinates": [-84.3369853, 39.8727], "type": "Point"}, "id": "cF0NXTB1FYvAqmmMyY8hGuKlUfM=", "properties": {"@spider": "usps_collection_boxes", "addr:city": "CLAYTON", "addr:country": "US", "addr:full": "8949 ANNELIESE WAY", "addr:postcode": "45315", "addr:state": "OH", "brand": "USPS", "collection_times": "Mo-Sa 09:15", "name": "USPS COLLECTION BOX - BLUE BOX", "ref": "4531500005"}, "type": "Feature"}
{"geometry": {"coordinates": [-84.36073519, 39.863618749], "type": "Point"}, "id": "lIOLIDyZIBi1OussiWIVH0z5yr4=", "properties": {"@spider": "usps_collection_boxes", "addr:city": "CLAYTON", "addr:country": "US", "addr:full": "196 TALMADGE RD", "addr:postcode": "45315", "addr:state": "OH", "brand": "USPS", "collection_times": "Mo-Fr 16:30; Sa 12:00", "name": "USPS COLLECTION BOX - PO LOBBY", "note": "ON 12/24 AND 12/31, THIS BOX MAY BE COLLECTED AS EARLY AS 12 NOON.", "ref": "4531500010"}, "type": "Feature"}
{"geometry": {"coordinates": [-83.824964727, 39.795726532], "type": "Point"}, "id": "OcJcDxBIvM-tJeRwfHiK43euOJ0=", "properties": {"@spider": "usps_collection_boxes", "addr:city": "CLIFTON", "addr:country": "US", "addr:full": "17 CLINTON ST", "addr:postcode": "45316", "addr:state": "OH", "brand": "USPS", "collection_times": "Mo-Sa 11:30", "name": "USPS COLLECTION BOX - PO LOBBY", "ref": "4531600000"}, "type": "Feature"}
{"geometry": {"coordinates": [-83.824964727, 39.795726532], "type": "Point"}, "id": "UsPeDCnPuk_IjWgcdHw1yUcdtns=", "properties": {"@spider": "usps_collection_boxes", "addr:city": "CLIFTON", "addr:country": "US", "addr:full": "17 CLINTON ST", "addr:postcode": "45316", "addr:state": "OH", "brand": "USPS", "collection_times": "Mo-Fr 12:00; Sa 11:30", "name": "USPS COLLECTION BOX - PO LOBBY", "ref": "4531600003"}, "type": "Feature"}
{"geometry": {"coordinates": [-84.045915814, 40.137163931], "type": "Point"}, "id": "7CLhnvOS40p-9wSBjRZcGkO6-0I=", "properties": {"@spider": "usps_collection_boxes", "addr:city": "CONOVER", "addr:country": "US", "addr:full": "7711 N ALCONY CONOVER RD", "addr:postcode": "45317", "addr:state": "OH", "brand": "USPS", "collection_times": "Mo-Sa 11:30", "name": "USPS COLLECTION BOX - PO LOBBY", "ref": "4531700000"}, "type": "Feature"}
{"geometry": {"coordinates": [-84.045915814, 40.137163931], "type": "Point"}, "id": "j_Rw47A0TbhfrlyoIundgrRnzGI=", "properties": {"@spider": "usps_collection_boxes", "addr:city": "CONOVER", "addr:country": "US", "addr:full": "7711 N ALCONY CONOVER RD", "addr:postcode": "45317", "addr:state": "OH", "brand": "USPS", "collection_times": "Mo-Sa 11:30", "name": "USPS COLLECTION BOX - BLUE BOX", "ref": "4531700001"}, "type": "Feature"}
{"geometry": {"coordinates": [-84.045915814, 40.137163931], "type": "Point"}, "id": "_crHcEMC3jTrFtplBzBAtQxcAfM=", "properties": {"@spider": "usps_collection_boxes", "addr:city": "CONOVER", "addr:country": "US", "addr:full": "7711 N ALCONY CONOVER RD", "addr:postcode": "45317", "addr:state": "OH", "brand": "USPS", "collection_times": "Mo-Fr 12:00; Sa 11:30", "name": "USPS COLLECTION BOX - PO LOBBY", "ref": "4531700005"}, "type": "Feature"}
{"geometry": {"coordinates": [-83.948175454, 39.917138155], "type": "Point"}, "id": "FfHI_qpK4ODNs81Uq2yGsVOsYH4=", "properties": {"@spider": "usps_collection_boxes", "addr:city": "DONNELSVILLE", "addr:country": "US", "addr:full": "17 S HAMPTON RD", "addr:postcode": "45319", "addr:state": "OH", "brand": "USPS", "collection_times": "Mo-Sa 12:00", "name": "USPS COLLECTION BOX - PO LOBBY", "ref": "4531900000"}, "type": "Feature"}
{"geometry": {"coordinates": [-83.948175454, 39.917138155], "type": "Point"}, "id": "j5GjqbSb39znJkc5WwbmVNeLwtE=", "properties": {"@spider": "usps_collection_boxes", "addr:city": "DONNELSVILLE", "addr:country": "US", "addr:full": "17 S HAMPTON RD", "addr:postcode": "45319", "addr:state": "OH", "brand": "USPS", "collection_times": "Mo-Sa 12:00", "name": "USPS COLLECTION BOX - BLUE BOX", "ref": "4531900001"}, "type": "Feature"}
{"geometry": {"coordinates": [-83.948175454, 39.917138155], "type": "Point"}, "id": "JFetokxb6Htyy4u0YLPFPZh7QY4=", "properties": {"@spider": "usps_collection_boxes", "addr:city": "DONNELSVILLE", "addr:country": "US", "addr:full": "17 S HAMPTON RD", "addr:postcode": "45319", "addr:state": "OH", "brand": "USPS", "collection_times": "Mo-Fr 16:00; Sa 12:00", "name": "USPS COLLECTION BOX - PO LOBBY", "note": "ON 12/24 AND 12/31, THIS BOX MAY BE COLLECTED AS EARLY AS 12 NOON.", "ref": "4531900004"}, "type": "Feature"}
{"geometry": {"coordinates": [-84.304451106, 39.877528612], "type": "Point"}, "id": "xIbUlTIwQG9K_hflnfgllbp9XOc=", "properties": {"@spider": "usps_collection_boxes", "addr:city": "ENGLEWOOD", "addr:country": "US", "addr:full": "116 W NATIONAL RD", "addr:postcode": "45322", "addr:state": "OH", "brand": "USPS", "collection_times": "Mo-Fr 17:00; Sa 15:00", "name": "USPS COLLECTION BOX - PO LOBBY", "note": "ON 12/24 AND 12/31, THIS BOX MAY BE COLLECTED AS EARLY AS 12 NOON.", "ref": "4532200000"}, "type": "Feature"}
{"geometry": {"coordinates": [-84.304451106, 39.877528612], "type": "Point"}, "id": "QgtJ30ZYHE_qUBLZulb6yTiTTSY=", "properties": {"@spider": "usps_collection_boxes", "addr:city": "ENGLEWOOD", "addr:country": "US", "addr:full": "116 W NATIONAL RD", "addr:postcode": "45322", "addr:state": "OH", "brand": "USPS", "collection_times": "Mo-Fr 17:00; Sa 15:00", "name": "USPS COLLECTION BOX - BLUE BOX", "note": "ON 12/24 AND 12/31, THIS BOX MAY BE COLLECTED AS EARLY AS 12 NOON.", "ref": "4532200001"}, "type": "Feature"}
{"geometry": {"coordinates": [-84.304451106, 39.877528612], "type": "Point"}, "id": "RVreKfMWboO_MQJSoyyKLhWrDdk=", "properties": {"@spider": "usps_collection_boxes", "addr:city": "ENGLEWOOD", "addr:country": "US", "addr:full": "116 W NATIONAL RD", "addr:postcode": "45322", "addr:state": "OH", "brand": "USPS", "collection_times": "Mo-Fr 17:00; Sa 15:00", "name": "USPS COLLECTION BOX - BLUE BOX", "note": "ON 12/24 AND 12/31, THIS BOX MAY BE COLLECTED AS EARLY AS 12 NOON.", "ref": "4532200002"}, "type": "Feature"}
{"geometry": {"coordinates": [-84.304451106, 39.877528612], "type": "Point"}, "id": "13HMF4UYVYiLiS1Jacqg5yMPbRs=", "properties": {"@spider": "usps_collection_boxes", "addr:city": "ENGLEWOOD", "addr:country": "US", "addr:full": "116 W NATIONAL RD", "addr:postcode": "45322", "addr:state": "OH", "brand": "USPS", "collection_times": "Mo-Fr 17:00; Sa 15:00", "name": "USPS COLLECTION BOX - BLUE BOX", "note": "ON 12/24 AND 12/31, THIS BOX MAY BE COLLECTED AS EARLY AS 12 NOON.", "ref": "4532200003"}, "type": "Feature"}
{"geometry": {"coordinates": [-84.304451106, 39.877528612], "type": "Point"}, "id": "z2cxAxWYjyAJzZ_hW0bkwdFxYqk=", "properties": {"@spider": "usps_collection_boxes", "addr:city": "ENGLEWOOD", "addr:country": "US", "addr:full": "116 W NATIONAL RD", "addr:postcode": "45322", "addr:state": "OH", "brand": "USPS", "collection_times": "Mo-Fr 17:00; Sa 15:00", "name": "USPS COLLECTION BOX - BLUE BOX", "note": "ON 12/24 AND 12/31, THIS BOX MAY BE COLLECTED AS EARLY AS 12 NOON.", "ref": "4532200004"}, "type": "Feature"}
{"geometry": {"coordinates": [-84.3170713, 39.898438], "type": "Point"}, "id": "sYGBnZY26-U3HEaRygMGKO05-NY=", "properties": {"@spider": "usps_collection_boxes", "addr:city": "ENGLEWOOD", "addr:country": "US", "addr:full": "603 W MARTINDALE RD", "addr:postcode": "45322", "addr:state": "OH", "brand": "USPS", "collection_times": "Mo-Sa 12:00", "name": "USPS COLLECTION BOX - BLUE BOX", "ref": "4532200010"}, "type": "Feature"}
{"geometry": {"coordinates": [-84.3040033, 39.847616], "type": "Point"}, "id": "OALCthQ7QSMqBZ_o9QLxPheg9Vw=", "properties": {"@spider": "usps_collection_boxes", "addr:city": "ENGLEWOOD", "addr:country": "US", "addr:full": "4601 OLD SALEM RD", "addr:postcode": "45322", "addr:state": "OH", "brand": "USPS", "collection_times": "Mo-Sa 12:00", "name": "USPS COLLECTION BOX - BLUE BOX", "ref": "4532200015"}, "type": "Feature"}
{"geometry": {"coordinates": [-84.3075376, 39.878213], "type": "Point"}, "id": "9moXNzDdrHYgxPy7sf-V18r5mTQ=", "properties": {"@spider": "usps_collection_boxes", "addr:city": "ENGLEWOOD", "addr:country": "US", "addr:full": "333 W NATIONAL RD", "addr:postcode": "45322", "addr:state": "OH", "brand": "USPS", "collection_times": "Mo-Fr 14:15; Sa 12:00", "name": "USPS COLLECTION BOX - BLUE BOX", "note": "ON 12/24 AND 12/31, THIS BOX MAY BE COLLECTED AS EARLY AS 12 NOON.", "ref": "4532200016"}, "type": "Feature"}
{"geometry": {"coordinates": [-84.3134535, 39.863702], "type": "Point"}, "id": "BTdTAbN4im87lspYsSpfhCrhxpc=", "properties": {"@spider": "usps_collection_boxes", "addr:city": "ENGLEWOOD", "addr:country": "US", "addr:full": "855 UNION RD", "addr:postcode": "45322", "addr:state": "OH", "brand": "USPS", "collection_times": "Mo-Sa 13:45", "name": "USPS COLLECTION BOX - BLUE BOX", "note": "ON 12/24 AND 12/31, THIS BOX MAY BE COLLECTED AS EARLY AS 12 NOON.", "ref": "4532200019"}, "type": "Feature"}
{"geometry": {"coordinates": [-84.304451106, 39.877528612], "type": "Point"}, "id": "pK2mlDk4J5P55berEbGa-Z_7VQs=", "properties": {"@spider": "usps_collection_boxes", "addr:city": "ENGLEWOOD", "addr:country": "US", "addr:full": "116 W NATIONAL RD", "addr:postcode": "45322", "addr:state": "OH", "brand": "USPS", "collection_times": "Mo-Fr 17:00; Sa 15:00", "name": "USPS COLLECTION BOX - APC", "note": "ON 12/24 AND 12/31, THIS BOX MAY BE COLLECTED AS EARLY AS 12 NOON.", "ref": "4532200021"}, "type": "Feature"}
{"geometry": {"coordinates": [-84.304451106, 39.877528612], "type": "Point"}, "id": "F-paheecLG4PAVZ-ql8N5OiIKdE=", "properties": {"@spider": "usps_collection_boxes", "addr:city": "ENGLEWOOD", "addr:country": "US", "addr:full": "116 W NATIONAL RD", "addr:postcode": "45322", "addr:state": "OH", "brand": "USPS", "collection_times": "Mo-Fr 17:00; Sa 12:30", "name": "USPS COLLECTION BOX - PO LOBBY", "note": "ON 12/24 AND 12/31, THIS BOX MAY BE COLLECTED AS EARLY AS 12 NOON.", "ref": "4532200027"}, "type": "Feature"}
{"geometry": {"coordinates": [-83.936806603, 39.879062926], "type": "Point"}, "id": "E6Qk2gHkmORb4XUbPAeRAnuF5-U=", "properties": {"@spider": "usps_collection_boxes", "addr:city": "ENON", "addr:country": "US", "addr:full": "27 N XENIA DR", "addr:postcode": "45323", "addr:state": "OH", "brand": "USPS", "collection_times": "Mo-Fr 16:30; Sa 12:00", "name": "USPS COLLECTION BOX - BLUE BOX", "note": "ON 12/24 AND 12/31, THIS BOX MAY BE COLLECTED AS EARLY AS 12 NOON.", "ref": "4532300000"}, "type": "Feature"}
{"geometry": {"coordinates": [-83.936806603, 39.879062926], "type": "Point"}, "id": "kVTU-z5xYKQ0-4Dt24v9WSwJ1bI=", "properties": {"@spider": "usps_collection_boxes", "addr:city": "ENON", "addr:country": "US", "addr:full": "27 N XENIA DR", "addr:postcode": "45323", "addr:state": "OH", "brand": "USPS", "collection_times": "Mo-Fr 16:30; Sa 12:00", "name": "USPS COLLECTION BOX - PO LOBBY", "note": "ON 12/24 AND 12/31, THIS BOX MAY BE COLLECTED AS EARLY AS 12 NOON.", "ref": "4532300006"}, "type": "Feature"}
{"geometry": {"coordinates": [-83.936806603, 39.879062926], "type": "Point"}, "id": "-YWOwq9RiADdMKxIQhOYhN9zTUw=", "properties": {"@spider": "usps_collection_boxes", "addr:city": "ENON", "addr:country": "US", "addr:full": "27 N XENIA DR", "addr:postcode": "45323", "addr:state": "OH", "brand": "USPS", "collection_times": "Mo-Fr 16:30; Sa 12:00", "name": "USPS COLLECTION BOX - PO LOBBY", "note": "ON 12/24 AND 12/31, THIS BOX MAY BE COLLECTED AS EARLY AS 12 NOON.", "ref": "4532300015"}, "type": "Feature"}
{"geometry": {"coordinates": [-84.0208039, 39.821687], "type": "Point"}, "id": "N7K3j0A3fpXhIolBPRbdSjbqkHo=", "properties": {"@spider": "usps_collection_boxes", "addr:city": "FAIRBORN", "addr:country": "US", "addr:full": "1 E MAIN ST", "addr:postcode": "45324", "addr:state": "OH", "brand": "USPS", "collection_times": "Mo-Sa 10:00", "name": "USPS COLLECTION BOX - BLUE BOX", "ref": "4532400014"}, "type": "Feature"}
{"geometry": {"coordinates": [-83.9904631, 39.790508], "type": "Point"}, "id": "iMfy2NjSjZF-ZBBsAk8TSNpGwRU=", "properties": {"@spider": "usps_collection_boxes", "addr:city": "FAIRBORN", "addr:country": "US", "addr:full": "1343 NORTHGATE BLVD", "addr:postcode": "45324", "addr:state": "OH", "brand": "USPS", "collection_times": "Mo-Sa 09:30", "name": "USPS COLLECTION BOX - BLUE BOX", "ref": "4532400031"}, "type": "Feature"}
{"geometry": {"coordinates": [-84.0552199, 39.777852], "type": "Point"}, "id": "CFOPO-jwK2oC4vSePkVSPYAkYYg=", "properties": {"@spider": "usps_collection_boxes", "addr:city": "FAIRBORN", "addr:country": "US", "addr:full": "2646 COLONEL GLENN HWY", "addr:postcode": "45324", "addr:state": "OH", "brand": "USPS", "collection_times": "Mo-Sa 09:00", "name": "USPS COLLECTION BOX - BLUE BOX", "ref": "4532400032"}, "type": "Feature"}
{"geometry": {"coordinates": [-84.0260286, 39.78378], "type": "Point"}, "id": "qaLiRl60paFvPDqSoWj2eOZpUVY=", "properties": {"@spider": "usps_collection_boxes", "addr:city": "FAIRBORN", "addr:country": "US", "addr:full": "2145 ROCKDELL DR", "addr:postcode": "45324", "addr:state": "OH", "brand": "USPS", "collection_times": "Mo-Sa 09:00", "name": "USPS COLLECTION BOX - BLUE BOX", "ref": "4532400045"}, "type": "Feature"}
{"geometry": {"coordinates": [-84.023108768, 39.827454041], "type": "Point"}, "id": "IaGJBU1-m46ztiLJwEUB8nUOX28=", "properties": {"@spider": "usps_collection_boxes", "addr:city": "FAIRBORN", "addr:country": "US", "addr:full": "67 W HEBBLE AVE", "addr:postcode": "45324", "addr:state": "OH", "brand": "USPS", "collection_times": "Mo-Fr 17:00; Sa 16:00", "name": "USPS COLLECTION BOX - BLUE BOX", "note": "ON 12/24 AND 12/31, THIS BOX MAY BE COLLECTED AS EARLY AS 12 NOON.", "ref": "4532400052"}, "type": "Feature"}
{"geometry": {"coordinates": [-84.023108768, 39.827454041], "type": "Point"}, "id": "FCEF2xHwoDG0b3eILr88-CRwqpA=", "properties": {"@spider": "usps_collection_boxes", "addr:city": "FAIRBORN", "addr:country": "US", "addr:full": "67 W HEBBLE AVE", "addr:postcode": "45324", "addr:state": "OH", "brand": "USPS", "collection_times": "Mo-Fr 17:00; Sa 16:00", "name": "USPS COLLECTION BOX - PO LOBBY", "note": "ON 12/24 AND 12/31, THIS BOX MAY BE COLLECTED AS EARLY AS 12 NOON.", "ref": "4532400054"}, "type": "Feature"}
{"geometry": {"coordinates": [-84.0650455, 39.789021], "type": "Point"}, "id": "fzH_RHqaMfsRHrl-oAhoFWu_7eE=", "properties": {"@spider": "usps_collection_boxes", "addr:city": "FAIRBORN", "addr:country": "US", "addr:full": "2030 VILLAGE DR", "addr:postcode": "45324", "addr:state": "OH", "brand": "USPS", "collection_times": "Mo-Sa 12:30", "name": "USPS COLLECTION BOX - BLUE BOX", "note": "ON 12/24 AND 12/31, THIS BOX MAY BE COLLECTED AS EARLY AS 12 NOON.", "ref": "4532400063"}, "type": "Feature"}
{"geometry": {"coordinates": [-84.023108768, 39.827454041], "type": "Point"}, "id": "JzdGqUN4Ou3Pk3Xm_MMhiPG6REs=", "properties": {"@spider": "usps_collection_boxes", "addr:city": "FAIRBORN", "addr:country": "US", "addr:full": "67 W HEBBLE AVE", "addr:postcode": "45324", "addr:state": "OH", "brand": "USPS", "collection_times": "Mo-Fr 17:00; Sa 16:00", "name": "USPS COLLECTION BOX - PO LOBBY", "note": "ON 12/24 AND 12/31, THIS BOX MAY BE COLLECTED AS EARLY AS 12 NOON.", "ref": "4532400068"}, "type": "Feature"}
{"geometry": {"coordinates": [-84.023108768, 39.827454041], "type": "Point"}, "id": "hriZMqq-xMKnf3lc2-9cn42vSEo=", "properties": {"@spider": "usps_collection_boxes", "addr:city": "FAIRBORN", "addr:country": "US", "addr:full": "67 W HEBBLE AVE", "addr:postcode": "45324", "addr:state": "OH", "brand": "USPS", "collection_times": "Mo-Fr 17:00; Sa 16:00", "name": "USPS COLLECTION BOX - APC", "note": "ON 12/24 AND 12/31, THIS BOX MAY BE COLLECTED AS EARLY AS 12 NOON.", "ref": "4532400070"}, "type": "Feature"}
{"geometry": {"coordinates": [-84.023108768, 39.827454041], "type": "Point"}, "id": "-Zm3rOQbEqg2zgnrQwAnoC5O2H0=", "properties": {"@spider": "usps_collection_boxes", "addr:city": "FAIRBORN", "addr:country": "US", "addr:full": "67 W HEBBLE AVE", "addr:postcode": "45324", "addr:state": "OH", "brand": "USPS", "collection_times": "Mo-Fr 17:00; Sa 12:00", "name": "USPS COLLECTION BOX - PO LOBBY", "note": "ON 12/24 AND 12/31, THIS BOX MAY BE COLLECTED AS EARLY AS 12 NOON.", "ref": "4532400080"}, "type": "Feature"}
{"geometry": {"coordinates": [-84.367422052, 39.6250125], "type": "Point"}, "id": "f7qlmmS-gdtNCF_F5lKvSzPOLj4=", "properties": {"@spider": "usps_collection_boxes", "addr:city": "GERMANTOWN", "addr:country": "US", "addr:full": "205 E MARKET ST", "addr:postcode": "45327", "addr:state": "OH", "brand": "USPS", "collection_times": "Mo-Sa 16:00", "name": "USPS COLLECTION BOX - BLUE BOX", "note": "ON 12/24 AND 12/31, THIS BOX MAY BE COLLECTED AS EARLY AS 12 NOON.", "ref": "4532700000"}, "type": "Feature"}
{"geometry": {"coordinates": [-84.367422052, 39.6250125], "type": "Point"}, "id": "4zYiVit-F2ndlX--_Fp2o7AjOy4=", "properties": {"@spider": "usps_collection_boxes", "addr:city": "GERMANTOWN", "addr:country": "US", "addr:full": "205 E MARKET ST", "addr:postcode": "45327", "addr:state": "OH", "brand": "USPS", "collection_times": "Mo-Sa 16:00", "name": "USPS COLLECTION BOX - PO LOBBY", "note": "ON 12/24 AND 12/31, THIS BOX MAY BE COLLECTED AS EARLY AS 12 NOON.", "ref": "4532700007"}, "type": "Feature"}
{"geometry": {"coordinates": [-84.367422052, 39.6250125], "type": "Point"}, "id": "IuObK3iypzmPN57XXa8kyIp7qio=", "properties": {"@spider": "usps_collection_boxes", "addr:city": "GERMANTOWN", "addr:country": "US", "addr:full": "205 E MARKET ST", "addr:postcode": "45327", "addr:state": "OH", "brand": "USPS", "collection_times": "Mo-Fr 16:30; Sa 12:00", "name": "USPS COLLECTION BOX - PO LOBBY", "note": "ON 12/24 AND 12/31, THIS BOX MAY BE COLLECTED AS EARLY AS 12 NOON.", "ref": "4532700021"}, "type": "Feature"}
{"geometry": {"coordinates": [-83.734558704, 39.660820009], "type": "Point"}, "id": "B5OlKShyEkjqI0erdd_pVTxkGG0=", "properties": {"@spider": "usps_collection_boxes", "addr:city": "JAMESTOWN", "addr:country": "US", "addr:full": "37 N LIMESTONE ST", "addr:postcode": "45335", "addr:state": "OH", "brand": "USPS", "collection_times": "Mo-Fr 16:00; Sa 12:00", "name": "USPS COLLECTION BOX - BLUE BOX", "note": "ON 12/24 AND 12/31, THIS BOX MAY BE COLLECTED AS EARLY AS 12 NOON.", "ref": "4533500007"}, "type": "Feature"}
{"geometry": {"coordinates": [-83.734558704, 39.660820009], "type": "Point"}, "id": "32DXyksdcaJ4KxwyPlXLbRuO8sw=", "properties": {"@spider": "usps_collection_boxes", "addr:city": "JAMESTOWN", "addr:country": "US", "addr:full": "37 N LIMESTONE ST", "addr:postcode": "45335", "addr:state": "OH", "brand": "USPS", "collection_times": "Mo-Fr 16:00; Sa 12:00", "name": "USPS COLLECTION BOX - PO LOBBY", "note": "ON 12/24 AND 12/31, THIS BOX MAY BE COLLECTED AS EARLY AS 12 NOON.", "ref": "4533500009"}, "type": "Feature"}
{"geometry": {"coordinates": [-83.734558704, 39.660820009], "type": "Point"}, "id": "29RtofYmQ5EFQi8FDM2UOYGdNUs=", "properties": {"@spider": "usps_collection_boxes", "addr:city": "JAMESTOWN", "addr:country": "US", "addr:full": "37 N LIMESTONE ST", "addr:postcode": "45335", "addr:state": "OH", "brand": "USPS", "collection_times": "Mo-Fr 16:30; Sa 12:00", "name": "USPS COLLECTION BOX - PO LOBBY", "note": "ON 12/24 AND 12/31, THIS BOX MAY BE COLLECTED AS EARLY AS 12 NOON.", "ref": "4533500017"}, "type": "Feature"}
{"geometry": {"coordinates": [-84.338323799, 39.999317261], "type": "Point"}, "id": "RHEmLm7jwsobzbshZEeCaewS5zE=", "properties": {"@spider": "usps_collection_boxes", "addr:city": "LUDLOW FALLS", "addr:country": "US", "addr:full": "110 COVINGTON AVE", "addr:postcode": "45339", "addr:state": "OH", "brand": "USPS", "collection_times": "Mo-Fr 14:00; Sa 11:30", "name": "USPS COLLECTION BOX - PO LOBBY", "note": "ON 12/24 AND 12/31, THIS BOX MAY BE COLLECTED AS EARLY AS 12 NOON.", "ref": "4533900001"}, "type": "Feature"}
{"geometry": {"coordinates": [-84.338323799, 39.999317261], "type": "Point"}, "id": "GOXCghDJqCjIC1GTTznfpGUGDzA=", "properties": {"@spider": "usps_collection_boxes", "addr:city": "LUDLOW FALLS", "addr:country": "US", "addr:full": "110 COVINGTON AVE", "addr:postcode": "45339", "addr:state": "OH", "brand": "USPS", "collection_times": "Mo-Fr 14:00; Sa 11:15", "name": "USPS COLLECTION BOX - BLUE BOX", "note": "ON 12/24 AND 12/31, THIS BOX MAY BE COLLECTED AS EARLY AS 12 NOON.", "ref": "4533900002"}, "type": "Feature"}
{"geometry": {"coordinates": [-84.338323799, 39.999317261], "type": "Point"}, "id": "2oSrhyBZN4fcnlIdJT7PxybcDhU=", "properties": {"@spider": "usps_collection_boxes", "addr:city": "LUDLOW FALLS", "addr:country": "US", "addr:full": "110 COVINGTON AVE", "addr:postcode": "45339", "addr:state": "OH", "brand": "USPS", "collection_times": "Mo-Fr 16:30; Sa 12:30", "name": "USPS COLLECTION BOX - PO LOBBY", "note": "ON 12/24 AND 12/31, THIS BOX MAY BE COLLECTED AS EARLY AS 12 NOON.", "ref": "4533900006"}, "type": "Feature"}
{"geometry": {"coordinates": [-84.010799438, 39.881383431], "type": "Point"}, "id": "gdNJyzp65bjb8PzBLFxF0SBF31Q=", "properties": {"@spider": "usps_collection_boxes", "addr:city": "MEDWAY", "addr:country": "US", "addr:full": "117 W MAIN ST", "addr:postcode": "45341", "addr:state": "OH", "brand": "USPS", "collection_times": "Mo-Fr 14:00; Sa 12:00", "name": "USPS COLLECTION BOX - PO LOBBY", "note": "ON 12/24 AND 12/31, THIS BOX MAY BE COLLECTED AS EARLY AS 12 NOON.", "ref": "4534100000"}, "type": "Feature"}
{"geometry": {"coordinates": [-84.010799438, 39.881383431], "type": "Point"}, "id": "ZCCkWYDi96eMBbdoBB3Ij188SSU=", "properties": {"@spider": "usps_collection_boxes", "addr:city": "MEDWAY", "addr:country": "US", "addr:full": "117 W MAIN ST", "addr:postcode": "45341", "addr:state": "OH", "brand": "USPS", "collection_times": "Mo-Fr 14:00; Sa 12:00", "name": "USPS COLLECTION BOX - BLUE BOX", "note": "ON 12/24 AND 12/31, THIS BOX MAY BE COLLECTED AS EARLY AS 12 NOON.", "ref": "4534100001"}, "type": "Feature"}
{"geometry": {"coordinates": [-84.0504659, 39.858257], "type": "Point"}, "id": "k-I1NoEI4A0abidUw0JWYY2LIZA=", "properties": {"@spider": "usps_collection_boxes", "addr:city": "MEDWAY", "addr:country": "US", "addr:full": "12250 LOWER VALLEY PIKE", "addr:postcode": "45341", "addr:state": "OH", "brand": "USPS", "collection_times": "Mo-Sa 10:30", "name": "USPS COLLECTION BOX - BLUE BOX", "ref": "4534100002"}, "type": "Feature"}
{"geometry": {"coordinates": [-84.010799438, 39.881383431], "type": "Point"}, "id": "0OqfucVTdMWC9I2dinuAYXFMjVQ=", "properties": {"@spider": "usps_collection_boxes", "addr:city": "MEDWAY", "addr:country": "US", "addr:full": "117 W MAIN ST", "addr:postcode": "45341", "addr:state": "OH", "brand": "USPS", "collection_times": "Mo-Fr 16:30; Sa 12:00", "name": "USPS COLLECTION BOX - PO LOBBY", "note": "ON 12/24 AND 12/31, THIS BOX MAY BE COLLECTED AS EARLY AS 12 NOON.", "ref": "4534100005"}, "type": "Feature"}
{"geometry": {"coordinates": [-84.2211241, 39.614458], "type": "Point"}, "id": "2NxJmelDTUKBPcwxovpf74MGTm0=", "properties": {"@spider": "usps_collection_boxes", "addr:city": "MIAMISBURG", "addr:country": "US", "addr:full": "900 HUNT DR", "addr:postcode": "45342", "addr:state": "OH", "brand": "USPS", "collection_times": "Mo-Sa 14:00", "name": "USPS COLLECTION BOX - BLUE BOX", "note": "ON 12/24 AND 12/31, THIS BOX MAY BE COLLECTED AS EARLY AS 12 NOON.", "ref": "4534200015"}, "type": "Feature"}
{"geometry": {"coordinates": [-84.2268066, 39.607757], "type": "Point"}, "id": "CuSaL7xj_zRAd60FQLR6bz7lfYs=", "properties": {"@spider": "usps_collection_boxes", "addr:city": "MIAMISBURG", "addr:country": "US", "addr:full": "2835 MIAMI VILLAGE DR", "addr:postcode": "45342", "addr:state": "OH", "brand": "USPS", "collection_times": "Mo-Sa 09:00", "name": "USPS COLLECTION BOX - BLUE BOX", "ref": "4534200016"}, "type": "Feature"}
{"geometry": {"coordinates": [-84.265024451, 39.637451525], "type": "Point"}, "id": "cS7d8m0oZZSaaHVNdGKc15JgIyw=", "properties": {"@spider": "usps_collection_boxes", "addr:city": "MIAMISBURG", "addr:country": "US", "addr:full": "240 S HEINCKE RD", "addr:postcode": "45342", "addr:state": "OH", "brand": "USPS", "collection_times": "Mo-Fr 17:00; Sa 15:30", "name": "USPS COLLECTION BOX - BLUE BOX", "note": "ON 12/24 AND 12/31, THIS BOX MAY BE COLLECTED AS EARLY AS 12 NOON.", "ref": "4534200024"}, "type": "Feature"}
{"geometry": {"coordinates": [-84.265024451, 39.637451525], "type": "Point"}, "id": "bpcmm05e683d9KPr1PbjA8Yn4Iw=", "properties": {"@spider": "usps_collection_boxes", "addr:city": "MIAMISBURG", "addr:country": "US", "addr:full": "240 S HEINCKE RD", "addr:postcode": "45342", "addr:state": "OH", "brand": "USPS", "collection_times": "Mo-Fr 17:00; Sa 15:30", "name": "USPS COLLECTION BOX - PO LOBBY", "note": "ON 12/24 AND 12/31, THIS BOX MAY BE COLLECTED AS EARLY AS 12 NOON.", "ref": "4534200026"}, "type": "Feature"}
{"geometry": {"coordinates": [-84.2490794, 39.637857], "type": "Point"}, "id": "L4ihBZSgrTUKct5xLst3yb-Evu0=", "properties": {"@spider": "usps_collection_boxes", "addr:city": "MIAMISBURG", "addr:country": "US", "addr:full": "4000 MIAMISBURG CENTERVILLE RD", "addr:postcode": "45342", "addr:state": "OH", "brand": "USPS", "collection_times": "Mo-Fr 10:00; Sa 15:00", "name": "USPS COLLECTION BOX - BLUE BOX", "note": "ON 12/24 AND 12/31, THIS BOX MAY BE COLLECTED AS EARLY AS 12 NOON.", "ref": "4534200027"}, "type": "Feature"}
{"geometry": {"coordinates": [-84.2459969, 39.592346], "type": "Point"}, "id": "kzZq1TBjp6AkKqv90az_S_Km-gw=", "properties": {"@spider": "usps_collection_boxes", "addr:city": "MIAMISBURG", "addr:country": "US", "addr:full": "10401 IMPERIAL CROWN BLVD", "addr:postcode": "45342", "addr:state": "OH", "brand": "USPS", "collection_times": "Mo-Sa 10:30", "name": "USPS COLLECTION BOX - BLUE BOX", "ref": "4534200031"}, "type": "Feature"}
{"geometry": {"coordinates": [-84.2343468, 39.625831], "type": "Point"}, "id": "tQFv2GVoe4Akz4yTBBxK3gD7bFc=", "properties": {"@spider": "usps_collection_boxes", "addr:city": "MIAMISBURG", "addr:country": "US", "addr:full": "8500 TREE TOP CT S", "addr:postcode": "45342", "addr:state": "OH", "brand": "USPS", "collection_times": "Mo-Sa 10:00", "name": "USPS COLLECTION BOX - BLUE BOX", "ref": "4534200032"}, "type": "Feature"}
{"geometry": {"coordinates": [-84.2274919, 39.619178], "type": "Point"}, "id": "Q_Z1MD2AwsoT2GOtJW6MuQFsvFY=", "properties": {"@spider": "usps_collection_boxes", "addr:city": "MIAMISBURG", "addr:country": "US", "addr:full": "9009 SPRINGBORO PIKE", "addr:postcode": "45342", "addr:state": "OH", "brand": "USPS", "collection_times": "Mo-Sa 15:00", "name": "USPS COLLECTION BOX - BLUE BOX", "note": "ON 12/24 AND 12/31, THIS BOX MAY BE COLLECTED AS EARLY AS 12 NOON.", "ref": "4534200039"}, "type": "Feature"}
{"geometry": {"coordinates": [-84.2215366, 39.621957], "type": "Point"}, "id": "X0lpugFUX4RxDglLk7Xrhv4gr2I=", "properties": {"@spider": "usps_collection_boxes", "addr:city": "MIAMISBURG", "addr:country": "US", "addr:full": "9900 GANDER CRK", "addr:postcode": "45342", "addr:state": "OH", "brand": "USPS", "collection_times": "Mo-Sa 15:00", "name": "USPS COLLECTION BOX - BLUE BOX", "note": "ON 12/24 AND 12/31, THIS BOX MAY BE COLLECTED AS EARLY AS 12 NOON.", "ref": "4534200040"}, "type": "Feature"}
{"geometry": {"coordinates": [-84.226397, 39.619131], "type": "Point"}, "id": "PsKkWNa2RJprUlfLS-NIRNw7TFE=", "properties": {"@spider": "usps_collection_boxes", "addr:city": "MIAMISBURG", "addr:country": "US", "addr:full": "9080 SPRINGBORO PIKE", "addr:postcode": "45342", "addr:state": "OH", "brand": "USPS", "collection_times": "Mo-Sa 15:00", "name": "USPS COLLECTION BOX - BLUE BOX", "note": "ON 12/24 AND 12/31, THIS BOX MAY BE COLLECTED AS EARLY AS 12 NOON.", "ref": "4534200041"}, "type": "Feature"}
{"geometry": {"coordinates": [-84.2659329, 39.641504], "type": "Point"}, "id": "zjscO5YTTTgeFQVGgLaUCyLZ_F0=", "properties": {"@spider": "usps_collection_boxes", "addr:city": "MIAMISBURG", "addr:country": "US", "addr:full": "155 N HEINCKE RD", "addr:postcode": "45342", "addr:state": "OH", "brand": "USPS", "collection_times": "Mo-Sa 10:00", "name": "USPS COLLECTION BOX - BLUE BOX", "ref": "4534200047"}, "type": "Feature"}
{"geometry": {"coordinates": [-84.2295182, 39.635786], "type": "Point"}, "id": "HyOmxdD7QXEf4_FlyyWOYpEcLo0=", "properties": {"@spider": "usps_collection_boxes", "addr:city": "MIAMISBURG", "addr:country": "US", "addr:full": "1 PRESTIGE PLAZA DR", "addr:postcode": "45342", "addr:state": "OH", "brand": "USPS", "collection_times": "Mo-Sa 12:00", "name": "USPS COLLECTION BOX - BLUE BOX", "ref": "4534200051"}, "type": "Feature"}
{"geometry": {"coordinates": [-84.2272588, 39.635473], "type": "Point"}, "id": "gBJMrlzLwmLaJf0AjH2PIsD1V7s=", "properties": {"@spider": "usps_collection_boxes", "addr:city": "MIAMISBURG", "addr:country": "US", "addr:full": "2 PRESTIGE PLAZA DR", "addr:postcode": "45342", "addr:state": "OH", "brand": "USPS", "collection_times": "Mo-Sa 12:00", "name": "USPS COLLECTION BOX - BLUE BOX", "ref": "4534200052"}, "type": "Feature"}
{"geometry": {"coordinates": [-84.2233629, 39.613355], "type": "Point"}, "id": "-DbkAPEfzVb_70Kurt7tLKFntq4=", "properties": {"@spider": "usps_collection_boxes", "addr:city": "MIAMISBURG", "addr:country": "US", "addr:full": "3091 SAGEBROOK DR", "addr:postcode": "45342", "addr:state": "OH", "brand": "USPS", "collection_times": "Mo-Sa 10:00", "name": "USPS COLLECTION BOX - BLUE BOX", "ref": "4534200055"}, "type": "Feature"}
{"geometry": {"coordinates": [-84.2321092, 39.591547], "type": "Point"}, "id": "joj4_ZMVZKZfXJtG1ipF7L6TQhU=", "properties": {"@spider": "usps_collection_boxes", "addr:city": "MIAMISBURG", "addr:country": "US", "addr:full": "10800 W TECH RD", "addr:postcode": "45342", "addr:state": "OH", "brand": "USPS", "collection_times": "Mo-Fr 10:00; Sa 15:00", "name": "USPS COLLECTION BOX - BLUE BOX", "note": "ON 12/24 AND 12/31, THIS BOX MAY BE COLLECTED AS EARLY AS 12 NOON.", "ref": "4534200057"}, "type": "Feature"}
{"geometry": {"coordinates": [-84.265024451, 39.637451525], "type": "Point"}, "id": "ZoFvH9xsjx-mtLQXk35_PEluzSA=", "properties": {"@spider": "usps_collection_boxes", "addr:city": "MIAMISBURG", "addr:country": "US", "addr:full": "240 S HEINCKE RD", "addr:postcode": "45342", "addr:state": "OH", "brand": "USPS", "collection_times": "Mo-Fr 17:00; Sa 15:30", "name": "USPS COLLECTION BOX - APC", "note": "ON 12/24 AND 12/31, THIS BOX MAY BE COLLECTED AS EARLY AS 12 NOON.", "ref": "4534200058"}, "type": "Feature"}
{"geometry": {"coordinates": [-84.235464, 39.601398], "type": "Point"}, "id": "ePuawD3oAT4z_1p-urwmXhaQV0E=", "properties": {"@spider": "usps_collection_boxes", "addr:city": "MIAMISBURG", "addr:country": "US", "addr:full": "10050 INNOVATION DR", "addr:postcode": "45342", "addr:state": "OH", "brand": "USPS", "collection_times": "Mo-Sa 15:00", "name": "USPS COLLECTION BOX - BLUE BOX", "note": "ON 12/24 AND 12/31, THIS BOX MAY BE COLLECTED AS EARLY AS 12 NOON.", "ref": "4534200062"}, "type": "Feature"}
{"geometry": {"coordinates": [-84.265024451, 39.637451525], "type": "Point"}, "id": "d1ld_sXIPP4qwLsPy9d9Magv2C4=", "properties": {"@spider": "usps_collection_boxes", "addr:city": "MIAMISBURG", "addr:country": "US", "addr:full": "240 S HEINCKE RD", "addr:postcode": "45342", "addr:state": "OH", "brand": "USPS", "collection_times": "Mo-Fr 17:00; Sa 12:00", "name": "USPS COLLECTION BOX - PO LOBBY", "note": "ON 12/24 AND 12/31, THIS BOX MAY BE COLLECTED AS EARLY AS 12 NOON.", "ref": "4534200064"}, "type": "Feature"}
{"geometry": {"coordinates": [-84.02559025, 39.940824475], "type": "Point"}, "id": "zKjG47SaLY6W01Ik9dVFlg2tC2E=", "properties": {"@spider": "usps_collection_boxes", "addr:city": "NEW CARLISLE", "addr:country": "US", "addr:full": "107 W LAKE AVE", "addr:postcode": "45344", "addr:state": "OH", "brand": "USPS", "collection_times": "Mo-Fr 16:00; Sa 15:00", "name": "USPS COLLECTION BOX - BLUE BOX", "note": "ON 12/24 AND 12/31, THIS BOX MAY BE COLLECTED AS EARLY AS 12 NOON.", "ref": "4534400001"}, "type": "Feature"}
{"geometry": {"coordinates": [-84.02559025, 39.940824475], "type": "Point"}, "id": "AFZRPJybMmEWIfuhroi3vwimJL0=", "properties": {"@spider": "usps_collection_boxes", "addr:city": "NEW CARLISLE", "addr:country": "US", "addr:full": "107 W LAKE AVE", "addr:postcode": "45344", "addr:state": "OH", "brand": "USPS", "collection_times": "Mo-Fr 16:00; Sa 15:00", "name": "USPS COLLECTION BOX - BLUE BOX", "note": "ON 12/24 AND 12/31, THIS BOX MAY BE COLLECTED AS EARLY AS 12 NOON.", "ref": "4534400002"}, "type": "Feature"}
{"geometry": {"coordinates": [-84.0251699, 39.93617], "type": "Point"}, "id": "iw78Z-KMjIQBHVMd95FpMfZQFCE=", "properties": {"@spider": "usps_collection_boxes", "addr:city": "NEW CARLISLE", "addr:country": "US", "addr:full": "135 S MAIN ST", "addr:postcode": "45344", "addr:state": "OH", "brand": "USPS", "collection_times": "Mo-Sa 12:00", "name": "USPS COLLECTION BOX - BLUE BOX", "ref": "4534400006"}, "type": "Feature"}
{"geometry": {"coordinates": [-84.0221964, 39.942295], "type": "Point"}, "id": "L323sSPB6feptplq0KJLY7XmHi0=", "properties": {"@spider": "usps_collection_boxes", "addr:city": "NEW CARLISLE", "addr:country": "US", "addr:full": "199 SUNRISE TER", "addr:postcode": "45344", "addr:state": "OH", "brand": "USPS", "collection_times": "Mo-Sa 09:30", "name": "USPS COLLECTION BOX - BLUE BOX", "ref": "4534400007"}, "type": "Feature"}
{"geometry": {"coordinates": [-84.0219821, 39.946293], "type": "Point"}, "id": "3iRfQB4zPpLOdiP2iC3-M5nKZyg=", "properties": {"@spider": "usps_collection_boxes", "addr:city": "NEW CARLISLE", "addr:country": "US", "addr:full": "534 N MAIN ST", "addr:postcode": "45344", "addr:state": "OH", "brand": "USPS", "collection_times": "Mo-Sa 10:15", "name": "USPS COLLECTION BOX - BLUE BOX", "ref": "4534400012"}, "type": "Feature"}
{"geometry": {"coordinates": [-84.0458395, 39.890279], "type": "Point"}, "id": "QBEgqtrYfdwzIVH4S56N6cnMjb8=", "properties": {"@spider": "usps_collection_boxes", "addr:city": "NEW CARLISLE", "addr:country": "US", "addr:full": "1775 STYER DR", "addr:postcode": "45344", "addr:state": "OH", "brand": "USPS", "collection_times": "Mo-Sa 14:00", "name": "USPS COLLECTION BOX - BLUE BOX", "note": "ON 12/24 AND 12/31, THIS BOX MAY BE COLLECTED AS EARLY AS 12 NOON.", "ref": "4534400015"}, "type": "Feature"}
{"geometry": {"coordinates": [-84.0464365, 39.889322], "type": "Point"}, "id": "RGmOiVIWfJfClXHJj5sEh8JMbb8=", "properties": {"@spider": "usps_collection_boxes", "addr:city": "NEW CARLISLE", "addr:country": "US", "addr:full": "610 MCADAMS DR", "addr:postcode": "45344", "addr:state": "OH", "brand": "USPS", "collection_times": "Mo-Sa 11:00", "name": "USPS COLLECTION BOX - BLUE BOX", "ref": "4534400017"}, "type": "Feature"}
{"geometry": {"coordinates": [-84.0460959, 39.886956], "type": "Point"}, "id": "PwEi4-nMatCfmvaHRmsCibBRHsY=", "properties": {"@spider": "usps_collection_boxes", "addr:city": "NEW CARLISLE", "addr:country": "US", "addr:full": "1791 DALTON DR", "addr:postcode": "45344", "addr:state": "OH", "brand": "USPS", "collection_times": "Mo-Sa 10:30", "name": "USPS COLLECTION BOX - BLUE BOX", "ref": "4534400022"}, "type": "Feature"}
{"geometry": {"coordinates": [-84.02559025, 39.940824475], "type": "Point"}, "id": "4qZ-KxYqFb5YjfABwgzxbOF-7y4=", "properties": {"@spider": "usps_collection_boxes", "addr:city": "NEW CARLISLE", "addr:country": "US", "addr:full": "107 W LAKE AVE", "addr:postcode": "45344", "addr:state": "OH", "brand": "USPS", "collection_times": "Mo-Fr 16:00; Sa 15:00", "name": "USPS COLLECTION BOX - PO LOBBY", "note": "ON 12/24 AND 12/31, THIS BOX MAY BE COLLECTED AS EARLY AS 12 NOON.", "ref": "4534400024"}, "type": "Feature"}
{"geometry": {"coordinates": [-84.0217994, 39.943469], "type": "Point"}, "id": "elyHHS8I5eNO1B9y6btLMYw68sA=", "properties": {"@spider": "usps_collection_boxes", "addr:city": "NEW CARLISLE", "addr:country": "US", "addr:full": "185 RACHEL CT", "addr:postcode": "45344", "addr:state": "OH", "brand": "USPS", "collection_times": "Mo-Sa 09:30", "name": "USPS COLLECTION BOX - BLUE BOX", "ref": "4534400025"}, "type": "Feature"}
{"geometry": {"coordinates": [-84.02559025, 39.940824475], "type": "Point"}, "id": "_O9BfAcDOYmstHLZ_qXxntKELbI=", "properties": {"@spider": "usps_collection_boxes", "addr:city": "NEW CARLISLE", "addr:country": "US", "addr:full": "107 W LAKE AVE", "addr:postcode": "45344", "addr:state": "OH", "brand": "USPS", "collection_times": "Mo-Fr 16:30; Sa 12:00", "name": "USPS COLLECTION BOX - PO LOBBY", "note": "ON 12/24 AND 12/31, THIS BOX MAY BE COLLECTED AS EARLY AS 12 NOON.", "ref": "4534400029"}, "type": "Feature"}
{"geometry": {"coordinates": [-83.94005658, 39.990611462], "type": "Point"}, "id": "0fIwr6hdzOhmfQ52Z-rULOQGWaA=", "properties": {"@spider": "usps_collection_boxes", "addr:city": "NORTH HAMPTON", "addr:country": "US", "addr:full": "23 N MAIN ST", "addr:postcode": "45349", "addr:state": "OH", "brand": "USPS", "collection_times": "Mo-Fr 15:00; Sa 12:00", "name": "USPS COLLECTION BOX - PO LOBBY", "note": "ON 12/24 AND 12/31, THIS BOX MAY BE COLLECTED AS EARLY AS 12 NOON.", "ref": "4534900000"}, "type": "Feature"}
{"geometry": {"coordinates": [-83.94005658, 39.990611462], "type": "Point"}, "id": "oWRGBSDtHPNkf2-B21qo1py9B3o=", "properties": {"@spider": "usps_collection_boxes", "addr:city": "NORTH HAMPTON", "addr:country": "US", "addr:full": "23 N MAIN ST", "addr:postcode": "45349", "addr:state": "OH", "brand": "USPS", "collection_times": "Mo-Fr 15:00; Sa 11:45", "name": "USPS COLLECTION BOX - BLUE BOX", "note": "ON 12/24 AND 12/31, THIS BOX MAY BE COLLECTED AS EARLY AS 12 NOON.", "ref": "4534900001"}, "type": "Feature"}
{"geometry": {"coordinates": [-83.94005658, 39.990611462], "type": "Point"}, "id": "4esJ31fBwbCU-X9bCcQgaldL904=", "properties": {"@spider": "usps_collection_boxes", "addr:city": "NORTH HAMPTON", "addr:country": "US", "addr:full": "23 N MAIN ST", "addr:postcode": "45349", "addr:state": "OH", "brand": "USPS", "collection_times": "Mo-Fr 16:30; Sa 12:00", "name": "USPS COLLECTION BOX - PO LOBBY", "note": "ON 12/24 AND 12/31, THIS BOX MAY BE COLLECTED AS EARLY AS 12 NOON.", "ref": "4534900004"}, "type": "Feature"}
{"geometry": {"coordinates": [-83.633499046, 39.822643425], "type": "Point"}, "id": "lKKpD9JNP6ZplqhG81llQ1fAHXE=", "properties": {"@spider": "usps_collection_boxes", "addr:city": "S CHARLESTON", "addr:country": "US", "addr:full": "125 S CHILLICOTHE ST", "addr:postcode": "45368", "addr:state": "OH", "brand": "USPS", "collection_times": "Mo-Fr 16:15; Sa 11:15", "name": "USPS COLLECTION BOX - BLUE BOX", "note": "ON 12/24 AND 12/31, THIS BOX MAY BE COLLECTED AS EARLY AS 12 NOON.", "ref": "4536800000"}, "type": "Feature"}
{"geometry": {"coordinates": [-83.633499046, 39.822643425], "type": "Point"}, "id": "oudwBVe53eT-p6GcUOudwYBa1j0=", "properties": {"@spider": "usps_collection_boxes", "addr:city": "S CHARLESTON", "addr:country": "US", "addr:full": "125 S CHILLICOTHE ST", "addr:postcode": "45368", "addr:state": "OH", "brand": "USPS", "collection_times": "Mo-Fr 16:30; Sa 11:30", "name": "USPS COLLECTION BOX - PO LOBBY", "note": "ON 12/24 AND 12/31, THIS BOX MAY BE COLLECTED AS EARLY AS 12 NOON.", "ref": "4536800001"}, "type": "Feature"}
{"geometry": {"coordinates": [-83.633499046, 39.822643425], "type": "Point"}, "id": "c7Rr0xio9VRAr1_mLmurrLZ3Wyo=", "properties": {"@spider": "usps_collection_boxes", "addr:city": "S CHARLESTON", "addr:country": "US", "addr:full": "125 S CHILLICOTHE ST", "addr:postcode": "45368", "addr:state": "OH", "brand": "USPS", "collection_times": "Mo-Fr 16:30; Sa 11:30", "name": "USPS COLLECTION BOX - PO LOBBY", "note": "ON 12/24 AND 12/31, THIS BOX MAY BE COLLECTED AS EARLY AS 12 NOON.", "ref": "4536800008"}, "type": "Feature"}
{"geometry": {"coordinates": [-83.613268, 39.927742], "type": "Point"}, "id": "4xVuFXz8uuDiiYXcVL565ap8IYs=", "properties": {"@spider": "usps_collection_boxes", "addr:city": "SOUTH VIENNA", "addr:country": "US", "addr:full": "21 1/2 W MAIN ST", "addr:postcode": "45369", "addr:state": "OH", "brand": "USPS", "collection_times": "Mo-Fr 16:00; Sa 11:30", "name": "USPS COLLECTION BOX - PO LOBBY", "note": "ON 12/24 AND 12/31, THIS BOX MAY BE COLLECTED AS EARLY AS 12 NOON.", "ref": "4536900000"}, "type": "Feature"}
{"geometry": {"coordinates": [-83.613268, 39.927742], "type": "Point"}, "id": "5THIrE3pJZqt_zY9rJ5yDDILBu8=", "properties": {"@spider": "usps_collection_boxes", "addr:city": "SOUTH VIENNA", "addr:country": "US", "addr:full": "21 1/2 W MAIN ST", "addr:postcode": "45369", "addr:state": "OH", "brand": "USPS", "collection_times": "Mo-Fr 16:00; Sa 11:30", "name": "USPS COLLECTION BOX - BLUE BOX", "note": "ON 12/24 AND 12/31, THIS BOX MAY BE COLLECTED AS EARLY AS 12 NOON.", "ref": "4536900001"}, "type": "Feature"}
{"geometry": {"coordinates": [-83.6131760077, 39.9276879841], "type": "Point"}, "id": "gUcecf739SMyAqdQqRw_HZfwbhs=", "properties": {"@spider": "usps_collection_boxes", "addr:city": "SOUTH VIENNA", "addr:country": "US", "addr:full": "21 1/2 W MAIN ST", "addr:postcode": "45369", "addr:state": "OH", "brand": "USPS", "collection_times": "Mo-Fr 16:00; Sa 11:30", "name": "USPS COLLECTION BOX - PO LOBBY", "note": "ON 12/24 AND 12/31, THIS BOX MAY BE COLLECTED AS EARLY AS 12 NOON.", "ref": "4536900006"}, "type": "Feature"}
{"geometry": {"coordinates": [-84.008877482, 39.608597391], "type": "Point"}, "id": "wlUw_2Sj6gdSU9Bov8fcdOcg550=", "properties": {"@spider": "usps_collection_boxes", "addr:city": "SPRING VALLEY", "addr:country": "US", "addr:full": "9 W MAIN ST", "addr:postcode": "45370", "addr:state": "OH", "brand": "USPS", "collection_times": "Mo-Fr 14:00; Sa 11:30", "name": "USPS COLLECTION BOX - BLUE BOX", "note": "ON 12/24 AND 12/31, THIS BOX MAY BE COLLECTED AS EARLY AS 12 NOON.", "ref": "4537000000"}, "type": "Feature"}
{"geometry": {"coordinates": [-84.008877482, 39.608597391], "type": "Point"}, "id": "iu3RRjsrfn0GDbKwBl8HEt74Ib8=", "properties": {"@spider": "usps_collection_boxes", "addr:city": "SPRING VALLEY", "addr:country": "US", "addr:full": "9 W MAIN ST", "addr:postcode": "45370", "addr:state": "OH", "brand": "USPS", "collection_times": "Mo-Fr 14:00; Sa 11:30", "name": "USPS COLLECTION BOX - PO LOBBY", "note": "ON 12/24 AND 12/31, THIS BOX MAY BE COLLECTED AS EARLY AS 12 NOON.", "ref": "4537000001"}, "type": "Feature"}
{"geometry": {"coordinates": [-84.008877482, 39.608597391], "type": "Point"}, "id": "DUh7xpoyMbox1Po2aJKGqu8IGWM=", "properties": {"@spider": "usps_collection_boxes", "addr:city": "SPRING VALLEY", "addr:country": "US", "addr:full": "9 W MAIN ST", "addr:postcode": "45370", "addr:state": "OH", "brand": "USPS", "collection_times": "Mo-Fr 16:00; Sa 13:00", "name": "USPS COLLECTION BOX - PO LOBBY", "note": "ON 12/24 AND 12/31, THIS BOX MAY BE COLLECTED AS EARLY AS 12 NOON.", "ref": "4537000006"}, "type": "Feature"}
{"geometry": {"coordinates": [-84.181131788, 39.967372433], "type": "Point"}, "id": "HVNHH6ltFhgg8K0fA9FPGhY-IsY=", "properties": {"@spider": "usps_collection_boxes", "addr:city": "TIPP CITY", "addr:country": "US", "addr:full": "520 N HYATT ST", "addr:postcode": "45371", "addr:state": "OH", "brand": "USPS", "collection_times": "Mo-Fr 17:00; Sa 15:15", "name": "USPS COLLECTION BOX - PO LOBBY", "note": "ON 12/24 AND 12/31, THIS BOX MAY BE COLLECTED AS EARLY AS 12 NOON.", "ref": "4537100000"}, "type": "Feature"}
{"geometry": {"coordinates": [-84.181131788, 39.967372433], "type": "Point"}, "id": "yBV8IaF0Q_mFmyiMBmj5tyETEww=", "properties": {"@spider": "usps_collection_boxes", "addr:city": "TIPP CITY", "addr:country": "US", "addr:full": "520 N HYATT ST", "addr:postcode": "45371", "addr:state": "OH", "brand": "USPS", "collection_times": "Mo-Fr 17:00; Sa 15:15", "name": "USPS COLLECTION BOX - BLUE BOX", "note": "ON 12/24 AND 12/31, THIS BOX MAY BE COLLECTED AS EARLY AS 12 NOON.", "ref": "4537100001"}, "type": "Feature"}
{"geometry": {"coordinates": [-84.1863727, 39.961072], "type": "Point"}, "id": "Ydkoi0YS0kryglfKnp4lJIGobTM=", "properties": {"@spider": "usps_collection_boxes", "addr:city": "TIPP CITY", "addr:country": "US", "addr:full": "935 W MAIN ST", "addr:postcode": "45371", "addr:state": "OH", "brand": "USPS", "collection_times": "Mo-Sa 12:00", "name": "USPS COLLECTION BOX - BLUE BOX", "ref": "4537100015"}, "type": "Feature"}
{"geometry": {"coordinates": [-84.181131788, 39.967372433], "type": "Point"}, "id": "fC1Gb7dcgmex1fUa8WPlZ0Jw3Vc=", "properties": {"@spider": "usps_collection_boxes", "addr:city": "TIPP CITY", "addr:country": "US", "addr:full": "520 N HYATT ST", "addr:postcode": "45371", "addr:state": "OH", "brand": "USPS", "collection_times": "Mo-Fr 17:00; Sa 12:00", "name": "USPS COLLECTION BOX - PO LOBBY", "note": "ON 12/24 AND 12/31, THIS BOX MAY BE COLLECTED AS EARLY AS 12 NOON.", "ref": "4537100024"}, "type": "Feature"}
{"geometry": {"coordinates": [-83.834516326, 40.011672659], "type": "Point"}, "id": "d3MOlOQ-sbgUkbJA2p4XYD4-pgw=", "properties": {"@spider": "usps_collection_boxes", "addr:city": "TREMONT CITY", "addr:country": "US", "addr:full": "57 E MAIN", "addr:postcode": "45372", "addr:state": "OH", "brand": "USPS", "collection_times": "Mo-Fr 16:15; Sa 12:00", "name": "USPS COLLECTION BOX - PO LOBBY", "note": "ON 12/24 AND 12/31, THIS BOX MAY BE COLLECTED AS EARLY AS 12 NOON.", "ref": "4537200000"}, "type": "Feature"}
{"geometry": {"coordinates": [-83.834516326, 40.011672659], "type": "Point"}, "id": "J7X0JAYfCApXBwFwx0_2G2PohB8=", "properties": {"@spider": "usps_collection_boxes", "addr:city": "TREMONT CITY", "addr:country": "US", "addr:full": "57 E MAIN", "addr:postcode": "45372", "addr:state": "OH", "brand": "USPS", "collection_times": "Mo-Fr 16:00; Sa 12:00", "name": "USPS COLLECTION BOX - BLUE BOX", "note": "ON 12/24 AND 12/31, THIS BOX MAY BE COLLECTED AS EARLY AS 12 NOON.", "ref": "4537200001"}, "type": "Feature"}
{"geometry": {"coordinates": [-83.834516326, 40.011672659], "type": "Point"}, "id": "u99Oyj_Qb5Fw-GgRPrhBx4olKDk=", "properties": {"@spider": "usps_collection_boxes", "addr:city": "TREMONT CITY", "addr:country": "US", "addr:full": "57 E MAIN", "addr:postcode": "45372", "addr:state": "OH", "brand": "USPS", "collection_times": "Mo-Fr 16:00; Sa 12:00", "name": "USPS COLLECTION BOX - PO LOBBY", "note": "ON 12/24 AND 12/31, THIS BOX MAY BE COLLECTED AS EARLY AS 12 NOON.", "ref": "4537200006"}, "type": "Feature"}
{"geometry": {"coordinates": [-84.205656, 40.03642], "type": "Point"}, "id": "MPbdrCiNe9igErmbh4Y9n-ij1Oo=", "properties": {"@spider": "usps_collection_boxes", "addr:city": "TROY", "addr:country": "US", "addr:full": "305 S MARKET ST", "addr:postcode": "45373", "addr:state": "OH", "brand": "USPS", "collection_times": "Mo-Fr 17:00; Sa 16:15", "name": "USPS COLLECTION BOX - PO LOBBY", "note": "ON 12/24 AND 12/31, THIS BOX MAY BE COLLECTED AS EARLY AS 12 NOON.", "ref": "4537300000"}, "type": "Feature"}
{"geometry": {"coordinates": [-84.205656, 40.03642], "type": "Point"}, "id": "cUX8EyZEMLxDQUsV5jMyBcg5HNE=", "properties": {"@spider": "usps_collection_boxes", "addr:city": "TROY", "addr:country": "US", "addr:full": "305 S MARKET ST", "addr:postcode": "45373", "addr:state": "OH", "brand": "USPS", "collection_times": "Mo-Fr 17:00; Sa 16:15", "name": "USPS COLLECTION BOX - PO LOBBY", "note": "ON 12/24 AND 12/31, THIS BOX MAY BE COLLECTED AS EARLY AS 12 NOON.", "ref": "4537300001"}, "type": "Feature"}
{"geometry": {"coordinates": [-84.204764, 40.035882], "type": "Point"}, "id": "lPJUspNZlc79erBGVUwbwdfMvJI=", "properties": {"@spider": "usps_collection_boxes", "addr:city": "TROY", "addr:country": "US", "addr:full": "311 S WALNUT ST", "addr:postcode": "45373", "addr:state": "OH", "brand": "USPS", "collection_times": "Mo-Fr 17:00; Sa 16:15", "name": "USPS COLLECTION BOX - BLUE BOX", "note": "ON 12/24 AND 12/31, THIS BOX MAY BE COLLECTED AS EARLY AS 12 NOON.", "ref": "4537300003"}, "type": "Feature"}
{"geometry": {"coordinates": [-84.206854, 40.041899], "type": "Point"}, "id": "a1Ju4SsDTaSyrozN2eNxuR31sTE=", "properties": {"@spider": "usps_collection_boxes", "addr:city": "TROY", "addr:country": "US", "addr:full": "419 W MAIN ST", "addr:postcode": "45373", "addr:state": "OH", "brand": "USPS", "collection_times": "Mo-Sa 15:00", "name": "USPS COLLECTION BOX - BLUE BOX", "note": "ON 12/24 AND 12/31, THIS BOX MAY BE COLLECTED AS EARLY AS 12 NOON.", "ref": "4537300013"}, "type": "Feature"}
{"geometry": {"coordinates": [-84.2369473381, 40.0543031084], "type": "Point"}, "id": "67_nGw8QTzyRkE3cZRwPgWG_tYI=", "properties": {"@spider": "usps_collection_boxes", "addr:city": "TROY", "addr:country": "US", "addr:full": "1801 W MAIN ST", "addr:postcode": "45373", "addr:state": "OH", "brand": "USPS", "collection_times": "Mo-Sa 13:30", "name": "USPS COLLECTION BOX - BLUE BOX", "note": "ON 12/24 AND 12/31, THIS BOX MAY BE COLLECTED AS EARLY AS 12 NOON.", "ref": "4537300015"}, "type": "Feature"}
{"geometry": {"coordinates": [-84.2231524, 40.030249], "type": "Point"}, "id": "mY4YLjeTv2KO3emDh6i0JtWzZbs=", "properties": {"@spider": "usps_collection_boxes", "addr:city": "TROY", "addr:country": "US", "addr:full": "751 W MARKET ST", "addr:postcode": "45373", "addr:state": "OH", "brand": "USPS", "collection_times": "Mo-Sa 10:00", "name": "USPS COLLECTION BOX - BLUE BOX", "ref": "4537300034"}, "type": "Feature"}
{"geometry": {"coordinates": [-84.2052249, 40.040911], "type": "Point"}, "id": "FSqAcKMZcsaYxKVB4Nas58p6bTE=", "properties": {"@spider": "usps_collection_boxes", "addr:city": "TROY", "addr:country": "US", "addr:full": "201 W MAIN ST", "addr:postcode": "45373", "addr:state": "OH", "brand": "USPS", "collection_times": "Mo-Fr 15:00; Sa 09:00", "name": "USPS COLLECTION BOX - BLUE BOX", "note": "ON 12/24 AND 12/31, THIS BOX MAY BE COLLECTED AS EARLY AS 12 NOON.", "ref": "4537300038"}, "type": "Feature"}
{"geometry": {"coordinates": [-84.205656, 40.03642], "type": "Point"}, "id": "932cCGFeSzJQj2MbwgnTv-911ak=", "properties": {"@spider": "usps_collection_boxes", "addr:city": "TROY", "addr:country": "US", "addr:full": "305 S MARKET ST", "addr:postcode": "45373", "addr:state": "OH", "brand": "USPS", "collection_times": "Mo-Fr 17:00; Sa 16:15", "name": "USPS COLLECTION BOX - APC", "note": "ON 12/24 AND 12/31, THIS BOX MAY BE COLLECTED AS EARLY AS 12 NOON.", "ref": "4537300051"}, "type": "Feature"}
{"geometry": {"coordinates": [-84.1947299, 40.050335], "type": "Point"}, "id": "jxqkPxYfZqmhy47Q3coqQ51FXIs=", "properties": {"@spider": "usps_collection_boxes", "addr:city": "TROY", "addr:country": "US", "addr:full": "934 N MARKET ST", "addr:postcode": "45373", "addr:state": "OH", "brand": "USPS", "collection_times": "Mo-Fr 15:00; Sa 09:00", "name": "USPS COLLECTION BOX - BLUE BOX", "note": "ON 12/24 AND 12/31, THIS BOX MAY BE COLLECTED AS EARLY AS 12 NOON.", "ref": "4537300052"}, "type": "Feature"}
{"geometry": {"coordinates": [-84.20567803, 40.036388627], "type": "Point"}, "id": "T0HNkA0YscfXyMy5St9M_rzF7O0=", "properties": {"@spider": "usps_collection_boxes", "addr:city": "TROY", "addr:country": "US", "addr:full": "305 S MARKET ST OFC", "addr:postcode": "45373", "addr:state": "OH", "brand": "USPS", "collection_times": "Mo-Fr 17:00; Sa 12:00", "name": "USPS COLLECTION BOX - PO LOBBY", "note": "ON 12/24 AND 12/31, THIS BOX MAY BE COLLECTED AS EARLY AS 12 NOON.", "ref": "4537300058"}, "type": "Feature"}
{"geometry": {"coordinates": [-84.194232585, 39.892629516], "type": "Point"}, "id": "Y-dj-AOzq_pHOlm9GE4OdNzvsss=", "properties": {"@spider": "usps_collection_boxes", "addr:city": "VANDALIA", "addr:country": "US", "addr:full": "323 JAMES BOHANAN DR", "addr:postcode": "45377", "addr:state": "OH", "brand": "USPS", "collection_times": "Mo-Fr 17:00; Sa 15:00", "name": "USPS COLLECTION BOX - PO LOBBY", "note": "ON 12/24 AND 12/31, THIS BOX MAY BE COLLECTED AS EARLY AS 12 NOON.", "ref": "4537700000"}, "type": "Feature"}
{"geometry": {"coordinates": [-84.194232585, 39.892629516], "type": "Point"}, "id": "W0Kn5PXkljeAUHxXfPDyOyD8dV0=", "properties": {"@spider": "usps_collection_boxes", "addr:city": "VANDALIA", "addr:country": "US", "addr:full": "323 JAMES BOHANAN DR", "addr:postcode": "45377", "addr:state": "OH", "brand": "USPS", "collection_times": "Mo-Fr 17:00; Sa 15:00", "name": "USPS COLLECTION BOX - BLUE BOX", "note": "ON 12/24 AND 12/31, THIS BOX MAY BE COLLECTED AS EARLY AS 12 NOON.", "ref": "4537700003"}, "type": "Feature"}
{"geometry": {"coordinates": [-84.1981357, 39.896497], "type": "Point"}, "id": "4wSavhLT5dTMitT-bR_MA3tRFU8=", "properties": {"@spider": "usps_collection_boxes", "addr:city": "VANDALIA", "addr:country": "US", "addr:full": "336 N DIXIE DR", "addr:postcode": "45377", "addr:state": "OH", "brand": "USPS", "collection_times": "Mo-Sa 10:30", "name": "USPS COLLECTION BOX - BLUE BOX", "ref": "4537700006"}, "type": "Feature"}
{"geometry": {"coordinates": [-84.1936293, 39.890737], "type": "Point"}, "id": "TTYfj-HmFsKWBEl9dLM7GN8vUb4=", "properties": {"@spider": "usps_collection_boxes", "addr:city": "VANDALIA", "addr:country": "US", "addr:full": "344 E NATIONAL RD", "addr:postcode": "45377", "addr:state": "OH", "brand": "USPS", "collection_times": "Mo-Sa 08:30", "name": "USPS COLLECTION BOX - BLUE BOX", "ref": "4537700010"}, "type": "Feature"}
{"geometry": {"coordinates": [-84.1995704, 39.885596], "type": "Point"}, "id": "yUQZwpI-pBAXX1-BM-tDwsjYIr4=", "properties": {"@spider": "usps_collection_boxes", "addr:city": "VANDALIA", "addr:country": "US", "addr:full": "33 ELVA CT", "addr:postcode": "45377", "addr:state": "OH", "brand": "USPS", "collection_times": "Mo-Sa 08:30", "name": "USPS COLLECTION BOX - BLUE BOX", "ref": "4537700012"}, "type": "Feature"}
{"geometry": {"coordinates": [-84.2189014, 39.884901], "type": "Point"}, "id": "QlIZsVBj2Uubg-10NWyCd_5zSgU=", "properties": {"@spider": "usps_collection_boxes", "addr:city": "VANDALIA", "addr:country": "US", "addr:full": "1005 POOL AVE", "addr:postcode": "45377", "addr:state": "OH", "brand": "USPS", "collection_times": "Mo-Sa 10:00", "name": "USPS COLLECTION BOX - BLUE BOX", "ref": "4537700019"}, "type": "Feature"}
{"geometry": {"coordinates": [-84.2160166, 39.879291], "type": "Point"}, "id": "EeDFR892CvTxW3X92kLqEudXRxY=", "properties": {"@spider": "usps_collection_boxes", "addr:city": "VANDALIA", "addr:country": "US", "addr:full": "880 W ALKALINE SPRINGS RD", "addr:postcode": "45377", "addr:state": "OH", "brand": "USPS", "collection_times": "Mo-Sa 09:00", "name": "USPS COLLECTION BOX - BLUE BOX", "ref": "4537700020"}, "type": "Feature"}
{"geometry": {"coordinates": [-84.2113399, 39.88874], "type": "Point"}, "id": "hOfnnkvJY4IgouxM7Tf2aC4bxkk=", "properties": {"@spider": "usps_collection_boxes", "addr:city": "VANDALIA", "addr:country": "US", "addr:full": "732 W NATIONAL RD", "addr:postcode": "45377", "addr:state": "OH", "brand": "USPS", "collection_times": "Mo-Sa 08:30", "name": "USPS COLLECTION BOX - BLUE BOX", "ref": "4537700022"}, "type": "Feature"}
{"geometry": {"coordinates": [-84.2256583, 39.886263], "type": "Point"}, "id": "-tusbRryUdu6YRg1ER9OFAXevgU=", "properties": {"@spider": "usps_collection_boxes", "addr:city": "VANDALIA", "addr:country": "US", "addr:full": "303 CORPORATE CENTER DR", "addr:postcode": "45377", "addr:state": "OH", "brand": "USPS", "collection_times": "Mo-Fr 09:00", "name": "USPS COLLECTION BOX - BLUE BOX", "ref": "4537700025"}, "type": "Feature"}
{"geometry": {"coordinates": [-84.194232585, 39.892629516], "type": "Point"}, "id": "TZ0qcfZQGOuhTE7AXpovOOxf5ik=", "properties": {"@spider": "usps_collection_boxes", "addr:city": "VANDALIA", "addr:country": "US", "addr:full": "323 JAMES BOHANAN DR", "addr:postcode": "45377", "addr:state": "OH", "brand": "USPS", "collection_times": "Mo-Fr 17:00; Sa 12:00", "name": "USPS COLLECTION BOX - PO LOBBY", "note": "ON 12/24 AND 12/31, THIS BOX MAY BE COLLECTED AS EARLY AS 12 NOON.", "ref": "4537700028"}, "type": "Feature"}
{"geometry": {"coordinates": [-84.208398175, 39.761567717], "type": "Point"}, "id": "Uv5QCitnoGqr5z_LQpAEpJHtVHY=", "properties": {"@spider": "usps_collection_boxes", "addr:city": "DAYTON", "addr:country": "US", "addr:full": "15 DAYTON AVE", "addr:postcode": "45381", "addr:state": "OH", "brand": "USPS", "collection_times": "Mo-Fr 16:15; Sa 12:00", "name": "USPS COLLECTION BOX - BLUE BOX", "note": "ON 12/24 AND 12/31, THIS BOX MAY BE COLLECTED AS EARLY AS 12 NOON.", "ref": "4538100006"}, "type": "Feature"}
{"geometry": {"coordinates": [-84.208398175, 39.761567717], "type": "Point"}, "id": "D1Un4Y17rO3aL5Q5TP-sf2-k8n0=", "properties": {"@spider": "usps_collection_boxes", "addr:city": "DAYTON", "addr:country": "US", "addr:full": "15 DAYTON AVE", "addr:postcode": "45381", "addr:state": "OH", "brand": "USPS", "collection_times": "Mo-Fr 16:30; Sa 12:00", "name": "USPS COLLECTION BOX - PO LOBBY", "note": "ON 12/24 AND 12/31, THIS BOX MAY BE COLLECTED AS EARLY AS 12 NOON.", "ref": "4538100013"}, "type": "Feature"}
{"geometry": {"coordinates": [-84.329277572, 39.962801797], "type": "Point"}, "id": "b7ZOL2BvK7HT7QUzw-brAwH0kqk=", "properties": {"@spider": "usps_collection_boxes", "addr:city": "WEST MILTON", "addr:country": "US", "addr:full": "30 N MAIN ST", "addr:postcode": "45383", "addr:state": "OH", "brand": "USPS", "collection_times": "Mo-Fr 16:30; Sa 15:00", "name": "USPS COLLECTION BOX - BLUE BOX", "note": "ON 12/24 AND 12/31, THIS BOX MAY BE COLLECTED AS EARLY AS 12 NOON.", "ref": "4538300001"}, "type": "Feature"}
{"geometry": {"coordinates": [-84.329277572, 39.962801797], "type": "Point"}, "id": "xhZ2zihdIUlgSfa7hJK5_DT6NdY=", "properties": {"@spider": "usps_collection_boxes", "addr:city": "WEST MILTON", "addr:country": "US", "addr:full": "30 N MAIN ST", "addr:postcode": "45383", "addr:state": "OH", "brand": "USPS", "collection_times": "Mo-Fr 16:30; Sa 15:00", "name": "USPS COLLECTION BOX - PO LOBBY", "note": "ON 12/24 AND 12/31, THIS BOX MAY BE COLLECTED AS EARLY AS 12 NOON.", "ref": "4538300017"}, "type": "Feature"}
{"geometry": {"coordinates": [-84.329277572, 39.962801797], "type": "Point"}, "id": "gisntrkTh3NdA_5neLAPMPyBIGM=", "properties": {"@spider": "usps_collection_boxes", "addr:city": "WEST MILTON", "addr:country": "US", "addr:full": "30 N MAIN ST", "addr:postcode": "45383", "addr:state": "OH", "brand": "USPS", "collection_times": "Mo-Fr 16:30; Sa 12:00", "name": "USPS COLLECTION BOX - PO LOBBY", "note": "ON 12/24 AND 12/31, THIS BOX MAY BE COLLECTED AS EARLY AS 12 NOON.", "ref": "4538300025"}, "type": "Feature"}
{"geometry": {"coordinates": [-83.87741844, 39.713232986], "type": "Point"}, "id": "mv_nhCC3_b32Y0h5H2vF-4yWWSU=", "properties": {"@spider": "usps_collection_boxes", "addr:city": "WILBERFORCE", "addr:country": "US", "addr:full": "1441 BRUSH ROW RD", "addr:postcode": "45384", "addr:state": "OH", "brand": "USPS", "collection_times": "Mo-Fr 14:00; Sa 12:00", "name": "USPS COLLECTION BOX - BLUE BOX", "note": "ON 12/24 AND 12/31, THIS BOX MAY BE COLLECTED AS EARLY AS 12 NOON.", "ref": "4538400000"}, "type": "Feature"}
{"geometry": {"coordinates": [-83.87741844, 39.713232986], "type": "Point"}, "id": "YrNsEljOfsSC4l1yoyLfQVgIZDI=", "properties": {"@spider": "usps_collection_boxes", "addr:city": "WILBERFORCE", "addr:country": "US", "addr:full": "1441 BRUSH ROW RD", "addr:postcode": "45384", "addr:state": "OH", "brand": "USPS", "collection_times": "Mo-Fr 14:00; Sa 12:00", "name": "USPS COLLECTION BOX - PO LOBBY", "note": "ON 12/24 AND 12/31, THIS BOX MAY BE COLLECTED AS EARLY AS 12 NOON.", "ref": "4538400001"}, "type": "Feature"}
{"geometry": {"coordinates": [-83.87741844, 39.713232986], "type": "Point"}, "id": "j4fkEMrfL0xYPtAauoLyuPV6JkU=", "properties": {"@spider": "usps_collection_boxes", "addr:city": "WILBERFORCE", "addr:country": "US", "addr:full": "1441 BRUSH ROW RD", "addr:postcode": "45384", "addr:state": "OH", "brand": "USPS", "collection_times": "Mo-Fr 16:00; Sa 12:00", "name": "USPS COLLECTION BOX - PO LOBBY", "note": "ON 12/24 AND 12/31, THIS BOX MAY BE COLLECTED AS EARLY AS 12 NOON.", "ref": "4538400004"}, "type": "Feature"}
{"geometry": {"coordinates": [-83.926150665, 39.685282619], "type": "Point"}, "id": "x1DXWLvCO-bYuUATpqElUSr8t7M=", "properties": {"@spider": "usps_collection_boxes", "addr:city": "XENIA", "addr:country": "US", "addr:full": "189 E MAIN ST", "addr:postcode": "45385", "addr:state": "OH", "brand": "USPS", "collection_times": "Mo-Fr 17:00; Sa 16:00", "name": "USPS COLLECTION BOX - BLUE BOX", "note": "ON 12/24 AND 12/31, THIS BOX MAY BE COLLECTED AS EARLY AS 12 NOON.", "ref": "4538500003"}, "type": "Feature"}
{"geometry": {"coordinates": [-83.926150665, 39.685282619], "type": "Point"}, "id": "8PzAomy9PcrL8nJq3TuKUId0CNk=", "properties": {"@spider": "usps_collection_boxes", "addr:city": "XENIA", "addr:country": "US", "addr:full": "189 E MAIN ST", "addr:postcode": "45385", "addr:state": "OH", "brand": "USPS", "collection_times": "Mo-Fr 17:00; Sa 16:00", "name": "USPS COLLECTION BOX - BLUE BOX", "note": "ON 12/24 AND 12/31, THIS BOX MAY BE COLLECTED AS EARLY AS 12 NOON.", "ref": "4538500004"}, "type": "Feature"}
{"geometry": {"coordinates": [-83.926150665, 39.685282619], "type": "Point"}, "id": "EVXJ3QP-dUl1NWg66y4V8miitLY=", "properties": {"@spider": "usps_collection_boxes", "addr:city": "XENIA", "addr:country": "US", "addr:full": "189 E MAIN ST", "addr:postcode": "45385", "addr:state": "OH", "brand": "USPS", "collection_times": "Mo-Fr 17:00; Sa 16:00", "name": "USPS COLLECTION BOX - BLUE BOX", "note": "ON 12/24 AND 12/31, THIS BOX MAY BE COLLECTED AS EARLY AS 12 NOON.", "ref": "4538500005"}, "type": "Feature"}
{"geometry": {"coordinates": [-83.926150665, 39.685282619], "type": "Point"}, "id": "tKttRDk_cVjyAwdnuixT3CYSRaQ=", "properties": {"@spider": "usps_collection_boxes", "addr:city": "XENIA", "addr:country": "US", "addr:full": "189 E MAIN ST", "addr:postcode": "45385", "addr:state": "OH", "brand": "USPS", "collection_times": "Mo-Fr 17:00; Sa 16:00", "name": "USPS COLLECTION BOX - BLUE BOX", "note": "ON 12/24 AND 12/31, THIS BOX MAY BE COLLECTED AS EARLY AS 12 NOON.", "ref": "4538500006"}, "type": "Feature"}
{"geometry": {"coordinates": [-83.926150665, 39.685282619], "type": "Point"}, "id": "aK1cLOTmkQDC2J3cPpNy9mlTFcE=", "properties": {"@spider": "usps_collection_boxes", "addr:city": "XENIA", "addr:country": "US", "addr:full": "189 E MAIN ST", "addr:postcode": "45385", "addr:state": "OH", "brand": "USPS", "collection_times": "Mo-Fr 17:00; Sa 16:00", "name": "USPS COLLECTION BOX - PO LOBBY", "note": "ON 12/24 AND 12/31, THIS BOX MAY BE COLLECTED AS EARLY AS 12 NOON.", "ref": "4538500014"}, "type": "Feature"}
{"geometry": {"coordinates": [-83.9428999, 39.666541], "type": "Point"}, "id": "r5nJy9UWAv0JWt4WRgGozL9WV60=", "properties": {"@spider": "usps_collection_boxes", "addr:city": "XENIA", "addr:country": "US", "addr:full": "541 LEDBETTER RD", "addr:postcode": "45385", "addr:state": "OH", "brand": "USPS", "collection_times": "Mo-Sa 14:00", "name": "USPS COLLECTION BOX - BLUE BOX", "note": "ON 12/24 AND 12/31, THIS BOX MAY BE COLLECTED AS EARLY AS 12 NOON.", "ref": "4538500022"}, "type": "Feature"}
{"geometry": {"coordinates": [-83.9289984, 39.686091], "type": "Point"}, "id": "UrpHxBpSJ79PkwAd9ss_nExcZ9A=", "properties": {"@spider": "usps_collection_boxes", "addr:city": "XENIA", "addr:country": "US", "addr:full": "77 E MARKET ST", "addr:postcode": "45385", "addr:state": "OH", "brand": "USPS", "collection_times": "Mo-Fr 15:00; Sa 14:45", "name": "USPS COLLECTION BOX - BLUE BOX", "note": "ON 12/24 AND 12/31, THIS BOX MAY BE COLLECTED AS EARLY AS 12 NOON.", "ref": "4538500042"}, "type": "Feature"}
{"geometry": {"coordinates": [-83.9289859, 39.68609], "type": "Point"}, "id": "pPiBzX99qpM00VSES5W95NC03Xg=", "properties": {"@spider": "usps_collection_boxes", "addr:city": "XENIA", "addr:country": "US", "addr:full": "77 E MARKET ST", "addr:postcode": "45385", "addr:state": "OH", "brand": "USPS", "collection_times": "Mo-Fr 15:00; Sa 14:45", "name": "USPS COLLECTION BOX - BLUE BOX", "note": "ON 12/24 AND 12/31, THIS BOX MAY BE COLLECTED AS EARLY AS 12 NOON.", "ref": "4538500044"}, "type": "Feature"}
{"geometry": {"coordinates": [-83.926150665, 39.685282619], "type": "Point"}, "id": "kFDQ-4Xw01CE91DjypknOy3DmsY=", "properties": {"@spider": "usps_collection_boxes", "addr:city": "XENIA", "addr:country": "US", "addr:full": "189 E MAIN ST", "addr:postcode": "45385", "addr:state": "OH", "brand": "USPS", "collection_times": "Mo-Fr 17:00; Sa 16:00", "name": "USPS COLLECTION BOX - PO LOBBY", "note": "ON 12/24 AND 12/31, THIS BOX MAY BE COLLECTED AS EARLY AS 12 NOON.", "ref": "4538500051"}, "type": "Feature"}
{"geometry": {"coordinates": [-83.9289868, 39.686091], "type": "Point"}, "id": "jJpdXzqnVHBU3YhkILu4XaaomiI=", "properties": {"@spider": "usps_collection_boxes", "addr:city": "XENIA", "addr:country": "US", "addr:full": "77 E MARKET ST", "addr:postcode": "45385", "addr:state": "OH", "brand": "USPS", "collection_times": "Mo-Fr 15:00; Sa 14:45", "name": "USPS COLLECTION BOX - BLUE BOX", "note": "ON 12/24 AND 12/31, THIS BOX MAY BE COLLECTED AS EARLY AS 12 NOON.", "ref": "4538500052"}, "type": "Feature"}
{"geometry": {"coordinates": [-83.926150665, 39.685282619], "type": "Point"}, "id": "zElgR41yw3I09K9rxvSsrd9Wfyw=", "properties": {"@spider": "usps_collection_boxes", "addr:city": "XENIA", "addr:country": "US", "addr:full": "189 E MAIN ST", "addr:postcode": "45385", "addr:state": "OH", "brand": "USPS", "collection_times": "Mo-Fr 17:00; Sa 12:00", "name": "USPS COLLECTION BOX - PO LOBBY", "note": "ON 12/24 AND 12/31, THIS BOX MAY BE COLLECTED AS EARLY AS 12 NOON.", "ref": "4538500056"}, "type": "Feature"}
{"geometry": {"coordinates": [-83.88842022, 39.806608632], "type": "Point"}, "id": "_lX4vwZSFzE8JyDJKVDQ_8XTrD8=", "properties": {"@spider": "usps_collection_boxes", "addr:city": "YELLOW SPRINGS", "addr:country": "US", "addr:full": "120 CORRY ST", "addr:postcode": "45387", "addr:state": "OH", "brand": "USPS", "collection_times": "Mo-Fr 16:30; Sa 12:00", "name": "USPS COLLECTION BOX - BLUE BOX", "note": "ON 12/24 AND 12/31, THIS BOX MAY BE COLLECTED AS EARLY AS 12 NOON.", "ref": "4538700003"}, "type": "Feature"}
{"geometry": {"coordinates": [-83.889408, 39.805059], "type": "Point"}, "id": "NjE4pMxgc3tPJm4S339x99r_1Nk=", "properties": {"@spider": "usps_collection_boxes", "addr:city": "YELLOW SPRINGS", "addr:country": "US", "addr:full": "266 XENIA AVE", "addr:postcode": "45387", "addr:state": "OH", "brand": "USPS", "collection_times": "Mo-Fr 16:30; Sa 12:00", "name": "USPS COLLECTION BOX - BLUE BOX", "note": "ON 12/24 AND 12/31, THIS BOX MAY BE COLLECTED AS EARLY AS 12 NOON.", "ref": "4538700010"}, "type": "Feature"}
{"geometry": {"coordinates": [-83.88842022, 39.806608632], "type": "Point"}, "id": "oR33qftyeA6hS47O8h9OPgjsH1g=", "properties": {"@spider": "usps_collection_boxes", "addr:city": "YELLOW SPRINGS", "addr:country": "US", "addr:full": "120 CORRY ST", "addr:postcode": "45387", "addr:state": "OH", "brand": "USPS", "collection_times": "Mo-Fr 16:30; Sa 12:00", "name": "USPS COLLECTION BOX - PO LOBBY", "note": "ON 12/24 AND 12/31, THIS BOX MAY BE COLLECTED AS EARLY AS 12 NOON.", "ref": "4538700012"}, "type": "Feature"}
{"geometry": {"coordinates": [-83.88842022, 39.806608632], "type": "Point"}, "id": "K9Cu-CFWnghxV6rfLOd8zHzngyc=", "properties": {"@spider": "usps_collection_boxes", "addr:city": "YELLOW SPRINGS", "addr:country": "US", "addr:full": "120 CORRY ST", "addr:postcode": "45387", "addr:state": "OH", "brand": "USPS", "collection_times": "Mo-Fr 16:30; Sa 12:00", "name": "USPS COLLECTION BOX - PO LOBBY", "note": "ON 12/24 AND 12/31, THIS BOX MAY BE COLLECTED AS EARLY AS 12 NOON.", "ref": "4538700021"}, "type": "Feature"}
{"geometry": {"coordinates": [-84.024954534, 40.056298555], "type": "Point"}, "id": "3UdyERd8cJrpqIv7ijnMzx1Vd2s=", "properties": {"@spider": "usps_collection_boxes", "addr:city": "CHRISTIANSBURG", "addr:country": "US", "addr:full": "6 E 1ST ST", "addr:postcode": "45389", "addr:state": "OH", "brand": "USPS", "collection_times": "Mo-Fr 16:00; Sa 11:30", "name": "USPS COLLECTION BOX - BLUE BOX", "note": "ON 12/24 AND 12/31, THIS BOX MAY BE COLLECTED AS EARLY AS 12 NOON.", "ref": "4538900000"}, "type": "Feature"}
{"geometry": {"coordinates": [-84.024954534, 40.056298555], "type": "Point"}, "id": "-4WQKWaLdw79-m9qkWgwxg9ypnU=", "properties": {"@spider": "usps_collection_boxes", "addr:city": "CHRISTIANSBURG", "addr:country": "US", "addr:full": "6 E 1ST ST", "addr:postcode": "45389", "addr:state": "OH", "brand": "USPS", "collection_times": "Mo-Fr 16:00; Sa 11:30", "name": "USPS COLLECTION BOX - PO LOBBY", "note": "ON 12/24 AND 12/31, THIS BOX MAY BE COLLECTED AS EARLY AS 12 NOON.", "ref": "4538900001"}, "type": "Feature"}
{"geometry": {"coordinates": [-84.024954534, 40.056298555], "type": "Point"}, "id": "58Xq2nEvHZpq88_w8Kmwi5OdqEc=", "properties": {"@spider": "usps_collection_boxes", "addr:city": "CHRISTIANSBURG", "addr:country": "US", "addr:full": "6 E 1ST ST", "addr:postcode": "45389", "addr:state": "OH", "brand": "USPS", "collection_times": "Mo-Fr 16:30; Sa 12:00", "name": "USPS COLLECTION BOX - PO LOBBY", "note": "ON 12/24 AND 12/31, THIS BOX MAY BE COLLECTED AS EARLY AS 12 NOON.", "ref": "4538900004"}, "type": "Feature"}
