{"geometry": {"coordinates": [-84.178376617, 39.757794253], "type": "Point"}, "id": "b3-NskX6S00qg6g8KwW_pafjlxM=", "properties": {"@source_uri": "https://tools.usps.com/UspsToolsRestServices/rest/POLocator/findLocations", "@spider": "usps_collection_boxes", "addr:city": "DAYTON", "addr:country": "US", "addr:postcode": "45401", "addr:state": "OH", "addr:street_address": "1111 E 5TH ST", "amenity": "post_box", "collection_times": "Mo-Fr 17:00; Sa 14:00", "indoor": "yes", "note": "ON 12/24 AND 12/31, THIS BOX MAY BE COLLECTED AS EARLY AS 12 NOON.", "nsi_id": "unitedstatespostalservice-a77078", "operator": "United States Postal Service", "operator:short": "USPS", "operator:type": "public", "operator:wikidata": "Q668687", "ref": "4540100000"}, "type": "Feature"}
{"geometry": {"coordinates": [-84.178376617, 39.757794253], "type": "Point"}, "id": "pB9cvzmCiaWLYe_qiFgEi4b-pDE=", "properties": {"@source_uri": "https://tools.usps.com/UspsToolsRestServices/rest/POLocator/findLocations", "@spider": "usps_collection_boxes", "addr:city": "DAYTON", "addr:country": "US", "addr:postcode": "45401", "addr:state": "OH", "addr:street_address": "1111 E 5TH ST", "amenity": "post_box", "collection_times": "Mo-Fr 17:00; Sa 14:00", "indoor": "yes", "note": "ON 12/24 AND 12/31, THIS BOX MAY BE COLLECTED AS EARLY AS 12 NOON.", "nsi_id": "unitedstatespostalservice-a77078", "operator": "United States Postal Service", "operator:short": "USPS", "operator:type": "public", "operator:wikidata": "Q668687", "ref": "4540100001"}, "type": "Feature"}
{"geometry": {"coordinates": [-84.178376617, 39.757794253], "type": "Point"}, "id": "thRlR25gVhxf-o-8mNWch6K0T1k=", "properties": {"@source_uri": "https://tools.usps.com/UspsToolsRestServices/rest/POLocator/findLocations", "@spider": "usps_collection_boxes", "addr:city": "DAYTON", "addr:country": "US", "addr:postcode": "45401", "addr:state": "OH", "addr:street_address": "1111 E 5TH ST", "amenity": "post_box", "collection_times": "Mo-Fr 17:00; Sa 14:00", "note": "ON 12/24 AND 12/31, THIS BOX MAY BE COLLECTED AS EARLY AS 12 NOON.", "nsi_id": "unitedstatespostalservice-a77078", "operator": "United States Postal Service", "operator:short": "USPS", "operator:type": "public", "operator:wikidata": "Q668687", "ref": "4540100003"}, "type": "Feature"}
{"geometry": {"coordinates": [-84.178376617, 39.757794253], "type": "Point"}, "id": "NlNTAc7twtPWYZlyiGp6mpxVsV0=", "properties": {"@source_uri": "https://tools.usps.com/UspsToolsRestServices/rest/POLocator/findLocations", "@spider": "usps_collection_boxes", "addr:city": "DAYTON", "addr:country": "US", "addr:postcode": "45401", "addr:state": "OH", "addr:street_address": "1111 E 5TH ST", "amenity": "post_box", "collection_times": "Mo-Fr 17:00; Sa 14:00", "name": "USPS COLLECTION BOX - APC", "note": "ON 12/24 AND 12/31, THIS BOX MAY BE COLLECTED AS EARLY AS 12 NOON.", "nsi_id": "unitedstatespostalservice-a77078", "operator": "United States Postal Service", "operator:short": "USPS", "operator:type": "public", "operator:wikidata": "Q668687", "ref": "4540100004"}, "type": "Feature"}
{"geometry": {"coordinates": [-84.178376617, 39.757794253], "type": "Point"}, "id": "pTksHrA6Pf7lBH1HihAdtwQ76SY=", "properties": {"@source_uri": "https://tools.usps.com/UspsToolsRestServices/rest/POLocator/findLocations", "@spider": "usps_collection_boxes", "addr:city": "DAYTON", "addr:country": "US", "addr:postcode": "45401", "addr:state": "OH", "addr:street_address": "1111 E 5TH ST", "amenity": "post_box", "collection_times": "Mo-Fr 18:00; Sa 14:00", "indoor": "yes", "note": "ON 12/24 AND 12/31, THIS BOX MAY BE COLLECTED AS EARLY AS 12 NOON.", "nsi_id": "unitedstatespostalservice-a77078", "operator": "United States Postal Service", "operator:short": "USPS", "operator:type": "public", "operator:wikidata": "Q668687", "ref": "4540100010"}, "type": "Feature"}
{"geometry": {"coordinates": [-84.1909799, 39.756182], "type": "Point"}, "id": "SVpT5uJXgIvgAp0yB0ZC7U4Cp9M=", "properties": {"@source_uri": "https://tools.usps.com/UspsToolsRestServices/rest/POLocator/findLocations", "@spider": "usps_collection_boxes", "addr:city": "DAYTON", "addr:country": "US", "addr:postcode": "45402", "addr:state": "OH", "addr:street_address": "211 S MAIN ST", "amenity": "post_box", "collection_times": "Mo-Fr 09:00", "nsi_id": "unitedstatespostalservice-a77078", "operator": "United States Postal Service", "operator:short": "USPS", "operator:type": "public", "operator:wikidata": "Q668687", "ref": "4540200007"}, "type": "Feature"}
{"geometry": {"coordinates": [-84.19481248, 39.757199753], "type": "Point"}, "id": "pygSkiDxZm5OLb2dZKUGWYE-_Iw=", "properties": {"@source_uri": "https://tools.usps.com/UspsToolsRestServices/rest/POLocator/findLocations", "@spider": "usps_collection_boxes", "addr:city": "DAYTON", "addr:country": "US", "addr:postcode": "45402", "addr:state": "OH", "addr:street_address": "105 S WILKINSON ST", "amenity": "post_box", "collection_times": "Mo-Fr 10:30", "nsi_id": "unitedstatespostalservice-a77078", "operator": "United States Postal Service", "operator:short": "USPS", "operator:type": "public", "operator:wikidata": "Q668687", "ref": "4540200010"}, "type": "Feature"}
{"geometry": {"coordinates": [-84.190334155, 39.761192055], "type": "Point"}, "id": "lCS-teBD3CDTX4IpHp_SrHyuRuo=", "properties": {"@source_uri": "https://tools.usps.com/UspsToolsRestServices/rest/POLocator/findLocations", "@spider": "usps_collection_boxes", "addr:city": "DAYTON", "addr:country": "US", "addr:postcode": "45402", "addr:state": "OH", "addr:street_address": "100 E 2ND ST", "amenity": "post_box", "collection_times": "Mo-Fr 09:00", "nsi_id": "unitedstatespostalservice-a77078", "operator": "United States Postal Service", "operator:short": "USPS", "operator:type": "public", "operator:wikidata": "Q668687", "ref": "4540200022"}, "type": "Feature"}
{"geometry": {"coordinates": [-84.189988877, 39.759891238], "type": "Point"}, "id": "hu-IHHUAxJVusfF9AtHsepxfkDA=", "properties": {"@source_uri": "https://tools.usps.com/UspsToolsRestServices/rest/POLocator/findLocations", "@spider": "usps_collection_boxes", "addr:city": "DAYTON", "addr:country": "US", "addr:postcode": "45402", "addr:state": "OH", "addr:street_address": "2 N JEFFERSON ST", "amenity": "post_box", "collection_times": "Mo-Fr 09:00", "nsi_id": "unitedstatespostalservice-a77078", "operator": "United States Postal Service", "operator:short": "USPS", "operator:type": "public", "operator:wikidata": "Q668687", "ref": "4540200028"}, "type": "Feature"}
{"geometry": {"coordinates": [-84.19636479, 39.75978116], "type": "Point"}, "id": "svzJe122pXQ2rX2Eag6P8AaAiVk=", "properties": {"@source_uri": "https://tools.usps.com/UspsToolsRestServices/rest/POLocator/findLocations", "@spider": "usps_collection_boxes", "addr:city": "DAYTON", "addr:country": "US", "addr:postcode": "45402", "addr:state": "OH", "addr:street_address": "41 N PERRY ST", "amenity": "post_box", "collection_times": "Mo-Fr 15:15", "note": "ON 12/24 AND 12/31, THIS BOX MAY BE COLLECTED AS EARLY AS 12 NOON.", "nsi_id": "unitedstatespostalservice-a77078", "operator": "United States Postal Service", "operator:short": "USPS", "operator:type": "public", "operator:wikidata": "Q668687", "ref": "4540200045"}, "type": "Feature"}
{"geometry": {"coordinates": [-84.1916800217, 39.7614459879], "type": "Point"}, "id": "pF70VXoRTy3RXxjQ-BjyuvlCq7M=", "properties": {"@source_uri": "https://tools.usps.com/UspsToolsRestServices/rest/POLocator/findLocations", "@spider": "usps_collection_boxes", "addr:city": "DAYTON", "addr:country": "US", "addr:postcode": "45402", "addr:state": "OH", "addr:street_address": "110 N MAIN ST", "amenity": "post_box", "collection_times": "Mo-Fr 17:00", "note": "ON 12/24 AND 12/31, THIS BOX MAY BE COLLECTED AS EARLY AS 12 NOON.", "nsi_id": "unitedstatespostalservice-a77078", "operator": "United States Postal Service", "operator:short": "USPS", "operator:type": "public", "operator:wikidata": "Q668687", "ref": "4540200060"}, "type": "Feature"}
{"geometry": {"coordinates": [-84.1898705, 39.75958], "type": "Point"}, "id": "OA7xNCx8RUr8SrYkL8T-FlttNIE=", "properties": {"@source_uri": "https://tools.usps.com/UspsToolsRestServices/rest/POLocator/findLocations", "@spider": "usps_collection_boxes", "addr:city": "DAYTON", "addr:country": "US", "addr:postcode": "45402", "addr:state": "OH", "addr:street_address": "5 S JEFFERSON ST", "amenity": "post_box", "collection_times": "Mo-Fr 09:00", "nsi_id": "unitedstatespostalservice-a77078", "operator": "United States Postal Service", "operator:short": "USPS", "operator:type": "public", "operator:wikidata": "Q668687", "ref": "4540200069"}, "type": "Feature"}
{"geometry": {"coordinates": [-84.1847299, 39.762238], "type": "Point"}, "id": "xCK7HVrOiL5Y4m4XbWKJdUa-Duc=", "properties": {"@source_uri": "https://tools.usps.com/UspsToolsRestServices/rest/POLocator/findLocations", "@spider": "usps_collection_boxes", "addr:city": "DAYTON", "addr:country": "US", "addr:postcode": "45402", "addr:state": "OH", "addr:street_address": "411 E 2ND ST", "amenity": "post_box", "collection_times": "Mo-Fr 09:00", "nsi_id": "unitedstatespostalservice-a77078", "operator": "United States Postal Service", "operator:short": "USPS", "operator:type": "public", "operator:wikidata": "Q668687", "ref": "4540200072"}, "type": "Feature"}
{"geometry": {"coordinates": [-84.1934811, 39.763735], "type": "Point"}, "id": "q2401h8vZprhXRpvO2cIEfvenjw=", "properties": {"@source_uri": "https://tools.usps.com/UspsToolsRestServices/rest/POLocator/findLocations", "@spider": "usps_collection_boxes", "addr:city": "DAYTON", "addr:country": "US", "addr:postcode": "45402", "addr:state": "OH", "addr:street_address": "11 W MONUMENT AVE", "amenity": "post_box", "collection_times": "Mo-Fr 16:00", "note": "ON 12/24 AND 12/31, THIS BOX MAY BE COLLECTED AS EARLY AS 12 NOON.", "nsi_id": "unitedstatespostalservice-a77078", "operator": "United States Postal Service", "operator:short": "USPS", "operator:type": "public", "operator:wikidata": "Q668687", "ref": "4540200084"}, "type": "Feature"}
{"geometry": {"coordinates": [-84.1940626, 39.761492], "type": "Point"}, "id": "0VcRBqJVfL4pSHysfw31fErtNRc=", "properties": {"@source_uri": "https://tools.usps.com/UspsToolsRestServices/rest/POLocator/findLocations", "@spider": "usps_collection_boxes", "addr:city": "DAYTON", "addr:country": "US", "addr:postcode": "45402", "addr:state": "OH", "addr:street_address": "125 N LUDLOW ST", "amenity": "post_box", "collection_times": "Mo-Fr 09:00", "nsi_id": "unitedstatespostalservice-a77078", "operator": "United States Postal Service", "operator:short": "USPS", "operator:type": "public", "operator:wikidata": "Q668687", "ref": "4540200085"}, "type": "Feature"}
{"geometry": {"coordinates": [-84.1920399, 39.753117], "type": "Point"}, "id": "wjMR6Xk8MeHpM2J4ly-YNFX7iYk=", "properties": {"@source_uri": "https://tools.usps.com/UspsToolsRestServices/rest/POLocator/findLocations", "@spider": "usps_collection_boxes", "addr:city": "DAYTON", "addr:country": "US", "addr:postcode": "45402", "addr:state": "OH", "addr:street_address": "505 S LUDLOW ST", "amenity": "post_box", "collection_times": "Mo-Fr 15:30", "note": "ON 12/24 AND 12/31, THIS BOX MAY BE COLLECTED AS EARLY AS 12 NOON.", "nsi_id": "unitedstatespostalservice-a77078", "operator": "United States Postal Service", "operator:short": "USPS", "operator:type": "public", "operator:wikidata": "Q668687", "ref": "4540200093"}, "type": "Feature"}
{"geometry": {"coordinates": [-84.1911227, 39.749725], "type": "Point"}, "id": "R6yrDGZHWFW96wQMpOo_kaR67E0=", "properties": {"@source_uri": "https://tools.usps.com/UspsToolsRestServices/rest/POLocator/findLocations", "@spider": "usps_collection_boxes", "addr:city": "DAYTON", "addr:country": "US", "addr:postcode": "45402", "addr:state": "OH", "addr:street_address": "825 S LUDLOW ST", "amenity": "post_box", "collection_times": "Mo-Fr 16:00", "note": "ON 12/24 AND 12/31, THIS BOX MAY BE COLLECTED AS EARLY AS 12 NOON.", "nsi_id": "unitedstatespostalservice-a77078", "operator": "United States Postal Service", "operator:short": "USPS", "operator:type": "public", "operator:wikidata": "Q668687", "ref": "4540200094"}, "type": "Feature"}
{"geometry": {"coordinates": [-84.1923008, 39.762424], "type": "Point"}, "id": "ksaHppGSZfJdfsGMGS2SqshR-dw=", "properties": {"@source_uri": "https://tools.usps.com/UspsToolsRestServices/rest/POLocator/findLocations", "@spider": "usps_collection_boxes", "addr:city": "DAYTON", "addr:country": "US", "addr:postcode": "45402", "addr:state": "OH", "addr:street_address": "210 N MAIN ST", "amenity": "post_box", "collection_times": "Mo-Fr 09:00", "nsi_id": "unitedstatespostalservice-a77078", "operator": "United States Postal Service", "operator:short": "USPS", "operator:type": "public", "operator:wikidata": "Q668687", "ref": "4540200116"}, "type": "Feature"}
{"geometry": {"coordinates": [-84.1939282348, 39.7592063], "type": "Point"}, "id": "CV1LN2IihoiCKuvkydmnAXT7-Io=", "properties": {"@source_uri": "https://tools.usps.com/UspsToolsRestServices/rest/POLocator/findLocations", "@spider": "usps_collection_boxes", "addr:city": "DAYTON", "addr:country": "US", "addr:postcode": "45402", "addr:state": "OH", "addr:street_address": "101 W 3RD ST", "amenity": "post_box", "collection_times": "Mo-Fr 09:00", "nsi_id": "unitedstatespostalservice-a77078", "operator": "United States Postal Service", "operator:short": "USPS", "operator:type": "public", "operator:wikidata": "Q668687", "ref": "4540200120"}, "type": "Feature"}
{"geometry": {"coordinates": [-84.1943037, 39.759046], "type": "Point"}, "id": "iDd5NDLo9ZzjAgbal8MSJ2pQlJM=", "properties": {"@source_uri": "https://tools.usps.com/UspsToolsRestServices/rest/POLocator/findLocations", "@spider": "usps_collection_boxes", "addr:city": "DAYTON", "addr:country": "US", "addr:postcode": "45402", "addr:state": "OH", "addr:street_address": "120 W 3RD ST", "amenity": "post_box", "collection_times": "Mo-Fr 09:00", "nsi_id": "unitedstatespostalservice-a77078", "operator": "United States Postal Service", "operator:short": "USPS", "operator:type": "public", "operator:wikidata": "Q668687", "ref": "4540200121"}, "type": "Feature"}
{"geometry": {"coordinates": [-84.1920534842, 39.7606518326], "type": "Point"}, "id": "fgSfxTM15OU92i3Q8rJtmKsiAkY=", "properties": {"@source_uri": "https://tools.usps.com/UspsToolsRestServices/rest/POLocator/findLocations", "@spider": "usps_collection_boxes", "addr:city": "DAYTON", "addr:country": "US", "addr:postcode": "45402", "addr:state": "OH", "addr:street_address": "40 N MAIN ST", "amenity": "post_box", "collection_times": "Mo-Fr 15:45", "note": "ON 12/24 AND 12/31, THIS BOX MAY BE COLLECTED AS EARLY AS 12 NOON.", "nsi_id": "unitedstatespostalservice-a77078", "operator": "United States Postal Service", "operator:short": "USPS", "operator:type": "public", "operator:wikidata": "Q668687", "ref": "4540200125"}, "type": "Feature"}
{"geometry": {"coordinates": [-84.1934064, 39.757764], "type": "Point"}, "id": "xQ-FvOdIUwlbwRhvCG2kM_RFTCs=", "properties": {"@source_uri": "https://tools.usps.com/UspsToolsRestServices/rest/POLocator/findLocations", "@spider": "usps_collection_boxes", "addr:city": "DAYTON", "addr:country": "US", "addr:postcode": "45402", "addr:state": "OH", "addr:street_address": "105 S LUDLOW ST", "amenity": "post_box", "collection_times": "Mo-Fr 15:15", "note": "ON 12/24 AND 12/31, THIS BOX MAY BE COLLECTED AS EARLY AS 12 NOON.", "nsi_id": "unitedstatespostalservice-a77078", "operator": "United States Postal Service", "operator:short": "USPS", "operator:type": "public", "operator:wikidata": "Q668687", "ref": "4540200129"}, "type": "Feature"}
{"geometry": {"coordinates": [-84.1946055527, 39.7621138279], "type": "Point"}, "id": "kf6sqAsZuICPcQDs5yTu31c_fWk=", "properties": {"@source_uri": "https://tools.usps.com/UspsToolsRestServices/rest/POLocator/findLocations", "@spider": "usps_collection_boxes", "addr:city": "DAYTON", "addr:country": "US", "addr:postcode": "45402", "addr:state": "OH", "addr:street_address": "111 W 1ST ST", "amenity": "post_box", "collection_times": "Mo-Fr 09:00", "nsi_id": "unitedstatespostalservice-a77078", "operator": "United States Postal Service", "operator:short": "USPS", "operator:type": "public", "operator:wikidata": "Q668687", "ref": "4540200131"}, "type": "Feature"}
{"geometry": {"coordinates": [-84.1912529637, 39.7600100002], "type": "Point"}, "id": "S5FlBqyrtR_OKpSPbijVJpbF8lQ=", "properties": {"@source_uri": "https://tools.usps.com/UspsToolsRestServices/rest/POLocator/findLocations", "@spider": "usps_collection_boxes", "addr:city": "DAYTON", "addr:country": "US", "addr:postcode": "45402", "addr:state": "OH", "addr:street_address": "6 N MAIN ST", "amenity": "post_box", "collection_times": "Mo-Fr 16:00", "note": "ON 12/24 AND 12/31, THIS BOX MAY BE COLLECTED AS EARLY AS 12 NOON.", "nsi_id": "unitedstatespostalservice-a77078", "operator": "United States Postal Service", "operator:short": "USPS", "operator:type": "public", "operator:wikidata": "Q668687", "ref": "4540200133"}, "type": "Feature"}
{"geometry": {"coordinates": [-84.1949910411, 39.7600729902], "type": "Point"}, "id": "u-r0vJioyHeKBArS9RXNesEXcoU=", "properties": {"@source_uri": "https://tools.usps.com/UspsToolsRestServices/rest/POLocator/findLocations", "@spider": "usps_collection_boxes", "addr:city": "DAYTON", "addr:country": "US", "addr:postcode": "45402", "addr:state": "OH", "addr:street_address": "130 W 2ND ST", "amenity": "post_box", "collection_times": "Mo-Fr 15:30", "note": "ON 12/24 AND 12/31, THIS BOX MAY BE COLLECTED AS EARLY AS 12 NOON.", "nsi_id": "unitedstatespostalservice-a77078", "operator": "United States Postal Service", "operator:short": "USPS", "operator:type": "public", "operator:wikidata": "Q668687", "ref": "4540200135"}, "type": "Feature"}
{"geometry": {"coordinates": [-84.193691284, 39.75970882], "type": "Point"}, "id": "9_RBtLkpB2a3k0uPpp2NcWNSjfE=", "properties": {"@source_uri": "https://tools.usps.com/UspsToolsRestServices/rest/POLocator/findLocations", "@spider": "usps_collection_boxes", "addr:city": "DAYTON", "addr:country": "US", "addr:postcode": "45402", "addr:state": "OH", "addr:street_address": "36 N LUDLOW ST", "amenity": "post_box", "collection_times": "Mo-Fr 16:00", "indoor": "yes", "note": "ON 12/24 AND 12/31, THIS BOX MAY BE COLLECTED AS EARLY AS 12 NOON.", "nsi_id": "unitedstatespostalservice-a77078", "operator": "United States Postal Service", "operator:short": "USPS", "operator:type": "public", "operator:wikidata": "Q668687", "ref": "4540200138"}, "type": "Feature"}
{"geometry": {"coordinates": [-84.193691284, 39.75970882], "type": "Point"}, "id": "EyuM3GXh-aEhKzOps1AviEnEJ-E=", "properties": {"@source_uri": "https://tools.usps.com/UspsToolsRestServices/rest/POLocator/findLocations", "@spider": "usps_collection_boxes", "addr:city": "DAYTON", "addr:country": "US", "addr:postcode": "45402", "addr:state": "OH", "addr:street_address": "36 N LUDLOW ST", "amenity": "post_box", "collection_times": "Mo-Fr 16:00", "indoor": "yes", "note": "ON 12/24 AND 12/31, THIS BOX MAY BE COLLECTED AS EARLY AS 12 NOON.", "nsi_id": "unitedstatespostalservice-a77078", "operator": "United States Postal Service", "operator:short": "USPS", "operator:type": "public", "operator:wikidata": "Q668687", "ref": "4540200139"}, "type": "Feature"}
{"geometry": {"coordinates": [-84.2344582, 39.768372], "type": "Point"}, "id": "NEu0IsladxYOjoCZw-gyaC2T3CQ=", "properties": {"@source_uri": "https://tools.usps.com/UspsToolsRestServices/rest/POLocator/findLocations", "@spider": "usps_collection_boxes", "addr:city": "DAYTON", "addr:country": "US", "addr:postcode": "45402", "addr:state": "OH", "addr:street_address": "1045 PHILADELPHIA DR", "amenity": "post_box", "collection_times": "Mo-Fr 12:45", "note": "ON 12/24 AND 12/31, THIS BOX MAY BE COLLECTED AS EARLY AS 12 NOON.", "nsi_id": "unitedstatespostalservice-a77078", "operator": "United States Postal Service", "operator:short": "USPS", "operator:type": "public", "operator:wikidata": "Q668687", "ref": "4540200142"}, "type": "Feature"}
{"geometry": {"coordinates": [-84.2278372, 39.759309], "type": "Point"}, "id": "GDW8WkuJuU0h8mGcMZXNbFpitVQ=", "properties": {"@source_uri": "https://tools.usps.com/UspsToolsRestServices/rest/POLocator/findLocations", "@spider": "usps_collection_boxes", "addr:city": "DAYTON", "addr:country": "US", "addr:postcode": "45402", "addr:state": "OH", "addr:street_address": "444 N JAMES H MCGEE BLVD", "amenity": "post_box", "collection_times": "Mo-Fr 12:30", "note": "ON 12/24 AND 12/31, THIS BOX MAY BE COLLECTED AS EARLY AS 12 NOON.", "nsi_id": "unitedstatespostalservice-a77078", "operator": "United States Postal Service", "operator:short": "USPS", "operator:type": "public", "operator:wikidata": "Q668687", "ref": "4540200147"}, "type": "Feature"}
{"geometry": {"coordinates": [-84.2118062, 39.756702], "type": "Point"}, "id": "wUi1ZGDs6h-7bFy18PtY16-fLZo=", "properties": {"@source_uri": "https://tools.usps.com/UspsToolsRestServices/rest/POLocator/findLocations", "@spider": "usps_collection_boxes", "addr:city": "DAYTON", "addr:country": "US", "addr:postcode": "45402", "addr:state": "OH", "addr:street_address": "10 N WILLIAMS ST", "amenity": "post_box", "collection_times": "Mo-Sa 16:00", "note": "ON 12/24 AND 12/31, THIS BOX MAY BE COLLECTED AS EARLY AS 12 NOON.", "nsi_id": "unitedstatespostalservice-a77078", "operator": "United States Postal Service", "operator:short": "USPS", "operator:type": "public", "operator:wikidata": "Q668687", "ref": "4540200149"}, "type": "Feature"}
{"geometry": {"coordinates": [-84.193691284, 39.75970882], "type": "Point"}, "id": "xwP6cdF63-FBNW6QLDWBVAVlCz8=", "properties": {"@source_uri": "https://tools.usps.com/UspsToolsRestServices/rest/POLocator/findLocations", "@spider": "usps_collection_boxes", "addr:city": "DAYTON", "addr:country": "US", "addr:postcode": "45402", "addr:state": "OH", "addr:street_address": "36 N LUDLOW ST", "amenity": "post_box", "collection_times": "Mo-Fr 17:00", "indoor": "yes", "note": "ON 12/24 AND 12/31, THIS BOX MAY BE COLLECTED AS EARLY AS 12 NOON.", "nsi_id": "unitedstatespostalservice-a77078", "operator": "United States Postal Service", "operator:short": "USPS", "operator:type": "public", "operator:wikidata": "Q668687", "ref": "4540200157"}, "type": "Feature"}
{"geometry": {"coordinates": [-84.174789, 39.763765], "type": "Point"}, "id": "LnHmm2tum0DwNUs4RtbDfaWaZuE=", "properties": {"@source_uri": "https://tools.usps.com/UspsToolsRestServices/rest/POLocator/findLocations", "@spider": "usps_collection_boxes", "addr:city": "DAYTON", "addr:country": "US", "addr:postcode": "45403", "addr:state": "OH", "addr:street_address": "1101 E 2ND ST", "amenity": "post_box", "collection_times": "Mo-Fr 10:30", "nsi_id": "unitedstatespostalservice-a77078", "operator": "United States Postal Service", "operator:short": "USPS", "operator:type": "public", "operator:wikidata": "Q668687", "ref": "4540300011"}, "type": "Feature"}
{"geometry": {"coordinates": [-84.1570974, 39.76512], "type": "Point"}, "id": "VlmeloZewL2ybQrGuVymaxXZH5k=", "properties": {"@source_uri": "https://tools.usps.com/UspsToolsRestServices/rest/POLocator/findLocations", "@spider": "usps_collection_boxes", "addr:city": "DAYTON", "addr:country": "US", "addr:postcode": "45403", "addr:state": "OH", "addr:street_address": "2602 E 3RD ST", "amenity": "post_box", "collection_times": "Mo-Fr 09:00", "nsi_id": "unitedstatespostalservice-a77078", "operator": "United States Postal Service", "operator:short": "USPS", "operator:type": "public", "operator:wikidata": "Q668687", "ref": "4540300016"}, "type": "Feature"}
{"geometry": {"coordinates": [-84.1376923, 39.752547], "type": "Point"}, "id": "7pAOwxczPEeifNU7LLQ2RbsPqvQ=", "properties": {"@source_uri": "https://tools.usps.com/UspsToolsRestServices/rest/POLocator/findLocations", "@spider": "usps_collection_boxes", "addr:city": "DAYTON", "addr:country": "US", "addr:postcode": "45403", "addr:state": "OH", "addr:street_address": "1054 S SMITHVILLE RD", "amenity": "post_box", "collection_times": "Mo-Fr 09:00", "nsi_id": "unitedstatespostalservice-a77078", "operator": "United States Postal Service", "operator:short": "USPS", "operator:type": "public", "operator:wikidata": "Q668687", "ref": "4540300030"}, "type": "Feature"}
{"geometry": {"coordinates": [-84.1824668, 39.780693], "type": "Point"}, "id": "VYx2GV1qav45nLqttBOje0aKoXI=", "properties": {"@source_uri": "https://tools.usps.com/UspsToolsRestServices/rest/POLocator/findLocations", "@spider": "usps_collection_boxes", "addr:city": "DAYTON", "addr:country": "US", "addr:postcode": "45404", "addr:state": "OH", "addr:street_address": "1404 WEBSTER ST", "amenity": "post_box", "collection_times": "Mo-Fr 09:00", "nsi_id": "unitedstatespostalservice-a77078", "operator": "United States Postal Service", "operator:short": "USPS", "operator:type": "public", "operator:wikidata": "Q668687", "ref": "4540400012"}, "type": "Feature"}
{"geometry": {"coordinates": [-84.1746183, 39.775427], "type": "Point"}, "id": "hwIvveabxwSDZFwi5RGo07EERDc=", "properties": {"@source_uri": "https://tools.usps.com/UspsToolsRestServices/rest/POLocator/findLocations", "@spider": "usps_collection_boxes", "addr:city": "DAYTON", "addr:country": "US", "addr:postcode": "45404", "addr:state": "OH", "addr:street_address": "429 HART ST", "amenity": "post_box", "collection_times": "Mo-Fr 10:15", "nsi_id": "unitedstatespostalservice-a77078", "operator": "United States Postal Service", "operator:short": "USPS", "operator:type": "public", "operator:wikidata": "Q668687", "ref": "4540400015"}, "type": "Feature"}
{"geometry": {"coordinates": [-84.1890899, 39.782938], "type": "Point"}, "id": "qxhq0f9xp_stBiQIfFatfd1BMlk=", "properties": {"@source_uri": "https://tools.usps.com/UspsToolsRestServices/rest/POLocator/findLocations", "@spider": "usps_collection_boxes", "addr:city": "DAYTON", "addr:country": "US", "addr:postcode": "45404", "addr:state": "OH", "addr:street_address": "1351 N KEOWEE ST", "amenity": "post_box", "collection_times": "Mo-Fr 09:00", "nsi_id": "unitedstatespostalservice-a77078", "operator": "United States Postal Service", "operator:short": "USPS", "operator:type": "public", "operator:wikidata": "Q668687", "ref": "4540400020"}, "type": "Feature"}
{"geometry": {"coordinates": [-84.16618721, 39.783812812], "type": "Point"}, "id": "eZTAQEzFEKc_0qLiVr4ArkUuZGw=", "properties": {"@source_uri": "https://tools.usps.com/UspsToolsRestServices/rest/POLocator/findLocations", "@spider": "usps_collection_boxes", "addr:city": "DAYTON", "addr:country": "US", "addr:postcode": "45404", "addr:state": "OH", "addr:street_address": "1411 FARR DR", "amenity": "post_box", "collection_times": "Mo-Sa 16:00", "note": "ON 12/24 AND 12/31, THIS BOX MAY BE COLLECTED AS EARLY AS 12 NOON.", "nsi_id": "unitedstatespostalservice-a77078", "operator": "United States Postal Service", "operator:short": "USPS", "operator:type": "public", "operator:wikidata": "Q668687", "ref": "4540400022"}, "type": "Feature"}
{"geometry": {"coordinates": [-84.16618721, 39.783812812], "type": "Point"}, "id": "AVe80Wxoqs5094ewybDwJxPPOQU=", "properties": {"@source_uri": "https://tools.usps.com/UspsToolsRestServices/rest/POLocator/findLocations", "@spider": "usps_collection_boxes", "addr:city": "DAYTON", "addr:country": "US", "addr:postcode": "45404", "addr:state": "OH", "addr:street_address": "1411 FARR DR", "amenity": "post_box", "collection_times": "Mo-Sa 16:00", "indoor": "yes", "note": "ON 12/24 AND 12/31, THIS BOX MAY BE COLLECTED AS EARLY AS 12 NOON.", "nsi_id": "unitedstatespostalservice-a77078", "operator": "United States Postal Service", "operator:short": "USPS", "operator:type": "public", "operator:wikidata": "Q668687", "ref": "4540400024"}, "type": "Feature"}
{"geometry": {"coordinates": [-84.16618721, 39.783812812], "type": "Point"}, "id": "f_t5qlHPhsTmDcxjTSBVYRtHbNw=", "properties": {"@source_uri": "https://tools.usps.com/UspsToolsRestServices/rest/POLocator/findLocations", "@spider": "usps_collection_boxes", "addr:city": "DAYTON", "addr:country": "US", "addr:postcode": "45404", "addr:state": "OH", "addr:street_address": "1411 FARR DR", "amenity": "post_box", "collection_times": "Mo-Fr 17:00", "indoor": "yes", "note": "ON 12/24 AND 12/31, THIS BOX MAY BE COLLECTED AS EARLY AS 12 NOON.", "nsi_id": "unitedstatespostalservice-a77078", "operator": "United States Postal Service", "operator:short": "USPS", "operator:type": "public", "operator:wikidata": "Q668687", "ref": "4540400029"}, "type": "Feature"}
{"geometry": {"coordinates": [-84.1918231, 39.768691], "type": "Point"}, "id": "bI9pOtrRkNEKtpPSZHspbTVirQA=", "properties": {"@source_uri": "https://tools.usps.com/UspsToolsRestServices/rest/POLocator/findLocations", "@spider": "usps_collection_boxes", "addr:city": "DAYTON", "addr:country": "US", "addr:postcode": "45405", "addr:state": "OH", "addr:street_address": "225 LINWOOD ST", "amenity": "post_box", "collection_times": "Mo-Fr 09:00", "nsi_id": "unitedstatespostalservice-a77078", "operator": "United States Postal Service", "operator:short": "USPS", "operator:type": "public", "operator:wikidata": "Q668687", "ref": "4540500004"}, "type": "Feature"}
{"geometry": {"coordinates": [-84.208266, 39.79782], "type": "Point"}, "id": "JcWMUIjQYtn13HpEdhuoktrQMmY=", "properties": {"@source_uri": "https://tools.usps.com/UspsToolsRestServices/rest/POLocator/findLocations", "@spider": "usps_collection_boxes", "addr:city": "DAYTON", "addr:country": "US", "addr:postcode": "45405", "addr:state": "OH", "addr:street_address": "401 ASHWOOD AVE", "amenity": "post_box", "collection_times": "Mo-Fr 11:30", "nsi_id": "unitedstatespostalservice-a77078", "operator": "United States Postal Service", "operator:short": "USPS", "operator:type": "public", "operator:wikidata": "Q668687", "ref": "4540500010"}, "type": "Feature"}
{"geometry": {"coordinates": [-84.2215547, 39.804267], "type": "Point"}, "id": "Yc9Z1pWKfvAauxf883xF2F3njl4=", "properties": {"@source_uri": "https://tools.usps.com/UspsToolsRestServices/rest/POLocator/findLocations", "@spider": "usps_collection_boxes", "addr:city": "DAYTON", "addr:country": "US", "addr:postcode": "45405", "addr:state": "OH", "addr:street_address": "4221 N MAIN ST", "amenity": "post_box", "collection_times": "Mo-Sa 15:00", "note": "ON 12/24 AND 12/31, THIS BOX MAY BE COLLECTED AS EARLY AS 12 NOON.", "nsi_id": "unitedstatespostalservice-a77078", "operator": "United States Postal Service", "operator:short": "USPS", "operator:type": "public", "operator:wikidata": "Q668687", "ref": "4540500035"}, "type": "Feature"}
{"geometry": {"coordinates": [-84.221274055, 39.804102651], "type": "Point"}, "id": "6TgXG0HN0Hhav12HG4SuKQss3Ng=", "properties": {"@source_uri": "https://tools.usps.com/UspsToolsRestServices/rest/POLocator/findLocations", "@spider": "usps_collection_boxes", "addr:city": "DAYTON", "addr:country": "US", "addr:postcode": "45405", "addr:state": "OH", "addr:street_address": "4203 N MAIN ST", "amenity": "post_box", "collection_times": "Mo-Fr 17:00; Sa 12:00", "indoor": "yes", "note": "ON 12/24 AND 12/31, THIS BOX MAY BE COLLECTED AS EARLY AS 12 NOON.", "nsi_id": "unitedstatespostalservice-a77078", "operator": "United States Postal Service", "operator:short": "USPS", "operator:type": "public", "operator:wikidata": "Q668687", "ref": "4540500042"}, "type": "Feature"}
{"geometry": {"coordinates": [-84.1936853, 39.76671], "type": "Point"}, "id": "9R2WYuGB6sh3-XR2iUOYXx0vA7s=", "properties": {"@source_uri": "https://tools.usps.com/UspsToolsRestServices/rest/POLocator/findLocations", "@spider": "usps_collection_boxes", "addr:city": "DAYTON", "addr:country": "US", "addr:postcode": "45405", "addr:state": "OH", "addr:street_address": "2 RIVERDALE ST", "amenity": "post_box", "collection_times": "Mo-Fr 09:00", "nsi_id": "unitedstatespostalservice-a77078", "operator": "United States Postal Service", "operator:short": "USPS", "operator:type": "public", "operator:wikidata": "Q668687", "ref": "4540500044"}, "type": "Feature"}
{"geometry": {"coordinates": [-84.221274055, 39.804102651], "type": "Point"}, "id": "WZgHM8RO3qT0YByiD7ge9ciLhd8=", "properties": {"@source_uri": "https://tools.usps.com/UspsToolsRestServices/rest/POLocator/findLocations", "@spider": "usps_collection_boxes", "addr:city": "DAYTON", "addr:country": "US", "addr:postcode": "45405", "addr:state": "OH", "addr:street_address": "4203 N MAIN ST", "amenity": "post_box", "collection_times": "Mo-Fr 17:00; Sa 12:00", "indoor": "yes", "note": "ON 12/24 AND 12/31, THIS BOX MAY BE COLLECTED AS EARLY AS 12 NOON.", "nsi_id": "unitedstatespostalservice-a77078", "operator": "United States Postal Service", "operator:short": "USPS", "operator:type": "public", "operator:wikidata": "Q668687", "ref": "4540500048"}, "type": "Feature"}
{"geometry": {"coordinates": [-84.211030579, 39.768757684], "type": "Point"}, "id": "dBnGOV2m6Vcc88PHvy3_MAtSszM=", "properties": {"@source_uri": "https://tools.usps.com/UspsToolsRestServices/rest/POLocator/findLocations", "@spider": "usps_collection_boxes", "addr:city": "DAYTON", "addr:country": "US", "addr:postcode": "45406", "addr:state": "OH", "addr:street_address": "557 SALEM AVE", "amenity": "post_box", "collection_times": "Mo-Sa 16:00", "indoor": "yes", "note": "ON 12/24 AND 12/31, THIS BOX MAY BE COLLECTED AS EARLY AS 12 NOON.", "nsi_id": "unitedstatespostalservice-a77078", "operator": "United States Postal Service", "operator:short": "USPS", "operator:type": "public", "operator:wikidata": "Q668687", "ref": "4540600000"}, "type": "Feature"}
{"geometry": {"coordinates": [-84.211030579, 39.768757684], "type": "Point"}, "id": "WMQnhOzij70ub5suKiGatOMufOU=", "properties": {"@source_uri": "https://tools.usps.com/UspsToolsRestServices/rest/POLocator/findLocations", "@spider": "usps_collection_boxes", "addr:city": "DAYTON", "addr:country": "US", "addr:postcode": "45406", "addr:state": "OH", "addr:street_address": "557 SALEM AVE", "amenity": "post_box", "collection_times": "Mo-Sa 16:00", "note": "ON 12/24 AND 12/31, THIS BOX MAY BE COLLECTED AS EARLY AS 12 NOON.", "nsi_id": "unitedstatespostalservice-a77078", "operator": "United States Postal Service", "operator:short": "USPS", "operator:type": "public", "operator:wikidata": "Q668687", "ref": "4540600001"}, "type": "Feature"}
{"geometry": {"coordinates": [-84.2067989, 39.764271], "type": "Point"}, "id": "ljIOavsnQSJHOpmGEqqtzw5u3t8=", "properties": {"@source_uri": "https://tools.usps.com/UspsToolsRestServices/rest/POLocator/findLocations", "@spider": "usps_collection_boxes", "addr:city": "DAYTON", "addr:country": "US", "addr:postcode": "45406", "addr:state": "OH", "addr:street_address": "161 SALEM AVE", "amenity": "post_box", "collection_times": "Mo-Fr 11:45", "nsi_id": "unitedstatespostalservice-a77078", "operator": "United States Postal Service", "operator:short": "USPS", "operator:type": "public", "operator:wikidata": "Q668687", "ref": "4540600005"}, "type": "Feature"}
{"geometry": {"coordinates": [-84.2277263, 39.779372], "type": "Point"}, "id": "gk8WP0J605q9mnNpHBrXrAxsGrA=", "properties": {"@source_uri": "https://tools.usps.com/UspsToolsRestServices/rest/POLocator/findLocations", "@spider": "usps_collection_boxes", "addr:city": "DAYTON", "addr:country": "US", "addr:postcode": "45406", "addr:state": "OH", "addr:street_address": "1751 HARVARD BLVD", "amenity": "post_box", "collection_times": "Mo-Fr 09:00", "nsi_id": "unitedstatespostalservice-a77078", "operator": "United States Postal Service", "operator:short": "USPS", "operator:type": "public", "operator:wikidata": "Q668687", "ref": "4540600025"}, "type": "Feature"}
{"geometry": {"coordinates": [-84.2625349, 39.794257], "type": "Point"}, "id": "LQLBTcGQF0GSyNoKUkJwB501ipk=", "properties": {"@source_uri": "https://tools.usps.com/UspsToolsRestServices/rest/POLocator/findLocations", "@spider": "usps_collection_boxes", "addr:city": "DAYTON", "addr:country": "US", "addr:postcode": "45406", "addr:state": "OH", "addr:street_address": "4417 COPELAND AVE", "amenity": "post_box", "collection_times": "Mo-Fr 09:00", "nsi_id": "unitedstatespostalservice-a77078", "operator": "United States Postal Service", "operator:short": "USPS", "operator:type": "public", "operator:wikidata": "Q668687", "ref": "4540600034"}, "type": "Feature"}
{"geometry": {"coordinates": [-84.2360742, 39.798419], "type": "Point"}, "id": "51N_cMSP9Du3tZGP7SM9wDCLhps=", "properties": {"@source_uri": "https://tools.usps.com/UspsToolsRestServices/rest/POLocator/findLocations", "@spider": "usps_collection_boxes", "addr:city": "DAYTON", "addr:country": "US", "addr:postcode": "45406", "addr:state": "OH", "addr:street_address": "2917 PHILADELPHIA DR", "amenity": "post_box", "collection_times": "Mo-Fr 09:00", "nsi_id": "unitedstatespostalservice-a77078", "operator": "United States Postal Service", "operator:short": "USPS", "operator:type": "public", "operator:wikidata": "Q668687", "ref": "4540600046"}, "type": "Feature"}
{"geometry": {"coordinates": [-84.2528749, 39.782376], "type": "Point"}, "id": "fm40Rg0HssdIEmD_B58MEgam188=", "properties": {"@source_uri": "https://tools.usps.com/UspsToolsRestServices/rest/POLocator/findLocations", "@spider": "usps_collection_boxes", "addr:city": "DAYTON", "addr:country": "US", "addr:postcode": "45406", "addr:state": "OH", "addr:street_address": "2168 N GETTYSBURG AVE", "amenity": "post_box", "collection_times": "Mo-Fr 09:00", "nsi_id": "unitedstatespostalservice-a77078", "operator": "United States Postal Service", "operator:short": "USPS", "operator:type": "public", "operator:wikidata": "Q668687", "ref": "4540600047"}, "type": "Feature"}
{"geometry": {"coordinates": [-84.211030579, 39.768757684], "type": "Point"}, "id": "ZM63xEQqG75cHLGeWyX0Vmxjo-o=", "properties": {"@source_uri": "https://tools.usps.com/UspsToolsRestServices/rest/POLocator/findLocations", "@spider": "usps_collection_boxes", "addr:city": "DAYTON", "addr:country": "US", "addr:postcode": "45406", "addr:state": "OH", "addr:street_address": "557 SALEM AVE", "amenity": "post_box", "collection_times": "Mo-Sa 16:00", "indoor": "yes", "note": "ON 12/24 AND 12/31, THIS BOX MAY BE COLLECTED AS EARLY AS 12 NOON.", "nsi_id": "unitedstatespostalservice-a77078", "operator": "United States Postal Service", "operator:short": "USPS", "operator:type": "public", "operator:wikidata": "Q668687", "ref": "4540600048"}, "type": "Feature"}
{"geometry": {"coordinates": [-84.211030579, 39.768757684], "type": "Point"}, "id": "6BypKEavLGSif1WegJ9s0LZQJvg=", "properties": {"@source_uri": "https://tools.usps.com/UspsToolsRestServices/rest/POLocator/findLocations", "@spider": "usps_collection_boxes", "addr:city": "DAYTON", "addr:country": "US", "addr:postcode": "45406", "addr:state": "OH", "addr:street_address": "557 SALEM AVE", "amenity": "post_box", "collection_times": "Mo-Sa 16:00", "indoor": "yes", "note": "ON 12/24 AND 12/31, THIS BOX MAY BE COLLECTED AS EARLY AS 12 NOON.", "nsi_id": "unitedstatespostalservice-a77078", "operator": "United States Postal Service", "operator:short": "USPS", "operator:type": "public", "operator:wikidata": "Q668687", "ref": "4540600049"}, "type": "Feature"}
{"geometry": {"coordinates": [-84.2380099593, 39.7826474038], "type": "Point"}, "id": "et36CYKxXw1vQ9rnxg1HUPvzKBw=", "properties": {"@source_uri": "https://tools.usps.com/UspsToolsRestServices/rest/POLocator/findLocations", "@spider": "usps_collection_boxes", "addr:city": "DAYTON", "addr:country": "US", "addr:postcode": "45406", "addr:state": "OH", "addr:street_address": "1846 PARKHILL DR", "amenity": "post_box", "collection_times": "Mo-Fr 10:15", "nsi_id": "unitedstatespostalservice-a77078", "operator": "United States Postal Service", "operator:short": "USPS", "operator:type": "public", "operator:wikidata": "Q668687", "ref": "4540600050"}, "type": "Feature"}
{"geometry": {"coordinates": [-84.234657, 39.775467], "type": "Point"}, "id": "Cg-Nmm5-pT0oVNfs6XK7N8XLio8=", "properties": {"@source_uri": "https://tools.usps.com/UspsToolsRestServices/rest/POLocator/findLocations", "@spider": "usps_collection_boxes", "addr:city": "DAYTON", "addr:country": "US", "addr:postcode": "45406", "addr:state": "OH", "addr:street_address": "1485 PHILADELPHIA DR", "amenity": "post_box", "collection_times": "Mo-Fr 09:00", "nsi_id": "unitedstatespostalservice-a77078", "operator": "United States Postal Service", "operator:short": "USPS", "operator:type": "public", "operator:wikidata": "Q668687", "ref": "4540600051"}, "type": "Feature"}
{"geometry": {"coordinates": [-84.211030579, 39.768757684], "type": "Point"}, "id": "4AgqLUEQySRQU4gbL5Q5qiJTDwQ=", "properties": {"@source_uri": "https://tools.usps.com/UspsToolsRestServices/rest/POLocator/findLocations", "@spider": "usps_collection_boxes", "addr:city": "DAYTON", "addr:country": "US", "addr:postcode": "45406", "addr:state": "OH", "addr:street_address": "557 SALEM AVE", "amenity": "post_box", "collection_times": "Mo-Fr 17:00; Sa 13:00", "indoor": "yes", "note": "ON 12/24 AND 12/31, THIS BOX MAY BE COLLECTED AS EARLY AS 12 NOON.", "nsi_id": "unitedstatespostalservice-a77078", "operator": "United States Postal Service", "operator:short": "USPS", "operator:type": "public", "operator:wikidata": "Q668687", "ref": "4540600054"}, "type": "Feature"}
{"geometry": {"coordinates": [-84.180306397, 39.733125297], "type": "Point"}, "id": "lp0cxE98RtLO3J0xJDGFfjvHnYw=", "properties": {"@source_uri": "https://tools.usps.com/UspsToolsRestServices/rest/POLocator/findLocations", "@spider": "usps_collection_boxes", "addr:city": "DAYTON", "addr:country": "US", "addr:postcode": "45409", "addr:state": "OH", "addr:street_address": "1 OAKWOOD AVE", "amenity": "post_box", "collection_times": "Mo-Sa 16:00", "note": "ON 12/24 AND 12/31, THIS BOX MAY BE COLLECTED AS EARLY AS 12 NOON.", "nsi_id": "unitedstatespostalservice-a77078", "operator": "United States Postal Service", "operator:short": "USPS", "operator:type": "public", "operator:wikidata": "Q668687", "ref": "4540900002"}, "type": "Feature"}
{"geometry": {"coordinates": [-84.182355, 39.736875], "type": "Point"}, "id": "UQuLbXDf8M4rOptyK_G41zQ5XBc=", "properties": {"@source_uri": "https://tools.usps.com/UspsToolsRestServices/rest/POLocator/findLocations", "@spider": "usps_collection_boxes", "addr:city": "DAYTON", "addr:country": "US", "addr:postcode": "45409", "addr:state": "OH", "addr:street_address": "1 WYOMING ST", "amenity": "post_box", "collection_times": "Mo-Sa 15:00", "note": "ON 12/24 AND 12/31, THIS BOX MAY BE COLLECTED AS EARLY AS 12 NOON.", "nsi_id": "unitedstatespostalservice-a77078", "operator": "United States Postal Service", "operator:short": "USPS", "operator:type": "public", "operator:wikidata": "Q668687", "ref": "4540900008"}, "type": "Feature"}
{"geometry": {"coordinates": [-84.1973715, 39.7077], "type": "Point"}, "id": "9ZOd3pTIOFpt-NFkwLvjveRvTxs=", "properties": {"@source_uri": "https://tools.usps.com/UspsToolsRestServices/rest/POLocator/findLocations", "@spider": "usps_collection_boxes", "addr:city": "DAYTON", "addr:country": "US", "addr:postcode": "45409", "addr:state": "OH", "addr:street_address": "1250 W DOROTHY LN", "amenity": "post_box", "collection_times": "Mo-Fr 09:00", "nsi_id": "unitedstatespostalservice-a77078", "operator": "United States Postal Service", "operator:short": "USPS", "operator:type": "public", "operator:wikidata": "Q668687", "ref": "4540900018"}, "type": "Feature"}
{"geometry": {"coordinates": [-84.1734549, 39.734359], "type": "Point"}, "id": "LTP44A50DztDIrDwe77rBVrxmuc=", "properties": {"@source_uri": "https://tools.usps.com/UspsToolsRestServices/rest/POLocator/findLocations", "@spider": "usps_collection_boxes", "addr:city": "DAYTON", "addr:country": "US", "addr:postcode": "45409", "addr:state": "OH", "addr:street_address": "508 IRVING AVE", "amenity": "post_box", "collection_times": "Mo-Fr 10:30", "nsi_id": "unitedstatespostalservice-a77078", "operator": "United States Postal Service", "operator:short": "USPS", "operator:type": "public", "operator:wikidata": "Q668687", "ref": "4540900024"}, "type": "Feature"}
{"geometry": {"coordinates": [-84.1998894, 39.713722], "type": "Point"}, "id": "mTtGAxttQiGmol72inPAUZ4ZxLY=", "properties": {"@source_uri": "https://tools.usps.com/UspsToolsRestServices/rest/POLocator/findLocations", "@spider": "usps_collection_boxes", "addr:city": "DAYTON", "addr:country": "US", "addr:postcode": "45409", "addr:state": "OH", "addr:street_address": "2675 S DIXIE DR", "amenity": "post_box", "collection_times": "Mo-Fr 09:00", "nsi_id": "unitedstatespostalservice-a77078", "operator": "United States Postal Service", "operator:short": "USPS", "operator:type": "public", "operator:wikidata": "Q668687", "ref": "4540900027"}, "type": "Feature"}
{"geometry": {"coordinates": [-84.1960657, 39.724337], "type": "Point"}, "id": "0eJ6rExLKsQRZaW1TaiC8QnGxLs=", "properties": {"@source_uri": "https://tools.usps.com/UspsToolsRestServices/rest/POLocator/findLocations", "@spider": "usps_collection_boxes", "addr:city": "DAYTON", "addr:country": "US", "addr:postcode": "45409", "addr:state": "OH", "addr:street_address": "2200 W SCHANTZ AVE", "amenity": "post_box", "collection_times": "Mo-Fr 12:00", "nsi_id": "unitedstatespostalservice-a77078", "operator": "United States Postal Service", "operator:short": "USPS", "operator:type": "public", "operator:wikidata": "Q668687", "ref": "4540900038"}, "type": "Feature"}
{"geometry": {"coordinates": [-84.180306397, 39.733125297], "type": "Point"}, "id": "BlGjb2ydcATA2p40TFrrdsPLtDY=", "properties": {"@source_uri": "https://tools.usps.com/UspsToolsRestServices/rest/POLocator/findLocations", "@spider": "usps_collection_boxes", "addr:city": "DAYTON", "addr:country": "US", "addr:postcode": "45409", "addr:state": "OH", "addr:street_address": "1 OAKWOOD AVE", "amenity": "post_box", "collection_times": "Mo-Fr 16:00; Sa 15:30", "indoor": "yes", "note": "ON 12/24 AND 12/31, THIS BOX MAY BE COLLECTED AS EARLY AS 12 NOON.", "nsi_id": "unitedstatespostalservice-a77078", "operator": "United States Postal Service", "operator:short": "USPS", "operator:type": "public", "operator:wikidata": "Q668687", "ref": "4540900039"}, "type": "Feature"}
{"geometry": {"coordinates": [-84.2004149, 39.706975], "type": "Point"}, "id": "l--LBM_MDSrvgSp-Q_Iz7ZD435w=", "properties": {"@source_uri": "https://tools.usps.com/UspsToolsRestServices/rest/POLocator/findLocations", "@spider": "usps_collection_boxes", "addr:city": "DAYTON", "addr:country": "US", "addr:postcode": "45409", "addr:state": "OH", "addr:street_address": "3025 GOVERNORS PLACE BLVD", "amenity": "post_box", "collection_times": "Mo-Fr 15:45", "note": "ON 12/24 AND 12/31, THIS BOX MAY BE COLLECTED AS EARLY AS 12 NOON.", "nsi_id": "unitedstatespostalservice-a77078", "operator": "United States Postal Service", "operator:short": "USPS", "operator:type": "public", "operator:wikidata": "Q668687", "ref": "4540900044"}, "type": "Feature"}
{"geometry": {"coordinates": [-84.180306397, 39.733125297], "type": "Point"}, "id": "5KqZWy4BUGIF859AU-SjPf5Zja8=", "properties": {"@source_uri": "https://tools.usps.com/UspsToolsRestServices/rest/POLocator/findLocations", "@spider": "usps_collection_boxes", "addr:city": "DAYTON", "addr:country": "US", "addr:postcode": "45409", "addr:state": "OH", "addr:street_address": "1 OAKWOOD AVE", "amenity": "post_box", "collection_times": "Mo-Fr 17:00; Sa 12:00", "indoor": "yes", "note": "ON 12/24 AND 12/31, THIS BOX MAY BE COLLECTED AS EARLY AS 12 NOON.", "nsi_id": "unitedstatespostalservice-a77078", "operator": "United States Postal Service", "operator:short": "USPS", "operator:type": "public", "operator:wikidata": "Q668687", "ref": "4540900050"}, "type": "Feature"}
{"geometry": {"coordinates": [-84.1667355627, 39.7472605579], "type": "Point"}, "id": "HydKI0chvCEH4sm9qOdQ8n_bqvI=", "properties": {"@source_uri": "https://tools.usps.com/UspsToolsRestServices/rest/POLocator/findLocations", "@spider": "usps_collection_boxes", "addr:city": "DAYTON", "addr:country": "US", "addr:postcode": "45410", "addr:state": "OH", "addr:street_address": "930 WYOMING ST", "amenity": "post_box", "collection_times": "Mo-Fr 14:00", "note": "ON 12/24 AND 12/31, THIS BOX MAY BE COLLECTED AS EARLY AS 12 NOON.", "nsi_id": "unitedstatespostalservice-a77078", "operator": "United States Postal Service", "operator:short": "USPS", "operator:type": "public", "operator:wikidata": "Q668687", "ref": "4541000002"}, "type": "Feature"}
{"geometry": {"coordinates": [-84.1826307, 39.754439], "type": "Point"}, "id": "Tzqm4EobigcLpnCnG1j9545xd8s=", "properties": {"@source_uri": "https://tools.usps.com/UspsToolsRestServices/rest/POLocator/findLocations", "@spider": "usps_collection_boxes", "addr:city": "DAYTON", "addr:country": "US", "addr:postcode": "45410", "addr:state": "OH", "addr:street_address": "220 PARK MANOR DR", "amenity": "post_box", "collection_times": "Mo-Fr 10:00; Sa 15:15", "note": "ON 12/24 AND 12/31, THIS BOX MAY BE COLLECTED AS EARLY AS 12 NOON.", "nsi_id": "unitedstatespostalservice-a77078", "operator": "United States Postal Service", "operator:short": "USPS", "operator:type": "public", "operator:wikidata": "Q668687", "ref": "4541000005"}, "type": "Feature"}
{"geometry": {"coordinates": [-84.16592, 39.747245], "type": "Point"}, "id": "FxdKYIbBh6ll4G1yeqkatLkcW84=", "properties": {"@source_uri": "https://tools.usps.com/UspsToolsRestServices/rest/POLocator/findLocations", "@spider": "usps_collection_boxes", "addr:city": "DAYTON", "addr:country": "US", "addr:postcode": "45410", "addr:state": "OH", "addr:street_address": "1819 WYOMING ST", "amenity": "post_box", "collection_times": "Mo-Fr 14:00", "note": "ON 12/24 AND 12/31, THIS BOX MAY BE COLLECTED AS EARLY AS 12 NOON.", "nsi_id": "unitedstatespostalservice-a77078", "operator": "United States Postal Service", "operator:short": "USPS", "operator:type": "public", "operator:wikidata": "Q668687", "ref": "4541000012"}, "type": "Feature"}
{"geometry": {"coordinates": [-84.1346568, 39.741714], "type": "Point"}, "id": "-jWGB9gQAcwt5WzxC5IUWDau71Q=", "properties": {"@source_uri": "https://tools.usps.com/UspsToolsRestServices/rest/POLocator/findLocations", "@spider": "usps_collection_boxes", "addr:city": "DAYTON", "addr:country": "US", "addr:postcode": "45410", "addr:state": "OH", "addr:street_address": "4269 CORINTH BLVD", "amenity": "post_box", "collection_times": "Mo-Fr 09:00", "nsi_id": "unitedstatespostalservice-a77078", "operator": "United States Postal Service", "operator:short": "USPS", "operator:type": "public", "operator:wikidata": "Q668687", "ref": "4541000018"}, "type": "Feature"}
{"geometry": {"coordinates": [-84.133029, 39.747058], "type": "Point"}, "id": "NvJ24kRL553ddNpAhtkkriMWZTY=", "properties": {"@source_uri": "https://tools.usps.com/UspsToolsRestServices/rest/POLocator/findLocations", "@spider": "usps_collection_boxes", "addr:city": "DAYTON", "addr:country": "US", "addr:postcode": "45410", "addr:state": "OH", "addr:street_address": "1420 HEARTHSTONE DR", "amenity": "post_box", "collection_times": "Mo-Fr 13:30", "note": "ON 12/24 AND 12/31, THIS BOX MAY BE COLLECTED AS EARLY AS 12 NOON.", "nsi_id": "unitedstatespostalservice-a77078", "operator": "United States Postal Service", "operator:short": "USPS", "operator:type": "public", "operator:wikidata": "Q668687", "ref": "4541000021"}, "type": "Feature"}
{"geometry": {"coordinates": [-84.1422956, 39.74842], "type": "Point"}, "id": "Ba2Xn_3QDxfgWSxPBQMNkQKTE3M=", "properties": {"@source_uri": "https://tools.usps.com/UspsToolsRestServices/rest/POLocator/findLocations", "@spider": "usps_collection_boxes", "addr:city": "DAYTON", "addr:country": "US", "addr:postcode": "45410", "addr:state": "OH", "addr:street_address": "2821 LINDEN AVE", "amenity": "post_box", "collection_times": "Mo-Fr 15:30", "note": "ON 12/24 AND 12/31, THIS BOX MAY BE COLLECTED AS EARLY AS 12 NOON.", "nsi_id": "unitedstatespostalservice-a77078", "operator": "United States Postal Service", "operator:short": "USPS", "operator:type": "public", "operator:wikidata": "Q668687", "ref": "4541000026"}, "type": "Feature"}
{"geometry": {"coordinates": [-84.2001686, 39.818385], "type": "Point"}, "id": "E7oJeXWJCKhEQ-xZUmMEBLgErNE=", "properties": {"@source_uri": "https://tools.usps.com/UspsToolsRestServices/rest/POLocator/findLocations", "@spider": "usps_collection_boxes", "addr:city": "DAYTON", "addr:country": "US", "addr:postcode": "45414", "addr:state": "OH", "addr:street_address": "1934 NEEDMORE RD", "amenity": "post_box", "collection_times": "Mo-Fr 09:00", "nsi_id": "unitedstatespostalservice-a77078", "operator": "United States Postal Service", "operator:short": "USPS", "operator:type": "public", "operator:wikidata": "Q668687", "ref": "4541400000"}, "type": "Feature"}
{"geometry": {"coordinates": [-84.1996846, 39.863865], "type": "Point"}, "id": "2e_2jWcZ2Z0vy1psZSPMGE1jeRY=", "properties": {"@source_uri": "https://tools.usps.com/UspsToolsRestServices/rest/POLocator/findLocations", "@spider": "usps_collection_boxes", "addr:city": "DAYTON", "addr:country": "US", "addr:postcode": "45414", "addr:state": "OH", "addr:street_address": "9125 N DIXIE DR", "amenity": "post_box", "collection_times": "Mo-Fr 10:00", "nsi_id": "unitedstatespostalservice-a77078", "operator": "United States Postal Service", "operator:short": "USPS", "operator:type": "public", "operator:wikidata": "Q668687", "ref": "4541400009"}, "type": "Feature"}
{"geometry": {"coordinates": [-84.1791399, 39.810006], "type": "Point"}, "id": "_TGu-nLTEytrv401x5uGgXDuRG8=", "properties": {"@source_uri": "https://tools.usps.com/UspsToolsRestServices/rest/POLocator/findLocations", "@spider": "usps_collection_boxes", "addr:city": "DAYTON", "addr:country": "US", "addr:postcode": "45414", "addr:state": "OH", "addr:street_address": "4620 WEBSTER ST", "amenity": "post_box", "collection_times": "Mo-Fr 09:00", "nsi_id": "unitedstatespostalservice-a77078", "operator": "United States Postal Service", "operator:short": "USPS", "operator:type": "public", "operator:wikidata": "Q668687", "ref": "4541400013"}, "type": "Feature"}
{"geometry": {"coordinates": [-84.191518233, 39.821507665], "type": "Point"}, "id": "MJlFTYIXRsAItNpV_YyPYeEaPlI=", "properties": {"@source_uri": "https://tools.usps.com/UspsToolsRestServices/rest/POLocator/findLocations", "@spider": "usps_collection_boxes", "addr:city": "DAYTON", "addr:country": "US", "addr:postcode": "45414", "addr:state": "OH", "addr:street_address": "5150 PAYNE AVE", "amenity": "post_box", "collection_times": "Mo-Fr 16:00; Sa 15:30", "note": "ON 12/24 AND 12/31, THIS BOX MAY BE COLLECTED AS EARLY AS 12 NOON.", "nsi_id": "unitedstatespostalservice-a77078", "operator": "United States Postal Service", "operator:short": "USPS", "operator:type": "public", "operator:wikidata": "Q668687", "ref": "4541400020"}, "type": "Feature"}
{"geometry": {"coordinates": [-84.1885964, 39.851008], "type": "Point"}, "id": "QsXNAtYdETbtnCljTGHlakQki3o=", "properties": {"@source_uri": "https://tools.usps.com/UspsToolsRestServices/rest/POLocator/findLocations", "@spider": "usps_collection_boxes", "addr:city": "DAYTON", "addr:country": "US", "addr:postcode": "45414", "addr:state": "OH", "addr:street_address": "7200 POE AVE", "amenity": "post_box", "collection_times": "Mo-Fr 10:30", "nsi_id": "unitedstatespostalservice-a77078", "operator": "United States Postal Service", "operator:short": "USPS", "operator:type": "public", "operator:wikidata": "Q668687", "ref": "4541400024"}, "type": "Feature"}
{"geometry": {"coordinates": [-84.1884709, 39.840781], "type": "Point"}, "id": "ALUtF6oEPHbr0mEuBBV-FQznSrY=", "properties": {"@source_uri": "https://tools.usps.com/UspsToolsRestServices/rest/POLocator/findLocations", "@spider": "usps_collection_boxes", "addr:city": "DAYTON", "addr:country": "US", "addr:postcode": "45414", "addr:state": "OH", "addr:street_address": "6450 POE AVE", "amenity": "post_box", "collection_times": "Mo-Fr 15:15", "note": "ON 12/24 AND 12/31, THIS BOX MAY BE COLLECTED AS EARLY AS 12 NOON.", "nsi_id": "unitedstatespostalservice-a77078", "operator": "United States Postal Service", "operator:short": "USPS", "operator:type": "public", "operator:wikidata": "Q668687", "ref": "4541400028"}, "type": "Feature"}
{"geometry": {"coordinates": [-84.1886249856, 39.842301011], "type": "Point"}, "id": "ZWqoBgcnSh0n1YCEcyx7DW2QN10=", "properties": {"@source_uri": "https://tools.usps.com/UspsToolsRestServices/rest/POLocator/findLocations", "@spider": "usps_collection_boxes", "addr:city": "DAYTON", "addr:country": "US", "addr:postcode": "45414", "addr:state": "OH", "addr:street_address": "6500 POE AVE", "amenity": "post_box", "collection_times": "Mo-Fr 15:15", "note": "ON 12/24 AND 12/31, THIS BOX MAY BE COLLECTED AS EARLY AS 12 NOON.", "nsi_id": "unitedstatespostalservice-a77078", "operator": "United States Postal Service", "operator:short": "USPS", "operator:type": "public", "operator:wikidata": "Q668687", "ref": "4541400031"}, "type": "Feature"}
{"geometry": {"coordinates": [-84.1886588, 39.84572], "type": "Point"}, "id": "5NcqOuSOfWMbopKafrwD_QWYRB4=", "properties": {"@source_uri": "https://tools.usps.com/UspsToolsRestServices/rest/POLocator/findLocations", "@spider": "usps_collection_boxes", "addr:city": "DAYTON", "addr:country": "US", "addr:postcode": "45414", "addr:state": "OH", "addr:street_address": "6640 POE AVE", "amenity": "post_box", "collection_times": "Mo-Fr 15:15", "note": "ON 12/24 AND 12/31, THIS BOX MAY BE COLLECTED AS EARLY AS 12 NOON.", "nsi_id": "unitedstatespostalservice-a77078", "operator": "United States Postal Service", "operator:short": "USPS", "operator:type": "public", "operator:wikidata": "Q668687", "ref": "4541400032"}, "type": "Feature"}
{"geometry": {"coordinates": [-84.1858341, 39.851609], "type": "Point"}, "id": "bQreEV2jjuqlYLUvwpSuPLHcqJI=", "properties": {"@source_uri": "https://tools.usps.com/UspsToolsRestServices/rest/POLocator/findLocations", "@spider": "usps_collection_boxes", "addr:city": "DAYTON", "addr:country": "US", "addr:postcode": "45414", "addr:state": "OH", "addr:street_address": "3401 PARK CENTER DR", "amenity": "post_box", "collection_times": "Mo-Fr 15:00", "note": "ON 12/24 AND 12/31, THIS BOX MAY BE COLLECTED AS EARLY AS 12 NOON.", "nsi_id": "unitedstatespostalservice-a77078", "operator": "United States Postal Service", "operator:short": "USPS", "operator:type": "public", "operator:wikidata": "Q668687", "ref": "4541400033"}, "type": "Feature"}
{"geometry": {"coordinates": [-84.1610357, 39.820455], "type": "Point"}, "id": "PLPOoTynyckdVL_jyGIQyqKr-jA=", "properties": {"@source_uri": "https://tools.usps.com/UspsToolsRestServices/rest/POLocator/findLocations", "@spider": "usps_collection_boxes", "addr:city": "DAYTON", "addr:country": "US", "addr:postcode": "45414", "addr:state": "OH", "addr:street_address": "3543 NEEDMORE RD", "amenity": "post_box", "collection_times": "Mo-Fr 11:45", "nsi_id": "unitedstatespostalservice-a77078", "operator": "United States Postal Service", "operator:short": "USPS", "operator:type": "public", "operator:wikidata": "Q668687", "ref": "4541400037"}, "type": "Feature"}
{"geometry": {"coordinates": [-84.191518233, 39.821507665], "type": "Point"}, "id": "QIw2VQs5y7uDFjTpSOUo5_ed964=", "properties": {"@source_uri": "https://tools.usps.com/UspsToolsRestServices/rest/POLocator/findLocations", "@spider": "usps_collection_boxes", "addr:city": "DAYTON", "addr:country": "US", "addr:postcode": "45414", "addr:state": "OH", "addr:street_address": "5150 PAYNE AVE", "amenity": "post_box", "collection_times": "Mo-Fr 16:00; Sa 15:30", "indoor": "yes", "note": "ON 12/24 AND 12/31, THIS BOX MAY BE COLLECTED AS EARLY AS 12 NOON.", "nsi_id": "unitedstatespostalservice-a77078", "operator": "United States Postal Service", "operator:short": "USPS", "operator:type": "public", "operator:wikidata": "Q668687", "ref": "4541400041"}, "type": "Feature"}
{"geometry": {"coordinates": [-84.1638057, 39.82375], "type": "Point"}, "id": "zC2_MAbZ3H5qmCA-RkQ_23HV8nA=", "properties": {"@source_uri": "https://tools.usps.com/UspsToolsRestServices/rest/POLocator/findLocations", "@spider": "usps_collection_boxes", "addr:city": "DAYTON", "addr:country": "US", "addr:postcode": "45414", "addr:state": "OH", "addr:street_address": "5154 SIERRA CIR W", "amenity": "post_box", "collection_times": "Mo-Fr 11:45", "nsi_id": "unitedstatespostalservice-a77078", "operator": "United States Postal Service", "operator:short": "USPS", "operator:type": "public", "operator:wikidata": "Q668687", "ref": "4541400042"}, "type": "Feature"}
{"geometry": {"coordinates": [-84.2673684, 39.846533], "type": "Point"}, "id": "tCntY11lXY3Mkm3OhwjZyhgetdQ=", "properties": {"@source_uri": "https://tools.usps.com/UspsToolsRestServices/rest/POLocator/findLocations", "@spider": "usps_collection_boxes", "addr:city": "DAYTON", "addr:country": "US", "addr:postcode": "45415", "addr:state": "OH", "addr:street_address": "8381 N MAIN ST", "amenity": "post_box", "collection_times": "Mo-Fr 09:00", "nsi_id": "unitedstatespostalservice-a77078", "operator": "United States Postal Service", "operator:short": "USPS", "operator:type": "public", "operator:wikidata": "Q668687", "ref": "4541500003"}, "type": "Feature"}
{"geometry": {"coordinates": [-84.2727549, 39.854673], "type": "Point"}, "id": "Ep-J95ckBy0yeVvk7EFFOemGfTs=", "properties": {"@source_uri": "https://tools.usps.com/UspsToolsRestServices/rest/POLocator/findLocations", "@spider": "usps_collection_boxes", "addr:city": "DAYTON", "addr:country": "US", "addr:postcode": "45415", "addr:state": "OH", "addr:street_address": "9000 N MAIN ST", "amenity": "post_box", "collection_times": "Mo-Fr 09:00", "nsi_id": "unitedstatespostalservice-a77078", "operator": "United States Postal Service", "operator:short": "USPS", "operator:type": "public", "operator:wikidata": "Q668687", "ref": "4541500009"}, "type": "Feature"}
{"geometry": {"coordinates": [-84.2387006, 39.814018], "type": "Point"}, "id": "Z2s0H1vfh1gN4dJum2pEroWUwfk=", "properties": {"@source_uri": "https://tools.usps.com/UspsToolsRestServices/rest/POLocator/findLocations", "@spider": "usps_collection_boxes", "addr:city": "DAYTON", "addr:country": "US", "addr:postcode": "45415", "addr:state": "OH", "addr:street_address": "4601 MERRICK DR", "amenity": "post_box", "collection_times": "Mo-Fr 12:30", "note": "ON 12/24 AND 12/31, THIS BOX MAY BE COLLECTED AS EARLY AS 12 NOON.", "nsi_id": "unitedstatespostalservice-a77078", "operator": "United States Postal Service", "operator:short": "USPS", "operator:type": "public", "operator:wikidata": "Q668687", "ref": "4541500011"}, "type": "Feature"}
{"geometry": {"coordinates": [-84.2667091, 39.811265], "type": "Point"}, "id": "AO7bJA6PlIBK3Yo131eiPcD3Yhc=", "properties": {"@source_uri": "https://tools.usps.com/UspsToolsRestServices/rest/POLocator/findLocations", "@spider": "usps_collection_boxes", "addr:city": "DAYTON", "addr:country": "US", "addr:postcode": "45416", "addr:state": "OH", "addr:street_address": "4604 SALEM AVE", "amenity": "post_box", "collection_times": "Mo-Fr 15:45", "note": "ON 12/24 AND 12/31, THIS BOX MAY BE COLLECTED AS EARLY AS 12 NOON.", "nsi_id": "unitedstatespostalservice-a77078", "operator": "United States Postal Service", "operator:short": "USPS", "operator:type": "public", "operator:wikidata": "Q668687", "ref": "4541600005"}, "type": "Feature"}
{"geometry": {"coordinates": [-84.2685007, 39.807821], "type": "Point"}, "id": "iLGM4fZBcdBrnaGtWTe-6cqldps=", "properties": {"@source_uri": "https://tools.usps.com/UspsToolsRestServices/rest/POLocator/findLocations", "@spider": "usps_collection_boxes", "addr:city": "DAYTON", "addr:country": "US", "addr:postcode": "45416", "addr:state": "OH", "addr:street_address": "4094 PARKWAY DR", "amenity": "post_box", "collection_times": "Mo-Fr 09:00", "nsi_id": "unitedstatespostalservice-a77078", "operator": "United States Postal Service", "operator:short": "USPS", "operator:type": "public", "operator:wikidata": "Q668687", "ref": "4541600007"}, "type": "Feature"}
{"geometry": {"coordinates": [-84.2354177957, 39.7527379316], "type": "Point"}, "id": "YgUXBxB_eertf5tBQFsKwAmHzTU=", "properties": {"@source_uri": "https://tools.usps.com/UspsToolsRestServices/rest/POLocator/findLocations", "@spider": "usps_collection_boxes", "addr:city": "DAYTON", "addr:country": "US", "addr:postcode": "45417", "addr:state": "OH", "addr:street_address": "13 LORENZ AVE", "amenity": "post_box", "collection_times": "Mo-Fr 10:00", "nsi_id": "unitedstatespostalservice-a77078", "operator": "United States Postal Service", "operator:short": "USPS", "operator:type": "public", "operator:wikidata": "Q668687", "ref": "4541700005"}, "type": "Feature"}
{"geometry": {"coordinates": [-84.257157921, 39.748770295], "type": "Point"}, "id": "VMx3hRCG6Il7i9Lh1uWUA-WGfQE=", "properties": {"@source_uri": "https://tools.usps.com/UspsToolsRestServices/rest/POLocator/findLocations", "@spider": "usps_collection_boxes", "addr:city": "DAYTON", "addr:country": "US", "addr:postcode": "45417", "addr:state": "OH", "addr:street_address": "4323 W 3RD ST", "amenity": "post_box", "collection_times": "Mo-Sa 16:00", "note": "ON 12/24 AND 12/31, THIS BOX MAY BE COLLECTED AS EARLY AS 12 NOON.", "nsi_id": "unitedstatespostalservice-a77078", "operator": "United States Postal Service", "operator:short": "USPS", "operator:type": "public", "operator:wikidata": "Q668687", "ref": "4541700013"}, "type": "Feature"}
{"geometry": {"coordinates": [-84.257157921, 39.748770295], "type": "Point"}, "id": "TNQVNUVmYBnNZLoL9TZarldcZAE=", "properties": {"@source_uri": "https://tools.usps.com/UspsToolsRestServices/rest/POLocator/findLocations", "@spider": "usps_collection_boxes", "addr:city": "DAYTON", "addr:country": "US", "addr:postcode": "45417", "addr:state": "OH", "addr:street_address": "4323 W 3RD ST", "amenity": "post_box", "collection_times": "Mo-Sa 16:00", "indoor": "yes", "note": "ON 12/24 AND 12/31, THIS BOX MAY BE COLLECTED AS EARLY AS 12 NOON.", "nsi_id": "unitedstatespostalservice-a77078", "operator": "United States Postal Service", "operator:short": "USPS", "operator:type": "public", "operator:wikidata": "Q668687", "ref": "4541700016"}, "type": "Feature"}
{"geometry": {"coordinates": [-84.3542788, 39.74702], "type": "Point"}, "id": "Zr7jz5mVzsdisQW1WViUB7s2YdA=", "properties": {"@source_uri": "https://tools.usps.com/UspsToolsRestServices/rest/POLocator/findLocations", "@spider": "usps_collection_boxes", "addr:city": "DAYTON", "addr:country": "US", "addr:postcode": "45417", "addr:state": "OH", "addr:street_address": "50 VOYAGER BLVD", "amenity": "post_box", "collection_times": "Mo-Fr 10:15", "nsi_id": "unitedstatespostalservice-a77078", "operator": "United States Postal Service", "operator:short": "USPS", "operator:type": "public", "operator:wikidata": "Q668687", "ref": "4541700018"}, "type": "Feature"}
{"geometry": {"coordinates": [-84.2931972, 39.746301], "type": "Point"}, "id": "iuKJHrIZV5_xbVM75OhLe0bWf00=", "properties": {"@source_uri": "https://tools.usps.com/UspsToolsRestServices/rest/POLocator/findLocations", "@spider": "usps_collection_boxes", "addr:city": "DAYTON", "addr:country": "US", "addr:postcode": "45417", "addr:state": "OH", "addr:street_address": "6122 W 3RD ST", "amenity": "post_box", "collection_times": "Mo-Fr 09:00", "nsi_id": "unitedstatespostalservice-a77078", "operator": "United States Postal Service", "operator:short": "USPS", "operator:type": "public", "operator:wikidata": "Q668687", "ref": "4541700019"}, "type": "Feature"}
{"geometry": {"coordinates": [-84.2652599, 39.733006], "type": "Point"}, "id": "zb_59v9QGfCxwfdw6yzdFojqUsY=", "properties": {"@source_uri": "https://tools.usps.com/UspsToolsRestServices/rest/POLocator/findLocations", "@spider": "usps_collection_boxes", "addr:city": "DAYTON", "addr:country": "US", "addr:postcode": "45417", "addr:state": "OH", "addr:street_address": "4555 COLLEGE VIEW DR", "amenity": "post_box", "collection_times": "Mo-Fr 10:45", "nsi_id": "unitedstatespostalservice-a77078", "operator": "United States Postal Service", "operator:short": "USPS", "operator:type": "public", "operator:wikidata": "Q668687", "ref": "4541700020"}, "type": "Feature"}
{"geometry": {"coordinates": [-84.2670885, 39.747217], "type": "Point"}, "id": "yBEwKrwei-cRh_Lg-hfkxIR_jDQ=", "properties": {"@source_uri": "https://tools.usps.com/UspsToolsRestServices/rest/POLocator/findLocations", "@spider": "usps_collection_boxes", "addr:city": "DAYTON", "addr:country": "US", "addr:postcode": "45417", "addr:state": "OH", "addr:street_address": "4933 W 3RD ST", "amenity": "post_box", "collection_times": "Mo-Fr 09:00", "nsi_id": "unitedstatespostalservice-a77078", "operator": "United States Postal Service", "operator:short": "USPS", "operator:type": "public", "operator:wikidata": "Q668687", "ref": "4541700021"}, "type": "Feature"}
{"geometry": {"coordinates": [-84.2641399, 39.776394], "type": "Point"}, "id": "THw_kM2T6VqzIcphsJbioNwDpDY=", "properties": {"@source_uri": "https://tools.usps.com/UspsToolsRestServices/rest/POLocator/findLocations", "@spider": "usps_collection_boxes", "addr:city": "DAYTON", "addr:country": "US", "addr:postcode": "45417", "addr:state": "OH", "addr:street_address": "4575 LITTLE RICHMOND RD", "amenity": "post_box", "collection_times": "Mo-Fr 09:00", "nsi_id": "unitedstatespostalservice-a77078", "operator": "United States Postal Service", "operator:short": "USPS", "operator:type": "public", "operator:wikidata": "Q668687", "ref": "4541700022"}, "type": "Feature"}
{"geometry": {"coordinates": [-84.2342406, 39.742069], "type": "Point"}, "id": "Ee2Y7fSteGe1gQJaCVNqgyGFd5Q=", "properties": {"@source_uri": "https://tools.usps.com/UspsToolsRestServices/rest/POLocator/findLocations", "@spider": "usps_collection_boxes", "addr:city": "DAYTON", "addr:country": "US", "addr:postcode": "45417", "addr:state": "OH", "addr:street_address": "2401 LAKEVIEW AVE", "amenity": "post_box", "collection_times": "Mo-Fr 12:15", "note": "ON 12/24 AND 12/31, THIS BOX MAY BE COLLECTED AS EARLY AS 12 NOON.", "nsi_id": "unitedstatespostalservice-a77078", "operator": "United States Postal Service", "operator:short": "USPS", "operator:type": "public", "operator:wikidata": "Q668687", "ref": "4541700023"}, "type": "Feature"}
{"geometry": {"coordinates": [-84.2103728, 39.732234], "type": "Point"}, "id": "QRq8z8uO8GpwYy9jqKGP5tohLps=", "properties": {"@source_uri": "https://tools.usps.com/UspsToolsRestServices/rest/POLocator/findLocations", "@spider": "usps_collection_boxes", "addr:city": "DAYTON", "addr:country": "US", "addr:postcode": "45417", "addr:state": "OH", "addr:street_address": "2314 S EDWIN C MOSES BLVD", "amenity": "post_box", "collection_times": "Mo-Fr 15:15", "note": "ON 12/24 AND 12/31, THIS BOX MAY BE COLLECTED AS EARLY AS 12 NOON.", "nsi_id": "unitedstatespostalservice-a77078", "operator": "United States Postal Service", "operator:short": "USPS", "operator:type": "public", "operator:wikidata": "Q668687", "ref": "4541700025"}, "type": "Feature"}
{"geometry": {"coordinates": [-84.1951999, 39.74208], "type": "Point"}, "id": "cLA-amfAcwqCK6gguktqWI9vcUs=", "properties": {"@source_uri": "https://tools.usps.com/UspsToolsRestServices/rest/POLocator/findLocations", "@spider": "usps_collection_boxes", "addr:city": "DAYTON", "addr:country": "US", "addr:postcode": "45417", "addr:state": "OH", "addr:street_address": "1133 S EDWIN C MOSES BLVD", "amenity": "post_box", "collection_times": "Mo-Fr 15:30", "note": "ON 12/24 AND 12/31, THIS BOX MAY BE COLLECTED AS EARLY AS 12 NOON.", "nsi_id": "unitedstatespostalservice-a77078", "operator": "United States Postal Service", "operator:short": "USPS", "operator:type": "public", "operator:wikidata": "Q668687", "ref": "4541700026"}, "type": "Feature"}
{"geometry": {"coordinates": [-84.1996979, 39.74772], "type": "Point"}, "id": "WJfXqsLWNCeaPZeQECXEZKWgkfQ=", "properties": {"@source_uri": "https://tools.usps.com/UspsToolsRestServices/rest/POLocator/findLocations", "@spider": "usps_collection_boxes", "addr:city": "DAYTON", "addr:country": "US", "addr:postcode": "45417", "addr:state": "OH", "addr:street_address": "1 ELIZABETH PL", "amenity": "post_box", "collection_times": "Mo-Fr 15:45; Sa 15:30", "note": "ON 12/24 AND 12/31, THIS BOX MAY BE COLLECTED AS EARLY AS 12 NOON.", "nsi_id": "unitedstatespostalservice-a77078", "operator": "United States Postal Service", "operator:short": "USPS", "operator:type": "public", "operator:wikidata": "Q668687", "ref": "4541700027"}, "type": "Feature"}
{"geometry": {"coordinates": [-84.1987169, 39.74692], "type": "Point"}, "id": "IREIZ2gX7s0xZPpkdkrTborytUI=", "properties": {"@source_uri": "https://tools.usps.com/UspsToolsRestServices/rest/POLocator/findLocations", "@spider": "usps_collection_boxes", "addr:city": "DAYTON", "addr:country": "US", "addr:postcode": "45417", "addr:state": "OH", "addr:street_address": "627 S EDWIN C MOSES BLVD", "amenity": "post_box", "collection_times": "Mo-Sa 15:45", "note": "ON 12/24 AND 12/31, THIS BOX MAY BE COLLECTED AS EARLY AS 12 NOON.", "nsi_id": "unitedstatespostalservice-a77078", "operator": "United States Postal Service", "operator:short": "USPS", "operator:type": "public", "operator:wikidata": "Q668687", "ref": "4541700030"}, "type": "Feature"}
{"geometry": {"coordinates": [-84.251781, 39.730257], "type": "Point"}, "id": "cj96RipuvPgqdKAGcCzt6Dy1mJ8=", "properties": {"@source_uri": "https://tools.usps.com/UspsToolsRestServices/rest/POLocator/findLocations", "@spider": "usps_collection_boxes", "addr:city": "DAYTON", "addr:country": "US", "addr:postcode": "45417", "addr:state": "OH", "addr:street_address": "1601 ACE PL", "amenity": "post_box", "collection_times": "Mo-Fr 09:00", "nsi_id": "unitedstatespostalservice-a77078", "operator": "United States Postal Service", "operator:short": "USPS", "operator:type": "public", "operator:wikidata": "Q668687", "ref": "4541700031"}, "type": "Feature"}
{"geometry": {"coordinates": [-84.257157921, 39.748770295], "type": "Point"}, "id": "WH5E5oA_6P2NOEvzWLabXtYqwWQ=", "properties": {"@source_uri": "https://tools.usps.com/UspsToolsRestServices/rest/POLocator/findLocations", "@spider": "usps_collection_boxes", "addr:city": "DAYTON", "addr:country": "US", "addr:postcode": "45417", "addr:state": "OH", "addr:street_address": "4323 W 3RD ST", "amenity": "post_box", "collection_times": "Mo-Fr 17:00; Sa 12:00", "indoor": "yes", "note": "ON 12/24 AND 12/31, THIS BOX MAY BE COLLECTED AS EARLY AS 12 NOON.", "nsi_id": "unitedstatespostalservice-a77078", "operator": "United States Postal Service", "operator:short": "USPS", "operator:type": "public", "operator:wikidata": "Q668687", "ref": "4541700034"}, "type": "Feature"}
{"geometry": {"coordinates": [-84.2725442, 39.731832], "type": "Point"}, "id": "_bTxoIgTw0WDODqRRh3OIFQNTQU=", "properties": {"@source_uri": "https://tools.usps.com/UspsToolsRestServices/rest/POLocator/findLocations", "@spider": "usps_collection_boxes", "addr:city": "DAYTON", "addr:country": "US", "addr:postcode": "45418", "addr:state": "OH", "addr:street_address": "1042 LIBERTY MEADOWS RD", "amenity": "post_box", "collection_times": "Mo-Fr 10:45", "nsi_id": "unitedstatespostalservice-a77078", "operator": "United States Postal Service", "operator:short": "USPS", "operator:type": "public", "operator:wikidata": "Q668687", "ref": "4541800001"}, "type": "Feature"}
{"geometry": {"coordinates": [-84.2339677, 39.732534], "type": "Point"}, "id": "tRgEAfoY_l4mK-qWl_cAOtVJFtI=", "properties": {"@source_uri": "https://tools.usps.com/UspsToolsRestServices/rest/POLocator/findLocations", "@spider": "usps_collection_boxes", "addr:city": "DAYTON", "addr:country": "US", "addr:postcode": "45418", "addr:state": "OH", "addr:street_address": "2505 NICHOLAS RD", "amenity": "post_box", "collection_times": "Mo-Fr 09:00", "nsi_id": "unitedstatespostalservice-a77078", "operator": "United States Postal Service", "operator:short": "USPS", "operator:type": "public", "operator:wikidata": "Q668687", "ref": "4541800003"}, "type": "Feature"}
{"geometry": {"coordinates": [-84.2684283, 39.725063], "type": "Point"}, "id": "6pxaOjwmIPir3iW--rTNC5tJpS0=", "properties": {"@source_uri": "https://tools.usps.com/UspsToolsRestServices/rest/POLocator/findLocations", "@spider": "usps_collection_boxes", "addr:city": "DAYTON", "addr:country": "US", "addr:postcode": "45418", "addr:state": "OH", "addr:street_address": "1453 LISCUM DR", "amenity": "post_box", "collection_times": "Mo-Fr 11:00", "nsi_id": "unitedstatespostalservice-a77078", "operator": "United States Postal Service", "operator:short": "USPS", "operator:type": "public", "operator:wikidata": "Q668687", "ref": "4541800004"}, "type": "Feature"}
{"geometry": {"coordinates": [-84.2619161, 39.728977], "type": "Point"}, "id": "ntACnM3G4dB-GkHpJKkduQueXKE=", "properties": {"@source_uri": "https://tools.usps.com/UspsToolsRestServices/rest/POLocator/findLocations", "@spider": "usps_collection_boxes", "addr:city": "DAYTON", "addr:country": "US", "addr:postcode": "45418", "addr:state": "OH", "addr:street_address": "4160 GERMANTOWN PIKE", "amenity": "post_box", "collection_times": "Mo-Fr 09:00", "nsi_id": "unitedstatespostalservice-a77078", "operator": "United States Postal Service", "operator:short": "USPS", "operator:type": "public", "operator:wikidata": "Q668687", "ref": "4541800005"}, "type": "Feature"}
{"geometry": {"coordinates": [-84.1733692, 39.724503], "type": "Point"}, "id": "MXJkP7z6pGLD8f9_SLZWj_rFY2Y=", "properties": {"@source_uri": "https://tools.usps.com/UspsToolsRestServices/rest/POLocator/findLocations", "@spider": "usps_collection_boxes", "addr:city": "DAYTON", "addr:country": "US", "addr:postcode": "45419", "addr:state": "OH", "addr:street_address": "1 E DIXON AVE", "amenity": "post_box", "collection_times": "Mo-Fr 15:45; Sa 14:45", "note": "ON 12/24 AND 12/31, THIS BOX MAY BE COLLECTED AS EARLY AS 12 NOON.", "nsi_id": "unitedstatespostalservice-a77078", "operator": "United States Postal Service", "operator:short": "USPS", "operator:type": "public", "operator:wikidata": "Q668687", "ref": "4541900002"}, "type": "Feature"}
{"geometry": {"coordinates": [-84.171053, 39.710366], "type": "Point"}, "id": "Ajp5txhSCH8PXPi_we6WkpzY_0E=", "properties": {"@source_uri": "https://tools.usps.com/UspsToolsRestServices/rest/POLocator/findLocations", "@spider": "usps_collection_boxes", "addr:city": "DAYTON", "addr:country": "US", "addr:postcode": "45419", "addr:state": "OH", "addr:street_address": "2300 FAR HILLS AVE", "amenity": "post_box", "collection_times": "Mo-Fr 15:30; Sa 14:30", "note": "ON 12/24 AND 12/31, THIS BOX MAY BE COLLECTED AS EARLY AS 12 NOON.", "nsi_id": "unitedstatespostalservice-a77078", "operator": "United States Postal Service", "operator:short": "USPS", "operator:type": "public", "operator:wikidata": "Q668687", "ref": "4541900004"}, "type": "Feature"}
{"geometry": {"coordinates": [-84.1663912, 39.71219], "type": "Point"}, "id": "NXKio1i52wHgxJ3k8IoG6gOwBaw=", "properties": {"@source_uri": "https://tools.usps.com/UspsToolsRestServices/rest/POLocator/findLocations", "@spider": "usps_collection_boxes", "addr:city": "DAYTON", "addr:country": "US", "addr:postcode": "45419", "addr:state": "OH", "addr:street_address": "300 HADLEY AVE", "amenity": "post_box", "collection_times": "Mo-Fr 10:15", "nsi_id": "unitedstatespostalservice-a77078", "operator": "United States Postal Service", "operator:short": "USPS", "operator:type": "public", "operator:wikidata": "Q668687", "ref": "4541900017"}, "type": "Feature"}
{"geometry": {"coordinates": [-84.1618199945, 39.7066570072], "type": "Point"}, "id": "8m6Mg37EOISOuxm1A-DM5uVhcp0=", "properties": {"@source_uri": "https://tools.usps.com/UspsToolsRestServices/rest/POLocator/findLocations", "@spider": "usps_collection_boxes", "addr:city": "DAYTON", "addr:country": "US", "addr:postcode": "45419", "addr:state": "OH", "addr:street_address": "500 BROAD BLVD", "amenity": "post_box", "collection_times": "Mo-Fr 10:30", "nsi_id": "unitedstatespostalservice-a77078", "operator": "United States Postal Service", "operator:short": "USPS", "operator:type": "public", "operator:wikidata": "Q668687", "ref": "4541900020"}, "type": "Feature"}
{"geometry": {"coordinates": [-84.1742900033, 39.7234390023], "type": "Point"}, "id": "jiIyHj43uDbOe_WE6zlL7-Z9Kyw=", "properties": {"@source_uri": "https://tools.usps.com/UspsToolsRestServices/rest/POLocator/findLocations", "@spider": "usps_collection_boxes", "addr:city": "DAYTON", "addr:country": "US", "addr:postcode": "45419", "addr:state": "OH", "addr:street_address": "31 PARK AVE", "amenity": "post_box", "collection_times": "Mo-Fr 15:45; Sa 14:30", "note": "ON 12/24 AND 12/31, THIS BOX MAY BE COLLECTED AS EARLY AS 12 NOON.", "nsi_id": "unitedstatespostalservice-a77078", "operator": "United States Postal Service", "operator:short": "USPS", "operator:type": "public", "operator:wikidata": "Q668687", "ref": "4541900024"}, "type": "Feature"}
{"geometry": {"coordinates": [-84.1701629, 39.70584], "type": "Point"}, "id": "u8EcKE6K3WMdLr5zIa4hZhNIdOk=", "properties": {"@source_uri": "https://tools.usps.com/UspsToolsRestServices/rest/POLocator/findLocations", "@spider": "usps_collection_boxes", "addr:city": "DAYTON", "addr:country": "US", "addr:postcode": "45419", "addr:state": "OH", "addr:street_address": "2800 FAR HILLS AVE", "amenity": "post_box", "collection_times": "Mo-Fr 15:30; Sa 14:30", "note": "ON 12/24 AND 12/31, THIS BOX MAY BE COLLECTED AS EARLY AS 12 NOON.", "nsi_id": "unitedstatespostalservice-a77078", "operator": "United States Postal Service", "operator:short": "USPS", "operator:type": "public", "operator:wikidata": "Q668687", "ref": "4541900027"}, "type": "Feature"}
{"geometry": {"coordinates": [-84.1675658, 39.728046], "type": "Point"}, "id": "rECLq7EzJnZgwaNVEjlalIM62Lg=", "properties": {"@source_uri": "https://tools.usps.com/UspsToolsRestServices/rest/POLocator/findLocations", "@spider": "usps_collection_boxes", "addr:city": "DAYTON", "addr:country": "US", "addr:postcode": "45419", "addr:state": "OH", "addr:street_address": "200 THRUSTON BLVD E", "amenity": "post_box", "collection_times": "Mo-Fr 16:00", "note": "ON 12/24 AND 12/31, THIS BOX MAY BE COLLECTED AS EARLY AS 12 NOON.", "nsi_id": "unitedstatespostalservice-a77078", "operator": "United States Postal Service", "operator:short": "USPS", "operator:type": "public", "operator:wikidata": "Q668687", "ref": "4541900030"}, "type": "Feature"}
{"geometry": {"coordinates": [-84.1706757, 39.707257], "type": "Point"}, "id": "k_B__z16XW_SHwHzA_RbKx_S9q8=", "properties": {"@source_uri": "https://tools.usps.com/UspsToolsRestServices/rest/POLocator/findLocations", "@spider": "usps_collection_boxes", "addr:city": "DAYTON", "addr:country": "US", "addr:postcode": "45419", "addr:state": "OH", "addr:street_address": "2600 FAR HILLS AVE", "amenity": "post_box", "collection_times": "Mo-Fr 15:30", "note": "ON 12/24 AND 12/31, THIS BOX MAY BE COLLECTED AS EARLY AS 12 NOON.", "nsi_id": "unitedstatespostalservice-a77078", "operator": "United States Postal Service", "operator:short": "USPS", "operator:type": "public", "operator:wikidata": "Q668687", "ref": "4541900032"}, "type": "Feature"}
{"geometry": {"coordinates": [-84.1709629, 39.707681], "type": "Point"}, "id": "qpypXdqnscECRUjqZ8ftsADL6YY=", "properties": {"@source_uri": "https://tools.usps.com/UspsToolsRestServices/rest/POLocator/findLocations", "@spider": "usps_collection_boxes", "addr:city": "DAYTON", "addr:country": "US", "addr:postcode": "45419", "addr:state": "OH", "addr:street_address": "2545 FAR HILLS AVE", "amenity": "post_box", "collection_times": "Mo-Fr 10:30", "nsi_id": "unitedstatespostalservice-a77078", "operator": "United States Postal Service", "operator:short": "USPS", "operator:type": "public", "operator:wikidata": "Q668687", "ref": "4541900035"}, "type": "Feature"}
{"geometry": {"coordinates": [-84.13899553, 39.715990514], "type": "Point"}, "id": "3B-P9_DhkT_a-K9qb26VvHyMTHI=", "properties": {"@source_uri": "https://tools.usps.com/UspsToolsRestServices/rest/POLocator/findLocations", "@spider": "usps_collection_boxes", "addr:city": "DAYTON", "addr:country": "US", "addr:postcode": "45420", "addr:state": "OH", "addr:street_address": "1490 FORRER BLVD", "amenity": "post_box", "collection_times": "Mo-Fr 17:00; Sa 16:00", "note": "ON 12/24 AND 12/31, THIS BOX MAY BE COLLECTED AS EARLY AS 12 NOON.", "nsi_id": "unitedstatespostalservice-a77078", "operator": "United States Postal Service", "operator:short": "USPS", "operator:type": "public", "operator:wikidata": "Q668687", "ref": "4542000000"}, "type": "Feature"}
{"geometry": {"coordinates": [-84.1308879, 39.722946], "type": "Point"}, "id": "Mz9uNPV4_XlHyFfP78RFPPbKHRg=", "properties": {"@source_uri": "https://tools.usps.com/UspsToolsRestServices/rest/POLocator/findLocations", "@spider": "usps_collection_boxes", "addr:city": "DAYTON", "addr:country": "US", "addr:postcode": "45420", "addr:state": "OH", "addr:street_address": "2274 PATTERSON RD", "amenity": "post_box", "collection_times": "Mo-Fr 09:00", "nsi_id": "unitedstatespostalservice-a77078", "operator": "United States Postal Service", "operator:short": "USPS", "operator:type": "public", "operator:wikidata": "Q668687", "ref": "4542000005"}, "type": "Feature"}
{"geometry": {"coordinates": [-84.1260439, 39.701854], "type": "Point"}, "id": "Yj6Ff4O7M3rCiyGKusAr-afw4GU=", "properties": {"@source_uri": "https://tools.usps.com/UspsToolsRestServices/rest/POLocator/findLocations", "@spider": "usps_collection_boxes", "addr:city": "DAYTON", "addr:country": "US", "addr:postcode": "45420", "addr:state": "OH", "addr:street_address": "2050 E DOROTHY LN", "amenity": "post_box", "collection_times": "Mo-Sa 09:00", "nsi_id": "unitedstatespostalservice-a77078", "operator": "United States Postal Service", "operator:short": "USPS", "operator:type": "public", "operator:wikidata": "Q668687", "ref": "4542000013"}, "type": "Feature"}
{"geometry": {"coordinates": [-84.1247806, 39.699658], "type": "Point"}, "id": "BIrera0b9Rdyn5WcZpQz9Mptbmk=", "properties": {"@source_uri": "https://tools.usps.com/UspsToolsRestServices/rest/POLocator/findLocations", "@spider": "usps_collection_boxes", "addr:city": "DAYTON", "addr:country": "US", "addr:postcode": "45420", "addr:state": "OH", "addr:street_address": "3085 WOODMAN DR", "amenity": "post_box", "collection_times": "Mo-Fr 11:15", "nsi_id": "unitedstatespostalservice-a77078", "operator": "United States Postal Service", "operator:short": "USPS", "operator:type": "public", "operator:wikidata": "Q668687", "ref": "4542000014"}, "type": "Feature"}
{"geometry": {"coordinates": [-84.1225117, 39.721434], "type": "Point"}, "id": "wdV7gIiYqcSrQMY_ShbyvhdFIx4=", "properties": {"@source_uri": "https://tools.usps.com/UspsToolsRestServices/rest/POLocator/findLocations", "@spider": "usps_collection_boxes", "addr:city": "DAYTON", "addr:country": "US", "addr:postcode": "45420", "addr:state": "OH", "addr:street_address": "1856 E BATAAN DR", "amenity": "post_box", "collection_times": "Mo-Fr 12:45", "note": "ON 12/24 AND 12/31, THIS BOX MAY BE COLLECTED AS EARLY AS 12 NOON.", "nsi_id": "unitedstatespostalservice-a77078", "operator": "United States Postal Service", "operator:short": "USPS", "operator:type": "public", "operator:wikidata": "Q668687", "ref": "4542000015"}, "type": "Feature"}
{"geometry": {"coordinates": [-84.1412635, 39.728179], "type": "Point"}, "id": "OhjdP_Ij1-yQYgOu7cEZ9KNAm8k=", "properties": {"@source_uri": "https://tools.usps.com/UspsToolsRestServices/rest/POLocator/findLocations", "@spider": "usps_collection_boxes", "addr:city": "DAYTON", "addr:country": "US", "addr:postcode": "45420", "addr:state": "OH", "addr:street_address": "2702 S SMITHVILLE RD", "amenity": "post_box", "collection_times": "Mo-Fr 13:00", "note": "ON 12/24 AND 12/31, THIS BOX MAY BE COLLECTED AS EARLY AS 12 NOON.", "nsi_id": "unitedstatespostalservice-a77078", "operator": "United States Postal Service", "operator:short": "USPS", "operator:type": "public", "operator:wikidata": "Q668687", "ref": "4542000018"}, "type": "Feature"}
{"geometry": {"coordinates": [-84.1438399, 39.738628], "type": "Point"}, "id": "P3BN9usbnO49UurFf0mnrqPWCPU=", "properties": {"@source_uri": "https://tools.usps.com/UspsToolsRestServices/rest/POLocator/findLocations", "@spider": "usps_collection_boxes", "addr:city": "DAYTON", "addr:country": "US", "addr:postcode": "45420", "addr:state": "OH", "addr:street_address": "3701 WAYNE AVE", "amenity": "post_box", "collection_times": "Mo-Fr 13:45", "note": "ON 12/24 AND 12/31, THIS BOX MAY BE COLLECTED AS EARLY AS 12 NOON.", "nsi_id": "unitedstatespostalservice-a77078", "operator": "United States Postal Service", "operator:short": "USPS", "operator:type": "public", "operator:wikidata": "Q668687", "ref": "4542000019"}, "type": "Feature"}
{"geometry": {"coordinates": [-84.1389399, 39.71976], "type": "Point"}, "id": "6Y71hvkD5_qkP3IpppyFj6sEWjw=", "properties": {"@source_uri": "https://tools.usps.com/UspsToolsRestServices/rest/POLocator/findLocations", "@spider": "usps_collection_boxes", "addr:city": "DAYTON", "addr:country": "US", "addr:postcode": "45420", "addr:state": "OH", "addr:street_address": "2027 LAKEWOOD DR", "amenity": "post_box", "collection_times": "Mo-Fr 12:45", "note": "ON 12/24 AND 12/31, THIS BOX MAY BE COLLECTED AS EARLY AS 12 NOON.", "nsi_id": "unitedstatespostalservice-a77078", "operator": "United States Postal Service", "operator:short": "USPS", "operator:type": "public", "operator:wikidata": "Q668687", "ref": "4542000025"}, "type": "Feature"}
{"geometry": {"coordinates": [-84.1119641, 39.695857], "type": "Point"}, "id": "Decu7x4_8YziAhnG75DOUS36w4w=", "properties": {"@source_uri": "https://tools.usps.com/UspsToolsRestServices/rest/POLocator/findLocations", "@spider": "usps_collection_boxes", "addr:city": "DAYTON", "addr:country": "US", "addr:postcode": "45420", "addr:state": "OH", "addr:street_address": "3249 POWHATTAN PL", "amenity": "post_box", "collection_times": "Mo-Fr 11:45", "nsi_id": "unitedstatespostalservice-a77078", "operator": "United States Postal Service", "operator:short": "USPS", "operator:type": "public", "operator:wikidata": "Q668687", "ref": "4542000028"}, "type": "Feature"}
{"geometry": {"coordinates": [-84.151886, 39.729454], "type": "Point"}, "id": "7HUIIdC0Eob4-DAMytdUqDyRiHg=", "properties": {"@source_uri": "https://tools.usps.com/UspsToolsRestServices/rest/POLocator/findLocations", "@spider": "usps_collection_boxes", "addr:city": "DAYTON", "addr:country": "US", "addr:postcode": "45420", "addr:state": "OH", "addr:street_address": "300 BELLAIRE AVE", "amenity": "post_box", "collection_times": "Mo-Fr 10:15", "nsi_id": "unitedstatespostalservice-a77078", "operator": "United States Postal Service", "operator:short": "USPS", "operator:type": "public", "operator:wikidata": "Q668687", "ref": "4542000029"}, "type": "Feature"}
{"geometry": {"coordinates": [-84.1520924, 39.723741], "type": "Point"}, "id": "cRL1J4Os1Yw-yfKD5P1RFJcUyIw=", "properties": {"@source_uri": "https://tools.usps.com/UspsToolsRestServices/rest/POLocator/findLocations", "@spider": "usps_collection_boxes", "addr:city": "DAYTON", "addr:country": "US", "addr:postcode": "45420", "addr:state": "OH", "addr:street_address": "1219 WILMINGTON AVE", "amenity": "post_box", "collection_times": "Mo-Fr 09:00", "nsi_id": "unitedstatespostalservice-a77078", "operator": "United States Postal Service", "operator:short": "USPS", "operator:type": "public", "operator:wikidata": "Q668687", "ref": "4542000030"}, "type": "Feature"}
{"geometry": {"coordinates": [-84.1503556, 39.723281], "type": "Point"}, "id": "K_pJqfh7-fnmGJ9B7Wh95F3pdYg=", "properties": {"@source_uri": "https://tools.usps.com/UspsToolsRestServices/rest/POLocator/findLocations", "@spider": "usps_collection_boxes", "addr:city": "DAYTON", "addr:country": "US", "addr:postcode": "45420", "addr:state": "OH", "addr:street_address": "1040 PATTERSON RD", "amenity": "post_box", "collection_times": "Mo-Fr 09:00", "nsi_id": "unitedstatespostalservice-a77078", "operator": "United States Postal Service", "operator:short": "USPS", "operator:type": "public", "operator:wikidata": "Q668687", "ref": "4542000031"}, "type": "Feature"}
{"geometry": {"coordinates": [-84.162806, 39.7395], "type": "Point"}, "id": "5z9y9PUG-Vp9WuecBQKWz5xawzI=", "properties": {"@source_uri": "https://tools.usps.com/UspsToolsRestServices/rest/POLocator/findLocations", "@spider": "usps_collection_boxes", "addr:city": "DAYTON", "addr:country": "US", "addr:postcode": "45420", "addr:state": "OH", "addr:street_address": "10 WILMINGTON AVE", "amenity": "post_box", "collection_times": "Mo-Fr 10:15", "nsi_id": "unitedstatespostalservice-a77078", "operator": "United States Postal Service", "operator:short": "USPS", "operator:type": "public", "operator:wikidata": "Q668687", "ref": "4542000035"}, "type": "Feature"}
{"geometry": {"coordinates": [-84.1229166, 39.701336], "type": "Point"}, "id": "ozn9FVJrDycmEz9j4n2VIRHMaXY=", "properties": {"@source_uri": "https://tools.usps.com/UspsToolsRestServices/rest/POLocator/findLocations", "@spider": "usps_collection_boxes", "addr:city": "DAYTON", "addr:country": "US", "addr:postcode": "45420", "addr:state": "OH", "addr:street_address": "2300 E DOROTHY LN", "amenity": "post_box", "collection_times": "Mo-Fr 11:30", "nsi_id": "unitedstatespostalservice-a77078", "operator": "United States Postal Service", "operator:short": "USPS", "operator:type": "public", "operator:wikidata": "Q668687", "ref": "4542000036"}, "type": "Feature"}
{"geometry": {"coordinates": [-84.1541806, 39.72755], "type": "Point"}, "id": "EoQHgidqrgeUypyQjvAqCqRrfFM=", "properties": {"@source_uri": "https://tools.usps.com/UspsToolsRestServices/rest/POLocator/findLocations", "@spider": "usps_collection_boxes", "addr:city": "DAYTON", "addr:country": "US", "addr:postcode": "45420", "addr:state": "OH", "addr:street_address": "980 WILMINGTON AVE", "amenity": "post_box", "collection_times": "Mo-Fr 10:30", "nsi_id": "unitedstatespostalservice-a77078", "operator": "United States Postal Service", "operator:short": "USPS", "operator:type": "public", "operator:wikidata": "Q668687", "ref": "4542000038"}, "type": "Feature"}
{"geometry": {"coordinates": [-84.1532431, 39.72513], "type": "Point"}, "id": "buhBBMMHoRJPHelZryltSUmTheY=", "properties": {"@source_uri": "https://tools.usps.com/UspsToolsRestServices/rest/POLocator/findLocations", "@spider": "usps_collection_boxes", "addr:city": "DAYTON", "addr:country": "US", "addr:postcode": "45420", "addr:state": "OH", "addr:street_address": "945 DANBURY RD", "amenity": "post_box", "collection_times": "Mo-Fr 10:30", "nsi_id": "unitedstatespostalservice-a77078", "operator": "United States Postal Service", "operator:short": "USPS", "operator:type": "public", "operator:wikidata": "Q668687", "ref": "4542000039"}, "type": "Feature"}
{"geometry": {"coordinates": [-84.1503223, 39.733179], "type": "Point"}, "id": "y9Czr9AwlqYrDhdOcFZljyIatHc=", "properties": {"@source_uri": "https://tools.usps.com/UspsToolsRestServices/rest/POLocator/findLocations", "@spider": "usps_collection_boxes", "addr:city": "DAYTON", "addr:country": "US", "addr:postcode": "45420", "addr:state": "OH", "addr:street_address": "2500 REVERE AVE", "amenity": "post_box", "collection_times": "Mo-Fr 10:15", "nsi_id": "unitedstatespostalservice-a77078", "operator": "United States Postal Service", "operator:short": "USPS", "operator:type": "public", "operator:wikidata": "Q668687", "ref": "4542000043"}, "type": "Feature"}
{"geometry": {"coordinates": [-84.1365672, 39.727214], "type": "Point"}, "id": "ACUT04ZvoxsWt6UzGMeQw-ZocWY=", "properties": {"@source_uri": "https://tools.usps.com/UspsToolsRestServices/rest/POLocator/findLocations", "@spider": "usps_collection_boxes", "addr:city": "DAYTON", "addr:country": "US", "addr:postcode": "45420", "addr:state": "OH", "addr:street_address": "1201 WATERVLIET AVE", "amenity": "post_box", "collection_times": "Mo-Fr 13:00", "note": "ON 12/24 AND 12/31, THIS BOX MAY BE COLLECTED AS EARLY AS 12 NOON.", "nsi_id": "unitedstatespostalservice-a77078", "operator": "United States Postal Service", "operator:short": "USPS", "operator:type": "public", "operator:wikidata": "Q668687", "ref": "4542000050"}, "type": "Feature"}
{"geometry": {"coordinates": [-84.13899553, 39.715990514], "type": "Point"}, "id": "o8ZPfiLRzV0wygZEaLdVUCRNTyM=", "properties": {"@source_uri": "https://tools.usps.com/UspsToolsRestServices/rest/POLocator/findLocations", "@spider": "usps_collection_boxes", "addr:city": "DAYTON", "addr:country": "US", "addr:postcode": "45420", "addr:state": "OH", "addr:street_address": "1490 FORRER BLVD", "amenity": "post_box", "collection_times": "Mo-Fr 17:00; Sa 16:00", "indoor": "yes", "note": "ON 12/24 AND 12/31, THIS BOX MAY BE COLLECTED AS EARLY AS 12 NOON.", "nsi_id": "unitedstatespostalservice-a77078", "operator": "United States Postal Service", "operator:short": "USPS", "operator:type": "public", "operator:wikidata": "Q668687", "ref": "4542000051"}, "type": "Feature"}
{"geometry": {"coordinates": [-84.13899553, 39.715990514], "type": "Point"}, "id": "L8XFcYETsYrz81eTFaA2khELGes=", "properties": {"@source_uri": "https://tools.usps.com/UspsToolsRestServices/rest/POLocator/findLocations", "@spider": "usps_collection_boxes", "addr:city": "DAYTON", "addr:country": "US", "addr:postcode": "45420", "addr:state": "OH", "addr:street_address": "1490 FORRER BLVD", "amenity": "post_box", "collection_times": "Mo-Fr 17:00; Sa 12:00", "indoor": "yes", "note": "ON 12/24 AND 12/31, THIS BOX MAY BE COLLECTED AS EARLY AS 12 NOON.", "nsi_id": "unitedstatespostalservice-a77078", "operator": "United States Postal Service", "operator:short": "USPS", "operator:type": "public", "operator:wikidata": "Q668687", "ref": "4542000058"}, "type": "Feature"}
{"geometry": {"coordinates": [-84.118791531, 39.839914505], "type": "Point"}, "id": "tFthCpuoxjdq8b9GQekrJwQu2kE=", "properties": {"@source_uri": "https://tools.usps.com/UspsToolsRestServices/rest/POLocator/findLocations", "@spider": "usps_collection_boxes", "addr:city": "DAYTON", "addr:country": "US", "addr:postcode": "45424", "addr:state": "OH", "addr:street_address": "5425 FISHBURG RD", "amenity": "post_box", "collection_times": "Mo-Fr 17:00; Sa 16:00", "note": "ON 12/24 AND 12/31, THIS BOX MAY BE COLLECTED AS EARLY AS 12 NOON.", "nsi_id": "unitedstatespostalservice-a77078", "operator": "United States Postal Service", "operator:short": "USPS", "operator:type": "public", "operator:wikidata": "Q668687", "ref": "4542400001"}, "type": "Feature"}
{"geometry": {"coordinates": [-84.118791531, 39.839914505], "type": "Point"}, "id": "y-haV9uO2r9BmUwkBRHLt06VJhs=", "properties": {"@source_uri": "https://tools.usps.com/UspsToolsRestServices/rest/POLocator/findLocations", "@spider": "usps_collection_boxes", "addr:city": "DAYTON", "addr:country": "US", "addr:postcode": "45424", "addr:state": "OH", "addr:street_address": "5425 FISHBURG RD", "amenity": "post_box", "collection_times": "Mo-Fr 17:00; Sa 16:00", "indoor": "yes", "note": "ON 12/24 AND 12/31, THIS BOX MAY BE COLLECTED AS EARLY AS 12 NOON.", "nsi_id": "unitedstatespostalservice-a77078", "operator": "United States Postal Service", "operator:short": "USPS", "operator:type": "public", "operator:wikidata": "Q668687", "ref": "4542400002"}, "type": "Feature"}
{"geometry": {"coordinates": [-84.1413485, 39.835207], "type": "Point"}, "id": "CVVQQmcaz6nfp09EF1aEXuDdx5Y=", "properties": {"@source_uri": "https://tools.usps.com/UspsToolsRestServices/rest/POLocator/findLocations", "@spider": "usps_collection_boxes", "addr:city": "DAYTON", "addr:country": "US", "addr:postcode": "45424", "addr:state": "OH", "addr:street_address": "5588 TROY PIKE", "amenity": "post_box", "collection_times": "Mo-Fr 11:30", "nsi_id": "unitedstatespostalservice-a77078", "operator": "United States Postal Service", "operator:short": "USPS", "operator:type": "public", "operator:wikidata": "Q668687", "ref": "4542400003"}, "type": "Feature"}
{"geometry": {"coordinates": [-84.1097099, 39.861101], "type": "Point"}, "id": "pogGPMIBVK8n6px60xLLMZFqztM=", "properties": {"@source_uri": "https://tools.usps.com/UspsToolsRestServices/rest/POLocator/findLocations", "@spider": "usps_collection_boxes", "addr:city": "DAYTON", "addr:country": "US", "addr:postcode": "45424", "addr:state": "OH", "addr:street_address": "7009 TAYLORSVILLE RD", "amenity": "post_box", "collection_times": "Mo-Fr 09:00", "nsi_id": "unitedstatespostalservice-a77078", "operator": "United States Postal Service", "operator:short": "USPS", "operator:type": "public", "operator:wikidata": "Q668687", "ref": "4542400012"}, "type": "Feature"}
{"geometry": {"coordinates": [-84.1187209, 39.846071], "type": "Point"}, "id": "SXL99VPzd7wszMbU-zwpKDJdq0I=", "properties": {"@source_uri": "https://tools.usps.com/UspsToolsRestServices/rest/POLocator/findLocations", "@spider": "usps_collection_boxes", "addr:city": "DAYTON", "addr:country": "US", "addr:postcode": "45424", "addr:state": "OH", "addr:street_address": "6114 CHAMBERSBURG RD", "amenity": "post_box", "collection_times": "Mo-Fr 10:45", "nsi_id": "unitedstatespostalservice-a77078", "operator": "United States Postal Service", "operator:short": "USPS", "operator:type": "public", "operator:wikidata": "Q668687", "ref": "4542400015"}, "type": "Feature"}
{"geometry": {"coordinates": [-84.137422881, 39.872296728], "type": "Point"}, "id": "snh10_aaAQmTZ_tih8UMs5I0-ic=", "properties": {"@source_uri": "https://tools.usps.com/UspsToolsRestServices/rest/POLocator/findLocations", "@spider": "usps_collection_boxes", "addr:city": "DAYTON", "addr:country": "US", "addr:postcode": "45424", "addr:state": "OH", "addr:street_address": "8261 TROY PIKE", "amenity": "post_box", "collection_times": "Mo-Fr 09:00", "nsi_id": "unitedstatespostalservice-a77078", "operator": "United States Postal Service", "operator:short": "USPS", "operator:type": "public", "operator:wikidata": "Q668687", "ref": "4542400022"}, "type": "Feature"}
{"geometry": {"coordinates": [-84.1403199, 39.865415], "type": "Point"}, "id": "hnwZKpKQjkfZdgCRO4re4jWezv0=", "properties": {"@source_uri": "https://tools.usps.com/UspsToolsRestServices/rest/POLocator/findLocations", "@spider": "usps_collection_boxes", "addr:city": "DAYTON", "addr:country": "US", "addr:postcode": "45424", "addr:state": "OH", "addr:street_address": "7651 TROY PIKE", "amenity": "post_box", "collection_times": "Mo-Fr 09:00", "nsi_id": "unitedstatespostalservice-a77078", "operator": "United States Postal Service", "operator:short": "USPS", "operator:type": "public", "operator:wikidata": "Q668687", "ref": "4542400023"}, "type": "Feature"}
{"geometry": {"coordinates": [-84.1255274, 39.800189], "type": "Point"}, "id": "0WFx7ouz0t4GqciwKEdgVXRZnYs=", "properties": {"@source_uri": "https://tools.usps.com/UspsToolsRestServices/rest/POLocator/findLocations", "@spider": "usps_collection_boxes", "addr:city": "DAYTON", "addr:country": "US", "addr:postcode": "45424", "addr:state": "OH", "addr:street_address": "3324 VALLEY ST", "amenity": "post_box", "collection_times": "Mo-Fr 09:00", "nsi_id": "unitedstatespostalservice-a77078", "operator": "United States Postal Service", "operator:short": "USPS", "operator:type": "public", "operator:wikidata": "Q668687", "ref": "4542400029"}, "type": "Feature"}
{"geometry": {"coordinates": [-84.118791531, 39.839914505], "type": "Point"}, "id": "WvYyXNbX2NfNTikEPWQofxNQoSo=", "properties": {"@source_uri": "https://tools.usps.com/UspsToolsRestServices/rest/POLocator/findLocations", "@spider": "usps_collection_boxes", "addr:city": "DAYTON", "addr:country": "US", "addr:postcode": "45424", "addr:state": "OH", "addr:street_address": "5425 FISHBURG RD", "amenity": "post_box", "collection_times": "Mo-Fr 17:00; Sa 16:00", "indoor": "yes", "note": "ON 12/24 AND 12/31, THIS BOX MAY BE COLLECTED AS EARLY AS 12 NOON.", "nsi_id": "unitedstatespostalservice-a77078", "operator": "United States Postal Service", "operator:short": "USPS", "operator:type": "public", "operator:wikidata": "Q668687", "ref": "4542400032"}, "type": "Feature"}
{"geometry": {"coordinates": [-84.118791531, 39.839914505], "type": "Point"}, "id": "hMATU5-H9DdGT_vwOEYXX6s8t2Y=", "properties": {"@source_uri": "https://tools.usps.com/UspsToolsRestServices/rest/POLocator/findLocations", "@spider": "usps_collection_boxes", "addr:city": "DAYTON", "addr:country": "US", "addr:postcode": "45424", "addr:state": "OH", "addr:street_address": "5425 FISHBURG RD", "amenity": "post_box", "collection_times": "Mo-Fr 17:00; Sa 16:00", "name": "USPS COLLECTION BOX - APC", "note": "ON 12/24 AND 12/31, THIS BOX MAY BE COLLECTED AS EARLY AS 12 NOON.", "nsi_id": "unitedstatespostalservice-a77078", "operator": "United States Postal Service", "operator:short": "USPS", "operator:type": "public", "operator:wikidata": "Q668687", "ref": "4542400033"}, "type": "Feature"}
{"geometry": {"coordinates": [-84.118791531, 39.839914505], "type": "Point"}, "id": "Nz2HPub-zQeq-TmVnA1AwlDre_4=", "properties": {"@source_uri": "https://tools.usps.com/UspsToolsRestServices/rest/POLocator/findLocations", "@spider": "usps_collection_boxes", "addr:city": "DAYTON", "addr:country": "US", "addr:postcode": "45424", "addr:state": "OH", "addr:street_address": "5425 FISHBURG RD", "amenity": "post_box", "collection_times": "Mo-Fr 18:00; Sa 14:00", "indoor": "yes", "note": "ON 12/24 AND 12/31, THIS BOX MAY BE COLLECTED AS EARLY AS 12 NOON.", "nsi_id": "unitedstatespostalservice-a77078", "operator": "United States Postal Service", "operator:short": "USPS", "operator:type": "public", "operator:wikidata": "Q668687", "ref": "4542400042"}, "type": "Feature"}
{"geometry": {"coordinates": [-84.2992971, 39.798954], "type": "Point"}, "id": "b0tt0Y9ooYJF_N3JlLJl1rWDPFU=", "properties": {"@source_uri": "https://tools.usps.com/UspsToolsRestServices/rest/POLocator/findLocations", "@spider": "usps_collection_boxes", "addr:city": "DAYTON", "addr:country": "US", "addr:postcode": "45426", "addr:state": "OH", "addr:street_address": "34A BEARDSLEY RD", "amenity": "post_box", "collection_times": "Mo-Fr 17:00; Sa 16:00", "note": "ON 12/24 AND 12/31, THIS BOX MAY BE COLLECTED AS EARLY AS 12 NOON.", "nsi_id": "unitedstatespostalservice-a77078", "operator": "United States Postal Service", "operator:short": "USPS", "operator:type": "public", "operator:wikidata": "Q668687", "ref": "4542600001"}, "type": "Feature"}
{"geometry": {"coordinates": [-84.2993074, 39.79896], "type": "Point"}, "id": "JVCrgtoKqNIU3wh5foJK1jvQ25Q=", "properties": {"@source_uri": "https://tools.usps.com/UspsToolsRestServices/rest/POLocator/findLocations", "@spider": "usps_collection_boxes", "addr:city": "DAYTON", "addr:country": "US", "addr:postcode": "45426", "addr:state": "OH", "addr:street_address": "34B BEARDSLEY RD", "amenity": "post_box", "collection_times": "Mo-Fr 17:00; Sa 16:00", "note": "ON 12/24 AND 12/31, THIS BOX MAY BE COLLECTED AS EARLY AS 12 NOON.", "nsi_id": "unitedstatespostalservice-a77078", "operator": "United States Postal Service", "operator:short": "USPS", "operator:type": "public", "operator:wikidata": "Q668687", "ref": "4542600002"}, "type": "Feature"}
{"geometry": {"coordinates": [-84.2993128, 39.798965], "type": "Point"}, "id": "5uXkZPkxtoN9kHiAyJgO_X5ymFo=", "properties": {"@source_uri": "https://tools.usps.com/UspsToolsRestServices/rest/POLocator/findLocations", "@spider": "usps_collection_boxes", "addr:city": "DAYTON", "addr:country": "US", "addr:postcode": "45426", "addr:state": "OH", "addr:street_address": "34C BEARDSLEY RD", "amenity": "post_box", "collection_times": "Mo-Fr 17:00; Sa 16:00", "note": "ON 12/24 AND 12/31, THIS BOX MAY BE COLLECTED AS EARLY AS 12 NOON.", "nsi_id": "unitedstatespostalservice-a77078", "operator": "United States Postal Service", "operator:short": "USPS", "operator:type": "public", "operator:wikidata": "Q668687", "ref": "4542600003"}, "type": "Feature"}
{"geometry": {"coordinates": [-84.2798422, 39.814619], "type": "Point"}, "id": "X0XTmMVV97Uwn99kuDS97m9uePA=", "properties": {"@source_uri": "https://tools.usps.com/UspsToolsRestServices/rest/POLocator/findLocations", "@spider": "usps_collection_boxes", "addr:city": "DAYTON", "addr:country": "US", "addr:postcode": "45426", "addr:state": "OH", "addr:street_address": "4911 COVENANT HOUSE DR", "amenity": "post_box", "collection_times": "Mo-Fr 11:00", "nsi_id": "unitedstatespostalservice-a77078", "operator": "United States Postal Service", "operator:short": "USPS", "operator:type": "public", "operator:wikidata": "Q668687", "ref": "4542600011"}, "type": "Feature"}
{"geometry": {"coordinates": [-84.2733221, 39.802057], "type": "Point"}, "id": "W6wcXGqKjQv-uRJHS9FcNiLbcmM=", "properties": {"@source_uri": "https://tools.usps.com/UspsToolsRestServices/rest/POLocator/findLocations", "@spider": "usps_collection_boxes", "addr:city": "DAYTON", "addr:country": "US", "addr:postcode": "45426", "addr:state": "OH", "addr:street_address": "3802 DENLINGER RD", "amenity": "post_box", "collection_times": "Mo-Fr 11:00", "nsi_id": "unitedstatespostalservice-a77078", "operator": "United States Postal Service", "operator:short": "USPS", "operator:type": "public", "operator:wikidata": "Q668687", "ref": "4542600012"}, "type": "Feature"}
{"geometry": {"coordinates": [-84.2947024, 39.825355], "type": "Point"}, "id": "cGXWr1a9Vx3Q58Y9rMJkO6ObSwk=", "properties": {"@source_uri": "https://tools.usps.com/UspsToolsRestServices/rest/POLocator/findLocations", "@spider": "usps_collection_boxes", "addr:city": "DAYTON", "addr:country": "US", "addr:postcode": "45426", "addr:state": "OH", "addr:street_address": "6110 WESTFORD RD", "amenity": "post_box", "collection_times": "Mo-Fr 14:30", "note": "ON 12/24 AND 12/31, THIS BOX MAY BE COLLECTED AS EARLY AS 12 NOON.", "nsi_id": "unitedstatespostalservice-a77078", "operator": "United States Postal Service", "operator:short": "USPS", "operator:type": "public", "operator:wikidata": "Q668687", "ref": "4542600015"}, "type": "Feature"}
{"geometry": {"coordinates": [-84.2952169777, 39.8178900172], "type": "Point"}, "id": "zBaTQbMFhRxnB7H67lbrJ0J3tnM=", "properties": {"@source_uri": "https://tools.usps.com/UspsToolsRestServices/rest/POLocator/findLocations", "@spider": "usps_collection_boxes", "addr:city": "DAYTON", "addr:country": "US", "addr:postcode": "45426", "addr:state": "OH", "addr:street_address": "3100 SHILOH SPRINGS RD", "amenity": "post_box", "collection_times": "Mo-Fr 09:00", "nsi_id": "unitedstatespostalservice-a77078", "operator": "United States Postal Service", "operator:short": "USPS", "operator:type": "public", "operator:wikidata": "Q668687", "ref": "4542600018"}, "type": "Feature"}
{"geometry": {"coordinates": [-84.2888283, 39.825279], "type": "Point"}, "id": "JZ-C7itDZkTfHeJheOfRRzAlWK8=", "properties": {"@source_uri": "https://tools.usps.com/UspsToolsRestServices/rest/POLocator/findLocations", "@spider": "usps_collection_boxes", "addr:city": "DAYTON", "addr:country": "US", "addr:postcode": "45426", "addr:state": "OH", "addr:street_address": "5495 SALEM AVE", "amenity": "post_box", "collection_times": "Mo-Fr 09:00", "nsi_id": "unitedstatespostalservice-a77078", "operator": "United States Postal Service", "operator:short": "USPS", "operator:type": "public", "operator:wikidata": "Q668687", "ref": "4542600019"}, "type": "Feature"}
{"geometry": {"coordinates": [-84.299414211, 39.798864], "type": "Point"}, "id": "hzxH8SPU-f6IFpSWCHjewsTvqcs=", "properties": {"@source_uri": "https://tools.usps.com/UspsToolsRestServices/rest/POLocator/findLocations", "@spider": "usps_collection_boxes", "addr:city": "DAYTON", "addr:country": "US", "addr:postcode": "45426", "addr:state": "OH", "addr:street_address": "34 BEARDSLEY RD", "amenity": "post_box", "collection_times": "Mo-Fr 17:00; Sa 16:00", "indoor": "yes", "note": "ON 12/24 AND 12/31, THIS BOX MAY BE COLLECTED AS EARLY AS 12 NOON.", "nsi_id": "unitedstatespostalservice-a77078", "operator": "United States Postal Service", "operator:short": "USPS", "operator:type": "public", "operator:wikidata": "Q668687", "ref": "4542600030"}, "type": "Feature"}
{"geometry": {"coordinates": [-84.299414211, 39.798864], "type": "Point"}, "id": "2xZeAvky_TG99rYqE0RcOsTTspY=", "properties": {"@source_uri": "https://tools.usps.com/UspsToolsRestServices/rest/POLocator/findLocations", "@spider": "usps_collection_boxes", "addr:city": "DAYTON", "addr:country": "US", "addr:postcode": "45426", "addr:state": "OH", "addr:street_address": "34 BEARDSLEY RD", "amenity": "post_box", "collection_times": "Mo-Fr 17:00; Sa 12:00", "indoor": "yes", "note": "ON 12/24 AND 12/31, THIS BOX MAY BE COLLECTED AS EARLY AS 12 NOON.", "nsi_id": "unitedstatespostalservice-a77078", "operator": "United States Postal Service", "operator:short": "USPS", "operator:type": "public", "operator:wikidata": "Q668687", "ref": "4542600035"}, "type": "Feature"}
{"geometry": {"coordinates": [-84.2610706, 39.740754], "type": "Point"}, "id": "ddyljCsU98rVjWQXyyERhvI3eh0=", "properties": {"@source_uri": "https://tools.usps.com/UspsToolsRestServices/rest/POLocator/findLocations", "@spider": "usps_collection_boxes", "addr:city": "DAYTON", "addr:country": "US", "addr:postcode": "45428", "addr:state": "OH", "addr:street_address": "4100 W 3RD ST", "amenity": "post_box", "collection_times": "Mo-Fr 09:00", "nsi_id": "unitedstatespostalservice-a77078", "operator": "United States Postal Service", "operator:short": "USPS", "operator:type": "public", "operator:wikidata": "Q668687", "ref": "4542800002"}, "type": "Feature"}
{"geometry": {"coordinates": [-84.1518730224, 39.7027719951], "type": "Point"}, "id": "itcTYdNEJVrzfOvXwJ7ENIRQGg4=", "properties": {"@source_uri": "https://tools.usps.com/UspsToolsRestServices/rest/POLocator/findLocations", "@spider": "usps_collection_boxes", "addr:city": "DAYTON", "addr:country": "US", "addr:postcode": "45429", "addr:state": "OH", "addr:street_address": "3080 ACKERMAN BLVD", "amenity": "post_box", "collection_times": "Mo-Fr 09:00", "nsi_id": "unitedstatespostalservice-a77078", "operator": "United States Postal Service", "operator:short": "USPS", "operator:type": "public", "operator:wikidata": "Q668687", "ref": "4542900002"}, "type": "Feature"}
{"geometry": {"coordinates": [-84.1626249, 39.670488], "type": "Point"}, "id": "7E8m5bP2bPb3Q9-5RDV9p8r-qzE=", "properties": {"@source_uri": "https://tools.usps.com/UspsToolsRestServices/rest/POLocator/findLocations", "@spider": "usps_collection_boxes", "addr:city": "DAYTON", "addr:country": "US", "addr:postcode": "45429", "addr:state": "OH", "addr:street_address": "5250 FAR HILLS AVE", "amenity": "post_box", "collection_times": "Mo-Fr 10:00", "nsi_id": "unitedstatespostalservice-a77078", "operator": "United States Postal Service", "operator:short": "USPS", "operator:type": "public", "operator:wikidata": "Q668687", "ref": "4542900017"}, "type": "Feature"}
{"geometry": {"coordinates": [-84.1637909, 39.670116], "type": "Point"}, "id": "oGJHmqMb2pcLWgclPif-M57bG-Y=", "properties": {"@source_uri": "https://tools.usps.com/UspsToolsRestServices/rest/POLocator/findLocations", "@spider": "usps_collection_boxes", "addr:city": "DAYTON", "addr:country": "US", "addr:postcode": "45429", "addr:state": "OH", "addr:street_address": "5335 FAR HILLS AVE", "amenity": "post_box", "collection_times": "Mo-Fr 10:00", "nsi_id": "unitedstatespostalservice-a77078", "operator": "United States Postal Service", "operator:short": "USPS", "operator:type": "public", "operator:wikidata": "Q668687", "ref": "4542900018"}, "type": "Feature"}
{"geometry": {"coordinates": [-84.1921849, 39.695749], "type": "Point"}, "id": "T7WVY-heNkRDn23WCVr0TdLY_bs=", "properties": {"@source_uri": "https://tools.usps.com/UspsToolsRestServices/rest/POLocator/findLocations", "@spider": "usps_collection_boxes", "addr:city": "DAYTON", "addr:country": "US", "addr:postcode": "45429", "addr:state": "OH", "addr:street_address": "3535 SOUTHERN BLVD", "amenity": "post_box", "collection_times": "Mo-Fr 10:00", "nsi_id": "unitedstatespostalservice-a77078", "operator": "United States Postal Service", "operator:short": "USPS", "operator:type": "public", "operator:wikidata": "Q668687", "ref": "4542900027"}, "type": "Feature"}
{"geometry": {"coordinates": [-84.1692505, 39.690182], "type": "Point"}, "id": "G1v-PC39pyuNK4YYOEnHqOizPuM=", "properties": {"@source_uri": "https://tools.usps.com/UspsToolsRestServices/rest/POLocator/findLocations", "@spider": "usps_collection_boxes", "addr:city": "DAYTON", "addr:country": "US", "addr:postcode": "45429", "addr:state": "OH", "addr:street_address": "10 SOUTHMOOR CIR NW", "amenity": "post_box", "collection_times": "Mo-Fr 09:00", "nsi_id": "unitedstatespostalservice-a77078", "operator": "United States Postal Service", "operator:short": "USPS", "operator:type": "public", "operator:wikidata": "Q668687", "ref": "4542900028"}, "type": "Feature"}
{"geometry": {"coordinates": [-84.1625889, 39.688467], "type": "Point"}, "id": "rthImNS2Ogl6t4AXYXzJZvAVTCI=", "properties": {"@source_uri": "https://tools.usps.com/UspsToolsRestServices/rest/POLocator/findLocations", "@spider": "usps_collection_boxes", "addr:city": "DAYTON", "addr:country": "US", "addr:postcode": "45429", "addr:state": "OH", "addr:street_address": "524 E STROOP RD", "amenity": "post_box", "collection_times": "Mo-Sa 09:00", "nsi_id": "unitedstatespostalservice-a77078", "operator": "United States Postal Service", "operator:short": "USPS", "operator:type": "public", "operator:wikidata": "Q668687", "ref": "4542900029"}, "type": "Feature"}
{"geometry": {"coordinates": [-84.1611983, 39.668895], "type": "Point"}, "id": "oG6yXHzM_o4DLXHIcAWoydW6Dbg=", "properties": {"@source_uri": "https://tools.usps.com/UspsToolsRestServices/rest/POLocator/findLocations", "@spider": "usps_collection_boxes", "addr:city": "DAYTON", "addr:country": "US", "addr:postcode": "45429", "addr:state": "OH", "addr:street_address": "42 E RAHN RD", "amenity": "post_box", "collection_times": "Mo-Fr 09:00", "nsi_id": "unitedstatespostalservice-a77078", "operator": "United States Postal Service", "operator:short": "USPS", "operator:type": "public", "operator:wikidata": "Q668687", "ref": "4542900040"}, "type": "Feature"}
{"geometry": {"coordinates": [-84.13519172, 39.688146506], "type": "Point"}, "id": "Sc7-9jJSjM84esEtOEQ-TavwlJ4=", "properties": {"@source_uri": "https://tools.usps.com/UspsToolsRestServices/rest/POLocator/findLocations", "@spider": "usps_collection_boxes", "addr:city": "DAYTON", "addr:country": "US", "addr:postcode": "45429", "addr:state": "OH", "addr:street_address": "1740 E STROOP RD", "amenity": "post_box", "collection_times": "Mo-Fr 17:00; Sa 16:00", "note": "ON 12/24 AND 12/31, THIS BOX MAY BE COLLECTED AS EARLY AS 12 NOON.", "nsi_id": "unitedstatespostalservice-a77078", "operator": "United States Postal Service", "operator:short": "USPS", "operator:type": "public", "operator:wikidata": "Q668687", "ref": "4542900042"}, "type": "Feature"}
{"geometry": {"coordinates": [-84.13519172, 39.688146506], "type": "Point"}, "id": "I3336iaxasoy--xxRalYTKLBdqI=", "properties": {"@source_uri": "https://tools.usps.com/UspsToolsRestServices/rest/POLocator/findLocations", "@spider": "usps_collection_boxes", "addr:city": "DAYTON", "addr:country": "US", "addr:postcode": "45429", "addr:state": "OH", "addr:street_address": "1740 E STROOP RD", "amenity": "post_box", "collection_times": "Mo-Fr 17:00; Sa 16:00", "indoor": "yes", "note": "ON 12/24 AND 12/31, THIS BOX MAY BE COLLECTED AS EARLY AS 12 NOON.", "nsi_id": "unitedstatespostalservice-a77078", "operator": "United States Postal Service", "operator:short": "USPS", "operator:type": "public", "operator:wikidata": "Q668687", "ref": "4542900060"}, "type": "Feature"}
{"geometry": {"coordinates": [-84.13519172, 39.688146506], "type": "Point"}, "id": "WXhQBSQ02wVsW6DuYtGFVEe8uH8=", "properties": {"@source_uri": "https://tools.usps.com/UspsToolsRestServices/rest/POLocator/findLocations", "@spider": "usps_collection_boxes", "addr:city": "DAYTON", "addr:country": "US", "addr:postcode": "45429", "addr:state": "OH", "addr:street_address": "1740 E STROOP RD", "amenity": "post_box", "collection_times": "Mo-Fr 17:00; Sa 16:00", "indoor": "yes", "note": "ON 12/24 AND 12/31, THIS BOX MAY BE COLLECTED AS EARLY AS 12 NOON.", "nsi_id": "unitedstatespostalservice-a77078", "operator": "United States Postal Service", "operator:short": "USPS", "operator:type": "public", "operator:wikidata": "Q668687", "ref": "4542900061"}, "type": "Feature"}
{"geometry": {"coordinates": [-84.1921669, 39.697715], "type": "Point"}, "id": "Uv6Bm09UiVcF-HCRJA66Dor8Izc=", "properties": {"@source_uri": "https://tools.usps.com/UspsToolsRestServices/rest/POLocator/findLocations", "@spider": "usps_collection_boxes", "addr:city": "DAYTON", "addr:country": "US", "addr:postcode": "45429", "addr:state": "OH", "addr:street_address": "3533 SOUTHERN BLVD", "amenity": "post_box", "collection_times": "Mo-Fr 09:00", "nsi_id": "unitedstatespostalservice-a77078", "operator": "United States Postal Service", "operator:short": "USPS", "operator:type": "public", "operator:wikidata": "Q668687", "ref": "4542900062"}, "type": "Feature"}
{"geometry": {"coordinates": [-84.13519172, 39.688146506], "type": "Point"}, "id": "sUc1P0rJOBJ6dWHikcC3WlA7--I=", "properties": {"@source_uri": "https://tools.usps.com/UspsToolsRestServices/rest/POLocator/findLocations", "@spider": "usps_collection_boxes", "addr:city": "DAYTON", "addr:country": "US", "addr:postcode": "45429", "addr:state": "OH", "addr:street_address": "1740 E STROOP RD", "amenity": "post_box", "collection_times": "Mo-Fr 17:00; Sa 16:00", "name": "USPS COLLECTION BOX - APC", "note": "ON 12/24 AND 12/31, THIS BOX MAY BE COLLECTED AS EARLY AS 12 NOON.", "nsi_id": "unitedstatespostalservice-a77078", "operator": "United States Postal Service", "operator:short": "USPS", "operator:type": "public", "operator:wikidata": "Q668687", "ref": "4542900063"}, "type": "Feature"}
{"geometry": {"coordinates": [-84.13519172, 39.688146506], "type": "Point"}, "id": "gH0W7nUVkl7uzE0nJvg_OMEg6wE=", "properties": {"@source_uri": "https://tools.usps.com/UspsToolsRestServices/rest/POLocator/findLocations", "@spider": "usps_collection_boxes", "addr:city": "DAYTON", "addr:country": "US", "addr:postcode": "45429", "addr:state": "OH", "addr:street_address": "1740 E STROOP RD", "amenity": "post_box", "collection_times": "Mo-Fr 18:00; Sa 16:00", "indoor": "yes", "note": "ON 12/24 AND 12/31, THIS BOX MAY BE COLLECTED AS EARLY AS 12 NOON.", "nsi_id": "unitedstatespostalservice-a77078", "operator": "United States Postal Service", "operator:short": "USPS", "operator:type": "public", "operator:wikidata": "Q668687", "ref": "4542900070"}, "type": "Feature"}
{"geometry": {"coordinates": [-84.0850374, 39.732061], "type": "Point"}, "id": "BODSSRvRLm0LkSFgKRdM_nl7RDw=", "properties": {"@source_uri": "https://tools.usps.com/UspsToolsRestServices/rest/POLocator/findLocations", "@spider": "usps_collection_boxes", "addr:city": "BEAVERCREEK", "addr:country": "US", "addr:postcode": "45430", "addr:state": "OH", "addr:street_address": "4020 EXECUTIVE DR", "amenity": "post_box", "collection_times": "Mo-Fr 09:00", "nsi_id": "unitedstatespostalservice-a77078", "operator": "United States Postal Service", "operator:short": "USPS", "operator:type": "public", "operator:wikidata": "Q668687", "ref": "4543000000"}, "type": "Feature"}
{"geometry": {"coordinates": [-84.0632969, 39.720945], "type": "Point"}, "id": "xOd-XUkIZ06VlRg9B8aWm-MFxCk=", "properties": {"@source_uri": "https://tools.usps.com/UspsToolsRestServices/rest/POLocator/findLocations", "@spider": "usps_collection_boxes", "addr:city": "BEAVERCREEK", "addr:country": "US", "addr:postcode": "45430", "addr:state": "OH", "addr:street_address": "3245 SEAJAY DR", "amenity": "post_box", "collection_times": "Mo-Sa 09:00", "nsi_id": "unitedstatespostalservice-a77078", "operator": "United States Postal Service", "operator:short": "USPS", "operator:type": "public", "operator:wikidata": "Q668687", "ref": "4543000001"}, "type": "Feature"}
{"geometry": {"coordinates": [-84.0562626, 39.772291], "type": "Point"}, "id": "kSW5asATokhuSVplbKRNgrSGPSc=", "properties": {"@source_uri": "https://tools.usps.com/UspsToolsRestServices/rest/POLocator/findLocations", "@spider": "usps_collection_boxes", "addr:city": "DAYTON", "addr:country": "US", "addr:postcode": "45431", "addr:state": "OH", "addr:street_address": "3360 PENTAGON PARK BLVD", "amenity": "post_box", "collection_times": "Mo-Sa 09:00", "nsi_id": "unitedstatespostalservice-a77078", "operator": "United States Postal Service", "operator:short": "USPS", "operator:type": "public", "operator:wikidata": "Q668687", "ref": "4543100000"}, "type": "Feature"}
{"geometry": {"coordinates": [-84.1189931, 39.781408], "type": "Point"}, "id": "5gJ0Q2k-euq74NxtP-UQ3sGd5Fg=", "properties": {"@source_uri": "https://tools.usps.com/UspsToolsRestServices/rest/POLocator/findLocations", "@spider": "usps_collection_boxes", "addr:city": "DAYTON", "addr:country": "US", "addr:postcode": "45431", "addr:state": "OH", "addr:street_address": "5200 SPRINGFIELD ST", "amenity": "post_box", "collection_times": "Mo-Fr 09:00", "nsi_id": "unitedstatespostalservice-a77078", "operator": "United States Postal Service", "operator:short": "USPS", "operator:type": "public", "operator:wikidata": "Q668687", "ref": "4543100008"}, "type": "Feature"}
{"geometry": {"coordinates": [-84.1206724, 39.781323], "type": "Point"}, "id": "ScRgiAqyC34QsSmyACOhiZpyuqc=", "properties": {"@source_uri": "https://tools.usps.com/UspsToolsRestServices/rest/POLocator/findLocations", "@spider": "usps_collection_boxes", "addr:city": "DAYTON", "addr:country": "US", "addr:postcode": "45431", "addr:state": "OH", "addr:street_address": "5100 SPRINGFIELD ST", "amenity": "post_box", "collection_times": "Mo-Fr 09:00", "nsi_id": "unitedstatespostalservice-a77078", "operator": "United States Postal Service", "operator:short": "USPS", "operator:type": "public", "operator:wikidata": "Q668687", "ref": "4543100012"}, "type": "Feature"}
{"geometry": {"coordinates": [-84.0807499, 39.77239], "type": "Point"}, "id": "9D3rIDbt2VO0oAPaSrdY0Mdwfi0=", "properties": {"@source_uri": "https://tools.usps.com/UspsToolsRestServices/rest/POLocator/findLocations", "@spider": "usps_collection_boxes", "addr:city": "DAYTON", "addr:country": "US", "addr:postcode": "45431", "addr:state": "OH", "addr:street_address": "4031 COLONEL GLENN HWY", "amenity": "post_box", "collection_times": "Mo-Fr 09:00", "nsi_id": "unitedstatespostalservice-a77078", "operator": "United States Postal Service", "operator:short": "USPS", "operator:type": "public", "operator:wikidata": "Q668687", "ref": "4543100019"}, "type": "Feature"}
{"geometry": {"coordinates": [-84.0864792, 39.773885], "type": "Point"}, "id": "ud2qirarkMvOSTQHeoSJ0sSl_0I=", "properties": {"@source_uri": "https://tools.usps.com/UspsToolsRestServices/rest/POLocator/findLocations", "@spider": "usps_collection_boxes", "addr:city": "DAYTON", "addr:country": "US", "addr:postcode": "45431", "addr:state": "OH", "addr:street_address": "4200 COLONEL GLENN HWY", "amenity": "post_box", "collection_times": "Mo-Fr 09:00", "nsi_id": "unitedstatespostalservice-a77078", "operator": "United States Postal Service", "operator:short": "USPS", "operator:type": "public", "operator:wikidata": "Q668687", "ref": "4543100020"}, "type": "Feature"}
{"geometry": {"coordinates": [-84.1236735, 39.76639], "type": "Point"}, "id": "KhoEIMTqrDqfAvlOQTY_5hCDQN4=", "properties": {"@source_uri": "https://tools.usps.com/UspsToolsRestServices/rest/POLocator/findLocations", "@spider": "usps_collection_boxes", "addr:city": "DAYTON", "addr:country": "US", "addr:postcode": "45431", "addr:state": "OH", "addr:street_address": "175 WOODMAN DR", "amenity": "post_box", "collection_times": "Mo-Fr 09:00", "nsi_id": "unitedstatespostalservice-a77078", "operator": "United States Postal Service", "operator:short": "USPS", "operator:type": "public", "operator:wikidata": "Q668687", "ref": "4543100023"}, "type": "Feature"}
{"geometry": {"coordinates": [-84.118631037, 39.771192564], "type": "Point"}, "id": "CB9-lxGWf0RYFV0-xx0W5cGcjTw=", "properties": {"@source_uri": "https://tools.usps.com/UspsToolsRestServices/rest/POLocator/findLocations", "@spider": "usps_collection_boxes", "addr:city": "DAYTON", "addr:country": "US", "addr:postcode": "45431", "addr:state": "OH", "addr:street_address": "4924 AIRWAY RD", "amenity": "post_box", "collection_times": "Mo-Fr 14:15; Sa 11:00", "note": "ON 12/24 AND 12/31, THIS BOX MAY BE COLLECTED AS EARLY AS 12 NOON.", "nsi_id": "unitedstatespostalservice-a77078", "operator": "United States Postal Service", "operator:short": "USPS", "operator:type": "public", "operator:wikidata": "Q668687", "ref": "4543100026"}, "type": "Feature"}
{"geometry": {"coordinates": [-84.1104057, 39.758108], "type": "Point"}, "id": "INTf0rahuGfbgdbIR9lvc9HiKtc=", "properties": {"@source_uri": "https://tools.usps.com/UspsToolsRestServices/rest/POLocator/findLocations", "@spider": "usps_collection_boxes", "addr:city": "DAYTON", "addr:country": "US", "addr:postcode": "45431", "addr:state": "OH", "addr:street_address": "601 SPINNING RD", "amenity": "post_box", "collection_times": "Mo-Sa 09:00", "nsi_id": "unitedstatespostalservice-a77078", "operator": "United States Postal Service", "operator:short": "USPS", "operator:type": "public", "operator:wikidata": "Q668687", "ref": "4543100028"}, "type": "Feature"}
{"geometry": {"coordinates": [-84.118631037, 39.771192564], "type": "Point"}, "id": "8CSnDQCDSsEKOftHRhVUvb-I9Sw=", "properties": {"@source_uri": "https://tools.usps.com/UspsToolsRestServices/rest/POLocator/findLocations", "@spider": "usps_collection_boxes", "addr:city": "DAYTON", "addr:country": "US", "addr:postcode": "45431", "addr:state": "OH", "addr:street_address": "4924 AIRWAY RD", "amenity": "post_box", "collection_times": "Mo-Fr 17:00; Sa 12:00", "indoor": "yes", "note": "ON 12/24 AND 12/31, THIS BOX MAY BE COLLECTED AS EARLY AS 12 NOON.", "nsi_id": "unitedstatespostalservice-a77078", "operator": "United States Postal Service", "operator:short": "USPS", "operator:type": "public", "operator:wikidata": "Q668687", "ref": "4543100048"}, "type": "Feature"}
{"geometry": {"coordinates": [-84.0511604, 39.761989], "type": "Point"}, "id": "IYcMeZGi8VEzJ6xQa5ruyiavnpI=", "properties": {"@source_uri": "https://tools.usps.com/UspsToolsRestServices/rest/POLocator/findLocations", "@spider": "usps_collection_boxes", "addr:city": "DAYTON", "addr:country": "US", "addr:postcode": "45431", "addr:state": "OH", "addr:street_address": "2490 N FAIRFIELD RD", "amenity": "post_box", "collection_times": "Mo-Fr 09:00", "nsi_id": "unitedstatespostalservice-a77078", "operator": "United States Postal Service", "operator:short": "USPS", "operator:type": "public", "operator:wikidata": "Q668687", "ref": "4543100050"}, "type": "Feature"}
{"geometry": {"coordinates": [-84.1365574, 39.768039], "type": "Point"}, "id": "t85WF_IwMf4ZXZvwuhnhoweIbCQ=", "properties": {"@source_uri": "https://tools.usps.com/UspsToolsRestServices/rest/POLocator/findLocations", "@spider": "usps_collection_boxes", "addr:city": "DAYTON", "addr:country": "US", "addr:postcode": "45431", "addr:state": "OH", "addr:street_address": "61 COLIN KELLY DR", "amenity": "post_box", "collection_times": "Mo-Fr 09:00", "nsi_id": "unitedstatespostalservice-a77078", "operator": "United States Postal Service", "operator:short": "USPS", "operator:type": "public", "operator:wikidata": "Q668687", "ref": "4543100051"}, "type": "Feature"}
{"geometry": {"coordinates": [-84.118631037, 39.771192564], "type": "Point"}, "id": "vnhtw-VoNJoOnjnYFvNYwNjja70=", "properties": {"@source_uri": "https://tools.usps.com/UspsToolsRestServices/rest/POLocator/findLocations", "@spider": "usps_collection_boxes", "addr:city": "DAYTON", "addr:country": "US", "addr:postcode": "45431", "addr:state": "OH", "addr:street_address": "4924 AIRWAY RD", "amenity": "post_box", "collection_times": "Mo-Fr 17:00", "indoor": "yes", "note": "ON 12/24 AND 12/31, THIS BOX MAY BE COLLECTED AS EARLY AS 12 NOON.", "nsi_id": "unitedstatespostalservice-a77078", "operator": "United States Postal Service", "operator:short": "USPS", "operator:type": "public", "operator:wikidata": "Q668687", "ref": "4543100058"}, "type": "Feature"}
{"geometry": {"coordinates": [-84.0988444, 39.736957], "type": "Point"}, "id": "Q1wVeGNCsDs6pTYTUObqbkEo-vc=", "properties": {"@source_uri": "https://tools.usps.com/UspsToolsRestServices/rest/POLocator/findLocations", "@spider": "usps_collection_boxes", "addr:city": "DAYTON", "addr:country": "US", "addr:postcode": "45432", "addr:state": "OH", "addr:street_address": "4401 DAYTON XENIA RD", "amenity": "post_box", "collection_times": "Mo-Fr 09:00", "nsi_id": "unitedstatespostalservice-a77078", "operator": "United States Postal Service", "operator:short": "USPS", "operator:type": "public", "operator:wikidata": "Q668687", "ref": "4543200002"}, "type": "Feature"}
{"geometry": {"coordinates": [-84.1188174, 39.751396], "type": "Point"}, "id": "ma5LqIIT87GJFJXsBiTzlNuofD8=", "properties": {"@source_uri": "https://tools.usps.com/UspsToolsRestServices/rest/POLocator/findLocations", "@spider": "usps_collection_boxes", "addr:city": "DAYTON", "addr:country": "US", "addr:postcode": "45432", "addr:state": "OH", "addr:street_address": "1010 WOODMAN DR", "amenity": "post_box", "collection_times": "Mo-Fr 09:00", "nsi_id": "unitedstatespostalservice-a77078", "operator": "United States Postal Service", "operator:short": "USPS", "operator:type": "public", "operator:wikidata": "Q668687", "ref": "4543200004"}, "type": "Feature"}
{"geometry": {"coordinates": [-84.1231917, 39.744985], "type": "Point"}, "id": "SCDG6pJ7zimpWuzIEIMmu-FZhkU=", "properties": {"@source_uri": "https://tools.usps.com/UspsToolsRestServices/rest/POLocator/findLocations", "@spider": "usps_collection_boxes", "addr:city": "DAYTON", "addr:country": "US", "addr:postcode": "45432", "addr:state": "OH", "addr:street_address": "4126 LINDEN AVE", "amenity": "post_box", "collection_times": "Mo-Fr 15:15", "note": "ON 12/24 AND 12/31, THIS BOX MAY BE COLLECTED AS EARLY AS 12 NOON.", "nsi_id": "unitedstatespostalservice-a77078", "operator": "United States Postal Service", "operator:short": "USPS", "operator:type": "public", "operator:wikidata": "Q668687", "ref": "4543200008"}, "type": "Feature"}
{"geometry": {"coordinates": [-84.1220747, 39.74376], "type": "Point"}, "id": "thmCvEipoDRi7BoyjwV9U1uR7rA=", "properties": {"@source_uri": "https://tools.usps.com/UspsToolsRestServices/rest/POLocator/findLocations", "@spider": "usps_collection_boxes", "addr:city": "DAYTON", "addr:country": "US", "addr:postcode": "45432", "addr:state": "OH", "addr:street_address": "4140 LINDEN AVE", "amenity": "post_box", "collection_times": "Mo-Fr 15:15", "note": "ON 12/24 AND 12/31, THIS BOX MAY BE COLLECTED AS EARLY AS 12 NOON.", "nsi_id": "unitedstatespostalservice-a77078", "operator": "United States Postal Service", "operator:short": "USPS", "operator:type": "public", "operator:wikidata": "Q668687", "ref": "4543200011"}, "type": "Feature"}
{"geometry": {"coordinates": [-84.1223774, 39.744404], "type": "Point"}, "id": "bV-ZO_4l_xKYIZNndLYZx8XljYM=", "properties": {"@source_uri": "https://tools.usps.com/UspsToolsRestServices/rest/POLocator/findLocations", "@spider": "usps_collection_boxes", "addr:city": "DAYTON", "addr:country": "US", "addr:postcode": "45432", "addr:state": "OH", "addr:street_address": "4130 LINDEN AVE", "amenity": "post_box", "collection_times": "Mo-Fr 15:15", "note": "ON 12/24 AND 12/31, THIS BOX MAY BE COLLECTED AS EARLY AS 12 NOON.", "nsi_id": "unitedstatespostalservice-a77078", "operator": "United States Postal Service", "operator:short": "USPS", "operator:type": "public", "operator:wikidata": "Q668687", "ref": "4543200012"}, "type": "Feature"}
{"geometry": {"coordinates": [-84.1171593, 39.735608], "type": "Point"}, "id": "Xrq9DEVl0ZCuxASj6IcJM8gT3_c=", "properties": {"@source_uri": "https://tools.usps.com/UspsToolsRestServices/rest/POLocator/findLocations", "@spider": "usps_collection_boxes", "addr:city": "DAYTON", "addr:country": "US", "addr:postcode": "45432", "addr:state": "OH", "addr:street_address": "5270 WOODBINE AVE", "amenity": "post_box", "collection_times": "Mo-Fr 09:00", "nsi_id": "unitedstatespostalservice-a77078", "operator": "United States Postal Service", "operator:short": "USPS", "operator:type": "public", "operator:wikidata": "Q668687", "ref": "4543200013"}, "type": "Feature"}
{"geometry": {"coordinates": [-84.1212451152, 39.7487745068], "type": "Point"}, "id": "jPIk_MD4mTzsro7PFFkYFdbS-xM=", "properties": {"@source_uri": "https://tools.usps.com/UspsToolsRestServices/rest/POLocator/findLocations", "@spider": "usps_collection_boxes", "addr:city": "DAYTON", "addr:country": "US", "addr:postcode": "45432", "addr:state": "OH", "addr:street_address": "4996 WOODMAN PARK DR", "amenity": "post_box", "collection_times": "Mo-Fr 10:30", "nsi_id": "unitedstatespostalservice-a77078", "operator": "United States Postal Service", "operator:short": "USPS", "operator:type": "public", "operator:wikidata": "Q668687", "ref": "4543200017"}, "type": "Feature"}
{"geometry": {"coordinates": [-84.1208941, 39.741918], "type": "Point"}, "id": "PJT0NU3VElLHBgS-78MYqqWa9tY=", "properties": {"@source_uri": "https://tools.usps.com/UspsToolsRestServices/rest/POLocator/findLocations", "@spider": "usps_collection_boxes", "addr:city": "DAYTON", "addr:country": "US", "addr:postcode": "45432", "addr:state": "OH", "addr:street_address": "1336 WOODMAN DR", "amenity": "post_box", "collection_times": "Mo-Fr 09:00", "nsi_id": "unitedstatespostalservice-a77078", "operator": "United States Postal Service", "operator:short": "USPS", "operator:type": "public", "operator:wikidata": "Q668687", "ref": "4543200018"}, "type": "Feature"}
{"geometry": {"coordinates": [-84.126829, 39.745944], "type": "Point"}, "id": "J3GpYUs2lcW_sIi5Jcm_9CYg6WI=", "properties": {"@source_uri": "https://tools.usps.com/UspsToolsRestServices/rest/POLocator/findLocations", "@spider": "usps_collection_boxes", "addr:city": "DAYTON", "addr:country": "US", "addr:postcode": "45432", "addr:state": "OH", "addr:street_address": "3898 LINDEN AVE", "amenity": "post_box", "collection_times": "Mo-Fr 09:00", "nsi_id": "unitedstatespostalservice-a77078", "operator": "United States Postal Service", "operator:short": "USPS", "operator:type": "public", "operator:wikidata": "Q668687", "ref": "4543200019"}, "type": "Feature"}
{"geometry": {"coordinates": [-84.1231847, 39.743856], "type": "Point"}, "id": "_XcFbLqOxfGpTu6onNTl5kFE7Ss=", "properties": {"@source_uri": "https://tools.usps.com/UspsToolsRestServices/rest/POLocator/findLocations", "@spider": "usps_collection_boxes", "addr:city": "DAYTON", "addr:country": "US", "addr:postcode": "45432", "addr:state": "OH", "addr:street_address": "4134 LINDEN AVE", "amenity": "post_box", "collection_times": "Mo-Fr 15:15", "note": "ON 12/24 AND 12/31, THIS BOX MAY BE COLLECTED AS EARLY AS 12 NOON.", "nsi_id": "unitedstatespostalservice-a77078", "operator": "United States Postal Service", "operator:short": "USPS", "operator:type": "public", "operator:wikidata": "Q668687", "ref": "4543200020"}, "type": "Feature"}
{"geometry": {"coordinates": [-84.065691133, 39.732571474], "type": "Point"}, "id": "WcHm_sPt0mevUaDi4WOkaEaG638=", "properties": {"@source_uri": "https://tools.usps.com/UspsToolsRestServices/rest/POLocator/findLocations", "@spider": "usps_collection_boxes", "addr:city": "DAYTON", "addr:country": "US", "addr:postcode": "45432", "addr:state": "OH", "addr:street_address": "3541 DAYTON XENIA RD", "amenity": "post_box", "collection_times": "Mo-Fr 19:00; Sa 16:00", "indoor": "yes", "note": "ON 12/24 AND 12/31, THIS BOX MAY BE COLLECTED AS EARLY AS 12 NOON.", "nsi_id": "unitedstatespostalservice-a77078", "operator": "United States Postal Service", "operator:short": "USPS", "operator:type": "public", "operator:wikidata": "Q668687", "ref": "4543200023"}, "type": "Feature"}
{"geometry": {"coordinates": [-84.096281223, 39.791437401], "type": "Point"}, "id": "fBjlQmsgUjifGqPcwRI8IdffxDs=", "properties": {"@source_uri": "https://tools.usps.com/UspsToolsRestServices/rest/POLocator/findLocations", "@spider": "usps_collection_boxes", "addr:city": "DAYTON", "addr:country": "US", "addr:postcode": "45433", "addr:state": "OH", "addr:street_address": "2275 D ST", "amenity": "post_box", "collection_times": "Mo-Fr 15:45", "note": "ON 12/24 AND 12/31, THIS BOX MAY BE COLLECTED AS EARLY AS 12 NOON.", "nsi_id": "unitedstatespostalservice-a77078", "operator": "United States Postal Service", "operator:short": "USPS", "operator:type": "public", "operator:wikidata": "Q668687", "ref": "4543300007"}, "type": "Feature"}
{"geometry": {"coordinates": [-84.026154, 39.816186], "type": "Point"}, "id": "S6BK2dOZo08Nz1J0uSFylvJosoQ=", "properties": {"@source_uri": "https://tools.usps.com/UspsToolsRestServices/rest/POLocator/findLocations", "@spider": "usps_collection_boxes", "addr:city": "DAYTON", "addr:country": "US", "addr:postcode": "45433", "addr:state": "OH", "addr:street_address": "5435 HEMLOCK ST", "amenity": "post_box", "collection_times": "Mo-Fr 16:00; Sa 09:45", "note": "ON 12/24 AND 12/31, THIS BOX MAY BE COLLECTED AS EARLY AS 12 NOON.", "nsi_id": "unitedstatespostalservice-a77078", "operator": "United States Postal Service", "operator:short": "USPS", "operator:type": "public", "operator:wikidata": "Q668687", "ref": "4543300011"}, "type": "Feature"}
{"geometry": {"coordinates": [-84.026519, 39.812993], "type": "Point"}, "id": "cDxgo9k4RBehQGVMSujKpc3RjGg=", "properties": {"@source_uri": "https://tools.usps.com/UspsToolsRestServices/rest/POLocator/findLocations", "@spider": "usps_collection_boxes", "addr:city": "DAYTON", "addr:country": "US", "addr:postcode": "45433", "addr:state": "OH", "addr:street_address": "1250 BIRCH ST", "amenity": "post_box", "collection_times": "Mo-Sa 09:45", "nsi_id": "unitedstatespostalservice-a77078", "operator": "United States Postal Service", "operator:short": "USPS", "operator:type": "public", "operator:wikidata": "Q668687", "ref": "4543300015"}, "type": "Feature"}
{"geometry": {"coordinates": [-84.032121, 39.814978], "type": "Point"}, "id": "oxeFXBLiab3clLNOS9A5m-zG0tI=", "properties": {"@source_uri": "https://tools.usps.com/UspsToolsRestServices/rest/POLocator/findLocations", "@spider": "usps_collection_boxes", "addr:city": "DAYTON", "addr:country": "US", "addr:postcode": "45433", "addr:state": "OH", "addr:street_address": "1940 ALLBROOK DR", "amenity": "post_box", "collection_times": "Mo-Fr 09:30", "nsi_id": "unitedstatespostalservice-a77078", "operator": "United States Postal Service", "operator:short": "USPS", "operator:type": "public", "operator:wikidata": "Q668687", "ref": "4543300016"}, "type": "Feature"}
{"geometry": {"coordinates": [-84.0996716, 39.78393], "type": "Point"}, "id": "UbiTf7SKdSCFCq_Bt2GluG0WWJs=", "properties": {"@source_uri": "https://tools.usps.com/UspsToolsRestServices/rest/POLocator/findLocations", "@spider": "usps_collection_boxes", "addr:city": "DAYTON", "addr:country": "US", "addr:postcode": "45433", "addr:state": "OH", "addr:street_address": "5640 LOOP RD", "amenity": "post_box", "collection_times": "Mo-Fr 11:45", "nsi_id": "unitedstatespostalservice-a77078", "operator": "United States Postal Service", "operator:short": "USPS", "operator:type": "public", "operator:wikidata": "Q668687", "ref": "4543300017"}, "type": "Feature"}
{"geometry": {"coordinates": [-84.033042, 39.814299], "type": "Point"}, "id": "_gxXDqUiWIsWeULpquVtWqCqdm4=", "properties": {"@source_uri": "https://tools.usps.com/UspsToolsRestServices/rest/POLocator/findLocations", "@spider": "usps_collection_boxes", "addr:city": "DAYTON", "addr:country": "US", "addr:postcode": "45433", "addr:state": "OH", "addr:street_address": "5237 COOPER ST", "amenity": "post_box", "collection_times": "Mo-Fr 16:45; Sa 13:30", "note": "ON 12/24 AND 12/31, THIS BOX MAY BE COLLECTED AS EARLY AS 12 NOON.", "nsi_id": "unitedstatespostalservice-a77078", "operator": "United States Postal Service", "operator:short": "USPS", "operator:type": "public", "operator:wikidata": "Q668687", "ref": "4543300024"}, "type": "Feature"}
{"geometry": {"coordinates": [-84.0813524, 39.782959], "type": "Point"}, "id": "b-Esv66XE5wBVoqfo6AX6Eq95cY=", "properties": {"@source_uri": "https://tools.usps.com/UspsToolsRestServices/rest/POLocator/findLocations", "@spider": "usps_collection_boxes", "addr:city": "DAYTON", "addr:country": "US", "addr:postcode": "45433", "addr:state": "OH", "addr:street_address": "2388 10TH ST", "amenity": "post_box", "collection_times": "Mo-Fr 11:45", "nsi_id": "unitedstatespostalservice-a77078", "operator": "United States Postal Service", "operator:short": "USPS", "operator:type": "public", "operator:wikidata": "Q668687", "ref": "4543300026"}, "type": "Feature"}
{"geometry": {"coordinates": [-84.037618495, 39.8100522754], "type": "Point"}, "id": "uB_MBIs8iDTICJozUjrA7DO0dfE=", "properties": {"@source_uri": "https://tools.usps.com/UspsToolsRestServices/rest/POLocator/findLocations", "@spider": "usps_collection_boxes", "addr:city": "DAYTON", "addr:country": "US", "addr:postcode": "45433", "addr:state": "OH", "addr:street_address": "4375 CHIDLAW RD", "amenity": "post_box", "collection_times": "Mo-Fr 11:00", "nsi_id": "unitedstatespostalservice-a77078", "operator": "United States Postal Service", "operator:short": "USPS", "operator:type": "public", "operator:wikidata": "Q668687", "ref": "4543300028"}, "type": "Feature"}
{"geometry": {"coordinates": [-84.096281223, 39.791437401], "type": "Point"}, "id": "0KFIVgAIQTJb-5jMO5zOwY28PtE=", "properties": {"@source_uri": "https://tools.usps.com/UspsToolsRestServices/rest/POLocator/findLocations", "@spider": "usps_collection_boxes", "addr:city": "DAYTON", "addr:country": "US", "addr:postcode": "45433", "addr:state": "OH", "addr:street_address": "2275 D ST", "amenity": "post_box", "collection_times": "Mo-Fr 15:45", "indoor": "yes", "note": "ON 12/24 AND 12/31, THIS BOX MAY BE COLLECTED AS EARLY AS 12 NOON.", "nsi_id": "unitedstatespostalservice-a77078", "operator": "United States Postal Service", "operator:short": "USPS", "operator:type": "public", "operator:wikidata": "Q668687", "ref": "4543300030"}, "type": "Feature"}
{"geometry": {"coordinates": [-84.035347602, 39.805036252], "type": "Point"}, "id": "8KxntEdMBAjYEXguVLAbz6qhBpo=", "properties": {"@source_uri": "https://tools.usps.com/UspsToolsRestServices/rest/POLocator/findLocations", "@spider": "usps_collection_boxes", "addr:city": "DAYTON", "addr:country": "US", "addr:postcode": "45433", "addr:state": "OH", "addr:street_address": "4881 SUGAR MAPLE DR BLDG 830", "amenity": "post_box", "collection_times": "Mo-Fr 14:30", "indoor": "yes", "note": "ON 12/24 AND 12/31, THIS BOX MAY BE COLLECTED AS EARLY AS 12 NOON.", "nsi_id": "unitedstatespostalservice-a77078", "operator": "United States Postal Service", "operator:short": "USPS", "operator:type": "public", "operator:wikidata": "Q668687", "ref": "4543300031"}, "type": "Feature"}
{"geometry": {"coordinates": [-84.026180168, 39.81620685], "type": "Point"}, "id": "ZP7FzehrJ6HWT38EAZTS8BLPvB8=", "properties": {"@source_uri": "https://tools.usps.com/UspsToolsRestServices/rest/POLocator/findLocations", "@spider": "usps_collection_boxes", "addr:city": "DAYTON", "addr:country": "US", "addr:postcode": "45433", "addr:state": "OH", "addr:street_address": "5435 HEMLOCK ST BLDG 1226", "amenity": "post_box", "collection_times": "Mo-Fr 17:00", "indoor": "yes", "note": "ON 12/24 AND 12/31, THIS BOX MAY BE COLLECTED AS EARLY AS 12 NOON.", "nsi_id": "unitedstatespostalservice-a77078", "operator": "United States Postal Service", "operator:short": "USPS", "operator:type": "public", "operator:wikidata": "Q668687", "ref": "4543300032"}, "type": "Feature"}
{"geometry": {"coordinates": [-84.065653, 39.732605], "type": "Point"}, "id": "fm0DmFU6H1II4sAnGS74bHixG1w=", "properties": {"@source_uri": "https://tools.usps.com/UspsToolsRestServices/rest/POLocator/findLocations", "@spider": "usps_collection_boxes", "addr:city": "BEAVERCREEK", "addr:country": "US", "addr:postcode": "45434", "addr:state": "OH", "addr:street_address": "3541 DAYTON XENIA RD", "amenity": "post_box", "collection_times": "Mo-Sa 17:00", "note": "ON 12/24 AND 12/31, THIS BOX MAY BE COLLECTED AS EARLY AS 12 NOON.", "nsi_id": "unitedstatespostalservice-a77078", "operator": "United States Postal Service", "operator:short": "USPS", "operator:type": "public", "operator:wikidata": "Q668687", "ref": "4543400000"}, "type": "Feature"}
{"geometry": {"coordinates": [-84.065653, 39.732606], "type": "Point"}, "id": "fyMW8OAHum0zt_dJt5EL4mHmDMs=", "properties": {"@source_uri": "https://tools.usps.com/UspsToolsRestServices/rest/POLocator/findLocations", "@spider": "usps_collection_boxes", "addr:city": "BEAVERCREEK", "addr:country": "US", "addr:postcode": "45434", "addr:state": "OH", "addr:street_address": "3541 DAYTON XENIA RD", "amenity": "post_box", "collection_times": "Mo-Sa 17:00", "indoor": "yes", "note": "ON 12/24 AND 12/31, THIS BOX MAY BE COLLECTED AS EARLY AS 12 NOON.", "nsi_id": "unitedstatespostalservice-a77078", "operator": "United States Postal Service", "operator:short": "USPS", "operator:type": "public", "operator:wikidata": "Q668687", "ref": "4543400005"}, "type": "Feature"}
{"geometry": {"coordinates": [-84.065653, 39.732606], "type": "Point"}, "id": "c1RbSqAkJeyyTrLM6u69tjDphXM=", "properties": {"@source_uri": "https://tools.usps.com/UspsToolsRestServices/rest/POLocator/findLocations", "@spider": "usps_collection_boxes", "addr:city": "BEAVERCREEK", "addr:country": "US", "addr:postcode": "45434", "addr:state": "OH", "addr:street_address": "3541 DAYTON XENIA RD", "amenity": "post_box", "collection_times": "Mo-Sa 17:00", "indoor": "yes", "note": "ON 12/24 AND 12/31, THIS BOX MAY BE COLLECTED AS EARLY AS 12 NOON.", "nsi_id": "unitedstatespostalservice-a77078", "operator": "United States Postal Service", "operator:short": "USPS", "operator:type": "public", "operator:wikidata": "Q668687", "ref": "4543400006"}, "type": "Feature"}
{"geometry": {"coordinates": [-84.065653, 39.732606], "type": "Point"}, "id": "uP2aDuSk8D2QetrqFUgJ_lHyYYg=", "properties": {"@source_uri": "https://tools.usps.com/UspsToolsRestServices/rest/POLocator/findLocations", "@spider": "usps_collection_boxes", "addr:city": "BEAVERCREEK", "addr:country": "US", "addr:postcode": "45434", "addr:state": "OH", "addr:street_address": "3541 DAYTON XENIA RD", "amenity": "post_box", "collection_times": "Mo-Sa 17:00", "name": "USPS COLLECTION BOX - APC", "note": "ON 12/24 AND 12/31, THIS BOX MAY BE COLLECTED AS EARLY AS 12 NOON.", "nsi_id": "unitedstatespostalservice-a77078", "operator": "United States Postal Service", "operator:short": "USPS", "operator:type": "public", "operator:wikidata": "Q668687", "ref": "4543400008"}, "type": "Feature"}
{"geometry": {"coordinates": [-84.2175923, 39.724177], "type": "Point"}, "id": "g4_EcdsS3UUQ6WDMmg8sjnv13Kg=", "properties": {"@source_uri": "https://tools.usps.com/UspsToolsRestServices/rest/POLocator/findLocations", "@spider": "usps_collection_boxes", "addr:city": "MORAINE", "addr:country": "US", "addr:postcode": "45439", "addr:state": "OH", "addr:street_address": "2205 DRYDEN RD", "amenity": "post_box", "collection_times": "Mo-Fr 09:00", "nsi_id": "unitedstatespostalservice-a77078", "operator": "United States Postal Service", "operator:short": "USPS", "operator:type": "public", "operator:wikidata": "Q668687", "ref": "4543900000"}, "type": "Feature"}
{"geometry": {"coordinates": [-84.2032999, 39.701586], "type": "Point"}, "id": "R3Xp0h804YZg-eR8cF9Q8lfbXT0=", "properties": {"@source_uri": "https://tools.usps.com/UspsToolsRestServices/rest/POLocator/findLocations", "@spider": "usps_collection_boxes", "addr:city": "MORAINE", "addr:country": "US", "addr:postcode": "45439", "addr:state": "OH", "addr:street_address": "3490 S DIXIE DR", "amenity": "post_box", "collection_times": "Mo-Fr 15:30", "note": "ON 12/24 AND 12/31, THIS BOX MAY BE COLLECTED AS EARLY AS 12 NOON.", "nsi_id": "unitedstatespostalservice-a77078", "operator": "United States Postal Service", "operator:short": "USPS", "operator:type": "public", "operator:wikidata": "Q668687", "ref": "4543900009"}, "type": "Feature"}
{"geometry": {"coordinates": [-84.2023216, 39.701652], "type": "Point"}, "id": "5tB3DhT9bhAle0ypcOXcyypdXdI=", "properties": {"@source_uri": "https://tools.usps.com/UspsToolsRestServices/rest/POLocator/findLocations", "@spider": "usps_collection_boxes", "addr:city": "MORAINE", "addr:country": "US", "addr:postcode": "45439", "addr:state": "OH", "addr:street_address": "3481 OFFICE PARK DR", "amenity": "post_box", "collection_times": "Mo-Fr 09:00", "nsi_id": "unitedstatespostalservice-a77078", "operator": "United States Postal Service", "operator:short": "USPS", "operator:type": "public", "operator:wikidata": "Q668687", "ref": "4543900013"}, "type": "Feature"}
{"geometry": {"coordinates": [-84.2013281, 39.702323], "type": "Point"}, "id": "-B4SAfHeJiSClS8hhRoDJPD4Fos=", "properties": {"@source_uri": "https://tools.usps.com/UspsToolsRestServices/rest/POLocator/findLocations", "@spider": "usps_collection_boxes", "addr:city": "MORAINE", "addr:country": "US", "addr:postcode": "45439", "addr:state": "OH", "addr:street_address": "3400 OFFICE PARK DR", "amenity": "post_box", "collection_times": "Mo-Fr 15:00; Sa 14:00", "note": "ON 12/24 AND 12/31, THIS BOX MAY BE COLLECTED AS EARLY AS 12 NOON.", "nsi_id": "unitedstatespostalservice-a77078", "operator": "United States Postal Service", "operator:short": "USPS", "operator:type": "public", "operator:wikidata": "Q668687", "ref": "4543900016"}, "type": "Feature"}
{"geometry": {"coordinates": [-84.2012614, 39.703641], "type": "Point"}, "id": "RJ1-4hs_Xd3BrsNNMeb1juyZ_sU=", "properties": {"@source_uri": "https://tools.usps.com/UspsToolsRestServices/rest/POLocator/findLocations", "@spider": "usps_collection_boxes", "addr:city": "MORAINE", "addr:country": "US", "addr:postcode": "45439", "addr:state": "OH", "addr:street_address": "3300 OFFICE PARK DR", "amenity": "post_box", "collection_times": "Mo-Fr 16:00", "note": "ON 12/24 AND 12/31, THIS BOX MAY BE COLLECTED AS EARLY AS 12 NOON.", "nsi_id": "unitedstatespostalservice-a77078", "operator": "United States Postal Service", "operator:short": "USPS", "operator:type": "public", "operator:wikidata": "Q668687", "ref": "4543900017"}, "type": "Feature"}
{"geometry": {"coordinates": [-84.2249655, 39.687944], "type": "Point"}, "id": "UOMSfgf5-Q68tY8qhLVOd0PwecM=", "properties": {"@source_uri": "https://tools.usps.com/UspsToolsRestServices/rest/POLocator/findLocations", "@spider": "usps_collection_boxes", "addr:city": "MORAINE", "addr:country": "US", "addr:postcode": "45439", "addr:state": "OH", "addr:street_address": "4200 DRYDEN RD", "amenity": "post_box", "collection_times": "Mo-Fr 09:00", "nsi_id": "unitedstatespostalservice-a77078", "operator": "United States Postal Service", "operator:short": "USPS", "operator:type": "public", "operator:wikidata": "Q668687", "ref": "4543900023"}, "type": "Feature"}
{"geometry": {"coordinates": [-84.2116961524, 39.6853806125], "type": "Point"}, "id": "-wFd5TZym3aCXUKAXYcucejaIMQ=", "properties": {"@source_uri": "https://tools.usps.com/UspsToolsRestServices/rest/POLocator/findLocations", "@spider": "usps_collection_boxes", "addr:city": "MORAINE", "addr:country": "US", "addr:postcode": "45439", "addr:state": "OH", "addr:street_address": "2298 LEHIGH PL", "amenity": "post_box", "collection_times": "Mo-Fr 09:00", "nsi_id": "unitedstatespostalservice-a77078", "operator": "United States Postal Service", "operator:short": "USPS", "operator:type": "public", "operator:wikidata": "Q668687", "ref": "4543900029"}, "type": "Feature"}
{"geometry": {"coordinates": [-84.2113856, 39.698154], "type": "Point"}, "id": "Y4OrPG-cpzg7wBvi03l9_dUX0tM=", "properties": {"@source_uri": "https://tools.usps.com/UspsToolsRestServices/rest/POLocator/findLocations", "@spider": "usps_collection_boxes", "addr:city": "MORAINE", "addr:country": "US", "addr:postcode": "45439", "addr:state": "OH", "addr:street_address": "3864 KETTERING BLVD", "amenity": "post_box", "collection_times": "Mo-Fr 09:00", "nsi_id": "unitedstatespostalservice-a77078", "operator": "United States Postal Service", "operator:short": "USPS", "operator:type": "public", "operator:wikidata": "Q668687", "ref": "4543900031"}, "type": "Feature"}
{"geometry": {"coordinates": [-84.2034862, 39.707808], "type": "Point"}, "id": "OtYFO-lXQvJoYHj8Y_MAxukxTFQ=", "properties": {"@source_uri": "https://tools.usps.com/UspsToolsRestServices/rest/POLocator/findLocations", "@spider": "usps_collection_boxes", "addr:city": "MORAINE", "addr:country": "US", "addr:postcode": "45439", "addr:state": "OH", "addr:street_address": "3033 KETTERING BLVD", "amenity": "post_box", "collection_times": "Mo-Fr 09:00", "nsi_id": "unitedstatespostalservice-a77078", "operator": "United States Postal Service", "operator:short": "USPS", "operator:type": "public", "operator:wikidata": "Q668687", "ref": "4543900033"}, "type": "Feature"}
{"geometry": {"coordinates": [-84.2049107, 39.707279], "type": "Point"}, "id": "eM-PYsSwE2JeSzWb7HzU6QXW5D0=", "properties": {"@source_uri": "https://tools.usps.com/UspsToolsRestServices/rest/POLocator/findLocations", "@spider": "usps_collection_boxes", "addr:city": "MORAINE", "addr:country": "US", "addr:postcode": "45439", "addr:state": "OH", "addr:street_address": "3055 KETTERING BLVD", "amenity": "post_box", "collection_times": "Mo-Fr 09:00", "nsi_id": "unitedstatespostalservice-a77078", "operator": "United States Postal Service", "operator:short": "USPS", "operator:type": "public", "operator:wikidata": "Q668687", "ref": "4543900036"}, "type": "Feature"}
{"geometry": {"coordinates": [-84.203719, 39.705553], "type": "Point"}, "id": "VCSocLMZfgU0O_1woeXkdeRTZxc=", "properties": {"@source_uri": "https://tools.usps.com/UspsToolsRestServices/rest/POLocator/findLocations", "@spider": "usps_collection_boxes", "addr:city": "MORAINE", "addr:country": "US", "addr:postcode": "45439", "addr:state": "OH", "addr:street_address": "3100 KETTERING BLVD", "amenity": "post_box", "collection_times": "Mo-Fr 10:00", "nsi_id": "unitedstatespostalservice-a77078", "operator": "United States Postal Service", "operator:short": "USPS", "operator:type": "public", "operator:wikidata": "Q668687", "ref": "4543900039"}, "type": "Feature"}
{"geometry": {"coordinates": [-84.2211366, 39.713935], "type": "Point"}, "id": "hdP-US4NMwTEQoV941GXWk4NALM=", "properties": {"@source_uri": "https://tools.usps.com/UspsToolsRestServices/rest/POLocator/findLocations", "@spider": "usps_collection_boxes", "addr:city": "MORAINE", "addr:country": "US", "addr:postcode": "45439", "addr:state": "OH", "addr:street_address": "2621 DRYDEN RD", "amenity": "post_box", "collection_times": "Mo-Fr 15:15", "note": "ON 12/24 AND 12/31, THIS BOX MAY BE COLLECTED AS EARLY AS 12 NOON.", "nsi_id": "unitedstatespostalservice-a77078", "operator": "United States Postal Service", "operator:short": "USPS", "operator:type": "public", "operator:wikidata": "Q668687", "ref": "4543900041"}, "type": "Feature"}
{"geometry": {"coordinates": [-84.2156530191, 39.7286820084], "type": "Point"}, "id": "pOdlUB3dfnfe5dggCQqaaRi5khA=", "properties": {"@source_uri": "https://tools.usps.com/UspsToolsRestServices/rest/POLocator/findLocations", "@spider": "usps_collection_boxes", "addr:city": "MORAINE", "addr:country": "US", "addr:postcode": "45439", "addr:state": "OH", "addr:street_address": "1900 DRYDEN RD", "amenity": "post_box", "collection_times": "Mo-Fr 15:00", "note": "ON 12/24 AND 12/31, THIS BOX MAY BE COLLECTED AS EARLY AS 12 NOON.", "nsi_id": "unitedstatespostalservice-a77078", "operator": "United States Postal Service", "operator:short": "USPS", "operator:type": "public", "operator:wikidata": "Q668687", "ref": "4543900044"}, "type": "Feature"}
{"geometry": {"coordinates": [-84.2065274, 39.699866], "type": "Point"}, "id": "Wi14BexjJKPgDQUvJFt2bDdVFe4=", "properties": {"@source_uri": "https://tools.usps.com/UspsToolsRestServices/rest/POLocator/findLocations", "@spider": "usps_collection_boxes", "addr:city": "MORAINE", "addr:country": "US", "addr:postcode": "45439", "addr:state": "OH", "addr:street_address": "3445 S DIXIE DR", "amenity": "post_box", "collection_times": "Mo-Fr 09:00", "nsi_id": "unitedstatespostalservice-a77078", "operator": "United States Postal Service", "operator:short": "USPS", "operator:type": "public", "operator:wikidata": "Q668687", "ref": "4543900050"}, "type": "Feature"}
{"geometry": {"coordinates": [-84.2117909, 39.70944], "type": "Point"}, "id": "O4lxzF4Z4qsV9p-DeRAKDYQvB8U=", "properties": {"@source_uri": "https://tools.usps.com/UspsToolsRestServices/rest/POLocator/findLocations", "@spider": "usps_collection_boxes", "addr:city": "MORAINE", "addr:country": "US", "addr:postcode": "45439", "addr:state": "OH", "addr:street_address": "2360 W DOROTHY LN", "amenity": "post_box", "collection_times": "Mo-Fr 09:00", "nsi_id": "unitedstatespostalservice-a77078", "operator": "United States Postal Service", "operator:short": "USPS", "operator:type": "public", "operator:wikidata": "Q668687", "ref": "4543900051"}, "type": "Feature"}
{"geometry": {"coordinates": [-84.2023029, 39.702786], "type": "Point"}, "id": "3-RzXBXX4wQoZPPSiVnHU7_uAg8=", "properties": {"@source_uri": "https://tools.usps.com/UspsToolsRestServices/rest/POLocator/findLocations", "@spider": "usps_collection_boxes", "addr:city": "MORAINE", "addr:country": "US", "addr:postcode": "45439", "addr:state": "OH", "addr:street_address": "3400 S DIXIE DR", "amenity": "post_box", "collection_times": "Mo-Fr 09:00", "nsi_id": "unitedstatespostalservice-a77078", "operator": "United States Postal Service", "operator:short": "USPS", "operator:type": "public", "operator:wikidata": "Q668687", "ref": "4543900084"}, "type": "Feature"}
{"geometry": {"coordinates": [-84.2053306, 39.709022], "type": "Point"}, "id": "dazYNykyw5eaEXH5XcL3u73aOH4=", "properties": {"@source_uri": "https://tools.usps.com/UspsToolsRestServices/rest/POLocator/findLocations", "@spider": "usps_collection_boxes", "addr:city": "MORAINE", "addr:country": "US", "addr:postcode": "45439", "addr:state": "OH", "addr:street_address": "2000 W DOROTHY LN", "amenity": "post_box", "collection_times": "Mo-Fr 15:30", "note": "ON 12/24 AND 12/31, THIS BOX MAY BE COLLECTED AS EARLY AS 12 NOON.", "nsi_id": "unitedstatespostalservice-a77078", "operator": "United States Postal Service", "operator:short": "USPS", "operator:type": "public", "operator:wikidata": "Q668687", "ref": "4543900095"}, "type": "Feature"}
{"geometry": {"coordinates": [-84.1031219, 39.690822], "type": "Point"}, "id": "WPzrS45f56QM-mYdS4RiLkDp_PU=", "properties": {"@source_uri": "https://tools.usps.com/UspsToolsRestServices/rest/POLocator/findLocations", "@spider": "usps_collection_boxes", "addr:city": "BEAVERCREEK", "addr:country": "US", "addr:postcode": "45440", "addr:state": "OH", "addr:street_address": "4481 STONECASTLE DR", "amenity": "post_box", "collection_times": "Mo-Fr 11:45", "nsi_id": "unitedstatespostalservice-a77078", "operator": "United States Postal Service", "operator:short": "USPS", "operator:type": "public", "operator:wikidata": "Q668687", "ref": "4544000005"}, "type": "Feature"}
{"geometry": {"coordinates": [-84.1278999, 39.662096], "type": "Point"}, "id": "3e8XCw8oudpP8vsHWWfnzQS9Cbc=", "properties": {"@source_uri": "https://tools.usps.com/UspsToolsRestServices/rest/POLocator/findLocations", "@spider": "usps_collection_boxes", "addr:city": "BEAVERCREEK", "addr:country": "US", "addr:postcode": "45440", "addr:state": "OH", "addr:street_address": "5513 BIGGER RD", "amenity": "post_box", "collection_times": "Mo-Fr 09:00", "nsi_id": "unitedstatespostalservice-a77078", "operator": "United States Postal Service", "operator:short": "USPS", "operator:type": "public", "operator:wikidata": "Q668687", "ref": "4544000007"}, "type": "Feature"}
{"geometry": {"coordinates": [-84.1574084, 39.629823], "type": "Point"}, "id": "yzNKC8tQw5NzRevHr9lydDZux54=", "properties": {"@source_uri": "https://tools.usps.com/UspsToolsRestServices/rest/POLocator/findLocations", "@spider": "usps_collection_boxes", "addr:city": "BEAVERCREEK", "addr:country": "US", "addr:postcode": "45440", "addr:state": "OH", "addr:street_address": "39 S MAPLE AVE", "amenity": "post_box", "collection_times": "Mo-Fr 12:00; Sa 13:00", "note": "ON 12/24 AND 12/31, THIS BOX MAY BE COLLECTED AS EARLY AS 12 NOON.", "nsi_id": "unitedstatespostalservice-a77078", "operator": "United States Postal Service", "operator:short": "USPS", "operator:type": "public", "operator:wikidata": "Q668687", "ref": "4544000010"}, "type": "Feature"}
{"geometry": {"coordinates": [-84.1311591, 39.6612], "type": "Point"}, "id": "e5AP25ux3BkLI-1NuMaD0633cGo=", "properties": {"@source_uri": "https://tools.usps.com/UspsToolsRestServices/rest/POLocator/findLocations", "@spider": "usps_collection_boxes", "addr:city": "BEAVERCREEK", "addr:country": "US", "addr:postcode": "45440", "addr:state": "OH", "addr:street_address": "2000 E WHIPP RD", "amenity": "post_box", "collection_times": "Mo-Fr 09:00", "nsi_id": "unitedstatespostalservice-a77078", "operator": "United States Postal Service", "operator:short": "USPS", "operator:type": "public", "operator:wikidata": "Q668687", "ref": "4544000015"}, "type": "Feature"}
{"geometry": {"coordinates": [-84.2357053, 39.643777], "type": "Point"}, "id": "DrNqRnlgXw6xIbQpccYIp8S1-5M=", "properties": {"@source_uri": "https://tools.usps.com/UspsToolsRestServices/rest/POLocator/findLocations", "@spider": "usps_collection_boxes", "addr:city": "DAYTON", "addr:country": "US", "addr:postcode": "45449", "addr:state": "OH", "addr:street_address": "2050 SIDNEYWOOD DR", "amenity": "post_box", "collection_times": "Mo-Fr 10:30", "nsi_id": "unitedstatespostalservice-a77078", "operator": "United States Postal Service", "operator:short": "USPS", "operator:type": "public", "operator:wikidata": "Q668687", "ref": "4544900015"}, "type": "Feature"}
{"geometry": {"coordinates": [-84.2437242, 39.646203], "type": "Point"}, "id": "PGfo8QKgSMS9VeKv-Fsi7aNJWcc=", "properties": {"@source_uri": "https://tools.usps.com/UspsToolsRestServices/rest/POLocator/findLocations", "@spider": "usps_collection_boxes", "addr:city": "DAYTON", "addr:country": "US", "addr:postcode": "45449", "addr:state": "OH", "addr:street_address": "1955 S ALEX RD", "amenity": "post_box", "collection_times": "Mo-Fr 09:00", "nsi_id": "unitedstatespostalservice-a77078", "operator": "United States Postal Service", "operator:short": "USPS", "operator:type": "public", "operator:wikidata": "Q668687", "ref": "4544900018"}, "type": "Feature"}
{"geometry": {"coordinates": [-84.2217818, 39.66944], "type": "Point"}, "id": "zeoPadXgUVRO_sX1m6XjKVwKh44=", "properties": {"@source_uri": "https://tools.usps.com/UspsToolsRestServices/rest/POLocator/findLocations", "@spider": "usps_collection_boxes", "addr:city": "DAYTON", "addr:country": "US", "addr:postcode": "45449", "addr:state": "OH", "addr:street_address": "5900 SPRINGBORO PIKE", "amenity": "post_box", "collection_times": "Mo-Fr 10:45; Sa 13:45", "note": "ON 12/24 AND 12/31, THIS BOX MAY BE COLLECTED AS EARLY AS 12 NOON.", "nsi_id": "unitedstatespostalservice-a77078", "operator": "United States Postal Service", "operator:short": "USPS", "operator:type": "public", "operator:wikidata": "Q668687", "ref": "4544900021"}, "type": "Feature"}
{"geometry": {"coordinates": [-84.2407857, 39.65426], "type": "Point"}, "id": "PmymkaE18yvXb0Id5P2Y8f-MoT8=", "properties": {"@source_uri": "https://tools.usps.com/UspsToolsRestServices/rest/POLocator/findLocations", "@spider": "usps_collection_boxes", "addr:city": "DAYTON", "addr:country": "US", "addr:postcode": "45449", "addr:state": "OH", "addr:street_address": "330 PROGRESS RD", "amenity": "post_box", "collection_times": "Mo-Fr 09:00", "nsi_id": "unitedstatespostalservice-a77078", "operator": "United States Postal Service", "operator:short": "USPS", "operator:type": "public", "operator:wikidata": "Q668687", "ref": "4544900031"}, "type": "Feature"}
{"geometry": {"coordinates": [-84.238904685, 39.677770076], "type": "Point"}, "id": "RHAKfUuzIjZXT4DVDZ2OS9e_uQA=", "properties": {"@source_uri": "https://tools.usps.com/UspsToolsRestServices/rest/POLocator/findLocations", "@spider": "usps_collection_boxes", "addr:city": "DAYTON", "addr:country": "US", "addr:postcode": "45449", "addr:state": "OH", "addr:street_address": "901 E CENTRAL AVE", "amenity": "post_box", "collection_times": "Mo-Fr 17:00; Sa 16:00", "indoor": "yes", "note": "ON 12/24 AND 12/31, THIS BOX MAY BE COLLECTED AS EARLY AS 12 NOON.", "nsi_id": "unitedstatespostalservice-a77078", "operator": "United States Postal Service", "operator:short": "USPS", "operator:type": "public", "operator:wikidata": "Q668687", "ref": "4544900033"}, "type": "Feature"}
{"geometry": {"coordinates": [-84.238904685, 39.677770076], "type": "Point"}, "id": "ef9YA7IrMIRBZJLu5LH_jq3d7fY=", "properties": {"@source_uri": "https://tools.usps.com/UspsToolsRestServices/rest/POLocator/findLocations", "@spider": "usps_collection_boxes", "addr:city": "DAYTON", "addr:country": "US", "addr:postcode": "45449", "addr:state": "OH", "addr:street_address": "901 E CENTRAL AVE", "amenity": "post_box", "collection_times": "Mo-Fr 17:00; Sa 16:00", "note": "ON 12/24 AND 12/31, THIS BOX MAY BE COLLECTED AS EARLY AS 12 NOON.", "nsi_id": "unitedstatespostalservice-a77078", "operator": "United States Postal Service", "operator:short": "USPS", "operator:type": "public", "operator:wikidata": "Q668687", "ref": "4544900034"}, "type": "Feature"}
{"geometry": {"coordinates": [-84.2481179, 39.672324], "type": "Point"}, "id": "Nk6b3Pmyx5BsdEL0RhcmlSz9XTU=", "properties": {"@source_uri": "https://tools.usps.com/UspsToolsRestServices/rest/POLocator/findLocations", "@spider": "usps_collection_boxes", "addr:city": "DAYTON", "addr:country": "US", "addr:postcode": "45449", "addr:state": "OH", "addr:street_address": "300 E CENTRAL AVE", "amenity": "post_box", "collection_times": "Mo-Sa 09:00", "nsi_id": "unitedstatespostalservice-a77078", "operator": "United States Postal Service", "operator:short": "USPS", "operator:type": "public", "operator:wikidata": "Q668687", "ref": "4544900040"}, "type": "Feature"}
{"geometry": {"coordinates": [-84.237056041, 39.663314018], "type": "Point"}, "id": "T6uQd1r6Shdyl2y-rLQHApw-gsQ=", "properties": {"@source_uri": "https://tools.usps.com/UspsToolsRestServices/rest/POLocator/findLocations", "@spider": "usps_collection_boxes", "addr:city": "DAYTON", "addr:country": "US", "addr:postcode": "45449", "addr:state": "OH", "addr:street_address": "765 LIBERTY LN", "amenity": "post_box", "collection_times": "Mo-Fr 08:30", "nsi_id": "unitedstatespostalservice-a77078", "operator": "United States Postal Service", "operator:short": "USPS", "operator:type": "public", "operator:wikidata": "Q668687", "ref": "4544900041"}, "type": "Feature"}
{"geometry": {"coordinates": [-84.2250787, 39.647193], "type": "Point"}, "id": "Ud4VDiLjYjp_vBsCPUwOM_WqXEE=", "properties": {"@source_uri": "https://tools.usps.com/UspsToolsRestServices/rest/POLocator/findLocations", "@spider": "usps_collection_boxes", "addr:city": "DAYTON", "addr:country": "US", "addr:postcode": "45449", "addr:state": "OH", "addr:street_address": "1000 HABITAT BLVD", "amenity": "post_box", "collection_times": "Mo-Sa 09:00", "nsi_id": "unitedstatespostalservice-a77078", "operator": "United States Postal Service", "operator:short": "USPS", "operator:type": "public", "operator:wikidata": "Q668687", "ref": "4544900042"}, "type": "Feature"}
{"geometry": {"coordinates": [-84.238904685, 39.677770076], "type": "Point"}, "id": "1jehDruzgg9o4gpi2NZGeKEKZvE=", "properties": {"@source_uri": "https://tools.usps.com/UspsToolsRestServices/rest/POLocator/findLocations", "@spider": "usps_collection_boxes", "addr:city": "DAYTON", "addr:country": "US", "addr:postcode": "45449", "addr:state": "OH", "addr:street_address": "901 E CENTRAL AVE", "amenity": "post_box", "collection_times": "Mo-Fr 17:00; Sa 12:00", "indoor": "yes", "note": "ON 12/24 AND 12/31, THIS BOX MAY BE COLLECTED AS EARLY AS 12 NOON.", "nsi_id": "unitedstatespostalservice-a77078", "operator": "United States Postal Service", "operator:short": "USPS", "operator:type": "public", "operator:wikidata": "Q668687", "ref": "4544900047"}, "type": "Feature"}
{"geometry": {"coordinates": [-84.1628190336, 39.6092069892], "type": "Point"}, "id": "S2ziSMYgRxPl0vx5G_8zK-Z4ddI=", "properties": {"@source_uri": "https://tools.usps.com/UspsToolsRestServices/rest/POLocator/findLocations", "@spider": "usps_collection_boxes", "addr:city": "CENTERVILLE", "addr:country": "US", "addr:postcode": "45458", "addr:state": "OH", "addr:street_address": "1073 S MAIN ST", "amenity": "post_box", "collection_times": "Mo-Fr 12:00; Sa 13:15", "note": "ON 12/24 AND 12/31, THIS BOX MAY BE COLLECTED AS EARLY AS 12 NOON.", "nsi_id": "unitedstatespostalservice-a77078", "operator": "United States Postal Service", "operator:short": "USPS", "operator:type": "public", "operator:wikidata": "Q668687", "ref": "4545800001"}, "type": "Feature"}
{"geometry": {"coordinates": [-84.1595907, 39.657454], "type": "Point"}, "id": "Cjvz-VF07IVDm3axhDaaDNeTmLs=", "properties": {"@source_uri": "https://tools.usps.com/UspsToolsRestServices/rest/POLocator/findLocations", "@spider": "usps_collection_boxes", "addr:city": "DAYTON", "addr:country": "US", "addr:postcode": "45459", "addr:state": "OH", "addr:street_address": "6123 FAR HILLS AVE", "amenity": "post_box", "collection_times": "Mo-Sa 09:00", "nsi_id": "unitedstatespostalservice-a77078", "operator": "United States Postal Service", "operator:short": "USPS", "operator:type": "public", "operator:wikidata": "Q668687", "ref": "4545900002"}, "type": "Feature"}
{"geometry": {"coordinates": [-84.1519622, 39.645642], "type": "Point"}, "id": "HaiQZcgAmgxTfIQqiX1rN_vMtfY=", "properties": {"@source_uri": "https://tools.usps.com/UspsToolsRestServices/rest/POLocator/findLocations", "@spider": "usps_collection_boxes", "addr:city": "DAYTON", "addr:country": "US", "addr:postcode": "45459", "addr:state": "OH", "addr:street_address": "114 E ALEX BELL RD STE 114", "amenity": "post_box", "collection_times": "Mo-Fr 09:00", "nsi_id": "unitedstatespostalservice-a77078", "operator": "United States Postal Service", "operator:short": "USPS", "operator:type": "public", "operator:wikidata": "Q668687", "ref": "4545900004"}, "type": "Feature"}
{"geometry": {"coordinates": [-84.1368057, 39.64827], "type": "Point"}, "id": "QnOmBgGqvhgCgD_CKCaXdV6RstM=", "properties": {"@source_uri": "https://tools.usps.com/UspsToolsRestServices/rest/POLocator/findLocations", "@spider": "usps_collection_boxes", "addr:city": "DAYTON", "addr:country": "US", "addr:postcode": "45459", "addr:state": "OH", "addr:street_address": "6681 CENTERVILLE BUSINESS PKWY", "amenity": "post_box", "collection_times": "Mo-Sa 09:00", "nsi_id": "unitedstatespostalservice-a77078", "operator": "United States Postal Service", "operator:short": "USPS", "operator:type": "public", "operator:wikidata": "Q668687", "ref": "4545900007"}, "type": "Feature"}
{"geometry": {"coordinates": [-84.1411887, 39.628651], "type": "Point"}, "id": "wvpZjFtzWja4qLscMgIm2pkFXw0=", "properties": {"@source_uri": "https://tools.usps.com/UspsToolsRestServices/rest/POLocator/findLocations", "@spider": "usps_collection_boxes", "addr:city": "DAYTON", "addr:country": "US", "addr:postcode": "45459", "addr:state": "OH", "addr:street_address": "923 E FRANKLIN ST", "amenity": "post_box", "collection_times": "Mo-Fr 09:00", "nsi_id": "unitedstatespostalservice-a77078", "operator": "United States Postal Service", "operator:short": "USPS", "operator:type": "public", "operator:wikidata": "Q668687", "ref": "4545900009"}, "type": "Feature"}
{"geometry": {"coordinates": [-84.1869546, 39.633879], "type": "Point"}, "id": "_sVeY9v9MIzbZxzHCT8uKoyYJVU=", "properties": {"@source_uri": "https://tools.usps.com/UspsToolsRestServices/rest/POLocator/findLocations", "@spider": "usps_collection_boxes", "addr:city": "DAYTON", "addr:country": "US", "addr:postcode": "45459", "addr:state": "OH", "addr:street_address": "7640 MCEWEN RD", "amenity": "post_box", "collection_times": "Mo-Fr 09:00", "nsi_id": "unitedstatespostalservice-a77078", "operator": "United States Postal Service", "operator:short": "USPS", "operator:type": "public", "operator:wikidata": "Q668687", "ref": "4545900015"}, "type": "Feature"}
{"geometry": {"coordinates": [-84.1978466, 39.625574], "type": "Point"}, "id": "6c5g5wcW5CaBUl0LerMSVYzWNIo=", "properties": {"@source_uri": "https://tools.usps.com/UspsToolsRestServices/rest/POLocator/findLocations", "@spider": "usps_collection_boxes", "addr:city": "DAYTON", "addr:country": "US", "addr:postcode": "45459", "addr:state": "OH", "addr:street_address": "1440 YANKEE PARK PL", "amenity": "post_box", "collection_times": "Mo-Sa 09:00", "nsi_id": "unitedstatespostalservice-a77078", "operator": "United States Postal Service", "operator:short": "USPS", "operator:type": "public", "operator:wikidata": "Q668687", "ref": "4545900021"}, "type": "Feature"}
{"geometry": {"coordinates": [-84.174827567, 39.635017185], "type": "Point"}, "id": "3MyODgJhZmq8lxTSXyURPoVxVpc=", "properties": {"@source_uri": "https://tools.usps.com/UspsToolsRestServices/rest/POLocator/findLocations", "@spider": "usps_collection_boxes", "addr:city": "DAYTON", "addr:country": "US", "addr:postcode": "45459", "addr:state": "OH", "addr:street_address": "7525 PARAGON RD", "amenity": "post_box", "collection_times": "Mo-Sa 17:00", "note": "ON 12/24 AND 12/31, THIS BOX MAY BE COLLECTED AS EARLY AS 12 NOON.", "nsi_id": "unitedstatespostalservice-a77078", "operator": "United States Postal Service", "operator:short": "USPS", "operator:type": "public", "operator:wikidata": "Q668687", "ref": "4545900027"}, "type": "Feature"}
{"geometry": {"coordinates": [-84.1598324, 39.641441], "type": "Point"}, "id": "Qu74KhhUthNO3Spp2e7lIRcUCEI=", "properties": {"@source_uri": "https://tools.usps.com/UspsToolsRestServices/rest/POLocator/findLocations", "@spider": "usps_collection_boxes", "addr:city": "DAYTON", "addr:country": "US", "addr:postcode": "45459", "addr:state": "OH", "addr:street_address": "77 E ELMWOOD DR", "amenity": "post_box", "collection_times": "Mo-Fr 09:00", "nsi_id": "unitedstatespostalservice-a77078", "operator": "United States Postal Service", "operator:short": "USPS", "operator:type": "public", "operator:wikidata": "Q668687", "ref": "4545900029"}, "type": "Feature"}
{"geometry": {"coordinates": [-84.2182369, 39.637962], "type": "Point"}, "id": "Oz3S5C-3bqZSH9smmc5iAjjiVyM=", "properties": {"@source_uri": "https://tools.usps.com/UspsToolsRestServices/rest/POLocator/findLocations", "@spider": "usps_collection_boxes", "addr:city": "DAYTON", "addr:country": "US", "addr:postcode": "45459", "addr:state": "OH", "addr:street_address": "2707 MIAMISBURG CENTERVILLE RD", "amenity": "post_box", "collection_times": "Mo-Sa 09:00", "nsi_id": "unitedstatespostalservice-a77078", "operator": "United States Postal Service", "operator:short": "USPS", "operator:type": "public", "operator:wikidata": "Q668687", "ref": "4545900033"}, "type": "Feature"}
{"geometry": {"coordinates": [-84.1966268, 39.633368], "type": "Point"}, "id": "oux4-hnMtTAgf1TKLeV9Du8Bipk=", "properties": {"@source_uri": "https://tools.usps.com/UspsToolsRestServices/rest/POLocator/findLocations", "@spider": "usps_collection_boxes", "addr:city": "DAYTON", "addr:country": "US", "addr:postcode": "45459", "addr:state": "OH", "addr:street_address": "7887 WASHINGTON VILLAGE DR", "amenity": "post_box", "collection_times": "Mo-Fr 09:00", "nsi_id": "unitedstatespostalservice-a77078", "operator": "United States Postal Service", "operator:short": "USPS", "operator:type": "public", "operator:wikidata": "Q668687", "ref": "4545900039"}, "type": "Feature"}
{"geometry": {"coordinates": [-84.174827567, 39.635017185], "type": "Point"}, "id": "T4wEmD2nYluDK38iPGf9K3Gck_E=", "properties": {"@source_uri": "https://tools.usps.com/UspsToolsRestServices/rest/POLocator/findLocations", "@spider": "usps_collection_boxes", "addr:city": "DAYTON", "addr:country": "US", "addr:postcode": "45459", "addr:state": "OH", "addr:street_address": "7525 PARAGON RD", "amenity": "post_box", "collection_times": "Mo-Fr 18:00; Sa 17:00", "indoor": "yes", "note": "ON 12/24 AND 12/31, THIS BOX MAY BE COLLECTED AS EARLY AS 12 NOON.", "nsi_id": "unitedstatespostalservice-a77078", "operator": "United States Postal Service", "operator:short": "USPS", "operator:type": "public", "operator:wikidata": "Q668687", "ref": "4545900041"}, "type": "Feature"}
{"geometry": {"coordinates": [-84.1469486, 39.645777], "type": "Point"}, "id": "7LQEWBpouDJ4fUfPlj1ZvdvragU=", "properties": {"@source_uri": "https://tools.usps.com/UspsToolsRestServices/rest/POLocator/findLocations", "@spider": "usps_collection_boxes", "addr:city": "DAYTON", "addr:country": "US", "addr:postcode": "45459", "addr:state": "OH", "addr:street_address": "6712 LOOP RD", "amenity": "post_box", "collection_times": "Mo-Fr 09:00", "nsi_id": "unitedstatespostalservice-a77078", "operator": "United States Postal Service", "operator:short": "USPS", "operator:type": "public", "operator:wikidata": "Q668687", "ref": "4545900043"}, "type": "Feature"}
{"geometry": {"coordinates": [-84.174827567, 39.635017185], "type": "Point"}, "id": "2VAxhyqMx8YpZ9UW9n4wQOqUBEk=", "properties": {"@source_uri": "https://tools.usps.com/UspsToolsRestServices/rest/POLocator/findLocations", "@spider": "usps_collection_boxes", "addr:city": "DAYTON", "addr:country": "US", "addr:postcode": "45459", "addr:state": "OH", "addr:street_address": "7525 PARAGON RD", "amenity": "post_box", "collection_times": "Mo-Fr 18:00; Sa 17:00", "name": "USPS COLLECTION BOX - APC", "note": "ON 12/24 AND 12/31, THIS BOX MAY BE COLLECTED AS EARLY AS 12 NOON.", "nsi_id": "unitedstatespostalservice-a77078", "operator": "United States Postal Service", "operator:short": "USPS", "operator:type": "public", "operator:wikidata": "Q668687", "ref": "4545900045"}, "type": "Feature"}
{"geometry": {"coordinates": [-84.1077318, 39.648737], "type": "Point"}, "id": "ersO2zKP9dYuBO7ZPN55oXakcJ8=", "properties": {"@source_uri": "https://tools.usps.com/UspsToolsRestServices/rest/POLocator/findLocations", "@spider": "usps_collection_boxes", "addr:city": "DAYTON", "addr:country": "US", "addr:postcode": "45459", "addr:state": "OH", "addr:street_address": "6222 WILMINGTON PIKE", "amenity": "post_box", "collection_times": "Mo-Fr 09:00", "nsi_id": "unitedstatespostalservice-a77078", "operator": "United States Postal Service", "operator:short": "USPS", "operator:type": "public", "operator:wikidata": "Q668687", "ref": "4545900049"}, "type": "Feature"}
{"geometry": {"coordinates": [-84.2192282, 39.634847], "type": "Point"}, "id": "xIrx-dvzF-YepxK1fW30Bvgci_c=", "properties": {"@source_uri": "https://tools.usps.com/UspsToolsRestServices/rest/POLocator/findLocations", "@spider": "usps_collection_boxes", "addr:city": "DAYTON", "addr:country": "US", "addr:postcode": "45459", "addr:state": "OH", "addr:street_address": "2700 MIAMISBURG CENTERVILLE RD", "amenity": "post_box", "collection_times": "Mo-Sa 09:00", "nsi_id": "unitedstatespostalservice-a77078", "operator": "United States Postal Service", "operator:short": "USPS", "operator:type": "public", "operator:wikidata": "Q668687", "ref": "4545900051"}, "type": "Feature"}
{"geometry": {"coordinates": [-84.174827567, 39.635017185], "type": "Point"}, "id": "gC5bVMJy3r4E70gjvrz03UnCB9c=", "properties": {"@source_uri": "https://tools.usps.com/UspsToolsRestServices/rest/POLocator/findLocations", "@spider": "usps_collection_boxes", "addr:city": "DAYTON", "addr:country": "US", "addr:postcode": "45459", "addr:state": "OH", "addr:street_address": "7525 PARAGON RD", "amenity": "post_box", "collection_times": "Mo-Fr 19:00; Sa 16:00", "indoor": "yes", "note": "ON 12/24 AND 12/31, THIS BOX MAY BE COLLECTED AS EARLY AS 12 NOON.", "nsi_id": "unitedstatespostalservice-a77078", "operator": "United States Postal Service", "operator:short": "USPS", "operator:type": "public", "operator:wikidata": "Q668687", "ref": "4545900061"}, "type": "Feature"}
{"geometry": {"coordinates": [-84.172492459, 39.738234691], "type": "Point"}, "id": "wCzm1bddk8Eck_ixRKNvsm1y10w=", "properties": {"@source_uri": "https://tools.usps.com/UspsToolsRestServices/rest/POLocator/findLocations", "@spider": "usps_collection_boxes", "addr:city": "UNIV DAYTON", "addr:country": "US", "addr:postcode": "45469", "addr:state": "OH", "addr:street_address": "300 COLLEGE PARK AVE", "amenity": "post_box", "collection_times": "Mo-Fr 16:00", "note": "ON 12/24 AND 12/31, THIS BOX MAY BE COLLECTED AS EARLY AS 12 NOON.", "nsi_id": "unitedstatespostalservice-a77078", "operator": "United States Postal Service", "operator:short": "USPS", "operator:type": "public", "operator:wikidata": "Q668687", "ref": "4546900006"}, "type": "Feature"}
