{"geometry": {"coordinates": [-83.808234504, 39.92659837], "type": "Point"}, "id": "iZcfuU6NrPeh7rVMq97P9h8ZVKY=", "properties": {"@source_uri": "https://tools.usps.com/UspsToolsRestServices/rest/POLocator/findLocations", "@spider": "usps_collection_boxes", "addr:city": "SPRINGFIELD", "addr:country": "US", "addr:postcode": "45501", "addr:state": "OH", "addr:street_address": "150 N LIMESTONE ST", "amenity": "post_box", "collection_times": "Mo-Sa 17:00", "note": "ON 12/24 AND 12/31, THIS BOX MAY BE COLLECTED AS EARLY AS 12 NOON.", "nsi_id": "unitedstatespostalservice-a77078", "operator": "United States Postal Service", "operator:short": "USPS", "operator:type": "public", "operator:wikidata": "Q668687", "ref": "4550100000"}, "type": "Feature"}
{"geometry": {"coordinates": [-83.808234504, 39.92659837], "type": "Point"}, "id": "1NNpmUeUnIuQ45haXEKywT8988A=", "properties": {"@source_uri": "https://tools.usps.com/UspsToolsRestServices/rest/POLocator/findLocations", "@spider": "usps_collection_boxes", "addr:city": "SPRINGFIELD", "addr:country": "US", "addr:postcode": "45501", "addr:state": "OH", "addr:street_address": "150 N LIMESTONE ST", "amenity": "post_box", "collection_times": "Mo-Sa 17:00", "indoor": "yes", "note": "ON 12/24 AND 12/31, THIS BOX MAY BE COLLECTED AS EARLY AS 12 NOON.", "nsi_id": "unitedstatespostalservice-a77078", "operator": "United States Postal Service", "operator:short": "USPS", "operator:type": "public", "operator:wikidata": "Q668687", "ref": "4550100007"}, "type": "Feature"}
{"geometry": {"coordinates": [-83.808234504, 39.92659837], "type": "Point"}, "id": "Q7X_d2AQb_pglzJes2UpLitCrqM=", "properties": {"@source_uri": "https://tools.usps.com/UspsToolsRestServices/rest/POLocator/findLocations", "@spider": "usps_collection_boxes", "addr:city": "SPRINGFIELD", "addr:country": "US", "addr:postcode": "45501", "addr:state": "OH", "addr:street_address": "150 N LIMESTONE ST", "amenity": "post_box", "collection_times": "Mo-Sa 17:00", "name": "USPS COLLECTION BOX - APC", "note": "ON 12/24 AND 12/31, THIS BOX MAY BE COLLECTED AS EARLY AS 12 NOON.", "nsi_id": "unitedstatespostalservice-a77078", "operator": "United States Postal Service", "operator:short": "USPS", "operator:type": "public", "operator:wikidata": "Q668687", "ref": "4550100008"}, "type": "Feature"}
{"geometry": {"coordinates": [-83.808234504, 39.92659837], "type": "Point"}, "id": "NhLgDrsUFKVhnwGLAhFcl3r_vsM=", "properties": {"@source_uri": "https://tools.usps.com/UspsToolsRestServices/rest/POLocator/findLocations", "@spider": "usps_collection_boxes", "addr:city": "SPRINGFIELD", "addr:country": "US", "addr:postcode": "45501", "addr:state": "OH", "addr:street_address": "150 N LIMESTONE ST", "amenity": "post_box", "collection_times": "Mo-Fr 18:00; Sa 13:30", "indoor": "yes", "note": "ON 12/24 AND 12/31, THIS BOX MAY BE COLLECTED AS EARLY AS 12 NOON.", "nsi_id": "unitedstatespostalservice-a77078", "operator": "United States Postal Service", "operator:short": "USPS", "operator:type": "public", "operator:wikidata": "Q668687", "ref": "4550100012"}, "type": "Feature"}
{"geometry": {"coordinates": [-83.8105668, 39.92302], "type": "Point"}, "id": "K1GHL1VDNIB9cxauw8ECdTQwzas=", "properties": {"@source_uri": "https://tools.usps.com/UspsToolsRestServices/rest/POLocator/findLocations", "@spider": "usps_collection_boxes", "addr:city": "SPRINGFIELD", "addr:country": "US", "addr:postcode": "45502", "addr:state": "OH", "addr:street_address": "101 S FOUNTAIN AVE", "amenity": "post_box", "collection_times": "Mo-Sa 12:00", "nsi_id": "unitedstatespostalservice-a77078", "operator": "United States Postal Service", "operator:short": "USPS", "operator:type": "public", "operator:wikidata": "Q668687", "ref": "4550200015"}, "type": "Feature"}
{"geometry": {"coordinates": [-83.8086304, 39.924375], "type": "Point"}, "id": "cI6SSqV-lTs-odqX_tJVW4i6G94=", "properties": {"@source_uri": "https://tools.usps.com/UspsToolsRestServices/rest/POLocator/findLocations", "@spider": "usps_collection_boxes", "addr:city": "SPRINGFIELD", "addr:country": "US", "addr:postcode": "45502", "addr:state": "OH", "addr:street_address": "1 S LIMESTONE ST", "amenity": "post_box", "collection_times": "Mo-Sa 15:00", "note": "ON 12/24 AND 12/31, THIS BOX MAY BE COLLECTED AS EARLY AS 12 NOON.", "nsi_id": "unitedstatespostalservice-a77078", "operator": "United States Postal Service", "operator:short": "USPS", "operator:type": "public", "operator:wikidata": "Q668687", "ref": "4550200020"}, "type": "Feature"}
{"geometry": {"coordinates": [-83.8002209, 39.996765], "type": "Point"}, "id": "9lcQH2kkaD99AHGsHjWXrarUF0o=", "properties": {"@source_uri": "https://tools.usps.com/UspsToolsRestServices/rest/POLocator/findLocations", "@spider": "usps_collection_boxes", "addr:city": "SPRINGFIELD", "addr:country": "US", "addr:postcode": "45502", "addr:state": "OH", "addr:street_address": "5000 URBANA RD", "amenity": "post_box", "collection_times": "Mo-Sa 14:30", "note": "ON 12/24 AND 12/31, THIS BOX MAY BE COLLECTED AS EARLY AS 12 NOON.", "nsi_id": "unitedstatespostalservice-a77078", "operator": "United States Postal Service", "operator:short": "USPS", "operator:type": "public", "operator:wikidata": "Q668687", "ref": "4550200023"}, "type": "Feature"}
{"geometry": {"coordinates": [-83.7300305, 39.906836], "type": "Point"}, "id": "rLTIjbktd0qlScYOtyK3gButHeQ=", "properties": {"@source_uri": "https://tools.usps.com/UspsToolsRestServices/rest/POLocator/findLocations", "@spider": "usps_collection_boxes", "addr:city": "SPRINGFIELD", "addr:country": "US", "addr:postcode": "45502", "addr:state": "OH", "addr:street_address": "4300 GATEWAY BLVD", "amenity": "post_box", "collection_times": "Mo-Sa 14:30", "note": "ON 12/24 AND 12/31, THIS BOX MAY BE COLLECTED AS EARLY AS 12 NOON.", "nsi_id": "unitedstatespostalservice-a77078", "operator": "United States Postal Service", "operator:short": "USPS", "operator:type": "public", "operator:wikidata": "Q668687", "ref": "4550200027"}, "type": "Feature"}
{"geometry": {"coordinates": [-83.8103873, 39.924605], "type": "Point"}, "id": "5yEm_v_nEwr-9YYrt2IAvGZoh1I=", "properties": {"@source_uri": "https://tools.usps.com/UspsToolsRestServices/rest/POLocator/findLocations", "@spider": "usps_collection_boxes", "addr:city": "SPRINGFIELD", "addr:country": "US", "addr:postcode": "45502", "addr:state": "OH", "addr:street_address": "4 W MAIN ST", "amenity": "post_box", "collection_times": "Mo-Sa 12:00", "nsi_id": "unitedstatespostalservice-a77078", "operator": "United States Postal Service", "operator:short": "USPS", "operator:type": "public", "operator:wikidata": "Q668687", "ref": "4550200031"}, "type": "Feature"}
{"geometry": {"coordinates": [-83.8805999, 39.987545], "type": "Point"}, "id": "YwhEWWGwzVyK_OlXp-s8mehtowk=", "properties": {"@source_uri": "https://tools.usps.com/UspsToolsRestServices/rest/POLocator/findLocations", "@spider": "usps_collection_boxes", "addr:city": "SPRINGFIELD", "addr:country": "US", "addr:postcode": "45502", "addr:state": "OH", "addr:street_address": "4100 TROY RD", "amenity": "post_box", "collection_times": "Mo-Sa 09:00", "nsi_id": "unitedstatespostalservice-a77078", "operator": "United States Postal Service", "operator:short": "USPS", "operator:type": "public", "operator:wikidata": "Q668687", "ref": "4550200033"}, "type": "Feature"}
{"geometry": {"coordinates": [-83.8044690358, 39.9569639796], "type": "Point"}, "id": "EDqJo8-Ub3RBY8N94pNFvSOokQI=", "properties": {"@source_uri": "https://tools.usps.com/UspsToolsRestServices/rest/POLocator/findLocations", "@spider": "usps_collection_boxes", "addr:city": "SPRINGFIELD", "addr:country": "US", "addr:postcode": "45503", "addr:state": "OH", "addr:street_address": "2525 N LIMESTONE ST", "amenity": "post_box", "collection_times": "Mo-Sa 09:00", "nsi_id": "unitedstatespostalservice-a77078", "operator": "United States Postal Service", "operator:short": "USPS", "operator:type": "public", "operator:wikidata": "Q668687", "ref": "4550300013"}, "type": "Feature"}
{"geometry": {"coordinates": [-83.7891857, 39.951908], "type": "Point"}, "id": "UC8yZxoOde7i9M9Tm1G6uoYYMdk=", "properties": {"@source_uri": "https://tools.usps.com/UspsToolsRestServices/rest/POLocator/findLocations", "@spider": "usps_collection_boxes", "addr:city": "SPRINGFIELD", "addr:country": "US", "addr:postcode": "45503", "addr:state": "OH", "addr:street_address": "2254 OLYMPIC ST", "amenity": "post_box", "collection_times": "Mo-Sa 10:00", "nsi_id": "unitedstatespostalservice-a77078", "operator": "United States Postal Service", "operator:short": "USPS", "operator:type": "public", "operator:wikidata": "Q668687", "ref": "4550300022"}, "type": "Feature"}
{"geometry": {"coordinates": [-83.8087495, 39.928975], "type": "Point"}, "id": "dCtA0JvgyjXIitzStxPIxrBMu6w=", "properties": {"@source_uri": "https://tools.usps.com/UspsToolsRestServices/rest/POLocator/findLocations", "@spider": "usps_collection_boxes", "addr:city": "SPRINGFIELD", "addr:country": "US", "addr:postcode": "45503", "addr:state": "OH", "addr:street_address": "333 N LIMESTONE ST", "amenity": "post_box", "collection_times": "Mo-Sa 15:00", "note": "ON 12/24 AND 12/31, THIS BOX MAY BE COLLECTED AS EARLY AS 12 NOON.", "nsi_id": "unitedstatespostalservice-a77078", "operator": "United States Postal Service", "operator:short": "USPS", "operator:type": "public", "operator:wikidata": "Q668687", "ref": "4550300025"}, "type": "Feature"}
{"geometry": {"coordinates": [-83.7848213, 39.933131], "type": "Point"}, "id": "Cwni0nvqSHo_i2i1JAuW-yA-bPw=", "properties": {"@source_uri": "https://tools.usps.com/UspsToolsRestServices/rest/POLocator/findLocations", "@spider": "usps_collection_boxes", "addr:city": "SPRINGFIELD", "addr:country": "US", "addr:postcode": "45503", "addr:state": "OH", "addr:street_address": "1574 LAGONDA AVE", "amenity": "post_box", "collection_times": "Mo-Sa 10:00", "nsi_id": "unitedstatespostalservice-a77078", "operator": "United States Postal Service", "operator:short": "USPS", "operator:type": "public", "operator:wikidata": "Q668687", "ref": "4550300039"}, "type": "Feature"}
{"geometry": {"coordinates": [-83.7840509, 39.966277], "type": "Point"}, "id": "D297fO2F5ICxHgRob9kQwfgnbJ4=", "properties": {"@source_uri": "https://tools.usps.com/UspsToolsRestServices/rest/POLocator/findLocations", "@spider": "usps_collection_boxes", "addr:city": "SPRINGFIELD", "addr:country": "US", "addr:postcode": "45503", "addr:state": "OH", "addr:street_address": "2982 DERR RD", "amenity": "post_box", "collection_times": "Mo-Sa 14:30", "note": "ON 12/24 AND 12/31, THIS BOX MAY BE COLLECTED AS EARLY AS 12 NOON.", "nsi_id": "unitedstatespostalservice-a77078", "operator": "United States Postal Service", "operator:short": "USPS", "operator:type": "public", "operator:wikidata": "Q668687", "ref": "4550300047"}, "type": "Feature"}
{"geometry": {"coordinates": [-83.774784, 39.995476], "type": "Point"}, "id": "Uphu41kLLYxtzMff95q469ECkx4=", "properties": {"@source_uri": "https://tools.usps.com/UspsToolsRestServices/rest/POLocator/findLocations", "@spider": "usps_collection_boxes", "addr:city": "SPRINGFIELD", "addr:country": "US", "addr:postcode": "45503", "addr:state": "OH", "addr:street_address": "1333 MOOREFIELD RD", "amenity": "post_box", "collection_times": "Mo-Sa 14:30", "note": "ON 12/24 AND 12/31, THIS BOX MAY BE COLLECTED AS EARLY AS 12 NOON.", "nsi_id": "unitedstatespostalservice-a77078", "operator": "United States Postal Service", "operator:short": "USPS", "operator:type": "public", "operator:wikidata": "Q668687", "ref": "4550300058"}, "type": "Feature"}
{"geometry": {"coordinates": [-83.7685713, 39.923242], "type": "Point"}, "id": "EdY_4dxGqxE0yTwoX9vropfzUQQ=", "properties": {"@source_uri": "https://tools.usps.com/UspsToolsRestServices/rest/POLocator/findLocations", "@spider": "usps_collection_boxes", "addr:city": "SPRINGFIELD", "addr:country": "US", "addr:postcode": "45503", "addr:state": "OH", "addr:street_address": "2609 E MAIN ST", "amenity": "post_box", "collection_times": "Mo-Sa 09:00", "nsi_id": "unitedstatespostalservice-a77078", "operator": "United States Postal Service", "operator:short": "USPS", "operator:type": "public", "operator:wikidata": "Q668687", "ref": "4550300067"}, "type": "Feature"}
{"geometry": {"coordinates": [-83.8167676, 39.929024], "type": "Point"}, "id": "b_ln7Kp6_s7lRgWqYGGWF9DvA24=", "properties": {"@source_uri": "https://tools.usps.com/UspsToolsRestServices/rest/POLocator/findLocations", "@spider": "usps_collection_boxes", "addr:city": "SPRINGFIELD", "addr:country": "US", "addr:postcode": "45503", "addr:state": "OH", "addr:street_address": "200 MEDICAL CENTER DR", "amenity": "post_box", "collection_times": "Mo-Sa 15:00", "note": "ON 12/24 AND 12/31, THIS BOX MAY BE COLLECTED AS EARLY AS 12 NOON.", "nsi_id": "unitedstatespostalservice-a77078", "operator": "United States Postal Service", "operator:short": "USPS", "operator:type": "public", "operator:wikidata": "Q668687", "ref": "4550300072"}, "type": "Feature"}
{"geometry": {"coordinates": [-83.8518155062, 39.947899031], "type": "Point"}, "id": "HPFeqjly4yv5uU7QItMkTNujmaQ=", "properties": {"@source_uri": "https://tools.usps.com/UspsToolsRestServices/rest/POLocator/findLocations", "@spider": "usps_collection_boxes", "addr:city": "SPRINGFIELD", "addr:country": "US", "addr:postcode": "45504", "addr:state": "OH", "addr:street_address": "1493 UPPER VALLEY PIKE", "amenity": "post_box", "collection_times": "Mo-Sa 14:30", "note": "ON 12/24 AND 12/31, THIS BOX MAY BE COLLECTED AS EARLY AS 12 NOON.", "nsi_id": "unitedstatespostalservice-a77078", "operator": "United States Postal Service", "operator:short": "USPS", "operator:type": "public", "operator:wikidata": "Q668687", "ref": "4550400018"}, "type": "Feature"}
{"geometry": {"coordinates": [-83.8420327, 39.936542], "type": "Point"}, "id": "2R_AZHeZNoYGlqhC69djlp9jShY=", "properties": {"@source_uri": "https://tools.usps.com/UspsToolsRestServices/rest/POLocator/findLocations", "@spider": "usps_collection_boxes", "addr:city": "SPRINGFIELD", "addr:country": "US", "addr:postcode": "45504", "addr:state": "OH", "addr:street_address": "1941 COMMERCE CIR", "amenity": "post_box", "collection_times": "Mo-Sa 10:00", "nsi_id": "unitedstatespostalservice-a77078", "operator": "United States Postal Service", "operator:short": "USPS", "operator:type": "public", "operator:wikidata": "Q668687", "ref": "4550400029"}, "type": "Feature"}
{"geometry": {"coordinates": [-83.8158449, 39.946122], "type": "Point"}, "id": "woRxLrsEtjasMBkt1_aCRvCZhkY=", "properties": {"@source_uri": "https://tools.usps.com/UspsToolsRestServices/rest/POLocator/findLocations", "@spider": "usps_collection_boxes", "addr:city": "SPRINGFIELD", "addr:country": "US", "addr:postcode": "45504", "addr:state": "OH", "addr:street_address": "400 W HARDING RD", "amenity": "post_box", "collection_times": "Mo-Sa 09:00", "nsi_id": "unitedstatespostalservice-a77078", "operator": "United States Postal Service", "operator:short": "USPS", "operator:type": "public", "operator:wikidata": "Q668687", "ref": "4550400037"}, "type": "Feature"}
{"geometry": {"coordinates": [-83.8085033, 39.930126], "type": "Point"}, "id": "yPGf3lPTaDfzDR6DXWuTDnia66s=", "properties": {"@source_uri": "https://tools.usps.com/UspsToolsRestServices/rest/POLocator/findLocations", "@spider": "usps_collection_boxes", "addr:city": "SPRINGFIELD", "addr:country": "US", "addr:postcode": "45504", "addr:state": "OH", "addr:street_address": "30 WARDER ST", "amenity": "post_box", "collection_times": "Mo-Sa 15:00", "note": "ON 12/24 AND 12/31, THIS BOX MAY BE COLLECTED AS EARLY AS 12 NOON.", "nsi_id": "unitedstatespostalservice-a77078", "operator": "United States Postal Service", "operator:short": "USPS", "operator:type": "public", "operator:wikidata": "Q668687", "ref": "4550400065"}, "type": "Feature"}
{"geometry": {"coordinates": [-83.7938309, 39.903927], "type": "Point"}, "id": "BEVbREqoizV2s-V6NJWik9-L9_Q=", "properties": {"@source_uri": "https://tools.usps.com/UspsToolsRestServices/rest/POLocator/findLocations", "@spider": "usps_collection_boxes", "addr:city": "SPRINGFIELD", "addr:country": "US", "addr:postcode": "45505", "addr:state": "OH", "addr:street_address": "1129 SUNSET AVE", "amenity": "post_box", "collection_times": "Mo-Sa 10:00", "nsi_id": "unitedstatespostalservice-a77078", "operator": "United States Postal Service", "operator:short": "USPS", "operator:type": "public", "operator:wikidata": "Q668687", "ref": "4550500012"}, "type": "Feature"}
{"geometry": {"coordinates": [-83.8096029, 39.903211], "type": "Point"}, "id": "91xMSuzlMPaTuhGcQyui8VsjVPE=", "properties": {"@source_uri": "https://tools.usps.com/UspsToolsRestServices/rest/POLocator/findLocations", "@spider": "usps_collection_boxes", "addr:city": "SPRINGFIELD", "addr:country": "US", "addr:postcode": "45505", "addr:state": "OH", "addr:street_address": "1822 S LIMESTONE ST", "amenity": "post_box", "collection_times": "Mo-Sa 11:30", "nsi_id": "unitedstatespostalservice-a77078", "operator": "United States Postal Service", "operator:short": "USPS", "operator:type": "public", "operator:wikidata": "Q668687", "ref": "4550500023"}, "type": "Feature"}
{"geometry": {"coordinates": [-83.7692258, 39.91553], "type": "Point"}, "id": "2WtPwnBRwqrXzi1kLT7jJFwYha8=", "properties": {"@source_uri": "https://tools.usps.com/UspsToolsRestServices/rest/POLocator/findLocations", "@spider": "usps_collection_boxes", "addr:city": "SPRINGFIELD", "addr:country": "US", "addr:postcode": "45505", "addr:state": "OH", "addr:street_address": "432 S BURNETT RD", "amenity": "post_box", "collection_times": "Mo-Sa 09:00", "nsi_id": "unitedstatespostalservice-a77078", "operator": "United States Postal Service", "operator:short": "USPS", "operator:type": "public", "operator:wikidata": "Q668687", "ref": "4550500051"}, "type": "Feature"}
{"geometry": {"coordinates": [-83.7777461, 39.921523], "type": "Point"}, "id": "J1TeUnS8TtzH1b-oTBsHuZ6BeVk=", "properties": {"@source_uri": "https://tools.usps.com/UspsToolsRestServices/rest/POLocator/findLocations", "@spider": "usps_collection_boxes", "addr:city": "SPRINGFIELD", "addr:country": "US", "addr:postcode": "45505", "addr:state": "OH", "addr:street_address": "2100 E HIGH ST", "amenity": "post_box", "collection_times": "Mo-Sa 09:00", "nsi_id": "unitedstatespostalservice-a77078", "operator": "United States Postal Service", "operator:short": "USPS", "operator:type": "public", "operator:wikidata": "Q668687", "ref": "4550500058"}, "type": "Feature"}
