{"dataset_attributes": {"@spider": "usps_collection_boxes"}, "geometry": {"coordinates": [-82.459897822, 38.427298849], "type": "Point"}, "id": "wN4Z1LOm9eVyXfpA8mgw0faXF0Q=", "properties": {"@spider": "usps_collection_boxes", "addr:city": "CHESAPEAKE", "addr:country": "US", "addr:full": "607 3RD AVE", "addr:postcode": "45619", "addr:state": "OH", "amenity": "post_box", "brand": "United States Postal Service", "brand:wikidata": "Q668687", "collection_times": "Mo-Fr 15:45; Sa 12:00", "name": "USPS COLLECTION BOX - BLUE BOX", "note": "ON 12/24 AND 12/31, THIS BOX MAY BE COLLECTED AS EARLY AS 12 NOON.", "nsi_id": "unitedstatespostalservice-a77078", "operator": "United States Postal Service", "operator:short": "USPS", "operator:type": "public", "operator:wikidata": "Q668687", "ref": "4561900000"}, "type": "Feature"}
{"dataset_attributes": {"@spider": "usps_collection_boxes"}, "geometry": {"coordinates": [-82.4555515, 38.428119], "type": "Point"}, "id": "6TgfamNolhQT-QA3gT6ahr42hPA=", "properties": {"@spider": "usps_collection_boxes", "addr:city": "CHESAPEAKE", "addr:country": "US", "addr:full": "353 3RD AVE", "addr:postcode": "45619", "addr:state": "OH", "amenity": "post_box", "brand": "United States Postal Service", "brand:wikidata": "Q668687", "collection_times": "Mo-Sa 13:00", "name": "USPS COLLECTION BOX - BLUE BOX", "note": "ON 12/24 AND 12/31, THIS BOX MAY BE COLLECTED AS EARLY AS 12 NOON.", "nsi_id": "unitedstatespostalservice-a77078", "operator": "United States Postal Service", "operator:short": "USPS", "operator:type": "public", "operator:wikidata": "Q668687", "ref": "4561900002"}, "type": "Feature"}
{"dataset_attributes": {"@spider": "usps_collection_boxes"}, "geometry": {"coordinates": [-82.459897822, 38.427298849], "type": "Point"}, "id": "x3MwwNEYQK2E3yquHrZyq8hEfV8=", "properties": {"@spider": "usps_collection_boxes", "addr:city": "CHESAPEAKE", "addr:country": "US", "addr:full": "607 3RD AVE", "addr:postcode": "45619", "addr:state": "OH", "amenity": "post_box", "brand": "United States Postal Service", "brand:wikidata": "Q668687", "collection_times": "Mo-Fr 15:45; Sa 12:00", "name": "USPS COLLECTION BOX - PO LOBBY", "note": "ON 12/24 AND 12/31, THIS BOX MAY BE COLLECTED AS EARLY AS 12 NOON.", "nsi_id": "unitedstatespostalservice-a77078", "operator": "United States Postal Service", "operator:short": "USPS", "operator:type": "public", "operator:wikidata": "Q668687", "ref": "4561900004"}, "type": "Feature"}
{"dataset_attributes": {"@spider": "usps_collection_boxes"}, "geometry": {"coordinates": [-82.459897822, 38.427298849], "type": "Point"}, "id": "KfQx1xs2yXHjkcY_iIxJpXqTco4=", "properties": {"@spider": "usps_collection_boxes", "addr:city": "CHESAPEAKE", "addr:country": "US", "addr:full": "607 3RD AVE", "addr:postcode": "45619", "addr:state": "OH", "amenity": "post_box", "brand": "United States Postal Service", "brand:wikidata": "Q668687", "collection_times": "Mo-Fr 15:45", "name": "USPS COLLECTION BOX - BLUE BOX", "note": "ON 12/24 AND 12/31, THIS BOX MAY BE COLLECTED AS EARLY AS 12 NOON.", "nsi_id": "unitedstatespostalservice-a77078", "operator": "United States Postal Service", "operator:short": "USPS", "operator:type": "public", "operator:wikidata": "Q668687", "ref": "4561900005"}, "type": "Feature"}
{"dataset_attributes": {"@spider": "usps_collection_boxes"}, "geometry": {"coordinates": [-82.459897822, 38.427298849], "type": "Point"}, "id": "K5MF-C8Tf--88U40J2M2oX7gxnE=", "properties": {"@spider": "usps_collection_boxes", "addr:city": "CHESAPEAKE", "addr:country": "US", "addr:full": "607 3RD AVE", "addr:postcode": "45619", "addr:state": "OH", "amenity": "post_box", "brand": "United States Postal Service", "brand:wikidata": "Q668687", "collection_times": "Mo-Fr 16:00; Sa 12:00", "name": "USPS COLLECTION BOX - PO LOBBY", "note": "ON 12/24 AND 12/31, THIS BOX MAY BE COLLECTED AS EARLY AS 12 NOON.", "nsi_id": "unitedstatespostalservice-a77078", "operator": "United States Postal Service", "operator:short": "USPS", "operator:type": "public", "operator:wikidata": "Q668687", "ref": "4561900012"}, "type": "Feature"}
{"dataset_attributes": {"@spider": "usps_collection_boxes"}, "geometry": {"coordinates": [-82.284904425, 38.590812503], "type": "Point"}, "id": "GZZ_IbSaU2DFngHXEL-Naur61a4=", "properties": {"@spider": "usps_collection_boxes", "addr:city": "CROWN CITY", "addr:country": "US", "addr:full": "54 CHARLES ST", "addr:postcode": "45623", "addr:state": "OH", "amenity": "post_box", "brand": "United States Postal Service", "brand:wikidata": "Q668687", "collection_times": "Mo-Fr 14:00; Sa 10:15", "name": "USPS COLLECTION BOX - BLUE BOX", "note": "ON 12/24 AND 12/31, THIS BOX MAY BE COLLECTED AS EARLY AS 12 NOON.", "nsi_id": "unitedstatespostalservice-a77078", "operator": "United States Postal Service", "operator:short": "USPS", "operator:type": "public", "operator:wikidata": "Q668687", "ref": "4562300000"}, "type": "Feature"}
{"dataset_attributes": {"@spider": "usps_collection_boxes"}, "geometry": {"coordinates": [-82.284904425, 38.590812503], "type": "Point"}, "id": "dj_Pb0IkTkLaA6K-R3i98RfidVM=", "properties": {"@spider": "usps_collection_boxes", "addr:city": "CROWN CITY", "addr:country": "US", "addr:full": "54 CHARLES ST", "addr:postcode": "45623", "addr:state": "OH", "amenity": "post_box", "brand": "United States Postal Service", "brand:wikidata": "Q668687", "collection_times": "Mo-Fr 14:00; Sa 10:15", "name": "USPS COLLECTION BOX - PO LOBBY", "note": "ON 12/24 AND 12/31, THIS BOX MAY BE COLLECTED AS EARLY AS 12 NOON.", "nsi_id": "unitedstatespostalservice-a77078", "operator": "United States Postal Service", "operator:short": "USPS", "operator:type": "public", "operator:wikidata": "Q668687", "ref": "4562300001"}, "type": "Feature"}
{"dataset_attributes": {"@spider": "usps_collection_boxes"}, "geometry": {"coordinates": [-82.284904425, 38.590812503], "type": "Point"}, "id": "5_8j2lsgT7O0N3K648vIezqRx54=", "properties": {"@spider": "usps_collection_boxes", "addr:city": "CROWN CITY", "addr:country": "US", "addr:full": "54 CHARLES ST", "addr:postcode": "45623", "addr:state": "OH", "amenity": "post_box", "brand": "United States Postal Service", "brand:wikidata": "Q668687", "collection_times": "Mo-Fr 14:45; Sa 10:30", "name": "USPS COLLECTION BOX - PO LOBBY", "note": "ON 12/24 AND 12/31, THIS BOX MAY BE COLLECTED AS EARLY AS 12 NOON.", "nsi_id": "unitedstatespostalservice-a77078", "operator": "United States Postal Service", "operator:short": "USPS", "operator:type": "public", "operator:wikidata": "Q668687", "ref": "4562300006"}, "type": "Feature"}
{"dataset_attributes": {"@spider": "usps_collection_boxes"}, "geometry": {"coordinates": [-82.6448494, 38.501405], "type": "Point"}, "id": "uT4ZnksTfWkMAJpjNCtgRgl1xiA=", "properties": {"@spider": "usps_collection_boxes", "addr:city": "IRONTON", "addr:country": "US", "addr:full": "700 HIGH ST", "addr:postcode": "45638", "addr:state": "OH", "amenity": "post_box", "brand": "United States Postal Service", "brand:wikidata": "Q668687", "collection_times": "Mo-Sa 12:00", "name": "USPS COLLECTION BOX - BLUE BOX", "nsi_id": "unitedstatespostalservice-a77078", "operator": "United States Postal Service", "operator:short": "USPS", "operator:type": "public", "operator:wikidata": "Q668687", "ref": "4563800024"}, "type": "Feature"}
{"dataset_attributes": {"@spider": "usps_collection_boxes"}, "geometry": {"coordinates": [-82.57710796, 38.560794014], "type": "Point"}, "id": "R4pf7ByjRflpaCNwHjJkgjqPsMM=", "properties": {"@spider": "usps_collection_boxes", "addr:city": "KITTS HILL", "addr:country": "US", "addr:full": "7480 STATE ROUTE 141", "addr:postcode": "45645", "addr:state": "OH", "amenity": "post_box", "brand": "United States Postal Service", "brand:wikidata": "Q668687", "collection_times": "Mo-Fr 11:00; Sa 09:45", "name": "USPS COLLECTION BOX - BLUE BOX", "nsi_id": "unitedstatespostalservice-a77078", "operator": "United States Postal Service", "operator:short": "USPS", "operator:type": "public", "operator:wikidata": "Q668687", "ref": "4564500000"}, "type": "Feature"}
{"dataset_attributes": {"@spider": "usps_collection_boxes"}, "geometry": {"coordinates": [-82.57710796, 38.560794014], "type": "Point"}, "id": "OYquwdHm0WA0gVMD9VKojIxPfn8=", "properties": {"@spider": "usps_collection_boxes", "addr:city": "KITTS HILL", "addr:country": "US", "addr:full": "7480 STATE ROUTE 141", "addr:postcode": "45645", "addr:state": "OH", "amenity": "post_box", "brand": "United States Postal Service", "brand:wikidata": "Q668687", "collection_times": "Mo-Fr 11:00; Sa 09:45", "name": "USPS COLLECTION BOX - PO LOBBY", "nsi_id": "unitedstatespostalservice-a77078", "operator": "United States Postal Service", "operator:short": "USPS", "operator:type": "public", "operator:wikidata": "Q668687", "ref": "4564500001"}, "type": "Feature"}
{"dataset_attributes": {"@spider": "usps_collection_boxes"}, "geometry": {"coordinates": [-82.57710796, 38.560794014], "type": "Point"}, "id": "hKMBVvvKW4IJ-QVu0vmtbmU0TqE=", "properties": {"@spider": "usps_collection_boxes", "addr:city": "KITTS HILL", "addr:country": "US", "addr:full": "7480 STATE ROUTE 141", "addr:postcode": "45645", "addr:state": "OH", "amenity": "post_box", "brand": "United States Postal Service", "brand:wikidata": "Q668687", "collection_times": "Mo-Fr 11:00; Sa 09:30", "name": "USPS COLLECTION BOX - PO LOBBY", "nsi_id": "unitedstatespostalservice-a77078", "operator": "United States Postal Service", "operator:short": "USPS", "operator:type": "public", "operator:wikidata": "Q668687", "ref": "4564500005"}, "type": "Feature"}
{"dataset_attributes": {"@spider": "usps_collection_boxes"}, "geometry": {"coordinates": [-82.391339, 38.440042], "type": "Point"}, "id": "aFJWkvkSAMIy1vkxYlKeVQJh9Wc=", "properties": {"@spider": "usps_collection_boxes", "addr:city": "PROCTORVILLE", "addr:country": "US", "addr:full": "6200 COUNTY ROAD 107", "addr:postcode": "45669", "addr:state": "OH", "amenity": "post_box", "brand": "United States Postal Service", "brand:wikidata": "Q668687", "collection_times": "Mo-Fr 15:45; Sa 12:00", "name": "USPS COLLECTION BOX - BLUE BOX", "note": "ON 12/24 AND 12/31, THIS BOX MAY BE COLLECTED AS EARLY AS 12 NOON.", "nsi_id": "unitedstatespostalservice-a77078", "operator": "United States Postal Service", "operator:short": "USPS", "operator:type": "public", "operator:wikidata": "Q668687", "ref": "4566900000"}, "type": "Feature"}
{"dataset_attributes": {"@spider": "usps_collection_boxes"}, "geometry": {"coordinates": [-82.391339, 38.440042], "type": "Point"}, "id": "wzx9dwSAubyfOfgUKIVFsWAAT3k=", "properties": {"@spider": "usps_collection_boxes", "addr:city": "PROCTORVILLE", "addr:country": "US", "addr:full": "6200 COUNTY ROAD 107", "addr:postcode": "45669", "addr:state": "OH", "amenity": "post_box", "brand": "United States Postal Service", "brand:wikidata": "Q668687", "collection_times": "Mo-Fr 16:00; Sa 12:00", "name": "USPS COLLECTION BOX - PO LOBBY", "note": "ON 12/24 AND 12/31, THIS BOX MAY BE COLLECTED AS EARLY AS 12 NOON.", "nsi_id": "unitedstatespostalservice-a77078", "operator": "United States Postal Service", "operator:short": "USPS", "operator:type": "public", "operator:wikidata": "Q668687", "ref": "4566900001"}, "type": "Feature"}
{"dataset_attributes": {"@spider": "usps_collection_boxes"}, "geometry": {"coordinates": [-82.38849651, 38.439204714], "type": "Point"}, "id": "UpLmZscz2X4tytYKkAqXoRL3Wr8=", "properties": {"@spider": "usps_collection_boxes", "addr:city": "PROCTORVILLE", "addr:country": "US", "addr:full": "6200 COUNTY ROAD 107", "addr:postcode": "45669", "addr:state": "OH", "amenity": "post_box", "brand": "United States Postal Service", "brand:wikidata": "Q668687", "collection_times": "Mo-Fr 16:00; Sa 14:00", "name": "USPS COLLECTION BOX - PO LOBBY", "note": "ON 12/24 AND 12/31, THIS BOX MAY BE COLLECTED AS EARLY AS 12 NOON.", "nsi_id": "unitedstatespostalservice-a77078", "operator": "United States Postal Service", "operator:short": "USPS", "operator:type": "public", "operator:wikidata": "Q668687", "ref": "4566900013"}, "type": "Feature"}
{"dataset_attributes": {"@spider": "usps_collection_boxes"}, "geometry": {"coordinates": [-82.389435974, 38.550134999], "type": "Point"}, "id": "7kODkrmjBwPcrwM-Q9OVRM0M18M=", "properties": {"@spider": "usps_collection_boxes", "addr:city": "SCOTTOWN", "addr:country": "US", "addr:full": "11168 STATE ROUTE 217", "addr:postcode": "45678", "addr:state": "OH", "amenity": "post_box", "brand": "United States Postal Service", "brand:wikidata": "Q668687", "collection_times": "Mo-Fr 11:30; Sa 09:45", "name": "USPS COLLECTION BOX - BLUE BOX", "nsi_id": "unitedstatespostalservice-a77078", "operator": "United States Postal Service", "operator:short": "USPS", "operator:type": "public", "operator:wikidata": "Q668687", "ref": "4567800000"}, "type": "Feature"}
{"dataset_attributes": {"@spider": "usps_collection_boxes"}, "geometry": {"coordinates": [-82.389435974, 38.550134999], "type": "Point"}, "id": "N_p8Icq-ZxHaTde-k6NYQt74BuE=", "properties": {"@spider": "usps_collection_boxes", "addr:city": "SCOTTOWN", "addr:country": "US", "addr:full": "11168 STATE ROUTE 217", "addr:postcode": "45678", "addr:state": "OH", "amenity": "post_box", "brand": "United States Postal Service", "brand:wikidata": "Q668687", "collection_times": "Mo-Fr 12:00; Sa 10:00", "name": "USPS COLLECTION BOX - PO LOBBY", "nsi_id": "unitedstatespostalservice-a77078", "operator": "United States Postal Service", "operator:short": "USPS", "operator:type": "public", "operator:wikidata": "Q668687", "ref": "4567800004"}, "type": "Feature"}
{"dataset_attributes": {"@spider": "usps_collection_boxes"}, "geometry": {"coordinates": [-82.5218185, 38.412109], "type": "Point"}, "id": "W5lznu4HZr9DZwDxrPuugLYp360=", "properties": {"@spider": "usps_collection_boxes", "addr:city": "SOUTH POINT", "addr:country": "US", "addr:full": "248 COUNTY ROAD 410", "addr:postcode": "45680", "addr:state": "OH", "amenity": "post_box", "brand": "United States Postal Service", "brand:wikidata": "Q668687", "collection_times": "Mo-Sa 10:00", "name": "USPS COLLECTION BOX - BLUE BOX", "nsi_id": "unitedstatespostalservice-a77078", "operator": "United States Postal Service", "operator:short": "USPS", "operator:type": "public", "operator:wikidata": "Q668687", "ref": "4568000001"}, "type": "Feature"}
{"dataset_attributes": {"@spider": "usps_collection_boxes"}, "geometry": {"coordinates": [-82.5240905, 38.411465], "type": "Point"}, "id": "eBSUIrEwBXmS2lzeUCnmvPdgT1o=", "properties": {"@spider": "usps_collection_boxes", "addr:city": "SOUTH POINT", "addr:country": "US", "addr:full": "2354 PRIVATE DR 288", "addr:postcode": "45680", "addr:state": "OH", "amenity": "post_box", "brand": "United States Postal Service", "brand:wikidata": "Q668687", "collection_times": "Mo-Sa 10:00", "name": "USPS COLLECTION BOX - BLUE BOX", "nsi_id": "unitedstatespostalservice-a77078", "operator": "United States Postal Service", "operator:short": "USPS", "operator:type": "public", "operator:wikidata": "Q668687", "ref": "4568000003"}, "type": "Feature"}
{"dataset_attributes": {"@spider": "usps_collection_boxes"}, "geometry": {"coordinates": [-82.5768933, 38.425173], "type": "Point"}, "id": "09lxVzmMUzZK-K2ykHpxXqHPMMs=", "properties": {"@spider": "usps_collection_boxes", "addr:city": "SOUTH POINT", "addr:country": "US", "addr:full": "108 COLLINS AVE", "addr:postcode": "45680", "addr:state": "OH", "amenity": "post_box", "brand": "United States Postal Service", "brand:wikidata": "Q668687", "collection_times": "Mo-Fr 16:00; Sa 12:00", "name": "USPS COLLECTION BOX - BLUE BOX", "note": "ON 12/24 AND 12/31, THIS BOX MAY BE COLLECTED AS EARLY AS 12 NOON.", "nsi_id": "unitedstatespostalservice-a77078", "operator": "United States Postal Service", "operator:short": "USPS", "operator:type": "public", "operator:wikidata": "Q668687", "ref": "4568000004"}, "type": "Feature"}
{"dataset_attributes": {"@spider": "usps_collection_boxes"}, "geometry": {"coordinates": [-82.5771088, 38.425323], "type": "Point"}, "id": "t1G9t2F_K_7GVHI7f4XWxGqzrq8=", "properties": {"@spider": "usps_collection_boxes", "addr:city": "SOUTH POINT", "addr:country": "US", "addr:full": "108 COLLINS AVE", "addr:postcode": "45680", "addr:state": "OH", "amenity": "post_box", "brand": "United States Postal Service", "brand:wikidata": "Q668687", "collection_times": "Mo-Fr 16:00; Sa 12:00", "name": "USPS COLLECTION BOX - PO LOBBY", "note": "ON 12/24 AND 12/31, THIS BOX MAY BE COLLECTED AS EARLY AS 12 NOON.", "nsi_id": "unitedstatespostalservice-a77078", "operator": "United States Postal Service", "operator:short": "USPS", "operator:type": "public", "operator:wikidata": "Q668687", "ref": "4568000005"}, "type": "Feature"}
{"dataset_attributes": {"@spider": "usps_collection_boxes"}, "geometry": {"coordinates": [-82.5789333, 38.420832], "type": "Point"}, "id": "ZIWr4espcftq-4wNBlqGgOp9xQ8=", "properties": {"@spider": "usps_collection_boxes", "addr:city": "SOUTH POINT", "addr:country": "US", "addr:full": "403 SOLIDA RD", "addr:postcode": "45680", "addr:state": "OH", "amenity": "post_box", "brand": "United States Postal Service", "brand:wikidata": "Q668687", "collection_times": "Mo-Sa 10:00", "name": "USPS COLLECTION BOX - BLUE BOX", "nsi_id": "unitedstatespostalservice-a77078", "operator": "United States Postal Service", "operator:short": "USPS", "operator:type": "public", "operator:wikidata": "Q668687", "ref": "4568000006"}, "type": "Feature"}
{"dataset_attributes": {"@spider": "usps_collection_boxes"}, "geometry": {"coordinates": [-82.5765129884, 38.4257955373], "type": "Point"}, "id": "MUDCr6gcBXm7JZ1HUcJ0-dNxtx8=", "properties": {"@spider": "usps_collection_boxes", "addr:city": "SOUTH POINT", "addr:country": "US", "addr:full": "108 COLLINS AVE", "addr:postcode": "45680", "addr:state": "OH", "amenity": "post_box", "brand": "United States Postal Service", "brand:wikidata": "Q668687", "collection_times": "Mo-Fr 16:00; Sa 12:00", "name": "USPS COLLECTION BOX - PO LOBBY", "note": "ON 12/24 AND 12/31, THIS BOX MAY BE COLLECTED AS EARLY AS 12 NOON.", "nsi_id": "unitedstatespostalservice-a77078", "operator": "United States Postal Service", "operator:short": "USPS", "operator:type": "public", "operator:wikidata": "Q668687", "ref": "4568000014"}, "type": "Feature"}
{"dataset_attributes": {"@spider": "usps_collection_boxes"}, "geometry": {"coordinates": [-82.476792189, 38.556321442], "type": "Point"}, "id": "htCZokK2Gk-ybzXWfRayi_8vDVo=", "properties": {"@spider": "usps_collection_boxes", "addr:city": "WILLOW WOOD", "addr:country": "US", "addr:full": "5491 STATE ROUTE 217", "addr:postcode": "45696", "addr:state": "OH", "amenity": "post_box", "brand": "United States Postal Service", "brand:wikidata": "Q668687", "collection_times": "Mo-Fr 11:00; Sa 09:45", "name": "USPS COLLECTION BOX - BLUE BOX", "nsi_id": "unitedstatespostalservice-a77078", "operator": "United States Postal Service", "operator:short": "USPS", "operator:type": "public", "operator:wikidata": "Q668687", "ref": "4569600000"}, "type": "Feature"}
{"dataset_attributes": {"@spider": "usps_collection_boxes"}, "geometry": {"coordinates": [-82.476792189, 38.556321442], "type": "Point"}, "id": "dTnkpWQolQTryvx5vyO11oNmKGM=", "properties": {"@spider": "usps_collection_boxes", "addr:city": "WILLOW WOOD", "addr:country": "US", "addr:full": "5491 STATE ROUTE 217", "addr:postcode": "45696", "addr:state": "OH", "amenity": "post_box", "brand": "United States Postal Service", "brand:wikidata": "Q668687", "collection_times": "Mo-Fr 11:00; Sa 09:45", "name": "USPS COLLECTION BOX - PO LOBBY", "nsi_id": "unitedstatespostalservice-a77078", "operator": "United States Postal Service", "operator:short": "USPS", "operator:type": "public", "operator:wikidata": "Q668687", "ref": "4569600001"}, "type": "Feature"}
{"dataset_attributes": {"@spider": "usps_collection_boxes"}, "geometry": {"coordinates": [-82.476792189, 38.556321442], "type": "Point"}, "id": "U5N_N-ndxDNA__erhV8IN9jUa3k=", "properties": {"@spider": "usps_collection_boxes", "addr:city": "WILLOW WOOD", "addr:country": "US", "addr:full": "5491 STATE ROUTE 217", "addr:postcode": "45696", "addr:state": "OH", "amenity": "post_box", "brand": "United States Postal Service", "brand:wikidata": "Q668687", "collection_times": "Mo-Fr 11:30; Sa 11:00", "name": "USPS COLLECTION BOX - PO LOBBY", "nsi_id": "unitedstatespostalservice-a77078", "operator": "United States Postal Service", "operator:short": "USPS", "operator:type": "public", "operator:wikidata": "Q668687", "ref": "4569600004"}, "type": "Feature"}
