{"geometry": {"coordinates": [-82.094588, 39.332323], "type": "Point"}, "id": "xO0A6WAbpWW84mTbCdKESd31CZE=", "properties": {"@source_uri": "https://tools.usps.com/UspsToolsRestServices/rest/POLocator/findLocations", "@spider": "usps_collection_boxes", "addr:city": "ATHENS", "addr:country": "US", "addr:postcode": "45701", "addr:state": "OH", "addr:street_address": "5 W STIMSON AVE", "amenity": "post_box", "collection_times": "Mo-Fr 17:15; Sa 16:00", "note": "ON 12/24 AND 12/31, THIS BOX MAY BE COLLECTED AS EARLY AS 12 NOON.", "nsi_id": "unitedstatespostalservice-a77078", "operator": "United States Postal Service", "operator:short": "USPS", "operator:type": "public", "operator:wikidata": "Q668687", "ref": "4570100001"}, "type": "Feature"}
{"geometry": {"coordinates": [-82.0688574, 39.337552], "type": "Point"}, "id": "P0PzpY9XQaw_2v02b1UEia4Y_Uk=", "properties": {"@source_uri": "https://tools.usps.com/UspsToolsRestServices/rest/POLocator/findLocations", "@spider": "usps_collection_boxes", "addr:city": "ATHENS", "addr:country": "US", "addr:postcode": "45701", "addr:state": "OH", "addr:street_address": "918 E STATE ST", "amenity": "post_box", "collection_times": "Mo-Sa 09:00", "nsi_id": "unitedstatespostalservice-a77078", "operator": "United States Postal Service", "operator:short": "USPS", "operator:type": "public", "operator:wikidata": "Q668687", "ref": "4570100004"}, "type": "Feature"}
{"geometry": {"coordinates": [-82.1007823, 39.329216], "type": "Point"}, "id": "wB8rbMNmK9T3MnURfIVIVQu1c3U=", "properties": {"@source_uri": "https://tools.usps.com/UspsToolsRestServices/rest/POLocator/findLocations", "@spider": "usps_collection_boxes", "addr:city": "ATHENS", "addr:country": "US", "addr:postcode": "45701", "addr:state": "OH", "addr:street_address": "10 E WASHINGTON ST", "amenity": "post_box", "collection_times": "Mo-Fr 11:30; Sa 10:30", "nsi_id": "unitedstatespostalservice-a77078", "operator": "United States Postal Service", "operator:short": "USPS", "operator:type": "public", "operator:wikidata": "Q668687", "ref": "4570100006"}, "type": "Feature"}
{"geometry": {"coordinates": [-82.1015161, 39.326543], "type": "Point"}, "id": "fq5lP_31d3wHI4eD3m_eIIJFwxU=", "properties": {"@source_uri": "https://tools.usps.com/UspsToolsRestServices/rest/POLocator/findLocations", "@spider": "usps_collection_boxes", "addr:city": "ATHENS", "addr:country": "US", "addr:postcode": "45701", "addr:state": "OH", "addr:street_address": "80 S COURT ST", "amenity": "post_box", "collection_times": "Mo-Sa 09:00", "nsi_id": "unitedstatespostalservice-a77078", "operator": "United States Postal Service", "operator:short": "USPS", "operator:type": "public", "operator:wikidata": "Q668687", "ref": "4570100008"}, "type": "Feature"}
{"geometry": {"coordinates": [-82.098949972, 39.324919991], "type": "Point"}, "id": "KuvTO7XRVX0elrZW6_BhIdsci6Q=", "properties": {"@source_uri": "https://tools.usps.com/UspsToolsRestServices/rest/POLocator/findLocations", "@spider": "usps_collection_boxes", "addr:city": "ATHENS", "addr:country": "US", "addr:postcode": "45701", "addr:state": "OH", "addr:street_address": "70 UNIVERSITY TER", "amenity": "post_box", "collection_times": "Mo-Sa 09:00", "nsi_id": "unitedstatespostalservice-a77078", "operator": "United States Postal Service", "operator:short": "USPS", "operator:type": "public", "operator:wikidata": "Q668687", "ref": "4570100011"}, "type": "Feature"}
{"geometry": {"coordinates": [-82.101522253, 39.325150247], "type": "Point"}, "id": "0rCiivARVAXR97tqMrJFxYZMn9I=", "properties": {"@source_uri": "https://tools.usps.com/UspsToolsRestServices/rest/POLocator/findLocations", "@spider": "usps_collection_boxes", "addr:city": "ATHENS", "addr:country": "US", "addr:postcode": "45701", "addr:state": "OH", "addr:street_address": "1 PARK PL", "amenity": "post_box", "collection_times": "Mo-Sa 09:00", "nsi_id": "unitedstatespostalservice-a77078", "operator": "United States Postal Service", "operator:short": "USPS", "operator:type": "public", "operator:wikidata": "Q668687", "ref": "4570100012"}, "type": "Feature"}
{"geometry": {"coordinates": [-82.1059388, 39.324172], "type": "Point"}, "id": "PwaZbndXUGkMQhBXFhI3cfpjETE=", "properties": {"@source_uri": "https://tools.usps.com/UspsToolsRestServices/rest/POLocator/findLocations", "@spider": "usps_collection_boxes", "addr:city": "ATHENS", "addr:country": "US", "addr:postcode": "45701", "addr:state": "OH", "addr:street_address": "95 RICHLAND AVE", "amenity": "post_box", "collection_times": "Mo-Sa 09:00", "nsi_id": "unitedstatespostalservice-a77078", "operator": "United States Postal Service", "operator:short": "USPS", "operator:type": "public", "operator:wikidata": "Q668687", "ref": "4570100014"}, "type": "Feature"}
{"geometry": {"coordinates": [-82.1036094, 39.313261], "type": "Point"}, "id": "8pCmAufEXmgSwOS29euo7hlSNAs=", "properties": {"@source_uri": "https://tools.usps.com/UspsToolsRestServices/rest/POLocator/findLocations", "@spider": "usps_collection_boxes", "addr:city": "ATHENS", "addr:country": "US", "addr:postcode": "45701", "addr:state": "OH", "addr:street_address": "412 RICHLAND AVE", "amenity": "post_box", "collection_times": "Mo-Fr 10:00; Sa 09:00", "nsi_id": "unitedstatespostalservice-a77078", "operator": "United States Postal Service", "operator:short": "USPS", "operator:type": "public", "operator:wikidata": "Q668687", "ref": "4570100018"}, "type": "Feature"}
{"geometry": {"coordinates": [-82.1136078, 39.327275], "type": "Point"}, "id": "6bOlCgA-OV6_Hyn8AwtDhLIV4ug=", "properties": {"@source_uri": "https://tools.usps.com/UspsToolsRestServices/rest/POLocator/findLocations", "@spider": "usps_collection_boxes", "addr:city": "ATHENS", "addr:country": "US", "addr:postcode": "45701", "addr:state": "OH", "addr:street_address": "55 HOSPITAL DR", "amenity": "post_box", "collection_times": "Mo-Fr 10:00; Sa 09:00", "nsi_id": "unitedstatespostalservice-a77078", "operator": "United States Postal Service", "operator:short": "USPS", "operator:type": "public", "operator:wikidata": "Q668687", "ref": "4570100020"}, "type": "Feature"}
{"geometry": {"coordinates": [-82.1227249, 39.331095], "type": "Point"}, "id": "OIWmG2P2p22Fn7n7iKnw2WM7hCk=", "properties": {"@source_uri": "https://tools.usps.com/UspsToolsRestServices/rest/POLocator/findLocations", "@spider": "usps_collection_boxes", "addr:city": "ATHENS", "addr:country": "US", "addr:postcode": "45701", "addr:state": "OH", "addr:street_address": "444 W UNION ST", "amenity": "post_box", "collection_times": "Mo-Sa 10:00", "nsi_id": "unitedstatespostalservice-a77078", "operator": "United States Postal Service", "operator:short": "USPS", "operator:type": "public", "operator:wikidata": "Q668687", "ref": "4570100026"}, "type": "Feature"}
{"geometry": {"coordinates": [-82.1273427, 39.290707], "type": "Point"}, "id": "o0sBiXTmt7wIdWntrzi0weLssvM=", "properties": {"@source_uri": "https://tools.usps.com/UspsToolsRestServices/rest/POLocator/findLocations", "@spider": "usps_collection_boxes", "addr:city": "ATHENS", "addr:country": "US", "addr:postcode": "45701", "addr:state": "OH", "addr:street_address": "8978 UNITED LN", "amenity": "post_box", "collection_times": "Mo-Sa 10:00", "nsi_id": "unitedstatespostalservice-a77078", "operator": "United States Postal Service", "operator:short": "USPS", "operator:type": "public", "operator:wikidata": "Q668687", "ref": "4570100030"}, "type": "Feature"}
{"geometry": {"coordinates": [-82.1039605, 39.306732], "type": "Point"}, "id": "LpGWjPJWSJCMSwSXYGZ90G68yfc=", "properties": {"@source_uri": "https://tools.usps.com/UspsToolsRestServices/rest/POLocator/findLocations", "@spider": "usps_collection_boxes", "addr:city": "ATHENS", "addr:country": "US", "addr:postcode": "45701", "addr:state": "OH", "addr:street_address": "507 RICHLAND AVE", "amenity": "post_box", "collection_times": "Mo-Fr 10:00; Sa 09:00", "nsi_id": "unitedstatespostalservice-a77078", "operator": "United States Postal Service", "operator:short": "USPS", "operator:type": "public", "operator:wikidata": "Q668687", "ref": "4570100032"}, "type": "Feature"}
{"geometry": {"coordinates": [-82.1067654, 39.312495], "type": "Point"}, "id": "Q2PDO4wQvaSqhN5fRUa-vKyTPIY=", "properties": {"@source_uri": "https://tools.usps.com/UspsToolsRestServices/rest/POLocator/findLocations", "@spider": "usps_collection_boxes", "addr:city": "ATHENS", "addr:country": "US", "addr:postcode": "45701", "addr:state": "OH", "addr:street_address": "115 CARRIAGE HILL DR", "amenity": "post_box", "collection_times": "Mo-Fr 10:00; Sa 09:00", "nsi_id": "unitedstatespostalservice-a77078", "operator": "United States Postal Service", "operator:short": "USPS", "operator:type": "public", "operator:wikidata": "Q668687", "ref": "4570100034"}, "type": "Feature"}
{"geometry": {"coordinates": [-82.1012483, 39.328872], "type": "Point"}, "id": "vAReA2iFbSjENroZQVCA2bi1BeM=", "properties": {"@source_uri": "https://tools.usps.com/UspsToolsRestServices/rest/POLocator/findLocations", "@spider": "usps_collection_boxes", "addr:city": "ATHENS", "addr:country": "US", "addr:postcode": "45701", "addr:state": "OH", "addr:street_address": "1 S COURT ST", "amenity": "post_box", "collection_times": "Mo-Sa 09:00", "nsi_id": "unitedstatespostalservice-a77078", "operator": "United States Postal Service", "operator:short": "USPS", "operator:type": "public", "operator:wikidata": "Q668687", "ref": "4570100036"}, "type": "Feature"}
{"geometry": {"coordinates": [-82.1000252, 39.332159], "type": "Point"}, "id": "DE9UlF2BWbaSOo31KhXo4snlN50=", "properties": {"@source_uri": "https://tools.usps.com/UspsToolsRestServices/rest/POLocator/findLocations", "@spider": "usps_collection_boxes", "addr:city": "ATHENS", "addr:country": "US", "addr:postcode": "45701", "addr:state": "OH", "addr:street_address": "19 E CARPENTER ST", "amenity": "post_box", "collection_times": "Mo-Fr 10:00; Sa 09:00", "nsi_id": "unitedstatespostalservice-a77078", "operator": "United States Postal Service", "operator:short": "USPS", "operator:type": "public", "operator:wikidata": "Q668687", "ref": "4570100039"}, "type": "Feature"}
{"geometry": {"coordinates": [-82.0846772, 39.336806], "type": "Point"}, "id": "C08bTQoZC-ppOn4o1ZAbE4z4woo=", "properties": {"@source_uri": "https://tools.usps.com/UspsToolsRestServices/rest/POLocator/findLocations", "@spider": "usps_collection_boxes", "addr:city": "ATHENS", "addr:country": "US", "addr:postcode": "45701", "addr:state": "OH", "addr:street_address": "16 HOME ST", "amenity": "post_box", "collection_times": "Mo-Fr 11:00; Sa 10:00", "nsi_id": "unitedstatespostalservice-a77078", "operator": "United States Postal Service", "operator:short": "USPS", "operator:type": "public", "operator:wikidata": "Q668687", "ref": "4570100043"}, "type": "Feature"}
{"geometry": {"coordinates": [-82.0688708, 39.335927], "type": "Point"}, "id": "0nTf3zq7mZpnSNxqyL1Xp1IMBws=", "properties": {"@source_uri": "https://tools.usps.com/UspsToolsRestServices/rest/POLocator/findLocations", "@spider": "usps_collection_boxes", "addr:city": "ATHENS", "addr:country": "US", "addr:postcode": "45701", "addr:state": "OH", "addr:street_address": "919 E STATE ST", "amenity": "post_box", "collection_times": "Mo-Fr 13:00; Sa 10:00", "note": "ON 12/24 AND 12/31, THIS BOX MAY BE COLLECTED AS EARLY AS 12 NOON.", "nsi_id": "unitedstatespostalservice-a77078", "operator": "United States Postal Service", "operator:short": "USPS", "operator:type": "public", "operator:wikidata": "Q668687", "ref": "4570100045"}, "type": "Feature"}
{"geometry": {"coordinates": [-82.1018863, 39.330873], "type": "Point"}, "id": "dV4YSLnWSFir2iLBGPqTy6I9c4g=", "properties": {"@source_uri": "https://tools.usps.com/UspsToolsRestServices/rest/POLocator/findLocations", "@spider": "usps_collection_boxes", "addr:city": "ATHENS", "addr:country": "US", "addr:postcode": "45701", "addr:state": "OH", "addr:street_address": "18 W STATE ST", "amenity": "post_box", "collection_times": "Mo-Sa 11:00", "nsi_id": "unitedstatespostalservice-a77078", "operator": "United States Postal Service", "operator:short": "USPS", "operator:type": "public", "operator:wikidata": "Q668687", "ref": "4570100047"}, "type": "Feature"}
{"geometry": {"coordinates": [-82.0941664, 39.326995], "type": "Point"}, "id": "mi5K-9uVsyjvkAM6kpqEufNyzUw=", "properties": {"@source_uri": "https://tools.usps.com/UspsToolsRestServices/rest/POLocator/findLocations", "@spider": "usps_collection_boxes", "addr:city": "ATHENS", "addr:country": "US", "addr:postcode": "45701", "addr:state": "OH", "addr:street_address": "38 N MCKINLEY AVE", "amenity": "post_box", "collection_times": "Mo-Fr 13:00; Sa 12:00", "note": "ON 12/24 AND 12/31, THIS BOX MAY BE COLLECTED AS EARLY AS 12 NOON.", "nsi_id": "unitedstatespostalservice-a77078", "operator": "United States Postal Service", "operator:short": "USPS", "operator:type": "public", "operator:wikidata": "Q668687", "ref": "4570100050"}, "type": "Feature"}
{"geometry": {"coordinates": [-82.1030499, 39.357014], "type": "Point"}, "id": "XqacC-b6SLjSppaimkXo-MdbQWQ=", "properties": {"@source_uri": "https://tools.usps.com/UspsToolsRestServices/rest/POLocator/findLocations", "@spider": "usps_collection_boxes", "addr:city": "ATHENS", "addr:country": "US", "addr:postcode": "45701", "addr:state": "OH", "addr:street_address": "223 COLUMBUS RD", "amenity": "post_box", "collection_times": "Mo-Sa 09:00", "nsi_id": "unitedstatespostalservice-a77078", "operator": "United States Postal Service", "operator:short": "USPS", "operator:type": "public", "operator:wikidata": "Q668687", "ref": "4570100055"}, "type": "Feature"}
{"geometry": {"coordinates": [-82.1389349, 39.320613], "type": "Point"}, "id": "c293nMBnaPE_T3KE79QONS6iG9Q=", "properties": {"@source_uri": "https://tools.usps.com/UspsToolsRestServices/rest/POLocator/findLocations", "@spider": "usps_collection_boxes", "addr:city": "ATHENS", "addr:country": "US", "addr:postcode": "45701", "addr:state": "OH", "addr:street_address": "793 W UNION ST", "amenity": "post_box", "collection_times": "Mo-Sa 12:00", "nsi_id": "unitedstatespostalservice-a77078", "operator": "United States Postal Service", "operator:short": "USPS", "operator:type": "public", "operator:wikidata": "Q668687", "ref": "4570100056"}, "type": "Feature"}
{"geometry": {"coordinates": [-82.1113805, 39.336713], "type": "Point"}, "id": "LkmJdkTzFEROFLZa_QEBfLfCd-M=", "properties": {"@source_uri": "https://tools.usps.com/UspsToolsRestServices/rest/POLocator/findLocations", "@spider": "usps_collection_boxes", "addr:city": "ATHENS", "addr:country": "US", "addr:postcode": "45701", "addr:state": "OH", "addr:street_address": "95 CENTRAL AVE", "amenity": "post_box", "collection_times": "Mo-Sa 13:00", "note": "ON 12/24 AND 12/31, THIS BOX MAY BE COLLECTED AS EARLY AS 12 NOON.", "nsi_id": "unitedstatespostalservice-a77078", "operator": "United States Postal Service", "operator:short": "USPS", "operator:type": "public", "operator:wikidata": "Q668687", "ref": "4570100057"}, "type": "Feature"}
{"geometry": {"coordinates": [-82.0941244, 39.332243], "type": "Point"}, "id": "FQaQ69cwAcpcrrJsr1iDAEYww5I=", "properties": {"@source_uri": "https://tools.usps.com/UspsToolsRestServices/rest/POLocator/findLocations", "@spider": "usps_collection_boxes", "addr:city": "ATHENS", "addr:country": "US", "addr:postcode": "45701", "addr:state": "OH", "addr:street_address": "5 W STIMSON AVE", "amenity": "post_box", "collection_times": "Mo-Fr 17:15; Sa 16:00", "indoor": "yes", "note": "ON 12/24 AND 12/31, THIS BOX MAY BE COLLECTED AS EARLY AS 12 NOON.", "nsi_id": "unitedstatespostalservice-a77078", "operator": "United States Postal Service", "operator:short": "USPS", "operator:type": "public", "operator:wikidata": "Q668687", "ref": "4570100058"}, "type": "Feature"}
{"geometry": {"coordinates": [-82.0563481, 39.336625], "type": "Point"}, "id": "Xnc3JM_GfK9DgxvlrV8sJNTkev4=", "properties": {"@source_uri": "https://tools.usps.com/UspsToolsRestServices/rest/POLocator/findLocations", "@spider": "usps_collection_boxes", "addr:city": "ATHENS", "addr:country": "US", "addr:postcode": "45701", "addr:state": "OH", "addr:street_address": "1006 E STATE ST", "amenity": "post_box", "collection_times": "Mo-Sa 09:00", "nsi_id": "unitedstatespostalservice-a77078", "operator": "United States Postal Service", "operator:short": "USPS", "operator:type": "public", "operator:wikidata": "Q668687", "ref": "4570100059"}, "type": "Feature"}
{"geometry": {"coordinates": [-82.066168, 39.335967], "type": "Point"}, "id": "iWFiiz-ITSCe8AtwgWDrPGxKvX4=", "properties": {"@source_uri": "https://tools.usps.com/UspsToolsRestServices/rest/POLocator/findLocations", "@spider": "usps_collection_boxes", "addr:city": "ATHENS", "addr:country": "US", "addr:postcode": "45701", "addr:state": "OH", "addr:street_address": "929 E STATE ST", "amenity": "post_box", "collection_times": "Mo-Fr 13:00; Sa 10:00", "note": "ON 12/24 AND 12/31, THIS BOX MAY BE COLLECTED AS EARLY AS 12 NOON.", "nsi_id": "unitedstatespostalservice-a77078", "operator": "United States Postal Service", "operator:short": "USPS", "operator:type": "public", "operator:wikidata": "Q668687", "ref": "4570100061"}, "type": "Feature"}
{"geometry": {"coordinates": [-82.1148347, 39.334629], "type": "Point"}, "id": "TCVhu8KVqufLzvZ0wW0uJXHyj50=", "properties": {"@source_uri": "https://tools.usps.com/UspsToolsRestServices/rest/POLocator/findLocations", "@spider": "usps_collection_boxes", "addr:city": "ATHENS", "addr:country": "US", "addr:postcode": "45701", "addr:state": "OH", "addr:street_address": "340 W STATE ST", "amenity": "post_box", "collection_times": "Mo-Sa 09:30", "nsi_id": "unitedstatespostalservice-a77078", "operator": "United States Postal Service", "operator:short": "USPS", "operator:type": "public", "operator:wikidata": "Q668687", "ref": "4570100062"}, "type": "Feature"}
{"geometry": {"coordinates": [-82.0391352, 39.226426], "type": "Point"}, "id": "NpNW7mU4RvhDcBoqUeliuOAGLFk=", "properties": {"@source_uri": "https://tools.usps.com/UspsToolsRestServices/rest/POLocator/findLocations", "@spider": "usps_collection_boxes", "addr:city": "ATHENS", "addr:country": "US", "addr:postcode": "45701", "addr:state": "OH", "addr:street_address": "2280 STATE ROUTE 33", "amenity": "post_box", "collection_times": "Mo-Sa 11:00", "nsi_id": "unitedstatespostalservice-a77078", "operator": "United States Postal Service", "operator:short": "USPS", "operator:type": "public", "operator:wikidata": "Q668687", "ref": "4570100063"}, "type": "Feature"}
{"geometry": {"coordinates": [-82.073394879, 39.33722176], "type": "Point"}, "id": "IKPyrbsCeXQrWkXNPOQJxHsp78c=", "properties": {"@source_uri": "https://tools.usps.com/UspsToolsRestServices/rest/POLocator/findLocations", "@spider": "usps_collection_boxes", "addr:city": "ATHENS", "addr:country": "US", "addr:postcode": "45701", "addr:state": "OH", "addr:street_address": "743 E STATE ST", "amenity": "post_box", "collection_times": "Mo-Fr 13:00; Sa 09:45", "note": "ON 12/24 AND 12/31, THIS BOX MAY BE COLLECTED AS EARLY AS 12 NOON.", "nsi_id": "unitedstatespostalservice-a77078", "operator": "United States Postal Service", "operator:short": "USPS", "operator:type": "public", "operator:wikidata": "Q668687", "ref": "4570100064"}, "type": "Feature"}
{"geometry": {"coordinates": [-82.0946113535, 39.3323055617], "type": "Point"}, "id": "kyBaqciE66CasKifkB9vFubrJXU=", "properties": {"@source_uri": "https://tools.usps.com/UspsToolsRestServices/rest/POLocator/findLocations", "@spider": "usps_collection_boxes", "addr:city": "ATHENS", "addr:country": "US", "addr:postcode": "45701", "addr:state": "OH", "addr:street_address": "5 W STIMSON AVE", "amenity": "post_box", "collection_times": "Mo-Fr 16:30; Sa 12:30", "indoor": "yes", "note": "ON 12/24 AND 12/31, THIS BOX MAY BE COLLECTED AS EARLY AS 12 NOON.", "nsi_id": "unitedstatespostalservice-a77078", "operator": "United States Postal Service", "operator:short": "USPS", "operator:type": "public", "operator:wikidata": "Q668687", "ref": "4570100069"}, "type": "Feature"}
{"geometry": {"coordinates": [-82.202698693, 39.228412317], "type": "Point"}, "id": "2VwyBBjYoZNjp5nXB_DSFsNhSFQ=", "properties": {"@source_uri": "https://tools.usps.com/UspsToolsRestServices/rest/POLocator/findLocations", "@spider": "usps_collection_boxes", "addr:city": "ALBANY", "addr:country": "US", "addr:postcode": "45710", "addr:state": "OH", "addr:street_address": "5303 WASHINGTON RD", "amenity": "post_box", "collection_times": "Mo-Fr 16:30; Sa 11:30", "note": "ON 12/24 AND 12/31, THIS BOX MAY BE COLLECTED AS EARLY AS 12 NOON.", "nsi_id": "unitedstatespostalservice-a77078", "operator": "United States Postal Service", "operator:short": "USPS", "operator:type": "public", "operator:wikidata": "Q668687", "ref": "4571000000"}, "type": "Feature"}
{"geometry": {"coordinates": [-82.202698693, 39.228412317], "type": "Point"}, "id": "_BZ051xyfdBkjeK0tZz55WADLBA=", "properties": {"@source_uri": "https://tools.usps.com/UspsToolsRestServices/rest/POLocator/findLocations", "@spider": "usps_collection_boxes", "addr:city": "ALBANY", "addr:country": "US", "addr:postcode": "45710", "addr:state": "OH", "addr:street_address": "5303 WASHINGTON RD", "amenity": "post_box", "collection_times": "Mo-Fr 16:30; Sa 11:30", "indoor": "yes", "note": "ON 12/24 AND 12/31, THIS BOX MAY BE COLLECTED AS EARLY AS 12 NOON.", "nsi_id": "unitedstatespostalservice-a77078", "operator": "United States Postal Service", "operator:short": "USPS", "operator:type": "public", "operator:wikidata": "Q668687", "ref": "4571000001"}, "type": "Feature"}
{"geometry": {"coordinates": [-82.202698693, 39.228412317], "type": "Point"}, "id": "gsO0bwyyLI-to_P9fu8gr_TR3BE=", "properties": {"@source_uri": "https://tools.usps.com/UspsToolsRestServices/rest/POLocator/findLocations", "@spider": "usps_collection_boxes", "addr:city": "ALBANY", "addr:country": "US", "addr:postcode": "45710", "addr:state": "OH", "addr:street_address": "5303 WASHINGTON RD", "amenity": "post_box", "collection_times": "Mo-Fr 16:30; Sa 11:30", "indoor": "yes", "note": "ON 12/24 AND 12/31, THIS BOX MAY BE COLLECTED AS EARLY AS 12 NOON.", "nsi_id": "unitedstatespostalservice-a77078", "operator": "United States Postal Service", "operator:short": "USPS", "operator:type": "public", "operator:wikidata": "Q668687", "ref": "4571000008"}, "type": "Feature"}
{"geometry": {"coordinates": [-81.955536386, 39.400456096], "type": "Point"}, "id": "r65q7yFp2QRPkuYrDWXbwFcm0e0=", "properties": {"@source_uri": "https://tools.usps.com/UspsToolsRestServices/rest/POLocator/findLocations", "@spider": "usps_collection_boxes", "addr:city": "AMESVILLE", "addr:country": "US", "addr:postcode": "45711", "addr:state": "OH", "addr:street_address": "20 STATE ST", "amenity": "post_box", "collection_times": "Mo-Fr 16:00; Sa 10:00", "note": "ON 12/24 AND 12/31, THIS BOX MAY BE COLLECTED AS EARLY AS 12 NOON.", "nsi_id": "unitedstatespostalservice-a77078", "operator": "United States Postal Service", "operator:short": "USPS", "operator:type": "public", "operator:wikidata": "Q668687", "ref": "4571100000"}, "type": "Feature"}
{"geometry": {"coordinates": [-81.955536386, 39.400456096], "type": "Point"}, "id": "2WZAvaTs1yrJRtX_B7vs5GXv3cQ=", "properties": {"@source_uri": "https://tools.usps.com/UspsToolsRestServices/rest/POLocator/findLocations", "@spider": "usps_collection_boxes", "addr:city": "AMESVILLE", "addr:country": "US", "addr:postcode": "45711", "addr:state": "OH", "addr:street_address": "20 STATE ST", "amenity": "post_box", "collection_times": "Mo-Fr 16:00; Sa 10:00", "indoor": "yes", "note": "ON 12/24 AND 12/31, THIS BOX MAY BE COLLECTED AS EARLY AS 12 NOON.", "nsi_id": "unitedstatespostalservice-a77078", "operator": "United States Postal Service", "operator:short": "USPS", "operator:type": "public", "operator:wikidata": "Q668687", "ref": "4571100001"}, "type": "Feature"}
{"geometry": {"coordinates": [-81.955536386, 39.400456096], "type": "Point"}, "id": "MZDH_tZ2AxAsAvjjj4KJndKPtVc=", "properties": {"@source_uri": "https://tools.usps.com/UspsToolsRestServices/rest/POLocator/findLocations", "@spider": "usps_collection_boxes", "addr:city": "AMESVILLE", "addr:country": "US", "addr:postcode": "45711", "addr:state": "OH", "addr:street_address": "20 STATE ST", "amenity": "post_box", "collection_times": "Mo-Fr 16:15; Sa 12:00", "indoor": "yes", "note": "ON 12/24 AND 12/31, THIS BOX MAY BE COLLECTED AS EARLY AS 12 NOON.", "nsi_id": "unitedstatespostalservice-a77078", "operator": "United States Postal Service", "operator:short": "USPS", "operator:type": "public", "operator:wikidata": "Q668687", "ref": "4571100004"}, "type": "Feature"}
{"geometry": {"coordinates": [-81.817635392, 39.419592317], "type": "Point"}, "id": "kdQDGwuDO1ngHQnrno4h9JVYU7s=", "properties": {"@source_uri": "https://tools.usps.com/UspsToolsRestServices/rest/POLocator/findLocations", "@spider": "usps_collection_boxes", "addr:city": "BARTLETT", "addr:country": "US", "addr:postcode": "45713", "addr:state": "OH", "addr:street_address": "1 MAIN ST", "amenity": "post_box", "collection_times": "Mo-Fr 11:30; Sa 10:15", "nsi_id": "unitedstatespostalservice-a77078", "operator": "United States Postal Service", "operator:short": "USPS", "operator:type": "public", "operator:wikidata": "Q668687", "ref": "4571300000"}, "type": "Feature"}
{"geometry": {"coordinates": [-81.817635392, 39.419592317], "type": "Point"}, "id": "B20RY4rHWAlxgOREPNJO6zOAeXI=", "properties": {"@source_uri": "https://tools.usps.com/UspsToolsRestServices/rest/POLocator/findLocations", "@spider": "usps_collection_boxes", "addr:city": "BARTLETT", "addr:country": "US", "addr:postcode": "45713", "addr:state": "OH", "addr:street_address": "1 MAIN ST", "amenity": "post_box", "collection_times": "Mo-Fr 11:30; Sa 10:15", "indoor": "yes", "nsi_id": "unitedstatespostalservice-a77078", "operator": "United States Postal Service", "operator:short": "USPS", "operator:type": "public", "operator:wikidata": "Q668687", "ref": "4571300001"}, "type": "Feature"}
{"geometry": {"coordinates": [-81.817635392, 39.419592317], "type": "Point"}, "id": "9Rc6q244eDiyZKgpSAEiRZKE82s=", "properties": {"@source_uri": "https://tools.usps.com/UspsToolsRestServices/rest/POLocator/findLocations", "@spider": "usps_collection_boxes", "addr:city": "BARTLETT", "addr:country": "US", "addr:postcode": "45713", "addr:state": "OH", "addr:street_address": "1 MAIN ST", "amenity": "post_box", "collection_times": "Mo-Fr 12:00; Sa 10:15", "indoor": "yes", "nsi_id": "unitedstatespostalservice-a77078", "operator": "United States Postal Service", "operator:short": "USPS", "operator:type": "public", "operator:wikidata": "Q668687", "ref": "4571300003"}, "type": "Feature"}
{"geometry": {"coordinates": [-81.582379301, 39.274064951], "type": "Point"}, "id": "VetSXWwHVPnmsqCNZPjD_GTyqUE=", "properties": {"@source_uri": "https://tools.usps.com/UspsToolsRestServices/rest/POLocator/findLocations", "@spider": "usps_collection_boxes", "addr:city": "BELPRE", "addr:country": "US", "addr:postcode": "45714", "addr:state": "OH", "addr:street_address": "1105 WASHINGTON BLVD", "amenity": "post_box", "collection_times": "Mo-Sa 16:00", "note": "ON 12/24 AND 12/31, THIS BOX MAY BE COLLECTED AS EARLY AS 12 NOON.", "nsi_id": "unitedstatespostalservice-a77078", "operator": "United States Postal Service", "operator:short": "USPS", "operator:type": "public", "operator:wikidata": "Q668687", "ref": "4571400001"}, "type": "Feature"}
{"geometry": {"coordinates": [-81.5790757, 39.273473], "type": "Point"}, "id": "Fi3-iRNs4aoYABHYPxjfamV5NdI=", "properties": {"@source_uri": "https://tools.usps.com/UspsToolsRestServices/rest/POLocator/findLocations", "@spider": "usps_collection_boxes", "addr:city": "BELPRE", "addr:country": "US", "addr:postcode": "45714", "addr:state": "OH", "addr:street_address": "712 WASHINGTON BLVD", "amenity": "post_box", "collection_times": "Mo-Sa 10:00", "nsi_id": "unitedstatespostalservice-a77078", "operator": "United States Postal Service", "operator:short": "USPS", "operator:type": "public", "operator:wikidata": "Q668687", "ref": "4571400002"}, "type": "Feature"}
{"geometry": {"coordinates": [-81.6002428, 39.276851], "type": "Point"}, "id": "l1Smh9U4msglstvUvMXrVuJBRH4=", "properties": {"@source_uri": "https://tools.usps.com/UspsToolsRestServices/rest/POLocator/findLocations", "@spider": "usps_collection_boxes", "addr:city": "BELPRE", "addr:country": "US", "addr:postcode": "45714", "addr:state": "OH", "addr:street_address": "1902 WASHINGTON BLVD", "amenity": "post_box", "collection_times": "Mo-Sa 11:00", "nsi_id": "unitedstatespostalservice-a77078", "operator": "United States Postal Service", "operator:short": "USPS", "operator:type": "public", "operator:wikidata": "Q668687", "ref": "4571400003"}, "type": "Feature"}
{"geometry": {"coordinates": [-81.569466, 39.274723], "type": "Point"}, "id": "h3QKpJloy0V1ASh6vqugFkbCfqU=", "properties": {"@source_uri": "https://tools.usps.com/UspsToolsRestServices/rest/POLocator/findLocations", "@spider": "usps_collection_boxes", "addr:city": "BELPRE", "addr:country": "US", "addr:postcode": "45714", "addr:state": "OH", "addr:street_address": "309 MAIN ST", "amenity": "post_box", "collection_times": "Mo-Fr 09:30", "nsi_id": "unitedstatespostalservice-a77078", "operator": "United States Postal Service", "operator:short": "USPS", "operator:type": "public", "operator:wikidata": "Q668687", "ref": "4571400007"}, "type": "Feature"}
{"geometry": {"coordinates": [-81.582379301, 39.274064951], "type": "Point"}, "id": "nQ-ySUwZzNd96gs_GtMyxJ5GiU0=", "properties": {"@source_uri": "https://tools.usps.com/UspsToolsRestServices/rest/POLocator/findLocations", "@spider": "usps_collection_boxes", "addr:city": "BELPRE", "addr:country": "US", "addr:postcode": "45714", "addr:state": "OH", "addr:street_address": "1105 WASHINGTON BLVD", "amenity": "post_box", "collection_times": "Mo-Sa 16:00", "indoor": "yes", "note": "ON 12/24 AND 12/31, THIS BOX MAY BE COLLECTED AS EARLY AS 12 NOON.", "nsi_id": "unitedstatespostalservice-a77078", "operator": "United States Postal Service", "operator:short": "USPS", "operator:type": "public", "operator:wikidata": "Q668687", "ref": "4571400014"}, "type": "Feature"}
{"geometry": {"coordinates": [-81.582379301, 39.274064951], "type": "Point"}, "id": "nCtAWCg-g_OCkUZUf-bdqPQVfwc=", "properties": {"@source_uri": "https://tools.usps.com/UspsToolsRestServices/rest/POLocator/findLocations", "@spider": "usps_collection_boxes", "addr:city": "BELPRE", "addr:country": "US", "addr:postcode": "45714", "addr:state": "OH", "addr:street_address": "1105 WASHINGTON BLVD", "amenity": "post_box", "collection_times": "Mo-Fr 16:30; Sa 12:30", "indoor": "yes", "note": "ON 12/24 AND 12/31, THIS BOX MAY BE COLLECTED AS EARLY AS 12 NOON.", "nsi_id": "unitedstatespostalservice-a77078", "operator": "United States Postal Service", "operator:short": "USPS", "operator:type": "public", "operator:wikidata": "Q668687", "ref": "4571400019"}, "type": "Feature"}
{"geometry": {"coordinates": [-81.63332, 39.548024], "type": "Point"}, "id": "cBvs0ZpMNNsmga7_lVgyu-Pn-uw=", "properties": {"@source_uri": "https://tools.usps.com/UspsToolsRestServices/rest/POLocator/findLocations", "@spider": "usps_collection_boxes", "addr:city": "BEVERLY", "addr:country": "US", "addr:postcode": "45715", "addr:state": "OH", "addr:street_address": "409 5TH ST", "amenity": "post_box", "collection_times": "Mo-Fr 16:00; Sa 11:15", "indoor": "yes", "note": "ON 12/24 AND 12/31, THIS BOX MAY BE COLLECTED AS EARLY AS 12 NOON.", "nsi_id": "unitedstatespostalservice-a77078", "operator": "United States Postal Service", "operator:short": "USPS", "operator:type": "public", "operator:wikidata": "Q668687", "ref": "4571500001"}, "type": "Feature"}
{"geometry": {"coordinates": [-81.63332, 39.548025], "type": "Point"}, "id": "nQ_zBcQo6SxZrcEA4BOofDot1h8=", "properties": {"@source_uri": "https://tools.usps.com/UspsToolsRestServices/rest/POLocator/findLocations", "@spider": "usps_collection_boxes", "addr:city": "BEVERLY", "addr:country": "US", "addr:postcode": "45715", "addr:state": "OH", "addr:street_address": "409 5TH ST", "amenity": "post_box", "collection_times": "Mo-Fr 16:00; Sa 11:15", "note": "ON 12/24 AND 12/31, THIS BOX MAY BE COLLECTED AS EARLY AS 12 NOON.", "nsi_id": "unitedstatespostalservice-a77078", "operator": "United States Postal Service", "operator:short": "USPS", "operator:type": "public", "operator:wikidata": "Q668687", "ref": "4571500004"}, "type": "Feature"}
{"geometry": {"coordinates": [-81.633367099, 39.548050168], "type": "Point"}, "id": "_fHolb22dIa056JlsJ9pnAumu7o=", "properties": {"@source_uri": "https://tools.usps.com/UspsToolsRestServices/rest/POLocator/findLocations", "@spider": "usps_collection_boxes", "addr:city": "BEVERLY", "addr:country": "US", "addr:postcode": "45715", "addr:state": "OH", "addr:street_address": "409 1/2 5TH ST", "amenity": "post_box", "collection_times": "Mo-Fr 16:00; Sa 11:30", "indoor": "yes", "note": "ON 12/24 AND 12/31, THIS BOX MAY BE COLLECTED AS EARLY AS 12 NOON.", "nsi_id": "unitedstatespostalservice-a77078", "operator": "United States Postal Service", "operator:short": "USPS", "operator:type": "public", "operator:wikidata": "Q668687", "ref": "4571500009"}, "type": "Feature"}
{"geometry": {"coordinates": [-82.187497817, 39.459917462], "type": "Point"}, "id": "FNPjcAhORRprEEU00wSCh58myCc=", "properties": {"@source_uri": "https://tools.usps.com/UspsToolsRestServices/rest/POLocator/findLocations", "@spider": "usps_collection_boxes", "addr:city": "BUCHTEL", "addr:country": "US", "addr:postcode": "45716", "addr:state": "OH", "addr:street_address": "17505 2ND ST", "amenity": "post_box", "collection_times": "Mo-Fr 15:45; Sa 10:15", "note": "ON 12/24 AND 12/31, THIS BOX MAY BE COLLECTED AS EARLY AS 12 NOON.", "nsi_id": "unitedstatespostalservice-a77078", "operator": "United States Postal Service", "operator:short": "USPS", "operator:type": "public", "operator:wikidata": "Q668687", "ref": "4571600000"}, "type": "Feature"}
{"geometry": {"coordinates": [-82.187497817, 39.459917462], "type": "Point"}, "id": "aBgeKNxqxHSPnC3w_kL9QEdpx0I=", "properties": {"@source_uri": "https://tools.usps.com/UspsToolsRestServices/rest/POLocator/findLocations", "@spider": "usps_collection_boxes", "addr:city": "BUCHTEL", "addr:country": "US", "addr:postcode": "45716", "addr:state": "OH", "addr:street_address": "17505 2ND ST", "amenity": "post_box", "collection_times": "Mo-Fr 15:45; Sa 10:15", "indoor": "yes", "note": "ON 12/24 AND 12/31, THIS BOX MAY BE COLLECTED AS EARLY AS 12 NOON.", "nsi_id": "unitedstatespostalservice-a77078", "operator": "United States Postal Service", "operator:short": "USPS", "operator:type": "public", "operator:wikidata": "Q668687", "ref": "4571600001"}, "type": "Feature"}
{"geometry": {"coordinates": [-82.187497817, 39.459917462], "type": "Point"}, "id": "DqPtw9fxd_opiNwIPPrGmkQ_IVA=", "properties": {"@source_uri": "https://tools.usps.com/UspsToolsRestServices/rest/POLocator/findLocations", "@spider": "usps_collection_boxes", "addr:city": "BUCHTEL", "addr:country": "US", "addr:postcode": "45716", "addr:state": "OH", "addr:street_address": "17505 2ND ST", "amenity": "post_box", "collection_times": "Mo-Fr 16:00; Sa 11:30", "indoor": "yes", "note": "ON 12/24 AND 12/31, THIS BOX MAY BE COLLECTED AS EARLY AS 12 NOON.", "nsi_id": "unitedstatespostalservice-a77078", "operator": "United States Postal Service", "operator:short": "USPS", "operator:type": "public", "operator:wikidata": "Q668687", "ref": "4571600003"}, "type": "Feature"}
{"geometry": {"coordinates": [-82.128025739, 39.399282671], "type": "Point"}, "id": "-A_XG3KAykxNio5K7eJk2OmuXPc=", "properties": {"@source_uri": "https://tools.usps.com/UspsToolsRestServices/rest/POLocator/findLocations", "@spider": "usps_collection_boxes", "addr:city": "CHAUNCEY", "addr:country": "US", "addr:postcode": "45719", "addr:state": "OH", "addr:street_address": "23 SYCAMORE ST", "amenity": "post_box", "collection_times": "Mo-Fr 10:30; Sa 10:15", "nsi_id": "unitedstatespostalservice-a77078", "operator": "United States Postal Service", "operator:short": "USPS", "operator:type": "public", "operator:wikidata": "Q668687", "ref": "4571900000"}, "type": "Feature"}
{"geometry": {"coordinates": [-82.128025739, 39.399282671], "type": "Point"}, "id": "3r-hsk6I9fkGOyu2mvNoKeI4bms=", "properties": {"@source_uri": "https://tools.usps.com/UspsToolsRestServices/rest/POLocator/findLocations", "@spider": "usps_collection_boxes", "addr:city": "CHAUNCEY", "addr:country": "US", "addr:postcode": "45719", "addr:state": "OH", "addr:street_address": "23 SYCAMORE ST", "amenity": "post_box", "collection_times": "Mo-Fr 10:30; Sa 10:15", "indoor": "yes", "nsi_id": "unitedstatespostalservice-a77078", "operator": "United States Postal Service", "operator:short": "USPS", "operator:type": "public", "operator:wikidata": "Q668687", "ref": "4571900001"}, "type": "Feature"}
{"geometry": {"coordinates": [-82.128025739, 39.399282671], "type": "Point"}, "id": "SOk5LUovJuY_tMRysyDUT-FPuxA=", "properties": {"@source_uri": "https://tools.usps.com/UspsToolsRestServices/rest/POLocator/findLocations", "@spider": "usps_collection_boxes", "addr:city": "CHAUNCEY", "addr:country": "US", "addr:postcode": "45719", "addr:state": "OH", "addr:street_address": "23 SYCAMORE ST", "amenity": "post_box", "collection_times": "Mo-Fr 11:00; Sa 10:30", "indoor": "yes", "nsi_id": "unitedstatespostalservice-a77078", "operator": "United States Postal Service", "operator:short": "USPS", "operator:type": "public", "operator:wikidata": "Q668687", "ref": "4571900003"}, "type": "Feature"}
{"geometry": {"coordinates": [-81.922068, 39.087756], "type": "Point"}, "id": "X6d68ur9GTXjGlMUtOr_GnbklrE=", "properties": {"@source_uri": "https://tools.usps.com/UspsToolsRestServices/rest/POLocator/findLocations", "@spider": "usps_collection_boxes", "addr:city": "CHESTER", "addr:country": "US", "addr:postcode": "45720", "addr:state": "OH", "addr:street_address": "46416 STATE ROUTE 248", "amenity": "post_box", "collection_times": "Mo-Fr 11:00; Sa 10:15", "nsi_id": "unitedstatespostalservice-a77078", "operator": "United States Postal Service", "operator:short": "USPS", "operator:type": "public", "operator:wikidata": "Q668687", "ref": "4572000000"}, "type": "Feature"}
{"geometry": {"coordinates": [-81.922246, 39.087747], "type": "Point"}, "id": "pi3Cm0S5on5UX66XYfMcCTlh4To=", "properties": {"@source_uri": "https://tools.usps.com/UspsToolsRestServices/rest/POLocator/findLocations", "@spider": "usps_collection_boxes", "addr:city": "CHESTER", "addr:country": "US", "addr:postcode": "45720", "addr:state": "OH", "addr:street_address": "46416 STATE ROUTE 248", "amenity": "post_box", "collection_times": "Mo-Fr 11:00; Sa 10:15", "indoor": "yes", "nsi_id": "unitedstatespostalservice-a77078", "operator": "United States Postal Service", "operator:short": "USPS", "operator:type": "public", "operator:wikidata": "Q668687", "ref": "4572000001"}, "type": "Feature"}
{"geometry": {"coordinates": [-81.922114334, 39.087795659], "type": "Point"}, "id": "6hUbu4OeDpxLLKjttAhrDHg0i48=", "properties": {"@source_uri": "https://tools.usps.com/UspsToolsRestServices/rest/POLocator/findLocations", "@spider": "usps_collection_boxes", "addr:city": "CHESTER", "addr:country": "US", "addr:postcode": "45720", "addr:state": "OH", "addr:street_address": "46416 STATE ROUTE 248 UNIT B", "amenity": "post_box", "collection_times": "Mo-Fr 11:30; Sa 10:30", "indoor": "yes", "nsi_id": "unitedstatespostalservice-a77078", "operator": "United States Postal Service", "operator:short": "USPS", "operator:type": "public", "operator:wikidata": "Q668687", "ref": "4572000003"}, "type": "Feature"}
{"geometry": {"coordinates": [-81.800148233, 39.220333158], "type": "Point"}, "id": "zARNWP4mc6EC41rrdLxsJrhY6eE=", "properties": {"@source_uri": "https://tools.usps.com/UspsToolsRestServices/rest/POLocator/findLocations", "@spider": "usps_collection_boxes", "addr:city": "COOLVILLE", "addr:country": "US", "addr:postcode": "45723", "addr:state": "OH", "addr:street_address": "26141 MAIN ST", "amenity": "post_box", "collection_times": "Mo-Fr 16:00; Sa 10:45", "note": "ON 12/24 AND 12/31, THIS BOX MAY BE COLLECTED AS EARLY AS 12 NOON.", "nsi_id": "unitedstatespostalservice-a77078", "operator": "United States Postal Service", "operator:short": "USPS", "operator:type": "public", "operator:wikidata": "Q668687", "ref": "4572300000"}, "type": "Feature"}
{"geometry": {"coordinates": [-81.8066652, 39.220327], "type": "Point"}, "id": "z-HfDfL9vCMO2uhE9G-domSTEW0=", "properties": {"@source_uri": "https://tools.usps.com/UspsToolsRestServices/rest/POLocator/findLocations", "@spider": "usps_collection_boxes", "addr:city": "COOLVILLE", "addr:country": "US", "addr:postcode": "45723", "addr:state": "OH", "addr:street_address": "25780 BRIMSTONE RD", "amenity": "post_box", "collection_times": "Mo-Sa 10:00", "nsi_id": "unitedstatespostalservice-a77078", "operator": "United States Postal Service", "operator:short": "USPS", "operator:type": "public", "operator:wikidata": "Q668687", "ref": "4572300001"}, "type": "Feature"}
{"geometry": {"coordinates": [-81.800148233, 39.220333158], "type": "Point"}, "id": "PmFfTCk_-2fiXqZ1JZOGNISJmtY=", "properties": {"@source_uri": "https://tools.usps.com/UspsToolsRestServices/rest/POLocator/findLocations", "@spider": "usps_collection_boxes", "addr:city": "COOLVILLE", "addr:country": "US", "addr:postcode": "45723", "addr:state": "OH", "addr:street_address": "26141 MAIN ST", "amenity": "post_box", "collection_times": "Mo-Fr 16:00; Sa 10:45", "indoor": "yes", "note": "ON 12/24 AND 12/31, THIS BOX MAY BE COLLECTED AS EARLY AS 12 NOON.", "nsi_id": "unitedstatespostalservice-a77078", "operator": "United States Postal Service", "operator:short": "USPS", "operator:type": "public", "operator:wikidata": "Q668687", "ref": "4572300002"}, "type": "Feature"}
{"geometry": {"coordinates": [-81.800148233, 39.220333158], "type": "Point"}, "id": "pU7svd9ssw-_mjwT8DQzHV2BT9E=", "properties": {"@source_uri": "https://tools.usps.com/UspsToolsRestServices/rest/POLocator/findLocations", "@spider": "usps_collection_boxes", "addr:city": "COOLVILLE", "addr:country": "US", "addr:postcode": "45723", "addr:state": "OH", "addr:street_address": "26141 MAIN ST", "amenity": "post_box", "collection_times": "Mo-Fr 16:00; Sa 11:00", "indoor": "yes", "note": "ON 12/24 AND 12/31, THIS BOX MAY BE COLLECTED AS EARLY AS 12 NOON.", "nsi_id": "unitedstatespostalservice-a77078", "operator": "United States Postal Service", "operator:short": "USPS", "operator:type": "public", "operator:wikidata": "Q668687", "ref": "4572300006"}, "type": "Feature"}
{"geometry": {"coordinates": [-81.789657261, 39.354728689], "type": "Point"}, "id": "LhmaI778RPTYFq7FE7_TvoFzQec=", "properties": {"@source_uri": "https://tools.usps.com/UspsToolsRestServices/rest/POLocator/findLocations", "@spider": "usps_collection_boxes", "addr:city": "CUTLER", "addr:country": "US", "addr:postcode": "45724", "addr:state": "OH", "addr:street_address": "9722 STATE ROUTE 555", "amenity": "post_box", "collection_times": "Mo-Fr 16:00; Sa 10:15", "note": "ON 12/24 AND 12/31, THIS BOX MAY BE COLLECTED AS EARLY AS 12 NOON.", "nsi_id": "unitedstatespostalservice-a77078", "operator": "United States Postal Service", "operator:short": "USPS", "operator:type": "public", "operator:wikidata": "Q668687", "ref": "4572400000"}, "type": "Feature"}
{"geometry": {"coordinates": [-81.789657261, 39.354728689], "type": "Point"}, "id": "ohkZ6KojcdATyfkj1bBUAsJnMLo=", "properties": {"@source_uri": "https://tools.usps.com/UspsToolsRestServices/rest/POLocator/findLocations", "@spider": "usps_collection_boxes", "addr:city": "CUTLER", "addr:country": "US", "addr:postcode": "45724", "addr:state": "OH", "addr:street_address": "9722 STATE ROUTE 555", "amenity": "post_box", "collection_times": "Mo-Fr 16:00; Sa 10:15", "indoor": "yes", "note": "ON 12/24 AND 12/31, THIS BOX MAY BE COLLECTED AS EARLY AS 12 NOON.", "nsi_id": "unitedstatespostalservice-a77078", "operator": "United States Postal Service", "operator:short": "USPS", "operator:type": "public", "operator:wikidata": "Q668687", "ref": "4572400001"}, "type": "Feature"}
{"geometry": {"coordinates": [-81.789657261, 39.354728689], "type": "Point"}, "id": "5E51JN7w_UjgODbEhxJqEvYWQC8=", "properties": {"@source_uri": "https://tools.usps.com/UspsToolsRestServices/rest/POLocator/findLocations", "@spider": "usps_collection_boxes", "addr:city": "CUTLER", "addr:country": "US", "addr:postcode": "45724", "addr:state": "OH", "addr:street_address": "9722 STATE ROUTE 555", "amenity": "post_box", "collection_times": "Mo-Fr 16:30; Sa 14:00", "indoor": "yes", "note": "ON 12/24 AND 12/31, THIS BOX MAY BE COLLECTED AS EARLY AS 12 NOON.", "nsi_id": "unitedstatespostalservice-a77078", "operator": "United States Postal Service", "operator:short": "USPS", "operator:type": "public", "operator:wikidata": "Q668687", "ref": "4572400005"}, "type": "Feature"}
{"geometry": {"coordinates": [-82.0842880113, 39.5018780183], "type": "Point"}, "id": "agZxCUlq_4FQEtB-M6E4XD212L4=", "properties": {"@source_uri": "https://tools.usps.com/UspsToolsRestServices/rest/POLocator/findLocations", "@spider": "usps_collection_boxes", "addr:city": "GLOUSTER", "addr:country": "US", "addr:postcode": "45732", "addr:state": "OH", "addr:street_address": "55 HIGH ST", "amenity": "post_box", "collection_times": "Mo-Fr 16:00; Sa 12:00", "note": "ON 12/24 AND 12/31, THIS BOX MAY BE COLLECTED AS EARLY AS 12 NOON.", "nsi_id": "unitedstatespostalservice-a77078", "operator": "United States Postal Service", "operator:short": "USPS", "operator:type": "public", "operator:wikidata": "Q668687", "ref": "4573200000"}, "type": "Feature"}
{"geometry": {"coordinates": [-82.0874308, 39.50038], "type": "Point"}, "id": "c1vxEiY8wBCFvk2AWq0RFXmJxfA=", "properties": {"@source_uri": "https://tools.usps.com/UspsToolsRestServices/rest/POLocator/findLocations", "@spider": "usps_collection_boxes", "addr:city": "GLOUSTER", "addr:country": "US", "addr:postcode": "45732", "addr:state": "OH", "addr:street_address": "16 TOLEDO ST", "amenity": "post_box", "collection_times": "Mo-Sa 13:00", "note": "ON 12/24 AND 12/31, THIS BOX MAY BE COLLECTED AS EARLY AS 12 NOON.", "nsi_id": "unitedstatespostalservice-a77078", "operator": "United States Postal Service", "operator:short": "USPS", "operator:type": "public", "operator:wikidata": "Q668687", "ref": "4573200014"}, "type": "Feature"}
{"geometry": {"coordinates": [-82.08449673, 39.501769966], "type": "Point"}, "id": "p0x-EkNJHXcBNwewkpwNn18sH60=", "properties": {"@source_uri": "https://tools.usps.com/UspsToolsRestServices/rest/POLocator/findLocations", "@spider": "usps_collection_boxes", "addr:city": "GLOUSTER", "addr:country": "US", "addr:postcode": "45732", "addr:state": "OH", "addr:street_address": "76 HIGH ST", "amenity": "post_box", "collection_times": "Mo-Fr 16:00; Sa 12:00", "indoor": "yes", "note": "ON 12/24 AND 12/31, THIS BOX MAY BE COLLECTED AS EARLY AS 12 NOON.", "nsi_id": "unitedstatespostalservice-a77078", "operator": "United States Postal Service", "operator:short": "USPS", "operator:type": "public", "operator:wikidata": "Q668687", "ref": "4573200015"}, "type": "Feature"}
{"geometry": {"coordinates": [-82.08449673, 39.501769966], "type": "Point"}, "id": "xKuFStbPZNkaDBiUW4z792DI9a4=", "properties": {"@source_uri": "https://tools.usps.com/UspsToolsRestServices/rest/POLocator/findLocations", "@spider": "usps_collection_boxes", "addr:city": "GLOUSTER", "addr:country": "US", "addr:postcode": "45732", "addr:state": "OH", "addr:street_address": "76 HIGH ST", "amenity": "post_box", "collection_times": "Mo-Fr 16:00; Sa 12:00", "indoor": "yes", "note": "ON 12/24 AND 12/31, THIS BOX MAY BE COLLECTED AS EARLY AS 12 NOON.", "nsi_id": "unitedstatespostalservice-a77078", "operator": "United States Postal Service", "operator:short": "USPS", "operator:type": "public", "operator:wikidata": "Q668687", "ref": "4573200020"}, "type": "Feature"}
{"geometry": {"coordinates": [-81.922516639, 39.28995746], "type": "Point"}, "id": "KwoAQrjPrI0Vh5YGBNtb4IRkY2Y=", "properties": {"@source_uri": "https://tools.usps.com/UspsToolsRestServices/rest/POLocator/findLocations", "@spider": "usps_collection_boxes", "addr:city": "GUYSVILLE", "addr:country": "US", "addr:postcode": "45735", "addr:state": "OH", "addr:street_address": "6930 SAVANNAH ST", "amenity": "post_box", "collection_times": "Mo-Fr 10:30; Sa 10:15", "nsi_id": "unitedstatespostalservice-a77078", "operator": "United States Postal Service", "operator:short": "USPS", "operator:type": "public", "operator:wikidata": "Q668687", "ref": "4573500000"}, "type": "Feature"}
{"geometry": {"coordinates": [-81.922516639, 39.28995746], "type": "Point"}, "id": "pdzUO4vPP8UKIWO19xjDH6I-HXA=", "properties": {"@source_uri": "https://tools.usps.com/UspsToolsRestServices/rest/POLocator/findLocations", "@spider": "usps_collection_boxes", "addr:city": "GUYSVILLE", "addr:country": "US", "addr:postcode": "45735", "addr:state": "OH", "addr:street_address": "6930 SAVANNAH ST", "amenity": "post_box", "collection_times": "Mo-Fr 10:30; Sa 10:15", "indoor": "yes", "nsi_id": "unitedstatespostalservice-a77078", "operator": "United States Postal Service", "operator:short": "USPS", "operator:type": "public", "operator:wikidata": "Q668687", "ref": "4573500001"}, "type": "Feature"}
{"geometry": {"coordinates": [-81.922516639, 39.28995746], "type": "Point"}, "id": "wjeO2r4oqD1neihulGo4WSslzmo=", "properties": {"@source_uri": "https://tools.usps.com/UspsToolsRestServices/rest/POLocator/findLocations", "@spider": "usps_collection_boxes", "addr:city": "GUYSVILLE", "addr:country": "US", "addr:postcode": "45735", "addr:state": "OH", "addr:street_address": "6930 SAVANNAH ST", "amenity": "post_box", "collection_times": "Mo-Fr 13:00; Sa 12:30", "indoor": "yes", "note": "ON 12/24 AND 12/31, THIS BOX MAY BE COLLECTED AS EARLY AS 12 NOON.", "nsi_id": "unitedstatespostalservice-a77078", "operator": "United States Postal Service", "operator:short": "USPS", "operator:type": "public", "operator:wikidata": "Q668687", "ref": "4573500005"}, "type": "Feature"}
{"geometry": {"coordinates": [-81.745297, 39.190799], "type": "Point"}, "id": "Jh_hZqeyQympEqPspl-swC8YWwY=", "properties": {"@source_uri": "https://tools.usps.com/UspsToolsRestServices/rest/POLocator/findLocations", "@spider": "usps_collection_boxes", "addr:city": "HOCKINGPORT", "addr:country": "US", "addr:postcode": "45739", "addr:state": "OH", "addr:street_address": "699 RIVERFRONT RD", "amenity": "post_box", "collection_times": "Mo-Fr 12:45; Sa 13:30", "note": "ON 12/24 AND 12/31, THIS BOX MAY BE COLLECTED AS EARLY AS 12 NOON.", "nsi_id": "unitedstatespostalservice-a77078", "operator": "United States Postal Service", "operator:short": "USPS", "operator:type": "public", "operator:wikidata": "Q668687", "ref": "4573900000"}, "type": "Feature"}
{"geometry": {"coordinates": [-81.745297, 39.190799], "type": "Point"}, "id": "wbDl4OjYI2hKbXdIwkQ2U_XxA64=", "properties": {"@source_uri": "https://tools.usps.com/UspsToolsRestServices/rest/POLocator/findLocations", "@spider": "usps_collection_boxes", "addr:city": "HOCKINGPORT", "addr:country": "US", "addr:postcode": "45739", "addr:state": "OH", "addr:street_address": "699 RIVERFRONT RD", "amenity": "post_box", "collection_times": "Mo-Fr 12:45; Sa 13:30", "indoor": "yes", "note": "ON 12/24 AND 12/31, THIS BOX MAY BE COLLECTED AS EARLY AS 12 NOON.", "nsi_id": "unitedstatespostalservice-a77078", "operator": "United States Postal Service", "operator:short": "USPS", "operator:type": "public", "operator:wikidata": "Q668687", "ref": "4573900001"}, "type": "Feature"}
{"geometry": {"coordinates": [-81.7452024986, 39.190479181], "type": "Point"}, "id": "5x-ptxbF9HsL4OV4qliFg1JkoUA=", "properties": {"@source_uri": "https://tools.usps.com/UspsToolsRestServices/rest/POLocator/findLocations", "@spider": "usps_collection_boxes", "addr:city": "HOCKINGPORT", "addr:country": "US", "addr:postcode": "45739", "addr:state": "OH", "addr:street_address": "699 STATE ROUTE 124", "amenity": "post_box", "collection_times": "Mo-Sa 14:30", "indoor": "yes", "note": "ON 12/24 AND 12/31, THIS BOX MAY BE COLLECTED AS EARLY AS 12 NOON.", "nsi_id": "unitedstatespostalservice-a77078", "operator": "United States Postal Service", "operator:short": "USPS", "operator:type": "public", "operator:wikidata": "Q668687", "ref": "4573900002"}, "type": "Feature"}
{"geometry": {"coordinates": [-82.081383401, 39.474236452], "type": "Point"}, "id": "KW0mYsMqL5NBSpPbnbBIG43wJKM=", "properties": {"@source_uri": "https://tools.usps.com/UspsToolsRestServices/rest/POLocator/findLocations", "@spider": "usps_collection_boxes", "addr:city": "JACKSONVILLE", "addr:country": "US", "addr:postcode": "45740", "addr:state": "OH", "addr:street_address": "35 S 6TH ST", "amenity": "post_box", "collection_times": "Mo-Sa 10:30", "nsi_id": "unitedstatespostalservice-a77078", "operator": "United States Postal Service", "operator:short": "USPS", "operator:type": "public", "operator:wikidata": "Q668687", "ref": "4574000000"}, "type": "Feature"}
{"geometry": {"coordinates": [-82.081383401, 39.474236452], "type": "Point"}, "id": "FidVibKNvpeNPVGurELYhi3XOJQ=", "properties": {"@source_uri": "https://tools.usps.com/UspsToolsRestServices/rest/POLocator/findLocations", "@spider": "usps_collection_boxes", "addr:city": "JACKSONVILLE", "addr:country": "US", "addr:postcode": "45740", "addr:state": "OH", "addr:street_address": "35 S 6TH ST", "amenity": "post_box", "collection_times": "Mo-Sa 10:30", "indoor": "yes", "nsi_id": "unitedstatespostalservice-a77078", "operator": "United States Postal Service", "operator:short": "USPS", "operator:type": "public", "operator:wikidata": "Q668687", "ref": "4574000001"}, "type": "Feature"}
{"geometry": {"coordinates": [-82.081383401, 39.474236452], "type": "Point"}, "id": "qz1zp2g1xXTPLGvSllU4Mwc3paY=", "properties": {"@source_uri": "https://tools.usps.com/UspsToolsRestServices/rest/POLocator/findLocations", "@spider": "usps_collection_boxes", "addr:city": "JACKSONVILLE", "addr:country": "US", "addr:postcode": "45740", "addr:state": "OH", "addr:street_address": "35 S 6TH ST", "amenity": "post_box", "collection_times": "Mo-Sa 10:30", "indoor": "yes", "nsi_id": "unitedstatespostalservice-a77078", "operator": "United States Postal Service", "operator:short": "USPS", "operator:type": "public", "operator:wikidata": "Q668687", "ref": "4574000003"}, "type": "Feature"}
{"geometry": {"coordinates": [-81.699388973, 39.261392937], "type": "Point"}, "id": "5-kLkshf8_tt84sejz6ZW3sAJyg=", "properties": {"@source_uri": "https://tools.usps.com/UspsToolsRestServices/rest/POLocator/findLocations", "@spider": "usps_collection_boxes", "addr:city": "LITTLE HOCKING", "addr:country": "US", "addr:postcode": "45742", "addr:state": "OH", "addr:street_address": "3985 NEWBURY RD", "amenity": "post_box", "collection_times": "Mo-Fr 15:45; Sa 10:45", "note": "ON 12/24 AND 12/31, THIS BOX MAY BE COLLECTED AS EARLY AS 12 NOON.", "nsi_id": "unitedstatespostalservice-a77078", "operator": "United States Postal Service", "operator:short": "USPS", "operator:type": "public", "operator:wikidata": "Q668687", "ref": "4574200000"}, "type": "Feature"}
{"geometry": {"coordinates": [-81.699388973, 39.261392937], "type": "Point"}, "id": "v0w2nptge0-FgZHziK8ymA-Q86g=", "properties": {"@source_uri": "https://tools.usps.com/UspsToolsRestServices/rest/POLocator/findLocations", "@spider": "usps_collection_boxes", "addr:city": "LITTLE HOCKING", "addr:country": "US", "addr:postcode": "45742", "addr:state": "OH", "addr:street_address": "3985 NEWBURY RD", "amenity": "post_box", "collection_times": "Mo-Fr 15:45; Sa 10:45", "indoor": "yes", "note": "ON 12/24 AND 12/31, THIS BOX MAY BE COLLECTED AS EARLY AS 12 NOON.", "nsi_id": "unitedstatespostalservice-a77078", "operator": "United States Postal Service", "operator:short": "USPS", "operator:type": "public", "operator:wikidata": "Q668687", "ref": "4574200001"}, "type": "Feature"}
{"geometry": {"coordinates": [-81.699388973, 39.261392937], "type": "Point"}, "id": "n0213Ev6h3-Z-UFMgOEtCYNpMXI=", "properties": {"@source_uri": "https://tools.usps.com/UspsToolsRestServices/rest/POLocator/findLocations", "@spider": "usps_collection_boxes", "addr:city": "LITTLE HOCKING", "addr:country": "US", "addr:postcode": "45742", "addr:state": "OH", "addr:street_address": "3985 NEWBURY RD", "amenity": "post_box", "collection_times": "Mo-Fr 16:30; Sa 13:00", "indoor": "yes", "note": "ON 12/24 AND 12/31, THIS BOX MAY BE COLLECTED AS EARLY AS 12 NOON.", "nsi_id": "unitedstatespostalservice-a77078", "operator": "United States Postal Service", "operator:short": "USPS", "operator:type": "public", "operator:wikidata": "Q668687", "ref": "4574200003"}, "type": "Feature"}
{"geometry": {"coordinates": [-81.80718668, 39.084593427], "type": "Point"}, "id": "5XCLyT_6rmLg3gJh564ULagBGuo=", "properties": {"@source_uri": "https://tools.usps.com/UspsToolsRestServices/rest/POLocator/findLocations", "@spider": "usps_collection_boxes", "addr:city": "LONG BOTTOM", "addr:country": "US", "addr:postcode": "45743", "addr:state": "OH", "addr:street_address": "61462 STATE ROUTE 124", "amenity": "post_box", "collection_times": "Mo-Fr 11:00; Sa 13:00", "note": "ON 12/24 AND 12/31, THIS BOX MAY BE COLLECTED AS EARLY AS 12 NOON.", "nsi_id": "unitedstatespostalservice-a77078", "operator": "United States Postal Service", "operator:short": "USPS", "operator:type": "public", "operator:wikidata": "Q668687", "ref": "4574300000"}, "type": "Feature"}
{"geometry": {"coordinates": [-81.80718668, 39.084593427], "type": "Point"}, "id": "2f_C7QKh8VfW9oiQ4_AnnsHqz0c=", "properties": {"@source_uri": "https://tools.usps.com/UspsToolsRestServices/rest/POLocator/findLocations", "@spider": "usps_collection_boxes", "addr:city": "LONG BOTTOM", "addr:country": "US", "addr:postcode": "45743", "addr:state": "OH", "addr:street_address": "61462 STATE ROUTE 124", "amenity": "post_box", "collection_times": "Mo-Fr 11:00; Sa 13:00", "indoor": "yes", "note": "ON 12/24 AND 12/31, THIS BOX MAY BE COLLECTED AS EARLY AS 12 NOON.", "nsi_id": "unitedstatespostalservice-a77078", "operator": "United States Postal Service", "operator:short": "USPS", "operator:type": "public", "operator:wikidata": "Q668687", "ref": "4574300001"}, "type": "Feature"}
{"geometry": {"coordinates": [-81.80718668, 39.084593427], "type": "Point"}, "id": "y0cKh1RkNxUglZL_mgdCjAD4oio=", "properties": {"@source_uri": "https://tools.usps.com/UspsToolsRestServices/rest/POLocator/findLocations", "@spider": "usps_collection_boxes", "addr:city": "LONG BOTTOM", "addr:country": "US", "addr:postcode": "45743", "addr:state": "OH", "addr:street_address": "61462 STATE ROUTE 124", "amenity": "post_box", "collection_times": "Mo-Fr 11:30; Sa 13:30", "indoor": "yes", "note": "ON 12/24 AND 12/31, THIS BOX MAY BE COLLECTED AS EARLY AS 12 NOON.", "nsi_id": "unitedstatespostalservice-a77078", "operator": "United States Postal Service", "operator:short": "USPS", "operator:type": "public", "operator:wikidata": "Q668687", "ref": "4574300005"}, "type": "Feature"}
{"geometry": {"coordinates": [-81.504291976, 39.528287979], "type": "Point"}, "id": "ZAIPdAX4Gh3_zdscUS6zL1hoSWA=", "properties": {"@source_uri": "https://tools.usps.com/UspsToolsRestServices/rest/POLocator/findLocations", "@spider": "usps_collection_boxes", "addr:city": "LOWELL", "addr:country": "US", "addr:postcode": "45744", "addr:state": "OH", "addr:street_address": "203 3RD ST", "amenity": "post_box", "collection_times": "Mo-Fr 15:45; Sa 10:45", "note": "ON 12/24 AND 12/31, THIS BOX MAY BE COLLECTED AS EARLY AS 12 NOON.", "nsi_id": "unitedstatespostalservice-a77078", "operator": "United States Postal Service", "operator:short": "USPS", "operator:type": "public", "operator:wikidata": "Q668687", "ref": "4574400000"}, "type": "Feature"}
{"geometry": {"coordinates": [-81.504291976, 39.528287979], "type": "Point"}, "id": "LpO3sE6mwV6MLRQ6sr3PVfnVdqQ=", "properties": {"@source_uri": "https://tools.usps.com/UspsToolsRestServices/rest/POLocator/findLocations", "@spider": "usps_collection_boxes", "addr:city": "LOWELL", "addr:country": "US", "addr:postcode": "45744", "addr:state": "OH", "addr:street_address": "203 3RD ST", "amenity": "post_box", "collection_times": "Mo-Fr 15:45; Sa 10:45", "indoor": "yes", "note": "ON 12/24 AND 12/31, THIS BOX MAY BE COLLECTED AS EARLY AS 12 NOON.", "nsi_id": "unitedstatespostalservice-a77078", "operator": "United States Postal Service", "operator:short": "USPS", "operator:type": "public", "operator:wikidata": "Q668687", "ref": "4574400001"}, "type": "Feature"}
{"geometry": {"coordinates": [-81.504291976, 39.528287979], "type": "Point"}, "id": "cAre2E59ltfrGxWce9H-JlTHZr0=", "properties": {"@source_uri": "https://tools.usps.com/UspsToolsRestServices/rest/POLocator/findLocations", "@spider": "usps_collection_boxes", "addr:city": "LOWELL", "addr:country": "US", "addr:postcode": "45744", "addr:state": "OH", "addr:street_address": "203 3RD ST", "amenity": "post_box", "collection_times": "Mo-Fr 16:00; Sa 11:00", "indoor": "yes", "note": "ON 12/24 AND 12/31, THIS BOX MAY BE COLLECTED AS EARLY AS 12 NOON.", "nsi_id": "unitedstatespostalservice-a77078", "operator": "United States Postal Service", "operator:short": "USPS", "operator:type": "public", "operator:wikidata": "Q668687", "ref": "4574400007"}, "type": "Feature"}
{"geometry": {"coordinates": [-81.396906491, 39.561089322], "type": "Point"}, "id": "SRz6_RvAXB7DVQw_fnRVitKnhFQ=", "properties": {"@source_uri": "https://tools.usps.com/UspsToolsRestServices/rest/POLocator/findLocations", "@spider": "usps_collection_boxes", "addr:city": "LOWER SALEM", "addr:country": "US", "addr:postcode": "45745", "addr:state": "OH", "addr:street_address": "103 MAIN ST", "amenity": "post_box", "collection_times": "Mo-Fr 11:30; Sa 10:15", "nsi_id": "unitedstatespostalservice-a77078", "operator": "United States Postal Service", "operator:short": "USPS", "operator:type": "public", "operator:wikidata": "Q668687", "ref": "4574500000"}, "type": "Feature"}
{"geometry": {"coordinates": [-81.396906491, 39.561089322], "type": "Point"}, "id": "p1TVIUDJoZYw1tukyPNuJdlEDxk=", "properties": {"@source_uri": "https://tools.usps.com/UspsToolsRestServices/rest/POLocator/findLocations", "@spider": "usps_collection_boxes", "addr:city": "LOWER SALEM", "addr:country": "US", "addr:postcode": "45745", "addr:state": "OH", "addr:street_address": "103 MAIN ST", "amenity": "post_box", "collection_times": "Mo-Fr 11:30; Sa 10:15", "indoor": "yes", "nsi_id": "unitedstatespostalservice-a77078", "operator": "United States Postal Service", "operator:short": "USPS", "operator:type": "public", "operator:wikidata": "Q668687", "ref": "4574500001"}, "type": "Feature"}
{"geometry": {"coordinates": [-81.396906491, 39.561089322], "type": "Point"}, "id": "4tTYtWJUDhcJMoxgXGWKUOgG0sc=", "properties": {"@source_uri": "https://tools.usps.com/UspsToolsRestServices/rest/POLocator/findLocations", "@spider": "usps_collection_boxes", "addr:city": "LOWER SALEM", "addr:country": "US", "addr:postcode": "45745", "addr:state": "OH", "addr:street_address": "103 MAIN ST", "amenity": "post_box", "collection_times": "Mo-Fr 12:00; Sa 10:30", "indoor": "yes", "nsi_id": "unitedstatespostalservice-a77078", "operator": "United States Postal Service", "operator:short": "USPS", "operator:type": "public", "operator:wikidata": "Q668687", "ref": "4574500005"}, "type": "Feature"}
{"geometry": {"coordinates": [-81.4553659, 39.633067], "type": "Point"}, "id": "Lz2UUDRRSTaZ_FR8GW8m1Ziuti8=", "properties": {"@source_uri": "https://tools.usps.com/UspsToolsRestServices/rest/POLocator/findLocations", "@spider": "usps_collection_boxes", "addr:city": "MACKSBURG", "addr:country": "US", "addr:postcode": "45746", "addr:state": "OH", "addr:street_address": "330 SCHOOL ST", "amenity": "post_box", "collection_times": "Mo-Sa 11:00", "nsi_id": "unitedstatespostalservice-a77078", "operator": "United States Postal Service", "operator:short": "USPS", "operator:type": "public", "operator:wikidata": "Q668687", "ref": "4574600000"}, "type": "Feature"}
{"geometry": {"coordinates": [-81.454731, 39.413008], "type": "Point"}, "id": "MxBVyDwVHjTmaZB_20R36ENeWRQ=", "properties": {"@source_uri": "https://tools.usps.com/UspsToolsRestServices/rest/POLocator/findLocations", "@spider": "usps_collection_boxes", "addr:city": "MARIETTA", "addr:country": "US", "addr:postcode": "45750", "addr:state": "OH", "addr:street_address": "231 FRONT ST", "amenity": "post_box", "collection_times": "Mo-Fr 17:00; Sa 16:30", "note": "ON 12/24 AND 12/31, THIS BOX MAY BE COLLECTED AS EARLY AS 12 NOON.", "nsi_id": "unitedstatespostalservice-a77078", "operator": "United States Postal Service", "operator:short": "USPS", "operator:type": "public", "operator:wikidata": "Q668687", "ref": "4575000000"}, "type": "Feature"}
{"geometry": {"coordinates": [-81.4559224, 39.413823], "type": "Point"}, "id": "l-FshNe7_XnM2SjYfp8JHDkrh0U=", "properties": {"@source_uri": "https://tools.usps.com/UspsToolsRestServices/rest/POLocator/findLocations", "@spider": "usps_collection_boxes", "addr:city": "MARIETTA", "addr:country": "US", "addr:postcode": "45750", "addr:state": "OH", "addr:street_address": "275 FRONT ST", "amenity": "post_box", "collection_times": "Mo-Fr 17:30; Sa 16:30", "indoor": "yes", "note": "ON 12/24 AND 12/31, THIS BOX MAY BE COLLECTED AS EARLY AS 12 NOON.", "nsi_id": "unitedstatespostalservice-a77078", "operator": "United States Postal Service", "operator:short": "USPS", "operator:type": "public", "operator:wikidata": "Q668687", "ref": "4575000005"}, "type": "Feature"}
{"geometry": {"coordinates": [-81.453058, 39.416436], "type": "Point"}, "id": "rt-dhqp5IA8VbPQ8CKL2wowQyNA=", "properties": {"@source_uri": "https://tools.usps.com/UspsToolsRestServices/rest/POLocator/findLocations", "@spider": "usps_collection_boxes", "addr:city": "MARIETTA", "addr:country": "US", "addr:postcode": "45750", "addr:state": "OH", "addr:street_address": "301 PUTNAM ST", "amenity": "post_box", "collection_times": "Mo-Fr 13:00; Sa 12:00", "note": "ON 12/24 AND 12/31, THIS BOX MAY BE COLLECTED AS EARLY AS 12 NOON.", "nsi_id": "unitedstatespostalservice-a77078", "operator": "United States Postal Service", "operator:short": "USPS", "operator:type": "public", "operator:wikidata": "Q668687", "ref": "4575000015"}, "type": "Feature"}
{"geometry": {"coordinates": [-81.4572043, 39.44219], "type": "Point"}, "id": "ccCdZbTD9SAfFpG6nYjpjOg6Hkk=", "properties": {"@source_uri": "https://tools.usps.com/UspsToolsRestServices/rest/POLocator/findLocations", "@spider": "usps_collection_boxes", "addr:city": "MARIETTA", "addr:country": "US", "addr:postcode": "45750", "addr:state": "OH", "addr:street_address": "1689 COLEGATE DR", "amenity": "post_box", "collection_times": "Mo-Sa 10:00", "nsi_id": "unitedstatespostalservice-a77078", "operator": "United States Postal Service", "operator:short": "USPS", "operator:type": "public", "operator:wikidata": "Q668687", "ref": "4575000019"}, "type": "Feature"}
{"geometry": {"coordinates": [-81.4546247, 39.415303], "type": "Point"}, "id": "ES-QXcMB90B4EpbHECB-AdlbeYk=", "properties": {"@source_uri": "https://tools.usps.com/UspsToolsRestServices/rest/POLocator/findLocations", "@spider": "usps_collection_boxes", "addr:city": "MARIETTA", "addr:country": "US", "addr:postcode": "45750", "addr:state": "OH", "addr:street_address": "260 2ND ST", "amenity": "post_box", "collection_times": "Mo-Fr 13:00; Sa 12:00", "note": "ON 12/24 AND 12/31, THIS BOX MAY BE COLLECTED AS EARLY AS 12 NOON.", "nsi_id": "unitedstatespostalservice-a77078", "operator": "United States Postal Service", "operator:short": "USPS", "operator:type": "public", "operator:wikidata": "Q668687", "ref": "4575000021"}, "type": "Feature"}
{"geometry": {"coordinates": [-81.4479104, 39.422976], "type": "Point"}, "id": "lNWapqi5j-iRmK_Tmc2sx3jH6w8=", "properties": {"@source_uri": "https://tools.usps.com/UspsToolsRestServices/rest/POLocator/findLocations", "@spider": "usps_collection_boxes", "addr:city": "MARIETTA", "addr:country": "US", "addr:postcode": "45750", "addr:state": "OH", "addr:street_address": "148 GROSS ST", "amenity": "post_box", "collection_times": "Mo-Sa 12:00", "nsi_id": "unitedstatespostalservice-a77078", "operator": "United States Postal Service", "operator:short": "USPS", "operator:type": "public", "operator:wikidata": "Q668687", "ref": "4575000024"}, "type": "Feature"}
{"geometry": {"coordinates": [-81.4284969, 39.411882], "type": "Point"}, "id": "e37-FxJmc_WlBaZ0gK4cbGGyrhQ=", "properties": {"@source_uri": "https://tools.usps.com/UspsToolsRestServices/rest/POLocator/findLocations", "@spider": "usps_collection_boxes", "addr:city": "MARIETTA", "addr:country": "US", "addr:postcode": "45750", "addr:state": "OH", "addr:street_address": "40 ACME ST", "amenity": "post_box", "collection_times": "Mo-Sa 10:30", "nsi_id": "unitedstatespostalservice-a77078", "operator": "United States Postal Service", "operator:short": "USPS", "operator:type": "public", "operator:wikidata": "Q668687", "ref": "4575000032"}, "type": "Feature"}
{"geometry": {"coordinates": [-81.4664756, 39.46812], "type": "Point"}, "id": "4DwNJdeHQi2vC0-xaViT7KCJZOA=", "properties": {"@source_uri": "https://tools.usps.com/UspsToolsRestServices/rest/POLocator/findLocations", "@spider": "usps_collection_boxes", "addr:city": "MARIETTA", "addr:country": "US", "addr:postcode": "45750", "addr:state": "OH", "addr:street_address": "4796 STATE ROUTE 60", "amenity": "post_box", "collection_times": "Mo-Sa 12:30", "note": "ON 12/24 AND 12/31, THIS BOX MAY BE COLLECTED AS EARLY AS 12 NOON.", "nsi_id": "unitedstatespostalservice-a77078", "operator": "United States Postal Service", "operator:short": "USPS", "operator:type": "public", "operator:wikidata": "Q668687", "ref": "4575000053"}, "type": "Feature"}
{"geometry": {"coordinates": [-81.4644696, 39.432195], "type": "Point"}, "id": "O4DHaFH2Dloibr9kpu7no4INmEQ=", "properties": {"@source_uri": "https://tools.usps.com/UspsToolsRestServices/rest/POLocator/findLocations", "@spider": "usps_collection_boxes", "addr:city": "MARIETTA", "addr:country": "US", "addr:postcode": "45750", "addr:state": "OH", "addr:street_address": "400 MATTHEW ST", "amenity": "post_box", "collection_times": "Mo-Sa 10:00", "nsi_id": "unitedstatespostalservice-a77078", "operator": "United States Postal Service", "operator:short": "USPS", "operator:type": "public", "operator:wikidata": "Q668687", "ref": "4575000056"}, "type": "Feature"}
{"geometry": {"coordinates": [-81.4541544, 39.415738], "type": "Point"}, "id": "g1GLVymQQtoRUDjC5Dlqp51STXY=", "properties": {"@source_uri": "https://tools.usps.com/UspsToolsRestServices/rest/POLocator/findLocations", "@spider": "usps_collection_boxes", "addr:city": "MARIETTA", "addr:country": "US", "addr:postcode": "45750", "addr:state": "OH", "addr:street_address": "215 PUTNAM ST", "amenity": "post_box", "collection_times": "Mo-Fr 13:00; Sa 12:00", "note": "ON 12/24 AND 12/31, THIS BOX MAY BE COLLECTED AS EARLY AS 12 NOON.", "nsi_id": "unitedstatespostalservice-a77078", "operator": "United States Postal Service", "operator:short": "USPS", "operator:type": "public", "operator:wikidata": "Q668687", "ref": "4575000059"}, "type": "Feature"}
{"geometry": {"coordinates": [-81.4330655, 39.410112], "type": "Point"}, "id": "PKbtgoeXJzx64oPNnvL_VNKEG-Y=", "properties": {"@source_uri": "https://tools.usps.com/UspsToolsRestServices/rest/POLocator/findLocations", "@spider": "usps_collection_boxes", "addr:city": "MARIETTA", "addr:country": "US", "addr:postcode": "45750", "addr:state": "OH", "addr:street_address": "450 PIKE ST", "amenity": "post_box", "collection_times": "Mo-Sa 09:30", "nsi_id": "unitedstatespostalservice-a77078", "operator": "United States Postal Service", "operator:short": "USPS", "operator:type": "public", "operator:wikidata": "Q668687", "ref": "4575000064"}, "type": "Feature"}
{"geometry": {"coordinates": [-81.4692545, 39.416485], "type": "Point"}, "id": "QKkTXxzBTNTw6iNm2q72eE38QqM=", "properties": {"@source_uri": "https://tools.usps.com/UspsToolsRestServices/rest/POLocator/findLocations", "@spider": "usps_collection_boxes", "addr:city": "MARIETTA", "addr:country": "US", "addr:postcode": "45750", "addr:state": "OH", "addr:street_address": "106 ALTA ST", "amenity": "post_box", "collection_times": "Mo-Sa 12:00", "nsi_id": "unitedstatespostalservice-a77078", "operator": "United States Postal Service", "operator:short": "USPS", "operator:type": "public", "operator:wikidata": "Q668687", "ref": "4575000071"}, "type": "Feature"}
{"geometry": {"coordinates": [-81.4554242386, 39.4139062359], "type": "Point"}, "id": "VQKup4coa5nHB9QNq4iEWtA31IA=", "properties": {"@source_uri": "https://tools.usps.com/UspsToolsRestServices/rest/POLocator/findLocations", "@spider": "usps_collection_boxes", "addr:city": "MARIETTA", "addr:country": "US", "addr:postcode": "45750", "addr:state": "OH", "addr:street_address": "275 FRONT ST", "amenity": "post_box", "collection_times": "Mo-Fr 17:30; Sa 13:00", "indoor": "yes", "note": "ON 12/24 AND 12/31, THIS BOX MAY BE COLLECTED AS EARLY AS 12 NOON.", "nsi_id": "unitedstatespostalservice-a77078", "operator": "United States Postal Service", "operator:short": "USPS", "operator:type": "public", "operator:wikidata": "Q668687", "ref": "4575000076"}, "type": "Feature"}
{"geometry": {"coordinates": [-82.0485914, 39.002548], "type": "Point"}, "id": "8wcR0GIX1lBbya5wvILUlG-lJJg=", "properties": {"@source_uri": "https://tools.usps.com/UspsToolsRestServices/rest/POLocator/findLocations", "@spider": "usps_collection_boxes", "addr:city": "MIDDLEPORT", "addr:country": "US", "addr:postcode": "45760", "addr:state": "OH", "addr:street_address": "97 N 2ND AVE", "amenity": "post_box", "collection_times": "Mo-Sa 11:00", "nsi_id": "unitedstatespostalservice-a77078", "operator": "United States Postal Service", "operator:short": "USPS", "operator:type": "public", "operator:wikidata": "Q668687", "ref": "4576000001"}, "type": "Feature"}
{"geometry": {"coordinates": [-82.0508859, 39.002239], "type": "Point"}, "id": "a1iVKqi1xhwtbmxim0BFR8x-hCM=", "properties": {"@source_uri": "https://tools.usps.com/UspsToolsRestServices/rest/POLocator/findLocations", "@spider": "usps_collection_boxes", "addr:city": "MIDDLEPORT", "addr:country": "US", "addr:postcode": "45760", "addr:state": "OH", "addr:street_address": "299 MILL ST", "amenity": "post_box", "collection_times": "Mo-Fr 15:45; Sa 11:00", "note": "ON 12/24 AND 12/31, THIS BOX MAY BE COLLECTED AS EARLY AS 12 NOON.", "nsi_id": "unitedstatespostalservice-a77078", "operator": "United States Postal Service", "operator:short": "USPS", "operator:type": "public", "operator:wikidata": "Q668687", "ref": "4576000008"}, "type": "Feature"}
{"geometry": {"coordinates": [-82.0456178, 39.007966], "type": "Point"}, "id": "F4X1V_c1gYtGj9bOAOKRn9XO7TE=", "properties": {"@source_uri": "https://tools.usps.com/UspsToolsRestServices/rest/POLocator/findLocations", "@spider": "usps_collection_boxes", "addr:city": "MIDDLEPORT", "addr:country": "US", "addr:postcode": "45760", "addr:state": "OH", "addr:street_address": "786 N 2ND AVE", "amenity": "post_box", "collection_times": "Mo-Sa 11:00", "nsi_id": "unitedstatespostalservice-a77078", "operator": "United States Postal Service", "operator:short": "USPS", "operator:type": "public", "operator:wikidata": "Q668687", "ref": "4576000009"}, "type": "Feature"}
{"geometry": {"coordinates": [-82.0506284, 39.002324], "type": "Point"}, "id": "38KArpINQV1B_AYeYOcTfDD4Qbs=", "properties": {"@source_uri": "https://tools.usps.com/UspsToolsRestServices/rest/POLocator/findLocations", "@spider": "usps_collection_boxes", "addr:city": "MIDDLEPORT", "addr:country": "US", "addr:postcode": "45760", "addr:state": "OH", "addr:street_address": "320 MILL ST", "amenity": "post_box", "collection_times": "Mo-Fr 15:45; Sa 11:00", "note": "ON 12/24 AND 12/31, THIS BOX MAY BE COLLECTED AS EARLY AS 12 NOON.", "nsi_id": "unitedstatespostalservice-a77078", "operator": "United States Postal Service", "operator:short": "USPS", "operator:type": "public", "operator:wikidata": "Q668687", "ref": "4576000011"}, "type": "Feature"}
{"geometry": {"coordinates": [-82.0506768, 39.002491], "type": "Point"}, "id": "GncO18WTly5y7cPNxRWamkAnwa0=", "properties": {"@source_uri": "https://tools.usps.com/UspsToolsRestServices/rest/POLocator/findLocations", "@spider": "usps_collection_boxes", "addr:city": "MIDDLEPORT", "addr:country": "US", "addr:postcode": "45760", "addr:state": "OH", "addr:street_address": "320 MILL ST", "amenity": "post_box", "collection_times": "Mo-Fr 15:45; Sa 11:00", "note": "ON 12/24 AND 12/31, THIS BOX MAY BE COLLECTED AS EARLY AS 12 NOON.", "nsi_id": "unitedstatespostalservice-a77078", "operator": "United States Postal Service", "operator:short": "USPS", "operator:type": "public", "operator:wikidata": "Q668687", "ref": "4576000012"}, "type": "Feature"}
{"geometry": {"coordinates": [-82.0507261384, 39.0023229281], "type": "Point"}, "id": "ZFxe8gZw9dEEsAtpC-un2_lRqGg=", "properties": {"@source_uri": "https://tools.usps.com/UspsToolsRestServices/rest/POLocator/findLocations", "@spider": "usps_collection_boxes", "addr:city": "MIDDLEPORT", "addr:country": "US", "addr:postcode": "45760", "addr:state": "OH", "addr:street_address": "320 MILL ST", "amenity": "post_box", "collection_times": "Mo-Fr 16:00; Sa 11:30", "indoor": "yes", "note": "ON 12/24 AND 12/31, THIS BOX MAY BE COLLECTED AS EARLY AS 12 NOON.", "nsi_id": "unitedstatespostalservice-a77078", "operator": "United States Postal Service", "operator:short": "USPS", "operator:type": "public", "operator:wikidata": "Q668687", "ref": "4576000020"}, "type": "Feature"}
{"geometry": {"coordinates": [-82.096538777, 39.434006714], "type": "Point"}, "id": "dgz5o6FBHLU_cxGuG9V08OtdW9c=", "properties": {"@source_uri": "https://tools.usps.com/UspsToolsRestServices/rest/POLocator/findLocations", "@spider": "usps_collection_boxes", "addr:city": "MILLFIELD", "addr:country": "US", "addr:postcode": "45761", "addr:state": "OH", "addr:street_address": "16099 MAIN ST", "amenity": "post_box", "collection_times": "Mo-Fr 15:30; Sa 12:30", "note": "ON 12/24 AND 12/31, THIS BOX MAY BE COLLECTED AS EARLY AS 12 NOON.", "nsi_id": "unitedstatespostalservice-a77078", "operator": "United States Postal Service", "operator:short": "USPS", "operator:type": "public", "operator:wikidata": "Q668687", "ref": "4576100000"}, "type": "Feature"}
{"geometry": {"coordinates": [-82.096538777, 39.434006714], "type": "Point"}, "id": "w4QmFwroxYWxQQNmr3h4yYJL22k=", "properties": {"@source_uri": "https://tools.usps.com/UspsToolsRestServices/rest/POLocator/findLocations", "@spider": "usps_collection_boxes", "addr:city": "MILLFIELD", "addr:country": "US", "addr:postcode": "45761", "addr:state": "OH", "addr:street_address": "16099 MAIN ST", "amenity": "post_box", "collection_times": "Mo-Fr 15:30; Sa 12:30", "indoor": "yes", "note": "ON 12/24 AND 12/31, THIS BOX MAY BE COLLECTED AS EARLY AS 12 NOON.", "nsi_id": "unitedstatespostalservice-a77078", "operator": "United States Postal Service", "operator:short": "USPS", "operator:type": "public", "operator:wikidata": "Q668687", "ref": "4576100001"}, "type": "Feature"}
{"geometry": {"coordinates": [-82.096538777, 39.434006714], "type": "Point"}, "id": "s1C2DWeVg5Ah3OH5bShYE5N3dbQ=", "properties": {"@source_uri": "https://tools.usps.com/UspsToolsRestServices/rest/POLocator/findLocations", "@spider": "usps_collection_boxes", "addr:city": "MILLFIELD", "addr:country": "US", "addr:postcode": "45761", "addr:state": "OH", "addr:street_address": "16099 MAIN ST", "amenity": "post_box", "collection_times": "Mo-Fr 16:00; Sa 15:30", "indoor": "yes", "note": "ON 12/24 AND 12/31, THIS BOX MAY BE COLLECTED AS EARLY AS 12 NOON.", "nsi_id": "unitedstatespostalservice-a77078", "operator": "United States Postal Service", "operator:short": "USPS", "operator:type": "public", "operator:wikidata": "Q668687", "ref": "4576100006"}, "type": "Feature"}
{"geometry": {"coordinates": [-82.233880628, 39.461075413], "type": "Point"}, "id": "w1z8WzIRMo1MYmv6GZpphWTT4ss=", "properties": {"@source_uri": "https://tools.usps.com/UspsToolsRestServices/rest/POLocator/findLocations", "@spider": "usps_collection_boxes", "addr:city": "NELSONVILLE", "addr:country": "US", "addr:postcode": "45764", "addr:state": "OH", "addr:street_address": "110 W WASHINGTON ST", "amenity": "post_box", "collection_times": "Mo-Fr 16:30; Sa 12:00", "note": "ON 12/24 AND 12/31, THIS BOX MAY BE COLLECTED AS EARLY AS 12 NOON.", "nsi_id": "unitedstatespostalservice-a77078", "operator": "United States Postal Service", "operator:short": "USPS", "operator:type": "public", "operator:wikidata": "Q668687", "ref": "4576400000"}, "type": "Feature"}
{"geometry": {"coordinates": [-82.2321579, 39.460042], "type": "Point"}, "id": "jDqaWk5E3yTDrV5EOTmoYCiqidM=", "properties": {"@source_uri": "https://tools.usps.com/UspsToolsRestServices/rest/POLocator/findLocations", "@spider": "usps_collection_boxes", "addr:city": "NELSONVILLE", "addr:country": "US", "addr:postcode": "45764", "addr:state": "OH", "addr:street_address": "6 PUBLIC SQ", "amenity": "post_box", "collection_times": "Mo-Sa 10:00", "nsi_id": "unitedstatespostalservice-a77078", "operator": "United States Postal Service", "operator:short": "USPS", "operator:type": "public", "operator:wikidata": "Q668687", "ref": "4576400006"}, "type": "Feature"}
{"geometry": {"coordinates": [-82.2276133, 39.45722], "type": "Point"}, "id": "IVbsiynv4kLyUJibpduEfagJMlQ=", "properties": {"@source_uri": "https://tools.usps.com/UspsToolsRestServices/rest/POLocator/findLocations", "@spider": "usps_collection_boxes", "addr:city": "NELSONVILLE", "addr:country": "US", "addr:postcode": "45764", "addr:state": "OH", "addr:street_address": "40 WATKINS ST", "amenity": "post_box", "collection_times": "Mo-Sa 08:45", "nsi_id": "unitedstatespostalservice-a77078", "operator": "United States Postal Service", "operator:short": "USPS", "operator:type": "public", "operator:wikidata": "Q668687", "ref": "4576400008"}, "type": "Feature"}
{"geometry": {"coordinates": [-82.2204674, 39.451748], "type": "Point"}, "id": "CBclNpOxesXQiWbhK4NhuFswElQ=", "properties": {"@source_uri": "https://tools.usps.com/UspsToolsRestServices/rest/POLocator/findLocations", "@spider": "usps_collection_boxes", "addr:city": "NELSONVILLE", "addr:country": "US", "addr:postcode": "45764", "addr:state": "OH", "addr:street_address": "965 POPLAR ST", "amenity": "post_box", "collection_times": "Mo-Sa 13:00", "note": "ON 12/24 AND 12/31, THIS BOX MAY BE COLLECTED AS EARLY AS 12 NOON.", "nsi_id": "unitedstatespostalservice-a77078", "operator": "United States Postal Service", "operator:short": "USPS", "operator:type": "public", "operator:wikidata": "Q668687", "ref": "4576400012"}, "type": "Feature"}
{"geometry": {"coordinates": [-82.222967, 39.451107], "type": "Point"}, "id": "rYYDczeCBARE-8ffhWvTXQzPVCE=", "properties": {"@source_uri": "https://tools.usps.com/UspsToolsRestServices/rest/POLocator/findLocations", "@spider": "usps_collection_boxes", "addr:city": "NELSONVILLE", "addr:country": "US", "addr:postcode": "45764", "addr:state": "OH", "addr:street_address": "900 E CANAL ST", "amenity": "post_box", "collection_times": "Mo-Sa 10:00", "nsi_id": "unitedstatespostalservice-a77078", "operator": "United States Postal Service", "operator:short": "USPS", "operator:type": "public", "operator:wikidata": "Q668687", "ref": "4576400015"}, "type": "Feature"}
{"geometry": {"coordinates": [-82.233880628, 39.461075413], "type": "Point"}, "id": "bEpDAdKEYh97vRI28iACVt9F8hM=", "properties": {"@source_uri": "https://tools.usps.com/UspsToolsRestServices/rest/POLocator/findLocations", "@spider": "usps_collection_boxes", "addr:city": "NELSONVILLE", "addr:country": "US", "addr:postcode": "45764", "addr:state": "OH", "addr:street_address": "110 W WASHINGTON ST", "amenity": "post_box", "collection_times": "Mo-Fr 16:30; Sa 12:00", "note": "ON 12/24 AND 12/31, THIS BOX MAY BE COLLECTED AS EARLY AS 12 NOON.", "nsi_id": "unitedstatespostalservice-a77078", "operator": "United States Postal Service", "operator:short": "USPS", "operator:type": "public", "operator:wikidata": "Q668687", "ref": "4576400016"}, "type": "Feature"}
{"geometry": {"coordinates": [-82.233880628, 39.461075413], "type": "Point"}, "id": "kL6_UCBT8dGQ2G7iTd1iyCYP1-g=", "properties": {"@source_uri": "https://tools.usps.com/UspsToolsRestServices/rest/POLocator/findLocations", "@spider": "usps_collection_boxes", "addr:city": "NELSONVILLE", "addr:country": "US", "addr:postcode": "45764", "addr:state": "OH", "addr:street_address": "110 W WASHINGTON ST", "amenity": "post_box", "collection_times": "Mo-Fr 16:30; Sa 12:00", "indoor": "yes", "note": "ON 12/24 AND 12/31, THIS BOX MAY BE COLLECTED AS EARLY AS 12 NOON.", "nsi_id": "unitedstatespostalservice-a77078", "operator": "United States Postal Service", "operator:short": "USPS", "operator:type": "public", "operator:wikidata": "Q668687", "ref": "4576400018"}, "type": "Feature"}
{"geometry": {"coordinates": [-82.219508, 39.323914], "type": "Point"}, "id": "lZsNWsplWjRQRA3FAqx0zDWebtw=", "properties": {"@source_uri": "https://tools.usps.com/UspsToolsRestServices/rest/POLocator/findLocations", "@spider": "usps_collection_boxes", "addr:city": "NEW MARSHFIELD", "addr:country": "US", "addr:postcode": "45766", "addr:state": "OH", "addr:street_address": "3996 OLD STATE ROUTE 56", "amenity": "post_box", "collection_times": "Mo-Fr 16:00; Sa 10:15", "note": "ON 12/24 AND 12/31, THIS BOX MAY BE COLLECTED AS EARLY AS 12 NOON.", "nsi_id": "unitedstatespostalservice-a77078", "operator": "United States Postal Service", "operator:short": "USPS", "operator:type": "public", "operator:wikidata": "Q668687", "ref": "4576600000"}, "type": "Feature"}
{"geometry": {"coordinates": [-82.219508, 39.323914], "type": "Point"}, "id": "53nXrUJxeVcMtFPfEhHZFbsEb-g=", "properties": {"@source_uri": "https://tools.usps.com/UspsToolsRestServices/rest/POLocator/findLocations", "@spider": "usps_collection_boxes", "addr:city": "NEW MARSHFIELD", "addr:country": "US", "addr:postcode": "45766", "addr:state": "OH", "addr:street_address": "3996 OLD STATE ROUTE 56", "amenity": "post_box", "collection_times": "Mo-Fr 16:00; Sa 10:15", "indoor": "yes", "note": "ON 12/24 AND 12/31, THIS BOX MAY BE COLLECTED AS EARLY AS 12 NOON.", "nsi_id": "unitedstatespostalservice-a77078", "operator": "United States Postal Service", "operator:short": "USPS", "operator:type": "public", "operator:wikidata": "Q668687", "ref": "4576600001"}, "type": "Feature"}
{"geometry": {"coordinates": [-82.218663, 39.3239295149], "type": "Point"}, "id": "bWBbG0Ux4Jnjplads-cBokPtLhQ=", "properties": {"@source_uri": "https://tools.usps.com/UspsToolsRestServices/rest/POLocator/findLocations", "@spider": "usps_collection_boxes", "addr:city": "NEW MARSHFIELD", "addr:country": "US", "addr:postcode": "45766", "addr:state": "OH", "addr:street_address": "3996 OLD STATE ROUTE 56", "amenity": "post_box", "collection_times": "Mo-Fr 16:00; Sa 14:00", "indoor": "yes", "note": "ON 12/24 AND 12/31, THIS BOX MAY BE COLLECTED AS EARLY AS 12 NOON.", "nsi_id": "unitedstatespostalservice-a77078", "operator": "United States Postal Service", "operator:short": "USPS", "operator:type": "public", "operator:wikidata": "Q668687", "ref": "4576600004"}, "type": "Feature"}
{"geometry": {"coordinates": [-81.061471027, 39.52410276], "type": "Point"}, "id": "wOJESA5_72eXNiQvmBZ9b3phHIA=", "properties": {"@source_uri": "https://tools.usps.com/UspsToolsRestServices/rest/POLocator/findLocations", "@spider": "usps_collection_boxes", "addr:city": "GRAYSVILLE", "addr:country": "US", "addr:postcode": "45767", "addr:state": "OH", "addr:street_address": "515 2ND ST", "amenity": "post_box", "collection_times": "Mo-Fr 15:45; Sa 10:45", "note": "ON 12/24 AND 12/31, THIS BOX MAY BE COLLECTED AS EARLY AS 12 NOON.", "nsi_id": "unitedstatespostalservice-a77078", "operator": "United States Postal Service", "operator:short": "USPS", "operator:type": "public", "operator:wikidata": "Q668687", "ref": "4576700000"}, "type": "Feature"}
{"geometry": {"coordinates": [-81.061471027, 39.52410276], "type": "Point"}, "id": "RxGSlFHqzia-cnjKdnNVrLOO1d8=", "properties": {"@source_uri": "https://tools.usps.com/UspsToolsRestServices/rest/POLocator/findLocations", "@spider": "usps_collection_boxes", "addr:city": "GRAYSVILLE", "addr:country": "US", "addr:postcode": "45767", "addr:state": "OH", "addr:street_address": "515 2ND ST", "amenity": "post_box", "collection_times": "Mo-Fr 15:45; Sa 10:45", "indoor": "yes", "note": "ON 12/24 AND 12/31, THIS BOX MAY BE COLLECTED AS EARLY AS 12 NOON.", "nsi_id": "unitedstatespostalservice-a77078", "operator": "United States Postal Service", "operator:short": "USPS", "operator:type": "public", "operator:wikidata": "Q668687", "ref": "4576700001"}, "type": "Feature"}
{"geometry": {"coordinates": [-81.061471027, 39.52410276], "type": "Point"}, "id": "bxHlnc7hodc_GIS71ROhGmk_g5g=", "properties": {"@source_uri": "https://tools.usps.com/UspsToolsRestServices/rest/POLocator/findLocations", "@spider": "usps_collection_boxes", "addr:city": "GRAYSVILLE", "addr:country": "US", "addr:postcode": "45767", "addr:state": "OH", "addr:street_address": "515 2ND ST", "amenity": "post_box", "collection_times": "Mo-Fr 16:00; Sa 11:00", "indoor": "yes", "note": "ON 12/24 AND 12/31, THIS BOX MAY BE COLLECTED AS EARLY AS 12 NOON.", "nsi_id": "unitedstatespostalservice-a77078", "operator": "United States Postal Service", "operator:short": "USPS", "operator:type": "public", "operator:wikidata": "Q668687", "ref": "4576700010"}, "type": "Feature"}
{"geometry": {"coordinates": [-81.229169146, 39.388147732], "type": "Point"}, "id": "rTat0oJnqm2LJ6dIt-QS-C8ZcaM=", "properties": {"@source_uri": "https://tools.usps.com/UspsToolsRestServices/rest/POLocator/findLocations", "@spider": "usps_collection_boxes", "addr:city": "NEWPORT", "addr:country": "US", "addr:postcode": "45768", "addr:state": "OH", "addr:street_address": "19 GREENE ST", "amenity": "post_box", "collection_times": "Mo-Fr 16:00; Sa 11:15", "note": "ON 12/24 AND 12/31, THIS BOX MAY BE COLLECTED AS EARLY AS 12 NOON.", "nsi_id": "unitedstatespostalservice-a77078", "operator": "United States Postal Service", "operator:short": "USPS", "operator:type": "public", "operator:wikidata": "Q668687", "ref": "4576800000"}, "type": "Feature"}
{"geometry": {"coordinates": [-81.229169146, 39.388147732], "type": "Point"}, "id": "WvuKF5JuF8gFY2hFdzqwz829FCI=", "properties": {"@source_uri": "https://tools.usps.com/UspsToolsRestServices/rest/POLocator/findLocations", "@spider": "usps_collection_boxes", "addr:city": "NEWPORT", "addr:country": "US", "addr:postcode": "45768", "addr:state": "OH", "addr:street_address": "19 GREENE ST", "amenity": "post_box", "collection_times": "Mo-Fr 16:00; Sa 11:15", "indoor": "yes", "note": "ON 12/24 AND 12/31, THIS BOX MAY BE COLLECTED AS EARLY AS 12 NOON.", "nsi_id": "unitedstatespostalservice-a77078", "operator": "United States Postal Service", "operator:short": "USPS", "operator:type": "public", "operator:wikidata": "Q668687", "ref": "4576800001"}, "type": "Feature"}
{"geometry": {"coordinates": [-81.229169146, 39.388147732], "type": "Point"}, "id": "ToLluRoNNMBI_SMYjb5wfnwiR10=", "properties": {"@source_uri": "https://tools.usps.com/UspsToolsRestServices/rest/POLocator/findLocations", "@spider": "usps_collection_boxes", "addr:city": "NEWPORT", "addr:country": "US", "addr:postcode": "45768", "addr:state": "OH", "addr:street_address": "19 GREENE ST", "amenity": "post_box", "collection_times": "Mo-Fr 16:00; Sa 11:30", "indoor": "yes", "note": "ON 12/24 AND 12/31, THIS BOX MAY BE COLLECTED AS EARLY AS 12 NOON.", "nsi_id": "unitedstatespostalservice-a77078", "operator": "United States Postal Service", "operator:short": "USPS", "operator:type": "public", "operator:wikidata": "Q668687", "ref": "4576800004"}, "type": "Feature"}
{"geometry": {"coordinates": [-82.0321259, 39.028202], "type": "Point"}, "id": "yZ7p0FPnfjMRlKH5xWr4BfM545c=", "properties": {"@source_uri": "https://tools.usps.com/UspsToolsRestServices/rest/POLocator/findLocations", "@spider": "usps_collection_boxes", "addr:city": "POMEROY", "addr:country": "US", "addr:postcode": "45769", "addr:state": "OH", "addr:street_address": "211 E 2ND ST", "amenity": "post_box", "collection_times": "Mo-Fr 16:30; Sa 11:45", "note": "ON 12/24 AND 12/31, THIS BOX MAY BE COLLECTED AS EARLY AS 12 NOON.", "nsi_id": "unitedstatespostalservice-a77078", "operator": "United States Postal Service", "operator:short": "USPS", "operator:type": "public", "operator:wikidata": "Q668687", "ref": "4576900001"}, "type": "Feature"}
{"geometry": {"coordinates": [-82.0451373, 39.010521], "type": "Point"}, "id": "LM9H-p_4J40qwgHDrhH_sCWiHXY=", "properties": {"@source_uri": "https://tools.usps.com/UspsToolsRestServices/rest/POLocator/findLocations", "@spider": "usps_collection_boxes", "addr:city": "POMEROY", "addr:country": "US", "addr:postcode": "45769", "addr:state": "OH", "addr:street_address": "706 W MAIN ST", "amenity": "post_box", "collection_times": "Mo-Sa 10:00", "nsi_id": "unitedstatespostalservice-a77078", "operator": "United States Postal Service", "operator:short": "USPS", "operator:type": "public", "operator:wikidata": "Q668687", "ref": "4576900002"}, "type": "Feature"}
{"geometry": {"coordinates": [-82.0126041, 39.03066], "type": "Point"}, "id": "HVPnv9pPGTcm17DeWcRF1vzxIJ0=", "properties": {"@source_uri": "https://tools.usps.com/UspsToolsRestServices/rest/POLocator/findLocations", "@spider": "usps_collection_boxes", "addr:city": "POMEROY", "addr:country": "US", "addr:postcode": "45769", "addr:state": "OH", "addr:street_address": "700 E MAIN ST", "amenity": "post_box", "collection_times": "Mo-Sa 10:00", "nsi_id": "unitedstatespostalservice-a77078", "operator": "United States Postal Service", "operator:short": "USPS", "operator:type": "public", "operator:wikidata": "Q668687", "ref": "4576900010"}, "type": "Feature"}
{"geometry": {"coordinates": [-82.0337219, 39.027578], "type": "Point"}, "id": "fU-Y1Q4NpDdiqdiL9XBwRS5AWKc=", "properties": {"@source_uri": "https://tools.usps.com/UspsToolsRestServices/rest/POLocator/findLocations", "@spider": "usps_collection_boxes", "addr:city": "POMEROY", "addr:country": "US", "addr:postcode": "45769", "addr:state": "OH", "addr:street_address": "100 E 2ND ST", "amenity": "post_box", "collection_times": "Mo-Sa 13:00", "note": "ON 12/24 AND 12/31, THIS BOX MAY BE COLLECTED AS EARLY AS 12 NOON.", "nsi_id": "unitedstatespostalservice-a77078", "operator": "United States Postal Service", "operator:short": "USPS", "operator:type": "public", "operator:wikidata": "Q668687", "ref": "4576900016"}, "type": "Feature"}
{"geometry": {"coordinates": [-82.032102686, 39.028266356], "type": "Point"}, "id": "3jHFOnYRtUbQQbh20IlWoJnJR0g=", "properties": {"@source_uri": "https://tools.usps.com/UspsToolsRestServices/rest/POLocator/findLocations", "@spider": "usps_collection_boxes", "addr:city": "POMEROY", "addr:country": "US", "addr:postcode": "45769", "addr:state": "OH", "addr:street_address": "212 E 2ND ST", "amenity": "post_box", "collection_times": "Mo-Fr 16:30; Sa 12:30", "indoor": "yes", "note": "ON 12/24 AND 12/31, THIS BOX MAY BE COLLECTED AS EARLY AS 12 NOON.", "nsi_id": "unitedstatespostalservice-a77078", "operator": "United States Postal Service", "operator:short": "USPS", "operator:type": "public", "operator:wikidata": "Q668687", "ref": "4576900017"}, "type": "Feature"}
{"geometry": {"coordinates": [-82.0422161, 39.036778], "type": "Point"}, "id": "ohRbUlznAlZs4-FKbPYMp1jPOCk=", "properties": {"@source_uri": "https://tools.usps.com/UspsToolsRestServices/rest/POLocator/findLocations", "@spider": "usps_collection_boxes", "addr:city": "POMEROY", "addr:country": "US", "addr:postcode": "45769", "addr:state": "OH", "addr:street_address": "300 MULBERRY AVE", "amenity": "post_box", "collection_times": "Mo-Sa 12:00", "nsi_id": "unitedstatespostalservice-a77078", "operator": "United States Postal Service", "operator:short": "USPS", "operator:type": "public", "operator:wikidata": "Q668687", "ref": "4576900018"}, "type": "Feature"}
{"geometry": {"coordinates": [-82.032102686, 39.028266356], "type": "Point"}, "id": "0_646MVRSzAUfO_bolb4poRAp2w=", "properties": {"@source_uri": "https://tools.usps.com/UspsToolsRestServices/rest/POLocator/findLocations", "@spider": "usps_collection_boxes", "addr:city": "POMEROY", "addr:country": "US", "addr:postcode": "45769", "addr:state": "OH", "addr:street_address": "212 E 2ND ST", "amenity": "post_box", "collection_times": "Mo-Fr 16:30; Sa 12:00", "indoor": "yes", "note": "ON 12/24 AND 12/31, THIS BOX MAY BE COLLECTED AS EARLY AS 12 NOON.", "nsi_id": "unitedstatespostalservice-a77078", "operator": "United States Postal Service", "operator:short": "USPS", "operator:type": "public", "operator:wikidata": "Q668687", "ref": "4576900024"}, "type": "Feature"}
{"geometry": {"coordinates": [-81.769826, 39.003525], "type": "Point"}, "id": "hw9WbKTjbeyY4L5Qde12g85JiRc=", "properties": {"@source_uri": "https://tools.usps.com/UspsToolsRestServices/rest/POLocator/findLocations", "@spider": "usps_collection_boxes", "addr:city": "PORTLAND", "addr:country": "US", "addr:postcode": "45770", "addr:state": "OH", "addr:street_address": "30935 HIGH ST", "amenity": "post_box", "collection_times": "Mo-Fr 13:45; Sa 13:15", "note": "ON 12/24 AND 12/31, THIS BOX MAY BE COLLECTED AS EARLY AS 12 NOON.", "nsi_id": "unitedstatespostalservice-a77078", "operator": "United States Postal Service", "operator:short": "USPS", "operator:type": "public", "operator:wikidata": "Q668687", "ref": "4577000000"}, "type": "Feature"}
{"geometry": {"coordinates": [-81.769791, 39.003498], "type": "Point"}, "id": "uI1EigAO30cNH0Th11e0_d_nbNs=", "properties": {"@source_uri": "https://tools.usps.com/UspsToolsRestServices/rest/POLocator/findLocations", "@spider": "usps_collection_boxes", "addr:city": "PORTLAND", "addr:country": "US", "addr:postcode": "45770", "addr:state": "OH", "addr:street_address": "30935 HIGH ST", "amenity": "post_box", "collection_times": "Mo-Fr 13:45; Sa 13:15", "indoor": "yes", "note": "ON 12/24 AND 12/31, THIS BOX MAY BE COLLECTED AS EARLY AS 12 NOON.", "nsi_id": "unitedstatespostalservice-a77078", "operator": "United States Postal Service", "operator:short": "USPS", "operator:type": "public", "operator:wikidata": "Q668687", "ref": "4577000001"}, "type": "Feature"}
{"geometry": {"coordinates": [-81.7698368284, 39.0036144971], "type": "Point"}, "id": "1dT3U0zZfrda96DZhBgB8eZb_B0=", "properties": {"@source_uri": "https://tools.usps.com/UspsToolsRestServices/rest/POLocator/findLocations", "@spider": "usps_collection_boxes", "addr:city": "PORTLAND", "addr:country": "US", "addr:postcode": "45770", "addr:state": "OH", "addr:street_address": "30935 HIGH ST", "amenity": "post_box", "collection_times": "Mo-Fr 14:00; Sa 13:30", "indoor": "yes", "note": "ON 12/24 AND 12/31, THIS BOX MAY BE COLLECTED AS EARLY AS 12 NOON.", "nsi_id": "unitedstatespostalservice-a77078", "operator": "United States Postal Service", "operator:short": "USPS", "operator:type": "public", "operator:wikidata": "Q668687", "ref": "4577000003"}, "type": "Feature"}
{"geometry": {"coordinates": [-81.916895336, 38.970117419], "type": "Point"}, "id": "xATt4tb9xYMfqHox1ZoCJn2wCBU=", "properties": {"@source_uri": "https://tools.usps.com/UspsToolsRestServices/rest/POLocator/findLocations", "@spider": "usps_collection_boxes", "addr:city": "RACINE", "addr:country": "US", "addr:postcode": "45771", "addr:state": "OH", "addr:street_address": "208 S 3RD ST", "amenity": "post_box", "collection_times": "Mo-Fr 15:00; Sa 10:45", "note": "ON 12/24 AND 12/31, THIS BOX MAY BE COLLECTED AS EARLY AS 12 NOON.", "nsi_id": "unitedstatespostalservice-a77078", "operator": "United States Postal Service", "operator:short": "USPS", "operator:type": "public", "operator:wikidata": "Q668687", "ref": "4577100000"}, "type": "Feature"}
{"geometry": {"coordinates": [-81.916895336, 38.970117419], "type": "Point"}, "id": "wJfTiNCN636CKvvGwMRhQmKtTTY=", "properties": {"@source_uri": "https://tools.usps.com/UspsToolsRestServices/rest/POLocator/findLocations", "@spider": "usps_collection_boxes", "addr:city": "RACINE", "addr:country": "US", "addr:postcode": "45771", "addr:state": "OH", "addr:street_address": "208 S 3RD ST", "amenity": "post_box", "collection_times": "Mo-Fr 15:00; Sa 10:45", "indoor": "yes", "note": "ON 12/24 AND 12/31, THIS BOX MAY BE COLLECTED AS EARLY AS 12 NOON.", "nsi_id": "unitedstatespostalservice-a77078", "operator": "United States Postal Service", "operator:short": "USPS", "operator:type": "public", "operator:wikidata": "Q668687", "ref": "4577100001"}, "type": "Feature"}
{"geometry": {"coordinates": [-81.916895336, 38.970117419], "type": "Point"}, "id": "t3LGhhzxdv_g16qm2cwkXPuWkXs=", "properties": {"@source_uri": "https://tools.usps.com/UspsToolsRestServices/rest/POLocator/findLocations", "@spider": "usps_collection_boxes", "addr:city": "RACINE", "addr:country": "US", "addr:postcode": "45771", "addr:state": "OH", "addr:street_address": "208 S 3RD ST", "amenity": "post_box", "collection_times": "Mo-Fr 16:00; Sa 11:30", "indoor": "yes", "note": "ON 12/24 AND 12/31, THIS BOX MAY BE COLLECTED AS EARLY AS 12 NOON.", "nsi_id": "unitedstatespostalservice-a77078", "operator": "United States Postal Service", "operator:short": "USPS", "operator:type": "public", "operator:wikidata": "Q668687", "ref": "4577100006"}, "type": "Feature"}
{"geometry": {"coordinates": [-81.746499654, 39.122834211], "type": "Point"}, "id": "fFxyttcuYIBbEKixSdlUjTL6S28=", "properties": {"@source_uri": "https://tools.usps.com/UspsToolsRestServices/rest/POLocator/findLocations", "@spider": "usps_collection_boxes", "addr:city": "REEDSVILLE", "addr:country": "US", "addr:postcode": "45772", "addr:state": "OH", "addr:street_address": "55420 TOWNSHIP ROAD 1016", "amenity": "post_box", "collection_times": "Mo-Fr 15:45; Sa 10:15", "note": "ON 12/24 AND 12/31, THIS BOX MAY BE COLLECTED AS EARLY AS 12 NOON.", "nsi_id": "unitedstatespostalservice-a77078", "operator": "United States Postal Service", "operator:short": "USPS", "operator:type": "public", "operator:wikidata": "Q668687", "ref": "4577200000"}, "type": "Feature"}
{"geometry": {"coordinates": [-81.746499654, 39.122834211], "type": "Point"}, "id": "0BOCtE7WT_HZUElpDyxteuJfths=", "properties": {"@source_uri": "https://tools.usps.com/UspsToolsRestServices/rest/POLocator/findLocations", "@spider": "usps_collection_boxes", "addr:city": "REEDSVILLE", "addr:country": "US", "addr:postcode": "45772", "addr:state": "OH", "addr:street_address": "55420 TOWNSHIP ROAD 1016", "amenity": "post_box", "collection_times": "Mo-Fr 15:45; Sa 10:15", "indoor": "yes", "note": "ON 12/24 AND 12/31, THIS BOX MAY BE COLLECTED AS EARLY AS 12 NOON.", "nsi_id": "unitedstatespostalservice-a77078", "operator": "United States Postal Service", "operator:short": "USPS", "operator:type": "public", "operator:wikidata": "Q668687", "ref": "4577200002"}, "type": "Feature"}
{"geometry": {"coordinates": [-81.746499654, 39.122834211], "type": "Point"}, "id": "al0QdmOlmxTqcq88V5QX0llzGB4=", "properties": {"@source_uri": "https://tools.usps.com/UspsToolsRestServices/rest/POLocator/findLocations", "@spider": "usps_collection_boxes", "addr:city": "REEDSVILLE", "addr:country": "US", "addr:postcode": "45772", "addr:state": "OH", "addr:street_address": "55420 TOWNSHIP ROAD 1016", "amenity": "post_box", "collection_times": "Mo-Fr 16:00; Sa 11:15", "indoor": "yes", "note": "ON 12/24 AND 12/31, THIS BOX MAY BE COLLECTED AS EARLY AS 12 NOON.", "nsi_id": "unitedstatespostalservice-a77078", "operator": "United States Postal Service", "operator:short": "USPS", "operator:type": "public", "operator:wikidata": "Q668687", "ref": "4577200006"}, "type": "Feature"}
{"geometry": {"coordinates": [-81.3944016, 39.368732], "type": "Point"}, "id": "oL1zvZoh7S7KAhez90qMzbTVuV0=", "properties": {"@source_uri": "https://tools.usps.com/UspsToolsRestServices/rest/POLocator/findLocations", "@spider": "usps_collection_boxes", "addr:city": "RENO", "addr:country": "US", "addr:postcode": "45773", "addr:state": "OH", "addr:street_address": "27055 STATE ROUTE 7", "amenity": "post_box", "collection_times": "Mo-Fr 15:45; Sa 10:15", "note": "ON 12/24 AND 12/31, THIS BOX MAY BE COLLECTED AS EARLY AS 12 NOON.", "nsi_id": "unitedstatespostalservice-a77078", "operator": "United States Postal Service", "operator:short": "USPS", "operator:type": "public", "operator:wikidata": "Q668687", "ref": "4577300000"}, "type": "Feature"}
{"geometry": {"coordinates": [-81.396765, 39.373994], "type": "Point"}, "id": "cXuiv5ldWDI5MW-Fh-wY1RzIkDk=", "properties": {"@source_uri": "https://tools.usps.com/UspsToolsRestServices/rest/POLocator/findLocations", "@spider": "usps_collection_boxes", "addr:city": "RENO", "addr:country": "US", "addr:postcode": "45773", "addr:state": "OH", "addr:street_address": "27055 STATE ROUTE 7", "amenity": "post_box", "collection_times": "Mo-Fr 15:45; Sa 10:15", "indoor": "yes", "note": "ON 12/24 AND 12/31, THIS BOX MAY BE COLLECTED AS EARLY AS 12 NOON.", "nsi_id": "unitedstatespostalservice-a77078", "operator": "United States Postal Service", "operator:short": "USPS", "operator:type": "public", "operator:wikidata": "Q668687", "ref": "4577300001"}, "type": "Feature"}
{"geometry": {"coordinates": [-81.394151104, 39.369261333], "type": "Point"}, "id": "RGAC9XZnlCws2N2g12jVVWiihE0=", "properties": {"@source_uri": "https://tools.usps.com/UspsToolsRestServices/rest/POLocator/findLocations", "@spider": "usps_collection_boxes", "addr:city": "RENO", "addr:country": "US", "addr:postcode": "45773", "addr:state": "OH", "addr:street_address": "27630 STATE ROUTE 7", "amenity": "post_box", "collection_times": "Mo-Fr 16:00; Sa 10:30", "indoor": "yes", "note": "ON 12/24 AND 12/31, THIS BOX MAY BE COLLECTED AS EARLY AS 12 NOON.", "nsi_id": "unitedstatespostalservice-a77078", "operator": "United States Postal Service", "operator:short": "USPS", "operator:type": "public", "operator:wikidata": "Q668687", "ref": "4577300004"}, "type": "Feature"}
{"geometry": {"coordinates": [-82.132459141, 39.045554472], "type": "Point"}, "id": "flACdj2eYvdMb180nZBPYlkULcA=", "properties": {"@source_uri": "https://tools.usps.com/UspsToolsRestServices/rest/POLocator/findLocations", "@spider": "usps_collection_boxes", "addr:city": "RUTLAND", "addr:country": "US", "addr:postcode": "45775", "addr:state": "OH", "addr:street_address": "108 SALEM ST", "amenity": "post_box", "collection_times": "Mo-Fr 15:45; Sa 10:45", "indoor": "yes", "note": "ON 12/24 AND 12/31, THIS BOX MAY BE COLLECTED AS EARLY AS 12 NOON.", "nsi_id": "unitedstatespostalservice-a77078", "operator": "United States Postal Service", "operator:short": "USPS", "operator:type": "public", "operator:wikidata": "Q668687", "ref": "4577500001"}, "type": "Feature"}
{"geometry": {"coordinates": [-82.132459141, 39.045554472], "type": "Point"}, "id": "REbTCoDxYZs47u1UJUcAw6frmNc=", "properties": {"@source_uri": "https://tools.usps.com/UspsToolsRestServices/rest/POLocator/findLocations", "@spider": "usps_collection_boxes", "addr:city": "RUTLAND", "addr:country": "US", "addr:postcode": "45775", "addr:state": "OH", "addr:street_address": "108 SALEM ST", "amenity": "post_box", "collection_times": "Mo-Fr 16:15; Sa 10:45", "note": "ON 12/24 AND 12/31, THIS BOX MAY BE COLLECTED AS EARLY AS 12 NOON.", "nsi_id": "unitedstatespostalservice-a77078", "operator": "United States Postal Service", "operator:short": "USPS", "operator:type": "public", "operator:wikidata": "Q668687", "ref": "4577500002"}, "type": "Feature"}
{"geometry": {"coordinates": [-82.1847399, 39.046154], "type": "Point"}, "id": "D2TZkQA5iFCUIn-iupyRdnPPKrs=", "properties": {"@source_uri": "https://tools.usps.com/UspsToolsRestServices/rest/POLocator/findLocations", "@spider": "usps_collection_boxes", "addr:city": "RUTLAND", "addr:country": "US", "addr:postcode": "45775", "addr:state": "OH", "addr:street_address": "33186 ST RT 124", "amenity": "post_box", "collection_times": "Mo-Sa 09:30", "nsi_id": "unitedstatespostalservice-a77078", "operator": "United States Postal Service", "operator:short": "USPS", "operator:type": "public", "operator:wikidata": "Q668687", "ref": "4577500003"}, "type": "Feature"}
{"geometry": {"coordinates": [-82.132459141, 39.045554472], "type": "Point"}, "id": "MHuyRKe7it1ExhvRKAZYTiHEHys=", "properties": {"@source_uri": "https://tools.usps.com/UspsToolsRestServices/rest/POLocator/findLocations", "@spider": "usps_collection_boxes", "addr:city": "RUTLAND", "addr:country": "US", "addr:postcode": "45775", "addr:state": "OH", "addr:street_address": "108 SALEM ST", "amenity": "post_box", "collection_times": "Mo-Fr 16:00; Sa 11:00", "indoor": "yes", "note": "ON 12/24 AND 12/31, THIS BOX MAY BE COLLECTED AS EARLY AS 12 NOON.", "nsi_id": "unitedstatespostalservice-a77078", "operator": "United States Postal Service", "operator:short": "USPS", "operator:type": "public", "operator:wikidata": "Q668687", "ref": "4577500006"}, "type": "Feature"}
{"geometry": {"coordinates": [-81.895953262, 39.306472732], "type": "Point"}, "id": "yyB5j8-VmII6GmAc8J8TAan-vf8=", "properties": {"@source_uri": "https://tools.usps.com/UspsToolsRestServices/rest/POLocator/findLocations", "@spider": "usps_collection_boxes", "addr:city": "STEWART", "addr:country": "US", "addr:postcode": "45778", "addr:state": "OH", "addr:street_address": "8125 STATE ROUTE 329", "amenity": "post_box", "collection_times": "Mo-Fr 16:00; Sa 10:15", "note": "ON 12/24 AND 12/31, THIS BOX MAY BE COLLECTED AS EARLY AS 12 NOON.", "nsi_id": "unitedstatespostalservice-a77078", "operator": "United States Postal Service", "operator:short": "USPS", "operator:type": "public", "operator:wikidata": "Q668687", "ref": "4577800000"}, "type": "Feature"}
{"geometry": {"coordinates": [-81.895953262, 39.306472732], "type": "Point"}, "id": "OvO6hCQGxHn6uoxPsfxD7tcD44U=", "properties": {"@source_uri": "https://tools.usps.com/UspsToolsRestServices/rest/POLocator/findLocations", "@spider": "usps_collection_boxes", "addr:city": "STEWART", "addr:country": "US", "addr:postcode": "45778", "addr:state": "OH", "addr:street_address": "8125 STATE ROUTE 329", "amenity": "post_box", "collection_times": "Mo-Fr 16:00; Sa 10:15", "indoor": "yes", "note": "ON 12/24 AND 12/31, THIS BOX MAY BE COLLECTED AS EARLY AS 12 NOON.", "nsi_id": "unitedstatespostalservice-a77078", "operator": "United States Postal Service", "operator:short": "USPS", "operator:type": "public", "operator:wikidata": "Q668687", "ref": "4577800001"}, "type": "Feature"}
{"geometry": {"coordinates": [-81.895953262, 39.306472732], "type": "Point"}, "id": "ssPdwNQm1Kn1ZqSHdGrnv96DCLA=", "properties": {"@source_uri": "https://tools.usps.com/UspsToolsRestServices/rest/POLocator/findLocations", "@spider": "usps_collection_boxes", "addr:city": "STEWART", "addr:country": "US", "addr:postcode": "45778", "addr:state": "OH", "addr:street_address": "8125 STATE ROUTE 329", "amenity": "post_box", "collection_times": "Mo-Fr 16:00; Sa 14:00", "indoor": "yes", "note": "ON 12/24 AND 12/31, THIS BOX MAY BE COLLECTED AS EARLY AS 12 NOON.", "nsi_id": "unitedstatespostalservice-a77078", "operator": "United States Postal Service", "operator:short": "USPS", "operator:type": "public", "operator:wikidata": "Q668687", "ref": "4577800003"}, "type": "Feature"}
{"geometry": {"coordinates": [-81.973265618, 39.002620952], "type": "Point"}, "id": "0XfXwpCNtvKWo3xAzvW8yWaxOwo=", "properties": {"@source_uri": "https://tools.usps.com/UspsToolsRestServices/rest/POLocator/findLocations", "@spider": "usps_collection_boxes", "addr:city": "SYRACUSE", "addr:country": "US", "addr:postcode": "45779", "addr:state": "OH", "addr:street_address": "2391 3RD ST", "amenity": "post_box", "collection_times": "Mo-Fr 16:00; Sa 09:30", "note": "ON 12/24 AND 12/31, THIS BOX MAY BE COLLECTED AS EARLY AS 12 NOON.", "nsi_id": "unitedstatespostalservice-a77078", "operator": "United States Postal Service", "operator:short": "USPS", "operator:type": "public", "operator:wikidata": "Q668687", "ref": "4577900000"}, "type": "Feature"}
{"geometry": {"coordinates": [-81.973265618, 39.002620952], "type": "Point"}, "id": "8c5ALbPVtJSM2W6yHEfO5Tr_IeA=", "properties": {"@source_uri": "https://tools.usps.com/UspsToolsRestServices/rest/POLocator/findLocations", "@spider": "usps_collection_boxes", "addr:city": "SYRACUSE", "addr:country": "US", "addr:postcode": "45779", "addr:state": "OH", "addr:street_address": "2391 3RD ST", "amenity": "post_box", "collection_times": "Mo-Fr 16:00; Sa 09:30", "indoor": "yes", "note": "ON 12/24 AND 12/31, THIS BOX MAY BE COLLECTED AS EARLY AS 12 NOON.", "nsi_id": "unitedstatespostalservice-a77078", "operator": "United States Postal Service", "operator:short": "USPS", "operator:type": "public", "operator:wikidata": "Q668687", "ref": "4577900001"}, "type": "Feature"}
{"geometry": {"coordinates": [-81.973265618, 39.002620952], "type": "Point"}, "id": "LLGGdF7wD7r-4AFnMCxblVyq5rk=", "properties": {"@source_uri": "https://tools.usps.com/UspsToolsRestServices/rest/POLocator/findLocations", "@spider": "usps_collection_boxes", "addr:city": "SYRACUSE", "addr:country": "US", "addr:postcode": "45779", "addr:state": "OH", "addr:street_address": "2391 3RD ST", "amenity": "post_box", "collection_times": "Mo-Fr 16:00; Sa 10:00", "indoor": "yes", "note": "ON 12/24 AND 12/31, THIS BOX MAY BE COLLECTED AS EARLY AS 12 NOON.", "nsi_id": "unitedstatespostalservice-a77078", "operator": "United States Postal Service", "operator:short": "USPS", "operator:type": "public", "operator:wikidata": "Q668687", "ref": "4577900003"}, "type": "Feature"}
{"geometry": {"coordinates": [-82.1334935, 39.37208], "type": "Point"}, "id": "lUvKMACzmND56Tkp89W1eFbOu18=", "properties": {"@source_uri": "https://tools.usps.com/UspsToolsRestServices/rest/POLocator/findLocations", "@spider": "usps_collection_boxes", "addr:city": "THE PLAINS", "addr:country": "US", "addr:postcode": "45780", "addr:state": "OH", "addr:street_address": "40 N PLAINS RD", "amenity": "post_box", "collection_times": "Mo-Fr 16:00; Sa 11:00", "indoor": "yes", "note": "ON 12/24 AND 12/31, THIS BOX MAY BE COLLECTED AS EARLY AS 12 NOON.", "nsi_id": "unitedstatespostalservice-a77078", "operator": "United States Postal Service", "operator:short": "USPS", "operator:type": "public", "operator:wikidata": "Q668687", "ref": "4578000002"}, "type": "Feature"}
{"geometry": {"coordinates": [-82.1336317, 39.372152], "type": "Point"}, "id": "ssHHBXZFcgYQdjYUP31mZu7fc3Q=", "properties": {"@source_uri": "https://tools.usps.com/UspsToolsRestServices/rest/POLocator/findLocations", "@spider": "usps_collection_boxes", "addr:city": "THE PLAINS", "addr:country": "US", "addr:postcode": "45780", "addr:state": "OH", "addr:street_address": "40 N PLAINS RD", "amenity": "post_box", "collection_times": "Mo-Fr 16:00; Sa 11:00", "note": "ON 12/24 AND 12/31, THIS BOX MAY BE COLLECTED AS EARLY AS 12 NOON.", "nsi_id": "unitedstatespostalservice-a77078", "operator": "United States Postal Service", "operator:short": "USPS", "operator:type": "public", "operator:wikidata": "Q668687", "ref": "4578000003"}, "type": "Feature"}
{"geometry": {"coordinates": [-82.1355841, 39.374408], "type": "Point"}, "id": "C1AW6gTKfMCF8uv2ic8C4BH_XoA=", "properties": {"@source_uri": "https://tools.usps.com/UspsToolsRestServices/rest/POLocator/findLocations", "@spider": "usps_collection_boxes", "addr:city": "THE PLAINS", "addr:country": "US", "addr:postcode": "45780", "addr:state": "OH", "addr:street_address": "70 N PLAINS RD", "amenity": "post_box", "collection_times": "Mo-Sa 09:00", "nsi_id": "unitedstatespostalservice-a77078", "operator": "United States Postal Service", "operator:short": "USPS", "operator:type": "public", "operator:wikidata": "Q668687", "ref": "4578000004"}, "type": "Feature"}
{"geometry": {"coordinates": [-82.1332948138, 39.3721763367], "type": "Point"}, "id": "TRAKyQhpH1uJZmauSvAc1zHgVVI=", "properties": {"@source_uri": "https://tools.usps.com/UspsToolsRestServices/rest/POLocator/findLocations", "@spider": "usps_collection_boxes", "addr:city": "THE PLAINS", "addr:country": "US", "addr:postcode": "45780", "addr:state": "OH", "addr:street_address": "40 N PLAINS RD", "amenity": "post_box", "collection_times": "Mo-Fr 16:00; Sa 11:30", "indoor": "yes", "note": "ON 12/24 AND 12/31, THIS BOX MAY BE COLLECTED AS EARLY AS 12 NOON.", "nsi_id": "unitedstatespostalservice-a77078", "operator": "United States Postal Service", "operator:short": "USPS", "operator:type": "public", "operator:wikidata": "Q668687", "ref": "4578000007"}, "type": "Feature"}
{"geometry": {"coordinates": [-82.0781031, 39.484888], "type": "Point"}, "id": "7pziq6f6c0E67814AFDjk3vc_G8=", "properties": {"@source_uri": "https://tools.usps.com/UspsToolsRestServices/rest/POLocator/findLocations", "@spider": "usps_collection_boxes", "addr:city": "TRIMBLE", "addr:country": "US", "addr:postcode": "45782", "addr:state": "OH", "addr:street_address": "3 CONGRESS ST", "amenity": "post_box", "collection_times": "Mo-Fr 11:00; Sa 10:30", "nsi_id": "unitedstatespostalservice-a77078", "operator": "United States Postal Service", "operator:short": "USPS", "operator:type": "public", "operator:wikidata": "Q668687", "ref": "4578200000"}, "type": "Feature"}
{"geometry": {"coordinates": [-81.845739368, 39.171280998], "type": "Point"}, "id": "RwzlE5jOiEkC-o9eNibzgjorBq4=", "properties": {"@source_uri": "https://tools.usps.com/UspsToolsRestServices/rest/POLocator/findLocations", "@spider": "usps_collection_boxes", "addr:city": "TUPPERS PLAINS", "addr:country": "US", "addr:postcode": "45783", "addr:state": "OH", "addr:street_address": "42160 STATE ROUTE 7", "amenity": "post_box", "collection_times": "Mo-Fr 11:30; Sa 10:30", "nsi_id": "unitedstatespostalservice-a77078", "operator": "United States Postal Service", "operator:short": "USPS", "operator:type": "public", "operator:wikidata": "Q668687", "ref": "4578300000"}, "type": "Feature"}
{"geometry": {"coordinates": [-81.845739368, 39.171280998], "type": "Point"}, "id": "lAJj5Jhgy0D_C5MaGOUqBM-sfCk=", "properties": {"@source_uri": "https://tools.usps.com/UspsToolsRestServices/rest/POLocator/findLocations", "@spider": "usps_collection_boxes", "addr:city": "TUPPERS PLAINS", "addr:country": "US", "addr:postcode": "45783", "addr:state": "OH", "addr:street_address": "42160 STATE ROUTE 7", "amenity": "post_box", "collection_times": "Mo-Fr 11:30; Sa 10:30", "indoor": "yes", "nsi_id": "unitedstatespostalservice-a77078", "operator": "United States Postal Service", "operator:short": "USPS", "operator:type": "public", "operator:wikidata": "Q668687", "ref": "4578300001"}, "type": "Feature"}
{"geometry": {"coordinates": [-81.845739368, 39.171280998], "type": "Point"}, "id": "l8XucDpdTsg6ddgiZgLkZVemTK8=", "properties": {"@source_uri": "https://tools.usps.com/UspsToolsRestServices/rest/POLocator/findLocations", "@spider": "usps_collection_boxes", "addr:city": "TUPPERS PLAINS", "addr:country": "US", "addr:postcode": "45783", "addr:state": "OH", "addr:street_address": "42160 STATE ROUTE 7", "amenity": "post_box", "collection_times": "Mo-Fr 12:00; Sa 11:00", "indoor": "yes", "nsi_id": "unitedstatespostalservice-a77078", "operator": "United States Postal Service", "operator:short": "USPS", "operator:type": "public", "operator:wikidata": "Q668687", "ref": "4578300003"}, "type": "Feature"}
{"geometry": {"coordinates": [-81.665973481, 39.386087235], "type": "Point"}, "id": "Qa3i7i7mlRlAjLDTVpmKAKh-EqY=", "properties": {"@source_uri": "https://tools.usps.com/UspsToolsRestServices/rest/POLocator/findLocations", "@spider": "usps_collection_boxes", "addr:city": "VINCENT", "addr:country": "US", "addr:postcode": "45784", "addr:state": "OH", "addr:street_address": "45 WARRIOR DR", "amenity": "post_box", "collection_times": "Mo-Fr 16:15; Sa 10:45", "note": "ON 12/24 AND 12/31, THIS BOX MAY BE COLLECTED AS EARLY AS 12 NOON.", "nsi_id": "unitedstatespostalservice-a77078", "operator": "United States Postal Service", "operator:short": "USPS", "operator:type": "public", "operator:wikidata": "Q668687", "ref": "4578400000"}, "type": "Feature"}
{"geometry": {"coordinates": [-81.665973481, 39.386087235], "type": "Point"}, "id": "wY6y2VVVGeQUzoqSMqAMeLGdJXQ=", "properties": {"@source_uri": "https://tools.usps.com/UspsToolsRestServices/rest/POLocator/findLocations", "@spider": "usps_collection_boxes", "addr:city": "VINCENT", "addr:country": "US", "addr:postcode": "45784", "addr:state": "OH", "addr:street_address": "45 WARRIOR DR", "amenity": "post_box", "collection_times": "Mo-Fr 16:15; Sa 10:45", "indoor": "yes", "note": "ON 12/24 AND 12/31, THIS BOX MAY BE COLLECTED AS EARLY AS 12 NOON.", "nsi_id": "unitedstatespostalservice-a77078", "operator": "United States Postal Service", "operator:short": "USPS", "operator:type": "public", "operator:wikidata": "Q668687", "ref": "4578400002"}, "type": "Feature"}
{"geometry": {"coordinates": [-81.6649523, 39.398701], "type": "Point"}, "id": "5Jk1AVVUs-nvdd65rmFEgGO46HE=", "properties": {"@source_uri": "https://tools.usps.com/UspsToolsRestServices/rest/POLocator/findLocations", "@spider": "usps_collection_boxes", "addr:city": "VINCENT", "addr:country": "US", "addr:postcode": "45784", "addr:state": "OH", "addr:street_address": "925 WARRIOR DR", "amenity": "post_box", "collection_times": "Mo-Sa 10:30", "nsi_id": "unitedstatespostalservice-a77078", "operator": "United States Postal Service", "operator:short": "USPS", "operator:type": "public", "operator:wikidata": "Q668687", "ref": "4578400004"}, "type": "Feature"}
{"geometry": {"coordinates": [-81.665973481, 39.386087235], "type": "Point"}, "id": "CKr9tmohmpIMIqIC9hDX_-dm6MQ=", "properties": {"@source_uri": "https://tools.usps.com/UspsToolsRestServices/rest/POLocator/findLocations", "@spider": "usps_collection_boxes", "addr:city": "VINCENT", "addr:country": "US", "addr:postcode": "45784", "addr:state": "OH", "addr:street_address": "45 WARRIOR DR", "amenity": "post_box", "collection_times": "Mo-Fr 16:30; Sa 11:00", "indoor": "yes", "note": "ON 12/24 AND 12/31, THIS BOX MAY BE COLLECTED AS EARLY AS 12 NOON.", "nsi_id": "unitedstatespostalservice-a77078", "operator": "United States Postal Service", "operator:short": "USPS", "operator:type": "public", "operator:wikidata": "Q668687", "ref": "4578400010"}, "type": "Feature"}
{"geometry": {"coordinates": [-81.640718077, 39.54231308], "type": "Point"}, "id": "ebKz79OKFrpLLNzSYxXZSlI7ykU=", "properties": {"@source_uri": "https://tools.usps.com/UspsToolsRestServices/rest/POLocator/findLocations", "@spider": "usps_collection_boxes", "addr:city": "WATERFORD", "addr:country": "US", "addr:postcode": "45786", "addr:state": "OH", "addr:street_address": "635 MAIN ST", "amenity": "post_box", "collection_times": "Mo-Fr 15:45; Sa 10:15", "note": "ON 12/24 AND 12/31, THIS BOX MAY BE COLLECTED AS EARLY AS 12 NOON.", "nsi_id": "unitedstatespostalservice-a77078", "operator": "United States Postal Service", "operator:short": "USPS", "operator:type": "public", "operator:wikidata": "Q668687", "ref": "4578600000"}, "type": "Feature"}
{"geometry": {"coordinates": [-81.640718077, 39.54231308], "type": "Point"}, "id": "fK-vIaOW1oui4TfttiyXLMUTgMc=", "properties": {"@source_uri": "https://tools.usps.com/UspsToolsRestServices/rest/POLocator/findLocations", "@spider": "usps_collection_boxes", "addr:city": "WATERFORD", "addr:country": "US", "addr:postcode": "45786", "addr:state": "OH", "addr:street_address": "635 MAIN ST", "amenity": "post_box", "collection_times": "Mo-Fr 15:45; Sa 10:15", "indoor": "yes", "note": "ON 12/24 AND 12/31, THIS BOX MAY BE COLLECTED AS EARLY AS 12 NOON.", "nsi_id": "unitedstatespostalservice-a77078", "operator": "United States Postal Service", "operator:short": "USPS", "operator:type": "public", "operator:wikidata": "Q668687", "ref": "4578600002"}, "type": "Feature"}
