{"geometry": {"coordinates": [-84.0332152, 40.735419], "type": "Point"}, "id": "n8d_hx7wWvkFMqGE9AhT6jIlAt4=", "properties": {"@spider": "usps_collection_boxes", "addr:city": "LIMA", "addr:country": "US", "addr:full": "400 S MUMAUGH RD", "addr:postcode": "45804", "addr:state": "OH", "brand": "USPS", "collection_times": "Mo-Fr 14:00; Sa 09:00", "name": "USPS COLLECTION BOX - BLUE BOX", "note": "ON 12/24 AND 12/31, THIS BOX MAY BE COLLECTED AS EARLY AS 12 NOON.", "ref": "4580400013"}, "type": "Feature"}
{"geometry": {"coordinates": [-84.0432487, 40.728885], "type": "Point"}, "id": "xQ1UJKAkn5olG1nxrKQkkhSa40U=", "properties": {"@spider": "usps_collection_boxes", "addr:city": "LIMA", "addr:country": "US", "addr:full": "3298 HARDING HWY", "addr:postcode": "45804", "addr:state": "OH", "brand": "USPS", "collection_times": "Mo-Sa 09:00", "name": "USPS COLLECTION BOX - BLUE BOX", "ref": "4580400029"}, "type": "Feature"}
{"geometry": {"coordinates": [-83.9745384, 40.83307], "type": "Point"}, "id": "5dqPMkxGhYLa3wWLOkmV_HrQps4=", "properties": {"@spider": "usps_collection_boxes", "addr:city": "BEAVERDAM", "addr:country": "US", "addr:full": "104 W MAIN ST", "addr:postcode": "45808", "addr:state": "OH", "brand": "USPS", "collection_times": "Mo-Sa 11:30", "name": "USPS COLLECTION BOX - BLUE BOX", "ref": "4580800000"}, "type": "Feature"}
{"geometry": {"coordinates": [-83.9666334, 40.832283], "type": "Point"}, "id": "FTIut3_UDpOm4AjRPQ97l1O5vSc=", "properties": {"@spider": "usps_collection_boxes", "addr:city": "BEAVERDAM", "addr:country": "US", "addr:full": "420 E MAIN ST", "addr:postcode": "45808", "addr:state": "OH", "brand": "USPS", "collection_times": "Mo-Sa 11:30", "name": "USPS COLLECTION BOX - BLUE BOX", "ref": "4580800001"}, "type": "Feature"}
{"geometry": {"coordinates": [-83.823541, 40.769638], "type": "Point"}, "id": "eHWyE5hEamIeUhi3y4R-vK0Z7mA=", "properties": {"@spider": "usps_collection_boxes", "addr:city": "ADA", "addr:country": "US", "addr:full": "131 S MAIN ST", "addr:postcode": "45810", "addr:state": "OH", "brand": "USPS", "collection_times": "Mo-Fr 16:30; Sa 11:45", "name": "USPS COLLECTION BOX - PO LOBBY", "note": "ON 12/24 AND 12/31, THIS BOX MAY BE COLLECTED AS EARLY AS 12 NOON.", "ref": "4581000001"}, "type": "Feature"}
{"geometry": {"coordinates": [-83.823541, 40.769638], "type": "Point"}, "id": "6zwSf4Cwoims9uozfIAcfCRSaC8=", "properties": {"@spider": "usps_collection_boxes", "addr:city": "ADA", "addr:country": "US", "addr:full": "131 S MAIN ST", "addr:postcode": "45810", "addr:state": "OH", "brand": "USPS", "collection_times": "Mo-Fr 16:30; Sa 11:45", "name": "USPS COLLECTION BOX - BLUE BOX", "note": "ON 12/24 AND 12/31, THIS BOX MAY BE COLLECTED AS EARLY AS 12 NOON.", "ref": "4581000004"}, "type": "Feature"}
{"geometry": {"coordinates": [-83.823237313, 40.769694], "type": "Point"}, "id": "-MyKRHnrjNKaLFJDFvkagLiQELY=", "properties": {"@spider": "usps_collection_boxes", "addr:city": "ADA", "addr:country": "US", "addr:full": "131 S MAIN ST", "addr:postcode": "45810", "addr:state": "OH", "brand": "USPS", "collection_times": "Mo-Fr 16:30; Sa 12:00", "name": "USPS COLLECTION BOX - PO LOBBY", "note": "ON 12/24 AND 12/31, THIS BOX MAY BE COLLECTED AS EARLY AS 12 NOON.", "ref": "4581000024"}, "type": "Feature"}
{"geometry": {"coordinates": [-83.843845, 40.70615], "type": "Point"}, "id": "9FHWvUCJnt02M6YbtfuWdj0tSaU=", "properties": {"@spider": "usps_collection_boxes", "addr:city": "ALGER", "addr:country": "US", "addr:full": "101 S MAIN ST", "addr:postcode": "45812", "addr:state": "OH", "brand": "USPS", "collection_times": "Mo-Fr 14:45; Sa 11:15", "name": "USPS COLLECTION BOX - PO LOBBY", "note": "ON 12/24 AND 12/31, THIS BOX MAY BE COLLECTED AS EARLY AS 12 NOON.", "ref": "4581200000"}, "type": "Feature"}
{"geometry": {"coordinates": [-83.843845, 40.70615], "type": "Point"}, "id": "95VgNpgKis7rWwP2cX40AXJYlqY=", "properties": {"@spider": "usps_collection_boxes", "addr:city": "ALGER", "addr:country": "US", "addr:full": "101 S MAIN ST", "addr:postcode": "45812", "addr:state": "OH", "brand": "USPS", "collection_times": "Mo-Fr 14:45; Sa 11:15", "name": "USPS COLLECTION BOX - PO LOBBY", "note": "ON 12/24 AND 12/31, THIS BOX MAY BE COLLECTED AS EARLY AS 12 NOON.", "ref": "4581200001"}, "type": "Feature"}
{"geometry": {"coordinates": [-83.843845, 40.70615], "type": "Point"}, "id": "fVFgbqDNdEKrCGRJUbRga6M6jdY=", "properties": {"@spider": "usps_collection_boxes", "addr:city": "ALGER", "addr:country": "US", "addr:full": "101 S MAIN ST", "addr:postcode": "45812", "addr:state": "OH", "brand": "USPS", "collection_times": "Mo-Fr 15:45; Sa 11:15", "name": "USPS COLLECTION BOX - BLUE BOX", "note": "ON 12/24 AND 12/31, THIS BOX MAY BE COLLECTED AS EARLY AS 12 NOON.", "ref": "4581200002"}, "type": "Feature"}
{"geometry": {"coordinates": [-83.843844717, 40.706145335], "type": "Point"}, "id": "OZTjwOf_wK2JCO6BUtmCNoyAT8w=", "properties": {"@spider": "usps_collection_boxes", "addr:city": "ALGER", "addr:country": "US", "addr:full": "101 S MAIN ST", "addr:postcode": "45812", "addr:state": "OH", "brand": "USPS", "collection_times": "Mo-Fr 15:45; Sa 12:30", "name": "USPS COLLECTION BOX - PO LOBBY", "note": "ON 12/24 AND 12/31, THIS BOX MAY BE COLLECTED AS EARLY AS 12 NOON.", "ref": "4581200006"}, "type": "Feature"}
{"geometry": {"coordinates": [-83.652041, 40.893428], "type": "Point"}, "id": "NhhcdxjHQrpkxjnrdQdXRPxBu58=", "properties": {"@spider": "usps_collection_boxes", "addr:city": "ARLINGTON", "addr:country": "US", "addr:full": "120 W LIBERTY ST", "addr:postcode": "45814", "addr:state": "OH", "brand": "USPS", "collection_times": "Mo-Fr 16:15; Sa 11:00", "name": "USPS COLLECTION BOX - BLUE BOX", "note": "ON 12/24 AND 12/31, THIS BOX MAY BE COLLECTED AS EARLY AS 12 NOON.", "ref": "4581400000"}, "type": "Feature"}
{"geometry": {"coordinates": [-83.652041, 40.893428], "type": "Point"}, "id": "RnxzvzPVINXn0ME_mJ0cTkAaoso=", "properties": {"@spider": "usps_collection_boxes", "addr:city": "ARLINGTON", "addr:country": "US", "addr:full": "120 W LIBERTY ST", "addr:postcode": "45814", "addr:state": "OH", "brand": "USPS", "collection_times": "Mo-Fr 16:15; Sa 11:00", "name": "USPS COLLECTION BOX - PO LOBBY", "note": "ON 12/24 AND 12/31, THIS BOX MAY BE COLLECTED AS EARLY AS 12 NOON.", "ref": "4581400001"}, "type": "Feature"}
{"geometry": {"coordinates": [-83.652051693, 40.893426512], "type": "Point"}, "id": "6ixYKu8IVRXGKf0UqCaCks2v-kI=", "properties": {"@spider": "usps_collection_boxes", "addr:city": "ARLINGTON", "addr:country": "US", "addr:full": "120 W LIBERTY ST", "addr:postcode": "45814", "addr:state": "OH", "brand": "USPS", "collection_times": "Mo-Fr 16:15; Sa 11:00", "name": "USPS COLLECTION BOX - PO LOBBY", "note": "ON 12/24 AND 12/31, THIS BOX MAY BE COLLECTED AS EARLY AS 12 NOON.", "ref": "4581400006"}, "type": "Feature"}
{"geometry": {"coordinates": [-83.7958739, 41.004625], "type": "Point"}, "id": "OsjA1mIhNZY0HdpN7gYHoNRA0Aw=", "properties": {"@spider": "usps_collection_boxes", "addr:city": "BENTON RIDGE", "addr:country": "US", "addr:full": "143 MAIN ST", "addr:postcode": "45816", "addr:state": "OH", "brand": "USPS", "collection_times": "Mo-Sa 11:00", "name": "USPS COLLECTION BOX - BLUE BOX", "ref": "4581600001"}, "type": "Feature"}
{"geometry": {"coordinates": [-83.8932671, 40.892885], "type": "Point"}, "id": "OANZIJAQgLtB_tTvo6CuQb40_Y4=", "properties": {"@spider": "usps_collection_boxes", "addr:city": "BLUFFTON", "addr:country": "US", "addr:full": "105 FRANKLIN ST", "addr:postcode": "45817", "addr:state": "OH", "brand": "USPS", "collection_times": "Mo-Fr 16:30; Sa 12:00", "name": "USPS COLLECTION BOX - BLUE BOX", "note": "ON 12/24 AND 12/31, THIS BOX MAY BE COLLECTED AS EARLY AS 12 NOON.", "ref": "4581700010"}, "type": "Feature"}
{"geometry": {"coordinates": [-83.8929483, 40.892846], "type": "Point"}, "id": "4X3o2OmkHzAwfNR2B5wsXX9lsRc=", "properties": {"@spider": "usps_collection_boxes", "addr:city": "BLUFFTON", "addr:country": "US", "addr:full": "132 S MAIN ST", "addr:postcode": "45817", "addr:state": "OH", "brand": "USPS", "collection_times": "Mo-Fr 16:30; Sa 12:00", "name": "USPS COLLECTION BOX - PO LOBBY", "note": "ON 12/24 AND 12/31, THIS BOX MAY BE COLLECTED AS EARLY AS 12 NOON.", "ref": "4581700012"}, "type": "Feature"}
{"geometry": {"coordinates": [-83.892719675, 40.89278878], "type": "Point"}, "id": "SEg0UjYakBRmJvDpg1-J5--7dyU=", "properties": {"@spider": "usps_collection_boxes", "addr:city": "BLUFFTON", "addr:country": "US", "addr:full": "132 S MAIN ST", "addr:postcode": "45817", "addr:state": "OH", "brand": "USPS", "collection_times": "Mo-Fr 16:30; Sa 12:00", "name": "USPS COLLECTION BOX - PO LOBBY", "note": "ON 12/24 AND 12/31, THIS BOX MAY BE COLLECTED AS EARLY AS 12 NOON.", "ref": "4581700020"}, "type": "Feature"}
{"geometry": {"coordinates": [-83.691602, 40.782214], "type": "Point"}, "id": "YPYPL0Hoh6uGghM_miFCK6xLOao=", "properties": {"@spider": "usps_collection_boxes", "addr:city": "DOLA", "addr:country": "US", "addr:full": "9924 FRANKLIN ST", "addr:postcode": "45835", "addr:state": "OH", "brand": "USPS", "collection_times": "Mo-Fr 16:30; Sa 12:00", "name": "USPS COLLECTION BOX - BLUE BOX", "note": "ON 12/24 AND 12/31, THIS BOX MAY BE COLLECTED AS EARLY AS 12 NOON.", "ref": "4583500000"}, "type": "Feature"}
{"geometry": {"coordinates": [-83.691487, 40.78225], "type": "Point"}, "id": "C0PTVdg2vZZ9J9D3E2JzA5Gc3cE=", "properties": {"@spider": "usps_collection_boxes", "addr:city": "DOLA", "addr:country": "US", "addr:full": "9924 FRANKLIN ST", "addr:postcode": "45835", "addr:state": "OH", "brand": "USPS", "collection_times": "Mo-Fr 16:30; Sa 12:00", "name": "USPS COLLECTION BOX - PO LOBBY", "note": "ON 12/24 AND 12/31, THIS BOX MAY BE COLLECTED AS EARLY AS 12 NOON.", "ref": "4583500001"}, "type": "Feature"}
{"geometry": {"coordinates": [-83.692527957, 40.7821566017], "type": "Point"}, "id": "kUZEj6GzPq3xoNnr_GSoF5yJ0nE=", "properties": {"@spider": "usps_collection_boxes", "addr:city": "DOLA", "addr:country": "US", "addr:full": "9924 FRANKLIN ST", "addr:postcode": "45835", "addr:state": "OH", "brand": "USPS", "collection_times": "Mo-Fr 16:30; Sa 12:00", "name": "USPS COLLECTION BOX - PO LOBBY", "note": "ON 12/24 AND 12/31, THIS BOX MAY BE COLLECTED AS EARLY AS 12 NOON.", "ref": "4583500005"}, "type": "Feature"}
{"geometry": {"coordinates": [-83.643466, 40.789665], "type": "Point"}, "id": "KcpxoKzdqQvBaP4eSYBxP4ecXSM=", "properties": {"@spider": "usps_collection_boxes", "addr:city": "DUNKIRK", "addr:country": "US", "addr:full": "240 N MAIN ST", "addr:postcode": "45836", "addr:state": "OH", "brand": "USPS", "collection_times": "Mo-Fr 15:00; Sa 12:00", "name": "USPS COLLECTION BOX - BLUE BOX", "note": "ON 12/24 AND 12/31, THIS BOX MAY BE COLLECTED AS EARLY AS 12 NOON.", "ref": "4583600001"}, "type": "Feature"}
{"geometry": {"coordinates": [-83.643466, 40.789665], "type": "Point"}, "id": "44Sw5i95m6LMatZkXAzebBbzG5Q=", "properties": {"@spider": "usps_collection_boxes", "addr:city": "DUNKIRK", "addr:country": "US", "addr:full": "240 N MAIN ST", "addr:postcode": "45836", "addr:state": "OH", "brand": "USPS", "collection_times": "Mo-Fr 15:00; Sa 12:00", "name": "USPS COLLECTION BOX - PO LOBBY", "note": "ON 12/24 AND 12/31, THIS BOX MAY BE COLLECTED AS EARLY AS 12 NOON.", "ref": "4583600002"}, "type": "Feature"}
{"geometry": {"coordinates": [-83.6434576379, 40.7896047552], "type": "Point"}, "id": "24B0OQaDHmXoAqECxOsKjVpXXrk=", "properties": {"@spider": "usps_collection_boxes", "addr:city": "DUNKIRK", "addr:country": "US", "addr:full": "250 N MAIN ST", "addr:postcode": "45836", "addr:state": "OH", "brand": "USPS", "collection_times": "Mo-Fr 15:00; Sa 12:00", "name": "USPS COLLECTION BOX - PO LOBBY", "note": "ON 12/24 AND 12/31, THIS BOX MAY BE COLLECTED AS EARLY AS 12 NOON.", "ref": "4583600006"}, "type": "Feature"}
{"geometry": {"coordinates": [-83.652941, 41.039143], "type": "Point"}, "id": "b35vq8kr9MIDhxXLHkeXxJHr7UA=", "properties": {"@spider": "usps_collection_boxes", "addr:city": "FINDLAY", "addr:country": "US", "addr:full": "229 W MAIN CROSS ST", "addr:postcode": "45840", "addr:state": "OH", "brand": "USPS", "collection_times": "Mo-Fr 17:30; Sa 15:30", "name": "USPS COLLECTION BOX - PO LOBBY", "note": "ON 12/24 AND 12/31, THIS BOX MAY BE COLLECTED AS EARLY AS 12 NOON.", "ref": "4584000001"}, "type": "Feature"}
{"geometry": {"coordinates": [-83.652941, 41.039143], "type": "Point"}, "id": "aGzc3YFcexXvbQI5ka-dGerJW-M=", "properties": {"@spider": "usps_collection_boxes", "addr:city": "FINDLAY", "addr:country": "US", "addr:full": "229 W MAIN CROSS ST", "addr:postcode": "45840", "addr:state": "OH", "brand": "USPS", "collection_times": "Mo-Fr 17:30; Sa 15:30", "name": "USPS COLLECTION BOX - BLUE BOX", "note": "ON 12/24 AND 12/31, THIS BOX MAY BE COLLECTED AS EARLY AS 12 NOON.", "ref": "4584000004"}, "type": "Feature"}
{"geometry": {"coordinates": [-83.652941, 41.039143], "type": "Point"}, "id": "XYR_Dj9lGagkarBrIypK03vzv38=", "properties": {"@spider": "usps_collection_boxes", "addr:city": "FINDLAY", "addr:country": "US", "addr:full": "229 W MAIN CROSS ST", "addr:postcode": "45840", "addr:state": "OH", "brand": "USPS", "collection_times": "Mo-Fr 17:30; Sa 15:30", "name": "USPS COLLECTION BOX - BLUE BOX", "note": "ON 12/24 AND 12/31, THIS BOX MAY BE COLLECTED AS EARLY AS 12 NOON.", "ref": "4584000005"}, "type": "Feature"}
{"geometry": {"coordinates": [-83.6100611, 41.054006], "type": "Point"}, "id": "hnWkpZq6O1HNmBShVRrQOamWdKc=", "properties": {"@spider": "usps_collection_boxes", "addr:city": "FINDLAY", "addr:country": "US", "addr:full": "1920 TIFFIN AVE", "addr:postcode": "45840", "addr:state": "OH", "brand": "USPS", "collection_times": "Mo-Fr 12:00; Sa 10:00", "name": "USPS COLLECTION BOX - BLUE BOX", "ref": "4584000019"}, "type": "Feature"}
{"geometry": {"coordinates": [-83.6100672, 41.054002], "type": "Point"}, "id": "kK_4K9KPTBtDMND3kxUCY3Fgpok=", "properties": {"@spider": "usps_collection_boxes", "addr:city": "FINDLAY", "addr:country": "US", "addr:full": "1920 TIFFIN AVE", "addr:postcode": "45840", "addr:state": "OH", "brand": "USPS", "collection_times": "Mo-Fr 12:00; Sa 10:00", "name": "USPS COLLECTION BOX - BLUE BOX", "ref": "4584000020"}, "type": "Feature"}
{"geometry": {"coordinates": [-83.6312305, 41.048861], "type": "Point"}, "id": "_z4h-cVGnU5A7-fwPAlVsLSpnWM=", "properties": {"@spider": "usps_collection_boxes", "addr:city": "FINDLAY", "addr:country": "US", "addr:full": "1016 TIFFIN AVE", "addr:postcode": "45840", "addr:state": "OH", "brand": "USPS", "collection_times": "Mo-Fr 12:00; Sa 10:00", "name": "USPS COLLECTION BOX - BLUE BOX", "ref": "4584000025"}, "type": "Feature"}
{"geometry": {"coordinates": [-83.6466652, 41.043788], "type": "Point"}, "id": "isr1cSRYU-54BGyX-Yysi_rSv-g=", "properties": {"@spider": "usps_collection_boxes", "addr:city": "FINDLAY", "addr:country": "US", "addr:full": "301 CENTER ST", "addr:postcode": "45840", "addr:state": "OH", "brand": "USPS", "collection_times": "Mo-Sa 12:00", "name": "USPS COLLECTION BOX - BLUE BOX", "ref": "4584000028"}, "type": "Feature"}
{"geometry": {"coordinates": [-83.6494643, 41.057974], "type": "Point"}, "id": "8DMFyyGQ6xY34u91dGyxDZLWRX0=", "properties": {"@spider": "usps_collection_boxes", "addr:city": "FINDLAY", "addr:country": "US", "addr:full": "1403 N MAIN ST", "addr:postcode": "45840", "addr:state": "OH", "brand": "USPS", "collection_times": "Mo-Sa 10:00", "name": "USPS COLLECTION BOX - BLUE BOX", "ref": "4584000031"}, "type": "Feature"}
{"geometry": {"coordinates": [-83.6331873, 41.067642], "type": "Point"}, "id": "hiswXt2_Q86IMK2xOZlqLbYPXIk=", "properties": {"@spider": "usps_collection_boxes", "addr:city": "FINDLAY", "addr:country": "US", "addr:full": "2400 CRYSTAL AVE", "addr:postcode": "45840", "addr:state": "OH", "brand": "USPS", "collection_times": "Mo-Sa 10:00", "name": "USPS COLLECTION BOX - BLUE BOX", "ref": "4584000034"}, "type": "Feature"}
{"geometry": {"coordinates": [-83.6501062, 41.06515], "type": "Point"}, "id": "QAvYIjQZCsYR8_VFYrg53bEIcDk=", "properties": {"@spider": "usps_collection_boxes", "addr:city": "FINDLAY", "addr:country": "US", "addr:full": "2016 N MAIN ST", "addr:postcode": "45840", "addr:state": "OH", "brand": "USPS", "collection_times": "Mo-Sa 10:00", "name": "USPS COLLECTION BOX - BLUE BOX", "ref": "4584000042"}, "type": "Feature"}
{"geometry": {"coordinates": [-83.6580374, 41.050397], "type": "Point"}, "id": "dMPEuDrtSud8imd-_ELRup57O0I=", "properties": {"@spider": "usps_collection_boxes", "addr:city": "FINDLAY", "addr:country": "US", "addr:full": "421 DEFINANCE AVE", "addr:postcode": "45840", "addr:state": "OH", "brand": "USPS", "collection_times": "Mo-Fr 12:00; Sa 12:30", "name": "USPS COLLECTION BOX - BLUE BOX", "note": "ON 12/24 AND 12/31, THIS BOX MAY BE COLLECTED AS EARLY AS 12 NOON.", "ref": "4584000045"}, "type": "Feature"}
{"geometry": {"coordinates": [-83.6880393704, 41.050423637], "type": "Point"}, "id": "jDbDXPmisrjOkJnwft2LmpkHvSI=", "properties": {"@spider": "usps_collection_boxes", "addr:city": "FINDLAY", "addr:country": "US", "addr:full": "10030 EDGEWOOD DR", "addr:postcode": "45840", "addr:state": "OH", "brand": "USPS", "collection_times": "Mo-Sa 11:00", "name": "USPS COLLECTION BOX - BLUE BOX", "ref": "4584000053"}, "type": "Feature"}
{"geometry": {"coordinates": [-83.6600653, 41.027652], "type": "Point"}, "id": "1PT47OFmRWydI2dPkKOgZkfERkE=", "properties": {"@spider": "usps_collection_boxes", "addr:city": "FINDLAY", "addr:country": "US", "addr:full": "700 LIMA AVE", "addr:postcode": "45840", "addr:state": "OH", "brand": "USPS", "collection_times": "Mo-Sa 09:30", "name": "USPS COLLECTION BOX - BLUE BOX", "ref": "4584000055"}, "type": "Feature"}
{"geometry": {"coordinates": [-83.6498516, 41.008784], "type": "Point"}, "id": "FYKJcXgTZ3sE3CrMc0X6-FvH52g=", "properties": {"@spider": "usps_collection_boxes", "addr:city": "FINDLAY", "addr:country": "US", "addr:full": "2443 S MAIN ST", "addr:postcode": "45840", "addr:state": "OH", "brand": "USPS", "collection_times": "Mo-Sa 10:30", "name": "USPS COLLECTION BOX - BLUE BOX", "ref": "4584000056"}, "type": "Feature"}
{"geometry": {"coordinates": [-83.6499236, 41.022298], "type": "Point"}, "id": "b7iNnhYXXLoIodMqCZBbiy4IeGc=", "properties": {"@spider": "usps_collection_boxes", "addr:city": "FINDLAY", "addr:country": "US", "addr:full": "101 6TH ST", "addr:postcode": "45840", "addr:state": "OH", "brand": "USPS", "collection_times": "Mo-Fr 12:00; Sa 13:30", "name": "USPS COLLECTION BOX - BLUE BOX", "note": "ON 12/24 AND 12/31, THIS BOX MAY BE COLLECTED AS EARLY AS 12 NOON.", "ref": "4584000057"}, "type": "Feature"}
{"geometry": {"coordinates": [-83.6376986, 41.034585], "type": "Point"}, "id": "fR-BqWHpwGA1T2nXxavPU0L6iXg=", "properties": {"@spider": "usps_collection_boxes", "addr:city": "FINDLAY", "addr:country": "US", "addr:full": "638 E LINCOLN ST", "addr:postcode": "45840", "addr:state": "OH", "brand": "USPS", "collection_times": "Mo-Sa 11:00", "name": "USPS COLLECTION BOX - BLUE BOX", "ref": "4584000061"}, "type": "Feature"}
{"geometry": {"coordinates": [-83.6515004, 41.035796], "type": "Point"}, "id": "BBlJbt9Dv3SZVda4QImrYGYV9P4=", "properties": {"@spider": "usps_collection_boxes", "addr:city": "FINDLAY", "addr:country": "US", "addr:full": "128 W HARDIN ST", "addr:postcode": "45840", "addr:state": "OH", "brand": "USPS", "collection_times": "Mo-Sa 09:30", "name": "USPS COLLECTION BOX - BLUE BOX", "ref": "4584000071"}, "type": "Feature"}
{"geometry": {"coordinates": [-83.6505293, 41.03783], "type": "Point"}, "id": "QRoYMbqfLiA6Nx-F7OwMVXiE-tQ=", "properties": {"@spider": "usps_collection_boxes", "addr:city": "FINDLAY", "addr:country": "US", "addr:full": "100 W CRAWFORD ST", "addr:postcode": "45840", "addr:state": "OH", "brand": "USPS", "collection_times": "Mo-Sa 09:30", "name": "USPS COLLECTION BOX - BLUE BOX", "ref": "4584000072"}, "type": "Feature"}
{"geometry": {"coordinates": [-83.6512751, 41.038652], "type": "Point"}, "id": "nT1odL1UdRzG427OwrzL3EqJr0k=", "properties": {"@spider": "usps_collection_boxes", "addr:city": "FINDLAY", "addr:country": "US", "addr:full": "318 DORNEY PLZ", "addr:postcode": "45840", "addr:state": "OH", "brand": "USPS", "collection_times": "Mo-Sa 09:30", "name": "USPS COLLECTION BOX - BLUE BOX", "ref": "4584000073"}, "type": "Feature"}
{"geometry": {"coordinates": [-83.6512699, 41.038638], "type": "Point"}, "id": "gGBz8lp5AVq6Zuj9W9mbvxzyOBs=", "properties": {"@spider": "usps_collection_boxes", "addr:city": "FINDLAY", "addr:country": "US", "addr:full": "318 DORNEY PLZ", "addr:postcode": "45840", "addr:state": "OH", "brand": "USPS", "collection_times": "Mo-Sa 09:30", "name": "USPS COLLECTION BOX - BLUE BOX", "ref": "4584000074"}, "type": "Feature"}
{"geometry": {"coordinates": [-83.652941, 41.039143], "type": "Point"}, "id": "netp6fASvOIgPibPQKasmA7otUk=", "properties": {"@spider": "usps_collection_boxes", "addr:city": "FINDLAY", "addr:country": "US", "addr:full": "229 W MAIN CROSS ST", "addr:postcode": "45840", "addr:state": "OH", "brand": "USPS", "collection_times": "Mo-Fr 17:30; Sa 15:30", "name": "USPS COLLECTION BOX - APC", "note": "ON 12/24 AND 12/31, THIS BOX MAY BE COLLECTED AS EARLY AS 12 NOON.", "ref": "4584000079"}, "type": "Feature"}
{"geometry": {"coordinates": [-83.6497931, 41.071708], "type": "Point"}, "id": "7wRZH7wZCNVb4ljU7jk5WTwHiBI=", "properties": {"@spider": "usps_collection_boxes", "addr:city": "FINDLAY", "addr:country": "US", "addr:full": "2701 N MAIN ST", "addr:postcode": "45840", "addr:state": "OH", "brand": "USPS", "collection_times": "Mo-Sa 10:00", "name": "USPS COLLECTION BOX - BLUE BOX", "ref": "4584000080"}, "type": "Feature"}
{"geometry": {"coordinates": [-83.6143542, 41.053806], "type": "Point"}, "id": "KyyaGDgNx2rqXNuqu6lTWOqPVXs=", "properties": {"@spider": "usps_collection_boxes", "addr:city": "FINDLAY", "addr:country": "US", "addr:full": "1800 TIFFIN AVE", "addr:postcode": "45840", "addr:state": "OH", "brand": "USPS", "collection_times": "Mo-Fr 12:00; Sa 10:00", "name": "USPS COLLECTION BOX - BLUE BOX", "ref": "4584000081"}, "type": "Feature"}
{"geometry": {"coordinates": [-83.653221861, 41.039140466], "type": "Point"}, "id": "LYnbozQt2gLahy4C76_5sMXTX1Y=", "properties": {"@spider": "usps_collection_boxes", "addr:city": "FINDLAY", "addr:country": "US", "addr:full": "229 W MAIN CROSS ST", "addr:postcode": "45840", "addr:state": "OH", "brand": "USPS", "collection_times": "Mo-Fr 17:00; Sa 12:00", "name": "USPS COLLECTION BOX - PO LOBBY", "note": "ON 12/24 AND 12/31, THIS BOX MAY BE COLLECTED AS EARLY AS 12 NOON.", "ref": "4584000092"}, "type": "Feature"}
{"geometry": {"coordinates": [-83.7271899, 40.899603], "type": "Point"}, "id": "QFqpY8ygDTPwzGcoOt2p4veE0V4=", "properties": {"@spider": "usps_collection_boxes", "addr:city": "JENERA", "addr:country": "US", "addr:full": "104 N MAIN ST", "addr:postcode": "45841", "addr:state": "OH", "brand": "USPS", "collection_times": "Mo-Sa 10:00", "name": "USPS COLLECTION BOX - BLUE BOX", "ref": "4584100000"}, "type": "Feature"}
{"geometry": {"coordinates": [-83.511612, 40.801788], "type": "Point"}, "id": "wLpFABGO3fBIbLAZFeAilSGduA0=", "properties": {"@spider": "usps_collection_boxes", "addr:city": "FOREST", "addr:country": "US", "addr:full": "108 E LIMA ST", "addr:postcode": "45843", "addr:state": "OH", "brand": "USPS", "collection_times": "Mo-Fr 15:00; Sa 11:15", "name": "USPS COLLECTION BOX - PO LOBBY", "note": "ON 12/24 AND 12/31, THIS BOX MAY BE COLLECTED AS EARLY AS 12 NOON.", "ref": "4584300001"}, "type": "Feature"}
{"geometry": {"coordinates": [-83.511612, 40.801788], "type": "Point"}, "id": "sD7_JjtHQQbT-t8W_R_Fp8EaxYk=", "properties": {"@spider": "usps_collection_boxes", "addr:city": "FOREST", "addr:country": "US", "addr:full": "108 E LIMA ST", "addr:postcode": "45843", "addr:state": "OH", "brand": "USPS", "collection_times": "Mo-Fr 15:00; Sa 11:15", "name": "USPS COLLECTION BOX - BLUE BOX", "note": "ON 12/24 AND 12/31, THIS BOX MAY BE COLLECTED AS EARLY AS 12 NOON.", "ref": "4584300002"}, "type": "Feature"}
{"geometry": {"coordinates": [-83.511593581, 40.801787475], "type": "Point"}, "id": "mO00jti-9SEdv8pEBSNd7SrUAwY=", "properties": {"@spider": "usps_collection_boxes", "addr:city": "FOREST", "addr:country": "US", "addr:full": "108 E LIMA ST", "addr:postcode": "45843", "addr:state": "OH", "brand": "USPS", "collection_times": "Mo-Fr 15:00; Sa 11:30", "name": "USPS COLLECTION BOX - PO LOBBY", "note": "ON 12/24 AND 12/31, THIS BOX MAY BE COLLECTED AS EARLY AS 12 NOON.", "ref": "4584300009"}, "type": "Feature"}
{"geometry": {"coordinates": [-83.921924, 40.709302], "type": "Point"}, "id": "YJb9tXiB8BORC9mpgmKUXmt_S4s=", "properties": {"@spider": "usps_collection_boxes", "addr:city": "HARROD", "addr:country": "US", "addr:full": "129 W 3RD ST", "addr:postcode": "45850", "addr:state": "OH", "brand": "USPS", "collection_times": "Mo-Fr 15:30; Sa 10:45", "name": "USPS COLLECTION BOX - BLUE BOX", "note": "ON 12/24 AND 12/31, THIS BOX MAY BE COLLECTED AS EARLY AS 12 NOON.", "ref": "4585000000"}, "type": "Feature"}
{"geometry": {"coordinates": [-83.921924, 40.709302], "type": "Point"}, "id": "xaNf0nvvcXyzsRbNsKzLU3gQ9mA=", "properties": {"@spider": "usps_collection_boxes", "addr:city": "HARROD", "addr:country": "US", "addr:full": "129 W 3RD ST", "addr:postcode": "45850", "addr:state": "OH", "brand": "USPS", "collection_times": "Mo-Fr 15:15; Sa 10:45", "name": "USPS COLLECTION BOX - PO LOBBY", "note": "ON 12/24 AND 12/31, THIS BOX MAY BE COLLECTED AS EARLY AS 12 NOON.", "ref": "4585000001"}, "type": "Feature"}
{"geometry": {"coordinates": [-83.921923289, 40.709296562], "type": "Point"}, "id": "zpW-XOCEENBm23GpMkA8dCA1iFM=", "properties": {"@spider": "usps_collection_boxes", "addr:city": "HARROD", "addr:country": "US", "addr:full": "129 W 3RD ST", "addr:postcode": "45850", "addr:state": "OH", "brand": "USPS", "collection_times": "Mo-Fr 15:15; Sa 11:00", "name": "USPS COLLECTION BOX - PO LOBBY", "note": "ON 12/24 AND 12/31, THIS BOX MAY BE COLLECTED AS EARLY AS 12 NOON.", "ref": "4585000007"}, "type": "Feature"}
{"geometry": {"coordinates": [-83.9457970673, 40.7599841282], "type": "Point"}, "id": "4FcmpqdTy6QSjkYAAgAjeu7SCGs=", "properties": {"@spider": "usps_collection_boxes", "addr:city": "LIMA", "addr:country": "US", "addr:full": "225 E SUGAR ST", "addr:postcode": "45854", "addr:state": "OH", "brand": "USPS", "collection_times": "Mo-Sa 10:00", "name": "USPS COLLECTION BOX - BLUE BOX", "ref": "4585400003"}, "type": "Feature"}
{"geometry": {"coordinates": [-83.785321, 40.692836], "type": "Point"}, "id": "Vafy_n9lk6J6oACBo-GoNYXc2Yo=", "properties": {"@spider": "usps_collection_boxes", "addr:city": "MC GUFFEY", "addr:country": "US", "addr:full": "402 COURTRIGHT ST", "addr:postcode": "45859", "addr:state": "OH", "brand": "USPS", "collection_times": "Mo-Fr 16:00; Sa 11:30", "name": "USPS COLLECTION BOX - BLUE BOX", "note": "ON 12/24 AND 12/31, THIS BOX MAY BE COLLECTED AS EARLY AS 12 NOON.", "ref": "4585900000"}, "type": "Feature"}
{"geometry": {"coordinates": [-83.78529, 40.692923], "type": "Point"}, "id": "sP6jVFKXt9ILuHHqh6d6Lqvaq0k=", "properties": {"@spider": "usps_collection_boxes", "addr:city": "MC GUFFEY", "addr:country": "US", "addr:full": "402 COURTRIGHT ST", "addr:postcode": "45859", "addr:state": "OH", "brand": "USPS", "collection_times": "Mo-Fr 16:00; Sa 11:30", "name": "USPS COLLECTION BOX - PO LOBBY", "note": "ON 12/24 AND 12/31, THIS BOX MAY BE COLLECTED AS EARLY AS 12 NOON.", "ref": "4585900002"}, "type": "Feature"}
{"geometry": {"coordinates": [-83.785319192, 40.692707382], "type": "Point"}, "id": "7PEptrSi-He4_C0kXa7G7IDXxYs=", "properties": {"@spider": "usps_collection_boxes", "addr:city": "MC GUFFEY", "addr:country": "US", "addr:full": "402 COURTRIGHT ST", "addr:postcode": "45859", "addr:state": "OH", "brand": "USPS", "collection_times": "Mo-Fr 16:00; Sa 11:45", "name": "USPS COLLECTION BOX - PO LOBBY", "note": "ON 12/24 AND 12/31, THIS BOX MAY BE COLLECTED AS EARLY AS 12 NOON.", "ref": "4585900005"}, "type": "Feature"}
{"geometry": {"coordinates": [-83.556718, 40.900041], "type": "Point"}, "id": "EeqEKEi2itLRA3dZ0FOEcelLaEs=", "properties": {"@spider": "usps_collection_boxes", "addr:city": "MT BLANCHARD", "addr:country": "US", "addr:full": "121 N MAIN ST", "addr:postcode": "45867", "addr:state": "OH", "brand": "USPS", "collection_times": "Mo-Fr 16:15; Sa 11:30", "name": "USPS COLLECTION BOX - BLUE BOX", "note": "ON 12/24 AND 12/31, THIS BOX MAY BE COLLECTED AS EARLY AS 12 NOON.", "ref": "4586700000"}, "type": "Feature"}
{"geometry": {"coordinates": [-83.556718, 40.900041], "type": "Point"}, "id": "fqJRf7xY5cZ-on9_Gqp6cIK9KsQ=", "properties": {"@spider": "usps_collection_boxes", "addr:city": "MT BLANCHARD", "addr:country": "US", "addr:full": "121 N MAIN ST", "addr:postcode": "45867", "addr:state": "OH", "brand": "USPS", "collection_times": "Mo-Fr 16:15; Sa 11:45", "name": "USPS COLLECTION BOX - PO LOBBY", "note": "ON 12/24 AND 12/31, THIS BOX MAY BE COLLECTED AS EARLY AS 12 NOON.", "ref": "4586700001"}, "type": "Feature"}
{"geometry": {"coordinates": [-83.5567063131, 40.9000862828], "type": "Point"}, "id": "5XaG8U75wkV2pkciJ8yBwKDqv2w=", "properties": {"@spider": "usps_collection_boxes", "addr:city": "MT BLANCHARD", "addr:country": "US", "addr:full": "121 N MAIN ST", "addr:postcode": "45867", "addr:state": "OH", "brand": "USPS", "collection_times": "Mo-Fr 16:15; Sa 11:45", "name": "USPS COLLECTION BOX - PO LOBBY", "note": "ON 12/24 AND 12/31, THIS BOX MAY BE COLLECTED AS EARLY AS 12 NOON.", "ref": "4586700005"}, "type": "Feature"}
{"geometry": {"coordinates": [-83.825244, 40.934711], "type": "Point"}, "id": "U9E-tbSfEAp4d-NT7lMbqbZuMxA=", "properties": {"@spider": "usps_collection_boxes", "addr:city": "MOUNT CORY", "addr:country": "US", "addr:full": "209 LINCOLN ST", "addr:postcode": "45868", "addr:state": "OH", "brand": "USPS", "collection_times": "Mo-Fr 16:00; Sa 11:00", "name": "USPS COLLECTION BOX - BLUE BOX", "note": "ON 12/24 AND 12/31, THIS BOX MAY BE COLLECTED AS EARLY AS 12 NOON.", "ref": "4586800000"}, "type": "Feature"}
{"geometry": {"coordinates": [-83.825244, 40.934711], "type": "Point"}, "id": "SElgyq162Khj6V-k2qZhBxOjA_I=", "properties": {"@spider": "usps_collection_boxes", "addr:city": "MOUNT CORY", "addr:country": "US", "addr:full": "209 LINCOLN ST", "addr:postcode": "45868", "addr:state": "OH", "brand": "USPS", "collection_times": "Mo-Fr 16:00; Sa 11:00", "name": "USPS COLLECTION BOX - PO LOBBY", "note": "ON 12/24 AND 12/31, THIS BOX MAY BE COLLECTED AS EARLY AS 12 NOON.", "ref": "4586800001"}, "type": "Feature"}
{"geometry": {"coordinates": [-83.825246114, 40.934709251], "type": "Point"}, "id": "cSgX8c_C3zjqJDLXg85k9LR0KB0=", "properties": {"@spider": "usps_collection_boxes", "addr:city": "MOUNT CORY", "addr:country": "US", "addr:full": "209 LINCOLN ST", "addr:postcode": "45868", "addr:state": "OH", "brand": "USPS", "collection_times": "Mo-Sa 11:30", "name": "USPS COLLECTION BOX - PO LOBBY", "ref": "4586800005"}, "type": "Feature"}
{"geometry": {"coordinates": [-83.952058, 40.556107], "type": "Point"}, "id": "CSJvF2lFtiivRZN3TVxhnWC2pc4=", "properties": {"@spider": "usps_collection_boxes", "addr:city": "NEW HAMPSHIRE", "addr:country": "US", "addr:full": "46 E MARKET ST", "addr:postcode": "45870", "addr:state": "OH", "brand": "USPS", "collection_times": "Mo-Fr 16:30; Sa 12:00", "name": "USPS COLLECTION BOX - PO LOBBY", "note": "ON 12/24 AND 12/31, THIS BOX MAY BE COLLECTED AS EARLY AS 12 NOON.", "ref": "4587000000"}, "type": "Feature"}
{"geometry": {"coordinates": [-83.952069, 40.556081], "type": "Point"}, "id": "UgIE8XwfY6hqs1YLHW1eFhurJ2E=", "properties": {"@spider": "usps_collection_boxes", "addr:city": "NEW HAMPSHIRE", "addr:country": "US", "addr:full": "46 E MARKET ST", "addr:postcode": "45870", "addr:state": "OH", "brand": "USPS", "collection_times": "Mo-Fr 16:30; Sa 12:00", "name": "USPS COLLECTION BOX - BLUE BOX", "note": "ON 12/24 AND 12/31, THIS BOX MAY BE COLLECTED AS EARLY AS 12 NOON.", "ref": "4587000001"}, "type": "Feature"}
{"geometry": {"coordinates": [-83.952309746, 40.5561045], "type": "Point"}, "id": "f2X_nYbk66Km8EFfst5rO2DOt1I=", "properties": {"@spider": "usps_collection_boxes", "addr:city": "NEW HAMPSHIRE", "addr:country": "US", "addr:full": "46 E MARKET ST", "addr:postcode": "45870", "addr:state": "OH", "brand": "USPS", "collection_times": "Mo-Fr 16:30; Sa 12:00", "name": "USPS COLLECTION BOX - PO LOBBY", "note": "ON 12/24 AND 12/31, THIS BOX MAY BE COLLECTED AS EARLY AS 12 NOON.", "ref": "4587000004"}, "type": "Feature"}
{"geometry": {"coordinates": [-83.96095, 40.948132], "type": "Point"}, "id": "NxXW0FCv9FskXYqYPx1xyKBxYyM=", "properties": {"@spider": "usps_collection_boxes", "addr:city": "PANDORA", "addr:country": "US", "addr:full": "120 E MAIN ST", "addr:postcode": "45877", "addr:state": "OH", "brand": "USPS", "collection_times": "Mo-Fr 16:00; Sa 11:15", "name": "USPS COLLECTION BOX - BLUE BOX", "note": "ON 12/24 AND 12/31, THIS BOX MAY BE COLLECTED AS EARLY AS 12 NOON.", "ref": "4587700000"}, "type": "Feature"}
{"geometry": {"coordinates": [-83.96095, 40.948132], "type": "Point"}, "id": "ZqkGG-ZTXj2dW_M1MwS0YDsXQmw=", "properties": {"@spider": "usps_collection_boxes", "addr:city": "PANDORA", "addr:country": "US", "addr:full": "120 E MAIN ST", "addr:postcode": "45877", "addr:state": "OH", "brand": "USPS", "collection_times": "Mo-Fr 16:30; Sa 11:15", "name": "USPS COLLECTION BOX - PO LOBBY", "note": "ON 12/24 AND 12/31, THIS BOX MAY BE COLLECTED AS EARLY AS 12 NOON.", "ref": "4587700001"}, "type": "Feature"}
{"geometry": {"coordinates": [-83.96095, 40.948132], "type": "Point"}, "id": "bVr3gQAw0eOgImfpxCKmt2NjYtc=", "properties": {"@spider": "usps_collection_boxes", "addr:city": "PANDORA", "addr:country": "US", "addr:full": "120 E MAIN ST", "addr:postcode": "45877", "addr:state": "OH", "brand": "USPS", "collection_times": "Mo-Fr 16:30; Sa 11:15", "name": "USPS COLLECTION BOX - PO LOBBY", "note": "ON 12/24 AND 12/31, THIS BOX MAY BE COLLECTED AS EARLY AS 12 NOON.", "ref": "4587700002"}, "type": "Feature"}
{"geometry": {"coordinates": [-83.9609500809, 40.948127529], "type": "Point"}, "id": "m-AYMDRp7LoI4MM0MFzMXy_zgZA=", "properties": {"@spider": "usps_collection_boxes", "addr:city": "PANDORA", "addr:country": "US", "addr:full": "120 E MAIN ST", "addr:postcode": "45877", "addr:state": "OH", "brand": "USPS", "collection_times": "Mo-Fr 16:30; Sa 11:30", "name": "USPS COLLECTION BOX - PO LOBBY", "note": "ON 12/24 AND 12/31, THIS BOX MAY BE COLLECTED AS EARLY AS 12 NOON.", "ref": "4587700007"}, "type": "Feature"}
{"geometry": {"coordinates": [-83.785124, 40.956631], "type": "Point"}, "id": "W8ZENxkHx7pAiF8ptMVpDaiUAKk=", "properties": {"@spider": "usps_collection_boxes", "addr:city": "RAWSON", "addr:country": "US", "addr:full": "101 S MAIN ST", "addr:postcode": "45881", "addr:state": "OH", "brand": "USPS", "collection_times": "Mo-Fr 16:15; Sa 11:15", "name": "USPS COLLECTION BOX - PO LOBBY", "note": "ON 12/24 AND 12/31, THIS BOX MAY BE COLLECTED AS EARLY AS 12 NOON.", "ref": "4588100000"}, "type": "Feature"}
{"geometry": {"coordinates": [-83.785124, 40.956631], "type": "Point"}, "id": "TzxgSOKhwf7ywskAvymW5iwpJ1w=", "properties": {"@spider": "usps_collection_boxes", "addr:city": "RAWSON", "addr:country": "US", "addr:full": "101 S MAIN ST", "addr:postcode": "45881", "addr:state": "OH", "brand": "USPS", "collection_times": "Mo-Fr 16:15; Sa 11:15", "name": "USPS COLLECTION BOX - BLUE BOX", "note": "ON 12/24 AND 12/31, THIS BOX MAY BE COLLECTED AS EARLY AS 12 NOON.", "ref": "4588100001"}, "type": "Feature"}
{"geometry": {"coordinates": [-83.785125669, 40.956625006], "type": "Point"}, "id": "QYJIQewSNzJioGKbg_zYF0zt86k=", "properties": {"@spider": "usps_collection_boxes", "addr:city": "RAWSON", "addr:country": "US", "addr:full": "101 S MAIN ST", "addr:postcode": "45881", "addr:state": "OH", "brand": "USPS", "collection_times": "Mo-Fr 16:15; Sa 11:15", "name": "USPS COLLECTION BOX - PO LOBBY", "note": "ON 12/24 AND 12/31, THIS BOX MAY BE COLLECTED AS EARLY AS 12 NOON.", "ref": "4588100007"}, "type": "Feature"}
{"geometry": {"coordinates": [-83.480423, 40.973849], "type": "Point"}, "id": "7KWEJlwOyPxWcDrGkwE49YEYTZU=", "properties": {"@spider": "usps_collection_boxes", "addr:city": "VANLUE", "addr:country": "US", "addr:full": "301 S BUFFALO ST", "addr:postcode": "45890", "addr:state": "OH", "brand": "USPS", "collection_times": "Mo-Fr 16:00; Sa 13:30", "name": "USPS COLLECTION BOX - BLUE BOX", "note": "ON 12/24 AND 12/31, THIS BOX MAY BE COLLECTED AS EARLY AS 12 NOON.", "ref": "4589000000"}, "type": "Feature"}
{"geometry": {"coordinates": [-83.480423, 40.973849], "type": "Point"}, "id": "Crbx6HCUaoTFaxac58HwGaVGfj8=", "properties": {"@spider": "usps_collection_boxes", "addr:city": "VANLUE", "addr:country": "US", "addr:full": "301 S BUFFALO ST", "addr:postcode": "45890", "addr:state": "OH", "brand": "USPS", "collection_times": "Mo-Fr 16:00; Sa 13:30", "name": "USPS COLLECTION BOX - PO LOBBY", "note": "ON 12/24 AND 12/31, THIS BOX MAY BE COLLECTED AS EARLY AS 12 NOON.", "ref": "4589000001"}, "type": "Feature"}
{"geometry": {"coordinates": [-83.479505711, 40.975174782], "type": "Point"}, "id": "dhCJY9teo5c01grourE0-nWeJWI=", "properties": {"@spider": "usps_collection_boxes", "addr:city": "VANLUE", "addr:country": "US", "addr:full": "301 S BUFFALO ST", "addr:postcode": "45890", "addr:state": "OH", "brand": "USPS", "collection_times": "Mo-Fr 16:15; Sa 13:30", "name": "USPS COLLECTION BOX - PO LOBBY", "note": "ON 12/24 AND 12/31, THIS BOX MAY BE COLLECTED AS EARLY AS 12 NOON.", "ref": "4589000004"}, "type": "Feature"}
{"geometry": {"coordinates": [-83.975457, 40.60143], "type": "Point"}, "id": "6r1796lgMy1rjCe9vd9nu5Y_i0A=", "properties": {"@spider": "usps_collection_boxes", "addr:city": "WAYNESFIELD", "addr:country": "US", "addr:full": "109 N WESTMINSTER ST", "addr:postcode": "45896", "addr:state": "OH", "brand": "USPS", "collection_times": "Mo-Fr 16:00; Sa 12:00", "name": "USPS COLLECTION BOX - BLUE BOX", "note": "ON 12/24 AND 12/31, THIS BOX MAY BE COLLECTED AS EARLY AS 12 NOON.", "ref": "4589600000"}, "type": "Feature"}
{"geometry": {"coordinates": [-83.975457, 40.60143], "type": "Point"}, "id": "2oADYttcOz4UFFDmwv2HLgqIUsI=", "properties": {"@spider": "usps_collection_boxes", "addr:city": "WAYNESFIELD", "addr:country": "US", "addr:full": "109 N WESTMINSTER ST", "addr:postcode": "45896", "addr:state": "OH", "brand": "USPS", "collection_times": "Mo-Fr 16:00; Sa 12:00", "name": "USPS COLLECTION BOX - PO LOBBY", "note": "ON 12/24 AND 12/31, THIS BOX MAY BE COLLECTED AS EARLY AS 12 NOON.", "ref": "4589600001"}, "type": "Feature"}
{"geometry": {"coordinates": [-83.9754581888, 40.601403], "type": "Point"}, "id": "NIU-rNIZwXMxtwZk_l0QFcW6pJM=", "properties": {"@spider": "usps_collection_boxes", "addr:city": "WAYNESFIELD", "addr:country": "US", "addr:full": "109 N WESTMINSTER ST", "addr:postcode": "45896", "addr:state": "OH", "brand": "USPS", "collection_times": "Mo-Fr 16:00; Sa 12:00", "name": "USPS COLLECTION BOX - PO LOBBY", "note": "ON 12/24 AND 12/31, THIS BOX MAY BE COLLECTED AS EARLY AS 12 NOON.", "ref": "4589600006"}, "type": "Feature"}
