{"geometry": {"coordinates": [-85.672009, 40.27395], "type": "Point"}, "id": "dhB-9MkGJqsjSed9ydue0rin3Ck=", "properties": {"@spider": "usps_collection_boxes", "addr:city": "ALEXANDRIA", "addr:country": "US", "addr:full": "1216 LINCOLN AVE", "addr:postcode": "46001", "addr:state": "IN", "brand": "USPS", "collection_times": "Mo-Sa 14:30", "name": "USPS COLLECTION BOX - BLUE BOX", "note": "ON 12/24 AND 12/31, THIS BOX MAY BE COLLECTED AS EARLY AS 12 NOON.", "ref": "4600100004"}, "type": "Feature"}
{"geometry": {"coordinates": [-85.675961, 40.263533], "type": "Point"}, "id": "bHN6QWl0MPjjpvhBgKLE8DpQHII=", "properties": {"@spider": "usps_collection_boxes", "addr:city": "ALEXANDRIA", "addr:country": "US", "addr:full": "205 W CHURCH ST", "addr:postcode": "46001", "addr:state": "IN", "brand": "USPS", "collection_times": "Mo-Fr 17:00; Sa 15:00", "name": "USPS COLLECTION BOX - PO LOBBY", "note": "ON 12/24 AND 12/31, THIS BOX MAY BE COLLECTED AS EARLY AS 12 NOON.", "ref": "4600100010"}, "type": "Feature"}
{"geometry": {"coordinates": [-85.675961, 40.263533], "type": "Point"}, "id": "MEwu0DY2KAFQuMwm2voYJQHtAjE=", "properties": {"@spider": "usps_collection_boxes", "addr:city": "ALEXANDRIA", "addr:country": "US", "addr:full": "205 W CHURCH ST", "addr:postcode": "46001", "addr:state": "IN", "brand": "USPS", "collection_times": "Mo-Fr 17:00; Sa 15:30", "name": "USPS COLLECTION BOX - BLUE BOX", "note": "ON 12/24 AND 12/31, THIS BOX MAY BE COLLECTED AS EARLY AS 12 NOON.", "ref": "4600100014"}, "type": "Feature"}
{"geometry": {"coordinates": [-85.675963332, 40.263531518], "type": "Point"}, "id": "4Xi7lj7wAyrcN2CzDeIQQAg_ajY=", "properties": {"@spider": "usps_collection_boxes", "addr:city": "ALEXANDRIA", "addr:country": "US", "addr:full": "205 W CHURCH ST", "addr:postcode": "46001", "addr:state": "IN", "brand": "USPS", "collection_times": "Mo-Fr 16:45; Sa 12:00", "name": "USPS COLLECTION BOX - PO LOBBY", "note": "ON 12/24 AND 12/31, THIS BOX MAY BE COLLECTED AS EARLY AS 12 NOON.", "ref": "4600100020"}, "type": "Feature"}
{"geometry": {"coordinates": [-86.021557, 40.17638], "type": "Point"}, "id": "qX1Y9jl4X9PdlQQXr265ZK27nCA=", "properties": {"@spider": "usps_collection_boxes", "addr:city": "ARCADIA", "addr:country": "US", "addr:full": "104 N WASHINGTON ST", "addr:postcode": "46030", "addr:state": "IN", "brand": "USPS", "collection_times": "Mo-Fr 16:00; Sa 12:00", "name": "USPS COLLECTION BOX - BLUE BOX", "note": "ON 12/24 AND 12/31, THIS BOX MAY BE COLLECTED AS EARLY AS 12 NOON.", "ref": "4603000001"}, "type": "Feature"}
{"geometry": {"coordinates": [-86.021557, 40.17638], "type": "Point"}, "id": "jOGJ8NIyvfMv1U-d5pcK9xH3VKU=", "properties": {"@spider": "usps_collection_boxes", "addr:city": "ARCADIA", "addr:country": "US", "addr:full": "104 N WASHINGTON ST", "addr:postcode": "46030", "addr:state": "IN", "brand": "USPS", "collection_times": "Mo-Fr 16:00; Sa 12:00", "name": "USPS COLLECTION BOX - PO LOBBY", "note": "ON 12/24 AND 12/31, THIS BOX MAY BE COLLECTED AS EARLY AS 12 NOON.", "ref": "4603000002"}, "type": "Feature"}
{"geometry": {"coordinates": [-86.021557, 40.17638], "type": "Point"}, "id": "nxfAuKSnavrkh5BcaUk-u1aLiYM=", "properties": {"@spider": "usps_collection_boxes", "addr:city": "ARCADIA", "addr:country": "US", "addr:full": "104 N WASHINGTON ST", "addr:postcode": "46030", "addr:state": "IN", "brand": "USPS", "collection_times": "Mo-Fr 16:00; Sa 12:00", "name": "USPS COLLECTION BOX - PO LOBBY", "note": "ON 12/24 AND 12/31, THIS BOX MAY BE COLLECTED AS EARLY AS 12 NOON.", "ref": "4603000003"}, "type": "Feature"}
{"geometry": {"coordinates": [-86.021558499, 40.176378], "type": "Point"}, "id": "A2Ygto0CG7vUqXsJSsbEASGTOF0=", "properties": {"@spider": "usps_collection_boxes", "addr:city": "ARCADIA", "addr:country": "US", "addr:full": "104 N WASHINGTON ST", "addr:postcode": "46030", "addr:state": "IN", "brand": "USPS", "collection_times": "Mo-Fr 16:00; Sa 12:00", "name": "USPS COLLECTION BOX - PO LOBBY", "note": "ON 12/24 AND 12/31, THIS BOX MAY BE COLLECTED AS EARLY AS 12 NOON.", "ref": "4603000004"}, "type": "Feature"}
{"geometry": {"coordinates": [-86.02717, 40.216054], "type": "Point"}, "id": "b7CYiYyr-cNHJL0Wi0qNX159-I4=", "properties": {"@spider": "usps_collection_boxes", "addr:city": "ATLANTA", "addr:country": "US", "addr:full": "150 W MAIN ST", "addr:postcode": "46031", "addr:state": "IN", "brand": "USPS", "collection_times": "Mo-Fr 15:30; Sa 11:00", "name": "USPS COLLECTION BOX - BLUE BOX", "note": "ON 12/24 AND 12/31, THIS BOX MAY BE COLLECTED AS EARLY AS 12 NOON.", "ref": "4603100000"}, "type": "Feature"}
{"geometry": {"coordinates": [-86.02717, 40.216054], "type": "Point"}, "id": "vI0yWVxcKIZRQEOBCW2xnVydOqI=", "properties": {"@spider": "usps_collection_boxes", "addr:city": "ATLANTA", "addr:country": "US", "addr:full": "150 W MAIN ST", "addr:postcode": "46031", "addr:state": "IN", "brand": "USPS", "collection_times": "Mo-Fr 12:45; Sa 11:00", "name": "USPS COLLECTION BOX - PO LOBBY", "note": "ON 12/24 AND 12/31, THIS BOX MAY BE COLLECTED AS EARLY AS 12 NOON.", "ref": "4603100001"}, "type": "Feature"}
{"geometry": {"coordinates": [-86.02717994, 40.216042521], "type": "Point"}, "id": "ZjwbyR9QVrS295y3Lo2JWI530S0=", "properties": {"@spider": "usps_collection_boxes", "addr:city": "ATLANTA", "addr:country": "US", "addr:full": "150 W MAIN ST", "addr:postcode": "46031", "addr:state": "IN", "brand": "USPS", "collection_times": "Mo-Fr 13:00; Sa 11:00", "name": "USPS COLLECTION BOX - PO LOBBY", "note": "ON 12/24 AND 12/31, THIS BOX MAY BE COLLECTED AS EARLY AS 12 NOON.", "ref": "4603100003"}, "type": "Feature"}
{"geometry": {"coordinates": [-86.1401871, 39.986857], "type": "Point"}, "id": "Ee1_KrSzuYgHdmVQSKXHqydejWA=", "properties": {"@spider": "usps_collection_boxes", "addr:city": "CARMEL", "addr:country": "US", "addr:full": "13640 N MERIDIAN ST", "addr:postcode": "46032", "addr:state": "IN", "brand": "USPS", "collection_times": "Mo-Sa 10:30", "name": "USPS COLLECTION BOX - BLUE BOX", "ref": "4603200015"}, "type": "Feature"}
{"geometry": {"coordinates": [-86.1289082, 39.97836], "type": "Point"}, "id": "yAO7wJoQetNV4chSAqbApdf_0Q8=", "properties": {"@spider": "usps_collection_boxes", "addr:city": "CARMEL", "addr:country": "US", "addr:full": "115 W MAIN ST", "addr:postcode": "46032", "addr:state": "IN", "brand": "USPS", "collection_times": "Mo-Sa 10:00", "name": "USPS COLLECTION BOX - BLUE BOX", "ref": "4603200020"}, "type": "Feature"}
{"geometry": {"coordinates": [-86.1268066, 39.990454], "type": "Point"}, "id": "y8yiPVYm0xiN5eWP2s9GzuFBr-s=", "properties": {"@spider": "usps_collection_boxes", "addr:city": "CARMEL", "addr:country": "US", "addr:full": "1010 CLUBHOUSE CT", "addr:postcode": "46032", "addr:state": "IN", "brand": "USPS", "collection_times": "Mo-Sa 11:00", "name": "USPS COLLECTION BOX - BLUE BOX", "ref": "4603200028"}, "type": "Feature"}
{"geometry": {"coordinates": [-86.1255734, 39.978465], "type": "Point"}, "id": "QZfpGSMmgU4f94Mc_5gU3COC350=", "properties": {"@spider": "usps_collection_boxes", "addr:city": "CARMEL", "addr:country": "US", "addr:full": "110 E MAIN ST", "addr:postcode": "46032", "addr:state": "IN", "brand": "USPS", "collection_times": "Mo-Sa 09:30", "name": "USPS COLLECTION BOX - BLUE BOX", "ref": "4603200032"}, "type": "Feature"}
{"geometry": {"coordinates": [-86.128842526, 39.966351502], "type": "Point"}, "id": "KjDAz5iky6VTxJS0aQYqKMh3Okc=", "properties": {"@spider": "usps_collection_boxes", "addr:city": "CARMEL", "addr:country": "US", "addr:full": "2 CIVIC SQ", "addr:postcode": "46032", "addr:state": "IN", "brand": "USPS", "collection_times": "Mo-Fr 10:30", "name": "USPS COLLECTION BOX - BLUE BOX", "ref": "4603200036"}, "type": "Feature"}
{"geometry": {"coordinates": [-86.155012204, 39.959049296], "type": "Point"}, "id": "v0m87IZw9UJ5923Tc_E1TJwuJ2Y=", "properties": {"@spider": "usps_collection_boxes", "addr:city": "CARMEL", "addr:country": "US", "addr:full": "11711 N PENNSYLVANIA ST", "addr:postcode": "46032", "addr:state": "IN", "brand": "USPS", "collection_times": "Mo-Fr 15:30", "name": "USPS COLLECTION BOX - BLUE BOX", "note": "ON 12/24 AND 12/31, THIS BOX MAY BE COLLECTED AS EARLY AS 12 NOON.", "ref": "4603200042"}, "type": "Feature"}
{"geometry": {"coordinates": [-86.1455954, 39.958817], "type": "Point"}, "id": "homYDDQqvex26BZjVWPOnUq_TIw=", "properties": {"@spider": "usps_collection_boxes", "addr:city": "CARMEL", "addr:country": "US", "addr:full": "11711 N COLLEGE AVE", "addr:postcode": "46032", "addr:state": "IN", "brand": "USPS", "collection_times": "Mo-Fr 15:30", "name": "USPS COLLECTION BOX - BLUE BOX", "note": "ON 12/24 AND 12/31, THIS BOX MAY BE COLLECTED AS EARLY AS 12 NOON.", "ref": "4603200054"}, "type": "Feature"}
{"geometry": {"coordinates": [-86.1445886, 39.977281], "type": "Point"}, "id": "RJj54TfBF9LaoK1psxzfc3cx6D4=", "properties": {"@spider": "usps_collection_boxes", "addr:city": "CARMEL", "addr:country": "US", "addr:full": "1017 W MAIN ST", "addr:postcode": "46032", "addr:state": "IN", "brand": "USPS", "collection_times": "Mo-Sa 13:00", "name": "USPS COLLECTION BOX - BLUE BOX", "note": "ON 12/24 AND 12/31, THIS BOX MAY BE COLLECTED AS EARLY AS 12 NOON.", "ref": "4603200057"}, "type": "Feature"}
{"geometry": {"coordinates": [-86.1598853, 39.970776], "type": "Point"}, "id": "yT31Jh7aO0OzJayfi9u4K4P-ICM=", "properties": {"@spider": "usps_collection_boxes", "addr:city": "CARMEL", "addr:country": "US", "addr:full": "12460 N MERIDIAN ST", "addr:postcode": "46032", "addr:state": "IN", "brand": "USPS", "collection_times": "Mo-Fr 10:00", "name": "USPS COLLECTION BOX - BLUE BOX", "ref": "4603200058"}, "type": "Feature"}
{"geometry": {"coordinates": [-86.1593866, 39.973947], "type": "Point"}, "id": "AoDQaftRNx9JR7jVCX1uLkwGp9c=", "properties": {"@spider": "usps_collection_boxes", "addr:city": "CARMEL", "addr:country": "US", "addr:full": "12800 N MERIDIAN ST", "addr:postcode": "46032", "addr:state": "IN", "brand": "USPS", "collection_times": "Mo-Fr 12:00", "name": "USPS COLLECTION BOX - BLUE BOX", "ref": "4603200082"}, "type": "Feature"}
{"geometry": {"coordinates": [-86.2258328, 39.927659], "type": "Point"}, "id": "qn9CbjRwI_tqri7nHKOWsgJNYTY=", "properties": {"@spider": "usps_collection_boxes", "addr:city": "CARMEL", "addr:country": "US", "addr:full": "9650 COMMERCE DR", "addr:postcode": "46032", "addr:state": "IN", "brand": "USPS", "collection_times": "Mo-Sa 10:00", "name": "USPS COLLECTION BOX - BLUE BOX", "ref": "4603200101"}, "type": "Feature"}
{"geometry": {"coordinates": [-86.667385, 40.193835], "type": "Point"}, "id": "i8I7iJaZo2kGw5SlZSkP4fuNvms=", "properties": {"@spider": "usps_collection_boxes", "addr:city": "COLFAX", "addr:country": "US", "addr:full": "114 W MAIN ST", "addr:postcode": "46035", "addr:state": "IN", "brand": "USPS", "collection_times": "Mo-Fr 15:45; Sa 10:45", "name": "USPS COLLECTION BOX - BLUE BOX", "note": "ON 12/24 AND 12/31, THIS BOX MAY BE COLLECTED AS EARLY AS 12 NOON.", "ref": "4603500001"}, "type": "Feature"}
{"geometry": {"coordinates": [-86.667385, 40.193835], "type": "Point"}, "id": "7byO3eSwTn5Lc9Oxd92Sg8oO0ik=", "properties": {"@spider": "usps_collection_boxes", "addr:city": "COLFAX", "addr:country": "US", "addr:full": "114 W MAIN ST", "addr:postcode": "46035", "addr:state": "IN", "brand": "USPS", "collection_times": "Mo-Fr 11:45; Sa 10:45", "name": "USPS COLLECTION BOX - PO LOBBY", "ref": "4603500003"}, "type": "Feature"}
{"geometry": {"coordinates": [-86.667393896, 40.193862379], "type": "Point"}, "id": "gqxSqQuYP43p8yJMkgd871MCag0=", "properties": {"@spider": "usps_collection_boxes", "addr:city": "COLFAX", "addr:country": "US", "addr:full": "114 W MAIN ST", "addr:postcode": "46035", "addr:state": "IN", "brand": "USPS", "collection_times": "Mo-Fr 12:00; Sa 11:00", "name": "USPS COLLECTION BOX - PO LOBBY", "ref": "4603500004"}, "type": "Feature"}
{"geometry": {"coordinates": [-85.841622, 40.277957], "type": "Point"}, "id": "49LHtLds-WV0yGc2QQgX0XfIdXg=", "properties": {"@spider": "usps_collection_boxes", "addr:city": "ELWOOD", "addr:country": "US", "addr:full": "1500 N A ST", "addr:postcode": "46036", "addr:state": "IN", "brand": "USPS", "collection_times": "Mo-Fr 17:00; Sa 16:15", "name": "USPS COLLECTION BOX - BLUE BOX", "note": "ON 12/24 AND 12/31, THIS BOX MAY BE COLLECTED AS EARLY AS 12 NOON.", "ref": "4603600002"}, "type": "Feature"}
{"geometry": {"coordinates": [-85.841854, 40.277659], "type": "Point"}, "id": "B5Ar8NXxZ882wyQLA29peXCCXM8=", "properties": {"@spider": "usps_collection_boxes", "addr:city": "ELWOOD", "addr:country": "US", "addr:full": "119 N ANDERSON ST", "addr:postcode": "46036", "addr:state": "IN", "brand": "USPS", "collection_times": "Mo-Fr 17:00; Sa 15:45", "name": "USPS COLLECTION BOX - PO LOBBY", "note": "ON 12/24 AND 12/31, THIS BOX MAY BE COLLECTED AS EARLY AS 12 NOON.", "ref": "4603600003"}, "type": "Feature"}
{"geometry": {"coordinates": [-85.8169419, 40.263698], "type": "Point"}, "id": "6V2BPXCobODUoLKEPOO9BXZ8iuE=", "properties": {"@spider": "usps_collection_boxes", "addr:city": "ELWOOD", "addr:country": "US", "addr:full": "1515 S STATE ROAD 37", "addr:postcode": "46036", "addr:state": "IN", "brand": "USPS", "collection_times": "Mo-Sa 11:00", "name": "USPS COLLECTION BOX - BLUE BOX", "ref": "4603600004"}, "type": "Feature"}
{"geometry": {"coordinates": [-85.841854012, 40.27764491], "type": "Point"}, "id": "EjqG2Gt_XcAGUHAT4GvmOS8RM5U=", "properties": {"@spider": "usps_collection_boxes", "addr:city": "ELWOOD", "addr:country": "US", "addr:full": "119 N ANDERSON ST", "addr:postcode": "46036", "addr:state": "IN", "brand": "USPS", "collection_times": "Mo-Fr 16:00; Sa 11:00", "name": "USPS COLLECTION BOX - PO LOBBY", "note": "ON 12/24 AND 12/31, THIS BOX MAY BE COLLECTED AS EARLY AS 12 NOON.", "ref": "4603600006"}, "type": "Feature"}
{"geometry": {"coordinates": [-85.78044, 40.22299], "type": "Point"}, "id": "KPhjvfOE7ra33ynSGCwHJBEO8Wk=", "properties": {"@spider": "usps_collection_boxes", "addr:city": "FRANKTON", "addr:country": "US", "addr:full": "106 E SIGLER ST", "addr:postcode": "46044", "addr:state": "IN", "brand": "USPS", "collection_times": "Mo-Fr 16:15; Sa 10:45", "name": "USPS COLLECTION BOX - BLUE BOX", "note": "ON 12/24 AND 12/31, THIS BOX MAY BE COLLECTED AS EARLY AS 12 NOON.", "ref": "4604400001"}, "type": "Feature"}
{"geometry": {"coordinates": [-85.78044, 40.22299], "type": "Point"}, "id": "0iw3q-L_XQXj0uBGTYvM46FbAwE=", "properties": {"@spider": "usps_collection_boxes", "addr:city": "FRANKTON", "addr:country": "US", "addr:full": "106 E SIGLER ST", "addr:postcode": "46044", "addr:state": "IN", "brand": "USPS", "collection_times": "Mo-Fr 16:15; Sa 10:45", "name": "USPS COLLECTION BOX - PO LOBBY", "note": "ON 12/24 AND 12/31, THIS BOX MAY BE COLLECTED AS EARLY AS 12 NOON.", "ref": "4604400002"}, "type": "Feature"}
{"geometry": {"coordinates": [-85.7798505, 40.222986464], "type": "Point"}, "id": "Y_XCFcpJMuhBExaBe0l4-uXctj0=", "properties": {"@spider": "usps_collection_boxes", "addr:city": "FRANKTON", "addr:country": "US", "addr:full": "106 E SIGLER ST", "addr:postcode": "46044", "addr:state": "IN", "brand": "USPS", "collection_times": "Mo-Fr 16:00; Sa 11:00", "name": "USPS COLLECTION BOX - PO LOBBY", "note": "ON 12/24 AND 12/31, THIS BOX MAY BE COLLECTED AS EARLY AS 12 NOON.", "ref": "4604400003"}, "type": "Feature"}
{"geometry": {"coordinates": [-85.947852777, 40.283419493], "type": "Point"}, "id": "TEJbNHg3kWBoXXqg63ijCJ3KQW4=", "properties": {"@spider": "usps_collection_boxes", "addr:city": "HOBBS", "addr:country": "US", "addr:full": "3484 E 150 S", "addr:postcode": "46047", "addr:state": "IN", "brand": "USPS", "collection_times": "Mo-Fr 10:45; Sa 08:45", "name": "USPS COLLECTION BOX - BLUE BOX", "ref": "4604700000"}, "type": "Feature"}
{"geometry": {"coordinates": [-85.947852777, 40.283419493], "type": "Point"}, "id": "0kvwEuSLYo4E5yhDy9Du2v_gllY=", "properties": {"@spider": "usps_collection_boxes", "addr:city": "HOBBS", "addr:country": "US", "addr:full": "3484 E 150 S", "addr:postcode": "46047", "addr:state": "IN", "brand": "USPS", "collection_times": "Mo-Fr 10:45; Sa 08:45", "name": "USPS COLLECTION BOX - PO LOBBY", "ref": "4604700001"}, "type": "Feature"}
{"geometry": {"coordinates": [-85.947852777, 40.283419493], "type": "Point"}, "id": "jdFzccKfAq8WZXhb6UfwsbaP3EE=", "properties": {"@spider": "usps_collection_boxes", "addr:city": "HOBBS", "addr:country": "US", "addr:full": "3484 E 150 S", "addr:postcode": "46047", "addr:state": "IN", "brand": "USPS", "collection_times": "Mo-Fr 11:00; Sa 10:30", "name": "USPS COLLECTION BOX - PO LOBBY", "ref": "4604700002"}, "type": "Feature"}
{"geometry": {"coordinates": [-86.470821, 40.047607], "type": "Point"}, "id": "xcrWdPk6VUb9j0-g0W7ZU3jjwVI=", "properties": {"@spider": "usps_collection_boxes", "addr:city": "LEBANON", "addr:country": "US", "addr:full": "304 W MAIN ST", "addr:postcode": "46052", "addr:state": "IN", "brand": "USPS", "collection_times": "Mo-Fr 17:00; Sa 16:00", "name": "USPS COLLECTION BOX - BLUE BOX", "note": "ON 12/24 AND 12/31, THIS BOX MAY BE COLLECTED AS EARLY AS 12 NOON.", "ref": "4605200000"}, "type": "Feature"}
{"geometry": {"coordinates": [-86.470821, 40.047607], "type": "Point"}, "id": "Ig-iDucrrKyyRB4qvHcWgEQOn_4=", "properties": {"@spider": "usps_collection_boxes", "addr:city": "LEBANON", "addr:country": "US", "addr:full": "304 W MAIN ST", "addr:postcode": "46052", "addr:state": "IN", "brand": "USPS", "collection_times": "Mo-Fr 17:00; Sa 16:00", "name": "USPS COLLECTION BOX - BLUE BOX", "note": "ON 12/24 AND 12/31, THIS BOX MAY BE COLLECTED AS EARLY AS 12 NOON.", "ref": "4605200008"}, "type": "Feature"}
{"geometry": {"coordinates": [-86.4853649, 40.05493], "type": "Point"}, "id": "No74_EE94EwBJEg35-2i_x0f7LA=", "properties": {"@spider": "usps_collection_boxes", "addr:city": "LEBANON", "addr:country": "US", "addr:full": "820 CAMPBELL ST", "addr:postcode": "46052", "addr:state": "IN", "brand": "USPS", "collection_times": "Mo-Sa 14:00", "name": "USPS COLLECTION BOX - BLUE BOX", "note": "ON 12/24 AND 12/31, THIS BOX MAY BE COLLECTED AS EARLY AS 12 NOON.", "ref": "4605200013"}, "type": "Feature"}
{"geometry": {"coordinates": [-86.4737068, 40.066197], "type": "Point"}, "id": "0pXHGl3DmTT7NMmuLGnSG64OWqU=", "properties": {"@spider": "usps_collection_boxes", "addr:city": "LEBANON", "addr:country": "US", "addr:full": "2226 N LEBANON ST", "addr:postcode": "46052", "addr:state": "IN", "brand": "USPS", "collection_times": "Mo-Sa 14:00", "name": "USPS COLLECTION BOX - BLUE BOX", "note": "ON 12/24 AND 12/31, THIS BOX MAY BE COLLECTED AS EARLY AS 12 NOON.", "ref": "4605200018"}, "type": "Feature"}
{"geometry": {"coordinates": [-86.4763083, 40.071918], "type": "Point"}, "id": "q2y7G9Hb0axM6k9QAK4H5WrulJ0=", "properties": {"@spider": "usps_collection_boxes", "addr:city": "LEBANON", "addr:country": "US", "addr:full": "2442 N LEBANON ST", "addr:postcode": "46052", "addr:state": "IN", "brand": "USPS", "collection_times": "Mo-Sa 14:00", "name": "USPS COLLECTION BOX - BLUE BOX", "note": "ON 12/24 AND 12/31, THIS BOX MAY BE COLLECTED AS EARLY AS 12 NOON.", "ref": "4605200021"}, "type": "Feature"}
{"geometry": {"coordinates": [-86.4689039, 40.047587], "type": "Point"}, "id": "y50a_miqpKIKxHBtLHfRzlAeiBY=", "properties": {"@spider": "usps_collection_boxes", "addr:city": "LEBANON", "addr:country": "US", "addr:full": "127 W MAIN ST", "addr:postcode": "46052", "addr:state": "IN", "brand": "USPS", "collection_times": "Mo-Sa 14:00", "name": "USPS COLLECTION BOX - BLUE BOX", "note": "ON 12/24 AND 12/31, THIS BOX MAY BE COLLECTED AS EARLY AS 12 NOON.", "ref": "4605200025"}, "type": "Feature"}
{"geometry": {"coordinates": [-86.467924, 40.048433], "type": "Point"}, "id": "lQqmAtHzX3YWQXYHFdJg56Q2cjI=", "properties": {"@spider": "usps_collection_boxes", "addr:city": "LEBANON", "addr:country": "US", "addr:full": "129 N MERIDIAN ST", "addr:postcode": "46052", "addr:state": "IN", "brand": "USPS", "collection_times": "Mo-Sa 14:00", "name": "USPS COLLECTION BOX - BLUE BOX", "note": "ON 12/24 AND 12/31, THIS BOX MAY BE COLLECTED AS EARLY AS 12 NOON.", "ref": "4605200028"}, "type": "Feature"}
{"geometry": {"coordinates": [-86.470722, 40.047607486], "type": "Point"}, "id": "DDIczV5w1Al83gjR69EnirddT2A=", "properties": {"@spider": "usps_collection_boxes", "addr:city": "LEBANON", "addr:country": "US", "addr:full": "304 W MAIN ST", "addr:postcode": "46052", "addr:state": "IN", "brand": "USPS", "collection_times": "Mo-Fr 16:00; Sa 11:00", "name": "USPS COLLECTION BOX - PO LOBBY", "note": "ON 12/24 AND 12/31, THIS BOX MAY BE COLLECTED AS EARLY AS 12 NOON.", "ref": "4605200031"}, "type": "Feature"}
{"geometry": {"coordinates": [-85.728172, 40.269797], "type": "Point"}, "id": "HogETZapZNrHO4wn-qrxx1Hr7Xo=", "properties": {"@spider": "usps_collection_boxes", "addr:city": "ORESTES", "addr:country": "US", "addr:full": "15 S SUPERIOR ST", "addr:postcode": "46063", "addr:state": "IN", "brand": "USPS", "collection_times": "Mo-Fr 15:45; Sa 10:30", "name": "USPS COLLECTION BOX - BLUE BOX", "note": "ON 12/24 AND 12/31, THIS BOX MAY BE COLLECTED AS EARLY AS 12 NOON.", "ref": "4606300001"}, "type": "Feature"}
{"geometry": {"coordinates": [-85.728207, 40.269834], "type": "Point"}, "id": "AMqKijRdIR0EOQnsvheJDyneIcw=", "properties": {"@spider": "usps_collection_boxes", "addr:city": "ORESTES", "addr:country": "US", "addr:full": "15 S SUPERIOR ST", "addr:postcode": "46063", "addr:state": "IN", "brand": "USPS", "collection_times": "Mo-Fr 15:45; Sa 10:30", "name": "USPS COLLECTION BOX - PO LOBBY", "note": "ON 12/24 AND 12/31, THIS BOX MAY BE COLLECTED AS EARLY AS 12 NOON.", "ref": "4606300002"}, "type": "Feature"}
{"geometry": {"coordinates": [-85.728167461, 40.269680696], "type": "Point"}, "id": "wKsF_c7y-fPXBUwUMLoHZjv19SA=", "properties": {"@spider": "usps_collection_boxes", "addr:city": "ORESTES", "addr:country": "US", "addr:full": "15 S SUPERIOR ST", "addr:postcode": "46063", "addr:state": "IN", "brand": "USPS", "collection_times": "Mo-Fr 16:00; Sa 10:00", "name": "USPS COLLECTION BOX - PO LOBBY", "note": "ON 12/24 AND 12/31, THIS BOX MAY BE COLLECTED AS EARLY AS 12 NOON.", "ref": "4606300003"}, "type": "Feature"}
{"geometry": {"coordinates": [-85.64496, 40.337837], "type": "Point"}, "id": "ffb7U5IZyg3G2mzR4QE4IwOEGSM=", "properties": {"@spider": "usps_collection_boxes", "addr:city": "SUMMITVILLE", "addr:country": "US", "addr:full": "120 S MAIN ST", "addr:postcode": "46070", "addr:state": "IN", "brand": "USPS", "collection_times": "Mo-Fr 15:30; Sa 11:00", "name": "USPS COLLECTION BOX - BLUE BOX", "note": "ON 12/24 AND 12/31, THIS BOX MAY BE COLLECTED AS EARLY AS 12 NOON.", "ref": "4607000001"}, "type": "Feature"}
{"geometry": {"coordinates": [-85.64496, 40.337837], "type": "Point"}, "id": "TEXl4z60Xqiyx3H0rEFMU6hQ_Ls=", "properties": {"@spider": "usps_collection_boxes", "addr:city": "SUMMITVILLE", "addr:country": "US", "addr:full": "120 S MAIN ST", "addr:postcode": "46070", "addr:state": "IN", "brand": "USPS", "collection_times": "Mo-Fr 12:00; Sa 11:00", "name": "USPS COLLECTION BOX - PO LOBBY", "ref": "4607000003"}, "type": "Feature"}
{"geometry": {"coordinates": [-85.6450662, 40.337512805], "type": "Point"}, "id": "KCdJ4o33gPVTx9OYP5snafQHQFM=", "properties": {"@spider": "usps_collection_boxes", "addr:city": "SUMMITVILLE", "addr:country": "US", "addr:full": "120 S MAIN ST", "addr:postcode": "46070", "addr:state": "IN", "brand": "USPS", "collection_times": "Mo-Fr 12:00; Sa 11:00", "name": "USPS COLLECTION BOX - PO LOBBY", "ref": "4607000005"}, "type": "Feature"}
{"geometry": {"coordinates": [-86.6057813, 40.13065], "type": "Point"}, "id": "--SgpqrvWdHWMy5uSFNYdRlun6g=", "properties": {"@spider": "usps_collection_boxes", "addr:city": "THORNTOWN", "addr:country": "US", "addr:full": "200 N MARKET ST", "addr:postcode": "46071", "addr:state": "IN", "brand": "USPS", "collection_times": "Mo-Fr 14:00; Sa 11:15", "name": "USPS COLLECTION BOX - BLUE BOX", "note": "ON 12/24 AND 12/31, THIS BOX MAY BE COLLECTED AS EARLY AS 12 NOON.", "ref": "4607100001"}, "type": "Feature"}
{"geometry": {"coordinates": [-86.6057338, 40.129495], "type": "Point"}, "id": "qOfwTzz3la7Yc2FAodmGGke7mO0=", "properties": {"@spider": "usps_collection_boxes", "addr:city": "THORNTOWN", "addr:country": "US", "addr:full": "117 E MAIN ST", "addr:postcode": "46071", "addr:state": "IN", "brand": "USPS", "collection_times": "Mo-Fr 15:00", "name": "USPS COLLECTION BOX - BLUE BOX", "note": "ON 12/24 AND 12/31, THIS BOX MAY BE COLLECTED AS EARLY AS 12 NOON.", "ref": "4607100004"}, "type": "Feature"}
{"geometry": {"coordinates": [-86.6060994, 40.130757], "type": "Point"}, "id": "LHGnP0Zywa-9WPJO27qDbVbZQlA=", "properties": {"@spider": "usps_collection_boxes", "addr:city": "THORNTOWN", "addr:country": "US", "addr:full": "200 N MARKET ST", "addr:postcode": "46071", "addr:state": "IN", "brand": "USPS", "collection_times": "Mo-Fr 14:00; Sa 11:15", "name": "USPS COLLECTION BOX - PO LOBBY", "note": "ON 12/24 AND 12/31, THIS BOX MAY BE COLLECTED AS EARLY AS 12 NOON.", "ref": "4607100006"}, "type": "Feature"}
{"geometry": {"coordinates": [-86.6200815, 40.054354514], "type": "Point"}, "id": "TtrM3J3yk2WSNfibEUv-DwHcgYs=", "properties": {"@spider": "usps_collection_boxes", "addr:city": "THORNTOWN", "addr:country": "US", "addr:full": "8025 W STATE ROAD 32", "addr:postcode": "46071", "addr:state": "IN", "brand": "USPS", "collection_times": "Mo-Fr 10:15", "name": "USPS COLLECTION BOX - BLUE BOX", "ref": "4607100007"}, "type": "Feature"}
{"geometry": {"coordinates": [-86.606428132, 40.130801382], "type": "Point"}, "id": "qamrQ7lb0zjJ6Xxn842U_9rhDX0=", "properties": {"@spider": "usps_collection_boxes", "addr:city": "THORNTOWN", "addr:country": "US", "addr:full": "200 N MARKET ST", "addr:postcode": "46071", "addr:state": "IN", "brand": "USPS", "collection_times": "Mo-Fr 14:00; Sa 11:00", "name": "USPS COLLECTION BOX - PO LOBBY", "note": "ON 12/24 AND 12/31, THIS BOX MAY BE COLLECTED AS EARLY AS 12 NOON.", "ref": "4607100008"}, "type": "Feature"}
{"geometry": {"coordinates": [-86.039261, 40.282283], "type": "Point"}, "id": "MM9gYE9v0VtdcoUzTdpgrzEOM_s=", "properties": {"@spider": "usps_collection_boxes", "addr:city": "TIPTON", "addr:country": "US", "addr:full": "203 E JEFFERSON ST", "addr:postcode": "46072", "addr:state": "IN", "brand": "USPS", "collection_times": "Mo-Fr 16:30; Sa 15:00", "name": "USPS COLLECTION BOX - BLUE BOX", "note": "ON 12/24 AND 12/31, THIS BOX MAY BE COLLECTED AS EARLY AS 12 NOON.", "ref": "4607200022"}, "type": "Feature"}
{"geometry": {"coordinates": [-86.0404346, 40.281354], "type": "Point"}, "id": "pk_lJLwbD317K22vTm5O5-ChHCo=", "properties": {"@spider": "usps_collection_boxes", "addr:city": "TIPTON", "addr:country": "US", "addr:full": "114 COURT ST", "addr:postcode": "46072", "addr:state": "IN", "brand": "USPS", "collection_times": "Mo-Fr 15:00; Sa 09:00", "name": "USPS COLLECTION BOX - BLUE BOX", "note": "ON 12/24 AND 12/31, THIS BOX MAY BE COLLECTED AS EARLY AS 12 NOON.", "ref": "4607200023"}, "type": "Feature"}
{"geometry": {"coordinates": [-86.039261, 40.282283], "type": "Point"}, "id": "GYBbdVs1gDso7oip66i75kahJD0=", "properties": {"@spider": "usps_collection_boxes", "addr:city": "TIPTON", "addr:country": "US", "addr:full": "203 E JEFFERSON ST", "addr:postcode": "46072", "addr:state": "IN", "brand": "USPS", "collection_times": "Mo-Fr 16:30; Sa 15:00", "name": "USPS COLLECTION BOX - PO LOBBY", "note": "ON 12/24 AND 12/31, THIS BOX MAY BE COLLECTED AS EARLY AS 12 NOON.", "ref": "4607200026"}, "type": "Feature"}
{"geometry": {"coordinates": [-86.0304691, 40.283022], "type": "Point"}, "id": "81kVbXwX-SspSTl9PMJx6l77760=", "properties": {"@spider": "usps_collection_boxes", "addr:city": "TIPTON", "addr:country": "US", "addr:full": "840 E JEFFERSON ST", "addr:postcode": "46072", "addr:state": "IN", "brand": "USPS", "collection_times": "Mo-Fr 15:00; Sa 11:00", "name": "USPS COLLECTION BOX - BLUE BOX", "note": "ON 12/24 AND 12/31, THIS BOX MAY BE COLLECTED AS EARLY AS 12 NOON.", "ref": "4607200028"}, "type": "Feature"}
{"geometry": {"coordinates": [-86.039221081, 40.282292474], "type": "Point"}, "id": "G5SmgsS9aL-lBtwJ_V22q_xPmFo=", "properties": {"@spider": "usps_collection_boxes", "addr:city": "TIPTON", "addr:country": "US", "addr:full": "203 E JEFFERSON ST", "addr:postcode": "46072", "addr:state": "IN", "brand": "USPS", "collection_times": "Mo-Fr 16:30; Sa 12:00", "name": "USPS COLLECTION BOX - PO LOBBY", "note": "ON 12/24 AND 12/31, THIS BOX MAY BE COLLECTED AS EARLY AS 12 NOON.", "ref": "4607200032"}, "type": "Feature"}
{"geometry": {"coordinates": [-86.347052, 39.996006], "type": "Point"}, "id": "hNeKa1xHbdSZY2k0tbh2ui_lSYY=", "properties": {"@spider": "usps_collection_boxes", "addr:city": "WHITESTOWN", "addr:country": "US", "addr:full": "110 PORTER AVE", "addr:postcode": "46075", "addr:state": "IN", "brand": "USPS", "collection_times": "Mo-Fr 15:30; Sa 10:30", "name": "USPS COLLECTION BOX - BLUE BOX", "note": "ON 12/24 AND 12/31, THIS BOX MAY BE COLLECTED AS EARLY AS 12 NOON.", "ref": "4607500001"}, "type": "Feature"}
{"geometry": {"coordinates": [-86.347052, 39.996006], "type": "Point"}, "id": "YejG-KYLPYslXHuo5Pm9xmvRJJc=", "properties": {"@spider": "usps_collection_boxes", "addr:city": "WHITESTOWN", "addr:country": "US", "addr:full": "110 PORTER AVE", "addr:postcode": "46075", "addr:state": "IN", "brand": "USPS", "collection_times": "Mo-Fr 15:30; Sa 10:30", "name": "USPS COLLECTION BOX - PO LOBBY", "note": "ON 12/24 AND 12/31, THIS BOX MAY BE COLLECTED AS EARLY AS 12 NOON.", "ref": "4607500002"}, "type": "Feature"}
{"geometry": {"coordinates": [-86.347052, 39.996006], "type": "Point"}, "id": "EyApro3v7nV8yQULyGWPVAELgdE=", "properties": {"@spider": "usps_collection_boxes", "addr:city": "WHITESTOWN", "addr:country": "US", "addr:full": "110 PORTER AVE", "addr:postcode": "46075", "addr:state": "IN", "brand": "USPS", "collection_times": "Mo-Fr 15:30; Sa 10:30", "name": "USPS COLLECTION BOX - PO LOBBY", "note": "ON 12/24 AND 12/31, THIS BOX MAY BE COLLECTED AS EARLY AS 12 NOON.", "ref": "4607500003"}, "type": "Feature"}
{"geometry": {"coordinates": [-86.34705475, 39.995999611], "type": "Point"}, "id": "NG7kA7IxfQkWwbcok29lvTXR_3A=", "properties": {"@spider": "usps_collection_boxes", "addr:city": "WHITESTOWN", "addr:country": "US", "addr:full": "110 PORTER AVE", "addr:postcode": "46075", "addr:state": "IN", "brand": "USPS", "collection_times": "Mo-Fr 15:30; Sa 10:30", "name": "USPS COLLECTION BOX - PO LOBBY", "note": "ON 12/24 AND 12/31, THIS BOX MAY BE COLLECTED AS EARLY AS 12 NOON.", "ref": "4607500004"}, "type": "Feature"}
{"geometry": {"coordinates": [-85.956511, 40.362896], "type": "Point"}, "id": "WXkGUoKl4-4yFk7gpUgIvBlodDQ=", "properties": {"@spider": "usps_collection_boxes", "addr:city": "WINDFALL", "addr:country": "US", "addr:full": "106 MCCLELLAN ST", "addr:postcode": "46076", "addr:state": "IN", "brand": "USPS", "collection_times": "Mo-Fr 16:00; Sa 10:00", "name": "USPS COLLECTION BOX - BLUE BOX", "note": "ON 12/24 AND 12/31, THIS BOX MAY BE COLLECTED AS EARLY AS 12 NOON.", "ref": "4607600001"}, "type": "Feature"}
{"geometry": {"coordinates": [-85.956418, 40.36294], "type": "Point"}, "id": "jiN9pyKbBmQLUlopWOuW5nFZPMk=", "properties": {"@spider": "usps_collection_boxes", "addr:city": "WINDFALL", "addr:country": "US", "addr:full": "106 MCCLELLAN ST", "addr:postcode": "46076", "addr:state": "IN", "brand": "USPS", "collection_times": "Mo-Fr 14:15; Sa 10:00", "name": "USPS COLLECTION BOX - PO LOBBY", "note": "ON 12/24 AND 12/31, THIS BOX MAY BE COLLECTED AS EARLY AS 12 NOON.", "ref": "4607600002"}, "type": "Feature"}
{"geometry": {"coordinates": [-85.956893591, 40.362549558], "type": "Point"}, "id": "XERNQDD96vDL2cIbTpYJytkgjG0=", "properties": {"@spider": "usps_collection_boxes", "addr:city": "WINDFALL", "addr:country": "US", "addr:full": "106 MCCLELLAN ST", "addr:postcode": "46076", "addr:state": "IN", "brand": "USPS", "collection_times": "Mo-Fr 14:30; Sa 10:15", "name": "USPS COLLECTION BOX - PO LOBBY", "note": "ON 12/24 AND 12/31, THIS BOX MAY BE COLLECTED AS EARLY AS 12 NOON.", "ref": "4607600003"}, "type": "Feature"}
{"geometry": {"coordinates": [-86.280992, 39.950073], "type": "Point"}, "id": "Yi0PUOUPXtz5HgtReyVZj7eYQF4=", "properties": {"@spider": "usps_collection_boxes", "addr:city": "ZIONSVILLE", "addr:country": "US", "addr:full": "1475 W OAK ST", "addr:postcode": "46077", "addr:state": "IN", "brand": "USPS", "collection_times": "Mo-Fr 17:00; Sa 16:15", "name": "USPS COLLECTION BOX - BLUE BOX", "note": "ON 12/24 AND 12/31, THIS BOX MAY BE COLLECTED AS EARLY AS 12 NOON.", "ref": "4607700002"}, "type": "Feature"}
{"geometry": {"coordinates": [-86.280992, 39.950073], "type": "Point"}, "id": "y__qjhAY4pZ9s6CYtLxA2JQ_88s=", "properties": {"@spider": "usps_collection_boxes", "addr:city": "ZIONSVILLE", "addr:country": "US", "addr:full": "1475 W OAK ST", "addr:postcode": "46077", "addr:state": "IN", "brand": "USPS", "collection_times": "Mo-Fr 17:00; Sa 16:15", "name": "USPS COLLECTION BOX - BLUE BOX", "note": "ON 12/24 AND 12/31, THIS BOX MAY BE COLLECTED AS EARLY AS 12 NOON.", "ref": "4607700004"}, "type": "Feature"}
{"geometry": {"coordinates": [-86.2785555, 39.95327], "type": "Point"}, "id": "Eq-98eYNFIDNCpvkMAjPMg6YFZw=", "properties": {"@spider": "usps_collection_boxes", "addr:city": "ZIONSVILLE", "addr:country": "US", "addr:full": "1380 SAYLOR DR", "addr:postcode": "46077", "addr:state": "IN", "brand": "USPS", "collection_times": "Mo-Sa 10:00", "name": "USPS COLLECTION BOX - BLUE BOX", "ref": "4607700005"}, "type": "Feature"}
{"geometry": {"coordinates": [-86.2366891, 39.942951], "type": "Point"}, "id": "gpVe4yY-iKwP5-YR9KLb_5TmEbk=", "properties": {"@spider": "usps_collection_boxes", "addr:city": "ZIONSVILLE", "addr:country": "US", "addr:full": "10679 N MICHIGAN RD", "addr:postcode": "46077", "addr:state": "IN", "brand": "USPS", "collection_times": "Mo-Fr 15:00; Sa 10:00", "name": "USPS COLLECTION BOX - BLUE BOX", "note": "ON 12/24 AND 12/31, THIS BOX MAY BE COLLECTED AS EARLY AS 12 NOON.", "ref": "4607700010"}, "type": "Feature"}
{"geometry": {"coordinates": [-86.280992, 39.950073], "type": "Point"}, "id": "LcRUaMqTR51Xa6VTjgvfcsuCjy0=", "properties": {"@spider": "usps_collection_boxes", "addr:city": "ZIONSVILLE", "addr:country": "US", "addr:full": "1475 W OAK ST", "addr:postcode": "46077", "addr:state": "IN", "brand": "USPS", "collection_times": "Mo-Fr 17:00; Sa 16:15", "name": "USPS COLLECTION BOX - PO LOBBY", "note": "ON 12/24 AND 12/31, THIS BOX MAY BE COLLECTED AS EARLY AS 12 NOON.", "ref": "4607700013"}, "type": "Feature"}
{"geometry": {"coordinates": [-86.280992, 39.950073], "type": "Point"}, "id": "VvzrYjXSMGjFcQ3FXeHP6sfPBR4=", "properties": {"@spider": "usps_collection_boxes", "addr:city": "ZIONSVILLE", "addr:country": "US", "addr:full": "1475 W OAK ST", "addr:postcode": "46077", "addr:state": "IN", "brand": "USPS", "collection_times": "Mo-Fr 17:00; Sa 16:15", "name": "USPS COLLECTION BOX - PO LOBBY", "note": "ON 12/24 AND 12/31, THIS BOX MAY BE COLLECTED AS EARLY AS 12 NOON.", "ref": "4607700014"}, "type": "Feature"}
{"geometry": {"coordinates": [-86.2613778, 39.949801], "type": "Point"}, "id": "T8uBBiqDsFk5ZDZ_hYpqp0-zhKg=", "properties": {"@spider": "usps_collection_boxes", "addr:city": "ZIONSVILLE", "addr:country": "US", "addr:full": "205 S MAIN ST", "addr:postcode": "46077", "addr:state": "IN", "brand": "USPS", "collection_times": "Mo-Fr 15:00; Sa 10:00", "name": "USPS COLLECTION BOX - BLUE BOX", "note": "ON 12/24 AND 12/31, THIS BOX MAY BE COLLECTED AS EARLY AS 12 NOON.", "ref": "4607700017"}, "type": "Feature"}
{"geometry": {"coordinates": [-86.280992, 39.950073], "type": "Point"}, "id": "nB47MP2jeZN9epU9zYF0xjGEe64=", "properties": {"@spider": "usps_collection_boxes", "addr:city": "ZIONSVILLE", "addr:country": "US", "addr:full": "1475 W OAK ST", "addr:postcode": "46077", "addr:state": "IN", "brand": "USPS", "collection_times": "Mo-Fr 17:00; Sa 16:15", "name": "USPS COLLECTION BOX - APC", "note": "ON 12/24 AND 12/31, THIS BOX MAY BE COLLECTED AS EARLY AS 12 NOON.", "ref": "4607700019"}, "type": "Feature"}
{"geometry": {"coordinates": [-86.280993, 39.950069546], "type": "Point"}, "id": "k3AmgJXGK1zzAzGvnA9utReHtbQ=", "properties": {"@spider": "usps_collection_boxes", "addr:city": "ZIONSVILLE", "addr:country": "US", "addr:full": "1475 W OAK ST", "addr:postcode": "46077", "addr:state": "IN", "brand": "USPS", "collection_times": "Mo-Fr 18:30; Sa 13:00", "name": "USPS COLLECTION BOX - PO LOBBY", "note": "ON 12/24 AND 12/31, THIS BOX MAY BE COLLECTED AS EARLY AS 12 NOON.", "ref": "4607700023"}, "type": "Feature"}
