{"dataset_attributes": {"@spider": "usps_collection_boxes"}, "geometry": {"coordinates": [-86.6202069664, 39.9960200023], "type": "Point"}, "id": "kKsKsiay0dpNvbGU1vQrE7F2dzI=", "properties": {"@spider": "usps_collection_boxes", "addr:city": "ADVANCE", "addr:country": "US", "addr:full": "110 N MAIN ST", "addr:postcode": "46102", "addr:state": "IN", "amenity": "post_box", "brand": "United States Postal Service", "brand:wikidata": "Q668687", "collection_times": "Mo-Fr 15:45; Sa 10:15", "name": "USPS COLLECTION BOX - BLUE BOX", "note": "ON 12/24 AND 12/31, THIS BOX MAY BE COLLECTED AS EARLY AS 12 NOON.", "nsi_id": "unitedstatespostalservice-a77078", "operator": "United States Postal Service", "operator:short": "USPS", "operator:type": "public", "operator:wikidata": "Q668687", "ref": "4610200000"}, "type": "Feature"}
{"dataset_attributes": {"@spider": "usps_collection_boxes"}, "geometry": {"coordinates": [-86.619919432, 39.995895092], "type": "Point"}, "id": "hUKUKCmMJ6CZv73Bs1msv0WT9m8=", "properties": {"@spider": "usps_collection_boxes", "addr:city": "ADVANCE", "addr:country": "US", "addr:full": "110 N MAIN ST", "addr:postcode": "46102", "addr:state": "IN", "amenity": "post_box", "brand": "United States Postal Service", "brand:wikidata": "Q668687", "collection_times": "Mo-Fr 11:45; Sa 10:15", "name": "USPS COLLECTION BOX - PO LOBBY", "nsi_id": "unitedstatespostalservice-a77078", "operator": "United States Postal Service", "operator:short": "USPS", "operator:type": "public", "operator:wikidata": "Q668687", "ref": "4610200001"}, "type": "Feature"}
{"dataset_attributes": {"@spider": "usps_collection_boxes"}, "geometry": {"coordinates": [-86.619919432, 39.995895092], "type": "Point"}, "id": "otc1J8sIMhFgzHicOCEhbeetLAg=", "properties": {"@spider": "usps_collection_boxes", "addr:city": "ADVANCE", "addr:country": "US", "addr:full": "110 N MAIN ST", "addr:postcode": "46102", "addr:state": "IN", "amenity": "post_box", "brand": "United States Postal Service", "brand:wikidata": "Q668687", "collection_times": "Mo-Fr 12:00; Sa 10:30", "name": "USPS COLLECTION BOX - PO LOBBY", "nsi_id": "unitedstatespostalservice-a77078", "operator": "United States Postal Service", "operator:short": "USPS", "operator:type": "public", "operator:wikidata": "Q668687", "ref": "4610200003"}, "type": "Feature"}
{"dataset_attributes": {"@spider": "usps_collection_boxes"}, "geometry": {"coordinates": [-86.613416, 39.688767], "type": "Point"}, "id": "7Z0-_od4-iAAKjCaB_r9DCOg-NA=", "properties": {"@spider": "usps_collection_boxes", "addr:city": "AMO", "addr:country": "US", "addr:full": "4925 PEARL ST", "addr:postcode": "46103", "addr:state": "IN", "amenity": "post_box", "brand": "United States Postal Service", "brand:wikidata": "Q668687", "collection_times": "Mo-Fr 16:30; Sa 10:00", "name": "USPS COLLECTION BOX - BLUE BOX", "note": "ON 12/24 AND 12/31, THIS BOX MAY BE COLLECTED AS EARLY AS 12 NOON.", "nsi_id": "unitedstatespostalservice-a77078", "operator": "United States Postal Service", "operator:short": "USPS", "operator:type": "public", "operator:wikidata": "Q668687", "ref": "4610300001"}, "type": "Feature"}
{"dataset_attributes": {"@spider": "usps_collection_boxes"}, "geometry": {"coordinates": [-86.613451, 39.688818], "type": "Point"}, "id": "J2xemgkddbI5WPeaT7s5WpCawq8=", "properties": {"@spider": "usps_collection_boxes", "addr:city": "AMO", "addr:country": "US", "addr:full": "4925 PEARL ST", "addr:postcode": "46103", "addr:state": "IN", "amenity": "post_box", "brand": "United States Postal Service", "brand:wikidata": "Q668687", "collection_times": "Mo-Fr 11:45; Sa 10:00", "name": "USPS COLLECTION BOX - PO LOBBY", "nsi_id": "unitedstatespostalservice-a77078", "operator": "United States Postal Service", "operator:short": "USPS", "operator:type": "public", "operator:wikidata": "Q668687", "ref": "4610300003"}, "type": "Feature"}
{"dataset_attributes": {"@spider": "usps_collection_boxes"}, "geometry": {"coordinates": [-86.613414785, 39.688875], "type": "Point"}, "id": "v5nJw65-6XIKz47UZLbRbAdd9sM=", "properties": {"@spider": "usps_collection_boxes", "addr:city": "AMO", "addr:country": "US", "addr:full": "4925 PEARL ST", "addr:postcode": "46103", "addr:state": "IN", "amenity": "post_box", "brand": "United States Postal Service", "brand:wikidata": "Q668687", "collection_times": "Mo-Fr 12:00; Sa 10:00", "name": "USPS COLLECTION BOX - PO LOBBY", "nsi_id": "unitedstatespostalservice-a77078", "operator": "United States Postal Service", "operator:short": "USPS", "operator:type": "public", "operator:wikidata": "Q668687", "ref": "4610300004"}, "type": "Feature"}
{"dataset_attributes": {"@spider": "usps_collection_boxes"}, "geometry": {"coordinates": [-86.812381, 39.761212], "type": "Point"}, "id": "56KReHDw36Q8nBLzLnyPMj12qXA=", "properties": {"@spider": "usps_collection_boxes", "addr:city": "BAINBRIDGE", "addr:country": "US", "addr:full": "106 W MAIN ST", "addr:postcode": "46105", "addr:state": "IN", "amenity": "post_box", "brand": "United States Postal Service", "brand:wikidata": "Q668687", "collection_times": "Mo-Fr 15:15; Sa 10:45", "name": "USPS COLLECTION BOX - BLUE BOX", "note": "ON 12/24 AND 12/31, THIS BOX MAY BE COLLECTED AS EARLY AS 12 NOON.", "nsi_id": "unitedstatespostalservice-a77078", "operator": "United States Postal Service", "operator:short": "USPS", "operator:type": "public", "operator:wikidata": "Q668687", "ref": "4610500001"}, "type": "Feature"}
{"dataset_attributes": {"@spider": "usps_collection_boxes"}, "geometry": {"coordinates": [-86.812381, 39.761212], "type": "Point"}, "id": "T3bZfRp0mwEdy0yUYhxHGUa-Lec=", "properties": {"@spider": "usps_collection_boxes", "addr:city": "BAINBRIDGE", "addr:country": "US", "addr:full": "106 W MAIN ST", "addr:postcode": "46105", "addr:state": "IN", "amenity": "post_box", "brand": "United States Postal Service", "brand:wikidata": "Q668687", "collection_times": "Mo-Fr 15:30; Sa 11:00", "name": "USPS COLLECTION BOX - PO LOBBY", "note": "ON 12/24 AND 12/31, THIS BOX MAY BE COLLECTED AS EARLY AS 12 NOON.", "nsi_id": "unitedstatespostalservice-a77078", "operator": "United States Postal Service", "operator:short": "USPS", "operator:type": "public", "operator:wikidata": "Q668687", "ref": "4610500002"}, "type": "Feature"}
{"dataset_attributes": {"@spider": "usps_collection_boxes"}, "geometry": {"coordinates": [-86.812370277, 39.761194485], "type": "Point"}, "id": "11aVa1BWE9HD35_szX4QaTxqjuc=", "properties": {"@spider": "usps_collection_boxes", "addr:city": "BAINBRIDGE", "addr:country": "US", "addr:full": "106 W MAIN ST", "addr:postcode": "46105", "addr:state": "IN", "amenity": "post_box", "brand": "United States Postal Service", "brand:wikidata": "Q668687", "collection_times": "Mo-Fr 15:30; Sa 11:00", "name": "USPS COLLECTION BOX - PO LOBBY", "note": "ON 12/24 AND 12/31, THIS BOX MAY BE COLLECTED AS EARLY AS 12 NOON.", "nsi_id": "unitedstatespostalservice-a77078", "operator": "United States Postal Service", "operator:short": "USPS", "operator:type": "public", "operator:wikidata": "Q668687", "ref": "4610500004"}, "type": "Feature"}
{"dataset_attributes": {"@spider": "usps_collection_boxes"}, "geometry": {"coordinates": [-86.0795629798, 39.7153430058], "type": "Point"}, "id": "BSHcG3ZQkAHynGFsGkMaOWoH5NQ=", "properties": {"@spider": "usps_collection_boxes", "addr:city": "BEECH GROVE", "addr:country": "US", "addr:full": "335 E CHURCHMAN PL", "addr:postcode": "46107", "addr:state": "IN", "amenity": "post_box", "brand": "United States Postal Service", "brand:wikidata": "Q668687", "collection_times": "Mo-Sa 10:00", "name": "USPS COLLECTION BOX - BLUE BOX", "nsi_id": "unitedstatespostalservice-a77078", "operator": "United States Postal Service", "operator:short": "USPS", "operator:type": "public", "operator:wikidata": "Q668687", "ref": "4610700001"}, "type": "Feature"}
{"dataset_attributes": {"@spider": "usps_collection_boxes"}, "geometry": {"coordinates": [-86.084062, 39.721777], "type": "Point"}, "id": "eMfi_hpMnqh2Jx0DoVjlrtWJ4bo=", "properties": {"@spider": "usps_collection_boxes", "addr:city": "BEECH GROVE", "addr:country": "US", "addr:full": "202 MAIN ST", "addr:postcode": "46107", "addr:state": "IN", "amenity": "post_box", "brand": "United States Postal Service", "brand:wikidata": "Q668687", "collection_times": "Mo-Fr 17:00; Sa 15:00", "name": "USPS COLLECTION BOX - BLUE BOX", "note": "ON 12/24 AND 12/31, THIS BOX MAY BE COLLECTED AS EARLY AS 12 NOON.", "nsi_id": "unitedstatespostalservice-a77078", "operator": "United States Postal Service", "operator:short": "USPS", "operator:type": "public", "operator:wikidata": "Q668687", "ref": "4610700006"}, "type": "Feature"}
{"dataset_attributes": {"@spider": "usps_collection_boxes"}, "geometry": {"coordinates": [-86.1033635255, 39.7234054827], "type": "Point"}, "id": "m2zJhfxPWmvVo5lS5fgA_ZPZWIE=", "properties": {"@spider": "usps_collection_boxes", "addr:city": "BEECH GROVE", "addr:country": "US", "addr:full": "1808 ALBANY ST", "addr:postcode": "46107", "addr:state": "IN", "amenity": "post_box", "brand": "United States Postal Service", "brand:wikidata": "Q668687", "collection_times": "Mo-Sa 09:00", "name": "USPS COLLECTION BOX - BLUE BOX", "nsi_id": "unitedstatespostalservice-a77078", "operator": "United States Postal Service", "operator:short": "USPS", "operator:type": "public", "operator:wikidata": "Q668687", "ref": "4610700014"}, "type": "Feature"}
{"dataset_attributes": {"@spider": "usps_collection_boxes"}, "geometry": {"coordinates": [-86.1020410284, 39.7215635115], "type": "Point"}, "id": "Iqp2fzXQT9ZNvlPoV-txMmeNa-M=", "properties": {"@spider": "usps_collection_boxes", "addr:city": "BEECH GROVE", "addr:country": "US", "addr:full": "1715 MAIN ST", "addr:postcode": "46107", "addr:state": "IN", "amenity": "post_box", "brand": "United States Postal Service", "brand:wikidata": "Q668687", "collection_times": "Mo-Sa 14:00", "name": "USPS COLLECTION BOX - BLUE BOX", "note": "ON 12/24 AND 12/31, THIS BOX MAY BE COLLECTED AS EARLY AS 12 NOON.", "nsi_id": "unitedstatespostalservice-a77078", "operator": "United States Postal Service", "operator:short": "USPS", "operator:type": "public", "operator:wikidata": "Q668687", "ref": "4610700017"}, "type": "Feature"}
{"dataset_attributes": {"@spider": "usps_collection_boxes"}, "geometry": {"coordinates": [-86.0910649, 39.721815], "type": "Point"}, "id": "HylEHAR_9mkSzFKrH0NWVU2rouU=", "properties": {"@spider": "usps_collection_boxes", "addr:city": "BEECH GROVE", "addr:country": "US", "addr:full": "802 MAIN ST", "addr:postcode": "46107", "addr:state": "IN", "amenity": "post_box", "brand": "United States Postal Service", "brand:wikidata": "Q668687", "collection_times": "Mo-Sa 14:00", "name": "USPS COLLECTION BOX - BLUE BOX", "note": "ON 12/24 AND 12/31, THIS BOX MAY BE COLLECTED AS EARLY AS 12 NOON.", "nsi_id": "unitedstatespostalservice-a77078", "operator": "United States Postal Service", "operator:short": "USPS", "operator:type": "public", "operator:wikidata": "Q668687", "ref": "4610700019"}, "type": "Feature"}
{"dataset_attributes": {"@spider": "usps_collection_boxes"}, "geometry": {"coordinates": [-86.0943414, 39.721729], "type": "Point"}, "id": "dVgUe5noxv-tDMgaoAEiTALkpTc=", "properties": {"@spider": "usps_collection_boxes", "addr:city": "BEECH GROVE", "addr:country": "US", "addr:full": "1102 MAIN ST", "addr:postcode": "46107", "addr:state": "IN", "amenity": "post_box", "brand": "United States Postal Service", "brand:wikidata": "Q668687", "collection_times": "Mo-Sa 09:30", "name": "USPS COLLECTION BOX - BLUE BOX", "nsi_id": "unitedstatespostalservice-a77078", "operator": "United States Postal Service", "operator:short": "USPS", "operator:type": "public", "operator:wikidata": "Q668687", "ref": "4610700020"}, "type": "Feature"}
{"dataset_attributes": {"@spider": "usps_collection_boxes"}, "geometry": {"coordinates": [-86.084062, 39.721777], "type": "Point"}, "id": "ruyTx_LHwh_ejEKvpS0kvmCX374=", "properties": {"@spider": "usps_collection_boxes", "addr:city": "BEECH GROVE", "addr:country": "US", "addr:full": "202 MAIN ST", "addr:postcode": "46107", "addr:state": "IN", "amenity": "post_box", "brand": "United States Postal Service", "brand:wikidata": "Q668687", "collection_times": "Mo-Fr 17:00; Sa 15:00", "name": "USPS COLLECTION BOX - PO LOBBY", "note": "ON 12/24 AND 12/31, THIS BOX MAY BE COLLECTED AS EARLY AS 12 NOON.", "nsi_id": "unitedstatespostalservice-a77078", "operator": "United States Postal Service", "operator:short": "USPS", "operator:type": "public", "operator:wikidata": "Q668687", "ref": "4610700040"}, "type": "Feature"}
{"dataset_attributes": {"@spider": "usps_collection_boxes"}, "geometry": {"coordinates": [-86.084062, 39.721777], "type": "Point"}, "id": "2sa39-_jhM6EXrjICC3M0FJBxhU=", "properties": {"@spider": "usps_collection_boxes", "addr:city": "BEECH GROVE", "addr:country": "US", "addr:full": "202 MAIN ST", "addr:postcode": "46107", "addr:state": "IN", "amenity": "post_box", "brand": "United States Postal Service", "brand:wikidata": "Q668687", "collection_times": "Mo-Fr 17:00; Sa 15:00", "name": "USPS COLLECTION BOX - PO LOBBY", "note": "ON 12/24 AND 12/31, THIS BOX MAY BE COLLECTED AS EARLY AS 12 NOON.", "nsi_id": "unitedstatespostalservice-a77078", "operator": "United States Postal Service", "operator:short": "USPS", "operator:type": "public", "operator:wikidata": "Q668687", "ref": "4610700041"}, "type": "Feature"}
{"dataset_attributes": {"@spider": "usps_collection_boxes"}, "geometry": {"coordinates": [-86.084302196, 39.721776504], "type": "Point"}, "id": "68k2FtaRnb62ahYKVL5VV0GS8wI=", "properties": {"@spider": "usps_collection_boxes", "addr:city": "BEECH GROVE", "addr:country": "US", "addr:full": "202 MAIN ST", "addr:postcode": "46107", "addr:state": "IN", "amenity": "post_box", "brand": "United States Postal Service", "brand:wikidata": "Q668687", "collection_times": "Mo-Fr 17:30; Sa 15:00", "name": "USPS COLLECTION BOX - PO LOBBY", "note": "ON 12/24 AND 12/31, THIS BOX MAY BE COLLECTED AS EARLY AS 12 NOON.", "nsi_id": "unitedstatespostalservice-a77078", "operator": "United States Postal Service", "operator:short": "USPS", "operator:type": "public", "operator:wikidata": "Q668687", "ref": "4610700044"}, "type": "Feature"}
{"dataset_attributes": {"@spider": "usps_collection_boxes"}, "geometry": {"coordinates": [-86.385647, 39.856642], "type": "Point"}, "id": "gGrEKsfnbcq6igZChVJjJFY_zbQ=", "properties": {"@spider": "usps_collection_boxes", "addr:city": "BROWNSBURG", "addr:country": "US", "addr:full": "411 E NORTHFIELD DR", "addr:postcode": "46112", "addr:state": "IN", "amenity": "post_box", "brand": "United States Postal Service", "brand:wikidata": "Q668687", "collection_times": "Mo-Fr 17:00; Sa 15:30", "name": "USPS COLLECTION BOX - BLUE BOX", "note": "ON 12/24 AND 12/31, THIS BOX MAY BE COLLECTED AS EARLY AS 12 NOON.", "nsi_id": "unitedstatespostalservice-a77078", "operator": "United States Postal Service", "operator:short": "USPS", "operator:type": "public", "operator:wikidata": "Q668687", "ref": "4611200000"}, "type": "Feature"}
{"dataset_attributes": {"@spider": "usps_collection_boxes"}, "geometry": {"coordinates": [-86.4006978, 39.822376], "type": "Point"}, "id": "hux0KzOqxsyduew91v5-_9oJ2Io=", "properties": {"@spider": "usps_collection_boxes", "addr:city": "BROWNSBURG", "addr:country": "US", "addr:full": "1471 S GREEN ST", "addr:postcode": "46112", "addr:state": "IN", "amenity": "post_box", "brand": "United States Postal Service", "brand:wikidata": "Q668687", "collection_times": "Mo-Sa 11:00", "name": "USPS COLLECTION BOX - BLUE BOX", "nsi_id": "unitedstatespostalservice-a77078", "operator": "United States Postal Service", "operator:short": "USPS", "operator:type": "public", "operator:wikidata": "Q668687", "ref": "4611200001"}, "type": "Feature"}
{"dataset_attributes": {"@spider": "usps_collection_boxes"}, "geometry": {"coordinates": [-86.3804589, 39.837675], "type": "Point"}, "id": "ARtP3ZFXu2Lxegk34RNh5taVg7o=", "properties": {"@spider": "usps_collection_boxes", "addr:city": "BROWNSBURG", "addr:country": "US", "addr:full": "1008 E MAIN ST", "addr:postcode": "46112", "addr:state": "IN", "amenity": "post_box", "brand": "United States Postal Service", "brand:wikidata": "Q668687", "collection_times": "Mo-Sa 11:00", "name": "USPS COLLECTION BOX - BLUE BOX", "nsi_id": "unitedstatespostalservice-a77078", "operator": "United States Postal Service", "operator:short": "USPS", "operator:type": "public", "operator:wikidata": "Q668687", "ref": "4611200004"}, "type": "Feature"}
{"dataset_attributes": {"@spider": "usps_collection_boxes"}, "geometry": {"coordinates": [-86.3930513, 39.852348], "type": "Point"}, "id": "aGlrO-fxeEp2vXdhlqkA-K8hBG8=", "properties": {"@spider": "usps_collection_boxes", "addr:city": "BROWNSBURG", "addr:country": "US", "addr:full": "37 MOTIF BLVD", "addr:postcode": "46112", "addr:state": "IN", "amenity": "post_box", "brand": "United States Postal Service", "brand:wikidata": "Q668687", "collection_times": "Mo-Sa 11:00", "name": "USPS COLLECTION BOX - BLUE BOX", "nsi_id": "unitedstatespostalservice-a77078", "operator": "United States Postal Service", "operator:short": "USPS", "operator:type": "public", "operator:wikidata": "Q668687", "ref": "4611200007"}, "type": "Feature"}
{"dataset_attributes": {"@spider": "usps_collection_boxes"}, "geometry": {"coordinates": [-86.3903614, 39.855589], "type": "Point"}, "id": "-M93dVHx1VmEosHySZwVOWxRrt4=", "properties": {"@spider": "usps_collection_boxes", "addr:city": "BROWNSBURG", "addr:country": "US", "addr:full": "931 N GREEN ST", "addr:postcode": "46112", "addr:state": "IN", "amenity": "post_box", "brand": "United States Postal Service", "brand:wikidata": "Q668687", "collection_times": "Mo-Sa 11:00", "name": "USPS COLLECTION BOX - BLUE BOX", "nsi_id": "unitedstatespostalservice-a77078", "operator": "United States Postal Service", "operator:short": "USPS", "operator:type": "public", "operator:wikidata": "Q668687", "ref": "4611200008"}, "type": "Feature"}
{"dataset_attributes": {"@spider": "usps_collection_boxes"}, "geometry": {"coordinates": [-86.3900509, 39.857852], "type": "Point"}, "id": "ndshKNk9GbbITkVCvgukmoR7Y8w=", "properties": {"@spider": "usps_collection_boxes", "addr:city": "BROWNSBURG", "addr:country": "US", "addr:full": "124 E NORTHFIELD DR", "addr:postcode": "46112", "addr:state": "IN", "amenity": "post_box", "brand": "United States Postal Service", "brand:wikidata": "Q668687", "collection_times": "Mo-Sa 11:00", "name": "USPS COLLECTION BOX - BLUE BOX", "nsi_id": "unitedstatespostalservice-a77078", "operator": "United States Postal Service", "operator:short": "USPS", "operator:type": "public", "operator:wikidata": "Q668687", "ref": "4611200009"}, "type": "Feature"}
{"dataset_attributes": {"@spider": "usps_collection_boxes"}, "geometry": {"coordinates": [-86.385647, 39.856642], "type": "Point"}, "id": "nBr9mr3n4_9JCEFoa9Gf8A3egFY=", "properties": {"@spider": "usps_collection_boxes", "addr:city": "BROWNSBURG", "addr:country": "US", "addr:full": "411 E NORTHFIELD DR", "addr:postcode": "46112", "addr:state": "IN", "amenity": "post_box", "brand": "United States Postal Service", "brand:wikidata": "Q668687", "collection_times": "Mo-Fr 17:00; Sa 15:30", "name": "USPS COLLECTION BOX - PO LOBBY", "note": "ON 12/24 AND 12/31, THIS BOX MAY BE COLLECTED AS EARLY AS 12 NOON.", "nsi_id": "unitedstatespostalservice-a77078", "operator": "United States Postal Service", "operator:short": "USPS", "operator:type": "public", "operator:wikidata": "Q668687", "ref": "4611200021"}, "type": "Feature"}
{"dataset_attributes": {"@spider": "usps_collection_boxes"}, "geometry": {"coordinates": [-86.3906888, 39.866804], "type": "Point"}, "id": "frv-tvx7J0GjKc3oRQ9vj1_tWd4=", "properties": {"@spider": "usps_collection_boxes", "addr:city": "BROWNSBURG", "addr:country": "US", "addr:full": "1551 N GREEN ST", "addr:postcode": "46112", "addr:state": "IN", "amenity": "post_box", "brand": "United States Postal Service", "brand:wikidata": "Q668687", "collection_times": "Mo-Sa 11:00", "name": "USPS COLLECTION BOX - BLUE BOX", "nsi_id": "unitedstatespostalservice-a77078", "operator": "United States Postal Service", "operator:short": "USPS", "operator:type": "public", "operator:wikidata": "Q668687", "ref": "4611200024"}, "type": "Feature"}
{"dataset_attributes": {"@spider": "usps_collection_boxes"}, "geometry": {"coordinates": [-86.385647, 39.856642], "type": "Point"}, "id": "BuOhNmJa9ZhyeAehlFMeZbSnXbg=", "properties": {"@spider": "usps_collection_boxes", "addr:city": "BROWNSBURG", "addr:country": "US", "addr:full": "411 E NORTHFIELD DR", "addr:postcode": "46112", "addr:state": "IN", "amenity": "post_box", "brand": "United States Postal Service", "brand:wikidata": "Q668687", "collection_times": "Mo-Fr 17:00; Sa 15:30", "name": "USPS COLLECTION BOX - APC", "note": "ON 12/24 AND 12/31, THIS BOX MAY BE COLLECTED AS EARLY AS 12 NOON.", "nsi_id": "unitedstatespostalservice-a77078", "operator": "United States Postal Service", "operator:short": "USPS", "operator:type": "public", "operator:wikidata": "Q668687", "ref": "4611200025"}, "type": "Feature"}
{"dataset_attributes": {"@spider": "usps_collection_boxes"}, "geometry": {"coordinates": [-86.3966136, 39.844667], "type": "Point"}, "id": "Ay-QslJVBUbu29OUEejuSGQKPYw=", "properties": {"@spider": "usps_collection_boxes", "addr:city": "BROWNSBURG", "addr:country": "US", "addr:full": "61 N GREEN ST", "addr:postcode": "46112", "addr:state": "IN", "amenity": "post_box", "brand": "United States Postal Service", "brand:wikidata": "Q668687", "collection_times": "Mo-Fr 15:00; Sa 12:00", "name": "USPS COLLECTION BOX - BLUE BOX", "note": "ON 12/24 AND 12/31, THIS BOX MAY BE COLLECTED AS EARLY AS 12 NOON.", "nsi_id": "unitedstatespostalservice-a77078", "operator": "United States Postal Service", "operator:short": "USPS", "operator:type": "public", "operator:wikidata": "Q668687", "ref": "4611200026"}, "type": "Feature"}
{"dataset_attributes": {"@spider": "usps_collection_boxes"}, "geometry": {"coordinates": [-86.385586912, 39.856664855], "type": "Point"}, "id": "4ou31AnT7h_n7Hp4WuGxKgJY8Fo=", "properties": {"@spider": "usps_collection_boxes", "addr:city": "BROWNSBURG", "addr:country": "US", "addr:full": "411 E NORTHFIELD DR", "addr:postcode": "46112", "addr:state": "IN", "amenity": "post_box", "brand": "United States Postal Service", "brand:wikidata": "Q668687", "collection_times": "Mo-Fr 17:00; Sa 13:00", "name": "USPS COLLECTION BOX - PO LOBBY", "note": "ON 12/24 AND 12/31, THIS BOX MAY BE COLLECTED AS EARLY AS 12 NOON.", "nsi_id": "unitedstatespostalservice-a77078", "operator": "United States Postal Service", "operator:short": "USPS", "operator:type": "public", "operator:wikidata": "Q668687", "ref": "4611200032"}, "type": "Feature"}
{"dataset_attributes": {"@spider": "usps_collection_boxes"}, "geometry": {"coordinates": [-86.306602, 39.66183], "type": "Point"}, "id": "nUdJxkb4zT8i5ENjPZO4hpQ1LRE=", "properties": {"@spider": "usps_collection_boxes", "addr:city": "CAMBY", "addr:country": "US", "addr:full": "8255 CAMBY RD", "addr:postcode": "46113", "addr:state": "IN", "amenity": "post_box", "brand": "United States Postal Service", "brand:wikidata": "Q668687", "collection_times": "Mo-Fr 16:00; Sa 10:00", "name": "USPS COLLECTION BOX - BLUE BOX", "note": "ON 12/24 AND 12/31, THIS BOX MAY BE COLLECTED AS EARLY AS 12 NOON.", "nsi_id": "unitedstatespostalservice-a77078", "operator": "United States Postal Service", "operator:short": "USPS", "operator:type": "public", "operator:wikidata": "Q668687", "ref": "4611300000"}, "type": "Feature"}
{"dataset_attributes": {"@spider": "usps_collection_boxes"}, "geometry": {"coordinates": [-86.306695, 39.661855], "type": "Point"}, "id": "DuVF7hSKLIv0fI_f3dvMAxEKnnM=", "properties": {"@spider": "usps_collection_boxes", "addr:city": "CAMBY", "addr:country": "US", "addr:full": "8255 CAMBY RD", "addr:postcode": "46113", "addr:state": "IN", "amenity": "post_box", "brand": "United States Postal Service", "brand:wikidata": "Q668687", "collection_times": "Mo-Fr 16:00; Sa 10:00", "name": "USPS COLLECTION BOX - PO LOBBY", "note": "ON 12/24 AND 12/31, THIS BOX MAY BE COLLECTED AS EARLY AS 12 NOON.", "nsi_id": "unitedstatespostalservice-a77078", "operator": "United States Postal Service", "operator:short": "USPS", "operator:type": "public", "operator:wikidata": "Q668687", "ref": "4611300002"}, "type": "Feature"}
{"dataset_attributes": {"@spider": "usps_collection_boxes"}, "geometry": {"coordinates": [-86.3356373, 39.638336], "type": "Point"}, "id": "oRmJKih2u2bx3GPfrHl8_5qwy0Y=", "properties": {"@spider": "usps_collection_boxes", "addr:city": "CAMBY", "addr:country": "US", "addr:full": "10509 HEARTLAND BLVD", "addr:postcode": "46113", "addr:state": "IN", "amenity": "post_box", "brand": "United States Postal Service", "brand:wikidata": "Q668687", "collection_times": "Mo-Fr 11:30", "name": "USPS COLLECTION BOX - BLUE BOX", "nsi_id": "unitedstatespostalservice-a77078", "operator": "United States Postal Service", "operator:short": "USPS", "operator:type": "public", "operator:wikidata": "Q668687", "ref": "4611300003"}, "type": "Feature"}
{"dataset_attributes": {"@spider": "usps_collection_boxes"}, "geometry": {"coordinates": [-86.307151804, 39.661805496], "type": "Point"}, "id": "BV1qoq2RUNaNR3WFc6GC6qyiMkc=", "properties": {"@spider": "usps_collection_boxes", "addr:city": "CAMBY", "addr:country": "US", "addr:full": "8255 CAMBY RD", "addr:postcode": "46113", "addr:state": "IN", "amenity": "post_box", "brand": "United States Postal Service", "brand:wikidata": "Q668687", "collection_times": "Mo-Fr 16:00; Sa 10:00", "name": "USPS COLLECTION BOX - PO LOBBY", "note": "ON 12/24 AND 12/31, THIS BOX MAY BE COLLECTED AS EARLY AS 12 NOON.", "nsi_id": "unitedstatespostalservice-a77078", "operator": "United States Postal Service", "operator:short": "USPS", "operator:type": "public", "operator:wikidata": "Q668687", "ref": "4611300008"}, "type": "Feature"}
{"dataset_attributes": {"@spider": "usps_collection_boxes"}, "geometry": {"coordinates": [-86.5225509, 39.689225], "type": "Point"}, "id": "nbmFopPjcFPwSALvPg63__Da5ZQ=", "properties": {"@spider": "usps_collection_boxes", "addr:city": "CLAYTON", "addr:country": "US", "addr:full": "38 E KENTUCKY ST", "addr:postcode": "46118", "addr:state": "IN", "amenity": "post_box", "brand": "United States Postal Service", "brand:wikidata": "Q668687", "collection_times": "Mo-Fr 16:30; Sa 12:15", "name": "USPS COLLECTION BOX - BLUE BOX", "note": "ON 12/24 AND 12/31, THIS BOX MAY BE COLLECTED AS EARLY AS 12 NOON.", "nsi_id": "unitedstatespostalservice-a77078", "operator": "United States Postal Service", "operator:short": "USPS", "operator:type": "public", "operator:wikidata": "Q668687", "ref": "4611800000"}, "type": "Feature"}
{"dataset_attributes": {"@spider": "usps_collection_boxes"}, "geometry": {"coordinates": [-86.480559, 39.611146], "type": "Point"}, "id": "QCn8eW3BrDOaBdVfzC9nAeV7fDg=", "properties": {"@spider": "usps_collection_boxes", "addr:city": "CLAYTON", "addr:country": "US", "addr:full": "10346 S STATE ROAD 39", "addr:postcode": "46118", "addr:state": "IN", "amenity": "post_box", "brand": "United States Postal Service", "brand:wikidata": "Q668687", "collection_times": "Mo-Fr 10:30", "name": "USPS COLLECTION BOX - BLUE BOX", "nsi_id": "unitedstatespostalservice-a77078", "operator": "United States Postal Service", "operator:short": "USPS", "operator:type": "public", "operator:wikidata": "Q668687", "ref": "4611800002"}, "type": "Feature"}
{"dataset_attributes": {"@spider": "usps_collection_boxes"}, "geometry": {"coordinates": [-86.5220454, 39.615744], "type": "Point"}, "id": "M7g5cUc-04-dDtfdfMCpJVphKcM=", "properties": {"@spider": "usps_collection_boxes", "addr:city": "CLAYTON", "addr:country": "US", "addr:full": "9989 S COUNTY ROAD 0", "addr:postcode": "46118", "addr:state": "IN", "amenity": "post_box", "brand": "United States Postal Service", "brand:wikidata": "Q668687", "collection_times": "Mo-Fr 11:00; Sa 10:00", "name": "USPS COLLECTION BOX - BLUE BOX", "nsi_id": "unitedstatespostalservice-a77078", "operator": "United States Postal Service", "operator:short": "USPS", "operator:type": "public", "operator:wikidata": "Q668687", "ref": "4611800003"}, "type": "Feature"}
{"dataset_attributes": {"@spider": "usps_collection_boxes"}, "geometry": {"coordinates": [-86.5223211, 39.689171], "type": "Point"}, "id": "0Vr1rbzOWoN1gfoopbvgElWK6DA=", "properties": {"@spider": "usps_collection_boxes", "addr:city": "CLAYTON", "addr:country": "US", "addr:full": "38 E KENTUCKY ST", "addr:postcode": "46118", "addr:state": "IN", "amenity": "post_box", "brand": "United States Postal Service", "brand:wikidata": "Q668687", "collection_times": "Mo-Fr 16:30; Sa 12:15", "name": "USPS COLLECTION BOX - PO LOBBY", "note": "ON 12/24 AND 12/31, THIS BOX MAY BE COLLECTED AS EARLY AS 12 NOON.", "nsi_id": "unitedstatespostalservice-a77078", "operator": "United States Postal Service", "operator:short": "USPS", "operator:type": "public", "operator:wikidata": "Q668687", "ref": "4611800005"}, "type": "Feature"}
{"dataset_attributes": {"@spider": "usps_collection_boxes"}, "geometry": {"coordinates": [-86.5223145, 39.68916], "type": "Point"}, "id": "kuIic6gERbDPaCe8QjVckAh39cc=", "properties": {"@spider": "usps_collection_boxes", "addr:city": "CLAYTON", "addr:country": "US", "addr:full": "38 E KENTUCKY ST", "addr:postcode": "46118", "addr:state": "IN", "amenity": "post_box", "brand": "United States Postal Service", "brand:wikidata": "Q668687", "collection_times": "Mo-Fr 16:30; Sa 12:15", "name": "USPS COLLECTION BOX - PO LOBBY", "note": "ON 12/24 AND 12/31, THIS BOX MAY BE COLLECTED AS EARLY AS 12 NOON.", "nsi_id": "unitedstatespostalservice-a77078", "operator": "United States Postal Service", "operator:short": "USPS", "operator:type": "public", "operator:wikidata": "Q668687", "ref": "4611800006"}, "type": "Feature"}
{"dataset_attributes": {"@spider": "usps_collection_boxes"}, "geometry": {"coordinates": [-86.522339694, 39.689050554], "type": "Point"}, "id": "-42Dv9gTvZHR2mGJvueMybo98bI=", "properties": {"@spider": "usps_collection_boxes", "addr:city": "CLAYTON", "addr:country": "US", "addr:full": "38 E KENTUCKY ST", "addr:postcode": "46118", "addr:state": "IN", "amenity": "post_box", "brand": "United States Postal Service", "brand:wikidata": "Q668687", "collection_times": "Mo-Fr 16:30; Sa 12:00", "name": "USPS COLLECTION BOX - PO LOBBY", "note": "ON 12/24 AND 12/31, THIS BOX MAY BE COLLECTED AS EARLY AS 12 NOON.", "nsi_id": "unitedstatespostalservice-a77078", "operator": "United States Postal Service", "operator:short": "USPS", "operator:type": "public", "operator:wikidata": "Q668687", "ref": "4611800007"}, "type": "Feature"}
{"dataset_attributes": {"@spider": "usps_collection_boxes"}, "geometry": {"coordinates": [-86.670353, 39.688006], "type": "Point"}, "id": "nkVXF4AdERTNVsJ_E-p_ZTUCd6s=", "properties": {"@spider": "usps_collection_boxes", "addr:city": "COATESVILLE", "addr:country": "US", "addr:full": "8041 MAIN ST", "addr:postcode": "46121", "addr:state": "IN", "amenity": "post_box", "brand": "United States Postal Service", "brand:wikidata": "Q668687", "collection_times": "Mo-Fr 16:15; Sa 11:00", "name": "USPS COLLECTION BOX - BLUE BOX", "note": "ON 12/24 AND 12/31, THIS BOX MAY BE COLLECTED AS EARLY AS 12 NOON.", "nsi_id": "unitedstatespostalservice-a77078", "operator": "United States Postal Service", "operator:short": "USPS", "operator:type": "public", "operator:wikidata": "Q668687", "ref": "4612100001"}, "type": "Feature"}
{"dataset_attributes": {"@spider": "usps_collection_boxes"}, "geometry": {"coordinates": [-86.670353, 39.688006], "type": "Point"}, "id": "_iPRcf1y1qNZpWtMP9eIHrMJcyo=", "properties": {"@spider": "usps_collection_boxes", "addr:city": "COATESVILLE", "addr:country": "US", "addr:full": "8041 MAIN ST", "addr:postcode": "46121", "addr:state": "IN", "amenity": "post_box", "brand": "United States Postal Service", "brand:wikidata": "Q668687", "collection_times": "Mo-Fr 16:30; Sa 11:00", "name": "USPS COLLECTION BOX - PO LOBBY", "note": "ON 12/24 AND 12/31, THIS BOX MAY BE COLLECTED AS EARLY AS 12 NOON.", "nsi_id": "unitedstatespostalservice-a77078", "operator": "United States Postal Service", "operator:short": "USPS", "operator:type": "public", "operator:wikidata": "Q668687", "ref": "4612100002"}, "type": "Feature"}
{"dataset_attributes": {"@spider": "usps_collection_boxes"}, "geometry": {"coordinates": [-86.670353, 39.688006], "type": "Point"}, "id": "tqn59YYSodPdaKLnxSL5jfq6cNU=", "properties": {"@spider": "usps_collection_boxes", "addr:city": "COATESVILLE", "addr:country": "US", "addr:full": "8041 MAIN ST", "addr:postcode": "46121", "addr:state": "IN", "amenity": "post_box", "brand": "United States Postal Service", "brand:wikidata": "Q668687", "collection_times": "Mo-Fr 16:30; Sa 11:00", "name": "USPS COLLECTION BOX - PO LOBBY", "note": "ON 12/24 AND 12/31, THIS BOX MAY BE COLLECTED AS EARLY AS 12 NOON.", "nsi_id": "unitedstatespostalservice-a77078", "operator": "United States Postal Service", "operator:short": "USPS", "operator:type": "public", "operator:wikidata": "Q668687", "ref": "4612100003"}, "type": "Feature"}
{"dataset_attributes": {"@spider": "usps_collection_boxes"}, "geometry": {"coordinates": [-86.6703735, 39.687996511], "type": "Point"}, "id": "Bd08i6SstPn422W0khz_88lKwMM=", "properties": {"@spider": "usps_collection_boxes", "addr:city": "COATESVILLE", "addr:country": "US", "addr:full": "8041 MAIN ST", "addr:postcode": "46121", "addr:state": "IN", "amenity": "post_box", "brand": "United States Postal Service", "brand:wikidata": "Q668687", "collection_times": "Mo-Fr 16:30; Sa 11:00", "name": "USPS COLLECTION BOX - PO LOBBY", "note": "ON 12/24 AND 12/31, THIS BOX MAY BE COLLECTED AS EARLY AS 12 NOON.", "nsi_id": "unitedstatespostalservice-a77078", "operator": "United States Postal Service", "operator:short": "USPS", "operator:type": "public", "operator:wikidata": "Q668687", "ref": "4612100004"}, "type": "Feature"}
{"dataset_attributes": {"@spider": "usps_collection_boxes"}, "geometry": {"coordinates": [-86.5237849, 39.760826], "type": "Point"}, "id": "AFobMON02Jnoa2DufS6-caMDtNg=", "properties": {"@spider": "usps_collection_boxes", "addr:city": "DANVILLE", "addr:country": "US", "addr:full": "4 E MAIN ST", "addr:postcode": "46122", "addr:state": "IN", "amenity": "post_box", "brand": "United States Postal Service", "brand:wikidata": "Q668687", "collection_times": "Mo-Sa 09:45", "name": "USPS COLLECTION BOX - BLUE BOX", "nsi_id": "unitedstatespostalservice-a77078", "operator": "United States Postal Service", "operator:short": "USPS", "operator:type": "public", "operator:wikidata": "Q668687", "ref": "4612200005"}, "type": "Feature"}
{"dataset_attributes": {"@spider": "usps_collection_boxes"}, "geometry": {"coordinates": [-86.509809892, 39.758881843], "type": "Point"}, "id": "DudL4I9CoHt0TArOSHst1Emi2Ws=", "properties": {"@spider": "usps_collection_boxes", "addr:city": "DANVILLE", "addr:country": "US", "addr:full": "785 E MAIN ST", "addr:postcode": "46122", "addr:state": "IN", "amenity": "post_box", "brand": "United States Postal Service", "brand:wikidata": "Q668687", "collection_times": "Mo-Sa 10:30", "name": "USPS COLLECTION BOX - BLUE BOX", "nsi_id": "unitedstatespostalservice-a77078", "operator": "United States Postal Service", "operator:short": "USPS", "operator:type": "public", "operator:wikidata": "Q668687", "ref": "4612200013"}, "type": "Feature"}
{"dataset_attributes": {"@spider": "usps_collection_boxes"}, "geometry": {"coordinates": [-86.5028867, 39.761724], "type": "Point"}, "id": "PcA7fbiU56nNuxyymbFiI210Rf0=", "properties": {"@spider": "usps_collection_boxes", "addr:city": "DANVILLE", "addr:country": "US", "addr:full": "1000 E MAIN ST", "addr:postcode": "46122", "addr:state": "IN", "amenity": "post_box", "brand": "United States Postal Service", "brand:wikidata": "Q668687", "collection_times": "Mo-Fr 15:30; Sa 10:00", "name": "USPS COLLECTION BOX - BLUE BOX", "note": "ON 12/24 AND 12/31, THIS BOX MAY BE COLLECTED AS EARLY AS 12 NOON.", "nsi_id": "unitedstatespostalservice-a77078", "operator": "United States Postal Service", "operator:short": "USPS", "operator:type": "public", "operator:wikidata": "Q668687", "ref": "4612200015"}, "type": "Feature"}
{"dataset_attributes": {"@spider": "usps_collection_boxes"}, "geometry": {"coordinates": [-86.48811, 39.760899], "type": "Point"}, "id": "u-OZ9ECCW5l2E7BKjrFTwnGjJWc=", "properties": {"@spider": "usps_collection_boxes", "addr:city": "DANVILLE", "addr:country": "US", "addr:full": "1965 E MAIN ST", "addr:postcode": "46122", "addr:state": "IN", "amenity": "post_box", "brand": "United States Postal Service", "brand:wikidata": "Q668687", "collection_times": "Mo-Fr 17:15; Sa 14:30", "name": "USPS COLLECTION BOX - BLUE BOX", "note": "ON 12/24 AND 12/31, THIS BOX MAY BE COLLECTED AS EARLY AS 12 NOON.", "nsi_id": "unitedstatespostalservice-a77078", "operator": "United States Postal Service", "operator:short": "USPS", "operator:type": "public", "operator:wikidata": "Q668687", "ref": "4612200020"}, "type": "Feature"}
{"dataset_attributes": {"@spider": "usps_collection_boxes"}, "geometry": {"coordinates": [-86.48811, 39.760899], "type": "Point"}, "id": "asEsnSWG4CQ0FRkdyHhyPDQSoi8=", "properties": {"@spider": "usps_collection_boxes", "addr:city": "DANVILLE", "addr:country": "US", "addr:full": "1965 E MAIN ST", "addr:postcode": "46122", "addr:state": "IN", "amenity": "post_box", "brand": "United States Postal Service", "brand:wikidata": "Q668687", "collection_times": "Mo-Fr 17:15; Sa 14:30", "name": "USPS COLLECTION BOX - PO LOBBY", "note": "ON 12/24 AND 12/31, THIS BOX MAY BE COLLECTED AS EARLY AS 12 NOON.", "nsi_id": "unitedstatespostalservice-a77078", "operator": "United States Postal Service", "operator:short": "USPS", "operator:type": "public", "operator:wikidata": "Q668687", "ref": "4612200029"}, "type": "Feature"}
{"dataset_attributes": {"@spider": "usps_collection_boxes"}, "geometry": {"coordinates": [-86.48811, 39.760899], "type": "Point"}, "id": "yYN8CNa4n2rM51KlCpuNhKpg2Fo=", "properties": {"@spider": "usps_collection_boxes", "addr:city": "DANVILLE", "addr:country": "US", "addr:full": "1965 E MAIN ST", "addr:postcode": "46122", "addr:state": "IN", "amenity": "post_box", "brand": "United States Postal Service", "brand:wikidata": "Q668687", "collection_times": "Mo-Fr 17:15; Sa 14:30", "name": "USPS COLLECTION BOX - PO LOBBY", "note": "ON 12/24 AND 12/31, THIS BOX MAY BE COLLECTED AS EARLY AS 12 NOON.", "nsi_id": "unitedstatespostalservice-a77078", "operator": "United States Postal Service", "operator:short": "USPS", "operator:type": "public", "operator:wikidata": "Q668687", "ref": "4612200030"}, "type": "Feature"}
{"dataset_attributes": {"@spider": "usps_collection_boxes"}, "geometry": {"coordinates": [-86.5228105, 39.75698], "type": "Point"}, "id": "lK5LLdls5SWxDmKPvTcDuhKm8BA=", "properties": {"@spider": "usps_collection_boxes", "addr:city": "DANVILLE", "addr:country": "US", "addr:full": "355 S WASHINGTON ST", "addr:postcode": "46122", "addr:state": "IN", "amenity": "post_box", "brand": "United States Postal Service", "brand:wikidata": "Q668687", "collection_times": "Mo-Fr 15:30; Sa 15:15", "name": "USPS COLLECTION BOX - BLUE BOX", "note": "ON 12/24 AND 12/31, THIS BOX MAY BE COLLECTED AS EARLY AS 12 NOON.", "nsi_id": "unitedstatespostalservice-a77078", "operator": "United States Postal Service", "operator:short": "USPS", "operator:type": "public", "operator:wikidata": "Q668687", "ref": "4612200031"}, "type": "Feature"}
{"dataset_attributes": {"@spider": "usps_collection_boxes"}, "geometry": {"coordinates": [-86.5248946, 39.760345], "type": "Point"}, "id": "RcUTp0OswatHlVMLYD6yQdQDzts=", "properties": {"@spider": "usps_collection_boxes", "addr:city": "DANVILLE", "addr:country": "US", "addr:full": "1 COURTHOUSE SQ", "addr:postcode": "46122", "addr:state": "IN", "amenity": "post_box", "brand": "United States Postal Service", "brand:wikidata": "Q668687", "collection_times": "Mo-Sa 15:00", "name": "USPS COLLECTION BOX - BLUE BOX", "note": "ON 12/24 AND 12/31, THIS BOX MAY BE COLLECTED AS EARLY AS 12 NOON.", "nsi_id": "unitedstatespostalservice-a77078", "operator": "United States Postal Service", "operator:short": "USPS", "operator:type": "public", "operator:wikidata": "Q668687", "ref": "4612200032"}, "type": "Feature"}
{"dataset_attributes": {"@spider": "usps_collection_boxes"}, "geometry": {"coordinates": [-86.488052223, 39.761574523], "type": "Point"}, "id": "iqFDnTuNdPXgwwXkeT82gXas5_g=", "properties": {"@spider": "usps_collection_boxes", "addr:city": "DANVILLE", "addr:country": "US", "addr:full": "1965 E MAIN ST", "addr:postcode": "46122", "addr:state": "IN", "amenity": "post_box", "brand": "United States Postal Service", "brand:wikidata": "Q668687", "collection_times": "Mo-Fr 18:00; Sa 12:30", "name": "USPS COLLECTION BOX - PO LOBBY", "note": "ON 12/24 AND 12/31, THIS BOX MAY BE COLLECTED AS EARLY AS 12 NOON.", "nsi_id": "unitedstatespostalservice-a77078", "operator": "United States Postal Service", "operator:short": "USPS", "operator:type": "public", "operator:wikidata": "Q668687", "ref": "4612200035"}, "type": "Feature"}
{"dataset_attributes": {"@spider": "usps_collection_boxes"}, "geometry": {"coordinates": [-86.4342238, 39.758108], "type": "Point"}, "id": "ILJ2vdk7d8a1hyvBkL7ATlIux3A=", "properties": {"@spider": "usps_collection_boxes", "addr:city": "DANVILLE", "addr:country": "US", "addr:full": "5201 E US HIGHWAY 36", "addr:postcode": "46123", "addr:state": "IN", "amenity": "post_box", "brand": "United States Postal Service", "brand:wikidata": "Q668687", "collection_times": "Mo-Sa 10:00", "name": "USPS COLLECTION BOX - BLUE BOX", "nsi_id": "unitedstatespostalservice-a77078", "operator": "United States Postal Service", "operator:short": "USPS", "operator:type": "public", "operator:wikidata": "Q668687", "ref": "4612300000"}, "type": "Feature"}
{"dataset_attributes": {"@spider": "usps_collection_boxes"}, "geometry": {"coordinates": [-86.3981277, 39.761635], "type": "Point"}, "id": "vBJruNYS3rBh_efOlvETxhOU6oc=", "properties": {"@spider": "usps_collection_boxes", "addr:city": "DANVILLE", "addr:country": "US", "addr:full": "7089 GALEN DR W", "addr:postcode": "46123", "addr:state": "IN", "amenity": "post_box", "brand": "United States Postal Service", "brand:wikidata": "Q668687", "collection_times": "Mo-Sa 10:30", "name": "USPS COLLECTION BOX - BLUE BOX", "nsi_id": "unitedstatespostalservice-a77078", "operator": "United States Postal Service", "operator:short": "USPS", "operator:type": "public", "operator:wikidata": "Q668687", "ref": "4612300001"}, "type": "Feature"}
{"dataset_attributes": {"@spider": "usps_collection_boxes"}, "geometry": {"coordinates": [-86.4093166, 39.761246], "type": "Point"}, "id": "egHm6J2hUKKoB2Y5UpBZdqjJ6nw=", "properties": {"@spider": "usps_collection_boxes", "addr:city": "DANVILLE", "addr:country": "US", "addr:full": "40 CAPITOL DR", "addr:postcode": "46123", "addr:state": "IN", "amenity": "post_box", "brand": "United States Postal Service", "brand:wikidata": "Q668687", "collection_times": "Mo-Sa 09:30", "name": "USPS COLLECTION BOX - BLUE BOX", "nsi_id": "unitedstatespostalservice-a77078", "operator": "United States Postal Service", "operator:short": "USPS", "operator:type": "public", "operator:wikidata": "Q668687", "ref": "4612300002"}, "type": "Feature"}
{"dataset_attributes": {"@spider": "usps_collection_boxes"}, "geometry": {"coordinates": [-86.3769599, 39.761986], "type": "Point"}, "id": "0C12gIvkJxiUgtfKaZt7NHLh6wo=", "properties": {"@spider": "usps_collection_boxes", "addr:city": "DANVILLE", "addr:country": "US", "addr:full": "97 DOVER ST", "addr:postcode": "46123", "addr:state": "IN", "amenity": "post_box", "brand": "United States Postal Service", "brand:wikidata": "Q668687", "collection_times": "Mo-Sa 09:30", "name": "USPS COLLECTION BOX - BLUE BOX", "nsi_id": "unitedstatespostalservice-a77078", "operator": "United States Postal Service", "operator:short": "USPS", "operator:type": "public", "operator:wikidata": "Q668687", "ref": "4612300003"}, "type": "Feature"}
{"dataset_attributes": {"@spider": "usps_collection_boxes"}, "geometry": {"coordinates": [-86.3793555, 39.764541], "type": "Point"}, "id": "CnlxFovdxPihOVufiQ8QnRrTh2U=", "properties": {"@spider": "usps_collection_boxes", "addr:city": "DANVILLE", "addr:country": "US", "addr:full": "8100 E US HIGHWAY 36", "addr:postcode": "46123", "addr:state": "IN", "amenity": "post_box", "brand": "United States Postal Service", "brand:wikidata": "Q668687", "collection_times": "Mo-Fr 15:00; Sa 14:45", "name": "USPS COLLECTION BOX - BLUE BOX", "note": "ON 12/24 AND 12/31, THIS BOX MAY BE COLLECTED AS EARLY AS 12 NOON.", "nsi_id": "unitedstatespostalservice-a77078", "operator": "United States Postal Service", "operator:short": "USPS", "operator:type": "public", "operator:wikidata": "Q668687", "ref": "4612300004"}, "type": "Feature"}
{"dataset_attributes": {"@spider": "usps_collection_boxes"}, "geometry": {"coordinates": [-86.3766699, 39.763974], "type": "Point"}, "id": "vWK4yzTo5jEXoqc3K2GaJAwti6g=", "properties": {"@spider": "usps_collection_boxes", "addr:city": "DANVILLE", "addr:country": "US", "addr:full": "8244 E US HIGHWAY 36", "addr:postcode": "46123", "addr:state": "IN", "amenity": "post_box", "brand": "United States Postal Service", "brand:wikidata": "Q668687", "collection_times": "Mo-Fr 15:00; Sa 14:45", "name": "USPS COLLECTION BOX - BLUE BOX", "note": "ON 12/24 AND 12/31, THIS BOX MAY BE COLLECTED AS EARLY AS 12 NOON.", "nsi_id": "unitedstatespostalservice-a77078", "operator": "United States Postal Service", "operator:short": "USPS", "operator:type": "public", "operator:wikidata": "Q668687", "ref": "4612300005"}, "type": "Feature"}
{"dataset_attributes": {"@spider": "usps_collection_boxes"}, "geometry": {"coordinates": [-86.380411972, 39.763031484], "type": "Point"}, "id": "c5NVxx72FsiiHWijC-CK14N9Cfg=", "properties": {"@spider": "usps_collection_boxes", "addr:city": "DANVILLE", "addr:country": "US", "addr:full": "8103 E US HIGHWAY 36", "addr:postcode": "46123", "addr:state": "IN", "amenity": "post_box", "brand": "United States Postal Service", "brand:wikidata": "Q668687", "collection_times": "Mo-Sa 09:00", "name": "USPS COLLECTION BOX - BLUE BOX", "nsi_id": "unitedstatespostalservice-a77078", "operator": "United States Postal Service", "operator:short": "USPS", "operator:type": "public", "operator:wikidata": "Q668687", "ref": "4612300007"}, "type": "Feature"}
{"dataset_attributes": {"@spider": "usps_collection_boxes"}, "geometry": {"coordinates": [-86.3846242, 39.76088], "type": "Point"}, "id": "lV13NW702A3hXh-s2XtqnESu5yw=", "properties": {"@spider": "usps_collection_boxes", "addr:city": "DANVILLE", "addr:country": "US", "addr:full": "71 VISTA PARK WAY", "addr:postcode": "46123", "addr:state": "IN", "amenity": "post_box", "brand": "United States Postal Service", "brand:wikidata": "Q668687", "collection_times": "Mo-Sa 10:00", "name": "USPS COLLECTION BOX - BLUE BOX", "nsi_id": "unitedstatespostalservice-a77078", "operator": "United States Postal Service", "operator:short": "USPS", "operator:type": "public", "operator:wikidata": "Q668687", "ref": "4612300008"}, "type": "Feature"}
{"dataset_attributes": {"@spider": "usps_collection_boxes"}, "geometry": {"coordinates": [-86.356292168, 39.767917023], "type": "Point"}, "id": "pZERIQQJMj6UWy1YbO12gdHnCx0=", "properties": {"@spider": "usps_collection_boxes", "addr:city": "DANVILLE", "addr:country": "US", "addr:full": "291 GREAT LAKES CIR W", "addr:postcode": "46123", "addr:state": "IN", "amenity": "post_box", "brand": "United States Postal Service", "brand:wikidata": "Q668687", "collection_times": "Mo-Sa 11:00", "name": "USPS COLLECTION BOX - BLUE BOX", "nsi_id": "unitedstatespostalservice-a77078", "operator": "United States Postal Service", "operator:short": "USPS", "operator:type": "public", "operator:wikidata": "Q668687", "ref": "4612300009"}, "type": "Feature"}
{"dataset_attributes": {"@spider": "usps_collection_boxes"}, "geometry": {"coordinates": [-86.4011072, 39.764484], "type": "Point"}, "id": "Y2DApjTQognDEpM_o8T-n03Sb4Q=", "properties": {"@spider": "usps_collection_boxes", "addr:city": "DANVILLE", "addr:country": "US", "addr:full": "110 N AVON AVE", "addr:postcode": "46123", "addr:state": "IN", "amenity": "post_box", "brand": "United States Postal Service", "brand:wikidata": "Q668687", "collection_times": "Mo-Fr 15:30; Sa 14:45", "name": "USPS COLLECTION BOX - BLUE BOX", "note": "ON 12/24 AND 12/31, THIS BOX MAY BE COLLECTED AS EARLY AS 12 NOON.", "nsi_id": "unitedstatespostalservice-a77078", "operator": "United States Postal Service", "operator:short": "USPS", "operator:type": "public", "operator:wikidata": "Q668687", "ref": "4612300010"}, "type": "Feature"}
{"dataset_attributes": {"@spider": "usps_collection_boxes"}, "geometry": {"coordinates": [-86.3405719, 39.76597], "type": "Point"}, "id": "63BIPT4zY02jGCTBk4IbhwqzIoo=", "properties": {"@spider": "usps_collection_boxes", "addr:city": "DANVILLE", "addr:country": "US", "addr:full": "10346 E US HIGHWAY 36", "addr:postcode": "46123", "addr:state": "IN", "amenity": "post_box", "brand": "United States Postal Service", "brand:wikidata": "Q668687", "collection_times": "Mo-Sa 13:00", "name": "USPS COLLECTION BOX - BLUE BOX", "note": "ON 12/24 AND 12/31, THIS BOX MAY BE COLLECTED AS EARLY AS 12 NOON.", "nsi_id": "unitedstatespostalservice-a77078", "operator": "United States Postal Service", "operator:short": "USPS", "operator:type": "public", "operator:wikidata": "Q668687", "ref": "4612300011"}, "type": "Feature"}
{"dataset_attributes": {"@spider": "usps_collection_boxes"}, "geometry": {"coordinates": [-86.3414339, 39.780284], "type": "Point"}, "id": "Jcv6N8uBs3OY17-XKj3eYBWKiVY=", "properties": {"@spider": "usps_collection_boxes", "addr:city": "DANVILLE", "addr:country": "US", "addr:full": "1111 RONALD REAGAN PKWY", "addr:postcode": "46123", "addr:state": "IN", "amenity": "post_box", "brand": "United States Postal Service", "brand:wikidata": "Q668687", "collection_times": "Mo-Sa 12:30", "name": "USPS COLLECTION BOX - BLUE BOX", "note": "ON 12/24 AND 12/31, THIS BOX MAY BE COLLECTED AS EARLY AS 12 NOON.", "nsi_id": "unitedstatespostalservice-a77078", "operator": "United States Postal Service", "operator:short": "USPS", "operator:type": "public", "operator:wikidata": "Q668687", "ref": "4612300012"}, "type": "Feature"}
{"dataset_attributes": {"@spider": "usps_collection_boxes"}, "geometry": {"coordinates": [-86.343487195, 39.778585027], "type": "Point"}, "id": "4K8YHcOKrQL1UoZWINZIhAMtw_g=", "properties": {"@spider": "usps_collection_boxes", "addr:city": "DANVILLE", "addr:country": "US", "addr:full": "1115 RONALD REAGAN PKWY", "addr:postcode": "46123", "addr:state": "IN", "amenity": "post_box", "brand": "United States Postal Service", "brand:wikidata": "Q668687", "collection_times": "Mo-Sa 12:30", "name": "USPS COLLECTION BOX - BLUE BOX", "note": "ON 12/24 AND 12/31, THIS BOX MAY BE COLLECTED AS EARLY AS 12 NOON.", "nsi_id": "unitedstatespostalservice-a77078", "operator": "United States Postal Service", "operator:short": "USPS", "operator:type": "public", "operator:wikidata": "Q668687", "ref": "4612300013"}, "type": "Feature"}
{"dataset_attributes": {"@spider": "usps_collection_boxes"}, "geometry": {"coordinates": [-86.4342005, 39.76043], "type": "Point"}, "id": "3UihAq4mjsjgyClvv-H2nOnG5Ns=", "properties": {"@spider": "usps_collection_boxes", "addr:city": "DANVILLE", "addr:country": "US", "addr:full": "5250 E US HIGHWAY 36", "addr:postcode": "46123", "addr:state": "IN", "amenity": "post_box", "brand": "United States Postal Service", "brand:wikidata": "Q668687", "collection_times": "Mo-Sa 10:30", "name": "USPS COLLECTION BOX - BLUE BOX", "nsi_id": "unitedstatespostalservice-a77078", "operator": "United States Postal Service", "operator:short": "USPS", "operator:type": "public", "operator:wikidata": "Q668687", "ref": "4612300014"}, "type": "Feature"}
{"dataset_attributes": {"@spider": "usps_collection_boxes"}, "geometry": {"coordinates": [-86.3300699622, 39.7636675094], "type": "Point"}, "id": "RyD3CyfkuTMMNz5i4jIFshv_RXA=", "properties": {"@spider": "usps_collection_boxes", "addr:city": "DANVILLE", "addr:country": "US", "addr:full": "10841 E US HIGHWAY 36", "addr:postcode": "46123", "addr:state": "IN", "amenity": "post_box", "brand": "United States Postal Service", "brand:wikidata": "Q668687", "collection_times": "Mo-Sa 12:00", "name": "USPS COLLECTION BOX - BLUE BOX", "nsi_id": "unitedstatespostalservice-a77078", "operator": "United States Postal Service", "operator:short": "USPS", "operator:type": "public", "operator:wikidata": "Q668687", "ref": "4612300021"}, "type": "Feature"}
{"dataset_attributes": {"@spider": "usps_collection_boxes"}, "geometry": {"coordinates": [-86.753186, 39.672139], "type": "Point"}, "id": "7uPxQhrQnFzd90q63b0AL5pQKEU=", "properties": {"@spider": "usps_collection_boxes", "addr:city": "FILLMORE", "addr:country": "US", "addr:full": "10 N MAIN ST", "addr:postcode": "46128", "addr:state": "IN", "amenity": "post_box", "brand": "United States Postal Service", "brand:wikidata": "Q668687", "collection_times": "Mo-Fr 15:15; Sa 10:15", "name": "USPS COLLECTION BOX - BLUE BOX", "note": "ON 12/24 AND 12/31, THIS BOX MAY BE COLLECTED AS EARLY AS 12 NOON.", "nsi_id": "unitedstatespostalservice-a77078", "operator": "United States Postal Service", "operator:short": "USPS", "operator:type": "public", "operator:wikidata": "Q668687", "ref": "4612800001"}, "type": "Feature"}
{"dataset_attributes": {"@spider": "usps_collection_boxes"}, "geometry": {"coordinates": [-86.753186, 39.672139], "type": "Point"}, "id": "bLcDPdj7A_vupN91k7qc9o64Kqo=", "properties": {"@spider": "usps_collection_boxes", "addr:city": "FILLMORE", "addr:country": "US", "addr:full": "10 N MAIN ST", "addr:postcode": "46128", "addr:state": "IN", "amenity": "post_box", "brand": "United States Postal Service", "brand:wikidata": "Q668687", "collection_times": "Mo-Fr 14:00; Sa 10:15", "name": "USPS COLLECTION BOX - PO LOBBY", "note": "ON 12/24 AND 12/31, THIS BOX MAY BE COLLECTED AS EARLY AS 12 NOON.", "nsi_id": "unitedstatespostalservice-a77078", "operator": "United States Postal Service", "operator:short": "USPS", "operator:type": "public", "operator:wikidata": "Q668687", "ref": "4612800002"}, "type": "Feature"}
{"dataset_attributes": {"@spider": "usps_collection_boxes"}, "geometry": {"coordinates": [-86.753189215, 39.672304985], "type": "Point"}, "id": "DxDltLbheZxL_b6y6z81LsZa3Z8=", "properties": {"@spider": "usps_collection_boxes", "addr:city": "FILLMORE", "addr:country": "US", "addr:full": "10 N MAIN ST", "addr:postcode": "46128", "addr:state": "IN", "amenity": "post_box", "brand": "United States Postal Service", "brand:wikidata": "Q668687", "collection_times": "Mo-Fr 14:15; Sa 10:00", "name": "USPS COLLECTION BOX - PO LOBBY", "note": "ON 12/24 AND 12/31, THIS BOX MAY BE COLLECTED AS EARLY AS 12 NOON.", "nsi_id": "unitedstatespostalservice-a77078", "operator": "United States Postal Service", "operator:short": "USPS", "operator:type": "public", "operator:wikidata": "Q668687", "ref": "4612800003"}, "type": "Feature"}
{"dataset_attributes": {"@spider": "usps_collection_boxes"}, "geometry": {"coordinates": [-86.8292439, 39.646955], "type": "Point"}, "id": "WJw3QM6rssiDRbQ2xYwdKXCx73E=", "properties": {"@spider": "usps_collection_boxes", "addr:city": "GREENCASTLE", "addr:country": "US", "addr:full": "25 PUTNAM PLZ", "addr:postcode": "46135", "addr:state": "IN", "amenity": "post_box", "brand": "United States Postal Service", "brand:wikidata": "Q668687", "collection_times": "Mo-Sa 15:00", "name": "USPS COLLECTION BOX - BLUE BOX", "note": "ON 12/24 AND 12/31, THIS BOX MAY BE COLLECTED AS EARLY AS 12 NOON.", "nsi_id": "unitedstatespostalservice-a77078", "operator": "United States Postal Service", "operator:short": "USPS", "operator:type": "public", "operator:wikidata": "Q668687", "ref": "4613500020"}, "type": "Feature"}
{"dataset_attributes": {"@spider": "usps_collection_boxes"}, "geometry": {"coordinates": [-86.9284954, 39.726848], "type": "Point"}, "id": "2DJnxFUEO733_Ax9SAe6mLpWzOk=", "properties": {"@spider": "usps_collection_boxes", "addr:city": "GREENCASTLE", "addr:country": "US", "addr:full": "7002 VAN BIBBER LAKE EST", "addr:postcode": "46135", "addr:state": "IN", "amenity": "post_box", "brand": "United States Postal Service", "brand:wikidata": "Q668687", "collection_times": "Mo-Sa 11:00", "name": "USPS COLLECTION BOX - BLUE BOX", "nsi_id": "unitedstatespostalservice-a77078", "operator": "United States Postal Service", "operator:short": "USPS", "operator:type": "public", "operator:wikidata": "Q668687", "ref": "4613500022"}, "type": "Feature"}
{"dataset_attributes": {"@spider": "usps_collection_boxes"}, "geometry": {"coordinates": [-85.927971028, 39.778282971], "type": "Point"}, "id": "uA_Z8AnwfCTNfdSV56iXq0ZzdZA=", "properties": {"@spider": "usps_collection_boxes", "addr:city": "GREENFIELD", "addr:country": "US", "addr:full": "84 MANOR DR", "addr:postcode": "46140", "addr:state": "IN", "amenity": "post_box", "brand": "United States Postal Service", "brand:wikidata": "Q668687", "collection_times": "Mo-Sa 09:30", "name": "USPS COLLECTION BOX - BLUE BOX", "nsi_id": "unitedstatespostalservice-a77078", "operator": "United States Postal Service", "operator:short": "USPS", "operator:type": "public", "operator:wikidata": "Q668687", "ref": "4614000051"}, "type": "Feature"}
{"dataset_attributes": {"@spider": "usps_collection_boxes"}, "geometry": {"coordinates": [-86.623669359, 39.92440249], "type": "Point"}, "id": "c_x4vY6Bxpzwead0aIKK4xnSkqc=", "properties": {"@spider": "usps_collection_boxes", "addr:city": "JAMESTOWN", "addr:country": "US", "addr:full": "421 E MAIN STREET", "addr:postcode": "46147", "addr:state": "IN", "amenity": "post_box", "brand": "United States Postal Service", "brand:wikidata": "Q668687", "collection_times": "Mo-Sa 12:00", "name": "USPS COLLECTION BOX - BLUE BOX", "nsi_id": "unitedstatespostalservice-a77078", "operator": "United States Postal Service", "operator:short": "USPS", "operator:type": "public", "operator:wikidata": "Q668687", "ref": "4614700006"}, "type": "Feature"}
{"dataset_attributes": {"@spider": "usps_collection_boxes"}, "geometry": {"coordinates": [-86.544557, 39.887211], "type": "Point"}, "id": "ky3p9ajrfbTt5TuPR-P5SlGAfhs=", "properties": {"@spider": "usps_collection_boxes", "addr:city": "LIZTON", "addr:country": "US", "addr:full": "407 N CHURCH ST", "addr:postcode": "46149", "addr:state": "IN", "amenity": "post_box", "brand": "United States Postal Service", "brand:wikidata": "Q668687", "collection_times": "Mo-Fr 15:15; Sa 10:30", "name": "USPS COLLECTION BOX - BLUE BOX", "note": "ON 12/24 AND 12/31, THIS BOX MAY BE COLLECTED AS EARLY AS 12 NOON.", "nsi_id": "unitedstatespostalservice-a77078", "operator": "United States Postal Service", "operator:short": "USPS", "operator:type": "public", "operator:wikidata": "Q668687", "ref": "4614900001"}, "type": "Feature"}
{"dataset_attributes": {"@spider": "usps_collection_boxes"}, "geometry": {"coordinates": [-86.544557, 39.887211], "type": "Point"}, "id": "A2pKkAZiAjjIzkKlk6r4OXH8DcI=", "properties": {"@spider": "usps_collection_boxes", "addr:city": "LIZTON", "addr:country": "US", "addr:full": "407 N CHURCH ST", "addr:postcode": "46149", "addr:state": "IN", "amenity": "post_box", "brand": "United States Postal Service", "brand:wikidata": "Q668687", "collection_times": "Mo-Fr 14:00; Sa 10:30", "name": "USPS COLLECTION BOX - PO LOBBY", "note": "ON 12/24 AND 12/31, THIS BOX MAY BE COLLECTED AS EARLY AS 12 NOON.", "nsi_id": "unitedstatespostalservice-a77078", "operator": "United States Postal Service", "operator:short": "USPS", "operator:type": "public", "operator:wikidata": "Q668687", "ref": "4614900002"}, "type": "Feature"}
{"dataset_attributes": {"@spider": "usps_collection_boxes"}, "geometry": {"coordinates": [-86.544562454, 39.887152586], "type": "Point"}, "id": "P85DXxs8rY8MNsi6QhCLWFYUSvU=", "properties": {"@spider": "usps_collection_boxes", "addr:city": "LIZTON", "addr:country": "US", "addr:full": "407 N CHURCH ST", "addr:postcode": "46149", "addr:state": "IN", "amenity": "post_box", "brand": "United States Postal Service", "brand:wikidata": "Q668687", "collection_times": "Mo-Fr 14:00; Sa 10:30", "name": "USPS COLLECTION BOX - PO LOBBY", "note": "ON 12/24 AND 12/31, THIS BOX MAY BE COLLECTED AS EARLY AS 12 NOON.", "nsi_id": "unitedstatespostalservice-a77078", "operator": "United States Postal Service", "operator:short": "USPS", "operator:type": "public", "operator:wikidata": "Q668687", "ref": "4614900003"}, "type": "Feature"}
{"dataset_attributes": {"@spider": "usps_collection_boxes"}, "geometry": {"coordinates": [-85.76996, 39.857274], "type": "Point"}, "id": "dS6GGCy-G4jwbpqUVKV00Wng3OQ=", "properties": {"@spider": "usps_collection_boxes", "addr:city": "MAXWELL", "addr:country": "US", "addr:full": "9 S MAIN ST", "addr:postcode": "46154", "addr:state": "IN", "amenity": "post_box", "brand": "United States Postal Service", "brand:wikidata": "Q668687", "collection_times": "Mo-Fr 12:45; Sa 11:45", "name": "USPS COLLECTION BOX - PO LOBBY", "note": "ON 12/24 AND 12/31, THIS BOX MAY BE COLLECTED AS EARLY AS 12 NOON.", "nsi_id": "unitedstatespostalservice-a77078", "operator": "United States Postal Service", "operator:short": "USPS", "operator:type": "public", "operator:wikidata": "Q668687", "ref": "4615400002"}, "type": "Feature"}
{"dataset_attributes": {"@spider": "usps_collection_boxes"}, "geometry": {"coordinates": [-85.769995, 39.85719], "type": "Point"}, "id": "4y4c2cKeEIMHzx8uYVagOMar-Yo=", "properties": {"@spider": "usps_collection_boxes", "addr:city": "MAXWELL", "addr:country": "US", "addr:full": "9 S MAIN ST", "addr:postcode": "46154", "addr:state": "IN", "amenity": "post_box", "brand": "United States Postal Service", "brand:wikidata": "Q668687", "collection_times": "Mo-Fr 15:30; Sa 11:45", "name": "USPS COLLECTION BOX - BLUE BOX", "note": "ON 12/24 AND 12/31, THIS BOX MAY BE COLLECTED AS EARLY AS 12 NOON.", "nsi_id": "unitedstatespostalservice-a77078", "operator": "United States Postal Service", "operator:short": "USPS", "operator:type": "public", "operator:wikidata": "Q668687", "ref": "4615400003"}, "type": "Feature"}
{"dataset_attributes": {"@spider": "usps_collection_boxes"}, "geometry": {"coordinates": [-85.76992462, 39.857613163], "type": "Point"}, "id": "9Z4Lxf3osoGUUYubfD9pH70v4Ow=", "properties": {"@spider": "usps_collection_boxes", "addr:city": "MAXWELL", "addr:country": "US", "addr:full": "9 S MAIN ST", "addr:postcode": "46154", "addr:state": "IN", "amenity": "post_box", "brand": "United States Postal Service", "brand:wikidata": "Q668687", "collection_times": "Mo-Fr 13:00; Sa 12:00", "name": "USPS COLLECTION BOX - PO LOBBY", "note": "ON 12/24 AND 12/31, THIS BOX MAY BE COLLECTED AS EARLY AS 12 NOON.", "nsi_id": "unitedstatespostalservice-a77078", "operator": "United States Postal Service", "operator:short": "USPS", "operator:type": "public", "operator:wikidata": "Q668687", "ref": "4615400004"}, "type": "Feature"}
{"dataset_attributes": {"@spider": "usps_collection_boxes"}, "geometry": {"coordinates": [-86.480812, 39.577762], "type": "Point"}, "id": "6ZDag5s832qzp-oFF6_yGSWvTo0=", "properties": {"@spider": "usps_collection_boxes", "addr:city": "MONROVIA", "addr:country": "US", "addr:full": "55 W WASHINGTON ST", "addr:postcode": "46157", "addr:state": "IN", "amenity": "post_box", "brand": "United States Postal Service", "brand:wikidata": "Q668687", "collection_times": "Mo-Fr 15:00; Sa 10:45", "name": "USPS COLLECTION BOX - BLUE BOX", "note": "ON 12/24 AND 12/31, THIS BOX MAY BE COLLECTED AS EARLY AS 12 NOON.", "nsi_id": "unitedstatespostalservice-a77078", "operator": "United States Postal Service", "operator:short": "USPS", "operator:type": "public", "operator:wikidata": "Q668687", "ref": "4615700000"}, "type": "Feature"}
{"dataset_attributes": {"@spider": "usps_collection_boxes"}, "geometry": {"coordinates": [-86.480812, 39.577762], "type": "Point"}, "id": "U3Sp4JFpcC0LMUorgU0y7PrcKjI=", "properties": {"@spider": "usps_collection_boxes", "addr:city": "MONROVIA", "addr:country": "US", "addr:full": "55 W WASHINGTON ST", "addr:postcode": "46157", "addr:state": "IN", "amenity": "post_box", "brand": "United States Postal Service", "brand:wikidata": "Q668687", "collection_times": "Mo-Fr 15:00; Sa 10:45", "name": "USPS COLLECTION BOX - PO LOBBY", "note": "ON 12/24 AND 12/31, THIS BOX MAY BE COLLECTED AS EARLY AS 12 NOON.", "nsi_id": "unitedstatespostalservice-a77078", "operator": "United States Postal Service", "operator:short": "USPS", "operator:type": "public", "operator:wikidata": "Q668687", "ref": "4615700002"}, "type": "Feature"}
{"dataset_attributes": {"@spider": "usps_collection_boxes"}, "geometry": {"coordinates": [-86.480811168, 39.577756528], "type": "Point"}, "id": "RnBM-6p1wnPi4ZN2bqMdwUYhJic=", "properties": {"@spider": "usps_collection_boxes", "addr:city": "MONROVIA", "addr:country": "US", "addr:full": "55 W WASHINGTON ST", "addr:postcode": "46157", "addr:state": "IN", "amenity": "post_box", "brand": "United States Postal Service", "brand:wikidata": "Q668687", "collection_times": "Mo-Fr 15:30; Sa 11:00", "name": "USPS COLLECTION BOX - PO LOBBY", "note": "ON 12/24 AND 12/31, THIS BOX MAY BE COLLECTED AS EARLY AS 12 NOON.", "nsi_id": "unitedstatespostalservice-a77078", "operator": "United States Postal Service", "operator:short": "USPS", "operator:type": "public", "operator:wikidata": "Q668687", "ref": "4615700003"}, "type": "Feature"}
{"dataset_attributes": {"@spider": "usps_collection_boxes"}, "geometry": {"coordinates": [-86.3764383, 39.605223], "type": "Point"}, "id": "8yWTMQw6LRkklJPlfZgmie2tmtg=", "properties": {"@spider": "usps_collection_boxes", "addr:city": "MOORESVILLE", "addr:country": "US", "addr:full": "530 S INDIANA ST", "addr:postcode": "46158", "addr:state": "IN", "amenity": "post_box", "brand": "United States Postal Service", "brand:wikidata": "Q668687", "collection_times": "Mo-Sa 10:00", "name": "USPS COLLECTION BOX - BLUE BOX", "nsi_id": "unitedstatespostalservice-a77078", "operator": "United States Postal Service", "operator:short": "USPS", "operator:type": "public", "operator:wikidata": "Q668687", "ref": "4615800002"}, "type": "Feature"}
{"dataset_attributes": {"@spider": "usps_collection_boxes"}, "geometry": {"coordinates": [-86.3532253, 39.618452], "type": "Point"}, "id": "zaNa9o4h-vUstmEzizXMWCcq7ww=", "properties": {"@spider": "usps_collection_boxes", "addr:city": "MOORESVILLE", "addr:country": "US", "addr:full": "437 TOWN CENTER ST N", "addr:postcode": "46158", "addr:state": "IN", "amenity": "post_box", "brand": "United States Postal Service", "brand:wikidata": "Q668687", "collection_times": "Mo-Sa 10:00", "name": "USPS COLLECTION BOX - BLUE BOX", "nsi_id": "unitedstatespostalservice-a77078", "operator": "United States Postal Service", "operator:short": "USPS", "operator:type": "public", "operator:wikidata": "Q668687", "ref": "4615800003"}, "type": "Feature"}
{"dataset_attributes": {"@spider": "usps_collection_boxes"}, "geometry": {"coordinates": [-86.3806863, 39.611958], "type": "Point"}, "id": "AeFvnmTIbGOD6F8-tvm6WdNT1XA=", "properties": {"@spider": "usps_collection_boxes", "addr:city": "MOORESVILLE", "addr:country": "US", "addr:full": "220 W HARRISON ST", "addr:postcode": "46158", "addr:state": "IN", "amenity": "post_box", "brand": "United States Postal Service", "brand:wikidata": "Q668687", "collection_times": "Mo-Sa 10:00", "name": "USPS COLLECTION BOX - BLUE BOX", "nsi_id": "unitedstatespostalservice-a77078", "operator": "United States Postal Service", "operator:short": "USPS", "operator:type": "public", "operator:wikidata": "Q668687", "ref": "4615800004"}, "type": "Feature"}
{"dataset_attributes": {"@spider": "usps_collection_boxes"}, "geometry": {"coordinates": [-86.3810386404, 39.6175306411], "type": "Point"}, "id": "lfWqAtwAyXUWYcbweXp3YrnN2fw=", "properties": {"@spider": "usps_collection_boxes", "addr:city": "MOORESVILLE", "addr:country": "US", "addr:full": "345 W CARLISLE ST", "addr:postcode": "46158", "addr:state": "IN", "amenity": "post_box", "brand": "United States Postal Service", "brand:wikidata": "Q668687", "collection_times": "Mo-Fr 17:00; Sa 15:00", "name": "USPS COLLECTION BOX - BLUE BOX", "note": "ON 12/24 AND 12/31, THIS BOX MAY BE COLLECTED AS EARLY AS 12 NOON.", "nsi_id": "unitedstatespostalservice-a77078", "operator": "United States Postal Service", "operator:short": "USPS", "operator:type": "public", "operator:wikidata": "Q668687", "ref": "4615800005"}, "type": "Feature"}
{"dataset_attributes": {"@spider": "usps_collection_boxes"}, "geometry": {"coordinates": [-86.3681577, 39.610018], "type": "Point"}, "id": "pkJxenFxgdRjSeA9vDU1v99mTgk=", "properties": {"@spider": "usps_collection_boxes", "addr:city": "MOORESVILLE", "addr:country": "US", "addr:full": "245 HIGH ST", "addr:postcode": "46158", "addr:state": "IN", "amenity": "post_box", "brand": "United States Postal Service", "brand:wikidata": "Q668687", "collection_times": "Mo-Sa 10:00", "name": "USPS COLLECTION BOX - BLUE BOX", "nsi_id": "unitedstatespostalservice-a77078", "operator": "United States Postal Service", "operator:short": "USPS", "operator:type": "public", "operator:wikidata": "Q668687", "ref": "4615800014"}, "type": "Feature"}
{"dataset_attributes": {"@spider": "usps_collection_boxes"}, "geometry": {"coordinates": [-86.3567791, 39.608132], "type": "Point"}, "id": "ew2DlUtz8VN1QffiXxFy3tVgK0s=", "properties": {"@spider": "usps_collection_boxes", "addr:city": "MOORESVILLE", "addr:country": "US", "addr:full": "1201 HADLEY RD", "addr:postcode": "46158", "addr:state": "IN", "amenity": "post_box", "brand": "United States Postal Service", "brand:wikidata": "Q668687", "collection_times": "Mo-Sa 10:00", "name": "USPS COLLECTION BOX - BLUE BOX", "nsi_id": "unitedstatespostalservice-a77078", "operator": "United States Postal Service", "operator:short": "USPS", "operator:type": "public", "operator:wikidata": "Q668687", "ref": "4615800015"}, "type": "Feature"}
{"dataset_attributes": {"@spider": "usps_collection_boxes"}, "geometry": {"coordinates": [-86.381028, 39.617533], "type": "Point"}, "id": "tyvJJw3zujohLcqqNBepaDqNV80=", "properties": {"@spider": "usps_collection_boxes", "addr:city": "MOORESVILLE", "addr:country": "US", "addr:full": "345 W CARLISLE ST", "addr:postcode": "46158", "addr:state": "IN", "amenity": "post_box", "brand": "United States Postal Service", "brand:wikidata": "Q668687", "collection_times": "Mo-Fr 17:00; Sa 15:00", "name": "USPS COLLECTION BOX - PO LOBBY", "note": "ON 12/24 AND 12/31, THIS BOX MAY BE COLLECTED AS EARLY AS 12 NOON.", "nsi_id": "unitedstatespostalservice-a77078", "operator": "United States Postal Service", "operator:short": "USPS", "operator:type": "public", "operator:wikidata": "Q668687", "ref": "4615800017"}, "type": "Feature"}
{"dataset_attributes": {"@spider": "usps_collection_boxes"}, "geometry": {"coordinates": [-86.3733853, 39.601893], "type": "Point"}, "id": "xCTrchw6TZEVHouuWVVr2bEKgh4=", "properties": {"@spider": "usps_collection_boxes", "addr:city": "MOORESVILLE", "addr:country": "US", "addr:full": "523 S STATE ROAD 67", "addr:postcode": "46158", "addr:state": "IN", "amenity": "post_box", "brand": "United States Postal Service", "brand:wikidata": "Q668687", "collection_times": "Mo-Sa 10:00", "name": "USPS COLLECTION BOX - BLUE BOX", "nsi_id": "unitedstatespostalservice-a77078", "operator": "United States Postal Service", "operator:short": "USPS", "operator:type": "public", "operator:wikidata": "Q668687", "ref": "4615800019"}, "type": "Feature"}
{"dataset_attributes": {"@spider": "usps_collection_boxes"}, "geometry": {"coordinates": [-86.38103864, 39.617530641], "type": "Point"}, "id": "ScqSYoYEMwot25AjaeyWa0dseB0=", "properties": {"@spider": "usps_collection_boxes", "addr:city": "MOORESVILLE", "addr:country": "US", "addr:full": "345 W CARLISLE ST", "addr:postcode": "46158", "addr:state": "IN", "amenity": "post_box", "brand": "United States Postal Service", "brand:wikidata": "Q668687", "collection_times": "Mo-Fr 17:45; Sa 12:30", "name": "USPS COLLECTION BOX - PO LOBBY", "note": "ON 12/24 AND 12/31, THIS BOX MAY BE COLLECTED AS EARLY AS 12 NOON.", "nsi_id": "unitedstatespostalservice-a77078", "operator": "United States Postal Service", "operator:short": "USPS", "operator:type": "public", "operator:wikidata": "Q668687", "ref": "4615800023"}, "type": "Feature"}
{"dataset_attributes": {"@spider": "usps_collection_boxes"}, "geometry": {"coordinates": [-86.643581, 39.859838], "type": "Point"}, "id": "Ql34H3xdUujmdKZ_SJ6AHZJbHS0=", "properties": {"@spider": "usps_collection_boxes", "addr:city": "NORTH SALEM", "addr:country": "US", "addr:full": "14 W PEARL ST", "addr:postcode": "46165", "addr:state": "IN", "amenity": "post_box", "brand": "United States Postal Service", "brand:wikidata": "Q668687", "collection_times": "Mo-Fr 15:30; Sa 11:00", "name": "USPS COLLECTION BOX - BLUE BOX", "note": "ON 12/24 AND 12/31, THIS BOX MAY BE COLLECTED AS EARLY AS 12 NOON.", "nsi_id": "unitedstatespostalservice-a77078", "operator": "United States Postal Service", "operator:short": "USPS", "operator:type": "public", "operator:wikidata": "Q668687", "ref": "4616500001"}, "type": "Feature"}
{"dataset_attributes": {"@spider": "usps_collection_boxes"}, "geometry": {"coordinates": [-86.643581, 39.859838], "type": "Point"}, "id": "Nr8WCTC_LEa-4H_j-cNHlwYe-mk=", "properties": {"@spider": "usps_collection_boxes", "addr:city": "NORTH SALEM", "addr:country": "US", "addr:full": "14 W PEARL ST", "addr:postcode": "46165", "addr:state": "IN", "amenity": "post_box", "brand": "United States Postal Service", "brand:wikidata": "Q668687", "collection_times": "Mo-Fr 11:15; Sa 09:45", "name": "USPS COLLECTION BOX - PO LOBBY", "nsi_id": "unitedstatespostalservice-a77078", "operator": "United States Postal Service", "operator:short": "USPS", "operator:type": "public", "operator:wikidata": "Q668687", "ref": "4616500003"}, "type": "Feature"}
{"dataset_attributes": {"@spider": "usps_collection_boxes"}, "geometry": {"coordinates": [-86.643580249, 39.859830471], "type": "Point"}, "id": "f8QNq8rOeHd9NbfdxHbUhSL1A9k=", "properties": {"@spider": "usps_collection_boxes", "addr:city": "NORTH SALEM", "addr:country": "US", "addr:full": "14 W PEARL ST", "addr:postcode": "46165", "addr:state": "IN", "amenity": "post_box", "brand": "United States Postal Service", "brand:wikidata": "Q668687", "collection_times": "Mo-Fr 11:30; Sa 10:00", "name": "USPS COLLECTION BOX - PO LOBBY", "nsi_id": "unitedstatespostalservice-a77078", "operator": "United States Postal Service", "operator:short": "USPS", "operator:type": "public", "operator:wikidata": "Q668687", "ref": "4616500005"}, "type": "Feature"}
{"dataset_attributes": {"@spider": "usps_collection_boxes"}, "geometry": {"coordinates": [-86.467798, 39.864004], "type": "Point"}, "id": "RWAEUqk0g4CpBDaqZ-58Z2UJWzY=", "properties": {"@spider": "usps_collection_boxes", "addr:city": "PITTSBORO", "addr:country": "US", "addr:full": "29 W MAIN ST", "addr:postcode": "46167", "addr:state": "IN", "amenity": "post_box", "brand": "United States Postal Service", "brand:wikidata": "Q668687", "collection_times": "Mo-Fr 16:15; Sa 12:00", "name": "USPS COLLECTION BOX - PO LOBBY", "note": "ON 12/24 AND 12/31, THIS BOX MAY BE COLLECTED AS EARLY AS 12 NOON.", "nsi_id": "unitedstatespostalservice-a77078", "operator": "United States Postal Service", "operator:short": "USPS", "operator:type": "public", "operator:wikidata": "Q668687", "ref": "4616700002"}, "type": "Feature"}
{"dataset_attributes": {"@spider": "usps_collection_boxes"}, "geometry": {"coordinates": [-86.467798, 39.864004], "type": "Point"}, "id": "l4Va0VHdv2zjVZcLInsZW7BuxEM=", "properties": {"@spider": "usps_collection_boxes", "addr:city": "PITTSBORO", "addr:country": "US", "addr:full": "29 W MAIN ST", "addr:postcode": "46167", "addr:state": "IN", "amenity": "post_box", "brand": "United States Postal Service", "brand:wikidata": "Q668687", "collection_times": "Mo-Fr 16:15; Sa 12:00", "name": "USPS COLLECTION BOX - PO LOBBY", "note": "ON 12/24 AND 12/31, THIS BOX MAY BE COLLECTED AS EARLY AS 12 NOON.", "nsi_id": "unitedstatespostalservice-a77078", "operator": "United States Postal Service", "operator:short": "USPS", "operator:type": "public", "operator:wikidata": "Q668687", "ref": "4616700003"}, "type": "Feature"}
{"dataset_attributes": {"@spider": "usps_collection_boxes"}, "geometry": {"coordinates": [-86.467206, 39.86356], "type": "Point"}, "id": "RRKnxMsR9y6asQ9Sv1uUkiTw0Wk=", "properties": {"@spider": "usps_collection_boxes", "addr:city": "PITTSBORO", "addr:country": "US", "addr:full": "29 W MAIN ST", "addr:postcode": "46167", "addr:state": "IN", "amenity": "post_box", "brand": "United States Postal Service", "brand:wikidata": "Q668687", "collection_times": "Mo-Fr 16:15; Sa 12:00", "name": "USPS COLLECTION BOX - BLUE BOX", "note": "ON 12/24 AND 12/31, THIS BOX MAY BE COLLECTED AS EARLY AS 12 NOON.", "nsi_id": "unitedstatespostalservice-a77078", "operator": "United States Postal Service", "operator:short": "USPS", "operator:type": "public", "operator:wikidata": "Q668687", "ref": "4616700004"}, "type": "Feature"}
{"dataset_attributes": {"@spider": "usps_collection_boxes"}, "geometry": {"coordinates": [-86.467799435, 39.863999977], "type": "Point"}, "id": "92ggwQXVRZAIUd82qrtc4bI3G9I=", "properties": {"@spider": "usps_collection_boxes", "addr:city": "PITTSBORO", "addr:country": "US", "addr:full": "29 W MAIN ST", "addr:postcode": "46167", "addr:state": "IN", "amenity": "post_box", "brand": "United States Postal Service", "brand:wikidata": "Q668687", "collection_times": "Mo-Fr 16:00; Sa 12:00", "name": "USPS COLLECTION BOX - PO LOBBY", "note": "ON 12/24 AND 12/31, THIS BOX MAY BE COLLECTED AS EARLY AS 12 NOON.", "nsi_id": "unitedstatespostalservice-a77078", "operator": "United States Postal Service", "operator:short": "USPS", "operator:type": "public", "operator:wikidata": "Q668687", "ref": "4616700005"}, "type": "Feature"}
{"dataset_attributes": {"@spider": "usps_collection_boxes"}, "geometry": {"coordinates": [-86.390113, 39.712], "type": "Point"}, "id": "KHnuFvIvW9rF0zn40sFsoSIeOtk=", "properties": {"@spider": "usps_collection_boxes", "addr:city": "PLAINFIELD", "addr:country": "US", "addr:full": "700 N CARR RD", "addr:postcode": "46168", "addr:state": "IN", "amenity": "post_box", "brand": "United States Postal Service", "brand:wikidata": "Q668687", "collection_times": "Mo-Fr 17:00; Sa 16:00", "name": "USPS COLLECTION BOX - BLUE BOX", "note": "ON 12/24 AND 12/31, THIS BOX MAY BE COLLECTED AS EARLY AS 12 NOON.", "nsi_id": "unitedstatespostalservice-a77078", "operator": "United States Postal Service", "operator:short": "USPS", "operator:type": "public", "operator:wikidata": "Q668687", "ref": "4616800000"}, "type": "Feature"}
{"dataset_attributes": {"@spider": "usps_collection_boxes"}, "geometry": {"coordinates": [-86.3771199, 39.711242], "type": "Point"}, "id": "va9V4UJqZffeydPEgvzqp8s2fxE=", "properties": {"@spider": "usps_collection_boxes", "addr:city": "PLAINFIELD", "addr:country": "US", "addr:full": "1820 E MAIN ST", "addr:postcode": "46168", "addr:state": "IN", "amenity": "post_box", "brand": "United States Postal Service", "brand:wikidata": "Q668687", "collection_times": "Mo-Sa 10:00", "name": "USPS COLLECTION BOX - BLUE BOX", "nsi_id": "unitedstatespostalservice-a77078", "operator": "United States Postal Service", "operator:short": "USPS", "operator:type": "public", "operator:wikidata": "Q668687", "ref": "4616800008"}, "type": "Feature"}
{"dataset_attributes": {"@spider": "usps_collection_boxes"}, "geometry": {"coordinates": [-86.3527385, 39.717242], "type": "Point"}, "id": "FECrV6nF2B8GACq0WMODSLf7S8U=", "properties": {"@spider": "usps_collection_boxes", "addr:city": "PLAINFIELD", "addr:country": "US", "addr:full": "2685 E MAIN ST", "addr:postcode": "46168", "addr:state": "IN", "amenity": "post_box", "brand": "United States Postal Service", "brand:wikidata": "Q668687", "collection_times": "Mo-Sa 10:00", "name": "USPS COLLECTION BOX - BLUE BOX", "nsi_id": "unitedstatespostalservice-a77078", "operator": "United States Postal Service", "operator:short": "USPS", "operator:type": "public", "operator:wikidata": "Q668687", "ref": "4616800009"}, "type": "Feature"}
{"dataset_attributes": {"@spider": "usps_collection_boxes"}, "geometry": {"coordinates": [-86.374226069, 39.695510704], "type": "Point"}, "id": "6GfAORWU2WcTJnaEOas8DHsPvTg=", "properties": {"@spider": "usps_collection_boxes", "addr:city": "PLAINFIELD", "addr:country": "US", "addr:full": "895 PINEWOOD DR", "addr:postcode": "46168", "addr:state": "IN", "amenity": "post_box", "brand": "United States Postal Service", "brand:wikidata": "Q668687", "collection_times": "Mo-Sa 11:00", "name": "USPS COLLECTION BOX - BLUE BOX", "nsi_id": "unitedstatespostalservice-a77078", "operator": "United States Postal Service", "operator:short": "USPS", "operator:type": "public", "operator:wikidata": "Q668687", "ref": "4616800013"}, "type": "Feature"}
{"dataset_attributes": {"@spider": "usps_collection_boxes"}, "geometry": {"coordinates": [-86.4065831, 39.705615], "type": "Point"}, "id": "prqzqJgotEbdTY0b4mMoq44VbS4=", "properties": {"@spider": "usps_collection_boxes", "addr:city": "PLAINFIELD", "addr:country": "US", "addr:full": "260 N MILL ST", "addr:postcode": "46168", "addr:state": "IN", "amenity": "post_box", "brand": "United States Postal Service", "brand:wikidata": "Q668687", "collection_times": "Mo-Sa 11:00", "name": "USPS COLLECTION BOX - BLUE BOX", "nsi_id": "unitedstatespostalservice-a77078", "operator": "United States Postal Service", "operator:short": "USPS", "operator:type": "public", "operator:wikidata": "Q668687", "ref": "4616800016"}, "type": "Feature"}
{"dataset_attributes": {"@spider": "usps_collection_boxes"}, "geometry": {"coordinates": [-86.390077, 39.71191], "type": "Point"}, "id": "2iMmNvn2DV5tULU3q4E3Txpjcek=", "properties": {"@spider": "usps_collection_boxes", "addr:city": "PLAINFIELD", "addr:country": "US", "addr:full": "700 N CARR RD", "addr:postcode": "46168", "addr:state": "IN", "amenity": "post_box", "brand": "United States Postal Service", "brand:wikidata": "Q668687", "collection_times": "Mo-Fr 17:00; Sa 16:00", "name": "USPS COLLECTION BOX - PO LOBBY", "note": "ON 12/24 AND 12/31, THIS BOX MAY BE COLLECTED AS EARLY AS 12 NOON.", "nsi_id": "unitedstatespostalservice-a77078", "operator": "United States Postal Service", "operator:short": "USPS", "operator:type": "public", "operator:wikidata": "Q668687", "ref": "4616800024"}, "type": "Feature"}
{"dataset_attributes": {"@spider": "usps_collection_boxes"}, "geometry": {"coordinates": [-86.390077, 39.71191], "type": "Point"}, "id": "ECVr8U3afxUjhTXBIB4eJkLyalw=", "properties": {"@spider": "usps_collection_boxes", "addr:city": "PLAINFIELD", "addr:country": "US", "addr:full": "700 N CARR RD", "addr:postcode": "46168", "addr:state": "IN", "amenity": "post_box", "brand": "United States Postal Service", "brand:wikidata": "Q668687", "collection_times": "Mo-Fr 17:00; Sa 16:00", "name": "USPS COLLECTION BOX - APC", "note": "ON 12/24 AND 12/31, THIS BOX MAY BE COLLECTED AS EARLY AS 12 NOON.", "nsi_id": "unitedstatespostalservice-a77078", "operator": "United States Postal Service", "operator:short": "USPS", "operator:type": "public", "operator:wikidata": "Q668687", "ref": "4616800025"}, "type": "Feature"}
{"dataset_attributes": {"@spider": "usps_collection_boxes"}, "geometry": {"coordinates": [-86.390077, 39.71191], "type": "Point"}, "id": "9rhY0wX084beIMInrzC_uXww3IQ=", "properties": {"@spider": "usps_collection_boxes", "addr:city": "PLAINFIELD", "addr:country": "US", "addr:full": "700 N CARR RD", "addr:postcode": "46168", "addr:state": "IN", "amenity": "post_box", "brand": "United States Postal Service", "brand:wikidata": "Q668687", "collection_times": "Mo-Fr 17:00; Sa 16:00", "name": "USPS COLLECTION BOX - PO LOBBY", "note": "ON 12/24 AND 12/31, THIS BOX MAY BE COLLECTED AS EARLY AS 12 NOON.", "nsi_id": "unitedstatespostalservice-a77078", "operator": "United States Postal Service", "operator:short": "USPS", "operator:type": "public", "operator:wikidata": "Q668687", "ref": "4616800026"}, "type": "Feature"}
{"dataset_attributes": {"@spider": "usps_collection_boxes"}, "geometry": {"coordinates": [-86.3724407, 39.690984], "type": "Point"}, "id": "4mbJMbVz6G9yin7iATAS_6A5hKY=", "properties": {"@spider": "usps_collection_boxes", "addr:city": "PLAINFIELD", "addr:country": "US", "addr:full": "1100 SOUTHFIELD DR", "addr:postcode": "46168", "addr:state": "IN", "amenity": "post_box", "brand": "United States Postal Service", "brand:wikidata": "Q668687", "collection_times": "Mo-Sa 09:00", "name": "USPS COLLECTION BOX - BLUE BOX", "nsi_id": "unitedstatespostalservice-a77078", "operator": "United States Postal Service", "operator:short": "USPS", "operator:type": "public", "operator:wikidata": "Q668687", "ref": "4616800027"}, "type": "Feature"}
{"dataset_attributes": {"@spider": "usps_collection_boxes"}, "geometry": {"coordinates": [-86.390137216, 39.713634304], "type": "Point"}, "id": "4MHAOrudXhBqEPV8eL4of7MMZJs=", "properties": {"@spider": "usps_collection_boxes", "addr:city": "PLAINFIELD", "addr:country": "US", "addr:full": "700 N CARR RD", "addr:postcode": "46168", "addr:state": "IN", "amenity": "post_box", "brand": "United States Postal Service", "brand:wikidata": "Q668687", "collection_times": "Mo-Fr 18:00; Sa 12:30", "name": "USPS COLLECTION BOX - PO LOBBY", "note": "ON 12/24 AND 12/31, THIS BOX MAY BE COLLECTED AS EARLY AS 12 NOON.", "nsi_id": "unitedstatespostalservice-a77078", "operator": "United States Postal Service", "operator:short": "USPS", "operator:type": "public", "operator:wikidata": "Q668687", "ref": "4616800033"}, "type": "Feature"}
{"dataset_attributes": {"@spider": "usps_collection_boxes"}, "geometry": {"coordinates": [-86.962163, 39.551538], "type": "Point"}, "id": "_VzLqXICCfins9Tl1Ke-ig8EGOw=", "properties": {"@spider": "usps_collection_boxes", "addr:city": "REELSVILLE", "addr:country": "US", "addr:full": "6297 W COUNTY ROAD 750 S", "addr:postcode": "46171", "addr:state": "IN", "amenity": "post_box", "brand": "United States Postal Service", "brand:wikidata": "Q668687", "collection_times": "Mo-Fr 16:00; Sa 09:00", "name": "USPS COLLECTION BOX - BLUE BOX", "note": "ON 12/24 AND 12/31, THIS BOX MAY BE COLLECTED AS EARLY AS 12 NOON.", "nsi_id": "unitedstatespostalservice-a77078", "operator": "United States Postal Service", "operator:short": "USPS", "operator:type": "public", "operator:wikidata": "Q668687", "ref": "4617100001"}, "type": "Feature"}
{"dataset_attributes": {"@spider": "usps_collection_boxes"}, "geometry": {"coordinates": [-86.962163, 39.551538], "type": "Point"}, "id": "_dETP3FgLCsB41DFiwpXK1eoLIo=", "properties": {"@spider": "usps_collection_boxes", "addr:city": "REELSVILLE", "addr:country": "US", "addr:full": "6297 W COUNTY ROAD 750 S", "addr:postcode": "46171", "addr:state": "IN", "amenity": "post_box", "brand": "United States Postal Service", "brand:wikidata": "Q668687", "collection_times": "Mo-Fr 11:45; Sa 09:00", "name": "USPS COLLECTION BOX - PO LOBBY", "nsi_id": "unitedstatespostalservice-a77078", "operator": "United States Postal Service", "operator:short": "USPS", "operator:type": "public", "operator:wikidata": "Q668687", "ref": "4617100003"}, "type": "Feature"}
{"dataset_attributes": {"@spider": "usps_collection_boxes"}, "geometry": {"coordinates": [-86.962152808, 39.551512431], "type": "Point"}, "id": "w_Cqti4HpNNfk5lZ44RMUOJwucE=", "properties": {"@spider": "usps_collection_boxes", "addr:city": "REELSVILLE", "addr:country": "US", "addr:full": "6297 W COUNTY ROAD 750 S", "addr:postcode": "46171", "addr:state": "IN", "amenity": "post_box", "brand": "United States Postal Service", "brand:wikidata": "Q668687", "collection_times": "Mo-Fr 12:00; Sa 10:00", "name": "USPS COLLECTION BOX - PO LOBBY", "nsi_id": "unitedstatespostalservice-a77078", "operator": "United States Postal Service", "operator:short": "USPS", "operator:type": "public", "operator:wikidata": "Q668687", "ref": "4617100004"}, "type": "Feature"}
{"dataset_attributes": {"@spider": "usps_collection_boxes"}, "geometry": {"coordinates": [-86.800977, 39.850991], "type": "Point"}, "id": "t4sIP_aldV8Xx-L63wBH4OKLWjQ=", "properties": {"@spider": "usps_collection_boxes", "addr:city": "ROACHDALE", "addr:country": "US", "addr:full": "104 N MERIDIAN ST", "addr:postcode": "46172", "addr:state": "IN", "amenity": "post_box", "brand": "United States Postal Service", "brand:wikidata": "Q668687", "collection_times": "Mo-Fr 15:15; Sa 10:30", "name": "USPS COLLECTION BOX - BLUE BOX", "note": "ON 12/24 AND 12/31, THIS BOX MAY BE COLLECTED AS EARLY AS 12 NOON.", "nsi_id": "unitedstatespostalservice-a77078", "operator": "United States Postal Service", "operator:short": "USPS", "operator:type": "public", "operator:wikidata": "Q668687", "ref": "4617200001"}, "type": "Feature"}
{"dataset_attributes": {"@spider": "usps_collection_boxes"}, "geometry": {"coordinates": [-86.800977, 39.850991], "type": "Point"}, "id": "Mf6IRJJKwryA5HbIrf9IkTGEJKY=", "properties": {"@spider": "usps_collection_boxes", "addr:city": "ROACHDALE", "addr:country": "US", "addr:full": "104 N MERIDIAN ST", "addr:postcode": "46172", "addr:state": "IN", "amenity": "post_box", "brand": "United States Postal Service", "brand:wikidata": "Q668687", "collection_times": "Mo-Fr 15:15; Sa 10:30", "name": "USPS COLLECTION BOX - BLUE BOX", "note": "ON 12/24 AND 12/31, THIS BOX MAY BE COLLECTED AS EARLY AS 12 NOON.", "nsi_id": "unitedstatespostalservice-a77078", "operator": "United States Postal Service", "operator:short": "USPS", "operator:type": "public", "operator:wikidata": "Q668687", "ref": "4617200002"}, "type": "Feature"}
{"dataset_attributes": {"@spider": "usps_collection_boxes"}, "geometry": {"coordinates": [-86.801007813, 39.850973361], "type": "Point"}, "id": "qxCvQIr-8q8SFSno3_hfJdrnDi8=", "properties": {"@spider": "usps_collection_boxes", "addr:city": "ROACHDALE", "addr:country": "US", "addr:full": "104 N MERIDIAN ST", "addr:postcode": "46172", "addr:state": "IN", "amenity": "post_box", "brand": "United States Postal Service", "brand:wikidata": "Q668687", "collection_times": "Mo-Fr 15:30; Sa 10:30", "name": "USPS COLLECTION BOX - PO LOBBY", "note": "ON 12/24 AND 12/31, THIS BOX MAY BE COLLECTED AS EARLY AS 12 NOON.", "nsi_id": "unitedstatespostalservice-a77078", "operator": "United States Postal Service", "operator:short": "USPS", "operator:type": "public", "operator:wikidata": "Q668687", "ref": "4617200003"}, "type": "Feature"}
{"dataset_attributes": {"@spider": "usps_collection_boxes"}, "geometry": {"coordinates": [-86.983112, 39.855708], "type": "Point"}, "id": "3nHppPMb8PXC0L8Z94lbilPR-0c=", "properties": {"@spider": "usps_collection_boxes", "addr:city": "RUSSELLVILLE", "addr:country": "US", "addr:full": "201 E 1ST ST", "addr:postcode": "46175", "addr:state": "IN", "amenity": "post_box", "brand": "United States Postal Service", "brand:wikidata": "Q668687", "collection_times": "Mo-Fr 15:15; Sa 09:00", "name": "USPS COLLECTION BOX - BLUE BOX", "note": "ON 12/24 AND 12/31, THIS BOX MAY BE COLLECTED AS EARLY AS 12 NOON.", "nsi_id": "unitedstatespostalservice-a77078", "operator": "United States Postal Service", "operator:short": "USPS", "operator:type": "public", "operator:wikidata": "Q668687", "ref": "4617500001"}, "type": "Feature"}
{"dataset_attributes": {"@spider": "usps_collection_boxes"}, "geometry": {"coordinates": [-86.983112, 39.855708], "type": "Point"}, "id": "CkrGRjE4PkKCGskRa6PfY0ebaE8=", "properties": {"@spider": "usps_collection_boxes", "addr:city": "RUSSELLVILLE", "addr:country": "US", "addr:full": "201 E 1ST ST", "addr:postcode": "46175", "addr:state": "IN", "amenity": "post_box", "brand": "United States Postal Service", "brand:wikidata": "Q668687", "collection_times": "Mo-Fr 11:45; Sa 09:00", "name": "USPS COLLECTION BOX - PO LOBBY", "nsi_id": "unitedstatespostalservice-a77078", "operator": "United States Postal Service", "operator:short": "USPS", "operator:type": "public", "operator:wikidata": "Q668687", "ref": "4617500003"}, "type": "Feature"}
{"dataset_attributes": {"@spider": "usps_collection_boxes"}, "geometry": {"coordinates": [-86.983109581, 39.855732464], "type": "Point"}, "id": "BgMFECmNcdl7TIxawh0BPzgj_Cg=", "properties": {"@spider": "usps_collection_boxes", "addr:city": "RUSSELLVILLE", "addr:country": "US", "addr:full": "201 E 1ST ST", "addr:postcode": "46175", "addr:state": "IN", "amenity": "post_box", "brand": "United States Postal Service", "brand:wikidata": "Q668687", "collection_times": "Mo-Fr 12:00; Sa 10:30", "name": "USPS COLLECTION BOX - PO LOBBY", "nsi_id": "unitedstatespostalservice-a77078", "operator": "United States Postal Service", "operator:short": "USPS", "operator:type": "public", "operator:wikidata": "Q668687", "ref": "4617500004"}, "type": "Feature"}
{"dataset_attributes": {"@spider": "usps_collection_boxes"}, "geometry": {"coordinates": [-86.633414, 39.638564], "type": "Point"}, "id": "2Rm67WfCaLTzefIXIRsAeyUzlk4=", "properties": {"@spider": "usps_collection_boxes", "addr:city": "STILESVILLE", "addr:country": "US", "addr:full": "6075 W US HIGHWAY 40", "addr:postcode": "46180", "addr:state": "IN", "amenity": "post_box", "brand": "United States Postal Service", "brand:wikidata": "Q668687", "collection_times": "Mo-Fr 15:45; Sa 10:30", "name": "USPS COLLECTION BOX - BLUE BOX", "note": "ON 12/24 AND 12/31, THIS BOX MAY BE COLLECTED AS EARLY AS 12 NOON.", "nsi_id": "unitedstatespostalservice-a77078", "operator": "United States Postal Service", "operator:short": "USPS", "operator:type": "public", "operator:wikidata": "Q668687", "ref": "4618000000"}, "type": "Feature"}
{"dataset_attributes": {"@spider": "usps_collection_boxes"}, "geometry": {"coordinates": [-86.6322899, 39.567003], "type": "Point"}, "id": "tPHgVUnI2cqF7j_vdqf2lnCzJ_I=", "properties": {"@spider": "usps_collection_boxes", "addr:city": "STILESVILLE", "addr:country": "US", "addr:full": "9620 N LITTLE POINT RD", "addr:postcode": "46180", "addr:state": "IN", "amenity": "post_box", "brand": "United States Postal Service", "brand:wikidata": "Q668687", "collection_times": "Mo-Fr 10:15", "name": "USPS COLLECTION BOX - BLUE BOX", "nsi_id": "unitedstatespostalservice-a77078", "operator": "United States Postal Service", "operator:short": "USPS", "operator:type": "public", "operator:wikidata": "Q668687", "ref": "4618000001"}, "type": "Feature"}
{"dataset_attributes": {"@spider": "usps_collection_boxes"}, "geometry": {"coordinates": [-86.633414, 39.638564], "type": "Point"}, "id": "zXB_gX9O4LQfgIERaDCmohlu7Ug=", "properties": {"@spider": "usps_collection_boxes", "addr:city": "STILESVILLE", "addr:country": "US", "addr:full": "6075 W US HIGHWAY 40", "addr:postcode": "46180", "addr:state": "IN", "amenity": "post_box", "brand": "United States Postal Service", "brand:wikidata": "Q668687", "collection_times": "Mo-Fr 12:00; Sa 10:30", "name": "USPS COLLECTION BOX - PO LOBBY", "nsi_id": "unitedstatespostalservice-a77078", "operator": "United States Postal Service", "operator:short": "USPS", "operator:type": "public", "operator:wikidata": "Q668687", "ref": "4618000004"}, "type": "Feature"}
{"dataset_attributes": {"@spider": "usps_collection_boxes"}, "geometry": {"coordinates": [-86.633412952, 39.638561094], "type": "Point"}, "id": "mX77ILYrnuvLqs55ZA_iyuuZdDo=", "properties": {"@spider": "usps_collection_boxes", "addr:city": "STILESVILLE", "addr:country": "US", "addr:full": "6075 W US HIGHWAY 40", "addr:postcode": "46180", "addr:state": "IN", "amenity": "post_box", "brand": "United States Postal Service", "brand:wikidata": "Q668687", "collection_times": "Mo-Fr 12:00; Sa 10:30", "name": "USPS COLLECTION BOX - PO LOBBY", "nsi_id": "unitedstatespostalservice-a77078", "operator": "United States Postal Service", "operator:short": "USPS", "operator:type": "public", "operator:wikidata": "Q668687", "ref": "4618000005"}, "type": "Feature"}
{"dataset_attributes": {"@spider": "usps_collection_boxes"}, "geometry": {"coordinates": [-86.282687, 39.653045], "type": "Point"}, "id": "x87KBDVLCrJs_aZTQOPnAbtCpgw=", "properties": {"@spider": "usps_collection_boxes", "addr:city": "WEST NEWTON", "addr:country": "US", "addr:full": "7636 MOORESVILLE RD", "addr:postcode": "46183", "addr:state": "IN", "amenity": "post_box", "brand": "United States Postal Service", "brand:wikidata": "Q668687", "collection_times": "Mo-Fr 16:00; Sa 11:00", "name": "USPS COLLECTION BOX - BLUE BOX", "note": "ON 12/24 AND 12/31, THIS BOX MAY BE COLLECTED AS EARLY AS 12 NOON.", "nsi_id": "unitedstatespostalservice-a77078", "operator": "United States Postal Service", "operator:short": "USPS", "operator:type": "public", "operator:wikidata": "Q668687", "ref": "4618300000"}, "type": "Feature"}
{"dataset_attributes": {"@spider": "usps_collection_boxes"}, "geometry": {"coordinates": [-86.282687, 39.653045], "type": "Point"}, "id": "Y81eQ21Jm3Wg44TbHly_swp2YjU=", "properties": {"@spider": "usps_collection_boxes", "addr:city": "WEST NEWTON", "addr:country": "US", "addr:full": "7636 MOORESVILLE RD", "addr:postcode": "46183", "addr:state": "IN", "amenity": "post_box", "brand": "United States Postal Service", "brand:wikidata": "Q668687", "collection_times": "Mo-Fr 16:00; Sa 11:00", "name": "USPS COLLECTION BOX - PO LOBBY", "note": "ON 12/24 AND 12/31, THIS BOX MAY BE COLLECTED AS EARLY AS 12 NOON.", "nsi_id": "unitedstatespostalservice-a77078", "operator": "United States Postal Service", "operator:short": "USPS", "operator:type": "public", "operator:wikidata": "Q668687", "ref": "4618300001"}, "type": "Feature"}
{"dataset_attributes": {"@spider": "usps_collection_boxes"}, "geometry": {"coordinates": [-86.282757, 39.652913233], "type": "Point"}, "id": "j2wJscuDe7E0j1DpARQR4uOOTiM=", "properties": {"@spider": "usps_collection_boxes", "addr:city": "WEST NEWTON", "addr:country": "US", "addr:full": "7636 MOORESVILLE RD", "addr:postcode": "46183", "addr:state": "IN", "amenity": "post_box", "brand": "United States Postal Service", "brand:wikidata": "Q668687", "collection_times": "Mo-Fr 16:30; Sa 12:00", "name": "USPS COLLECTION BOX - PO LOBBY", "note": "ON 12/24 AND 12/31, THIS BOX MAY BE COLLECTED AS EARLY AS 12 NOON.", "nsi_id": "unitedstatespostalservice-a77078", "operator": "United States Postal Service", "operator:short": "USPS", "operator:type": "public", "operator:wikidata": "Q668687", "ref": "4618300002"}, "type": "Feature"}
