{"geometry": {"coordinates": [-86.135778, 39.782988], "type": "Point"}, "id": "LhgpBRM9nGEP6PtiK7mp5fZTxtY=", "properties": {"@spider": "usps_collection_boxes", "addr:city": "INDIANAPOLIS", "addr:country": "US", "addr:full": "1125 BROOKSIDE AVE", "addr:postcode": "46202", "addr:state": "IN", "brand": "USPS", "collection_times": "Mo-Fr 16:00; Sa 12:00", "name": "USPS COLLECTION BOX - BLUE BOX", "note": "ON 12/24 AND 12/31, THIS BOX MAY BE COLLECTED AS EARLY AS 12 NOON.", "ref": "4620200003"}, "type": "Feature"}
{"geometry": {"coordinates": [-86.1613872, 39.793071], "type": "Point"}, "id": "iyz3AJ0AOwMCF6xOro-eG6KrIzY=", "properties": {"@spider": "usps_collection_boxes", "addr:city": "INDIANAPOLIS", "addr:country": "US", "addr:full": "1935 N CAPITOL AVE", "addr:postcode": "46202", "addr:state": "IN", "brand": "USPS", "collection_times": "Mo-Sa 11:00", "name": "USPS COLLECTION BOX - BLUE BOX", "ref": "4620200010"}, "type": "Feature"}
{"geometry": {"coordinates": [-86.1616827, 39.78903], "type": "Point"}, "id": "4OoGktpgf9STUBy4FHDrANfDVPQ=", "properties": {"@spider": "usps_collection_boxes", "addr:city": "INDIANAPOLIS", "addr:country": "US", "addr:full": "1633 N CAPITOL AVE", "addr:postcode": "46202", "addr:state": "IN", "brand": "USPS", "collection_times": "Mo-Sa 11:00", "name": "USPS COLLECTION BOX - BLUE BOX", "ref": "4620200011"}, "type": "Feature"}
{"geometry": {"coordinates": [-86.1494149, 39.79588], "type": "Point"}, "id": "HRqNRtTtDSeIQanT7zJ6f9_v5TA=", "properties": {"@spider": "usps_collection_boxes", "addr:city": "INDIANAPOLIS", "addr:country": "US", "addr:full": "2101 CENTRAL AVE", "addr:postcode": "46202", "addr:state": "IN", "brand": "USPS", "collection_times": "Mo-Fr 13:00; Sa 14:00", "name": "USPS COLLECTION BOX - BLUE BOX", "note": "ON 12/24 AND 12/31, THIS BOX MAY BE COLLECTED AS EARLY AS 12 NOON.", "ref": "4620200014"}, "type": "Feature"}
{"geometry": {"coordinates": [-86.1835842, 39.776889], "type": "Point"}, "id": "T0p4YDyUZ87QUo7mm9noB0AP1kY=", "properties": {"@spider": "usps_collection_boxes", "addr:city": "INDIANAPOLIS", "addr:country": "US", "addr:full": "720 ESKENAZI AVE", "addr:postcode": "46202", "addr:state": "IN", "brand": "USPS", "collection_times": "Mo-Sa 11:00", "name": "USPS COLLECTION BOX - BLUE BOX", "ref": "4620200015"}, "type": "Feature"}
{"geometry": {"coordinates": [-86.1456415, 39.770989], "type": "Point"}, "id": "yLKeDgGa31BEtlSAN40S_8ViBeM=", "properties": {"@spider": "usps_collection_boxes", "addr:city": "INDIANAPOLIS", "addr:country": "US", "addr:full": "699 E NEW YORK ST", "addr:postcode": "46202", "addr:state": "IN", "brand": "USPS", "collection_times": "Mo-Sa 11:00", "name": "USPS COLLECTION BOX - BLUE BOX", "ref": "4620200019"}, "type": "Feature"}
{"geometry": {"coordinates": [-86.144576197, 39.763035051], "type": "Point"}, "id": "rEMHjajoltGzcmMADsvxBseStRo=", "properties": {"@spider": "usps_collection_boxes", "addr:city": "INDIANAPOLIS", "addr:country": "US", "addr:full": "748 BATES ST", "addr:postcode": "46202", "addr:state": "IN", "brand": "USPS", "collection_times": "Mo-Fr 15:00; Sa 14:00", "name": "USPS COLLECTION BOX - BLUE BOX", "note": "ON 12/24 AND 12/31, THIS BOX MAY BE COLLECTED AS EARLY AS 12 NOON.", "ref": "4620200023"}, "type": "Feature"}
{"geometry": {"coordinates": [-86.1538591, 39.780445], "type": "Point"}, "id": "qDc0nOIW5eNRAY0sMD1KBK4jLns=", "properties": {"@spider": "usps_collection_boxes", "addr:city": "INDIANAPOLIS", "addr:country": "US", "addr:full": "951 N DELAWARE ST", "addr:postcode": "46202", "addr:state": "IN", "brand": "USPS", "collection_times": "Mo-Sa 11:00", "name": "USPS COLLECTION BOX - BLUE BOX", "ref": "4620200024"}, "type": "Feature"}
{"geometry": {"coordinates": [-86.1697993, 39.781845], "type": "Point"}, "id": "2TUFA6fAgC5kluHvIjuqysJa6BY=", "properties": {"@spider": "usps_collection_boxes", "addr:city": "INDIANAPOLIS", "addr:country": "US", "addr:full": "553 W 11TH ST", "addr:postcode": "46202", "addr:state": "IN", "brand": "USPS", "collection_times": "Mo-Sa 11:00", "name": "USPS COLLECTION BOX - BLUE BOX", "ref": "4620200031"}, "type": "Feature"}
{"geometry": {"coordinates": [-86.1590224, 39.792665], "type": "Point"}, "id": "uD0YFv5vl_H3wD5v4tjDkInvD9w=", "properties": {"@spider": "usps_collection_boxes", "addr:city": "INDIANAPOLIS", "addr:country": "US", "addr:full": "1934 N ILLINOIS ST", "addr:postcode": "46202", "addr:state": "IN", "brand": "USPS", "collection_times": "Mo-Sa 11:00", "name": "USPS COLLECTION BOX - BLUE BOX", "ref": "4620200037"}, "type": "Feature"}
{"geometry": {"coordinates": [-86.1785842, 39.775799], "type": "Point"}, "id": "k1AxxIyn45FddABeLnLvNQ5Yni4=", "properties": {"@spider": "usps_collection_boxes", "addr:city": "INDIANAPOLIS", "addr:country": "US", "addr:full": "545 BARNHILL DR", "addr:postcode": "46202", "addr:state": "IN", "brand": "USPS", "collection_times": "Mo-Sa 11:00", "name": "USPS COLLECTION BOX - BLUE BOX", "ref": "4620200041"}, "type": "Feature"}
{"geometry": {"coordinates": [-86.1732044, 39.77946], "type": "Point"}, "id": "4l7_xqWLjVZ9Vxrp3I4sureeOIQ=", "properties": {"@spider": "usps_collection_boxes", "addr:city": "INDIANAPOLIS", "addr:country": "US", "addr:full": "901 INDIANA AVE", "addr:postcode": "46202", "addr:state": "IN", "brand": "USPS", "collection_times": "Mo-Sa 11:00", "name": "USPS COLLECTION BOX - BLUE BOX", "ref": "4620200044"}, "type": "Feature"}
{"geometry": {"coordinates": [-86.157363, 39.790819], "type": "Point"}, "id": "JssUmbUMGiYE3LJVmP5aOh_yZTI=", "properties": {"@spider": "usps_collection_boxes", "addr:city": "INDIANAPOLIS", "addr:country": "US", "addr:full": "1800 N MERIDIAN ST", "addr:postcode": "46202", "addr:state": "IN", "brand": "USPS", "collection_times": "Mo-Sa 11:00", "name": "USPS COLLECTION BOX - BLUE BOX", "ref": "4620200046"}, "type": "Feature"}
{"geometry": {"coordinates": [-86.1573989, 39.791901], "type": "Point"}, "id": "Nwh-GzIHNu0CL8yqmj91cRqb_Zg=", "properties": {"@spider": "usps_collection_boxes", "addr:city": "INDIANAPOLIS", "addr:country": "US", "addr:full": "1840 N MERIDIAN ST", "addr:postcode": "46202", "addr:state": "IN", "brand": "USPS", "collection_times": "Mo-Sa 11:00", "name": "USPS COLLECTION BOX - BLUE BOX", "ref": "4620200047"}, "type": "Feature"}
{"geometry": {"coordinates": [-86.1574614, 39.793239], "type": "Point"}, "id": "qyGVSime9Qvmsc1R6FDAaBkbL1I=", "properties": {"@spider": "usps_collection_boxes", "addr:city": "INDIANAPOLIS", "addr:country": "US", "addr:full": "1998 N MERIDIAN ST", "addr:postcode": "46202", "addr:state": "IN", "brand": "USPS", "collection_times": "Mo-Sa 11:00", "name": "USPS COLLECTION BOX - BLUE BOX", "ref": "4620200048"}, "type": "Feature"}
{"geometry": {"coordinates": [-86.1572349, 39.786513], "type": "Point"}, "id": "9up4UpUo05N0jBrBbliPbYAlqtc=", "properties": {"@spider": "usps_collection_boxes", "addr:city": "INDIANAPOLIS", "addr:country": "US", "addr:full": "1433 N MERIDIAN ST", "addr:postcode": "46202", "addr:state": "IN", "brand": "USPS", "collection_times": "Mo-Sa 11:00", "name": "USPS COLLECTION BOX - BLUE BOX", "ref": "4620200051"}, "type": "Feature"}
{"geometry": {"coordinates": [-86.1801588, 39.7849], "type": "Point"}, "id": "TADcBmWdulY5ohfHRHgE5ggByu4=", "properties": {"@spider": "usps_collection_boxes", "addr:city": "INDIANAPOLIS", "addr:country": "US", "addr:full": "1302 STADIUM DR", "addr:postcode": "46202", "addr:state": "IN", "brand": "USPS", "collection_times": "Mo-Sa 11:00", "name": "USPS COLLECTION BOX - BLUE BOX", "ref": "4620200058"}, "type": "Feature"}
{"geometry": {"coordinates": [-86.1767995, 39.773456], "type": "Point"}, "id": "yyVAb636Tp__1OF0jpLmBqQDLT4=", "properties": {"@spider": "usps_collection_boxes", "addr:city": "INDIANAPOLIS", "addr:country": "US", "addr:full": "420 UNIVERSITY BLVD", "addr:postcode": "46202", "addr:state": "IN", "brand": "USPS", "collection_times": "Mo-Sa 11:00", "name": "USPS COLLECTION BOX - BLUE BOX", "ref": "4620200063"}, "type": "Feature"}
{"geometry": {"coordinates": [-86.1558471, 39.784454], "type": "Point"}, "id": "vll-Wj9LNncK_LkII0r6KbrOyAM=", "properties": {"@spider": "usps_collection_boxes", "addr:city": "INDIANAPOLIS", "addr:country": "US", "addr:full": "1300 N PENNSYLVANIA ST", "addr:postcode": "46202", "addr:state": "IN", "brand": "USPS", "collection_times": "Mo-Sa 11:00", "name": "USPS COLLECTION BOX - BLUE BOX", "ref": "4620200064"}, "type": "Feature"}
{"geometry": {"coordinates": [-86.1911129, 39.789056], "type": "Point"}, "id": "QMvfGS4lGp9c_-GUdXm51R-lFOE=", "properties": {"@spider": "usps_collection_boxes", "addr:city": "INDIANAPOLIS", "addr:country": "US", "addr:full": "1598 E RIVERSIDE DR", "addr:postcode": "46202", "addr:state": "IN", "brand": "USPS", "collection_times": "Mo-Sa 11:00", "name": "USPS COLLECTION BOX - BLUE BOX", "ref": "4620200068"}, "type": "Feature"}
{"geometry": {"coordinates": [-86.191101, 39.791027], "type": "Point"}, "id": "rn3NWTRt649gCVM5IZKw7mvFkK0=", "properties": {"@spider": "usps_collection_boxes", "addr:city": "INDIANAPOLIS", "addr:country": "US", "addr:full": "1798 E RIVERSIDE DR", "addr:postcode": "46202", "addr:state": "IN", "brand": "USPS", "collection_times": "Mo-Sa 11:00", "name": "USPS COLLECTION BOX - BLUE BOX", "ref": "4620200069"}, "type": "Feature"}
{"geometry": {"coordinates": [-86.1630941, 39.781126], "type": "Point"}, "id": "f5cBu5sRlqqzlt7BiHzbsFsz_f8=", "properties": {"@spider": "usps_collection_boxes", "addr:city": "INDIANAPOLIS", "addr:country": "US", "addr:full": "1002 N SENATE AVE", "addr:postcode": "46202", "addr:state": "IN", "brand": "USPS", "collection_times": "Mo-Sa 11:00", "name": "USPS COLLECTION BOX - BLUE BOX", "ref": "4620200072"}, "type": "Feature"}
{"geometry": {"coordinates": [-86.1638229, 39.790896], "type": "Point"}, "id": "mvhnWOYopUKk7EaNaA_6UCisG7g=", "properties": {"@spider": "usps_collection_boxes", "addr:city": "INDIANAPOLIS", "addr:country": "US", "addr:full": "1801 SENATE BLVD", "addr:postcode": "46202", "addr:state": "IN", "brand": "USPS", "collection_times": "Mo-Sa 11:00", "name": "USPS COLLECTION BOX - BLUE BOX", "ref": "4620200074"}, "type": "Feature"}
{"geometry": {"coordinates": [-86.1740833, 39.775618], "type": "Point"}, "id": "xz01RUL6H9ZClfcRn35wkSIBKXo=", "properties": {"@spider": "usps_collection_boxes", "addr:city": "INDIANAPOLIS", "addr:country": "US", "addr:full": "850 W MICHIGAN ST", "addr:postcode": "46202", "addr:state": "IN", "brand": "USPS", "collection_times": "Mo-Sa 11:00", "name": "USPS COLLECTION BOX - BLUE BOX", "ref": "4620200081"}, "type": "Feature"}
{"geometry": {"coordinates": [-86.153903874, 39.785340588], "type": "Point"}, "id": "usKQ9QABXIDkdiCLEXhgWxI_o-Y=", "properties": {"@spider": "usps_collection_boxes", "addr:city": "INDIANAPOLIS", "addr:country": "US", "addr:full": "1399 N DELAWARE ST", "addr:postcode": "46202", "addr:state": "IN", "brand": "USPS", "collection_times": "Mo-Sa 11:00", "name": "USPS COLLECTION BOX - BLUE BOX", "ref": "4620200087"}, "type": "Feature"}
{"geometry": {"coordinates": [-86.1538699, 39.787521], "type": "Point"}, "id": "JV9PMQIy2C6WqJJ1p8Fe15jLobo=", "properties": {"@spider": "usps_collection_boxes", "addr:city": "INDIANAPOLIS", "addr:country": "US", "addr:full": "1501 N DELAWARE ST", "addr:postcode": "46202", "addr:state": "IN", "brand": "USPS", "collection_times": "Mo-Sa 11:00", "name": "USPS COLLECTION BOX - BLUE BOX", "ref": "4620200088"}, "type": "Feature"}
{"geometry": {"coordinates": [-86.1678057, 39.771724], "type": "Point"}, "id": "XkWdN-jgPL2NbCXxfcppSArovGk=", "properties": {"@spider": "usps_collection_boxes", "addr:city": "INDIANAPOLIS", "addr:country": "US", "addr:full": "530 W NEW YORK ST", "addr:postcode": "46202", "addr:state": "IN", "brand": "USPS", "collection_times": "Mo-Fr 11:00", "name": "USPS COLLECTION BOX - BLUE BOX", "ref": "4620200092"}, "type": "Feature"}
{"geometry": {"coordinates": [-86.1506142, 39.771067319], "type": "Point"}, "id": "pMXTFWBglIF9Zp3yER4pvDlMfAM=", "properties": {"@spider": "usps_collection_boxes", "addr:city": "INDIANAPOLIS", "addr:country": "US", "addr:full": "401 E NEW YORK ST", "addr:postcode": "46202", "addr:state": "IN", "brand": "USPS", "collection_times": "Mo-Fr 16:00; Sa 12:00", "name": "USPS COLLECTION BOX - BLUE BOX", "note": "ON 12/24 AND 12/31, THIS BOX MAY BE COLLECTED AS EARLY AS 12 NOON.", "ref": "4620200111"}, "type": "Feature"}
{"geometry": {"coordinates": [-86.1314121, 39.739402], "type": "Point"}, "id": "Hx7lZkMWYg97TvNNNN8ZYXMnCZo=", "properties": {"@spider": "usps_collection_boxes", "addr:city": "INDIANAPOLIS", "addr:country": "US", "addr:full": "1636 E LEGRANDE AVE", "addr:postcode": "46203", "addr:state": "IN", "brand": "USPS", "collection_times": "Mo-Fr 17:00; Sa 16:00", "name": "USPS COLLECTION BOX - BLUE BOX", "note": "ON 12/24 AND 12/31, THIS BOX MAY BE COLLECTED AS EARLY AS 12 NOON.", "ref": "4620300001"}, "type": "Feature"}
{"geometry": {"coordinates": [-86.1443238, 39.726383], "type": "Point"}, "id": "Cy4QMHPpdSgYw9-y5-B0jrMe2B8=", "properties": {"@spider": "usps_collection_boxes", "addr:city": "INDIANAPOLIS", "addr:country": "US", "addr:full": "2757 ALLEN AVE", "addr:postcode": "46203", "addr:state": "IN", "brand": "USPS", "collection_times": "Mo-Sa 11:00", "name": "USPS COLLECTION BOX - BLUE BOX", "ref": "4620300003"}, "type": "Feature"}
{"geometry": {"coordinates": [-86.1400959, 39.752388], "type": "Point"}, "id": "1Por7ihj-jF6mkGhc8Ybs8fvEys=", "properties": {"@spider": "usps_collection_boxes", "addr:city": "INDIANAPOLIS", "addr:country": "US", "addr:full": "1050 PROSPECT ST", "addr:postcode": "46203", "addr:state": "IN", "brand": "USPS", "collection_times": "Mo-Fr 15:00; Sa 14:00", "name": "USPS COLLECTION BOX - BLUE BOX", "note": "ON 12/24 AND 12/31, THIS BOX MAY BE COLLECTED AS EARLY AS 12 NOON.", "ref": "4620300020"}, "type": "Feature"}
{"geometry": {"coordinates": [-86.1473047, 39.759268], "type": "Point"}, "id": "MB6mYT9xutipd2D_86DjkYbe6x4=", "properties": {"@spider": "usps_collection_boxes", "addr:city": "INDIANAPOLIS", "addr:country": "US", "addr:full": "520 VIRGINIA AVE", "addr:postcode": "46203", "addr:state": "IN", "brand": "USPS", "collection_times": "Mo-Sa 11:00", "name": "USPS COLLECTION BOX - BLUE BOX", "ref": "4620300041"}, "type": "Feature"}
{"geometry": {"coordinates": [-86.131639, 39.738894], "type": "Point"}, "id": "Ffz1eu5qhK1BUCsBupsdiNa9L4c=", "properties": {"@spider": "usps_collection_boxes", "addr:city": "INDIANAPOLIS", "addr:country": "US", "addr:full": "1636 E LEGRANDE AVE", "addr:postcode": "46203", "addr:state": "IN", "brand": "USPS", "collection_times": "Mo-Fr 17:00; Sa 15:00", "name": "USPS COLLECTION BOX - PO LOBBY", "note": "ON 12/24 AND 12/31, THIS BOX MAY BE COLLECTED AS EARLY AS 12 NOON.", "ref": "4620300048"}, "type": "Feature"}
{"geometry": {"coordinates": [-86.131607417, 39.738932112], "type": "Point"}, "id": "3Fz0mjliQRymkMrrR-ygVrt7FJw=", "properties": {"@spider": "usps_collection_boxes", "addr:city": "INDIANAPOLIS", "addr:country": "US", "addr:full": "1636 E LEGRANDE AVE", "addr:postcode": "46203", "addr:state": "IN", "brand": "USPS", "collection_times": "Mo-Fr 16:30; Sa 13:00", "name": "USPS COLLECTION BOX - PO LOBBY", "note": "ON 12/24 AND 12/31, THIS BOX MAY BE COLLECTED AS EARLY AS 12 NOON.", "ref": "4620300055"}, "type": "Feature"}
{"geometry": {"coordinates": [-86.152366953, 39.772509453], "type": "Point"}, "id": "pyqmatWt9Y0I3Yl6KbDgWQp9yso=", "properties": {"@spider": "usps_collection_boxes", "addr:city": "INDIANAPOLIS", "addr:country": "US", "addr:full": "301 E VERMONT ST", "addr:postcode": "46204", "addr:state": "IN", "brand": "USPS", "collection_times": "Mo-Fr 16:00; Sa 12:00", "name": "USPS COLLECTION BOX - BLUE BOX", "note": "ON 12/24 AND 12/31, THIS BOX MAY BE COLLECTED AS EARLY AS 12 NOON.", "ref": "4620400006"}, "type": "Feature"}
{"geometry": {"coordinates": [-86.1524104, 39.776964], "type": "Point"}, "id": "1fSvQaG6HWpyABaojEmnYeUGaNg=", "properties": {"@spider": "usps_collection_boxes", "addr:city": "INDIANAPOLIS", "addr:country": "US", "addr:full": "700 N ALABAMA ST", "addr:postcode": "46204", "addr:state": "IN", "brand": "USPS", "collection_times": "Mo-Sa 11:00", "name": "USPS COLLECTION BOX - BLUE BOX", "ref": "4620400007"}, "type": "Feature"}
{"geometry": {"coordinates": [-86.1583545, 39.773862], "type": "Point"}, "id": "oXeZKSHJGB3dmcocxduz-1Snxrc=", "properties": {"@spider": "usps_collection_boxes", "addr:city": "INDIANAPOLIS", "addr:country": "US", "addr:full": "456 N MERIDIAN ST", "addr:postcode": "46204", "addr:state": "IN", "brand": "USPS", "collection_times": "Mo-Fr 17:00; Sa 13:00", "name": "USPS COLLECTION BOX - PO LOBBY", "note": "ON 12/24 AND 12/31, THIS BOX MAY BE COLLECTED AS EARLY AS 12 NOON.", "ref": "4620400011"}, "type": "Feature"}
{"geometry": {"coordinates": [-86.1614837, 39.775701], "type": "Point"}, "id": "KIynsCGbIXFSdqRF8xBZnln_fAc=", "properties": {"@spider": "usps_collection_boxes", "addr:city": "INDIANAPOLIS", "addr:country": "US", "addr:full": "602 N CAPITOL AVE", "addr:postcode": "46204", "addr:state": "IN", "brand": "USPS", "collection_times": "Mo-Sa 11:00", "name": "USPS COLLECTION BOX - BLUE BOX", "ref": "4620400013"}, "type": "Feature"}
{"geometry": {"coordinates": [-86.1613996, 39.778019], "type": "Point"}, "id": "CQYdVb-2fHzRPxr8cOyec1TeA14=", "properties": {"@spider": "usps_collection_boxes", "addr:city": "INDIANAPOLIS", "addr:country": "US", "addr:full": "732 N CAPITOL AVE", "addr:postcode": "46204", "addr:state": "IN", "brand": "USPS", "collection_times": "Mo-Sa 11:00", "name": "USPS COLLECTION BOX - BLUE BOX", "ref": "4620400014"}, "type": "Feature"}
{"geometry": {"coordinates": [-86.1612386, 39.779507], "type": "Point"}, "id": "t_GvD67iTLfR2w6_mLviaJkGwfE=", "properties": {"@spider": "usps_collection_boxes", "addr:city": "INDIANAPOLIS", "addr:country": "US", "addr:full": "902 N CAPITOL AVE", "addr:postcode": "46204", "addr:state": "IN", "brand": "USPS", "collection_times": "Mo-Sa 11:00", "name": "USPS COLLECTION BOX - BLUE BOX", "ref": "4620400015"}, "type": "Feature"}
{"geometry": {"coordinates": [-86.1541521, 39.772223], "type": "Point"}, "id": "s7sP9jZCJ-dWmTy8Wk4KXxsNOR8=", "properties": {"@spider": "usps_collection_boxes", "addr:city": "INDIANAPOLIS", "addr:country": "US", "addr:full": "399 N DELAWARE ST", "addr:postcode": "46204", "addr:state": "IN", "brand": "USPS", "collection_times": "Mo-Sa 11:00", "name": "USPS COLLECTION BOX - BLUE BOX", "ref": "4620400027"}, "type": "Feature"}
{"geometry": {"coordinates": [-86.1543961, 39.769], "type": "Point"}, "id": "KRDbLw3fvW90ygb2AI_WasFVEuQ=", "properties": {"@spider": "usps_collection_boxes", "addr:city": "INDIANAPOLIS", "addr:country": "US", "addr:full": "136 N DELAWARE ST", "addr:postcode": "46204", "addr:state": "IN", "brand": "USPS", "collection_times": "Mo-Fr 11:30; Sa 12:00", "name": "USPS COLLECTION BOX - BLUE BOX", "ref": "4620400028"}, "type": "Feature"}
{"geometry": {"coordinates": [-86.14831556, 39.775584928], "type": "Point"}, "id": "dJ_38Qodg0jkXUbe8e9ie3TZ46A=", "properties": {"@spider": "usps_collection_boxes", "addr:city": "INDIANAPOLIS", "addr:country": "US", "addr:full": "600 MASSACHUSETTS AVE", "addr:postcode": "46204", "addr:state": "IN", "brand": "USPS", "collection_times": "Mo-Fr 16:00; Sa 12:00", "name": "USPS COLLECTION BOX - BLUE BOX", "note": "ON 12/24 AND 12/31, THIS BOX MAY BE COLLECTED AS EARLY AS 12 NOON.", "ref": "4620400030"}, "type": "Feature"}
{"geometry": {"coordinates": [-86.1599199, 39.768421], "type": "Point"}, "id": "NvJo_wlVKERHMyfcAdiftlcW4Xg=", "properties": {"@spider": "usps_collection_boxes", "addr:city": "INDIANAPOLIS", "addr:country": "US", "addr:full": "99 N ILLINOIS ST", "addr:postcode": "46204", "addr:state": "IN", "brand": "USPS", "collection_times": "Mo-Sa 11:00", "name": "USPS COLLECTION BOX - BLUE BOX", "ref": "4620400037"}, "type": "Feature"}
{"geometry": {"coordinates": [-86.1595261, 39.775387], "type": "Point"}, "id": "McpaCRADaSKUbVSp5uLWSlK8y1Q=", "properties": {"@spider": "usps_collection_boxes", "addr:city": "INDIANAPOLIS", "addr:country": "US", "addr:full": "500 N ILLINOIS ST", "addr:postcode": "46204", "addr:state": "IN", "brand": "USPS", "collection_times": "Mo-Sa 11:00", "name": "USPS COLLECTION BOX - BLUE BOX", "ref": "4620400038"}, "type": "Feature"}
{"geometry": {"coordinates": [-86.1592727, 39.781018], "type": "Point"}, "id": "9d2wFkFNWPRJ_qundwfZXQCUG2M=", "properties": {"@spider": "usps_collection_boxes", "addr:city": "INDIANAPOLIS", "addr:country": "US", "addr:full": "951 N ILLINOIS ST", "addr:postcode": "46204", "addr:state": "IN", "brand": "USPS", "collection_times": "Mo-Sa 11:00", "name": "USPS COLLECTION BOX - BLUE BOX", "ref": "4620400041"}, "type": "Feature"}
{"geometry": {"coordinates": [-86.1551865, 39.768696], "type": "Point"}, "id": "9QYhlN6qD0tw14JnC3_MXNHp_Do=", "properties": {"@spider": "usps_collection_boxes", "addr:city": "INDIANAPOLIS", "addr:country": "US", "addr:full": "136 E MARKET ST", "addr:postcode": "46204", "addr:state": "IN", "brand": "USPS", "collection_times": "Mo-Fr 15:15; Sa 10:30", "name": "USPS COLLECTION BOX - BLUE BOX", "note": "ON 12/24 AND 12/31, THIS BOX MAY BE COLLECTED AS EARLY AS 12 NOON.", "ref": "4620400054"}, "type": "Feature"}
{"geometry": {"coordinates": [-86.1583545, 39.773862], "type": "Point"}, "id": "2Sp8T-fdb5gPiNXTpNlRFxkFl2o=", "properties": {"@spider": "usps_collection_boxes", "addr:city": "INDIANAPOLIS", "addr:country": "US", "addr:full": "456 N MERIDIAN ST", "addr:postcode": "46204", "addr:state": "IN", "brand": "USPS", "collection_times": "Mo-Fr 17:00; Sa 16:30", "name": "USPS COLLECTION BOX - BLUE BOX", "note": "ON 12/24 AND 12/31, THIS BOX MAY BE COLLECTED AS EARLY AS 12 NOON.", "ref": "4620400066"}, "type": "Feature"}
{"geometry": {"coordinates": [-86.1580457, 39.767245], "type": "Point"}, "id": "nsi47RTpdfJSO8mLiNnCsyoshp8=", "properties": {"@spider": "usps_collection_boxes", "addr:city": "INDIANAPOLIS", "addr:country": "US", "addr:full": "7 N MERIDIAN ST", "addr:postcode": "46204", "addr:state": "IN", "brand": "USPS", "collection_times": "Mo-Sa 11:00", "name": "USPS COLLECTION BOX - BLUE BOX", "ref": "4620400071"}, "type": "Feature"}
{"geometry": {"coordinates": [-86.158485, 39.771621], "type": "Point"}, "id": "vFX6kU5YbJe24xKr0IqzgGoEs60=", "properties": {"@spider": "usps_collection_boxes", "addr:city": "INDIANAPOLIS", "addr:country": "US", "addr:full": "300 N MERIDIAN ST", "addr:postcode": "46204", "addr:state": "IN", "brand": "USPS", "collection_times": "Mo-Fr 17:00", "name": "USPS COLLECTION BOX - BLUE BOX", "note": "ON 12/24 AND 12/31, THIS BOX MAY BE COLLECTED AS EARLY AS 12 NOON.", "ref": "4620400073"}, "type": "Feature"}
{"geometry": {"coordinates": [-86.157342, 39.777318], "type": "Point"}, "id": "ahKbbrcC_gP1XeLHI8O2g-Twmug=", "properties": {"@spider": "usps_collection_boxes", "addr:city": "INDIANAPOLIS", "addr:country": "US", "addr:full": "777 N MERIDIAN ST", "addr:postcode": "46204", "addr:state": "IN", "brand": "USPS", "collection_times": "Mo-Fr 16:45; Sa 13:00", "name": "USPS COLLECTION BOX - BLUE BOX", "note": "ON 12/24 AND 12/31, THIS BOX MAY BE COLLECTED AS EARLY AS 12 NOON.", "ref": "4620400075"}, "type": "Feature"}
{"geometry": {"coordinates": [-86.1585313651, 39.7689118307], "type": "Point"}, "id": "qds073rB_-ETvoFZ6QWSkHB8aQU=", "properties": {"@spider": "usps_collection_boxes", "addr:city": "INDIANAPOLIS", "addr:country": "US", "addr:full": "120 MONUMENT CIR", "addr:postcode": "46204", "addr:state": "IN", "brand": "USPS", "collection_times": "Mo-Sa 11:00", "name": "USPS COLLECTION BOX - BLUE BOX", "ref": "4620400081"}, "type": "Feature"}
{"geometry": {"coordinates": [-86.150187938, 39.774134909], "type": "Point"}, "id": "GMKiFv4RwVJ9v2sZHPIyPGT_SBM=", "properties": {"@spider": "usps_collection_boxes", "addr:city": "INDIANAPOLIS", "addr:country": "US", "addr:full": "501 MASSACHUSETTS AVE", "addr:postcode": "46204", "addr:state": "IN", "brand": "USPS", "collection_times": "Mo-Fr 16:00; Sa 12:00", "name": "USPS COLLECTION BOX - BLUE BOX", "note": "ON 12/24 AND 12/31, THIS BOX MAY BE COLLECTED AS EARLY AS 12 NOON.", "ref": "4620400082"}, "type": "Feature"}
{"geometry": {"coordinates": [-86.1561688, 39.768317], "type": "Point"}, "id": "TkhMmvq1CmJapUwGv2ZFXAs9hJY=", "properties": {"@spider": "usps_collection_boxes", "addr:city": "INDIANAPOLIS", "addr:country": "US", "addr:full": "45 N PENNSYLVANIA ST", "addr:postcode": "46204", "addr:state": "IN", "brand": "USPS", "collection_times": "Mo-Sa 11:00", "name": "USPS COLLECTION BOX - BLUE BOX", "ref": "4620400089"}, "type": "Feature"}
{"geometry": {"coordinates": [-86.1564756, 39.765262], "type": "Point"}, "id": "spxLZlOOPaqXMr02yZKJLsszLL4=", "properties": {"@spider": "usps_collection_boxes", "addr:city": "INDIANAPOLIS", "addr:country": "US", "addr:full": "102 S PENNSYLVANIA ST", "addr:postcode": "46204", "addr:state": "IN", "brand": "USPS", "collection_times": "Mo-Sa 11:00", "name": "USPS COLLECTION BOX - BLUE BOX", "ref": "4620400091"}, "type": "Feature"}
{"geometry": {"coordinates": [-86.155788007, 39.772454989], "type": "Point"}, "id": "0Y6peNPz9JuzVTcuN0RT_HKQhWg=", "properties": {"@spider": "usps_collection_boxes", "addr:city": "INDIANAPOLIS", "addr:country": "US", "addr:full": "333 N PENNSYLVANIA ST", "addr:postcode": "46204", "addr:state": "IN", "brand": "USPS", "collection_times": "Mo-Sa 11:00", "name": "USPS COLLECTION BOX - BLUE BOX", "ref": "4620400092"}, "type": "Feature"}
{"geometry": {"coordinates": [-86.156348251, 39.766696699], "type": "Point"}, "id": "yPC3LjZP60QcEcMNaYYLpLt1h8I=", "properties": {"@spider": "usps_collection_boxes", "addr:city": "INDIANAPOLIS", "addr:country": "US", "addr:full": "2 S PENNSYLVANIA ST", "addr:postcode": "46204", "addr:state": "IN", "brand": "USPS", "collection_times": "Mo-Sa 11:00", "name": "USPS COLLECTION BOX - BLUE BOX", "ref": "4620400093"}, "type": "Feature"}
{"geometry": {"coordinates": [-86.1559327, 39.776972], "type": "Point"}, "id": "F6bDulo9rIv6eBPPccfNntFv0BI=", "properties": {"@spider": "usps_collection_boxes", "addr:city": "INDIANAPOLIS", "addr:country": "US", "addr:full": "700 N PENNSYLVANIA ST", "addr:postcode": "46204", "addr:state": "IN", "brand": "USPS", "collection_times": "Mo-Sa 11:00", "name": "USPS COLLECTION BOX - BLUE BOX", "ref": "4620400104"}, "type": "Feature"}
{"geometry": {"coordinates": [-86.1564584, 39.765872], "type": "Point"}, "id": "-r3rX6Vh8ZC9VdVlrPwHogpUU6E=", "properties": {"@spider": "usps_collection_boxes", "addr:city": "INDIANAPOLIS", "addr:country": "US", "addr:full": "47 S PENNSYLVANIA ST", "addr:postcode": "46204", "addr:state": "IN", "brand": "USPS", "collection_times": "Mo-Sa 11:00", "name": "USPS COLLECTION BOX - BLUE BOX", "ref": "4620400105"}, "type": "Feature"}
{"geometry": {"coordinates": [-86.160438, 39.767553], "type": "Point"}, "id": "5ikTWBRr4eBzv82qqTKRO8CXEk0=", "properties": {"@spider": "usps_collection_boxes", "addr:city": "INDIANAPOLIS", "addr:country": "US", "addr:full": "110 W WASHINGTON ST", "addr:postcode": "46204", "addr:state": "IN", "brand": "USPS", "collection_times": "Mo-Fr 15:00; Sa 12:00", "name": "USPS COLLECTION BOX - BLUE BOX", "note": "ON 12/24 AND 12/31, THIS BOX MAY BE COLLECTED AS EARLY AS 12 NOON.", "ref": "4620400112"}, "type": "Feature"}
{"geometry": {"coordinates": [-86.15718, 39.767274], "type": "Point"}, "id": "-zyLEHMzpa6bZhXj_4_83DXjew4=", "properties": {"@spider": "usps_collection_boxes", "addr:city": "INDIANAPOLIS", "addr:country": "US", "addr:full": "22 E WASHINGTON ST", "addr:postcode": "46204", "addr:state": "IN", "brand": "USPS", "collection_times": "Mo-Fr 15:00; Sa 12:00", "name": "USPS COLLECTION BOX - BLUE BOX", "note": "ON 12/24 AND 12/31, THIS BOX MAY BE COLLECTED AS EARLY AS 12 NOON.", "ref": "4620400115"}, "type": "Feature"}
{"geometry": {"coordinates": [-86.1470754, 39.775202], "type": "Point"}, "id": "_DdFVpdFMICA9aWocS8jlxrLJqU=", "properties": {"@spider": "usps_collection_boxes", "addr:city": "INDIANAPOLIS", "addr:country": "US", "addr:full": "601 N PARK AVE", "addr:postcode": "46204", "addr:state": "IN", "brand": "USPS", "collection_times": "Mo-Sa 11:00", "name": "USPS COLLECTION BOX - BLUE BOX", "ref": "4620400126"}, "type": "Feature"}
{"geometry": {"coordinates": [-86.148836, 39.774485], "type": "Point"}, "id": "a49bN_EljIkOxjaTae0YlSqfvtQ=", "properties": {"@spider": "usps_collection_boxes", "addr:city": "INDIANAPOLIS", "addr:country": "US", "addr:full": "501 N EAST ST", "addr:postcode": "46204", "addr:state": "IN", "brand": "USPS", "collection_times": "Mo-Sa 11:00", "name": "USPS COLLECTION BOX - BLUE BOX", "ref": "4620400143"}, "type": "Feature"}
{"geometry": {"coordinates": [-86.1583545, 39.773862], "type": "Point"}, "id": "fJSjyeMaYYlQulSloeOn2pt3cxI=", "properties": {"@spider": "usps_collection_boxes", "addr:city": "INDIANAPOLIS", "addr:country": "US", "addr:full": "456 N MERIDIAN ST", "addr:postcode": "46204", "addr:state": "IN", "brand": "USPS", "collection_times": "Mo-Fr 17:00; Sa 16:30", "name": "USPS COLLECTION BOX - BLUE BOX", "note": "ON 12/24 AND 12/31, THIS BOX MAY BE COLLECTED AS EARLY AS 12 NOON.", "ref": "4620400147"}, "type": "Feature"}
{"geometry": {"coordinates": [-86.1533442, 39.7698], "type": "Point"}, "id": "CJeSh0WABWOYBJVLUq3WsnDwSwg=", "properties": {"@spider": "usps_collection_boxes", "addr:city": "INDIANAPOLIS", "addr:country": "US", "addr:full": "230 E OHIO ST", "addr:postcode": "46204", "addr:state": "IN", "brand": "USPS", "collection_times": "Mo-Sa 11:00", "name": "USPS COLLECTION BOX - BLUE BOX", "ref": "4620400169"}, "type": "Feature"}
{"geometry": {"coordinates": [-86.15903, 39.765605], "type": "Point"}, "id": "Qvj1kvwA2zwxPuZSFCxJpB5q9Ns=", "properties": {"@spider": "usps_collection_boxes", "addr:city": "INDIANAPOLIS", "addr:country": "US", "addr:full": "49 W MARYLAND ST", "addr:postcode": "46204", "addr:state": "IN", "brand": "USPS", "collection_times": "Mo-Sa 11:00", "name": "USPS COLLECTION BOX - BLUE BOX", "ref": "4620400191"}, "type": "Feature"}
{"geometry": {"coordinates": [-86.1492285, 39.769497], "type": "Point"}, "id": "bBXqee2Fi7uQz5oEPBQX5EpPRkU=", "properties": {"@spider": "usps_collection_boxes", "addr:city": "INDIANAPOLIS", "addr:country": "US", "addr:full": "441 E OHIO ST", "addr:postcode": "46204", "addr:state": "IN", "brand": "USPS", "collection_times": "Mo-Fr 16:00; Sa 12:00", "name": "USPS COLLECTION BOX - BLUE BOX", "note": "ON 12/24 AND 12/31, THIS BOX MAY BE COLLECTED AS EARLY AS 12 NOON.", "ref": "4620400204"}, "type": "Feature"}
{"geometry": {"coordinates": [-86.147600037, 39.766808517], "type": "Point"}, "id": "kQt_AM8ZAAGEu1sjXS3WZtPobrg=", "properties": {"@spider": "usps_collection_boxes", "addr:city": "INDIANAPOLIS", "addr:country": "US", "addr:full": "603 E WASHINGTON ST", "addr:postcode": "46204", "addr:state": "IN", "brand": "USPS", "collection_times": "Mo-Fr 17:00; Sa 11:00", "name": "USPS COLLECTION BOX - BLUE BOX", "note": "ON 12/24 AND 12/31, THIS BOX MAY BE COLLECTED AS EARLY AS 12 NOON.", "ref": "4620400205"}, "type": "Feature"}
{"geometry": {"coordinates": [-86.162625, 39.768651], "type": "Point"}, "id": "5GGmm8idMqnyhd2f9afEOsbMKCk=", "properties": {"@spider": "usps_collection_boxes", "addr:city": "INDIANAPOLIS", "addr:country": "US", "addr:full": "200 W WASHINGTON ST", "addr:postcode": "46204", "addr:state": "IN", "brand": "USPS", "collection_times": "Mo-Fr 17:00", "name": "USPS COLLECTION BOX - BLUE BOX", "note": "ON 12/24 AND 12/31, THIS BOX MAY BE COLLECTED AS EARLY AS 12 NOON.", "ref": "4620400206"}, "type": "Feature"}
{"geometry": {"coordinates": [-86.1547095, 39.768129], "type": "Point"}, "id": "50uDXHBBzv3H8n6c-c5gS7OdtS8=", "properties": {"@spider": "usps_collection_boxes", "addr:city": "INDIANAPOLIS", "addr:country": "US", "addr:full": "155 E MARKET ST", "addr:postcode": "46204", "addr:state": "IN", "brand": "USPS", "collection_times": "Mo-Fr 17:00", "name": "USPS COLLECTION BOX - BLUE BOX", "note": "ON 12/24 AND 12/31, THIS BOX MAY BE COLLECTED AS EARLY AS 12 NOON.", "ref": "4620400226"}, "type": "Feature"}
{"geometry": {"coordinates": [-86.155021985, 39.774740985], "type": "Point"}, "id": "w_F0HM-Y1VQM9xwlWRvaPp5O_sI=", "properties": {"@spider": "usps_collection_boxes", "addr:city": "INDIANAPOLIS", "addr:country": "US", "addr:full": "575 N PENNSYLVANIA ST", "addr:postcode": "46204", "addr:state": "IN", "brand": "USPS", "collection_times": "Mo-Fr 16:30", "name": "USPS COLLECTION BOX - BLUE BOX", "note": "ON 12/24 AND 12/31, THIS BOX MAY BE COLLECTED AS EARLY AS 12 NOON.", "ref": "4620400229"}, "type": "Feature"}
{"geometry": {"coordinates": [-86.158449, 39.771891], "type": "Point"}, "id": "9o4Ws4BmoFDbC11Ldibknz4oghI=", "properties": {"@spider": "usps_collection_boxes", "addr:city": "INDIANAPOLIS", "addr:country": "US", "addr:full": "320 N MERIDIAN ST", "addr:postcode": "46204", "addr:state": "IN", "brand": "USPS", "collection_times": "Mo-Fr 17:00", "name": "USPS COLLECTION BOX - BLUE BOX", "note": "ON 12/24 AND 12/31, THIS BOX MAY BE COLLECTED AS EARLY AS 12 NOON.", "ref": "4620400234"}, "type": "Feature"}
{"geometry": {"coordinates": [-86.1594795, 39.768885], "type": "Point"}, "id": "RNsCm815aQx3ZD-aEPfyeocp6Jw=", "properties": {"@spider": "usps_collection_boxes", "addr:city": "INDIANAPOLIS", "addr:country": "US", "addr:full": "10 W MARKET ST", "addr:postcode": "46204", "addr:state": "IN", "brand": "USPS", "collection_times": "Mo-Fr 17:00", "name": "USPS COLLECTION BOX - BLUE BOX", "note": "ON 12/24 AND 12/31, THIS BOX MAY BE COLLECTED AS EARLY AS 12 NOON.", "ref": "4620400235"}, "type": "Feature"}
{"geometry": {"coordinates": [-86.1592725, 39.770649], "type": "Point"}, "id": "u95drYt8D5o-ww7PR8_EGr6ll6Y=", "properties": {"@spider": "usps_collection_boxes", "addr:city": "INDIANAPOLIS", "addr:country": "US", "addr:full": "201 N ILLINOIS ST", "addr:postcode": "46204", "addr:state": "IN", "brand": "USPS", "collection_times": "Mo-Fr 17:00", "name": "USPS COLLECTION BOX - BLUE BOX", "note": "ON 12/24 AND 12/31, THIS BOX MAY BE COLLECTED AS EARLY AS 12 NOON.", "ref": "4620400238"}, "type": "Feature"}
{"geometry": {"coordinates": [-86.1594615, 39.770955], "type": "Point"}, "id": "y02o_pE4y7yymcMN8A4j9vGsY1w=", "properties": {"@spider": "usps_collection_boxes", "addr:city": "INDIANAPOLIS", "addr:country": "US", "addr:full": "251 N ILLINOIS ST", "addr:postcode": "46204", "addr:state": "IN", "brand": "USPS", "collection_times": "Mo-Fr 17:00", "name": "USPS COLLECTION BOX - BLUE BOX", "note": "ON 12/24 AND 12/31, THIS BOX MAY BE COLLECTED AS EARLY AS 12 NOON.", "ref": "4620400240"}, "type": "Feature"}
{"geometry": {"coordinates": [-86.153517, 39.767976], "type": "Point"}, "id": "5piZx7wEpdBkrjH1idmDuQGwrZk=", "properties": {"@spider": "usps_collection_boxes", "addr:city": "INDIANAPOLIS", "addr:country": "US", "addr:full": "200 E WASHINGTON ST", "addr:postcode": "46204", "addr:state": "IN", "brand": "USPS", "collection_times": "Mo-Fr 17:00", "name": "USPS COLLECTION BOX - BLUE BOX", "note": "ON 12/24 AND 12/31, THIS BOX MAY BE COLLECTED AS EARLY AS 12 NOON.", "ref": "4620400279"}, "type": "Feature"}
{"geometry": {"coordinates": [-86.1639749, 39.767515], "type": "Point"}, "id": "56RCJWJmaK1FVN-MXrYxAZGwG-k=", "properties": {"@spider": "usps_collection_boxes", "addr:city": "INDIANAPOLIS", "addr:country": "US", "addr:full": "311 W WASHINGTON ST", "addr:postcode": "46204", "addr:state": "IN", "brand": "USPS", "collection_times": "Mo-Fr 10:30", "name": "USPS COLLECTION BOX - BLUE BOX", "ref": "4620400287"}, "type": "Feature"}
{"geometry": {"coordinates": [-86.157968, 39.765959], "type": "Point"}, "id": "1R6hx3hVHk7-_XLE9DdVGExOy6Q=", "properties": {"@spider": "usps_collection_boxes", "addr:city": "INDIANAPOLIS", "addr:country": "US", "addr:full": "30 S MERIDIAN ST", "addr:postcode": "46204", "addr:state": "IN", "brand": "USPS", "collection_times": "Mo-Fr 11:00", "name": "USPS COLLECTION BOX - BLUE BOX", "ref": "4620400292"}, "type": "Feature"}
{"geometry": {"coordinates": [-86.1651675, 39.769236], "type": "Point"}, "id": "sb10J0sACV8V7uhmUg4pEg7xYwc=", "properties": {"@spider": "usps_collection_boxes", "addr:city": "INDIANAPOLIS", "addr:country": "US", "addr:full": "100 N SENATE AVE", "addr:postcode": "46204", "addr:state": "IN", "brand": "USPS", "collection_times": "Mo-Fr 17:00", "name": "USPS COLLECTION BOX - BLUE BOX", "note": "ON 12/24 AND 12/31, THIS BOX MAY BE COLLECTED AS EARLY AS 12 NOON.", "ref": "4620400300"}, "type": "Feature"}
{"geometry": {"coordinates": [-86.147600037, 39.766808517], "type": "Point"}, "id": "Nvk0emnuBbgW4rrZEqdWkvrxW_4=", "properties": {"@spider": "usps_collection_boxes", "addr:city": "INDIANAPOLIS", "addr:country": "US", "addr:full": "603 E WASHINGTON ST", "addr:postcode": "46204", "addr:state": "IN", "brand": "USPS", "collection_times": "Mo-Fr 17:00; Sa 11:00", "name": "USPS COLLECTION BOX - BLUE BOX", "note": "ON 12/24 AND 12/31, THIS BOX MAY BE COLLECTED AS EARLY AS 12 NOON.", "ref": "4620400306"}, "type": "Feature"}
{"geometry": {"coordinates": [-86.156052432, 39.770509982], "type": "Point"}, "id": "KkWEt874qmvmxTnnQX-N80wm79k=", "properties": {"@spider": "usps_collection_boxes", "addr:city": "INDIANAPOLIS", "addr:country": "US", "addr:full": "221 N PENNSYLVANIA ST", "addr:postcode": "46204", "addr:state": "IN", "brand": "USPS", "collection_times": "Mo-Sa 11:00", "name": "USPS COLLECTION BOX - BLUE BOX", "ref": "4620400310"}, "type": "Feature"}
{"geometry": {"coordinates": [-86.1613695, 39.768984], "type": "Point"}, "id": "LCS09rpXryXFdIO5aaLGqD88Ekw=", "properties": {"@spider": "usps_collection_boxes", "addr:city": "INDIANAPOLIS", "addr:country": "US", "addr:full": "150 W MARKET ST", "addr:postcode": "46204", "addr:state": "IN", "brand": "USPS", "collection_times": "Mo-Sa 11:00", "name": "USPS COLLECTION BOX - BLUE BOX", "ref": "4620400311"}, "type": "Feature"}
{"geometry": {"coordinates": [-86.1488699, 39.772999], "type": "Point"}, "id": "Cvhypvby5A0PJ5cX8MsH7xn-F9o=", "properties": {"@spider": "usps_collection_boxes", "addr:city": "INDIANAPOLIS", "addr:country": "US", "addr:full": "402 N EAST ST", "addr:postcode": "46204", "addr:state": "IN", "brand": "USPS", "collection_times": "Mo-Sa 11:00", "name": "USPS COLLECTION BOX - BLUE BOX", "ref": "4620400313"}, "type": "Feature"}
{"geometry": {"coordinates": [-86.1578581675, 39.7738536181], "type": "Point"}, "id": "n_mFTtRs6Q6z9rX2PDdAPYubYZs=", "properties": {"@spider": "usps_collection_boxes", "addr:city": "INDIANAPOLIS", "addr:country": "US", "addr:full": "456 N MERIDIAN ST STE X", "addr:postcode": "46204", "addr:state": "IN", "brand": "USPS", "collection_times": "Mo-Fr 17:00; Sa 13:00", "name": "USPS COLLECTION BOX - PO LOBBY", "note": "ON 12/24 AND 12/31, THIS BOX MAY BE COLLECTED AS EARLY AS 12 NOON.", "ref": "4620400321"}, "type": "Feature"}
{"geometry": {"coordinates": [-86.1378521, 39.847148], "type": "Point"}, "id": "ZIiU7E2eRiJn3Mi9XyMJiKknyxE=", "properties": {"@spider": "usps_collection_boxes", "addr:city": "INDIANAPOLIS", "addr:country": "US", "addr:full": "1235 E 52ND ST", "addr:postcode": "46205", "addr:state": "IN", "brand": "USPS", "collection_times": "Mo-Fr 12:00; Sa 13:00", "name": "USPS COLLECTION BOX - BLUE BOX", "note": "ON 12/24 AND 12/31, THIS BOX MAY BE COLLECTED AS EARLY AS 12 NOON.", "ref": "4620500017"}, "type": "Feature"}
{"geometry": {"coordinates": [-86.154615709, 39.842820587], "type": "Point"}, "id": "Yqzwu3w4TWi32yvu9LteCebEbDY=", "properties": {"@spider": "usps_collection_boxes", "addr:city": "INDIANAPOLIS", "addr:country": "US", "addr:full": "4901 N PENNSYLVANIA ST", "addr:postcode": "46205", "addr:state": "IN", "brand": "USPS", "collection_times": "Mo-Fr 15:30; Sa 13:00", "name": "USPS COLLECTION BOX - BLUE BOX", "note": "ON 12/24 AND 12/31, THIS BOX MAY BE COLLECTED AS EARLY AS 12 NOON.", "ref": "4620500030"}, "type": "Feature"}
{"geometry": {"coordinates": [-86.1413619, 39.842814], "type": "Point"}, "id": "qXm1Fbb3wGtvmFLgWsrQyjDFoCg=", "properties": {"@spider": "usps_collection_boxes", "addr:city": "INDIANAPOLIS", "addr:country": "US", "addr:full": "4850 WINTHROP AVE", "addr:postcode": "46205", "addr:state": "IN", "brand": "USPS", "collection_times": "Mo-Fr 12:00; Sa 13:00", "name": "USPS COLLECTION BOX - BLUE BOX", "note": "ON 12/24 AND 12/31, THIS BOX MAY BE COLLECTED AS EARLY AS 12 NOON.", "ref": "4620500041"}, "type": "Feature"}
{"geometry": {"coordinates": [-86.1508171, 39.806207], "type": "Point"}, "id": "q3jHQRa06x1a0EfgF9qlMlipd-8=", "properties": {"@spider": "usps_collection_boxes", "addr:city": "INDIANAPOLIS", "addr:country": "US", "addr:full": "300 E FALL CREEK PARKWAY NORTH DR", "addr:postcode": "46205", "addr:state": "IN", "brand": "USPS", "collection_times": "Mo-Fr 15:30; Sa 15:00", "name": "USPS COLLECTION BOX - BLUE BOX", "note": "ON 12/24 AND 12/31, THIS BOX MAY BE COLLECTED AS EARLY AS 12 NOON.", "ref": "4620500050"}, "type": "Feature"}
{"geometry": {"coordinates": [-86.1522444, 39.823431], "type": "Point"}, "id": "TDYGPdodGHyBkfNPT7tAq7Njm1M=", "properties": {"@spider": "usps_collection_boxes", "addr:city": "INDIANAPOLIS", "addr:country": "US", "addr:full": "3676 WASHINGTON BLVD", "addr:postcode": "46205", "addr:state": "IN", "brand": "USPS", "collection_times": "Mo-Fr 14:00; Sa 13:00", "name": "USPS COLLECTION BOX - BLUE BOX", "note": "ON 12/24 AND 12/31, THIS BOX MAY BE COLLECTED AS EARLY AS 12 NOON.", "ref": "4620500054"}, "type": "Feature"}
{"geometry": {"coordinates": [-86.161014, 39.761497], "type": "Point"}, "id": "GHGh59lst623lx4MBURJSEhdRd8=", "properties": {"@spider": "usps_collection_boxes", "addr:city": "INDIANAPOLIS", "addr:country": "US", "addr:full": "125 W SOUTH ST", "addr:postcode": "46206", "addr:state": "IN", "brand": "USPS", "collection_times": "Mo-Fr 19:00; Sa 18:00", "name": "USPS COLLECTION BOX - PO LOBBY", "note": "ON 12/24 AND 12/31, THIS BOX MAY BE COLLECTED AS EARLY AS 12 NOON.", "ref": "4620600004"}, "type": "Feature"}
{"geometry": {"coordinates": [-86.160914, 39.761522], "type": "Point"}, "id": "yWPj34nXqb7VN7Ytt5_ZyMgUbhM=", "properties": {"@spider": "usps_collection_boxes", "addr:city": "INDIANAPOLIS", "addr:country": "US", "addr:full": "125 W SOUTH ST", "addr:postcode": "46206", "addr:state": "IN", "brand": "USPS", "collection_times": "Mo-Fr 19:00; Sa 18:00", "name": "USPS COLLECTION BOX - PO LOBBY", "note": "ON 12/24 AND 12/31, THIS BOX MAY BE COLLECTED AS EARLY AS 12 NOON.", "ref": "4620600005"}, "type": "Feature"}
{"geometry": {"coordinates": [-86.160914, 39.761522], "type": "Point"}, "id": "8tE3R_R1BPgb34ykFQnN2Yo_hhQ=", "properties": {"@spider": "usps_collection_boxes", "addr:city": "INDIANAPOLIS", "addr:country": "US", "addr:full": "125 W SOUTH ST", "addr:postcode": "46206", "addr:state": "IN", "brand": "USPS", "collection_times": "Mo-Fr 19:00; Sa 18:00", "name": "USPS COLLECTION BOX - PO LOBBY", "note": "ON 12/24 AND 12/31, THIS BOX MAY BE COLLECTED AS EARLY AS 12 NOON.", "ref": "4620600008"}, "type": "Feature"}
{"geometry": {"coordinates": [-86.160914, 39.761522], "type": "Point"}, "id": "lIEmQ-WpY0Es0wseWFemN_qS0VQ=", "properties": {"@spider": "usps_collection_boxes", "addr:city": "INDIANAPOLIS", "addr:country": "US", "addr:full": "125 W SOUTH ST", "addr:postcode": "46206", "addr:state": "IN", "brand": "USPS", "collection_times": "Mo-Fr 19:00; Sa 18:00", "name": "USPS COLLECTION BOX - PO LOBBY", "note": "ON 12/24 AND 12/31, THIS BOX MAY BE COLLECTED AS EARLY AS 12 NOON.", "ref": "4620600009"}, "type": "Feature"}
{"geometry": {"coordinates": [-86.160914, 39.761522], "type": "Point"}, "id": "nmARkokWtR7SOa6CTNVFsO84_FE=", "properties": {"@spider": "usps_collection_boxes", "addr:city": "INDIANAPOLIS", "addr:country": "US", "addr:full": "125 W SOUTH ST", "addr:postcode": "46206", "addr:state": "IN", "brand": "USPS", "collection_times": "Mo-Fr 19:00; Sa 18:00", "name": "USPS COLLECTION BOX - APC", "note": "ON 12/24 AND 12/31, THIS BOX MAY BE COLLECTED AS EARLY AS 12 NOON.", "ref": "4620600013"}, "type": "Feature"}
{"geometry": {"coordinates": [-86.160914, 39.761522], "type": "Point"}, "id": "98edkFDzRUayaw5sNZnr_JHsgVI=", "properties": {"@spider": "usps_collection_boxes", "addr:city": "INDIANAPOLIS", "addr:country": "US", "addr:full": "125 W SOUTH ST", "addr:postcode": "46206", "addr:state": "IN", "brand": "USPS", "collection_times": "Mo-Fr 19:00; Sa 18:00", "name": "USPS COLLECTION BOX - PO LOBBY", "note": "ON 12/24 AND 12/31, THIS BOX MAY BE COLLECTED AS EARLY AS 12 NOON.", "ref": "4620600014"}, "type": "Feature"}
{"geometry": {"coordinates": [-86.160914, 39.761522], "type": "Point"}, "id": "r7teP2iASAXQJAabWJSyqyMKm7E=", "properties": {"@spider": "usps_collection_boxes", "addr:city": "INDIANAPOLIS", "addr:country": "US", "addr:full": "125 W SOUTH ST", "addr:postcode": "46206", "addr:state": "IN", "brand": "USPS", "collection_times": "Mo-Fr 19:00; Sa 18:00", "name": "USPS COLLECTION BOX - PO LOBBY", "note": "ON 12/24 AND 12/31, THIS BOX MAY BE COLLECTED AS EARLY AS 12 NOON.", "ref": "4620600015"}, "type": "Feature"}
{"geometry": {"coordinates": [-86.161030638, 39.761485538], "type": "Point"}, "id": "3x4RBaRmtupkTrqI2BmmcOpF2Lc=", "properties": {"@spider": "usps_collection_boxes", "addr:city": "INDIANAPOLIS", "addr:country": "US", "addr:full": "125 W SOUTH ST", "addr:postcode": "46206", "addr:state": "IN", "brand": "USPS", "collection_times": "Mo-Fr 18:30", "name": "USPS COLLECTION BOX - PO LOBBY", "note": "ON 12/24 AND 12/31, THIS BOX MAY BE COLLECTED AS EARLY AS 12 NOON.", "ref": "4620600017"}, "type": "Feature"}
{"geometry": {"coordinates": [-86.17152, 39.805216], "type": "Point"}, "id": "jJk4npRIpu3FAusEDha8_MDaxy4=", "properties": {"@spider": "usps_collection_boxes", "addr:city": "INDIANAPOLIS", "addr:country": "US", "addr:full": "2650 MARTIN LUTHER KING JR ST", "addr:postcode": "46208", "addr:state": "IN", "brand": "USPS", "collection_times": "Mo-Fr 17:00; Sa 16:30", "name": "USPS COLLECTION BOX - BLUE BOX", "note": "ON 12/24 AND 12/31, THIS BOX MAY BE COLLECTED AS EARLY AS 12 NOON.", "ref": "4620800001"}, "type": "Feature"}
{"geometry": {"coordinates": [-86.1717265, 39.839096], "type": "Point"}, "id": "ve8cGWNX1LNmp5EqYToW5efuIys=", "properties": {"@spider": "usps_collection_boxes", "addr:city": "INDIANAPOLIS", "addr:country": "US", "addr:full": "4600 SUNSET AVE", "addr:postcode": "46208", "addr:state": "IN", "brand": "USPS", "collection_times": "Mo-Sa 14:00", "name": "USPS COLLECTION BOX - BLUE BOX", "note": "ON 12/24 AND 12/31, THIS BOX MAY BE COLLECTED AS EARLY AS 12 NOON.", "ref": "4620800004"}, "type": "Feature"}
{"geometry": {"coordinates": [-86.1615181, 39.828384], "type": "Point"}, "id": "iiHHBGg_dJN_8KZxtwzJ45ESoWU=", "properties": {"@spider": "usps_collection_boxes", "addr:city": "INDIANAPOLIS", "addr:country": "US", "addr:full": "4001 N CAPITOL AVE", "addr:postcode": "46208", "addr:state": "IN", "brand": "USPS", "collection_times": "Mo-Sa 14:00", "name": "USPS COLLECTION BOX - BLUE BOX", "note": "ON 12/24 AND 12/31, THIS BOX MAY BE COLLECTED AS EARLY AS 12 NOON.", "ref": "4620800009"}, "type": "Feature"}
{"geometry": {"coordinates": [-86.1615518, 39.839378], "type": "Point"}, "id": "wN0shkYKvpMSrMtOjjuA_kiAnWk=", "properties": {"@spider": "usps_collection_boxes", "addr:city": "INDIANAPOLIS", "addr:country": "US", "addr:full": "153 W 46TH ST", "addr:postcode": "46208", "addr:state": "IN", "brand": "USPS", "collection_times": "Mo-Sa 14:00", "name": "USPS COLLECTION BOX - BLUE BOX", "note": "ON 12/24 AND 12/31, THIS BOX MAY BE COLLECTED AS EARLY AS 12 NOON.", "ref": "4620800010"}, "type": "Feature"}
{"geometry": {"coordinates": [-86.1619292, 39.846764], "type": "Point"}, "id": "EhOjJtD9qrUK9ku1iNNZJyjVovo=", "properties": {"@spider": "usps_collection_boxes", "addr:city": "INDIANAPOLIS", "addr:country": "US", "addr:full": "5212 N CAPITOL AVE", "addr:postcode": "46208", "addr:state": "IN", "brand": "USPS", "collection_times": "Mo-Sa 14:00", "name": "USPS COLLECTION BOX - BLUE BOX", "note": "ON 12/24 AND 12/31, THIS BOX MAY BE COLLECTED AS EARLY AS 12 NOON.", "ref": "4620800011"}, "type": "Feature"}
{"geometry": {"coordinates": [-86.1827061, 39.829724], "type": "Point"}, "id": "zfP5EMlLWJ4vTHaJtYEQ7s0imoc=", "properties": {"@spider": "usps_collection_boxes", "addr:city": "INDIANAPOLIS", "addr:country": "US", "addr:full": "1100 W 42ND ST", "addr:postcode": "46208", "addr:state": "IN", "brand": "USPS", "collection_times": "Mo-Sa 14:00", "name": "USPS COLLECTION BOX - BLUE BOX", "note": "ON 12/24 AND 12/31, THIS BOX MAY BE COLLECTED AS EARLY AS 12 NOON.", "ref": "4620800017"}, "type": "Feature"}
{"geometry": {"coordinates": [-86.1594247, 39.854323], "type": "Point"}, "id": "0gNNHLaTL1ImUHR3hqo2YI9bXio=", "properties": {"@spider": "usps_collection_boxes", "addr:city": "INDIANAPOLIS", "addr:country": "US", "addr:full": "5605 N ILLINOIS ST", "addr:postcode": "46208", "addr:state": "IN", "brand": "USPS", "collection_times": "Mo-Fr 11:30; Sa 11:00", "name": "USPS COLLECTION BOX - BLUE BOX", "ref": "4620800027"}, "type": "Feature"}
{"geometry": {"coordinates": [-86.1566249, 39.812205], "type": "Point"}, "id": "uqoYn88Tpyt4uVHd3096VRGTePo=", "properties": {"@spider": "usps_collection_boxes", "addr:city": "INDIANAPOLIS", "addr:country": "US", "addr:full": "3101 N MERIDIAN ST", "addr:postcode": "46208", "addr:state": "IN", "brand": "USPS", "collection_times": "Mo-Fr 14:00; Sa 13:30", "name": "USPS COLLECTION BOX - BLUE BOX", "note": "ON 12/24 AND 12/31, THIS BOX MAY BE COLLECTED AS EARLY AS 12 NOON.", "ref": "4620800040"}, "type": "Feature"}
{"geometry": {"coordinates": [-86.1567238, 39.823155], "type": "Point"}, "id": "zsk6DAEvyvTSnteL3i7f46xG_jU=", "properties": {"@spider": "usps_collection_boxes", "addr:city": "INDIANAPOLIS", "addr:country": "US", "addr:full": "3737 N MERIDIAN ST", "addr:postcode": "46208", "addr:state": "IN", "brand": "USPS", "collection_times": "Mo-Fr 14:00; Sa 13:30", "name": "USPS COLLECTION BOX - BLUE BOX", "note": "ON 12/24 AND 12/31, THIS BOX MAY BE COLLECTED AS EARLY AS 12 NOON.", "ref": "4620800044"}, "type": "Feature"}
{"geometry": {"coordinates": [-86.17152, 39.805216], "type": "Point"}, "id": "l-jYBsPHcEp_uXm903mlzST7ZXY=", "properties": {"@spider": "usps_collection_boxes", "addr:city": "INDIANAPOLIS", "addr:country": "US", "addr:full": "2650 MARTIN LUTHER KING JR ST", "addr:postcode": "46208", "addr:state": "IN", "brand": "USPS", "collection_times": "Mo-Fr 16:45; Sa 14:00", "name": "USPS COLLECTION BOX - PO LOBBY", "note": "ON 12/24 AND 12/31, THIS BOX MAY BE COLLECTED AS EARLY AS 12 NOON.", "ref": "4620800057"}, "type": "Feature"}
{"geometry": {"coordinates": [-86.1568695, 39.814962], "type": "Point"}, "id": "uJodZDVhfvzx2Tfq_OWJN_07Pcs=", "properties": {"@spider": "usps_collection_boxes", "addr:city": "INDIANAPOLIS", "addr:country": "US", "addr:full": "3266 N MERIDIAN ST", "addr:postcode": "46208", "addr:state": "IN", "brand": "USPS", "collection_times": "Mo-Fr 14:00; Sa 13:30", "name": "USPS COLLECTION BOX - BLUE BOX", "note": "ON 12/24 AND 12/31, THIS BOX MAY BE COLLECTED AS EARLY AS 12 NOON.", "ref": "4620800071"}, "type": "Feature"}
{"geometry": {"coordinates": [-86.17152, 39.805216], "type": "Point"}, "id": "Ja8iMG2CGHIWcyw6jcSBY4QWlw4=", "properties": {"@spider": "usps_collection_boxes", "addr:city": "INDIANAPOLIS", "addr:country": "US", "addr:full": "2650 MARTIN LUTHER KING JR ST", "addr:postcode": "46208", "addr:state": "IN", "brand": "USPS", "collection_times": "Mo-Fr 16:45; Sa 14:00", "name": "USPS COLLECTION BOX - PO LOBBY", "note": "ON 12/24 AND 12/31, THIS BOX MAY BE COLLECTED AS EARLY AS 12 NOON.", "ref": "4620800072"}, "type": "Feature"}
{"geometry": {"coordinates": [-86.1567399, 39.826725], "type": "Point"}, "id": "1V8v2tp0DJXXKA_E9TL41CV_k-k=", "properties": {"@spider": "usps_collection_boxes", "addr:city": "INDIANAPOLIS", "addr:country": "US", "addr:full": "3901 N MERIDIAN ST", "addr:postcode": "46208", "addr:state": "IN", "brand": "USPS", "collection_times": "Mo-Fr 14:00; Sa 13:30", "name": "USPS COLLECTION BOX - BLUE BOX", "note": "ON 12/24 AND 12/31, THIS BOX MAY BE COLLECTED AS EARLY AS 12 NOON.", "ref": "4620800073"}, "type": "Feature"}
{"geometry": {"coordinates": [-86.171523925, 39.805208499], "type": "Point"}, "id": "c9KJKzqEYmCEAkI0zMfrk4PCbqk=", "properties": {"@spider": "usps_collection_boxes", "addr:city": "INDIANAPOLIS", "addr:country": "US", "addr:full": "2650 DR MARTIN LUTHER KING JR ST", "addr:postcode": "46208", "addr:state": "IN", "brand": "USPS", "collection_times": "Mo-Fr 16:45; Sa 13:00", "name": "USPS COLLECTION BOX - PO LOBBY", "note": "ON 12/24 AND 12/31, THIS BOX MAY BE COLLECTED AS EARLY AS 12 NOON.", "ref": "4620800077"}, "type": "Feature"}
{"geometry": {"coordinates": [-86.287511091, 39.821972381], "type": "Point"}, "id": "9g0_SUHhjs9C-afpmgtezLbw64w=", "properties": {"@spider": "usps_collection_boxes", "addr:city": "INDIANAPOLIS", "addr:country": "US", "addr:full": "3799 BAY HEAD DR", "addr:postcode": "46214", "addr:state": "IN", "brand": "USPS", "collection_times": "Mo-Fr 14:00; Sa 13:30", "name": "USPS COLLECTION BOX - BLUE BOX", "note": "ON 12/24 AND 12/31, THIS BOX MAY BE COLLECTED AS EARLY AS 12 NOON.", "ref": "4621400001"}, "type": "Feature"}
{"geometry": {"coordinates": [-86.2915319, 39.766457], "type": "Point"}, "id": "zfqWwt2vafw-um-O625VbBRK3UA=", "properties": {"@spider": "usps_collection_boxes", "addr:city": "INDIANAPOLIS", "addr:country": "US", "addr:full": "7420 ROCKLEIGH AVE", "addr:postcode": "46214", "addr:state": "IN", "brand": "USPS", "collection_times": "Mo-Sa 12:00", "name": "USPS COLLECTION BOX - BLUE BOX", "ref": "4621400009"}, "type": "Feature"}
{"geometry": {"coordinates": [-86.2790823, 39.803296], "type": "Point"}, "id": "ouGtuYLy1UDFvLL_PBaQqX3W1pg=", "properties": {"@spider": "usps_collection_boxes", "addr:city": "INDIANAPOLIS", "addr:country": "US", "addr:full": "2780 WATERFRONT PARKWAY EAST DR", "addr:postcode": "46214", "addr:state": "IN", "brand": "USPS", "collection_times": "Mo-Fr 15:45; Sa 14:30", "name": "USPS COLLECTION BOX - BLUE BOX", "note": "ON 12/24 AND 12/31, THIS BOX MAY BE COLLECTED AS EARLY AS 12 NOON.", "ref": "4621400010"}, "type": "Feature"}
{"geometry": {"coordinates": [-86.3055886, 39.765355], "type": "Point"}, "id": "xIVwRvWzr1FpK1j7gM9GytHLAIg=", "properties": {"@spider": "usps_collection_boxes", "addr:city": "INDIANAPOLIS", "addr:country": "US", "addr:full": "8150 ROCKVILLE RD", "addr:postcode": "46214", "addr:state": "IN", "brand": "USPS", "collection_times": "Mo-Fr 16:00; Sa 15:00", "name": "USPS COLLECTION BOX - BLUE BOX", "note": "ON 12/24 AND 12/31, THIS BOX MAY BE COLLECTED AS EARLY AS 12 NOON.", "ref": "4621400013"}, "type": "Feature"}
{"geometry": {"coordinates": [-86.2896189, 39.778553], "type": "Point"}, "id": "Qmmun0fJr2t59hmElyRQaFmkQIo=", "properties": {"@spider": "usps_collection_boxes", "addr:city": "INDIANAPOLIS", "addr:country": "US", "addr:full": "7301 W 10TH ST", "addr:postcode": "46214", "addr:state": "IN", "brand": "USPS", "collection_times": "Mo-Fr 16:00; Sa 15:00", "name": "USPS COLLECTION BOX - BLUE BOX", "note": "ON 12/24 AND 12/31, THIS BOX MAY BE COLLECTED AS EARLY AS 12 NOON.", "ref": "4621400014"}, "type": "Feature"}
{"geometry": {"coordinates": [-86.1584200382, 39.7080006851], "type": "Point"}, "id": "Py4Rhx2ZxhPOSbgxooP3IS66W0Y=", "properties": {"@spider": "usps_collection_boxes", "addr:city": "INDIANAPOLIS", "addr:country": "US", "addr:full": "3967 S MERIDIAN ST", "addr:postcode": "46217", "addr:state": "IN", "brand": "USPS", "collection_times": "Mo-Sa 11:00", "name": "USPS COLLECTION BOX - BLUE BOX", "ref": "4621700001"}, "type": "Feature"}
{"geometry": {"coordinates": [-86.1584702791, 39.63669121], "type": "Point"}, "id": "7ukkjOMy5WPPfRthTmlpBEx_wug=", "properties": {"@spider": "usps_collection_boxes", "addr:city": "INDIANAPOLIS", "addr:country": "US", "addr:full": "8910 S MERIDIAN ST", "addr:postcode": "46217", "addr:state": "IN", "brand": "USPS", "collection_times": "Mo-Fr 12:30; Sa 11:00", "name": "USPS COLLECTION BOX - BLUE BOX", "note": "ON 12/24 AND 12/31, THIS BOX MAY BE COLLECTED AS EARLY AS 12 NOON.", "ref": "4621700003"}, "type": "Feature"}
{"geometry": {"coordinates": [-86.1583653185, 39.650076], "type": "Point"}, "id": "R4gvGVxx5kFd7r_78wuleIkn5aE=", "properties": {"@spider": "usps_collection_boxes", "addr:city": "INDIANAPOLIS", "addr:country": "US", "addr:full": "8039 S MERIDIAN ST", "addr:postcode": "46217", "addr:state": "IN", "brand": "USPS", "collection_times": "Mo-Fr 12:00; Sa 11:00", "name": "USPS COLLECTION BOX - BLUE BOX", "ref": "4621700004"}, "type": "Feature"}
{"geometry": {"coordinates": [-86.1926520532, 39.6814738987], "type": "Point"}, "id": "akmqXgJMel1yLLJEgrWMbLMWpfs=", "properties": {"@spider": "usps_collection_boxes", "addr:city": "INDIANAPOLIS", "addr:country": "US", "addr:full": "5757 KOPETSKY DR", "addr:postcode": "46217", "addr:state": "IN", "brand": "USPS", "collection_times": "Mo-Sa 10:00", "name": "USPS COLLECTION BOX - BLUE BOX", "ref": "4621700005"}, "type": "Feature"}
{"geometry": {"coordinates": [-86.1833912216, 39.6638695082], "type": "Point"}, "id": "dvEdabCVzyCpk9xnOpiyQnbvb08=", "properties": {"@spider": "usps_collection_boxes", "addr:city": "INDIANAPOLIS", "addr:country": "US", "addr:full": "1330 W SOUTHPORT RD", "addr:postcode": "46217", "addr:state": "IN", "brand": "USPS", "collection_times": "Mo-Fr 11:30; Sa 11:00", "name": "USPS COLLECTION BOX - BLUE BOX", "ref": "4621700007"}, "type": "Feature"}
{"geometry": {"coordinates": [-86.1399254, 39.851226], "type": "Point"}, "id": "nDj7PPRJY-uGEZX3v6RzCDJLncU=", "properties": {"@spider": "usps_collection_boxes", "addr:city": "INDIANAPOLIS", "addr:country": "US", "addr:full": "1050 E 54TH ST", "addr:postcode": "46220", "addr:state": "IN", "brand": "USPS", "collection_times": "Mo-Fr 12:00; Sa 13:00", "name": "USPS COLLECTION BOX - BLUE BOX", "note": "ON 12/24 AND 12/31, THIS BOX MAY BE COLLECTED AS EARLY AS 12 NOON.", "ref": "4622000006"}, "type": "Feature"}
{"geometry": {"coordinates": [-86.1459465, 39.851165], "type": "Point"}, "id": "BMgUfJbqbd054AL2hOhw04Eniho=", "properties": {"@spider": "usps_collection_boxes", "addr:city": "INDIANAPOLIS", "addr:country": "US", "addr:full": "5402 N COLLEGE AVE", "addr:postcode": "46220", "addr:state": "IN", "brand": "USPS", "collection_times": "Mo-Sa 15:30", "name": "USPS COLLECTION BOX - BLUE BOX", "note": "ON 12/24 AND 12/31, THIS BOX MAY BE COLLECTED AS EARLY AS 12 NOON.", "ref": "4622000012"}, "type": "Feature"}
{"geometry": {"coordinates": [-86.143304369, 39.865687292], "type": "Point"}, "id": "70a-zw4BJI_G3RJElG58QsIn9Jc=", "properties": {"@spider": "usps_collection_boxes", "addr:city": "INDIANAPOLIS", "addr:country": "US", "addr:full": "6103 GUILFORD AVE", "addr:postcode": "46220", "addr:state": "IN", "brand": "USPS", "collection_times": "Mo-Fr 16:00; Sa 11:00", "name": "USPS COLLECTION BOX - BLUE BOX", "note": "ON 12/24 AND 12/31, THIS BOX MAY BE COLLECTED AS EARLY AS 12 NOON.", "ref": "4622000032"}, "type": "Feature"}
{"geometry": {"coordinates": [-86.1447018, 39.869119], "type": "Point"}, "id": "ydI0cb_uRD1p-jgY1VVFteRZ0Aw=", "properties": {"@spider": "usps_collection_boxes", "addr:city": "INDIANAPOLIS", "addr:country": "US", "addr:full": "6255 CARROLLTON AVE", "addr:postcode": "46220", "addr:state": "IN", "brand": "USPS", "collection_times": "Mo-Fr 17:00; Sa 16:00", "name": "USPS COLLECTION BOX - BLUE BOX", "note": "ON 12/24 AND 12/31, THIS BOX MAY BE COLLECTED AS EARLY AS 12 NOON.", "ref": "4622000036"}, "type": "Feature"}
{"geometry": {"coordinates": [-86.134028, 39.865564], "type": "Point"}, "id": "Ij0czCK7ekwX-PpmiFnzPasKRnU=", "properties": {"@spider": "usps_collection_boxes", "addr:city": "INDIANAPOLIS", "addr:country": "US", "addr:full": "6101 ROSSLYN AVE", "addr:postcode": "46220", "addr:state": "IN", "brand": "USPS", "collection_times": "Mo-Fr 12:00; Sa 11:00", "name": "USPS COLLECTION BOX - BLUE BOX", "ref": "4622000048"}, "type": "Feature"}
{"geometry": {"coordinates": [-86.1447122, 39.869147], "type": "Point"}, "id": "ClKl5c-GjEsYdbA6TwcLPbPbPFI=", "properties": {"@spider": "usps_collection_boxes", "addr:city": "INDIANAPOLIS", "addr:country": "US", "addr:full": "6255 CARROLLTON AVE", "addr:postcode": "46220", "addr:state": "IN", "brand": "USPS", "collection_times": "Mo-Fr 17:00; Sa 16:00", "name": "USPS COLLECTION BOX - BLUE BOX", "note": "ON 12/24 AND 12/31, THIS BOX MAY BE COLLECTED AS EARLY AS 12 NOON.", "ref": "4622000067"}, "type": "Feature"}
{"geometry": {"coordinates": [-86.144728172, 39.869108864], "type": "Point"}, "id": "vW9qj3-giFLv4Rq8yhoHxWCo1h4=", "properties": {"@spider": "usps_collection_boxes", "addr:city": "INDIANAPOLIS", "addr:country": "US", "addr:full": "6255 CARROLLTON AVE", "addr:postcode": "46220", "addr:state": "IN", "brand": "USPS", "collection_times": "Mo-Fr 16:30; Sa 13:00", "name": "USPS COLLECTION BOX - PO LOBBY", "note": "ON 12/24 AND 12/31, THIS BOX MAY BE COLLECTED AS EARLY AS 12 NOON.", "ref": "4622000102"}, "type": "Feature"}
{"geometry": {"coordinates": [-86.2690057, 39.694363], "type": "Point"}, "id": "YKm30x60D6B37bpBEm9SCMUXcbg=", "properties": {"@spider": "usps_collection_boxes", "addr:city": "INDIANAPOLIS", "addr:country": "US", "addr:full": "4899 KENTUCKY AVE", "addr:postcode": "46221", "addr:state": "IN", "brand": "USPS", "collection_times": "Mo-Sa 12:00", "name": "USPS COLLECTION BOX - BLUE BOX", "ref": "4622100015"}, "type": "Feature"}
{"geometry": {"coordinates": [-86.1954904, 39.751097], "type": "Point"}, "id": "si78exB0hd27EBzG0LKnklIcilI=", "properties": {"@spider": "usps_collection_boxes", "addr:city": "INDIANAPOLIS", "addr:country": "US", "addr:full": "1920 W MORRIS ST", "addr:postcode": "46221", "addr:state": "IN", "brand": "USPS", "collection_times": "Mo-Fr 13:00; Sa 11:00", "name": "USPS COLLECTION BOX - BLUE BOX", "note": "ON 12/24 AND 12/31, THIS BOX MAY BE COLLECTED AS EARLY AS 12 NOON.", "ref": "4622100016"}, "type": "Feature"}
{"geometry": {"coordinates": [-86.2285027651, 39.7138066179], "type": "Point"}, "id": "1MQ17ObXvSMZreazU2PvEQZxaXA=", "properties": {"@spider": "usps_collection_boxes", "addr:city": "INDIANAPOLIS", "addr:country": "US", "addr:full": "3345 KENTUCKY AVE", "addr:postcode": "46221", "addr:state": "IN", "brand": "USPS", "collection_times": "Mo-Fr 13:00; Sa 12:00", "name": "USPS COLLECTION BOX - BLUE BOX", "note": "ON 12/24 AND 12/31, THIS BOX MAY BE COLLECTED AS EARLY AS 12 NOON.", "ref": "4622100019"}, "type": "Feature"}
{"geometry": {"coordinates": [-86.181208, 39.751448], "type": "Point"}, "id": "4NDN_TutD-bqmX4R98djp8tBarA=", "properties": {"@spider": "usps_collection_boxes", "addr:city": "INDIANAPOLIS", "addr:country": "US", "addr:full": "1230 W MORRIS ST", "addr:postcode": "46221", "addr:state": "IN", "brand": "USPS", "collection_times": "Mo-Fr 12:00; Sa 11:00", "name": "USPS COLLECTION BOX - BLUE BOX", "ref": "4622100022"}, "type": "Feature"}
{"geometry": {"coordinates": [-86.214330251, 39.78786253], "type": "Point"}, "id": "MWzRjUvxvfu5CGVpgTjHGfr4jZI=", "properties": {"@spider": "usps_collection_boxes", "addr:city": "INDIANAPOLIS", "addr:country": "US", "addr:full": "3322 W 16TH ST", "addr:postcode": "46222", "addr:state": "IN", "brand": "USPS", "collection_times": "Mo-Fr 17:00; Sa 16:00", "name": "USPS COLLECTION BOX - BLUE BOX", "note": "ON 12/24 AND 12/31, THIS BOX MAY BE COLLECTED AS EARLY AS 12 NOON.", "ref": "4622200001"}, "type": "Feature"}
{"geometry": {"coordinates": [-86.2225849, 39.82264], "type": "Point"}, "id": "SU26gHR9WWO_15puCZ_QlwCvbjU=", "properties": {"@spider": "usps_collection_boxes", "addr:city": "INDIANAPOLIS", "addr:country": "US", "addr:full": "3750 GUION RD", "addr:postcode": "46222", "addr:state": "IN", "brand": "USPS", "collection_times": "Mo-Fr 14:00; Sa 12:00", "name": "USPS COLLECTION BOX - BLUE BOX", "note": "ON 12/24 AND 12/31, THIS BOX MAY BE COLLECTED AS EARLY AS 12 NOON.", "ref": "4622200005"}, "type": "Feature"}
{"geometry": {"coordinates": [-86.2114228, 39.816476], "type": "Point"}, "id": "8KOChKmZdAtJLTEdLgREXB1LZRg=", "properties": {"@spider": "usps_collection_boxes", "addr:city": "INDIANAPOLIS", "addr:country": "US", "addr:full": "3360 KESSLER BLVD NORTH DR", "addr:postcode": "46222", "addr:state": "IN", "brand": "USPS", "collection_times": "Mo-Fr 14:00; Sa 12:00", "name": "USPS COLLECTION BOX - BLUE BOX", "note": "ON 12/24 AND 12/31, THIS BOX MAY BE COLLECTED AS EARLY AS 12 NOON.", "ref": "4622200008"}, "type": "Feature"}
{"geometry": {"coordinates": [-86.2036677, 39.774738], "type": "Point"}, "id": "OpPQbomYIzzi2MkucAXxydaK81E=", "properties": {"@spider": "usps_collection_boxes", "addr:city": "INDIANAPOLIS", "addr:country": "US", "addr:full": "2540 W MICHIGAN ST", "addr:postcode": "46222", "addr:state": "IN", "brand": "USPS", "collection_times": "Mo-Sa 12:00", "name": "USPS COLLECTION BOX - BLUE BOX", "ref": "4622200009"}, "type": "Feature"}
{"geometry": {"coordinates": [-86.218419, 39.80558], "type": "Point"}, "id": "TtB8RYqk55NELooxQFMRNkpsG2M=", "properties": {"@spider": "usps_collection_boxes", "addr:city": "INDIANAPOLIS", "addr:country": "US", "addr:full": "2762 LAFAYETTE RD", "addr:postcode": "46222", "addr:state": "IN", "brand": "USPS", "collection_times": "Mo-Sa 12:00", "name": "USPS COLLECTION BOX - BLUE BOX", "ref": "4622200011"}, "type": "Feature"}
{"geometry": {"coordinates": [-86.2303042, 39.818022], "type": "Point"}, "id": "7OteM0i28JPVkqsaDVwo-58elpQ=", "properties": {"@spider": "usps_collection_boxes", "addr:city": "INDIANAPOLIS", "addr:country": "US", "addr:full": "3400 LAFAYETTE RD", "addr:postcode": "46222", "addr:state": "IN", "brand": "USPS", "collection_times": "Mo-Sa 12:00", "name": "USPS COLLECTION BOX - BLUE BOX", "ref": "4622200012"}, "type": "Feature"}
{"geometry": {"coordinates": [-86.1925311, 39.774632], "type": "Point"}, "id": "fz55t28oodOv-edCR0kAGQUPHjs=", "properties": {"@spider": "usps_collection_boxes", "addr:city": "INDIANAPOLIS", "addr:country": "US", "addr:full": "1635 W MICHIGAN ST", "addr:postcode": "46222", "addr:state": "IN", "brand": "USPS", "collection_times": "Mo-Sa 12:00", "name": "USPS COLLECTION BOX - BLUE BOX", "ref": "4622200015"}, "type": "Feature"}
{"geometry": {"coordinates": [-86.2265221, 39.773817], "type": "Point"}, "id": "UCqkdjO7DfFwU3cGO_yMXIzYzRM=", "properties": {"@spider": "usps_collection_boxes", "addr:city": "INDIANAPOLIS", "addr:country": "US", "addr:full": "3801 W MICHIGAN ST", "addr:postcode": "46222", "addr:state": "IN", "brand": "USPS", "collection_times": "Mo-Sa 12:00", "name": "USPS COLLECTION BOX - BLUE BOX", "ref": "4622200016"}, "type": "Feature"}
{"geometry": {"coordinates": [-86.23864, 39.809342], "type": "Point"}, "id": "rP60ETxFoF_YNvO3nroxKpZomok=", "properties": {"@spider": "usps_collection_boxes", "addr:city": "INDIANAPOLIS", "addr:country": "US", "addr:full": "4717 W 30TH ST", "addr:postcode": "46222", "addr:state": "IN", "brand": "USPS", "collection_times": "Mo-Sa 12:00", "name": "USPS COLLECTION BOX - BLUE BOX", "ref": "4622200038"}, "type": "Feature"}
{"geometry": {"coordinates": [-86.2111272375, 39.809474078], "type": "Point"}, "id": "Cujx_ECrsGDqd9GRwkQpzkk3C4I=", "properties": {"@spider": "usps_collection_boxes", "addr:city": "INDIANAPOLIS", "addr:country": "US", "addr:full": "2970 KESSLER BLVD NORTH DR", "addr:postcode": "46222", "addr:state": "IN", "brand": "USPS", "collection_times": "Mo-Fr 14:00; Sa 12:00", "name": "USPS COLLECTION BOX - BLUE BOX", "note": "ON 12/24 AND 12/31, THIS BOX MAY BE COLLECTED AS EARLY AS 12 NOON.", "ref": "4622200039"}, "type": "Feature"}
{"geometry": {"coordinates": [-86.1955299, 39.766073], "type": "Point"}, "id": "IMJceH7fZEXWzN5g5COPwR2sxLQ=", "properties": {"@spider": "usps_collection_boxes", "addr:city": "INDIANAPOLIS", "addr:country": "US", "addr:full": "2001 W WASHINGTON ST", "addr:postcode": "46222", "addr:state": "IN", "brand": "USPS", "collection_times": "Mo-Sa 10:00", "name": "USPS COLLECTION BOX - BLUE BOX", "ref": "4622200041"}, "type": "Feature"}
{"geometry": {"coordinates": [-86.214330251, 39.78786253], "type": "Point"}, "id": "CTyA0dh5GvlJquH0talg7yxuNuA=", "properties": {"@spider": "usps_collection_boxes", "addr:city": "INDIANAPOLIS", "addr:country": "US", "addr:full": "3322 W 16TH ST", "addr:postcode": "46222", "addr:state": "IN", "brand": "USPS", "collection_times": "Mo-Fr 16:00; Sa 15:00", "name": "USPS COLLECTION BOX - PO LOBBY", "note": "ON 12/24 AND 12/31, THIS BOX MAY BE COLLECTED AS EARLY AS 12 NOON.", "ref": "4622200042"}, "type": "Feature"}
{"geometry": {"coordinates": [-86.214330251, 39.78786253], "type": "Point"}, "id": "DyHRn0dTwysCpQ7mefOIRO02l7Y=", "properties": {"@spider": "usps_collection_boxes", "addr:city": "INDIANAPOLIS", "addr:country": "US", "addr:full": "3322 W 16TH ST", "addr:postcode": "46222", "addr:state": "IN", "brand": "USPS", "collection_times": "Mo-Fr 17:00; Sa 12:00", "name": "USPS COLLECTION BOX - PO LOBBY", "note": "ON 12/24 AND 12/31, THIS BOX MAY BE COLLECTED AS EARLY AS 12 NOON.", "ref": "4622200053"}, "type": "Feature"}
{"geometry": {"coordinates": [-86.2676740559, 39.8019134469], "type": "Point"}, "id": "XozYg0oUvjIQoucb9bn22LRfuAY=", "properties": {"@spider": "usps_collection_boxes", "addr:city": "INDIANAPOLIS", "addr:country": "US", "addr:full": "6110 W 25TH ST", "addr:postcode": "46224", "addr:state": "IN", "brand": "USPS", "collection_times": "Mo-Fr 17:00; Sa 16:00", "name": "USPS COLLECTION BOX - BLUE BOX", "note": "ON 12/24 AND 12/31, THIS BOX MAY BE COLLECTED AS EARLY AS 12 NOON.", "ref": "4622400001"}, "type": "Feature"}
{"geometry": {"coordinates": [-86.2616217, 39.765696], "type": "Point"}, "id": "RI8J2o74Us1XfksEVrBDGVH_nCU=", "properties": {"@spider": "usps_collection_boxes", "addr:city": "INDIANAPOLIS", "addr:country": "US", "addr:full": "9 BEACHWAY DR", "addr:postcode": "46224", "addr:state": "IN", "brand": "USPS", "collection_times": "Mo-Fr 14:00; Sa 14:30", "name": "USPS COLLECTION BOX - BLUE BOX", "note": "ON 12/24 AND 12/31, THIS BOX MAY BE COLLECTED AS EARLY AS 12 NOON.", "ref": "4622400002"}, "type": "Feature"}
{"geometry": {"coordinates": [-86.258921136, 39.788393606], "type": "Point"}, "id": "PhnjAhzfg_NKvpqUBH63t2FpAHw=", "properties": {"@spider": "usps_collection_boxes", "addr:city": "INDIANAPOLIS", "addr:country": "US", "addr:full": "1640 CUNNINGHAM RD", "addr:postcode": "46224", "addr:state": "IN", "brand": "USPS", "collection_times": "Mo-Fr 12:30; Sa 12:00", "name": "USPS COLLECTION BOX - BLUE BOX", "note": "ON 12/24 AND 12/31, THIS BOX MAY BE COLLECTED AS EARLY AS 12 NOON.", "ref": "4622400005"}, "type": "Feature"}
{"geometry": {"coordinates": [-86.2401393, 39.816795], "type": "Point"}, "id": "EX2Af3PjrrsmvmO0zetcBcFs8B0=", "properties": {"@spider": "usps_collection_boxes", "addr:city": "INDIANAPOLIS", "addr:country": "US", "addr:full": "3401 GEORGETOWN RD", "addr:postcode": "46224", "addr:state": "IN", "brand": "USPS", "collection_times": "Mo-Sa 14:00", "name": "USPS COLLECTION BOX - BLUE BOX", "note": "ON 12/24 AND 12/31, THIS BOX MAY BE COLLECTED AS EARLY AS 12 NOON.", "ref": "4622400007"}, "type": "Feature"}
{"geometry": {"coordinates": [-86.2696973, 39.809498], "type": "Point"}, "id": "mrfJLOsa0aYWmS1DtJ0TFstzuMs=", "properties": {"@spider": "usps_collection_boxes", "addr:city": "INDIANAPOLIS", "addr:country": "US", "addr:full": "3001 N HIGH SCHOOL RD", "addr:postcode": "46224", "addr:state": "IN", "brand": "USPS", "collection_times": "Mo-Fr 12:00; Sa 12:30", "name": "USPS COLLECTION BOX - BLUE BOX", "note": "ON 12/24 AND 12/31, THIS BOX MAY BE COLLECTED AS EARLY AS 12 NOON.", "ref": "4622400010"}, "type": "Feature"}
{"geometry": {"coordinates": [-86.2490303, 39.765484], "type": "Point"}, "id": "tyQrKRKPYWcUS4QHYetthZMQVYM=", "properties": {"@spider": "usps_collection_boxes", "addr:city": "INDIANAPOLIS", "addr:country": "US", "addr:full": "35 N LYNHURST DR", "addr:postcode": "46224", "addr:state": "IN", "brand": "USPS", "collection_times": "Mo-Sa 11:00", "name": "USPS COLLECTION BOX - BLUE BOX", "ref": "4622400014"}, "type": "Feature"}
{"geometry": {"coordinates": [-86.2514586, 39.779485], "type": "Point"}, "id": "DBKL56xmIJxZJVKLLbVJOdTe5C8=", "properties": {"@spider": "usps_collection_boxes", "addr:city": "INDIANAPOLIS", "addr:country": "US", "addr:full": "5325 W 10TH ST", "addr:postcode": "46224", "addr:state": "IN", "brand": "USPS", "collection_times": "Mo-Sa 11:00", "name": "USPS COLLECTION BOX - BLUE BOX", "ref": "4622400015"}, "type": "Feature"}
{"geometry": {"coordinates": [-86.2559562, 39.803656], "type": "Point"}, "id": "obtkAi2ZLhL_OKbKsu9PiNb4w3Y=", "properties": {"@spider": "usps_collection_boxes", "addr:city": "INDIANAPOLIS", "addr:country": "US", "addr:full": "5504 MEADOWOOD DR", "addr:postcode": "46224", "addr:state": "IN", "brand": "USPS", "collection_times": "Mo-Sa 12:00", "name": "USPS COLLECTION BOX - BLUE BOX", "ref": "4622400020"}, "type": "Feature"}
{"geometry": {"coordinates": [-86.2599484, 39.794441], "type": "Point"}, "id": "AsCrksz-RVK9_szJ34dH-2_yzyU=", "properties": {"@spider": "usps_collection_boxes", "addr:city": "INDIANAPOLIS", "addr:country": "US", "addr:full": "1980 PATTON DR", "addr:postcode": "46224", "addr:state": "IN", "brand": "USPS", "collection_times": "Mo-Sa 12:00", "name": "USPS COLLECTION BOX - BLUE BOX", "ref": "4622400023"}, "type": "Feature"}
{"geometry": {"coordinates": [-86.2624952, 39.816463], "type": "Point"}, "id": "n-ItuaXNSZvQk2PvuYLCMjdjsUU=", "properties": {"@spider": "usps_collection_boxes", "addr:city": "INDIANAPOLIS", "addr:country": "US", "addr:full": "3401 PATTON DR", "addr:postcode": "46224", "addr:state": "IN", "brand": "USPS", "collection_times": "Mo-Fr 12:00; Sa 12:30", "name": "USPS COLLECTION BOX - BLUE BOX", "note": "ON 12/24 AND 12/31, THIS BOX MAY BE COLLECTED AS EARLY AS 12 NOON.", "ref": "4622400024"}, "type": "Feature"}
{"geometry": {"coordinates": [-86.2679499, 39.798802], "type": "Point"}, "id": "XU1tt1Uh2vOU2gYe25t4gwFi-JI=", "properties": {"@spider": "usps_collection_boxes", "addr:city": "INDIANAPOLIS", "addr:country": "US", "addr:full": "6129 CRAWFORDSVILLE RD", "addr:postcode": "46224", "addr:state": "IN", "brand": "USPS", "collection_times": "Mo-Sa 11:00", "name": "USPS COLLECTION BOX - BLUE BOX", "ref": "4622400026"}, "type": "Feature"}
{"geometry": {"coordinates": [-86.2497176, 39.787198], "type": "Point"}, "id": "YWYWx362vpGTrQ5FXE0ONB_II-U=", "properties": {"@spider": "usps_collection_boxes", "addr:city": "INDIANAPOLIS", "addr:country": "US", "addr:full": "5233 W 16TH ST", "addr:postcode": "46224", "addr:state": "IN", "brand": "USPS", "collection_times": "Mo-Sa 12:00", "name": "USPS COLLECTION BOX - BLUE BOX", "ref": "4622400027"}, "type": "Feature"}
{"geometry": {"coordinates": [-86.2621308, 39.80046], "type": "Point"}, "id": "WEeRkUk1lvvAbPZSzpDhk2AhCXc=", "properties": {"@spider": "usps_collection_boxes", "addr:city": "INDIANAPOLIS", "addr:country": "US", "addr:full": "5816 CRAWFORDSVILLE RD", "addr:postcode": "46224", "addr:state": "IN", "brand": "USPS", "collection_times": "Mo-Sa 11:30", "name": "USPS COLLECTION BOX - BLUE BOX", "ref": "4622400028"}, "type": "Feature"}
{"geometry": {"coordinates": [-86.2468043, 39.785084], "type": "Point"}, "id": "HY5CZopDn_qHp0x9Geq1kgk-2mg=", "properties": {"@spider": "usps_collection_boxes", "addr:city": "INDIANAPOLIS", "addr:country": "US", "addr:full": "5111 W 14TH ST", "addr:postcode": "46224", "addr:state": "IN", "brand": "USPS", "collection_times": "Mo-Sa 12:00", "name": "USPS COLLECTION BOX - BLUE BOX", "ref": "4622400029"}, "type": "Feature"}
{"geometry": {"coordinates": [-86.2468652, 39.79651], "type": "Point"}, "id": "ZybwPsW1qlaAzX0jtbZPDAEBt4I=", "properties": {"@spider": "usps_collection_boxes", "addr:city": "INDIANAPOLIS", "addr:country": "US", "addr:full": "2137 WINTON AVE", "addr:postcode": "46224", "addr:state": "IN", "brand": "USPS", "collection_times": "Mo-Sa 12:00", "name": "USPS COLLECTION BOX - BLUE BOX", "ref": "4622400030"}, "type": "Feature"}
{"geometry": {"coordinates": [-86.2649724, 39.778697], "type": "Point"}, "id": "RGri3rFBh08m-mrWYfgk54iQIrg=", "properties": {"@spider": "usps_collection_boxes", "addr:city": "INDIANAPOLIS", "addr:country": "US", "addr:full": "6029 W 10TH ST", "addr:postcode": "46224", "addr:state": "IN", "brand": "USPS", "collection_times": "Mo-Fr 15:30; Sa 14:30", "name": "USPS COLLECTION BOX - BLUE BOX", "note": "ON 12/24 AND 12/31, THIS BOX MAY BE COLLECTED AS EARLY AS 12 NOON.", "ref": "4622400031"}, "type": "Feature"}
{"geometry": {"coordinates": [-86.267665, 39.801905], "type": "Point"}, "id": "Cf6-XRJVeGiYRpGYHuSifircq-Y=", "properties": {"@spider": "usps_collection_boxes", "addr:city": "INDIANAPOLIS", "addr:country": "US", "addr:full": "6110 W 25TH ST", "addr:postcode": "46224", "addr:state": "IN", "brand": "USPS", "collection_times": "Mo-Fr 17:00; Sa 13:00", "name": "USPS COLLECTION BOX - PO LOBBY", "note": "ON 12/24 AND 12/31, THIS BOX MAY BE COLLECTED AS EARLY AS 12 NOON.", "ref": "4622400035"}, "type": "Feature"}
{"geometry": {"coordinates": [-86.2670421, 39.801811], "type": "Point"}, "id": "TuAZ8scfa_q5KZGzdeHWA_dbgJs=", "properties": {"@spider": "usps_collection_boxes", "addr:city": "INDIANAPOLIS", "addr:country": "US", "addr:full": "6110 W 25TH ST", "addr:postcode": "46224", "addr:state": "IN", "brand": "USPS", "collection_times": "Mo-Fr 17:00; Sa 16:00", "name": "USPS COLLECTION BOX - BLUE BOX", "note": "ON 12/24 AND 12/31, THIS BOX MAY BE COLLECTED AS EARLY AS 12 NOON.", "ref": "4622400038"}, "type": "Feature"}
{"geometry": {"coordinates": [-86.2522133, 39.772648], "type": "Point"}, "id": "ZLx8BcStMPIzLBa6c8hjTDR5jjY=", "properties": {"@spider": "usps_collection_boxes", "addr:city": "INDIANAPOLIS", "addr:country": "US", "addr:full": "5342 W VERMONT ST", "addr:postcode": "46224", "addr:state": "IN", "brand": "USPS", "collection_times": "Mo-Sa 11:00", "name": "USPS COLLECTION BOX - BLUE BOX", "ref": "4622400040"}, "type": "Feature"}
{"geometry": {"coordinates": [-86.2685426, 39.77702], "type": "Point"}, "id": "UyNYVXi2EQZboOyiRfhjOjZ9gG8=", "properties": {"@spider": "usps_collection_boxes", "addr:city": "INDIANAPOLIS", "addr:country": "US", "addr:full": "805 BEACHWAY DR", "addr:postcode": "46224", "addr:state": "IN", "brand": "USPS", "collection_times": "Mo-Fr 15:30; Sa 14:30", "name": "USPS COLLECTION BOX - BLUE BOX", "note": "ON 12/24 AND 12/31, THIS BOX MAY BE COLLECTED AS EARLY AS 12 NOON.", "ref": "4622400043"}, "type": "Feature"}
{"geometry": {"coordinates": [-86.267674056, 39.801913447], "type": "Point"}, "id": "xngp59U6QDX3Owj3mQFet3KwM7o=", "properties": {"@spider": "usps_collection_boxes", "addr:city": "INDIANAPOLIS", "addr:country": "US", "addr:full": "6110 W 25TH ST", "addr:postcode": "46224", "addr:state": "IN", "brand": "USPS", "collection_times": "Mo-Fr 18:00; Sa 15:00", "name": "USPS COLLECTION BOX - PO LOBBY", "note": "ON 12/24 AND 12/31, THIS BOX MAY BE COLLECTED AS EARLY AS 12 NOON.", "ref": "4622400048"}, "type": "Feature"}
{"geometry": {"coordinates": [-86.1530311, 39.760173], "type": "Point"}, "id": "4vEFVlejaNICJDOGzzVvcVJZNHU=", "properties": {"@spider": "usps_collection_boxes", "addr:city": "INDIANAPOLIS", "addr:country": "US", "addr:full": "599 S ALABAMA ST", "addr:postcode": "46225", "addr:state": "IN", "brand": "USPS", "collection_times": "Mo-Fr 10:45; Sa 11:00", "name": "USPS COLLECTION BOX - BLUE BOX", "ref": "4622500003"}, "type": "Feature"}
{"geometry": {"coordinates": [-86.1495647, 39.748357], "type": "Point"}, "id": "BxED43hOT4l77OgmR6tqfeDVB4k=", "properties": {"@spider": "usps_collection_boxes", "addr:city": "INDIANAPOLIS", "addr:country": "US", "addr:full": "1398 S EAST ST", "addr:postcode": "46225", "addr:state": "IN", "brand": "USPS", "collection_times": "Mo-Sa 11:00", "name": "USPS COLLECTION BOX - BLUE BOX", "ref": "4622500012"}, "type": "Feature"}
{"geometry": {"coordinates": [-86.153951444, 39.748214335], "type": "Point"}, "id": "iizaH9z0VxWp1SOJM4bP3qwJk2I=", "properties": {"@spider": "usps_collection_boxes", "addr:city": "INDIANAPOLIS", "addr:country": "US", "addr:full": "202 TERRACE AVE", "addr:postcode": "46225", "addr:state": "IN", "brand": "USPS", "collection_times": "Mo-Fr 11:00; Sa 10:45", "name": "USPS COLLECTION BOX - BLUE BOX", "ref": "4622500014"}, "type": "Feature"}
{"geometry": {"coordinates": [-86.1582873, 39.764496], "type": "Point"}, "id": "H7YY60cHNQlJWIPAftLIFbZjbSo=", "properties": {"@spider": "usps_collection_boxes", "addr:city": "INDIANAPOLIS", "addr:country": "US", "addr:full": "141 S MERIDIAN ST", "addr:postcode": "46225", "addr:state": "IN", "brand": "USPS", "collection_times": "Mo-Sa 11:00", "name": "USPS COLLECTION BOX - BLUE BOX", "ref": "4622500016"}, "type": "Feature"}
{"geometry": {"coordinates": [-86.1582299, 39.763326], "type": "Point"}, "id": "OfRC8kj-P7-m9qQqF4r_QxioK2E=", "properties": {"@spider": "usps_collection_boxes", "addr:city": "INDIANAPOLIS", "addr:country": "US", "addr:full": "238 S MERIDIAN ST", "addr:postcode": "46225", "addr:state": "IN", "brand": "USPS", "collection_times": "Mo-Fr 11:00; Sa 10:30", "name": "USPS COLLECTION BOX - BLUE BOX", "ref": "4622500022"}, "type": "Feature"}
{"geometry": {"coordinates": [-86.1529504, 39.72991], "type": "Point"}, "id": "smiKVzKA9TXgHI6QrNvVWoEGfjQ=", "properties": {"@spider": "usps_collection_boxes", "addr:city": "INDIANAPOLIS", "addr:country": "US", "addr:full": "234 E SOUTHERN AVE", "addr:postcode": "46225", "addr:state": "IN", "brand": "USPS", "collection_times": "Mo-Fr 10:45; Sa 11:00", "name": "USPS COLLECTION BOX - BLUE BOX", "ref": "4622500027"}, "type": "Feature"}
{"geometry": {"coordinates": [-86.1662000074, 39.7650429978], "type": "Point"}, "id": "gBPbXr1rF7w1y_14ehKdeMWsTuo=", "properties": {"@spider": "usps_collection_boxes", "addr:city": "INDIANAPOLIS", "addr:country": "US", "addr:full": "100 S CAPITOL AVE", "addr:postcode": "46225", "addr:state": "IN", "brand": "USPS", "collection_times": "Mo-Fr 11:00", "name": "USPS COLLECTION BOX - BLUE BOX", "ref": "4622500034"}, "type": "Feature"}
{"geometry": {"coordinates": [-86.1591737, 39.763426], "type": "Point"}, "id": "4KpRtV90rBH1NKejqUH0jCCTL10=", "properties": {"@spider": "usps_collection_boxes", "addr:city": "INDIANAPOLIS", "addr:country": "US", "addr:full": "233 S MCCREA ST", "addr:postcode": "46225", "addr:state": "IN", "brand": "USPS", "collection_times": "Mo-Fr 11:00", "name": "USPS COLLECTION BOX - BLUE BOX", "ref": "4622500040"}, "type": "Feature"}
{"geometry": {"coordinates": [-86.1547811949, 39.7563592944], "type": "Point"}, "id": "qhL7vJsD5FFjqJaakQc2cBLQfkw=", "properties": {"@spider": "usps_collection_boxes", "addr:city": "INDIANAPOLIS", "addr:country": "US", "addr:full": "307 E MCCARTY ST", "addr:postcode": "46225", "addr:state": "IN", "brand": "USPS", "collection_times": "Mo-Fr 11:00", "name": "USPS COLLECTION BOX - BLUE BOX", "ref": "4622500046"}, "type": "Feature"}
{"geometry": {"coordinates": [-86.161964, 39.761463], "type": "Point"}, "id": "mf8DxVk0-Qvt45MyUhd8fUjH90k=", "properties": {"@spider": "usps_collection_boxes", "addr:city": "INDIANAPOLIS", "addr:country": "US", "addr:full": "400 S CAPITOL AVE", "addr:postcode": "46225", "addr:state": "IN", "brand": "USPS", "collection_times": "Mo-Fr 19:00; Sa 18:00", "name": "USPS COLLECTION BOX - BLUE BOX", "note": "ON 12/24 AND 12/31, THIS BOX MAY BE COLLECTED AS EARLY AS 12 NOON.", "ref": "4622500047"}, "type": "Feature"}
{"geometry": {"coordinates": [-86.1601899, 39.760396], "type": "Point"}, "id": "WMEjRxFONG7NjWWjCm6JC1RLUPI=", "properties": {"@spider": "usps_collection_boxes", "addr:city": "INDIANAPOLIS", "addr:country": "US", "addr:full": "400 S ILLINOIS ST", "addr:postcode": "46225", "addr:state": "IN", "brand": "USPS", "collection_times": "Mo-Fr 19:00; Sa 18:00", "name": "USPS COLLECTION BOX - BLUE BOX", "note": "ON 12/24 AND 12/31, THIS BOX MAY BE COLLECTED AS EARLY AS 12 NOON.", "ref": "4622500048"}, "type": "Feature"}
{"geometry": {"coordinates": [-86.1489677553, 39.711906], "type": "Point"}, "id": "JeCQ-1j6zPyju8uBQm_g5WuQ41w=", "properties": {"@spider": "usps_collection_boxes", "addr:city": "INDIANAPOLIS", "addr:country": "US", "addr:full": "3721 S EAST ST", "addr:postcode": "46227", "addr:state": "IN", "brand": "USPS", "collection_times": "Mo-Sa 11:00", "name": "USPS COLLECTION BOX - BLUE BOX", "ref": "4622700004"}, "type": "Feature"}
{"geometry": {"coordinates": [-86.1486747992, 39.6899458324], "type": "Point"}, "id": "BO9eGaISAtRb-kHMAk16U87gD28=", "properties": {"@spider": "usps_collection_boxes", "addr:city": "INDIANAPOLIS", "addr:country": "US", "addr:full": "5301 S EAST ST", "addr:postcode": "46227", "addr:state": "IN", "brand": "USPS", "collection_times": "Mo-Fr 11:15; Sa 11:00", "name": "USPS COLLECTION BOX - BLUE BOX", "ref": "4622700005"}, "type": "Feature"}
{"geometry": {"coordinates": [-86.133042, 39.7083364645], "type": "Point"}, "id": "B6p4bIJ9n18-rNldLVC9gYXBx6g=", "properties": {"@spider": "usps_collection_boxes", "addr:city": "INDIANAPOLIS", "addr:country": "US", "addr:full": "1400 E HANNA AVE", "addr:postcode": "46227", "addr:state": "IN", "brand": "USPS", "collection_times": "Mo-Fr 11:30; Sa 11:00", "name": "USPS COLLECTION BOX - BLUE BOX", "ref": "4622700009"}, "type": "Feature"}
{"geometry": {"coordinates": [-86.1489476897, 39.690369], "type": "Point"}, "id": "ZaaLQjdn6e9IGWohmzbXn5r8nzE=", "properties": {"@spider": "usps_collection_boxes", "addr:city": "INDIANAPOLIS", "addr:country": "US", "addr:full": "5226 S EAST ST", "addr:postcode": "46227", "addr:state": "IN", "brand": "USPS", "collection_times": "Mo-Sa 11:00", "name": "USPS COLLECTION BOX - BLUE BOX", "ref": "4622700011"}, "type": "Feature"}
{"geometry": {"coordinates": [-86.1436187014, 39.7098061232], "type": "Point"}, "id": "3-1NUgu8pbmJOziPFj7A6IxKwkQ=", "properties": {"@spider": "usps_collection_boxes", "addr:city": "INDIANAPOLIS", "addr:country": "US", "addr:full": "3906 MADISON AVE", "addr:postcode": "46227", "addr:state": "IN", "brand": "USPS", "collection_times": "Mo-Fr 13:00; Sa 11:00", "name": "USPS COLLECTION BOX - BLUE BOX", "note": "ON 12/24 AND 12/31, THIS BOX MAY BE COLLECTED AS EARLY AS 12 NOON.", "ref": "4622700012"}, "type": "Feature"}
{"geometry": {"coordinates": [-86.1490072505, 39.7039693433], "type": "Point"}, "id": "xgxb0eyIHpAtfhvIZTASPyq3L10=", "properties": {"@spider": "usps_collection_boxes", "addr:city": "INDIANAPOLIS", "addr:country": "US", "addr:full": "4200 S EAST ST", "addr:postcode": "46227", "addr:state": "IN", "brand": "USPS", "collection_times": "Mo-Fr 16:00; Sa 11:00", "name": "USPS COLLECTION BOX - BLUE BOX", "note": "ON 12/24 AND 12/31, THIS BOX MAY BE COLLECTED AS EARLY AS 12 NOON.", "ref": "4622700027"}, "type": "Feature"}
{"geometry": {"coordinates": [-86.1394656687, 39.641913], "type": "Point"}, "id": "KyC6RQMVRxMr_L0Lv0jXEnGt5C4=", "properties": {"@spider": "usps_collection_boxes", "addr:city": "INDIANAPOLIS", "addr:country": "US", "addr:full": "8560 SHELBY ST", "addr:postcode": "46227", "addr:state": "IN", "brand": "USPS", "collection_times": "Mo-Fr 11:30; Sa 11:00", "name": "USPS COLLECTION BOX - BLUE BOX", "ref": "4622700032"}, "type": "Feature"}
{"geometry": {"coordinates": [-86.1318481736, 39.6356322336], "type": "Point"}, "id": "hTKF9HmKnU_N5Ar8XAx-wKW7c7U=", "properties": {"@spider": "usps_collection_boxes", "addr:city": "INDIANAPOLIS", "addr:country": "US", "addr:full": "1550 E COUNTY LINE RD", "addr:postcode": "46227", "addr:state": "IN", "brand": "USPS", "collection_times": "Mo-Fr 12:30; Sa 11:00", "name": "USPS COLLECTION BOX - BLUE BOX", "note": "ON 12/24 AND 12/31, THIS BOX MAY BE COLLECTED AS EARLY AS 12 NOON.", "ref": "4622700047"}, "type": "Feature"}
{"geometry": {"coordinates": [-86.1489962914, 39.6756891618], "type": "Point"}, "id": "sJM7xEfRxERP_BiaWdtDXXKUplM=", "properties": {"@spider": "usps_collection_boxes", "addr:city": "INDIANAPOLIS", "addr:country": "US", "addr:full": "6249 S EAST ST", "addr:postcode": "46227", "addr:state": "IN", "brand": "USPS", "collection_times": "Mo-Sa 11:00", "name": "USPS COLLECTION BOX - BLUE BOX", "ref": "4622700059"}, "type": "Feature"}
{"geometry": {"coordinates": [-86.1989439, 39.861869], "type": "Point"}, "id": "eDZzm5YOG1iynWfXVb5AeiKZ6Cc=", "properties": {"@spider": "usps_collection_boxes", "addr:city": "INDIANAPOLIS", "addr:country": "US", "addr:full": "2216 W 60TH ST", "addr:postcode": "46228", "addr:state": "IN", "brand": "USPS", "collection_times": "Mo-Sa 14:00", "name": "USPS COLLECTION BOX - BLUE BOX", "note": "ON 12/24 AND 12/31, THIS BOX MAY BE COLLECTED AS EARLY AS 12 NOON.", "ref": "4622800002"}, "type": "Feature"}
{"geometry": {"coordinates": [-86.1976653, 39.84032], "type": "Point"}, "id": "KCganORgHxLV6nmbIGCnH5fuoGA=", "properties": {"@spider": "usps_collection_boxes", "addr:city": "INDIANAPOLIS", "addr:country": "US", "addr:full": "4901 KNOLLTON RD", "addr:postcode": "46228", "addr:state": "IN", "brand": "USPS", "collection_times": "Mo-Sa 14:00", "name": "USPS COLLECTION BOX - BLUE BOX", "note": "ON 12/24 AND 12/31, THIS BOX MAY BE COLLECTED AS EARLY AS 12 NOON.", "ref": "4622800003"}, "type": "Feature"}
{"geometry": {"coordinates": [-86.2119141, 39.838641], "type": "Point"}, "id": "2vhWnJ_G6nD5FPJ7UiGUQpudKbA=", "properties": {"@spider": "usps_collection_boxes", "addr:city": "INDIANAPOLIS", "addr:country": "US", "addr:full": "4602 KESSLER BOULEVARD NORTH DR", "addr:postcode": "46228", "addr:state": "IN", "brand": "USPS", "collection_times": "Mo-Fr 14:00; Sa 11:00", "name": "USPS COLLECTION BOX - BLUE BOX", "note": "ON 12/24 AND 12/31, THIS BOX MAY BE COLLECTED AS EARLY AS 12 NOON.", "ref": "4622800004"}, "type": "Feature"}
{"geometry": {"coordinates": [-86.2945785, 39.740562], "type": "Point"}, "id": "Wyi5eOHPFf8vDKhJnvq6wShAglA=", "properties": {"@spider": "usps_collection_boxes", "addr:city": "INDIANAPOLIS", "addr:country": "US", "addr:full": "7610 W WASHINGTON ST", "addr:postcode": "46231", "addr:state": "IN", "brand": "USPS", "collection_times": "Mo-Fr 16:00; Sa 12:00", "name": "USPS COLLECTION BOX - BLUE BOX", "note": "ON 12/24 AND 12/31, THIS BOX MAY BE COLLECTED AS EARLY AS 12 NOON.", "ref": "4623100001"}, "type": "Feature"}
{"geometry": {"coordinates": [-86.3222219, 39.812406], "type": "Point"}, "id": "APhwwP4FSoQke0VBQZ2-bhD4njQ=", "properties": {"@spider": "usps_collection_boxes", "addr:city": "INDIANAPOLIS", "addr:country": "US", "addr:full": "3239 TANSEL RD", "addr:postcode": "46234", "addr:state": "IN", "brand": "USPS", "collection_times": "Mo-Fr 16:30; Sa 16:00", "name": "USPS COLLECTION BOX - BLUE BOX", "note": "ON 12/24 AND 12/31, THIS BOX MAY BE COLLECTED AS EARLY AS 12 NOON.", "ref": "4623400001"}, "type": "Feature"}
{"geometry": {"coordinates": [-86.3262556, 39.77853], "type": "Point"}, "id": "XvkBUsOiyalzOUk0uw-qq5g8JWk=", "properties": {"@spider": "usps_collection_boxes", "addr:city": "INDIANAPOLIS", "addr:country": "US", "addr:full": "9255 W 10TH ST", "addr:postcode": "46234", "addr:state": "IN", "brand": "USPS", "collection_times": "Mo-Fr 16:00; Sa 15:00", "name": "USPS COLLECTION BOX - BLUE BOX", "note": "ON 12/24 AND 12/31, THIS BOX MAY BE COLLECTED AS EARLY AS 12 NOON.", "ref": "4623400008"}, "type": "Feature"}
{"geometry": {"coordinates": [-86.3071899, 39.789183], "type": "Point"}, "id": "RPmQ8LpOvM54hNoQIQnUpCznXUg=", "properties": {"@spider": "usps_collection_boxes", "addr:city": "INDIANAPOLIS", "addr:country": "US", "addr:full": "1755 COUNTRY CLUB RD", "addr:postcode": "46234", "addr:state": "IN", "brand": "USPS", "collection_times": "Mo-Fr 16:00; Sa 15:00", "name": "USPS COLLECTION BOX - BLUE BOX", "note": "ON 12/24 AND 12/31, THIS BOX MAY BE COLLECTED AS EARLY AS 12 NOON.", "ref": "4623400009"}, "type": "Feature"}
{"geometry": {"coordinates": [-86.3217335, 39.812075], "type": "Point"}, "id": "vUqnpxKnRWrcJrU9uSQSAO-pEQA=", "properties": {"@spider": "usps_collection_boxes", "addr:city": "INDIANAPOLIS", "addr:country": "US", "addr:full": "3239 TANSEL RD", "addr:postcode": "46234", "addr:state": "IN", "brand": "USPS", "collection_times": "Mo-Fr 16:15; Sa 14:00", "name": "USPS COLLECTION BOX - PO LOBBY", "note": "ON 12/24 AND 12/31, THIS BOX MAY BE COLLECTED AS EARLY AS 12 NOON.", "ref": "4623400010"}, "type": "Feature"}
{"geometry": {"coordinates": [-86.3216908, 39.812045], "type": "Point"}, "id": "z1-MgukuRDSKapw-pXa93RUa1Dc=", "properties": {"@spider": "usps_collection_boxes", "addr:city": "INDIANAPOLIS", "addr:country": "US", "addr:full": "3239 TANSEL RD", "addr:postcode": "46234", "addr:state": "IN", "brand": "USPS", "collection_times": "Mo-Fr 16:15; Sa 14:00", "name": "USPS COLLECTION BOX - PO LOBBY", "note": "ON 12/24 AND 12/31, THIS BOX MAY BE COLLECTED AS EARLY AS 12 NOON.", "ref": "4623400011"}, "type": "Feature"}
{"geometry": {"coordinates": [-86.322267277, 39.812047973], "type": "Point"}, "id": "b9ydX3tnOX5Ltiu0N6vwR4sIrFY=", "properties": {"@spider": "usps_collection_boxes", "addr:city": "INDIANAPOLIS", "addr:country": "US", "addr:full": "3239 TANSEL RD", "addr:postcode": "46234", "addr:state": "IN", "brand": "USPS", "collection_times": "Mo-Fr 17:00; Sa 13:00", "name": "USPS COLLECTION BOX - PO LOBBY", "note": "ON 12/24 AND 12/31, THIS BOX MAY BE COLLECTED AS EARLY AS 12 NOON.", "ref": "4623400016"}, "type": "Feature"}
{"geometry": {"coordinates": [-86.1402466, 39.915727], "type": "Point"}, "id": "CBpXo2kSIgzdSexq1udwuEyrHb4=", "properties": {"@spider": "usps_collection_boxes", "addr:city": "INDIANAPOLIS", "addr:country": "US", "addr:full": "1300 E 86TH ST", "addr:postcode": "46240", "addr:state": "IN", "brand": "USPS", "collection_times": "Mo-Fr 17:00; Sa 16:00", "name": "USPS COLLECTION BOX - BLUE BOX", "note": "ON 12/24 AND 12/31, THIS BOX MAY BE COLLECTED AS EARLY AS 12 NOON.", "ref": "4624000001"}, "type": "Feature"}
{"geometry": {"coordinates": [-86.1422038, 39.912029], "type": "Point"}, "id": "TrjxAvNMCAyqgjxqKczDRIIhbRg=", "properties": {"@spider": "usps_collection_boxes", "addr:city": "INDIANAPOLIS", "addr:country": "US", "addr:full": "911 E 86TH ST", "addr:postcode": "46240", "addr:state": "IN", "brand": "USPS", "collection_times": "Mo-Fr 16:00; Sa 13:00", "name": "USPS COLLECTION BOX - BLUE BOX", "note": "ON 12/24 AND 12/31, THIS BOX MAY BE COLLECTED AS EARLY AS 12 NOON.", "ref": "4624000005"}, "type": "Feature"}
{"geometry": {"coordinates": [-86.140465, 39.915116], "type": "Point"}, "id": "n8UDZJ_wpxQsVaYZeLkk7BQ3igg=", "properties": {"@spider": "usps_collection_boxes", "addr:city": "INDIANAPOLIS", "addr:country": "US", "addr:full": "1300 E 86TH ST", "addr:postcode": "46240", "addr:state": "IN", "brand": "USPS", "collection_times": "Mo-Fr 17:00; Sa 15:00", "name": "USPS COLLECTION BOX - PO LOBBY", "note": "ON 12/24 AND 12/31, THIS BOX MAY BE COLLECTED AS EARLY AS 12 NOON.", "ref": "4624000046"}, "type": "Feature"}
{"geometry": {"coordinates": [-86.140465, 39.915116], "type": "Point"}, "id": "7K4xeaiCQCrAtyX0lndDgUZVRsQ=", "properties": {"@spider": "usps_collection_boxes", "addr:city": "INDIANAPOLIS", "addr:country": "US", "addr:full": "1300 E 86TH ST", "addr:postcode": "46240", "addr:state": "IN", "brand": "USPS", "collection_times": "Mo-Fr 17:00; Sa 15:00", "name": "USPS COLLECTION BOX - APC", "note": "ON 12/24 AND 12/31, THIS BOX MAY BE COLLECTED AS EARLY AS 12 NOON.", "ref": "4624000059"}, "type": "Feature"}
{"geometry": {"coordinates": [-86.1402447, 39.915705], "type": "Point"}, "id": "DephwEBS8ndjkJEU5XEwIaEyAHU=", "properties": {"@spider": "usps_collection_boxes", "addr:city": "INDIANAPOLIS", "addr:country": "US", "addr:full": "1300 E 86TH ST", "addr:postcode": "46240", "addr:state": "IN", "brand": "USPS", "collection_times": "Mo-Fr 17:00; Sa 16:00", "name": "USPS COLLECTION BOX - BLUE BOX", "note": "ON 12/24 AND 12/31, THIS BOX MAY BE COLLECTED AS EARLY AS 12 NOON.", "ref": "4624000062"}, "type": "Feature"}
{"geometry": {"coordinates": [-86.1427733, 39.929034], "type": "Point"}, "id": "dywp4Bu8rgkXyi7QrfKLPRAw-uU=", "properties": {"@spider": "usps_collection_boxes", "addr:city": "INDIANAPOLIS", "addr:country": "US", "addr:full": "800 E 96TH ST", "addr:postcode": "46240", "addr:state": "IN", "brand": "USPS", "collection_times": "Mo-Fr 14:30", "name": "USPS COLLECTION BOX - BLUE BOX", "note": "ON 12/24 AND 12/31, THIS BOX MAY BE COLLECTED AS EARLY AS 12 NOON.", "ref": "4624000063"}, "type": "Feature"}
{"geometry": {"coordinates": [-86.13747, 39.912605504], "type": "Point"}, "id": "5ywhn2tXD99C-VE9h5Qgr6jHl1s=", "properties": {"@spider": "usps_collection_boxes", "addr:city": "INDIANAPOLIS", "addr:country": "US", "addr:full": "1300 E 86TH ST STE 36A", "addr:postcode": "46240", "addr:state": "IN", "brand": "USPS", "collection_times": "Mo-Fr 19:00; Sa 15:00", "name": "USPS COLLECTION BOX - PO LOBBY", "note": "ON 12/24 AND 12/31, THIS BOX MAY BE COLLECTED AS EARLY AS 12 NOON.", "ref": "4624000072"}, "type": "Feature"}
{"geometry": {"coordinates": [-86.2559520017, 39.7253470168], "type": "Point"}, "id": "NI7A27pB-Xib6gifgw30LZ_N90U=", "properties": {"@spider": "usps_collection_boxes", "addr:city": "INDIANAPOLIS", "addr:country": "US", "addr:full": "2760 FORTUNE CIR E", "addr:postcode": "46241", "addr:state": "IN", "brand": "USPS", "collection_times": "Mo-Fr 17:00; Sa 16:30", "name": "USPS COLLECTION BOX - BLUE BOX", "note": "ON 12/24 AND 12/31, THIS BOX MAY BE COLLECTED AS EARLY AS 12 NOON.", "ref": "4624100001"}, "type": "Feature"}
{"geometry": {"coordinates": [-86.2326593, 39.742185], "type": "Point"}, "id": "vq5ZZ-UT_E6tbwJ1epU8iMfg8Ho=", "properties": {"@spider": "usps_collection_boxes", "addr:city": "INDIANAPOLIS", "addr:country": "US", "addr:full": "1712 STOUT FIELD TER", "addr:postcode": "46241", "addr:state": "IN", "brand": "USPS", "collection_times": "Mo-Sa 11:00", "name": "USPS COLLECTION BOX - BLUE BOX", "ref": "4624100017"}, "type": "Feature"}
{"geometry": {"coordinates": [-86.2157515, 39.72781], "type": "Point"}, "id": "zEMptyB4wEGtg1Lfj7s-cZW8X24=", "properties": {"@spider": "usps_collection_boxes", "addr:city": "INDIANAPOLIS", "addr:country": "US", "addr:full": "2701 S TIBBS AVE", "addr:postcode": "46241", "addr:state": "IN", "brand": "USPS", "collection_times": "Mo-Sa 11:00", "name": "USPS COLLECTION BOX - BLUE BOX", "ref": "4624100018"}, "type": "Feature"}
{"geometry": {"coordinates": [-86.2358642, 39.757151], "type": "Point"}, "id": "tVPSPVPBVMHdh1Q9txrRp-7SWvQ=", "properties": {"@spider": "usps_collection_boxes", "addr:city": "INDIANAPOLIS", "addr:country": "US", "addr:full": "4301 W WASHINGTON ST", "addr:postcode": "46241", "addr:state": "IN", "brand": "USPS", "collection_times": "Mo-Fr 12:00; Sa 11:00", "name": "USPS COLLECTION BOX - BLUE BOX", "ref": "4624100019"}, "type": "Feature"}
{"geometry": {"coordinates": [-86.2466399, 39.75366], "type": "Point"}, "id": "_0UfpPP5HKQ6v9I25BkOiSO7IdI=", "properties": {"@spider": "usps_collection_boxes", "addr:city": "INDIANAPOLIS", "addr:country": "US", "addr:full": "5143 W WASHINGTON ST", "addr:postcode": "46241", "addr:state": "IN", "brand": "USPS", "collection_times": "Mo-Fr 12:00; Sa 11:00", "name": "USPS COLLECTION BOX - BLUE BOX", "ref": "4624100020"}, "type": "Feature"}
{"geometry": {"coordinates": [-86.2515789, 39.751945], "type": "Point"}, "id": "A5FBTPJPSNCKsrpJSBgHXG_wkD4=", "properties": {"@spider": "usps_collection_boxes", "addr:city": "INDIANAPOLIS", "addr:country": "US", "addr:full": "5331 W WASHINGTON ST", "addr:postcode": "46241", "addr:state": "IN", "brand": "USPS", "collection_times": "Mo-Sa 11:00", "name": "USPS COLLECTION BOX - BLUE BOX", "ref": "4624100021"}, "type": "Feature"}
{"geometry": {"coordinates": [-86.255066, 39.72486], "type": "Point"}, "id": "a2i2vklNKtDc0MlRioSBHgJFm_M=", "properties": {"@spider": "usps_collection_boxes", "addr:city": "INDIANAPOLIS", "addr:country": "US", "addr:full": "2760 FORTUNE CIR E", "addr:postcode": "46241", "addr:state": "IN", "brand": "USPS", "collection_times": "Mo-Fr 17:00; Sa 14:00", "name": "USPS COLLECTION BOX - PO LOBBY", "note": "ON 12/24 AND 12/31, THIS BOX MAY BE COLLECTED AS EARLY AS 12 NOON.", "ref": "4624100038"}, "type": "Feature"}
{"geometry": {"coordinates": [-86.255066, 39.72486], "type": "Point"}, "id": "px-5zHyJBI_m2OeDWcg_YsJJw7g=", "properties": {"@spider": "usps_collection_boxes", "addr:city": "INDIANAPOLIS", "addr:country": "US", "addr:full": "2760 FORTUNE CIR E", "addr:postcode": "46241", "addr:state": "IN", "brand": "USPS", "collection_times": "Mo-Fr 17:00; Sa 14:00", "name": "USPS COLLECTION BOX - APC", "note": "ON 12/24 AND 12/31, THIS BOX MAY BE COLLECTED AS EARLY AS 12 NOON.", "ref": "4624100041"}, "type": "Feature"}
{"geometry": {"coordinates": [-86.2916895, 39.678516], "type": "Point"}, "id": "Q_Ot6pwjyvLHZU_L-t1jnGna9lQ=", "properties": {"@spider": "usps_collection_boxes", "addr:city": "INDIANAPOLIS", "addr:country": "US", "addr:full": "5757 DECATUR BLVD", "addr:postcode": "46241", "addr:state": "IN", "brand": "USPS", "collection_times": "Mo-Sa 11:30", "name": "USPS COLLECTION BOX - BLUE BOX", "ref": "4624100047"}, "type": "Feature"}
{"geometry": {"coordinates": [-86.255099093, 39.724821553], "type": "Point"}, "id": "hbgBjAoSPQz8lEPIird22ZAnooY=", "properties": {"@spider": "usps_collection_boxes", "addr:city": "INDIANAPOLIS", "addr:country": "US", "addr:full": "2760 FORTUNE CIR E", "addr:postcode": "46241", "addr:state": "IN", "brand": "USPS", "collection_times": "Mo-Fr 20:00; Sa 13:00", "name": "USPS COLLECTION BOX - PO LOBBY", "note": "ON 12/24 AND 12/31, THIS BOX MAY BE COLLECTED AS EARLY AS 12 NOON.", "ref": "4624100050"}, "type": "Feature"}
{"geometry": {"coordinates": [-86.272905993, 39.827387007], "type": "Point"}, "id": "hcTFhAs_sA4Bek4Q5M7dGFzMf4k=", "properties": {"@spider": "usps_collection_boxes", "addr:city": "INDIANAPOLIS", "addr:country": "US", "addr:full": "6401 GATEWAY DR", "addr:postcode": "46254", "addr:state": "IN", "brand": "USPS", "collection_times": "Mo-Fr 17:00; Sa 16:00", "name": "USPS COLLECTION BOX - BLUE BOX", "note": "ON 12/24 AND 12/31, THIS BOX MAY BE COLLECTED AS EARLY AS 12 NOON.", "ref": "4625400001"}, "type": "Feature"}
{"geometry": {"coordinates": [-86.2824422, 39.827455], "type": "Point"}, "id": "d41Lk5KkZSL_1U_E7AdQRKtGF5M=", "properties": {"@spider": "usps_collection_boxes", "addr:city": "INDIANAPOLIS", "addr:country": "US", "addr:full": "6920 PARKDALE PL", "addr:postcode": "46254", "addr:state": "IN", "brand": "USPS", "collection_times": "Mo-Sa 12:00", "name": "USPS COLLECTION BOX - BLUE BOX", "ref": "4625400002"}, "type": "Feature"}
{"geometry": {"coordinates": [-86.2420784, 39.854368], "type": "Point"}, "id": "sFWZSQcvsLYur5zUXEmrD7cy-sM=", "properties": {"@spider": "usps_collection_boxes", "addr:city": "INDIANAPOLIS", "addr:country": "US", "addr:full": "5626 GEORGETOWN RD", "addr:postcode": "46254", "addr:state": "IN", "brand": "USPS", "collection_times": "Mo-Fr 13:00; Sa 13:30", "name": "USPS COLLECTION BOX - BLUE BOX", "note": "ON 12/24 AND 12/31, THIS BOX MAY BE COLLECTED AS EARLY AS 12 NOON.", "ref": "4625400003"}, "type": "Feature"}
{"geometry": {"coordinates": [-86.2279226, 39.826353], "type": "Point"}, "id": "2lUS14r4RBzfocL8NJLafbHu4LY=", "properties": {"@spider": "usps_collection_boxes", "addr:city": "INDIANAPOLIS", "addr:country": "US", "addr:full": "3901 INDUSTRIAL BLVD", "addr:postcode": "46254", "addr:state": "IN", "brand": "USPS", "collection_times": "Mo-Fr 13:00; Sa 11:00", "name": "USPS COLLECTION BOX - BLUE BOX", "note": "ON 12/24 AND 12/31, THIS BOX MAY BE COLLECTED AS EARLY AS 12 NOON.", "ref": "4625400006"}, "type": "Feature"}
{"geometry": {"coordinates": [-86.2803785, 39.850291], "type": "Point"}, "id": "Ld5B7fCHXRz7NQlrWInHqz_whQA=", "properties": {"@spider": "usps_collection_boxes", "addr:city": "INDIANAPOLIS", "addr:country": "US", "addr:full": "5483 HOLLY SPRINGS DR W", "addr:postcode": "46254", "addr:state": "IN", "brand": "USPS", "collection_times": "Mo-Sa 14:00", "name": "USPS COLLECTION BOX - BLUE BOX", "note": "ON 12/24 AND 12/31, THIS BOX MAY BE COLLECTED AS EARLY AS 12 NOON.", "ref": "4625400008"}, "type": "Feature"}
{"geometry": {"coordinates": [-86.2786038, 39.82569], "type": "Point"}, "id": "qR_oNacos6ayVAR42snQphBYBWY=", "properties": {"@spider": "usps_collection_boxes", "addr:city": "INDIANAPOLIS", "addr:country": "US", "addr:full": "6720 PARKDALE PL", "addr:postcode": "46254", "addr:state": "IN", "brand": "USPS", "collection_times": "Mo-Sa 12:00", "name": "USPS COLLECTION BOX - BLUE BOX", "ref": "4625400010"}, "type": "Feature"}
{"geometry": {"coordinates": [-86.2401785, 39.841539], "type": "Point"}, "id": "_XkPixubutCAR5sZzdXUHfyw9Xk=", "properties": {"@spider": "usps_collection_boxes", "addr:city": "INDIANAPOLIS", "addr:country": "US", "addr:full": "4708 RYDAL CT", "addr:postcode": "46254", "addr:state": "IN", "brand": "USPS", "collection_times": "Mo-Fr 13:00; Sa 13:30", "name": "USPS COLLECTION BOX - BLUE BOX", "note": "ON 12/24 AND 12/31, THIS BOX MAY BE COLLECTED AS EARLY AS 12 NOON.", "ref": "4625400011"}, "type": "Feature"}
{"geometry": {"coordinates": [-86.2524479, 39.82683], "type": "Point"}, "id": "55aCyMGsjTBEKcyeOen_7v3kjF4=", "properties": {"@spider": "usps_collection_boxes", "addr:city": "INDIANAPOLIS", "addr:country": "US", "addr:full": "5349 W PIKE PLAZA RD", "addr:postcode": "46254", "addr:state": "IN", "brand": "USPS", "collection_times": "Mo-Fr 13:00; Sa 13:30", "name": "USPS COLLECTION BOX - BLUE BOX", "note": "ON 12/24 AND 12/31, THIS BOX MAY BE COLLECTED AS EARLY AS 12 NOON.", "ref": "4625400012"}, "type": "Feature"}
{"geometry": {"coordinates": [-86.2597609, 39.822303], "type": "Point"}, "id": "QZkMRP23B1SO-mghIqlXd038vG4=", "properties": {"@spider": "usps_collection_boxes", "addr:city": "INDIANAPOLIS", "addr:country": "US", "addr:full": "5615 W 38TH ST", "addr:postcode": "46254", "addr:state": "IN", "brand": "USPS", "collection_times": "Mo-Sa 11:00", "name": "USPS COLLECTION BOX - BLUE BOX", "ref": "4625400013"}, "type": "Feature"}
{"geometry": {"coordinates": [-86.281592998, 39.821240012], "type": "Point"}, "id": "P7LmBUY6Zf65D88zsDyx2JZxTzg=", "properties": {"@spider": "usps_collection_boxes", "addr:city": "INDIANAPOLIS", "addr:country": "US", "addr:full": "6965 W 38TH ST", "addr:postcode": "46254", "addr:state": "IN", "brand": "USPS", "collection_times": "Mo-Sa 11:00", "name": "USPS COLLECTION BOX - BLUE BOX", "ref": "4625400016"}, "type": "Feature"}
{"geometry": {"coordinates": [-86.2369392, 39.828184], "type": "Point"}, "id": "3vxoNeEAlQhibeBbYSUPJzYpplE=", "properties": {"@spider": "usps_collection_boxes", "addr:city": "INDIANAPOLIS", "addr:country": "US", "addr:full": "3919 LAFAYETTE RD", "addr:postcode": "46254", "addr:state": "IN", "brand": "USPS", "collection_times": "Mo-Fr 12:00; Sa 11:00", "name": "USPS COLLECTION BOX - BLUE BOX", "ref": "4625400017"}, "type": "Feature"}
{"geometry": {"coordinates": [-86.272905993, 39.827387007], "type": "Point"}, "id": "0WyT_vW6T0XxbO8x7Uout36jC_k=", "properties": {"@spider": "usps_collection_boxes", "addr:city": "INDIANAPOLIS", "addr:country": "US", "addr:full": "6401 GATEWAY DR", "addr:postcode": "46254", "addr:state": "IN", "brand": "USPS", "collection_times": "Mo-Fr 17:00; Sa 16:00", "name": "USPS COLLECTION BOX - PO LOBBY", "note": "ON 12/24 AND 12/31, THIS BOX MAY BE COLLECTED AS EARLY AS 12 NOON.", "ref": "4625400019"}, "type": "Feature"}
{"geometry": {"coordinates": [-86.272905993, 39.827387007], "type": "Point"}, "id": "3IhdSf7VPoLdnQrFYuN2o65VQyw=", "properties": {"@spider": "usps_collection_boxes", "addr:city": "INDIANAPOLIS", "addr:country": "US", "addr:full": "6401 GATEWAY DR", "addr:postcode": "46254", "addr:state": "IN", "brand": "USPS", "collection_times": "Mo-Fr 17:00; Sa 16:00", "name": "USPS COLLECTION BOX - BLUE BOX", "note": "ON 12/24 AND 12/31, THIS BOX MAY BE COLLECTED AS EARLY AS 12 NOON.", "ref": "4625400021"}, "type": "Feature"}
{"geometry": {"coordinates": [-86.272905993, 39.827387007], "type": "Point"}, "id": "msPm7yMjjPWDeqwlmRmIRdRCeGE=", "properties": {"@spider": "usps_collection_boxes", "addr:city": "INDIANAPOLIS", "addr:country": "US", "addr:full": "6401 GATEWAY DR", "addr:postcode": "46254", "addr:state": "IN", "brand": "USPS", "collection_times": "Mo-Fr 17:00; Sa 16:00", "name": "USPS COLLECTION BOX - APC", "note": "ON 12/24 AND 12/31, THIS BOX MAY BE COLLECTED AS EARLY AS 12 NOON.", "ref": "4625400024"}, "type": "Feature"}
{"geometry": {"coordinates": [-86.2628051, 39.851346], "type": "Point"}, "id": "e8rHbgMXMf5lfMa4K3iJKWyTXS4=", "properties": {"@spider": "usps_collection_boxes", "addr:city": "INDIANAPOLIS", "addr:country": "US", "addr:full": "5510 LAFAYETTE RD", "addr:postcode": "46254", "addr:state": "IN", "brand": "USPS", "collection_times": "Mo-Fr 13:00; Sa 14:00", "name": "USPS COLLECTION BOX - BLUE BOX", "note": "ON 12/24 AND 12/31, THIS BOX MAY BE COLLECTED AS EARLY AS 12 NOON.", "ref": "4625400027"}, "type": "Feature"}
{"geometry": {"coordinates": [-86.272905993, 39.827387007], "type": "Point"}, "id": "0vXo_fbgoMOr0SIVnXXgBliEy5I=", "properties": {"@spider": "usps_collection_boxes", "addr:city": "INDIANAPOLIS", "addr:country": "US", "addr:full": "6401 GATEWAY DR", "addr:postcode": "46254", "addr:state": "IN", "brand": "USPS", "collection_times": "Mo-Fr 17:00; Sa 14:00", "name": "USPS COLLECTION BOX - PO LOBBY", "note": "ON 12/24 AND 12/31, THIS BOX MAY BE COLLECTED AS EARLY AS 12 NOON.", "ref": "4625400035"}, "type": "Feature"}
{"geometry": {"coordinates": [-86.272905993, 39.827387007], "type": "Point"}, "id": "JxhKMxu0aSqKat5G6CSjr4G-urc=", "properties": {"@spider": "usps_collection_boxes", "addr:city": "INDIANAPOLIS", "addr:country": "US", "addr:full": "6401 GATEWAY DR", "addr:postcode": "46254", "addr:state": "IN", "brand": "USPS", "collection_times": "Mo-Fr 17:00; Sa 16:00", "name": "USPS COLLECTION BOX - PO LOBBY", "note": "ON 12/24 AND 12/31, THIS BOX MAY BE COLLECTED AS EARLY AS 12 NOON.", "ref": "4625400036"}, "type": "Feature"}
{"geometry": {"coordinates": [-86.194551963, 39.908805001], "type": "Point"}, "id": "M9nb0URexYCQu_9nPt4RUP2KQ34=", "properties": {"@spider": "usps_collection_boxes", "addr:city": "INDIANAPOLIS", "addr:country": "US", "addr:full": "8402 HARCOURT RD", "addr:postcode": "46260", "addr:state": "IN", "brand": "USPS", "collection_times": "Mo-Fr 12:00", "name": "USPS COLLECTION BOX - BLUE BOX", "ref": "4626000008"}, "type": "Feature"}
{"geometry": {"coordinates": [-86.174888, 39.873208], "type": "Point"}, "id": "_PwJ9CFCbx4fpce3yi7R2bI2D6Q=", "properties": {"@spider": "usps_collection_boxes", "addr:city": "INDIANAPOLIS", "addr:country": "US", "addr:full": "6426 HOOVER RD", "addr:postcode": "46260", "addr:state": "IN", "brand": "USPS", "collection_times": "Mo-Sa 11:00", "name": "USPS COLLECTION BOX - BLUE BOX", "ref": "4626000009"}, "type": "Feature"}
{"geometry": {"coordinates": [-86.1581863, 39.917684], "type": "Point"}, "id": "6u0V3WkCDnl4-ak0n74xmjJUZ9g=", "properties": {"@spider": "usps_collection_boxes", "addr:city": "INDIANAPOLIS", "addr:country": "US", "addr:full": "8902 N MERIDIAN ST", "addr:postcode": "46260", "addr:state": "IN", "brand": "USPS", "collection_times": "Mo-Fr 15:30", "name": "USPS COLLECTION BOX - BLUE BOX", "note": "ON 12/24 AND 12/31, THIS BOX MAY BE COLLECTED AS EARLY AS 12 NOON.", "ref": "4626000011"}, "type": "Feature"}
{"geometry": {"coordinates": [-86.1585033, 39.918805], "type": "Point"}, "id": "lofui-IS8fpCEScjeUUTpaYhfvQ=", "properties": {"@spider": "usps_collection_boxes", "addr:city": "INDIANAPOLIS", "addr:country": "US", "addr:full": "9002 N MERIDIAN ST", "addr:postcode": "46260", "addr:state": "IN", "brand": "USPS", "collection_times": "Mo-Fr 15:30", "name": "USPS COLLECTION BOX - BLUE BOX", "note": "ON 12/24 AND 12/31, THIS BOX MAY BE COLLECTED AS EARLY AS 12 NOON.", "ref": "4626000012"}, "type": "Feature"}
{"geometry": {"coordinates": [-86.1595699, 39.922149], "type": "Point"}, "id": "lH8pbRqRf8ieCMNHLrRqpd5RX1s=", "properties": {"@spider": "usps_collection_boxes", "addr:city": "INDIANAPOLIS", "addr:country": "US", "addr:full": "9240 N MERIDIAN ST", "addr:postcode": "46260", "addr:state": "IN", "brand": "USPS", "collection_times": "Mo-Fr 15:30; Sa 13:00", "name": "USPS COLLECTION BOX - BLUE BOX", "note": "ON 12/24 AND 12/31, THIS BOX MAY BE COLLECTED AS EARLY AS 12 NOON.", "ref": "4626000014"}, "type": "Feature"}
{"geometry": {"coordinates": [-86.1565888, 39.923258], "type": "Point"}, "id": "EJSBmmLBHWI_2AbvUBpHuwhLQXo=", "properties": {"@spider": "usps_collection_boxes", "addr:city": "INDIANAPOLIS", "addr:country": "US", "addr:full": "9277 N MERIDIAN ST", "addr:postcode": "46260", "addr:state": "IN", "brand": "USPS", "collection_times": "Mo-Fr 14:30; Sa 11:00", "name": "USPS COLLECTION BOX - BLUE BOX", "note": "ON 12/24 AND 12/31, THIS BOX MAY BE COLLECTED AS EARLY AS 12 NOON.", "ref": "4626000015"}, "type": "Feature"}
{"geometry": {"coordinates": [-86.197311, 39.907953], "type": "Point"}, "id": "AdCn2PvWhsJrsixS3CPLhSIdAkc=", "properties": {"@spider": "usps_collection_boxes", "addr:city": "INDIANAPOLIS", "addr:country": "US", "addr:full": "8333 NAAB RD", "addr:postcode": "46260", "addr:state": "IN", "brand": "USPS", "collection_times": "Mo-Fr 11:00", "name": "USPS COLLECTION BOX - BLUE BOX", "ref": "4626000022"}, "type": "Feature"}
{"geometry": {"coordinates": [-86.1828987, 39.911403], "type": "Point"}, "id": "GNea9VgqMAkz3sO934LaCIMoAsU=", "properties": {"@spider": "usps_collection_boxes", "addr:city": "INDIANAPOLIS", "addr:country": "US", "addr:full": "1315 W 86TH ST", "addr:postcode": "46260", "addr:state": "IN", "brand": "USPS", "collection_times": "Mo-Fr 16:00; Sa 11:00", "name": "USPS COLLECTION BOX - BLUE BOX", "note": "ON 12/24 AND 12/31, THIS BOX MAY BE COLLECTED AS EARLY AS 12 NOON.", "ref": "4626000025"}, "type": "Feature"}
{"geometry": {"coordinates": [-86.255751004, 39.90769201], "type": "Point"}, "id": "cDSwLozSMh5GHhUhn6sSVOklbFk=", "properties": {"@spider": "usps_collection_boxes", "addr:city": "INDIANAPOLIS", "addr:country": "US", "addr:full": "8401 MOLLER RD", "addr:postcode": "46268", "addr:state": "IN", "brand": "USPS", "collection_times": "Mo-Fr 17:00; Sa 16:00", "name": "USPS COLLECTION BOX - BLUE BOX", "note": "ON 12/24 AND 12/31, THIS BOX MAY BE COLLECTED AS EARLY AS 12 NOON.", "ref": "4626800001"}, "type": "Feature"}
{"geometry": {"coordinates": [-86.2503637, 39.896831], "type": "Point"}, "id": "spHt-6mPnmbKEXfs0y211vJkY8s=", "properties": {"@spider": "usps_collection_boxes", "addr:city": "INDIANAPOLIS", "addr:country": "US", "addr:full": "5214 W 79TH ST", "addr:postcode": "46268", "addr:state": "IN", "brand": "USPS", "collection_times": "Mo-Fr 13:00; Sa 11:00", "name": "USPS COLLECTION BOX - BLUE BOX", "note": "ON 12/24 AND 12/31, THIS BOX MAY BE COLLECTED AS EARLY AS 12 NOON.", "ref": "4626800002"}, "type": "Feature"}
{"geometry": {"coordinates": [-86.2045483, 39.919108], "type": "Point"}, "id": "sSfxe5eWW8goyJr8oqeGIEWg9Jk=", "properties": {"@spider": "usps_collection_boxes", "addr:city": "INDIANAPOLIS", "addr:country": "US", "addr:full": "2500 TULANE RD", "addr:postcode": "46268", "addr:state": "IN", "brand": "USPS", "collection_times": "Mo-Sa 10:00", "name": "USPS COLLECTION BOX - BLUE BOX", "ref": "4626800003"}, "type": "Feature"}
{"geometry": {"coordinates": [-86.220963, 39.920085], "type": "Point"}, "id": "UAdCIM6bTd9tfjOL0gw48cOYX6c=", "properties": {"@spider": "usps_collection_boxes", "addr:city": "INDIANAPOLIS", "addr:country": "US", "addr:full": "3500 DEPAUW BLVD", "addr:postcode": "46268", "addr:state": "IN", "brand": "USPS", "collection_times": "Mo-Fr 12:00", "name": "USPS COLLECTION BOX - BLUE BOX", "ref": "4626800006"}, "type": "Feature"}
{"geometry": {"coordinates": [-86.2297589758, 39.9152545199], "type": "Point"}, "id": "hAPMjkxiUw0HGhV7ynYGWyFtwYE=", "properties": {"@spider": "usps_collection_boxes", "addr:city": "INDIANAPOLIS", "addr:country": "US", "addr:full": "4030 VINCENNES RD", "addr:postcode": "46268", "addr:state": "IN", "brand": "USPS", "collection_times": "Mo-Fr 16:00; Sa 11:00", "name": "USPS COLLECTION BOX - BLUE BOX", "note": "ON 12/24 AND 12/31, THIS BOX MAY BE COLLECTED AS EARLY AS 12 NOON.", "ref": "4626800010"}, "type": "Feature"}
{"geometry": {"coordinates": [-86.2057595, 39.91349], "type": "Point"}, "id": "lcf6rsHQ2OLZDdoUCn4uXXSmCFU=", "properties": {"@spider": "usps_collection_boxes", "addr:city": "INDIANAPOLIS", "addr:country": "US", "addr:full": "2550 LAKE CIRCLE DR", "addr:postcode": "46268", "addr:state": "IN", "brand": "USPS", "collection_times": "Mo-Sa 10:00", "name": "USPS COLLECTION BOX - BLUE BOX", "ref": "4626800011"}, "type": "Feature"}
{"geometry": {"coordinates": [-86.2337995043, 39.9261014934], "type": "Point"}, "id": "XcwPqHeSw8cabFTk7hIVgpYfxXY=", "properties": {"@spider": "usps_collection_boxes", "addr:city": "INDIANAPOLIS", "addr:country": "US", "addr:full": "4305 W 96TH ST", "addr:postcode": "46268", "addr:state": "IN", "brand": "USPS", "collection_times": "Mo-Fr 10:00", "name": "USPS COLLECTION BOX - BLUE BOX", "ref": "4626800014"}, "type": "Feature"}
{"geometry": {"coordinates": [-86.2238182, 39.924847], "type": "Point"}, "id": "vpUAvIonCyX6kavAYo3tnBrhjzc=", "properties": {"@spider": "usps_collection_boxes", "addr:city": "INDIANAPOLIS", "addr:country": "US", "addr:full": "9507 ANGOLA CT", "addr:postcode": "46268", "addr:state": "IN", "brand": "USPS", "collection_times": "Mo-Sa 11:00", "name": "USPS COLLECTION BOX - BLUE BOX", "ref": "4626800015"}, "type": "Feature"}
{"geometry": {"coordinates": [-86.253624711, 39.911790893], "type": "Point"}, "id": "AZCbz7EGvUvHBRruuKFHxdFLwUQ=", "properties": {"@spider": "usps_collection_boxes", "addr:city": "INDIANAPOLIS", "addr:country": "US", "addr:full": "8651 ROBBINS RD", "addr:postcode": "46268", "addr:state": "IN", "brand": "USPS", "collection_times": "Mo-Fr 16:00; Sa 13:00", "name": "USPS COLLECTION BOX - BLUE BOX", "note": "ON 12/24 AND 12/31, THIS BOX MAY BE COLLECTED AS EARLY AS 12 NOON.", "ref": "4626800020"}, "type": "Feature"}
{"geometry": {"coordinates": [-86.2249101588, 39.9203879146], "type": "Point"}, "id": "7K8jFJ1cQoDCV6gKbUKJCwZ7Kj4=", "properties": {"@spider": "usps_collection_boxes", "addr:city": "INDIANAPOLIS", "addr:country": "US", "addr:full": "9201 WESLEYAN RD", "addr:postcode": "46268", "addr:state": "IN", "brand": "USPS", "collection_times": "Mo-Fr 16:00; Sa 11:00", "name": "USPS COLLECTION BOX - BLUE BOX", "note": "ON 12/24 AND 12/31, THIS BOX MAY BE COLLECTED AS EARLY AS 12 NOON.", "ref": "4626800024"}, "type": "Feature"}
{"geometry": {"coordinates": [-86.2165699, 39.895865], "type": "Point"}, "id": "A-pqLzcoV7bb6LfSWMLmdM0AEas=", "properties": {"@spider": "usps_collection_boxes", "addr:city": "INDIANAPOLIS", "addr:country": "US", "addr:full": "7840 MICHIGAN RD", "addr:postcode": "46268", "addr:state": "IN", "brand": "USPS", "collection_times": "Mo-Sa 11:00", "name": "USPS COLLECTION BOX - BLUE BOX", "ref": "4626800028"}, "type": "Feature"}
{"geometry": {"coordinates": [-86.2183309, 39.909605], "type": "Point"}, "id": "Y11cS5_mC0SFA0cB608bdkYxOoU=", "properties": {"@spider": "usps_collection_boxes", "addr:city": "INDIANAPOLIS", "addr:country": "US", "addr:full": "3475 W 86TH ST", "addr:postcode": "46268", "addr:state": "IN", "brand": "USPS", "collection_times": "Mo-Sa 10:00", "name": "USPS COLLECTION BOX - BLUE BOX", "ref": "4626800037"}, "type": "Feature"}
{"geometry": {"coordinates": [-86.2413209, 39.897008], "type": "Point"}, "id": "ShKnHkqRqlmlHmLiz2XDHYZdrPM=", "properties": {"@spider": "usps_collection_boxes", "addr:city": "INDIANAPOLIS", "addr:country": "US", "addr:full": "7920 GEORGETOWN RD", "addr:postcode": "46268", "addr:state": "IN", "brand": "USPS", "collection_times": "Mo-Sa 10:00", "name": "USPS COLLECTION BOX - BLUE BOX", "ref": "4626800038"}, "type": "Feature"}
{"geometry": {"coordinates": [-86.2559694, 39.907794], "type": "Point"}, "id": "8eCHeCT5MEHyedHo2H7q2WFWs0I=", "properties": {"@spider": "usps_collection_boxes", "addr:city": "INDIANAPOLIS", "addr:country": "US", "addr:full": "8401 MOLLER RD", "addr:postcode": "46268", "addr:state": "IN", "brand": "USPS", "collection_times": "Mo-Fr 19:00; Sa 15:00", "name": "USPS COLLECTION BOX - PO LOBBY", "note": "ON 12/24 AND 12/31, THIS BOX MAY BE COLLECTED AS EARLY AS 12 NOON.", "ref": "4626800048"}, "type": "Feature"}
{"geometry": {"coordinates": [-86.255724, 39.907727], "type": "Point"}, "id": "eCFK3HjJY3VqvDnPjdnZZkjdVc0=", "properties": {"@spider": "usps_collection_boxes", "addr:city": "INDIANAPOLIS", "addr:country": "US", "addr:full": "8401 MOLLER RD", "addr:postcode": "46268", "addr:state": "IN", "brand": "USPS", "collection_times": "Mo-Fr 19:00; Sa 15:00", "name": "USPS COLLECTION BOX - PO LOBBY", "note": "ON 12/24 AND 12/31, THIS BOX MAY BE COLLECTED AS EARLY AS 12 NOON.", "ref": "4626800049"}, "type": "Feature"}
{"geometry": {"coordinates": [-86.2467721, 39.881001], "type": "Point"}, "id": "csYjncZ0k1ZLrG2cC5wr-jDOzW0=", "properties": {"@spider": "usps_collection_boxes", "addr:city": "INDIANAPOLIS", "addr:country": "US", "addr:full": "5035 W 71ST ST", "addr:postcode": "46268", "addr:state": "IN", "brand": "USPS", "collection_times": "Mo-Sa 10:00", "name": "USPS COLLECTION BOX - BLUE BOX", "ref": "4626800050"}, "type": "Feature"}
{"geometry": {"coordinates": [-86.2557510036, 39.9076920095], "type": "Point"}, "id": "b2-51WI0rc8Q-swbTJRsP95rBvk=", "properties": {"@spider": "usps_collection_boxes", "addr:city": "INDIANAPOLIS", "addr:country": "US", "addr:full": "8401 MOLLER RD", "addr:postcode": "46268", "addr:state": "IN", "brand": "USPS", "collection_times": "Mo-Fr 17:00; Sa 16:00", "name": "USPS COLLECTION BOX - BLUE BOX", "note": "ON 12/24 AND 12/31, THIS BOX MAY BE COLLECTED AS EARLY AS 12 NOON.", "ref": "4626800051"}, "type": "Feature"}
{"geometry": {"coordinates": [-86.2189942, 39.913169], "type": "Point"}, "id": "sn7B_XV6gacynNI34op-rUtONh4=", "properties": {"@spider": "usps_collection_boxes", "addr:city": "INDIANAPOLIS", "addr:country": "US", "addr:full": "3351 FOUNDERS RD", "addr:postcode": "46268", "addr:state": "IN", "brand": "USPS", "collection_times": "Mo-Fr 15:30; Sa 11:00", "name": "USPS COLLECTION BOX - BLUE BOX", "note": "ON 12/24 AND 12/31, THIS BOX MAY BE COLLECTED AS EARLY AS 12 NOON.", "ref": "4626800056"}, "type": "Feature"}
{"geometry": {"coordinates": [-86.2391276, 39.86779], "type": "Point"}, "id": "Zz7DANnm-eX1n88DjsK6F82U8oo=", "properties": {"@spider": "usps_collection_boxes", "addr:city": "INDIANAPOLIS", "addr:country": "US", "addr:full": "6210 LA PAS TRL", "addr:postcode": "46268", "addr:state": "IN", "brand": "USPS", "collection_times": "Mo-Fr 15:00; Sa 11:00", "name": "USPS COLLECTION BOX - BLUE BOX", "note": "ON 12/24 AND 12/31, THIS BOX MAY BE COLLECTED AS EARLY AS 12 NOON.", "ref": "4626800061"}, "type": "Feature"}
{"geometry": {"coordinates": [-86.208904, 39.884156], "type": "Point"}, "id": "kVGSjlmIXsGpPwHdVMFsvupGdHA=", "properties": {"@spider": "usps_collection_boxes", "addr:city": "INDIANAPOLIS", "addr:country": "US", "addr:full": "7167 MICHIGAN RD", "addr:postcode": "46268", "addr:state": "IN", "brand": "USPS", "collection_times": "Mo-Fr 14:00; Sa 13:00", "name": "USPS COLLECTION BOX - BLUE BOX", "note": "ON 12/24 AND 12/31, THIS BOX MAY BE COLLECTED AS EARLY AS 12 NOON.", "ref": "4626800062"}, "type": "Feature"}
{"geometry": {"coordinates": [-86.255724, 39.907727], "type": "Point"}, "id": "qxlysbz39WWdXcTmATCzywr8__c=", "properties": {"@spider": "usps_collection_boxes", "addr:city": "INDIANAPOLIS", "addr:country": "US", "addr:full": "8401 MOLLER RD", "addr:postcode": "46268", "addr:state": "IN", "brand": "USPS", "collection_times": "Mo-Fr 19:00; Sa 15:00", "name": "USPS COLLECTION BOX - APC", "note": "ON 12/24 AND 12/31, THIS BOX MAY BE COLLECTED AS EARLY AS 12 NOON.", "ref": "4626800072"}, "type": "Feature"}
{"geometry": {"coordinates": [-86.2565757181, 39.9077093608], "type": "Point"}, "id": "GgCESzZav8Lol1SilwVypkUy6RQ=", "properties": {"@spider": "usps_collection_boxes", "addr:city": "INDIANAPOLIS", "addr:country": "US", "addr:full": "8401 MOLLER RD", "addr:postcode": "46268", "addr:state": "IN", "brand": "USPS", "collection_times": "Mo-Fr 19:00; Sa 15:00", "name": "USPS COLLECTION BOX - PO LOBBY", "note": "ON 12/24 AND 12/31, THIS BOX MAY BE COLLECTED AS EARLY AS 12 NOON.", "ref": "4626800080"}, "type": "Feature"}
{"geometry": {"coordinates": [-86.2652617, 39.87956], "type": "Point"}, "id": "Cj2aVeenaBRAyuUvySHQizjW3Bw=", "properties": {"@spider": "usps_collection_boxes", "addr:city": "INDIANAPOLIS", "addr:country": "US", "addr:full": "7000 CORPORATE DR", "addr:postcode": "46278", "addr:state": "IN", "brand": "USPS", "collection_times": "Mo-Fr 15:00; Sa 11:00", "name": "USPS COLLECTION BOX - BLUE BOX", "note": "ON 12/24 AND 12/31, THIS BOX MAY BE COLLECTED AS EARLY AS 12 NOON.", "ref": "4627800001"}, "type": "Feature"}
{"geometry": {"coordinates": [-86.159714374, 39.770020434], "type": "Point"}, "id": "HGuIeVimO9zQVcWA5mkc5Z10AdE=", "properties": {"@spider": "usps_collection_boxes", "addr:city": "INDIANAPOLIS", "addr:country": "US", "addr:full": "1 AMERICAN SQ", "addr:postcode": "46282", "addr:state": "IN", "brand": "USPS", "collection_times": "Mo-Fr 17:00", "name": "USPS COLLECTION BOX - BLUE BOX", "note": "ON 12/24 AND 12/31, THIS BOX MAY BE COLLECTED AS EARLY AS 12 NOON.", "ref": "4628200001"}, "type": "Feature"}
{"geometry": {"coordinates": [-86.1560633, 39.937881], "type": "Point"}, "id": "uAh1ripFSt70QK28P59n48LWKnc=", "properties": {"@spider": "usps_collection_boxes", "addr:city": "INDIANAPOLIS", "addr:country": "US", "addr:full": "10333 N MERIDIAN ST", "addr:postcode": "46290", "addr:state": "IN", "brand": "USPS", "collection_times": "Mo-Sa 12:00", "name": "USPS COLLECTION BOX - BLUE BOX", "ref": "4629000004"}, "type": "Feature"}
{"geometry": {"coordinates": [-86.1558293, 39.935938], "type": "Point"}, "id": "USrRuljidz6-ak1Oc5HErQ9GhC4=", "properties": {"@spider": "usps_collection_boxes", "addr:city": "INDIANAPOLIS", "addr:country": "US", "addr:full": "10293 N MERIDIAN ST", "addr:postcode": "46290", "addr:state": "IN", "brand": "USPS", "collection_times": "Mo-Sa 12:00", "name": "USPS COLLECTION BOX - BLUE BOX", "ref": "4629000008"}, "type": "Feature"}
{"geometry": {"coordinates": [-86.1559469, 39.940406], "type": "Point"}, "id": "EDJd7hgGliIHYWmLPdoiBH8E8n4=", "properties": {"@spider": "usps_collection_boxes", "addr:city": "INDIANAPOLIS", "addr:country": "US", "addr:full": "10585 N MERIDIAN ST", "addr:postcode": "46290", "addr:state": "IN", "brand": "USPS", "collection_times": "Mo-Sa 12:00", "name": "USPS COLLECTION BOX - BLUE BOX", "ref": "4629000009"}, "type": "Feature"}
{"geometry": {"coordinates": [-86.1621761, 39.932833], "type": "Point"}, "id": "RNU1kAB8nQIFsdS-b5ef8mjAPeg=", "properties": {"@spider": "usps_collection_boxes", "addr:city": "INDIANAPOLIS", "addr:country": "US", "addr:full": "201 W 103RD ST", "addr:postcode": "46290", "addr:state": "IN", "brand": "USPS", "collection_times": "Mo-Fr 12:00", "name": "USPS COLLECTION BOX - BLUE BOX", "ref": "4629000010"}, "type": "Feature"}
