{"geometry": {"coordinates": [-86.98881, 41.67114], "type": "Point"}, "id": "wRSGGyy-KN4CP7FAEZXo4hvnj0g=", "properties": {"@spider": "usps_collection_boxes", "addr:city": "BEVERLY SHORES", "addr:country": "US", "addr:full": "165 E US HIGHWAY 12", "addr:postcode": "46301", "addr:state": "IN", "brand": "USPS", "collection_times": "Mo-Fr 16:30; Sa 12:00", "name": "USPS COLLECTION BOX - BLUE BOX", "note": "ON 12/24 AND 12/31, THIS BOX MAY BE COLLECTED AS EARLY AS 12 NOON.", "ref": "4630100001"}, "type": "Feature"}
{"geometry": {"coordinates": [-86.98881, 41.67114], "type": "Point"}, "id": "-jvgYrj45QrvWXZe6SAKSMwTRnA=", "properties": {"@spider": "usps_collection_boxes", "addr:city": "BEVERLY SHORES", "addr:country": "US", "addr:full": "165 E US HIGHWAY 12", "addr:postcode": "46301", "addr:state": "IN", "brand": "USPS", "collection_times": "Mo-Fr 16:30; Sa 12:00", "name": "USPS COLLECTION BOX - PO LOBBY", "note": "ON 12/24 AND 12/31, THIS BOX MAY BE COLLECTED AS EARLY AS 12 NOON.", "ref": "4630100002"}, "type": "Feature"}
{"geometry": {"coordinates": [-86.981165224, 41.67415422], "type": "Point"}, "id": "7BKIlzVvu5SHNGXmoJIuXAVGOjY=", "properties": {"@spider": "usps_collection_boxes", "addr:city": "BEVERLY SHORES", "addr:country": "US", "addr:full": "165 E US HWY 12", "addr:postcode": "46301", "addr:state": "IN", "brand": "USPS", "collection_times": "Mo-Fr 17:00; Sa 12:30", "name": "USPS COLLECTION BOX - PO LOBBY", "note": "ON 12/24 AND 12/31, THIS BOX MAY BE COLLECTED AS EARLY AS 12 NOON.", "ref": "4630100003"}, "type": "Feature"}
{"geometry": {"coordinates": [-87.0726569, 41.616364], "type": "Point"}, "id": "DscHF4WetBeIWrZSw4faECL0ycE=", "properties": {"@spider": "usps_collection_boxes", "addr:city": "CHESTERTON", "addr:country": "US", "addr:full": "303 FRANKLIN ST", "addr:postcode": "46304", "addr:state": "IN", "brand": "USPS", "collection_times": "Mo-Sa 10:00", "name": "USPS COLLECTION BOX - BLUE BOX", "ref": "4630400006"}, "type": "Feature"}
{"geometry": {"coordinates": [-87.09800654, 41.611969545], "type": "Point"}, "id": "zWTtBoCQpV6b6x4FEBxXv09E45w=", "properties": {"@spider": "usps_collection_boxes", "addr:city": "CHESTERTON", "addr:country": "US", "addr:full": "1600 W US HIGHWAY 20", "addr:postcode": "46304", "addr:state": "IN", "brand": "USPS", "collection_times": "Mo-Sa 10:00", "name": "USPS COLLECTION BOX - BLUE BOX", "ref": "4630400009"}, "type": "Feature"}
{"geometry": {"coordinates": [-87.0433436, 41.616114], "type": "Point"}, "id": "420fiURY4m5_EcZaGHNVy70ne_Q=", "properties": {"@spider": "usps_collection_boxes", "addr:city": "CHESTERTON", "addr:country": "US", "addr:full": "550 INDIAN BOUNDARY RD", "addr:postcode": "46304", "addr:state": "IN", "brand": "USPS", "collection_times": "Mo-Sa 10:00", "name": "USPS COLLECTION BOX - BLUE BOX", "ref": "4630400011"}, "type": "Feature"}
{"geometry": {"coordinates": [-87.0443809, 41.5949], "type": "Point"}, "id": "xV-eoOGmX4Dh5M5B4qKXLO5dhzM=", "properties": {"@spider": "usps_collection_boxes", "addr:city": "CHESTERTON", "addr:country": "US", "addr:full": "1600 PIONEER TRL", "addr:postcode": "46304", "addr:state": "IN", "brand": "USPS", "collection_times": "Mo-Sa 10:00", "name": "USPS COLLECTION BOX - BLUE BOX", "ref": "4630400013"}, "type": "Feature"}
{"geometry": {"coordinates": [-87.0545616, 41.611061], "type": "Point"}, "id": "1oLV3PZa6X1gbrDhrxM0gahKDvI=", "properties": {"@spider": "usps_collection_boxes", "addr:city": "CHESTERTON", "addr:country": "US", "addr:full": "220 BROADWAY", "addr:postcode": "46304", "addr:state": "IN", "brand": "USPS", "collection_times": "Mo-Sa 10:00", "name": "USPS COLLECTION BOX - BLUE BOX", "ref": "4630400014"}, "type": "Feature"}
{"geometry": {"coordinates": [-87.049454, 41.60045], "type": "Point"}, "id": "6XySzKnphJ1FfqQ2OBdztgV993U=", "properties": {"@spider": "usps_collection_boxes", "addr:city": "CHESTERTON", "addr:country": "US", "addr:full": "1070 S CALUMET RD", "addr:postcode": "46304", "addr:state": "IN", "brand": "USPS", "collection_times": "Mo-Fr 17:00; Sa 16:00", "name": "USPS COLLECTION BOX - BLUE BOX", "note": "ON 12/24 AND 12/31, THIS BOX MAY BE COLLECTED AS EARLY AS 12 NOON.", "ref": "4630400019"}, "type": "Feature"}
{"geometry": {"coordinates": [-87.049239, 41.600563], "type": "Point"}, "id": "SMgpTpyWPk-Rkcw1JN90QA9_63M=", "properties": {"@spider": "usps_collection_boxes", "addr:city": "CHESTERTON", "addr:country": "US", "addr:full": "1070 S CALUMET RD", "addr:postcode": "46304", "addr:state": "IN", "brand": "USPS", "collection_times": "Mo-Fr 17:00; Sa 16:00", "name": "USPS COLLECTION BOX - PO LOBBY", "note": "ON 12/24 AND 12/31, THIS BOX MAY BE COLLECTED AS EARLY AS 12 NOON.", "ref": "4630400026"}, "type": "Feature"}
{"geometry": {"coordinates": [-87.0401049, 41.617728], "type": "Point"}, "id": "hziACoFw0-xbbMWysqrqn7cYe8M=", "properties": {"@spider": "usps_collection_boxes", "addr:city": "CHESTERTON", "addr:country": "US", "addr:full": "747 INDIAN BOUNDARY RD", "addr:postcode": "46304", "addr:state": "IN", "brand": "USPS", "collection_times": "Mo-Sa 10:00", "name": "USPS COLLECTION BOX - BLUE BOX", "ref": "4630400027"}, "type": "Feature"}
{"geometry": {"coordinates": [-87.049239, 41.600563], "type": "Point"}, "id": "-MCw_MIqci7ew5-qH0wDiE-H-TA=", "properties": {"@spider": "usps_collection_boxes", "addr:city": "CHESTERTON", "addr:country": "US", "addr:full": "1070 S CALUMET RD", "addr:postcode": "46304", "addr:state": "IN", "brand": "USPS", "collection_times": "Mo-Fr 17:00; Sa 16:00", "name": "USPS COLLECTION BOX - APC", "note": "ON 12/24 AND 12/31, THIS BOX MAY BE COLLECTED AS EARLY AS 12 NOON.", "ref": "4630400028"}, "type": "Feature"}
{"geometry": {"coordinates": [-87.049268659, 41.600585883], "type": "Point"}, "id": "eXMKwDY5Nqkx_WufjOflYJwNSAs=", "properties": {"@spider": "usps_collection_boxes", "addr:city": "CHESTERTON", "addr:country": "US", "addr:full": "1070 S CALUMET RD", "addr:postcode": "46304", "addr:state": "IN", "brand": "USPS", "collection_times": "Mo-Fr 17:30; Sa 14:30", "name": "USPS COLLECTION BOX - PO LOBBY", "note": "ON 12/24 AND 12/31, THIS BOX MAY BE COLLECTED AS EARLY AS 12 NOON.", "ref": "4630400031"}, "type": "Feature"}
{"geometry": {"coordinates": [-86.698839568, 41.526261576], "type": "Point"}, "id": "51Soppa1BxrfoprVqO1QAZ69aCs=", "properties": {"@spider": "usps_collection_boxes", "addr:city": "KINGSBURY", "addr:country": "US", "addr:full": "5164 S US HIGHWAY 35", "addr:postcode": "46345", "addr:state": "IN", "brand": "USPS", "collection_times": "Mo-Sa 12:00", "name": "USPS COLLECTION BOX - PO LOBBY", "ref": "4634500003"}, "type": "Feature"}
{"geometry": {"coordinates": [-86.698839568, 41.526261576], "type": "Point"}, "id": "_gm5xEB1-x9RBBHEQ7dhmcqyYHY=", "properties": {"@spider": "usps_collection_boxes", "addr:city": "KINGSBURY", "addr:country": "US", "addr:full": "5164 S US HIGHWAY 35", "addr:postcode": "46345", "addr:state": "IN", "brand": "USPS", "collection_times": "Mo-Sa 12:00", "name": "USPS COLLECTION BOX - PO LOBBY", "ref": "4634500004"}, "type": "Feature"}
{"geometry": {"coordinates": [-86.698839568, 41.526261576], "type": "Point"}, "id": "_bHMhuB7f69UiFCSNgsmdLpewpA=", "properties": {"@spider": "usps_collection_boxes", "addr:city": "KINGSBURY", "addr:country": "US", "addr:full": "5164 S US HIGHWAY 35", "addr:postcode": "46345", "addr:state": "IN", "brand": "USPS", "collection_times": "Mo-Sa 12:00", "name": "USPS COLLECTION BOX - BLUE BOX", "ref": "4634500005"}, "type": "Feature"}
{"geometry": {"coordinates": [-86.7266877, 41.614491], "type": "Point"}, "id": "BpDt5W08rTqc0pFkbFDe3JrdnY8=", "properties": {"@spider": "usps_collection_boxes", "addr:city": "LAPORTE", "addr:country": "US", "addr:full": "55 PINE LAKE AVE", "addr:postcode": "46350", "addr:state": "IN", "brand": "USPS", "collection_times": "Mo-Sa 08:30", "name": "USPS COLLECTION BOX - BLUE BOX", "ref": "4635000045"}, "type": "Feature"}
{"geometry": {"coordinates": [-86.7187751, 41.613514], "type": "Point"}, "id": "XsGDZDD71fC2M0YEqvgyUzB6KqA=", "properties": {"@spider": "usps_collection_boxes", "addr:city": "LAPORTE", "addr:country": "US", "addr:full": "601 JACKSON ST", "addr:postcode": "46350", "addr:state": "IN", "brand": "USPS", "collection_times": "Mo-Sa 09:00", "name": "USPS COLLECTION BOX - BLUE BOX", "ref": "4635000060"}, "type": "Feature"}
{"geometry": {"coordinates": [-86.7220643, 41.612077], "type": "Point"}, "id": "NGHr3Mr-RXTqQeR4B5lOTe7_kXI=", "properties": {"@spider": "usps_collection_boxes", "addr:city": "LAPORTE", "addr:country": "US", "addr:full": "555 MICHIGAN AVE", "addr:postcode": "46350", "addr:state": "IN", "brand": "USPS", "collection_times": "Mo-Fr 15:00; Sa 12:00", "name": "USPS COLLECTION BOX - BLUE BOX", "note": "ON 12/24 AND 12/31, THIS BOX MAY BE COLLECTED AS EARLY AS 12 NOON.", "ref": "4635000061"}, "type": "Feature"}
{"geometry": {"coordinates": [-86.7236019, 41.612186], "type": "Point"}, "id": "yekXKnmymBnrKqGcWfzo8ToJRC4=", "properties": {"@spider": "usps_collection_boxes", "addr:city": "LAPORTE", "addr:country": "US", "addr:full": "800 WASHINGTON ST", "addr:postcode": "46350", "addr:state": "IN", "brand": "USPS", "collection_times": "Mo-Fr 15:00; Sa 12:00", "name": "USPS COLLECTION BOX - BLUE BOX", "note": "ON 12/24 AND 12/31, THIS BOX MAY BE COLLECTED AS EARLY AS 12 NOON.", "ref": "4635000062"}, "type": "Feature"}
{"geometry": {"coordinates": [-86.7223454, 41.61047], "type": "Point"}, "id": "1dRvrI_vuc399P8cQdRqvEYO0d4=", "properties": {"@spider": "usps_collection_boxes", "addr:city": "LAPORTE", "addr:country": "US", "addr:full": "902 LINCOLNWAY", "addr:postcode": "46350", "addr:state": "IN", "brand": "USPS", "collection_times": "Mo-Fr 15:00; Sa 12:00", "name": "USPS COLLECTION BOX - BLUE BOX", "note": "ON 12/24 AND 12/31, THIS BOX MAY BE COLLECTED AS EARLY AS 12 NOON.", "ref": "4635000065"}, "type": "Feature"}
{"geometry": {"coordinates": [-86.7212747, 41.611014], "type": "Point"}, "id": "y6fEvDhlz_NCZliIfWH1OIvo1mE=", "properties": {"@spider": "usps_collection_boxes", "addr:city": "LAPORTE", "addr:country": "US", "addr:full": "800 LINCOLNWAY", "addr:postcode": "46350", "addr:state": "IN", "brand": "USPS", "collection_times": "Mo-Fr 15:00; Sa 12:00", "name": "USPS COLLECTION BOX - BLUE BOX", "note": "ON 12/24 AND 12/31, THIS BOX MAY BE COLLECTED AS EARLY AS 12 NOON.", "ref": "4635000068"}, "type": "Feature"}
{"geometry": {"coordinates": [-86.7064072, 41.617842], "type": "Point"}, "id": "ZI-9Mj4Xury1RdeZEeGTWelvUP8=", "properties": {"@spider": "usps_collection_boxes", "addr:city": "LAPORTE", "addr:country": "US", "addr:full": "702 E LINCOLNWAY", "addr:postcode": "46350", "addr:state": "IN", "brand": "USPS", "collection_times": "Mo-Sa 08:30", "name": "USPS COLLECTION BOX - BLUE BOX", "ref": "4635000076"}, "type": "Feature"}
{"geometry": {"coordinates": [-86.7473916, 41.639578], "type": "Point"}, "id": "vczdtEvxYbSJ9nZxfu_l2tGKP4U=", "properties": {"@spider": "usps_collection_boxes", "addr:city": "LAPORTE", "addr:country": "US", "addr:full": "243 W JOHNSON RD", "addr:postcode": "46350", "addr:state": "IN", "brand": "USPS", "collection_times": "Mo-Sa 09:00", "name": "USPS COLLECTION BOX - BLUE BOX", "ref": "4635000083"}, "type": "Feature"}
{"geometry": {"coordinates": [-86.7256974, 41.609188], "type": "Point"}, "id": "v5L8x5G1e3kvHbiAmde5JarSnRA=", "properties": {"@spider": "usps_collection_boxes", "addr:city": "LAPORTE", "addr:country": "US", "addr:full": "1201 LINCOLNWAY", "addr:postcode": "46350", "addr:state": "IN", "brand": "USPS", "collection_times": "Mo-Fr 17:00; Sa 16:00", "name": "USPS COLLECTION BOX - PO LOBBY", "note": "ON 12/24 AND 12/31, THIS BOX MAY BE COLLECTED AS EARLY AS 12 NOON.", "ref": "4635000097"}, "type": "Feature"}
{"geometry": {"coordinates": [-86.7257807, 41.609211], "type": "Point"}, "id": "guqnIGU1g29zeHwNGO-SzN7ysIM=", "properties": {"@spider": "usps_collection_boxes", "addr:city": "LAPORTE", "addr:country": "US", "addr:full": "1201 LINCOLNWAY", "addr:postcode": "46350", "addr:state": "IN", "brand": "USPS", "collection_times": "Mo-Fr 17:00; Sa 16:00", "name": "USPS COLLECTION BOX - PO LOBBY", "note": "ON 12/24 AND 12/31, THIS BOX MAY BE COLLECTED AS EARLY AS 12 NOON.", "ref": "4635000098"}, "type": "Feature"}
{"geometry": {"coordinates": [-86.7263284, 41.609674], "type": "Point"}, "id": "BTsZUIY81MfOEkziIPLwKuRsWbQ=", "properties": {"@spider": "usps_collection_boxes", "addr:city": "LAPORTE", "addr:country": "US", "addr:full": "1200 STATE ST", "addr:postcode": "46350", "addr:state": "IN", "brand": "USPS", "collection_times": "Mo-Fr 17:00; Sa 16:00", "name": "USPS COLLECTION BOX - BLUE BOX", "note": "ON 12/24 AND 12/31, THIS BOX MAY BE COLLECTED AS EARLY AS 12 NOON.", "ref": "4635000100"}, "type": "Feature"}
{"geometry": {"coordinates": [-86.7263593, 41.60966], "type": "Point"}, "id": "REPT2Nq-42bur84S13adrA_wVzA=", "properties": {"@spider": "usps_collection_boxes", "addr:city": "LAPORTE", "addr:country": "US", "addr:full": "1200 STATE ST", "addr:postcode": "46350", "addr:state": "IN", "brand": "USPS", "collection_times": "Mo-Fr 17:00; Sa 16:00", "name": "USPS COLLECTION BOX - BLUE BOX", "note": "ON 12/24 AND 12/31, THIS BOX MAY BE COLLECTED AS EARLY AS 12 NOON.", "ref": "4635000101"}, "type": "Feature"}
{"geometry": {"coordinates": [-86.7263431, 41.609679], "type": "Point"}, "id": "bVwXDDDGCm4NkihZd_1PEs3m4zo=", "properties": {"@spider": "usps_collection_boxes", "addr:city": "LAPORTE", "addr:country": "US", "addr:full": "1200 STATE ST", "addr:postcode": "46350", "addr:state": "IN", "brand": "USPS", "collection_times": "Mo-Fr 17:00; Sa 16:00", "name": "USPS COLLECTION BOX - BLUE BOX", "note": "ON 12/24 AND 12/31, THIS BOX MAY BE COLLECTED AS EARLY AS 12 NOON.", "ref": "4635000107"}, "type": "Feature"}
{"geometry": {"coordinates": [-86.7263116, 41.609682], "type": "Point"}, "id": "VDSXSJlnCYNhslj-i6_vWILNcec=", "properties": {"@spider": "usps_collection_boxes", "addr:city": "LAPORTE", "addr:country": "US", "addr:full": "1200 STATE ST", "addr:postcode": "46350", "addr:state": "IN", "brand": "USPS", "collection_times": "Mo-Fr 17:00; Sa 16:00", "name": "USPS COLLECTION BOX - BLUE BOX", "note": "ON 12/24 AND 12/31, THIS BOX MAY BE COLLECTED AS EARLY AS 12 NOON.", "ref": "4635000108"}, "type": "Feature"}
{"geometry": {"coordinates": [-86.7263258, 41.609672], "type": "Point"}, "id": "dyGMWbCsmzQIew_wsveHqsk9avg=", "properties": {"@spider": "usps_collection_boxes", "addr:city": "LAPORTE", "addr:country": "US", "addr:full": "1200 STATE ST", "addr:postcode": "46350", "addr:state": "IN", "brand": "USPS", "collection_times": "Mo-Fr 17:00; Sa 16:00", "name": "USPS COLLECTION BOX - BLUE BOX", "note": "ON 12/24 AND 12/31, THIS BOX MAY BE COLLECTED AS EARLY AS 12 NOON.", "ref": "4635000109"}, "type": "Feature"}
{"geometry": {"coordinates": [-86.696323773, 41.622595892], "type": "Point"}, "id": "-RMHGmNLuk5ux61Cb3r22aDXoVk=", "properties": {"@spider": "usps_collection_boxes", "addr:city": "LAPORTE", "addr:country": "US", "addr:full": "1201 LINCOLNWAY", "addr:postcode": "46350", "addr:state": "IN", "brand": "USPS", "collection_times": "Mo-Fr 17:00; Sa 12:00", "name": "USPS COLLECTION BOX - PO LOBBY", "note": "ON 12/24 AND 12/31, THIS BOX MAY BE COLLECTED AS EARLY AS 12 NOON.", "ref": "4635000113"}, "type": "Feature"}
{"geometry": {"coordinates": [-86.904201, 41.718575], "type": "Point"}, "id": "Y6huWtPuEE-27fLWSbolk-PWBMw=", "properties": {"@spider": "usps_collection_boxes", "addr:city": "MICHIGAN CITY", "addr:country": "US", "addr:full": "303 WASHINGTON ST", "addr:postcode": "46360", "addr:state": "IN", "brand": "USPS", "collection_times": "Mo-Fr 17:00; Sa 15:00", "name": "USPS COLLECTION BOX - PO LOBBY", "note": "ON 12/24 AND 12/31, THIS BOX MAY BE COLLECTED AS EARLY AS 12 NOON.", "ref": "4636000001"}, "type": "Feature"}
{"geometry": {"coordinates": [-86.9042519015, 41.7186910907], "type": "Point"}, "id": "3_0os8TvpyiaixBw5eZFPjfiqPU=", "properties": {"@spider": "usps_collection_boxes", "addr:city": "MICHIGAN CITY", "addr:country": "US", "addr:full": "303 WASHINGTON ST", "addr:postcode": "46360", "addr:state": "IN", "brand": "USPS", "collection_times": "Mo-Fr 17:00; Sa 16:00", "name": "USPS COLLECTION BOX - BLUE BOX", "note": "ON 12/24 AND 12/31, THIS BOX MAY BE COLLECTED AS EARLY AS 12 NOON.", "ref": "4636000002"}, "type": "Feature"}
{"geometry": {"coordinates": [-86.9047177, 41.717977], "type": "Point"}, "id": "kT4citgQmH5RTme2qIH3KH2zGDA=", "properties": {"@spider": "usps_collection_boxes", "addr:city": "MICHIGAN CITY", "addr:country": "US", "addr:full": "303 WASHINGTON ST", "addr:postcode": "46360", "addr:state": "IN", "brand": "USPS", "collection_times": "Mo-Fr 17:00; Sa 16:00", "name": "USPS COLLECTION BOX - BLUE BOX", "note": "ON 12/24 AND 12/31, THIS BOX MAY BE COLLECTED AS EARLY AS 12 NOON.", "ref": "4636000003"}, "type": "Feature"}
{"geometry": {"coordinates": [-86.9043177, 41.718339], "type": "Point"}, "id": "BDN0nHOUUDWZwXZIZNKDVx1oq5w=", "properties": {"@spider": "usps_collection_boxes", "addr:city": "MICHIGAN CITY", "addr:country": "US", "addr:full": "303 WASHINGTON ST", "addr:postcode": "46360", "addr:state": "IN", "brand": "USPS", "collection_times": "Mo-Fr 17:00; Sa 16:00", "name": "USPS COLLECTION BOX - BLUE BOX", "note": "ON 12/24 AND 12/31, THIS BOX MAY BE COLLECTED AS EARLY AS 12 NOON.", "ref": "4636000004"}, "type": "Feature"}
{"geometry": {"coordinates": [-86.9042826, 41.718328], "type": "Point"}, "id": "LHHcYO8zrW18UA5vedyyqshOBpM=", "properties": {"@spider": "usps_collection_boxes", "addr:city": "MICHIGAN CITY", "addr:country": "US", "addr:full": "303 WASHINGTON ST", "addr:postcode": "46360", "addr:state": "IN", "brand": "USPS", "collection_times": "Mo-Fr 17:00; Sa 16:00", "name": "USPS COLLECTION BOX - BLUE BOX", "note": "ON 12/24 AND 12/31, THIS BOX MAY BE COLLECTED AS EARLY AS 12 NOON.", "ref": "4636000006"}, "type": "Feature"}
{"geometry": {"coordinates": [-86.8571999, 41.733949], "type": "Point"}, "id": "U2fiX-l0UISG3kO2enzJUny6X2A=", "properties": {"@spider": "usps_collection_boxes", "addr:city": "MICHIGAN CITY", "addr:country": "US", "addr:full": "1018 N KARWICK RD", "addr:postcode": "46360", "addr:state": "IN", "brand": "USPS", "collection_times": "Mo-Fr 15:00; Sa 10:00", "name": "USPS COLLECTION BOX - BLUE BOX", "note": "ON 12/24 AND 12/31, THIS BOX MAY BE COLLECTED AS EARLY AS 12 NOON.", "ref": "4636000009"}, "type": "Feature"}
{"geometry": {"coordinates": [-86.9025719, 41.71559], "type": "Point"}, "id": "4KKeWPZO5I_Ty4RiNDHiYaFfuaQ=", "properties": {"@spider": "usps_collection_boxes", "addr:city": "MICHIGAN CITY", "addr:country": "US", "addr:full": "612 WASHINGTON ST", "addr:postcode": "46360", "addr:state": "IN", "brand": "USPS", "collection_times": "Mo-Fr 15:00; Sa 10:00", "name": "USPS COLLECTION BOX - BLUE BOX", "note": "ON 12/24 AND 12/31, THIS BOX MAY BE COLLECTED AS EARLY AS 12 NOON.", "ref": "4636000013"}, "type": "Feature"}
{"geometry": {"coordinates": [-86.9008724, 41.718424], "type": "Point"}, "id": "4V0yt1pNAndlepTLNIx54AMBeFw=", "properties": {"@spider": "usps_collection_boxes", "addr:city": "MICHIGAN CITY", "addr:country": "US", "addr:full": "400 PINE ST", "addr:postcode": "46360", "addr:state": "IN", "brand": "USPS", "collection_times": "Mo-Fr 15:00; Sa 10:00", "name": "USPS COLLECTION BOX - BLUE BOX", "note": "ON 12/24 AND 12/31, THIS BOX MAY BE COLLECTED AS EARLY AS 12 NOON.", "ref": "4636000014"}, "type": "Feature"}
{"geometry": {"coordinates": [-86.8906128, 41.674566], "type": "Point"}, "id": "Ssv6tLH6XeHlgZzLZ8IHze1vPAk=", "properties": {"@spider": "usps_collection_boxes", "addr:city": "MICHIGAN CITY", "addr:country": "US", "addr:full": "5150 FRANKLIN ST", "addr:postcode": "46360", "addr:state": "IN", "brand": "USPS", "collection_times": "Mo-Fr 15:00; Sa 10:00", "name": "USPS COLLECTION BOX - BLUE BOX", "note": "ON 12/24 AND 12/31, THIS BOX MAY BE COLLECTED AS EARLY AS 12 NOON.", "ref": "4636000023"}, "type": "Feature"}
{"geometry": {"coordinates": [-86.9055495, 41.715492], "type": "Point"}, "id": "MYpnmoxcqeQHpG3IadP2HAphoaw=", "properties": {"@spider": "usps_collection_boxes", "addr:city": "MICHIGAN CITY", "addr:country": "US", "addr:full": "611 LIGHTHOUSE PL", "addr:postcode": "46360", "addr:state": "IN", "brand": "USPS", "collection_times": "Mo-Fr 12:00; Sa 10:00", "name": "USPS COLLECTION BOX - BLUE BOX", "ref": "4636000033"}, "type": "Feature"}
{"geometry": {"coordinates": [-86.8703659, 41.708028], "type": "Point"}, "id": "n6UWVLZeGYCmG2HThGr9JYJjXBc=", "properties": {"@spider": "usps_collection_boxes", "addr:city": "MICHIGAN CITY", "addr:country": "US", "addr:full": "2319 E MICHIGAN BLVD", "addr:postcode": "46360", "addr:state": "IN", "brand": "USPS", "collection_times": "Mo-Sa 09:00", "name": "USPS COLLECTION BOX - BLUE BOX", "ref": "4636000045"}, "type": "Feature"}
{"geometry": {"coordinates": [-86.8944004, 41.694047], "type": "Point"}, "id": "fKDXd_YvkdflU4Ydvx2H9NFgk4w=", "properties": {"@spider": "usps_collection_boxes", "addr:city": "MICHIGAN CITY", "addr:country": "US", "addr:full": "3219 FRANKLIN ST", "addr:postcode": "46360", "addr:state": "IN", "brand": "USPS", "collection_times": "Mo-Fr 15:00; Sa 09:00", "name": "USPS COLLECTION BOX - BLUE BOX", "note": "ON 12/24 AND 12/31, THIS BOX MAY BE COLLECTED AS EARLY AS 12 NOON.", "ref": "4636000046"}, "type": "Feature"}
{"geometry": {"coordinates": [-86.8953276, 41.687988], "type": "Point"}, "id": "gSZoZWsHc-AztkSyMPYpLxKce6k=", "properties": {"@spider": "usps_collection_boxes", "addr:city": "MICHIGAN CITY", "addr:country": "US", "addr:full": "3535 FRANKLIN ST", "addr:postcode": "46360", "addr:state": "IN", "brand": "USPS", "collection_times": "Mo-Fr 15:00; Sa 09:00", "name": "USPS COLLECTION BOX - BLUE BOX", "note": "ON 12/24 AND 12/31, THIS BOX MAY BE COLLECTED AS EARLY AS 12 NOON.", "ref": "4636000047"}, "type": "Feature"}
{"geometry": {"coordinates": [-86.8594404, 41.687861], "type": "Point"}, "id": "PfteblreOTVWiPPIs_BT_5f0rAU=", "properties": {"@spider": "usps_collection_boxes", "addr:city": "MICHIGAN CITY", "addr:country": "US", "addr:full": "2000 E US HIGHWAY 20", "addr:postcode": "46360", "addr:state": "IN", "brand": "USPS", "collection_times": "Mo-Fr 15:00; Sa 10:00", "name": "USPS COLLECTION BOX - BLUE BOX", "note": "ON 12/24 AND 12/31, THIS BOX MAY BE COLLECTED AS EARLY AS 12 NOON.", "ref": "4636000053"}, "type": "Feature"}
{"geometry": {"coordinates": [-86.8980509, 41.682003], "type": "Point"}, "id": "tDBzTun_Ol8_IMUmlN8m-Rkun_8=", "properties": {"@spider": "usps_collection_boxes", "addr:city": "MICHIGAN CITY", "addr:country": "US", "addr:full": "450 SAINT JOHN RD", "addr:postcode": "46360", "addr:state": "IN", "brand": "USPS", "collection_times": "Mo-Fr 16:45; Sa 11:45", "name": "USPS COLLECTION BOX - BLUE BOX", "note": "ON 12/24 AND 12/31, THIS BOX MAY BE COLLECTED AS EARLY AS 12 NOON.", "ref": "4636000056"}, "type": "Feature"}
{"geometry": {"coordinates": [-86.894010283, 41.673834], "type": "Point"}, "id": "eN5G4gP04bYcZPjXCykv3YkBP40=", "properties": {"@spider": "usps_collection_boxes", "addr:city": "MICHIGAN CITY", "addr:country": "US", "addr:full": "4347 FRANKLIN ST", "addr:postcode": "46360", "addr:state": "IN", "brand": "USPS", "collection_times": "Mo-Fr 15:00; Sa 10:00", "name": "USPS COLLECTION BOX - BLUE BOX", "note": "ON 12/24 AND 12/31, THIS BOX MAY BE COLLECTED AS EARLY AS 12 NOON.", "ref": "4636000063"}, "type": "Feature"}
{"geometry": {"coordinates": [-86.9042519015, 41.7186910907], "type": "Point"}, "id": "C4hpL9sBQWEzhJgztvOqehvLoXI=", "properties": {"@spider": "usps_collection_boxes", "addr:city": "MICHIGAN CITY", "addr:country": "US", "addr:full": "303 WASHINGTON ST", "addr:postcode": "46360", "addr:state": "IN", "brand": "USPS", "collection_times": "Mo-Fr 17:00; Sa 16:00", "name": "USPS COLLECTION BOX - BLUE BOX", "note": "ON 12/24 AND 12/31, THIS BOX MAY BE COLLECTED AS EARLY AS 12 NOON.", "ref": "4636000071"}, "type": "Feature"}
{"geometry": {"coordinates": [-86.8956719, 41.705181], "type": "Point"}, "id": "Qq1a-04dp5AG3k7fO7VKNSa2o-U=", "properties": {"@spider": "usps_collection_boxes", "addr:city": "MICHIGAN CITY", "addr:country": "US", "addr:full": "1912 FRANKLIN ST", "addr:postcode": "46360", "addr:state": "IN", "brand": "USPS", "collection_times": "Mo-Fr 15:00; Sa 10:00", "name": "USPS COLLECTION BOX - BLUE BOX", "note": "ON 12/24 AND 12/31, THIS BOX MAY BE COLLECTED AS EARLY AS 12 NOON.", "ref": "4636000078"}, "type": "Feature"}
{"geometry": {"coordinates": [-86.9139920715, 41.7143521551], "type": "Point"}, "id": "pJwNnPsK-pCAGfC5CoXmesxnHYk=", "properties": {"@spider": "usps_collection_boxes", "addr:city": "MICHIGAN CITY", "addr:country": "US", "addr:full": "3500 FRANCISCAN WAY", "addr:postcode": "46360", "addr:state": "IN", "brand": "USPS", "collection_times": "Mo-Fr 15:00; Sa 10:00", "name": "USPS COLLECTION BOX - BLUE BOX", "note": "ON 12/24 AND 12/31, THIS BOX MAY BE COLLECTED AS EARLY AS 12 NOON.", "ref": "4636000080"}, "type": "Feature"}
{"geometry": {"coordinates": [-86.900649634, 41.683898881], "type": "Point"}, "id": "C1ZnbL40C1auGbuMqe5tNDBYpHY=", "properties": {"@spider": "usps_collection_boxes", "addr:city": "MICHIGAN CITY", "addr:country": "US", "addr:full": "450 SAINT JOHN RD", "addr:postcode": "46360", "addr:state": "IN", "brand": "USPS", "collection_times": "Mo-Fr 17:00; Sa 12:00", "name": "USPS COLLECTION BOX - PO LOBBY", "note": "ON 12/24 AND 12/31, THIS BOX MAY BE COLLECTED AS EARLY AS 12 NOON.", "ref": "4636000085"}, "type": "Feature"}
{"geometry": {"coordinates": [-86.904251902, 41.718691091], "type": "Point"}, "id": "bG1MF637E6S8GYx9qtLgJ_Vn7k4=", "properties": {"@spider": "usps_collection_boxes", "addr:city": "MICHIGAN CITY", "addr:country": "US", "addr:full": "303 WASHINGTON ST", "addr:postcode": "46360", "addr:state": "IN", "brand": "USPS", "collection_times": "Mo-Fr 17:00; Sa 12:00", "name": "USPS COLLECTION BOX - PO LOBBY", "note": "ON 12/24 AND 12/31, THIS BOX MAY BE COLLECTED AS EARLY AS 12 NOON.", "ref": "4636000086"}, "type": "Feature"}
{"geometry": {"coordinates": [-87.1818165, 41.573322], "type": "Point"}, "id": "F222IUY6vF1b0xB7JeylaX4habc=", "properties": {"@spider": "usps_collection_boxes", "addr:city": "PORTAGE", "addr:country": "US", "addr:full": "2701 WILLOWCREEK RD", "addr:postcode": "46368", "addr:state": "IN", "brand": "USPS", "collection_times": "Mo-Fr 17:00; Sa 15:30", "name": "USPS COLLECTION BOX - BLUE BOX", "note": "ON 12/24 AND 12/31, THIS BOX MAY BE COLLECTED AS EARLY AS 12 NOON.", "ref": "4636800001"}, "type": "Feature"}
{"geometry": {"coordinates": [-87.1818165, 41.573322], "type": "Point"}, "id": "8mhL6plq7nM08BtE5f4THNJHIEw=", "properties": {"@spider": "usps_collection_boxes", "addr:city": "PORTAGE", "addr:country": "US", "addr:full": "2701 WILLOWCREEK RD", "addr:postcode": "46368", "addr:state": "IN", "brand": "USPS", "collection_times": "Mo-Fr 17:00; Sa 15:30", "name": "USPS COLLECTION BOX - BLUE BOX", "note": "ON 12/24 AND 12/31, THIS BOX MAY BE COLLECTED AS EARLY AS 12 NOON.", "ref": "4636800002"}, "type": "Feature"}
{"geometry": {"coordinates": [-87.172921, 41.607357], "type": "Point"}, "id": "qJYu-xQEAk09cSBFVQHkqauJgPM=", "properties": {"@spider": "usps_collection_boxes", "addr:city": "PORTAGE", "addr:country": "US", "addr:full": "6250 AMERIPLEX DR", "addr:postcode": "46368", "addr:state": "IN", "brand": "USPS", "collection_times": "Mo-Sa 12:00", "name": "USPS COLLECTION BOX - BLUE BOX", "ref": "4636800010"}, "type": "Feature"}
{"geometry": {"coordinates": [-87.1920446, 41.593191], "type": "Point"}, "id": "4hNVEwc_bR8M_xfcpmsag-A0Wag=", "properties": {"@spider": "usps_collection_boxes", "addr:city": "PORTAGE", "addr:country": "US", "addr:full": "5757 MELTON RD", "addr:postcode": "46368", "addr:state": "IN", "brand": "USPS", "collection_times": "Mo-Sa 13:00", "name": "USPS COLLECTION BOX - BLUE BOX", "note": "ON 12/24 AND 12/31, THIS BOX MAY BE COLLECTED AS EARLY AS 12 NOON.", "ref": "4636800011"}, "type": "Feature"}
{"geometry": {"coordinates": [-87.1751539, 41.57613], "type": "Point"}, "id": "-jJ1RxATemZHLBZOCwwEinOcapo=", "properties": {"@spider": "usps_collection_boxes", "addr:city": "PORTAGE", "addr:country": "US", "addr:full": "6200 CENTRAL AVE", "addr:postcode": "46368", "addr:state": "IN", "brand": "USPS", "collection_times": "Mo-Sa 13:00", "name": "USPS COLLECTION BOX - BLUE BOX", "note": "ON 12/24 AND 12/31, THIS BOX MAY BE COLLECTED AS EARLY AS 12 NOON.", "ref": "4636800021"}, "type": "Feature"}
{"geometry": {"coordinates": [-87.1817584, 41.557648], "type": "Point"}, "id": "tH2q2HqZALxy3Z1nvNAtOp2z3SQ=", "properties": {"@spider": "usps_collection_boxes", "addr:city": "PORTAGE", "addr:country": "US", "addr:full": "3275 WILLOWCREEK RD", "addr:postcode": "46368", "addr:state": "IN", "brand": "USPS", "collection_times": "Mo-Sa 13:00", "name": "USPS COLLECTION BOX - BLUE BOX", "note": "ON 12/24 AND 12/31, THIS BOX MAY BE COLLECTED AS EARLY AS 12 NOON.", "ref": "4636800026"}, "type": "Feature"}
{"geometry": {"coordinates": [-87.1901949, 41.618247], "type": "Point"}, "id": "zvUtpoldzjDfy61Qmp-v3EYtmgg=", "properties": {"@spider": "usps_collection_boxes", "addr:city": "PORTAGE", "addr:country": "US", "addr:full": "115 HILLCREST RD", "addr:postcode": "46368", "addr:state": "IN", "brand": "USPS", "collection_times": "Mo-Fr 14:00; Sa 13:00", "name": "USPS COLLECTION BOX - BLUE BOX", "note": "ON 12/24 AND 12/31, THIS BOX MAY BE COLLECTED AS EARLY AS 12 NOON.", "ref": "4636800027"}, "type": "Feature"}
{"geometry": {"coordinates": [-87.182974, 41.572023], "type": "Point"}, "id": "IYAKiSk_oAF3AEWcEVem8ntoEYA=", "properties": {"@spider": "usps_collection_boxes", "addr:city": "PORTAGE", "addr:country": "US", "addr:full": "2701 WILLOWCREEK RD", "addr:postcode": "46368", "addr:state": "IN", "brand": "USPS", "collection_times": "Mo-Fr 17:00; Sa 15:30", "name": "USPS COLLECTION BOX - PO LOBBY", "note": "ON 12/24 AND 12/31, THIS BOX MAY BE COLLECTED AS EARLY AS 12 NOON.", "ref": "4636800036"}, "type": "Feature"}
{"geometry": {"coordinates": [-87.182974, 41.572023], "type": "Point"}, "id": "8E67m_YKlWt-Pb3McZSW4XArbCU=", "properties": {"@spider": "usps_collection_boxes", "addr:city": "PORTAGE", "addr:country": "US", "addr:full": "2701 WILLOWCREEK RD", "addr:postcode": "46368", "addr:state": "IN", "brand": "USPS", "collection_times": "Mo-Fr 17:00; Sa 15:30", "name": "USPS COLLECTION BOX - APC", "note": "ON 12/24 AND 12/31, THIS BOX MAY BE COLLECTED AS EARLY AS 12 NOON.", "ref": "4636800043"}, "type": "Feature"}
{"geometry": {"coordinates": [-87.18300626, 41.573384528], "type": "Point"}, "id": "8i-SsD9ng9BwJU3G0c6rPOK4IoM=", "properties": {"@spider": "usps_collection_boxes", "addr:city": "PORTAGE", "addr:country": "US", "addr:full": "2701 WILLOWCREEK RD", "addr:postcode": "46368", "addr:state": "IN", "brand": "USPS", "collection_times": "Mo-Fr 18:00; Sa 16:00", "name": "USPS COLLECTION BOX - PO LOBBY", "note": "ON 12/24 AND 12/31, THIS BOX MAY BE COLLECTED AS EARLY AS 12 NOON.", "ref": "4636800047"}, "type": "Feature"}
{"geometry": {"coordinates": [-86.617046, 41.673876], "type": "Point"}, "id": "iRD7M6QRC3gN6c7TVCqnNZEuy7A=", "properties": {"@spider": "usps_collection_boxes", "addr:city": "ROLLING PRAIRIE", "addr:country": "US", "addr:full": "3 S DEPOT ST", "addr:postcode": "46371", "addr:state": "IN", "brand": "USPS", "collection_times": "Mo-Fr 16:00; Sa 11:30", "name": "USPS COLLECTION BOX - BLUE BOX", "note": "ON 12/24 AND 12/31, THIS BOX MAY BE COLLECTED AS EARLY AS 12 NOON.", "ref": "4637100001"}, "type": "Feature"}
{"geometry": {"coordinates": [-86.6213874, 41.672194], "type": "Point"}, "id": "N6_n4QXJaLBLtDmL_3XII0E-DZw=", "properties": {"@spider": "usps_collection_boxes", "addr:city": "ROLLING PRAIRIE", "addr:country": "US", "addr:full": "4093 E US HIGHWAY 20", "addr:postcode": "46371", "addr:state": "IN", "brand": "USPS", "collection_times": "Mo-Sa 09:00", "name": "USPS COLLECTION BOX - BLUE BOX", "ref": "4637100005"}, "type": "Feature"}
{"geometry": {"coordinates": [-86.617131, 41.67394], "type": "Point"}, "id": "bTz96jPAGn859gGsvWK-ha2JDDM=", "properties": {"@spider": "usps_collection_boxes", "addr:city": "ROLLING PRAIRIE", "addr:country": "US", "addr:full": "3 S DEPOT ST", "addr:postcode": "46371", "addr:state": "IN", "brand": "USPS", "collection_times": "Mo-Fr 16:00; Sa 11:30", "name": "USPS COLLECTION BOX - PO LOBBY", "note": "ON 12/24 AND 12/31, THIS BOX MAY BE COLLECTED AS EARLY AS 12 NOON.", "ref": "4637100007"}, "type": "Feature"}
{"geometry": {"coordinates": [-86.620258221, 41.705698494], "type": "Point"}, "id": "CRI8NeMQ2xvMgh-ackQ-pKBWGUQ=", "properties": {"@spider": "usps_collection_boxes", "addr:city": "ROLLING PRAIRIE", "addr:country": "US", "addr:full": "1 S KNUTE ROCKNE PLZ", "addr:postcode": "46371", "addr:state": "IN", "brand": "USPS", "collection_times": "Mo-Sa 10:00", "name": "USPS COLLECTION BOX - BLUE BOX", "ref": "4637100008"}, "type": "Feature"}
{"geometry": {"coordinates": [-86.623160076, 41.708043016], "type": "Point"}, "id": "hQmpHpZpcvuy2ho3kEyXYdM1cjM=", "properties": {"@spider": "usps_collection_boxes", "addr:city": "ROLLING PRAIRIE", "addr:country": "US", "addr:full": "1 N WILBUR SHAW PLZ", "addr:postcode": "46371", "addr:state": "IN", "brand": "USPS", "collection_times": "Mo-Sa 10:00", "name": "USPS COLLECTION BOX - BLUE BOX", "ref": "4637100009"}, "type": "Feature"}
{"geometry": {"coordinates": [-86.616993539, 41.673784714], "type": "Point"}, "id": "IaZHdZ5IOVle-x07dPGBN9uTlHs=", "properties": {"@spider": "usps_collection_boxes", "addr:city": "ROLLING PRAIRIE", "addr:country": "US", "addr:full": "3 S DEPOT ST", "addr:postcode": "46371", "addr:state": "IN", "brand": "USPS", "collection_times": "Mo-Fr 16:00; Sa 11:30", "name": "USPS COLLECTION BOX - PO LOBBY", "note": "ON 12/24 AND 12/31, THIS BOX MAY BE COLLECTED AS EARLY AS 12 NOON.", "ref": "4637100010"}, "type": "Feature"}
{"geometry": {"coordinates": [-87.1420709, 41.550535], "type": "Point"}, "id": "xdHVyvo_3RausNi469IhYkTO4Vg=", "properties": {"@spider": "usps_collection_boxes", "addr:city": "VALPARAISO", "addr:country": "US", "addr:full": "389 W US HIGHWAY 6", "addr:postcode": "46385", "addr:state": "IN", "brand": "USPS", "collection_times": "Mo-Sa 10:30", "name": "USPS COLLECTION BOX - BLUE BOX", "ref": "4638500007"}, "type": "Feature"}
{"geometry": {"coordinates": [-87.1408805, 41.550065], "type": "Point"}, "id": "p1y4UpiigQACbz6FNfgHbglMsRs=", "properties": {"@spider": "usps_collection_boxes", "addr:city": "VALPARAISO", "addr:country": "US", "addr:full": "390 W US HIGHWAY 6", "addr:postcode": "46385", "addr:state": "IN", "brand": "USPS", "collection_times": "Mo-Sa 11:00", "name": "USPS COLLECTION BOX - BLUE BOX", "ref": "4638500008"}, "type": "Feature"}
{"geometry": {"coordinates": [-86.9004899, 41.542612], "type": "Point"}, "id": "9Yf6odTNZ9jX65NFo8XJVIcTxYA=", "properties": {"@spider": "usps_collection_boxes", "addr:city": "WESTVILLE", "addr:country": "US", "addr:full": "201 PLAIN ST", "addr:postcode": "46391", "addr:state": "IN", "brand": "USPS", "collection_times": "Mo-Fr 16:15; Sa 11:00", "name": "USPS COLLECTION BOX - BLUE BOX", "note": "ON 12/24 AND 12/31, THIS BOX MAY BE COLLECTED AS EARLY AS 12 NOON.", "ref": "4639100001"}, "type": "Feature"}
{"geometry": {"coordinates": [-86.9006899, 41.542642], "type": "Point"}, "id": "ERBS6ylub11HeKzhdL0-woVy91Y=", "properties": {"@spider": "usps_collection_boxes", "addr:city": "WESTVILLE", "addr:country": "US", "addr:full": "201 PLAIN ST", "addr:postcode": "46391", "addr:state": "IN", "brand": "USPS", "collection_times": "Mo-Fr 16:15; Sa 11:00", "name": "USPS COLLECTION BOX - PO LOBBY", "note": "ON 12/24 AND 12/31, THIS BOX MAY BE COLLECTED AS EARLY AS 12 NOON.", "ref": "4639100009"}, "type": "Feature"}
{"geometry": {"coordinates": [-86.900399695, 41.545187162], "type": "Point"}, "id": "hOUaa4un9uj2BCyBtggaSyt0zfg=", "properties": {"@spider": "usps_collection_boxes", "addr:city": "WESTVILLE", "addr:country": "US", "addr:full": "201 PLAIN ST", "addr:postcode": "46391", "addr:state": "IN", "brand": "USPS", "collection_times": "Mo-Fr 16:30; Sa 12:00", "name": "USPS COLLECTION BOX - PO LOBBY", "note": "ON 12/24 AND 12/31, THIS BOX MAY BE COLLECTED AS EARLY AS 12 NOON.", "ref": "4639100012"}, "type": "Feature"}
