{"geometry": {"coordinates": [-87.318109, 41.58758], "type": "Point"}, "id": "7A6aEAF37r1My_dIWy1XGHz0tv0=", "properties": {"@source_uri": "https://tools.usps.com/UspsToolsRestServices/rest/POLocator/findLocations", "@spider": "usps_collection_boxes", "addr:city": "GARY", "addr:country": "US", "addr:postcode": "46401", "addr:state": "IN", "addr:street_address": "1499 MARTIN LUTHER KING DR", "amenity": "post_box", "collection_times": "Mo-Fr 19:00; Sa 18:00", "indoor": "yes", "note": "ON 12/24 AND 12/31, THIS BOX MAY BE COLLECTED AS EARLY AS 12 NOON.", "nsi_id": "unitedstatespostalservice-a77078", "operator": "United States Postal Service", "operator:short": "USPS", "operator:type": "public", "operator:wikidata": "Q668687", "ref": "4640100004"}, "type": "Feature"}
{"geometry": {"coordinates": [-87.318198, 41.587514], "type": "Point"}, "id": "0PY-ZRrRp71N3FrnGss4y5yVOyo=", "properties": {"@source_uri": "https://tools.usps.com/UspsToolsRestServices/rest/POLocator/findLocations", "@spider": "usps_collection_boxes", "addr:city": "GARY", "addr:country": "US", "addr:postcode": "46401", "addr:state": "IN", "addr:street_address": "1499 MARTIN LUTHER KING DR", "amenity": "post_box", "collection_times": "Mo-Fr 19:00; Sa 18:00", "note": "ON 12/24 AND 12/31, THIS BOX MAY BE COLLECTED AS EARLY AS 12 NOON.", "nsi_id": "unitedstatespostalservice-a77078", "operator": "United States Postal Service", "operator:short": "USPS", "operator:type": "public", "operator:wikidata": "Q668687", "ref": "4640100005"}, "type": "Feature"}
{"geometry": {"coordinates": [-87.317608137, 41.588480125], "type": "Point"}, "id": "arCZTveuXUlrBxX7sqWtX2REcXk=", "properties": {"@source_uri": "https://tools.usps.com/UspsToolsRestServices/rest/POLocator/findLocations", "@spider": "usps_collection_boxes", "addr:city": "GARY", "addr:country": "US", "addr:postcode": "46401", "addr:state": "IN", "addr:street_address": "1499 MARTIN LUTHER KING DR", "amenity": "post_box", "collection_times": "Mo-Fr 18:00; Sa 14:00", "indoor": "yes", "note": "ON 12/24 AND 12/31, THIS BOX MAY BE COLLECTED AS EARLY AS 12 NOON.", "nsi_id": "unitedstatespostalservice-a77078", "operator": "United States Postal Service", "operator:short": "USPS", "operator:type": "public", "operator:wikidata": "Q668687", "ref": "4640100007"}, "type": "Feature"}
{"geometry": {"coordinates": [-87.3384231, 41.603568], "type": "Point"}, "id": "km0t2Sil1SftT5JYv_qgwptxPus=", "properties": {"@source_uri": "https://tools.usps.com/UspsToolsRestServices/rest/POLocator/findLocations", "@spider": "usps_collection_boxes", "addr:city": "GARY", "addr:country": "US", "addr:postcode": "46402", "addr:state": "IN", "addr:street_address": "400 BROADWAY", "amenity": "post_box", "collection_times": "Mo-Fr 13:00", "note": "ON 12/24 AND 12/31, THIS BOX MAY BE COLLECTED AS EARLY AS 12 NOON.", "nsi_id": "unitedstatespostalservice-a77078", "operator": "United States Postal Service", "operator:short": "USPS", "operator:type": "public", "operator:wikidata": "Q668687", "ref": "4640200007"}, "type": "Feature"}
{"geometry": {"coordinates": [-87.3372278, 41.601673], "type": "Point"}, "id": "KGb2P3Uck_xouyWDcsMIzEveeLE=", "properties": {"@source_uri": "https://tools.usps.com/UspsToolsRestServices/rest/POLocator/findLocations", "@spider": "usps_collection_boxes", "addr:city": "GARY", "addr:country": "US", "addr:postcode": "46402", "addr:state": "IN", "addr:street_address": "506 BROADWAY", "amenity": "post_box", "collection_times": "Mo-Sa 13:00", "note": "ON 12/24 AND 12/31, THIS BOX MAY BE COLLECTED AS EARLY AS 12 NOON.", "nsi_id": "unitedstatespostalservice-a77078", "operator": "United States Postal Service", "operator:short": "USPS", "operator:type": "public", "operator:wikidata": "Q668687", "ref": "4640200017"}, "type": "Feature"}
{"geometry": {"coordinates": [-87.3370384, 41.603397], "type": "Point"}, "id": "H82gqxVNYyMEwCZyK_vX-3J4_Fk=", "properties": {"@source_uri": "https://tools.usps.com/UspsToolsRestServices/rest/POLocator/findLocations", "@spider": "usps_collection_boxes", "addr:city": "GARY", "addr:country": "US", "addr:postcode": "46402", "addr:state": "IN", "addr:street_address": "401 BROADWAY", "amenity": "post_box", "collection_times": "Mo-Fr 13:00", "note": "ON 12/24 AND 12/31, THIS BOX MAY BE COLLECTED AS EARLY AS 12 NOON.", "nsi_id": "unitedstatespostalservice-a77078", "operator": "United States Postal Service", "operator:short": "USPS", "operator:type": "public", "operator:wikidata": "Q668687", "ref": "4640200025"}, "type": "Feature"}
{"geometry": {"coordinates": [-87.3499999, 41.600894], "type": "Point"}, "id": "XgU-grMbP9yewbc8EHxk7u2fXXA=", "properties": {"@source_uri": "https://tools.usps.com/UspsToolsRestServices/rest/POLocator/findLocations", "@spider": "usps_collection_boxes", "addr:city": "GARY", "addr:country": "US", "addr:postcode": "46402", "addr:state": "IN", "addr:street_address": "555 POLK ST", "amenity": "post_box", "collection_times": "Mo-Sa 14:00", "note": "ON 12/24 AND 12/31, THIS BOX MAY BE COLLECTED AS EARLY AS 12 NOON.", "nsi_id": "unitedstatespostalservice-a77078", "operator": "United States Postal Service", "operator:short": "USPS", "operator:type": "public", "operator:wikidata": "Q668687", "ref": "4640200027"}, "type": "Feature"}
{"geometry": {"coordinates": [-87.266801, 41.60116], "type": "Point"}, "id": "MbNI0-MzeuVhi2GvTRa3xE0T8u4=", "properties": {"@source_uri": "https://tools.usps.com/UspsToolsRestServices/rest/POLocator/findLocations", "@spider": "usps_collection_boxes", "addr:city": "GARY", "addr:country": "US", "addr:postcode": "46403", "addr:state": "IN", "addr:street_address": "518 S HANCOCK ST", "amenity": "post_box", "collection_times": "Mo-Fr 17:00; Sa 12:00", "note": "ON 12/24 AND 12/31, THIS BOX MAY BE COLLECTED AS EARLY AS 12 NOON.", "nsi_id": "unitedstatespostalservice-a77078", "operator": "United States Postal Service", "operator:short": "USPS", "operator:type": "public", "operator:wikidata": "Q668687", "ref": "4640300001"}, "type": "Feature"}
{"geometry": {"coordinates": [-87.2773213, 41.596409], "type": "Point"}, "id": "LyagbI8VyBUIjPjU1m4TL0shHOY=", "properties": {"@source_uri": "https://tools.usps.com/UspsToolsRestServices/rest/POLocator/findLocations", "@spider": "usps_collection_boxes", "addr:city": "GARY", "addr:country": "US", "addr:postcode": "46403", "addr:state": "IN", "addr:street_address": "5001 US HIGHWAY 12", "amenity": "post_box", "collection_times": "Mo-Sa 14:00", "note": "ON 12/24 AND 12/31, THIS BOX MAY BE COLLECTED AS EARLY AS 12 NOON.", "nsi_id": "unitedstatespostalservice-a77078", "operator": "United States Postal Service", "operator:short": "USPS", "operator:type": "public", "operator:wikidata": "Q668687", "ref": "4640300014"}, "type": "Feature"}
{"geometry": {"coordinates": [-87.266801, 41.60116], "type": "Point"}, "id": "WTkEBy8JGMeFIsXcx9n0VwC_y7c=", "properties": {"@source_uri": "https://tools.usps.com/UspsToolsRestServices/rest/POLocator/findLocations", "@spider": "usps_collection_boxes", "addr:city": "GARY", "addr:country": "US", "addr:postcode": "46403", "addr:state": "IN", "addr:street_address": "518 S HANCOCK ST", "amenity": "post_box", "collection_times": "Mo-Fr 17:00; Sa 12:00", "indoor": "yes", "note": "ON 12/24 AND 12/31, THIS BOX MAY BE COLLECTED AS EARLY AS 12 NOON.", "nsi_id": "unitedstatespostalservice-a77078", "operator": "United States Postal Service", "operator:short": "USPS", "operator:type": "public", "operator:wikidata": "Q668687", "ref": "4640300021"}, "type": "Feature"}
{"geometry": {"coordinates": [-87.266603531, 41.601152399], "type": "Point"}, "id": "l7feaxijDaNWxt4etAkvRPA8wy8=", "properties": {"@source_uri": "https://tools.usps.com/UspsToolsRestServices/rest/POLocator/findLocations", "@spider": "usps_collection_boxes", "addr:city": "GARY", "addr:country": "US", "addr:postcode": "46403", "addr:state": "IN", "addr:street_address": "518 S HANCOCK ST", "amenity": "post_box", "collection_times": "Mo-Fr 17:00; Sa 12:00", "indoor": "yes", "note": "ON 12/24 AND 12/31, THIS BOX MAY BE COLLECTED AS EARLY AS 12 NOON.", "nsi_id": "unitedstatespostalservice-a77078", "operator": "United States Postal Service", "operator:short": "USPS", "operator:type": "public", "operator:wikidata": "Q668687", "ref": "4640300025"}, "type": "Feature"}
{"geometry": {"coordinates": [-87.365985, 41.58764], "type": "Point"}, "id": "Ol76Cxv3Mdb4vQnn2wIbNS7IDiQ=", "properties": {"@source_uri": "https://tools.usps.com/UspsToolsRestServices/rest/POLocator/findLocations", "@spider": "usps_collection_boxes", "addr:city": "GARY", "addr:country": "US", "addr:postcode": "46404", "addr:state": "IN", "addr:street_address": "1300 CLARK RD", "amenity": "post_box", "collection_times": "Mo-Sa 14:00", "note": "ON 12/24 AND 12/31, THIS BOX MAY BE COLLECTED AS EARLY AS 12 NOON.", "nsi_id": "unitedstatespostalservice-a77078", "operator": "United States Postal Service", "operator:short": "USPS", "operator:type": "public", "operator:wikidata": "Q668687", "ref": "4640400006"}, "type": "Feature"}
{"geometry": {"coordinates": [-87.365985, 41.58764], "type": "Point"}, "id": "sZTYKmcDP2OE99wLakJpov1LyYA=", "properties": {"@source_uri": "https://tools.usps.com/UspsToolsRestServices/rest/POLocator/findLocations", "@spider": "usps_collection_boxes", "addr:city": "GARY", "addr:country": "US", "addr:postcode": "46404", "addr:state": "IN", "addr:street_address": "2407 W 11TH AVE", "amenity": "post_box", "collection_times": "Mo-Fr 17:00; Sa 12:00", "note": "ON 12/24 AND 12/31, THIS BOX MAY BE COLLECTED AS EARLY AS 12 NOON.", "nsi_id": "unitedstatespostalservice-a77078", "operator": "United States Postal Service", "operator:short": "USPS", "operator:type": "public", "operator:wikidata": "Q668687", "ref": "4640400019"}, "type": "Feature"}
{"geometry": {"coordinates": [-87.367646, 41.591287], "type": "Point"}, "id": "T0xDSRbSzSK-v2uu5dWeTq_KgFU=", "properties": {"@source_uri": "https://tools.usps.com/UspsToolsRestServices/rest/POLocator/findLocations", "@spider": "usps_collection_boxes", "addr:city": "GARY", "addr:country": "US", "addr:postcode": "46404", "addr:state": "IN", "addr:street_address": "2407 W 11TH AVE", "amenity": "post_box", "collection_times": "Mo-Fr 17:00; Sa 12:00", "note": "ON 12/24 AND 12/31, THIS BOX MAY BE COLLECTED AS EARLY AS 12 NOON.", "nsi_id": "unitedstatespostalservice-a77078", "operator": "United States Postal Service", "operator:short": "USPS", "operator:type": "public", "operator:wikidata": "Q668687", "ref": "4640400028"}, "type": "Feature"}
{"geometry": {"coordinates": [-87.3677115, 41.591476521], "type": "Point"}, "id": "Y163uGGcaTcyjSLIF5uVAKcFHOk=", "properties": {"@source_uri": "https://tools.usps.com/UspsToolsRestServices/rest/POLocator/findLocations", "@spider": "usps_collection_boxes", "addr:city": "GARY", "addr:country": "US", "addr:postcode": "46404", "addr:state": "IN", "addr:street_address": "2407 W 11TH AVE", "amenity": "post_box", "collection_times": "Mo-Fr 17:00; Sa 12:00", "indoor": "yes", "note": "ON 12/24 AND 12/31, THIS BOX MAY BE COLLECTED AS EARLY AS 12 NOON.", "nsi_id": "unitedstatespostalservice-a77078", "operator": "United States Postal Service", "operator:short": "USPS", "operator:type": "public", "operator:wikidata": "Q668687", "ref": "4640400029"}, "type": "Feature"}
{"geometry": {"coordinates": [-87.2456406, 41.57365], "type": "Point"}, "id": "M8175Zk5N2PNKwX2ND0csIaqAvQ=", "properties": {"@source_uri": "https://tools.usps.com/UspsToolsRestServices/rest/POLocator/findLocations", "@spider": "usps_collection_boxes", "addr:city": "GARY", "addr:country": "US", "addr:postcode": "46405", "addr:state": "IN", "addr:street_address": "3115 CENTRAL AVE", "amenity": "post_box", "collection_times": "Mo-Sa 13:00", "note": "ON 12/24 AND 12/31, THIS BOX MAY BE COLLECTED AS EARLY AS 12 NOON.", "nsi_id": "unitedstatespostalservice-a77078", "operator": "United States Postal Service", "operator:short": "USPS", "operator:type": "public", "operator:wikidata": "Q668687", "ref": "4640500021"}, "type": "Feature"}
{"geometry": {"coordinates": [-87.2599599, 41.570773], "type": "Point"}, "id": "1L-eJewtgXkzQVaOH_UejFBzyEM=", "properties": {"@source_uri": "https://tools.usps.com/UspsToolsRestServices/rest/POLocator/findLocations", "@spider": "usps_collection_boxes", "addr:city": "GARY", "addr:country": "US", "addr:postcode": "46405", "addr:state": "IN", "addr:street_address": "1969 CENTRAL AVE", "amenity": "post_box", "collection_times": "Mo-Sa 13:00", "note": "ON 12/24 AND 12/31, THIS BOX MAY BE COLLECTED AS EARLY AS 12 NOON.", "nsi_id": "unitedstatespostalservice-a77078", "operator": "United States Postal Service", "operator:short": "USPS", "operator:type": "public", "operator:wikidata": "Q668687", "ref": "4640500025"}, "type": "Feature"}
{"geometry": {"coordinates": [-87.248474, 41.572946], "type": "Point"}, "id": "G9_O0AZGgZqCXtOO8g9jzyzrKpY=", "properties": {"@source_uri": "https://tools.usps.com/UspsToolsRestServices/rest/POLocator/findLocations", "@spider": "usps_collection_boxes", "addr:city": "GARY", "addr:country": "US", "addr:postcode": "46405", "addr:state": "IN", "addr:street_address": "2901 CENTRAL AVE", "amenity": "post_box", "collection_times": "Mo-Fr 17:00; Sa 12:00", "note": "ON 12/24 AND 12/31, THIS BOX MAY BE COLLECTED AS EARLY AS 12 NOON.", "nsi_id": "unitedstatespostalservice-a77078", "operator": "United States Postal Service", "operator:short": "USPS", "operator:type": "public", "operator:wikidata": "Q668687", "ref": "4640500031"}, "type": "Feature"}
{"geometry": {"coordinates": [-87.248474, 41.572946], "type": "Point"}, "id": "dGMpmHpyLpNLnJOTi-PjRD5f5cc=", "properties": {"@source_uri": "https://tools.usps.com/UspsToolsRestServices/rest/POLocator/findLocations", "@spider": "usps_collection_boxes", "addr:city": "GARY", "addr:country": "US", "addr:postcode": "46405", "addr:state": "IN", "addr:street_address": "2901 CENTRAL AVE", "amenity": "post_box", "collection_times": "Mo-Fr 17:00; Sa 12:00", "indoor": "yes", "note": "ON 12/24 AND 12/31, THIS BOX MAY BE COLLECTED AS EARLY AS 12 NOON.", "nsi_id": "unitedstatespostalservice-a77078", "operator": "United States Postal Service", "operator:short": "USPS", "operator:type": "public", "operator:wikidata": "Q668687", "ref": "4640500032"}, "type": "Feature"}
{"geometry": {"coordinates": [-87.24854557, 41.573094875], "type": "Point"}, "id": "3SNH613BwTmxucKXsCdp58VAPrs=", "properties": {"@source_uri": "https://tools.usps.com/UspsToolsRestServices/rest/POLocator/findLocations", "@spider": "usps_collection_boxes", "addr:city": "GARY", "addr:country": "US", "addr:postcode": "46405", "addr:state": "IN", "addr:street_address": "2901 CENTRAL AVE", "amenity": "post_box", "collection_times": "Mo-Fr 17:00; Sa 12:00", "indoor": "yes", "note": "ON 12/24 AND 12/31, THIS BOX MAY BE COLLECTED AS EARLY AS 12 NOON.", "nsi_id": "unitedstatespostalservice-a77078", "operator": "United States Postal Service", "operator:short": "USPS", "operator:type": "public", "operator:wikidata": "Q668687", "ref": "4640500037"}, "type": "Feature"}
{"geometry": {"coordinates": [-87.3928331, 41.600745], "type": "Point"}, "id": "flkAPwvPnumYJlhj7PC_RUDWAeA=", "properties": {"@source_uri": "https://tools.usps.com/UspsToolsRestServices/rest/POLocator/findLocations", "@spider": "usps_collection_boxes", "addr:city": "GARY", "addr:country": "US", "addr:postcode": "46406", "addr:state": "IN", "addr:street_address": "4511 W 5TH AVE", "amenity": "post_box", "collection_times": "Mo-Sa 13:00", "note": "ON 12/24 AND 12/31, THIS BOX MAY BE COLLECTED AS EARLY AS 12 NOON.", "nsi_id": "unitedstatespostalservice-a77078", "operator": "United States Postal Service", "operator:short": "USPS", "operator:type": "public", "operator:wikidata": "Q668687", "ref": "4640600004"}, "type": "Feature"}
{"geometry": {"coordinates": [-87.4039226, 41.573379], "type": "Point"}, "id": "UfPvae-ezGanfyPd_-bC0VfP6nA=", "properties": {"@source_uri": "https://tools.usps.com/UspsToolsRestServices/rest/POLocator/findLocations", "@spider": "usps_collection_boxes", "addr:city": "GARY", "addr:country": "US", "addr:postcode": "46406", "addr:state": "IN", "addr:street_address": "2510 BURR ST", "amenity": "post_box", "collection_times": "Mo-Sa 13:00", "note": "ON 12/24 AND 12/31, THIS BOX MAY BE COLLECTED AS EARLY AS 12 NOON.", "nsi_id": "unitedstatespostalservice-a77078", "operator": "United States Postal Service", "operator:short": "USPS", "operator:type": "public", "operator:wikidata": "Q668687", "ref": "4640600008"}, "type": "Feature"}
{"geometry": {"coordinates": [-87.3371179, 41.588201], "type": "Point"}, "id": "68xfmLcpKdBIbgr1c7zC1SkZ1yw=", "properties": {"@source_uri": "https://tools.usps.com/UspsToolsRestServices/rest/POLocator/findLocations", "@spider": "usps_collection_boxes", "addr:city": "GARY", "addr:country": "US", "addr:postcode": "46407", "addr:state": "IN", "addr:street_address": "1490 BROADWAY", "amenity": "post_box", "collection_times": "Mo-Fr 15:00; Sa 13:00", "note": "ON 12/24 AND 12/31, THIS BOX MAY BE COLLECTED AS EARLY AS 12 NOON.", "nsi_id": "unitedstatespostalservice-a77078", "operator": "United States Postal Service", "operator:short": "USPS", "operator:type": "public", "operator:wikidata": "Q668687", "ref": "4640700014"}, "type": "Feature"}
{"geometry": {"coordinates": [-87.3467563, 41.584026], "type": "Point"}, "id": "PUSEuI1S5rQGIzTj9t1hppCW7F8=", "properties": {"@source_uri": "https://tools.usps.com/UspsToolsRestServices/rest/POLocator/findLocations", "@spider": "usps_collection_boxes", "addr:city": "GARY", "addr:country": "US", "addr:postcode": "46407", "addr:state": "IN", "addr:street_address": "1900 HARRISON ST", "amenity": "post_box", "collection_times": "Mo-Sa 13:00", "note": "ON 12/24 AND 12/31, THIS BOX MAY BE COLLECTED AS EARLY AS 12 NOON.", "nsi_id": "unitedstatespostalservice-a77078", "operator": "United States Postal Service", "operator:short": "USPS", "operator:type": "public", "operator:wikidata": "Q668687", "ref": "4640700019"}, "type": "Feature"}
{"geometry": {"coordinates": [-87.3285012225, 41.5802707879], "type": "Point"}, "id": "KmUaojUzXY4y93pho8RUbk8853M=", "properties": {"@source_uri": "https://tools.usps.com/UspsToolsRestServices/rest/POLocator/findLocations", "@spider": "usps_collection_boxes", "addr:city": "GARY", "addr:country": "US", "addr:postcode": "46407", "addr:state": "IN", "addr:street_address": "2100 CAROLINA ST", "amenity": "post_box", "collection_times": "Mo-Sa 13:00", "note": "ON 12/24 AND 12/31, THIS BOX MAY BE COLLECTED AS EARLY AS 12 NOON.", "nsi_id": "unitedstatespostalservice-a77078", "operator": "United States Postal Service", "operator:short": "USPS", "operator:type": "public", "operator:wikidata": "Q668687", "ref": "4640700020"}, "type": "Feature"}
{"geometry": {"coordinates": [-87.337038363, 41.588070277], "type": "Point"}, "id": "2z7e6qporjWrJ1iN90ybLlme4Jw=", "properties": {"@source_uri": "https://tools.usps.com/UspsToolsRestServices/rest/POLocator/findLocations", "@spider": "usps_collection_boxes", "addr:city": "GARY", "addr:country": "US", "addr:postcode": "46407", "addr:state": "IN", "addr:street_address": "1490 BROADWAY", "amenity": "post_box", "collection_times": "Mo-Fr 15:00", "indoor": "yes", "note": "ON 12/24 AND 12/31, THIS BOX MAY BE COLLECTED AS EARLY AS 12 NOON.", "nsi_id": "unitedstatespostalservice-a77078", "operator": "United States Postal Service", "operator:short": "USPS", "operator:type": "public", "operator:wikidata": "Q668687", "ref": "4640700022"}, "type": "Feature"}
{"geometry": {"coordinates": [-87.360216, 41.546081], "type": "Point"}, "id": "s6wabVC35zGPS84h4G6tmCkQaWU=", "properties": {"@source_uri": "https://tools.usps.com/UspsToolsRestServices/rest/POLocator/findLocations", "@spider": "usps_collection_boxes", "addr:city": "GARY", "addr:country": "US", "addr:postcode": "46408", "addr:state": "IN", "addr:street_address": "3981 CLEVELAND ST", "amenity": "post_box", "collection_times": "Mo-Sa 15:00", "note": "ON 12/24 AND 12/31, THIS BOX MAY BE COLLECTED AS EARLY AS 12 NOON.", "nsi_id": "unitedstatespostalservice-a77078", "operator": "United States Postal Service", "operator:short": "USPS", "operator:type": "public", "operator:wikidata": "Q668687", "ref": "4640800001"}, "type": "Feature"}
{"geometry": {"coordinates": [-87.3366433, 41.5514], "type": "Point"}, "id": "x1LTglXEq3SoI4xMaDDgRUoqa50=", "properties": {"@source_uri": "https://tools.usps.com/UspsToolsRestServices/rest/POLocator/findLocations", "@spider": "usps_collection_boxes", "addr:city": "GARY", "addr:country": "US", "addr:postcode": "46408", "addr:state": "IN", "addr:street_address": "3680 BROADWAY", "amenity": "post_box", "collection_times": "Mo-Sa 15:00", "note": "ON 12/24 AND 12/31, THIS BOX MAY BE COLLECTED AS EARLY AS 12 NOON.", "nsi_id": "unitedstatespostalservice-a77078", "operator": "United States Postal Service", "operator:short": "USPS", "operator:type": "public", "operator:wikidata": "Q668687", "ref": "4640800002"}, "type": "Feature"}
{"geometry": {"coordinates": [-87.3568634, 41.55271], "type": "Point"}, "id": "SCzlxVHSkRO7oxyn1GWQErhKc2o=", "properties": {"@source_uri": "https://tools.usps.com/UspsToolsRestServices/rest/POLocator/findLocations", "@spider": "usps_collection_boxes", "addr:city": "GARY", "addr:country": "US", "addr:postcode": "46408", "addr:state": "IN", "addr:street_address": "3612 VILLAGE CT", "amenity": "post_box", "collection_times": "Mo-Sa 15:00", "note": "ON 12/24 AND 12/31, THIS BOX MAY BE COLLECTED AS EARLY AS 12 NOON.", "nsi_id": "unitedstatespostalservice-a77078", "operator": "United States Postal Service", "operator:short": "USPS", "operator:type": "public", "operator:wikidata": "Q668687", "ref": "4640800003"}, "type": "Feature"}
{"geometry": {"coordinates": [-87.4110580696, 41.5494628185], "type": "Point"}, "id": "82WALHX_r2iFctFUDyZeCnUBwZM=", "properties": {"@source_uri": "https://tools.usps.com/UspsToolsRestServices/rest/POLocator/findLocations", "@spider": "usps_collection_boxes", "addr:city": "GARY", "addr:country": "US", "addr:postcode": "46408", "addr:state": "IN", "addr:street_address": "6030 W RIDGE RD", "amenity": "post_box", "collection_times": "Mo-Sa 14:00", "note": "ON 12/24 AND 12/31, THIS BOX MAY BE COLLECTED AS EARLY AS 12 NOON.", "nsi_id": "unitedstatespostalservice-a77078", "operator": "United States Postal Service", "operator:short": "USPS", "operator:type": "public", "operator:wikidata": "Q668687", "ref": "4640800004"}, "type": "Feature"}
{"geometry": {"coordinates": [-87.3324824168, 41.545865375], "type": "Point"}, "id": "4F9oilrqO1PQPtG9SnsgLImY3j8=", "properties": {"@source_uri": "https://tools.usps.com/UspsToolsRestServices/rest/POLocator/findLocations", "@spider": "usps_collection_boxes", "addr:city": "GARY", "addr:country": "US", "addr:postcode": "46409", "addr:state": "IN", "addr:street_address": "320 E 40TH AVE", "amenity": "post_box", "collection_times": "Mo-Fr 16:45; Sa 12:00", "note": "ON 12/24 AND 12/31, THIS BOX MAY BE COLLECTED AS EARLY AS 12 NOON.", "nsi_id": "unitedstatespostalservice-a77078", "operator": "United States Postal Service", "operator:short": "USPS", "operator:type": "public", "operator:wikidata": "Q668687", "ref": "4640900038"}, "type": "Feature"}
{"geometry": {"coordinates": [-87.3365058, 41.46574], "type": "Point"}, "id": "l-RMJrFt5Y2GC5xmQw_hMDNFXBg=", "properties": {"@source_uri": "https://tools.usps.com/UspsToolsRestServices/rest/POLocator/findLocations", "@spider": "usps_collection_boxes", "addr:city": "GARY", "addr:country": "US", "addr:postcode": "46410", "addr:state": "IN", "addr:street_address": "8310 BROADWAY", "amenity": "post_box", "collection_times": "Mo-Sa 13:00", "note": "ON 12/24 AND 12/31, THIS BOX MAY BE COLLECTED AS EARLY AS 12 NOON.", "nsi_id": "unitedstatespostalservice-a77078", "operator": "United States Postal Service", "operator:short": "USPS", "operator:type": "public", "operator:wikidata": "Q668687", "ref": "4641000005"}, "type": "Feature"}
{"geometry": {"coordinates": [-87.2908686, 41.471524], "type": "Point"}, "id": "EgxS8HVs9oWBWm9zO6qeXManaMI=", "properties": {"@source_uri": "https://tools.usps.com/UspsToolsRestServices/rest/POLocator/findLocations", "@spider": "usps_collection_boxes", "addr:city": "GARY", "addr:country": "US", "addr:postcode": "46410", "addr:state": "IN", "addr:street_address": "3700 E LINCOLN HWY", "amenity": "post_box", "collection_times": "Mo-Sa 13:00", "note": "ON 12/24 AND 12/31, THIS BOX MAY BE COLLECTED AS EARLY AS 12 NOON.", "nsi_id": "unitedstatespostalservice-a77078", "operator": "United States Postal Service", "operator:short": "USPS", "operator:type": "public", "operator:wikidata": "Q668687", "ref": "4641000016"}, "type": "Feature"}
{"geometry": {"coordinates": [-87.3319529, 41.458793], "type": "Point"}, "id": "oP92QoJeWUD1M7l5AHtE5chxUk4=", "properties": {"@source_uri": "https://tools.usps.com/UspsToolsRestServices/rest/POLocator/findLocations", "@spider": "usps_collection_boxes", "addr:city": "GARY", "addr:country": "US", "addr:postcode": "46410", "addr:state": "IN", "addr:street_address": "8701 BROADWAY", "amenity": "post_box", "collection_times": "Mo-Sa 13:00", "note": "ON 12/24 AND 12/31, THIS BOX MAY BE COLLECTED AS EARLY AS 12 NOON.", "nsi_id": "unitedstatespostalservice-a77078", "operator": "United States Postal Service", "operator:short": "USPS", "operator:type": "public", "operator:wikidata": "Q668687", "ref": "4641000024"}, "type": "Feature"}
{"geometry": {"coordinates": [-87.364963304, 41.472243974], "type": "Point"}, "id": "PrBSXi2DalZiuFbZ17IHjl6_5DM=", "properties": {"@source_uri": "https://tools.usps.com/UspsToolsRestServices/rest/POLocator/findLocations", "@spider": "usps_collection_boxes", "addr:city": "GARY", "addr:country": "US", "addr:postcode": "46410", "addr:state": "IN", "addr:street_address": "7915 TAFT ST", "amenity": "post_box", "collection_times": "Mo-Sa 13:00", "note": "ON 12/24 AND 12/31, THIS BOX MAY BE COLLECTED AS EARLY AS 12 NOON.", "nsi_id": "unitedstatespostalservice-a77078", "operator": "United States Postal Service", "operator:short": "USPS", "operator:type": "public", "operator:wikidata": "Q668687", "ref": "4641000026"}, "type": "Feature"}
{"geometry": {"coordinates": [-87.3352974, 41.474715], "type": "Point"}, "id": "FQvR41tpQX1s2VP8uZUXnw-mXUA=", "properties": {"@source_uri": "https://tools.usps.com/UspsToolsRestServices/rest/POLocator/findLocations", "@spider": "usps_collection_boxes", "addr:city": "GARY", "addr:country": "US", "addr:postcode": "46410", "addr:state": "IN", "addr:street_address": "7895 BROADWAY", "amenity": "post_box", "collection_times": "Mo-Sa 13:00", "note": "ON 12/24 AND 12/31, THIS BOX MAY BE COLLECTED AS EARLY AS 12 NOON.", "nsi_id": "unitedstatespostalservice-a77078", "operator": "United States Postal Service", "operator:short": "USPS", "operator:type": "public", "operator:wikidata": "Q668687", "ref": "4641000027"}, "type": "Feature"}
{"geometry": {"coordinates": [-87.3649837766, 41.4867919778], "type": "Point"}, "id": "dyQYBPaqRAZ7OlA8jpFwbec13oA=", "properties": {"@source_uri": "https://tools.usps.com/UspsToolsRestServices/rest/POLocator/findLocations", "@spider": "usps_collection_boxes", "addr:city": "GARY", "addr:country": "US", "addr:postcode": "46410", "addr:state": "IN", "addr:street_address": "7215 TAFT ST", "amenity": "post_box", "collection_times": "Mo-Sa 13:00", "note": "ON 12/24 AND 12/31, THIS BOX MAY BE COLLECTED AS EARLY AS 12 NOON.", "nsi_id": "unitedstatespostalservice-a77078", "operator": "United States Postal Service", "operator:short": "USPS", "operator:type": "public", "operator:wikidata": "Q668687", "ref": "4641000031"}, "type": "Feature"}
{"geometry": {"coordinates": [-87.3386839, 41.505718], "type": "Point"}, "id": "Kv_rgNK_alSNl4tN5qanmePhVo8=", "properties": {"@source_uri": "https://tools.usps.com/UspsToolsRestServices/rest/POLocator/findLocations", "@spider": "usps_collection_boxes", "addr:city": "GARY", "addr:country": "US", "addr:postcode": "46410", "addr:state": "IN", "addr:street_address": "6140 BROADWAY", "amenity": "post_box", "collection_times": "Mo-Sa 13:00", "note": "ON 12/24 AND 12/31, THIS BOX MAY BE COLLECTED AS EARLY AS 12 NOON.", "nsi_id": "unitedstatespostalservice-a77078", "operator": "United States Postal Service", "operator:short": "USPS", "operator:type": "public", "operator:wikidata": "Q668687", "ref": "4641000034"}, "type": "Feature"}
{"geometry": {"coordinates": [-87.3449528, 41.506797], "type": "Point"}, "id": "qiJ17WRim3qeBCgF6W1BUXDv8bM=", "properties": {"@source_uri": "https://tools.usps.com/UspsToolsRestServices/rest/POLocator/findLocations", "@spider": "usps_collection_boxes", "addr:city": "GARY", "addr:country": "US", "addr:postcode": "46410", "addr:state": "IN", "addr:street_address": "6111 HARRISON ST", "amenity": "post_box", "collection_times": "Mo-Sa 13:00", "note": "ON 12/24 AND 12/31, THIS BOX MAY BE COLLECTED AS EARLY AS 12 NOON.", "nsi_id": "unitedstatespostalservice-a77078", "operator": "United States Postal Service", "operator:short": "USPS", "operator:type": "public", "operator:wikidata": "Q668687", "ref": "4641000038"}, "type": "Feature"}
{"geometry": {"coordinates": [-87.341984505, 41.471734441], "type": "Point"}, "id": "Ge7VEVEY_3PVkV14gQi6Id7oTqQ=", "properties": {"@source_uri": "https://tools.usps.com/UspsToolsRestServices/rest/POLocator/findLocations", "@spider": "usps_collection_boxes", "addr:city": "GARY", "addr:country": "US", "addr:postcode": "46410", "addr:state": "IN", "addr:street_address": "500 W LINCOLN HWY", "amenity": "post_box", "collection_times": "Mo-Sa 11:00", "nsi_id": "unitedstatespostalservice-a77078", "operator": "United States Postal Service", "operator:short": "USPS", "operator:type": "public", "operator:wikidata": "Q668687", "ref": "4641000039"}, "type": "Feature"}
{"geometry": {"coordinates": [-87.3844531, 41.476496], "type": "Point"}, "id": "LjdR1kRig1h258GoTmGFJCxfiKY=", "properties": {"@source_uri": "https://tools.usps.com/UspsToolsRestServices/rest/POLocator/findLocations", "@spider": "usps_collection_boxes", "addr:city": "GARY", "addr:country": "US", "addr:postcode": "46410", "addr:state": "IN", "addr:street_address": "7800 WHITCOMB ST", "amenity": "post_box", "collection_times": "Mo-Sa 13:00", "note": "ON 12/24 AND 12/31, THIS BOX MAY BE COLLECTED AS EARLY AS 12 NOON.", "nsi_id": "unitedstatespostalservice-a77078", "operator": "United States Postal Service", "operator:short": "USPS", "operator:type": "public", "operator:wikidata": "Q668687", "ref": "4641000040"}, "type": "Feature"}
{"geometry": {"coordinates": [-87.3371957, 41.520839], "type": "Point"}, "id": "WeVym6ldblUXQhb5DthjebjU01o=", "properties": {"@source_uri": "https://tools.usps.com/UspsToolsRestServices/rest/POLocator/findLocations", "@spider": "usps_collection_boxes", "addr:city": "GARY", "addr:country": "US", "addr:postcode": "46410", "addr:state": "IN", "addr:street_address": "5386 BROADWAY", "amenity": "post_box", "collection_times": "Mo-Sa 13:00", "note": "ON 12/24 AND 12/31, THIS BOX MAY BE COLLECTED AS EARLY AS 12 NOON.", "nsi_id": "unitedstatespostalservice-a77078", "operator": "United States Postal Service", "operator:short": "USPS", "operator:type": "public", "operator:wikidata": "Q668687", "ref": "4641000041"}, "type": "Feature"}
{"geometry": {"coordinates": [-87.3087821, 41.468265], "type": "Point"}, "id": "SaPkatWMQsWCfgApLbM1EDALXxo=", "properties": {"@source_uri": "https://tools.usps.com/UspsToolsRestServices/rest/POLocator/findLocations", "@spider": "usps_collection_boxes", "addr:city": "GARY", "addr:country": "US", "addr:postcode": "46410", "addr:state": "IN", "addr:street_address": "2300 SOUTH LAKE MALL", "amenity": "post_box", "collection_times": "Mo-Sa 13:00", "note": "ON 12/24 AND 12/31, THIS BOX MAY BE COLLECTED AS EARLY AS 12 NOON.", "nsi_id": "unitedstatespostalservice-a77078", "operator": "United States Postal Service", "operator:short": "USPS", "operator:type": "public", "operator:wikidata": "Q668687", "ref": "4641000042"}, "type": "Feature"}
{"geometry": {"coordinates": [-87.3122865, 41.467459], "type": "Point"}, "id": "TTf6vnUDMq4hceiERaHH0Kcz8L0=", "properties": {"@source_uri": "https://tools.usps.com/UspsToolsRestServices/rest/POLocator/findLocations", "@spider": "usps_collection_boxes", "addr:city": "GARY", "addr:country": "US", "addr:postcode": "46410", "addr:state": "IN", "addr:street_address": "1935 SOUTH LAKE MALL", "amenity": "post_box", "collection_times": "Mo-Sa 13:00", "note": "ON 12/24 AND 12/31, THIS BOX MAY BE COLLECTED AS EARLY AS 12 NOON.", "nsi_id": "unitedstatespostalservice-a77078", "operator": "United States Postal Service", "operator:short": "USPS", "operator:type": "public", "operator:wikidata": "Q668687", "ref": "4641000044"}, "type": "Feature"}
{"geometry": {"coordinates": [-87.3118828, 41.468832], "type": "Point"}, "id": "Xcna5TXv9KqylyQtQcjuGxdGp6k=", "properties": {"@source_uri": "https://tools.usps.com/UspsToolsRestServices/rest/POLocator/findLocations", "@spider": "usps_collection_boxes", "addr:city": "GARY", "addr:country": "US", "addr:postcode": "46410", "addr:state": "IN", "addr:street_address": "1890 SOUTH LAKE MALL", "amenity": "post_box", "collection_times": "Mo-Sa 13:00", "note": "ON 12/24 AND 12/31, THIS BOX MAY BE COLLECTED AS EARLY AS 12 NOON.", "nsi_id": "unitedstatespostalservice-a77078", "operator": "United States Postal Service", "operator:short": "USPS", "operator:type": "public", "operator:wikidata": "Q668687", "ref": "4641000045"}, "type": "Feature"}
{"geometry": {"coordinates": [-87.3391200357, 41.4726870002], "type": "Point"}, "id": "pmLlD8f43nfnR2ZCOesNvqXORNs=", "properties": {"@source_uri": "https://tools.usps.com/UspsToolsRestServices/rest/POLocator/findLocations", "@spider": "usps_collection_boxes", "addr:city": "GARY", "addr:country": "US", "addr:postcode": "46410", "addr:state": "IN", "addr:street_address": "303 W 80TH PL", "amenity": "post_box", "collection_times": "Mo-Fr 18:30; Sa 17:00", "note": "ON 12/24 AND 12/31, THIS BOX MAY BE COLLECTED AS EARLY AS 12 NOON.", "nsi_id": "unitedstatespostalservice-a77078", "operator": "United States Postal Service", "operator:short": "USPS", "operator:type": "public", "operator:wikidata": "Q668687", "ref": "4641000048"}, "type": "Feature"}
{"geometry": {"coordinates": [-87.3391200357, 41.4726870002], "type": "Point"}, "id": "hc3riM3zkK2gLSY64c7Td7BaPRs=", "properties": {"@source_uri": "https://tools.usps.com/UspsToolsRestServices/rest/POLocator/findLocations", "@spider": "usps_collection_boxes", "addr:city": "GARY", "addr:country": "US", "addr:postcode": "46410", "addr:state": "IN", "addr:street_address": "303 W 80TH PL", "amenity": "post_box", "collection_times": "Mo-Fr 18:30; Sa 17:00", "note": "ON 12/24 AND 12/31, THIS BOX MAY BE COLLECTED AS EARLY AS 12 NOON.", "nsi_id": "unitedstatespostalservice-a77078", "operator": "United States Postal Service", "operator:short": "USPS", "operator:type": "public", "operator:wikidata": "Q668687", "ref": "4641000049"}, "type": "Feature"}
{"geometry": {"coordinates": [-87.339151, 41.473373], "type": "Point"}, "id": "fX1ZXpF40SwBsl6-JBtVQWQb0OY=", "properties": {"@source_uri": "https://tools.usps.com/UspsToolsRestServices/rest/POLocator/findLocations", "@spider": "usps_collection_boxes", "addr:city": "GARY", "addr:country": "US", "addr:postcode": "46410", "addr:state": "IN", "addr:street_address": "303 W 80TH PL", "amenity": "post_box", "collection_times": "Mo-Fr 18:30; Sa 17:00", "indoor": "yes", "note": "ON 12/24 AND 12/31, THIS BOX MAY BE COLLECTED AS EARLY AS 12 NOON.", "nsi_id": "unitedstatespostalservice-a77078", "operator": "United States Postal Service", "operator:short": "USPS", "operator:type": "public", "operator:wikidata": "Q668687", "ref": "4641000053"}, "type": "Feature"}
{"geometry": {"coordinates": [-87.3298726, 41.462359], "type": "Point"}, "id": "ZLcuSlzb7cwUxYrNNjpyzJgSA5I=", "properties": {"@source_uri": "https://tools.usps.com/UspsToolsRestServices/rest/POLocator/findLocations", "@spider": "usps_collection_boxes", "addr:city": "GARY", "addr:country": "US", "addr:postcode": "46410", "addr:state": "IN", "addr:street_address": "522 E 86TH AVE", "amenity": "post_box", "collection_times": "Mo-Fr 15:00; Sa 13:00", "note": "ON 12/24 AND 12/31, THIS BOX MAY BE COLLECTED AS EARLY AS 12 NOON.", "nsi_id": "unitedstatespostalservice-a77078", "operator": "United States Postal Service", "operator:short": "USPS", "operator:type": "public", "operator:wikidata": "Q668687", "ref": "4641000055"}, "type": "Feature"}
{"geometry": {"coordinates": [-87.3457603791, 41.4708064866], "type": "Point"}, "id": "Vl3rPIoKTODDv8ABolZO3NHREmg=", "properties": {"@source_uri": "https://tools.usps.com/UspsToolsRestServices/rest/POLocator/findLocations", "@spider": "usps_collection_boxes", "addr:city": "GARY", "addr:country": "US", "addr:postcode": "46410", "addr:state": "IN", "addr:street_address": "611 W LINCOLN HWY", "amenity": "post_box", "collection_times": "Mo-Sa 13:00", "note": "ON 12/24 AND 12/31, THIS BOX MAY BE COLLECTED AS EARLY AS 12 NOON.", "nsi_id": "unitedstatespostalservice-a77078", "operator": "United States Postal Service", "operator:short": "USPS", "operator:type": "public", "operator:wikidata": "Q668687", "ref": "4641000061"}, "type": "Feature"}
{"geometry": {"coordinates": [-87.3320519, 41.473426], "type": "Point"}, "id": "RJfjifZynQ3Pj3rTaYP4aQvzxTc=", "properties": {"@source_uri": "https://tools.usps.com/UspsToolsRestServices/rest/POLocator/findLocations", "@spider": "usps_collection_boxes", "addr:city": "GARY", "addr:country": "US", "addr:postcode": "46410", "addr:state": "IN", "addr:street_address": "707 E 80TH PL", "amenity": "post_box", "collection_times": "Mo-Fr 13:00", "note": "ON 12/24 AND 12/31, THIS BOX MAY BE COLLECTED AS EARLY AS 12 NOON.", "nsi_id": "unitedstatespostalservice-a77078", "operator": "United States Postal Service", "operator:short": "USPS", "operator:type": "public", "operator:wikidata": "Q668687", "ref": "4641000065"}, "type": "Feature"}
{"geometry": {"coordinates": [-87.339151, 41.473373], "type": "Point"}, "id": "6fY3JtoM1_m1v5BnRdpfnS4R8eI=", "properties": {"@source_uri": "https://tools.usps.com/UspsToolsRestServices/rest/POLocator/findLocations", "@spider": "usps_collection_boxes", "addr:city": "GARY", "addr:country": "US", "addr:postcode": "46410", "addr:state": "IN", "addr:street_address": "303 W 80TH PL", "amenity": "post_box", "collection_times": "Mo-Fr 18:30; Sa 17:00", "name": "USPS COLLECTION BOX - APC", "note": "ON 12/24 AND 12/31, THIS BOX MAY BE COLLECTED AS EARLY AS 12 NOON.", "nsi_id": "unitedstatespostalservice-a77078", "operator": "United States Postal Service", "operator:short": "USPS", "operator:type": "public", "operator:wikidata": "Q668687", "ref": "4641000066"}, "type": "Feature"}
{"geometry": {"coordinates": [-87.33916053, 41.473357538], "type": "Point"}, "id": "vg_cCRbFUO8EWUpGlQLUWIMhYZU=", "properties": {"@source_uri": "https://tools.usps.com/UspsToolsRestServices/rest/POLocator/findLocations", "@spider": "usps_collection_boxes", "addr:city": "GARY", "addr:country": "US", "addr:postcode": "46410", "addr:state": "IN", "addr:street_address": "303 W 80TH PL", "amenity": "post_box", "collection_times": "Mo-Fr 18:00; Sa 15:00", "indoor": "yes", "note": "ON 12/24 AND 12/31, THIS BOX MAY BE COLLECTED AS EARLY AS 12 NOON.", "nsi_id": "unitedstatespostalservice-a77078", "operator": "United States Postal Service", "operator:short": "USPS", "operator:type": "public", "operator:wikidata": "Q668687", "ref": "4641000077"}, "type": "Feature"}
{"geometry": {"coordinates": [-87.3391605298, 41.4733575384], "type": "Point"}, "id": "atDkjIBeqwIK0HW1iUgF0nJYsBY=", "properties": {"@source_uri": "https://tools.usps.com/UspsToolsRestServices/rest/POLocator/findLocations", "@spider": "usps_collection_boxes", "addr:city": "GARY", "addr:country": "US", "addr:postcode": "46410", "addr:state": "IN", "addr:street_address": "303 W 80TH PL", "amenity": "post_box", "collection_times": "Mo-Fr 18:30; Sa 17:00", "indoor": "yes", "note": "ON 12/24 AND 12/31, THIS BOX MAY BE COLLECTED AS EARLY AS 12 NOON.", "nsi_id": "unitedstatespostalservice-a77078", "operator": "United States Postal Service", "operator:short": "USPS", "operator:type": "public", "operator:wikidata": "Q668687", "ref": "4641000079"}, "type": "Feature"}
