{"geometry": {"coordinates": [-86.508861, 41.705321], "type": "Point"}, "id": "16X0cSUlLbjYSYWkXO5tjusopho=", "properties": {"@spider": "usps_collection_boxes", "addr:city": "NEW CARLISLE", "addr:country": "US", "addr:full": "121 E CHESTNUT ST", "addr:postcode": "46552", "addr:state": "IN", "brand": "USPS", "collection_times": "Mo-Fr 16:45; Sa 10:45", "name": "USPS COLLECTION BOX - BLUE BOX", "note": "ON 12/24 AND 12/31, THIS BOX MAY BE COLLECTED AS EARLY AS 12 NOON.", "ref": "4655200001"}, "type": "Feature"}
{"geometry": {"coordinates": [-86.508926, 41.705286], "type": "Point"}, "id": "muGNLtGcGlty3oeITdCd3CUpj44=", "properties": {"@spider": "usps_collection_boxes", "addr:city": "NEW CARLISLE", "addr:country": "US", "addr:full": "121 E CHESTNUT ST", "addr:postcode": "46552", "addr:state": "IN", "brand": "USPS", "collection_times": "Mo-Fr 16:45; Sa 10:45", "name": "USPS COLLECTION BOX - BLUE BOX", "note": "ON 12/24 AND 12/31, THIS BOX MAY BE COLLECTED AS EARLY AS 12 NOON.", "ref": "4655200002"}, "type": "Feature"}
{"geometry": {"coordinates": [-86.4991446, 41.709104], "type": "Point"}, "id": "Fkxa3cweRuZd83qSs2new2WI9To=", "properties": {"@spider": "usps_collection_boxes", "addr:city": "NEW CARLISLE", "addr:country": "US", "addr:full": "485 E MICHIGAN ST", "addr:postcode": "46552", "addr:state": "IN", "brand": "USPS", "collection_times": "Mo-Sa 11:00", "name": "USPS COLLECTION BOX - BLUE BOX", "ref": "4655200012"}, "type": "Feature"}
{"geometry": {"coordinates": [-86.5256037, 41.703886], "type": "Point"}, "id": "7NjECCwOMcPlpbiGhtDLeIssunA=", "properties": {"@spider": "usps_collection_boxes", "addr:city": "NEW CARLISLE", "addr:country": "US", "addr:full": "8989 E US HIGHWAY 20", "addr:postcode": "46552", "addr:state": "IN", "brand": "USPS", "collection_times": "Mo-Sa 09:00", "name": "USPS COLLECTION BOX - BLUE BOX", "ref": "4655200013"}, "type": "Feature"}
{"geometry": {"coordinates": [-86.508204894, 41.705400435], "type": "Point"}, "id": "4s8qOm2uKLJ_Csr0MVVQBaa4dh4=", "properties": {"@spider": "usps_collection_boxes", "addr:city": "NEW CARLISLE", "addr:country": "US", "addr:full": "121 E CHESTNUT ST", "addr:postcode": "46552", "addr:state": "IN", "brand": "USPS", "collection_times": "Mo-Fr 17:00; Sa 11:00", "name": "USPS COLLECTION BOX - PO LOBBY", "note": "ON 12/24 AND 12/31, THIS BOX MAY BE COLLECTED AS EARLY AS 12 NOON.", "ref": "4655200015"}, "type": "Feature"}
{"geometry": {"coordinates": [-85.580081, 41.677902], "type": "Point"}, "id": "Xuv-Z7R4vFi6BbBCwJa17PKDMKc=", "properties": {"@spider": "usps_collection_boxes", "addr:city": "SHIPSHEWANA", "addr:country": "US", "addr:full": "355 MAIN ST", "addr:postcode": "46565", "addr:state": "IN", "brand": "USPS", "collection_times": "Mo-Fr 16:15; Sa 10:15", "name": "USPS COLLECTION BOX - BLUE BOX", "note": "ON 12/24 AND 12/31, THIS BOX MAY BE COLLECTED AS EARLY AS 12 NOON.", "ref": "4656500001"}, "type": "Feature"}
{"geometry": {"coordinates": [-85.580081, 41.677902], "type": "Point"}, "id": "Rdd9rgaVNXyFLLgbC3gTO1YZCJU=", "properties": {"@spider": "usps_collection_boxes", "addr:city": "SHIPSHEWANA", "addr:country": "US", "addr:full": "355 MAIN ST", "addr:postcode": "46565", "addr:state": "IN", "brand": "USPS", "collection_times": "Mo-Fr 16:15; Sa 10:15", "name": "USPS COLLECTION BOX - BLUE BOX", "note": "ON 12/24 AND 12/31, THIS BOX MAY BE COLLECTED AS EARLY AS 12 NOON.", "ref": "4656500002"}, "type": "Feature"}
{"geometry": {"coordinates": [-85.580081, 41.677902], "type": "Point"}, "id": "rDyL0o8Hauu-EEDVs3Yvg_6O6C4=", "properties": {"@spider": "usps_collection_boxes", "addr:city": "SHIPSHEWANA", "addr:country": "US", "addr:full": "355 MAIN ST", "addr:postcode": "46565", "addr:state": "IN", "brand": "USPS", "collection_times": "Mo-Fr 16:15; Sa 10:15", "name": "USPS COLLECTION BOX - PO LOBBY", "note": "ON 12/24 AND 12/31, THIS BOX MAY BE COLLECTED AS EARLY AS 12 NOON.", "ref": "4656500003"}, "type": "Feature"}
{"geometry": {"coordinates": [-85.5799405, 41.674036], "type": "Point"}, "id": "BAAXa-T-0ixMqMdvbo-FP7XvJt8=", "properties": {"@spider": "usps_collection_boxes", "addr:city": "SHIPSHEWANA", "addr:country": "US", "addr:full": "325 S VAN BUREN ST", "addr:postcode": "46565", "addr:state": "IN", "brand": "USPS", "collection_times": "Mo-Sa 09:30", "name": "USPS COLLECTION BOX - BLUE BOX", "ref": "4656500004"}, "type": "Feature"}
{"geometry": {"coordinates": [-85.577390832, 41.677938525], "type": "Point"}, "id": "E8h-_6Mv-qLqYQ9v5O1wtpT2fws=", "properties": {"@spider": "usps_collection_boxes", "addr:city": "SHIPSHEWANA", "addr:country": "US", "addr:full": "355 MAIN ST", "addr:postcode": "46565", "addr:state": "IN", "brand": "USPS", "collection_times": "Mo-Fr 16:00; Sa 10:00", "name": "USPS COLLECTION BOX - PO LOBBY", "note": "ON 12/24 AND 12/31, THIS BOX MAY BE COLLECTED AS EARLY AS 12 NOON.", "ref": "4656500005"}, "type": "Feature"}
{"geometry": {"coordinates": [-85.538609, 41.53942], "type": "Point"}, "id": "qOxpT_YzRMPKuyVMnSM1S-w9ZVA=", "properties": {"@spider": "usps_collection_boxes", "addr:city": "TOPEKA", "addr:country": "US", "addr:full": "129 E LAKE ST", "addr:postcode": "46571", "addr:state": "IN", "brand": "USPS", "collection_times": "Mo-Fr 15:45; Sa 10:45", "name": "USPS COLLECTION BOX - BLUE BOX", "note": "ON 12/24 AND 12/31, THIS BOX MAY BE COLLECTED AS EARLY AS 12 NOON.", "ref": "4657100000"}, "type": "Feature"}
{"geometry": {"coordinates": [-85.538716, 41.539391], "type": "Point"}, "id": "jMiwHIjr-sL7UkV1vwcR3AVKlO8=", "properties": {"@spider": "usps_collection_boxes", "addr:city": "TOPEKA", "addr:country": "US", "addr:full": "129 E LAKE ST", "addr:postcode": "46571", "addr:state": "IN", "brand": "USPS", "collection_times": "Mo-Fr 15:45; Sa 10:45", "name": "USPS COLLECTION BOX - BLUE BOX", "note": "ON 12/24 AND 12/31, THIS BOX MAY BE COLLECTED AS EARLY AS 12 NOON.", "ref": "4657100001"}, "type": "Feature"}
{"geometry": {"coordinates": [-85.538716, 41.539391], "type": "Point"}, "id": "h5zO8nWtKWovrztvYHYzTGOVE_8=", "properties": {"@spider": "usps_collection_boxes", "addr:city": "TOPEKA", "addr:country": "US", "addr:full": "129 E LAKE ST", "addr:postcode": "46571", "addr:state": "IN", "brand": "USPS", "collection_times": "Mo-Fr 15:45; Sa 10:45", "name": "USPS COLLECTION BOX - PO LOBBY", "note": "ON 12/24 AND 12/31, THIS BOX MAY BE COLLECTED AS EARLY AS 12 NOON.", "ref": "4657100002"}, "type": "Feature"}
{"geometry": {"coordinates": [-85.538322, 41.539433468], "type": "Point"}, "id": "1AS5HQgQYOAcJRu9Zu7tCl2lqmU=", "properties": {"@spider": "usps_collection_boxes", "addr:city": "TOPEKA", "addr:country": "US", "addr:full": "129 E LAKE ST", "addr:postcode": "46571", "addr:state": "IN", "brand": "USPS", "collection_times": "Mo-Fr 16:00; Sa 10:30", "name": "USPS COLLECTION BOX - PO LOBBY", "note": "ON 12/24 AND 12/31, THIS BOX MAY BE COLLECTED AS EARLY AS 12 NOON.", "ref": "4657100003"}, "type": "Feature"}
