{"geometry": {"coordinates": [-86.2447015, 41.672144], "type": "Point"}, "id": "W15O014SdH-Je0mNAXzEhvYHWMU=", "properties": {"@source_uri": "https://tools.usps.com/UspsToolsRestServices/rest/POLocator/findLocations", "@spider": "usps_collection_boxes", "addr:city": "SOUTH BEND", "addr:country": "US", "addr:postcode": "46601", "addr:state": "IN", "addr:street_address": "404 COLUMBIA ST", "amenity": "post_box", "collection_times": "Mo-Fr 15:00", "note": "ON 12/24 AND 12/31, THIS BOX MAY BE COLLECTED AS EARLY AS 12 NOON.", "nsi_id": "unitedstatespostalservice-a77078", "operator": "United States Postal Service", "operator:short": "USPS", "operator:type": "public", "operator:wikidata": "Q668687", "ref": "4660100003"}, "type": "Feature"}
{"geometry": {"coordinates": [-86.2516526, 41.675023], "type": "Point"}, "id": "hPWU2dmbAmyQMMB_etjyIVyUeYk=", "properties": {"@source_uri": "https://tools.usps.com/UspsToolsRestServices/rest/POLocator/findLocations", "@spider": "usps_collection_boxes", "addr:city": "SOUTH BEND", "addr:country": "US", "addr:postcode": "46601", "addr:state": "IN", "addr:street_address": "204 S MAIN ST", "amenity": "post_box", "collection_times": "Mo-Fr 15:00", "note": "ON 12/24 AND 12/31, THIS BOX MAY BE COLLECTED AS EARLY AS 12 NOON.", "nsi_id": "unitedstatespostalservice-a77078", "operator": "United States Postal Service", "operator:short": "USPS", "operator:type": "public", "operator:wikidata": "Q668687", "ref": "4660100005"}, "type": "Feature"}
{"geometry": {"coordinates": [-86.2497131, 41.673126], "type": "Point"}, "id": "tNrAuPZhh9TyH5QyeC1CATn3520=", "properties": {"@source_uri": "https://tools.usps.com/UspsToolsRestServices/rest/POLocator/findLocations", "@spider": "usps_collection_boxes", "addr:city": "SOUTH BEND", "addr:country": "US", "addr:postcode": "46601", "addr:state": "IN", "addr:street_address": "100 E WAYNE ST", "amenity": "post_box", "collection_times": "Mo-Fr 15:00", "note": "ON 12/24 AND 12/31, THIS BOX MAY BE COLLECTED AS EARLY AS 12 NOON.", "nsi_id": "unitedstatespostalservice-a77078", "operator": "United States Postal Service", "operator:short": "USPS", "operator:type": "public", "operator:wikidata": "Q668687", "ref": "4660100010"}, "type": "Feature"}
{"geometry": {"coordinates": [-86.253099, 41.674993], "type": "Point"}, "id": "BRlyUeXf47f_DuScUrToM0vbHl0=", "properties": {"@source_uri": "https://tools.usps.com/UspsToolsRestServices/rest/POLocator/findLocations", "@spider": "usps_collection_boxes", "addr:city": "SOUTH BEND", "addr:country": "US", "addr:postcode": "46601", "addr:state": "IN", "addr:street_address": "224 W JEFFERSON BLVD", "amenity": "post_box", "collection_times": "Mo-Fr 15:00", "note": "ON 12/24 AND 12/31, THIS BOX MAY BE COLLECTED AS EARLY AS 12 NOON.", "nsi_id": "unitedstatespostalservice-a77078", "operator": "United States Postal Service", "operator:short": "USPS", "operator:type": "public", "operator:wikidata": "Q668687", "ref": "4660100035"}, "type": "Feature"}
{"geometry": {"coordinates": [-86.2503508, 41.679351], "type": "Point"}, "id": "TOc420cVrt_oukjhz91BXwRDOS4=", "properties": {"@source_uri": "https://tools.usps.com/UspsToolsRestServices/rest/POLocator/findLocations", "@spider": "usps_collection_boxes", "addr:city": "SOUTH BEND", "addr:country": "US", "addr:postcode": "46601", "addr:state": "IN", "addr:street_address": "300 N MICHIGAN ST", "amenity": "post_box", "collection_times": "Mo-Fr 15:00", "note": "ON 12/24 AND 12/31, THIS BOX MAY BE COLLECTED AS EARLY AS 12 NOON.", "nsi_id": "unitedstatespostalservice-a77078", "operator": "United States Postal Service", "operator:short": "USPS", "operator:type": "public", "operator:wikidata": "Q668687", "ref": "4660100041"}, "type": "Feature"}
{"geometry": {"coordinates": [-86.2497308, 41.675012], "type": "Point"}, "id": "3QN5g6we10FNAGe82AKTc2I6BMo=", "properties": {"@source_uri": "https://tools.usps.com/UspsToolsRestServices/rest/POLocator/findLocations", "@spider": "usps_collection_boxes", "addr:city": "SOUTH BEND", "addr:country": "US", "addr:postcode": "46601", "addr:state": "IN", "addr:street_address": "105 E JEFFERSON BLVD", "amenity": "post_box", "collection_times": "Mo-Fr 15:00", "note": "ON 12/24 AND 12/31, THIS BOX MAY BE COLLECTED AS EARLY AS 12 NOON.", "nsi_id": "unitedstatespostalservice-a77078", "operator": "United States Postal Service", "operator:short": "USPS", "operator:type": "public", "operator:wikidata": "Q668687", "ref": "4660100054"}, "type": "Feature"}
{"geometry": {"coordinates": [-86.2497388, 41.675044], "type": "Point"}, "id": "iVAc3efH8W7Ve2dXrrnyD8icoyc=", "properties": {"@source_uri": "https://tools.usps.com/UspsToolsRestServices/rest/POLocator/findLocations", "@spider": "usps_collection_boxes", "addr:city": "SOUTH BEND", "addr:country": "US", "addr:postcode": "46601", "addr:state": "IN", "addr:street_address": "202 S MICHIGAN ST", "amenity": "post_box", "collection_times": "Mo-Fr 15:00", "note": "ON 12/24 AND 12/31, THIS BOX MAY BE COLLECTED AS EARLY AS 12 NOON.", "nsi_id": "unitedstatespostalservice-a77078", "operator": "United States Postal Service", "operator:short": "USPS", "operator:type": "public", "operator:wikidata": "Q668687", "ref": "4660100059"}, "type": "Feature"}
{"geometry": {"coordinates": [-86.2501555, 41.676472], "type": "Point"}, "id": "sJqPYAE-jPeNWZH5UOBpw9kzd_E=", "properties": {"@source_uri": "https://tools.usps.com/UspsToolsRestServices/rest/POLocator/findLocations", "@spider": "usps_collection_boxes", "addr:city": "SOUTH BEND", "addr:country": "US", "addr:postcode": "46601", "addr:state": "IN", "addr:street_address": "100 N MICHIGAN ST", "amenity": "post_box", "collection_times": "Mo-Fr 15:00", "note": "ON 12/24 AND 12/31, THIS BOX MAY BE COLLECTED AS EARLY AS 12 NOON.", "nsi_id": "unitedstatespostalservice-a77078", "operator": "United States Postal Service", "operator:short": "USPS", "operator:type": "public", "operator:wikidata": "Q668687", "ref": "4660100079"}, "type": "Feature"}
{"geometry": {"coordinates": [-86.2534746, 41.6752], "type": "Point"}, "id": "NZv5sfx8nAT57t2GZxCqXD6t9PA=", "properties": {"@source_uri": "https://tools.usps.com/UspsToolsRestServices/rest/POLocator/findLocations", "@spider": "usps_collection_boxes", "addr:city": "SOUTH BEND", "addr:country": "US", "addr:postcode": "46601", "addr:state": "IN", "addr:street_address": "227 W JEFFERSON BLVD", "amenity": "post_box", "collection_times": "Mo-Fr 15:00", "note": "ON 12/24 AND 12/31, THIS BOX MAY BE COLLECTED AS EARLY AS 12 NOON.", "nsi_id": "unitedstatespostalservice-a77078", "operator": "United States Postal Service", "operator:short": "USPS", "operator:type": "public", "operator:wikidata": "Q668687", "ref": "4660100085"}, "type": "Feature"}
{"geometry": {"coordinates": [-86.24976917, 41.672291306], "type": "Point"}, "id": "QiM-1YRABqQLZIsM199zP9ozr30=", "properties": {"@source_uri": "https://tools.usps.com/UspsToolsRestServices/rest/POLocator/findLocations", "@spider": "usps_collection_boxes", "addr:city": "SOUTH BEND", "addr:country": "US", "addr:postcode": "46601", "addr:state": "IN", "addr:street_address": "424 S MICHIGAN ST", "amenity": "post_box", "collection_times": "Mo-Fr 18:00; Sa 17:00", "indoor": "yes", "note": "ON 12/24 AND 12/31, THIS BOX MAY BE COLLECTED AS EARLY AS 12 NOON.", "nsi_id": "unitedstatespostalservice-a77078", "operator": "United States Postal Service", "operator:short": "USPS", "operator:type": "public", "operator:wikidata": "Q668687", "ref": "4660100091"}, "type": "Feature"}
{"geometry": {"coordinates": [-86.24976917, 41.672291306], "type": "Point"}, "id": "_MdqtibU8QGMJiXYWX2rLthsNxI=", "properties": {"@source_uri": "https://tools.usps.com/UspsToolsRestServices/rest/POLocator/findLocations", "@spider": "usps_collection_boxes", "addr:city": "SOUTH BEND", "addr:country": "US", "addr:postcode": "46601", "addr:state": "IN", "addr:street_address": "424 S MICHIGAN ST", "amenity": "post_box", "collection_times": "Mo-Fr 18:00; Sa 17:00", "note": "ON 12/24 AND 12/31, THIS BOX MAY BE COLLECTED AS EARLY AS 12 NOON.", "nsi_id": "unitedstatespostalservice-a77078", "operator": "United States Postal Service", "operator:short": "USPS", "operator:type": "public", "operator:wikidata": "Q668687", "ref": "4660100092"}, "type": "Feature"}
{"geometry": {"coordinates": [-86.24976917, 41.672291306], "type": "Point"}, "id": "Qmh106BiZNbATkFQK7hiM8qQc6E=", "properties": {"@source_uri": "https://tools.usps.com/UspsToolsRestServices/rest/POLocator/findLocations", "@spider": "usps_collection_boxes", "addr:city": "SOUTH BEND", "addr:country": "US", "addr:postcode": "46601", "addr:state": "IN", "addr:street_address": "424 S MICHIGAN ST", "amenity": "post_box", "collection_times": "Mo-Fr 18:00; Sa 17:00", "note": "ON 12/24 AND 12/31, THIS BOX MAY BE COLLECTED AS EARLY AS 12 NOON.", "nsi_id": "unitedstatespostalservice-a77078", "operator": "United States Postal Service", "operator:short": "USPS", "operator:type": "public", "operator:wikidata": "Q668687", "ref": "4660100094"}, "type": "Feature"}
{"geometry": {"coordinates": [-86.24976917, 41.672291306], "type": "Point"}, "id": "aAIr3Zbyab2eiWd9sAo2peyMq5A=", "properties": {"@source_uri": "https://tools.usps.com/UspsToolsRestServices/rest/POLocator/findLocations", "@spider": "usps_collection_boxes", "addr:city": "SOUTH BEND", "addr:country": "US", "addr:postcode": "46601", "addr:state": "IN", "addr:street_address": "424 S MICHIGAN ST", "amenity": "post_box", "collection_times": "Mo-Fr 18:00; Sa 17:00", "indoor": "yes", "note": "ON 12/24 AND 12/31, THIS BOX MAY BE COLLECTED AS EARLY AS 12 NOON.", "nsi_id": "unitedstatespostalservice-a77078", "operator": "United States Postal Service", "operator:short": "USPS", "operator:type": "public", "operator:wikidata": "Q668687", "ref": "4660100095"}, "type": "Feature"}
{"geometry": {"coordinates": [-86.24976917, 41.672291306], "type": "Point"}, "id": "cHfDO4jMTCOMVtd77ZrzN6Yevss=", "properties": {"@source_uri": "https://tools.usps.com/UspsToolsRestServices/rest/POLocator/findLocations", "@spider": "usps_collection_boxes", "addr:city": "SOUTH BEND", "addr:country": "US", "addr:postcode": "46601", "addr:state": "IN", "addr:street_address": "424 S MICHIGAN ST", "amenity": "post_box", "collection_times": "Mo-Fr 18:00; Sa 17:00", "name": "USPS COLLECTION BOX - APC", "note": "ON 12/24 AND 12/31, THIS BOX MAY BE COLLECTED AS EARLY AS 12 NOON.", "nsi_id": "unitedstatespostalservice-a77078", "operator": "United States Postal Service", "operator:short": "USPS", "operator:type": "public", "operator:wikidata": "Q668687", "ref": "4660100096"}, "type": "Feature"}
{"geometry": {"coordinates": [-86.252802, 41.676322], "type": "Point"}, "id": "T-eyXVR-m83OXND_bLtHrFY_YhI=", "properties": {"@source_uri": "https://tools.usps.com/UspsToolsRestServices/rest/POLocator/findLocations", "@spider": "usps_collection_boxes", "addr:city": "SOUTH BEND", "addr:country": "US", "addr:postcode": "46601", "addr:state": "IN", "addr:street_address": "218 W WASHINGTON ST", "amenity": "post_box", "collection_times": "Mo-Fr 15:00", "note": "ON 12/24 AND 12/31, THIS BOX MAY BE COLLECTED AS EARLY AS 12 NOON.", "nsi_id": "unitedstatespostalservice-a77078", "operator": "United States Postal Service", "operator:short": "USPS", "operator:type": "public", "operator:wikidata": "Q668687", "ref": "4660100097"}, "type": "Feature"}
{"geometry": {"coordinates": [-86.24976917, 41.672291306], "type": "Point"}, "id": "Fa6F5jca4RGUjHaludwI2TTgj5o=", "properties": {"@source_uri": "https://tools.usps.com/UspsToolsRestServices/rest/POLocator/findLocations", "@spider": "usps_collection_boxes", "addr:city": "SOUTH BEND", "addr:country": "US", "addr:postcode": "46601", "addr:state": "IN", "addr:street_address": "424 S MICHIGAN ST", "amenity": "post_box", "collection_times": "Mo-Fr 17:30; Sa 14:00", "indoor": "yes", "note": "ON 12/24 AND 12/31, THIS BOX MAY BE COLLECTED AS EARLY AS 12 NOON.", "nsi_id": "unitedstatespostalservice-a77078", "operator": "United States Postal Service", "operator:short": "USPS", "operator:type": "public", "operator:wikidata": "Q668687", "ref": "4660100098"}, "type": "Feature"}
{"geometry": {"coordinates": [-86.2349857, 41.651369], "type": "Point"}, "id": "c_3FFkpwulGcW_q87RAap0-mb7c=", "properties": {"@source_uri": "https://tools.usps.com/UspsToolsRestServices/rest/POLocator/findLocations", "@spider": "usps_collection_boxes", "addr:city": "SOUTH BEND", "addr:country": "US", "addr:postcode": "46613", "addr:state": "IN", "addr:street_address": "2223 MIAMI ST", "amenity": "post_box", "collection_times": "Mo-Sa 13:15", "note": "ON 12/24 AND 12/31, THIS BOX MAY BE COLLECTED AS EARLY AS 12 NOON.", "nsi_id": "unitedstatespostalservice-a77078", "operator": "United States Postal Service", "operator:short": "USPS", "operator:type": "public", "operator:wikidata": "Q668687", "ref": "4661300008"}, "type": "Feature"}
{"geometry": {"coordinates": [-86.2247334446, 41.6494335004], "type": "Point"}, "id": "Lh2HC7Ol6npUl8FCvagZQJcLPbQ=", "properties": {"@source_uri": "https://tools.usps.com/UspsToolsRestServices/rest/POLocator/findLocations", "@spider": "usps_collection_boxes", "addr:city": "SOUTH BEND", "addr:country": "US", "addr:postcode": "46614", "addr:state": "IN", "addr:street_address": "1515 SOUTHEAST DR", "amenity": "post_box", "collection_times": "Mo-Sa 13:45", "note": "ON 12/24 AND 12/31, THIS BOX MAY BE COLLECTED AS EARLY AS 12 NOON.", "nsi_id": "unitedstatespostalservice-a77078", "operator": "United States Postal Service", "operator:short": "USPS", "operator:type": "public", "operator:wikidata": "Q668687", "ref": "4661400004"}, "type": "Feature"}
{"geometry": {"coordinates": [-86.2187264, 41.629602], "type": "Point"}, "id": "Wh1J0_Xv7zT_85eg7_ZYdmdD6cc=", "properties": {"@source_uri": "https://tools.usps.com/UspsToolsRestServices/rest/POLocator/findLocations", "@spider": "usps_collection_boxes", "addr:city": "SOUTH BEND", "addr:country": "US", "addr:postcode": "46614", "addr:state": "IN", "addr:street_address": "1911 E IRELAND RD", "amenity": "post_box", "collection_times": "Mo-Sa 13:45", "note": "ON 12/24 AND 12/31, THIS BOX MAY BE COLLECTED AS EARLY AS 12 NOON.", "nsi_id": "unitedstatespostalservice-a77078", "operator": "United States Postal Service", "operator:short": "USPS", "operator:type": "public", "operator:wikidata": "Q668687", "ref": "4661400014"}, "type": "Feature"}
{"geometry": {"coordinates": [-86.2376979, 41.627165], "type": "Point"}, "id": "hm7GmDs8Sy7GoWJ338czBlByUVA=", "properties": {"@source_uri": "https://tools.usps.com/UspsToolsRestServices/rest/POLocator/findLocations", "@spider": "usps_collection_boxes", "addr:city": "SOUTH BEND", "addr:country": "US", "addr:postcode": "46614", "addr:state": "IN", "addr:street_address": "924 ERSKINE PLZ", "amenity": "post_box", "collection_times": "Mo-Sa 13:45", "note": "ON 12/24 AND 12/31, THIS BOX MAY BE COLLECTED AS EARLY AS 12 NOON.", "nsi_id": "unitedstatespostalservice-a77078", "operator": "United States Postal Service", "operator:short": "USPS", "operator:type": "public", "operator:wikidata": "Q668687", "ref": "4661400018"}, "type": "Feature"}
{"geometry": {"coordinates": [-86.2527890067, 41.6338430027], "type": "Point"}, "id": "hTr0GvSOdKLrAv4ZmK4s-dHzlxk=", "properties": {"@source_uri": "https://tools.usps.com/UspsToolsRestServices/rest/POLocator/findLocations", "@spider": "usps_collection_boxes", "addr:city": "SOUTH BEND", "addr:country": "US", "addr:postcode": "46614", "addr:state": "IN", "addr:street_address": "4015 S MAIN ST", "amenity": "post_box", "collection_times": "Mo-Fr 17:00; Sa 16:00", "note": "ON 12/24 AND 12/31, THIS BOX MAY BE COLLECTED AS EARLY AS 12 NOON.", "nsi_id": "unitedstatespostalservice-a77078", "operator": "United States Postal Service", "operator:short": "USPS", "operator:type": "public", "operator:wikidata": "Q668687", "ref": "4661400019"}, "type": "Feature"}
{"geometry": {"coordinates": [-86.2522299, 41.634023], "type": "Point"}, "id": "HHcM0FBAbGIczNYRxK_vf-gmGs8=", "properties": {"@source_uri": "https://tools.usps.com/UspsToolsRestServices/rest/POLocator/findLocations", "@spider": "usps_collection_boxes", "addr:city": "SOUTH BEND", "addr:country": "US", "addr:postcode": "46614", "addr:state": "IN", "addr:street_address": "4015 S MAIN ST", "amenity": "post_box", "collection_times": "Mo-Fr 17:00; Sa 16:00", "note": "ON 12/24 AND 12/31, THIS BOX MAY BE COLLECTED AS EARLY AS 12 NOON.", "nsi_id": "unitedstatespostalservice-a77078", "operator": "United States Postal Service", "operator:short": "USPS", "operator:type": "public", "operator:wikidata": "Q668687", "ref": "4661400020"}, "type": "Feature"}
{"geometry": {"coordinates": [-86.2283247, 41.627582], "type": "Point"}, "id": "nHFiJ7xj9lH1cg7QkY3o-KgsEtw=", "properties": {"@source_uri": "https://tools.usps.com/UspsToolsRestServices/rest/POLocator/findLocations", "@spider": "usps_collection_boxes", "addr:city": "SOUTH BEND", "addr:country": "US", "addr:postcode": "46614", "addr:state": "IN", "addr:street_address": "1400 E IRELAND RD", "amenity": "post_box", "collection_times": "Mo-Sa 13:45", "note": "ON 12/24 AND 12/31, THIS BOX MAY BE COLLECTED AS EARLY AS 12 NOON.", "nsi_id": "unitedstatespostalservice-a77078", "operator": "United States Postal Service", "operator:short": "USPS", "operator:type": "public", "operator:wikidata": "Q668687", "ref": "4661400022"}, "type": "Feature"}
{"geometry": {"coordinates": [-86.2527444, 41.633905], "type": "Point"}, "id": "_R2Fw7JK0H2-7PYLU1vQbuZ5iMs=", "properties": {"@source_uri": "https://tools.usps.com/UspsToolsRestServices/rest/POLocator/findLocations", "@spider": "usps_collection_boxes", "addr:city": "SOUTH BEND", "addr:country": "US", "addr:postcode": "46614", "addr:state": "IN", "addr:street_address": "4015 S MAIN ST", "amenity": "post_box", "collection_times": "Mo-Fr 17:00; Sa 16:00", "indoor": "yes", "note": "ON 12/24 AND 12/31, THIS BOX MAY BE COLLECTED AS EARLY AS 12 NOON.", "nsi_id": "unitedstatespostalservice-a77078", "operator": "United States Postal Service", "operator:short": "USPS", "operator:type": "public", "operator:wikidata": "Q668687", "ref": "4661400032"}, "type": "Feature"}
{"geometry": {"coordinates": [-86.2332610163, 41.641877015], "type": "Point"}, "id": "o8BTBSr2ysh5R82Q53-6dq1j8Gg=", "properties": {"@source_uri": "https://tools.usps.com/UspsToolsRestServices/rest/POLocator/findLocations", "@spider": "usps_collection_boxes", "addr:city": "SOUTH BEND", "addr:country": "US", "addr:postcode": "46614", "addr:state": "IN", "addr:street_address": "3012 S TWYCKENHAM DR", "amenity": "post_box", "collection_times": "Mo-Sa 10:00", "nsi_id": "unitedstatespostalservice-a77078", "operator": "United States Postal Service", "operator:short": "USPS", "operator:type": "public", "operator:wikidata": "Q668687", "ref": "4661400035"}, "type": "Feature"}
{"geometry": {"coordinates": [-86.2334953467, 41.6294989426], "type": "Point"}, "id": "FUhIMr3eDGEbmGH8n0_QEzHTDSU=", "properties": {"@source_uri": "https://tools.usps.com/UspsToolsRestServices/rest/POLocator/findLocations", "@spider": "usps_collection_boxes", "addr:city": "SOUTH BEND", "addr:country": "US", "addr:postcode": "46614", "addr:state": "IN", "addr:street_address": "1143 E IRELAND RD", "amenity": "post_box", "collection_times": "Mo-Sa 13:45", "note": "ON 12/24 AND 12/31, THIS BOX MAY BE COLLECTED AS EARLY AS 12 NOON.", "nsi_id": "unitedstatespostalservice-a77078", "operator": "United States Postal Service", "operator:short": "USPS", "operator:type": "public", "operator:wikidata": "Q668687", "ref": "4661400036"}, "type": "Feature"}
{"geometry": {"coordinates": [-86.2072111, 41.636615], "type": "Point"}, "id": "JScaInhQbGJmRIlMNHq89lPYJ2U=", "properties": {"@source_uri": "https://tools.usps.com/UspsToolsRestServices/rest/POLocator/findLocations", "@spider": "usps_collection_boxes", "addr:city": "SOUTH BEND", "addr:country": "US", "addr:postcode": "46614", "addr:state": "IN", "addr:street_address": "4004 IRISH HILLS DR", "amenity": "post_box", "collection_times": "Mo-Sa 13:15", "note": "ON 12/24 AND 12/31, THIS BOX MAY BE COLLECTED AS EARLY AS 12 NOON.", "nsi_id": "unitedstatespostalservice-a77078", "operator": "United States Postal Service", "operator:short": "USPS", "operator:type": "public", "operator:wikidata": "Q668687", "ref": "4661400037"}, "type": "Feature"}
{"geometry": {"coordinates": [-86.2336829, 41.607022], "type": "Point"}, "id": "p-QUCrl7YwzYxLGxwOXKgyabNBs=", "properties": {"@source_uri": "https://tools.usps.com/UspsToolsRestServices/rest/POLocator/findLocations", "@spider": "usps_collection_boxes", "addr:city": "SOUTH BEND", "addr:country": "US", "addr:postcode": "46614", "addr:state": "IN", "addr:street_address": "1150 KERN RD", "amenity": "post_box", "collection_times": "Mo-Sa 10:00", "nsi_id": "unitedstatespostalservice-a77078", "operator": "United States Postal Service", "operator:short": "USPS", "operator:type": "public", "operator:wikidata": "Q668687", "ref": "4661400038"}, "type": "Feature"}
{"geometry": {"coordinates": [-86.2520201129, 41.6337295074], "type": "Point"}, "id": "VsLI0o11-0hvDiimHxfGwnz1SiM=", "properties": {"@source_uri": "https://tools.usps.com/UspsToolsRestServices/rest/POLocator/findLocations", "@spider": "usps_collection_boxes", "addr:city": "SOUTH BEND", "addr:country": "US", "addr:postcode": "46614", "addr:state": "IN", "addr:street_address": "4015 S MAIN ST", "amenity": "post_box", "collection_times": "Mo-Fr 18:00; Sa 16:00", "indoor": "yes", "note": "ON 12/24 AND 12/31, THIS BOX MAY BE COLLECTED AS EARLY AS 12 NOON.", "nsi_id": "unitedstatespostalservice-a77078", "operator": "United States Postal Service", "operator:short": "USPS", "operator:type": "public", "operator:wikidata": "Q668687", "ref": "4661400043"}, "type": "Feature"}
{"geometry": {"coordinates": [-86.2136876, 41.694846], "type": "Point"}, "id": "LhwO_hVtq6qmS6DhfrYdknIrCmc=", "properties": {"@source_uri": "https://tools.usps.com/UspsToolsRestServices/rest/POLocator/findLocations", "@spider": "usps_collection_boxes", "addr:city": "SOUTH BEND", "addr:country": "US", "addr:postcode": "46615", "addr:state": "IN", "addr:street_address": "2417 EDISON RD", "amenity": "post_box", "collection_times": "Mo-Fr 17:00; Sa 16:00", "note": "ON 12/24 AND 12/31, THIS BOX MAY BE COLLECTED AS EARLY AS 12 NOON.", "nsi_id": "unitedstatespostalservice-a77078", "operator": "United States Postal Service", "operator:short": "USPS", "operator:type": "public", "operator:wikidata": "Q668687", "ref": "4661500002"}, "type": "Feature"}
{"geometry": {"coordinates": [-86.21355, 41.694558], "type": "Point"}, "id": "YkKfVMv8vD66LvW16rrQwiYOYiU=", "properties": {"@source_uri": "https://tools.usps.com/UspsToolsRestServices/rest/POLocator/findLocations", "@spider": "usps_collection_boxes", "addr:city": "SOUTH BEND", "addr:country": "US", "addr:postcode": "46615", "addr:state": "IN", "addr:street_address": "2417 EDISON RD", "amenity": "post_box", "collection_times": "Mo-Fr 16:30; Sa 16:00", "indoor": "yes", "note": "ON 12/24 AND 12/31, THIS BOX MAY BE COLLECTED AS EARLY AS 12 NOON.", "nsi_id": "unitedstatespostalservice-a77078", "operator": "United States Postal Service", "operator:short": "USPS", "operator:type": "public", "operator:wikidata": "Q668687", "ref": "4661500003"}, "type": "Feature"}
{"geometry": {"coordinates": [-86.2118865824, 41.6657696367], "type": "Point"}, "id": "kzq29mW9san-UzNXZSnAP6vSbto=", "properties": {"@source_uri": "https://tools.usps.com/UspsToolsRestServices/rest/POLocator/findLocations", "@spider": "usps_collection_boxes", "addr:city": "SOUTH BEND", "addr:country": "US", "addr:postcode": "46615", "addr:state": "IN", "addr:street_address": "2427 MISHAWAKA AVE", "amenity": "post_box", "collection_times": "Mo-Sa 12:30", "note": "ON 12/24 AND 12/31, THIS BOX MAY BE COLLECTED AS EARLY AS 12 NOON.", "nsi_id": "unitedstatespostalservice-a77078", "operator": "United States Postal Service", "operator:short": "USPS", "operator:type": "public", "operator:wikidata": "Q668687", "ref": "4661500007"}, "type": "Feature"}
{"geometry": {"coordinates": [-86.2052893, 41.665638], "type": "Point"}, "id": "GX5RXWvZhoeDrRoxkh1qqxi5Cg8=", "properties": {"@source_uri": "https://tools.usps.com/UspsToolsRestServices/rest/POLocator/findLocations", "@spider": "usps_collection_boxes", "addr:city": "SOUTH BEND", "addr:country": "US", "addr:postcode": "46615", "addr:state": "IN", "addr:street_address": "3002 MISHAWAKA AVE", "amenity": "post_box", "collection_times": "Mo-Sa 08:30", "nsi_id": "unitedstatespostalservice-a77078", "operator": "United States Postal Service", "operator:short": "USPS", "operator:type": "public", "operator:wikidata": "Q668687", "ref": "4661500011"}, "type": "Feature"}
{"geometry": {"coordinates": [-86.2028246382, 41.6748329081], "type": "Point"}, "id": "-by2XenKrX8mDJd-mBj1zMbnZTg=", "properties": {"@source_uri": "https://tools.usps.com/UspsToolsRestServices/rest/POLocator/findLocations", "@spider": "usps_collection_boxes", "addr:city": "SOUTH BEND", "addr:country": "US", "addr:postcode": "46615", "addr:state": "IN", "addr:street_address": "240 RUE DEVILLE STE A", "amenity": "post_box", "collection_times": "Mo-Sa 11:00", "nsi_id": "unitedstatespostalservice-a77078", "operator": "United States Postal Service", "operator:short": "USPS", "operator:type": "public", "operator:wikidata": "Q668687", "ref": "4661500014"}, "type": "Feature"}
{"geometry": {"coordinates": [-86.229458, 41.665755], "type": "Point"}, "id": "1JM3-Rmr-aOug6SsTwhaP_lqW8I=", "properties": {"@source_uri": "https://tools.usps.com/UspsToolsRestServices/rest/POLocator/findLocations", "@spider": "usps_collection_boxes", "addr:city": "SOUTH BEND", "addr:country": "US", "addr:postcode": "46615", "addr:state": "IN", "addr:street_address": "1320 MISHAWAKA AVE", "amenity": "post_box", "collection_times": "Mo-Sa 10:00", "nsi_id": "unitedstatespostalservice-a77078", "operator": "United States Postal Service", "operator:short": "USPS", "operator:type": "public", "operator:wikidata": "Q668687", "ref": "4661500015"}, "type": "Feature"}
{"geometry": {"coordinates": [-86.1971966, 41.689376], "type": "Point"}, "id": "fXtwGhZG-qV6xq8BE3jXVPeaBFY=", "properties": {"@source_uri": "https://tools.usps.com/UspsToolsRestServices/rest/POLocator/findLocations", "@spider": "usps_collection_boxes", "addr:city": "SOUTH BEND", "addr:country": "US", "addr:postcode": "46615", "addr:state": "IN", "addr:street_address": "1001 N HICKORY RD", "amenity": "post_box", "collection_times": "Mo-Sa 15:00", "note": "ON 12/24 AND 12/31, THIS BOX MAY BE COLLECTED AS EARLY AS 12 NOON.", "nsi_id": "unitedstatespostalservice-a77078", "operator": "United States Postal Service", "operator:short": "USPS", "operator:type": "public", "operator:wikidata": "Q668687", "ref": "4661500044"}, "type": "Feature"}
{"geometry": {"coordinates": [-86.2137683, 41.695088], "type": "Point"}, "id": "FOYeRWAtp5oWDyxUh3yitnnsgTY=", "properties": {"@source_uri": "https://tools.usps.com/UspsToolsRestServices/rest/POLocator/findLocations", "@spider": "usps_collection_boxes", "addr:city": "SOUTH BEND", "addr:country": "US", "addr:postcode": "46615", "addr:state": "IN", "addr:street_address": "2417 EDISON RD", "amenity": "post_box", "collection_times": "Mo-Fr 16:30; Sa 16:00", "name": "USPS COLLECTION BOX - APC", "note": "ON 12/24 AND 12/31, THIS BOX MAY BE COLLECTED AS EARLY AS 12 NOON.", "nsi_id": "unitedstatespostalservice-a77078", "operator": "United States Postal Service", "operator:short": "USPS", "operator:type": "public", "operator:wikidata": "Q668687", "ref": "4661500056"}, "type": "Feature"}
{"geometry": {"coordinates": [-86.2135505255, 41.6945555133], "type": "Point"}, "id": "5aq3Eizt4cJSa7HK-keQCJQIIlg=", "properties": {"@source_uri": "https://tools.usps.com/UspsToolsRestServices/rest/POLocator/findLocations", "@spider": "usps_collection_boxes", "addr:city": "SOUTH BEND", "addr:country": "US", "addr:postcode": "46615", "addr:state": "IN", "addr:street_address": "2417 EDISON RD", "amenity": "post_box", "collection_times": "Mo-Fr 18:00; Sa 16:00", "indoor": "yes", "note": "ON 12/24 AND 12/31, THIS BOX MAY BE COLLECTED AS EARLY AS 12 NOON.", "nsi_id": "unitedstatespostalservice-a77078", "operator": "United States Postal Service", "operator:short": "USPS", "operator:type": "public", "operator:wikidata": "Q668687", "ref": "4661500058"}, "type": "Feature"}
{"geometry": {"coordinates": [-86.2615328, 41.697144], "type": "Point"}, "id": "UsCGxLG0jZTMcGDH6Q-AIGgKv_k=", "properties": {"@source_uri": "https://tools.usps.com/UspsToolsRestServices/rest/POLocator/findLocations", "@spider": "usps_collection_boxes", "addr:city": "SOUTH BEND", "addr:country": "US", "addr:postcode": "46616", "addr:state": "IN", "addr:street_address": "1671 RIVERSIDE DR", "amenity": "post_box", "collection_times": "Mo-Sa 09:30", "nsi_id": "unitedstatespostalservice-a77078", "operator": "United States Postal Service", "operator:short": "USPS", "operator:type": "public", "operator:wikidata": "Q668687", "ref": "4661600003"}, "type": "Feature"}
{"geometry": {"coordinates": [-86.2703485, 41.69384], "type": "Point"}, "id": "paj3o62nfzYjrf4O3Qf6fmyB8DU=", "properties": {"@source_uri": "https://tools.usps.com/UspsToolsRestServices/rest/POLocator/findLocations", "@spider": "usps_collection_boxes", "addr:city": "SOUTH BEND", "addr:country": "US", "addr:postcode": "46616", "addr:state": "IN", "addr:street_address": "1355 PORTAGE AVE", "amenity": "post_box", "collection_times": "Mo-Sa 15:00", "note": "ON 12/24 AND 12/31, THIS BOX MAY BE COLLECTED AS EARLY AS 12 NOON.", "nsi_id": "unitedstatespostalservice-a77078", "operator": "United States Postal Service", "operator:short": "USPS", "operator:type": "public", "operator:wikidata": "Q668687", "ref": "4661600004"}, "type": "Feature"}
{"geometry": {"coordinates": [-86.2410814, 41.673815], "type": "Point"}, "id": "1H8-8Z6jOXAAWttR4hlYnVVoQs4=", "properties": {"@source_uri": "https://tools.usps.com/UspsToolsRestServices/rest/POLocator/findLocations", "@spider": "usps_collection_boxes", "addr:city": "SOUTH BEND", "addr:country": "US", "addr:postcode": "46617", "addr:state": "IN", "addr:street_address": "710 E WAYNE ST", "amenity": "post_box", "collection_times": "Mo-Fr 15:00", "note": "ON 12/24 AND 12/31, THIS BOX MAY BE COLLECTED AS EARLY AS 12 NOON.", "nsi_id": "unitedstatespostalservice-a77078", "operator": "United States Postal Service", "operator:short": "USPS", "operator:type": "public", "operator:wikidata": "Q668687", "ref": "4661700010"}, "type": "Feature"}
{"geometry": {"coordinates": [-86.3124821, 41.664672], "type": "Point"}, "id": "LxW1neFw3zUi4j-ABM4a8HS0Qzk=", "properties": {"@source_uri": "https://tools.usps.com/UspsToolsRestServices/rest/POLocator/findLocations", "@spider": "usps_collection_boxes", "addr:city": "SOUTH BEND", "addr:country": "US", "addr:postcode": "46619", "addr:state": "IN", "addr:street_address": "853 S LOMBARDY DR", "amenity": "post_box", "collection_times": "Mo-Sa 09:30", "nsi_id": "unitedstatespostalservice-a77078", "operator": "United States Postal Service", "operator:short": "USPS", "operator:type": "public", "operator:wikidata": "Q668687", "ref": "4661900017"}, "type": "Feature"}
{"geometry": {"coordinates": [-86.3079539, 41.672717], "type": "Point"}, "id": "CrZfTahQOeStAluCUBMARwsWyJw=", "properties": {"@source_uri": "https://tools.usps.com/UspsToolsRestServices/rest/POLocator/findLocations", "@spider": "usps_collection_boxes", "addr:city": "SOUTH BEND", "addr:country": "US", "addr:postcode": "46619", "addr:state": "IN", "addr:street_address": "4401 W WESTERN AVE", "amenity": "post_box", "collection_times": "Mo-Sa 09:00", "nsi_id": "unitedstatespostalservice-a77078", "operator": "United States Postal Service", "operator:short": "USPS", "operator:type": "public", "operator:wikidata": "Q668687", "ref": "4661900019"}, "type": "Feature"}
{"geometry": {"coordinates": [-86.322091, 41.664017], "type": "Point"}, "id": "V-6hVYWvH9m35w5D6RUHcFjoBPY=", "properties": {"@source_uri": "https://tools.usps.com/UspsToolsRestServices/rest/POLocator/findLocations", "@spider": "usps_collection_boxes", "addr:city": "SOUTH BEND", "addr:country": "US", "addr:postcode": "46619", "addr:state": "IN", "addr:street_address": "425 S MAYFLOWER RD", "amenity": "post_box", "collection_times": "Mo-Sa 11:00", "nsi_id": "unitedstatespostalservice-a77078", "operator": "United States Postal Service", "operator:short": "USPS", "operator:type": "public", "operator:wikidata": "Q668687", "ref": "4661900022"}, "type": "Feature"}
{"geometry": {"coordinates": [-86.283311638, 41.675626361], "type": "Point"}, "id": "dqkDEWrHW8Zdh9QEwWTGv0aMeMw=", "properties": {"@source_uri": "https://tools.usps.com/UspsToolsRestServices/rest/POLocator/findLocations", "@spider": "usps_collection_boxes", "addr:city": "SOUTH BEND", "addr:country": "US", "addr:postcode": "46619", "addr:state": "IN", "addr:street_address": "150 S OLIVE ST", "amenity": "post_box", "collection_times": "Mo-Fr 17:00; Sa 12:00", "indoor": "yes", "note": "ON 12/24 AND 12/31, THIS BOX MAY BE COLLECTED AS EARLY AS 12 NOON.", "nsi_id": "unitedstatespostalservice-a77078", "operator": "United States Postal Service", "operator:short": "USPS", "operator:type": "public", "operator:wikidata": "Q668687", "ref": "4661900033"}, "type": "Feature"}
{"geometry": {"coordinates": [-86.283311638, 41.675626361], "type": "Point"}, "id": "mkJqhqKLPhrAD_i8NiD04ecx1bQ=", "properties": {"@source_uri": "https://tools.usps.com/UspsToolsRestServices/rest/POLocator/findLocations", "@spider": "usps_collection_boxes", "addr:city": "SOUTH BEND", "addr:country": "US", "addr:postcode": "46619", "addr:state": "IN", "addr:street_address": "150 S OLIVE ST", "amenity": "post_box", "collection_times": "Mo-Fr 17:00; Sa 16:00", "note": "ON 12/24 AND 12/31, THIS BOX MAY BE COLLECTED AS EARLY AS 12 NOON.", "nsi_id": "unitedstatespostalservice-a77078", "operator": "United States Postal Service", "operator:short": "USPS", "operator:type": "public", "operator:wikidata": "Q668687", "ref": "4661900034"}, "type": "Feature"}
{"geometry": {"coordinates": [-86.2793381, 41.672814], "type": "Point"}, "id": "iMX7zJPskg5nECBPL09vpYttJF0=", "properties": {"@source_uri": "https://tools.usps.com/UspsToolsRestServices/rest/POLocator/findLocations", "@spider": "usps_collection_boxes", "addr:city": "SOUTH BEND", "addr:country": "US", "addr:postcode": "46619", "addr:state": "IN", "addr:street_address": "2019 W WESTERN AVE", "amenity": "post_box", "collection_times": "Mo-Fr 09:00", "nsi_id": "unitedstatespostalservice-a77078", "operator": "United States Postal Service", "operator:short": "USPS", "operator:type": "public", "operator:wikidata": "Q668687", "ref": "4661900041"}, "type": "Feature"}
{"geometry": {"coordinates": [-86.3228407, 41.664899], "type": "Point"}, "id": "7zEi9VytV26TGddMlDtMA7-glJE=", "properties": {"@source_uri": "https://tools.usps.com/UspsToolsRestServices/rest/POLocator/findLocations", "@spider": "usps_collection_boxes", "addr:city": "SOUTH BEND", "addr:country": "US", "addr:postcode": "46619", "addr:state": "IN", "addr:street_address": "56977 MAYFLOWER RD", "amenity": "post_box", "collection_times": "Mo-Sa 09:30", "nsi_id": "unitedstatespostalservice-a77078", "operator": "United States Postal Service", "operator:short": "USPS", "operator:type": "public", "operator:wikidata": "Q668687", "ref": "4661900051"}, "type": "Feature"}
{"geometry": {"coordinates": [-86.3118449, 41.671675], "type": "Point"}, "id": "QBVuIBzfVMvmV05rm6T5HHU4WNA=", "properties": {"@source_uri": "https://tools.usps.com/UspsToolsRestServices/rest/POLocator/findLocations", "@spider": "usps_collection_boxes", "addr:city": "SOUTH BEND", "addr:country": "US", "addr:postcode": "46619", "addr:state": "IN", "addr:street_address": "4606 W WESTERN AVE", "amenity": "post_box", "collection_times": "Mo-Sa 12:00", "nsi_id": "unitedstatespostalservice-a77078", "operator": "United States Postal Service", "operator:short": "USPS", "operator:type": "public", "operator:wikidata": "Q668687", "ref": "4661900061"}, "type": "Feature"}
{"geometry": {"coordinates": [-86.283311638, 41.675626361], "type": "Point"}, "id": "EOP27dsj6LZnz0tjOXSt6VYtF6Y=", "properties": {"@source_uri": "https://tools.usps.com/UspsToolsRestServices/rest/POLocator/findLocations", "@spider": "usps_collection_boxes", "addr:city": "SOUTH BEND", "addr:country": "US", "addr:postcode": "46619", "addr:state": "IN", "addr:street_address": "150 S OLIVE ST", "amenity": "post_box", "collection_times": "Mo-Fr 17:00; Sa 12:00", "indoor": "yes", "note": "ON 12/24 AND 12/31, THIS BOX MAY BE COLLECTED AS EARLY AS 12 NOON.", "nsi_id": "unitedstatespostalservice-a77078", "operator": "United States Postal Service", "operator:short": "USPS", "operator:type": "public", "operator:wikidata": "Q668687", "ref": "4661900071"}, "type": "Feature"}
{"geometry": {"coordinates": [-86.284671, 41.71903], "type": "Point"}, "id": "jNdXmDTTpIr4yBUIb6IFcO8SNKE=", "properties": {"@source_uri": "https://tools.usps.com/UspsToolsRestServices/rest/POLocator/findLocations", "@spider": "usps_collection_boxes", "addr:city": "SOUTH BEND", "addr:country": "US", "addr:postcode": "46628", "addr:state": "IN", "addr:street_address": "2395 FLINT CT", "amenity": "post_box", "collection_times": "Mo-Sa 09:30", "nsi_id": "unitedstatespostalservice-a77078", "operator": "United States Postal Service", "operator:short": "USPS", "operator:type": "public", "operator:wikidata": "Q668687", "ref": "4662800003"}, "type": "Feature"}
{"geometry": {"coordinates": [-86.3231057, 41.727242], "type": "Point"}, "id": "T9wxL5yZkYDuVzSJP4rfOgQBKrU=", "properties": {"@source_uri": "https://tools.usps.com/UspsToolsRestServices/rest/POLocator/findLocations", "@spider": "usps_collection_boxes", "addr:city": "SOUTH BEND", "addr:country": "US", "addr:postcode": "46628", "addr:state": "IN", "addr:street_address": "3900 MOREAU CT", "amenity": "post_box", "collection_times": "Mo-Fr 09:30", "nsi_id": "unitedstatespostalservice-a77078", "operator": "United States Postal Service", "operator:short": "USPS", "operator:type": "public", "operator:wikidata": "Q668687", "ref": "4662800005"}, "type": "Feature"}
{"geometry": {"coordinates": [-86.3425585, 41.735839], "type": "Point"}, "id": "Sp3kNjXoLhh34r3paOYRKsXi8Jg=", "properties": {"@source_uri": "https://tools.usps.com/UspsToolsRestServices/rest/POLocator/findLocations", "@spider": "usps_collection_boxes", "addr:city": "SOUTH BEND", "addr:country": "US", "addr:postcode": "46628", "addr:state": "IN", "addr:street_address": "4402 TECHNOLOGY DR", "amenity": "post_box", "collection_times": "Mo-Fr 09:30", "nsi_id": "unitedstatespostalservice-a77078", "operator": "United States Postal Service", "operator:short": "USPS", "operator:type": "public", "operator:wikidata": "Q668687", "ref": "4662800006"}, "type": "Feature"}
{"geometry": {"coordinates": [-86.287967406, 41.728758169], "type": "Point"}, "id": "Bo7YgJ-vERVfzPRbuQIIVtu8Oe8=", "properties": {"@source_uri": "https://tools.usps.com/UspsToolsRestServices/rest/POLocator/findLocations", "@spider": "usps_collection_boxes", "addr:city": "SOUTH BEND", "addr:country": "US", "addr:postcode": "46628", "addr:state": "IN", "addr:street_address": "2701 APPALOOSA LN", "amenity": "post_box", "collection_times": "Mo-Sa 09:00", "nsi_id": "unitedstatespostalservice-a77078", "operator": "United States Postal Service", "operator:short": "USPS", "operator:type": "public", "operator:wikidata": "Q668687", "ref": "4662800009"}, "type": "Feature"}
{"geometry": {"coordinates": [-86.3057762, 41.695542], "type": "Point"}, "id": "pKIautsE0dI-SOj_GXFm5GxDtEs=", "properties": {"@source_uri": "https://tools.usps.com/UspsToolsRestServices/rest/POLocator/findLocations", "@spider": "usps_collection_boxes", "addr:city": "SOUTH BEND", "addr:country": "US", "addr:postcode": "46628", "addr:state": "IN", "addr:street_address": "4105 LINCOLN WAY W", "amenity": "post_box", "collection_times": "Mo-Fr 11:00", "nsi_id": "unitedstatespostalservice-a77078", "operator": "United States Postal Service", "operator:short": "USPS", "operator:type": "public", "operator:wikidata": "Q668687", "ref": "4662800010"}, "type": "Feature"}
{"geometry": {"coordinates": [-86.2942035, 41.708467], "type": "Point"}, "id": "Q6Y-l6XTR2MNvEkANya8J-9A11w=", "properties": {"@source_uri": "https://tools.usps.com/UspsToolsRestServices/rest/POLocator/findLocations", "@spider": "usps_collection_boxes", "addr:city": "SOUTH BEND", "addr:country": "US", "addr:postcode": "46628", "addr:state": "IN", "addr:street_address": "2301 N BENDIX DR", "amenity": "post_box", "collection_times": "Mo-Fr 12:00", "nsi_id": "unitedstatespostalservice-a77078", "operator": "United States Postal Service", "operator:short": "USPS", "operator:type": "public", "operator:wikidata": "Q668687", "ref": "4662800011"}, "type": "Feature"}
{"geometry": {"coordinates": [-86.3132936, 41.700662], "type": "Point"}, "id": "t03oM4Rsq5J5QNxSv802-GdqVNE=", "properties": {"@source_uri": "https://tools.usps.com/UspsToolsRestServices/rest/POLocator/findLocations", "@spider": "usps_collection_boxes", "addr:city": "SOUTH BEND", "addr:country": "US", "addr:postcode": "46628", "addr:state": "IN", "addr:street_address": "4477 PROGRESS DR", "amenity": "post_box", "collection_times": "Mo-Sa 11:00", "nsi_id": "unitedstatespostalservice-a77078", "operator": "United States Postal Service", "operator:short": "USPS", "operator:type": "public", "operator:wikidata": "Q668687", "ref": "4662800012"}, "type": "Feature"}
{"geometry": {"coordinates": [-86.3007605, 41.728944], "type": "Point"}, "id": "kQ9lAkp4eH39PvwVSSpQV4DFY0I=", "properties": {"@source_uri": "https://tools.usps.com/UspsToolsRestServices/rest/POLocator/findLocations", "@spider": "usps_collection_boxes", "addr:city": "SOUTH BEND", "addr:country": "US", "addr:postcode": "46628", "addr:state": "IN", "addr:street_address": "4300 RALPH JONES CT", "amenity": "post_box", "collection_times": "Mo-Fr 09:30", "nsi_id": "unitedstatespostalservice-a77078", "operator": "United States Postal Service", "operator:short": "USPS", "operator:type": "public", "operator:wikidata": "Q668687", "ref": "4662800013"}, "type": "Feature"}
{"geometry": {"coordinates": [-86.2908591, 41.728406], "type": "Point"}, "id": "Y1rTacx5R2nDC36K7UTvqeWol30=", "properties": {"@source_uri": "https://tools.usps.com/UspsToolsRestServices/rest/POLocator/findLocations", "@spider": "usps_collection_boxes", "addr:city": "SOUTH BEND", "addr:country": "US", "addr:postcode": "46628", "addr:state": "IN", "addr:street_address": "3701 PORTAGE AVE", "amenity": "post_box", "collection_times": "Mo-Sa 10:00", "nsi_id": "unitedstatespostalservice-a77078", "operator": "United States Postal Service", "operator:short": "USPS", "operator:type": "public", "operator:wikidata": "Q668687", "ref": "4662800014"}, "type": "Feature"}
{"geometry": {"coordinates": [-86.216407, 41.699987], "type": "Point"}, "id": "-xtAXCE0fXFPy0fFTGFF4gM6FQ4=", "properties": {"@source_uri": "https://tools.usps.com/UspsToolsRestServices/rest/POLocator/findLocations", "@spider": "usps_collection_boxes", "addr:city": "SOUTH BEND", "addr:country": "US", "addr:postcode": "46635", "addr:state": "IN", "addr:street_address": "2200 S BEND AVE", "amenity": "post_box", "collection_times": "Mo-Fr 16:30; Sa 14:00", "note": "ON 12/24 AND 12/31, THIS BOX MAY BE COLLECTED AS EARLY AS 12 NOON.", "nsi_id": "unitedstatespostalservice-a77078", "operator": "United States Postal Service", "operator:short": "USPS", "operator:type": "public", "operator:wikidata": "Q668687", "ref": "4663500001"}, "type": "Feature"}
{"geometry": {"coordinates": [-86.2033229, 41.711761], "type": "Point"}, "id": "rALn9EvC4cHe1lF9RGfEbEJEAv4=", "properties": {"@source_uri": "https://tools.usps.com/UspsToolsRestServices/rest/POLocator/findLocations", "@spider": "usps_collection_boxes", "addr:city": "SOUTH BEND", "addr:country": "US", "addr:postcode": "46635", "addr:state": "IN", "addr:street_address": "53820 GENERATIONS DR", "amenity": "post_box", "collection_times": "Mo-Sa 15:30", "note": "ON 12/24 AND 12/31, THIS BOX MAY BE COLLECTED AS EARLY AS 12 NOON.", "nsi_id": "unitedstatespostalservice-a77078", "operator": "United States Postal Service", "operator:short": "USPS", "operator:type": "public", "operator:wikidata": "Q668687", "ref": "4663500003"}, "type": "Feature"}
{"geometry": {"coordinates": [-86.2306209683, 41.7337029854], "type": "Point"}, "id": "248AGsH9IOCqcbWRPz7pckm-JyI=", "properties": {"@source_uri": "https://tools.usps.com/UspsToolsRestServices/rest/POLocator/findLocations", "@spider": "usps_collection_boxes", "addr:city": "SOUTH BEND", "addr:country": "US", "addr:postcode": "46637", "addr:state": "IN", "addr:street_address": "52303 EMMONS RD", "amenity": "post_box", "collection_times": "Mo-Sa 11:00", "nsi_id": "unitedstatespostalservice-a77078", "operator": "United States Postal Service", "operator:short": "USPS", "operator:type": "public", "operator:wikidata": "Q668687", "ref": "4663700001"}, "type": "Feature"}
{"geometry": {"coordinates": [-86.2503194, 41.757827], "type": "Point"}, "id": "uOn_qDM8SIUt8tdQ_7SMjeWPSM0=", "properties": {"@source_uri": "https://tools.usps.com/UspsToolsRestServices/rest/POLocator/findLocations", "@spider": "usps_collection_boxes", "addr:city": "SOUTH BEND", "addr:country": "US", "addr:postcode": "46637", "addr:state": "IN", "addr:street_address": "50660 STATE RD 933", "amenity": "post_box", "collection_times": "Mo-Sa 14:30", "note": "ON 12/24 AND 12/31, THIS BOX MAY BE COLLECTED AS EARLY AS 12 NOON.", "nsi_id": "unitedstatespostalservice-a77078", "operator": "United States Postal Service", "operator:short": "USPS", "operator:type": "public", "operator:wikidata": "Q668687", "ref": "4663700002"}, "type": "Feature"}
{"geometry": {"coordinates": [-86.2506439, 41.717861], "type": "Point"}, "id": "tzK69EVW6Oz7F6EnWmI67MpUWj0=", "properties": {"@source_uri": "https://tools.usps.com/UspsToolsRestServices/rest/POLocator/findLocations", "@spider": "usps_collection_boxes", "addr:city": "SOUTH BEND", "addr:country": "US", "addr:postcode": "46637", "addr:state": "IN", "addr:street_address": "227 N DIXIE WAY", "amenity": "post_box", "collection_times": "Mo-Sa 11:00", "nsi_id": "unitedstatespostalservice-a77078", "operator": "United States Postal Service", "operator:short": "USPS", "operator:type": "public", "operator:wikidata": "Q668687", "ref": "4663700004"}, "type": "Feature"}
{"geometry": {"coordinates": [-86.2508094, 41.719521], "type": "Point"}, "id": "SrmE9V_7NQqLgRzVbzyQb4rIKac=", "properties": {"@source_uri": "https://tools.usps.com/UspsToolsRestServices/rest/POLocator/findLocations", "@spider": "usps_collection_boxes", "addr:city": "SOUTH BEND", "addr:country": "US", "addr:postcode": "46637", "addr:state": "IN", "addr:street_address": "325 N DIXIE WAY", "amenity": "post_box", "collection_times": "Mo-Sa 15:00", "note": "ON 12/24 AND 12/31, THIS BOX MAY BE COLLECTED AS EARLY AS 12 NOON.", "nsi_id": "unitedstatespostalservice-a77078", "operator": "United States Postal Service", "operator:short": "USPS", "operator:type": "public", "operator:wikidata": "Q668687", "ref": "4663700006"}, "type": "Feature"}
{"geometry": {"coordinates": [-86.2183673, 41.700617], "type": "Point"}, "id": "qsWFXuk8lgGr3hWjw7MB8CjafN0=", "properties": {"@source_uri": "https://tools.usps.com/UspsToolsRestServices/rest/POLocator/findLocations", "@spider": "usps_collection_boxes", "addr:city": "SOUTH BEND", "addr:country": "US", "addr:postcode": "46637", "addr:state": "IN", "addr:street_address": "2081 S BEND AVE", "amenity": "post_box", "collection_times": "Mo-Sa 11:00", "nsi_id": "unitedstatespostalservice-a77078", "operator": "United States Postal Service", "operator:short": "USPS", "operator:type": "public", "operator:wikidata": "Q668687", "ref": "4663700007"}, "type": "Feature"}
{"geometry": {"coordinates": [-86.2173393, 41.700072], "type": "Point"}, "id": "cY2ti-hMwmw3jqfo4SBVq_--eBc=", "properties": {"@source_uri": "https://tools.usps.com/UspsToolsRestServices/rest/POLocator/findLocations", "@spider": "usps_collection_boxes", "addr:city": "SOUTH BEND", "addr:country": "US", "addr:postcode": "46637", "addr:state": "IN", "addr:street_address": "18111 STATE ROAD 23", "amenity": "post_box", "collection_times": "Mo-Sa 11:00", "nsi_id": "unitedstatespostalservice-a77078", "operator": "United States Postal Service", "operator:short": "USPS", "operator:type": "public", "operator:wikidata": "Q668687", "ref": "4663700009"}, "type": "Feature"}
{"geometry": {"coordinates": [-86.217308361, 41.723549453], "type": "Point"}, "id": "fPfMBnAV4MXKiwcfKswgMk90ST4=", "properties": {"@source_uri": "https://tools.usps.com/UspsToolsRestServices/rest/POLocator/findLocations", "@spider": "usps_collection_boxes", "addr:city": "SOUTH BEND", "addr:country": "US", "addr:postcode": "46637", "addr:state": "IN", "addr:street_address": "18011 CLEVELAND RD", "amenity": "post_box", "collection_times": "Mo-Sa 11:00", "nsi_id": "unitedstatespostalservice-a77078", "operator": "United States Postal Service", "operator:short": "USPS", "operator:type": "public", "operator:wikidata": "Q668687", "ref": "4663700011"}, "type": "Feature"}
{"geometry": {"coordinates": [-86.2497421, 41.730296], "type": "Point"}, "id": "kd8PvyqsPA6XefBPRGMwxKSnSQU=", "properties": {"@source_uri": "https://tools.usps.com/UspsToolsRestServices/rest/POLocator/findLocations", "@spider": "usps_collection_boxes", "addr:city": "SOUTH BEND", "addr:country": "US", "addr:postcode": "46637", "addr:state": "IN", "addr:street_address": "19730 DARDEN RD", "amenity": "post_box", "collection_times": "Mo-Sa 15:00", "note": "ON 12/24 AND 12/31, THIS BOX MAY BE COLLECTED AS EARLY AS 12 NOON.", "nsi_id": "unitedstatespostalservice-a77078", "operator": "United States Postal Service", "operator:short": "USPS", "operator:type": "public", "operator:wikidata": "Q668687", "ref": "4663700012"}, "type": "Feature"}
