{"geometry": {"coordinates": [-85.4914938, 41.33347], "type": "Point"}, "id": "KP6ZXD-CEF1t7UX4AdffIUf4EKI=", "properties": {"@spider": "usps_collection_boxes", "addr:city": "ALBION", "addr:country": "US", "addr:full": "1445 S US 33", "addr:postcode": "46701", "addr:state": "IN", "brand": "USPS", "collection_times": "Mo-Sa 09:30", "name": "USPS COLLECTION BOX - BLUE BOX", "ref": "4670100005"}, "type": "Feature"}
{"geometry": {"coordinates": [-85.602352332, 40.85836854], "type": "Point"}, "id": "bjbOvgcqNR52BpPLuqo0UE6l06E=", "properties": {"@spider": "usps_collection_boxes", "addr:city": "ANDREWS", "addr:country": "US", "addr:full": "55 W JEFFERSON ST", "addr:postcode": "46702", "addr:state": "IN", "brand": "USPS", "collection_times": "Mo-Fr 16:15; Sa 10:45", "name": "USPS COLLECTION BOX - BLUE BOX", "note": "ON 12/24 AND 12/31, THIS BOX MAY BE COLLECTED AS EARLY AS 12 NOON.", "ref": "4670200001"}, "type": "Feature"}
{"geometry": {"coordinates": [-85.602352332, 40.85836854], "type": "Point"}, "id": "UHaiF2SpqkIxVqK_eWyrRzbyMdM=", "properties": {"@spider": "usps_collection_boxes", "addr:city": "ANDREWS", "addr:country": "US", "addr:full": "55 W JEFFERSON ST", "addr:postcode": "46702", "addr:state": "IN", "brand": "USPS", "collection_times": "Mo-Fr 16:15; Sa 10:45", "name": "USPS COLLECTION BOX - PO LOBBY", "note": "ON 12/24 AND 12/31, THIS BOX MAY BE COLLECTED AS EARLY AS 12 NOON.", "ref": "4670200002"}, "type": "Feature"}
{"geometry": {"coordinates": [-85.602352332, 40.85836854], "type": "Point"}, "id": "XA2ukTR3NG6jcDil6guCpR1YWWs=", "properties": {"@spider": "usps_collection_boxes", "addr:city": "ANDREWS", "addr:country": "US", "addr:full": "55 W JEFFERSON ST", "addr:postcode": "46702", "addr:state": "IN", "brand": "USPS", "collection_times": "Mo-Fr 16:30; Sa 11:00", "name": "USPS COLLECTION BOX - PO LOBBY", "note": "ON 12/24 AND 12/31, THIS BOX MAY BE COLLECTED AS EARLY AS 12 NOON.", "ref": "4670200003"}, "type": "Feature"}
{"geometry": {"coordinates": [-85.293717, 41.103827], "type": "Point"}, "id": "Rsjj9DCF-LUOesdbSW_9OyYxz8Q=", "properties": {"@spider": "usps_collection_boxes", "addr:city": "ARCOLA", "addr:country": "US", "addr:full": "11400 ARCOLA RD", "addr:postcode": "46704", "addr:state": "IN", "brand": "USPS", "collection_times": "Mo-Fr 16:45; Sa 09:45", "name": "USPS COLLECTION BOX - BLUE BOX", "note": "ON 12/24 AND 12/31, THIS BOX MAY BE COLLECTED AS EARLY AS 12 NOON.", "ref": "4670400003"}, "type": "Feature"}
{"geometry": {"coordinates": [-85.293459723, 41.103792512], "type": "Point"}, "id": "s2QkP7PoIxyknzjpLhslSoCLDTk=", "properties": {"@spider": "usps_collection_boxes", "addr:city": "ARCOLA", "addr:country": "US", "addr:full": "11400 ARCOLA RD STE B1", "addr:postcode": "46704", "addr:state": "IN", "brand": "USPS", "collection_times": "Mo-Fr 17:00; Sa 10:00", "name": "USPS COLLECTION BOX - PO LOBBY", "note": "ON 12/24 AND 12/31, THIS BOX MAY BE COLLECTED AS EARLY AS 12 NOON.", "ref": "4670400004"}, "type": "Feature"}
{"geometry": {"coordinates": [-85.318854477, 41.230013102], "type": "Point"}, "id": "I-nDSfPBtZMdC-mqTcOrMrCc418=", "properties": {"@spider": "usps_collection_boxes", "addr:city": "CHURUBUSCO", "addr:country": "US", "addr:full": "123 S MAIN ST", "addr:postcode": "46723", "addr:state": "IN", "brand": "USPS", "collection_times": "Mo-Fr 16:30; Sa 11:00", "name": "USPS COLLECTION BOX - BLUE BOX", "note": "ON 12/24 AND 12/31, THIS BOX MAY BE COLLECTED AS EARLY AS 12 NOON.", "ref": "4672300004"}, "type": "Feature"}
{"geometry": {"coordinates": [-85.318854477, 41.230013102], "type": "Point"}, "id": "6D_lo6GziqCOMICqSkf8ugsLvmk=", "properties": {"@spider": "usps_collection_boxes", "addr:city": "CHURUBUSCO", "addr:country": "US", "addr:full": "123 S MAIN ST", "addr:postcode": "46723", "addr:state": "IN", "brand": "USPS", "collection_times": "Mo-Fr 16:30; Sa 11:00", "name": "USPS COLLECTION BOX - PO LOBBY", "note": "ON 12/24 AND 12/31, THIS BOX MAY BE COLLECTED AS EARLY AS 12 NOON.", "ref": "4672300007"}, "type": "Feature"}
{"geometry": {"coordinates": [-85.318854477, 41.230013102], "type": "Point"}, "id": "THpoNjFrFcJq3AeW0dmTebDfeqE=", "properties": {"@spider": "usps_collection_boxes", "addr:city": "CHURUBUSCO", "addr:country": "US", "addr:full": "123 S MAIN ST", "addr:postcode": "46723", "addr:state": "IN", "brand": "USPS", "collection_times": "Mo-Fr 16:30; Sa 11:00", "name": "USPS COLLECTION BOX - PO LOBBY", "note": "ON 12/24 AND 12/31, THIS BOX MAY BE COLLECTED AS EARLY AS 12 NOON.", "ref": "4672300009"}, "type": "Feature"}
{"geometry": {"coordinates": [-85.4974649, 41.170372], "type": "Point"}, "id": "lEnSlJJsPw26ktKoj-PfvjVgtB0=", "properties": {"@spider": "usps_collection_boxes", "addr:city": "COLUMBIA CITY", "addr:country": "US", "addr:full": "402 W PLAZA DR", "addr:postcode": "46725", "addr:state": "IN", "brand": "USPS", "collection_times": "Mo-Sa 09:30", "name": "USPS COLLECTION BOX - BLUE BOX", "ref": "4672500001"}, "type": "Feature"}
{"geometry": {"coordinates": [-85.4818015, 41.171481], "type": "Point"}, "id": "Mhkl-KNP8DSCtYOiPtRw8pIxTC0=", "properties": {"@spider": "usps_collection_boxes", "addr:city": "COLUMBIA CITY", "addr:country": "US", "addr:full": "631 COUNTRY SIDE DR", "addr:postcode": "46725", "addr:state": "IN", "brand": "USPS", "collection_times": "Mo-Sa 09:30", "name": "USPS COLLECTION BOX - BLUE BOX", "ref": "4672500004"}, "type": "Feature"}
{"geometry": {"coordinates": [-85.4920673, 41.167865], "type": "Point"}, "id": "q-PQI71GuraIxzFPmxK88y47raw=", "properties": {"@spider": "usps_collection_boxes", "addr:city": "COLUMBIA CITY", "addr:country": "US", "addr:full": "535 N LINE ST", "addr:postcode": "46725", "addr:state": "IN", "brand": "USPS", "collection_times": "Mo-Sa 10:00", "name": "USPS COLLECTION BOX - BLUE BOX", "ref": "4672500006"}, "type": "Feature"}
{"geometry": {"coordinates": [-85.489897502, 41.157899078], "type": "Point"}, "id": "78GaH4_4MG5XkVCdlanUCWP4yvM=", "properties": {"@spider": "usps_collection_boxes", "addr:city": "COLUMBIA CITY", "addr:country": "US", "addr:full": "115 N CHAUNCEY ST", "addr:postcode": "46725", "addr:state": "IN", "brand": "USPS", "collection_times": "Mo-Sa 17:00", "name": "USPS COLLECTION BOX - BLUE BOX", "note": "ON 12/24 AND 12/31, THIS BOX MAY BE COLLECTED AS EARLY AS 12 NOON.", "ref": "4672500018"}, "type": "Feature"}
{"geometry": {"coordinates": [-85.489897502, 41.157899078], "type": "Point"}, "id": "BPqoDgFV2esv1HyyChed8q9NNvs=", "properties": {"@spider": "usps_collection_boxes", "addr:city": "COLUMBIA CITY", "addr:country": "US", "addr:full": "115 N CHAUNCEY ST", "addr:postcode": "46725", "addr:state": "IN", "brand": "USPS", "collection_times": "Mo-Sa 17:00", "name": "USPS COLLECTION BOX - BLUE BOX", "note": "ON 12/24 AND 12/31, THIS BOX MAY BE COLLECTED AS EARLY AS 12 NOON.", "ref": "4672500019"}, "type": "Feature"}
{"geometry": {"coordinates": [-85.489897502, 41.157899078], "type": "Point"}, "id": "wuGPt2jmaPiYxX7aAdXiltFCjRk=", "properties": {"@spider": "usps_collection_boxes", "addr:city": "COLUMBIA CITY", "addr:country": "US", "addr:full": "115 N CHAUNCEY ST", "addr:postcode": "46725", "addr:state": "IN", "brand": "USPS", "collection_times": "Mo-Sa 17:00", "name": "USPS COLLECTION BOX - BLUE BOX", "note": "ON 12/24 AND 12/31, THIS BOX MAY BE COLLECTED AS EARLY AS 12 NOON.", "ref": "4672500020"}, "type": "Feature"}
{"geometry": {"coordinates": [-85.489897502, 41.157899078], "type": "Point"}, "id": "I4HMo1aLM2LC26K7ajGkoyXZ-MQ=", "properties": {"@spider": "usps_collection_boxes", "addr:city": "COLUMBIA CITY", "addr:country": "US", "addr:full": "115 N CHAUNCEY ST", "addr:postcode": "46725", "addr:state": "IN", "brand": "USPS", "collection_times": "Mo-Sa 17:00", "name": "USPS COLLECTION BOX - BLUE BOX", "note": "ON 12/24 AND 12/31, THIS BOX MAY BE COLLECTED AS EARLY AS 12 NOON.", "ref": "4672500021"}, "type": "Feature"}
{"geometry": {"coordinates": [-85.489897502, 41.157899078], "type": "Point"}, "id": "_XaokHUVbGPR8zJCRLeAUn481Is=", "properties": {"@spider": "usps_collection_boxes", "addr:city": "COLUMBIA CITY", "addr:country": "US", "addr:full": "115 N CHAUNCEY ST", "addr:postcode": "46725", "addr:state": "IN", "brand": "USPS", "collection_times": "Mo-Sa 17:00", "name": "USPS COLLECTION BOX - PO LOBBY", "note": "ON 12/24 AND 12/31, THIS BOX MAY BE COLLECTED AS EARLY AS 12 NOON.", "ref": "4672500022"}, "type": "Feature"}
{"geometry": {"coordinates": [-85.489897502, 41.157899078], "type": "Point"}, "id": "grvUhjztzpEHFJKSMRVLt4F9QTI=", "properties": {"@spider": "usps_collection_boxes", "addr:city": "COLUMBIA CITY", "addr:country": "US", "addr:full": "115 N CHAUNCEY ST", "addr:postcode": "46725", "addr:state": "IN", "brand": "USPS", "collection_times": "Mo-Fr 17:00; Sa 12:00", "name": "USPS COLLECTION BOX - PO LOBBY", "note": "ON 12/24 AND 12/31, THIS BOX MAY BE COLLECTED AS EARLY AS 12 NOON.", "ref": "4672500026"}, "type": "Feature"}
{"geometry": {"coordinates": [-85.421682639, 41.720285496], "type": "Point"}, "id": "wuHXj77kxxutHLu3NObXuQvKyfA=", "properties": {"@spider": "usps_collection_boxes", "addr:city": "HOWE", "addr:country": "US", "addr:full": "404 DEFIANCE ST", "addr:postcode": "46746", "addr:state": "IN", "brand": "USPS", "collection_times": "Mo-Fr 16:00; Sa 11:00", "name": "USPS COLLECTION BOX - BLUE BOX", "note": "ON 12/24 AND 12/31, THIS BOX MAY BE COLLECTED AS EARLY AS 12 NOON.", "ref": "4674600001"}, "type": "Feature"}
{"geometry": {"coordinates": [-85.421682639, 41.720285496], "type": "Point"}, "id": "Pf-CUDzUAdW1fV1L0WDFjBiWFU4=", "properties": {"@spider": "usps_collection_boxes", "addr:city": "HOWE", "addr:country": "US", "addr:full": "404 DEFIANCE ST", "addr:postcode": "46746", "addr:state": "IN", "brand": "USPS", "collection_times": "Mo-Fr 16:15; Sa 11:00", "name": "USPS COLLECTION BOX - PO LOBBY", "note": "ON 12/24 AND 12/31, THIS BOX MAY BE COLLECTED AS EARLY AS 12 NOON.", "ref": "4674600004"}, "type": "Feature"}
{"geometry": {"coordinates": [-85.421682639, 41.720285496], "type": "Point"}, "id": "J5-MSjLxRika-asUEfxxQcStwjI=", "properties": {"@spider": "usps_collection_boxes", "addr:city": "HOWE", "addr:country": "US", "addr:full": "404 DEFIANCE ST", "addr:postcode": "46746", "addr:state": "IN", "brand": "USPS", "collection_times": "Mo-Fr 16:00; Sa 11:00", "name": "USPS COLLECTION BOX - PO LOBBY", "note": "ON 12/24 AND 12/31, THIS BOX MAY BE COLLECTED AS EARLY AS 12 NOON.", "ref": "4674600005"}, "type": "Feature"}
{"geometry": {"coordinates": [-85.497198497, 40.880711229], "type": "Point"}, "id": "Aui-iPv-gDQ_uayIzLak5auDZ-g=", "properties": {"@spider": "usps_collection_boxes", "addr:city": "HUNTINGTON", "addr:country": "US", "addr:full": "330 W MARKET ST", "addr:postcode": "46750", "addr:state": "IN", "brand": "USPS", "collection_times": "Mo-Fr 17:00; Sa 16:45", "name": "USPS COLLECTION BOX - PO LOBBY", "note": "ON 12/24 AND 12/31, THIS BOX MAY BE COLLECTED AS EARLY AS 12 NOON.", "ref": "4675000001"}, "type": "Feature"}
{"geometry": {"coordinates": [-85.497198497, 40.880711229], "type": "Point"}, "id": "n7G0gCneciVDdmH1ecnkWAvf-1s=", "properties": {"@spider": "usps_collection_boxes", "addr:city": "HUNTINGTON", "addr:country": "US", "addr:full": "330 W MARKET ST", "addr:postcode": "46750", "addr:state": "IN", "brand": "USPS", "collection_times": "Mo-Fr 17:00; Sa 16:45", "name": "USPS COLLECTION BOX - BLUE BOX", "note": "ON 12/24 AND 12/31, THIS BOX MAY BE COLLECTED AS EARLY AS 12 NOON.", "ref": "4675000003"}, "type": "Feature"}
{"geometry": {"coordinates": [-85.4933129, 40.881799], "type": "Point"}, "id": "ZI4Xp6zJ-amTTqHzVa20JiFx9oM=", "properties": {"@spider": "usps_collection_boxes", "addr:city": "HUNTINGTON", "addr:country": "US", "addr:full": "48 E FRANKLIN ST", "addr:postcode": "46750", "addr:state": "IN", "brand": "USPS", "collection_times": "Mo-Sa 13:00", "name": "USPS COLLECTION BOX - BLUE BOX", "note": "ON 12/24 AND 12/31, THIS BOX MAY BE COLLECTED AS EARLY AS 12 NOON.", "ref": "4675000005"}, "type": "Feature"}
{"geometry": {"coordinates": [-85.5070894, 40.892561], "type": "Point"}, "id": "MXAwxRZji0OLyOl_qIRCgYx9Wds=", "properties": {"@spider": "usps_collection_boxes", "addr:city": "HUNTINGTON", "addr:country": "US", "addr:full": "2028 N JEFFERSON ST", "addr:postcode": "46750", "addr:state": "IN", "brand": "USPS", "collection_times": "Mo-Sa 10:00", "name": "USPS COLLECTION BOX - BLUE BOX", "ref": "4675000007"}, "type": "Feature"}
{"geometry": {"coordinates": [-85.4831571, 40.871946], "type": "Point"}, "id": "zo2R7Gc0_u9Z9JaO_Uzkeghv3_g=", "properties": {"@spider": "usps_collection_boxes", "addr:city": "HUNTINGTON", "addr:country": "US", "addr:full": "1229 S JEFFERSON ST", "addr:postcode": "46750", "addr:state": "IN", "brand": "USPS", "collection_times": "Mo-Sa 09:30", "name": "USPS COLLECTION BOX - BLUE BOX", "ref": "4675000008"}, "type": "Feature"}
{"geometry": {"coordinates": [-85.4931007, 40.881361], "type": "Point"}, "id": "G-XDlJsEsxEPloLkVcrCCQBjCpw=", "properties": {"@spider": "usps_collection_boxes", "addr:city": "HUNTINGTON", "addr:country": "US", "addr:full": "201 N JEFFERSON ST", "addr:postcode": "46750", "addr:state": "IN", "brand": "USPS", "collection_times": "Mo-Sa 09:30", "name": "USPS COLLECTION BOX - BLUE BOX", "ref": "4675000012"}, "type": "Feature"}
{"geometry": {"coordinates": [-85.4968149, 40.897013], "type": "Point"}, "id": "loYRMHAbBWFjgBOaSDWLeWLhIgg=", "properties": {"@spider": "usps_collection_boxes", "addr:city": "HUNTINGTON", "addr:country": "US", "addr:full": "2100 COLLEGE AVE", "addr:postcode": "46750", "addr:state": "IN", "brand": "USPS", "collection_times": "Mo-Sa 10:00", "name": "USPS COLLECTION BOX - BLUE BOX", "ref": "4675000013"}, "type": "Feature"}
{"geometry": {"coordinates": [-85.497198497, 40.880711229], "type": "Point"}, "id": "4WOOaB3fn6IW6gW9eK5YedYzR-g=", "properties": {"@spider": "usps_collection_boxes", "addr:city": "HUNTINGTON", "addr:country": "US", "addr:full": "330 W MARKET ST", "addr:postcode": "46750", "addr:state": "IN", "brand": "USPS", "collection_times": "Mo-Fr 17:00; Sa 12:00", "name": "USPS COLLECTION BOX - PO LOBBY", "note": "ON 12/24 AND 12/31, THIS BOX MAY BE COLLECTED AS EARLY AS 12 NOON.", "ref": "4675000019"}, "type": "Feature"}
{"geometry": {"coordinates": [-85.421289, 41.63552], "type": "Point"}, "id": "P4q6pgkNr7nERM3cJnsKbmqAjx0=", "properties": {"@spider": "usps_collection_boxes", "addr:city": "LAGRANGE", "addr:country": "US", "addr:full": "215 W SOUTH ST", "addr:postcode": "46761", "addr:state": "IN", "brand": "USPS", "collection_times": "Mo-Sa 09:30", "name": "USPS COLLECTION BOX - BLUE BOX", "ref": "4676100001"}, "type": "Feature"}
{"geometry": {"coordinates": [-85.417959717, 41.641847717], "type": "Point"}, "id": "b3v37vKjF60Y6HaIg4JhmUpV2fU=", "properties": {"@spider": "usps_collection_boxes", "addr:city": "LAGRANGE", "addr:country": "US", "addr:full": "300 S DETROIT ST", "addr:postcode": "46761", "addr:state": "IN", "brand": "USPS", "collection_times": "Mo-Sa 16:30", "name": "USPS COLLECTION BOX - BLUE BOX", "note": "ON 12/24 AND 12/31, THIS BOX MAY BE COLLECTED AS EARLY AS 12 NOON.", "ref": "4676100003"}, "type": "Feature"}
{"geometry": {"coordinates": [-85.417959717, 41.641847717], "type": "Point"}, "id": "mrr41N1GaNuwuxQ5mJR0d2197nU=", "properties": {"@spider": "usps_collection_boxes", "addr:city": "LAGRANGE", "addr:country": "US", "addr:full": "300 S DETROIT ST", "addr:postcode": "46761", "addr:state": "IN", "brand": "USPS", "collection_times": "Mo-Sa 16:30", "name": "USPS COLLECTION BOX - BLUE BOX", "note": "ON 12/24 AND 12/31, THIS BOX MAY BE COLLECTED AS EARLY AS 12 NOON.", "ref": "4676100004"}, "type": "Feature"}
{"geometry": {"coordinates": [-85.4179129, 41.644017], "type": "Point"}, "id": "j1B3T4n2I1PC-Ytb5hKvBMC1asE=", "properties": {"@spider": "usps_collection_boxes", "addr:city": "LAGRANGE", "addr:country": "US", "addr:full": "100 N DETROIT ST", "addr:postcode": "46761", "addr:state": "IN", "brand": "USPS", "collection_times": "Mo-Sa 10:00", "name": "USPS COLLECTION BOX - BLUE BOX", "ref": "4676100007"}, "type": "Feature"}
{"geometry": {"coordinates": [-85.417959717, 41.641847717], "type": "Point"}, "id": "tdJcYBcWMF_Bt8IM9ne_tXDACoQ=", "properties": {"@spider": "usps_collection_boxes", "addr:city": "LAGRANGE", "addr:country": "US", "addr:full": "300 S DETROIT ST", "addr:postcode": "46761", "addr:state": "IN", "brand": "USPS", "collection_times": "Mo-Fr 16:30; Sa 11:00", "name": "USPS COLLECTION BOX - PO LOBBY", "note": "ON 12/24 AND 12/31, THIS BOX MAY BE COLLECTED AS EARLY AS 12 NOON.", "ref": "4676100008"}, "type": "Feature"}
{"geometry": {"coordinates": [-85.4193404, 41.644967], "type": "Point"}, "id": "_eUeRhRUZgKzPUoLgWdJCRhFG6w=", "properties": {"@spider": "usps_collection_boxes", "addr:city": "LAGRANGE", "addr:country": "US", "addr:full": "200 W MICHIGAN ST", "addr:postcode": "46761", "addr:state": "IN", "brand": "USPS", "collection_times": "Mo-Fr 14:30; Sa 09:30", "name": "USPS COLLECTION BOX - BLUE BOX", "note": "ON 12/24 AND 12/31, THIS BOX MAY BE COLLECTED AS EARLY AS 12 NOON.", "ref": "4676100009"}, "type": "Feature"}
{"geometry": {"coordinates": [-85.417959717, 41.641847717], "type": "Point"}, "id": "oy4CN7sbKXHHxsbHOYZEkveZ304=", "properties": {"@spider": "usps_collection_boxes", "addr:city": "LAGRANGE", "addr:country": "US", "addr:full": "300 S DETROIT ST", "addr:postcode": "46761", "addr:state": "IN", "brand": "USPS", "collection_times": "Mo-Fr 16:30; Sa 11:00", "name": "USPS COLLECTION BOX - PO LOBBY", "note": "ON 12/24 AND 12/31, THIS BOX MAY BE COLLECTED AS EARLY AS 12 NOON.", "ref": "4676100011"}, "type": "Feature"}
{"geometry": {"coordinates": [-85.625621361, 41.178325453], "type": "Point"}, "id": "tKPArIdN23ND71v-vh_OBdmN2CA=", "properties": {"@spider": "usps_collection_boxes", "addr:city": "LARWILL", "addr:country": "US", "addr:full": "101 W MAIN ST", "addr:postcode": "46764", "addr:state": "IN", "brand": "USPS", "collection_times": "Mo-Fr 16:15; Sa 10:15", "name": "USPS COLLECTION BOX - BLUE BOX", "note": "ON 12/24 AND 12/31, THIS BOX MAY BE COLLECTED AS EARLY AS 12 NOON.", "ref": "4676400001"}, "type": "Feature"}
{"geometry": {"coordinates": [-85.625621361, 41.178325453], "type": "Point"}, "id": "BRZ9kwpqnlSb0uBYNALr7g7LmLs=", "properties": {"@spider": "usps_collection_boxes", "addr:city": "LARWILL", "addr:country": "US", "addr:full": "101 W MAIN ST", "addr:postcode": "46764", "addr:state": "IN", "brand": "USPS", "collection_times": "Mo-Fr 11:15; Sa 10:15", "name": "USPS COLLECTION BOX - PO LOBBY", "ref": "4676400002"}, "type": "Feature"}
{"geometry": {"coordinates": [-85.625621361, 41.178325453], "type": "Point"}, "id": "Fq6nxRCrjyW0UQzbUQ43HrqY-CE=", "properties": {"@spider": "usps_collection_boxes", "addr:city": "LARWILL", "addr:country": "US", "addr:full": "101 W MAIN ST", "addr:postcode": "46764", "addr:state": "IN", "brand": "USPS", "collection_times": "Mo-Fr 11:30; Sa 10:00", "name": "USPS COLLECTION BOX - PO LOBBY", "ref": "4676400003"}, "type": "Feature"}
{"geometry": {"coordinates": [-85.589066359, 41.464511581], "type": "Point"}, "id": "8XpKSsNiP7skZVYhGNPcmHcNgtg=", "properties": {"@spider": "usps_collection_boxes", "addr:city": "LIGONIER", "addr:country": "US", "addr:full": "201 S MAIN ST", "addr:postcode": "46767", "addr:state": "IN", "brand": "USPS", "collection_times": "Mo-Fr 16:45; Sa 16:15", "name": "USPS COLLECTION BOX - BLUE BOX", "note": "ON 12/24 AND 12/31, THIS BOX MAY BE COLLECTED AS EARLY AS 12 NOON.", "ref": "4676700001"}, "type": "Feature"}
{"geometry": {"coordinates": [-85.589066359, 41.464511581], "type": "Point"}, "id": "qr5eLCxJTEkHI__avEt78b6lArA=", "properties": {"@spider": "usps_collection_boxes", "addr:city": "LIGONIER", "addr:country": "US", "addr:full": "201 S MAIN ST", "addr:postcode": "46767", "addr:state": "IN", "brand": "USPS", "collection_times": "Mo-Fr 16:45; Sa 16:15", "name": "USPS COLLECTION BOX - BLUE BOX", "note": "ON 12/24 AND 12/31, THIS BOX MAY BE COLLECTED AS EARLY AS 12 NOON.", "ref": "4676700002"}, "type": "Feature"}
{"geometry": {"coordinates": [-85.5904238, 41.456184], "type": "Point"}, "id": "_C9mMDLsObcZEHlr0lyqe5EoNrw=", "properties": {"@spider": "usps_collection_boxes", "addr:city": "LIGONIER", "addr:country": "US", "addr:full": "1203 S MARTIN ST", "addr:postcode": "46767", "addr:state": "IN", "brand": "USPS", "collection_times": "Mo-Sa 12:05", "name": "USPS COLLECTION BOX - BLUE BOX", "note": "ON 12/24 AND 12/31, THIS BOX MAY BE COLLECTED AS EARLY AS 12 NOON.", "ref": "4676700003"}, "type": "Feature"}
{"geometry": {"coordinates": [-85.5875104, 41.465111], "type": "Point"}, "id": "NuYDc8P7s47DqsXCfzpqplZpx7c=", "properties": {"@spider": "usps_collection_boxes", "addr:city": "LIGONIER", "addr:country": "US", "addr:full": "113 S CAVIN ST", "addr:postcode": "46767", "addr:state": "IN", "brand": "USPS", "collection_times": "Mo-Sa 11:30", "name": "USPS COLLECTION BOX - BLUE BOX", "ref": "4676700004"}, "type": "Feature"}
{"geometry": {"coordinates": [-85.585133, 41.458002], "type": "Point"}, "id": "KxcmvRvksl37lBwveZ_QsL8XFn4=", "properties": {"@spider": "usps_collection_boxes", "addr:city": "LIGONIER", "addr:country": "US", "addr:full": "903 LINCOLNWAY S", "addr:postcode": "46767", "addr:state": "IN", "brand": "USPS", "collection_times": "Mo-Sa 10:30", "name": "USPS COLLECTION BOX - BLUE BOX", "ref": "4676700005"}, "type": "Feature"}
{"geometry": {"coordinates": [-85.589066359, 41.464511581], "type": "Point"}, "id": "LODw5LE6UH7_Rc4DzPObWm1QnNY=", "properties": {"@spider": "usps_collection_boxes", "addr:city": "LIGONIER", "addr:country": "US", "addr:full": "201 S MAIN ST", "addr:postcode": "46767", "addr:state": "IN", "brand": "USPS", "collection_times": "Mo-Fr 16:45; Sa 16:15", "name": "USPS COLLECTION BOX - PO LOBBY", "note": "ON 12/24 AND 12/31, THIS BOX MAY BE COLLECTED AS EARLY AS 12 NOON.", "ref": "4676700006"}, "type": "Feature"}
{"geometry": {"coordinates": [-85.589066359, 41.464511581], "type": "Point"}, "id": "NNwl4Pkqg_dmg_gnmZEy4G3GTTk=", "properties": {"@spider": "usps_collection_boxes", "addr:city": "LIGONIER", "addr:country": "US", "addr:full": "201 S MAIN ST", "addr:postcode": "46767", "addr:state": "IN", "brand": "USPS", "collection_times": "Mo-Fr 16:30; Sa 11:00", "name": "USPS COLLECTION BOX - PO LOBBY", "note": "ON 12/24 AND 12/31, THIS BOX MAY BE COLLECTED AS EARLY AS 12 NOON.", "ref": "4676700008"}, "type": "Feature"}
{"geometry": {"coordinates": [-85.337114457, 40.824457648], "type": "Point"}, "id": "ceIoKgXYDYjaXnt1cJ5WvOG5Vsw=", "properties": {"@spider": "usps_collection_boxes", "addr:city": "MARKLE", "addr:country": "US", "addr:full": "165 N MILLER ST", "addr:postcode": "46770", "addr:state": "IN", "brand": "USPS", "collection_times": "Mo-Fr 16:15; Sa 09:30", "name": "USPS COLLECTION BOX - BLUE BOX", "note": "ON 12/24 AND 12/31, THIS BOX MAY BE COLLECTED AS EARLY AS 12 NOON.", "ref": "4677000001"}, "type": "Feature"}
{"geometry": {"coordinates": [-85.337114457, 40.824457648], "type": "Point"}, "id": "ShwSGRToCuaEpPTv5RRuE6IyMYc=", "properties": {"@spider": "usps_collection_boxes", "addr:city": "MARKLE", "addr:country": "US", "addr:full": "165 N MILLER ST", "addr:postcode": "46770", "addr:state": "IN", "brand": "USPS", "collection_times": "Mo-Fr 16:15; Sa 09:30", "name": "USPS COLLECTION BOX - BLUE BOX", "note": "ON 12/24 AND 12/31, THIS BOX MAY BE COLLECTED AS EARLY AS 12 NOON.", "ref": "4677000002"}, "type": "Feature"}
{"geometry": {"coordinates": [-85.337114457, 40.824457648], "type": "Point"}, "id": "_m90t7aCEt70EN2sDMIkzLX6NBY=", "properties": {"@spider": "usps_collection_boxes", "addr:city": "MARKLE", "addr:country": "US", "addr:full": "165 N MILLER ST", "addr:postcode": "46770", "addr:state": "IN", "brand": "USPS", "collection_times": "Mo-Fr 16:15; Sa 09:30", "name": "USPS COLLECTION BOX - PO LOBBY", "note": "ON 12/24 AND 12/31, THIS BOX MAY BE COLLECTED AS EARLY AS 12 NOON.", "ref": "4677000003"}, "type": "Feature"}
{"geometry": {"coordinates": [-85.3313961, 40.827197], "type": "Point"}, "id": "s3fBllJb4pslrKLPyUiOGwBCNqo=", "properties": {"@spider": "usps_collection_boxes", "addr:city": "MARKLE", "addr:country": "US", "addr:full": "700 COUNTRYSIDE DR", "addr:postcode": "46770", "addr:state": "IN", "brand": "USPS", "collection_times": "Mo-Sa 09:00", "name": "USPS COLLECTION BOX - BLUE BOX", "ref": "4677000004"}, "type": "Feature"}
{"geometry": {"coordinates": [-85.337114457, 40.824457648], "type": "Point"}, "id": "VWYeIgUsNGvI4iwwrQoOBIZ9ZcQ=", "properties": {"@spider": "usps_collection_boxes", "addr:city": "MARKLE", "addr:country": "US", "addr:full": "165 N MILLER ST", "addr:postcode": "46770", "addr:state": "IN", "brand": "USPS", "collection_times": "Mo-Fr 16:30; Sa 11:00", "name": "USPS COLLECTION BOX - PO LOBBY", "note": "ON 12/24 AND 12/31, THIS BOX MAY BE COLLECTED AS EARLY AS 12 NOON.", "ref": "4677000005"}, "type": "Feature"}
{"geometry": {"coordinates": [-85.2797553043, 41.6860282456], "type": "Point"}, "id": "8ydyI2Ejl6gqC7DhLK_BsoiVdc0=", "properties": {"@spider": "usps_collection_boxes", "addr:city": "MONGO", "addr:country": "US", "addr:full": "3030 N STATE ROAD 3", "addr:postcode": "46771", "addr:state": "IN", "brand": "USPS", "collection_times": "Mo-Fr 16:00; Sa 10:30", "name": "USPS COLLECTION BOX - BLUE BOX", "note": "ON 12/24 AND 12/31, THIS BOX MAY BE COLLECTED AS EARLY AS 12 NOON.", "ref": "4677100001"}, "type": "Feature"}
{"geometry": {"coordinates": [-85.279759804, 41.686028413], "type": "Point"}, "id": "wXhH6e4jAsIzN9FwZZKWduNebgE=", "properties": {"@spider": "usps_collection_boxes", "addr:city": "MONGO", "addr:country": "US", "addr:full": "3030 N STATE ROAD 3", "addr:postcode": "46771", "addr:state": "IN", "brand": "USPS", "collection_times": "Mo-Fr 16:00; Sa 10:45", "name": "USPS COLLECTION BOX - PO LOBBY", "note": "ON 12/24 AND 12/31, THIS BOX MAY BE COLLECTED AS EARLY AS 12 NOON.", "ref": "4677100002"}, "type": "Feature"}
{"geometry": {"coordinates": [-85.279759804, 41.686028413], "type": "Point"}, "id": "vp2YBziZe2O63HZnuW2YXdgIPnQ=", "properties": {"@spider": "usps_collection_boxes", "addr:city": "MONGO", "addr:country": "US", "addr:full": "3030 N STATE ROAD 3", "addr:postcode": "46771", "addr:state": "IN", "brand": "USPS", "collection_times": "Mo-Fr 16:00; Sa 11:00", "name": "USPS COLLECTION BOX - PO LOBBY", "note": "ON 12/24 AND 12/31, THIS BOX MAY BE COLLECTED AS EARLY AS 12 NOON.", "ref": "4677100003"}, "type": "Feature"}
{"geometry": {"coordinates": [-85.373418482, 40.961688084], "type": "Point"}, "id": "KjoeEI4teHyt4N1wTtBRhoUQkSw=", "properties": {"@spider": "usps_collection_boxes", "addr:city": "ROANOKE", "addr:country": "US", "addr:full": "117 N MAIN ST", "addr:postcode": "46783", "addr:state": "IN", "brand": "USPS", "collection_times": "Mo-Fr 16:30; Sa 11:00", "name": "USPS COLLECTION BOX - BLUE BOX", "note": "ON 12/24 AND 12/31, THIS BOX MAY BE COLLECTED AS EARLY AS 12 NOON.", "ref": "4678300001"}, "type": "Feature"}
{"geometry": {"coordinates": [-85.373418482, 40.961688084], "type": "Point"}, "id": "UJHYuzmNspKD22ZKHy_vu-K4eDM=", "properties": {"@spider": "usps_collection_boxes", "addr:city": "ROANOKE", "addr:country": "US", "addr:full": "117 N MAIN ST", "addr:postcode": "46783", "addr:state": "IN", "brand": "USPS", "collection_times": "Mo-Fr 16:30; Sa 11:00", "name": "USPS COLLECTION BOX - PO LOBBY", "note": "ON 12/24 AND 12/31, THIS BOX MAY BE COLLECTED AS EARLY AS 12 NOON.", "ref": "4678300002"}, "type": "Feature"}
{"geometry": {"coordinates": [-85.373418482, 40.961688084], "type": "Point"}, "id": "EpRucYTaVqWB3PcPJNZChekNF-A=", "properties": {"@spider": "usps_collection_boxes", "addr:city": "ROANOKE", "addr:country": "US", "addr:full": "117 N MAIN ST", "addr:postcode": "46783", "addr:state": "IN", "brand": "USPS", "collection_times": "Mo-Fr 16:30; Sa 11:00", "name": "USPS COLLECTION BOX - PO LOBBY", "note": "ON 12/24 AND 12/31, THIS BOX MAY BE COLLECTED AS EARLY AS 12 NOON.", "ref": "4678300003"}, "type": "Feature"}
{"geometry": {"coordinates": [-85.375850055, 41.493007486], "type": "Point"}, "id": "JLU2xFI14Eh--pTZHlv_mWzcqtQ=", "properties": {"@spider": "usps_collection_boxes", "addr:city": "ROME CITY", "addr:country": "US", "addr:full": "125 KERR AVE", "addr:postcode": "46784", "addr:state": "IN", "brand": "USPS", "collection_times": "Mo-Fr 16:15; Sa 12:15", "name": "USPS COLLECTION BOX - BLUE BOX", "note": "ON 12/24 AND 12/31, THIS BOX MAY BE COLLECTED AS EARLY AS 12 NOON.", "ref": "4678400001"}, "type": "Feature"}
{"geometry": {"coordinates": [-85.375850055, 41.493007486], "type": "Point"}, "id": "sOh5dTlaPqv44ScK0FE-chm_7cg=", "properties": {"@spider": "usps_collection_boxes", "addr:city": "ROME CITY", "addr:country": "US", "addr:full": "125 KERR AVE", "addr:postcode": "46784", "addr:state": "IN", "brand": "USPS", "collection_times": "Mo-Fr 13:45; Sa 12:15", "name": "USPS COLLECTION BOX - PO LOBBY", "note": "ON 12/24 AND 12/31, THIS BOX MAY BE COLLECTED AS EARLY AS 12 NOON.", "ref": "4678400002"}, "type": "Feature"}
{"geometry": {"coordinates": [-85.375850055, 41.493007486], "type": "Point"}, "id": "e9oXf-DDYF8dJWjWVWZ0kVJk-TM=", "properties": {"@spider": "usps_collection_boxes", "addr:city": "ROME CITY", "addr:country": "US", "addr:full": "125 KERR AVE", "addr:postcode": "46784", "addr:state": "IN", "brand": "USPS", "collection_times": "Mo-Fr 14:00; Sa 12:00", "name": "USPS COLLECTION BOX - PO LOBBY", "note": "ON 12/24 AND 12/31, THIS BOX MAY BE COLLECTED AS EARLY AS 12 NOON.", "ref": "4678400003"}, "type": "Feature"}
{"geometry": {"coordinates": [-85.271618941, 41.532314216], "type": "Point"}, "id": "FJVrLuS5NGZQi5zxaqL1Lnf9nIw=", "properties": {"@spider": "usps_collection_boxes", "addr:city": "SOUTH MILFORD", "addr:country": "US", "addr:full": "7470 S STATE ROAD 3", "addr:postcode": "46786", "addr:state": "IN", "brand": "USPS", "collection_times": "Mo-Fr 15:45; Sa 10:00", "name": "USPS COLLECTION BOX - BLUE BOX", "note": "ON 12/24 AND 12/31, THIS BOX MAY BE COLLECTED AS EARLY AS 12 NOON.", "ref": "4678600001"}, "type": "Feature"}
{"geometry": {"coordinates": [-85.271618941, 41.532314216], "type": "Point"}, "id": "riWlCSUxhX2i3nt_d35sxBce9fU=", "properties": {"@spider": "usps_collection_boxes", "addr:city": "SOUTH MILFORD", "addr:country": "US", "addr:full": "7470 S STATE ROAD 3", "addr:postcode": "46786", "addr:state": "IN", "brand": "USPS", "collection_times": "Mo-Fr 16:00; Sa 10:30", "name": "USPS COLLECTION BOX - PO LOBBY", "note": "ON 12/24 AND 12/31, THIS BOX MAY BE COLLECTED AS EARLY AS 12 NOON.", "ref": "4678600002"}, "type": "Feature"}
{"geometry": {"coordinates": [-85.271618941, 41.532314216], "type": "Point"}, "id": "9taO7yaf1dQ_v2_vJpFupE_TcqA=", "properties": {"@spider": "usps_collection_boxes", "addr:city": "SOUTH MILFORD", "addr:country": "US", "addr:full": "7470 S STATE ROAD 3", "addr:postcode": "46786", "addr:state": "IN", "brand": "USPS", "collection_times": "Mo-Fr 16:30; Sa 10:30", "name": "USPS COLLECTION BOX - PO LOBBY", "note": "ON 12/24 AND 12/31, THIS BOX MAY BE COLLECTED AS EARLY AS 12 NOON.", "ref": "4678600003"}, "type": "Feature"}
{"geometry": {"coordinates": [-85.6233346, 41.07879], "type": "Point"}, "id": "39KSiXX0Cslpiw7drCNnSXvVDw8=", "properties": {"@spider": "usps_collection_boxes", "addr:city": "SOUTH WHITLEY", "addr:country": "US", "addr:full": "802 S STATE ST", "addr:postcode": "46787", "addr:state": "IN", "brand": "USPS", "collection_times": "Mo-Sa 09:30", "name": "USPS COLLECTION BOX - BLUE BOX", "ref": "4678700001"}, "type": "Feature"}
{"geometry": {"coordinates": [-85.626567002, 41.084775], "type": "Point"}, "id": "btYnluGwjSEjnYBdvB0_mY4Zzrw=", "properties": {"@spider": "usps_collection_boxes", "addr:city": "SOUTH WHITLEY", "addr:country": "US", "addr:full": "107 S MAPLE ST", "addr:postcode": "46787", "addr:state": "IN", "brand": "USPS", "collection_times": "Mo-Fr 16:00; Sa 10:00", "name": "USPS COLLECTION BOX - BLUE BOX", "note": "ON 12/24 AND 12/31, THIS BOX MAY BE COLLECTED AS EARLY AS 12 NOON.", "ref": "4678700004"}, "type": "Feature"}
{"geometry": {"coordinates": [-85.626567002, 41.084775], "type": "Point"}, "id": "meYdg25FnzyBRWWZy93ygi7chJ8=", "properties": {"@spider": "usps_collection_boxes", "addr:city": "SOUTH WHITLEY", "addr:country": "US", "addr:full": "107 S MAPLE ST", "addr:postcode": "46787", "addr:state": "IN", "brand": "USPS", "collection_times": "Mo-Fr 16:00; Sa 10:00", "name": "USPS COLLECTION BOX - PO LOBBY", "note": "ON 12/24 AND 12/31, THIS BOX MAY BE COLLECTED AS EARLY AS 12 NOON.", "ref": "4678700005"}, "type": "Feature"}
{"geometry": {"coordinates": [-85.626567002, 41.084775], "type": "Point"}, "id": "qiBkO5Tx6LxOmjTgQt350mecp9g=", "properties": {"@spider": "usps_collection_boxes", "addr:city": "SOUTH WHITLEY", "addr:country": "US", "addr:full": "107 S MAPLE ST", "addr:postcode": "46787", "addr:state": "IN", "brand": "USPS", "collection_times": "Mo-Fr 16:00; Sa 10:00", "name": "USPS COLLECTION BOX - PO LOBBY", "note": "ON 12/24 AND 12/31, THIS BOX MAY BE COLLECTED AS EARLY AS 12 NOON.", "ref": "4678700009"}, "type": "Feature"}
{"geometry": {"coordinates": [-85.241975702, 40.829642581], "type": "Point"}, "id": "0gPZQtjl4UcE8-3dcxR1WQLkNZg=", "properties": {"@spider": "usps_collection_boxes", "addr:city": "UNIONDALE", "addr:country": "US", "addr:full": "5965 N MAIN ST", "addr:postcode": "46791", "addr:state": "IN", "brand": "USPS", "collection_times": "Mo-Fr 16:00; Sa 10:30", "name": "USPS COLLECTION BOX - BLUE BOX", "note": "ON 12/24 AND 12/31, THIS BOX MAY BE COLLECTED AS EARLY AS 12 NOON.", "ref": "4679100001"}, "type": "Feature"}
{"geometry": {"coordinates": [-85.241975702, 40.829642581], "type": "Point"}, "id": "gJoMAMT6gPASKgB-xV4eV8hcNUw=", "properties": {"@spider": "usps_collection_boxes", "addr:city": "UNIONDALE", "addr:country": "US", "addr:full": "5965 N MAIN ST", "addr:postcode": "46791", "addr:state": "IN", "brand": "USPS", "collection_times": "Mo-Fr 11:45; Sa 10:30", "name": "USPS COLLECTION BOX - PO LOBBY", "ref": "4679100002"}, "type": "Feature"}
{"geometry": {"coordinates": [-85.241975702, 40.829642581], "type": "Point"}, "id": "onSm_jUkM_46_1kGZVe4hR4ZmjE=", "properties": {"@spider": "usps_collection_boxes", "addr:city": "UNIONDALE", "addr:country": "US", "addr:full": "5965 N MAIN ST", "addr:postcode": "46791", "addr:state": "IN", "brand": "USPS", "collection_times": "Mo-Fr 12:00; Sa 10:30", "name": "USPS COLLECTION BOX - PO LOBBY", "ref": "4679100003"}, "type": "Feature"}
{"geometry": {"coordinates": [-85.482103, 41.458153], "type": "Point"}, "id": "RKEoYvmxutbJWn_YIx15lbdKtHQ=", "properties": {"@spider": "usps_collection_boxes", "addr:city": "WAWAKA", "addr:country": "US", "addr:full": "7369 N ALBION ST", "addr:postcode": "46794", "addr:state": "IN", "brand": "USPS", "collection_times": "Mo-Fr 16:15; Sa 09:30", "name": "USPS COLLECTION BOX - BLUE BOX", "note": "ON 12/24 AND 12/31, THIS BOX MAY BE COLLECTED AS EARLY AS 12 NOON.", "ref": "4679400001"}, "type": "Feature"}
{"geometry": {"coordinates": [-85.482069, 41.458244], "type": "Point"}, "id": "NJtQ2ogzcXytLlz_gIL-U3YSdjo=", "properties": {"@spider": "usps_collection_boxes", "addr:city": "WAWAKA", "addr:country": "US", "addr:full": "7369 N ALBION ST", "addr:postcode": "46794", "addr:state": "IN", "brand": "USPS", "collection_times": "Mo-Fr 11:15; Sa 09:30", "name": "USPS COLLECTION BOX - PO LOBBY", "ref": "4679400002"}, "type": "Feature"}
{"geometry": {"coordinates": [-85.4821248264, 41.4580609988], "type": "Point"}, "id": "_4oM53IZ5pFgSJKK-NDrVpXNm7A=", "properties": {"@spider": "usps_collection_boxes", "addr:city": "WAWAKA", "addr:country": "US", "addr:full": "7369 N ALBION ST", "addr:postcode": "46794", "addr:state": "IN", "brand": "USPS", "collection_times": "Mo-Fr 11:30; Sa 10:00", "name": "USPS COLLECTION BOX - PO LOBBY", "ref": "4679400004"}, "type": "Feature"}
{"geometry": {"coordinates": [-85.366470239, 41.526107581], "type": "Point"}, "id": "HiQex7GEhDWNWRNE9om9WBaphSc=", "properties": {"@spider": "usps_collection_boxes", "addr:city": "WOLCOTTVILLE", "addr:country": "US", "addr:full": "105 N MAIN ST", "addr:postcode": "46795", "addr:state": "IN", "brand": "USPS", "collection_times": "Mo-Fr 16:15; Sa 11:00", "name": "USPS COLLECTION BOX - BLUE BOX", "note": "ON 12/24 AND 12/31, THIS BOX MAY BE COLLECTED AS EARLY AS 12 NOON.", "ref": "4679500001"}, "type": "Feature"}
{"geometry": {"coordinates": [-85.366470239, 41.526107581], "type": "Point"}, "id": "WH6OFop-VT61sc-hHQavT5cHoLw=", "properties": {"@spider": "usps_collection_boxes", "addr:city": "WOLCOTTVILLE", "addr:country": "US", "addr:full": "105 N MAIN ST", "addr:postcode": "46795", "addr:state": "IN", "brand": "USPS", "collection_times": "Mo-Fr 16:30; Sa 11:00", "name": "USPS COLLECTION BOX - PO LOBBY", "note": "ON 12/24 AND 12/31, THIS BOX MAY BE COLLECTED AS EARLY AS 12 NOON.", "ref": "4679500002"}, "type": "Feature"}
{"geometry": {"coordinates": [-85.366470239, 41.526107581], "type": "Point"}, "id": "v1fUIau5iCYNAZsfl0LdTWiNpGQ=", "properties": {"@spider": "usps_collection_boxes", "addr:city": "WOLCOTTVILLE", "addr:country": "US", "addr:full": "105 N MAIN ST", "addr:postcode": "46795", "addr:state": "IN", "brand": "USPS", "collection_times": "Mo-Fr 16:30; Sa 11:30", "name": "USPS COLLECTION BOX - PO LOBBY", "note": "ON 12/24 AND 12/31, THIS BOX MAY BE COLLECTED AS EARLY AS 12 NOON.", "ref": "4679500003"}, "type": "Feature"}
{"geometry": {"coordinates": [-85.4966, 41.335802], "type": "Point"}, "id": "MnRwk1o6milrwSMj9TcI6S0eGHo=", "properties": {"@spider": "usps_collection_boxes", "addr:city": "WOLFLAKE", "addr:country": "US", "addr:full": "1221 S US HIGHWAY 33", "addr:postcode": "46796", "addr:state": "IN", "brand": "USPS", "collection_times": "Mo-Fr 16:45; Sa 10:00", "name": "USPS COLLECTION BOX - BLUE BOX", "note": "ON 12/24 AND 12/31, THIS BOX MAY BE COLLECTED AS EARLY AS 12 NOON.", "ref": "4679600001"}, "type": "Feature"}
{"geometry": {"coordinates": [-85.4966, 41.335802], "type": "Point"}, "id": "Al-kgw_SWsg3L63rzCO0Y1KCOaI=", "properties": {"@spider": "usps_collection_boxes", "addr:city": "WOLFLAKE", "addr:country": "US", "addr:full": "1221 S US HIGHWAY 33", "addr:postcode": "46796", "addr:state": "IN", "brand": "USPS", "collection_times": "Mo-Fr 16:45; Sa 10:00", "name": "USPS COLLECTION BOX - PO LOBBY", "note": "ON 12/24 AND 12/31, THIS BOX MAY BE COLLECTED AS EARLY AS 12 NOON.", "ref": "4679600002"}, "type": "Feature"}
{"geometry": {"coordinates": [-85.4967365266, 41.3357147488], "type": "Point"}, "id": "vm8j6kqrZUNmPhWgp8XaRrzpm28=", "properties": {"@spider": "usps_collection_boxes", "addr:city": "WOLFLAKE", "addr:country": "US", "addr:full": "1221 S US HIGHWAY 33 STE 2", "addr:postcode": "46796", "addr:state": "IN", "brand": "USPS", "collection_times": "Mo-Fr 17:00; Sa 10:00", "name": "USPS COLLECTION BOX - PO LOBBY", "note": "ON 12/24 AND 12/31, THIS BOX MAY BE COLLECTED AS EARLY AS 12 NOON.", "ref": "4679600003"}, "type": "Feature"}
{"geometry": {"coordinates": [-85.281012, 40.917714], "type": "Point"}, "id": "XXOO-Bhn7awxFudOVFZ3x1S5T84=", "properties": {"@spider": "usps_collection_boxes", "addr:city": "ZANESVILLE", "addr:country": "US", "addr:full": "10917 WASHINGTON ST", "addr:postcode": "46799", "addr:state": "IN", "brand": "USPS", "collection_times": "Mo-Fr 16:00; Sa 10:00", "name": "USPS COLLECTION BOX - BLUE BOX", "note": "ON 12/24 AND 12/31, THIS BOX MAY BE COLLECTED AS EARLY AS 12 NOON.", "ref": "4679900001"}, "type": "Feature"}
{"geometry": {"coordinates": [-85.280906, 40.917741], "type": "Point"}, "id": "Sk-XDKtEWdDYFebhx7pFZwhIM00=", "properties": {"@spider": "usps_collection_boxes", "addr:city": "ZANESVILLE", "addr:country": "US", "addr:full": "10917 WASHINGTON ST", "addr:postcode": "46799", "addr:state": "IN", "brand": "USPS", "collection_times": "Mo-Fr 16:00; Sa 10:00", "name": "USPS COLLECTION BOX - PO LOBBY", "note": "ON 12/24 AND 12/31, THIS BOX MAY BE COLLECTED AS EARLY AS 12 NOON.", "ref": "4679900002"}, "type": "Feature"}
{"geometry": {"coordinates": [-85.2814034162, 40.9177054962], "type": "Point"}, "id": "-FG2iov67zgguQkILZ0hs63aUC0=", "properties": {"@spider": "usps_collection_boxes", "addr:city": "ZANESVILLE", "addr:country": "US", "addr:full": "10917 WASHINGTON ST", "addr:postcode": "46799", "addr:state": "IN", "brand": "USPS", "collection_times": "Mo-Fr 16:30; Sa 10:30", "name": "USPS COLLECTION BOX - PO LOBBY", "note": "ON 12/24 AND 12/31, THIS BOX MAY BE COLLECTED AS EARLY AS 12 NOON.", "ref": "4679900003"}, "type": "Feature"}
