{"geometry": {"coordinates": [-85.2308224, 41.053565], "type": "Point"}, "id": "qaUNQGtgp9h5cOAuJrj4VS3bi2A=", "properties": {"@spider": "usps_collection_boxes", "addr:city": "FORT WAYNE", "addr:country": "US", "addr:full": "3304 MALLARD COVE LN", "addr:postcode": "46804", "addr:state": "IN", "brand": "USPS", "collection_times": "Mo-Fr 16:30; Sa 11:00", "name": "USPS COLLECTION BOX - BLUE BOX", "note": "ON 12/24 AND 12/31, THIS BOX MAY BE COLLECTED AS EARLY AS 12 NOON.", "ref": "4680400000"}, "type": "Feature"}
{"geometry": {"coordinates": [-85.2197677, 41.05725], "type": "Point"}, "id": "lfrWy7OCRV-FtHMnU0_VXxXy5vs=", "properties": {"@spider": "usps_collection_boxes", "addr:city": "FORT WAYNE", "addr:country": "US", "addr:full": "2912 GETZ RD", "addr:postcode": "46804", "addr:state": "IN", "brand": "USPS", "collection_times": "Mo-Sa 09:30", "name": "USPS COLLECTION BOX - BLUE BOX", "ref": "4680400002"}, "type": "Feature"}
{"geometry": {"coordinates": [-85.2238705, 41.061932], "type": "Point"}, "id": "SFXbphbnwQQU2CsDb8WEb7lr0_g=", "properties": {"@spider": "usps_collection_boxes", "addr:city": "FORT WAYNE", "addr:country": "US", "addr:full": "6506 COVINGTON RD", "addr:postcode": "46804", "addr:state": "IN", "brand": "USPS", "collection_times": "Mo-Sa 12:00", "name": "USPS COLLECTION BOX - BLUE BOX", "ref": "4680400003"}, "type": "Feature"}
{"geometry": {"coordinates": [-85.257917, 41.033582], "type": "Point"}, "id": "KXEAt-Jih79F9TcdPSqmqqZWNL8=", "properties": {"@spider": "usps_collection_boxes", "addr:city": "FORT WAYNE", "addr:country": "US", "addr:full": "5735 COVENTRY LN", "addr:postcode": "46804", "addr:state": "IN", "brand": "USPS", "collection_times": "Mo-Fr 16:15; Sa 11:00", "name": "USPS COLLECTION BOX - BLUE BOX", "note": "ON 12/24 AND 12/31, THIS BOX MAY BE COLLECTED AS EARLY AS 12 NOON.", "ref": "4680400004"}, "type": "Feature"}
{"geometry": {"coordinates": [-85.2359694, 41.086507], "type": "Point"}, "id": "qVguqggGpbLAAgPUCXXO1z2KIPs=", "properties": {"@spider": "usps_collection_boxes", "addr:city": "FORT WAYNE", "addr:country": "US", "addr:full": "7100 LINCOLN PKWY", "addr:postcode": "46804", "addr:state": "IN", "brand": "USPS", "collection_times": "Mo-Sa 12:00", "name": "USPS COLLECTION BOX - BLUE BOX", "ref": "4680400005"}, "type": "Feature"}
{"geometry": {"coordinates": [-85.2490594, 41.038575], "type": "Point"}, "id": "j0P9w_G5z_p2UU_sr5-lN2PSrdI=", "properties": {"@spider": "usps_collection_boxes", "addr:city": "FORT WAYNE", "addr:country": "US", "addr:full": "7900 W JEFFERSON BLVD", "addr:postcode": "46804", "addr:state": "IN", "brand": "USPS", "collection_times": "Mo-Fr 11:30; Sa 10:00", "name": "USPS COLLECTION BOX - BLUE BOX", "ref": "4680400008"}, "type": "Feature"}
{"geometry": {"coordinates": [-85.221511, 41.05921], "type": "Point"}, "id": "p-KR5lTfgNU48g7t43-V3APeOPw=", "properties": {"@spider": "usps_collection_boxes", "addr:city": "FORT WAYNE", "addr:country": "US", "addr:full": "6242 COVINGTON RD", "addr:postcode": "46804", "addr:state": "IN", "brand": "USPS", "collection_times": "Mo-Sa 10:00", "name": "USPS COLLECTION BOX - BLUE BOX", "ref": "4680400009"}, "type": "Feature"}
{"geometry": {"coordinates": [-85.2336657, 41.074001], "type": "Point"}, "id": "ZHwsjvx3WpHQsuzxVnvUwhlflUE=", "properties": {"@spider": "usps_collection_boxes", "addr:city": "FORT WAYNE", "addr:country": "US", "addr:full": "7030 POINTE INVERNESS WAY", "addr:postcode": "46804", "addr:state": "IN", "brand": "USPS", "collection_times": "Mo-Fr 16:00; Sa 12:00", "name": "USPS COLLECTION BOX - BLUE BOX", "note": "ON 12/24 AND 12/31, THIS BOX MAY BE COLLECTED AS EARLY AS 12 NOON.", "ref": "4680400011"}, "type": "Feature"}
{"geometry": {"coordinates": [-85.2354927, 41.072839], "type": "Point"}, "id": "nhKx9OQN6WrQNT6RCFcVI1wrxGM=", "properties": {"@spider": "usps_collection_boxes", "addr:city": "FORT WAYNE", "addr:country": "US", "addr:full": "7051 POINTE INVERNESS WAY", "addr:postcode": "46804", "addr:state": "IN", "brand": "USPS", "collection_times": "Mo-Sa 12:00", "name": "USPS COLLECTION BOX - BLUE BOX", "ref": "4680400012"}, "type": "Feature"}
{"geometry": {"coordinates": [-85.2458607233, 41.0724316484], "type": "Point"}, "id": "mqPgkeX5RaOI8PdtABogkFpUDk4=", "properties": {"@spider": "usps_collection_boxes", "addr:city": "FORT WAYNE", "addr:country": "US", "addr:full": "7912 CARNEGIE BLVD", "addr:postcode": "46804", "addr:state": "IN", "brand": "USPS", "collection_times": "Mo-Fr 12:00", "name": "USPS COLLECTION BOX - BLUE BOX", "ref": "4680400014"}, "type": "Feature"}
{"geometry": {"coordinates": [-85.2213152, 41.073631], "type": "Point"}, "id": "TYUCJKTJSeRp5iBumYuTdY9uC2o=", "properties": {"@spider": "usps_collection_boxes", "addr:city": "FORT WAYNE", "addr:country": "US", "addr:full": "1235 MAGNAVOX WAY", "addr:postcode": "46804", "addr:state": "IN", "brand": "USPS", "collection_times": "Mo-Fr 12:00; Sa 11:00", "name": "USPS COLLECTION BOX - BLUE BOX", "ref": "4680400017"}, "type": "Feature"}
{"geometry": {"coordinates": [-85.2362724, 41.046213], "type": "Point"}, "id": "LrROf0KEuMGEhEXjk8ObhPZigas=", "properties": {"@spider": "usps_collection_boxes", "addr:city": "FORT WAYNE", "addr:country": "US", "addr:full": "7300 W JEFFERSON BLVD", "addr:postcode": "46804", "addr:state": "IN", "brand": "USPS", "collection_times": "Mo-Sa 11:00", "name": "USPS COLLECTION BOX - BLUE BOX", "ref": "4680400018"}, "type": "Feature"}
{"geometry": {"coordinates": [-85.2360628, 41.043202], "type": "Point"}, "id": "Irrnx_OKUNcm3GE7GhaqYiBmjhE=", "properties": {"@spider": "usps_collection_boxes", "addr:city": "FORT WAYNE", "addr:country": "US", "addr:full": "7221 ENGLE RD", "addr:postcode": "46804", "addr:state": "IN", "brand": "USPS", "collection_times": "Mo-Sa 10:00", "name": "USPS COLLECTION BOX - BLUE BOX", "ref": "4680400021"}, "type": "Feature"}
{"geometry": {"coordinates": [-85.2170799, 41.060277], "type": "Point"}, "id": "t-RbvP01kyF0-iHUGO-ChT0vQ8U=", "properties": {"@spider": "usps_collection_boxes", "addr:city": "FORT WAYNE", "addr:country": "US", "addr:full": "5930 W JEFFERSON BLVD", "addr:postcode": "46804", "addr:state": "IN", "brand": "USPS", "collection_times": "Mo-Fr 17:00; Sa 15:45", "name": "USPS COLLECTION BOX - BLUE BOX", "note": "ON 12/24 AND 12/31, THIS BOX MAY BE COLLECTED AS EARLY AS 12 NOON.", "ref": "4680400023"}, "type": "Feature"}
{"geometry": {"coordinates": [-85.2415634, 41.075392], "type": "Point"}, "id": "j_pz11QqKXf-XVoN0HD2I2caOP8=", "properties": {"@spider": "usps_collection_boxes", "addr:city": "FORT WAYNE", "addr:country": "US", "addr:full": "7606 CANTERCHASE CT", "addr:postcode": "46804", "addr:state": "IN", "brand": "USPS", "collection_times": "Mo-Fr 11:30; Sa 11:00", "name": "USPS COLLECTION BOX - BLUE BOX", "ref": "4680400029"}, "type": "Feature"}
{"geometry": {"coordinates": [-85.2544909, 41.043344], "type": "Point"}, "id": "Gz0ssXjiMG42Xt8rv8YTGHUy19Q=", "properties": {"@spider": "usps_collection_boxes", "addr:city": "FORT WAYNE", "addr:country": "US", "addr:full": "4613 COVENTRY PKWY", "addr:postcode": "46804", "addr:state": "IN", "brand": "USPS", "collection_times": "Mo-Sa 10:00", "name": "USPS COLLECTION BOX - BLUE BOX", "ref": "4680400030"}, "type": "Feature"}
{"geometry": {"coordinates": [-85.2256949, 41.067153], "type": "Point"}, "id": "aNas7dY9NON1b1i33Kk4ChJmiBw=", "properties": {"@spider": "usps_collection_boxes", "addr:city": "FORT WAYNE", "addr:country": "US", "addr:full": "6323 CONSTITUTION DR", "addr:postcode": "46804", "addr:state": "IN", "brand": "USPS", "collection_times": "Mo-Sa 10:45", "name": "USPS COLLECTION BOX - BLUE BOX", "ref": "4680400032"}, "type": "Feature"}
{"geometry": {"coordinates": [-85.2251342, 41.058056], "type": "Point"}, "id": "aDehIc6HLZOnk0o71BMiqVHZIUo=", "properties": {"@spider": "usps_collection_boxes", "addr:city": "FORT WAYNE", "addr:country": "US", "addr:full": "6360 W JEFFERSON BLVD", "addr:postcode": "46804", "addr:state": "IN", "brand": "USPS", "collection_times": "Mo-Sa 10:00", "name": "USPS COLLECTION BOX - BLUE BOX", "ref": "4680400034"}, "type": "Feature"}
{"geometry": {"coordinates": [-85.2579406, 41.03358], "type": "Point"}, "id": "5nggcK3o_azvJkCRhlfCd-e9TDo=", "properties": {"@spider": "usps_collection_boxes", "addr:city": "FORT WAYNE", "addr:country": "US", "addr:full": "5735 COVENTRY LN", "addr:postcode": "46804", "addr:state": "IN", "brand": "USPS", "collection_times": "Mo-Fr 16:15; Sa 11:00", "name": "USPS COLLECTION BOX - BLUE BOX", "note": "ON 12/24 AND 12/31, THIS BOX MAY BE COLLECTED AS EARLY AS 12 NOON.", "ref": "4680400037"}, "type": "Feature"}
{"geometry": {"coordinates": [-85.2755964, 41.076356], "type": "Point"}, "id": "j_s2gquCKP9aCocVWsKxyZkqfKs=", "properties": {"@spider": "usps_collection_boxes", "addr:city": "FORT WAYNE", "addr:country": "US", "addr:full": "10230 CHESTNUT PLAZA DR", "addr:postcode": "46814", "addr:state": "IN", "brand": "USPS", "collection_times": "Mo-Sa 11:00", "name": "USPS COLLECTION BOX - BLUE BOX", "ref": "4681400000"}, "type": "Feature"}
