{"geometry": {"coordinates": [-84.903327555, 39.056036156], "type": "Point"}, "id": "Fp0PunIppHh4KgX703YwNHhy394=", "properties": {"@spider": "usps_collection_boxes", "addr:city": "AURORA", "addr:country": "US", "addr:full": "501 3RD ST", "addr:postcode": "47001", "addr:state": "IN", "brand": "USPS", "collection_times": "Mo-Fr 17:00; Sa 12:00", "name": "USPS COLLECTION BOX - PO LOBBY", "note": "ON 12/24 AND 12/31, THIS BOX MAY BE COLLECTED AS EARLY AS 12 NOON.", "ref": "4700100001"}, "type": "Feature"}
{"geometry": {"coordinates": [-84.8941961, 39.075625], "type": "Point"}, "id": "kKERh0FoRDlVVhPHfD92otlJmiA=", "properties": {"@spider": "usps_collection_boxes", "addr:city": "AURORA", "addr:country": "US", "addr:full": "900 GREEN BLVD", "addr:postcode": "47001", "addr:state": "IN", "brand": "USPS", "collection_times": "Mo-Sa 09:30", "name": "USPS COLLECTION BOX - BLUE BOX", "ref": "4700100002"}, "type": "Feature"}
{"geometry": {"coordinates": [-84.9011421, 39.056628], "type": "Point"}, "id": "NEvkZXrBNnUeWis2m1M8NTML8go=", "properties": {"@spider": "usps_collection_boxes", "addr:city": "AURORA", "addr:country": "US", "addr:full": "340 2ND ST", "addr:postcode": "47001", "addr:state": "IN", "brand": "USPS", "collection_times": "Mo-Sa 09:30", "name": "USPS COLLECTION BOX - BLUE BOX", "ref": "4700100005"}, "type": "Feature"}
{"geometry": {"coordinates": [-84.903327555, 39.056036156], "type": "Point"}, "id": "UBh1rwZQTiSooxatLuGyAlIZVJw=", "properties": {"@spider": "usps_collection_boxes", "addr:city": "AURORA", "addr:country": "US", "addr:full": "501 3RD ST", "addr:postcode": "47001", "addr:state": "IN", "brand": "USPS", "collection_times": "Mo-Fr 17:00; Sa 12:00", "name": "USPS COLLECTION BOX - BLUE BOX", "note": "ON 12/24 AND 12/31, THIS BOX MAY BE COLLECTED AS EARLY AS 12 NOON.", "ref": "4700100015"}, "type": "Feature"}
{"geometry": {"coordinates": [-84.8895899, 39.080065], "type": "Point"}, "id": "MkHQ4g4UEi4uM5xB0xXgK0-oqMg=", "properties": {"@spider": "usps_collection_boxes", "addr:city": "AURORA", "addr:country": "US", "addr:full": "100 SYCAMORE ESTATES DR", "addr:postcode": "47001", "addr:state": "IN", "brand": "USPS", "collection_times": "Mo-Sa 09:00", "name": "USPS COLLECTION BOX - BLUE BOX", "ref": "4700100018"}, "type": "Feature"}
{"geometry": {"coordinates": [-84.903327555, 39.056036156], "type": "Point"}, "id": "Kj4V6gbtS9H507-YIats8Z4zyoI=", "properties": {"@spider": "usps_collection_boxes", "addr:city": "AURORA", "addr:country": "US", "addr:full": "501 3RD ST", "addr:postcode": "47001", "addr:state": "IN", "brand": "USPS", "collection_times": "Mo-Fr 17:00; Sa 12:00", "name": "USPS COLLECTION BOX - PO LOBBY", "note": "ON 12/24 AND 12/31, THIS BOX MAY BE COLLECTED AS EARLY AS 12 NOON.", "ref": "4700100020"}, "type": "Feature"}
{"geometry": {"coordinates": [-84.8966282, 39.063993], "type": "Point"}, "id": "uEaBKOkNVuIAMLYHu_yAhoTzwmU=", "properties": {"@spider": "usps_collection_boxes", "addr:city": "AURORA", "addr:country": "US", "addr:full": "500 GREEN BLVD", "addr:postcode": "47001", "addr:state": "IN", "brand": "USPS", "collection_times": "Mo-Sa 09:00", "name": "USPS COLLECTION BOX - BLUE BOX", "ref": "4700100022"}, "type": "Feature"}
{"geometry": {"coordinates": [-84.903327555, 39.056036156], "type": "Point"}, "id": "ZxFDdRJpiDNpz3KE448adlYMsSo=", "properties": {"@spider": "usps_collection_boxes", "addr:city": "AURORA", "addr:country": "US", "addr:full": "501 3RD ST", "addr:postcode": "47001", "addr:state": "IN", "brand": "USPS", "collection_times": "Mo-Fr 17:00; Sa 12:00", "name": "USPS COLLECTION BOX - PO LOBBY", "note": "ON 12/24 AND 12/31, THIS BOX MAY BE COLLECTED AS EARLY AS 12 NOON.", "ref": "4700100025"}, "type": "Feature"}
{"geometry": {"coordinates": [-84.815196, 39.567829], "type": "Point"}, "id": "Us9RQr_4CO4oi4K7qE0L8c5zHCk=", "properties": {"@spider": "usps_collection_boxes", "addr:city": "COLLEGE CORNER", "addr:country": "US", "addr:full": "18 LIBERTY AVE", "addr:postcode": "47003", "addr:state": "OH", "brand": "USPS", "collection_times": "Mo-Fr 16:00; Sa 11:45", "name": "USPS COLLECTION BOX - BLUE BOX", "note": "ON 12/24 AND 12/31, THIS BOX MAY BE COLLECTED AS EARLY AS 12 NOON.", "ref": "4700300000"}, "type": "Feature"}
{"geometry": {"coordinates": [-84.815081, 39.567727], "type": "Point"}, "id": "lNB1ZN559JmQKnoYHYm7VxCfVhU=", "properties": {"@spider": "usps_collection_boxes", "addr:city": "COLLEGE CORNER", "addr:country": "US", "addr:full": "18 LIBERTY AVE", "addr:postcode": "47003", "addr:state": "OH", "brand": "USPS", "collection_times": "Mo-Fr 16:00; Sa 11:45", "name": "USPS COLLECTION BOX - PO LOBBY", "note": "ON 12/24 AND 12/31, THIS BOX MAY BE COLLECTED AS EARLY AS 12 NOON.", "ref": "4700300001"}, "type": "Feature"}
{"geometry": {"coordinates": [-84.8154758691, 39.5680026833], "type": "Point"}, "id": "Vg9Qo52g8nxIwNgwqcz5zJ89ox0=", "properties": {"@spider": "usps_collection_boxes", "addr:city": "COLLEGE CORNER", "addr:country": "US", "addr:full": "18 LIBERTY AVE", "addr:postcode": "47003", "addr:state": "OH", "brand": "USPS", "collection_times": "Mo-Fr 16:15; Sa 12:00", "name": "USPS COLLECTION BOX - PO LOBBY", "note": "ON 12/24 AND 12/31, THIS BOX MAY BE COLLECTED AS EARLY AS 12 NOON.", "ref": "4700300006"}, "type": "Feature"}
{"geometry": {"coordinates": [-85.2219814, 39.296332], "type": "Point"}, "id": "DNKAgt3RvOyf5r8qLr-3nezlagk=", "properties": {"@spider": "usps_collection_boxes", "addr:city": "BATESVILLE", "addr:country": "US", "addr:full": "210 E CATHERINE ST", "addr:postcode": "47006", "addr:state": "IN", "brand": "USPS", "collection_times": "Mo-Sa 08:45", "name": "USPS COLLECTION BOX - BLUE BOX", "ref": "4700600003"}, "type": "Feature"}
{"geometry": {"coordinates": [-85.224747, 39.293986], "type": "Point"}, "id": "uxBCRJGNG6Y7jK0BMyqR50rv5CM=", "properties": {"@spider": "usps_collection_boxes", "addr:city": "BATESVILLE", "addr:country": "US", "addr:full": "104 BEECHGROVE AVE", "addr:postcode": "47006", "addr:state": "IN", "brand": "USPS", "collection_times": "Mo-Sa 09:15", "name": "USPS COLLECTION BOX - BLUE BOX", "ref": "4700600006"}, "type": "Feature"}
{"geometry": {"coordinates": [-85.2220908, 39.299333], "type": "Point"}, "id": "htITrA27XD9HxfFMjhL33dq7xY8=", "properties": {"@spider": "usps_collection_boxes", "addr:city": "BATESVILLE", "addr:country": "US", "addr:full": "18 E BOEHRINGER ST", "addr:postcode": "47006", "addr:state": "IN", "brand": "USPS", "collection_times": "Mo-Sa 14:00", "name": "USPS COLLECTION BOX - BLUE BOX", "note": "ON 12/24 AND 12/31, THIS BOX MAY BE COLLECTED AS EARLY AS 12 NOON.", "ref": "4700600009"}, "type": "Feature"}
{"geometry": {"coordinates": [-85.2198799, 39.301948], "type": "Point"}, "id": "nXQzXT3KVHwsyhbuiSx_r8KHuaU=", "properties": {"@spider": "usps_collection_boxes", "addr:city": "BATESVILLE", "addr:country": "US", "addr:full": "508 N MAIN ST", "addr:postcode": "47006", "addr:state": "IN", "brand": "USPS", "collection_times": "Mo-Sa 09:00", "name": "USPS COLLECTION BOX - BLUE BOX", "ref": "4700600010"}, "type": "Feature"}
{"geometry": {"coordinates": [-85.2135376, 39.30858], "type": "Point"}, "id": "xGFFC79D-n3XEirXjWwXOqkzaIk=", "properties": {"@spider": "usps_collection_boxes", "addr:city": "BATESVILLE", "addr:country": "US", "addr:full": "210 CROSS COUNTY PLZ", "addr:postcode": "47006", "addr:state": "IN", "brand": "USPS", "collection_times": "Mo-Sa 10:00", "name": "USPS COLLECTION BOX - BLUE BOX", "ref": "4700600011"}, "type": "Feature"}
{"geometry": {"coordinates": [-85.223654333, 39.298092099], "type": "Point"}, "id": "lumRHxugkECZ--div5TLdfISvgo=", "properties": {"@spider": "usps_collection_boxes", "addr:city": "BATESVILLE", "addr:country": "US", "addr:full": "3 W GEORGE ST", "addr:postcode": "47006", "addr:state": "IN", "brand": "USPS", "collection_times": "Mo-Fr 17:00; Sa 15:00", "name": "USPS COLLECTION BOX - BLUE BOX", "note": "ON 12/24 AND 12/31, THIS BOX MAY BE COLLECTED AS EARLY AS 12 NOON.", "ref": "4700600014"}, "type": "Feature"}
{"geometry": {"coordinates": [-85.223654333, 39.298092099], "type": "Point"}, "id": "gy6ylDfxUwB_84Tmci032TTyS9c=", "properties": {"@spider": "usps_collection_boxes", "addr:city": "BATESVILLE", "addr:country": "US", "addr:full": "3 W GEORGE ST", "addr:postcode": "47006", "addr:state": "IN", "brand": "USPS", "collection_times": "Mo-Fr 17:00; Sa 15:00", "name": "USPS COLLECTION BOX - BLUE BOX", "note": "ON 12/24 AND 12/31, THIS BOX MAY BE COLLECTED AS EARLY AS 12 NOON.", "ref": "4700600015"}, "type": "Feature"}
{"geometry": {"coordinates": [-85.2266759, 39.294958], "type": "Point"}, "id": "KjYTgyxCflOLtJX5RWnvxsLo5ho=", "properties": {"@spider": "usps_collection_boxes", "addr:city": "BATESVILLE", "addr:country": "US", "addr:full": "429 S MULBERRY ST", "addr:postcode": "47006", "addr:state": "IN", "brand": "USPS", "collection_times": "Mo-Sa 14:00", "name": "USPS COLLECTION BOX - BLUE BOX", "note": "ON 12/24 AND 12/31, THIS BOX MAY BE COLLECTED AS EARLY AS 12 NOON.", "ref": "4700600017"}, "type": "Feature"}
{"geometry": {"coordinates": [-85.223654333, 39.298092099], "type": "Point"}, "id": "LDhu6I_h7kc9qUtD0yHjRt-vYK0=", "properties": {"@spider": "usps_collection_boxes", "addr:city": "BATESVILLE", "addr:country": "US", "addr:full": "3 W GEORGE ST", "addr:postcode": "47006", "addr:state": "IN", "brand": "USPS", "collection_times": "Mo-Fr 17:00; Sa 15:00", "name": "USPS COLLECTION BOX - PO LOBBY", "note": "ON 12/24 AND 12/31, THIS BOX MAY BE COLLECTED AS EARLY AS 12 NOON.", "ref": "4700600020"}, "type": "Feature"}
{"geometry": {"coordinates": [-85.223654333, 39.298092099], "type": "Point"}, "id": "5GcmDktJA1PxMob1okmGX5FnMrk=", "properties": {"@spider": "usps_collection_boxes", "addr:city": "BATESVILLE", "addr:country": "US", "addr:full": "3 W GEORGE ST", "addr:postcode": "47006", "addr:state": "IN", "brand": "USPS", "collection_times": "Mo-Fr 17:00; Sa 15:00", "name": "USPS COLLECTION BOX - PO LOBBY", "note": "ON 12/24 AND 12/31, THIS BOX MAY BE COLLECTED AS EARLY AS 12 NOON.", "ref": "4700600021"}, "type": "Feature"}
{"geometry": {"coordinates": [-85.2144382, 39.312241], "type": "Point"}, "id": "WcntBukmn1y1YeCGRH1M1Z4ijSs=", "properties": {"@spider": "usps_collection_boxes", "addr:city": "BATESVILLE", "addr:country": "US", "addr:full": "1034 STATE ROAD 229", "addr:postcode": "47006", "addr:state": "IN", "brand": "USPS", "collection_times": "Mo-Sa 10:30", "name": "USPS COLLECTION BOX - BLUE BOX", "ref": "4700600023"}, "type": "Feature"}
{"geometry": {"coordinates": [-85.223654333, 39.298092099], "type": "Point"}, "id": "HJyBCLizfG-n4dT1F1uB1IOk8Fw=", "properties": {"@spider": "usps_collection_boxes", "addr:city": "BATESVILLE", "addr:country": "US", "addr:full": "3 W GEORGE ST", "addr:postcode": "47006", "addr:state": "IN", "brand": "USPS", "collection_times": "Mo-Fr 16:30; Sa 12:00", "name": "USPS COLLECTION BOX - PO LOBBY", "note": "ON 12/24 AND 12/31, THIS BOX MAY BE COLLECTED AS EARLY AS 12 NOON.", "ref": "4700600026"}, "type": "Feature"}
{"geometry": {"coordinates": [-84.862966, 39.508211], "type": "Point"}, "id": "9iVP45d-rk85Kv00XmIzEhaSwBU=", "properties": {"@spider": "usps_collection_boxes", "addr:city": "BATH", "addr:country": "US", "addr:full": "14201 SPRINGFIELD RD", "addr:postcode": "47010", "addr:state": "IN", "brand": "USPS", "collection_times": "Mo-Sa 11:45", "name": "USPS COLLECTION BOX - BLUE BOX", "ref": "4701000000"}, "type": "Feature"}
{"geometry": {"coordinates": [-84.862966, 39.508211], "type": "Point"}, "id": "-o0JA-s9IdpntnZMeMbG9R6ujIw=", "properties": {"@spider": "usps_collection_boxes", "addr:city": "BATH", "addr:country": "US", "addr:full": "14201 SPRINGFIELD RD", "addr:postcode": "47010", "addr:state": "IN", "brand": "USPS", "collection_times": "Mo-Sa 11:45", "name": "USPS COLLECTION BOX - PO LOBBY", "ref": "4701000001"}, "type": "Feature"}
{"geometry": {"coordinates": [-84.8629683724, 39.5081551676], "type": "Point"}, "id": "H4HnGNQY38Hv9Fmu9amkpCmABzI=", "properties": {"@spider": "usps_collection_boxes", "addr:city": "BATH", "addr:country": "US", "addr:full": "14201 SPRINGFIELD RD", "addr:postcode": "47010", "addr:state": "IN", "brand": "USPS", "collection_times": "Mo-Sa 12:00", "name": "USPS COLLECTION BOX - PO LOBBY", "ref": "4701000004"}, "type": "Feature"}
{"geometry": {"coordinates": [-85.012618445, 39.425795078], "type": "Point"}, "id": "W2zv8TyCeN7VyvDw8jnkUgMhtEU=", "properties": {"@spider": "usps_collection_boxes", "addr:city": "BROOKVILLE", "addr:country": "US", "addr:full": "1019 MAIN ST", "addr:postcode": "47012", "addr:state": "IN", "brand": "USPS", "collection_times": "Mo-Fr 16:30; Sa 12:00", "name": "USPS COLLECTION BOX - BLUE BOX", "note": "ON 12/24 AND 12/31, THIS BOX MAY BE COLLECTED AS EARLY AS 12 NOON.", "ref": "4701200001"}, "type": "Feature"}
{"geometry": {"coordinates": [-85.012706931, 39.421673078], "type": "Point"}, "id": "500xI6vhlrp_GrUerTmWAu0mfpU=", "properties": {"@spider": "usps_collection_boxes", "addr:city": "BROOKVILLE", "addr:country": "US", "addr:full": "653 MAIN ST", "addr:postcode": "47012", "addr:state": "IN", "brand": "USPS", "collection_times": "Mo-Sa 12:00", "name": "USPS COLLECTION BOX - BLUE BOX", "ref": "4701200006"}, "type": "Feature"}
{"geometry": {"coordinates": [-85.012757467, 39.419774078], "type": "Point"}, "id": "2pciY57yzCk4R5hVWyqtuKOOoug=", "properties": {"@spider": "usps_collection_boxes", "addr:city": "BROOKVILLE", "addr:country": "US", "addr:full": "501 MAIN ST", "addr:postcode": "47012", "addr:state": "IN", "brand": "USPS", "collection_times": "Mo-Sa 12:00", "name": "USPS COLLECTION BOX - BLUE BOX", "ref": "4701200007"}, "type": "Feature"}
{"geometry": {"coordinates": [-85.006009002, 39.430094887], "type": "Point"}, "id": "sn9izqR0BP7r5Z3F59x_u-8s2Fo=", "properties": {"@spider": "usps_collection_boxes", "addr:city": "BROOKVILLE", "addr:country": "US", "addr:full": "1301 FAIRFIELD AVE", "addr:postcode": "47012", "addr:state": "IN", "brand": "USPS", "collection_times": "Mo-Sa 09:00", "name": "USPS COLLECTION BOX - BLUE BOX", "ref": "4701200009"}, "type": "Feature"}
{"geometry": {"coordinates": [-85.008082888, 39.426952493], "type": "Point"}, "id": "AyFLWgGPC9AolzZYcVKyMsFXb68=", "properties": {"@spider": "usps_collection_boxes", "addr:city": "BROOKVILLE", "addr:country": "US", "addr:full": "339 E 11TH ST", "addr:postcode": "47012", "addr:state": "IN", "brand": "USPS", "collection_times": "Mo-Sa 09:00", "name": "USPS COLLECTION BOX - BLUE BOX", "ref": "4701200010"}, "type": "Feature"}
{"geometry": {"coordinates": [-85.009564624, 39.428480558], "type": "Point"}, "id": "lX0NQQ7RRsBICF_-FLmxUCbwuM4=", "properties": {"@spider": "usps_collection_boxes", "addr:city": "BROOKVILLE", "addr:country": "US", "addr:full": "302 E 12TH ST", "addr:postcode": "47012", "addr:state": "IN", "brand": "USPS", "collection_times": "Mo-Sa 10:00", "name": "USPS COLLECTION BOX - BLUE BOX", "ref": "4701200011"}, "type": "Feature"}
{"geometry": {"coordinates": [-85.012615, 39.425798], "type": "Point"}, "id": "NVjcgD_Iyqosp3NbEpxILe40qjE=", "properties": {"@spider": "usps_collection_boxes", "addr:city": "BROOKVILLE", "addr:country": "US", "addr:full": "1019 MAIN ST", "addr:postcode": "47012", "addr:state": "IN", "brand": "USPS", "collection_times": "Mo-Fr 16:30; Sa 12:00", "name": "USPS COLLECTION BOX - PO LOBBY", "note": "ON 12/24 AND 12/31, THIS BOX MAY BE COLLECTED AS EARLY AS 12 NOON.", "ref": "4701200015"}, "type": "Feature"}
{"geometry": {"coordinates": [-85.010363004, 39.409384462], "type": "Point"}, "id": "aywUBkMxnou9pwJGVUmdSaZpEY8=", "properties": {"@spider": "usps_collection_boxes", "addr:city": "BROOKVILLE", "addr:country": "US", "addr:full": "11153 STATE ROUTE 52", "addr:postcode": "47012", "addr:state": "IN", "brand": "USPS", "collection_times": "Mo-Sa 12:00", "name": "USPS COLLECTION BOX - BLUE BOX", "ref": "4701200016"}, "type": "Feature"}
{"geometry": {"coordinates": [-85.014106491, 39.428389919], "type": "Point"}, "id": "AZE8-5cJVJAJPj05K8st3SqT400=", "properties": {"@spider": "usps_collection_boxes", "addr:city": "BROOKVILLE", "addr:country": "US", "addr:full": "44 METAMORA RD", "addr:postcode": "47012", "addr:state": "IN", "brand": "USPS", "collection_times": "Mo-Sa 10:00", "name": "USPS COLLECTION BOX - BLUE BOX", "ref": "4701200017"}, "type": "Feature"}
{"geometry": {"coordinates": [-85.0126184451, 39.425795078], "type": "Point"}, "id": "ikLpfExZYa0sQ3_lkUea1EYnkEo=", "properties": {"@spider": "usps_collection_boxes", "addr:city": "BROOKVILLE", "addr:country": "US", "addr:full": "1019 MAIN ST", "addr:postcode": "47012", "addr:state": "IN", "brand": "USPS", "collection_times": "Mo-Fr 16:30; Sa 12:00", "name": "USPS COLLECTION BOX - PO LOBBY", "note": "ON 12/24 AND 12/31, THIS BOX MAY BE COLLECTED AS EARLY AS 12 NOON.", "ref": "4701200031"}, "type": "Feature"}
{"geometry": {"coordinates": [-84.935794028, 39.356669536], "type": "Point"}, "id": "XJF9TINdlkaLLQv6D9Artr8cl5I=", "properties": {"@spider": "usps_collection_boxes", "addr:city": "CEDAR GROVE", "addr:country": "US", "addr:full": "204 CENTRAL AVE", "addr:postcode": "47016", "addr:state": "IN", "brand": "USPS", "collection_times": "Mo-Fr 16:00; Sa 11:45", "name": "USPS COLLECTION BOX - BLUE BOX", "note": "ON 12/24 AND 12/31, THIS BOX MAY BE COLLECTED AS EARLY AS 12 NOON.", "ref": "4701600000"}, "type": "Feature"}
{"geometry": {"coordinates": [-84.935794028, 39.356669536], "type": "Point"}, "id": "GmGI0EIaCvdF_-MsdB4CWGtef6A=", "properties": {"@spider": "usps_collection_boxes", "addr:city": "CEDAR GROVE", "addr:country": "US", "addr:full": "204 CENTRAL AVE", "addr:postcode": "47016", "addr:state": "IN", "brand": "USPS", "collection_times": "Mo-Fr 16:00; Sa 11:45", "name": "USPS COLLECTION BOX - PO LOBBY", "note": "ON 12/24 AND 12/31, THIS BOX MAY BE COLLECTED AS EARLY AS 12 NOON.", "ref": "4701600001"}, "type": "Feature"}
{"geometry": {"coordinates": [-84.935794028, 39.356669536], "type": "Point"}, "id": "Ly9ozIy83D7pBplxNGAt8ecJVDA=", "properties": {"@spider": "usps_collection_boxes", "addr:city": "CEDAR GROVE", "addr:country": "US", "addr:full": "204 CENTRAL AVE", "addr:postcode": "47016", "addr:state": "IN", "brand": "USPS", "collection_times": "Mo-Fr 16:30; Sa 12:00", "name": "USPS COLLECTION BOX - PO LOBBY", "note": "ON 12/24 AND 12/31, THIS BOX MAY BE COLLECTED AS EARLY AS 12 NOON.", "ref": "4701600004"}, "type": "Feature"}
{"geometry": {"coordinates": [-85.205061, 38.944474], "type": "Point"}, "id": "hYTbkH3_SG3cnk7Q-VrnDHLgT7E=", "properties": {"@spider": "usps_collection_boxes", "addr:city": "CROSS PLAINS", "addr:country": "US", "addr:full": "8911 S STATE ROAD 129", "addr:postcode": "47017", "addr:state": "IN", "brand": "USPS", "collection_times": "Mo-Fr 15:00; Sa 11:30", "name": "USPS COLLECTION BOX - PO LOBBY", "note": "ON 12/24 AND 12/31, THIS BOX MAY BE COLLECTED AS EARLY AS 12 NOON.", "ref": "4701700000"}, "type": "Feature"}
{"geometry": {"coordinates": [-85.205061, 38.944474], "type": "Point"}, "id": "_Nx6CFo4emkhjO_y8SidYZYRg3g=", "properties": {"@spider": "usps_collection_boxes", "addr:city": "CROSS PLAINS", "addr:country": "US", "addr:full": "8911 S STATE ROAD 129", "addr:postcode": "47017", "addr:state": "IN", "brand": "USPS", "collection_times": "Mo-Fr 14:45; Sa 11:15", "name": "USPS COLLECTION BOX - BLUE BOX", "note": "ON 12/24 AND 12/31, THIS BOX MAY BE COLLECTED AS EARLY AS 12 NOON.", "ref": "4701700001"}, "type": "Feature"}
{"geometry": {"coordinates": [-85.2050609749, 38.9444729506], "type": "Point"}, "id": "G7WOlqGpYDqfi7X74qI8noM6bhE=", "properties": {"@spider": "usps_collection_boxes", "addr:city": "CROSS PLAINS", "addr:country": "US", "addr:full": "8911 S STATE ROAD 129", "addr:postcode": "47017", "addr:state": "IN", "brand": "USPS", "collection_times": "Mo-Fr 15:30; Sa 11:30", "name": "USPS COLLECTION BOX - PO LOBBY", "note": "ON 12/24 AND 12/31, THIS BOX MAY BE COLLECTED AS EARLY AS 12 NOON.", "ref": "4701700005"}, "type": "Feature"}
{"geometry": {"coordinates": [-85.0645977, 39.020776], "type": "Point"}, "id": "9EaDUMzsjye4_uk1aqwPOG15sIM=", "properties": {"@spider": "usps_collection_boxes", "addr:city": "DILLSBORO", "addr:country": "US", "addr:full": "10220 MAPLE GLEN DR", "addr:postcode": "47018", "addr:state": "IN", "brand": "USPS", "collection_times": "Mo-Sa 10:00", "name": "USPS COLLECTION BOX - BLUE BOX", "ref": "4701800002"}, "type": "Feature"}
{"geometry": {"coordinates": [-85.057653834, 39.017788436], "type": "Point"}, "id": "ZgbmsaMpZ4ywWKwCS4MWPIlLWyE=", "properties": {"@spider": "usps_collection_boxes", "addr:city": "DILLSBORO", "addr:country": "US", "addr:full": "12830 NORTH ST", "addr:postcode": "47018", "addr:state": "IN", "brand": "USPS", "collection_times": "Mo-Fr 15:45; Sa 11:45", "name": "USPS COLLECTION BOX - PO LOBBY", "note": "ON 12/24 AND 12/31, THIS BOX MAY BE COLLECTED AS EARLY AS 12 NOON.", "ref": "4701800004"}, "type": "Feature"}
{"geometry": {"coordinates": [-85.1014134, 39.041195], "type": "Point"}, "id": "X9lQ5qn1paqQujTSUBX80YxbYKw=", "properties": {"@spider": "usps_collection_boxes", "addr:city": "DILLSBORO", "addr:country": "US", "addr:full": "15313 US 50", "addr:postcode": "47018", "addr:state": "IN", "brand": "USPS", "collection_times": "Mo-Sa 09:00", "name": "USPS COLLECTION BOX - BLUE BOX", "ref": "4701800005"}, "type": "Feature"}
{"geometry": {"coordinates": [-85.0587647, 39.020134], "type": "Point"}, "id": "kda4hsstMcChDmqflElt11dNNXI=", "properties": {"@spider": "usps_collection_boxes", "addr:city": "DILLSBORO", "addr:country": "US", "addr:full": "10145 ALPHA DR", "addr:postcode": "47018", "addr:state": "IN", "brand": "USPS", "collection_times": "Mo-Sa 09:30", "name": "USPS COLLECTION BOX - BLUE BOX", "ref": "4701800006"}, "type": "Feature"}
{"geometry": {"coordinates": [-85.0614123, 39.021904], "type": "Point"}, "id": "XQfrvMPhO1E4VFhUE7BlrUtEXfE=", "properties": {"@spider": "usps_collection_boxes", "addr:city": "DILLSBORO", "addr:country": "US", "addr:full": "13030 EXECUTIVE DR", "addr:postcode": "47018", "addr:state": "IN", "brand": "USPS", "collection_times": "Mo-Sa 09:00", "name": "USPS COLLECTION BOX - BLUE BOX", "ref": "4701800010"}, "type": "Feature"}
{"geometry": {"coordinates": [-85.057653834, 39.017788436], "type": "Point"}, "id": "Wx5x2Jrrs99v_NVlhs3CwOBMprI=", "properties": {"@spider": "usps_collection_boxes", "addr:city": "DILLSBORO", "addr:country": "US", "addr:full": "12830 NORTH ST", "addr:postcode": "47018", "addr:state": "IN", "brand": "USPS", "collection_times": "Mo-Fr 16:00; Sa 12:00", "name": "USPS COLLECTION BOX - PO LOBBY", "note": "ON 12/24 AND 12/31, THIS BOX MAY BE COLLECTED AS EARLY AS 12 NOON.", "ref": "4701800015"}, "type": "Feature"}
{"geometry": {"coordinates": [-85.053317132, 38.82190917], "type": "Point"}, "id": "tC0seGLJhzYJSdTn2S3qB9AVQ5k=", "properties": {"@spider": "usps_collection_boxes", "addr:city": "EAST ENTERPRISE", "addr:country": "US", "addr:full": "2114 US HIGHWAY 56", "addr:postcode": "47019", "addr:state": "IN", "brand": "USPS", "collection_times": "Mo-Fr 15:45; Sa 11:45", "name": "USPS COLLECTION BOX - BLUE BOX", "note": "ON 12/24 AND 12/31, THIS BOX MAY BE COLLECTED AS EARLY AS 12 NOON.", "ref": "4701900001"}, "type": "Feature"}
{"geometry": {"coordinates": [-85.053317132, 38.82190917], "type": "Point"}, "id": "wnZuwOBujeRZsGcIVX5tyy2X2OY=", "properties": {"@spider": "usps_collection_boxes", "addr:city": "EAST ENTERPRISE", "addr:country": "US", "addr:full": "2114 US HIGHWAY 56", "addr:postcode": "47019", "addr:state": "IN", "brand": "USPS", "collection_times": "Mo-Fr 16:00; Sa 11:45", "name": "USPS COLLECTION BOX - PO LOBBY", "note": "ON 12/24 AND 12/31, THIS BOX MAY BE COLLECTED AS EARLY AS 12 NOON.", "ref": "4701900002"}, "type": "Feature"}
{"geometry": {"coordinates": [-85.053317132, 38.82190917], "type": "Point"}, "id": "Nv5vxdFmsRmPlBkunPZ785OMiFs=", "properties": {"@spider": "usps_collection_boxes", "addr:city": "EAST ENTERPRISE", "addr:country": "US", "addr:full": "2114 US HIGHWAY 56", "addr:postcode": "47019", "addr:state": "IN", "brand": "USPS", "collection_times": "Mo-Fr 16:00; Sa 11:45", "name": "USPS COLLECTION BOX - PO LOBBY", "note": "ON 12/24 AND 12/31, THIS BOX MAY BE COLLECTED AS EARLY AS 12 NOON.", "ref": "4701900005"}, "type": "Feature"}
{"geometry": {"coordinates": [-84.924184474, 38.783849719], "type": "Point"}, "id": "fALji8AEPhxlnUJdeK2-F4AJBJk=", "properties": {"@spider": "usps_collection_boxes", "addr:city": "FLORENCE", "addr:country": "US", "addr:full": "404 5TH ST", "addr:postcode": "47020", "addr:state": "IN", "brand": "USPS", "collection_times": "Mo-Fr 14:45; Sa 11:00", "name": "USPS COLLECTION BOX - BLUE BOX", "note": "ON 12/24 AND 12/31, THIS BOX MAY BE COLLECTED AS EARLY AS 12 NOON.", "ref": "4702000000"}, "type": "Feature"}
{"geometry": {"coordinates": [-84.924184474, 38.783849719], "type": "Point"}, "id": "dVG5ANlxYWPal003txj_UU-Ws3Y=", "properties": {"@spider": "usps_collection_boxes", "addr:city": "FLORENCE", "addr:country": "US", "addr:full": "404 5TH ST", "addr:postcode": "47020", "addr:state": "IN", "brand": "USPS", "collection_times": "Mo-Fr 14:45; Sa 11:00", "name": "USPS COLLECTION BOX - PO LOBBY", "note": "ON 12/24 AND 12/31, THIS BOX MAY BE COLLECTED AS EARLY AS 12 NOON.", "ref": "4702000001"}, "type": "Feature"}
{"geometry": {"coordinates": [-84.924184474, 38.783849719], "type": "Point"}, "id": "EccuO_mTCIgMBussDTw4dv515Ps=", "properties": {"@spider": "usps_collection_boxes", "addr:city": "FLORENCE", "addr:country": "US", "addr:full": "404 5TH ST", "addr:postcode": "47020", "addr:state": "IN", "brand": "USPS", "collection_times": "Mo-Fr 15:00; Sa 12:15", "name": "USPS COLLECTION BOX - PO LOBBY", "note": "ON 12/24 AND 12/31, THIS BOX MAY BE COLLECTED AS EARLY AS 12 NOON.", "ref": "4702000005"}, "type": "Feature"}
{"geometry": {"coordinates": [-85.148212332, 38.969962471], "type": "Point"}, "id": "m3FnHfR2FX0_3GEZZJAbVflPCw8=", "properties": {"@spider": "usps_collection_boxes", "addr:city": "FRIENDSHIP", "addr:country": "US", "addr:full": "5918 E MAIN ST", "addr:postcode": "47021", "addr:state": "IN", "brand": "USPS", "collection_times": "Mo-Fr 15:45; Sa 11:15", "name": "USPS COLLECTION BOX - BLUE BOX", "note": "ON 12/24 AND 12/31, THIS BOX MAY BE COLLECTED AS EARLY AS 12 NOON.", "ref": "4702100001"}, "type": "Feature"}
{"geometry": {"coordinates": [-85.148212332, 38.969962471], "type": "Point"}, "id": "vxR5zrsVoY94x7JwmXN3Dn3Lbqo=", "properties": {"@spider": "usps_collection_boxes", "addr:city": "FRIENDSHIP", "addr:country": "US", "addr:full": "5918 E MAIN ST", "addr:postcode": "47021", "addr:state": "IN", "brand": "USPS", "collection_times": "Mo-Fr 15:45; Sa 11:15", "name": "USPS COLLECTION BOX - PO LOBBY", "note": "ON 12/24 AND 12/31, THIS BOX MAY BE COLLECTED AS EARLY AS 12 NOON.", "ref": "4702100002"}, "type": "Feature"}
{"geometry": {"coordinates": [-85.148212332, 38.969962471], "type": "Point"}, "id": "rEikUczuUWnywIZazxeyURU6ufE=", "properties": {"@spider": "usps_collection_boxes", "addr:city": "FRIENDSHIP", "addr:country": "US", "addr:full": "5918 E MAIN ST", "addr:postcode": "47021", "addr:state": "IN", "brand": "USPS", "collection_times": "Mo-Fr 15:45; Sa 12:00", "name": "USPS COLLECTION BOX - PO LOBBY", "note": "ON 12/24 AND 12/31, THIS BOX MAY BE COLLECTED AS EARLY AS 12 NOON.", "ref": "4702100005"}, "type": "Feature"}
{"geometry": {"coordinates": [-84.912392, 39.168498], "type": "Point"}, "id": "_TmR7nyhht-sEtV6T_touq5Dh-U=", "properties": {"@spider": "usps_collection_boxes", "addr:city": "GUILFORD", "addr:country": "US", "addr:full": "5026 MAIN ST", "addr:postcode": "47022", "addr:state": "IN", "brand": "USPS", "collection_times": "Mo-Fr 16:30; Sa 11:30", "name": "USPS COLLECTION BOX - BLUE BOX", "note": "ON 12/24 AND 12/31, THIS BOX MAY BE COLLECTED AS EARLY AS 12 NOON.", "ref": "4702200001"}, "type": "Feature"}
{"geometry": {"coordinates": [-84.912392, 39.168498], "type": "Point"}, "id": "3FpKmclRC2w_tp00JYaJwg4y3UE=", "properties": {"@spider": "usps_collection_boxes", "addr:city": "GUILFORD", "addr:country": "US", "addr:full": "5026 MAIN ST", "addr:postcode": "47022", "addr:state": "IN", "brand": "USPS", "collection_times": "Mo-Fr 16:30; Sa 11:30", "name": "USPS COLLECTION BOX - PO LOBBY", "note": "ON 12/24 AND 12/31, THIS BOX MAY BE COLLECTED AS EARLY AS 12 NOON.", "ref": "4702200002"}, "type": "Feature"}
{"geometry": {"coordinates": [-84.912392, 39.168498], "type": "Point"}, "id": "TWJvEYaSExanqtN5IkFpvkKj5gk=", "properties": {"@spider": "usps_collection_boxes", "addr:city": "GUILFORD", "addr:country": "US", "addr:full": "5026 MAIN ST", "addr:postcode": "47022", "addr:state": "IN", "brand": "USPS", "collection_times": "Mo-Fr 16:30; Sa 11:30", "name": "USPS COLLECTION BOX - PO LOBBY", "note": "ON 12/24 AND 12/31, THIS BOX MAY BE COLLECTED AS EARLY AS 12 NOON.", "ref": "4702200009"}, "type": "Feature"}
{"geometry": {"coordinates": [-84.9123942799, 39.1684965076], "type": "Point"}, "id": "qklx5LKCr6UDovL729sd47VJ6eQ=", "properties": {"@spider": "usps_collection_boxes", "addr:city": "GUILFORD", "addr:country": "US", "addr:full": "5026 MAIN ST", "addr:postcode": "47022", "addr:state": "IN", "brand": "USPS", "collection_times": "Mo-Fr 16:30; Sa 11:30", "name": "USPS COLLECTION BOX - PO LOBBY", "note": "ON 12/24 AND 12/31, THIS BOX MAY BE COLLECTED AS EARLY AS 12 NOON.", "ref": "4702200015"}, "type": "Feature"}
{"geometry": {"coordinates": [-85.386777379, 39.074777717], "type": "Point"}, "id": "bAkzJlZ4T-0LLHQVskyK52N73m4=", "properties": {"@spider": "usps_collection_boxes", "addr:city": "HOLTON", "addr:country": "US", "addr:full": "2 S MARION ST", "addr:postcode": "47023", "addr:state": "IN", "brand": "USPS", "collection_times": "Mo-Fr 15:45; Sa 11:00", "name": "USPS COLLECTION BOX - BLUE BOX", "note": "ON 12/24 AND 12/31, THIS BOX MAY BE COLLECTED AS EARLY AS 12 NOON.", "ref": "4702300002"}, "type": "Feature"}
{"geometry": {"coordinates": [-85.386777379, 39.074777717], "type": "Point"}, "id": "7umGxjN9lzQTg4Tep0jXhCIBxbo=", "properties": {"@spider": "usps_collection_boxes", "addr:city": "HOLTON", "addr:country": "US", "addr:full": "2 S MARION ST", "addr:postcode": "47023", "addr:state": "IN", "brand": "USPS", "collection_times": "Mo-Fr 15:45; Sa 11:00", "name": "USPS COLLECTION BOX - PO LOBBY", "note": "ON 12/24 AND 12/31, THIS BOX MAY BE COLLECTED AS EARLY AS 12 NOON.", "ref": "4702300003"}, "type": "Feature"}
{"geometry": {"coordinates": [-85.386777379, 39.074777717], "type": "Point"}, "id": "8aw7PFBgbxzIplOZOjAmlzWfNG4=", "properties": {"@spider": "usps_collection_boxes", "addr:city": "HOLTON", "addr:country": "US", "addr:full": "2 S MARION ST", "addr:postcode": "47023", "addr:state": "IN", "brand": "USPS", "collection_times": "Mo-Fr 15:45; Sa 14:00", "name": "USPS COLLECTION BOX - PO LOBBY", "note": "ON 12/24 AND 12/31, THIS BOX MAY BE COLLECTED AS EARLY AS 12 NOON.", "ref": "4702300008"}, "type": "Feature"}
{"geometry": {"coordinates": [-85.186494, 39.500925], "type": "Point"}, "id": "rjuRHtDdrz8xHEw7VtYSCA5H2Oo=", "properties": {"@spider": "usps_collection_boxes", "addr:city": "LAUREL", "addr:country": "US", "addr:full": "123 W PEARL ST", "addr:postcode": "47024", "addr:state": "IN", "brand": "USPS", "collection_times": "Mo-Fr 15:30; Sa 10:45", "name": "USPS COLLECTION BOX - PO LOBBY", "note": "ON 12/24 AND 12/31, THIS BOX MAY BE COLLECTED AS EARLY AS 12 NOON.", "ref": "4702400001"}, "type": "Feature"}
{"geometry": {"coordinates": [-85.186494, 39.500925], "type": "Point"}, "id": "a-kR2WF0Mq1neAYA-2Rx8D5uj-E=", "properties": {"@spider": "usps_collection_boxes", "addr:city": "LAUREL", "addr:country": "US", "addr:full": "123 W PEARL ST", "addr:postcode": "47024", "addr:state": "IN", "brand": "USPS", "collection_times": "Mo-Fr 15:30; Sa 10:45", "name": "USPS COLLECTION BOX - BLUE BOX", "note": "ON 12/24 AND 12/31, THIS BOX MAY BE COLLECTED AS EARLY AS 12 NOON.", "ref": "4702400003"}, "type": "Feature"}
{"geometry": {"coordinates": [-85.1864370309, 39.5008823808], "type": "Point"}, "id": "LgqF8SDHLhFe10OE4Fn8JB-QEAs=", "properties": {"@spider": "usps_collection_boxes", "addr:city": "LAUREL", "addr:country": "US", "addr:full": "123 W PEARL ST", "addr:postcode": "47024", "addr:state": "IN", "brand": "USPS", "collection_times": "Mo-Fr 16:00; Sa 11:00", "name": "USPS COLLECTION BOX - PO LOBBY", "note": "ON 12/24 AND 12/31, THIS BOX MAY BE COLLECTED AS EARLY AS 12 NOON.", "ref": "4702400008"}, "type": "Feature"}
{"geometry": {"coordinates": [-84.8235622, 39.157528], "type": "Point"}, "id": "R-83TALyVzwEQphrjHlQP2tThlg=", "properties": {"@spider": "usps_collection_boxes", "addr:city": "LAWRENCEBURG", "addr:country": "US", "addr:full": "19300 ALPINE DR", "addr:postcode": "47025", "addr:state": "IN", "brand": "USPS", "collection_times": "Mo-Sa 11:00", "name": "USPS COLLECTION BOX - BLUE BOX", "ref": "4702500000"}, "type": "Feature"}
{"geometry": {"coordinates": [-84.8494094, 39.092562], "type": "Point"}, "id": "1Yr418sqkzYE1Ssa7wniWN4Wi5s=", "properties": {"@spider": "usps_collection_boxes", "addr:city": "LAWRENCEBURG", "addr:country": "US", "addr:full": "137 VINE ST", "addr:postcode": "47025", "addr:state": "IN", "brand": "USPS", "collection_times": "Mo-Sa 10:00", "name": "USPS COLLECTION BOX - BLUE BOX", "ref": "4702500003"}, "type": "Feature"}
{"geometry": {"coordinates": [-84.8637769, 39.112194], "type": "Point"}, "id": "4sren2jx6E5Tycc8lqpYMEhNv_s=", "properties": {"@spider": "usps_collection_boxes", "addr:city": "LAWRENCEBURG", "addr:country": "US", "addr:full": "203 OAKEY AVE", "addr:postcode": "47025", "addr:state": "IN", "brand": "USPS", "collection_times": "Mo-Sa 09:00", "name": "USPS COLLECTION BOX - BLUE BOX", "ref": "4702500006"}, "type": "Feature"}
{"geometry": {"coordinates": [-84.8620827, 39.11845], "type": "Point"}, "id": "JujS_GzC981KKvksNDSeGoZokTA=", "properties": {"@spider": "usps_collection_boxes", "addr:city": "LAWRENCEBURG", "addr:country": "US", "addr:full": "110 PARKSIDE AVE", "addr:postcode": "47025", "addr:state": "IN", "brand": "USPS", "collection_times": "Mo-Sa 12:00", "name": "USPS COLLECTION BOX - BLUE BOX", "ref": "4702500012"}, "type": "Feature"}
{"geometry": {"coordinates": [-84.8563388, 39.219728], "type": "Point"}, "id": "kjGmRdPliw4ZcT8LIeUFaYj4g-E=", "properties": {"@spider": "usps_collection_boxes", "addr:city": "LAWRENCEBURG", "addr:country": "US", "addr:full": "24071 STATELINE RD", "addr:postcode": "47025", "addr:state": "IN", "brand": "USPS", "collection_times": "Mo-Sa 10:30", "name": "USPS COLLECTION BOX - BLUE BOX", "ref": "4702500017"}, "type": "Feature"}
{"geometry": {"coordinates": [-84.865086, 39.095458], "type": "Point"}, "id": "v6OTWzODsNNaz0tel9XAZ2Pm2as=", "properties": {"@spider": "usps_collection_boxes", "addr:city": "LAWRENCEBURG", "addr:country": "US", "addr:full": "371 W EADS PKWY", "addr:postcode": "47025", "addr:state": "IN", "brand": "USPS", "collection_times": "Mo-Sa 09:00", "name": "USPS COLLECTION BOX - BLUE BOX", "ref": "4702500021"}, "type": "Feature"}
{"geometry": {"coordinates": [-84.8483458, 39.098522], "type": "Point"}, "id": "XPwv-sAdY_hXKn5HPE-32THDK54=", "properties": {"@spider": "usps_collection_boxes", "addr:city": "LAWRENCEBURG", "addr:country": "US", "addr:full": "455 SAINT CLAIR ST", "addr:postcode": "47025", "addr:state": "IN", "brand": "USPS", "collection_times": "Mo-Sa 13:30", "name": "USPS COLLECTION BOX - BLUE BOX", "note": "ON 12/24 AND 12/31, THIS BOX MAY BE COLLECTED AS EARLY AS 12 NOON.", "ref": "4702500024"}, "type": "Feature"}
{"geometry": {"coordinates": [-84.8575874, 39.096448], "type": "Point"}, "id": "VW_We7w4kaQpqLOpBoHOzwsHxrg=", "properties": {"@spider": "usps_collection_boxes", "addr:city": "LAWRENCEBURG", "addr:country": "US", "addr:full": "215 W EADS PKWY", "addr:postcode": "47025", "addr:state": "IN", "brand": "USPS", "collection_times": "Mo-Sa 14:00", "name": "USPS COLLECTION BOX - BLUE BOX", "note": "ON 12/24 AND 12/31, THIS BOX MAY BE COLLECTED AS EARLY AS 12 NOON.", "ref": "4702500031"}, "type": "Feature"}
{"geometry": {"coordinates": [-84.8497583, 39.094178], "type": "Point"}, "id": "iFVzuA4PwxR-pzd7siUwv-9K9ZY=", "properties": {"@spider": "usps_collection_boxes", "addr:city": "LAWRENCEBURG", "addr:country": "US", "addr:full": "301 WALNUT ST", "addr:postcode": "47025", "addr:state": "IN", "brand": "USPS", "collection_times": "Mo-Sa 11:00", "name": "USPS COLLECTION BOX - BLUE BOX", "ref": "4702500033"}, "type": "Feature"}
{"geometry": {"coordinates": [-84.8477195, 39.092662], "type": "Point"}, "id": "s8O5jAaTIDLIGg29VHX3_rn4dQE=", "properties": {"@spider": "usps_collection_boxes", "addr:city": "LAWRENCEBURG", "addr:country": "US", "addr:full": "116 WALNUT ST", "addr:postcode": "47025", "addr:state": "IN", "brand": "USPS", "collection_times": "Mo-Fr 11:00; Sa 14:00", "name": "USPS COLLECTION BOX - BLUE BOX", "note": "ON 12/24 AND 12/31, THIS BOX MAY BE COLLECTED AS EARLY AS 12 NOON.", "ref": "4702500034"}, "type": "Feature"}
{"geometry": {"coordinates": [-84.8493031, 39.091392], "type": "Point"}, "id": "7UBH3Az1EXYewMBGydHA01F2EMo=", "properties": {"@spider": "usps_collection_boxes", "addr:city": "LAWRENCEBURG", "addr:country": "US", "addr:full": "123 W HIGH ST", "addr:postcode": "47025", "addr:state": "IN", "brand": "USPS", "collection_times": "Mo-Sa 14:00", "name": "USPS COLLECTION BOX - BLUE BOX", "note": "ON 12/24 AND 12/31, THIS BOX MAY BE COLLECTED AS EARLY AS 12 NOON.", "ref": "4702500036"}, "type": "Feature"}
{"geometry": {"coordinates": [-84.8666968, 39.107446], "type": "Point"}, "id": "xvaTOOxQP7a_vwjFyzQzA0bFHAg=", "properties": {"@spider": "usps_collection_boxes", "addr:city": "LAWRENCEBURG", "addr:country": "US", "addr:full": "230 MARY ST", "addr:postcode": "47025", "addr:state": "IN", "brand": "USPS", "collection_times": "Mo-Sa 09:00", "name": "USPS COLLECTION BOX - BLUE BOX", "ref": "4702500040"}, "type": "Feature"}
{"geometry": {"coordinates": [-84.877294799, 39.086076652], "type": "Point"}, "id": "NtEC5y0T32EbgGm2H5UUgRPsiPs=", "properties": {"@spider": "usps_collection_boxes", "addr:city": "LAWRENCEBURG", "addr:country": "US", "addr:full": "121 S TANNERS CREEK DR", "addr:postcode": "47025", "addr:state": "IN", "brand": "USPS", "collection_times": "Mo-Fr 17:00; Sa 16:15", "name": "USPS COLLECTION BOX - BLUE BOX", "note": "ON 12/24 AND 12/31, THIS BOX MAY BE COLLECTED AS EARLY AS 12 NOON.", "ref": "4702500042"}, "type": "Feature"}
{"geometry": {"coordinates": [-84.877294799, 39.086076652], "type": "Point"}, "id": "BMaDOpCPf0ZYfHkeN4YrNJQ00MQ=", "properties": {"@spider": "usps_collection_boxes", "addr:city": "LAWRENCEBURG", "addr:country": "US", "addr:full": "121 S TANNERS CREEK DR", "addr:postcode": "47025", "addr:state": "IN", "brand": "USPS", "collection_times": "Mo-Fr 17:00; Sa 16:15", "name": "USPS COLLECTION BOX - BLUE BOX", "note": "ON 12/24 AND 12/31, THIS BOX MAY BE COLLECTED AS EARLY AS 12 NOON.", "ref": "4702500043"}, "type": "Feature"}
{"geometry": {"coordinates": [-84.877294799, 39.086076652], "type": "Point"}, "id": "hDGPytYZvm872oPROeCekIwKejE=", "properties": {"@spider": "usps_collection_boxes", "addr:city": "LAWRENCEBURG", "addr:country": "US", "addr:full": "121 S TANNERS CREEK DR", "addr:postcode": "47025", "addr:state": "IN", "brand": "USPS", "collection_times": "Mo-Fr 17:00; Sa 16:15", "name": "USPS COLLECTION BOX - PO LOBBY", "note": "ON 12/24 AND 12/31, THIS BOX MAY BE COLLECTED AS EARLY AS 12 NOON.", "ref": "4702500045"}, "type": "Feature"}
{"geometry": {"coordinates": [-84.877294799, 39.086076652], "type": "Point"}, "id": "tG6BHi2PDW6J1Hb3D4bf1kDAnw4=", "properties": {"@spider": "usps_collection_boxes", "addr:city": "LAWRENCEBURG", "addr:country": "US", "addr:full": "121 S TANNERS CREEK DR", "addr:postcode": "47025", "addr:state": "IN", "brand": "USPS", "collection_times": "Mo-Fr 17:00; Sa 16:15", "name": "USPS COLLECTION BOX - PO LOBBY", "note": "ON 12/24 AND 12/31, THIS BOX MAY BE COLLECTED AS EARLY AS 12 NOON.", "ref": "4702500046"}, "type": "Feature"}
{"geometry": {"coordinates": [-84.8404096, 39.127891], "type": "Point"}, "id": "Mm4SMzg7xHAau1x6P4TmN5DKtZQ=", "properties": {"@spider": "usps_collection_boxes", "addr:city": "LAWRENCEBURG", "addr:country": "US", "addr:full": "1605 FLOSSIE DR", "addr:postcode": "47025", "addr:state": "IN", "brand": "USPS", "collection_times": "Mo-Sa 09:30", "name": "USPS COLLECTION BOX - BLUE BOX", "ref": "4702500047"}, "type": "Feature"}
{"geometry": {"coordinates": [-84.877294799, 39.086076652], "type": "Point"}, "id": "T9_OR7YO5CBNyAkscsmJr6hkzyQ=", "properties": {"@spider": "usps_collection_boxes", "addr:city": "LAWRENCEBURG", "addr:country": "US", "addr:full": "121 S TANNERS CREEK DR", "addr:postcode": "47025", "addr:state": "IN", "brand": "USPS", "collection_times": "Mo-Fr 17:00; Sa 16:15", "name": "USPS COLLECTION BOX - PO LOBBY", "note": "ON 12/24 AND 12/31, THIS BOX MAY BE COLLECTED AS EARLY AS 12 NOON.", "ref": "4702500048"}, "type": "Feature"}
{"geometry": {"coordinates": [-84.877294799, 39.086076652], "type": "Point"}, "id": "bWqF_6b1pVdLB3L6zooJU-APSIE=", "properties": {"@spider": "usps_collection_boxes", "addr:city": "LAWRENCEBURG", "addr:country": "US", "addr:full": "121 S TANNERS CREEK DR", "addr:postcode": "47025", "addr:state": "IN", "brand": "USPS", "collection_times": "Mo-Fr 17:00; Sa 16:15", "name": "USPS COLLECTION BOX - PO LOBBY", "note": "ON 12/24 AND 12/31, THIS BOX MAY BE COLLECTED AS EARLY AS 12 NOON.", "ref": "4702500049"}, "type": "Feature"}
{"geometry": {"coordinates": [-84.877294799, 39.086076652], "type": "Point"}, "id": "v6RHAV6uQFIR-rfv0qNh0kRATQU=", "properties": {"@spider": "usps_collection_boxes", "addr:city": "LAWRENCEBURG", "addr:country": "US", "addr:full": "121 S TANNERS CREEK DR", "addr:postcode": "47025", "addr:state": "IN", "brand": "USPS", "collection_times": "Mo-Fr 17:00; Sa 12:00", "name": "USPS COLLECTION BOX - PO LOBBY", "note": "ON 12/24 AND 12/31, THIS BOX MAY BE COLLECTED AS EARLY AS 12 NOON.", "ref": "4702500054"}, "type": "Feature"}
{"geometry": {"coordinates": [-85.13426679, 39.4465807], "type": "Point"}, "id": "OC-QLF2nfrct1ve18brOfT_uwWA=", "properties": {"@spider": "usps_collection_boxes", "addr:city": "METAMORA", "addr:country": "US", "addr:full": "19048 S MAIN ST", "addr:postcode": "47030", "addr:state": "IN", "brand": "USPS", "collection_times": "Mo-Fr 15:30; Sa 11:00", "name": "USPS COLLECTION BOX - BLUE BOX", "note": "ON 12/24 AND 12/31, THIS BOX MAY BE COLLECTED AS EARLY AS 12 NOON.", "ref": "4703000001"}, "type": "Feature"}
{"geometry": {"coordinates": [-85.13426679, 39.4465807], "type": "Point"}, "id": "d7q1OZ2qAP1tY1honHUMJvjkIIQ=", "properties": {"@spider": "usps_collection_boxes", "addr:city": "METAMORA", "addr:country": "US", "addr:full": "19048 S MAIN ST", "addr:postcode": "47030", "addr:state": "IN", "brand": "USPS", "collection_times": "Mo-Fr 15:30; Sa 11:00", "name": "USPS COLLECTION BOX - PO LOBBY", "note": "ON 12/24 AND 12/31, THIS BOX MAY BE COLLECTED AS EARLY AS 12 NOON.", "ref": "4703000002"}, "type": "Feature"}
{"geometry": {"coordinates": [-85.13426679, 39.4465807], "type": "Point"}, "id": "pVCrEexFHhOH5ccDjqg2AWZvvSw=", "properties": {"@spider": "usps_collection_boxes", "addr:city": "METAMORA", "addr:country": "US", "addr:full": "19048 S MAIN ST", "addr:postcode": "47030", "addr:state": "IN", "brand": "USPS", "collection_times": "Mo-Fr 16:00; Sa 12:30", "name": "USPS COLLECTION BOX - PO LOBBY", "note": "ON 12/24 AND 12/31, THIS BOX MAY BE COLLECTED AS EARLY AS 12 NOON.", "ref": "4703000008"}, "type": "Feature"}
{"geometry": {"coordinates": [-85.13346, 39.122962], "type": "Point"}, "id": "2RV1o9ZlH2Iq0Z7kK7OUXCd2nfY=", "properties": {"@spider": "usps_collection_boxes", "addr:city": "MILAN", "addr:country": "US", "addr:full": "301 W CARR ST", "addr:postcode": "47031", "addr:state": "IN", "brand": "USPS", "collection_times": "Mo-Fr 16:00; Sa 12:00", "name": "USPS COLLECTION BOX - BLUE BOX", "note": "ON 12/24 AND 12/31, THIS BOX MAY BE COLLECTED AS EARLY AS 12 NOON.", "ref": "4703100001"}, "type": "Feature"}
{"geometry": {"coordinates": [-85.133213361, 39.123010486], "type": "Point"}, "id": "enAWPHylnAVY4pqkDOeKQjkNs_8=", "properties": {"@spider": "usps_collection_boxes", "addr:city": "MILAN", "addr:country": "US", "addr:full": "300 W CARR ST", "addr:postcode": "47031", "addr:state": "IN", "brand": "USPS", "collection_times": "Mo-Fr 16:00; Sa 12:00", "name": "USPS COLLECTION BOX - PO LOBBY", "note": "ON 12/24 AND 12/31, THIS BOX MAY BE COLLECTED AS EARLY AS 12 NOON.", "ref": "4703100004"}, "type": "Feature"}
{"geometry": {"coordinates": [-85.133213361, 39.123010486], "type": "Point"}, "id": "wOWc_83w-LVBKTXWhmhf1aI5VIw=", "properties": {"@spider": "usps_collection_boxes", "addr:city": "MILAN", "addr:country": "US", "addr:full": "300 W CARR ST", "addr:postcode": "47031", "addr:state": "IN", "brand": "USPS", "collection_times": "Mo-Fr 16:30; Sa 12:00", "name": "USPS COLLECTION BOX - PO LOBBY", "note": "ON 12/24 AND 12/31, THIS BOX MAY BE COLLECTED AS EARLY AS 12 NOON.", "ref": "4703100011"}, "type": "Feature"}
{"geometry": {"coordinates": [-85.089635612, 39.112954512], "type": "Point"}, "id": "oVHTeAt45n_ILbf6gYyqOdZIOjs=", "properties": {"@spider": "usps_collection_boxes", "addr:city": "MOORES HILL", "addr:country": "US", "addr:full": "14549 MAIN ST", "addr:postcode": "47032", "addr:state": "IN", "brand": "USPS", "collection_times": "Mo-Fr 16:15; Sa 11:45", "name": "USPS COLLECTION BOX - BLUE BOX", "note": "ON 12/24 AND 12/31, THIS BOX MAY BE COLLECTED AS EARLY AS 12 NOON.", "ref": "4703200001"}, "type": "Feature"}
{"geometry": {"coordinates": [-85.089635612, 39.112954512], "type": "Point"}, "id": "3onKFdLjIqZvEC8nVaZIBI3HoOM=", "properties": {"@spider": "usps_collection_boxes", "addr:city": "MOORES HILL", "addr:country": "US", "addr:full": "14549 MAIN ST", "addr:postcode": "47032", "addr:state": "IN", "brand": "USPS", "collection_times": "Mo-Fr 16:15; Sa 11:45", "name": "USPS COLLECTION BOX - PO LOBBY", "note": "ON 12/24 AND 12/31, THIS BOX MAY BE COLLECTED AS EARLY AS 12 NOON.", "ref": "4703200002"}, "type": "Feature"}
{"geometry": {"coordinates": [-85.089635612, 39.112954512], "type": "Point"}, "id": "hTZJVaJade3ugohe89blalq_Ycc=", "properties": {"@spider": "usps_collection_boxes", "addr:city": "MOORES HILL", "addr:country": "US", "addr:full": "14549 MAIN ST", "addr:postcode": "47032", "addr:state": "IN", "brand": "USPS", "collection_times": "Mo-Fr 16:30; Sa 12:00", "name": "USPS COLLECTION BOX - PO LOBBY", "note": "ON 12/24 AND 12/31, THIS BOX MAY BE COLLECTED AS EARLY AS 12 NOON.", "ref": "4703200009"}, "type": "Feature"}
{"geometry": {"coordinates": [-85.174855391, 39.282269836], "type": "Point"}, "id": "tDrsBrUBvX09hBLn36m9n2MvWWk=", "properties": {"@spider": "usps_collection_boxes", "addr:city": "MORRIS", "addr:country": "US", "addr:full": "4728 E MORRIS MILL ST", "addr:postcode": "47033", "addr:state": "IN", "brand": "USPS", "collection_times": "Mo-Fr 16:00; Sa 11:00", "name": "USPS COLLECTION BOX - BLUE BOX", "note": "ON 12/24 AND 12/31, THIS BOX MAY BE COLLECTED AS EARLY AS 12 NOON.", "ref": "4703300001"}, "type": "Feature"}
{"geometry": {"coordinates": [-85.174855391, 39.282269836], "type": "Point"}, "id": "OII3Az7BQMx1JepJH1XA1Ur5qPo=", "properties": {"@spider": "usps_collection_boxes", "addr:city": "MORRIS", "addr:country": "US", "addr:full": "4728 E MORRIS MILL ST", "addr:postcode": "47033", "addr:state": "IN", "brand": "USPS", "collection_times": "Mo-Fr 16:00; Sa 11:00", "name": "USPS COLLECTION BOX - PO LOBBY", "note": "ON 12/24 AND 12/31, THIS BOX MAY BE COLLECTED AS EARLY AS 12 NOON.", "ref": "4703300002"}, "type": "Feature"}
{"geometry": {"coordinates": [-85.174855391, 39.282269836], "type": "Point"}, "id": "DCfTcAmV7GOOiLjAi1BxErIFIxw=", "properties": {"@spider": "usps_collection_boxes", "addr:city": "MORRIS", "addr:country": "US", "addr:full": "4728 E MORRIS MILL ST", "addr:postcode": "47033", "addr:state": "IN", "brand": "USPS", "collection_times": "Mo-Fr 16:30; Sa 11:00", "name": "USPS COLLECTION BOX - PO LOBBY", "note": "ON 12/24 AND 12/31, THIS BOX MAY BE COLLECTED AS EARLY AS 12 NOON.", "ref": "4703300005"}, "type": "Feature"}
{"geometry": {"coordinates": [-85.33064, 39.20533], "type": "Point"}, "id": "6k8V9pImbADdDGRqWEVMvCWduB8=", "properties": {"@spider": "usps_collection_boxes", "addr:city": "NAPOLEON", "addr:country": "US", "addr:full": "8949 N US HIGHWAY 421", "addr:postcode": "47034", "addr:state": "IN", "brand": "USPS", "collection_times": "Mo-Fr 12:00; Sa 11:00", "name": "USPS COLLECTION BOX - BLUE BOX", "ref": "4703400001"}, "type": "Feature"}
{"geometry": {"coordinates": [-85.330740011, 39.2052399922], "type": "Point"}, "id": "e1PSCn9_k19cpoqbLH-lha1fNZA=", "properties": {"@spider": "usps_collection_boxes", "addr:city": "NAPOLEON", "addr:country": "US", "addr:full": "8949 N US HIGHWAY 421", "addr:postcode": "47034", "addr:state": "IN", "brand": "USPS", "collection_times": "Mo-Fr 15:45; Sa 11:15", "name": "USPS COLLECTION BOX - PO LOBBY", "note": "ON 12/24 AND 12/31, THIS BOX MAY BE COLLECTED AS EARLY AS 12 NOON.", "ref": "4703400008"}, "type": "Feature"}
{"geometry": {"coordinates": [-85.330740011, 39.2052399922], "type": "Point"}, "id": "EWP6k9Vn4LRbll4O0OJek_iVWUU=", "properties": {"@spider": "usps_collection_boxes", "addr:city": "NAPOLEON", "addr:country": "US", "addr:full": "8949 N US HIGHWAY 421", "addr:postcode": "47034", "addr:state": "IN", "brand": "USPS", "collection_times": "Mo-Fr 15:45; Sa 11:15", "name": "USPS COLLECTION BOX - PO LOBBY", "note": "ON 12/24 AND 12/31, THIS BOX MAY BE COLLECTED AS EARLY AS 12 NOON.", "ref": "4703400009"}, "type": "Feature"}
{"geometry": {"coordinates": [-85.201402196, 39.340617464], "type": "Point"}, "id": "milkgU9igwaqMF2alTPhrJiiUIw=", "properties": {"@spider": "usps_collection_boxes", "addr:city": "OLDENBURG", "addr:country": "US", "addr:full": "22133 MAIN ST", "addr:postcode": "47036", "addr:state": "IN", "brand": "USPS", "collection_times": "Mo-Fr 16:15; Sa 11:15", "name": "USPS COLLECTION BOX - BLUE BOX", "note": "ON 12/24 AND 12/31, THIS BOX MAY BE COLLECTED AS EARLY AS 12 NOON.", "ref": "4703600001"}, "type": "Feature"}
{"geometry": {"coordinates": [-85.201402196, 39.340617464], "type": "Point"}, "id": "L6G1JmDAH_mj_YGh0izjhp__Xuc=", "properties": {"@spider": "usps_collection_boxes", "addr:city": "OLDENBURG", "addr:country": "US", "addr:full": "22133 MAIN ST", "addr:postcode": "47036", "addr:state": "IN", "brand": "USPS", "collection_times": "Mo-Fr 16:15; Sa 11:15", "name": "USPS COLLECTION BOX - PO LOBBY", "note": "ON 12/24 AND 12/31, THIS BOX MAY BE COLLECTED AS EARLY AS 12 NOON.", "ref": "4703600002"}, "type": "Feature"}
{"geometry": {"coordinates": [-85.201402196, 39.340617464], "type": "Point"}, "id": "NYgKFHqx7IJgGaZVBtfLfLFJk8M=", "properties": {"@spider": "usps_collection_boxes", "addr:city": "OLDENBURG", "addr:country": "US", "addr:full": "22133 MAIN ST", "addr:postcode": "47036", "addr:state": "IN", "brand": "USPS", "collection_times": "Mo-Fr 16:15; Sa 11:15", "name": "USPS COLLECTION BOX - PO LOBBY", "note": "ON 12/24 AND 12/31, THIS BOX MAY BE COLLECTED AS EARLY AS 12 NOON.", "ref": "4703600003"}, "type": "Feature"}
{"geometry": {"coordinates": [-85.201402196, 39.340617464], "type": "Point"}, "id": "L4i7NeRd7A4wC1ednpLlKKK3EtQ=", "properties": {"@spider": "usps_collection_boxes", "addr:city": "OLDENBURG", "addr:country": "US", "addr:full": "22133 MAIN ST", "addr:postcode": "47036", "addr:state": "IN", "brand": "USPS", "collection_times": "Mo-Fr 16:15; Sa 11:30", "name": "USPS COLLECTION BOX - PO LOBBY", "note": "ON 12/24 AND 12/31, THIS BOX MAY BE COLLECTED AS EARLY AS 12 NOON.", "ref": "4703600006"}, "type": "Feature"}
{"geometry": {"coordinates": [-85.29297283, 39.130159893], "type": "Point"}, "id": "XT-Wu6IVSdHSGft13Wbhj7rUlZY=", "properties": {"@spider": "usps_collection_boxes", "addr:city": "OSGOOD", "addr:country": "US", "addr:full": "201 N WALNUT ST", "addr:postcode": "47037", "addr:state": "IN", "brand": "USPS", "collection_times": "Mo-Fr 16:00; Sa 11:00", "name": "USPS COLLECTION BOX - PO LOBBY", "note": "ON 12/24 AND 12/31, THIS BOX MAY BE COLLECTED AS EARLY AS 12 NOON.", "ref": "4703700009"}, "type": "Feature"}
{"geometry": {"coordinates": [-85.29297283, 39.130159893], "type": "Point"}, "id": "bn8mFS-Y_251GlHfeEwX219OjzI=", "properties": {"@spider": "usps_collection_boxes", "addr:city": "OSGOOD", "addr:country": "US", "addr:full": "201 N WALNUT ST", "addr:postcode": "47037", "addr:state": "IN", "brand": "USPS", "collection_times": "Mo-Fr 16:00; Sa 11:00", "name": "USPS COLLECTION BOX - BLUE BOX", "note": "ON 12/24 AND 12/31, THIS BOX MAY BE COLLECTED AS EARLY AS 12 NOON.", "ref": "4703700010"}, "type": "Feature"}
{"geometry": {"coordinates": [-85.2062887, 39.146197], "type": "Point"}, "id": "AyAplixE7jCiGAd0ZI1GlgdhkhY=", "properties": {"@spider": "usps_collection_boxes", "addr:city": "OSGOOD", "addr:country": "US", "addr:full": "4900 N STATE ROAD 129", "addr:postcode": "47037", "addr:state": "IN", "brand": "USPS", "collection_times": "Mo-Sa 11:00", "name": "USPS COLLECTION BOX - BLUE BOX", "ref": "4703700011"}, "type": "Feature"}
{"geometry": {"coordinates": [-85.29297283, 39.130159893], "type": "Point"}, "id": "YvZKGH1kFGEAp_vlt7el-G947v4=", "properties": {"@spider": "usps_collection_boxes", "addr:city": "OSGOOD", "addr:country": "US", "addr:full": "201 N WALNUT ST", "addr:postcode": "47037", "addr:state": "IN", "brand": "USPS", "collection_times": "Mo-Fr 16:00; Sa 11:30", "name": "USPS COLLECTION BOX - PO LOBBY", "note": "ON 12/24 AND 12/31, THIS BOX MAY BE COLLECTED AS EARLY AS 12 NOON.", "ref": "4703700016"}, "type": "Feature"}
{"geometry": {"coordinates": [-84.826838062, 38.838581392], "type": "Point"}, "id": "Snl225ScV8m-LvHwZoJQ88ucAQw=", "properties": {"@spider": "usps_collection_boxes", "addr:city": "PATRIOT", "addr:country": "US", "addr:full": "2797 MAIN ST", "addr:postcode": "47038", "addr:state": "IN", "brand": "USPS", "collection_times": "Mo-Fr 16:00; Sa 11:00", "name": "USPS COLLECTION BOX - PO LOBBY", "note": "ON 12/24 AND 12/31, THIS BOX MAY BE COLLECTED AS EARLY AS 12 NOON.", "ref": "4703800001"}, "type": "Feature"}
{"geometry": {"coordinates": [-84.826838062, 38.838581392], "type": "Point"}, "id": "Z8YFNaFVk2UQuzl4wPYvubjc-OI=", "properties": {"@spider": "usps_collection_boxes", "addr:city": "PATRIOT", "addr:country": "US", "addr:full": "2797 MAIN ST", "addr:postcode": "47038", "addr:state": "IN", "brand": "USPS", "collection_times": "Mo-Fr 16:00; Sa 11:00", "name": "USPS COLLECTION BOX - BLUE BOX", "note": "ON 12/24 AND 12/31, THIS BOX MAY BE COLLECTED AS EARLY AS 12 NOON.", "ref": "4703800002"}, "type": "Feature"}
{"geometry": {"coordinates": [-84.826838062, 38.838581392], "type": "Point"}, "id": "_M3hiTVYB_KN5Hl6dfxALmgXM3I=", "properties": {"@spider": "usps_collection_boxes", "addr:city": "PATRIOT", "addr:country": "US", "addr:full": "2797 MAIN ST", "addr:postcode": "47038", "addr:state": "IN", "brand": "USPS", "collection_times": "Mo-Fr 16:00; Sa 13:15", "name": "USPS COLLECTION BOX - PO LOBBY", "note": "ON 12/24 AND 12/31, THIS BOX MAY BE COLLECTED AS EARLY AS 12 NOON.", "ref": "4703800006"}, "type": "Feature"}
{"geometry": {"coordinates": [-85.178264156, 39.134843965], "type": "Point"}, "id": "MbpeaICUrTwPBDGHE1LSGbTHejM=", "properties": {"@spider": "usps_collection_boxes", "addr:city": "PIERCEVILLE", "addr:country": "US", "addr:full": "4499 E STATE ROUTE 350", "addr:postcode": "47039", "addr:state": "IN", "brand": "USPS", "collection_times": "Mo-Fr 14:45; Sa 11:45", "name": "USPS COLLECTION BOX - BLUE BOX", "note": "ON 12/24 AND 12/31, THIS BOX MAY BE COLLECTED AS EARLY AS 12 NOON.", "ref": "4703900001"}, "type": "Feature"}
{"geometry": {"coordinates": [-85.178264156, 39.134843965], "type": "Point"}, "id": "rqQpGfFAIDdQVjmzlpHg0T7f5GM=", "properties": {"@spider": "usps_collection_boxes", "addr:city": "PIERCEVILLE", "addr:country": "US", "addr:full": "4499 E STATE ROUTE 350", "addr:postcode": "47039", "addr:state": "IN", "brand": "USPS", "collection_times": "Mo-Fr 14:45; Sa 11:45", "name": "USPS COLLECTION BOX - PO LOBBY", "note": "ON 12/24 AND 12/31, THIS BOX MAY BE COLLECTED AS EARLY AS 12 NOON.", "ref": "4703900002"}, "type": "Feature"}
{"geometry": {"coordinates": [-85.178264156, 39.134843965], "type": "Point"}, "id": "W_-nriDtv9ZOzkGjOVxaAunfRaM=", "properties": {"@spider": "usps_collection_boxes", "addr:city": "PIERCEVILLE", "addr:country": "US", "addr:full": "4499 E STATE ROUTE 350", "addr:postcode": "47039", "addr:state": "IN", "brand": "USPS", "collection_times": "Mo-Fr 15:00; Sa 12:00", "name": "USPS COLLECTION BOX - PO LOBBY", "note": "ON 12/24 AND 12/31, THIS BOX MAY BE COLLECTED AS EARLY AS 12 NOON.", "ref": "4703900005"}, "type": "Feature"}
{"geometry": {"coordinates": [-84.8528695, 38.948594], "type": "Point"}, "id": "vuIXyTFA3wQaaEGaJHXngpIU2HY=", "properties": {"@spider": "usps_collection_boxes", "addr:city": "RISING SUN", "addr:country": "US", "addr:full": "210 MAIN ST", "addr:postcode": "47040", "addr:state": "IN", "brand": "USPS", "collection_times": "Mo-Sa 13:00", "name": "USPS COLLECTION BOX - BLUE BOX", "note": "ON 12/24 AND 12/31, THIS BOX MAY BE COLLECTED AS EARLY AS 12 NOON.", "ref": "4704000005"}, "type": "Feature"}
{"geometry": {"coordinates": [-84.853432, 38.949661], "type": "Point"}, "id": "VIxne-a4ICZkqMS-jQw9rt0FdzI=", "properties": {"@spider": "usps_collection_boxes", "addr:city": "RISING SUN", "addr:country": "US", "addr:full": "111 N WALNUT ST", "addr:postcode": "47040", "addr:state": "IN", "brand": "USPS", "collection_times": "Mo-Fr 16:00; Sa 12:00", "name": "USPS COLLECTION BOX - BLUE BOX", "note": "ON 12/24 AND 12/31, THIS BOX MAY BE COLLECTED AS EARLY AS 12 NOON.", "ref": "4704000006"}, "type": "Feature"}
{"geometry": {"coordinates": [-84.853432, 38.949661], "type": "Point"}, "id": "l128ge5cRZfjd7qiXihJ9g0SGxA=", "properties": {"@spider": "usps_collection_boxes", "addr:city": "RISING SUN", "addr:country": "US", "addr:full": "111 N WALNUT ST", "addr:postcode": "47040", "addr:state": "IN", "brand": "USPS", "collection_times": "Mo-Fr 16:00; Sa 12:00", "name": "USPS COLLECTION BOX - PO LOBBY", "note": "ON 12/24 AND 12/31, THIS BOX MAY BE COLLECTED AS EARLY AS 12 NOON.", "ref": "4704000008"}, "type": "Feature"}
{"geometry": {"coordinates": [-84.853432, 38.949661], "type": "Point"}, "id": "BbtfF1C0FIm8bzfcDp9VhWeRaJE=", "properties": {"@spider": "usps_collection_boxes", "addr:city": "RISING SUN", "addr:country": "US", "addr:full": "111 N WALNUT ST", "addr:postcode": "47040", "addr:state": "IN", "brand": "USPS", "collection_times": "Mo-Fr 16:00; Sa 12:00", "name": "USPS COLLECTION BOX - PO LOBBY", "note": "ON 12/24 AND 12/31, THIS BOX MAY BE COLLECTED AS EARLY AS 12 NOON.", "ref": "4704000009"}, "type": "Feature"}
{"geometry": {"coordinates": [-84.856453, 38.950595], "type": "Point"}, "id": "gm55dfp8PfmQMEPnn4ccx0b4gIM=", "properties": {"@spider": "usps_collection_boxes", "addr:city": "RISING SUN", "addr:country": "US", "addr:full": "412 MAIN ST", "addr:postcode": "47040", "addr:state": "IN", "brand": "USPS", "collection_times": "Mo-Sa 12:00", "name": "USPS COLLECTION BOX - BLUE BOX", "ref": "4704000016"}, "type": "Feature"}
{"geometry": {"coordinates": [-84.8534155956, 38.9496681813], "type": "Point"}, "id": "nqQGlXMbedsvBe-Keaju3Bpbv0I=", "properties": {"@spider": "usps_collection_boxes", "addr:city": "RISING SUN", "addr:country": "US", "addr:full": "111 N WALNUT ST", "addr:postcode": "47040", "addr:state": "IN", "brand": "USPS", "collection_times": "Mo-Fr 16:00; Sa 12:00", "name": "USPS COLLECTION BOX - PO LOBBY", "note": "ON 12/24 AND 12/31, THIS BOX MAY BE COLLECTED AS EARLY AS 12 NOON.", "ref": "4704000019"}, "type": "Feature"}
{"geometry": {"coordinates": [-85.094566, 39.23866], "type": "Point"}, "id": "C41dy-p9d5sh7tqZBExRVnZotf8=", "properties": {"@spider": "usps_collection_boxes", "addr:city": "SUNMAN", "addr:country": "US", "addr:full": "219 N MERIDIAN ST", "addr:postcode": "47041", "addr:state": "IN", "brand": "USPS", "collection_times": "Mo-Fr 16:00; Sa 11:30", "name": "USPS COLLECTION BOX - BLUE BOX", "note": "ON 12/24 AND 12/31, THIS BOX MAY BE COLLECTED AS EARLY AS 12 NOON.", "ref": "4704100000"}, "type": "Feature"}
{"geometry": {"coordinates": [-85.094566, 39.23866], "type": "Point"}, "id": "_owBl-0vmJ3_yZn7GaKo5IiDXNI=", "properties": {"@spider": "usps_collection_boxes", "addr:city": "SUNMAN", "addr:country": "US", "addr:full": "219 N MERIDIAN ST", "addr:postcode": "47041", "addr:state": "IN", "brand": "USPS", "collection_times": "Mo-Fr 16:00; Sa 11:30", "name": "USPS COLLECTION BOX - PO LOBBY", "note": "ON 12/24 AND 12/31, THIS BOX MAY BE COLLECTED AS EARLY AS 12 NOON.", "ref": "4704100002"}, "type": "Feature"}
{"geometry": {"coordinates": [-85.0979059, 39.272451], "type": "Point"}, "id": "h7CInT4qapbDkBH1UeGscCzTUws=", "properties": {"@spider": "usps_collection_boxes", "addr:city": "SUNMAN", "addr:country": "US", "addr:full": "8845 E STATE ROUTE 46", "addr:postcode": "47041", "addr:state": "IN", "brand": "USPS", "collection_times": "Mo-Sa 11:30", "name": "USPS COLLECTION BOX - BLUE BOX", "ref": "4704100003"}, "type": "Feature"}
{"geometry": {"coordinates": [-85.0943994, 39.242432], "type": "Point"}, "id": "TNYWxH9jgBflhvbS-HEyiZ9l_rQ=", "properties": {"@spider": "usps_collection_boxes", "addr:city": "SUNMAN", "addr:country": "US", "addr:full": "604 N MERIDIAN ST", "addr:postcode": "47041", "addr:state": "IN", "brand": "USPS", "collection_times": "Mo-Sa 10:30", "name": "USPS COLLECTION BOX - BLUE BOX", "ref": "4704100006"}, "type": "Feature"}
{"geometry": {"coordinates": [-85.0945654632, 39.2386596392], "type": "Point"}, "id": "nbwGajLJqvobx6ld_eXjGS1Ddss=", "properties": {"@spider": "usps_collection_boxes", "addr:city": "SUNMAN", "addr:country": "US", "addr:full": "219 N MERIDIAN ST", "addr:postcode": "47041", "addr:state": "IN", "brand": "USPS", "collection_times": "Mo-Fr 16:30; Sa 12:00", "name": "USPS COLLECTION BOX - PO LOBBY", "note": "ON 12/24 AND 12/31, THIS BOX MAY BE COLLECTED AS EARLY AS 12 NOON.", "ref": "4704100012"}, "type": "Feature"}
{"geometry": {"coordinates": [-85.252446443, 39.070828603], "type": "Point"}, "id": "Kf7_a9P31K2DqYYujlwkKbFajVM=", "properties": {"@spider": "usps_collection_boxes", "addr:city": "VERSAILLES", "addr:country": "US", "addr:full": "121 S WASHINGTON ST", "addr:postcode": "47042", "addr:state": "IN", "brand": "USPS", "collection_times": "Mo-Fr 16:00; Sa 12:00", "name": "USPS COLLECTION BOX - BLUE BOX", "note": "ON 12/24 AND 12/31, THIS BOX MAY BE COLLECTED AS EARLY AS 12 NOON.", "ref": "4704200001"}, "type": "Feature"}
{"geometry": {"coordinates": [-85.252446443, 39.070828603], "type": "Point"}, "id": "1wAOTH03DA_wf7r2pKRFW2ekl6Y=", "properties": {"@spider": "usps_collection_boxes", "addr:city": "VERSAILLES", "addr:country": "US", "addr:full": "121 S WASHINGTON ST", "addr:postcode": "47042", "addr:state": "IN", "brand": "USPS", "collection_times": "Mo-Fr 16:00; Sa 12:00", "name": "USPS COLLECTION BOX - PO LOBBY", "note": "ON 12/24 AND 12/31, THIS BOX MAY BE COLLECTED AS EARLY AS 12 NOON.", "ref": "4704200003"}, "type": "Feature"}
{"geometry": {"coordinates": [-85.252446443, 39.070828603], "type": "Point"}, "id": "GS5ZIsjOjnxKco0Bb-Kl7JlnzHQ=", "properties": {"@spider": "usps_collection_boxes", "addr:city": "VERSAILLES", "addr:country": "US", "addr:full": "121 S WASHINGTON ST", "addr:postcode": "47042", "addr:state": "IN", "brand": "USPS", "collection_times": "Mo-Fr 16:00; Sa 12:00", "name": "USPS COLLECTION BOX - PO LOBBY", "note": "ON 12/24 AND 12/31, THIS BOX MAY BE COLLECTED AS EARLY AS 12 NOON.", "ref": "4704200004"}, "type": "Feature"}
{"geometry": {"coordinates": [-85.2521299, 39.072031], "type": "Point"}, "id": "Wwnzcltut4qE9--_FUypl-H5xi4=", "properties": {"@spider": "usps_collection_boxes", "addr:city": "VERSAILLES", "addr:country": "US", "addr:full": "108 N WASHINGTON ST", "addr:postcode": "47042", "addr:state": "IN", "brand": "USPS", "collection_times": "Mo-Sa 11:00", "name": "USPS COLLECTION BOX - BLUE BOX", "ref": "4704200005"}, "type": "Feature"}
{"geometry": {"coordinates": [-85.252446443, 39.070828603], "type": "Point"}, "id": "qqnJaZJR7EFGtwHdoDsWU2JgM7g=", "properties": {"@spider": "usps_collection_boxes", "addr:city": "VERSAILLES", "addr:country": "US", "addr:full": "121 S WASHINGTON ST", "addr:postcode": "47042", "addr:state": "IN", "brand": "USPS", "collection_times": "Mo-Fr 16:00; Sa 12:00", "name": "USPS COLLECTION BOX - PO LOBBY", "note": "ON 12/24 AND 12/31, THIS BOX MAY BE COLLECTED AS EARLY AS 12 NOON.", "ref": "4704200016"}, "type": "Feature"}
{"geometry": {"coordinates": [-85.0672888, 38.747752], "type": "Point"}, "id": "Pdivqly5T4k1awtZhy03sLkwth0=", "properties": {"@spider": "usps_collection_boxes", "addr:city": "VEVAY", "addr:country": "US", "addr:full": "102 W MAIN ST", "addr:postcode": "47043", "addr:state": "IN", "brand": "USPS", "collection_times": "Mo-Sa 08:45", "name": "USPS COLLECTION BOX - BLUE BOX", "ref": "4704300001"}, "type": "Feature"}
{"geometry": {"coordinates": [-85.0682989, 38.747057], "type": "Point"}, "id": "w0MFm3tdPNtgYvVbB-8kzCq-le0=", "properties": {"@spider": "usps_collection_boxes", "addr:city": "VEVAY", "addr:country": "US", "addr:full": "212 W MAIN ST", "addr:postcode": "47043", "addr:state": "IN", "brand": "USPS", "collection_times": "Mo-Sa 09:00", "name": "USPS COLLECTION BOX - BLUE BOX", "ref": "4704300002"}, "type": "Feature"}
{"geometry": {"coordinates": [-85.0698949, 38.748615], "type": "Point"}, "id": "kcEyvrKswGsLm1W7e-16020hlkU=", "properties": {"@spider": "usps_collection_boxes", "addr:city": "VEVAY", "addr:country": "US", "addr:full": "202 W SEMINARY ST", "addr:postcode": "47043", "addr:state": "IN", "brand": "USPS", "collection_times": "Mo-Sa 11:00", "name": "USPS COLLECTION BOX - BLUE BOX", "ref": "4704300005"}, "type": "Feature"}
{"geometry": {"coordinates": [-85.068337, 38.748265], "type": "Point"}, "id": "9qLuWbt4A4pResXQQMW1cfAmfHk=", "properties": {"@spider": "usps_collection_boxes", "addr:city": "VEVAY", "addr:country": "US", "addr:full": "104 W PIKE ST", "addr:postcode": "47043", "addr:state": "IN", "brand": "USPS", "collection_times": "Mo-Fr 16:00; Sa 11:00", "name": "USPS COLLECTION BOX - PO LOBBY", "note": "ON 12/24 AND 12/31, THIS BOX MAY BE COLLECTED AS EARLY AS 12 NOON.", "ref": "4704300008"}, "type": "Feature"}
{"geometry": {"coordinates": [-85.068337, 38.748265], "type": "Point"}, "id": "I8jkEUpRshrRbJywzknAJazwXzw=", "properties": {"@spider": "usps_collection_boxes", "addr:city": "VEVAY", "addr:country": "US", "addr:full": "104 W PIKE ST", "addr:postcode": "47043", "addr:state": "IN", "brand": "USPS", "collection_times": "Mo-Fr 16:00; Sa 11:00", "name": "USPS COLLECTION BOX - BLUE BOX", "note": "ON 12/24 AND 12/31, THIS BOX MAY BE COLLECTED AS EARLY AS 12 NOON.", "ref": "4704300009"}, "type": "Feature"}
{"geometry": {"coordinates": [-85.0737478, 38.743469], "type": "Point"}, "id": "Q_BKdEs38gcIMM8epByDEAk-RGQ=", "properties": {"@spider": "usps_collection_boxes", "addr:city": "VEVAY", "addr:country": "US", "addr:full": "708 W MAIN ST", "addr:postcode": "47043", "addr:state": "IN", "brand": "USPS", "collection_times": "Mo-Sa 09:00", "name": "USPS COLLECTION BOX - BLUE BOX", "ref": "4704300010"}, "type": "Feature"}
{"geometry": {"coordinates": [-85.0644835, 38.750744], "type": "Point"}, "id": "Ak-_LFkPgen2SmnSXpoDTcg0TPY=", "properties": {"@spider": "usps_collection_boxes", "addr:city": "VEVAY", "addr:country": "US", "addr:full": "314 PEARL ST", "addr:postcode": "47043", "addr:state": "IN", "brand": "USPS", "collection_times": "Mo-Sa 11:00", "name": "USPS COLLECTION BOX - BLUE BOX", "ref": "4704300011"}, "type": "Feature"}
{"geometry": {"coordinates": [-85.0589207, 38.751439], "type": "Point"}, "id": "NhAESAqgU1k8euKzOkViNgfMsnU=", "properties": {"@spider": "usps_collection_boxes", "addr:city": "VEVAY", "addr:country": "US", "addr:full": "705 E MAIN ST", "addr:postcode": "47043", "addr:state": "IN", "brand": "USPS", "collection_times": "Mo-Sa 11:00", "name": "USPS COLLECTION BOX - BLUE BOX", "ref": "4704300012"}, "type": "Feature"}
{"geometry": {"coordinates": [-85.068337, 38.748265], "type": "Point"}, "id": "M5AadRufj9teDaq6rEcM8H0UEGo=", "properties": {"@spider": "usps_collection_boxes", "addr:city": "VEVAY", "addr:country": "US", "addr:full": "104 W PIKE ST", "addr:postcode": "47043", "addr:state": "IN", "brand": "USPS", "collection_times": "Mo-Fr 16:00; Sa 11:00", "name": "USPS COLLECTION BOX - PO LOBBY", "note": "ON 12/24 AND 12/31, THIS BOX MAY BE COLLECTED AS EARLY AS 12 NOON.", "ref": "4704300013"}, "type": "Feature"}
{"geometry": {"coordinates": [-85.0683387032, 38.7482604502], "type": "Point"}, "id": "o7cJtNrlItGeFDtLMGnUv200-Z8=", "properties": {"@spider": "usps_collection_boxes", "addr:city": "VEVAY", "addr:country": "US", "addr:full": "104 W PIKE ST", "addr:postcode": "47043", "addr:state": "IN", "brand": "USPS", "collection_times": "Mo-Fr 16:30; Sa 12:00", "name": "USPS COLLECTION BOX - PO LOBBY", "note": "ON 12/24 AND 12/31, THIS BOX MAY BE COLLECTED AS EARLY AS 12 NOON.", "ref": "4704300022"}, "type": "Feature"}
