{"geometry": {"coordinates": [-86.262381, 38.651334], "type": "Point"}, "id": "MHtSX5sbi7orabLE2K0hUXlnghw=", "properties": {"@spider": "usps_collection_boxes", "addr:city": "CAMPBELLSBURG", "addr:country": "US", "addr:full": "55 W OAK ST", "addr:postcode": "47108", "addr:state": "IN", "brand": "USPS", "collection_times": "Mo-Fr 11:45; Sa 11:30", "name": "USPS COLLECTION BOX - BLUE BOX", "ref": "4710800001"}, "type": "Feature"}
{"geometry": {"coordinates": [-86.262392, 38.651361], "type": "Point"}, "id": "5AQ_tkx9AffCIUCerMC_g57Nvn0=", "properties": {"@spider": "usps_collection_boxes", "addr:city": "CAMPBELLSBURG", "addr:country": "US", "addr:full": "55 W OAK ST", "addr:postcode": "47108", "addr:state": "IN", "brand": "USPS", "collection_times": "Mo-Fr 11:45; Sa 11:30", "name": "USPS COLLECTION BOX - PO LOBBY", "ref": "4710800003"}, "type": "Feature"}
{"geometry": {"coordinates": [-86.2598274, 38.649273], "type": "Point"}, "id": "8CE3N_5RE7ZmyFRWy6nUIrOppQI=", "properties": {"@spider": "usps_collection_boxes", "addr:city": "CAMPBELLSBURG", "addr:country": "US", "addr:full": "40 E STATE ROAD 60", "addr:postcode": "47108", "addr:state": "IN", "brand": "USPS", "collection_times": "Mo-Sa 10:00", "name": "USPS COLLECTION BOX - BLUE BOX", "ref": "4710800005"}, "type": "Feature"}
{"geometry": {"coordinates": [-86.2626011123, 38.651326514], "type": "Point"}, "id": "zGN0sbOTRPevTDjb7JFkcqV7J2Q=", "properties": {"@spider": "usps_collection_boxes", "addr:city": "CAMPBELLSBURG", "addr:country": "US", "addr:full": "55 W OAK ST", "addr:postcode": "47108", "addr:state": "IN", "brand": "USPS", "collection_times": "Mo-Fr 11:45; Sa 11:30", "name": "USPS COLLECTION BOX - PO LOBBY", "ref": "4710800007"}, "type": "Feature"}
{"geometry": {"coordinates": [-86.612815326, 38.321081779], "type": "Point"}, "id": "pQHI88NL4EiirkpHKVnvpKV7ous=", "properties": {"@spider": "usps_collection_boxes", "addr:city": "ECKERTY", "addr:country": "US", "addr:full": "7440 W ECKERTY RD", "addr:postcode": "47116", "addr:state": "IN", "brand": "USPS", "collection_times": "Mo-Fr 12:30; Sa 11:30", "name": "USPS COLLECTION BOX - BLUE BOX", "note": "ON 12/24 AND 12/31, THIS BOX MAY BE COLLECTED AS EARLY AS 12 NOON.", "ref": "4711600001"}, "type": "Feature"}
{"geometry": {"coordinates": [-86.6184347, 38.328914], "type": "Point"}, "id": "9Qym2ib3xrccPfcmi8n3VFI48PU=", "properties": {"@spider": "usps_collection_boxes", "addr:city": "ECKERTY", "addr:country": "US", "addr:full": "7609 W ECKERTY RD", "addr:postcode": "47116", "addr:state": "IN", "brand": "USPS", "collection_times": "Mo-Sa 12:30", "name": "USPS COLLECTION BOX - BLUE BOX", "note": "ON 12/24 AND 12/31, THIS BOX MAY BE COLLECTED AS EARLY AS 12 NOON.", "ref": "4711600002"}, "type": "Feature"}
{"geometry": {"coordinates": [-86.612815326, 38.321081779], "type": "Point"}, "id": "72mqWCKjgzc3r0GjYRZMSW9rLeM=", "properties": {"@spider": "usps_collection_boxes", "addr:city": "ECKERTY", "addr:country": "US", "addr:full": "7440 W ECKERTY RD", "addr:postcode": "47116", "addr:state": "IN", "brand": "USPS", "collection_times": "Mo-Fr 12:30; Sa 11:30", "name": "USPS COLLECTION BOX - PO LOBBY", "note": "ON 12/24 AND 12/31, THIS BOX MAY BE COLLECTED AS EARLY AS 12 NOON.", "ref": "4711600003"}, "type": "Feature"}
{"geometry": {"coordinates": [-86.612815326, 38.321081779], "type": "Point"}, "id": "39f204ZI1KgMIAkrcJ64C_io1U8=", "properties": {"@spider": "usps_collection_boxes", "addr:city": "ECKERTY", "addr:country": "US", "addr:full": "7440 W ECKERTY RD", "addr:postcode": "47116", "addr:state": "IN", "brand": "USPS", "collection_times": "Mo-Fr 12:30; Sa 11:30", "name": "USPS COLLECTION BOX - PO LOBBY", "note": "ON 12/24 AND 12/31, THIS BOX MAY BE COLLECTED AS EARLY AS 12 NOON.", "ref": "4711600006"}, "type": "Feature"}
{"geometry": {"coordinates": [-86.279083514, 38.461066856], "type": "Point"}, "id": "1wtphl47l1-mye2vZzEMdhEtIhM=", "properties": {"@spider": "usps_collection_boxes", "addr:city": "HARDINSBURG", "addr:country": "US", "addr:full": "52 E US HIGHWAY 150", "addr:postcode": "47125", "addr:state": "IN", "brand": "USPS", "collection_times": "Mo-Fr 11:30; Sa 11:15", "name": "USPS COLLECTION BOX - BLUE BOX", "ref": "4712500001"}, "type": "Feature"}
{"geometry": {"coordinates": [-86.279083514, 38.461066856], "type": "Point"}, "id": "UyIv-VaUjZ7GfVQXmaA_gB2kbP8=", "properties": {"@spider": "usps_collection_boxes", "addr:city": "HARDINSBURG", "addr:country": "US", "addr:full": "52 E US HIGHWAY 150", "addr:postcode": "47125", "addr:state": "IN", "brand": "USPS", "collection_times": "Mo-Sa 11:30", "name": "USPS COLLECTION BOX - PO LOBBY", "ref": "4712500006"}, "type": "Feature"}
