{"geometry": {"coordinates": [-85.9196935, 39.201515], "type": "Point"}, "id": "_-ThSlHTAMse9TCwtph0NCVsCMU=", "properties": {"@spider": "usps_collection_boxes", "addr:city": "COLUMBUS", "addr:country": "US", "addr:full": "440 3RD ST", "addr:postcode": "47201", "addr:state": "IN", "brand": "USPS", "collection_times": "Mo-Fr 16:30", "name": "USPS COLLECTION BOX - BLUE BOX", "note": "ON 12/24 AND 12/31, THIS BOX MAY BE COLLECTED AS EARLY AS 12 NOON.", "ref": "4720100012"}, "type": "Feature"}
{"geometry": {"coordinates": [-85.9196949, 39.201467], "type": "Point"}, "id": "8CII8zIZ9UyfzCwuOcEg_W9_vao=", "properties": {"@spider": "usps_collection_boxes", "addr:city": "COLUMBUS", "addr:country": "US", "addr:full": "440 3RD ST", "addr:postcode": "47201", "addr:state": "IN", "brand": "USPS", "collection_times": "Mo-Fr 16:30", "name": "USPS COLLECTION BOX - BLUE BOX", "note": "ON 12/24 AND 12/31, THIS BOX MAY BE COLLECTED AS EARLY AS 12 NOON.", "ref": "4720100013"}, "type": "Feature"}
{"geometry": {"coordinates": [-85.878224, 39.213441], "type": "Point"}, "id": "WA11zx6C7VHGLqlyHjCEE9-kC3A=", "properties": {"@spider": "usps_collection_boxes", "addr:city": "COLUMBUS", "addr:country": "US", "addr:full": "1149 N NATIONAL RD", "addr:postcode": "47201", "addr:state": "IN", "brand": "USPS", "collection_times": "Mo-Sa 16:00", "name": "USPS COLLECTION BOX - BLUE BOX", "note": "ON 12/24 AND 12/31, THIS BOX MAY BE COLLECTED AS EARLY AS 12 NOON.", "ref": "4720100016"}, "type": "Feature"}
{"geometry": {"coordinates": [-85.8946987, 39.201252], "type": "Point"}, "id": "-OEZtmueTw-uOjLFnbv_DNpBp9o=", "properties": {"@spider": "usps_collection_boxes", "addr:city": "COLUMBUS", "addr:country": "US", "addr:full": "286 N GLADSTONE AVE", "addr:postcode": "47201", "addr:state": "IN", "brand": "USPS", "collection_times": "Mo-Sa 16:00", "name": "USPS COLLECTION BOX - BLUE BOX", "note": "ON 12/24 AND 12/31, THIS BOX MAY BE COLLECTED AS EARLY AS 12 NOON.", "ref": "4720100026"}, "type": "Feature"}
{"geometry": {"coordinates": [-85.9144717, 39.223134], "type": "Point"}, "id": "JRVygChl5j2R8WqFlrBEoAH5iJk=", "properties": {"@spider": "usps_collection_boxes", "addr:city": "COLUMBUS", "addr:country": "US", "addr:full": "2502 CALIFORNIA ST", "addr:postcode": "47201", "addr:state": "IN", "brand": "USPS", "collection_times": "Mo-Fr 15:00", "name": "USPS COLLECTION BOX - BLUE BOX", "note": "ON 12/24 AND 12/31, THIS BOX MAY BE COLLECTED AS EARLY AS 12 NOON.", "ref": "4720100030"}, "type": "Feature"}
{"geometry": {"coordinates": [-85.9049226286, 39.2231059951], "type": "Point"}, "id": "ww15PeQBkU09Fd4GVw5iL275JC0=", "properties": {"@spider": "usps_collection_boxes", "addr:city": "COLUMBUS", "addr:country": "US", "addr:full": "1840 25TH ST", "addr:postcode": "47201", "addr:state": "IN", "brand": "USPS", "collection_times": "Mo-Sa 15:30", "name": "USPS COLLECTION BOX - BLUE BOX", "note": "ON 12/24 AND 12/31, THIS BOX MAY BE COLLECTED AS EARLY AS 12 NOON.", "ref": "4720100039"}, "type": "Feature"}
{"geometry": {"coordinates": [-85.9044217, 39.22329], "type": "Point"}, "id": "FPYEdIkvjEzeTHfrJERpRePUGH0=", "properties": {"@spider": "usps_collection_boxes", "addr:city": "COLUMBUS", "addr:country": "US", "addr:full": "1840 25TH ST", "addr:postcode": "47201", "addr:state": "IN", "brand": "USPS", "collection_times": "Mo-Sa 15:30", "name": "USPS COLLECTION BOX - BLUE BOX", "note": "ON 12/24 AND 12/31, THIS BOX MAY BE COLLECTED AS EARLY AS 12 NOON.", "ref": "4720100040"}, "type": "Feature"}
{"geometry": {"coordinates": [-85.9199691, 39.205741], "type": "Point"}, "id": "HhKj1-nJXw4mnlm0U6gN7G9Zmos=", "properties": {"@spider": "usps_collection_boxes", "addr:city": "COLUMBUS", "addr:country": "US", "addr:full": "724 FRANKLIN ST", "addr:postcode": "47201", "addr:state": "IN", "brand": "USPS", "collection_times": "Mo-Fr 16:30; Sa 16:00", "name": "USPS COLLECTION BOX - BLUE BOX", "note": "ON 12/24 AND 12/31, THIS BOX MAY BE COLLECTED AS EARLY AS 12 NOON.", "ref": "4720100042"}, "type": "Feature"}
{"geometry": {"coordinates": [-85.9250605, 39.202852], "type": "Point"}, "id": "pI4WkX7vwDPUAw0Lj7yrWVxEIc0=", "properties": {"@spider": "usps_collection_boxes", "addr:city": "COLUMBUS", "addr:country": "US", "addr:full": "450 LINDSAY ST", "addr:postcode": "47201", "addr:state": "IN", "brand": "USPS", "collection_times": "Mo-Fr 16:30; Sa 16:00", "name": "USPS COLLECTION BOX - BLUE BOX", "note": "ON 12/24 AND 12/31, THIS BOX MAY BE COLLECTED AS EARLY AS 12 NOON.", "ref": "4720100046"}, "type": "Feature"}
{"geometry": {"coordinates": [-85.90161, 39.229303], "type": "Point"}, "id": "fyMR1-dMyHW_wkKCFQIFCpgSZns=", "properties": {"@spider": "usps_collection_boxes", "addr:city": "COLUMBUS", "addr:country": "US", "addr:full": "3060 N NATIONAL RD", "addr:postcode": "47201", "addr:state": "IN", "brand": "USPS", "collection_times": "Mo-Sa 15:00", "name": "USPS COLLECTION BOX - BLUE BOX", "note": "ON 12/24 AND 12/31, THIS BOX MAY BE COLLECTED AS EARLY AS 12 NOON.", "ref": "4720100048"}, "type": "Feature"}
{"geometry": {"coordinates": [-85.8982957, 39.225354], "type": "Point"}, "id": "T-CbwXXcFoRUmoxE0hvAf7p1dFg=", "properties": {"@spider": "usps_collection_boxes", "addr:city": "COLUMBUS", "addr:country": "US", "addr:full": "2394 25TH ST", "addr:postcode": "47201", "addr:state": "IN", "brand": "USPS", "collection_times": "Mo-Fr 15:30", "name": "USPS COLLECTION BOX - BLUE BOX", "note": "ON 12/24 AND 12/31, THIS BOX MAY BE COLLECTED AS EARLY AS 12 NOON.", "ref": "4720100049"}, "type": "Feature"}
{"geometry": {"coordinates": [-85.922565439, 39.202902524], "type": "Point"}, "id": "M17KF_ZKvMaFaCFOsRCkGYMh12Y=", "properties": {"@spider": "usps_collection_boxes", "addr:city": "COLUMBUS", "addr:country": "US", "addr:full": "450 JACKSON ST", "addr:postcode": "47201", "addr:state": "IN", "brand": "USPS", "collection_times": "Mo-Fr 18:00; Sa 17:15", "name": "USPS COLLECTION BOX - PO LOBBY", "note": "ON 12/24 AND 12/31, THIS BOX MAY BE COLLECTED AS EARLY AS 12 NOON.", "ref": "4720100054"}, "type": "Feature"}
{"geometry": {"coordinates": [-85.8925434, 39.224201], "type": "Point"}, "id": "KCZqTChSzDjtE97MBAp3vumjVgQ=", "properties": {"@spider": "usps_collection_boxes", "addr:city": "COLUMBUS", "addr:country": "US", "addr:full": "2630 EASTBROOK PLZ", "addr:postcode": "47201", "addr:state": "IN", "brand": "USPS", "collection_times": "Mo-Sa 15:30", "name": "USPS COLLECTION BOX - BLUE BOX", "note": "ON 12/24 AND 12/31, THIS BOX MAY BE COLLECTED AS EARLY AS 12 NOON.", "ref": "4720100059"}, "type": "Feature"}
{"geometry": {"coordinates": [-85.8925424, 39.224209], "type": "Point"}, "id": "4yToNA_UrlCnyQCuClLXpanXMy8=", "properties": {"@spider": "usps_collection_boxes", "addr:city": "COLUMBUS", "addr:country": "US", "addr:full": "2630 EASTBROOK PLZ", "addr:postcode": "47201", "addr:state": "IN", "brand": "USPS", "collection_times": "Mo-Sa 15:30", "name": "USPS COLLECTION BOX - BLUE BOX", "note": "ON 12/24 AND 12/31, THIS BOX MAY BE COLLECTED AS EARLY AS 12 NOON.", "ref": "4720100060"}, "type": "Feature"}
{"geometry": {"coordinates": [-85.9199824, 39.205738], "type": "Point"}, "id": "Q8xHh3xwEwWmM0uk7pk4N2mharg=", "properties": {"@spider": "usps_collection_boxes", "addr:city": "COLUMBUS", "addr:country": "US", "addr:full": "724 FRANKLIN ST", "addr:postcode": "47201", "addr:state": "IN", "brand": "USPS", "collection_times": "Mo-Fr 16:30; Sa 16:00", "name": "USPS COLLECTION BOX - BLUE BOX", "note": "ON 12/24 AND 12/31, THIS BOX MAY BE COLLECTED AS EARLY AS 12 NOON.", "ref": "4720100061"}, "type": "Feature"}
{"geometry": {"coordinates": [-85.9712251, 39.20046], "type": "Point"}, "id": "vb_C9vJy5MrOYe8UhEfdrKvUKw0=", "properties": {"@spider": "usps_collection_boxes", "addr:city": "COLUMBUS", "addr:country": "US", "addr:full": "4100 W JONATHAN MOORE PIKE", "addr:postcode": "47201", "addr:state": "IN", "brand": "USPS", "collection_times": "Mo-Fr 13:30; Sa 12:00", "name": "USPS COLLECTION BOX - BLUE BOX", "note": "ON 12/24 AND 12/31, THIS BOX MAY BE COLLECTED AS EARLY AS 12 NOON.", "ref": "4720100064"}, "type": "Feature"}
{"geometry": {"coordinates": [-85.9712279, 39.200471], "type": "Point"}, "id": "0iCmPqUGSE0jSheQJSfYLIQzqmg=", "properties": {"@spider": "usps_collection_boxes", "addr:city": "COLUMBUS", "addr:country": "US", "addr:full": "4100 W JONATHAN MOORE PIKE", "addr:postcode": "47201", "addr:state": "IN", "brand": "USPS", "collection_times": "Mo-Fr 13:30; Sa 12:00", "name": "USPS COLLECTION BOX - BLUE BOX", "note": "ON 12/24 AND 12/31, THIS BOX MAY BE COLLECTED AS EARLY AS 12 NOON.", "ref": "4720100065"}, "type": "Feature"}
{"geometry": {"coordinates": [-85.9044147, 39.22326], "type": "Point"}, "id": "NZ9tLEAKauClMfSW5Pl8DyBpvbU=", "properties": {"@spider": "usps_collection_boxes", "addr:city": "COLUMBUS", "addr:country": "US", "addr:full": "1840 25TH ST", "addr:postcode": "47201", "addr:state": "IN", "brand": "USPS", "collection_times": "Mo-Sa 15:30", "name": "USPS COLLECTION BOX - BLUE BOX", "note": "ON 12/24 AND 12/31, THIS BOX MAY BE COLLECTED AS EARLY AS 12 NOON.", "ref": "4720100069"}, "type": "Feature"}
{"geometry": {"coordinates": [-85.9078222, 39.211547], "type": "Point"}, "id": "bdHmKYs3a0SLiJ2u1F8Pj8TRYrQ=", "properties": {"@spider": "usps_collection_boxes", "addr:city": "COLUMBUS", "addr:country": "US", "addr:full": "1532 13TH ST", "addr:postcode": "47201", "addr:state": "IN", "brand": "USPS", "collection_times": "Mo-Fr 16:15", "name": "USPS COLLECTION BOX - BLUE BOX", "note": "ON 12/24 AND 12/31, THIS BOX MAY BE COLLECTED AS EARLY AS 12 NOON.", "ref": "4720100071"}, "type": "Feature"}
{"geometry": {"coordinates": [-85.922565439, 39.202902524], "type": "Point"}, "id": "Rt6tzihQqGOSPk1KNeA_kC4aEY0=", "properties": {"@spider": "usps_collection_boxes", "addr:city": "COLUMBUS", "addr:country": "US", "addr:full": "450 JACKSON ST", "addr:postcode": "47201", "addr:state": "IN", "brand": "USPS", "collection_times": "Mo-Fr 18:00; Sa 17:15", "name": "USPS COLLECTION BOX - APC", "note": "ON 12/24 AND 12/31, THIS BOX MAY BE COLLECTED AS EARLY AS 12 NOON.", "ref": "4720100075"}, "type": "Feature"}
{"geometry": {"coordinates": [-85.9078235, 39.211543], "type": "Point"}, "id": "hfIVn1ii4h9OI0J9TeoZcFyNCbo=", "properties": {"@spider": "usps_collection_boxes", "addr:city": "COLUMBUS", "addr:country": "US", "addr:full": "1532 13TH ST", "addr:postcode": "47201", "addr:state": "IN", "brand": "USPS", "collection_times": "Mo-Fr 16:15", "name": "USPS COLLECTION BOX - BLUE BOX", "note": "ON 12/24 AND 12/31, THIS BOX MAY BE COLLECTED AS EARLY AS 12 NOON.", "ref": "4720100076"}, "type": "Feature"}
{"geometry": {"coordinates": [-85.904412, 39.223262], "type": "Point"}, "id": "XtDj4HChn-t5dJo0HfUYjzQ01kg=", "properties": {"@spider": "usps_collection_boxes", "addr:city": "COLUMBUS", "addr:country": "US", "addr:full": "1840 25TH ST", "addr:postcode": "47201", "addr:state": "IN", "brand": "USPS", "collection_times": "Mo-Sa 15:30", "name": "USPS COLLECTION BOX - BLUE BOX", "note": "ON 12/24 AND 12/31, THIS BOX MAY BE COLLECTED AS EARLY AS 12 NOON.", "ref": "4720100079"}, "type": "Feature"}
{"geometry": {"coordinates": [-85.9250694, 39.202841], "type": "Point"}, "id": "l6qVUEUt1ap71zWmS9G_8ojtijU=", "properties": {"@spider": "usps_collection_boxes", "addr:city": "COLUMBUS", "addr:country": "US", "addr:full": "450 LINDSAY ST", "addr:postcode": "47201", "addr:state": "IN", "brand": "USPS", "collection_times": "Mo-Fr 16:30; Sa 16:00", "name": "USPS COLLECTION BOX - BLUE BOX", "note": "ON 12/24 AND 12/31, THIS BOX MAY BE COLLECTED AS EARLY AS 12 NOON.", "ref": "4720100081"}, "type": "Feature"}
{"geometry": {"coordinates": [-85.9712087, 39.20046], "type": "Point"}, "id": "Dfj-hZwWmZ14QE_WShNp4C6dJR4=", "properties": {"@spider": "usps_collection_boxes", "addr:city": "COLUMBUS", "addr:country": "US", "addr:full": "4100 W JONATHAN MOORE PIKE", "addr:postcode": "47201", "addr:state": "IN", "brand": "USPS", "collection_times": "Mo-Fr 13:30; Sa 12:00", "name": "USPS COLLECTION BOX - BLUE BOX", "note": "ON 12/24 AND 12/31, THIS BOX MAY BE COLLECTED AS EARLY AS 12 NOON.", "ref": "4720100082"}, "type": "Feature"}
{"geometry": {"coordinates": [-85.8835257, 39.216716], "type": "Point"}, "id": "7yIbhz2Ik5X7YeU5nt66xU_-ptg=", "properties": {"@spider": "usps_collection_boxes", "addr:city": "COLUMBUS", "addr:country": "US", "addr:full": "1647 N NATIONAL RD", "addr:postcode": "47201", "addr:state": "IN", "brand": "USPS", "collection_times": "Mo-Sa 16:00", "name": "USPS COLLECTION BOX - BLUE BOX", "note": "ON 12/24 AND 12/31, THIS BOX MAY BE COLLECTED AS EARLY AS 12 NOON.", "ref": "4720100083"}, "type": "Feature"}
{"geometry": {"coordinates": [-85.922565439, 39.202902524], "type": "Point"}, "id": "Bww4mHgX-C4SX2U_8ORWkytWLnc=", "properties": {"@spider": "usps_collection_boxes", "addr:city": "COLUMBUS", "addr:country": "US", "addr:full": "450 JACKSON ST", "addr:postcode": "47201", "addr:state": "IN", "brand": "USPS", "collection_times": "Mo-Fr 19:00; Sa 13:00", "name": "USPS COLLECTION BOX - PO LOBBY", "note": "ON 12/24 AND 12/31, THIS BOX MAY BE COLLECTED AS EARLY AS 12 NOON.", "ref": "4720100089"}, "type": "Feature"}
{"geometry": {"coordinates": [-85.9113599, 39.237603], "type": "Point"}, "id": "AkT-dTFLrVVMmnXHTbs9fBvHDHM=", "properties": {"@spider": "usps_collection_boxes", "addr:city": "COLUMBUS", "addr:country": "US", "addr:full": "1302 ROCKY FORD RD", "addr:postcode": "47203", "addr:state": "IN", "brand": "USPS", "collection_times": "Mo-Sa 15:00", "name": "USPS COLLECTION BOX - BLUE BOX", "note": "ON 12/24 AND 12/31, THIS BOX MAY BE COLLECTED AS EARLY AS 12 NOON.", "ref": "4720300001"}, "type": "Feature"}
{"geometry": {"coordinates": [-85.8775613, 39.22381], "type": "Point"}, "id": "wdBVnRuuWO8hVJabb42pe7i_zLo=", "properties": {"@spider": "usps_collection_boxes", "addr:city": "COLUMBUS", "addr:country": "US", "addr:full": "3850 25TH ST", "addr:postcode": "47203", "addr:state": "IN", "brand": "USPS", "collection_times": "Mo-Sa 15:45", "name": "USPS COLLECTION BOX - BLUE BOX", "note": "ON 12/24 AND 12/31, THIS BOX MAY BE COLLECTED AS EARLY AS 12 NOON.", "ref": "4720300002"}, "type": "Feature"}
{"geometry": {"coordinates": [-85.8775615, 39.2238], "type": "Point"}, "id": "Kpv1DwcPsdfUjsazx95ZiKEXbLw=", "properties": {"@spider": "usps_collection_boxes", "addr:city": "COLUMBUS", "addr:country": "US", "addr:full": "3850 25TH ST", "addr:postcode": "47203", "addr:state": "IN", "brand": "USPS", "collection_times": "Mo-Sa 15:45", "name": "USPS COLLECTION BOX - BLUE BOX", "note": "ON 12/24 AND 12/31, THIS BOX MAY BE COLLECTED AS EARLY AS 12 NOON.", "ref": "4720300003"}, "type": "Feature"}
{"geometry": {"coordinates": [-85.877566, 39.223803], "type": "Point"}, "id": "mlxDvEW2xuGJvUpkQTQcoLkYgac=", "properties": {"@spider": "usps_collection_boxes", "addr:city": "COLUMBUS", "addr:country": "US", "addr:full": "3850 25TH ST", "addr:postcode": "47203", "addr:state": "IN", "brand": "USPS", "collection_times": "Mo-Sa 15:45", "name": "USPS COLLECTION BOX - BLUE BOX", "note": "ON 12/24 AND 12/31, THIS BOX MAY BE COLLECTED AS EARLY AS 12 NOON.", "ref": "4720300004"}, "type": "Feature"}
{"geometry": {"coordinates": [-85.8970849, 39.249867], "type": "Point"}, "id": "ga63uwKLT64NStFRYu7rIGJissc=", "properties": {"@spider": "usps_collection_boxes", "addr:city": "COLUMBUS", "addr:country": "US", "addr:full": "4401 RAY BOLL BLVD", "addr:postcode": "47203", "addr:state": "IN", "brand": "USPS", "collection_times": "Mo-Fr 15:00", "name": "USPS COLLECTION BOX - BLUE BOX", "note": "ON 12/24 AND 12/31, THIS BOX MAY BE COLLECTED AS EARLY AS 12 NOON.", "ref": "4720300005"}, "type": "Feature"}
{"geometry": {"coordinates": [-85.8970773, 39.249862], "type": "Point"}, "id": "s2c1iryktCMDJc6eTjALcjbVdhU=", "properties": {"@spider": "usps_collection_boxes", "addr:city": "COLUMBUS", "addr:country": "US", "addr:full": "4401 RAY BOLL BLVD", "addr:postcode": "47203", "addr:state": "IN", "brand": "USPS", "collection_times": "Mo-Fr 15:00", "name": "USPS COLLECTION BOX - BLUE BOX", "note": "ON 12/24 AND 12/31, THIS BOX MAY BE COLLECTED AS EARLY AS 12 NOON.", "ref": "4720300006"}, "type": "Feature"}
{"geometry": {"coordinates": [-85.347662616, 39.433901616], "type": "Point"}, "id": "3ctqiTVl1CSL3i8Cb7tNcvu0Apc=", "properties": {"@spider": "usps_collection_boxes", "addr:city": "CLARKSBURG", "addr:country": "US", "addr:full": "6656 N COUNTY ROAD 700 E", "addr:postcode": "47225", "addr:state": "IN", "brand": "USPS", "collection_times": "Mo-Fr 15:45; Sa 11:45", "name": "USPS COLLECTION BOX - BLUE BOX", "note": "ON 12/24 AND 12/31, THIS BOX MAY BE COLLECTED AS EARLY AS 12 NOON.", "ref": "4722500001"}, "type": "Feature"}
{"geometry": {"coordinates": [-85.347662616, 39.433901616], "type": "Point"}, "id": "MwcWwogM7waY-_yT1OmwcwIqV88=", "properties": {"@spider": "usps_collection_boxes", "addr:city": "CLARKSBURG", "addr:country": "US", "addr:full": "6656 N COUNTY ROAD 700 E", "addr:postcode": "47225", "addr:state": "IN", "brand": "USPS", "collection_times": "Mo-Fr 09:45; Sa 11:45", "name": "USPS COLLECTION BOX - PO LOBBY", "ref": "4722500002"}, "type": "Feature"}
{"geometry": {"coordinates": [-85.347662616, 39.433901616], "type": "Point"}, "id": "8L67AMggnk0Vk3Iaiul9P87P5pw=", "properties": {"@spider": "usps_collection_boxes", "addr:city": "CLARKSBURG", "addr:country": "US", "addr:full": "6656 N COUNTY ROAD 700 E", "addr:postcode": "47225", "addr:state": "IN", "brand": "USPS", "collection_times": "Mo-Fr 10:00; Sa 11:45", "name": "USPS COLLECTION BOX - PO LOBBY", "ref": "4722500003"}, "type": "Feature"}
{"geometry": {"coordinates": [-85.867950693, 39.283505453], "type": "Point"}, "id": "7YguSLE55OhMO2wVSxm_zlTwCgk=", "properties": {"@spider": "usps_collection_boxes", "addr:city": "CLIFFORD", "addr:country": "US", "addr:full": "4832 MILL ST", "addr:postcode": "47226", "addr:state": "IN", "brand": "USPS", "collection_times": "Mo-Fr 16:15; Sa 11:15", "name": "USPS COLLECTION BOX - BLUE BOX", "note": "ON 12/24 AND 12/31, THIS BOX MAY BE COLLECTED AS EARLY AS 12 NOON.", "ref": "4722600001"}, "type": "Feature"}
{"geometry": {"coordinates": [-85.867950693, 39.283505453], "type": "Point"}, "id": "FHQnPIJi9dXA17qhvNeKPK11_bs=", "properties": {"@spider": "usps_collection_boxes", "addr:city": "CLIFFORD", "addr:country": "US", "addr:full": "4832 MILL ST", "addr:postcode": "47226", "addr:state": "IN", "brand": "USPS", "collection_times": "Mo-Fr 15:45; Sa 11:30", "name": "USPS COLLECTION BOX - PO LOBBY", "note": "ON 12/24 AND 12/31, THIS BOX MAY BE COLLECTED AS EARLY AS 12 NOON.", "ref": "4722600002"}, "type": "Feature"}
{"geometry": {"coordinates": [-85.867950693, 39.283505453], "type": "Point"}, "id": "teo64im6D_I-NiPyZgtpfFcixcQ=", "properties": {"@spider": "usps_collection_boxes", "addr:city": "CLIFFORD", "addr:country": "US", "addr:full": "4832 MILL ST", "addr:postcode": "47226", "addr:state": "IN", "brand": "USPS", "collection_times": "Mo-Fr 16:00; Sa 11:30", "name": "USPS COLLECTION BOX - PO LOBBY", "note": "ON 12/24 AND 12/31, THIS BOX MAY BE COLLECTED AS EARLY AS 12 NOON.", "ref": "4722600003"}, "type": "Feature"}
{"geometry": {"coordinates": [-85.964212438, 38.9727384925], "type": "Point"}, "id": "_0RH1HJuyg6PAQbMlXQt-6sBfj0=", "properties": {"@spider": "usps_collection_boxes", "addr:city": "CORTLAND", "addr:country": "US", "addr:full": "3993 E STATE ROAD 258", "addr:postcode": "47228", "addr:state": "IN", "brand": "USPS", "collection_times": "Mo-Fr 14:00; Sa 11:00", "name": "USPS COLLECTION BOX - BLUE BOX", "note": "ON 12/24 AND 12/31, THIS BOX MAY BE COLLECTED AS EARLY AS 12 NOON.", "ref": "4722800000"}, "type": "Feature"}
{"geometry": {"coordinates": [-85.964212438, 38.9727384925], "type": "Point"}, "id": "wawvKMZz87G8Ly3oQtSVAvfIOaY=", "properties": {"@spider": "usps_collection_boxes", "addr:city": "CORTLAND", "addr:country": "US", "addr:full": "3993 E STATE ROAD 258", "addr:postcode": "47228", "addr:state": "IN", "brand": "USPS", "collection_times": "Mo-Fr 09:45; Sa 11:00", "name": "USPS COLLECTION BOX - PO LOBBY", "ref": "4722800001"}, "type": "Feature"}
{"geometry": {"coordinates": [-85.964212438, 38.9727384925], "type": "Point"}, "id": "JaHLFb5noe--xKiubiEOC2u8a0M=", "properties": {"@spider": "usps_collection_boxes", "addr:city": "CORTLAND", "addr:country": "US", "addr:full": "3993 E STATE ROAD 258", "addr:postcode": "47228", "addr:state": "IN", "brand": "USPS", "collection_times": "Mo-Fr 10:00; Sa 11:00", "name": "USPS COLLECTION BOX - PO LOBBY", "ref": "4722800002"}, "type": "Feature"}
{"geometry": {"coordinates": [-85.812662157, 39.136051602], "type": "Point"}, "id": "3zpN55DviderG7K3WyYEoIKiLjM=", "properties": {"@spider": "usps_collection_boxes", "addr:city": "ELIZABETHTOWN", "addr:country": "US", "addr:full": "102 SECOND ST", "addr:postcode": "47232", "addr:state": "IN", "brand": "USPS", "collection_times": "Mo-Fr 15:45; Sa 11:00", "name": "USPS COLLECTION BOX - BLUE BOX", "note": "ON 12/24 AND 12/31, THIS BOX MAY BE COLLECTED AS EARLY AS 12 NOON.", "ref": "4723200001"}, "type": "Feature"}
{"geometry": {"coordinates": [-85.812662157, 39.136051602], "type": "Point"}, "id": "oWVoU3Re3EhRC3Wbiqivv6Uqqc8=", "properties": {"@spider": "usps_collection_boxes", "addr:city": "ELIZABETHTOWN", "addr:country": "US", "addr:full": "102 SECOND ST", "addr:postcode": "47232", "addr:state": "IN", "brand": "USPS", "collection_times": "Mo-Fr 16:00; Sa 11:15", "name": "USPS COLLECTION BOX - PO LOBBY", "note": "ON 12/24 AND 12/31, THIS BOX MAY BE COLLECTED AS EARLY AS 12 NOON.", "ref": "4723200002"}, "type": "Feature"}
{"geometry": {"coordinates": [-85.812662157, 39.136051602], "type": "Point"}, "id": "rXafSwnBqZTaZ-9PiEOCdj07aHo=", "properties": {"@spider": "usps_collection_boxes", "addr:city": "ELIZABETHTOWN", "addr:country": "US", "addr:full": "102 SECOND ST", "addr:postcode": "47232", "addr:state": "IN", "brand": "USPS", "collection_times": "Mo-Fr 16:00; Sa 11:15", "name": "USPS COLLECTION BOX - PO LOBBY", "note": "ON 12/24 AND 12/31, THIS BOX MAY BE COLLECTED AS EARLY AS 12 NOON.", "ref": "4723200003"}, "type": "Feature"}
{"geometry": {"coordinates": [-85.812662157, 39.136051602], "type": "Point"}, "id": "S6rWcSD0ZqHLd-wjnQpP3_o0B88=", "properties": {"@spider": "usps_collection_boxes", "addr:city": "ELIZABETHTOWN", "addr:country": "US", "addr:full": "102 SECOND ST", "addr:postcode": "47232", "addr:state": "IN", "brand": "USPS", "collection_times": "Mo-Fr 16:00; Sa 11:00", "name": "USPS COLLECTION BOX - PO LOBBY", "note": "ON 12/24 AND 12/31, THIS BOX MAY BE COLLECTED AS EARLY AS 12 NOON.", "ref": "4723200004"}, "type": "Feature"}
{"geometry": {"coordinates": [-85.830263057, 39.364440504], "type": "Point"}, "id": "BpCXd0xUyOlbyRKfCHNR2f2oa00=", "properties": {"@spider": "usps_collection_boxes", "addr:city": "FLAT ROCK", "addr:country": "US", "addr:full": "2732 W STATE ROAD 252", "addr:postcode": "47234", "addr:state": "IN", "brand": "USPS", "collection_times": "Mo-Fr 16:30; Sa 10:30", "name": "USPS COLLECTION BOX - BLUE BOX", "note": "ON 12/24 AND 12/31, THIS BOX MAY BE COLLECTED AS EARLY AS 12 NOON.", "ref": "4723400000"}, "type": "Feature"}
{"geometry": {"coordinates": [-85.830263057, 39.364440504], "type": "Point"}, "id": "0hN8n5Cg0v1OIFV3_sjnzmIxXTA=", "properties": {"@spider": "usps_collection_boxes", "addr:city": "FLAT ROCK", "addr:country": "US", "addr:full": "2732 W STATE ROAD 252", "addr:postcode": "47234", "addr:state": "IN", "brand": "USPS", "collection_times": "Mo-Fr 11:15; Sa 10:30", "name": "USPS COLLECTION BOX - PO LOBBY", "ref": "4723400001"}, "type": "Feature"}
{"geometry": {"coordinates": [-85.830263057, 39.364440504], "type": "Point"}, "id": "Jng5l7zr8oXeaT561ZSFQuN1Fcs=", "properties": {"@spider": "usps_collection_boxes", "addr:city": "FLAT ROCK", "addr:country": "US", "addr:full": "2732 W STATE ROAD 252", "addr:postcode": "47234", "addr:state": "IN", "brand": "USPS", "collection_times": "Mo-Fr 11:30; Sa 10:30", "name": "USPS COLLECTION BOX - PO LOBBY", "ref": "4723400002"}, "type": "Feature"}
{"geometry": {"coordinates": [-86.129424693, 38.972601702], "type": "Point"}, "id": "XlsRSEXsWD5e-g5pmhSjNUDhTME=", "properties": {"@spider": "usps_collection_boxes", "addr:city": "FREETOWN", "addr:country": "US", "addr:full": "6683 N UNION ST", "addr:postcode": "47235", "addr:state": "IN", "brand": "USPS", "collection_times": "Mo-Fr 15:30; Sa 10:45", "name": "USPS COLLECTION BOX - BLUE BOX", "note": "ON 12/24 AND 12/31, THIS BOX MAY BE COLLECTED AS EARLY AS 12 NOON.", "ref": "4723500001"}, "type": "Feature"}
{"geometry": {"coordinates": [-86.129424693, 38.972601702], "type": "Point"}, "id": "A2G9vMyrBaid8l1hWQJ1Wx3kIa0=", "properties": {"@spider": "usps_collection_boxes", "addr:city": "FREETOWN", "addr:country": "US", "addr:full": "6683 N UNION ST", "addr:postcode": "47235", "addr:state": "IN", "brand": "USPS", "collection_times": "Mo-Fr 11:15; Sa 10:45", "name": "USPS COLLECTION BOX - PO LOBBY", "ref": "4723500002"}, "type": "Feature"}
{"geometry": {"coordinates": [-86.129424693, 38.972601702], "type": "Point"}, "id": "v8KOHPSi6KFYH8p1YFgnN8jnEmE=", "properties": {"@spider": "usps_collection_boxes", "addr:city": "FREETOWN", "addr:country": "US", "addr:full": "6683 N UNION ST", "addr:postcode": "47235", "addr:state": "IN", "brand": "USPS", "collection_times": "Mo-Fr 11:15; Sa 10:45", "name": "USPS COLLECTION BOX - PO LOBBY", "ref": "4723500003"}, "type": "Feature"}
{"geometry": {"coordinates": [-86.129424693, 38.972601702], "type": "Point"}, "id": "Ms-Vln3Ml2g-Ds1sdIx-j2GN-MQ=", "properties": {"@spider": "usps_collection_boxes", "addr:city": "FREETOWN", "addr:country": "US", "addr:full": "6683 N UNION ST", "addr:postcode": "47235", "addr:state": "IN", "brand": "USPS", "collection_times": "Mo-Fr 11:30; Sa 10:45", "name": "USPS COLLECTION BOX - PO LOBBY", "ref": "4723500004"}, "type": "Feature"}
{"geometry": {"coordinates": [-85.482827971, 39.338541031], "type": "Point"}, "id": "LSzBd_QUqUwAuhAH2nU0AKMPPaE=", "properties": {"@spider": "usps_collection_boxes", "addr:city": "GREENSBURG", "addr:country": "US", "addr:full": "231 N FRANKLIN ST", "addr:postcode": "47240", "addr:state": "IN", "brand": "USPS", "collection_times": "Mo-Fr 17:00; Sa 16:00", "name": "USPS COLLECTION BOX - BLUE BOX", "note": "ON 12/24 AND 12/31, THIS BOX MAY BE COLLECTED AS EARLY AS 12 NOON.", "ref": "4724000004"}, "type": "Feature"}
{"geometry": {"coordinates": [-85.482827971, 39.338541031], "type": "Point"}, "id": "Oz0A7OYVl83cpdyLyN4Qa85B9bc=", "properties": {"@spider": "usps_collection_boxes", "addr:city": "GREENSBURG", "addr:country": "US", "addr:full": "231 N FRANKLIN ST", "addr:postcode": "47240", "addr:state": "IN", "brand": "USPS", "collection_times": "Mo-Fr 17:00; Sa 16:00", "name": "USPS COLLECTION BOX - BLUE BOX", "note": "ON 12/24 AND 12/31, THIS BOX MAY BE COLLECTED AS EARLY AS 12 NOON.", "ref": "4724000005"}, "type": "Feature"}
{"geometry": {"coordinates": [-85.4843155, 39.337782], "type": "Point"}, "id": "FtpN7wrHnkPXW-AguB6QU-JB4Y0=", "properties": {"@spider": "usps_collection_boxes", "addr:city": "GREENSBURG", "addr:country": "US", "addr:full": "201 N BROADWAY ST", "addr:postcode": "47240", "addr:state": "IN", "brand": "USPS", "collection_times": "Mo-Sa 09:00", "name": "USPS COLLECTION BOX - BLUE BOX", "ref": "4724000009"}, "type": "Feature"}
{"geometry": {"coordinates": [-85.4844057, 39.336528], "type": "Point"}, "id": "mZzq3JVmzvlcWJFblQYP1mNiQBc=", "properties": {"@spider": "usps_collection_boxes", "addr:city": "GREENSBURG", "addr:country": "US", "addr:full": "115 W MAIN ST", "addr:postcode": "47240", "addr:state": "IN", "brand": "USPS", "collection_times": "Mo-Sa 09:15", "name": "USPS COLLECTION BOX - BLUE BOX", "ref": "4724000011"}, "type": "Feature"}
{"geometry": {"coordinates": [-85.4955829, 39.3475], "type": "Point"}, "id": "ODcueXECP18GVJ0QVzcqtWx0vHc=", "properties": {"@spider": "usps_collection_boxes", "addr:city": "GREENSBURG", "addr:country": "US", "addr:full": "916 W 4TH ST", "addr:postcode": "47240", "addr:state": "IN", "brand": "USPS", "collection_times": "Mo-Fr 13:00; Sa 12:00", "name": "USPS COLLECTION BOX - BLUE BOX", "note": "ON 12/24 AND 12/31, THIS BOX MAY BE COLLECTED AS EARLY AS 12 NOON.", "ref": "4724000012"}, "type": "Feature"}
{"geometry": {"coordinates": [-85.4834556, 39.356274], "type": "Point"}, "id": "rOttf7ADCPLJoLxEuJ1XTYt5wXE=", "properties": {"@spider": "usps_collection_boxes", "addr:city": "GREENSBURG", "addr:country": "US", "addr:full": "1919 N GREENSBURG XING", "addr:postcode": "47240", "addr:state": "IN", "brand": "USPS", "collection_times": "Mo-Sa 09:30", "name": "USPS COLLECTION BOX - BLUE BOX", "ref": "4724000014"}, "type": "Feature"}
{"geometry": {"coordinates": [-85.4807669, 39.354111], "type": "Point"}, "id": "tPFa6f_unYaDO1SRMNYUaQS69tc=", "properties": {"@spider": "usps_collection_boxes", "addr:city": "GREENSBURG", "addr:country": "US", "addr:full": "1809 N LINCOLN ST", "addr:postcode": "47240", "addr:state": "IN", "brand": "USPS", "collection_times": "Mo-Sa 10:00", "name": "USPS COLLECTION BOX - BLUE BOX", "ref": "4724000015"}, "type": "Feature"}
{"geometry": {"coordinates": [-85.4793099, 39.350078], "type": "Point"}, "id": "IuTClnHdhB0X-R--PTdeGzdISQQ=", "properties": {"@spider": "usps_collection_boxes", "addr:city": "GREENSBURG", "addr:country": "US", "addr:full": "1305 N LINCOLN ST", "addr:postcode": "47240", "addr:state": "IN", "brand": "USPS", "collection_times": "Mo-Sa 10:15", "name": "USPS COLLECTION BOX - BLUE BOX", "ref": "4724000016"}, "type": "Feature"}
{"geometry": {"coordinates": [-85.4923343, 39.355345], "type": "Point"}, "id": "OdU7yyPp6Smd8I6ZughARhq8a7I=", "properties": {"@spider": "usps_collection_boxes", "addr:city": "GREENSBURG", "addr:country": "US", "addr:full": "1923 N CARVER ST", "addr:postcode": "47240", "addr:state": "IN", "brand": "USPS", "collection_times": "Mo-Sa 09:30", "name": "USPS COLLECTION BOX - BLUE BOX", "ref": "4724000025"}, "type": "Feature"}
{"geometry": {"coordinates": [-85.482827971, 39.338541031], "type": "Point"}, "id": "RRn_JWLh2gVTzVxyKY4RgMVpV04=", "properties": {"@spider": "usps_collection_boxes", "addr:city": "GREENSBURG", "addr:country": "US", "addr:full": "231 N FRANKLIN ST", "addr:postcode": "47240", "addr:state": "IN", "brand": "USPS", "collection_times": "Mo-Fr 17:00; Sa 16:00", "name": "USPS COLLECTION BOX - PO LOBBY", "note": "ON 12/24 AND 12/31, THIS BOX MAY BE COLLECTED AS EARLY AS 12 NOON.", "ref": "4724000036"}, "type": "Feature"}
{"geometry": {"coordinates": [-85.482827971, 39.338541031], "type": "Point"}, "id": "mTmTKLiINYxVwOS4j7vw5wlj4-g=", "properties": {"@spider": "usps_collection_boxes", "addr:city": "GREENSBURG", "addr:country": "US", "addr:full": "231 N FRANKLIN ST", "addr:postcode": "47240", "addr:state": "IN", "brand": "USPS", "collection_times": "Mo-Fr 17:00; Sa 16:00", "name": "USPS COLLECTION BOX - PO LOBBY", "note": "ON 12/24 AND 12/31, THIS BOX MAY BE COLLECTED AS EARLY AS 12 NOON.", "ref": "4724000037"}, "type": "Feature"}
{"geometry": {"coordinates": [-85.482827971, 39.338541031], "type": "Point"}, "id": "Z3gTzh_tiIuZ0hoFKrRZIVIPd88=", "properties": {"@spider": "usps_collection_boxes", "addr:city": "GREENSBURG", "addr:country": "US", "addr:full": "231 N FRANKLIN ST", "addr:postcode": "47240", "addr:state": "IN", "brand": "USPS", "collection_times": "Mo-Fr 17:00; Sa 12:00", "name": "USPS COLLECTION BOX - PO LOBBY", "note": "ON 12/24 AND 12/31, THIS BOX MAY BE COLLECTED AS EARLY AS 12 NOON.", "ref": "4724000039"}, "type": "Feature"}
{"geometry": {"coordinates": [-85.699067321, 39.267745376], "type": "Point"}, "id": "vxNAoV0OAyvZde8XBX3zucWd_z0=", "properties": {"@spider": "usps_collection_boxes", "addr:city": "HARTSVILLE", "addr:country": "US", "addr:full": "110 N WASHINGTON ST", "addr:postcode": "47244", "addr:state": "IN", "brand": "USPS", "collection_times": "Mo-Fr 16:30; Sa 11:45", "name": "USPS COLLECTION BOX - BLUE BOX", "note": "ON 12/24 AND 12/31, THIS BOX MAY BE COLLECTED AS EARLY AS 12 NOON.", "ref": "4724400001"}, "type": "Feature"}
{"geometry": {"coordinates": [-85.699067321, 39.267745376], "type": "Point"}, "id": "rIHmfpTGj6-Dw7LLPbXpjTsyx6E=", "properties": {"@spider": "usps_collection_boxes", "addr:city": "HARTSVILLE", "addr:country": "US", "addr:full": "110 N WASHINGTON ST", "addr:postcode": "47244", "addr:state": "IN", "brand": "USPS", "collection_times": "Mo-Sa 11:45", "name": "USPS COLLECTION BOX - PO LOBBY", "ref": "4724400002"}, "type": "Feature"}
{"geometry": {"coordinates": [-85.699067321, 39.267745376], "type": "Point"}, "id": "TX5LMBKvK-eUn2B2DszOrqQ9TUA=", "properties": {"@spider": "usps_collection_boxes", "addr:city": "HARTSVILLE", "addr:country": "US", "addr:full": "110 N WASHINGTON ST", "addr:postcode": "47244", "addr:state": "IN", "brand": "USPS", "collection_times": "Mo-Fr 12:00; Sa 11:30", "name": "USPS COLLECTION BOX - PO LOBBY", "ref": "4724400003"}, "type": "Feature"}
{"geometry": {"coordinates": [-85.7712379, 39.302996], "type": "Point"}, "id": "4ItUrDJmsEW7nkIaZaJvzJ16AR8=", "properties": {"@spider": "usps_collection_boxes", "addr:city": "HOPE", "addr:country": "US", "addr:full": "605 MAIN ST", "addr:postcode": "47246", "addr:state": "IN", "brand": "USPS", "collection_times": "Mo-Sa 14:00", "name": "USPS COLLECTION BOX - BLUE BOX", "note": "ON 12/24 AND 12/31, THIS BOX MAY BE COLLECTED AS EARLY AS 12 NOON.", "ref": "4724600001"}, "type": "Feature"}
{"geometry": {"coordinates": [-85.7702655, 39.30406], "type": "Point"}, "id": "B1cDtz7Ltu2LiLJPgInQmqXwmpc=", "properties": {"@spider": "usps_collection_boxes", "addr:city": "HOPE", "addr:country": "US", "addr:full": "344 JACKSON ST", "addr:postcode": "47246", "addr:state": "IN", "brand": "USPS", "collection_times": "Mo-Sa 14:00", "name": "USPS COLLECTION BOX - BLUE BOX", "note": "ON 12/24 AND 12/31, THIS BOX MAY BE COLLECTED AS EARLY AS 12 NOON.", "ref": "4724600002"}, "type": "Feature"}
{"geometry": {"coordinates": [-85.771454615, 39.304689769], "type": "Point"}, "id": "Ouqqu1V3LHOtV_XGhZAWZQiv12o=", "properties": {"@spider": "usps_collection_boxes", "addr:city": "HOPE", "addr:country": "US", "addr:full": "739 MAIN ST", "addr:postcode": "47246", "addr:state": "IN", "brand": "USPS", "collection_times": "Mo-Sa 16:00", "name": "USPS COLLECTION BOX - BLUE BOX", "note": "ON 12/24 AND 12/31, THIS BOX MAY BE COLLECTED AS EARLY AS 12 NOON.", "ref": "4724600005"}, "type": "Feature"}
{"geometry": {"coordinates": [-85.771454615, 39.304689769], "type": "Point"}, "id": "u7W4NX9z16KE6CtdYyVb3nNPfTc=", "properties": {"@spider": "usps_collection_boxes", "addr:city": "HOPE", "addr:country": "US", "addr:full": "739 MAIN ST", "addr:postcode": "47246", "addr:state": "IN", "brand": "USPS", "collection_times": "Mo-Fr 16:00; Sa 12:00", "name": "USPS COLLECTION BOX - PO LOBBY", "note": "ON 12/24 AND 12/31, THIS BOX MAY BE COLLECTED AS EARLY AS 12 NOON.", "ref": "4724600008"}, "type": "Feature"}
{"geometry": {"coordinates": [-85.771454615, 39.304689769], "type": "Point"}, "id": "6eqFhvVkFUXy2Wc2hhEdsAiKhac=", "properties": {"@spider": "usps_collection_boxes", "addr:city": "HOPE", "addr:country": "US", "addr:full": "739 MAIN ST", "addr:postcode": "47246", "addr:state": "IN", "brand": "USPS", "collection_times": "Mo-Fr 16:00; Sa 12:00", "name": "USPS COLLECTION BOX - PO LOBBY", "note": "ON 12/24 AND 12/31, THIS BOX MAY BE COLLECTED AS EARLY AS 12 NOON.", "ref": "4724600009"}, "type": "Feature"}
{"geometry": {"coordinates": [-86.170177212, 38.824830503], "type": "Point"}, "id": "XdBBSD9Sz7_imAfu337jF-aglxs=", "properties": {"@spider": "usps_collection_boxes", "addr:city": "MEDORA", "addr:country": "US", "addr:full": "17 S PERRY ST", "addr:postcode": "47260", "addr:state": "IN", "brand": "USPS", "collection_times": "Mo-Fr 15:45; Sa 10:45", "name": "USPS COLLECTION BOX - BLUE BOX", "note": "ON 12/24 AND 12/31, THIS BOX MAY BE COLLECTED AS EARLY AS 12 NOON.", "ref": "4726000001"}, "type": "Feature"}
{"geometry": {"coordinates": [-86.170177212, 38.824830503], "type": "Point"}, "id": "BjDjSmfhUyyJluw_6v-t0GV4HGk=", "properties": {"@spider": "usps_collection_boxes", "addr:city": "MEDORA", "addr:country": "US", "addr:full": "17 S PERRY ST", "addr:postcode": "47260", "addr:state": "IN", "brand": "USPS", "collection_times": "Mo-Fr 14:15; Sa 10:45", "name": "USPS COLLECTION BOX - PO LOBBY", "note": "ON 12/24 AND 12/31, THIS BOX MAY BE COLLECTED AS EARLY AS 12 NOON.", "ref": "4726000002"}, "type": "Feature"}
{"geometry": {"coordinates": [-86.170177212, 38.824830503], "type": "Point"}, "id": "5_Q2YO-aK-0eEZDEq_SKdh8q840=", "properties": {"@spider": "usps_collection_boxes", "addr:city": "MEDORA", "addr:country": "US", "addr:full": "17 S PERRY ST", "addr:postcode": "47260", "addr:state": "IN", "brand": "USPS", "collection_times": "Mo-Fr 14:15; Sa 10:45", "name": "USPS COLLECTION BOX - PO LOBBY", "note": "ON 12/24 AND 12/31, THIS BOX MAY BE COLLECTED AS EARLY AS 12 NOON.", "ref": "4726000003"}, "type": "Feature"}
{"geometry": {"coordinates": [-86.170177212, 38.824830503], "type": "Point"}, "id": "eNGpBMOb52i076qvy52J6D02Okg=", "properties": {"@spider": "usps_collection_boxes", "addr:city": "MEDORA", "addr:country": "US", "addr:full": "17 S PERRY ST", "addr:postcode": "47260", "addr:state": "IN", "brand": "USPS", "collection_times": "Mo-Fr 14:45; Sa 10:45", "name": "USPS COLLECTION BOX - PO LOBBY", "note": "ON 12/24 AND 12/31, THIS BOX MAY BE COLLECTED AS EARLY AS 12 NOON.", "ref": "4726000004"}, "type": "Feature"}
{"geometry": {"coordinates": [-85.331080747, 39.309312519], "type": "Point"}, "id": "M7iibEGyLy3IQ5higEN-F_cm3ps=", "properties": {"@spider": "usps_collection_boxes", "addr:city": "NEW POINT", "addr:country": "US", "addr:full": "8348 E COUNTY ROAD 200 S", "addr:postcode": "47263", "addr:state": "IN", "brand": "USPS", "collection_times": "Mo-Fr 15:30; Sa 11:15", "name": "USPS COLLECTION BOX - BLUE BOX", "note": "ON 12/24 AND 12/31, THIS BOX MAY BE COLLECTED AS EARLY AS 12 NOON.", "ref": "4726300002"}, "type": "Feature"}
{"geometry": {"coordinates": [-85.331080747, 39.309312519], "type": "Point"}, "id": "cb8SkSq2ucVbPSRyMOIY3A2bII4=", "properties": {"@spider": "usps_collection_boxes", "addr:city": "NEW POINT", "addr:country": "US", "addr:full": "8348 E COUNTY ROAD 200 S", "addr:postcode": "47263", "addr:state": "IN", "brand": "USPS", "collection_times": "Mo-Fr 11:45; Sa 11:15", "name": "USPS COLLECTION BOX - PO LOBBY", "ref": "4726300003"}, "type": "Feature"}
{"geometry": {"coordinates": [-85.331080747, 39.309312519], "type": "Point"}, "id": "uy6EbcvfCNdVFLfCjUf-CO2pSaA=", "properties": {"@spider": "usps_collection_boxes", "addr:city": "NEW POINT", "addr:country": "US", "addr:full": "8348 E COUNTY ROAD 200 S", "addr:postcode": "47263", "addr:state": "IN", "brand": "USPS", "collection_times": "Mo-Fr 12:00; Sa 11:15", "name": "USPS COLLECTION BOX - PO LOBBY", "ref": "4726300004"}, "type": "Feature"}
{"geometry": {"coordinates": [-86.273262367, 38.952513449], "type": "Point"}, "id": "4mQxDvOfZyQEJQPKt8Dgr6ipWh8=", "properties": {"@spider": "usps_collection_boxes", "addr:city": "NORMAN", "addr:country": "US", "addr:full": "12718 W STATE ROAD 58", "addr:postcode": "47264", "addr:state": "IN", "brand": "USPS", "collection_times": "Mo-Fr 16:00; Sa 11:00", "name": "USPS COLLECTION BOX - BLUE BOX", "note": "ON 12/24 AND 12/31, THIS BOX MAY BE COLLECTED AS EARLY AS 12 NOON.", "ref": "4726400001"}, "type": "Feature"}
{"geometry": {"coordinates": [-86.273262367, 38.952513449], "type": "Point"}, "id": "pDFYjtUqi9Fljpi3TWpcnbi3OSA=", "properties": {"@spider": "usps_collection_boxes", "addr:city": "NORMAN", "addr:country": "US", "addr:full": "12718 W STATE ROAD 58", "addr:postcode": "47264", "addr:state": "IN", "brand": "USPS", "collection_times": "Mo-Fr 11:15; Sa 11:00", "name": "USPS COLLECTION BOX - PO LOBBY", "ref": "4726400002"}, "type": "Feature"}
{"geometry": {"coordinates": [-86.273262367, 38.952513449], "type": "Point"}, "id": "p4vWczXWF2UOcMHXUrtOJrIvD94=", "properties": {"@spider": "usps_collection_boxes", "addr:city": "NORMAN", "addr:country": "US", "addr:full": "12718 W STATE ROAD 58", "addr:postcode": "47264", "addr:state": "IN", "brand": "USPS", "collection_times": "Mo-Fr 11:15; Sa 11:00", "name": "USPS COLLECTION BOX - PO LOBBY", "ref": "4726400003"}, "type": "Feature"}
{"geometry": {"coordinates": [-86.273262367, 38.952513449], "type": "Point"}, "id": "JpZfxvqOwqyUSZTADDUW9zcBYQk=", "properties": {"@spider": "usps_collection_boxes", "addr:city": "NORMAN", "addr:country": "US", "addr:full": "12718 W STATE ROAD 58", "addr:postcode": "47264", "addr:state": "IN", "brand": "USPS", "collection_times": "Mo-Sa 11:30", "name": "USPS COLLECTION BOX - PO LOBBY", "ref": "4726400004"}, "type": "Feature"}
{"geometry": {"coordinates": [-85.629659694, 39.4279999], "type": "Point"}, "id": "YWLphqeB3o0Ci1UQlvw21h2_RX0=", "properties": {"@spider": "usps_collection_boxes", "addr:city": "SAINT PAUL", "addr:country": "US", "addr:full": "109 E WASHINGTON ST", "addr:postcode": "47272", "addr:state": "IN", "brand": "USPS", "collection_times": "Mo-Fr 16:00; Sa 11:00", "name": "USPS COLLECTION BOX - BLUE BOX", "note": "ON 12/24 AND 12/31, THIS BOX MAY BE COLLECTED AS EARLY AS 12 NOON.", "ref": "4727200001"}, "type": "Feature"}
{"geometry": {"coordinates": [-85.629659694, 39.4279999], "type": "Point"}, "id": "K_dGdy8IGU4OJtyan6zV5InaqEs=", "properties": {"@spider": "usps_collection_boxes", "addr:city": "SAINT PAUL", "addr:country": "US", "addr:full": "109 E WASHINGTON ST", "addr:postcode": "47272", "addr:state": "IN", "brand": "USPS", "collection_times": "Mo-Fr 16:00; Sa 11:15", "name": "USPS COLLECTION BOX - PO LOBBY", "note": "ON 12/24 AND 12/31, THIS BOX MAY BE COLLECTED AS EARLY AS 12 NOON.", "ref": "4727200002"}, "type": "Feature"}
{"geometry": {"coordinates": [-85.629659694, 39.4279999], "type": "Point"}, "id": "0T4hUwue6MU33i3KTzO6mEPEjrg=", "properties": {"@spider": "usps_collection_boxes", "addr:city": "SAINT PAUL", "addr:country": "US", "addr:full": "109 E WASHINGTON ST", "addr:postcode": "47272", "addr:state": "IN", "brand": "USPS", "collection_times": "Mo-Fr 16:00; Sa 11:15", "name": "USPS COLLECTION BOX - PO LOBBY", "note": "ON 12/24 AND 12/31, THIS BOX MAY BE COLLECTED AS EARLY AS 12 NOON.", "ref": "4727200003"}, "type": "Feature"}
{"geometry": {"coordinates": [-85.629659694, 39.4279999], "type": "Point"}, "id": "vK7c8FMBAHWv9CdZ7CVrKTqhJMo=", "properties": {"@spider": "usps_collection_boxes", "addr:city": "SAINT PAUL", "addr:country": "US", "addr:full": "109 E WASHINGTON ST", "addr:postcode": "47272", "addr:state": "IN", "brand": "USPS", "collection_times": "Mo-Fr 16:00; Sa 11:15", "name": "USPS COLLECTION BOX - PO LOBBY", "note": "ON 12/24 AND 12/31, THIS BOX MAY BE COLLECTED AS EARLY AS 12 NOON.", "ref": "4727200004"}, "type": "Feature"}
{"geometry": {"coordinates": [-85.717979873, 39.079863263], "type": "Point"}, "id": "JO_fJwqXYGveTsOcZuLZLQhWlFo=", "properties": {"@spider": "usps_collection_boxes", "addr:city": "SCIPIO", "addr:country": "US", "addr:full": "6545 N STATE HIGHWAY 7", "addr:postcode": "47273", "addr:state": "IN", "brand": "USPS", "collection_times": "Mo-Fr 16:15; Sa 11:00", "name": "USPS COLLECTION BOX - BLUE BOX", "note": "ON 12/24 AND 12/31, THIS BOX MAY BE COLLECTED AS EARLY AS 12 NOON.", "ref": "4727300001"}, "type": "Feature"}
{"geometry": {"coordinates": [-85.717979873, 39.079863263], "type": "Point"}, "id": "uWOZm66iU6F5BEX1D48TYupabzI=", "properties": {"@spider": "usps_collection_boxes", "addr:city": "SCIPIO", "addr:country": "US", "addr:full": "6545 N STATE HIGHWAY 7", "addr:postcode": "47273", "addr:state": "IN", "brand": "USPS", "collection_times": "Mo-Fr 15:00; Sa 11:00", "name": "USPS COLLECTION BOX - PO LOBBY", "note": "ON 12/24 AND 12/31, THIS BOX MAY BE COLLECTED AS EARLY AS 12 NOON.", "ref": "4727300002"}, "type": "Feature"}
{"geometry": {"coordinates": [-85.717979873, 39.079863263], "type": "Point"}, "id": "qn8QF_AXmMGL1EFToHZVfyxBr7k=", "properties": {"@spider": "usps_collection_boxes", "addr:city": "SCIPIO", "addr:country": "US", "addr:full": "6545 N STATE HIGHWAY 7", "addr:postcode": "47273", "addr:state": "IN", "brand": "USPS", "collection_times": "Mo-Fr 15:00; Sa 11:00", "name": "USPS COLLECTION BOX - PO LOBBY", "note": "ON 12/24 AND 12/31, THIS BOX MAY BE COLLECTED AS EARLY AS 12 NOON.", "ref": "4727300003"}, "type": "Feature"}
{"geometry": {"coordinates": [-85.717979873, 39.079863263], "type": "Point"}, "id": "7CZNC9ZkLla-1gtf7xwpBnxrQF8=", "properties": {"@spider": "usps_collection_boxes", "addr:city": "SCIPIO", "addr:country": "US", "addr:full": "6545 N STATE HIGHWAY 7", "addr:postcode": "47273", "addr:state": "IN", "brand": "USPS", "collection_times": "Mo-Fr 15:00; Sa 11:00", "name": "USPS COLLECTION BOX - PO LOBBY", "note": "ON 12/24 AND 12/31, THIS BOX MAY BE COLLECTED AS EARLY AS 12 NOON.", "ref": "4727300004"}, "type": "Feature"}
{"geometry": {"coordinates": [-85.951110902, 39.294399432], "type": "Point"}, "id": "iwDB_GUszqR2Ph5Vr7MhciV7J6E=", "properties": {"@spider": "usps_collection_boxes", "addr:city": "TAYLORSVILLE", "addr:country": "US", "addr:full": "9427 MAIN ST", "addr:postcode": "47280", "addr:state": "IN", "brand": "USPS", "collection_times": "Mo-Fr 16:00; Sa 12:00", "name": "USPS COLLECTION BOX - BLUE BOX", "note": "ON 12/24 AND 12/31, THIS BOX MAY BE COLLECTED AS EARLY AS 12 NOON.", "ref": "4728000000"}, "type": "Feature"}
{"geometry": {"coordinates": [-85.951110902, 39.294399432], "type": "Point"}, "id": "tLgS8-xMwDowt7Uo2njOynMGZiU=", "properties": {"@spider": "usps_collection_boxes", "addr:city": "TAYLORSVILLE", "addr:country": "US", "addr:full": "9427 MAIN ST", "addr:postcode": "47280", "addr:state": "IN", "brand": "USPS", "collection_times": "Mo-Fr 16:00; Sa 12:00", "name": "USPS COLLECTION BOX - PO LOBBY", "note": "ON 12/24 AND 12/31, THIS BOX MAY BE COLLECTED AS EARLY AS 12 NOON.", "ref": "4728000001"}, "type": "Feature"}
{"geometry": {"coordinates": [-85.951110902, 39.294399432], "type": "Point"}, "id": "PvY_xcRevdCoEKu1imDdPHDpPu4=", "properties": {"@spider": "usps_collection_boxes", "addr:city": "TAYLORSVILLE", "addr:country": "US", "addr:full": "9427 MAIN ST", "addr:postcode": "47280", "addr:state": "IN", "brand": "USPS", "collection_times": "Mo-Fr 16:00; Sa 12:00", "name": "USPS COLLECTION BOX - PO LOBBY", "note": "ON 12/24 AND 12/31, THIS BOX MAY BE COLLECTED AS EARLY AS 12 NOON.", "ref": "4728000002"}, "type": "Feature"}
{"geometry": {"coordinates": [-86.097434, 38.84579], "type": "Point"}, "id": "mJKY9gW62vCM6CMhx8vek1mBbi4=", "properties": {"@spider": "usps_collection_boxes", "addr:city": "VALLONIA", "addr:country": "US", "addr:full": "2380 S MAIN ST", "addr:postcode": "47281", "addr:state": "IN", "brand": "USPS", "collection_times": "Mo-Fr 15:45; Sa 10:45", "name": "USPS COLLECTION BOX - BLUE BOX", "note": "ON 12/24 AND 12/31, THIS BOX MAY BE COLLECTED AS EARLY AS 12 NOON.", "ref": "4728100001"}, "type": "Feature"}
{"geometry": {"coordinates": [-86.097434, 38.84579], "type": "Point"}, "id": "wt2ZL5YbEurEIX_nlO2KlEgiX74=", "properties": {"@spider": "usps_collection_boxes", "addr:city": "VALLONIA", "addr:country": "US", "addr:full": "2380 S MAIN ST", "addr:postcode": "47281", "addr:state": "IN", "brand": "USPS", "collection_times": "Mo-Fr 11:15; Sa 10:45", "name": "USPS COLLECTION BOX - PO LOBBY", "ref": "4728100002"}, "type": "Feature"}
{"geometry": {"coordinates": [-86.0975663658, 38.8454169914], "type": "Point"}, "id": "XCue8spnbn1a3VigB7Is2QSUZHk=", "properties": {"@spider": "usps_collection_boxes", "addr:city": "VALLONIA", "addr:country": "US", "addr:full": "2380 S MAIN ST", "addr:postcode": "47281", "addr:state": "IN", "brand": "USPS", "collection_times": "Mo-Fr 11:30; Sa 11:00", "name": "USPS COLLECTION BOX - PO LOBBY", "ref": "4728100003"}, "type": "Feature"}
{"geometry": {"coordinates": [-85.573682026, 39.175834507], "type": "Point"}, "id": "rGEGJxGod8TOQrL-c8wZ1CH79ig=", "properties": {"@spider": "usps_collection_boxes", "addr:city": "WESTPORT", "addr:country": "US", "addr:full": "211 E MAIN ST", "addr:postcode": "47283", "addr:state": "IN", "brand": "USPS", "collection_times": "Mo-Fr 15:30; Sa 12:00", "name": "USPS COLLECTION BOX - BLUE BOX", "note": "ON 12/24 AND 12/31, THIS BOX MAY BE COLLECTED AS EARLY AS 12 NOON.", "ref": "4728300001"}, "type": "Feature"}
{"geometry": {"coordinates": [-85.573682026, 39.175834507], "type": "Point"}, "id": "ZFqGVs9fUVwVy1VQIy6ZVB_XWtY=", "properties": {"@spider": "usps_collection_boxes", "addr:city": "WESTPORT", "addr:country": "US", "addr:full": "211 E MAIN ST", "addr:postcode": "47283", "addr:state": "IN", "brand": "USPS", "collection_times": "Mo-Fr 15:30; Sa 12:00", "name": "USPS COLLECTION BOX - PO LOBBY", "note": "ON 12/24 AND 12/31, THIS BOX MAY BE COLLECTED AS EARLY AS 12 NOON.", "ref": "4728300002"}, "type": "Feature"}
{"geometry": {"coordinates": [-85.573682026, 39.175834507], "type": "Point"}, "id": "jPzAgS1TZBvpptiu6v8Y4quf3ug=", "properties": {"@spider": "usps_collection_boxes", "addr:city": "WESTPORT", "addr:country": "US", "addr:full": "211 E MAIN ST", "addr:postcode": "47283", "addr:state": "IN", "brand": "USPS", "collection_times": "Mo-Fr 15:30; Sa 12:00", "name": "USPS COLLECTION BOX - PO LOBBY", "note": "ON 12/24 AND 12/31, THIS BOX MAY BE COLLECTED AS EARLY AS 12 NOON.", "ref": "4728300003"}, "type": "Feature"}
{"geometry": {"coordinates": [-85.573682026, 39.175834507], "type": "Point"}, "id": "6JzOWYXLIKJu47YHbaP0Foe9tcM=", "properties": {"@spider": "usps_collection_boxes", "addr:city": "WESTPORT", "addr:country": "US", "addr:full": "211 E MAIN ST", "addr:postcode": "47283", "addr:state": "IN", "brand": "USPS", "collection_times": "Mo-Fr 15:30; Sa 12:00", "name": "USPS COLLECTION BOX - PO LOBBY", "note": "ON 12/24 AND 12/31, THIS BOX MAY BE COLLECTED AS EARLY AS 12 NOON.", "ref": "4728300004"}, "type": "Feature"}
