{"dataset_attributes": {"@spider": "usps_collection_boxes"}, "geometry": {"coordinates": [-86.5504999582, 38.9114959859], "type": "Point"}, "id": "-fd-o7BbsLngQM3g4QdXJHb23Qg=", "properties": {"@spider": "usps_collection_boxes", "addr:city": "AVOCA", "addr:country": "US", "addr:full": "8464 STATE ROAD 54 W", "addr:postcode": "47420", "addr:state": "IN", "amenity": "post_box", "brand": "United States Postal Service", "brand:wikidata": "Q668687", "collection_times": "Mo-Fr 16:00; Sa 10:30", "name": "USPS COLLECTION BOX - BLUE BOX", "note": "ON 12/24 AND 12/31, THIS BOX MAY BE COLLECTED AS EARLY AS 12 NOON.", "nsi_id": "unitedstatespostalservice-a77078", "operator": "United States Postal Service", "operator:short": "USPS", "operator:type": "public", "operator:wikidata": "Q668687", "ref": "4742000001"}, "type": "Feature"}
{"dataset_attributes": {"@spider": "usps_collection_boxes"}, "geometry": {"coordinates": [-86.550408, 38.911673], "type": "Point"}, "id": "aKMEzx8m6yAwJOzY2YzNbdWAwHI=", "properties": {"@spider": "usps_collection_boxes", "addr:city": "AVOCA", "addr:country": "US", "addr:full": "8464 STATE ROAD 54 W", "addr:postcode": "47420", "addr:state": "IN", "amenity": "post_box", "brand": "United States Postal Service", "brand:wikidata": "Q668687", "collection_times": "Mo-Fr 10:45; Sa 08:45", "name": "USPS COLLECTION BOX - PO LOBBY", "nsi_id": "unitedstatespostalservice-a77078", "operator": "United States Postal Service", "operator:short": "USPS", "operator:type": "public", "operator:wikidata": "Q668687", "ref": "4742000002"}, "type": "Feature"}
{"dataset_attributes": {"@spider": "usps_collection_boxes"}, "geometry": {"coordinates": [-86.5503553451, 38.9115517374], "type": "Point"}, "id": "UHRe-FpHEDr7LZleiWyaJ60-lHg=", "properties": {"@spider": "usps_collection_boxes", "addr:city": "AVOCA", "addr:country": "US", "addr:full": "8464 STATE ROAD 54 W", "addr:postcode": "47420", "addr:state": "IN", "amenity": "post_box", "brand": "United States Postal Service", "brand:wikidata": "Q668687", "collection_times": "Mo-Fr 11:00; Sa 09:00", "name": "USPS COLLECTION BOX - PO LOBBY", "nsi_id": "unitedstatespostalservice-a77078", "operator": "United States Postal Service", "operator:short": "USPS", "operator:type": "public", "operator:wikidata": "Q668687", "ref": "4742000003"}, "type": "Feature"}
{"dataset_attributes": {"@spider": "usps_collection_boxes"}, "geometry": {"coordinates": [-86.481176755, 38.859047413], "type": "Point"}, "id": "_QEbXvDDxtEqR_jf6dAWHTJBoZo=", "properties": {"@spider": "usps_collection_boxes", "addr:city": "BEDFORD", "addr:country": "US", "addr:full": "1720 H ST", "addr:postcode": "47421", "addr:state": "IN", "amenity": "post_box", "brand": "United States Postal Service", "brand:wikidata": "Q668687", "collection_times": "Mo-Fr 17:00; Sa 16:00", "name": "USPS COLLECTION BOX - BLUE BOX", "note": "ON 12/24 AND 12/31, THIS BOX MAY BE COLLECTED AS EARLY AS 12 NOON.", "nsi_id": "unitedstatespostalservice-a77078", "operator": "United States Postal Service", "operator:short": "USPS", "operator:type": "public", "operator:wikidata": "Q668687", "ref": "4742100001"}, "type": "Feature"}
{"dataset_attributes": {"@spider": "usps_collection_boxes"}, "geometry": {"coordinates": [-86.498164, 38.847451], "type": "Point"}, "id": "6YPWnbzN9MZ557u1wGbiKv9g0-k=", "properties": {"@spider": "usps_collection_boxes", "addr:city": "BEDFORD", "addr:country": "US", "addr:full": "2801 WASHINGTON AVE", "addr:postcode": "47421", "addr:state": "IN", "amenity": "post_box", "brand": "United States Postal Service", "brand:wikidata": "Q668687", "collection_times": "Mo-Sa 09:00", "name": "USPS COLLECTION BOX - BLUE BOX", "nsi_id": "unitedstatespostalservice-a77078", "operator": "United States Postal Service", "operator:short": "USPS", "operator:type": "public", "operator:wikidata": "Q668687", "ref": "4742100003"}, "type": "Feature"}
{"dataset_attributes": {"@spider": "usps_collection_boxes"}, "geometry": {"coordinates": [-86.4901024, 38.872107], "type": "Point"}, "id": "C7_FRLBTxzo9R0nCm4c8NZ06_tk=", "properties": {"@spider": "usps_collection_boxes", "addr:city": "BEDFORD", "addr:country": "US", "addr:full": "629 LINCOLN AVE", "addr:postcode": "47421", "addr:state": "IN", "amenity": "post_box", "brand": "United States Postal Service", "brand:wikidata": "Q668687", "collection_times": "Mo-Sa 13:30", "name": "USPS COLLECTION BOX - BLUE BOX", "note": "ON 12/24 AND 12/31, THIS BOX MAY BE COLLECTED AS EARLY AS 12 NOON.", "nsi_id": "unitedstatespostalservice-a77078", "operator": "United States Postal Service", "operator:short": "USPS", "operator:type": "public", "operator:wikidata": "Q668687", "ref": "4742100004"}, "type": "Feature"}
{"dataset_attributes": {"@spider": "usps_collection_boxes"}, "geometry": {"coordinates": [-86.5189658, 38.864022], "type": "Point"}, "id": "3On5XcU79hRx24dEGgx4lYGuH-o=", "properties": {"@spider": "usps_collection_boxes", "addr:city": "BEDFORD", "addr:country": "US", "addr:full": "1320 JAMES AVE", "addr:postcode": "47421", "addr:state": "IN", "amenity": "post_box", "brand": "United States Postal Service", "brand:wikidata": "Q668687", "collection_times": "Mo-Sa 10:00", "name": "USPS COLLECTION BOX - BLUE BOX", "nsi_id": "unitedstatespostalservice-a77078", "operator": "United States Postal Service", "operator:short": "USPS", "operator:type": "public", "operator:wikidata": "Q668687", "ref": "4742100006"}, "type": "Feature"}
{"dataset_attributes": {"@spider": "usps_collection_boxes"}, "geometry": {"coordinates": [-86.5094139, 38.862065], "type": "Point"}, "id": "QJaVc6mmv2NiG9zEt6MZXKZ_lV0=", "properties": {"@spider": "usps_collection_boxes", "addr:city": "BEDFORD", "addr:country": "US", "addr:full": "2649 16TH ST", "addr:postcode": "47421", "addr:state": "IN", "amenity": "post_box", "brand": "United States Postal Service", "brand:wikidata": "Q668687", "collection_times": "Mo-Sa 10:00", "name": "USPS COLLECTION BOX - BLUE BOX", "nsi_id": "unitedstatespostalservice-a77078", "operator": "United States Postal Service", "operator:short": "USPS", "operator:type": "public", "operator:wikidata": "Q668687", "ref": "4742100007"}, "type": "Feature"}
{"dataset_attributes": {"@spider": "usps_collection_boxes"}, "geometry": {"coordinates": [-86.5233452, 38.860762], "type": "Point"}, "id": "bVsslWhkIKgtkyM5VNAoRO3RxIg=", "properties": {"@spider": "usps_collection_boxes", "addr:city": "BEDFORD", "addr:country": "US", "addr:full": "3750 16TH ST", "addr:postcode": "47421", "addr:state": "IN", "amenity": "post_box", "brand": "United States Postal Service", "brand:wikidata": "Q668687", "collection_times": "Mo-Sa 11:00", "name": "USPS COLLECTION BOX - BLUE BOX", "nsi_id": "unitedstatespostalservice-a77078", "operator": "United States Postal Service", "operator:short": "USPS", "operator:type": "public", "operator:wikidata": "Q668687", "ref": "4742100008"}, "type": "Feature"}
{"dataset_attributes": {"@spider": "usps_collection_boxes"}, "geometry": {"coordinates": [-86.5128574, 38.86057], "type": "Point"}, "id": "O0rhqY4wl78AfK4PFUg7tCVE-hw=", "properties": {"@spider": "usps_collection_boxes", "addr:city": "BEDFORD", "addr:country": "US", "addr:full": "2900 16TH ST", "addr:postcode": "47421", "addr:state": "IN", "amenity": "post_box", "brand": "United States Postal Service", "brand:wikidata": "Q668687", "collection_times": "Mo-Fr 13:00; Sa 12:00", "name": "USPS COLLECTION BOX - BLUE BOX", "note": "ON 12/24 AND 12/31, THIS BOX MAY BE COLLECTED AS EARLY AS 12 NOON.", "nsi_id": "unitedstatespostalservice-a77078", "operator": "United States Postal Service", "operator:short": "USPS", "operator:type": "public", "operator:wikidata": "Q668687", "ref": "4742100012"}, "type": "Feature"}
{"dataset_attributes": {"@spider": "usps_collection_boxes"}, "geometry": {"coordinates": [-86.4938089, 38.853426], "type": "Point"}, "id": "Vw_fBkPjEBXQgxk3Zi1XWMKAda0=", "properties": {"@spider": "usps_collection_boxes", "addr:city": "BEDFORD", "addr:country": "US", "addr:full": "1600 23RD ST", "addr:postcode": "47421", "addr:state": "IN", "amenity": "post_box", "brand": "United States Postal Service", "brand:wikidata": "Q668687", "collection_times": "Mo-Sa 09:00", "name": "USPS COLLECTION BOX - BLUE BOX", "nsi_id": "unitedstatespostalservice-a77078", "operator": "United States Postal Service", "operator:short": "USPS", "operator:type": "public", "operator:wikidata": "Q668687", "ref": "4742100013"}, "type": "Feature"}
{"dataset_attributes": {"@spider": "usps_collection_boxes"}, "geometry": {"coordinates": [-86.485874, 38.861087], "type": "Point"}, "id": "h6lPgrbe3J4ZJXJiDJXu5M8894o=", "properties": {"@spider": "usps_collection_boxes", "addr:city": "BEDFORD", "addr:country": "US", "addr:full": "1094 16TH ST", "addr:postcode": "47421", "addr:state": "IN", "amenity": "post_box", "brand": "United States Postal Service", "brand:wikidata": "Q668687", "collection_times": "Mo-Sa 09:00", "name": "USPS COLLECTION BOX - BLUE BOX", "nsi_id": "unitedstatespostalservice-a77078", "operator": "United States Postal Service", "operator:short": "USPS", "operator:type": "public", "operator:wikidata": "Q668687", "ref": "4742100015"}, "type": "Feature"}
{"dataset_attributes": {"@spider": "usps_collection_boxes"}, "geometry": {"coordinates": [-86.4923499, 38.852796], "type": "Point"}, "id": "zdpKGQLOTWFDynWF71te3fBdYPs=", "properties": {"@spider": "usps_collection_boxes", "addr:city": "BEDFORD", "addr:country": "US", "addr:full": "2409 MITCHELL RD", "addr:postcode": "47421", "addr:state": "IN", "amenity": "post_box", "brand": "United States Postal Service", "brand:wikidata": "Q668687", "collection_times": "Mo-Sa 09:00", "name": "USPS COLLECTION BOX - BLUE BOX", "nsi_id": "unitedstatespostalservice-a77078", "operator": "United States Postal Service", "operator:short": "USPS", "operator:type": "public", "operator:wikidata": "Q668687", "ref": "4742100016"}, "type": "Feature"}
{"dataset_attributes": {"@spider": "usps_collection_boxes"}, "geometry": {"coordinates": [-86.4857982, 38.864141], "type": "Point"}, "id": "Ggc-xj2RZX8dihB-myEr5aQ4nMQ=", "properties": {"@spider": "usps_collection_boxes", "addr:city": "BEDFORD", "addr:country": "US", "addr:full": "1305 K ST", "addr:postcode": "47421", "addr:state": "IN", "amenity": "post_box", "brand": "United States Postal Service", "brand:wikidata": "Q668687", "collection_times": "Mo-Sa 09:00", "name": "USPS COLLECTION BOX - BLUE BOX", "nsi_id": "unitedstatespostalservice-a77078", "operator": "United States Postal Service", "operator:short": "USPS", "operator:type": "public", "operator:wikidata": "Q668687", "ref": "4742100017"}, "type": "Feature"}
{"dataset_attributes": {"@spider": "usps_collection_boxes"}, "geometry": {"coordinates": [-86.4859000439, 38.8621434533], "type": "Point"}, "id": "y2kVf1r-IqGwyu5lCzclRXaQROc=", "properties": {"@spider": "usps_collection_boxes", "addr:city": "BEDFORD", "addr:country": "US", "addr:full": "1101 15TH ST", "addr:postcode": "47421", "addr:state": "IN", "amenity": "post_box", "brand": "United States Postal Service", "brand:wikidata": "Q668687", "collection_times": "Mo-Sa 10:00", "name": "USPS COLLECTION BOX - BLUE BOX", "nsi_id": "unitedstatespostalservice-a77078", "operator": "United States Postal Service", "operator:short": "USPS", "operator:type": "public", "operator:wikidata": "Q668687", "ref": "4742100018"}, "type": "Feature"}
{"dataset_attributes": {"@spider": "usps_collection_boxes"}, "geometry": {"coordinates": [-86.4826972366, 38.8608935343], "type": "Point"}, "id": "x-4BU1E1DgXssp4lt_ejSzZvN1M=", "properties": {"@spider": "usps_collection_boxes", "addr:city": "BEDFORD", "addr:country": "US", "addr:full": "1602 I ST", "addr:postcode": "47421", "addr:state": "IN", "amenity": "post_box", "brand": "United States Postal Service", "brand:wikidata": "Q668687", "collection_times": "Mo-Sa 09:00", "name": "USPS COLLECTION BOX - BLUE BOX", "nsi_id": "unitedstatespostalservice-a77078", "operator": "United States Postal Service", "operator:short": "USPS", "operator:type": "public", "operator:wikidata": "Q668687", "ref": "4742100020"}, "type": "Feature"}
{"dataset_attributes": {"@spider": "usps_collection_boxes"}, "geometry": {"coordinates": [-86.4843537, 38.86215], "type": "Point"}, "id": "3x7smvEq9B2kf2Ms_QHWa0kKKJ8=", "properties": {"@spider": "usps_collection_boxes", "addr:city": "BEDFORD", "addr:country": "US", "addr:full": "1003 15TH ST", "addr:postcode": "47421", "addr:state": "IN", "amenity": "post_box", "brand": "United States Postal Service", "brand:wikidata": "Q668687", "collection_times": "Mo-Sa 10:00", "name": "USPS COLLECTION BOX - BLUE BOX", "nsi_id": "unitedstatespostalservice-a77078", "operator": "United States Postal Service", "operator:short": "USPS", "operator:type": "public", "operator:wikidata": "Q668687", "ref": "4742100025"}, "type": "Feature"}
{"dataset_attributes": {"@spider": "usps_collection_boxes"}, "geometry": {"coordinates": [-86.4831762, 38.86188], "type": "Point"}, "id": "t53JSK-7Se4cxhCJ9zJ4h-J8PvU=", "properties": {"@spider": "usps_collection_boxes", "addr:city": "BEDFORD", "addr:country": "US", "addr:full": "950 16TH ST", "addr:postcode": "47421", "addr:state": "IN", "amenity": "post_box", "brand": "United States Postal Service", "brand:wikidata": "Q668687", "collection_times": "Mo-Sa 09:00", "name": "USPS COLLECTION BOX - BLUE BOX", "nsi_id": "unitedstatespostalservice-a77078", "operator": "United States Postal Service", "operator:short": "USPS", "operator:type": "public", "operator:wikidata": "Q668687", "ref": "4742100026"}, "type": "Feature"}
{"dataset_attributes": {"@spider": "usps_collection_boxes"}, "geometry": {"coordinates": [-86.494912, 38.851355], "type": "Point"}, "id": "rND4mfwRGUpe8p3cZLfMFMtHvRc=", "properties": {"@spider": "usps_collection_boxes", "addr:city": "BEDFORD", "addr:country": "US", "addr:full": "2516 Q ST", "addr:postcode": "47421", "addr:state": "IN", "amenity": "post_box", "brand": "United States Postal Service", "brand:wikidata": "Q668687", "collection_times": "Mo-Sa 09:00", "name": "USPS COLLECTION BOX - BLUE BOX", "nsi_id": "unitedstatespostalservice-a77078", "operator": "United States Postal Service", "operator:short": "USPS", "operator:type": "public", "operator:wikidata": "Q668687", "ref": "4742100046"}, "type": "Feature"}
{"dataset_attributes": {"@spider": "usps_collection_boxes"}, "geometry": {"coordinates": [-86.5028533, 38.861931], "type": "Point"}, "id": "TtpNcLdVqWDoABn1CDwWmsJgh0Y=", "properties": {"@spider": "usps_collection_boxes", "addr:city": "BEDFORD", "addr:country": "US", "addr:full": "2137 16TH ST", "addr:postcode": "47421", "addr:state": "IN", "amenity": "post_box", "brand": "United States Postal Service", "brand:wikidata": "Q668687", "collection_times": "Mo-Sa 10:00", "name": "USPS COLLECTION BOX - BLUE BOX", "nsi_id": "unitedstatespostalservice-a77078", "operator": "United States Postal Service", "operator:short": "USPS", "operator:type": "public", "operator:wikidata": "Q668687", "ref": "4742100051"}, "type": "Feature"}
{"dataset_attributes": {"@spider": "usps_collection_boxes"}, "geometry": {"coordinates": [-86.5184399, 38.85721], "type": "Point"}, "id": "zXna7wJr5AP5BSdXc4KD7O_0J88=", "properties": {"@spider": "usps_collection_boxes", "addr:city": "BEDFORD", "addr:country": "US", "addr:full": "3326 MICHAEL AVE", "addr:postcode": "47421", "addr:state": "IN", "amenity": "post_box", "brand": "United States Postal Service", "brand:wikidata": "Q668687", "collection_times": "Mo-Sa 12:00", "name": "USPS COLLECTION BOX - BLUE BOX", "nsi_id": "unitedstatespostalservice-a77078", "operator": "United States Postal Service", "operator:short": "USPS", "operator:type": "public", "operator:wikidata": "Q668687", "ref": "4742100053"}, "type": "Feature"}
{"dataset_attributes": {"@spider": "usps_collection_boxes"}, "geometry": {"coordinates": [-86.5025131, 38.872454], "type": "Point"}, "id": "Fc9pc8Uz2OYHrjkXjejFpiI2iD4=", "properties": {"@spider": "usps_collection_boxes", "addr:city": "BEDFORD", "addr:country": "US", "addr:full": "615 X ST", "addr:postcode": "47421", "addr:state": "IN", "amenity": "post_box", "brand": "United States Postal Service", "brand:wikidata": "Q668687", "collection_times": "Mo-Fr 14:00; Sa 12:00", "name": "USPS COLLECTION BOX - BLUE BOX", "note": "ON 12/24 AND 12/31, THIS BOX MAY BE COLLECTED AS EARLY AS 12 NOON.", "nsi_id": "unitedstatespostalservice-a77078", "operator": "United States Postal Service", "operator:short": "USPS", "operator:type": "public", "operator:wikidata": "Q668687", "ref": "4742100055"}, "type": "Feature"}
{"dataset_attributes": {"@spider": "usps_collection_boxes"}, "geometry": {"coordinates": [-86.5082864, 38.846582], "type": "Point"}, "id": "IAcTssBM57DHALWwUemejhRBCUw=", "properties": {"@spider": "usps_collection_boxes", "addr:city": "BEDFORD", "addr:country": "US", "addr:full": "2901 TED JONES DR", "addr:postcode": "47421", "addr:state": "IN", "amenity": "post_box", "brand": "United States Postal Service", "brand:wikidata": "Q668687", "collection_times": "Mo-Sa 11:00", "name": "USPS COLLECTION BOX - BLUE BOX", "nsi_id": "unitedstatespostalservice-a77078", "operator": "United States Postal Service", "operator:short": "USPS", "operator:type": "public", "operator:wikidata": "Q668687", "ref": "4742100057"}, "type": "Feature"}
{"dataset_attributes": {"@spider": "usps_collection_boxes"}, "geometry": {"coordinates": [-86.481176755, 38.859047413], "type": "Point"}, "id": "gisNYvXVmklGCwghgwdkkBAQM8A=", "properties": {"@spider": "usps_collection_boxes", "addr:city": "BEDFORD", "addr:country": "US", "addr:full": "1720 H ST", "addr:postcode": "47421", "addr:state": "IN", "amenity": "post_box", "brand": "United States Postal Service", "brand:wikidata": "Q668687", "collection_times": "Mo-Fr 18:15; Sa 15:30", "name": "USPS COLLECTION BOX - PO LOBBY", "note": "ON 12/24 AND 12/31, THIS BOX MAY BE COLLECTED AS EARLY AS 12 NOON.", "nsi_id": "unitedstatespostalservice-a77078", "operator": "United States Postal Service", "operator:short": "USPS", "operator:type": "public", "operator:wikidata": "Q668687", "ref": "4742100060"}, "type": "Feature"}
{"dataset_attributes": {"@spider": "usps_collection_boxes"}, "geometry": {"coordinates": [-86.936621, 39.027802], "type": "Point"}, "id": "74wSG1Q8ShT105Ax8-rjIG1k5Es=", "properties": {"@spider": "usps_collection_boxes", "addr:city": "BLOOMFIELD", "addr:country": "US", "addr:full": "127 E INDIANA AVE", "addr:postcode": "47424", "addr:state": "IN", "amenity": "post_box", "brand": "United States Postal Service", "brand:wikidata": "Q668687", "collection_times": "Mo-Sa 17:00", "name": "USPS COLLECTION BOX - BLUE BOX", "note": "ON 12/24 AND 12/31, THIS BOX MAY BE COLLECTED AS EARLY AS 12 NOON.", "nsi_id": "unitedstatespostalservice-a77078", "operator": "United States Postal Service", "operator:short": "USPS", "operator:type": "public", "operator:wikidata": "Q668687", "ref": "4742400001"}, "type": "Feature"}
{"dataset_attributes": {"@spider": "usps_collection_boxes"}, "geometry": {"coordinates": [-86.9337329, 39.013427], "type": "Point"}, "id": "H0qw0dYFrtUVsHfxRbhzjDWPcYA=", "properties": {"@spider": "usps_collection_boxes", "addr:city": "BLOOMFIELD", "addr:country": "US", "addr:full": "668 S US HIGHWAY 231", "addr:postcode": "47424", "addr:state": "IN", "amenity": "post_box", "brand": "United States Postal Service", "brand:wikidata": "Q668687", "collection_times": "Mo-Sa 11:00", "name": "USPS COLLECTION BOX - BLUE BOX", "nsi_id": "unitedstatespostalservice-a77078", "operator": "United States Postal Service", "operator:short": "USPS", "operator:type": "public", "operator:wikidata": "Q668687", "ref": "4742400011"}, "type": "Feature"}
{"dataset_attributes": {"@spider": "usps_collection_boxes"}, "geometry": {"coordinates": [-86.937286, 39.027599], "type": "Point"}, "id": "ikUM5e2dn4fgGbo-vvL9ItvttWI=", "properties": {"@spider": "usps_collection_boxes", "addr:city": "BLOOMFIELD", "addr:country": "US", "addr:full": "55 N WASHINGTON ST", "addr:postcode": "47424", "addr:state": "IN", "amenity": "post_box", "brand": "United States Postal Service", "brand:wikidata": "Q668687", "collection_times": "Mo-Sa 17:00", "name": "USPS COLLECTION BOX - PO LOBBY", "note": "ON 12/24 AND 12/31, THIS BOX MAY BE COLLECTED AS EARLY AS 12 NOON.", "nsi_id": "unitedstatespostalservice-a77078", "operator": "United States Postal Service", "operator:short": "USPS", "operator:type": "public", "operator:wikidata": "Q668687", "ref": "4742400013"}, "type": "Feature"}
{"dataset_attributes": {"@spider": "usps_collection_boxes"}, "geometry": {"coordinates": [-86.937286, 39.027599], "type": "Point"}, "id": "dFxSkvc2_F8L2SfqiRkC2_y8rM4=", "properties": {"@spider": "usps_collection_boxes", "addr:city": "BLOOMFIELD", "addr:country": "US", "addr:full": "55 N WASHINGTON ST", "addr:postcode": "47424", "addr:state": "IN", "amenity": "post_box", "brand": "United States Postal Service", "brand:wikidata": "Q668687", "collection_times": "Mo-Sa 17:00", "name": "USPS COLLECTION BOX - PO LOBBY", "note": "ON 12/24 AND 12/31, THIS BOX MAY BE COLLECTED AS EARLY AS 12 NOON.", "nsi_id": "unitedstatespostalservice-a77078", "operator": "United States Postal Service", "operator:short": "USPS", "operator:type": "public", "operator:wikidata": "Q668687", "ref": "4742400014"}, "type": "Feature"}
{"dataset_attributes": {"@spider": "usps_collection_boxes"}, "geometry": {"coordinates": [-86.9373688178, 39.0275460314], "type": "Point"}, "id": "drrEzdE3qjAsrcIZcaeg_uXtubs=", "properties": {"@spider": "usps_collection_boxes", "addr:city": "BLOOMFIELD", "addr:country": "US", "addr:full": "55 N WASHINGTON ST", "addr:postcode": "47424", "addr:state": "IN", "amenity": "post_box", "brand": "United States Postal Service", "brand:wikidata": "Q668687", "collection_times": "Mo-Sa 17:00", "name": "USPS COLLECTION BOX - PO LOBBY", "note": "ON 12/24 AND 12/31, THIS BOX MAY BE COLLECTED AS EARLY AS 12 NOON.", "nsi_id": "unitedstatespostalservice-a77078", "operator": "United States Postal Service", "operator:short": "USPS", "operator:type": "public", "operator:wikidata": "Q668687", "ref": "4742400016"}, "type": "Feature"}
{"dataset_attributes": {"@spider": "usps_collection_boxes"}, "geometry": {"coordinates": [-87.045316, 39.230668], "type": "Point"}, "id": "28n0Ei25p1P1YZVtsVURGlMYs24=", "properties": {"@spider": "usps_collection_boxes", "addr:city": "COAL CITY", "addr:country": "US", "addr:full": "4225 MAIN ST", "addr:postcode": "47427", "addr:state": "IN", "amenity": "post_box", "brand": "United States Postal Service", "brand:wikidata": "Q668687", "collection_times": "Mo-Fr 15:15; Sa 10:30", "name": "USPS COLLECTION BOX - BLUE BOX", "note": "ON 12/24 AND 12/31, THIS BOX MAY BE COLLECTED AS EARLY AS 12 NOON.", "nsi_id": "unitedstatespostalservice-a77078", "operator": "United States Postal Service", "operator:short": "USPS", "operator:type": "public", "operator:wikidata": "Q668687", "ref": "4742700001"}, "type": "Feature"}
{"dataset_attributes": {"@spider": "usps_collection_boxes"}, "geometry": {"coordinates": [-87.045316, 39.230668], "type": "Point"}, "id": "9kMzsZpg3soNXZ1SsaadFcDJmGU=", "properties": {"@spider": "usps_collection_boxes", "addr:city": "COAL CITY", "addr:country": "US", "addr:full": "4225 MAIN ST", "addr:postcode": "47427", "addr:state": "IN", "amenity": "post_box", "brand": "United States Postal Service", "brand:wikidata": "Q668687", "collection_times": "Mo-Fr 11:15; Sa 10:30", "name": "USPS COLLECTION BOX - PO LOBBY", "nsi_id": "unitedstatespostalservice-a77078", "operator": "United States Postal Service", "operator:short": "USPS", "operator:type": "public", "operator:wikidata": "Q668687", "ref": "4742700002"}, "type": "Feature"}
{"dataset_attributes": {"@spider": "usps_collection_boxes"}, "geometry": {"coordinates": [-87.0453179305, 39.2306661618], "type": "Point"}, "id": "5DNCWrVLiZAFVAmtCSkpqCyf9X0=", "properties": {"@spider": "usps_collection_boxes", "addr:city": "COAL CITY", "addr:country": "US", "addr:full": "4225 MAIN ST", "addr:postcode": "47427", "addr:state": "IN", "amenity": "post_box", "brand": "United States Postal Service", "brand:wikidata": "Q668687", "collection_times": "Mo-Fr 11:30; Sa 10:30", "name": "USPS COLLECTION BOX - PO LOBBY", "nsi_id": "unitedstatespostalservice-a77078", "operator": "United States Postal Service", "operator:short": "USPS", "operator:type": "public", "operator:wikidata": "Q668687", "ref": "4742700003"}, "type": "Feature"}
{"dataset_attributes": {"@spider": "usps_collection_boxes"}, "geometry": {"coordinates": [-86.619933664, 38.548751481], "type": "Point"}, "id": "l1BYaY4uUqdeETbx-f3JVMEtSlo=", "properties": {"@spider": "usps_collection_boxes", "addr:city": "FRENCH LICK", "addr:country": "US", "addr:full": "8617 W COLLEGE ST", "addr:postcode": "47432", "addr:state": "IN", "amenity": "post_box", "brand": "United States Postal Service", "brand:wikidata": "Q668687", "collection_times": "Mo-Fr 15:30; Sa 11:00", "name": "USPS COLLECTION BOX - BLUE BOX", "note": "ON 12/24 AND 12/31, THIS BOX MAY BE COLLECTED AS EARLY AS 12 NOON.", "nsi_id": "unitedstatespostalservice-a77078", "operator": "United States Postal Service", "operator:short": "USPS", "operator:type": "public", "operator:wikidata": "Q668687", "ref": "4743200000"}, "type": "Feature"}
{"dataset_attributes": {"@spider": "usps_collection_boxes"}, "geometry": {"coordinates": [-86.620389, 38.549614], "type": "Point"}, "id": "uAclVIJ1126QwVGF9xxT2_65d-8=", "properties": {"@spider": "usps_collection_boxes", "addr:city": "FRENCH LICK", "addr:country": "US", "addr:full": "452 S MAPLE ST", "addr:postcode": "47432", "addr:state": "IN", "amenity": "post_box", "brand": "United States Postal Service", "brand:wikidata": "Q668687", "collection_times": "Mo-Sa 12:00", "name": "USPS COLLECTION BOX - BLUE BOX", "nsi_id": "unitedstatespostalservice-a77078", "operator": "United States Postal Service", "operator:short": "USPS", "operator:type": "public", "operator:wikidata": "Q668687", "ref": "4743200001"}, "type": "Feature"}
{"dataset_attributes": {"@spider": "usps_collection_boxes"}, "geometry": {"coordinates": [-86.619933664, 38.548751481], "type": "Point"}, "id": "G2RMeUWAywbVpYl1vhqYIhPMgTQ=", "properties": {"@spider": "usps_collection_boxes", "addr:city": "FRENCH LICK", "addr:country": "US", "addr:full": "8617 W COLLEGE ST", "addr:postcode": "47432", "addr:state": "IN", "amenity": "post_box", "brand": "United States Postal Service", "brand:wikidata": "Q668687", "collection_times": "Mo-Fr 15:30; Sa 11:00", "name": "USPS COLLECTION BOX - PO LOBBY", "note": "ON 12/24 AND 12/31, THIS BOX MAY BE COLLECTED AS EARLY AS 12 NOON.", "nsi_id": "unitedstatespostalservice-a77078", "operator": "United States Postal Service", "operator:short": "USPS", "operator:type": "public", "operator:wikidata": "Q668687", "ref": "4743200013"}, "type": "Feature"}
{"dataset_attributes": {"@spider": "usps_collection_boxes"}, "geometry": {"coordinates": [-86.6188751787, 38.5514556559], "type": "Point"}, "id": "PTBS0sOCIrveKxOu_0jNsjz8lWs=", "properties": {"@spider": "usps_collection_boxes", "addr:city": "FRENCH LICK", "addr:country": "US", "addr:full": "8670 W STATE ROAD 56", "addr:postcode": "47432", "addr:state": "IN", "amenity": "post_box", "brand": "United States Postal Service", "brand:wikidata": "Q668687", "collection_times": "Mo-Sa 12:00", "name": "USPS COLLECTION BOX - BLUE BOX", "nsi_id": "unitedstatespostalservice-a77078", "operator": "United States Postal Service", "operator:short": "USPS", "operator:type": "public", "operator:wikidata": "Q668687", "ref": "4743200015"}, "type": "Feature"}
{"dataset_attributes": {"@spider": "usps_collection_boxes"}, "geometry": {"coordinates": [-86.619933664, 38.548751481], "type": "Point"}, "id": "SGjHdkBs_6gRvlMYt8D3QgaGM9M=", "properties": {"@spider": "usps_collection_boxes", "addr:city": "FRENCH LICK", "addr:country": "US", "addr:full": "8617 W COLLEGE ST", "addr:postcode": "47432", "addr:state": "IN", "amenity": "post_box", "brand": "United States Postal Service", "brand:wikidata": "Q668687", "collection_times": "Mo-Fr 16:30; Sa 11:30", "name": "USPS COLLECTION BOX - PO LOBBY", "note": "ON 12/24 AND 12/31, THIS BOX MAY BE COLLECTED AS EARLY AS 12 NOON.", "nsi_id": "unitedstatespostalservice-a77078", "operator": "United States Postal Service", "operator:short": "USPS", "operator:type": "public", "operator:wikidata": "Q668687", "ref": "4743200016"}, "type": "Feature"}
{"dataset_attributes": {"@spider": "usps_collection_boxes"}, "geometry": {"coordinates": [-86.545056372, 39.012589006], "type": "Point"}, "id": "t-j0vkL7Fb_mR5RyJ1niMuL-S1g=", "properties": {"@spider": "usps_collection_boxes", "addr:city": "HARRODSBURG", "addr:country": "US", "addr:full": "9262 S HARRODSBURG RD", "addr:postcode": "47434", "addr:state": "IN", "amenity": "post_box", "brand": "United States Postal Service", "brand:wikidata": "Q668687", "collection_times": "Mo-Fr 16:00; Sa 11:30", "name": "USPS COLLECTION BOX - BLUE BOX", "note": "ON 12/24 AND 12/31, THIS BOX MAY BE COLLECTED AS EARLY AS 12 NOON.", "nsi_id": "unitedstatespostalservice-a77078", "operator": "United States Postal Service", "operator:short": "USPS", "operator:type": "public", "operator:wikidata": "Q668687", "ref": "4743400001"}, "type": "Feature"}
{"dataset_attributes": {"@spider": "usps_collection_boxes"}, "geometry": {"coordinates": [-86.545056372, 39.012589006], "type": "Point"}, "id": "zcgiHQrtEcJnQOJKPEE_GD1sh6M=", "properties": {"@spider": "usps_collection_boxes", "addr:city": "HARRODSBURG", "addr:country": "US", "addr:full": "9262 S HARRODSBURG RD", "addr:postcode": "47434", "addr:state": "IN", "amenity": "post_box", "brand": "United States Postal Service", "brand:wikidata": "Q668687", "collection_times": "Mo-Fr 16:00; Sa 11:30", "name": "USPS COLLECTION BOX - PO LOBBY", "note": "ON 12/24 AND 12/31, THIS BOX MAY BE COLLECTED AS EARLY AS 12 NOON.", "nsi_id": "unitedstatespostalservice-a77078", "operator": "United States Postal Service", "operator:short": "USPS", "operator:type": "public", "operator:wikidata": "Q668687", "ref": "4743400002"}, "type": "Feature"}
{"dataset_attributes": {"@spider": "usps_collection_boxes"}, "geometry": {"coordinates": [-86.545056372, 39.012589006], "type": "Point"}, "id": "54-IuPfP0uDmcBPXFY8gNw2fukM=", "properties": {"@spider": "usps_collection_boxes", "addr:city": "HARRODSBURG", "addr:country": "US", "addr:full": "9262 S HARRODSBURG RD", "addr:postcode": "47434", "addr:state": "IN", "amenity": "post_box", "brand": "United States Postal Service", "brand:wikidata": "Q668687", "collection_times": "Mo-Fr 16:30; Sa 11:30", "name": "USPS COLLECTION BOX - PO LOBBY", "note": "ON 12/24 AND 12/31, THIS BOX MAY BE COLLECTED AS EARLY AS 12 NOON.", "nsi_id": "unitedstatespostalservice-a77078", "operator": "United States Postal Service", "operator:short": "USPS", "operator:type": "public", "operator:wikidata": "Q668687", "ref": "4743400003"}, "type": "Feature"}
{"dataset_attributes": {"@spider": "usps_collection_boxes"}, "geometry": {"coordinates": [-86.37559, 38.929819], "type": "Point"}, "id": "XdKvBx6GLag6P7VuDwiVvwh0g2M=", "properties": {"@spider": "usps_collection_boxes", "addr:city": "HELTONVILLE", "addr:country": "US", "addr:full": "6525 STATE ROAD 58 E", "addr:postcode": "47436", "addr:state": "IN", "amenity": "post_box", "brand": "United States Postal Service", "brand:wikidata": "Q668687", "collection_times": "Mo-Fr 15:45; Sa 10:00", "name": "USPS COLLECTION BOX - BLUE BOX", "note": "ON 12/24 AND 12/31, THIS BOX MAY BE COLLECTED AS EARLY AS 12 NOON.", "nsi_id": "unitedstatespostalservice-a77078", "operator": "United States Postal Service", "operator:short": "USPS", "operator:type": "public", "operator:wikidata": "Q668687", "ref": "4743600001"}, "type": "Feature"}
{"dataset_attributes": {"@spider": "usps_collection_boxes"}, "geometry": {"coordinates": [-86.37559, 38.929819], "type": "Point"}, "id": "H5Np_9ROQ5Z3lcxCxnyk_r8pmU8=", "properties": {"@spider": "usps_collection_boxes", "addr:city": "HELTONVILLE", "addr:country": "US", "addr:full": "6525 STATE ROAD 58 E", "addr:postcode": "47436", "addr:state": "IN", "amenity": "post_box", "brand": "United States Postal Service", "brand:wikidata": "Q668687", "collection_times": "Mo-Fr 11:15; Sa 10:00", "name": "USPS COLLECTION BOX - PO LOBBY", "nsi_id": "unitedstatespostalservice-a77078", "operator": "United States Postal Service", "operator:short": "USPS", "operator:type": "public", "operator:wikidata": "Q668687", "ref": "4743600002"}, "type": "Feature"}
{"dataset_attributes": {"@spider": "usps_collection_boxes"}, "geometry": {"coordinates": [-86.3755762706, 38.9301302828], "type": "Point"}, "id": "4tz4vTkzgScRGEYpE_Re03fCllM=", "properties": {"@spider": "usps_collection_boxes", "addr:city": "HELTONVILLE", "addr:country": "US", "addr:full": "6525 STATE ROAD 58 E", "addr:postcode": "47436", "addr:state": "IN", "amenity": "post_box", "brand": "United States Postal Service", "brand:wikidata": "Q668687", "collection_times": "Mo-Fr 11:30; Sa 10:00", "name": "USPS COLLECTION BOX - PO LOBBY", "nsi_id": "unitedstatespostalservice-a77078", "operator": "United States Postal Service", "operator:short": "USPS", "operator:type": "public", "operator:wikidata": "Q668687", "ref": "4743600003"}, "type": "Feature"}
{"dataset_attributes": {"@spider": "usps_collection_boxes"}, "geometry": {"coordinates": [-86.6725842043, 38.7221187043], "type": "Point"}, "id": "ZWcJzzBy4SeTBzPuiTP1_ya_rYQ=", "properties": {"@spider": "usps_collection_boxes", "addr:city": "HURON", "addr:country": "US", "addr:full": "513 HURON PIKE", "addr:postcode": "47437", "addr:state": "IN", "amenity": "post_box", "brand": "United States Postal Service", "brand:wikidata": "Q668687", "collection_times": "Mo-Sa 15:00", "name": "USPS COLLECTION BOX - BLUE BOX", "note": "ON 12/24 AND 12/31, THIS BOX MAY BE COLLECTED AS EARLY AS 12 NOON.", "nsi_id": "unitedstatespostalservice-a77078", "operator": "United States Postal Service", "operator:short": "USPS", "operator:type": "public", "operator:wikidata": "Q668687", "ref": "4743700001"}, "type": "Feature"}
{"dataset_attributes": {"@spider": "usps_collection_boxes"}, "geometry": {"coordinates": [-86.6725842043, 38.7221187043], "type": "Point"}, "id": "MM4TEv00a8z6twhNc1UgPgZxtNg=", "properties": {"@spider": "usps_collection_boxes", "addr:city": "HURON", "addr:country": "US", "addr:full": "513 HURON PIKE", "addr:postcode": "47437", "addr:state": "IN", "amenity": "post_box", "brand": "United States Postal Service", "brand:wikidata": "Q668687", "collection_times": "Mo-Fr 10:45; Sa 10:30", "name": "USPS COLLECTION BOX - PO LOBBY", "nsi_id": "unitedstatespostalservice-a77078", "operator": "United States Postal Service", "operator:short": "USPS", "operator:type": "public", "operator:wikidata": "Q668687", "ref": "4743700002"}, "type": "Feature"}
{"dataset_attributes": {"@spider": "usps_collection_boxes"}, "geometry": {"coordinates": [-86.6725842043, 38.7221187043], "type": "Point"}, "id": "GmKQT_hkJ5LCg-WrLyqFLiqzvis=", "properties": {"@spider": "usps_collection_boxes", "addr:city": "HURON", "addr:country": "US", "addr:full": "513 HURON PIKE", "addr:postcode": "47437", "addr:state": "IN", "amenity": "post_box", "brand": "United States Postal Service", "brand:wikidata": "Q668687", "collection_times": "Mo-Fr 11:00; Sa 10:30", "name": "USPS COLLECTION BOX - PO LOBBY", "nsi_id": "unitedstatespostalservice-a77078", "operator": "United States Postal Service", "operator:short": "USPS", "operator:type": "public", "operator:wikidata": "Q668687", "ref": "4743700003"}, "type": "Feature"}
{"dataset_attributes": {"@spider": "usps_collection_boxes"}, "geometry": {"coordinates": [-87.202012888, 39.163137464], "type": "Point"}, "id": "hpUEhhBaIFQon3qOEbGCNmdwLQg=", "properties": {"@spider": "usps_collection_boxes", "addr:city": "JASONVILLE", "addr:country": "US", "addr:full": "325 W MAIN ST", "addr:postcode": "47438", "addr:state": "IN", "amenity": "post_box", "brand": "United States Postal Service", "brand:wikidata": "Q668687", "collection_times": "Mo-Fr 15:45; Sa 10:45", "name": "USPS COLLECTION BOX - BLUE BOX", "note": "ON 12/24 AND 12/31, THIS BOX MAY BE COLLECTED AS EARLY AS 12 NOON.", "nsi_id": "unitedstatespostalservice-a77078", "operator": "United States Postal Service", "operator:short": "USPS", "operator:type": "public", "operator:wikidata": "Q668687", "ref": "4743800000"}, "type": "Feature"}
{"dataset_attributes": {"@spider": "usps_collection_boxes"}, "geometry": {"coordinates": [-87.2001035, 39.162912], "type": "Point"}, "id": "M2HpsbN-7tZvBeG0uQQnOxlngPQ=", "properties": {"@spider": "usps_collection_boxes", "addr:city": "JASONVILLE", "addr:country": "US", "addr:full": "100 S LAWTON ST", "addr:postcode": "47438", "addr:state": "IN", "amenity": "post_box", "brand": "United States Postal Service", "brand:wikidata": "Q668687", "collection_times": "Mo-Fr 15:45; Sa 10:45", "name": "USPS COLLECTION BOX - BLUE BOX", "note": "ON 12/24 AND 12/31, THIS BOX MAY BE COLLECTED AS EARLY AS 12 NOON.", "nsi_id": "unitedstatespostalservice-a77078", "operator": "United States Postal Service", "operator:short": "USPS", "operator:type": "public", "operator:wikidata": "Q668687", "ref": "4743800006"}, "type": "Feature"}
{"dataset_attributes": {"@spider": "usps_collection_boxes"}, "geometry": {"coordinates": [-87.202012888, 39.163137464], "type": "Point"}, "id": "MCbyDX4mUEymjxtjbpDb9zuRCiA=", "properties": {"@spider": "usps_collection_boxes", "addr:city": "JASONVILLE", "addr:country": "US", "addr:full": "325 W MAIN ST", "addr:postcode": "47438", "addr:state": "IN", "amenity": "post_box", "brand": "United States Postal Service", "brand:wikidata": "Q668687", "collection_times": "Mo-Fr 15:45; Sa 10:45", "name": "USPS COLLECTION BOX - PO LOBBY", "note": "ON 12/24 AND 12/31, THIS BOX MAY BE COLLECTED AS EARLY AS 12 NOON.", "nsi_id": "unitedstatespostalservice-a77078", "operator": "United States Postal Service", "operator:short": "USPS", "operator:type": "public", "operator:wikidata": "Q668687", "ref": "4743800012"}, "type": "Feature"}
{"dataset_attributes": {"@spider": "usps_collection_boxes"}, "geometry": {"coordinates": [-87.1956299, 39.163333], "type": "Point"}, "id": "hxt1yL0fB0l6EbXLE2uobNW45Uc=", "properties": {"@spider": "usps_collection_boxes", "addr:city": "JASONVILLE", "addr:country": "US", "addr:full": "346 E MAIN ST", "addr:postcode": "47438", "addr:state": "IN", "amenity": "post_box", "brand": "United States Postal Service", "brand:wikidata": "Q668687", "collection_times": "Mo-Sa 10:00", "name": "USPS COLLECTION BOX - BLUE BOX", "nsi_id": "unitedstatespostalservice-a77078", "operator": "United States Postal Service", "operator:short": "USPS", "operator:type": "public", "operator:wikidata": "Q668687", "ref": "4743800013"}, "type": "Feature"}
{"dataset_attributes": {"@spider": "usps_collection_boxes"}, "geometry": {"coordinates": [-87.202012888, 39.163137464], "type": "Point"}, "id": "QYHOb_9-6fpFxPpxc3I1Gv7khkk=", "properties": {"@spider": "usps_collection_boxes", "addr:city": "JASONVILLE", "addr:country": "US", "addr:full": "325 W MAIN ST", "addr:postcode": "47438", "addr:state": "IN", "amenity": "post_box", "brand": "United States Postal Service", "brand:wikidata": "Q668687", "collection_times": "Mo-Fr 16:00; Sa 11:00", "name": "USPS COLLECTION BOX - PO LOBBY", "note": "ON 12/24 AND 12/31, THIS BOX MAY BE COLLECTED AS EARLY AS 12 NOON.", "nsi_id": "unitedstatespostalservice-a77078", "operator": "United States Postal Service", "operator:short": "USPS", "operator:type": "public", "operator:wikidata": "Q668687", "ref": "4743800014"}, "type": "Feature"}
{"dataset_attributes": {"@spider": "usps_collection_boxes"}, "geometry": {"coordinates": [-87.166095602, 39.032460587], "type": "Point"}, "id": "ICRkwy0YraLO0GmW8zyKx51Hy7o=", "properties": {"@spider": "usps_collection_boxes", "addr:city": "LINTON", "addr:country": "US", "addr:full": "109 S MAIN ST", "addr:postcode": "47441", "addr:state": "IN", "amenity": "post_box", "brand": "United States Postal Service", "brand:wikidata": "Q668687", "collection_times": "Mo-Sa 16:00", "name": "USPS COLLECTION BOX - BLUE BOX", "note": "ON 12/24 AND 12/31, THIS BOX MAY BE COLLECTED AS EARLY AS 12 NOON.", "nsi_id": "unitedstatespostalservice-a77078", "operator": "United States Postal Service", "operator:short": "USPS", "operator:type": "public", "operator:wikidata": "Q668687", "ref": "4744100001"}, "type": "Feature"}
{"dataset_attributes": {"@spider": "usps_collection_boxes"}, "geometry": {"coordinates": [-87.166095602, 39.032460587], "type": "Point"}, "id": "7be2uaN5WnYFaCeapsUGQ4CIM-U=", "properties": {"@spider": "usps_collection_boxes", "addr:city": "LINTON", "addr:country": "US", "addr:full": "109 S MAIN ST", "addr:postcode": "47441", "addr:state": "IN", "amenity": "post_box", "brand": "United States Postal Service", "brand:wikidata": "Q668687", "collection_times": "Mo-Sa 16:00", "name": "USPS COLLECTION BOX - BLUE BOX", "note": "ON 12/24 AND 12/31, THIS BOX MAY BE COLLECTED AS EARLY AS 12 NOON.", "nsi_id": "unitedstatespostalservice-a77078", "operator": "United States Postal Service", "operator:short": "USPS", "operator:type": "public", "operator:wikidata": "Q668687", "ref": "4744100002"}, "type": "Feature"}
{"dataset_attributes": {"@spider": "usps_collection_boxes"}, "geometry": {"coordinates": [-87.1310424, 39.036513], "type": "Point"}, "id": "slnaSqLbEItafJO-1G3wpM4QcoE=", "properties": {"@spider": "usps_collection_boxes", "addr:city": "LINTON", "addr:country": "US", "addr:full": "2251 E STATE HIGHWAY 54", "addr:postcode": "47441", "addr:state": "IN", "amenity": "post_box", "brand": "United States Postal Service", "brand:wikidata": "Q668687", "collection_times": "Mo-Sa 08:45", "name": "USPS COLLECTION BOX - BLUE BOX", "nsi_id": "unitedstatespostalservice-a77078", "operator": "United States Postal Service", "operator:short": "USPS", "operator:type": "public", "operator:wikidata": "Q668687", "ref": "4744100012"}, "type": "Feature"}
{"dataset_attributes": {"@spider": "usps_collection_boxes"}, "geometry": {"coordinates": [-87.166095602, 39.032460587], "type": "Point"}, "id": "hjlo4zu6wlP87hG3qD89BJS-Id0=", "properties": {"@spider": "usps_collection_boxes", "addr:city": "LINTON", "addr:country": "US", "addr:full": "109 S MAIN ST", "addr:postcode": "47441", "addr:state": "IN", "amenity": "post_box", "brand": "United States Postal Service", "brand:wikidata": "Q668687", "collection_times": "Mo-Sa 16:00", "name": "USPS COLLECTION BOX - BLUE BOX", "note": "ON 12/24 AND 12/31, THIS BOX MAY BE COLLECTED AS EARLY AS 12 NOON.", "nsi_id": "unitedstatespostalservice-a77078", "operator": "United States Postal Service", "operator:short": "USPS", "operator:type": "public", "operator:wikidata": "Q668687", "ref": "4744100013"}, "type": "Feature"}
{"dataset_attributes": {"@spider": "usps_collection_boxes"}, "geometry": {"coordinates": [-87.166095602, 39.032460587], "type": "Point"}, "id": "svRe1_M3fITL6ykAyQOayOM2UYM=", "properties": {"@spider": "usps_collection_boxes", "addr:city": "LINTON", "addr:country": "US", "addr:full": "109 S MAIN ST", "addr:postcode": "47441", "addr:state": "IN", "amenity": "post_box", "brand": "United States Postal Service", "brand:wikidata": "Q668687", "collection_times": "Mo-Fr 16:30; Sa 16:00", "name": "USPS COLLECTION BOX - PO LOBBY", "note": "ON 12/24 AND 12/31, THIS BOX MAY BE COLLECTED AS EARLY AS 12 NOON.", "nsi_id": "unitedstatespostalservice-a77078", "operator": "United States Postal Service", "operator:short": "USPS", "operator:type": "public", "operator:wikidata": "Q668687", "ref": "4744100015"}, "type": "Feature"}
{"dataset_attributes": {"@spider": "usps_collection_boxes"}, "geometry": {"coordinates": [-87.0824700161, 38.988779983], "type": "Point"}, "id": "2C_Z1xGlGnYVov2iXA4vBoZmaik=", "properties": {"@spider": "usps_collection_boxes", "addr:city": "LYONS", "addr:country": "US", "addr:full": "167 W BROAD ST", "addr:postcode": "47443", "addr:state": "IN", "amenity": "post_box", "brand": "United States Postal Service", "brand:wikidata": "Q668687", "collection_times": "Mo-Fr 15:45; Sa 11:00", "name": "USPS COLLECTION BOX - BLUE BOX", "note": "ON 12/24 AND 12/31, THIS BOX MAY BE COLLECTED AS EARLY AS 12 NOON.", "nsi_id": "unitedstatespostalservice-a77078", "operator": "United States Postal Service", "operator:short": "USPS", "operator:type": "public", "operator:wikidata": "Q668687", "ref": "4744300001"}, "type": "Feature"}
{"dataset_attributes": {"@spider": "usps_collection_boxes"}, "geometry": {"coordinates": [-87.082524, 38.98892147], "type": "Point"}, "id": "aWpFHAokr6JOW-SwvEv8VAf01j4=", "properties": {"@spider": "usps_collection_boxes", "addr:city": "LYONS", "addr:country": "US", "addr:full": "167 W BROAD ST", "addr:postcode": "47443", "addr:state": "IN", "amenity": "post_box", "brand": "United States Postal Service", "brand:wikidata": "Q668687", "collection_times": "Mo-Fr 11:45; Sa 09:45", "name": "USPS COLLECTION BOX - PO LOBBY", "nsi_id": "unitedstatespostalservice-a77078", "operator": "United States Postal Service", "operator:short": "USPS", "operator:type": "public", "operator:wikidata": "Q668687", "ref": "4744300002"}, "type": "Feature"}
{"dataset_attributes": {"@spider": "usps_collection_boxes"}, "geometry": {"coordinates": [-87.082524, 38.98892147], "type": "Point"}, "id": "K2VkBanrg8rcQLkWfRS51r9LiQA=", "properties": {"@spider": "usps_collection_boxes", "addr:city": "LYONS", "addr:country": "US", "addr:full": "167 W BROAD ST", "addr:postcode": "47443", "addr:state": "IN", "amenity": "post_box", "brand": "United States Postal Service", "brand:wikidata": "Q668687", "collection_times": "Mo-Fr 12:30; Sa 10:00", "name": "USPS COLLECTION BOX - PO LOBBY", "note": "ON 12/24 AND 12/31, THIS BOX MAY BE COLLECTED AS EARLY AS 12 NOON.", "nsi_id": "unitedstatespostalservice-a77078", "operator": "United States Postal Service", "operator:short": "USPS", "operator:type": "public", "operator:wikidata": "Q668687", "ref": "4744300003"}, "type": "Feature"}
{"dataset_attributes": {"@spider": "usps_collection_boxes"}, "geometry": {"coordinates": [-87.191213, 39.122126], "type": "Point"}, "id": "A_8ppjsIDfXeTHNdQ9LIVburFoY=", "properties": {"@spider": "usps_collection_boxes", "addr:city": "MIDLAND", "addr:country": "US", "addr:full": "13340 W FIRST ST", "addr:postcode": "47445", "addr:state": "IN", "amenity": "post_box", "brand": "United States Postal Service", "brand:wikidata": "Q668687", "collection_times": "Mo-Fr 15:15; Sa 11:45", "name": "USPS COLLECTION BOX - BLUE BOX", "note": "ON 12/24 AND 12/31, THIS BOX MAY BE COLLECTED AS EARLY AS 12 NOON.", "nsi_id": "unitedstatespostalservice-a77078", "operator": "United States Postal Service", "operator:short": "USPS", "operator:type": "public", "operator:wikidata": "Q668687", "ref": "4744500001"}, "type": "Feature"}
{"dataset_attributes": {"@spider": "usps_collection_boxes"}, "geometry": {"coordinates": [-87.191213, 39.122126], "type": "Point"}, "id": "3gboED0trUEMVElWuZrhiHrFugo=", "properties": {"@spider": "usps_collection_boxes", "addr:city": "MIDLAND", "addr:country": "US", "addr:full": "13340 W FIRST ST", "addr:postcode": "47445", "addr:state": "IN", "amenity": "post_box", "brand": "United States Postal Service", "brand:wikidata": "Q668687", "collection_times": "Mo-Fr 15:15; Sa 11:45", "name": "USPS COLLECTION BOX - PO LOBBY", "note": "ON 12/24 AND 12/31, THIS BOX MAY BE COLLECTED AS EARLY AS 12 NOON.", "nsi_id": "unitedstatespostalservice-a77078", "operator": "United States Postal Service", "operator:short": "USPS", "operator:type": "public", "operator:wikidata": "Q668687", "ref": "4744500002"}, "type": "Feature"}
{"dataset_attributes": {"@spider": "usps_collection_boxes"}, "geometry": {"coordinates": [-87.1912360195, 39.1221624038], "type": "Point"}, "id": "o_bfZu-DJDY7UVchrbbu2RYw-04=", "properties": {"@spider": "usps_collection_boxes", "addr:city": "MIDLAND", "addr:country": "US", "addr:full": "13340 W FIRST ST", "addr:postcode": "47445", "addr:state": "IN", "amenity": "post_box", "brand": "United States Postal Service", "brand:wikidata": "Q668687", "collection_times": "Mo-Fr 15:15; Sa 12:00", "name": "USPS COLLECTION BOX - PO LOBBY", "note": "ON 12/24 AND 12/31, THIS BOX MAY BE COLLECTED AS EARLY AS 12 NOON.", "nsi_id": "unitedstatespostalservice-a77078", "operator": "United States Postal Service", "operator:short": "USPS", "operator:type": "public", "operator:wikidata": "Q668687", "ref": "4744500003"}, "type": "Feature"}
{"dataset_attributes": {"@spider": "usps_collection_boxes"}, "geometry": {"coordinates": [-86.47363, 38.733322], "type": "Point"}, "id": "2n32sbI6Nw0-XSMTSMeMdgc3WdU=", "properties": {"@spider": "usps_collection_boxes", "addr:city": "MITCHELL", "addr:country": "US", "addr:full": "118 N 7TH ST", "addr:postcode": "47446", "addr:state": "IN", "amenity": "post_box", "brand": "United States Postal Service", "brand:wikidata": "Q668687", "collection_times": "Mo-Fr 16:30; Sa 12:00", "name": "USPS COLLECTION BOX - BLUE BOX", "note": "ON 12/24 AND 12/31, THIS BOX MAY BE COLLECTED AS EARLY AS 12 NOON.", "nsi_id": "unitedstatespostalservice-a77078", "operator": "United States Postal Service", "operator:short": "USPS", "operator:type": "public", "operator:wikidata": "Q668687", "ref": "4744600001"}, "type": "Feature"}
{"dataset_attributes": {"@spider": "usps_collection_boxes"}, "geometry": {"coordinates": [-86.4795441, 38.727307], "type": "Point"}, "id": "9qx5pM0E14Nj9-4xzrxZgxklXRQ=", "properties": {"@spider": "usps_collection_boxes", "addr:city": "MITCHELL", "addr:country": "US", "addr:full": "1200 ELM PARK DR", "addr:postcode": "47446", "addr:state": "IN", "amenity": "post_box", "brand": "United States Postal Service", "brand:wikidata": "Q668687", "collection_times": "Mo-Sa 08:30", "name": "USPS COLLECTION BOX - BLUE BOX", "nsi_id": "unitedstatespostalservice-a77078", "operator": "United States Postal Service", "operator:short": "USPS", "operator:type": "public", "operator:wikidata": "Q668687", "ref": "4744600012"}, "type": "Feature"}
{"dataset_attributes": {"@spider": "usps_collection_boxes"}, "geometry": {"coordinates": [-86.47363, 38.733322], "type": "Point"}, "id": "saECOoew7hRRN8N6GL_3Lin7jhs=", "properties": {"@spider": "usps_collection_boxes", "addr:city": "MITCHELL", "addr:country": "US", "addr:full": "118 N 7TH ST", "addr:postcode": "47446", "addr:state": "IN", "amenity": "post_box", "brand": "United States Postal Service", "brand:wikidata": "Q668687", "collection_times": "Mo-Fr 16:30; Sa 12:00", "name": "USPS COLLECTION BOX - PO LOBBY", "note": "ON 12/24 AND 12/31, THIS BOX MAY BE COLLECTED AS EARLY AS 12 NOON.", "nsi_id": "unitedstatespostalservice-a77078", "operator": "United States Postal Service", "operator:short": "USPS", "operator:type": "public", "operator:wikidata": "Q668687", "ref": "4744600028"}, "type": "Feature"}
{"dataset_attributes": {"@spider": "usps_collection_boxes"}, "geometry": {"coordinates": [-86.47363, 38.733322], "type": "Point"}, "id": "nzkjPI0DUJMstH4t23gtOuL3ysk=", "properties": {"@spider": "usps_collection_boxes", "addr:city": "MITCHELL", "addr:country": "US", "addr:full": "118 N 7TH ST", "addr:postcode": "47446", "addr:state": "IN", "amenity": "post_box", "brand": "United States Postal Service", "brand:wikidata": "Q668687", "collection_times": "Mo-Fr 16:30; Sa 12:00", "name": "USPS COLLECTION BOX - PO LOBBY", "note": "ON 12/24 AND 12/31, THIS BOX MAY BE COLLECTED AS EARLY AS 12 NOON.", "nsi_id": "unitedstatespostalservice-a77078", "operator": "United States Postal Service", "operator:short": "USPS", "operator:type": "public", "operator:wikidata": "Q668687", "ref": "4744600029"}, "type": "Feature"}
{"dataset_attributes": {"@spider": "usps_collection_boxes"}, "geometry": {"coordinates": [-86.4800452, 38.726646], "type": "Point"}, "id": "t4KRkcU7dmXir4uTm_NfrGeWUv8=", "properties": {"@spider": "usps_collection_boxes", "addr:city": "MITCHELL", "addr:country": "US", "addr:full": "1300 ELM PARK DR", "addr:postcode": "47446", "addr:state": "IN", "amenity": "post_box", "brand": "United States Postal Service", "brand:wikidata": "Q668687", "collection_times": "Mo-Sa 08:30", "name": "USPS COLLECTION BOX - BLUE BOX", "nsi_id": "unitedstatespostalservice-a77078", "operator": "United States Postal Service", "operator:short": "USPS", "operator:type": "public", "operator:wikidata": "Q668687", "ref": "4744600030"}, "type": "Feature"}
{"dataset_attributes": {"@spider": "usps_collection_boxes"}, "geometry": {"coordinates": [-86.4736909501, 38.733445267], "type": "Point"}, "id": "ewloM_OVRTHd9FiBjJ6ZErROPVE=", "properties": {"@spider": "usps_collection_boxes", "addr:city": "MITCHELL", "addr:country": "US", "addr:full": "118 N 7TH ST", "addr:postcode": "47446", "addr:state": "IN", "amenity": "post_box", "brand": "United States Postal Service", "brand:wikidata": "Q668687", "collection_times": "Mo-Fr 16:30; Sa 12:00", "name": "USPS COLLECTION BOX - PO LOBBY", "note": "ON 12/24 AND 12/31, THIS BOX MAY BE COLLECTED AS EARLY AS 12 NOON.", "nsi_id": "unitedstatespostalservice-a77078", "operator": "United States Postal Service", "operator:short": "USPS", "operator:type": "public", "operator:wikidata": "Q668687", "ref": "4744600032"}, "type": "Feature"}
{"dataset_attributes": {"@spider": "usps_collection_boxes"}, "geometry": {"coordinates": [-87.019366697, 38.924046], "type": "Point"}, "id": "v0Lsz4Sk_V6xZnsq7xtOfeJSrfs=", "properties": {"@spider": "usps_collection_boxes", "addr:city": "NEWBERRY", "addr:country": "US", "addr:full": "414 BROAD ST", "addr:postcode": "47449", "addr:state": "IN", "amenity": "post_box", "brand": "United States Postal Service", "brand:wikidata": "Q668687", "collection_times": "Mo-Fr 15:30; Sa 12:45", "name": "USPS COLLECTION BOX - BLUE BOX", "note": "ON 12/24 AND 12/31, THIS BOX MAY BE COLLECTED AS EARLY AS 12 NOON.", "nsi_id": "unitedstatespostalservice-a77078", "operator": "United States Postal Service", "operator:short": "USPS", "operator:type": "public", "operator:wikidata": "Q668687", "ref": "4744900001"}, "type": "Feature"}
{"dataset_attributes": {"@spider": "usps_collection_boxes"}, "geometry": {"coordinates": [-87.019366697, 38.924046], "type": "Point"}, "id": "AZ1Eniw2wraMAlHPQTX_0268zjM=", "properties": {"@spider": "usps_collection_boxes", "addr:city": "NEWBERRY", "addr:country": "US", "addr:full": "414 BROAD ST", "addr:postcode": "47449", "addr:state": "IN", "amenity": "post_box", "brand": "United States Postal Service", "brand:wikidata": "Q668687", "collection_times": "Mo-Fr 15:15; Sa 12:45", "name": "USPS COLLECTION BOX - PO LOBBY", "note": "ON 12/24 AND 12/31, THIS BOX MAY BE COLLECTED AS EARLY AS 12 NOON.", "nsi_id": "unitedstatespostalservice-a77078", "operator": "United States Postal Service", "operator:short": "USPS", "operator:type": "public", "operator:wikidata": "Q668687", "ref": "4744900002"}, "type": "Feature"}
{"dataset_attributes": {"@spider": "usps_collection_boxes"}, "geometry": {"coordinates": [-87.019366697, 38.924046], "type": "Point"}, "id": "twznsTgYb5SSILby4YRoeVkgB4A=", "properties": {"@spider": "usps_collection_boxes", "addr:city": "NEWBERRY", "addr:country": "US", "addr:full": "414 BROAD ST", "addr:postcode": "47449", "addr:state": "IN", "amenity": "post_box", "brand": "United States Postal Service", "brand:wikidata": "Q668687", "collection_times": "Mo-Fr 15:30; Sa 13:00", "name": "USPS COLLECTION BOX - PO LOBBY", "note": "ON 12/24 AND 12/31, THIS BOX MAY BE COLLECTED AS EARLY AS 12 NOON.", "nsi_id": "unitedstatespostalservice-a77078", "operator": "United States Postal Service", "operator:short": "USPS", "operator:type": "public", "operator:wikidata": "Q668687", "ref": "4744900003"}, "type": "Feature"}
{"dataset_attributes": {"@spider": "usps_collection_boxes"}, "geometry": {"coordinates": [-86.5264725, 38.900806479], "type": "Point"}, "id": "5vN_KVLUTTBmldNUX1OBgOzMlV4=", "properties": {"@spider": "usps_collection_boxes", "addr:city": "OOLITIC", "addr:country": "US", "addr:full": "113 MAIN ST", "addr:postcode": "47451", "addr:state": "IN", "amenity": "post_box", "brand": "United States Postal Service", "brand:wikidata": "Q668687", "collection_times": "Mo-Fr 16:00; Sa 11:15", "name": "USPS COLLECTION BOX - BLUE BOX", "note": "ON 12/24 AND 12/31, THIS BOX MAY BE COLLECTED AS EARLY AS 12 NOON.", "nsi_id": "unitedstatespostalservice-a77078", "operator": "United States Postal Service", "operator:short": "USPS", "operator:type": "public", "operator:wikidata": "Q668687", "ref": "4745100001"}, "type": "Feature"}
{"dataset_attributes": {"@spider": "usps_collection_boxes"}, "geometry": {"coordinates": [-86.5264725, 38.900806479], "type": "Point"}, "id": "cg8B12F2Q57uWuL1tsn4SBUwmQo=", "properties": {"@spider": "usps_collection_boxes", "addr:city": "OOLITIC", "addr:country": "US", "addr:full": "113 MAIN ST", "addr:postcode": "47451", "addr:state": "IN", "amenity": "post_box", "brand": "United States Postal Service", "brand:wikidata": "Q668687", "collection_times": "Mo-Fr 16:00; Sa 11:15", "name": "USPS COLLECTION BOX - PO LOBBY", "note": "ON 12/24 AND 12/31, THIS BOX MAY BE COLLECTED AS EARLY AS 12 NOON.", "nsi_id": "unitedstatespostalservice-a77078", "operator": "United States Postal Service", "operator:short": "USPS", "operator:type": "public", "operator:wikidata": "Q668687", "ref": "4745100002"}, "type": "Feature"}
{"dataset_attributes": {"@spider": "usps_collection_boxes"}, "geometry": {"coordinates": [-86.5221213, 38.887782], "type": "Point"}, "id": "4YEE-NJZfqrGdQC1fci2lNYtbNA=", "properties": {"@spider": "usps_collection_boxes", "addr:city": "OOLITIC", "addr:country": "US", "addr:full": "510 W 9TH ST", "addr:postcode": "47451", "addr:state": "IN", "amenity": "post_box", "brand": "United States Postal Service", "brand:wikidata": "Q668687", "collection_times": "Mo-Sa 11:00", "name": "USPS COLLECTION BOX - BLUE BOX", "nsi_id": "unitedstatespostalservice-a77078", "operator": "United States Postal Service", "operator:short": "USPS", "operator:type": "public", "operator:wikidata": "Q668687", "ref": "4745100003"}, "type": "Feature"}
{"dataset_attributes": {"@spider": "usps_collection_boxes"}, "geometry": {"coordinates": [-86.5264725, 38.900806479], "type": "Point"}, "id": "urVH5_NhNnYO6jmDY7VjUNJM0oM=", "properties": {"@spider": "usps_collection_boxes", "addr:city": "OOLITIC", "addr:country": "US", "addr:full": "113 MAIN ST", "addr:postcode": "47451", "addr:state": "IN", "amenity": "post_box", "brand": "United States Postal Service", "brand:wikidata": "Q668687", "collection_times": "Mo-Fr 16:00; Sa 11:30", "name": "USPS COLLECTION BOX - PO LOBBY", "note": "ON 12/24 AND 12/31, THIS BOX MAY BE COLLECTED AS EARLY AS 12 NOON.", "nsi_id": "unitedstatespostalservice-a77078", "operator": "United States Postal Service", "operator:short": "USPS", "operator:type": "public", "operator:wikidata": "Q668687", "ref": "4745100004"}, "type": "Feature"}
{"dataset_attributes": {"@spider": "usps_collection_boxes"}, "geometry": {"coordinates": [-86.454503832, 38.661578467], "type": "Point"}, "id": "73sIeMGGe4n37CK0gA9JfT19YqQ=", "properties": {"@spider": "usps_collection_boxes", "addr:city": "ORLEANS", "addr:country": "US", "addr:full": "201 W WASHINGTON ST", "addr:postcode": "47452", "addr:state": "IN", "amenity": "post_box", "brand": "United States Postal Service", "brand:wikidata": "Q668687", "collection_times": "Mo-Fr 15:30; Sa 11:00", "name": "USPS COLLECTION BOX - BLUE BOX", "note": "ON 12/24 AND 12/31, THIS BOX MAY BE COLLECTED AS EARLY AS 12 NOON.", "nsi_id": "unitedstatespostalservice-a77078", "operator": "United States Postal Service", "operator:short": "USPS", "operator:type": "public", "operator:wikidata": "Q668687", "ref": "4745200002"}, "type": "Feature"}
{"dataset_attributes": {"@spider": "usps_collection_boxes"}, "geometry": {"coordinates": [-86.4529109, 38.654641], "type": "Point"}, "id": "qt6z6veeBBO_YcYrntI-MHrALCE=", "properties": {"@spider": "usps_collection_boxes", "addr:city": "ORLEANS", "addr:country": "US", "addr:full": "963 S MAPLE ST", "addr:postcode": "47452", "addr:state": "IN", "amenity": "post_box", "brand": "United States Postal Service", "brand:wikidata": "Q668687", "collection_times": "Mo-Fr 13:00; Sa 11:00", "name": "USPS COLLECTION BOX - BLUE BOX", "note": "ON 12/24 AND 12/31, THIS BOX MAY BE COLLECTED AS EARLY AS 12 NOON.", "nsi_id": "unitedstatespostalservice-a77078", "operator": "United States Postal Service", "operator:short": "USPS", "operator:type": "public", "operator:wikidata": "Q668687", "ref": "4745200003"}, "type": "Feature"}
{"dataset_attributes": {"@spider": "usps_collection_boxes"}, "geometry": {"coordinates": [-86.454503832, 38.661578467], "type": "Point"}, "id": "nGj13CzyRVeHY8Z6nf5rvhmXJ8M=", "properties": {"@spider": "usps_collection_boxes", "addr:city": "ORLEANS", "addr:country": "US", "addr:full": "201 W WASHINGTON ST", "addr:postcode": "47452", "addr:state": "IN", "amenity": "post_box", "brand": "United States Postal Service", "brand:wikidata": "Q668687", "collection_times": "Mo-Fr 15:30; Sa 11:00", "name": "USPS COLLECTION BOX - PO LOBBY", "note": "ON 12/24 AND 12/31, THIS BOX MAY BE COLLECTED AS EARLY AS 12 NOON.", "nsi_id": "unitedstatespostalservice-a77078", "operator": "United States Postal Service", "operator:short": "USPS", "operator:type": "public", "operator:wikidata": "Q668687", "ref": "4745200005"}, "type": "Feature"}
{"dataset_attributes": {"@spider": "usps_collection_boxes"}, "geometry": {"coordinates": [-86.454503832, 38.661578467], "type": "Point"}, "id": "uRXPRUWMZ8LEQ9KXDxCsorYCKXw=", "properties": {"@spider": "usps_collection_boxes", "addr:city": "ORLEANS", "addr:country": "US", "addr:full": "201 W WASHINGTON ST", "addr:postcode": "47452", "addr:state": "IN", "amenity": "post_box", "brand": "United States Postal Service", "brand:wikidata": "Q668687", "collection_times": "Mo-Fr 16:15; Sa 12:00", "name": "USPS COLLECTION BOX - PO LOBBY", "note": "ON 12/24 AND 12/31, THIS BOX MAY BE COLLECTED AS EARLY AS 12 NOON.", "nsi_id": "unitedstatespostalservice-a77078", "operator": "United States Postal Service", "operator:short": "USPS", "operator:type": "public", "operator:wikidata": "Q668687", "ref": "4745200006"}, "type": "Feature"}
{"dataset_attributes": {"@spider": "usps_collection_boxes"}, "geometry": {"coordinates": [-86.468388357, 38.557377], "type": "Point"}, "id": "xPVzbAa2uWPH5u46GvrHgX5TZdE=", "properties": {"@spider": "usps_collection_boxes", "addr:city": "PAOLI", "addr:country": "US", "addr:full": "202 N GOSPEL ST", "addr:postcode": "47454", "addr:state": "IN", "amenity": "post_box", "brand": "United States Postal Service", "brand:wikidata": "Q668687", "collection_times": "Mo-Fr 15:15; Sa 11:00", "name": "USPS COLLECTION BOX - BLUE BOX", "note": "ON 12/24 AND 12/31, THIS BOX MAY BE COLLECTED AS EARLY AS 12 NOON.", "nsi_id": "unitedstatespostalservice-a77078", "operator": "United States Postal Service", "operator:short": "USPS", "operator:type": "public", "operator:wikidata": "Q668687", "ref": "4745400001"}, "type": "Feature"}
{"dataset_attributes": {"@spider": "usps_collection_boxes"}, "geometry": {"coordinates": [-86.468388357, 38.557377], "type": "Point"}, "id": "Y_tjkcWE82tndMcPFBd_k5SACnE=", "properties": {"@spider": "usps_collection_boxes", "addr:city": "PAOLI", "addr:country": "US", "addr:full": "202 N GOSPEL ST", "addr:postcode": "47454", "addr:state": "IN", "amenity": "post_box", "brand": "United States Postal Service", "brand:wikidata": "Q668687", "collection_times": "Mo-Fr 15:15; Sa 11:00", "name": "USPS COLLECTION BOX - BLUE BOX", "note": "ON 12/24 AND 12/31, THIS BOX MAY BE COLLECTED AS EARLY AS 12 NOON.", "nsi_id": "unitedstatespostalservice-a77078", "operator": "United States Postal Service", "operator:short": "USPS", "operator:type": "public", "operator:wikidata": "Q668687", "ref": "4745400003"}, "type": "Feature"}
{"dataset_attributes": {"@spider": "usps_collection_boxes"}, "geometry": {"coordinates": [-86.4664459, 38.555998], "type": "Point"}, "id": "Nku363UE9ZewVjBimpTuVwu-FnU=", "properties": {"@spider": "usps_collection_boxes", "addr:city": "PAOLI", "addr:country": "US", "addr:full": "205 E MAIN ST", "addr:postcode": "47454", "addr:state": "IN", "amenity": "post_box", "brand": "United States Postal Service", "brand:wikidata": "Q668687", "collection_times": "Mo-Fr 15:15", "name": "USPS COLLECTION BOX - BLUE BOX", "note": "ON 12/24 AND 12/31, THIS BOX MAY BE COLLECTED AS EARLY AS 12 NOON.", "nsi_id": "unitedstatespostalservice-a77078", "operator": "United States Postal Service", "operator:short": "USPS", "operator:type": "public", "operator:wikidata": "Q668687", "ref": "4745400005"}, "type": "Feature"}
{"dataset_attributes": {"@spider": "usps_collection_boxes"}, "geometry": {"coordinates": [-86.468388357, 38.557377], "type": "Point"}, "id": "a7MMDiht-byO8bx8zPw667VPM5k=", "properties": {"@spider": "usps_collection_boxes", "addr:city": "PAOLI", "addr:country": "US", "addr:full": "202 N GOSPEL ST", "addr:postcode": "47454", "addr:state": "IN", "amenity": "post_box", "brand": "United States Postal Service", "brand:wikidata": "Q668687", "collection_times": "Mo-Fr 15:15; Sa 11:00", "name": "USPS COLLECTION BOX - PO LOBBY", "note": "ON 12/24 AND 12/31, THIS BOX MAY BE COLLECTED AS EARLY AS 12 NOON.", "nsi_id": "unitedstatespostalservice-a77078", "operator": "United States Postal Service", "operator:short": "USPS", "operator:type": "public", "operator:wikidata": "Q668687", "ref": "4745400006"}, "type": "Feature"}
{"dataset_attributes": {"@spider": "usps_collection_boxes"}, "geometry": {"coordinates": [-86.468388357, 38.557377], "type": "Point"}, "id": "fPHy-3iCBqSFtK10qBwvBJFv0Zw=", "properties": {"@spider": "usps_collection_boxes", "addr:city": "PAOLI", "addr:country": "US", "addr:full": "202 N GOSPEL ST", "addr:postcode": "47454", "addr:state": "IN", "amenity": "post_box", "brand": "United States Postal Service", "brand:wikidata": "Q668687", "collection_times": "Mo-Fr 16:15; Sa 12:00", "name": "USPS COLLECTION BOX - PO LOBBY", "note": "ON 12/24 AND 12/31, THIS BOX MAY BE COLLECTED AS EARLY AS 12 NOON.", "nsi_id": "unitedstatespostalservice-a77078", "operator": "United States Postal Service", "operator:short": "USPS", "operator:type": "public", "operator:wikidata": "Q668687", "ref": "4745400015"}, "type": "Feature"}
{"dataset_attributes": {"@spider": "usps_collection_boxes"}, "geometry": {"coordinates": [-86.953816038, 39.31100014], "type": "Point"}, "id": "vVJF6LwHuRANgna3GwHaDah2d1Q=", "properties": {"@spider": "usps_collection_boxes", "addr:city": "PATRICKSBURG", "addr:country": "US", "addr:full": "10097 STATE HIGHWAY 246", "addr:postcode": "47455", "addr:state": "IN", "amenity": "post_box", "brand": "United States Postal Service", "brand:wikidata": "Q668687", "collection_times": "Mo-Fr 15:00; Sa 10:00", "name": "USPS COLLECTION BOX - BLUE BOX", "note": "ON 12/24 AND 12/31, THIS BOX MAY BE COLLECTED AS EARLY AS 12 NOON.", "nsi_id": "unitedstatespostalservice-a77078", "operator": "United States Postal Service", "operator:short": "USPS", "operator:type": "public", "operator:wikidata": "Q668687", "ref": "4745500001"}, "type": "Feature"}
{"dataset_attributes": {"@spider": "usps_collection_boxes"}, "geometry": {"coordinates": [-86.953816038, 39.31100014], "type": "Point"}, "id": "PUmhbkKPcGC2d2_U4_HDwzHtQR8=", "properties": {"@spider": "usps_collection_boxes", "addr:city": "PATRICKSBURG", "addr:country": "US", "addr:full": "10097 STATE HIGHWAY 246", "addr:postcode": "47455", "addr:state": "IN", "amenity": "post_box", "brand": "United States Postal Service", "brand:wikidata": "Q668687", "collection_times": "Mo-Fr 15:15; Sa 09:45", "name": "USPS COLLECTION BOX - PO LOBBY", "note": "ON 12/24 AND 12/31, THIS BOX MAY BE COLLECTED AS EARLY AS 12 NOON.", "nsi_id": "unitedstatespostalservice-a77078", "operator": "United States Postal Service", "operator:short": "USPS", "operator:type": "public", "operator:wikidata": "Q668687", "ref": "4745500002"}, "type": "Feature"}
{"dataset_attributes": {"@spider": "usps_collection_boxes"}, "geometry": {"coordinates": [-86.953816038, 39.31100014], "type": "Point"}, "id": "qS2S0ihkztvGLTXGVget6mXyZRY=", "properties": {"@spider": "usps_collection_boxes", "addr:city": "PATRICKSBURG", "addr:country": "US", "addr:full": "10097 STATE HIGHWAY 246", "addr:postcode": "47455", "addr:state": "IN", "amenity": "post_box", "brand": "United States Postal Service", "brand:wikidata": "Q668687", "collection_times": "Mo-Fr 15:30; Sa 10:00", "name": "USPS COLLECTION BOX - PO LOBBY", "note": "ON 12/24 AND 12/31, THIS BOX MAY BE COLLECTED AS EARLY AS 12 NOON.", "nsi_id": "unitedstatespostalservice-a77078", "operator": "United States Postal Service", "operator:short": "USPS", "operator:type": "public", "operator:wikidata": "Q668687", "ref": "4745500003"}, "type": "Feature"}
{"dataset_attributes": {"@spider": "usps_collection_boxes"}, "geometry": {"coordinates": [-86.619105303, 38.935548], "type": "Point"}, "id": "2p5A1OZI_ov6MS2DC6PTmEWwqWc=", "properties": {"@spider": "usps_collection_boxes", "addr:city": "SPRINGVILLE", "addr:country": "US", "addr:full": "193 BRICK ST", "addr:postcode": "47462", "addr:state": "IN", "amenity": "post_box", "brand": "United States Postal Service", "brand:wikidata": "Q668687", "collection_times": "Mo-Fr 15:30; Sa 10:30", "name": "USPS COLLECTION BOX - BLUE BOX", "note": "ON 12/24 AND 12/31, THIS BOX MAY BE COLLECTED AS EARLY AS 12 NOON.", "nsi_id": "unitedstatespostalservice-a77078", "operator": "United States Postal Service", "operator:short": "USPS", "operator:type": "public", "operator:wikidata": "Q668687", "ref": "4746200001"}, "type": "Feature"}
{"dataset_attributes": {"@spider": "usps_collection_boxes"}, "geometry": {"coordinates": [-86.619105303, 38.935548], "type": "Point"}, "id": "KlMM5dnhbsslwBG7cMiCMEx18vk=", "properties": {"@spider": "usps_collection_boxes", "addr:city": "SPRINGVILLE", "addr:country": "US", "addr:full": "193 BRICK ST", "addr:postcode": "47462", "addr:state": "IN", "amenity": "post_box", "brand": "United States Postal Service", "brand:wikidata": "Q668687", "collection_times": "Mo-Fr 14:30; Sa 10:30", "name": "USPS COLLECTION BOX - PO LOBBY", "note": "ON 12/24 AND 12/31, THIS BOX MAY BE COLLECTED AS EARLY AS 12 NOON.", "nsi_id": "unitedstatespostalservice-a77078", "operator": "United States Postal Service", "operator:short": "USPS", "operator:type": "public", "operator:wikidata": "Q668687", "ref": "4746200002"}, "type": "Feature"}
{"dataset_attributes": {"@spider": "usps_collection_boxes"}, "geometry": {"coordinates": [-86.619105303, 38.935548], "type": "Point"}, "id": "u6mlWABISWmn-SchRE6A5YgB1d0=", "properties": {"@spider": "usps_collection_boxes", "addr:city": "SPRINGVILLE", "addr:country": "US", "addr:full": "193 BRICK ST", "addr:postcode": "47462", "addr:state": "IN", "amenity": "post_box", "brand": "United States Postal Service", "brand:wikidata": "Q668687", "collection_times": "Mo-Fr 14:30; Sa 10:30", "name": "USPS COLLECTION BOX - PO LOBBY", "note": "ON 12/24 AND 12/31, THIS BOX MAY BE COLLECTED AS EARLY AS 12 NOON.", "nsi_id": "unitedstatespostalservice-a77078", "operator": "United States Postal Service", "operator:short": "USPS", "operator:type": "public", "operator:wikidata": "Q668687", "ref": "4746200003"}, "type": "Feature"}
{"dataset_attributes": {"@spider": "usps_collection_boxes"}, "geometry": {"coordinates": [-87.053387, 39.034191], "type": "Point"}, "id": "AE1lyxBWUgMKQvGKn9eXuxg7yvo=", "properties": {"@spider": "usps_collection_boxes", "addr:city": "SWITZ CITY", "addr:country": "US", "addr:full": "240 CHARLOTTE AVE", "addr:postcode": "47465", "addr:state": "IN", "amenity": "post_box", "brand": "United States Postal Service", "brand:wikidata": "Q668687", "collection_times": "Mo-Fr 16:00; Sa 10:15", "name": "USPS COLLECTION BOX - BLUE BOX", "note": "ON 12/24 AND 12/31, THIS BOX MAY BE COLLECTED AS EARLY AS 12 NOON.", "nsi_id": "unitedstatespostalservice-a77078", "operator": "United States Postal Service", "operator:short": "USPS", "operator:type": "public", "operator:wikidata": "Q668687", "ref": "4746500002"}, "type": "Feature"}
{"dataset_attributes": {"@spider": "usps_collection_boxes"}, "geometry": {"coordinates": [-87.053387, 39.034191], "type": "Point"}, "id": "Fbq-ddK8xT7ej_UEW9mpUoIZubs=", "properties": {"@spider": "usps_collection_boxes", "addr:city": "SWITZ CITY", "addr:country": "US", "addr:full": "240 CHARLOTTE AVE", "addr:postcode": "47465", "addr:state": "IN", "amenity": "post_box", "brand": "United States Postal Service", "brand:wikidata": "Q668687", "collection_times": "Mo-Fr 11:15; Sa 10:15", "name": "USPS COLLECTION BOX - PO LOBBY", "nsi_id": "unitedstatespostalservice-a77078", "operator": "United States Postal Service", "operator:short": "USPS", "operator:type": "public", "operator:wikidata": "Q668687", "ref": "4746500004"}, "type": "Feature"}
{"dataset_attributes": {"@spider": "usps_collection_boxes"}, "geometry": {"coordinates": [-87.053387861, 39.034098587], "type": "Point"}, "id": "ajuOTRTxE3YSl0Ezk29_hHI_1kY=", "properties": {"@spider": "usps_collection_boxes", "addr:city": "SWITZ CITY", "addr:country": "US", "addr:full": "230 CHARLOTTE AVE", "addr:postcode": "47465", "addr:state": "IN", "amenity": "post_box", "brand": "United States Postal Service", "brand:wikidata": "Q668687", "collection_times": "Mo-Fr 11:30; Sa 10:00", "name": "USPS COLLECTION BOX - PO LOBBY", "nsi_id": "unitedstatespostalservice-a77078", "operator": "United States Postal Service", "operator:short": "USPS", "operator:type": "public", "operator:wikidata": "Q668687", "ref": "4746500005"}, "type": "Feature"}
{"dataset_attributes": {"@spider": "usps_collection_boxes"}, "geometry": {"coordinates": [-86.343925697, 38.767365671], "type": "Point"}, "id": "9khwWysWECD-8Z0P_gzeN5NxTuY=", "properties": {"@spider": "usps_collection_boxes", "addr:city": "TUNNELTON", "addr:country": "US", "addr:full": "45 SENECA ST", "addr:postcode": "47467", "addr:state": "IN", "amenity": "post_box", "brand": "United States Postal Service", "brand:wikidata": "Q668687", "collection_times": "Mo-Sa 12:30", "name": "USPS COLLECTION BOX - PO LOBBY", "note": "ON 12/24 AND 12/31, THIS BOX MAY BE COLLECTED AS EARLY AS 12 NOON.", "nsi_id": "unitedstatespostalservice-a77078", "operator": "United States Postal Service", "operator:short": "USPS", "operator:type": "public", "operator:wikidata": "Q668687", "ref": "4746700001"}, "type": "Feature"}
{"dataset_attributes": {"@spider": "usps_collection_boxes"}, "geometry": {"coordinates": [-86.343925697, 38.767365671], "type": "Point"}, "id": "KTH6Zax2PFN3XQLMmgsAphboWPw=", "properties": {"@spider": "usps_collection_boxes", "addr:city": "TUNNELTON", "addr:country": "US", "addr:full": "45 SENECA ST", "addr:postcode": "47467", "addr:state": "IN", "amenity": "post_box", "brand": "United States Postal Service", "brand:wikidata": "Q668687", "collection_times": "Mo-Sa 12:30", "name": "USPS COLLECTION BOX - BLUE BOX", "note": "ON 12/24 AND 12/31, THIS BOX MAY BE COLLECTED AS EARLY AS 12 NOON.", "nsi_id": "unitedstatespostalservice-a77078", "operator": "United States Postal Service", "operator:short": "USPS", "operator:type": "public", "operator:wikidata": "Q668687", "ref": "4746700002"}, "type": "Feature"}
{"dataset_attributes": {"@spider": "usps_collection_boxes"}, "geometry": {"coordinates": [-86.343925697, 38.767365671], "type": "Point"}, "id": "3X2Xg6aYBu2dhmZrVjKVEBlklZE=", "properties": {"@spider": "usps_collection_boxes", "addr:city": "TUNNELTON", "addr:country": "US", "addr:full": "45 SENECA ST", "addr:postcode": "47467", "addr:state": "IN", "amenity": "post_box", "brand": "United States Postal Service", "brand:wikidata": "Q668687", "collection_times": "Mo-Sa 12:30", "name": "USPS COLLECTION BOX - PO LOBBY", "note": "ON 12/24 AND 12/31, THIS BOX MAY BE COLLECTED AS EARLY AS 12 NOON.", "nsi_id": "unitedstatespostalservice-a77078", "operator": "United States Postal Service", "operator:short": "USPS", "operator:type": "public", "operator:wikidata": "Q668687", "ref": "4746700003"}, "type": "Feature"}
{"dataset_attributes": {"@spider": "usps_collection_boxes"}, "geometry": {"coordinates": [-86.613797831, 38.565576], "type": "Point"}, "id": "wQsu_f4OwmKqx_UuS7FH4tS2vnk=", "properties": {"@spider": "usps_collection_boxes", "addr:city": "W BADEN SPRGS", "addr:country": "US", "addr:full": "8182 W STATE ROAD 56", "addr:postcode": "47469", "addr:state": "IN", "amenity": "post_box", "brand": "United States Postal Service", "brand:wikidata": "Q668687", "collection_times": "Mo-Fr 16:00; Sa 11:00", "name": "USPS COLLECTION BOX - BLUE BOX", "note": "ON 12/24 AND 12/31, THIS BOX MAY BE COLLECTED AS EARLY AS 12 NOON.", "nsi_id": "unitedstatespostalservice-a77078", "operator": "United States Postal Service", "operator:short": "USPS", "operator:type": "public", "operator:wikidata": "Q668687", "ref": "4746900000"}, "type": "Feature"}
{"dataset_attributes": {"@spider": "usps_collection_boxes"}, "geometry": {"coordinates": [-86.613797831, 38.565576], "type": "Point"}, "id": "hbd0ML7yJsDvavCoySU-ajiaMCc=", "properties": {"@spider": "usps_collection_boxes", "addr:city": "W BADEN SPRGS", "addr:country": "US", "addr:full": "8182 W STATE ROAD 56", "addr:postcode": "47469", "addr:state": "IN", "amenity": "post_box", "brand": "United States Postal Service", "brand:wikidata": "Q668687", "collection_times": "Mo-Fr 16:00; Sa 11:00", "name": "USPS COLLECTION BOX - PO LOBBY", "note": "ON 12/24 AND 12/31, THIS BOX MAY BE COLLECTED AS EARLY AS 12 NOON.", "nsi_id": "unitedstatespostalservice-a77078", "operator": "United States Postal Service", "operator:short": "USPS", "operator:type": "public", "operator:wikidata": "Q668687", "ref": "4746900001"}, "type": "Feature"}
{"dataset_attributes": {"@spider": "usps_collection_boxes"}, "geometry": {"coordinates": [-86.613797831, 38.565576], "type": "Point"}, "id": "kANiHRsQT90bwe6ibh8_nDe4qmA=", "properties": {"@spider": "usps_collection_boxes", "addr:city": "W BADEN SPRGS", "addr:country": "US", "addr:full": "8182 W STATE ROAD 56", "addr:postcode": "47469", "addr:state": "IN", "amenity": "post_box", "brand": "United States Postal Service", "brand:wikidata": "Q668687", "collection_times": "Mo-Fr 16:15; Sa 11:00", "name": "USPS COLLECTION BOX - PO LOBBY", "note": "ON 12/24 AND 12/31, THIS BOX MAY BE COLLECTED AS EARLY AS 12 NOON.", "nsi_id": "unitedstatespostalservice-a77078", "operator": "United States Postal Service", "operator:short": "USPS", "operator:type": "public", "operator:wikidata": "Q668687", "ref": "4746900003"}, "type": "Feature"}
{"dataset_attributes": {"@spider": "usps_collection_boxes"}, "geometry": {"coordinates": [-86.647278785, 38.804255696], "type": "Point"}, "id": "jI11RVimTrPGwyPZMUr56IAVOzY=", "properties": {"@spider": "usps_collection_boxes", "addr:city": "WILLIAMS", "addr:country": "US", "addr:full": "61 KERN ST", "addr:postcode": "47470", "addr:state": "IN", "amenity": "post_box", "brand": "United States Postal Service", "brand:wikidata": "Q668687", "collection_times": "Mo-Sa 15:30", "name": "USPS COLLECTION BOX - BLUE BOX", "note": "ON 12/24 AND 12/31, THIS BOX MAY BE COLLECTED AS EARLY AS 12 NOON.", "nsi_id": "unitedstatespostalservice-a77078", "operator": "United States Postal Service", "operator:short": "USPS", "operator:type": "public", "operator:wikidata": "Q668687", "ref": "4747000001"}, "type": "Feature"}
{"dataset_attributes": {"@spider": "usps_collection_boxes"}, "geometry": {"coordinates": [-86.647278785, 38.804255696], "type": "Point"}, "id": "8uG4Ocs8SgdnnAKWT-TvGkPr-eo=", "properties": {"@spider": "usps_collection_boxes", "addr:city": "WILLIAMS", "addr:country": "US", "addr:full": "61 KERN ST", "addr:postcode": "47470", "addr:state": "IN", "amenity": "post_box", "brand": "United States Postal Service", "brand:wikidata": "Q668687", "collection_times": "Mo-Fr 11:15; Sa 10:15", "name": "USPS COLLECTION BOX - PO LOBBY", "nsi_id": "unitedstatespostalservice-a77078", "operator": "United States Postal Service", "operator:short": "USPS", "operator:type": "public", "operator:wikidata": "Q668687", "ref": "4747000002"}, "type": "Feature"}
{"dataset_attributes": {"@spider": "usps_collection_boxes"}, "geometry": {"coordinates": [-86.647278785, 38.804255696], "type": "Point"}, "id": "ubrz4rI7tHhHsx9XK4vNvS4EL4w=", "properties": {"@spider": "usps_collection_boxes", "addr:city": "WILLIAMS", "addr:country": "US", "addr:full": "61 KERN ST", "addr:postcode": "47470", "addr:state": "IN", "amenity": "post_box", "brand": "United States Postal Service", "brand:wikidata": "Q668687", "collection_times": "Mo-Fr 11:30; Sa 10:30", "name": "USPS COLLECTION BOX - PO LOBBY", "nsi_id": "unitedstatespostalservice-a77078", "operator": "United States Postal Service", "operator:short": "USPS", "operator:type": "public", "operator:wikidata": "Q668687", "ref": "4747000003"}, "type": "Feature"}
{"dataset_attributes": {"@spider": "usps_collection_boxes"}, "geometry": {"coordinates": [-86.977771252, 39.116852906], "type": "Point"}, "id": "NQMQurm0KDGkgHGnSQ70gPjnCgo=", "properties": {"@spider": "usps_collection_boxes", "addr:city": "WORTHINGTON", "addr:country": "US", "addr:full": "205 S COMMERCIAL ST", "addr:postcode": "47471", "addr:state": "IN", "amenity": "post_box", "brand": "United States Postal Service", "brand:wikidata": "Q668687", "collection_times": "Mo-Fr 16:00; Sa 11:00", "name": "USPS COLLECTION BOX - BLUE BOX", "note": "ON 12/24 AND 12/31, THIS BOX MAY BE COLLECTED AS EARLY AS 12 NOON.", "nsi_id": "unitedstatespostalservice-a77078", "operator": "United States Postal Service", "operator:short": "USPS", "operator:type": "public", "operator:wikidata": "Q668687", "ref": "4747100004"}, "type": "Feature"}
{"dataset_attributes": {"@spider": "usps_collection_boxes"}, "geometry": {"coordinates": [-86.9744107, 39.12229], "type": "Point"}, "id": "g07V55heTAKcKVR_e9BOxTGHgME=", "properties": {"@spider": "usps_collection_boxes", "addr:city": "WORTHINGTON", "addr:country": "US", "addr:full": "319 CANAL ST", "addr:postcode": "47471", "addr:state": "IN", "amenity": "post_box", "brand": "United States Postal Service", "brand:wikidata": "Q668687", "collection_times": "Mo-Fr 15:30; Sa 11:00", "name": "USPS COLLECTION BOX - BLUE BOX", "note": "ON 12/24 AND 12/31, THIS BOX MAY BE COLLECTED AS EARLY AS 12 NOON.", "nsi_id": "unitedstatespostalservice-a77078", "operator": "United States Postal Service", "operator:short": "USPS", "operator:type": "public", "operator:wikidata": "Q668687", "ref": "4747100005"}, "type": "Feature"}
{"dataset_attributes": {"@spider": "usps_collection_boxes"}, "geometry": {"coordinates": [-86.9732178, 39.115306], "type": "Point"}, "id": "Ecq8aZowaRhA-XNtgjjIIMoBzzw=", "properties": {"@spider": "usps_collection_boxes", "addr:city": "WORTHINGTON", "addr:country": "US", "addr:full": "240 WEST ST", "addr:postcode": "47471", "addr:state": "IN", "amenity": "post_box", "brand": "United States Postal Service", "brand:wikidata": "Q668687", "collection_times": "Mo-Sa 10:00", "name": "USPS COLLECTION BOX - BLUE BOX", "nsi_id": "unitedstatespostalservice-a77078", "operator": "United States Postal Service", "operator:short": "USPS", "operator:type": "public", "operator:wikidata": "Q668687", "ref": "4747100006"}, "type": "Feature"}
{"dataset_attributes": {"@spider": "usps_collection_boxes"}, "geometry": {"coordinates": [-86.9754184, 39.119298], "type": "Point"}, "id": "BE_A6XnzqpT2fEsaMhDgauBkgnQ=", "properties": {"@spider": "usps_collection_boxes", "addr:city": "WORTHINGTON", "addr:country": "US", "addr:full": "9 N COMMERICAL ST", "addr:postcode": "47471", "addr:state": "IN", "amenity": "post_box", "brand": "United States Postal Service", "brand:wikidata": "Q668687", "collection_times": "Mo-Fr 15:30; Sa 11:00", "name": "USPS COLLECTION BOX - BLUE BOX", "note": "ON 12/24 AND 12/31, THIS BOX MAY BE COLLECTED AS EARLY AS 12 NOON.", "nsi_id": "unitedstatespostalservice-a77078", "operator": "United States Postal Service", "operator:short": "USPS", "operator:type": "public", "operator:wikidata": "Q668687", "ref": "4747100008"}, "type": "Feature"}
{"dataset_attributes": {"@spider": "usps_collection_boxes"}, "geometry": {"coordinates": [-86.977771252, 39.116852906], "type": "Point"}, "id": "nfbHHsVlOmjFokSBL8dJ1Ph0lDs=", "properties": {"@spider": "usps_collection_boxes", "addr:city": "WORTHINGTON", "addr:country": "US", "addr:full": "205 S COMMERCIAL ST", "addr:postcode": "47471", "addr:state": "IN", "amenity": "post_box", "brand": "United States Postal Service", "brand:wikidata": "Q668687", "collection_times": "Mo-Fr 16:00; Sa 10:30", "name": "USPS COLLECTION BOX - PO LOBBY", "note": "ON 12/24 AND 12/31, THIS BOX MAY BE COLLECTED AS EARLY AS 12 NOON.", "nsi_id": "unitedstatespostalservice-a77078", "operator": "United States Postal Service", "operator:short": "USPS", "operator:type": "public", "operator:wikidata": "Q668687", "ref": "4747100009"}, "type": "Feature"}
{"dataset_attributes": {"@spider": "usps_collection_boxes"}, "geometry": {"coordinates": [-86.977771252, 39.116852906], "type": "Point"}, "id": "xuTEO1ed--Ogedwh5Wy9uCrX1bI=", "properties": {"@spider": "usps_collection_boxes", "addr:city": "WORTHINGTON", "addr:country": "US", "addr:full": "205 S COMMERCIAL ST", "addr:postcode": "47471", "addr:state": "IN", "amenity": "post_box", "brand": "United States Postal Service", "brand:wikidata": "Q668687", "collection_times": "Mo-Fr 15:30; Sa 10:00", "name": "USPS COLLECTION BOX - PO LOBBY", "note": "ON 12/24 AND 12/31, THIS BOX MAY BE COLLECTED AS EARLY AS 12 NOON.", "nsi_id": "unitedstatespostalservice-a77078", "operator": "United States Postal Service", "operator:short": "USPS", "operator:type": "public", "operator:wikidata": "Q668687", "ref": "4747100010"}, "type": "Feature"}
