{"geometry": {"coordinates": [-87.1722844, 38.656937], "type": "Point"}, "id": "mvEcFVnGazHWb7AD49b8t-Hu3MA=", "properties": {"@spider": "usps_collection_boxes", "addr:city": "WASHINGTON", "addr:country": "US", "addr:full": "300 E MAIN ST", "addr:postcode": "47501", "addr:state": "IN", "brand": "USPS", "collection_times": "Mo-Fr 10:00; Sa 09:45", "name": "USPS COLLECTION BOX - BLUE BOX", "ref": "4750100003"}, "type": "Feature"}
{"geometry": {"coordinates": [-87.170647, 38.656203], "type": "Point"}, "id": "p-tWuTVzRfVpuH-5B5dBzU2hFp4=", "properties": {"@spider": "usps_collection_boxes", "addr:city": "WASHINGTON", "addr:country": "US", "addr:full": "408 E SOUTH ST", "addr:postcode": "47501", "addr:state": "IN", "brand": "USPS", "collection_times": "Mo-Fr 13:30; Sa 12:00", "name": "USPS COLLECTION BOX - BLUE BOX", "note": "ON 12/24 AND 12/31, THIS BOX MAY BE COLLECTED AS EARLY AS 12 NOON.", "ref": "4750100007"}, "type": "Feature"}
{"geometry": {"coordinates": [-87.1865072, 38.652832], "type": "Point"}, "id": "2cjmBIbyazuBbtviqWE7ad4IBl4=", "properties": {"@spider": "usps_collection_boxes", "addr:city": "WASHINGTON", "addr:country": "US", "addr:full": "900 W NATIONAL HWY", "addr:postcode": "47501", "addr:state": "IN", "brand": "USPS", "collection_times": "Mo-Sa 08:30", "name": "USPS COLLECTION BOX - BLUE BOX", "ref": "4750100009"}, "type": "Feature"}
{"geometry": {"coordinates": [-87.1724306, 38.658735], "type": "Point"}, "id": "cLidWGXHxSWM3rrjJfoAqd5CEgE=", "properties": {"@spider": "usps_collection_boxes", "addr:city": "WASHINGTON", "addr:country": "US", "addr:full": "200 E WALNUT ST", "addr:postcode": "47501", "addr:state": "IN", "brand": "USPS", "collection_times": "Mo-Fr 13:30; Sa 12:00", "name": "USPS COLLECTION BOX - BLUE BOX", "note": "ON 12/24 AND 12/31, THIS BOX MAY BE COLLECTED AS EARLY AS 12 NOON.", "ref": "4750100017"}, "type": "Feature"}
{"geometry": {"coordinates": [-87.169931141, 38.654025499], "type": "Point"}, "id": "Mt_esm1A4ylHJIDKYMqoUz8XJKA=", "properties": {"@spider": "usps_collection_boxes", "addr:city": "WASHINGTON", "addr:country": "US", "addr:full": "405 CENTER ST", "addr:postcode": "47501", "addr:state": "IN", "brand": "USPS", "collection_times": "Mo-Fr 17:00; Sa 15:00", "name": "USPS COLLECTION BOX - PO LOBBY", "note": "ON 12/24 AND 12/31, THIS BOX MAY BE COLLECTED AS EARLY AS 12 NOON.", "ref": "4750100022"}, "type": "Feature"}
{"geometry": {"coordinates": [-87.169931141, 38.654025499], "type": "Point"}, "id": "KTXWJLrKUbXBPpYXCokQb1v2HKI=", "properties": {"@spider": "usps_collection_boxes", "addr:city": "WASHINGTON", "addr:country": "US", "addr:full": "405 CENTER ST", "addr:postcode": "47501", "addr:state": "IN", "brand": "USPS", "collection_times": "Mo-Fr 17:00; Sa 15:00", "name": "USPS COLLECTION BOX - BLUE BOX", "note": "ON 12/24 AND 12/31, THIS BOX MAY BE COLLECTED AS EARLY AS 12 NOON.", "ref": "4750100024"}, "type": "Feature"}
{"geometry": {"coordinates": [-87.169931141, 38.654025499], "type": "Point"}, "id": "VZDwb3SDliAx7GQT3URcY-JnbHY=", "properties": {"@spider": "usps_collection_boxes", "addr:city": "WASHINGTON", "addr:country": "US", "addr:full": "405 CENTER ST", "addr:postcode": "47501", "addr:state": "IN", "brand": "USPS", "collection_times": "Mo-Fr 17:00; Sa 12:00", "name": "USPS COLLECTION BOX - PO LOBBY", "note": "ON 12/24 AND 12/31, THIS BOX MAY BE COLLECTED AS EARLY AS 12 NOON.", "ref": "4750100026"}, "type": "Feature"}
{"geometry": {"coordinates": [-87.307187678, 38.774463379], "type": "Point"}, "id": "zgrRPN0K-WwkjX1e4_6aw1zxHfc=", "properties": {"@spider": "usps_collection_boxes", "addr:city": "BICKNELL", "addr:country": "US", "addr:full": "117 E 3RD ST", "addr:postcode": "47512", "addr:state": "IN", "brand": "USPS", "collection_times": "Mo-Fr 15:30; Sa 11:45", "name": "USPS COLLECTION BOX - BLUE BOX", "note": "ON 12/24 AND 12/31, THIS BOX MAY BE COLLECTED AS EARLY AS 12 NOON.", "ref": "4751200000"}, "type": "Feature"}
{"geometry": {"coordinates": [-87.307187678, 38.774463379], "type": "Point"}, "id": "u_PIZzlOsPyBaVGHJxWaG3bnUXA=", "properties": {"@spider": "usps_collection_boxes", "addr:city": "BICKNELL", "addr:country": "US", "addr:full": "117 E 3RD ST", "addr:postcode": "47512", "addr:state": "IN", "brand": "USPS", "collection_times": "Mo-Fr 15:30; Sa 11:45", "name": "USPS COLLECTION BOX - PO LOBBY", "note": "ON 12/24 AND 12/31, THIS BOX MAY BE COLLECTED AS EARLY AS 12 NOON.", "ref": "4751200023"}, "type": "Feature"}
{"geometry": {"coordinates": [-87.307187678, 38.774463379], "type": "Point"}, "id": "talJuiL3-rqRYJeci5Wu9aG87gU=", "properties": {"@spider": "usps_collection_boxes", "addr:city": "BICKNELL", "addr:country": "US", "addr:full": "117 E 3RD ST", "addr:postcode": "47512", "addr:state": "IN", "brand": "USPS", "collection_times": "Mo-Fr 16:00; Sa 11:30", "name": "USPS COLLECTION BOX - PO LOBBY", "note": "ON 12/24 AND 12/31, THIS BOX MAY BE COLLECTED AS EARLY AS 12 NOON.", "ref": "4751200024"}, "type": "Feature"}
{"geometry": {"coordinates": [-86.694605017, 38.314791534], "type": "Point"}, "id": "2nynlkdO7fuvX0pEUtWbVcrgbW8=", "properties": {"@spider": "usps_collection_boxes", "addr:city": "BIRDSEYE", "addr:country": "US", "addr:full": "201 S STATE ROAD 145", "addr:postcode": "47513", "addr:state": "IN", "brand": "USPS", "collection_times": "Mo-Fr 15:30; Sa 10:00", "name": "USPS COLLECTION BOX - BLUE BOX", "note": "ON 12/24 AND 12/31, THIS BOX MAY BE COLLECTED AS EARLY AS 12 NOON.", "ref": "4751300000"}, "type": "Feature"}
{"geometry": {"coordinates": [-86.694605017, 38.314791534], "type": "Point"}, "id": "HrUEtAgFaH35Ij2ujAIsRYvFNIg=", "properties": {"@spider": "usps_collection_boxes", "addr:city": "BIRDSEYE", "addr:country": "US", "addr:full": "201 S STATE ROAD 145", "addr:postcode": "47513", "addr:state": "IN", "brand": "USPS", "collection_times": "Mo-Fr 11:45; Sa 09:45", "name": "USPS COLLECTION BOX - PO LOBBY", "ref": "4751300001"}, "type": "Feature"}
{"geometry": {"coordinates": [-86.694605017, 38.314791534], "type": "Point"}, "id": "hRF3BbiMq2Sh2_earok1PNcTKug=", "properties": {"@spider": "usps_collection_boxes", "addr:city": "BIRDSEYE", "addr:country": "US", "addr:full": "201 S STATE ROAD 145", "addr:postcode": "47513", "addr:state": "IN", "brand": "USPS", "collection_times": "Mo-Fr 15:00; Sa 10:00", "name": "USPS COLLECTION BOX - PO LOBBY", "note": "ON 12/24 AND 12/31, THIS BOX MAY BE COLLECTED AS EARLY AS 12 NOON.", "ref": "4751300003"}, "type": "Feature"}
{"geometry": {"coordinates": [-87.415688519, 38.759600086], "type": "Point"}, "id": "YJvf7q7OyJn26JIwNpHXR7LvlOg=", "properties": {"@spider": "usps_collection_boxes", "addr:city": "BRUCEVILLE", "addr:country": "US", "addr:full": "501 W MAIN ST", "addr:postcode": "47516", "addr:state": "IN", "brand": "USPS", "collection_times": "Mo-Fr 16:15; Sa 10:00", "name": "USPS COLLECTION BOX - BLUE BOX", "note": "ON 12/24 AND 12/31, THIS BOX MAY BE COLLECTED AS EARLY AS 12 NOON.", "ref": "4751600001"}, "type": "Feature"}
{"geometry": {"coordinates": [-87.415688519, 38.759600086], "type": "Point"}, "id": "xSCEWYuwGrL3ePAL3NlRSA4loTs=", "properties": {"@spider": "usps_collection_boxes", "addr:city": "BRUCEVILLE", "addr:country": "US", "addr:full": "501 W MAIN ST", "addr:postcode": "47516", "addr:state": "IN", "brand": "USPS", "collection_times": "Mo-Fr 11:15; Sa 10:00", "name": "USPS COLLECTION BOX - PO LOBBY", "ref": "4751600002"}, "type": "Feature"}
{"geometry": {"coordinates": [-87.415688519, 38.759600086], "type": "Point"}, "id": "Lb9U-9wtK1V7SwPf965xfyvYFJU=", "properties": {"@spider": "usps_collection_boxes", "addr:city": "BRUCEVILLE", "addr:country": "US", "addr:full": "501 W MAIN ST", "addr:postcode": "47516", "addr:state": "IN", "brand": "USPS", "collection_times": "Mo-Fr 12:00; Sa 11:00", "name": "USPS COLLECTION BOX - PO LOBBY", "ref": "4751600003"}, "type": "Feature"}
{"geometry": {"coordinates": [-86.779285, 38.375061], "type": "Point"}, "id": "T5TWKxvLgTMQQ5FU4sluDF5dTt4=", "properties": {"@spider": "usps_collection_boxes", "addr:city": "CELESTINE", "addr:country": "US", "addr:full": "365 N CELESTINE RD S", "addr:postcode": "47521", "addr:state": "IN", "brand": "USPS", "collection_times": "Mo-Fr 16:00; Sa 11:15", "name": "USPS COLLECTION BOX - BLUE BOX", "note": "ON 12/24 AND 12/31, THIS BOX MAY BE COLLECTED AS EARLY AS 12 NOON.", "ref": "4752100000"}, "type": "Feature"}
{"geometry": {"coordinates": [-86.77921503, 38.384316], "type": "Point"}, "id": "tqLY5sQj35b7-DQlEhDjV91KdlE=", "properties": {"@spider": "usps_collection_boxes", "addr:city": "CELESTINE", "addr:country": "US", "addr:full": "365 N CELESTINE RD S", "addr:postcode": "47521", "addr:state": "IN", "brand": "USPS", "collection_times": "Mo-Fr 11:45; Sa 10:45", "name": "USPS COLLECTION BOX - PO LOBBY", "ref": "4752100001"}, "type": "Feature"}
{"geometry": {"coordinates": [-86.7792150297, 38.384316], "type": "Point"}, "id": "JdDo28a2KWpJtBD2erjIC4HEa_c=", "properties": {"@spider": "usps_collection_boxes", "addr:city": "CELESTINE", "addr:country": "US", "addr:full": "365 N CELESTINE RD S", "addr:postcode": "47521", "addr:state": "IN", "brand": "USPS", "collection_times": "Mo-Fr 12:00; Sa 11:00", "name": "USPS COLLECTION BOX - PO LOBBY", "ref": "4752100002"}, "type": "Feature"}
{"geometry": {"coordinates": [-86.90234623, 38.891763283], "type": "Point"}, "id": "K7YB5iEd0E9YhqIYSKyaJh2mT10=", "properties": {"@spider": "usps_collection_boxes", "addr:city": "CRANE", "addr:country": "US", "addr:full": "100 BLANDY ST", "addr:postcode": "47522", "addr:state": "IN", "brand": "USPS", "collection_times": "Mo-Fr 15:00; Sa 11:00", "name": "USPS COLLECTION BOX - BLUE BOX", "note": "ON 12/24 AND 12/31, THIS BOX MAY BE COLLECTED AS EARLY AS 12 NOON.", "ref": "4752200001"}, "type": "Feature"}
{"geometry": {"coordinates": [-86.90234623, 38.891763283], "type": "Point"}, "id": "ovvo3IWdEgx8C2lL8bLdncig104=", "properties": {"@spider": "usps_collection_boxes", "addr:city": "CRANE", "addr:country": "US", "addr:full": "100 BLANDY ST", "addr:postcode": "47522", "addr:state": "IN", "brand": "USPS", "collection_times": "Mo-Fr 15:30; Sa 11:15", "name": "USPS COLLECTION BOX - PO LOBBY", "note": "ON 12/24 AND 12/31, THIS BOX MAY BE COLLECTED AS EARLY AS 12 NOON.", "ref": "4752200004"}, "type": "Feature"}
{"geometry": {"coordinates": [-86.831346459, 38.890591411], "type": "Point"}, "id": "Q6Uj-Mv8Ahzif476sucEoxQ3GSo=", "properties": {"@spider": "usps_collection_boxes", "addr:city": "CRANE", "addr:country": "US", "addr:full": "300 HIGHWAY 361", "addr:postcode": "47522", "addr:state": "IN", "brand": "USPS", "collection_times": "Mo-Fr 15:30", "name": "USPS COLLECTION BOX - PO LOBBY", "note": "ON 12/24 AND 12/31, THIS BOX MAY BE COLLECTED AS EARLY AS 12 NOON.", "ref": "4752200005"}, "type": "Feature"}
{"geometry": {"coordinates": [-86.90234623, 38.891763283], "type": "Point"}, "id": "X-zkTUvrWsfwKUdbJfb0z-Z9Q4w=", "properties": {"@spider": "usps_collection_boxes", "addr:city": "CRANE", "addr:country": "US", "addr:full": "100 BLANDY ST", "addr:postcode": "47522", "addr:state": "IN", "brand": "USPS", "collection_times": "Mo-Fr 16:00; Sa 11:00", "name": "USPS COLLECTION BOX - PO LOBBY", "note": "ON 12/24 AND 12/31, THIS BOX MAY BE COLLECTED AS EARLY AS 12 NOON.", "ref": "4752200006"}, "type": "Feature"}
{"geometry": {"coordinates": [-86.831346459, 38.890591411], "type": "Point"}, "id": "bb2Si5mtG_vM_SrP3nRDr3JOo0g=", "properties": {"@spider": "usps_collection_boxes", "addr:city": "CRANE", "addr:country": "US", "addr:full": "300 HIGHWAY 361", "addr:postcode": "47522", "addr:state": "IN", "brand": "USPS", "collection_times": "Mo-Fr 15:30", "name": "USPS COLLECTION BOX - PO LOBBY", "note": "ON 12/24 AND 12/31, THIS BOX MAY BE COLLECTED AS EARLY AS 12 NOON.", "ref": "4752200007"}, "type": "Feature"}
{"geometry": {"coordinates": [-86.988474, 38.169040507], "type": "Point"}, "id": "JnGVGxMuK8ZJtvUgstn80LVN0Gc=", "properties": {"@spider": "usps_collection_boxes", "addr:city": "DALE", "addr:country": "US", "addr:full": "4 E MEDCALF ST", "addr:postcode": "47523", "addr:state": "IN", "brand": "USPS", "collection_times": "Mo-Fr 14:30; Sa 11:30", "name": "USPS COLLECTION BOX - BLUE BOX", "note": "ON 12/24 AND 12/31, THIS BOX MAY BE COLLECTED AS EARLY AS 12 NOON.", "ref": "4752300001"}, "type": "Feature"}
{"geometry": {"coordinates": [-86.988474, 38.169040507], "type": "Point"}, "id": "WPGQK6BPaDrnR5Leld-vnVa2HrA=", "properties": {"@spider": "usps_collection_boxes", "addr:city": "DALE", "addr:country": "US", "addr:full": "4 E MEDCALF ST", "addr:postcode": "47523", "addr:state": "IN", "brand": "USPS", "collection_times": "Mo-Fr 14:30; Sa 11:30", "name": "USPS COLLECTION BOX - PO LOBBY", "note": "ON 12/24 AND 12/31, THIS BOX MAY BE COLLECTED AS EARLY AS 12 NOON.", "ref": "4752300003"}, "type": "Feature"}
{"geometry": {"coordinates": [-86.988474, 38.169040507], "type": "Point"}, "id": "NaaUpLZdTi5E9-WunhsY_GOZxOo=", "properties": {"@spider": "usps_collection_boxes", "addr:city": "DALE", "addr:country": "US", "addr:full": "4 E MEDCALF ST", "addr:postcode": "47523", "addr:state": "IN", "brand": "USPS", "collection_times": "Mo-Fr 14:30; Sa 11:30", "name": "USPS COLLECTION BOX - PO LOBBY", "note": "ON 12/24 AND 12/31, THIS BOX MAY BE COLLECTED AS EARLY AS 12 NOON.", "ref": "4752300004"}, "type": "Feature"}
{"geometry": {"coordinates": [-86.988474, 38.169040507], "type": "Point"}, "id": "reFTTOq4SlnfMNidob6Pg9XjpYQ=", "properties": {"@spider": "usps_collection_boxes", "addr:city": "DALE", "addr:country": "US", "addr:full": "4 E MEDCALF ST", "addr:postcode": "47523", "addr:state": "IN", "brand": "USPS", "collection_times": "Mo-Fr 14:30; Sa 11:00", "name": "USPS COLLECTION BOX - PO LOBBY", "note": "ON 12/24 AND 12/31, THIS BOX MAY BE COLLECTED AS EARLY AS 12 NOON.", "ref": "4752300005"}, "type": "Feature"}
{"geometry": {"coordinates": [-87.524399084, 38.51945078], "type": "Point"}, "id": "BI7q0tBZ0s0_Pt8-eZ-ZPKoGE1A=", "properties": {"@spider": "usps_collection_boxes", "addr:city": "DECKER", "addr:country": "US", "addr:full": "107 N 3RD ST", "addr:postcode": "47524", "addr:state": "IN", "brand": "USPS", "collection_times": "Mo-Fr 15:30; Sa 11:00", "name": "USPS COLLECTION BOX - BLUE BOX", "note": "ON 12/24 AND 12/31, THIS BOX MAY BE COLLECTED AS EARLY AS 12 NOON.", "ref": "4752400001"}, "type": "Feature"}
{"geometry": {"coordinates": [-87.524399084, 38.51945078], "type": "Point"}, "id": "4iiMQyNlPinym7RdCkEFF1zlfL0=", "properties": {"@spider": "usps_collection_boxes", "addr:city": "DECKER", "addr:country": "US", "addr:full": "107 N 3RD ST", "addr:postcode": "47524", "addr:state": "IN", "brand": "USPS", "collection_times": "Mo-Fr 12:15; Sa 11:00", "name": "USPS COLLECTION BOX - PO LOBBY", "note": "ON 12/24 AND 12/31, THIS BOX MAY BE COLLECTED AS EARLY AS 12 NOON.", "ref": "4752400002"}, "type": "Feature"}
{"geometry": {"coordinates": [-87.524399084, 38.51945078], "type": "Point"}, "id": "bGy5Xe4z-fVFHsuwqhm6A5MgyHo=", "properties": {"@spider": "usps_collection_boxes", "addr:city": "DECKER", "addr:country": "US", "addr:full": "107 N 3RD ST", "addr:postcode": "47524", "addr:state": "IN", "brand": "USPS", "collection_times": "Mo-Fr 12:30; Sa 11:00", "name": "USPS COLLECTION BOX - PO LOBBY", "note": "ON 12/24 AND 12/31, THIS BOX MAY BE COLLECTED AS EARLY AS 12 NOON.", "ref": "4752400003"}, "type": "Feature"}
{"geometry": {"coordinates": [-86.805555085, 38.445974581], "type": "Point"}, "id": "ZrV5MmcPpGEjCXB90n-JNO6bU4E=", "properties": {"@spider": "usps_collection_boxes", "addr:city": "DUBOIS", "addr:country": "US", "addr:full": "4533 N 2ND ST", "addr:postcode": "47527", "addr:state": "IN", "brand": "USPS", "collection_times": "Mo-Fr 15:45; Sa 11:00", "name": "USPS COLLECTION BOX - BLUE BOX", "note": "ON 12/24 AND 12/31, THIS BOX MAY BE COLLECTED AS EARLY AS 12 NOON.", "ref": "4752700001"}, "type": "Feature"}
{"geometry": {"coordinates": [-86.805555085, 38.445974581], "type": "Point"}, "id": "4xyw6TfXx3s_bciNFadY9m6EkoA=", "properties": {"@spider": "usps_collection_boxes", "addr:city": "DUBOIS", "addr:country": "US", "addr:full": "4533 N 2ND ST", "addr:postcode": "47527", "addr:state": "IN", "brand": "USPS", "collection_times": "Mo-Fr 11:45; Sa 11:00", "name": "USPS COLLECTION BOX - PO LOBBY", "ref": "4752700002"}, "type": "Feature"}
{"geometry": {"coordinates": [-86.8053722, 38.445361], "type": "Point"}, "id": "BmsGvhCI4FawFHBJFZZhg-adVoY=", "properties": {"@spider": "usps_collection_boxes", "addr:city": "DUBOIS", "addr:country": "US", "addr:full": "5404 E MAIN ST", "addr:postcode": "47527", "addr:state": "IN", "brand": "USPS", "collection_times": "Mo-Sa 10:00", "name": "USPS COLLECTION BOX - BLUE BOX", "ref": "4752700003"}, "type": "Feature"}
{"geometry": {"coordinates": [-86.805555085, 38.445974581], "type": "Point"}, "id": "MdcSUpFJixWGkZgW7If19r7Vmsw=", "properties": {"@spider": "usps_collection_boxes", "addr:city": "DUBOIS", "addr:country": "US", "addr:full": "4533 N 2ND ST", "addr:postcode": "47527", "addr:state": "IN", "brand": "USPS", "collection_times": "Mo-Fr 15:00; Sa 11:00", "name": "USPS COLLECTION BOX - PO LOBBY", "note": "ON 12/24 AND 12/31, THIS BOX MAY BE COLLECTED AS EARLY AS 12 NOON.", "ref": "4752700004"}, "type": "Feature"}
{"geometry": {"coordinates": [-87.086168763, 38.878947], "type": "Point"}, "id": "zpCX8d1Gawe0TccJ8ykFYMsE1Vc=", "properties": {"@spider": "usps_collection_boxes", "addr:city": "ELNORA", "addr:country": "US", "addr:full": "118 N ODON ST", "addr:postcode": "47529", "addr:state": "IN", "brand": "USPS", "collection_times": "Mo-Fr 16:00; Sa 10:30", "name": "USPS COLLECTION BOX - BLUE BOX", "note": "ON 12/24 AND 12/31, THIS BOX MAY BE COLLECTED AS EARLY AS 12 NOON.", "ref": "4752900001"}, "type": "Feature"}
{"geometry": {"coordinates": [-87.086168763, 38.878947], "type": "Point"}, "id": "drgrpZKyv-0rXtSCjLPbl7KNQ6Y=", "properties": {"@spider": "usps_collection_boxes", "addr:city": "ELNORA", "addr:country": "US", "addr:full": "118 N ODON ST", "addr:postcode": "47529", "addr:state": "IN", "brand": "USPS", "collection_times": "Mo-Fr 14:45; Sa 10:30", "name": "USPS COLLECTION BOX - PO LOBBY", "note": "ON 12/24 AND 12/31, THIS BOX MAY BE COLLECTED AS EARLY AS 12 NOON.", "ref": "4752900002"}, "type": "Feature"}
{"geometry": {"coordinates": [-87.086168763, 38.878947], "type": "Point"}, "id": "ik-wSBRKlK_xmwaNcpSG7Tno0_c=", "properties": {"@spider": "usps_collection_boxes", "addr:city": "ELNORA", "addr:country": "US", "addr:full": "118 N ODON ST", "addr:postcode": "47529", "addr:state": "IN", "brand": "USPS", "collection_times": "Mo-Fr 15:00; Sa 10:00", "name": "USPS COLLECTION BOX - PO LOBBY", "note": "ON 12/24 AND 12/31, THIS BOX MAY BE COLLECTED AS EARLY AS 12 NOON.", "ref": "4752900003"}, "type": "Feature"}
{"geometry": {"coordinates": [-86.862382636, 38.222859876], "type": "Point"}, "id": "v379Kt-VCa9xKzR7yxZk2qQdbnk=", "properties": {"@spider": "usps_collection_boxes", "addr:city": "FERDINAND", "addr:country": "US", "addr:full": "805 MAIN ST", "addr:postcode": "47532", "addr:state": "IN", "brand": "USPS", "collection_times": "Mo-Fr 15:15; Sa 11:30", "name": "USPS COLLECTION BOX - BLUE BOX", "note": "ON 12/24 AND 12/31, THIS BOX MAY BE COLLECTED AS EARLY AS 12 NOON.", "ref": "4753200001"}, "type": "Feature"}
{"geometry": {"coordinates": [-86.862382636, 38.222859876], "type": "Point"}, "id": "3h_5_02WHznM4nyC8C1zxr98aos=", "properties": {"@spider": "usps_collection_boxes", "addr:city": "FERDINAND", "addr:country": "US", "addr:full": "805 MAIN ST", "addr:postcode": "47532", "addr:state": "IN", "brand": "USPS", "collection_times": "Mo-Fr 15:15; Sa 11:30", "name": "USPS COLLECTION BOX - PO LOBBY", "note": "ON 12/24 AND 12/31, THIS BOX MAY BE COLLECTED AS EARLY AS 12 NOON.", "ref": "4753200003"}, "type": "Feature"}
{"geometry": {"coordinates": [-86.862382636, 38.222859876], "type": "Point"}, "id": "gJUbhCpIvzLlP6yizy2mkCqHjD8=", "properties": {"@spider": "usps_collection_boxes", "addr:city": "FERDINAND", "addr:country": "US", "addr:full": "805 MAIN ST", "addr:postcode": "47532", "addr:state": "IN", "brand": "USPS", "collection_times": "Mo-Fr 16:00; Sa 11:30", "name": "USPS COLLECTION BOX - PO LOBBY", "note": "ON 12/24 AND 12/31, THIS BOX MAY BE COLLECTED AS EARLY AS 12 NOON.", "ref": "4753200005"}, "type": "Feature"}
{"geometry": {"coordinates": [-87.306199532, 38.865105567], "type": "Point"}, "id": "E_WUovEnKyJueOvrTpBtpUPHuLY=", "properties": {"@spider": "usps_collection_boxes", "addr:city": "FREELANDVILLE", "addr:country": "US", "addr:full": "5 W STATE ROAD 58", "addr:postcode": "47535", "addr:state": "IN", "brand": "USPS", "collection_times": "Mo-Fr 16:00; Sa 10:45", "name": "USPS COLLECTION BOX - BLUE BOX", "note": "ON 12/24 AND 12/31, THIS BOX MAY BE COLLECTED AS EARLY AS 12 NOON.", "ref": "4753500001"}, "type": "Feature"}
{"geometry": {"coordinates": [-87.306199532, 38.865105567], "type": "Point"}, "id": "V0PU_nFWzirGujSVvIcWGvW3C0k=", "properties": {"@spider": "usps_collection_boxes", "addr:city": "FREELANDVILLE", "addr:country": "US", "addr:full": "5 W STATE ROAD 58", "addr:postcode": "47535", "addr:state": "IN", "brand": "USPS", "collection_times": "Mo-Fr 16:00; Sa 10:45", "name": "USPS COLLECTION BOX - PO LOBBY", "note": "ON 12/24 AND 12/31, THIS BOX MAY BE COLLECTED AS EARLY AS 12 NOON.", "ref": "4753500002"}, "type": "Feature"}
{"geometry": {"coordinates": [-87.306199532, 38.865105567], "type": "Point"}, "id": "cOatUXDjPVeZoY4nbeSIzN4_Hgs=", "properties": {"@spider": "usps_collection_boxes", "addr:city": "FREELANDVILLE", "addr:country": "US", "addr:full": "5 W STATE ROAD 58", "addr:postcode": "47535", "addr:state": "IN", "brand": "USPS", "collection_times": "Mo-Fr 16:00; Sa 11:00", "name": "USPS COLLECTION BOX - PO LOBBY", "note": "ON 12/24 AND 12/31, THIS BOX MAY BE COLLECTED AS EARLY AS 12 NOON.", "ref": "4753500003"}, "type": "Feature"}
{"geometry": {"coordinates": [-87.0390405, 38.246387481], "type": "Point"}, "id": "jTtzUA8ax6slKPTzZjX6gip_Qa0=", "properties": {"@spider": "usps_collection_boxes", "addr:city": "HOLLAND", "addr:country": "US", "addr:full": "403 W MAIN ST", "addr:postcode": "47541", "addr:state": "IN", "brand": "USPS", "collection_times": "Mo-Fr 15:45; Sa 10:15", "name": "USPS COLLECTION BOX - BLUE BOX", "note": "ON 12/24 AND 12/31, THIS BOX MAY BE COLLECTED AS EARLY AS 12 NOON.", "ref": "4754100001"}, "type": "Feature"}
{"geometry": {"coordinates": [-87.0390405, 38.246387481], "type": "Point"}, "id": "12Cn-AOeCoCGHlCtA6ChZW3_Ewg=", "properties": {"@spider": "usps_collection_boxes", "addr:city": "HOLLAND", "addr:country": "US", "addr:full": "403 W MAIN ST", "addr:postcode": "47541", "addr:state": "IN", "brand": "USPS", "collection_times": "Mo-Fr 14:45; Sa 10:15", "name": "USPS COLLECTION BOX - PO LOBBY", "note": "ON 12/24 AND 12/31, THIS BOX MAY BE COLLECTED AS EARLY AS 12 NOON.", "ref": "4754100002"}, "type": "Feature"}
{"geometry": {"coordinates": [-87.0390405, 38.246387481], "type": "Point"}, "id": "VCcd5JFUz6FJyGGmR4XAVdTqwO4=", "properties": {"@spider": "usps_collection_boxes", "addr:city": "HOLLAND", "addr:country": "US", "addr:full": "403 W MAIN ST", "addr:postcode": "47541", "addr:state": "IN", "brand": "USPS", "collection_times": "Mo-Fr 15:00; Sa 10:00", "name": "USPS COLLECTION BOX - PO LOBBY", "note": "ON 12/24 AND 12/31, THIS BOX MAY BE COLLECTED AS EARLY AS 12 NOON.", "ref": "4754100003"}, "type": "Feature"}
{"geometry": {"coordinates": [-86.9558479, 38.299175], "type": "Point"}, "id": "DW2zBBbDQOcp-XpV1teT-8-kRxE=", "properties": {"@spider": "usps_collection_boxes", "addr:city": "HUNTINGBURG", "addr:country": "US", "addr:full": "601 N MAIN ST", "addr:postcode": "47542", "addr:state": "IN", "brand": "USPS", "collection_times": "Mo-Sa 09:30", "name": "USPS COLLECTION BOX - BLUE BOX", "ref": "4754200009"}, "type": "Feature"}
{"geometry": {"coordinates": [-86.953823, 38.296661], "type": "Point"}, "id": "Z7uJIG-VPTix-dqwY65v5tl6IB8=", "properties": {"@spider": "usps_collection_boxes", "addr:city": "HUNTINGBURG", "addr:country": "US", "addr:full": "410 N JACKSON ST", "addr:postcode": "47542", "addr:state": "IN", "brand": "USPS", "collection_times": "Mo-Fr 15:45; Sa 12:15", "name": "USPS COLLECTION BOX - BLUE BOX", "note": "ON 12/24 AND 12/31, THIS BOX MAY BE COLLECTED AS EARLY AS 12 NOON.", "ref": "4754200011"}, "type": "Feature"}
{"geometry": {"coordinates": [-86.9558323, 38.306517], "type": "Point"}, "id": "vCZEd_NyxFXAXD0hZ9gm_p2jSCM=", "properties": {"@spider": "usps_collection_boxes", "addr:city": "HUNTINGBURG", "addr:country": "US", "addr:full": "312 E 12TH ST", "addr:postcode": "47542", "addr:state": "IN", "brand": "USPS", "collection_times": "Mo-Sa 09:00", "name": "USPS COLLECTION BOX - BLUE BOX", "ref": "4754200012"}, "type": "Feature"}
{"geometry": {"coordinates": [-86.953823, 38.296661], "type": "Point"}, "id": "KEPGcifKtUtFWrHK3Dgtc7JNwQI=", "properties": {"@spider": "usps_collection_boxes", "addr:city": "HUNTINGBURG", "addr:country": "US", "addr:full": "410 N JACKSON ST", "addr:postcode": "47542", "addr:state": "IN", "brand": "USPS", "collection_times": "Mo-Fr 15:45; Sa 12:15", "name": "USPS COLLECTION BOX - PO LOBBY", "note": "ON 12/24 AND 12/31, THIS BOX MAY BE COLLECTED AS EARLY AS 12 NOON.", "ref": "4754200016"}, "type": "Feature"}
{"geometry": {"coordinates": [-86.9537574393, 38.2965483666], "type": "Point"}, "id": "bh1K3H324rBS91iJnoeBCyH8JYw=", "properties": {"@spider": "usps_collection_boxes", "addr:city": "HUNTINGBURG", "addr:country": "US", "addr:full": "410 N JACKSON ST", "addr:postcode": "47542", "addr:state": "IN", "brand": "USPS", "collection_times": "Mo-Fr 16:30; Sa 12:00", "name": "USPS COLLECTION BOX - PO LOBBY", "note": "ON 12/24 AND 12/31, THIS BOX MAY BE COLLECTED AS EARLY AS 12 NOON.", "ref": "4754200018"}, "type": "Feature"}
{"geometry": {"coordinates": [-86.998376602, 38.413493581], "type": "Point"}, "id": "k8vOQpUoXoKAszqQbt_Z1KDnZqg=", "properties": {"@spider": "usps_collection_boxes", "addr:city": "IRELAND", "addr:country": "US", "addr:full": "2423 N 500 W", "addr:postcode": "47545", "addr:state": "IN", "brand": "USPS", "collection_times": "Mo-Fr 15:30; Sa 10:30", "name": "USPS COLLECTION BOX - BLUE BOX", "note": "ON 12/24 AND 12/31, THIS BOX MAY BE COLLECTED AS EARLY AS 12 NOON.", "ref": "4754500001"}, "type": "Feature"}
{"geometry": {"coordinates": [-86.998376602, 38.413493581], "type": "Point"}, "id": "ZZlxSt9b16iSnBtVf7gGqz3RL50=", "properties": {"@spider": "usps_collection_boxes", "addr:city": "IRELAND", "addr:country": "US", "addr:full": "2423 N 500 W", "addr:postcode": "47545", "addr:state": "IN", "brand": "USPS", "collection_times": "Mo-Fr 15:30; Sa 10:30", "name": "USPS COLLECTION BOX - PO LOBBY", "note": "ON 12/24 AND 12/31, THIS BOX MAY BE COLLECTED AS EARLY AS 12 NOON.", "ref": "4754500002"}, "type": "Feature"}
{"geometry": {"coordinates": [-86.998376602, 38.413493581], "type": "Point"}, "id": "wHsBNzY9vMR1-JpXiNwwYN2zX7U=", "properties": {"@spider": "usps_collection_boxes", "addr:city": "IRELAND", "addr:country": "US", "addr:full": "2423 N 500 W", "addr:postcode": "47545", "addr:state": "IN", "brand": "USPS", "collection_times": "Mo-Fr 15:30; Sa 10:00", "name": "USPS COLLECTION BOX - PO LOBBY", "note": "ON 12/24 AND 12/31, THIS BOX MAY BE COLLECTED AS EARLY AS 12 NOON.", "ref": "4754500003"}, "type": "Feature"}
{"geometry": {"coordinates": [-86.9306969, 38.39285], "type": "Point"}, "id": "SoD0LpeBnamugaSDvb8VrRLG0BE=", "properties": {"@spider": "usps_collection_boxes", "addr:city": "JASPER", "addr:country": "US", "addr:full": "714 MAIN ST", "addr:postcode": "47546", "addr:state": "IN", "brand": "USPS", "collection_times": "Mo-Fr 14:00", "name": "USPS COLLECTION BOX - BLUE BOX", "note": "ON 12/24 AND 12/31, THIS BOX MAY BE COLLECTED AS EARLY AS 12 NOON.", "ref": "4754600025"}, "type": "Feature"}
{"geometry": {"coordinates": [-86.9380806, 38.414349], "type": "Point"}, "id": "U9D5UpSbRPkuk56zcsWP03f-cZk=", "properties": {"@spider": "usps_collection_boxes", "addr:city": "JASPER", "addr:country": "US", "addr:full": "2905 NEWTON ST", "addr:postcode": "47546", "addr:state": "IN", "brand": "USPS", "collection_times": "Mo-Fr 14:00", "name": "USPS COLLECTION BOX - BLUE BOX", "note": "ON 12/24 AND 12/31, THIS BOX MAY BE COLLECTED AS EARLY AS 12 NOON.", "ref": "4754600027"}, "type": "Feature"}
{"geometry": {"coordinates": [-86.929767, 38.392282], "type": "Point"}, "id": "A9Ok1D2m5cw3nI-jtnNq-Z1BQLg=", "properties": {"@spider": "usps_collection_boxes", "addr:city": "JASPER", "addr:country": "US", "addr:full": "702 JACKSON ST", "addr:postcode": "47546", "addr:state": "IN", "brand": "USPS", "collection_times": "Mo-Fr 16:00; Sa 12:00", "name": "USPS COLLECTION BOX - BLUE BOX", "note": "ON 12/24 AND 12/31, THIS BOX MAY BE COLLECTED AS EARLY AS 12 NOON.", "ref": "4754600044"}, "type": "Feature"}
{"geometry": {"coordinates": [-86.9308029, 38.391171], "type": "Point"}, "id": "f8FD10xjOU9bC5NADDmIEXtxI4A=", "properties": {"@spider": "usps_collection_boxes", "addr:city": "JASPER", "addr:country": "US", "addr:full": "600 MAIN ST", "addr:postcode": "47546", "addr:state": "IN", "brand": "USPS", "collection_times": "Mo-Fr 14:45; Sa 12:00", "name": "USPS COLLECTION BOX - BLUE BOX", "note": "ON 12/24 AND 12/31, THIS BOX MAY BE COLLECTED AS EARLY AS 12 NOON.", "ref": "4754600045"}, "type": "Feature"}
{"geometry": {"coordinates": [-86.9148211, 38.377481], "type": "Point"}, "id": "Pzxv9jAy4wSId6HUQqHeAY4nky0=", "properties": {"@spider": "usps_collection_boxes", "addr:city": "JASPER", "addr:country": "US", "addr:full": "847 3RD AVE", "addr:postcode": "47546", "addr:state": "IN", "brand": "USPS", "collection_times": "Mo-Fr 14:00", "name": "USPS COLLECTION BOX - BLUE BOX", "note": "ON 12/24 AND 12/31, THIS BOX MAY BE COLLECTED AS EARLY AS 12 NOON.", "ref": "4754600048"}, "type": "Feature"}
{"geometry": {"coordinates": [-86.9416049, 38.394303], "type": "Point"}, "id": "HdzAt-9rmYQ5TzMb3vViEgll_j0=", "properties": {"@spider": "usps_collection_boxes", "addr:city": "JASPER", "addr:country": "US", "addr:full": "800 W 9TH ST", "addr:postcode": "47546", "addr:state": "IN", "brand": "USPS", "collection_times": "Mo-Fr 13:00", "name": "USPS COLLECTION BOX - BLUE BOX", "note": "ON 12/24 AND 12/31, THIS BOX MAY BE COLLECTED AS EARLY AS 12 NOON.", "ref": "4754600049"}, "type": "Feature"}
{"geometry": {"coordinates": [-86.929559162, 38.391407453], "type": "Point"}, "id": "WFNOKd5UO4Q6DspQfANlV0jT1iE=", "properties": {"@spider": "usps_collection_boxes", "addr:city": "JASPER", "addr:country": "US", "addr:full": "206 E 6TH ST", "addr:postcode": "47546", "addr:state": "IN", "brand": "USPS", "collection_times": "Mo-Fr 16:00; Sa 12:00", "name": "USPS COLLECTION BOX - PO LOBBY", "note": "ON 12/24 AND 12/31, THIS BOX MAY BE COLLECTED AS EARLY AS 12 NOON.", "ref": "4754600050"}, "type": "Feature"}
{"geometry": {"coordinates": [-86.929559162, 38.391407453], "type": "Point"}, "id": "7wBPkAt8zv5_-5e17Wyk42z_EQc=", "properties": {"@spider": "usps_collection_boxes", "addr:city": "JASPER", "addr:country": "US", "addr:full": "206 E 6TH ST", "addr:postcode": "47546", "addr:state": "IN", "brand": "USPS", "collection_times": "Mo-Fr 16:00; Sa 12:00", "name": "USPS COLLECTION BOX - PO LOBBY", "note": "ON 12/24 AND 12/31, THIS BOX MAY BE COLLECTED AS EARLY AS 12 NOON.", "ref": "4754600051"}, "type": "Feature"}
{"geometry": {"coordinates": [-86.9422792, 38.388574], "type": "Point"}, "id": "j-YGDGfX6gejiHXU1z_bLNyzvwQ=", "properties": {"@spider": "usps_collection_boxes", "addr:city": "JASPER", "addr:country": "US", "addr:full": "245 S US HIGHWAY 231", "addr:postcode": "47546", "addr:state": "IN", "brand": "USPS", "collection_times": "Mo-Fr 09:00", "name": "USPS COLLECTION BOX - BLUE BOX", "ref": "4754600052"}, "type": "Feature"}
{"geometry": {"coordinates": [-86.929559162, 38.391407453], "type": "Point"}, "id": "kFN9KMCMfNCeutmmtkDI8JCwvio=", "properties": {"@spider": "usps_collection_boxes", "addr:city": "JASPER", "addr:country": "US", "addr:full": "206 E 6TH ST", "addr:postcode": "47546", "addr:state": "IN", "brand": "USPS", "collection_times": "Mo-Fr 16:30; Sa 12:00", "name": "USPS COLLECTION BOX - PO LOBBY", "note": "ON 12/24 AND 12/31, THIS BOX MAY BE COLLECTED AS EARLY AS 12 NOON.", "ref": "4754600054"}, "type": "Feature"}
{"geometry": {"coordinates": [-86.9141133, 38.682834], "type": "Point"}, "id": "MWxbFPz7gi4UEbIjZfMlGZUT3sQ=", "properties": {"@spider": "usps_collection_boxes", "addr:city": "LOOGOOTEE", "addr:country": "US", "addr:full": "800 N LINE ST", "addr:postcode": "47553", "addr:state": "IN", "brand": "USPS", "collection_times": "Mo-Fr 13:00; Sa 12:30", "name": "USPS COLLECTION BOX - BLUE BOX", "note": "ON 12/24 AND 12/31, THIS BOX MAY BE COLLECTED AS EARLY AS 12 NOON.", "ref": "4755300001"}, "type": "Feature"}
{"geometry": {"coordinates": [-86.9142426, 38.681135], "type": "Point"}, "id": "xEqkcDnuWrxobZQxRT2Y9ESh29U=", "properties": {"@spider": "usps_collection_boxes", "addr:city": "LOOGOOTEE", "addr:country": "US", "addr:full": "601 N LINE ST", "addr:postcode": "47553", "addr:state": "IN", "brand": "USPS", "collection_times": "Mo-Fr 12:45; Sa 12:30", "name": "USPS COLLECTION BOX - BLUE BOX", "note": "ON 12/24 AND 12/31, THIS BOX MAY BE COLLECTED AS EARLY AS 12 NOON.", "ref": "4755300002"}, "type": "Feature"}
{"geometry": {"coordinates": [-86.9105447, 38.681145], "type": "Point"}, "id": "kroXmorffoQVeEazMkjoq5BbEt4=", "properties": {"@spider": "usps_collection_boxes", "addr:city": "LOOGOOTEE", "addr:country": "US", "addr:full": "212 N OAK ST", "addr:postcode": "47553", "addr:state": "IN", "brand": "USPS", "collection_times": "Mo-Sa 12:30", "name": "USPS COLLECTION BOX - BLUE BOX", "note": "ON 12/24 AND 12/31, THIS BOX MAY BE COLLECTED AS EARLY AS 12 NOON.", "ref": "4755300003"}, "type": "Feature"}
{"geometry": {"coordinates": [-86.9200818, 38.679306], "type": "Point"}, "id": "N0UotBWq2ekGMJA3mTWYO6B49AY=", "properties": {"@spider": "usps_collection_boxes", "addr:city": "LOOGOOTEE", "addr:country": "US", "addr:full": "109 BROOKS AVE", "addr:postcode": "47553", "addr:state": "IN", "brand": "USPS", "collection_times": "Mo-Sa 10:00", "name": "USPS COLLECTION BOX - BLUE BOX", "ref": "4755300004"}, "type": "Feature"}
{"geometry": {"coordinates": [-86.915727905, 38.677138911], "type": "Point"}, "id": "3zGlzEZK-YDrBUSfXt2x4NdLwlQ=", "properties": {"@spider": "usps_collection_boxes", "addr:city": "LOOGOOTEE", "addr:country": "US", "addr:full": "203 NW 1ST ST", "addr:postcode": "47553", "addr:state": "IN", "brand": "USPS", "collection_times": "Mo-Fr 15:15; Sa 12:30", "name": "USPS COLLECTION BOX - PO LOBBY", "note": "ON 12/24 AND 12/31, THIS BOX MAY BE COLLECTED AS EARLY AS 12 NOON.", "ref": "4755300005"}, "type": "Feature"}
{"geometry": {"coordinates": [-86.915727905, 38.677138911], "type": "Point"}, "id": "iFCroduR7Kxp13JnMfxh0nxbK88=", "properties": {"@spider": "usps_collection_boxes", "addr:city": "LOOGOOTEE", "addr:country": "US", "addr:full": "203 NW 1ST ST", "addr:postcode": "47553", "addr:state": "IN", "brand": "USPS", "collection_times": "Mo-Fr 15:15; Sa 12:30", "name": "USPS COLLECTION BOX - BLUE BOX", "note": "ON 12/24 AND 12/31, THIS BOX MAY BE COLLECTED AS EARLY AS 12 NOON.", "ref": "4755300006"}, "type": "Feature"}
{"geometry": {"coordinates": [-86.9154556, 38.676927], "type": "Point"}, "id": "UbEuK-Q1pFSdbXnLJWIT8QQ0iCw=", "properties": {"@spider": "usps_collection_boxes", "addr:city": "LOOGOOTEE", "addr:country": "US", "addr:full": "202 NW 1ST ST", "addr:postcode": "47553", "addr:state": "IN", "brand": "USPS", "collection_times": "Mo-Fr 15:15; Sa 12:30", "name": "USPS COLLECTION BOX - BLUE BOX", "note": "ON 12/24 AND 12/31, THIS BOX MAY BE COLLECTED AS EARLY AS 12 NOON.", "ref": "4755300007"}, "type": "Feature"}
{"geometry": {"coordinates": [-86.9198536, 38.673823], "type": "Point"}, "id": "X2LQ8R6Esq6cYiB6WWyxDw7WlWY=", "properties": {"@spider": "usps_collection_boxes", "addr:city": "LOOGOOTEE", "addr:country": "US", "addr:full": "509 SW 2ND ST", "addr:postcode": "47553", "addr:state": "IN", "brand": "USPS", "collection_times": "Mo-Sa 11:45", "name": "USPS COLLECTION BOX - BLUE BOX", "ref": "4755300010"}, "type": "Feature"}
{"geometry": {"coordinates": [-86.9100379, 38.676853], "type": "Point"}, "id": "ZGrAFsNG63EaQRZbKn1rDDpNjwQ=", "properties": {"@spider": "usps_collection_boxes", "addr:city": "LOOGOOTEE", "addr:country": "US", "addr:full": "307 E BROADWAY ST", "addr:postcode": "47553", "addr:state": "IN", "brand": "USPS", "collection_times": "Mo-Sa 08:30", "name": "USPS COLLECTION BOX - BLUE BOX", "ref": "4755300011"}, "type": "Feature"}
{"geometry": {"coordinates": [-86.9096306, 38.680165], "type": "Point"}, "id": "2J6XcYu662FIeWTV-N2RHhUERK4=", "properties": {"@spider": "usps_collection_boxes", "addr:city": "LOOGOOTEE", "addr:country": "US", "addr:full": "308 QUEEN ST", "addr:postcode": "47553", "addr:state": "IN", "brand": "USPS", "collection_times": "Mo-Sa 11:45", "name": "USPS COLLECTION BOX - BLUE BOX", "ref": "4755300012"}, "type": "Feature"}
{"geometry": {"coordinates": [-86.9142899, 38.672427], "type": "Point"}, "id": "fusm72VUOf51dKq_-3VuEWjGlJU=", "properties": {"@spider": "usps_collection_boxes", "addr:city": "LOOGOOTEE", "addr:country": "US", "addr:full": "101 PINE ST", "addr:postcode": "47553", "addr:state": "IN", "brand": "USPS", "collection_times": "Mo-Sa 11:00", "name": "USPS COLLECTION BOX - BLUE BOX", "ref": "4755300013"}, "type": "Feature"}
{"geometry": {"coordinates": [-86.915727905, 38.677138911], "type": "Point"}, "id": "hCGVeneCWcIplQfZGIFqdk4gzsQ=", "properties": {"@spider": "usps_collection_boxes", "addr:city": "LOOGOOTEE", "addr:country": "US", "addr:full": "203 NW 1ST ST", "addr:postcode": "47553", "addr:state": "IN", "brand": "USPS", "collection_times": "Mo-Fr 16:15; Sa 12:00", "name": "USPS COLLECTION BOX - PO LOBBY", "note": "ON 12/24 AND 12/31, THIS BOX MAY BE COLLECTED AS EARLY AS 12 NOON.", "ref": "4755300015"}, "type": "Feature"}
{"geometry": {"coordinates": [-87.353937, 38.614555], "type": "Point"}, "id": "p8k8Aw2dn_qfqNV5BQrZGEwYB4Y=", "properties": {"@spider": "usps_collection_boxes", "addr:city": "MONROE CITY", "addr:country": "US", "addr:full": "102 W 9TH ST", "addr:postcode": "47557", "addr:state": "IN", "brand": "USPS", "collection_times": "Mo-Fr 15:15; Sa 11:15", "name": "USPS COLLECTION BOX - BLUE BOX", "note": "ON 12/24 AND 12/31, THIS BOX MAY BE COLLECTED AS EARLY AS 12 NOON.", "ref": "4755700001"}, "type": "Feature"}
{"geometry": {"coordinates": [-87.353937, 38.614555], "type": "Point"}, "id": "bpkJcV6C5O0kYYl2qA6AXRT6oEQ=", "properties": {"@spider": "usps_collection_boxes", "addr:city": "MONROE CITY", "addr:country": "US", "addr:full": "102 W 9TH ST", "addr:postcode": "47557", "addr:state": "IN", "brand": "USPS", "collection_times": "Mo-Fr 15:00; Sa 11:00", "name": "USPS COLLECTION BOX - PO LOBBY", "note": "ON 12/24 AND 12/31, THIS BOX MAY BE COLLECTED AS EARLY AS 12 NOON.", "ref": "4755700002"}, "type": "Feature"}
{"geometry": {"coordinates": [-87.3536856381, 38.6147076067], "type": "Point"}, "id": "EXzo5RRdA5OLu3IURE3yAzAZYcE=", "properties": {"@spider": "usps_collection_boxes", "addr:city": "MONROE CITY", "addr:country": "US", "addr:full": "102 W 9TH ST", "addr:postcode": "47557", "addr:state": "IN", "brand": "USPS", "collection_times": "Mo-Fr 15:00; Sa 11:00", "name": "USPS COLLECTION BOX - PO LOBBY", "note": "ON 12/24 AND 12/31, THIS BOX MAY BE COLLECTED AS EARLY AS 12 NOON.", "ref": "4755700003"}, "type": "Feature"}
{"geometry": {"coordinates": [-87.044355, 38.666452], "type": "Point"}, "id": "yC3pA5j2smbvJNFfMdnMfmHrf28=", "properties": {"@spider": "usps_collection_boxes", "addr:city": "MONTGOMERY", "addr:country": "US", "addr:full": "496 N MAIN ST", "addr:postcode": "47558", "addr:state": "IN", "brand": "USPS", "collection_times": "Mo-Fr 15:00; Sa 11:00", "name": "USPS COLLECTION BOX - BLUE BOX", "note": "ON 12/24 AND 12/31, THIS BOX MAY BE COLLECTED AS EARLY AS 12 NOON.", "ref": "4755800001"}, "type": "Feature"}
{"geometry": {"coordinates": [-87.044355, 38.666452], "type": "Point"}, "id": "lPxgD2f7rA1F8SaV5KRtnoLrMfE=", "properties": {"@spider": "usps_collection_boxes", "addr:city": "MONTGOMERY", "addr:country": "US", "addr:full": "496 N MAIN ST", "addr:postcode": "47558", "addr:state": "IN", "brand": "USPS", "collection_times": "Mo-Fr 15:00; Sa 11:00", "name": "USPS COLLECTION BOX - PO LOBBY", "note": "ON 12/24 AND 12/31, THIS BOX MAY BE COLLECTED AS EARLY AS 12 NOON.", "ref": "4755800002"}, "type": "Feature"}
{"geometry": {"coordinates": [-87.0443558609, 38.6664576181], "type": "Point"}, "id": "LKHlmA89FppmXFvDaSqkXWvUwB4=", "properties": {"@spider": "usps_collection_boxes", "addr:city": "MONTGOMERY", "addr:country": "US", "addr:full": "496 N MAIN ST", "addr:postcode": "47558", "addr:state": "IN", "brand": "USPS", "collection_times": "Mo-Fr 16:00; Sa 11:00", "name": "USPS COLLECTION BOX - PO LOBBY", "note": "ON 12/24 AND 12/31, THIS BOX MAY BE COLLECTED AS EARLY AS 12 NOON.", "ref": "4755800003"}, "type": "Feature"}
{"geometry": {"coordinates": [-87.44071, 38.871104], "type": "Point"}, "id": "_fVKH01w81xEJBuRDE-s8Thtlpc=", "properties": {"@spider": "usps_collection_boxes", "addr:city": "OAKTOWN", "addr:country": "US", "addr:full": "106 E MAIN ST", "addr:postcode": "47561", "addr:state": "IN", "brand": "USPS", "collection_times": "Mo-Fr 16:00; Sa 11:00", "name": "USPS COLLECTION BOX - BLUE BOX", "note": "ON 12/24 AND 12/31, THIS BOX MAY BE COLLECTED AS EARLY AS 12 NOON.", "ref": "4756100001"}, "type": "Feature"}
{"geometry": {"coordinates": [-87.44071, 38.871104], "type": "Point"}, "id": "YSweZySTP1vt97eDPv_G6at3okE=", "properties": {"@spider": "usps_collection_boxes", "addr:city": "OAKTOWN", "addr:country": "US", "addr:full": "106 E MAIN ST", "addr:postcode": "47561", "addr:state": "IN", "brand": "USPS", "collection_times": "Mo-Fr 15:00; Sa 11:00", "name": "USPS COLLECTION BOX - PO LOBBY", "note": "ON 12/24 AND 12/31, THIS BOX MAY BE COLLECTED AS EARLY AS 12 NOON.", "ref": "4756100002"}, "type": "Feature"}
{"geometry": {"coordinates": [-87.4406939711, 38.8710936475], "type": "Point"}, "id": "27d7fZImdfIaxFRUt7qd-ePYBBs=", "properties": {"@spider": "usps_collection_boxes", "addr:city": "OAKTOWN", "addr:country": "US", "addr:full": "106 E MAIN ST", "addr:postcode": "47561", "addr:state": "IN", "brand": "USPS", "collection_times": "Mo-Fr 15:00; Sa 11:00", "name": "USPS COLLECTION BOX - PO LOBBY", "note": "ON 12/24 AND 12/31, THIS BOX MAY BE COLLECTED AS EARLY AS 12 NOON.", "ref": "4756100003"}, "type": "Feature"}
{"geometry": {"coordinates": [-86.990909909, 38.842581961], "type": "Point"}, "id": "YDJNdyCTlOzJd386YiGBaf2NiQo=", "properties": {"@spider": "usps_collection_boxes", "addr:city": "ODON", "addr:country": "US", "addr:full": "111 E MAIN ST", "addr:postcode": "47562", "addr:state": "IN", "brand": "USPS", "collection_times": "Mo-Fr 15:15; Sa 12:00", "name": "USPS COLLECTION BOX - BLUE BOX", "note": "ON 12/24 AND 12/31, THIS BOX MAY BE COLLECTED AS EARLY AS 12 NOON.", "ref": "4756200001"}, "type": "Feature"}
{"geometry": {"coordinates": [-86.990909909, 38.842581961], "type": "Point"}, "id": "l6PADworuHk-oWAG6YGtp6ese3g=", "properties": {"@spider": "usps_collection_boxes", "addr:city": "ODON", "addr:country": "US", "addr:full": "111 E MAIN ST", "addr:postcode": "47562", "addr:state": "IN", "brand": "USPS", "collection_times": "Mo-Fr 15:15; Sa 12:00", "name": "USPS COLLECTION BOX - PO LOBBY", "note": "ON 12/24 AND 12/31, THIS BOX MAY BE COLLECTED AS EARLY AS 12 NOON.", "ref": "4756200002"}, "type": "Feature"}
{"geometry": {"coordinates": [-86.990909909, 38.842581961], "type": "Point"}, "id": "-nKZ5raGDknP-GSHjCaQbgT9qdI=", "properties": {"@spider": "usps_collection_boxes", "addr:city": "ODON", "addr:country": "US", "addr:full": "111 E MAIN ST", "addr:postcode": "47562", "addr:state": "IN", "brand": "USPS", "collection_times": "Mo-Fr 15:30; Sa 12:00", "name": "USPS COLLECTION BOX - PO LOBBY", "note": "ON 12/24 AND 12/31, THIS BOX MAY BE COLLECTED AS EARLY AS 12 NOON.", "ref": "4756200007"}, "type": "Feature"}
{"geometry": {"coordinates": [-87.092776307, 38.455284394], "type": "Point"}, "id": "gHqvuP5MB5XQbpJeUnI69XIu_NE=", "properties": {"@spider": "usps_collection_boxes", "addr:city": "OTWELL", "addr:country": "US", "addr:full": "2171 N STATE ROAD 257", "addr:postcode": "47564", "addr:state": "IN", "brand": "USPS", "collection_times": "Mo-Fr 15:15; Sa 10:45", "name": "USPS COLLECTION BOX - BLUE BOX", "note": "ON 12/24 AND 12/31, THIS BOX MAY BE COLLECTED AS EARLY AS 12 NOON.", "ref": "4756400001"}, "type": "Feature"}
{"geometry": {"coordinates": [-87.092776307, 38.455284394], "type": "Point"}, "id": "rJln1iYC0Bu27sA8mwmN4kjbQX0=", "properties": {"@spider": "usps_collection_boxes", "addr:city": "OTWELL", "addr:country": "US", "addr:full": "2171 N STATE ROAD 257", "addr:postcode": "47564", "addr:state": "IN", "brand": "USPS", "collection_times": "Mo-Fr 11:45; Sa 10:45", "name": "USPS COLLECTION BOX - PO LOBBY", "ref": "4756400002"}, "type": "Feature"}
{"geometry": {"coordinates": [-87.092776307, 38.455284394], "type": "Point"}, "id": "CJPI3oC7f95boy4I0GuRxxZ_zAQ=", "properties": {"@spider": "usps_collection_boxes", "addr:city": "OTWELL", "addr:country": "US", "addr:full": "2171 N STATE ROAD 257", "addr:postcode": "47564", "addr:state": "IN", "brand": "USPS", "collection_times": "Mo-Fr 12:00; Sa 10:45", "name": "USPS COLLECTION BOX - PO LOBBY", "ref": "4756400003"}, "type": "Feature"}
{"geometry": {"coordinates": [-87.280719998, 38.491465862], "type": "Point"}, "id": "TNOujfnPYm07kOcjV3GpG_mc2Bk=", "properties": {"@spider": "usps_collection_boxes", "addr:city": "PETERSBURG", "addr:country": "US", "addr:full": "110 N 7TH ST", "addr:postcode": "47567", "addr:state": "IN", "brand": "USPS", "collection_times": "Mo-Fr 15:30; Sa 12:00", "name": "USPS COLLECTION BOX - BLUE BOX", "note": "ON 12/24 AND 12/31, THIS BOX MAY BE COLLECTED AS EARLY AS 12 NOON.", "ref": "4756700014"}, "type": "Feature"}
{"geometry": {"coordinates": [-87.280719998, 38.491465862], "type": "Point"}, "id": "aaZeTMk_A3g3Kt3U-38BR2zpg4k=", "properties": {"@spider": "usps_collection_boxes", "addr:city": "PETERSBURG", "addr:country": "US", "addr:full": "110 N 7TH ST", "addr:postcode": "47567", "addr:state": "IN", "brand": "USPS", "collection_times": "Mo-Fr 15:30; Sa 12:00", "name": "USPS COLLECTION BOX - BLUE BOX", "note": "ON 12/24 AND 12/31, THIS BOX MAY BE COLLECTED AS EARLY AS 12 NOON.", "ref": "4756700015"}, "type": "Feature"}
{"geometry": {"coordinates": [-87.280719998, 38.491465862], "type": "Point"}, "id": "t5zpwwQl2IJ9xZ9O-DJ2hoVz5WM=", "properties": {"@spider": "usps_collection_boxes", "addr:city": "PETERSBURG", "addr:country": "US", "addr:full": "110 N 7TH ST", "addr:postcode": "47567", "addr:state": "IN", "brand": "USPS", "collection_times": "Mo-Fr 15:30; Sa 12:00", "name": "USPS COLLECTION BOX - PO LOBBY", "note": "ON 12/24 AND 12/31, THIS BOX MAY BE COLLECTED AS EARLY AS 12 NOON.", "ref": "4756700016"}, "type": "Feature"}
{"geometry": {"coordinates": [-87.280719998, 38.491465862], "type": "Point"}, "id": "giqXRCQKdK9VnQ9E88b3EQIif_Q=", "properties": {"@spider": "usps_collection_boxes", "addr:city": "PETERSBURG", "addr:country": "US", "addr:full": "110 N 7TH ST", "addr:postcode": "47567", "addr:state": "IN", "brand": "USPS", "collection_times": "Mo-Fr 15:30; Sa 12:00", "name": "USPS COLLECTION BOX - PO LOBBY", "note": "ON 12/24 AND 12/31, THIS BOX MAY BE COLLECTED AS EARLY AS 12 NOON.", "ref": "4756700017"}, "type": "Feature"}
{"geometry": {"coordinates": [-87.280719998, 38.491465862], "type": "Point"}, "id": "bKTBOxkhGuZ9TMNPL3LfjfNb4I8=", "properties": {"@spider": "usps_collection_boxes", "addr:city": "PETERSBURG", "addr:country": "US", "addr:full": "110 N 7TH ST", "addr:postcode": "47567", "addr:state": "IN", "brand": "USPS", "collection_times": "Mo-Fr 16:00; Sa 11:30", "name": "USPS COLLECTION BOX - PO LOBBY", "note": "ON 12/24 AND 12/31, THIS BOX MAY BE COLLECTED AS EARLY AS 12 NOON.", "ref": "4756700019"}, "type": "Feature"}
{"geometry": {"coordinates": [-87.1522104446, 38.8059054605], "type": "Point"}, "id": "HqrlGJugvDsV5ANBVanG8QREyhI=", "properties": {"@spider": "usps_collection_boxes", "addr:city": "PLAINVILLE", "addr:country": "US", "addr:full": "203 E MAIN ST", "addr:postcode": "47568", "addr:state": "IN", "brand": "USPS", "collection_times": "Mo-Fr 11:45; Sa 09:45", "name": "USPS COLLECTION BOX - PO LOBBY", "ref": "4756800003"}, "type": "Feature"}
{"geometry": {"coordinates": [-87.1522104446, 38.8059054605], "type": "Point"}, "id": "Wg5JpinE61pgNo_nLGvusXPH-wE=", "properties": {"@spider": "usps_collection_boxes", "addr:city": "PLAINVILLE", "addr:country": "US", "addr:full": "203 E MAIN ST", "addr:postcode": "47568", "addr:state": "IN", "brand": "USPS", "collection_times": "Mo-Fr 11:45; Sa 09:45", "name": "USPS COLLECTION BOX - BLUE BOX", "ref": "4756800004"}, "type": "Feature"}
{"geometry": {"coordinates": [-87.152557261, 38.806657468], "type": "Point"}, "id": "JzAJxHMX3PYhTvyiNA-gLuUqbS8=", "properties": {"@spider": "usps_collection_boxes", "addr:city": "PLAINVILLE", "addr:country": "US", "addr:full": "868 2ND ST", "addr:postcode": "47568", "addr:state": "IN", "brand": "USPS", "collection_times": "Mo-Fr 12:00; Sa 10:00", "name": "USPS COLLECTION BOX - PO LOBBY", "ref": "4756800005"}, "type": "Feature"}
{"geometry": {"coordinates": [-86.827376, 38.313991], "type": "Point"}, "id": "jNiu4C37JQyPG2nRbgzRYyPRdmE=", "properties": {"@spider": "usps_collection_boxes", "addr:city": "SAINT ANTHONY", "addr:country": "US", "addr:full": "4531 S CROSS ST", "addr:postcode": "47575", "addr:state": "IN", "brand": "USPS", "collection_times": "Mo-Fr 15:45; Sa 11:00", "name": "USPS COLLECTION BOX - BLUE BOX", "note": "ON 12/24 AND 12/31, THIS BOX MAY BE COLLECTED AS EARLY AS 12 NOON.", "ref": "4757500001"}, "type": "Feature"}
{"geometry": {"coordinates": [-86.827376, 38.313991], "type": "Point"}, "id": "KF8GeMXJTz65ioSugNMa_5kJOjw=", "properties": {"@spider": "usps_collection_boxes", "addr:city": "SAINT ANTHONY", "addr:country": "US", "addr:full": "4531 S CROSS ST", "addr:postcode": "47575", "addr:state": "IN", "brand": "USPS", "collection_times": "Mo-Fr 11:45; Sa 11:00", "name": "USPS COLLECTION BOX - PO LOBBY", "ref": "4757500002"}, "type": "Feature"}
{"geometry": {"coordinates": [-86.8273380081, 38.31426], "type": "Point"}, "id": "MRk-q64iwg5Uoj_JKwIIEGriXdI=", "properties": {"@spider": "usps_collection_boxes", "addr:city": "SAINT ANTHONY", "addr:country": "US", "addr:full": "4531 S CROSS ST", "addr:postcode": "47575", "addr:state": "IN", "brand": "USPS", "collection_times": "Mo-Fr 15:00; Sa 11:00", "name": "USPS COLLECTION BOX - PO LOBBY", "note": "ON 12/24 AND 12/31, THIS BOX MAY BE COLLECTED AS EARLY AS 12 NOON.", "ref": "4757500004"}, "type": "Feature"}
{"geometry": {"coordinates": [-87.186886, 38.896916], "type": "Point"}, "id": "tnKb5qZzFAoCJHgrw6CESx5BhVU=", "properties": {"@spider": "usps_collection_boxes", "addr:city": "SANDBORN", "addr:country": "US", "addr:full": "103 ANDERSON ST", "addr:postcode": "47578", "addr:state": "IN", "brand": "USPS", "collection_times": "Mo-Fr 15:30; Sa 11:00", "name": "USPS COLLECTION BOX - BLUE BOX", "note": "ON 12/24 AND 12/31, THIS BOX MAY BE COLLECTED AS EARLY AS 12 NOON.", "ref": "4757800001"}, "type": "Feature"}
{"geometry": {"coordinates": [-87.186886, 38.896917], "type": "Point"}, "id": "UFwjaCMc0XgtyNLRR1iSDNNoR8Y=", "properties": {"@spider": "usps_collection_boxes", "addr:city": "SANDBORN", "addr:country": "US", "addr:full": "103 ANDERSON ST", "addr:postcode": "47578", "addr:state": "IN", "brand": "USPS", "collection_times": "Mo-Fr 11:45; Sa 11:00", "name": "USPS COLLECTION BOX - PO LOBBY", "ref": "4757800002"}, "type": "Feature"}
{"geometry": {"coordinates": [-87.186886332, 38.896748329], "type": "Point"}, "id": "LlTDOxrneu4R4iFWt-OzIf1pZzU=", "properties": {"@spider": "usps_collection_boxes", "addr:city": "SANDBORN", "addr:country": "US", "addr:full": "103 N ANDERSON ST", "addr:postcode": "47578", "addr:state": "IN", "brand": "USPS", "collection_times": "Mo-Fr 12:00; Sa 11:00", "name": "USPS COLLECTION BOX - PO LOBBY", "ref": "4757800003"}, "type": "Feature"}
{"geometry": {"coordinates": [-86.791785, 38.664651], "type": "Point"}, "id": "2XkPbTGs9fSIYOxwi098_MO3ECA=", "properties": {"@spider": "usps_collection_boxes", "addr:city": "SHOALS", "addr:country": "US", "addr:full": "300 2ND ST", "addr:postcode": "47581", "addr:state": "IN", "brand": "USPS", "collection_times": "Mo-Fr 15:30; Sa 11:30", "name": "USPS COLLECTION BOX - BLUE BOX", "note": "ON 12/24 AND 12/31, THIS BOX MAY BE COLLECTED AS EARLY AS 12 NOON.", "ref": "4758100001"}, "type": "Feature"}
{"geometry": {"coordinates": [-86.791785, 38.664651], "type": "Point"}, "id": "QSQmp_4Bwq-05tE3JcCBZSUxgOE=", "properties": {"@spider": "usps_collection_boxes", "addr:city": "SHOALS", "addr:country": "US", "addr:full": "300 2ND ST", "addr:postcode": "47581", "addr:state": "IN", "brand": "USPS", "collection_times": "Mo-Fr 15:30; Sa 11:30", "name": "USPS COLLECTION BOX - BLUE BOX", "note": "ON 12/24 AND 12/31, THIS BOX MAY BE COLLECTED AS EARLY AS 12 NOON.", "ref": "4758100002"}, "type": "Feature"}
{"geometry": {"coordinates": [-86.791785, 38.664651], "type": "Point"}, "id": "Jme6eiMpTVBpdxDyZsrG-CbogkM=", "properties": {"@spider": "usps_collection_boxes", "addr:city": "SHOALS", "addr:country": "US", "addr:full": "300 2ND ST", "addr:postcode": "47581", "addr:state": "IN", "brand": "USPS", "collection_times": "Mo-Fr 15:30; Sa 11:30", "name": "USPS COLLECTION BOX - PO LOBBY", "note": "ON 12/24 AND 12/31, THIS BOX MAY BE COLLECTED AS EARLY AS 12 NOON.", "ref": "4758100003"}, "type": "Feature"}
{"geometry": {"coordinates": [-86.792229968, 38.664975155], "type": "Point"}, "id": "WQkBkV9bOHSP-akOXGvTiUUrdns=", "properties": {"@spider": "usps_collection_boxes", "addr:city": "SHOALS", "addr:country": "US", "addr:full": "212 2ND ST", "addr:postcode": "47581", "addr:state": "IN", "brand": "USPS", "collection_times": "Mo-Fr 16:00; Sa 11:30", "name": "USPS COLLECTION BOX - PO LOBBY", "note": "ON 12/24 AND 12/31, THIS BOX MAY BE COLLECTED AS EARLY AS 12 NOON.", "ref": "4758100004"}, "type": "Feature"}
{"geometry": {"coordinates": [-87.257476523, 38.252646587], "type": "Point"}, "id": "eYMt8kubfQUkrclGZ7LYwxmbnUU=", "properties": {"@spider": "usps_collection_boxes", "addr:city": "SPURGEON", "addr:country": "US", "addr:full": "11430 S STATE ROAD 61", "addr:postcode": "47584", "addr:state": "IN", "brand": "USPS", "collection_times": "Mo-Fr 13:15; Sa 11:00", "name": "USPS COLLECTION BOX - BLUE BOX", "note": "ON 12/24 AND 12/31, THIS BOX MAY BE COLLECTED AS EARLY AS 12 NOON.", "ref": "4758400000"}, "type": "Feature"}
{"geometry": {"coordinates": [-87.257476523, 38.252646587], "type": "Point"}, "id": "N8S_sdFNyc_rUF1GoM0G0pb_VF4=", "properties": {"@spider": "usps_collection_boxes", "addr:city": "SPURGEON", "addr:country": "US", "addr:full": "11430 S STATE ROAD 61", "addr:postcode": "47584", "addr:state": "IN", "brand": "USPS", "collection_times": "Mo-Fr 09:45; Sa 11:00", "name": "USPS COLLECTION BOX - PO LOBBY", "ref": "4758400001"}, "type": "Feature"}
{"geometry": {"coordinates": [-87.257476523, 38.252646587], "type": "Point"}, "id": "I0VxbceBWlkueG06lRCsQwiS3PY=", "properties": {"@spider": "usps_collection_boxes", "addr:city": "SPURGEON", "addr:country": "US", "addr:full": "11430 S STATE ROAD 61", "addr:postcode": "47584", "addr:state": "IN", "brand": "USPS", "collection_times": "Mo-Fr 15:00; Sa 11:30", "name": "USPS COLLECTION BOX - PO LOBBY", "note": "ON 12/24 AND 12/31, THIS BOX MAY BE COLLECTED AS EARLY AS 12 NOON.", "ref": "4758400002"}, "type": "Feature"}
{"geometry": {"coordinates": [-87.146288533, 38.267684581], "type": "Point"}, "id": "caVxvtr1WfynzUMKkkFGvsmuOls=", "properties": {"@spider": "usps_collection_boxes", "addr:city": "STENDAL", "addr:country": "US", "addr:full": "10530 S WARRICK ST", "addr:postcode": "47585", "addr:state": "IN", "brand": "USPS", "collection_times": "Mo-Fr 15:15; Sa 11:30", "name": "USPS COLLECTION BOX - BLUE BOX", "note": "ON 12/24 AND 12/31, THIS BOX MAY BE COLLECTED AS EARLY AS 12 NOON.", "ref": "4758500001"}, "type": "Feature"}
{"geometry": {"coordinates": [-87.146288533, 38.267684581], "type": "Point"}, "id": "haUALek0ydcn0fI89DB9KiEgipU=", "properties": {"@spider": "usps_collection_boxes", "addr:city": "STENDAL", "addr:country": "US", "addr:full": "10530 S WARRICK ST", "addr:postcode": "47585", "addr:state": "IN", "brand": "USPS", "collection_times": "Mo-Sa 11:15", "name": "USPS COLLECTION BOX - PO LOBBY", "ref": "4758500002"}, "type": "Feature"}
{"geometry": {"coordinates": [-87.146288533, 38.267684581], "type": "Point"}, "id": "x32n7ufT6Hglq2KpAhh6e-sPUfc=", "properties": {"@spider": "usps_collection_boxes", "addr:city": "STENDAL", "addr:country": "US", "addr:full": "10530 S WARRICK ST", "addr:postcode": "47585", "addr:state": "IN", "brand": "USPS", "collection_times": "Mo-Sa 11:30", "name": "USPS COLLECTION BOX - PO LOBBY", "ref": "4758500003"}, "type": "Feature"}
{"geometry": {"coordinates": [-87.10212904, 38.357044072], "type": "Point"}, "id": "PeDQykQ7Iw-6eQHC34dP6h_2u5Y=", "properties": {"@spider": "usps_collection_boxes", "addr:city": "VELPEN", "addr:country": "US", "addr:full": "4495 S THIRD ST", "addr:postcode": "47590", "addr:state": "IN", "brand": "USPS", "collection_times": "Mo-Fr 16:00; Sa 11:30", "name": "USPS COLLECTION BOX - BLUE BOX", "note": "ON 12/24 AND 12/31, THIS BOX MAY BE COLLECTED AS EARLY AS 12 NOON.", "ref": "4759000001"}, "type": "Feature"}
{"geometry": {"coordinates": [-87.10212904, 38.357044072], "type": "Point"}, "id": "6x36L-J9emBzAYocPFZOYmCbw88=", "properties": {"@spider": "usps_collection_boxes", "addr:city": "VELPEN", "addr:country": "US", "addr:full": "4495 S THIRD ST", "addr:postcode": "47590", "addr:state": "IN", "brand": "USPS", "collection_times": "Mo-Fr 11:45; Sa 10:30", "name": "USPS COLLECTION BOX - PO LOBBY", "ref": "4759000002"}, "type": "Feature"}
{"geometry": {"coordinates": [-87.10212904, 38.357044072], "type": "Point"}, "id": "_9yx9ZkG47A0v5cGcsM8aLIRruY=", "properties": {"@spider": "usps_collection_boxes", "addr:city": "VELPEN", "addr:country": "US", "addr:full": "4495 S THIRD ST", "addr:postcode": "47590", "addr:state": "IN", "brand": "USPS", "collection_times": "Mo-Fr 12:00; Sa 11:15", "name": "USPS COLLECTION BOX - PO LOBBY", "ref": "4759000003"}, "type": "Feature"}
{"geometry": {"coordinates": [-87.5337654, 38.673445], "type": "Point"}, "id": "TQlhlJG_eUR2_MzDnIbmzQCDrR0=", "properties": {"@spider": "usps_collection_boxes", "addr:city": "VINCENNES", "addr:country": "US", "addr:full": "520 S 7TH ST", "addr:postcode": "47591", "addr:state": "IN", "brand": "USPS", "collection_times": "Mo-Fr 14:00; Sa 12:00", "name": "USPS COLLECTION BOX - BLUE BOX", "note": "ON 12/24 AND 12/31, THIS BOX MAY BE COLLECTED AS EARLY AS 12 NOON.", "ref": "4759100040"}, "type": "Feature"}
{"geometry": {"coordinates": [-87.5019864, 38.689725], "type": "Point"}, "id": "61sllW8ZRs3Nf0QQZE_jZtkqjyM=", "properties": {"@spider": "usps_collection_boxes", "addr:city": "VINCENNES", "addr:country": "US", "addr:full": "618 NIBLACK BLVD", "addr:postcode": "47591", "addr:state": "IN", "brand": "USPS", "collection_times": "Mo-Fr 11:30; Sa 10:00", "name": "USPS COLLECTION BOX - BLUE BOX", "ref": "4759100045"}, "type": "Feature"}
{"geometry": {"coordinates": [-87.5275578, 38.676542], "type": "Point"}, "id": "JvNGtw4B9C3hielA2Nvhm76vIW8=", "properties": {"@spider": "usps_collection_boxes", "addr:city": "VINCENNES", "addr:country": "US", "addr:full": "111 N 7TH ST", "addr:postcode": "47591", "addr:state": "IN", "brand": "USPS", "collection_times": "Mo-Fr 14:15", "name": "USPS COLLECTION BOX - BLUE BOX", "note": "ON 12/24 AND 12/31, THIS BOX MAY BE COLLECTED AS EARLY AS 12 NOON.", "ref": "4759100046"}, "type": "Feature"}
{"geometry": {"coordinates": [-87.528883, 38.679609], "type": "Point"}, "id": "p_TFsK54ASpg-ZuBmXFUcnBhjKI=", "properties": {"@spider": "usps_collection_boxes", "addr:city": "VINCENNES", "addr:country": "US", "addr:full": "214 N 4TH ST", "addr:postcode": "47591", "addr:state": "IN", "brand": "USPS", "collection_times": "Mo-Fr 17:00; Sa 14:15", "name": "USPS COLLECTION BOX - BLUE BOX", "note": "ON 12/24 AND 12/31, THIS BOX MAY BE COLLECTED AS EARLY AS 12 NOON.", "ref": "4759100048"}, "type": "Feature"}
{"geometry": {"coordinates": [-87.528883, 38.679609], "type": "Point"}, "id": "reHfclwpZVEkpVmchKoQLtuvgVE=", "properties": {"@spider": "usps_collection_boxes", "addr:city": "VINCENNES", "addr:country": "US", "addr:full": "214 N 4TH ST", "addr:postcode": "47591", "addr:state": "IN", "brand": "USPS", "collection_times": "Mo-Fr 17:00; Sa 14:15", "name": "USPS COLLECTION BOX - BLUE BOX", "note": "ON 12/24 AND 12/31, THIS BOX MAY BE COLLECTED AS EARLY AS 12 NOON.", "ref": "4759100049"}, "type": "Feature"}
{"geometry": {"coordinates": [-87.528883, 38.679609], "type": "Point"}, "id": "kKaToROwJqH0YF1VNuSvoOLI24Q=", "properties": {"@spider": "usps_collection_boxes", "addr:city": "VINCENNES", "addr:country": "US", "addr:full": "214 N 4TH ST", "addr:postcode": "47591", "addr:state": "IN", "brand": "USPS", "collection_times": "Mo-Fr 17:00; Sa 14:15", "name": "USPS COLLECTION BOX - BLUE BOX", "note": "ON 12/24 AND 12/31, THIS BOX MAY BE COLLECTED AS EARLY AS 12 NOON.", "ref": "4759100050"}, "type": "Feature"}
{"geometry": {"coordinates": [-87.528883, 38.679609], "type": "Point"}, "id": "RoYNo4X-4geJ340ak-3ggBLhHWk=", "properties": {"@spider": "usps_collection_boxes", "addr:city": "VINCENNES", "addr:country": "US", "addr:full": "214 N 4TH ST", "addr:postcode": "47591", "addr:state": "IN", "brand": "USPS", "collection_times": "Mo-Fr 17:00; Sa 14:15", "name": "USPS COLLECTION BOX - BLUE BOX", "note": "ON 12/24 AND 12/31, THIS BOX MAY BE COLLECTED AS EARLY AS 12 NOON.", "ref": "4759100051"}, "type": "Feature"}
{"geometry": {"coordinates": [-87.5139683, 38.666776], "type": "Point"}, "id": "zcIz1mIB_WPW4S9mds7a2sVUQhc=", "properties": {"@spider": "usps_collection_boxes", "addr:city": "VINCENNES", "addr:country": "US", "addr:full": "1901 HART ST", "addr:postcode": "47591", "addr:state": "IN", "brand": "USPS", "collection_times": "Mo-Fr 10:15; Sa 10:00", "name": "USPS COLLECTION BOX - BLUE BOX", "ref": "4759100054"}, "type": "Feature"}
{"geometry": {"coordinates": [-87.528767951, 38.679209138], "type": "Point"}, "id": "Ud-uSBiCI1tJgHyPqZ9uqi15EkE=", "properties": {"@spider": "usps_collection_boxes", "addr:city": "VINCENNES", "addr:country": "US", "addr:full": "420 BROADWAY ST", "addr:postcode": "47591", "addr:state": "IN", "brand": "USPS", "collection_times": "Mo-Fr 17:00; Sa 14:15", "name": "USPS COLLECTION BOX - PO LOBBY", "note": "ON 12/24 AND 12/31, THIS BOX MAY BE COLLECTED AS EARLY AS 12 NOON.", "ref": "4759100056"}, "type": "Feature"}
{"geometry": {"coordinates": [-87.5043482, 38.661741], "type": "Point"}, "id": "p5aXtXBg4toyi4bFglNB7589nh0=", "properties": {"@spider": "usps_collection_boxes", "addr:city": "VINCENNES", "addr:country": "US", "addr:full": "650 KIMMELL RD", "addr:postcode": "47591", "addr:state": "IN", "brand": "USPS", "collection_times": "Mo-Fr 10:00; Sa 09:00", "name": "USPS COLLECTION BOX - BLUE BOX", "ref": "4759100061"}, "type": "Feature"}
{"geometry": {"coordinates": [-87.528767951, 38.679209138], "type": "Point"}, "id": "wrIn_Z8_SRwa36HYnWbWl1k4y3s=", "properties": {"@spider": "usps_collection_boxes", "addr:city": "VINCENNES", "addr:country": "US", "addr:full": "420 BROADWAY ST", "addr:postcode": "47591", "addr:state": "IN", "brand": "USPS", "collection_times": "Mo-Fr 17:00; Sa 12:00", "name": "USPS COLLECTION BOX - PO LOBBY", "note": "ON 12/24 AND 12/31, THIS BOX MAY BE COLLECTED AS EARLY AS 12 NOON.", "ref": "4759100065"}, "type": "Feature"}
{"geometry": {"coordinates": [-87.225223, 38.861954], "type": "Point"}, "id": "wqpWlw7KV6cmN1dLPX0YF5x72-A=", "properties": {"@spider": "usps_collection_boxes", "addr:city": "WESTPHALIA", "addr:country": "US", "addr:full": "12747 HIGHWAY 67", "addr:postcode": "47596", "addr:state": "IN", "brand": "USPS", "collection_times": "Mo-Fr 16:00; Sa 10:45", "name": "USPS COLLECTION BOX - BLUE BOX", "note": "ON 12/24 AND 12/31, THIS BOX MAY BE COLLECTED AS EARLY AS 12 NOON.", "ref": "4759600002"}, "type": "Feature"}
{"geometry": {"coordinates": [-87.225198, 38.861934], "type": "Point"}, "id": "qbaHGKdaAUhgayoBYyjlumM10UE=", "properties": {"@spider": "usps_collection_boxes", "addr:city": "WESTPHALIA", "addr:country": "US", "addr:full": "12747 HIGHWAY 67", "addr:postcode": "47596", "addr:state": "IN", "brand": "USPS", "collection_times": "Mo-Fr 10:45; Sa 09:45", "name": "USPS COLLECTION BOX - PO LOBBY", "ref": "4759600003"}, "type": "Feature"}
{"geometry": {"coordinates": [-87.2253932257, 38.8617577327], "type": "Point"}, "id": "BA5vje3sJ5CoQvupqhpWFB9IreU=", "properties": {"@spider": "usps_collection_boxes", "addr:city": "WESTPHALIA", "addr:country": "US", "addr:full": "12747 HIGHWAY 67", "addr:postcode": "47596", "addr:state": "IN", "brand": "USPS", "collection_times": "Mo-Fr 11:00; Sa 10:00", "name": "USPS COLLECTION BOX - PO LOBBY", "ref": "4759600004"}, "type": "Feature"}
{"geometry": {"coordinates": [-87.307368569, 38.664336868], "type": "Point"}, "id": "j2YBapxvUurWuWv5s3PncnGdW_k=", "properties": {"@spider": "usps_collection_boxes", "addr:city": "WHEATLAND", "addr:country": "US", "addr:full": "123 W MAIN ST", "addr:postcode": "47597", "addr:state": "IN", "brand": "USPS", "collection_times": "Mo-Fr 15:00; Sa 10:00", "name": "USPS COLLECTION BOX - BLUE BOX", "note": "ON 12/24 AND 12/31, THIS BOX MAY BE COLLECTED AS EARLY AS 12 NOON.", "ref": "4759700001"}, "type": "Feature"}
{"geometry": {"coordinates": [-87.307368569, 38.664336868], "type": "Point"}, "id": "mWL3a8Oz0qKk66KHSY08F9I5FoI=", "properties": {"@spider": "usps_collection_boxes", "addr:city": "WHEATLAND", "addr:country": "US", "addr:full": "123 W MAIN ST", "addr:postcode": "47597", "addr:state": "IN", "brand": "USPS", "collection_times": "Mo-Fr 11:45; Sa 10:00", "name": "USPS COLLECTION BOX - PO LOBBY", "ref": "4759700002"}, "type": "Feature"}
{"geometry": {"coordinates": [-87.307368569, 38.664336868], "type": "Point"}, "id": "bZKMbAM0afL9Je64nJxTPzm6FFc=", "properties": {"@spider": "usps_collection_boxes", "addr:city": "WHEATLAND", "addr:country": "US", "addr:full": "123 W MAIN ST", "addr:postcode": "47597", "addr:state": "IN", "brand": "USPS", "collection_times": "Mo-Fr 12:00; Sa 10:00", "name": "USPS COLLECTION BOX - PO LOBBY", "ref": "4759700003"}, "type": "Feature"}
{"geometry": {"coordinates": [-87.215935421, 38.383834222], "type": "Point"}, "id": "Cp73quEgbH6y3GyNVRawo3D3a58=", "properties": {"@spider": "usps_collection_boxes", "addr:city": "WINSLOW", "addr:country": "US", "addr:full": "501 N MAIN ST", "addr:postcode": "47598", "addr:state": "IN", "brand": "USPS", "collection_times": "Mo-Fr 15:45; Sa 10:45", "name": "USPS COLLECTION BOX - BLUE BOX", "note": "ON 12/24 AND 12/31, THIS BOX MAY BE COLLECTED AS EARLY AS 12 NOON.", "ref": "4759800001"}, "type": "Feature"}
{"geometry": {"coordinates": [-87.215935421, 38.383834222], "type": "Point"}, "id": "OdOmG-c2-Bcve---S_NiYwsNmKE=", "properties": {"@spider": "usps_collection_boxes", "addr:city": "WINSLOW", "addr:country": "US", "addr:full": "501 N MAIN ST", "addr:postcode": "47598", "addr:state": "IN", "brand": "USPS", "collection_times": "Mo-Fr 15:45; Sa 10:45", "name": "USPS COLLECTION BOX - PO LOBBY", "note": "ON 12/24 AND 12/31, THIS BOX MAY BE COLLECTED AS EARLY AS 12 NOON.", "ref": "4759800002"}, "type": "Feature"}
{"geometry": {"coordinates": [-87.215935421, 38.383834222], "type": "Point"}, "id": "dnR496sDdL2KkvmQsTP3E3qDbUU=", "properties": {"@spider": "usps_collection_boxes", "addr:city": "WINSLOW", "addr:country": "US", "addr:full": "501 N MAIN ST", "addr:postcode": "47598", "addr:state": "IN", "brand": "USPS", "collection_times": "Mo-Fr 16:00; Sa 10:30", "name": "USPS COLLECTION BOX - PO LOBBY", "note": "ON 12/24 AND 12/31, THIS BOX MAY BE COLLECTED AS EARLY AS 12 NOON.", "ref": "4759800003"}, "type": "Feature"}
