{"dataset_attributes": {"@spider": "usps_collection_boxes", "spider:collection_time": "2023-10-28T08:22:24.083666"}, "geometry": {"coordinates": [-87.276140277, 38.049019514], "type": "Point"}, "id": "mHnn0G4wY943BWbEsORyMXhyeh0=", "properties": {"@spider": "usps_collection_boxes", "addr:city": "BOONVILLE", "addr:country": "US", "addr:full": "214 W LOCUST ST", "addr:postcode": "47601", "addr:state": "IN", "amenity": "post_box", "brand": "United States Postal Service", "brand:wikidata": "Q668687", "collection_times": "Mo-Fr 16:15; Sa 15:00", "name": "USPS COLLECTION BOX - PO LOBBY", "note": "ON 12/24 AND 12/31, THIS BOX MAY BE COLLECTED AS EARLY AS 12 NOON.", "nsi_id": "unitedstatespostalservice-a77078", "operator": "United States Postal Service", "operator:short": "USPS", "operator:type": "public", "operator:wikidata": "Q668687", "ref": "4760100000"}, "type": "Feature"}
{"dataset_attributes": {"@spider": "usps_collection_boxes", "spider:collection_time": "2023-10-28T08:22:24.083666"}, "geometry": {"coordinates": [-87.2741422, 38.050029], "type": "Point"}, "id": "MHK0bOOJY0R3vDTf7fvXgJGsNXE=", "properties": {"@spider": "usps_collection_boxes", "addr:city": "BOONVILLE", "addr:country": "US", "addr:full": "101 N 3RD ST", "addr:postcode": "47601", "addr:state": "IN", "amenity": "post_box", "brand": "United States Postal Service", "brand:wikidata": "Q668687", "collection_times": "Mo-Fr 15:15; Sa 12:45", "name": "USPS COLLECTION BOX - BLUE BOX", "note": "ON 12/24 AND 12/31, THIS BOX MAY BE COLLECTED AS EARLY AS 12 NOON.", "nsi_id": "unitedstatespostalservice-a77078", "operator": "United States Postal Service", "operator:short": "USPS", "operator:type": "public", "operator:wikidata": "Q668687", "ref": "4760100002"}, "type": "Feature"}
{"dataset_attributes": {"@spider": "usps_collection_boxes", "spider:collection_time": "2023-10-28T08:22:24.083666"}, "geometry": {"coordinates": [-87.276321, 38.049087], "type": "Point"}, "id": "vD5zfAWfCcQ9Q8lppA8N0vXMIWE=", "properties": {"@spider": "usps_collection_boxes", "addr:city": "BOONVILLE", "addr:country": "US", "addr:full": "215 W LOCUST ST", "addr:postcode": "47601", "addr:state": "IN", "amenity": "post_box", "brand": "United States Postal Service", "brand:wikidata": "Q668687", "collection_times": "Mo-Fr 16:15; Sa 15:00", "name": "USPS COLLECTION BOX - BLUE BOX", "note": "ON 12/24 AND 12/31, THIS BOX MAY BE COLLECTED AS EARLY AS 12 NOON.", "nsi_id": "unitedstatespostalservice-a77078", "operator": "United States Postal Service", "operator:short": "USPS", "operator:type": "public", "operator:wikidata": "Q668687", "ref": "4760100005"}, "type": "Feature"}
{"dataset_attributes": {"@spider": "usps_collection_boxes", "spider:collection_time": "2023-10-28T08:22:24.083666"}, "geometry": {"coordinates": [-87.2853299, 38.047817], "type": "Point"}, "id": "x25oYPTjWO4sJ7lXZ5FXR-Tg-4I=", "properties": {"@spider": "usps_collection_boxes", "addr:city": "BOONVILLE", "addr:country": "US", "addr:full": "966 N STATE ROUTE 61", "addr:postcode": "47601", "addr:state": "IN", "amenity": "post_box", "brand": "United States Postal Service", "brand:wikidata": "Q668687", "collection_times": "Mo-Sa 11:45", "name": "USPS COLLECTION BOX - BLUE BOX", "nsi_id": "unitedstatespostalservice-a77078", "operator": "United States Postal Service", "operator:short": "USPS", "operator:type": "public", "operator:wikidata": "Q668687", "ref": "4760100015"}, "type": "Feature"}
{"dataset_attributes": {"@spider": "usps_collection_boxes", "spider:collection_time": "2023-10-28T08:22:24.083666"}, "geometry": {"coordinates": [-87.274833, 38.050176], "type": "Point"}, "id": "_MKboa1rt2hAmtoAP_seVhp_C1g=", "properties": {"@spider": "usps_collection_boxes", "addr:city": "BOONVILLE", "addr:country": "US", "addr:full": "1 COUNTY SQ", "addr:postcode": "47601", "addr:state": "IN", "amenity": "post_box", "brand": "United States Postal Service", "brand:wikidata": "Q668687", "collection_times": "Mo-Fr 15:15; Sa 12:45", "name": "USPS COLLECTION BOX - BLUE BOX", "note": "ON 12/24 AND 12/31, THIS BOX MAY BE COLLECTED AS EARLY AS 12 NOON.", "nsi_id": "unitedstatespostalservice-a77078", "operator": "United States Postal Service", "operator:short": "USPS", "operator:type": "public", "operator:wikidata": "Q668687", "ref": "4760100016"}, "type": "Feature"}
{"dataset_attributes": {"@spider": "usps_collection_boxes", "spider:collection_time": "2023-10-28T08:22:24.083666"}, "geometry": {"coordinates": [-87.2748556, 38.05017], "type": "Point"}, "id": "UhHdL1RJxv305ir2bvTpwgPkesQ=", "properties": {"@spider": "usps_collection_boxes", "addr:city": "BOONVILLE", "addr:country": "US", "addr:full": "1 COUNTY SQ", "addr:postcode": "47601", "addr:state": "IN", "amenity": "post_box", "brand": "United States Postal Service", "brand:wikidata": "Q668687", "collection_times": "Mo-Fr 15:15; Sa 12:45", "name": "USPS COLLECTION BOX - BLUE BOX", "note": "ON 12/24 AND 12/31, THIS BOX MAY BE COLLECTED AS EARLY AS 12 NOON.", "nsi_id": "unitedstatespostalservice-a77078", "operator": "United States Postal Service", "operator:short": "USPS", "operator:type": "public", "operator:wikidata": "Q668687", "ref": "4760100017"}, "type": "Feature"}
{"dataset_attributes": {"@spider": "usps_collection_boxes", "spider:collection_time": "2023-10-28T08:22:24.083666"}, "geometry": {"coordinates": [-87.276140277, 38.049019514], "type": "Point"}, "id": "BdiX_cLAe-ruGMkqDHTChPhBFNE=", "properties": {"@spider": "usps_collection_boxes", "addr:city": "BOONVILLE", "addr:country": "US", "addr:full": "214 W LOCUST ST", "addr:postcode": "47601", "addr:state": "IN", "amenity": "post_box", "brand": "United States Postal Service", "brand:wikidata": "Q668687", "collection_times": "Mo-Fr 16:15; Sa 12:00", "name": "USPS COLLECTION BOX - PO LOBBY", "note": "ON 12/24 AND 12/31, THIS BOX MAY BE COLLECTED AS EARLY AS 12 NOON.", "nsi_id": "unitedstatespostalservice-a77078", "operator": "United States Postal Service", "operator:short": "USPS", "operator:type": "public", "operator:wikidata": "Q668687", "ref": "4760100021"}, "type": "Feature"}
{"dataset_attributes": {"@spider": "usps_collection_boxes", "spider:collection_time": "2023-10-28T08:22:24.083666"}, "geometry": {"coordinates": [-87.37038538, 38.042564238], "type": "Point"}, "id": "qeZF8H3v5fR9SjW_AVEt9-y7nBU=", "properties": {"@spider": "usps_collection_boxes", "addr:city": "CHANDLER", "addr:country": "US", "addr:full": "211 W LINCOLN AVE", "addr:postcode": "47610", "addr:state": "IN", "amenity": "post_box", "brand": "United States Postal Service", "brand:wikidata": "Q668687", "collection_times": "Mo-Fr 16:00; Sa 11:00", "name": "USPS COLLECTION BOX - BLUE BOX", "note": "ON 12/24 AND 12/31, THIS BOX MAY BE COLLECTED AS EARLY AS 12 NOON.", "nsi_id": "unitedstatespostalservice-a77078", "operator": "United States Postal Service", "operator:short": "USPS", "operator:type": "public", "operator:wikidata": "Q668687", "ref": "4761000000"}, "type": "Feature"}
{"dataset_attributes": {"@spider": "usps_collection_boxes", "spider:collection_time": "2023-10-28T08:22:24.083666"}, "geometry": {"coordinates": [-87.37038538, 38.042564238], "type": "Point"}, "id": "tZ6bcuz9RfY8ZVDlUbbt-S2HSs8=", "properties": {"@spider": "usps_collection_boxes", "addr:city": "CHANDLER", "addr:country": "US", "addr:full": "211 W LINCOLN AVE", "addr:postcode": "47610", "addr:state": "IN", "amenity": "post_box", "brand": "United States Postal Service", "brand:wikidata": "Q668687", "collection_times": "Mo-Fr 16:00; Sa 11:00", "name": "USPS COLLECTION BOX - PO LOBBY", "note": "ON 12/24 AND 12/31, THIS BOX MAY BE COLLECTED AS EARLY AS 12 NOON.", "nsi_id": "unitedstatespostalservice-a77078", "operator": "United States Postal Service", "operator:short": "USPS", "operator:type": "public", "operator:wikidata": "Q668687", "ref": "4761000001"}, "type": "Feature"}
{"dataset_attributes": {"@spider": "usps_collection_boxes", "spider:collection_time": "2023-10-28T08:22:24.083666"}, "geometry": {"coordinates": [-87.37038538, 38.042564238], "type": "Point"}, "id": "r3QQBLwxBb6Peg_1MCKIlRr_KmE=", "properties": {"@spider": "usps_collection_boxes", "addr:city": "CHANDLER", "addr:country": "US", "addr:full": "211 W LINCOLN AVE", "addr:postcode": "47610", "addr:state": "IN", "amenity": "post_box", "brand": "United States Postal Service", "brand:wikidata": "Q668687", "collection_times": "Mo-Fr 16:00; Sa 11:00", "name": "USPS COLLECTION BOX - PO LOBBY", "note": "ON 12/24 AND 12/31, THIS BOX MAY BE COLLECTED AS EARLY AS 12 NOON.", "nsi_id": "unitedstatespostalservice-a77078", "operator": "United States Postal Service", "operator:short": "USPS", "operator:type": "public", "operator:wikidata": "Q668687", "ref": "4761000004"}, "type": "Feature"}
{"dataset_attributes": {"@spider": "usps_collection_boxes", "spider:collection_time": "2023-10-28T08:22:24.083666"}, "geometry": {"coordinates": [-87.036745, 38.014537], "type": "Point"}, "id": "UP1V3jVixlxHGPmoa8iWPfz1SXk=", "properties": {"@spider": "usps_collection_boxes", "addr:city": "CHRISNEY", "addr:country": "US", "addr:full": "23 W MARKET ST", "addr:postcode": "47611", "addr:state": "IN", "amenity": "post_box", "brand": "United States Postal Service", "brand:wikidata": "Q668687", "collection_times": "Mo-Fr 15:30; Sa 11:00", "name": "USPS COLLECTION BOX - BLUE BOX", "note": "ON 12/24 AND 12/31, THIS BOX MAY BE COLLECTED AS EARLY AS 12 NOON.", "nsi_id": "unitedstatespostalservice-a77078", "operator": "United States Postal Service", "operator:short": "USPS", "operator:type": "public", "operator:wikidata": "Q668687", "ref": "4761100000"}, "type": "Feature"}
{"dataset_attributes": {"@spider": "usps_collection_boxes", "spider:collection_time": "2023-10-28T08:22:24.083666"}, "geometry": {"coordinates": [-87.036643, 38.014564], "type": "Point"}, "id": "vC0jAXiyH8bLj3j709L5kCs9FM4=", "properties": {"@spider": "usps_collection_boxes", "addr:city": "CHRISNEY", "addr:country": "US", "addr:full": "23 W MARKET ST", "addr:postcode": "47611", "addr:state": "IN", "amenity": "post_box", "brand": "United States Postal Service", "brand:wikidata": "Q668687", "collection_times": "Mo-Fr 15:30; Sa 11:00", "name": "USPS COLLECTION BOX - PO LOBBY", "note": "ON 12/24 AND 12/31, THIS BOX MAY BE COLLECTED AS EARLY AS 12 NOON.", "nsi_id": "unitedstatespostalservice-a77078", "operator": "United States Postal Service", "operator:short": "USPS", "operator:type": "public", "operator:wikidata": "Q668687", "ref": "4761100001"}, "type": "Feature"}
{"dataset_attributes": {"@spider": "usps_collection_boxes", "spider:collection_time": "2023-10-28T08:22:24.083666"}, "geometry": {"coordinates": [-87.03729, 38.014526474], "type": "Point"}, "id": "w-pgUyx7MH6XRdEcN5L8Cq9rZ9s=", "properties": {"@spider": "usps_collection_boxes", "addr:city": "CHRISNEY", "addr:country": "US", "addr:full": "23 W MARKET ST", "addr:postcode": "47611", "addr:state": "IN", "amenity": "post_box", "brand": "United States Postal Service", "brand:wikidata": "Q668687", "collection_times": "Mo-Fr 15:30; Sa 11:00", "name": "USPS COLLECTION BOX - PO LOBBY", "note": "ON 12/24 AND 12/31, THIS BOX MAY BE COLLECTED AS EARLY AS 12 NOON.", "nsi_id": "unitedstatespostalservice-a77078", "operator": "United States Postal Service", "operator:short": "USPS", "operator:type": "public", "operator:wikidata": "Q668687", "ref": "4761100003"}, "type": "Feature"}
{"dataset_attributes": {"@spider": "usps_collection_boxes", "spider:collection_time": "2023-10-28T08:22:24.083666"}, "geometry": {"coordinates": [-87.708591, 38.187483526], "type": "Point"}, "id": "LQZ7pNkEyaoeNa7V0H9eFnfNMcg=", "properties": {"@spider": "usps_collection_boxes", "addr:city": "CYNTHIANA", "addr:country": "US", "addr:full": "10864 MAIN ST", "addr:postcode": "47612", "addr:state": "IN", "amenity": "post_box", "brand": "United States Postal Service", "brand:wikidata": "Q668687", "collection_times": "Mo-Fr 15:30; Sa 11:00", "name": "USPS COLLECTION BOX - BLUE BOX", "note": "ON 12/24 AND 12/31, THIS BOX MAY BE COLLECTED AS EARLY AS 12 NOON.", "nsi_id": "unitedstatespostalservice-a77078", "operator": "United States Postal Service", "operator:short": "USPS", "operator:type": "public", "operator:wikidata": "Q668687", "ref": "4761200000"}, "type": "Feature"}
{"dataset_attributes": {"@spider": "usps_collection_boxes", "spider:collection_time": "2023-10-28T08:22:24.083666"}, "geometry": {"coordinates": [-87.708591, 38.187483526], "type": "Point"}, "id": "tygeqwRAq7bDxgeImuZQKH02uiI=", "properties": {"@spider": "usps_collection_boxes", "addr:city": "CYNTHIANA", "addr:country": "US", "addr:full": "10864 MAIN ST", "addr:postcode": "47612", "addr:state": "IN", "amenity": "post_box", "brand": "United States Postal Service", "brand:wikidata": "Q668687", "collection_times": "Mo-Fr 15:30; Sa 11:00", "name": "USPS COLLECTION BOX - PO LOBBY", "note": "ON 12/24 AND 12/31, THIS BOX MAY BE COLLECTED AS EARLY AS 12 NOON.", "nsi_id": "unitedstatespostalservice-a77078", "operator": "United States Postal Service", "operator:short": "USPS", "operator:type": "public", "operator:wikidata": "Q668687", "ref": "4761200001"}, "type": "Feature"}
{"dataset_attributes": {"@spider": "usps_collection_boxes", "spider:collection_time": "2023-10-28T08:22:24.083666"}, "geometry": {"coordinates": [-87.708591, 38.187483526], "type": "Point"}, "id": "SJhUZInljikdsHCYwlHeBZcXKyo=", "properties": {"@spider": "usps_collection_boxes", "addr:city": "CYNTHIANA", "addr:country": "US", "addr:full": "10864 MAIN ST", "addr:postcode": "47612", "addr:state": "IN", "amenity": "post_box", "brand": "United States Postal Service", "brand:wikidata": "Q668687", "collection_times": "Mo-Fr 15:30; Sa 11:00", "name": "USPS COLLECTION BOX - PO LOBBY", "note": "ON 12/24 AND 12/31, THIS BOX MAY BE COLLECTED AS EARLY AS 12 NOON.", "nsi_id": "unitedstatespostalservice-a77078", "operator": "United States Postal Service", "operator:short": "USPS", "operator:type": "public", "operator:wikidata": "Q668687", "ref": "4761200003"}, "type": "Feature"}
{"dataset_attributes": {"@spider": "usps_collection_boxes", "spider:collection_time": "2023-10-28T08:22:24.083666"}, "geometry": {"coordinates": [-87.447959304, 38.159598068], "type": "Point"}, "id": "er-p9UDst4xygmY1em8Cas06uZ4=", "properties": {"@spider": "usps_collection_boxes", "addr:city": "ELBERFELD", "addr:country": "US", "addr:full": "155 W MAIN ST", "addr:postcode": "47613", "addr:state": "IN", "amenity": "post_box", "brand": "United States Postal Service", "brand:wikidata": "Q668687", "collection_times": "Mo-Fr 15:30; Sa 12:30", "name": "USPS COLLECTION BOX - BLUE BOX", "note": "ON 12/24 AND 12/31, THIS BOX MAY BE COLLECTED AS EARLY AS 12 NOON.", "nsi_id": "unitedstatespostalservice-a77078", "operator": "United States Postal Service", "operator:short": "USPS", "operator:type": "public", "operator:wikidata": "Q668687", "ref": "4761300000"}, "type": "Feature"}
{"dataset_attributes": {"@spider": "usps_collection_boxes", "spider:collection_time": "2023-10-28T08:22:24.083666"}, "geometry": {"coordinates": [-87.447959304, 38.159598068], "type": "Point"}, "id": "6Iy2PuzviaK8abk7g52wOQBm-ZA=", "properties": {"@spider": "usps_collection_boxes", "addr:city": "ELBERFELD", "addr:country": "US", "addr:full": "155 W MAIN ST", "addr:postcode": "47613", "addr:state": "IN", "amenity": "post_box", "brand": "United States Postal Service", "brand:wikidata": "Q668687", "collection_times": "Mo-Fr 15:30; Sa 12:30", "name": "USPS COLLECTION BOX - PO LOBBY", "note": "ON 12/24 AND 12/31, THIS BOX MAY BE COLLECTED AS EARLY AS 12 NOON.", "nsi_id": "unitedstatespostalservice-a77078", "operator": "United States Postal Service", "operator:short": "USPS", "operator:type": "public", "operator:wikidata": "Q668687", "ref": "4761300001"}, "type": "Feature"}
{"dataset_attributes": {"@spider": "usps_collection_boxes", "spider:collection_time": "2023-10-28T08:22:24.083666"}, "geometry": {"coordinates": [-87.447959304, 38.159598068], "type": "Point"}, "id": "J02tocmwrPrPC02HRZ6NxhMdgPc=", "properties": {"@spider": "usps_collection_boxes", "addr:city": "ELBERFELD", "addr:country": "US", "addr:full": "155 W MAIN ST", "addr:postcode": "47613", "addr:state": "IN", "amenity": "post_box", "brand": "United States Postal Service", "brand:wikidata": "Q668687", "collection_times": "Mo-Fr 15:30; Sa 12:30", "name": "USPS COLLECTION BOX - PO LOBBY", "note": "ON 12/24 AND 12/31, THIS BOX MAY BE COLLECTED AS EARLY AS 12 NOON.", "nsi_id": "unitedstatespostalservice-a77078", "operator": "United States Postal Service", "operator:short": "USPS", "operator:type": "public", "operator:wikidata": "Q668687", "ref": "4761300003"}, "type": "Feature"}
{"dataset_attributes": {"@spider": "usps_collection_boxes", "spider:collection_time": "2023-10-28T08:22:24.083666"}, "geometry": {"coordinates": [-86.981046373, 37.932822671], "type": "Point"}, "id": "9Wr67RPdtm-fC9lW9_VkKJKMKzw=", "properties": {"@spider": "usps_collection_boxes", "addr:city": "GRANDVIEW", "addr:country": "US", "addr:full": "302 MAIN ST", "addr:postcode": "47615", "addr:state": "IN", "amenity": "post_box", "brand": "United States Postal Service", "brand:wikidata": "Q668687", "collection_times": "Mo-Fr 15:45; Sa 11:00", "name": "USPS COLLECTION BOX - BLUE BOX", "note": "ON 12/24 AND 12/31, THIS BOX MAY BE COLLECTED AS EARLY AS 12 NOON.", "nsi_id": "unitedstatespostalservice-a77078", "operator": "United States Postal Service", "operator:short": "USPS", "operator:type": "public", "operator:wikidata": "Q668687", "ref": "4761500000"}, "type": "Feature"}
{"dataset_attributes": {"@spider": "usps_collection_boxes", "spider:collection_time": "2023-10-28T08:22:24.083666"}, "geometry": {"coordinates": [-86.981046373, 37.932822671], "type": "Point"}, "id": "f6os-hcqvJJ--L-k4iKP-nGWs_g=", "properties": {"@spider": "usps_collection_boxes", "addr:city": "GRANDVIEW", "addr:country": "US", "addr:full": "302 MAIN ST", "addr:postcode": "47615", "addr:state": "IN", "amenity": "post_box", "brand": "United States Postal Service", "brand:wikidata": "Q668687", "collection_times": "Mo-Fr 16:00; Sa 11:00", "name": "USPS COLLECTION BOX - PO LOBBY", "note": "ON 12/24 AND 12/31, THIS BOX MAY BE COLLECTED AS EARLY AS 12 NOON.", "nsi_id": "unitedstatespostalservice-a77078", "operator": "United States Postal Service", "operator:short": "USPS", "operator:type": "public", "operator:wikidata": "Q668687", "ref": "4761500001"}, "type": "Feature"}
{"dataset_attributes": {"@spider": "usps_collection_boxes", "spider:collection_time": "2023-10-28T08:22:24.083666"}, "geometry": {"coordinates": [-86.981046373, 37.932822671], "type": "Point"}, "id": "FLWsmRaM60MfrDfYJ6Kd2PCmIf4=", "properties": {"@spider": "usps_collection_boxes", "addr:city": "GRANDVIEW", "addr:country": "US", "addr:full": "302 MAIN ST", "addr:postcode": "47615", "addr:state": "IN", "amenity": "post_box", "brand": "United States Postal Service", "brand:wikidata": "Q668687", "collection_times": "Mo-Fr 16:00; Sa 11:00", "name": "USPS COLLECTION BOX - PO LOBBY", "note": "ON 12/24 AND 12/31, THIS BOX MAY BE COLLECTED AS EARLY AS 12 NOON.", "nsi_id": "unitedstatespostalservice-a77078", "operator": "United States Postal Service", "operator:short": "USPS", "operator:type": "public", "operator:wikidata": "Q668687", "ref": "4761500003"}, "type": "Feature"}
{"dataset_attributes": {"@spider": "usps_collection_boxes", "spider:collection_time": "2023-10-28T08:22:24.083666"}, "geometry": {"coordinates": [-87.914657999, 38.201409388], "type": "Point"}, "id": "19hLaRDt7jR2yGqIAfvK6PYfjAQ=", "properties": {"@spider": "usps_collection_boxes", "addr:city": "GRIFFIN", "addr:country": "US", "addr:full": "224 S MAIN ST", "addr:postcode": "47616", "addr:state": "IN", "amenity": "post_box", "brand": "United States Postal Service", "brand:wikidata": "Q668687", "collection_times": "Mo-Fr 15:15; Sa 12:00", "name": "USPS COLLECTION BOX - BLUE BOX", "note": "ON 12/24 AND 12/31, THIS BOX MAY BE COLLECTED AS EARLY AS 12 NOON.", "nsi_id": "unitedstatespostalservice-a77078", "operator": "United States Postal Service", "operator:short": "USPS", "operator:type": "public", "operator:wikidata": "Q668687", "ref": "4761600000"}, "type": "Feature"}
{"dataset_attributes": {"@spider": "usps_collection_boxes", "spider:collection_time": "2023-10-28T08:22:24.083666"}, "geometry": {"coordinates": [-87.914657999, 38.201409388], "type": "Point"}, "id": "d42nK0fmBN5WHMhoU9hgUmNS6eo=", "properties": {"@spider": "usps_collection_boxes", "addr:city": "GRIFFIN", "addr:country": "US", "addr:full": "224 S MAIN ST", "addr:postcode": "47616", "addr:state": "IN", "amenity": "post_box", "brand": "United States Postal Service", "brand:wikidata": "Q668687", "collection_times": "Mo-Fr 15:15; Sa 12:00", "name": "USPS COLLECTION BOX - PO LOBBY", "note": "ON 12/24 AND 12/31, THIS BOX MAY BE COLLECTED AS EARLY AS 12 NOON.", "nsi_id": "unitedstatespostalservice-a77078", "operator": "United States Postal Service", "operator:short": "USPS", "operator:type": "public", "operator:wikidata": "Q668687", "ref": "4761600001"}, "type": "Feature"}
{"dataset_attributes": {"@spider": "usps_collection_boxes", "spider:collection_time": "2023-10-28T08:22:24.083666"}, "geometry": {"coordinates": [-87.914657999, 38.201409388], "type": "Point"}, "id": "6D6MHR3wwd9w7aPraXcqZVvriQg=", "properties": {"@spider": "usps_collection_boxes", "addr:city": "GRIFFIN", "addr:country": "US", "addr:full": "224 S MAIN ST", "addr:postcode": "47616", "addr:state": "IN", "amenity": "post_box", "brand": "United States Postal Service", "brand:wikidata": "Q668687", "collection_times": "Mo-Fr 15:30; Sa 12:00", "name": "USPS COLLECTION BOX - PO LOBBY", "note": "ON 12/24 AND 12/31, THIS BOX MAY BE COLLECTED AS EARLY AS 12 NOON.", "nsi_id": "unitedstatespostalservice-a77078", "operator": "United States Postal Service", "operator:short": "USPS", "operator:type": "public", "operator:wikidata": "Q668687", "ref": "4761600003"}, "type": "Feature"}
{"dataset_attributes": {"@spider": "usps_collection_boxes", "spider:collection_time": "2023-10-28T08:22:24.083666"}, "geometry": {"coordinates": [-87.22796789, 37.903319559], "type": "Point"}, "id": "3jic7qWz21GZoikGtWxNQhZzIhI=", "properties": {"@spider": "usps_collection_boxes", "addr:city": "HATFIELD", "addr:country": "US", "addr:full": "9129 W OLD STATE ROAD 66", "addr:postcode": "47617", "addr:state": "IN", "amenity": "post_box", "brand": "United States Postal Service", "brand:wikidata": "Q668687", "collection_times": "Mo-Fr 15:15; Sa 12:15", "name": "USPS COLLECTION BOX - BLUE BOX", "note": "ON 12/24 AND 12/31, THIS BOX MAY BE COLLECTED AS EARLY AS 12 NOON.", "nsi_id": "unitedstatespostalservice-a77078", "operator": "United States Postal Service", "operator:short": "USPS", "operator:type": "public", "operator:wikidata": "Q668687", "ref": "4761700000"}, "type": "Feature"}
{"dataset_attributes": {"@spider": "usps_collection_boxes", "spider:collection_time": "2023-10-28T08:22:24.083666"}, "geometry": {"coordinates": [-87.22796789, 37.903319559], "type": "Point"}, "id": "0zwDqf4w3el8M3Kg8LGC8WVTk74=", "properties": {"@spider": "usps_collection_boxes", "addr:city": "HATFIELD", "addr:country": "US", "addr:full": "9129 W OLD STATE ROAD 66", "addr:postcode": "47617", "addr:state": "IN", "amenity": "post_box", "brand": "United States Postal Service", "brand:wikidata": "Q668687", "collection_times": "Mo-Fr 15:15; Sa 12:15", "name": "USPS COLLECTION BOX - PO LOBBY", "note": "ON 12/24 AND 12/31, THIS BOX MAY BE COLLECTED AS EARLY AS 12 NOON.", "nsi_id": "unitedstatespostalservice-a77078", "operator": "United States Postal Service", "operator:short": "USPS", "operator:type": "public", "operator:wikidata": "Q668687", "ref": "4761700001"}, "type": "Feature"}
{"dataset_attributes": {"@spider": "usps_collection_boxes", "spider:collection_time": "2023-10-28T08:22:24.083666"}, "geometry": {"coordinates": [-87.22796789, 37.903319559], "type": "Point"}, "id": "5BcAMGsZmxXAONeMpwIe5ngJkSM=", "properties": {"@spider": "usps_collection_boxes", "addr:city": "HATFIELD", "addr:country": "US", "addr:full": "9129 W OLD STATE ROAD 66", "addr:postcode": "47617", "addr:state": "IN", "amenity": "post_box", "brand": "United States Postal Service", "brand:wikidata": "Q668687", "collection_times": "Mo-Fr 15:30; Sa 11:00", "name": "USPS COLLECTION BOX - PO LOBBY", "note": "ON 12/24 AND 12/31, THIS BOX MAY BE COLLECTED AS EARLY AS 12 NOON.", "nsi_id": "unitedstatespostalservice-a77078", "operator": "United States Postal Service", "operator:short": "USPS", "operator:type": "public", "operator:wikidata": "Q668687", "ref": "4761700003"}, "type": "Feature"}
{"dataset_attributes": {"@spider": "usps_collection_boxes", "spider:collection_time": "2023-10-28T08:22:24.083666"}, "geometry": {"coordinates": [-87.579456259, 38.098600367], "type": "Point"}, "id": "a6RnFSpLhSBEt3zFbunxkkEKdTg=", "properties": {"@spider": "usps_collection_boxes", "addr:city": "INGLEFIELD", "addr:country": "US", "addr:full": "13200 DARMSTADT RD", "addr:postcode": "47618", "addr:state": "IN", "amenity": "post_box", "brand": "United States Postal Service", "brand:wikidata": "Q668687", "collection_times": "Mo-Fr 16:00; Sa 10:30", "name": "USPS COLLECTION BOX - BLUE BOX", "note": "ON 12/24 AND 12/31, THIS BOX MAY BE COLLECTED AS EARLY AS 12 NOON.", "nsi_id": "unitedstatespostalservice-a77078", "operator": "United States Postal Service", "operator:short": "USPS", "operator:type": "public", "operator:wikidata": "Q668687", "ref": "4761800000"}, "type": "Feature"}
{"dataset_attributes": {"@spider": "usps_collection_boxes", "spider:collection_time": "2023-10-28T08:22:24.083666"}, "geometry": {"coordinates": [-87.579456259, 38.098600367], "type": "Point"}, "id": "uPFZm2q23X04RzGV-r7qL3RKCYo=", "properties": {"@spider": "usps_collection_boxes", "addr:city": "INGLEFIELD", "addr:country": "US", "addr:full": "13200 DARMSTADT RD", "addr:postcode": "47618", "addr:state": "IN", "amenity": "post_box", "brand": "United States Postal Service", "brand:wikidata": "Q668687", "collection_times": "Mo-Fr 16:00; Sa 10:30", "name": "USPS COLLECTION BOX - PO LOBBY", "note": "ON 12/24 AND 12/31, THIS BOX MAY BE COLLECTED AS EARLY AS 12 NOON.", "nsi_id": "unitedstatespostalservice-a77078", "operator": "United States Postal Service", "operator:short": "USPS", "operator:type": "public", "operator:wikidata": "Q668687", "ref": "4761800001"}, "type": "Feature"}
{"dataset_attributes": {"@spider": "usps_collection_boxes", "spider:collection_time": "2023-10-28T08:22:24.083666"}, "geometry": {"coordinates": [-87.579456259, 38.098600367], "type": "Point"}, "id": "jpRiJFVn0P8lrxsgD2rL1qDWdLY=", "properties": {"@spider": "usps_collection_boxes", "addr:city": "INGLEFIELD", "addr:country": "US", "addr:full": "13200 DARMSTADT RD", "addr:postcode": "47618", "addr:state": "IN", "amenity": "post_box", "brand": "United States Postal Service", "brand:wikidata": "Q668687", "collection_times": "Mo-Fr 16:00; Sa 10:30", "name": "USPS COLLECTION BOX - PO LOBBY", "note": "ON 12/24 AND 12/31, THIS BOX MAY BE COLLECTED AS EARLY AS 12 NOON.", "nsi_id": "unitedstatespostalservice-a77078", "operator": "United States Postal Service", "operator:short": "USPS", "operator:type": "public", "operator:wikidata": "Q668687", "ref": "4761800003"}, "type": "Feature"}
{"dataset_attributes": {"@spider": "usps_collection_boxes", "spider:collection_time": "2023-10-28T08:22:24.083666"}, "geometry": {"coordinates": [-87.297517395, 38.19769267], "type": "Point"}, "id": "VdUZ1khBSnARFIMVjj9dA41apVU=", "properties": {"@spider": "usps_collection_boxes", "addr:city": "LYNNVILLE", "addr:country": "US", "addr:full": "216 N MAIN ST", "addr:postcode": "47619", "addr:state": "IN", "amenity": "post_box", "brand": "United States Postal Service", "brand:wikidata": "Q668687", "collection_times": "Mo-Fr 15:30; Sa 11:00", "name": "USPS COLLECTION BOX - BLUE BOX", "note": "ON 12/24 AND 12/31, THIS BOX MAY BE COLLECTED AS EARLY AS 12 NOON.", "nsi_id": "unitedstatespostalservice-a77078", "operator": "United States Postal Service", "operator:short": "USPS", "operator:type": "public", "operator:wikidata": "Q668687", "ref": "4761900000"}, "type": "Feature"}
{"dataset_attributes": {"@spider": "usps_collection_boxes", "spider:collection_time": "2023-10-28T08:22:24.083666"}, "geometry": {"coordinates": [-87.297517395, 38.19769267], "type": "Point"}, "id": "F_HZjPVrbhm5an9ygk0sv-cmW5U=", "properties": {"@spider": "usps_collection_boxes", "addr:city": "LYNNVILLE", "addr:country": "US", "addr:full": "216 N MAIN ST", "addr:postcode": "47619", "addr:state": "IN", "amenity": "post_box", "brand": "United States Postal Service", "brand:wikidata": "Q668687", "collection_times": "Mo-Fr 15:45; Sa 11:00", "name": "USPS COLLECTION BOX - PO LOBBY", "note": "ON 12/24 AND 12/31, THIS BOX MAY BE COLLECTED AS EARLY AS 12 NOON.", "nsi_id": "unitedstatespostalservice-a77078", "operator": "United States Postal Service", "operator:short": "USPS", "operator:type": "public", "operator:wikidata": "Q668687", "ref": "4761900001"}, "type": "Feature"}
{"dataset_attributes": {"@spider": "usps_collection_boxes", "spider:collection_time": "2023-10-28T08:22:24.083666"}, "geometry": {"coordinates": [-87.297517395, 38.19769267], "type": "Point"}, "id": "SafzuFG2fVKWNJVYZoP-V-81cfU=", "properties": {"@spider": "usps_collection_boxes", "addr:city": "LYNNVILLE", "addr:country": "US", "addr:full": "216 N MAIN ST", "addr:postcode": "47619", "addr:state": "IN", "amenity": "post_box", "brand": "United States Postal Service", "brand:wikidata": "Q668687", "collection_times": "Mo-Fr 16:00; Sa 11:00", "name": "USPS COLLECTION BOX - PO LOBBY", "note": "ON 12/24 AND 12/31, THIS BOX MAY BE COLLECTED AS EARLY AS 12 NOON.", "nsi_id": "unitedstatespostalservice-a77078", "operator": "United States Postal Service", "operator:short": "USPS", "operator:type": "public", "operator:wikidata": "Q668687", "ref": "4761900003"}, "type": "Feature"}
{"dataset_attributes": {"@spider": "usps_collection_boxes", "spider:collection_time": "2023-10-28T08:22:24.083666"}, "geometry": {"coordinates": [-87.894036, 37.93168], "type": "Point"}, "id": "N2LRP4JHb8S0ewfMSNbNLfALeuk=", "properties": {"@spider": "usps_collection_boxes", "addr:city": "MT VERNON", "addr:country": "US", "addr:full": "308 WALNUT ST", "addr:postcode": "47620", "addr:state": "IN", "amenity": "post_box", "brand": "United States Postal Service", "brand:wikidata": "Q668687", "collection_times": "Mo-Fr 16:30; Sa 15:15", "name": "USPS COLLECTION BOX - BLUE BOX", "note": "ON 12/24 AND 12/31, THIS BOX MAY BE COLLECTED AS EARLY AS 12 NOON.", "nsi_id": "unitedstatespostalservice-a77078", "operator": "United States Postal Service", "operator:short": "USPS", "operator:type": "public", "operator:wikidata": "Q668687", "ref": "4762000000"}, "type": "Feature"}
{"dataset_attributes": {"@spider": "usps_collection_boxes", "spider:collection_time": "2023-10-28T08:22:24.083666"}, "geometry": {"coordinates": [-87.894039, 37.931601], "type": "Point"}, "id": "6mShTytAInUdhnVRSjvQFKXJFhg=", "properties": {"@spider": "usps_collection_boxes", "addr:city": "MT VERNON", "addr:country": "US", "addr:full": "308 WALNUT ST", "addr:postcode": "47620", "addr:state": "IN", "amenity": "post_box", "brand": "United States Postal Service", "brand:wikidata": "Q668687", "collection_times": "Mo-Fr 16:30; Sa 15:15", "name": "USPS COLLECTION BOX - PO LOBBY", "note": "ON 12/24 AND 12/31, THIS BOX MAY BE COLLECTED AS EARLY AS 12 NOON.", "nsi_id": "unitedstatespostalservice-a77078", "operator": "United States Postal Service", "operator:short": "USPS", "operator:type": "public", "operator:wikidata": "Q668687", "ref": "4762000001"}, "type": "Feature"}
{"dataset_attributes": {"@spider": "usps_collection_boxes", "spider:collection_time": "2023-10-28T08:22:24.083666"}, "geometry": {"coordinates": [-87.894039, 37.931601], "type": "Point"}, "id": "HmcDcIu9BfZBaBh-3fDZISlkwY8=", "properties": {"@spider": "usps_collection_boxes", "addr:city": "MT VERNON", "addr:country": "US", "addr:full": "308 WALNUT ST", "addr:postcode": "47620", "addr:state": "IN", "amenity": "post_box", "brand": "United States Postal Service", "brand:wikidata": "Q668687", "collection_times": "Mo-Fr 16:30; Sa 15:15", "name": "USPS COLLECTION BOX - BLUE BOX", "note": "ON 12/24 AND 12/31, THIS BOX MAY BE COLLECTED AS EARLY AS 12 NOON.", "nsi_id": "unitedstatespostalservice-a77078", "operator": "United States Postal Service", "operator:short": "USPS", "operator:type": "public", "operator:wikidata": "Q668687", "ref": "4762000002"}, "type": "Feature"}
{"dataset_attributes": {"@spider": "usps_collection_boxes", "spider:collection_time": "2023-10-28T08:22:24.083666"}, "geometry": {"coordinates": [-87.8971647, 37.941786], "type": "Point"}, "id": "kDzzVLIKv-VdO9C2rSjY_AI6wrI=", "properties": {"@spider": "usps_collection_boxes", "addr:city": "MT VERNON", "addr:country": "US", "addr:full": "1320 MAIN ST", "addr:postcode": "47620", "addr:state": "IN", "amenity": "post_box", "brand": "United States Postal Service", "brand:wikidata": "Q668687", "collection_times": "Mo-Sa 12:00", "name": "USPS COLLECTION BOX - BLUE BOX", "nsi_id": "unitedstatespostalservice-a77078", "operator": "United States Postal Service", "operator:short": "USPS", "operator:type": "public", "operator:wikidata": "Q668687", "ref": "4762000009"}, "type": "Feature"}
{"dataset_attributes": {"@spider": "usps_collection_boxes", "spider:collection_time": "2023-10-28T08:22:24.083666"}, "geometry": {"coordinates": [-87.8940314903, 37.9316526495], "type": "Point"}, "id": "WomiLqa5hxZpBKFH_RiiNnVwJ8M=", "properties": {"@spider": "usps_collection_boxes", "addr:city": "MT VERNON", "addr:country": "US", "addr:full": "308 WALNUT ST", "addr:postcode": "47620", "addr:state": "IN", "amenity": "post_box", "brand": "United States Postal Service", "brand:wikidata": "Q668687", "collection_times": "Mo-Fr 16:30; Sa 12:00", "name": "USPS COLLECTION BOX - PO LOBBY", "note": "ON 12/24 AND 12/31, THIS BOX MAY BE COLLECTED AS EARLY AS 12 NOON.", "nsi_id": "unitedstatespostalservice-a77078", "operator": "United States Postal Service", "operator:short": "USPS", "operator:type": "public", "operator:wikidata": "Q668687", "ref": "4762000015"}, "type": "Feature"}
{"dataset_attributes": {"@spider": "usps_collection_boxes", "spider:collection_time": "2023-10-28T08:22:24.083666"}, "geometry": {"coordinates": [-87.4430782, 37.95451], "type": "Point"}, "id": "eQcm3FlH3Rmfe5RWe4FdYwZ7Vq0=", "properties": {"@spider": "usps_collection_boxes", "addr:city": "NEWBURGH", "addr:country": "US", "addr:full": "10588 W HIGHWAY 662", "addr:postcode": "47630", "addr:state": "IN", "amenity": "post_box", "brand": "United States Postal Service", "brand:wikidata": "Q668687", "collection_times": "Mo-Sa 10:00", "name": "USPS COLLECTION BOX - BLUE BOX", "nsi_id": "unitedstatespostalservice-a77078", "operator": "United States Postal Service", "operator:short": "USPS", "operator:type": "public", "operator:wikidata": "Q668687", "ref": "4763000005"}, "type": "Feature"}
{"dataset_attributes": {"@spider": "usps_collection_boxes", "spider:collection_time": "2023-10-28T08:22:24.083666"}, "geometry": {"coordinates": [-87.4031318, 37.974992], "type": "Point"}, "id": "JPSNRlMW33rTt5ZJENgh93HJAFo=", "properties": {"@spider": "usps_collection_boxes", "addr:city": "NEWBURGH", "addr:country": "US", "addr:full": "8437 BELL OAKS DR", "addr:postcode": "47630", "addr:state": "IN", "amenity": "post_box", "brand": "United States Postal Service", "brand:wikidata": "Q668687", "collection_times": "Mo-Sa 10:00", "name": "USPS COLLECTION BOX - BLUE BOX", "nsi_id": "unitedstatespostalservice-a77078", "operator": "United States Postal Service", "operator:short": "USPS", "operator:type": "public", "operator:wikidata": "Q668687", "ref": "4763000006"}, "type": "Feature"}
{"dataset_attributes": {"@spider": "usps_collection_boxes", "spider:collection_time": "2023-10-28T08:22:24.083666"}, "geometry": {"coordinates": [-87.40361424, 37.95644376], "type": "Point"}, "id": "ZuwYUSFzyOHqah--iIFASAX6lRs=", "properties": {"@spider": "usps_collection_boxes", "addr:city": "NEWBURGH", "addr:country": "US", "addr:full": "5411 STATE ROUTE 261", "addr:postcode": "47630", "addr:state": "IN", "amenity": "post_box", "brand": "United States Postal Service", "brand:wikidata": "Q668687", "collection_times": "Mo-Fr 16:45; Sa 16:30", "name": "USPS COLLECTION BOX - PO LOBBY", "note": "ON 12/24 AND 12/31, THIS BOX MAY BE COLLECTED AS EARLY AS 12 NOON.", "nsi_id": "unitedstatespostalservice-a77078", "operator": "United States Postal Service", "operator:short": "USPS", "operator:type": "public", "operator:wikidata": "Q668687", "ref": "4763000007"}, "type": "Feature"}
{"dataset_attributes": {"@spider": "usps_collection_boxes", "spider:collection_time": "2023-10-28T08:22:24.083666"}, "geometry": {"coordinates": [-87.40361424, 37.95644376], "type": "Point"}, "id": "9gakDuuKJe0LIXkJ-_lkjI4NnwU=", "properties": {"@spider": "usps_collection_boxes", "addr:city": "NEWBURGH", "addr:country": "US", "addr:full": "5411 STATE ROUTE 261", "addr:postcode": "47630", "addr:state": "IN", "amenity": "post_box", "brand": "United States Postal Service", "brand:wikidata": "Q668687", "collection_times": "Mo-Fr 16:45; Sa 16:30", "name": "USPS COLLECTION BOX - BLUE BOX", "note": "ON 12/24 AND 12/31, THIS BOX MAY BE COLLECTED AS EARLY AS 12 NOON.", "nsi_id": "unitedstatespostalservice-a77078", "operator": "United States Postal Service", "operator:short": "USPS", "operator:type": "public", "operator:wikidata": "Q668687", "ref": "4763000008"}, "type": "Feature"}
{"dataset_attributes": {"@spider": "usps_collection_boxes", "spider:collection_time": "2023-10-28T08:22:24.083666"}, "geometry": {"coordinates": [-87.4368386, 37.948326], "type": "Point"}, "id": "nDL5RmY5Mi0e4T7IQJ-hpXWmg9M=", "properties": {"@spider": "usps_collection_boxes", "addr:city": "NEWBURGH", "addr:country": "US", "addr:full": "5900 KREAGER LN", "addr:postcode": "47630", "addr:state": "IN", "amenity": "post_box", "brand": "United States Postal Service", "brand:wikidata": "Q668687", "collection_times": "Mo-Sa 10:00", "name": "USPS COLLECTION BOX - BLUE BOX", "nsi_id": "unitedstatespostalservice-a77078", "operator": "United States Postal Service", "operator:short": "USPS", "operator:type": "public", "operator:wikidata": "Q668687", "ref": "4763000012"}, "type": "Feature"}
{"dataset_attributes": {"@spider": "usps_collection_boxes", "spider:collection_time": "2023-10-28T08:22:24.083666"}, "geometry": {"coordinates": [-87.40361424, 37.95644376], "type": "Point"}, "id": "wsxXd2JC5Q9tIn-vB3qSKm-0hNo=", "properties": {"@spider": "usps_collection_boxes", "addr:city": "NEWBURGH", "addr:country": "US", "addr:full": "5411 STATE ROUTE 261", "addr:postcode": "47630", "addr:state": "IN", "amenity": "post_box", "brand": "United States Postal Service", "brand:wikidata": "Q668687", "collection_times": "Mo-Fr 16:45; Sa 16:30", "name": "USPS COLLECTION BOX - APC", "note": "ON 12/24 AND 12/31, THIS BOX MAY BE COLLECTED AS EARLY AS 12 NOON.", "nsi_id": "unitedstatespostalservice-a77078", "operator": "United States Postal Service", "operator:short": "USPS", "operator:type": "public", "operator:wikidata": "Q668687", "ref": "4763000014"}, "type": "Feature"}
{"dataset_attributes": {"@spider": "usps_collection_boxes", "spider:collection_time": "2023-10-28T08:22:24.083666"}, "geometry": {"coordinates": [-87.40361424, 37.95644376], "type": "Point"}, "id": "7kvh6xGIl5CdGLhoOvlw3SIT694=", "properties": {"@spider": "usps_collection_boxes", "addr:city": "NEWBURGH", "addr:country": "US", "addr:full": "5411 STATE ROUTE 261", "addr:postcode": "47630", "addr:state": "IN", "amenity": "post_box", "brand": "United States Postal Service", "brand:wikidata": "Q668687", "collection_times": "Mo-Fr 16:30; Sa 12:30", "name": "USPS COLLECTION BOX - PO LOBBY", "note": "ON 12/24 AND 12/31, THIS BOX MAY BE COLLECTED AS EARLY AS 12 NOON.", "nsi_id": "unitedstatespostalservice-a77078", "operator": "United States Postal Service", "operator:short": "USPS", "operator:type": "public", "operator:wikidata": "Q668687", "ref": "4763000017"}, "type": "Feature"}
{"dataset_attributes": {"@spider": "usps_collection_boxes", "spider:collection_time": "2023-10-28T08:22:24.083666"}, "geometry": {"coordinates": [-87.9344235, 38.129835457], "type": "Point"}, "id": "r-bIdLARrgWHCbHfFCqK17NhjBE=", "properties": {"@spider": "usps_collection_boxes", "addr:city": "NEW HARMONY", "addr:country": "US", "addr:full": "534 CHURCH ST", "addr:postcode": "47631", "addr:state": "IN", "amenity": "post_box", "brand": "United States Postal Service", "brand:wikidata": "Q668687", "collection_times": "Mo-Fr 15:45; Sa 11:00", "name": "USPS COLLECTION BOX - PO LOBBY", "note": "ON 12/24 AND 12/31, THIS BOX MAY BE COLLECTED AS EARLY AS 12 NOON.", "nsi_id": "unitedstatespostalservice-a77078", "operator": "United States Postal Service", "operator:short": "USPS", "operator:type": "public", "operator:wikidata": "Q668687", "ref": "4763100001"}, "type": "Feature"}
{"dataset_attributes": {"@spider": "usps_collection_boxes", "spider:collection_time": "2023-10-28T08:22:24.083666"}, "geometry": {"coordinates": [-87.9344235, 38.129835457], "type": "Point"}, "id": "IPnNweTlr8r7MtfEzhzldTBNuJM=", "properties": {"@spider": "usps_collection_boxes", "addr:city": "NEW HARMONY", "addr:country": "US", "addr:full": "534 CHURCH ST", "addr:postcode": "47631", "addr:state": "IN", "amenity": "post_box", "brand": "United States Postal Service", "brand:wikidata": "Q668687", "collection_times": "Mo-Fr 15:45; Sa 11:00", "name": "USPS COLLECTION BOX - BLUE BOX", "note": "ON 12/24 AND 12/31, THIS BOX MAY BE COLLECTED AS EARLY AS 12 NOON.", "nsi_id": "unitedstatespostalservice-a77078", "operator": "United States Postal Service", "operator:short": "USPS", "operator:type": "public", "operator:wikidata": "Q668687", "ref": "4763100002"}, "type": "Feature"}
{"dataset_attributes": {"@spider": "usps_collection_boxes", "spider:collection_time": "2023-10-28T08:22:24.083666"}, "geometry": {"coordinates": [-87.9344235, 38.129835457], "type": "Point"}, "id": "sk5yn5dht9bbv-oltjqzaEXQ0uk=", "properties": {"@spider": "usps_collection_boxes", "addr:city": "NEW HARMONY", "addr:country": "US", "addr:full": "534 CHURCH ST", "addr:postcode": "47631", "addr:state": "IN", "amenity": "post_box", "brand": "United States Postal Service", "brand:wikidata": "Q668687", "collection_times": "Mo-Fr 16:00; Sa 11:30", "name": "USPS COLLECTION BOX - PO LOBBY", "note": "ON 12/24 AND 12/31, THIS BOX MAY BE COLLECTED AS EARLY AS 12 NOON.", "nsi_id": "unitedstatespostalservice-a77078", "operator": "United States Postal Service", "operator:short": "USPS", "operator:type": "public", "operator:wikidata": "Q668687", "ref": "4763100004"}, "type": "Feature"}
{"dataset_attributes": {"@spider": "usps_collection_boxes", "spider:collection_time": "2023-10-28T08:22:24.083666"}, "geometry": {"coordinates": [-87.784098435, 38.168675612], "type": "Point"}, "id": "t5wdz_yGeJ7IUJEd_SvSijYh9q8=", "properties": {"@spider": "usps_collection_boxes", "addr:city": "POSEYVILLE", "addr:country": "US", "addr:full": "41 S LOCUST ST", "addr:postcode": "47633", "addr:state": "IN", "amenity": "post_box", "brand": "United States Postal Service", "brand:wikidata": "Q668687", "collection_times": "Mo-Fr 15:30; Sa 11:00", "name": "USPS COLLECTION BOX - BLUE BOX", "note": "ON 12/24 AND 12/31, THIS BOX MAY BE COLLECTED AS EARLY AS 12 NOON.", "nsi_id": "unitedstatespostalservice-a77078", "operator": "United States Postal Service", "operator:short": "USPS", "operator:type": "public", "operator:wikidata": "Q668687", "ref": "4763300000"}, "type": "Feature"}
{"dataset_attributes": {"@spider": "usps_collection_boxes", "spider:collection_time": "2023-10-28T08:22:24.083666"}, "geometry": {"coordinates": [-87.784098435, 38.168675612], "type": "Point"}, "id": "TurItZ6m3mW6LTPWw8HEYDJFHPc=", "properties": {"@spider": "usps_collection_boxes", "addr:city": "POSEYVILLE", "addr:country": "US", "addr:full": "41 S LOCUST ST", "addr:postcode": "47633", "addr:state": "IN", "amenity": "post_box", "brand": "United States Postal Service", "brand:wikidata": "Q668687", "collection_times": "Mo-Fr 15:30; Sa 11:00", "name": "USPS COLLECTION BOX - PO LOBBY", "note": "ON 12/24 AND 12/31, THIS BOX MAY BE COLLECTED AS EARLY AS 12 NOON.", "nsi_id": "unitedstatespostalservice-a77078", "operator": "United States Postal Service", "operator:short": "USPS", "operator:type": "public", "operator:wikidata": "Q668687", "ref": "4763300001"}, "type": "Feature"}
{"dataset_attributes": {"@spider": "usps_collection_boxes", "spider:collection_time": "2023-10-28T08:22:24.083666"}, "geometry": {"coordinates": [-87.784098435, 38.168675612], "type": "Point"}, "id": "PVSqYp71arUafchSulAdehgv9ws=", "properties": {"@spider": "usps_collection_boxes", "addr:city": "POSEYVILLE", "addr:country": "US", "addr:full": "41 S LOCUST ST", "addr:postcode": "47633", "addr:state": "IN", "amenity": "post_box", "brand": "United States Postal Service", "brand:wikidata": "Q668687", "collection_times": "Mo-Fr 16:00; Sa 11:00", "name": "USPS COLLECTION BOX - PO LOBBY", "note": "ON 12/24 AND 12/31, THIS BOX MAY BE COLLECTED AS EARLY AS 12 NOON.", "nsi_id": "unitedstatespostalservice-a77078", "operator": "United States Postal Service", "operator:short": "USPS", "operator:type": "public", "operator:wikidata": "Q668687", "ref": "4763300003"}, "type": "Feature"}
{"dataset_attributes": {"@spider": "usps_collection_boxes", "spider:collection_time": "2023-10-28T08:22:24.083666"}, "geometry": {"coordinates": [-87.168458627, 37.947492335], "type": "Point"}, "id": "BdtsQsvalref9mUAHV-eu8c7ecg=", "properties": {"@spider": "usps_collection_boxes", "addr:city": "RICHLAND", "addr:country": "US", "addr:full": "4143 N STATE ROAD 161", "addr:postcode": "47634", "addr:state": "IN", "amenity": "post_box", "brand": "United States Postal Service", "brand:wikidata": "Q668687", "collection_times": "Mo-Fr 15:15; Sa 10:45", "name": "USPS COLLECTION BOX - BLUE BOX", "note": "ON 12/24 AND 12/31, THIS BOX MAY BE COLLECTED AS EARLY AS 12 NOON.", "nsi_id": "unitedstatespostalservice-a77078", "operator": "United States Postal Service", "operator:short": "USPS", "operator:type": "public", "operator:wikidata": "Q668687", "ref": "4763400000"}, "type": "Feature"}
{"dataset_attributes": {"@spider": "usps_collection_boxes", "spider:collection_time": "2023-10-28T08:22:24.083666"}, "geometry": {"coordinates": [-87.168458627, 37.947492335], "type": "Point"}, "id": "7MFZIt0-aDy8rJ58nD8XFYl5te4=", "properties": {"@spider": "usps_collection_boxes", "addr:city": "RICHLAND", "addr:country": "US", "addr:full": "4143 N STATE ROAD 161", "addr:postcode": "47634", "addr:state": "IN", "amenity": "post_box", "brand": "United States Postal Service", "brand:wikidata": "Q668687", "collection_times": "Mo-Fr 15:15; Sa 11:00", "name": "USPS COLLECTION BOX - PO LOBBY", "note": "ON 12/24 AND 12/31, THIS BOX MAY BE COLLECTED AS EARLY AS 12 NOON.", "nsi_id": "unitedstatespostalservice-a77078", "operator": "United States Postal Service", "operator:short": "USPS", "operator:type": "public", "operator:wikidata": "Q668687", "ref": "4763400001"}, "type": "Feature"}
{"dataset_attributes": {"@spider": "usps_collection_boxes", "spider:collection_time": "2023-10-28T08:22:24.083666"}, "geometry": {"coordinates": [-87.168458627, 37.947492335], "type": "Point"}, "id": "vBhtSPSdIj7x5KP_4tkWbLBQPUQ=", "properties": {"@spider": "usps_collection_boxes", "addr:city": "RICHLAND", "addr:country": "US", "addr:full": "4143 N STATE ROAD 161", "addr:postcode": "47634", "addr:state": "IN", "amenity": "post_box", "brand": "United States Postal Service", "brand:wikidata": "Q668687", "collection_times": "Mo-Fr 15:15; Sa 11:00", "name": "USPS COLLECTION BOX - PO LOBBY", "note": "ON 12/24 AND 12/31, THIS BOX MAY BE COLLECTED AS EARLY AS 12 NOON.", "nsi_id": "unitedstatespostalservice-a77078", "operator": "United States Postal Service", "operator:short": "USPS", "operator:type": "public", "operator:wikidata": "Q668687", "ref": "4763400003"}, "type": "Feature"}
{"dataset_attributes": {"@spider": "usps_collection_boxes", "spider:collection_time": "2023-10-28T08:22:24.083666"}, "geometry": {"coordinates": [-87.049468218, 37.883906749], "type": "Point"}, "id": "mBmyTMbbUsxbSQnFsv8SlSGP8NE=", "properties": {"@spider": "usps_collection_boxes", "addr:city": "ROCKPORT", "addr:country": "US", "addr:full": "115 N 5TH ST", "addr:postcode": "47635", "addr:state": "IN", "amenity": "post_box", "brand": "United States Postal Service", "brand:wikidata": "Q668687", "collection_times": "Mo-Sa 16:00", "name": "USPS COLLECTION BOX - BLUE BOX", "note": "ON 12/24 AND 12/31, THIS BOX MAY BE COLLECTED AS EARLY AS 12 NOON.", "nsi_id": "unitedstatespostalservice-a77078", "operator": "United States Postal Service", "operator:short": "USPS", "operator:type": "public", "operator:wikidata": "Q668687", "ref": "4763500000"}, "type": "Feature"}
{"dataset_attributes": {"@spider": "usps_collection_boxes", "spider:collection_time": "2023-10-28T08:22:24.083666"}, "geometry": {"coordinates": [-87.049468218, 37.883906749], "type": "Point"}, "id": "7OT8K2HDQwXTYL09oGD3MhAuVco=", "properties": {"@spider": "usps_collection_boxes", "addr:city": "ROCKPORT", "addr:country": "US", "addr:full": "115 N 5TH ST", "addr:postcode": "47635", "addr:state": "IN", "amenity": "post_box", "brand": "United States Postal Service", "brand:wikidata": "Q668687", "collection_times": "Mo-Sa 16:00", "name": "USPS COLLECTION BOX - PO LOBBY", "note": "ON 12/24 AND 12/31, THIS BOX MAY BE COLLECTED AS EARLY AS 12 NOON.", "nsi_id": "unitedstatespostalservice-a77078", "operator": "United States Postal Service", "operator:short": "USPS", "operator:type": "public", "operator:wikidata": "Q668687", "ref": "4763500006"}, "type": "Feature"}
{"dataset_attributes": {"@spider": "usps_collection_boxes", "spider:collection_time": "2023-10-28T08:22:24.083666"}, "geometry": {"coordinates": [-87.049468218, 37.883906749], "type": "Point"}, "id": "vl_SpRG-l6njM3pBr4AkU0Z3fQ8=", "properties": {"@spider": "usps_collection_boxes", "addr:city": "ROCKPORT", "addr:country": "US", "addr:full": "115 N 5TH ST", "addr:postcode": "47635", "addr:state": "IN", "amenity": "post_box", "brand": "United States Postal Service", "brand:wikidata": "Q668687", "collection_times": "Mo-Fr 16:00; Sa 11:00", "name": "USPS COLLECTION BOX - PO LOBBY", "note": "ON 12/24 AND 12/31, THIS BOX MAY BE COLLECTED AS EARLY AS 12 NOON.", "nsi_id": "unitedstatespostalservice-a77078", "operator": "United States Postal Service", "operator:short": "USPS", "operator:type": "public", "operator:wikidata": "Q668687", "ref": "4763500010"}, "type": "Feature"}
{"dataset_attributes": {"@spider": "usps_collection_boxes", "spider:collection_time": "2023-10-28T08:22:24.083666"}, "geometry": {"coordinates": [-87.118357428, 38.082074172], "type": "Point"}, "id": "rMXPmxhA-hYaDs8l5Z9sN6CtC3U=", "properties": {"@spider": "usps_collection_boxes", "addr:city": "TENNYSON", "addr:country": "US", "addr:full": "124 S MAIN ST", "addr:postcode": "47637", "addr:state": "IN", "amenity": "post_box", "brand": "United States Postal Service", "brand:wikidata": "Q668687", "collection_times": "Mo-Fr 15:30; Sa 09:45", "name": "USPS COLLECTION BOX - PO LOBBY", "note": "ON 12/24 AND 12/31, THIS BOX MAY BE COLLECTED AS EARLY AS 12 NOON.", "nsi_id": "unitedstatespostalservice-a77078", "operator": "United States Postal Service", "operator:short": "USPS", "operator:type": "public", "operator:wikidata": "Q668687", "ref": "4763700000"}, "type": "Feature"}
{"dataset_attributes": {"@spider": "usps_collection_boxes", "spider:collection_time": "2023-10-28T08:22:24.083666"}, "geometry": {"coordinates": [-87.118357428, 38.082074172], "type": "Point"}, "id": "QCEky11KUXHoDolMFiZtcf7b1vM=", "properties": {"@spider": "usps_collection_boxes", "addr:city": "TENNYSON", "addr:country": "US", "addr:full": "124 S MAIN ST", "addr:postcode": "47637", "addr:state": "IN", "amenity": "post_box", "brand": "United States Postal Service", "brand:wikidata": "Q668687", "collection_times": "Mo-Fr 15:30; Sa 09:45", "name": "USPS COLLECTION BOX - BLUE BOX", "note": "ON 12/24 AND 12/31, THIS BOX MAY BE COLLECTED AS EARLY AS 12 NOON.", "nsi_id": "unitedstatespostalservice-a77078", "operator": "United States Postal Service", "operator:short": "USPS", "operator:type": "public", "operator:wikidata": "Q668687", "ref": "4763700001"}, "type": "Feature"}
{"dataset_attributes": {"@spider": "usps_collection_boxes", "spider:collection_time": "2023-10-28T08:22:24.083666"}, "geometry": {"coordinates": [-87.118357428, 38.082074172], "type": "Point"}, "id": "XwWeTKhFBWnykqLblLk01dJCwjQ=", "properties": {"@spider": "usps_collection_boxes", "addr:city": "TENNYSON", "addr:country": "US", "addr:full": "124 S MAIN ST", "addr:postcode": "47637", "addr:state": "IN", "amenity": "post_box", "brand": "United States Postal Service", "brand:wikidata": "Q668687", "collection_times": "Mo-Fr 15:30; Sa 09:45", "name": "USPS COLLECTION BOX - PO LOBBY", "note": "ON 12/24 AND 12/31, THIS BOX MAY BE COLLECTED AS EARLY AS 12 NOON.", "nsi_id": "unitedstatespostalservice-a77078", "operator": "United States Postal Service", "operator:short": "USPS", "operator:type": "public", "operator:wikidata": "Q668687", "ref": "4763700003"}, "type": "Feature"}
{"dataset_attributes": {"@spider": "usps_collection_boxes", "spider:collection_time": "2023-10-28T08:22:24.083666"}, "geometry": {"coordinates": [-87.785672059, 38.101971521], "type": "Point"}, "id": "09LDJuAjIi1K9kL2TMI6sJZJXds=", "properties": {"@spider": "usps_collection_boxes", "addr:city": "WADESVILLE", "addr:country": "US", "addr:full": "7255 MAIN ST", "addr:postcode": "47638", "addr:state": "IN", "amenity": "post_box", "brand": "United States Postal Service", "brand:wikidata": "Q668687", "collection_times": "Mo-Fr 15:45; Sa 10:45", "name": "USPS COLLECTION BOX - BLUE BOX", "note": "ON 12/24 AND 12/31, THIS BOX MAY BE COLLECTED AS EARLY AS 12 NOON.", "nsi_id": "unitedstatespostalservice-a77078", "operator": "United States Postal Service", "operator:short": "USPS", "operator:type": "public", "operator:wikidata": "Q668687", "ref": "4763800000"}, "type": "Feature"}
{"dataset_attributes": {"@spider": "usps_collection_boxes", "spider:collection_time": "2023-10-28T08:22:24.083666"}, "geometry": {"coordinates": [-87.785672059, 38.101971521], "type": "Point"}, "id": "59Ub0UDAxfFthxcvlkweUFINZuE=", "properties": {"@spider": "usps_collection_boxes", "addr:city": "WADESVILLE", "addr:country": "US", "addr:full": "7255 MAIN ST", "addr:postcode": "47638", "addr:state": "IN", "amenity": "post_box", "brand": "United States Postal Service", "brand:wikidata": "Q668687", "collection_times": "Mo-Fr 15:45; Sa 10:45", "name": "USPS COLLECTION BOX - PO LOBBY", "note": "ON 12/24 AND 12/31, THIS BOX MAY BE COLLECTED AS EARLY AS 12 NOON.", "nsi_id": "unitedstatespostalservice-a77078", "operator": "United States Postal Service", "operator:short": "USPS", "operator:type": "public", "operator:wikidata": "Q668687", "ref": "4763800001"}, "type": "Feature"}
{"dataset_attributes": {"@spider": "usps_collection_boxes", "spider:collection_time": "2023-10-28T08:22:24.083666"}, "geometry": {"coordinates": [-87.785672059, 38.101971521], "type": "Point"}, "id": "fwBvXaLJXCJoX0gUp7_mKDSqWyM=", "properties": {"@spider": "usps_collection_boxes", "addr:city": "WADESVILLE", "addr:country": "US", "addr:full": "7255 MAIN ST", "addr:postcode": "47638", "addr:state": "IN", "amenity": "post_box", "brand": "United States Postal Service", "brand:wikidata": "Q668687", "collection_times": "Mo-Fr 16:00; Sa 11:00", "name": "USPS COLLECTION BOX - PO LOBBY", "note": "ON 12/24 AND 12/31, THIS BOX MAY BE COLLECTED AS EARLY AS 12 NOON.", "nsi_id": "unitedstatespostalservice-a77078", "operator": "United States Postal Service", "operator:short": "USPS", "operator:type": "public", "operator:wikidata": "Q668687", "ref": "4763800003"}, "type": "Feature"}
{"dataset_attributes": {"@spider": "usps_collection_boxes", "spider:collection_time": "2023-10-28T08:22:24.083666"}, "geometry": {"coordinates": [-87.574993114, 38.203863421], "type": "Point"}, "id": "vgHabZNA4rTTszj004IgXPvlnFE=", "properties": {"@spider": "usps_collection_boxes", "addr:city": "HAUBSTADT", "addr:country": "US", "addr:full": "107 W HAUB ST", "addr:postcode": "47639", "addr:state": "IN", "amenity": "post_box", "brand": "United States Postal Service", "brand:wikidata": "Q668687", "collection_times": "Mo-Fr 15:45; Sa 10:45", "name": "USPS COLLECTION BOX - BLUE BOX", "note": "ON 12/24 AND 12/31, THIS BOX MAY BE COLLECTED AS EARLY AS 12 NOON.", "nsi_id": "unitedstatespostalservice-a77078", "operator": "United States Postal Service", "operator:short": "USPS", "operator:type": "public", "operator:wikidata": "Q668687", "ref": "4763900000"}, "type": "Feature"}
{"dataset_attributes": {"@spider": "usps_collection_boxes", "spider:collection_time": "2023-10-28T08:22:24.083666"}, "geometry": {"coordinates": [-87.574993114, 38.203863421], "type": "Point"}, "id": "F2k28Q6r2ACfngkhn33BBjGTHqo=", "properties": {"@spider": "usps_collection_boxes", "addr:city": "HAUBSTADT", "addr:country": "US", "addr:full": "107 W HAUB ST", "addr:postcode": "47639", "addr:state": "IN", "amenity": "post_box", "brand": "United States Postal Service", "brand:wikidata": "Q668687", "collection_times": "Mo-Fr 16:00; Sa 11:00", "name": "USPS COLLECTION BOX - PO LOBBY", "note": "ON 12/24 AND 12/31, THIS BOX MAY BE COLLECTED AS EARLY AS 12 NOON.", "nsi_id": "unitedstatespostalservice-a77078", "operator": "United States Postal Service", "operator:short": "USPS", "operator:type": "public", "operator:wikidata": "Q668687", "ref": "4763900003"}, "type": "Feature"}
{"dataset_attributes": {"@spider": "usps_collection_boxes", "spider:collection_time": "2023-10-28T08:22:24.083666"}, "geometry": {"coordinates": [-87.5521819, 38.17512], "type": "Point"}, "id": "trvqwKKvLq01ypeIH0yMg3GImIY=", "properties": {"@spider": "usps_collection_boxes", "addr:city": "HAUBSTADT", "addr:country": "US", "addr:full": "844 E 1250 S", "addr:postcode": "47639", "addr:state": "IN", "amenity": "post_box", "brand": "United States Postal Service", "brand:wikidata": "Q668687", "collection_times": "Mo-Sa 11:00", "name": "USPS COLLECTION BOX - BLUE BOX", "nsi_id": "unitedstatespostalservice-a77078", "operator": "United States Postal Service", "operator:short": "USPS", "operator:type": "public", "operator:wikidata": "Q668687", "ref": "4763900006"}, "type": "Feature"}
{"dataset_attributes": {"@spider": "usps_collection_boxes", "spider:collection_time": "2023-10-28T08:22:24.083666"}, "geometry": {"coordinates": [-87.574993114, 38.203863421], "type": "Point"}, "id": "m86i3vXl2OmxH2Wd5Zbpttw4clY=", "properties": {"@spider": "usps_collection_boxes", "addr:city": "HAUBSTADT", "addr:country": "US", "addr:full": "107 W HAUB ST", "addr:postcode": "47639", "addr:state": "IN", "amenity": "post_box", "brand": "United States Postal Service", "brand:wikidata": "Q668687", "collection_times": "Mo-Fr 16:00; Sa 11:00", "name": "USPS COLLECTION BOX - PO LOBBY", "note": "ON 12/24 AND 12/31, THIS BOX MAY BE COLLECTED AS EARLY AS 12 NOON.", "nsi_id": "unitedstatespostalservice-a77078", "operator": "United States Postal Service", "operator:short": "USPS", "operator:type": "public", "operator:wikidata": "Q668687", "ref": "4763900011"}, "type": "Feature"}
{"dataset_attributes": {"@spider": "usps_collection_boxes", "spider:collection_time": "2023-10-28T08:22:24.083666"}, "geometry": {"coordinates": [-87.577644473, 38.248286481], "type": "Point"}, "id": "svb7rSUr6bDRKJAewZ3J8wSiQ4Q=", "properties": {"@spider": "usps_collection_boxes", "addr:city": "FORT BRANCH", "addr:country": "US", "addr:full": "105 E VINE ST", "addr:postcode": "47648", "addr:state": "IN", "amenity": "post_box", "brand": "United States Postal Service", "brand:wikidata": "Q668687", "collection_times": "Mo-Fr 16:30; Sa 15:30", "name": "USPS COLLECTION BOX - PO LOBBY", "note": "ON 12/24 AND 12/31, THIS BOX MAY BE COLLECTED AS EARLY AS 12 NOON.", "nsi_id": "unitedstatespostalservice-a77078", "operator": "United States Postal Service", "operator:short": "USPS", "operator:type": "public", "operator:wikidata": "Q668687", "ref": "4764800002"}, "type": "Feature"}
{"dataset_attributes": {"@spider": "usps_collection_boxes", "spider:collection_time": "2023-10-28T08:22:24.083666"}, "geometry": {"coordinates": [-87.577644473, 38.248286481], "type": "Point"}, "id": "PB5oKL0Y-0QZXvWDgOaE_DVMJ0o=", "properties": {"@spider": "usps_collection_boxes", "addr:city": "FORT BRANCH", "addr:country": "US", "addr:full": "105 E VINE ST", "addr:postcode": "47648", "addr:state": "IN", "amenity": "post_box", "brand": "United States Postal Service", "brand:wikidata": "Q668687", "collection_times": "Mo-Fr 16:30; Sa 15:30", "name": "USPS COLLECTION BOX - BLUE BOX", "note": "ON 12/24 AND 12/31, THIS BOX MAY BE COLLECTED AS EARLY AS 12 NOON.", "nsi_id": "unitedstatespostalservice-a77078", "operator": "United States Postal Service", "operator:short": "USPS", "operator:type": "public", "operator:wikidata": "Q668687", "ref": "4764800003"}, "type": "Feature"}
{"dataset_attributes": {"@spider": "usps_collection_boxes", "spider:collection_time": "2023-10-28T08:22:24.083666"}, "geometry": {"coordinates": [-87.577644473, 38.248286481], "type": "Point"}, "id": "zqn6iMBPUZasmSm3JT9ty75oryE=", "properties": {"@spider": "usps_collection_boxes", "addr:city": "FORT BRANCH", "addr:country": "US", "addr:full": "105 E VINE ST", "addr:postcode": "47648", "addr:state": "IN", "amenity": "post_box", "brand": "United States Postal Service", "brand:wikidata": "Q668687", "collection_times": "Mo-Fr 16:30; Sa 11:00", "name": "USPS COLLECTION BOX - PO LOBBY", "note": "ON 12/24 AND 12/31, THIS BOX MAY BE COLLECTED AS EARLY AS 12 NOON.", "nsi_id": "unitedstatespostalservice-a77078", "operator": "United States Postal Service", "operator:short": "USPS", "operator:type": "public", "operator:wikidata": "Q668687", "ref": "4764800005"}, "type": "Feature"}
{"dataset_attributes": {"@spider": "usps_collection_boxes", "spider:collection_time": "2023-10-28T08:22:24.083666"}, "geometry": {"coordinates": [-87.447132298, 38.332849852], "type": "Point"}, "id": "iO2h7-SrRo0eUJj3MiIK8chZQu4=", "properties": {"@spider": "usps_collection_boxes", "addr:city": "FRANCISCO", "addr:country": "US", "addr:full": "308 W MAIN ST", "addr:postcode": "47649", "addr:state": "IN", "amenity": "post_box", "brand": "United States Postal Service", "brand:wikidata": "Q668687", "collection_times": "Mo-Fr 15:30; Sa 10:30", "name": "USPS COLLECTION BOX - BLUE BOX", "note": "ON 12/24 AND 12/31, THIS BOX MAY BE COLLECTED AS EARLY AS 12 NOON.", "nsi_id": "unitedstatespostalservice-a77078", "operator": "United States Postal Service", "operator:short": "USPS", "operator:type": "public", "operator:wikidata": "Q668687", "ref": "4764900000"}, "type": "Feature"}
{"dataset_attributes": {"@spider": "usps_collection_boxes", "spider:collection_time": "2023-10-28T08:22:24.083666"}, "geometry": {"coordinates": [-87.447132298, 38.332849852], "type": "Point"}, "id": "cIqWZp84TgnnWWiN_8_U3z6xY2c=", "properties": {"@spider": "usps_collection_boxes", "addr:city": "FRANCISCO", "addr:country": "US", "addr:full": "308 W MAIN ST", "addr:postcode": "47649", "addr:state": "IN", "amenity": "post_box", "brand": "United States Postal Service", "brand:wikidata": "Q668687", "collection_times": "Mo-Fr 15:30; Sa 10:30", "name": "USPS COLLECTION BOX - PO LOBBY", "note": "ON 12/24 AND 12/31, THIS BOX MAY BE COLLECTED AS EARLY AS 12 NOON.", "nsi_id": "unitedstatespostalservice-a77078", "operator": "United States Postal Service", "operator:short": "USPS", "operator:type": "public", "operator:wikidata": "Q668687", "ref": "4764900001"}, "type": "Feature"}
{"dataset_attributes": {"@spider": "usps_collection_boxes", "spider:collection_time": "2023-10-28T08:22:24.083666"}, "geometry": {"coordinates": [-87.447132298, 38.332849852], "type": "Point"}, "id": "PoLKr-0IRQSNduJgEjKl-svWzhk=", "properties": {"@spider": "usps_collection_boxes", "addr:city": "FRANCISCO", "addr:country": "US", "addr:full": "308 W MAIN ST", "addr:postcode": "47649", "addr:state": "IN", "amenity": "post_box", "brand": "United States Postal Service", "brand:wikidata": "Q668687", "collection_times": "Mo-Fr 15:30; Sa 10:30", "name": "USPS COLLECTION BOX - PO LOBBY", "note": "ON 12/24 AND 12/31, THIS BOX MAY BE COLLECTED AS EARLY AS 12 NOON.", "nsi_id": "unitedstatespostalservice-a77078", "operator": "United States Postal Service", "operator:short": "USPS", "operator:type": "public", "operator:wikidata": "Q668687", "ref": "4764900003"}, "type": "Feature"}
{"dataset_attributes": {"@spider": "usps_collection_boxes", "spider:collection_time": "2023-10-28T08:22:24.083666"}, "geometry": {"coordinates": [-87.391683, 38.252421512], "type": "Point"}, "id": "D7qSmMuqxr1D2Fyl5S8xO5X0wYQ=", "properties": {"@spider": "usps_collection_boxes", "addr:city": "MACKEY", "addr:country": "US", "addr:full": "9500 E MAIN ST", "addr:postcode": "47654", "addr:state": "IN", "amenity": "post_box", "brand": "United States Postal Service", "brand:wikidata": "Q668687", "collection_times": "Mo-Fr 16:15; Sa 11:45", "name": "USPS COLLECTION BOX - BLUE BOX", "note": "ON 12/24 AND 12/31, THIS BOX MAY BE COLLECTED AS EARLY AS 12 NOON.", "nsi_id": "unitedstatespostalservice-a77078", "operator": "United States Postal Service", "operator:short": "USPS", "operator:type": "public", "operator:wikidata": "Q668687", "ref": "4765400000"}, "type": "Feature"}
{"dataset_attributes": {"@spider": "usps_collection_boxes", "spider:collection_time": "2023-10-28T08:22:24.083666"}, "geometry": {"coordinates": [-87.391683, 38.2524215115], "type": "Point"}, "id": "j69alVmuxSQiyLlmVNn3_ZfUzd8=", "properties": {"@spider": "usps_collection_boxes", "addr:city": "MACKEY", "addr:country": "US", "addr:full": "9500 E MAIN ST", "addr:postcode": "47654", "addr:state": "IN", "amenity": "post_box", "brand": "United States Postal Service", "brand:wikidata": "Q668687", "collection_times": "Mo-Fr 16:15; Sa 11:45", "name": "USPS COLLECTION BOX - PO LOBBY", "note": "ON 12/24 AND 12/31, THIS BOX MAY BE COLLECTED AS EARLY AS 12 NOON.", "nsi_id": "unitedstatespostalservice-a77078", "operator": "United States Postal Service", "operator:short": "USPS", "operator:type": "public", "operator:wikidata": "Q668687", "ref": "4765400002"}, "type": "Feature"}
{"dataset_attributes": {"@spider": "usps_collection_boxes", "spider:collection_time": "2023-10-28T08:22:24.083666"}, "geometry": {"coordinates": [-87.345379859, 38.34030048], "type": "Point"}, "id": "sDdwUh_FHEppT0CjAg-SioUeGqQ=", "properties": {"@spider": "usps_collection_boxes", "addr:city": "OAKLAND CITY", "addr:country": "US", "addr:full": "130 W HARRISON ST", "addr:postcode": "47660", "addr:state": "IN", "amenity": "post_box", "brand": "United States Postal Service", "brand:wikidata": "Q668687", "collection_times": "Mo-Sa 15:45", "name": "USPS COLLECTION BOX - BLUE BOX", "note": "ON 12/24 AND 12/31, THIS BOX MAY BE COLLECTED AS EARLY AS 12 NOON.", "nsi_id": "unitedstatespostalservice-a77078", "operator": "United States Postal Service", "operator:short": "USPS", "operator:type": "public", "operator:wikidata": "Q668687", "ref": "4766000000"}, "type": "Feature"}
{"dataset_attributes": {"@spider": "usps_collection_boxes", "spider:collection_time": "2023-10-28T08:22:24.083666"}, "geometry": {"coordinates": [-87.345379859, 38.34030048], "type": "Point"}, "id": "w0v3_2hKkDp0kzY4RwuTE9ZCm1o=", "properties": {"@spider": "usps_collection_boxes", "addr:city": "OAKLAND CITY", "addr:country": "US", "addr:full": "130 W HARRISON ST", "addr:postcode": "47660", "addr:state": "IN", "amenity": "post_box", "brand": "United States Postal Service", "brand:wikidata": "Q668687", "collection_times": "Mo-Sa 16:00", "name": "USPS COLLECTION BOX - PO LOBBY", "note": "ON 12/24 AND 12/31, THIS BOX MAY BE COLLECTED AS EARLY AS 12 NOON.", "nsi_id": "unitedstatespostalservice-a77078", "operator": "United States Postal Service", "operator:short": "USPS", "operator:type": "public", "operator:wikidata": "Q668687", "ref": "4766000010"}, "type": "Feature"}
{"dataset_attributes": {"@spider": "usps_collection_boxes", "spider:collection_time": "2023-10-28T08:22:24.083666"}, "geometry": {"coordinates": [-87.345379859, 38.34030048], "type": "Point"}, "id": "Z1say-4Jayqmn39-D2TPCB8KKT0=", "properties": {"@spider": "usps_collection_boxes", "addr:city": "OAKLAND CITY", "addr:country": "US", "addr:full": "130 W HARRISON ST", "addr:postcode": "47660", "addr:state": "IN", "amenity": "post_box", "brand": "United States Postal Service", "brand:wikidata": "Q668687", "collection_times": "Mo-Fr 16:00; Sa 12:00", "name": "USPS COLLECTION BOX - PO LOBBY", "note": "ON 12/24 AND 12/31, THIS BOX MAY BE COLLECTED AS EARLY AS 12 NOON.", "nsi_id": "unitedstatespostalservice-a77078", "operator": "United States Postal Service", "operator:short": "USPS", "operator:type": "public", "operator:wikidata": "Q668687", "ref": "4766000012"}, "type": "Feature"}
{"dataset_attributes": {"@spider": "usps_collection_boxes", "spider:collection_time": "2023-10-28T08:22:24.083666"}, "geometry": {"coordinates": [-87.692665943, 38.272238633], "type": "Point"}, "id": "-LbdzJuFgozryvJwXRCTGvVrgk0=", "properties": {"@spider": "usps_collection_boxes", "addr:city": "OWENSVILLE", "addr:country": "US", "addr:full": "100 S MILL ST", "addr:postcode": "47665", "addr:state": "IN", "amenity": "post_box", "brand": "United States Postal Service", "brand:wikidata": "Q668687", "collection_times": "Mo-Fr 15:30; Sa 10:45", "name": "USPS COLLECTION BOX - BLUE BOX", "note": "ON 12/24 AND 12/31, THIS BOX MAY BE COLLECTED AS EARLY AS 12 NOON.", "nsi_id": "unitedstatespostalservice-a77078", "operator": "United States Postal Service", "operator:short": "USPS", "operator:type": "public", "operator:wikidata": "Q668687", "ref": "4766500000"}, "type": "Feature"}
{"dataset_attributes": {"@spider": "usps_collection_boxes", "spider:collection_time": "2023-10-28T08:22:24.083666"}, "geometry": {"coordinates": [-87.692665943, 38.272238633], "type": "Point"}, "id": "lNovGX10BBvDOhA4g0hMq76UXrg=", "properties": {"@spider": "usps_collection_boxes", "addr:city": "OWENSVILLE", "addr:country": "US", "addr:full": "100 S MILL ST", "addr:postcode": "47665", "addr:state": "IN", "amenity": "post_box", "brand": "United States Postal Service", "brand:wikidata": "Q668687", "collection_times": "Mo-Fr 15:30; Sa 10:45", "name": "USPS COLLECTION BOX - PO LOBBY", "note": "ON 12/24 AND 12/31, THIS BOX MAY BE COLLECTED AS EARLY AS 12 NOON.", "nsi_id": "unitedstatespostalservice-a77078", "operator": "United States Postal Service", "operator:short": "USPS", "operator:type": "public", "operator:wikidata": "Q668687", "ref": "4766500001"}, "type": "Feature"}
{"dataset_attributes": {"@spider": "usps_collection_boxes", "spider:collection_time": "2023-10-28T08:22:24.083666"}, "geometry": {"coordinates": [-87.692665943, 38.272238633], "type": "Point"}, "id": "gkQPCE9cSH6b21rjDU91y82kk6w=", "properties": {"@spider": "usps_collection_boxes", "addr:city": "OWENSVILLE", "addr:country": "US", "addr:full": "100 S MILL ST", "addr:postcode": "47665", "addr:state": "IN", "amenity": "post_box", "brand": "United States Postal Service", "brand:wikidata": "Q668687", "collection_times": "Mo-Fr 16:00; Sa 11:00", "name": "USPS COLLECTION BOX - PO LOBBY", "note": "ON 12/24 AND 12/31, THIS BOX MAY BE COLLECTED AS EARLY AS 12 NOON.", "nsi_id": "unitedstatespostalservice-a77078", "operator": "United States Postal Service", "operator:short": "USPS", "operator:type": "public", "operator:wikidata": "Q668687", "ref": "4766500003"}, "type": "Feature"}
{"dataset_attributes": {"@spider": "usps_collection_boxes", "spider:collection_time": "2023-10-28T08:22:24.083666"}, "geometry": {"coordinates": [-87.585839437, 38.405880178], "type": "Point"}, "id": "zesv_tz3WanGQGSfPKj22R4ctso=", "properties": {"@spider": "usps_collection_boxes", "addr:city": "PATOKA", "addr:country": "US", "addr:full": "110 S MAIN ST", "addr:postcode": "47666", "addr:state": "IN", "amenity": "post_box", "brand": "United States Postal Service", "brand:wikidata": "Q668687", "collection_times": "Mo-Fr 15:30; Sa 09:30", "name": "USPS COLLECTION BOX - BLUE BOX", "note": "ON 12/24 AND 12/31, THIS BOX MAY BE COLLECTED AS EARLY AS 12 NOON.", "nsi_id": "unitedstatespostalservice-a77078", "operator": "United States Postal Service", "operator:short": "USPS", "operator:type": "public", "operator:wikidata": "Q668687", "ref": "4766600000"}, "type": "Feature"}
{"dataset_attributes": {"@spider": "usps_collection_boxes", "spider:collection_time": "2023-10-28T08:22:24.083666"}, "geometry": {"coordinates": [-87.585839437, 38.405880178], "type": "Point"}, "id": "5txnGHbriqLdoktHvte5ln_r3jI=", "properties": {"@spider": "usps_collection_boxes", "addr:city": "PATOKA", "addr:country": "US", "addr:full": "110 S MAIN ST", "addr:postcode": "47666", "addr:state": "IN", "amenity": "post_box", "brand": "United States Postal Service", "brand:wikidata": "Q668687", "collection_times": "Mo-Fr 15:30; Sa 09:30", "name": "USPS COLLECTION BOX - PO LOBBY", "note": "ON 12/24 AND 12/31, THIS BOX MAY BE COLLECTED AS EARLY AS 12 NOON.", "nsi_id": "unitedstatespostalservice-a77078", "operator": "United States Postal Service", "operator:short": "USPS", "operator:type": "public", "operator:wikidata": "Q668687", "ref": "4766600001"}, "type": "Feature"}
{"dataset_attributes": {"@spider": "usps_collection_boxes", "spider:collection_time": "2023-10-28T08:22:24.083666"}, "geometry": {"coordinates": [-87.585839437, 38.405880178], "type": "Point"}, "id": "H7s0fjY1CXpaxaxK8u6ZASplN4I=", "properties": {"@spider": "usps_collection_boxes", "addr:city": "PATOKA", "addr:country": "US", "addr:full": "110 S MAIN ST", "addr:postcode": "47666", "addr:state": "IN", "amenity": "post_box", "brand": "United States Postal Service", "brand:wikidata": "Q668687", "collection_times": "Mo-Fr 15:30; Sa 09:30", "name": "USPS COLLECTION BOX - PO LOBBY", "note": "ON 12/24 AND 12/31, THIS BOX MAY BE COLLECTED AS EARLY AS 12 NOON.", "nsi_id": "unitedstatespostalservice-a77078", "operator": "United States Postal Service", "operator:short": "USPS", "operator:type": "public", "operator:wikidata": "Q668687", "ref": "4766600003"}, "type": "Feature"}
{"dataset_attributes": {"@spider": "usps_collection_boxes", "spider:collection_time": "2023-10-28T08:22:24.083666"}, "geometry": {"coordinates": [-87.5666205, 38.355205507], "type": "Point"}, "id": "KanrRictJ2DGKrJ-j4CEXWwLuws=", "properties": {"@spider": "usps_collection_boxes", "addr:city": "PRINCETON", "addr:country": "US", "addr:full": "129 E BROADWAY ST", "addr:postcode": "47670", "addr:state": "IN", "amenity": "post_box", "brand": "United States Postal Service", "brand:wikidata": "Q668687", "collection_times": "Mo-Fr 16:00; Sa 15:15", "name": "USPS COLLECTION BOX - BLUE BOX", "note": "ON 12/24 AND 12/31, THIS BOX MAY BE COLLECTED AS EARLY AS 12 NOON.", "nsi_id": "unitedstatespostalservice-a77078", "operator": "United States Postal Service", "operator:short": "USPS", "operator:type": "public", "operator:wikidata": "Q668687", "ref": "4767000004"}, "type": "Feature"}
{"dataset_attributes": {"@spider": "usps_collection_boxes", "spider:collection_time": "2023-10-28T08:22:24.083666"}, "geometry": {"coordinates": [-87.5661574, 38.357267], "type": "Point"}, "id": "xUEs_7d0MF-gbwJ9_BA9L1NHvII=", "properties": {"@spider": "usps_collection_boxes", "addr:city": "PRINCETON", "addr:country": "US", "addr:full": "302 N PRINCE ST", "addr:postcode": "47670", "addr:state": "IN", "amenity": "post_box", "brand": "United States Postal Service", "brand:wikidata": "Q668687", "collection_times": "Mo-Sa 14:00", "name": "USPS COLLECTION BOX - BLUE BOX", "note": "ON 12/24 AND 12/31, THIS BOX MAY BE COLLECTED AS EARLY AS 12 NOON.", "nsi_id": "unitedstatespostalservice-a77078", "operator": "United States Postal Service", "operator:short": "USPS", "operator:type": "public", "operator:wikidata": "Q668687", "ref": "4767000006"}, "type": "Feature"}
{"dataset_attributes": {"@spider": "usps_collection_boxes", "spider:collection_time": "2023-10-28T08:22:24.083666"}, "geometry": {"coordinates": [-87.5913593, 38.360297], "type": "Point"}, "id": "zVEflyAclP8V3IsKK0EFPPKA2NY=", "properties": {"@spider": "usps_collection_boxes", "addr:city": "PRINCETON", "addr:country": "US", "addr:full": "1808 SHERMAN DR", "addr:postcode": "47670", "addr:state": "IN", "amenity": "post_box", "brand": "United States Postal Service", "brand:wikidata": "Q668687", "collection_times": "Mo-Fr 14:00; Sa 09:45", "name": "USPS COLLECTION BOX - BLUE BOX", "note": "ON 12/24 AND 12/31, THIS BOX MAY BE COLLECTED AS EARLY AS 12 NOON.", "nsi_id": "unitedstatespostalservice-a77078", "operator": "United States Postal Service", "operator:short": "USPS", "operator:type": "public", "operator:wikidata": "Q668687", "ref": "4767000009"}, "type": "Feature"}
{"dataset_attributes": {"@spider": "usps_collection_boxes", "spider:collection_time": "2023-10-28T08:22:24.083666"}, "geometry": {"coordinates": [-87.5852852, 38.353889], "type": "Point"}, "id": "d8p_TG7Vah6XCf0JsyTgZeKZdOA=", "properties": {"@spider": "usps_collection_boxes", "addr:city": "PRINCETON", "addr:country": "US", "addr:full": "1533 W BROADWAY ST", "addr:postcode": "47670", "addr:state": "IN", "amenity": "post_box", "brand": "United States Postal Service", "brand:wikidata": "Q668687", "collection_times": "Mo-Sa 14:00", "name": "USPS COLLECTION BOX - BLUE BOX", "note": "ON 12/24 AND 12/31, THIS BOX MAY BE COLLECTED AS EARLY AS 12 NOON.", "nsi_id": "unitedstatespostalservice-a77078", "operator": "United States Postal Service", "operator:short": "USPS", "operator:type": "public", "operator:wikidata": "Q668687", "ref": "4767000012"}, "type": "Feature"}
{"dataset_attributes": {"@spider": "usps_collection_boxes", "spider:collection_time": "2023-10-28T08:22:24.083666"}, "geometry": {"coordinates": [-87.5666205, 38.355205507], "type": "Point"}, "id": "mlTv4meOv5-LtxRr0zdHPzX-KSM=", "properties": {"@spider": "usps_collection_boxes", "addr:city": "PRINCETON", "addr:country": "US", "addr:full": "129 E BROADWAY ST", "addr:postcode": "47670", "addr:state": "IN", "amenity": "post_box", "brand": "United States Postal Service", "brand:wikidata": "Q668687", "collection_times": "Mo-Fr 16:00; Sa 15:15", "name": "USPS COLLECTION BOX - BLUE BOX", "note": "ON 12/24 AND 12/31, THIS BOX MAY BE COLLECTED AS EARLY AS 12 NOON.", "nsi_id": "unitedstatespostalservice-a77078", "operator": "United States Postal Service", "operator:short": "USPS", "operator:type": "public", "operator:wikidata": "Q668687", "ref": "4767000020"}, "type": "Feature"}
{"dataset_attributes": {"@spider": "usps_collection_boxes", "spider:collection_time": "2023-10-28T08:22:24.083666"}, "geometry": {"coordinates": [-87.5611662, 38.283496], "type": "Point"}, "id": "0Yf_k8sWNvOPRy60xOgStBELKiQ=", "properties": {"@spider": "usps_collection_boxes", "addr:city": "PRINCETON", "addr:country": "US", "addr:full": "4924 S MAPLE TREE DR", "addr:postcode": "47670", "addr:state": "IN", "amenity": "post_box", "brand": "United States Postal Service", "brand:wikidata": "Q668687", "collection_times": "Mo-Fr 10:15; Sa 09:45", "name": "USPS COLLECTION BOX - BLUE BOX", "nsi_id": "unitedstatespostalservice-a77078", "operator": "United States Postal Service", "operator:short": "USPS", "operator:type": "public", "operator:wikidata": "Q668687", "ref": "4767000022"}, "type": "Feature"}
{"dataset_attributes": {"@spider": "usps_collection_boxes", "spider:collection_time": "2023-10-28T08:22:24.083666"}, "geometry": {"coordinates": [-87.5686213, 38.355613], "type": "Point"}, "id": "Xw6j3sI2533UZ60AXL5OgXztAlg=", "properties": {"@spider": "usps_collection_boxes", "addr:city": "PRINCETON", "addr:country": "US", "addr:full": "101 N MAIN ST", "addr:postcode": "47670", "addr:state": "IN", "amenity": "post_box", "brand": "United States Postal Service", "brand:wikidata": "Q668687", "collection_times": "Mo-Fr 13:30", "name": "USPS COLLECTION BOX - BLUE BOX", "note": "ON 12/24 AND 12/31, THIS BOX MAY BE COLLECTED AS EARLY AS 12 NOON.", "nsi_id": "unitedstatespostalservice-a77078", "operator": "United States Postal Service", "operator:short": "USPS", "operator:type": "public", "operator:wikidata": "Q668687", "ref": "4767000025"}, "type": "Feature"}
{"dataset_attributes": {"@spider": "usps_collection_boxes", "spider:collection_time": "2023-10-28T08:22:24.083666"}, "geometry": {"coordinates": [-87.5954386, 38.347533], "type": "Point"}, "id": "tm8LzOR9B4_KkdlQB6zGeuhvelo=", "properties": {"@spider": "usps_collection_boxes", "addr:city": "PRINCETON", "addr:country": "US", "addr:full": "2100 S RICHLAND CREEK DR", "addr:postcode": "47670", "addr:state": "IN", "amenity": "post_box", "brand": "United States Postal Service", "brand:wikidata": "Q668687", "collection_times": "Mo-Sa 13:30", "name": "USPS COLLECTION BOX - BLUE BOX", "note": "ON 12/24 AND 12/31, THIS BOX MAY BE COLLECTED AS EARLY AS 12 NOON.", "nsi_id": "unitedstatespostalservice-a77078", "operator": "United States Postal Service", "operator:short": "USPS", "operator:type": "public", "operator:wikidata": "Q668687", "ref": "4767000026"}, "type": "Feature"}
{"dataset_attributes": {"@spider": "usps_collection_boxes", "spider:collection_time": "2023-10-28T08:22:24.083666"}, "geometry": {"coordinates": [-87.5666205, 38.355205507], "type": "Point"}, "id": "lFVn7HrLQEkrVvC4G4oQjUEJk2k=", "properties": {"@spider": "usps_collection_boxes", "addr:city": "PRINCETON", "addr:country": "US", "addr:full": "129 E BROADWAY ST", "addr:postcode": "47670", "addr:state": "IN", "amenity": "post_box", "brand": "United States Postal Service", "brand:wikidata": "Q668687", "collection_times": "Mo-Fr 16:00; Sa 12:00", "name": "USPS COLLECTION BOX - PO LOBBY", "note": "ON 12/24 AND 12/31, THIS BOX MAY BE COLLECTED AS EARLY AS 12 NOON.", "nsi_id": "unitedstatespostalservice-a77078", "operator": "United States Postal Service", "operator:short": "USPS", "operator:type": "public", "operator:wikidata": "Q668687", "ref": "4767000029"}, "type": "Feature"}
