{"geometry": {"coordinates": [-87.567275413, 37.974764522], "type": "Point"}, "id": "hVi0DRAelWpjnizuimaDtnQFqoM=", "properties": {"@spider": "usps_collection_boxes", "addr:city": "EVANSVILLE", "addr:country": "US", "addr:full": "800 SYCAMORE ST", "addr:postcode": "47708", "addr:state": "IN", "amenity": "post_box", "brand": "United States Postal Service", "brand:wikidata": "Q668687", "collection_times": "Mo-Fr 16:30", "name": "USPS COLLECTION BOX - PO LOBBY", "note": "ON 12/24 AND 12/31, THIS BOX MAY BE COLLECTED AS EARLY AS 12 NOON.", "nsi_id": "unitedstatespostalservice-a77078", "operator": "United States Postal Service", "operator:short": "USPS", "operator:type": "public", "operator:wikidata": "Q668687", "ref": "4770800003"}, "type": "Feature"}
{"geometry": {"coordinates": [-87.5826399, 38.007557], "type": "Point"}, "id": "6mjhN5ViKnpQnUEGt4HG2H6VuSk=", "properties": {"@spider": "usps_collection_boxes", "addr:city": "EVANSVILLE", "addr:country": "US", "addr:full": "3021 KRATZVILLE RD", "addr:postcode": "47710", "addr:state": "IN", "amenity": "post_box", "brand": "United States Postal Service", "brand:wikidata": "Q668687", "collection_times": "Mo-Sa 12:00", "name": "USPS COLLECTION BOX - BLUE BOX", "nsi_id": "unitedstatespostalservice-a77078", "operator": "United States Postal Service", "operator:short": "USPS", "operator:type": "public", "operator:wikidata": "Q668687", "ref": "4771000000"}, "type": "Feature"}
{"geometry": {"coordinates": [-87.5811325939, 37.9853973337], "type": "Point"}, "id": "zwRrn7IJUakBLQTc--ptfyfJlss=", "properties": {"@spider": "usps_collection_boxes", "addr:city": "EVANSVILLE", "addr:country": "US", "addr:full": "1200 W MARYLAND ST", "addr:postcode": "47710", "addr:state": "IN", "amenity": "post_box", "brand": "United States Postal Service", "brand:wikidata": "Q668687", "collection_times": "Mo-Sa 12:00", "name": "USPS COLLECTION BOX - BLUE BOX", "nsi_id": "unitedstatespostalservice-a77078", "operator": "United States Postal Service", "operator:short": "USPS", "operator:type": "public", "operator:wikidata": "Q668687", "ref": "4771000004"}, "type": "Feature"}
{"geometry": {"coordinates": [-87.570948, 37.984958], "type": "Point"}, "id": "UfsMSf0y9XCrhF2nRbryIvGSnhM=", "properties": {"@spider": "usps_collection_boxes", "addr:city": "EVANSVILLE", "addr:country": "US", "addr:full": "415 W COLUMBIA ST", "addr:postcode": "47710", "addr:state": "IN", "amenity": "post_box", "brand": "United States Postal Service", "brand:wikidata": "Q668687", "collection_times": "Mo-Sa 14:00", "name": "USPS COLLECTION BOX - BLUE BOX", "note": "ON 12/24 AND 12/31, THIS BOX MAY BE COLLECTED AS EARLY AS 12 NOON.", "nsi_id": "unitedstatespostalservice-a77078", "operator": "United States Postal Service", "operator:short": "USPS", "operator:type": "public", "operator:wikidata": "Q668687", "ref": "4771000005"}, "type": "Feature"}
{"geometry": {"coordinates": [-87.5762305, 37.984801], "type": "Point"}, "id": "57wrClqEVvYwcAgnP8s61frdfzw=", "properties": {"@spider": "usps_collection_boxes", "addr:city": "EVANSVILLE", "addr:country": "US", "addr:full": "900 W COLUMBIA ST", "addr:postcode": "47710", "addr:state": "IN", "amenity": "post_box", "brand": "United States Postal Service", "brand:wikidata": "Q668687", "collection_times": "Mo-Sa 14:00", "name": "USPS COLLECTION BOX - BLUE BOX", "note": "ON 12/24 AND 12/31, THIS BOX MAY BE COLLECTED AS EARLY AS 12 NOON.", "nsi_id": "unitedstatespostalservice-a77078", "operator": "United States Postal Service", "operator:short": "USPS", "operator:type": "public", "operator:wikidata": "Q668687", "ref": "4771000007"}, "type": "Feature"}
{"geometry": {"coordinates": [-87.571881, 38.001057521], "type": "Point"}, "id": "vmUev9zOv8DfApcMTF0RmxiO20s=", "properties": {"@spider": "usps_collection_boxes", "addr:city": "EVANSVILLE", "addr:country": "US", "addr:full": "600 CROSS VALLEY CIR", "addr:postcode": "47710", "addr:state": "IN", "amenity": "post_box", "brand": "United States Postal Service", "brand:wikidata": "Q668687", "collection_times": "Mo-Fr 16:30; Sa 16:00", "name": "USPS COLLECTION BOX - BLUE BOX", "note": "ON 12/24 AND 12/31, THIS BOX MAY BE COLLECTED AS EARLY AS 12 NOON.", "nsi_id": "unitedstatespostalservice-a77078", "operator": "United States Postal Service", "operator:short": "USPS", "operator:type": "public", "operator:wikidata": "Q668687", "ref": "4771000008"}, "type": "Feature"}
{"geometry": {"coordinates": [-87.5743881, 38.019587], "type": "Point"}, "id": "wrl6MMGu4txOmwfg2sAzpzGC9yg=", "properties": {"@spider": "usps_collection_boxes", "addr:city": "EVANSVILLE", "addr:country": "US", "addr:full": "4400 1ST AVE", "addr:postcode": "47710", "addr:state": "IN", "amenity": "post_box", "brand": "United States Postal Service", "brand:wikidata": "Q668687", "collection_times": "Mo-Fr 14:00; Sa 13:30", "name": "USPS COLLECTION BOX - BLUE BOX", "note": "ON 12/24 AND 12/31, THIS BOX MAY BE COLLECTED AS EARLY AS 12 NOON.", "nsi_id": "unitedstatespostalservice-a77078", "operator": "United States Postal Service", "operator:short": "USPS", "operator:type": "public", "operator:wikidata": "Q668687", "ref": "4771000014"}, "type": "Feature"}
{"geometry": {"coordinates": [-87.5810626, 37.988883], "type": "Point"}, "id": "-dmGh5PVdzBbNbIKOwQV0OdULAY=", "properties": {"@spider": "usps_collection_boxes", "addr:city": "EVANSVILLE", "addr:country": "US", "addr:full": "1217 N FULTON AVE", "addr:postcode": "47710", "addr:state": "IN", "amenity": "post_box", "brand": "United States Postal Service", "brand:wikidata": "Q668687", "collection_times": "Mo-Sa 12:00", "name": "USPS COLLECTION BOX - BLUE BOX", "nsi_id": "unitedstatespostalservice-a77078", "operator": "United States Postal Service", "operator:short": "USPS", "operator:type": "public", "operator:wikidata": "Q668687", "ref": "4771000016"}, "type": "Feature"}
{"geometry": {"coordinates": [-87.5758841, 38.012927], "type": "Point"}, "id": "rOVhlW2W17fy679mnjxYUv1nyyM=", "properties": {"@spider": "usps_collection_boxes", "addr:city": "EVANSVILLE", "addr:country": "US", "addr:full": "3700 1ST AVE", "addr:postcode": "47710", "addr:state": "IN", "amenity": "post_box", "brand": "United States Postal Service", "brand:wikidata": "Q668687", "collection_times": "Mo-Sa 14:00", "name": "USPS COLLECTION BOX - BLUE BOX", "note": "ON 12/24 AND 12/31, THIS BOX MAY BE COLLECTED AS EARLY AS 12 NOON.", "nsi_id": "unitedstatespostalservice-a77078", "operator": "United States Postal Service", "operator:short": "USPS", "operator:type": "public", "operator:wikidata": "Q668687", "ref": "4771000021"}, "type": "Feature"}
{"geometry": {"coordinates": [-87.5794883, 38.021632], "type": "Point"}, "id": "y7DQYELsdLw-uUskA4yFihrwDtQ=", "properties": {"@spider": "usps_collection_boxes", "addr:city": "EVANSVILLE", "addr:country": "US", "addr:full": "1133 W MILL ML", "addr:postcode": "47710", "addr:state": "IN", "amenity": "post_box", "brand": "United States Postal Service", "brand:wikidata": "Q668687", "collection_times": "Mo-Sa 14:00", "name": "USPS COLLECTION BOX - BLUE BOX", "note": "ON 12/24 AND 12/31, THIS BOX MAY BE COLLECTED AS EARLY AS 12 NOON.", "nsi_id": "unitedstatespostalservice-a77078", "operator": "United States Postal Service", "operator:short": "USPS", "operator:type": "public", "operator:wikidata": "Q668687", "ref": "4771000026"}, "type": "Feature"}
{"geometry": {"coordinates": [-87.5744283, 38.019599], "type": "Point"}, "id": "i1Wb9N_G51-pxEdPOBqvEyLDEKE=", "properties": {"@spider": "usps_collection_boxes", "addr:city": "EVANSVILLE", "addr:country": "US", "addr:full": "4400 1ST AVE", "addr:postcode": "47710", "addr:state": "IN", "amenity": "post_box", "brand": "United States Postal Service", "brand:wikidata": "Q668687", "collection_times": "Mo-Fr 14:00; Sa 13:30", "name": "USPS COLLECTION BOX - BLUE BOX", "note": "ON 12/24 AND 12/31, THIS BOX MAY BE COLLECTED AS EARLY AS 12 NOON.", "nsi_id": "unitedstatespostalservice-a77078", "operator": "United States Postal Service", "operator:short": "USPS", "operator:type": "public", "operator:wikidata": "Q668687", "ref": "4771000037"}, "type": "Feature"}
{"geometry": {"coordinates": [-87.571881, 38.001057521], "type": "Point"}, "id": "iZ2LObWUezs7dCNjqBxWyMsDOtc=", "properties": {"@spider": "usps_collection_boxes", "addr:city": "EVANSVILLE", "addr:country": "US", "addr:full": "600 CROSS VALLEY CIR", "addr:postcode": "47710", "addr:state": "IN", "amenity": "post_box", "brand": "United States Postal Service", "brand:wikidata": "Q668687", "collection_times": "Mo-Fr 16:30; Sa 16:00", "name": "USPS COLLECTION BOX - BLUE BOX", "note": "ON 12/24 AND 12/31, THIS BOX MAY BE COLLECTED AS EARLY AS 12 NOON.", "nsi_id": "unitedstatespostalservice-a77078", "operator": "United States Postal Service", "operator:short": "USPS", "operator:type": "public", "operator:wikidata": "Q668687", "ref": "4771000040"}, "type": "Feature"}
{"geometry": {"coordinates": [-87.5710133, 37.983222], "type": "Point"}, "id": "MLqp4QCVzqFweu5No_ND0N9tIh8=", "properties": {"@spider": "usps_collection_boxes", "addr:city": "EVANSVILLE", "addr:country": "US", "addr:full": "520 MARY ST", "addr:postcode": "47710", "addr:state": "IN", "amenity": "post_box", "brand": "United States Postal Service", "brand:wikidata": "Q668687", "collection_times": "Mo-Sa 14:00", "name": "USPS COLLECTION BOX - BLUE BOX", "note": "ON 12/24 AND 12/31, THIS BOX MAY BE COLLECTED AS EARLY AS 12 NOON.", "nsi_id": "unitedstatespostalservice-a77078", "operator": "United States Postal Service", "operator:short": "USPS", "operator:type": "public", "operator:wikidata": "Q668687", "ref": "4771000044"}, "type": "Feature"}
{"geometry": {"coordinates": [-87.5847981, 37.978526], "type": "Point"}, "id": "3b5wPigtjomRpsmPOaO7EoQeP7Q=", "properties": {"@spider": "usps_collection_boxes", "addr:city": "EVANSVILLE", "addr:country": "US", "addr:full": "1419 W LLOYD EXPY", "addr:postcode": "47710", "addr:state": "IN", "amenity": "post_box", "brand": "United States Postal Service", "brand:wikidata": "Q668687", "collection_times": "Mo-Fr 12:00", "name": "USPS COLLECTION BOX - BLUE BOX", "nsi_id": "unitedstatespostalservice-a77078", "operator": "United States Postal Service", "operator:short": "USPS", "operator:type": "public", "operator:wikidata": "Q668687", "ref": "4771000047"}, "type": "Feature"}
{"geometry": {"coordinates": [-87.5763911, 38.016101], "type": "Point"}, "id": "g-g6AkrNfXE7wt_TUsTbnA3Ik4M=", "properties": {"@spider": "usps_collection_boxes", "addr:city": "EVANSVILLE", "addr:country": "US", "addr:full": "4000 N 1ST AVE", "addr:postcode": "47710", "addr:state": "IN", "amenity": "post_box", "brand": "United States Postal Service", "brand:wikidata": "Q668687", "collection_times": "Mo-Sa 14:00", "name": "USPS COLLECTION BOX - BLUE BOX", "note": "ON 12/24 AND 12/31, THIS BOX MAY BE COLLECTED AS EARLY AS 12 NOON.", "nsi_id": "unitedstatespostalservice-a77078", "operator": "United States Postal Service", "operator:short": "USPS", "operator:type": "public", "operator:wikidata": "Q668687", "ref": "4771000053"}, "type": "Feature"}
{"geometry": {"coordinates": [-87.571881, 38.001057521], "type": "Point"}, "id": "r9TcVUKR8UG_k4r2QouxfXamXx8=", "properties": {"@spider": "usps_collection_boxes", "addr:city": "EVANSVILLE", "addr:country": "US", "addr:full": "600 CROSS VALLEY CIR", "addr:postcode": "47710", "addr:state": "IN", "amenity": "post_box", "brand": "United States Postal Service", "brand:wikidata": "Q668687", "collection_times": "Mo-Fr 16:30; Sa 16:00", "name": "USPS COLLECTION BOX - PO LOBBY", "note": "ON 12/24 AND 12/31, THIS BOX MAY BE COLLECTED AS EARLY AS 12 NOON.", "nsi_id": "unitedstatespostalservice-a77078", "operator": "United States Postal Service", "operator:short": "USPS", "operator:type": "public", "operator:wikidata": "Q668687", "ref": "4771000062"}, "type": "Feature"}
{"geometry": {"coordinates": [-87.5324977, 37.984462], "type": "Point"}, "id": "cOO42QDAOrnDmPt1u3dPEh9rGkU=", "properties": {"@spider": "usps_collection_boxes", "addr:city": "EVANSVILLE", "addr:country": "US", "addr:full": "1701 E COLUMBIA ST", "addr:postcode": "47711", "addr:state": "IN", "amenity": "post_box", "brand": "United States Postal Service", "brand:wikidata": "Q668687", "collection_times": "Mo-Sa 13:00", "name": "USPS COLLECTION BOX - BLUE BOX", "note": "ON 12/24 AND 12/31, THIS BOX MAY BE COLLECTED AS EARLY AS 12 NOON.", "nsi_id": "unitedstatespostalservice-a77078", "operator": "United States Postal Service", "operator:short": "USPS", "operator:type": "public", "operator:wikidata": "Q668687", "ref": "4771100004"}, "type": "Feature"}
{"geometry": {"coordinates": [-87.5551085, 37.999971], "type": "Point"}, "id": "Zl5Wu0Rs9xcTgCk7DlUbki3YOSc=", "properties": {"@spider": "usps_collection_boxes", "addr:city": "EVANSVILLE", "addr:country": "US", "addr:full": "600 E DIAMOND AVE", "addr:postcode": "47711", "addr:state": "IN", "amenity": "post_box", "brand": "United States Postal Service", "brand:wikidata": "Q668687", "collection_times": "Mo-Sa 12:00", "name": "USPS COLLECTION BOX - BLUE BOX", "nsi_id": "unitedstatespostalservice-a77078", "operator": "United States Postal Service", "operator:short": "USPS", "operator:type": "public", "operator:wikidata": "Q668687", "ref": "4771100005"}, "type": "Feature"}
{"geometry": {"coordinates": [-87.5461122, 37.998902], "type": "Point"}, "id": "f7iuyserDGVEKzxP75w7noysnoI=", "properties": {"@spider": "usps_collection_boxes", "addr:city": "EVANSVILLE", "addr:country": "US", "addr:full": "1031 E DIAMOND AVE", "addr:postcode": "47711", "addr:state": "IN", "amenity": "post_box", "brand": "United States Postal Service", "brand:wikidata": "Q668687", "collection_times": "Mo-Sa 12:00", "name": "USPS COLLECTION BOX - BLUE BOX", "nsi_id": "unitedstatespostalservice-a77078", "operator": "United States Postal Service", "operator:short": "USPS", "operator:type": "public", "operator:wikidata": "Q668687", "ref": "4771100008"}, "type": "Feature"}
{"geometry": {"coordinates": [-87.5429282, 37.993534], "type": "Point"}, "id": "_CPRa3Ikc7hTCVLsvD4ENOjyhWs=", "properties": {"@spider": "usps_collection_boxes", "addr:city": "EVANSVILLE", "addr:country": "US", "addr:full": "1718 N FARES AVE", "addr:postcode": "47711", "addr:state": "IN", "amenity": "post_box", "brand": "United States Postal Service", "brand:wikidata": "Q668687", "collection_times": "Mo-Sa 12:00", "name": "USPS COLLECTION BOX - BLUE BOX", "nsi_id": "unitedstatespostalservice-a77078", "operator": "United States Postal Service", "operator:short": "USPS", "operator:type": "public", "operator:wikidata": "Q668687", "ref": "4771100009"}, "type": "Feature"}
{"geometry": {"coordinates": [-87.5429421, 37.993535], "type": "Point"}, "id": "pnUo0FuqKVVNrIFIwX_l_4NLQ7k=", "properties": {"@spider": "usps_collection_boxes", "addr:city": "EVANSVILLE", "addr:country": "US", "addr:full": "1718 N FARES AVE", "addr:postcode": "47711", "addr:state": "IN", "amenity": "post_box", "brand": "United States Postal Service", "brand:wikidata": "Q668687", "collection_times": "Mo-Sa 12:00", "name": "USPS COLLECTION BOX - BLUE BOX", "nsi_id": "unitedstatespostalservice-a77078", "operator": "United States Postal Service", "operator:short": "USPS", "operator:type": "public", "operator:wikidata": "Q668687", "ref": "4771100010"}, "type": "Feature"}
{"geometry": {"coordinates": [-87.5398929, 37.998272], "type": "Point"}, "id": "PpnccyJe8sTB88vMWvEOf_YvzOc=", "properties": {"@spider": "usps_collection_boxes", "addr:city": "EVANSVILLE", "addr:country": "US", "addr:full": "2230 N FARES AVE", "addr:postcode": "47711", "addr:state": "IN", "amenity": "post_box", "brand": "United States Postal Service", "brand:wikidata": "Q668687", "collection_times": "Mo-Sa 12:00", "name": "USPS COLLECTION BOX - BLUE BOX", "nsi_id": "unitedstatespostalservice-a77078", "operator": "United States Postal Service", "operator:short": "USPS", "operator:type": "public", "operator:wikidata": "Q668687", "ref": "4771100012"}, "type": "Feature"}
{"geometry": {"coordinates": [-87.5398999, 37.998262], "type": "Point"}, "id": "D2z3g7cFaQF6uYjlatzWl56NK0M=", "properties": {"@spider": "usps_collection_boxes", "addr:city": "EVANSVILLE", "addr:country": "US", "addr:full": "2230 N FARES AVE", "addr:postcode": "47711", "addr:state": "IN", "amenity": "post_box", "brand": "United States Postal Service", "brand:wikidata": "Q668687", "collection_times": "Mo-Sa 12:00", "name": "USPS COLLECTION BOX - BLUE BOX", "nsi_id": "unitedstatespostalservice-a77078", "operator": "United States Postal Service", "operator:short": "USPS", "operator:type": "public", "operator:wikidata": "Q668687", "ref": "4771100014"}, "type": "Feature"}
{"geometry": {"coordinates": [-87.5063899, 38.065169], "type": "Point"}, "id": "iDoCbVEE0aJ4AxKGHY5dBjtEM90=", "properties": {"@spider": "usps_collection_boxes", "addr:city": "EVANSVILLE", "addr:country": "US", "addr:full": "9634 HEDDEN RD", "addr:postcode": "47711", "addr:state": "IN", "amenity": "post_box", "brand": "United States Postal Service", "brand:wikidata": "Q668687", "collection_times": "Mo-Sa 15:00", "name": "USPS COLLECTION BOX - BLUE BOX", "note": "ON 12/24 AND 12/31, THIS BOX MAY BE COLLECTED AS EARLY AS 12 NOON.", "nsi_id": "unitedstatespostalservice-a77078", "operator": "United States Postal Service", "operator:short": "USPS", "operator:type": "public", "operator:wikidata": "Q668687", "ref": "4771100017"}, "type": "Feature"}
{"geometry": {"coordinates": [-87.5141889, 38.013525], "type": "Point"}, "id": "PG8S_pdy4l1vf9vAnDmd-SsKf_o=", "properties": {"@spider": "usps_collection_boxes", "addr:city": "EVANSVILLE", "addr:country": "US", "addr:full": "2800 LYNCH RD", "addr:postcode": "47711", "addr:state": "IN", "amenity": "post_box", "brand": "United States Postal Service", "brand:wikidata": "Q668687", "collection_times": "Mo-Sa 12:00", "name": "USPS COLLECTION BOX - BLUE BOX", "nsi_id": "unitedstatespostalservice-a77078", "operator": "United States Postal Service", "operator:short": "USPS", "operator:type": "public", "operator:wikidata": "Q668687", "ref": "4771100022"}, "type": "Feature"}
{"geometry": {"coordinates": [-87.526957, 37.992305], "type": "Point"}, "id": "ty5E-BfiK_VbVGr9fH6RNqaLujE=", "properties": {"@spider": "usps_collection_boxes", "addr:city": "EVANSVILLE", "addr:country": "US", "addr:full": "2040 E MORGAN AVE", "addr:postcode": "47711", "addr:state": "IN", "amenity": "post_box", "brand": "United States Postal Service", "brand:wikidata": "Q668687", "collection_times": "Mo-Sa 13:00", "name": "USPS COLLECTION BOX - BLUE BOX", "note": "ON 12/24 AND 12/31, THIS BOX MAY BE COLLECTED AS EARLY AS 12 NOON.", "nsi_id": "unitedstatespostalservice-a77078", "operator": "United States Postal Service", "operator:short": "USPS", "operator:type": "public", "operator:wikidata": "Q668687", "ref": "4771100028"}, "type": "Feature"}
{"geometry": {"coordinates": [-87.5447988, 38.056784], "type": "Point"}, "id": "5l6BCvrsPLlPwC4tMiCTEwxGO6c=", "properties": {"@spider": "usps_collection_boxes", "addr:city": "EVANSVILLE", "addr:country": "US", "addr:full": "1033 E MOUNT PLEASANT RD", "addr:postcode": "47711", "addr:state": "IN", "amenity": "post_box", "brand": "United States Postal Service", "brand:wikidata": "Q668687", "collection_times": "Mo-Sa 14:00", "name": "USPS COLLECTION BOX - BLUE BOX", "note": "ON 12/24 AND 12/31, THIS BOX MAY BE COLLECTED AS EARLY AS 12 NOON.", "nsi_id": "unitedstatespostalservice-a77078", "operator": "United States Postal Service", "operator:short": "USPS", "operator:type": "public", "operator:wikidata": "Q668687", "ref": "4771100029"}, "type": "Feature"}
{"geometry": {"coordinates": [-87.5098513, 38.014313], "type": "Point"}, "id": "Q9zxZ0mD7q7mGt14ypKMMe9Is3E=", "properties": {"@spider": "usps_collection_boxes", "addr:city": "EVANSVILLE", "addr:country": "US", "addr:full": "3222 MARINER DR", "addr:postcode": "47711", "addr:state": "IN", "amenity": "post_box", "brand": "United States Postal Service", "brand:wikidata": "Q668687", "collection_times": "Mo-Sa 12:00", "name": "USPS COLLECTION BOX - BLUE BOX", "nsi_id": "unitedstatespostalservice-a77078", "operator": "United States Postal Service", "operator:short": "USPS", "operator:type": "public", "operator:wikidata": "Q668687", "ref": "4771100030"}, "type": "Feature"}
{"geometry": {"coordinates": [-87.5340154, 37.980659], "type": "Point"}, "id": "ePt_iEomKuhK_wyEjpcCAZwBm7U=", "properties": {"@spider": "usps_collection_boxes", "addr:city": "EVANSVILLE", "addr:country": "US", "addr:full": "300 N ROTHERWOOD AVE", "addr:postcode": "47711", "addr:state": "IN", "amenity": "post_box", "brand": "United States Postal Service", "brand:wikidata": "Q668687", "collection_times": "Mo-Sa 13:00", "name": "USPS COLLECTION BOX - BLUE BOX", "note": "ON 12/24 AND 12/31, THIS BOX MAY BE COLLECTED AS EARLY AS 12 NOON.", "nsi_id": "unitedstatespostalservice-a77078", "operator": "United States Postal Service", "operator:short": "USPS", "operator:type": "public", "operator:wikidata": "Q668687", "ref": "4771100033"}, "type": "Feature"}
{"geometry": {"coordinates": [-87.5538871, 38.003547], "type": "Point"}, "id": "TUkCkUTK9W9tUaPsb-K0-WI8wXM=", "properties": {"@spider": "usps_collection_boxes", "addr:city": "EVANSVILLE", "addr:country": "US", "addr:full": "2587 STRINGTOWN RD", "addr:postcode": "47711", "addr:state": "IN", "amenity": "post_box", "brand": "United States Postal Service", "brand:wikidata": "Q668687", "collection_times": "Mo-Sa 14:00", "name": "USPS COLLECTION BOX - BLUE BOX", "note": "ON 12/24 AND 12/31, THIS BOX MAY BE COLLECTED AS EARLY AS 12 NOON.", "nsi_id": "unitedstatespostalservice-a77078", "operator": "United States Postal Service", "operator:short": "USPS", "operator:type": "public", "operator:wikidata": "Q668687", "ref": "4771100035"}, "type": "Feature"}
{"geometry": {"coordinates": [-87.5619499, 38.033637], "type": "Point"}, "id": "qU-eRJhnHLFRkxUtZQy1hypPfvw=", "properties": {"@spider": "usps_collection_boxes", "addr:city": "EVANSVILLE", "addr:country": "US", "addr:full": "5817 STRINGTOWN RD", "addr:postcode": "47711", "addr:state": "IN", "amenity": "post_box", "brand": "United States Postal Service", "brand:wikidata": "Q668687", "collection_times": "Mo-Sa 14:00", "name": "USPS COLLECTION BOX - BLUE BOX", "note": "ON 12/24 AND 12/31, THIS BOX MAY BE COLLECTED AS EARLY AS 12 NOON.", "nsi_id": "unitedstatespostalservice-a77078", "operator": "United States Postal Service", "operator:short": "USPS", "operator:type": "public", "operator:wikidata": "Q668687", "ref": "4771100036"}, "type": "Feature"}
{"geometry": {"coordinates": [-87.5568287, 37.981857], "type": "Point"}, "id": "Pk_rAaOBAJyZS70a7Luc2AtuB7I=", "properties": {"@spider": "usps_collection_boxes", "addr:city": "EVANSVILLE", "addr:country": "US", "addr:full": "523 E VIRGINIA ST", "addr:postcode": "47711", "addr:state": "IN", "amenity": "post_box", "brand": "United States Postal Service", "brand:wikidata": "Q668687", "collection_times": "Mo-Sa 14:00", "name": "USPS COLLECTION BOX - BLUE BOX", "note": "ON 12/24 AND 12/31, THIS BOX MAY BE COLLECTED AS EARLY AS 12 NOON.", "nsi_id": "unitedstatespostalservice-a77078", "operator": "United States Postal Service", "operator:short": "USPS", "operator:type": "public", "operator:wikidata": "Q668687", "ref": "4771100041"}, "type": "Feature"}
{"geometry": {"coordinates": [-87.5284466, 37.979596], "type": "Point"}, "id": "YGyTq9fFWSVlhg4_2KZEGswLn50=", "properties": {"@spider": "usps_collection_boxes", "addr:city": "EVANSVILLE", "addr:country": "US", "addr:full": "125 N WEINBACH AVE", "addr:postcode": "47711", "addr:state": "IN", "amenity": "post_box", "brand": "United States Postal Service", "brand:wikidata": "Q668687", "collection_times": "Mo-Sa 13:00", "name": "USPS COLLECTION BOX - BLUE BOX", "note": "ON 12/24 AND 12/31, THIS BOX MAY BE COLLECTED AS EARLY AS 12 NOON.", "nsi_id": "unitedstatespostalservice-a77078", "operator": "United States Postal Service", "operator:short": "USPS", "operator:type": "public", "operator:wikidata": "Q668687", "ref": "4771100046"}, "type": "Feature"}
{"geometry": {"coordinates": [-87.5298288, 37.983397], "type": "Point"}, "id": "k7Qo_DXoGPTOY5C1gC64qkUEShM=", "properties": {"@spider": "usps_collection_boxes", "addr:city": "EVANSVILLE", "addr:country": "US", "addr:full": "600 N WEINBACH AVE", "addr:postcode": "47711", "addr:state": "IN", "amenity": "post_box", "brand": "United States Postal Service", "brand:wikidata": "Q668687", "collection_times": "Mo-Sa 13:00", "name": "USPS COLLECTION BOX - BLUE BOX", "note": "ON 12/24 AND 12/31, THIS BOX MAY BE COLLECTED AS EARLY AS 12 NOON.", "nsi_id": "unitedstatespostalservice-a77078", "operator": "United States Postal Service", "operator:short": "USPS", "operator:type": "public", "operator:wikidata": "Q668687", "ref": "4771100047"}, "type": "Feature"}
{"geometry": {"coordinates": [-87.5285289, 37.983919], "type": "Point"}, "id": "87Lw9FoPv809t4O8U933c5w79h4=", "properties": {"@spider": "usps_collection_boxes", "addr:city": "EVANSVILLE", "addr:country": "US", "addr:full": "701 N WEINBACH AVE", "addr:postcode": "47711", "addr:state": "IN", "amenity": "post_box", "brand": "United States Postal Service", "brand:wikidata": "Q668687", "collection_times": "Mo-Sa 13:00", "name": "USPS COLLECTION BOX - BLUE BOX", "note": "ON 12/24 AND 12/31, THIS BOX MAY BE COLLECTED AS EARLY AS 12 NOON.", "nsi_id": "unitedstatespostalservice-a77078", "operator": "United States Postal Service", "operator:short": "USPS", "operator:type": "public", "operator:wikidata": "Q668687", "ref": "4771100048"}, "type": "Feature"}
{"geometry": {"coordinates": [-87.5280421, 37.993777], "type": "Point"}, "id": "rKxCzzhArJVLb1zuj58KE5WbUOU=", "properties": {"@spider": "usps_collection_boxes", "addr:city": "EVANSVILLE", "addr:country": "US", "addr:full": "2015 MAXWELL AVE", "addr:postcode": "47711", "addr:state": "IN", "amenity": "post_box", "brand": "United States Postal Service", "brand:wikidata": "Q668687", "collection_times": "Mo-Sa 13:00", "name": "USPS COLLECTION BOX - BLUE BOX", "note": "ON 12/24 AND 12/31, THIS BOX MAY BE COLLECTED AS EARLY AS 12 NOON.", "nsi_id": "unitedstatespostalservice-a77078", "operator": "United States Postal Service", "operator:short": "USPS", "operator:type": "public", "operator:wikidata": "Q668687", "ref": "4771100050"}, "type": "Feature"}
{"geometry": {"coordinates": [-87.5573499, 38.09293], "type": "Point"}, "id": "CvLmkmDbKrC2rJB8oAjyco88xCo=", "properties": {"@spider": "usps_collection_boxes", "addr:city": "EVANSVILLE", "addr:country": "US", "addr:full": "12500 HIGHWAY 41 N", "addr:postcode": "47711", "addr:state": "IN", "amenity": "post_box", "brand": "United States Postal Service", "brand:wikidata": "Q668687", "collection_times": "Mo-Sa 14:00", "name": "USPS COLLECTION BOX - BLUE BOX", "note": "ON 12/24 AND 12/31, THIS BOX MAY BE COLLECTED AS EARLY AS 12 NOON.", "nsi_id": "unitedstatespostalservice-a77078", "operator": "United States Postal Service", "operator:short": "USPS", "operator:type": "public", "operator:wikidata": "Q668687", "ref": "4771100052"}, "type": "Feature"}
{"geometry": {"coordinates": [-87.5203341, 37.988038], "type": "Point"}, "id": "_TAcHsfe8BX4rb8_KTFZ09-mYFQ=", "properties": {"@spider": "usps_collection_boxes", "addr:city": "EVANSVILLE", "addr:country": "US", "addr:full": "1200 N BOEKE RD", "addr:postcode": "47711", "addr:state": "IN", "amenity": "post_box", "brand": "United States Postal Service", "brand:wikidata": "Q668687", "collection_times": "Mo-Sa 13:00", "name": "USPS COLLECTION BOX - BLUE BOX", "note": "ON 12/24 AND 12/31, THIS BOX MAY BE COLLECTED AS EARLY AS 12 NOON.", "nsi_id": "unitedstatespostalservice-a77078", "operator": "United States Postal Service", "operator:short": "USPS", "operator:type": "public", "operator:wikidata": "Q668687", "ref": "4771100053"}, "type": "Feature"}
{"geometry": {"coordinates": [-87.4905688882, 38.0899711152], "type": "Point"}, "id": "LpRWGhf9kX7emIGH43Qi7ET3p-o=", "properties": {"@spider": "usps_collection_boxes", "addr:city": "EVANSVILLE", "addr:country": "US", "addr:full": "12420 N GREEN RIVER RD", "addr:postcode": "47711", "addr:state": "IN", "amenity": "post_box", "brand": "United States Postal Service", "brand:wikidata": "Q668687", "collection_times": "Mo-Fr 15:00; Sa 14:30", "name": "USPS COLLECTION BOX - BLUE BOX", "note": "ON 12/24 AND 12/31, THIS BOX MAY BE COLLECTED AS EARLY AS 12 NOON.", "nsi_id": "unitedstatespostalservice-a77078", "operator": "United States Postal Service", "operator:short": "USPS", "operator:type": "public", "operator:wikidata": "Q668687", "ref": "4771100060"}, "type": "Feature"}
{"geometry": {"coordinates": [-87.6100624, 37.971902], "type": "Point"}, "id": "wWuCCNXZ8I5eRn_cI5meDJf3WvQ=", "properties": {"@spider": "usps_collection_boxes", "addr:city": "EVANSVILLE", "addr:country": "US", "addr:full": "405 S BARKER AVE", "addr:postcode": "47712", "addr:state": "IN", "amenity": "post_box", "brand": "United States Postal Service", "brand:wikidata": "Q668687", "collection_times": "Mo-Sa 12:00", "name": "USPS COLLECTION BOX - BLUE BOX", "nsi_id": "unitedstatespostalservice-a77078", "operator": "United States Postal Service", "operator:short": "USPS", "operator:type": "public", "operator:wikidata": "Q668687", "ref": "4771200000"}, "type": "Feature"}
{"geometry": {"coordinates": [-87.6088884, 37.983243], "type": "Point"}, "id": "oie4vyL-6yGtK_VTRIy8fOsFMcU=", "properties": {"@spider": "usps_collection_boxes", "addr:city": "EVANSVILLE", "addr:country": "US", "addr:full": "2831 MOUNT VERNON AVE", "addr:postcode": "47712", "addr:state": "IN", "amenity": "post_box", "brand": "United States Postal Service", "brand:wikidata": "Q668687", "collection_times": "Mo-Sa 12:00", "name": "USPS COLLECTION BOX - BLUE BOX", "nsi_id": "unitedstatespostalservice-a77078", "operator": "United States Postal Service", "operator:short": "USPS", "operator:type": "public", "operator:wikidata": "Q668687", "ref": "4771200017"}, "type": "Feature"}
{"geometry": {"coordinates": [-87.628641603, 37.9775103182], "type": "Point"}, "id": "DACIzQOF_cvLT0piI3MwlwXB5ic=", "properties": {"@spider": "usps_collection_boxes", "addr:city": "EVANSVILLE", "addr:country": "US", "addr:full": "4440 W LLOYD EXPY", "addr:postcode": "47712", "addr:state": "IN", "amenity": "post_box", "brand": "United States Postal Service", "brand:wikidata": "Q668687", "collection_times": "Mo-Sa 12:00", "name": "USPS COLLECTION BOX - BLUE BOX", "nsi_id": "unitedstatespostalservice-a77078", "operator": "United States Postal Service", "operator:short": "USPS", "operator:type": "public", "operator:wikidata": "Q668687", "ref": "4771200022"}, "type": "Feature"}
{"geometry": {"coordinates": [-87.5995909, 38.007531], "type": "Point"}, "id": "cqtzf6UFGPydeq8f2D9ARR2kowU=", "properties": {"@spider": "usps_collection_boxes", "addr:city": "EVANSVILLE", "addr:country": "US", "addr:full": "3025 N SAINT JOSEPH AVE", "addr:postcode": "47712", "addr:state": "IN", "amenity": "post_box", "brand": "United States Postal Service", "brand:wikidata": "Q668687", "collection_times": "Mo-Sa 12:00", "name": "USPS COLLECTION BOX - BLUE BOX", "nsi_id": "unitedstatespostalservice-a77078", "operator": "United States Postal Service", "operator:short": "USPS", "operator:type": "public", "operator:wikidata": "Q668687", "ref": "4771200023"}, "type": "Feature"}
{"geometry": {"coordinates": [-87.6753993, 37.963196], "type": "Point"}, "id": "4EvDpf0Kg4_Ze5ksaJhKkuWY5K8=", "properties": {"@spider": "usps_collection_boxes", "addr:city": "EVANSVILLE", "addr:country": "US", "addr:full": "8600 UNIVERSITY BLVD", "addr:postcode": "47712", "addr:state": "IN", "amenity": "post_box", "brand": "United States Postal Service", "brand:wikidata": "Q668687", "collection_times": "Mo-Sa 12:00", "name": "USPS COLLECTION BOX - BLUE BOX", "nsi_id": "unitedstatespostalservice-a77078", "operator": "United States Postal Service", "operator:short": "USPS", "operator:type": "public", "operator:wikidata": "Q668687", "ref": "4771200026"}, "type": "Feature"}
{"geometry": {"coordinates": [-87.5936881, 37.984796696], "type": "Point"}, "id": "su7zmUlwBbpNvlsJ0v2M3DmtpJQ=", "properties": {"@spider": "usps_collection_boxes", "addr:city": "EVANSVILLE", "addr:country": "US", "addr:full": "801 N WABASH AVE", "addr:postcode": "47712", "addr:state": "IN", "amenity": "post_box", "brand": "United States Postal Service", "brand:wikidata": "Q668687", "collection_times": "Mo-Sa 16:30", "name": "USPS COLLECTION BOX - BLUE BOX", "note": "ON 12/24 AND 12/31, THIS BOX MAY BE COLLECTED AS EARLY AS 12 NOON.", "nsi_id": "unitedstatespostalservice-a77078", "operator": "United States Postal Service", "operator:short": "USPS", "operator:type": "public", "operator:wikidata": "Q668687", "ref": "4771200028"}, "type": "Feature"}
{"geometry": {"coordinates": [-87.5970235, 37.977319], "type": "Point"}, "id": "cjiMwO0mEKb_YeI8wxehQcJPrWk=", "properties": {"@spider": "usps_collection_boxes", "addr:city": "EVANSVILLE", "addr:country": "US", "addr:full": "10 S 11TH AVE", "addr:postcode": "47712", "addr:state": "IN", "amenity": "post_box", "brand": "United States Postal Service", "brand:wikidata": "Q668687", "collection_times": "Mo-Sa 12:00", "name": "USPS COLLECTION BOX - BLUE BOX", "nsi_id": "unitedstatespostalservice-a77078", "operator": "United States Postal Service", "operator:short": "USPS", "operator:type": "public", "operator:wikidata": "Q668687", "ref": "4771200034"}, "type": "Feature"}
{"geometry": {"coordinates": [-87.5936881, 37.984796696], "type": "Point"}, "id": "_uNkmt7JY_Hpg_40SnX6nh5p7NM=", "properties": {"@spider": "usps_collection_boxes", "addr:city": "EVANSVILLE", "addr:country": "US", "addr:full": "801 N WABASH AVE", "addr:postcode": "47712", "addr:state": "IN", "amenity": "post_box", "brand": "United States Postal Service", "brand:wikidata": "Q668687", "collection_times": "Mo-Sa 16:30", "name": "USPS COLLECTION BOX - BLUE BOX", "note": "ON 12/24 AND 12/31, THIS BOX MAY BE COLLECTED AS EARLY AS 12 NOON.", "nsi_id": "unitedstatespostalservice-a77078", "operator": "United States Postal Service", "operator:short": "USPS", "operator:type": "public", "operator:wikidata": "Q668687", "ref": "4771200036"}, "type": "Feature"}
{"geometry": {"coordinates": [-87.5913864, 38.028474], "type": "Point"}, "id": "KHqsXDzWBYvS8HnYPiG9dcYyzEs=", "properties": {"@spider": "usps_collection_boxes", "addr:city": "EVANSVILLE", "addr:country": "US", "addr:full": "5146 NITTANY WAY", "addr:postcode": "47712", "addr:state": "IN", "amenity": "post_box", "brand": "United States Postal Service", "brand:wikidata": "Q668687", "collection_times": "Mo-Sa 14:00", "name": "USPS COLLECTION BOX - BLUE BOX", "note": "ON 12/24 AND 12/31, THIS BOX MAY BE COLLECTED AS EARLY AS 12 NOON.", "nsi_id": "unitedstatespostalservice-a77078", "operator": "United States Postal Service", "operator:short": "USPS", "operator:type": "public", "operator:wikidata": "Q668687", "ref": "4771200038"}, "type": "Feature"}
{"geometry": {"coordinates": [-87.6327379, 37.979192], "type": "Point"}, "id": "YvRQLnxI_Y6USQcwIaeoTtuqSMw=", "properties": {"@spider": "usps_collection_boxes", "addr:city": "EVANSVILLE", "addr:country": "US", "addr:full": "4551 UNIVERSITY DR", "addr:postcode": "47712", "addr:state": "IN", "amenity": "post_box", "brand": "United States Postal Service", "brand:wikidata": "Q668687", "collection_times": "Mo-Sa 12:00", "name": "USPS COLLECTION BOX - BLUE BOX", "nsi_id": "unitedstatespostalservice-a77078", "operator": "United States Postal Service", "operator:short": "USPS", "operator:type": "public", "operator:wikidata": "Q668687", "ref": "4771200041"}, "type": "Feature"}
{"geometry": {"coordinates": [-87.6409812, 37.97451], "type": "Point"}, "id": "fmExB3D7FD6vVWBgwDMnfPlgdSE=", "properties": {"@spider": "usps_collection_boxes", "addr:city": "EVANSVILLE", "addr:country": "US", "addr:full": "5405 PEARL DR", "addr:postcode": "47712", "addr:state": "IN", "amenity": "post_box", "brand": "United States Postal Service", "brand:wikidata": "Q668687", "collection_times": "Mo-Sa 12:00", "name": "USPS COLLECTION BOX - BLUE BOX", "nsi_id": "unitedstatespostalservice-a77078", "operator": "United States Postal Service", "operator:short": "USPS", "operator:type": "public", "operator:wikidata": "Q668687", "ref": "4771200043"}, "type": "Feature"}
{"geometry": {"coordinates": [-87.5936881, 37.984796696], "type": "Point"}, "id": "N04tkfx3eOLPrGl5CLotl8ALJ0o=", "properties": {"@spider": "usps_collection_boxes", "addr:city": "EVANSVILLE", "addr:country": "US", "addr:full": "801 N WABASH AVE", "addr:postcode": "47712", "addr:state": "IN", "amenity": "post_box", "brand": "United States Postal Service", "brand:wikidata": "Q668687", "collection_times": "Mo-Sa 16:30", "name": "USPS COLLECTION BOX - PO LOBBY", "note": "ON 12/24 AND 12/31, THIS BOX MAY BE COLLECTED AS EARLY AS 12 NOON.", "nsi_id": "unitedstatespostalservice-a77078", "operator": "United States Postal Service", "operator:short": "USPS", "operator:type": "public", "operator:wikidata": "Q668687", "ref": "4771200047"}, "type": "Feature"}
{"geometry": {"coordinates": [-87.5936881, 37.984796696], "type": "Point"}, "id": "9Wpupsrnl6KA5LPAi00GWcLC73A=", "properties": {"@spider": "usps_collection_boxes", "addr:city": "EVANSVILLE", "addr:country": "US", "addr:full": "801 N WABASH AVE", "addr:postcode": "47712", "addr:state": "IN", "amenity": "post_box", "brand": "United States Postal Service", "brand:wikidata": "Q668687", "collection_times": "Mo-Sa 16:30", "name": "USPS COLLECTION BOX - PO LOBBY", "note": "ON 12/24 AND 12/31, THIS BOX MAY BE COLLECTED AS EARLY AS 12 NOON.", "nsi_id": "unitedstatespostalservice-a77078", "operator": "United States Postal Service", "operator:short": "USPS", "operator:type": "public", "operator:wikidata": "Q668687", "ref": "4771200052"}, "type": "Feature"}
{"geometry": {"coordinates": [-87.5705960149, 37.9721770007], "type": "Point"}, "id": "QzWVD0G16giaN4Gh7n-QV6cgVVA=", "properties": {"@spider": "usps_collection_boxes", "addr:city": "EVANSVILLE", "addr:country": "US", "addr:full": "420 MAIN ST", "addr:postcode": "47713", "addr:state": "IN", "amenity": "post_box", "brand": "United States Postal Service", "brand:wikidata": "Q668687", "collection_times": "Mo-Fr 13:00", "name": "USPS COLLECTION BOX - BLUE BOX", "note": "ON 12/24 AND 12/31, THIS BOX MAY BE COLLECTED AS EARLY AS 12 NOON.", "nsi_id": "unitedstatespostalservice-a77078", "operator": "United States Postal Service", "operator:short": "USPS", "operator:type": "public", "operator:wikidata": "Q668687", "ref": "4771300009"}, "type": "Feature"}
{"geometry": {"coordinates": [-87.5745927, 37.970303], "type": "Point"}, "id": "1MCP9s_OGl_H9KMIItJK941yHT0=", "properties": {"@spider": "usps_collection_boxes", "addr:city": "EVANSVILLE", "addr:country": "US", "addr:full": "110 MAIN ST", "addr:postcode": "47713", "addr:state": "IN", "amenity": "post_box", "brand": "United States Postal Service", "brand:wikidata": "Q668687", "collection_times": "Mo-Fr 13:00", "name": "USPS COLLECTION BOX - BLUE BOX", "note": "ON 12/24 AND 12/31, THIS BOX MAY BE COLLECTED AS EARLY AS 12 NOON.", "nsi_id": "unitedstatespostalservice-a77078", "operator": "United States Postal Service", "operator:short": "USPS", "operator:type": "public", "operator:wikidata": "Q668687", "ref": "4771300013"}, "type": "Feature"}
{"geometry": {"coordinates": [-87.5718628, 37.97235], "type": "Point"}, "id": "gHw_0dMPaYKK0SIvdM53dbYzCdg=", "properties": {"@spider": "usps_collection_boxes", "addr:city": "EVANSVILLE", "addr:country": "US", "addr:full": "20 NW 4TH ST", "addr:postcode": "47713", "addr:state": "IN", "amenity": "post_box", "brand": "United States Postal Service", "brand:wikidata": "Q668687", "collection_times": "Mo-Fr 13:00", "name": "USPS COLLECTION BOX - BLUE BOX", "note": "ON 12/24 AND 12/31, THIS BOX MAY BE COLLECTED AS EARLY AS 12 NOON.", "nsi_id": "unitedstatespostalservice-a77078", "operator": "United States Postal Service", "operator:short": "USPS", "operator:type": "public", "operator:wikidata": "Q668687", "ref": "4771300015"}, "type": "Feature"}
{"geometry": {"coordinates": [-87.5723653, 37.973239], "type": "Point"}, "id": "tJ2cUsHNmplsrRYgIt5zJgz1kNc=", "properties": {"@spider": "usps_collection_boxes", "addr:city": "EVANSVILLE", "addr:country": "US", "addr:full": "123 NW 4TH ST", "addr:postcode": "47713", "addr:state": "IN", "amenity": "post_box", "brand": "United States Postal Service", "brand:wikidata": "Q668687", "collection_times": "Mo-Fr 13:00", "name": "USPS COLLECTION BOX - BLUE BOX", "note": "ON 12/24 AND 12/31, THIS BOX MAY BE COLLECTED AS EARLY AS 12 NOON.", "nsi_id": "unitedstatespostalservice-a77078", "operator": "United States Postal Service", "operator:short": "USPS", "operator:type": "public", "operator:wikidata": "Q668687", "ref": "4771300016"}, "type": "Feature"}
{"geometry": {"coordinates": [-87.5693574, 37.972172], "type": "Point"}, "id": "nj0tOESVP8eOHTXoXBtCk7BFXrg=", "properties": {"@spider": "usps_collection_boxes", "addr:city": "EVANSVILLE", "addr:country": "US", "addr:full": "501 MAIN ST", "addr:postcode": "47713", "addr:state": "IN", "amenity": "post_box", "brand": "United States Postal Service", "brand:wikidata": "Q668687", "collection_times": "Mo-Fr 13:00", "name": "USPS COLLECTION BOX - BLUE BOX", "note": "ON 12/24 AND 12/31, THIS BOX MAY BE COLLECTED AS EARLY AS 12 NOON.", "nsi_id": "unitedstatespostalservice-a77078", "operator": "United States Postal Service", "operator:short": "USPS", "operator:type": "public", "operator:wikidata": "Q668687", "ref": "4771300029"}, "type": "Feature"}
{"geometry": {"coordinates": [-87.5750574, 37.971333], "type": "Point"}, "id": "7sxNtq4g3d73C-w3p4wiICV_l-8=", "properties": {"@spider": "usps_collection_boxes", "addr:city": "EVANSVILLE", "addr:country": "US", "addr:full": "101 NW 2ND ST", "addr:postcode": "47713", "addr:state": "IN", "amenity": "post_box", "brand": "United States Postal Service", "brand:wikidata": "Q668687", "collection_times": "Mo-Fr 13:00", "name": "USPS COLLECTION BOX - BLUE BOX", "note": "ON 12/24 AND 12/31, THIS BOX MAY BE COLLECTED AS EARLY AS 12 NOON.", "nsi_id": "unitedstatespostalservice-a77078", "operator": "United States Postal Service", "operator:short": "USPS", "operator:type": "public", "operator:wikidata": "Q668687", "ref": "4771300035"}, "type": "Feature"}
{"geometry": {"coordinates": [-87.5670355, 37.973716], "type": "Point"}, "id": "IUr4IKdQ50VrhppCLaGafpSF7c0=", "properties": {"@spider": "usps_collection_boxes", "addr:city": "EVANSVILLE", "addr:country": "US", "addr:full": "1 NW MARTIN LUTHER KING JR BLVD", "addr:postcode": "47713", "addr:state": "IN", "amenity": "post_box", "brand": "United States Postal Service", "brand:wikidata": "Q668687", "collection_times": "Mo-Fr 14:00", "name": "USPS COLLECTION BOX - BLUE BOX", "note": "ON 12/24 AND 12/31, THIS BOX MAY BE COLLECTED AS EARLY AS 12 NOON.", "nsi_id": "unitedstatespostalservice-a77078", "operator": "United States Postal Service", "operator:short": "USPS", "operator:type": "public", "operator:wikidata": "Q668687", "ref": "4771300036"}, "type": "Feature"}
{"geometry": {"coordinates": [-87.5734659, 37.967922], "type": "Point"}, "id": "mSUZWbyKRKQUarlCHzyRWo35lGY=", "properties": {"@spider": "usps_collection_boxes", "addr:city": "EVANSVILLE", "addr:country": "US", "addr:full": "20 WALNUT CTR", "addr:postcode": "47713", "addr:state": "IN", "amenity": "post_box", "brand": "United States Postal Service", "brand:wikidata": "Q668687", "collection_times": "Mo-Fr 13:00", "name": "USPS COLLECTION BOX - BLUE BOX", "note": "ON 12/24 AND 12/31, THIS BOX MAY BE COLLECTED AS EARLY AS 12 NOON.", "nsi_id": "unitedstatespostalservice-a77078", "operator": "United States Postal Service", "operator:short": "USPS", "operator:type": "public", "operator:wikidata": "Q668687", "ref": "4771300048"}, "type": "Feature"}
{"geometry": {"coordinates": [-87.5482788, 37.962735], "type": "Point"}, "id": "xD3amOdzx5D8Axa-QgEZL7lxHlY=", "properties": {"@spider": "usps_collection_boxes", "addr:city": "EVANSVILLE", "addr:country": "US", "addr:full": "961 WASHINGTON AVE", "addr:postcode": "47713", "addr:state": "IN", "amenity": "post_box", "brand": "United States Postal Service", "brand:wikidata": "Q668687", "collection_times": "Mo-Fr 13:00", "name": "USPS COLLECTION BOX - BLUE BOX", "note": "ON 12/24 AND 12/31, THIS BOX MAY BE COLLECTED AS EARLY AS 12 NOON.", "nsi_id": "unitedstatespostalservice-a77078", "operator": "United States Postal Service", "operator:short": "USPS", "operator:type": "public", "operator:wikidata": "Q668687", "ref": "4771300050"}, "type": "Feature"}
{"geometry": {"coordinates": [-87.567591, 37.969387], "type": "Point"}, "id": "VpqY7bqtUc0shY83w3wFDHp6hO4=", "properties": {"@spider": "usps_collection_boxes", "addr:city": "EVANSVILLE", "addr:country": "US", "addr:full": "421 CHESTNUT ST", "addr:postcode": "47713", "addr:state": "IN", "amenity": "post_box", "brand": "United States Postal Service", "brand:wikidata": "Q668687", "collection_times": "Mo-Fr 13:00", "name": "USPS COLLECTION BOX - BLUE BOX", "note": "ON 12/24 AND 12/31, THIS BOX MAY BE COLLECTED AS EARLY AS 12 NOON.", "nsi_id": "unitedstatespostalservice-a77078", "operator": "United States Postal Service", "operator:short": "USPS", "operator:type": "public", "operator:wikidata": "Q668687", "ref": "4771300054"}, "type": "Feature"}
{"geometry": {"coordinates": [-87.5647966, 37.975068], "type": "Point"}, "id": "9i7pBIHE_crtiRwZkE5AeKXcBn4=", "properties": {"@spider": "usps_collection_boxes", "addr:city": "EVANSVILLE", "addr:country": "US", "addr:full": "915 MAIN ST", "addr:postcode": "47713", "addr:state": "IN", "amenity": "post_box", "brand": "United States Postal Service", "brand:wikidata": "Q668687", "collection_times": "Mo-Fr 14:00", "name": "USPS COLLECTION BOX - BLUE BOX", "note": "ON 12/24 AND 12/31, THIS BOX MAY BE COLLECTED AS EARLY AS 12 NOON.", "nsi_id": "unitedstatespostalservice-a77078", "operator": "United States Postal Service", "operator:short": "USPS", "operator:type": "public", "operator:wikidata": "Q668687", "ref": "4771300055"}, "type": "Feature"}
{"geometry": {"coordinates": [-87.568063, 37.97546], "type": "Point"}, "id": "tnkT9KrUjDhw5Dh0PNjPQN_yaIM=", "properties": {"@spider": "usps_collection_boxes", "addr:city": "EVANSVILLE", "addr:country": "US", "addr:full": "801 VINE ST", "addr:postcode": "47713", "addr:state": "IN", "amenity": "post_box", "brand": "United States Postal Service", "brand:wikidata": "Q668687", "collection_times": "Mo-Fr 17:30; Sa 17:00", "name": "USPS COLLECTION BOX - BLUE BOX", "note": "ON 12/24 AND 12/31, THIS BOX MAY BE COLLECTED AS EARLY AS 12 NOON.", "nsi_id": "unitedstatespostalservice-a77078", "operator": "United States Postal Service", "operator:short": "USPS", "operator:type": "public", "operator:wikidata": "Q668687", "ref": "4771300062"}, "type": "Feature"}
{"geometry": {"coordinates": [-87.567474, 37.974625], "type": "Point"}, "id": "okIqhJFcPFB0msnZINlQHxOTp5U=", "properties": {"@spider": "usps_collection_boxes", "addr:city": "EVANSVILLE", "addr:country": "US", "addr:full": "800 SYCAMORE ST", "addr:postcode": "47713", "addr:state": "IN", "amenity": "post_box", "brand": "United States Postal Service", "brand:wikidata": "Q668687", "collection_times": "Mo-Fr 16:30", "name": "USPS COLLECTION BOX - PO LOBBY", "note": "ON 12/24 AND 12/31, THIS BOX MAY BE COLLECTED AS EARLY AS 12 NOON.", "nsi_id": "unitedstatespostalservice-a77078", "operator": "United States Postal Service", "operator:short": "USPS", "operator:type": "public", "operator:wikidata": "Q668687", "ref": "4771300063"}, "type": "Feature"}
{"geometry": {"coordinates": [-87.5726349, 37.971474], "type": "Point"}, "id": "E3qUbUhQOgv0ILjLx7s6CHNBxLE=", "properties": {"@spider": "usps_collection_boxes", "addr:city": "EVANSVILLE", "addr:country": "US", "addr:full": "20 NW 3RD ST", "addr:postcode": "47713", "addr:state": "IN", "amenity": "post_box", "brand": "United States Postal Service", "brand:wikidata": "Q668687", "collection_times": "Mo-Fr 13:00", "name": "USPS COLLECTION BOX - BLUE BOX", "note": "ON 12/24 AND 12/31, THIS BOX MAY BE COLLECTED AS EARLY AS 12 NOON.", "nsi_id": "unitedstatespostalservice-a77078", "operator": "United States Postal Service", "operator:short": "USPS", "operator:type": "public", "operator:wikidata": "Q668687", "ref": "4771300064"}, "type": "Feature"}
{"geometry": {"coordinates": [-87.5718706, 37.972371], "type": "Point"}, "id": "wP7GR5ZQaY4TKrzECEzVW467lXk=", "properties": {"@spider": "usps_collection_boxes", "addr:city": "EVANSVILLE", "addr:country": "US", "addr:full": "20 NW 4TH ST", "addr:postcode": "47713", "addr:state": "IN", "amenity": "post_box", "brand": "United States Postal Service", "brand:wikidata": "Q668687", "collection_times": "Mo-Fr 13:00", "name": "USPS COLLECTION BOX - BLUE BOX", "note": "ON 12/24 AND 12/31, THIS BOX MAY BE COLLECTED AS EARLY AS 12 NOON.", "nsi_id": "unitedstatespostalservice-a77078", "operator": "United States Postal Service", "operator:short": "USPS", "operator:type": "public", "operator:wikidata": "Q668687", "ref": "4771300071"}, "type": "Feature"}
{"geometry": {"coordinates": [-87.5721118, 37.969938], "type": "Point"}, "id": "qNc7fcSB9KhGPthTWn9tG3T_jsA=", "properties": {"@spider": "usps_collection_boxes", "addr:city": "EVANSVILLE", "addr:country": "US", "addr:full": "21 SE 3RD ST", "addr:postcode": "47713", "addr:state": "IN", "amenity": "post_box", "brand": "United States Postal Service", "brand:wikidata": "Q668687", "collection_times": "Mo-Fr 13:00", "name": "USPS COLLECTION BOX - BLUE BOX", "note": "ON 12/24 AND 12/31, THIS BOX MAY BE COLLECTED AS EARLY AS 12 NOON.", "nsi_id": "unitedstatespostalservice-a77078", "operator": "United States Postal Service", "operator:short": "USPS", "operator:type": "public", "operator:wikidata": "Q668687", "ref": "4771300075"}, "type": "Feature"}
{"geometry": {"coordinates": [-87.5741593, 37.969465], "type": "Point"}, "id": "9nNfsNHUgcjt3ksH7eSU2lb7VUA=", "properties": {"@spider": "usps_collection_boxes", "addr:city": "EVANSVILLE", "addr:country": "US", "addr:full": "1 MAIN ST", "addr:postcode": "47713", "addr:state": "IN", "amenity": "post_box", "brand": "United States Postal Service", "brand:wikidata": "Q668687", "collection_times": "Mo-Fr 13:00", "name": "USPS COLLECTION BOX - BLUE BOX", "note": "ON 12/24 AND 12/31, THIS BOX MAY BE COLLECTED AS EARLY AS 12 NOON.", "nsi_id": "unitedstatespostalservice-a77078", "operator": "United States Postal Service", "operator:short": "USPS", "operator:type": "public", "operator:wikidata": "Q668687", "ref": "4771300080"}, "type": "Feature"}
{"geometry": {"coordinates": [-87.5745799, 37.970286], "type": "Point"}, "id": "QZ3qQduJZySpFkoNFdZ_Ji0F8xI=", "properties": {"@spider": "usps_collection_boxes", "addr:city": "EVANSVILLE", "addr:country": "US", "addr:full": "110 MAIN ST", "addr:postcode": "47713", "addr:state": "IN", "amenity": "post_box", "brand": "United States Postal Service", "brand:wikidata": "Q668687", "collection_times": "Mo-Fr 13:00", "name": "USPS COLLECTION BOX - BLUE BOX", "note": "ON 12/24 AND 12/31, THIS BOX MAY BE COLLECTED AS EARLY AS 12 NOON.", "nsi_id": "unitedstatespostalservice-a77078", "operator": "United States Postal Service", "operator:short": "USPS", "operator:type": "public", "operator:wikidata": "Q668687", "ref": "4771300086"}, "type": "Feature"}
{"geometry": {"coordinates": [-87.5659638, 37.969884], "type": "Point"}, "id": "Nh94HEN6BOh5t0YaIIwsCwKo9SU=", "properties": {"@spider": "usps_collection_boxes", "addr:city": "EVANSVILLE", "addr:country": "US", "addr:full": "315 SE MARTIN LUTHER KING JR BLVD", "addr:postcode": "47713", "addr:state": "IN", "amenity": "post_box", "brand": "United States Postal Service", "brand:wikidata": "Q668687", "collection_times": "Mo-Fr 13:00", "name": "USPS COLLECTION BOX - BLUE BOX", "note": "ON 12/24 AND 12/31, THIS BOX MAY BE COLLECTED AS EARLY AS 12 NOON.", "nsi_id": "unitedstatespostalservice-a77078", "operator": "United States Postal Service", "operator:short": "USPS", "operator:type": "public", "operator:wikidata": "Q668687", "ref": "4771300087"}, "type": "Feature"}
{"geometry": {"coordinates": [-87.568064, 37.975457], "type": "Point"}, "id": "nHN-7xt_e3I7XIiWJYXHOmZ7-ok=", "properties": {"@spider": "usps_collection_boxes", "addr:city": "EVANSVILLE", "addr:country": "US", "addr:full": "801 VINE ST", "addr:postcode": "47713", "addr:state": "IN", "amenity": "post_box", "brand": "United States Postal Service", "brand:wikidata": "Q668687", "collection_times": "Mo-Fr 17:30; Sa 17:00", "name": "USPS COLLECTION BOX - BLUE BOX", "note": "ON 12/24 AND 12/31, THIS BOX MAY BE COLLECTED AS EARLY AS 12 NOON.", "nsi_id": "unitedstatespostalservice-a77078", "operator": "United States Postal Service", "operator:short": "USPS", "operator:type": "public", "operator:wikidata": "Q668687", "ref": "4771300088"}, "type": "Feature"}
{"geometry": {"coordinates": [-87.5712261, 37.971496], "type": "Point"}, "id": "lb61_2RZKiEx9nlk3OnHUQKMFV8=", "properties": {"@spider": "usps_collection_boxes", "addr:city": "EVANSVILLE", "addr:country": "US", "addr:full": "329 MAIN ST", "addr:postcode": "47713", "addr:state": "IN", "amenity": "post_box", "brand": "United States Postal Service", "brand:wikidata": "Q668687", "collection_times": "Mo-Fr 13:00", "name": "USPS COLLECTION BOX - BLUE BOX", "note": "ON 12/24 AND 12/31, THIS BOX MAY BE COLLECTED AS EARLY AS 12 NOON.", "nsi_id": "unitedstatespostalservice-a77078", "operator": "United States Postal Service", "operator:short": "USPS", "operator:type": "public", "operator:wikidata": "Q668687", "ref": "4771300091"}, "type": "Feature"}
{"geometry": {"coordinates": [-87.5245784, 37.967058], "type": "Point"}, "id": "hWR4cg0--qjl6ZeJen89NtXg5WA=", "properties": {"@spider": "usps_collection_boxes", "addr:city": "EVANSVILLE", "addr:country": "US", "addr:full": "751 S ALVORD BLVD", "addr:postcode": "47714", "addr:state": "IN", "amenity": "post_box", "brand": "United States Postal Service", "brand:wikidata": "Q668687", "collection_times": "Mo-Sa 12:00", "name": "USPS COLLECTION BOX - BLUE BOX", "nsi_id": "unitedstatespostalservice-a77078", "operator": "United States Postal Service", "operator:short": "USPS", "operator:type": "public", "operator:wikidata": "Q668687", "ref": "4771400000"}, "type": "Feature"}
{"geometry": {"coordinates": [-87.5044989, 37.967675], "type": "Point"}, "id": "7Qoh7lS4EodWSe-hfl2IRn8j75I=", "properties": {"@spider": "usps_collection_boxes", "addr:city": "EVANSVILLE", "addr:country": "US", "addr:full": "3700 BELLEMEADE AVE", "addr:postcode": "47714", "addr:state": "IN", "amenity": "post_box", "brand": "United States Postal Service", "brand:wikidata": "Q668687", "collection_times": "Mo-Sa 12:00", "name": "USPS COLLECTION BOX - BLUE BOX", "nsi_id": "unitedstatespostalservice-a77078", "operator": "United States Postal Service", "operator:short": "USPS", "operator:type": "public", "operator:wikidata": "Q668687", "ref": "4771400003"}, "type": "Feature"}
{"geometry": {"coordinates": [-87.5204757, 37.944481], "type": "Point"}, "id": "lEdAeBFHoKCDbgX_mcykr4a26ts=", "properties": {"@spider": "usps_collection_boxes", "addr:city": "EVANSVILLE", "addr:country": "US", "addr:full": "2400 E RIVERSIDE DR", "addr:postcode": "47714", "addr:state": "IN", "amenity": "post_box", "brand": "United States Postal Service", "brand:wikidata": "Q668687", "collection_times": "Mo-Sa 12:00", "name": "USPS COLLECTION BOX - BLUE BOX", "nsi_id": "unitedstatespostalservice-a77078", "operator": "United States Postal Service", "operator:short": "USPS", "operator:type": "public", "operator:wikidata": "Q668687", "ref": "4771400004"}, "type": "Feature"}
{"geometry": {"coordinates": [-87.5111818, 37.950773], "type": "Point"}, "id": "_BuMqWRiBrE1AyDsW5NhjFjV2zg=", "properties": {"@spider": "usps_collection_boxes", "addr:city": "EVANSVILLE", "addr:country": "US", "addr:full": "1800 VANN AVE", "addr:postcode": "47714", "addr:state": "IN", "amenity": "post_box", "brand": "United States Postal Service", "brand:wikidata": "Q668687", "collection_times": "Mo-Sa 12:00", "name": "USPS COLLECTION BOX - BLUE BOX", "nsi_id": "unitedstatespostalservice-a77078", "operator": "United States Postal Service", "operator:short": "USPS", "operator:type": "public", "operator:wikidata": "Q668687", "ref": "4771400006"}, "type": "Feature"}
{"geometry": {"coordinates": [-87.4934529, 37.955417], "type": "Point"}, "id": "MK1GwlKdtFqKYgQF0bgQRx-4X_c=", "properties": {"@spider": "usps_collection_boxes", "addr:city": "EVANSVILLE", "addr:country": "US", "addr:full": "1551 S GREEN RIVER RD", "addr:postcode": "47714", "addr:state": "IN", "amenity": "post_box", "brand": "United States Postal Service", "brand:wikidata": "Q668687", "collection_times": "Mo-Sa 13:00", "name": "USPS COLLECTION BOX - BLUE BOX", "note": "ON 12/24 AND 12/31, THIS BOX MAY BE COLLECTED AS EARLY AS 12 NOON.", "nsi_id": "unitedstatespostalservice-a77078", "operator": "United States Postal Service", "operator:short": "USPS", "operator:type": "public", "operator:wikidata": "Q668687", "ref": "4771400011"}, "type": "Feature"}
{"geometry": {"coordinates": [-87.4936869, 37.943485], "type": "Point"}, "id": "561c3mh1nmr4Uob9vbL3TArllU0=", "properties": {"@spider": "usps_collection_boxes", "addr:city": "EVANSVILLE", "addr:country": "US", "addr:full": "2519 WILMINGTON CT", "addr:postcode": "47714", "addr:state": "IN", "amenity": "post_box", "brand": "United States Postal Service", "brand:wikidata": "Q668687", "collection_times": "Mo-Sa 13:00", "name": "USPS COLLECTION BOX - BLUE BOX", "note": "ON 12/24 AND 12/31, THIS BOX MAY BE COLLECTED AS EARLY AS 12 NOON.", "nsi_id": "unitedstatespostalservice-a77078", "operator": "United States Postal Service", "operator:short": "USPS", "operator:type": "public", "operator:wikidata": "Q668687", "ref": "4771400012"}, "type": "Feature"}
{"geometry": {"coordinates": [-87.5303159, 37.947076], "type": "Point"}, "id": "biyuOCGQvYiDNIO4Sqad607YQDM=", "properties": {"@spider": "usps_collection_boxes", "addr:city": "EVANSVILLE", "addr:country": "US", "addr:full": "2131 S WEINBACH AVE", "addr:postcode": "47714", "addr:state": "IN", "amenity": "post_box", "brand": "United States Postal Service", "brand:wikidata": "Q668687", "collection_times": "Mo-Sa 12:00", "name": "USPS COLLECTION BOX - BLUE BOX", "nsi_id": "unitedstatespostalservice-a77078", "operator": "United States Postal Service", "operator:short": "USPS", "operator:type": "public", "operator:wikidata": "Q668687", "ref": "4771400024"}, "type": "Feature"}
{"geometry": {"coordinates": [-87.511199838, 37.956699738], "type": "Point"}, "id": "3vqV2psx8ye4ZGz35daeQsmIi8I=", "properties": {"@spider": "usps_collection_boxes", "addr:city": "EVANSVILLE", "addr:country": "US", "addr:full": "1520 VANN AVE", "addr:postcode": "47714", "addr:state": "IN", "amenity": "post_box", "brand": "United States Postal Service", "brand:wikidata": "Q668687", "collection_times": "Mo-Sa 12:00", "name": "USPS COLLECTION BOX - BLUE BOX", "nsi_id": "unitedstatespostalservice-a77078", "operator": "United States Postal Service", "operator:short": "USPS", "operator:type": "public", "operator:wikidata": "Q668687", "ref": "4771400029"}, "type": "Feature"}
{"geometry": {"coordinates": [-87.516000991, 37.973153995], "type": "Point"}, "id": "tuI_3uRP3CpjQftb0okdF3zFaWI=", "properties": {"@spider": "usps_collection_boxes", "addr:city": "EVANSVILLE", "addr:country": "US", "addr:full": "2701 E WALNUT ST", "addr:postcode": "47714", "addr:state": "IN", "amenity": "post_box", "brand": "United States Postal Service", "brand:wikidata": "Q668687", "collection_times": "Mo-Sa 13:00", "name": "USPS COLLECTION BOX - BLUE BOX", "note": "ON 12/24 AND 12/31, THIS BOX MAY BE COLLECTED AS EARLY AS 12 NOON.", "nsi_id": "unitedstatespostalservice-a77078", "operator": "United States Postal Service", "operator:short": "USPS", "operator:type": "public", "operator:wikidata": "Q668687", "ref": "4771400031"}, "type": "Feature"}
{"geometry": {"coordinates": [-87.5038931, 37.96436], "type": "Point"}, "id": "bzs5YpUI6r4KPwGMKwPxQ-y3t9I=", "properties": {"@spider": "usps_collection_boxes", "addr:city": "EVANSVILLE", "addr:country": "US", "addr:full": "3700 WASHINGTON AVE", "addr:postcode": "47714", "addr:state": "IN", "amenity": "post_box", "brand": "United States Postal Service", "brand:wikidata": "Q668687", "collection_times": "Mo-Sa 12:00", "name": "USPS COLLECTION BOX - BLUE BOX", "nsi_id": "unitedstatespostalservice-a77078", "operator": "United States Postal Service", "operator:short": "USPS", "operator:type": "public", "operator:wikidata": "Q668687", "ref": "4771400034"}, "type": "Feature"}
{"geometry": {"coordinates": [-87.530780452, 37.962691536], "type": "Point"}, "id": "YvcsiHHNSGxeukahv3ceAdsckpg=", "properties": {"@spider": "usps_collection_boxes", "addr:city": "EVANSVILLE", "addr:country": "US", "addr:full": "1915 WASHINGTON AVE", "addr:postcode": "47714", "addr:state": "IN", "amenity": "post_box", "brand": "United States Postal Service", "brand:wikidata": "Q668687", "collection_times": "Mo-Fr 16:30; Sa 16:00", "name": "USPS COLLECTION BOX - BLUE BOX", "note": "ON 12/24 AND 12/31, THIS BOX MAY BE COLLECTED AS EARLY AS 12 NOON.", "nsi_id": "unitedstatespostalservice-a77078", "operator": "United States Postal Service", "operator:short": "USPS", "operator:type": "public", "operator:wikidata": "Q668687", "ref": "4771400040"}, "type": "Feature"}
{"geometry": {"coordinates": [-87.4961364, 37.962731], "type": "Point"}, "id": "I4ItkVDs1w55zGOXrXsHtacbJL4=", "properties": {"@spider": "usps_collection_boxes", "addr:city": "EVANSVILLE", "addr:country": "US", "addr:full": "4500 WASHINGTON AVE", "addr:postcode": "47714", "addr:state": "IN", "amenity": "post_box", "brand": "United States Postal Service", "brand:wikidata": "Q668687", "collection_times": "Mo-Sa 13:00", "name": "USPS COLLECTION BOX - BLUE BOX", "note": "ON 12/24 AND 12/31, THIS BOX MAY BE COLLECTED AS EARLY AS 12 NOON.", "nsi_id": "unitedstatespostalservice-a77078", "operator": "United States Postal Service", "operator:short": "USPS", "operator:type": "public", "operator:wikidata": "Q668687", "ref": "4771400041"}, "type": "Feature"}
{"geometry": {"coordinates": [-87.5319588, 37.97303], "type": "Point"}, "id": "Kp4APRhQcU76oH1WhZf-89k_0Fk=", "properties": {"@spider": "usps_collection_boxes", "addr:city": "EVANSVILLE", "addr:country": "US", "addr:full": "1801 E WALNUT ST", "addr:postcode": "47714", "addr:state": "IN", "amenity": "post_box", "brand": "United States Postal Service", "brand:wikidata": "Q668687", "collection_times": "Mo-Sa 12:00", "name": "USPS COLLECTION BOX - BLUE BOX", "nsi_id": "unitedstatespostalservice-a77078", "operator": "United States Postal Service", "operator:short": "USPS", "operator:type": "public", "operator:wikidata": "Q668687", "ref": "4771400042"}, "type": "Feature"}
{"geometry": {"coordinates": [-87.5305093725, 37.9626906039], "type": "Point"}, "id": "VyL5Yclp0H2n6Yzr6aPu8OhQCOU=", "properties": {"@spider": "usps_collection_boxes", "addr:city": "EVANSVILLE", "addr:country": "US", "addr:full": "1915 WASHINGTON AVE", "addr:postcode": "47714", "addr:state": "IN", "amenity": "post_box", "brand": "United States Postal Service", "brand:wikidata": "Q668687", "collection_times": "Mo-Fr 16:30; Sa 16:00", "name": "USPS COLLECTION BOX - BLUE BOX", "note": "ON 12/24 AND 12/31, THIS BOX MAY BE COLLECTED AS EARLY AS 12 NOON.", "nsi_id": "unitedstatespostalservice-a77078", "operator": "United States Postal Service", "operator:short": "USPS", "operator:type": "public", "operator:wikidata": "Q668687", "ref": "4771400047"}, "type": "Feature"}
{"geometry": {"coordinates": [-87.5388776, 37.954795], "type": "Point"}, "id": "Y6DQ9fGEpeqqU8sfi-sL6R678cg=", "properties": {"@spider": "usps_collection_boxes", "addr:city": "EVANSVILLE", "addr:country": "US", "addr:full": "1365 COVERT AVE", "addr:postcode": "47714", "addr:state": "IN", "amenity": "post_box", "brand": "United States Postal Service", "brand:wikidata": "Q668687", "collection_times": "Mo-Sa 12:00", "name": "USPS COLLECTION BOX - BLUE BOX", "nsi_id": "unitedstatespostalservice-a77078", "operator": "United States Postal Service", "operator:short": "USPS", "operator:type": "public", "operator:wikidata": "Q668687", "ref": "4771400052"}, "type": "Feature"}
{"geometry": {"coordinates": [-87.5037879, 37.966866], "type": "Point"}, "id": "x1abvbcXie1onTtFvpqB9khE8g0=", "properties": {"@spider": "usps_collection_boxes", "addr:city": "EVANSVILLE", "addr:country": "US", "addr:full": "3801 BELLEMEADE AVE", "addr:postcode": "47714", "addr:state": "IN", "amenity": "post_box", "brand": "United States Postal Service", "brand:wikidata": "Q668687", "collection_times": "Mo-Sa 12:00", "name": "USPS COLLECTION BOX - BLUE BOX", "nsi_id": "unitedstatespostalservice-a77078", "operator": "United States Postal Service", "operator:short": "USPS", "operator:type": "public", "operator:wikidata": "Q668687", "ref": "4771400054"}, "type": "Feature"}
{"geometry": {"coordinates": [-87.5305190345, 37.9622669928], "type": "Point"}, "id": "TSVkq9cn11BfClHUnUQybYTaXeg=", "properties": {"@spider": "usps_collection_boxes", "addr:city": "EVANSVILLE", "addr:country": "US", "addr:full": "1915 WASHINGTON AVE", "addr:postcode": "47714", "addr:state": "IN", "amenity": "post_box", "brand": "United States Postal Service", "brand:wikidata": "Q668687", "collection_times": "Mo-Fr 16:30; Sa 16:00", "name": "USPS COLLECTION BOX - PO LOBBY", "note": "ON 12/24 AND 12/31, THIS BOX MAY BE COLLECTED AS EARLY AS 12 NOON.", "nsi_id": "unitedstatespostalservice-a77078", "operator": "United States Postal Service", "operator:short": "USPS", "operator:type": "public", "operator:wikidata": "Q668687", "ref": "4771400062"}, "type": "Feature"}
{"geometry": {"coordinates": [-87.5304990017, 37.9622879894], "type": "Point"}, "id": "8drFJ2Ba0OTzy1ihLPlJi5Zoq_Y=", "properties": {"@spider": "usps_collection_boxes", "addr:city": "EVANSVILLE", "addr:country": "US", "addr:full": "1915 WASHINGTON AVE", "addr:postcode": "47714", "addr:state": "IN", "amenity": "post_box", "brand": "United States Postal Service", "brand:wikidata": "Q668687", "collection_times": "Mo-Fr 16:30; Sa 16:00", "name": "USPS COLLECTION BOX - PO LOBBY", "note": "ON 12/24 AND 12/31, THIS BOX MAY BE COLLECTED AS EARLY AS 12 NOON.", "nsi_id": "unitedstatespostalservice-a77078", "operator": "United States Postal Service", "operator:short": "USPS", "operator:type": "public", "operator:wikidata": "Q668687", "ref": "4771400068"}, "type": "Feature"}
{"geometry": {"coordinates": [-87.4875513806, 37.9853807908], "type": "Point"}, "id": "4RQAjnuZq5y62vxInhWrx4RxPaE=", "properties": {"@spider": "usps_collection_boxes", "addr:city": "EVANSVILLE", "addr:country": "US", "addr:full": "5200 CARRIAGE DR", "addr:postcode": "47715", "addr:state": "IN", "amenity": "post_box", "brand": "United States Postal Service", "brand:wikidata": "Q668687", "collection_times": "Mo-Sa 14:00", "name": "USPS COLLECTION BOX - BLUE BOX", "note": "ON 12/24 AND 12/31, THIS BOX MAY BE COLLECTED AS EARLY AS 12 NOON.", "nsi_id": "unitedstatespostalservice-a77078", "operator": "United States Postal Service", "operator:short": "USPS", "operator:type": "public", "operator:wikidata": "Q668687", "ref": "4771500002"}, "type": "Feature"}
{"geometry": {"coordinates": [-87.4544964, 37.970918], "type": "Point"}, "id": "linUxIN4etJx9trflSFFWS_lfDY=", "properties": {"@spider": "usps_collection_boxes", "addr:city": "EVANSVILLE", "addr:country": "US", "addr:full": "8196 LINCOLN AVE", "addr:postcode": "47715", "addr:state": "IN", "amenity": "post_box", "brand": "United States Postal Service", "brand:wikidata": "Q668687", "collection_times": "Mo-Sa 12:00", "name": "USPS COLLECTION BOX - BLUE BOX", "nsi_id": "unitedstatespostalservice-a77078", "operator": "United States Postal Service", "operator:short": "USPS", "operator:type": "public", "operator:wikidata": "Q668687", "ref": "4771500005"}, "type": "Feature"}
{"geometry": {"coordinates": [-87.4584649, 37.97161], "type": "Point"}, "id": "HJ8sN-hELLdtL8iVPiJvTEfHGrE=", "properties": {"@spider": "usps_collection_boxes", "addr:city": "EVANSVILLE", "addr:country": "US", "addr:full": "7724 COVENTRY CT", "addr:postcode": "47715", "addr:state": "IN", "amenity": "post_box", "brand": "United States Postal Service", "brand:wikidata": "Q668687", "collection_times": "Mo-Sa 12:00", "name": "USPS COLLECTION BOX - BLUE BOX", "nsi_id": "unitedstatespostalservice-a77078", "operator": "United States Postal Service", "operator:short": "USPS", "operator:type": "public", "operator:wikidata": "Q668687", "ref": "4771500009"}, "type": "Feature"}
{"geometry": {"coordinates": [-87.495116977, 37.984064006], "type": "Point"}, "id": "FK7sXxvZYgshnXMT3c4S2MTg8pY=", "properties": {"@spider": "usps_collection_boxes", "addr:city": "EVANSVILLE", "addr:country": "US", "addr:full": "800 N GREEN RIVER RD", "addr:postcode": "47715", "addr:state": "IN", "amenity": "post_box", "brand": "United States Postal Service", "brand:wikidata": "Q668687", "collection_times": "Mo-Fr 15:00; Sa 13:15", "name": "USPS COLLECTION BOX - BLUE BOX", "note": "ON 12/24 AND 12/31, THIS BOX MAY BE COLLECTED AS EARLY AS 12 NOON.", "nsi_id": "unitedstatespostalservice-a77078", "operator": "United States Postal Service", "operator:short": "USPS", "operator:type": "public", "operator:wikidata": "Q668687", "ref": "4771500011"}, "type": "Feature"}
{"geometry": {"coordinates": [-87.4904986, 38.006814], "type": "Point"}, "id": "e3elJc0i81DXU9ZgJzyZREXbfQ8=", "properties": {"@spider": "usps_collection_boxes", "addr:city": "EVANSVILLE", "addr:country": "US", "addr:full": "3201 N GREEN RIVER RD", "addr:postcode": "47715", "addr:state": "IN", "amenity": "post_box", "brand": "United States Postal Service", "brand:wikidata": "Q668687", "collection_times": "Mo-Sa 14:00", "name": "USPS COLLECTION BOX - BLUE BOX", "note": "ON 12/24 AND 12/31, THIS BOX MAY BE COLLECTED AS EARLY AS 12 NOON.", "nsi_id": "unitedstatespostalservice-a77078", "operator": "United States Postal Service", "operator:short": "USPS", "operator:type": "public", "operator:wikidata": "Q668687", "ref": "4771500013"}, "type": "Feature"}
{"geometry": {"coordinates": [-87.4523006, 37.972185], "type": "Point"}, "id": "vxJPw5uJFPuOKf9y38HDztMkCs4=", "properties": {"@spider": "usps_collection_boxes", "addr:city": "EVANSVILLE", "addr:country": "US", "addr:full": "8416 LINCOLN AVE", "addr:postcode": "47715", "addr:state": "IN", "amenity": "post_box", "brand": "United States Postal Service", "brand:wikidata": "Q668687", "collection_times": "Mo-Sa 12:00", "name": "USPS COLLECTION BOX - BLUE BOX", "nsi_id": "unitedstatespostalservice-a77078", "operator": "United States Postal Service", "operator:short": "USPS", "operator:type": "public", "operator:wikidata": "Q668687", "ref": "4771500019"}, "type": "Feature"}
{"geometry": {"coordinates": [-87.4854964, 37.949803], "type": "Point"}, "id": "W_ANu81rlwsX1hcp3D7-7zFGNVM=", "properties": {"@spider": "usps_collection_boxes", "addr:city": "EVANSVILLE", "addr:country": "US", "addr:full": "1980 SHOSHONI LN", "addr:postcode": "47715", "addr:state": "IN", "amenity": "post_box", "brand": "United States Postal Service", "brand:wikidata": "Q668687", "collection_times": "Mo-Sa 13:00", "name": "USPS COLLECTION BOX - BLUE BOX", "note": "ON 12/24 AND 12/31, THIS BOX MAY BE COLLECTED AS EARLY AS 12 NOON.", "nsi_id": "unitedstatespostalservice-a77078", "operator": "United States Postal Service", "operator:short": "USPS", "operator:type": "public", "operator:wikidata": "Q668687", "ref": "4771500024"}, "type": "Feature"}
{"geometry": {"coordinates": [-87.4911257, 38.00049], "type": "Point"}, "id": "lky0vif5yDiGcj9MOY10czbzNhI=", "properties": {"@spider": "usps_collection_boxes", "addr:city": "EVANSVILLE", "addr:country": "US", "addr:full": "4901 SUGAR CREEK DR", "addr:postcode": "47715", "addr:state": "IN", "amenity": "post_box", "brand": "United States Postal Service", "brand:wikidata": "Q668687", "collection_times": "Mo-Sa 14:00", "name": "USPS COLLECTION BOX - BLUE BOX", "note": "ON 12/24 AND 12/31, THIS BOX MAY BE COLLECTED AS EARLY AS 12 NOON.", "nsi_id": "unitedstatespostalservice-a77078", "operator": "United States Postal Service", "operator:short": "USPS", "operator:type": "public", "operator:wikidata": "Q668687", "ref": "4771500026"}, "type": "Feature"}
{"geometry": {"coordinates": [-87.5042229, 37.991545], "type": "Point"}, "id": "c_LpLqsqdxXP1KOscqZP6rY5gas=", "properties": {"@spider": "usps_collection_boxes", "addr:city": "EVANSVILLE", "addr:country": "US", "addr:full": "3800 E MORGAN AVE", "addr:postcode": "47715", "addr:state": "IN", "amenity": "post_box", "brand": "United States Postal Service", "brand:wikidata": "Q668687", "collection_times": "Mo-Sa 13:00", "name": "USPS COLLECTION BOX - BLUE BOX", "note": "ON 12/24 AND 12/31, THIS BOX MAY BE COLLECTED AS EARLY AS 12 NOON.", "nsi_id": "unitedstatespostalservice-a77078", "operator": "United States Postal Service", "operator:short": "USPS", "operator:type": "public", "operator:wikidata": "Q668687", "ref": "4771500027"}, "type": "Feature"}
{"geometry": {"coordinates": [-87.4868344, 37.957833], "type": "Point"}, "id": "nWTTrcc8tkRITAdEAZJTyF-DDq8=", "properties": {"@spider": "usps_collection_boxes", "addr:city": "EVANSVILLE", "addr:country": "US", "addr:full": "5301 STONEHEDGE DR", "addr:postcode": "47715", "addr:state": "IN", "amenity": "post_box", "brand": "United States Postal Service", "brand:wikidata": "Q668687", "collection_times": "Mo-Sa 13:00", "name": "USPS COLLECTION BOX - BLUE BOX", "note": "ON 12/24 AND 12/31, THIS BOX MAY BE COLLECTED AS EARLY AS 12 NOON.", "nsi_id": "unitedstatespostalservice-a77078", "operator": "United States Postal Service", "operator:short": "USPS", "operator:type": "public", "operator:wikidata": "Q668687", "ref": "4771500028"}, "type": "Feature"}
{"geometry": {"coordinates": [-87.4954599, 37.987976], "type": "Point"}, "id": "PNNcSCwncmEqHMDaF6IOkfbfnLY=", "properties": {"@spider": "usps_collection_boxes", "addr:city": "EVANSVILLE", "addr:country": "US", "addr:full": "4600 VOGEL RD", "addr:postcode": "47715", "addr:state": "IN", "amenity": "post_box", "brand": "United States Postal Service", "brand:wikidata": "Q668687", "collection_times": "Mo-Sa 14:00", "name": "USPS COLLECTION BOX - BLUE BOX", "note": "ON 12/24 AND 12/31, THIS BOX MAY BE COLLECTED AS EARLY AS 12 NOON.", "nsi_id": "unitedstatespostalservice-a77078", "operator": "United States Postal Service", "operator:short": "USPS", "operator:type": "public", "operator:wikidata": "Q668687", "ref": "4771500031"}, "type": "Feature"}
{"geometry": {"coordinates": [-87.4692827, 37.962312], "type": "Point"}, "id": "baDGDG2oCEO2j1NeLbZ14XEaTSk=", "properties": {"@spider": "usps_collection_boxes", "addr:city": "EVANSVILLE", "addr:country": "US", "addr:full": "6720 WASHINGTON AVE", "addr:postcode": "47715", "addr:state": "IN", "amenity": "post_box", "brand": "United States Postal Service", "brand:wikidata": "Q668687", "collection_times": "Mo-Sa 13:00", "name": "USPS COLLECTION BOX - BLUE BOX", "note": "ON 12/24 AND 12/31, THIS BOX MAY BE COLLECTED AS EARLY AS 12 NOON.", "nsi_id": "unitedstatespostalservice-a77078", "operator": "United States Postal Service", "operator:short": "USPS", "operator:type": "public", "operator:wikidata": "Q668687", "ref": "4771500033"}, "type": "Feature"}
{"geometry": {"coordinates": [-87.475967, 37.997053], "type": "Point"}, "id": "047H3ct_6f1w4X3ZvyBj0kud4cY=", "properties": {"@spider": "usps_collection_boxes", "addr:city": "EVANSVILLE", "addr:country": "US", "addr:full": "6050 WEDEKING AVE", "addr:postcode": "47715", "addr:state": "IN", "amenity": "post_box", "brand": "United States Postal Service", "brand:wikidata": "Q668687", "collection_times": "Mo-Sa 12:00", "name": "USPS COLLECTION BOX - BLUE BOX", "nsi_id": "unitedstatespostalservice-a77078", "operator": "United States Postal Service", "operator:short": "USPS", "operator:type": "public", "operator:wikidata": "Q668687", "ref": "4771500034"}, "type": "Feature"}
{"geometry": {"coordinates": [-87.4758952, 37.975405], "type": "Point"}, "id": "AD1T_xKwUqWfHe2LotxjcI6KouY=", "properties": {"@spider": "usps_collection_boxes", "addr:city": "EVANSVILLE", "addr:country": "US", "addr:full": "100 WILLIAMSBURG DR", "addr:postcode": "47715", "addr:state": "IN", "amenity": "post_box", "brand": "United States Postal Service", "brand:wikidata": "Q668687", "collection_times": "Mo-Sa 13:00", "name": "USPS COLLECTION BOX - BLUE BOX", "note": "ON 12/24 AND 12/31, THIS BOX MAY BE COLLECTED AS EARLY AS 12 NOON.", "nsi_id": "unitedstatespostalservice-a77078", "operator": "United States Postal Service", "operator:short": "USPS", "operator:type": "public", "operator:wikidata": "Q668687", "ref": "4771500035"}, "type": "Feature"}
{"geometry": {"coordinates": [-87.4647229, 37.975675], "type": "Point"}, "id": "uivecUTRnFsDROry9hw7U7NeYsE=", "properties": {"@spider": "usps_collection_boxes", "addr:city": "EVANSVILLE", "addr:country": "US", "addr:full": "7100 EAGLE CREST BLVD", "addr:postcode": "47715", "addr:state": "IN", "amenity": "post_box", "brand": "United States Postal Service", "brand:wikidata": "Q668687", "collection_times": "Mo-Sa 12:00", "name": "USPS COLLECTION BOX - BLUE BOX", "nsi_id": "unitedstatespostalservice-a77078", "operator": "United States Postal Service", "operator:short": "USPS", "operator:type": "public", "operator:wikidata": "Q668687", "ref": "4771500037"}, "type": "Feature"}
{"geometry": {"coordinates": [-87.4913354, 37.979577], "type": "Point"}, "id": "XEIIE9Kox-rBb6i9nctuVU3WAsQ=", "properties": {"@spider": "usps_collection_boxes", "addr:city": "EVANSVILLE", "addr:country": "US", "addr:full": "4904 PLAZA EAST BLVD", "addr:postcode": "47715", "addr:state": "IN", "amenity": "post_box", "brand": "United States Postal Service", "brand:wikidata": "Q668687", "collection_times": "Mo-Sa 14:00", "name": "USPS COLLECTION BOX - BLUE BOX", "note": "ON 12/24 AND 12/31, THIS BOX MAY BE COLLECTED AS EARLY AS 12 NOON.", "nsi_id": "unitedstatespostalservice-a77078", "operator": "United States Postal Service", "operator:short": "USPS", "operator:type": "public", "operator:wikidata": "Q668687", "ref": "4771500038"}, "type": "Feature"}
{"geometry": {"coordinates": [-87.490944, 37.958652], "type": "Point"}, "id": "ekpwYSrrj8u0xNI9N-qkIK_TYeM=", "properties": {"@spider": "usps_collection_boxes", "addr:city": "EVANSVILLE", "addr:country": "US", "addr:full": "5011 WASHINGTON AVE", "addr:postcode": "47715", "addr:state": "IN", "amenity": "post_box", "brand": "United States Postal Service", "brand:wikidata": "Q668687", "collection_times": "Mo-Sa 13:00", "name": "USPS COLLECTION BOX - BLUE BOX", "note": "ON 12/24 AND 12/31, THIS BOX MAY BE COLLECTED AS EARLY AS 12 NOON.", "nsi_id": "unitedstatespostalservice-a77078", "operator": "United States Postal Service", "operator:short": "USPS", "operator:type": "public", "operator:wikidata": "Q668687", "ref": "4771500044"}, "type": "Feature"}
{"geometry": {"coordinates": [-87.4749809, 37.977489], "type": "Point"}, "id": "K5xe2E8JFI-ssQmirbAqy73Mxmo=", "properties": {"@spider": "usps_collection_boxes", "addr:city": "EVANSVILLE", "addr:country": "US", "addr:full": "6328 E LLOYD EXPY", "addr:postcode": "47715", "addr:state": "IN", "amenity": "post_box", "brand": "United States Postal Service", "brand:wikidata": "Q668687", "collection_times": "Mo-Sa 13:00", "name": "USPS COLLECTION BOX - BLUE BOX", "note": "ON 12/24 AND 12/31, THIS BOX MAY BE COLLECTED AS EARLY AS 12 NOON.", "nsi_id": "unitedstatespostalservice-a77078", "operator": "United States Postal Service", "operator:short": "USPS", "operator:type": "public", "operator:wikidata": "Q668687", "ref": "4771500045"}, "type": "Feature"}
{"geometry": {"coordinates": [-87.500218101, 37.985319168], "type": "Point"}, "id": "A65aQ74qDP2dY8BMGMpRhDngKm4=", "properties": {"@spider": "usps_collection_boxes", "addr:city": "EVANSVILLE", "addr:country": "US", "addr:full": "837 N CONGRESS AVE", "addr:postcode": "47715", "addr:state": "IN", "amenity": "post_box", "brand": "United States Postal Service", "brand:wikidata": "Q668687", "collection_times": "Mo-Sa 14:00", "name": "USPS COLLECTION BOX - BLUE BOX", "note": "ON 12/24 AND 12/31, THIS BOX MAY BE COLLECTED AS EARLY AS 12 NOON.", "nsi_id": "unitedstatespostalservice-a77078", "operator": "United States Postal Service", "operator:short": "USPS", "operator:type": "public", "operator:wikidata": "Q668687", "ref": "4771500046"}, "type": "Feature"}
{"geometry": {"coordinates": [-87.4647182, 37.975667], "type": "Point"}, "id": "6a10HPpPex0RW7Aq4ihH4LvzUYc=", "properties": {"@spider": "usps_collection_boxes", "addr:city": "EVANSVILLE", "addr:country": "US", "addr:full": "7100 EAGLE CREST BLVD", "addr:postcode": "47715", "addr:state": "IN", "amenity": "post_box", "brand": "United States Postal Service", "brand:wikidata": "Q668687", "collection_times": "Mo-Sa 12:00", "name": "USPS COLLECTION BOX - BLUE BOX", "nsi_id": "unitedstatespostalservice-a77078", "operator": "United States Postal Service", "operator:short": "USPS", "operator:type": "public", "operator:wikidata": "Q668687", "ref": "4771500047"}, "type": "Feature"}
{"geometry": {"coordinates": [-87.4932415, 37.993583], "type": "Point"}, "id": "OS_ywTKE9Se9xP6VAs_6Dh3Gn30=", "properties": {"@spider": "usps_collection_boxes", "addr:city": "EVANSVILLE", "addr:country": "US", "addr:full": "1900 N GREEN RIVER RD", "addr:postcode": "47715", "addr:state": "IN", "amenity": "post_box", "brand": "United States Postal Service", "brand:wikidata": "Q668687", "collection_times": "Mo-Sa 14:00", "name": "USPS COLLECTION BOX - BLUE BOX", "note": "ON 12/24 AND 12/31, THIS BOX MAY BE COLLECTED AS EARLY AS 12 NOON.", "nsi_id": "unitedstatespostalservice-a77078", "operator": "United States Postal Service", "operator:short": "USPS", "operator:type": "public", "operator:wikidata": "Q668687", "ref": "4771500049"}, "type": "Feature"}
{"geometry": {"coordinates": [-87.4950233, 37.981246], "type": "Point"}, "id": "-v3APka-YXSzkb0a6KsMAJZn5v0=", "properties": {"@spider": "usps_collection_boxes", "addr:city": "EVANSVILLE", "addr:country": "US", "addr:full": "800 N GREEN RIVER RD", "addr:postcode": "47715", "addr:state": "IN", "amenity": "post_box", "brand": "United States Postal Service", "brand:wikidata": "Q668687", "collection_times": "Mo-Fr 15:00; Sa 13:15", "name": "USPS COLLECTION BOX - BLUE BOX", "note": "ON 12/24 AND 12/31, THIS BOX MAY BE COLLECTED AS EARLY AS 12 NOON.", "nsi_id": "unitedstatespostalservice-a77078", "operator": "United States Postal Service", "operator:short": "USPS", "operator:type": "public", "operator:wikidata": "Q668687", "ref": "4771500051"}, "type": "Feature"}
{"geometry": {"coordinates": [-87.4517806, 37.955417], "type": "Point"}, "id": "31gt9_bvoFCsZqyv8Fz3vXnZoWk=", "properties": {"@spider": "usps_collection_boxes", "addr:city": "EVANSVILLE", "addr:country": "US", "addr:full": "8214 RIVER PARK WAY", "addr:postcode": "47715", "addr:state": "IN", "amenity": "post_box", "brand": "United States Postal Service", "brand:wikidata": "Q668687", "collection_times": "Mo-Sa 13:00", "name": "USPS COLLECTION BOX - BLUE BOX", "note": "ON 12/24 AND 12/31, THIS BOX MAY BE COLLECTED AS EARLY AS 12 NOON.", "nsi_id": "unitedstatespostalservice-a77078", "operator": "United States Postal Service", "operator:short": "USPS", "operator:type": "public", "operator:wikidata": "Q668687", "ref": "4771500052"}, "type": "Feature"}
{"geometry": {"coordinates": [-87.492614601, 37.965997699], "type": "Point"}, "id": "ZG5m-UFF_turtsIMrmGJBwS13rg=", "properties": {"@spider": "usps_collection_boxes", "addr:city": "EVANSVILLE", "addr:country": "US", "addr:full": "802 S GREEN RIVER RD", "addr:postcode": "47715", "addr:state": "IN", "amenity": "post_box", "brand": "United States Postal Service", "brand:wikidata": "Q668687", "collection_times": "Mo-Fr 16:30; Sa 13:00", "name": "USPS COLLECTION BOX - BLUE BOX", "note": "ON 12/24 AND 12/31, THIS BOX MAY BE COLLECTED AS EARLY AS 12 NOON.", "nsi_id": "unitedstatespostalservice-a77078", "operator": "United States Postal Service", "operator:short": "USPS", "operator:type": "public", "operator:wikidata": "Q668687", "ref": "4771500054"}, "type": "Feature"}
{"geometry": {"coordinates": [-87.492614601, 37.965997699], "type": "Point"}, "id": "hGGGSqpbqM-JsrDOVTcMHldNqcU=", "properties": {"@spider": "usps_collection_boxes", "addr:city": "EVANSVILLE", "addr:country": "US", "addr:full": "802 S GREEN RIVER RD", "addr:postcode": "47715", "addr:state": "IN", "amenity": "post_box", "brand": "United States Postal Service", "brand:wikidata": "Q668687", "collection_times": "Mo-Fr 16:30; Sa 13:00", "name": "USPS COLLECTION BOX - BLUE BOX", "note": "ON 12/24 AND 12/31, THIS BOX MAY BE COLLECTED AS EARLY AS 12 NOON.", "nsi_id": "unitedstatespostalservice-a77078", "operator": "United States Postal Service", "operator:short": "USPS", "operator:type": "public", "operator:wikidata": "Q668687", "ref": "4771500055"}, "type": "Feature"}
{"geometry": {"coordinates": [-87.4854419, 37.986913], "type": "Point"}, "id": "wui-smn75GToI9nsZ8HrFuQxiqo=", "properties": {"@spider": "usps_collection_boxes", "addr:city": "EVANSVILLE", "addr:country": "US", "addr:full": "5401 VOGEL RD", "addr:postcode": "47715", "addr:state": "IN", "amenity": "post_box", "brand": "United States Postal Service", "brand:wikidata": "Q668687", "collection_times": "Mo-Sa 14:00", "name": "USPS COLLECTION BOX - BLUE BOX", "note": "ON 12/24 AND 12/31, THIS BOX MAY BE COLLECTED AS EARLY AS 12 NOON.", "nsi_id": "unitedstatespostalservice-a77078", "operator": "United States Postal Service", "operator:short": "USPS", "operator:type": "public", "operator:wikidata": "Q668687", "ref": "4771500060"}, "type": "Feature"}
{"geometry": {"coordinates": [-87.4730717, 38.010259], "type": "Point"}, "id": "4gN3YWCTE1k7DAjREa-SgKHqv9M=", "properties": {"@spider": "usps_collection_boxes", "addr:city": "EVANSVILLE", "addr:country": "US", "addr:full": "3526 N BURKHARDT RD", "addr:postcode": "47715", "addr:state": "IN", "amenity": "post_box", "brand": "United States Postal Service", "brand:wikidata": "Q668687", "collection_times": "Mo-Sa 12:00", "name": "USPS COLLECTION BOX - BLUE BOX", "nsi_id": "unitedstatespostalservice-a77078", "operator": "United States Postal Service", "operator:short": "USPS", "operator:type": "public", "operator:wikidata": "Q668687", "ref": "4771500061"}, "type": "Feature"}
{"geometry": {"coordinates": [-87.4619621, 37.977751], "type": "Point"}, "id": "IDdMfoq8GcslK8mDXlQbsVKy_9k=", "properties": {"@spider": "usps_collection_boxes", "addr:city": "EVANSVILLE", "addr:country": "US", "addr:full": "130 N CROSS POINTE BLVD", "addr:postcode": "47715", "addr:state": "IN", "amenity": "post_box", "brand": "United States Postal Service", "brand:wikidata": "Q668687", "collection_times": "Mo-Sa 12:00", "name": "USPS COLLECTION BOX - BLUE BOX", "nsi_id": "unitedstatespostalservice-a77078", "operator": "United States Postal Service", "operator:short": "USPS", "operator:type": "public", "operator:wikidata": "Q668687", "ref": "4771500062"}, "type": "Feature"}
{"geometry": {"coordinates": [-87.4774858, 37.987012], "type": "Point"}, "id": "g6Ky-sry5zE6i_HBUaT4LT1k7B4=", "properties": {"@spider": "usps_collection_boxes", "addr:city": "EVANSVILLE", "addr:country": "US", "addr:full": "6209 VOGEL RD", "addr:postcode": "47715", "addr:state": "IN", "amenity": "post_box", "brand": "United States Postal Service", "brand:wikidata": "Q668687", "collection_times": "Mo-Sa 14:00", "name": "USPS COLLECTION BOX - BLUE BOX", "note": "ON 12/24 AND 12/31, THIS BOX MAY BE COLLECTED AS EARLY AS 12 NOON.", "nsi_id": "unitedstatespostalservice-a77078", "operator": "United States Postal Service", "operator:short": "USPS", "operator:type": "public", "operator:wikidata": "Q668687", "ref": "4771500063"}, "type": "Feature"}
{"geometry": {"coordinates": [-87.4901519, 38.009247], "type": "Point"}, "id": "6Nwaxm2UU-SN1ko6tuCPQ6WKEqE=", "properties": {"@spider": "usps_collection_boxes", "addr:city": "EVANSVILLE", "addr:country": "US", "addr:full": "3501 N GREEN RIVER RD", "addr:postcode": "47715", "addr:state": "IN", "amenity": "post_box", "brand": "United States Postal Service", "brand:wikidata": "Q668687", "collection_times": "Mo-Sa 14:00", "name": "USPS COLLECTION BOX - BLUE BOX", "note": "ON 12/24 AND 12/31, THIS BOX MAY BE COLLECTED AS EARLY AS 12 NOON.", "nsi_id": "unitedstatespostalservice-a77078", "operator": "United States Postal Service", "operator:short": "USPS", "operator:type": "public", "operator:wikidata": "Q668687", "ref": "4771500064"}, "type": "Feature"}
{"geometry": {"coordinates": [-87.492614601, 37.965997699], "type": "Point"}, "id": "LsshnVCRP1vhhDAgEZBpe7NIsmo=", "properties": {"@spider": "usps_collection_boxes", "addr:city": "EVANSVILLE", "addr:country": "US", "addr:full": "802 S GREEN RIVER RD", "addr:postcode": "47715", "addr:state": "IN", "amenity": "post_box", "brand": "United States Postal Service", "brand:wikidata": "Q668687", "collection_times": "Mo-Fr 16:30; Sa 13:00", "name": "USPS COLLECTION BOX - APC", "note": "ON 12/24 AND 12/31, THIS BOX MAY BE COLLECTED AS EARLY AS 12 NOON.", "nsi_id": "unitedstatespostalservice-a77078", "operator": "United States Postal Service", "operator:short": "USPS", "operator:type": "public", "operator:wikidata": "Q668687", "ref": "4771500065"}, "type": "Feature"}
{"geometry": {"coordinates": [-87.4944143, 37.98906], "type": "Point"}, "id": "uszqExsLttYl94k8EY3oyLjIIEY=", "properties": {"@spider": "usps_collection_boxes", "addr:city": "EVANSVILLE", "addr:country": "US", "addr:full": "1380 N GREEN RIVER RD", "addr:postcode": "47715", "addr:state": "IN", "amenity": "post_box", "brand": "United States Postal Service", "brand:wikidata": "Q668687", "collection_times": "Mo-Sa 14:00", "name": "USPS COLLECTION BOX - BLUE BOX", "note": "ON 12/24 AND 12/31, THIS BOX MAY BE COLLECTED AS EARLY AS 12 NOON.", "nsi_id": "unitedstatespostalservice-a77078", "operator": "United States Postal Service", "operator:short": "USPS", "operator:type": "public", "operator:wikidata": "Q668687", "ref": "4771500067"}, "type": "Feature"}
{"geometry": {"coordinates": [-87.492614601, 37.965997699], "type": "Point"}, "id": "PDtzMebKVeX-Wimu_lv_GxYftGc=", "properties": {"@spider": "usps_collection_boxes", "addr:city": "EVANSVILLE", "addr:country": "US", "addr:full": "802 S GREEN RIVER RD", "addr:postcode": "47715", "addr:state": "IN", "amenity": "post_box", "brand": "United States Postal Service", "brand:wikidata": "Q668687", "collection_times": "Mo-Fr 16:30; Sa 13:00", "name": "USPS COLLECTION BOX - PO LOBBY", "note": "ON 12/24 AND 12/31, THIS BOX MAY BE COLLECTED AS EARLY AS 12 NOON.", "nsi_id": "unitedstatespostalservice-a77078", "operator": "United States Postal Service", "operator:short": "USPS", "operator:type": "public", "operator:wikidata": "Q668687", "ref": "4771500069"}, "type": "Feature"}
{"geometry": {"coordinates": [-87.492658357, 37.988278722], "type": "Point"}, "id": "opFZsv_Q9Ytt7iroEyr_fcpSJDA=", "properties": {"@spider": "usps_collection_boxes", "addr:city": "EVANSVILLE", "addr:country": "US", "addr:full": "1310 N GREEN RIVER RD", "addr:postcode": "47715", "addr:state": "IN", "amenity": "post_box", "brand": "United States Postal Service", "brand:wikidata": "Q668687", "collection_times": "Mo-Fr 16:30", "name": "USPS COLLECTION BOX - PO LOBBY", "note": "ON 12/24 AND 12/31, THIS BOX MAY BE COLLECTED AS EARLY AS 12 NOON.", "nsi_id": "unitedstatespostalservice-a77078", "operator": "United States Postal Service", "operator:short": "USPS", "operator:type": "public", "operator:wikidata": "Q668687", "ref": "4771500072"}, "type": "Feature"}
{"geometry": {"coordinates": [-87.492614601, 37.965997699], "type": "Point"}, "id": "cYtwcB5UN0pvdC6Iin646B-Zvqc=", "properties": {"@spider": "usps_collection_boxes", "addr:city": "EVANSVILLE", "addr:country": "US", "addr:full": "802 S GREEN RIVER RD", "addr:postcode": "47715", "addr:state": "IN", "amenity": "post_box", "brand": "United States Postal Service", "brand:wikidata": "Q668687", "collection_times": "Mo-Fr 16:30; Sa 13:00", "name": "USPS COLLECTION BOX - PO LOBBY", "note": "ON 12/24 AND 12/31, THIS BOX MAY BE COLLECTED AS EARLY AS 12 NOON.", "nsi_id": "unitedstatespostalservice-a77078", "operator": "United States Postal Service", "operator:short": "USPS", "operator:type": "public", "operator:wikidata": "Q668687", "ref": "4771500080"}, "type": "Feature"}
{"geometry": {"coordinates": [-87.492658357, 37.988278722], "type": "Point"}, "id": "E9f9azcRR4EE4WhEijGLD_zxE5o=", "properties": {"@spider": "usps_collection_boxes", "addr:city": "EVANSVILLE", "addr:country": "US", "addr:full": "1310 N GREEN RIVER RD", "addr:postcode": "47715", "addr:state": "IN", "amenity": "post_box", "brand": "United States Postal Service", "brand:wikidata": "Q668687", "collection_times": "Mo-Fr 16:30", "name": "USPS COLLECTION BOX - PO LOBBY", "note": "ON 12/24 AND 12/31, THIS BOX MAY BE COLLECTED AS EARLY AS 12 NOON.", "nsi_id": "unitedstatespostalservice-a77078", "operator": "United States Postal Service", "operator:short": "USPS", "operator:type": "public", "operator:wikidata": "Q668687", "ref": "4771500081"}, "type": "Feature"}
