{"geometry": {"coordinates": [-87.4079063, 39.433295], "type": "Point"}, "id": "nQUU2TLqzNyDGFlXttR4OQrD17E=", "properties": {"@spider": "usps_collection_boxes", "addr:city": "TERRE HAUTE", "addr:country": "US", "addr:full": "3001 S 7TH ST", "addr:postcode": "47802", "addr:state": "IN", "brand": "USPS", "brand:wikidata": "Q668687", "collection_times": "Mo-Sa 13:00", "name": "USPS COLLECTION BOX - BLUE BOX", "note": "ON 12/24 AND 12/31, THIS BOX MAY BE COLLECTED AS EARLY AS 12 NOON.", "ref": "4780200034"}, "type": "Feature"}
{"geometry": {"coordinates": [-87.4072329, 39.411313], "type": "Point"}, "id": "DheOja3ataNZ5klXX9gZ0RN2bK0=", "properties": {"@spider": "usps_collection_boxes", "addr:city": "TERRE HAUTE", "addr:country": "US", "addr:full": "4601 S 7TH ST", "addr:postcode": "47802", "addr:state": "IN", "brand": "USPS", "brand:wikidata": "Q668687", "collection_times": "Mo-Sa 13:30", "name": "USPS COLLECTION BOX - BLUE BOX", "note": "ON 12/24 AND 12/31, THIS BOX MAY BE COLLECTED AS EARLY AS 12 NOON.", "ref": "4780200036"}, "type": "Feature"}
{"geometry": {"coordinates": [-87.4052245, 39.39901], "type": "Point"}, "id": "jeHTYXBzyiOzZJ0YyUCu12ECv6Q=", "properties": {"@spider": "usps_collection_boxes", "addr:city": "TERRE HAUTE", "addr:country": "US", "addr:full": "5501 S US HIGHWAY 41", "addr:postcode": "47802", "addr:state": "IN", "brand": "USPS", "brand:wikidata": "Q668687", "collection_times": "Mo-Sa 11:00", "name": "USPS COLLECTION BOX - BLUE BOX", "ref": "4780200037"}, "type": "Feature"}
{"geometry": {"coordinates": [-87.4159535012, 39.4263951638], "type": "Point"}, "id": "qvoAV4Lsp72lCOcR33tGj1sbQhw=", "properties": {"@spider": "usps_collection_boxes", "addr:city": "TERRE HAUTE", "addr:country": "US", "addr:full": "3401 S US HIGHWAY 41", "addr:postcode": "47802", "addr:state": "IN", "brand": "USPS", "brand:wikidata": "Q668687", "collection_times": "Mo-Sa 13:00", "name": "USPS COLLECTION BOX - BLUE BOX", "note": "ON 12/24 AND 12/31, THIS BOX MAY BE COLLECTED AS EARLY AS 12 NOON.", "ref": "4780200039"}, "type": "Feature"}
{"geometry": {"coordinates": [-87.410651, 39.408878], "type": "Point"}, "id": "gdATqG_A1wmxC0xnJANQtTnHYWc=", "properties": {"@spider": "usps_collection_boxes", "addr:city": "TERRE HAUTE", "addr:country": "US", "addr:full": "4714 S US HIGHWAY 41", "addr:postcode": "47802", "addr:state": "IN", "brand": "USPS", "brand:wikidata": "Q668687", "collection_times": "Mo-Sa 13:30", "name": "USPS COLLECTION BOX - BLUE BOX", "note": "ON 12/24 AND 12/31, THIS BOX MAY BE COLLECTED AS EARLY AS 12 NOON.", "ref": "4780200061"}, "type": "Feature"}
{"geometry": {"coordinates": [-87.4121893, 39.411732], "type": "Point"}, "id": "qdYvDj3TuoIwBzd_jK1O1584Nvc=", "properties": {"@spider": "usps_collection_boxes", "addr:city": "TERRE HAUTE", "addr:country": "US", "addr:full": "4500 S US HIGHWAY 41", "addr:postcode": "47802", "addr:state": "IN", "brand": "USPS", "brand:wikidata": "Q668687", "collection_times": "Mo-Sa 13:30", "name": "USPS COLLECTION BOX - BLUE BOX", "note": "ON 12/24 AND 12/31, THIS BOX MAY BE COLLECTED AS EARLY AS 12 NOON.", "ref": "4780200062"}, "type": "Feature"}
{"geometry": {"coordinates": [-87.419502, 39.433727544], "type": "Point"}, "id": "MKfj-KzmWU6tSUhdl9BrdTVe9Os=", "properties": {"@spider": "usps_collection_boxes", "addr:city": "TERRE HAUTE", "addr:country": "US", "addr:full": "150 W MARGARET DR", "addr:postcode": "47802", "addr:state": "IN", "brand": "USPS", "brand:wikidata": "Q668687", "collection_times": "Mo-Sa 17:00", "name": "USPS COLLECTION BOX - BLUE BOX", "note": "ON 12/24 AND 12/31, THIS BOX MAY BE COLLECTED AS EARLY AS 12 NOON.", "ref": "4780200064"}, "type": "Feature"}
{"geometry": {"coordinates": [-87.419502, 39.433727544], "type": "Point"}, "id": "brcYlwkTViCeXbWLwBYb9xE2Ks4=", "properties": {"@spider": "usps_collection_boxes", "addr:city": "TERRE HAUTE", "addr:country": "US", "addr:full": "150 W MARGARET DR", "addr:postcode": "47802", "addr:state": "IN", "brand": "USPS", "brand:wikidata": "Q668687", "collection_times": "Mo-Sa 17:00", "name": "USPS COLLECTION BOX - PO LOBBY", "note": "ON 12/24 AND 12/31, THIS BOX MAY BE COLLECTED AS EARLY AS 12 NOON.", "ref": "4780200067"}, "type": "Feature"}
{"geometry": {"coordinates": [-87.392648, 39.342482], "type": "Point"}, "id": "rdk_Filt0gaXj5OKoYMTbnxyfs4=", "properties": {"@spider": "usps_collection_boxes", "addr:city": "TERRE HAUTE", "addr:country": "US", "addr:full": "1701 E INDUSTRIAL DR", "addr:postcode": "47802", "addr:state": "IN", "brand": "USPS", "brand:wikidata": "Q668687", "collection_times": "Mo-Sa 11:30", "name": "USPS COLLECTION BOX - BLUE BOX", "ref": "4780200081"}, "type": "Feature"}
{"geometry": {"coordinates": [-87.419502, 39.433727544], "type": "Point"}, "id": "hsqhzzdTUYCw0s3JCFaoOo_Bbm4=", "properties": {"@spider": "usps_collection_boxes", "addr:city": "TERRE HAUTE", "addr:country": "US", "addr:full": "150 W MARGARET DR", "addr:postcode": "47802", "addr:state": "IN", "brand": "USPS", "brand:wikidata": "Q668687", "collection_times": "Mo-Sa 17:00", "name": "USPS COLLECTION BOX - APC", "note": "ON 12/24 AND 12/31, THIS BOX MAY BE COLLECTED AS EARLY AS 12 NOON.", "ref": "4780200084"}, "type": "Feature"}
{"geometry": {"coordinates": [-87.419502, 39.433727544], "type": "Point"}, "id": "gXyvaavVLTFgkxkBDEpoClK_q0w=", "properties": {"@spider": "usps_collection_boxes", "addr:city": "TERRE HAUTE", "addr:country": "US", "addr:full": "150 W MARGARET DR", "addr:postcode": "47802", "addr:state": "IN", "brand": "USPS", "brand:wikidata": "Q668687", "collection_times": "Mo-Fr 19:00; Sa 17:00", "name": "USPS COLLECTION BOX - PO LOBBY", "note": "ON 12/24 AND 12/31, THIS BOX MAY BE COLLECTED AS EARLY AS 12 NOON.", "ref": "4780200088"}, "type": "Feature"}
{"geometry": {"coordinates": [-87.3772304, 39.464423], "type": "Point"}, "id": "Iy4XXNmiJvl231-hDclllX7mtRw=", "properties": {"@spider": "usps_collection_boxes", "addr:city": "TERRE HAUTE", "addr:country": "US", "addr:full": "2500 OHIO BLVD", "addr:postcode": "47803", "addr:state": "IN", "brand": "USPS", "brand:wikidata": "Q668687", "collection_times": "Mo-Fr 16:00; Sa 14:00", "name": "USPS COLLECTION BOX - BLUE BOX", "note": "ON 12/24 AND 12/31, THIS BOX MAY BE COLLECTED AS EARLY AS 12 NOON.", "ref": "4780300001"}, "type": "Feature"}
{"geometry": {"coordinates": [-87.376069604, 39.473558277], "type": "Point"}, "id": "G7mOaarz6vQxeUA4T1kEkWURkf4=", "properties": {"@spider": "usps_collection_boxes", "addr:city": "TERRE HAUTE", "addr:country": "US", "addr:full": "70 ROSE AVE", "addr:postcode": "47803", "addr:state": "IN", "brand": "USPS", "brand:wikidata": "Q668687", "collection_times": "Mo-Sa 17:00", "name": "USPS COLLECTION BOX - BLUE BOX", "note": "ON 12/24 AND 12/31, THIS BOX MAY BE COLLECTED AS EARLY AS 12 NOON.", "ref": "4780300005"}, "type": "Feature"}
{"geometry": {"coordinates": [-87.376069604, 39.473558277], "type": "Point"}, "id": "XZb3uaxQ4oJNr74ilLT9QZVsqbQ=", "properties": {"@spider": "usps_collection_boxes", "addr:city": "TERRE HAUTE", "addr:country": "US", "addr:full": "70 ROSE AVE", "addr:postcode": "47803", "addr:state": "IN", "brand": "USPS", "brand:wikidata": "Q668687", "collection_times": "Mo-Sa 17:00", "name": "USPS COLLECTION BOX - PO LOBBY", "note": "ON 12/24 AND 12/31, THIS BOX MAY BE COLLECTED AS EARLY AS 12 NOON.", "ref": "4780300008"}, "type": "Feature"}
{"geometry": {"coordinates": [-87.3322036, 39.433583], "type": "Point"}, "id": "U4nbnehqwiff6qf8fauoa7Fajtk=", "properties": {"@spider": "usps_collection_boxes", "addr:city": "TERRE HAUTE", "addr:country": "US", "addr:full": "5555 E MARGARET DR", "addr:postcode": "47803", "addr:state": "IN", "brand": "USPS", "brand:wikidata": "Q668687", "collection_times": "Mo-Sa 11:00", "name": "USPS COLLECTION BOX - BLUE BOX", "ref": "4780300009"}, "type": "Feature"}
{"geometry": {"coordinates": [-87.3346399, 39.457213], "type": "Point"}, "id": "SASRODknUp0YOB3UwI0ZivAxvZU=", "properties": {"@spider": "usps_collection_boxes", "addr:city": "TERRE HAUTE", "addr:country": "US", "addr:full": "5362 JACKBOOT CT", "addr:postcode": "47803", "addr:state": "IN", "brand": "USPS", "brand:wikidata": "Q668687", "collection_times": "Mo-Sa 09:00", "name": "USPS COLLECTION BOX - BLUE BOX", "ref": "4780300010"}, "type": "Feature"}
{"geometry": {"coordinates": [-87.376069604, 39.473558277], "type": "Point"}, "id": "EwxlTYE-ip_UWaevAwlLtBxfc1w=", "properties": {"@spider": "usps_collection_boxes", "addr:city": "TERRE HAUTE", "addr:country": "US", "addr:full": "70 ROSE AVE", "addr:postcode": "47803", "addr:state": "IN", "brand": "USPS", "brand:wikidata": "Q668687", "collection_times": "Mo-Fr 16:30; Sa 12:00", "name": "USPS COLLECTION BOX - PO LOBBY", "note": "ON 12/24 AND 12/31, THIS BOX MAY BE COLLECTED AS EARLY AS 12 NOON.", "ref": "4780300011"}, "type": "Feature"}
{"geometry": {"coordinates": [-87.3771990218, 39.4735929926], "type": "Point"}, "id": "iXmalB4rr75LH3NbTrBDtog00ME=", "properties": {"@spider": "usps_collection_boxes", "addr:city": "TERRE HAUTE", "addr:country": "US", "addr:full": "70 ROSE AVE", "addr:postcode": "47803", "addr:state": "IN", "brand": "USPS", "brand:wikidata": "Q668687", "collection_times": "Mo-Sa 17:00", "name": "USPS COLLECTION BOX - BLUE BOX", "note": "ON 12/24 AND 12/31, THIS BOX MAY BE COLLECTED AS EARLY AS 12 NOON.", "ref": "4780300012"}, "type": "Feature"}
{"geometry": {"coordinates": [-87.3987844, 39.492037], "type": "Point"}, "id": "k8wsvGwVjnpfd8tZxfRSTk2Kofw=", "properties": {"@spider": "usps_collection_boxes", "addr:city": "TERRE HAUTE", "addr:country": "US", "addr:full": "1247 MAPLE AVE", "addr:postcode": "47804", "addr:state": "IN", "brand": "USPS", "brand:wikidata": "Q668687", "collection_times": "Mo-Sa 12:00", "name": "USPS COLLECTION BOX - BLUE BOX", "ref": "4780400001"}, "type": "Feature"}
{"geometry": {"coordinates": [-87.3922656, 39.506908], "type": "Point"}, "id": "xLaAaOr5EqYu5HBYKdjY3hszuf4=", "properties": {"@spider": "usps_collection_boxes", "addr:city": "TERRE HAUTE", "addr:country": "US", "addr:full": "1452 FORT HARRISON RD", "addr:postcode": "47804", "addr:state": "IN", "brand": "USPS", "brand:wikidata": "Q668687", "collection_times": "Mo-Sa 12:00", "name": "USPS COLLECTION BOX - BLUE BOX", "ref": "4780400003"}, "type": "Feature"}
{"geometry": {"coordinates": [-87.3922588, 39.506917], "type": "Point"}, "id": "PKNt_BrabEHkqjjxru2VHVwlHdY=", "properties": {"@spider": "usps_collection_boxes", "addr:city": "TERRE HAUTE", "addr:country": "US", "addr:full": "1452 FORT HARRISON RD", "addr:postcode": "47804", "addr:state": "IN", "brand": "USPS", "brand:wikidata": "Q668687", "collection_times": "Mo-Sa 12:00", "name": "USPS COLLECTION BOX - BLUE BOX", "ref": "4780400005"}, "type": "Feature"}
{"geometry": {"coordinates": [-87.372796052, 39.52485157], "type": "Point"}, "id": "JUDfqDbXd7U9TnRlgtB39aYaV8U=", "properties": {"@spider": "usps_collection_boxes", "addr:city": "TERRE HAUTE", "addr:country": "US", "addr:full": "4900 N LAFAYETTE ST", "addr:postcode": "47805", "addr:state": "IN", "brand": "USPS", "brand:wikidata": "Q668687", "collection_times": "Mo-Fr 17:00; Sa 12:00", "name": "USPS COLLECTION BOX - BLUE BOX", "note": "ON 12/24 AND 12/31, THIS BOX MAY BE COLLECTED AS EARLY AS 12 NOON.", "ref": "4780500001"}, "type": "Feature"}
{"geometry": {"coordinates": [-87.372796052, 39.52485157], "type": "Point"}, "id": "PUX2LHGCNvtJ7VjeL37ryep5BL0=", "properties": {"@spider": "usps_collection_boxes", "addr:city": "TERRE HAUTE", "addr:country": "US", "addr:full": "4900 N LAFAYETTE ST", "addr:postcode": "47805", "addr:state": "IN", "brand": "USPS", "brand:wikidata": "Q668687", "collection_times": "Mo-Fr 17:00; Sa 12:00", "name": "USPS COLLECTION BOX - BLUE BOX", "note": "ON 12/24 AND 12/31, THIS BOX MAY BE COLLECTED AS EARLY AS 12 NOON.", "ref": "4780500002"}, "type": "Feature"}
{"geometry": {"coordinates": [-87.372796052, 39.52485157], "type": "Point"}, "id": "I1y1GwbV1wNuAwmN111aqFUG-5o=", "properties": {"@spider": "usps_collection_boxes", "addr:city": "TERRE HAUTE", "addr:country": "US", "addr:full": "4900 N LAFAYETTE ST", "addr:postcode": "47805", "addr:state": "IN", "brand": "USPS", "brand:wikidata": "Q668687", "collection_times": "Mo-Fr 17:00; Sa 12:00", "name": "USPS COLLECTION BOX - PO LOBBY", "note": "ON 12/24 AND 12/31, THIS BOX MAY BE COLLECTED AS EARLY AS 12 NOON.", "ref": "4780500003"}, "type": "Feature"}
{"geometry": {"coordinates": [-87.372796052, 39.52485157], "type": "Point"}, "id": "pvTSdXspExsYg3Y6Q4qYb74jSRw=", "properties": {"@spider": "usps_collection_boxes", "addr:city": "TERRE HAUTE", "addr:country": "US", "addr:full": "4900 N LAFAYETTE ST", "addr:postcode": "47805", "addr:state": "IN", "brand": "USPS", "brand:wikidata": "Q668687", "collection_times": "Mo-Fr 17:00; Sa 12:00", "name": "USPS COLLECTION BOX - PO LOBBY", "note": "ON 12/24 AND 12/31, THIS BOX MAY BE COLLECTED AS EARLY AS 12 NOON.", "ref": "4780500004"}, "type": "Feature"}
{"geometry": {"coordinates": [-87.4043356, 39.462366], "type": "Point"}, "id": "CWjOIiEGk6Koo2MAhtZD4Xks_gM=", "properties": {"@spider": "usps_collection_boxes", "addr:city": "TERRE HAUTE", "addr:country": "US", "addr:full": "400 S 9TH ST", "addr:postcode": "47807", "addr:state": "IN", "brand": "USPS", "brand:wikidata": "Q668687", "collection_times": "Mo-Sa 12:00", "name": "USPS COLLECTION BOX - BLUE BOX", "ref": "4780700001"}, "type": "Feature"}
{"geometry": {"coordinates": [-87.4007884, 39.477624], "type": "Point"}, "id": "_npWukhCK_7qHi1YrybO2VHmrh8=", "properties": {"@spider": "usps_collection_boxes", "addr:city": "TERRE HAUTE", "addr:country": "US", "addr:full": "1100 LOCUST ST", "addr:postcode": "47807", "addr:state": "IN", "brand": "USPS", "brand:wikidata": "Q668687", "collection_times": "Mo-Sa 12:00", "name": "USPS COLLECTION BOX - BLUE BOX", "ref": "4780700002"}, "type": "Feature"}
{"geometry": {"coordinates": [-87.4154537, 39.464744], "type": "Point"}, "id": "arrzpDwi1mAi_N6NjNt1AWpXnJU=", "properties": {"@spider": "usps_collection_boxes", "addr:city": "TERRE HAUTE", "addr:country": "US", "addr:full": "191 HARDING AVE", "addr:postcode": "47807", "addr:state": "IN", "brand": "USPS", "brand:wikidata": "Q668687", "collection_times": "Mo-Sa 13:00", "name": "USPS COLLECTION BOX - BLUE BOX", "note": "ON 12/24 AND 12/31, THIS BOX MAY BE COLLECTED AS EARLY AS 12 NOON.", "ref": "4780700003"}, "type": "Feature"}
{"geometry": {"coordinates": [-87.400724866, 39.467208338], "type": "Point"}, "id": "THdPuuPWaitpRjdgcRs48Ex0u-0=", "properties": {"@spider": "usps_collection_boxes", "addr:city": "TERRE HAUTE", "addr:country": "US", "addr:full": "1103 WABASH AVE", "addr:postcode": "47807", "addr:state": "IN", "brand": "USPS", "brand:wikidata": "Q668687", "collection_times": "Mo-Sa 14:00", "name": "USPS COLLECTION BOX - BLUE BOX", "note": "ON 12/24 AND 12/31, THIS BOX MAY BE COLLECTED AS EARLY AS 12 NOON.", "ref": "4780700004"}, "type": "Feature"}
{"geometry": {"coordinates": [-87.4050156, 39.46554], "type": "Point"}, "id": "u5jBTm8uv5-SmyJWCE8s8YpZvz8=", "properties": {"@spider": "usps_collection_boxes", "addr:city": "TERRE HAUTE", "addr:country": "US", "addr:full": "800 OHIO ST", "addr:postcode": "47807", "addr:state": "IN", "brand": "USPS", "brand:wikidata": "Q668687", "collection_times": "Mo-Sa 14:00", "name": "USPS COLLECTION BOX - BLUE BOX", "note": "ON 12/24 AND 12/31, THIS BOX MAY BE COLLECTED AS EARLY AS 12 NOON.", "ref": "4780700007"}, "type": "Feature"}
{"geometry": {"coordinates": [-87.4094625, 39.4675074812], "type": "Point"}, "id": "EZaGu4m3PO5NwnLV1YYs8qyVo7w=", "properties": {"@spider": "usps_collection_boxes", "addr:city": "TERRE HAUTE", "addr:country": "US", "addr:full": "619 CHERRY ST", "addr:postcode": "47807", "addr:state": "IN", "brand": "USPS", "brand:wikidata": "Q668687", "collection_times": "Mo-Fr 15:00; Sa 13:30", "name": "USPS COLLECTION BOX - BLUE BOX", "note": "ON 12/24 AND 12/31, THIS BOX MAY BE COLLECTED AS EARLY AS 12 NOON.", "ref": "4780700008"}, "type": "Feature"}
{"geometry": {"coordinates": [-87.415775576, 39.465511909], "type": "Point"}, "id": "UsCTm9TI5fHjr_xizXJwhzrdODI=", "properties": {"@spider": "usps_collection_boxes", "addr:city": "TERRE HAUTE", "addr:country": "US", "addr:full": "166 OHIO ST", "addr:postcode": "47807", "addr:state": "IN", "brand": "USPS", "brand:wikidata": "Q668687", "collection_times": "Mo-Fr 15:00; Sa 12:00", "name": "USPS COLLECTION BOX - BLUE BOX", "note": "ON 12/24 AND 12/31, THIS BOX MAY BE COLLECTED AS EARLY AS 12 NOON.", "ref": "4780700012"}, "type": "Feature"}
{"geometry": {"coordinates": [-87.523075332, 39.665034335], "type": "Point"}, "id": "n5GfVAG_9XxiaicRgorTCk4LGTU=", "properties": {"@spider": "usps_collection_boxes", "addr:city": "BLANFORD", "addr:country": "US", "addr:full": "15008 S MAIN ST", "addr:postcode": "47831", "addr:state": "IN", "brand": "USPS", "brand:wikidata": "Q668687", "collection_times": "Mo-Fr 16:30; Sa 10:30", "name": "USPS COLLECTION BOX - BLUE BOX", "note": "ON 12/24 AND 12/31, THIS BOX MAY BE COLLECTED AS EARLY AS 12 NOON.", "ref": "4783100001"}, "type": "Feature"}
{"geometry": {"coordinates": [-87.523075332, 39.665034335], "type": "Point"}, "id": "zOBWioPI5icI06aq16hTiYb-WyY=", "properties": {"@spider": "usps_collection_boxes", "addr:city": "BLANFORD", "addr:country": "US", "addr:full": "15008 S MAIN ST", "addr:postcode": "47831", "addr:state": "IN", "brand": "USPS", "brand:wikidata": "Q668687", "collection_times": "Mo-Fr 11:45; Sa 10:30", "name": "USPS COLLECTION BOX - PO LOBBY", "ref": "4783100002"}, "type": "Feature"}
{"geometry": {"coordinates": [-87.523075332, 39.665034335], "type": "Point"}, "id": "MfYisrERSfv2zqLYDX_jPC8MNuM=", "properties": {"@spider": "usps_collection_boxes", "addr:city": "BLANFORD", "addr:country": "US", "addr:full": "15008 S MAIN ST", "addr:postcode": "47831", "addr:state": "IN", "brand": "USPS", "brand:wikidata": "Q668687", "collection_times": "Mo-Fr 12:00; Sa 10:30", "name": "USPS COLLECTION BOX - PO LOBBY", "ref": "4783100003"}, "type": "Feature"}
{"geometry": {"coordinates": [-87.250318295, 39.832443], "type": "Point"}, "id": "HyfFJgmHm-4myHfBhmlhkUV9fis=", "properties": {"@spider": "usps_collection_boxes", "addr:city": "BLOOMINGDALE", "addr:country": "US", "addr:full": "90 S MAIN ST", "addr:postcode": "47832", "addr:state": "IN", "brand": "USPS", "brand:wikidata": "Q668687", "collection_times": "Mo-Fr 15:30; Sa 11:00", "name": "USPS COLLECTION BOX - BLUE BOX", "note": "ON 12/24 AND 12/31, THIS BOX MAY BE COLLECTED AS EARLY AS 12 NOON.", "ref": "4783200001"}, "type": "Feature"}
{"geometry": {"coordinates": [-87.250318295, 39.832443], "type": "Point"}, "id": "F7I9y514ISDcVhjXxw0pdFTK38Y=", "properties": {"@spider": "usps_collection_boxes", "addr:city": "BLOOMINGDALE", "addr:country": "US", "addr:full": "90 S MAIN ST", "addr:postcode": "47832", "addr:state": "IN", "brand": "USPS", "brand:wikidata": "Q668687", "collection_times": "Mo-Fr 12:15; Sa 10:15", "name": "USPS COLLECTION BOX - PO LOBBY", "note": "ON 12/24 AND 12/31, THIS BOX MAY BE COLLECTED AS EARLY AS 12 NOON.", "ref": "4783200002"}, "type": "Feature"}
{"geometry": {"coordinates": [-87.250318295, 39.832443], "type": "Point"}, "id": "3xdNJW7krvxCQjIr5hAhkOpAhgY=", "properties": {"@spider": "usps_collection_boxes", "addr:city": "BLOOMINGDALE", "addr:country": "US", "addr:full": "90 S MAIN ST", "addr:postcode": "47832", "addr:state": "IN", "brand": "USPS", "brand:wikidata": "Q668687", "collection_times": "Mo-Fr 12:30; Sa 10:30", "name": "USPS COLLECTION BOX - PO LOBBY", "note": "ON 12/24 AND 12/31, THIS BOX MAY BE COLLECTED AS EARLY AS 12 NOON.", "ref": "4783200003"}, "type": "Feature"}
{"geometry": {"coordinates": [-87.013134335, 39.383076519], "type": "Point"}, "id": "bzhLW0K8WbYpCVpE6if_4skmeX4=", "properties": {"@spider": "usps_collection_boxes", "addr:city": "BOWLING GREEN", "addr:country": "US", "addr:full": "5181 E STATE ROAD 46", "addr:postcode": "47833", "addr:state": "IN", "brand": "USPS", "brand:wikidata": "Q668687", "collection_times": "Mo-Sa 12:45", "name": "USPS COLLECTION BOX - BLUE BOX", "note": "ON 12/24 AND 12/31, THIS BOX MAY BE COLLECTED AS EARLY AS 12 NOON.", "ref": "4783300001"}, "type": "Feature"}
{"geometry": {"coordinates": [-87.013134335, 39.383076519], "type": "Point"}, "id": "X6taXIGXyXRdaeO57ARpds7zA9Y=", "properties": {"@spider": "usps_collection_boxes", "addr:city": "BOWLING GREEN", "addr:country": "US", "addr:full": "5181 E STATE ROAD 46", "addr:postcode": "47833", "addr:state": "IN", "brand": "USPS", "brand:wikidata": "Q668687", "collection_times": "Mo-Fr 10:45; Sa 12:45", "name": "USPS COLLECTION BOX - PO LOBBY", "note": "ON 12/24 AND 12/31, THIS BOX MAY BE COLLECTED AS EARLY AS 12 NOON.", "ref": "4783300002"}, "type": "Feature"}
{"geometry": {"coordinates": [-87.013134335, 39.383076519], "type": "Point"}, "id": "l6aoQgKljQI4hWv9qzSp4Q2uVIg=", "properties": {"@spider": "usps_collection_boxes", "addr:city": "BOWLING GREEN", "addr:country": "US", "addr:full": "5181 E STATE ROAD 46", "addr:postcode": "47833", "addr:state": "IN", "brand": "USPS", "brand:wikidata": "Q668687", "collection_times": "Mo-Fr 11:00; Sa 13:00", "name": "USPS COLLECTION BOX - PO LOBBY", "note": "ON 12/24 AND 12/31, THIS BOX MAY BE COLLECTED AS EARLY AS 12 NOON.", "ref": "4783300003"}, "type": "Feature"}
{"geometry": {"coordinates": [-87.130899418, 39.522303071], "type": "Point"}, "id": "RmndOhtx3rLKfIfEX2woYOzPwNg=", "properties": {"@spider": "usps_collection_boxes", "addr:city": "BRAZIL", "addr:country": "US", "addr:full": "227 W NATIONAL AVE", "addr:postcode": "47834", "addr:state": "IN", "brand": "USPS", "brand:wikidata": "Q668687", "collection_times": "Mo-Fr 16:30; Sa 16:00", "name": "USPS COLLECTION BOX - BLUE BOX", "note": "ON 12/24 AND 12/31, THIS BOX MAY BE COLLECTED AS EARLY AS 12 NOON.", "ref": "4783400000"}, "type": "Feature"}
{"geometry": {"coordinates": [-87.130899418, 39.522303071], "type": "Point"}, "id": "SYuVDtBBarDRChpyCBHwhdWjTKY=", "properties": {"@spider": "usps_collection_boxes", "addr:city": "BRAZIL", "addr:country": "US", "addr:full": "227 W NATIONAL AVE", "addr:postcode": "47834", "addr:state": "IN", "brand": "USPS", "brand:wikidata": "Q668687", "collection_times": "Mo-Fr 16:30; Sa 16:00", "name": "USPS COLLECTION BOX - BLUE BOX", "note": "ON 12/24 AND 12/31, THIS BOX MAY BE COLLECTED AS EARLY AS 12 NOON.", "ref": "4783400001"}, "type": "Feature"}
{"geometry": {"coordinates": [-87.1250623, 39.52233], "type": "Point"}, "id": "CSweiZNUiQY8du4Jj3X1ui0A3jQ=", "properties": {"@spider": "usps_collection_boxes", "addr:city": "BRAZIL", "addr:country": "US", "addr:full": "120 S FOREST AVE", "addr:postcode": "47834", "addr:state": "IN", "brand": "USPS", "brand:wikidata": "Q668687", "collection_times": "Mo-Fr 15:15; Sa 12:00", "name": "USPS COLLECTION BOX - BLUE BOX", "note": "ON 12/24 AND 12/31, THIS BOX MAY BE COLLECTED AS EARLY AS 12 NOON.", "ref": "4783400006"}, "type": "Feature"}
{"geometry": {"coordinates": [-87.1189009, 39.524549], "type": "Point"}, "id": "WxUZVqsm3ePEgjh1ZXdnJEO-Z54=", "properties": {"@spider": "usps_collection_boxes", "addr:city": "BRAZIL", "addr:country": "US", "addr:full": "609 E NATIONAL AVE", "addr:postcode": "47834", "addr:state": "IN", "brand": "USPS", "brand:wikidata": "Q668687", "collection_times": "Mo-Fr 15:15; Sa 12:00", "name": "USPS COLLECTION BOX - BLUE BOX", "note": "ON 12/24 AND 12/31, THIS BOX MAY BE COLLECTED AS EARLY AS 12 NOON.", "ref": "4783400008"}, "type": "Feature"}
{"geometry": {"coordinates": [-87.1158023, 39.525339], "type": "Point"}, "id": "xRK795TY8vyDm5--ejzVyM3F8Ns=", "properties": {"@spider": "usps_collection_boxes", "addr:city": "BRAZIL", "addr:country": "US", "addr:full": "5 FOREST PARK PLZ", "addr:postcode": "47834", "addr:state": "IN", "brand": "USPS", "brand:wikidata": "Q668687", "collection_times": "Mo-Fr 15:15; Sa 12:00", "name": "USPS COLLECTION BOX - BLUE BOX", "note": "ON 12/24 AND 12/31, THIS BOX MAY BE COLLECTED AS EARLY AS 12 NOON.", "ref": "4783400009"}, "type": "Feature"}
{"geometry": {"coordinates": [-87.130899418, 39.522303071], "type": "Point"}, "id": "QPsAvZfGWET-k89WquQRWD5ocr0=", "properties": {"@spider": "usps_collection_boxes", "addr:city": "BRAZIL", "addr:country": "US", "addr:full": "227 W NATIONAL AVE", "addr:postcode": "47834", "addr:state": "IN", "brand": "USPS", "brand:wikidata": "Q668687", "collection_times": "Mo-Fr 16:30; Sa 12:00", "name": "USPS COLLECTION BOX - PO LOBBY", "note": "ON 12/24 AND 12/31, THIS BOX MAY BE COLLECTED AS EARLY AS 12 NOON.", "ref": "4783400011"}, "type": "Feature"}
{"geometry": {"coordinates": [-87.130899418, 39.522303071], "type": "Point"}, "id": "GtdfC5P8irIkBTkxoYD-AtxgULs=", "properties": {"@spider": "usps_collection_boxes", "addr:city": "BRAZIL", "addr:country": "US", "addr:full": "227 W NATIONAL AVE", "addr:postcode": "47834", "addr:state": "IN", "brand": "USPS", "brand:wikidata": "Q668687", "collection_times": "Mo-Fr 16:30; Sa 16:00", "name": "USPS COLLECTION BOX - BLUE BOX", "note": "ON 12/24 AND 12/31, THIS BOX MAY BE COLLECTED AS EARLY AS 12 NOON.", "ref": "4783400012"}, "type": "Feature"}
{"geometry": {"coordinates": [-87.130899418, 39.522303071], "type": "Point"}, "id": "Iev3DSHOKe3eCUANOMddhqAVbm4=", "properties": {"@spider": "usps_collection_boxes", "addr:city": "BRAZIL", "addr:country": "US", "addr:full": "227 W NATIONAL AVE", "addr:postcode": "47834", "addr:state": "IN", "brand": "USPS", "brand:wikidata": "Q668687", "collection_times": "Mo-Fr 16:30; Sa 16:00", "name": "USPS COLLECTION BOX - BLUE BOX", "note": "ON 12/24 AND 12/31, THIS BOX MAY BE COLLECTED AS EARLY AS 12 NOON.", "ref": "4783400013"}, "type": "Feature"}
{"geometry": {"coordinates": [-87.1264699, 39.445249], "type": "Point"}, "id": "Lb16297vaiVCkEx10mx-a_PRzg4=", "properties": {"@spider": "usps_collection_boxes", "addr:city": "BRAZIL", "addr:country": "US", "addr:full": "1035 W STATE ROAD 42", "addr:postcode": "47834", "addr:state": "IN", "brand": "USPS", "brand:wikidata": "Q668687", "collection_times": "Mo-Sa 10:30", "name": "USPS COLLECTION BOX - BLUE BOX", "ref": "4783400019"}, "type": "Feature"}
{"geometry": {"coordinates": [-87.130899418, 39.522303071], "type": "Point"}, "id": "IjkefSq4UatQb1ryfbqO1N7vNLs=", "properties": {"@spider": "usps_collection_boxes", "addr:city": "BRAZIL", "addr:country": "US", "addr:full": "227 W NATIONAL AVE", "addr:postcode": "47834", "addr:state": "IN", "brand": "USPS", "brand:wikidata": "Q668687", "collection_times": "Mo-Fr 16:00; Sa 12:00", "name": "USPS COLLECTION BOX - PO LOBBY", "note": "ON 12/24 AND 12/31, THIS BOX MAY BE COLLECTED AS EARLY AS 12 NOON.", "ref": "4783400021"}, "type": "Feature"}
{"geometry": {"coordinates": [-87.176213706, 39.648618566], "type": "Point"}, "id": "tJDGuXrGjXEP6wUO3lFErPejWqg=", "properties": {"@spider": "usps_collection_boxes", "addr:city": "BRIDGETON", "addr:country": "US", "addr:full": "8128 S BRIDGETON RD", "addr:postcode": "47836", "addr:state": "IN", "brand": "USPS", "brand:wikidata": "Q668687", "collection_times": "Mo-Fr 16:00; Sa 11:30", "name": "USPS COLLECTION BOX - BLUE BOX", "note": "ON 12/24 AND 12/31, THIS BOX MAY BE COLLECTED AS EARLY AS 12 NOON.", "ref": "4783600001"}, "type": "Feature"}
{"geometry": {"coordinates": [-87.176213706, 39.648618566], "type": "Point"}, "id": "kSENE7qfYoY9I4KOghzBaeHLSaQ=", "properties": {"@spider": "usps_collection_boxes", "addr:city": "BRIDGETON", "addr:country": "US", "addr:full": "8128 S BRIDGETON RD", "addr:postcode": "47836", "addr:state": "IN", "brand": "USPS", "brand:wikidata": "Q668687", "collection_times": "Mo-Fr 10:45; Sa 11:30", "name": "USPS COLLECTION BOX - PO LOBBY", "ref": "4783600002"}, "type": "Feature"}
{"geometry": {"coordinates": [-87.176213706, 39.648618566], "type": "Point"}, "id": "SyGJzlwHGgjjbvFvQODE7zsHemw=", "properties": {"@spider": "usps_collection_boxes", "addr:city": "BRIDGETON", "addr:country": "US", "addr:full": "8128 S BRIDGETON RD", "addr:postcode": "47836", "addr:state": "IN", "brand": "USPS", "brand:wikidata": "Q668687", "collection_times": "Mo-Fr 11:00; Sa 12:00", "name": "USPS COLLECTION BOX - PO LOBBY", "ref": "4783600003"}, "type": "Feature"}
{"geometry": {"coordinates": [-87.106846598, 39.599821425], "type": "Point"}, "id": "kKkvYnEBvNiRQmSzU39EW9vMyZM=", "properties": {"@spider": "usps_collection_boxes", "addr:city": "CARBON", "addr:country": "US", "addr:full": "14641 N POPLAR ST", "addr:postcode": "47837", "addr:state": "IN", "brand": "USPS", "brand:wikidata": "Q668687", "collection_times": "Mo-Fr 16:00; Sa 10:45", "name": "USPS COLLECTION BOX - BLUE BOX", "note": "ON 12/24 AND 12/31, THIS BOX MAY BE COLLECTED AS EARLY AS 12 NOON.", "ref": "4783700001"}, "type": "Feature"}
{"geometry": {"coordinates": [-87.106846598, 39.599821425], "type": "Point"}, "id": "mtzmjUYnGZEp-tQXSUaXoLiR8ZQ=", "properties": {"@spider": "usps_collection_boxes", "addr:city": "CARBON", "addr:country": "US", "addr:full": "14641 N POPLAR ST", "addr:postcode": "47837", "addr:state": "IN", "brand": "USPS", "brand:wikidata": "Q668687", "collection_times": "Mo-Fr 11:45; Sa 10:45", "name": "USPS COLLECTION BOX - PO LOBBY", "ref": "4783700002"}, "type": "Feature"}
{"geometry": {"coordinates": [-87.106846598, 39.599821425], "type": "Point"}, "id": "hrTmw3Ya8XLgxBOE2tr0lzkvFwo=", "properties": {"@spider": "usps_collection_boxes", "addr:city": "CARBON", "addr:country": "US", "addr:full": "14641 N POPLAR ST", "addr:postcode": "47837", "addr:state": "IN", "brand": "USPS", "brand:wikidata": "Q668687", "collection_times": "Mo-Fr 12:00; Sa 10:30", "name": "USPS COLLECTION BOX - PO LOBBY", "ref": "4783700003"}, "type": "Feature"}
{"geometry": {"coordinates": [-87.402807616, 38.962963727], "type": "Point"}, "id": "9LsFXLJ0tJ0CDXurv_HZ-LUY1kw=", "properties": {"@spider": "usps_collection_boxes", "addr:city": "CARLISLE", "addr:country": "US", "addr:full": "119 N LEDGERWOOD ST", "addr:postcode": "47838", "addr:state": "IN", "brand": "USPS", "brand:wikidata": "Q668687", "collection_times": "Mo-Fr 15:45; Sa 10:30", "name": "USPS COLLECTION BOX - BLUE BOX", "note": "ON 12/24 AND 12/31, THIS BOX MAY BE COLLECTED AS EARLY AS 12 NOON.", "ref": "4783800000"}, "type": "Feature"}
{"geometry": {"coordinates": [-87.4068327, 38.955433], "type": "Point"}, "id": "5vKl2UvLi3GXPOOt66nroQ1iXfI=", "properties": {"@spider": "usps_collection_boxes", "addr:city": "CARLISLE", "addr:country": "US", "addr:full": "8355 S OLD US HIGHWAY 41", "addr:postcode": "47838", "addr:state": "IN", "brand": "USPS", "brand:wikidata": "Q668687", "collection_times": "Mo-Fr 10:00; Sa 09:00", "name": "USPS COLLECTION BOX - BLUE BOX", "ref": "4783800001"}, "type": "Feature"}
{"geometry": {"coordinates": [-87.402807616, 38.962963727], "type": "Point"}, "id": "zlhGQw8yBSxd39Pufyk0QrqcayQ=", "properties": {"@spider": "usps_collection_boxes", "addr:city": "CARLISLE", "addr:country": "US", "addr:full": "119 N LEDGERWOOD ST", "addr:postcode": "47838", "addr:state": "IN", "brand": "USPS", "brand:wikidata": "Q668687", "collection_times": "Mo-Fr 15:45; Sa 10:30", "name": "USPS COLLECTION BOX - PO LOBBY", "note": "ON 12/24 AND 12/31, THIS BOX MAY BE COLLECTED AS EARLY AS 12 NOON.", "ref": "4783800002"}, "type": "Feature"}
{"geometry": {"coordinates": [-87.402807616, 38.962963727], "type": "Point"}, "id": "MtGcj_rOwoQDTFY_f-dIuxqV9oI=", "properties": {"@spider": "usps_collection_boxes", "addr:city": "CARLISLE", "addr:country": "US", "addr:full": "119 N LEDGERWOOD ST", "addr:postcode": "47838", "addr:state": "IN", "brand": "USPS", "brand:wikidata": "Q668687", "collection_times": "Mo-Fr 16:00; Sa 11:00", "name": "USPS COLLECTION BOX - PO LOBBY", "note": "ON 12/24 AND 12/31, THIS BOX MAY BE COLLECTED AS EARLY AS 12 NOON.", "ref": "4783800003"}, "type": "Feature"}
{"geometry": {"coordinates": [-87.1111686, 39.386231], "type": "Point"}, "id": "fIcBUrmx3guredoOL6CgRVIl4nc=", "properties": {"@spider": "usps_collection_boxes", "addr:city": "CENTER POINT", "addr:country": "US", "addr:full": "20 S STATE ROAD 59", "addr:postcode": "47840", "addr:state": "IN", "brand": "USPS", "brand:wikidata": "Q668687", "collection_times": "Mo-Fr 11:00", "name": "USPS COLLECTION BOX - BLUE BOX", "ref": "4784000000"}, "type": "Feature"}
{"geometry": {"coordinates": [-87.075414, 39.416686492], "type": "Point"}, "id": "J5V1b03CuiZy02ijwQoP09xq9GQ=", "properties": {"@spider": "usps_collection_boxes", "addr:city": "CENTER POINT", "addr:country": "US", "addr:full": "504 E MAIN ST", "addr:postcode": "47840", "addr:state": "IN", "brand": "USPS", "brand:wikidata": "Q668687", "collection_times": "Mo-Fr 15:45; Sa 10:45", "name": "USPS COLLECTION BOX - BLUE BOX", "note": "ON 12/24 AND 12/31, THIS BOX MAY BE COLLECTED AS EARLY AS 12 NOON.", "ref": "4784000001"}, "type": "Feature"}
{"geometry": {"coordinates": [-87.075414, 39.416686492], "type": "Point"}, "id": "gczWSPooovDJd421WrfdqlxmpQo=", "properties": {"@spider": "usps_collection_boxes", "addr:city": "CENTER POINT", "addr:country": "US", "addr:full": "504 E MAIN ST", "addr:postcode": "47840", "addr:state": "IN", "brand": "USPS", "brand:wikidata": "Q668687", "collection_times": "Mo-Fr 15:45; Sa 10:45", "name": "USPS COLLECTION BOX - PO LOBBY", "note": "ON 12/24 AND 12/31, THIS BOX MAY BE COLLECTED AS EARLY AS 12 NOON.", "ref": "4784000002"}, "type": "Feature"}
{"geometry": {"coordinates": [-87.075414, 39.416686492], "type": "Point"}, "id": "pFiXWKYL6X34RuC5kmKtUGQp76A=", "properties": {"@spider": "usps_collection_boxes", "addr:city": "CENTER POINT", "addr:country": "US", "addr:full": "504 E MAIN ST", "addr:postcode": "47840", "addr:state": "IN", "brand": "USPS", "brand:wikidata": "Q668687", "collection_times": "Mo-Fr 16:00; Sa 10:30", "name": "USPS COLLECTION BOX - PO LOBBY", "note": "ON 12/24 AND 12/31, THIS BOX MAY BE COLLECTED AS EARLY AS 12 NOON.", "ref": "4784000003"}, "type": "Feature"}
{"geometry": {"coordinates": [-87.112848996, 39.276144587], "type": "Point"}, "id": "M6drAy9p4VY5QvhDMsiAAZqhMog=", "properties": {"@spider": "usps_collection_boxes", "addr:city": "CLAY CITY", "addr:country": "US", "addr:full": "804 MAIN ST", "addr:postcode": "47841", "addr:state": "IN", "brand": "USPS", "brand:wikidata": "Q668687", "collection_times": "Mo-Sa 16:15", "name": "USPS COLLECTION BOX - BLUE BOX", "note": "ON 12/24 AND 12/31, THIS BOX MAY BE COLLECTED AS EARLY AS 12 NOON.", "ref": "4784100000"}, "type": "Feature"}
{"geometry": {"coordinates": [-87.1101871, 39.29183], "type": "Point"}, "id": "lqvtAq3PRtnDemOaKf-GYnPsJJc=", "properties": {"@spider": "usps_collection_boxes", "addr:city": "CLAY CITY", "addr:country": "US", "addr:full": "6505 S STATE ROAD 59", "addr:postcode": "47841", "addr:state": "IN", "brand": "USPS", "brand:wikidata": "Q668687", "collection_times": "Mo-Sa 12:00", "name": "USPS COLLECTION BOX - BLUE BOX", "ref": "4784100001"}, "type": "Feature"}
{"geometry": {"coordinates": [-87.112848996, 39.276144587], "type": "Point"}, "id": "6bQ1R0nwukdo-PpvgfsIvNQZ6rk=", "properties": {"@spider": "usps_collection_boxes", "addr:city": "CLAY CITY", "addr:country": "US", "addr:full": "804 MAIN ST", "addr:postcode": "47841", "addr:state": "IN", "brand": "USPS", "brand:wikidata": "Q668687", "collection_times": "Mo-Fr 15:45; Sa 11:00", "name": "USPS COLLECTION BOX - PO LOBBY", "note": "ON 12/24 AND 12/31, THIS BOX MAY BE COLLECTED AS EARLY AS 12 NOON.", "ref": "4784100002"}, "type": "Feature"}
{"geometry": {"coordinates": [-87.112848996, 39.276144587], "type": "Point"}, "id": "kjXgIkTJXdbiXJMeg2jHjGAZxZM=", "properties": {"@spider": "usps_collection_boxes", "addr:city": "CLAY CITY", "addr:country": "US", "addr:full": "804 MAIN ST", "addr:postcode": "47841", "addr:state": "IN", "brand": "USPS", "brand:wikidata": "Q668687", "collection_times": "Mo-Fr 15:00; Sa 10:30", "name": "USPS COLLECTION BOX - PO LOBBY", "note": "ON 12/24 AND 12/31, THIS BOX MAY BE COLLECTED AS EARLY AS 12 NOON.", "ref": "4784100003"}, "type": "Feature"}
{"geometry": {"coordinates": [-87.40152, 39.66048246], "type": "Point"}, "id": "nmzj77zLQJXFJ7CDwuYKPIE1UvQ=", "properties": {"@spider": "usps_collection_boxes", "addr:city": "CLINTON", "addr:country": "US", "addr:full": "405 VINE ST", "addr:postcode": "47842", "addr:state": "IN", "brand": "USPS", "brand:wikidata": "Q668687", "collection_times": "Mo-Fr 17:00; Sa 16:45", "name": "USPS COLLECTION BOX - BLUE BOX", "note": "ON 12/24 AND 12/31, THIS BOX MAY BE COLLECTED AS EARLY AS 12 NOON.", "ref": "4784200001"}, "type": "Feature"}
{"geometry": {"coordinates": [-87.40152, 39.66048246], "type": "Point"}, "id": "xoae_uZCdErvYaUmZHYi9I1qI4w=", "properties": {"@spider": "usps_collection_boxes", "addr:city": "CLINTON", "addr:country": "US", "addr:full": "405 VINE ST", "addr:postcode": "47842", "addr:state": "IN", "brand": "USPS", "brand:wikidata": "Q668687", "collection_times": "Mo-Fr 17:00; Sa 16:45", "name": "USPS COLLECTION BOX - BLUE BOX", "note": "ON 12/24 AND 12/31, THIS BOX MAY BE COLLECTED AS EARLY AS 12 NOON.", "ref": "4784200002"}, "type": "Feature"}
{"geometry": {"coordinates": [-87.40152, 39.66048246], "type": "Point"}, "id": "7CX7QwfDO7xMLGeYcGGkMm1x0ZA=", "properties": {"@spider": "usps_collection_boxes", "addr:city": "CLINTON", "addr:country": "US", "addr:full": "405 VINE ST", "addr:postcode": "47842", "addr:state": "IN", "brand": "USPS", "brand:wikidata": "Q668687", "collection_times": "Mo-Fr 17:00; Sa 16:45", "name": "USPS COLLECTION BOX - PO LOBBY", "note": "ON 12/24 AND 12/31, THIS BOX MAY BE COLLECTED AS EARLY AS 12 NOON.", "ref": "4784200003"}, "type": "Feature"}
{"geometry": {"coordinates": [-87.398228665, 39.652875388], "type": "Point"}, "id": "Lxvkwz-OitzCqlcfgq8-yXiTo6I=", "properties": {"@spider": "usps_collection_boxes", "addr:city": "CLINTON", "addr:country": "US", "addr:full": "801 S MAIN ST", "addr:postcode": "47842", "addr:state": "IN", "brand": "USPS", "brand:wikidata": "Q668687", "collection_times": "Mo-Fr 15:00; Sa 12:00", "name": "USPS COLLECTION BOX - BLUE BOX", "note": "ON 12/24 AND 12/31, THIS BOX MAY BE COLLECTED AS EARLY AS 12 NOON.", "ref": "4784200007"}, "type": "Feature"}
{"geometry": {"coordinates": [-87.3972243, 39.65547], "type": "Point"}, "id": "Qff9xtmdC63C2x8GoYGT6NYoPqs=", "properties": {"@spider": "usps_collection_boxes", "addr:city": "CLINTON", "addr:country": "US", "addr:full": "528 S MAIN ST", "addr:postcode": "47842", "addr:state": "IN", "brand": "USPS", "brand:wikidata": "Q668687", "collection_times": "Mo-Sa 10:45", "name": "USPS COLLECTION BOX - BLUE BOX", "ref": "4784200008"}, "type": "Feature"}
{"geometry": {"coordinates": [-87.4104099, 39.659132], "type": "Point"}, "id": "9kQUeVFDABY63iKpySzCtcBdNAU=", "properties": {"@spider": "usps_collection_boxes", "addr:city": "CLINTON", "addr:country": "US", "addr:full": "1047 WESTERN AVE", "addr:postcode": "47842", "addr:state": "IN", "brand": "USPS", "brand:wikidata": "Q668687", "collection_times": "Mo-Sa 11:00", "name": "USPS COLLECTION BOX - BLUE BOX", "ref": "4784200017"}, "type": "Feature"}
{"geometry": {"coordinates": [-87.40152, 39.66048246], "type": "Point"}, "id": "M3iEE9o857zQXM0ERH07V6ppKH8=", "properties": {"@spider": "usps_collection_boxes", "addr:city": "CLINTON", "addr:country": "US", "addr:full": "405 VINE ST", "addr:postcode": "47842", "addr:state": "IN", "brand": "USPS", "brand:wikidata": "Q668687", "collection_times": "Mo-Fr 17:00; Sa 16:45", "name": "USPS COLLECTION BOX - PO LOBBY", "note": "ON 12/24 AND 12/31, THIS BOX MAY BE COLLECTED AS EARLY AS 12 NOON.", "ref": "4784200021"}, "type": "Feature"}
{"geometry": {"coordinates": [-87.431873, 39.657895], "type": "Point"}, "id": "1WRIdXDjLp7KBpEWx4tjK8Rp4Nk=", "properties": {"@spider": "usps_collection_boxes", "addr:city": "CLINTON", "addr:country": "US", "addr:full": "1775 E STATE ROAD 163", "addr:postcode": "47842", "addr:state": "IN", "brand": "USPS", "brand:wikidata": "Q668687", "collection_times": "Mo-Sa 11:00", "name": "USPS COLLECTION BOX - BLUE BOX", "ref": "4784200022"}, "type": "Feature"}
{"geometry": {"coordinates": [-87.40152, 39.66048246], "type": "Point"}, "id": "647C3FC68LmCVGQlsb28rrUs-Cw=", "properties": {"@spider": "usps_collection_boxes", "addr:city": "CLINTON", "addr:country": "US", "addr:full": "405 VINE ST", "addr:postcode": "47842", "addr:state": "IN", "brand": "USPS", "brand:wikidata": "Q668687", "collection_times": "Mo-Fr 17:00; Sa 12:00", "name": "USPS COLLECTION BOX - PO LOBBY", "note": "ON 12/24 AND 12/31, THIS BOX MAY BE COLLECTED AS EARLY AS 12 NOON.", "ref": "4784200024"}, "type": "Feature"}
{"geometry": {"coordinates": [-87.233094827, 39.190739405], "type": "Point"}, "id": "YPfsIN-BIqnCQ0vHtF333TJ6OCg=", "properties": {"@spider": "usps_collection_boxes", "addr:city": "COALMONT", "addr:country": "US", "addr:full": "6457 W JASON ST", "addr:postcode": "47845", "addr:state": "IN", "brand": "USPS", "brand:wikidata": "Q668687", "collection_times": "Mo-Fr 15:45; Sa 10:15", "name": "USPS COLLECTION BOX - BLUE BOX", "note": "ON 12/24 AND 12/31, THIS BOX MAY BE COLLECTED AS EARLY AS 12 NOON.", "ref": "4784500001"}, "type": "Feature"}
{"geometry": {"coordinates": [-87.233094827, 39.190739405], "type": "Point"}, "id": "AkQvhnpTFpxz6P5pcNut1EWDd3s=", "properties": {"@spider": "usps_collection_boxes", "addr:city": "COALMONT", "addr:country": "US", "addr:full": "6457 W JASON ST", "addr:postcode": "47845", "addr:state": "IN", "brand": "USPS", "brand:wikidata": "Q668687", "collection_times": "Mo-Fr 16:00; Sa 10:15", "name": "USPS COLLECTION BOX - PO LOBBY", "note": "ON 12/24 AND 12/31, THIS BOX MAY BE COLLECTED AS EARLY AS 12 NOON.", "ref": "4784500002"}, "type": "Feature"}
{"geometry": {"coordinates": [-87.233094827, 39.190739405], "type": "Point"}, "id": "EnXliecZQqNzbb8NUuitKdVAkfQ=", "properties": {"@spider": "usps_collection_boxes", "addr:city": "COALMONT", "addr:country": "US", "addr:full": "6457 W JASON ST", "addr:postcode": "47845", "addr:state": "IN", "brand": "USPS", "brand:wikidata": "Q668687", "collection_times": "Mo-Fr 16:15; Sa 10:30", "name": "USPS COLLECTION BOX - PO LOBBY", "note": "ON 12/24 AND 12/31, THIS BOX MAY BE COLLECTED AS EARLY AS 12 NOON.", "ref": "4784500003"}, "type": "Feature"}
{"geometry": {"coordinates": [-87.204920349, 39.382210945], "type": "Point"}, "id": "QjAmCd5XLn5tiRPeybUsnNwa-QA=", "properties": {"@spider": "usps_collection_boxes", "addr:city": "CORY", "addr:country": "US", "addr:full": "5160 W DEPOT ST", "addr:postcode": "47846", "addr:state": "IN", "brand": "USPS", "brand:wikidata": "Q668687", "collection_times": "Mo-Fr 16:00; Sa 11:00", "name": "USPS COLLECTION BOX - BLUE BOX", "note": "ON 12/24 AND 12/31, THIS BOX MAY BE COLLECTED AS EARLY AS 12 NOON.", "ref": "4784600002"}, "type": "Feature"}
{"geometry": {"coordinates": [-87.204920349, 39.382210945], "type": "Point"}, "id": "Y6yw0cYpbkpVZCJtivtbYqZ6IMs=", "properties": {"@spider": "usps_collection_boxes", "addr:city": "CORY", "addr:country": "US", "addr:full": "5160 W DEPOT ST", "addr:postcode": "47846", "addr:state": "IN", "brand": "USPS", "brand:wikidata": "Q668687", "collection_times": "Mo-Fr 16:00; Sa 11:00", "name": "USPS COLLECTION BOX - PO LOBBY", "note": "ON 12/24 AND 12/31, THIS BOX MAY BE COLLECTED AS EARLY AS 12 NOON.", "ref": "4784600003"}, "type": "Feature"}
{"geometry": {"coordinates": [-87.204920349, 39.382210945], "type": "Point"}, "id": "xA9ToOxt4-0jRGF6EnQXF5P0ua8=", "properties": {"@spider": "usps_collection_boxes", "addr:city": "CORY", "addr:country": "US", "addr:full": "5160 W DEPOT ST", "addr:postcode": "47846", "addr:state": "IN", "brand": "USPS", "brand:wikidata": "Q668687", "collection_times": "Mo-Fr 16:30; Sa 11:00", "name": "USPS COLLECTION BOX - PO LOBBY", "note": "ON 12/24 AND 12/31, THIS BOX MAY BE COLLECTED AS EARLY AS 12 NOON.", "ref": "4784600004"}, "type": "Feature"}
{"geometry": {"coordinates": [-87.494909262, 39.805568801], "type": "Point"}, "id": "xs2Nc923f4f8jSqNn_5zgfC8UR0=", "properties": {"@spider": "usps_collection_boxes", "addr:city": "DANA", "addr:country": "US", "addr:full": "171 S MAPLE ST", "addr:postcode": "47847", "addr:state": "IN", "brand": "USPS", "brand:wikidata": "Q668687", "collection_times": "Mo-Fr 16:00; Sa 11:15", "name": "USPS COLLECTION BOX - BLUE BOX", "note": "ON 12/24 AND 12/31, THIS BOX MAY BE COLLECTED AS EARLY AS 12 NOON.", "ref": "4784700001"}, "type": "Feature"}
{"geometry": {"coordinates": [-87.494909262, 39.805568801], "type": "Point"}, "id": "nTq__UkOkCXQ5_K0yddpA-3DoRc=", "properties": {"@spider": "usps_collection_boxes", "addr:city": "DANA", "addr:country": "US", "addr:full": "171 S MAPLE ST", "addr:postcode": "47847", "addr:state": "IN", "brand": "USPS", "brand:wikidata": "Q668687", "collection_times": "Mo-Fr 11:45; Sa 11:15", "name": "USPS COLLECTION BOX - PO LOBBY", "ref": "4784700002"}, "type": "Feature"}
{"geometry": {"coordinates": [-87.494909262, 39.805568801], "type": "Point"}, "id": "f_H4CagBod5lde3okfIHIMbOdBs=", "properties": {"@spider": "usps_collection_boxes", "addr:city": "DANA", "addr:country": "US", "addr:full": "171 S MAPLE ST", "addr:postcode": "47847", "addr:state": "IN", "brand": "USPS", "brand:wikidata": "Q668687", "collection_times": "Mo-Fr 12:00; Sa 11:00", "name": "USPS COLLECTION BOX - PO LOBBY", "ref": "4784700003"}, "type": "Feature"}
{"geometry": {"coordinates": [-87.2562502456, 39.0677155579], "type": "Point"}, "id": "ve6DkDIO_wKcVo8PUzwMWO5CJys=", "properties": {"@spider": "usps_collection_boxes", "addr:city": "DUGGER", "addr:country": "US", "addr:full": "8182 E MAIN ST", "addr:postcode": "47848", "addr:state": "IN", "brand": "USPS", "brand:wikidata": "Q668687", "collection_times": "Mo-Fr 15:45; Sa 10:15", "name": "USPS COLLECTION BOX - BLUE BOX", "note": "ON 12/24 AND 12/31, THIS BOX MAY BE COLLECTED AS EARLY AS 12 NOON.", "ref": "4784800001"}, "type": "Feature"}
{"geometry": {"coordinates": [-87.52134607, 39.219011581], "type": "Point"}, "id": "kloCQr5pEi_xp5itBYBqo7OMLXk=", "properties": {"@spider": "usps_collection_boxes", "addr:city": "FAIRBANKS", "addr:country": "US", "addr:full": "9236 N MAIN ST", "addr:postcode": "47849", "addr:state": "IN", "brand": "USPS", "brand:wikidata": "Q668687", "collection_times": "Mo-Fr 11:45; Sa 10:30", "name": "USPS COLLECTION BOX - BLUE BOX", "ref": "4784900001"}, "type": "Feature"}
{"geometry": {"coordinates": [-87.52134607, 39.219011581], "type": "Point"}, "id": "uFDG1tJGdmXtt1XRybwJSX4FC6Y=", "properties": {"@spider": "usps_collection_boxes", "addr:city": "FAIRBANKS", "addr:country": "US", "addr:full": "9236 N MAIN ST", "addr:postcode": "47849", "addr:state": "IN", "brand": "USPS", "brand:wikidata": "Q668687", "collection_times": "Mo-Fr 11:45; Sa 10:30", "name": "USPS COLLECTION BOX - PO LOBBY", "ref": "4784900002"}, "type": "Feature"}
{"geometry": {"coordinates": [-87.52134607, 39.219011581], "type": "Point"}, "id": "ajRehq3gznis9ZzhtToEwDnZW-A=", "properties": {"@spider": "usps_collection_boxes", "addr:city": "FAIRBANKS", "addr:country": "US", "addr:full": "9236 N MAIN ST", "addr:postcode": "47849", "addr:state": "IN", "brand": "USPS", "brand:wikidata": "Q668687", "collection_times": "Mo-Fr 14:30; Sa 12:30", "name": "USPS COLLECTION BOX - PO LOBBY", "note": "ON 12/24 AND 12/31, THIS BOX MAY BE COLLECTED AS EARLY AS 12 NOON.", "ref": "4784900003"}, "type": "Feature"}
{"geometry": {"coordinates": [-87.379983, 39.253915508], "type": "Point"}, "id": "XWjjUdFWgvAPyfKndj5-rmt0x7M=", "properties": {"@spider": "usps_collection_boxes", "addr:city": "FARMERSBURG", "addr:country": "US", "addr:full": "105 W MAIN ST", "addr:postcode": "47850", "addr:state": "IN", "brand": "USPS", "brand:wikidata": "Q668687", "collection_times": "Mo-Fr 16:15; Sa 11:45", "name": "USPS COLLECTION BOX - BLUE BOX", "note": "ON 12/24 AND 12/31, THIS BOX MAY BE COLLECTED AS EARLY AS 12 NOON.", "ref": "4785000001"}, "type": "Feature"}
{"geometry": {"coordinates": [-87.379983, 39.253915508], "type": "Point"}, "id": "NpGSkTqXvyGoVriWiq0EAMHFows=", "properties": {"@spider": "usps_collection_boxes", "addr:city": "FARMERSBURG", "addr:country": "US", "addr:full": "105 W MAIN ST", "addr:postcode": "47850", "addr:state": "IN", "brand": "USPS", "brand:wikidata": "Q668687", "collection_times": "Mo-Fr 16:15; Sa 11:45", "name": "USPS COLLECTION BOX - PO LOBBY", "note": "ON 12/24 AND 12/31, THIS BOX MAY BE COLLECTED AS EARLY AS 12 NOON.", "ref": "4785000002"}, "type": "Feature"}
{"geometry": {"coordinates": [-87.379983, 39.253915508], "type": "Point"}, "id": "tUWP869Gs_vHDuHLo6CieG649Z8=", "properties": {"@spider": "usps_collection_boxes", "addr:city": "FARMERSBURG", "addr:country": "US", "addr:full": "105 W MAIN ST", "addr:postcode": "47850", "addr:state": "IN", "brand": "USPS", "brand:wikidata": "Q668687", "collection_times": "Mo-Fr 16:30; Sa 12:00", "name": "USPS COLLECTION BOX - PO LOBBY", "note": "ON 12/24 AND 12/31, THIS BOX MAY BE COLLECTED AS EARLY AS 12 NOON.", "ref": "4785000003"}, "type": "Feature"}
{"geometry": {"coordinates": [-87.244478872, 39.573596871], "type": "Point"}, "id": "9aAwytaHtBXwD3z264ijmZEqBdQ=", "properties": {"@spider": "usps_collection_boxes", "addr:city": "FONTANET", "addr:country": "US", "addr:full": "8878 N MAIN ST", "addr:postcode": "47851", "addr:state": "IN", "brand": "USPS", "brand:wikidata": "Q668687", "collection_times": "Mo-Fr 16:15; Sa 10:15", "name": "USPS COLLECTION BOX - BLUE BOX", "note": "ON 12/24 AND 12/31, THIS BOX MAY BE COLLECTED AS EARLY AS 12 NOON.", "ref": "4785100001"}, "type": "Feature"}
{"geometry": {"coordinates": [-87.244478872, 39.573596871], "type": "Point"}, "id": "yUOv2cHVsQaT8ZtwUqyVxrvmACE=", "properties": {"@spider": "usps_collection_boxes", "addr:city": "FONTANET", "addr:country": "US", "addr:full": "8878 N MAIN ST", "addr:postcode": "47851", "addr:state": "IN", "brand": "USPS", "brand:wikidata": "Q668687", "collection_times": "Mo-Fr 15:45; Sa 10:15", "name": "USPS COLLECTION BOX - PO LOBBY", "note": "ON 12/24 AND 12/31, THIS BOX MAY BE COLLECTED AS EARLY AS 12 NOON.", "ref": "4785100002"}, "type": "Feature"}
{"geometry": {"coordinates": [-87.244478872, 39.573596871], "type": "Point"}, "id": "uXSzRViZaoPHqCNHqP0yiGTLHTA=", "properties": {"@spider": "usps_collection_boxes", "addr:city": "FONTANET", "addr:country": "US", "addr:full": "8878 N MAIN ST", "addr:postcode": "47851", "addr:state": "IN", "brand": "USPS", "brand:wikidata": "Q668687", "collection_times": "Mo-Fr 16:00; Sa 10:45", "name": "USPS COLLECTION BOX - PO LOBBY", "note": "ON 12/24 AND 12/31, THIS BOX MAY BE COLLECTED AS EARLY AS 12 NOON.", "ref": "4785100003"}, "type": "Feature"}
{"geometry": {"coordinates": [-87.556228646, 39.117212138], "type": "Point"}, "id": "YL6aHRJwHqJp3KLYT2EvnyEVKuM=", "properties": {"@spider": "usps_collection_boxes", "addr:city": "GRAYSVILLE", "addr:country": "US", "addr:full": "2269 N STATE ROAD 63", "addr:postcode": "47852", "addr:state": "IN", "brand": "USPS", "brand:wikidata": "Q668687", "collection_times": "Mo-Fr 14:15; Sa 11:15", "name": "USPS COLLECTION BOX - BLUE BOX", "note": "ON 12/24 AND 12/31, THIS BOX MAY BE COLLECTED AS EARLY AS 12 NOON.", "ref": "4785200001"}, "type": "Feature"}
{"geometry": {"coordinates": [-87.556228646, 39.117212138], "type": "Point"}, "id": "KPaEdFKsiWVdFLf_tK643gIiIcA=", "properties": {"@spider": "usps_collection_boxes", "addr:city": "GRAYSVILLE", "addr:country": "US", "addr:full": "2269 N STATE ROAD 63", "addr:postcode": "47852", "addr:state": "IN", "brand": "USPS", "brand:wikidata": "Q668687", "collection_times": "Mo-Fr 14:15; Sa 11:15", "name": "USPS COLLECTION BOX - PO LOBBY", "note": "ON 12/24 AND 12/31, THIS BOX MAY BE COLLECTED AS EARLY AS 12 NOON.", "ref": "4785200002"}, "type": "Feature"}
{"geometry": {"coordinates": [-87.556228646, 39.117212138], "type": "Point"}, "id": "kEVpf3SZr5vOfrbefjv6f0OjmKs=", "properties": {"@spider": "usps_collection_boxes", "addr:city": "GRAYSVILLE", "addr:country": "US", "addr:full": "2269 N STATE ROAD 63", "addr:postcode": "47852", "addr:state": "IN", "brand": "USPS", "brand:wikidata": "Q668687", "collection_times": "Mo-Fr 14:30; Sa 11:30", "name": "USPS COLLECTION BOX - PO LOBBY", "note": "ON 12/24 AND 12/31, THIS BOX MAY BE COLLECTED AS EARLY AS 12 NOON.", "ref": "4785200004"}, "type": "Feature"}
{"geometry": {"coordinates": [-87.07270633, 39.536142023], "type": "Point"}, "id": "DoPAdAOE-NjdSZ6k_vaITD0-Xxg=", "properties": {"@spider": "usps_collection_boxes", "addr:city": "HARMONY", "addr:country": "US", "addr:full": "1875 E US HIGHWAY 40", "addr:postcode": "47853", "addr:state": "IN", "brand": "USPS", "brand:wikidata": "Q668687", "collection_times": "Mo-Fr 16:00; Sa 11:00", "name": "USPS COLLECTION BOX - BLUE BOX", "note": "ON 12/24 AND 12/31, THIS BOX MAY BE COLLECTED AS EARLY AS 12 NOON.", "ref": "4785300001"}, "type": "Feature"}
{"geometry": {"coordinates": [-87.07270633, 39.536142023], "type": "Point"}, "id": "hQMSFo8u5_FDktXCaqhbf7GhkF0=", "properties": {"@spider": "usps_collection_boxes", "addr:city": "HARMONY", "addr:country": "US", "addr:full": "1875 E US HIGHWAY 40", "addr:postcode": "47853", "addr:state": "IN", "brand": "USPS", "brand:wikidata": "Q668687", "collection_times": "Mo-Fr 12:00; Sa 11:00", "name": "USPS COLLECTION BOX - PO LOBBY", "ref": "4785300002"}, "type": "Feature"}
{"geometry": {"coordinates": [-87.07270633, 39.536142023], "type": "Point"}, "id": "Bb29o5j2bkyvbnupFF0dTkpsKzY=", "properties": {"@spider": "usps_collection_boxes", "addr:city": "HARMONY", "addr:country": "US", "addr:full": "1875 E US HIGHWAY 40", "addr:postcode": "47853", "addr:state": "IN", "brand": "USPS", "brand:wikidata": "Q668687", "collection_times": "Mo-Sa 11:00", "name": "USPS COLLECTION BOX - PO LOBBY", "ref": "4785300003"}, "type": "Feature"}
{"geometry": {"coordinates": [-87.386097, 39.78002], "type": "Point"}, "id": "nkWS9ny5WBdyRjr4r4yAld7L3j8=", "properties": {"@spider": "usps_collection_boxes", "addr:city": "HILLSDALE", "addr:country": "US", "addr:full": "7267 S 1ST ST", "addr:postcode": "47854", "addr:state": "IN", "brand": "USPS", "brand:wikidata": "Q668687", "collection_times": "Mo-Fr 14:00; Sa 12:45", "name": "USPS COLLECTION BOX - BLUE BOX", "note": "ON 12/24 AND 12/31, THIS BOX MAY BE COLLECTED AS EARLY AS 12 NOON.", "ref": "4785400001"}, "type": "Feature"}
{"geometry": {"coordinates": [-87.3860967114, 39.7800624446], "type": "Point"}, "id": "e_WDBYEAQVNcZfjM2eAiQFDJ-fI=", "properties": {"@spider": "usps_collection_boxes", "addr:city": "HILLSDALE", "addr:country": "US", "addr:full": "7267 S 1ST ST", "addr:postcode": "47854", "addr:state": "IN", "brand": "USPS", "brand:wikidata": "Q668687", "collection_times": "Mo-Fr 14:00; Sa 12:45", "name": "USPS COLLECTION BOX - PO LOBBY", "note": "ON 12/24 AND 12/31, THIS BOX MAY BE COLLECTED AS EARLY AS 12 NOON.", "ref": "4785400002"}, "type": "Feature"}
{"geometry": {"coordinates": [-87.3860967114, 39.7800624446], "type": "Point"}, "id": "RPo_8LKC6Ub_7LlyADfH2ut83rQ=", "properties": {"@spider": "usps_collection_boxes", "addr:city": "HILLSDALE", "addr:country": "US", "addr:full": "7267 S 1ST ST", "addr:postcode": "47854", "addr:state": "IN", "brand": "USPS", "brand:wikidata": "Q668687", "collection_times": "Mo-Fr 14:15; Sa 13:00", "name": "USPS COLLECTION BOX - PO LOBBY", "note": "ON 12/24 AND 12/31, THIS BOX MAY BE COLLECTED AS EARLY AS 12 NOON.", "ref": "4785400003"}, "type": "Feature"}
{"geometry": {"coordinates": [-87.302987993, 39.185298], "type": "Point"}, "id": "qJj3TkdUqe6VOokmGBIuy0I32rU=", "properties": {"@spider": "usps_collection_boxes", "addr:city": "HYMERA", "addr:country": "US", "addr:full": "119 S MAIN ST", "addr:postcode": "47855", "addr:state": "IN", "brand": "USPS", "brand:wikidata": "Q668687", "collection_times": "Mo-Fr 16:00; Sa 11:00", "name": "USPS COLLECTION BOX - BLUE BOX", "note": "ON 12/24 AND 12/31, THIS BOX MAY BE COLLECTED AS EARLY AS 12 NOON.", "ref": "4785500001"}, "type": "Feature"}
{"geometry": {"coordinates": [-87.302987993, 39.185298], "type": "Point"}, "id": "xu7-APUz7fxidd89u7BZ-BemC9I=", "properties": {"@spider": "usps_collection_boxes", "addr:city": "HYMERA", "addr:country": "US", "addr:full": "119 S MAIN ST", "addr:postcode": "47855", "addr:state": "IN", "brand": "USPS", "brand:wikidata": "Q668687", "collection_times": "Mo-Fr 16:00; Sa 11:00", "name": "USPS COLLECTION BOX - PO LOBBY", "note": "ON 12/24 AND 12/31, THIS BOX MAY BE COLLECTED AS EARLY AS 12 NOON.", "ref": "4785500002"}, "type": "Feature"}
{"geometry": {"coordinates": [-87.302987993, 39.185298], "type": "Point"}, "id": "zAYdiBWntun6OjdUqK6lwNCj9Jk=", "properties": {"@spider": "usps_collection_boxes", "addr:city": "HYMERA", "addr:country": "US", "addr:full": "119 S MAIN ST", "addr:postcode": "47855", "addr:state": "IN", "brand": "USPS", "brand:wikidata": "Q668687", "collection_times": "Mo-Fr 16:30; Sa 12:30", "name": "USPS COLLECTION BOX - PO LOBBY", "note": "ON 12/24 AND 12/31, THIS BOX MAY BE COLLECTED AS EARLY AS 12 NOON.", "ref": "4785500003"}, "type": "Feature"}
{"geometry": {"coordinates": [-87.089307609, 39.528107528], "type": "Point"}, "id": "nJz_e_dgEumvqgHZReyc5kt39e8=", "properties": {"@spider": "usps_collection_boxes", "addr:city": "KNIGHTSVILLE", "addr:country": "US", "addr:full": "9737 N CRAWFORD ST", "addr:postcode": "47857", "addr:state": "IN", "brand": "USPS", "brand:wikidata": "Q668687", "collection_times": "Mo-Fr 16:15; Sa 12:45", "name": "USPS COLLECTION BOX - BLUE BOX", "note": "ON 12/24 AND 12/31, THIS BOX MAY BE COLLECTED AS EARLY AS 12 NOON.", "ref": "4785700001"}, "type": "Feature"}
{"geometry": {"coordinates": [-87.089307609, 39.528107528], "type": "Point"}, "id": "xDhEbtuevGmy7n9uVTqVC9X4rtY=", "properties": {"@spider": "usps_collection_boxes", "addr:city": "KNIGHTSVILLE", "addr:country": "US", "addr:full": "9737 N CRAWFORD ST", "addr:postcode": "47857", "addr:state": "IN", "brand": "USPS", "brand:wikidata": "Q668687", "collection_times": "Mo-Fr 16:15; Sa 12:45", "name": "USPS COLLECTION BOX - PO LOBBY", "note": "ON 12/24 AND 12/31, THIS BOX MAY BE COLLECTED AS EARLY AS 12 NOON.", "ref": "4785700002"}, "type": "Feature"}
{"geometry": {"coordinates": [-87.089307609, 39.528107528], "type": "Point"}, "id": "9qo0bk3DXcQid_FMJLzq58-9vbk=", "properties": {"@spider": "usps_collection_boxes", "addr:city": "KNIGHTSVILLE", "addr:country": "US", "addr:full": "9737 N CRAWFORD ST", "addr:postcode": "47857", "addr:state": "IN", "brand": "USPS", "brand:wikidata": "Q668687", "collection_times": "Mo-Fr 16:15; Sa 13:00", "name": "USPS COLLECTION BOX - PO LOBBY", "note": "ON 12/24 AND 12/31, THIS BOX MAY BE COLLECTED AS EARLY AS 12 NOON.", "ref": "4785700003"}, "type": "Feature"}
{"geometry": {"coordinates": [-87.259288419, 39.261698056], "type": "Point"}, "id": "Q9vNFIgyG3mqAiSsNpAst9Cty3w=", "properties": {"@spider": "usps_collection_boxes", "addr:city": "LEWIS", "addr:country": "US", "addr:full": "10392 E STATE ROAD 246", "addr:postcode": "47858", "addr:state": "IN", "brand": "USPS", "brand:wikidata": "Q668687", "collection_times": "Mo-Fr 15:45; Sa 10:00", "name": "USPS COLLECTION BOX - BLUE BOX", "note": "ON 12/24 AND 12/31, THIS BOX MAY BE COLLECTED AS EARLY AS 12 NOON.", "ref": "4785800001"}, "type": "Feature"}
{"geometry": {"coordinates": [-87.259288419, 39.261698056], "type": "Point"}, "id": "Ck8H0N6okUtu5PinCX6k3UYcnAE=", "properties": {"@spider": "usps_collection_boxes", "addr:city": "LEWIS", "addr:country": "US", "addr:full": "10392 E STATE ROAD 246", "addr:postcode": "47858", "addr:state": "IN", "brand": "USPS", "brand:wikidata": "Q668687", "collection_times": "Mo-Fr 11:45; Sa 10:00", "name": "USPS COLLECTION BOX - PO LOBBY", "ref": "4785800002"}, "type": "Feature"}
{"geometry": {"coordinates": [-87.259288419, 39.261698056], "type": "Point"}, "id": "DmOfHWuQAvFMDsJ_xUeohQk2DNk=", "properties": {"@spider": "usps_collection_boxes", "addr:city": "LEWIS", "addr:country": "US", "addr:full": "10392 E STATE ROAD 246", "addr:postcode": "47858", "addr:state": "IN", "brand": "USPS", "brand:wikidata": "Q668687", "collection_times": "Mo-Fr 12:00; Sa 10:00", "name": "USPS COLLECTION BOX - PO LOBBY", "ref": "4785800003"}, "type": "Feature"}
{"geometry": {"coordinates": [-87.187112948, 39.847480492], "type": "Point"}, "id": "f6EVSQUh-X4dl8UFAiHslPx9Pb4=", "properties": {"@spider": "usps_collection_boxes", "addr:city": "MARSHALL", "addr:country": "US", "addr:full": "61 E GUION ST", "addr:postcode": "47859", "addr:state": "IN", "brand": "USPS", "brand:wikidata": "Q668687", "collection_times": "Mo-Fr 15:45; Sa 11:00", "name": "USPS COLLECTION BOX - BLUE BOX", "note": "ON 12/24 AND 12/31, THIS BOX MAY BE COLLECTED AS EARLY AS 12 NOON.", "ref": "4785900001"}, "type": "Feature"}
{"geometry": {"coordinates": [-87.187112948, 39.847480492], "type": "Point"}, "id": "kgL6rBQ42im0I7ewnhK8Xfk4tIQ=", "properties": {"@spider": "usps_collection_boxes", "addr:city": "MARSHALL", "addr:country": "US", "addr:full": "61 E GUION ST", "addr:postcode": "47859", "addr:state": "IN", "brand": "USPS", "brand:wikidata": "Q668687", "collection_times": "Mo-Fr 15:45; Sa 11:00", "name": "USPS COLLECTION BOX - PO LOBBY", "note": "ON 12/24 AND 12/31, THIS BOX MAY BE COLLECTED AS EARLY AS 12 NOON.", "ref": "4785900004"}, "type": "Feature"}
{"geometry": {"coordinates": [-87.187112948, 39.847480492], "type": "Point"}, "id": "X9LU8XflzviZi4flh7A8FKP0HIU=", "properties": {"@spider": "usps_collection_boxes", "addr:city": "MARSHALL", "addr:country": "US", "addr:full": "61 E GUION ST", "addr:postcode": "47859", "addr:state": "IN", "brand": "USPS", "brand:wikidata": "Q668687", "collection_times": "Mo-Fr 15:45; Sa 11:00", "name": "USPS COLLECTION BOX - PO LOBBY", "note": "ON 12/24 AND 12/31, THIS BOX MAY BE COLLECTED AS EARLY AS 12 NOON.", "ref": "4785900005"}, "type": "Feature"}
{"geometry": {"coordinates": [-87.567288876, 39.05595], "type": "Point"}, "id": "5b9MHPz6O046qblZ1FPTksi6L2k=", "properties": {"@spider": "usps_collection_boxes", "addr:city": "MEROM", "addr:country": "US", "addr:full": "2066 S 3RD ST", "addr:postcode": "47861", "addr:state": "IN", "brand": "USPS", "brand:wikidata": "Q668687", "collection_times": "Mo-Fr 15:45; Sa 10:30", "name": "USPS COLLECTION BOX - BLUE BOX", "note": "ON 12/24 AND 12/31, THIS BOX MAY BE COLLECTED AS EARLY AS 12 NOON.", "ref": "4786100001"}, "type": "Feature"}
{"geometry": {"coordinates": [-87.567288876, 39.05595], "type": "Point"}, "id": "LdpdKolCsnwcYAnom-HtCcP-ANA=", "properties": {"@spider": "usps_collection_boxes", "addr:city": "MEROM", "addr:country": "US", "addr:full": "2066 S 3RD ST", "addr:postcode": "47861", "addr:state": "IN", "brand": "USPS", "brand:wikidata": "Q668687", "collection_times": "Mo-Fr 11:45; Sa 10:00", "name": "USPS COLLECTION BOX - PO LOBBY", "ref": "4786100002"}, "type": "Feature"}
{"geometry": {"coordinates": [-87.567288876, 39.05595], "type": "Point"}, "id": "VJybyL3fAhFwBDX8_vhHAVp2oCc=", "properties": {"@spider": "usps_collection_boxes", "addr:city": "MEROM", "addr:country": "US", "addr:full": "2066 S 3RD ST", "addr:postcode": "47861", "addr:state": "IN", "brand": "USPS", "brand:wikidata": "Q668687", "collection_times": "Mo-Fr 12:00; Sa 10:30", "name": "USPS COLLECTION BOX - PO LOBBY", "ref": "4786100003"}, "type": "Feature"}
{"geometry": {"coordinates": [-87.372356901, 39.793655357], "type": "Point"}, "id": "t8h5xHfXqmgHrl_QMI6dwBE2wR0=", "properties": {"@spider": "usps_collection_boxes", "addr:city": "MONTEZUMA", "addr:country": "US", "addr:full": "982 N WASHINGTON ST", "addr:postcode": "47862", "addr:state": "IN", "brand": "USPS", "brand:wikidata": "Q668687", "collection_times": "Mo-Fr 16:00; Sa 11:30", "name": "USPS COLLECTION BOX - BLUE BOX", "note": "ON 12/24 AND 12/31, THIS BOX MAY BE COLLECTED AS EARLY AS 12 NOON.", "ref": "4786200001"}, "type": "Feature"}
{"geometry": {"coordinates": [-87.372356901, 39.793655357], "type": "Point"}, "id": "XxF2wKU04JgNOhqNBksSHcCQXvQ=", "properties": {"@spider": "usps_collection_boxes", "addr:city": "MONTEZUMA", "addr:country": "US", "addr:full": "982 N WASHINGTON ST", "addr:postcode": "47862", "addr:state": "IN", "brand": "USPS", "brand:wikidata": "Q668687", "collection_times": "Mo-Fr 15:00; Sa 11:30", "name": "USPS COLLECTION BOX - PO LOBBY", "note": "ON 12/24 AND 12/31, THIS BOX MAY BE COLLECTED AS EARLY AS 12 NOON.", "ref": "4786200002"}, "type": "Feature"}
{"geometry": {"coordinates": [-87.372356901, 39.793655357], "type": "Point"}, "id": "SiKVGZgedQs3VX4xUr_yo6fu2M4=", "properties": {"@spider": "usps_collection_boxes", "addr:city": "MONTEZUMA", "addr:country": "US", "addr:full": "982 N WASHINGTON ST", "addr:postcode": "47862", "addr:state": "IN", "brand": "USPS", "brand:wikidata": "Q668687", "collection_times": "Mo-Fr 15:00; Sa 11:30", "name": "USPS COLLECTION BOX - PO LOBBY", "note": "ON 12/24 AND 12/31, THIS BOX MAY BE COLLECTED AS EARLY AS 12 NOON.", "ref": "4786200003"}, "type": "Feature"}
{"geometry": {"coordinates": [-87.462237778, 39.581104096], "type": "Point"}, "id": "ZGomDz9cTNTPNrxS9uvG0Z5uFd8=", "properties": {"@spider": "usps_collection_boxes", "addr:city": "NEW GOSHEN", "addr:country": "US", "addr:full": "2785 DURKEES FERRY RD", "addr:postcode": "47863", "addr:state": "IN", "brand": "USPS", "brand:wikidata": "Q668687", "collection_times": "Mo-Fr 16:30; Sa 10:45", "name": "USPS COLLECTION BOX - BLUE BOX", "note": "ON 12/24 AND 12/31, THIS BOX MAY BE COLLECTED AS EARLY AS 12 NOON.", "ref": "4786300001"}, "type": "Feature"}
{"geometry": {"coordinates": [-87.462237778, 39.581104096], "type": "Point"}, "id": "1b_-rrGAEyq8omV0ylzI4qn_Jj0=", "properties": {"@spider": "usps_collection_boxes", "addr:city": "NEW GOSHEN", "addr:country": "US", "addr:full": "2785 DURKEES FERRY RD", "addr:postcode": "47863", "addr:state": "IN", "brand": "USPS", "brand:wikidata": "Q668687", "collection_times": "Mo-Fr 11:15; Sa 10:45", "name": "USPS COLLECTION BOX - PO LOBBY", "ref": "4786300002"}, "type": "Feature"}
{"geometry": {"coordinates": [-87.462237778, 39.581104096], "type": "Point"}, "id": "fVOjMK2gX8HKwIOCE35a3wom5bE=", "properties": {"@spider": "usps_collection_boxes", "addr:city": "NEW GOSHEN", "addr:country": "US", "addr:full": "2785 DURKEES FERRY RD", "addr:postcode": "47863", "addr:state": "IN", "brand": "USPS", "brand:wikidata": "Q668687", "collection_times": "Mo-Fr 11:30; Sa 11:00", "name": "USPS COLLECTION BOX - PO LOBBY", "ref": "4786300003"}, "type": "Feature"}
{"geometry": {"coordinates": [-87.380855392, 39.310173512], "type": "Point"}, "id": "ETX1_24Ls4Ga7gW8FE_AQajLrKQ=", "properties": {"@spider": "usps_collection_boxes", "addr:city": "PIMENTO", "addr:country": "US", "addr:full": "2378 E COTTOM DR", "addr:postcode": "47866", "addr:state": "IN", "brand": "USPS", "brand:wikidata": "Q668687", "collection_times": "Mo-Fr 13:15; Sa 11:45", "name": "USPS COLLECTION BOX - BLUE BOX", "note": "ON 12/24 AND 12/31, THIS BOX MAY BE COLLECTED AS EARLY AS 12 NOON.", "ref": "4786600001"}, "type": "Feature"}
{"geometry": {"coordinates": [-87.380855392, 39.310173512], "type": "Point"}, "id": "QuDexJwiFrESVvD4iWSuNrP2X6s=", "properties": {"@spider": "usps_collection_boxes", "addr:city": "PIMENTO", "addr:country": "US", "addr:full": "2378 E COTTOM DR", "addr:postcode": "47866", "addr:state": "IN", "brand": "USPS", "brand:wikidata": "Q668687", "collection_times": "Mo-Sa 11:45", "name": "USPS COLLECTION BOX - PO LOBBY", "ref": "4786600002"}, "type": "Feature"}
{"geometry": {"coordinates": [-87.380855392, 39.310173512], "type": "Point"}, "id": "uV9-ITp6u5jzHMOpxgQuBk9f1xc=", "properties": {"@spider": "usps_collection_boxes", "addr:city": "PIMENTO", "addr:country": "US", "addr:full": "2378 E COTTOM DR", "addr:postcode": "47866", "addr:state": "IN", "brand": "USPS", "brand:wikidata": "Q668687", "collection_times": "Mo-Sa 12:00", "name": "USPS COLLECTION BOX - PO LOBBY", "ref": "4786600003"}, "type": "Feature"}
{"geometry": {"coordinates": [-86.8608709, 39.438004], "type": "Point"}, "id": "vRj98V-GjtGHZDWa74CKzLCrNrQ=", "properties": {"@spider": "usps_collection_boxes", "addr:city": "POLAND", "addr:country": "US", "addr:full": "10135 TEN HIGH DR", "addr:postcode": "47868", "addr:state": "IN", "brand": "USPS", "brand:wikidata": "Q668687", "collection_times": "Mo-Sa 10:30", "name": "USPS COLLECTION BOX - BLUE BOX", "ref": "4786800002"}, "type": "Feature"}
{"geometry": {"coordinates": [-86.951232587, 39.444037492], "type": "Point"}, "id": "jXHXjZFwuTHJiNElvakTzXvTKEg=", "properties": {"@spider": "usps_collection_boxes", "addr:city": "POLAND", "addr:country": "US", "addr:full": "8460 E STATE ROAD 42", "addr:postcode": "47868", "addr:state": "IN", "brand": "USPS", "brand:wikidata": "Q668687", "collection_times": "Mo-Fr 15:00; Sa 11:15", "name": "USPS COLLECTION BOX - PO LOBBY", "note": "ON 12/24 AND 12/31, THIS BOX MAY BE COLLECTED AS EARLY AS 12 NOON.", "ref": "4786800003"}, "type": "Feature"}
{"geometry": {"coordinates": [-86.951232587, 39.444037492], "type": "Point"}, "id": "_KWw2aQQUpvJUbJ-U_39xbFuqfs=", "properties": {"@spider": "usps_collection_boxes", "addr:city": "POLAND", "addr:country": "US", "addr:full": "8460 E STATE ROAD 42", "addr:postcode": "47868", "addr:state": "IN", "brand": "USPS", "brand:wikidata": "Q668687", "collection_times": "Mo-Fr 15:00; Sa 11:00", "name": "USPS COLLECTION BOX - PO LOBBY", "note": "ON 12/24 AND 12/31, THIS BOX MAY BE COLLECTED AS EARLY AS 12 NOON.", "ref": "4786800004"}, "type": "Feature"}
{"geometry": {"coordinates": [-87.497886456, 39.273795419], "type": "Point"}, "id": "sw1Z56-nhYa0kOMht5MYoans9T4=", "properties": {"@spider": "usps_collection_boxes", "addr:city": "PRAIRIE CREEK", "addr:country": "US", "addr:full": "15907 STATE ROAD 63", "addr:postcode": "47869", "addr:state": "IN", "brand": "USPS", "brand:wikidata": "Q668687", "collection_times": "Mo-Fr 16:00; Sa 10:30", "name": "USPS COLLECTION BOX - BLUE BOX", "note": "ON 12/24 AND 12/31, THIS BOX MAY BE COLLECTED AS EARLY AS 12 NOON.", "ref": "4786900000"}, "type": "Feature"}
{"geometry": {"coordinates": [-87.497886456, 39.273795419], "type": "Point"}, "id": "uK1rgjwUISZEJpdW-MjeR39cDkE=", "properties": {"@spider": "usps_collection_boxes", "addr:city": "PRAIRIE CREEK", "addr:country": "US", "addr:full": "15907 STATE ROAD 63", "addr:postcode": "47869", "addr:state": "IN", "brand": "USPS", "brand:wikidata": "Q668687", "collection_times": "Mo-Fr 11:45; Sa 10:30", "name": "USPS COLLECTION BOX - PO LOBBY", "ref": "4786900001"}, "type": "Feature"}
{"geometry": {"coordinates": [-87.497886456, 39.273795419], "type": "Point"}, "id": "WQAN8fEUyYCB8yB_Adou5ozHAAQ=", "properties": {"@spider": "usps_collection_boxes", "addr:city": "PRAIRIE CREEK", "addr:country": "US", "addr:full": "15907 STATE ROAD 63", "addr:postcode": "47869", "addr:state": "IN", "brand": "USPS", "brand:wikidata": "Q668687", "collection_times": "Mo-Fr 12:00; Sa 10:30", "name": "USPS COLLECTION BOX - PO LOBBY", "ref": "4786900002"}, "type": "Feature"}
{"geometry": {"coordinates": [-87.47453, 39.36964], "type": "Point"}, "id": "buTP_PrspL0NKaIAe71EuehgSfo=", "properties": {"@spider": "usps_collection_boxes", "addr:city": "PRAIRIETON", "addr:country": "US", "addr:full": "3645 MURPHY RD", "addr:postcode": "47870", "addr:state": "IN", "brand": "USPS", "brand:wikidata": "Q668687", "collection_times": "Mo-Fr 16:15; Sa 10:45", "name": "USPS COLLECTION BOX - BLUE BOX", "note": "ON 12/24 AND 12/31, THIS BOX MAY BE COLLECTED AS EARLY AS 12 NOON.", "ref": "4787000001"}, "type": "Feature"}
{"geometry": {"coordinates": [-87.473613856, 39.369762309], "type": "Point"}, "id": "ch3GpY1kFFvZ12_8NjA9AcCHGMg=", "properties": {"@spider": "usps_collection_boxes", "addr:city": "PRAIRIETON", "addr:country": "US", "addr:full": "3645 MURPHY RD", "addr:postcode": "47870", "addr:state": "IN", "brand": "USPS", "brand:wikidata": "Q668687", "collection_times": "Mo-Fr 11:15; Sa 10:45", "name": "USPS COLLECTION BOX - PO LOBBY", "ref": "4787000002"}, "type": "Feature"}
{"geometry": {"coordinates": [-87.473613856, 39.369762309], "type": "Point"}, "id": "Sd2fzmdWLZQcpo0mtlF6eDTIrQY=", "properties": {"@spider": "usps_collection_boxes", "addr:city": "PRAIRIETON", "addr:country": "US", "addr:full": "3645 MURPHY RD", "addr:postcode": "47870", "addr:state": "IN", "brand": "USPS", "brand:wikidata": "Q668687", "collection_times": "Mo-Fr 11:30; Sa 11:00", "name": "USPS COLLECTION BOX - PO LOBBY", "ref": "4787000003"}, "type": "Feature"}
{"geometry": {"coordinates": [-87.296822749, 39.390286493], "type": "Point"}, "id": "w_ejJ4-n_HErqFq3ULuzr7uzrjo=", "properties": {"@spider": "usps_collection_boxes", "addr:city": "RILEY", "addr:country": "US", "addr:full": "7800 STATE ROAD 46 E", "addr:postcode": "47871", "addr:state": "IN", "brand": "USPS", "brand:wikidata": "Q668687", "collection_times": "Mo-Fr 16:15; Sa 10:15", "name": "USPS COLLECTION BOX - BLUE BOX", "note": "ON 12/24 AND 12/31, THIS BOX MAY BE COLLECTED AS EARLY AS 12 NOON.", "ref": "4787100001"}, "type": "Feature"}
{"geometry": {"coordinates": [-87.2974994724, 39.390263896], "type": "Point"}, "id": "jlou6LeItRpY_7Jq6i7625rxmqg=", "properties": {"@spider": "usps_collection_boxes", "addr:city": "RILEY", "addr:country": "US", "addr:full": "7800 STATE ROAD 46 E", "addr:postcode": "47871", "addr:state": "IN", "brand": "USPS", "brand:wikidata": "Q668687", "collection_times": "Mo-Fr 16:15; Sa 10:15", "name": "USPS COLLECTION BOX - PO LOBBY", "note": "ON 12/24 AND 12/31, THIS BOX MAY BE COLLECTED AS EARLY AS 12 NOON.", "ref": "4787100002"}, "type": "Feature"}
{"geometry": {"coordinates": [-87.296822749, 39.390286493], "type": "Point"}, "id": "9CVMSlR5SR0IGlA3apR3agIPLDo=", "properties": {"@spider": "usps_collection_boxes", "addr:city": "RILEY", "addr:country": "US", "addr:full": "7800 STATE ROAD 46 E", "addr:postcode": "47871", "addr:state": "IN", "brand": "USPS", "brand:wikidata": "Q668687", "collection_times": "Mo-Fr 16:30; Sa 10:00", "name": "USPS COLLECTION BOX - PO LOBBY", "note": "ON 12/24 AND 12/31, THIS BOX MAY BE COLLECTED AS EARLY AS 12 NOON.", "ref": "4787100003"}, "type": "Feature"}
{"geometry": {"coordinates": [-87.22913723, 39.762702], "type": "Point"}, "id": "TBjdp9Z-dKuzDDKOCHnIhj6usac=", "properties": {"@spider": "usps_collection_boxes", "addr:city": "ROCKVILLE", "addr:country": "US", "addr:full": "102 N MARKET ST", "addr:postcode": "47872", "addr:state": "IN", "brand": "USPS", "brand:wikidata": "Q668687", "collection_times": "Mo-Fr 16:45; Sa 16:15", "name": "USPS COLLECTION BOX - BLUE BOX", "note": "ON 12/24 AND 12/31, THIS BOX MAY BE COLLECTED AS EARLY AS 12 NOON.", "ref": "4787200001"}, "type": "Feature"}
{"geometry": {"coordinates": [-87.22913723, 39.762702], "type": "Point"}, "id": "h6ILJfW5NvdskLZhjcXaz4gI0EQ=", "properties": {"@spider": "usps_collection_boxes", "addr:city": "ROCKVILLE", "addr:country": "US", "addr:full": "102 N MARKET ST", "addr:postcode": "47872", "addr:state": "IN", "brand": "USPS", "brand:wikidata": "Q668687", "collection_times": "Mo-Fr 16:45; Sa 16:15", "name": "USPS COLLECTION BOX - BLUE BOX", "note": "ON 12/24 AND 12/31, THIS BOX MAY BE COLLECTED AS EARLY AS 12 NOON.", "ref": "4787200004"}, "type": "Feature"}
{"geometry": {"coordinates": [-87.22913723, 39.762702], "type": "Point"}, "id": "LhtTvg2c29bo2EaUGpzoowv48QE=", "properties": {"@spider": "usps_collection_boxes", "addr:city": "ROCKVILLE", "addr:country": "US", "addr:full": "102 N MARKET ST", "addr:postcode": "47872", "addr:state": "IN", "brand": "USPS", "brand:wikidata": "Q668687", "collection_times": "Mo-Fr 16:45; Sa 16:15", "name": "USPS COLLECTION BOX - BLUE BOX", "note": "ON 12/24 AND 12/31, THIS BOX MAY BE COLLECTED AS EARLY AS 12 NOON.", "ref": "4787200005"}, "type": "Feature"}
{"geometry": {"coordinates": [-87.22913723, 39.762702], "type": "Point"}, "id": "JLICeIf4PmTtpjOgCu1pkRL1eH4=", "properties": {"@spider": "usps_collection_boxes", "addr:city": "ROCKVILLE", "addr:country": "US", "addr:full": "102 N MARKET ST", "addr:postcode": "47872", "addr:state": "IN", "brand": "USPS", "brand:wikidata": "Q668687", "collection_times": "Mo-Fr 16:45; Sa 12:00", "name": "USPS COLLECTION BOX - PO LOBBY", "note": "ON 12/24 AND 12/31, THIS BOX MAY BE COLLECTED AS EARLY AS 12 NOON.", "ref": "4787200006"}, "type": "Feature"}
{"geometry": {"coordinates": [-87.22913723, 39.762702], "type": "Point"}, "id": "TOLqQTkXpQrItc886dOX5ho5wR8=", "properties": {"@spider": "usps_collection_boxes", "addr:city": "ROCKVILLE", "addr:country": "US", "addr:full": "102 N MARKET ST", "addr:postcode": "47872", "addr:state": "IN", "brand": "USPS", "brand:wikidata": "Q668687", "collection_times": "Mo-Fr 17:00; Sa 12:00", "name": "USPS COLLECTION BOX - PO LOBBY", "note": "ON 12/24 AND 12/31, THIS BOX MAY BE COLLECTED AS EARLY AS 12 NOON.", "ref": "4787200010"}, "type": "Feature"}
{"geometry": {"coordinates": [-87.28310643, 39.623189029], "type": "Point"}, "id": "Tz1ASk4ZwzjkyaziHumBZjQOruY=", "properties": {"@spider": "usps_collection_boxes", "addr:city": "ROSEDALE", "addr:country": "US", "addr:full": "55 N MAIN ST", "addr:postcode": "47874", "addr:state": "IN", "brand": "USPS", "brand:wikidata": "Q668687", "collection_times": "Mo-Fr 15:45; Sa 10:45", "name": "USPS COLLECTION BOX - BLUE BOX", "note": "ON 12/24 AND 12/31, THIS BOX MAY BE COLLECTED AS EARLY AS 12 NOON.", "ref": "4787400001"}, "type": "Feature"}
{"geometry": {"coordinates": [-87.28310643, 39.623189029], "type": "Point"}, "id": "ogPnJCYFx18H4nyLMvgK-s-3AbA=", "properties": {"@spider": "usps_collection_boxes", "addr:city": "ROSEDALE", "addr:country": "US", "addr:full": "55 N MAIN ST", "addr:postcode": "47874", "addr:state": "IN", "brand": "USPS", "brand:wikidata": "Q668687", "collection_times": "Mo-Fr 15:45; Sa 10:45", "name": "USPS COLLECTION BOX - PO LOBBY", "note": "ON 12/24 AND 12/31, THIS BOX MAY BE COLLECTED AS EARLY AS 12 NOON.", "ref": "4787400002"}, "type": "Feature"}
{"geometry": {"coordinates": [-87.28310643, 39.623189029], "type": "Point"}, "id": "_8UlGbo6By47jhPexxa8RM42odg=", "properties": {"@spider": "usps_collection_boxes", "addr:city": "ROSEDALE", "addr:country": "US", "addr:full": "55 N MAIN ST", "addr:postcode": "47874", "addr:state": "IN", "brand": "USPS", "brand:wikidata": "Q668687", "collection_times": "Mo-Fr 16:00; Sa 11:00", "name": "USPS COLLECTION BOX - PO LOBBY", "note": "ON 12/24 AND 12/31, THIS BOX MAY BE COLLECTED AS EARLY AS 12 NOON.", "ref": "4787400004"}, "type": "Feature"}
{"geometry": {"coordinates": [-87.5219030248, 39.7149449912], "type": "Point"}, "id": "wQ8UIsQftrBfJAYyViSFH6j1Dh0=", "properties": {"@spider": "usps_collection_boxes", "addr:city": "SAINT BERNICE", "addr:country": "US", "addr:full": "3039 W BROADWAY ST", "addr:postcode": "47875", "addr:state": "IN", "brand": "USPS", "brand:wikidata": "Q668687", "collection_times": "Mo-Fr 16:30; Sa 11:00", "name": "USPS COLLECTION BOX - PO LOBBY", "note": "ON 12/24 AND 12/31, THIS BOX MAY BE COLLECTED AS EARLY AS 12 NOON.", "ref": "4787500001"}, "type": "Feature"}
{"geometry": {"coordinates": [-87.5219030248, 39.7149449912], "type": "Point"}, "id": "vsBBH2qOArOqKbq9LWXosqX0r88=", "properties": {"@spider": "usps_collection_boxes", "addr:city": "SAINT BERNICE", "addr:country": "US", "addr:full": "3039 W BROADWAY ST", "addr:postcode": "47875", "addr:state": "IN", "brand": "USPS", "brand:wikidata": "Q668687", "collection_times": "Mo-Fr 16:30; Sa 11:00", "name": "USPS COLLECTION BOX - BLUE BOX", "note": "ON 12/24 AND 12/31, THIS BOX MAY BE COLLECTED AS EARLY AS 12 NOON.", "ref": "4787500002"}, "type": "Feature"}
{"geometry": {"coordinates": [-87.5219030248, 39.7149449912], "type": "Point"}, "id": "F2pY_5wzkX0MdtRdg8k3U6PV5MM=", "properties": {"@spider": "usps_collection_boxes", "addr:city": "SAINT BERNICE", "addr:country": "US", "addr:full": "3039 W BROADWAY ST", "addr:postcode": "47875", "addr:state": "IN", "brand": "USPS", "brand:wikidata": "Q668687", "collection_times": "Mo-Fr 16:45; Sa 11:00", "name": "USPS COLLECTION BOX - PO LOBBY", "note": "ON 12/24 AND 12/31, THIS BOX MAY BE COLLECTED AS EARLY AS 12 NOON.", "ref": "4787500004"}, "type": "Feature"}
{"geometry": {"coordinates": [-87.467866424, 39.51140129], "type": "Point"}, "id": "s7Y06LddpSb-5_VLD8g0RzJUqqo=", "properties": {"@spider": "usps_collection_boxes", "addr:city": "ST MARY OF WD", "addr:country": "US", "addr:full": "3678 N ARMS PL", "addr:postcode": "47876", "addr:state": "IN", "brand": "USPS", "brand:wikidata": "Q668687", "collection_times": "Mo-Fr 16:00; Sa 10:00", "name": "USPS COLLECTION BOX - BLUE BOX", "note": "ON 12/24 AND 12/31, THIS BOX MAY BE COLLECTED AS EARLY AS 12 NOON.", "ref": "4787600000"}, "type": "Feature"}
{"geometry": {"coordinates": [-87.467866424, 39.51140129], "type": "Point"}, "id": "u0Y91IRXV5cWfK_TJdHtxtmKeEI=", "properties": {"@spider": "usps_collection_boxes", "addr:city": "ST MARY OF WD", "addr:country": "US", "addr:full": "3678 N ARMS PL", "addr:postcode": "47876", "addr:state": "IN", "brand": "USPS", "brand:wikidata": "Q668687", "collection_times": "Mo-Fr 16:00; Sa 10:00", "name": "USPS COLLECTION BOX - PO LOBBY", "note": "ON 12/24 AND 12/31, THIS BOX MAY BE COLLECTED AS EARLY AS 12 NOON.", "ref": "4787600001"}, "type": "Feature"}
{"geometry": {"coordinates": [-87.467866424, 39.51140129], "type": "Point"}, "id": "76P30EQMo4QEtBGxkNqVrog9AYQ=", "properties": {"@spider": "usps_collection_boxes", "addr:city": "ST MARY OF WD", "addr:country": "US", "addr:full": "3678 N ARMS PL", "addr:postcode": "47876", "addr:state": "IN", "brand": "USPS", "brand:wikidata": "Q668687", "collection_times": "Mo-Fr 16:30; Sa 10:00", "name": "USPS COLLECTION BOX - PO LOBBY", "note": "ON 12/24 AND 12/31, THIS BOX MAY BE COLLECTED AS EARLY AS 12 NOON.", "ref": "4787600002"}, "type": "Feature"}
{"geometry": {"coordinates": [-87.269646378, 39.493769111], "type": "Point"}, "id": "hu2uLHrVALO6Z94mHegQ6SDzPCU=", "properties": {"@spider": "usps_collection_boxes", "addr:city": "SEELYVILLE", "addr:country": "US", "addr:full": "9538 E US HIGHWAY 40", "addr:postcode": "47878", "addr:state": "IN", "brand": "USPS", "brand:wikidata": "Q668687", "collection_times": "Mo-Fr 14:45; Sa 11:00", "name": "USPS COLLECTION BOX - PO LOBBY", "note": "ON 12/24 AND 12/31, THIS BOX MAY BE COLLECTED AS EARLY AS 12 NOON.", "ref": "4787800001"}, "type": "Feature"}
{"geometry": {"coordinates": [-87.269646378, 39.493769111], "type": "Point"}, "id": "8qzRqK3xSYOLLvsJp913igt6ajk=", "properties": {"@spider": "usps_collection_boxes", "addr:city": "SEELYVILLE", "addr:country": "US", "addr:full": "9538 E US HIGHWAY 40", "addr:postcode": "47878", "addr:state": "IN", "brand": "USPS", "brand:wikidata": "Q668687", "collection_times": "Mo-Fr 16:00; Sa 11:00", "name": "USPS COLLECTION BOX - BLUE BOX", "note": "ON 12/24 AND 12/31, THIS BOX MAY BE COLLECTED AS EARLY AS 12 NOON.", "ref": "4787800002"}, "type": "Feature"}
{"geometry": {"coordinates": [-87.269646378, 39.493769111], "type": "Point"}, "id": "VT-qEJdGgXvOwIDy7LC804o-Pzk=", "properties": {"@spider": "usps_collection_boxes", "addr:city": "SEELYVILLE", "addr:country": "US", "addr:full": "9538 E US HIGHWAY 40", "addr:postcode": "47878", "addr:state": "IN", "brand": "USPS", "brand:wikidata": "Q668687", "collection_times": "Mo-Fr 15:00; Sa 11:00", "name": "USPS COLLECTION BOX - PO LOBBY", "note": "ON 12/24 AND 12/31, THIS BOX MAY BE COLLECTED AS EARLY AS 12 NOON.", "ref": "4787800003"}, "type": "Feature"}
{"geometry": {"coordinates": [-87.393520541, 39.178273904], "type": "Point"}, "id": "HDydP5ehHKV01RrgRSKzeM7s_J4=", "properties": {"@spider": "usps_collection_boxes", "addr:city": "SHELBURN", "addr:country": "US", "addr:full": "13 N RAILROAD ST", "addr:postcode": "47879", "addr:state": "IN", "brand": "USPS", "brand:wikidata": "Q668687", "collection_times": "Mo-Fr 14:30; Sa 10:30", "name": "USPS COLLECTION BOX - PO LOBBY", "note": "ON 12/24 AND 12/31, THIS BOX MAY BE COLLECTED AS EARLY AS 12 NOON.", "ref": "4787900001"}, "type": "Feature"}
{"geometry": {"coordinates": [-87.393520541, 39.178273904], "type": "Point"}, "id": "rD3v5IUsajvX-0nv2fjz2KUfufQ=", "properties": {"@spider": "usps_collection_boxes", "addr:city": "SHELBURN", "addr:country": "US", "addr:full": "13 N RAILROAD ST", "addr:postcode": "47879", "addr:state": "IN", "brand": "USPS", "brand:wikidata": "Q668687", "collection_times": "Mo-Fr 16:00; Sa 10:30", "name": "USPS COLLECTION BOX - BLUE BOX", "note": "ON 12/24 AND 12/31, THIS BOX MAY BE COLLECTED AS EARLY AS 12 NOON.", "ref": "4787900002"}, "type": "Feature"}
{"geometry": {"coordinates": [-87.3994839878, 39.1860639999], "type": "Point"}, "id": "YdN5WHNW3eJ_0UyHkb6ki_54F7g=", "properties": {"@spider": "usps_collection_boxes", "addr:city": "SHELBURN", "addr:country": "US", "addr:full": "6959 N US HIGHWAY 41", "addr:postcode": "47879", "addr:state": "IN", "brand": "USPS", "brand:wikidata": "Q668687", "collection_times": "Mo-Sa 11:30", "name": "USPS COLLECTION BOX - BLUE BOX", "ref": "4787900003"}, "type": "Feature"}
{"geometry": {"coordinates": [-87.393520541, 39.178273904], "type": "Point"}, "id": "PtqeHQo_7R2k2k1-zqAvXL01I0c=", "properties": {"@spider": "usps_collection_boxes", "addr:city": "SHELBURN", "addr:country": "US", "addr:full": "13 N RAILROAD ST", "addr:postcode": "47879", "addr:state": "IN", "brand": "USPS", "brand:wikidata": "Q668687", "collection_times": "Mo-Fr 14:30; Sa 10:30", "name": "USPS COLLECTION BOX - PO LOBBY", "note": "ON 12/24 AND 12/31, THIS BOX MAY BE COLLECTED AS EARLY AS 12 NOON.", "ref": "4787900004"}, "type": "Feature"}
{"geometry": {"coordinates": [-87.419261834, 39.600595287], "type": "Point"}, "id": "np95jMQSbC2uovywyu55rp6VQbA=", "properties": {"@spider": "usps_collection_boxes", "addr:city": "SHEPARDSVILLE", "addr:country": "US", "addr:full": "90 E TRINITY AVE", "addr:postcode": "47880", "addr:state": "IN", "brand": "USPS", "brand:wikidata": "Q668687", "collection_times": "Mo-Fr 14:30; Sa 10:30", "name": "USPS COLLECTION BOX - BLUE BOX", "note": "ON 12/24 AND 12/31, THIS BOX MAY BE COLLECTED AS EARLY AS 12 NOON.", "ref": "4788000000"}, "type": "Feature"}
{"geometry": {"coordinates": [-87.419261834, 39.600595287], "type": "Point"}, "id": "wvOMmOXB6K47AQ8QLj4KQPGJl1c=", "properties": {"@spider": "usps_collection_boxes", "addr:city": "SHEPARDSVILLE", "addr:country": "US", "addr:full": "90 E TRINITY AVE", "addr:postcode": "47880", "addr:state": "IN", "brand": "USPS", "brand:wikidata": "Q668687", "collection_times": "Mo-Fr 14:30; Sa 10:30", "name": "USPS COLLECTION BOX - PO LOBBY", "note": "ON 12/24 AND 12/31, THIS BOX MAY BE COLLECTED AS EARLY AS 12 NOON.", "ref": "4788000001"}, "type": "Feature"}
{"geometry": {"coordinates": [-87.419261834, 39.600595287], "type": "Point"}, "id": "ridbOdKCvdaFmP7rGJZtE_ms4GM=", "properties": {"@spider": "usps_collection_boxes", "addr:city": "SHEPARDSVILLE", "addr:country": "US", "addr:full": "90 E TRINITY AVE", "addr:postcode": "47880", "addr:state": "IN", "brand": "USPS", "brand:wikidata": "Q668687", "collection_times": "Mo-Fr 14:30; Sa 10:30", "name": "USPS COLLECTION BOX - PO LOBBY", "note": "ON 12/24 AND 12/31, THIS BOX MAY BE COLLECTED AS EARLY AS 12 NOON.", "ref": "4788000002"}, "type": "Feature"}
{"geometry": {"coordinates": [-87.188413081, 39.487530457], "type": "Point"}, "id": "ISurBcYe4X-6NcseSZMPys24158=", "properties": {"@spider": "usps_collection_boxes", "addr:city": "STAUNTON", "addr:country": "US", "addr:full": "103 E COLUMBUS ST", "addr:postcode": "47881", "addr:state": "IN", "brand": "USPS", "brand:wikidata": "Q668687", "collection_times": "Mo-Fr 16:15; Sa 12:45", "name": "USPS COLLECTION BOX - BLUE BOX", "note": "ON 12/24 AND 12/31, THIS BOX MAY BE COLLECTED AS EARLY AS 12 NOON.", "ref": "4788100001"}, "type": "Feature"}
{"geometry": {"coordinates": [-87.188413081, 39.487530457], "type": "Point"}, "id": "l-MyL3KfUWjddXOyMGty8oJF2f0=", "properties": {"@spider": "usps_collection_boxes", "addr:city": "STAUNTON", "addr:country": "US", "addr:full": "103 E COLUMBUS ST", "addr:postcode": "47881", "addr:state": "IN", "brand": "USPS", "brand:wikidata": "Q668687", "collection_times": "Mo-Fr 16:15; Sa 12:45", "name": "USPS COLLECTION BOX - PO LOBBY", "note": "ON 12/24 AND 12/31, THIS BOX MAY BE COLLECTED AS EARLY AS 12 NOON.", "ref": "4788100002"}, "type": "Feature"}
{"geometry": {"coordinates": [-87.1884180266, 39.4876579938], "type": "Point"}, "id": "owFAuvCgbaQrhO94HHAT7hQrFTk=", "properties": {"@spider": "usps_collection_boxes", "addr:city": "STAUNTON", "addr:country": "US", "addr:full": "103 E COLUMBUS ST", "addr:postcode": "47881", "addr:state": "IN", "brand": "USPS", "brand:wikidata": "Q668687", "collection_times": "Mo-Fr 16:15; Sa 13:00", "name": "USPS COLLECTION BOX - PO LOBBY", "note": "ON 12/24 AND 12/31, THIS BOX MAY BE COLLECTED AS EARLY AS 12 NOON.", "ref": "4788100003"}, "type": "Feature"}
{"geometry": {"coordinates": [-87.405570754, 39.095334525], "type": "Point"}, "id": "WvlVAwsxKb-uCX6g4pM74BE1BHA=", "properties": {"@spider": "usps_collection_boxes", "addr:city": "SULLIVAN", "addr:country": "US", "addr:full": "103 E WASHINGTON ST", "addr:postcode": "47882", "addr:state": "IN", "brand": "USPS", "brand:wikidata": "Q668687", "collection_times": "Mo-Sa 16:30", "name": "USPS COLLECTION BOX - BLUE BOX", "note": "ON 12/24 AND 12/31, THIS BOX MAY BE COLLECTED AS EARLY AS 12 NOON.", "ref": "4788200005"}, "type": "Feature"}
{"geometry": {"coordinates": [-87.405570754, 39.095334525], "type": "Point"}, "id": "fW4ilDjc4ArYoyUoSsDgvT7_zJM=", "properties": {"@spider": "usps_collection_boxes", "addr:city": "SULLIVAN", "addr:country": "US", "addr:full": "103 E WASHINGTON ST", "addr:postcode": "47882", "addr:state": "IN", "brand": "USPS", "brand:wikidata": "Q668687", "collection_times": "Mo-Sa 16:30", "name": "USPS COLLECTION BOX - BLUE BOX", "note": "ON 12/24 AND 12/31, THIS BOX MAY BE COLLECTED AS EARLY AS 12 NOON.", "ref": "4788200006"}, "type": "Feature"}
{"geometry": {"coordinates": [-87.4069442, 39.094286], "type": "Point"}, "id": "4p1_4zPxNzHyv1dahj8Iy4bEvjM=", "properties": {"@spider": "usps_collection_boxes", "addr:city": "SULLIVAN", "addr:country": "US", "addr:full": "101 S MAIN ST", "addr:postcode": "47882", "addr:state": "IN", "brand": "USPS", "brand:wikidata": "Q668687", "collection_times": "Mo-Fr 14:30; Sa 12:00", "name": "USPS COLLECTION BOX - BLUE BOX", "note": "ON 12/24 AND 12/31, THIS BOX MAY BE COLLECTED AS EARLY AS 12 NOON.", "ref": "4788200009"}, "type": "Feature"}
{"geometry": {"coordinates": [-87.405570754, 39.095334525], "type": "Point"}, "id": "3PiwE8U7n1RyBvihToggow_f4CQ=", "properties": {"@spider": "usps_collection_boxes", "addr:city": "SULLIVAN", "addr:country": "US", "addr:full": "103 E WASHINGTON ST", "addr:postcode": "47882", "addr:state": "IN", "brand": "USPS", "brand:wikidata": "Q668687", "collection_times": "Mo-Sa 16:30", "name": "USPS COLLECTION BOX - BLUE BOX", "note": "ON 12/24 AND 12/31, THIS BOX MAY BE COLLECTED AS EARLY AS 12 NOON.", "ref": "4788200020"}, "type": "Feature"}
{"geometry": {"coordinates": [-87.4085808, 39.094321], "type": "Point"}, "id": "YV8OkRxReQQjgbYo4oHxgvVMcw4=", "properties": {"@spider": "usps_collection_boxes", "addr:city": "SULLIVAN", "addr:country": "US", "addr:full": "32 S COURT ST", "addr:postcode": "47882", "addr:state": "IN", "brand": "USPS", "brand:wikidata": "Q668687", "collection_times": "Mo-Fr 14:30; Sa 12:00", "name": "USPS COLLECTION BOX - BLUE BOX", "note": "ON 12/24 AND 12/31, THIS BOX MAY BE COLLECTED AS EARLY AS 12 NOON.", "ref": "4788200022"}, "type": "Feature"}
{"geometry": {"coordinates": [-87.405570754, 39.095334525], "type": "Point"}, "id": "21MNCfEouG_MwUf9BmgG6PVUano=", "properties": {"@spider": "usps_collection_boxes", "addr:city": "SULLIVAN", "addr:country": "US", "addr:full": "103 E WASHINGTON ST", "addr:postcode": "47882", "addr:state": "IN", "brand": "USPS", "brand:wikidata": "Q668687", "collection_times": "Mo-Fr 16:30; Sa 12:00", "name": "USPS COLLECTION BOX - PO LOBBY", "note": "ON 12/24 AND 12/31, THIS BOX MAY BE COLLECTED AS EARLY AS 12 NOON.", "ref": "4788200024"}, "type": "Feature"}
{"geometry": {"coordinates": [-87.451945651, 39.622165944], "type": "Point"}, "id": "AH3rwiUM7XjIju74C3Kr30nKlP8=", "properties": {"@spider": "usps_collection_boxes", "addr:city": "UNIVERSAL", "addr:country": "US", "addr:full": "552 E WOOD AVE", "addr:postcode": "47884", "addr:state": "IN", "brand": "USPS", "brand:wikidata": "Q668687", "collection_times": "Mo-Fr 16:00; Sa 10:30", "name": "USPS COLLECTION BOX - BLUE BOX", "note": "ON 12/24 AND 12/31, THIS BOX MAY BE COLLECTED AS EARLY AS 12 NOON.", "ref": "4788400000"}, "type": "Feature"}
{"geometry": {"coordinates": [-87.451945651, 39.622165944], "type": "Point"}, "id": "9qvO_rysqzDhuVDfQNc_aRVkkkU=", "properties": {"@spider": "usps_collection_boxes", "addr:city": "UNIVERSAL", "addr:country": "US", "addr:full": "552 E WOOD AVE", "addr:postcode": "47884", "addr:state": "IN", "brand": "USPS", "brand:wikidata": "Q668687", "collection_times": "Mo-Fr 11:45; Sa 10:30", "name": "USPS COLLECTION BOX - PO LOBBY", "ref": "4788400001"}, "type": "Feature"}
{"geometry": {"coordinates": [-87.451945651, 39.622165944], "type": "Point"}, "id": "CJxo7ZLgNP5ymwuySMb1giZFFqY=", "properties": {"@spider": "usps_collection_boxes", "addr:city": "UNIVERSAL", "addr:country": "US", "addr:full": "552 E WOOD AVE", "addr:postcode": "47884", "addr:state": "IN", "brand": "USPS", "brand:wikidata": "Q668687", "collection_times": "Mo-Fr 12:00; Sa 10:45", "name": "USPS COLLECTION BOX - PO LOBBY", "ref": "4788400002"}, "type": "Feature"}
{"geometry": {"coordinates": [-87.446211, 39.465426], "type": "Point"}, "id": "m6_ncKrzkdMo6ZMBBmGhdXBgcRE=", "properties": {"@spider": "usps_collection_boxes", "addr:city": "W TERRE HAUTE", "addr:country": "US", "addr:full": "29 S 3RD ST", "addr:postcode": "47885", "addr:state": "IN", "brand": "USPS", "brand:wikidata": "Q668687", "collection_times": "Mo-Fr 17:00; Sa 16:00", "name": "USPS COLLECTION BOX - BLUE BOX", "note": "ON 12/24 AND 12/31, THIS BOX MAY BE COLLECTED AS EARLY AS 12 NOON.", "ref": "4788500001"}, "type": "Feature"}
{"geometry": {"coordinates": [-87.446211, 39.465426], "type": "Point"}, "id": "IujzGoSwXP1-aH-lA7-VHYcbbQU=", "properties": {"@spider": "usps_collection_boxes", "addr:city": "W TERRE HAUTE", "addr:country": "US", "addr:full": "29 S 3RD ST", "addr:postcode": "47885", "addr:state": "IN", "brand": "USPS", "brand:wikidata": "Q668687", "collection_times": "Mo-Fr 16:00; Sa 10:00", "name": "USPS COLLECTION BOX - PO LOBBY", "note": "ON 12/24 AND 12/31, THIS BOX MAY BE COLLECTED AS EARLY AS 12 NOON.", "ref": "4788500003"}, "type": "Feature"}
{"geometry": {"coordinates": [-87.446210844, 39.4654180763], "type": "Point"}, "id": "4JuInIbNm1ciu_wdJ3AYTluj-U4=", "properties": {"@spider": "usps_collection_boxes", "addr:city": "W TERRE HAUTE", "addr:country": "US", "addr:full": "29 S 3RD ST", "addr:postcode": "47885", "addr:state": "IN", "brand": "USPS", "brand:wikidata": "Q668687", "collection_times": "Mo-Fr 16:00; Sa 12:00", "name": "USPS COLLECTION BOX - PO LOBBY", "note": "ON 12/24 AND 12/31, THIS BOX MAY BE COLLECTED AS EARLY AS 12 NOON.", "ref": "4788500004"}, "type": "Feature"}
