{"geometry": {"coordinates": [-86.890655072, 40.417496665], "type": "Point"}, "id": "kMil1UYSCjBQh6ZVkOvH-ee8hSM=", "properties": {"@source_uri": "https://tools.usps.com/UspsToolsRestServices/rest/POLocator/findLocations", "@spider": "usps_collection_boxes", "addr:city": "LAFAYETTE", "addr:country": "US", "addr:postcode": "47901", "addr:state": "IN", "addr:street_address": "20 N 6TH ST", "amenity": "post_box", "collection_times": "Mo-Sa 14:00", "note": "ON 12/24 AND 12/31, THIS BOX MAY BE COLLECTED AS EARLY AS 12 NOON.", "nsi_id": "unitedstatespostalservice-a77078", "operator": "United States Postal Service", "operator:short": "USPS", "operator:type": "public", "operator:wikidata": "Q668687", "ref": "4790100018"}, "type": "Feature"}
{"geometry": {"coordinates": [-86.8942107, 40.419714], "type": "Point"}, "id": "5iR-cP5GguZ7kmBu1feF9HcJ2Co=", "properties": {"@source_uri": "https://tools.usps.com/UspsToolsRestServices/rest/POLocator/findLocations", "@spider": "usps_collection_boxes", "addr:city": "LAFAYETTE", "addr:country": "US", "addr:postcode": "47901", "addr:state": "IN", "addr:street_address": "231 N 3RD ST", "amenity": "post_box", "collection_times": "Mo-Fr 16:45; Sa 14:30", "note": "ON 12/24 AND 12/31, THIS BOX MAY BE COLLECTED AS EARLY AS 12 NOON.", "nsi_id": "unitedstatespostalservice-a77078", "operator": "United States Postal Service", "operator:short": "USPS", "operator:type": "public", "operator:wikidata": "Q668687", "ref": "4790100055"}, "type": "Feature"}
{"geometry": {"coordinates": [-86.8873565, 40.419147], "type": "Point"}, "id": "oSbH6Zvbvx5m2ECHw9H9HJtigXU=", "properties": {"@source_uri": "https://tools.usps.com/UspsToolsRestServices/rest/POLocator/findLocations", "@spider": "usps_collection_boxes", "addr:city": "LAFAYETTE", "addr:country": "US", "addr:postcode": "47901", "addr:state": "IN", "addr:street_address": "834 MAIN ST", "amenity": "post_box", "collection_times": "Mo-Sa 14:00", "note": "ON 12/24 AND 12/31, THIS BOX MAY BE COLLECTED AS EARLY AS 12 NOON.", "nsi_id": "unitedstatespostalservice-a77078", "operator": "United States Postal Service", "operator:short": "USPS", "operator:type": "public", "operator:wikidata": "Q668687", "ref": "4790100059"}, "type": "Feature"}
{"geometry": {"coordinates": [-86.8931973, 40.419912], "type": "Point"}, "id": "xyXGqKqeMUEYONCSP1MTzdO30xY=", "properties": {"@source_uri": "https://tools.usps.com/UspsToolsRestServices/rest/POLocator/findLocations", "@spider": "usps_collection_boxes", "addr:city": "LAFAYETTE", "addr:country": "US", "addr:postcode": "47901", "addr:state": "IN", "addr:street_address": "230 N 4TH ST", "amenity": "post_box", "collection_times": "Mo-Fr 16:45; Sa 14:30", "note": "ON 12/24 AND 12/31, THIS BOX MAY BE COLLECTED AS EARLY AS 12 NOON.", "nsi_id": "unitedstatespostalservice-a77078", "operator": "United States Postal Service", "operator:short": "USPS", "operator:type": "public", "operator:wikidata": "Q668687", "ref": "4790100077"}, "type": "Feature"}
{"geometry": {"coordinates": [-86.8545, 40.417668], "type": "Point"}, "id": "bBCb1z4FrzI3P7vcXxx7I0-TaXE=", "properties": {"@source_uri": "https://tools.usps.com/UspsToolsRestServices/rest/POLocator/findLocations", "@spider": "usps_collection_boxes", "addr:city": "LAFAYETTE", "addr:country": "US", "addr:postcode": "47901", "addr:state": "IN", "addr:street_address": "3450 SOUTH ST", "amenity": "post_box", "collection_times": "Mo-Sa 17:00", "note": "ON 12/24 AND 12/31, THIS BOX MAY BE COLLECTED AS EARLY AS 12 NOON.", "nsi_id": "unitedstatespostalservice-a77078", "operator": "United States Postal Service", "operator:short": "USPS", "operator:type": "public", "operator:wikidata": "Q668687", "ref": "4790100106"}, "type": "Feature"}
{"geometry": {"coordinates": [-86.854522, 40.417668], "type": "Point"}, "id": "Pwyeq27sWhTpevijZ7Kz7VO31ac=", "properties": {"@source_uri": "https://tools.usps.com/UspsToolsRestServices/rest/POLocator/findLocations", "@spider": "usps_collection_boxes", "addr:city": "LAFAYETTE", "addr:country": "US", "addr:postcode": "47901", "addr:state": "IN", "addr:street_address": "3450 SOUTH ST", "amenity": "post_box", "collection_times": "Mo-Sa 17:00", "indoor": "yes", "note": "ON 12/24 AND 12/31, THIS BOX MAY BE COLLECTED AS EARLY AS 12 NOON.", "nsi_id": "unitedstatespostalservice-a77078", "operator": "United States Postal Service", "operator:short": "USPS", "operator:type": "public", "operator:wikidata": "Q668687", "ref": "4790100113"}, "type": "Feature"}
{"geometry": {"coordinates": [-86.854522, 40.417668], "type": "Point"}, "id": "He_2NsB0I0WulCryVsa0uhKbxWk=", "properties": {"@source_uri": "https://tools.usps.com/UspsToolsRestServices/rest/POLocator/findLocations", "@spider": "usps_collection_boxes", "addr:city": "LAFAYETTE", "addr:country": "US", "addr:postcode": "47901", "addr:state": "IN", "addr:street_address": "3450 SOUTH ST", "amenity": "post_box", "collection_times": "Mo-Sa 17:00", "name": "USPS COLLECTION BOX - APC", "note": "ON 12/24 AND 12/31, THIS BOX MAY BE COLLECTED AS EARLY AS 12 NOON.", "nsi_id": "unitedstatespostalservice-a77078", "operator": "United States Postal Service", "operator:short": "USPS", "operator:type": "public", "operator:wikidata": "Q668687", "ref": "4790100118"}, "type": "Feature"}
{"geometry": {"coordinates": [-86.8936144, 40.419627], "type": "Point"}, "id": "AEXMpH7uUbdco9Y3KCIfDqWGaRw=", "properties": {"@source_uri": "https://tools.usps.com/UspsToolsRestServices/rest/POLocator/findLocations", "@spider": "usps_collection_boxes", "addr:city": "LAFAYETTE", "addr:country": "US", "addr:postcode": "47901", "addr:state": "IN", "addr:street_address": "230 N 4TH ST", "amenity": "post_box", "collection_times": "Mo-Fr 17:00; Sa 12:00", "indoor": "yes", "note": "ON 12/24 AND 12/31, THIS BOX MAY BE COLLECTED AS EARLY AS 12 NOON.", "nsi_id": "unitedstatespostalservice-a77078", "operator": "United States Postal Service", "operator:short": "USPS", "operator:type": "public", "operator:wikidata": "Q668687", "ref": "4790100119"}, "type": "Feature"}
{"geometry": {"coordinates": [-86.8936483, 40.419596], "type": "Point"}, "id": "-m4LPfW1h4p6pxXrfR-7LjwDWIo=", "properties": {"@source_uri": "https://tools.usps.com/UspsToolsRestServices/rest/POLocator/findLocations", "@spider": "usps_collection_boxes", "addr:city": "LAFAYETTE", "addr:country": "US", "addr:postcode": "47901", "addr:state": "IN", "addr:street_address": "230 N 4TH ST", "amenity": "post_box", "collection_times": "Mo-Fr 17:00; Sa 12:00", "indoor": "yes", "note": "ON 12/24 AND 12/31, THIS BOX MAY BE COLLECTED AS EARLY AS 12 NOON.", "nsi_id": "unitedstatespostalservice-a77078", "operator": "United States Postal Service", "operator:short": "USPS", "operator:type": "public", "operator:wikidata": "Q668687", "ref": "4790100120"}, "type": "Feature"}
{"geometry": {"coordinates": [-86.8918895, 40.417899], "type": "Point"}, "id": "H4yIP8ysGW8QVtP7CHQN7ot_OA0=", "properties": {"@source_uri": "https://tools.usps.com/UspsToolsRestServices/rest/POLocator/findLocations", "@spider": "usps_collection_boxes", "addr:city": "LAFAYETTE", "addr:country": "US", "addr:postcode": "47901", "addr:state": "IN", "addr:street_address": "20 N 5TH ST", "amenity": "post_box", "collection_times": "Mo-Sa 14:00", "note": "ON 12/24 AND 12/31, THIS BOX MAY BE COLLECTED AS EARLY AS 12 NOON.", "nsi_id": "unitedstatespostalservice-a77078", "operator": "United States Postal Service", "operator:short": "USPS", "operator:type": "public", "operator:wikidata": "Q668687", "ref": "4790100126"}, "type": "Feature"}
{"geometry": {"coordinates": [-86.893106098, 40.419783136], "type": "Point"}, "id": "ATK_IuYjxgxHPqo4ERnTAT9ZMjw=", "properties": {"@source_uri": "https://tools.usps.com/UspsToolsRestServices/rest/POLocator/findLocations", "@spider": "usps_collection_boxes", "addr:city": "LAFAYETTE", "addr:country": "US", "addr:postcode": "47901", "addr:state": "IN", "addr:street_address": "230 N 4TH ST SIDE", "amenity": "post_box", "collection_times": "Mo-Fr 17:00; Sa 12:00", "indoor": "yes", "note": "ON 12/24 AND 12/31, THIS BOX MAY BE COLLECTED AS EARLY AS 12 NOON.", "nsi_id": "unitedstatespostalservice-a77078", "operator": "United States Postal Service", "operator:short": "USPS", "operator:type": "public", "operator:wikidata": "Q668687", "ref": "4790100128"}, "type": "Feature"}
{"geometry": {"coordinates": [-86.8574157, 40.429726], "type": "Point"}, "id": "-DkloRSF-SLF5Ejxa5bMxKEbdP4=", "properties": {"@source_uri": "https://tools.usps.com/UspsToolsRestServices/rest/POLocator/findLocations", "@spider": "usps_collection_boxes", "addr:city": "LAFAYETTE", "addr:country": "US", "addr:postcode": "47904", "addr:state": "IN", "addr:street_address": "1241 SAGAMORE PKWY N", "amenity": "post_box", "collection_times": "Mo-Sa 15:00", "note": "ON 12/24 AND 12/31, THIS BOX MAY BE COLLECTED AS EARLY AS 12 NOON.", "nsi_id": "unitedstatespostalservice-a77078", "operator": "United States Postal Service", "operator:short": "USPS", "operator:type": "public", "operator:wikidata": "Q668687", "ref": "4790400001"}, "type": "Feature"}
{"geometry": {"coordinates": [-86.8698552, 40.431098], "type": "Point"}, "id": "c3DQx-M5ukxPlzt1rDsJbgwd5Bo=", "properties": {"@source_uri": "https://tools.usps.com/UspsToolsRestServices/rest/POLocator/findLocations", "@spider": "usps_collection_boxes", "addr:city": "LAFAYETTE", "addr:country": "US", "addr:postcode": "47904", "addr:state": "IN", "addr:street_address": "2200 ELMWOOD AVE", "amenity": "post_box", "collection_times": "Mo-Sa 15:00", "note": "ON 12/24 AND 12/31, THIS BOX MAY BE COLLECTED AS EARLY AS 12 NOON.", "nsi_id": "unitedstatespostalservice-a77078", "operator": "United States Postal Service", "operator:short": "USPS", "operator:type": "public", "operator:wikidata": "Q668687", "ref": "4790400002"}, "type": "Feature"}
{"geometry": {"coordinates": [-86.875022738, 40.414083193], "type": "Point"}, "id": "L6Qn18GlN9BetpTm7csvOnH276k=", "properties": {"@source_uri": "https://tools.usps.com/UspsToolsRestServices/rest/POLocator/findLocations", "@spider": "usps_collection_boxes", "addr:city": "LAFAYETTE", "addr:country": "US", "addr:postcode": "47904", "addr:state": "IN", "addr:street_address": "1901 MAIN ST", "amenity": "post_box", "collection_times": "Mo-Sa 14:00", "note": "ON 12/24 AND 12/31, THIS BOX MAY BE COLLECTED AS EARLY AS 12 NOON.", "nsi_id": "unitedstatespostalservice-a77078", "operator": "United States Postal Service", "operator:short": "USPS", "operator:type": "public", "operator:wikidata": "Q668687", "ref": "4790400003"}, "type": "Feature"}
{"geometry": {"coordinates": [-86.8736514, 40.425663], "type": "Point"}, "id": "4rMJ8rUereILAe4LHZQ2R4IQG3k=", "properties": {"@source_uri": "https://tools.usps.com/UspsToolsRestServices/rest/POLocator/findLocations", "@spider": "usps_collection_boxes", "addr:city": "LAFAYETTE", "addr:country": "US", "addr:postcode": "47904", "addr:state": "IN", "addr:street_address": "2020 UNION ST", "amenity": "post_box", "collection_times": "Mo-Sa 10:00", "nsi_id": "unitedstatespostalservice-a77078", "operator": "United States Postal Service", "operator:short": "USPS", "operator:type": "public", "operator:wikidata": "Q668687", "ref": "4790400004"}, "type": "Feature"}
{"geometry": {"coordinates": [-86.8822380827, 40.4270266589], "type": "Point"}, "id": "wFpJzfX16Uds89pVN1WX9SOVLiw=", "properties": {"@source_uri": "https://tools.usps.com/UspsToolsRestServices/rest/POLocator/findLocations", "@spider": "usps_collection_boxes", "addr:city": "LAFAYETTE", "addr:country": "US", "addr:postcode": "47904", "addr:state": "IN", "addr:street_address": "1000 N 14TH ST", "amenity": "post_box", "collection_times": "Mo-Fr 15:00; Sa 14:45", "note": "ON 12/24 AND 12/31, THIS BOX MAY BE COLLECTED AS EARLY AS 12 NOON.", "nsi_id": "unitedstatespostalservice-a77078", "operator": "United States Postal Service", "operator:short": "USPS", "operator:type": "public", "operator:wikidata": "Q668687", "ref": "4790400005"}, "type": "Feature"}
{"geometry": {"coordinates": [-86.8823509882, 40.3963220121], "type": "Point"}, "id": "bS8KCYvMhrtO_JyZIwfr7vBWm58=", "properties": {"@source_uri": "https://tools.usps.com/UspsToolsRestServices/rest/POLocator/findLocations", "@spider": "usps_collection_boxes", "addr:city": "LAFAYETTE", "addr:country": "US", "addr:postcode": "47905", "addr:state": "IN", "addr:street_address": "1400 TEAL RD", "amenity": "post_box", "collection_times": "Mo-Sa 14:00", "note": "ON 12/24 AND 12/31, THIS BOX MAY BE COLLECTED AS EARLY AS 12 NOON.", "nsi_id": "unitedstatespostalservice-a77078", "operator": "United States Postal Service", "operator:short": "USPS", "operator:type": "public", "operator:wikidata": "Q668687", "ref": "4790500004"}, "type": "Feature"}
{"geometry": {"coordinates": [-86.8531606, 40.398755], "type": "Point"}, "id": "at2EF0uubEyc_9aBTUzwVlRSGPQ=", "properties": {"@source_uri": "https://tools.usps.com/UspsToolsRestServices/rest/POLocator/findLocations", "@spider": "usps_collection_boxes", "addr:city": "LAFAYETTE", "addr:country": "US", "addr:postcode": "47905", "addr:state": "IN", "addr:street_address": "2513 MAPLE POINT DR", "amenity": "post_box", "collection_times": "Mo-Sa 12:00", "nsi_id": "unitedstatespostalservice-a77078", "operator": "United States Postal Service", "operator:short": "USPS", "operator:type": "public", "operator:wikidata": "Q668687", "ref": "4790500005"}, "type": "Feature"}
{"geometry": {"coordinates": [-86.8784899, 40.409804], "type": "Point"}, "id": "vZDI1omtNlQivSWtYPRKWhsgIdQ=", "properties": {"@source_uri": "https://tools.usps.com/UspsToolsRestServices/rest/POLocator/findLocations", "@spider": "usps_collection_boxes", "addr:city": "LAFAYETTE", "addr:country": "US", "addr:postcode": "47905", "addr:state": "IN", "addr:street_address": "1533 KOSSUTH ST", "amenity": "post_box", "collection_times": "Mo-Sa 14:00", "note": "ON 12/24 AND 12/31, THIS BOX MAY BE COLLECTED AS EARLY AS 12 NOON.", "nsi_id": "unitedstatespostalservice-a77078", "operator": "United States Postal Service", "operator:short": "USPS", "operator:type": "public", "operator:wikidata": "Q668687", "ref": "4790500006"}, "type": "Feature"}
{"geometry": {"coordinates": [-86.8509946, 40.422189], "type": "Point"}, "id": "_NaHXGBTiStdc1H2Bt-yCRR1YXg=", "properties": {"@source_uri": "https://tools.usps.com/UspsToolsRestServices/rest/POLocator/findLocations", "@spider": "usps_collection_boxes", "addr:city": "LAFAYETTE", "addr:country": "US", "addr:postcode": "47905", "addr:state": "IN", "addr:street_address": "646 N 36TH ST", "amenity": "post_box", "collection_times": "Mo-Fr 15:30; Sa 15:00", "note": "ON 12/24 AND 12/31, THIS BOX MAY BE COLLECTED AS EARLY AS 12 NOON.", "nsi_id": "unitedstatespostalservice-a77078", "operator": "United States Postal Service", "operator:short": "USPS", "operator:type": "public", "operator:wikidata": "Q668687", "ref": "4790500007"}, "type": "Feature"}
{"geometry": {"coordinates": [-86.8693584, 40.395681], "type": "Point"}, "id": "lw8QBBFtRv1vKxA0p2912HBMI_g=", "properties": {"@source_uri": "https://tools.usps.com/UspsToolsRestServices/rest/POLocator/findLocations", "@spider": "usps_collection_boxes", "addr:city": "LAFAYETTE", "addr:country": "US", "addr:postcode": "47905", "addr:state": "IN", "addr:street_address": "2300 TEAL RD", "amenity": "post_box", "collection_times": "Mo-Fr 14:45; Sa 14:15", "note": "ON 12/24 AND 12/31, THIS BOX MAY BE COLLECTED AS EARLY AS 12 NOON.", "nsi_id": "unitedstatespostalservice-a77078", "operator": "United States Postal Service", "operator:short": "USPS", "operator:type": "public", "operator:wikidata": "Q668687", "ref": "4790500009"}, "type": "Feature"}
{"geometry": {"coordinates": [-86.854032, 40.417663466], "type": "Point"}, "id": "CGw8XqlHlmYNWo8bHHt0TH3Mkr4=", "properties": {"@source_uri": "https://tools.usps.com/UspsToolsRestServices/rest/POLocator/findLocations", "@spider": "usps_collection_boxes", "addr:city": "LAFAYETTE", "addr:country": "US", "addr:postcode": "47905", "addr:state": "IN", "addr:street_address": "3450 SOUTH ST", "amenity": "post_box", "collection_times": "Mo-Fr 19:00; Sa 12:00", "indoor": "yes", "note": "ON 12/24 AND 12/31, THIS BOX MAY BE COLLECTED AS EARLY AS 12 NOON.", "nsi_id": "unitedstatespostalservice-a77078", "operator": "United States Postal Service", "operator:short": "USPS", "operator:type": "public", "operator:wikidata": "Q668687", "ref": "4790500018"}, "type": "Feature"}
{"geometry": {"coordinates": [-86.917180804, 40.451861523], "type": "Point"}, "id": "ZHwuP3kddO_TG11XFG3g-Ir5z8w=", "properties": {"@source_uri": "https://tools.usps.com/UspsToolsRestServices/rest/POLocator/findLocations", "@spider": "usps_collection_boxes", "addr:city": "LAFAYETTE", "addr:country": "US", "addr:postcode": "47906", "addr:state": "IN", "addr:street_address": "610 W NAVAJO ST", "amenity": "post_box", "collection_times": "Mo-Fr 17:00; Sa 12:00", "indoor": "yes", "note": "ON 12/24 AND 12/31, THIS BOX MAY BE COLLECTED AS EARLY AS 12 NOON.", "nsi_id": "unitedstatespostalservice-a77078", "operator": "United States Postal Service", "operator:short": "USPS", "operator:type": "public", "operator:wikidata": "Q668687", "ref": "4790600000"}, "type": "Feature"}
{"geometry": {"coordinates": [-86.917180804, 40.451861523], "type": "Point"}, "id": "x4UrR6y6xCkPCR2yDkkFGOwmJKY=", "properties": {"@source_uri": "https://tools.usps.com/UspsToolsRestServices/rest/POLocator/findLocations", "@spider": "usps_collection_boxes", "addr:city": "LAFAYETTE", "addr:country": "US", "addr:postcode": "47906", "addr:state": "IN", "addr:street_address": "610 W NAVAJO ST", "amenity": "post_box", "collection_times": "Mo-Fr 17:00; Sa 15:30", "note": "ON 12/24 AND 12/31, THIS BOX MAY BE COLLECTED AS EARLY AS 12 NOON.", "nsi_id": "unitedstatespostalservice-a77078", "operator": "United States Postal Service", "operator:short": "USPS", "operator:type": "public", "operator:wikidata": "Q668687", "ref": "4790600002"}, "type": "Feature"}
{"geometry": {"coordinates": [-86.9183369, 40.454134], "type": "Point"}, "id": "fjr3ke9Kr9k7PYjf4hPBqtKkPYQ=", "properties": {"@source_uri": "https://tools.usps.com/UspsToolsRestServices/rest/POLocator/findLocations", "@spider": "usps_collection_boxes", "addr:city": "LAFAYETTE", "addr:country": "US", "addr:postcode": "47906", "addr:state": "IN", "addr:street_address": "1048 SAGAMORE PKWY W", "amenity": "post_box", "collection_times": "Mo-Fr 15:00; Sa 14:30", "note": "ON 12/24 AND 12/31, THIS BOX MAY BE COLLECTED AS EARLY AS 12 NOON.", "nsi_id": "unitedstatespostalservice-a77078", "operator": "United States Postal Service", "operator:short": "USPS", "operator:type": "public", "operator:wikidata": "Q668687", "ref": "4790600011"}, "type": "Feature"}
{"geometry": {"coordinates": [-86.9133012, 40.43145], "type": "Point"}, "id": "RMfCeZp2Lz1hDWfp7uZlBSbcMgQ=", "properties": {"@source_uri": "https://tools.usps.com/UspsToolsRestServices/rest/POLocator/findLocations", "@spider": "usps_collection_boxes", "addr:city": "LAFAYETTE", "addr:country": "US", "addr:postcode": "47906", "addr:state": "IN", "addr:street_address": "616 W STADIUM AVE", "amenity": "post_box", "collection_times": "Mo-Sa 14:00", "note": "ON 12/24 AND 12/31, THIS BOX MAY BE COLLECTED AS EARLY AS 12 NOON.", "nsi_id": "unitedstatespostalservice-a77078", "operator": "United States Postal Service", "operator:short": "USPS", "operator:type": "public", "operator:wikidata": "Q668687", "ref": "4790600026"}, "type": "Feature"}
{"geometry": {"coordinates": [-86.917180804, 40.451861523], "type": "Point"}, "id": "pv-xYZtvo6XKm4gk5OOmmLz7THE=", "properties": {"@source_uri": "https://tools.usps.com/UspsToolsRestServices/rest/POLocator/findLocations", "@spider": "usps_collection_boxes", "addr:city": "LAFAYETTE", "addr:country": "US", "addr:postcode": "47906", "addr:state": "IN", "addr:street_address": "610 W NAVAJO ST", "amenity": "post_box", "collection_times": "Mo-Fr 17:00; Sa 12:00", "name": "USPS COLLECTION BOX - APC", "note": "ON 12/24 AND 12/31, THIS BOX MAY BE COLLECTED AS EARLY AS 12 NOON.", "nsi_id": "unitedstatespostalservice-a77078", "operator": "United States Postal Service", "operator:short": "USPS", "operator:type": "public", "operator:wikidata": "Q668687", "ref": "4790600050"}, "type": "Feature"}
{"geometry": {"coordinates": [-86.9167987, 40.426256], "type": "Point"}, "id": "TmWUEpdvMWQifuPHqI2paBITAC8=", "properties": {"@source_uri": "https://tools.usps.com/UspsToolsRestServices/rest/POLocator/findLocations", "@spider": "usps_collection_boxes", "addr:city": "LAFAYETTE", "addr:country": "US", "addr:postcode": "47906", "addr:state": "IN", "addr:street_address": "900 2ND ST", "amenity": "post_box", "collection_times": "Mo-Sa 14:00", "note": "ON 12/24 AND 12/31, THIS BOX MAY BE COLLECTED AS EARLY AS 12 NOON.", "nsi_id": "unitedstatespostalservice-a77078", "operator": "United States Postal Service", "operator:short": "USPS", "operator:type": "public", "operator:wikidata": "Q668687", "ref": "4790600053"}, "type": "Feature"}
{"geometry": {"coordinates": [-87.0776707, 40.491218], "type": "Point"}, "id": "ge0R_DY7GKErCrgaJps2WXUgyZA=", "properties": {"@source_uri": "https://tools.usps.com/UspsToolsRestServices/rest/POLocator/findLocations", "@spider": "usps_collection_boxes", "addr:city": "LAFAYETTE", "addr:country": "US", "addr:postcode": "47906", "addr:state": "IN", "addr:street_address": "9150 W 500 N", "amenity": "post_box", "collection_times": "Mo-Fr 11:30; Sa 11:00", "nsi_id": "unitedstatespostalservice-a77078", "operator": "United States Postal Service", "operator:short": "USPS", "operator:type": "public", "operator:wikidata": "Q668687", "ref": "4790600055"}, "type": "Feature"}
{"geometry": {"coordinates": [-86.9290657, 40.424638], "type": "Point"}, "id": "kLsiPJylKsi_Rfe9XO_WougtIq8=", "properties": {"@source_uri": "https://tools.usps.com/UspsToolsRestServices/rest/POLocator/findLocations", "@spider": "usps_collection_boxes", "addr:city": "LAFAYETTE", "addr:country": "US", "addr:postcode": "47906", "addr:state": "IN", "addr:street_address": "1400 W STATE ST", "amenity": "post_box", "collection_times": "Mo-Sa 11:00", "nsi_id": "unitedstatespostalservice-a77078", "operator": "United States Postal Service", "operator:short": "USPS", "operator:type": "public", "operator:wikidata": "Q668687", "ref": "4790600056"}, "type": "Feature"}
{"geometry": {"coordinates": [-86.917180804, 40.451861523], "type": "Point"}, "id": "miKlLBSgREEYSmSvMjg1lU6ltrk=", "properties": {"@source_uri": "https://tools.usps.com/UspsToolsRestServices/rest/POLocator/findLocations", "@spider": "usps_collection_boxes", "addr:city": "LAFAYETTE", "addr:country": "US", "addr:postcode": "47906", "addr:state": "IN", "addr:street_address": "610 W NAVAJO ST", "amenity": "post_box", "collection_times": "Mo-Fr 17:30; Sa 12:00", "indoor": "yes", "note": "ON 12/24 AND 12/31, THIS BOX MAY BE COLLECTED AS EARLY AS 12 NOON.", "nsi_id": "unitedstatespostalservice-a77078", "operator": "United States Postal Service", "operator:short": "USPS", "operator:type": "public", "operator:wikidata": "Q668687", "ref": "4790600059"}, "type": "Feature"}
{"geometry": {"coordinates": [-86.9020422, 40.386488], "type": "Point"}, "id": "vQeTVUOJMOsaOa77hleJhEyhTGc=", "properties": {"@source_uri": "https://tools.usps.com/UspsToolsRestServices/rest/POLocator/findLocations", "@spider": "usps_collection_boxes", "addr:city": "LAFAYETTE", "addr:country": "US", "addr:postcode": "47909", "addr:state": "IN", "addr:street_address": "65 BECK LN", "amenity": "post_box", "collection_times": "Mo-Sa 14:00", "note": "ON 12/24 AND 12/31, THIS BOX MAY BE COLLECTED AS EARLY AS 12 NOON.", "nsi_id": "unitedstatespostalservice-a77078", "operator": "United States Postal Service", "operator:short": "USPS", "operator:type": "public", "operator:wikidata": "Q668687", "ref": "4790900001"}, "type": "Feature"}
{"geometry": {"coordinates": [-86.8748861, 40.366638], "type": "Point"}, "id": "Mt_VqGNW-Ldioa-86HC6Wvv90ko=", "properties": {"@source_uri": "https://tools.usps.com/UspsToolsRestServices/rest/POLocator/findLocations", "@spider": "usps_collection_boxes", "addr:city": "LAFAYETTE", "addr:country": "US", "addr:postcode": "47909", "addr:state": "IN", "addr:street_address": "1803 VETERANS MEMORIAL PKWY S", "amenity": "post_box", "collection_times": "Mo-Fr 15:00; Sa 14:45", "note": "ON 12/24 AND 12/31, THIS BOX MAY BE COLLECTED AS EARLY AS 12 NOON.", "nsi_id": "unitedstatespostalservice-a77078", "operator": "United States Postal Service", "operator:short": "USPS", "operator:type": "public", "operator:wikidata": "Q668687", "ref": "4790900002"}, "type": "Feature"}
{"geometry": {"coordinates": [-87.056825846, 39.983175838], "type": "Point"}, "id": "RAbt35spzvVrQz07qz_5SFlNWSw=", "properties": {"@source_uri": "https://tools.usps.com/UspsToolsRestServices/rest/POLocator/findLocations", "@spider": "usps_collection_boxes", "addr:city": "ALAMO", "addr:country": "US", "addr:postcode": "47916", "addr:state": "IN", "addr:street_address": "101 N FRANKLIN ST", "amenity": "post_box", "collection_times": "Mo-Sa 09:00", "nsi_id": "unitedstatespostalservice-a77078", "operator": "United States Postal Service", "operator:short": "USPS", "operator:type": "public", "operator:wikidata": "Q668687", "ref": "4791600000"}, "type": "Feature"}
{"geometry": {"coordinates": [-87.056825846, 39.983175838], "type": "Point"}, "id": "4oKMqyncV7L-ZFNBDZMOC3A7eg8=", "properties": {"@source_uri": "https://tools.usps.com/UspsToolsRestServices/rest/POLocator/findLocations", "@spider": "usps_collection_boxes", "addr:city": "ALAMO", "addr:country": "US", "addr:postcode": "47916", "addr:state": "IN", "addr:street_address": "101 N FRANKLIN ST", "amenity": "post_box", "collection_times": "Mo-Sa 09:00", "indoor": "yes", "nsi_id": "unitedstatespostalservice-a77078", "operator": "United States Postal Service", "operator:short": "USPS", "operator:type": "public", "operator:wikidata": "Q668687", "ref": "4791600001"}, "type": "Feature"}
{"geometry": {"coordinates": [-87.056825846, 39.983175838], "type": "Point"}, "id": "zsqLes2cYanqe-6QOR2zKb2q8v0=", "properties": {"@source_uri": "https://tools.usps.com/UspsToolsRestServices/rest/POLocator/findLocations", "@spider": "usps_collection_boxes", "addr:city": "ALAMO", "addr:country": "US", "addr:postcode": "47916", "addr:state": "IN", "addr:street_address": "101 N FRANKLIN ST", "amenity": "post_box", "collection_times": "Mo-Fr 11:00; Sa 12:30", "indoor": "yes", "note": "ON 12/24 AND 12/31, THIS BOX MAY BE COLLECTED AS EARLY AS 12 NOON.", "nsi_id": "unitedstatespostalservice-a77078", "operator": "United States Postal Service", "operator:short": "USPS", "operator:type": "public", "operator:wikidata": "Q668687", "ref": "4791600003"}, "type": "Feature"}
{"geometry": {"coordinates": [-87.515820168, 40.490931519], "type": "Point"}, "id": "viwZFa5RZfOfHdgCCe-RPhrADcQ=", "properties": {"@source_uri": "https://tools.usps.com/UspsToolsRestServices/rest/POLocator/findLocations", "@spider": "usps_collection_boxes", "addr:city": "AMBIA", "addr:country": "US", "addr:postcode": "47917", "addr:state": "IN", "addr:street_address": "109 E OAK ST", "amenity": "post_box", "collection_times": "Mo-Fr 16:15; Sa 11:00", "note": "ON 12/24 AND 12/31, THIS BOX MAY BE COLLECTED AS EARLY AS 12 NOON.", "nsi_id": "unitedstatespostalservice-a77078", "operator": "United States Postal Service", "operator:short": "USPS", "operator:type": "public", "operator:wikidata": "Q668687", "ref": "4791700000"}, "type": "Feature"}
{"geometry": {"coordinates": [-87.515820168, 40.490931519], "type": "Point"}, "id": "R3_BH3XojYaCO3Gp1eEGoYJQIBA=", "properties": {"@source_uri": "https://tools.usps.com/UspsToolsRestServices/rest/POLocator/findLocations", "@spider": "usps_collection_boxes", "addr:city": "AMBIA", "addr:country": "US", "addr:postcode": "47917", "addr:state": "IN", "addr:street_address": "109 E OAK ST", "amenity": "post_box", "collection_times": "Mo-Sa 10:45", "indoor": "yes", "nsi_id": "unitedstatespostalservice-a77078", "operator": "United States Postal Service", "operator:short": "USPS", "operator:type": "public", "operator:wikidata": "Q668687", "ref": "4791700001"}, "type": "Feature"}
{"geometry": {"coordinates": [-87.515820168, 40.490931519], "type": "Point"}, "id": "X1qkpHozpbnntC48rXent2cgbHs=", "properties": {"@source_uri": "https://tools.usps.com/UspsToolsRestServices/rest/POLocator/findLocations", "@spider": "usps_collection_boxes", "addr:city": "AMBIA", "addr:country": "US", "addr:postcode": "47917", "addr:state": "IN", "addr:street_address": "109 E OAK ST", "amenity": "post_box", "collection_times": "Mo-Sa 11:00", "indoor": "yes", "nsi_id": "unitedstatespostalservice-a77078", "operator": "United States Postal Service", "operator:short": "USPS", "operator:type": "public", "operator:wikidata": "Q668687", "ref": "4791700002"}, "type": "Feature"}
{"geometry": {"coordinates": [-87.248123737, 40.293854278], "type": "Point"}, "id": "2fGrVL9_xYtRhs2lyt7Fit2nhIs=", "properties": {"@source_uri": "https://tools.usps.com/UspsToolsRestServices/rest/POLocator/findLocations", "@spider": "usps_collection_boxes", "addr:city": "ATTICA", "addr:country": "US", "addr:postcode": "47918", "addr:state": "IN", "addr:street_address": "107 E MAIN ST", "amenity": "post_box", "collection_times": "Mo-Fr 16:00; Sa 16:30", "note": "ON 12/24 AND 12/31, THIS BOX MAY BE COLLECTED AS EARLY AS 12 NOON.", "nsi_id": "unitedstatespostalservice-a77078", "operator": "United States Postal Service", "operator:short": "USPS", "operator:type": "public", "operator:wikidata": "Q668687", "ref": "4791800016"}, "type": "Feature"}
{"geometry": {"coordinates": [-87.248123737, 40.293854278], "type": "Point"}, "id": "qZemKhMZ80BnsqGxWbqtoN-Z9Yk=", "properties": {"@source_uri": "https://tools.usps.com/UspsToolsRestServices/rest/POLocator/findLocations", "@spider": "usps_collection_boxes", "addr:city": "ATTICA", "addr:country": "US", "addr:postcode": "47918", "addr:state": "IN", "addr:street_address": "107 E MAIN ST", "amenity": "post_box", "collection_times": "Mo-Fr 16:00; Sa 12:00", "indoor": "yes", "note": "ON 12/24 AND 12/31, THIS BOX MAY BE COLLECTED AS EARLY AS 12 NOON.", "nsi_id": "unitedstatespostalservice-a77078", "operator": "United States Postal Service", "operator:short": "USPS", "operator:type": "public", "operator:wikidata": "Q668687", "ref": "4791800018"}, "type": "Feature"}
{"geometry": {"coordinates": [-87.248123737, 40.293854278], "type": "Point"}, "id": "ROWQ8tTkRdqQA8MF4iRsIGPE5PM=", "properties": {"@source_uri": "https://tools.usps.com/UspsToolsRestServices/rest/POLocator/findLocations", "@spider": "usps_collection_boxes", "addr:city": "ATTICA", "addr:country": "US", "addr:postcode": "47918", "addr:state": "IN", "addr:street_address": "107 E MAIN ST", "amenity": "post_box", "collection_times": "Mo-Fr 16:00; Sa 12:00", "indoor": "yes", "note": "ON 12/24 AND 12/31, THIS BOX MAY BE COLLECTED AS EARLY AS 12 NOON.", "nsi_id": "unitedstatespostalservice-a77078", "operator": "United States Postal Service", "operator:short": "USPS", "operator:type": "public", "operator:wikidata": "Q668687", "ref": "4791800019"}, "type": "Feature"}
{"geometry": {"coordinates": [-87.248123737, 40.293854278], "type": "Point"}, "id": "dsQN2_PZr1T9_-pi2XPChkWZy4Q=", "properties": {"@source_uri": "https://tools.usps.com/UspsToolsRestServices/rest/POLocator/findLocations", "@spider": "usps_collection_boxes", "addr:city": "ATTICA", "addr:country": "US", "addr:postcode": "47918", "addr:state": "IN", "addr:street_address": "107 E MAIN ST", "amenity": "post_box", "collection_times": "Mo-Fr 16:30; Sa 11:00", "indoor": "yes", "note": "ON 12/24 AND 12/31, THIS BOX MAY BE COLLECTED AS EARLY AS 12 NOON.", "nsi_id": "unitedstatespostalservice-a77078", "operator": "United States Postal Service", "operator:short": "USPS", "operator:type": "public", "operator:wikidata": "Q668687", "ref": "4791800021"}, "type": "Feature"}
{"geometry": {"coordinates": [-86.838661608, 40.510171845], "type": "Point"}, "id": "lFrUWthQZYrCfhxjhQT0Sk2WkfY=", "properties": {"@source_uri": "https://tools.usps.com/UspsToolsRestServices/rest/POLocator/findLocations", "@spider": "usps_collection_boxes", "addr:city": "BATTLE GROUND", "addr:country": "US", "addr:postcode": "47920", "addr:state": "IN", "addr:street_address": "107 NORTH ST", "amenity": "post_box", "collection_times": "Mo-Fr 16:00; Sa 10:45", "note": "ON 12/24 AND 12/31, THIS BOX MAY BE COLLECTED AS EARLY AS 12 NOON.", "nsi_id": "unitedstatespostalservice-a77078", "operator": "United States Postal Service", "operator:short": "USPS", "operator:type": "public", "operator:wikidata": "Q668687", "ref": "4792000001"}, "type": "Feature"}
{"geometry": {"coordinates": [-86.838661608, 40.510171845], "type": "Point"}, "id": "sTaYUpaDCkQLxiYKRA-0qZDPq6I=", "properties": {"@source_uri": "https://tools.usps.com/UspsToolsRestServices/rest/POLocator/findLocations", "@spider": "usps_collection_boxes", "addr:city": "BATTLE GROUND", "addr:country": "US", "addr:postcode": "47920", "addr:state": "IN", "addr:street_address": "107 NORTH ST", "amenity": "post_box", "collection_times": "Mo-Fr 16:00; Sa 10:45", "indoor": "yes", "note": "ON 12/24 AND 12/31, THIS BOX MAY BE COLLECTED AS EARLY AS 12 NOON.", "nsi_id": "unitedstatespostalservice-a77078", "operator": "United States Postal Service", "operator:short": "USPS", "operator:type": "public", "operator:wikidata": "Q668687", "ref": "4792000002"}, "type": "Feature"}
{"geometry": {"coordinates": [-86.838661608, 40.510171845], "type": "Point"}, "id": "0eAwNkablo2_5oBWVwAOsWup_c4=", "properties": {"@source_uri": "https://tools.usps.com/UspsToolsRestServices/rest/POLocator/findLocations", "@spider": "usps_collection_boxes", "addr:city": "BATTLE GROUND", "addr:country": "US", "addr:postcode": "47920", "addr:state": "IN", "addr:street_address": "107 NORTH ST", "amenity": "post_box", "collection_times": "Mo-Fr 16:00; Sa 11:00", "indoor": "yes", "note": "ON 12/24 AND 12/31, THIS BOX MAY BE COLLECTED AS EARLY AS 12 NOON.", "nsi_id": "unitedstatespostalservice-a77078", "operator": "United States Postal Service", "operator:short": "USPS", "operator:type": "public", "operator:wikidata": "Q668687", "ref": "4792000003"}, "type": "Feature"}
{"geometry": {"coordinates": [-87.379192498, 40.516659547], "type": "Point"}, "id": "3yozaGa-5z_mO4NhhjXs3jSG8BA=", "properties": {"@source_uri": "https://tools.usps.com/UspsToolsRestServices/rest/POLocator/findLocations", "@spider": "usps_collection_boxes", "addr:city": "BOSWELL", "addr:country": "US", "addr:postcode": "47921", "addr:state": "IN", "addr:street_address": "302 E SPIES ST", "amenity": "post_box", "collection_times": "Mo-Fr 16:00; Sa 11:00", "note": "ON 12/24 AND 12/31, THIS BOX MAY BE COLLECTED AS EARLY AS 12 NOON.", "nsi_id": "unitedstatespostalservice-a77078", "operator": "United States Postal Service", "operator:short": "USPS", "operator:type": "public", "operator:wikidata": "Q668687", "ref": "4792100001"}, "type": "Feature"}
{"geometry": {"coordinates": [-87.379192498, 40.516659547], "type": "Point"}, "id": "sCNsXOiZ-nPEXEr3tcXggjOlocI=", "properties": {"@source_uri": "https://tools.usps.com/UspsToolsRestServices/rest/POLocator/findLocations", "@spider": "usps_collection_boxes", "addr:city": "BOSWELL", "addr:country": "US", "addr:postcode": "47921", "addr:state": "IN", "addr:street_address": "302 E SPIES ST", "amenity": "post_box", "collection_times": "Mo-Fr 12:00; Sa 11:00", "indoor": "yes", "nsi_id": "unitedstatespostalservice-a77078", "operator": "United States Postal Service", "operator:short": "USPS", "operator:type": "public", "operator:wikidata": "Q668687", "ref": "4792100002"}, "type": "Feature"}
{"geometry": {"coordinates": [-87.3778353, 40.520371], "type": "Point"}, "id": "kbkjj1i1E8mgCVYBjzvqxaan6Ew=", "properties": {"@source_uri": "https://tools.usps.com/UspsToolsRestServices/rest/POLocator/findLocations", "@spider": "usps_collection_boxes", "addr:city": "BOSWELL", "addr:country": "US", "addr:postcode": "47921", "addr:state": "IN", "addr:street_address": "207 N OLD US HIGHWAY 41", "amenity": "post_box", "collection_times": "Mo-Sa 12:00", "nsi_id": "unitedstatespostalservice-a77078", "operator": "United States Postal Service", "operator:short": "USPS", "operator:type": "public", "operator:wikidata": "Q668687", "ref": "4792100003"}, "type": "Feature"}
{"geometry": {"coordinates": [-87.379192498, 40.516659547], "type": "Point"}, "id": "mtjBdfuvQWk-WE1PWkfxarWKZGQ=", "properties": {"@source_uri": "https://tools.usps.com/UspsToolsRestServices/rest/POLocator/findLocations", "@spider": "usps_collection_boxes", "addr:city": "BOSWELL", "addr:country": "US", "addr:postcode": "47921", "addr:state": "IN", "addr:street_address": "302 E SPIES ST", "amenity": "post_box", "collection_times": "Mo-Fr 12:00; Sa 11:00", "indoor": "yes", "nsi_id": "unitedstatespostalservice-a77078", "operator": "United States Postal Service", "operator:short": "USPS", "operator:type": "public", "operator:wikidata": "Q668687", "ref": "4792100004"}, "type": "Feature"}
{"geometry": {"coordinates": [-87.367161526, 40.86565446], "type": "Point"}, "id": "B2fVj4_lLrsldune5Jbtfy-wRcM=", "properties": {"@source_uri": "https://tools.usps.com/UspsToolsRestServices/rest/POLocator/findLocations", "@spider": "usps_collection_boxes", "addr:city": "BROOK", "addr:country": "US", "addr:postcode": "47922", "addr:state": "IN", "addr:street_address": "308 W MAIN ST", "amenity": "post_box", "collection_times": "Mo-Fr 15:30; Sa 11:00", "note": "ON 12/24 AND 12/31, THIS BOX MAY BE COLLECTED AS EARLY AS 12 NOON.", "nsi_id": "unitedstatespostalservice-a77078", "operator": "United States Postal Service", "operator:short": "USPS", "operator:type": "public", "operator:wikidata": "Q668687", "ref": "4792200001"}, "type": "Feature"}
{"geometry": {"coordinates": [-87.364925, 40.866095], "type": "Point"}, "id": "Ac2vZs2ltxwTyAKpF0-5kUf64iY=", "properties": {"@source_uri": "https://tools.usps.com/UspsToolsRestServices/rest/POLocator/findLocations", "@spider": "usps_collection_boxes", "addr:city": "BROOK", "addr:country": "US", "addr:postcode": "47922", "addr:state": "IN", "addr:street_address": "308 W MAIN ST", "amenity": "post_box", "collection_times": "Mo-Fr 15:30; Sa 11:00", "indoor": "yes", "note": "ON 12/24 AND 12/31, THIS BOX MAY BE COLLECTED AS EARLY AS 12 NOON.", "nsi_id": "unitedstatespostalservice-a77078", "operator": "United States Postal Service", "operator:short": "USPS", "operator:type": "public", "operator:wikidata": "Q668687", "ref": "4792200002"}, "type": "Feature"}
{"geometry": {"coordinates": [-87.364925, 40.866095], "type": "Point"}, "id": "eOexz4jxZybqK3T1pyN1HmSsnpQ=", "properties": {"@source_uri": "https://tools.usps.com/UspsToolsRestServices/rest/POLocator/findLocations", "@spider": "usps_collection_boxes", "addr:city": "BROOK", "addr:country": "US", "addr:postcode": "47922", "addr:state": "IN", "addr:street_address": "308 W MAIN ST", "amenity": "post_box", "collection_times": "Mo-Fr 16:00; Sa 11:00", "indoor": "yes", "note": "ON 12/24 AND 12/31, THIS BOX MAY BE COLLECTED AS EARLY AS 12 NOON.", "nsi_id": "unitedstatespostalservice-a77078", "operator": "United States Postal Service", "operator:short": "USPS", "operator:type": "public", "operator:wikidata": "Q668687", "ref": "4792200003"}, "type": "Feature"}
{"geometry": {"coordinates": [-86.866510189, 40.603274329], "type": "Point"}, "id": "8s4p9vcjUQorI_FUz9JUQznxtzA=", "properties": {"@source_uri": "https://tools.usps.com/UspsToolsRestServices/rest/POLocator/findLocations", "@spider": "usps_collection_boxes", "addr:city": "BROOKSTON", "addr:country": "US", "addr:postcode": "47923", "addr:state": "IN", "addr:street_address": "205 S SOUTH ST", "amenity": "post_box", "collection_times": "Mo-Fr 15:30; Sa 10:00", "note": "ON 12/24 AND 12/31, THIS BOX MAY BE COLLECTED AS EARLY AS 12 NOON.", "nsi_id": "unitedstatespostalservice-a77078", "operator": "United States Postal Service", "operator:short": "USPS", "operator:type": "public", "operator:wikidata": "Q668687", "ref": "4792300001"}, "type": "Feature"}
{"geometry": {"coordinates": [-86.866510189, 40.603274329], "type": "Point"}, "id": "zPAM0LpSt29KfQqFEIo6oaTTs2Q=", "properties": {"@source_uri": "https://tools.usps.com/UspsToolsRestServices/rest/POLocator/findLocations", "@spider": "usps_collection_boxes", "addr:city": "BROOKSTON", "addr:country": "US", "addr:postcode": "47923", "addr:state": "IN", "addr:street_address": "205 S SOUTH ST", "amenity": "post_box", "collection_times": "Mo-Fr 15:30; Sa 10:00", "indoor": "yes", "note": "ON 12/24 AND 12/31, THIS BOX MAY BE COLLECTED AS EARLY AS 12 NOON.", "nsi_id": "unitedstatespostalservice-a77078", "operator": "United States Postal Service", "operator:short": "USPS", "operator:type": "public", "operator:wikidata": "Q668687", "ref": "4792300002"}, "type": "Feature"}
{"geometry": {"coordinates": [-86.866510189, 40.603274329], "type": "Point"}, "id": "z48Yg7Scs226Zv4LrP7rZNNFvv0=", "properties": {"@source_uri": "https://tools.usps.com/UspsToolsRestServices/rest/POLocator/findLocations", "@spider": "usps_collection_boxes", "addr:city": "BROOKSTON", "addr:country": "US", "addr:postcode": "47923", "addr:state": "IN", "addr:street_address": "205 S SOUTH ST", "amenity": "post_box", "collection_times": "Mo-Fr 16:00; Sa 11:00", "indoor": "yes", "note": "ON 12/24 AND 12/31, THIS BOX MAY BE COLLECTED AS EARLY AS 12 NOON.", "nsi_id": "unitedstatespostalservice-a77078", "operator": "United States Postal Service", "operator:short": "USPS", "operator:type": "public", "operator:wikidata": "Q668687", "ref": "4792300003"}, "type": "Feature"}
{"geometry": {"coordinates": [-86.7619655623, 40.4877151882], "type": "Point"}, "id": "aWlscPU3fvinwKNyw_12ezcQ2es=", "properties": {"@source_uri": "https://tools.usps.com/UspsToolsRestServices/rest/POLocator/findLocations", "@spider": "usps_collection_boxes", "addr:city": "BUCK CREEK", "addr:country": "US", "addr:postcode": "47924", "addr:state": "IN", "addr:street_address": "7424 RAILROAD ST", "amenity": "post_box", "collection_times": "Mo-Fr 16:15; Sa 10:45", "note": "ON 12/24 AND 12/31, THIS BOX MAY BE COLLECTED AS EARLY AS 12 NOON.", "nsi_id": "unitedstatespostalservice-a77078", "operator": "United States Postal Service", "operator:short": "USPS", "operator:type": "public", "operator:wikidata": "Q668687", "ref": "4792400004"}, "type": "Feature"}
{"geometry": {"coordinates": [-86.7619655623, 40.4877151882], "type": "Point"}, "id": "TPYYajZ6OOroXE0d6o617LWPY5s=", "properties": {"@source_uri": "https://tools.usps.com/UspsToolsRestServices/rest/POLocator/findLocations", "@spider": "usps_collection_boxes", "addr:city": "BUCK CREEK", "addr:country": "US", "addr:postcode": "47924", "addr:state": "IN", "addr:street_address": "7424 RAILROAD ST", "amenity": "post_box", "collection_times": "Mo-Fr 16:15; Sa 10:45", "indoor": "yes", "note": "ON 12/24 AND 12/31, THIS BOX MAY BE COLLECTED AS EARLY AS 12 NOON.", "nsi_id": "unitedstatespostalservice-a77078", "operator": "United States Postal Service", "operator:short": "USPS", "operator:type": "public", "operator:wikidata": "Q668687", "ref": "4792400005"}, "type": "Feature"}
{"geometry": {"coordinates": [-86.7619655623, 40.4877151882], "type": "Point"}, "id": "SIYR9eKhwLQoYflD54OZmUGWxJs=", "properties": {"@source_uri": "https://tools.usps.com/UspsToolsRestServices/rest/POLocator/findLocations", "@spider": "usps_collection_boxes", "addr:city": "BUCK CREEK", "addr:country": "US", "addr:postcode": "47924", "addr:state": "IN", "addr:street_address": "7424 RAILROAD ST", "amenity": "post_box", "collection_times": "Mo-Fr 16:30; Sa 11:00", "indoor": "yes", "note": "ON 12/24 AND 12/31, THIS BOX MAY BE COLLECTED AS EARLY AS 12 NOON.", "nsi_id": "unitedstatespostalservice-a77078", "operator": "United States Postal Service", "operator:short": "USPS", "operator:type": "public", "operator:wikidata": "Q668687", "ref": "4792400006"}, "type": "Feature"}
{"geometry": {"coordinates": [-86.745406356, 40.883247], "type": "Point"}, "id": "eZgKAtvkjhEXXECBZe-Y6aurUzE=", "properties": {"@source_uri": "https://tools.usps.com/UspsToolsRestServices/rest/POLocator/findLocations", "@spider": "usps_collection_boxes", "addr:city": "BUFFALO", "addr:country": "US", "addr:postcode": "47925", "addr:state": "IN", "addr:street_address": "104 S MIDDLE ST", "amenity": "post_box", "collection_times": "Mo-Fr 16:30; Sa 10:30", "note": "ON 12/24 AND 12/31, THIS BOX MAY BE COLLECTED AS EARLY AS 12 NOON.", "nsi_id": "unitedstatespostalservice-a77078", "operator": "United States Postal Service", "operator:short": "USPS", "operator:type": "public", "operator:wikidata": "Q668687", "ref": "4792500001"}, "type": "Feature"}
{"geometry": {"coordinates": [-86.745406356, 40.883247], "type": "Point"}, "id": "AU1K09eFkp3bPejdity5KpAvW7E=", "properties": {"@source_uri": "https://tools.usps.com/UspsToolsRestServices/rest/POLocator/findLocations", "@spider": "usps_collection_boxes", "addr:city": "BUFFALO", "addr:country": "US", "addr:postcode": "47925", "addr:state": "IN", "addr:street_address": "104 S MIDDLE ST", "amenity": "post_box", "collection_times": "Mo-Fr 12:00; Sa 10:30", "indoor": "yes", "nsi_id": "unitedstatespostalservice-a77078", "operator": "United States Postal Service", "operator:short": "USPS", "operator:type": "public", "operator:wikidata": "Q668687", "ref": "4792500002"}, "type": "Feature"}
{"geometry": {"coordinates": [-86.745406356, 40.883247], "type": "Point"}, "id": "iabtFVsnaPbmCGJSyJtDuwSI2iU=", "properties": {"@source_uri": "https://tools.usps.com/UspsToolsRestServices/rest/POLocator/findLocations", "@spider": "usps_collection_boxes", "addr:city": "BUFFALO", "addr:country": "US", "addr:postcode": "47925", "addr:state": "IN", "addr:street_address": "104 S MIDDLE ST", "amenity": "post_box", "collection_times": "Mo-Fr 12:00; Sa 10:30", "indoor": "yes", "nsi_id": "unitedstatespostalservice-a77078", "operator": "United States Postal Service", "operator:short": "USPS", "operator:type": "public", "operator:wikidata": "Q668687", "ref": "4792500003"}, "type": "Feature"}
{"geometry": {"coordinates": [-86.592364436, 40.762649777], "type": "Point"}, "id": "sjmADJSPx58UUgmZz76CcR3LxN8=", "properties": {"@source_uri": "https://tools.usps.com/UspsToolsRestServices/rest/POLocator/findLocations", "@spider": "usps_collection_boxes", "addr:city": "BURNETTSVILLE", "addr:country": "US", "addr:postcode": "47926", "addr:state": "IN", "addr:street_address": "310 LOGAN ST", "amenity": "post_box", "collection_times": "Mo-Fr 16:00; Sa 10:30", "note": "ON 12/24 AND 12/31, THIS BOX MAY BE COLLECTED AS EARLY AS 12 NOON.", "nsi_id": "unitedstatespostalservice-a77078", "operator": "United States Postal Service", "operator:short": "USPS", "operator:type": "public", "operator:wikidata": "Q668687", "ref": "4792600001"}, "type": "Feature"}
{"geometry": {"coordinates": [-86.592364436, 40.762649777], "type": "Point"}, "id": "0FYUa_hiFLbt0ikbuDzIKO0Px6Y=", "properties": {"@source_uri": "https://tools.usps.com/UspsToolsRestServices/rest/POLocator/findLocations", "@spider": "usps_collection_boxes", "addr:city": "BURNETTSVILLE", "addr:country": "US", "addr:postcode": "47926", "addr:state": "IN", "addr:street_address": "310 LOGAN ST", "amenity": "post_box", "collection_times": "Mo-Fr 11:45; Sa 10:30", "indoor": "yes", "nsi_id": "unitedstatespostalservice-a77078", "operator": "United States Postal Service", "operator:short": "USPS", "operator:type": "public", "operator:wikidata": "Q668687", "ref": "4792600002"}, "type": "Feature"}
{"geometry": {"coordinates": [-86.592364436, 40.762649777], "type": "Point"}, "id": "tOFcxT-RuvS1xbFySY8CHPfbOdU=", "properties": {"@source_uri": "https://tools.usps.com/UspsToolsRestServices/rest/POLocator/findLocations", "@spider": "usps_collection_boxes", "addr:city": "BURNETTSVILLE", "addr:country": "US", "addr:postcode": "47926", "addr:state": "IN", "addr:street_address": "310 LOGAN ST", "amenity": "post_box", "collection_times": "Mo-Fr 12:00; Sa 10:30", "indoor": "yes", "nsi_id": "unitedstatespostalservice-a77078", "operator": "United States Postal Service", "operator:short": "USPS", "operator:type": "public", "operator:wikidata": "Q668687", "ref": "4792600003"}, "type": "Feature"}
{"geometry": {"coordinates": [-87.462609524, 39.94950406], "type": "Point"}, "id": "otPtfmuppSPFjfu4kFxkx7QPq1E=", "properties": {"@source_uri": "https://tools.usps.com/UspsToolsRestServices/rest/POLocator/findLocations", "@spider": "usps_collection_boxes", "addr:city": "CAYUGA", "addr:country": "US", "addr:postcode": "47928", "addr:state": "IN", "addr:street_address": "200 W CURTIS ST", "amenity": "post_box", "collection_times": "Mo-Fr 16:00; Sa 11:15", "note": "ON 12/24 AND 12/31, THIS BOX MAY BE COLLECTED AS EARLY AS 12 NOON.", "nsi_id": "unitedstatespostalservice-a77078", "operator": "United States Postal Service", "operator:short": "USPS", "operator:type": "public", "operator:wikidata": "Q668687", "ref": "4792800001"}, "type": "Feature"}
{"geometry": {"coordinates": [-87.462609524, 39.94950406], "type": "Point"}, "id": "wzHeIOZ5s_znuS4TW5MzUHFZlGk=", "properties": {"@source_uri": "https://tools.usps.com/UspsToolsRestServices/rest/POLocator/findLocations", "@spider": "usps_collection_boxes", "addr:city": "CAYUGA", "addr:country": "US", "addr:postcode": "47928", "addr:state": "IN", "addr:street_address": "200 W CURTIS ST", "amenity": "post_box", "collection_times": "Mo-Fr 16:00; Sa 11:15", "indoor": "yes", "note": "ON 12/24 AND 12/31, THIS BOX MAY BE COLLECTED AS EARLY AS 12 NOON.", "nsi_id": "unitedstatespostalservice-a77078", "operator": "United States Postal Service", "operator:short": "USPS", "operator:type": "public", "operator:wikidata": "Q668687", "ref": "4792800002"}, "type": "Feature"}
{"geometry": {"coordinates": [-87.462609524, 39.94950406], "type": "Point"}, "id": "Eg9mGxZFTvwWpV5zrChSex88fJE=", "properties": {"@source_uri": "https://tools.usps.com/UspsToolsRestServices/rest/POLocator/findLocations", "@spider": "usps_collection_boxes", "addr:city": "CAYUGA", "addr:country": "US", "addr:postcode": "47928", "addr:state": "IN", "addr:street_address": "200 W CURTIS ST", "amenity": "post_box", "collection_times": "Mo-Fr 16:00; Sa 11:00", "indoor": "yes", "note": "ON 12/24 AND 12/31, THIS BOX MAY BE COLLECTED AS EARLY AS 12 NOON.", "nsi_id": "unitedstatespostalservice-a77078", "operator": "United States Postal Service", "operator:short": "USPS", "operator:type": "public", "operator:wikidata": "Q668687", "ref": "4792800003"}, "type": "Feature"}
{"geometry": {"coordinates": [-86.869142277, 40.662146482], "type": "Point"}, "id": "x-MWSsiajijlmNxJwPoWqtzpwUQ=", "properties": {"@source_uri": "https://tools.usps.com/UspsToolsRestServices/rest/POLocator/findLocations", "@spider": "usps_collection_boxes", "addr:city": "CHALMERS", "addr:country": "US", "addr:postcode": "47929", "addr:state": "IN", "addr:street_address": "108 E MAIN ST", "amenity": "post_box", "collection_times": "Mo-Fr 15:45; Sa 10:45", "note": "ON 12/24 AND 12/31, THIS BOX MAY BE COLLECTED AS EARLY AS 12 NOON.", "nsi_id": "unitedstatespostalservice-a77078", "operator": "United States Postal Service", "operator:short": "USPS", "operator:type": "public", "operator:wikidata": "Q668687", "ref": "4792900001"}, "type": "Feature"}
{"geometry": {"coordinates": [-86.869142277, 40.662146482], "type": "Point"}, "id": "RsmNtPp8ZayFia88cy_xScCG1GM=", "properties": {"@source_uri": "https://tools.usps.com/UspsToolsRestServices/rest/POLocator/findLocations", "@spider": "usps_collection_boxes", "addr:city": "CHALMERS", "addr:country": "US", "addr:postcode": "47929", "addr:state": "IN", "addr:street_address": "108 E MAIN ST", "amenity": "post_box", "collection_times": "Mo-Fr 11:45; Sa 10:45", "indoor": "yes", "nsi_id": "unitedstatespostalservice-a77078", "operator": "United States Postal Service", "operator:short": "USPS", "operator:type": "public", "operator:wikidata": "Q668687", "ref": "4792900002"}, "type": "Feature"}
{"geometry": {"coordinates": [-86.869142277, 40.662146482], "type": "Point"}, "id": "3hlJmTerxYyRCdzFK1oSKyPNdMo=", "properties": {"@source_uri": "https://tools.usps.com/UspsToolsRestServices/rest/POLocator/findLocations", "@spider": "usps_collection_boxes", "addr:city": "CHALMERS", "addr:country": "US", "addr:postcode": "47929", "addr:state": "IN", "addr:street_address": "108 E MAIN ST", "amenity": "post_box", "collection_times": "Mo-Fr 12:00; Sa 10:30", "indoor": "yes", "nsi_id": "unitedstatespostalservice-a77078", "operator": "United States Postal Service", "operator:short": "USPS", "operator:type": "public", "operator:wikidata": "Q668687", "ref": "4792900003"}, "type": "Feature"}
{"geometry": {"coordinates": [-86.724550297, 40.2474558], "type": "Point"}, "id": "0WZrSB5oKTb9Ac7TSM3tYIy23yk=", "properties": {"@source_uri": "https://tools.usps.com/UspsToolsRestServices/rest/POLocator/findLocations", "@spider": "usps_collection_boxes", "addr:city": "CLARKS HILL", "addr:country": "US", "addr:postcode": "47930", "addr:state": "IN", "addr:street_address": "11750 CLARK ST", "amenity": "post_box", "collection_times": "Mo-Fr 16:00; Sa 10:30", "note": "ON 12/24 AND 12/31, THIS BOX MAY BE COLLECTED AS EARLY AS 12 NOON.", "nsi_id": "unitedstatespostalservice-a77078", "operator": "United States Postal Service", "operator:short": "USPS", "operator:type": "public", "operator:wikidata": "Q668687", "ref": "4793000001"}, "type": "Feature"}
{"geometry": {"coordinates": [-86.724550297, 40.2474558], "type": "Point"}, "id": "W-1tvP_U0nmeAZ9wGDdiaAcd3-Y=", "properties": {"@source_uri": "https://tools.usps.com/UspsToolsRestServices/rest/POLocator/findLocations", "@spider": "usps_collection_boxes", "addr:city": "CLARKS HILL", "addr:country": "US", "addr:postcode": "47930", "addr:state": "IN", "addr:street_address": "11750 CLARK ST", "amenity": "post_box", "collection_times": "Mo-Fr 12:00; Sa 10:30", "indoor": "yes", "nsi_id": "unitedstatespostalservice-a77078", "operator": "United States Postal Service", "operator:short": "USPS", "operator:type": "public", "operator:wikidata": "Q668687", "ref": "4793000002"}, "type": "Feature"}
{"geometry": {"coordinates": [-86.724550297, 40.2474558], "type": "Point"}, "id": "At237GKydTjju5e9I7JYa4ymJ9M=", "properties": {"@source_uri": "https://tools.usps.com/UspsToolsRestServices/rest/POLocator/findLocations", "@spider": "usps_collection_boxes", "addr:city": "CLARKS HILL", "addr:country": "US", "addr:postcode": "47930", "addr:state": "IN", "addr:street_address": "11750 CLARK ST", "amenity": "post_box", "collection_times": "Mo-Fr 12:00; Sa 10:30", "indoor": "yes", "nsi_id": "unitedstatespostalservice-a77078", "operator": "United States Postal Service", "operator:short": "USPS", "operator:type": "public", "operator:wikidata": "Q668687", "ref": "4793000003"}, "type": "Feature"}
{"geometry": {"coordinates": [-87.395429882, 40.136824689], "type": "Point"}, "id": "0_DsNSkEO5tkdxhsIOuXIEgKiFY=", "properties": {"@source_uri": "https://tools.usps.com/UspsToolsRestServices/rest/POLocator/findLocations", "@spider": "usps_collection_boxes", "addr:city": "COVINGTON", "addr:country": "US", "addr:postcode": "47932", "addr:state": "IN", "addr:street_address": "418 LIBERTY ST", "amenity": "post_box", "collection_times": "Mo-Fr 16:00; Sa 11:30", "indoor": "yes", "note": "ON 12/24 AND 12/31, THIS BOX MAY BE COLLECTED AS EARLY AS 12 NOON.", "nsi_id": "unitedstatespostalservice-a77078", "operator": "United States Postal Service", "operator:short": "USPS", "operator:type": "public", "operator:wikidata": "Q668687", "ref": "4793200001"}, "type": "Feature"}
{"geometry": {"coordinates": [-87.4507716, 40.12284], "type": "Point"}, "id": "V6g5vWTTC59U3MlRckEVjhc9YJc=", "properties": {"@source_uri": "https://tools.usps.com/UspsToolsRestServices/rest/POLocator/findLocations", "@spider": "usps_collection_boxes", "addr:city": "COVINGTON", "addr:country": "US", "addr:postcode": "47932", "addr:state": "IN", "addr:street_address": "16502 N STATE ROAD 63", "amenity": "post_box", "collection_times": "Mo-Sa 13:00", "note": "ON 12/24 AND 12/31, THIS BOX MAY BE COLLECTED AS EARLY AS 12 NOON.", "nsi_id": "unitedstatespostalservice-a77078", "operator": "United States Postal Service", "operator:short": "USPS", "operator:type": "public", "operator:wikidata": "Q668687", "ref": "4793200003"}, "type": "Feature"}
{"geometry": {"coordinates": [-87.3970392, 40.136846], "type": "Point"}, "id": "MscNDA82JUWh4q5Dgnb0Y0RMuvc=", "properties": {"@source_uri": "https://tools.usps.com/UspsToolsRestServices/rest/POLocator/findLocations", "@spider": "usps_collection_boxes", "addr:city": "COVINGTON", "addr:country": "US", "addr:postcode": "47932", "addr:state": "IN", "addr:street_address": "301 4TH ST", "amenity": "post_box", "collection_times": "Mo-Fr 14:45; Sa 15:00", "note": "ON 12/24 AND 12/31, THIS BOX MAY BE COLLECTED AS EARLY AS 12 NOON.", "nsi_id": "unitedstatespostalservice-a77078", "operator": "United States Postal Service", "operator:short": "USPS", "operator:type": "public", "operator:wikidata": "Q668687", "ref": "4793200005"}, "type": "Feature"}
{"geometry": {"coordinates": [-87.395429882, 40.136824689], "type": "Point"}, "id": "P8_OlpmYftlbWGjSwlqJ5l9s9vc=", "properties": {"@source_uri": "https://tools.usps.com/UspsToolsRestServices/rest/POLocator/findLocations", "@spider": "usps_collection_boxes", "addr:city": "COVINGTON", "addr:country": "US", "addr:postcode": "47932", "addr:state": "IN", "addr:street_address": "418 LIBERTY ST", "amenity": "post_box", "collection_times": "Mo-Sa 16:00", "note": "ON 12/24 AND 12/31, THIS BOX MAY BE COLLECTED AS EARLY AS 12 NOON.", "nsi_id": "unitedstatespostalservice-a77078", "operator": "United States Postal Service", "operator:short": "USPS", "operator:type": "public", "operator:wikidata": "Q668687", "ref": "4793200006"}, "type": "Feature"}
{"geometry": {"coordinates": [-87.395429882, 40.136824689], "type": "Point"}, "id": "kCJhYZDe4zLdlPXHng5HUcDbEFM=", "properties": {"@source_uri": "https://tools.usps.com/UspsToolsRestServices/rest/POLocator/findLocations", "@spider": "usps_collection_boxes", "addr:city": "COVINGTON", "addr:country": "US", "addr:postcode": "47932", "addr:state": "IN", "addr:street_address": "418 LIBERTY ST", "amenity": "post_box", "collection_times": "Mo-Fr 16:30; Sa 11:30", "indoor": "yes", "note": "ON 12/24 AND 12/31, THIS BOX MAY BE COLLECTED AS EARLY AS 12 NOON.", "nsi_id": "unitedstatespostalservice-a77078", "operator": "United States Postal Service", "operator:short": "USPS", "operator:type": "public", "operator:wikidata": "Q668687", "ref": "4793200008"}, "type": "Feature"}
{"geometry": {"coordinates": [-86.9030689, 40.041627], "type": "Point"}, "id": "e1H_hoWXevsy9bOft2I6iQZO8iw=", "properties": {"@source_uri": "https://tools.usps.com/UspsToolsRestServices/rest/POLocator/findLocations", "@spider": "usps_collection_boxes", "addr:city": "CRAWFORDSVILLE", "addr:country": "US", "addr:postcode": "47933", "addr:state": "IN", "addr:street_address": "201 W MAIN ST", "amenity": "post_box", "collection_times": "Mo-Fr 14:30; Sa 12:00", "note": "ON 12/24 AND 12/31, THIS BOX MAY BE COLLECTED AS EARLY AS 12 NOON.", "nsi_id": "unitedstatespostalservice-a77078", "operator": "United States Postal Service", "operator:short": "USPS", "operator:type": "public", "operator:wikidata": "Q668687", "ref": "4793300005"}, "type": "Feature"}
{"geometry": {"coordinates": [-86.9008216, 40.022948], "type": "Point"}, "id": "00lK8-aVJlDqKK3jpLBdwcX7dEQ=", "properties": {"@source_uri": "https://tools.usps.com/UspsToolsRestServices/rest/POLocator/findLocations", "@spider": "usps_collection_boxes", "addr:city": "CRAWFORDSVILLE", "addr:country": "US", "addr:postcode": "47933", "addr:state": "IN", "addr:street_address": "1600 CRAWFORDSVILLE SQUARE DR", "amenity": "post_box", "collection_times": "Mo-Fr 14:30; Sa 12:00", "note": "ON 12/24 AND 12/31, THIS BOX MAY BE COLLECTED AS EARLY AS 12 NOON.", "nsi_id": "unitedstatespostalservice-a77078", "operator": "United States Postal Service", "operator:short": "USPS", "operator:type": "public", "operator:wikidata": "Q668687", "ref": "4793300012"}, "type": "Feature"}
{"geometry": {"coordinates": [-86.898042, 40.041754479], "type": "Point"}, "id": "CERH_gYxTavILEiKMc1psJ9IsOw=", "properties": {"@source_uri": "https://tools.usps.com/UspsToolsRestServices/rest/POLocator/findLocations", "@spider": "usps_collection_boxes", "addr:city": "CRAWFORDSVILLE", "addr:country": "US", "addr:postcode": "47933", "addr:state": "IN", "addr:street_address": "300 E MAIN ST", "amenity": "post_box", "collection_times": "Mo-Fr 17:00; Sa 16:00", "note": "ON 12/24 AND 12/31, THIS BOX MAY BE COLLECTED AS EARLY AS 12 NOON.", "nsi_id": "unitedstatespostalservice-a77078", "operator": "United States Postal Service", "operator:short": "USPS", "operator:type": "public", "operator:wikidata": "Q668687", "ref": "4793300017"}, "type": "Feature"}
{"geometry": {"coordinates": [-86.8952153, 40.023834], "type": "Point"}, "id": "wbfUk1E7ZTW7-9RMxjGbQ4I7WRs=", "properties": {"@source_uri": "https://tools.usps.com/UspsToolsRestServices/rest/POLocator/findLocations", "@spider": "usps_collection_boxes", "addr:city": "CRAWFORDSVILLE", "addr:country": "US", "addr:postcode": "47933", "addr:state": "IN", "addr:street_address": "451 E SOUTH BLVD", "amenity": "post_box", "collection_times": "Mo-Fr 14:30; Sa 12:00", "note": "ON 12/24 AND 12/31, THIS BOX MAY BE COLLECTED AS EARLY AS 12 NOON.", "nsi_id": "unitedstatespostalservice-a77078", "operator": "United States Postal Service", "operator:short": "USPS", "operator:type": "public", "operator:wikidata": "Q668687", "ref": "4793300027"}, "type": "Feature"}
{"geometry": {"coordinates": [-86.898042, 40.041754479], "type": "Point"}, "id": "fdmJXq28TrWITm4C7Q-O6sQFn_Q=", "properties": {"@source_uri": "https://tools.usps.com/UspsToolsRestServices/rest/POLocator/findLocations", "@spider": "usps_collection_boxes", "addr:city": "CRAWFORDSVILLE", "addr:country": "US", "addr:postcode": "47933", "addr:state": "IN", "addr:street_address": "300 E MAIN ST", "amenity": "post_box", "collection_times": "Mo-Fr 17:00; Sa 16:00", "indoor": "yes", "note": "ON 12/24 AND 12/31, THIS BOX MAY BE COLLECTED AS EARLY AS 12 NOON.", "nsi_id": "unitedstatespostalservice-a77078", "operator": "United States Postal Service", "operator:short": "USPS", "operator:type": "public", "operator:wikidata": "Q668687", "ref": "4793300028"}, "type": "Feature"}
{"geometry": {"coordinates": [-86.8737605, 40.039314], "type": "Point"}, "id": "p_zY2-YzEpETDROt4-hAEtYysoM=", "properties": {"@source_uri": "https://tools.usps.com/UspsToolsRestServices/rest/POLocator/findLocations", "@spider": "usps_collection_boxes", "addr:city": "CRAWFORDSVILLE", "addr:country": "US", "addr:postcode": "47933", "addr:state": "IN", "addr:street_address": "1700 E MAIN ST", "amenity": "post_box", "collection_times": "Mo-Fr 14:30; Sa 12:00", "note": "ON 12/24 AND 12/31, THIS BOX MAY BE COLLECTED AS EARLY AS 12 NOON.", "nsi_id": "unitedstatespostalservice-a77078", "operator": "United States Postal Service", "operator:short": "USPS", "operator:type": "public", "operator:wikidata": "Q668687", "ref": "4793300032"}, "type": "Feature"}
{"geometry": {"coordinates": [-86.8787434, 40.047918], "type": "Point"}, "id": "IbXEak9LSE0QNAXlXIIm_-zoeoc=", "properties": {"@source_uri": "https://tools.usps.com/UspsToolsRestServices/rest/POLocator/findLocations", "@spider": "usps_collection_boxes", "addr:city": "CRAWFORDSVILLE", "addr:country": "US", "addr:postcode": "47933", "addr:state": "IN", "addr:street_address": "1440 DARLINGTON AVE", "amenity": "post_box", "collection_times": "Mo-Fr 14:30; Sa 12:00", "note": "ON 12/24 AND 12/31, THIS BOX MAY BE COLLECTED AS EARLY AS 12 NOON.", "nsi_id": "unitedstatespostalservice-a77078", "operator": "United States Postal Service", "operator:short": "USPS", "operator:type": "public", "operator:wikidata": "Q668687", "ref": "4793300036"}, "type": "Feature"}
{"geometry": {"coordinates": [-86.900862861, 40.041733472], "type": "Point"}, "id": "aoRw3fO10GeyGeUbsy4MEp7z0Fs=", "properties": {"@source_uri": "https://tools.usps.com/UspsToolsRestServices/rest/POLocator/findLocations", "@spider": "usps_collection_boxes", "addr:city": "CRAWFORDSVILLE", "addr:country": "US", "addr:postcode": "47933", "addr:state": "IN", "addr:street_address": "100 E MAIN ST", "amenity": "post_box", "collection_times": "Mo-Fr 14:30; Sa 12:00", "note": "ON 12/24 AND 12/31, THIS BOX MAY BE COLLECTED AS EARLY AS 12 NOON.", "nsi_id": "unitedstatespostalservice-a77078", "operator": "United States Postal Service", "operator:short": "USPS", "operator:type": "public", "operator:wikidata": "Q668687", "ref": "4793300037"}, "type": "Feature"}
{"geometry": {"coordinates": [-86.898042, 40.041754479], "type": "Point"}, "id": "e3wAyreLtGZN7T57MCnAkgGky9c=", "properties": {"@source_uri": "https://tools.usps.com/UspsToolsRestServices/rest/POLocator/findLocations", "@spider": "usps_collection_boxes", "addr:city": "CRAWFORDSVILLE", "addr:country": "US", "addr:postcode": "47933", "addr:state": "IN", "addr:street_address": "300 E MAIN ST", "amenity": "post_box", "collection_times": "Mo-Fr 17:00; Sa 16:00", "indoor": "yes", "note": "ON 12/24 AND 12/31, THIS BOX MAY BE COLLECTED AS EARLY AS 12 NOON.", "nsi_id": "unitedstatespostalservice-a77078", "operator": "United States Postal Service", "operator:short": "USPS", "operator:type": "public", "operator:wikidata": "Q668687", "ref": "4793300039"}, "type": "Feature"}
{"geometry": {"coordinates": [-86.898042, 40.041754479], "type": "Point"}, "id": "sLmp0dtlvkDnh2xEV9D3bOqS0yk=", "properties": {"@source_uri": "https://tools.usps.com/UspsToolsRestServices/rest/POLocator/findLocations", "@spider": "usps_collection_boxes", "addr:city": "CRAWFORDSVILLE", "addr:country": "US", "addr:postcode": "47933", "addr:state": "IN", "addr:street_address": "300 E MAIN ST", "amenity": "post_box", "collection_times": "Mo-Fr 17:00; Sa 12:00", "indoor": "yes", "note": "ON 12/24 AND 12/31, THIS BOX MAY BE COLLECTED AS EARLY AS 12 NOON.", "nsi_id": "unitedstatespostalservice-a77078", "operator": "United States Postal Service", "operator:short": "USPS", "operator:type": "public", "operator:wikidata": "Q668687", "ref": "4793300042"}, "type": "Feature"}
{"geometry": {"coordinates": [-86.776812388, 40.109741488], "type": "Point"}, "id": "9zAJ8THRzUXdwKv0SmK7gUd2bRE=", "properties": {"@source_uri": "https://tools.usps.com/UspsToolsRestServices/rest/POLocator/findLocations", "@spider": "usps_collection_boxes", "addr:city": "DARLINGTON", "addr:country": "US", "addr:postcode": "47940", "addr:state": "IN", "addr:street_address": "215 W MAIN ST", "amenity": "post_box", "collection_times": "Mo-Fr 15:30; Sa 10:30", "note": "ON 12/24 AND 12/31, THIS BOX MAY BE COLLECTED AS EARLY AS 12 NOON.", "nsi_id": "unitedstatespostalservice-a77078", "operator": "United States Postal Service", "operator:short": "USPS", "operator:type": "public", "operator:wikidata": "Q668687", "ref": "4794000001"}, "type": "Feature"}
{"geometry": {"coordinates": [-86.776812388, 40.109741488], "type": "Point"}, "id": "kRrxdZVhNiaUBibUdjblyjRRD3o=", "properties": {"@source_uri": "https://tools.usps.com/UspsToolsRestServices/rest/POLocator/findLocations", "@spider": "usps_collection_boxes", "addr:city": "DARLINGTON", "addr:country": "US", "addr:postcode": "47940", "addr:state": "IN", "addr:street_address": "215 W MAIN ST", "amenity": "post_box", "collection_times": "Mo-Fr 15:30; Sa 10:30", "indoor": "yes", "note": "ON 12/24 AND 12/31, THIS BOX MAY BE COLLECTED AS EARLY AS 12 NOON.", "nsi_id": "unitedstatespostalservice-a77078", "operator": "United States Postal Service", "operator:short": "USPS", "operator:type": "public", "operator:wikidata": "Q668687", "ref": "4794000002"}, "type": "Feature"}
{"geometry": {"coordinates": [-86.776812388, 40.109741488], "type": "Point"}, "id": "iQjcJybT9KuWO9USQEG-dnIGyBs=", "properties": {"@source_uri": "https://tools.usps.com/UspsToolsRestServices/rest/POLocator/findLocations", "@spider": "usps_collection_boxes", "addr:city": "DARLINGTON", "addr:country": "US", "addr:postcode": "47940", "addr:state": "IN", "addr:street_address": "215 W MAIN ST", "amenity": "post_box", "collection_times": "Mo-Fr 15:30; Sa 10:30", "indoor": "yes", "note": "ON 12/24 AND 12/31, THIS BOX MAY BE COLLECTED AS EARLY AS 12 NOON.", "nsi_id": "unitedstatespostalservice-a77078", "operator": "United States Postal Service", "operator:short": "USPS", "operator:type": "public", "operator:wikidata": "Q668687", "ref": "4794000003"}, "type": "Feature"}
{"geometry": {"coordinates": [-86.7680749701, 40.3741639901], "type": "Point"}, "id": "1WKsLpAtiTlIe2p-FJsW4EqysjU=", "properties": {"@source_uri": "https://tools.usps.com/UspsToolsRestServices/rest/POLocator/findLocations", "@spider": "usps_collection_boxes", "addr:city": "DAYTON", "addr:country": "US", "addr:postcode": "47941", "addr:state": "IN", "addr:street_address": "726 WALNUT ST", "amenity": "post_box", "collection_times": "Mo-Fr 16:00; Sa 11:30", "note": "ON 12/24 AND 12/31, THIS BOX MAY BE COLLECTED AS EARLY AS 12 NOON.", "nsi_id": "unitedstatespostalservice-a77078", "operator": "United States Postal Service", "operator:short": "USPS", "operator:type": "public", "operator:wikidata": "Q668687", "ref": "4794100001"}, "type": "Feature"}
{"geometry": {"coordinates": [-86.768060223, 40.374042464], "type": "Point"}, "id": "cSxRIXBicfOmTBpdNwkm3aAz0gI=", "properties": {"@source_uri": "https://tools.usps.com/UspsToolsRestServices/rest/POLocator/findLocations", "@spider": "usps_collection_boxes", "addr:city": "DAYTON", "addr:country": "US", "addr:postcode": "47941", "addr:state": "IN", "addr:street_address": "726 WALNUT ST", "amenity": "post_box", "collection_times": "Mo-Fr 15:45; Sa 11:30", "indoor": "yes", "note": "ON 12/24 AND 12/31, THIS BOX MAY BE COLLECTED AS EARLY AS 12 NOON.", "nsi_id": "unitedstatespostalservice-a77078", "operator": "United States Postal Service", "operator:short": "USPS", "operator:type": "public", "operator:wikidata": "Q668687", "ref": "4794100002"}, "type": "Feature"}
{"geometry": {"coordinates": [-86.768060223, 40.374042464], "type": "Point"}, "id": "FJNHBwLLUvJ5GP5ET-BlcYjEpqw=", "properties": {"@source_uri": "https://tools.usps.com/UspsToolsRestServices/rest/POLocator/findLocations", "@spider": "usps_collection_boxes", "addr:city": "DAYTON", "addr:country": "US", "addr:postcode": "47941", "addr:state": "IN", "addr:street_address": "726 WALNUT ST", "amenity": "post_box", "collection_times": "Mo-Fr 16:00; Sa 11:30", "indoor": "yes", "note": "ON 12/24 AND 12/31, THIS BOX MAY BE COLLECTED AS EARLY AS 12 NOON.", "nsi_id": "unitedstatespostalservice-a77078", "operator": "United States Postal Service", "operator:short": "USPS", "operator:type": "public", "operator:wikidata": "Q668687", "ref": "4794100003"}, "type": "Feature"}
{"geometry": {"coordinates": [-87.414713, 40.683838], "type": "Point"}, "id": "z_X-ehOborD2DxROMI14MGmBnW0=", "properties": {"@source_uri": "https://tools.usps.com/UspsToolsRestServices/rest/POLocator/findLocations", "@spider": "usps_collection_boxes", "addr:city": "EARL PARK", "addr:country": "US", "addr:postcode": "47942", "addr:state": "IN", "addr:street_address": "106 E 5TH ST", "amenity": "post_box", "collection_times": "Mo-Fr 15:45; Sa 10:30", "note": "ON 12/24 AND 12/31, THIS BOX MAY BE COLLECTED AS EARLY AS 12 NOON.", "nsi_id": "unitedstatespostalservice-a77078", "operator": "United States Postal Service", "operator:short": "USPS", "operator:type": "public", "operator:wikidata": "Q668687", "ref": "4794200000"}, "type": "Feature"}
{"geometry": {"coordinates": [-87.414712, 40.683835], "type": "Point"}, "id": "v_qU0NO0_xtkqtFbyiehUVscRTU=", "properties": {"@source_uri": "https://tools.usps.com/UspsToolsRestServices/rest/POLocator/findLocations", "@spider": "usps_collection_boxes", "addr:city": "EARL PARK", "addr:country": "US", "addr:postcode": "47942", "addr:state": "IN", "addr:street_address": "106 E 5TH ST", "amenity": "post_box", "collection_times": "Mo-Fr 12:00; Sa 10:30", "indoor": "yes", "nsi_id": "unitedstatespostalservice-a77078", "operator": "United States Postal Service", "operator:short": "USPS", "operator:type": "public", "operator:wikidata": "Q668687", "ref": "4794200001"}, "type": "Feature"}
{"geometry": {"coordinates": [-87.41556, 40.683827496], "type": "Point"}, "id": "QjSNXjQ6fA7t013BMAh6wUlMjwQ=", "properties": {"@source_uri": "https://tools.usps.com/UspsToolsRestServices/rest/POLocator/findLocations", "@spider": "usps_collection_boxes", "addr:city": "EARL PARK", "addr:country": "US", "addr:postcode": "47942", "addr:state": "IN", "addr:street_address": "106 W 5TH ST", "amenity": "post_box", "collection_times": "Mo-Fr 12:00; Sa 10:30", "indoor": "yes", "nsi_id": "unitedstatespostalservice-a77078", "operator": "United States Postal Service", "operator:short": "USPS", "operator:type": "public", "operator:wikidata": "Q668687", "ref": "4794200002"}, "type": "Feature"}
{"geometry": {"coordinates": [-87.256856864, 41.074453027], "type": "Point"}, "id": "ka3Q-EzbJ5SpinTX7zvGMRU-p84=", "properties": {"@source_uri": "https://tools.usps.com/UspsToolsRestServices/rest/POLocator/findLocations", "@spider": "usps_collection_boxes", "addr:city": "FAIR OAKS", "addr:country": "US", "addr:postcode": "47943", "addr:state": "IN", "addr:street_address": "4250 KENT ST", "amenity": "post_box", "collection_times": "Mo-Fr 15:00; Sa 12:00", "note": "ON 12/24 AND 12/31, THIS BOX MAY BE COLLECTED AS EARLY AS 12 NOON.", "nsi_id": "unitedstatespostalservice-a77078", "operator": "United States Postal Service", "operator:short": "USPS", "operator:type": "public", "operator:wikidata": "Q668687", "ref": "4794300001"}, "type": "Feature"}
{"geometry": {"coordinates": [-87.256856864, 41.074453027], "type": "Point"}, "id": "FwuKyHuYAyonb-PMJbzjzjsbGKI=", "properties": {"@source_uri": "https://tools.usps.com/UspsToolsRestServices/rest/POLocator/findLocations", "@spider": "usps_collection_boxes", "addr:city": "FAIR OAKS", "addr:country": "US", "addr:postcode": "47943", "addr:state": "IN", "addr:street_address": "4250 KENT ST", "amenity": "post_box", "collection_times": "Mo-Fr 15:00; Sa 12:00", "indoor": "yes", "note": "ON 12/24 AND 12/31, THIS BOX MAY BE COLLECTED AS EARLY AS 12 NOON.", "nsi_id": "unitedstatespostalservice-a77078", "operator": "United States Postal Service", "operator:short": "USPS", "operator:type": "public", "operator:wikidata": "Q668687", "ref": "4794300002"}, "type": "Feature"}
{"geometry": {"coordinates": [-87.256856864, 41.074453027], "type": "Point"}, "id": "vNnPcajdgO1Dzgq0fqmYTpTgjE0=", "properties": {"@source_uri": "https://tools.usps.com/UspsToolsRestServices/rest/POLocator/findLocations", "@spider": "usps_collection_boxes", "addr:city": "FAIR OAKS", "addr:country": "US", "addr:postcode": "47943", "addr:state": "IN", "addr:street_address": "4250 KENT ST", "amenity": "post_box", "collection_times": "Mo-Fr 16:00; Sa 12:00", "indoor": "yes", "note": "ON 12/24 AND 12/31, THIS BOX MAY BE COLLECTED AS EARLY AS 12 NOON.", "nsi_id": "unitedstatespostalservice-a77078", "operator": "United States Postal Service", "operator:short": "USPS", "operator:type": "public", "operator:wikidata": "Q668687", "ref": "4794300003"}, "type": "Feature"}
{"geometry": {"coordinates": [-87.320970207, 40.616720044], "type": "Point"}, "id": "hwz967X3_Tq9gGhjmcJ-0T98juc=", "properties": {"@source_uri": "https://tools.usps.com/UspsToolsRestServices/rest/POLocator/findLocations", "@spider": "usps_collection_boxes", "addr:city": "FOWLER", "addr:country": "US", "addr:postcode": "47944", "addr:state": "IN", "addr:street_address": "114 S MADISON AVE", "amenity": "post_box", "collection_times": "Mo-Sa 16:15", "note": "ON 12/24 AND 12/31, THIS BOX MAY BE COLLECTED AS EARLY AS 12 NOON.", "nsi_id": "unitedstatespostalservice-a77078", "operator": "United States Postal Service", "operator:short": "USPS", "operator:type": "public", "operator:wikidata": "Q668687", "ref": "4794400002"}, "type": "Feature"}
{"geometry": {"coordinates": [-87.320970207, 40.616720044], "type": "Point"}, "id": "cI4h32hc69hnefOSvL0-6s_an-A=", "properties": {"@source_uri": "https://tools.usps.com/UspsToolsRestServices/rest/POLocator/findLocations", "@spider": "usps_collection_boxes", "addr:city": "FOWLER", "addr:country": "US", "addr:postcode": "47944", "addr:state": "IN", "addr:street_address": "114 S MADISON AVE", "amenity": "post_box", "collection_times": "Mo-Fr 16:15; Sa 11:30", "indoor": "yes", "note": "ON 12/24 AND 12/31, THIS BOX MAY BE COLLECTED AS EARLY AS 12 NOON.", "nsi_id": "unitedstatespostalservice-a77078", "operator": "United States Postal Service", "operator:short": "USPS", "operator:type": "public", "operator:wikidata": "Q668687", "ref": "4794400003"}, "type": "Feature"}
{"geometry": {"coordinates": [-87.320970207, 40.616720044], "type": "Point"}, "id": "YcqXY5wLP6U3Ld_krpS2eAngH6s=", "properties": {"@source_uri": "https://tools.usps.com/UspsToolsRestServices/rest/POLocator/findLocations", "@spider": "usps_collection_boxes", "addr:city": "FOWLER", "addr:country": "US", "addr:postcode": "47944", "addr:state": "IN", "addr:street_address": "114 S MADISON AVE", "amenity": "post_box", "collection_times": "Mo-Fr 16:15; Sa 11:30", "indoor": "yes", "note": "ON 12/24 AND 12/31, THIS BOX MAY BE COLLECTED AS EARLY AS 12 NOON.", "nsi_id": "unitedstatespostalservice-a77078", "operator": "United States Postal Service", "operator:short": "USPS", "operator:type": "public", "operator:wikidata": "Q668687", "ref": "4794400004"}, "type": "Feature"}
{"geometry": {"coordinates": [-87.320970207, 40.616720044], "type": "Point"}, "id": "LD7NPinTUohLt4V4BxZQA3Hn5NE=", "properties": {"@source_uri": "https://tools.usps.com/UspsToolsRestServices/rest/POLocator/findLocations", "@spider": "usps_collection_boxes", "addr:city": "FOWLER", "addr:country": "US", "addr:postcode": "47944", "addr:state": "IN", "addr:street_address": "114 S MADISON AVE", "amenity": "post_box", "collection_times": "Mo-Fr 16:30; Sa 11:00", "indoor": "yes", "note": "ON 12/24 AND 12/31, THIS BOX MAY BE COLLECTED AS EARLY AS 12 NOON.", "nsi_id": "unitedstatespostalservice-a77078", "operator": "United States Postal Service", "operator:short": "USPS", "operator:type": "public", "operator:wikidata": "Q668687", "ref": "4794400006"}, "type": "Feature"}
{"geometry": {"coordinates": [-86.881984132, 40.98456], "type": "Point"}, "id": "3B9F88JBX1ARAxqH5vSDa5vzifg=", "properties": {"@source_uri": "https://tools.usps.com/UspsToolsRestServices/rest/POLocator/findLocations", "@spider": "usps_collection_boxes", "addr:city": "FRANCESVILLE", "addr:country": "US", "addr:postcode": "47946", "addr:state": "IN", "addr:street_address": "122 S BILL ST", "amenity": "post_box", "collection_times": "Mo-Fr 15:45; Sa 11:00", "indoor": "yes", "note": "ON 12/24 AND 12/31, THIS BOX MAY BE COLLECTED AS EARLY AS 12 NOON.", "nsi_id": "unitedstatespostalservice-a77078", "operator": "United States Postal Service", "operator:short": "USPS", "operator:type": "public", "operator:wikidata": "Q668687", "ref": "4794600001"}, "type": "Feature"}
{"geometry": {"coordinates": [-86.881984132, 40.98456], "type": "Point"}, "id": "e4xB8eRS-wxExwTRAW-P4-t5m3s=", "properties": {"@source_uri": "https://tools.usps.com/UspsToolsRestServices/rest/POLocator/findLocations", "@spider": "usps_collection_boxes", "addr:city": "FRANCESVILLE", "addr:country": "US", "addr:postcode": "47946", "addr:state": "IN", "addr:street_address": "122 S BILL ST", "amenity": "post_box", "collection_times": "Mo-Fr 15:45; Sa 11:00", "indoor": "yes", "note": "ON 12/24 AND 12/31, THIS BOX MAY BE COLLECTED AS EARLY AS 12 NOON.", "nsi_id": "unitedstatespostalservice-a77078", "operator": "United States Postal Service", "operator:short": "USPS", "operator:type": "public", "operator:wikidata": "Q668687", "ref": "4794600002"}, "type": "Feature"}
{"geometry": {"coordinates": [-87.29495, 40.763387], "type": "Point"}, "id": "v8mSmGdrMVir3sYHIkceHemv8nk=", "properties": {"@source_uri": "https://tools.usps.com/UspsToolsRestServices/rest/POLocator/findLocations", "@spider": "usps_collection_boxes", "addr:city": "GOODLAND", "addr:country": "US", "addr:postcode": "47948", "addr:state": "IN", "addr:street_address": "122 W UNION ST", "amenity": "post_box", "collection_times": "Mo-Fr 16:00; Sa 11:00", "note": "ON 12/24 AND 12/31, THIS BOX MAY BE COLLECTED AS EARLY AS 12 NOON.", "nsi_id": "unitedstatespostalservice-a77078", "operator": "United States Postal Service", "operator:short": "USPS", "operator:type": "public", "operator:wikidata": "Q668687", "ref": "4794800001"}, "type": "Feature"}
{"geometry": {"coordinates": [-87.29495, 40.763387], "type": "Point"}, "id": "9vLgdz8l90YafuPMUxsPKeYLJSQ=", "properties": {"@source_uri": "https://tools.usps.com/UspsToolsRestServices/rest/POLocator/findLocations", "@spider": "usps_collection_boxes", "addr:city": "GOODLAND", "addr:country": "US", "addr:postcode": "47948", "addr:state": "IN", "addr:street_address": "122 W UNION ST", "amenity": "post_box", "collection_times": "Mo-Fr 14:15; Sa 09:15", "indoor": "yes", "note": "ON 12/24 AND 12/31, THIS BOX MAY BE COLLECTED AS EARLY AS 12 NOON.", "nsi_id": "unitedstatespostalservice-a77078", "operator": "United States Postal Service", "operator:short": "USPS", "operator:type": "public", "operator:wikidata": "Q668687", "ref": "4794800002"}, "type": "Feature"}
{"geometry": {"coordinates": [-87.2949510838, 40.7633844749], "type": "Point"}, "id": "sgytkSPy-IFXiSHjRsKYenrGXCA=", "properties": {"@source_uri": "https://tools.usps.com/UspsToolsRestServices/rest/POLocator/findLocations", "@spider": "usps_collection_boxes", "addr:city": "GOODLAND", "addr:country": "US", "addr:postcode": "47948", "addr:state": "IN", "addr:street_address": "122 W UNION ST", "amenity": "post_box", "collection_times": "Mo-Fr 14:30; Sa 09:30", "indoor": "yes", "note": "ON 12/24 AND 12/31, THIS BOX MAY BE COLLECTED AS EARLY AS 12 NOON.", "nsi_id": "unitedstatespostalservice-a77078", "operator": "United States Postal Service", "operator:short": "USPS", "operator:type": "public", "operator:wikidata": "Q668687", "ref": "4794800004"}, "type": "Feature"}
{"geometry": {"coordinates": [-87.1588829659, 40.1063900115], "type": "Point"}, "id": "s9ReQNSf0mp5Els27mNbtExQqdE=", "properties": {"@source_uri": "https://tools.usps.com/UspsToolsRestServices/rest/POLocator/findLocations", "@spider": "usps_collection_boxes", "addr:city": "HILLSBORO", "addr:country": "US", "addr:postcode": "47949", "addr:state": "IN", "addr:street_address": "202 E MAIN ST", "amenity": "post_box", "collection_times": "Mo-Fr 16:00; Sa 10:15", "note": "ON 12/24 AND 12/31, THIS BOX MAY BE COLLECTED AS EARLY AS 12 NOON.", "nsi_id": "unitedstatespostalservice-a77078", "operator": "United States Postal Service", "operator:short": "USPS", "operator:type": "public", "operator:wikidata": "Q668687", "ref": "4794900001"}, "type": "Feature"}
{"geometry": {"coordinates": [-87.158872, 40.106552], "type": "Point"}, "id": "OBjtuzySjHOwlr1eibaUf2QcIpc=", "properties": {"@source_uri": "https://tools.usps.com/UspsToolsRestServices/rest/POLocator/findLocations", "@spider": "usps_collection_boxes", "addr:city": "HILLSBORO", "addr:country": "US", "addr:postcode": "47949", "addr:state": "IN", "addr:street_address": "202 E MAIN ST", "amenity": "post_box", "collection_times": "Mo-Fr 11:45; Sa 10:30", "indoor": "yes", "nsi_id": "unitedstatespostalservice-a77078", "operator": "United States Postal Service", "operator:short": "USPS", "operator:type": "public", "operator:wikidata": "Q668687", "ref": "4794900002"}, "type": "Feature"}
{"geometry": {"coordinates": [-87.1587811676, 40.1065515068], "type": "Point"}, "id": "10X9kC2uNCKKlxokH1kVx1UJjSg=", "properties": {"@source_uri": "https://tools.usps.com/UspsToolsRestServices/rest/POLocator/findLocations", "@spider": "usps_collection_boxes", "addr:city": "HILLSBORO", "addr:country": "US", "addr:postcode": "47949", "addr:state": "IN", "addr:street_address": "202 E MAIN ST", "amenity": "post_box", "collection_times": "Mo-Fr 12:00; Sa 10:30", "indoor": "yes", "nsi_id": "unitedstatespostalservice-a77078", "operator": "United States Postal Service", "operator:short": "USPS", "operator:type": "public", "operator:wikidata": "Q668687", "ref": "4794900003"}, "type": "Feature"}
{"geometry": {"coordinates": [-86.649573777, 40.758032496], "type": "Point"}, "id": "xvpycwFNoCmiRSM-910t0TlWGz0=", "properties": {"@source_uri": "https://tools.usps.com/UspsToolsRestServices/rest/POLocator/findLocations", "@spider": "usps_collection_boxes", "addr:city": "IDAVILLE", "addr:country": "US", "addr:postcode": "47950", "addr:state": "IN", "addr:street_address": "106 W US HIGHWAY 24", "amenity": "post_box", "collection_times": "Mo-Fr 16:00; Sa 10:30", "note": "ON 12/24 AND 12/31, THIS BOX MAY BE COLLECTED AS EARLY AS 12 NOON.", "nsi_id": "unitedstatespostalservice-a77078", "operator": "United States Postal Service", "operator:short": "USPS", "operator:type": "public", "operator:wikidata": "Q668687", "ref": "4795000001"}, "type": "Feature"}
{"geometry": {"coordinates": [-86.649573777, 40.758032496], "type": "Point"}, "id": "eyGJ_2xBIitlfdB7ClcVdSkEmmo=", "properties": {"@source_uri": "https://tools.usps.com/UspsToolsRestServices/rest/POLocator/findLocations", "@spider": "usps_collection_boxes", "addr:city": "IDAVILLE", "addr:country": "US", "addr:postcode": "47950", "addr:state": "IN", "addr:street_address": "106 W US HIGHWAY 24", "amenity": "post_box", "collection_times": "Mo-Fr 16:00; Sa 10:30", "indoor": "yes", "note": "ON 12/24 AND 12/31, THIS BOX MAY BE COLLECTED AS EARLY AS 12 NOON.", "nsi_id": "unitedstatespostalservice-a77078", "operator": "United States Postal Service", "operator:short": "USPS", "operator:type": "public", "operator:wikidata": "Q668687", "ref": "4795000002"}, "type": "Feature"}
{"geometry": {"coordinates": [-86.649573777, 40.758032496], "type": "Point"}, "id": "c1SyhmS7sKiCUqjJeuWUj1Lwu2o=", "properties": {"@source_uri": "https://tools.usps.com/UspsToolsRestServices/rest/POLocator/findLocations", "@spider": "usps_collection_boxes", "addr:city": "IDAVILLE", "addr:country": "US", "addr:postcode": "47950", "addr:state": "IN", "addr:street_address": "106 W US HIGHWAY 24", "amenity": "post_box", "collection_times": "Mo-Fr 16:00; Sa 10:30", "indoor": "yes", "note": "ON 12/24 AND 12/31, THIS BOX MAY BE COLLECTED AS EARLY AS 12 NOON.", "nsi_id": "unitedstatespostalservice-a77078", "operator": "United States Postal Service", "operator:short": "USPS", "operator:type": "public", "operator:wikidata": "Q668687", "ref": "4795000003"}, "type": "Feature"}
{"geometry": {"coordinates": [-87.444533, 40.769083], "type": "Point"}, "id": "P6E_UIU8oOug_7CybqXpBGnsrhg=", "properties": {"@source_uri": "https://tools.usps.com/UspsToolsRestServices/rest/POLocator/findLocations", "@spider": "usps_collection_boxes", "addr:city": "KENTLAND", "addr:country": "US", "addr:postcode": "47951", "addr:state": "IN", "addr:street_address": "309 E GRAHAM ST", "amenity": "post_box", "collection_times": "Mo-Fr 16:15; Sa 16:00", "note": "ON 12/24 AND 12/31, THIS BOX MAY BE COLLECTED AS EARLY AS 12 NOON.", "nsi_id": "unitedstatespostalservice-a77078", "operator": "United States Postal Service", "operator:short": "USPS", "operator:type": "public", "operator:wikidata": "Q668687", "ref": "4795100005"}, "type": "Feature"}
{"geometry": {"coordinates": [-87.444533, 40.769083], "type": "Point"}, "id": "1-2nMA7sFmvR-bqZtYeK8xmHbxk=", "properties": {"@source_uri": "https://tools.usps.com/UspsToolsRestServices/rest/POLocator/findLocations", "@spider": "usps_collection_boxes", "addr:city": "KENTLAND", "addr:country": "US", "addr:postcode": "47951", "addr:state": "IN", "addr:street_address": "309 E GRAHAM ST", "amenity": "post_box", "collection_times": "Mo-Fr 16:15; Sa 11:00", "indoor": "yes", "note": "ON 12/24 AND 12/31, THIS BOX MAY BE COLLECTED AS EARLY AS 12 NOON.", "nsi_id": "unitedstatespostalservice-a77078", "operator": "United States Postal Service", "operator:short": "USPS", "operator:type": "public", "operator:wikidata": "Q668687", "ref": "4795100007"}, "type": "Feature"}
{"geometry": {"coordinates": [-87.4445130314, 40.769076554], "type": "Point"}, "id": "C0dZ_lWdAiIUrk7jqLOsoFAqH_Y=", "properties": {"@source_uri": "https://tools.usps.com/UspsToolsRestServices/rest/POLocator/findLocations", "@spider": "usps_collection_boxes", "addr:city": "KENTLAND", "addr:country": "US", "addr:postcode": "47951", "addr:state": "IN", "addr:street_address": "309 E GRAHAM ST", "amenity": "post_box", "collection_times": "Mo-Fr 16:15; Sa 11:00", "indoor": "yes", "note": "ON 12/24 AND 12/31, THIS BOX MAY BE COLLECTED AS EARLY AS 12 NOON.", "nsi_id": "unitedstatespostalservice-a77078", "operator": "United States Postal Service", "operator:short": "USPS", "operator:type": "public", "operator:wikidata": "Q668687", "ref": "4795100011"}, "type": "Feature"}
{"geometry": {"coordinates": [-87.278201832, 39.967459514], "type": "Point"}, "id": "PzoshS1QH8sg-5aZDu3Cn7yIy40=", "properties": {"@source_uri": "https://tools.usps.com/UspsToolsRestServices/rest/POLocator/findLocations", "@spider": "usps_collection_boxes", "addr:city": "KINGMAN", "addr:country": "US", "addr:postcode": "47952", "addr:state": "IN", "addr:street_address": "119 E STATE ST", "amenity": "post_box", "collection_times": "Mo-Fr 16:00; Sa 10:30", "note": "ON 12/24 AND 12/31, THIS BOX MAY BE COLLECTED AS EARLY AS 12 NOON.", "nsi_id": "unitedstatespostalservice-a77078", "operator": "United States Postal Service", "operator:short": "USPS", "operator:type": "public", "operator:wikidata": "Q668687", "ref": "4795200000"}, "type": "Feature"}
{"geometry": {"coordinates": [-87.2999299, 40.00298], "type": "Point"}, "id": "5a4TpLcPihChICpwi50gliGthm8=", "properties": {"@source_uri": "https://tools.usps.com/UspsToolsRestServices/rest/POLocator/findLocations", "@spider": "usps_collection_boxes", "addr:city": "KINGMAN", "addr:country": "US", "addr:postcode": "47952", "addr:state": "IN", "addr:street_address": "1 LAKE HIDEAWAY E", "amenity": "post_box", "collection_times": "Mo-Sa 09:00", "nsi_id": "unitedstatespostalservice-a77078", "operator": "United States Postal Service", "operator:short": "USPS", "operator:type": "public", "operator:wikidata": "Q668687", "ref": "4795200002"}, "type": "Feature"}
{"geometry": {"coordinates": [-87.3129776, 39.993402], "type": "Point"}, "id": "_pWMYI2leYRbEKFO0w1bV7iqm8M=", "properties": {"@source_uri": "https://tools.usps.com/UspsToolsRestServices/rest/POLocator/findLocations", "@spider": "usps_collection_boxes", "addr:city": "KINGMAN", "addr:country": "US", "addr:postcode": "47952", "addr:state": "IN", "addr:street_address": "1 LAKE HIDEAWAY W", "amenity": "post_box", "collection_times": "Mo-Sa 09:00", "nsi_id": "unitedstatespostalservice-a77078", "operator": "United States Postal Service", "operator:short": "USPS", "operator:type": "public", "operator:wikidata": "Q668687", "ref": "4795200003"}, "type": "Feature"}
{"geometry": {"coordinates": [-87.278201832, 39.967459514], "type": "Point"}, "id": "3hYKUFkK-1JSwLrcpRcHLkPNgVM=", "properties": {"@source_uri": "https://tools.usps.com/UspsToolsRestServices/rest/POLocator/findLocations", "@spider": "usps_collection_boxes", "addr:city": "KINGMAN", "addr:country": "US", "addr:postcode": "47952", "addr:state": "IN", "addr:street_address": "119 E STATE ST", "amenity": "post_box", "collection_times": "Mo-Fr 16:00; Sa 10:30", "indoor": "yes", "note": "ON 12/24 AND 12/31, THIS BOX MAY BE COLLECTED AS EARLY AS 12 NOON.", "nsi_id": "unitedstatespostalservice-a77078", "operator": "United States Postal Service", "operator:short": "USPS", "operator:type": "public", "operator:wikidata": "Q668687", "ref": "4795200004"}, "type": "Feature"}
{"geometry": {"coordinates": [-87.2788324, 39.96746], "type": "Point"}, "id": "RfdRPOxpCOZd5LSEl0npHN36AZg=", "properties": {"@source_uri": "https://tools.usps.com/UspsToolsRestServices/rest/POLocator/findLocations", "@spider": "usps_collection_boxes", "addr:city": "KINGMAN", "addr:country": "US", "addr:postcode": "47952", "addr:state": "IN", "addr:street_address": "103 E STATE ST", "amenity": "post_box", "collection_times": "Mo-Sa 13:00", "note": "ON 12/24 AND 12/31, THIS BOX MAY BE COLLECTED AS EARLY AS 12 NOON.", "nsi_id": "unitedstatespostalservice-a77078", "operator": "United States Postal Service", "operator:short": "USPS", "operator:type": "public", "operator:wikidata": "Q668687", "ref": "4795200005"}, "type": "Feature"}
{"geometry": {"coordinates": [-87.278201832, 39.967459514], "type": "Point"}, "id": "BOgER2NSRqAr5ySOVUU5fSfmQ0w=", "properties": {"@source_uri": "https://tools.usps.com/UspsToolsRestServices/rest/POLocator/findLocations", "@spider": "usps_collection_boxes", "addr:city": "KINGMAN", "addr:country": "US", "addr:postcode": "47952", "addr:state": "IN", "addr:street_address": "119 E STATE ST", "amenity": "post_box", "collection_times": "Mo-Fr 16:00; Sa 11:00", "indoor": "yes", "note": "ON 12/24 AND 12/31, THIS BOX MAY BE COLLECTED AS EARLY AS 12 NOON.", "nsi_id": "unitedstatespostalservice-a77078", "operator": "United States Postal Service", "operator:short": "USPS", "operator:type": "public", "operator:wikidata": "Q668687", "ref": "4795200006"}, "type": "Feature"}
{"geometry": {"coordinates": [-86.7986235, 39.91360847], "type": "Point"}, "id": "U0JnrlfGY4W9RBNUMsceQ6nN7v0=", "properties": {"@source_uri": "https://tools.usps.com/UspsToolsRestServices/rest/POLocator/findLocations", "@spider": "usps_collection_boxes", "addr:city": "LADOGA", "addr:country": "US", "addr:postcode": "47954", "addr:state": "IN", "addr:street_address": "229 E MAIN ST", "amenity": "post_box", "collection_times": "Mo-Fr 15:45; Sa 11:00", "note": "ON 12/24 AND 12/31, THIS BOX MAY BE COLLECTED AS EARLY AS 12 NOON.", "nsi_id": "unitedstatespostalservice-a77078", "operator": "United States Postal Service", "operator:short": "USPS", "operator:type": "public", "operator:wikidata": "Q668687", "ref": "4795400001"}, "type": "Feature"}
{"geometry": {"coordinates": [-86.7986235, 39.91360847], "type": "Point"}, "id": "bIYcqHSYzba-s2Yo_2RVEAfV7wQ=", "properties": {"@source_uri": "https://tools.usps.com/UspsToolsRestServices/rest/POLocator/findLocations", "@spider": "usps_collection_boxes", "addr:city": "LADOGA", "addr:country": "US", "addr:postcode": "47954", "addr:state": "IN", "addr:street_address": "229 E MAIN ST", "amenity": "post_box", "collection_times": "Mo-Fr 15:45; Sa 11:00", "indoor": "yes", "note": "ON 12/24 AND 12/31, THIS BOX MAY BE COLLECTED AS EARLY AS 12 NOON.", "nsi_id": "unitedstatespostalservice-a77078", "operator": "United States Postal Service", "operator:short": "USPS", "operator:type": "public", "operator:wikidata": "Q668687", "ref": "4795400002"}, "type": "Feature"}
{"geometry": {"coordinates": [-86.7986235, 39.91360847], "type": "Point"}, "id": "Ep25OdIFrOwykbYauq47C8H9rjw=", "properties": {"@source_uri": "https://tools.usps.com/UspsToolsRestServices/rest/POLocator/findLocations", "@spider": "usps_collection_boxes", "addr:city": "LADOGA", "addr:country": "US", "addr:postcode": "47954", "addr:state": "IN", "addr:street_address": "229 E MAIN ST", "amenity": "post_box", "collection_times": "Mo-Fr 16:00; Sa 11:00", "indoor": "yes", "note": "ON 12/24 AND 12/31, THIS BOX MAY BE COLLECTED AS EARLY AS 12 NOON.", "nsi_id": "unitedstatespostalservice-a77078", "operator": "United States Postal Service", "operator:short": "USPS", "operator:type": "public", "operator:wikidata": "Q668687", "ref": "4795400003"}, "type": "Feature"}
{"geometry": {"coordinates": [-86.903936977, 40.188302361], "type": "Point"}, "id": "UbiscMgqcXmiXKmaGckaMbDRw0U=", "properties": {"@source_uri": "https://tools.usps.com/UspsToolsRestServices/rest/POLocator/findLocations", "@spider": "usps_collection_boxes", "addr:city": "LINDEN", "addr:country": "US", "addr:postcode": "47955", "addr:state": "IN", "addr:street_address": "100 N MAIN ST", "amenity": "post_box", "collection_times": "Mo-Fr 16:00; Sa 11:00", "note": "ON 12/24 AND 12/31, THIS BOX MAY BE COLLECTED AS EARLY AS 12 NOON.", "nsi_id": "unitedstatespostalservice-a77078", "operator": "United States Postal Service", "operator:short": "USPS", "operator:type": "public", "operator:wikidata": "Q668687", "ref": "4795500001"}, "type": "Feature"}
{"geometry": {"coordinates": [-86.903936977, 40.188302361], "type": "Point"}, "id": "4zdOJMH3bUVwcdmFYAO_wv2a624=", "properties": {"@source_uri": "https://tools.usps.com/UspsToolsRestServices/rest/POLocator/findLocations", "@spider": "usps_collection_boxes", "addr:city": "LINDEN", "addr:country": "US", "addr:postcode": "47955", "addr:state": "IN", "addr:street_address": "100 N MAIN ST", "amenity": "post_box", "collection_times": "Mo-Fr 12:00; Sa 11:00", "indoor": "yes", "nsi_id": "unitedstatespostalservice-a77078", "operator": "United States Postal Service", "operator:short": "USPS", "operator:type": "public", "operator:wikidata": "Q668687", "ref": "4795500002"}, "type": "Feature"}
{"geometry": {"coordinates": [-86.9048799, 40.195428], "type": "Point"}, "id": "1Iz4-XPfLd_IsQ6K5Ylsk-THOBI=", "properties": {"@source_uri": "https://tools.usps.com/UspsToolsRestServices/rest/POLocator/findLocations", "@spider": "usps_collection_boxes", "addr:city": "LINDEN", "addr:country": "US", "addr:postcode": "47955", "addr:state": "IN", "addr:street_address": "732 N MAIN ST", "amenity": "post_box", "collection_times": "Mo-Sa 12:30", "note": "ON 12/24 AND 12/31, THIS BOX MAY BE COLLECTED AS EARLY AS 12 NOON.", "nsi_id": "unitedstatespostalservice-a77078", "operator": "United States Postal Service", "operator:short": "USPS", "operator:type": "public", "operator:wikidata": "Q668687", "ref": "4795500003"}, "type": "Feature"}
{"geometry": {"coordinates": [-86.903936977, 40.188302361], "type": "Point"}, "id": "TyHzglXyVqFAEncIu_OomUeoMyw=", "properties": {"@source_uri": "https://tools.usps.com/UspsToolsRestServices/rest/POLocator/findLocations", "@spider": "usps_collection_boxes", "addr:city": "LINDEN", "addr:country": "US", "addr:postcode": "47955", "addr:state": "IN", "addr:street_address": "100 N MAIN ST", "amenity": "post_box", "collection_times": "Mo-Fr 12:00; Sa 11:00", "indoor": "yes", "nsi_id": "unitedstatespostalservice-a77078", "operator": "United States Postal Service", "operator:short": "USPS", "operator:type": "public", "operator:wikidata": "Q668687", "ref": "4795500004"}, "type": "Feature"}
{"geometry": {"coordinates": [-86.887611052, 41.080669492], "type": "Point"}, "id": "mVTphVr-1Pv1uxdcb-cM5QACLks=", "properties": {"@source_uri": "https://tools.usps.com/UspsToolsRestServices/rest/POLocator/findLocations", "@spider": "usps_collection_boxes", "addr:city": "MEDARYVILLE", "addr:country": "US", "addr:postcode": "47957", "addr:state": "IN", "addr:street_address": "501 E MAIN ST", "amenity": "post_box", "collection_times": "Mo-Fr 16:15; Sa 11:15", "note": "ON 12/24 AND 12/31, THIS BOX MAY BE COLLECTED AS EARLY AS 12 NOON.", "nsi_id": "unitedstatespostalservice-a77078", "operator": "United States Postal Service", "operator:short": "USPS", "operator:type": "public", "operator:wikidata": "Q668687", "ref": "4795700001"}, "type": "Feature"}
{"geometry": {"coordinates": [-86.887611052, 41.080669492], "type": "Point"}, "id": "lvsqni8nL8QYU0UHJZh5aCQdvZo=", "properties": {"@source_uri": "https://tools.usps.com/UspsToolsRestServices/rest/POLocator/findLocations", "@spider": "usps_collection_boxes", "addr:city": "MEDARYVILLE", "addr:country": "US", "addr:postcode": "47957", "addr:state": "IN", "addr:street_address": "501 E MAIN ST", "amenity": "post_box", "collection_times": "Mo-Fr 13:45; Sa 11:15", "indoor": "yes", "note": "ON 12/24 AND 12/31, THIS BOX MAY BE COLLECTED AS EARLY AS 12 NOON.", "nsi_id": "unitedstatespostalservice-a77078", "operator": "United States Postal Service", "operator:short": "USPS", "operator:type": "public", "operator:wikidata": "Q668687", "ref": "4795700002"}, "type": "Feature"}
{"geometry": {"coordinates": [-86.887611052, 41.080669492], "type": "Point"}, "id": "PP4xEcafVGVCfhxKXldhjZSTVGM=", "properties": {"@source_uri": "https://tools.usps.com/UspsToolsRestServices/rest/POLocator/findLocations", "@spider": "usps_collection_boxes", "addr:city": "MEDARYVILLE", "addr:country": "US", "addr:postcode": "47957", "addr:state": "IN", "addr:street_address": "501 E MAIN ST", "amenity": "post_box", "collection_times": "Mo-Fr 14:00; Sa 11:00", "indoor": "yes", "note": "ON 12/24 AND 12/31, THIS BOX MAY BE COLLECTED AS EARLY AS 12 NOON.", "nsi_id": "unitedstatespostalservice-a77078", "operator": "United States Postal Service", "operator:short": "USPS", "operator:type": "public", "operator:wikidata": "Q668687", "ref": "4795700003"}, "type": "Feature"}
{"geometry": {"coordinates": [-87.148615912, 40.165172717], "type": "Point"}, "id": "Nn_y4RWLfsQQRPX0bjTtj7q3IYw=", "properties": {"@source_uri": "https://tools.usps.com/UspsToolsRestServices/rest/POLocator/findLocations", "@spider": "usps_collection_boxes", "addr:city": "MELLOTT", "addr:country": "US", "addr:postcode": "47958", "addr:state": "IN", "addr:street_address": "106 S MAIN ST", "amenity": "post_box", "collection_times": "Mo-Fr 16:00; Sa 10:00", "note": "ON 12/24 AND 12/31, THIS BOX MAY BE COLLECTED AS EARLY AS 12 NOON.", "nsi_id": "unitedstatespostalservice-a77078", "operator": "United States Postal Service", "operator:short": "USPS", "operator:type": "public", "operator:wikidata": "Q668687", "ref": "4795800001"}, "type": "Feature"}
{"geometry": {"coordinates": [-87.148615912, 40.165172717], "type": "Point"}, "id": "MtYWcWrj4-OZrx7aQNBvt7W7K-k=", "properties": {"@source_uri": "https://tools.usps.com/UspsToolsRestServices/rest/POLocator/findLocations", "@spider": "usps_collection_boxes", "addr:city": "MELLOTT", "addr:country": "US", "addr:postcode": "47958", "addr:state": "IN", "addr:street_address": "106 S MAIN ST", "amenity": "post_box", "collection_times": "Mo-Sa 10:00", "indoor": "yes", "nsi_id": "unitedstatespostalservice-a77078", "operator": "United States Postal Service", "operator:short": "USPS", "operator:type": "public", "operator:wikidata": "Q668687", "ref": "4795800002"}, "type": "Feature"}
{"geometry": {"coordinates": [-87.148615912, 40.165172717], "type": "Point"}, "id": "IlKGe60kA0sK5yuxedxfxO6m5zI=", "properties": {"@source_uri": "https://tools.usps.com/UspsToolsRestServices/rest/POLocator/findLocations", "@spider": "usps_collection_boxes", "addr:city": "MELLOTT", "addr:country": "US", "addr:postcode": "47958", "addr:state": "IN", "addr:street_address": "106 S MAIN ST", "amenity": "post_box", "collection_times": "Mo-Sa 10:00", "indoor": "yes", "nsi_id": "unitedstatespostalservice-a77078", "operator": "United States Postal Service", "operator:short": "USPS", "operator:type": "public", "operator:wikidata": "Q668687", "ref": "4795800003"}, "type": "Feature"}
{"geometry": {"coordinates": [-86.879046669, 40.86342], "type": "Point"}, "id": "pQE_lind4g8YMrUIvHJJI_UPU9A=", "properties": {"@source_uri": "https://tools.usps.com/UspsToolsRestServices/rest/POLocator/findLocations", "@spider": "usps_collection_boxes", "addr:city": "MONON", "addr:country": "US", "addr:postcode": "47959", "addr:state": "IN", "addr:street_address": "415 N MARKET ST", "amenity": "post_box", "collection_times": "Mo-Fr 16:00; Sa 11:00", "note": "ON 12/24 AND 12/31, THIS BOX MAY BE COLLECTED AS EARLY AS 12 NOON.", "nsi_id": "unitedstatespostalservice-a77078", "operator": "United States Postal Service", "operator:short": "USPS", "operator:type": "public", "operator:wikidata": "Q668687", "ref": "4795900001"}, "type": "Feature"}
{"geometry": {"coordinates": [-86.879046669, 40.86342], "type": "Point"}, "id": "ddanNb4QKUxWj_AI7NRE6dvPTEY=", "properties": {"@source_uri": "https://tools.usps.com/UspsToolsRestServices/rest/POLocator/findLocations", "@spider": "usps_collection_boxes", "addr:city": "MONON", "addr:country": "US", "addr:postcode": "47959", "addr:state": "IN", "addr:street_address": "415 N MARKET ST", "amenity": "post_box", "collection_times": "Mo-Fr 16:00; Sa 11:00", "indoor": "yes", "note": "ON 12/24 AND 12/31, THIS BOX MAY BE COLLECTED AS EARLY AS 12 NOON.", "nsi_id": "unitedstatespostalservice-a77078", "operator": "United States Postal Service", "operator:short": "USPS", "operator:type": "public", "operator:wikidata": "Q668687", "ref": "4795900002"}, "type": "Feature"}
{"geometry": {"coordinates": [-86.879046669, 40.86342], "type": "Point"}, "id": "rlyooXUIko8DXIoIk80y-b-6k1s=", "properties": {"@source_uri": "https://tools.usps.com/UspsToolsRestServices/rest/POLocator/findLocations", "@spider": "usps_collection_boxes", "addr:city": "MONON", "addr:country": "US", "addr:postcode": "47959", "addr:state": "IN", "addr:street_address": "415 N MARKET ST", "amenity": "post_box", "collection_times": "Mo-Fr 16:00; Sa 11:00", "indoor": "yes", "note": "ON 12/24 AND 12/31, THIS BOX MAY BE COLLECTED AS EARLY AS 12 NOON.", "nsi_id": "unitedstatespostalservice-a77078", "operator": "United States Postal Service", "operator:short": "USPS", "operator:type": "public", "operator:wikidata": "Q668687", "ref": "4795900003"}, "type": "Feature"}
{"geometry": {"coordinates": [-86.7630735, 40.74492947], "type": "Point"}, "id": "YOCm9mUhybphosamdvOLvubavi4=", "properties": {"@source_uri": "https://tools.usps.com/UspsToolsRestServices/rest/POLocator/findLocations", "@spider": "usps_collection_boxes", "addr:city": "MONTICELLO", "addr:country": "US", "addr:postcode": "47960", "addr:state": "IN", "addr:street_address": "125 W BROADWAY ST", "amenity": "post_box", "collection_times": "Mo-Fr 17:00; Sa 16:30", "note": "ON 12/24 AND 12/31, THIS BOX MAY BE COLLECTED AS EARLY AS 12 NOON.", "nsi_id": "unitedstatespostalservice-a77078", "operator": "United States Postal Service", "operator:short": "USPS", "operator:type": "public", "operator:wikidata": "Q668687", "ref": "4796000001"}, "type": "Feature"}
{"geometry": {"coordinates": [-86.7630735, 40.74492947], "type": "Point"}, "id": "3SgD8HEv0eHyyn9J1ULMhF8PNto=", "properties": {"@source_uri": "https://tools.usps.com/UspsToolsRestServices/rest/POLocator/findLocations", "@spider": "usps_collection_boxes", "addr:city": "MONTICELLO", "addr:country": "US", "addr:postcode": "47960", "addr:state": "IN", "addr:street_address": "125 W BROADWAY ST", "amenity": "post_box", "collection_times": "Mo-Fr 17:00; Sa 16:30", "note": "ON 12/24 AND 12/31, THIS BOX MAY BE COLLECTED AS EARLY AS 12 NOON.", "nsi_id": "unitedstatespostalservice-a77078", "operator": "United States Postal Service", "operator:short": "USPS", "operator:type": "public", "operator:wikidata": "Q668687", "ref": "4796000002"}, "type": "Feature"}
{"geometry": {"coordinates": [-86.765994, 40.756582], "type": "Point"}, "id": "aUaFThTPDsn6bVjLsPXVvUmAvr4=", "properties": {"@source_uri": "https://tools.usps.com/UspsToolsRestServices/rest/POLocator/findLocations", "@spider": "usps_collection_boxes", "addr:city": "MONTICELLO", "addr:country": "US", "addr:postcode": "47960", "addr:state": "IN", "addr:street_address": "916 N MAIN ST", "amenity": "post_box", "collection_times": "Mo-Sa 10:00", "nsi_id": "unitedstatespostalservice-a77078", "operator": "United States Postal Service", "operator:short": "USPS", "operator:type": "public", "operator:wikidata": "Q668687", "ref": "4796000012"}, "type": "Feature"}
{"geometry": {"coordinates": [-86.7630735, 40.74492947], "type": "Point"}, "id": "e7i_RWg7AO8bX_J_IZyYIA4-JsE=", "properties": {"@source_uri": "https://tools.usps.com/UspsToolsRestServices/rest/POLocator/findLocations", "@spider": "usps_collection_boxes", "addr:city": "MONTICELLO", "addr:country": "US", "addr:postcode": "47960", "addr:state": "IN", "addr:street_address": "125 W BROADWAY ST", "amenity": "post_box", "collection_times": "Mo-Fr 17:00; Sa 16:30", "indoor": "yes", "note": "ON 12/24 AND 12/31, THIS BOX MAY BE COLLECTED AS EARLY AS 12 NOON.", "nsi_id": "unitedstatespostalservice-a77078", "operator": "United States Postal Service", "operator:short": "USPS", "operator:type": "public", "operator:wikidata": "Q668687", "ref": "4796000014"}, "type": "Feature"}
{"geometry": {"coordinates": [-86.7630735, 40.74492947], "type": "Point"}, "id": "ghmJ4f2pw4eur8pA6z-e8KzlGlk=", "properties": {"@source_uri": "https://tools.usps.com/UspsToolsRestServices/rest/POLocator/findLocations", "@spider": "usps_collection_boxes", "addr:city": "MONTICELLO", "addr:country": "US", "addr:postcode": "47960", "addr:state": "IN", "addr:street_address": "125 W BROADWAY ST", "amenity": "post_box", "collection_times": "Mo-Fr 17:00; Sa 16:30", "indoor": "yes", "note": "ON 12/24 AND 12/31, THIS BOX MAY BE COLLECTED AS EARLY AS 12 NOON.", "nsi_id": "unitedstatespostalservice-a77078", "operator": "United States Postal Service", "operator:short": "USPS", "operator:type": "public", "operator:wikidata": "Q668687", "ref": "4796000015"}, "type": "Feature"}
{"geometry": {"coordinates": [-86.7812721, 40.747328], "type": "Point"}, "id": "2FcFyZF9H4P79Y2bWBYbXd76Zn4=", "properties": {"@source_uri": "https://tools.usps.com/UspsToolsRestServices/rest/POLocator/findLocations", "@spider": "usps_collection_boxes", "addr:city": "MONTICELLO", "addr:country": "US", "addr:postcode": "47960", "addr:state": "IN", "addr:street_address": "1088 W BROADWAY ST", "amenity": "post_box", "collection_times": "Mo-Sa 10:00", "nsi_id": "unitedstatespostalservice-a77078", "operator": "United States Postal Service", "operator:short": "USPS", "operator:type": "public", "operator:wikidata": "Q668687", "ref": "4796000016"}, "type": "Feature"}
{"geometry": {"coordinates": [-86.7630735, 40.74492947], "type": "Point"}, "id": "oRCYXOaMcB6XimDNQodGAPlj_Fc=", "properties": {"@source_uri": "https://tools.usps.com/UspsToolsRestServices/rest/POLocator/findLocations", "@spider": "usps_collection_boxes", "addr:city": "MONTICELLO", "addr:country": "US", "addr:postcode": "47960", "addr:state": "IN", "addr:street_address": "125 W BROADWAY ST", "amenity": "post_box", "collection_times": "Mo-Fr 17:00; Sa 12:00", "indoor": "yes", "note": "ON 12/24 AND 12/31, THIS BOX MAY BE COLLECTED AS EARLY AS 12 NOON.", "nsi_id": "unitedstatespostalservice-a77078", "operator": "United States Postal Service", "operator:short": "USPS", "operator:type": "public", "operator:wikidata": "Q668687", "ref": "4796000018"}, "type": "Feature"}
{"geometry": {"coordinates": [-87.453394132, 40.94547255], "type": "Point"}, "id": "M3B07LLR1PlyXtXmi5R5RLeul5Y=", "properties": {"@source_uri": "https://tools.usps.com/UspsToolsRestServices/rest/POLocator/findLocations", "@spider": "usps_collection_boxes", "addr:city": "MOROCCO", "addr:country": "US", "addr:postcode": "47963", "addr:state": "IN", "addr:street_address": "109 S CLAY ST", "amenity": "post_box", "collection_times": "Mo-Fr 16:00; Sa 11:30", "note": "ON 12/24 AND 12/31, THIS BOX MAY BE COLLECTED AS EARLY AS 12 NOON.", "nsi_id": "unitedstatespostalservice-a77078", "operator": "United States Postal Service", "operator:short": "USPS", "operator:type": "public", "operator:wikidata": "Q668687", "ref": "4796300002"}, "type": "Feature"}
{"geometry": {"coordinates": [-87.453394132, 40.94547255], "type": "Point"}, "id": "I9f52w95OWogOoFDI8kKcxalAzc=", "properties": {"@source_uri": "https://tools.usps.com/UspsToolsRestServices/rest/POLocator/findLocations", "@spider": "usps_collection_boxes", "addr:city": "MOROCCO", "addr:country": "US", "addr:postcode": "47963", "addr:state": "IN", "addr:street_address": "109 S CLAY ST", "amenity": "post_box", "collection_times": "Mo-Fr 16:00; Sa 11:30", "indoor": "yes", "note": "ON 12/24 AND 12/31, THIS BOX MAY BE COLLECTED AS EARLY AS 12 NOON.", "nsi_id": "unitedstatespostalservice-a77078", "operator": "United States Postal Service", "operator:short": "USPS", "operator:type": "public", "operator:wikidata": "Q668687", "ref": "4796300003"}, "type": "Feature"}
{"geometry": {"coordinates": [-87.453394132, 40.94547255], "type": "Point"}, "id": "6aJxZBtdMaU9f9IIZwMyrRhtHJ4=", "properties": {"@source_uri": "https://tools.usps.com/UspsToolsRestServices/rest/POLocator/findLocations", "@spider": "usps_collection_boxes", "addr:city": "MOROCCO", "addr:country": "US", "addr:postcode": "47963", "addr:state": "IN", "addr:street_address": "109 S CLAY ST", "amenity": "post_box", "collection_times": "Mo-Fr 16:00; Sa 11:30", "indoor": "yes", "note": "ON 12/24 AND 12/31, THIS BOX MAY BE COLLECTED AS EARLY AS 12 NOON.", "nsi_id": "unitedstatespostalservice-a77078", "operator": "United States Postal Service", "operator:short": "USPS", "operator:type": "public", "operator:wikidata": "Q668687", "ref": "4796300004"}, "type": "Feature"}
{"geometry": {"coordinates": [-87.298811832, 40.951015514], "type": "Point"}, "id": "jEjMFAhzeWmELorTArEpObp1uw4=", "properties": {"@source_uri": "https://tools.usps.com/UspsToolsRestServices/rest/POLocator/findLocations", "@spider": "usps_collection_boxes", "addr:city": "MOUNT AYR", "addr:country": "US", "addr:postcode": "47964", "addr:state": "IN", "addr:street_address": "101 E RENSSELAER ST", "amenity": "post_box", "collection_times": "Mo-Fr 12:45; Sa 12:00", "note": "ON 12/24 AND 12/31, THIS BOX MAY BE COLLECTED AS EARLY AS 12 NOON.", "nsi_id": "unitedstatespostalservice-a77078", "operator": "United States Postal Service", "operator:short": "USPS", "operator:type": "public", "operator:wikidata": "Q668687", "ref": "4796400001"}, "type": "Feature"}
{"geometry": {"coordinates": [-87.298811832, 40.951015514], "type": "Point"}, "id": "W7j6IwtauMrm9YgEUe3i5XRStAQ=", "properties": {"@source_uri": "https://tools.usps.com/UspsToolsRestServices/rest/POLocator/findLocations", "@spider": "usps_collection_boxes", "addr:city": "MOUNT AYR", "addr:country": "US", "addr:postcode": "47964", "addr:state": "IN", "addr:street_address": "101 E RENSSELAER ST", "amenity": "post_box", "collection_times": "Mo-Fr 12:45; Sa 12:00", "indoor": "yes", "note": "ON 12/24 AND 12/31, THIS BOX MAY BE COLLECTED AS EARLY AS 12 NOON.", "nsi_id": "unitedstatespostalservice-a77078", "operator": "United States Postal Service", "operator:short": "USPS", "operator:type": "public", "operator:wikidata": "Q668687", "ref": "4796400002"}, "type": "Feature"}
{"geometry": {"coordinates": [-87.298811832, 40.951015514], "type": "Point"}, "id": "f6wsK7piuLqdesN4J-yYdQDWz_Q=", "properties": {"@source_uri": "https://tools.usps.com/UspsToolsRestServices/rest/POLocator/findLocations", "@spider": "usps_collection_boxes", "addr:city": "MOUNT AYR", "addr:country": "US", "addr:postcode": "47964", "addr:state": "IN", "addr:street_address": "101 E RENSSELAER ST", "amenity": "post_box", "collection_times": "Mo-Fr 13:00; Sa 12:00", "indoor": "yes", "note": "ON 12/24 AND 12/31, THIS BOX MAY BE COLLECTED AS EARLY AS 12 NOON.", "nsi_id": "unitedstatespostalservice-a77078", "operator": "United States Postal Service", "operator:short": "USPS", "operator:type": "public", "operator:wikidata": "Q668687", "ref": "4796400003"}, "type": "Feature"}
{"geometry": {"coordinates": [-86.922584277, 39.95239847], "type": "Point"}, "id": "l2d4Pb5FMqQyIuXDwRwKyztataY=", "properties": {"@source_uri": "https://tools.usps.com/UspsToolsRestServices/rest/POLocator/findLocations", "@spider": "usps_collection_boxes", "addr:city": "NEW MARKET", "addr:country": "US", "addr:postcode": "47965", "addr:state": "IN", "addr:street_address": "109 W MAIN ST", "amenity": "post_box", "collection_times": "Mo-Fr 15:30; Sa 11:00", "note": "ON 12/24 AND 12/31, THIS BOX MAY BE COLLECTED AS EARLY AS 12 NOON.", "nsi_id": "unitedstatespostalservice-a77078", "operator": "United States Postal Service", "operator:short": "USPS", "operator:type": "public", "operator:wikidata": "Q668687", "ref": "4796500001"}, "type": "Feature"}
{"geometry": {"coordinates": [-86.922584277, 39.95239847], "type": "Point"}, "id": "09MHo1lr0eJa-M5QuvI-0zpL8Sk=", "properties": {"@source_uri": "https://tools.usps.com/UspsToolsRestServices/rest/POLocator/findLocations", "@spider": "usps_collection_boxes", "addr:city": "NEW MARKET", "addr:country": "US", "addr:postcode": "47965", "addr:state": "IN", "addr:street_address": "109 W MAIN ST", "amenity": "post_box", "collection_times": "Mo-Fr 11:45; Sa 11:00", "indoor": "yes", "nsi_id": "unitedstatespostalservice-a77078", "operator": "United States Postal Service", "operator:short": "USPS", "operator:type": "public", "operator:wikidata": "Q668687", "ref": "4796500002"}, "type": "Feature"}
{"geometry": {"coordinates": [-86.922584277, 39.95239847], "type": "Point"}, "id": "tEmQD_8cgkegV9SAAS18Mp5_tOU=", "properties": {"@source_uri": "https://tools.usps.com/UspsToolsRestServices/rest/POLocator/findLocations", "@spider": "usps_collection_boxes", "addr:city": "NEW MARKET", "addr:country": "US", "addr:postcode": "47965", "addr:state": "IN", "addr:street_address": "109 W MAIN ST", "amenity": "post_box", "collection_times": "Mo-Fr 12:00; Sa 11:00", "indoor": "yes", "nsi_id": "unitedstatespostalservice-a77078", "operator": "United States Postal Service", "operator:short": "USPS", "operator:type": "public", "operator:wikidata": "Q668687", "ref": "4796500003"}, "type": "Feature"}
{"geometry": {"coordinates": [-87.409744, 39.885279], "type": "Point"}, "id": "zHOPuq-fFVAs2c8v7lGWYrm8F3A=", "properties": {"@source_uri": "https://tools.usps.com/UspsToolsRestServices/rest/POLocator/findLocations", "@spider": "usps_collection_boxes", "addr:city": "NEWPORT", "addr:country": "US", "addr:postcode": "47966", "addr:state": "IN", "addr:street_address": "205 W EXTENSION ST", "amenity": "post_box", "collection_times": "Mo-Fr 15:45; Sa 11:00", "note": "ON 12/24 AND 12/31, THIS BOX MAY BE COLLECTED AS EARLY AS 12 NOON.", "nsi_id": "unitedstatespostalservice-a77078", "operator": "United States Postal Service", "operator:short": "USPS", "operator:type": "public", "operator:wikidata": "Q668687", "ref": "4796600001"}, "type": "Feature"}
{"geometry": {"coordinates": [-87.409636, 39.885252], "type": "Point"}, "id": "yw5DAxtMKsJuvV8wD9oX68HJ92M=", "properties": {"@source_uri": "https://tools.usps.com/UspsToolsRestServices/rest/POLocator/findLocations", "@spider": "usps_collection_boxes", "addr:city": "NEWPORT", "addr:country": "US", "addr:postcode": "47966", "addr:state": "IN", "addr:street_address": "205 W EXTENSION ST", "amenity": "post_box", "collection_times": "Mo-Fr 15:45; Sa 11:00", "indoor": "yes", "note": "ON 12/24 AND 12/31, THIS BOX MAY BE COLLECTED AS EARLY AS 12 NOON.", "nsi_id": "unitedstatespostalservice-a77078", "operator": "United States Postal Service", "operator:short": "USPS", "operator:type": "public", "operator:wikidata": "Q668687", "ref": "4796600002"}, "type": "Feature"}
{"geometry": {"coordinates": [-87.409863, 39.8852775149], "type": "Point"}, "id": "OKQ4dtBfh0YteWrM9eLlVfgklYw=", "properties": {"@source_uri": "https://tools.usps.com/UspsToolsRestServices/rest/POLocator/findLocations", "@spider": "usps_collection_boxes", "addr:city": "NEWPORT", "addr:country": "US", "addr:postcode": "47966", "addr:state": "IN", "addr:street_address": "205 W EXTENSION ST", "amenity": "post_box", "collection_times": "Mo-Fr 16:00; Sa 11:00", "indoor": "yes", "note": "ON 12/24 AND 12/31, THIS BOX MAY BE COLLECTED AS EARLY AS 12 NOON.", "nsi_id": "unitedstatespostalservice-a77078", "operator": "United States Postal Service", "operator:short": "USPS", "operator:type": "public", "operator:wikidata": "Q668687", "ref": "4796600003"}, "type": "Feature"}
{"geometry": {"coordinates": [-86.978836, 40.195365], "type": "Point"}, "id": "-87HpPdO3EcRfjbr0JUqXAWvlKU=", "properties": {"@source_uri": "https://tools.usps.com/UspsToolsRestServices/rest/POLocator/findLocations", "@spider": "usps_collection_boxes", "addr:city": "NEW RICHMOND", "addr:country": "US", "addr:postcode": "47967", "addr:state": "IN", "addr:street_address": "113 E WASHINGTON ST", "amenity": "post_box", "collection_times": "Mo-Fr 15:45; Sa 09:45", "note": "ON 12/24 AND 12/31, THIS BOX MAY BE COLLECTED AS EARLY AS 12 NOON.", "nsi_id": "unitedstatespostalservice-a77078", "operator": "United States Postal Service", "operator:short": "USPS", "operator:type": "public", "operator:wikidata": "Q668687", "ref": "4796700001"}, "type": "Feature"}
{"geometry": {"coordinates": [-86.978925, 40.195392], "type": "Point"}, "id": "aJPgFd7zTwfTqTsWiftzUCVbusQ=", "properties": {"@source_uri": "https://tools.usps.com/UspsToolsRestServices/rest/POLocator/findLocations", "@spider": "usps_collection_boxes", "addr:city": "NEW RICHMOND", "addr:country": "US", "addr:postcode": "47967", "addr:state": "IN", "addr:street_address": "113 E WASHINGTON ST", "amenity": "post_box", "collection_times": "Mo-Fr 11:45; Sa 09:45", "indoor": "yes", "nsi_id": "unitedstatespostalservice-a77078", "operator": "United States Postal Service", "operator:short": "USPS", "operator:type": "public", "operator:wikidata": "Q668687", "ref": "4796700002"}, "type": "Feature"}
{"geometry": {"coordinates": [-86.9786505, 40.1953595467], "type": "Point"}, "id": "LoSJgd1sWNvMG7UUanEWhkqJj4g=", "properties": {"@source_uri": "https://tools.usps.com/UspsToolsRestServices/rest/POLocator/findLocations", "@spider": "usps_collection_boxes", "addr:city": "NEW RICHMOND", "addr:country": "US", "addr:postcode": "47967", "addr:state": "IN", "addr:street_address": "113 E WASHINGTON ST", "amenity": "post_box", "collection_times": "Mo-Fr 12:00; Sa 10:00", "indoor": "yes", "nsi_id": "unitedstatespostalservice-a77078", "operator": "United States Postal Service", "operator:short": "USPS", "operator:type": "public", "operator:wikidata": "Q668687", "ref": "4796700003"}, "type": "Feature"}
{"geometry": {"coordinates": [-86.714241911, 39.96453405], "type": "Point"}, "id": "glfgKl57KpSCI0OnCMUm1ayp6c0=", "properties": {"@source_uri": "https://tools.usps.com/UspsToolsRestServices/rest/POLocator/findLocations", "@spider": "usps_collection_boxes", "addr:city": "NEW ROSS", "addr:country": "US", "addr:postcode": "47968", "addr:state": "IN", "addr:street_address": "102 E STATE ST", "amenity": "post_box", "collection_times": "Mo-Fr 15:00; Sa 10:30", "note": "ON 12/24 AND 12/31, THIS BOX MAY BE COLLECTED AS EARLY AS 12 NOON.", "nsi_id": "unitedstatespostalservice-a77078", "operator": "United States Postal Service", "operator:short": "USPS", "operator:type": "public", "operator:wikidata": "Q668687", "ref": "4796800001"}, "type": "Feature"}
{"geometry": {"coordinates": [-86.714241911, 39.96453405], "type": "Point"}, "id": "quldyZvY6Yosl_PnYGlaZEw7XA0=", "properties": {"@source_uri": "https://tools.usps.com/UspsToolsRestServices/rest/POLocator/findLocations", "@spider": "usps_collection_boxes", "addr:city": "NEW ROSS", "addr:country": "US", "addr:postcode": "47968", "addr:state": "IN", "addr:street_address": "102 E STATE ST", "amenity": "post_box", "collection_times": "Mo-Fr 15:00; Sa 10:30", "indoor": "yes", "note": "ON 12/24 AND 12/31, THIS BOX MAY BE COLLECTED AS EARLY AS 12 NOON.", "nsi_id": "unitedstatespostalservice-a77078", "operator": "United States Postal Service", "operator:short": "USPS", "operator:type": "public", "operator:wikidata": "Q668687", "ref": "4796800002"}, "type": "Feature"}
{"geometry": {"coordinates": [-86.7175354, 39.964007], "type": "Point"}, "id": "_9XG4hNrGnEWZJKdgp2yPM7nGmQ=", "properties": {"@source_uri": "https://tools.usps.com/UspsToolsRestServices/rest/POLocator/findLocations", "@spider": "usps_collection_boxes", "addr:city": "NEW ROSS", "addr:country": "US", "addr:postcode": "47968", "addr:state": "IN", "addr:street_address": "118 W VALLEY DR", "amenity": "post_box", "collection_times": "Mo-Sa 08:30", "nsi_id": "unitedstatespostalservice-a77078", "operator": "United States Postal Service", "operator:short": "USPS", "operator:type": "public", "operator:wikidata": "Q668687", "ref": "4796800003"}, "type": "Feature"}
{"geometry": {"coordinates": [-86.714241911, 39.96453405], "type": "Point"}, "id": "LACH3cKBlIYyXqMl7KqriYzKmRU=", "properties": {"@source_uri": "https://tools.usps.com/UspsToolsRestServices/rest/POLocator/findLocations", "@spider": "usps_collection_boxes", "addr:city": "NEW ROSS", "addr:country": "US", "addr:postcode": "47968", "addr:state": "IN", "addr:street_address": "102 E STATE ST", "amenity": "post_box", "collection_times": "Mo-Fr 15:00; Sa 10:30", "indoor": "yes", "note": "ON 12/24 AND 12/31, THIS BOX MAY BE COLLECTED AS EARLY AS 12 NOON.", "nsi_id": "unitedstatespostalservice-a77078", "operator": "United States Postal Service", "operator:short": "USPS", "operator:type": "public", "operator:wikidata": "Q668687", "ref": "4796800004"}, "type": "Feature"}
{"geometry": {"coordinates": [-87.149294773, 40.204192554], "type": "Point"}, "id": "snW93dVShord_U-GBork8blUXDY=", "properties": {"@source_uri": "https://tools.usps.com/UspsToolsRestServices/rest/POLocator/findLocations", "@spider": "usps_collection_boxes", "addr:city": "NEWTOWN", "addr:country": "US", "addr:postcode": "47969", "addr:state": "IN", "addr:street_address": "115 W WASHINGTON ST", "amenity": "post_box", "collection_times": "Mo-Fr 15:30; Sa 11:00", "note": "ON 12/24 AND 12/31, THIS BOX MAY BE COLLECTED AS EARLY AS 12 NOON.", "nsi_id": "unitedstatespostalservice-a77078", "operator": "United States Postal Service", "operator:short": "USPS", "operator:type": "public", "operator:wikidata": "Q668687", "ref": "4796900001"}, "type": "Feature"}
{"geometry": {"coordinates": [-87.149294773, 40.204192554], "type": "Point"}, "id": "1uz9WLyLUoaVDfzDSZT6TDYchhE=", "properties": {"@source_uri": "https://tools.usps.com/UspsToolsRestServices/rest/POLocator/findLocations", "@spider": "usps_collection_boxes", "addr:city": "NEWTOWN", "addr:country": "US", "addr:postcode": "47969", "addr:state": "IN", "addr:street_address": "115 W WASHINGTON ST", "amenity": "post_box", "collection_times": "Mo-Sa 10:00", "indoor": "yes", "nsi_id": "unitedstatespostalservice-a77078", "operator": "United States Postal Service", "operator:short": "USPS", "operator:type": "public", "operator:wikidata": "Q668687", "ref": "4796900002"}, "type": "Feature"}
{"geometry": {"coordinates": [-87.149294773, 40.204192554], "type": "Point"}, "id": "3oH5KSJdFy5m5EZ2m2qvSOYEkd0=", "properties": {"@source_uri": "https://tools.usps.com/UspsToolsRestServices/rest/POLocator/findLocations", "@spider": "usps_collection_boxes", "addr:city": "NEWTOWN", "addr:country": "US", "addr:postcode": "47969", "addr:state": "IN", "addr:street_address": "115 W WASHINGTON ST", "amenity": "post_box", "collection_times": "Mo-Sa 10:00", "indoor": "yes", "nsi_id": "unitedstatespostalservice-a77078", "operator": "United States Postal Service", "operator:short": "USPS", "operator:type": "public", "operator:wikidata": "Q668687", "ref": "4796900003"}, "type": "Feature"}
{"geometry": {"coordinates": [-87.096166384, 40.489497], "type": "Point"}, "id": "8F-fvd0xXi0RB28BLKmwGt_qrfo=", "properties": {"@source_uri": "https://tools.usps.com/UspsToolsRestServices/rest/POLocator/findLocations", "@spider": "usps_collection_boxes", "addr:city": "OTTERBEIN", "addr:country": "US", "addr:postcode": "47970", "addr:state": "IN", "addr:street_address": "105 S MAIN ST", "amenity": "post_box", "collection_times": "Mo-Fr 14:45; Sa 10:45", "note": "ON 12/24 AND 12/31, THIS BOX MAY BE COLLECTED AS EARLY AS 12 NOON.", "nsi_id": "unitedstatespostalservice-a77078", "operator": "United States Postal Service", "operator:short": "USPS", "operator:type": "public", "operator:wikidata": "Q668687", "ref": "4797000001"}, "type": "Feature"}
{"geometry": {"coordinates": [-87.096166384, 40.489497], "type": "Point"}, "id": "HtFWoXYP_ysrvq5Sq3YBKO5a0W0=", "properties": {"@source_uri": "https://tools.usps.com/UspsToolsRestServices/rest/POLocator/findLocations", "@spider": "usps_collection_boxes", "addr:city": "OTTERBEIN", "addr:country": "US", "addr:postcode": "47970", "addr:state": "IN", "addr:street_address": "105 S MAIN ST", "amenity": "post_box", "collection_times": "Mo-Fr 14:45; Sa 10:45", "indoor": "yes", "note": "ON 12/24 AND 12/31, THIS BOX MAY BE COLLECTED AS EARLY AS 12 NOON.", "nsi_id": "unitedstatespostalservice-a77078", "operator": "United States Postal Service", "operator:short": "USPS", "operator:type": "public", "operator:wikidata": "Q668687", "ref": "4797000002"}, "type": "Feature"}
{"geometry": {"coordinates": [-87.096166384, 40.489497], "type": "Point"}, "id": "C2aJbDyOxmtagCaP9K3P4ahnKQo=", "properties": {"@source_uri": "https://tools.usps.com/UspsToolsRestServices/rest/POLocator/findLocations", "@spider": "usps_collection_boxes", "addr:city": "OTTERBEIN", "addr:country": "US", "addr:postcode": "47970", "addr:state": "IN", "addr:street_address": "105 S MAIN ST", "amenity": "post_box", "collection_times": "Mo-Fr 15:00; Sa 11:30", "indoor": "yes", "note": "ON 12/24 AND 12/31, THIS BOX MAY BE COLLECTED AS EARLY AS 12 NOON.", "nsi_id": "unitedstatespostalservice-a77078", "operator": "United States Postal Service", "operator:short": "USPS", "operator:type": "public", "operator:wikidata": "Q668687", "ref": "4797000004"}, "type": "Feature"}
{"geometry": {"coordinates": [-87.24798, 40.521025], "type": "Point"}, "id": "eT1rt9dYICQTEqXI24-jZCcYung=", "properties": {"@source_uri": "https://tools.usps.com/UspsToolsRestServices/rest/POLocator/findLocations", "@spider": "usps_collection_boxes", "addr:city": "OXFORD", "addr:country": "US", "addr:postcode": "47971", "addr:state": "IN", "addr:street_address": "209 S HOWARD ST", "amenity": "post_box", "collection_times": "Mo-Fr 16:00; Sa 11:00", "note": "ON 12/24 AND 12/31, THIS BOX MAY BE COLLECTED AS EARLY AS 12 NOON.", "nsi_id": "unitedstatespostalservice-a77078", "operator": "United States Postal Service", "operator:short": "USPS", "operator:type": "public", "operator:wikidata": "Q668687", "ref": "4797100001"}, "type": "Feature"}
{"geometry": {"coordinates": [-87.248994844, 40.519025749], "type": "Point"}, "id": "Kwd3WBliK-pLJmwwbVAeEINr-7M=", "properties": {"@source_uri": "https://tools.usps.com/UspsToolsRestServices/rest/POLocator/findLocations", "@spider": "usps_collection_boxes", "addr:city": "OXFORD", "addr:country": "US", "addr:postcode": "47971", "addr:state": "IN", "addr:street_address": "209 S HOWARD ST", "amenity": "post_box", "collection_times": "Mo-Fr 16:00; Sa 11:00", "indoor": "yes", "note": "ON 12/24 AND 12/31, THIS BOX MAY BE COLLECTED AS EARLY AS 12 NOON.", "nsi_id": "unitedstatespostalservice-a77078", "operator": "United States Postal Service", "operator:short": "USPS", "operator:type": "public", "operator:wikidata": "Q668687", "ref": "4797100002"}, "type": "Feature"}
{"geometry": {"coordinates": [-87.248994844, 40.519025749], "type": "Point"}, "id": "3hWvOjyrH4SYqK2UDJhDePURFnU=", "properties": {"@source_uri": "https://tools.usps.com/UspsToolsRestServices/rest/POLocator/findLocations", "@spider": "usps_collection_boxes", "addr:city": "OXFORD", "addr:country": "US", "addr:postcode": "47971", "addr:state": "IN", "addr:street_address": "209 S HOWARD ST", "amenity": "post_box", "collection_times": "Mo-Fr 16:00; Sa 11:00", "indoor": "yes", "note": "ON 12/24 AND 12/31, THIS BOX MAY BE COLLECTED AS EARLY AS 12 NOON.", "nsi_id": "unitedstatespostalservice-a77078", "operator": "United States Postal Service", "operator:short": "USPS", "operator:type": "public", "operator:wikidata": "Q668687", "ref": "4797100003"}, "type": "Feature"}
{"geometry": {"coordinates": [-87.248994844, 40.519025749], "type": "Point"}, "id": "hoLlNUk-JtIw_SfXClWvJkIqBGI=", "properties": {"@source_uri": "https://tools.usps.com/UspsToolsRestServices/rest/POLocator/findLocations", "@spider": "usps_collection_boxes", "addr:city": "OXFORD", "addr:country": "US", "addr:postcode": "47971", "addr:state": "IN", "addr:street_address": "209 S HOWARD ST", "amenity": "post_box", "collection_times": "Mo-Fr 16:00; Sa 11:00", "indoor": "yes", "note": "ON 12/24 AND 12/31, THIS BOX MAY BE COLLECTED AS EARLY AS 12 NOON.", "nsi_id": "unitedstatespostalservice-a77078", "operator": "United States Postal Service", "operator:short": "USPS", "operator:type": "public", "operator:wikidata": "Q668687", "ref": "4797100004"}, "type": "Feature"}
{"geometry": {"coordinates": [-87.4330166, 40.050347711], "type": "Point"}, "id": "IZaZ8O0P-UOVqpwddQkhQLLdBTY=", "properties": {"@source_uri": "https://tools.usps.com/UspsToolsRestServices/rest/POLocator/findLocations", "@spider": "usps_collection_boxes", "addr:city": "PERRYSVILLE", "addr:country": "US", "addr:postcode": "47974", "addr:state": "IN", "addr:street_address": "159 E GREEN ST", "amenity": "post_box", "collection_times": "Mo-Fr 15:00; Sa 10:30", "note": "ON 12/24 AND 12/31, THIS BOX MAY BE COLLECTED AS EARLY AS 12 NOON.", "nsi_id": "unitedstatespostalservice-a77078", "operator": "United States Postal Service", "operator:short": "USPS", "operator:type": "public", "operator:wikidata": "Q668687", "ref": "4797400001"}, "type": "Feature"}
{"geometry": {"coordinates": [-87.4330166, 40.050347711], "type": "Point"}, "id": "2ykRo3CWQeCf0KL49NeDb1s72uU=", "properties": {"@source_uri": "https://tools.usps.com/UspsToolsRestServices/rest/POLocator/findLocations", "@spider": "usps_collection_boxes", "addr:city": "PERRYSVILLE", "addr:country": "US", "addr:postcode": "47974", "addr:state": "IN", "addr:street_address": "159 E GREEN ST", "amenity": "post_box", "collection_times": "Mo-Fr 15:00; Sa 10:30", "indoor": "yes", "note": "ON 12/24 AND 12/31, THIS BOX MAY BE COLLECTED AS EARLY AS 12 NOON.", "nsi_id": "unitedstatespostalservice-a77078", "operator": "United States Postal Service", "operator:short": "USPS", "operator:type": "public", "operator:wikidata": "Q668687", "ref": "4797400002"}, "type": "Feature"}
{"geometry": {"coordinates": [-87.4330166, 40.050347711], "type": "Point"}, "id": "b0oz41-kAAEVGmQaIBu5Ut2ulh0=", "properties": {"@source_uri": "https://tools.usps.com/UspsToolsRestServices/rest/POLocator/findLocations", "@spider": "usps_collection_boxes", "addr:city": "PERRYSVILLE", "addr:country": "US", "addr:postcode": "47974", "addr:state": "IN", "addr:street_address": "159 E GREEN ST", "amenity": "post_box", "collection_times": "Mo-Fr 16:00; Sa 11:00", "indoor": "yes", "note": "ON 12/24 AND 12/31, THIS BOX MAY BE COLLECTED AS EARLY AS 12 NOON.", "nsi_id": "unitedstatespostalservice-a77078", "operator": "United States Postal Service", "operator:short": "USPS", "operator:type": "public", "operator:wikidata": "Q668687", "ref": "4797400003"}, "type": "Feature"}
{"geometry": {"coordinates": [-87.253105377, 40.450482], "type": "Point"}, "id": "rn21MO-0xyMotvB9z7HFtjgyr5I=", "properties": {"@source_uri": "https://tools.usps.com/UspsToolsRestServices/rest/POLocator/findLocations", "@spider": "usps_collection_boxes", "addr:city": "PINE VILLAGE", "addr:country": "US", "addr:postcode": "47975", "addr:state": "IN", "addr:street_address": "101 N JEFFERSON ST", "amenity": "post_box", "collection_times": "Mo-Fr 15:30; Sa 11:00", "note": "ON 12/24 AND 12/31, THIS BOX MAY BE COLLECTED AS EARLY AS 12 NOON.", "nsi_id": "unitedstatespostalservice-a77078", "operator": "United States Postal Service", "operator:short": "USPS", "operator:type": "public", "operator:wikidata": "Q668687", "ref": "4797500001"}, "type": "Feature"}
{"geometry": {"coordinates": [-87.253105377, 40.450482], "type": "Point"}, "id": "ykpLa2tWJnVMTcxRb52Y3zBrK5c=", "properties": {"@source_uri": "https://tools.usps.com/UspsToolsRestServices/rest/POLocator/findLocations", "@spider": "usps_collection_boxes", "addr:city": "PINE VILLAGE", "addr:country": "US", "addr:postcode": "47975", "addr:state": "IN", "addr:street_address": "101 N JEFFERSON ST", "amenity": "post_box", "collection_times": "Mo-Fr 11:45; Sa 11:00", "indoor": "yes", "nsi_id": "unitedstatespostalservice-a77078", "operator": "United States Postal Service", "operator:short": "USPS", "operator:type": "public", "operator:wikidata": "Q668687", "ref": "4797500002"}, "type": "Feature"}
{"geometry": {"coordinates": [-87.253105377, 40.450482], "type": "Point"}, "id": "E19GNUWeqUDCNsCE-7FJ_OuO8MA=", "properties": {"@source_uri": "https://tools.usps.com/UspsToolsRestServices/rest/POLocator/findLocations", "@spider": "usps_collection_boxes", "addr:city": "PINE VILLAGE", "addr:country": "US", "addr:postcode": "47975", "addr:state": "IN", "addr:street_address": "101 N JEFFERSON ST", "amenity": "post_box", "collection_times": "Mo-Fr 12:00; Sa 11:00", "indoor": "yes", "nsi_id": "unitedstatespostalservice-a77078", "operator": "United States Postal Service", "operator:short": "USPS", "operator:type": "public", "operator:wikidata": "Q668687", "ref": "4797500003"}, "type": "Feature"}
{"geometry": {"coordinates": [-87.150916742, 40.76001], "type": "Point"}, "id": "xpAPr6jImLuTNbZDHGTv5qSix4w=", "properties": {"@source_uri": "https://tools.usps.com/UspsToolsRestServices/rest/POLocator/findLocations", "@spider": "usps_collection_boxes", "addr:city": "REMINGTON", "addr:country": "US", "addr:postcode": "47977", "addr:state": "IN", "addr:street_address": "31 S OHIO ST", "amenity": "post_box", "collection_times": "Mo-Fr 16:00; Sa 11:00", "note": "ON 12/24 AND 12/31, THIS BOX MAY BE COLLECTED AS EARLY AS 12 NOON.", "nsi_id": "unitedstatespostalservice-a77078", "operator": "United States Postal Service", "operator:short": "USPS", "operator:type": "public", "operator:wikidata": "Q668687", "ref": "4797700002"}, "type": "Feature"}
{"geometry": {"coordinates": [-87.1258707, 40.766862], "type": "Point"}, "id": "KlijMKgCKx9nYVBTetdrOwR2SPI=", "properties": {"@source_uri": "https://tools.usps.com/UspsToolsRestServices/rest/POLocator/findLocations", "@spider": "usps_collection_boxes", "addr:city": "REMINGTON", "addr:country": "US", "addr:postcode": "47977", "addr:state": "IN", "addr:street_address": "4230 W US HIGHWAY 24", "amenity": "post_box", "collection_times": "Mo-Sa 12:00", "nsi_id": "unitedstatespostalservice-a77078", "operator": "United States Postal Service", "operator:short": "USPS", "operator:type": "public", "operator:wikidata": "Q668687", "ref": "4797700004"}, "type": "Feature"}
{"geometry": {"coordinates": [-87.150916742, 40.76001], "type": "Point"}, "id": "RUoWpGocBpN5EfziqQZFbO8Cv8A=", "properties": {"@source_uri": "https://tools.usps.com/UspsToolsRestServices/rest/POLocator/findLocations", "@spider": "usps_collection_boxes", "addr:city": "REMINGTON", "addr:country": "US", "addr:postcode": "47977", "addr:state": "IN", "addr:street_address": "31 S OHIO ST", "amenity": "post_box", "collection_times": "Mo-Fr 16:00; Sa 11:00", "indoor": "yes", "note": "ON 12/24 AND 12/31, THIS BOX MAY BE COLLECTED AS EARLY AS 12 NOON.", "nsi_id": "unitedstatespostalservice-a77078", "operator": "United States Postal Service", "operator:short": "USPS", "operator:type": "public", "operator:wikidata": "Q668687", "ref": "4797700006"}, "type": "Feature"}
{"geometry": {"coordinates": [-87.1246398877, 40.7657934866], "type": "Point"}, "id": "XN_oV9Y7tKdHFWgp7bOYYsWqaHg=", "properties": {"@source_uri": "https://tools.usps.com/UspsToolsRestServices/rest/POLocator/findLocations", "@spider": "usps_collection_boxes", "addr:city": "REMINGTON", "addr:country": "US", "addr:postcode": "47977", "addr:state": "IN", "addr:street_address": "4154 W US HIGHWAY 24", "amenity": "post_box", "collection_times": "Mo-Sa 12:00", "nsi_id": "unitedstatespostalservice-a77078", "operator": "United States Postal Service", "operator:short": "USPS", "operator:type": "public", "operator:wikidata": "Q668687", "ref": "4797700007"}, "type": "Feature"}
{"geometry": {"coordinates": [-87.150916742, 40.76001], "type": "Point"}, "id": "saNw08HdFdq378UV4zB8_oYtSbs=", "properties": {"@source_uri": "https://tools.usps.com/UspsToolsRestServices/rest/POLocator/findLocations", "@spider": "usps_collection_boxes", "addr:city": "REMINGTON", "addr:country": "US", "addr:postcode": "47977", "addr:state": "IN", "addr:street_address": "31 S OHIO ST", "amenity": "post_box", "collection_times": "Mo-Fr 16:00; Sa 11:00", "indoor": "yes", "note": "ON 12/24 AND 12/31, THIS BOX MAY BE COLLECTED AS EARLY AS 12 NOON.", "nsi_id": "unitedstatespostalservice-a77078", "operator": "United States Postal Service", "operator:short": "USPS", "operator:type": "public", "operator:wikidata": "Q668687", "ref": "4797700008"}, "type": "Feature"}
{"geometry": {"coordinates": [-87.150245, 40.939765], "type": "Point"}, "id": "_Z4xbRxq5OYbO_J6fo4JbldH2gE=", "properties": {"@source_uri": "https://tools.usps.com/UspsToolsRestServices/rest/POLocator/findLocations", "@spider": "usps_collection_boxes", "addr:city": "RENSSELAER", "addr:country": "US", "addr:postcode": "47978", "addr:state": "IN", "addr:street_address": "225 S VAN RENSSELAER ST", "amenity": "post_box", "collection_times": "Mo-Fr 16:30; Sa 14:00", "note": "ON 12/24 AND 12/31, THIS BOX MAY BE COLLECTED AS EARLY AS 12 NOON.", "nsi_id": "unitedstatespostalservice-a77078", "operator": "United States Postal Service", "operator:short": "USPS", "operator:type": "public", "operator:wikidata": "Q668687", "ref": "4797800000"}, "type": "Feature"}
{"geometry": {"coordinates": [-87.150245, 40.939765], "type": "Point"}, "id": "F36x-lmKbxUOUi9ZjOAJtPKKmO4=", "properties": {"@source_uri": "https://tools.usps.com/UspsToolsRestServices/rest/POLocator/findLocations", "@spider": "usps_collection_boxes", "addr:city": "RENSSELAER", "addr:country": "US", "addr:postcode": "47978", "addr:state": "IN", "addr:street_address": "225 S VAN RENSSELAER ST", "amenity": "post_box", "collection_times": "Mo-Fr 16:30; Sa 14:00", "note": "ON 12/24 AND 12/31, THIS BOX MAY BE COLLECTED AS EARLY AS 12 NOON.", "nsi_id": "unitedstatespostalservice-a77078", "operator": "United States Postal Service", "operator:short": "USPS", "operator:type": "public", "operator:wikidata": "Q668687", "ref": "4797800001"}, "type": "Feature"}
{"geometry": {"coordinates": [-87.152044672, 40.93592974], "type": "Point"}, "id": "XRQycO0_-cKBOqjZ7GS5JhPg-Kk=", "properties": {"@source_uri": "https://tools.usps.com/UspsToolsRestServices/rest/POLocator/findLocations", "@spider": "usps_collection_boxes", "addr:city": "RENSSELAER", "addr:country": "US", "addr:postcode": "47978", "addr:state": "IN", "addr:street_address": "200 W WASHINGTON ST", "amenity": "post_box", "collection_times": "Mo-Sa 14:00", "note": "ON 12/24 AND 12/31, THIS BOX MAY BE COLLECTED AS EARLY AS 12 NOON.", "nsi_id": "unitedstatespostalservice-a77078", "operator": "United States Postal Service", "operator:short": "USPS", "operator:type": "public", "operator:wikidata": "Q668687", "ref": "4797800008"}, "type": "Feature"}
{"geometry": {"coordinates": [-87.150537, 40.934511], "type": "Point"}, "id": "slJA-KdIL24VDo_6WJZreUCHLMc=", "properties": {"@source_uri": "https://tools.usps.com/UspsToolsRestServices/rest/POLocator/findLocations", "@spider": "usps_collection_boxes", "addr:city": "RENSSELAER", "addr:country": "US", "addr:postcode": "47978", "addr:state": "IN", "addr:street_address": "225 S VAN RENSSELAER ST", "amenity": "post_box", "collection_times": "Mo-Fr 16:30; Sa 14:00", "indoor": "yes", "note": "ON 12/24 AND 12/31, THIS BOX MAY BE COLLECTED AS EARLY AS 12 NOON.", "nsi_id": "unitedstatespostalservice-a77078", "operator": "United States Postal Service", "operator:short": "USPS", "operator:type": "public", "operator:wikidata": "Q668687", "ref": "4797800014"}, "type": "Feature"}
{"geometry": {"coordinates": [-87.150536505, 40.9345086417], "type": "Point"}, "id": "xZw6SnzwsYpS7ekgK4whZl0Cm7o=", "properties": {"@source_uri": "https://tools.usps.com/UspsToolsRestServices/rest/POLocator/findLocations", "@spider": "usps_collection_boxes", "addr:city": "RENSSELAER", "addr:country": "US", "addr:postcode": "47978", "addr:state": "IN", "addr:street_address": "225 S VAN RENSSELAER ST", "amenity": "post_box", "collection_times": "Mo-Fr 16:30; Sa 11:30", "indoor": "yes", "note": "ON 12/24 AND 12/31, THIS BOX MAY BE COLLECTED AS EARLY AS 12 NOON.", "nsi_id": "unitedstatespostalservice-a77078", "operator": "United States Postal Service", "operator:short": "USPS", "operator:type": "public", "operator:wikidata": "Q668687", "ref": "4797800016"}, "type": "Feature"}
{"geometry": {"coordinates": [-87.150245, 40.939765], "type": "Point"}, "id": "wUobRUxSNKcf8TUj-syjWgRAxJA=", "properties": {"@source_uri": "https://tools.usps.com/UspsToolsRestServices/rest/POLocator/findLocations", "@spider": "usps_collection_boxes", "addr:city": "RENSSELAER", "addr:country": "US", "addr:postcode": "47978", "addr:state": "IN", "addr:street_address": "120 W HARRISON ST", "amenity": "post_box", "collection_times": "Mo-Sa 14:00", "note": "ON 12/24 AND 12/31, THIS BOX MAY BE COLLECTED AS EARLY AS 12 NOON.", "nsi_id": "unitedstatespostalservice-a77078", "operator": "United States Postal Service", "operator:short": "USPS", "operator:type": "public", "operator:wikidata": "Q668687", "ref": "4797800017"}, "type": "Feature"}
{"geometry": {"coordinates": [-86.867711026, 40.749369504], "type": "Point"}, "id": "21VNRwpQNRyyL1hF9g_xAJc9vuo=", "properties": {"@source_uri": "https://tools.usps.com/UspsToolsRestServices/rest/POLocator/findLocations", "@spider": "usps_collection_boxes", "addr:city": "REYNOLDS", "addr:country": "US", "addr:postcode": "47980", "addr:state": "IN", "addr:street_address": "801 E 2ND ST", "amenity": "post_box", "collection_times": "Mo-Fr 15:30; Sa 10:30", "note": "ON 12/24 AND 12/31, THIS BOX MAY BE COLLECTED AS EARLY AS 12 NOON.", "nsi_id": "unitedstatespostalservice-a77078", "operator": "United States Postal Service", "operator:short": "USPS", "operator:type": "public", "operator:wikidata": "Q668687", "ref": "4798000001"}, "type": "Feature"}
{"geometry": {"coordinates": [-86.867711026, 40.749369504], "type": "Point"}, "id": "4hYIrzIjveRKWIPaS-yHxf5Ntgs=", "properties": {"@source_uri": "https://tools.usps.com/UspsToolsRestServices/rest/POLocator/findLocations", "@spider": "usps_collection_boxes", "addr:city": "REYNOLDS", "addr:country": "US", "addr:postcode": "47980", "addr:state": "IN", "addr:street_address": "801 E 2ND ST", "amenity": "post_box", "collection_times": "Mo-Fr 12:00; Sa 10:30", "indoor": "yes", "nsi_id": "unitedstatespostalservice-a77078", "operator": "United States Postal Service", "operator:short": "USPS", "operator:type": "public", "operator:wikidata": "Q668687", "ref": "4798000002"}, "type": "Feature"}
{"geometry": {"coordinates": [-86.867711026, 40.749369504], "type": "Point"}, "id": "mbsetq9hTQg89zgbwoag6YeacTw=", "properties": {"@source_uri": "https://tools.usps.com/UspsToolsRestServices/rest/POLocator/findLocations", "@spider": "usps_collection_boxes", "addr:city": "REYNOLDS", "addr:country": "US", "addr:postcode": "47980", "addr:state": "IN", "addr:street_address": "801 E 2ND ST", "amenity": "post_box", "collection_times": "Mo-Fr 12:00; Sa 10:30", "indoor": "yes", "nsi_id": "unitedstatespostalservice-a77078", "operator": "United States Postal Service", "operator:short": "USPS", "operator:type": "public", "operator:wikidata": "Q668687", "ref": "4798000003"}, "type": "Feature"}
{"geometry": {"coordinates": [-86.903827463, 40.251537], "type": "Point"}, "id": "GfgjN66vHFpaUEjlhJaZXaWlGBk=", "properties": {"@source_uri": "https://tools.usps.com/UspsToolsRestServices/rest/POLocator/findLocations", "@spider": "usps_collection_boxes", "addr:city": "ROMNEY", "addr:country": "US", "addr:postcode": "47981", "addr:state": "IN", "addr:street_address": "11440 US HIGHWAY 231 S", "amenity": "post_box", "collection_times": "Mo-Fr 16:00; Sa 11:00", "note": "ON 12/24 AND 12/31, THIS BOX MAY BE COLLECTED AS EARLY AS 12 NOON.", "nsi_id": "unitedstatespostalservice-a77078", "operator": "United States Postal Service", "operator:short": "USPS", "operator:type": "public", "operator:wikidata": "Q668687", "ref": "4798100001"}, "type": "Feature"}
{"geometry": {"coordinates": [-86.903827463, 40.251537], "type": "Point"}, "id": "8G3r5KwagHbxYvF6-KqCSarpqmE=", "properties": {"@source_uri": "https://tools.usps.com/UspsToolsRestServices/rest/POLocator/findLocations", "@spider": "usps_collection_boxes", "addr:city": "ROMNEY", "addr:country": "US", "addr:postcode": "47981", "addr:state": "IN", "addr:street_address": "11440 US HIGHWAY 231 S", "amenity": "post_box", "collection_times": "Mo-Fr 16:00; Sa 10:45", "indoor": "yes", "note": "ON 12/24 AND 12/31, THIS BOX MAY BE COLLECTED AS EARLY AS 12 NOON.", "nsi_id": "unitedstatespostalservice-a77078", "operator": "United States Postal Service", "operator:short": "USPS", "operator:type": "public", "operator:wikidata": "Q668687", "ref": "4798100002"}, "type": "Feature"}
{"geometry": {"coordinates": [-86.903827463, 40.251537], "type": "Point"}, "id": "5TZZgKxo9cUjat0ylb_OubN3_HU=", "properties": {"@source_uri": "https://tools.usps.com/UspsToolsRestServices/rest/POLocator/findLocations", "@spider": "usps_collection_boxes", "addr:city": "ROMNEY", "addr:country": "US", "addr:postcode": "47981", "addr:state": "IN", "addr:street_address": "11440 US HIGHWAY 231 S", "amenity": "post_box", "collection_times": "Mo-Fr 16:00; Sa 10:45", "indoor": "yes", "note": "ON 12/24 AND 12/31, THIS BOX MAY BE COLLECTED AS EARLY AS 12 NOON.", "nsi_id": "unitedstatespostalservice-a77078", "operator": "United States Postal Service", "operator:short": "USPS", "operator:type": "public", "operator:wikidata": "Q668687", "ref": "4798100003"}, "type": "Feature"}
{"geometry": {"coordinates": [-87.53022, 40.197296482], "type": "Point"}, "id": "LGvGHGVvb8OSvPDyysli9sWEnrs=", "properties": {"@source_uri": "https://tools.usps.com/UspsToolsRestServices/rest/POLocator/findLocations", "@spider": "usps_collection_boxes", "addr:city": "STATE LINE", "addr:country": "US", "addr:postcode": "47982", "addr:state": "IN", "addr:street_address": "112 E WOODARD ST", "amenity": "post_box", "collection_times": "Mo-Fr 15:30; Sa 11:30", "note": "ON 12/24 AND 12/31, THIS BOX MAY BE COLLECTED AS EARLY AS 12 NOON.", "nsi_id": "unitedstatespostalservice-a77078", "operator": "United States Postal Service", "operator:short": "USPS", "operator:type": "public", "operator:wikidata": "Q668687", "ref": "4798200001"}, "type": "Feature"}
{"geometry": {"coordinates": [-87.53022, 40.197296482], "type": "Point"}, "id": "KzNYOqp973HN6JsYGnhnshFd5Mk=", "properties": {"@source_uri": "https://tools.usps.com/UspsToolsRestServices/rest/POLocator/findLocations", "@spider": "usps_collection_boxes", "addr:city": "STATE LINE", "addr:country": "US", "addr:postcode": "47982", "addr:state": "IN", "addr:street_address": "112 E WOODARD ST", "amenity": "post_box", "collection_times": "Mo-Sa 09:45", "indoor": "yes", "nsi_id": "unitedstatespostalservice-a77078", "operator": "United States Postal Service", "operator:short": "USPS", "operator:type": "public", "operator:wikidata": "Q668687", "ref": "4798200002"}, "type": "Feature"}
{"geometry": {"coordinates": [-87.53022, 40.197296482], "type": "Point"}, "id": "HtgC9L51CZ9Ju7VMg7nliDAzjR4=", "properties": {"@source_uri": "https://tools.usps.com/UspsToolsRestServices/rest/POLocator/findLocations", "@spider": "usps_collection_boxes", "addr:city": "STATE LINE", "addr:country": "US", "addr:postcode": "47982", "addr:state": "IN", "addr:street_address": "112 E WOODARD ST", "amenity": "post_box", "collection_times": "Mo-Fr 10:00; Sa 11:00", "indoor": "yes", "nsi_id": "unitedstatespostalservice-a77078", "operator": "United States Postal Service", "operator:short": "USPS", "operator:type": "public", "operator:wikidata": "Q668687", "ref": "4798200003"}, "type": "Feature"}
{"geometry": {"coordinates": [-86.7722015, 40.287079], "type": "Point"}, "id": "xcjMOHSKE_XBHq90MQMP30_hqD8=", "properties": {"@source_uri": "https://tools.usps.com/UspsToolsRestServices/rest/POLocator/findLocations", "@spider": "usps_collection_boxes", "addr:city": "STOCKWELL", "addr:country": "US", "addr:postcode": "47983", "addr:state": "IN", "addr:street_address": "9000 COMMERCIAL ST", "amenity": "post_box", "collection_times": "Mo-Fr 16:00; Sa 11:00", "note": "ON 12/24 AND 12/31, THIS BOX MAY BE COLLECTED AS EARLY AS 12 NOON.", "nsi_id": "unitedstatespostalservice-a77078", "operator": "United States Postal Service", "operator:short": "USPS", "operator:type": "public", "operator:wikidata": "Q668687", "ref": "4798300001"}, "type": "Feature"}
{"geometry": {"coordinates": [-86.7722258, 40.287034], "type": "Point"}, "id": "FhTi79dSLJwg5ErbchrLHZMfuLo=", "properties": {"@source_uri": "https://tools.usps.com/UspsToolsRestServices/rest/POLocator/findLocations", "@spider": "usps_collection_boxes", "addr:city": "STOCKWELL", "addr:country": "US", "addr:postcode": "47983", "addr:state": "IN", "addr:street_address": "9000 COMMERCIAL ST", "amenity": "post_box", "collection_times": "Mo-Fr 16:00; Sa 11:00", "indoor": "yes", "note": "ON 12/24 AND 12/31, THIS BOX MAY BE COLLECTED AS EARLY AS 12 NOON.", "nsi_id": "unitedstatespostalservice-a77078", "operator": "United States Postal Service", "operator:short": "USPS", "operator:type": "public", "operator:wikidata": "Q668687", "ref": "4798300002"}, "type": "Feature"}
{"geometry": {"coordinates": [-86.7720897728, 40.2870314598], "type": "Point"}, "id": "8GUVVBZuPTgDqdvbHV0xwLdoZZM=", "properties": {"@source_uri": "https://tools.usps.com/UspsToolsRestServices/rest/POLocator/findLocations", "@spider": "usps_collection_boxes", "addr:city": "STOCKWELL", "addr:country": "US", "addr:postcode": "47983", "addr:state": "IN", "addr:street_address": "9000 COMMERCIAL ST", "amenity": "post_box", "collection_times": "Mo-Fr 16:00; Sa 10:45", "indoor": "yes", "note": "ON 12/24 AND 12/31, THIS BOX MAY BE COLLECTED AS EARLY AS 12 NOON.", "nsi_id": "unitedstatespostalservice-a77078", "operator": "United States Postal Service", "operator:short": "USPS", "operator:type": "public", "operator:wikidata": "Q668687", "ref": "4798300003"}, "type": "Feature"}
{"geometry": {"coordinates": [-87.262296405, 40.113666], "type": "Point"}, "id": "N_u2bDib4e_EOq7s58n0o4HHufc=", "properties": {"@source_uri": "https://tools.usps.com/UspsToolsRestServices/rest/POLocator/findLocations", "@spider": "usps_collection_boxes", "addr:city": "VEEDERSBURG", "addr:country": "US", "addr:postcode": "47987", "addr:state": "IN", "addr:street_address": "220 N MAIN ST", "amenity": "post_box", "collection_times": "Mo-Fr 16:30; Sa 16:45", "note": "ON 12/24 AND 12/31, THIS BOX MAY BE COLLECTED AS EARLY AS 12 NOON.", "nsi_id": "unitedstatespostalservice-a77078", "operator": "United States Postal Service", "operator:short": "USPS", "operator:type": "public", "operator:wikidata": "Q668687", "ref": "4798700001"}, "type": "Feature"}
{"geometry": {"coordinates": [-87.262296405, 40.113666], "type": "Point"}, "id": "EbfpytUpkcDF5l_2Eag-R-iDA1U=", "properties": {"@source_uri": "https://tools.usps.com/UspsToolsRestServices/rest/POLocator/findLocations", "@spider": "usps_collection_boxes", "addr:city": "VEEDERSBURG", "addr:country": "US", "addr:postcode": "47987", "addr:state": "IN", "addr:street_address": "220 N MAIN ST", "amenity": "post_box", "collection_times": "Mo-Fr 16:30; Sa 10:15", "indoor": "yes", "note": "ON 12/24 AND 12/31, THIS BOX MAY BE COLLECTED AS EARLY AS 12 NOON.", "nsi_id": "unitedstatespostalservice-a77078", "operator": "United States Postal Service", "operator:short": "USPS", "operator:type": "public", "operator:wikidata": "Q668687", "ref": "4798700012"}, "type": "Feature"}
{"geometry": {"coordinates": [-87.262296405, 40.113666], "type": "Point"}, "id": "8g1lY8Gy2scgEvgKldxpRSuEMWc=", "properties": {"@source_uri": "https://tools.usps.com/UspsToolsRestServices/rest/POLocator/findLocations", "@spider": "usps_collection_boxes", "addr:city": "VEEDERSBURG", "addr:country": "US", "addr:postcode": "47987", "addr:state": "IN", "addr:street_address": "220 N MAIN ST", "amenity": "post_box", "collection_times": "Mo-Fr 16:30; Sa 10:30", "indoor": "yes", "note": "ON 12/24 AND 12/31, THIS BOX MAY BE COLLECTED AS EARLY AS 12 NOON.", "nsi_id": "unitedstatespostalservice-a77078", "operator": "United States Postal Service", "operator:short": "USPS", "operator:type": "public", "operator:wikidata": "Q668687", "ref": "4798700013"}, "type": "Feature"}
{"geometry": {"coordinates": [-87.0452129594, 39.8767300136], "type": "Point"}, "id": "dlXrKT0KcKvvSZ4bmVXOwZQ6F_c=", "properties": {"@source_uri": "https://tools.usps.com/UspsToolsRestServices/rest/POLocator/findLocations", "@spider": "usps_collection_boxes", "addr:city": "WAVELAND", "addr:country": "US", "addr:postcode": "47989", "addr:state": "IN", "addr:street_address": "103 W MAIN ST", "amenity": "post_box", "collection_times": "Mo-Fr 15:45; Sa 10:45", "note": "ON 12/24 AND 12/31, THIS BOX MAY BE COLLECTED AS EARLY AS 12 NOON.", "nsi_id": "unitedstatespostalservice-a77078", "operator": "United States Postal Service", "operator:short": "USPS", "operator:type": "public", "operator:wikidata": "Q668687", "ref": "4798900001"}, "type": "Feature"}
{"geometry": {"coordinates": [-87.045287, 39.876843], "type": "Point"}, "id": "gdaQ8ZFWpZxIIrmlw5Xn2adk-w0=", "properties": {"@source_uri": "https://tools.usps.com/UspsToolsRestServices/rest/POLocator/findLocations", "@spider": "usps_collection_boxes", "addr:city": "WAVELAND", "addr:country": "US", "addr:postcode": "47989", "addr:state": "IN", "addr:street_address": "103 W MAIN ST", "amenity": "post_box", "collection_times": "Mo-Fr 11:45; Sa 10:45", "indoor": "yes", "nsi_id": "unitedstatespostalservice-a77078", "operator": "United States Postal Service", "operator:short": "USPS", "operator:type": "public", "operator:wikidata": "Q668687", "ref": "4798900003"}, "type": "Feature"}
{"geometry": {"coordinates": [-87.0453103519, 39.8768306345], "type": "Point"}, "id": "ov7Etr47pwQ8Pf0G9xxByxc3KG8=", "properties": {"@source_uri": "https://tools.usps.com/UspsToolsRestServices/rest/POLocator/findLocations", "@spider": "usps_collection_boxes", "addr:city": "WAVELAND", "addr:country": "US", "addr:postcode": "47989", "addr:state": "IN", "addr:street_address": "103 W MAIN ST", "amenity": "post_box", "collection_times": "Mo-Fr 12:00; Sa 10:30", "indoor": "yes", "nsi_id": "unitedstatespostalservice-a77078", "operator": "United States Postal Service", "operator:short": "USPS", "operator:type": "public", "operator:wikidata": "Q668687", "ref": "4798900004"}, "type": "Feature"}
{"geometry": {"coordinates": [-87.064567628, 40.088197424], "type": "Point"}, "id": "N_NETgbtq3uZVl7c8lTJAdlq-g8=", "properties": {"@source_uri": "https://tools.usps.com/UspsToolsRestServices/rest/POLocator/findLocations", "@spider": "usps_collection_boxes", "addr:city": "WAYNETOWN", "addr:country": "US", "addr:postcode": "47990", "addr:state": "IN", "addr:street_address": "104 E WASHINGTON ST", "amenity": "post_box", "collection_times": "Mo-Fr 15:00; Sa 10:30", "note": "ON 12/24 AND 12/31, THIS BOX MAY BE COLLECTED AS EARLY AS 12 NOON.", "nsi_id": "unitedstatespostalservice-a77078", "operator": "United States Postal Service", "operator:short": "USPS", "operator:type": "public", "operator:wikidata": "Q668687", "ref": "4799000001"}, "type": "Feature"}
{"geometry": {"coordinates": [-87.064567628, 40.088197424], "type": "Point"}, "id": "5poBOHA8uhvxpItr40XGyIwm3dU=", "properties": {"@source_uri": "https://tools.usps.com/UspsToolsRestServices/rest/POLocator/findLocations", "@spider": "usps_collection_boxes", "addr:city": "WAYNETOWN", "addr:country": "US", "addr:postcode": "47990", "addr:state": "IN", "addr:street_address": "104 E WASHINGTON ST", "amenity": "post_box", "collection_times": "Mo-Fr 15:00; Sa 10:30", "indoor": "yes", "note": "ON 12/24 AND 12/31, THIS BOX MAY BE COLLECTED AS EARLY AS 12 NOON.", "nsi_id": "unitedstatespostalservice-a77078", "operator": "United States Postal Service", "operator:short": "USPS", "operator:type": "public", "operator:wikidata": "Q668687", "ref": "4799000002"}, "type": "Feature"}
{"geometry": {"coordinates": [-87.064567628, 40.088197424], "type": "Point"}, "id": "QEEySjjJengodJ1YQl6zaAEqw9c=", "properties": {"@source_uri": "https://tools.usps.com/UspsToolsRestServices/rest/POLocator/findLocations", "@spider": "usps_collection_boxes", "addr:city": "WAYNETOWN", "addr:country": "US", "addr:postcode": "47990", "addr:state": "IN", "addr:street_address": "104 E WASHINGTON ST", "amenity": "post_box", "collection_times": "Mo-Fr 16:00; Sa 10:30", "indoor": "yes", "note": "ON 12/24 AND 12/31, THIS BOX MAY BE COLLECTED AS EARLY AS 12 NOON.", "nsi_id": "unitedstatespostalservice-a77078", "operator": "United States Postal Service", "operator:short": "USPS", "operator:type": "public", "operator:wikidata": "Q668687", "ref": "4799000003"}, "type": "Feature"}
{"geometry": {"coordinates": [-87.386576624, 40.264902], "type": "Point"}, "id": "of_2xocPPBXUyOXUsNpIkoni4ok=", "properties": {"@source_uri": "https://tools.usps.com/UspsToolsRestServices/rest/POLocator/findLocations", "@spider": "usps_collection_boxes", "addr:city": "WEST LEBANON", "addr:country": "US", "addr:postcode": "47991", "addr:state": "IN", "addr:street_address": "106 HIGH ST", "amenity": "post_box", "collection_times": "Mo-Fr 15:45; Sa 10:30", "note": "ON 12/24 AND 12/31, THIS BOX MAY BE COLLECTED AS EARLY AS 12 NOON.", "nsi_id": "unitedstatespostalservice-a77078", "operator": "United States Postal Service", "operator:short": "USPS", "operator:type": "public", "operator:wikidata": "Q668687", "ref": "4799100001"}, "type": "Feature"}
{"geometry": {"coordinates": [-87.386576624, 40.264902], "type": "Point"}, "id": "UrsLYb7IcMz8Ps8eYdqiMZ-2Mko=", "properties": {"@source_uri": "https://tools.usps.com/UspsToolsRestServices/rest/POLocator/findLocations", "@spider": "usps_collection_boxes", "addr:city": "WEST LEBANON", "addr:country": "US", "addr:postcode": "47991", "addr:state": "IN", "addr:street_address": "106 HIGH ST", "amenity": "post_box", "collection_times": "Mo-Fr 11:45; Sa 10:30", "indoor": "yes", "nsi_id": "unitedstatespostalservice-a77078", "operator": "United States Postal Service", "operator:short": "USPS", "operator:type": "public", "operator:wikidata": "Q668687", "ref": "4799100003"}, "type": "Feature"}
{"geometry": {"coordinates": [-87.380386, 40.279916], "type": "Point"}, "id": "LolH_5f0zj__bT0h63y0bJVyH-s=", "properties": {"@source_uri": "https://tools.usps.com/UspsToolsRestServices/rest/POLocator/findLocations", "@spider": "usps_collection_boxes", "addr:city": "WEST LEBANON", "addr:country": "US", "addr:postcode": "47991", "addr:state": "IN", "addr:street_address": "3253 W STATE ROAD 28", "amenity": "post_box", "collection_times": "Mo-Sa 10:00", "nsi_id": "unitedstatespostalservice-a77078", "operator": "United States Postal Service", "operator:short": "USPS", "operator:type": "public", "operator:wikidata": "Q668687", "ref": "4799100004"}, "type": "Feature"}
{"geometry": {"coordinates": [-87.386576624, 40.264902], "type": "Point"}, "id": "OT2v-W-_cEIKISxCffIR4wjDRMs=", "properties": {"@source_uri": "https://tools.usps.com/UspsToolsRestServices/rest/POLocator/findLocations", "@spider": "usps_collection_boxes", "addr:city": "WEST LEBANON", "addr:country": "US", "addr:postcode": "47991", "addr:state": "IN", "addr:street_address": "106 HIGH ST", "amenity": "post_box", "collection_times": "Mo-Fr 12:00; Sa 10:30", "indoor": "yes", "nsi_id": "unitedstatespostalservice-a77078", "operator": "United States Postal Service", "operator:short": "USPS", "operator:type": "public", "operator:wikidata": "Q668687", "ref": "4799100005"}, "type": "Feature"}
{"geometry": {"coordinates": [-87.042920079, 40.346153445], "type": "Point"}, "id": "oeUGm7Q9M235kVZaW4PaKZPhZq4=", "properties": {"@source_uri": "https://tools.usps.com/UspsToolsRestServices/rest/POLocator/findLocations", "@spider": "usps_collection_boxes", "addr:city": "WESTPOINT", "addr:country": "US", "addr:postcode": "47992", "addr:state": "IN", "addr:street_address": "4920 WASHINGTON ST", "amenity": "post_box", "collection_times": "Mo-Fr 15:45; Sa 10:30", "note": "ON 12/24 AND 12/31, THIS BOX MAY BE COLLECTED AS EARLY AS 12 NOON.", "nsi_id": "unitedstatespostalservice-a77078", "operator": "United States Postal Service", "operator:short": "USPS", "operator:type": "public", "operator:wikidata": "Q668687", "ref": "4799200000"}, "type": "Feature"}
{"geometry": {"coordinates": [-87.042920079, 40.346153445], "type": "Point"}, "id": "aYGY5k64L21a0sU0txUM9s4AUCM=", "properties": {"@source_uri": "https://tools.usps.com/UspsToolsRestServices/rest/POLocator/findLocations", "@spider": "usps_collection_boxes", "addr:city": "WESTPOINT", "addr:country": "US", "addr:postcode": "47992", "addr:state": "IN", "addr:street_address": "4920 WASHINGTON ST", "amenity": "post_box", "collection_times": "Mo-Fr 11:45; Sa 10:30", "indoor": "yes", "nsi_id": "unitedstatespostalservice-a77078", "operator": "United States Postal Service", "operator:short": "USPS", "operator:type": "public", "operator:wikidata": "Q668687", "ref": "4799200001"}, "type": "Feature"}
{"geometry": {"coordinates": [-87.042920079, 40.346153445], "type": "Point"}, "id": "-5Vyb4OwcCncsMw1PPrOnGfrjHU=", "properties": {"@source_uri": "https://tools.usps.com/UspsToolsRestServices/rest/POLocator/findLocations", "@spider": "usps_collection_boxes", "addr:city": "WESTPOINT", "addr:country": "US", "addr:postcode": "47992", "addr:state": "IN", "addr:street_address": "4920 WASHINGTON ST", "amenity": "post_box", "collection_times": "Mo-Fr 12:00; Sa 10:00", "indoor": "yes", "nsi_id": "unitedstatespostalservice-a77078", "operator": "United States Postal Service", "operator:short": "USPS", "operator:type": "public", "operator:wikidata": "Q668687", "ref": "4799200002"}, "type": "Feature"}
{"geometry": {"coordinates": [-87.293007, 40.288465], "type": "Point"}, "id": "vEKDKMhorN-pfrdrsX35Lobb_DM=", "properties": {"@source_uri": "https://tools.usps.com/UspsToolsRestServices/rest/POLocator/findLocations", "@spider": "usps_collection_boxes", "addr:city": "WILLIAMSPORT", "addr:country": "US", "addr:postcode": "47993", "addr:state": "IN", "addr:street_address": "115 E 2ND ST", "amenity": "post_box", "collection_times": "Mo-Fr 16:30; Sa 11:30", "note": "ON 12/24 AND 12/31, THIS BOX MAY BE COLLECTED AS EARLY AS 12 NOON.", "nsi_id": "unitedstatespostalservice-a77078", "operator": "United States Postal Service", "operator:short": "USPS", "operator:type": "public", "operator:wikidata": "Q668687", "ref": "4799300001"}, "type": "Feature"}
{"geometry": {"coordinates": [-87.4534613, 40.25077], "type": "Point"}, "id": "rh1LnYK_xsF3H9L87s5zvfLRPFU=", "properties": {"@source_uri": "https://tools.usps.com/UspsToolsRestServices/rest/POLocator/findLocations", "@spider": "usps_collection_boxes", "addr:city": "WILLIAMSPORT", "addr:country": "US", "addr:postcode": "47993", "addr:state": "IN", "addr:street_address": "4483 S KENT ST", "amenity": "post_box", "collection_times": "Mo-Sa 11:00", "nsi_id": "unitedstatespostalservice-a77078", "operator": "United States Postal Service", "operator:short": "USPS", "operator:type": "public", "operator:wikidata": "Q668687", "ref": "4799300011"}, "type": "Feature"}
{"geometry": {"coordinates": [-87.293007, 40.288465], "type": "Point"}, "id": "kV9WG4qyU8fL-OWH8XNaukzmeH0=", "properties": {"@source_uri": "https://tools.usps.com/UspsToolsRestServices/rest/POLocator/findLocations", "@spider": "usps_collection_boxes", "addr:city": "WILLIAMSPORT", "addr:country": "US", "addr:postcode": "47993", "addr:state": "IN", "addr:street_address": "115 E 2ND ST", "amenity": "post_box", "collection_times": "Mo-Fr 16:15; Sa 11:30", "indoor": "yes", "note": "ON 12/24 AND 12/31, THIS BOX MAY BE COLLECTED AS EARLY AS 12 NOON.", "nsi_id": "unitedstatespostalservice-a77078", "operator": "United States Postal Service", "operator:short": "USPS", "operator:type": "public", "operator:wikidata": "Q668687", "ref": "4799300012"}, "type": "Feature"}
{"geometry": {"coordinates": [-87.2927456972, 40.288589058], "type": "Point"}, "id": "KMSYRA6BfwaTi0YaK8wK3jQ7fNM=", "properties": {"@source_uri": "https://tools.usps.com/UspsToolsRestServices/rest/POLocator/findLocations", "@spider": "usps_collection_boxes", "addr:city": "WILLIAMSPORT", "addr:country": "US", "addr:postcode": "47993", "addr:state": "IN", "addr:street_address": "115 E 2ND ST", "amenity": "post_box", "collection_times": "Mo-Fr 16:00; Sa 11:00", "indoor": "yes", "note": "ON 12/24 AND 12/31, THIS BOX MAY BE COLLECTED AS EARLY AS 12 NOON.", "nsi_id": "unitedstatespostalservice-a77078", "operator": "United States Postal Service", "operator:short": "USPS", "operator:type": "public", "operator:wikidata": "Q668687", "ref": "4799300013"}, "type": "Feature"}
{"geometry": {"coordinates": [-87.073756, 40.172127], "type": "Point"}, "id": "Vz7BtyY8be2TJf79XckBTwyzI9E=", "properties": {"@source_uri": "https://tools.usps.com/UspsToolsRestServices/rest/POLocator/findLocations", "@spider": "usps_collection_boxes", "addr:city": "WINGATE", "addr:country": "US", "addr:postcode": "47994", "addr:state": "IN", "addr:street_address": "110 W HIGH ST", "amenity": "post_box", "collection_times": "Mo-Fr 14:45; Sa 10:45", "note": "ON 12/24 AND 12/31, THIS BOX MAY BE COLLECTED AS EARLY AS 12 NOON.", "nsi_id": "unitedstatespostalservice-a77078", "operator": "United States Postal Service", "operator:short": "USPS", "operator:type": "public", "operator:wikidata": "Q668687", "ref": "4799400001"}, "type": "Feature"}
{"geometry": {"coordinates": [-87.072999, 40.172222], "type": "Point"}, "id": "u_yVTpgMEEnQ_7jlzd0YKTlnupA=", "properties": {"@source_uri": "https://tools.usps.com/UspsToolsRestServices/rest/POLocator/findLocations", "@spider": "usps_collection_boxes", "addr:city": "WINGATE", "addr:country": "US", "addr:postcode": "47994", "addr:state": "IN", "addr:street_address": "110 W HIGH ST", "amenity": "post_box", "collection_times": "Mo-Fr 12:00; Sa 10:15", "indoor": "yes", "nsi_id": "unitedstatespostalservice-a77078", "operator": "United States Postal Service", "operator:short": "USPS", "operator:type": "public", "operator:wikidata": "Q668687", "ref": "4799400002"}, "type": "Feature"}
{"geometry": {"coordinates": [-87.0730821, 40.175624], "type": "Point"}, "id": "vqWUvajJuQzgkv6W5ov-FtdADdE=", "properties": {"@source_uri": "https://tools.usps.com/UspsToolsRestServices/rest/POLocator/findLocations", "@spider": "usps_collection_boxes", "addr:city": "WINGATE", "addr:country": "US", "addr:postcode": "47994", "addr:state": "IN", "addr:street_address": "102 W BOSCUM ST", "amenity": "post_box", "collection_times": "Mo-Fr 13:00; Sa 12:00", "note": "ON 12/24 AND 12/31, THIS BOX MAY BE COLLECTED AS EARLY AS 12 NOON.", "nsi_id": "unitedstatespostalservice-a77078", "operator": "United States Postal Service", "operator:short": "USPS", "operator:type": "public", "operator:wikidata": "Q668687", "ref": "4799400003"}, "type": "Feature"}
{"geometry": {"coordinates": [-87.073731, 40.1721895029], "type": "Point"}, "id": "pZvctncjNweg57yfkaIFuDMCqFw=", "properties": {"@source_uri": "https://tools.usps.com/UspsToolsRestServices/rest/POLocator/findLocations", "@spider": "usps_collection_boxes", "addr:city": "WINGATE", "addr:country": "US", "addr:postcode": "47994", "addr:state": "IN", "addr:street_address": "110 W HIGH ST", "amenity": "post_box", "collection_times": "Mo-Fr 12:00; Sa 10:30", "indoor": "yes", "nsi_id": "unitedstatespostalservice-a77078", "operator": "United States Postal Service", "operator:short": "USPS", "operator:type": "public", "operator:wikidata": "Q668687", "ref": "4799400004"}, "type": "Feature"}
{"geometry": {"coordinates": [-87.042352028, 40.758536474], "type": "Point"}, "id": "6TbUhplx1LjgFDpwwLWwUTRMQWI=", "properties": {"@source_uri": "https://tools.usps.com/UspsToolsRestServices/rest/POLocator/findLocations", "@spider": "usps_collection_boxes", "addr:city": "WOLCOTT", "addr:country": "US", "addr:postcode": "47995", "addr:state": "IN", "addr:street_address": "131 W MARKET ST", "amenity": "post_box", "collection_times": "Mo-Fr 16:00; Sa 10:30", "note": "ON 12/24 AND 12/31, THIS BOX MAY BE COLLECTED AS EARLY AS 12 NOON.", "nsi_id": "unitedstatespostalservice-a77078", "operator": "United States Postal Service", "operator:short": "USPS", "operator:type": "public", "operator:wikidata": "Q668687", "ref": "4799500001"}, "type": "Feature"}
{"geometry": {"coordinates": [-87.042352028, 40.758536474], "type": "Point"}, "id": "FeIadO-v3vZ2Rw342MHRUX-We00=", "properties": {"@source_uri": "https://tools.usps.com/UspsToolsRestServices/rest/POLocator/findLocations", "@spider": "usps_collection_boxes", "addr:city": "WOLCOTT", "addr:country": "US", "addr:postcode": "47995", "addr:state": "IN", "addr:street_address": "131 W MARKET ST", "amenity": "post_box", "collection_times": "Mo-Fr 14:45; Sa 10:30", "indoor": "yes", "note": "ON 12/24 AND 12/31, THIS BOX MAY BE COLLECTED AS EARLY AS 12 NOON.", "nsi_id": "unitedstatespostalservice-a77078", "operator": "United States Postal Service", "operator:short": "USPS", "operator:type": "public", "operator:wikidata": "Q668687", "ref": "4799500002"}, "type": "Feature"}
{"geometry": {"coordinates": [-87.042352028, 40.758536474], "type": "Point"}, "id": "EPzvsm2raLhbWSXKQ2zv0k07k4Y=", "properties": {"@source_uri": "https://tools.usps.com/UspsToolsRestServices/rest/POLocator/findLocations", "@spider": "usps_collection_boxes", "addr:city": "WOLCOTT", "addr:country": "US", "addr:postcode": "47995", "addr:state": "IN", "addr:street_address": "131 W MARKET ST", "amenity": "post_box", "collection_times": "Mo-Fr 15:00; Sa 10:30", "indoor": "yes", "note": "ON 12/24 AND 12/31, THIS BOX MAY BE COLLECTED AS EARLY AS 12 NOON.", "nsi_id": "unitedstatespostalservice-a77078", "operator": "United States Postal Service", "operator:short": "USPS", "operator:type": "public", "operator:wikidata": "Q668687", "ref": "4799500003"}, "type": "Feature"}
